{"geometry": {"coordinates": [-90.4763092, 38.793375], "type": "Point"}, "id": "cPYqRSdoVXqKW6ZVTqJRYCeu7iw=", "properties": {"@source_uri": "https://tools.usps.com/UspsToolsRestServices/rest/POLocator/findLocations", "@spider": "usps_collection_boxes", "addr:city": "SAINT CHARLES", "addr:country": "US", "addr:postcode": "63301", "addr:state": "MO", "addr:street_address": "1520 N 2ND ST", "amenity": "post_box", "collection_times": "Mo-Sa 13:00", "note": "ON 12/24 AND 12/31, THIS BOX MAY BE COLLECTED AS EARLY AS 12 NOON.", "nsi_id": "unitedstatespostalservice-a77078", "operator": "United States Postal Service", "operator:short": "USPS", "operator:type": "public", "operator:wikidata": "Q668687", "ref": "6330100013"}, "type": "Feature"}
{"geometry": {"coordinates": [-90.4817841, 38.782851], "type": "Point"}, "id": "TLblA4Qk1DfnMkb09H4lNu5B9ag=", "properties": {"@source_uri": "https://tools.usps.com/UspsToolsRestServices/rest/POLocator/findLocations", "@spider": "usps_collection_boxes", "addr:city": "SAINT CHARLES", "addr:country": "US", "addr:postcode": "63301", "addr:state": "MO", "addr:street_address": "200 N 2ND ST", "amenity": "post_box", "collection_times": "Mo-Sa 12:00", "nsi_id": "unitedstatespostalservice-a77078", "operator": "United States Postal Service", "operator:short": "USPS", "operator:type": "public", "operator:wikidata": "Q668687", "ref": "6330100024"}, "type": "Feature"}
{"geometry": {"coordinates": [-90.5240044, 38.785078], "type": "Point"}, "id": "1OA-mDX4DERfbK1ier-1rsXzu98=", "properties": {"@source_uri": "https://tools.usps.com/UspsToolsRestServices/rest/POLocator/findLocations", "@spider": "usps_collection_boxes", "addr:city": "SAINT CHARLES", "addr:country": "US", "addr:postcode": "63301", "addr:state": "MO", "addr:street_address": "2745 W CLAY ST", "amenity": "post_box", "collection_times": "Mo-Sa 12:00", "nsi_id": "unitedstatespostalservice-a77078", "operator": "United States Postal Service", "operator:short": "USPS", "operator:type": "public", "operator:wikidata": "Q668687", "ref": "6330100030"}, "type": "Feature"}
{"geometry": {"coordinates": [-90.4814326, 38.783516], "type": "Point"}, "id": "9Cw21YELZkegbM3FMvkvrx3oZ-A=", "properties": {"@source_uri": "https://tools.usps.com/UspsToolsRestServices/rest/POLocator/findLocations", "@spider": "usps_collection_boxes", "addr:city": "SAINT CHARLES", "addr:country": "US", "addr:postcode": "63301", "addr:state": "MO", "addr:street_address": "301 N 2ND ST", "amenity": "post_box", "collection_times": "Mo-Sa 12:00", "nsi_id": "unitedstatespostalservice-a77078", "operator": "United States Postal Service", "operator:short": "USPS", "operator:type": "public", "operator:wikidata": "Q668687", "ref": "6330100035"}, "type": "Feature"}
{"geometry": {"coordinates": [-90.5384486, 38.78873], "type": "Point"}, "id": "bdtP6JIiFxktOg9-UvbZcqL4xIg=", "properties": {"@source_uri": "https://tools.usps.com/UspsToolsRestServices/rest/POLocator/findLocations", "@spider": "usps_collection_boxes", "addr:city": "SAINT CHARLES", "addr:country": "US", "addr:postcode": "63301", "addr:state": "MO", "addr:street_address": "3130 W CLAY ST", "amenity": "post_box", "collection_times": "Mo-Sa 10:00", "nsi_id": "unitedstatespostalservice-a77078", "operator": "United States Postal Service", "operator:short": "USPS", "operator:type": "public", "operator:wikidata": "Q668687", "ref": "6330100038"}, "type": "Feature"}
{"geometry": {"coordinates": [-90.5629933, 38.797447], "type": "Point"}, "id": "uBygZ_QgyVB6qjWgMjKHn52ewt4=", "properties": {"@source_uri": "https://tools.usps.com/UspsToolsRestServices/rest/POLocator/findLocations", "@spider": "usps_collection_boxes", "addr:city": "SAINT CHARLES", "addr:country": "US", "addr:postcode": "63301", "addr:state": "MO", "addr:street_address": "3737 HARRY S TRUMAN BLVD", "amenity": "post_box", "collection_times": "Mo-Sa 13:00", "note": "ON 12/24 AND 12/31, THIS BOX MAY BE COLLECTED AS EARLY AS 12 NOON.", "nsi_id": "unitedstatespostalservice-a77078", "operator": "United States Postal Service", "operator:short": "USPS", "operator:type": "public", "operator:wikidata": "Q668687", "ref": "6330100039"}, "type": "Feature"}
{"geometry": {"coordinates": [-90.4879329, 38.779], "type": "Point"}, "id": "jA6v-klNcGzHBaA4fzzwBWIBYhg=", "properties": {"@source_uri": "https://tools.usps.com/UspsToolsRestServices/rest/POLocator/findLocations", "@spider": "usps_collection_boxes", "addr:city": "SAINT CHARLES", "addr:country": "US", "addr:postcode": "63301", "addr:state": "MO", "addr:street_address": "500 S 5TH ST", "amenity": "post_box", "collection_times": "Mo-Sa 13:00", "note": "ON 12/24 AND 12/31, THIS BOX MAY BE COLLECTED AS EARLY AS 12 NOON.", "nsi_id": "unitedstatespostalservice-a77078", "operator": "United States Postal Service", "operator:short": "USPS", "operator:type": "public", "operator:wikidata": "Q668687", "ref": "6330100043"}, "type": "Feature"}
{"geometry": {"coordinates": [-90.4903079, 38.782351], "type": "Point"}, "id": "bVlWNMUu9jTsWGzctkHhP6kWXL8=", "properties": {"@source_uri": "https://tools.usps.com/UspsToolsRestServices/rest/POLocator/findLocations", "@spider": "usps_collection_boxes", "addr:city": "SAINT CHARLES", "addr:country": "US", "addr:postcode": "63301", "addr:state": "MO", "addr:street_address": "666 1ST CAPITOL DR", "amenity": "post_box", "collection_times": "Mo-Sa 13:00", "note": "ON 12/24 AND 12/31, THIS BOX MAY BE COLLECTED AS EARLY AS 12 NOON.", "nsi_id": "unitedstatespostalservice-a77078", "operator": "United States Postal Service", "operator:short": "USPS", "operator:type": "public", "operator:wikidata": "Q668687", "ref": "6330100046"}, "type": "Feature"}
{"geometry": {"coordinates": [-90.4903573, 38.788132], "type": "Point"}, "id": "7_WYTRP4JMpm6dc53S3wPzBABVA=", "properties": {"@source_uri": "https://tools.usps.com/UspsToolsRestServices/rest/POLocator/findLocations", "@spider": "usps_collection_boxes", "addr:city": "SAINT CHARLES", "addr:country": "US", "addr:postcode": "63301", "addr:state": "MO", "addr:street_address": "901 CLARK ST", "amenity": "post_box", "collection_times": "Mo-Sa 13:30", "note": "ON 12/24 AND 12/31, THIS BOX MAY BE COLLECTED AS EARLY AS 12 NOON.", "nsi_id": "unitedstatespostalservice-a77078", "operator": "United States Postal Service", "operator:short": "USPS", "operator:type": "public", "operator:wikidata": "Q668687", "ref": "6330100050"}, "type": "Feature"}
{"geometry": {"coordinates": [-90.4911516, 38.775285], "type": "Point"}, "id": "5PoLyvhRysKm7GNGnao9dihM2ls=", "properties": {"@source_uri": "https://tools.usps.com/UspsToolsRestServices/rest/POLocator/findLocations", "@spider": "usps_collection_boxes", "addr:city": "SAINT CHARLES", "addr:country": "US", "addr:postcode": "63301", "addr:state": "MO", "addr:street_address": "1020 S BENTON AVE", "amenity": "post_box", "collection_times": "Mo-Sa 12:00", "nsi_id": "unitedstatespostalservice-a77078", "operator": "United States Postal Service", "operator:short": "USPS", "operator:type": "public", "operator:wikidata": "Q668687", "ref": "6330100058"}, "type": "Feature"}
{"geometry": {"coordinates": [-90.4812719, 38.781142], "type": "Point"}, "id": "BlpvhaBa7B1rT9E8tjnxpZAD0b0=", "properties": {"@source_uri": "https://tools.usps.com/UspsToolsRestServices/rest/POLocator/findLocations", "@spider": "usps_collection_boxes", "addr:city": "SAINT CHARLES", "addr:country": "US", "addr:postcode": "63301", "addr:state": "MO", "addr:street_address": "100 N MAIN ST", "amenity": "post_box", "collection_times": "Mo-Sa 12:00", "nsi_id": "unitedstatespostalservice-a77078", "operator": "United States Postal Service", "operator:short": "USPS", "operator:type": "public", "operator:wikidata": "Q668687", "ref": "6330100071"}, "type": "Feature"}
{"geometry": {"coordinates": [-90.4804811, 38.783035], "type": "Point"}, "id": "ti4Bu7TailBtf_xfK3kSosGICOo=", "properties": {"@source_uri": "https://tools.usps.com/UspsToolsRestServices/rest/POLocator/findLocations", "@spider": "usps_collection_boxes", "addr:city": "SAINT CHARLES", "addr:country": "US", "addr:postcode": "63301", "addr:state": "MO", "addr:street_address": "229 N MAIN ST", "amenity": "post_box", "collection_times": "Mo-Sa 12:00", "nsi_id": "unitedstatespostalservice-a77078", "operator": "United States Postal Service", "operator:short": "USPS", "operator:type": "public", "operator:wikidata": "Q668687", "ref": "6330100072"}, "type": "Feature"}
{"geometry": {"coordinates": [-90.5113138, 38.784871], "type": "Point"}, "id": "fsFvFpzrtjnj3jr7ZlI0GdYWZMI=", "properties": {"@source_uri": "https://tools.usps.com/UspsToolsRestServices/rest/POLocator/findLocations", "@spider": "usps_collection_boxes", "addr:city": "SAINT CHARLES", "addr:country": "US", "addr:postcode": "63301", "addr:state": "MO", "addr:street_address": "2426 W CLAY ST", "amenity": "post_box", "collection_times": "Mo-Sa 12:00", "nsi_id": "unitedstatespostalservice-a77078", "operator": "United States Postal Service", "operator:short": "USPS", "operator:type": "public", "operator:wikidata": "Q668687", "ref": "6330100084"}, "type": "Feature"}
{"geometry": {"coordinates": [-90.4926914905, 38.7713458762], "type": "Point"}, "id": "Qlt_mo3Aqm3O6lWSNXYkDHSZw6o=", "properties": {"@source_uri": "https://tools.usps.com/UspsToolsRestServices/rest/POLocator/findLocations", "@spider": "usps_collection_boxes", "addr:city": "SAINT CHARLES", "addr:country": "US", "addr:postcode": "63301", "addr:state": "MO", "addr:street_address": "1348 S 5TH ST", "amenity": "post_box", "collection_times": "Mo-Sa 12:00", "nsi_id": "unitedstatespostalservice-a77078", "operator": "United States Postal Service", "operator:short": "USPS", "operator:type": "public", "operator:wikidata": "Q668687", "ref": "6330100085"}, "type": "Feature"}
{"geometry": {"coordinates": [-90.4864345, 38.815868], "type": "Point"}, "id": "gGkgDsqthmCad_DYyNXhGvEEGEE=", "properties": {"@source_uri": "https://tools.usps.com/UspsToolsRestServices/rest/POLocator/findLocations", "@spider": "usps_collection_boxes", "addr:city": "SAINT CHARLES", "addr:country": "US", "addr:postcode": "63301", "addr:state": "MO", "addr:street_address": "1200 FOX CHASE DR", "amenity": "post_box", "collection_times": "Mo-Sa 12:00", "nsi_id": "unitedstatespostalservice-a77078", "operator": "United States Postal Service", "operator:short": "USPS", "operator:type": "public", "operator:wikidata": "Q668687", "ref": "6330100087"}, "type": "Feature"}
{"geometry": {"coordinates": [-90.5161061, 38.793072], "type": "Point"}, "id": "ZTYztjterXBxxwki1TgIsXetp3o=", "properties": {"@source_uri": "https://tools.usps.com/UspsToolsRestServices/rest/POLocator/findLocations", "@spider": "usps_collection_boxes", "addr:city": "SAINT CHARLES", "addr:country": "US", "addr:postcode": "63301", "addr:state": "MO", "addr:street_address": "2702 DROSTE RD", "amenity": "post_box", "collection_times": "Mo-Sa 12:00", "nsi_id": "unitedstatespostalservice-a77078", "operator": "United States Postal Service", "operator:short": "USPS", "operator:type": "public", "operator:wikidata": "Q668687", "ref": "6330100092"}, "type": "Feature"}
{"geometry": {"coordinates": [-90.5133222, 38.812397], "type": "Point"}, "id": "vuFjQn7HLhHX7KGV8yxtYUMOIzI=", "properties": {"@source_uri": "https://tools.usps.com/UspsToolsRestServices/rest/POLocator/findLocations", "@spider": "usps_collection_boxes", "addr:city": "SAINT CHARLES", "addr:country": "US", "addr:postcode": "63301", "addr:state": "MO", "addr:street_address": "121 COLE BLVD", "amenity": "post_box", "collection_times": "Mo-Sa 13:00", "note": "ON 12/24 AND 12/31, THIS BOX MAY BE COLLECTED AS EARLY AS 12 NOON.", "nsi_id": "unitedstatespostalservice-a77078", "operator": "United States Postal Service", "operator:short": "USPS", "operator:type": "public", "operator:wikidata": "Q668687", "ref": "6330100093"}, "type": "Feature"}
{"geometry": {"coordinates": [-90.500492926, 38.782312471], "type": "Point"}, "id": "s1ar9GCMl2P-66rVqXPYl1ijQ_o=", "properties": {"@source_uri": "https://tools.usps.com/UspsToolsRestServices/rest/POLocator/findLocations", "@spider": "usps_collection_boxes", "addr:city": "SAINT CHARLES", "addr:country": "US", "addr:postcode": "63301", "addr:state": "MO", "addr:street_address": "1890 1ST CAPITOL DR", "amenity": "post_box", "collection_times": "Mo-Fr 17:30; Sa 16:00", "note": "ON 12/24 AND 12/31, THIS BOX MAY BE COLLECTED AS EARLY AS 12 NOON.", "nsi_id": "unitedstatespostalservice-a77078", "operator": "United States Postal Service", "operator:short": "USPS", "operator:type": "public", "operator:wikidata": "Q668687", "ref": "6330100100"}, "type": "Feature"}
{"geometry": {"coordinates": [-90.5571452, 38.794083], "type": "Point"}, "id": "E-FudkshxeKTwvIQkFPjFAnHbBk=", "properties": {"@source_uri": "https://tools.usps.com/UspsToolsRestServices/rest/POLocator/findLocations", "@spider": "usps_collection_boxes", "addr:city": "SAINT CHARLES", "addr:country": "US", "addr:postcode": "63301", "addr:state": "MO", "addr:street_address": "110 POINT WEST BLVD", "amenity": "post_box", "collection_times": "Mo-Sa 12:00", "nsi_id": "unitedstatespostalservice-a77078", "operator": "United States Postal Service", "operator:short": "USPS", "operator:type": "public", "operator:wikidata": "Q668687", "ref": "6330100103"}, "type": "Feature"}
{"geometry": {"coordinates": [-90.5000990026, 38.7817049812], "type": "Point"}, "id": "sspZcyUCrQXC6CqYZB5yhM3YOQg=", "properties": {"@source_uri": "https://tools.usps.com/UspsToolsRestServices/rest/POLocator/findLocations", "@spider": "usps_collection_boxes", "addr:city": "SAINT CHARLES", "addr:country": "US", "addr:postcode": "63301", "addr:state": "MO", "addr:street_address": "1890 1ST CAPITOL DR", "amenity": "post_box", "collection_times": "Mo-Sa 18:00", "indoor": "yes", "note": "ON 12/24 AND 12/31, THIS BOX MAY BE COLLECTED AS EARLY AS 12 NOON.", "nsi_id": "unitedstatespostalservice-a77078", "operator": "United States Postal Service", "operator:short": "USPS", "operator:type": "public", "operator:wikidata": "Q668687", "ref": "6330100111"}, "type": "Feature"}
{"geometry": {"coordinates": [-90.4861035, 38.811222], "type": "Point"}, "id": "rx8LghpF4wdkLtCEUt0uVv1vbPI=", "properties": {"@source_uri": "https://tools.usps.com/UspsToolsRestServices/rest/POLocator/findLocations", "@spider": "usps_collection_boxes", "addr:city": "SAINT CHARLES", "addr:country": "US", "addr:postcode": "63301", "addr:state": "MO", "addr:street_address": "20 CORPORATE HILLS DR", "amenity": "post_box", "collection_times": "Mo-Sa 13:30", "note": "ON 12/24 AND 12/31, THIS BOX MAY BE COLLECTED AS EARLY AS 12 NOON.", "nsi_id": "unitedstatespostalservice-a77078", "operator": "United States Postal Service", "operator:short": "USPS", "operator:type": "public", "operator:wikidata": "Q668687", "ref": "6330100118"}, "type": "Feature"}
{"geometry": {"coordinates": [-90.5031568, 38.822564], "type": "Point"}, "id": "hcR-1cpD0JdT-4SyxjisHhxuXKM=", "properties": {"@source_uri": "https://tools.usps.com/UspsToolsRestServices/rest/POLocator/findLocations", "@spider": "usps_collection_boxes", "addr:city": "SAINT CHARLES", "addr:country": "US", "addr:postcode": "63301", "addr:state": "MO", "addr:street_address": "3733 MUELLER RD", "amenity": "post_box", "collection_times": "Mo-Sa 12:00", "nsi_id": "unitedstatespostalservice-a77078", "operator": "United States Postal Service", "operator:short": "USPS", "operator:type": "public", "operator:wikidata": "Q668687", "ref": "6330100119"}, "type": "Feature"}
{"geometry": {"coordinates": [-90.5211369929, 38.8287360076], "type": "Point"}, "id": "WooRPWiQpHEdrfp2hHv3wLsfs-E=", "properties": {"@source_uri": "https://tools.usps.com/UspsToolsRestServices/rest/POLocator/findLocations", "@spider": "usps_collection_boxes", "addr:city": "SAINT CHARLES", "addr:country": "US", "addr:postcode": "63301", "addr:state": "MO", "addr:street_address": "3861 FOUNTAIN LAKES PKWY E", "amenity": "post_box", "collection_times": "Mo-Sa 13:00", "note": "ON 12/24 AND 12/31, THIS BOX MAY BE COLLECTED AS EARLY AS 12 NOON.", "nsi_id": "unitedstatespostalservice-a77078", "operator": "United States Postal Service", "operator:short": "USPS", "operator:type": "public", "operator:wikidata": "Q668687", "ref": "6330100121"}, "type": "Feature"}
{"geometry": {"coordinates": [-90.4942794, 38.790208], "type": "Point"}, "id": "SkHP9oANWUEL55jhfrDCC6dUHuE=", "properties": {"@source_uri": "https://tools.usps.com/UspsToolsRestServices/rest/POLocator/findLocations", "@spider": "usps_collection_boxes", "addr:city": "SAINT CHARLES", "addr:country": "US", "addr:postcode": "63301", "addr:state": "MO", "addr:street_address": "1728 W ADAMS ST", "amenity": "post_box", "collection_times": "Mo-Sa 13:30", "note": "ON 12/24 AND 12/31, THIS BOX MAY BE COLLECTED AS EARLY AS 12 NOON.", "nsi_id": "unitedstatespostalservice-a77078", "operator": "United States Postal Service", "operator:short": "USPS", "operator:type": "public", "operator:wikidata": "Q668687", "ref": "6330100122"}, "type": "Feature"}
{"geometry": {"coordinates": [-90.4984514, 38.794829], "type": "Point"}, "id": "O2NaPfBqBCCYDpv0hB98aFne9Wk=", "properties": {"@source_uri": "https://tools.usps.com/UspsToolsRestServices/rest/POLocator/findLocations", "@spider": "usps_collection_boxes", "addr:city": "SAINT CHARLES", "addr:country": "US", "addr:postcode": "63301", "addr:state": "MO", "addr:street_address": "305 HAWTHORN AVE", "amenity": "post_box", "collection_times": "Mo-Sa 13:00", "note": "ON 12/24 AND 12/31, THIS BOX MAY BE COLLECTED AS EARLY AS 12 NOON.", "nsi_id": "unitedstatespostalservice-a77078", "operator": "United States Postal Service", "operator:short": "USPS", "operator:type": "public", "operator:wikidata": "Q668687", "ref": "6330100123"}, "type": "Feature"}
{"geometry": {"coordinates": [-90.500492926, 38.782312471], "type": "Point"}, "id": "-xILb9lyny9QVBQadRKbOA83tGs=", "properties": {"@source_uri": "https://tools.usps.com/UspsToolsRestServices/rest/POLocator/findLocations", "@spider": "usps_collection_boxes", "addr:city": "SAINT CHARLES", "addr:country": "US", "addr:postcode": "63301", "addr:state": "MO", "addr:street_address": "1890 1ST CAPITOL DR", "amenity": "post_box", "collection_times": "Mo-Sa 18:00", "name": "USPS COLLECTION BOX - APC", "note": "ON 12/24 AND 12/31, THIS BOX MAY BE COLLECTED AS EARLY AS 12 NOON.", "nsi_id": "unitedstatespostalservice-a77078", "operator": "United States Postal Service", "operator:short": "USPS", "operator:type": "public", "operator:wikidata": "Q668687", "ref": "6330100129"}, "type": "Feature"}
{"geometry": {"coordinates": [-90.500492926, 38.782312471], "type": "Point"}, "id": "C1KinCT4C9EGpREBXi-km649dGU=", "properties": {"@source_uri": "https://tools.usps.com/UspsToolsRestServices/rest/POLocator/findLocations", "@spider": "usps_collection_boxes", "addr:city": "SAINT CHARLES", "addr:country": "US", "addr:postcode": "63301", "addr:state": "MO", "addr:street_address": "1890 1ST CAPITOL DR", "amenity": "post_box", "collection_times": "Mo-Fr 18:00; Sa 16:00", "indoor": "yes", "note": "ON 12/24 AND 12/31, THIS BOX MAY BE COLLECTED AS EARLY AS 12 NOON.", "nsi_id": "unitedstatespostalservice-a77078", "operator": "United States Postal Service", "operator:short": "USPS", "operator:type": "public", "operator:wikidata": "Q668687", "ref": "6330100135"}, "type": "Feature"}
{"geometry": {"coordinates": [-90.5346017, 38.782923], "type": "Point"}, "id": "k7KdYllJnousDrnmmDa1Wt4Ld80=", "properties": {"@source_uri": "https://tools.usps.com/UspsToolsRestServices/rest/POLocator/findLocations", "@spider": "usps_collection_boxes", "addr:city": "SAINT CHARLES", "addr:country": "US", "addr:postcode": "63303", "addr:state": "MO", "addr:street_address": "2021 ZUMBEHL RD", "amenity": "post_box", "collection_times": "Mo-Fr 14:30; Sa 14:15", "note": "ON 12/24 AND 12/31, THIS BOX MAY BE COLLECTED AS EARLY AS 12 NOON.", "nsi_id": "unitedstatespostalservice-a77078", "operator": "United States Postal Service", "operator:short": "USPS", "operator:type": "public", "operator:wikidata": "Q668687", "ref": "6330300000"}, "type": "Feature"}
{"geometry": {"coordinates": [-90.5198994, 38.771508], "type": "Point"}, "id": "c9_QM873CuCVSs88rE3j7WM613U=", "properties": {"@source_uri": "https://tools.usps.com/UspsToolsRestServices/rest/POLocator/findLocations", "@spider": "usps_collection_boxes", "addr:city": "SAINT CHARLES", "addr:country": "US", "addr:postcode": "63303", "addr:state": "MO", "addr:street_address": "1550 COUNTRY CLUB PLAZA DR", "amenity": "post_box", "collection_times": "Mo-Sa 12:00", "nsi_id": "unitedstatespostalservice-a77078", "operator": "United States Postal Service", "operator:short": "USPS", "operator:type": "public", "operator:wikidata": "Q668687", "ref": "6330300004"}, "type": "Feature"}
{"geometry": {"coordinates": [-90.534922, 38.758105], "type": "Point"}, "id": "UJvgv6r5thZwI9tVft99KhHpYsQ=", "properties": {"@source_uri": "https://tools.usps.com/UspsToolsRestServices/rest/POLocator/findLocations", "@spider": "usps_collection_boxes", "addr:city": "SAINT CHARLES", "addr:country": "US", "addr:postcode": "63303", "addr:state": "MO", "addr:street_address": "2172 BLUESTONE DR", "amenity": "post_box", "collection_times": "Mo-Sa 12:00", "nsi_id": "unitedstatespostalservice-a77078", "operator": "United States Postal Service", "operator:short": "USPS", "operator:type": "public", "operator:wikidata": "Q668687", "ref": "6330300010"}, "type": "Feature"}
{"geometry": {"coordinates": [-90.6172589821, 38.7395609816], "type": "Point"}, "id": "FFNMagtm1eByUQd-EzhexGQbwNg=", "properties": {"@source_uri": "https://tools.usps.com/UspsToolsRestServices/rest/POLocator/findLocations", "@spider": "usps_collection_boxes", "addr:city": "SAINT CHARLES", "addr:country": "US", "addr:postcode": "63303", "addr:state": "MO", "addr:street_address": "4646 S SAINT PETERS PARKWAY", "amenity": "post_box", "collection_times": "Mo-Fr 12:45; Sa 12:00", "note": "ON 12/24 AND 12/31, THIS BOX MAY BE COLLECTED AS EARLY AS 12 NOON.", "nsi_id": "unitedstatespostalservice-a77078", "operator": "United States Postal Service", "operator:short": "USPS", "operator:type": "public", "operator:wikidata": "Q668687", "ref": "6330300014"}, "type": "Feature"}
{"geometry": {"coordinates": [-90.6351619729, 38.7509190053], "type": "Point"}, "id": "icmONw2BkKT-d8LxLegDHzqXy8I=", "properties": {"@source_uri": "https://tools.usps.com/UspsToolsRestServices/rest/POLocator/findLocations", "@spider": "usps_collection_boxes", "addr:city": "SAINT CHARLES", "addr:country": "US", "addr:postcode": "63303", "addr:state": "MO", "addr:street_address": "5988 MID RIVERS MALL DR", "amenity": "post_box", "collection_times": "Mo-Sa 12:00", "nsi_id": "unitedstatespostalservice-a77078", "operator": "United States Postal Service", "operator:short": "USPS", "operator:type": "public", "operator:wikidata": "Q668687", "ref": "6330300018"}, "type": "Feature"}
{"geometry": {"coordinates": [-90.6351704, 38.741222], "type": "Point"}, "id": "AT0GooXutKdMAzMhJs7rYIr4SkQ=", "properties": {"@source_uri": "https://tools.usps.com/UspsToolsRestServices/rest/POLocator/findLocations", "@spider": "usps_collection_boxes", "addr:city": "SAINT CHARLES", "addr:country": "US", "addr:postcode": "63303", "addr:state": "MO", "addr:street_address": "6211 MID RIVERS MALL DR", "amenity": "post_box", "collection_times": "Mo-Sa 12:00", "nsi_id": "unitedstatespostalservice-a77078", "operator": "United States Postal Service", "operator:short": "USPS", "operator:type": "public", "operator:wikidata": "Q668687", "ref": "6330300019"}, "type": "Feature"}
{"geometry": {"coordinates": [-90.5320915, 38.761627], "type": "Point"}, "id": "5jH--_gWu9siip_MXWNEaQEq25s=", "properties": {"@source_uri": "https://tools.usps.com/UspsToolsRestServices/rest/POLocator/findLocations", "@spider": "usps_collection_boxes", "addr:city": "SAINT CHARLES", "addr:country": "US", "addr:postcode": "63303", "addr:state": "MO", "addr:street_address": "2050 S OLD HIGHWAY 94", "amenity": "post_box", "collection_times": "Mo-Sa 14:15", "note": "ON 12/24 AND 12/31, THIS BOX MAY BE COLLECTED AS EARLY AS 12 NOON.", "nsi_id": "unitedstatespostalservice-a77078", "operator": "United States Postal Service", "operator:short": "USPS", "operator:type": "public", "operator:wikidata": "Q668687", "ref": "6330300023"}, "type": "Feature"}
{"geometry": {"coordinates": [-90.5305259, 38.781017], "type": "Point"}, "id": "U7BFIzfQkfS5wonDoydrf8-l4sY=", "properties": {"@source_uri": "https://tools.usps.com/UspsToolsRestServices/rest/POLocator/findLocations", "@spider": "usps_collection_boxes", "addr:city": "SAINT CHARLES", "addr:country": "US", "addr:postcode": "63303", "addr:state": "MO", "addr:street_address": "1950 ZUMBEHL RD", "amenity": "post_box", "collection_times": "Mo-Sa 14:00", "note": "ON 12/24 AND 12/31, THIS BOX MAY BE COLLECTED AS EARLY AS 12 NOON.", "nsi_id": "unitedstatespostalservice-a77078", "operator": "United States Postal Service", "operator:short": "USPS", "operator:type": "public", "operator:wikidata": "Q668687", "ref": "6330300032"}, "type": "Feature"}
{"geometry": {"coordinates": [-90.585533, 38.745199], "type": "Point"}, "id": "-1e3daJ48raZya6gCbjiRFAjVBE=", "properties": {"@source_uri": "https://tools.usps.com/UspsToolsRestServices/rest/POLocator/findLocations", "@spider": "usps_collection_boxes", "addr:city": "SAINT CHARLES", "addr:country": "US", "addr:postcode": "63303", "addr:state": "MO", "addr:street_address": "1600 WOODSTONE DR", "amenity": "post_box", "collection_times": "Mo-Fr 16:00; Sa 15:00", "note": "ON 12/24 AND 12/31, THIS BOX MAY BE COLLECTED AS EARLY AS 12 NOON.", "nsi_id": "unitedstatespostalservice-a77078", "operator": "United States Postal Service", "operator:short": "USPS", "operator:type": "public", "operator:wikidata": "Q668687", "ref": "6330300033"}, "type": "Feature"}
{"geometry": {"coordinates": [-90.5464221, 38.756769], "type": "Point"}, "id": "q0zS-AO6_lomY8xm8e_itjDhXhY=", "properties": {"@source_uri": "https://tools.usps.com/UspsToolsRestServices/rest/POLocator/findLocations", "@spider": "usps_collection_boxes", "addr:city": "SAINT CHARLES", "addr:country": "US", "addr:postcode": "63303", "addr:state": "MO", "addr:street_address": "2480 EXECUTIVE DR", "amenity": "post_box", "collection_times": "Mo-Sa 12:00", "nsi_id": "unitedstatespostalservice-a77078", "operator": "United States Postal Service", "operator:short": "USPS", "operator:type": "public", "operator:wikidata": "Q668687", "ref": "6330300037"}, "type": "Feature"}
{"geometry": {"coordinates": [-90.6451749, 38.728281], "type": "Point"}, "id": "RfsnxSj6VjowOx65JGc7m7uDLqQ=", "properties": {"@source_uri": "https://tools.usps.com/UspsToolsRestServices/rest/POLocator/findLocations", "@spider": "usps_collection_boxes", "addr:city": "SAINT CHARLES", "addr:country": "US", "addr:postcode": "63303", "addr:state": "MO", "addr:street_address": "1003 WOLFRUM RD", "amenity": "post_box", "collection_times": "Mo-Sa 12:00", "nsi_id": "unitedstatespostalservice-a77078", "operator": "United States Postal Service", "operator:short": "USPS", "operator:type": "public", "operator:wikidata": "Q668687", "ref": "6330300041"}, "type": "Feature"}
{"geometry": {"coordinates": [-90.5245986, 38.779491], "type": "Point"}, "id": "yy0hJIvOg4FT4tLfEvoaMF8RJAs=", "properties": {"@source_uri": "https://tools.usps.com/UspsToolsRestServices/rest/POLocator/findLocations", "@spider": "usps_collection_boxes", "addr:city": "SAINT CHARLES", "addr:country": "US", "addr:postcode": "63303", "addr:state": "MO", "addr:street_address": "1550 WALL ST", "amenity": "post_box", "collection_times": "Mo-Fr 14:30", "note": "ON 12/24 AND 12/31, THIS BOX MAY BE COLLECTED AS EARLY AS 12 NOON.", "nsi_id": "unitedstatespostalservice-a77078", "operator": "United States Postal Service", "operator:short": "USPS", "operator:type": "public", "operator:wikidata": "Q668687", "ref": "6330300043"}, "type": "Feature"}
{"geometry": {"coordinates": [-90.5498999, 38.751103], "type": "Point"}, "id": "SsWwtDMvSaEFJlSI9ZoAe_dPMbc=", "properties": {"@source_uri": "https://tools.usps.com/UspsToolsRestServices/rest/POLocator/findLocations", "@spider": "usps_collection_boxes", "addr:city": "SAINT CHARLES", "addr:country": "US", "addr:postcode": "63303", "addr:state": "MO", "addr:street_address": "1600 HERITAGE LNDG", "amenity": "post_box", "collection_times": "Mo-Sa 14:15", "note": "ON 12/24 AND 12/31, THIS BOX MAY BE COLLECTED AS EARLY AS 12 NOON.", "nsi_id": "unitedstatespostalservice-a77078", "operator": "United States Postal Service", "operator:short": "USPS", "operator:type": "public", "operator:wikidata": "Q668687", "ref": "6330300045"}, "type": "Feature"}
{"geometry": {"coordinates": [-90.585255, 38.744268], "type": "Point"}, "id": "YEw0lL4YoXMT0t7bnQUXkZg_SX4=", "properties": {"@source_uri": "https://tools.usps.com/UspsToolsRestServices/rest/POLocator/findLocations", "@spider": "usps_collection_boxes", "addr:city": "SAINT CHARLES", "addr:country": "US", "addr:postcode": "63303", "addr:state": "MO", "addr:street_address": "1600 WOODSTONE DR", "amenity": "post_box", "collection_times": "Mo-Fr 16:00; Sa 13:30", "indoor": "yes", "note": "ON 12/24 AND 12/31, THIS BOX MAY BE COLLECTED AS EARLY AS 12 NOON.", "nsi_id": "unitedstatespostalservice-a77078", "operator": "United States Postal Service", "operator:short": "USPS", "operator:type": "public", "operator:wikidata": "Q668687", "ref": "6330300051"}, "type": "Feature"}
{"geometry": {"coordinates": [-90.586158003, 38.744655467], "type": "Point"}, "id": "x1OE3a_aZ3ePKTUHPC3VMlYLDGM=", "properties": {"@source_uri": "https://tools.usps.com/UspsToolsRestServices/rest/POLocator/findLocations", "@spider": "usps_collection_boxes", "addr:city": "SAINT CHARLES", "addr:country": "US", "addr:postcode": "63303", "addr:state": "MO", "addr:street_address": "1600 WOODSTONE DR", "amenity": "post_box", "collection_times": "Mo-Fr 16:00; Sa 13:30", "indoor": "yes", "note": "ON 12/24 AND 12/31, THIS BOX MAY BE COLLECTED AS EARLY AS 12 NOON.", "nsi_id": "unitedstatespostalservice-a77078", "operator": "United States Postal Service", "operator:short": "USPS", "operator:type": "public", "operator:wikidata": "Q668687", "ref": "6330300056"}, "type": "Feature"}
{"geometry": {"coordinates": [-90.8825456, 38.572804], "type": "Point"}, "id": "_PA6qjfBk-e2-aoxBW4rjhYdUXQ=", "properties": {"@source_uri": "https://tools.usps.com/UspsToolsRestServices/rest/POLocator/findLocations", "@spider": "usps_collection_boxes", "addr:city": "AUGUSTA", "addr:country": "US", "addr:postcode": "63332", "addr:state": "MO", "addr:street_address": "237 FERRY ST", "amenity": "post_box", "collection_times": "Mo-Fr 11:45; Sa 08:45", "nsi_id": "unitedstatespostalservice-a77078", "operator": "United States Postal Service", "operator:short": "USPS", "operator:type": "public", "operator:wikidata": "Q668687", "ref": "6333200001"}, "type": "Feature"}
{"geometry": {"coordinates": [-90.882437, 38.572651], "type": "Point"}, "id": "8wVmrHXnvNf6xsSdOiYFbQ6RYQY=", "properties": {"@source_uri": "https://tools.usps.com/UspsToolsRestServices/rest/POLocator/findLocations", "@spider": "usps_collection_boxes", "addr:city": "AUGUSTA", "addr:country": "US", "addr:postcode": "63332", "addr:state": "MO", "addr:street_address": "237 FERRY ST", "amenity": "post_box", "collection_times": "Mo-Fr 11:45; Sa 08:45", "indoor": "yes", "nsi_id": "unitedstatespostalservice-a77078", "operator": "United States Postal Service", "operator:short": "USPS", "operator:type": "public", "operator:wikidata": "Q668687", "ref": "6333200002"}, "type": "Feature"}
{"geometry": {"coordinates": [-90.882504809, 38.572700499], "type": "Point"}, "id": "nTEo8gT3iMQO8u0MSC_F6FoEdLc=", "properties": {"@source_uri": "https://tools.usps.com/UspsToolsRestServices/rest/POLocator/findLocations", "@spider": "usps_collection_boxes", "addr:city": "AUGUSTA", "addr:country": "US", "addr:postcode": "63332", "addr:state": "MO", "addr:street_address": "237 FERRY ST", "amenity": "post_box", "collection_times": "Mo-Fr 11:45; Sa 08:45", "indoor": "yes", "nsi_id": "unitedstatespostalservice-a77078", "operator": "United States Postal Service", "operator:short": "USPS", "operator:type": "public", "operator:wikidata": "Q668687", "ref": "6333200004"}, "type": "Feature"}
{"geometry": {"coordinates": [-91.354849, 39.006783], "type": "Point"}, "id": "IhHRRP3lXCYNIkKJgW3hBCg9sJo=", "properties": {"@source_uri": "https://tools.usps.com/UspsToolsRestServices/rest/POLocator/findLocations", "@spider": "usps_collection_boxes", "addr:city": "BELLFLOWER", "addr:country": "US", "addr:postcode": "63333", "addr:state": "MO", "addr:street_address": "119 S MAIN ST", "amenity": "post_box", "collection_times": "Mo-Fr 11:45; Sa 09:30", "nsi_id": "unitedstatespostalservice-a77078", "operator": "United States Postal Service", "operator:short": "USPS", "operator:type": "public", "operator:wikidata": "Q668687", "ref": "6333300001"}, "type": "Feature"}
{"geometry": {"coordinates": [-91.354813, 39.006839], "type": "Point"}, "id": "NE5ImAqckH2jJ5wdF3PlEIPVno4=", "properties": {"@source_uri": "https://tools.usps.com/UspsToolsRestServices/rest/POLocator/findLocations", "@spider": "usps_collection_boxes", "addr:city": "BELLFLOWER", "addr:country": "US", "addr:postcode": "63333", "addr:state": "MO", "addr:street_address": "119 S MAIN ST", "amenity": "post_box", "collection_times": "Mo-Fr 11:45; Sa 09:15", "indoor": "yes", "nsi_id": "unitedstatespostalservice-a77078", "operator": "United States Postal Service", "operator:short": "USPS", "operator:type": "public", "operator:wikidata": "Q668687", "ref": "6333300002"}, "type": "Feature"}
{"geometry": {"coordinates": [-91.354878272, 39.006756212], "type": "Point"}, "id": "LmePcg_EUBjqMGKZtXj3vTbv51w=", "properties": {"@source_uri": "https://tools.usps.com/UspsToolsRestServices/rest/POLocator/findLocations", "@spider": "usps_collection_boxes", "addr:city": "BELLFLOWER", "addr:country": "US", "addr:postcode": "63333", "addr:state": "MO", "addr:street_address": "119 S MAIN ST", "amenity": "post_box", "collection_times": "Mo-Fr 11:45; Sa 09:15", "indoor": "yes", "nsi_id": "unitedstatespostalservice-a77078", "operator": "United States Postal Service", "operator:short": "USPS", "operator:type": "public", "operator:wikidata": "Q668687", "ref": "6333300004"}, "type": "Feature"}
{"geometry": {"coordinates": [-91.1819944, 39.330968], "type": "Point"}, "id": "Ch0pXPEUiGTYz4KO7G2w5vEP8ik=", "properties": {"@source_uri": "https://tools.usps.com/UspsToolsRestServices/rest/POLocator/findLocations", "@spider": "usps_collection_boxes", "addr:city": "BOWLING GREEN", "addr:country": "US", "addr:postcode": "63334", "addr:state": "MO", "addr:street_address": "3 TOWN CENTER DR", "amenity": "post_box", "collection_times": "Mo-Fr 16:15; Sa 10:45", "note": "ON 12/24 AND 12/31, THIS BOX MAY BE COLLECTED AS EARLY AS 12 NOON.", "nsi_id": "unitedstatespostalservice-a77078", "operator": "United States Postal Service", "operator:short": "USPS", "operator:type": "public", "operator:wikidata": "Q668687", "ref": "6333400001"}, "type": "Feature"}
{"geometry": {"coordinates": [-91.1941955, 39.342901], "type": "Point"}, "id": "TpVKhV3fygjxV7Pltg_oQVGFV8c=", "properties": {"@source_uri": "https://tools.usps.com/UspsToolsRestServices/rest/POLocator/findLocations", "@spider": "usps_collection_boxes", "addr:city": "BOWLING GREEN", "addr:country": "US", "addr:postcode": "63334", "addr:state": "MO", "addr:street_address": "17 W CHURCH ST", "amenity": "post_box", "collection_times": "Mo-Fr 16:15; Sa 10:45", "indoor": "yes", "note": "ON 12/24 AND 12/31, THIS BOX MAY BE COLLECTED AS EARLY AS 12 NOON.", "nsi_id": "unitedstatespostalservice-a77078", "operator": "United States Postal Service", "operator:short": "USPS", "operator:type": "public", "operator:wikidata": "Q668687", "ref": "6333400002"}, "type": "Feature"}
{"geometry": {"coordinates": [-91.211292, 39.342744], "type": "Point"}, "id": "fquz2yMqsqMZP_RC10EKkkI_-V0=", "properties": {"@source_uri": "https://tools.usps.com/UspsToolsRestServices/rest/POLocator/findLocations", "@spider": "usps_collection_boxes", "addr:city": "BOWLING GREEN", "addr:country": "US", "addr:postcode": "63334", "addr:state": "MO", "addr:street_address": "1800 W CHURCH ST", "amenity": "post_box", "collection_times": "Mo-Sa 09:45", "nsi_id": "unitedstatespostalservice-a77078", "operator": "United States Postal Service", "operator:short": "USPS", "operator:type": "public", "operator:wikidata": "Q668687", "ref": "6333400004"}, "type": "Feature"}
{"geometry": {"coordinates": [-91.2026049, 39.340291], "type": "Point"}, "id": "uEylQDS3hg4NgtBINcFsIvoVrEQ=", "properties": {"@source_uri": "https://tools.usps.com/UspsToolsRestServices/rest/POLocator/findLocations", "@spider": "usps_collection_boxes", "addr:city": "BOWLING GREEN", "addr:country": "US", "addr:postcode": "63334", "addr:state": "MO", "addr:street_address": "201 S BUSINESS HIGHWAY 61", "amenity": "post_box", "collection_times": "Mo-Sa 09:30", "nsi_id": "unitedstatespostalservice-a77078", "operator": "United States Postal Service", "operator:short": "USPS", "operator:type": "public", "operator:wikidata": "Q668687", "ref": "6333400005"}, "type": "Feature"}
{"geometry": {"coordinates": [-91.2044064, 39.339593], "type": "Point"}, "id": "lKxVaaOVI13RFIyqbhsUYFE3o5Y=", "properties": {"@source_uri": "https://tools.usps.com/UspsToolsRestServices/rest/POLocator/findLocations", "@spider": "usps_collection_boxes", "addr:city": "BOWLING GREEN", "addr:country": "US", "addr:postcode": "63334", "addr:state": "MO", "addr:street_address": "300 S 11TH ST", "amenity": "post_box", "collection_times": "Mo-Sa 09:15", "nsi_id": "unitedstatespostalservice-a77078", "operator": "United States Postal Service", "operator:short": "USPS", "operator:type": "public", "operator:wikidata": "Q668687", "ref": "6333400006"}, "type": "Feature"}
{"geometry": {"coordinates": [-91.2086876, 39.340206], "type": "Point"}, "id": "BMYtD5YZgl7iVPzpS8sF0ajD4D4=", "properties": {"@source_uri": "https://tools.usps.com/UspsToolsRestServices/rest/POLocator/findLocations", "@spider": "usps_collection_boxes", "addr:city": "BOWLING GREEN", "addr:country": "US", "addr:postcode": "63334", "addr:state": "MO", "addr:street_address": "305 S 15TH ST", "amenity": "post_box", "collection_times": "Mo-Sa 09:45", "nsi_id": "unitedstatespostalservice-a77078", "operator": "United States Postal Service", "operator:short": "USPS", "operator:type": "public", "operator:wikidata": "Q668687", "ref": "6333400007"}, "type": "Feature"}
{"geometry": {"coordinates": [-91.198773, 39.339316], "type": "Point"}, "id": "G64ORPjS_QQk-jAb0t_WXwi6luM=", "properties": {"@source_uri": "https://tools.usps.com/UspsToolsRestServices/rest/POLocator/findLocations", "@spider": "usps_collection_boxes", "addr:city": "BOWLING GREEN", "addr:country": "US", "addr:postcode": "63334", "addr:state": "MO", "addr:street_address": "320 S HIGH ST", "amenity": "post_box", "collection_times": "Mo-Sa 09:30", "nsi_id": "unitedstatespostalservice-a77078", "operator": "United States Postal Service", "operator:short": "USPS", "operator:type": "public", "operator:wikidata": "Q668687", "ref": "6333400008"}, "type": "Feature"}
{"geometry": {"coordinates": [-91.1975844, 39.343643], "type": "Point"}, "id": "L8Mj2oKg-ssvusBFbhGl2BB5Ays=", "properties": {"@source_uri": "https://tools.usps.com/UspsToolsRestServices/rest/POLocator/findLocations", "@spider": "usps_collection_boxes", "addr:city": "BOWLING GREEN", "addr:country": "US", "addr:postcode": "63334", "addr:state": "MO", "addr:street_address": "405 W CENTENNIAL AVE", "amenity": "post_box", "collection_times": "Mo-Sa 09:45", "nsi_id": "unitedstatespostalservice-a77078", "operator": "United States Postal Service", "operator:short": "USPS", "operator:type": "public", "operator:wikidata": "Q668687", "ref": "6333400009"}, "type": "Feature"}
{"geometry": {"coordinates": [-91.200231, 39.344388], "type": "Point"}, "id": "oTX2ZmmwpUA0M3W7iPqqgzoEXSE=", "properties": {"@source_uri": "https://tools.usps.com/UspsToolsRestServices/rest/POLocator/findLocations", "@spider": "usps_collection_boxes", "addr:city": "BOWLING GREEN", "addr:country": "US", "addr:postcode": "63334", "addr:state": "MO", "addr:street_address": "615 W LOCUST ST", "amenity": "post_box", "collection_times": "Mo-Sa 09:30", "nsi_id": "unitedstatespostalservice-a77078", "operator": "United States Postal Service", "operator:short": "USPS", "operator:type": "public", "operator:wikidata": "Q668687", "ref": "6333400010"}, "type": "Feature"}
{"geometry": {"coordinates": [-91.1954480548, 39.329246561], "type": "Point"}, "id": "44Q22KafzxPg7UK1xj64WJb7H9Y=", "properties": {"@source_uri": "https://tools.usps.com/UspsToolsRestServices/rest/POLocator/findLocations", "@spider": "usps_collection_boxes", "addr:city": "BOWLING GREEN", "addr:country": "US", "addr:postcode": "63334", "addr:state": "MO", "addr:street_address": "18048 HIGHWAY 161", "amenity": "post_box", "collection_times": "Mo-Sa 09:30", "nsi_id": "unitedstatespostalservice-a77078", "operator": "United States Postal Service", "operator:short": "USPS", "operator:type": "public", "operator:wikidata": "Q668687", "ref": "6333400011"}, "type": "Feature"}
{"geometry": {"coordinates": [-91.1894162, 39.342088], "type": "Point"}, "id": "nfAzHUZTY9Qew-L6DhOkCVs-BRk=", "properties": {"@source_uri": "https://tools.usps.com/UspsToolsRestServices/rest/POLocator/findLocations", "@spider": "usps_collection_boxes", "addr:city": "BOWLING GREEN", "addr:country": "US", "addr:postcode": "63334", "addr:state": "MO", "addr:street_address": "221 E MAIN ST", "amenity": "post_box", "collection_times": "Mo-Sa 09:30", "nsi_id": "unitedstatespostalservice-a77078", "operator": "United States Postal Service", "operator:short": "USPS", "operator:type": "public", "operator:wikidata": "Q668687", "ref": "6333400012"}, "type": "Feature"}
{"geometry": {"coordinates": [-91.1954021, 39.342773], "type": "Point"}, "id": "noxpI0mXOFVTBlN6WQdC2KRGYpo=", "properties": {"@source_uri": "https://tools.usps.com/UspsToolsRestServices/rest/POLocator/findLocations", "@spider": "usps_collection_boxes", "addr:city": "BOWLING GREEN", "addr:country": "US", "addr:postcode": "63334", "addr:state": "MO", "addr:street_address": "30 N COURT ST", "amenity": "post_box", "collection_times": "Mo-Sa 09:30", "nsi_id": "unitedstatespostalservice-a77078", "operator": "United States Postal Service", "operator:short": "USPS", "operator:type": "public", "operator:wikidata": "Q668687", "ref": "6333400013"}, "type": "Feature"}
{"geometry": {"coordinates": [-91.1949142, 39.336317], "type": "Point"}, "id": "O_mjyPvOsltAnRWJcLyu1in-EcU=", "properties": {"@source_uri": "https://tools.usps.com/UspsToolsRestServices/rest/POLocator/findLocations", "@spider": "usps_collection_boxes", "addr:city": "BOWLING GREEN", "addr:country": "US", "addr:postcode": "63334", "addr:state": "MO", "addr:street_address": "120 JEFFERSON DR", "amenity": "post_box", "collection_times": "Mo-Sa 09:30", "nsi_id": "unitedstatespostalservice-a77078", "operator": "United States Postal Service", "operator:short": "USPS", "operator:type": "public", "operator:wikidata": "Q668687", "ref": "6333400014"}, "type": "Feature"}
{"geometry": {"coordinates": [-91.1952224, 39.341917], "type": "Point"}, "id": "qNdrAiyawxkH4Lva4Wz96U5jyYQ=", "properties": {"@source_uri": "https://tools.usps.com/UspsToolsRestServices/rest/POLocator/findLocations", "@spider": "usps_collection_boxes", "addr:city": "BOWLING GREEN", "addr:country": "US", "addr:postcode": "63334", "addr:state": "MO", "addr:street_address": "124 W MAIN ST", "amenity": "post_box", "collection_times": "Mo-Sa 09:30", "nsi_id": "unitedstatespostalservice-a77078", "operator": "United States Postal Service", "operator:short": "USPS", "operator:type": "public", "operator:wikidata": "Q668687", "ref": "6333400015"}, "type": "Feature"}
{"geometry": {"coordinates": [-91.1922104, 39.341104], "type": "Point"}, "id": "g48LlBDCXRXILI5ypKAbCnzKbJE=", "properties": {"@source_uri": "https://tools.usps.com/UspsToolsRestServices/rest/POLocator/findLocations", "@spider": "usps_collection_boxes", "addr:city": "BOWLING GREEN", "addr:country": "US", "addr:postcode": "63334", "addr:state": "MO", "addr:street_address": "20 E CHAMP CLARK DR", "amenity": "post_box", "collection_times": "Mo-Sa 09:30", "nsi_id": "unitedstatespostalservice-a77078", "operator": "United States Postal Service", "operator:short": "USPS", "operator:type": "public", "operator:wikidata": "Q668687", "ref": "6333400016"}, "type": "Feature"}
{"geometry": {"coordinates": [-91.2067494, 39.343641], "type": "Point"}, "id": "74jyJ0erSR9kx33SrOdi5Olt8MU=", "properties": {"@source_uri": "https://tools.usps.com/UspsToolsRestServices/rest/POLocator/findLocations", "@spider": "usps_collection_boxes", "addr:city": "BOWLING GREEN", "addr:country": "US", "addr:postcode": "63334", "addr:state": "MO", "addr:street_address": "1301 W CENTENNIAL AVE", "amenity": "post_box", "collection_times": "Mo-Sa 09:45", "nsi_id": "unitedstatespostalservice-a77078", "operator": "United States Postal Service", "operator:short": "USPS", "operator:type": "public", "operator:wikidata": "Q668687", "ref": "6333400017"}, "type": "Feature"}
{"geometry": {"coordinates": [-91.1986561, 39.344418], "type": "Point"}, "id": "R4tAJAD14x9Jp2inKgFHue_GeZU=", "properties": {"@source_uri": "https://tools.usps.com/UspsToolsRestServices/rest/POLocator/findLocations", "@spider": "usps_collection_boxes", "addr:city": "BOWLING GREEN", "addr:country": "US", "addr:postcode": "63334", "addr:state": "MO", "addr:street_address": "505 W LOCUST ST", "amenity": "post_box", "collection_times": "Mo-Sa 09:30", "nsi_id": "unitedstatespostalservice-a77078", "operator": "United States Postal Service", "operator:short": "USPS", "operator:type": "public", "operator:wikidata": "Q668687", "ref": "6333400018"}, "type": "Feature"}
{"geometry": {"coordinates": [-91.2077626, 39.341892], "type": "Point"}, "id": "3wn5ZJpbhkIMHj6lx-mtRon5bUg=", "properties": {"@source_uri": "https://tools.usps.com/UspsToolsRestServices/rest/POLocator/findLocations", "@spider": "usps_collection_boxes", "addr:city": "BOWLING GREEN", "addr:country": "US", "addr:postcode": "63334", "addr:state": "MO", "addr:street_address": "1406 W MAIN ST", "amenity": "post_box", "collection_times": "Mo-Sa 09:45", "nsi_id": "unitedstatespostalservice-a77078", "operator": "United States Postal Service", "operator:short": "USPS", "operator:type": "public", "operator:wikidata": "Q668687", "ref": "6333400019"}, "type": "Feature"}
{"geometry": {"coordinates": [-91.1986647, 39.341939], "type": "Point"}, "id": "aX8rhQm_mB9Y5jNFAS17gjwc-JU=", "properties": {"@source_uri": "https://tools.usps.com/UspsToolsRestServices/rest/POLocator/findLocations", "@spider": "usps_collection_boxes", "addr:city": "BOWLING GREEN", "addr:country": "US", "addr:postcode": "63334", "addr:state": "MO", "addr:street_address": "506 W MAIN ST", "amenity": "post_box", "collection_times": "Mo-Sa 09:30", "nsi_id": "unitedstatespostalservice-a77078", "operator": "United States Postal Service", "operator:short": "USPS", "operator:type": "public", "operator:wikidata": "Q668687", "ref": "6333400020"}, "type": "Feature"}
{"geometry": {"coordinates": [-91.1964119, 39.341941], "type": "Point"}, "id": "YvKCWJ-oa2gbB8_PaLp4s1Tf_DU=", "properties": {"@source_uri": "https://tools.usps.com/UspsToolsRestServices/rest/POLocator/findLocations", "@spider": "usps_collection_boxes", "addr:city": "BOWLING GREEN", "addr:country": "US", "addr:postcode": "63334", "addr:state": "MO", "addr:street_address": "300 W MAIN ST", "amenity": "post_box", "collection_times": "Mo-Sa 09:30", "nsi_id": "unitedstatespostalservice-a77078", "operator": "United States Postal Service", "operator:short": "USPS", "operator:type": "public", "operator:wikidata": "Q668687", "ref": "6333400021"}, "type": "Feature"}
{"geometry": {"coordinates": [-91.1942118, 39.343039], "type": "Point"}, "id": "_q0efDwOIKX6gM-hV0JTnDVZ39A=", "properties": {"@source_uri": "https://tools.usps.com/UspsToolsRestServices/rest/POLocator/findLocations", "@spider": "usps_collection_boxes", "addr:city": "BOWLING GREEN", "addr:country": "US", "addr:postcode": "63334", "addr:state": "MO", "addr:street_address": "17 W CHURCH ST", "amenity": "post_box", "collection_times": "Mo-Fr 16:15; Sa 10:45", "note": "ON 12/24 AND 12/31, THIS BOX MAY BE COLLECTED AS EARLY AS 12 NOON.", "nsi_id": "unitedstatespostalservice-a77078", "operator": "United States Postal Service", "operator:short": "USPS", "operator:type": "public", "operator:wikidata": "Q668687", "ref": "6333400022"}, "type": "Feature"}
{"geometry": {"coordinates": [-91.193962028, 39.34280946], "type": "Point"}, "id": "0bCOSZp3fbDxM3yR2xg8WB93_cc=", "properties": {"@source_uri": "https://tools.usps.com/UspsToolsRestServices/rest/POLocator/findLocations", "@spider": "usps_collection_boxes", "addr:city": "BOWLING GREEN", "addr:country": "US", "addr:postcode": "63334", "addr:state": "MO", "addr:street_address": "17 W CHURCH ST", "amenity": "post_box", "collection_times": "Mo-Fr 16:15; Sa 10:45", "indoor": "yes", "note": "ON 12/24 AND 12/31, THIS BOX MAY BE COLLECTED AS EARLY AS 12 NOON.", "nsi_id": "unitedstatespostalservice-a77078", "operator": "United States Postal Service", "operator:short": "USPS", "operator:type": "public", "operator:wikidata": "Q668687", "ref": "6333400026"}, "type": "Feature"}
{"geometry": {"coordinates": [-90.902974416, 39.369697194], "type": "Point"}, "id": "sXtwO2cIT_WnlBFqTLhnVbTsUoY=", "properties": {"@source_uri": "https://tools.usps.com/UspsToolsRestServices/rest/POLocator/findLocations", "@spider": "usps_collection_boxes", "addr:city": "CLARKSVILLE", "addr:country": "US", "addr:postcode": "63336", "addr:state": "MO", "addr:street_address": "309 S 1ST ST", "amenity": "post_box", "collection_times": "Mo-Fr 14:45; Sa 09:30", "note": "ON 12/24 AND 12/31, THIS BOX MAY BE COLLECTED AS EARLY AS 12 NOON.", "nsi_id": "unitedstatespostalservice-a77078", "operator": "United States Postal Service", "operator:short": "USPS", "operator:type": "public", "operator:wikidata": "Q668687", "ref": "6333600001"}, "type": "Feature"}
{"geometry": {"coordinates": [-90.902974416, 39.369697194], "type": "Point"}, "id": "_HKy6NHuNnC7g2c3ScjqApP1mJA=", "properties": {"@source_uri": "https://tools.usps.com/UspsToolsRestServices/rest/POLocator/findLocations", "@spider": "usps_collection_boxes", "addr:city": "CLARKSVILLE", "addr:country": "US", "addr:postcode": "63336", "addr:state": "MO", "addr:street_address": "309 S 1ST ST", "amenity": "post_box", "collection_times": "Mo-Fr 14:45; Sa 09:30", "indoor": "yes", "note": "ON 12/24 AND 12/31, THIS BOX MAY BE COLLECTED AS EARLY AS 12 NOON.", "nsi_id": "unitedstatespostalservice-a77078", "operator": "United States Postal Service", "operator:short": "USPS", "operator:type": "public", "operator:wikidata": "Q668687", "ref": "6333600002"}, "type": "Feature"}
{"geometry": {"coordinates": [-90.9003806, 39.262878], "type": "Point"}, "id": "B1Z3EXKVwgnt4NybCPQBaIEByEk=", "properties": {"@source_uri": "https://tools.usps.com/UspsToolsRestServices/rest/POLocator/findLocations", "@spider": "usps_collection_boxes", "addr:city": "CLARKSVILLE", "addr:country": "US", "addr:postcode": "63336", "addr:state": "MO", "addr:street_address": "105 N WATER ST", "amenity": "post_box", "collection_times": "Mo-Sa 09:45", "nsi_id": "unitedstatespostalservice-a77078", "operator": "United States Postal Service", "operator:short": "USPS", "operator:type": "public", "operator:wikidata": "Q668687", "ref": "6333600004"}, "type": "Feature"}
{"geometry": {"coordinates": [-90.902974416, 39.369697194], "type": "Point"}, "id": "Uj66b7ZeVLXbheHb0pNA3hwuMd8=", "properties": {"@source_uri": "https://tools.usps.com/UspsToolsRestServices/rest/POLocator/findLocations", "@spider": "usps_collection_boxes", "addr:city": "CLARKSVILLE", "addr:country": "US", "addr:postcode": "63336", "addr:state": "MO", "addr:street_address": "309 S 1ST ST", "amenity": "post_box", "collection_times": "Mo-Fr 14:45", "indoor": "yes", "note": "ON 12/24 AND 12/31, THIS BOX MAY BE COLLECTED AS EARLY AS 12 NOON.", "nsi_id": "unitedstatespostalservice-a77078", "operator": "United States Postal Service", "operator:short": "USPS", "operator:type": "public", "operator:wikidata": "Q668687", "ref": "6333600005"}, "type": "Feature"}
{"geometry": {"coordinates": [-90.6529848878, 38.7457495205], "type": "Point"}, "id": "c07xgzB0lYMc6BgiUmOAkGOGnxM=", "properties": {"@source_uri": "https://tools.usps.com/UspsToolsRestServices/rest/POLocator/findLocations", "@spider": "usps_collection_boxes", "addr:city": "COTTLEVILLE", "addr:country": "US", "addr:postcode": "63338", "addr:state": "MO", "addr:street_address": "5323 HIGHWAY N", "amenity": "post_box", "collection_times": "Mo-Fr 16:45; Sa 12:45", "note": "ON 12/24 AND 12/31, THIS BOX MAY BE COLLECTED AS EARLY AS 12 NOON.", "nsi_id": "unitedstatespostalservice-a77078", "operator": "United States Postal Service", "operator:short": "USPS", "operator:type": "public", "operator:wikidata": "Q668687", "ref": "6333800001"}, "type": "Feature"}
{"geometry": {"coordinates": [-90.6529848878, 38.7457495205], "type": "Point"}, "id": "ifedCcS0kHVnXtjIWm8UgcA1LLI=", "properties": {"@source_uri": "https://tools.usps.com/UspsToolsRestServices/rest/POLocator/findLocations", "@spider": "usps_collection_boxes", "addr:city": "COTTLEVILLE", "addr:country": "US", "addr:postcode": "63338", "addr:state": "MO", "addr:street_address": "5323 HIGHWAY N", "amenity": "post_box", "collection_times": "Mo-Fr 16:45; Sa 12:45", "indoor": "yes", "note": "ON 12/24 AND 12/31, THIS BOX MAY BE COLLECTED AS EARLY AS 12 NOON.", "nsi_id": "unitedstatespostalservice-a77078", "operator": "United States Postal Service", "operator:short": "USPS", "operator:type": "public", "operator:wikidata": "Q668687", "ref": "6333800002"}, "type": "Feature"}
{"geometry": {"coordinates": [-90.652984888, 38.74574952], "type": "Point"}, "id": "qozLzGL5qRzplEyy647rmZnTc24=", "properties": {"@source_uri": "https://tools.usps.com/UspsToolsRestServices/rest/POLocator/findLocations", "@spider": "usps_collection_boxes", "addr:city": "COTTLEVILLE", "addr:country": "US", "addr:postcode": "63338", "addr:state": "MO", "addr:street_address": "5323 HIGHWAY N", "amenity": "post_box", "collection_times": "Mo-Fr 16:45; Sa 12:45", "indoor": "yes", "note": "ON 12/24 AND 12/31, THIS BOX MAY BE COLLECTED AS EARLY AS 12 NOON.", "nsi_id": "unitedstatespostalservice-a77078", "operator": "United States Postal Service", "operator:short": "USPS", "operator:type": "public", "operator:wikidata": "Q668687", "ref": "6333800005"}, "type": "Feature"}
{"geometry": {"coordinates": [-91.341457, 39.345417], "type": "Point"}, "id": "jJ3nJhA1JgNitX9CAQ4r1ss1QF0=", "properties": {"@source_uri": "https://tools.usps.com/UspsToolsRestServices/rest/POLocator/findLocations", "@spider": "usps_collection_boxes", "addr:city": "CURRYVILLE", "addr:country": "US", "addr:postcode": "63339", "addr:state": "MO", "addr:street_address": "104 E MAIN ST", "amenity": "post_box", "collection_times": "Mo-Fr 11:15; Sa 09:15", "indoor": "yes", "nsi_id": "unitedstatespostalservice-a77078", "operator": "United States Postal Service", "operator:short": "USPS", "operator:type": "public", "operator:wikidata": "Q668687", "ref": "6333900001"}, "type": "Feature"}
{"geometry": {"coordinates": [-91.341457, 39.345417], "type": "Point"}, "id": "muAHaAxX4QBVbxRI8YjIraTUXkI=", "properties": {"@source_uri": "https://tools.usps.com/UspsToolsRestServices/rest/POLocator/findLocations", "@spider": "usps_collection_boxes", "addr:city": "CURRYVILLE", "addr:country": "US", "addr:postcode": "63339", "addr:state": "MO", "addr:street_address": "104 E MAIN ST", "amenity": "post_box", "collection_times": "Mo-Fr 11:15; Sa 08:45", "nsi_id": "unitedstatespostalservice-a77078", "operator": "United States Postal Service", "operator:short": "USPS", "operator:type": "public", "operator:wikidata": "Q668687", "ref": "6333900002"}, "type": "Feature"}
{"geometry": {"coordinates": [-91.34151278, 39.345374496], "type": "Point"}, "id": "wpqR7HXKxgxH0RtJNcZM0Awjg-k=", "properties": {"@source_uri": "https://tools.usps.com/UspsToolsRestServices/rest/POLocator/findLocations", "@spider": "usps_collection_boxes", "addr:city": "CURRYVILLE", "addr:country": "US", "addr:postcode": "63339", "addr:state": "MO", "addr:street_address": "104 E MAIN ST", "amenity": "post_box", "collection_times": "Mo-Fr 11:15; Sa 09:15", "indoor": "yes", "nsi_id": "unitedstatespostalservice-a77078", "operator": "United States Postal Service", "operator:short": "USPS", "operator:type": "public", "operator:wikidata": "Q668687", "ref": "6333900004"}, "type": "Feature"}
{"geometry": {"coordinates": [-90.778787, 38.632089], "type": "Point"}, "id": "-TiHg4Dft6J8XrTbYclGhPM5MWc=", "properties": {"@source_uri": "https://tools.usps.com/UspsToolsRestServices/rest/POLocator/findLocations", "@spider": "usps_collection_boxes", "addr:city": "DEFIANCE", "addr:country": "US", "addr:postcode": "63341", "addr:state": "MO", "addr:street_address": "2959 S HIGHWAY 94", "amenity": "post_box", "collection_times": "Mo-Fr 16:00; Sa 10:45", "note": "ON 12/24 AND 12/31, THIS BOX MAY BE COLLECTED AS EARLY AS 12 NOON.", "nsi_id": "unitedstatespostalservice-a77078", "operator": "United States Postal Service", "operator:short": "USPS", "operator:type": "public", "operator:wikidata": "Q668687", "ref": "6334100001"}, "type": "Feature"}
{"geometry": {"coordinates": [-90.8057543, 38.694713], "type": "Point"}, "id": "DmUMJupTDvSQpR5Ng1CIZ4R11g4=", "properties": {"@source_uri": "https://tools.usps.com/UspsToolsRestServices/rest/POLocator/findLocations", "@spider": "usps_collection_boxes", "addr:city": "DEFIANCE", "addr:country": "US", "addr:postcode": "63341", "addr:state": "MO", "addr:street_address": "1300 HIGHWAY DD", "amenity": "post_box", "collection_times": "Mo-Sa 11:00", "nsi_id": "unitedstatespostalservice-a77078", "operator": "United States Postal Service", "operator:short": "USPS", "operator:type": "public", "operator:wikidata": "Q668687", "ref": "6334100002"}, "type": "Feature"}
{"geometry": {"coordinates": [-90.778697, 38.632151], "type": "Point"}, "id": "vmXrJFDkgYsimBxN88H2d1nVrSQ=", "properties": {"@source_uri": "https://tools.usps.com/UspsToolsRestServices/rest/POLocator/findLocations", "@spider": "usps_collection_boxes", "addr:city": "DEFIANCE", "addr:country": "US", "addr:postcode": "63341", "addr:state": "MO", "addr:street_address": "2959 S HIGHWAY 94", "amenity": "post_box", "collection_times": "Mo-Fr 16:00; Sa 10:45", "indoor": "yes", "note": "ON 12/24 AND 12/31, THIS BOX MAY BE COLLECTED AS EARLY AS 12 NOON.", "nsi_id": "unitedstatespostalservice-a77078", "operator": "United States Postal Service", "operator:short": "USPS", "operator:type": "public", "operator:wikidata": "Q668687", "ref": "6334100003"}, "type": "Feature"}
{"geometry": {"coordinates": [-90.778878197, 38.63203925], "type": "Point"}, "id": "wJ3cikPELhPuvdVoGS7pOjmkB9A=", "properties": {"@source_uri": "https://tools.usps.com/UspsToolsRestServices/rest/POLocator/findLocations", "@spider": "usps_collection_boxes", "addr:city": "DEFIANCE", "addr:country": "US", "addr:postcode": "63341", "addr:state": "MO", "addr:street_address": "2959 S HIGHWAY 94", "amenity": "post_box", "collection_times": "Mo-Fr 16:00; Sa 10:45", "indoor": "yes", "note": "ON 12/24 AND 12/31, THIS BOX MAY BE COLLECTED AS EARLY AS 12 NOON.", "nsi_id": "unitedstatespostalservice-a77078", "operator": "United States Postal Service", "operator:short": "USPS", "operator:type": "public", "operator:wikidata": "Q668687", "ref": "6334100005"}, "type": "Feature"}
{"geometry": {"coordinates": [-91.0005462938, 38.6068980236], "type": "Point"}, "id": "Rt91bxlDl_V6mQoaWBawdGdaHdw=", "properties": {"@source_uri": "https://tools.usps.com/UspsToolsRestServices/rest/POLocator/findLocations", "@spider": "usps_collection_boxes", "addr:city": "DUTZOW", "addr:country": "US", "addr:postcode": "63342", "addr:state": "MO", "addr:street_address": "11854 BLUFF RD", "amenity": "post_box", "collection_times": "Mo-Fr 16:15; Sa 10:15", "note": "ON 12/24 AND 12/31, THIS BOX MAY BE COLLECTED AS EARLY AS 12 NOON.", "nsi_id": "unitedstatespostalservice-a77078", "operator": "United States Postal Service", "operator:short": "USPS", "operator:type": "public", "operator:wikidata": "Q668687", "ref": "6334200001"}, "type": "Feature"}
{"geometry": {"coordinates": [-91.0005462938, 38.6068980236], "type": "Point"}, "id": "ltAvMnc0_6ifEvh_HpMK50nT4l4=", "properties": {"@source_uri": "https://tools.usps.com/UspsToolsRestServices/rest/POLocator/findLocations", "@spider": "usps_collection_boxes", "addr:city": "DUTZOW", "addr:country": "US", "addr:postcode": "63342", "addr:state": "MO", "addr:street_address": "11854 BLUFF RD", "amenity": "post_box", "collection_times": "Mo-Fr 16:15; Sa 10:15", "indoor": "yes", "note": "ON 12/24 AND 12/31, THIS BOX MAY BE COLLECTED AS EARLY AS 12 NOON.", "nsi_id": "unitedstatespostalservice-a77078", "operator": "United States Postal Service", "operator:short": "USPS", "operator:type": "public", "operator:wikidata": "Q668687", "ref": "6334200004"}, "type": "Feature"}
{"geometry": {"coordinates": [-90.7832059177, 39.1663101998], "type": "Point"}, "id": "ApNNNW_guOp2u1U6cj_kEaLQ2jQ=", "properties": {"@source_uri": "https://tools.usps.com/UspsToolsRestServices/rest/POLocator/findLocations", "@spider": "usps_collection_boxes", "addr:city": "ELSBERRY", "addr:country": "US", "addr:postcode": "63343", "addr:state": "MO", "addr:street_address": "110 N 3RD ST", "amenity": "post_box", "collection_times": "Mo-Fr 15:45; Sa 10:45", "note": "ON 12/24 AND 12/31, THIS BOX MAY BE COLLECTED AS EARLY AS 12 NOON.", "nsi_id": "unitedstatespostalservice-a77078", "operator": "United States Postal Service", "operator:short": "USPS", "operator:type": "public", "operator:wikidata": "Q668687", "ref": "6334300001"}, "type": "Feature"}
{"geometry": {"coordinates": [-90.782851, 39.165751], "type": "Point"}, "id": "EMKEqoWYc1ZnohkdOWbavFlTDZo=", "properties": {"@source_uri": "https://tools.usps.com/UspsToolsRestServices/rest/POLocator/findLocations", "@spider": "usps_collection_boxes", "addr:city": "ELSBERRY", "addr:country": "US", "addr:postcode": "63343", "addr:state": "MO", "addr:street_address": "110 N 3RD ST", "amenity": "post_box", "collection_times": "Mo-Fr 15:45; Sa 10:45", "indoor": "yes", "note": "ON 12/24 AND 12/31, THIS BOX MAY BE COLLECTED AS EARLY AS 12 NOON.", "nsi_id": "unitedstatespostalservice-a77078", "operator": "United States Postal Service", "operator:short": "USPS", "operator:type": "public", "operator:wikidata": "Q668687", "ref": "6334300011"}, "type": "Feature"}
{"geometry": {"coordinates": [-90.783205918, 39.1663102], "type": "Point"}, "id": "GM0lRVaS3OcDGhkT-PAnbm2rRsU=", "properties": {"@source_uri": "https://tools.usps.com/UspsToolsRestServices/rest/POLocator/findLocations", "@spider": "usps_collection_boxes", "addr:city": "ELSBERRY", "addr:country": "US", "addr:postcode": "63343", "addr:state": "MO", "addr:street_address": "110 N 3RD ST", "amenity": "post_box", "collection_times": "Mo-Fr 15:45; Sa 10:45", "note": "ON 12/24 AND 12/31, THIS BOX MAY BE COLLECTED AS EARLY AS 12 NOON.", "nsi_id": "unitedstatespostalservice-a77078", "operator": "United States Postal Service", "operator:short": "USPS", "operator:type": "public", "operator:wikidata": "Q668687", "ref": "6334300012"}, "type": "Feature"}
{"geometry": {"coordinates": [-90.783205918, 39.1663102], "type": "Point"}, "id": "9CUGTYPDJWkoW6o5h56SdhpD_io=", "properties": {"@source_uri": "https://tools.usps.com/UspsToolsRestServices/rest/POLocator/findLocations", "@spider": "usps_collection_boxes", "addr:city": "ELSBERRY", "addr:country": "US", "addr:postcode": "63343", "addr:state": "MO", "addr:street_address": "110 N 3RD ST", "amenity": "post_box", "collection_times": "Mo-Fr 15:45; Sa 10:45", "indoor": "yes", "note": "ON 12/24 AND 12/31, THIS BOX MAY BE COLLECTED AS EARLY AS 12 NOON.", "nsi_id": "unitedstatespostalservice-a77078", "operator": "United States Postal Service", "operator:short": "USPS", "operator:type": "public", "operator:wikidata": "Q668687", "ref": "6334300015"}, "type": "Feature"}
{"geometry": {"coordinates": [-91.0098672, 39.232044], "type": "Point"}, "id": "filj06N44LwCubOIkQ6mh4XjtHw=", "properties": {"@source_uri": "https://tools.usps.com/UspsToolsRestServices/rest/POLocator/findLocations", "@spider": "usps_collection_boxes", "addr:city": "EOLIA", "addr:country": "US", "addr:postcode": "63344", "addr:state": "MO", "addr:street_address": "107 GREEN ST", "amenity": "post_box", "collection_times": "Mo-Fr 14:45; Sa 08:45", "note": "ON 12/24 AND 12/31, THIS BOX MAY BE COLLECTED AS EARLY AS 12 NOON.", "nsi_id": "unitedstatespostalservice-a77078", "operator": "United States Postal Service", "operator:short": "USPS", "operator:type": "public", "operator:wikidata": "Q668687", "ref": "6334400001"}, "type": "Feature"}
{"geometry": {"coordinates": [-91.009753, 39.232014], "type": "Point"}, "id": "p_teM5nVqYM0-CpGKQ4N9CeCRmk=", "properties": {"@source_uri": "https://tools.usps.com/UspsToolsRestServices/rest/POLocator/findLocations", "@spider": "usps_collection_boxes", "addr:city": "EOLIA", "addr:country": "US", "addr:postcode": "63344", "addr:state": "MO", "addr:street_address": "107 GREEN ST", "amenity": "post_box", "collection_times": "Mo-Fr 14:45; Sa 08:45", "indoor": "yes", "note": "ON 12/24 AND 12/31, THIS BOX MAY BE COLLECTED AS EARLY AS 12 NOON.", "nsi_id": "unitedstatespostalservice-a77078", "operator": "United States Postal Service", "operator:short": "USPS", "operator:type": "public", "operator:wikidata": "Q668687", "ref": "6334400002"}, "type": "Feature"}
{"geometry": {"coordinates": [-91.009872, 39.232169488], "type": "Point"}, "id": "4p2dA7r3VUf2FjsdCm7J12ebGRQ=", "properties": {"@source_uri": "https://tools.usps.com/UspsToolsRestServices/rest/POLocator/findLocations", "@spider": "usps_collection_boxes", "addr:city": "EOLIA", "addr:country": "US", "addr:postcode": "63344", "addr:state": "MO", "addr:street_address": "107 GREEN ST", "amenity": "post_box", "collection_times": "Mo-Fr 14:45", "indoor": "yes", "note": "ON 12/24 AND 12/31, THIS BOX MAY BE COLLECTED AS EARLY AS 12 NOON.", "nsi_id": "unitedstatespostalservice-a77078", "operator": "United States Postal Service", "operator:short": "USPS", "operator:type": "public", "operator:wikidata": "Q668687", "ref": "6334400005"}, "type": "Feature"}
{"geometry": {"coordinates": [-91.577739, 39.271743], "type": "Point"}, "id": "hAcpHZ1QAavHZ6O9v5ofuBKHhTQ=", "properties": {"@source_uri": "https://tools.usps.com/UspsToolsRestServices/rest/POLocator/findLocations", "@spider": "usps_collection_boxes", "addr:city": "FARBER", "addr:country": "US", "addr:postcode": "63345", "addr:state": "MO", "addr:street_address": "101 W FRONT ST", "amenity": "post_box", "collection_times": "Mo-Fr 15:45; Sa 09:15", "note": "ON 12/24 AND 12/31, THIS BOX MAY BE COLLECTED AS EARLY AS 12 NOON.", "nsi_id": "unitedstatespostalservice-a77078", "operator": "United States Postal Service", "operator:short": "USPS", "operator:type": "public", "operator:wikidata": "Q668687", "ref": "6334500001"}, "type": "Feature"}
{"geometry": {"coordinates": [-91.577739, 39.271743], "type": "Point"}, "id": "8OlGHAg4bTvs3y4A9waeTZqzSvw=", "properties": {"@source_uri": "https://tools.usps.com/UspsToolsRestServices/rest/POLocator/findLocations", "@spider": "usps_collection_boxes", "addr:city": "FARBER", "addr:country": "US", "addr:postcode": "63345", "addr:state": "MO", "addr:street_address": "101 W FRONT ST", "amenity": "post_box", "collection_times": "Mo-Fr 15:45; Sa 09:30", "indoor": "yes", "note": "ON 12/24 AND 12/31, THIS BOX MAY BE COLLECTED AS EARLY AS 12 NOON.", "nsi_id": "unitedstatespostalservice-a77078", "operator": "United States Postal Service", "operator:short": "USPS", "operator:type": "public", "operator:wikidata": "Q668687", "ref": "6334500002"}, "type": "Feature"}
{"geometry": {"coordinates": [-91.574925751, 39.272959584], "type": "Point"}, "id": "ilJbXQQ6hs_bpr4ika1f29flzHg=", "properties": {"@source_uri": "https://tools.usps.com/UspsToolsRestServices/rest/POLocator/findLocations", "@spider": "usps_collection_boxes", "addr:city": "FARBER", "addr:country": "US", "addr:postcode": "63345", "addr:state": "MO", "addr:street_address": "101 W FRONT ST", "amenity": "post_box", "collection_times": "Mo-Fr 15:45; Sa 09:30", "indoor": "yes", "note": "ON 12/24 AND 12/31, THIS BOX MAY BE COLLECTED AS EARLY AS 12 NOON.", "nsi_id": "unitedstatespostalservice-a77078", "operator": "United States Postal Service", "operator:short": "USPS", "operator:type": "public", "operator:wikidata": "Q668687", "ref": "6334500003"}, "type": "Feature"}
{"geometry": {"coordinates": [-90.862223, 38.855167], "type": "Point"}, "id": "Ln7k7BB2r9dsJYou-CUdBjRkuo0=", "properties": {"@source_uri": "https://tools.usps.com/UspsToolsRestServices/rest/POLocator/findLocations", "@spider": "usps_collection_boxes", "addr:city": "FLINTHILL", "addr:country": "US", "addr:postcode": "63346", "addr:state": "MO", "addr:street_address": "5025 STATE ROAD P", "amenity": "post_box", "collection_times": "Mo-Sa 10:00", "nsi_id": "unitedstatespostalservice-a77078", "operator": "United States Postal Service", "operator:short": "USPS", "operator:type": "public", "operator:wikidata": "Q668687", "ref": "6334600001"}, "type": "Feature"}
{"geometry": {"coordinates": [-90.86314, 38.85499], "type": "Point"}, "id": "t907KU4EUhVNBY2pA3YDSUXGyGA=", "properties": {"@source_uri": "https://tools.usps.com/UspsToolsRestServices/rest/POLocator/findLocations", "@spider": "usps_collection_boxes", "addr:city": "FLINTHILL", "addr:country": "US", "addr:postcode": "63346", "addr:state": "MO", "addr:street_address": "5025 STATE ROAD P", "amenity": "post_box", "collection_times": "Mo-Sa 10:00", "indoor": "yes", "nsi_id": "unitedstatespostalservice-a77078", "operator": "United States Postal Service", "operator:short": "USPS", "operator:type": "public", "operator:wikidata": "Q668687", "ref": "6334600003"}, "type": "Feature"}
{"geometry": {"coordinates": [-90.742070446, 39.045237421], "type": "Point"}, "id": "fv9e71-skT_rs2hejUd8rIiGIPg=", "properties": {"@source_uri": "https://tools.usps.com/UspsToolsRestServices/rest/POLocator/findLocations", "@spider": "usps_collection_boxes", "addr:city": "FOLEY", "addr:country": "US", "addr:postcode": "63347", "addr:state": "MO", "addr:street_address": "467 ADDISON ST", "amenity": "post_box", "collection_times": "Mo-Fr 16:15; Sa 10:45", "note": "ON 12/24 AND 12/31, THIS BOX MAY BE COLLECTED AS EARLY AS 12 NOON.", "nsi_id": "unitedstatespostalservice-a77078", "operator": "United States Postal Service", "operator:short": "USPS", "operator:type": "public", "operator:wikidata": "Q668687", "ref": "6334700001"}, "type": "Feature"}
{"geometry": {"coordinates": [-90.742070446, 39.045237421], "type": "Point"}, "id": "F8-_8dWEsNiFDmp3Xs7MW-HwPIw=", "properties": {"@source_uri": "https://tools.usps.com/UspsToolsRestServices/rest/POLocator/findLocations", "@spider": "usps_collection_boxes", "addr:city": "FOLEY", "addr:country": "US", "addr:postcode": "63347", "addr:state": "MO", "addr:street_address": "467 ADDISON ST", "amenity": "post_box", "collection_times": "Mo-Fr 16:15; Sa 10:45", "indoor": "yes", "note": "ON 12/24 AND 12/31, THIS BOX MAY BE COLLECTED AS EARLY AS 12 NOON.", "nsi_id": "unitedstatespostalservice-a77078", "operator": "United States Postal Service", "operator:short": "USPS", "operator:type": "public", "operator:wikidata": "Q668687", "ref": "6334700002"}, "type": "Feature"}
{"geometry": {"coordinates": [-90.742070446, 39.045237421], "type": "Point"}, "id": "N4rIufvhbhbTJV2Ua8TCZvGiJuk=", "properties": {"@source_uri": "https://tools.usps.com/UspsToolsRestServices/rest/POLocator/findLocations", "@spider": "usps_collection_boxes", "addr:city": "FOLEY", "addr:country": "US", "addr:postcode": "63347", "addr:state": "MO", "addr:street_address": "467 ADDISON ST", "amenity": "post_box", "collection_times": "Mo-Fr 16:15; Sa 10:45", "indoor": "yes", "note": "ON 12/24 AND 12/31, THIS BOX MAY BE COLLECTED AS EARLY AS 12 NOON.", "nsi_id": "unitedstatespostalservice-a77078", "operator": "United States Postal Service", "operator:short": "USPS", "operator:type": "public", "operator:wikidata": "Q668687", "ref": "6334700004"}, "type": "Feature"}
{"geometry": {"coordinates": [-90.955107, 38.806518], "type": "Point"}, "id": "Fvd_UiVDhjHadmNzBDzuyQ9zd6k=", "properties": {"@source_uri": "https://tools.usps.com/UspsToolsRestServices/rest/POLocator/findLocations", "@spider": "usps_collection_boxes", "addr:city": "FORISTELL", "addr:country": "US", "addr:postcode": "63348", "addr:state": "MO", "addr:street_address": "100 TOWN CENTRE CT", "amenity": "post_box", "collection_times": "Mo-Fr 16:00; Sa 11:00", "note": "ON 12/24 AND 12/31, THIS BOX MAY BE COLLECTED AS EARLY AS 12 NOON.", "nsi_id": "unitedstatespostalservice-a77078", "operator": "United States Postal Service", "operator:short": "USPS", "operator:type": "public", "operator:wikidata": "Q668687", "ref": "6334800001"}, "type": "Feature"}
{"geometry": {"coordinates": [-90.955227, 38.806511], "type": "Point"}, "id": "Jn352Svzdm8RqQBeDkggdzg1Ee4=", "properties": {"@source_uri": "https://tools.usps.com/UspsToolsRestServices/rest/POLocator/findLocations", "@spider": "usps_collection_boxes", "addr:city": "FORISTELL", "addr:country": "US", "addr:postcode": "63348", "addr:state": "MO", "addr:street_address": "100 TOWN CENTRE CT", "amenity": "post_box", "collection_times": "Mo-Fr 16:00; Sa 11:00", "note": "ON 12/24 AND 12/31, THIS BOX MAY BE COLLECTED AS EARLY AS 12 NOON.", "nsi_id": "unitedstatespostalservice-a77078", "operator": "United States Postal Service", "operator:short": "USPS", "operator:type": "public", "operator:wikidata": "Q668687", "ref": "6334800002"}, "type": "Feature"}
{"geometry": {"coordinates": [-90.950101, 38.817217], "type": "Point"}, "id": "8ZkyzXF8RsVP8ndMMllA2OEB33I=", "properties": {"@source_uri": "https://tools.usps.com/UspsToolsRestServices/rest/POLocator/findLocations", "@spider": "usps_collection_boxes", "addr:city": "FORISTELL", "addr:country": "US", "addr:postcode": "63348", "addr:state": "MO", "addr:street_address": "3265 N SERVICE RD E", "amenity": "post_box", "collection_times": "Mo-Sa 10:00", "nsi_id": "unitedstatespostalservice-a77078", "operator": "United States Postal Service", "operator:short": "USPS", "operator:type": "public", "operator:wikidata": "Q668687", "ref": "6334800005"}, "type": "Feature"}
{"geometry": {"coordinates": [-90.9526308, 38.818524], "type": "Point"}, "id": "XtH1oFw5lBEPvMvYL7Y730QRU7Q=", "properties": {"@source_uri": "https://tools.usps.com/UspsToolsRestServices/rest/POLocator/findLocations", "@spider": "usps_collection_boxes", "addr:city": "FORISTELL", "addr:country": "US", "addr:postcode": "63348", "addr:state": "MO", "addr:street_address": "11 HIGHWAY W", "amenity": "post_box", "collection_times": "Mo-Sa 10:00", "nsi_id": "unitedstatespostalservice-a77078", "operator": "United States Postal Service", "operator:short": "USPS", "operator:type": "public", "operator:wikidata": "Q668687", "ref": "6334800006"}, "type": "Feature"}
{"geometry": {"coordinates": [-90.955227, 38.806511], "type": "Point"}, "id": "Ra6IjcxhYzeepOtv61yhLOAOVZA=", "properties": {"@source_uri": "https://tools.usps.com/UspsToolsRestServices/rest/POLocator/findLocations", "@spider": "usps_collection_boxes", "addr:city": "FORISTELL", "addr:country": "US", "addr:postcode": "63348", "addr:state": "MO", "addr:street_address": "100 TOWN CENTRE CT", "amenity": "post_box", "collection_times": "Mo-Fr 16:00; Sa 11:00", "indoor": "yes", "note": "ON 12/24 AND 12/31, THIS BOX MAY BE COLLECTED AS EARLY AS 12 NOON.", "nsi_id": "unitedstatespostalservice-a77078", "operator": "United States Postal Service", "operator:short": "USPS", "operator:type": "public", "operator:wikidata": "Q668687", "ref": "6334800007"}, "type": "Feature"}
{"geometry": {"coordinates": [-90.955227, 38.806511], "type": "Point"}, "id": "zGDuIjIesGGTUqywNj79Ffcf31w=", "properties": {"@source_uri": "https://tools.usps.com/UspsToolsRestServices/rest/POLocator/findLocations", "@spider": "usps_collection_boxes", "addr:city": "FORISTELL", "addr:country": "US", "addr:postcode": "63348", "addr:state": "MO", "addr:street_address": "100 TOWN CENTRE CT", "amenity": "post_box", "collection_times": "Mo-Fr 16:00; Sa 11:00", "indoor": "yes", "note": "ON 12/24 AND 12/31, THIS BOX MAY BE COLLECTED AS EARLY AS 12 NOON.", "nsi_id": "unitedstatespostalservice-a77078", "operator": "United States Postal Service", "operator:short": "USPS", "operator:type": "public", "operator:wikidata": "Q668687", "ref": "6334800008"}, "type": "Feature"}
{"geometry": {"coordinates": [-90.955227, 38.806511], "type": "Point"}, "id": "qfFJoFeSmEe0t18V_eLdettbv44=", "properties": {"@source_uri": "https://tools.usps.com/UspsToolsRestServices/rest/POLocator/findLocations", "@spider": "usps_collection_boxes", "addr:city": "FORISTELL", "addr:country": "US", "addr:postcode": "63348", "addr:state": "MO", "addr:street_address": "100 TOWN CENTRE CT", "amenity": "post_box", "collection_times": "Mo-Fr 16:00; Sa 11:00", "indoor": "yes", "note": "ON 12/24 AND 12/31, THIS BOX MAY BE COLLECTED AS EARLY AS 12 NOON.", "nsi_id": "unitedstatespostalservice-a77078", "operator": "United States Postal Service", "operator:short": "USPS", "operator:type": "public", "operator:wikidata": "Q668687", "ref": "6334800009"}, "type": "Feature"}
{"geometry": {"coordinates": [-90.955043985, 38.806532101], "type": "Point"}, "id": "KMr7Ki9YCh1GAS1SHFVxEqkeMkw=", "properties": {"@source_uri": "https://tools.usps.com/UspsToolsRestServices/rest/POLocator/findLocations", "@spider": "usps_collection_boxes", "addr:city": "FORISTELL", "addr:country": "US", "addr:postcode": "63348", "addr:state": "MO", "addr:street_address": "100 TOWN CENTRE CT", "amenity": "post_box", "collection_times": "Mo-Fr 16:00; Sa 11:00", "indoor": "yes", "note": "ON 12/24 AND 12/31, THIS BOX MAY BE COLLECTED AS EARLY AS 12 NOON.", "nsi_id": "unitedstatespostalservice-a77078", "operator": "United States Postal Service", "operator:short": "USPS", "operator:type": "public", "operator:wikidata": "Q668687", "ref": "6334800011"}, "type": "Feature"}
{"geometry": {"coordinates": [-91.1313561, 38.970431], "type": "Point"}, "id": "2STSl86cM-MC3ynbeurcVe-zeHE=", "properties": {"@source_uri": "https://tools.usps.com/UspsToolsRestServices/rest/POLocator/findLocations", "@spider": "usps_collection_boxes", "addr:city": "HAWK POINT", "addr:country": "US", "addr:postcode": "63349", "addr:state": "MO", "addr:street_address": "441 MAIN ST", "amenity": "post_box", "collection_times": "Mo-Fr 16:15; Sa 09:30", "note": "ON 12/24 AND 12/31, THIS BOX MAY BE COLLECTED AS EARLY AS 12 NOON.", "nsi_id": "unitedstatespostalservice-a77078", "operator": "United States Postal Service", "operator:short": "USPS", "operator:type": "public", "operator:wikidata": "Q668687", "ref": "6334900001"}, "type": "Feature"}
{"geometry": {"coordinates": [-91.1314506, 38.970463], "type": "Point"}, "id": "sUx8ynaC96EFm1a5yN6uTwesv-4=", "properties": {"@source_uri": "https://tools.usps.com/UspsToolsRestServices/rest/POLocator/findLocations", "@spider": "usps_collection_boxes", "addr:city": "HAWK POINT", "addr:country": "US", "addr:postcode": "63349", "addr:state": "MO", "addr:street_address": "441 MAIN ST", "amenity": "post_box", "collection_times": "Mo-Fr 16:15; Sa 09:30", "indoor": "yes", "note": "ON 12/24 AND 12/31, THIS BOX MAY BE COLLECTED AS EARLY AS 12 NOON.", "nsi_id": "unitedstatespostalservice-a77078", "operator": "United States Postal Service", "operator:short": "USPS", "operator:type": "public", "operator:wikidata": "Q668687", "ref": "6334900002"}, "type": "Feature"}
{"geometry": {"coordinates": [-91.131218369, 38.970434588], "type": "Point"}, "id": "PxEje9KuPMH6qbK6h51a-EVg_ZY=", "properties": {"@source_uri": "https://tools.usps.com/UspsToolsRestServices/rest/POLocator/findLocations", "@spider": "usps_collection_boxes", "addr:city": "HAWK POINT", "addr:country": "US", "addr:postcode": "63349", "addr:state": "MO", "addr:street_address": "441 MAIN ST", "amenity": "post_box", "collection_times": "Mo-Fr 16:15; Sa 09:30", "indoor": "yes", "note": "ON 12/24 AND 12/31, THIS BOX MAY BE COLLECTED AS EARLY AS 12 NOON.", "nsi_id": "unitedstatespostalservice-a77078", "operator": "United States Postal Service", "operator:short": "USPS", "operator:type": "public", "operator:wikidata": "Q668687", "ref": "6334900004"}, "type": "Feature"}
{"geometry": {"coordinates": [-91.381749, 38.877718], "type": "Point"}, "id": "jevzZHvyj-_YYGBW0xoYmJebeIE=", "properties": {"@source_uri": "https://tools.usps.com/UspsToolsRestServices/rest/POLocator/findLocations", "@spider": "usps_collection_boxes", "addr:city": "HIGH HILL", "addr:country": "US", "addr:postcode": "63350", "addr:state": "MO", "addr:street_address": "879 BOONESLICK RD", "amenity": "post_box", "collection_times": "Mo-Fr 16:45; Sa 09:00", "note": "ON 12/24 AND 12/31, THIS BOX MAY BE COLLECTED AS EARLY AS 12 NOON.", "nsi_id": "unitedstatespostalservice-a77078", "operator": "United States Postal Service", "operator:short": "USPS", "operator:type": "public", "operator:wikidata": "Q668687", "ref": "6335000000"}, "type": "Feature"}
{"geometry": {"coordinates": [-91.38187, 38.87772], "type": "Point"}, "id": "vaWODXPBPofSfoi1V7OImP6_kmc=", "properties": {"@source_uri": "https://tools.usps.com/UspsToolsRestServices/rest/POLocator/findLocations", "@spider": "usps_collection_boxes", "addr:city": "HIGH HILL", "addr:country": "US", "addr:postcode": "63350", "addr:state": "MO", "addr:street_address": "879 BOONESLICK RD", "amenity": "post_box", "collection_times": "Mo-Fr 16:45; Sa 10:45", "indoor": "yes", "note": "ON 12/24 AND 12/31, THIS BOX MAY BE COLLECTED AS EARLY AS 12 NOON.", "nsi_id": "unitedstatespostalservice-a77078", "operator": "United States Postal Service", "operator:short": "USPS", "operator:type": "public", "operator:wikidata": "Q668687", "ref": "6335000002"}, "type": "Feature"}
{"geometry": {"coordinates": [-91.383596467, 38.878238217], "type": "Point"}, "id": "NiJggeA5W47boQ4iK330j5P37pI=", "properties": {"@source_uri": "https://tools.usps.com/UspsToolsRestServices/rest/POLocator/findLocations", "@spider": "usps_collection_boxes", "addr:city": "HIGH HILL", "addr:country": "US", "addr:postcode": "63350", "addr:state": "MO", "addr:street_address": "879 BOONESLICK RD", "amenity": "post_box", "collection_times": "Mo-Fr 16:45; Sa 10:45", "indoor": "yes", "note": "ON 12/24 AND 12/31, THIS BOX MAY BE COLLECTED AS EARLY AS 12 NOON.", "nsi_id": "unitedstatespostalservice-a77078", "operator": "United States Postal Service", "operator:short": "USPS", "operator:type": "public", "operator:wikidata": "Q668687", "ref": "6335000005"}, "type": "Feature"}
{"geometry": {"coordinates": [-91.305417, 38.853709], "type": "Point"}, "id": "K9G-lFN5AUVSNpq4sHjTvYAAuhM=", "properties": {"@source_uri": "https://tools.usps.com/UspsToolsRestServices/rest/POLocator/findLocations", "@spider": "usps_collection_boxes", "addr:city": "JONESBURG", "addr:country": "US", "addr:postcode": "63351", "addr:state": "MO", "addr:street_address": "116 E LION ST", "amenity": "post_box", "collection_times": "Mo-Fr 16:00; Sa 10:00", "note": "ON 12/24 AND 12/31, THIS BOX MAY BE COLLECTED AS EARLY AS 12 NOON.", "nsi_id": "unitedstatespostalservice-a77078", "operator": "United States Postal Service", "operator:short": "USPS", "operator:type": "public", "operator:wikidata": "Q668687", "ref": "6335100001"}, "type": "Feature"}
{"geometry": {"coordinates": [-91.305477, 38.853757], "type": "Point"}, "id": "MEneHZuol72LI0EWDMYpJNy5eGI=", "properties": {"@source_uri": "https://tools.usps.com/UspsToolsRestServices/rest/POLocator/findLocations", "@spider": "usps_collection_boxes", "addr:city": "JONESBURG", "addr:country": "US", "addr:postcode": "63351", "addr:state": "MO", "addr:street_address": "116 E LION ST", "amenity": "post_box", "collection_times": "Mo-Fr 16:00; Sa 10:00", "indoor": "yes", "note": "ON 12/24 AND 12/31, THIS BOX MAY BE COLLECTED AS EARLY AS 12 NOON.", "nsi_id": "unitedstatespostalservice-a77078", "operator": "United States Postal Service", "operator:short": "USPS", "operator:type": "public", "operator:wikidata": "Q668687", "ref": "6335100003"}, "type": "Feature"}
{"geometry": {"coordinates": [-91.305460319, 38.853676668], "type": "Point"}, "id": "AexCzxlf3IRddrNz-rJMmAilG1w=", "properties": {"@source_uri": "https://tools.usps.com/UspsToolsRestServices/rest/POLocator/findLocations", "@spider": "usps_collection_boxes", "addr:city": "JONESBURG", "addr:country": "US", "addr:postcode": "63351", "addr:state": "MO", "addr:street_address": "116 E LION ST", "amenity": "post_box", "collection_times": "Mo-Fr 16:00; Sa 10:00", "indoor": "yes", "note": "ON 12/24 AND 12/31, THIS BOX MAY BE COLLECTED AS EARLY AS 12 NOON.", "nsi_id": "unitedstatespostalservice-a77078", "operator": "United States Postal Service", "operator:short": "USPS", "operator:type": "public", "operator:wikidata": "Q668687", "ref": "6335100005"}, "type": "Feature"}
{"geometry": {"coordinates": [-91.643568, 39.241783], "type": "Point"}, "id": "Wx5r2LI8wJ3T_aDTcHQ7iLjuzmY=", "properties": {"@source_uri": "https://tools.usps.com/UspsToolsRestServices/rest/POLocator/findLocations", "@spider": "usps_collection_boxes", "addr:city": "LADDONIA", "addr:country": "US", "addr:postcode": "63352", "addr:state": "MO", "addr:street_address": "501 E 2ND ST", "amenity": "post_box", "collection_times": "Mo-Fr 15:30; Sa 09:30", "note": "ON 12/24 AND 12/31, THIS BOX MAY BE COLLECTED AS EARLY AS 12 NOON.", "nsi_id": "unitedstatespostalservice-a77078", "operator": "United States Postal Service", "operator:short": "USPS", "operator:type": "public", "operator:wikidata": "Q668687", "ref": "6335200001"}, "type": "Feature"}
{"geometry": {"coordinates": [-91.643687, 39.241763], "type": "Point"}, "id": "TgxTJ9lbvFbT-gixHzPDGCVlPxA=", "properties": {"@source_uri": "https://tools.usps.com/UspsToolsRestServices/rest/POLocator/findLocations", "@spider": "usps_collection_boxes", "addr:city": "LADDONIA", "addr:country": "US", "addr:postcode": "63352", "addr:state": "MO", "addr:street_address": "501 E 2ND ST", "amenity": "post_box", "collection_times": "Mo-Fr 15:30; Sa 09:30", "indoor": "yes", "note": "ON 12/24 AND 12/31, THIS BOX MAY BE COLLECTED AS EARLY AS 12 NOON.", "nsi_id": "unitedstatespostalservice-a77078", "operator": "United States Postal Service", "operator:short": "USPS", "operator:type": "public", "operator:wikidata": "Q668687", "ref": "6335200002"}, "type": "Feature"}
{"geometry": {"coordinates": [-91.643499949, 39.241825713], "type": "Point"}, "id": "0K_NEilograBDUXhogL_xAJGYiM=", "properties": {"@source_uri": "https://tools.usps.com/UspsToolsRestServices/rest/POLocator/findLocations", "@spider": "usps_collection_boxes", "addr:city": "LADDONIA", "addr:country": "US", "addr:postcode": "63352", "addr:state": "MO", "addr:street_address": "501 E 2ND ST", "amenity": "post_box", "collection_times": "Mo-Fr 15:30; Sa 09:30", "indoor": "yes", "note": "ON 12/24 AND 12/31, THIS BOX MAY BE COLLECTED AS EARLY AS 12 NOON.", "nsi_id": "unitedstatespostalservice-a77078", "operator": "United States Postal Service", "operator:short": "USPS", "operator:type": "public", "operator:wikidata": "Q668687", "ref": "6335200004"}, "type": "Feature"}
{"geometry": {"coordinates": [-91.0497754, 39.44871], "type": "Point"}, "id": "zuERBzJ1ObcVebH4vH28UHWxMNc=", "properties": {"@source_uri": "https://tools.usps.com/UspsToolsRestServices/rest/POLocator/findLocations", "@spider": "usps_collection_boxes", "addr:city": "LOUISIANA", "addr:country": "US", "addr:postcode": "63353", "addr:state": "MO", "addr:street_address": "522 GEORGIA ST", "amenity": "post_box", "collection_times": "Mo-Fr 15:45; Sa 10:45", "note": "ON 12/24 AND 12/31, THIS BOX MAY BE COLLECTED AS EARLY AS 12 NOON.", "nsi_id": "unitedstatespostalservice-a77078", "operator": "United States Postal Service", "operator:short": "USPS", "operator:type": "public", "operator:wikidata": "Q668687", "ref": "6335300019"}, "type": "Feature"}
{"geometry": {"coordinates": [-91.0497817, 39.448707], "type": "Point"}, "id": "25ELFsuwW9cjoe2pzcllG8HSXRQ=", "properties": {"@source_uri": "https://tools.usps.com/UspsToolsRestServices/rest/POLocator/findLocations", "@spider": "usps_collection_boxes", "addr:city": "LOUISIANA", "addr:country": "US", "addr:postcode": "63353", "addr:state": "MO", "addr:street_address": "522 GEORGIA ST", "amenity": "post_box", "collection_times": "Mo-Fr 15:45; Sa 10:45", "indoor": "yes", "note": "ON 12/24 AND 12/31, THIS BOX MAY BE COLLECTED AS EARLY AS 12 NOON.", "nsi_id": "unitedstatespostalservice-a77078", "operator": "United States Postal Service", "operator:short": "USPS", "operator:type": "public", "operator:wikidata": "Q668687", "ref": "6335300023"}, "type": "Feature"}
{"geometry": {"coordinates": [-91.049917412, 39.448732318], "type": "Point"}, "id": "KqzbQziZVdrbvlD-W6HpcLAWUTA=", "properties": {"@source_uri": "https://tools.usps.com/UspsToolsRestServices/rest/POLocator/findLocations", "@spider": "usps_collection_boxes", "addr:city": "LOUISIANA", "addr:country": "US", "addr:postcode": "63353", "addr:state": "MO", "addr:street_address": "522 GEORGIA ST", "amenity": "post_box", "collection_times": "Mo-Fr 15:45; Sa 10:45", "indoor": "yes", "note": "ON 12/24 AND 12/31, THIS BOX MAY BE COLLECTED AS EARLY AS 12 NOON.", "nsi_id": "unitedstatespostalservice-a77078", "operator": "United States Postal Service", "operator:short": "USPS", "operator:type": "public", "operator:wikidata": "Q668687", "ref": "6335300024"}, "type": "Feature"}
{"geometry": {"coordinates": [-91.06033, 38.627612], "type": "Point"}, "id": "aWVKcdcCySZhELKNyXLtr569J5M=", "properties": {"@source_uri": "https://tools.usps.com/UspsToolsRestServices/rest/POLocator/findLocations", "@spider": "usps_collection_boxes", "addr:city": "MARTHASVILLE", "addr:country": "US", "addr:postcode": "63357", "addr:state": "MO", "addr:street_address": "105 DEPOT ST", "amenity": "post_box", "collection_times": "Mo-Fr 16:15; Sa 10:45", "note": "ON 12/24 AND 12/31, THIS BOX MAY BE COLLECTED AS EARLY AS 12 NOON.", "nsi_id": "unitedstatespostalservice-a77078", "operator": "United States Postal Service", "operator:short": "USPS", "operator:type": "public", "operator:wikidata": "Q668687", "ref": "6335700001"}, "type": "Feature"}
{"geometry": {"coordinates": [-90.9637515, 38.674313], "type": "Point"}, "id": "QcD0IM8NA4O_y599hoNBK2Pr49U=", "properties": {"@source_uri": "https://tools.usps.com/UspsToolsRestServices/rest/POLocator/findLocations", "@spider": "usps_collection_boxes", "addr:city": "MARTHASVILLE", "addr:country": "US", "addr:postcode": "63357", "addr:state": "MO", "addr:street_address": "1 NOTTINGHAM CT", "amenity": "post_box", "collection_times": "Mo-Sa 11:00", "nsi_id": "unitedstatespostalservice-a77078", "operator": "United States Postal Service", "operator:short": "USPS", "operator:type": "public", "operator:wikidata": "Q668687", "ref": "6335700002"}, "type": "Feature"}
{"geometry": {"coordinates": [-91.060232, 38.62757], "type": "Point"}, "id": "hNUIOOZAzn_99uej6zZy88icP0E=", "properties": {"@source_uri": "https://tools.usps.com/UspsToolsRestServices/rest/POLocator/findLocations", "@spider": "usps_collection_boxes", "addr:city": "MARTHASVILLE", "addr:country": "US", "addr:postcode": "63357", "addr:state": "MO", "addr:street_address": "105 DEPOT ST", "amenity": "post_box", "collection_times": "Mo-Fr 16:15; Sa 10:45", "indoor": "yes", "note": "ON 12/24 AND 12/31, THIS BOX MAY BE COLLECTED AS EARLY AS 12 NOON.", "nsi_id": "unitedstatespostalservice-a77078", "operator": "United States Postal Service", "operator:short": "USPS", "operator:type": "public", "operator:wikidata": "Q668687", "ref": "6335700003"}, "type": "Feature"}
{"geometry": {"coordinates": [-91.060686393, 38.62765426], "type": "Point"}, "id": "6lldqlL-pmmSxAPtuDYxblwmnT8=", "properties": {"@source_uri": "https://tools.usps.com/UspsToolsRestServices/rest/POLocator/findLocations", "@spider": "usps_collection_boxes", "addr:city": "MARTHASVILLE", "addr:country": "US", "addr:postcode": "63357", "addr:state": "MO", "addr:street_address": "105 DEPOT ST", "amenity": "post_box", "collection_times": "Mo-Fr 16:15; Sa 10:45", "indoor": "yes", "note": "ON 12/24 AND 12/31, THIS BOX MAY BE COLLECTED AS EARLY AS 12 NOON.", "nsi_id": "unitedstatespostalservice-a77078", "operator": "United States Postal Service", "operator:short": "USPS", "operator:type": "public", "operator:wikidata": "Q668687", "ref": "6335700005"}, "type": "Feature"}
{"geometry": {"coordinates": [-91.4148427357, 39.126804344], "type": "Point"}, "id": "YAjpMoBFdjcOPnrTjToGcnFp_88=", "properties": {"@source_uri": "https://tools.usps.com/UspsToolsRestServices/rest/POLocator/findLocations", "@spider": "usps_collection_boxes", "addr:city": "MIDDLETOWN", "addr:country": "US", "addr:postcode": "63359", "addr:state": "MO", "addr:street_address": "112 MAIN ST", "amenity": "post_box", "collection_times": "Mo-Fr 16:15; Sa 09:45", "note": "ON 12/24 AND 12/31, THIS BOX MAY BE COLLECTED AS EARLY AS 12 NOON.", "nsi_id": "unitedstatespostalservice-a77078", "operator": "United States Postal Service", "operator:short": "USPS", "operator:type": "public", "operator:wikidata": "Q668687", "ref": "6335900001"}, "type": "Feature"}
{"geometry": {"coordinates": [-91.4148427357, 39.126804344], "type": "Point"}, "id": "LQtj9FiMTHGlWvKfWYH5x7yFHYA=", "properties": {"@source_uri": "https://tools.usps.com/UspsToolsRestServices/rest/POLocator/findLocations", "@spider": "usps_collection_boxes", "addr:city": "MIDDLETOWN", "addr:country": "US", "addr:postcode": "63359", "addr:state": "MO", "addr:street_address": "112 MAIN ST", "amenity": "post_box", "collection_times": "Mo-Fr 16:15", "indoor": "yes", "note": "ON 12/24 AND 12/31, THIS BOX MAY BE COLLECTED AS EARLY AS 12 NOON.", "nsi_id": "unitedstatespostalservice-a77078", "operator": "United States Postal Service", "operator:short": "USPS", "operator:type": "public", "operator:wikidata": "Q668687", "ref": "6335900002"}, "type": "Feature"}
{"geometry": {"coordinates": [-91.4148427357, 39.126804344], "type": "Point"}, "id": "XFMUA5hDtWhAaEMc0rDfheMyFL0=", "properties": {"@source_uri": "https://tools.usps.com/UspsToolsRestServices/rest/POLocator/findLocations", "@spider": "usps_collection_boxes", "addr:city": "MIDDLETOWN", "addr:country": "US", "addr:postcode": "63359", "addr:state": "MO", "addr:street_address": "112 MAIN ST", "amenity": "post_box", "collection_times": "Mo-Fr 16:15", "indoor": "yes", "note": "ON 12/24 AND 12/31, THIS BOX MAY BE COLLECTED AS EARLY AS 12 NOON.", "nsi_id": "unitedstatespostalservice-a77078", "operator": "United States Postal Service", "operator:short": "USPS", "operator:type": "public", "operator:wikidata": "Q668687", "ref": "6335900004"}, "type": "Feature"}
{"geometry": {"coordinates": [-91.506562, 38.979265], "type": "Point"}, "id": "HRa39llCH5ENuj4J7Lwq8Jr8uF8=", "properties": {"@source_uri": "https://tools.usps.com/UspsToolsRestServices/rest/POLocator/findLocations", "@spider": "usps_collection_boxes", "addr:city": "MONTGOMERY CITY", "addr:country": "US", "addr:postcode": "63361", "addr:state": "MO", "addr:street_address": "404 N STURGEON ST", "amenity": "post_box", "collection_times": "Mo-Fr 16:00; Sa 08:00", "note": "ON 12/24 AND 12/31, THIS BOX MAY BE COLLECTED AS EARLY AS 12 NOON.", "nsi_id": "unitedstatespostalservice-a77078", "operator": "United States Postal Service", "operator:short": "USPS", "operator:type": "public", "operator:wikidata": "Q668687", "ref": "6336100001"}, "type": "Feature"}
{"geometry": {"coordinates": [-91.506531, 38.979182], "type": "Point"}, "id": "E3XJgFIfgZq-Hel1Fa-4XF6VV50=", "properties": {"@source_uri": "https://tools.usps.com/UspsToolsRestServices/rest/POLocator/findLocations", "@spider": "usps_collection_boxes", "addr:city": "MONTGOMERY CITY", "addr:country": "US", "addr:postcode": "63361", "addr:state": "MO", "addr:street_address": "404 N STURGEON ST", "amenity": "post_box", "collection_times": "Mo-Fr 16:00; Sa 08:00", "indoor": "yes", "note": "ON 12/24 AND 12/31, THIS BOX MAY BE COLLECTED AS EARLY AS 12 NOON.", "nsi_id": "unitedstatespostalservice-a77078", "operator": "United States Postal Service", "operator:short": "USPS", "operator:type": "public", "operator:wikidata": "Q668687", "ref": "6336100010"}, "type": "Feature"}
{"geometry": {"coordinates": [-91.506531, 38.979182], "type": "Point"}, "id": "1BsDsv9IYpvtYXcrLMKxGa1zYI8=", "properties": {"@source_uri": "https://tools.usps.com/UspsToolsRestServices/rest/POLocator/findLocations", "@spider": "usps_collection_boxes", "addr:city": "MONTGOMERY CITY", "addr:country": "US", "addr:postcode": "63361", "addr:state": "MO", "addr:street_address": "404 N STURGEON ST", "amenity": "post_box", "collection_times": "Mo-Fr 16:00; Sa 08:00", "indoor": "yes", "note": "ON 12/24 AND 12/31, THIS BOX MAY BE COLLECTED AS EARLY AS 12 NOON.", "nsi_id": "unitedstatespostalservice-a77078", "operator": "United States Postal Service", "operator:short": "USPS", "operator:type": "public", "operator:wikidata": "Q668687", "ref": "6336100011"}, "type": "Feature"}
{"geometry": {"coordinates": [-91.506523856, 38.979257336], "type": "Point"}, "id": "o1GcIMjkb6IxlVpkvKx8qPVwcmI=", "properties": {"@source_uri": "https://tools.usps.com/UspsToolsRestServices/rest/POLocator/findLocations", "@spider": "usps_collection_boxes", "addr:city": "MONTGOMERY CITY", "addr:country": "US", "addr:postcode": "63361", "addr:state": "MO", "addr:street_address": "404 N STURGEON ST", "amenity": "post_box", "collection_times": "Mo-Fr 16:00", "indoor": "yes", "note": "ON 12/24 AND 12/31, THIS BOX MAY BE COLLECTED AS EARLY AS 12 NOON.", "nsi_id": "unitedstatespostalservice-a77078", "operator": "United States Postal Service", "operator:short": "USPS", "operator:type": "public", "operator:wikidata": "Q668687", "ref": "6336100013"}, "type": "Feature"}
{"geometry": {"coordinates": [-90.9173133912, 38.9482809302], "type": "Point"}, "id": "C5_qkP4H_zytkJnQ8Ix78zeDqSg=", "properties": {"@source_uri": "https://tools.usps.com/UspsToolsRestServices/rest/POLocator/findLocations", "@spider": "usps_collection_boxes", "addr:city": "MOSCOW MILLS", "addr:country": "US", "addr:postcode": "63362", "addr:state": "MO", "addr:street_address": "150 W 3RD ST", "amenity": "post_box", "collection_times": "Mo-Fr 15:45; Sa 10:15", "note": "ON 12/24 AND 12/31, THIS BOX MAY BE COLLECTED AS EARLY AS 12 NOON.", "nsi_id": "unitedstatespostalservice-a77078", "operator": "United States Postal Service", "operator:short": "USPS", "operator:type": "public", "operator:wikidata": "Q668687", "ref": "6336200001"}, "type": "Feature"}
{"geometry": {"coordinates": [-90.9173133912, 38.9482809302], "type": "Point"}, "id": "G-Vd8yAh-ncuycFqHrlg6WOPQI0=", "properties": {"@source_uri": "https://tools.usps.com/UspsToolsRestServices/rest/POLocator/findLocations", "@spider": "usps_collection_boxes", "addr:city": "MOSCOW MILLS", "addr:country": "US", "addr:postcode": "63362", "addr:state": "MO", "addr:street_address": "150 W 3RD ST", "amenity": "post_box", "collection_times": "Mo-Fr 15:45; Sa 10:15", "indoor": "yes", "note": "ON 12/24 AND 12/31, THIS BOX MAY BE COLLECTED AS EARLY AS 12 NOON.", "nsi_id": "unitedstatespostalservice-a77078", "operator": "United States Postal Service", "operator:short": "USPS", "operator:type": "public", "operator:wikidata": "Q668687", "ref": "6336200003"}, "type": "Feature"}
{"geometry": {"coordinates": [-90.9173133912, 38.9482809302], "type": "Point"}, "id": "n4d2Aypb-FmfwG7Nmt7kKd4CI-A=", "properties": {"@source_uri": "https://tools.usps.com/UspsToolsRestServices/rest/POLocator/findLocations", "@spider": "usps_collection_boxes", "addr:city": "MOSCOW MILLS", "addr:country": "US", "addr:postcode": "63362", "addr:state": "MO", "addr:street_address": "150 W 3RD ST", "amenity": "post_box", "collection_times": "Mo-Fr 15:45; Sa 10:15", "indoor": "yes", "note": "ON 12/24 AND 12/31, THIS BOX MAY BE COLLECTED AS EARLY AS 12 NOON.", "nsi_id": "unitedstatespostalservice-a77078", "operator": "United States Postal Service", "operator:short": "USPS", "operator:type": "public", "operator:wikidata": "Q668687", "ref": "6336200004"}, "type": "Feature"}
{"geometry": {"coordinates": [-91.4483378, 38.909761], "type": "Point"}, "id": "2eGTvg-R5f49L2mFDUJJ-ZVzFQY=", "properties": {"@source_uri": "https://tools.usps.com/UspsToolsRestServices/rest/POLocator/findLocations", "@spider": "usps_collection_boxes", "addr:city": "NEW FLORENCE", "addr:country": "US", "addr:postcode": "63363", "addr:state": "MO", "addr:street_address": "119 S MAIN ST", "amenity": "post_box", "collection_times": "Mo-Fr 16:45; Sa 11:00", "indoor": "yes", "note": "ON 12/24 AND 12/31, THIS BOX MAY BE COLLECTED AS EARLY AS 12 NOON.", "nsi_id": "unitedstatespostalservice-a77078", "operator": "United States Postal Service", "operator:short": "USPS", "operator:type": "public", "operator:wikidata": "Q668687", "ref": "6336300001"}, "type": "Feature"}
{"geometry": {"coordinates": [-91.4481714, 38.909792], "type": "Point"}, "id": "N2CMJdq2eJNKqR_7XoAU5EgSf8A=", "properties": {"@source_uri": "https://tools.usps.com/UspsToolsRestServices/rest/POLocator/findLocations", "@spider": "usps_collection_boxes", "addr:city": "NEW FLORENCE", "addr:country": "US", "addr:postcode": "63363", "addr:state": "MO", "addr:street_address": "119 S MAIN ST", "amenity": "post_box", "collection_times": "Mo-Fr 16:30; Sa 12:00", "note": "ON 12/24 AND 12/31, THIS BOX MAY BE COLLECTED AS EARLY AS 12 NOON.", "nsi_id": "unitedstatespostalservice-a77078", "operator": "United States Postal Service", "operator:short": "USPS", "operator:type": "public", "operator:wikidata": "Q668687", "ref": "6336300002"}, "type": "Feature"}
{"geometry": {"coordinates": [-91.44861434, 38.910361104], "type": "Point"}, "id": "vs5n6BLgpUcMfhBfE_rUUbjaTVU=", "properties": {"@source_uri": "https://tools.usps.com/UspsToolsRestServices/rest/POLocator/findLocations", "@spider": "usps_collection_boxes", "addr:city": "NEW FLORENCE", "addr:country": "US", "addr:postcode": "63363", "addr:state": "MO", "addr:street_address": "119 S MAIN ST", "amenity": "post_box", "collection_times": "Mo-Fr 16:30", "indoor": "yes", "note": "ON 12/24 AND 12/31, THIS BOX MAY BE COLLECTED AS EARLY AS 12 NOON.", "nsi_id": "unitedstatespostalservice-a77078", "operator": "United States Postal Service", "operator:short": "USPS", "operator:type": "public", "operator:wikidata": "Q668687", "ref": "6336300003"}, "type": "Feature"}
{"geometry": {"coordinates": [-90.879653, 38.709866], "type": "Point"}, "id": "YOZ7KPYCO5gJi-whN-U5zjvS6ZE=", "properties": {"@source_uri": "https://tools.usps.com/UspsToolsRestServices/rest/POLocator/findLocations", "@spider": "usps_collection_boxes", "addr:city": "NEW MELLE", "addr:country": "US", "addr:postcode": "63365", "addr:state": "MO", "addr:street_address": "30 W HIGHWAY D STE 107", "amenity": "post_box", "collection_times": "Mo-Fr 16:00; Sa 11:30", "note": "ON 12/24 AND 12/31, THIS BOX MAY BE COLLECTED AS EARLY AS 12 NOON.", "nsi_id": "unitedstatespostalservice-a77078", "operator": "United States Postal Service", "operator:short": "USPS", "operator:type": "public", "operator:wikidata": "Q668687", "ref": "6336500001"}, "type": "Feature"}
{"geometry": {"coordinates": [-90.879541, 38.709901], "type": "Point"}, "id": "6fEPBR0Ci5_YhxBpQ8ViDxhgVIQ=", "properties": {"@source_uri": "https://tools.usps.com/UspsToolsRestServices/rest/POLocator/findLocations", "@spider": "usps_collection_boxes", "addr:city": "NEW MELLE", "addr:country": "US", "addr:postcode": "63365", "addr:state": "MO", "addr:street_address": "30 W HIGHWAY D STE 107", "amenity": "post_box", "collection_times": "Mo-Fr 16:00; Sa 11:30", "indoor": "yes", "note": "ON 12/24 AND 12/31, THIS BOX MAY BE COLLECTED AS EARLY AS 12 NOON.", "nsi_id": "unitedstatespostalservice-a77078", "operator": "United States Postal Service", "operator:short": "USPS", "operator:type": "public", "operator:wikidata": "Q668687", "ref": "6336500002"}, "type": "Feature"}
{"geometry": {"coordinates": [-90.880690019, 38.709617742], "type": "Point"}, "id": "Zk_m2Vy7zGd5sr5ddtBEPxED41Y=", "properties": {"@source_uri": "https://tools.usps.com/UspsToolsRestServices/rest/POLocator/findLocations", "@spider": "usps_collection_boxes", "addr:city": "NEW MELLE", "addr:country": "US", "addr:postcode": "63365", "addr:state": "MO", "addr:street_address": "30 W HIGHWAY D STE 107", "amenity": "post_box", "collection_times": "Mo-Fr 16:00; Sa 11:30", "indoor": "yes", "note": "ON 12/24 AND 12/31, THIS BOX MAY BE COLLECTED AS EARLY AS 12 NOON.", "nsi_id": "unitedstatespostalservice-a77078", "operator": "United States Postal Service", "operator:short": "USPS", "operator:type": "public", "operator:wikidata": "Q668687", "ref": "6336500004"}, "type": "Feature"}
{"geometry": {"coordinates": [-90.879021199, 38.7114204965], "type": "Point"}, "id": "x1O0za_chXW3JZVPU7V3FYFUkEA=", "properties": {"@source_uri": "https://tools.usps.com/UspsToolsRestServices/rest/POLocator/findLocations", "@spider": "usps_collection_boxes", "addr:city": "NEW MELLE", "addr:country": "US", "addr:postcode": "63365", "addr:state": "MO", "addr:street_address": "30 MUHM CTR", "amenity": "post_box", "collection_times": "Mo-Sa 12:00", "nsi_id": "unitedstatespostalservice-a77078", "operator": "United States Postal Service", "operator:short": "USPS", "operator:type": "public", "operator:wikidata": "Q668687", "ref": "6336500005"}, "type": "Feature"}
{"geometry": {"coordinates": [-90.704542416, 38.808714475], "type": "Point"}, "id": "7Jbfm51Qlnr0-TQK7mfG55RaEQI=", "properties": {"@source_uri": "https://tools.usps.com/UspsToolsRestServices/rest/POLocator/findLocations", "@spider": "usps_collection_boxes", "addr:city": "O FALLON", "addr:country": "US", "addr:postcode": "63366", "addr:state": "MO", "addr:street_address": "401 CHURCH ST", "amenity": "post_box", "collection_times": "Mo-Fr 17:45; Sa 17:00", "note": "ON 12/24 AND 12/31, THIS BOX MAY BE COLLECTED AS EARLY AS 12 NOON.", "nsi_id": "unitedstatespostalservice-a77078", "operator": "United States Postal Service", "operator:short": "USPS", "operator:type": "public", "operator:wikidata": "Q668687", "ref": "6336600003"}, "type": "Feature"}
{"geometry": {"coordinates": [-90.768672, 38.801808], "type": "Point"}, "id": "r6H6MSRVlizStqL4-7-YqE6DMTE=", "properties": {"@source_uri": "https://tools.usps.com/UspsToolsRestServices/rest/POLocator/findLocations", "@spider": "usps_collection_boxes", "addr:city": "O FALLON", "addr:country": "US", "addr:postcode": "63366", "addr:state": "MO", "addr:street_address": "1000 LAKE SAINT LOUIS BLVD", "amenity": "post_box", "collection_times": "Mo-Sa 10:30", "nsi_id": "unitedstatespostalservice-a77078", "operator": "United States Postal Service", "operator:short": "USPS", "operator:type": "public", "operator:wikidata": "Q668687", "ref": "6336600005"}, "type": "Feature"}
{"geometry": {"coordinates": [-90.6988379, 38.79935], "type": "Point"}, "id": "nqzBsbx4jj8tSPI-K2zkyVppyvg=", "properties": {"@source_uri": "https://tools.usps.com/UspsToolsRestServices/rest/POLocator/findLocations", "@spider": "usps_collection_boxes", "addr:city": "O FALLON", "addr:country": "US", "addr:postcode": "63366", "addr:state": "MO", "addr:street_address": "8660 VETERANS MEMORIAL PKWY", "amenity": "post_box", "collection_times": "Mo-Sa 11:00", "nsi_id": "unitedstatespostalservice-a77078", "operator": "United States Postal Service", "operator:short": "USPS", "operator:type": "public", "operator:wikidata": "Q668687", "ref": "6336600007"}, "type": "Feature"}
{"geometry": {"coordinates": [-90.700025, 38.805835], "type": "Point"}, "id": "p-7iR-MgzlpjP443qDYGIW0wASQ=", "properties": {"@source_uri": "https://tools.usps.com/UspsToolsRestServices/rest/POLocator/findLocations", "@spider": "usps_collection_boxes", "addr:city": "O FALLON", "addr:country": "US", "addr:postcode": "63366", "addr:state": "MO", "addr:street_address": "1 O'FALLON SQUARE", "amenity": "post_box", "collection_times": "Mo-Sa 10:00", "nsi_id": "unitedstatespostalservice-a77078", "operator": "United States Postal Service", "operator:short": "USPS", "operator:type": "public", "operator:wikidata": "Q668687", "ref": "6336600024"}, "type": "Feature"}
{"geometry": {"coordinates": [-90.6950312, 38.806836], "type": "Point"}, "id": "60ztBzFwsZa739Yz8fM-gLapX7s=", "properties": {"@source_uri": "https://tools.usps.com/UspsToolsRestServices/rest/POLocator/findLocations", "@spider": "usps_collection_boxes", "addr:city": "O FALLON", "addr:country": "US", "addr:postcode": "63366", "addr:state": "MO", "addr:street_address": "330 SONDEREN ST", "amenity": "post_box", "collection_times": "Mo-Sa 11:00", "nsi_id": "unitedstatespostalservice-a77078", "operator": "United States Postal Service", "operator:short": "USPS", "operator:type": "public", "operator:wikidata": "Q668687", "ref": "6336600025"}, "type": "Feature"}
{"geometry": {"coordinates": [-90.700025, 38.805835], "type": "Point"}, "id": "LzGBA-q4GkG9Alntv1f3L07OsC0=", "properties": {"@source_uri": "https://tools.usps.com/UspsToolsRestServices/rest/POLocator/findLocations", "@spider": "usps_collection_boxes", "addr:city": "O FALLON", "addr:country": "US", "addr:postcode": "63366", "addr:state": "MO", "addr:street_address": "100 MEDICAL PLAZA", "amenity": "post_box", "collection_times": "Mo-Sa 11:00", "nsi_id": "unitedstatespostalservice-a77078", "operator": "United States Postal Service", "operator:short": "USPS", "operator:type": "public", "operator:wikidata": "Q668687", "ref": "6336600026"}, "type": "Feature"}
{"geometry": {"coordinates": [-90.6990272, 38.792001], "type": "Point"}, "id": "64kggLetnp1N4OsUov2rUCK8pqc=", "properties": {"@source_uri": "https://tools.usps.com/UspsToolsRestServices/rest/POLocator/findLocations", "@spider": "usps_collection_boxes", "addr:city": "O FALLON", "addr:country": "US", "addr:postcode": "63366", "addr:state": "MO", "addr:street_address": "8601 MEXICO RD", "amenity": "post_box", "collection_times": "Mo-Sa 12:30", "note": "ON 12/24 AND 12/31, THIS BOX MAY BE COLLECTED AS EARLY AS 12 NOON.", "nsi_id": "unitedstatespostalservice-a77078", "operator": "United States Postal Service", "operator:short": "USPS", "operator:type": "public", "operator:wikidata": "Q668687", "ref": "6336600036"}, "type": "Feature"}
{"geometry": {"coordinates": [-90.704542416, 38.808714475], "type": "Point"}, "id": "Dm4YOYjUFbSBb3yZCV09owR0uw4=", "properties": {"@source_uri": "https://tools.usps.com/UspsToolsRestServices/rest/POLocator/findLocations", "@spider": "usps_collection_boxes", "addr:city": "O FALLON", "addr:country": "US", "addr:postcode": "63366", "addr:state": "MO", "addr:street_address": "401 CHURCH ST", "amenity": "post_box", "collection_times": "Mo-Fr 18:00; Sa 17:15", "indoor": "yes", "note": "ON 12/24 AND 12/31, THIS BOX MAY BE COLLECTED AS EARLY AS 12 NOON.", "nsi_id": "unitedstatespostalservice-a77078", "operator": "United States Postal Service", "operator:short": "USPS", "operator:type": "public", "operator:wikidata": "Q668687", "ref": "6336600038"}, "type": "Feature"}
{"geometry": {"coordinates": [-90.7010505, 38.77519], "type": "Point"}, "id": "KHuQ0JK7WGY4bmTcK7ICKxetOYU=", "properties": {"@source_uri": "https://tools.usps.com/UspsToolsRestServices/rest/POLocator/findLocations", "@spider": "usps_collection_boxes", "addr:city": "O FALLON", "addr:country": "US", "addr:postcode": "63366", "addr:state": "MO", "addr:street_address": "2435 HIGHWAY K", "amenity": "post_box", "collection_times": "Mo-Sa 11:00", "nsi_id": "unitedstatespostalservice-a77078", "operator": "United States Postal Service", "operator:short": "USPS", "operator:type": "public", "operator:wikidata": "Q668687", "ref": "6336600040"}, "type": "Feature"}
{"geometry": {"coordinates": [-90.7431157424, 38.86080693], "type": "Point"}, "id": "FO747Hdk0R7_mbhA8xHgqxHdS7w=", "properties": {"@source_uri": "https://tools.usps.com/UspsToolsRestServices/rest/POLocator/findLocations", "@spider": "usps_collection_boxes", "addr:city": "O FALLON", "addr:country": "US", "addr:postcode": "63366", "addr:state": "MO", "addr:street_address": "2281 SAINT PAUL RD", "amenity": "post_box", "collection_times": "Mo-Sa 11:30", "nsi_id": "unitedstatespostalservice-a77078", "operator": "United States Postal Service", "operator:short": "USPS", "operator:type": "public", "operator:wikidata": "Q668687", "ref": "6336600041"}, "type": "Feature"}
{"geometry": {"coordinates": [-90.7035063, 38.757969], "type": "Point"}, "id": "jVzGWGOE5Sej8jCr-stMyos3h6M=", "properties": {"@source_uri": "https://tools.usps.com/UspsToolsRestServices/rest/POLocator/findLocations", "@spider": "usps_collection_boxes", "addr:city": "O FALLON", "addr:country": "US", "addr:postcode": "63366", "addr:state": "MO", "addr:street_address": "2979 HIGHWAY K", "amenity": "post_box", "collection_times": "Mo-Fr 16:00; Sa 14:00", "note": "ON 12/24 AND 12/31, THIS BOX MAY BE COLLECTED AS EARLY AS 12 NOON.", "nsi_id": "unitedstatespostalservice-a77078", "operator": "United States Postal Service", "operator:short": "USPS", "operator:type": "public", "operator:wikidata": "Q668687", "ref": "6336600044"}, "type": "Feature"}
{"geometry": {"coordinates": [-90.7356883, 38.743514], "type": "Point"}, "id": "obStGRuaux25LG7m_hhL75rgwOQ=", "properties": {"@source_uri": "https://tools.usps.com/UspsToolsRestServices/rest/POLocator/findLocations", "@spider": "usps_collection_boxes", "addr:city": "O FALLON", "addr:country": "US", "addr:postcode": "63366", "addr:state": "MO", "addr:street_address": "7320 VILLAGE CENTER DR", "amenity": "post_box", "collection_times": "Mo-Sa 12:00", "nsi_id": "unitedstatespostalservice-a77078", "operator": "United States Postal Service", "operator:short": "USPS", "operator:type": "public", "operator:wikidata": "Q668687", "ref": "6336600047"}, "type": "Feature"}
{"geometry": {"coordinates": [-90.7965094, 38.784451], "type": "Point"}, "id": "-gogyWC0Oi5NmnQhOjQg9E2nUSY=", "properties": {"@source_uri": "https://tools.usps.com/UspsToolsRestServices/rest/POLocator/findLocations", "@spider": "usps_collection_boxes", "addr:city": "O FALLON", "addr:country": "US", "addr:postcode": "63366", "addr:state": "MO", "addr:street_address": "101 CIVIC CENTER DR", "amenity": "post_box", "collection_times": "Mo-Sa 11:00", "nsi_id": "unitedstatespostalservice-a77078", "operator": "United States Postal Service", "operator:short": "USPS", "operator:type": "public", "operator:wikidata": "Q668687", "ref": "6336600048"}, "type": "Feature"}
{"geometry": {"coordinates": [-90.7679199, 38.802577], "type": "Point"}, "id": "9x9-s4LfnqIUw4vlog-w5MhGg3Y=", "properties": {"@source_uri": "https://tools.usps.com/UspsToolsRestServices/rest/POLocator/findLocations", "@spider": "usps_collection_boxes", "addr:city": "O FALLON", "addr:country": "US", "addr:postcode": "63366", "addr:state": "MO", "addr:street_address": "1200 LK ST LOUIS BLVD", "amenity": "post_box", "collection_times": "Mo-Fr 13:45; Sa 13:15", "note": "ON 12/24 AND 12/31, THIS BOX MAY BE COLLECTED AS EARLY AS 12 NOON.", "nsi_id": "unitedstatespostalservice-a77078", "operator": "United States Postal Service", "operator:short": "USPS", "operator:type": "public", "operator:wikidata": "Q668687", "ref": "6336600049"}, "type": "Feature"}
{"geometry": {"coordinates": [-90.7451695, 38.765563], "type": "Point"}, "id": "IfsTEBraJFfFrUASd6wQqamtFC0=", "properties": {"@source_uri": "https://tools.usps.com/UspsToolsRestServices/rest/POLocator/findLocations", "@spider": "usps_collection_boxes", "addr:city": "O FALLON", "addr:country": "US", "addr:postcode": "63366", "addr:state": "MO", "addr:street_address": "7422 HWY N", "amenity": "post_box", "collection_times": "Mo-Sa 11:30", "nsi_id": "unitedstatespostalservice-a77078", "operator": "United States Postal Service", "operator:short": "USPS", "operator:type": "public", "operator:wikidata": "Q668687", "ref": "6336600050"}, "type": "Feature"}
{"geometry": {"coordinates": [-90.704542416, 38.808714475], "type": "Point"}, "id": "2rsfdfkjERI0lZivuAa_QwWVONk=", "properties": {"@source_uri": "https://tools.usps.com/UspsToolsRestServices/rest/POLocator/findLocations", "@spider": "usps_collection_boxes", "addr:city": "O FALLON", "addr:country": "US", "addr:postcode": "63366", "addr:state": "MO", "addr:street_address": "401 CHURCH ST", "amenity": "post_box", "collection_times": "Mo-Fr 18:00; Sa 17:15", "name": "USPS COLLECTION BOX - APC", "note": "ON 12/24 AND 12/31, THIS BOX MAY BE COLLECTED AS EARLY AS 12 NOON.", "nsi_id": "unitedstatespostalservice-a77078", "operator": "United States Postal Service", "operator:short": "USPS", "operator:type": "public", "operator:wikidata": "Q668687", "ref": "6336600051"}, "type": "Feature"}
{"geometry": {"coordinates": [-90.699657, 38.821148], "type": "Point"}, "id": "t9lOS4F-axr6QCKAdVmneyA7n2Y=", "properties": {"@source_uri": "https://tools.usps.com/UspsToolsRestServices/rest/POLocator/findLocations", "@spider": "usps_collection_boxes", "addr:city": "O FALLON", "addr:country": "US", "addr:postcode": "63366", "addr:state": "MO", "addr:street_address": "920 N MAIN ST", "amenity": "post_box", "collection_times": "Mo-Sa 11:00", "nsi_id": "unitedstatespostalservice-a77078", "operator": "United States Postal Service", "operator:short": "USPS", "operator:type": "public", "operator:wikidata": "Q668687", "ref": "6336600057"}, "type": "Feature"}
{"geometry": {"coordinates": [-90.704542416, 38.808714475], "type": "Point"}, "id": "1_NOgrJ61dKLoAapjIB3qrF1GS4=", "properties": {"@source_uri": "https://tools.usps.com/UspsToolsRestServices/rest/POLocator/findLocations", "@spider": "usps_collection_boxes", "addr:city": "O FALLON", "addr:country": "US", "addr:postcode": "63366", "addr:state": "MO", "addr:street_address": "401 CHURCH ST", "amenity": "post_box", "collection_times": "Mo-Fr 18:00; Sa 14:00", "indoor": "yes", "note": "ON 12/24 AND 12/31, THIS BOX MAY BE COLLECTED AS EARLY AS 12 NOON.", "nsi_id": "unitedstatespostalservice-a77078", "operator": "United States Postal Service", "operator:short": "USPS", "operator:type": "public", "operator:wikidata": "Q668687", "ref": "6336600063"}, "type": "Feature"}
{"geometry": {"coordinates": [-90.700025, 38.805835], "type": "Point"}, "id": "_tIjTnP7_Lghh2wEPtz2eByl3Gk=", "properties": {"@source_uri": "https://tools.usps.com/UspsToolsRestServices/rest/POLocator/findLocations", "@spider": "usps_collection_boxes", "addr:city": "O FALLON", "addr:country": "US", "addr:postcode": "63366", "addr:state": "MO", "addr:street_address": "8001 OAKHAVEN DR", "amenity": "post_box", "collection_times": "Mo-Sa 11:00", "nsi_id": "unitedstatespostalservice-a77078", "operator": "United States Postal Service", "operator:short": "USPS", "operator:type": "public", "operator:wikidata": "Q668687", "ref": "6336600064"}, "type": "Feature"}
{"geometry": {"coordinates": [-90.7469779862, 38.9298920002], "type": "Point"}, "id": "WErAzjQat7F1nfr-z4SZjExc6yE=", "properties": {"@source_uri": "https://tools.usps.com/UspsToolsRestServices/rest/POLocator/findLocations", "@spider": "usps_collection_boxes", "addr:city": "OLD MONROE", "addr:country": "US", "addr:postcode": "63369", "addr:state": "MO", "addr:street_address": "104 SYCAMORE ST", "amenity": "post_box", "collection_times": "Mo-Fr 15:45; Sa 09:45", "note": "ON 12/24 AND 12/31, THIS BOX MAY BE COLLECTED AS EARLY AS 12 NOON.", "nsi_id": "unitedstatespostalservice-a77078", "operator": "United States Postal Service", "operator:short": "USPS", "operator:type": "public", "operator:wikidata": "Q668687", "ref": "6336900001"}, "type": "Feature"}
{"geometry": {"coordinates": [-90.749485, 38.929442], "type": "Point"}, "id": "S4ncsMMkaUHORZbvwC_tgLGTLDE=", "properties": {"@source_uri": "https://tools.usps.com/UspsToolsRestServices/rest/POLocator/findLocations", "@spider": "usps_collection_boxes", "addr:city": "OLD MONROE", "addr:country": "US", "addr:postcode": "63369", "addr:state": "MO", "addr:street_address": "104 SYCAMORE ST", "amenity": "post_box", "collection_times": "Mo-Fr 15:45; Sa 09:45", "indoor": "yes", "note": "ON 12/24 AND 12/31, THIS BOX MAY BE COLLECTED AS EARLY AS 12 NOON.", "nsi_id": "unitedstatespostalservice-a77078", "operator": "United States Postal Service", "operator:short": "USPS", "operator:type": "public", "operator:wikidata": "Q668687", "ref": "6336900003"}, "type": "Feature"}
{"geometry": {"coordinates": [-90.746993446, 38.929636464], "type": "Point"}, "id": "mnA6KBqN4aOwpllgpp3iT6lt0kQ=", "properties": {"@source_uri": "https://tools.usps.com/UspsToolsRestServices/rest/POLocator/findLocations", "@spider": "usps_collection_boxes", "addr:city": "OLD MONROE", "addr:country": "US", "addr:postcode": "63369", "addr:state": "MO", "addr:street_address": "104 SYCAMORE ST", "amenity": "post_box", "collection_times": "Mo-Fr 15:45; Sa 09:45", "indoor": "yes", "note": "ON 12/24 AND 12/31, THIS BOX MAY BE COLLECTED AS EARLY AS 12 NOON.", "nsi_id": "unitedstatespostalservice-a77078", "operator": "United States Postal Service", "operator:short": "USPS", "operator:type": "public", "operator:wikidata": "Q668687", "ref": "6336900006"}, "type": "Feature"}
{"geometry": {"coordinates": [-90.3422108124, 38.9248751729], "type": "Point"}, "id": "QLe440nOAxnF81tolgmXR9u0EFg=", "properties": {"@source_uri": "https://tools.usps.com/UspsToolsRestServices/rest/POLocator/findLocations", "@spider": "usps_collection_boxes", "addr:city": "PRTG DE SIOUX", "addr:country": "US", "addr:postcode": "63373", "addr:state": "MO", "addr:street_address": "1375 CLARK ST", "amenity": "post_box", "collection_times": "Mo-Fr 10:45; Sa 09:45", "nsi_id": "unitedstatespostalservice-a77078", "operator": "United States Postal Service", "operator:short": "USPS", "operator:type": "public", "operator:wikidata": "Q668687", "ref": "6337300001"}, "type": "Feature"}
{"geometry": {"coordinates": [-90.3422108124, 38.9248751729], "type": "Point"}, "id": "pHEDukEUxd-LW0PB0aoe2JhKEwo=", "properties": {"@source_uri": "https://tools.usps.com/UspsToolsRestServices/rest/POLocator/findLocations", "@spider": "usps_collection_boxes", "addr:city": "PRTG DE SIOUX", "addr:country": "US", "addr:postcode": "63373", "addr:state": "MO", "addr:street_address": "1375 CLARK ST", "amenity": "post_box", "collection_times": "Mo-Fr 10:45; Sa 09:45", "indoor": "yes", "nsi_id": "unitedstatespostalservice-a77078", "operator": "United States Postal Service", "operator:short": "USPS", "operator:type": "public", "operator:wikidata": "Q668687", "ref": "6337300002"}, "type": "Feature"}
{"geometry": {"coordinates": [-90.3422108124, 38.9248751729], "type": "Point"}, "id": "zvlawq_TdRfCsMCVacMdCk350XQ=", "properties": {"@source_uri": "https://tools.usps.com/UspsToolsRestServices/rest/POLocator/findLocations", "@spider": "usps_collection_boxes", "addr:city": "PRTG DE SIOUX", "addr:country": "US", "addr:postcode": "63373", "addr:state": "MO", "addr:street_address": "1375 CLARK ST", "amenity": "post_box", "collection_times": "Mo-Fr 10:45; Sa 09:45", "indoor": "yes", "nsi_id": "unitedstatespostalservice-a77078", "operator": "United States Postal Service", "operator:short": "USPS", "operator:type": "public", "operator:wikidata": "Q668687", "ref": "6337300003"}, "type": "Feature"}
{"geometry": {"coordinates": [-90.624956081, 38.788304525], "type": "Point"}, "id": "gZupPyLatolOxe2YPZoM8Jw6AAM=", "properties": {"@source_uri": "https://tools.usps.com/UspsToolsRestServices/rest/POLocator/findLocations", "@spider": "usps_collection_boxes", "addr:city": "SAINT PETERS", "addr:country": "US", "addr:postcode": "63376", "addr:state": "MO", "addr:street_address": "7055 MEXICO RD", "amenity": "post_box", "collection_times": "Mo-Sa 17:45", "indoor": "yes", "note": "ON 12/24 AND 12/31, THIS BOX MAY BE COLLECTED AS EARLY AS 12 NOON.", "nsi_id": "unitedstatespostalservice-a77078", "operator": "United States Postal Service", "operator:short": "USPS", "operator:type": "public", "operator:wikidata": "Q668687", "ref": "6337600003"}, "type": "Feature"}
{"geometry": {"coordinates": [-90.624956081, 38.788304525], "type": "Point"}, "id": "s9UAm0yaU2UttTROmdfjqN3C4x0=", "properties": {"@source_uri": "https://tools.usps.com/UspsToolsRestServices/rest/POLocator/findLocations", "@spider": "usps_collection_boxes", "addr:city": "SAINT PETERS", "addr:country": "US", "addr:postcode": "63376", "addr:state": "MO", "addr:street_address": "7055 MEXICO RD", "amenity": "post_box", "collection_times": "Mo-Sa 17:45", "note": "ON 12/24 AND 12/31, THIS BOX MAY BE COLLECTED AS EARLY AS 12 NOON.", "nsi_id": "unitedstatespostalservice-a77078", "operator": "United States Postal Service", "operator:short": "USPS", "operator:type": "public", "operator:wikidata": "Q668687", "ref": "6337600004"}, "type": "Feature"}
{"geometry": {"coordinates": [-90.5957870269, 38.7920792228], "type": "Point"}, "id": "lY6r0jG5ablSen1fZNNNfUQnD2o=", "properties": {"@source_uri": "https://tools.usps.com/UspsToolsRestServices/rest/POLocator/findLocations", "@spider": "usps_collection_boxes", "addr:city": "SAINT PETERS", "addr:country": "US", "addr:postcode": "63376", "addr:state": "MO", "addr:street_address": "1 SAINT PETERS CENTRE BLVD", "amenity": "post_box", "collection_times": "Mo-Fr 12:00; Sa 11:00", "nsi_id": "unitedstatespostalservice-a77078", "operator": "United States Postal Service", "operator:short": "USPS", "operator:type": "public", "operator:wikidata": "Q668687", "ref": "6337600007"}, "type": "Feature"}
{"geometry": {"coordinates": [-90.5668081, 38.791486], "type": "Point"}, "id": "RoQR7M3awSkITtii4jfZ2STQiCE=", "properties": {"@source_uri": "https://tools.usps.com/UspsToolsRestServices/rest/POLocator/findLocations", "@spider": "usps_collection_boxes", "addr:city": "SAINT PETERS", "addr:country": "US", "addr:postcode": "63376", "addr:state": "MO", "addr:street_address": "1053 CAVE SPRINGS BLVD", "amenity": "post_box", "collection_times": "Mo-Sa 11:30", "nsi_id": "unitedstatespostalservice-a77078", "operator": "United States Postal Service", "operator:short": "USPS", "operator:type": "public", "operator:wikidata": "Q668687", "ref": "6337600009"}, "type": "Feature"}
{"geometry": {"coordinates": [-90.5787819, 38.794761], "type": "Point"}, "id": "JhyJW-iA7dYjnB66RlWUfRe3rKU=", "properties": {"@source_uri": "https://tools.usps.com/UspsToolsRestServices/rest/POLocator/findLocations", "@spider": "usps_collection_boxes", "addr:city": "SAINT PETERS", "addr:country": "US", "addr:postcode": "63376", "addr:state": "MO", "addr:street_address": "6 JUNGERMANN CIR", "amenity": "post_box", "collection_times": "Mo-Sa 10:00", "nsi_id": "unitedstatespostalservice-a77078", "operator": "United States Postal Service", "operator:short": "USPS", "operator:type": "public", "operator:wikidata": "Q668687", "ref": "6337600020"}, "type": "Feature"}
{"geometry": {"coordinates": [-90.5801986, 38.794598], "type": "Point"}, "id": "ef9c2CjVvT_OvJnGLbfOZ1Yt5cM=", "properties": {"@source_uri": "https://tools.usps.com/UspsToolsRestServices/rest/POLocator/findLocations", "@spider": "usps_collection_boxes", "addr:city": "SAINT PETERS", "addr:country": "US", "addr:postcode": "63376", "addr:state": "MO", "addr:street_address": "70 JUNGERMANN CIR", "amenity": "post_box", "collection_times": "Mo-Sa 10:00", "nsi_id": "unitedstatespostalservice-a77078", "operator": "United States Postal Service", "operator:short": "USPS", "operator:type": "public", "operator:wikidata": "Q668687", "ref": "6337600021"}, "type": "Feature"}
{"geometry": {"coordinates": [-90.5921551, 38.748974], "type": "Point"}, "id": "5SF97xFj__Hqhdw6F6ZKTLwYjM8=", "properties": {"@source_uri": "https://tools.usps.com/UspsToolsRestServices/rest/POLocator/findLocations", "@spider": "usps_collection_boxes", "addr:city": "SAINT PETERS", "addr:country": "US", "addr:postcode": "63376", "addr:state": "MO", "addr:street_address": "48 PLAZA 94", "amenity": "post_box", "collection_times": "Mo-Sa 11:00", "nsi_id": "unitedstatespostalservice-a77078", "operator": "United States Postal Service", "operator:short": "USPS", "operator:type": "public", "operator:wikidata": "Q668687", "ref": "6337600032"}, "type": "Feature"}
{"geometry": {"coordinates": [-90.5773544985, 38.7787485034], "type": "Point"}, "id": "dkgwLF4wXqcYlmA-Rzff1Jx6CEY=", "properties": {"@source_uri": "https://tools.usps.com/UspsToolsRestServices/rest/POLocator/findLocations", "@spider": "usps_collection_boxes", "addr:city": "SAINT PETERS", "addr:country": "US", "addr:postcode": "63376", "addr:state": "MO", "addr:street_address": "9 SUTTERS MILL RD", "amenity": "post_box", "collection_times": "Mo-Sa 11:00", "nsi_id": "unitedstatespostalservice-a77078", "operator": "United States Postal Service", "operator:short": "USPS", "operator:type": "public", "operator:wikidata": "Q668687", "ref": "6337600034"}, "type": "Feature"}
{"geometry": {"coordinates": [-90.5982008, 38.793252], "type": "Point"}, "id": "aW3DmyN5imLlIfiJDLRyXiRrnXA=", "properties": {"@source_uri": "https://tools.usps.com/UspsToolsRestServices/rest/POLocator/findLocations", "@spider": "usps_collection_boxes", "addr:city": "SAINT PETERS", "addr:country": "US", "addr:postcode": "63376", "addr:state": "MO", "addr:street_address": "5600 MEXICO RD", "amenity": "post_box", "collection_times": "Mo-Sa 10:00", "nsi_id": "unitedstatespostalservice-a77078", "operator": "United States Postal Service", "operator:short": "USPS", "operator:type": "public", "operator:wikidata": "Q668687", "ref": "6337600048"}, "type": "Feature"}
{"geometry": {"coordinates": [-90.5723174, 38.790545], "type": "Point"}, "id": "7GRWVDBe_BP5Jyx7ilQoa0MTpgg=", "properties": {"@source_uri": "https://tools.usps.com/UspsToolsRestServices/rest/POLocator/findLocations", "@spider": "usps_collection_boxes", "addr:city": "SAINT PETERS", "addr:country": "US", "addr:postcode": "63376", "addr:state": "MO", "addr:street_address": "4101 MEXICO RD", "amenity": "post_box", "collection_times": "Mo-Sa 10:30", "nsi_id": "unitedstatespostalservice-a77078", "operator": "United States Postal Service", "operator:short": "USPS", "operator:type": "public", "operator:wikidata": "Q668687", "ref": "6337600049"}, "type": "Feature"}
{"geometry": {"coordinates": [-90.6277509, 38.787443], "type": "Point"}, "id": "q-eqc18HYvM8AgqN4mYGQgha2tg=", "properties": {"@source_uri": "https://tools.usps.com/UspsToolsRestServices/rest/POLocator/findLocations", "@spider": "usps_collection_boxes", "addr:city": "SAINT PETERS", "addr:country": "US", "addr:postcode": "63376", "addr:state": "MO", "addr:street_address": "577 MID RIVERS MALL DR", "amenity": "post_box", "collection_times": "Mo-Sa 12:00", "nsi_id": "unitedstatespostalservice-a77078", "operator": "United States Postal Service", "operator:short": "USPS", "operator:type": "public", "operator:wikidata": "Q668687", "ref": "6337600059"}, "type": "Feature"}
{"geometry": {"coordinates": [-90.6213904, 38.798028], "type": "Point"}, "id": "-c3uZa4UgZQIzQ-ep_PEGE5PYxM=", "properties": {"@source_uri": "https://tools.usps.com/UspsToolsRestServices/rest/POLocator/findLocations", "@spider": "usps_collection_boxes", "addr:city": "SAINT PETERS", "addr:country": "US", "addr:postcode": "63376", "addr:state": "MO", "addr:street_address": "1 MID RIVERS MALL DR", "amenity": "post_box", "collection_times": "Mo-Sa 10:00", "nsi_id": "unitedstatespostalservice-a77078", "operator": "United States Postal Service", "operator:short": "USPS", "operator:type": "public", "operator:wikidata": "Q668687", "ref": "6337600060"}, "type": "Feature"}
{"geometry": {"coordinates": [-90.5883387, 38.794197], "type": "Point"}, "id": "abRLKM1oQXgAWsnl3bqWDZT0cZY=", "properties": {"@source_uri": "https://tools.usps.com/UspsToolsRestServices/rest/POLocator/findLocations", "@spider": "usps_collection_boxes", "addr:city": "SAINT PETERS", "addr:country": "US", "addr:postcode": "63376", "addr:state": "MO", "addr:street_address": "112 PIPER HILL DR", "amenity": "post_box", "collection_times": "Mo-Sa 10:00", "nsi_id": "unitedstatespostalservice-a77078", "operator": "United States Postal Service", "operator:short": "USPS", "operator:type": "public", "operator:wikidata": "Q668687", "ref": "6337600062"}, "type": "Feature"}
{"geometry": {"coordinates": [-90.624956081, 38.788304525], "type": "Point"}, "id": "U9AhIBN_VJ1NfIulfIZXwrNczrI=", "properties": {"@source_uri": "https://tools.usps.com/UspsToolsRestServices/rest/POLocator/findLocations", "@spider": "usps_collection_boxes", "addr:city": "SAINT PETERS", "addr:country": "US", "addr:postcode": "63376", "addr:state": "MO", "addr:street_address": "7055 MEXICO RD", "amenity": "post_box", "collection_times": "Mo-Sa 17:45", "name": "USPS COLLECTION BOX - APC", "note": "ON 12/24 AND 12/31, THIS BOX MAY BE COLLECTED AS EARLY AS 12 NOON.", "nsi_id": "unitedstatespostalservice-a77078", "operator": "United States Postal Service", "operator:short": "USPS", "operator:type": "public", "operator:wikidata": "Q668687", "ref": "6337600064"}, "type": "Feature"}
{"geometry": {"coordinates": [-90.624956081, 38.788304525], "type": "Point"}, "id": "aTEzXg_eXxPc4wPJhjh2nPtNB5Q=", "properties": {"@source_uri": "https://tools.usps.com/UspsToolsRestServices/rest/POLocator/findLocations", "@spider": "usps_collection_boxes", "addr:city": "SAINT PETERS", "addr:country": "US", "addr:postcode": "63376", "addr:state": "MO", "addr:street_address": "7055 MEXICO RD", "amenity": "post_box", "collection_times": "Mo-Fr 17:45; Sa 14:30", "indoor": "yes", "note": "ON 12/24 AND 12/31, THIS BOX MAY BE COLLECTED AS EARLY AS 12 NOON.", "nsi_id": "unitedstatespostalservice-a77078", "operator": "United States Postal Service", "operator:short": "USPS", "operator:type": "public", "operator:wikidata": "Q668687", "ref": "6337600074"}, "type": "Feature"}
{"geometry": {"coordinates": [-91.0594479, 39.129092], "type": "Point"}, "id": "rxKNFPZAV1EwDmROVIkfmuBnn94=", "properties": {"@source_uri": "https://tools.usps.com/UspsToolsRestServices/rest/POLocator/findLocations", "@spider": "usps_collection_boxes", "addr:city": "SILEX", "addr:country": "US", "addr:postcode": "63377", "addr:state": "MO", "addr:street_address": "52 DUNCAN MANSION DR", "amenity": "post_box", "collection_times": "Mo-Fr 14:45; Sa 08:30", "note": "ON 12/24 AND 12/31, THIS BOX MAY BE COLLECTED AS EARLY AS 12 NOON.", "nsi_id": "unitedstatespostalservice-a77078", "operator": "United States Postal Service", "operator:short": "USPS", "operator:type": "public", "operator:wikidata": "Q668687", "ref": "6337700002"}, "type": "Feature"}
{"geometry": {"coordinates": [-91.05906, 39.129185], "type": "Point"}, "id": "X9zWgQ3JjgxVTfDYkPi0VR3CqTY=", "properties": {"@source_uri": "https://tools.usps.com/UspsToolsRestServices/rest/POLocator/findLocations", "@spider": "usps_collection_boxes", "addr:city": "SILEX", "addr:country": "US", "addr:postcode": "63377", "addr:state": "MO", "addr:street_address": "52 DUNCAN MANSION DR", "amenity": "post_box", "collection_times": "Mo-Fr 14:45; Sa 08:30", "indoor": "yes", "note": "ON 12/24 AND 12/31, THIS BOX MAY BE COLLECTED AS EARLY AS 12 NOON.", "nsi_id": "unitedstatespostalservice-a77078", "operator": "United States Postal Service", "operator:short": "USPS", "operator:type": "public", "operator:wikidata": "Q668687", "ref": "6337700003"}, "type": "Feature"}
{"geometry": {"coordinates": [-91.05931603, 39.129164594], "type": "Point"}, "id": "P70GdrlN32ombpWmc9nUqY3dOqY=", "properties": {"@source_uri": "https://tools.usps.com/UspsToolsRestServices/rest/POLocator/findLocations", "@spider": "usps_collection_boxes", "addr:city": "SILEX", "addr:country": "US", "addr:postcode": "63377", "addr:state": "MO", "addr:street_address": "52 DUNCAN MANSION DR", "amenity": "post_box", "collection_times": "Mo-Fr 14:45; Sa 08:30", "indoor": "yes", "note": "ON 12/24 AND 12/31, THIS BOX MAY BE COLLECTED AS EARLY AS 12 NOON.", "nsi_id": "unitedstatespostalservice-a77078", "operator": "United States Postal Service", "operator:short": "USPS", "operator:type": "public", "operator:wikidata": "Q668687", "ref": "6337700004"}, "type": "Feature"}
{"geometry": {"coordinates": [-90.9781606, 38.980399], "type": "Point"}, "id": "RezyMv73qJSPywSgPHy4sO5occg=", "properties": {"@source_uri": "https://tools.usps.com/UspsToolsRestServices/rest/POLocator/findLocations", "@spider": "usps_collection_boxes", "addr:city": "TROY", "addr:country": "US", "addr:postcode": "63379", "addr:state": "MO", "addr:street_address": "350 E CHERRY ST", "amenity": "post_box", "collection_times": "Mo-Fr 17:00; Sa 14:15", "indoor": "yes", "note": "ON 12/24 AND 12/31, THIS BOX MAY BE COLLECTED AS EARLY AS 12 NOON.", "nsi_id": "unitedstatespostalservice-a77078", "operator": "United States Postal Service", "operator:short": "USPS", "operator:type": "public", "operator:wikidata": "Q668687", "ref": "6337900002"}, "type": "Feature"}
{"geometry": {"coordinates": [-90.9781440026, 38.980309986], "type": "Point"}, "id": "4SkJwUa1fc7-PQkSyORfyEk5MHg=", "properties": {"@source_uri": "https://tools.usps.com/UspsToolsRestServices/rest/POLocator/findLocations", "@spider": "usps_collection_boxes", "addr:city": "TROY", "addr:country": "US", "addr:postcode": "63379", "addr:state": "MO", "addr:street_address": "350 E CHERRY ST", "amenity": "post_box", "collection_times": "Mo-Fr 17:00; Sa 14:15", "note": "ON 12/24 AND 12/31, THIS BOX MAY BE COLLECTED AS EARLY AS 12 NOON.", "nsi_id": "unitedstatespostalservice-a77078", "operator": "United States Postal Service", "operator:short": "USPS", "operator:type": "public", "operator:wikidata": "Q668687", "ref": "6337900004"}, "type": "Feature"}
{"geometry": {"coordinates": [-90.9755759, 38.988345], "type": "Point"}, "id": "4vIK-6hfljiR8lczY_kApXV6EZk=", "properties": {"@source_uri": "https://tools.usps.com/UspsToolsRestServices/rest/POLocator/findLocations", "@spider": "usps_collection_boxes", "addr:city": "TROY", "addr:country": "US", "addr:postcode": "63379", "addr:state": "MO", "addr:street_address": "15 TROY SQ", "amenity": "post_box", "collection_times": "Mo-Sa 11:00", "nsi_id": "unitedstatespostalservice-a77078", "operator": "United States Postal Service", "operator:short": "USPS", "operator:type": "public", "operator:wikidata": "Q668687", "ref": "6337900007"}, "type": "Feature"}
{"geometry": {"coordinates": [-90.9824636797, 38.9861509413], "type": "Point"}, "id": "z_qeE6-tBb_JZvcbMmAXkgz7-Jw=", "properties": {"@source_uri": "https://tools.usps.com/UspsToolsRestServices/rest/POLocator/findLocations", "@spider": "usps_collection_boxes", "addr:city": "TROY", "addr:country": "US", "addr:postcode": "63379", "addr:state": "MO", "addr:street_address": "101 HIGHWAY 47 E", "amenity": "post_box", "collection_times": "Mo-Sa 11:15", "nsi_id": "unitedstatespostalservice-a77078", "operator": "United States Postal Service", "operator:short": "USPS", "operator:type": "public", "operator:wikidata": "Q668687", "ref": "6337900008"}, "type": "Feature"}
{"geometry": {"coordinates": [-90.9727452, 38.986319], "type": "Point"}, "id": "IGifpp1CPiQgp8pV6xrrvjwY_OU=", "properties": {"@source_uri": "https://tools.usps.com/UspsToolsRestServices/rest/POLocator/findLocations", "@spider": "usps_collection_boxes", "addr:city": "TROY", "addr:country": "US", "addr:postcode": "63379", "addr:state": "MO", "addr:street_address": "7 LINCOLN CTR", "amenity": "post_box", "collection_times": "Mo-Sa 10:30", "nsi_id": "unitedstatespostalservice-a77078", "operator": "United States Postal Service", "operator:short": "USPS", "operator:type": "public", "operator:wikidata": "Q668687", "ref": "6337900009"}, "type": "Feature"}
{"geometry": {"coordinates": [-90.9774231, 38.986315], "type": "Point"}, "id": "mOnqUdAa_8LcDpyUSzU7cMZbET0=", "properties": {"@source_uri": "https://tools.usps.com/UspsToolsRestServices/rest/POLocator/findLocations", "@spider": "usps_collection_boxes", "addr:city": "TROY", "addr:country": "US", "addr:postcode": "63379", "addr:state": "MO", "addr:street_address": "25 THE PLZ", "amenity": "post_box", "collection_times": "Mo-Sa 11:30", "nsi_id": "unitedstatespostalservice-a77078", "operator": "United States Postal Service", "operator:short": "USPS", "operator:type": "public", "operator:wikidata": "Q668687", "ref": "6337900012"}, "type": "Feature"}
{"geometry": {"coordinates": [-90.978232134, 38.98047948], "type": "Point"}, "id": "Fbtw1ZNdkbIF0XUrb9qYZCUIqQM=", "properties": {"@source_uri": "https://tools.usps.com/UspsToolsRestServices/rest/POLocator/findLocations", "@spider": "usps_collection_boxes", "addr:city": "TROY", "addr:country": "US", "addr:postcode": "63379", "addr:state": "MO", "addr:street_address": "350 E CHERRY ST", "amenity": "post_box", "collection_times": "Mo-Fr 17:00; Sa 14:15", "indoor": "yes", "note": "ON 12/24 AND 12/31, THIS BOX MAY BE COLLECTED AS EARLY AS 12 NOON.", "nsi_id": "unitedstatespostalservice-a77078", "operator": "United States Postal Service", "operator:short": "USPS", "operator:type": "public", "operator:wikidata": "Q668687", "ref": "6337900016"}, "type": "Feature"}
{"geometry": {"coordinates": [-91.241135, 39.002923], "type": "Point"}, "id": "nQ7T2TLvDp8ZOWUDXQpspDru1bY=", "properties": {"@source_uri": "https://tools.usps.com/UspsToolsRestServices/rest/POLocator/findLocations", "@spider": "usps_collection_boxes", "addr:city": "TRUXTON", "addr:country": "US", "addr:postcode": "63381", "addr:state": "MO", "addr:street_address": "199 MAIN ST", "amenity": "post_box", "collection_times": "Mo-Fr 11:45; Sa 09:45", "nsi_id": "unitedstatespostalservice-a77078", "operator": "United States Postal Service", "operator:short": "USPS", "operator:type": "public", "operator:wikidata": "Q668687", "ref": "6338100001"}, "type": "Feature"}
{"geometry": {"coordinates": [-91.24125, 39.002951], "type": "Point"}, "id": "sxLv5EU8-y5v-XXIOity5roPKog=", "properties": {"@source_uri": "https://tools.usps.com/UspsToolsRestServices/rest/POLocator/findLocations", "@spider": "usps_collection_boxes", "addr:city": "TRUXTON", "addr:country": "US", "addr:postcode": "63381", "addr:state": "MO", "addr:street_address": "199 MAIN ST", "amenity": "post_box", "collection_times": "Mo-Fr 11:45; Sa 09:45", "indoor": "yes", "nsi_id": "unitedstatespostalservice-a77078", "operator": "United States Postal Service", "operator:short": "USPS", "operator:type": "public", "operator:wikidata": "Q668687", "ref": "6338100002"}, "type": "Feature"}
{"geometry": {"coordinates": [-91.241116472, 39.002914423], "type": "Point"}, "id": "IQxf4wx13j7GgqvGbGqCntq6Ia4=", "properties": {"@source_uri": "https://tools.usps.com/UspsToolsRestServices/rest/POLocator/findLocations", "@spider": "usps_collection_boxes", "addr:city": "TRUXTON", "addr:country": "US", "addr:postcode": "63381", "addr:state": "MO", "addr:street_address": "199 MAIN ST", "amenity": "post_box", "collection_times": "Mo-Fr 11:45; Sa 09:45", "indoor": "yes", "nsi_id": "unitedstatespostalservice-a77078", "operator": "United States Postal Service", "operator:short": "USPS", "operator:type": "public", "operator:wikidata": "Q668687", "ref": "6338100003"}, "type": "Feature"}
{"geometry": {"coordinates": [-91.4857005, 39.306939], "type": "Point"}, "id": "cyqktOJSb_0tPO05aKu-fCMXHAo=", "properties": {"@source_uri": "https://tools.usps.com/UspsToolsRestServices/rest/POLocator/findLocations", "@spider": "usps_collection_boxes", "addr:city": "VANDALIA", "addr:country": "US", "addr:postcode": "63382", "addr:state": "MO", "addr:street_address": "401 S MAIN ST", "amenity": "post_box", "collection_times": "Mo-Fr 15:45; Sa 11:00", "note": "ON 12/24 AND 12/31, THIS BOX MAY BE COLLECTED AS EARLY AS 12 NOON.", "nsi_id": "unitedstatespostalservice-a77078", "operator": "United States Postal Service", "operator:short": "USPS", "operator:type": "public", "operator:wikidata": "Q668687", "ref": "6338200001"}, "type": "Feature"}
{"geometry": {"coordinates": [-91.4876463, 39.309922], "type": "Point"}, "id": "Fmk4Oo-LJYvmxcLlXHpiLohigyM=", "properties": {"@source_uri": "https://tools.usps.com/UspsToolsRestServices/rest/POLocator/findLocations", "@spider": "usps_collection_boxes", "addr:city": "VANDALIA", "addr:country": "US", "addr:postcode": "63382", "addr:state": "MO", "addr:street_address": "112 N MAIN ST", "amenity": "post_box", "collection_times": "Mo-Sa 09:00", "nsi_id": "unitedstatespostalservice-a77078", "operator": "United States Postal Service", "operator:short": "USPS", "operator:type": "public", "operator:wikidata": "Q668687", "ref": "6338200002"}, "type": "Feature"}
{"geometry": {"coordinates": [-91.487588, 39.300934], "type": "Point"}, "id": "2zOArfKrj4VuyXbcOR_lbWSSwt4=", "properties": {"@source_uri": "https://tools.usps.com/UspsToolsRestServices/rest/POLocator/findLocations", "@spider": "usps_collection_boxes", "addr:city": "VANDALIA", "addr:country": "US", "addr:postcode": "63382", "addr:state": "MO", "addr:street_address": "1001 S MAPLE ST", "amenity": "post_box", "collection_times": "Mo-Sa 09:00", "nsi_id": "unitedstatespostalservice-a77078", "operator": "United States Postal Service", "operator:short": "USPS", "operator:type": "public", "operator:wikidata": "Q668687", "ref": "6338200003"}, "type": "Feature"}
{"geometry": {"coordinates": [-91.503106258, 39.303187667], "type": "Point"}, "id": "MpvTqiRIsXW2C43Sv4hXBkpEHvg=", "properties": {"@source_uri": "https://tools.usps.com/UspsToolsRestServices/rest/POLocator/findLocations", "@spider": "usps_collection_boxes", "addr:city": "VANDALIA", "addr:country": "US", "addr:postcode": "63382", "addr:state": "MO", "addr:street_address": "1555 W HIGHWAY 54", "amenity": "post_box", "collection_times": "Mo-Sa 13:30", "note": "ON 12/24 AND 12/31, THIS BOX MAY BE COLLECTED AS EARLY AS 12 NOON.", "nsi_id": "unitedstatespostalservice-a77078", "operator": "United States Postal Service", "operator:short": "USPS", "operator:type": "public", "operator:wikidata": "Q668687", "ref": "6338200006"}, "type": "Feature"}
{"geometry": {"coordinates": [-91.4859655, 39.307074], "type": "Point"}, "id": "TSp84ulMsDDkKgi31wC4Jj-QNqk=", "properties": {"@source_uri": "https://tools.usps.com/UspsToolsRestServices/rest/POLocator/findLocations", "@spider": "usps_collection_boxes", "addr:city": "VANDALIA", "addr:country": "US", "addr:postcode": "63382", "addr:state": "MO", "addr:street_address": "401 S MAIN ST", "amenity": "post_box", "collection_times": "Mo-Fr 15:45; Sa 11:00", "indoor": "yes", "note": "ON 12/24 AND 12/31, THIS BOX MAY BE COLLECTED AS EARLY AS 12 NOON.", "nsi_id": "unitedstatespostalservice-a77078", "operator": "United States Postal Service", "operator:short": "USPS", "operator:type": "public", "operator:wikidata": "Q668687", "ref": "6338200019"}, "type": "Feature"}
{"geometry": {"coordinates": [-91.485767864, 39.307079589], "type": "Point"}, "id": "NCFyhnRkuU9xJYbeSyz2za2_uKg=", "properties": {"@source_uri": "https://tools.usps.com/UspsToolsRestServices/rest/POLocator/findLocations", "@spider": "usps_collection_boxes", "addr:city": "VANDALIA", "addr:country": "US", "addr:postcode": "63382", "addr:state": "MO", "addr:street_address": "401 S MAIN ST", "amenity": "post_box", "collection_times": "Mo-Fr 15:45; Sa 11:00", "indoor": "yes", "note": "ON 12/24 AND 12/31, THIS BOX MAY BE COLLECTED AS EARLY AS 12 NOON.", "nsi_id": "unitedstatespostalservice-a77078", "operator": "United States Postal Service", "operator:short": "USPS", "operator:type": "public", "operator:wikidata": "Q668687", "ref": "6338200021"}, "type": "Feature"}
{"geometry": {"coordinates": [-91.143747, 38.811287], "type": "Point"}, "id": "uGrYOb14So1JwXWsj3gf3RQlfRs=", "properties": {"@source_uri": "https://tools.usps.com/UspsToolsRestServices/rest/POLocator/findLocations", "@spider": "usps_collection_boxes", "addr:city": "WARRENTON", "addr:country": "US", "addr:postcode": "63383", "addr:state": "MO", "addr:street_address": "501 E BOONESLICK RD", "amenity": "post_box", "collection_times": "Mo-Fr 17:00; Sa 16:00", "note": "ON 12/24 AND 12/31, THIS BOX MAY BE COLLECTED AS EARLY AS 12 NOON.", "nsi_id": "unitedstatespostalservice-a77078", "operator": "United States Postal Service", "operator:short": "USPS", "operator:type": "public", "operator:wikidata": "Q668687", "ref": "6338300002"}, "type": "Feature"}
{"geometry": {"coordinates": [-91.14386, 38.811254], "type": "Point"}, "id": "4VLgrCNB3EAWp7m3wwfb18B0DSg=", "properties": {"@source_uri": "https://tools.usps.com/UspsToolsRestServices/rest/POLocator/findLocations", "@spider": "usps_collection_boxes", "addr:city": "WARRENTON", "addr:country": "US", "addr:postcode": "63383", "addr:state": "MO", "addr:street_address": "501 E BOONESLICK RD", "amenity": "post_box", "collection_times": "Mo-Fr 17:00; Sa 16:00", "note": "ON 12/24 AND 12/31, THIS BOX MAY BE COLLECTED AS EARLY AS 12 NOON.", "nsi_id": "unitedstatespostalservice-a77078", "operator": "United States Postal Service", "operator:short": "USPS", "operator:type": "public", "operator:wikidata": "Q668687", "ref": "6338300004"}, "type": "Feature"}
{"geometry": {"coordinates": [-91.1367733, 38.824752], "type": "Point"}, "id": "8aY7dDbgBGjEag3WQ9w1mvtohZg=", "properties": {"@source_uri": "https://tools.usps.com/UspsToolsRestServices/rest/POLocator/findLocations", "@spider": "usps_collection_boxes", "addr:city": "WARRENTON", "addr:country": "US", "addr:postcode": "63383", "addr:state": "MO", "addr:street_address": "1022 N HIGHWAY 47", "amenity": "post_box", "collection_times": "Mo-Sa 11:00", "nsi_id": "unitedstatespostalservice-a77078", "operator": "United States Postal Service", "operator:short": "USPS", "operator:type": "public", "operator:wikidata": "Q668687", "ref": "6338300005"}, "type": "Feature"}
{"geometry": {"coordinates": [-91.2280128, 38.839943], "type": "Point"}, "id": "4qllo6f_luAW0G2H4Hkrh_wlVK0=", "properties": {"@source_uri": "https://tools.usps.com/UspsToolsRestServices/rest/POLocator/findLocations", "@spider": "usps_collection_boxes", "addr:city": "WARRENTON", "addr:country": "US", "addr:postcode": "63383", "addr:state": "MO", "addr:street_address": "24004 W VETERANS MEMORIAL PKWY", "amenity": "post_box", "collection_times": "Mo-Sa 10:00", "nsi_id": "unitedstatespostalservice-a77078", "operator": "United States Postal Service", "operator:short": "USPS", "operator:type": "public", "operator:wikidata": "Q668687", "ref": "6338300014"}, "type": "Feature"}
{"geometry": {"coordinates": [-91.1419785, 38.823645], "type": "Point"}, "id": "CiFVACyvK_7cC0n1K0htcBOPfU8=", "properties": {"@source_uri": "https://tools.usps.com/UspsToolsRestServices/rest/POLocator/findLocations", "@spider": "usps_collection_boxes", "addr:city": "WARRENTON", "addr:country": "US", "addr:postcode": "63383", "addr:state": "MO", "addr:street_address": "500 WARREN COUNTY SHOPPING CTR", "amenity": "post_box", "collection_times": "Mo-Sa 11:00", "nsi_id": "unitedstatespostalservice-a77078", "operator": "United States Postal Service", "operator:short": "USPS", "operator:type": "public", "operator:wikidata": "Q668687", "ref": "6338300018"}, "type": "Feature"}
{"geometry": {"coordinates": [-91.14386, 38.811254], "type": "Point"}, "id": "tPjPvxPhTCHqECfY4QL-PwIuSx8=", "properties": {"@source_uri": "https://tools.usps.com/UspsToolsRestServices/rest/POLocator/findLocations", "@spider": "usps_collection_boxes", "addr:city": "WARRENTON", "addr:country": "US", "addr:postcode": "63383", "addr:state": "MO", "addr:street_address": "501 E BOONESLICK RD", "amenity": "post_box", "collection_times": "Mo-Fr 17:00; Sa 16:00", "indoor": "yes", "note": "ON 12/24 AND 12/31, THIS BOX MAY BE COLLECTED AS EARLY AS 12 NOON.", "nsi_id": "unitedstatespostalservice-a77078", "operator": "United States Postal Service", "operator:short": "USPS", "operator:type": "public", "operator:wikidata": "Q668687", "ref": "6338300020"}, "type": "Feature"}
{"geometry": {"coordinates": [-91.14386, 38.811254], "type": "Point"}, "id": "K210AQ2zrOc15ZhDFLsrV0iNaNg=", "properties": {"@source_uri": "https://tools.usps.com/UspsToolsRestServices/rest/POLocator/findLocations", "@spider": "usps_collection_boxes", "addr:city": "WARRENTON", "addr:country": "US", "addr:postcode": "63383", "addr:state": "MO", "addr:street_address": "501 E BOONESLICK RD", "amenity": "post_box", "collection_times": "Mo-Fr 17:00; Sa 16:00", "indoor": "yes", "note": "ON 12/24 AND 12/31, THIS BOX MAY BE COLLECTED AS EARLY AS 12 NOON.", "nsi_id": "unitedstatespostalservice-a77078", "operator": "United States Postal Service", "operator:short": "USPS", "operator:type": "public", "operator:wikidata": "Q668687", "ref": "6338300022"}, "type": "Feature"}
{"geometry": {"coordinates": [-91.1503310088, 38.8198700076], "type": "Point"}, "id": "GvyfcL7hOGkSPiK5T2-gNTq042U=", "properties": {"@source_uri": "https://tools.usps.com/UspsToolsRestServices/rest/POLocator/findLocations", "@spider": "usps_collection_boxes", "addr:city": "WARRENTON", "addr:country": "US", "addr:postcode": "63383", "addr:state": "MO", "addr:street_address": "277 W VETERANS MEMORIAL PKWY", "amenity": "post_box", "collection_times": "Mo-Sa 13:00", "note": "ON 12/24 AND 12/31, THIS BOX MAY BE COLLECTED AS EARLY AS 12 NOON.", "nsi_id": "unitedstatespostalservice-a77078", "operator": "United States Postal Service", "operator:short": "USPS", "operator:type": "public", "operator:wikidata": "Q668687", "ref": "6338300023"}, "type": "Feature"}
{"geometry": {"coordinates": [-91.1346168, 38.822254], "type": "Point"}, "id": "lEvlRSa0mK4fKJv-J6EFOHA-s0I=", "properties": {"@source_uri": "https://tools.usps.com/UspsToolsRestServices/rest/POLocator/findLocations", "@spider": "usps_collection_boxes", "addr:city": "WARRENTON", "addr:country": "US", "addr:postcode": "63383", "addr:state": "MO", "addr:street_address": "1035 ARMORY RD", "amenity": "post_box", "collection_times": "Mo-Sa 11:00", "nsi_id": "unitedstatespostalservice-a77078", "operator": "United States Postal Service", "operator:short": "USPS", "operator:type": "public", "operator:wikidata": "Q668687", "ref": "6338300024"}, "type": "Feature"}
{"geometry": {"coordinates": [-91.143502334, 38.811277486], "type": "Point"}, "id": "ZBVFyY8jpjZAgbzdMa3SjFAerFo=", "properties": {"@source_uri": "https://tools.usps.com/UspsToolsRestServices/rest/POLocator/findLocations", "@spider": "usps_collection_boxes", "addr:city": "WARRENTON", "addr:country": "US", "addr:postcode": "63383", "addr:state": "MO", "addr:street_address": "501 E BOONESLICK RD", "amenity": "post_box", "collection_times": "Mo-Fr 17:00; Sa 16:00", "indoor": "yes", "note": "ON 12/24 AND 12/31, THIS BOX MAY BE COLLECTED AS EARLY AS 12 NOON.", "nsi_id": "unitedstatespostalservice-a77078", "operator": "United States Postal Service", "operator:short": "USPS", "operator:type": "public", "operator:wikidata": "Q668687", "ref": "6338300025"}, "type": "Feature"}
{"geometry": {"coordinates": [-91.568668, 39.071073], "type": "Point"}, "id": "QFze3UA6uKK7GRzYDS3JOBFIQ4U=", "properties": {"@source_uri": "https://tools.usps.com/UspsToolsRestServices/rest/POLocator/findLocations", "@spider": "usps_collection_boxes", "addr:city": "WELLSVILLE", "addr:country": "US", "addr:postcode": "63384", "addr:state": "MO", "addr:street_address": "115 E HUDSON ST", "amenity": "post_box", "collection_times": "Mo-Fr 16:30; Sa 08:00", "note": "ON 12/24 AND 12/31, THIS BOX MAY BE COLLECTED AS EARLY AS 12 NOON.", "nsi_id": "unitedstatespostalservice-a77078", "operator": "United States Postal Service", "operator:short": "USPS", "operator:type": "public", "operator:wikidata": "Q668687", "ref": "6338400012"}, "type": "Feature"}
{"geometry": {"coordinates": [-91.568749, 39.071102], "type": "Point"}, "id": "NexgiO39kiOydBVK392Ujud2KdI=", "properties": {"@source_uri": "https://tools.usps.com/UspsToolsRestServices/rest/POLocator/findLocations", "@spider": "usps_collection_boxes", "addr:city": "WELLSVILLE", "addr:country": "US", "addr:postcode": "63384", "addr:state": "MO", "addr:street_address": "115 E HUDSON ST", "amenity": "post_box", "collection_times": "Mo-Fr 16:15", "indoor": "yes", "note": "ON 12/24 AND 12/31, THIS BOX MAY BE COLLECTED AS EARLY AS 12 NOON.", "nsi_id": "unitedstatespostalservice-a77078", "operator": "United States Postal Service", "operator:short": "USPS", "operator:type": "public", "operator:wikidata": "Q668687", "ref": "6338400013"}, "type": "Feature"}
{"geometry": {"coordinates": [-91.568672995, 39.071116529], "type": "Point"}, "id": "UhwnSL2Fh1mOy3aZSc-2wKTdbuo=", "properties": {"@source_uri": "https://tools.usps.com/UspsToolsRestServices/rest/POLocator/findLocations", "@spider": "usps_collection_boxes", "addr:city": "WELLSVILLE", "addr:country": "US", "addr:postcode": "63384", "addr:state": "MO", "addr:street_address": "115 E HUDSON ST", "amenity": "post_box", "collection_times": "Mo-Fr 16:15", "indoor": "yes", "note": "ON 12/24 AND 12/31, THIS BOX MAY BE COLLECTED AS EARLY AS 12 NOON.", "nsi_id": "unitedstatespostalservice-a77078", "operator": "United States Postal Service", "operator:short": "USPS", "operator:type": "public", "operator:wikidata": "Q668687", "ref": "6338400015"}, "type": "Feature"}
{"geometry": {"coordinates": [-90.8494615646, 38.8193469661], "type": "Point"}, "id": "mik1Hng7f6lXXRlxrhAtl5En68Q=", "properties": {"@source_uri": "https://tools.usps.com/UspsToolsRestServices/rest/POLocator/findLocations", "@spider": "usps_collection_boxes", "addr:city": "WENTZVILLE", "addr:country": "US", "addr:postcode": "63385", "addr:state": "MO", "addr:street_address": "762 LUETKENHAUS BLVD", "amenity": "post_box", "collection_times": "Mo-Sa 17:00", "note": "ON 12/24 AND 12/31, THIS BOX MAY BE COLLECTED AS EARLY AS 12 NOON.", "nsi_id": "unitedstatespostalservice-a77078", "operator": "United States Postal Service", "operator:short": "USPS", "operator:type": "public", "operator:wikidata": "Q668687", "ref": "6338500001"}, "type": "Feature"}
{"geometry": {"coordinates": [-90.8752273, 38.819064], "type": "Point"}, "id": "8yKdHXV41V3X2pUOdobCALTyiw0=", "properties": {"@source_uri": "https://tools.usps.com/UspsToolsRestServices/rest/POLocator/findLocations", "@spider": "usps_collection_boxes", "addr:city": "WENTZVILLE", "addr:country": "US", "addr:postcode": "63385", "addr:state": "MO", "addr:street_address": "1820 WENTZVILLE PKWY", "amenity": "post_box", "collection_times": "Mo-Sa 10:30", "nsi_id": "unitedstatespostalservice-a77078", "operator": "United States Postal Service", "operator:short": "USPS", "operator:type": "public", "operator:wikidata": "Q668687", "ref": "6338500004"}, "type": "Feature"}
{"geometry": {"coordinates": [-90.8188015, 38.800163], "type": "Point"}, "id": "yTke5bt3WcZ8Uj43bJeSBrOZ2Ss=", "properties": {"@source_uri": "https://tools.usps.com/UspsToolsRestServices/rest/POLocator/findLocations", "@spider": "usps_collection_boxes", "addr:city": "WENTZVILLE", "addr:country": "US", "addr:postcode": "63385", "addr:state": "MO", "addr:street_address": "1200 CORPORATE PKWY", "amenity": "post_box", "collection_times": "Mo-Sa 10:30", "nsi_id": "unitedstatespostalservice-a77078", "operator": "United States Postal Service", "operator:short": "USPS", "operator:type": "public", "operator:wikidata": "Q668687", "ref": "6338500006"}, "type": "Feature"}
{"geometry": {"coordinates": [-90.8740009, 38.813902], "type": "Point"}, "id": "SeMMlmL2bsHIujryO6z91HHkICU=", "properties": {"@source_uri": "https://tools.usps.com/UspsToolsRestServices/rest/POLocator/findLocations", "@spider": "usps_collection_boxes", "addr:city": "WENTZVILLE", "addr:country": "US", "addr:postcode": "63385", "addr:state": "MO", "addr:street_address": "1976 WENTZVILLE PKWY", "amenity": "post_box", "collection_times": "Mo-Sa 10:30", "nsi_id": "unitedstatespostalservice-a77078", "operator": "United States Postal Service", "operator:short": "USPS", "operator:type": "public", "operator:wikidata": "Q668687", "ref": "6338500009"}, "type": "Feature"}
{"geometry": {"coordinates": [-90.8622821, 38.81021], "type": "Point"}, "id": "vTxHraLtz_HxbJu2EKXjgG-3Apk=", "properties": {"@source_uri": "https://tools.usps.com/UspsToolsRestServices/rest/POLocator/findLocations", "@spider": "usps_collection_boxes", "addr:city": "WENTZVILLE", "addr:country": "US", "addr:postcode": "63385", "addr:state": "MO", "addr:street_address": "608 W PEARCE BLVD", "amenity": "post_box", "collection_times": "Mo-Sa 10:30", "nsi_id": "unitedstatespostalservice-a77078", "operator": "United States Postal Service", "operator:short": "USPS", "operator:type": "public", "operator:wikidata": "Q668687", "ref": "6338500012"}, "type": "Feature"}
{"geometry": {"coordinates": [-90.8792983, 38.824415], "type": "Point"}, "id": "9mNdvW80271bIFCY0j9JQFHfLUY=", "properties": {"@source_uri": "https://tools.usps.com/UspsToolsRestServices/rest/POLocator/findLocations", "@spider": "usps_collection_boxes", "addr:city": "WENTZVILLE", "addr:country": "US", "addr:postcode": "63385", "addr:state": "MO", "addr:street_address": "1598 W MEYER RD", "amenity": "post_box", "collection_times": "Mo-Sa 10:30", "nsi_id": "unitedstatespostalservice-a77078", "operator": "United States Postal Service", "operator:short": "USPS", "operator:type": "public", "operator:wikidata": "Q668687", "ref": "6338500014"}, "type": "Feature"}
{"geometry": {"coordinates": [-90.849461565, 38.819346966], "type": "Point"}, "id": "bT6y6hwvl1_mK76NfRCIXLSDol0=", "properties": {"@source_uri": "https://tools.usps.com/UspsToolsRestServices/rest/POLocator/findLocations", "@spider": "usps_collection_boxes", "addr:city": "WENTZVILLE", "addr:country": "US", "addr:postcode": "63385", "addr:state": "MO", "addr:street_address": "762 LUETKENHAUS BLVD", "amenity": "post_box", "collection_times": "Mo-Sa 17:00", "note": "ON 12/24 AND 12/31, THIS BOX MAY BE COLLECTED AS EARLY AS 12 NOON.", "nsi_id": "unitedstatespostalservice-a77078", "operator": "United States Postal Service", "operator:short": "USPS", "operator:type": "public", "operator:wikidata": "Q668687", "ref": "6338500015"}, "type": "Feature"}
{"geometry": {"coordinates": [-90.849461565, 38.819346966], "type": "Point"}, "id": "5uL_5OY_F6n4I_y3RDAud7Ej03g=", "properties": {"@source_uri": "https://tools.usps.com/UspsToolsRestServices/rest/POLocator/findLocations", "@spider": "usps_collection_boxes", "addr:city": "WENTZVILLE", "addr:country": "US", "addr:postcode": "63385", "addr:state": "MO", "addr:street_address": "762 LUETKENHAUS BLVD", "amenity": "post_box", "collection_times": "Mo-Sa 17:00", "indoor": "yes", "note": "ON 12/24 AND 12/31, THIS BOX MAY BE COLLECTED AS EARLY AS 12 NOON.", "nsi_id": "unitedstatespostalservice-a77078", "operator": "United States Postal Service", "operator:short": "USPS", "operator:type": "public", "operator:wikidata": "Q668687", "ref": "6338500018"}, "type": "Feature"}
{"geometry": {"coordinates": [-90.849461565, 38.819346966], "type": "Point"}, "id": "qQxC2yfAcpPIHfjKXkNWfwzmNEo=", "properties": {"@source_uri": "https://tools.usps.com/UspsToolsRestServices/rest/POLocator/findLocations", "@spider": "usps_collection_boxes", "addr:city": "WENTZVILLE", "addr:country": "US", "addr:postcode": "63385", "addr:state": "MO", "addr:street_address": "762 LUETKENHAUS BLVD", "amenity": "post_box", "collection_times": "Mo-Sa 17:00", "indoor": "yes", "note": "ON 12/24 AND 12/31, THIS BOX MAY BE COLLECTED AS EARLY AS 12 NOON.", "nsi_id": "unitedstatespostalservice-a77078", "operator": "United States Postal Service", "operator:short": "USPS", "operator:type": "public", "operator:wikidata": "Q668687", "ref": "6338500025"}, "type": "Feature"}
{"geometry": {"coordinates": [-90.2218469746, 38.8601090102], "type": "Point"}, "id": "PqMnBOOhLcL7tauXv_hmFo5wXxA=", "properties": {"@source_uri": "https://tools.usps.com/UspsToolsRestServices/rest/POLocator/findLocations", "@spider": "usps_collection_boxes", "addr:city": "WEST ALTON", "addr:country": "US", "addr:postcode": "63386", "addr:state": "MO", "addr:street_address": "14000 US HIGHWAY 67", "amenity": "post_box", "collection_times": "Mo-Sa 10:00", "nsi_id": "unitedstatespostalservice-a77078", "operator": "United States Postal Service", "operator:short": "USPS", "operator:type": "public", "operator:wikidata": "Q668687", "ref": "6338600001"}, "type": "Feature"}
{"geometry": {"coordinates": [-91.016696, 39.185071], "type": "Point"}, "id": "KlDPx1RCoLTZrZu1RsOQ13Anev0=", "properties": {"@source_uri": "https://tools.usps.com/UspsToolsRestServices/rest/POLocator/findLocations", "@spider": "usps_collection_boxes", "addr:city": "WHITESIDE", "addr:country": "US", "addr:postcode": "63387", "addr:state": "MO", "addr:street_address": "120 PRAIRIE ST", "amenity": "post_box", "collection_times": "Mo-Sa 10:45", "nsi_id": "unitedstatespostalservice-a77078", "operator": "United States Postal Service", "operator:short": "USPS", "operator:type": "public", "operator:wikidata": "Q668687", "ref": "6338700001"}, "type": "Feature"}
{"geometry": {"coordinates": [-91.016754, 39.185111], "type": "Point"}, "id": "3lOId0XWsc_I1Vio0g4zpPHq6QQ=", "properties": {"@source_uri": "https://tools.usps.com/UspsToolsRestServices/rest/POLocator/findLocations", "@spider": "usps_collection_boxes", "addr:city": "WHITESIDE", "addr:country": "US", "addr:postcode": "63387", "addr:state": "MO", "addr:street_address": "120 PRAIRIE ST", "amenity": "post_box", "collection_times": "Mo-Sa 10:45", "indoor": "yes", "nsi_id": "unitedstatespostalservice-a77078", "operator": "United States Postal Service", "operator:short": "USPS", "operator:type": "public", "operator:wikidata": "Q668687", "ref": "6338700002"}, "type": "Feature"}
{"geometry": {"coordinates": [-91.016694735, 39.185088998], "type": "Point"}, "id": "z1kIA5OiRfGYoB0ZKruoM0B5wIM=", "properties": {"@source_uri": "https://tools.usps.com/UspsToolsRestServices/rest/POLocator/findLocations", "@spider": "usps_collection_boxes", "addr:city": "WHITESIDE", "addr:country": "US", "addr:postcode": "63387", "addr:state": "MO", "addr:street_address": "120 PRAIRIE ST", "amenity": "post_box", "collection_times": "Mo-Sa 10:45", "indoor": "yes", "nsi_id": "unitedstatespostalservice-a77078", "operator": "United States Postal Service", "operator:short": "USPS", "operator:type": "public", "operator:wikidata": "Q668687", "ref": "6338700004"}, "type": "Feature"}
{"geometry": {"coordinates": [-91.7001945, 38.9165], "type": "Point"}, "id": "0Yu3tEtu4w-KlR81bRPl_oE_7Ik=", "properties": {"@source_uri": "https://tools.usps.com/UspsToolsRestServices/rest/POLocator/findLocations", "@spider": "usps_collection_boxes", "addr:city": "WILLIAMSBURG", "addr:country": "US", "addr:postcode": "63388", "addr:state": "MO", "addr:street_address": "3828 COUNTY ROAD 1005", "amenity": "post_box", "collection_times": "Mo-Fr 11:15; Sa 09:15", "nsi_id": "unitedstatespostalservice-a77078", "operator": "United States Postal Service", "operator:short": "USPS", "operator:type": "public", "operator:wikidata": "Q668687", "ref": "6338800001"}, "type": "Feature"}
{"geometry": {"coordinates": [-91.700331, 38.917611], "type": "Point"}, "id": "HFzI-L1Tp5eRfo4dIH21jf0ii7Q=", "properties": {"@source_uri": "https://tools.usps.com/UspsToolsRestServices/rest/POLocator/findLocations", "@spider": "usps_collection_boxes", "addr:city": "WILLIAMSBURG", "addr:country": "US", "addr:postcode": "63388", "addr:state": "MO", "addr:street_address": "3828 COUNTY ROAD 1005", "amenity": "post_box", "collection_times": "Mo-Fr 11:15; Sa 09:15", "indoor": "yes", "nsi_id": "unitedstatespostalservice-a77078", "operator": "United States Postal Service", "operator:short": "USPS", "operator:type": "public", "operator:wikidata": "Q668687", "ref": "6338800002"}, "type": "Feature"}
{"geometry": {"coordinates": [-91.700331, 38.917611], "type": "Point"}, "id": "JIJ2KX9i4h9ByQSq2y2KW9mIKdE=", "properties": {"@source_uri": "https://tools.usps.com/UspsToolsRestServices/rest/POLocator/findLocations", "@spider": "usps_collection_boxes", "addr:city": "WILLIAMSBURG", "addr:country": "US", "addr:postcode": "63388", "addr:state": "MO", "addr:street_address": "3828 COUNTY ROAD 1005", "amenity": "post_box", "collection_times": "Mo-Fr 11:15; Sa 09:15", "indoor": "yes", "nsi_id": "unitedstatespostalservice-a77078", "operator": "United States Postal Service", "operator:short": "USPS", "operator:type": "public", "operator:wikidata": "Q668687", "ref": "6338800003"}, "type": "Feature"}
{"geometry": {"coordinates": [-91.700162066, 38.921423318], "type": "Point"}, "id": "V88G8xSZ5tpMPEiTBWSWJChYyV0=", "properties": {"@source_uri": "https://tools.usps.com/UspsToolsRestServices/rest/POLocator/findLocations", "@spider": "usps_collection_boxes", "addr:city": "WILLIAMSBURG", "addr:country": "US", "addr:postcode": "63388", "addr:state": "MO", "addr:street_address": "3828 COUNTY ROAD 1005", "amenity": "post_box", "collection_times": "Mo-Fr 11:15; Sa 09:15", "indoor": "yes", "nsi_id": "unitedstatespostalservice-a77078", "operator": "United States Postal Service", "operator:short": "USPS", "operator:type": "public", "operator:wikidata": "Q668687", "ref": "6338800004"}, "type": "Feature"}
{"geometry": {"coordinates": [-90.740027, 38.997161], "type": "Point"}, "id": "PrEQ531tg-psaJIkH9XJTqspUP4=", "properties": {"@source_uri": "https://tools.usps.com/UspsToolsRestServices/rest/POLocator/findLocations", "@spider": "usps_collection_boxes", "addr:city": "WINFIELD", "addr:country": "US", "addr:postcode": "63389", "addr:state": "MO", "addr:street_address": "298 W CHERRY ST", "amenity": "post_box", "collection_times": "Mo-Fr 16:00; Sa 10:30", "note": "ON 12/24 AND 12/31, THIS BOX MAY BE COLLECTED AS EARLY AS 12 NOON.", "nsi_id": "unitedstatespostalservice-a77078", "operator": "United States Postal Service", "operator:short": "USPS", "operator:type": "public", "operator:wikidata": "Q668687", "ref": "6338900001"}, "type": "Feature"}
{"geometry": {"coordinates": [-90.740027, 38.997188], "type": "Point"}, "id": "s61rgSwmFDBMhTZTJKKfZD8TWt8=", "properties": {"@source_uri": "https://tools.usps.com/UspsToolsRestServices/rest/POLocator/findLocations", "@spider": "usps_collection_boxes", "addr:city": "WINFIELD", "addr:country": "US", "addr:postcode": "63389", "addr:state": "MO", "addr:street_address": "298 W CHERRY ST", "amenity": "post_box", "collection_times": "Mo-Fr 16:00; Sa 10:30", "indoor": "yes", "note": "ON 12/24 AND 12/31, THIS BOX MAY BE COLLECTED AS EARLY AS 12 NOON.", "nsi_id": "unitedstatespostalservice-a77078", "operator": "United States Postal Service", "operator:short": "USPS", "operator:type": "public", "operator:wikidata": "Q668687", "ref": "6338900002"}, "type": "Feature"}
{"geometry": {"coordinates": [-90.740231246, 38.997150518], "type": "Point"}, "id": "a4UAgBVPnHpqWnr7HU0kGs4CPyU=", "properties": {"@source_uri": "https://tools.usps.com/UspsToolsRestServices/rest/POLocator/findLocations", "@spider": "usps_collection_boxes", "addr:city": "WINFIELD", "addr:country": "US", "addr:postcode": "63389", "addr:state": "MO", "addr:street_address": "298 W CHERRY ST", "amenity": "post_box", "collection_times": "Mo-Fr 16:00; Sa 10:30", "indoor": "yes", "note": "ON 12/24 AND 12/31, THIS BOX MAY BE COLLECTED AS EARLY AS 12 NOON.", "nsi_id": "unitedstatespostalservice-a77078", "operator": "United States Postal Service", "operator:short": "USPS", "operator:type": "public", "operator:wikidata": "Q668687", "ref": "6338900004"}, "type": "Feature"}
{"geometry": {"coordinates": [-91.019049597, 38.828751007], "type": "Point"}, "id": "RRQGKuJ_PsmUqo2cORHky8HhYEk=", "properties": {"@source_uri": "https://tools.usps.com/UspsToolsRestServices/rest/POLocator/findLocations", "@spider": "usps_collection_boxes", "addr:city": "WRIGHT CITY", "addr:country": "US", "addr:postcode": "63390", "addr:state": "MO", "addr:street_address": "206 W 2ND ST N", "amenity": "post_box", "collection_times": "Mo-Fr 15:00; Sa 09:30", "note": "ON 12/24 AND 12/31, THIS BOX MAY BE COLLECTED AS EARLY AS 12 NOON.", "nsi_id": "unitedstatespostalservice-a77078", "operator": "United States Postal Service", "operator:short": "USPS", "operator:type": "public", "operator:wikidata": "Q668687", "ref": "6339000002"}, "type": "Feature"}
{"geometry": {"coordinates": [-91.0190495969, 38.8287510069], "type": "Point"}, "id": "2jet8rUOen8qf8TVj9HghPY-Opk=", "properties": {"@source_uri": "https://tools.usps.com/UspsToolsRestServices/rest/POLocator/findLocations", "@spider": "usps_collection_boxes", "addr:city": "WRIGHT CITY", "addr:country": "US", "addr:postcode": "63390", "addr:state": "MO", "addr:street_address": "206 W 2ND ST N", "amenity": "post_box", "collection_times": "Mo-Fr 15:00; Sa 09:30", "indoor": "yes", "note": "ON 12/24 AND 12/31, THIS BOX MAY BE COLLECTED AS EARLY AS 12 NOON.", "nsi_id": "unitedstatespostalservice-a77078", "operator": "United States Postal Service", "operator:short": "USPS", "operator:type": "public", "operator:wikidata": "Q668687", "ref": "6339000005"}, "type": "Feature"}
{"geometry": {"coordinates": [-91.0416366, 38.83118], "type": "Point"}, "id": "FLBh-01D_sD7IMZDIJz5pVUh02M=", "properties": {"@source_uri": "https://tools.usps.com/UspsToolsRestServices/rest/POLocator/findLocations", "@spider": "usps_collection_boxes", "addr:city": "WRIGHT CITY", "addr:country": "US", "addr:postcode": "63390", "addr:state": "MO", "addr:street_address": "20 WILDCAT DR", "amenity": "post_box", "collection_times": "Mo-Sa 11:00", "nsi_id": "unitedstatespostalservice-a77078", "operator": "United States Postal Service", "operator:short": "USPS", "operator:type": "public", "operator:wikidata": "Q668687", "ref": "6339000007"}, "type": "Feature"}
{"geometry": {"coordinates": [-91.019049597, 38.828751007], "type": "Point"}, "id": "3zM0Jh3XOQQR5rgs2dkMD0wiAQ8=", "properties": {"@source_uri": "https://tools.usps.com/UspsToolsRestServices/rest/POLocator/findLocations", "@spider": "usps_collection_boxes", "addr:city": "WRIGHT CITY", "addr:country": "US", "addr:postcode": "63390", "addr:state": "MO", "addr:street_address": "206 W 2ND ST N", "amenity": "post_box", "collection_times": "Mo-Fr 15:45; Sa 10:45", "indoor": "yes", "note": "ON 12/24 AND 12/31, THIS BOX MAY BE COLLECTED AS EARLY AS 12 NOON.", "nsi_id": "unitedstatespostalservice-a77078", "operator": "United States Postal Service", "operator:short": "USPS", "operator:type": "public", "operator:wikidata": "Q668687", "ref": "6339000010"}, "type": "Feature"}
