{"geometry": {"coordinates": [-91.3633892, 39.706131], "type": "Point"}, "id": "_IyritKf49BQcUXK9vQCEPC9meY=", "properties": {"@source_uri": "https://tools.usps.com/UspsToolsRestServices/rest/POLocator/findLocations", "@spider": "usps_collection_boxes", "addr:city": "HANNIBAL", "addr:country": "US", "addr:full": "801 BROADWAY", "addr:postcode": "63401", "addr:state": "MO", "amenity": "post_box", "brand": "United States Postal Service", "brand:wikidata": "Q668687", "collection_times": "Mo-Fr 16:00; Sa 12:00", "note": "ON 12/24 AND 12/31, THIS BOX MAY BE COLLECTED AS EARLY AS 12 NOON.", "nsi_id": "unitedstatespostalservice-a77078", "operator": "United States Postal Service", "operator:short": "USPS", "operator:type": "public", "operator:wikidata": "Q668687", "ref": "6340100001"}, "type": "Feature"}
{"geometry": {"coordinates": [-91.3557695, 39.709865], "type": "Point"}, "id": "3VKQZwr81ZmCgwAZA-r1hWLOokY=", "properties": {"@source_uri": "https://tools.usps.com/UspsToolsRestServices/rest/POLocator/findLocations", "@spider": "usps_collection_boxes", "addr:city": "HANNIBAL", "addr:country": "US", "addr:full": "100 N MAIN ST", "addr:postcode": "63401", "addr:state": "MO", "amenity": "post_box", "brand": "United States Postal Service", "brand:wikidata": "Q668687", "collection_times": "Mo-Sa 10:00", "nsi_id": "unitedstatespostalservice-a77078", "operator": "United States Postal Service", "operator:short": "USPS", "operator:type": "public", "operator:wikidata": "Q668687", "ref": "6340100002"}, "type": "Feature"}
{"geometry": {"coordinates": [-91.3566574, 39.709417], "type": "Point"}, "id": "aC5yEf3RTPrtRzuLLayochHCfvo=", "properties": {"@source_uri": "https://tools.usps.com/UspsToolsRestServices/rest/POLocator/findLocations", "@spider": "usps_collection_boxes", "addr:city": "HANNIBAL", "addr:country": "US", "addr:full": "228 BROADWAY", "addr:postcode": "63401", "addr:state": "MO", "amenity": "post_box", "brand": "United States Postal Service", "brand:wikidata": "Q668687", "collection_times": "Mo-Sa 10:00", "nsi_id": "unitedstatespostalservice-a77078", "operator": "United States Postal Service", "operator:short": "USPS", "operator:type": "public", "operator:wikidata": "Q668687", "ref": "6340100012"}, "type": "Feature"}
{"geometry": {"coordinates": [-91.3890099, 39.706165], "type": "Point"}, "id": "aTLycTHaJgraYweORIFyrLUgfsY=", "properties": {"@source_uri": "https://tools.usps.com/UspsToolsRestServices/rest/POLocator/findLocations", "@spider": "usps_collection_boxes", "addr:city": "HANNIBAL", "addr:country": "US", "addr:full": "2860 JAMES RD", "addr:postcode": "63401", "addr:state": "MO", "amenity": "post_box", "brand": "United States Postal Service", "brand:wikidata": "Q668687", "collection_times": "Mo-Sa 10:00", "nsi_id": "unitedstatespostalservice-a77078", "operator": "United States Postal Service", "operator:short": "USPS", "operator:type": "public", "operator:wikidata": "Q668687", "ref": "6340100013"}, "type": "Feature"}
{"geometry": {"coordinates": [-91.3865595, 39.706386], "type": "Point"}, "id": "rMlKnV5Rn4T0spOb6GmFCXiZW2o=", "properties": {"@source_uri": "https://tools.usps.com/UspsToolsRestServices/rest/POLocator/findLocations", "@spider": "usps_collection_boxes", "addr:city": "HANNIBAL", "addr:country": "US", "addr:full": "2900 SAINT MARYS AVE", "addr:postcode": "63401", "addr:state": "MO", "amenity": "post_box", "brand": "United States Postal Service", "brand:wikidata": "Q668687", "collection_times": "Mo-Sa 10:00", "nsi_id": "unitedstatespostalservice-a77078", "operator": "United States Postal Service", "operator:short": "USPS", "operator:type": "public", "operator:wikidata": "Q668687", "ref": "6340100014"}, "type": "Feature"}
{"geometry": {"coordinates": [-91.3955039, 39.727742], "type": "Point"}, "id": "VgQtE47NNZDrY8Du6NI1oQZjh34=", "properties": {"@source_uri": "https://tools.usps.com/UspsToolsRestServices/rest/POLocator/findLocations", "@spider": "usps_collection_boxes", "addr:city": "HANNIBAL", "addr:country": "US", "addr:full": "2959 PALMYRA RD", "addr:postcode": "63401", "addr:state": "MO", "amenity": "post_box", "brand": "United States Postal Service", "brand:wikidata": "Q668687", "collection_times": "Mo-Sa 10:00", "nsi_id": "unitedstatespostalservice-a77078", "operator": "United States Postal Service", "operator:short": "USPS", "operator:type": "public", "operator:wikidata": "Q668687", "ref": "6340100015"}, "type": "Feature"}
{"geometry": {"coordinates": [-91.3906843, 39.731415], "type": "Point"}, "id": "dS_C4g4rvgvT4-B46ys32cev3yA=", "properties": {"@source_uri": "https://tools.usps.com/UspsToolsRestServices/rest/POLocator/findLocations", "@spider": "usps_collection_boxes", "addr:city": "HANNIBAL", "addr:country": "US", "addr:full": "2800 PALMYRA RD", "addr:postcode": "63401", "addr:state": "MO", "amenity": "post_box", "brand": "United States Postal Service", "brand:wikidata": "Q668687", "collection_times": "Mo-Sa 09:00", "nsi_id": "unitedstatespostalservice-a77078", "operator": "United States Postal Service", "operator:short": "USPS", "operator:type": "public", "operator:wikidata": "Q668687", "ref": "6340100024"}, "type": "Feature"}
{"geometry": {"coordinates": [-91.3634599, 39.706136], "type": "Point"}, "id": "QY6TcEtg5uGYi1t9J9cs6Ttj9O0=", "properties": {"@source_uri": "https://tools.usps.com/UspsToolsRestServices/rest/POLocator/findLocations", "@spider": "usps_collection_boxes", "addr:city": "HANNIBAL", "addr:country": "US", "addr:full": "801 BROADWAY", "addr:postcode": "63401", "addr:state": "MO", "amenity": "post_box", "brand": "United States Postal Service", "brand:wikidata": "Q668687", "collection_times": "Mo-Fr 16:00; Sa 12:00", "note": "ON 12/24 AND 12/31, THIS BOX MAY BE COLLECTED AS EARLY AS 12 NOON.", "nsi_id": "unitedstatespostalservice-a77078", "operator": "United States Postal Service", "operator:short": "USPS", "operator:type": "public", "operator:wikidata": "Q668687", "ref": "6340100027"}, "type": "Feature"}
{"geometry": {"coordinates": [-91.3633807, 39.70612], "type": "Point"}, "id": "syuXBqsQSf6_4_eB9DFDFsFLQzk=", "properties": {"@source_uri": "https://tools.usps.com/UspsToolsRestServices/rest/POLocator/findLocations", "@spider": "usps_collection_boxes", "addr:city": "HANNIBAL", "addr:country": "US", "addr:full": "801 BROADWAY", "addr:postcode": "63401", "addr:state": "MO", "amenity": "post_box", "brand": "United States Postal Service", "brand:wikidata": "Q668687", "collection_times": "Mo-Fr 16:00; Sa 12:00", "note": "ON 12/24 AND 12/31, THIS BOX MAY BE COLLECTED AS EARLY AS 12 NOON.", "nsi_id": "unitedstatespostalservice-a77078", "operator": "United States Postal Service", "operator:short": "USPS", "operator:type": "public", "operator:wikidata": "Q668687", "ref": "6340100031"}, "type": "Feature"}
{"geometry": {"coordinates": [-91.3629999, 39.70637], "type": "Point"}, "id": "dvLBo1cd5IIBTLDpcPTlUyWn8Hg=", "properties": {"@source_uri": "https://tools.usps.com/UspsToolsRestServices/rest/POLocator/findLocations", "@spider": "usps_collection_boxes", "addr:city": "HANNIBAL", "addr:country": "US", "addr:full": "801 BROADWAY", "addr:postcode": "63401", "addr:state": "MO", "amenity": "post_box", "brand": "United States Postal Service", "brand:wikidata": "Q668687", "collection_times": "Mo-Fr 16:15; Sa 12:00", "indoor": "yes", "note": "ON 12/24 AND 12/31, THIS BOX MAY BE COLLECTED AS EARLY AS 12 NOON.", "nsi_id": "unitedstatespostalservice-a77078", "operator": "United States Postal Service", "operator:short": "USPS", "operator:type": "public", "operator:wikidata": "Q668687", "ref": "6340100033"}, "type": "Feature"}
{"geometry": {"coordinates": [-91.3629424, 39.70643], "type": "Point"}, "id": "IQ8KTNIQKmFBITUL1G_wMJmlSZw=", "properties": {"@source_uri": "https://tools.usps.com/UspsToolsRestServices/rest/POLocator/findLocations", "@spider": "usps_collection_boxes", "addr:city": "HANNIBAL", "addr:country": "US", "addr:full": "801 BROADWAY", "addr:postcode": "63401", "addr:state": "MO", "amenity": "post_box", "brand": "United States Postal Service", "brand:wikidata": "Q668687", "collection_times": "Mo-Fr 16:15; Sa 12:00", "indoor": "yes", "note": "ON 12/24 AND 12/31, THIS BOX MAY BE COLLECTED AS EARLY AS 12 NOON.", "nsi_id": "unitedstatespostalservice-a77078", "operator": "United States Postal Service", "operator:short": "USPS", "operator:type": "public", "operator:wikidata": "Q668687", "ref": "6340100034"}, "type": "Feature"}
{"geometry": {"coordinates": [-91.3573904, 39.710143], "type": "Point"}, "id": "glFHqk1gOkiWa7_com9DHEq8efA=", "properties": {"@source_uri": "https://tools.usps.com/UspsToolsRestServices/rest/POLocator/findLocations", "@spider": "usps_collection_boxes", "addr:city": "HANNIBAL", "addr:country": "US", "addr:full": "200 N 3RD ST", "addr:postcode": "63401", "addr:state": "MO", "amenity": "post_box", "brand": "United States Postal Service", "brand:wikidata": "Q668687", "collection_times": "Mo-Sa 10:00", "nsi_id": "unitedstatespostalservice-a77078", "operator": "United States Postal Service", "operator:short": "USPS", "operator:type": "public", "operator:wikidata": "Q668687", "ref": "6340100035"}, "type": "Feature"}
{"geometry": {"coordinates": [-91.4039369, 39.685604], "type": "Point"}, "id": "Fcuh7oahm_qYEXORC56M2KMhUEY=", "properties": {"@source_uri": "https://tools.usps.com/UspsToolsRestServices/rest/POLocator/findLocations", "@spider": "usps_collection_boxes", "addr:city": "HANNIBAL", "addr:country": "US", "addr:full": "4070 MARKET ST", "addr:postcode": "63401", "addr:state": "MO", "amenity": "post_box", "brand": "United States Postal Service", "brand:wikidata": "Q668687", "collection_times": "Mo-Sa 10:00", "nsi_id": "unitedstatespostalservice-a77078", "operator": "United States Postal Service", "operator:short": "USPS", "operator:type": "public", "operator:wikidata": "Q668687", "ref": "6340100040"}, "type": "Feature"}
{"geometry": {"coordinates": [-91.3630223043, 39.706599899], "type": "Point"}, "id": "u2wwekhVOhuPi7wM-NmWjp7PG4w=", "properties": {"@source_uri": "https://tools.usps.com/UspsToolsRestServices/rest/POLocator/findLocations", "@spider": "usps_collection_boxes", "addr:city": "HANNIBAL", "addr:country": "US", "addr:full": "801 BROADWAY", "addr:postcode": "63401", "addr:state": "MO", "amenity": "post_box", "brand": "United States Postal Service", "brand:wikidata": "Q668687", "collection_times": "Mo-Fr 16:15; Sa 12:00", "indoor": "yes", "note": "ON 12/24 AND 12/31, THIS BOX MAY BE COLLECTED AS EARLY AS 12 NOON.", "nsi_id": "unitedstatespostalservice-a77078", "operator": "United States Postal Service", "operator:short": "USPS", "operator:type": "public", "operator:wikidata": "Q668687", "ref": "6340100042"}, "type": "Feature"}
{"geometry": {"coordinates": [-91.4547368573, 40.3594050019], "type": "Point"}, "id": "24cGr1vt7U3CcZ81H3PkFeE0pS0=", "properties": {"@source_uri": "https://tools.usps.com/UspsToolsRestServices/rest/POLocator/findLocations", "@spider": "usps_collection_boxes", "addr:city": "ALEXANDRIA", "addr:country": "US", "addr:full": "303 MARKET ST", "addr:postcode": "63430", "addr:state": "MO", "amenity": "post_box", "brand": "United States Postal Service", "brand:wikidata": "Q668687", "collection_times": "Mo-Fr 13:10; Sa 10:30", "indoor": "yes", "note": "ON 12/24 AND 12/31, THIS BOX MAY BE COLLECTED AS EARLY AS 12 NOON.", "nsi_id": "unitedstatespostalservice-a77078", "operator": "United States Postal Service", "operator:short": "USPS", "operator:type": "public", "operator:wikidata": "Q668687", "ref": "6343000002"}, "type": "Feature"}
{"geometry": {"coordinates": [-91.4547368573, 40.3594050019], "type": "Point"}, "id": "64bLMLi0rSIxTxPCkpA8so-CYaI=", "properties": {"@source_uri": "https://tools.usps.com/UspsToolsRestServices/rest/POLocator/findLocations", "@spider": "usps_collection_boxes", "addr:city": "ALEXANDRIA", "addr:country": "US", "addr:full": "303 MARKET ST", "addr:postcode": "63430", "addr:state": "MO", "amenity": "post_box", "brand": "United States Postal Service", "brand:wikidata": "Q668687", "collection_times": "Mo-Fr 13:10; Sa 09:00", "note": "ON 12/24 AND 12/31, THIS BOX MAY BE COLLECTED AS EARLY AS 12 NOON.", "nsi_id": "unitedstatespostalservice-a77078", "operator": "United States Postal Service", "operator:short": "USPS", "operator:type": "public", "operator:wikidata": "Q668687", "ref": "6343000003"}, "type": "Feature"}
{"geometry": {"coordinates": [-91.4547368573, 40.3594050019], "type": "Point"}, "id": "zIDxwrHtio7eRZED1pvjznsQhdw=", "properties": {"@source_uri": "https://tools.usps.com/UspsToolsRestServices/rest/POLocator/findLocations", "@spider": "usps_collection_boxes", "addr:city": "ALEXANDRIA", "addr:country": "US", "addr:full": "303 MARKET ST", "addr:postcode": "63430", "addr:state": "MO", "amenity": "post_box", "brand": "United States Postal Service", "brand:wikidata": "Q668687", "collection_times": "Mo-Fr 13:15; Sa 10:30", "indoor": "yes", "note": "ON 12/24 AND 12/31, THIS BOX MAY BE COLLECTED AS EARLY AS 12 NOON.", "nsi_id": "unitedstatespostalservice-a77078", "operator": "United States Postal Service", "operator:short": "USPS", "operator:type": "public", "operator:wikidata": "Q668687", "ref": "6343000004"}, "type": "Feature"}
{"geometry": {"coordinates": [-91.520177, 40.130328], "type": "Point"}, "id": "9t4gWWR4NJ2v4vvsov37_xB7ghA=", "properties": {"@source_uri": "https://tools.usps.com/UspsToolsRestServices/rest/POLocator/findLocations", "@spider": "usps_collection_boxes", "addr:city": "CANTON", "addr:country": "US", "addr:full": "500 LEWIS ST", "addr:postcode": "63435", "addr:state": "MO", "amenity": "post_box", "brand": "United States Postal Service", "brand:wikidata": "Q668687", "collection_times": "Mo-Fr 14:20; Sa 09:45", "indoor": "yes", "note": "ON 12/24 AND 12/31, THIS BOX MAY BE COLLECTED AS EARLY AS 12 NOON.", "nsi_id": "unitedstatespostalservice-a77078", "operator": "United States Postal Service", "operator:short": "USPS", "operator:type": "public", "operator:wikidata": "Q668687", "ref": "6343500001"}, "type": "Feature"}
{"geometry": {"coordinates": [-91.520059, 40.130303], "type": "Point"}, "id": "EpmQLj8d8qEocwXFSpfCJPNgMKo=", "properties": {"@source_uri": "https://tools.usps.com/UspsToolsRestServices/rest/POLocator/findLocations", "@spider": "usps_collection_boxes", "addr:city": "CANTON", "addr:country": "US", "addr:full": "500 LEWIS ST", "addr:postcode": "63435", "addr:state": "MO", "amenity": "post_box", "brand": "United States Postal Service", "brand:wikidata": "Q668687", "collection_times": "Mo-Fr 14:20; Sa 09:45", "note": "ON 12/24 AND 12/31, THIS BOX MAY BE COLLECTED AS EARLY AS 12 NOON.", "nsi_id": "unitedstatespostalservice-a77078", "operator": "United States Postal Service", "operator:short": "USPS", "operator:type": "public", "operator:wikidata": "Q668687", "ref": "6343500002"}, "type": "Feature"}
{"geometry": {"coordinates": [-91.520139548, 40.130371936], "type": "Point"}, "id": "XHuLyPJe_CWEF0zJywgrZEWvhbU=", "properties": {"@source_uri": "https://tools.usps.com/UspsToolsRestServices/rest/POLocator/findLocations", "@spider": "usps_collection_boxes", "addr:city": "CANTON", "addr:country": "US", "addr:full": "500 LEWIS ST", "addr:postcode": "63435", "addr:state": "MO", "amenity": "post_box", "brand": "United States Postal Service", "brand:wikidata": "Q668687", "collection_times": "Mo-Fr 14:20; Sa 09:45", "indoor": "yes", "note": "ON 12/24 AND 12/31, THIS BOX MAY BE COLLECTED AS EARLY AS 12 NOON.", "nsi_id": "unitedstatespostalservice-a77078", "operator": "United States Postal Service", "operator:short": "USPS", "operator:type": "public", "operator:wikidata": "Q668687", "ref": "6343500007"}, "type": "Feature"}
{"geometry": {"coordinates": [-91.529185, 39.509898], "type": "Point"}, "id": "6d5epqZEy9P29ut5uipP3f0IpFM=", "properties": {"@source_uri": "https://tools.usps.com/UspsToolsRestServices/rest/POLocator/findLocations", "@spider": "usps_collection_boxes", "addr:city": "CENTER", "addr:country": "US", "addr:full": "112 N PUBLIC ST", "addr:postcode": "63436", "addr:state": "MO", "amenity": "post_box", "brand": "United States Postal Service", "brand:wikidata": "Q668687", "collection_times": "Mo-Fr 13:45; Sa 09:00", "note": "ON 12/24 AND 12/31, THIS BOX MAY BE COLLECTED AS EARLY AS 12 NOON.", "nsi_id": "unitedstatespostalservice-a77078", "operator": "United States Postal Service", "operator:short": "USPS", "operator:type": "public", "operator:wikidata": "Q668687", "ref": "6343600001"}, "type": "Feature"}
{"geometry": {"coordinates": [-91.52915, 39.50989], "type": "Point"}, "id": "KY1w_OGyJxfDMcYz99wN6llMO7Q=", "properties": {"@source_uri": "https://tools.usps.com/UspsToolsRestServices/rest/POLocator/findLocations", "@spider": "usps_collection_boxes", "addr:city": "CENTER", "addr:country": "US", "addr:full": "112 N PUBLIC ST", "addr:postcode": "63436", "addr:state": "MO", "amenity": "post_box", "brand": "United States Postal Service", "brand:wikidata": "Q668687", "collection_times": "Mo-Fr 13:45; Sa 09:00", "indoor": "yes", "note": "ON 12/24 AND 12/31, THIS BOX MAY BE COLLECTED AS EARLY AS 12 NOON.", "nsi_id": "unitedstatespostalservice-a77078", "operator": "United States Postal Service", "operator:short": "USPS", "operator:type": "public", "operator:wikidata": "Q668687", "ref": "6343600002"}, "type": "Feature"}
{"geometry": {"coordinates": [-91.529211383, 39.509131575], "type": "Point"}, "id": "EEu0PgPd5xReTiUHEp6j_ZD_vnk=", "properties": {"@source_uri": "https://tools.usps.com/UspsToolsRestServices/rest/POLocator/findLocations", "@spider": "usps_collection_boxes", "addr:city": "CENTER", "addr:country": "US", "addr:full": "112 N PUBLIC ST", "addr:postcode": "63436", "addr:state": "MO", "amenity": "post_box", "brand": "United States Postal Service", "brand:wikidata": "Q668687", "collection_times": "Mo-Fr 13:45; Sa 09:00", "indoor": "yes", "note": "ON 12/24 AND 12/31, THIS BOX MAY BE COLLECTED AS EARLY AS 12 NOON.", "nsi_id": "unitedstatespostalservice-a77078", "operator": "United States Postal Service", "operator:short": "USPS", "operator:type": "public", "operator:wikidata": "Q668687", "ref": "6343600004"}, "type": "Feature"}
{"geometry": {"coordinates": [-92.262476, 39.743127], "type": "Point"}, "id": "pSfvm-X6p4qAqSR_Kr0g_lRt3n4=", "properties": {"@source_uri": "https://tools.usps.com/UspsToolsRestServices/rest/POLocator/findLocations", "@spider": "usps_collection_boxes", "addr:city": "CLARENCE", "addr:country": "US", "addr:full": "101 N GRAND ST", "addr:postcode": "63437", "addr:state": "MO", "amenity": "post_box", "brand": "United States Postal Service", "brand:wikidata": "Q668687", "collection_times": "Mo-Fr 13:20; Sa 10:00", "note": "ON 12/24 AND 12/31, THIS BOX MAY BE COLLECTED AS EARLY AS 12 NOON.", "nsi_id": "unitedstatespostalservice-a77078", "operator": "United States Postal Service", "operator:short": "USPS", "operator:type": "public", "operator:wikidata": "Q668687", "ref": "6343700001"}, "type": "Feature"}
{"geometry": {"coordinates": [-92.262527, 39.743042], "type": "Point"}, "id": "SXqeQyVEEbRHHIo4I-o5nqXudH0=", "properties": {"@source_uri": "https://tools.usps.com/UspsToolsRestServices/rest/POLocator/findLocations", "@spider": "usps_collection_boxes", "addr:city": "CLARENCE", "addr:country": "US", "addr:full": "101 N GRAND ST", "addr:postcode": "63437", "addr:state": "MO", "amenity": "post_box", "brand": "United States Postal Service", "brand:wikidata": "Q668687", "collection_times": "Mo-Fr 13:20; Sa 09:45", "indoor": "yes", "note": "ON 12/24 AND 12/31, THIS BOX MAY BE COLLECTED AS EARLY AS 12 NOON.", "nsi_id": "unitedstatespostalservice-a77078", "operator": "United States Postal Service", "operator:short": "USPS", "operator:type": "public", "operator:wikidata": "Q668687", "ref": "6343700003"}, "type": "Feature"}
{"geometry": {"coordinates": [-92.262436769, 39.743347495], "type": "Point"}, "id": "Hwk_2bjblgfNUCAvE3S4m26_Z_A=", "properties": {"@source_uri": "https://tools.usps.com/UspsToolsRestServices/rest/POLocator/findLocations", "@spider": "usps_collection_boxes", "addr:city": "CLARENCE", "addr:country": "US", "addr:full": "101 N GRAND ST", "addr:postcode": "63437", "addr:state": "MO", "amenity": "post_box", "brand": "United States Postal Service", "brand:wikidata": "Q668687", "collection_times": "Mo-Fr 13:15; Sa 09:45", "indoor": "yes", "note": "ON 12/24 AND 12/31, THIS BOX MAY BE COLLECTED AS EARLY AS 12 NOON.", "nsi_id": "unitedstatespostalservice-a77078", "operator": "United States Postal Service", "operator:short": "USPS", "operator:type": "public", "operator:wikidata": "Q668687", "ref": "6343700005"}, "type": "Feature"}
{"geometry": {"coordinates": [-91.863396, 39.796455], "type": "Point"}, "id": "fXHSoJ9decw9R0-wFqyk9peodJI=", "properties": {"@source_uri": "https://tools.usps.com/UspsToolsRestServices/rest/POLocator/findLocations", "@spider": "usps_collection_boxes", "addr:city": "EMDEN", "addr:country": "US", "addr:full": "9191 HIGHWAY 168", "addr:postcode": "63439", "addr:state": "MO", "amenity": "post_box", "brand": "United States Postal Service", "brand:wikidata": "Q668687", "collection_times": "Mo-Sa 12:30", "note": "ON 12/24 AND 12/31, THIS BOX MAY BE COLLECTED AS EARLY AS 12 NOON.", "nsi_id": "unitedstatespostalservice-a77078", "operator": "United States Postal Service", "operator:short": "USPS", "operator:type": "public", "operator:wikidata": "Q668687", "ref": "6343900001"}, "type": "Feature"}
{"geometry": {"coordinates": [-91.863289, 39.79648], "type": "Point"}, "id": "1rsIMhbJUfzcDZZI2wYGTj-RYYw=", "properties": {"@source_uri": "https://tools.usps.com/UspsToolsRestServices/rest/POLocator/findLocations", "@spider": "usps_collection_boxes", "addr:city": "EMDEN", "addr:country": "US", "addr:full": "9191 HIGHWAY 168", "addr:postcode": "63439", "addr:state": "MO", "amenity": "post_box", "brand": "United States Postal Service", "brand:wikidata": "Q668687", "collection_times": "Mo-Sa 12:30", "indoor": "yes", "note": "ON 12/24 AND 12/31, THIS BOX MAY BE COLLECTED AS EARLY AS 12 NOON.", "nsi_id": "unitedstatespostalservice-a77078", "operator": "United States Postal Service", "operator:short": "USPS", "operator:type": "public", "operator:wikidata": "Q668687", "ref": "6343900002"}, "type": "Feature"}
{"geometry": {"coordinates": [-91.863289, 39.79648], "type": "Point"}, "id": "JOIJ09ZR5yqrwJn3TKoNKRuR-FU=", "properties": {"@source_uri": "https://tools.usps.com/UspsToolsRestServices/rest/POLocator/findLocations", "@spider": "usps_collection_boxes", "addr:city": "EMDEN", "addr:country": "US", "addr:full": "9191 HIGHWAY 168", "addr:postcode": "63439", "addr:state": "MO", "amenity": "post_box", "brand": "United States Postal Service", "brand:wikidata": "Q668687", "collection_times": "Mo-Sa 12:30", "indoor": "yes", "note": "ON 12/24 AND 12/31, THIS BOX MAY BE COLLECTED AS EARLY AS 12 NOON.", "nsi_id": "unitedstatespostalservice-a77078", "operator": "United States Postal Service", "operator:short": "USPS", "operator:type": "public", "operator:wikidata": "Q668687", "ref": "6343900003"}, "type": "Feature"}
{"geometry": {"coordinates": [-91.863283028, 39.796441471], "type": "Point"}, "id": "f1mRoX9xFKmPcoPkBJRED1LiPRU=", "properties": {"@source_uri": "https://tools.usps.com/UspsToolsRestServices/rest/POLocator/findLocations", "@spider": "usps_collection_boxes", "addr:city": "EMDEN", "addr:country": "US", "addr:full": "9191 HIGHWAY 168", "addr:postcode": "63439", "addr:state": "MO", "amenity": "post_box", "brand": "United States Postal Service", "brand:wikidata": "Q668687", "collection_times": "Mo-Sa 12:30", "indoor": "yes", "note": "ON 12/24 AND 12/31, THIS BOX MAY BE COLLECTED AS EARLY AS 12 NOON.", "nsi_id": "unitedstatespostalservice-a77078", "operator": "United States Postal Service", "operator:short": "USPS", "operator:type": "public", "operator:wikidata": "Q668687", "ref": "6343900004"}, "type": "Feature"}
{"geometry": {"coordinates": [-91.713815, 40.006188], "type": "Point"}, "id": "ukb5oJrJty8-GYQsc6NoPxxAPw4=", "properties": {"@source_uri": "https://tools.usps.com/UspsToolsRestServices/rest/POLocator/findLocations", "@spider": "usps_collection_boxes", "addr:city": "EWING", "addr:country": "US", "addr:full": "106 S GILEAD ST", "addr:postcode": "63440", "addr:state": "MO", "amenity": "post_box", "brand": "United States Postal Service", "brand:wikidata": "Q668687", "collection_times": "Mo-Fr 14:20; Sa 08:45", "note": "ON 12/24 AND 12/31, THIS BOX MAY BE COLLECTED AS EARLY AS 12 NOON.", "nsi_id": "unitedstatespostalservice-a77078", "operator": "United States Postal Service", "operator:short": "USPS", "operator:type": "public", "operator:wikidata": "Q668687", "ref": "6344000001"}, "type": "Feature"}
{"geometry": {"coordinates": [-91.713851, 40.006275], "type": "Point"}, "id": "cvCaNWicU5pPpf2r6f03nZqPGg4=", "properties": {"@source_uri": "https://tools.usps.com/UspsToolsRestServices/rest/POLocator/findLocations", "@spider": "usps_collection_boxes", "addr:city": "EWING", "addr:country": "US", "addr:full": "106 S GILEAD ST", "addr:postcode": "63440", "addr:state": "MO", "amenity": "post_box", "brand": "United States Postal Service", "brand:wikidata": "Q668687", "collection_times": "Mo-Fr 14:20; Sa 08:45", "indoor": "yes", "note": "ON 12/24 AND 12/31, THIS BOX MAY BE COLLECTED AS EARLY AS 12 NOON.", "nsi_id": "unitedstatespostalservice-a77078", "operator": "United States Postal Service", "operator:short": "USPS", "operator:type": "public", "operator:wikidata": "Q668687", "ref": "6344000002"}, "type": "Feature"}
{"geometry": {"coordinates": [-91.713799122, 40.006204205], "type": "Point"}, "id": "MyxNDiyHnmIW6xy12fqzdyoPkAE=", "properties": {"@source_uri": "https://tools.usps.com/UspsToolsRestServices/rest/POLocator/findLocations", "@spider": "usps_collection_boxes", "addr:city": "EWING", "addr:country": "US", "addr:full": "106 S GILEAD ST", "addr:postcode": "63440", "addr:state": "MO", "amenity": "post_box", "brand": "United States Postal Service", "brand:wikidata": "Q668687", "collection_times": "Mo-Fr 14:20; Sa 08:45", "indoor": "yes", "note": "ON 12/24 AND 12/31, THIS BOX MAY BE COLLECTED AS EARLY AS 12 NOON.", "nsi_id": "unitedstatespostalservice-a77078", "operator": "United States Postal Service", "operator:short": "USPS", "operator:type": "public", "operator:wikidata": "Q668687", "ref": "6344000003"}, "type": "Feature"}
{"geometry": {"coordinates": [-91.319039, 39.492854], "type": "Point"}, "id": "IrScKj7Bwi8GbjLs-cGrwN_gNaU=", "properties": {"@source_uri": "https://tools.usps.com/UspsToolsRestServices/rest/POLocator/findLocations", "@spider": "usps_collection_boxes", "addr:city": "FRANKFORD", "addr:country": "US", "addr:full": "201 MAIN ST", "addr:postcode": "63441", "addr:state": "MO", "amenity": "post_box", "brand": "United States Postal Service", "brand:wikidata": "Q668687", "collection_times": "Mo-Fr 10:45; Sa 08:30", "nsi_id": "unitedstatespostalservice-a77078", "operator": "United States Postal Service", "operator:short": "USPS", "operator:type": "public", "operator:wikidata": "Q668687", "ref": "6344100001"}, "type": "Feature"}
{"geometry": {"coordinates": [-91.319039, 39.492854], "type": "Point"}, "id": "2BcCn1hPNRQ5TT_o2y0ninOU4uU=", "properties": {"@source_uri": "https://tools.usps.com/UspsToolsRestServices/rest/POLocator/findLocations", "@spider": "usps_collection_boxes", "addr:city": "FRANKFORD", "addr:country": "US", "addr:full": "201 MAIN ST", "addr:postcode": "63441", "addr:state": "MO", "amenity": "post_box", "brand": "United States Postal Service", "brand:wikidata": "Q668687", "collection_times": "Mo-Fr 10:45; Sa 08:30", "indoor": "yes", "nsi_id": "unitedstatespostalservice-a77078", "operator": "United States Postal Service", "operator:short": "USPS", "operator:type": "public", "operator:wikidata": "Q668687", "ref": "6344100003"}, "type": "Feature"}
{"geometry": {"coordinates": [-91.320313081, 39.492808514], "type": "Point"}, "id": "8JbN9MBGov4Zg9R0fUnNGQp0-Rg=", "properties": {"@source_uri": "https://tools.usps.com/UspsToolsRestServices/rest/POLocator/findLocations", "@spider": "usps_collection_boxes", "addr:city": "FRANKFORD", "addr:country": "US", "addr:full": "201 MAIN ST", "addr:postcode": "63441", "addr:state": "MO", "amenity": "post_box", "brand": "United States Postal Service", "brand:wikidata": "Q668687", "collection_times": "Mo-Fr 10:45; Sa 08:30", "indoor": "yes", "nsi_id": "unitedstatespostalservice-a77078", "operator": "United States Postal Service", "operator:short": "USPS", "operator:type": "public", "operator:wikidata": "Q668687", "ref": "6344100004"}, "type": "Feature"}
{"geometry": {"coordinates": [-91.860107, 39.666955], "type": "Point"}, "id": "Z0Z1jWk7QACesPUXxhLa51sQTfc=", "properties": {"@source_uri": "https://tools.usps.com/UspsToolsRestServices/rest/POLocator/findLocations", "@spider": "usps_collection_boxes", "addr:city": "HUNNEWELL", "addr:country": "US", "addr:full": "106 E MAPLE ST", "addr:postcode": "63443", "addr:state": "MO", "amenity": "post_box", "brand": "United States Postal Service", "brand:wikidata": "Q668687", "collection_times": "Mo-Fr 12:45; Sa 10:45", "note": "ON 12/24 AND 12/31, THIS BOX MAY BE COLLECTED AS EARLY AS 12 NOON.", "nsi_id": "unitedstatespostalservice-a77078", "operator": "United States Postal Service", "operator:short": "USPS", "operator:type": "public", "operator:wikidata": "Q668687", "ref": "6344300001"}, "type": "Feature"}
{"geometry": {"coordinates": [-91.860215, 39.666945], "type": "Point"}, "id": "xwAEd2h7KGLv-TnJUnC844oYyl0=", "properties": {"@source_uri": "https://tools.usps.com/UspsToolsRestServices/rest/POLocator/findLocations", "@spider": "usps_collection_boxes", "addr:city": "HUNNEWELL", "addr:country": "US", "addr:full": "106 E MAPLE ST", "addr:postcode": "63443", "addr:state": "MO", "amenity": "post_box", "brand": "United States Postal Service", "brand:wikidata": "Q668687", "collection_times": "Mo-Fr 12:45; Sa 10:45", "indoor": "yes", "note": "ON 12/24 AND 12/31, THIS BOX MAY BE COLLECTED AS EARLY AS 12 NOON.", "nsi_id": "unitedstatespostalservice-a77078", "operator": "United States Postal Service", "operator:short": "USPS", "operator:type": "public", "operator:wikidata": "Q668687", "ref": "6344300002"}, "type": "Feature"}
{"geometry": {"coordinates": [-91.859469507, 39.666843303], "type": "Point"}, "id": "2W48NQCvFj8vFaYQ5MabFth8j24=", "properties": {"@source_uri": "https://tools.usps.com/UspsToolsRestServices/rest/POLocator/findLocations", "@spider": "usps_collection_boxes", "addr:city": "HUNNEWELL", "addr:country": "US", "addr:full": "106 E MAPLE ST", "addr:postcode": "63443", "addr:state": "MO", "amenity": "post_box", "brand": "United States Postal Service", "brand:wikidata": "Q668687", "collection_times": "Mo-Fr 12:45; Sa 10:45", "indoor": "yes", "note": "ON 12/24 AND 12/31, THIS BOX MAY BE COLLECTED AS EARLY AS 12 NOON.", "nsi_id": "unitedstatespostalservice-a77078", "operator": "United States Postal Service", "operator:short": "USPS", "operator:type": "public", "operator:wikidata": "Q668687", "ref": "6344300004"}, "type": "Feature"}
{"geometry": {"coordinates": [-91.719698, 40.421393], "type": "Point"}, "id": "DRze5OQKgBIifsiy2znQENcuke4=", "properties": {"@source_uri": "https://tools.usps.com/UspsToolsRestServices/rest/POLocator/findLocations", "@spider": "usps_collection_boxes", "addr:city": "KAHOKA", "addr:country": "US", "addr:full": "111 W COMMERCIAL ST", "addr:postcode": "63445", "addr:state": "MO", "amenity": "post_box", "brand": "United States Postal Service", "brand:wikidata": "Q668687", "collection_times": "Mo-Fr 13:40; Sa 11:00", "note": "ON 12/24 AND 12/31, THIS BOX MAY BE COLLECTED AS EARLY AS 12 NOON.", "nsi_id": "unitedstatespostalservice-a77078", "operator": "United States Postal Service", "operator:short": "USPS", "operator:type": "public", "operator:wikidata": "Q668687", "ref": "6344500001"}, "type": "Feature"}
{"geometry": {"coordinates": [-91.719605, 40.421364], "type": "Point"}, "id": "U_6xYJGSXXFYilInN9jF3t9BRRE=", "properties": {"@source_uri": "https://tools.usps.com/UspsToolsRestServices/rest/POLocator/findLocations", "@spider": "usps_collection_boxes", "addr:city": "KAHOKA", "addr:country": "US", "addr:full": "111 W COMMERCIAL ST", "addr:postcode": "63445", "addr:state": "MO", "amenity": "post_box", "brand": "United States Postal Service", "brand:wikidata": "Q668687", "collection_times": "Mo-Fr 13:40; Sa 11:00", "indoor": "yes", "note": "ON 12/24 AND 12/31, THIS BOX MAY BE COLLECTED AS EARLY AS 12 NOON.", "nsi_id": "unitedstatespostalservice-a77078", "operator": "United States Postal Service", "operator:short": "USPS", "operator:type": "public", "operator:wikidata": "Q668687", "ref": "6344500002"}, "type": "Feature"}
{"geometry": {"coordinates": [-91.719673414, 40.421452909], "type": "Point"}, "id": "QIMCqImWdS-zF0Ge5oXgQaO_Oas=", "properties": {"@source_uri": "https://tools.usps.com/UspsToolsRestServices/rest/POLocator/findLocations", "@spider": "usps_collection_boxes", "addr:city": "KAHOKA", "addr:country": "US", "addr:full": "111 W COMMERCIAL ST", "addr:postcode": "63445", "addr:state": "MO", "amenity": "post_box", "brand": "United States Postal Service", "brand:wikidata": "Q668687", "collection_times": "Mo-Fr 13:40; Sa 11:00", "indoor": "yes", "note": "ON 12/24 AND 12/31, THIS BOX MAY BE COLLECTED AS EARLY AS 12 NOON.", "nsi_id": "unitedstatespostalservice-a77078", "operator": "United States Postal Service", "operator:short": "USPS", "operator:type": "public", "operator:wikidata": "Q668687", "ref": "6344500004"}, "type": "Feature"}
{"geometry": {"coordinates": [-92.011041, 40.144087], "type": "Point"}, "id": "GN94aIaHyCJTp78Vs-kva0Nn-zA=", "properties": {"@source_uri": "https://tools.usps.com/UspsToolsRestServices/rest/POLocator/findLocations", "@spider": "usps_collection_boxes", "addr:city": "KNOX CITY", "addr:country": "US", "addr:full": "103 W MAIN ST", "addr:postcode": "63446", "addr:state": "MO", "amenity": "post_box", "brand": "United States Postal Service", "brand:wikidata": "Q668687", "collection_times": "Mo-Fr 11:30; Sa 08:45", "nsi_id": "unitedstatespostalservice-a77078", "operator": "United States Postal Service", "operator:short": "USPS", "operator:type": "public", "operator:wikidata": "Q668687", "ref": "6344600001"}, "type": "Feature"}
{"geometry": {"coordinates": [-92.011154, 40.144061], "type": "Point"}, "id": "Bu5dVU08vNp7RtYhUgp6nvrpTww=", "properties": {"@source_uri": "https://tools.usps.com/UspsToolsRestServices/rest/POLocator/findLocations", "@spider": "usps_collection_boxes", "addr:city": "KNOX CITY", "addr:country": "US", "addr:full": "103 W MAIN ST", "addr:postcode": "63446", "addr:state": "MO", "amenity": "post_box", "brand": "United States Postal Service", "brand:wikidata": "Q668687", "collection_times": "Mo-Fr 11:30; Sa 08:45", "indoor": "yes", "nsi_id": "unitedstatespostalservice-a77078", "operator": "United States Postal Service", "operator:short": "USPS", "operator:type": "public", "operator:wikidata": "Q668687", "ref": "6344600002"}, "type": "Feature"}
{"geometry": {"coordinates": [-92.011300004, 40.144133765], "type": "Point"}, "id": "jm5p4RQPcxe5hVtbLe1XF8DTqRw=", "properties": {"@source_uri": "https://tools.usps.com/UspsToolsRestServices/rest/POLocator/findLocations", "@spider": "usps_collection_boxes", "addr:city": "KNOX CITY", "addr:country": "US", "addr:full": "103 W MAIN ST", "addr:postcode": "63446", "addr:state": "MO", "amenity": "post_box", "brand": "United States Postal Service", "brand:wikidata": "Q668687", "collection_times": "Mo-Fr 11:30; Sa 08:45", "indoor": "yes", "nsi_id": "unitedstatespostalservice-a77078", "operator": "United States Postal Service", "operator:short": "USPS", "operator:type": "public", "operator:wikidata": "Q668687", "ref": "6344600004"}, "type": "Feature"}
{"geometry": {"coordinates": [-91.9114998773, 40.1157024586], "type": "Point"}, "id": "N1sbhh0TOynNK1Y2JgDT3U-p-8o=", "properties": {"@source_uri": "https://tools.usps.com/UspsToolsRestServices/rest/POLocator/findLocations", "@spider": "usps_collection_boxes", "addr:city": "LA BELLE", "addr:country": "US", "addr:full": "109 N 3RD ST", "addr:postcode": "63447", "addr:state": "MO", "amenity": "post_box", "brand": "United States Postal Service", "brand:wikidata": "Q668687", "collection_times": "Mo-Fr 11:45; Sa 08:30", "nsi_id": "unitedstatespostalservice-a77078", "operator": "United States Postal Service", "operator:short": "USPS", "operator:type": "public", "operator:wikidata": "Q668687", "ref": "6344700001"}, "type": "Feature"}
{"geometry": {"coordinates": [-91.911438, 40.11566], "type": "Point"}, "id": "oItaqySErGYf8iBtnpb4Ecru8CU=", "properties": {"@source_uri": "https://tools.usps.com/UspsToolsRestServices/rest/POLocator/findLocations", "@spider": "usps_collection_boxes", "addr:city": "LA BELLE", "addr:country": "US", "addr:full": "109 N 3RD ST", "addr:postcode": "63447", "addr:state": "MO", "amenity": "post_box", "brand": "United States Postal Service", "brand:wikidata": "Q668687", "collection_times": "Mo-Fr 11:45; Sa 09:00", "indoor": "yes", "nsi_id": "unitedstatespostalservice-a77078", "operator": "United States Postal Service", "operator:short": "USPS", "operator:type": "public", "operator:wikidata": "Q668687", "ref": "6344700002"}, "type": "Feature"}
{"geometry": {"coordinates": [-91.908598573, 40.115482381], "type": "Point"}, "id": "IqZemwrfOnsvkKxB2WopXMt3mgc=", "properties": {"@source_uri": "https://tools.usps.com/UspsToolsRestServices/rest/POLocator/findLocations", "@spider": "usps_collection_boxes", "addr:city": "LA BELLE", "addr:country": "US", "addr:full": "109 MAIN ST", "addr:postcode": "63447", "addr:state": "MO", "amenity": "post_box", "brand": "United States Postal Service", "brand:wikidata": "Q668687", "collection_times": "Mo-Fr 11:45; Sa 09:00", "indoor": "yes", "nsi_id": "unitedstatespostalservice-a77078", "operator": "United States Postal Service", "operator:short": "USPS", "operator:type": "public", "operator:wikidata": "Q668687", "ref": "6344700004"}, "type": "Feature"}
{"geometry": {"coordinates": [-91.4978447369, 40.0439216975], "type": "Point"}, "id": "8xDdG0i5h1yjj-UPdqYi9YWCc2I=", "properties": {"@source_uri": "https://tools.usps.com/UspsToolsRestServices/rest/POLocator/findLocations", "@spider": "usps_collection_boxes", "addr:city": "LA GRANGE", "addr:country": "US", "addr:full": "202 N MAIN ST", "addr:postcode": "63448", "addr:state": "MO", "amenity": "post_box", "brand": "United States Postal Service", "brand:wikidata": "Q668687", "collection_times": "Mo-Fr 14:35; Sa 09:00", "note": "ON 12/24 AND 12/31, THIS BOX MAY BE COLLECTED AS EARLY AS 12 NOON.", "nsi_id": "unitedstatespostalservice-a77078", "operator": "United States Postal Service", "operator:short": "USPS", "operator:type": "public", "operator:wikidata": "Q668687", "ref": "6344800001"}, "type": "Feature"}
{"geometry": {"coordinates": [-91.497860601, 40.043922731], "type": "Point"}, "id": "sf1TnUtHcJMRwbXkK58Lh9qNMf8=", "properties": {"@source_uri": "https://tools.usps.com/UspsToolsRestServices/rest/POLocator/findLocations", "@spider": "usps_collection_boxes", "addr:city": "LA GRANGE", "addr:country": "US", "addr:full": "202 N MAIN ST", "addr:postcode": "63448", "addr:state": "MO", "amenity": "post_box", "brand": "United States Postal Service", "brand:wikidata": "Q668687", "collection_times": "Mo-Fr 14:35; Sa 09:00", "indoor": "yes", "note": "ON 12/24 AND 12/31, THIS BOX MAY BE COLLECTED AS EARLY AS 12 NOON.", "nsi_id": "unitedstatespostalservice-a77078", "operator": "United States Postal Service", "operator:short": "USPS", "operator:type": "public", "operator:wikidata": "Q668687", "ref": "6344800004"}, "type": "Feature"}
{"geometry": {"coordinates": [-91.4978606009, 40.0439227314], "type": "Point"}, "id": "i7oQpbGaTE_1lchpot4_eOI35Vw=", "properties": {"@source_uri": "https://tools.usps.com/UspsToolsRestServices/rest/POLocator/findLocations", "@spider": "usps_collection_boxes", "addr:city": "LA GRANGE", "addr:country": "US", "addr:full": "202 N MAIN ST", "addr:postcode": "63448", "addr:state": "MO", "amenity": "post_box", "brand": "United States Postal Service", "brand:wikidata": "Q668687", "collection_times": "Mo-Fr 14:35; Sa 09:00", "indoor": "yes", "note": "ON 12/24 AND 12/31, THIS BOX MAY BE COLLECTED AS EARLY AS 12 NOON.", "nsi_id": "unitedstatespostalservice-a77078", "operator": "United States Postal Service", "operator:short": "USPS", "operator:type": "public", "operator:wikidata": "Q668687", "ref": "6344800006"}, "type": "Feature"}
{"geometry": {"coordinates": [-92.179368, 39.896361], "type": "Point"}, "id": "3s8tiKFN9n3dDUX9HkRE8nZpg1U=", "properties": {"@source_uri": "https://tools.usps.com/UspsToolsRestServices/rest/POLocator/findLocations", "@spider": "usps_collection_boxes", "addr:city": "LEONARD", "addr:country": "US", "addr:full": "142 E HIGHWAY 151", "addr:postcode": "63451", "addr:state": "MO", "amenity": "post_box", "brand": "United States Postal Service", "brand:wikidata": "Q668687", "collection_times": "Mo-Fr 11:15; Sa 09:00", "nsi_id": "unitedstatespostalservice-a77078", "operator": "United States Postal Service", "operator:short": "USPS", "operator:type": "public", "operator:wikidata": "Q668687", "ref": "6345100001"}, "type": "Feature"}
{"geometry": {"coordinates": [-92.179478, 39.896332], "type": "Point"}, "id": "Y_XxAZiN1-9uLrstJy-polgfhA0=", "properties": {"@source_uri": "https://tools.usps.com/UspsToolsRestServices/rest/POLocator/findLocations", "@spider": "usps_collection_boxes", "addr:city": "LEONARD", "addr:country": "US", "addr:full": "142 E HIGHWAY 151", "addr:postcode": "63451", "addr:state": "MO", "amenity": "post_box", "brand": "United States Postal Service", "brand:wikidata": "Q668687", "collection_times": "Mo-Fr 11:15; Sa 09:00", "indoor": "yes", "nsi_id": "unitedstatespostalservice-a77078", "operator": "United States Postal Service", "operator:short": "USPS", "operator:type": "public", "operator:wikidata": "Q668687", "ref": "6345100002"}, "type": "Feature"}
{"geometry": {"coordinates": [-92.179274003, 39.896363504], "type": "Point"}, "id": "9C4ZYsXjsLy16EyQLzlF772kaoY=", "properties": {"@source_uri": "https://tools.usps.com/UspsToolsRestServices/rest/POLocator/findLocations", "@spider": "usps_collection_boxes", "addr:city": "LEONARD", "addr:country": "US", "addr:full": "142 E HIGHWAY 151", "addr:postcode": "63451", "addr:state": "MO", "amenity": "post_box", "brand": "United States Postal Service", "brand:wikidata": "Q668687", "collection_times": "Mo-Fr 11:15; Sa 09:00", "indoor": "yes", "nsi_id": "unitedstatespostalservice-a77078", "operator": "United States Postal Service", "operator:short": "USPS", "operator:type": "public", "operator:wikidata": "Q668687", "ref": "6345100004"}, "type": "Feature"}
{"geometry": {"coordinates": [-91.814028, 40.086041], "type": "Point"}, "id": "jxYOKoCQBm7NYkZNz2qIZi5WkGc=", "properties": {"@source_uri": "https://tools.usps.com/UspsToolsRestServices/rest/POLocator/findLocations", "@spider": "usps_collection_boxes", "addr:city": "LEWISTOWN", "addr:country": "US", "addr:full": "118 W MAIN ST", "addr:postcode": "63452", "addr:state": "MO", "amenity": "post_box", "brand": "United States Postal Service", "brand:wikidata": "Q668687", "collection_times": "Mo-Fr 14:05; Sa 09:00", "note": "ON 12/24 AND 12/31, THIS BOX MAY BE COLLECTED AS EARLY AS 12 NOON.", "nsi_id": "unitedstatespostalservice-a77078", "operator": "United States Postal Service", "operator:short": "USPS", "operator:type": "public", "operator:wikidata": "Q668687", "ref": "6345200002"}, "type": "Feature"}
{"geometry": {"coordinates": [-91.814028, 40.086041], "type": "Point"}, "id": "CGPXMPkwvpBl6IuPLY2TwGa82qg=", "properties": {"@source_uri": "https://tools.usps.com/UspsToolsRestServices/rest/POLocator/findLocations", "@spider": "usps_collection_boxes", "addr:city": "LEWISTOWN", "addr:country": "US", "addr:full": "118 W MAIN ST", "addr:postcode": "63452", "addr:state": "MO", "amenity": "post_box", "brand": "United States Postal Service", "brand:wikidata": "Q668687", "collection_times": "Mo-Fr 14:05; Sa 09:00", "indoor": "yes", "note": "ON 12/24 AND 12/31, THIS BOX MAY BE COLLECTED AS EARLY AS 12 NOON.", "nsi_id": "unitedstatespostalservice-a77078", "operator": "United States Postal Service", "operator:short": "USPS", "operator:type": "public", "operator:wikidata": "Q668687", "ref": "6345200003"}, "type": "Feature"}
{"geometry": {"coordinates": [-91.814077614, 40.086111229], "type": "Point"}, "id": "I99rBxV9K30KIS8Zwi9yw_jhnj0=", "properties": {"@source_uri": "https://tools.usps.com/UspsToolsRestServices/rest/POLocator/findLocations", "@spider": "usps_collection_boxes", "addr:city": "LEWISTOWN", "addr:country": "US", "addr:full": "118 W MAIN ST", "addr:postcode": "63452", "addr:state": "MO", "amenity": "post_box", "brand": "United States Postal Service", "brand:wikidata": "Q668687", "collection_times": "Mo-Fr 14:00; Sa 09:00", "indoor": "yes", "note": "ON 12/24 AND 12/31, THIS BOX MAY BE COLLECTED AS EARLY AS 12 NOON.", "nsi_id": "unitedstatespostalservice-a77078", "operator": "United States Postal Service", "operator:short": "USPS", "operator:type": "public", "operator:wikidata": "Q668687", "ref": "6345200004"}, "type": "Feature"}
{"geometry": {"coordinates": [-91.734573, 39.656468], "type": "Point"}, "id": "WUEWXbIqZvfwo8a3YHNhlHZ9g4k=", "properties": {"@source_uri": "https://tools.usps.com/UspsToolsRestServices/rest/POLocator/findLocations", "@spider": "usps_collection_boxes", "addr:city": "MONROE CITY", "addr:country": "US", "addr:full": "416 N MAIN ST", "addr:postcode": "63456", "addr:state": "MO", "amenity": "post_box", "brand": "United States Postal Service", "brand:wikidata": "Q668687", "collection_times": "Mo-Fr 14:15; Sa 11:15", "note": "ON 12/24 AND 12/31, THIS BOX MAY BE COLLECTED AS EARLY AS 12 NOON.", "nsi_id": "unitedstatespostalservice-a77078", "operator": "United States Postal Service", "operator:short": "USPS", "operator:type": "public", "operator:wikidata": "Q668687", "ref": "6345600001"}, "type": "Feature"}
{"geometry": {"coordinates": [-91.7345456, 39.650674], "type": "Point"}, "id": "ji-zzr_VPvFynOhB2tMxy0kcXZ8=", "properties": {"@source_uri": "https://tools.usps.com/UspsToolsRestServices/rest/POLocator/findLocations", "@spider": "usps_collection_boxes", "addr:city": "MONROE CITY", "addr:country": "US", "addr:full": "314 S MAIN ST", "addr:postcode": "63456", "addr:state": "MO", "amenity": "post_box", "brand": "United States Postal Service", "brand:wikidata": "Q668687", "collection_times": "Mo-Fr 11:00; Sa 10:45", "nsi_id": "unitedstatespostalservice-a77078", "operator": "United States Postal Service", "operator:short": "USPS", "operator:type": "public", "operator:wikidata": "Q668687", "ref": "6345600003"}, "type": "Feature"}
{"geometry": {"coordinates": [-91.734607, 39.656482], "type": "Point"}, "id": "o-WhMrLtVIDneZ-1Lzhg32GqXRs=", "properties": {"@source_uri": "https://tools.usps.com/UspsToolsRestServices/rest/POLocator/findLocations", "@spider": "usps_collection_boxes", "addr:city": "MONROE CITY", "addr:country": "US", "addr:full": "416 N MAIN ST", "addr:postcode": "63456", "addr:state": "MO", "amenity": "post_box", "brand": "United States Postal Service", "brand:wikidata": "Q668687", "collection_times": "Mo-Fr 14:15; Sa 11:30", "indoor": "yes", "note": "ON 12/24 AND 12/31, THIS BOX MAY BE COLLECTED AS EARLY AS 12 NOON.", "nsi_id": "unitedstatespostalservice-a77078", "operator": "United States Postal Service", "operator:short": "USPS", "operator:type": "public", "operator:wikidata": "Q668687", "ref": "6345600006"}, "type": "Feature"}
{"geometry": {"coordinates": [-91.734562992, 39.656366613], "type": "Point"}, "id": "GJAi6GoBFo7CAuTTSHMTQkauM4A=", "properties": {"@source_uri": "https://tools.usps.com/UspsToolsRestServices/rest/POLocator/findLocations", "@spider": "usps_collection_boxes", "addr:city": "MONROE CITY", "addr:country": "US", "addr:full": "416 N MAIN ST", "addr:postcode": "63456", "addr:state": "MO", "amenity": "post_box", "brand": "United States Postal Service", "brand:wikidata": "Q668687", "collection_times": "Mo-Fr 14:15; Sa 11:30", "indoor": "yes", "note": "ON 12/24 AND 12/31, THIS BOX MAY BE COLLECTED AS EARLY AS 12 NOON.", "nsi_id": "unitedstatespostalservice-a77078", "operator": "United States Postal Service", "operator:short": "USPS", "operator:type": "public", "operator:wikidata": "Q668687", "ref": "6345600009"}, "type": "Feature"}
{"geometry": {"coordinates": [-91.714209, 40.118672], "type": "Point"}, "id": "d12aYpbyfLTEGJ6sAMBXjXRr2N8=", "properties": {"@source_uri": "https://tools.usps.com/UspsToolsRestServices/rest/POLocator/findLocations", "@spider": "usps_collection_boxes", "addr:city": "MONTICELLO", "addr:country": "US", "addr:full": "101 E LAFAYETTE ST", "addr:postcode": "63457", "addr:state": "MO", "amenity": "post_box", "brand": "United States Postal Service", "brand:wikidata": "Q668687", "collection_times": "Mo-Fr 13:10; Sa 09:45", "indoor": "yes", "note": "ON 12/24 AND 12/31, THIS BOX MAY BE COLLECTED AS EARLY AS 12 NOON.", "nsi_id": "unitedstatespostalservice-a77078", "operator": "United States Postal Service", "operator:short": "USPS", "operator:type": "public", "operator:wikidata": "Q668687", "ref": "6345700002"}, "type": "Feature"}
{"geometry": {"coordinates": [-91.7139868, 40.118815], "type": "Point"}, "id": "vkEduQQjYsfEHYcVdNyihl9Vtzw=", "properties": {"@source_uri": "https://tools.usps.com/UspsToolsRestServices/rest/POLocator/findLocations", "@spider": "usps_collection_boxes", "addr:city": "MONTICELLO", "addr:country": "US", "addr:full": "101 E LAFAYETTE ST", "addr:postcode": "63457", "addr:state": "MO", "amenity": "post_box", "brand": "United States Postal Service", "brand:wikidata": "Q668687", "collection_times": "Mo-Fr 13:10; Sa 09:00", "note": "ON 12/24 AND 12/31, THIS BOX MAY BE COLLECTED AS EARLY AS 12 NOON.", "nsi_id": "unitedstatespostalservice-a77078", "operator": "United States Postal Service", "operator:short": "USPS", "operator:type": "public", "operator:wikidata": "Q668687", "ref": "6345700004"}, "type": "Feature"}
{"geometry": {"coordinates": [-91.714263099, 40.118766683], "type": "Point"}, "id": "ophxS0qxiPd5bH6UwFAXx4_mwRo=", "properties": {"@source_uri": "https://tools.usps.com/UspsToolsRestServices/rest/POLocator/findLocations", "@spider": "usps_collection_boxes", "addr:city": "MONTICELLO", "addr:country": "US", "addr:full": "101 E LAFAYETTE ST", "addr:postcode": "63457", "addr:state": "MO", "amenity": "post_box", "brand": "United States Postal Service", "brand:wikidata": "Q668687", "collection_times": "Mo-Fr 13:10; Sa 09:00", "indoor": "yes", "note": "ON 12/24 AND 12/31, THIS BOX MAY BE COLLECTED AS EARLY AS 12 NOON.", "nsi_id": "unitedstatespostalservice-a77078", "operator": "United States Postal Service", "operator:short": "USPS", "operator:type": "public", "operator:wikidata": "Q668687", "ref": "6345700005"}, "type": "Feature"}
{"geometry": {"coordinates": [-91.972831, 39.992796], "type": "Point"}, "id": "YyUblHXWbge8oKTA9iqzFCsvxCg=", "properties": {"@source_uri": "https://tools.usps.com/UspsToolsRestServices/rest/POLocator/findLocations", "@spider": "usps_collection_boxes", "addr:city": "NEWARK", "addr:country": "US", "addr:full": "106 S MAIN ST", "addr:postcode": "63458", "addr:state": "MO", "amenity": "post_box", "brand": "United States Postal Service", "brand:wikidata": "Q668687", "collection_times": "Mo-Fr 12:45; Sa 11:30", "note": "ON 12/24 AND 12/31, THIS BOX MAY BE COLLECTED AS EARLY AS 12 NOON.", "nsi_id": "unitedstatespostalservice-a77078", "operator": "United States Postal Service", "operator:short": "USPS", "operator:type": "public", "operator:wikidata": "Q668687", "ref": "6345800001"}, "type": "Feature"}
{"geometry": {"coordinates": [-91.972831, 39.992796], "type": "Point"}, "id": "R17Vl6C1Hp-cGYEsA-qstGz4svg=", "properties": {"@source_uri": "https://tools.usps.com/UspsToolsRestServices/rest/POLocator/findLocations", "@spider": "usps_collection_boxes", "addr:city": "NEWARK", "addr:country": "US", "addr:full": "106 S MAIN ST", "addr:postcode": "63458", "addr:state": "MO", "amenity": "post_box", "brand": "United States Postal Service", "brand:wikidata": "Q668687", "collection_times": "Mo-Fr 12:45; Sa 11:30", "indoor": "yes", "note": "ON 12/24 AND 12/31, THIS BOX MAY BE COLLECTED AS EARLY AS 12 NOON.", "nsi_id": "unitedstatespostalservice-a77078", "operator": "United States Postal Service", "operator:short": "USPS", "operator:type": "public", "operator:wikidata": "Q668687", "ref": "6345800002"}, "type": "Feature"}
{"geometry": {"coordinates": [-91.972831, 39.992796], "type": "Point"}, "id": "qsCvYXzou-uLdNaeLWEFYK9HJiQ=", "properties": {"@source_uri": "https://tools.usps.com/UspsToolsRestServices/rest/POLocator/findLocations", "@spider": "usps_collection_boxes", "addr:city": "NEWARK", "addr:country": "US", "addr:full": "106 S MAIN ST", "addr:postcode": "63458", "addr:state": "MO", "amenity": "post_box", "brand": "United States Postal Service", "brand:wikidata": "Q668687", "collection_times": "Mo-Fr 12:45; Sa 11:30", "indoor": "yes", "note": "ON 12/24 AND 12/31, THIS BOX MAY BE COLLECTED AS EARLY AS 12 NOON.", "nsi_id": "unitedstatespostalservice-a77078", "operator": "United States Postal Service", "operator:short": "USPS", "operator:type": "public", "operator:wikidata": "Q668687", "ref": "6345800003"}, "type": "Feature"}
{"geometry": {"coordinates": [-91.972774121, 39.992732421], "type": "Point"}, "id": "TidRbOBsjCehVY7Lfi070nxilEY=", "properties": {"@source_uri": "https://tools.usps.com/UspsToolsRestServices/rest/POLocator/findLocations", "@spider": "usps_collection_boxes", "addr:city": "NEWARK", "addr:country": "US", "addr:full": "106 S MAIN ST", "addr:postcode": "63458", "addr:state": "MO", "amenity": "post_box", "brand": "United States Postal Service", "brand:wikidata": "Q668687", "collection_times": "Mo-Fr 12:45; Sa 11:30", "indoor": "yes", "note": "ON 12/24 AND 12/31, THIS BOX MAY BE COLLECTED AS EARLY AS 12 NOON.", "nsi_id": "unitedstatespostalservice-a77078", "operator": "United States Postal Service", "operator:short": "USPS", "operator:type": "public", "operator:wikidata": "Q668687", "ref": "6345800004"}, "type": "Feature"}
{"geometry": {"coordinates": [-92.205549, 40.013492], "type": "Point"}, "id": "gc3dIPbYaytOonVrdeRqeGP9lFA=", "properties": {"@source_uri": "https://tools.usps.com/UspsToolsRestServices/rest/POLocator/findLocations", "@spider": "usps_collection_boxes", "addr:city": "NOVELTY", "addr:country": "US", "addr:full": "220 MAIN ST", "addr:postcode": "63460", "addr:state": "MO", "amenity": "post_box", "brand": "United States Postal Service", "brand:wikidata": "Q668687", "collection_times": "Mo-Fr 11:45; Sa 08:00", "nsi_id": "unitedstatespostalservice-a77078", "operator": "United States Postal Service", "operator:short": "USPS", "operator:type": "public", "operator:wikidata": "Q668687", "ref": "6346000001"}, "type": "Feature"}
{"geometry": {"coordinates": [-92.205549, 40.013492], "type": "Point"}, "id": "gv_fzAFmigRoQ-3Bp6GyNOn4DBs=", "properties": {"@source_uri": "https://tools.usps.com/UspsToolsRestServices/rest/POLocator/findLocations", "@spider": "usps_collection_boxes", "addr:city": "NOVELTY", "addr:country": "US", "addr:full": "220 MAIN ST", "addr:postcode": "63460", "addr:state": "MO", "amenity": "post_box", "brand": "United States Postal Service", "brand:wikidata": "Q668687", "collection_times": "Mo-Fr 11:45; Sa 09:00", "indoor": "yes", "nsi_id": "unitedstatespostalservice-a77078", "operator": "United States Postal Service", "operator:short": "USPS", "operator:type": "public", "operator:wikidata": "Q668687", "ref": "6346000002"}, "type": "Feature"}
{"geometry": {"coordinates": [-92.205626042, 40.013552622], "type": "Point"}, "id": "pAcA3oJ_9dJfuCC_O6XN1EY_Om0=", "properties": {"@source_uri": "https://tools.usps.com/UspsToolsRestServices/rest/POLocator/findLocations", "@spider": "usps_collection_boxes", "addr:city": "NOVELTY", "addr:country": "US", "addr:full": "220 MAIN ST", "addr:postcode": "63460", "addr:state": "MO", "amenity": "post_box", "brand": "United States Postal Service", "brand:wikidata": "Q668687", "collection_times": "Mo-Fr 11:45; Sa 09:00", "indoor": "yes", "nsi_id": "unitedstatespostalservice-a77078", "operator": "United States Postal Service", "operator:short": "USPS", "operator:type": "public", "operator:wikidata": "Q668687", "ref": "6346000003"}, "type": "Feature"}
{"geometry": {"coordinates": [-91.52306, 39.79759], "type": "Point"}, "id": "kDuy73ByLfb45PrysZRDS4Lzo6g=", "properties": {"@source_uri": "https://tools.usps.com/UspsToolsRestServices/rest/POLocator/findLocations", "@spider": "usps_collection_boxes", "addr:city": "PALMYRA", "addr:country": "US", "addr:full": "323 S MAIN ST", "addr:postcode": "63461", "addr:state": "MO", "amenity": "post_box", "brand": "United States Postal Service", "brand:wikidata": "Q668687", "collection_times": "Mo-Fr 15:10; Sa 09:15", "note": "ON 12/24 AND 12/31, THIS BOX MAY BE COLLECTED AS EARLY AS 12 NOON.", "nsi_id": "unitedstatespostalservice-a77078", "operator": "United States Postal Service", "operator:short": "USPS", "operator:type": "public", "operator:wikidata": "Q668687", "ref": "6346100001"}, "type": "Feature"}
{"geometry": {"coordinates": [-91.523093, 39.797641], "type": "Point"}, "id": "sYzHC4Qdme1QFv4U1a4_QiPgzzo=", "properties": {"@source_uri": "https://tools.usps.com/UspsToolsRestServices/rest/POLocator/findLocations", "@spider": "usps_collection_boxes", "addr:city": "PALMYRA", "addr:country": "US", "addr:full": "323 S MAIN ST", "addr:postcode": "63461", "addr:state": "MO", "amenity": "post_box", "brand": "United States Postal Service", "brand:wikidata": "Q668687", "collection_times": "Mo-Fr 15:10; Sa 09:15", "note": "ON 12/24 AND 12/31, THIS BOX MAY BE COLLECTED AS EARLY AS 12 NOON.", "nsi_id": "unitedstatespostalservice-a77078", "operator": "United States Postal Service", "operator:short": "USPS", "operator:type": "public", "operator:wikidata": "Q668687", "ref": "6346100002"}, "type": "Feature"}
{"geometry": {"coordinates": [-91.523093, 39.797641], "type": "Point"}, "id": "2lq8nSakRvixI6leY7gCRY1OJwY=", "properties": {"@source_uri": "https://tools.usps.com/UspsToolsRestServices/rest/POLocator/findLocations", "@spider": "usps_collection_boxes", "addr:city": "PALMYRA", "addr:country": "US", "addr:full": "323 S MAIN ST", "addr:postcode": "63461", "addr:state": "MO", "amenity": "post_box", "brand": "United States Postal Service", "brand:wikidata": "Q668687", "collection_times": "Mo-Fr 15:10; Sa 09:15", "indoor": "yes", "note": "ON 12/24 AND 12/31, THIS BOX MAY BE COLLECTED AS EARLY AS 12 NOON.", "nsi_id": "unitedstatespostalservice-a77078", "operator": "United States Postal Service", "operator:short": "USPS", "operator:type": "public", "operator:wikidata": "Q668687", "ref": "6346100006"}, "type": "Feature"}
{"geometry": {"coordinates": [-91.523045627, 39.797602429], "type": "Point"}, "id": "OdEITo21Z8DueDJ69lPP0CfLgHk=", "properties": {"@source_uri": "https://tools.usps.com/UspsToolsRestServices/rest/POLocator/findLocations", "@spider": "usps_collection_boxes", "addr:city": "PALMYRA", "addr:country": "US", "addr:full": "323 S MAIN ST", "addr:postcode": "63461", "addr:state": "MO", "amenity": "post_box", "brand": "United States Postal Service", "brand:wikidata": "Q668687", "collection_times": "Mo-Fr 15:15; Sa 09:15", "indoor": "yes", "note": "ON 12/24 AND 12/31, THIS BOX MAY BE COLLECTED AS EARLY AS 12 NOON.", "nsi_id": "unitedstatespostalservice-a77078", "operator": "United States Postal Service", "operator:short": "USPS", "operator:type": "public", "operator:wikidata": "Q668687", "ref": "6346100010"}, "type": "Feature"}
{"geometry": {"coordinates": [-91.674846, 39.431149], "type": "Point"}, "id": "KQWjJYcxsoZQv7n9QtLA7yZhdVE=", "properties": {"@source_uri": "https://tools.usps.com/UspsToolsRestServices/rest/POLocator/findLocations", "@spider": "usps_collection_boxes", "addr:city": "PERRY", "addr:country": "US", "addr:full": "108 E MAIN ST", "addr:postcode": "63462", "addr:state": "MO", "amenity": "post_box", "brand": "United States Postal Service", "brand:wikidata": "Q668687", "collection_times": "Mo-Fr 14:20; Sa 09:00", "note": "ON 12/24 AND 12/31, THIS BOX MAY BE COLLECTED AS EARLY AS 12 NOON.", "nsi_id": "unitedstatespostalservice-a77078", "operator": "United States Postal Service", "operator:short": "USPS", "operator:type": "public", "operator:wikidata": "Q668687", "ref": "6346200001"}, "type": "Feature"}
{"geometry": {"coordinates": [-91.674846, 39.431149], "type": "Point"}, "id": "w0s3Luu8XZLBCkJsazGAe2_0GGM=", "properties": {"@source_uri": "https://tools.usps.com/UspsToolsRestServices/rest/POLocator/findLocations", "@spider": "usps_collection_boxes", "addr:city": "PERRY", "addr:country": "US", "addr:full": "108 E MAIN ST", "addr:postcode": "63462", "addr:state": "MO", "amenity": "post_box", "brand": "United States Postal Service", "brand:wikidata": "Q668687", "collection_times": "Mo-Fr 14:20; Sa 09:00", "indoor": "yes", "note": "ON 12/24 AND 12/31, THIS BOX MAY BE COLLECTED AS EARLY AS 12 NOON.", "nsi_id": "unitedstatespostalservice-a77078", "operator": "United States Postal Service", "operator:short": "USPS", "operator:type": "public", "operator:wikidata": "Q668687", "ref": "6346200003"}, "type": "Feature"}
{"geometry": {"coordinates": [-91.737696, 39.838877], "type": "Point"}, "id": "xVbzvQsqrWPWTmDrwUSOdSGga4Q=", "properties": {"@source_uri": "https://tools.usps.com/UspsToolsRestServices/rest/POLocator/findLocations", "@spider": "usps_collection_boxes", "addr:city": "PHILADELPHIA", "addr:country": "US", "addr:full": "2990 COUNTY ROAD 13", "addr:postcode": "63463", "addr:state": "MO", "amenity": "post_box", "brand": "United States Postal Service", "brand:wikidata": "Q668687", "collection_times": "Mo-Fr 10:45; Sa 08:30", "nsi_id": "unitedstatespostalservice-a77078", "operator": "United States Postal Service", "operator:short": "USPS", "operator:type": "public", "operator:wikidata": "Q668687", "ref": "6346300001"}, "type": "Feature"}
{"geometry": {"coordinates": [-91.73766, 39.838802], "type": "Point"}, "id": "mBrQe_5rH-x0-BB-HbNSaHjHxJw=", "properties": {"@source_uri": "https://tools.usps.com/UspsToolsRestServices/rest/POLocator/findLocations", "@spider": "usps_collection_boxes", "addr:city": "PHILADELPHIA", "addr:country": "US", "addr:full": "2990 COUNTY ROAD 13", "addr:postcode": "63463", "addr:state": "MO", "amenity": "post_box", "brand": "United States Postal Service", "brand:wikidata": "Q668687", "collection_times": "Mo-Fr 10:45; Sa 08:30", "indoor": "yes", "nsi_id": "unitedstatespostalservice-a77078", "operator": "United States Postal Service", "operator:short": "USPS", "operator:type": "public", "operator:wikidata": "Q668687", "ref": "6346300002"}, "type": "Feature"}
{"geometry": {"coordinates": [-91.737709773, 39.839345413], "type": "Point"}, "id": "8aTKwlZa9J7PzrGPM1T73CnN7Tk=", "properties": {"@source_uri": "https://tools.usps.com/UspsToolsRestServices/rest/POLocator/findLocations", "@spider": "usps_collection_boxes", "addr:city": "PHILADELPHIA", "addr:country": "US", "addr:full": "2990 COUNTY ROAD 13", "addr:postcode": "63463", "addr:state": "MO", "amenity": "post_box", "brand": "United States Postal Service", "brand:wikidata": "Q668687", "collection_times": "Mo-Fr 10:45; Sa 08:30", "indoor": "yes", "nsi_id": "unitedstatespostalservice-a77078", "operator": "United States Postal Service", "operator:short": "USPS", "operator:type": "public", "operator:wikidata": "Q668687", "ref": "6346300003"}, "type": "Feature"}
{"geometry": {"coordinates": [-91.677821, 40.49702], "type": "Point"}, "id": "nX8QDsZEce1Xv3osJTse0G9yi4k=", "properties": {"@source_uri": "https://tools.usps.com/UspsToolsRestServices/rest/POLocator/findLocations", "@spider": "usps_collection_boxes", "addr:city": "REVERE", "addr:country": "US", "addr:full": "201 MAIN ST", "addr:postcode": "63465", "addr:state": "MO", "amenity": "post_box", "brand": "United States Postal Service", "brand:wikidata": "Q668687", "collection_times": "Mo-Fr 12:50; Sa 11:00", "note": "ON 12/24 AND 12/31, THIS BOX MAY BE COLLECTED AS EARLY AS 12 NOON.", "nsi_id": "unitedstatespostalservice-a77078", "operator": "United States Postal Service", "operator:short": "USPS", "operator:type": "public", "operator:wikidata": "Q668687", "ref": "6346500001"}, "type": "Feature"}
{"geometry": {"coordinates": [-91.677821, 40.49702], "type": "Point"}, "id": "-sCUmoyrstRtErOkMYq44hsmIUQ=", "properties": {"@source_uri": "https://tools.usps.com/UspsToolsRestServices/rest/POLocator/findLocations", "@spider": "usps_collection_boxes", "addr:city": "REVERE", "addr:country": "US", "addr:full": "201 MAIN ST", "addr:postcode": "63465", "addr:state": "MO", "amenity": "post_box", "brand": "United States Postal Service", "brand:wikidata": "Q668687", "collection_times": "Mo-Fr 12:50; Sa 11:00", "indoor": "yes", "note": "ON 12/24 AND 12/31, THIS BOX MAY BE COLLECTED AS EARLY AS 12 NOON.", "nsi_id": "unitedstatespostalservice-a77078", "operator": "United States Postal Service", "operator:short": "USPS", "operator:type": "public", "operator:wikidata": "Q668687", "ref": "6346500002"}, "type": "Feature"}
{"geometry": {"coordinates": [-91.677758752, 40.497021932], "type": "Point"}, "id": "l1uGgwzm_cJgJ7zzZgWftzyVnK0=", "properties": {"@source_uri": "https://tools.usps.com/UspsToolsRestServices/rest/POLocator/findLocations", "@spider": "usps_collection_boxes", "addr:city": "REVERE", "addr:country": "US", "addr:full": "201 MAIN ST", "addr:postcode": "63465", "addr:state": "MO", "amenity": "post_box", "brand": "United States Postal Service", "brand:wikidata": "Q668687", "collection_times": "Mo-Fr 12:50; Sa 11:00", "indoor": "yes", "note": "ON 12/24 AND 12/31, THIS BOX MAY BE COLLECTED AS EARLY AS 12 NOON.", "nsi_id": "unitedstatespostalservice-a77078", "operator": "United States Postal Service", "operator:short": "USPS", "operator:type": "public", "operator:wikidata": "Q668687", "ref": "6346500004"}, "type": "Feature"}
{"geometry": {"coordinates": [-91.626875728, 40.262586892], "type": "Point"}, "id": "GXQ9shKJdFielrDHPKiFqKtili0=", "properties": {"@source_uri": "https://tools.usps.com/UspsToolsRestServices/rest/POLocator/findLocations", "@spider": "usps_collection_boxes", "addr:city": "SAINT PATRICK", "addr:country": "US", "addr:full": "2 ERIN CIR", "addr:postcode": "63466", "addr:state": "MO", "amenity": "post_box", "brand": "United States Postal Service", "brand:wikidata": "Q668687", "collection_times": "Mo-Fr 11:45; Sa 11:00", "nsi_id": "unitedstatespostalservice-a77078", "operator": "United States Postal Service", "operator:short": "USPS", "operator:type": "public", "operator:wikidata": "Q668687", "ref": "6346600001"}, "type": "Feature"}
{"geometry": {"coordinates": [-91.626875728, 40.262586892], "type": "Point"}, "id": "boEEpUJZwNcec-yoZ6VKuC0F3rw=", "properties": {"@source_uri": "https://tools.usps.com/UspsToolsRestServices/rest/POLocator/findLocations", "@spider": "usps_collection_boxes", "addr:city": "SAINT PATRICK", "addr:country": "US", "addr:full": "2 ERIN CIR", "addr:postcode": "63466", "addr:state": "MO", "amenity": "post_box", "brand": "United States Postal Service", "brand:wikidata": "Q668687", "collection_times": "Mo-Fr 11:45; Sa 11:00", "indoor": "yes", "nsi_id": "unitedstatespostalservice-a77078", "operator": "United States Postal Service", "operator:short": "USPS", "operator:type": "public", "operator:wikidata": "Q668687", "ref": "6346600004"}, "type": "Feature"}
{"geometry": {"coordinates": [-92.040319, 39.692941], "type": "Point"}, "id": "8I_PhzQP4vRYVMwmoy7U5YFRqx8=", "properties": {"@source_uri": "https://tools.usps.com/UspsToolsRestServices/rest/POLocator/findLocations", "@spider": "usps_collection_boxes", "addr:city": "SHELBINA", "addr:country": "US", "addr:full": "107 E CHESTNUT ST", "addr:postcode": "63468", "addr:state": "MO", "amenity": "post_box", "brand": "United States Postal Service", "brand:wikidata": "Q668687", "collection_times": "Mo-Fr 13:50; Sa 10:00", "note": "ON 12/24 AND 12/31, THIS BOX MAY BE COLLECTED AS EARLY AS 12 NOON.", "nsi_id": "unitedstatespostalservice-a77078", "operator": "United States Postal Service", "operator:short": "USPS", "operator:type": "public", "operator:wikidata": "Q668687", "ref": "6346800001"}, "type": "Feature"}
{"geometry": {"coordinates": [-92.040407, 39.69299], "type": "Point"}, "id": "nsYbW-0T4yEIpu8e9NX-HIrYY24=", "properties": {"@source_uri": "https://tools.usps.com/UspsToolsRestServices/rest/POLocator/findLocations", "@spider": "usps_collection_boxes", "addr:city": "SHELBINA", "addr:country": "US", "addr:full": "107 E CHESTNUT ST", "addr:postcode": "63468", "addr:state": "MO", "amenity": "post_box", "brand": "United States Postal Service", "brand:wikidata": "Q668687", "collection_times": "Mo-Fr 13:50; Sa 10:00", "indoor": "yes", "note": "ON 12/24 AND 12/31, THIS BOX MAY BE COLLECTED AS EARLY AS 12 NOON.", "nsi_id": "unitedstatespostalservice-a77078", "operator": "United States Postal Service", "operator:short": "USPS", "operator:type": "public", "operator:wikidata": "Q668687", "ref": "6346800002"}, "type": "Feature"}
{"geometry": {"coordinates": [-92.040359838, 39.692896632], "type": "Point"}, "id": "x8yROH1wxEHS-tnW66XuirWLd9c=", "properties": {"@source_uri": "https://tools.usps.com/UspsToolsRestServices/rest/POLocator/findLocations", "@spider": "usps_collection_boxes", "addr:city": "SHELBINA", "addr:country": "US", "addr:full": "107 E CHESTNUT ST", "addr:postcode": "63468", "addr:state": "MO", "amenity": "post_box", "brand": "United States Postal Service", "brand:wikidata": "Q668687", "collection_times": "Mo-Fr 13:45; Sa 10:00", "indoor": "yes", "note": "ON 12/24 AND 12/31, THIS BOX MAY BE COLLECTED AS EARLY AS 12 NOON.", "nsi_id": "unitedstatespostalservice-a77078", "operator": "United States Postal Service", "operator:short": "USPS", "operator:type": "public", "operator:wikidata": "Q668687", "ref": "6346800004"}, "type": "Feature"}
{"geometry": {"coordinates": [-92.041513, 39.806929], "type": "Point"}, "id": "a7Mm1e_iBUYOEAV_UrL1rM0xiqw=", "properties": {"@source_uri": "https://tools.usps.com/UspsToolsRestServices/rest/POLocator/findLocations", "@spider": "usps_collection_boxes", "addr:city": "SHELBYVILLE", "addr:country": "US", "addr:full": "108 E 3RD ST", "addr:postcode": "63469", "addr:state": "MO", "amenity": "post_box", "brand": "United States Postal Service", "brand:wikidata": "Q668687", "collection_times": "Mo-Fr 13:45; Sa 08:45", "note": "ON 12/24 AND 12/31, THIS BOX MAY BE COLLECTED AS EARLY AS 12 NOON.", "nsi_id": "unitedstatespostalservice-a77078", "operator": "United States Postal Service", "operator:short": "USPS", "operator:type": "public", "operator:wikidata": "Q668687", "ref": "6346900001"}, "type": "Feature"}
{"geometry": {"coordinates": [-92.041611, 39.806903], "type": "Point"}, "id": "hHJcYHi5w2lOFjUqdhENUOSBmzc=", "properties": {"@source_uri": "https://tools.usps.com/UspsToolsRestServices/rest/POLocator/findLocations", "@spider": "usps_collection_boxes", "addr:city": "SHELBYVILLE", "addr:country": "US", "addr:full": "108 E 3RD ST", "addr:postcode": "63469", "addr:state": "MO", "amenity": "post_box", "brand": "United States Postal Service", "brand:wikidata": "Q668687", "collection_times": "Mo-Fr 14:00; Sa 09:00", "indoor": "yes", "note": "ON 12/24 AND 12/31, THIS BOX MAY BE COLLECTED AS EARLY AS 12 NOON.", "nsi_id": "unitedstatespostalservice-a77078", "operator": "United States Postal Service", "operator:short": "USPS", "operator:type": "public", "operator:wikidata": "Q668687", "ref": "6346900002"}, "type": "Feature"}
{"geometry": {"coordinates": [-92.040790332, 39.806914453], "type": "Point"}, "id": "VijCX9q91TKME6S_wOtJ_YJV_gA=", "properties": {"@source_uri": "https://tools.usps.com/UspsToolsRestServices/rest/POLocator/findLocations", "@spider": "usps_collection_boxes", "addr:city": "SHELBYVILLE", "addr:country": "US", "addr:full": "108 E 3RD ST", "addr:postcode": "63469", "addr:state": "MO", "amenity": "post_box", "brand": "United States Postal Service", "brand:wikidata": "Q668687", "collection_times": "Mo-Fr 14:00; Sa 09:00", "indoor": "yes", "note": "ON 12/24 AND 12/31, THIS BOX MAY BE COLLECTED AS EARLY AS 12 NOON.", "nsi_id": "unitedstatespostalservice-a77078", "operator": "United States Postal Service", "operator:short": "USPS", "operator:type": "public", "operator:wikidata": "Q668687", "ref": "6346900006"}, "type": "Feature"}
{"geometry": {"coordinates": [-91.58267, 40.394663], "type": "Point"}, "id": "mk7QmlUgP0AVJYoLPYALTqYCvJc=", "properties": {"@source_uri": "https://tools.usps.com/UspsToolsRestServices/rest/POLocator/findLocations", "@spider": "usps_collection_boxes", "addr:city": "WAYLAND", "addr:country": "US", "addr:full": "113 E DES MOINES ST", "addr:postcode": "63472", "addr:state": "MO", "amenity": "post_box", "brand": "United States Postal Service", "brand:wikidata": "Q668687", "collection_times": "Mo-Fr 13:25; Sa 09:15", "note": "ON 12/24 AND 12/31, THIS BOX MAY BE COLLECTED AS EARLY AS 12 NOON.", "nsi_id": "unitedstatespostalservice-a77078", "operator": "United States Postal Service", "operator:short": "USPS", "operator:type": "public", "operator:wikidata": "Q668687", "ref": "6347200001"}, "type": "Feature"}
{"geometry": {"coordinates": [-91.582787, 40.394693], "type": "Point"}, "id": "1f0vXnyS-4DuKmd5xc9X3EHPvtU=", "properties": {"@source_uri": "https://tools.usps.com/UspsToolsRestServices/rest/POLocator/findLocations", "@spider": "usps_collection_boxes", "addr:city": "WAYLAND", "addr:country": "US", "addr:full": "113 E DES MOINES ST", "addr:postcode": "63472", "addr:state": "MO", "amenity": "post_box", "brand": "United States Postal Service", "brand:wikidata": "Q668687", "collection_times": "Mo-Fr 13:30; Sa 10:30", "indoor": "yes", "note": "ON 12/24 AND 12/31, THIS BOX MAY BE COLLECTED AS EARLY AS 12 NOON.", "nsi_id": "unitedstatespostalservice-a77078", "operator": "United States Postal Service", "operator:short": "USPS", "operator:type": "public", "operator:wikidata": "Q668687", "ref": "6347200002"}, "type": "Feature"}
{"geometry": {"coordinates": [-91.582575628, 40.394612933], "type": "Point"}, "id": "fpBBTo5sLyS7z7UhlFnPmpL5bxU=", "properties": {"@source_uri": "https://tools.usps.com/UspsToolsRestServices/rest/POLocator/findLocations", "@spider": "usps_collection_boxes", "addr:city": "WAYLAND", "addr:country": "US", "addr:full": "113 E DES MOINES ST", "addr:postcode": "63472", "addr:state": "MO", "amenity": "post_box", "brand": "United States Postal Service", "brand:wikidata": "Q668687", "collection_times": "Mo-Fr 13:30; Sa 10:30", "indoor": "yes", "note": "ON 12/24 AND 12/31, THIS BOX MAY BE COLLECTED AS EARLY AS 12 NOON.", "nsi_id": "unitedstatespostalservice-a77078", "operator": "United States Postal Service", "operator:short": "USPS", "operator:type": "public", "operator:wikidata": "Q668687", "ref": "6347200004"}, "type": "Feature"}
{"geometry": {"coordinates": [-91.927135, 40.389848], "type": "Point"}, "id": "WepWahmPaxJ3CHpsnhzUuWmDFQY=", "properties": {"@source_uri": "https://tools.usps.com/UspsToolsRestServices/rest/POLocator/findLocations", "@spider": "usps_collection_boxes", "addr:city": "WYACONDA", "addr:country": "US", "addr:full": "118 MAIN ST", "addr:postcode": "63474", "addr:state": "MO", "amenity": "post_box", "brand": "United States Postal Service", "brand:wikidata": "Q668687", "collection_times": "Mo-Fr 13:10; Sa 09:00", "note": "ON 12/24 AND 12/31, THIS BOX MAY BE COLLECTED AS EARLY AS 12 NOON.", "nsi_id": "unitedstatespostalservice-a77078", "operator": "United States Postal Service", "operator:short": "USPS", "operator:type": "public", "operator:wikidata": "Q668687", "ref": "6347400001"}, "type": "Feature"}
{"geometry": {"coordinates": [-91.927135, 40.389848], "type": "Point"}, "id": "K49qFv5QAF6x7o2FFBhBiZldlw0=", "properties": {"@source_uri": "https://tools.usps.com/UspsToolsRestServices/rest/POLocator/findLocations", "@spider": "usps_collection_boxes", "addr:city": "WYACONDA", "addr:country": "US", "addr:full": "118 MAIN ST", "addr:postcode": "63474", "addr:state": "MO", "amenity": "post_box", "brand": "United States Postal Service", "brand:wikidata": "Q668687", "collection_times": "Mo-Fr 13:10; Sa 09:15", "indoor": "yes", "note": "ON 12/24 AND 12/31, THIS BOX MAY BE COLLECTED AS EARLY AS 12 NOON.", "nsi_id": "unitedstatespostalservice-a77078", "operator": "United States Postal Service", "operator:short": "USPS", "operator:type": "public", "operator:wikidata": "Q668687", "ref": "6347400002"}, "type": "Feature"}
{"geometry": {"coordinates": [-91.927078054, 40.389853783], "type": "Point"}, "id": "FIn4UXE3P8iLfjJ_47Cd65X-hMI=", "properties": {"@source_uri": "https://tools.usps.com/UspsToolsRestServices/rest/POLocator/findLocations", "@spider": "usps_collection_boxes", "addr:city": "WYACONDA", "addr:country": "US", "addr:full": "118 MAIN ST", "addr:postcode": "63474", "addr:state": "MO", "amenity": "post_box", "brand": "United States Postal Service", "brand:wikidata": "Q668687", "collection_times": "Mo-Fr 13:15; Sa 09:15", "indoor": "yes", "note": "ON 12/24 AND 12/31, THIS BOX MAY BE COLLECTED AS EARLY AS 12 NOON.", "nsi_id": "unitedstatespostalservice-a77078", "operator": "United States Postal Service", "operator:short": "USPS", "operator:type": "public", "operator:wikidata": "Q668687", "ref": "6347400003"}, "type": "Feature"}
