{"geometry": {"coordinates": [-92.5809878588, 40.1921950879], "type": "Point"}, "id": "LqZqaCoBml6NjKJFRvBvk7Cg1IM=", "properties": {"@source_uri": "https://tools.usps.com/UspsToolsRestServices/rest/POLocator/findLocations", "@spider": "usps_collection_boxes", "addr:city": "KIRKSVILLE", "addr:country": "US", "addr:postcode": "63501", "addr:state": "MO", "addr:street_address": "400 S HIGH ST", "amenity": "post_box", "collection_times": "Mo-Fr 16:15; Sa 10:45", "note": "ON 12/24 AND 12/31, THIS BOX MAY BE COLLECTED AS EARLY AS 12 NOON.", "nsi_id": "unitedstatespostalservice-a77078", "operator": "United States Postal Service", "operator:short": "USPS", "operator:type": "public", "operator:wikidata": "Q668687", "ref": "6350100001"}, "type": "Feature"}
{"geometry": {"coordinates": [-92.5843566, 40.195692], "type": "Point"}, "id": "CeUcqPdAaPJ32_v6u1Tbvn94Lqk=", "properties": {"@source_uri": "https://tools.usps.com/UspsToolsRestServices/rest/POLocator/findLocations", "@spider": "usps_collection_boxes", "addr:city": "KIRKSVILLE", "addr:country": "US", "addr:postcode": "63501", "addr:state": "MO", "addr:street_address": "201 N ELSON ST", "amenity": "post_box", "collection_times": "Mo-Fr 13:00; Sa 12:00", "note": "ON 12/24 AND 12/31, THIS BOX MAY BE COLLECTED AS EARLY AS 12 NOON.", "nsi_id": "unitedstatespostalservice-a77078", "operator": "United States Postal Service", "operator:short": "USPS", "operator:type": "public", "operator:wikidata": "Q668687", "ref": "6350100011"}, "type": "Feature"}
{"geometry": {"coordinates": [-92.5837380405, 40.1934199828], "type": "Point"}, "id": "SpS6boK8DCaNRGGAaoh7m60W8II=", "properties": {"@source_uri": "https://tools.usps.com/UspsToolsRestServices/rest/POLocator/findLocations", "@spider": "usps_collection_boxes", "addr:city": "KIRKSVILLE", "addr:country": "US", "addr:postcode": "63501", "addr:state": "MO", "addr:street_address": "214 S FRANKLIN ST", "amenity": "post_box", "collection_times": "Mo-Fr 13:00; Sa 12:00", "note": "ON 12/24 AND 12/31, THIS BOX MAY BE COLLECTED AS EARLY AS 12 NOON.", "nsi_id": "unitedstatespostalservice-a77078", "operator": "United States Postal Service", "operator:short": "USPS", "operator:type": "public", "operator:wikidata": "Q668687", "ref": "6350100014"}, "type": "Feature"}
{"geometry": {"coordinates": [-92.582374751, 40.215087445], "type": "Point"}, "id": "PokZzm5GQtmLuLCsPeuoATvaNb4=", "properties": {"@source_uri": "https://tools.usps.com/UspsToolsRestServices/rest/POLocator/findLocations", "@spider": "usps_collection_boxes", "addr:city": "KIRKSVILLE", "addr:country": "US", "addr:postcode": "63501", "addr:state": "MO", "addr:street_address": "2200 N BALTIMORE ST", "amenity": "post_box", "collection_times": "Mo-Sa 11:30", "nsi_id": "unitedstatespostalservice-a77078", "operator": "United States Postal Service", "operator:short": "USPS", "operator:type": "public", "operator:wikidata": "Q668687", "ref": "6350100016"}, "type": "Feature"}
{"geometry": {"coordinates": [-92.5813219, 40.192849], "type": "Point"}, "id": "IVa2tPwNzmjBMlEU0a-yBVuJdoU=", "properties": {"@source_uri": "https://tools.usps.com/UspsToolsRestServices/rest/POLocator/findLocations", "@spider": "usps_collection_boxes", "addr:city": "KIRKSVILLE", "addr:country": "US", "addr:postcode": "63501", "addr:state": "MO", "addr:street_address": "210 E JEFFERSON ST", "amenity": "post_box", "collection_times": "Mo-Fr 16:15; Sa 10:45", "indoor": "yes", "note": "ON 12/24 AND 12/31, THIS BOX MAY BE COLLECTED AS EARLY AS 12 NOON.", "nsi_id": "unitedstatespostalservice-a77078", "operator": "United States Postal Service", "operator:short": "USPS", "operator:type": "public", "operator:wikidata": "Q668687", "ref": "6350100033"}, "type": "Feature"}
{"geometry": {"coordinates": [-92.5813961, 40.192761], "type": "Point"}, "id": "S65f7bq2hvRZ8oYKcKoQd7QNz08=", "properties": {"@source_uri": "https://tools.usps.com/UspsToolsRestServices/rest/POLocator/findLocations", "@spider": "usps_collection_boxes", "addr:city": "KIRKSVILLE", "addr:country": "US", "addr:postcode": "63501", "addr:state": "MO", "addr:street_address": "210 E JEFFERSON ST", "amenity": "post_box", "collection_times": "Mo-Fr 16:15; Sa 10:45", "indoor": "yes", "note": "ON 12/24 AND 12/31, THIS BOX MAY BE COLLECTED AS EARLY AS 12 NOON.", "nsi_id": "unitedstatespostalservice-a77078", "operator": "United States Postal Service", "operator:short": "USPS", "operator:type": "public", "operator:wikidata": "Q668687", "ref": "6350100034"}, "type": "Feature"}
{"geometry": {"coordinates": [-92.5812379702, 40.1928120014], "type": "Point"}, "id": "ySOnlmXlNU2KeX6DLJfKD5LfXz4=", "properties": {"@source_uri": "https://tools.usps.com/UspsToolsRestServices/rest/POLocator/findLocations", "@spider": "usps_collection_boxes", "addr:city": "KIRKSVILLE", "addr:country": "US", "addr:postcode": "63501", "addr:state": "MO", "addr:street_address": "210 E JEFFERSON ST", "amenity": "post_box", "collection_times": "Mo-Fr 16:15; Sa 10:45", "indoor": "yes", "note": "ON 12/24 AND 12/31, THIS BOX MAY BE COLLECTED AS EARLY AS 12 NOON.", "nsi_id": "unitedstatespostalservice-a77078", "operator": "United States Postal Service", "operator:short": "USPS", "operator:type": "public", "operator:wikidata": "Q668687", "ref": "6350100040"}, "type": "Feature"}
{"geometry": {"coordinates": [-92.479458, 39.898754], "type": "Point"}, "id": "phZiw7ecDKh_LKYr5tBsWKxn13o=", "properties": {"@source_uri": "https://tools.usps.com/UspsToolsRestServices/rest/POLocator/findLocations", "@spider": "usps_collection_boxes", "addr:city": "ATLANTA", "addr:country": "US", "addr:postcode": "63530", "addr:state": "MO", "addr:street_address": "101 W MAIN ST", "amenity": "post_box", "collection_times": "Mo-Fr 11:15; Sa 09:00", "nsi_id": "unitedstatespostalservice-a77078", "operator": "United States Postal Service", "operator:short": "USPS", "operator:type": "public", "operator:wikidata": "Q668687", "ref": "6353000001"}, "type": "Feature"}
{"geometry": {"coordinates": [-92.4805213, 39.899081], "type": "Point"}, "id": "FmyQRr4wAELhEfUwdgJTQAKD-Jg=", "properties": {"@source_uri": "https://tools.usps.com/UspsToolsRestServices/rest/POLocator/findLocations", "@spider": "usps_collection_boxes", "addr:city": "ATLANTA", "addr:country": "US", "addr:postcode": "63530", "addr:state": "MO", "addr:street_address": "101 W MAIN ST", "amenity": "post_box", "collection_times": "Mo-Fr 11:15; Sa 09:00", "indoor": "yes", "nsi_id": "unitedstatespostalservice-a77078", "operator": "United States Postal Service", "operator:short": "USPS", "operator:type": "public", "operator:wikidata": "Q668687", "ref": "6353000002"}, "type": "Feature"}
{"geometry": {"coordinates": [-92.479515102, 39.898794375], "type": "Point"}, "id": "ro052-6M0OgPB6F84cP_WWcidoA=", "properties": {"@source_uri": "https://tools.usps.com/UspsToolsRestServices/rest/POLocator/findLocations", "@spider": "usps_collection_boxes", "addr:city": "ATLANTA", "addr:country": "US", "addr:postcode": "63530", "addr:state": "MO", "addr:street_address": "101 W MAIN ST", "amenity": "post_box", "collection_times": "Mo-Fr 11:15; Sa 09:00", "indoor": "yes", "nsi_id": "unitedstatespostalservice-a77078", "operator": "United States Postal Service", "operator:short": "USPS", "operator:type": "public", "operator:wikidata": "Q668687", "ref": "6353000004"}, "type": "Feature"}
{"geometry": {"coordinates": [-92.2062805, 40.2422964], "type": "Point"}, "id": "-vGWCv9ufr8oBjv8Au1nJhHCfrc=", "properties": {"@source_uri": "https://tools.usps.com/UspsToolsRestServices/rest/POLocator/findLocations", "@spider": "usps_collection_boxes", "addr:city": "BARING", "addr:country": "US", "addr:postcode": "63531", "addr:state": "MO", "addr:street_address": "400 MAIN ST", "amenity": "post_box", "collection_times": "Mo-Fr 11:15; Sa 08:45", "nsi_id": "unitedstatespostalservice-a77078", "operator": "United States Postal Service", "operator:short": "USPS", "operator:type": "public", "operator:wikidata": "Q668687", "ref": "6353100005"}, "type": "Feature"}
{"geometry": {"coordinates": [-92.2062805, 40.2422964], "type": "Point"}, "id": "P6j4_siXw3olPHgba5TEutAjhYk=", "properties": {"@source_uri": "https://tools.usps.com/UspsToolsRestServices/rest/POLocator/findLocations", "@spider": "usps_collection_boxes", "addr:city": "BARING", "addr:country": "US", "addr:postcode": "63531", "addr:state": "MO", "addr:street_address": "400 MAIN ST", "amenity": "post_box", "collection_times": "Mo-Fr 11:15; Sa 08:45", "indoor": "yes", "nsi_id": "unitedstatespostalservice-a77078", "operator": "United States Postal Service", "operator:short": "USPS", "operator:type": "public", "operator:wikidata": "Q668687", "ref": "6353100006"}, "type": "Feature"}
{"geometry": {"coordinates": [-92.56464, 39.747559], "type": "Point"}, "id": "4Tn4M9N28sy_jKQrGYbke1MjGR8=", "properties": {"@source_uri": "https://tools.usps.com/UspsToolsRestServices/rest/POLocator/findLocations", "@spider": "usps_collection_boxes", "addr:city": "BEVIER", "addr:country": "US", "addr:postcode": "63532", "addr:state": "MO", "addr:street_address": "108 N MACON ST", "amenity": "post_box", "collection_times": "Mo-Fr 11:15; Sa 09:00", "nsi_id": "unitedstatespostalservice-a77078", "operator": "United States Postal Service", "operator:short": "USPS", "operator:type": "public", "operator:wikidata": "Q668687", "ref": "6353200001"}, "type": "Feature"}
{"geometry": {"coordinates": [-92.564607, 39.747484], "type": "Point"}, "id": "-CKRwRkCYYCQfCvpBMYdpQkTPvY=", "properties": {"@source_uri": "https://tools.usps.com/UspsToolsRestServices/rest/POLocator/findLocations", "@spider": "usps_collection_boxes", "addr:city": "BEVIER", "addr:country": "US", "addr:postcode": "63532", "addr:state": "MO", "addr:street_address": "108 N MACON ST", "amenity": "post_box", "collection_times": "Mo-Fr 11:15; Sa 09:30", "indoor": "yes", "nsi_id": "unitedstatespostalservice-a77078", "operator": "United States Postal Service", "operator:short": "USPS", "operator:type": "public", "operator:wikidata": "Q668687", "ref": "6353200002"}, "type": "Feature"}
{"geometry": {"coordinates": [-92.5636393, 39.758744], "type": "Point"}, "id": "c2DlAOQ2tK6R_8SVKaoI1G_YUMs=", "properties": {"@source_uri": "https://tools.usps.com/UspsToolsRestServices/rest/POLocator/findLocations", "@spider": "usps_collection_boxes", "addr:city": "BEVIER", "addr:country": "US", "addr:postcode": "63532", "addr:state": "MO", "addr:street_address": "1003 STATE HIGHWAY C", "amenity": "post_box", "collection_times": "Mo-Sa 12:30", "note": "ON 12/24 AND 12/31, THIS BOX MAY BE COLLECTED AS EARLY AS 12 NOON.", "nsi_id": "unitedstatespostalservice-a77078", "operator": "United States Postal Service", "operator:short": "USPS", "operator:type": "public", "operator:wikidata": "Q668687", "ref": "6353200004"}, "type": "Feature"}
{"geometry": {"coordinates": [-92.564619259, 39.74778878], "type": "Point"}, "id": "u2SsgTLJgPQyNdmH3J-oK9M66Hc=", "properties": {"@source_uri": "https://tools.usps.com/UspsToolsRestServices/rest/POLocator/findLocations", "@spider": "usps_collection_boxes", "addr:city": "BEVIER", "addr:country": "US", "addr:postcode": "63532", "addr:state": "MO", "addr:street_address": "108 N MACON ST", "amenity": "post_box", "collection_times": "Mo-Fr 11:15; Sa 09:30", "indoor": "yes", "nsi_id": "unitedstatespostalservice-a77078", "operator": "United States Postal Service", "operator:short": "USPS", "operator:type": "public", "operator:wikidata": "Q668687", "ref": "6353200005"}, "type": "Feature"}
{"geometry": {"coordinates": [-92.3792977, 40.147404], "type": "Point"}, "id": "VuQeYcNOr6FXBUJR6Y751KNixDk=", "properties": {"@source_uri": "https://tools.usps.com/UspsToolsRestServices/rest/POLocator/findLocations", "@spider": "usps_collection_boxes", "addr:city": "BRASHEAR", "addr:country": "US", "addr:postcode": "63533", "addr:state": "MO", "addr:street_address": "201 S KING ST", "amenity": "post_box", "collection_times": "Mo-Fr 10:45; Sa 08:45", "indoor": "yes", "nsi_id": "unitedstatespostalservice-a77078", "operator": "United States Postal Service", "operator:short": "USPS", "operator:type": "public", "operator:wikidata": "Q668687", "ref": "6353300002"}, "type": "Feature"}
{"geometry": {"coordinates": [-92.3792199, 40.147408], "type": "Point"}, "id": "hoTHy9kfzFjm4RjvKZvTmoXDu4A=", "properties": {"@source_uri": "https://tools.usps.com/UspsToolsRestServices/rest/POLocator/findLocations", "@spider": "usps_collection_boxes", "addr:city": "BRASHEAR", "addr:country": "US", "addr:postcode": "63533", "addr:state": "MO", "addr:street_address": "201 S KING ST", "amenity": "post_box", "collection_times": "Mo-Fr 10:45; Sa 08:45", "nsi_id": "unitedstatespostalservice-a77078", "operator": "United States Postal Service", "operator:short": "USPS", "operator:type": "public", "operator:wikidata": "Q668687", "ref": "6353300003"}, "type": "Feature"}
{"geometry": {"coordinates": [-92.37916781, 40.147341821], "type": "Point"}, "id": "ndu5uEb6GKnzgVDhqQevYPxLuBM=", "properties": {"@source_uri": "https://tools.usps.com/UspsToolsRestServices/rest/POLocator/findLocations", "@spider": "usps_collection_boxes", "addr:city": "BRASHEAR", "addr:country": "US", "addr:postcode": "63533", "addr:state": "MO", "addr:street_address": "201 S KING ST", "amenity": "post_box", "collection_times": "Mo-Fr 10:45; Sa 08:45", "indoor": "yes", "nsi_id": "unitedstatespostalservice-a77078", "operator": "United States Postal Service", "operator:short": "USPS", "operator:type": "public", "operator:wikidata": "Q668687", "ref": "6353300004"}, "type": "Feature"}
{"geometry": {"coordinates": [-92.624846066, 39.760868636], "type": "Point"}, "id": "KEHys-47bB9zixqhWAGbKHnTUBs=", "properties": {"@source_uri": "https://tools.usps.com/UspsToolsRestServices/rest/POLocator/findLocations", "@spider": "usps_collection_boxes", "addr:city": "CALLAO", "addr:country": "US", "addr:postcode": "63534", "addr:state": "MO", "addr:street_address": "109 MARKET ST", "amenity": "post_box", "collection_times": "Mo-Fr 11:15; Sa 08:15", "nsi_id": "unitedstatespostalservice-a77078", "operator": "United States Postal Service", "operator:short": "USPS", "operator:type": "public", "operator:wikidata": "Q668687", "ref": "6353400001"}, "type": "Feature"}
{"geometry": {"coordinates": [-92.624846066, 39.760868636], "type": "Point"}, "id": "oUBL6_owM-At_jyNIidUJJMGaVA=", "properties": {"@source_uri": "https://tools.usps.com/UspsToolsRestServices/rest/POLocator/findLocations", "@spider": "usps_collection_boxes", "addr:city": "CALLAO", "addr:country": "US", "addr:postcode": "63534", "addr:state": "MO", "addr:street_address": "109 MARKET ST", "amenity": "post_box", "collection_times": "Mo-Fr 11:15; Sa 08:15", "indoor": "yes", "nsi_id": "unitedstatespostalservice-a77078", "operator": "United States Postal Service", "operator:short": "USPS", "operator:type": "public", "operator:wikidata": "Q668687", "ref": "6353400002"}, "type": "Feature"}
{"geometry": {"coordinates": [-92.624846066, 39.760868636], "type": "Point"}, "id": "vD7uwyvXJnX9dwIAA0ErfM7_imk=", "properties": {"@source_uri": "https://tools.usps.com/UspsToolsRestServices/rest/POLocator/findLocations", "@spider": "usps_collection_boxes", "addr:city": "CALLAO", "addr:country": "US", "addr:postcode": "63534", "addr:state": "MO", "addr:street_address": "109 MARKET ST", "amenity": "post_box", "collection_times": "Mo-Fr 11:15; Sa 08:15", "indoor": "yes", "nsi_id": "unitedstatespostalservice-a77078", "operator": "United States Postal Service", "operator:short": "USPS", "operator:type": "public", "operator:wikidata": "Q668687", "ref": "6353400005"}, "type": "Feature"}
{"geometry": {"coordinates": [-92.368149013, 40.487231602], "type": "Point"}, "id": "4uJU-dL2OQGDMouiseRdn01ZhVc=", "properties": {"@source_uri": "https://tools.usps.com/UspsToolsRestServices/rest/POLocator/findLocations", "@spider": "usps_collection_boxes", "addr:city": "DOWNING", "addr:country": "US", "addr:postcode": "63536", "addr:state": "MO", "addr:street_address": "101 W PRIME ST", "amenity": "post_box", "collection_times": "Mo-Fr 11:15; Sa 08:30", "nsi_id": "unitedstatespostalservice-a77078", "operator": "United States Postal Service", "operator:short": "USPS", "operator:type": "public", "operator:wikidata": "Q668687", "ref": "6353600001"}, "type": "Feature"}
{"geometry": {"coordinates": [-92.368149013, 40.487231602], "type": "Point"}, "id": "e9CcMGO25waCtG52jRE10Cr_0XE=", "properties": {"@source_uri": "https://tools.usps.com/UspsToolsRestServices/rest/POLocator/findLocations", "@spider": "usps_collection_boxes", "addr:city": "DOWNING", "addr:country": "US", "addr:postcode": "63536", "addr:state": "MO", "addr:street_address": "101 W PRIME ST", "amenity": "post_box", "collection_times": "Mo-Fr 11:15; Sa 08:30", "indoor": "yes", "nsi_id": "unitedstatespostalservice-a77078", "operator": "United States Postal Service", "operator:short": "USPS", "operator:type": "public", "operator:wikidata": "Q668687", "ref": "6353600002"}, "type": "Feature"}
{"geometry": {"coordinates": [-92.368149013, 40.487231602], "type": "Point"}, "id": "YuwFQB-_ChM6weaXAblUz5gSMnA=", "properties": {"@source_uri": "https://tools.usps.com/UspsToolsRestServices/rest/POLocator/findLocations", "@spider": "usps_collection_boxes", "addr:city": "DOWNING", "addr:country": "US", "addr:postcode": "63536", "addr:state": "MO", "addr:street_address": "101 W PRIME ST", "amenity": "post_box", "collection_times": "Mo-Fr 11:15; Sa 08:30", "indoor": "yes", "nsi_id": "unitedstatespostalservice-a77078", "operator": "United States Postal Service", "operator:short": "USPS", "operator:type": "public", "operator:wikidata": "Q668687", "ref": "6353600004"}, "type": "Feature"}
{"geometry": {"coordinates": [-92.17398251, 40.167437389], "type": "Point"}, "id": "pRZdjhPjcjUBIN0twBvRO-PUMiU=", "properties": {"@source_uri": "https://tools.usps.com/UspsToolsRestServices/rest/POLocator/findLocations", "@spider": "usps_collection_boxes", "addr:city": "EDINA", "addr:country": "US", "addr:postcode": "63537", "addr:state": "MO", "addr:street_address": "107 S 2ND ST", "amenity": "post_box", "collection_times": "Mo-Fr 15:25; Sa 09:15", "note": "ON 12/24 AND 12/31, THIS BOX MAY BE COLLECTED AS EARLY AS 12 NOON.", "nsi_id": "unitedstatespostalservice-a77078", "operator": "United States Postal Service", "operator:short": "USPS", "operator:type": "public", "operator:wikidata": "Q668687", "ref": "6353700001"}, "type": "Feature"}
{"geometry": {"coordinates": [-92.1725086, 40.168228], "type": "Point"}, "id": "y44HAH7mDgshJuRCEsKrRJE7kso=", "properties": {"@source_uri": "https://tools.usps.com/UspsToolsRestServices/rest/POLocator/findLocations", "@spider": "usps_collection_boxes", "addr:city": "EDINA", "addr:country": "US", "addr:postcode": "63537", "addr:state": "MO", "addr:street_address": "120 N MAIN ST", "amenity": "post_box", "collection_times": "Mo-Fr 12:00", "nsi_id": "unitedstatespostalservice-a77078", "operator": "United States Postal Service", "operator:short": "USPS", "operator:type": "public", "operator:wikidata": "Q668687", "ref": "6353700002"}, "type": "Feature"}
{"geometry": {"coordinates": [-92.17398251, 40.167437389], "type": "Point"}, "id": "-ZjBckiFLxB38H5fFkyq9pdpaR0=", "properties": {"@source_uri": "https://tools.usps.com/UspsToolsRestServices/rest/POLocator/findLocations", "@spider": "usps_collection_boxes", "addr:city": "EDINA", "addr:country": "US", "addr:postcode": "63537", "addr:state": "MO", "addr:street_address": "107 S 2ND ST", "amenity": "post_box", "collection_times": "Mo-Fr 15:25; Sa 09:15", "indoor": "yes", "note": "ON 12/24 AND 12/31, THIS BOX MAY BE COLLECTED AS EARLY AS 12 NOON.", "nsi_id": "unitedstatespostalservice-a77078", "operator": "United States Postal Service", "operator:short": "USPS", "operator:type": "public", "operator:wikidata": "Q668687", "ref": "6353700003"}, "type": "Feature"}
{"geometry": {"coordinates": [-92.17398251, 40.167437389], "type": "Point"}, "id": "0uBAYFF5Wq5uyBfmzQSZyZQzh5A=", "properties": {"@source_uri": "https://tools.usps.com/UspsToolsRestServices/rest/POLocator/findLocations", "@spider": "usps_collection_boxes", "addr:city": "EDINA", "addr:country": "US", "addr:postcode": "63537", "addr:state": "MO", "addr:street_address": "107 S 2ND ST", "amenity": "post_box", "collection_times": "Mo-Fr 15:15; Sa 09:15", "indoor": "yes", "note": "ON 12/24 AND 12/31, THIS BOX MAY BE COLLECTED AS EARLY AS 12 NOON.", "nsi_id": "unitedstatespostalservice-a77078", "operator": "United States Postal Service", "operator:short": "USPS", "operator:type": "public", "operator:wikidata": "Q668687", "ref": "6353700005"}, "type": "Feature"}
{"geometry": {"coordinates": [-92.646867, 39.960998], "type": "Point"}, "id": "yNfeSNH7YEMVctQ3rL1aQxA3TpU=", "properties": {"@source_uri": "https://tools.usps.com/UspsToolsRestServices/rest/POLocator/findLocations", "@spider": "usps_collection_boxes", "addr:city": "ELMER", "addr:country": "US", "addr:postcode": "63538", "addr:state": "MO", "addr:street_address": "105 N SANTA FE ST", "amenity": "post_box", "collection_times": "Mo-Fr 10:45; Sa 11:45", "nsi_id": "unitedstatespostalservice-a77078", "operator": "United States Postal Service", "operator:short": "USPS", "operator:type": "public", "operator:wikidata": "Q668687", "ref": "6353800001"}, "type": "Feature"}
{"geometry": {"coordinates": [-92.646769, 39.961052], "type": "Point"}, "id": "cn-EmGmNRqsu-KX6u66WAl1Lnhg=", "properties": {"@source_uri": "https://tools.usps.com/UspsToolsRestServices/rest/POLocator/findLocations", "@spider": "usps_collection_boxes", "addr:city": "ELMER", "addr:country": "US", "addr:postcode": "63538", "addr:state": "MO", "addr:street_address": "105 N SANTA FE ST", "amenity": "post_box", "collection_times": "Mo-Fr 10:45; Sa 11:45", "indoor": "yes", "nsi_id": "unitedstatespostalservice-a77078", "operator": "United States Postal Service", "operator:short": "USPS", "operator:type": "public", "operator:wikidata": "Q668687", "ref": "6353800002"}, "type": "Feature"}
{"geometry": {"coordinates": [-92.646842443, 39.961068235], "type": "Point"}, "id": "3EaQ0_jKPdm4qX1v4U6LLEG-0ic=", "properties": {"@source_uri": "https://tools.usps.com/UspsToolsRestServices/rest/POLocator/findLocations", "@spider": "usps_collection_boxes", "addr:city": "ELMER", "addr:country": "US", "addr:postcode": "63538", "addr:state": "MO", "addr:street_address": "105 N SANTA FE ST", "amenity": "post_box", "collection_times": "Mo-Fr 10:45; Sa 11:45", "indoor": "yes", "nsi_id": "unitedstatespostalservice-a77078", "operator": "United States Postal Service", "operator:short": "USPS", "operator:type": "public", "operator:wikidata": "Q668687", "ref": "6353800004"}, "type": "Feature"}
{"geometry": {"coordinates": [-92.74026, 39.894503], "type": "Point"}, "id": "EllUMSw2Q81jiBzPrDrbKkvqmUQ=", "properties": {"@source_uri": "https://tools.usps.com/UspsToolsRestServices/rest/POLocator/findLocations", "@spider": "usps_collection_boxes", "addr:city": "ETHEL", "addr:country": "US", "addr:postcode": "63539", "addr:state": "MO", "addr:street_address": "102 W MAIN ST", "amenity": "post_box", "collection_times": "Mo-Fr 12:45; Sa 09:30", "note": "ON 12/24 AND 12/31, THIS BOX MAY BE COLLECTED AS EARLY AS 12 NOON.", "nsi_id": "unitedstatespostalservice-a77078", "operator": "United States Postal Service", "operator:short": "USPS", "operator:type": "public", "operator:wikidata": "Q668687", "ref": "6353900001"}, "type": "Feature"}
{"geometry": {"coordinates": [-92.74026, 39.894503], "type": "Point"}, "id": "oOrTyoKzTZLwdd5luCJgO3RRBbA=", "properties": {"@source_uri": "https://tools.usps.com/UspsToolsRestServices/rest/POLocator/findLocations", "@spider": "usps_collection_boxes", "addr:city": "ETHEL", "addr:country": "US", "addr:postcode": "63539", "addr:state": "MO", "addr:street_address": "102 W MAIN ST", "amenity": "post_box", "collection_times": "Mo-Fr 14:15; Sa 10:45", "indoor": "yes", "note": "ON 12/24 AND 12/31, THIS BOX MAY BE COLLECTED AS EARLY AS 12 NOON.", "nsi_id": "unitedstatespostalservice-a77078", "operator": "United States Postal Service", "operator:short": "USPS", "operator:type": "public", "operator:wikidata": "Q668687", "ref": "6353900002"}, "type": "Feature"}
{"geometry": {"coordinates": [-92.740474928, 39.8944229], "type": "Point"}, "id": "W-lnbUe2eBWoEjzQOju1bfE6eJk=", "properties": {"@source_uri": "https://tools.usps.com/UspsToolsRestServices/rest/POLocator/findLocations", "@spider": "usps_collection_boxes", "addr:city": "ETHEL", "addr:country": "US", "addr:postcode": "63539", "addr:state": "MO", "addr:street_address": "102 W MAIN ST", "amenity": "post_box", "collection_times": "Mo-Fr 14:15; Sa 10:45", "indoor": "yes", "note": "ON 12/24 AND 12/31, THIS BOX MAY BE COLLECTED AS EARLY AS 12 NOON.", "nsi_id": "unitedstatespostalservice-a77078", "operator": "United States Postal Service", "operator:short": "USPS", "operator:type": "public", "operator:wikidata": "Q668687", "ref": "6353900003"}, "type": "Feature"}
{"geometry": {"coordinates": [-92.8784648, 40.262005], "type": "Point"}, "id": "XF6P5tF4KwxAc0TsBlgaP2iAH8M=", "properties": {"@source_uri": "https://tools.usps.com/UspsToolsRestServices/rest/POLocator/findLocations", "@spider": "usps_collection_boxes", "addr:city": "GREEN CASTLE", "addr:country": "US", "addr:postcode": "63544", "addr:state": "MO", "addr:street_address": "405 STATE HIGHWAY 6", "amenity": "post_box", "collection_times": "Mo-Fr 11:15; Sa 09:00", "nsi_id": "unitedstatespostalservice-a77078", "operator": "United States Postal Service", "operator:short": "USPS", "operator:type": "public", "operator:wikidata": "Q668687", "ref": "6354400001"}, "type": "Feature"}
{"geometry": {"coordinates": [-92.875274, 40.262018], "type": "Point"}, "id": "RSs8ueA6Wq6zi2FIkAXLQRxfbxQ=", "properties": {"@source_uri": "https://tools.usps.com/UspsToolsRestServices/rest/POLocator/findLocations", "@spider": "usps_collection_boxes", "addr:city": "GREEN CASTLE", "addr:country": "US", "addr:postcode": "63544", "addr:state": "MO", "addr:street_address": "405 STATE HIGHWAY 6", "amenity": "post_box", "collection_times": "Mo-Fr 11:15; Sa 09:00", "indoor": "yes", "nsi_id": "unitedstatespostalservice-a77078", "operator": "United States Postal Service", "operator:short": "USPS", "operator:type": "public", "operator:wikidata": "Q668687", "ref": "6354400002"}, "type": "Feature"}
{"geometry": {"coordinates": [-92.875194, 40.261965106], "type": "Point"}, "id": "-VUUi9fbKhlR6ePSEUgod2xvDDk=", "properties": {"@source_uri": "https://tools.usps.com/UspsToolsRestServices/rest/POLocator/findLocations", "@spider": "usps_collection_boxes", "addr:city": "GREEN CASTLE", "addr:country": "US", "addr:postcode": "63544", "addr:state": "MO", "addr:street_address": "405 HIGHWAY 6", "amenity": "post_box", "collection_times": "Mo-Fr 11:15; Sa 09:00", "indoor": "yes", "nsi_id": "unitedstatespostalservice-a77078", "operator": "United States Postal Service", "operator:short": "USPS", "operator:type": "public", "operator:wikidata": "Q668687", "ref": "6354400004"}, "type": "Feature"}
{"geometry": {"coordinates": [-92.953288502, 40.2678245476], "type": "Point"}, "id": "EaLh8kjuO-lFXjEeQoFdPpoQcTM=", "properties": {"@source_uri": "https://tools.usps.com/UspsToolsRestServices/rest/POLocator/findLocations", "@spider": "usps_collection_boxes", "addr:city": "GREEN CITY", "addr:country": "US", "addr:postcode": "63545", "addr:state": "MO", "addr:street_address": "2 W 3RD ST", "amenity": "post_box", "collection_times": "Sa 10:00", "nsi_id": "unitedstatespostalservice-a77078", "operator": "United States Postal Service", "operator:short": "USPS", "operator:type": "public", "operator:wikidata": "Q668687", "ref": "6354500001"}, "type": "Feature"}
{"geometry": {"coordinates": [-92.567586, 40.340321], "type": "Point"}, "id": "OebGNGQ0DgpF8OfGd1yKyW1AoYI=", "properties": {"@source_uri": "https://tools.usps.com/UspsToolsRestServices/rest/POLocator/findLocations", "@spider": "usps_collection_boxes", "addr:city": "GREENTOP", "addr:country": "US", "addr:postcode": "63546", "addr:state": "MO", "addr:street_address": "868 MAIN ST", "amenity": "post_box", "collection_times": "Mo-Fr 11:15; Sa 08:30", "nsi_id": "unitedstatespostalservice-a77078", "operator": "United States Postal Service", "operator:short": "USPS", "operator:type": "public", "operator:wikidata": "Q668687", "ref": "6354600001"}, "type": "Feature"}
{"geometry": {"coordinates": [-92.567552, 40.340278], "type": "Point"}, "id": "_o3XnYXEPb-UaqMdUvkIhKEHcuA=", "properties": {"@source_uri": "https://tools.usps.com/UspsToolsRestServices/rest/POLocator/findLocations", "@spider": "usps_collection_boxes", "addr:city": "GREENTOP", "addr:country": "US", "addr:postcode": "63546", "addr:state": "MO", "addr:street_address": "868 MAIN ST", "amenity": "post_box", "collection_times": "Mo-Fr 11:15; Sa 08:30", "indoor": "yes", "nsi_id": "unitedstatespostalservice-a77078", "operator": "United States Postal Service", "operator:short": "USPS", "operator:type": "public", "operator:wikidata": "Q668687", "ref": "6354600002"}, "type": "Feature"}
{"geometry": {"coordinates": [-92.565917715, 40.356447447], "type": "Point"}, "id": "9idQgA-lX_Hxjn4UCWwKoYEZmGQ=", "properties": {"@source_uri": "https://tools.usps.com/UspsToolsRestServices/rest/POLocator/findLocations", "@spider": "usps_collection_boxes", "addr:city": "GREENTOP", "addr:country": "US", "addr:postcode": "63546", "addr:state": "MO", "addr:street_address": "868 MAIN ST", "amenity": "post_box", "collection_times": "Mo-Fr 11:15; Sa 08:30", "indoor": "yes", "nsi_id": "unitedstatespostalservice-a77078", "operator": "United States Postal Service", "operator:short": "USPS", "operator:type": "public", "operator:wikidata": "Q668687", "ref": "6354600003"}, "type": "Feature"}
{"geometry": {"coordinates": [-92.301758788, 40.14908245], "type": "Point"}, "id": "gXYzr3CDkw_IDL_z4gSvEOWpiLk=", "properties": {"@source_uri": "https://tools.usps.com/UspsToolsRestServices/rest/POLocator/findLocations", "@spider": "usps_collection_boxes", "addr:city": "HURDLAND", "addr:country": "US", "addr:postcode": "63547", "addr:state": "MO", "addr:street_address": "404 N 3RD ST", "amenity": "post_box", "collection_times": "Mo-Fr 11:15; Sa 08:45", "nsi_id": "unitedstatespostalservice-a77078", "operator": "United States Postal Service", "operator:short": "USPS", "operator:type": "public", "operator:wikidata": "Q668687", "ref": "6354700001"}, "type": "Feature"}
{"geometry": {"coordinates": [-92.301758788, 40.14908245], "type": "Point"}, "id": "Ug88GWHPeDxw8gEMfrhu3wbml_A=", "properties": {"@source_uri": "https://tools.usps.com/UspsToolsRestServices/rest/POLocator/findLocations", "@spider": "usps_collection_boxes", "addr:city": "HURDLAND", "addr:country": "US", "addr:postcode": "63547", "addr:state": "MO", "addr:street_address": "404 N 3RD ST", "amenity": "post_box", "collection_times": "Mo-Fr 11:15; Sa 08:45", "indoor": "yes", "nsi_id": "unitedstatespostalservice-a77078", "operator": "United States Postal Service", "operator:short": "USPS", "operator:type": "public", "operator:wikidata": "Q668687", "ref": "6354700002"}, "type": "Feature"}
{"geometry": {"coordinates": [-92.301758788, 40.14908245], "type": "Point"}, "id": "FfcIpMwpV7aeyWjvK_ibzuebJOk=", "properties": {"@source_uri": "https://tools.usps.com/UspsToolsRestServices/rest/POLocator/findLocations", "@spider": "usps_collection_boxes", "addr:city": "HURDLAND", "addr:country": "US", "addr:postcode": "63547", "addr:state": "MO", "addr:street_address": "404 N 3RD ST", "amenity": "post_box", "collection_times": "Mo-Fr 11:15; Sa 08:45", "indoor": "yes", "nsi_id": "unitedstatespostalservice-a77078", "operator": "United States Postal Service", "operator:short": "USPS", "operator:type": "public", "operator:wikidata": "Q668687", "ref": "6354700004"}, "type": "Feature"}
{"geometry": {"coordinates": [-92.527047, 40.5224], "type": "Point"}, "id": "YaGsqB3VICt2G18qTgvK5_LDJGc=", "properties": {"@source_uri": "https://tools.usps.com/UspsToolsRestServices/rest/POLocator/findLocations", "@spider": "usps_collection_boxes", "addr:city": "LANCASTER", "addr:country": "US", "addr:postcode": "63548", "addr:state": "MO", "addr:street_address": "100 N GREEN ST", "amenity": "post_box", "collection_times": "Mo-Fr 15:10; Sa 09:15", "note": "ON 12/24 AND 12/31, THIS BOX MAY BE COLLECTED AS EARLY AS 12 NOON.", "nsi_id": "unitedstatespostalservice-a77078", "operator": "United States Postal Service", "operator:short": "USPS", "operator:type": "public", "operator:wikidata": "Q668687", "ref": "6354800001"}, "type": "Feature"}
{"geometry": {"coordinates": [-92.52701, 40.522311], "type": "Point"}, "id": "AohosgdwQ6Op3yjxPSuvwReLAYc=", "properties": {"@source_uri": "https://tools.usps.com/UspsToolsRestServices/rest/POLocator/findLocations", "@spider": "usps_collection_boxes", "addr:city": "LANCASTER", "addr:country": "US", "addr:postcode": "63548", "addr:state": "MO", "addr:street_address": "100 N GREEN ST", "amenity": "post_box", "collection_times": "Mo-Fr 15:10; Sa 09:15", "indoor": "yes", "note": "ON 12/24 AND 12/31, THIS BOX MAY BE COLLECTED AS EARLY AS 12 NOON.", "nsi_id": "unitedstatespostalservice-a77078", "operator": "United States Postal Service", "operator:short": "USPS", "operator:type": "public", "operator:wikidata": "Q668687", "ref": "6354800002"}, "type": "Feature"}
{"geometry": {"coordinates": [-92.527118875, 40.522358362], "type": "Point"}, "id": "Jb4ERKyoyCiLv2FkkymRoRlJbFs=", "properties": {"@source_uri": "https://tools.usps.com/UspsToolsRestServices/rest/POLocator/findLocations", "@spider": "usps_collection_boxes", "addr:city": "LANCASTER", "addr:country": "US", "addr:postcode": "63548", "addr:state": "MO", "addr:street_address": "100 N GREEN ST", "amenity": "post_box", "collection_times": "Mo-Fr 15:15; Sa 09:15", "indoor": "yes", "note": "ON 12/24 AND 12/31, THIS BOX MAY BE COLLECTED AS EARLY AS 12 NOON.", "nsi_id": "unitedstatespostalservice-a77078", "operator": "United States Postal Service", "operator:short": "USPS", "operator:type": "public", "operator:wikidata": "Q668687", "ref": "6354800004"}, "type": "Feature"}
{"geometry": {"coordinates": [-92.491477, 40.022193], "type": "Point"}, "id": "dBW30a6eaObpsVpwY55qAdV6U5Y=", "properties": {"@source_uri": "https://tools.usps.com/UspsToolsRestServices/rest/POLocator/findLocations", "@spider": "usps_collection_boxes", "addr:city": "LA PLATA", "addr:country": "US", "addr:postcode": "63549", "addr:state": "MO", "addr:street_address": "102 E SANDERS ST", "amenity": "post_box", "collection_times": "Mo-Fr 15:45; Sa 09:45", "note": "ON 12/24 AND 12/31, THIS BOX MAY BE COLLECTED AS EARLY AS 12 NOON.", "nsi_id": "unitedstatespostalservice-a77078", "operator": "United States Postal Service", "operator:short": "USPS", "operator:type": "public", "operator:wikidata": "Q668687", "ref": "6354900001"}, "type": "Feature"}
{"geometry": {"coordinates": [-92.491586, 40.022222], "type": "Point"}, "id": "VWp2VbI7CprqzVU8gpWrU4NIqDA=", "properties": {"@source_uri": "https://tools.usps.com/UspsToolsRestServices/rest/POLocator/findLocations", "@spider": "usps_collection_boxes", "addr:city": "LA PLATA", "addr:country": "US", "addr:postcode": "63549", "addr:state": "MO", "addr:street_address": "102 E SANDERS ST", "amenity": "post_box", "collection_times": "Mo-Fr 15:45; Sa 09:45", "indoor": "yes", "note": "ON 12/24 AND 12/31, THIS BOX MAY BE COLLECTED AS EARLY AS 12 NOON.", "nsi_id": "unitedstatespostalservice-a77078", "operator": "United States Postal Service", "operator:short": "USPS", "operator:type": "public", "operator:wikidata": "Q668687", "ref": "6354900003"}, "type": "Feature"}
{"geometry": {"coordinates": [-92.491263, 40.022188536], "type": "Point"}, "id": "RhOFJo488P5VslU6oHtyCrNFFLg=", "properties": {"@source_uri": "https://tools.usps.com/UspsToolsRestServices/rest/POLocator/findLocations", "@spider": "usps_collection_boxes", "addr:city": "LA PLATA", "addr:country": "US", "addr:postcode": "63549", "addr:state": "MO", "addr:street_address": "102 E SANDERS ST", "amenity": "post_box", "collection_times": "Mo-Fr 15:45; Sa 09:45", "indoor": "yes", "note": "ON 12/24 AND 12/31, THIS BOX MAY BE COLLECTED AS EARLY AS 12 NOON.", "nsi_id": "unitedstatespostalservice-a77078", "operator": "United States Postal Service", "operator:short": "USPS", "operator:type": "public", "operator:wikidata": "Q668687", "ref": "6354900007"}, "type": "Feature"}
{"geometry": {"coordinates": [-92.699157, 40.491317], "type": "Point"}, "id": "w8_xdUnfuuXLjMRYo3X5uUeqQg4=", "properties": {"@source_uri": "https://tools.usps.com/UspsToolsRestServices/rest/POLocator/findLocations", "@spider": "usps_collection_boxes", "addr:city": "LIVONIA", "addr:country": "US", "addr:postcode": "63551", "addr:state": "MO", "addr:street_address": "204 E D AVE", "amenity": "post_box", "collection_times": "Mo-Fr 12:45; Sa 11:30", "note": "ON 12/24 AND 12/31, THIS BOX MAY BE COLLECTED AS EARLY AS 12 NOON.", "nsi_id": "unitedstatespostalservice-a77078", "operator": "United States Postal Service", "operator:short": "USPS", "operator:type": "public", "operator:wikidata": "Q668687", "ref": "6355100001"}, "type": "Feature"}
{"geometry": {"coordinates": [-92.699266, 40.491343], "type": "Point"}, "id": "i5wqwtPhH4QHOd5_uaTqJfKzCwA=", "properties": {"@source_uri": "https://tools.usps.com/UspsToolsRestServices/rest/POLocator/findLocations", "@spider": "usps_collection_boxes", "addr:city": "LIVONIA", "addr:country": "US", "addr:postcode": "63551", "addr:state": "MO", "addr:street_address": "204 E D AVE", "amenity": "post_box", "collection_times": "Mo-Fr 12:45; Sa 11:30", "indoor": "yes", "note": "ON 12/24 AND 12/31, THIS BOX MAY BE COLLECTED AS EARLY AS 12 NOON.", "nsi_id": "unitedstatespostalservice-a77078", "operator": "United States Postal Service", "operator:short": "USPS", "operator:type": "public", "operator:wikidata": "Q668687", "ref": "6355100002"}, "type": "Feature"}
{"geometry": {"coordinates": [-92.69919742, 40.491258793], "type": "Point"}, "id": "8PJKFWPNhJBz3LmvwMmE067FauA=", "properties": {"@source_uri": "https://tools.usps.com/UspsToolsRestServices/rest/POLocator/findLocations", "@spider": "usps_collection_boxes", "addr:city": "LIVONIA", "addr:country": "US", "addr:postcode": "63551", "addr:state": "MO", "addr:street_address": "204 E D AVE", "amenity": "post_box", "collection_times": "Mo-Fr 12:45; Sa 11:30", "indoor": "yes", "note": "ON 12/24 AND 12/31, THIS BOX MAY BE COLLECTED AS EARLY AS 12 NOON.", "nsi_id": "unitedstatespostalservice-a77078", "operator": "United States Postal Service", "operator:short": "USPS", "operator:type": "public", "operator:wikidata": "Q668687", "ref": "6355100004"}, "type": "Feature"}
{"geometry": {"coordinates": [-92.472800032, 39.737590002], "type": "Point"}, "id": "FWVesHlOoRrwDZhJXMbJ5_RnZAs=", "properties": {"@source_uri": "https://tools.usps.com/UspsToolsRestServices/rest/POLocator/findLocations", "@spider": "usps_collection_boxes", "addr:city": "MACON", "addr:country": "US", "addr:postcode": "63552", "addr:state": "MO", "addr:street_address": "104 VINE STREET", "amenity": "post_box", "collection_times": "Mo-Fr 15:00; Sa 11:30", "note": "ON 12/24 AND 12/31, THIS BOX MAY BE COLLECTED AS EARLY AS 12 NOON.", "nsi_id": "unitedstatespostalservice-a77078", "operator": "United States Postal Service", "operator:short": "USPS", "operator:type": "public", "operator:wikidata": "Q668687", "ref": "6355200004"}, "type": "Feature"}
{"geometry": {"coordinates": [-92.4637014374, 39.7521495039], "type": "Point"}, "id": "CYQzmOMRor9cLyQtTnQNCGyyp6I=", "properties": {"@source_uri": "https://tools.usps.com/UspsToolsRestServices/rest/POLocator/findLocations", "@spider": "usps_collection_boxes", "addr:city": "MACON", "addr:country": "US", "addr:postcode": "63552", "addr:state": "MO", "addr:street_address": "705 E BRIGGS DR", "amenity": "post_box", "collection_times": "Mo-Fr 15:05; Sa 11:30", "note": "ON 12/24 AND 12/31, THIS BOX MAY BE COLLECTED AS EARLY AS 12 NOON.", "nsi_id": "unitedstatespostalservice-a77078", "operator": "United States Postal Service", "operator:short": "USPS", "operator:type": "public", "operator:wikidata": "Q668687", "ref": "6355200013"}, "type": "Feature"}
{"geometry": {"coordinates": [-92.475790024, 39.7382400184], "type": "Point"}, "id": "NQS-3AscG57_JRb77sJjkkbmW4o=", "properties": {"@source_uri": "https://tools.usps.com/UspsToolsRestServices/rest/POLocator/findLocations", "@spider": "usps_collection_boxes", "addr:city": "MACON", "addr:country": "US", "addr:postcode": "63552", "addr:state": "MO", "addr:street_address": "105 DUFF ST", "amenity": "post_box", "collection_times": "Mo-Fr 15:05; Sa 11:30", "note": "ON 12/24 AND 12/31, THIS BOX MAY BE COLLECTED AS EARLY AS 12 NOON.", "nsi_id": "unitedstatespostalservice-a77078", "operator": "United States Postal Service", "operator:short": "USPS", "operator:type": "public", "operator:wikidata": "Q668687", "ref": "6355200014"}, "type": "Feature"}
{"geometry": {"coordinates": [-92.4756955, 39.738178], "type": "Point"}, "id": "SBYHXvFYxW30ZEUCgm3luKuob4w=", "properties": {"@source_uri": "https://tools.usps.com/UspsToolsRestServices/rest/POLocator/findLocations", "@spider": "usps_collection_boxes", "addr:city": "MACON", "addr:country": "US", "addr:postcode": "63552", "addr:state": "MO", "addr:street_address": "105 DUFF ST", "amenity": "post_box", "collection_times": "Mo-Fr 15:05; Sa 10:45", "indoor": "yes", "note": "ON 12/24 AND 12/31, THIS BOX MAY BE COLLECTED AS EARLY AS 12 NOON.", "nsi_id": "unitedstatespostalservice-a77078", "operator": "United States Postal Service", "operator:short": "USPS", "operator:type": "public", "operator:wikidata": "Q668687", "ref": "6355200015"}, "type": "Feature"}
{"geometry": {"coordinates": [-92.467309969, 39.751520012], "type": "Point"}, "id": "YN5Z7aQNCyPUpPGU8ZcquViW0YM=", "properties": {"@source_uri": "https://tools.usps.com/UspsToolsRestServices/rest/POLocator/findLocations", "@spider": "usps_collection_boxes", "addr:city": "MACON", "addr:country": "US", "addr:postcode": "63552", "addr:state": "MO", "addr:street_address": "1610 N MISSOURI ST", "amenity": "post_box", "collection_times": "Mo-Fr 15:00; Sa 11:30", "note": "ON 12/24 AND 12/31, THIS BOX MAY BE COLLECTED AS EARLY AS 12 NOON.", "nsi_id": "unitedstatespostalservice-a77078", "operator": "United States Postal Service", "operator:short": "USPS", "operator:type": "public", "operator:wikidata": "Q668687", "ref": "6355200017"}, "type": "Feature"}
{"geometry": {"coordinates": [-92.475507351, 39.738213932], "type": "Point"}, "id": "kayPB6pR_ezrFlqzKRivw0mqlCg=", "properties": {"@source_uri": "https://tools.usps.com/UspsToolsRestServices/rest/POLocator/findLocations", "@spider": "usps_collection_boxes", "addr:city": "MACON", "addr:country": "US", "addr:postcode": "63552", "addr:state": "MO", "addr:street_address": "105 DUFF ST", "amenity": "post_box", "collection_times": "Mo-Fr 15:00; Sa 11:30", "indoor": "yes", "note": "ON 12/24 AND 12/31, THIS BOX MAY BE COLLECTED AS EARLY AS 12 NOON.", "nsi_id": "unitedstatespostalservice-a77078", "operator": "United States Postal Service", "operator:short": "USPS", "operator:type": "public", "operator:wikidata": "Q668687", "ref": "6355200019"}, "type": "Feature"}
{"geometry": {"coordinates": [-92.169343, 40.459277], "type": "Point"}, "id": "ykOjcISY31jQKFN4q-l4a1ideIQ=", "properties": {"@source_uri": "https://tools.usps.com/UspsToolsRestServices/rest/POLocator/findLocations", "@spider": "usps_collection_boxes", "addr:city": "MEMPHIS", "addr:country": "US", "addr:postcode": "63555", "addr:state": "MO", "addr:street_address": "128 N MARKET ST", "amenity": "post_box", "collection_times": "Mo-Fr 14:30; Sa 09:30", "note": "ON 12/24 AND 12/31, THIS BOX MAY BE COLLECTED AS EARLY AS 12 NOON.", "nsi_id": "unitedstatespostalservice-a77078", "operator": "United States Postal Service", "operator:short": "USPS", "operator:type": "public", "operator:wikidata": "Q668687", "ref": "6355500001"}, "type": "Feature"}
{"geometry": {"coordinates": [-92.16938, 40.459239], "type": "Point"}, "id": "W3uRG8ay0fGJ962osdiZovzzVQQ=", "properties": {"@source_uri": "https://tools.usps.com/UspsToolsRestServices/rest/POLocator/findLocations", "@spider": "usps_collection_boxes", "addr:city": "MEMPHIS", "addr:country": "US", "addr:postcode": "63555", "addr:state": "MO", "addr:street_address": "128 N MARKET ST", "amenity": "post_box", "collection_times": "Mo-Fr 14:30; Sa 09:30", "indoor": "yes", "note": "ON 12/24 AND 12/31, THIS BOX MAY BE COLLECTED AS EARLY AS 12 NOON.", "nsi_id": "unitedstatespostalservice-a77078", "operator": "United States Postal Service", "operator:short": "USPS", "operator:type": "public", "operator:wikidata": "Q668687", "ref": "6355500006"}, "type": "Feature"}
{"geometry": {"coordinates": [-92.169302626, 40.459257365], "type": "Point"}, "id": "TYVFUyPzUHpsc8R1gDFJXCW_D0U=", "properties": {"@source_uri": "https://tools.usps.com/UspsToolsRestServices/rest/POLocator/findLocations", "@spider": "usps_collection_boxes", "addr:city": "MEMPHIS", "addr:country": "US", "addr:postcode": "63555", "addr:state": "MO", "addr:street_address": "128 N MARKET ST", "amenity": "post_box", "collection_times": "Mo-Fr 14:30; Sa 09:30", "indoor": "yes", "note": "ON 12/24 AND 12/31, THIS BOX MAY BE COLLECTED AS EARLY AS 12 NOON.", "nsi_id": "unitedstatespostalservice-a77078", "operator": "United States Postal Service", "operator:short": "USPS", "operator:type": "public", "operator:wikidata": "Q668687", "ref": "6355500008"}, "type": "Feature"}
{"geometry": {"coordinates": [-93.1249649884, 40.2009999893], "type": "Point"}, "id": "T_4dC9SpzCMCMT5dqjVeLfO1knM=", "properties": {"@source_uri": "https://tools.usps.com/UspsToolsRestServices/rest/POLocator/findLocations", "@spider": "usps_collection_boxes", "addr:city": "MILAN", "addr:country": "US", "addr:postcode": "63556", "addr:state": "MO", "addr:street_address": "100 E 4TH ST", "amenity": "post_box", "collection_times": "Mo-Fr 14:30; Sa 10:00", "note": "ON 12/24 AND 12/31, THIS BOX MAY BE COLLECTED AS EARLY AS 12 NOON.", "nsi_id": "unitedstatespostalservice-a77078", "operator": "United States Postal Service", "operator:short": "USPS", "operator:type": "public", "operator:wikidata": "Q668687", "ref": "6355600001"}, "type": "Feature"}
{"geometry": {"coordinates": [-93.1253086, 40.202245], "type": "Point"}, "id": "wWvgfBDWUhSiQYIim3a_Ia9niVA=", "properties": {"@source_uri": "https://tools.usps.com/UspsToolsRestServices/rest/POLocator/findLocations", "@spider": "usps_collection_boxes", "addr:city": "MILAN", "addr:country": "US", "addr:postcode": "63556", "addr:state": "MO", "addr:street_address": "101 E 3RD ST", "amenity": "post_box", "collection_times": "Mo-Fr 14:30; Sa 10:00", "note": "ON 12/24 AND 12/31, THIS BOX MAY BE COLLECTED AS EARLY AS 12 NOON.", "nsi_id": "unitedstatespostalservice-a77078", "operator": "United States Postal Service", "operator:short": "USPS", "operator:type": "public", "operator:wikidata": "Q668687", "ref": "6355600006"}, "type": "Feature"}
{"geometry": {"coordinates": [-93.1250138, 40.20094], "type": "Point"}, "id": "6iPVFkDP09sqiSQuoDRR34egLiw=", "properties": {"@source_uri": "https://tools.usps.com/UspsToolsRestServices/rest/POLocator/findLocations", "@spider": "usps_collection_boxes", "addr:city": "MILAN", "addr:country": "US", "addr:postcode": "63556", "addr:state": "MO", "addr:street_address": "100 E 4TH ST", "amenity": "post_box", "collection_times": "Mo-Fr 14:30; Sa 10:00", "indoor": "yes", "note": "ON 12/24 AND 12/31, THIS BOX MAY BE COLLECTED AS EARLY AS 12 NOON.", "nsi_id": "unitedstatespostalservice-a77078", "operator": "United States Postal Service", "operator:short": "USPS", "operator:type": "public", "operator:wikidata": "Q668687", "ref": "6355600007"}, "type": "Feature"}
{"geometry": {"coordinates": [-93.12535234, 40.201146201], "type": "Point"}, "id": "lQelpX3zv5aPOHdMtgQzp_hHDGQ=", "properties": {"@source_uri": "https://tools.usps.com/UspsToolsRestServices/rest/POLocator/findLocations", "@spider": "usps_collection_boxes", "addr:city": "MILAN", "addr:country": "US", "addr:postcode": "63556", "addr:state": "MO", "addr:street_address": "100 E 4TH ST", "amenity": "post_box", "collection_times": "Mo-Fr 14:45; Sa 10:00", "indoor": "yes", "note": "ON 12/24 AND 12/31, THIS BOX MAY BE COLLECTED AS EARLY AS 12 NOON.", "nsi_id": "unitedstatespostalservice-a77078", "operator": "United States Postal Service", "operator:short": "USPS", "operator:type": "public", "operator:wikidata": "Q668687", "ref": "6355600009"}, "type": "Feature"}
{"geometry": {"coordinates": [-92.8596233, 39.951614], "type": "Point"}, "id": "zfOG8Q2hX4nTkfmLAbbOgf63BQk=", "properties": {"@source_uri": "https://tools.usps.com/UspsToolsRestServices/rest/POLocator/findLocations", "@spider": "usps_collection_boxes", "addr:city": "NEW BOSTON", "addr:country": "US", "addr:postcode": "63557", "addr:state": "MO", "addr:street_address": "15832 HIGHWAY 129", "amenity": "post_box", "collection_times": "Mo-Fr 11:45; Sa 09:15", "nsi_id": "unitedstatespostalservice-a77078", "operator": "United States Postal Service", "operator:short": "USPS", "operator:type": "public", "operator:wikidata": "Q668687", "ref": "6355700001"}, "type": "Feature"}
{"geometry": {"coordinates": [-92.8595762, 39.951662], "type": "Point"}, "id": "VDw41kxlgjqN-AX11zu-EF9KERk=", "properties": {"@source_uri": "https://tools.usps.com/UspsToolsRestServices/rest/POLocator/findLocations", "@spider": "usps_collection_boxes", "addr:city": "NEW BOSTON", "addr:country": "US", "addr:postcode": "63557", "addr:state": "MO", "addr:street_address": "15832 HIGHWAY 129", "amenity": "post_box", "collection_times": "Mo-Fr 11:45; Sa 10:00", "indoor": "yes", "nsi_id": "unitedstatespostalservice-a77078", "operator": "United States Postal Service", "operator:short": "USPS", "operator:type": "public", "operator:wikidata": "Q668687", "ref": "6355700002"}, "type": "Feature"}
{"geometry": {"coordinates": [-92.859398763, 39.951655525], "type": "Point"}, "id": "Y1a8DpsTvpUPXirzYP7p60tVovg=", "properties": {"@source_uri": "https://tools.usps.com/UspsToolsRestServices/rest/POLocator/findLocations", "@spider": "usps_collection_boxes", "addr:city": "NEW BOSTON", "addr:country": "US", "addr:postcode": "63557", "addr:state": "MO", "addr:street_address": "15832 HIGHWAY 129", "amenity": "post_box", "collection_times": "Mo-Fr 11:45; Sa 10:00", "indoor": "yes", "nsi_id": "unitedstatespostalservice-a77078", "operator": "United States Postal Service", "operator:short": "USPS", "operator:type": "public", "operator:wikidata": "Q668687", "ref": "6355700003"}, "type": "Feature"}
{"geometry": {"coordinates": [-92.750545, 39.775322], "type": "Point"}, "id": "TTYizTOSPR6GD3ALxTkqgpFFC-c=", "properties": {"@source_uri": "https://tools.usps.com/UspsToolsRestServices/rest/POLocator/findLocations", "@spider": "usps_collection_boxes", "addr:city": "NEW CAMBRIA", "addr:country": "US", "addr:postcode": "63558", "addr:state": "MO", "addr:street_address": "108 N MAIN ST", "amenity": "post_box", "collection_times": "Mo-Fr 11:15; Sa 09:00", "nsi_id": "unitedstatespostalservice-a77078", "operator": "United States Postal Service", "operator:short": "USPS", "operator:type": "public", "operator:wikidata": "Q668687", "ref": "6355800001"}, "type": "Feature"}
{"geometry": {"coordinates": [-92.750545, 39.775322], "type": "Point"}, "id": "15259_gL5TJSgL9nrkoeQG1_b5A=", "properties": {"@source_uri": "https://tools.usps.com/UspsToolsRestServices/rest/POLocator/findLocations", "@spider": "usps_collection_boxes", "addr:city": "NEW CAMBRIA", "addr:country": "US", "addr:postcode": "63558", "addr:state": "MO", "addr:street_address": "108 N MAIN ST", "amenity": "post_box", "collection_times": "Mo-Fr 11:15; Sa 09:00", "indoor": "yes", "nsi_id": "unitedstatespostalservice-a77078", "operator": "United States Postal Service", "operator:short": "USPS", "operator:type": "public", "operator:wikidata": "Q668687", "ref": "6355800002"}, "type": "Feature"}
{"geometry": {"coordinates": [-92.75052234, 39.775389197], "type": "Point"}, "id": "KkQWbhjTVZLi-RH2T1w5GY3W6cs=", "properties": {"@source_uri": "https://tools.usps.com/UspsToolsRestServices/rest/POLocator/findLocations", "@spider": "usps_collection_boxes", "addr:city": "NEW CAMBRIA", "addr:country": "US", "addr:postcode": "63558", "addr:state": "MO", "addr:street_address": "108 N MAIN ST", "amenity": "post_box", "collection_times": "Mo-Fr 11:15; Sa 09:00", "indoor": "yes", "nsi_id": "unitedstatespostalservice-a77078", "operator": "United States Postal Service", "operator:short": "USPS", "operator:type": "public", "operator:wikidata": "Q668687", "ref": "6355800004"}, "type": "Feature"}
{"geometry": {"coordinates": [-92.7083023, 40.232033], "type": "Point"}, "id": "H30eQ1UGMypp99Kfy9grti9cgbQ=", "properties": {"@source_uri": "https://tools.usps.com/UspsToolsRestServices/rest/POLocator/findLocations", "@spider": "usps_collection_boxes", "addr:city": "NOVINGER", "addr:country": "US", "addr:postcode": "63559", "addr:state": "MO", "addr:street_address": "214 S FRANKFORD AVE", "amenity": "post_box", "collection_times": "Mo-Fr 11:15; Sa 09:00", "nsi_id": "unitedstatespostalservice-a77078", "operator": "United States Postal Service", "operator:short": "USPS", "operator:type": "public", "operator:wikidata": "Q668687", "ref": "6355900001"}, "type": "Feature"}
{"geometry": {"coordinates": [-92.7082282, 40.23212], "type": "Point"}, "id": "JbgFFle7j0PFeI2sat9_8uGfS1s=", "properties": {"@source_uri": "https://tools.usps.com/UspsToolsRestServices/rest/POLocator/findLocations", "@spider": "usps_collection_boxes", "addr:city": "NOVINGER", "addr:country": "US", "addr:postcode": "63559", "addr:state": "MO", "addr:street_address": "214 S FRANKFORD AVE", "amenity": "post_box", "collection_times": "Mo-Fr 11:15; Sa 09:00", "indoor": "yes", "nsi_id": "unitedstatespostalservice-a77078", "operator": "United States Postal Service", "operator:short": "USPS", "operator:type": "public", "operator:wikidata": "Q668687", "ref": "6355900002"}, "type": "Feature"}
{"geometry": {"coordinates": [-92.708312624, 40.231201983], "type": "Point"}, "id": "ArNgPBXyq-2fdO1o93kdrC57cN4=", "properties": {"@source_uri": "https://tools.usps.com/UspsToolsRestServices/rest/POLocator/findLocations", "@spider": "usps_collection_boxes", "addr:city": "NOVINGER", "addr:country": "US", "addr:postcode": "63559", "addr:state": "MO", "addr:street_address": "214 S FRANKFORD AVE", "amenity": "post_box", "collection_times": "Mo-Fr 11:15; Sa 09:00", "indoor": "yes", "nsi_id": "unitedstatespostalservice-a77078", "operator": "United States Postal Service", "operator:short": "USPS", "operator:type": "public", "operator:wikidata": "Q668687", "ref": "6355900003"}, "type": "Feature"}
{"geometry": {"coordinates": [-93.082338, 40.35911], "type": "Point"}, "id": "tURto8-_azGdfDIHryDJPWkW6no=", "properties": {"@source_uri": "https://tools.usps.com/UspsToolsRestServices/rest/POLocator/findLocations", "@spider": "usps_collection_boxes", "addr:city": "POLLOCK", "addr:country": "US", "addr:postcode": "63560", "addr:state": "MO", "addr:street_address": "506 C ST", "amenity": "post_box", "collection_times": "Mo-Sa 12:15", "note": "ON 12/24 AND 12/31, THIS BOX MAY BE COLLECTED AS EARLY AS 12 NOON.", "nsi_id": "unitedstatespostalservice-a77078", "operator": "United States Postal Service", "operator:short": "USPS", "operator:type": "public", "operator:wikidata": "Q668687", "ref": "6356000001"}, "type": "Feature"}
{"geometry": {"coordinates": [-93.082338, 40.35911], "type": "Point"}, "id": "s3cBN_AZM2KlEJUcNlAfhFwV9a8=", "properties": {"@source_uri": "https://tools.usps.com/UspsToolsRestServices/rest/POLocator/findLocations", "@spider": "usps_collection_boxes", "addr:city": "POLLOCK", "addr:country": "US", "addr:postcode": "63560", "addr:state": "MO", "addr:street_address": "506 C ST", "amenity": "post_box", "collection_times": "Mo-Sa 12:15", "indoor": "yes", "note": "ON 12/24 AND 12/31, THIS BOX MAY BE COLLECTED AS EARLY AS 12 NOON.", "nsi_id": "unitedstatespostalservice-a77078", "operator": "United States Postal Service", "operator:short": "USPS", "operator:type": "public", "operator:wikidata": "Q668687", "ref": "6356000002"}, "type": "Feature"}
{"geometry": {"coordinates": [-93.084402097, 40.359192592], "type": "Point"}, "id": "ejLvrbSajJjygr0sWAtRPeKh2m4=", "properties": {"@source_uri": "https://tools.usps.com/UspsToolsRestServices/rest/POLocator/findLocations", "@spider": "usps_collection_boxes", "addr:city": "POLLOCK", "addr:country": "US", "addr:postcode": "63560", "addr:state": "MO", "addr:street_address": "506 C ST", "amenity": "post_box", "collection_times": "Mo-Sa 12:15", "indoor": "yes", "note": "ON 12/24 AND 12/31, THIS BOX MAY BE COLLECTED AS EARLY AS 12 NOON.", "nsi_id": "unitedstatespostalservice-a77078", "operator": "United States Postal Service", "operator:short": "USPS", "operator:type": "public", "operator:wikidata": "Q668687", "ref": "6356000003"}, "type": "Feature"}
{"geometry": {"coordinates": [-92.567211, 40.407359], "type": "Point"}, "id": "9i6mVJZRUnF0Ij1_D_FrTF1QDhQ=", "properties": {"@source_uri": "https://tools.usps.com/UspsToolsRestServices/rest/POLocator/findLocations", "@spider": "usps_collection_boxes", "addr:city": "QUEEN CITY", "addr:country": "US", "addr:postcode": "63561", "addr:state": "MO", "addr:street_address": "520 CEDAR ST", "amenity": "post_box", "collection_times": "Mo-Fr 14:15; Sa 08:30", "note": "ON 12/24 AND 12/31, THIS BOX MAY BE COLLECTED AS EARLY AS 12 NOON.", "nsi_id": "unitedstatespostalservice-a77078", "operator": "United States Postal Service", "operator:short": "USPS", "operator:type": "public", "operator:wikidata": "Q668687", "ref": "6356100001"}, "type": "Feature"}
{"geometry": {"coordinates": [-92.567247, 40.407306], "type": "Point"}, "id": "Jm_x4BsjZmkjg4GV6_cGmn9Ij2M=", "properties": {"@source_uri": "https://tools.usps.com/UspsToolsRestServices/rest/POLocator/findLocations", "@spider": "usps_collection_boxes", "addr:city": "QUEEN CITY", "addr:country": "US", "addr:postcode": "63561", "addr:state": "MO", "addr:street_address": "520 CEDAR ST", "amenity": "post_box", "collection_times": "Mo-Fr 14:15; Sa 08:45", "indoor": "yes", "note": "ON 12/24 AND 12/31, THIS BOX MAY BE COLLECTED AS EARLY AS 12 NOON.", "nsi_id": "unitedstatespostalservice-a77078", "operator": "United States Postal Service", "operator:short": "USPS", "operator:type": "public", "operator:wikidata": "Q668687", "ref": "6356100002"}, "type": "Feature"}
{"geometry": {"coordinates": [-92.567255626, 40.414014023], "type": "Point"}, "id": "rYxcRxGx4N7xuFGo_FO4Bu9RQhQ=", "properties": {"@source_uri": "https://tools.usps.com/UspsToolsRestServices/rest/POLocator/findLocations", "@spider": "usps_collection_boxes", "addr:city": "QUEEN CITY", "addr:country": "US", "addr:postcode": "63561", "addr:state": "MO", "addr:street_address": "520 N CEDAR ST", "amenity": "post_box", "collection_times": "Mo-Fr 14:15; Sa 08:45", "indoor": "yes", "note": "ON 12/24 AND 12/31, THIS BOX MAY BE COLLECTED AS EARLY AS 12 NOON.", "nsi_id": "unitedstatespostalservice-a77078", "operator": "United States Postal Service", "operator:short": "USPS", "operator:type": "public", "operator:wikidata": "Q668687", "ref": "6356100004"}, "type": "Feature"}
{"geometry": {"coordinates": [-92.086854, 40.313423], "type": "Point"}, "id": "TJsdh0ml1-4d96N_2fHJXjGwcFI=", "properties": {"@source_uri": "https://tools.usps.com/UspsToolsRestServices/rest/POLocator/findLocations", "@spider": "usps_collection_boxes", "addr:city": "RUTLEDGE", "addr:country": "US", "addr:postcode": "63563", "addr:state": "MO", "addr:street_address": "55 MAIN ST", "amenity": "post_box", "collection_times": "Mo-Fr 11:45; Sa 08:45", "nsi_id": "unitedstatespostalservice-a77078", "operator": "United States Postal Service", "operator:short": "USPS", "operator:type": "public", "operator:wikidata": "Q668687", "ref": "6356300001"}, "type": "Feature"}
{"geometry": {"coordinates": [-92.086854, 40.313423], "type": "Point"}, "id": "_60ZbfO3TzHbTgb6oZSUObUx7X4=", "properties": {"@source_uri": "https://tools.usps.com/UspsToolsRestServices/rest/POLocator/findLocations", "@spider": "usps_collection_boxes", "addr:city": "RUTLEDGE", "addr:country": "US", "addr:postcode": "63563", "addr:state": "MO", "addr:street_address": "55 MAIN ST", "amenity": "post_box", "collection_times": "Mo-Fr 11:45; Sa 08:45", "indoor": "yes", "nsi_id": "unitedstatespostalservice-a77078", "operator": "United States Postal Service", "operator:short": "USPS", "operator:type": "public", "operator:wikidata": "Q668687", "ref": "6356300002"}, "type": "Feature"}
{"geometry": {"coordinates": [-92.086854, 40.313423], "type": "Point"}, "id": "X354HlCgzx8exWJrmEZdWbHT_dU=", "properties": {"@source_uri": "https://tools.usps.com/UspsToolsRestServices/rest/POLocator/findLocations", "@spider": "usps_collection_boxes", "addr:city": "RUTLEDGE", "addr:country": "US", "addr:postcode": "63563", "addr:state": "MO", "addr:street_address": "55 MAIN ST", "amenity": "post_box", "collection_times": "Mo-Fr 11:45; Sa 08:45", "indoor": "yes", "nsi_id": "unitedstatespostalservice-a77078", "operator": "United States Postal Service", "operator:short": "USPS", "operator:type": "public", "operator:wikidata": "Q668687", "ref": "6356300003"}, "type": "Feature"}
{"geometry": {"coordinates": [-92.086940115, 40.313313634], "type": "Point"}, "id": "5IazJWZRe_LHDHDAU_T4G7asKtY=", "properties": {"@source_uri": "https://tools.usps.com/UspsToolsRestServices/rest/POLocator/findLocations", "@spider": "usps_collection_boxes", "addr:city": "RUTLEDGE", "addr:country": "US", "addr:postcode": "63563", "addr:state": "MO", "addr:street_address": "55 MAIN ST", "amenity": "post_box", "collection_times": "Mo-Fr 11:45; Sa 08:45", "indoor": "yes", "nsi_id": "unitedstatespostalservice-a77078", "operator": "United States Postal Service", "operator:short": "USPS", "operator:type": "public", "operator:wikidata": "Q668687", "ref": "6356300004"}, "type": "Feature"}
{"geometry": {"coordinates": [-93.0020192, 40.475926], "type": "Point"}, "id": "xVx_Lg2Bdm_ycEM4HInN-993-Gc=", "properties": {"@source_uri": "https://tools.usps.com/UspsToolsRestServices/rest/POLocator/findLocations", "@spider": "usps_collection_boxes", "addr:city": "UNIONVILLE", "addr:country": "US", "addr:postcode": "63565", "addr:state": "MO", "addr:street_address": "1603 GRANT ST", "amenity": "post_box", "collection_times": "Mo-Fr 14:20; Sa 10:00", "note": "ON 12/24 AND 12/31, THIS BOX MAY BE COLLECTED AS EARLY AS 12 NOON.", "nsi_id": "unitedstatespostalservice-a77078", "operator": "United States Postal Service", "operator:short": "USPS", "operator:type": "public", "operator:wikidata": "Q668687", "ref": "6356500001"}, "type": "Feature"}
{"geometry": {"coordinates": [-93.0128985, 40.476846], "type": "Point"}, "id": "3LzuBJVdtyFB2cD8W9jhxIpnVd4=", "properties": {"@source_uri": "https://tools.usps.com/UspsToolsRestServices/rest/POLocator/findLocations", "@spider": "usps_collection_boxes", "addr:city": "UNIONVILLE", "addr:country": "US", "addr:postcode": "63565", "addr:state": "MO", "addr:street_address": "2521 MAIN ST", "amenity": "post_box", "collection_times": "Mo-Fr 14:20", "note": "ON 12/24 AND 12/31, THIS BOX MAY BE COLLECTED AS EARLY AS 12 NOON.", "nsi_id": "unitedstatespostalservice-a77078", "operator": "United States Postal Service", "operator:short": "USPS", "operator:type": "public", "operator:wikidata": "Q668687", "ref": "6356500003"}, "type": "Feature"}
{"geometry": {"coordinates": [-93.0021556, 40.476011], "type": "Point"}, "id": "yIEZOYUEJ2zJBzpqXRgj1-CUkXI=", "properties": {"@source_uri": "https://tools.usps.com/UspsToolsRestServices/rest/POLocator/findLocations", "@spider": "usps_collection_boxes", "addr:city": "UNIONVILLE", "addr:country": "US", "addr:postcode": "63565", "addr:state": "MO", "addr:street_address": "1603 GRANT ST", "amenity": "post_box", "collection_times": "Mo-Fr 14:20; Sa 10:00", "indoor": "yes", "note": "ON 12/24 AND 12/31, THIS BOX MAY BE COLLECTED AS EARLY AS 12 NOON.", "nsi_id": "unitedstatespostalservice-a77078", "operator": "United States Postal Service", "operator:short": "USPS", "operator:type": "public", "operator:wikidata": "Q668687", "ref": "6356500004"}, "type": "Feature"}
{"geometry": {"coordinates": [-93.002048597, 40.476037378], "type": "Point"}, "id": "rLeTqDQvSjuq9wkabVVRgCWA6Hw=", "properties": {"@source_uri": "https://tools.usps.com/UspsToolsRestServices/rest/POLocator/findLocations", "@spider": "usps_collection_boxes", "addr:city": "UNIONVILLE", "addr:country": "US", "addr:postcode": "63565", "addr:state": "MO", "addr:street_address": "1603 GRANT ST", "amenity": "post_box", "collection_times": "Mo-Fr 14:15; Sa 10:00", "indoor": "yes", "note": "ON 12/24 AND 12/31, THIS BOX MAY BE COLLECTED AS EARLY AS 12 NOON.", "nsi_id": "unitedstatespostalservice-a77078", "operator": "United States Postal Service", "operator:short": "USPS", "operator:type": "public", "operator:wikidata": "Q668687", "ref": "6356500006"}, "type": "Feature"}
{"geometry": {"coordinates": [-92.901930498, 40.045964514], "type": "Point"}, "id": "lGg8ww8U_8R1gRA0BdRuJpgrYCU=", "properties": {"@source_uri": "https://tools.usps.com/UspsToolsRestServices/rest/POLocator/findLocations", "@spider": "usps_collection_boxes", "addr:city": "WINIGAN", "addr:country": "US", "addr:postcode": "63566", "addr:state": "MO", "addr:street_address": "33314 MAIN ST", "amenity": "post_box", "collection_times": "Mo-Fr 10:30; Sa 11:30", "nsi_id": "unitedstatespostalservice-a77078", "operator": "United States Postal Service", "operator:short": "USPS", "operator:type": "public", "operator:wikidata": "Q668687", "ref": "6356600001"}, "type": "Feature"}
{"geometry": {"coordinates": [-92.901930498, 40.045964514], "type": "Point"}, "id": "afBJoNjPlgGWP6mXOpYfEnknpcY=", "properties": {"@source_uri": "https://tools.usps.com/UspsToolsRestServices/rest/POLocator/findLocations", "@spider": "usps_collection_boxes", "addr:city": "WINIGAN", "addr:country": "US", "addr:postcode": "63566", "addr:state": "MO", "addr:street_address": "33314 MAIN ST", "amenity": "post_box", "collection_times": "Mo-Fr 10:30; Sa 11:30", "indoor": "yes", "nsi_id": "unitedstatespostalservice-a77078", "operator": "United States Postal Service", "operator:short": "USPS", "operator:type": "public", "operator:wikidata": "Q668687", "ref": "6356600002"}, "type": "Feature"}
{"geometry": {"coordinates": [-92.901930498, 40.045964514], "type": "Point"}, "id": "Y1en6bADbzy33MsURZFqvjc_mmQ=", "properties": {"@source_uri": "https://tools.usps.com/UspsToolsRestServices/rest/POLocator/findLocations", "@spider": "usps_collection_boxes", "addr:city": "WINIGAN", "addr:country": "US", "addr:postcode": "63566", "addr:state": "MO", "addr:street_address": "33314 MAIN ST", "amenity": "post_box", "collection_times": "Mo-Fr 10:30; Sa 11:30", "indoor": "yes", "nsi_id": "unitedstatespostalservice-a77078", "operator": "United States Postal Service", "operator:short": "USPS", "operator:type": "public", "operator:wikidata": "Q668687", "ref": "6356600003"}, "type": "Feature"}
