{"dataset_attributes": {"@spider": "usps_collection_boxes", "spider:collection_time": "2023-11-22T08:26:05.887177"}, "geometry": {"coordinates": [-90.5220287989, 37.8511071141], "type": "Point"}, "id": "0brkKjkX-yh4ZVbbhwLzYD-G89o=", "properties": {"@spider": "usps_collection_boxes", "addr:city": "PARK HILLS", "addr:country": "US", "addr:full": "302 T J STEWART DR", "addr:postcode": "63601", "addr:state": "MO", "amenity": "post_box", "brand": "United States Postal Service", "brand:wikidata": "Q668687", "collection_times": "Mo-Sa 11:30", "name": "USPS COLLECTION BOX - BLUE BOX", "nsi_id": "unitedstatespostalservice-a77078", "operator": "United States Postal Service", "operator:short": "USPS", "operator:type": "public", "operator:wikidata": "Q668687", "ref": "6360100000"}, "type": "Feature"}
{"dataset_attributes": {"@spider": "usps_collection_boxes", "spider:collection_time": "2023-11-22T08:26:05.887177"}, "geometry": {"coordinates": [-90.5220287989, 37.8511071141], "type": "Point"}, "id": "HbKfeZanX31rqGA8p31fzWDwWUE=", "properties": {"@spider": "usps_collection_boxes", "addr:city": "PARK HILLS", "addr:country": "US", "addr:full": "302 T J STEWART DR", "addr:postcode": "63601", "addr:state": "MO", "amenity": "post_box", "brand": "United States Postal Service", "brand:wikidata": "Q668687", "collection_times": "Mo-Sa 11:30", "name": "USPS COLLECTION BOX - BLUE BOX", "nsi_id": "unitedstatespostalservice-a77078", "operator": "United States Postal Service", "operator:short": "USPS", "operator:type": "public", "operator:wikidata": "Q668687", "ref": "6360100001"}, "type": "Feature"}
{"dataset_attributes": {"@spider": "usps_collection_boxes", "spider:collection_time": "2023-11-22T08:26:05.887177"}, "geometry": {"coordinates": [-90.5276006, 37.872816], "type": "Point"}, "id": "v-VhCC9YzX1y7LfpLlAQbacxsdU=", "properties": {"@spider": "usps_collection_boxes", "addr:city": "PARK HILLS", "addr:country": "US", "addr:full": "301 N DESLOGE DR", "addr:postcode": "63601", "addr:state": "MO", "amenity": "post_box", "brand": "United States Postal Service", "brand:wikidata": "Q668687", "collection_times": "Mo-Sa 10:30", "name": "USPS COLLECTION BOX - BLUE BOX", "nsi_id": "unitedstatespostalservice-a77078", "operator": "United States Postal Service", "operator:short": "USPS", "operator:type": "public", "operator:wikidata": "Q668687", "ref": "6360100002"}, "type": "Feature"}
{"dataset_attributes": {"@spider": "usps_collection_boxes", "spider:collection_time": "2023-11-22T08:26:05.887177"}, "geometry": {"coordinates": [-90.5276272, 37.872835], "type": "Point"}, "id": "2d_RXJZVNVLsDtSKOa-UOX-8xEw=", "properties": {"@spider": "usps_collection_boxes", "addr:city": "PARK HILLS", "addr:country": "US", "addr:full": "301 N DESLOGE DR", "addr:postcode": "63601", "addr:state": "MO", "amenity": "post_box", "brand": "United States Postal Service", "brand:wikidata": "Q668687", "collection_times": "Mo-Sa 10:30", "name": "USPS COLLECTION BOX - BLUE BOX", "nsi_id": "unitedstatespostalservice-a77078", "operator": "United States Postal Service", "operator:short": "USPS", "operator:type": "public", "operator:wikidata": "Q668687", "ref": "6360100003"}, "type": "Feature"}
{"dataset_attributes": {"@spider": "usps_collection_boxes", "spider:collection_time": "2023-11-22T08:26:05.887177"}, "geometry": {"coordinates": [-90.521594, 37.850169], "type": "Point"}, "id": "Sr3ETCMRx2k0NaLKDU26QfFRwd4=", "properties": {"@spider": "usps_collection_boxes", "addr:city": "PARK HILLS", "addr:country": "US", "addr:full": "302 T J STEWART DR", "addr:postcode": "63601", "addr:state": "MO", "amenity": "post_box", "brand": "United States Postal Service", "brand:wikidata": "Q668687", "collection_times": "Mo-Sa 11:30", "name": "USPS COLLECTION BOX - PO LOBBY", "nsi_id": "unitedstatespostalservice-a77078", "operator": "United States Postal Service", "operator:short": "USPS", "operator:type": "public", "operator:wikidata": "Q668687", "ref": "6360100016"}, "type": "Feature"}
{"dataset_attributes": {"@spider": "usps_collection_boxes", "spider:collection_time": "2023-11-22T08:26:05.887177"}, "geometry": {"coordinates": [-90.5274221, 37.872922], "type": "Point"}, "id": "EDxijm-8sm9fHfMYFtbxqJh-8nE=", "properties": {"@spider": "usps_collection_boxes", "addr:city": "PARK HILLS", "addr:country": "US", "addr:full": "301 N DESLOGE DR", "addr:postcode": "63601", "addr:state": "MO", "amenity": "post_box", "brand": "United States Postal Service", "brand:wikidata": "Q668687", "collection_times": "Mo-Fr 10:30", "name": "USPS COLLECTION BOX - PO LOBBY", "nsi_id": "unitedstatespostalservice-a77078", "operator": "United States Postal Service", "operator:short": "USPS", "operator:type": "public", "operator:wikidata": "Q668687", "ref": "6360100019"}, "type": "Feature"}
{"dataset_attributes": {"@spider": "usps_collection_boxes", "spider:collection_time": "2023-11-22T08:26:05.887177"}, "geometry": {"coordinates": [-90.527173636, 37.872968375], "type": "Point"}, "id": "tiF80wBQsu09k34o74qLfmxAiHg=", "properties": {"@spider": "usps_collection_boxes", "addr:city": "PARK HILLS", "addr:country": "US", "addr:full": "301 N DESLOGE DR", "addr:postcode": "63601", "addr:state": "MO", "amenity": "post_box", "brand": "United States Postal Service", "brand:wikidata": "Q668687", "collection_times": "Mo-Fr 10:30", "name": "USPS COLLECTION BOX - PO LOBBY", "nsi_id": "unitedstatespostalservice-a77078", "operator": "United States Postal Service", "operator:short": "USPS", "operator:type": "public", "operator:wikidata": "Q668687", "ref": "6360100023"}, "type": "Feature"}
{"dataset_attributes": {"@spider": "usps_collection_boxes", "spider:collection_time": "2023-11-22T08:26:05.887177"}, "geometry": {"coordinates": [-90.522028799, 37.851107114], "type": "Point"}, "id": "jN2kt5JNKrqoJ_ekhQL2VWWwivM=", "properties": {"@spider": "usps_collection_boxes", "addr:city": "PARK HILLS", "addr:country": "US", "addr:full": "302 T J STEWART DR", "addr:postcode": "63601", "addr:state": "MO", "amenity": "post_box", "brand": "United States Postal Service", "brand:wikidata": "Q668687", "collection_times": "Mo-Fr 16:30; Sa 11:30", "name": "USPS COLLECTION BOX - PO LOBBY", "note": "ON 12/24 AND 12/31, THIS BOX MAY BE COLLECTED AS EARLY AS 12 NOON.", "nsi_id": "unitedstatespostalservice-a77078", "operator": "United States Postal Service", "operator:short": "USPS", "operator:type": "public", "operator:wikidata": "Q668687", "ref": "6360100024"}, "type": "Feature"}
{"dataset_attributes": {"@spider": "usps_collection_boxes", "spider:collection_time": "2023-11-22T08:26:05.887177"}, "geometry": {"coordinates": [-90.69516, 37.360357], "type": "Point"}, "id": "zOES0iBHDbqGqqWiCWx0Nc7k2vU=", "properties": {"@spider": "usps_collection_boxes", "addr:city": "ANNAPOLIS", "addr:country": "US", "addr:full": "303 E 2ND ST", "addr:postcode": "63620", "addr:state": "MO", "amenity": "post_box", "brand": "United States Postal Service", "brand:wikidata": "Q668687", "collection_times": "Mo-Sa 08:45", "name": "USPS COLLECTION BOX - BLUE BOX", "nsi_id": "unitedstatespostalservice-a77078", "operator": "United States Postal Service", "operator:short": "USPS", "operator:type": "public", "operator:wikidata": "Q668687", "ref": "6362000000"}, "type": "Feature"}
{"dataset_attributes": {"@spider": "usps_collection_boxes", "spider:collection_time": "2023-11-22T08:26:05.887177"}, "geometry": {"coordinates": [-90.695265, 37.360331], "type": "Point"}, "id": "hFYYumGMxye-aM-boEfuWVPoUls=", "properties": {"@spider": "usps_collection_boxes", "addr:city": "ANNAPOLIS", "addr:country": "US", "addr:full": "303 E 2ND ST", "addr:postcode": "63620", "addr:state": "MO", "amenity": "post_box", "brand": "United States Postal Service", "brand:wikidata": "Q668687", "collection_times": "Mo-Sa 08:45", "name": "USPS COLLECTION BOX - PO LOBBY", "nsi_id": "unitedstatespostalservice-a77078", "operator": "United States Postal Service", "operator:short": "USPS", "operator:type": "public", "operator:wikidata": "Q668687", "ref": "6362000002"}, "type": "Feature"}
{"dataset_attributes": {"@spider": "usps_collection_boxes", "spider:collection_time": "2023-11-22T08:26:05.887177"}, "geometry": {"coordinates": [-90.848808, 37.786285], "type": "Point"}, "id": "UOGNHfnLm-GAALujTjp7YtimQ-U=", "properties": {"@spider": "usps_collection_boxes", "addr:city": "BELGRADE", "addr:country": "US", "addr:full": "14135 STATE HIGHWAY C", "addr:postcode": "63622", "addr:state": "MO", "amenity": "post_box", "brand": "United States Postal Service", "brand:wikidata": "Q668687", "collection_times": "Mo-Sa 10:00", "name": "USPS COLLECTION BOX - BLUE BOX", "nsi_id": "unitedstatespostalservice-a77078", "operator": "United States Postal Service", "operator:short": "USPS", "operator:type": "public", "operator:wikidata": "Q668687", "ref": "6362200000"}, "type": "Feature"}
{"dataset_attributes": {"@spider": "usps_collection_boxes", "spider:collection_time": "2023-11-22T08:26:05.887177"}, "geometry": {"coordinates": [-90.848773, 37.786299], "type": "Point"}, "id": "IJVLvovzq83F9vg0VN33f8d_KMk=", "properties": {"@spider": "usps_collection_boxes", "addr:city": "BELGRADE", "addr:country": "US", "addr:full": "14135 STATE HIGHWAY C", "addr:postcode": "63622", "addr:state": "MO", "amenity": "post_box", "brand": "United States Postal Service", "brand:wikidata": "Q668687", "collection_times": "Mo-Fr 10:00; Sa 09:00", "name": "USPS COLLECTION BOX - PO LOBBY", "nsi_id": "unitedstatespostalservice-a77078", "operator": "United States Postal Service", "operator:short": "USPS", "operator:type": "public", "operator:wikidata": "Q668687", "ref": "6362200001"}, "type": "Feature"}
{"dataset_attributes": {"@spider": "usps_collection_boxes", "spider:collection_time": "2023-11-22T08:26:05.887177"}, "geometry": {"coordinates": [-90.624308, 37.768278], "type": "Point"}, "id": "-JyF1UEoAUr2jX5gqIEBFt8yEWM=", "properties": {"@spider": "usps_collection_boxes", "addr:city": "BISMARCK", "addr:country": "US", "addr:full": "911 WALNUT ST", "addr:postcode": "63624", "addr:state": "MO", "amenity": "post_box", "brand": "United States Postal Service", "brand:wikidata": "Q668687", "collection_times": "Mo-Sa 11:00", "name": "USPS COLLECTION BOX - BLUE BOX", "nsi_id": "unitedstatespostalservice-a77078", "operator": "United States Postal Service", "operator:short": "USPS", "operator:type": "public", "operator:wikidata": "Q668687", "ref": "6362400000"}, "type": "Feature"}
{"dataset_attributes": {"@spider": "usps_collection_boxes", "spider:collection_time": "2023-11-22T08:26:05.887177"}, "geometry": {"coordinates": [-90.624213, 37.768293], "type": "Point"}, "id": "xqzRI_lDrjOFzcTIwMj820d9BnQ=", "properties": {"@spider": "usps_collection_boxes", "addr:city": "BISMARCK", "addr:country": "US", "addr:full": "911 WALNUT ST", "addr:postcode": "63624", "addr:state": "MO", "amenity": "post_box", "brand": "United States Postal Service", "brand:wikidata": "Q668687", "collection_times": "Mo-Fr 11:00; Sa 09:30", "name": "USPS COLLECTION BOX - PO LOBBY", "nsi_id": "unitedstatespostalservice-a77078", "operator": "United States Postal Service", "operator:short": "USPS", "operator:type": "public", "operator:wikidata": "Q668687", "ref": "6362400003"}, "type": "Feature"}
{"dataset_attributes": {"@spider": "usps_collection_boxes", "spider:collection_time": "2023-11-22T08:26:05.887177"}, "geometry": {"coordinates": [-90.917807, 37.510752], "type": "Point"}, "id": "RHohgW6LgCAI0VjhXF-ZT7VUNao=", "properties": {"@spider": "usps_collection_boxes", "addr:city": "BLACK", "addr:country": "US", "addr:full": "24634 HIGHWAY 49", "addr:postcode": "63625", "addr:state": "MO", "amenity": "post_box", "brand": "United States Postal Service", "brand:wikidata": "Q668687", "collection_times": "Mo-Sa 10:30", "name": "USPS COLLECTION BOX - BLUE BOX", "nsi_id": "unitedstatespostalservice-a77078", "operator": "United States Postal Service", "operator:short": "USPS", "operator:type": "public", "operator:wikidata": "Q668687", "ref": "6362500000"}, "type": "Feature"}
{"dataset_attributes": {"@spider": "usps_collection_boxes", "spider:collection_time": "2023-11-22T08:26:05.887177"}, "geometry": {"coordinates": [-90.917807, 37.510752], "type": "Point"}, "id": "r-ztMbJ-wt0D_z-3twlSI-jwPnM=", "properties": {"@spider": "usps_collection_boxes", "addr:city": "BLACK", "addr:country": "US", "addr:full": "24634 HIGHWAY 49", "addr:postcode": "63625", "addr:state": "MO", "amenity": "post_box", "brand": "United States Postal Service", "brand:wikidata": "Q668687", "collection_times": "Mo-Sa 10:30", "name": "USPS COLLECTION BOX - PO LOBBY", "nsi_id": "unitedstatespostalservice-a77078", "operator": "United States Postal Service", "operator:short": "USPS", "operator:type": "public", "operator:wikidata": "Q668687", "ref": "6362500001"}, "type": "Feature"}
{"dataset_attributes": {"@spider": "usps_collection_boxes", "spider:collection_time": "2023-11-22T08:26:05.887177"}, "geometry": {"coordinates": [-90.217777, 38.008656], "type": "Point"}, "id": "--e0Aba8vpqmIxkoT5fyDbpzP1A=", "properties": {"@spider": "usps_collection_boxes", "addr:city": "BLOOMSDALE", "addr:country": "US", "addr:full": "54 MILL HILL RD", "addr:postcode": "63627", "addr:state": "MO", "amenity": "post_box", "brand": "United States Postal Service", "brand:wikidata": "Q668687", "collection_times": "Mo-Sa 11:15", "name": "USPS COLLECTION BOX - BLUE BOX", "nsi_id": "unitedstatespostalservice-a77078", "operator": "United States Postal Service", "operator:short": "USPS", "operator:type": "public", "operator:wikidata": "Q668687", "ref": "6362700000"}, "type": "Feature"}
{"dataset_attributes": {"@spider": "usps_collection_boxes", "spider:collection_time": "2023-11-22T08:26:05.887177"}, "geometry": {"coordinates": [-90.532181, 37.92372], "type": "Point"}, "id": "58Vwa1F3OEOOobqvNNdN2hAK9PQ=", "properties": {"@spider": "usps_collection_boxes", "addr:city": "BONNE TERRE", "addr:country": "US", "addr:full": "103 NE MAIN ST", "addr:postcode": "63628", "addr:state": "MO", "amenity": "post_box", "brand": "United States Postal Service", "brand:wikidata": "Q668687", "collection_times": "Mo-Sa 11:00", "name": "USPS COLLECTION BOX - BLUE BOX", "nsi_id": "unitedstatespostalservice-a77078", "operator": "United States Postal Service", "operator:short": "USPS", "operator:type": "public", "operator:wikidata": "Q668687", "ref": "6362800000"}, "type": "Feature"}
{"dataset_attributes": {"@spider": "usps_collection_boxes", "spider:collection_time": "2023-11-22T08:26:05.887177"}, "geometry": {"coordinates": [-90.532299, 37.92371], "type": "Point"}, "id": "8qHJF1XwIfsXLPywJfee2hmF4dU=", "properties": {"@spider": "usps_collection_boxes", "addr:city": "BONNE TERRE", "addr:country": "US", "addr:full": "103 NE MAIN ST", "addr:postcode": "63628", "addr:state": "MO", "amenity": "post_box", "brand": "United States Postal Service", "brand:wikidata": "Q668687", "collection_times": "Mo-Sa 11:00", "name": "USPS COLLECTION BOX - BLUE BOX", "nsi_id": "unitedstatespostalservice-a77078", "operator": "United States Postal Service", "operator:short": "USPS", "operator:type": "public", "operator:wikidata": "Q668687", "ref": "6362800001"}, "type": "Feature"}
{"dataset_attributes": {"@spider": "usps_collection_boxes", "spider:collection_time": "2023-11-22T08:26:05.887177"}, "geometry": {"coordinates": [-90.532299, 37.92371], "type": "Point"}, "id": "_kXyEE6kVU4okZ9AFgjt1wt-9i8=", "properties": {"@spider": "usps_collection_boxes", "addr:city": "BONNE TERRE", "addr:country": "US", "addr:full": "103 NE MAIN ST", "addr:postcode": "63628", "addr:state": "MO", "amenity": "post_box", "brand": "United States Postal Service", "brand:wikidata": "Q668687", "collection_times": "Mo-Sa 11:00", "name": "USPS COLLECTION BOX - PO LOBBY", "nsi_id": "unitedstatespostalservice-a77078", "operator": "United States Postal Service", "operator:short": "USPS", "operator:type": "public", "operator:wikidata": "Q668687", "ref": "6362800013"}, "type": "Feature"}
{"dataset_attributes": {"@spider": "usps_collection_boxes", "spider:collection_time": "2023-11-22T08:26:05.887177"}, "geometry": {"coordinates": [-91.208726, 37.454046], "type": "Point"}, "id": "GBfPZ8pUTFR0x74_etktcOfA3ug=", "properties": {"@spider": "usps_collection_boxes", "addr:city": "BUNKER", "addr:country": "US", "addr:full": "400 OAK ST", "addr:postcode": "63629", "addr:state": "MO", "amenity": "post_box", "brand": "United States Postal Service", "brand:wikidata": "Q668687", "collection_times": "Mo-Sa 09:00", "name": "USPS COLLECTION BOX - BLUE BOX", "nsi_id": "unitedstatespostalservice-a77078", "operator": "United States Postal Service", "operator:short": "USPS", "operator:type": "public", "operator:wikidata": "Q668687", "ref": "6362900000"}, "type": "Feature"}
{"dataset_attributes": {"@spider": "usps_collection_boxes", "spider:collection_time": "2023-11-22T08:26:05.887177"}, "geometry": {"coordinates": [-91.208688, 37.454134], "type": "Point"}, "id": "8T151gnskwlbTD6StF8rZ2ZI2ek=", "properties": {"@spider": "usps_collection_boxes", "addr:city": "BUNKER", "addr:country": "US", "addr:full": "400 OAK ST", "addr:postcode": "63629", "addr:state": "MO", "amenity": "post_box", "brand": "United States Postal Service", "brand:wikidata": "Q668687", "collection_times": "Mo-Sa 09:00", "name": "USPS COLLECTION BOX - PO LOBBY", "nsi_id": "unitedstatespostalservice-a77078", "operator": "United States Postal Service", "operator:short": "USPS", "operator:type": "public", "operator:wikidata": "Q668687", "ref": "6362900001"}, "type": "Feature"}
{"dataset_attributes": {"@spider": "usps_collection_boxes", "spider:collection_time": "2023-11-22T08:26:05.887177"}, "geometry": {"coordinates": [-90.708015, 37.992788], "type": "Point"}, "id": "-diB0NGhg4EciOefVPDo0oWJTTM=", "properties": {"@spider": "usps_collection_boxes", "addr:city": "CADET", "addr:country": "US", "addr:full": "15026 E STATE HIGHWAY 47", "addr:postcode": "63630", "addr:state": "MO", "amenity": "post_box", "brand": "United States Postal Service", "brand:wikidata": "Q668687", "collection_times": "Mo-Sa 10:15", "name": "USPS COLLECTION BOX - BLUE BOX", "nsi_id": "unitedstatespostalservice-a77078", "operator": "United States Postal Service", "operator:short": "USPS", "operator:type": "public", "operator:wikidata": "Q668687", "ref": "6363000000"}, "type": "Feature"}
{"dataset_attributes": {"@spider": "usps_collection_boxes", "spider:collection_time": "2023-11-22T08:26:05.887177"}, "geometry": {"coordinates": [-90.707971, 37.992859], "type": "Point"}, "id": "ym_XhZosJOGFG37_9fwiEniye7g=", "properties": {"@spider": "usps_collection_boxes", "addr:city": "CADET", "addr:country": "US", "addr:full": "15026 E STATE HIGHWAY 47", "addr:postcode": "63630", "addr:state": "MO", "amenity": "post_box", "brand": "United States Postal Service", "brand:wikidata": "Q668687", "collection_times": "Mo-Fr 10:15; Sa 10:00", "name": "USPS COLLECTION BOX - PO LOBBY", "nsi_id": "unitedstatespostalservice-a77078", "operator": "United States Postal Service", "operator:short": "USPS", "operator:type": "public", "operator:wikidata": "Q668687", "ref": "6363000001"}, "type": "Feature"}
{"dataset_attributes": {"@spider": "usps_collection_boxes", "spider:collection_time": "2023-11-22T08:26:05.887177"}, "geometry": {"coordinates": [-90.7441683695, 37.766657151], "type": "Point"}, "id": "SPio9JROhHIeD2hADHyBvL1oObw=", "properties": {"@spider": "usps_collection_boxes", "addr:city": "CALEDONIA", "addr:country": "US", "addr:full": "3 VALLEY CTR", "addr:postcode": "63631", "addr:state": "MO", "amenity": "post_box", "brand": "United States Postal Service", "brand:wikidata": "Q668687", "collection_times": "Mo-Sa 10:00", "name": "USPS COLLECTION BOX - BLUE BOX", "nsi_id": "unitedstatespostalservice-a77078", "operator": "United States Postal Service", "operator:short": "USPS", "operator:type": "public", "operator:wikidata": "Q668687", "ref": "6363100000"}, "type": "Feature"}
{"dataset_attributes": {"@spider": "usps_collection_boxes", "spider:collection_time": "2023-11-22T08:26:05.887177"}, "geometry": {"coordinates": [-90.957928, 37.432962], "type": "Point"}, "id": "t9TEPugiYbWR0sIJl7JdGPnFaLg=", "properties": {"@spider": "usps_collection_boxes", "addr:city": "CENTERVILLE", "addr:country": "US", "addr:full": "2312 GREEN ST", "addr:postcode": "63633", "addr:state": "MO", "amenity": "post_box", "brand": "United States Postal Service", "brand:wikidata": "Q668687", "collection_times": "Mo-Sa 10:00", "name": "USPS COLLECTION BOX - BLUE BOX", "nsi_id": "unitedstatespostalservice-a77078", "operator": "United States Postal Service", "operator:short": "USPS", "operator:type": "public", "operator:wikidata": "Q668687", "ref": "6363300000"}, "type": "Feature"}
{"dataset_attributes": {"@spider": "usps_collection_boxes", "spider:collection_time": "2023-11-22T08:26:05.887177"}, "geometry": {"coordinates": [-90.957928, 37.432962], "type": "Point"}, "id": "-PaRyeEqbhuUMC3fC2fdVgO23Wk=", "properties": {"@spider": "usps_collection_boxes", "addr:city": "CENTERVILLE", "addr:country": "US", "addr:full": "2312 GREEN ST", "addr:postcode": "63633", "addr:state": "MO", "amenity": "post_box", "brand": "United States Postal Service", "brand:wikidata": "Q668687", "collection_times": "Mo-Sa 10:00", "name": "USPS COLLECTION BOX - PO LOBBY", "nsi_id": "unitedstatespostalservice-a77078", "operator": "United States Postal Service", "operator:short": "USPS", "operator:type": "public", "operator:wikidata": "Q668687", "ref": "6363300001"}, "type": "Feature"}
{"dataset_attributes": {"@spider": "usps_collection_boxes", "spider:collection_time": "2023-11-22T08:26:05.887177"}, "geometry": {"coordinates": [-90.643821, 37.278432], "type": "Point"}, "id": "1b2KnKOuKDTDfUARY8ZUTvfltIU=", "properties": {"@spider": "usps_collection_boxes", "addr:city": "DES ARC", "addr:country": "US", "addr:full": "226 N FRONT ST", "addr:postcode": "63636", "addr:state": "MO", "amenity": "post_box", "brand": "United States Postal Service", "brand:wikidata": "Q668687", "collection_times": "Mo-Sa 09:00", "name": "USPS COLLECTION BOX - BLUE BOX", "nsi_id": "unitedstatespostalservice-a77078", "operator": "United States Postal Service", "operator:short": "USPS", "operator:type": "public", "operator:wikidata": "Q668687", "ref": "6363600000"}, "type": "Feature"}
{"dataset_attributes": {"@spider": "usps_collection_boxes", "spider:collection_time": "2023-11-22T08:26:05.887177"}, "geometry": {"coordinates": [-90.643821, 37.278432], "type": "Point"}, "id": "XdORtDla3Efp7QylOVfbIR8ehXU=", "properties": {"@spider": "usps_collection_boxes", "addr:city": "DES ARC", "addr:country": "US", "addr:full": "226 N FRONT ST", "addr:postcode": "63636", "addr:state": "MO", "amenity": "post_box", "brand": "United States Postal Service", "brand:wikidata": "Q668687", "collection_times": "Mo-Fr 09:00", "name": "USPS COLLECTION BOX - PO LOBBY", "nsi_id": "unitedstatespostalservice-a77078", "operator": "United States Postal Service", "operator:short": "USPS", "operator:type": "public", "operator:wikidata": "Q668687", "ref": "6363600001"}, "type": "Feature"}
{"dataset_attributes": {"@spider": "usps_collection_boxes", "spider:collection_time": "2023-11-22T08:26:05.887177"}, "geometry": {"coordinates": [-90.4912585, 37.748845], "type": "Point"}, "id": "QA8bAUIkbOaGljoz29gbd96wlzE=", "properties": {"@spider": "usps_collection_boxes", "addr:city": "DOE RUN", "addr:country": "US", "addr:full": "3229 HIGHWAY 221", "addr:postcode": "63637", "addr:state": "MO", "amenity": "post_box", "brand": "United States Postal Service", "brand:wikidata": "Q668687", "collection_times": "Mo-Sa 11:00", "name": "USPS COLLECTION BOX - BLUE BOX", "nsi_id": "unitedstatespostalservice-a77078", "operator": "United States Postal Service", "operator:short": "USPS", "operator:type": "public", "operator:wikidata": "Q668687", "ref": "6363700000"}, "type": "Feature"}
{"dataset_attributes": {"@spider": "usps_collection_boxes", "spider:collection_time": "2023-11-22T08:26:05.887177"}, "geometry": {"coordinates": [-90.968768, 37.241759], "type": "Point"}, "id": "h92adxEKCiukzJb03_88Laka47w=", "properties": {"@spider": "usps_collection_boxes", "addr:city": "ELLINGTON", "addr:country": "US", "addr:full": "301 2ND ST", "addr:postcode": "63638", "addr:state": "MO", "amenity": "post_box", "brand": "United States Postal Service", "brand:wikidata": "Q668687", "collection_times": "Mo-Sa 09:30", "name": "USPS COLLECTION BOX - BLUE BOX", "nsi_id": "unitedstatespostalservice-a77078", "operator": "United States Postal Service", "operator:short": "USPS", "operator:type": "public", "operator:wikidata": "Q668687", "ref": "6363800000"}, "type": "Feature"}
{"dataset_attributes": {"@spider": "usps_collection_boxes", "spider:collection_time": "2023-11-22T08:26:05.887177"}, "geometry": {"coordinates": [-90.968768, 37.241759], "type": "Point"}, "id": "2DE5DObFQ4OtMbtS9SrB2zQVizk=", "properties": {"@spider": "usps_collection_boxes", "addr:city": "ELLINGTON", "addr:country": "US", "addr:full": "301 2ND ST", "addr:postcode": "63638", "addr:state": "MO", "amenity": "post_box", "brand": "United States Postal Service", "brand:wikidata": "Q668687", "collection_times": "Mo-Sa 09:30", "name": "USPS COLLECTION BOX - PO LOBBY", "nsi_id": "unitedstatespostalservice-a77078", "operator": "United States Postal Service", "operator:short": "USPS", "operator:type": "public", "operator:wikidata": "Q668687", "ref": "6363800002"}, "type": "Feature"}
{"dataset_attributes": {"@spider": "usps_collection_boxes", "spider:collection_time": "2023-11-22T08:26:05.887177"}, "geometry": {"coordinates": [-90.419796, 37.780342], "type": "Point"}, "id": "J-yuMgkrWCysKdiWEnUnAUui_38=", "properties": {"@spider": "usps_collection_boxes", "addr:city": "FARMINGTON", "addr:country": "US", "addr:full": "102 E COLUMBIA ST", "addr:postcode": "63640", "addr:state": "MO", "amenity": "post_box", "brand": "United States Postal Service", "brand:wikidata": "Q668687", "collection_times": "Mo-Sa 11:30", "name": "USPS COLLECTION BOX - BLUE BOX", "nsi_id": "unitedstatespostalservice-a77078", "operator": "United States Postal Service", "operator:short": "USPS", "operator:type": "public", "operator:wikidata": "Q668687", "ref": "6364000001"}, "type": "Feature"}
{"dataset_attributes": {"@spider": "usps_collection_boxes", "spider:collection_time": "2023-11-22T08:26:05.887177"}, "geometry": {"coordinates": [-90.4209666, 37.788613], "type": "Point"}, "id": "HQ7bOgKeWtweShvN7eWgPp58o84=", "properties": {"@spider": "usps_collection_boxes", "addr:city": "FARMINGTON", "addr:country": "US", "addr:full": "125 W KARSCH BLVD", "addr:postcode": "63640", "addr:state": "MO", "amenity": "post_box", "brand": "United States Postal Service", "brand:wikidata": "Q668687", "collection_times": "Mo-Sa 10:30", "name": "USPS COLLECTION BOX - BLUE BOX", "nsi_id": "unitedstatespostalservice-a77078", "operator": "United States Postal Service", "operator:short": "USPS", "operator:type": "public", "operator:wikidata": "Q668687", "ref": "6364000012"}, "type": "Feature"}
{"dataset_attributes": {"@spider": "usps_collection_boxes", "spider:collection_time": "2023-11-22T08:26:05.887177"}, "geometry": {"coordinates": [-90.43165553, 37.7885458165], "type": "Point"}, "id": "3RtUbYcHBS7hGwXV9cT_UZQrLc0=", "properties": {"@spider": "usps_collection_boxes", "addr:city": "FARMINGTON", "addr:country": "US", "addr:full": "614 WALMART DR,", "addr:postcode": "63640", "addr:state": "MO", "amenity": "post_box", "brand": "United States Postal Service", "brand:wikidata": "Q668687", "collection_times": "Mo-Sa 10:30", "name": "USPS COLLECTION BOX - BLUE BOX", "nsi_id": "unitedstatespostalservice-a77078", "operator": "United States Postal Service", "operator:short": "USPS", "operator:type": "public", "operator:wikidata": "Q668687", "ref": "6364000013"}, "type": "Feature"}
{"dataset_attributes": {"@spider": "usps_collection_boxes", "spider:collection_time": "2023-11-22T08:26:05.887177"}, "geometry": {"coordinates": [-90.4383389, 37.789582], "type": "Point"}, "id": "7D5wBRJJQ2tL2h9dpGI-K7knF-Y=", "properties": {"@spider": "usps_collection_boxes", "addr:city": "FARMINGTON", "addr:country": "US", "addr:full": "752 MAPLE VALLEY DR", "addr:postcode": "63640", "addr:state": "MO", "amenity": "post_box", "brand": "United States Postal Service", "brand:wikidata": "Q668687", "collection_times": "Mo-Sa 09:30", "name": "USPS COLLECTION BOX - BLUE BOX", "nsi_id": "unitedstatespostalservice-a77078", "operator": "United States Postal Service", "operator:short": "USPS", "operator:type": "public", "operator:wikidata": "Q668687", "ref": "6364000014"}, "type": "Feature"}
{"dataset_attributes": {"@spider": "usps_collection_boxes", "spider:collection_time": "2023-11-22T08:26:05.887177"}, "geometry": {"coordinates": [-90.4199, 37.780378], "type": "Point"}, "id": "Sa4Wn0UNzgex6Ake3PFLk9XuLQg=", "properties": {"@spider": "usps_collection_boxes", "addr:city": "FARMINGTON", "addr:country": "US", "addr:full": "102 E COLUMBIA ST", "addr:postcode": "63640", "addr:state": "MO", "amenity": "post_box", "brand": "United States Postal Service", "brand:wikidata": "Q668687", "collection_times": "Mo-Sa 11:30", "name": "USPS COLLECTION BOX - PO LOBBY", "nsi_id": "unitedstatespostalservice-a77078", "operator": "United States Postal Service", "operator:short": "USPS", "operator:type": "public", "operator:wikidata": "Q668687", "ref": "6364000026"}, "type": "Feature"}
{"dataset_attributes": {"@spider": "usps_collection_boxes", "spider:collection_time": "2023-11-22T08:26:05.887177"}, "geometry": {"coordinates": [-90.294495, 37.558523], "type": "Point"}, "id": "zxy0y7jEhwW5TfFu_S4Eoaycrpo=", "properties": {"@spider": "usps_collection_boxes", "addr:city": "FREDERICKTOWN", "addr:country": "US", "addr:full": "155 S MAIN ST", "addr:postcode": "63645", "addr:state": "MO", "amenity": "post_box", "brand": "United States Postal Service", "brand:wikidata": "Q668687", "collection_times": "Mo-Sa 12:15", "name": "USPS COLLECTION BOX - BLUE BOX", "note": "ON 12/24 AND 12/31, THIS BOX MAY BE COLLECTED AS EARLY AS 12 NOON.", "nsi_id": "unitedstatespostalservice-a77078", "operator": "United States Postal Service", "operator:short": "USPS", "operator:type": "public", "operator:wikidata": "Q668687", "ref": "6364500000"}, "type": "Feature"}
{"dataset_attributes": {"@spider": "usps_collection_boxes", "spider:collection_time": "2023-11-22T08:26:05.887177"}, "geometry": {"coordinates": [-90.294495, 37.558523], "type": "Point"}, "id": "uM95RH6QQM6_YkVUbuVKsogA6NA=", "properties": {"@spider": "usps_collection_boxes", "addr:city": "FREDERICKTOWN", "addr:country": "US", "addr:full": "155 S MAIN ST", "addr:postcode": "63645", "addr:state": "MO", "amenity": "post_box", "brand": "United States Postal Service", "brand:wikidata": "Q668687", "collection_times": "Mo-Sa 12:15", "name": "USPS COLLECTION BOX - PO LOBBY", "note": "ON 12/24 AND 12/31, THIS BOX MAY BE COLLECTED AS EARLY AS 12 NOON.", "nsi_id": "unitedstatespostalservice-a77078", "operator": "United States Postal Service", "operator:short": "USPS", "operator:type": "public", "operator:wikidata": "Q668687", "ref": "6364500014"}, "type": "Feature"}
{"dataset_attributes": {"@spider": "usps_collection_boxes", "spider:collection_time": "2023-11-22T08:26:05.887177"}, "geometry": {"coordinates": [-90.677272, 37.833869], "type": "Point"}, "id": "Bc-2XPsbxLPhAMy1vptjznMICDE=", "properties": {"@spider": "usps_collection_boxes", "addr:city": "IRONDALE", "addr:country": "US", "addr:full": "111 S HICKORY ST", "addr:postcode": "63648", "addr:state": "MO", "amenity": "post_box", "brand": "United States Postal Service", "brand:wikidata": "Q668687", "collection_times": "Mo-Sa 09:45", "name": "USPS COLLECTION BOX - BLUE BOX", "nsi_id": "unitedstatespostalservice-a77078", "operator": "United States Postal Service", "operator:short": "USPS", "operator:type": "public", "operator:wikidata": "Q668687", "ref": "6364800000"}, "type": "Feature"}
{"dataset_attributes": {"@spider": "usps_collection_boxes", "spider:collection_time": "2023-11-22T08:26:05.887177"}, "geometry": {"coordinates": [-90.677257, 37.833945], "type": "Point"}, "id": "1SjIasy5rzUSD8NY76EUlzPxsvE=", "properties": {"@spider": "usps_collection_boxes", "addr:city": "IRONDALE", "addr:country": "US", "addr:full": "111 S HICKORY ST", "addr:postcode": "63648", "addr:state": "MO", "amenity": "post_box", "brand": "United States Postal Service", "brand:wikidata": "Q668687", "collection_times": "Mo-Sa 09:45", "name": "USPS COLLECTION BOX - PO LOBBY", "nsi_id": "unitedstatespostalservice-a77078", "operator": "United States Postal Service", "operator:short": "USPS", "operator:type": "public", "operator:wikidata": "Q668687", "ref": "6364800001"}, "type": "Feature"}
{"dataset_attributes": {"@spider": "usps_collection_boxes", "spider:collection_time": "2023-11-22T08:26:05.887177"}, "geometry": {"coordinates": [-90.627787, 37.597377], "type": "Point"}, "id": "sT3tgC0N2AWILC_b0msAm0vkXrs=", "properties": {"@spider": "usps_collection_boxes", "addr:city": "IRONTON", "addr:country": "US", "addr:full": "118 W RUSSELL ST", "addr:postcode": "63650", "addr:state": "MO", "amenity": "post_box", "brand": "United States Postal Service", "brand:wikidata": "Q668687", "collection_times": "Mo-Fr 11:15; Sa 10:00", "name": "USPS COLLECTION BOX - PO LOBBY", "nsi_id": "unitedstatespostalservice-a77078", "operator": "United States Postal Service", "operator:short": "USPS", "operator:type": "public", "operator:wikidata": "Q668687", "ref": "6365000003"}, "type": "Feature"}
{"dataset_attributes": {"@spider": "usps_collection_boxes", "spider:collection_time": "2023-11-22T08:26:05.887177"}, "geometry": {"coordinates": [-90.627718, 37.597408], "type": "Point"}, "id": "lnqCimtvKoUWr2faONeh2xMPNL4=", "properties": {"@spider": "usps_collection_boxes", "addr:city": "IRONTON", "addr:country": "US", "addr:full": "118 W RUSSELL ST", "addr:postcode": "63650", "addr:state": "MO", "amenity": "post_box", "brand": "United States Postal Service", "brand:wikidata": "Q668687", "collection_times": "Mo-Fr 11:15; Sa 10:00", "name": "USPS COLLECTION BOX - BLUE BOX", "nsi_id": "unitedstatespostalservice-a77078", "operator": "United States Postal Service", "operator:short": "USPS", "operator:type": "public", "operator:wikidata": "Q668687", "ref": "6365000005"}, "type": "Feature"}
{"dataset_attributes": {"@spider": "usps_collection_boxes", "spider:collection_time": "2023-11-22T08:26:05.887177"}, "geometry": {"coordinates": [-90.368, 37.676113], "type": "Point"}, "id": "e9wpmDGuqafUjsySBkM_jK2Jh3A=", "properties": {"@spider": "usps_collection_boxes", "addr:city": "KNOB LICK", "addr:country": "US", "addr:full": "5961 STATE ROUTE DD", "addr:postcode": "63651", "addr:state": "MO", "amenity": "post_box", "brand": "United States Postal Service", "brand:wikidata": "Q668687", "collection_times": "Mo-Sa 10:00", "name": "USPS COLLECTION BOX - BLUE BOX", "nsi_id": "unitedstatespostalservice-a77078", "operator": "United States Postal Service", "operator:short": "USPS", "operator:type": "public", "operator:wikidata": "Q668687", "ref": "6365100000"}, "type": "Feature"}
{"dataset_attributes": {"@spider": "usps_collection_boxes", "spider:collection_time": "2023-11-22T08:26:05.887177"}, "geometry": {"coordinates": [-90.368, 37.676113], "type": "Point"}, "id": "hkbeiuK9dLTyYtm9LjOj7tFF1BA=", "properties": {"@spider": "usps_collection_boxes", "addr:city": "KNOB LICK", "addr:country": "US", "addr:full": "5961 STATE ROUTE DD", "addr:postcode": "63651", "addr:state": "MO", "amenity": "post_box", "brand": "United States Postal Service", "brand:wikidata": "Q668687", "collection_times": "Mo-Sa 10:00", "name": "USPS COLLECTION BOX - PO LOBBY", "nsi_id": "unitedstatespostalservice-a77078", "operator": "United States Postal Service", "operator:short": "USPS", "operator:type": "public", "operator:wikidata": "Q668687", "ref": "6365100001"}, "type": "Feature"}
{"dataset_attributes": {"@spider": "usps_collection_boxes", "spider:collection_time": "2023-11-22T08:26:05.887177"}, "geometry": {"coordinates": [-90.36856, 37.67591], "type": "Point"}, "id": "K894JJrG13XfBqi23gnogLS44-k=", "properties": {"@spider": "usps_collection_boxes", "addr:city": "KNOB LICK", "addr:country": "US", "addr:full": "5961 STATE ROUTE DD", "addr:postcode": "63651", "addr:state": "MO", "amenity": "post_box", "brand": "United States Postal Service", "brand:wikidata": "Q668687", "collection_times": "Mo-Sa 10:00", "name": "USPS COLLECTION BOX - PO LOBBY", "nsi_id": "unitedstatespostalservice-a77078", "operator": "United States Postal Service", "operator:short": "USPS", "operator:type": "public", "operator:wikidata": "Q668687", "ref": "6365100002"}, "type": "Feature"}
{"dataset_attributes": {"@spider": "usps_collection_boxes", "spider:collection_time": "2023-11-22T08:26:05.887177"}, "geometry": {"coordinates": [-90.93909, 37.460321], "type": "Point"}, "id": "-CCaxHZQugBSrHymkenXHm3nZeY=", "properties": {"@spider": "usps_collection_boxes", "addr:city": "LESTERVILLE", "addr:country": "US", "addr:full": "33010 HIGHWAY 21", "addr:postcode": "63654", "addr:state": "MO", "amenity": "post_box", "brand": "United States Postal Service", "brand:wikidata": "Q668687", "collection_times": "Mo-Sa 10:45", "name": "USPS COLLECTION BOX - BLUE BOX", "nsi_id": "unitedstatespostalservice-a77078", "operator": "United States Postal Service", "operator:short": "USPS", "operator:type": "public", "operator:wikidata": "Q668687", "ref": "6365400000"}, "type": "Feature"}
{"dataset_attributes": {"@spider": "usps_collection_boxes", "spider:collection_time": "2023-11-22T08:26:05.887177"}, "geometry": {"coordinates": [-90.93909, 37.460321], "type": "Point"}, "id": "sb-ZCn1tiB1kSU3y4vg-VYHYMgk=", "properties": {"@spider": "usps_collection_boxes", "addr:city": "LESTERVILLE", "addr:country": "US", "addr:full": "33010 HIGHWAY 21", "addr:postcode": "63654", "addr:state": "MO", "amenity": "post_box", "brand": "United States Postal Service", "brand:wikidata": "Q668687", "collection_times": "Mo-Fr 10:45; Sa 09:00", "name": "USPS COLLECTION BOX - PO LOBBY", "nsi_id": "unitedstatespostalservice-a77078", "operator": "United States Postal Service", "operator:short": "USPS", "operator:type": "public", "operator:wikidata": "Q668687", "ref": "6365400002"}, "type": "Feature"}
{"dataset_attributes": {"@spider": "usps_collection_boxes", "spider:collection_time": "2023-11-22T08:26:05.887177"}, "geometry": {"coordinates": [-90.168247, 37.429173], "type": "Point"}, "id": "Nb8nVbi1OdpDM4olWyc-JiXIRQA=", "properties": {"@spider": "usps_collection_boxes", "addr:city": "MARQUAND", "addr:country": "US", "addr:full": "105 WHITENER ST", "addr:postcode": "63655", "addr:state": "MO", "amenity": "post_box", "brand": "United States Postal Service", "brand:wikidata": "Q668687", "collection_times": "Mo-Sa 11:15", "name": "USPS COLLECTION BOX - BLUE BOX", "nsi_id": "unitedstatespostalservice-a77078", "operator": "United States Postal Service", "operator:short": "USPS", "operator:type": "public", "operator:wikidata": "Q668687", "ref": "6365500000"}, "type": "Feature"}
{"dataset_attributes": {"@spider": "usps_collection_boxes", "spider:collection_time": "2023-11-22T08:26:05.887177"}, "geometry": {"coordinates": [-90.168225, 37.429088], "type": "Point"}, "id": "wsxfkjLjBFXASh-7mNOQV4YJuhY=", "properties": {"@spider": "usps_collection_boxes", "addr:city": "MARQUAND", "addr:country": "US", "addr:full": "105 WHITENER ST", "addr:postcode": "63655", "addr:state": "MO", "amenity": "post_box", "brand": "United States Postal Service", "brand:wikidata": "Q668687", "collection_times": "Mo-Fr 11:15; Sa 09:30", "name": "USPS COLLECTION BOX - PO LOBBY", "nsi_id": "unitedstatespostalservice-a77078", "operator": "United States Postal Service", "operator:short": "USPS", "operator:type": "public", "operator:wikidata": "Q668687", "ref": "6365500001"}, "type": "Feature"}
{"dataset_attributes": {"@spider": "usps_collection_boxes", "spider:collection_time": "2023-11-22T08:26:05.887177"}, "geometry": {"coordinates": [-90.725369, 37.943704], "type": "Point"}, "id": "mH7B1LAYbXh9RHQpwHZAf_g2zrY=", "properties": {"@spider": "usps_collection_boxes", "addr:city": "MINERAL POINT", "addr:country": "US", "addr:full": "102 5TH ST", "addr:postcode": "63660", "addr:state": "MO", "amenity": "post_box", "brand": "United States Postal Service", "brand:wikidata": "Q668687", "collection_times": "Mo-Sa 10:00", "name": "USPS COLLECTION BOX - BLUE BOX", "nsi_id": "unitedstatespostalservice-a77078", "operator": "United States Postal Service", "operator:short": "USPS", "operator:type": "public", "operator:wikidata": "Q668687", "ref": "6366000000"}, "type": "Feature"}
{"dataset_attributes": {"@spider": "usps_collection_boxes", "spider:collection_time": "2023-11-22T08:26:05.887177"}, "geometry": {"coordinates": [-90.725483, 37.943707], "type": "Point"}, "id": "eak0pMFs4iw3H-w7MKRXMoYK4Ys=", "properties": {"@spider": "usps_collection_boxes", "addr:city": "MINERAL POINT", "addr:country": "US", "addr:full": "102 5TH ST", "addr:postcode": "63660", "addr:state": "MO", "amenity": "post_box", "brand": "United States Postal Service", "brand:wikidata": "Q668687", "collection_times": "Mo-Fr 10:00; Sa 08:45", "name": "USPS COLLECTION BOX - PO LOBBY", "nsi_id": "unitedstatespostalservice-a77078", "operator": "United States Postal Service", "operator:short": "USPS", "operator:type": "public", "operator:wikidata": "Q668687", "ref": "6366000001"}, "type": "Feature"}
{"dataset_attributes": {"@spider": "usps_collection_boxes", "spider:collection_time": "2023-11-22T08:26:05.887177"}, "geometry": {"coordinates": [-90.02653, 37.35879], "type": "Point"}, "id": "4HFMYIXcZsqRCmdFDwgngKNqrWo=", "properties": {"@spider": "usps_collection_boxes", "addr:city": "PATTON", "addr:country": "US", "addr:full": "1000 STATE ROUTE 51", "addr:postcode": "63662", "addr:state": "MO", "amenity": "post_box", "brand": "United States Postal Service", "brand:wikidata": "Q668687", "collection_times": "Mo-Sa 11:15", "name": "USPS COLLECTION BOX - BLUE BOX", "nsi_id": "unitedstatespostalservice-a77078", "operator": "United States Postal Service", "operator:short": "USPS", "operator:type": "public", "operator:wikidata": "Q668687", "ref": "6366200000"}, "type": "Feature"}
{"dataset_attributes": {"@spider": "usps_collection_boxes", "spider:collection_time": "2023-11-22T08:26:05.887177"}, "geometry": {"coordinates": [-90.02653, 37.35879], "type": "Point"}, "id": "P-ktMCPN5Hq7lWBzDCmxfQDQoh0=", "properties": {"@spider": "usps_collection_boxes", "addr:city": "PATTON", "addr:country": "US", "addr:full": "1000 STATE ROUTE 51", "addr:postcode": "63662", "addr:state": "MO", "amenity": "post_box", "brand": "United States Postal Service", "brand:wikidata": "Q668687", "collection_times": "Mo-Fr 11:15; Sa 09:15", "name": "USPS COLLECTION BOX - PO LOBBY", "nsi_id": "unitedstatespostalservice-a77078", "operator": "United States Postal Service", "operator:short": "USPS", "operator:type": "public", "operator:wikidata": "Q668687", "ref": "6366200001"}, "type": "Feature"}
{"dataset_attributes": {"@spider": "usps_collection_boxes", "spider:collection_time": "2023-11-22T08:26:05.887177"}, "geometry": {"coordinates": [-90.641775, 37.620678], "type": "Point"}, "id": "n7QPXRta9YpgFHdkgdW1UazXhtQ=", "properties": {"@spider": "usps_collection_boxes", "addr:city": "PILOT KNOB", "addr:country": "US", "addr:full": "201 W MAPLE ST", "addr:postcode": "63663", "addr:state": "MO", "amenity": "post_box", "brand": "United States Postal Service", "brand:wikidata": "Q668687", "collection_times": "Mo-Fr 11:30; Sa 08:45", "name": "USPS COLLECTION BOX - BLUE BOX", "nsi_id": "unitedstatespostalservice-a77078", "operator": "United States Postal Service", "operator:short": "USPS", "operator:type": "public", "operator:wikidata": "Q668687", "ref": "6366300000"}, "type": "Feature"}
{"dataset_attributes": {"@spider": "usps_collection_boxes", "spider:collection_time": "2023-11-22T08:26:05.887177"}, "geometry": {"coordinates": [-90.641677, 37.620731], "type": "Point"}, "id": "8-mxYyXXd1QdXXHoiERqHn-wQMM=", "properties": {"@spider": "usps_collection_boxes", "addr:city": "PILOT KNOB", "addr:country": "US", "addr:full": "201 W MAPLE ST", "addr:postcode": "63663", "addr:state": "MO", "amenity": "post_box", "brand": "United States Postal Service", "brand:wikidata": "Q668687", "collection_times": "Mo-Fr 11:30; Sa 08:45", "name": "USPS COLLECTION BOX - PO LOBBY", "nsi_id": "unitedstatespostalservice-a77078", "operator": "United States Postal Service", "operator:short": "USPS", "operator:type": "public", "operator:wikidata": "Q668687", "ref": "6366300001"}, "type": "Feature"}
{"dataset_attributes": {"@spider": "usps_collection_boxes", "spider:collection_time": "2023-11-22T08:26:05.887177"}, "geometry": {"coordinates": [-90.7855203465, 37.9383946451], "type": "Point"}, "id": "zlrexuCfNpxWIN7jR2D6I3g9TkM=", "properties": {"@spider": "usps_collection_boxes", "addr:city": "POTOSI", "addr:country": "US", "addr:full": "103 LAUREL ST", "addr:postcode": "63664", "addr:state": "MO", "amenity": "post_box", "brand": "United States Postal Service", "brand:wikidata": "Q668687", "collection_times": "Mo-Sa 10:15", "name": "USPS COLLECTION BOX - BLUE BOX", "nsi_id": "unitedstatespostalservice-a77078", "operator": "United States Postal Service", "operator:short": "USPS", "operator:type": "public", "operator:wikidata": "Q668687", "ref": "6366400004"}, "type": "Feature"}
{"dataset_attributes": {"@spider": "usps_collection_boxes", "spider:collection_time": "2023-11-22T08:26:05.887177"}, "geometry": {"coordinates": [-90.785533, 37.938495], "type": "Point"}, "id": "pYTWIsfhwb_GMbzv5yD3sswds9k=", "properties": {"@spider": "usps_collection_boxes", "addr:city": "POTOSI", "addr:country": "US", "addr:full": "103 LAUREL ST", "addr:postcode": "63664", "addr:state": "MO", "amenity": "post_box", "brand": "United States Postal Service", "brand:wikidata": "Q668687", "collection_times": "Mo-Sa 10:15", "name": "USPS COLLECTION BOX - PO LOBBY", "nsi_id": "unitedstatespostalservice-a77078", "operator": "United States Postal Service", "operator:short": "USPS", "operator:type": "public", "operator:wikidata": "Q668687", "ref": "6366400009"}, "type": "Feature"}
{"dataset_attributes": {"@spider": "usps_collection_boxes", "spider:collection_time": "2023-11-22T08:26:05.887177"}, "geometry": {"coordinates": [-90.7855203465, 37.9383946451], "type": "Point"}, "id": "fjG4raIS2f5oMESTznGfdYC-HgY=", "properties": {"@spider": "usps_collection_boxes", "addr:city": "POTOSI", "addr:country": "US", "addr:full": "103 LAUREL ST", "addr:postcode": "63664", "addr:state": "MO", "amenity": "post_box", "brand": "United States Postal Service", "brand:wikidata": "Q668687", "collection_times": "Mo-Fr 16:30; Sa 10:30", "name": "USPS COLLECTION BOX - PO LOBBY", "note": "ON 12/24 AND 12/31, THIS BOX MAY BE COLLECTED AS EARLY AS 12 NOON.", "nsi_id": "unitedstatespostalservice-a77078", "operator": "United States Postal Service", "operator:short": "USPS", "operator:type": "public", "operator:wikidata": "Q668687", "ref": "6366400017"}, "type": "Feature"}
{"dataset_attributes": {"@spider": "usps_collection_boxes", "spider:collection_time": "2023-11-22T08:26:05.887177"}, "geometry": {"coordinates": [-90.900168, 37.32148], "type": "Point"}, "id": "oQjv-hk-HleLMpLSHSStx2_2zv4=", "properties": {"@spider": "usps_collection_boxes", "addr:city": "REDFORD", "addr:country": "US", "addr:full": "150 REDFORD LOOP", "addr:postcode": "63665", "addr:state": "MO", "amenity": "post_box", "brand": "United States Postal Service", "brand:wikidata": "Q668687", "collection_times": "Mo-Sa 09:30", "name": "USPS COLLECTION BOX - BLUE BOX", "nsi_id": "unitedstatespostalservice-a77078", "operator": "United States Postal Service", "operator:short": "USPS", "operator:type": "public", "operator:wikidata": "Q668687", "ref": "6366500000"}, "type": "Feature"}
{"dataset_attributes": {"@spider": "usps_collection_boxes", "spider:collection_time": "2023-11-22T08:26:05.887177"}, "geometry": {"coordinates": [-90.900168, 37.32148], "type": "Point"}, "id": "Z5MWRPJ-hi4rqv41lKaccphknXo=", "properties": {"@spider": "usps_collection_boxes", "addr:city": "REDFORD", "addr:country": "US", "addr:full": "150 REDFORD LOOP", "addr:postcode": "63665", "addr:state": "MO", "amenity": "post_box", "brand": "United States Postal Service", "brand:wikidata": "Q668687", "collection_times": "Mo-Sa 09:30", "name": "USPS COLLECTION BOX - PO LOBBY", "nsi_id": "unitedstatespostalservice-a77078", "operator": "United States Postal Service", "operator:short": "USPS", "operator:type": "public", "operator:wikidata": "Q668687", "ref": "6366500001"}, "type": "Feature"}
{"dataset_attributes": {"@spider": "usps_collection_boxes", "spider:collection_time": "2023-11-22T08:26:05.887177"}, "geometry": {"coordinates": [-90.043683, 37.980205], "type": "Point"}, "id": "lxAnRBs13eviEQqNPQkjOjNy5kk=", "properties": {"@spider": "usps_collection_boxes", "addr:city": "STE GENEVIEVE", "addr:country": "US", "addr:full": "135 MERCHANT ST", "addr:postcode": "63670", "addr:state": "MO", "amenity": "post_box", "brand": "United States Postal Service", "brand:wikidata": "Q668687", "collection_times": "Mo-Sa 11:45", "name": "USPS COLLECTION BOX - BLUE BOX", "nsi_id": "unitedstatespostalservice-a77078", "operator": "United States Postal Service", "operator:short": "USPS", "operator:type": "public", "operator:wikidata": "Q668687", "ref": "6367000000"}, "type": "Feature"}
{"dataset_attributes": {"@spider": "usps_collection_boxes", "spider:collection_time": "2023-11-22T08:26:05.887177"}, "geometry": {"coordinates": [-90.0481192, 37.970549], "type": "Point"}, "id": "e9P4bX1qXpiJZNcJGmxZkjwVx-8=", "properties": {"@spider": "usps_collection_boxes", "addr:city": "STE GENEVIEVE", "addr:country": "US", "addr:full": "600 CENTER DR", "addr:postcode": "63670", "addr:state": "MO", "amenity": "post_box", "brand": "United States Postal Service", "brand:wikidata": "Q668687", "collection_times": "Mo-Sa 09:30", "name": "USPS COLLECTION BOX - BLUE BOX", "nsi_id": "unitedstatespostalservice-a77078", "operator": "United States Postal Service", "operator:short": "USPS", "operator:type": "public", "operator:wikidata": "Q668687", "ref": "6367000004"}, "type": "Feature"}
{"dataset_attributes": {"@spider": "usps_collection_boxes", "spider:collection_time": "2023-11-22T08:26:05.887177"}, "geometry": {"coordinates": [-90.0473357, 37.968059], "type": "Point"}, "id": "aq6wpE6ACkFt-0fqZpkpBKqm3SY=", "properties": {"@spider": "usps_collection_boxes", "addr:city": "STE GENEVIEVE", "addr:country": "US", "addr:full": "600 STE GENEVIEVE DR", "addr:postcode": "63670", "addr:state": "MO", "amenity": "post_box", "brand": "United States Postal Service", "brand:wikidata": "Q668687", "collection_times": "Mo-Sa 09:30", "name": "USPS COLLECTION BOX - BLUE BOX", "nsi_id": "unitedstatespostalservice-a77078", "operator": "United States Postal Service", "operator:short": "USPS", "operator:type": "public", "operator:wikidata": "Q668687", "ref": "6367000005"}, "type": "Feature"}
{"dataset_attributes": {"@spider": "usps_collection_boxes", "spider:collection_time": "2023-11-22T08:26:05.887177"}, "geometry": {"coordinates": [-90.043641, 37.980185], "type": "Point"}, "id": "vKlf1-NMVNWkU1WgXTTcVijdhzs=", "properties": {"@spider": "usps_collection_boxes", "addr:city": "STE GENEVIEVE", "addr:country": "US", "addr:full": "135 MERCHANT ST", "addr:postcode": "63670", "addr:state": "MO", "amenity": "post_box", "brand": "United States Postal Service", "brand:wikidata": "Q668687", "collection_times": "Mo-Sa 11:45", "name": "USPS COLLECTION BOX - BLUE BOX", "nsi_id": "unitedstatespostalservice-a77078", "operator": "United States Postal Service", "operator:short": "USPS", "operator:type": "public", "operator:wikidata": "Q668687", "ref": "6367000014"}, "type": "Feature"}
{"dataset_attributes": {"@spider": "usps_collection_boxes", "spider:collection_time": "2023-11-22T08:26:05.887177"}, "geometry": {"coordinates": [-90.043641, 37.980185], "type": "Point"}, "id": "ePP5vwQfaiuexn99MJOIgvkTvC8=", "properties": {"@spider": "usps_collection_boxes", "addr:city": "STE GENEVIEVE", "addr:country": "US", "addr:full": "135 MERCHANT ST", "addr:postcode": "63670", "addr:state": "MO", "amenity": "post_box", "brand": "United States Postal Service", "brand:wikidata": "Q668687", "collection_times": "Mo-Sa 11:45", "name": "USPS COLLECTION BOX - PO LOBBY", "nsi_id": "unitedstatespostalservice-a77078", "operator": "United States Postal Service", "operator:short": "USPS", "operator:type": "public", "operator:wikidata": "Q668687", "ref": "6367000015"}, "type": "Feature"}
{"dataset_attributes": {"@spider": "usps_collection_boxes", "spider:collection_time": "2023-11-22T08:26:05.887177"}, "geometry": {"coordinates": [-90.0535657, 37.96812], "type": "Point"}, "id": "7msv3bkqmrnzDgTCw_2LwxdSMjg=", "properties": {"@spider": "usps_collection_boxes", "addr:city": "STE GENEVIEVE", "addr:country": "US", "addr:full": "195 PLAZA DR", "addr:postcode": "63670", "addr:state": "MO", "amenity": "post_box", "brand": "United States Postal Service", "brand:wikidata": "Q668687", "collection_times": "Mo-Sa 11:00", "name": "USPS COLLECTION BOX - BLUE BOX", "nsi_id": "unitedstatespostalservice-a77078", "operator": "United States Postal Service", "operator:short": "USPS", "operator:type": "public", "operator:wikidata": "Q668687", "ref": "6367000019"}, "type": "Feature"}
{"dataset_attributes": {"@spider": "usps_collection_boxes", "spider:collection_time": "2023-11-22T08:26:05.887177"}, "geometry": {"coordinates": [-89.9511789221, 37.8666327034], "type": "Point"}, "id": "xsvBxRTOTJ8QFP6X1nuaoFnvmqI=", "properties": {"@spider": "usps_collection_boxes", "addr:city": "SAINT MARY", "addr:country": "US", "addr:full": "17410 BARTELS INDUSTRIAL DR", "addr:postcode": "63673", "addr:state": "MO", "amenity": "post_box", "brand": "United States Postal Service", "brand:wikidata": "Q668687", "collection_times": "Mo-Sa 11:30", "name": "USPS COLLECTION BOX - BLUE BOX", "nsi_id": "unitedstatespostalservice-a77078", "operator": "United States Postal Service", "operator:short": "USPS", "operator:type": "public", "operator:wikidata": "Q668687", "ref": "6367300003"}, "type": "Feature"}
{"dataset_attributes": {"@spider": "usps_collection_boxes", "spider:collection_time": "2023-11-22T08:26:05.887177"}, "geometry": {"coordinates": [-90.675519, 37.98604], "type": "Point"}, "id": "WR8cmrfzuWkqoiQLCEHxCvcptMc=", "properties": {"@spider": "usps_collection_boxes", "addr:city": "TIFF", "addr:country": "US", "addr:full": "13528 TIFF LN", "addr:postcode": "63674", "addr:state": "MO", "amenity": "post_box", "brand": "United States Postal Service", "brand:wikidata": "Q668687", "collection_times": "Mo-Sa 10:15", "name": "USPS COLLECTION BOX - BLUE BOX", "nsi_id": "unitedstatespostalservice-a77078", "operator": "United States Postal Service", "operator:short": "USPS", "operator:type": "public", "operator:wikidata": "Q668687", "ref": "6367400000"}, "type": "Feature"}
