{"geometry": {"coordinates": [-89.913979, 37.104019], "type": "Point"}, "id": "JyioM-5EWAJDCw_q4YvwHnyEQ_8=", "properties": {"@spider": "usps_collection_boxes", "addr:city": "ADVANCE", "addr:country": "US", "addr:full": "502 W GABRIEL ST", "addr:postcode": "63730", "addr:state": "MO", "brand": "USPS", "collection_times": "Mo-Sa 11:00", "name": "USPS COLLECTION BOX - BLUE BOX", "ref": "6373000000"}, "type": "Feature"}
{"geometry": {"coordinates": [-89.913867, 37.103992], "type": "Point"}, "id": "UBPPLhf_CYmhqs_IBubGSKd6vr0=", "properties": {"@spider": "usps_collection_boxes", "addr:city": "ADVANCE", "addr:country": "US", "addr:full": "502 W GABRIEL ST", "addr:postcode": "63730", "addr:state": "MO", "brand": "USPS", "collection_times": "Mo-Sa 11:00", "name": "USPS COLLECTION BOX - PO LOBBY", "ref": "6373000001"}, "type": "Feature"}
{"geometry": {"coordinates": [-89.956993, 37.082797], "type": "Point"}, "id": "qBKyuuUrA2gyWW0duMyLN5K-hs4=", "properties": {"@spider": "usps_collection_boxes", "addr:city": "BROWNWOOD", "addr:country": "US", "addr:full": "31927 CENTER ST", "addr:postcode": "63738", "addr:state": "MO", "brand": "USPS", "collection_times": "Mo-Sa 10:45", "name": "USPS COLLECTION BOX - BLUE BOX", "ref": "6373800000"}, "type": "Feature"}
{"geometry": {"coordinates": [-89.956954, 37.082839], "type": "Point"}, "id": "rAE_V3vqzzN98aSYEMlphQtyIcs=", "properties": {"@spider": "usps_collection_boxes", "addr:city": "BROWNWOOD", "addr:country": "US", "addr:full": "31927 CENTER ST", "addr:postcode": "63738", "addr:state": "MO", "brand": "USPS", "collection_times": "Mo-Sa 10:45", "name": "USPS COLLECTION BOX - PO LOBBY", "ref": "6373800001"}, "type": "Feature"}
{"geometry": {"coordinates": [-89.957048458, 37.08188611], "type": "Point"}, "id": "mZOmIvXIjwL_A8Im_Uklrkgx5ic=", "properties": {"@spider": "usps_collection_boxes", "addr:city": "BROWNWOOD", "addr:country": "US", "addr:full": "31927 CENTER ST", "addr:postcode": "63738", "addr:state": "MO", "brand": "USPS", "collection_times": "Mo-Fr 10:15; Sa 11:00", "name": "USPS COLLECTION BOX - PO LOBBY", "ref": "6373800002"}, "type": "Feature"}
{"geometry": {"coordinates": [-90.197230075, 37.1314710579], "type": "Point"}, "id": "Vrow4sZOMKvIoZjq6omm2gezz3Q=", "properties": {"@spider": "usps_collection_boxes", "addr:city": "GIPSY", "addr:country": "US", "addr:full": "100 STATE ROUTE E", "addr:postcode": "63750", "addr:state": "MO", "brand": "USPS", "collection_times": "Mo-Sa 09:00", "name": "USPS COLLECTION BOX - BLUE BOX", "ref": "6375000000"}, "type": "Feature"}
{"geometry": {"coordinates": [-90.197230075, 37.1314710579], "type": "Point"}, "id": "55jCcmzABIjki8bBVgcy_Q-xkBc=", "properties": {"@spider": "usps_collection_boxes", "addr:city": "GIPSY", "addr:country": "US", "addr:full": "100 STATE ROUTE E", "addr:postcode": "63750", "addr:state": "MO", "brand": "USPS", "collection_times": "Mo-Sa 09:00", "name": "USPS COLLECTION BOX - PO LOBBY", "ref": "6375000001"}, "type": "Feature"}
{"geometry": {"coordinates": [-90.028092, 37.315104], "type": "Point"}, "id": "YwBH6VgHiolyPJN5DrSqwEBqgrs=", "properties": {"@spider": "usps_collection_boxes", "addr:city": "GLENALLEN", "addr:country": "US", "addr:full": "1 SHORT ST", "addr:postcode": "63751", "addr:state": "MO", "brand": "USPS", "collection_times": "Mo-Sa 11:00", "name": "USPS COLLECTION BOX - BLUE BOX", "ref": "6375100000"}, "type": "Feature"}
{"geometry": {"coordinates": [-90.028107, 37.315011], "type": "Point"}, "id": "Fm9ZBcSZI3qM_2MmePZ831OI5so=", "properties": {"@spider": "usps_collection_boxes", "addr:city": "GLENALLEN", "addr:country": "US", "addr:full": "1 SHORT ST", "addr:postcode": "63751", "addr:state": "MO", "brand": "USPS", "collection_times": "Mo-Fr 11:00; Sa 10:00", "name": "USPS COLLECTION BOX - PO LOBBY", "ref": "6375100001"}, "type": "Feature"}
{"geometry": {"coordinates": [-89.926999, 37.257573], "type": "Point"}, "id": "Ti3RqFpjZkLAZmKJysQ_EPRaU0s=", "properties": {"@spider": "usps_collection_boxes", "addr:city": "LEOPOLD", "addr:country": "US", "addr:full": "105 W MAIN ST", "addr:postcode": "63760", "addr:state": "MO", "brand": "USPS", "collection_times": "Mo-Sa 11:15", "name": "USPS COLLECTION BOX - BLUE BOX", "ref": "6376000000"}, "type": "Feature"}
{"geometry": {"coordinates": [-89.926999, 37.257573], "type": "Point"}, "id": "O0ns9MW5NmXoqUOdqQel_kQ9KNE=", "properties": {"@spider": "usps_collection_boxes", "addr:city": "LEOPOLD", "addr:country": "US", "addr:full": "105 W MAIN ST", "addr:postcode": "63760", "addr:state": "MO", "brand": "USPS", "collection_times": "Mo-Fr 11:15; Sa 09:15", "name": "USPS COLLECTION BOX - PO LOBBY", "ref": "6376000001"}, "type": "Feature"}
{"geometry": {"coordinates": [-90.103359, 37.280983], "type": "Point"}, "id": "CW1OKqnPLODhyj3QbFP2Bu9tPkk=", "properties": {"@spider": "usps_collection_boxes", "addr:city": "MARBLE HILL", "addr:country": "US", "addr:full": "200 STATE HIGHWAY 34 W", "addr:postcode": "63764", "addr:state": "MO", "brand": "USPS", "collection_times": "Mo-Sa 11:00", "name": "USPS COLLECTION BOX - BLUE BOX", "ref": "6376400002"}, "type": "Feature"}
{"geometry": {"coordinates": [-90.103359, 37.280983], "type": "Point"}, "id": "Q3jDfj1F55I2CRRX7ccW4t2Z9Og=", "properties": {"@spider": "usps_collection_boxes", "addr:city": "MARBLE HILL", "addr:country": "US", "addr:full": "200 STATE HIGHWAY 34 W", "addr:postcode": "63764", "addr:state": "MO", "brand": "USPS", "collection_times": "Mo-Sa 11:00", "name": "USPS COLLECTION BOX - PO LOBBY", "ref": "6376400004"}, "type": "Feature"}
{"geometry": {"coordinates": [-90.103359, 37.280983], "type": "Point"}, "id": "uSEX2QO07I2RhXema2VbROO73x4=", "properties": {"@spider": "usps_collection_boxes", "addr:city": "MARBLE HILL", "addr:country": "US", "addr:full": "200 STATE HIGHWAY 34 W", "addr:postcode": "63764", "addr:state": "MO", "brand": "USPS", "collection_times": "Mo-Sa 11:00", "name": "USPS COLLECTION BOX - PO LOBBY", "ref": "6376400005"}, "type": "Feature"}
{"geometry": {"coordinates": [-89.862132, 37.725818], "type": "Point"}, "id": "I-Xk2lwpkZpDuPR_nLZHknpW4BQ=", "properties": {"@spider": "usps_collection_boxes", "addr:city": "PERRYVILLE", "addr:country": "US", "addr:full": "20 E SAINTE MARIE ST", "addr:postcode": "63775", "addr:state": "MO", "brand": "USPS", "collection_times": "Mo-Sa 11:15", "name": "USPS COLLECTION BOX - PO LOBBY", "ref": "6377500011"}, "type": "Feature"}
{"geometry": {"coordinates": [-89.862203, 37.725791], "type": "Point"}, "id": "D4-4t6gvuZ8o3C8zCPh-LMU4Kl8=", "properties": {"@spider": "usps_collection_boxes", "addr:city": "PERRYVILLE", "addr:country": "US", "addr:full": "20 E SAINTE MARIE ST", "addr:postcode": "63775", "addr:state": "MO", "brand": "USPS", "collection_times": "Mo-Sa 11:15", "name": "USPS COLLECTION BOX - BLUE BOX", "ref": "6377500014"}, "type": "Feature"}
{"geometry": {"coordinates": [-89.8896559, 37.71367], "type": "Point"}, "id": "ZXhmoBm4tHXV_jxFUG43NbuOFoQ=", "properties": {"@spider": "usps_collection_boxes", "addr:city": "PERRYVILLE", "addr:country": "US", "addr:full": "1015 S PERRYVILLE BLVD", "addr:postcode": "63775", "addr:state": "MO", "brand": "USPS", "collection_times": "Mo-Sa 11:00", "name": "USPS COLLECTION BOX - BLUE BOX", "ref": "6377500015"}, "type": "Feature"}
{"geometry": {"coordinates": [-89.9277625687, 37.5473405142], "type": "Point"}, "id": "xCFVDk1xE3wZP73MxOm50S96u0E=", "properties": {"@spider": "usps_collection_boxes", "addr:city": "SEDGEWICKVILLE", "addr:country": "US", "addr:full": "7 STATE HWY W W", "addr:postcode": "63781", "addr:state": "MO", "brand": "USPS", "collection_times": "Mo-Sa 11:30", "name": "USPS COLLECTION BOX - BLUE BOX", "ref": "6378100000"}, "type": "Feature"}
{"geometry": {"coordinates": [-89.904625, 37.515833], "type": "Point"}, "id": "-yxf4LKLGrEy2_MHrlnDCPnbjaQ=", "properties": {"@spider": "usps_collection_boxes", "addr:city": "SEDGEWICKVILLE", "addr:country": "US", "addr:full": "7 STATE ROUTE WW", "addr:postcode": "63781", "addr:state": "MO", "brand": "USPS", "collection_times": "Mo-Sa 11:30", "name": "USPS COLLECTION BOX - PO LOBBY", "ref": "6378100001"}, "type": "Feature"}
{"geometry": {"coordinates": [-90.012802, 37.049792], "type": "Point"}, "id": "iiqhthalvD4aFMwNj7n4tzfv3f8=", "properties": {"@spider": "usps_collection_boxes", "addr:city": "STURDIVANT", "addr:country": "US", "addr:full": "100 COUNTY ROAD 636", "addr:postcode": "63782", "addr:state": "MO", "brand": "USPS", "collection_times": "Mo-Sa 10:30", "name": "USPS COLLECTION BOX - BLUE BOX", "ref": "6378200000"}, "type": "Feature"}
{"geometry": {"coordinates": [-90.01278, 37.0497], "type": "Point"}, "id": "_Sou3oAPds_0lXfN-w7-rdSrF0s=", "properties": {"@spider": "usps_collection_boxes", "addr:city": "STURDIVANT", "addr:country": "US", "addr:full": "100 COUNTY ROAD 636", "addr:postcode": "63782", "addr:state": "MO", "brand": "USPS", "collection_times": "Mo-Sa 10:30", "name": "USPS COLLECTION BOX - PO LOBBY", "ref": "6378200001"}, "type": "Feature"}
{"geometry": {"coordinates": [-89.796805, 37.236772], "type": "Point"}, "id": "PSWnC9Zv-28F8Z8o9xVorteWwNo=", "properties": {"@spider": "usps_collection_boxes", "addr:city": "WHITEWATER", "addr:country": "US", "addr:full": "8742 STATE HIGHWAY A", "addr:postcode": "63785", "addr:state": "MO", "brand": "USPS", "collection_times": "Mo-Sa 11:30", "name": "USPS COLLECTION BOX - BLUE BOX", "ref": "6378500000"}, "type": "Feature"}
{"geometry": {"coordinates": [-89.796837, 37.236681], "type": "Point"}, "id": "eIqqiiXvKJ-Q5j5oQmtlKMeEafM=", "properties": {"@spider": "usps_collection_boxes", "addr:city": "WHITEWATER", "addr:country": "US", "addr:full": "8742 STATE HIGHWAY A", "addr:postcode": "63785", "addr:state": "MO", "brand": "USPS", "collection_times": "Mo-Fr 11:30; Sa 00:15", "name": "USPS COLLECTION BOX - PO LOBBY", "ref": "6378500001"}, "type": "Feature"}
{"geometry": {"coordinates": [-90.078739, 37.144504], "type": "Point"}, "id": "jFjWQcBwPwJj5hyBBXensfeHKhc=", "properties": {"@spider": "usps_collection_boxes", "addr:city": "ZALMA", "addr:country": "US", "addr:full": "450 N MAIN ST", "addr:postcode": "63787", "addr:state": "MO", "brand": "USPS", "collection_times": "Mo-Sa 09:45", "name": "USPS COLLECTION BOX - BLUE BOX", "ref": "6378700000"}, "type": "Feature"}
{"geometry": {"coordinates": [-90.078739, 37.144504], "type": "Point"}, "id": "wvOZD2rI6yFgwnrOrIAAmx0ZoMw=", "properties": {"@spider": "usps_collection_boxes", "addr:city": "ZALMA", "addr:country": "US", "addr:full": "450 N MAIN ST", "addr:postcode": "63787", "addr:state": "MO", "brand": "USPS", "collection_times": "Mo-Sa 09:45", "name": "USPS COLLECTION BOX - PO LOBBY", "ref": "6378700001"}, "type": "Feature"}
