{"geometry": {"coordinates": [-90.239188, 36.051169], "type": "Point"}, "id": "OpAb6xTGM5--Zlx0snuIFuJ4xvk=", "properties": {"@spider": "usps_collection_boxes", "addr:city": "ARBYRD", "addr:country": "US", "addr:full": "104 NE FRISCO ST", "addr:postcode": "63821", "addr:state": "MO", "brand": "USPS", "collection_times": "Mo-Sa 10:00", "name": "USPS COLLECTION BOX - BLUE BOX", "ref": "6382100000"}, "type": "Feature"}
{"geometry": {"coordinates": [-90.239234, 36.051091], "type": "Point"}, "id": "6ZZtk7YKgdR9PCwQ5OaXCQXtWUI=", "properties": {"@spider": "usps_collection_boxes", "addr:city": "ARBYRD", "addr:country": "US", "addr:full": "104 NE FRISCO ST", "addr:postcode": "63821", "addr:state": "MO", "brand": "USPS", "collection_times": "Mo-Sa 10:00", "name": "USPS COLLECTION BOX - PO LOBBY", "ref": "6382100001"}, "type": "Feature"}
{"geometry": {"coordinates": [-89.968376, 36.668364], "type": "Point"}, "id": "KKiw0Qw27jDbniKg0tS9dgiYnG4=", "properties": {"@spider": "usps_collection_boxes", "addr:city": "BERNIE", "addr:country": "US", "addr:full": "115 WOODS AVE", "addr:postcode": "63822", "addr:state": "MO", "brand": "USPS", "collection_times": "Mo-Sa 10:30", "name": "USPS COLLECTION BOX - BLUE BOX", "ref": "6382200000"}, "type": "Feature"}
{"geometry": {"coordinates": [-89.968456, 36.668338], "type": "Point"}, "id": "TOEwYscW9n1hRlufj8Taqro0-68=", "properties": {"@spider": "usps_collection_boxes", "addr:city": "BERNIE", "addr:country": "US", "addr:full": "115 WOODS AVE", "addr:postcode": "63822", "addr:state": "MO", "brand": "USPS", "collection_times": "Mo-Fr 10:30; Sa 10:00", "name": "USPS COLLECTION BOX - PO LOBBY", "ref": "6382200004"}, "type": "Feature"}
{"geometry": {"coordinates": [-89.929105, 36.886715], "type": "Point"}, "id": "8kEcowWfYCOpHF3Mk4boAHtNRIo=", "properties": {"@spider": "usps_collection_boxes", "addr:city": "BLOOMFIELD", "addr:country": "US", "addr:full": "301 N PRAIRIE PR", "addr:postcode": "63825", "addr:state": "MO", "brand": "USPS", "collection_times": "Mo-Sa 11:00", "name": "USPS COLLECTION BOX - BLUE BOX", "ref": "6382500000"}, "type": "Feature"}
{"geometry": {"coordinates": [-89.929105, 36.886716], "type": "Point"}, "id": "_NJP_HKRkBczP-wWBDaZs5jTofw=", "properties": {"@spider": "usps_collection_boxes", "addr:city": "BLOOMFIELD", "addr:country": "US", "addr:full": "301 N PRAIRIE PR", "addr:postcode": "63825", "addr:state": "MO", "brand": "USPS", "collection_times": "Mo-Sa 11:00", "name": "USPS COLLECTION BOX - PO LOBBY", "ref": "6382500003"}, "type": "Feature"}
{"geometry": {"coordinates": [-89.829481, 36.174123], "type": "Point"}, "id": "I-Nsp5cXnBGHvD2xq1ZZuEbORN8=", "properties": {"@spider": "usps_collection_boxes", "addr:city": "BRAGGADOCIO", "addr:country": "US", "addr:full": "2064 STATE HIGHWAY Z", "addr:postcode": "63826", "addr:state": "MO", "brand": "USPS", "collection_times": "Mo-Sa 10:30", "name": "USPS COLLECTION BOX - BLUE BOX", "ref": "6382600000"}, "type": "Feature"}
{"geometry": {"coordinates": [-89.829448, 36.174125], "type": "Point"}, "id": "daUOZ-4yTK7fo9aSYl1H_Ny9cx0=", "properties": {"@spider": "usps_collection_boxes", "addr:city": "BRAGGADOCIO", "addr:country": "US", "addr:full": "2064 STATE HIGHWAY Z", "addr:postcode": "63826", "addr:state": "MO", "brand": "USPS", "collection_times": "Mo-Fr 10:30; Sa 08:45", "name": "USPS COLLECTION BOX - PO LOBBY", "ref": "6382600001"}, "type": "Feature"}
{"geometry": {"coordinates": [-89.822593, 36.269106], "type": "Point"}, "id": "zDq3MP0WRNxFPeKje_VJiehOHa0=", "properties": {"@spider": "usps_collection_boxes", "addr:city": "BRAGG CITY", "addr:country": "US", "addr:full": "120 S MAIN ST", "addr:postcode": "63827", "addr:state": "MO", "brand": "USPS", "collection_times": "Mo-Sa 10:30", "name": "USPS COLLECTION BOX - BLUE BOX", "ref": "6382700000"}, "type": "Feature"}
{"geometry": {"coordinates": [-89.822593, 36.269106], "type": "Point"}, "id": "_MMqXVEMvOIVrdmhM1n4FB8OzLk=", "properties": {"@spider": "usps_collection_boxes", "addr:city": "BRAGG CITY", "addr:country": "US", "addr:full": "120 S MAIN ST", "addr:postcode": "63827", "addr:state": "MO", "brand": "USPS", "collection_times": "Mo-Fr 10:30; Sa 08:45", "name": "USPS COLLECTION BOX - PO LOBBY", "ref": "6382700001"}, "type": "Feature"}
{"geometry": {"coordinates": [-90.293202, 36.04865], "type": "Point"}, "id": "XuBdWGSeOPJ5QPwryL57cy4Qlnk=", "properties": {"@spider": "usps_collection_boxes", "addr:city": "CARDWELL", "addr:country": "US", "addr:full": "107 S MAIN ST", "addr:postcode": "63829", "addr:state": "MO", "brand": "USPS", "collection_times": "Mo-Sa 10:00", "name": "USPS COLLECTION BOX - BLUE BOX", "ref": "6382900000"}, "type": "Feature"}
{"geometry": {"coordinates": [-90.293202, 36.04865], "type": "Point"}, "id": "VRHqQaXOoIsnWugH4yDzF7k4L7c=", "properties": {"@spider": "usps_collection_boxes", "addr:city": "CARDWELL", "addr:country": "US", "addr:full": "107 S MAIN ST", "addr:postcode": "63829", "addr:state": "MO", "brand": "USPS", "collection_times": "Mo-Sa 10:00", "name": "USPS COLLECTION BOX - PO LOBBY", "ref": "6382900001"}, "type": "Feature"}
{"geometry": {"coordinates": [-89.65579, 36.193252], "type": "Point"}, "id": "woQ5BsAEa_5-aZOpMtLn0Dh86d0=", "properties": {"@spider": "usps_collection_boxes", "addr:city": "CARUTHERSVILLE", "addr:country": "US", "addr:full": "300 CARLETON AVE", "addr:postcode": "63830", "addr:state": "MO", "brand": "USPS", "collection_times": "Mo-Sa 10:30", "name": "USPS COLLECTION BOX - BLUE BOX", "ref": "6383000000"}, "type": "Feature"}
{"geometry": {"coordinates": [-89.655699, 36.19331], "type": "Point"}, "id": "uifStjjPgjOtfYNCzHveivZatkw=", "properties": {"@spider": "usps_collection_boxes", "addr:city": "CARUTHERSVILLE", "addr:country": "US", "addr:full": "300 CARLETON AVE", "addr:postcode": "63830", "addr:state": "MO", "brand": "USPS", "collection_times": "Mo-Sa 10:30", "name": "USPS COLLECTION BOX - BLUE BOX", "ref": "6383000001"}, "type": "Feature"}
{"geometry": {"coordinates": [-89.655699, 36.19331], "type": "Point"}, "id": "EwZYAnHcDl16H2bn0xKXgnTrGKA=", "properties": {"@spider": "usps_collection_boxes", "addr:city": "CARUTHERSVILLE", "addr:country": "US", "addr:full": "300 CARLETON AVE", "addr:postcode": "63830", "addr:state": "MO", "brand": "USPS", "collection_times": "Mo-Sa 10:30", "name": "USPS COLLECTION BOX - PO LOBBY", "ref": "6383000019"}, "type": "Feature"}
{"geometry": {"coordinates": [-89.810237, 36.73057], "type": "Point"}, "id": "HI_u-EWy_nc5Q92bpu1jlhQGBMc=", "properties": {"@spider": "usps_collection_boxes", "addr:city": "CATRON", "addr:country": "US", "addr:full": "3770 STATE HIGHWAY D", "addr:postcode": "63833", "addr:state": "MO", "brand": "USPS", "collection_times": "Mo-Sa 09:30", "name": "USPS COLLECTION BOX - BLUE BOX", "ref": "6383300000"}, "type": "Feature"}
{"geometry": {"coordinates": [-89.810187, 36.730546], "type": "Point"}, "id": "wUneOm4ihQ-57FgGPLSGIr9DZnw=", "properties": {"@spider": "usps_collection_boxes", "addr:city": "CATRON", "addr:country": "US", "addr:full": "3770 STATE HIGHWAY D", "addr:postcode": "63833", "addr:state": "MO", "brand": "USPS", "collection_times": "Mo-Fr 09:30; Sa 09:15", "name": "USPS COLLECTION BOX - PO LOBBY", "ref": "6383300002"}, "type": "Feature"}
{"geometry": {"coordinates": [-89.967451, 36.452058], "type": "Point"}, "id": "nVrNR4eTaXp7kuHRiFMNfTxVicE=", "properties": {"@spider": "usps_collection_boxes", "addr:city": "CLARKTON", "addr:country": "US", "addr:full": "109 N MAIN ST", "addr:postcode": "63837", "addr:state": "MO", "brand": "USPS", "collection_times": "Mo-Sa 10:30", "name": "USPS COLLECTION BOX - BLUE BOX", "ref": "6383700001"}, "type": "Feature"}
{"geometry": {"coordinates": [-89.967451, 36.452058], "type": "Point"}, "id": "lV-6UdpPZhckYTc9asSMPOInKHQ=", "properties": {"@spider": "usps_collection_boxes", "addr:city": "CLARKTON", "addr:country": "US", "addr:full": "109 N MAIN ST", "addr:postcode": "63837", "addr:state": "MO", "brand": "USPS", "collection_times": "Mo-Fr 10:30; Sa 07:30", "name": "USPS COLLECTION BOX - PO LOBBY", "ref": "6383700002"}, "type": "Feature"}
{"geometry": {"coordinates": [-89.808881, 36.045996], "type": "Point"}, "id": "Xr8eePrQqfiolFvafOYJPJG_Mtc=", "properties": {"@spider": "usps_collection_boxes", "addr:city": "COOTER", "addr:country": "US", "addr:full": "102 MAIN ST", "addr:postcode": "63839", "addr:state": "MO", "brand": "USPS", "collection_times": "Mo-Sa 09:30", "name": "USPS COLLECTION BOX - BLUE BOX", "ref": "6383900000"}, "type": "Feature"}
{"geometry": {"coordinates": [-89.808881, 36.045996], "type": "Point"}, "id": "HR8Jey7ManRYRQZU33MhvDXZpU4=", "properties": {"@spider": "usps_collection_boxes", "addr:city": "COOTER", "addr:country": "US", "addr:full": "102 MAIN ST", "addr:postcode": "63839", "addr:state": "MO", "brand": "USPS", "collection_times": "Mo-Sa 09:30", "name": "USPS COLLECTION BOX - PO LOBBY", "ref": "6383900001"}, "type": "Feature"}
{"geometry": {"coordinates": [-89.882941, 36.191133], "type": "Point"}, "id": "dY2c8fBEs8SwQd-rm9s9IkFTbTc=", "properties": {"@spider": "usps_collection_boxes", "addr:city": "DEERING", "addr:country": "US", "addr:full": "6296 STATE HIGHWAY J", "addr:postcode": "63840", "addr:state": "MO", "brand": "USPS", "collection_times": "Mo-Sa 10:30", "name": "USPS COLLECTION BOX - BLUE BOX", "ref": "6384000000"}, "type": "Feature"}
{"geometry": {"coordinates": [-89.882941, 36.191133], "type": "Point"}, "id": "mQ8HfS-og-LFfY3CtUHSStROvWM=", "properties": {"@spider": "usps_collection_boxes", "addr:city": "DEERING", "addr:country": "US", "addr:full": "6296 STATE HIGHWAY J", "addr:postcode": "63840", "addr:state": "MO", "brand": "USPS", "collection_times": "Mo-Sa 10:30", "name": "USPS COLLECTION BOX - PO LOBBY", "ref": "6384000001"}, "type": "Feature"}
{"geometry": {"coordinates": [-89.9741395, 36.803896], "type": "Point"}, "id": "G0o5SjnmvomiBd8wliHHRDJkUeA=", "properties": {"@spider": "usps_collection_boxes", "addr:city": "DEXTER", "addr:country": "US", "addr:full": "1028 HWY BUS 60 WEST", "addr:postcode": "63841", "addr:state": "MO", "brand": "USPS", "collection_times": "Mo-Sa 11:00", "name": "USPS COLLECTION BOX - BLUE BOX", "ref": "6384100011"}, "type": "Feature"}
{"geometry": {"coordinates": [-90.02764, 36.44092], "type": "Point"}, "id": "JnRV0et_VvAeEp9HuFBfeBbImFw=", "properties": {"@spider": "usps_collection_boxes", "addr:city": "GIBSON", "addr:country": "US", "addr:full": "110 MAIN ST", "addr:postcode": "63847", "addr:state": "MO", "brand": "USPS", "collection_times": "Mo-Sa 10:00", "name": "USPS COLLECTION BOX - BLUE BOX", "ref": "6384700000"}, "type": "Feature"}
{"geometry": {"coordinates": [-90.02764, 36.44092], "type": "Point"}, "id": "IReDdQ4dSVyi4byhksnlZ6t62H0=", "properties": {"@spider": "usps_collection_boxes", "addr:city": "GIBSON", "addr:country": "US", "addr:full": "110 MAIN ST", "addr:postcode": "63847", "addr:state": "MO", "brand": "USPS", "collection_times": "Mo-Sa 10:00", "name": "USPS COLLECTION BOX - PO LOBBY", "ref": "6384700001"}, "type": "Feature"}
{"geometry": {"coordinates": [-89.919497, 36.455377], "type": "Point"}, "id": "gVYW8ap9RJngMPek7mrJnVDPHdM=", "properties": {"@spider": "usps_collection_boxes", "addr:city": "GIDEON", "addr:country": "US", "addr:full": "102 E 1ST ST", "addr:postcode": "63848", "addr:state": "MO", "brand": "USPS", "collection_times": "Mo-Sa 10:30", "name": "USPS COLLECTION BOX - BLUE BOX", "ref": "6384800000"}, "type": "Feature"}
{"geometry": {"coordinates": [-89.919602, 36.455409], "type": "Point"}, "id": "W62mhTc2Y8MSLLxgvRYPFt5e_so=", "properties": {"@spider": "usps_collection_boxes", "addr:city": "GIDEON", "addr:country": "US", "addr:full": "102 E 1ST ST", "addr:postcode": "63848", "addr:state": "MO", "brand": "USPS", "collection_times": "Mo-Sa 10:30", "name": "USPS COLLECTION BOX - PO LOBBY", "ref": "6384800002"}, "type": "Feature"}
{"geometry": {"coordinates": [-89.745269, 36.233976], "type": "Point"}, "id": "uxcPKI8UdYoltYNxxou0hX0Ch7g=", "properties": {"@spider": "usps_collection_boxes", "addr:city": "HAYTI", "addr:country": "US", "addr:full": "607 E WASHINGTON ST", "addr:postcode": "63851", "addr:state": "MO", "brand": "USPS", "collection_times": "Mo-Sa 10:15", "name": "USPS COLLECTION BOX - BLUE BOX", "ref": "6385100001"}, "type": "Feature"}
{"geometry": {"coordinates": [-89.745362, 36.234003], "type": "Point"}, "id": "uZXl84mP49ZxYfXQkjzgDfu2v5w=", "properties": {"@spider": "usps_collection_boxes", "addr:city": "HAYTI", "addr:country": "US", "addr:full": "607 E WASHINGTON ST", "addr:postcode": "63851", "addr:state": "MO", "brand": "USPS", "collection_times": "Mo-Sa 10:15", "name": "USPS COLLECTION BOX - PO LOBBY", "ref": "6385100003"}, "type": "Feature"}
{"geometry": {"coordinates": [-90.023685, 36.40379], "type": "Point"}, "id": "isOAapcwtFPFW8XkWexL7tePPp0=", "properties": {"@spider": "usps_collection_boxes", "addr:city": "HOLCOMB", "addr:country": "US", "addr:full": "205 CHURCH ST", "addr:postcode": "63852", "addr:state": "MO", "brand": "USPS", "collection_times": "Mo-Sa 10:15", "name": "USPS COLLECTION BOX - BLUE BOX", "ref": "6385200000"}, "type": "Feature"}
{"geometry": {"coordinates": [-90.023718, 36.4037], "type": "Point"}, "id": "F_DYxpJYeZ2JPskJmW5uah-AGAk=", "properties": {"@spider": "usps_collection_boxes", "addr:city": "HOLCOMB", "addr:country": "US", "addr:full": "205 CHURCH ST", "addr:postcode": "63852", "addr:state": "MO", "brand": "USPS", "collection_times": "Mo-Sa 10:15", "name": "USPS COLLECTION BOX - PO LOBBY", "ref": "6385200002"}, "type": "Feature"}
{"geometry": {"coordinates": [-89.871017, 36.053532], "type": "Point"}, "id": "xnirTHljtcLyL_A-tlElLSbns18=", "properties": {"@spider": "usps_collection_boxes", "addr:city": "HOLLAND", "addr:country": "US", "addr:full": "208 WALNUT ST", "addr:postcode": "63853", "addr:state": "MO", "brand": "USPS", "collection_times": "Mo-Sa 09:30", "name": "USPS COLLECTION BOX - BLUE BOX", "ref": "6385300000"}, "type": "Feature"}
{"geometry": {"coordinates": [-89.871017, 36.053532], "type": "Point"}, "id": "R08gHE756Lx3e5fTMWpI81KrMJk=", "properties": {"@spider": "usps_collection_boxes", "addr:city": "HOLLAND", "addr:country": "US", "addr:full": "208 WALNUT ST", "addr:postcode": "63853", "addr:state": "MO", "brand": "USPS", "collection_times": "Mo-Sa 09:30", "name": "USPS COLLECTION BOX - PO LOBBY", "ref": "6385300001"}, "type": "Feature"}
{"geometry": {"coordinates": [-90.056829, 36.237103], "type": "Point"}, "id": "Ea0CRQ2DogGFUQ0DUMfw5wHJi8k=", "properties": {"@spider": "usps_collection_boxes", "addr:city": "KENNETT", "addr:country": "US", "addr:full": "201 N MAIN ST", "addr:postcode": "63857", "addr:state": "MO", "brand": "USPS", "collection_times": "Mo-Sa 11:15", "name": "USPS COLLECTION BOX - BLUE BOX", "ref": "6385700000"}, "type": "Feature"}
{"geometry": {"coordinates": [-90.056829, 36.237103], "type": "Point"}, "id": "9Y5ADusWTb6jGDeetqDfcJlvks0=", "properties": {"@spider": "usps_collection_boxes", "addr:city": "KENNETT", "addr:country": "US", "addr:full": "201 N MAIN ST", "addr:postcode": "63857", "addr:state": "MO", "brand": "USPS", "collection_times": "Mo-Sa 11:15", "name": "USPS COLLECTION BOX - BLUE BOX", "ref": "6385700001"}, "type": "Feature"}
{"geometry": {"coordinates": [-90.056829, 36.237103], "type": "Point"}, "id": "I1tD4hh31aJn_tk861cgzR4_HTQ=", "properties": {"@spider": "usps_collection_boxes", "addr:city": "KENNETT", "addr:country": "US", "addr:full": "201 N MAIN ST", "addr:postcode": "63857", "addr:state": "MO", "brand": "USPS", "collection_times": "Mo-Sa 11:15", "name": "USPS COLLECTION BOX - BLUE BOX", "ref": "6385700002"}, "type": "Feature"}
{"geometry": {"coordinates": [-90.056829, 36.237103], "type": "Point"}, "id": "KEOG17y2gfFv8wtgdPgtSTf0xTw=", "properties": {"@spider": "usps_collection_boxes", "addr:city": "KENNETT", "addr:country": "US", "addr:full": "201 N MAIN ST", "addr:postcode": "63857", "addr:state": "MO", "brand": "USPS", "collection_times": "Mo-Sa 11:15", "name": "USPS COLLECTION BOX - BLUE BOX", "ref": "6385700003"}, "type": "Feature"}
{"geometry": {"coordinates": [-90.0346918, 36.238181], "type": "Point"}, "id": "RkatgTd7piPVJ7duZO29vrnM3K0=", "properties": {"@spider": "usps_collection_boxes", "addr:city": "KENNETT", "addr:country": "US", "addr:full": "1756 1ST ST", "addr:postcode": "63857", "addr:state": "MO", "brand": "USPS", "collection_times": "Mo-Sa 10:30", "name": "USPS COLLECTION BOX - BLUE BOX", "ref": "6385700006"}, "type": "Feature"}
{"geometry": {"coordinates": [-90.056829, 36.237103], "type": "Point"}, "id": "qlwDFGz9C_XMer83rTzy-oAyEPs=", "properties": {"@spider": "usps_collection_boxes", "addr:city": "KENNETT", "addr:country": "US", "addr:full": "201 N MAIN ST", "addr:postcode": "63857", "addr:state": "MO", "brand": "USPS", "collection_times": "Mo-Sa 11:15", "name": "USPS COLLECTION BOX - PO LOBBY", "ref": "6385700027"}, "type": "Feature"}
{"geometry": {"coordinates": [-90.056829, 36.237103], "type": "Point"}, "id": "ZvN4yHl_ys7hJpjV424W6Wt35WI=", "properties": {"@spider": "usps_collection_boxes", "addr:city": "KENNETT", "addr:country": "US", "addr:full": "201 N MAIN ST", "addr:postcode": "63857", "addr:state": "MO", "brand": "USPS", "collection_times": "Mo-Sa 11:15", "name": "USPS COLLECTION BOX - PO LOBBY", "ref": "6385700028"}, "type": "Feature"}
{"geometry": {"coordinates": [-90.056829, 36.237103], "type": "Point"}, "id": "GrIFXULgn1r916gedyHQNPD_xwo=", "properties": {"@spider": "usps_collection_boxes", "addr:city": "KENNETT", "addr:country": "US", "addr:full": "201 N MAIN ST", "addr:postcode": "63857", "addr:state": "MO", "brand": "USPS", "collection_times": "Mo-Sa 11:15", "name": "USPS COLLECTION BOX - PO LOBBY", "ref": "6385700029"}, "type": "Feature"}
{"geometry": {"coordinates": [-89.57387, 36.671402], "type": "Point"}, "id": "q1L7ZlIEC_QcYVxu8Ig9xj6SWyM=", "properties": {"@spider": "usps_collection_boxes", "addr:city": "KEWANEE", "addr:country": "US", "addr:full": "517 STATE HWY W", "addr:postcode": "63860", "addr:state": "MO", "brand": "USPS", "collection_times": "Mo-Sa 10:15", "name": "USPS COLLECTION BOX - BLUE BOX", "ref": "6386000000"}, "type": "Feature"}
{"geometry": {"coordinates": [-89.57387, 36.671402], "type": "Point"}, "id": "1Sd-viD4ahOOvm0o9cRKTqDJNDo=", "properties": {"@spider": "usps_collection_boxes", "addr:city": "KEWANEE", "addr:country": "US", "addr:full": "517 STATE HWY W", "addr:postcode": "63860", "addr:state": "MO", "brand": "USPS", "collection_times": "Mo-Sa 10:15", "name": "USPS COLLECTION BOX - PO LOBBY", "ref": "6386000001"}, "type": "Feature"}
{"geometry": {"coordinates": [-89.615092, 36.593541], "type": "Point"}, "id": "LQEV5RRHUv3gpj0NIjGxd4ypqA0=", "properties": {"@spider": "usps_collection_boxes", "addr:city": "LILBOURN", "addr:country": "US", "addr:full": "203 N 3RD ST", "addr:postcode": "63862", "addr:state": "MO", "brand": "USPS", "collection_times": "Mo-Sa 09:30", "name": "USPS COLLECTION BOX - BLUE BOX", "ref": "6386200000"}, "type": "Feature"}
{"geometry": {"coordinates": [-89.615092, 36.593541], "type": "Point"}, "id": "_VtYgjRHD_2voef7cm71WzJCmtI=", "properties": {"@spider": "usps_collection_boxes", "addr:city": "LILBOURN", "addr:country": "US", "addr:full": "203 N 3RD ST", "addr:postcode": "63862", "addr:state": "MO", "brand": "USPS", "collection_times": "Mo-Sa 09:30", "name": "USPS COLLECTION BOX - PO LOBBY", "ref": "6386200001"}, "type": "Feature"}
{"geometry": {"coordinates": [-89.970761, 36.558489], "type": "Point"}, "id": "_zVAGWmeBQrwVFN2xi8T01lS3-M=", "properties": {"@spider": "usps_collection_boxes", "addr:city": "MALDEN", "addr:country": "US", "addr:full": "107 N DOUGLASS ST", "addr:postcode": "63863", "addr:state": "MO", "brand": "USPS", "collection_times": "Mo-Sa 10:30", "name": "USPS COLLECTION BOX - BLUE BOX", "ref": "6386300000"}, "type": "Feature"}
{"geometry": {"coordinates": [-89.970728, 36.55841], "type": "Point"}, "id": "894o6KgBaF1je30knUAx8xGf178=", "properties": {"@spider": "usps_collection_boxes", "addr:city": "MALDEN", "addr:country": "US", "addr:full": "107 N DOUGLASS ST", "addr:postcode": "63863", "addr:state": "MO", "brand": "USPS", "collection_times": "Mo-Sa 10:30", "name": "USPS COLLECTION BOX - PO LOBBY", "ref": "6386300008"}, "type": "Feature"}
{"geometry": {"coordinates": [-89.618599, 36.517851], "type": "Point"}, "id": "oY-GBX4m0URWh6qZkuMr1Tv8NDA=", "properties": {"@spider": "usps_collection_boxes", "addr:city": "MARSTON", "addr:country": "US", "addr:full": "105 W MAIN ST", "addr:postcode": "63866", "addr:state": "MO", "brand": "USPS", "collection_times": "Mo-Sa 09:30", "name": "USPS COLLECTION BOX - BLUE BOX", "ref": "6386600000"}, "type": "Feature"}
{"geometry": {"coordinates": [-89.618599, 36.517851], "type": "Point"}, "id": "h8p0IGV5PIIzycCVWmlCpfgDl_4=", "properties": {"@spider": "usps_collection_boxes", "addr:city": "MARSTON", "addr:country": "US", "addr:full": "105 W MAIN ST", "addr:postcode": "63866", "addr:state": "MO", "brand": "USPS", "collection_times": "Mo-Fr 09:30; Sa 08:30", "name": "USPS COLLECTION BOX - PO LOBBY", "ref": "6386600001"}, "type": "Feature"}
{"geometry": {"coordinates": [-89.526221, 36.586232], "type": "Point"}, "id": "gG-Rkl1AEfuUsKXf-8Ti3YjbA9M=", "properties": {"@spider": "usps_collection_boxes", "addr:city": "NEW MADRID", "addr:country": "US", "addr:full": "450 MILL ST", "addr:postcode": "63869", "addr:state": "MO", "brand": "USPS", "collection_times": "Mo-Sa 10:45", "name": "USPS COLLECTION BOX - BLUE BOX", "ref": "6386900000"}, "type": "Feature"}
{"geometry": {"coordinates": [-89.5435152, 36.58878], "type": "Point"}, "id": "ziCDGp5ffTdtqWigTDtTnw8AxmA=", "properties": {"@spider": "usps_collection_boxes", "addr:city": "NEW MADRID", "addr:country": "US", "addr:full": "601 US HIGHWAY 61", "addr:postcode": "63869", "addr:state": "MO", "brand": "USPS", "collection_times": "Mo-Fr 09:00", "name": "USPS COLLECTION BOX - BLUE BOX", "ref": "6386900003"}, "type": "Feature"}
{"geometry": {"coordinates": [-89.526224, 36.586259], "type": "Point"}, "id": "1k-2twehlJfH4lFXNwz3v5Sks2U=", "properties": {"@spider": "usps_collection_boxes", "addr:city": "NEW MADRID", "addr:country": "US", "addr:full": "450 MILL ST", "addr:postcode": "63869", "addr:state": "MO", "brand": "USPS", "collection_times": "Mo-Fr 10:45; Sa 10:00", "name": "USPS COLLECTION BOX - PO LOBBY", "ref": "6386900005"}, "type": "Feature"}
{"geometry": {"coordinates": [-89.816949, 36.613067], "type": "Point"}, "id": "lB5Rf1fgAB45g-4IUST6x1gzelk=", "properties": {"@spider": "usps_collection_boxes", "addr:city": "PARMA", "addr:country": "US", "addr:full": "205 S BROAD ST", "addr:postcode": "63870", "addr:state": "MO", "brand": "USPS", "collection_times": "Mo-Sa 09:30", "name": "USPS COLLECTION BOX - BLUE BOX", "ref": "6387000000"}, "type": "Feature"}
{"geometry": {"coordinates": [-89.816919, 36.613151], "type": "Point"}, "id": "9I6Jq7tOj3m4_rURlYqa_dyu9ZY=", "properties": {"@spider": "usps_collection_boxes", "addr:city": "PARMA", "addr:country": "US", "addr:full": "205 S BROAD ST", "addr:postcode": "63870", "addr:state": "MO", "brand": "USPS", "collection_times": "Mo-Sa 09:30", "name": "USPS COLLECTION BOX - PO LOBBY", "ref": "6387000001"}, "type": "Feature"}
{"geometry": {"coordinates": [-89.699383, 36.426549], "type": "Point"}, "id": "RR8JicYfCOEtElxaHfMIRnLR7vI=", "properties": {"@spider": "usps_collection_boxes", "addr:city": "PORTAGEVILLE", "addr:country": "US", "addr:full": "305 KING AVE", "addr:postcode": "63873", "addr:state": "MO", "brand": "USPS", "collection_times": "Mo-Sa 12:00", "name": "USPS COLLECTION BOX - BLUE BOX", "ref": "6387300000"}, "type": "Feature"}
{"geometry": {"coordinates": [-89.69935, 36.426466], "type": "Point"}, "id": "FZ31KqpIkPSeGRBvhd_BZJ8U_c4=", "properties": {"@spider": "usps_collection_boxes", "addr:city": "PORTAGEVILLE", "addr:country": "US", "addr:full": "305 KING AVE", "addr:postcode": "63873", "addr:state": "MO", "brand": "USPS", "collection_times": "Mo-Sa 12:00", "name": "USPS COLLECTION BOX - PO LOBBY", "ref": "6387300002"}, "type": "Feature"}
{"geometry": {"coordinates": [-89.81812, 36.552236], "type": "Point"}, "id": "B-8OdkSPKNY2jECDy59VoDUDTcE=", "properties": {"@spider": "usps_collection_boxes", "addr:city": "RISCO", "addr:country": "US", "addr:full": "203 FRONT ST", "addr:postcode": "63874", "addr:state": "MO", "brand": "USPS", "collection_times": "Mo-Sa 09:30", "name": "USPS COLLECTION BOX - BLUE BOX", "ref": "6387400000"}, "type": "Feature"}
{"geometry": {"coordinates": [-89.81812, 36.552236], "type": "Point"}, "id": "1G25Bvg-MtNkjdvP7ew_oyWEMjM=", "properties": {"@spider": "usps_collection_boxes", "addr:city": "RISCO", "addr:country": "US", "addr:full": "203 FRONT ST", "addr:postcode": "63874", "addr:state": "MO", "brand": "USPS", "collection_times": "Mo-Fr 09:30; Sa 08:45", "name": "USPS COLLECTION BOX - PO LOBBY", "ref": "6387400002"}, "type": "Feature"}
{"geometry": {"coordinates": [-90.160648, 36.134104], "type": "Point"}, "id": "vEd0giToP8w1BU75NaXqsigKWHg=", "properties": {"@spider": "usps_collection_boxes", "addr:city": "SENATH", "addr:country": "US", "addr:full": "205 W COMMERCIAL ST", "addr:postcode": "63876", "addr:state": "MO", "brand": "USPS", "collection_times": "Mo-Sa 10:45", "name": "USPS COLLECTION BOX - BLUE BOX", "ref": "6387600000"}, "type": "Feature"}
{"geometry": {"coordinates": [-90.160552, 36.13408], "type": "Point"}, "id": "wr8DILVyv2sUGL-TbyL1FOCYHLM=", "properties": {"@spider": "usps_collection_boxes", "addr:city": "SENATH", "addr:country": "US", "addr:full": "205 W COMMERCIAL ST", "addr:postcode": "63876", "addr:state": "MO", "brand": "USPS", "collection_times": "Mo-Fr 10:45; Sa 09:00", "name": "USPS COLLECTION BOX - PO LOBBY", "ref": "6387600001"}, "type": "Feature"}
{"geometry": {"coordinates": [-90.160552, 36.13408], "type": "Point"}, "id": "WTEgnSVOs_Tj8xuSOXFOWtbvApM=", "properties": {"@spider": "usps_collection_boxes", "addr:city": "SENATH", "addr:country": "US", "addr:full": "205 W COMMERCIAL ST", "addr:postcode": "63876", "addr:state": "MO", "brand": "USPS", "collection_times": "Mo-Fr 10:45; Sa 09:00", "name": "USPS COLLECTION BOX - PO LOBBY", "ref": "6387600002"}, "type": "Feature"}
{"geometry": {"coordinates": [-89.8334636341, 36.084862705], "type": "Point"}, "id": "6uqzAQfJAQkwKwtVQ-fVTDISCJ8=", "properties": {"@spider": "usps_collection_boxes", "addr:city": "STEELE", "addr:country": "US", "addr:full": "301 S 1ST ST", "addr:postcode": "63877", "addr:state": "MO", "brand": "USPS", "collection_times": "Mo-Sa 09:45", "name": "USPS COLLECTION BOX - BLUE BOX", "ref": "6387700000"}, "type": "Feature"}
{"geometry": {"coordinates": [-89.8334636341, 36.084862705], "type": "Point"}, "id": "hPdjhC4JhW3tsXujRcPdp08IB_E=", "properties": {"@spider": "usps_collection_boxes", "addr:city": "STEELE", "addr:country": "US", "addr:full": "301 S 1ST ST", "addr:postcode": "63877", "addr:state": "MO", "brand": "USPS", "collection_times": "Mo-Sa 09:45", "name": "USPS COLLECTION BOX - PO LOBBY", "ref": "6387700006"}, "type": "Feature"}
{"geometry": {"coordinates": [-89.818058, 36.507241], "type": "Point"}, "id": "dBXhZcxUplnMpGgufW_6HMCdF3U=", "properties": {"@spider": "usps_collection_boxes", "addr:city": "TALLAPOOSA", "addr:country": "US", "addr:full": "308 1ST ST", "addr:postcode": "63878", "addr:state": "MO", "brand": "USPS", "collection_times": "Mo-Sa 09:30", "name": "USPS COLLECTION BOX - BLUE BOX", "ref": "6387800000"}, "type": "Feature"}
{"geometry": {"coordinates": [-89.818058, 36.507241], "type": "Point"}, "id": "EUCV-yJSV8ZOTRk5hHLd6cyXwRw=", "properties": {"@spider": "usps_collection_boxes", "addr:city": "TALLAPOOSA", "addr:country": "US", "addr:full": "308 1ST ST", "addr:postcode": "63878", "addr:state": "MO", "brand": "USPS", "collection_times": "Mo-Sa 09:30", "name": "USPS COLLECTION BOX - PO LOBBY", "ref": "6387800001"}, "type": "Feature"}
{"geometry": {"coordinates": [-89.817883, 36.351167], "type": "Point"}, "id": "5t9BOdzG9NPTzD8ZxbJuQfNhJhU=", "properties": {"@spider": "usps_collection_boxes", "addr:city": "WARDELL", "addr:country": "US", "addr:full": "115 W BROAD ST", "addr:postcode": "63879", "addr:state": "MO", "brand": "USPS", "collection_times": "Mo-Sa 10:30", "name": "USPS COLLECTION BOX - BLUE BOX", "ref": "6387900000"}, "type": "Feature"}
{"geometry": {"coordinates": [-89.817802, 36.351141], "type": "Point"}, "id": "YcVvEiAgqnEEOaJXPvX5KmtlPEs=", "properties": {"@spider": "usps_collection_boxes", "addr:city": "WARDELL", "addr:country": "US", "addr:full": "115 W BROAD ST", "addr:postcode": "63879", "addr:state": "MO", "brand": "USPS", "collection_times": "Mo-Fr 10:30; Sa 09:45", "name": "USPS COLLECTION BOX - PO LOBBY", "ref": "6387900001"}, "type": "Feature"}
{"geometry": {"coordinates": [-90.027599, 36.329245], "type": "Point"}, "id": "dO06dtzXmVOu-0xGI6tZsTd78b4=", "properties": {"@spider": "usps_collection_boxes", "addr:city": "WHITE OAK", "addr:country": "US", "addr:full": "23340 STATE HIGHWAY 25", "addr:postcode": "63880", "addr:state": "MO", "brand": "USPS", "collection_times": "Mo-Sa 10:30", "name": "USPS COLLECTION BOX - BLUE BOX", "ref": "6388000000"}, "type": "Feature"}
{"geometry": {"coordinates": [-90.027599, 36.329245], "type": "Point"}, "id": "mJKNHwfslE1HFNsAqzy9LutoXL0=", "properties": {"@spider": "usps_collection_boxes", "addr:city": "WHITE OAK", "addr:country": "US", "addr:full": "23340 STATE HIGHWAY 25", "addr:postcode": "63880", "addr:state": "MO", "brand": "USPS", "collection_times": "Mo-Sa 10:30", "name": "USPS COLLECTION BOX - PO LOBBY", "ref": "6388000001"}, "type": "Feature"}
