{"dataset_attributes": {"@spider": "usps_collection_boxes", "spider:collection_time": "2023-12-10T08:24:07.887270"}, "geometry": {"coordinates": [-90.394566, 36.755708], "type": "Point"}, "id": "tB8y2AXrRX-2HiXtMbUiWHSW4_o=", "properties": {"@spider": "usps_collection_boxes", "addr:city": "POPLAR BLUFF", "addr:country": "US", "addr:full": "430 POPLAR ST", "addr:postcode": "63901", "addr:state": "MO", "amenity": "post_box", "brand": "United States Postal Service", "brand:wikidata": "Q668687", "collection_times": "Mo-Sa 11:00", "name": "USPS COLLECTION BOX - BLUE BOX", "nsi_id": "unitedstatespostalservice-a77078", "operator": "United States Postal Service", "operator:short": "USPS", "operator:type": "public", "operator:wikidata": "Q668687", "ref": "6390100000"}, "type": "Feature"}
{"dataset_attributes": {"@spider": "usps_collection_boxes", "spider:collection_time": "2023-12-10T08:24:07.887270"}, "geometry": {"coordinates": [-90.4057783, 36.758971], "type": "Point"}, "id": "iD2ykjweQRVSLbYc4ngsHDvA0rs=", "properties": {"@spider": "usps_collection_boxes", "addr:city": "POPLAR BLUFF", "addr:country": "US", "addr:full": "1100 LESTER ST", "addr:postcode": "63901", "addr:state": "MO", "amenity": "post_box", "brand": "United States Postal Service", "brand:wikidata": "Q668687", "collection_times": "Mo-Sa 10:00", "name": "USPS COLLECTION BOX - BLUE BOX", "nsi_id": "unitedstatespostalservice-a77078", "operator": "United States Postal Service", "operator:short": "USPS", "operator:type": "public", "operator:wikidata": "Q668687", "ref": "6390100014"}, "type": "Feature"}
{"dataset_attributes": {"@spider": "usps_collection_boxes", "spider:collection_time": "2023-12-10T08:24:07.887270"}, "geometry": {"coordinates": [-90.4057936, 36.758966], "type": "Point"}, "id": "-y7t_wZwcT2o_RXRkZPD-okKR8k=", "properties": {"@spider": "usps_collection_boxes", "addr:city": "POPLAR BLUFF", "addr:country": "US", "addr:full": "1100 LESTER ST", "addr:postcode": "63901", "addr:state": "MO", "amenity": "post_box", "brand": "United States Postal Service", "brand:wikidata": "Q668687", "collection_times": "Mo-Sa 10:00", "name": "USPS COLLECTION BOX - BLUE BOX", "nsi_id": "unitedstatespostalservice-a77078", "operator": "United States Postal Service", "operator:short": "USPS", "operator:type": "public", "operator:wikidata": "Q668687", "ref": "6390100015"}, "type": "Feature"}
{"dataset_attributes": {"@spider": "usps_collection_boxes", "spider:collection_time": "2023-12-10T08:24:07.887270"}, "geometry": {"coordinates": [-90.4123762058, 36.7645626995], "type": "Point"}, "id": "qAZpMoAdGI07FlYhYlzogmsaW58=", "properties": {"@spider": "usps_collection_boxes", "addr:city": "POPLAR BLUFF", "addr:country": "US", "addr:full": "910 N WESTWOOD BLVD", "addr:postcode": "63901", "addr:state": "MO", "amenity": "post_box", "brand": "United States Postal Service", "brand:wikidata": "Q668687", "collection_times": "Mo-Sa 10:00", "name": "USPS COLLECTION BOX - BLUE BOX", "nsi_id": "unitedstatespostalservice-a77078", "operator": "United States Postal Service", "operator:short": "USPS", "operator:type": "public", "operator:wikidata": "Q668687", "ref": "6390100016"}, "type": "Feature"}
{"dataset_attributes": {"@spider": "usps_collection_boxes", "spider:collection_time": "2023-12-10T08:24:07.887270"}, "geometry": {"coordinates": [-90.4220905, 36.778786], "type": "Point"}, "id": "ADGEY7zKzqA_Ae4Pgk_2QH7_YOQ=", "properties": {"@spider": "usps_collection_boxes", "addr:city": "POPLAR BLUFF", "addr:country": "US", "addr:full": "2024 N WESTWOOD BLVD", "addr:postcode": "63901", "addr:state": "MO", "amenity": "post_box", "brand": "United States Postal Service", "brand:wikidata": "Q668687", "collection_times": "Mo-Sa 10:00", "name": "USPS COLLECTION BOX - BLUE BOX", "nsi_id": "unitedstatespostalservice-a77078", "operator": "United States Postal Service", "operator:short": "USPS", "operator:type": "public", "operator:wikidata": "Q668687", "ref": "6390100019"}, "type": "Feature"}
{"dataset_attributes": {"@spider": "usps_collection_boxes", "spider:collection_time": "2023-12-10T08:24:07.887270"}, "geometry": {"coordinates": [-90.4287365, 36.786109], "type": "Point"}, "id": "UJD2emNhmMhANtyfZMbeBlCMMME=", "properties": {"@spider": "usps_collection_boxes", "addr:city": "POPLAR BLUFF", "addr:country": "US", "addr:full": "2770 N WESTWOOD BLVD", "addr:postcode": "63901", "addr:state": "MO", "amenity": "post_box", "brand": "United States Postal Service", "brand:wikidata": "Q668687", "collection_times": "Mo-Sa 10:00", "name": "USPS COLLECTION BOX - BLUE BOX", "nsi_id": "unitedstatespostalservice-a77078", "operator": "United States Postal Service", "operator:short": "USPS", "operator:type": "public", "operator:wikidata": "Q668687", "ref": "6390100024"}, "type": "Feature"}
{"dataset_attributes": {"@spider": "usps_collection_boxes", "spider:collection_time": "2023-12-10T08:24:07.887270"}, "geometry": {"coordinates": [-90.4111199, 36.756091], "type": "Point"}, "id": "_yU7rAPFJsha5kYLcAv7ahmfVWc=", "properties": {"@spider": "usps_collection_boxes", "addr:city": "POPLAR BLUFF", "addr:country": "US", "addr:full": "333 S WESTWOOD BLVD", "addr:postcode": "63901", "addr:state": "MO", "amenity": "post_box", "brand": "United States Postal Service", "brand:wikidata": "Q668687", "collection_times": "Mo-Sa 10:00", "name": "USPS COLLECTION BOX - BLUE BOX", "nsi_id": "unitedstatespostalservice-a77078", "operator": "United States Postal Service", "operator:short": "USPS", "operator:type": "public", "operator:wikidata": "Q668687", "ref": "6390100032"}, "type": "Feature"}
{"dataset_attributes": {"@spider": "usps_collection_boxes", "spider:collection_time": "2023-12-10T08:24:07.887270"}, "geometry": {"coordinates": [-90.394586, 36.755739], "type": "Point"}, "id": "sR237KQYIL5Cl6AlrWxyAf-Wgqw=", "properties": {"@spider": "usps_collection_boxes", "addr:city": "POPLAR BLUFF", "addr:country": "US", "addr:full": "430 POPLAR ST", "addr:postcode": "63901", "addr:state": "MO", "amenity": "post_box", "brand": "United States Postal Service", "brand:wikidata": "Q668687", "collection_times": "Mo-Sa 11:00", "name": "USPS COLLECTION BOX - PO LOBBY", "nsi_id": "unitedstatespostalservice-a77078", "operator": "United States Postal Service", "operator:short": "USPS", "operator:type": "public", "operator:wikidata": "Q668687", "ref": "6390100034"}, "type": "Feature"}
{"dataset_attributes": {"@spider": "usps_collection_boxes", "spider:collection_time": "2023-12-10T08:24:07.887270"}, "geometry": {"coordinates": [-90.4251704, 36.779185], "type": "Point"}, "id": "5Ryvmkv1p3xO9HdWp-6SU0iXXbw=", "properties": {"@spider": "usps_collection_boxes", "addr:city": "POPLAR BLUFF", "addr:country": "US", "addr:full": "2201 N WESTWOOD BLVD", "addr:postcode": "63901", "addr:state": "MO", "amenity": "post_box", "brand": "United States Postal Service", "brand:wikidata": "Q668687", "collection_times": "Mo-Sa 10:00", "name": "USPS COLLECTION BOX - BLUE BOX", "nsi_id": "unitedstatespostalservice-a77078", "operator": "United States Postal Service", "operator:short": "USPS", "operator:type": "public", "operator:wikidata": "Q668687", "ref": "6390100038"}, "type": "Feature"}
{"dataset_attributes": {"@spider": "usps_collection_boxes", "spider:collection_time": "2023-12-10T08:24:07.887270"}, "geometry": {"coordinates": [-90.246719, 36.675592], "type": "Point"}, "id": "QDIE7GWn17kpHET-b1EXpiGMAhI=", "properties": {"@spider": "usps_collection_boxes", "addr:city": "BROSELEY", "addr:country": "US", "addr:full": "779A COUNTY ROAD 639", "addr:postcode": "63932", "addr:state": "MO", "amenity": "post_box", "brand": "United States Postal Service", "brand:wikidata": "Q668687", "collection_times": "Mo-Sa 10:00", "name": "USPS COLLECTION BOX - BLUE BOX", "nsi_id": "unitedstatespostalservice-a77078", "operator": "United States Postal Service", "operator:short": "USPS", "operator:type": "public", "operator:wikidata": "Q668687", "ref": "6393200000"}, "type": "Feature"}
{"dataset_attributes": {"@spider": "usps_collection_boxes", "spider:collection_time": "2023-12-10T08:24:07.887270"}, "geometry": {"coordinates": [-90.246688, 36.675537], "type": "Point"}, "id": "G0-NXFr-jym3NFCyQ5GYRf-2dxY=", "properties": {"@spider": "usps_collection_boxes", "addr:city": "BROSELEY", "addr:country": "US", "addr:full": "779A COUNTY ROAD 639", "addr:postcode": "63932", "addr:state": "MO", "amenity": "post_box", "brand": "United States Postal Service", "brand:wikidata": "Q668687", "collection_times": "Mo-Fr 10:00; Sa 08:45", "name": "USPS COLLECTION BOX - PO LOBBY", "nsi_id": "unitedstatespostalservice-a77078", "operator": "United States Postal Service", "operator:short": "USPS", "operator:type": "public", "operator:wikidata": "Q668687", "ref": "6393200001"}, "type": "Feature"}
{"dataset_attributes": {"@spider": "usps_collection_boxes", "spider:collection_time": "2023-12-10T08:24:07.887270"}, "geometry": {"coordinates": [-90.076328, 36.492408], "type": "Point"}, "id": "9oYdLJAT3NJZiMBPzKh_bb12yXY=", "properties": {"@spider": "usps_collection_boxes", "addr:city": "CAMPBELL", "addr:country": "US", "addr:full": "405 W GRAND AVE", "addr:postcode": "63933", "addr:state": "MO", "amenity": "post_box", "brand": "United States Postal Service", "brand:wikidata": "Q668687", "collection_times": "Mo-Sa 10:00", "name": "USPS COLLECTION BOX - BLUE BOX", "nsi_id": "unitedstatespostalservice-a77078", "operator": "United States Postal Service", "operator:short": "USPS", "operator:type": "public", "operator:wikidata": "Q668687", "ref": "6393300000"}, "type": "Feature"}
{"dataset_attributes": {"@spider": "usps_collection_boxes", "spider:collection_time": "2023-12-10T08:24:07.887270"}, "geometry": {"coordinates": [-90.076352, 36.492427], "type": "Point"}, "id": "O2Hi4Bd8DDIH1al8WI20snVHhDk=", "properties": {"@spider": "usps_collection_boxes", "addr:city": "CAMPBELL", "addr:country": "US", "addr:full": "405 W GRAND AVE", "addr:postcode": "63933", "addr:state": "MO", "amenity": "post_box", "brand": "United States Postal Service", "brand:wikidata": "Q668687", "collection_times": "Mo-Sa 10:00", "name": "USPS COLLECTION BOX - BLUE BOX", "nsi_id": "unitedstatespostalservice-a77078", "operator": "United States Postal Service", "operator:short": "USPS", "operator:type": "public", "operator:wikidata": "Q668687", "ref": "6393300001"}, "type": "Feature"}
{"dataset_attributes": {"@spider": "usps_collection_boxes", "spider:collection_time": "2023-12-10T08:24:07.887270"}, "geometry": {"coordinates": [-90.076352, 36.492427], "type": "Point"}, "id": "Ods8I_xn4YAI0--zMXo5aeLMw2A=", "properties": {"@spider": "usps_collection_boxes", "addr:city": "CAMPBELL", "addr:country": "US", "addr:full": "405 W GRAND AVE", "addr:postcode": "63933", "addr:state": "MO", "amenity": "post_box", "brand": "United States Postal Service", "brand:wikidata": "Q668687", "collection_times": "Mo-Sa 10:00", "name": "USPS COLLECTION BOX - PO LOBBY", "nsi_id": "unitedstatespostalservice-a77078", "operator": "United States Postal Service", "operator:short": "USPS", "operator:type": "public", "operator:wikidata": "Q668687", "ref": "6393300011"}, "type": "Feature"}
{"dataset_attributes": {"@spider": "usps_collection_boxes", "spider:collection_time": "2023-12-10T08:24:07.887270"}, "geometry": {"coordinates": [-90.8287139, 36.617232], "type": "Point"}, "id": "C0gbDtsWHsF8oR9HQxUKd2pJJDs=", "properties": {"@spider": "usps_collection_boxes", "addr:city": "DONIPHAN", "addr:country": "US", "addr:full": "124 W JEFFERSON ST", "addr:postcode": "63935", "addr:state": "MO", "amenity": "post_box", "brand": "United States Postal Service", "brand:wikidata": "Q668687", "collection_times": "Mo-Sa 09:15", "name": "USPS COLLECTION BOX - BLUE BOX", "nsi_id": "unitedstatespostalservice-a77078", "operator": "United States Postal Service", "operator:short": "USPS", "operator:type": "public", "operator:wikidata": "Q668687", "ref": "6393500001"}, "type": "Feature"}
{"dataset_attributes": {"@spider": "usps_collection_boxes", "spider:collection_time": "2023-12-10T08:24:07.887270"}, "geometry": {"coordinates": [-90.8262309, 36.628133], "type": "Point"}, "id": "HbjT2qy8vRY_wevl5J95hUvoIYg=", "properties": {"@spider": "usps_collection_boxes", "addr:city": "DONIPHAN", "addr:country": "US", "addr:full": "1403 HILLCREST PLZ", "addr:postcode": "63935", "addr:state": "MO", "amenity": "post_box", "brand": "United States Postal Service", "brand:wikidata": "Q668687", "collection_times": "Mo-Sa 08:45", "name": "USPS COLLECTION BOX - BLUE BOX", "nsi_id": "unitedstatespostalservice-a77078", "operator": "United States Postal Service", "operator:short": "USPS", "operator:type": "public", "operator:wikidata": "Q668687", "ref": "6393500004"}, "type": "Feature"}
{"dataset_attributes": {"@spider": "usps_collection_boxes", "spider:collection_time": "2023-12-10T08:24:07.887270"}, "geometry": {"coordinates": [-90.8257792, 36.61917], "type": "Point"}, "id": "V12-dVw59-_pvFeW8pkWmcX_LLY=", "properties": {"@spider": "usps_collection_boxes", "addr:city": "DONIPHAN", "addr:country": "US", "addr:full": "303 N GRAND AVE", "addr:postcode": "63935", "addr:state": "MO", "amenity": "post_box", "brand": "United States Postal Service", "brand:wikidata": "Q668687", "collection_times": "Mo-Sa 09:15", "name": "USPS COLLECTION BOX - PO LOBBY", "nsi_id": "unitedstatespostalservice-a77078", "operator": "United States Postal Service", "operator:short": "USPS", "operator:type": "public", "operator:wikidata": "Q668687", "ref": "6393500008"}, "type": "Feature"}
{"dataset_attributes": {"@spider": "usps_collection_boxes", "spider:collection_time": "2023-12-10T08:24:07.887270"}, "geometry": {"coordinates": [-90.8344507, 36.621841], "type": "Point"}, "id": "tZ18ERV-QStfKM8DlJc9x203_0c=", "properties": {"@spider": "usps_collection_boxes", "addr:city": "DONIPHAN", "addr:country": "US", "addr:full": "HC 5 BOX 320", "addr:postcode": "63935", "addr:state": "MO", "amenity": "post_box", "brand": "United States Postal Service", "brand:wikidata": "Q668687", "collection_times": "Mo-Sa 08:45", "name": "USPS COLLECTION BOX - BLUE BOX", "nsi_id": "unitedstatespostalservice-a77078", "operator": "United States Postal Service", "operator:short": "USPS", "operator:type": "public", "operator:wikidata": "Q668687", "ref": "6393500011"}, "type": "Feature"}
{"dataset_attributes": {"@spider": "usps_collection_boxes", "spider:collection_time": "2023-12-10T08:24:07.887270"}, "geometry": {"coordinates": [-90.092264, 36.793291], "type": "Point"}, "id": "6SWeRCuFj3F2aNp9WQ3tAYNp7Ts=", "properties": {"@spider": "usps_collection_boxes", "addr:city": "DUDLEY", "addr:country": "US", "addr:full": "10363 BRENDA ST", "addr:postcode": "63936", "addr:state": "MO", "amenity": "post_box", "brand": "United States Postal Service", "brand:wikidata": "Q668687", "collection_times": "Mo-Sa 09:45", "name": "USPS COLLECTION BOX - BLUE BOX", "nsi_id": "unitedstatespostalservice-a77078", "operator": "United States Postal Service", "operator:short": "USPS", "operator:type": "public", "operator:wikidata": "Q668687", "ref": "6393600000"}, "type": "Feature"}
{"dataset_attributes": {"@spider": "usps_collection_boxes", "spider:collection_time": "2023-12-10T08:24:07.887270"}, "geometry": {"coordinates": [-90.092159, 36.793264], "type": "Point"}, "id": "a6NSZ7oLFH1lqy0tHbKceBW5PKM=", "properties": {"@spider": "usps_collection_boxes", "addr:city": "DUDLEY", "addr:country": "US", "addr:full": "10363 BRENDA ST", "addr:postcode": "63936", "addr:state": "MO", "amenity": "post_box", "brand": "United States Postal Service", "brand:wikidata": "Q668687", "collection_times": "Mo-Fr 09:45; Sa 07:30", "name": "USPS COLLECTION BOX - PO LOBBY", "nsi_id": "unitedstatespostalservice-a77078", "operator": "United States Postal Service", "operator:short": "USPS", "operator:type": "public", "operator:wikidata": "Q668687", "ref": "6393600001"}, "type": "Feature"}
{"dataset_attributes": {"@spider": "usps_collection_boxes", "spider:collection_time": "2023-12-10T08:24:07.887270"}, "geometry": {"coordinates": [-90.746974, 36.934025], "type": "Point"}, "id": "3iSe7o78dbBYnU0ezaCgStmhvm0=", "properties": {"@spider": "usps_collection_boxes", "addr:city": "ELLSINORE", "addr:country": "US", "addr:full": "1 NORTH ST", "addr:postcode": "63937", "addr:state": "MO", "amenity": "post_box", "brand": "United States Postal Service", "brand:wikidata": "Q668687", "collection_times": "Mo-Sa 10:15", "name": "USPS COLLECTION BOX - BLUE BOX", "nsi_id": "unitedstatespostalservice-a77078", "operator": "United States Postal Service", "operator:short": "USPS", "operator:type": "public", "operator:wikidata": "Q668687", "ref": "6393700000"}, "type": "Feature"}
{"dataset_attributes": {"@spider": "usps_collection_boxes", "spider:collection_time": "2023-12-10T08:24:07.887270"}, "geometry": {"coordinates": [-90.747087, 36.934052], "type": "Point"}, "id": "4IUJ5LP4P73zEXah7afhEMufp7E=", "properties": {"@spider": "usps_collection_boxes", "addr:city": "ELLSINORE", "addr:country": "US", "addr:full": "1 NORTH ST", "addr:postcode": "63937", "addr:state": "MO", "amenity": "post_box", "brand": "United States Postal Service", "brand:wikidata": "Q668687", "collection_times": "Mo-Fr 10:15; Sa 09:15", "name": "USPS COLLECTION BOX - PO LOBBY", "nsi_id": "unitedstatespostalservice-a77078", "operator": "United States Postal Service", "operator:short": "USPS", "operator:type": "public", "operator:wikidata": "Q668687", "ref": "6393700002"}, "type": "Feature"}
{"dataset_attributes": {"@spider": "usps_collection_boxes", "spider:collection_time": "2023-12-10T08:24:07.887270"}, "geometry": {"coordinates": [-90.610463, 36.668417], "type": "Point"}, "id": "7mU_aDriaoG8mXL0K7RqMbgdDTw=", "properties": {"@spider": "usps_collection_boxes", "addr:city": "FAIRDEALING", "addr:country": "US", "addr:full": "101 N COUNTY ROAD 160E26", "addr:postcode": "63939", "addr:state": "MO", "amenity": "post_box", "brand": "United States Postal Service", "brand:wikidata": "Q668687", "collection_times": "Mo-Sa 10:15", "name": "USPS COLLECTION BOX - BLUE BOX", "nsi_id": "unitedstatespostalservice-a77078", "operator": "United States Postal Service", "operator:short": "USPS", "operator:type": "public", "operator:wikidata": "Q668687", "ref": "6393900000"}, "type": "Feature"}
{"dataset_attributes": {"@spider": "usps_collection_boxes", "spider:collection_time": "2023-12-10T08:24:07.887270"}, "geometry": {"coordinates": [-90.610351, 36.668444], "type": "Point"}, "id": "uxaqL4wxRSSLV_soFK58PaMt_rE=", "properties": {"@spider": "usps_collection_boxes", "addr:city": "FAIRDEALING", "addr:country": "US", "addr:full": "101 N COUNTY ROAD 160E26", "addr:postcode": "63939", "addr:state": "MO", "amenity": "post_box", "brand": "United States Postal Service", "brand:wikidata": "Q668687", "collection_times": "Mo-Sa 10:15", "name": "USPS COLLECTION BOX - PO LOBBY", "nsi_id": "unitedstatespostalservice-a77078", "operator": "United States Postal Service", "operator:short": "USPS", "operator:type": "public", "operator:wikidata": "Q668687", "ref": "6393900001"}, "type": "Feature"}
{"dataset_attributes": {"@spider": "usps_collection_boxes", "spider:collection_time": "2023-12-10T08:24:07.887270"}, "geometry": {"coordinates": [-90.207002, 36.780925], "type": "Point"}, "id": "cUFOypPn8fN5V9bw2gxqElwXM2Y=", "properties": {"@spider": "usps_collection_boxes", "addr:city": "FISK", "addr:country": "US", "addr:full": "204 LINCOLN AVE", "addr:postcode": "63940", "addr:state": "MO", "amenity": "post_box", "brand": "United States Postal Service", "brand:wikidata": "Q668687", "collection_times": "Mo-Sa 10:00", "name": "USPS COLLECTION BOX - BLUE BOX", "nsi_id": "unitedstatespostalservice-a77078", "operator": "United States Postal Service", "operator:short": "USPS", "operator:type": "public", "operator:wikidata": "Q668687", "ref": "6394000000"}, "type": "Feature"}
{"dataset_attributes": {"@spider": "usps_collection_boxes", "spider:collection_time": "2023-12-10T08:24:07.887270"}, "geometry": {"coordinates": [-90.207037, 36.780843], "type": "Point"}, "id": "CHRz011mixmT-rFYzwH25oEyQto=", "properties": {"@spider": "usps_collection_boxes", "addr:city": "FISK", "addr:country": "US", "addr:full": "204 LINCOLN AVE", "addr:postcode": "63940", "addr:state": "MO", "amenity": "post_box", "brand": "United States Postal Service", "brand:wikidata": "Q668687", "collection_times": "Mo-Fr 10:00; Sa 09:15", "name": "USPS COLLECTION BOX - PO LOBBY", "nsi_id": "unitedstatespostalservice-a77078", "operator": "United States Postal Service", "operator:short": "USPS", "operator:type": "public", "operator:wikidata": "Q668687", "ref": "6394000001"}, "type": "Feature"}
{"dataset_attributes": {"@spider": "usps_collection_boxes", "spider:collection_time": "2023-12-10T08:24:07.887270"}, "geometry": {"coordinates": [-91.160177, 36.951705], "type": "Point"}, "id": "Sg71jLKeWs0mP_IySWuZaGbxhgw=", "properties": {"@spider": "usps_collection_boxes", "addr:city": "FREMONT", "addr:country": "US", "addr:full": "303 3RD ST", "addr:postcode": "63941", "addr:state": "MO", "amenity": "post_box", "brand": "United States Postal Service", "brand:wikidata": "Q668687", "collection_times": "Mo-Sa 09:15", "name": "USPS COLLECTION BOX - BLUE BOX", "nsi_id": "unitedstatespostalservice-a77078", "operator": "United States Postal Service", "operator:short": "USPS", "operator:type": "public", "operator:wikidata": "Q668687", "ref": "6394100000"}, "type": "Feature"}
{"dataset_attributes": {"@spider": "usps_collection_boxes", "spider:collection_time": "2023-12-10T08:24:07.887270"}, "geometry": {"coordinates": [-91.160177, 36.951705], "type": "Point"}, "id": "FK6sJolN4c4ik5soGIIkEptbmMY=", "properties": {"@spider": "usps_collection_boxes", "addr:city": "FREMONT", "addr:country": "US", "addr:full": "303 3RD ST", "addr:postcode": "63941", "addr:state": "MO", "amenity": "post_box", "brand": "United States Postal Service", "brand:wikidata": "Q668687", "collection_times": "Mo-Sa 09:15", "name": "USPS COLLECTION BOX - PO LOBBY", "nsi_id": "unitedstatespostalservice-a77078", "operator": "United States Postal Service", "operator:short": "USPS", "operator:type": "public", "operator:wikidata": "Q668687", "ref": "6394100001"}, "type": "Feature"}
{"dataset_attributes": {"@spider": "usps_collection_boxes", "spider:collection_time": "2023-12-10T08:24:07.887270"}, "geometry": {"coordinates": [-90.821259, 36.828811], "type": "Point"}, "id": "VN1vc3M8ETTbJHx0QdJBKHPrQ2o=", "properties": {"@spider": "usps_collection_boxes", "addr:city": "GRANDIN", "addr:country": "US", "addr:full": "406 5TH ST", "addr:postcode": "63943", "addr:state": "MO", "amenity": "post_box", "brand": "United States Postal Service", "brand:wikidata": "Q668687", "collection_times": "Mo-Sa 09:45", "name": "USPS COLLECTION BOX - BLUE BOX", "nsi_id": "unitedstatespostalservice-a77078", "operator": "United States Postal Service", "operator:short": "USPS", "operator:type": "public", "operator:wikidata": "Q668687", "ref": "6394300000"}, "type": "Feature"}
{"dataset_attributes": {"@spider": "usps_collection_boxes", "spider:collection_time": "2023-12-10T08:24:07.887270"}, "geometry": {"coordinates": [-90.821259, 36.828811], "type": "Point"}, "id": "SUEmccB9YRUvrYAQpcqLW1HCDTc=", "properties": {"@spider": "usps_collection_boxes", "addr:city": "GRANDIN", "addr:country": "US", "addr:full": "406 5TH ST", "addr:postcode": "63943", "addr:state": "MO", "amenity": "post_box", "brand": "United States Postal Service", "brand:wikidata": "Q668687", "collection_times": "Mo-Fr 09:45; Sa 09:30", "name": "USPS COLLECTION BOX - PO LOBBY", "nsi_id": "unitedstatespostalservice-a77078", "operator": "United States Postal Service", "operator:short": "USPS", "operator:type": "public", "operator:wikidata": "Q668687", "ref": "6394300001"}, "type": "Feature"}
{"dataset_attributes": {"@spider": "usps_collection_boxes", "spider:collection_time": "2023-12-10T08:24:07.887270"}, "geometry": {"coordinates": [-90.449254, 37.12537], "type": "Point"}, "id": "XemB3Hg9X45GI2u_ACXUT2bnE6A=", "properties": {"@spider": "usps_collection_boxes", "addr:city": "GREENVILLE", "addr:country": "US", "addr:full": "111 MAIN ST", "addr:postcode": "63944", "addr:state": "MO", "amenity": "post_box", "brand": "United States Postal Service", "brand:wikidata": "Q668687", "collection_times": "Mo-Sa 10:00", "name": "USPS COLLECTION BOX - BLUE BOX", "nsi_id": "unitedstatespostalservice-a77078", "operator": "United States Postal Service", "operator:short": "USPS", "operator:type": "public", "operator:wikidata": "Q668687", "ref": "6394400000"}, "type": "Feature"}
{"dataset_attributes": {"@spider": "usps_collection_boxes", "spider:collection_time": "2023-12-10T08:24:07.887270"}, "geometry": {"coordinates": [-90.449254, 37.12537], "type": "Point"}, "id": "UCsJBae5OOeJplHPFSu9mpBu98Y=", "properties": {"@spider": "usps_collection_boxes", "addr:city": "GREENVILLE", "addr:country": "US", "addr:full": "111 MAIN ST", "addr:postcode": "63944", "addr:state": "MO", "amenity": "post_box", "brand": "United States Postal Service", "brand:wikidata": "Q668687", "collection_times": "Mo-Sa 10:00", "name": "USPS COLLECTION BOX - PO LOBBY", "nsi_id": "unitedstatespostalservice-a77078", "operator": "United States Postal Service", "operator:short": "USPS", "operator:type": "public", "operator:wikidata": "Q668687", "ref": "6394400001"}, "type": "Feature"}
{"dataset_attributes": {"@spider": "usps_collection_boxes", "spider:collection_time": "2023-12-10T08:24:07.887270"}, "geometry": {"coordinates": [-90.472277, 36.663613], "type": "Point"}, "id": "0JOT7Svge89t0J1777KgzUNoXEw=", "properties": {"@spider": "usps_collection_boxes", "addr:city": "HARVIELL", "addr:country": "US", "addr:full": "54 E MAIN ST", "addr:postcode": "63945", "addr:state": "MO", "amenity": "post_box", "brand": "United States Postal Service", "brand:wikidata": "Q668687", "collection_times": "Mo-Sa 10:15", "name": "USPS COLLECTION BOX - BLUE BOX", "nsi_id": "unitedstatespostalservice-a77078", "operator": "United States Postal Service", "operator:short": "USPS", "operator:type": "public", "operator:wikidata": "Q668687", "ref": "6394500000"}, "type": "Feature"}
{"dataset_attributes": {"@spider": "usps_collection_boxes", "spider:collection_time": "2023-12-10T08:24:07.887270"}, "geometry": {"coordinates": [-90.472277, 36.663613], "type": "Point"}, "id": "zV4KOiB_0KzaP_5P_feU14hyvHs=", "properties": {"@spider": "usps_collection_boxes", "addr:city": "HARVIELL", "addr:country": "US", "addr:full": "54 E MAIN ST", "addr:postcode": "63945", "addr:state": "MO", "amenity": "post_box", "brand": "United States Postal Service", "brand:wikidata": "Q668687", "collection_times": "Mo-Sa 10:15", "name": "USPS COLLECTION BOX - PO LOBBY", "nsi_id": "unitedstatespostalservice-a77078", "operator": "United States Postal Service", "operator:short": "USPS", "operator:type": "public", "operator:wikidata": "Q668687", "ref": "6394500001"}, "type": "Feature"}
{"dataset_attributes": {"@spider": "usps_collection_boxes", "spider:collection_time": "2023-12-10T08:24:07.887270"}, "geometry": {"coordinates": [-90.263983, 37.148734], "type": "Point"}, "id": "9WiFyqeUP7zfwwKtNJm_TcoNYAU=", "properties": {"@spider": "usps_collection_boxes", "addr:city": "LOWNDES", "addr:country": "US", "addr:full": "3 STATE ROUTE E", "addr:postcode": "63951", "addr:state": "MO", "amenity": "post_box", "brand": "United States Postal Service", "brand:wikidata": "Q668687", "collection_times": "Mo-Sa 09:30", "name": "USPS COLLECTION BOX - BLUE BOX", "nsi_id": "unitedstatespostalservice-a77078", "operator": "United States Postal Service", "operator:short": "USPS", "operator:type": "public", "operator:wikidata": "Q668687", "ref": "6395100000"}, "type": "Feature"}
{"dataset_attributes": {"@spider": "usps_collection_boxes", "spider:collection_time": "2023-12-10T08:24:07.887270"}, "geometry": {"coordinates": [-90.263983, 37.148734], "type": "Point"}, "id": "QZcYqU9Xv9Ix4BxLCRcSpWdjiT8=", "properties": {"@spider": "usps_collection_boxes", "addr:city": "LOWNDES", "addr:country": "US", "addr:full": "3 STATE ROUTE E", "addr:postcode": "63951", "addr:state": "MO", "amenity": "post_box", "brand": "United States Postal Service", "brand:wikidata": "Q668687", "collection_times": "Mo-Sa 09:30", "name": "USPS COLLECTION BOX - PO LOBBY", "nsi_id": "unitedstatespostalservice-a77078", "operator": "United States Postal Service", "operator:short": "USPS", "operator:type": "public", "operator:wikidata": "Q668687", "ref": "6395100001"}, "type": "Feature"}
{"dataset_attributes": {"@spider": "usps_collection_boxes", "spider:collection_time": "2023-12-10T08:24:07.887270"}, "geometry": {"coordinates": [-90.609092, 36.575741], "type": "Point"}, "id": "ptUsPgcXjPG-9cAG63Tn5a2rqpg=", "properties": {"@spider": "usps_collection_boxes", "addr:city": "NAYLOR", "addr:country": "US", "addr:full": "100 BROAD ST", "addr:postcode": "63953", "addr:state": "MO", "amenity": "post_box", "brand": "United States Postal Service", "brand:wikidata": "Q668687", "collection_times": "Mo-Sa 09:45", "name": "USPS COLLECTION BOX - BLUE BOX", "nsi_id": "unitedstatespostalservice-a77078", "operator": "United States Postal Service", "operator:short": "USPS", "operator:type": "public", "operator:wikidata": "Q668687", "ref": "6395300000"}, "type": "Feature"}
{"dataset_attributes": {"@spider": "usps_collection_boxes", "spider:collection_time": "2023-12-10T08:24:07.887270"}, "geometry": {"coordinates": [-90.609208, 36.575731], "type": "Point"}, "id": "9TauaPpjIeIXzEZ0sDl5hGnaXgg=", "properties": {"@spider": "usps_collection_boxes", "addr:city": "NAYLOR", "addr:country": "US", "addr:full": "100 BROAD ST", "addr:postcode": "63953", "addr:state": "MO", "amenity": "post_box", "brand": "United States Postal Service", "brand:wikidata": "Q668687", "collection_times": "Mo-Sa 09:45", "name": "USPS COLLECTION BOX - PO LOBBY", "nsi_id": "unitedstatespostalservice-a77078", "operator": "United States Postal Service", "operator:short": "USPS", "operator:type": "public", "operator:wikidata": "Q668687", "ref": "6395300001"}, "type": "Feature"}
{"dataset_attributes": {"@spider": "usps_collection_boxes", "spider:collection_time": "2023-12-10T08:24:07.887270"}, "geometry": {"coordinates": [-90.508276, 36.561551], "type": "Point"}, "id": "O677U_IsfDlsRyoM8NarrgGBd-c=", "properties": {"@spider": "usps_collection_boxes", "addr:city": "NEELYVILLE", "addr:country": "US", "addr:full": "407 HART ST", "addr:postcode": "63954", "addr:state": "MO", "amenity": "post_box", "brand": "United States Postal Service", "brand:wikidata": "Q668687", "collection_times": "Mo-Sa 10:00", "name": "USPS COLLECTION BOX - BLUE BOX", "nsi_id": "unitedstatespostalservice-a77078", "operator": "United States Postal Service", "operator:short": "USPS", "operator:type": "public", "operator:wikidata": "Q668687", "ref": "6395400000"}, "type": "Feature"}
{"dataset_attributes": {"@spider": "usps_collection_boxes", "spider:collection_time": "2023-12-10T08:24:07.887270"}, "geometry": {"coordinates": [-90.508182, 36.561522], "type": "Point"}, "id": "sF0K6FQ5ceh4pT7nnkXPGNZ6wLY=", "properties": {"@spider": "usps_collection_boxes", "addr:city": "NEELYVILLE", "addr:country": "US", "addr:full": "407 HART ST", "addr:postcode": "63954", "addr:state": "MO", "amenity": "post_box", "brand": "United States Postal Service", "brand:wikidata": "Q668687", "collection_times": "Mo-Fr 10:00; Sa 09:15", "name": "USPS COLLECTION BOX - PO LOBBY", "nsi_id": "unitedstatespostalservice-a77078", "operator": "United States Postal Service", "operator:short": "USPS", "operator:type": "public", "operator:wikidata": "Q668687", "ref": "6395400002"}, "type": "Feature"}
{"dataset_attributes": {"@spider": "usps_collection_boxes", "spider:collection_time": "2023-12-10T08:24:07.887270"}, "geometry": {"coordinates": [-90.638602, 36.592559], "type": "Point"}, "id": "5eH2kZ3gQ9Lr9rnSzA6wmfzb_Ec=", "properties": {"@spider": "usps_collection_boxes", "addr:city": "OXLY", "addr:country": "US", "addr:full": "150 STATE HIGHWAY 142 E", "addr:postcode": "63955", "addr:state": "MO", "amenity": "post_box", "brand": "United States Postal Service", "brand:wikidata": "Q668687", "collection_times": "Mo-Sa 09:30", "name": "USPS COLLECTION BOX - BLUE BOX", "nsi_id": "unitedstatespostalservice-a77078", "operator": "United States Postal Service", "operator:short": "USPS", "operator:type": "public", "operator:wikidata": "Q668687", "ref": "6395500000"}, "type": "Feature"}
{"dataset_attributes": {"@spider": "usps_collection_boxes", "spider:collection_time": "2023-12-10T08:24:07.887270"}, "geometry": {"coordinates": [-90.551468, 37.188681], "type": "Point"}, "id": "TFfG3yKaP19AlFfcTVLiAwT1l0s=", "properties": {"@spider": "usps_collection_boxes", "addr:city": "PATTERSON", "addr:country": "US", "addr:full": "1234 OLD STATE ROUTE 34", "addr:postcode": "63956", "addr:state": "MO", "amenity": "post_box", "brand": "United States Postal Service", "brand:wikidata": "Q668687", "collection_times": "Mo-Sa 09:45", "name": "USPS COLLECTION BOX - BLUE BOX", "nsi_id": "unitedstatespostalservice-a77078", "operator": "United States Postal Service", "operator:short": "USPS", "operator:type": "public", "operator:wikidata": "Q668687", "ref": "6395600000"}, "type": "Feature"}
{"dataset_attributes": {"@spider": "usps_collection_boxes", "spider:collection_time": "2023-12-10T08:24:07.887270"}, "geometry": {"coordinates": [-90.551468, 37.188681], "type": "Point"}, "id": "oMBWwRwNotxM_QpIAo3J77U19ao=", "properties": {"@spider": "usps_collection_boxes", "addr:city": "PATTERSON", "addr:country": "US", "addr:full": "1234 OLD STATE ROUTE 34", "addr:postcode": "63956", "addr:state": "MO", "amenity": "post_box", "brand": "United States Postal Service", "brand:wikidata": "Q668687", "collection_times": "Mo-Fr 09:45; Sa 08:45", "name": "USPS COLLECTION BOX - PO LOBBY", "nsi_id": "unitedstatespostalservice-a77078", "operator": "United States Postal Service", "operator:short": "USPS", "operator:type": "public", "operator:wikidata": "Q668687", "ref": "6395600001"}, "type": "Feature"}
{"dataset_attributes": {"@spider": "usps_collection_boxes", "spider:collection_time": "2023-12-10T08:24:07.887270"}, "geometry": {"coordinates": [-90.695407, 37.155614], "type": "Point"}, "id": "Ie7gI6DnU1avTucOiMTIQChh4f0=", "properties": {"@spider": "usps_collection_boxes", "addr:city": "PIEDMONT", "addr:country": "US", "addr:full": "125 W GREEN ST", "addr:postcode": "63957", "addr:state": "MO", "amenity": "post_box", "brand": "United States Postal Service", "brand:wikidata": "Q668687", "collection_times": "Mo-Sa 09:15", "name": "USPS COLLECTION BOX - BLUE BOX", "nsi_id": "unitedstatespostalservice-a77078", "operator": "United States Postal Service", "operator:short": "USPS", "operator:type": "public", "operator:wikidata": "Q668687", "ref": "6395700000"}, "type": "Feature"}
{"dataset_attributes": {"@spider": "usps_collection_boxes", "spider:collection_time": "2023-12-10T08:24:07.887270"}, "geometry": {"coordinates": [-90.69534, 37.155609], "type": "Point"}, "id": "sy51USrtJOLu1_aIRv9G_jNr3_E=", "properties": {"@spider": "usps_collection_boxes", "addr:city": "PIEDMONT", "addr:country": "US", "addr:full": "125 W GREEN ST", "addr:postcode": "63957", "addr:state": "MO", "amenity": "post_box", "brand": "United States Postal Service", "brand:wikidata": "Q668687", "collection_times": "Mo-Sa 09:15", "name": "USPS COLLECTION BOX - PO LOBBY", "nsi_id": "unitedstatespostalservice-a77078", "operator": "United States Postal Service", "operator:short": "USPS", "operator:type": "public", "operator:wikidata": "Q668687", "ref": "6395700008"}, "type": "Feature"}
{"dataset_attributes": {"@spider": "usps_collection_boxes", "spider:collection_time": "2023-12-10T08:24:07.887270"}, "geometry": {"coordinates": [-90.158142, 36.950764], "type": "Point"}, "id": "xutDqUv3JVEEUHXGAsrBwwAAUvw=", "properties": {"@spider": "usps_collection_boxes", "addr:city": "PUXICO", "addr:country": "US", "addr:full": "196 N E L HAWKS ST", "addr:postcode": "63960", "addr:state": "MO", "amenity": "post_box", "brand": "United States Postal Service", "brand:wikidata": "Q668687", "collection_times": "Mo-Sa 09:00", "name": "USPS COLLECTION BOX - BLUE BOX", "nsi_id": "unitedstatespostalservice-a77078", "operator": "United States Postal Service", "operator:short": "USPS", "operator:type": "public", "operator:wikidata": "Q668687", "ref": "6396000000"}, "type": "Feature"}
{"dataset_attributes": {"@spider": "usps_collection_boxes", "spider:collection_time": "2023-12-10T08:24:07.887270"}, "geometry": {"coordinates": [-90.15812, 36.950853], "type": "Point"}, "id": "MVBe0oVcx4B-tUTve_DxAQ9OjJo=", "properties": {"@spider": "usps_collection_boxes", "addr:city": "PUXICO", "addr:country": "US", "addr:full": "196 N E L HAWKS ST", "addr:postcode": "63960", "addr:state": "MO", "amenity": "post_box", "brand": "United States Postal Service", "brand:wikidata": "Q668687", "collection_times": "Mo-Sa 09:00", "name": "USPS COLLECTION BOX - PO LOBBY", "nsi_id": "unitedstatespostalservice-a77078", "operator": "United States Postal Service", "operator:short": "USPS", "operator:type": "public", "operator:wikidata": "Q668687", "ref": "6396000001"}, "type": "Feature"}
{"dataset_attributes": {"@spider": "usps_collection_boxes", "spider:collection_time": "2023-12-10T08:24:07.887270"}, "geometry": {"coordinates": [-90.15812, 36.950853], "type": "Point"}, "id": "B3gu-SI95VWdYVySl48iIOTA0dM=", "properties": {"@spider": "usps_collection_boxes", "addr:city": "PUXICO", "addr:country": "US", "addr:full": "196 N E L HAWKS ST", "addr:postcode": "63960", "addr:state": "MO", "amenity": "post_box", "brand": "United States Postal Service", "brand:wikidata": "Q668687", "collection_times": "Mo-Sa 09:00", "name": "USPS COLLECTION BOX - PO LOBBY", "nsi_id": "unitedstatespostalservice-a77078", "operator": "United States Postal Service", "operator:short": "USPS", "operator:type": "public", "operator:wikidata": "Q668687", "ref": "6396000002"}, "type": "Feature"}
{"dataset_attributes": {"@spider": "usps_collection_boxes", "spider:collection_time": "2023-12-10T08:24:07.887270"}, "geometry": {"coordinates": [-90.244318, 36.595941], "type": "Point"}, "id": "l_ORRS31GLPz-UmypX0BMKQIoVU=", "properties": {"@spider": "usps_collection_boxes", "addr:city": "QULIN", "addr:country": "US", "addr:full": "548 D ST", "addr:postcode": "63961", "addr:state": "MO", "amenity": "post_box", "brand": "United States Postal Service", "brand:wikidata": "Q668687", "collection_times": "Mo-Sa 10:15", "name": "USPS COLLECTION BOX - PO LOBBY", "nsi_id": "unitedstatespostalservice-a77078", "operator": "United States Postal Service", "operator:short": "USPS", "operator:type": "public", "operator:wikidata": "Q668687", "ref": "6396100001"}, "type": "Feature"}
{"dataset_attributes": {"@spider": "usps_collection_boxes", "spider:collection_time": "2023-12-10T08:24:07.887270"}, "geometry": {"coordinates": [-90.2526330344, 36.5955270206], "type": "Point"}, "id": "n9wgVCDuw9AceiNcOet65kTnP3U=", "properties": {"@spider": "usps_collection_boxes", "addr:city": "QULIN", "addr:country": "US", "addr:full": "548 D ST", "addr:postcode": "63961", "addr:state": "MO", "amenity": "post_box", "brand": "United States Postal Service", "brand:wikidata": "Q668687", "collection_times": "Mo-Sa 10:15", "name": "USPS COLLECTION BOX - BLUE BOX", "nsi_id": "unitedstatespostalservice-a77078", "operator": "United States Postal Service", "operator:short": "USPS", "operator:type": "public", "operator:wikidata": "Q668687", "ref": "6396100003"}, "type": "Feature"}
{"dataset_attributes": {"@spider": "usps_collection_boxes", "spider:collection_time": "2023-12-10T08:24:07.887270"}, "geometry": {"coordinates": [-90.462335, 37.178415], "type": "Point"}, "id": "ePCTzbXkGNY_l2hqWruN42bzkbU=", "properties": {"@spider": "usps_collection_boxes", "addr:city": "SILVA", "addr:country": "US", "addr:full": "100 MAIN ST", "addr:postcode": "63964", "addr:state": "MO", "amenity": "post_box", "brand": "United States Postal Service", "brand:wikidata": "Q668687", "collection_times": "Mo-Sa 10:00", "name": "USPS COLLECTION BOX - BLUE BOX", "nsi_id": "unitedstatespostalservice-a77078", "operator": "United States Postal Service", "operator:short": "USPS", "operator:type": "public", "operator:wikidata": "Q668687", "ref": "6396400000"}, "type": "Feature"}
{"dataset_attributes": {"@spider": "usps_collection_boxes", "spider:collection_time": "2023-12-10T08:24:07.887270"}, "geometry": {"coordinates": [-90.462335, 37.178415], "type": "Point"}, "id": "syFyOUEOvtUbeL81voZAX6PB-_I=", "properties": {"@spider": "usps_collection_boxes", "addr:city": "SILVA", "addr:country": "US", "addr:full": "100 MAIN ST", "addr:postcode": "63964", "addr:state": "MO", "amenity": "post_box", "brand": "United States Postal Service", "brand:wikidata": "Q668687", "collection_times": "Mo-Fr 10:00; Sa 10:15", "name": "USPS COLLECTION BOX - PO LOBBY", "nsi_id": "unitedstatespostalservice-a77078", "operator": "United States Postal Service", "operator:short": "USPS", "operator:type": "public", "operator:wikidata": "Q668687", "ref": "6396400001"}, "type": "Feature"}
{"dataset_attributes": {"@spider": "usps_collection_boxes", "spider:collection_time": "2023-12-10T08:24:07.887270"}, "geometry": {"coordinates": [-91.014833, 36.995426], "type": "Point"}, "id": "jop6Zcmuf4jeUq1leEP8Z505XoA=", "properties": {"@spider": "usps_collection_boxes", "addr:city": "VAN BUREN", "addr:country": "US", "addr:full": "307 W OLIVER ST", "addr:postcode": "63965", "addr:state": "MO", "amenity": "post_box", "brand": "United States Postal Service", "brand:wikidata": "Q668687", "collection_times": "Mo-Sa 09:30", "name": "USPS COLLECTION BOX - BLUE BOX", "nsi_id": "unitedstatespostalservice-a77078", "operator": "United States Postal Service", "operator:short": "USPS", "operator:type": "public", "operator:wikidata": "Q668687", "ref": "6396500000"}, "type": "Feature"}
{"dataset_attributes": {"@spider": "usps_collection_boxes", "spider:collection_time": "2023-12-10T08:24:07.887270"}, "geometry": {"coordinates": [-91.014734, 36.995452], "type": "Point"}, "id": "Rb5hcqNjf56vq1ZpB_UbIL-zDgI=", "properties": {"@spider": "usps_collection_boxes", "addr:city": "VAN BUREN", "addr:country": "US", "addr:full": "307 W OLIVER ST", "addr:postcode": "63965", "addr:state": "MO", "amenity": "post_box", "brand": "United States Postal Service", "brand:wikidata": "Q668687", "collection_times": "Mo-Sa 09:30", "name": "USPS COLLECTION BOX - PO LOBBY", "nsi_id": "unitedstatespostalservice-a77078", "operator": "United States Postal Service", "operator:short": "USPS", "operator:type": "public", "operator:wikidata": "Q668687", "ref": "6396500002"}, "type": "Feature"}
{"dataset_attributes": {"@spider": "usps_collection_boxes", "spider:collection_time": "2023-12-10T08:24:07.887270"}, "geometry": {"coordinates": [-90.27423, 36.945429], "type": "Point"}, "id": "Zu3Y6oLozkVwMH4FIz6TgI-lSZU=", "properties": {"@spider": "usps_collection_boxes", "addr:city": "WAPPAPELLO", "addr:country": "US", "addr:full": "700 STATE HIGHWAY D", "addr:postcode": "63966", "addr:state": "MO", "amenity": "post_box", "brand": "United States Postal Service", "brand:wikidata": "Q668687", "collection_times": "Mo-Sa 09:00", "name": "USPS COLLECTION BOX - BLUE BOX", "nsi_id": "unitedstatespostalservice-a77078", "operator": "United States Postal Service", "operator:short": "USPS", "operator:type": "public", "operator:wikidata": "Q668687", "ref": "6396600000"}, "type": "Feature"}
{"dataset_attributes": {"@spider": "usps_collection_boxes", "spider:collection_time": "2023-12-10T08:24:07.887270"}, "geometry": {"coordinates": [-90.27423, 36.945429], "type": "Point"}, "id": "AY-uAScvHqaqklrgIXiO51_a8pY=", "properties": {"@spider": "usps_collection_boxes", "addr:city": "WAPPAPELLO", "addr:country": "US", "addr:full": "700 STATE HIGHWAY D", "addr:postcode": "63966", "addr:state": "MO", "amenity": "post_box", "brand": "United States Postal Service", "brand:wikidata": "Q668687", "collection_times": "Mo-Sa 09:00", "name": "USPS COLLECTION BOX - PO LOBBY", "nsi_id": "unitedstatespostalservice-a77078", "operator": "United States Postal Service", "operator:short": "USPS", "operator:type": "public", "operator:wikidata": "Q668687", "ref": "6396600002"}, "type": "Feature"}
{"dataset_attributes": {"@spider": "usps_collection_boxes", "spider:collection_time": "2023-12-10T08:24:07.887270"}, "geometry": {"coordinates": [-90.441051, 36.871072], "type": "Point"}, "id": "HVWnlSV9-GZrhl2EW7JAUIumN-I=", "properties": {"@spider": "usps_collection_boxes", "addr:city": "WILLIAMSVILLE", "addr:country": "US", "addr:full": "100 N HIGHWAY A ST", "addr:postcode": "63967", "addr:state": "MO", "amenity": "post_box", "brand": "United States Postal Service", "brand:wikidata": "Q668687", "collection_times": "Mo-Sa 08:45", "name": "USPS COLLECTION BOX - BLUE BOX", "nsi_id": "unitedstatespostalservice-a77078", "operator": "United States Postal Service", "operator:short": "USPS", "operator:type": "public", "operator:wikidata": "Q668687", "ref": "6396700000"}, "type": "Feature"}
{"dataset_attributes": {"@spider": "usps_collection_boxes", "spider:collection_time": "2023-12-10T08:24:07.887270"}, "geometry": {"coordinates": [-90.441051, 36.871072], "type": "Point"}, "id": "KRy-wNblEBj3nuctap4XciWuSbQ=", "properties": {"@spider": "usps_collection_boxes", "addr:city": "WILLIAMSVILLE", "addr:country": "US", "addr:full": "100 N HIGHWAY A ST", "addr:postcode": "63967", "addr:state": "MO", "amenity": "post_box", "brand": "United States Postal Service", "brand:wikidata": "Q668687", "collection_times": "Mo-Sa 08:45", "name": "USPS COLLECTION BOX - PO LOBBY", "nsi_id": "unitedstatespostalservice-a77078", "operator": "United States Postal Service", "operator:short": "USPS", "operator:type": "public", "operator:wikidata": "Q668687", "ref": "6396700001"}, "type": "Feature"}
