{"geometry": {"coordinates": [-94.6036810269, 39.1043394838], "type": "Point"}, "id": "e8XLzsPCnUSIRCXWQBSxMsr1OVs=", "properties": {"@source_uri": "https://tools.usps.com/UspsToolsRestServices/rest/POLocator/findLocations", "@spider": "usps_collection_boxes", "addr:city": "KANSAS CITY", "addr:country": "US", "addr:postcode": "64101", "addr:state": "MO", "addr:street_address": "1520 W 9TH ST", "amenity": "post_box", "collection_times": "Mo-Fr 15:00; Sa 10:00", "note": "ON 12/24 AND 12/31, THIS BOX MAY BE COLLECTED AS EARLY AS 12 NOON.", "nsi_id": "unitedstatespostalservice-a77078", "operator": "United States Postal Service", "operator:short": "USPS", "operator:type": "public", "operator:wikidata": "Q668687", "ref": "6410100002"}, "type": "Feature"}
{"geometry": {"coordinates": [-94.6048374, 39.094685], "type": "Point"}, "id": "eFjunMMoBdppYkK24WMxO-yGlaM=", "properties": {"@source_uri": "https://tools.usps.com/UspsToolsRestServices/rest/POLocator/findLocations", "@spider": "usps_collection_boxes", "addr:city": "KANSAS CITY", "addr:country": "US", "addr:postcode": "64102", "addr:state": "MO", "addr:street_address": "1600 GENESSEE ST", "amenity": "post_box", "collection_times": "Mo-Fr 15:00; Sa 12:30", "note": "ON 12/24 AND 12/31, THIS BOX MAY BE COLLECTED AS EARLY AS 12 NOON.", "nsi_id": "unitedstatespostalservice-a77078", "operator": "United States Postal Service", "operator:short": "USPS", "operator:type": "public", "operator:wikidata": "Q668687", "ref": "6410200004"}, "type": "Feature"}
{"geometry": {"coordinates": [-94.5870689743, 39.1051720125], "type": "Point"}, "id": "26uH7qvmwLBpZwOf4QvqDZK7ECQ=", "properties": {"@source_uri": "https://tools.usps.com/UspsToolsRestServices/rest/POLocator/findLocations", "@spider": "usps_collection_boxes", "addr:city": "KANSAS CITY", "addr:country": "US", "addr:postcode": "64105", "addr:state": "MO", "addr:street_address": "715 MAY ST", "amenity": "post_box", "collection_times": "Mo-Fr 15:00; Sa 10:00", "note": "ON 12/24 AND 12/31, THIS BOX MAY BE COLLECTED AS EARLY AS 12 NOON.", "nsi_id": "unitedstatespostalservice-a77078", "operator": "United States Postal Service", "operator:short": "USPS", "operator:type": "public", "operator:wikidata": "Q668687", "ref": "6410500033"}, "type": "Feature"}
{"geometry": {"coordinates": [-94.5850890011, 39.1039299821], "type": "Point"}, "id": "Y4hZtvu1pWFYRLh8kRvLDeyyYQI=", "properties": {"@source_uri": "https://tools.usps.com/UspsToolsRestServices/rest/POLocator/findLocations", "@spider": "usps_collection_boxes", "addr:city": "KANSAS CITY", "addr:country": "US", "addr:postcode": "64105", "addr:state": "MO", "addr:street_address": "817 WYANDOTTE ST", "amenity": "post_box", "collection_times": "Mo-Fr 15:00", "note": "ON 12/24 AND 12/31, THIS BOX MAY BE COLLECTED AS EARLY AS 12 NOON.", "nsi_id": "unitedstatespostalservice-a77078", "operator": "United States Postal Service", "operator:short": "USPS", "operator:type": "public", "operator:wikidata": "Q668687", "ref": "6410500045"}, "type": "Feature"}
{"geometry": {"coordinates": [-94.5870300903, 39.1013525668], "type": "Point"}, "id": "HsGsDBa5SNryIJ8ecXaP1q-xNJM=", "properties": {"@source_uri": "https://tools.usps.com/UspsToolsRestServices/rest/POLocator/findLocations", "@spider": "usps_collection_boxes", "addr:city": "KANSAS CITY", "addr:country": "US", "addr:postcode": "64105", "addr:state": "MO", "addr:street_address": "1048 CENTRAL ST", "amenity": "post_box", "collection_times": "Mo-Fr 15:00", "note": "ON 12/24 AND 12/31, THIS BOX MAY BE COLLECTED AS EARLY AS 12 NOON.", "nsi_id": "unitedstatespostalservice-a77078", "operator": "United States Postal Service", "operator:short": "USPS", "operator:type": "public", "operator:wikidata": "Q668687", "ref": "6410500062"}, "type": "Feature"}
{"geometry": {"coordinates": [-94.5842199654, 39.1093229824], "type": "Point"}, "id": "rGltaT2XcoK9oUMcm7sYpGxj66c=", "properties": {"@source_uri": "https://tools.usps.com/UspsToolsRestServices/rest/POLocator/findLocations", "@spider": "usps_collection_boxes", "addr:city": "KANSAS CITY", "addr:country": "US", "addr:postcode": "64105", "addr:state": "MO", "addr:street_address": "309 DELAWARE ST", "amenity": "post_box", "collection_times": "Mo-Fr 15:00; Sa 10:00", "note": "ON 12/24 AND 12/31, THIS BOX MAY BE COLLECTED AS EARLY AS 12 NOON.", "nsi_id": "unitedstatespostalservice-a77078", "operator": "United States Postal Service", "operator:short": "USPS", "operator:type": "public", "operator:wikidata": "Q668687", "ref": "6410500065"}, "type": "Feature"}
{"geometry": {"coordinates": [-94.5904430256, 39.0989119881], "type": "Point"}, "id": "NcCK2LlRoNPt5pQ3BAz_YO4R-XI=", "properties": {"@source_uri": "https://tools.usps.com/UspsToolsRestServices/rest/POLocator/findLocations", "@spider": "usps_collection_boxes", "addr:city": "KANSAS CITY", "addr:country": "US", "addr:postcode": "64105", "addr:state": "MO", "addr:street_address": "1220 WASHINGTON ST", "amenity": "post_box", "collection_times": "Mo-Fr 15:00; Sa 10:00", "note": "ON 12/24 AND 12/31, THIS BOX MAY BE COLLECTED AS EARLY AS 12 NOON.", "nsi_id": "unitedstatespostalservice-a77078", "operator": "United States Postal Service", "operator:short": "USPS", "operator:type": "public", "operator:wikidata": "Q668687", "ref": "6410500084"}, "type": "Feature"}
{"geometry": {"coordinates": [-94.5769282702, 39.0983669324], "type": "Point"}, "id": "2Rm8QyQp-Ky0JFYFP0LdeRfUA7w=", "properties": {"@source_uri": "https://tools.usps.com/UspsToolsRestServices/rest/POLocator/findLocations", "@spider": "usps_collection_boxes", "addr:city": "KANSAS CITY", "addr:country": "US", "addr:postcode": "64106", "addr:state": "MO", "addr:street_address": "515 E 13TH ST", "amenity": "post_box", "collection_times": "Mo-Fr 13:30; Sa 10:00", "note": "ON 12/24 AND 12/31, THIS BOX MAY BE COLLECTED AS EARLY AS 12 NOON.", "nsi_id": "unitedstatespostalservice-a77078", "operator": "United States Postal Service", "operator:short": "USPS", "operator:type": "public", "operator:wikidata": "Q668687", "ref": "6410600089"}, "type": "Feature"}
{"geometry": {"coordinates": [-94.5760979851, 39.098931015], "type": "Point"}, "id": "jA0slmSLWn374u59QKtHnCAw8XU=", "properties": {"@source_uri": "https://tools.usps.com/UspsToolsRestServices/rest/POLocator/findLocations", "@spider": "usps_collection_boxes", "addr:city": "KANSAS CITY", "addr:country": "US", "addr:postcode": "64106", "addr:state": "MO", "addr:street_address": "601 E 12TH ST", "amenity": "post_box", "collection_times": "Mo-Fr 15:00", "indoor": "yes", "note": "ON 12/24 AND 12/31, THIS BOX MAY BE COLLECTED AS EARLY AS 12 NOON.", "nsi_id": "unitedstatespostalservice-a77078", "operator": "United States Postal Service", "operator:short": "USPS", "operator:type": "public", "operator:wikidata": "Q668687", "ref": "6410600097"}, "type": "Feature"}
{"geometry": {"coordinates": [-94.5698160001, 39.1090480141], "type": "Point"}, "id": "Nnwj2ldXNh9m6p7beVWb6xwUsv8=", "properties": {"@source_uri": "https://tools.usps.com/UspsToolsRestServices/rest/POLocator/findLocations", "@spider": "usps_collection_boxes", "addr:city": "KANSAS CITY", "addr:country": "US", "addr:postcode": "64106", "addr:state": "MO", "addr:street_address": "545 TROOST AVE", "amenity": "post_box", "collection_times": "Mo-Fr 09:00; Sa 10:00", "nsi_id": "unitedstatespostalservice-a77078", "operator": "United States Postal Service", "operator:short": "USPS", "operator:type": "public", "operator:wikidata": "Q668687", "ref": "6410600102"}, "type": "Feature"}
{"geometry": {"coordinates": [-94.5812849582, 39.1000829819], "type": "Point"}, "id": "91gabNFZEnpdqaVbVPqhhiasQQ0=", "properties": {"@source_uri": "https://tools.usps.com/UspsToolsRestServices/rest/POLocator/findLocations", "@spider": "usps_collection_boxes", "addr:city": "KANSAS CITY", "addr:country": "US", "addr:postcode": "64106", "addr:state": "MO", "addr:street_address": "1150 GRAND BLVD", "amenity": "post_box", "collection_times": "Mo-Fr 15:00; Sa 10:00", "note": "ON 12/24 AND 12/31, THIS BOX MAY BE COLLECTED AS EARLY AS 12 NOON.", "nsi_id": "unitedstatespostalservice-a77078", "operator": "United States Postal Service", "operator:short": "USPS", "operator:type": "public", "operator:wikidata": "Q668687", "ref": "6410600103"}, "type": "Feature"}
{"geometry": {"coordinates": [-94.5760979851, 39.098931015], "type": "Point"}, "id": "n3GX0OrZzOXciXcmv_7f5MsZu0s=", "properties": {"@source_uri": "https://tools.usps.com/UspsToolsRestServices/rest/POLocator/findLocations", "@spider": "usps_collection_boxes", "addr:city": "KANSAS CITY", "addr:country": "US", "addr:postcode": "64106", "addr:state": "MO", "addr:street_address": "601 E 12TH ST", "amenity": "post_box", "collection_times": "Mo-Fr 16:15", "indoor": "yes", "note": "ON 12/24 AND 12/31, THIS BOX MAY BE COLLECTED AS EARLY AS 12 NOON.", "nsi_id": "unitedstatespostalservice-a77078", "operator": "United States Postal Service", "operator:short": "USPS", "operator:type": "public", "operator:wikidata": "Q668687", "ref": "6410600106"}, "type": "Feature"}
{"geometry": {"coordinates": [-94.58067, 39.088985], "type": "Point"}, "id": "Gaxi5xFMNEtf_lKRf3Q2BmDdZM4=", "properties": {"@source_uri": "https://tools.usps.com/UspsToolsRestServices/rest/POLocator/findLocations", "@spider": "usps_collection_boxes", "addr:city": "KANSAS CITY", "addr:country": "US", "addr:postcode": "64108", "addr:state": "MO", "addr:street_address": "834 SOUTHWEST BLVD.", "amenity": "post_box", "collection_times": "Mo-Fr 09:00; Sa 10:00", "nsi_id": "unitedstatespostalservice-a77078", "operator": "United States Postal Service", "operator:short": "USPS", "operator:type": "public", "operator:wikidata": "Q668687", "ref": "6410800003"}, "type": "Feature"}
{"geometry": {"coordinates": [-94.5816749682, 39.0914269905], "type": "Point"}, "id": "VZTVYXs4LONzGWLo17akgSrWps4=", "properties": {"@source_uri": "https://tools.usps.com/UspsToolsRestServices/rest/POLocator/findLocations", "@spider": "usps_collection_boxes", "addr:city": "KANSAS CITY", "addr:country": "US", "addr:postcode": "64108", "addr:state": "MO", "addr:street_address": "1800 GRAND BLVD", "amenity": "post_box", "collection_times": "Mo-Fr 13:30; Sa 10:30", "note": "ON 12/24 AND 12/31, THIS BOX MAY BE COLLECTED AS EARLY AS 12 NOON.", "nsi_id": "unitedstatespostalservice-a77078", "operator": "United States Postal Service", "operator:short": "USPS", "operator:type": "public", "operator:wikidata": "Q668687", "ref": "6410800006"}, "type": "Feature"}
{"geometry": {"coordinates": [-94.5734420114, 39.089575009], "type": "Point"}, "id": "OF5gTzEP3H2vONJwopSXuFB_Vnk=", "properties": {"@source_uri": "https://tools.usps.com/UspsToolsRestServices/rest/POLocator/findLocations", "@spider": "usps_collection_boxes", "addr:city": "KANSAS CITY", "addr:country": "US", "addr:postcode": "64108", "addr:state": "MO", "addr:street_address": "819 E 19TH ST", "amenity": "post_box", "collection_times": "Mo-Fr 15:00", "note": "ON 12/24 AND 12/31, THIS BOX MAY BE COLLECTED AS EARLY AS 12 NOON.", "nsi_id": "unitedstatespostalservice-a77078", "operator": "United States Postal Service", "operator:short": "USPS", "operator:type": "public", "operator:wikidata": "Q668687", "ref": "6410800007"}, "type": "Feature"}
{"geometry": {"coordinates": [-94.58067, 39.088985], "type": "Point"}, "id": "lddo5D5emrN9Bdx6qQA-XD2CsGk=", "properties": {"@source_uri": "https://tools.usps.com/UspsToolsRestServices/rest/POLocator/findLocations", "@spider": "usps_collection_boxes", "addr:city": "KANSAS CITY", "addr:country": "US", "addr:postcode": "64108", "addr:state": "MO", "addr:street_address": "1800 WYANDOTTE ST", "amenity": "post_box", "collection_times": "Mo-Fr 15:00; Sa 10:30", "note": "ON 12/24 AND 12/31, THIS BOX MAY BE COLLECTED AS EARLY AS 12 NOON.", "nsi_id": "unitedstatespostalservice-a77078", "operator": "United States Postal Service", "operator:short": "USPS", "operator:type": "public", "operator:wikidata": "Q668687", "ref": "6410800021"}, "type": "Feature"}
{"geometry": {"coordinates": [-94.58067, 39.088985], "type": "Point"}, "id": "3Xdwt1KZqFMMnzbYzdj02DqEaVQ=", "properties": {"@source_uri": "https://tools.usps.com/UspsToolsRestServices/rest/POLocator/findLocations", "@spider": "usps_collection_boxes", "addr:city": "KANSAS CITY", "addr:country": "US", "addr:postcode": "64108", "addr:state": "MO", "addr:street_address": "1828 WALNUT ST", "amenity": "post_box", "collection_times": "Mo-Fr 15:00; Sa 10:00", "note": "ON 12/24 AND 12/31, THIS BOX MAY BE COLLECTED AS EARLY AS 12 NOON.", "nsi_id": "unitedstatespostalservice-a77078", "operator": "United States Postal Service", "operator:short": "USPS", "operator:type": "public", "operator:wikidata": "Q668687", "ref": "6410800067"}, "type": "Feature"}
{"geometry": {"coordinates": [-94.58067, 39.088985], "type": "Point"}, "id": "mIFK9-5zBBeA6Vm4gad-vIihW4E=", "properties": {"@source_uri": "https://tools.usps.com/UspsToolsRestServices/rest/POLocator/findLocations", "@spider": "usps_collection_boxes", "addr:city": "KANSAS CITY", "addr:country": "US", "addr:postcode": "64108", "addr:state": "MO", "addr:street_address": "1801 BALTIMORE AVE", "amenity": "post_box", "collection_times": "Mo-Fr 15:00", "note": "ON 12/24 AND 12/31, THIS BOX MAY BE COLLECTED AS EARLY AS 12 NOON.", "nsi_id": "unitedstatespostalservice-a77078", "operator": "United States Postal Service", "operator:short": "USPS", "operator:type": "public", "operator:wikidata": "Q668687", "ref": "6410800072"}, "type": "Feature"}
{"geometry": {"coordinates": [-94.5800539919, 39.0828179797], "type": "Point"}, "id": "CTcMmcA4vHD-sweG_vf4U08wmEY=", "properties": {"@source_uri": "https://tools.usps.com/UspsToolsRestServices/rest/POLocator/findLocations", "@spider": "usps_collection_boxes", "addr:city": "KANSAS CITY", "addr:country": "US", "addr:postcode": "64108", "addr:state": "MO", "addr:street_address": "2440 PERSHING RD", "amenity": "post_box", "collection_times": "Mo-Fr 15:00", "note": "ON 12/24 AND 12/31, THIS BOX MAY BE COLLECTED AS EARLY AS 12 NOON.", "nsi_id": "unitedstatespostalservice-a77078", "operator": "United States Postal Service", "operator:short": "USPS", "operator:type": "public", "operator:wikidata": "Q668687", "ref": "6410800111"}, "type": "Feature"}
{"geometry": {"coordinates": [-94.5856820208, 39.0851600091], "type": "Point"}, "id": "XkiQPNFYHs6ND5GZIJcftGUMaWg=", "properties": {"@source_uri": "https://tools.usps.com/UspsToolsRestServices/rest/POLocator/findLocations", "@spider": "usps_collection_boxes", "addr:city": "KANSAS CITY", "addr:country": "US", "addr:postcode": "64108", "addr:state": "MO", "addr:street_address": "30 W PERSHING RD", "amenity": "post_box", "collection_times": "Mo-Fr 16:30; Sa 15:30", "indoor": "yes", "note": "ON 12/24 AND 12/31, THIS BOX MAY BE COLLECTED AS EARLY AS 12 NOON.", "nsi_id": "unitedstatespostalservice-a77078", "operator": "United States Postal Service", "operator:short": "USPS", "operator:type": "public", "operator:wikidata": "Q668687", "ref": "6410800114"}, "type": "Feature"}
{"geometry": {"coordinates": [-94.5766970397, 39.0786489887], "type": "Point"}, "id": "I2tQi0TDZHkd_1O9cw2zIIXRg3k=", "properties": {"@source_uri": "https://tools.usps.com/UspsToolsRestServices/rest/POLocator/findLocations", "@spider": "usps_collection_boxes", "addr:city": "KANSAS CITY", "addr:country": "US", "addr:postcode": "64108", "addr:state": "MO", "addr:street_address": "625 E 26TH ST", "amenity": "post_box", "collection_times": "Mo-Fr 15:00", "note": "ON 12/24 AND 12/31, THIS BOX MAY BE COLLECTED AS EARLY AS 12 NOON.", "nsi_id": "unitedstatespostalservice-a77078", "operator": "United States Postal Service", "operator:short": "USPS", "operator:type": "public", "operator:wikidata": "Q668687", "ref": "6410800118"}, "type": "Feature"}
{"geometry": {"coordinates": [-94.5856820208, 39.0851600091], "type": "Point"}, "id": "aMX0UNBuwIbSAArIPSSLBKzIN5A=", "properties": {"@source_uri": "https://tools.usps.com/UspsToolsRestServices/rest/POLocator/findLocations", "@spider": "usps_collection_boxes", "addr:city": "KANSAS CITY", "addr:country": "US", "addr:postcode": "64108", "addr:state": "MO", "addr:street_address": "30 W PERSHING RD", "amenity": "post_box", "collection_times": "Mo-Fr 16:30; Sa 15:30", "indoor": "yes", "note": "ON 12/24 AND 12/31, THIS BOX MAY BE COLLECTED AS EARLY AS 12 NOON.", "nsi_id": "unitedstatespostalservice-a77078", "operator": "United States Postal Service", "operator:short": "USPS", "operator:type": "public", "operator:wikidata": "Q668687", "ref": "6410800123"}, "type": "Feature"}
{"geometry": {"coordinates": [-94.5836032, 39.0839827], "type": "Point"}, "id": "8ovOKEgZEn-SUR5sDhudpgAjVnc=", "properties": {"@source_uri": "https://tools.usps.com/UspsToolsRestServices/rest/POLocator/findLocations", "@spider": "usps_collection_boxes", "addr:city": "KANSAS CITY", "addr:country": "US", "addr:postcode": "64108", "addr:state": "MO", "addr:street_address": "30 W PERSHING RD", "amenity": "post_box", "collection_times": "Mo-Sa 17:00", "note": "ON 12/24 AND 12/31, THIS BOX MAY BE COLLECTED AS EARLY AS 12 NOON.", "nsi_id": "unitedstatespostalservice-a77078", "operator": "United States Postal Service", "operator:short": "USPS", "operator:type": "public", "operator:wikidata": "Q668687", "ref": "6410800128"}, "type": "Feature"}
{"geometry": {"coordinates": [-94.585506001, 39.085269016], "type": "Point"}, "id": "JKCO83y2CghAkAu_KdVdjDbJIEw=", "properties": {"@source_uri": "https://tools.usps.com/UspsToolsRestServices/rest/POLocator/findLocations", "@spider": "usps_collection_boxes", "addr:city": "KANSAS CITY", "addr:country": "US", "addr:postcode": "64108", "addr:state": "MO", "addr:street_address": "30 W PERSHING RD STE 112", "amenity": "post_box", "collection_times": "Mo-Fr 17:30; Sa 15:45", "indoor": "yes", "note": "ON 12/24 AND 12/31, THIS BOX MAY BE COLLECTED AS EARLY AS 12 NOON.", "nsi_id": "unitedstatespostalservice-a77078", "operator": "United States Postal Service", "operator:short": "USPS", "operator:type": "public", "operator:wikidata": "Q668687", "ref": "6410800135"}, "type": "Feature"}
{"geometry": {"coordinates": [-94.5716698991, 39.0415999629], "type": "Point"}, "id": "Cu_Ar6R5uflw4PNx-J_xl2brCaY=", "properties": {"@source_uri": "https://tools.usps.com/UspsToolsRestServices/rest/POLocator/findLocations", "@spider": "usps_collection_boxes", "addr:city": "KANSAS CITY", "addr:country": "US", "addr:postcode": "64110", "addr:state": "MO", "addr:street_address": "1201 EMANUEL CLEAVER II BLVD", "amenity": "post_box", "collection_times": "Mo-Sa 12:30", "note": "ON 12/24 AND 12/31, THIS BOX MAY BE COLLECTED AS EARLY AS 12 NOON.", "nsi_id": "unitedstatespostalservice-a77078", "operator": "United States Postal Service", "operator:short": "USPS", "operator:type": "public", "operator:wikidata": "Q668687", "ref": "6411000012"}, "type": "Feature"}
{"geometry": {"coordinates": [-94.5762485, 39.013233], "type": "Point"}, "id": "qJcolc_-WxplUoLjFlgS_O87OD8=", "properties": {"@source_uri": "https://tools.usps.com/UspsToolsRestServices/rest/POLocator/findLocations", "@spider": "usps_collection_boxes", "addr:city": "KANSAS CITY", "addr:country": "US", "addr:postcode": "64110", "addr:state": "MO", "addr:street_address": "1015 E 63RD ST", "amenity": "post_box", "collection_times": "Mo-Fr 15:00; Sa 12:15", "note": "ON 12/24 AND 12/31, THIS BOX MAY BE COLLECTED AS EARLY AS 12 NOON.", "nsi_id": "unitedstatespostalservice-a77078", "operator": "United States Postal Service", "operator:short": "USPS", "operator:type": "public", "operator:wikidata": "Q668687", "ref": "6411000015"}, "type": "Feature"}
{"geometry": {"coordinates": [-94.5670083, 39.01394], "type": "Point"}, "id": "zpm1CCyhKCNOccxP7j45Ev5fmD4=", "properties": {"@source_uri": "https://tools.usps.com/UspsToolsRestServices/rest/POLocator/findLocations", "@spider": "usps_collection_boxes", "addr:city": "KANSAS CITY", "addr:country": "US", "addr:postcode": "64110", "addr:state": "MO", "addr:street_address": "1616 E 63RD ST", "amenity": "post_box", "collection_times": "Mo-Fr 15:00; Sa 12:15", "note": "ON 12/24 AND 12/31, THIS BOX MAY BE COLLECTED AS EARLY AS 12 NOON.", "nsi_id": "unitedstatespostalservice-a77078", "operator": "United States Postal Service", "operator:short": "USPS", "operator:type": "public", "operator:wikidata": "Q668687", "ref": "6411000023"}, "type": "Feature"}
{"geometry": {"coordinates": [-94.5808582, 39.013603], "type": "Point"}, "id": "IRYcOKoe6H-J03q6Ay6Xi7iGQh4=", "properties": {"@source_uri": "https://tools.usps.com/UspsToolsRestServices/rest/POLocator/findLocations", "@spider": "usps_collection_boxes", "addr:city": "KANSAS CITY", "addr:country": "US", "addr:postcode": "64110", "addr:state": "MO", "addr:street_address": "616 E 63RD ST", "amenity": "post_box", "collection_times": "Mo-Fr 15:00; Sa 12:15", "note": "ON 12/24 AND 12/31, THIS BOX MAY BE COLLECTED AS EARLY AS 12 NOON.", "nsi_id": "unitedstatespostalservice-a77078", "operator": "United States Postal Service", "operator:short": "USPS", "operator:type": "public", "operator:wikidata": "Q668687", "ref": "6411000050"}, "type": "Feature"}
{"geometry": {"coordinates": [-94.5886629608, 39.0636180151], "type": "Point"}, "id": "0Cy4ppixDObPKLmnUX15YqxfJl8=", "properties": {"@source_uri": "https://tools.usps.com/UspsToolsRestServices/rest/POLocator/findLocations", "@spider": "usps_collection_boxes", "addr:city": "KANSAS CITY", "addr:country": "US", "addr:postcode": "64111", "addr:state": "MO", "addr:street_address": "211 W ARMOUR BLVD", "amenity": "post_box", "collection_times": "Mo-Fr 14:50; Sa 10:00", "note": "ON 12/24 AND 12/31, THIS BOX MAY BE COLLECTED AS EARLY AS 12 NOON.", "nsi_id": "unitedstatespostalservice-a77078", "operator": "United States Postal Service", "operator:short": "USPS", "operator:type": "public", "operator:wikidata": "Q668687", "ref": "6411100006"}, "type": "Feature"}
{"geometry": {"coordinates": [-94.598269395, 39.050078513], "type": "Point"}, "id": "0xEcFc_OIUEPQDiYL9Zj3YmKDvc=", "properties": {"@source_uri": "https://tools.usps.com/UspsToolsRestServices/rest/POLocator/findLocations", "@spider": "usps_collection_boxes", "addr:city": "KANSAS CITY", "addr:country": "US", "addr:postcode": "64111", "addr:state": "MO", "addr:street_address": "1002 WESTPORT RD", "amenity": "post_box", "collection_times": "Mo-Fr 15:00; Sa 10:30", "note": "ON 12/24 AND 12/31, THIS BOX MAY BE COLLECTED AS EARLY AS 12 NOON.", "nsi_id": "unitedstatespostalservice-a77078", "operator": "United States Postal Service", "operator:short": "USPS", "operator:type": "public", "operator:wikidata": "Q668687", "ref": "6411100022"}, "type": "Feature"}
{"geometry": {"coordinates": [-94.590044584, 39.068669117], "type": "Point"}, "id": "rHs4c2hWaENrLehN_fsu0r6tlhE=", "properties": {"@source_uri": "https://tools.usps.com/UspsToolsRestServices/rest/POLocator/findLocations", "@spider": "usps_collection_boxes", "addr:city": "KANSAS CITY", "addr:country": "US", "addr:postcode": "64111", "addr:state": "MO", "addr:street_address": "3217 BROADWAY ST", "amenity": "post_box", "collection_times": "Mo-Fr 14:50", "note": "ON 12/24 AND 12/31, THIS BOX MAY BE COLLECTED AS EARLY AS 12 NOON.", "nsi_id": "unitedstatespostalservice-a77078", "operator": "United States Postal Service", "operator:short": "USPS", "operator:type": "public", "operator:wikidata": "Q668687", "ref": "6411100025"}, "type": "Feature"}
{"geometry": {"coordinates": [-94.591503001, 39.053549002], "type": "Point"}, "id": "jxVsFWMmFDZJKRgZkZMX7-whriw=", "properties": {"@source_uri": "https://tools.usps.com/UspsToolsRestServices/rest/POLocator/findLocations", "@spider": "usps_collection_boxes", "addr:city": "KANSAS CITY", "addr:country": "US", "addr:postcode": "64111", "addr:state": "MO", "addr:street_address": "4049 PENNSYLVANIA AVE", "amenity": "post_box", "collection_times": "Mo-Fr 15:00", "note": "ON 12/24 AND 12/31, THIS BOX MAY BE COLLECTED AS EARLY AS 12 NOON.", "nsi_id": "unitedstatespostalservice-a77078", "operator": "United States Postal Service", "operator:short": "USPS", "operator:type": "public", "operator:wikidata": "Q668687", "ref": "6411100051"}, "type": "Feature"}
{"geometry": {"coordinates": [-94.603810926, 39.067696057], "type": "Point"}, "id": "wiZsEB6ZuSqP36FS-MSgeWTf6o0=", "properties": {"@source_uri": "https://tools.usps.com/UspsToolsRestServices/rest/POLocator/findLocations", "@spider": "usps_collection_boxes", "addr:city": "KANSAS CITY", "addr:country": "US", "addr:postcode": "64111", "addr:state": "MO", "addr:street_address": "3269 ROANOKE RD", "amenity": "post_box", "collection_times": "Mo-Fr 15:00", "note": "ON 12/24 AND 12/31, THIS BOX MAY BE COLLECTED AS EARLY AS 12 NOON.", "nsi_id": "unitedstatespostalservice-a77078", "operator": "United States Postal Service", "operator:short": "USPS", "operator:type": "public", "operator:wikidata": "Q668687", "ref": "6411100065"}, "type": "Feature"}
{"geometry": {"coordinates": [-94.5917595, 39.046923], "type": "Point"}, "id": "8E114HlAmMqPdmI6R-bqbrJ0yPA=", "properties": {"@source_uri": "https://tools.usps.com/UspsToolsRestServices/rest/POLocator/findLocations", "@spider": "usps_collection_boxes", "addr:city": "KANSAS CITY", "addr:country": "US", "addr:postcode": "64111", "addr:state": "MO", "addr:street_address": "4400 BROADWAY ST", "amenity": "post_box", "collection_times": "Mo-Fr 15:00; Sa 10:00", "note": "ON 12/24 AND 12/31, THIS BOX MAY BE COLLECTED AS EARLY AS 12 NOON.", "nsi_id": "unitedstatespostalservice-a77078", "operator": "United States Postal Service", "operator:short": "USPS", "operator:type": "public", "operator:wikidata": "Q668687", "ref": "6411100068"}, "type": "Feature"}
{"geometry": {"coordinates": [-94.589746992, 39.04740402], "type": "Point"}, "id": "68tHmmP3Ir_Jlz8Daku2FY_0t1I=", "properties": {"@source_uri": "https://tools.usps.com/UspsToolsRestServices/rest/POLocator/findLocations", "@spider": "usps_collection_boxes", "addr:city": "KANSAS CITY", "addr:country": "US", "addr:postcode": "64111", "addr:state": "MO", "addr:street_address": "4401 WORNALL RD", "amenity": "post_box", "collection_times": "Mo-Fr 15:00; Sa 10:00", "note": "ON 12/24 AND 12/31, THIS BOX MAY BE COLLECTED AS EARLY AS 12 NOON.", "nsi_id": "unitedstatespostalservice-a77078", "operator": "United States Postal Service", "operator:short": "USPS", "operator:type": "public", "operator:wikidata": "Q668687", "ref": "6411100073"}, "type": "Feature"}
{"geometry": {"coordinates": [-94.588649628, 39.067528953], "type": "Point"}, "id": "9qJKyugxn_eQbtcaibiPYHJgjjE=", "properties": {"@source_uri": "https://tools.usps.com/UspsToolsRestServices/rest/POLocator/findLocations", "@spider": "usps_collection_boxes", "addr:city": "KANSAS CITY", "addr:country": "US", "addr:postcode": "64111", "addr:state": "MO", "addr:street_address": "207 W LINWOOD BLVD", "amenity": "post_box", "collection_times": "Mo-Fr 14:50", "note": "ON 12/24 AND 12/31, THIS BOX MAY BE COLLECTED AS EARLY AS 12 NOON.", "nsi_id": "unitedstatespostalservice-a77078", "operator": "United States Postal Service", "operator:short": "USPS", "operator:type": "public", "operator:wikidata": "Q668687", "ref": "6411100092"}, "type": "Feature"}
{"geometry": {"coordinates": [-94.588562433, 39.054293061], "type": "Point"}, "id": "aspE7cP773nX74Yg4BBG9lAzJLw=", "properties": {"@source_uri": "https://tools.usps.com/UspsToolsRestServices/rest/POLocator/findLocations", "@spider": "usps_collection_boxes", "addr:city": "KANSAS CITY", "addr:country": "US", "addr:postcode": "64111", "addr:state": "MO", "addr:street_address": "200 WESTPORT RD", "amenity": "post_box", "collection_times": "Mo-Fr 17:00; Sa 15:30", "indoor": "yes", "note": "ON 12/24 AND 12/31, THIS BOX MAY BE COLLECTED AS EARLY AS 12 NOON.", "nsi_id": "unitedstatespostalservice-a77078", "operator": "United States Postal Service", "operator:short": "USPS", "operator:type": "public", "operator:wikidata": "Q668687", "ref": "6411100114"}, "type": "Feature"}
{"geometry": {"coordinates": [-94.5944843, 39.054356], "type": "Point"}, "id": "H_zJdPnxcV1q-3soX7ODl1yc-4c=", "properties": {"@source_uri": "https://tools.usps.com/UspsToolsRestServices/rest/POLocator/findLocations", "@spider": "usps_collection_boxes", "addr:city": "KANSAS CITY", "addr:country": "US", "addr:postcode": "64111", "addr:state": "MO", "addr:street_address": "4001 MILL ST", "amenity": "post_box", "collection_times": "Mo-Fr 11:00", "nsi_id": "unitedstatespostalservice-a77078", "operator": "United States Postal Service", "operator:short": "USPS", "operator:type": "public", "operator:wikidata": "Q668687", "ref": "6411100116"}, "type": "Feature"}
{"geometry": {"coordinates": [-94.5857025, 39.046635], "type": "Point"}, "id": "w-nh32y1LLGub_v2x3FNcLJpTWw=", "properties": {"@source_uri": "https://tools.usps.com/UspsToolsRestServices/rest/POLocator/findLocations", "@spider": "usps_collection_boxes", "addr:city": "KANSAS CITY", "addr:country": "US", "addr:postcode": "64111", "addr:state": "MO", "addr:street_address": "4435 MAIN ST", "amenity": "post_box", "collection_times": "Mo-Fr 14:50", "note": "ON 12/24 AND 12/31, THIS BOX MAY BE COLLECTED AS EARLY AS 12 NOON.", "nsi_id": "unitedstatespostalservice-a77078", "operator": "United States Postal Service", "operator:short": "USPS", "operator:type": "public", "operator:wikidata": "Q668687", "ref": "6411100122"}, "type": "Feature"}
{"geometry": {"coordinates": [-94.58952495, 39.054954577], "type": "Point"}, "id": "i2YcfH26T9Hmopi_Cg-yf9c8UBc=", "properties": {"@source_uri": "https://tools.usps.com/UspsToolsRestServices/rest/POLocator/findLocations", "@spider": "usps_collection_boxes", "addr:city": "KANSAS CITY", "addr:country": "US", "addr:postcode": "64111", "addr:state": "MO", "addr:street_address": "3941 CENTRAL ST", "amenity": "post_box", "collection_times": "Mo-Fr 17:00; Sa 15:30", "note": "ON 12/24 AND 12/31, THIS BOX MAY BE COLLECTED AS EARLY AS 12 NOON.", "nsi_id": "unitedstatespostalservice-a77078", "operator": "United States Postal Service", "operator:short": "USPS", "operator:type": "public", "operator:wikidata": "Q668687", "ref": "6411100124"}, "type": "Feature"}
{"geometry": {"coordinates": [-94.588562433, 39.054293061], "type": "Point"}, "id": "SsQin9fB8Qo_jFgdKXug9OyZt6c=", "properties": {"@source_uri": "https://tools.usps.com/UspsToolsRestServices/rest/POLocator/findLocations", "@spider": "usps_collection_boxes", "addr:city": "KANSAS CITY", "addr:country": "US", "addr:postcode": "64111", "addr:state": "MO", "addr:street_address": "200 WESTPORT RD", "amenity": "post_box", "collection_times": "Mo-Fr 17:15; Sa 12:15", "indoor": "yes", "note": "ON 12/24 AND 12/31, THIS BOX MAY BE COLLECTED AS EARLY AS 12 NOON.", "nsi_id": "unitedstatespostalservice-a77078", "operator": "United States Postal Service", "operator:short": "USPS", "operator:type": "public", "operator:wikidata": "Q668687", "ref": "6411100129"}, "type": "Feature"}
{"geometry": {"coordinates": [-94.593691, 39.055948], "type": "Point"}, "id": "9NmXfk55e7uzVb7Rbj4yH04ZQn0=", "properties": {"@source_uri": "https://tools.usps.com/UspsToolsRestServices/rest/POLocator/findLocations", "@spider": "usps_collection_boxes", "addr:city": "KANSAS CITY", "addr:country": "US", "addr:postcode": "64111", "addr:state": "MO", "addr:street_address": "4546 WORNALL RD", "amenity": "post_box", "collection_times": "Mo-Sa 15:00", "note": "ON 12/24 AND 12/31, THIS BOX MAY BE COLLECTED AS EARLY AS 12 NOON.", "nsi_id": "unitedstatespostalservice-a77078", "operator": "United States Postal Service", "operator:short": "USPS", "operator:type": "public", "operator:wikidata": "Q668687", "ref": "6411100132"}, "type": "Feature"}
{"geometry": {"coordinates": [-94.5921759841, 39.0414879886], "type": "Point"}, "id": "pYfUqa8i3ii7vZ9x0wI3ZhKF87w=", "properties": {"@source_uri": "https://tools.usps.com/UspsToolsRestServices/rest/POLocator/findLocations", "@spider": "usps_collection_boxes", "addr:city": "KANSAS CITY", "addr:country": "US", "addr:postcode": "64112", "addr:state": "MO", "addr:street_address": "414 NICHOLS RD", "amenity": "post_box", "collection_times": "Mo-Fr 15:00; Sa 10:00", "note": "ON 12/24 AND 12/31, THIS BOX MAY BE COLLECTED AS EARLY AS 12 NOON.", "nsi_id": "unitedstatespostalservice-a77078", "operator": "United States Postal Service", "operator:short": "USPS", "operator:type": "public", "operator:wikidata": "Q668687", "ref": "6411200025"}, "type": "Feature"}
{"geometry": {"coordinates": [-94.587380951, 39.034679036], "type": "Point"}, "id": "kp1tAPyLEwxDces33MdDckDtgmQ=", "properties": {"@source_uri": "https://tools.usps.com/UspsToolsRestServices/rest/POLocator/findLocations", "@spider": "usps_collection_boxes", "addr:city": "KANSAS CITY", "addr:country": "US", "addr:postcode": "64112", "addr:state": "MO", "addr:street_address": "5104 MAIN ST", "amenity": "post_box", "collection_times": "Mo-Fr 16:00", "indoor": "yes", "note": "ON 12/24 AND 12/31, THIS BOX MAY BE COLLECTED AS EARLY AS 12 NOON.", "nsi_id": "unitedstatespostalservice-a77078", "operator": "United States Postal Service", "operator:short": "USPS", "operator:type": "public", "operator:wikidata": "Q668687", "ref": "6411200057"}, "type": "Feature"}
{"geometry": {"coordinates": [-94.587380951, 39.034679036], "type": "Point"}, "id": "iwpqz8rymgeKfckDXm89k3F15AA=", "properties": {"@source_uri": "https://tools.usps.com/UspsToolsRestServices/rest/POLocator/findLocations", "@spider": "usps_collection_boxes", "addr:city": "KANSAS CITY", "addr:country": "US", "addr:postcode": "64112", "addr:state": "MO", "addr:street_address": "5104 MAIN ST", "amenity": "post_box", "collection_times": "Mo-Fr 17:15", "indoor": "yes", "note": "ON 12/24 AND 12/31, THIS BOX MAY BE COLLECTED AS EARLY AS 12 NOON.", "nsi_id": "unitedstatespostalservice-a77078", "operator": "United States Postal Service", "operator:short": "USPS", "operator:type": "public", "operator:wikidata": "Q668687", "ref": "6411200066"}, "type": "Feature"}
{"geometry": {"coordinates": [-94.589741517, 39.014019776], "type": "Point"}, "id": "HQCKT5ZunabsIM760XMC4-uQR94=", "properties": {"@source_uri": "https://tools.usps.com/UspsToolsRestServices/rest/POLocator/findLocations", "@spider": "usps_collection_boxes", "addr:city": "KANSAS CITY", "addr:country": "US", "addr:postcode": "64113", "addr:state": "MO", "addr:street_address": "108 W 63RD ST", "amenity": "post_box", "collection_times": "Mo-Fr 16:00; Sa 12:30", "note": "ON 12/24 AND 12/31, THIS BOX MAY BE COLLECTED AS EARLY AS 12 NOON.", "nsi_id": "unitedstatespostalservice-a77078", "operator": "United States Postal Service", "operator:short": "USPS", "operator:type": "public", "operator:wikidata": "Q668687", "ref": "6411300008"}, "type": "Feature"}
{"geometry": {"coordinates": [-94.59144, 39.010395], "type": "Point"}, "id": "PCpR4sP2hXaKVv6YKKnPL0ZQMHo=", "properties": {"@source_uri": "https://tools.usps.com/UspsToolsRestServices/rest/POLocator/findLocations", "@spider": "usps_collection_boxes", "addr:city": "KANSAS CITY", "addr:country": "US", "addr:postcode": "64113", "addr:state": "MO", "addr:street_address": "6227 BROOKSIDE PLZ", "amenity": "post_box", "collection_times": "Mo-Fr 16:00; Sa 12:30", "note": "ON 12/24 AND 12/31, THIS BOX MAY BE COLLECTED AS EARLY AS 12 NOON.", "nsi_id": "unitedstatespostalservice-a77078", "operator": "United States Postal Service", "operator:short": "USPS", "operator:type": "public", "operator:wikidata": "Q668687", "ref": "6411300010"}, "type": "Feature"}
{"geometry": {"coordinates": [-94.5844708, 39.027464], "type": "Point"}, "id": "wpPFIxwwpDOQMM2c_rOHD3nTQyw=", "properties": {"@source_uri": "https://tools.usps.com/UspsToolsRestServices/rest/POLocator/findLocations", "@spider": "usps_collection_boxes", "addr:city": "KANSAS CITY", "addr:country": "US", "addr:postcode": "64113", "addr:state": "MO", "addr:street_address": "301 E 55TH ST", "amenity": "post_box", "collection_times": "Mo-Sa 10:00", "nsi_id": "unitedstatespostalservice-a77078", "operator": "United States Postal Service", "operator:short": "USPS", "operator:type": "public", "operator:wikidata": "Q668687", "ref": "6411300019"}, "type": "Feature"}
{"geometry": {"coordinates": [-94.589741517, 39.014019776], "type": "Point"}, "id": "u1Athy9d2SUpYIrhs81Vvrairi4=", "properties": {"@source_uri": "https://tools.usps.com/UspsToolsRestServices/rest/POLocator/findLocations", "@spider": "usps_collection_boxes", "addr:city": "KANSAS CITY", "addr:country": "US", "addr:postcode": "64113", "addr:state": "MO", "addr:street_address": "108 W 63RD ST", "amenity": "post_box", "collection_times": "Mo-Fr 16:00; Sa 12:30", "indoor": "yes", "note": "ON 12/24 AND 12/31, THIS BOX MAY BE COLLECTED AS EARLY AS 12 NOON.", "nsi_id": "unitedstatespostalservice-a77078", "operator": "United States Postal Service", "operator:short": "USPS", "operator:type": "public", "operator:wikidata": "Q668687", "ref": "6411300026"}, "type": "Feature"}
{"geometry": {"coordinates": [-94.589741517, 39.014019776], "type": "Point"}, "id": "zDKRZBk87BU9bHFYkvoIRoovdE4=", "properties": {"@source_uri": "https://tools.usps.com/UspsToolsRestServices/rest/POLocator/findLocations", "@spider": "usps_collection_boxes", "addr:city": "KANSAS CITY", "addr:country": "US", "addr:postcode": "64113", "addr:state": "MO", "addr:street_address": "108 W 63RD ST", "amenity": "post_box", "collection_times": "Mo-Fr 16:15", "indoor": "yes", "note": "ON 12/24 AND 12/31, THIS BOX MAY BE COLLECTED AS EARLY AS 12 NOON.", "nsi_id": "unitedstatespostalservice-a77078", "operator": "United States Postal Service", "operator:short": "USPS", "operator:type": "public", "operator:wikidata": "Q668687", "ref": "6411300029"}, "type": "Feature"}
{"geometry": {"coordinates": [-94.6065715, 38.943576], "type": "Point"}, "id": "26lo20mv_U0EF51dTWyz7o6o5_8=", "properties": {"@source_uri": "https://tools.usps.com/UspsToolsRestServices/rest/POLocator/findLocations", "@spider": "usps_collection_boxes", "addr:city": "KANSAS CITY", "addr:country": "US", "addr:postcode": "64114", "addr:state": "MO", "addr:street_address": "1156 W 103RD ST", "amenity": "post_box", "collection_times": "Mo-Sa 16:30", "note": "ON 12/24 AND 12/31, THIS BOX MAY BE COLLECTED AS EARLY AS 12 NOON.", "nsi_id": "unitedstatespostalservice-a77078", "operator": "United States Postal Service", "operator:short": "USPS", "operator:type": "public", "operator:wikidata": "Q668687", "ref": "6411400003"}, "type": "Feature"}
{"geometry": {"coordinates": [-94.6062142, 38.96691], "type": "Point"}, "id": "JqmfBks6vKzdhZsUlyQau9pv1d8=", "properties": {"@source_uri": "https://tools.usps.com/UspsToolsRestServices/rest/POLocator/findLocations", "@spider": "usps_collection_boxes", "addr:city": "KANSAS CITY", "addr:country": "US", "addr:postcode": "64114", "addr:state": "MO", "addr:street_address": "1523 W 89TH ST", "amenity": "post_box", "collection_times": "Mo-Fr 16:45; Sa 10:00", "note": "ON 12/24 AND 12/31, THIS BOX MAY BE COLLECTED AS EARLY AS 12 NOON.", "nsi_id": "unitedstatespostalservice-a77078", "operator": "United States Postal Service", "operator:short": "USPS", "operator:type": "public", "operator:wikidata": "Q668687", "ref": "6411400007"}, "type": "Feature"}
{"geometry": {"coordinates": [-94.6074913, 38.978736], "type": "Point"}, "id": "daio6bPgO98luGMqr-K8X7KEl4E=", "properties": {"@source_uri": "https://tools.usps.com/UspsToolsRestServices/rest/POLocator/findLocations", "@spider": "usps_collection_boxes", "addr:city": "KANSAS CITY", "addr:country": "US", "addr:postcode": "64114", "addr:state": "MO", "addr:street_address": "1210 W 83RD ST", "amenity": "post_box", "collection_times": "Mo-Fr 16:45; Sa 12:00", "note": "ON 12/24 AND 12/31, THIS BOX MAY BE COLLECTED AS EARLY AS 12 NOON.", "nsi_id": "unitedstatespostalservice-a77078", "operator": "United States Postal Service", "operator:short": "USPS", "operator:type": "public", "operator:wikidata": "Q668687", "ref": "6411400011"}, "type": "Feature"}
{"geometry": {"coordinates": [-94.6000917, 38.96094], "type": "Point"}, "id": "dMizC4b3mfPRpliuPwV1gRJEDMU=", "properties": {"@source_uri": "https://tools.usps.com/UspsToolsRestServices/rest/POLocator/findLocations", "@spider": "usps_collection_boxes", "addr:city": "KANSAS CITY", "addr:country": "US", "addr:postcode": "64114", "addr:state": "MO", "addr:street_address": "9225 WARD PKWY", "amenity": "post_box", "collection_times": "Mo-Fr 17:00", "note": "ON 12/24 AND 12/31, THIS BOX MAY BE COLLECTED AS EARLY AS 12 NOON.", "nsi_id": "unitedstatespostalservice-a77078", "operator": "United States Postal Service", "operator:short": "USPS", "operator:type": "public", "operator:wikidata": "Q668687", "ref": "6411400012"}, "type": "Feature"}
{"geometry": {"coordinates": [-94.594621, 38.947237], "type": "Point"}, "id": "xBhrQCmcmWs-_582rQVmI3RBMXA=", "properties": {"@source_uri": "https://tools.usps.com/UspsToolsRestServices/rest/POLocator/findLocations", "@spider": "usps_collection_boxes", "addr:city": "KANSAS CITY", "addr:country": "US", "addr:postcode": "64114", "addr:state": "MO", "addr:street_address": "10000 WYANDOTTE ST", "amenity": "post_box", "collection_times": "Mo-Sa 10:00", "nsi_id": "unitedstatespostalservice-a77078", "operator": "United States Postal Service", "operator:short": "USPS", "operator:type": "public", "operator:wikidata": "Q668687", "ref": "6411400019"}, "type": "Feature"}
{"geometry": {"coordinates": [-94.5969977, 38.959725], "type": "Point"}, "id": "UuaiMX-9MKgWTJsSMw-2_eza-KU=", "properties": {"@source_uri": "https://tools.usps.com/UspsToolsRestServices/rest/POLocator/findLocations", "@spider": "usps_collection_boxes", "addr:city": "KANSAS CITY", "addr:country": "US", "addr:postcode": "64114", "addr:state": "MO", "addr:street_address": "9233 WARD PKWY", "amenity": "post_box", "collection_times": "Mo-Fr 17:00", "note": "ON 12/24 AND 12/31, THIS BOX MAY BE COLLECTED AS EARLY AS 12 NOON.", "nsi_id": "unitedstatespostalservice-a77078", "operator": "United States Postal Service", "operator:short": "USPS", "operator:type": "public", "operator:wikidata": "Q668687", "ref": "6411400028"}, "type": "Feature"}
{"geometry": {"coordinates": [-94.5973268, 38.939032], "type": "Point"}, "id": "SoSLPef-xKldkBhnH5LMBrIwHvk=", "properties": {"@source_uri": "https://tools.usps.com/UspsToolsRestServices/rest/POLocator/findLocations", "@spider": "usps_collection_boxes", "addr:city": "KANSAS CITY", "addr:country": "US", "addr:postcode": "64114", "addr:state": "MO", "addr:street_address": "401 W 104TH ST", "amenity": "post_box", "collection_times": "Mo-Sa 10:00", "nsi_id": "unitedstatespostalservice-a77078", "operator": "United States Postal Service", "operator:short": "USPS", "operator:type": "public", "operator:wikidata": "Q668687", "ref": "6411400039"}, "type": "Feature"}
{"geometry": {"coordinates": [-94.5883533, 38.921735], "type": "Point"}, "id": "4rkkAW5670hwg_B1QIFbK81kZPI=", "properties": {"@source_uri": "https://tools.usps.com/UspsToolsRestServices/rest/POLocator/findLocations", "@spider": "usps_collection_boxes", "addr:city": "KANSAS CITY", "addr:country": "US", "addr:postcode": "64114", "addr:state": "MO", "addr:street_address": "11291 OAK ST", "amenity": "post_box", "collection_times": "Mo-Sa 10:00", "nsi_id": "unitedstatespostalservice-a77078", "operator": "United States Postal Service", "operator:short": "USPS", "operator:type": "public", "operator:wikidata": "Q668687", "ref": "6411400049"}, "type": "Feature"}
{"geometry": {"coordinates": [-94.591845, 38.99229], "type": "Point"}, "id": "JXR-nAcI3f3zbXKpNLmAk0XsBlQ=", "properties": {"@source_uri": "https://tools.usps.com/UspsToolsRestServices/rest/POLocator/findLocations", "@spider": "usps_collection_boxes", "addr:city": "KANSAS CITY", "addr:country": "US", "addr:postcode": "64114", "addr:state": "MO", "addr:street_address": "7400 WALNUT ST", "amenity": "post_box", "collection_times": "Mo-Sa 10:00", "nsi_id": "unitedstatespostalservice-a77078", "operator": "United States Postal Service", "operator:short": "USPS", "operator:type": "public", "operator:wikidata": "Q668687", "ref": "6411400050"}, "type": "Feature"}
{"geometry": {"coordinates": [-94.594904, 38.9743], "type": "Point"}, "id": "MtUL4Sb6DMESTsm0u4_z0yjexxU=", "properties": {"@source_uri": "https://tools.usps.com/UspsToolsRestServices/rest/POLocator/findLocations", "@spider": "usps_collection_boxes", "addr:city": "KANSAS CITY", "addr:country": "US", "addr:postcode": "64114", "addr:state": "MO", "addr:street_address": "8447 WORNALL RD", "amenity": "post_box", "collection_times": "Mo-Sa 10:30", "nsi_id": "unitedstatespostalservice-a77078", "operator": "United States Postal Service", "operator:short": "USPS", "operator:type": "public", "operator:wikidata": "Q668687", "ref": "6411400054"}, "type": "Feature"}
{"geometry": {"coordinates": [-94.591845, 38.99229], "type": "Point"}, "id": "5nD3bCmukayqqnslkQQ3j87fXI8=", "properties": {"@source_uri": "https://tools.usps.com/UspsToolsRestServices/rest/POLocator/findLocations", "@spider": "usps_collection_boxes", "addr:city": "KANSAS CITY", "addr:country": "US", "addr:postcode": "64114", "addr:state": "MO", "addr:street_address": "1030 W 103RD ST", "amenity": "post_box", "collection_times": "Mo-Fr 16:15; Sa 10:00", "note": "ON 12/24 AND 12/31, THIS BOX MAY BE COLLECTED AS EARLY AS 12 NOON.", "nsi_id": "unitedstatespostalservice-a77078", "operator": "United States Postal Service", "operator:short": "USPS", "operator:type": "public", "operator:wikidata": "Q668687", "ref": "6411400060"}, "type": "Feature"}
{"geometry": {"coordinates": [-94.6072361, 38.981974], "type": "Point"}, "id": "u9WF64d60tM_pAnNHRW2qiOoZnw=", "properties": {"@source_uri": "https://tools.usps.com/UspsToolsRestServices/rest/POLocator/findLocations", "@spider": "usps_collection_boxes", "addr:city": "KANSAS CITY", "addr:country": "US", "addr:postcode": "64114", "addr:state": "MO", "addr:street_address": "8080 WARD PKWY", "amenity": "post_box", "collection_times": "Mo-Sa 16:30", "note": "ON 12/24 AND 12/31, THIS BOX MAY BE COLLECTED AS EARLY AS 12 NOON.", "nsi_id": "unitedstatespostalservice-a77078", "operator": "United States Postal Service", "operator:short": "USPS", "operator:type": "public", "operator:wikidata": "Q668687", "ref": "6411400068"}, "type": "Feature"}
{"geometry": {"coordinates": [-94.5931464, 38.999872], "type": "Point"}, "id": "VZVpc8CcVZcT4bm7kuvpCBsY0wM=", "properties": {"@source_uri": "https://tools.usps.com/UspsToolsRestServices/rest/POLocator/findLocations", "@spider": "usps_collection_boxes", "addr:city": "KANSAS CITY", "addr:country": "US", "addr:postcode": "64114", "addr:state": "MO", "addr:street_address": "222 W GREGORY BLVD", "amenity": "post_box", "collection_times": "Mo-Fr 17:15; Sa 10:00", "note": "ON 12/24 AND 12/31, THIS BOX MAY BE COLLECTED AS EARLY AS 12 NOON.", "nsi_id": "unitedstatespostalservice-a77078", "operator": "United States Postal Service", "operator:short": "USPS", "operator:type": "public", "operator:wikidata": "Q668687", "ref": "6411400073"}, "type": "Feature"}
{"geometry": {"coordinates": [-94.590934082, 38.999424554], "type": "Point"}, "id": "o0M2bLsAJqbH8S4fsRpbA2V4UOE=", "properties": {"@source_uri": "https://tools.usps.com/UspsToolsRestServices/rest/POLocator/findLocations", "@spider": "usps_collection_boxes", "addr:city": "KANSAS CITY", "addr:country": "US", "addr:postcode": "64114", "addr:state": "MO", "addr:street_address": "119 W GREGORY BLVD", "amenity": "post_box", "collection_times": "Mo-Fr 17:15; Sa 12:30", "indoor": "yes", "note": "ON 12/24 AND 12/31, THIS BOX MAY BE COLLECTED AS EARLY AS 12 NOON.", "nsi_id": "unitedstatespostalservice-a77078", "operator": "United States Postal Service", "operator:short": "USPS", "operator:type": "public", "operator:wikidata": "Q668687", "ref": "6411400075"}, "type": "Feature"}
{"geometry": {"coordinates": [-94.590934082, 38.999424554], "type": "Point"}, "id": "HEqqGuBsgRr4F1EYTk_0m-GO-5w=", "properties": {"@source_uri": "https://tools.usps.com/UspsToolsRestServices/rest/POLocator/findLocations", "@spider": "usps_collection_boxes", "addr:city": "KANSAS CITY", "addr:country": "US", "addr:postcode": "64114", "addr:state": "MO", "addr:street_address": "119 W GREGORY BLVD", "amenity": "post_box", "collection_times": "Mo-Fr 17:15; Sa 12:30", "indoor": "yes", "note": "ON 12/24 AND 12/31, THIS BOX MAY BE COLLECTED AS EARLY AS 12 NOON.", "nsi_id": "unitedstatespostalservice-a77078", "operator": "United States Postal Service", "operator:short": "USPS", "operator:type": "public", "operator:wikidata": "Q668687", "ref": "6411400076"}, "type": "Feature"}
{"geometry": {"coordinates": [-94.590934082, 38.999424554], "type": "Point"}, "id": "KfWdcaQCNX1TIeE8W7IvcOYsuHQ=", "properties": {"@source_uri": "https://tools.usps.com/UspsToolsRestServices/rest/POLocator/findLocations", "@spider": "usps_collection_boxes", "addr:city": "KANSAS CITY", "addr:country": "US", "addr:postcode": "64114", "addr:state": "MO", "addr:street_address": "119 W GREGORY BLVD", "amenity": "post_box", "collection_times": "Mo-Fr 17:15; Sa 12:30", "name": "USPS COLLECTION BOX - APC", "note": "ON 12/24 AND 12/31, THIS BOX MAY BE COLLECTED AS EARLY AS 12 NOON.", "nsi_id": "unitedstatespostalservice-a77078", "operator": "United States Postal Service", "operator:short": "USPS", "operator:type": "public", "operator:wikidata": "Q668687", "ref": "6411400077"}, "type": "Feature"}
{"geometry": {"coordinates": [-94.591845, 38.99229], "type": "Point"}, "id": "apuqREshhdaz81g8tVku2J6Xcxg=", "properties": {"@source_uri": "https://tools.usps.com/UspsToolsRestServices/rest/POLocator/findLocations", "@spider": "usps_collection_boxes", "addr:city": "KANSAS CITY", "addr:country": "US", "addr:postcode": "64114", "addr:state": "MO", "addr:street_address": "119 W GREGORY BLVD", "amenity": "post_box", "collection_times": "Mo-Fr 17:15; Sa 12:30", "note": "ON 12/24 AND 12/31, THIS BOX MAY BE COLLECTED AS EARLY AS 12 NOON.", "nsi_id": "unitedstatespostalservice-a77078", "operator": "United States Postal Service", "operator:short": "USPS", "operator:type": "public", "operator:wikidata": "Q668687", "ref": "6411400080"}, "type": "Feature"}
{"geometry": {"coordinates": [-94.590934082, 38.999424554], "type": "Point"}, "id": "WiPcUuK2m5cWFGOReAfGQV4a248=", "properties": {"@source_uri": "https://tools.usps.com/UspsToolsRestServices/rest/POLocator/findLocations", "@spider": "usps_collection_boxes", "addr:city": "KANSAS CITY", "addr:country": "US", "addr:postcode": "64114", "addr:state": "MO", "addr:street_address": "119 W GREGORY BLVD", "amenity": "post_box", "collection_times": "Mo-Fr 17:15; Sa 12:45", "indoor": "yes", "note": "ON 12/24 AND 12/31, THIS BOX MAY BE COLLECTED AS EARLY AS 12 NOON.", "nsi_id": "unitedstatespostalservice-a77078", "operator": "United States Postal Service", "operator:short": "USPS", "operator:type": "public", "operator:wikidata": "Q668687", "ref": "6411400087"}, "type": "Feature"}
{"geometry": {"coordinates": [-94.57735, 39.13728], "type": "Point"}, "id": "-LEa-Kw-JpNf1lmbQBUEUjY4qe8=", "properties": {"@source_uri": "https://tools.usps.com/UspsToolsRestServices/rest/POLocator/findLocations", "@spider": "usps_collection_boxes", "addr:city": "KANSAS CITY", "addr:country": "US", "addr:postcode": "64116", "addr:state": "MO", "addr:street_address": "601 E 12TH AVE", "amenity": "post_box", "collection_times": "Mo-Fr 10:00", "nsi_id": "unitedstatespostalservice-a77078", "operator": "United States Postal Service", "operator:short": "USPS", "operator:type": "public", "operator:wikidata": "Q668687", "ref": "6411600007"}, "type": "Feature"}
{"geometry": {"coordinates": [-94.5621121, 39.135052], "type": "Point"}, "id": "u8cVyeX3onTFZSZo_xNjkiaaAOM=", "properties": {"@source_uri": "https://tools.usps.com/UspsToolsRestServices/rest/POLocator/findLocations", "@spider": "usps_collection_boxes", "addr:city": "KANSAS CITY", "addr:country": "US", "addr:postcode": "64116", "addr:state": "MO", "addr:street_address": "1411 QUEBEC ST", "amenity": "post_box", "collection_times": "Mo-Sa 10:00", "nsi_id": "unitedstatespostalservice-a77078", "operator": "United States Postal Service", "operator:short": "USPS", "operator:type": "public", "operator:wikidata": "Q668687", "ref": "6411600014"}, "type": "Feature"}
{"geometry": {"coordinates": [-94.5761338, 39.142003], "type": "Point"}, "id": "KCTyG_1D0SJog33OdfonZhwuNSw=", "properties": {"@source_uri": "https://tools.usps.com/UspsToolsRestServices/rest/POLocator/findLocations", "@spider": "usps_collection_boxes", "addr:city": "KANSAS CITY", "addr:country": "US", "addr:postcode": "64116", "addr:state": "MO", "addr:street_address": "329 ARMOUR RD", "amenity": "post_box", "collection_times": "Mo-Fr 15:00; Sa 10:00", "note": "ON 12/24 AND 12/31, THIS BOX MAY BE COLLECTED AS EARLY AS 12 NOON.", "nsi_id": "unitedstatespostalservice-a77078", "operator": "United States Postal Service", "operator:short": "USPS", "operator:type": "public", "operator:wikidata": "Q668687", "ref": "6411600015"}, "type": "Feature"}
{"geometry": {"coordinates": [-94.5618451681, 39.1671882899], "type": "Point"}, "id": "9dLBMCtunauNnwoWgGzy7v8xGas=", "properties": {"@source_uri": "https://tools.usps.com/UspsToolsRestServices/rest/POLocator/findLocations", "@spider": "usps_collection_boxes", "addr:city": "KANSAS CITY", "addr:country": "US", "addr:postcode": "64116", "addr:state": "MO", "addr:street_address": "1525 NE PARVIN RD", "amenity": "post_box", "collection_times": "Mo-Sa 10:00", "nsi_id": "unitedstatespostalservice-a77078", "operator": "United States Postal Service", "operator:short": "USPS", "operator:type": "public", "operator:wikidata": "Q668687", "ref": "6411600016"}, "type": "Feature"}
{"geometry": {"coordinates": [-94.5776929774, 39.1413100013], "type": "Point"}, "id": "7UYDWunxWQsNt0FkNSrvgs2d67s=", "properties": {"@source_uri": "https://tools.usps.com/UspsToolsRestServices/rest/POLocator/findLocations", "@spider": "usps_collection_boxes", "addr:city": "KANSAS CITY", "addr:country": "US", "addr:postcode": "64116", "addr:state": "MO", "addr:street_address": "1828 SWIFT AVE", "amenity": "post_box", "collection_times": "Mo-Fr 15:00; Sa 10:00", "note": "ON 12/24 AND 12/31, THIS BOX MAY BE COLLECTED AS EARLY AS 12 NOON.", "nsi_id": "unitedstatespostalservice-a77078", "operator": "United States Postal Service", "operator:short": "USPS", "operator:type": "public", "operator:wikidata": "Q668687", "ref": "6411600017"}, "type": "Feature"}
{"geometry": {"coordinates": [-94.5774483, 39.143902], "type": "Point"}, "id": "4wR3xHTW38fRH4ARfyPV4qLi-L8=", "properties": {"@source_uri": "https://tools.usps.com/UspsToolsRestServices/rest/POLocator/findLocations", "@spider": "usps_collection_boxes", "addr:city": "KANSAS CITY", "addr:country": "US", "addr:postcode": "64116", "addr:state": "MO", "addr:street_address": "200 E 21ST AVE", "amenity": "post_box", "collection_times": "Mo-Sa 10:00", "nsi_id": "unitedstatespostalservice-a77078", "operator": "United States Postal Service", "operator:short": "USPS", "operator:type": "public", "operator:wikidata": "Q668687", "ref": "6411600020"}, "type": "Feature"}
{"geometry": {"coordinates": [-94.5724698, 39.1520269], "type": "Point"}, "id": "V2k4qK4cE1bbc7b7KsWRyq1f0k0=", "properties": {"@source_uri": "https://tools.usps.com/UspsToolsRestServices/rest/POLocator/findLocations", "@spider": "usps_collection_boxes", "addr:city": "KANSAS CITY", "addr:country": "US", "addr:postcode": "64116", "addr:state": "MO", "addr:street_address": "1301 BURLINGTON STREET", "amenity": "post_box", "collection_times": "Mo-Fr 10:00", "nsi_id": "unitedstatespostalservice-a77078", "operator": "United States Postal Service", "operator:short": "USPS", "operator:type": "public", "operator:wikidata": "Q668687", "ref": "6411600022"}, "type": "Feature"}
{"geometry": {"coordinates": [-94.57735, 39.13728], "type": "Point"}, "id": "_NX-VKWfSrsB9QMDYZucEgNblO4=", "properties": {"@source_uri": "https://tools.usps.com/UspsToolsRestServices/rest/POLocator/findLocations", "@spider": "usps_collection_boxes", "addr:city": "KANSAS CITY", "addr:country": "US", "addr:postcode": "64116", "addr:state": "MO", "addr:street_address": "4303 N HOLMES ST", "amenity": "post_box", "collection_times": "Mo-Sa 10:00", "nsi_id": "unitedstatespostalservice-a77078", "operator": "United States Postal Service", "operator:short": "USPS", "operator:type": "public", "operator:wikidata": "Q668687", "ref": "6411600025"}, "type": "Feature"}
{"geometry": {"coordinates": [-94.5750219, 39.143873], "type": "Point"}, "id": "tvV3HMqcmJ8NvsiFD3KvSd2BElk=", "properties": {"@source_uri": "https://tools.usps.com/UspsToolsRestServices/rest/POLocator/findLocations", "@spider": "usps_collection_boxes", "addr:city": "KANSAS CITY", "addr:country": "US", "addr:postcode": "64116", "addr:state": "MO", "addr:street_address": "400 E 21ST ST", "amenity": "post_box", "collection_times": "Mo-Sa 10:00", "nsi_id": "unitedstatespostalservice-a77078", "operator": "United States Postal Service", "operator:short": "USPS", "operator:type": "public", "operator:wikidata": "Q668687", "ref": "6411600026"}, "type": "Feature"}
{"geometry": {"coordinates": [-94.57735, 39.13728], "type": "Point"}, "id": "pHcXLe7Gir0npwMGYAOKgw7K9-M=", "properties": {"@source_uri": "https://tools.usps.com/UspsToolsRestServices/rest/POLocator/findLocations", "@spider": "usps_collection_boxes", "addr:city": "KANSAS CITY", "addr:country": "US", "addr:postcode": "64116", "addr:state": "MO", "addr:street_address": "2750 CLAY EDWARDS DR", "amenity": "post_box", "collection_times": "Mo-Sa 10:00", "nsi_id": "unitedstatespostalservice-a77078", "operator": "United States Postal Service", "operator:short": "USPS", "operator:type": "public", "operator:wikidata": "Q668687", "ref": "6411600031"}, "type": "Feature"}
{"geometry": {"coordinates": [-94.576723423, 39.171319429], "type": "Point"}, "id": "cfuT2CWpYKzAw1-HuxrhHX0koEM=", "properties": {"@source_uri": "https://tools.usps.com/UspsToolsRestServices/rest/POLocator/findLocations", "@spider": "usps_collection_boxes", "addr:city": "KANSAS CITY", "addr:country": "US", "addr:postcode": "64116", "addr:state": "MO", "addr:street_address": "4225 N OAK TRFY", "amenity": "post_box", "collection_times": "Mo-Sa 10:00", "nsi_id": "unitedstatespostalservice-a77078", "operator": "United States Postal Service", "operator:short": "USPS", "operator:type": "public", "operator:wikidata": "Q668687", "ref": "6411600039"}, "type": "Feature"}
{"geometry": {"coordinates": [-94.5525423, 39.149625], "type": "Point"}, "id": "RvL82zsa8woj2_dV0t5VaCJkEM4=", "properties": {"@source_uri": "https://tools.usps.com/UspsToolsRestServices/rest/POLocator/findLocations", "@spider": "usps_collection_boxes", "addr:city": "KANSAS CITY", "addr:country": "US", "addr:postcode": "64116", "addr:state": "MO", "addr:street_address": "2800 CLAY EDWARDS DR", "amenity": "post_box", "collection_times": "Mo-Sa 10:00", "nsi_id": "unitedstatespostalservice-a77078", "operator": "United States Postal Service", "operator:short": "USPS", "operator:type": "public", "operator:wikidata": "Q668687", "ref": "6411600041"}, "type": "Feature"}
{"geometry": {"coordinates": [-94.5702459917, 39.1435229914], "type": "Point"}, "id": "3-Shg7HgB4Pg2h-FSfjeBP4JJLM=", "properties": {"@source_uri": "https://tools.usps.com/UspsToolsRestServices/rest/POLocator/findLocations", "@spider": "usps_collection_boxes", "addr:city": "KANSAS CITY", "addr:country": "US", "addr:postcode": "64116", "addr:state": "MO", "addr:street_address": "820 ARMOUR RD", "amenity": "post_box", "collection_times": "Mo-Fr 17:00; Sa 15:00", "note": "ON 12/24 AND 12/31, THIS BOX MAY BE COLLECTED AS EARLY AS 12 NOON.", "nsi_id": "unitedstatespostalservice-a77078", "operator": "United States Postal Service", "operator:short": "USPS", "operator:type": "public", "operator:wikidata": "Q668687", "ref": "6411600043"}, "type": "Feature"}
{"geometry": {"coordinates": [-94.5903975604, 39.1767079203], "type": "Point"}, "id": "seubXh6bzenehFW2CM6L5ANeXwM=", "properties": {"@source_uri": "https://tools.usps.com/UspsToolsRestServices/rest/POLocator/findLocations", "@spider": "usps_collection_boxes", "addr:city": "KANSAS CITY", "addr:country": "US", "addr:postcode": "64116", "addr:state": "MO", "addr:street_address": "801 NW 45TH ST", "amenity": "post_box", "collection_times": "Mo-Sa 10:00", "nsi_id": "unitedstatespostalservice-a77078", "operator": "United States Postal Service", "operator:short": "USPS", "operator:type": "public", "operator:wikidata": "Q668687", "ref": "6411600047"}, "type": "Feature"}
{"geometry": {"coordinates": [-94.57735, 39.13728], "type": "Point"}, "id": "X7wcK5ShpfFI84PGTbQK7CeQpSM=", "properties": {"@source_uri": "https://tools.usps.com/UspsToolsRestServices/rest/POLocator/findLocations", "@spider": "usps_collection_boxes", "addr:city": "KANSAS CITY", "addr:country": "US", "addr:postcode": "64116", "addr:state": "MO", "addr:street_address": "1601 ORLEANS CIR", "amenity": "post_box", "collection_times": "Mo-Sa 10:00", "nsi_id": "unitedstatespostalservice-a77078", "operator": "United States Postal Service", "operator:short": "USPS", "operator:type": "public", "operator:wikidata": "Q668687", "ref": "6411600052"}, "type": "Feature"}
{"geometry": {"coordinates": [-94.570627443, 39.14322502], "type": "Point"}, "id": "-j4xc-47T1hiiGg0d-RrUcUrbr4=", "properties": {"@source_uri": "https://tools.usps.com/UspsToolsRestServices/rest/POLocator/findLocations", "@spider": "usps_collection_boxes", "addr:city": "KANSAS CITY", "addr:country": "US", "addr:postcode": "64116", "addr:state": "MO", "addr:street_address": "820 ARMOUR RD", "amenity": "post_box", "collection_times": "Mo-Fr 17:00; Sa 15:00", "indoor": "yes", "note": "ON 12/24 AND 12/31, THIS BOX MAY BE COLLECTED AS EARLY AS 12 NOON.", "nsi_id": "unitedstatespostalservice-a77078", "operator": "United States Postal Service", "operator:short": "USPS", "operator:type": "public", "operator:wikidata": "Q668687", "ref": "6411600055"}, "type": "Feature"}
{"geometry": {"coordinates": [-94.5976331, 39.1684], "type": "Point"}, "id": "C3ctuNdln5ykYeBT_jrUvzrRoxI=", "properties": {"@source_uri": "https://tools.usps.com/UspsToolsRestServices/rest/POLocator/findLocations", "@spider": "usps_collection_boxes", "addr:city": "KANSAS CITY", "addr:country": "US", "addr:postcode": "64116", "addr:state": "MO", "addr:street_address": "4100 N MULBERRY DR", "amenity": "post_box", "collection_times": "Mo-Sa 10:00", "nsi_id": "unitedstatespostalservice-a77078", "operator": "United States Postal Service", "operator:short": "USPS", "operator:type": "public", "operator:wikidata": "Q668687", "ref": "6411600058"}, "type": "Feature"}
{"geometry": {"coordinates": [-94.570627443, 39.14322502], "type": "Point"}, "id": "jfoAx5WwC0pYJE306Kh2Pm7-NQM=", "properties": {"@source_uri": "https://tools.usps.com/UspsToolsRestServices/rest/POLocator/findLocations", "@spider": "usps_collection_boxes", "addr:city": "KANSAS CITY", "addr:country": "US", "addr:postcode": "64116", "addr:state": "MO", "addr:street_address": "820 ARMOUR RD", "amenity": "post_box", "collection_times": "Mo-Fr 17:15; Sa 12:45", "indoor": "yes", "note": "ON 12/24 AND 12/31, THIS BOX MAY BE COLLECTED AS EARLY AS 12 NOON.", "nsi_id": "unitedstatespostalservice-a77078", "operator": "United States Postal Service", "operator:short": "USPS", "operator:type": "public", "operator:wikidata": "Q668687", "ref": "6411600064"}, "type": "Feature"}
{"geometry": {"coordinates": [-94.5342784176, 39.1488774577], "type": "Point"}, "id": "A_5FvnR5sXNoeri1HCIRVXztA4U=", "properties": {"@source_uri": "https://tools.usps.com/UspsToolsRestServices/rest/POLocator/findLocations", "@spider": "usps_collection_boxes", "addr:city": "KANSAS CITY", "addr:country": "US", "addr:postcode": "64117", "addr:state": "MO", "addr:street_address": "2604 NE INDUSTRIAL DR", "amenity": "post_box", "collection_times": "Mo-Sa 09:00", "nsi_id": "unitedstatespostalservice-a77078", "operator": "United States Postal Service", "operator:short": "USPS", "operator:type": "public", "operator:wikidata": "Q668687", "ref": "6411700008"}, "type": "Feature"}
{"geometry": {"coordinates": [-94.5207495, 39.168126], "type": "Point"}, "id": "DQt95PiUk6pqmgtqaaqQ99lYiTw=", "properties": {"@source_uri": "https://tools.usps.com/UspsToolsRestServices/rest/POLocator/findLocations", "@spider": "usps_collection_boxes", "addr:city": "KANSAS CITY", "addr:country": "US", "addr:postcode": "64117", "addr:state": "MO", "addr:street_address": "5004 NE PARVIN RD", "amenity": "post_box", "collection_times": "Mo-Sa 10:00", "nsi_id": "unitedstatespostalservice-a77078", "operator": "United States Postal Service", "operator:short": "USPS", "operator:type": "public", "operator:wikidata": "Q668687", "ref": "6411700010"}, "type": "Feature"}
{"geometry": {"coordinates": [-94.5343513313, 39.1541701904], "type": "Point"}, "id": "DSrS_cZ41osYOOnnlJOhWXqiWzM=", "properties": {"@source_uri": "https://tools.usps.com/UspsToolsRestServices/rest/POLocator/findLocations", "@spider": "usps_collection_boxes", "addr:city": "KANSAS CITY", "addr:country": "US", "addr:postcode": "64117", "addr:state": "MO", "addr:street_address": "3939 NE 33RD TER", "amenity": "post_box", "collection_times": "Mo-Sa 10:00", "nsi_id": "unitedstatespostalservice-a77078", "operator": "United States Postal Service", "operator:short": "USPS", "operator:type": "public", "operator:wikidata": "Q668687", "ref": "6411700011"}, "type": "Feature"}
{"geometry": {"coordinates": [-94.52461, 39.17303], "type": "Point"}, "id": "ymYxGz6QFyczDL_yvlY9jdQGG5E=", "properties": {"@source_uri": "https://tools.usps.com/UspsToolsRestServices/rest/POLocator/findLocations", "@spider": "usps_collection_boxes", "addr:city": "KANSAS CITY", "addr:country": "US", "addr:postcode": "64117", "addr:state": "MO", "addr:street_address": "4329 N CHOUTEAU TRAFFICWAY", "amenity": "post_box", "collection_times": "Mo-Sa 10:00", "nsi_id": "unitedstatespostalservice-a77078", "operator": "United States Postal Service", "operator:short": "USPS", "operator:type": "public", "operator:wikidata": "Q668687", "ref": "6411700015"}, "type": "Feature"}
{"geometry": {"coordinates": [-94.5772654, 39.192673], "type": "Point"}, "id": "SsjoV2L5xSm_TPwa8QkFSymCu7c=", "properties": {"@source_uri": "https://tools.usps.com/UspsToolsRestServices/rest/POLocator/findLocations", "@spider": "usps_collection_boxes", "addr:city": "KANSAS CITY", "addr:country": "US", "addr:postcode": "64118", "addr:state": "MO", "addr:street_address": "5400 N OAK TRFY", "amenity": "post_box", "collection_times": "Mo-Fr 14:00; Sa 12:00", "note": "ON 12/24 AND 12/31, THIS BOX MAY BE COLLECTED AS EARLY AS 12 NOON.", "nsi_id": "unitedstatespostalservice-a77078", "operator": "United States Postal Service", "operator:short": "USPS", "operator:type": "public", "operator:wikidata": "Q668687", "ref": "6411800001"}, "type": "Feature"}
{"geometry": {"coordinates": [-94.5766608, 39.239786], "type": "Point"}, "id": "DnsjJzLuy32AE5gjMzTpQk3gBQs=", "properties": {"@source_uri": "https://tools.usps.com/UspsToolsRestServices/rest/POLocator/findLocations", "@spider": "usps_collection_boxes", "addr:city": "KANSAS CITY", "addr:country": "US", "addr:postcode": "64118", "addr:state": "MO", "addr:street_address": "8002 N OAK TRFY", "amenity": "post_box", "collection_times": "Mo-Fr 14:00; Sa 12:00", "note": "ON 12/24 AND 12/31, THIS BOX MAY BE COLLECTED AS EARLY AS 12 NOON.", "nsi_id": "unitedstatespostalservice-a77078", "operator": "United States Postal Service", "operator:short": "USPS", "operator:type": "public", "operator:wikidata": "Q668687", "ref": "6411800004"}, "type": "Feature"}
{"geometry": {"coordinates": [-94.5875419651, 39.1963219825], "type": "Point"}, "id": "yyiosW78ZsrZ1ms9rVRKJCWEKrY=", "properties": {"@source_uri": "https://tools.usps.com/UspsToolsRestServices/rest/POLocator/findLocations", "@spider": "usps_collection_boxes", "addr:city": "KANSAS CITY", "addr:country": "US", "addr:postcode": "64118", "addr:state": "MO", "addr:street_address": "528 NW ENGLEWOOD RD", "amenity": "post_box", "collection_times": "Mo-Fr 14:00; Sa 12:00", "note": "ON 12/24 AND 12/31, THIS BOX MAY BE COLLECTED AS EARLY AS 12 NOON.", "nsi_id": "unitedstatespostalservice-a77078", "operator": "United States Postal Service", "operator:short": "USPS", "operator:type": "public", "operator:wikidata": "Q668687", "ref": "6411800017"}, "type": "Feature"}
{"geometry": {"coordinates": [-94.57339, 39.225875], "type": "Point"}, "id": "fgZBAixmgVhEPbl1KQDoH32UWgk=", "properties": {"@source_uri": "https://tools.usps.com/UspsToolsRestServices/rest/POLocator/findLocations", "@spider": "usps_collection_boxes", "addr:city": "KANSAS CITY", "addr:country": "US", "addr:postcode": "64118", "addr:state": "MO", "addr:street_address": "4800 NE DAVIDSON RD", "amenity": "post_box", "collection_times": "Mo-Sa 10:00", "nsi_id": "unitedstatespostalservice-a77078", "operator": "United States Postal Service", "operator:short": "USPS", "operator:type": "public", "operator:wikidata": "Q668687", "ref": "6411800019"}, "type": "Feature"}
{"geometry": {"coordinates": [-94.5773358, 39.19404], "type": "Point"}, "id": "qeBAptDs1eiY1P2jEcnm9QzHDLA=", "properties": {"@source_uri": "https://tools.usps.com/UspsToolsRestServices/rest/POLocator/findLocations", "@spider": "usps_collection_boxes", "addr:city": "KANSAS CITY", "addr:country": "US", "addr:postcode": "64118", "addr:state": "MO", "addr:street_address": "5440 N OAK TRFY", "amenity": "post_box", "collection_times": "Mo-Fr 14:00; Sa 10:00", "note": "ON 12/24 AND 12/31, THIS BOX MAY BE COLLECTED AS EARLY AS 12 NOON.", "nsi_id": "unitedstatespostalservice-a77078", "operator": "United States Postal Service", "operator:short": "USPS", "operator:type": "public", "operator:wikidata": "Q668687", "ref": "6411800022"}, "type": "Feature"}
{"geometry": {"coordinates": [-94.5500449, 39.220628], "type": "Point"}, "id": "k9JjyuLvKGa-9LwyK33Nj5iyxr0=", "properties": {"@source_uri": "https://tools.usps.com/UspsToolsRestServices/rest/POLocator/findLocations", "@spider": "usps_collection_boxes", "addr:city": "KANSAS CITY", "addr:country": "US", "addr:postcode": "64118", "addr:state": "MO", "addr:street_address": "2401 NE 70TH ST", "amenity": "post_box", "collection_times": "Mo-Sa 10:00", "nsi_id": "unitedstatespostalservice-a77078", "operator": "United States Postal Service", "operator:short": "USPS", "operator:type": "public", "operator:wikidata": "Q668687", "ref": "6411800024"}, "type": "Feature"}
{"geometry": {"coordinates": [-94.585409453, 39.224151367], "type": "Point"}, "id": "6t6MHXo_ihAsQvwCmO_mqQZ0p88=", "properties": {"@source_uri": "https://tools.usps.com/UspsToolsRestServices/rest/POLocator/findLocations", "@spider": "usps_collection_boxes", "addr:city": "KANSAS CITY", "addr:country": "US", "addr:postcode": "64118", "addr:state": "MO", "addr:street_address": "7170 N BROADWAY ST", "amenity": "post_box", "collection_times": "Mo-Fr 17:00; Sa 13:30", "note": "ON 12/24 AND 12/31, THIS BOX MAY BE COLLECTED AS EARLY AS 12 NOON.", "nsi_id": "unitedstatespostalservice-a77078", "operator": "United States Postal Service", "operator:short": "USPS", "operator:type": "public", "operator:wikidata": "Q668687", "ref": "6411800030"}, "type": "Feature"}
{"geometry": {"coordinates": [-94.585409453, 39.224151367], "type": "Point"}, "id": "5u4zBYaK2w0Ift576yjKAQzmHmI=", "properties": {"@source_uri": "https://tools.usps.com/UspsToolsRestServices/rest/POLocator/findLocations", "@spider": "usps_collection_boxes", "addr:city": "KANSAS CITY", "addr:country": "US", "addr:postcode": "64118", "addr:state": "MO", "addr:street_address": "7170 N BROADWAY ST", "amenity": "post_box", "collection_times": "Mo-Fr 17:00; Sa 13:30", "indoor": "yes", "note": "ON 12/24 AND 12/31, THIS BOX MAY BE COLLECTED AS EARLY AS 12 NOON.", "nsi_id": "unitedstatespostalservice-a77078", "operator": "United States Postal Service", "operator:short": "USPS", "operator:type": "public", "operator:wikidata": "Q668687", "ref": "6411800035"}, "type": "Feature"}
{"geometry": {"coordinates": [-94.598049644, 39.244142638], "type": "Point"}, "id": "nwAIVxerOc6yFPweR4MbDYrpdAA=", "properties": {"@source_uri": "https://tools.usps.com/UspsToolsRestServices/rest/POLocator/findLocations", "@spider": "usps_collection_boxes", "addr:city": "KANSAS CITY", "addr:country": "US", "addr:postcode": "64118", "addr:state": "MO", "addr:street_address": "8300 N HICKORY ST", "amenity": "post_box", "collection_times": "Mo-Sa 10:00", "nsi_id": "unitedstatespostalservice-a77078", "operator": "United States Postal Service", "operator:short": "USPS", "operator:type": "public", "operator:wikidata": "Q668687", "ref": "6411800036"}, "type": "Feature"}
{"geometry": {"coordinates": [-94.585409453, 39.224151367], "type": "Point"}, "id": "PD2E5OwF-lyCl5aVrGBv4Iq-erA=", "properties": {"@source_uri": "https://tools.usps.com/UspsToolsRestServices/rest/POLocator/findLocations", "@spider": "usps_collection_boxes", "addr:city": "KANSAS CITY", "addr:country": "US", "addr:postcode": "64118", "addr:state": "MO", "addr:street_address": "7170 N BROADWAY ST", "amenity": "post_box", "collection_times": "Mo-Fr 17:00; Sa 13:30", "name": "USPS COLLECTION BOX - APC", "note": "ON 12/24 AND 12/31, THIS BOX MAY BE COLLECTED AS EARLY AS 12 NOON.", "nsi_id": "unitedstatespostalservice-a77078", "operator": "United States Postal Service", "operator:short": "USPS", "operator:type": "public", "operator:wikidata": "Q668687", "ref": "6411800038"}, "type": "Feature"}
{"geometry": {"coordinates": [-94.585409453, 39.224151367], "type": "Point"}, "id": "A09jhvo2rxBd5oRfu7fj-Kd1bnI=", "properties": {"@source_uri": "https://tools.usps.com/UspsToolsRestServices/rest/POLocator/findLocations", "@spider": "usps_collection_boxes", "addr:city": "KANSAS CITY", "addr:country": "US", "addr:postcode": "64118", "addr:state": "MO", "addr:street_address": "7170 N BROADWAY ST", "amenity": "post_box", "collection_times": "Mo-Fr 17:15", "indoor": "yes", "note": "ON 12/24 AND 12/31, THIS BOX MAY BE COLLECTED AS EARLY AS 12 NOON.", "nsi_id": "unitedstatespostalservice-a77078", "operator": "United States Postal Service", "operator:short": "USPS", "operator:type": "public", "operator:wikidata": "Q668687", "ref": "6411800043"}, "type": "Feature"}
{"geometry": {"coordinates": [-94.542905, 39.20629], "type": "Point"}, "id": "S_tzilekZZ5czwQgOVDA_Lx2qGg=", "properties": {"@source_uri": "https://tools.usps.com/UspsToolsRestServices/rest/POLocator/findLocations", "@spider": "usps_collection_boxes", "addr:city": "KANSAS CITY", "addr:country": "US", "addr:postcode": "64119", "addr:state": "MO", "addr:street_address": "4810 NE VIVION RD", "amenity": "post_box", "collection_times": "Mo-Fr 16:45; Sa 12:15", "note": "ON 12/24 AND 12/31, THIS BOX MAY BE COLLECTED AS EARLY AS 12 NOON.", "nsi_id": "unitedstatespostalservice-a77078", "operator": "United States Postal Service", "operator:short": "USPS", "operator:type": "public", "operator:wikidata": "Q668687", "ref": "6411900006"}, "type": "Feature"}
{"geometry": {"coordinates": [-94.5312464235, 39.1880672801], "type": "Point"}, "id": "S7BdEeVxH_amKMczCVOlr8gy6YE=", "properties": {"@source_uri": "https://tools.usps.com/UspsToolsRestServices/rest/POLocator/findLocations", "@spider": "usps_collection_boxes", "addr:city": "KANSAS CITY", "addr:country": "US", "addr:postcode": "64119", "addr:state": "MO", "addr:street_address": "4112 NE VIVION RD", "amenity": "post_box", "collection_times": "Mo-Sa 10:00", "nsi_id": "unitedstatespostalservice-a77078", "operator": "United States Postal Service", "operator:short": "USPS", "operator:type": "public", "operator:wikidata": "Q668687", "ref": "6411900009"}, "type": "Feature"}
{"geometry": {"coordinates": [-94.542905, 39.20629], "type": "Point"}, "id": "UDG2ALoE2J49BSKKaicPCweGPWg=", "properties": {"@source_uri": "https://tools.usps.com/UspsToolsRestServices/rest/POLocator/findLocations", "@spider": "usps_collection_boxes", "addr:city": "KANSAS CITY", "addr:country": "US", "addr:postcode": "64119", "addr:state": "MO", "addr:street_address": "445 69 HWY", "amenity": "post_box", "collection_times": "Mo-Sa 11:45", "nsi_id": "unitedstatespostalservice-a77078", "operator": "United States Postal Service", "operator:short": "USPS", "operator:type": "public", "operator:wikidata": "Q668687", "ref": "6411900010"}, "type": "Feature"}
{"geometry": {"coordinates": [-94.5461499, 39.200214], "type": "Point"}, "id": "yYX5B5jHLbkWYnusYNSYKYy1Qw4=", "properties": {"@source_uri": "https://tools.usps.com/UspsToolsRestServices/rest/POLocator/findLocations", "@spider": "usps_collection_boxes", "addr:city": "KANSAS CITY", "addr:country": "US", "addr:postcode": "64119", "addr:state": "MO", "addr:street_address": "2850 NE KENDALLWOOD PKWY", "amenity": "post_box", "collection_times": "Mo-Sa 10:00", "nsi_id": "unitedstatespostalservice-a77078", "operator": "United States Postal Service", "operator:short": "USPS", "operator:type": "public", "operator:wikidata": "Q668687", "ref": "6411900015"}, "type": "Feature"}
{"geometry": {"coordinates": [-94.5486901393, 39.1895922143], "type": "Point"}, "id": "lTRmIWZXR8YXTGycrikrZ4H9TJ8=", "properties": {"@source_uri": "https://tools.usps.com/UspsToolsRestServices/rest/POLocator/findLocations", "@spider": "usps_collection_boxes", "addr:city": "KANSAS CITY", "addr:country": "US", "addr:postcode": "64119", "addr:state": "MO", "addr:street_address": "5261 NE ANTIOCH RD", "amenity": "post_box", "collection_times": "Mo-Sa 11:15", "nsi_id": "unitedstatespostalservice-a77078", "operator": "United States Postal Service", "operator:short": "USPS", "operator:type": "public", "operator:wikidata": "Q668687", "ref": "6411900024"}, "type": "Feature"}
{"geometry": {"coordinates": [-94.5418491268, 39.2433182663], "type": "Point"}, "id": "xYH-1V8pyjWG9obBmMFtXn0zaTY=", "properties": {"@source_uri": "https://tools.usps.com/UspsToolsRestServices/rest/POLocator/findLocations", "@spider": "usps_collection_boxes", "addr:city": "KANSAS CITY", "addr:country": "US", "addr:postcode": "64119", "addr:state": "MO", "addr:street_address": "3100 NE 83RD ST", "amenity": "post_box", "collection_times": "Mo-Sa 10:00", "nsi_id": "unitedstatespostalservice-a77078", "operator": "United States Postal Service", "operator:short": "USPS", "operator:type": "public", "operator:wikidata": "Q668687", "ref": "6411900028"}, "type": "Feature"}
{"geometry": {"coordinates": [-94.523003026, 39.188013461], "type": "Point"}, "id": "p-UKgrs4dE6xM8INJxvaiOlMm9Y=", "properties": {"@source_uri": "https://tools.usps.com/UspsToolsRestServices/rest/POLocator/findLocations", "@spider": "usps_collection_boxes", "addr:city": "KANSAS CITY", "addr:country": "US", "addr:postcode": "64119", "addr:state": "MO", "addr:street_address": "4810 NE VIVION RD", "amenity": "post_box", "collection_times": "Mo-Fr 17:00; Sa 12:30", "indoor": "yes", "note": "ON 12/24 AND 12/31, THIS BOX MAY BE COLLECTED AS EARLY AS 12 NOON.", "nsi_id": "unitedstatespostalservice-a77078", "operator": "United States Postal Service", "operator:short": "USPS", "operator:type": "public", "operator:wikidata": "Q668687", "ref": "6411900030"}, "type": "Feature"}
{"geometry": {"coordinates": [-94.523003026, 39.188013461], "type": "Point"}, "id": "u95oW9_daHc_ZerkTItiJDw-_nE=", "properties": {"@source_uri": "https://tools.usps.com/UspsToolsRestServices/rest/POLocator/findLocations", "@spider": "usps_collection_boxes", "addr:city": "KANSAS CITY", "addr:country": "US", "addr:postcode": "64119", "addr:state": "MO", "addr:street_address": "4810 NE VIVION RD", "amenity": "post_box", "collection_times": "Mo-Fr 17:00; Sa 12:30", "name": "USPS COLLECTION BOX - APC", "note": "ON 12/24 AND 12/31, THIS BOX MAY BE COLLECTED AS EARLY AS 12 NOON.", "nsi_id": "unitedstatespostalservice-a77078", "operator": "United States Postal Service", "operator:short": "USPS", "operator:type": "public", "operator:wikidata": "Q668687", "ref": "6411900035"}, "type": "Feature"}
{"geometry": {"coordinates": [-94.523003026, 39.188013461], "type": "Point"}, "id": "VZ7tPRxnRlwqWoOjkfZQJbuxH74=", "properties": {"@source_uri": "https://tools.usps.com/UspsToolsRestServices/rest/POLocator/findLocations", "@spider": "usps_collection_boxes", "addr:city": "KANSAS CITY", "addr:country": "US", "addr:postcode": "64119", "addr:state": "MO", "addr:street_address": "4810 NE VIVION RD", "amenity": "post_box", "collection_times": "Mo-Fr 17:15; Sa 12:45", "indoor": "yes", "note": "ON 12/24 AND 12/31, THIS BOX MAY BE COLLECTED AS EARLY AS 12 NOON.", "nsi_id": "unitedstatespostalservice-a77078", "operator": "United States Postal Service", "operator:short": "USPS", "operator:type": "public", "operator:wikidata": "Q668687", "ref": "6411900043"}, "type": "Feature"}
{"geometry": {"coordinates": [-94.505661656, 39.137595924], "type": "Point"}, "id": "BY3417VY0WcUbAZXsW4zPYjAEJI=", "properties": {"@source_uri": "https://tools.usps.com/UspsToolsRestServices/rest/POLocator/findLocations", "@spider": "usps_collection_boxes", "addr:city": "KANSAS CITY", "addr:country": "US", "addr:postcode": "64120", "addr:state": "MO", "addr:street_address": "1740 UNIVERSAL AVE", "amenity": "post_box", "collection_times": "Mo-Fr 15:45; Sa 15:00", "note": "ON 12/24 AND 12/31, THIS BOX MAY BE COLLECTED AS EARLY AS 12 NOON.", "nsi_id": "unitedstatespostalservice-a77078", "operator": "United States Postal Service", "operator:short": "USPS", "operator:type": "public", "operator:wikidata": "Q668687", "ref": "6412000006"}, "type": "Feature"}
{"geometry": {"coordinates": [-94.505661656, 39.137595924], "type": "Point"}, "id": "lXi7QTL0L31TXbB87mxd2gqdfqo=", "properties": {"@source_uri": "https://tools.usps.com/UspsToolsRestServices/rest/POLocator/findLocations", "@spider": "usps_collection_boxes", "addr:city": "KANSAS CITY", "addr:country": "US", "addr:postcode": "64120", "addr:state": "MO", "addr:street_address": "1740 UNIVERSAL AVE", "amenity": "post_box", "collection_times": "Mo-Fr 17:00; Sa 15:00", "indoor": "yes", "note": "ON 12/24 AND 12/31, THIS BOX MAY BE COLLECTED AS EARLY AS 12 NOON.", "nsi_id": "unitedstatespostalservice-a77078", "operator": "United States Postal Service", "operator:short": "USPS", "operator:type": "public", "operator:wikidata": "Q668687", "ref": "6412000020"}, "type": "Feature"}
{"geometry": {"coordinates": [-94.505661656, 39.137595924], "type": "Point"}, "id": "6itrSI9PoLO2lZUSUmyBlZHDInY=", "properties": {"@source_uri": "https://tools.usps.com/UspsToolsRestServices/rest/POLocator/findLocations", "@spider": "usps_collection_boxes", "addr:city": "KANSAS CITY", "addr:country": "US", "addr:postcode": "64120", "addr:state": "MO", "addr:street_address": "1740 UNIVERSAL AVE", "amenity": "post_box", "collection_times": "Mo-Fr 17:00; Sa 15:00", "indoor": "yes", "note": "ON 12/24 AND 12/31, THIS BOX MAY BE COLLECTED AS EARLY AS 12 NOON.", "nsi_id": "unitedstatespostalservice-a77078", "operator": "United States Postal Service", "operator:short": "USPS", "operator:type": "public", "operator:wikidata": "Q668687", "ref": "6412000021"}, "type": "Feature"}
{"geometry": {"coordinates": [-94.5576067853, 39.1174048742], "type": "Point"}, "id": "r3SUaRdWzicRzrEcLF0hl-wBwnw=", "properties": {"@source_uri": "https://tools.usps.com/UspsToolsRestServices/rest/POLocator/findLocations", "@spider": "usps_collection_boxes", "addr:city": "KANSAS CITY", "addr:country": "US", "addr:postcode": "64120", "addr:state": "MO", "addr:street_address": "2001 GUINOTTE AVE", "amenity": "post_box", "collection_times": "Mo-Fr 12:00; Sa 10:00", "nsi_id": "unitedstatespostalservice-a77078", "operator": "United States Postal Service", "operator:short": "USPS", "operator:type": "public", "operator:wikidata": "Q668687", "ref": "6412000025"}, "type": "Feature"}
{"geometry": {"coordinates": [-94.505661656, 39.137595924], "type": "Point"}, "id": "HzC8Y1e2Wg-7gb3k9aTHcDfTlt0=", "properties": {"@source_uri": "https://tools.usps.com/UspsToolsRestServices/rest/POLocator/findLocations", "@spider": "usps_collection_boxes", "addr:city": "KANSAS CITY", "addr:country": "US", "addr:postcode": "64120", "addr:state": "MO", "addr:street_address": "1740 UNIVERSAL AVE", "amenity": "post_box", "collection_times": "Mo-Fr 16:15", "indoor": "yes", "note": "ON 12/24 AND 12/31, THIS BOX MAY BE COLLECTED AS EARLY AS 12 NOON.", "nsi_id": "unitedstatespostalservice-a77078", "operator": "United States Postal Service", "operator:short": "USPS", "operator:type": "public", "operator:wikidata": "Q668687", "ref": "6412000026"}, "type": "Feature"}
{"geometry": {"coordinates": [-94.518605208, 39.112801795], "type": "Point"}, "id": "6Mf_DKWbFYkuCx8Mlm91_DaKXRY=", "properties": {"@source_uri": "https://tools.usps.com/UspsToolsRestServices/rest/POLocator/findLocations", "@spider": "usps_collection_boxes", "addr:city": "KANSAS CITY", "addr:country": "US", "addr:postcode": "64123", "addr:state": "MO", "addr:street_address": "105 N HARDESTY AVE", "amenity": "post_box", "collection_times": "Mo-Fr 16:00; Sa 13:30", "note": "ON 12/24 AND 12/31, THIS BOX MAY BE COLLECTED AS EARLY AS 12 NOON.", "nsi_id": "unitedstatespostalservice-a77078", "operator": "United States Postal Service", "operator:short": "USPS", "operator:type": "public", "operator:wikidata": "Q668687", "ref": "6412300001"}, "type": "Feature"}
{"geometry": {"coordinates": [-94.5128604, 39.112375], "type": "Point"}, "id": "foKlRLntageq3djlnKEA5R-ne4o=", "properties": {"@source_uri": "https://tools.usps.com/UspsToolsRestServices/rest/POLocator/findLocations", "@spider": "usps_collection_boxes", "addr:city": "KANSAS CITY", "addr:country": "US", "addr:postcode": "64123", "addr:state": "MO", "addr:street_address": "5900 SAINT JOHN AVE", "amenity": "post_box", "collection_times": "Mo-Sa 09:30", "nsi_id": "unitedstatespostalservice-a77078", "operator": "United States Postal Service", "operator:short": "USPS", "operator:type": "public", "operator:wikidata": "Q668687", "ref": "6412300003"}, "type": "Feature"}
{"geometry": {"coordinates": [-94.5117078394, 39.1060292598], "type": "Point"}, "id": "MxlWAbna2PXGVNYmHfEkDOGUOPA=", "properties": {"@source_uri": "https://tools.usps.com/UspsToolsRestServices/rest/POLocator/findLocations", "@spider": "usps_collection_boxes", "addr:city": "KANSAS CITY", "addr:country": "US", "addr:postcode": "64123", "addr:state": "MO", "addr:street_address": "6000 WILSON RD", "amenity": "post_box", "collection_times": "Mo-Fr 15:00; Sa 10:00", "note": "ON 12/24 AND 12/31, THIS BOX MAY BE COLLECTED AS EARLY AS 12 NOON.", "nsi_id": "unitedstatespostalservice-a77078", "operator": "United States Postal Service", "operator:short": "USPS", "operator:type": "public", "operator:wikidata": "Q668687", "ref": "6412300019"}, "type": "Feature"}
{"geometry": {"coordinates": [-94.518605208, 39.112801795], "type": "Point"}, "id": "YpPdI1BvYuZlCydlH8jLUX_h71U=", "properties": {"@source_uri": "https://tools.usps.com/UspsToolsRestServices/rest/POLocator/findLocations", "@spider": "usps_collection_boxes", "addr:city": "KANSAS CITY", "addr:country": "US", "addr:postcode": "64123", "addr:state": "MO", "addr:street_address": "105 N HARDESTY AVE", "amenity": "post_box", "collection_times": "Mo-Fr 10:15", "indoor": "yes", "nsi_id": "unitedstatespostalservice-a77078", "operator": "United States Postal Service", "operator:short": "USPS", "operator:type": "public", "operator:wikidata": "Q668687", "ref": "6412300020"}, "type": "Feature"}
{"geometry": {"coordinates": [-94.518605208, 39.112801795], "type": "Point"}, "id": "Sd0Y9pR2II1LnQYR_XXbo4RnqIw=", "properties": {"@source_uri": "https://tools.usps.com/UspsToolsRestServices/rest/POLocator/findLocations", "@spider": "usps_collection_boxes", "addr:city": "KANSAS CITY", "addr:country": "US", "addr:postcode": "64123", "addr:state": "MO", "addr:street_address": "105 N HARDESTY AVE", "amenity": "post_box", "collection_times": "Mo-Fr 10:30", "indoor": "yes", "nsi_id": "unitedstatespostalservice-a77078", "operator": "United States Postal Service", "operator:short": "USPS", "operator:type": "public", "operator:wikidata": "Q668687", "ref": "6412300022"}, "type": "Feature"}
{"geometry": {"coordinates": [-94.55162, 39.10846], "type": "Point"}, "id": "9TsYc1OV7frBYdq9yLMAOV8pDqA=", "properties": {"@source_uri": "https://tools.usps.com/UspsToolsRestServices/rest/POLocator/findLocations", "@spider": "usps_collection_boxes", "addr:city": "KANSAS CITY", "addr:country": "US", "addr:postcode": "64124", "addr:state": "MO", "addr:street_address": "3401 INDEPENDENCE AVE", "amenity": "post_box", "collection_times": "Mo-Sa 13:00", "note": "ON 12/24 AND 12/31, THIS BOX MAY BE COLLECTED AS EARLY AS 12 NOON.", "nsi_id": "unitedstatespostalservice-a77078", "operator": "United States Postal Service", "operator:short": "USPS", "operator:type": "public", "operator:wikidata": "Q668687", "ref": "6412400022"}, "type": "Feature"}
{"geometry": {"coordinates": [-94.507395, 39.10399], "type": "Point"}, "id": "NgD7lbv-8XaND8CIumGA8MZUKek=", "properties": {"@source_uri": "https://tools.usps.com/UspsToolsRestServices/rest/POLocator/findLocations", "@spider": "usps_collection_boxes", "addr:city": "KANSAS CITY", "addr:country": "US", "addr:postcode": "64125", "addr:state": "MO", "addr:street_address": "6400 INDEPENDENCE AVE", "amenity": "post_box", "collection_times": "Mo-Sa 10:00", "nsi_id": "unitedstatespostalservice-a77078", "operator": "United States Postal Service", "operator:short": "USPS", "operator:type": "public", "operator:wikidata": "Q668687", "ref": "6412500003"}, "type": "Feature"}
{"geometry": {"coordinates": [-94.5139269785, 39.0942770052], "type": "Point"}, "id": "psJOyFbtZ7VH9ok4Ox7NHBk5woY=", "properties": {"@source_uri": "https://tools.usps.com/UspsToolsRestServices/rest/POLocator/findLocations", "@spider": "usps_collection_boxes", "addr:city": "KANSAS CITY", "addr:country": "US", "addr:postcode": "64126", "addr:state": "MO", "addr:street_address": "5824 E TRUMAN RD", "amenity": "post_box", "collection_times": "Mo-Fr 16:00; Sa 14:00", "note": "ON 12/24 AND 12/31, THIS BOX MAY BE COLLECTED AS EARLY AS 12 NOON.", "nsi_id": "unitedstatespostalservice-a77078", "operator": "United States Postal Service", "operator:short": "USPS", "operator:type": "public", "operator:wikidata": "Q668687", "ref": "6412600006"}, "type": "Feature"}
{"geometry": {"coordinates": [-94.514394187, 39.094051067], "type": "Point"}, "id": "S7mqT4udNlM03282sgv8PgZKQGs=", "properties": {"@source_uri": "https://tools.usps.com/UspsToolsRestServices/rest/POLocator/findLocations", "@spider": "usps_collection_boxes", "addr:city": "KANSAS CITY", "addr:country": "US", "addr:postcode": "64126", "addr:state": "MO", "addr:street_address": "5824 E TRUMAN RD", "amenity": "post_box", "collection_times": "Mo-Fr 13:30", "indoor": "yes", "note": "ON 12/24 AND 12/31, THIS BOX MAY BE COLLECTED AS EARLY AS 12 NOON.", "nsi_id": "unitedstatespostalservice-a77078", "operator": "United States Postal Service", "operator:short": "USPS", "operator:type": "public", "operator:wikidata": "Q668687", "ref": "6412600013"}, "type": "Feature"}
{"geometry": {"coordinates": [-94.514394187, 39.094051067], "type": "Point"}, "id": "mu2Af1rNblhj9XWMm5EKanGgva4=", "properties": {"@source_uri": "https://tools.usps.com/UspsToolsRestServices/rest/POLocator/findLocations", "@spider": "usps_collection_boxes", "addr:city": "KANSAS CITY", "addr:country": "US", "addr:postcode": "64126", "addr:state": "MO", "addr:street_address": "5824 E TRUMAN RD", "amenity": "post_box", "collection_times": "Mo-Fr 13:45", "indoor": "yes", "note": "ON 12/24 AND 12/31, THIS BOX MAY BE COLLECTED AS EARLY AS 12 NOON.", "nsi_id": "unitedstatespostalservice-a77078", "operator": "United States Postal Service", "operator:short": "USPS", "operator:type": "public", "operator:wikidata": "Q668687", "ref": "6412600015"}, "type": "Feature"}
{"geometry": {"coordinates": [-94.553505, 39.094805], "type": "Point"}, "id": "YM8l5wEK0cjiLJX_LPEkU1CfbWA=", "properties": {"@source_uri": "https://tools.usps.com/UspsToolsRestServices/rest/POLocator/findLocations", "@spider": "usps_collection_boxes", "addr:city": "KANSAS CITY", "addr:country": "US", "addr:postcode": "64127", "addr:state": "MO", "addr:street_address": "2201 E TRUMAN RD", "amenity": "post_box", "collection_times": "Mo-Fr 17:00; Sa 16:45", "note": "ON 12/24 AND 12/31, THIS BOX MAY BE COLLECTED AS EARLY AS 12 NOON.", "nsi_id": "unitedstatespostalservice-a77078", "operator": "United States Postal Service", "operator:short": "USPS", "operator:type": "public", "operator:wikidata": "Q668687", "ref": "6412700032"}, "type": "Feature"}
{"geometry": {"coordinates": [-94.55557258, 39.094835527], "type": "Point"}, "id": "gKnDztbDmMqQLMxxuo-II-JZYzw=", "properties": {"@source_uri": "https://tools.usps.com/UspsToolsRestServices/rest/POLocator/findLocations", "@spider": "usps_collection_boxes", "addr:city": "KANSAS CITY", "addr:country": "US", "addr:postcode": "64127", "addr:state": "MO", "addr:street_address": "2201 E TRUMAN RD", "amenity": "post_box", "collection_times": "Mo-Fr 17:00; Sa 12:30", "indoor": "yes", "note": "ON 12/24 AND 12/31, THIS BOX MAY BE COLLECTED AS EARLY AS 12 NOON.", "nsi_id": "unitedstatespostalservice-a77078", "operator": "United States Postal Service", "operator:short": "USPS", "operator:type": "public", "operator:wikidata": "Q668687", "ref": "6412700033"}, "type": "Feature"}
{"geometry": {"coordinates": [-94.5381228, 39.091733], "type": "Point"}, "id": "Rhwk1ZSO7kxk3MAwg9tRiX2qhag=", "properties": {"@source_uri": "https://tools.usps.com/UspsToolsRestServices/rest/POLocator/findLocations", "@spider": "usps_collection_boxes", "addr:city": "KANSAS CITY", "addr:country": "US", "addr:postcode": "64127", "addr:state": "MO", "addr:street_address": "1700 CLEVELAND AVE", "amenity": "post_box", "collection_times": "Mo-Fr 18:30; Sa 18:00", "note": "ON 12/24 AND 12/31, THIS BOX MAY BE COLLECTED AS EARLY AS 12 NOON.", "nsi_id": "unitedstatespostalservice-a77078", "operator": "United States Postal Service", "operator:short": "USPS", "operator:type": "public", "operator:wikidata": "Q668687", "ref": "6412700034"}, "type": "Feature"}
{"geometry": {"coordinates": [-94.55557258, 39.094835527], "type": "Point"}, "id": "7zUahhKibThnfczndVDEGjChNUk=", "properties": {"@source_uri": "https://tools.usps.com/UspsToolsRestServices/rest/POLocator/findLocations", "@spider": "usps_collection_boxes", "addr:city": "KANSAS CITY", "addr:country": "US", "addr:postcode": "64127", "addr:state": "MO", "addr:street_address": "2201 E TRUMAN RD", "amenity": "post_box", "collection_times": "Mo-Fr 17:15; Sa 12:45", "indoor": "yes", "note": "ON 12/24 AND 12/31, THIS BOX MAY BE COLLECTED AS EARLY AS 12 NOON.", "nsi_id": "unitedstatespostalservice-a77078", "operator": "United States Postal Service", "operator:short": "USPS", "operator:type": "public", "operator:wikidata": "Q668687", "ref": "6412700038"}, "type": "Feature"}
{"geometry": {"coordinates": [-94.5266669684, 39.0632950184], "type": "Point"}, "id": "IGpFWaDj74hn-OvW4jJ2lhyBzEY=", "properties": {"@source_uri": "https://tools.usps.com/UspsToolsRestServices/rest/POLocator/findLocations", "@spider": "usps_collection_boxes", "addr:city": "KANSAS CITY", "addr:country": "US", "addr:postcode": "64128", "addr:state": "MO", "addr:street_address": "4801 E LINWOOD BLVD", "amenity": "post_box", "collection_times": "Mo-Sa 11:30", "nsi_id": "unitedstatespostalservice-a77078", "operator": "United States Postal Service", "operator:short": "USPS", "operator:type": "public", "operator:wikidata": "Q668687", "ref": "6412800012"}, "type": "Feature"}
{"geometry": {"coordinates": [-94.552845116, 39.07018119], "type": "Point"}, "id": "SGc9hxJfpy0VKbwAyjgM_29LKKs=", "properties": {"@source_uri": "https://tools.usps.com/UspsToolsRestServices/rest/POLocator/findLocations", "@spider": "usps_collection_boxes", "addr:city": "KANSAS CITY", "addr:country": "US", "addr:postcode": "64128", "addr:state": "MO", "addr:street_address": "3050 PROSPECT AVE", "amenity": "post_box", "collection_times": "Mo-Fr 15:00; Sa 12:00", "note": "ON 12/24 AND 12/31, THIS BOX MAY BE COLLECTED AS EARLY AS 12 NOON.", "nsi_id": "unitedstatespostalservice-a77078", "operator": "United States Postal Service", "operator:short": "USPS", "operator:type": "public", "operator:wikidata": "Q668687", "ref": "6412800028"}, "type": "Feature"}
{"geometry": {"coordinates": [-94.552933749, 39.067237183], "type": "Point"}, "id": "L0rAWvEExfmd5VevbUoAx1JYM1k=", "properties": {"@source_uri": "https://tools.usps.com/UspsToolsRestServices/rest/POLocator/findLocations", "@spider": "usps_collection_boxes", "addr:city": "KANSAS CITY", "addr:country": "US", "addr:postcode": "64128", "addr:state": "MO", "addr:street_address": "3231 PROSPECT AVE", "amenity": "post_box", "collection_times": "Mo-Fr 16:00; Sa 12:45", "note": "ON 12/24 AND 12/31, THIS BOX MAY BE COLLECTED AS EARLY AS 12 NOON.", "nsi_id": "unitedstatespostalservice-a77078", "operator": "United States Postal Service", "operator:short": "USPS", "operator:type": "public", "operator:wikidata": "Q668687", "ref": "6412800031"}, "type": "Feature"}
{"geometry": {"coordinates": [-94.552933749, 39.067237183], "type": "Point"}, "id": "Ce_-X7hsL3W3SJ5wZmGadbOa5s0=", "properties": {"@source_uri": "https://tools.usps.com/UspsToolsRestServices/rest/POLocator/findLocations", "@spider": "usps_collection_boxes", "addr:city": "KANSAS CITY", "addr:country": "US", "addr:postcode": "64128", "addr:state": "MO", "addr:street_address": "3231 PROSPECT AVE", "amenity": "post_box", "collection_times": "Mo-Fr 16:00", "indoor": "yes", "note": "ON 12/24 AND 12/31, THIS BOX MAY BE COLLECTED AS EARLY AS 12 NOON.", "nsi_id": "unitedstatespostalservice-a77078", "operator": "United States Postal Service", "operator:short": "USPS", "operator:type": "public", "operator:wikidata": "Q668687", "ref": "6412800033"}, "type": "Feature"}
{"geometry": {"coordinates": [-94.552933749, 39.067237183], "type": "Point"}, "id": "azfxdXQzPFKFi5f3Y-WYSbKEX2w=", "properties": {"@source_uri": "https://tools.usps.com/UspsToolsRestServices/rest/POLocator/findLocations", "@spider": "usps_collection_boxes", "addr:city": "KANSAS CITY", "addr:country": "US", "addr:postcode": "64128", "addr:state": "MO", "addr:street_address": "3231 PROSPECT AVE", "amenity": "post_box", "collection_times": "Mo-Fr 16:00", "indoor": "yes", "note": "ON 12/24 AND 12/31, THIS BOX MAY BE COLLECTED AS EARLY AS 12 NOON.", "nsi_id": "unitedstatespostalservice-a77078", "operator": "United States Postal Service", "operator:short": "USPS", "operator:type": "public", "operator:wikidata": "Q668687", "ref": "6412800034"}, "type": "Feature"}
{"geometry": {"coordinates": [-94.552933749, 39.067237183], "type": "Point"}, "id": "JpV5zQBR-ObijS79vVTXvkOG_mU=", "properties": {"@source_uri": "https://tools.usps.com/UspsToolsRestServices/rest/POLocator/findLocations", "@spider": "usps_collection_boxes", "addr:city": "KANSAS CITY", "addr:country": "US", "addr:postcode": "64128", "addr:state": "MO", "addr:street_address": "3231 PROSPECT AVE", "amenity": "post_box", "collection_times": "Mo-Fr 15:45", "indoor": "yes", "note": "ON 12/24 AND 12/31, THIS BOX MAY BE COLLECTED AS EARLY AS 12 NOON.", "nsi_id": "unitedstatespostalservice-a77078", "operator": "United States Postal Service", "operator:short": "USPS", "operator:type": "public", "operator:wikidata": "Q668687", "ref": "6412800036"}, "type": "Feature"}
{"geometry": {"coordinates": [-94.534871527, 39.034860504], "type": "Point"}, "id": "5toSNDlDTZTOgJ7N68sXH16gSa8=", "properties": {"@source_uri": "https://tools.usps.com/UspsToolsRestServices/rest/POLocator/findLocations", "@spider": "usps_collection_boxes", "addr:city": "KANSAS CITY", "addr:country": "US", "addr:postcode": "64130", "addr:state": "MO", "addr:street_address": "4320 BLUE PKWY", "amenity": "post_box", "collection_times": "Mo-Fr 17:00; Sa 15:30", "note": "ON 12/24 AND 12/31, THIS BOX MAY BE COLLECTED AS EARLY AS 12 NOON.", "nsi_id": "unitedstatespostalservice-a77078", "operator": "United States Postal Service", "operator:short": "USPS", "operator:type": "public", "operator:wikidata": "Q668687", "ref": "6413000001"}, "type": "Feature"}
{"geometry": {"coordinates": [-94.534871527, 39.034860504], "type": "Point"}, "id": "TRPcMM-xs8l6CatqxrdQPg_HBBM=", "properties": {"@source_uri": "https://tools.usps.com/UspsToolsRestServices/rest/POLocator/findLocations", "@spider": "usps_collection_boxes", "addr:city": "KANSAS CITY", "addr:country": "US", "addr:postcode": "64130", "addr:state": "MO", "addr:street_address": "4320 BLUE PKWY", "amenity": "post_box", "collection_times": "Mo-Fr 17:00; Sa 15:30", "indoor": "yes", "note": "ON 12/24 AND 12/31, THIS BOX MAY BE COLLECTED AS EARLY AS 12 NOON.", "nsi_id": "unitedstatespostalservice-a77078", "operator": "United States Postal Service", "operator:short": "USPS", "operator:type": "public", "operator:wikidata": "Q668687", "ref": "6413000025"}, "type": "Feature"}
{"geometry": {"coordinates": [-94.534871527, 39.034860504], "type": "Point"}, "id": "GnidaLbHbVGWpb_G_UnMslF_4Wo=", "properties": {"@source_uri": "https://tools.usps.com/UspsToolsRestServices/rest/POLocator/findLocations", "@spider": "usps_collection_boxes", "addr:city": "KANSAS CITY", "addr:country": "US", "addr:postcode": "64130", "addr:state": "MO", "addr:street_address": "4320 BLUE PKWY", "amenity": "post_box", "collection_times": "Mo-Fr 17:15; Sa 12:30", "indoor": "yes", "note": "ON 12/24 AND 12/31, THIS BOX MAY BE COLLECTED AS EARLY AS 12 NOON.", "nsi_id": "unitedstatespostalservice-a77078", "operator": "United States Postal Service", "operator:short": "USPS", "operator:type": "public", "operator:wikidata": "Q668687", "ref": "6413000027"}, "type": "Feature"}
{"geometry": {"coordinates": [-94.5834489112, 38.9253425436], "type": "Point"}, "id": "0cMxzSGI3OI_8XrVN85ox4oG_As=", "properties": {"@source_uri": "https://tools.usps.com/UspsToolsRestServices/rest/POLocator/findLocations", "@spider": "usps_collection_boxes", "addr:city": "KANSAS CITY", "addr:country": "US", "addr:postcode": "64131", "addr:state": "MO", "addr:street_address": "11112 HOLMES RD", "amenity": "post_box", "collection_times": "Mo-Sa 10:15", "nsi_id": "unitedstatespostalservice-a77078", "operator": "United States Postal Service", "operator:short": "USPS", "operator:type": "public", "operator:wikidata": "Q668687", "ref": "6413100001"}, "type": "Feature"}
{"geometry": {"coordinates": [-94.57577, 38.98908], "type": "Point"}, "id": "LJ40KVsu6K6531s7McVZq4jDyLM=", "properties": {"@source_uri": "https://tools.usps.com/UspsToolsRestServices/rest/POLocator/findLocations", "@spider": "usps_collection_boxes", "addr:city": "KANSAS CITY", "addr:country": "US", "addr:postcode": "64131", "addr:state": "MO", "addr:street_address": "7420 TROOST AVE", "amenity": "post_box", "collection_times": "Mo-Fr 17:15; Sa 15:30", "note": "ON 12/24 AND 12/31, THIS BOX MAY BE COLLECTED AS EARLY AS 12 NOON.", "nsi_id": "unitedstatespostalservice-a77078", "operator": "United States Postal Service", "operator:short": "USPS", "operator:type": "public", "operator:wikidata": "Q668687", "ref": "6413100011"}, "type": "Feature"}
{"geometry": {"coordinates": [-94.5815627, 38.938645], "type": "Point"}, "id": "4MVy_hQeRUlKMukBB3k40v0uRqY=", "properties": {"@source_uri": "https://tools.usps.com/UspsToolsRestServices/rest/POLocator/findLocations", "@spider": "usps_collection_boxes", "addr:city": "KANSAS CITY", "addr:country": "US", "addr:postcode": "64131", "addr:state": "MO", "addr:street_address": "10401 HOLMES RD", "amenity": "post_box", "collection_times": "Mo-Sa 10:00", "nsi_id": "unitedstatespostalservice-a77078", "operator": "United States Postal Service", "operator:short": "USPS", "operator:type": "public", "operator:wikidata": "Q668687", "ref": "6413100028"}, "type": "Feature"}
{"geometry": {"coordinates": [-94.5815711, 38.94326], "type": "Point"}, "id": "1gwPfXfDhdDGzofApiZjozcufe8=", "properties": {"@source_uri": "https://tools.usps.com/UspsToolsRestServices/rest/POLocator/findLocations", "@spider": "usps_collection_boxes", "addr:city": "KANSAS CITY", "addr:country": "US", "addr:postcode": "64131", "addr:state": "MO", "addr:street_address": "800 E 101ST ST TER", "amenity": "post_box", "collection_times": "Mo-Sa 09:45", "nsi_id": "unitedstatespostalservice-a77078", "operator": "United States Postal Service", "operator:short": "USPS", "operator:type": "public", "operator:wikidata": "Q668687", "ref": "6413100033"}, "type": "Feature"}
{"geometry": {"coordinates": [-94.5838774, 38.947437], "type": "Point"}, "id": "_yEk91TzOL0A_tXe5eFsRz8dJIw=", "properties": {"@source_uri": "https://tools.usps.com/UspsToolsRestServices/rest/POLocator/findLocations", "@spider": "usps_collection_boxes", "addr:city": "KANSAS CITY", "addr:country": "US", "addr:postcode": "64131", "addr:state": "MO", "addr:street_address": "9912 HOLMES RD STE B", "amenity": "post_box", "collection_times": "Mo-Sa 10:15", "nsi_id": "unitedstatespostalservice-a77078", "operator": "United States Postal Service", "operator:short": "USPS", "operator:type": "public", "operator:wikidata": "Q668687", "ref": "6413100037"}, "type": "Feature"}
{"geometry": {"coordinates": [-94.5870760151, 38.9264580183], "type": "Point"}, "id": "cMKhyjMlujQe-pBvmlhy14K0Rqk=", "properties": {"@source_uri": "https://tools.usps.com/UspsToolsRestServices/rest/POLocator/findLocations", "@spider": "usps_collection_boxes", "addr:city": "KANSAS CITY", "addr:country": "US", "addr:postcode": "64131", "addr:state": "MO", "addr:street_address": "400 E RED BRIDGE RD", "amenity": "post_box", "collection_times": "Mo-Sa 10:15", "nsi_id": "unitedstatespostalservice-a77078", "operator": "United States Postal Service", "operator:short": "USPS", "operator:type": "public", "operator:wikidata": "Q668687", "ref": "6413100041"}, "type": "Feature"}
{"geometry": {"coordinates": [-94.5763207646, 38.9776693862], "type": "Point"}, "id": "awT1IgAmdDCLm_AeRQSs5-Gmcko=", "properties": {"@source_uri": "https://tools.usps.com/UspsToolsRestServices/rest/POLocator/findLocations", "@spider": "usps_collection_boxes", "addr:city": "KANSAS CITY", "addr:country": "US", "addr:postcode": "64131", "addr:state": "MO", "addr:street_address": "8227 TROOST", "amenity": "post_box", "collection_times": "Mo-Sa 10:00", "nsi_id": "unitedstatespostalservice-a77078", "operator": "United States Postal Service", "operator:short": "USPS", "operator:type": "public", "operator:wikidata": "Q668687", "ref": "6413100047"}, "type": "Feature"}
{"geometry": {"coordinates": [-94.5763207646, 38.9776693862], "type": "Point"}, "id": "4uMYzfjN-5jFGU06Ulc1PRMZO80=", "properties": {"@source_uri": "https://tools.usps.com/UspsToolsRestServices/rest/POLocator/findLocations", "@spider": "usps_collection_boxes", "addr:city": "KANSAS CITY", "addr:country": "US", "addr:postcode": "64131", "addr:state": "MO", "addr:street_address": "8227 TROOST AVE", "amenity": "post_box", "collection_times": "Mo-Sa 10:00", "nsi_id": "unitedstatespostalservice-a77078", "operator": "United States Postal Service", "operator:short": "USPS", "operator:type": "public", "operator:wikidata": "Q668687", "ref": "6413100055"}, "type": "Feature"}
{"geometry": {"coordinates": [-94.575645778, 38.992491618], "type": "Point"}, "id": "wLxm_CJpD4CnOpfgdpjndSIvrpQ=", "properties": {"@source_uri": "https://tools.usps.com/UspsToolsRestServices/rest/POLocator/findLocations", "@spider": "usps_collection_boxes", "addr:city": "KANSAS CITY", "addr:country": "US", "addr:postcode": "64131", "addr:state": "MO", "addr:street_address": "7420 TROOST AVE", "amenity": "post_box", "collection_times": "Mo-Fr 17:00; Sa 15:30", "indoor": "yes", "note": "ON 12/24 AND 12/31, THIS BOX MAY BE COLLECTED AS EARLY AS 12 NOON.", "nsi_id": "unitedstatespostalservice-a77078", "operator": "United States Postal Service", "operator:short": "USPS", "operator:type": "public", "operator:wikidata": "Q668687", "ref": "6413100064"}, "type": "Feature"}
{"geometry": {"coordinates": [-94.575645778, 38.992491618], "type": "Point"}, "id": "UEEFkxozf-SYQZ6a0JFiUt-gswU=", "properties": {"@source_uri": "https://tools.usps.com/UspsToolsRestServices/rest/POLocator/findLocations", "@spider": "usps_collection_boxes", "addr:city": "KANSAS CITY", "addr:country": "US", "addr:postcode": "64131", "addr:state": "MO", "addr:street_address": "7420 TROOST AVE", "amenity": "post_box", "collection_times": "Mo-Fr 17:15; Sa 12:45", "indoor": "yes", "note": "ON 12/24 AND 12/31, THIS BOX MAY BE COLLECTED AS EARLY AS 12 NOON.", "nsi_id": "unitedstatespostalservice-a77078", "operator": "United States Postal Service", "operator:short": "USPS", "operator:type": "public", "operator:wikidata": "Q668687", "ref": "6413100068"}, "type": "Feature"}
{"geometry": {"coordinates": [-94.55625683, 39.011570141], "type": "Point"}, "id": "8GNnN_vrT07s2OfzmvUR6Pyz4JE=", "properties": {"@source_uri": "https://tools.usps.com/UspsToolsRestServices/rest/POLocator/findLocations", "@spider": "usps_collection_boxes", "addr:city": "KANSAS CITY", "addr:country": "US", "addr:postcode": "64132", "addr:state": "MO", "addr:street_address": "6320 PROSPECT AVE", "amenity": "post_box", "collection_times": "Mo-Fr 12:30; Sa 13:30", "note": "ON 12/24 AND 12/31, THIS BOX MAY BE COLLECTED AS EARLY AS 12 NOON.", "nsi_id": "unitedstatespostalservice-a77078", "operator": "United States Postal Service", "operator:short": "USPS", "operator:type": "public", "operator:wikidata": "Q668687", "ref": "6413200018"}, "type": "Feature"}
{"geometry": {"coordinates": [-94.461676, 39.019048], "type": "Point"}, "id": "xcR7o5N3fiZVJ36Lr__FkK-McdI=", "properties": {"@source_uri": "https://tools.usps.com/UspsToolsRestServices/rest/POLocator/findLocations", "@spider": "usps_collection_boxes", "addr:city": "RAYTOWN", "addr:country": "US", "addr:postcode": "64133", "addr:state": "MO", "addr:street_address": "6731 BLUE RIDGE BLVD", "amenity": "post_box", "collection_times": "Mo-Sa 11:00", "nsi_id": "unitedstatespostalservice-a77078", "operator": "United States Postal Service", "operator:short": "USPS", "operator:type": "public", "operator:wikidata": "Q668687", "ref": "6413300008"}, "type": "Feature"}
{"geometry": {"coordinates": [-94.457152776, 39.00850249], "type": "Point"}, "id": "mmGKVM8T7oWjzPUydeK_B3UodnM=", "properties": {"@source_uri": "https://tools.usps.com/UspsToolsRestServices/rest/POLocator/findLocations", "@spider": "usps_collection_boxes", "addr:city": "RAYTOWN", "addr:country": "US", "addr:postcode": "64133", "addr:state": "MO", "addr:street_address": "10501 E 63RD ST", "amenity": "post_box", "collection_times": "Mo-Fr 17:15; Sa 15:00", "note": "ON 12/24 AND 12/31, THIS BOX MAY BE COLLECTED AS EARLY AS 12 NOON.", "nsi_id": "unitedstatespostalservice-a77078", "operator": "United States Postal Service", "operator:short": "USPS", "operator:type": "public", "operator:wikidata": "Q668687", "ref": "6413300011"}, "type": "Feature"}
{"geometry": {"coordinates": [-94.5042909, 39.004882], "type": "Point"}, "id": "PPEjsKU_Fwp4w9dkB5UJJe65-OU=", "properties": {"@source_uri": "https://tools.usps.com/UspsToolsRestServices/rest/POLocator/findLocations", "@spider": "usps_collection_boxes", "addr:city": "RAYTOWN", "addr:country": "US", "addr:postcode": "64133", "addr:state": "MO", "addr:street_address": "6601 WINCHESTER AVE", "amenity": "post_box", "collection_times": "Mo-Sa 11:00", "nsi_id": "unitedstatespostalservice-a77078", "operator": "United States Postal Service", "operator:short": "USPS", "operator:type": "public", "operator:wikidata": "Q668687", "ref": "6413300016"}, "type": "Feature"}
{"geometry": {"coordinates": [-94.4381455, 39.043127], "type": "Point"}, "id": "qbMi_C2dCew5XUigwodgNBOuUDY=", "properties": {"@source_uri": "https://tools.usps.com/UspsToolsRestServices/rest/POLocator/findLocations", "@spider": "usps_collection_boxes", "addr:city": "RAYTOWN", "addr:country": "US", "addr:postcode": "64133", "addr:state": "MO", "addr:street_address": "4300 BLUE RIDGE BLVD", "amenity": "post_box", "collection_times": "Mo-Sa 10:00", "nsi_id": "unitedstatespostalservice-a77078", "operator": "United States Postal Service", "operator:short": "USPS", "operator:type": "public", "operator:wikidata": "Q668687", "ref": "6413300021"}, "type": "Feature"}
{"geometry": {"coordinates": [-94.4637906, 39.004108], "type": "Point"}, "id": "6AorgbLPerNSIyIPLknmvyu8tKY=", "properties": {"@source_uri": "https://tools.usps.com/UspsToolsRestServices/rest/POLocator/findLocations", "@spider": "usps_collection_boxes", "addr:city": "RAYTOWN", "addr:country": "US", "addr:postcode": "64133", "addr:state": "MO", "addr:street_address": "6528 RAYTOWN RD", "amenity": "post_box", "collection_times": "Mo-Sa 10:30", "nsi_id": "unitedstatespostalservice-a77078", "operator": "United States Postal Service", "operator:short": "USPS", "operator:type": "public", "operator:wikidata": "Q668687", "ref": "6413300025"}, "type": "Feature"}
{"geometry": {"coordinates": [-94.4676043, 39.021941], "type": "Point"}, "id": "pMOGTpFekx16keEsvOYM2x8o3fM=", "properties": {"@source_uri": "https://tools.usps.com/UspsToolsRestServices/rest/POLocator/findLocations", "@spider": "usps_collection_boxes", "addr:city": "RAYTOWN", "addr:country": "US", "addr:postcode": "64133", "addr:state": "MO", "addr:street_address": "5540 RAYTOWN RD", "amenity": "post_box", "collection_times": "Mo-Sa 10:30", "nsi_id": "unitedstatespostalservice-a77078", "operator": "United States Postal Service", "operator:short": "USPS", "operator:type": "public", "operator:wikidata": "Q668687", "ref": "6413300031"}, "type": "Feature"}
{"geometry": {"coordinates": [-94.4632435, 39.016615], "type": "Point"}, "id": "JjvHLSxl3fQkT-j9ooOQ44_VfKk=", "properties": {"@source_uri": "https://tools.usps.com/UspsToolsRestServices/rest/POLocator/findLocations", "@spider": "usps_collection_boxes", "addr:city": "RAYTOWN", "addr:country": "US", "addr:postcode": "64133", "addr:state": "MO", "addr:street_address": "10000 E 59TH ST", "amenity": "post_box", "collection_times": "Mo-Fr 13:00; Sa 10:00", "note": "ON 12/24 AND 12/31, THIS BOX MAY BE COLLECTED AS EARLY AS 12 NOON.", "nsi_id": "unitedstatespostalservice-a77078", "operator": "United States Postal Service", "operator:short": "USPS", "operator:type": "public", "operator:wikidata": "Q668687", "ref": "6413300033"}, "type": "Feature"}
{"geometry": {"coordinates": [-94.4671999, 39.009985], "type": "Point"}, "id": "Z7HQxzwLIxXz9JM-2WfHLa1Mdho=", "properties": {"@source_uri": "https://tools.usps.com/UspsToolsRestServices/rest/POLocator/findLocations", "@spider": "usps_collection_boxes", "addr:city": "RAYTOWN", "addr:country": "US", "addr:postcode": "64133", "addr:state": "MO", "addr:street_address": "6240 RAYTOWN TRFY", "amenity": "post_box", "collection_times": "Mo-Sa 10:30", "nsi_id": "unitedstatespostalservice-a77078", "operator": "United States Postal Service", "operator:short": "USPS", "operator:type": "public", "operator:wikidata": "Q668687", "ref": "6413300034"}, "type": "Feature"}
{"geometry": {"coordinates": [-94.480893, 39.010138], "type": "Point"}, "id": "-wVl5eUfV5PW1V6Mkd3eR3gnoVc=", "properties": {"@source_uri": "https://tools.usps.com/UspsToolsRestServices/rest/POLocator/findLocations", "@spider": "usps_collection_boxes", "addr:city": "RAYTOWN", "addr:country": "US", "addr:postcode": "64133", "addr:state": "MO", "addr:street_address": "8800 E 63RD ST", "amenity": "post_box", "collection_times": "Mo-Fr 14:30; Sa 10:00", "note": "ON 12/24 AND 12/31, THIS BOX MAY BE COLLECTED AS EARLY AS 12 NOON.", "nsi_id": "unitedstatespostalservice-a77078", "operator": "United States Postal Service", "operator:short": "USPS", "operator:type": "public", "operator:wikidata": "Q668687", "ref": "6413300035"}, "type": "Feature"}
{"geometry": {"coordinates": [-94.457152776, 39.00850249], "type": "Point"}, "id": "GFDOieo0vJay8XoosYATyrp_xug=", "properties": {"@source_uri": "https://tools.usps.com/UspsToolsRestServices/rest/POLocator/findLocations", "@spider": "usps_collection_boxes", "addr:city": "RAYTOWN", "addr:country": "US", "addr:postcode": "64133", "addr:state": "MO", "addr:street_address": "10501 E 63RD ST", "amenity": "post_box", "collection_times": "Mo-Fr 17:15; Sa 15:00", "indoor": "yes", "note": "ON 12/24 AND 12/31, THIS BOX MAY BE COLLECTED AS EARLY AS 12 NOON.", "nsi_id": "unitedstatespostalservice-a77078", "operator": "United States Postal Service", "operator:short": "USPS", "operator:type": "public", "operator:wikidata": "Q668687", "ref": "6413300053"}, "type": "Feature"}
{"geometry": {"coordinates": [-94.457152776, 39.00850249], "type": "Point"}, "id": "cY3duPtZFFf2qMu6xvLtjd3ynDY=", "properties": {"@source_uri": "https://tools.usps.com/UspsToolsRestServices/rest/POLocator/findLocations", "@spider": "usps_collection_boxes", "addr:city": "RAYTOWN", "addr:country": "US", "addr:postcode": "64133", "addr:state": "MO", "addr:street_address": "10501 E 63RD ST", "amenity": "post_box", "collection_times": "Mo-Fr 17:15; Sa 15:00", "indoor": "yes", "note": "ON 12/24 AND 12/31, THIS BOX MAY BE COLLECTED AS EARLY AS 12 NOON.", "nsi_id": "unitedstatespostalservice-a77078", "operator": "United States Postal Service", "operator:short": "USPS", "operator:type": "public", "operator:wikidata": "Q668687", "ref": "6413300054"}, "type": "Feature"}
{"geometry": {"coordinates": [-94.457152776, 39.00850249], "type": "Point"}, "id": "QY-MhrfjOQtB8Ccw0pLqoqk3V2E=", "properties": {"@source_uri": "https://tools.usps.com/UspsToolsRestServices/rest/POLocator/findLocations", "@spider": "usps_collection_boxes", "addr:city": "RAYTOWN", "addr:country": "US", "addr:postcode": "64133", "addr:state": "MO", "addr:street_address": "10501 E 63RD ST", "amenity": "post_box", "collection_times": "Mo-Fr 17:15; Sa 15:00", "name": "USPS COLLECTION BOX - APC", "note": "ON 12/24 AND 12/31, THIS BOX MAY BE COLLECTED AS EARLY AS 12 NOON.", "nsi_id": "unitedstatespostalservice-a77078", "operator": "United States Postal Service", "operator:short": "USPS", "operator:type": "public", "operator:wikidata": "Q668687", "ref": "6413300055"}, "type": "Feature"}
{"geometry": {"coordinates": [-94.4425783, 39.045353], "type": "Point"}, "id": "DC4HSyxwgY8QWccJH86kSWqUi_o=", "properties": {"@source_uri": "https://tools.usps.com/UspsToolsRestServices/rest/POLocator/findLocations", "@spider": "usps_collection_boxes", "addr:city": "RAYTOWN", "addr:country": "US", "addr:postcode": "64133", "addr:state": "MO", "addr:street_address": "11601 E 40 HIWAY", "amenity": "post_box", "collection_times": "Mo-Sa 10:00", "nsi_id": "unitedstatespostalservice-a77078", "operator": "United States Postal Service", "operator:short": "USPS", "operator:type": "public", "operator:wikidata": "Q668687", "ref": "6413300057"}, "type": "Feature"}
{"geometry": {"coordinates": [-94.469891, 38.994069], "type": "Point"}, "id": "EnmDamFlch5sGrkq1YDMlM7MSHI=", "properties": {"@source_uri": "https://tools.usps.com/UspsToolsRestServices/rest/POLocator/findLocations", "@spider": "usps_collection_boxes", "addr:city": "RAYTOWN", "addr:country": "US", "addr:postcode": "64133", "addr:state": "MO", "addr:street_address": "9400 E 350", "amenity": "post_box", "collection_times": "Mo-Sa 11:00", "nsi_id": "unitedstatespostalservice-a77078", "operator": "United States Postal Service", "operator:short": "USPS", "operator:type": "public", "operator:wikidata": "Q668687", "ref": "6413300058"}, "type": "Feature"}
{"geometry": {"coordinates": [-94.457152776, 39.00850249], "type": "Point"}, "id": "TUnQ94xFIad9XdY4xcjYseH2Rc8=", "properties": {"@source_uri": "https://tools.usps.com/UspsToolsRestServices/rest/POLocator/findLocations", "@spider": "usps_collection_boxes", "addr:city": "RAYTOWN", "addr:country": "US", "addr:postcode": "64133", "addr:state": "MO", "addr:street_address": "10501 E 63RD ST", "amenity": "post_box", "collection_times": "Mo-Fr 17:15; Sa 12:15", "indoor": "yes", "note": "ON 12/24 AND 12/31, THIS BOX MAY BE COLLECTED AS EARLY AS 12 NOON.", "nsi_id": "unitedstatespostalservice-a77078", "operator": "United States Postal Service", "operator:short": "USPS", "operator:type": "public", "operator:wikidata": "Q668687", "ref": "6413300062"}, "type": "Feature"}
{"geometry": {"coordinates": [-94.509177827, 38.922382435], "type": "Point"}, "id": "eyLCccYbbMyHcj5HfKTr6NRVv4c=", "properties": {"@source_uri": "https://tools.usps.com/UspsToolsRestServices/rest/POLocator/findLocations", "@spider": "usps_collection_boxes", "addr:city": "KANSAS CITY", "addr:country": "US", "addr:postcode": "64134", "addr:state": "MO", "addr:street_address": "6921 E 111TH ST", "amenity": "post_box", "collection_times": "Mo-Fr 17:00; Sa 16:00", "note": "ON 12/24 AND 12/31, THIS BOX MAY BE COLLECTED AS EARLY AS 12 NOON.", "nsi_id": "unitedstatespostalservice-a77078", "operator": "United States Postal Service", "operator:short": "USPS", "operator:type": "public", "operator:wikidata": "Q668687", "ref": "6413400006"}, "type": "Feature"}
{"geometry": {"coordinates": [-94.5091778268, 38.9223824347], "type": "Point"}, "id": "zXI41Hp7XzU-eo6ZRYVL7eftDO0=", "properties": {"@source_uri": "https://tools.usps.com/UspsToolsRestServices/rest/POLocator/findLocations", "@spider": "usps_collection_boxes", "addr:city": "KANSAS CITY", "addr:country": "US", "addr:postcode": "64134", "addr:state": "MO", "addr:street_address": "6921 E 111TH ST", "amenity": "post_box", "collection_times": "Mo-Fr 17:00; Sa 16:00", "note": "ON 12/24 AND 12/31, THIS BOX MAY BE COLLECTED AS EARLY AS 12 NOON.", "nsi_id": "unitedstatespostalservice-a77078", "operator": "United States Postal Service", "operator:short": "USPS", "operator:type": "public", "operator:wikidata": "Q668687", "ref": "6413400007"}, "type": "Feature"}
{"geometry": {"coordinates": [-94.509177827, 38.922382435], "type": "Point"}, "id": "zpY77fhxkB6UWeqZE5hjkDKQlJQ=", "properties": {"@source_uri": "https://tools.usps.com/UspsToolsRestServices/rest/POLocator/findLocations", "@spider": "usps_collection_boxes", "addr:city": "KANSAS CITY", "addr:country": "US", "addr:postcode": "64134", "addr:state": "MO", "addr:street_address": "6921 E 111TH ST", "amenity": "post_box", "collection_times": "Mo-Fr 17:00; Sa 16:00", "indoor": "yes", "note": "ON 12/24 AND 12/31, THIS BOX MAY BE COLLECTED AS EARLY AS 12 NOON.", "nsi_id": "unitedstatespostalservice-a77078", "operator": "United States Postal Service", "operator:short": "USPS", "operator:type": "public", "operator:wikidata": "Q668687", "ref": "6413400017"}, "type": "Feature"}
{"geometry": {"coordinates": [-94.509177827, 38.922382435], "type": "Point"}, "id": "k7GeN8Fx9l6sX_30h4lcfN3cIhU=", "properties": {"@source_uri": "https://tools.usps.com/UspsToolsRestServices/rest/POLocator/findLocations", "@spider": "usps_collection_boxes", "addr:city": "KANSAS CITY", "addr:country": "US", "addr:postcode": "64134", "addr:state": "MO", "addr:street_address": "6921 E 111TH ST", "amenity": "post_box", "collection_times": "Mo-Fr 17:15; Sa 12:45", "indoor": "yes", "note": "ON 12/24 AND 12/31, THIS BOX MAY BE COLLECTED AS EARLY AS 12 NOON.", "nsi_id": "unitedstatespostalservice-a77078", "operator": "United States Postal Service", "operator:short": "USPS", "operator:type": "public", "operator:wikidata": "Q668687", "ref": "6413400023"}, "type": "Feature"}
{"geometry": {"coordinates": [-94.5420606, 38.934387], "type": "Point"}, "id": "WhSGcQJihsig1IzKwrByFLEPXc0=", "properties": {"@source_uri": "https://tools.usps.com/UspsToolsRestServices/rest/POLocator/findLocations", "@spider": "usps_collection_boxes", "addr:city": "KANSAS CITY", "addr:country": "US", "addr:postcode": "64137", "addr:state": "MO", "addr:street_address": "10524 GRANDVIEW RD", "amenity": "post_box", "collection_times": "Mo-Sa 10:00", "nsi_id": "unitedstatespostalservice-a77078", "operator": "United States Postal Service", "operator:short": "USPS", "operator:type": "public", "operator:wikidata": "Q668687", "ref": "6413700001"}, "type": "Feature"}
{"geometry": {"coordinates": [-94.5208542, 38.970022], "type": "Point"}, "id": "wM1Sp-alMFRafii4H8n_MRjnqy4=", "properties": {"@source_uri": "https://tools.usps.com/UspsToolsRestServices/rest/POLocator/findLocations", "@spider": "usps_collection_boxes", "addr:city": "RAYTOWN", "addr:country": "US", "addr:postcode": "64138", "addr:state": "MO", "addr:street_address": "8511 HILLCREST RD", "amenity": "post_box", "collection_times": "Mo-Fr 14:15; Sa 11:00", "note": "ON 12/24 AND 12/31, THIS BOX MAY BE COLLECTED AS EARLY AS 12 NOON.", "nsi_id": "unitedstatespostalservice-a77078", "operator": "United States Postal Service", "operator:short": "USPS", "operator:type": "public", "operator:wikidata": "Q668687", "ref": "6413800010"}, "type": "Feature"}
{"geometry": {"coordinates": [-94.5002009, 38.965142], "type": "Point"}, "id": "s-rZvy8vl_-P0bqjIK_nHjzgDJs=", "properties": {"@source_uri": "https://tools.usps.com/UspsToolsRestServices/rest/POLocator/findLocations", "@spider": "usps_collection_boxes", "addr:city": "RAYTOWN", "addr:country": "US", "addr:postcode": "64138", "addr:state": "MO", "addr:street_address": "8712 BLUE RIDGE BLVD", "amenity": "post_box", "collection_times": "Mo-Fr 14:30; Sa 12:30", "note": "ON 12/24 AND 12/31, THIS BOX MAY BE COLLECTED AS EARLY AS 12 NOON.", "nsi_id": "unitedstatespostalservice-a77078", "operator": "United States Postal Service", "operator:short": "USPS", "operator:type": "public", "operator:wikidata": "Q668687", "ref": "6413800013"}, "type": "Feature"}
{"geometry": {"coordinates": [-94.4645945, 38.977125], "type": "Point"}, "id": "xZ_4RfcIupnPp8SMTOYeDwbEehM=", "properties": {"@source_uri": "https://tools.usps.com/UspsToolsRestServices/rest/POLocator/findLocations", "@spider": "usps_collection_boxes", "addr:city": "RAYTOWN", "addr:country": "US", "addr:postcode": "64138", "addr:state": "MO", "addr:street_address": "8015 RAYTOWN RD", "amenity": "post_box", "collection_times": "Mo-Sa 10:00", "nsi_id": "unitedstatespostalservice-a77078", "operator": "United States Postal Service", "operator:short": "USPS", "operator:type": "public", "operator:wikidata": "Q668687", "ref": "6413800023"}, "type": "Feature"}
{"geometry": {"coordinates": [-94.4661851, 38.962846], "type": "Point"}, "id": "fN8PG_tiNkUIdWKPFdQcHIff_CA=", "properties": {"@source_uri": "https://tools.usps.com/UspsToolsRestServices/rest/POLocator/findLocations", "@spider": "usps_collection_boxes", "addr:city": "RAYTOWN", "addr:country": "US", "addr:postcode": "64138", "addr:state": "MO", "addr:street_address": "8800 RAYTOWN RD", "amenity": "post_box", "collection_times": "Mo-Fr 17:00; Sa 15:30", "indoor": "yes", "note": "ON 12/24 AND 12/31, THIS BOX MAY BE COLLECTED AS EARLY AS 12 NOON.", "nsi_id": "unitedstatespostalservice-a77078", "operator": "United States Postal Service", "operator:short": "USPS", "operator:type": "public", "operator:wikidata": "Q668687", "ref": "6413800028"}, "type": "Feature"}
{"geometry": {"coordinates": [-94.4654640387, 38.9646173379], "type": "Point"}, "id": "hypwOljoym1MMNF1k7OjKrnU-jA=", "properties": {"@source_uri": "https://tools.usps.com/UspsToolsRestServices/rest/POLocator/findLocations", "@spider": "usps_collection_boxes", "addr:city": "RAYTOWN", "addr:country": "US", "addr:postcode": "64138", "addr:state": "MO", "addr:street_address": "8800 RAYTOWN RD", "amenity": "post_box", "collection_times": "Mo-Fr 17:15; Sa 12:45", "indoor": "yes", "note": "ON 12/24 AND 12/31, THIS BOX MAY BE COLLECTED AS EARLY AS 12 NOON.", "nsi_id": "unitedstatespostalservice-a77078", "operator": "United States Postal Service", "operator:short": "USPS", "operator:type": "public", "operator:wikidata": "Q668687", "ref": "6413800031"}, "type": "Feature"}
{"geometry": {"coordinates": [-94.3946063, 38.974245], "type": "Point"}, "id": "csd89CIrVtrDZ0btkavZUcNG6AY=", "properties": {"@source_uri": "https://tools.usps.com/UspsToolsRestServices/rest/POLocator/findLocations", "@spider": "usps_collection_boxes", "addr:city": "KANSAS CITY", "addr:country": "US", "addr:postcode": "64139", "addr:state": "MO", "addr:street_address": "7900 LEES SUMMIT RD", "amenity": "post_box", "collection_times": "Mo-Sa 10:00", "nsi_id": "unitedstatespostalservice-a77078", "operator": "United States Postal Service", "operator:short": "USPS", "operator:type": "public", "operator:wikidata": "Q668687", "ref": "6413900001"}, "type": "Feature"}
{"geometry": {"coordinates": [-94.5907241, 38.913248], "type": "Point"}, "id": "Cn2hlEmyg2b_DVTEgYTgaVrEoNE=", "properties": {"@source_uri": "https://tools.usps.com/UspsToolsRestServices/rest/POLocator/findLocations", "@spider": "usps_collection_boxes", "addr:city": "KANSAS CITY", "addr:country": "US", "addr:postcode": "64145", "addr:state": "MO", "addr:street_address": "11901 WORNALL RD", "amenity": "post_box", "collection_times": "Mo-Fr 17:00; Sa 10:00", "note": "ON 12/24 AND 12/31, THIS BOX MAY BE COLLECTED AS EARLY AS 12 NOON.", "nsi_id": "unitedstatespostalservice-a77078", "operator": "United States Postal Service", "operator:short": "USPS", "operator:type": "public", "operator:wikidata": "Q668687", "ref": "6414500002"}, "type": "Feature"}
{"geometry": {"coordinates": [-94.594733973, 38.883380987], "type": "Point"}, "id": "dq9n0Dx97oFeYPugN3JM1cbyzyo=", "properties": {"@source_uri": "https://tools.usps.com/UspsToolsRestServices/rest/POLocator/findLocations", "@spider": "usps_collection_boxes", "addr:city": "KANSAS CITY", "addr:country": "US", "addr:postcode": "64145", "addr:state": "MO", "addr:street_address": "10 E 135TH ST", "amenity": "post_box", "collection_times": "Mo-Fr 17:00; Sa 16:00", "note": "ON 12/24 AND 12/31, THIS BOX MAY BE COLLECTED AS EARLY AS 12 NOON.", "nsi_id": "unitedstatespostalservice-a77078", "operator": "United States Postal Service", "operator:short": "USPS", "operator:type": "public", "operator:wikidata": "Q668687", "ref": "6414500004"}, "type": "Feature"}
{"geometry": {"coordinates": [-94.5948199, 38.883215], "type": "Point"}, "id": "0sSeotGydVXq9hZTBz5U3NA_-IQ=", "properties": {"@source_uri": "https://tools.usps.com/UspsToolsRestServices/rest/POLocator/findLocations", "@spider": "usps_collection_boxes", "addr:city": "KANSAS CITY", "addr:country": "US", "addr:postcode": "64145", "addr:state": "MO", "addr:street_address": "10 E 135TH ST", "amenity": "post_box", "collection_times": "Mo-Fr 17:00; Sa 16:00", "indoor": "yes", "note": "ON 12/24 AND 12/31, THIS BOX MAY BE COLLECTED AS EARLY AS 12 NOON.", "nsi_id": "unitedstatespostalservice-a77078", "operator": "United States Postal Service", "operator:short": "USPS", "operator:type": "public", "operator:wikidata": "Q668687", "ref": "6414500011"}, "type": "Feature"}
{"geometry": {"coordinates": [-94.5947533, 38.883163], "type": "Point"}, "id": "Lzy6C-nYleSHiGEROv6XNrzMtLs=", "properties": {"@source_uri": "https://tools.usps.com/UspsToolsRestServices/rest/POLocator/findLocations", "@spider": "usps_collection_boxes", "addr:city": "KANSAS CITY", "addr:country": "US", "addr:postcode": "64145", "addr:state": "MO", "addr:street_address": "10 E 135TH ST", "amenity": "post_box", "collection_times": "Mo-Fr 17:00; Sa 16:00", "indoor": "yes", "note": "ON 12/24 AND 12/31, THIS BOX MAY BE COLLECTED AS EARLY AS 12 NOON.", "nsi_id": "unitedstatespostalservice-a77078", "operator": "United States Postal Service", "operator:short": "USPS", "operator:type": "public", "operator:wikidata": "Q668687", "ref": "6414500012"}, "type": "Feature"}
{"geometry": {"coordinates": [-94.5912308, 38.903374], "type": "Point"}, "id": "9dzLobYpMTVio6AQfBhGwpWNiko=", "properties": {"@source_uri": "https://tools.usps.com/UspsToolsRestServices/rest/POLocator/findLocations", "@spider": "usps_collection_boxes", "addr:city": "KANSAS CITY", "addr:country": "US", "addr:postcode": "64145", "addr:state": "MO", "addr:street_address": "12411 WORNALL RD", "amenity": "post_box", "collection_times": "Mo-Sa 10:00", "nsi_id": "unitedstatespostalservice-a77078", "operator": "United States Postal Service", "operator:short": "USPS", "operator:type": "public", "operator:wikidata": "Q668687", "ref": "6414500016"}, "type": "Feature"}
{"geometry": {"coordinates": [-94.5947298564, 38.8828595016], "type": "Point"}, "id": "vB5Dw60e08eSFGaRyV9ht1Vy4mk=", "properties": {"@source_uri": "https://tools.usps.com/UspsToolsRestServices/rest/POLocator/findLocations", "@spider": "usps_collection_boxes", "addr:city": "KANSAS CITY", "addr:country": "US", "addr:postcode": "64145", "addr:state": "MO", "addr:street_address": "10 E 135TH ST", "amenity": "post_box", "collection_times": "Mo-Fr 17:15; Sa 12:15", "indoor": "yes", "note": "ON 12/24 AND 12/31, THIS BOX MAY BE COLLECTED AS EARLY AS 12 NOON.", "nsi_id": "unitedstatespostalservice-a77078", "operator": "United States Postal Service", "operator:short": "USPS", "operator:type": "public", "operator:wikidata": "Q668687", "ref": "6414500019"}, "type": "Feature"}
{"geometry": {"coordinates": [-94.6311499, 39.17284], "type": "Point"}, "id": "hZqpNwyCviNcDAFNY1MIOF0fjj4=", "properties": {"@source_uri": "https://tools.usps.com/UspsToolsRestServices/rest/POLocator/findLocations", "@spider": "usps_collection_boxes", "addr:city": "NORTHMOOR", "addr:country": "US", "addr:postcode": "64150", "addr:state": "MO", "addr:street_address": "210 NW PLATTE VALLEY DR", "amenity": "post_box", "collection_times": "Mo-Fr 15:00; Sa 10:00", "note": "ON 12/24 AND 12/31, THIS BOX MAY BE COLLECTED AS EARLY AS 12 NOON.", "nsi_id": "unitedstatespostalservice-a77078", "operator": "United States Postal Service", "operator:short": "USPS", "operator:type": "public", "operator:wikidata": "Q668687", "ref": "6415000003"}, "type": "Feature"}
{"geometry": {"coordinates": [-94.6112923, 39.168881], "type": "Point"}, "id": "TmO5tDPULrgF7D9fx7J6wLVODo4=", "properties": {"@source_uri": "https://tools.usps.com/UspsToolsRestServices/rest/POLocator/findLocations", "@spider": "usps_collection_boxes", "addr:city": "NORTHMOOR", "addr:country": "US", "addr:postcode": "64150", "addr:state": "MO", "addr:street_address": "300 NW BUSINESS PARK LN", "amenity": "post_box", "collection_times": "Mo-Sa 10:00", "nsi_id": "unitedstatespostalservice-a77078", "operator": "United States Postal Service", "operator:short": "USPS", "operator:type": "public", "operator:wikidata": "Q668687", "ref": "6415000005"}, "type": "Feature"}
{"geometry": {"coordinates": [-94.6070529, 39.168822], "type": "Point"}, "id": "HRYPK6TzxcUKdl82juuey6QtJHI=", "properties": {"@source_uri": "https://tools.usps.com/UspsToolsRestServices/rest/POLocator/findLocations", "@spider": "usps_collection_boxes", "addr:city": "NORTHMOOR", "addr:country": "US", "addr:postcode": "64150", "addr:state": "MO", "addr:street_address": "2301 NW PLATTE RD", "amenity": "post_box", "collection_times": "Mo-Sa 10:00", "nsi_id": "unitedstatespostalservice-a77078", "operator": "United States Postal Service", "operator:short": "USPS", "operator:type": "public", "operator:wikidata": "Q668687", "ref": "6415000007"}, "type": "Feature"}
{"geometry": {"coordinates": [-94.6090186, 39.179463], "type": "Point"}, "id": "zwNWnWHKvEBOOWskSygKdUpUOZE=", "properties": {"@source_uri": "https://tools.usps.com/UspsToolsRestServices/rest/POLocator/findLocations", "@spider": "usps_collection_boxes", "addr:city": "NORTHMOOR", "addr:country": "US", "addr:postcode": "64150", "addr:state": "MO", "addr:street_address": "2400 NW VIVION RD", "amenity": "post_box", "collection_times": "Mo-Sa 10:00", "nsi_id": "unitedstatespostalservice-a77078", "operator": "United States Postal Service", "operator:short": "USPS", "operator:type": "public", "operator:wikidata": "Q668687", "ref": "6415000010"}, "type": "Feature"}
{"geometry": {"coordinates": [-94.6121456, 39.165807], "type": "Point"}, "id": "rZwaztEM3G4qjLs5ZnhCar7DIBU=", "properties": {"@source_uri": "https://tools.usps.com/UspsToolsRestServices/rest/POLocator/findLocations", "@spider": "usps_collection_boxes", "addr:city": "NORTHMOOR", "addr:country": "US", "addr:postcode": "64150", "addr:state": "MO", "addr:street_address": "2475 NW TULLISON RD", "amenity": "post_box", "collection_times": "Mo-Sa 10:00", "nsi_id": "unitedstatespostalservice-a77078", "operator": "United States Postal Service", "operator:short": "USPS", "operator:type": "public", "operator:wikidata": "Q668687", "ref": "6415000012"}, "type": "Feature"}
{"geometry": {"coordinates": [-94.613388336, 39.182868398], "type": "Point"}, "id": "xObrkLtel8QI8PBjekYgesJ0oYA=", "properties": {"@source_uri": "https://tools.usps.com/UspsToolsRestServices/rest/POLocator/findLocations", "@spider": "usps_collection_boxes", "addr:city": "NORTHMOOR", "addr:country": "US", "addr:postcode": "64150", "addr:state": "MO", "addr:street_address": "4900 NW GATEWAY AVE", "amenity": "post_box", "collection_times": "Mo-Fr 15:45; Sa 12:30", "note": "ON 12/24 AND 12/31, THIS BOX MAY BE COLLECTED AS EARLY AS 12 NOON.", "nsi_id": "unitedstatespostalservice-a77078", "operator": "United States Postal Service", "operator:short": "USPS", "operator:type": "public", "operator:wikidata": "Q668687", "ref": "6415000013"}, "type": "Feature"}
{"geometry": {"coordinates": [-94.613388336, 39.182868398], "type": "Point"}, "id": "uVQ_uiSCJBVVXN05_a_q-tu2mGg=", "properties": {"@source_uri": "https://tools.usps.com/UspsToolsRestServices/rest/POLocator/findLocations", "@spider": "usps_collection_boxes", "addr:city": "NORTHMOOR", "addr:country": "US", "addr:postcode": "64150", "addr:state": "MO", "addr:street_address": "4900 NW GATEWAY AVE", "amenity": "post_box", "collection_times": "Mo-Fr 17:00; Sa 12:30", "indoor": "yes", "note": "ON 12/24 AND 12/31, THIS BOX MAY BE COLLECTED AS EARLY AS 12 NOON.", "nsi_id": "unitedstatespostalservice-a77078", "operator": "United States Postal Service", "operator:short": "USPS", "operator:type": "public", "operator:wikidata": "Q668687", "ref": "6415000017"}, "type": "Feature"}
{"geometry": {"coordinates": [-94.613388336, 39.182868398], "type": "Point"}, "id": "NpMYUmorNgao_W_kNnaFI89FoKQ=", "properties": {"@source_uri": "https://tools.usps.com/UspsToolsRestServices/rest/POLocator/findLocations", "@spider": "usps_collection_boxes", "addr:city": "NORTHMOOR", "addr:country": "US", "addr:postcode": "64150", "addr:state": "MO", "addr:street_address": "4900 NW GATEWAY AVE", "amenity": "post_box", "collection_times": "Mo-Fr 17:00; Sa 12:30", "indoor": "yes", "note": "ON 12/24 AND 12/31, THIS BOX MAY BE COLLECTED AS EARLY AS 12 NOON.", "nsi_id": "unitedstatespostalservice-a77078", "operator": "United States Postal Service", "operator:short": "USPS", "operator:type": "public", "operator:wikidata": "Q668687", "ref": "6415000018"}, "type": "Feature"}
{"geometry": {"coordinates": [-94.6140769, 39.169469], "type": "Point"}, "id": "8HXE36gWyV_tfev9DaIC4ZvUPy4=", "properties": {"@source_uri": "https://tools.usps.com/UspsToolsRestServices/rest/POLocator/findLocations", "@spider": "usps_collection_boxes", "addr:city": "NORTHMOOR", "addr:country": "US", "addr:postcode": "64150", "addr:state": "MO", "addr:street_address": "4102 NW RIVERSIDE ST", "amenity": "post_box", "collection_times": "Mo-Sa 10:00", "nsi_id": "unitedstatespostalservice-a77078", "operator": "United States Postal Service", "operator:short": "USPS", "operator:type": "public", "operator:wikidata": "Q668687", "ref": "6415000021"}, "type": "Feature"}
{"geometry": {"coordinates": [-94.613388336, 39.182868398], "type": "Point"}, "id": "Vz0222Kj_zikAG0h0_ATjq4YM9U=", "properties": {"@source_uri": "https://tools.usps.com/UspsToolsRestServices/rest/POLocator/findLocations", "@spider": "usps_collection_boxes", "addr:city": "NORTHMOOR", "addr:country": "US", "addr:postcode": "64150", "addr:state": "MO", "addr:street_address": "4900 NW GATEWAY AVE", "amenity": "post_box", "collection_times": "Mo-Fr 16:15", "indoor": "yes", "note": "ON 12/24 AND 12/31, THIS BOX MAY BE COLLECTED AS EARLY AS 12 NOON.", "nsi_id": "unitedstatespostalservice-a77078", "operator": "United States Postal Service", "operator:short": "USPS", "operator:type": "public", "operator:wikidata": "Q668687", "ref": "6415000024"}, "type": "Feature"}
{"geometry": {"coordinates": [-94.6448124, 39.209192], "type": "Point"}, "id": "POeIMz8nk6qTBHttjaAdUrKfvcw=", "properties": {"@source_uri": "https://tools.usps.com/UspsToolsRestServices/rest/POLocator/findLocations", "@spider": "usps_collection_boxes", "addr:city": "KANSAS CITY", "addr:country": "US", "addr:postcode": "64151", "addr:state": "MO", "addr:street_address": "6238 N CHATHAM AVE", "amenity": "post_box", "collection_times": "Mo-Fr 15:00; Sa 12:30", "note": "ON 12/24 AND 12/31, THIS BOX MAY BE COLLECTED AS EARLY AS 12 NOON.", "nsi_id": "unitedstatespostalservice-a77078", "operator": "United States Postal Service", "operator:short": "USPS", "operator:type": "public", "operator:wikidata": "Q668687", "ref": "6415100003"}, "type": "Feature"}
{"geometry": {"coordinates": [-94.6571627, 39.233834], "type": "Point"}, "id": "Eo0BZAtQwLW6SPfO9gM0zva4ze8=", "properties": {"@source_uri": "https://tools.usps.com/UspsToolsRestServices/rest/POLocator/findLocations", "@spider": "usps_collection_boxes", "addr:city": "KANSAS CITY", "addr:country": "US", "addr:postcode": "64151", "addr:state": "MO", "addr:street_address": "7667 NW PRAIRIE VIEW RD", "amenity": "post_box", "collection_times": "Mo-Fr 15:00", "note": "ON 12/24 AND 12/31, THIS BOX MAY BE COLLECTED AS EARLY AS 12 NOON.", "nsi_id": "unitedstatespostalservice-a77078", "operator": "United States Postal Service", "operator:short": "USPS", "operator:type": "public", "operator:wikidata": "Q668687", "ref": "6415100007"}, "type": "Feature"}
{"geometry": {"coordinates": [-94.6451684, 39.212631], "type": "Point"}, "id": "YHZbQV-dOCTeCCUdBDKRnJ0cGtk=", "properties": {"@source_uri": "https://tools.usps.com/UspsToolsRestServices/rest/POLocator/findLocations", "@spider": "usps_collection_boxes", "addr:city": "KANSAS CITY", "addr:country": "US", "addr:postcode": "64151", "addr:state": "MO", "addr:street_address": "6441 N COSBY AVE", "amenity": "post_box", "collection_times": "Mo-Fr 15:00", "note": "ON 12/24 AND 12/31, THIS BOX MAY BE COLLECTED AS EARLY AS 12 NOON.", "nsi_id": "unitedstatespostalservice-a77078", "operator": "United States Postal Service", "operator:short": "USPS", "operator:type": "public", "operator:wikidata": "Q668687", "ref": "6415100016"}, "type": "Feature"}
{"geometry": {"coordinates": [-94.6260350173, 39.2437649794], "type": "Point"}, "id": "8JoIn1GMAyqknx_dcNLMIcgBoLw=", "properties": {"@source_uri": "https://tools.usps.com/UspsToolsRestServices/rest/POLocator/findLocations", "@spider": "usps_collection_boxes", "addr:city": "KANSAS CITY", "addr:country": "US", "addr:postcode": "64151", "addr:state": "MO", "addr:street_address": "4335 NW LINE CREEK DR", "amenity": "post_box", "collection_times": "Mo-Fr 15:00; Sa 10:00", "note": "ON 12/24 AND 12/31, THIS BOX MAY BE COLLECTED AS EARLY AS 12 NOON.", "nsi_id": "unitedstatespostalservice-a77078", "operator": "United States Postal Service", "operator:short": "USPS", "operator:type": "public", "operator:wikidata": "Q668687", "ref": "6415100019"}, "type": "Feature"}
{"geometry": {"coordinates": [-94.6466780311, 39.2453000444], "type": "Point"}, "id": "o139mVILmOjMQuijVePr8Se5EyE=", "properties": {"@source_uri": "https://tools.usps.com/UspsToolsRestServices/rest/POLocator/findLocations", "@spider": "usps_collection_boxes", "addr:city": "KANSAS CITY", "addr:country": "US", "addr:postcode": "64151", "addr:state": "MO", "addr:street_address": "8301 N SAINT CLAIR AVE", "amenity": "post_box", "collection_times": "Mo-Fr 15:00; Sa 12:30", "note": "ON 12/24 AND 12/31, THIS BOX MAY BE COLLECTED AS EARLY AS 12 NOON.", "nsi_id": "unitedstatespostalservice-a77078", "operator": "United States Postal Service", "operator:short": "USPS", "operator:type": "public", "operator:wikidata": "Q668687", "ref": "6415100026"}, "type": "Feature"}
{"geometry": {"coordinates": [-94.6826019672, 39.1893370073], "type": "Point"}, "id": "9VrF862HNCH2fXILiCyIDFwn00A=", "properties": {"@source_uri": "https://tools.usps.com/UspsToolsRestServices/rest/POLocator/findLocations", "@spider": "usps_collection_boxes", "addr:city": "PARKVILLE", "addr:country": "US", "addr:postcode": "64152", "addr:state": "MO", "addr:street_address": "105 EAST ST", "amenity": "post_box", "collection_times": "Mo-Fr 17:00; Sa 12:30", "note": "ON 12/24 AND 12/31, THIS BOX MAY BE COLLECTED AS EARLY AS 12 NOON.", "nsi_id": "unitedstatespostalservice-a77078", "operator": "United States Postal Service", "operator:short": "USPS", "operator:type": "public", "operator:wikidata": "Q668687", "ref": "6415200003"}, "type": "Feature"}
{"geometry": {"coordinates": [-94.692333203, 39.225797981], "type": "Point"}, "id": "2aS1Roal_w83vptxFRhd44iia7M=", "properties": {"@source_uri": "https://tools.usps.com/UspsToolsRestServices/rest/POLocator/findLocations", "@spider": "usps_collection_boxes", "addr:city": "PARKVILLE", "addr:country": "US", "addr:postcode": "64152", "addr:state": "MO", "addr:street_address": "7200 NW EASTSIDE DR", "amenity": "post_box", "collection_times": "Mo-Sa 10:00", "nsi_id": "unitedstatespostalservice-a77078", "operator": "United States Postal Service", "operator:short": "USPS", "operator:type": "public", "operator:wikidata": "Q668687", "ref": "6415200007"}, "type": "Feature"}
{"geometry": {"coordinates": [-94.7085911, 39.209678], "type": "Point"}, "id": "GV-ewOwdW5s0pLXOQ75KpWuGEwI=", "properties": {"@source_uri": "https://tools.usps.com/UspsToolsRestServices/rest/POLocator/findLocations", "@spider": "usps_collection_boxes", "addr:city": "PARKVILLE", "addr:country": "US", "addr:postcode": "64152", "addr:state": "MO", "addr:street_address": "10917 NW 45 HWY", "amenity": "post_box", "collection_times": "Mo-Sa 10:00", "nsi_id": "unitedstatespostalservice-a77078", "operator": "United States Postal Service", "operator:short": "USPS", "operator:type": "public", "operator:wikidata": "Q668687", "ref": "6415200014"}, "type": "Feature"}
{"geometry": {"coordinates": [-94.6820526, 39.246454], "type": "Point"}, "id": "BCEMCL_5lkZKIRhPHgROqDGIVWw=", "properties": {"@source_uri": "https://tools.usps.com/UspsToolsRestServices/rest/POLocator/findLocations", "@spider": "usps_collection_boxes", "addr:city": "PARKVILLE", "addr:country": "US", "addr:postcode": "64152", "addr:state": "MO", "addr:street_address": "8341 NW MACE RD", "amenity": "post_box", "collection_times": "Mo-Sa 10:00", "nsi_id": "unitedstatespostalservice-a77078", "operator": "United States Postal Service", "operator:short": "USPS", "operator:type": "public", "operator:wikidata": "Q668687", "ref": "6415200016"}, "type": "Feature"}
{"geometry": {"coordinates": [-94.682917345, 39.189527173], "type": "Point"}, "id": "F5fPoRVJu0TgGptQCrnvUr1IlUs=", "properties": {"@source_uri": "https://tools.usps.com/UspsToolsRestServices/rest/POLocator/findLocations", "@spider": "usps_collection_boxes", "addr:city": "PARKVILLE", "addr:country": "US", "addr:postcode": "64152", "addr:state": "MO", "addr:street_address": "105 EAST ST", "amenity": "post_box", "collection_times": "Mo-Fr 17:00; Sa 12:30", "indoor": "yes", "note": "ON 12/24 AND 12/31, THIS BOX MAY BE COLLECTED AS EARLY AS 12 NOON.", "nsi_id": "unitedstatespostalservice-a77078", "operator": "United States Postal Service", "operator:short": "USPS", "operator:type": "public", "operator:wikidata": "Q668687", "ref": "6415200018"}, "type": "Feature"}
{"geometry": {"coordinates": [-94.682917345, 39.189527173], "type": "Point"}, "id": "N2YwoGHvOo-Lhkun6xI0PPjAr0U=", "properties": {"@source_uri": "https://tools.usps.com/UspsToolsRestServices/rest/POLocator/findLocations", "@spider": "usps_collection_boxes", "addr:city": "PARKVILLE", "addr:country": "US", "addr:postcode": "64152", "addr:state": "MO", "addr:street_address": "105 EAST ST", "amenity": "post_box", "collection_times": "Mo-Fr 17:00; Sa 12:30", "indoor": "yes", "note": "ON 12/24 AND 12/31, THIS BOX MAY BE COLLECTED AS EARLY AS 12 NOON.", "nsi_id": "unitedstatespostalservice-a77078", "operator": "United States Postal Service", "operator:short": "USPS", "operator:type": "public", "operator:wikidata": "Q668687", "ref": "6415200019"}, "type": "Feature"}
{"geometry": {"coordinates": [-94.682917345, 39.189527173], "type": "Point"}, "id": "YbFivc8WFM158elidn_VDFzvQVs=", "properties": {"@source_uri": "https://tools.usps.com/UspsToolsRestServices/rest/POLocator/findLocations", "@spider": "usps_collection_boxes", "addr:city": "PARKVILLE", "addr:country": "US", "addr:postcode": "64152", "addr:state": "MO", "addr:street_address": "105 EAST ST", "amenity": "post_box", "collection_times": "Mo-Fr 17:15; Sa 12:45", "indoor": "yes", "note": "ON 12/24 AND 12/31, THIS BOX MAY BE COLLECTED AS EARLY AS 12 NOON.", "nsi_id": "unitedstatespostalservice-a77078", "operator": "United States Postal Service", "operator:short": "USPS", "operator:type": "public", "operator:wikidata": "Q668687", "ref": "6415200021"}, "type": "Feature"}
{"geometry": {"coordinates": [-94.6696871, 39.276919], "type": "Point"}, "id": "53v4qebPwxGIAzfRmHqptP_mulg=", "properties": {"@source_uri": "https://tools.usps.com/UspsToolsRestServices/rest/POLocator/findLocations", "@spider": "usps_collection_boxes", "addr:city": "KANSAS CITY", "addr:country": "US", "addr:postcode": "64153", "addr:state": "MO", "addr:street_address": "10100 N EXECUTIVE HILLS BLVD", "amenity": "post_box", "collection_times": "Mo-Fr 15:00", "note": "ON 12/24 AND 12/31, THIS BOX MAY BE COLLECTED AS EARLY AS 12 NOON.", "nsi_id": "unitedstatespostalservice-a77078", "operator": "United States Postal Service", "operator:short": "USPS", "operator:type": "public", "operator:wikidata": "Q668687", "ref": "6415300006"}, "type": "Feature"}
{"geometry": {"coordinates": [-94.6826279, 39.29682], "type": "Point"}, "id": "aGvmfDyM8C6HWkBpKX_gg6LtR9c=", "properties": {"@source_uri": "https://tools.usps.com/UspsToolsRestServices/rest/POLocator/findLocations", "@spider": "usps_collection_boxes", "addr:city": "KANSAS CITY", "addr:country": "US", "addr:postcode": "64153", "addr:state": "MO", "addr:street_address": "8800 NW 112TH ST", "amenity": "post_box", "collection_times": "Mo-Fr 15:00", "note": "ON 12/24 AND 12/31, THIS BOX MAY BE COLLECTED AS EARLY AS 12 NOON.", "nsi_id": "unitedstatespostalservice-a77078", "operator": "United States Postal Service", "operator:short": "USPS", "operator:type": "public", "operator:wikidata": "Q668687", "ref": "6415300011"}, "type": "Feature"}
{"geometry": {"coordinates": [-94.6668385, 39.272636], "type": "Point"}, "id": "GKPS1r--P4lS-p7L-Cw1udq20RQ=", "properties": {"@source_uri": "https://tools.usps.com/UspsToolsRestServices/rest/POLocator/findLocations", "@spider": "usps_collection_boxes", "addr:city": "KANSAS CITY", "addr:country": "US", "addr:postcode": "64153", "addr:state": "MO", "addr:street_address": "9800 NW POLO DR", "amenity": "post_box", "collection_times": "Mo-Fr 15:00", "note": "ON 12/24 AND 12/31, THIS BOX MAY BE COLLECTED AS EARLY AS 12 NOON.", "nsi_id": "unitedstatespostalservice-a77078", "operator": "United States Postal Service", "operator:short": "USPS", "operator:type": "public", "operator:wikidata": "Q668687", "ref": "6415300018"}, "type": "Feature"}
{"geometry": {"coordinates": [-94.6652774, 39.272115], "type": "Point"}, "id": "KIUjZRHFUKHG3bNgoA5lyc_VHCc=", "properties": {"@source_uri": "https://tools.usps.com/UspsToolsRestServices/rest/POLocator/findLocations", "@spider": "usps_collection_boxes", "addr:city": "KANSAS CITY", "addr:country": "US", "addr:postcode": "64153", "addr:state": "MO", "addr:street_address": "7505 NW TIFFANY SPRINGS PKWY", "amenity": "post_box", "collection_times": "Mo-Fr 15:00", "note": "ON 12/24 AND 12/31, THIS BOX MAY BE COLLECTED AS EARLY AS 12 NOON.", "nsi_id": "unitedstatespostalservice-a77078", "operator": "United States Postal Service", "operator:short": "USPS", "operator:type": "public", "operator:wikidata": "Q668687", "ref": "6415300028"}, "type": "Feature"}
{"geometry": {"coordinates": [-94.6755229, 39.280564], "type": "Point"}, "id": "1HWcphtI2cpg8aJz8pWhg3Pq0VE=", "properties": {"@source_uri": "https://tools.usps.com/UspsToolsRestServices/rest/POLocator/findLocations", "@spider": "usps_collection_boxes", "addr:city": "KANSAS CITY", "addr:country": "US", "addr:postcode": "64153", "addr:state": "MO", "addr:street_address": "10326 NW PRAIRIE VIEW RD", "amenity": "post_box", "collection_times": "Mo-Fr 15:00", "note": "ON 12/24 AND 12/31, THIS BOX MAY BE COLLECTED AS EARLY AS 12 NOON.", "nsi_id": "unitedstatespostalservice-a77078", "operator": "United States Postal Service", "operator:short": "USPS", "operator:type": "public", "operator:wikidata": "Q668687", "ref": "6415300032"}, "type": "Feature"}
{"geometry": {"coordinates": [-94.6016509, 39.244422], "type": "Point"}, "id": "Eh9lu0pC_0ZRp-aNnPq7PXlDZGo=", "properties": {"@source_uri": "https://tools.usps.com/UspsToolsRestServices/rest/POLocator/findLocations", "@spider": "usps_collection_boxes", "addr:city": "KANSAS CITY", "addr:country": "US", "addr:postcode": "64153", "addr:state": "MO", "addr:street_address": "8320 N PLATTE PURCHASE DR", "amenity": "post_box", "collection_times": "Mo-Fr 16:30; Sa 12:30", "note": "ON 12/24 AND 12/31, THIS BOX MAY BE COLLECTED AS EARLY AS 12 NOON.", "nsi_id": "unitedstatespostalservice-a77078", "operator": "United States Postal Service", "operator:short": "USPS", "operator:type": "public", "operator:wikidata": "Q668687", "ref": "6415300040"}, "type": "Feature"}
{"geometry": {"coordinates": [-94.721225985, 39.303793229], "type": "Point"}, "id": "uRQYcNhu-cv8vNTcLPH10oSWij4=", "properties": {"@source_uri": "https://tools.usps.com/UspsToolsRestServices/rest/POLocator/findLocations", "@spider": "usps_collection_boxes", "addr:city": "KANSAS CITY", "addr:country": "US", "addr:postcode": "64153", "addr:state": "MO", "addr:street_address": "156 PARIS ST", "amenity": "post_box", "collection_times": "Mo-Fr 13:15", "indoor": "yes", "note": "ON 12/24 AND 12/31, THIS BOX MAY BE COLLECTED AS EARLY AS 12 NOON.", "nsi_id": "unitedstatespostalservice-a77078", "operator": "United States Postal Service", "operator:short": "USPS", "operator:type": "public", "operator:wikidata": "Q668687", "ref": "6415300044"}, "type": "Feature"}
{"geometry": {"coordinates": [-94.6528539, 39.247093803], "type": "Point"}, "id": "7TsVnqdNn6izK2HsR0fx4nP0m6M=", "properties": {"@source_uri": "https://tools.usps.com/UspsToolsRestServices/rest/POLocator/findLocations", "@spider": "usps_collection_boxes", "addr:city": "KANSAS CITY", "addr:country": "US", "addr:postcode": "64154", "addr:state": "MO", "addr:street_address": "6304 NW BARRY RD", "amenity": "post_box", "collection_times": "Mo-Fr 17:15; Sa 14:15", "indoor": "yes", "note": "ON 12/24 AND 12/31, THIS BOX MAY BE COLLECTED AS EARLY AS 12 NOON.", "nsi_id": "unitedstatespostalservice-a77078", "operator": "United States Postal Service", "operator:short": "USPS", "operator:type": "public", "operator:wikidata": "Q668687", "ref": "6415400004"}, "type": "Feature"}
{"geometry": {"coordinates": [-94.6324180042, 39.2508960093], "type": "Point"}, "id": "W1EjXOc1IxZIppBJ96eZ2091PhM=", "properties": {"@source_uri": "https://tools.usps.com/UspsToolsRestServices/rest/POLocator/findLocations", "@spider": "usps_collection_boxes", "addr:city": "KANSAS CITY", "addr:country": "US", "addr:postcode": "64154", "addr:state": "MO", "addr:street_address": "8620 N GREEN HILLS RD", "amenity": "post_box", "collection_times": "Mo-Sa 10:45", "nsi_id": "unitedstatespostalservice-a77078", "operator": "United States Postal Service", "operator:short": "USPS", "operator:type": "public", "operator:wikidata": "Q668687", "ref": "6415400007"}, "type": "Feature"}
{"geometry": {"coordinates": [-94.5741595, 39.277274], "type": "Point"}, "id": "ISqqAiobk4Z8f-1FNW-aeo3BOIo=", "properties": {"@source_uri": "https://tools.usps.com/UspsToolsRestServices/rest/POLocator/findLocations", "@spider": "usps_collection_boxes", "addr:city": "KANSAS CITY", "addr:country": "US", "addr:postcode": "64155", "addr:state": "MO", "addr:street_address": "515 NE NEW MARK DR", "amenity": "post_box", "collection_times": "Mo-Fr 12:00; Sa 10:00", "nsi_id": "unitedstatespostalservice-a77078", "operator": "United States Postal Service", "operator:short": "USPS", "operator:type": "public", "operator:wikidata": "Q668687", "ref": "6415500010"}, "type": "Feature"}
{"geometry": {"coordinates": [-94.524240526, 39.245527502], "type": "Point"}, "id": "kbAEaQWVFKSwouchmAEN-X7_gdw=", "properties": {"@source_uri": "https://tools.usps.com/UspsToolsRestServices/rest/POLocator/findLocations", "@spider": "usps_collection_boxes", "addr:city": "KANSAS CITY", "addr:country": "US", "addr:postcode": "64156", "addr:state": "MO", "addr:street_address": "4701 NE BARRY RD", "amenity": "post_box", "collection_times": "Mo-Fr 17:15; Sa 15:30", "note": "ON 12/24 AND 12/31, THIS BOX MAY BE COLLECTED AS EARLY AS 12 NOON.", "nsi_id": "unitedstatespostalservice-a77078", "operator": "United States Postal Service", "operator:short": "USPS", "operator:type": "public", "operator:wikidata": "Q668687", "ref": "6415600001"}, "type": "Feature"}
{"geometry": {"coordinates": [-94.523522, 39.245524], "type": "Point"}, "id": "yKHwff_MSaySOO6Ry2CbgYYC0KY=", "properties": {"@source_uri": "https://tools.usps.com/UspsToolsRestServices/rest/POLocator/findLocations", "@spider": "usps_collection_boxes", "addr:city": "KANSAS CITY", "addr:country": "US", "addr:postcode": "64156", "addr:state": "MO", "addr:street_address": "4701 NE BARRY RD", "amenity": "post_box", "collection_times": "Mo-Fr 17:15; Sa 15:30", "indoor": "yes", "note": "ON 12/24 AND 12/31, THIS BOX MAY BE COLLECTED AS EARLY AS 12 NOON.", "nsi_id": "unitedstatespostalservice-a77078", "operator": "United States Postal Service", "operator:short": "USPS", "operator:type": "public", "operator:wikidata": "Q668687", "ref": "6415600003"}, "type": "Feature"}
{"geometry": {"coordinates": [-94.523522, 39.245524], "type": "Point"}, "id": "KOS4PnNe04via5rUrFRPkMSKwho=", "properties": {"@source_uri": "https://tools.usps.com/UspsToolsRestServices/rest/POLocator/findLocations", "@spider": "usps_collection_boxes", "addr:city": "KANSAS CITY", "addr:country": "US", "addr:postcode": "64156", "addr:state": "MO", "addr:street_address": "4701 NE BARRY RD", "amenity": "post_box", "collection_times": "Mo-Fr 17:15; Sa 15:30", "indoor": "yes", "note": "ON 12/24 AND 12/31, THIS BOX MAY BE COLLECTED AS EARLY AS 12 NOON.", "nsi_id": "unitedstatespostalservice-a77078", "operator": "United States Postal Service", "operator:short": "USPS", "operator:type": "public", "operator:wikidata": "Q668687", "ref": "6415600004"}, "type": "Feature"}
{"geometry": {"coordinates": [-94.4648058, 39.245224], "type": "Point"}, "id": "fhF7PahjD2L1OYUzH_n0nsAQdvI=", "properties": {"@source_uri": "https://tools.usps.com/UspsToolsRestServices/rest/POLocator/findLocations", "@spider": "usps_collection_boxes", "addr:city": "KANSAS CITY", "addr:country": "US", "addr:postcode": "64157", "addr:state": "MO", "addr:street_address": "9200 NE BARRY RD", "amenity": "post_box", "collection_times": "Mo-Sa 12:00", "nsi_id": "unitedstatespostalservice-a77078", "operator": "United States Postal Service", "operator:short": "USPS", "operator:type": "public", "operator:wikidata": "Q668687", "ref": "6415700001"}, "type": "Feature"}
{"geometry": {"coordinates": [-94.478786, 39.157128], "type": "Point"}, "id": "IsyvPdagXPTy1MDqRACWoxthGro=", "properties": {"@source_uri": "https://tools.usps.com/UspsToolsRestServices/rest/POLocator/findLocations", "@spider": "usps_collection_boxes", "addr:city": "KANSAS CITY", "addr:country": "US", "addr:postcode": "64161", "addr:state": "MO", "addr:street_address": "8300 NE UNDERGROUND DR", "amenity": "post_box", "collection_times": "Mo-Fr 15:00; Sa 09:00", "note": "ON 12/24 AND 12/31, THIS BOX MAY BE COLLECTED AS EARLY AS 12 NOON.", "nsi_id": "unitedstatespostalservice-a77078", "operator": "United States Postal Service", "operator:short": "USPS", "operator:type": "public", "operator:wikidata": "Q668687", "ref": "6416100002"}, "type": "Feature"}
{"geometry": {"coordinates": [-94.4886155284, 39.163023], "type": "Point"}, "id": "w_jOP1kZ8oopvvFF-4x00YIfz3U=", "properties": {"@source_uri": "https://tools.usps.com/UspsToolsRestServices/rest/POLocator/findLocations", "@spider": "usps_collection_boxes", "addr:city": "KANSAS CITY", "addr:country": "US", "addr:postcode": "64161", "addr:state": "MO", "addr:street_address": "3737 NE GREAT MIDWEST DR", "amenity": "post_box", "collection_times": "Mo-Sa 09:00", "nsi_id": "unitedstatespostalservice-a77078", "operator": "United States Postal Service", "operator:short": "USPS", "operator:type": "public", "operator:wikidata": "Q668687", "ref": "6416100003"}, "type": "Feature"}
{"geometry": {"coordinates": [-94.4396479, 39.15799], "type": "Point"}, "id": "_0J1DuelByG1DIaA_9i3cgkvJpQ=", "properties": {"@source_uri": "https://tools.usps.com/UspsToolsRestServices/rest/POLocator/findLocations", "@spider": "usps_collection_boxes", "addr:city": "KANSAS CITY", "addr:country": "US", "addr:postcode": "64161", "addr:state": "MO", "addr:street_address": "3503 N KIMBALL DR", "amenity": "post_box", "collection_times": "Mo-Sa 10:00", "nsi_id": "unitedstatespostalservice-a77078", "operator": "United States Postal Service", "operator:short": "USPS", "operator:type": "public", "operator:wikidata": "Q668687", "ref": "6416100006"}, "type": "Feature"}
{"geometry": {"coordinates": [-94.652676, 39.247051], "type": "Point"}, "id": "-PlVAIzEQXlGaWaLiV-rGRqjXPQ=", "properties": {"@source_uri": "https://tools.usps.com/UspsToolsRestServices/rest/POLocator/findLocations", "@spider": "usps_collection_boxes", "addr:city": "KANSAS CITY", "addr:country": "US", "addr:postcode": "64190", "addr:state": "MO", "addr:street_address": "6304 NW BARRY RD", "amenity": "post_box", "collection_times": "Mo-Fr 16:45; Sa 14:00", "note": "ON 12/24 AND 12/31, THIS BOX MAY BE COLLECTED AS EARLY AS 12 NOON.", "nsi_id": "unitedstatespostalservice-a77078", "operator": "United States Postal Service", "operator:short": "USPS", "operator:type": "public", "operator:wikidata": "Q668687", "ref": "6419000000"}, "type": "Feature"}
{"geometry": {"coordinates": [-94.652848, 39.247051], "type": "Point"}, "id": "qmltSXin1lL2QEE3reLxlwjltk8=", "properties": {"@source_uri": "https://tools.usps.com/UspsToolsRestServices/rest/POLocator/findLocations", "@spider": "usps_collection_boxes", "addr:city": "KANSAS CITY", "addr:country": "US", "addr:postcode": "64190", "addr:state": "MO", "addr:street_address": "6304 NW BARRY RD", "amenity": "post_box", "collection_times": "Mo-Fr 17:00; Sa 14:00", "indoor": "yes", "note": "ON 12/24 AND 12/31, THIS BOX MAY BE COLLECTED AS EARLY AS 12 NOON.", "nsi_id": "unitedstatespostalservice-a77078", "operator": "United States Postal Service", "operator:short": "USPS", "operator:type": "public", "operator:wikidata": "Q668687", "ref": "6419000003"}, "type": "Feature"}
{"geometry": {"coordinates": [-94.652848, 39.247051], "type": "Point"}, "id": "XGFtqa3vRXYnAccD6VOfz1cpVfc=", "properties": {"@source_uri": "https://tools.usps.com/UspsToolsRestServices/rest/POLocator/findLocations", "@spider": "usps_collection_boxes", "addr:city": "KANSAS CITY", "addr:country": "US", "addr:postcode": "64190", "addr:state": "MO", "addr:street_address": "6304 NW BARRY RD", "amenity": "post_box", "collection_times": "Mo-Fr 17:00; Sa 14:00", "name": "USPS COLLECTION BOX - APC", "note": "ON 12/24 AND 12/31, THIS BOX MAY BE COLLECTED AS EARLY AS 12 NOON.", "nsi_id": "unitedstatespostalservice-a77078", "operator": "United States Postal Service", "operator:short": "USPS", "operator:type": "public", "operator:wikidata": "Q668687", "ref": "6419000004"}, "type": "Feature"}
{"geometry": {"coordinates": [-94.7210864, 39.303874], "type": "Point"}, "id": "mphLq1SjME8fADVeoMTlKvF5dSA=", "properties": {"@source_uri": "https://tools.usps.com/UspsToolsRestServices/rest/POLocator/findLocations", "@spider": "usps_collection_boxes", "addr:city": "KANSAS CITY", "addr:country": "US", "addr:postcode": "64195", "addr:state": "MO", "addr:street_address": "156 PARIS ST", "amenity": "post_box", "collection_times": "Mo-Sa 16:30", "note": "ON 12/24 AND 12/31, THIS BOX MAY BE COLLECTED AS EARLY AS 12 NOON.", "nsi_id": "unitedstatespostalservice-a77078", "operator": "United States Postal Service", "operator:short": "USPS", "operator:type": "public", "operator:wikidata": "Q668687", "ref": "6419500004"}, "type": "Feature"}
{"geometry": {"coordinates": [-94.7205999, 39.303953], "type": "Point"}, "id": "pKz7abuws96RBviyZ4S-pWntNAo=", "properties": {"@source_uri": "https://tools.usps.com/UspsToolsRestServices/rest/POLocator/findLocations", "@spider": "usps_collection_boxes", "addr:city": "KANSAS CITY", "addr:country": "US", "addr:postcode": "64195", "addr:state": "MO", "addr:street_address": "156 PARIS ST", "amenity": "post_box", "collection_times": "Mo-Fr 16:30; Sa 08:00", "indoor": "yes", "note": "ON 12/24 AND 12/31, THIS BOX MAY BE COLLECTED AS EARLY AS 12 NOON.", "nsi_id": "unitedstatespostalservice-a77078", "operator": "United States Postal Service", "operator:short": "USPS", "operator:type": "public", "operator:wikidata": "Q668687", "ref": "6419500008"}, "type": "Feature"}
{"geometry": {"coordinates": [-94.720609, 39.303997], "type": "Point"}, "id": "9_2I28O2OjxbhIh-Hvikk0v_MpM=", "properties": {"@source_uri": "https://tools.usps.com/UspsToolsRestServices/rest/POLocator/findLocations", "@spider": "usps_collection_boxes", "addr:city": "KANSAS CITY", "addr:country": "US", "addr:postcode": "64195", "addr:state": "MO", "addr:street_address": "156 PARIS ST", "amenity": "post_box", "collection_times": "Mo-Sa 16:30", "indoor": "yes", "note": "ON 12/24 AND 12/31, THIS BOX MAY BE COLLECTED AS EARLY AS 12 NOON.", "nsi_id": "unitedstatespostalservice-a77078", "operator": "United States Postal Service", "operator:short": "USPS", "operator:type": "public", "operator:wikidata": "Q668687", "ref": "6419500009"}, "type": "Feature"}
