{"geometry": {"coordinates": [-94.8748583, 40.350214], "type": "Point"}, "id": "Rw4HMehl5pemiZzj9ZndWe5fF8E=", "properties": {"@spider": "usps_collection_boxes", "addr:city": "BARNARD", "addr:country": "US", "addr:full": "504 4TH ST", "addr:postcode": "64423", "addr:state": "MO", "amenity": "post_box", "brand": "United States Postal Service", "brand:wikidata": "Q668687", "collection_times": "Mo-Fr 11:45; Sa 09:45", "name": "USPS COLLECTION BOX - BLUE BOX", "nsi_id": "unitedstatespostalservice-a77078", "operator": "United States Postal Service", "operator:short": "USPS", "operator:type": "public", "operator:wikidata": "Q668687", "ref": "6442300000"}, "type": "Feature"}
{"geometry": {"coordinates": [-94.8750173, 40.350145], "type": "Point"}, "id": "TmlloJ5KGCOd6ixe7-WVex2ddNs=", "properties": {"@spider": "usps_collection_boxes", "addr:city": "BRLNGTON JCTN", "addr:country": "US", "addr:full": "101 W MAIN ST", "addr:postcode": "64428", "addr:state": "MO", "amenity": "post_box", "brand": "United States Postal Service", "brand:wikidata": "Q668687", "collection_times": "Mo-Fr 15:45; Sa 10:45", "name": "USPS COLLECTION BOX - BLUE BOX", "note": "ON 12/24 AND 12/31, THIS BOX MAY BE COLLECTED AS EARLY AS 12 NOON.", "nsi_id": "unitedstatespostalservice-a77078", "operator": "United States Postal Service", "operator:short": "USPS", "operator:type": "public", "operator:wikidata": "Q668687", "ref": "6442800000"}, "type": "Feature"}
{"geometry": {"coordinates": [-95.0660596, 40.445953], "type": "Point"}, "id": "j-R5550ZIV3pJ85uPhfKpeVRJ8g=", "properties": {"@spider": "usps_collection_boxes", "addr:city": "BRLNGTON JCTN", "addr:country": "US", "addr:full": "101 W MAIN ST", "addr:postcode": "64428", "addr:state": "MO", "amenity": "post_box", "brand": "United States Postal Service", "brand:wikidata": "Q668687", "collection_times": "Mo-Fr 15:45; Sa 10:45", "name": "USPS COLLECTION BOX - PO LOBBY", "note": "ON 12/24 AND 12/31, THIS BOX MAY BE COLLECTED AS EARLY AS 12 NOON.", "nsi_id": "unitedstatespostalservice-a77078", "operator": "United States Postal Service", "operator:short": "USPS", "operator:type": "public", "operator:wikidata": "Q668687", "ref": "6442800001"}, "type": "Feature"}
{"geometry": {"coordinates": [-95.0661106, 40.445965], "type": "Point"}, "id": "NPb-DIxITnYeRuJ2kqQd_FM8cE4=", "properties": {"@spider": "usps_collection_boxes", "addr:city": "BRLNGTON JCTN", "addr:country": "US", "addr:full": "101 W MAIN ST", "addr:postcode": "64428", "addr:state": "MO", "amenity": "post_box", "brand": "United States Postal Service", "brand:wikidata": "Q668687", "collection_times": "Mo-Fr 15:45; Sa 10:45", "name": "USPS COLLECTION BOX - PO LOBBY", "note": "ON 12/24 AND 12/31, THIS BOX MAY BE COLLECTED AS EARLY AS 12 NOON.", "nsi_id": "unitedstatespostalservice-a77078", "operator": "United States Postal Service", "operator:short": "USPS", "operator:type": "public", "operator:wikidata": "Q668687", "ref": "6442800002"}, "type": "Feature"}
{"geometry": {"coordinates": [-95.065945598, 40.445895098], "type": "Point"}, "id": "wF_LXkHpTXP0F09WSTCF2sfK6MY=", "properties": {"@spider": "usps_collection_boxes", "addr:city": "BRLNGTON JCTN", "addr:country": "US", "addr:full": "101 W MAIN ST", "addr:postcode": "64428", "addr:state": "MO", "amenity": "post_box", "brand": "United States Postal Service", "brand:wikidata": "Q668687", "collection_times": "Mo-Fr 15:45; Sa 10:45", "name": "USPS COLLECTION BOX - PO LOBBY", "note": "ON 12/24 AND 12/31, THIS BOX MAY BE COLLECTED AS EARLY AS 12 NOON.", "nsi_id": "unitedstatespostalservice-a77078", "operator": "United States Postal Service", "operator:short": "USPS", "operator:type": "public", "operator:wikidata": "Q668687", "ref": "6442800004"}, "type": "Feature"}
{"geometry": {"coordinates": [-94.8751795, 40.350263], "type": "Point"}, "id": "CdY5ZcPMqpbBAUeSxoqsFFbVY1U=", "properties": {"@spider": "usps_collection_boxes", "addr:city": "CLEARMONT", "addr:country": "US", "addr:full": "201 2ND ST", "addr:postcode": "64431", "addr:state": "MO", "amenity": "post_box", "brand": "United States Postal Service", "brand:wikidata": "Q668687", "collection_times": "Mo-Fr 15:45; Sa 13:45", "name": "USPS COLLECTION BOX - BLUE BOX", "note": "ON 12/24 AND 12/31, THIS BOX MAY BE COLLECTED AS EARLY AS 12 NOON.", "nsi_id": "unitedstatespostalservice-a77078", "operator": "United States Postal Service", "operator:short": "USPS", "operator:type": "public", "operator:wikidata": "Q668687", "ref": "6443100000"}, "type": "Feature"}
{"geometry": {"coordinates": [-95.032197, 40.509291], "type": "Point"}, "id": "HsWpVSBUvltmddwKdeQeRXYIKFg=", "properties": {"@spider": "usps_collection_boxes", "addr:city": "CLEARMONT", "addr:country": "US", "addr:full": "201 2ND ST", "addr:postcode": "64431", "addr:state": "MO", "amenity": "post_box", "brand": "United States Postal Service", "brand:wikidata": "Q668687", "collection_times": "Mo-Fr 15:45; Sa 13:45", "name": "USPS COLLECTION BOX - PO LOBBY", "note": "ON 12/24 AND 12/31, THIS BOX MAY BE COLLECTED AS EARLY AS 12 NOON.", "nsi_id": "unitedstatespostalservice-a77078", "operator": "United States Postal Service", "operator:short": "USPS", "operator:type": "public", "operator:wikidata": "Q668687", "ref": "6443100001"}, "type": "Feature"}
{"geometry": {"coordinates": [-95.032277118, 40.509362715], "type": "Point"}, "id": "b2t50HY0swapGqAAHGCXzFWeYMc=", "properties": {"@spider": "usps_collection_boxes", "addr:city": "CLEARMONT", "addr:country": "US", "addr:full": "201 2ND ST", "addr:postcode": "64431", "addr:state": "MO", "amenity": "post_box", "brand": "United States Postal Service", "brand:wikidata": "Q668687", "collection_times": "Mo-Fr 15:45; Sa 13:45", "name": "USPS COLLECTION BOX - PO LOBBY", "note": "ON 12/24 AND 12/31, THIS BOX MAY BE COLLECTED AS EARLY AS 12 NOON.", "nsi_id": "unitedstatespostalservice-a77078", "operator": "United States Postal Service", "operator:short": "USPS", "operator:type": "public", "operator:wikidata": "Q668687", "ref": "6443100003"}, "type": "Feature"}
{"geometry": {"coordinates": [-94.8751861, 40.350276], "type": "Point"}, "id": "d3bFgX-479aR17-D-xhcSBF77H8=", "properties": {"@spider": "usps_collection_boxes", "addr:city": "CLYDE", "addr:country": "US", "addr:full": "404 MAIN ST", "addr:postcode": "64432", "addr:state": "MO", "amenity": "post_box", "brand": "United States Postal Service", "brand:wikidata": "Q668687", "collection_times": "Mo-Sa 11:15", "name": "USPS COLLECTION BOX - BLUE BOX", "nsi_id": "unitedstatespostalservice-a77078", "operator": "United States Postal Service", "operator:short": "USPS", "operator:type": "public", "operator:wikidata": "Q668687", "ref": "6443200000"}, "type": "Feature"}
{"geometry": {"coordinates": [-94.8752165, 40.35027], "type": "Point"}, "id": "Zt0lSEH0t0hxzsy-2TBs6orp2SM=", "properties": {"@spider": "usps_collection_boxes", "addr:city": "CONCEPTION", "addr:country": "US", "addr:full": "37114 STATE HIGHWAY VV", "addr:postcode": "64433", "addr:state": "MO", "amenity": "post_box", "brand": "United States Postal Service", "brand:wikidata": "Q668687", "collection_times": "Mo-Fr 15:45; Sa 13:45", "name": "USPS COLLECTION BOX - BLUE BOX", "note": "ON 12/24 AND 12/31, THIS BOX MAY BE COLLECTED AS EARLY AS 12 NOON.", "nsi_id": "unitedstatespostalservice-a77078", "operator": "United States Postal Service", "operator:short": "USPS", "operator:type": "public", "operator:wikidata": "Q668687", "ref": "6443300000"}, "type": "Feature"}
{"geometry": {"coordinates": [-94.8752318, 40.350273], "type": "Point"}, "id": "5VHMR-dMuEzKgv8J_TZ9IQHLQa4=", "properties": {"@spider": "usps_collection_boxes", "addr:city": "CNCPTON JCTN", "addr:country": "US", "addr:full": "609 S MAIN ST", "addr:postcode": "64434", "addr:state": "MO", "amenity": "post_box", "brand": "United States Postal Service", "brand:wikidata": "Q668687", "collection_times": "Mo-Sa 11:45", "name": "USPS COLLECTION BOX - BLUE BOX", "nsi_id": "unitedstatespostalservice-a77078", "operator": "United States Postal Service", "operator:short": "USPS", "operator:type": "public", "operator:wikidata": "Q668687", "ref": "6443400000"}, "type": "Feature"}
{"geometry": {"coordinates": [-95.3744002433, 40.1922271302], "type": "Point"}, "id": "JQd4yoXuBjI-Fb483SnV8jJ8obQ=", "properties": {"@spider": "usps_collection_boxes", "addr:city": "CRAIG", "addr:country": "US", "addr:full": "103 S MAIN ST", "addr:postcode": "64437", "addr:state": "MO", "amenity": "post_box", "brand": "United States Postal Service", "brand:wikidata": "Q668687", "collection_times": "Mo-Fr 11:15; Sa 08:45", "name": "USPS COLLECTION BOX - BLUE BOX", "nsi_id": "unitedstatespostalservice-a77078", "operator": "United States Postal Service", "operator:short": "USPS", "operator:type": "public", "operator:wikidata": "Q668687", "ref": "6443700000"}, "type": "Feature"}
{"geometry": {"coordinates": [-95.3744002433, 40.1922271302], "type": "Point"}, "id": "SFkgBLk8B-Zy2fN-CowrXf2pIAo=", "properties": {"@spider": "usps_collection_boxes", "addr:city": "CRAIG", "addr:country": "US", "addr:full": "103 S MAIN ST", "addr:postcode": "64437", "addr:state": "MO", "amenity": "post_box", "brand": "United States Postal Service", "brand:wikidata": "Q668687", "collection_times": "Mo-Fr 11:15; Sa 08:45", "name": "USPS COLLECTION BOX - PO LOBBY", "nsi_id": "unitedstatespostalservice-a77078", "operator": "United States Postal Service", "operator:short": "USPS", "operator:type": "public", "operator:wikidata": "Q668687", "ref": "6443700001"}, "type": "Feature"}
{"geometry": {"coordinates": [-95.3744002433, 40.1922271302], "type": "Point"}, "id": "94X4Xd2omt9y1JjW2nHM1MAGDT8=", "properties": {"@spider": "usps_collection_boxes", "addr:city": "CRAIG", "addr:country": "US", "addr:full": "103 S MAIN ST", "addr:postcode": "64437", "addr:state": "MO", "amenity": "post_box", "brand": "United States Postal Service", "brand:wikidata": "Q668687", "collection_times": "Mo-Fr 11:15; Sa 08:45", "name": "USPS COLLECTION BOX - PO LOBBY", "nsi_id": "unitedstatespostalservice-a77078", "operator": "United States Postal Service", "operator:short": "USPS", "operator:type": "public", "operator:wikidata": "Q668687", "ref": "6443700003"}, "type": "Feature"}
{"geometry": {"coordinates": [-95.120196347, 40.518552179], "type": "Point"}, "id": "KD8IWUbEoWunoP2ZrOQpX_XNwv4=", "properties": {"@spider": "usps_collection_boxes", "addr:city": "ELMO", "addr:country": "US", "addr:full": "101 W MAIN ST", "addr:postcode": "64445", "addr:state": "MO", "amenity": "post_box", "brand": "United States Postal Service", "brand:wikidata": "Q668687", "collection_times": "Mo-Sa 13:45", "name": "USPS COLLECTION BOX - BLUE BOX", "note": "ON 12/24 AND 12/31, THIS BOX MAY BE COLLECTED AS EARLY AS 12 NOON.", "nsi_id": "unitedstatespostalservice-a77078", "operator": "United States Postal Service", "operator:short": "USPS", "operator:type": "public", "operator:wikidata": "Q668687", "ref": "6444500000"}, "type": "Feature"}
{"geometry": {"coordinates": [-95.120196347, 40.518552179], "type": "Point"}, "id": "2t9zngPl6zA36DnhXhaRmVcI7Eg=", "properties": {"@spider": "usps_collection_boxes", "addr:city": "ELMO", "addr:country": "US", "addr:full": "101 W MAIN ST", "addr:postcode": "64445", "addr:state": "MO", "amenity": "post_box", "brand": "United States Postal Service", "brand:wikidata": "Q668687", "collection_times": "Mo-Sa 13:45", "name": "USPS COLLECTION BOX - PO LOBBY", "note": "ON 12/24 AND 12/31, THIS BOX MAY BE COLLECTED AS EARLY AS 12 NOON.", "nsi_id": "unitedstatespostalservice-a77078", "operator": "United States Postal Service", "operator:short": "USPS", "operator:type": "public", "operator:wikidata": "Q668687", "ref": "6444500001"}, "type": "Feature"}
{"geometry": {"coordinates": [-95.120196347, 40.518552179], "type": "Point"}, "id": "iEf4ZjCTlxx-8q4sjL69lNP2X0Y=", "properties": {"@spider": "usps_collection_boxes", "addr:city": "ELMO", "addr:country": "US", "addr:full": "101 W MAIN ST", "addr:postcode": "64445", "addr:state": "MO", "amenity": "post_box", "brand": "United States Postal Service", "brand:wikidata": "Q668687", "collection_times": "Mo-Sa 13:45", "name": "USPS COLLECTION BOX - PO LOBBY", "note": "ON 12/24 AND 12/31, THIS BOX MAY BE COLLECTED AS EARLY AS 12 NOON.", "nsi_id": "unitedstatespostalservice-a77078", "operator": "United States Postal Service", "operator:short": "USPS", "operator:type": "public", "operator:wikidata": "Q668687", "ref": "6444500003"}, "type": "Feature"}
{"geometry": {"coordinates": [-95.392837, 40.338044], "type": "Point"}, "id": "p_Q96P_X8VzxBDbYQb4Mnp0fUgE=", "properties": {"@spider": "usps_collection_boxes", "addr:city": "FAIRFAX", "addr:country": "US", "addr:full": "104 N DENNY ST", "addr:postcode": "64446", "addr:state": "MO", "amenity": "post_box", "brand": "United States Postal Service", "brand:wikidata": "Q668687", "collection_times": "Mo-Fr 15:15; Sa 09:30", "name": "USPS COLLECTION BOX - BLUE BOX", "note": "ON 12/24 AND 12/31, THIS BOX MAY BE COLLECTED AS EARLY AS 12 NOON.", "nsi_id": "unitedstatespostalservice-a77078", "operator": "United States Postal Service", "operator:short": "USPS", "operator:type": "public", "operator:wikidata": "Q668687", "ref": "6444600000"}, "type": "Feature"}
{"geometry": {"coordinates": [-95.3928, 40.338127], "type": "Point"}, "id": "vEjrlZMyV-FR3HkSjZwjjOxNfkw=", "properties": {"@spider": "usps_collection_boxes", "addr:city": "FAIRFAX", "addr:country": "US", "addr:full": "104 N DENNY ST", "addr:postcode": "64446", "addr:state": "MO", "amenity": "post_box", "brand": "United States Postal Service", "brand:wikidata": "Q668687", "collection_times": "Mo-Fr 15:15; Sa 09:30", "name": "USPS COLLECTION BOX - PO LOBBY", "note": "ON 12/24 AND 12/31, THIS BOX MAY BE COLLECTED AS EARLY AS 12 NOON.", "nsi_id": "unitedstatespostalservice-a77078", "operator": "United States Postal Service", "operator:short": "USPS", "operator:type": "public", "operator:wikidata": "Q668687", "ref": "6444600002"}, "type": "Feature"}
{"geometry": {"coordinates": [-95.392863647, 40.338109349], "type": "Point"}, "id": "hnwZORctbEgmonRWPCyId958Yeg=", "properties": {"@spider": "usps_collection_boxes", "addr:city": "FAIRFAX", "addr:country": "US", "addr:full": "104 N DENNY ST", "addr:postcode": "64446", "addr:state": "MO", "amenity": "post_box", "brand": "United States Postal Service", "brand:wikidata": "Q668687", "collection_times": "Mo-Fr 15:15; Sa 09:30", "name": "USPS COLLECTION BOX - PO LOBBY", "note": "ON 12/24 AND 12/31, THIS BOX MAY BE COLLECTED AS EARLY AS 12 NOON.", "nsi_id": "unitedstatespostalservice-a77078", "operator": "United States Postal Service", "operator:short": "USPS", "operator:type": "public", "operator:wikidata": "Q668687", "ref": "6444600005"}, "type": "Feature"}
{"geometry": {"coordinates": [-95.036788, 40.200844], "type": "Point"}, "id": "jhmfm3UO7Ve_fdu-e_q2jVwye70=", "properties": {"@spider": "usps_collection_boxes", "addr:city": "GRAHAM", "addr:country": "US", "addr:full": "412 E JACKSON ST", "addr:postcode": "64455", "addr:state": "MO", "amenity": "post_box", "brand": "United States Postal Service", "brand:wikidata": "Q668687", "collection_times": "Mo-Sa 14:45", "name": "USPS COLLECTION BOX - BLUE BOX", "note": "ON 12/24 AND 12/31, THIS BOX MAY BE COLLECTED AS EARLY AS 12 NOON.", "nsi_id": "unitedstatespostalservice-a77078", "operator": "United States Postal Service", "operator:short": "USPS", "operator:type": "public", "operator:wikidata": "Q668687", "ref": "6445500000"}, "type": "Feature"}
{"geometry": {"coordinates": [-94.8752636, 40.350276], "type": "Point"}, "id": "DUv9WlHzNdSlZifU2iFoqFI4W9o=", "properties": {"@spider": "usps_collection_boxes", "addr:city": "GUILFORD", "addr:country": "US", "addr:full": "119 MAIN ST", "addr:postcode": "64457", "addr:state": "MO", "amenity": "post_box", "brand": "United States Postal Service", "brand:wikidata": "Q668687", "collection_times": "Mo-Sa 11:45", "name": "USPS COLLECTION BOX - BLUE BOX", "nsi_id": "unitedstatespostalservice-a77078", "operator": "United States Postal Service", "operator:short": "USPS", "operator:type": "public", "operator:wikidata": "Q668687", "ref": "6445700000"}, "type": "Feature"}
{"geometry": {"coordinates": [-94.8752501, 40.350279], "type": "Point"}, "id": "LpRC4AX97li1ufT3WsgCt0wwWTI=", "properties": {"@spider": "usps_collection_boxes", "addr:city": "HOPKINS", "addr:country": "US", "addr:full": "401 E BARNARD ST", "addr:postcode": "64461", "addr:state": "MO", "amenity": "post_box", "brand": "United States Postal Service", "brand:wikidata": "Q668687", "collection_times": "Mo-Fr 11:45; Sa 09:45", "name": "USPS COLLECTION BOX - BLUE BOX", "nsi_id": "unitedstatespostalservice-a77078", "operator": "United States Postal Service", "operator:short": "USPS", "operator:type": "public", "operator:wikidata": "Q668687", "ref": "6446100000"}, "type": "Feature"}
{"geometry": {"coordinates": [-94.8752213, 40.350291], "type": "Point"}, "id": "Y0fCDbmgYstBJdABgP3rPVc0Fb4=", "properties": {"@spider": "usps_collection_boxes", "addr:city": "MAITLAND", "addr:country": "US", "addr:full": "205 ASH ST", "addr:postcode": "64466", "addr:state": "MO", "amenity": "post_box", "brand": "United States Postal Service", "brand:wikidata": "Q668687", "collection_times": "Mo-Fr 11:45; Sa 09:45", "name": "USPS COLLECTION BOX - BLUE BOX", "nsi_id": "unitedstatespostalservice-a77078", "operator": "United States Postal Service", "operator:short": "USPS", "operator:type": "public", "operator:wikidata": "Q668687", "ref": "6446600000"}, "type": "Feature"}
{"geometry": {"coordinates": [-95.074418, 40.201527], "type": "Point"}, "id": "Ya0s-tm-BOQ3rR0P7-9JPcX3gPg=", "properties": {"@spider": "usps_collection_boxes", "addr:city": "MAITLAND", "addr:country": "US", "addr:full": "205 ASH ST", "addr:postcode": "64466", "addr:state": "MO", "amenity": "post_box", "brand": "United States Postal Service", "brand:wikidata": "Q668687", "collection_times": "Mo-Fr 11:45; Sa 09:45", "name": "USPS COLLECTION BOX - PO LOBBY", "nsi_id": "unitedstatespostalservice-a77078", "operator": "United States Postal Service", "operator:short": "USPS", "operator:type": "public", "operator:wikidata": "Q668687", "ref": "6446600001"}, "type": "Feature"}
{"geometry": {"coordinates": [-95.074321332, 40.201554519], "type": "Point"}, "id": "dyGMQkqojXOV17k1K4S5YjZoLUM=", "properties": {"@spider": "usps_collection_boxes", "addr:city": "MAITLAND", "addr:country": "US", "addr:full": "205 ASH ST", "addr:postcode": "64466", "addr:state": "MO", "amenity": "post_box", "brand": "United States Postal Service", "brand:wikidata": "Q668687", "collection_times": "Mo-Fr 11:45; Sa 09:45", "name": "USPS COLLECTION BOX - PO LOBBY", "nsi_id": "unitedstatespostalservice-a77078", "operator": "United States Postal Service", "operator:short": "USPS", "operator:type": "public", "operator:wikidata": "Q668687", "ref": "6446600003"}, "type": "Feature"}
{"geometry": {"coordinates": [-94.874602, 40.350319], "type": "Point"}, "id": "hY_ODMfEoDDeZAUuaBtTBdEHnow=", "properties": {"@spider": "usps_collection_boxes", "addr:city": "MARYVILLE", "addr:country": "US", "addr:full": "507 N FILLMORE ST", "addr:postcode": "64468", "addr:state": "MO", "amenity": "post_box", "brand": "United States Postal Service", "brand:wikidata": "Q668687", "collection_times": "Mo-Fr 16:45; Sa 11:45", "name": "USPS COLLECTION BOX - BLUE BOX", "note": "ON 12/24 AND 12/31, THIS BOX MAY BE COLLECTED AS EARLY AS 12 NOON.", "nsi_id": "unitedstatespostalservice-a77078", "operator": "United States Postal Service", "operator:short": "USPS", "operator:type": "public", "operator:wikidata": "Q668687", "ref": "6446800001"}, "type": "Feature"}
{"geometry": {"coordinates": [-94.874542, 40.350272], "type": "Point"}, "id": "ZdKUkolImgrJx9rztqCHdsZt7CQ=", "properties": {"@spider": "usps_collection_boxes", "addr:city": "MARYVILLE", "addr:country": "US", "addr:full": "507 N FILLMORE ST", "addr:postcode": "64468", "addr:state": "MO", "amenity": "post_box", "brand": "United States Postal Service", "brand:wikidata": "Q668687", "collection_times": "Mo-Fr 16:45; Sa 11:45", "name": "USPS COLLECTION BOX - BLUE BOX", "note": "ON 12/24 AND 12/31, THIS BOX MAY BE COLLECTED AS EARLY AS 12 NOON.", "nsi_id": "unitedstatespostalservice-a77078", "operator": "United States Postal Service", "operator:short": "USPS", "operator:type": "public", "operator:wikidata": "Q668687", "ref": "6446800002"}, "type": "Feature"}
{"geometry": {"coordinates": [-94.8745541, 40.350275], "type": "Point"}, "id": "f8N3td6ZqqC5uqZhn-nonqU_AvE=", "properties": {"@spider": "usps_collection_boxes", "addr:city": "MARYVILLE", "addr:country": "US", "addr:full": "507 N FILLMORE ST", "addr:postcode": "64468", "addr:state": "MO", "amenity": "post_box", "brand": "United States Postal Service", "brand:wikidata": "Q668687", "collection_times": "Mo-Fr 16:45; Sa 11:45", "name": "USPS COLLECTION BOX - BLUE BOX", "note": "ON 12/24 AND 12/31, THIS BOX MAY BE COLLECTED AS EARLY AS 12 NOON.", "nsi_id": "unitedstatespostalservice-a77078", "operator": "United States Postal Service", "operator:short": "USPS", "operator:type": "public", "operator:wikidata": "Q668687", "ref": "6446800003"}, "type": "Feature"}
{"geometry": {"coordinates": [-94.852918899, 40.345327945], "type": "Point"}, "id": "mr5usyrOQoU2XR4k4eXEyd5Wirs=", "properties": {"@spider": "usps_collection_boxes", "addr:city": "MARYVILLE", "addr:country": "US", "addr:full": "1719 E 1ST ST", "addr:postcode": "64468", "addr:state": "MO", "amenity": "post_box", "brand": "United States Postal Service", "brand:wikidata": "Q668687", "collection_times": "Mo-Sa 15:30", "name": "USPS COLLECTION BOX - BLUE BOX", "note": "ON 12/24 AND 12/31, THIS BOX MAY BE COLLECTED AS EARLY AS 12 NOON.", "nsi_id": "unitedstatespostalservice-a77078", "operator": "United States Postal Service", "operator:short": "USPS", "operator:type": "public", "operator:wikidata": "Q668687", "ref": "6446800004"}, "type": "Feature"}
{"geometry": {"coordinates": [-94.872212832, 40.348817453], "type": "Point"}, "id": "JX-2p3eofuMvdntjO9jfhRUIa70=", "properties": {"@spider": "usps_collection_boxes", "addr:city": "MARYVILLE", "addr:country": "US", "addr:full": "115 E 4TH ST", "addr:postcode": "64468", "addr:state": "MO", "amenity": "post_box", "brand": "United States Postal Service", "brand:wikidata": "Q668687", "collection_times": "Mo-Sa 15:30", "name": "USPS COLLECTION BOX - BLUE BOX", "note": "ON 12/24 AND 12/31, THIS BOX MAY BE COLLECTED AS EARLY AS 12 NOON.", "nsi_id": "unitedstatespostalservice-a77078", "operator": "United States Postal Service", "operator:short": "USPS", "operator:type": "public", "operator:wikidata": "Q668687", "ref": "6446800008"}, "type": "Feature"}
{"geometry": {"coordinates": [-94.873911536, 40.332740362], "type": "Point"}, "id": "S0fTwTDAWf9J5kq2ZbQ90jrvV2s=", "properties": {"@spider": "usps_collection_boxes", "addr:city": "MARYVILLE", "addr:country": "US", "addr:full": "1308 S MAIN ST", "addr:postcode": "64468", "addr:state": "MO", "amenity": "post_box", "brand": "United States Postal Service", "brand:wikidata": "Q668687", "collection_times": "Mo-Sa 15:30", "name": "USPS COLLECTION BOX - BLUE BOX", "note": "ON 12/24 AND 12/31, THIS BOX MAY BE COLLECTED AS EARLY AS 12 NOON.", "nsi_id": "unitedstatespostalservice-a77078", "operator": "United States Postal Service", "operator:short": "USPS", "operator:type": "public", "operator:wikidata": "Q668687", "ref": "6446800010"}, "type": "Feature"}
{"geometry": {"coordinates": [-94.872212277, 40.347884496], "type": "Point"}, "id": "epaGhqSC0mLmFeeUPolXmMWF79s=", "properties": {"@spider": "usps_collection_boxes", "addr:city": "MARYVILLE", "addr:country": "US", "addr:full": "116 E 3RD ST", "addr:postcode": "64468", "addr:state": "MO", "amenity": "post_box", "brand": "United States Postal Service", "brand:wikidata": "Q668687", "collection_times": "Mo-Sa 15:30", "name": "USPS COLLECTION BOX - BLUE BOX", "note": "ON 12/24 AND 12/31, THIS BOX MAY BE COLLECTED AS EARLY AS 12 NOON.", "nsi_id": "unitedstatespostalservice-a77078", "operator": "United States Postal Service", "operator:short": "USPS", "operator:type": "public", "operator:wikidata": "Q668687", "ref": "6446800015"}, "type": "Feature"}
{"geometry": {"coordinates": [-94.8753773, 40.350055], "type": "Point"}, "id": "oJ3k8CuVmaokmDV2STOsFv5awdM=", "properties": {"@spider": "usps_collection_boxes", "addr:city": "MARYVILLE", "addr:country": "US", "addr:full": "507 N FILLMORE ST", "addr:postcode": "64468", "addr:state": "MO", "amenity": "post_box", "brand": "United States Postal Service", "brand:wikidata": "Q668687", "collection_times": "Mo-Fr 16:45; Sa 11:45", "name": "USPS COLLECTION BOX - PO LOBBY", "note": "ON 12/24 AND 12/31, THIS BOX MAY BE COLLECTED AS EARLY AS 12 NOON.", "nsi_id": "unitedstatespostalservice-a77078", "operator": "United States Postal Service", "operator:short": "USPS", "operator:type": "public", "operator:wikidata": "Q668687", "ref": "6446800019"}, "type": "Feature"}
{"geometry": {"coordinates": [-94.8748795, 40.350239], "type": "Point"}, "id": "G5GCT-Ul6PzAcxMzbZL0IXxoS00=", "properties": {"@spider": "usps_collection_boxes", "addr:city": "MARYVILLE", "addr:country": "US", "addr:full": "507 N FILLMORE ST", "addr:postcode": "64468", "addr:state": "MO", "amenity": "post_box", "brand": "United States Postal Service", "brand:wikidata": "Q668687", "collection_times": "Mo-Fr 16:45; Sa 11:45", "name": "USPS COLLECTION BOX - PO LOBBY", "note": "ON 12/24 AND 12/31, THIS BOX MAY BE COLLECTED AS EARLY AS 12 NOON.", "nsi_id": "unitedstatespostalservice-a77078", "operator": "United States Postal Service", "operator:short": "USPS", "operator:type": "public", "operator:wikidata": "Q668687", "ref": "6446800020"}, "type": "Feature"}
{"geometry": {"coordinates": [-94.873864982, 40.330017], "type": "Point"}, "id": "pSDgR96BOtemUxc21Hcr3y1Ifo0=", "properties": {"@spider": "usps_collection_boxes", "addr:city": "MARYVILLE", "addr:country": "US", "addr:full": "1605 S MAIN ST", "addr:postcode": "64468", "addr:state": "MO", "amenity": "post_box", "brand": "United States Postal Service", "brand:wikidata": "Q668687", "collection_times": "Mo-Sa 15:30", "name": "USPS COLLECTION BOX - BLUE BOX", "note": "ON 12/24 AND 12/31, THIS BOX MAY BE COLLECTED AS EARLY AS 12 NOON.", "nsi_id": "unitedstatespostalservice-a77078", "operator": "United States Postal Service", "operator:short": "USPS", "operator:type": "public", "operator:wikidata": "Q668687", "ref": "6446800021"}, "type": "Feature"}
{"geometry": {"coordinates": [-94.875214461, 40.350266329], "type": "Point"}, "id": "eJeL2bOta9dPZm2q97394uNCT_E=", "properties": {"@spider": "usps_collection_boxes", "addr:city": "MARYVILLE", "addr:country": "US", "addr:full": "507 N FILLMORE ST", "addr:postcode": "64468", "addr:state": "MO", "amenity": "post_box", "brand": "United States Postal Service", "brand:wikidata": "Q668687", "collection_times": "Mo-Fr 16:45; Sa 11:45", "name": "USPS COLLECTION BOX - PO LOBBY", "note": "ON 12/24 AND 12/31, THIS BOX MAY BE COLLECTED AS EARLY AS 12 NOON.", "nsi_id": "unitedstatespostalservice-a77078", "operator": "United States Postal Service", "operator:short": "USPS", "operator:type": "public", "operator:wikidata": "Q668687", "ref": "6446800025"}, "type": "Feature"}
{"geometry": {"coordinates": [-95.232543, 40.131372], "type": "Point"}, "id": "MjixmreYCHQtdzTbk0Fe2q2zCX4=", "properties": {"@spider": "usps_collection_boxes", "addr:city": "MOUND CITY", "addr:country": "US", "addr:full": "116 W 6TH ST", "addr:postcode": "64470", "addr:state": "MO", "amenity": "post_box", "brand": "United States Postal Service", "brand:wikidata": "Q668687", "collection_times": "Mo-Fr 16:15; Sa 10:15", "name": "USPS COLLECTION BOX - PO LOBBY", "note": "ON 12/24 AND 12/31, THIS BOX MAY BE COLLECTED AS EARLY AS 12 NOON.", "nsi_id": "unitedstatespostalservice-a77078", "operator": "United States Postal Service", "operator:short": "USPS", "operator:type": "public", "operator:wikidata": "Q668687", "ref": "6447000002"}, "type": "Feature"}
{"geometry": {"coordinates": [-95.232491, 40.131425], "type": "Point"}, "id": "FZOvTv5uIRg1u5l19SF5FG1YrkU=", "properties": {"@spider": "usps_collection_boxes", "addr:city": "MOUND CITY", "addr:country": "US", "addr:full": "116 W 6TH ST", "addr:postcode": "64470", "addr:state": "MO", "amenity": "post_box", "brand": "United States Postal Service", "brand:wikidata": "Q668687", "collection_times": "Mo-Fr 16:15; Sa 10:15", "name": "USPS COLLECTION BOX - BLUE BOX", "note": "ON 12/24 AND 12/31, THIS BOX MAY BE COLLECTED AS EARLY AS 12 NOON.", "nsi_id": "unitedstatespostalservice-a77078", "operator": "United States Postal Service", "operator:short": "USPS", "operator:type": "public", "operator:wikidata": "Q668687", "ref": "6447000004"}, "type": "Feature"}
{"geometry": {"coordinates": [-95.233000185, 40.131141297], "type": "Point"}, "id": "fCV243hQabxL4_UP9Ok4kN3HF2k=", "properties": {"@spider": "usps_collection_boxes", "addr:city": "MOUND CITY", "addr:country": "US", "addr:full": "116 W 6TH ST", "addr:postcode": "64470", "addr:state": "MO", "amenity": "post_box", "brand": "United States Postal Service", "brand:wikidata": "Q668687", "collection_times": "Mo-Fr 16:15; Sa 10:15", "name": "USPS COLLECTION BOX - PO LOBBY", "note": "ON 12/24 AND 12/31, THIS BOX MAY BE COLLECTED AS EARLY AS 12 NOON.", "nsi_id": "unitedstatespostalservice-a77078", "operator": "United States Postal Service", "operator:short": "USPS", "operator:type": "public", "operator:wikidata": "Q668687", "ref": "6447000006"}, "type": "Feature"}
{"geometry": {"coordinates": [-94.875228, 40.350301], "type": "Point"}, "id": "06KJyTBhtLMSP3rhgCNzx0uhg9w=", "properties": {"@spider": "usps_collection_boxes", "addr:city": "PARNELL", "addr:country": "US", "addr:full": "211 E ROBINSON AVE", "addr:postcode": "64475", "addr:state": "MO", "amenity": "post_box", "brand": "United States Postal Service", "brand:wikidata": "Q668687", "collection_times": "Mo-Sa 13:45", "name": "USPS COLLECTION BOX - BLUE BOX", "note": "ON 12/24 AND 12/31, THIS BOX MAY BE COLLECTED AS EARLY AS 12 NOON.", "nsi_id": "unitedstatespostalservice-a77078", "operator": "United States Postal Service", "operator:short": "USPS", "operator:type": "public", "operator:wikidata": "Q668687", "ref": "6447500000"}, "type": "Feature"}
{"geometry": {"coordinates": [-94.8400773097, 40.4508873271], "type": "Point"}, "id": "rkT_pXTL68nWGxcWvr5TuIWi3DI=", "properties": {"@spider": "usps_collection_boxes", "addr:city": "PICKERING", "addr:country": "US", "addr:full": "411 E 5TH ST", "addr:postcode": "64476", "addr:state": "MO", "amenity": "post_box", "brand": "United States Postal Service", "brand:wikidata": "Q668687", "collection_times": "Mo-Fr 09:45; Sa 09:15", "name": "USPS COLLECTION BOX - BLUE BOX", "nsi_id": "unitedstatespostalservice-a77078", "operator": "United States Postal Service", "operator:short": "USPS", "operator:type": "public", "operator:wikidata": "Q668687", "ref": "6447600000"}, "type": "Feature"}
{"geometry": {"coordinates": [-94.840138, 40.450832], "type": "Point"}, "id": "NYBEYkbu7KGnikPwS2Xgb5KfNDM=", "properties": {"@spider": "usps_collection_boxes", "addr:city": "PICKERING", "addr:country": "US", "addr:full": "411 E 5TH ST", "addr:postcode": "64476", "addr:state": "MO", "amenity": "post_box", "brand": "United States Postal Service", "brand:wikidata": "Q668687", "collection_times": "Mo-Fr 09:45; Sa 09:15", "name": "USPS COLLECTION BOX - PO LOBBY", "nsi_id": "unitedstatespostalservice-a77078", "operator": "United States Postal Service", "operator:short": "USPS", "operator:type": "public", "operator:wikidata": "Q668687", "ref": "6447600001"}, "type": "Feature"}
{"geometry": {"coordinates": [-94.8400800707, 40.4508991035], "type": "Point"}, "id": "aHmYPeOypuwLSv_N-YgLF2bmgkA=", "properties": {"@spider": "usps_collection_boxes", "addr:city": "PICKERING", "addr:country": "US", "addr:full": "411 E 5TH ST", "addr:postcode": "64476", "addr:state": "MO", "amenity": "post_box", "brand": "United States Postal Service", "brand:wikidata": "Q668687", "collection_times": "Mo-Fr 09:45; Sa 09:15", "name": "USPS COLLECTION BOX - PO LOBBY", "nsi_id": "unitedstatespostalservice-a77078", "operator": "United States Postal Service", "operator:short": "USPS", "operator:type": "public", "operator:wikidata": "Q668687", "ref": "6447600002"}, "type": "Feature"}
{"geometry": {"coordinates": [-95.51504, 40.412484], "type": "Point"}, "id": "u4DuD-rp5_XPfMxz8qz-wJ0XnvU=", "properties": {"@spider": "usps_collection_boxes", "addr:city": "ROCK PORT", "addr:country": "US", "addr:full": "110 W OPP ST", "addr:postcode": "64482", "addr:state": "MO", "amenity": "post_box", "brand": "United States Postal Service", "brand:wikidata": "Q668687", "collection_times": "Mo-Fr 16:15; Sa 10:45", "name": "USPS COLLECTION BOX - BLUE BOX", "note": "ON 12/24 AND 12/31, THIS BOX MAY BE COLLECTED AS EARLY AS 12 NOON.", "nsi_id": "unitedstatespostalservice-a77078", "operator": "United States Postal Service", "operator:short": "USPS", "operator:type": "public", "operator:wikidata": "Q668687", "ref": "6448200000"}, "type": "Feature"}
{"geometry": {"coordinates": [-95.5571074, 40.404211], "type": "Point"}, "id": "7k4zeb-o_ZqWx9RroLeDkzk4Hjg=", "properties": {"@spider": "usps_collection_boxes", "addr:city": "ROCK PORT", "addr:country": "US", "addr:full": "1306 US HIGHWAY 136 W", "addr:postcode": "64482", "addr:state": "MO", "amenity": "post_box", "brand": "United States Postal Service", "brand:wikidata": "Q668687", "collection_times": "Mo-Fr 12:30", "name": "USPS COLLECTION BOX - BLUE BOX", "note": "ON 12/24 AND 12/31, THIS BOX MAY BE COLLECTED AS EARLY AS 12 NOON.", "nsi_id": "unitedstatespostalservice-a77078", "operator": "United States Postal Service", "operator:short": "USPS", "operator:type": "public", "operator:wikidata": "Q668687", "ref": "6448200004"}, "type": "Feature"}
{"geometry": {"coordinates": [-95.514947, 40.412512], "type": "Point"}, "id": "8qABf90k6VEzwS9HdlfuHV4sVWc=", "properties": {"@spider": "usps_collection_boxes", "addr:city": "ROCK PORT", "addr:country": "US", "addr:full": "110 W OPP ST", "addr:postcode": "64482", "addr:state": "MO", "amenity": "post_box", "brand": "United States Postal Service", "brand:wikidata": "Q668687", "collection_times": "Mo-Fr 16:15; Sa 10:45", "name": "USPS COLLECTION BOX - PO LOBBY", "note": "ON 12/24 AND 12/31, THIS BOX MAY BE COLLECTED AS EARLY AS 12 NOON.", "nsi_id": "unitedstatespostalservice-a77078", "operator": "United States Postal Service", "operator:short": "USPS", "operator:type": "public", "operator:wikidata": "Q668687", "ref": "6448200005"}, "type": "Feature"}
{"geometry": {"coordinates": [-95.515008371, 40.41242284], "type": "Point"}, "id": "jBRDtL7dLBxthhUoeuPepPk2ADE=", "properties": {"@spider": "usps_collection_boxes", "addr:city": "ROCK PORT", "addr:country": "US", "addr:full": "110 W OPP ST", "addr:postcode": "64482", "addr:state": "MO", "amenity": "post_box", "brand": "United States Postal Service", "brand:wikidata": "Q668687", "collection_times": "Mo-Fr 16:15; Sa 10:45", "name": "USPS COLLECTION BOX - PO LOBBY", "note": "ON 12/24 AND 12/31, THIS BOX MAY BE COLLECTED AS EARLY AS 12 NOON.", "nsi_id": "unitedstatespostalservice-a77078", "operator": "United States Postal Service", "operator:short": "USPS", "operator:type": "public", "operator:wikidata": "Q668687", "ref": "6448200012"}, "type": "Feature"}
{"geometry": {"coordinates": [-95.0776999887, 40.2891999904], "type": "Point"}, "id": "D7s9F0ivOWu9sDhDWLU3E7n0p9I=", "properties": {"@spider": "usps_collection_boxes", "addr:city": "SKIDMORE", "addr:country": "US", "addr:full": "305 E ELM ST", "addr:postcode": "64487", "addr:state": "MO", "amenity": "post_box", "brand": "United States Postal Service", "brand:wikidata": "Q668687", "collection_times": "Mo-Sa 11:15", "name": "USPS COLLECTION BOX - BLUE BOX", "nsi_id": "unitedstatespostalservice-a77078", "operator": "United States Postal Service", "operator:short": "USPS", "operator:type": "public", "operator:wikidata": "Q668687", "ref": "6448700000"}, "type": "Feature"}
{"geometry": {"coordinates": [-95.078503, 40.288933], "type": "Point"}, "id": "4C76Mqxvt6xJzOBGIWt7e_SYsZc=", "properties": {"@spider": "usps_collection_boxes", "addr:city": "SKIDMORE", "addr:country": "US", "addr:full": "305 E ELM ST", "addr:postcode": "64487", "addr:state": "MO", "amenity": "post_box", "brand": "United States Postal Service", "brand:wikidata": "Q668687", "collection_times": "Mo-Sa 11:15", "name": "USPS COLLECTION BOX - PO LOBBY", "nsi_id": "unitedstatespostalservice-a77078", "operator": "United States Postal Service", "operator:short": "USPS", "operator:type": "public", "operator:wikidata": "Q668687", "ref": "6448700001"}, "type": "Feature"}
{"geometry": {"coordinates": [-95.077691277, 40.288960486], "type": "Point"}, "id": "bhC88erEFFEjgVf5z3UvFBDO_z4=", "properties": {"@spider": "usps_collection_boxes", "addr:city": "SKIDMORE", "addr:country": "US", "addr:full": "305 S ELM ST", "addr:postcode": "64487", "addr:state": "MO", "amenity": "post_box", "brand": "United States Postal Service", "brand:wikidata": "Q668687", "collection_times": "Mo-Sa 11:15", "name": "USPS COLLECTION BOX - PO LOBBY", "nsi_id": "unitedstatespostalservice-a77078", "operator": "United States Postal Service", "operator:short": "USPS", "operator:type": "public", "operator:wikidata": "Q668687", "ref": "6448700003"}, "type": "Feature"}
{"geometry": {"coordinates": [-95.380944, 40.44053], "type": "Point"}, "id": "oHp3vZ6sOjO9u8CG-VQIk5e3iKw=", "properties": {"@spider": "usps_collection_boxes", "addr:city": "TARKIO", "addr:country": "US", "addr:full": "505 MAIN ST", "addr:postcode": "64491", "addr:state": "MO", "amenity": "post_box", "brand": "United States Postal Service", "brand:wikidata": "Q668687", "collection_times": "Mo-Fr 16:15; Sa 10:15", "name": "USPS COLLECTION BOX - BLUE BOX", "note": "ON 12/24 AND 12/31, THIS BOX MAY BE COLLECTED AS EARLY AS 12 NOON.", "nsi_id": "unitedstatespostalservice-a77078", "operator": "United States Postal Service", "operator:short": "USPS", "operator:type": "public", "operator:wikidata": "Q668687", "ref": "6449100002"}, "type": "Feature"}
{"geometry": {"coordinates": [-95.380944, 40.44053], "type": "Point"}, "id": "IVze3Gd7vc0vjH6aUIyOsbO76Oo=", "properties": {"@spider": "usps_collection_boxes", "addr:city": "TARKIO", "addr:country": "US", "addr:full": "505 MAIN ST", "addr:postcode": "64491", "addr:state": "MO", "amenity": "post_box", "brand": "United States Postal Service", "brand:wikidata": "Q668687", "collection_times": "Mo-Fr 16:15; Sa 10:15", "name": "USPS COLLECTION BOX - PO LOBBY", "note": "ON 12/24 AND 12/31, THIS BOX MAY BE COLLECTED AS EARLY AS 12 NOON.", "nsi_id": "unitedstatespostalservice-a77078", "operator": "United States Postal Service", "operator:short": "USPS", "operator:type": "public", "operator:wikidata": "Q668687", "ref": "6449100009"}, "type": "Feature"}
{"geometry": {"coordinates": [-95.381018306, 40.440460228], "type": "Point"}, "id": "pOw_d9MRv8ImZjHJiW5-QlFa8as=", "properties": {"@spider": "usps_collection_boxes", "addr:city": "TARKIO", "addr:country": "US", "addr:full": "505 MAIN ST", "addr:postcode": "64491", "addr:state": "MO", "amenity": "post_box", "brand": "United States Postal Service", "brand:wikidata": "Q668687", "collection_times": "Mo-Fr 16:15; Sa 10:15", "name": "USPS COLLECTION BOX - PO LOBBY", "note": "ON 12/24 AND 12/31, THIS BOX MAY BE COLLECTED AS EARLY AS 12 NOON.", "nsi_id": "unitedstatespostalservice-a77078", "operator": "United States Postal Service", "operator:short": "USPS", "operator:type": "public", "operator:wikidata": "Q668687", "ref": "6449100016"}, "type": "Feature"}
{"geometry": {"coordinates": [-95.3190726401, 40.5340602111], "type": "Point"}, "id": "9sORZeECWc05N8S8ra6N1CnvCvA=", "properties": {"@spider": "usps_collection_boxes", "addr:city": "WESTBORO", "addr:country": "US", "addr:full": "303 E MAIN ST", "addr:postcode": "64498", "addr:state": "MO", "amenity": "post_box", "brand": "United States Postal Service", "brand:wikidata": "Q668687", "collection_times": "Mo-Fr 16:15; Sa 11:45", "name": "USPS COLLECTION BOX - BLUE BOX", "note": "ON 12/24 AND 12/31, THIS BOX MAY BE COLLECTED AS EARLY AS 12 NOON.", "nsi_id": "unitedstatespostalservice-a77078", "operator": "United States Postal Service", "operator:short": "USPS", "operator:type": "public", "operator:wikidata": "Q668687", "ref": "6449800000"}, "type": "Feature"}
{"geometry": {"coordinates": [-95.3174852, 40.536237], "type": "Point"}, "id": "xSLsrBSCpNSEDXvyNGc3zjXGGlw=", "properties": {"@spider": "usps_collection_boxes", "addr:city": "WESTBORO", "addr:country": "US", "addr:full": "301 WASHINGTON ST", "addr:postcode": "64498", "addr:state": "MO", "amenity": "post_box", "brand": "United States Postal Service", "brand:wikidata": "Q668687", "collection_times": "Mo-Fr 09:30", "name": "USPS COLLECTION BOX - BLUE BOX", "nsi_id": "unitedstatespostalservice-a77078", "operator": "United States Postal Service", "operator:short": "USPS", "operator:type": "public", "operator:wikidata": "Q668687", "ref": "6449800001"}, "type": "Feature"}
{"geometry": {"coordinates": [-95.321399, 40.534533], "type": "Point"}, "id": "OpJuQTN7QKAO2Cgk5R5H2917Hk0=", "properties": {"@spider": "usps_collection_boxes", "addr:city": "WESTBORO", "addr:country": "US", "addr:full": "303 E MAIN ST", "addr:postcode": "64498", "addr:state": "MO", "amenity": "post_box", "brand": "United States Postal Service", "brand:wikidata": "Q668687", "collection_times": "Mo-Fr 16:15; Sa 11:45", "name": "USPS COLLECTION BOX - PO LOBBY", "note": "ON 12/24 AND 12/31, THIS BOX MAY BE COLLECTED AS EARLY AS 12 NOON.", "nsi_id": "unitedstatespostalservice-a77078", "operator": "United States Postal Service", "operator:short": "USPS", "operator:type": "public", "operator:wikidata": "Q668687", "ref": "6449800002"}, "type": "Feature"}
{"geometry": {"coordinates": [-95.319062972, 40.534072853], "type": "Point"}, "id": "AKeYNFA8FMzTJOPeBch7DWojsnA=", "properties": {"@spider": "usps_collection_boxes", "addr:city": "WESTBORO", "addr:country": "US", "addr:full": "303 E MAIN ST", "addr:postcode": "64498", "addr:state": "MO", "amenity": "post_box", "brand": "United States Postal Service", "brand:wikidata": "Q668687", "collection_times": "Mo-Fr 16:15; Sa 11:45", "name": "USPS COLLECTION BOX - PO LOBBY", "note": "ON 12/24 AND 12/31, THIS BOX MAY BE COLLECTED AS EARLY AS 12 NOON.", "nsi_id": "unitedstatespostalservice-a77078", "operator": "United States Postal Service", "operator:short": "USPS", "operator:type": "public", "operator:wikidata": "Q668687", "ref": "6449800004"}, "type": "Feature"}
