{"geometry": {"coordinates": [-94.854248531, 39.768248727], "type": "Point"}, "id": "Q6Xy-ffi5xvaywepT0ooYSSUKJA=", "properties": {"@source_uri": "https://tools.usps.com/UspsToolsRestServices/rest/POLocator/findLocations", "@spider": "usps_collection_boxes", "addr:city": "SAINT JOSEPH", "addr:country": "US", "addr:postcode": "64501", "addr:state": "MO", "addr:street_address": "300 N 5TH ST", "amenity": "post_box", "collection_times": "Mo-Sa 16:30", "note": "ON 12/24 AND 12/31, THIS BOX MAY BE COLLECTED AS EARLY AS 12 NOON.", "nsi_id": "unitedstatespostalservice-a77078", "operator": "United States Postal Service", "operator:short": "USPS", "operator:type": "public", "operator:wikidata": "Q668687", "ref": "6450100016"}, "type": "Feature"}
{"geometry": {"coordinates": [-94.847318343, 39.768660262], "type": "Point"}, "id": "hjt7hktRzWxbNxjm-vqNHAI_qv4=", "properties": {"@source_uri": "https://tools.usps.com/UspsToolsRestServices/rest/POLocator/findLocations", "@spider": "usps_collection_boxes", "addr:city": "SAINT JOSEPH", "addr:country": "US", "addr:postcode": "64501", "addr:state": "MO", "addr:street_address": "1100 FREDERICK AVE", "amenity": "post_box", "collection_times": "Mo-Sa 10:45", "nsi_id": "unitedstatespostalservice-a77078", "operator": "United States Postal Service", "operator:short": "USPS", "operator:type": "public", "operator:wikidata": "Q668687", "ref": "6450100038"}, "type": "Feature"}
{"geometry": {"coordinates": [-94.850675759, 39.765383445], "type": "Point"}, "id": "BvK5uJO3nnkhIiTdD18_Jwhkb-E=", "properties": {"@source_uri": "https://tools.usps.com/UspsToolsRestServices/rest/POLocator/findLocations", "@spider": "usps_collection_boxes", "addr:city": "SAINT JOSEPH", "addr:country": "US", "addr:postcode": "64501", "addr:state": "MO", "addr:street_address": "201 S 8TH ST", "amenity": "post_box", "collection_times": "Mo-Sa 16:45", "note": "ON 12/24 AND 12/31, THIS BOX MAY BE COLLECTED AS EARLY AS 12 NOON.", "nsi_id": "unitedstatespostalservice-a77078", "operator": "United States Postal Service", "operator:short": "USPS", "operator:type": "public", "operator:wikidata": "Q668687", "ref": "6450100058"}, "type": "Feature"}
{"geometry": {"coordinates": [-94.850675759, 39.765383445], "type": "Point"}, "id": "w8_GlF6Uvzczl6Cz4Xu7sbKMkaw=", "properties": {"@source_uri": "https://tools.usps.com/UspsToolsRestServices/rest/POLocator/findLocations", "@spider": "usps_collection_boxes", "addr:city": "SAINT JOSEPH", "addr:country": "US", "addr:postcode": "64501", "addr:state": "MO", "addr:street_address": "201 S 8TH ST", "amenity": "post_box", "collection_times": "Mo-Fr 17:00; Sa 12:00", "indoor": "yes", "note": "ON 12/24 AND 12/31, THIS BOX MAY BE COLLECTED AS EARLY AS 12 NOON.", "nsi_id": "unitedstatespostalservice-a77078", "operator": "United States Postal Service", "operator:short": "USPS", "operator:type": "public", "operator:wikidata": "Q668687", "ref": "6450100060"}, "type": "Feature"}
{"geometry": {"coordinates": [-94.850675759, 39.765383445], "type": "Point"}, "id": "NuqzO1zTwlNIJH7l-qpweQXsU-k=", "properties": {"@source_uri": "https://tools.usps.com/UspsToolsRestServices/rest/POLocator/findLocations", "@spider": "usps_collection_boxes", "addr:city": "SAINT JOSEPH", "addr:country": "US", "addr:postcode": "64501", "addr:state": "MO", "addr:street_address": "201 S 8TH ST", "amenity": "post_box", "collection_times": "Mo-Fr 17:00; Sa 12:00", "indoor": "yes", "note": "ON 12/24 AND 12/31, THIS BOX MAY BE COLLECTED AS EARLY AS 12 NOON.", "nsi_id": "unitedstatespostalservice-a77078", "operator": "United States Postal Service", "operator:short": "USPS", "operator:type": "public", "operator:wikidata": "Q668687", "ref": "6450100062"}, "type": "Feature"}
{"geometry": {"coordinates": [-94.850675759, 39.765383445], "type": "Point"}, "id": "9aBQk6MhOhdi_uORgzXPUnrg7PI=", "properties": {"@source_uri": "https://tools.usps.com/UspsToolsRestServices/rest/POLocator/findLocations", "@spider": "usps_collection_boxes", "addr:city": "SAINT JOSEPH", "addr:country": "US", "addr:postcode": "64501", "addr:state": "MO", "addr:street_address": "201 S 8TH ST", "amenity": "post_box", "collection_times": "Mo-Fr 17:00; Sa 12:00", "indoor": "yes", "note": "ON 12/24 AND 12/31, THIS BOX MAY BE COLLECTED AS EARLY AS 12 NOON.", "nsi_id": "unitedstatespostalservice-a77078", "operator": "United States Postal Service", "operator:short": "USPS", "operator:type": "public", "operator:wikidata": "Q668687", "ref": "6450100066"}, "type": "Feature"}
{"geometry": {"coordinates": [-94.850675759, 39.765383445], "type": "Point"}, "id": "MmOu-e6OUR1gWeflpeny_TQbrNc=", "properties": {"@source_uri": "https://tools.usps.com/UspsToolsRestServices/rest/POLocator/findLocations", "@spider": "usps_collection_boxes", "addr:city": "SAINT JOSEPH", "addr:country": "US", "addr:postcode": "64501", "addr:state": "MO", "addr:street_address": "201 S 8TH ST", "amenity": "post_box", "collection_times": "Mo-Fr 17:00; Sa 12:00", "indoor": "yes", "note": "ON 12/24 AND 12/31, THIS BOX MAY BE COLLECTED AS EARLY AS 12 NOON.", "nsi_id": "unitedstatespostalservice-a77078", "operator": "United States Postal Service", "operator:short": "USPS", "operator:type": "public", "operator:wikidata": "Q668687", "ref": "6450100068"}, "type": "Feature"}
{"geometry": {"coordinates": [-94.786975119, 39.726950619], "type": "Point"}, "id": "tcBuEx70DIWsDhXUPxSpRgMLFr0=", "properties": {"@source_uri": "https://tools.usps.com/UspsToolsRestServices/rest/POLocator/findLocations", "@spider": "usps_collection_boxes", "addr:city": "SAINT JOSEPH", "addr:country": "US", "addr:postcode": "64503", "addr:state": "MO", "addr:street_address": "4001 S LEONARD RD", "amenity": "post_box", "collection_times": "Mo-Sa 16:00", "note": "ON 12/24 AND 12/31, THIS BOX MAY BE COLLECTED AS EARLY AS 12 NOON.", "nsi_id": "unitedstatespostalservice-a77078", "operator": "United States Postal Service", "operator:short": "USPS", "operator:type": "public", "operator:wikidata": "Q668687", "ref": "6450300017"}, "type": "Feature"}
{"geometry": {"coordinates": [-94.801178757, 39.737311504], "type": "Point"}, "id": "k8c2sxVeMdhKZGp7OUE5PIasWFk=", "properties": {"@source_uri": "https://tools.usps.com/UspsToolsRestServices/rest/POLocator/findLocations", "@spider": "usps_collection_boxes", "addr:city": "SAINT JOSEPH", "addr:country": "US", "addr:postcode": "64503", "addr:state": "MO", "addr:street_address": "3022 S BELT HWY", "amenity": "post_box", "collection_times": "Mo-Sa 09:45", "nsi_id": "unitedstatespostalservice-a77078", "operator": "United States Postal Service", "operator:short": "USPS", "operator:type": "public", "operator:wikidata": "Q668687", "ref": "6450300029"}, "type": "Feature"}
{"geometry": {"coordinates": [-94.868436034, 39.716580036], "type": "Point"}, "id": "V_3i_kyPEf1Qa5TtnXQ1-7YwcFs=", "properties": {"@source_uri": "https://tools.usps.com/UspsToolsRestServices/rest/POLocator/findLocations", "@spider": "usps_collection_boxes", "addr:city": "SAINT JOSEPH", "addr:country": "US", "addr:postcode": "64504", "addr:state": "MO", "addr:street_address": "5706 LAKE AVE", "amenity": "post_box", "collection_times": "Mo-Fr 16:00; Sa 12:00", "note": "ON 12/24 AND 12/31, THIS BOX MAY BE COLLECTED AS EARLY AS 12 NOON.", "nsi_id": "unitedstatespostalservice-a77078", "operator": "United States Postal Service", "operator:short": "USPS", "operator:type": "public", "operator:wikidata": "Q668687", "ref": "6450400002"}, "type": "Feature"}
{"geometry": {"coordinates": [-94.864245795, 39.701247955], "type": "Point"}, "id": "QYdWf-7hQwgkghJl0PZjt3YdGIg=", "properties": {"@source_uri": "https://tools.usps.com/UspsToolsRestServices/rest/POLocator/findLocations", "@spider": "usps_collection_boxes", "addr:city": "SAINT JOSEPH", "addr:country": "US", "addr:postcode": "64504", "addr:state": "MO", "addr:street_address": "7014 KING HILL AVE", "amenity": "post_box", "collection_times": "Mo-Sa 11:00", "nsi_id": "unitedstatespostalservice-a77078", "operator": "United States Postal Service", "operator:short": "USPS", "operator:type": "public", "operator:wikidata": "Q668687", "ref": "6450400014"}, "type": "Feature"}
{"geometry": {"coordinates": [-94.8684360336, 39.7165800358], "type": "Point"}, "id": "npTw-VLlx_3yN9SJMuotSqHxb7I=", "properties": {"@source_uri": "https://tools.usps.com/UspsToolsRestServices/rest/POLocator/findLocations", "@spider": "usps_collection_boxes", "addr:city": "SAINT JOSEPH", "addr:country": "US", "addr:postcode": "64504", "addr:state": "MO", "addr:street_address": "5706 LAKE AVE", "amenity": "post_box", "collection_times": "Mo-Fr 16:00; Sa 12:00", "indoor": "yes", "note": "ON 12/24 AND 12/31, THIS BOX MAY BE COLLECTED AS EARLY AS 12 NOON.", "nsi_id": "unitedstatespostalservice-a77078", "operator": "United States Postal Service", "operator:short": "USPS", "operator:type": "public", "operator:wikidata": "Q668687", "ref": "6450400021"}, "type": "Feature"}
{"geometry": {"coordinates": [-94.8684360336, 39.7165800358], "type": "Point"}, "id": "mFY4bzcHudk1o-QWt2HEFdMuLl0=", "properties": {"@source_uri": "https://tools.usps.com/UspsToolsRestServices/rest/POLocator/findLocations", "@spider": "usps_collection_boxes", "addr:city": "SAINT JOSEPH", "addr:country": "US", "addr:postcode": "64504", "addr:state": "MO", "addr:street_address": "5706 LAKE AVE", "amenity": "post_box", "collection_times": "Mo-Fr 16:00; Sa 12:00", "indoor": "yes", "note": "ON 12/24 AND 12/31, THIS BOX MAY BE COLLECTED AS EARLY AS 12 NOON.", "nsi_id": "unitedstatespostalservice-a77078", "operator": "United States Postal Service", "operator:short": "USPS", "operator:type": "public", "operator:wikidata": "Q668687", "ref": "6450400022"}, "type": "Feature"}
{"geometry": {"coordinates": [-94.868436034, 39.716580036], "type": "Point"}, "id": "qmAlV-71aII1B2D-vRdo6zPeZGI=", "properties": {"@source_uri": "https://tools.usps.com/UspsToolsRestServices/rest/POLocator/findLocations", "@spider": "usps_collection_boxes", "addr:city": "SAINT JOSEPH", "addr:country": "US", "addr:postcode": "64504", "addr:state": "MO", "addr:street_address": "5706 LAKE AVE", "amenity": "post_box", "collection_times": "Mo-Fr 16:00; Sa 12:00", "indoor": "yes", "note": "ON 12/24 AND 12/31, THIS BOX MAY BE COLLECTED AS EARLY AS 12 NOON.", "nsi_id": "unitedstatespostalservice-a77078", "operator": "United States Postal Service", "operator:short": "USPS", "operator:type": "public", "operator:wikidata": "Q668687", "ref": "6450400023"}, "type": "Feature"}
{"geometry": {"coordinates": [-94.854798312, 39.77812178], "type": "Point"}, "id": "MKFdC3Ox4eZqP203MpyokznpJ2Q=", "properties": {"@source_uri": "https://tools.usps.com/UspsToolsRestServices/rest/POLocator/findLocations", "@spider": "usps_collection_boxes", "addr:city": "SAINT JOSEPH", "addr:country": "US", "addr:postcode": "64505", "addr:state": "MO", "addr:street_address": "1525 SAINT JOSEPH AVE", "amenity": "post_box", "collection_times": "Mo-Sa 11:00", "nsi_id": "unitedstatespostalservice-a77078", "operator": "United States Postal Service", "operator:short": "USPS", "operator:type": "public", "operator:wikidata": "Q668687", "ref": "6450500004"}, "type": "Feature"}
{"geometry": {"coordinates": [-94.798750416, 39.782814477], "type": "Point"}, "id": "Nlq_1p-QRnAxHSuj0E1W2Y12ZMA=", "properties": {"@source_uri": "https://tools.usps.com/UspsToolsRestServices/rest/POLocator/findLocations", "@spider": "usps_collection_boxes", "addr:city": "SAINT JOSEPH", "addr:country": "US", "addr:postcode": "64506", "addr:state": "MO", "addr:street_address": "3906 OAKLAND AVE", "amenity": "post_box", "collection_times": "Mo-Fr 17:15; Sa 12:00", "note": "ON 12/24 AND 12/31, THIS BOX MAY BE COLLECTED AS EARLY AS 12 NOON.", "nsi_id": "unitedstatespostalservice-a77078", "operator": "United States Postal Service", "operator:short": "USPS", "operator:type": "public", "operator:wikidata": "Q668687", "ref": "6450600001"}, "type": "Feature"}
{"geometry": {"coordinates": [-94.82776, 39.77914], "type": "Point"}, "id": "ySq36a3gdOsZYQZZ5nSrgmKJ1Ng=", "properties": {"@source_uri": "https://tools.usps.com/UspsToolsRestServices/rest/POLocator/findLocations", "@spider": "usps_collection_boxes", "addr:city": "SAINT JOSEPH", "addr:country": "US", "addr:postcode": "64506", "addr:state": "MO", "addr:street_address": "201 N BELT HWY", "amenity": "post_box", "collection_times": "Mo-Sa 11:00", "nsi_id": "unitedstatespostalservice-a77078", "operator": "United States Postal Service", "operator:short": "USPS", "operator:type": "public", "operator:wikidata": "Q668687", "ref": "6450600008"}, "type": "Feature"}
{"geometry": {"coordinates": [-94.819662433, 39.776923803], "type": "Point"}, "id": "FsbXuWzpStAhY9uR-6He76pdUjY=", "properties": {"@source_uri": "https://tools.usps.com/UspsToolsRestServices/rest/POLocator/findLocations", "@spider": "usps_collection_boxes", "addr:city": "SAINT JOSEPH", "addr:country": "US", "addr:postcode": "64506", "addr:state": "MO", "addr:street_address": "1000 E ST MAARTENS DR", "amenity": "post_box", "collection_times": "Mo-Sa 11:00", "nsi_id": "unitedstatespostalservice-a77078", "operator": "United States Postal Service", "operator:short": "USPS", "operator:type": "public", "operator:wikidata": "Q668687", "ref": "6450600012"}, "type": "Feature"}
{"geometry": {"coordinates": [-94.816400916, 39.800726275], "type": "Point"}, "id": "iqxa8Qs-WWxE6gibtsnG2VxKTUw=", "properties": {"@source_uri": "https://tools.usps.com/UspsToolsRestServices/rest/POLocator/findLocations", "@spider": "usps_collection_boxes", "addr:city": "SAINT JOSEPH", "addr:country": "US", "addr:postcode": "64506", "addr:state": "MO", "addr:street_address": "3400 ASHLAND AVE", "amenity": "post_box", "collection_times": "Mo-Sa 16:30", "note": "ON 12/24 AND 12/31, THIS BOX MAY BE COLLECTED AS EARLY AS 12 NOON.", "nsi_id": "unitedstatespostalservice-a77078", "operator": "United States Postal Service", "operator:short": "USPS", "operator:type": "public", "operator:wikidata": "Q668687", "ref": "6450600019"}, "type": "Feature"}
{"geometry": {"coordinates": [-94.80394456, 39.785639182], "type": "Point"}, "id": "aT03odSpajyRbSbI-T01FvEBRV8=", "properties": {"@source_uri": "https://tools.usps.com/UspsToolsRestServices/rest/POLocator/findLocations", "@spider": "usps_collection_boxes", "addr:city": "SAINT JOSEPH", "addr:country": "US", "addr:postcode": "64506", "addr:state": "MO", "addr:street_address": "2219 N BELT HWY", "amenity": "post_box", "collection_times": "Mo-Sa 11:00", "nsi_id": "unitedstatespostalservice-a77078", "operator": "United States Postal Service", "operator:short": "USPS", "operator:type": "public", "operator:wikidata": "Q668687", "ref": "6450600020"}, "type": "Feature"}
{"geometry": {"coordinates": [-94.812032463, 39.794470419], "type": "Point"}, "id": "e4hbRr5Cqm4ceYUolnotSHsbFBU=", "properties": {"@source_uri": "https://tools.usps.com/UspsToolsRestServices/rest/POLocator/findLocations", "@spider": "usps_collection_boxes", "addr:city": "SAINT JOSEPH", "addr:country": "US", "addr:postcode": "64506", "addr:state": "MO", "addr:street_address": "2901 N BELT HWY", "amenity": "post_box", "collection_times": "Mo-Sa 11:00", "nsi_id": "unitedstatespostalservice-a77078", "operator": "United States Postal Service", "operator:short": "USPS", "operator:type": "public", "operator:wikidata": "Q668687", "ref": "6450600031"}, "type": "Feature"}
{"geometry": {"coordinates": [-94.814263294, 39.798715347], "type": "Point"}, "id": "SdnE84CrQZqAjn24_SzKnkOOcRo=", "properties": {"@source_uri": "https://tools.usps.com/UspsToolsRestServices/rest/POLocator/findLocations", "@spider": "usps_collection_boxes", "addr:city": "SAINT JOSEPH", "addr:country": "US", "addr:postcode": "64506", "addr:state": "MO", "addr:street_address": "3225 N BELT HWY", "amenity": "post_box", "collection_times": "Mo-Sa 14:30", "note": "ON 12/24 AND 12/31, THIS BOX MAY BE COLLECTED AS EARLY AS 12 NOON.", "nsi_id": "unitedstatespostalservice-a77078", "operator": "United States Postal Service", "operator:short": "USPS", "operator:type": "public", "operator:wikidata": "Q668687", "ref": "6450600035"}, "type": "Feature"}
{"geometry": {"coordinates": [-94.814995707, 39.808059012], "type": "Point"}, "id": "aOwL7NEr8SRkEBrdePDav5ag8lM=", "properties": {"@source_uri": "https://tools.usps.com/UspsToolsRestServices/rest/POLocator/findLocations", "@spider": "usps_collection_boxes", "addr:city": "SAINT JOSEPH", "addr:country": "US", "addr:postcode": "64506", "addr:state": "MO", "addr:street_address": "4201 N BELT HWY", "amenity": "post_box", "collection_times": "Mo-Sa 16:30", "note": "ON 12/24 AND 12/31, THIS BOX MAY BE COLLECTED AS EARLY AS 12 NOON.", "nsi_id": "unitedstatespostalservice-a77078", "operator": "United States Postal Service", "operator:short": "USPS", "operator:type": "public", "operator:wikidata": "Q668687", "ref": "6450600039"}, "type": "Feature"}
{"geometry": {"coordinates": [-94.831478928, 39.776420862], "type": "Point"}, "id": "r3QKd-woSE3hjsN14WleRNTghbg=", "properties": {"@source_uri": "https://tools.usps.com/UspsToolsRestServices/rest/POLocator/findLocations", "@spider": "usps_collection_boxes", "addr:city": "SAINT JOSEPH", "addr:country": "US", "addr:postcode": "64506", "addr:state": "MO", "addr:street_address": "2400 FREDERICK AVE", "amenity": "post_box", "collection_times": "Mo-Sa 10:00", "nsi_id": "unitedstatespostalservice-a77078", "operator": "United States Postal Service", "operator:short": "USPS", "operator:type": "public", "operator:wikidata": "Q668687", "ref": "6450600048"}, "type": "Feature"}
{"geometry": {"coordinates": [-94.798750416, 39.782814477], "type": "Point"}, "id": "NwxVw_TXaKvYS2bc4l-Mcfec_A4=", "properties": {"@source_uri": "https://tools.usps.com/UspsToolsRestServices/rest/POLocator/findLocations", "@spider": "usps_collection_boxes", "addr:city": "SAINT JOSEPH", "addr:country": "US", "addr:postcode": "64506", "addr:state": "MO", "addr:street_address": "3906 OAKLAND AVE", "amenity": "post_box", "collection_times": "Mo-Fr 17:15; Sa 12:00", "indoor": "yes", "note": "ON 12/24 AND 12/31, THIS BOX MAY BE COLLECTED AS EARLY AS 12 NOON.", "nsi_id": "unitedstatespostalservice-a77078", "operator": "United States Postal Service", "operator:short": "USPS", "operator:type": "public", "operator:wikidata": "Q668687", "ref": "6450600054"}, "type": "Feature"}
{"geometry": {"coordinates": [-94.82776, 39.77914], "type": "Point"}, "id": "biO6P2bdrCcEsbUUObR5PAozPPQ=", "properties": {"@source_uri": "https://tools.usps.com/UspsToolsRestServices/rest/POLocator/findLocations", "@spider": "usps_collection_boxes", "addr:city": "SAINT JOSEPH", "addr:country": "US", "addr:postcode": "64506", "addr:state": "MO", "addr:street_address": "2514 FREDERICK AVE", "amenity": "post_box", "collection_times": "Mo-Fr 10:00", "nsi_id": "unitedstatespostalservice-a77078", "operator": "United States Postal Service", "operator:short": "USPS", "operator:type": "public", "operator:wikidata": "Q668687", "ref": "6450600059"}, "type": "Feature"}
{"geometry": {"coordinates": [-94.798750416, 39.782814477], "type": "Point"}, "id": "7AIClZxXRK5_HdCOV5QiV7s_-uU=", "properties": {"@source_uri": "https://tools.usps.com/UspsToolsRestServices/rest/POLocator/findLocations", "@spider": "usps_collection_boxes", "addr:city": "SAINT JOSEPH", "addr:country": "US", "addr:postcode": "64506", "addr:state": "MO", "addr:street_address": "3906 OAKLAND AVE", "amenity": "post_box", "collection_times": "Mo-Fr 17:15; Sa 12:00", "name": "USPS COLLECTION BOX - APC", "note": "ON 12/24 AND 12/31, THIS BOX MAY BE COLLECTED AS EARLY AS 12 NOON.", "nsi_id": "unitedstatespostalservice-a77078", "operator": "United States Postal Service", "operator:short": "USPS", "operator:type": "public", "operator:wikidata": "Q668687", "ref": "6450600060"}, "type": "Feature"}
{"geometry": {"coordinates": [-94.798750416, 39.782814477], "type": "Point"}, "id": "Hsb5D9stbh1p_u5tfN75MB4NYvw=", "properties": {"@source_uri": "https://tools.usps.com/UspsToolsRestServices/rest/POLocator/findLocations", "@spider": "usps_collection_boxes", "addr:city": "SAINT JOSEPH", "addr:country": "US", "addr:postcode": "64506", "addr:state": "MO", "addr:street_address": "3906 OAKLAND AVE", "amenity": "post_box", "collection_times": "Mo-Fr 17:00; Sa 12:00", "indoor": "yes", "note": "ON 12/24 AND 12/31, THIS BOX MAY BE COLLECTED AS EARLY AS 12 NOON.", "nsi_id": "unitedstatespostalservice-a77078", "operator": "United States Postal Service", "operator:short": "USPS", "operator:type": "public", "operator:wikidata": "Q668687", "ref": "6450600069"}, "type": "Feature"}
{"geometry": {"coordinates": [-94.82776, 39.77914], "type": "Point"}, "id": "9QqlOpYg-amvOO2nnCrLZREswRY=", "properties": {"@source_uri": "https://tools.usps.com/UspsToolsRestServices/rest/POLocator/findLocations", "@spider": "usps_collection_boxes", "addr:city": "SAINT JOSEPH", "addr:country": "US", "addr:postcode": "64506", "addr:state": "MO", "addr:street_address": "2514 FREDERICK AVE", "amenity": "post_box", "collection_times": "Mo-Fr 11:00", "indoor": "yes", "nsi_id": "unitedstatespostalservice-a77078", "operator": "United States Postal Service", "operator:short": "USPS", "operator:type": "public", "operator:wikidata": "Q668687", "ref": "6450600070"}, "type": "Feature"}
{"geometry": {"coordinates": [-94.801268158, 39.755157658], "type": "Point"}, "id": "2NCQn4D0RZXKfd6oRxaJzdCTFRY=", "properties": {"@source_uri": "https://tools.usps.com/UspsToolsRestServices/rest/POLocator/findLocations", "@spider": "usps_collection_boxes", "addr:city": "SAINT JOSEPH", "addr:country": "US", "addr:postcode": "64507", "addr:state": "MO", "addr:street_address": "3800 MITCHELL AVE", "amenity": "post_box", "collection_times": "Mo-Sa 16:30", "note": "ON 12/24 AND 12/31, THIS BOX MAY BE COLLECTED AS EARLY AS 12 NOON.", "nsi_id": "unitedstatespostalservice-a77078", "operator": "United States Postal Service", "operator:short": "USPS", "operator:type": "public", "operator:wikidata": "Q668687", "ref": "6450700006"}, "type": "Feature"}
{"geometry": {"coordinates": [-94.832611259, 39.755192549], "type": "Point"}, "id": "7MPv_x3s3fxHUHCKaprzXhE7eSQ=", "properties": {"@source_uri": "https://tools.usps.com/UspsToolsRestServices/rest/POLocator/findLocations", "@spider": "usps_collection_boxes", "addr:city": "SAINT JOSEPH", "addr:country": "US", "addr:postcode": "64507", "addr:state": "MO", "addr:street_address": "2300 MITCHELL AVE", "amenity": "post_box", "collection_times": "Mo-Sa 14:00", "note": "ON 12/24 AND 12/31, THIS BOX MAY BE COLLECTED AS EARLY AS 12 NOON.", "nsi_id": "unitedstatespostalservice-a77078", "operator": "United States Postal Service", "operator:short": "USPS", "operator:type": "public", "operator:wikidata": "Q668687", "ref": "6450700015"}, "type": "Feature"}
{"geometry": {"coordinates": [-94.787753879, 39.756450939], "type": "Point"}, "id": "0cBkNfBAJ9WzfPHIgd6dKabfDEM=", "properties": {"@source_uri": "https://tools.usps.com/UspsToolsRestServices/rest/POLocator/findLocations", "@spider": "usps_collection_boxes", "addr:city": "SAINT JOSEPH", "addr:country": "US", "addr:postcode": "64507", "addr:state": "MO", "addr:street_address": "4525 DOWNS DR", "amenity": "post_box", "collection_times": "Mo-Sa 09:45", "nsi_id": "unitedstatespostalservice-a77078", "operator": "United States Postal Service", "operator:short": "USPS", "operator:type": "public", "operator:wikidata": "Q668687", "ref": "6450700025"}, "type": "Feature"}
{"geometry": {"coordinates": [-94.764768275, 39.753696464], "type": "Point"}, "id": "scJN4guB4JMyyGliE1nuXmm6Asw=", "properties": {"@source_uri": "https://tools.usps.com/UspsToolsRestServices/rest/POLocator/findLocations", "@spider": "usps_collection_boxes", "addr:city": "SAINT JOSEPH", "addr:country": "US", "addr:postcode": "64507", "addr:state": "MO", "addr:street_address": "5501 CORPORATE DR", "amenity": "post_box", "collection_times": "Mo-Sa 16:30", "note": "ON 12/24 AND 12/31, THIS BOX MAY BE COLLECTED AS EARLY AS 12 NOON.", "nsi_id": "unitedstatespostalservice-a77078", "operator": "United States Postal Service", "operator:short": "USPS", "operator:type": "public", "operator:wikidata": "Q668687", "ref": "6450700028"}, "type": "Feature"}
