{"geometry": {"coordinates": [-93.554939277, 39.797261162], "type": "Point"}, "id": "30Rv4buqQfgN4cJlMMDMIzfVw4I=", "properties": {"@source_uri": "https://tools.usps.com/UspsToolsRestServices/rest/POLocator/findLocations", "@spider": "usps_collection_boxes", "addr:city": "CHILLICOTHE", "addr:country": "US", "addr:full": "1016 CHERRY ST", "addr:postcode": "64601", "addr:state": "MO", "amenity": "post_box", "brand": "United States Postal Service", "brand:wikidata": "Q668687", "collection_times": "Mo-Sa 14:30", "note": "ON 12/24 AND 12/31, THIS BOX MAY BE COLLECTED AS EARLY AS 12 NOON.", "nsi_id": "unitedstatespostalservice-a77078", "operator": "United States Postal Service", "operator:short": "USPS", "operator:type": "public", "operator:wikidata": "Q668687", "ref": "6460100004"}, "type": "Feature"}
{"geometry": {"coordinates": [-93.550348097, 39.82294997], "type": "Point"}, "id": "8YxjCqoYkB5_wfP9uic1dEIeWFo=", "properties": {"@source_uri": "https://tools.usps.com/UspsToolsRestServices/rest/POLocator/findLocations", "@spider": "usps_collection_boxes", "addr:city": "CHILLICOTHE", "addr:country": "US", "addr:full": "2799 N WASHINGTON ST", "addr:postcode": "64601", "addr:state": "MO", "amenity": "post_box", "brand": "United States Postal Service", "brand:wikidata": "Q668687", "collection_times": "Mo-Sa 14:30", "note": "ON 12/24 AND 12/31, THIS BOX MAY BE COLLECTED AS EARLY AS 12 NOON.", "nsi_id": "unitedstatespostalservice-a77078", "operator": "United States Postal Service", "operator:short": "USPS", "operator:type": "public", "operator:wikidata": "Q668687", "ref": "6460100005"}, "type": "Feature"}
{"geometry": {"coordinates": [-93.552923548, 39.781959187], "type": "Point"}, "id": "ATy7WjKCakFeDrv6f350Dlbiz0Q=", "properties": {"@source_uri": "https://tools.usps.com/UspsToolsRestServices/rest/POLocator/findLocations", "@spider": "usps_collection_boxes", "addr:city": "CHILLICOTHE", "addr:country": "US", "addr:full": "426 WASHINGTON ST", "addr:postcode": "64601", "addr:state": "MO", "amenity": "post_box", "brand": "United States Postal Service", "brand:wikidata": "Q668687", "collection_times": "Mo-Sa 14:30", "note": "ON 12/24 AND 12/31, THIS BOX MAY BE COLLECTED AS EARLY AS 12 NOON.", "nsi_id": "unitedstatespostalservice-a77078", "operator": "United States Postal Service", "operator:short": "USPS", "operator:type": "public", "operator:wikidata": "Q668687", "ref": "6460100009"}, "type": "Feature"}
{"geometry": {"coordinates": [-93.5527941741, 39.7822037097], "type": "Point"}, "id": "HyQJdOS30FzjXRXRd82hBSASRvM=", "properties": {"@source_uri": "https://tools.usps.com/UspsToolsRestServices/rest/POLocator/findLocations", "@spider": "usps_collection_boxes", "addr:city": "CHILLICOTHE", "addr:country": "US", "addr:full": "401 S WASHINGTON ST", "addr:postcode": "64601", "addr:state": "MO", "amenity": "post_box", "brand": "United States Postal Service", "brand:wikidata": "Q668687", "collection_times": "Mo-Fr 16:45; Sa 11:45", "note": "ON 12/24 AND 12/31, THIS BOX MAY BE COLLECTED AS EARLY AS 12 NOON.", "nsi_id": "unitedstatespostalservice-a77078", "operator": "United States Postal Service", "operator:short": "USPS", "operator:type": "public", "operator:wikidata": "Q668687", "ref": "6460100015"}, "type": "Feature"}
{"geometry": {"coordinates": [-93.5527941741, 39.7822037097], "type": "Point"}, "id": "jcGsZG9hEKUrCCDFiudIRgVS444=", "properties": {"@source_uri": "https://tools.usps.com/UspsToolsRestServices/rest/POLocator/findLocations", "@spider": "usps_collection_boxes", "addr:city": "CHILLICOTHE", "addr:country": "US", "addr:full": "401 S WASHINGTON ST", "addr:postcode": "64601", "addr:state": "MO", "amenity": "post_box", "brand": "United States Postal Service", "brand:wikidata": "Q668687", "collection_times": "Mo-Fr 16:45; Sa 11:45", "indoor": "yes", "note": "ON 12/24 AND 12/31, THIS BOX MAY BE COLLECTED AS EARLY AS 12 NOON.", "nsi_id": "unitedstatespostalservice-a77078", "operator": "United States Postal Service", "operator:short": "USPS", "operator:type": "public", "operator:wikidata": "Q668687", "ref": "6460100020"}, "type": "Feature"}
{"geometry": {"coordinates": [-93.5527941741, 39.7822037097], "type": "Point"}, "id": "lMzu1fd2I81k5pezInOcvjpHC_k=", "properties": {"@source_uri": "https://tools.usps.com/UspsToolsRestServices/rest/POLocator/findLocations", "@spider": "usps_collection_boxes", "addr:city": "CHILLICOTHE", "addr:country": "US", "addr:full": "401 S WASHINGTON ST", "addr:postcode": "64601", "addr:state": "MO", "amenity": "post_box", "brand": "United States Postal Service", "brand:wikidata": "Q668687", "collection_times": "Mo-Fr 16:45; Sa 11:45", "indoor": "yes", "note": "ON 12/24 AND 12/31, THIS BOX MAY BE COLLECTED AS EARLY AS 12 NOON.", "nsi_id": "unitedstatespostalservice-a77078", "operator": "United States Postal Service", "operator:short": "USPS", "operator:type": "public", "operator:wikidata": "Q668687", "ref": "6460100021"}, "type": "Feature"}
{"geometry": {"coordinates": [-93.552629518, 39.794209245], "type": "Point"}, "id": "mHN1NlkuofDbM9la9o-FGZns0U0=", "properties": {"@source_uri": "https://tools.usps.com/UspsToolsRestServices/rest/POLocator/findLocations", "@spider": "usps_collection_boxes", "addr:city": "CHILLICOTHE", "addr:country": "US", "addr:full": "700 WEBSTER ST", "addr:postcode": "64601", "addr:state": "MO", "amenity": "post_box", "brand": "United States Postal Service", "brand:wikidata": "Q668687", "collection_times": "Mo-Sa 14:30", "note": "ON 12/24 AND 12/31, THIS BOX MAY BE COLLECTED AS EARLY AS 12 NOON.", "nsi_id": "unitedstatespostalservice-a77078", "operator": "United States Postal Service", "operator:short": "USPS", "operator:type": "public", "operator:wikidata": "Q668687", "ref": "6460100025"}, "type": "Feature"}
{"geometry": {"coordinates": [-93.55281307, 39.78219368], "type": "Point"}, "id": "XqbTJuwSY6n3kFGe7kSiiGPZZW8=", "properties": {"@source_uri": "https://tools.usps.com/UspsToolsRestServices/rest/POLocator/findLocations", "@spider": "usps_collection_boxes", "addr:city": "CHILLICOTHE", "addr:country": "US", "addr:full": "401 S WASHINGTON ST", "addr:postcode": "64601", "addr:state": "MO", "amenity": "post_box", "brand": "United States Postal Service", "brand:wikidata": "Q668687", "collection_times": "Mo-Fr 16:45; Sa 11:45", "indoor": "yes", "note": "ON 12/24 AND 12/31, THIS BOX MAY BE COLLECTED AS EARLY AS 12 NOON.", "nsi_id": "unitedstatespostalservice-a77078", "operator": "United States Postal Service", "operator:short": "USPS", "operator:type": "public", "operator:wikidata": "Q668687", "ref": "6460100027"}, "type": "Feature"}
{"geometry": {"coordinates": [-94.091028493, 39.888277746], "type": "Point"}, "id": "z4fX4Z_uAuULDVgXf1cVpKufmRc=", "properties": {"@source_uri": "https://tools.usps.com/UspsToolsRestServices/rest/POLocator/findLocations", "@spider": "usps_collection_boxes", "addr:city": "ALTAMONT", "addr:country": "US", "addr:full": "210 MAIN ST", "addr:postcode": "64620", "addr:state": "MO", "amenity": "post_box", "brand": "United States Postal Service", "brand:wikidata": "Q668687", "collection_times": "Mo-Fr 16:15; Sa 11:45", "note": "ON 12/24 AND 12/31, THIS BOX MAY BE COLLECTED AS EARLY AS 12 NOON.", "nsi_id": "unitedstatespostalservice-a77078", "operator": "United States Postal Service", "operator:short": "USPS", "operator:type": "public", "operator:wikidata": "Q668687", "ref": "6462000000"}, "type": "Feature"}
{"geometry": {"coordinates": [-94.091028493, 39.888277746], "type": "Point"}, "id": "zUFmr_SoBAKYqghO4zCJ_LZQFWQ=", "properties": {"@source_uri": "https://tools.usps.com/UspsToolsRestServices/rest/POLocator/findLocations", "@spider": "usps_collection_boxes", "addr:city": "ALTAMONT", "addr:country": "US", "addr:full": "210 MAIN ST", "addr:postcode": "64620", "addr:state": "MO", "amenity": "post_box", "brand": "United States Postal Service", "brand:wikidata": "Q668687", "collection_times": "Mo-Fr 16:15; Sa 11:45", "indoor": "yes", "note": "ON 12/24 AND 12/31, THIS BOX MAY BE COLLECTED AS EARLY AS 12 NOON.", "nsi_id": "unitedstatespostalservice-a77078", "operator": "United States Postal Service", "operator:short": "USPS", "operator:type": "public", "operator:wikidata": "Q668687", "ref": "6462000002"}, "type": "Feature"}
{"geometry": {"coordinates": [-94.091028493, 39.888277746], "type": "Point"}, "id": "tJWYBDDOZlwI21KA8Gs9AAFqzYA=", "properties": {"@source_uri": "https://tools.usps.com/UspsToolsRestServices/rest/POLocator/findLocations", "@spider": "usps_collection_boxes", "addr:city": "ALTAMONT", "addr:country": "US", "addr:full": "210 MAIN ST", "addr:postcode": "64620", "addr:state": "MO", "amenity": "post_box", "brand": "United States Postal Service", "brand:wikidata": "Q668687", "collection_times": "Mo-Fr 16:15; Sa 11:45", "indoor": "yes", "note": "ON 12/24 AND 12/31, THIS BOX MAY BE COLLECTED AS EARLY AS 12 NOON.", "nsi_id": "unitedstatespostalservice-a77078", "operator": "United States Postal Service", "operator:short": "USPS", "operator:type": "public", "operator:wikidata": "Q668687", "ref": "6462000004"}, "type": "Feature"}
{"geometry": {"coordinates": [-93.524987025, 39.457527975], "type": "Point"}, "id": "oZm08WjlmnUKUvpfiCVp5iMsqBQ=", "properties": {"@source_uri": "https://tools.usps.com/UspsToolsRestServices/rest/POLocator/findLocations", "@spider": "usps_collection_boxes", "addr:city": "BOGARD", "addr:country": "US", "addr:full": "100 W 3RD ST", "addr:postcode": "64622", "addr:state": "MO", "amenity": "post_box", "brand": "United States Postal Service", "brand:wikidata": "Q668687", "collection_times": "Mo-Fr 10:45; Sa 09:45", "nsi_id": "unitedstatespostalservice-a77078", "operator": "United States Postal Service", "operator:short": "USPS", "operator:type": "public", "operator:wikidata": "Q668687", "ref": "6462200000"}, "type": "Feature"}
{"geometry": {"coordinates": [-93.524987025, 39.457527975], "type": "Point"}, "id": "kEP1mtbj-Yk5JratkHXlCcFwgZM=", "properties": {"@source_uri": "https://tools.usps.com/UspsToolsRestServices/rest/POLocator/findLocations", "@spider": "usps_collection_boxes", "addr:city": "BOGARD", "addr:country": "US", "addr:full": "100 W 3RD ST", "addr:postcode": "64622", "addr:state": "MO", "amenity": "post_box", "brand": "United States Postal Service", "brand:wikidata": "Q668687", "collection_times": "Mo-Fr 10:45; Sa 09:45", "indoor": "yes", "nsi_id": "unitedstatespostalservice-a77078", "operator": "United States Postal Service", "operator:short": "USPS", "operator:type": "public", "operator:wikidata": "Q668687", "ref": "6462200001"}, "type": "Feature"}
{"geometry": {"coordinates": [-93.524987025, 39.457527975], "type": "Point"}, "id": "rcK8M0uAL3bVrNiKXK61EbGrblM=", "properties": {"@source_uri": "https://tools.usps.com/UspsToolsRestServices/rest/POLocator/findLocations", "@spider": "usps_collection_boxes", "addr:city": "BOGARD", "addr:country": "US", "addr:full": "100 W 3RD ST", "addr:postcode": "64622", "addr:state": "MO", "amenity": "post_box", "brand": "United States Postal Service", "brand:wikidata": "Q668687", "collection_times": "Mo-Fr 10:45; Sa 09:45", "indoor": "yes", "nsi_id": "unitedstatespostalservice-a77078", "operator": "United States Postal Service", "operator:short": "USPS", "operator:type": "public", "operator:wikidata": "Q668687", "ref": "6462200002"}, "type": "Feature"}
{"geometry": {"coordinates": [-93.524987025, 39.457527975], "type": "Point"}, "id": "d67bzmlv4vpiFDmMqYk8qHIq5sQ=", "properties": {"@source_uri": "https://tools.usps.com/UspsToolsRestServices/rest/POLocator/findLocations", "@spider": "usps_collection_boxes", "addr:city": "BOGARD", "addr:country": "US", "addr:full": "100 W 3RD ST", "addr:postcode": "64622", "addr:state": "MO", "amenity": "post_box", "brand": "United States Postal Service", "brand:wikidata": "Q668687", "collection_times": "Mo-Fr 10:45; Sa 09:45", "indoor": "yes", "nsi_id": "unitedstatespostalservice-a77078", "operator": "United States Postal Service", "operator:short": "USPS", "operator:type": "public", "operator:wikidata": "Q668687", "ref": "6462200004"}, "type": "Feature"}
{"geometry": {"coordinates": [-93.3349577161, 39.4697901311], "type": "Point"}, "id": "Twj_aiQJ1x2DExzuKGe_FXajG90=", "properties": {"@source_uri": "https://tools.usps.com/UspsToolsRestServices/rest/POLocator/findLocations", "@spider": "usps_collection_boxes", "addr:city": "BOSWORTH", "addr:country": "US", "addr:full": "111 N KANSAS AVE", "addr:postcode": "64623", "addr:state": "MO", "amenity": "post_box", "brand": "United States Postal Service", "brand:wikidata": "Q668687", "collection_times": "Mo-Fr 11:15; Sa 09:30", "indoor": "yes", "nsi_id": "unitedstatespostalservice-a77078", "operator": "United States Postal Service", "operator:short": "USPS", "operator:type": "public", "operator:wikidata": "Q668687", "ref": "6462300001"}, "type": "Feature"}
{"geometry": {"coordinates": [-93.334974357, 39.469795281], "type": "Point"}, "id": "9EZqgcUzm1n7V7FdqxXFVEu3j_0=", "properties": {"@source_uri": "https://tools.usps.com/UspsToolsRestServices/rest/POLocator/findLocations", "@spider": "usps_collection_boxes", "addr:city": "BOSWORTH", "addr:country": "US", "addr:full": "111 N KANSAS AVE", "addr:postcode": "64623", "addr:state": "MO", "amenity": "post_box", "brand": "United States Postal Service", "brand:wikidata": "Q668687", "collection_times": "Mo-Fr 11:15; Sa 09:30", "nsi_id": "unitedstatespostalservice-a77078", "operator": "United States Postal Service", "operator:short": "USPS", "operator:type": "public", "operator:wikidata": "Q668687", "ref": "6462300002"}, "type": "Feature"}
{"geometry": {"coordinates": [-93.334957716, 39.469790131], "type": "Point"}, "id": "del2CxX5tmczktoU1DZYXV2neSs=", "properties": {"@source_uri": "https://tools.usps.com/UspsToolsRestServices/rest/POLocator/findLocations", "@spider": "usps_collection_boxes", "addr:city": "BOSWORTH", "addr:country": "US", "addr:full": "111 N KANSAS AVE", "addr:postcode": "64623", "addr:state": "MO", "amenity": "post_box", "brand": "United States Postal Service", "brand:wikidata": "Q668687", "collection_times": "Mo-Fr 11:15; Sa 09:30", "indoor": "yes", "nsi_id": "unitedstatespostalservice-a77078", "operator": "United States Postal Service", "operator:short": "USPS", "operator:type": "public", "operator:wikidata": "Q668687", "ref": "6462300003"}, "type": "Feature"}
{"geometry": {"coordinates": [-93.334974357, 39.469795281], "type": "Point"}, "id": "-S71xyIW1VF9GFbGL04XWlPBU4c=", "properties": {"@source_uri": "https://tools.usps.com/UspsToolsRestServices/rest/POLocator/findLocations", "@spider": "usps_collection_boxes", "addr:city": "BOSWORTH", "addr:country": "US", "addr:full": "111 N KANSAS AVE", "addr:postcode": "64623", "addr:state": "MO", "amenity": "post_box", "brand": "United States Postal Service", "brand:wikidata": "Q668687", "collection_times": "Mo-Fr 11:30; Sa 09:45", "indoor": "yes", "nsi_id": "unitedstatespostalservice-a77078", "operator": "United States Postal Service", "operator:short": "USPS", "operator:type": "public", "operator:wikidata": "Q668687", "ref": "6462300005"}, "type": "Feature"}
{"geometry": {"coordinates": [-93.793731037, 39.587547422], "type": "Point"}, "id": "XAnEU9XlXSpGsVCjlLJTTxBavlc=", "properties": {"@source_uri": "https://tools.usps.com/UspsToolsRestServices/rest/POLocator/findLocations", "@spider": "usps_collection_boxes", "addr:city": "BRAYMER", "addr:country": "US", "addr:full": "115 E 2ND ST", "addr:postcode": "64624", "addr:state": "MO", "amenity": "post_box", "brand": "United States Postal Service", "brand:wikidata": "Q668687", "collection_times": "Mo-Fr 15:45; Sa 10:15", "note": "ON 12/24 AND 12/31, THIS BOX MAY BE COLLECTED AS EARLY AS 12 NOON.", "nsi_id": "unitedstatespostalservice-a77078", "operator": "United States Postal Service", "operator:short": "USPS", "operator:type": "public", "operator:wikidata": "Q668687", "ref": "6462400000"}, "type": "Feature"}
{"geometry": {"coordinates": [-93.793731037, 39.587547422], "type": "Point"}, "id": "A03ZbxGxrEWLsIe6ZxvL-CtaUhs=", "properties": {"@source_uri": "https://tools.usps.com/UspsToolsRestServices/rest/POLocator/findLocations", "@spider": "usps_collection_boxes", "addr:city": "BRAYMER", "addr:country": "US", "addr:full": "115 E 2ND ST", "addr:postcode": "64624", "addr:state": "MO", "amenity": "post_box", "brand": "United States Postal Service", "brand:wikidata": "Q668687", "collection_times": "Mo-Fr 15:45; Sa 10:15", "indoor": "yes", "note": "ON 12/24 AND 12/31, THIS BOX MAY BE COLLECTED AS EARLY AS 12 NOON.", "nsi_id": "unitedstatespostalservice-a77078", "operator": "United States Postal Service", "operator:short": "USPS", "operator:type": "public", "operator:wikidata": "Q668687", "ref": "6462400001"}, "type": "Feature"}
{"geometry": {"coordinates": [-93.793731037, 39.587547422], "type": "Point"}, "id": "HXco75vRUaTeI_ZvMgmZ7pIP6aY=", "properties": {"@source_uri": "https://tools.usps.com/UspsToolsRestServices/rest/POLocator/findLocations", "@spider": "usps_collection_boxes", "addr:city": "BRAYMER", "addr:country": "US", "addr:full": "115 E 2ND ST", "addr:postcode": "64624", "addr:state": "MO", "amenity": "post_box", "brand": "United States Postal Service", "brand:wikidata": "Q668687", "collection_times": "Mo-Fr 15:45; Sa 10:15", "indoor": "yes", "note": "ON 12/24 AND 12/31, THIS BOX MAY BE COLLECTED AS EARLY AS 12 NOON.", "nsi_id": "unitedstatespostalservice-a77078", "operator": "United States Postal Service", "operator:short": "USPS", "operator:type": "public", "operator:wikidata": "Q668687", "ref": "6462400004"}, "type": "Feature"}
{"geometry": {"coordinates": [-93.802633647, 39.761324233], "type": "Point"}, "id": "UUBClWATwlVS2Y04p28CjBvHals=", "properties": {"@source_uri": "https://tools.usps.com/UspsToolsRestServices/rest/POLocator/findLocations", "@spider": "usps_collection_boxes", "addr:city": "BRECKENRIDGE", "addr:country": "US", "addr:full": "165 S 7TH ST", "addr:postcode": "64625", "addr:state": "MO", "amenity": "post_box", "brand": "United States Postal Service", "brand:wikidata": "Q668687", "collection_times": "Mo-Fr 11:45; Sa 09:15", "nsi_id": "unitedstatespostalservice-a77078", "operator": "United States Postal Service", "operator:short": "USPS", "operator:type": "public", "operator:wikidata": "Q668687", "ref": "6462500000"}, "type": "Feature"}
{"geometry": {"coordinates": [-93.802633647, 39.761324233], "type": "Point"}, "id": "sM9HcLdQLSo5tOrPkPfMxlqEkCg=", "properties": {"@source_uri": "https://tools.usps.com/UspsToolsRestServices/rest/POLocator/findLocations", "@spider": "usps_collection_boxes", "addr:city": "BRECKENRIDGE", "addr:country": "US", "addr:full": "165 S 7TH ST", "addr:postcode": "64625", "addr:state": "MO", "amenity": "post_box", "brand": "United States Postal Service", "brand:wikidata": "Q668687", "collection_times": "Mo-Fr 11:45; Sa 09:15", "indoor": "yes", "nsi_id": "unitedstatespostalservice-a77078", "operator": "United States Postal Service", "operator:short": "USPS", "operator:type": "public", "operator:wikidata": "Q668687", "ref": "6462500002"}, "type": "Feature"}
{"geometry": {"coordinates": [-93.802633647, 39.761324233], "type": "Point"}, "id": "FxTtxH_Jhfw-CxgKeKYjzCDeTCQ=", "properties": {"@source_uri": "https://tools.usps.com/UspsToolsRestServices/rest/POLocator/findLocations", "@spider": "usps_collection_boxes", "addr:city": "BRECKENRIDGE", "addr:country": "US", "addr:full": "165 S 7TH ST", "addr:postcode": "64625", "addr:state": "MO", "amenity": "post_box", "brand": "United States Postal Service", "brand:wikidata": "Q668687", "collection_times": "Mo-Fr 12:00; Sa 09:30", "indoor": "yes", "nsi_id": "unitedstatespostalservice-a77078", "operator": "United States Postal Service", "operator:short": "USPS", "operator:type": "public", "operator:wikidata": "Q668687", "ref": "6462500004"}, "type": "Feature"}
{"geometry": {"coordinates": [-93.075746255, 39.785321086], "type": "Point"}, "id": "jot1dqFvBIp6mlCKq4ielAeFEyU=", "properties": {"@source_uri": "https://tools.usps.com/UspsToolsRestServices/rest/POLocator/findLocations", "@spider": "usps_collection_boxes", "addr:city": "BROOKFIELD", "addr:country": "US", "addr:full": "201 W BOSTON ST", "addr:postcode": "64628", "addr:state": "MO", "amenity": "post_box", "brand": "United States Postal Service", "brand:wikidata": "Q668687", "collection_times": "Mo-Fr 16:15; Sa 10:45", "note": "ON 12/24 AND 12/31, THIS BOX MAY BE COLLECTED AS EARLY AS 12 NOON.", "nsi_id": "unitedstatespostalservice-a77078", "operator": "United States Postal Service", "operator:short": "USPS", "operator:type": "public", "operator:wikidata": "Q668687", "ref": "6462800001"}, "type": "Feature"}
{"geometry": {"coordinates": [-93.075746255, 39.785321086], "type": "Point"}, "id": "I1QevkZvpq-XP6pAXFUA40Lc1qM=", "properties": {"@source_uri": "https://tools.usps.com/UspsToolsRestServices/rest/POLocator/findLocations", "@spider": "usps_collection_boxes", "addr:city": "BROOKFIELD", "addr:country": "US", "addr:full": "201 W BOSTON ST", "addr:postcode": "64628", "addr:state": "MO", "amenity": "post_box", "brand": "United States Postal Service", "brand:wikidata": "Q668687", "collection_times": "Mo-Fr 16:15; Sa 10:45", "indoor": "yes", "note": "ON 12/24 AND 12/31, THIS BOX MAY BE COLLECTED AS EARLY AS 12 NOON.", "nsi_id": "unitedstatespostalservice-a77078", "operator": "United States Postal Service", "operator:short": "USPS", "operator:type": "public", "operator:wikidata": "Q668687", "ref": "6462800012"}, "type": "Feature"}
{"geometry": {"coordinates": [-93.072961809, 39.770022543], "type": "Point"}, "id": "skT72zUTY71LarOE1NcDAqIZ9GA=", "properties": {"@source_uri": "https://tools.usps.com/UspsToolsRestServices/rest/POLocator/findLocations", "@spider": "usps_collection_boxes", "addr:city": "BROOKFIELD", "addr:country": "US", "addr:full": "937 PARK CIRCLE DR", "addr:postcode": "64628", "addr:state": "MO", "amenity": "post_box", "brand": "United States Postal Service", "brand:wikidata": "Q668687", "collection_times": "Mo-Sa 09:30", "nsi_id": "unitedstatespostalservice-a77078", "operator": "United States Postal Service", "operator:short": "USPS", "operator:type": "public", "operator:wikidata": "Q668687", "ref": "6462800016"}, "type": "Feature"}
{"geometry": {"coordinates": [-93.075746255, 39.785321086], "type": "Point"}, "id": "QsvR-BvUd4v-c2i7OuB1PpHMQSY=", "properties": {"@source_uri": "https://tools.usps.com/UspsToolsRestServices/rest/POLocator/findLocations", "@spider": "usps_collection_boxes", "addr:city": "BROOKFIELD", "addr:country": "US", "addr:full": "201 W BOSTON ST", "addr:postcode": "64628", "addr:state": "MO", "amenity": "post_box", "brand": "United States Postal Service", "brand:wikidata": "Q668687", "collection_times": "Mo-Fr 16:15; Sa 10:45", "indoor": "yes", "note": "ON 12/24 AND 12/31, THIS BOX MAY BE COLLECTED AS EARLY AS 12 NOON.", "nsi_id": "unitedstatespostalservice-a77078", "operator": "United States Postal Service", "operator:short": "USPS", "operator:type": "public", "operator:wikidata": "Q668687", "ref": "6462800022"}, "type": "Feature"}
{"geometry": {"coordinates": [-93.16577502, 40.035260779], "type": "Point"}, "id": "DsZ8xT0Zfsaz-kkOp0V7x-9HZNo=", "properties": {"@source_uri": "https://tools.usps.com/UspsToolsRestServices/rest/POLocator/findLocations", "@spider": "usps_collection_boxes", "addr:city": "BROWNING", "addr:country": "US", "addr:full": "502 W MAIN ST", "addr:postcode": "64630", "addr:state": "MO", "amenity": "post_box", "brand": "United States Postal Service", "brand:wikidata": "Q668687", "collection_times": "Sa 10:30", "nsi_id": "unitedstatespostalservice-a77078", "operator": "United States Postal Service", "operator:short": "USPS", "operator:type": "public", "operator:wikidata": "Q668687", "ref": "6463000000"}, "type": "Feature"}
{"geometry": {"coordinates": [-93.16577502, 40.035260779], "type": "Point"}, "id": "xEwTkvtUX9t6KRmZLog3BfqTx-U=", "properties": {"@source_uri": "https://tools.usps.com/UspsToolsRestServices/rest/POLocator/findLocations", "@spider": "usps_collection_boxes", "addr:city": "BROWNING", "addr:country": "US", "addr:full": "502 W MAIN ST", "addr:postcode": "64630", "addr:state": "MO", "amenity": "post_box", "brand": "United States Postal Service", "brand:wikidata": "Q668687", "collection_times": "Sa 10:30", "indoor": "yes", "nsi_id": "unitedstatespostalservice-a77078", "operator": "United States Postal Service", "operator:short": "USPS", "operator:type": "public", "operator:wikidata": "Q668687", "ref": "6463000001"}, "type": "Feature"}
{"geometry": {"coordinates": [-93.16577502, 40.035260779], "type": "Point"}, "id": "G8IVyhmNa69i8JTRbVm-QgSwk0c=", "properties": {"@source_uri": "https://tools.usps.com/UspsToolsRestServices/rest/POLocator/findLocations", "@spider": "usps_collection_boxes", "addr:city": "BROWNING", "addr:country": "US", "addr:full": "502 W MAIN ST", "addr:postcode": "64630", "addr:state": "MO", "amenity": "post_box", "brand": "United States Postal Service", "brand:wikidata": "Q668687", "collection_times": "Mo-Fr 11:30; Sa 10:30", "indoor": "yes", "nsi_id": "unitedstatespostalservice-a77078", "operator": "United States Postal Service", "operator:short": "USPS", "operator:type": "public", "operator:wikidata": "Q668687", "ref": "6463000003"}, "type": "Feature"}
{"geometry": {"coordinates": [-92.8885369262, 39.7824254377], "type": "Point"}, "id": "9Lqfxocg5aoF_NixMfIJOtFV_rU=", "properties": {"@source_uri": "https://tools.usps.com/UspsToolsRestServices/rest/POLocator/findLocations", "@spider": "usps_collection_boxes", "addr:city": "BUCKLIN", "addr:country": "US", "addr:full": "31 N LIVINGSTON ST", "addr:postcode": "64631", "addr:state": "MO", "amenity": "post_box", "brand": "United States Postal Service", "brand:wikidata": "Q668687", "collection_times": "Mo-Fr 13:45; Sa 11:45", "indoor": "yes", "note": "ON 12/24 AND 12/31, THIS BOX MAY BE COLLECTED AS EARLY AS 12 NOON.", "nsi_id": "unitedstatespostalservice-a77078", "operator": "United States Postal Service", "operator:short": "USPS", "operator:type": "public", "operator:wikidata": "Q668687", "ref": "6463100000"}, "type": "Feature"}
{"geometry": {"coordinates": [-92.8885369262, 39.7824254377], "type": "Point"}, "id": "0yNHD-pAJ5GCgLl6rA2u2k2RO8Y=", "properties": {"@source_uri": "https://tools.usps.com/UspsToolsRestServices/rest/POLocator/findLocations", "@spider": "usps_collection_boxes", "addr:city": "BUCKLIN", "addr:country": "US", "addr:full": "31 N LIVINGSTON ST", "addr:postcode": "64631", "addr:state": "MO", "amenity": "post_box", "brand": "United States Postal Service", "brand:wikidata": "Q668687", "collection_times": "Mo-Fr 13:45; Sa 11:45", "indoor": "yes", "note": "ON 12/24 AND 12/31, THIS BOX MAY BE COLLECTED AS EARLY AS 12 NOON.", "nsi_id": "unitedstatespostalservice-a77078", "operator": "United States Postal Service", "operator:short": "USPS", "operator:type": "public", "operator:wikidata": "Q668687", "ref": "6463100001"}, "type": "Feature"}
{"geometry": {"coordinates": [-92.88854509, 39.782404686], "type": "Point"}, "id": "ErFFNEnkNYAOPZqDvdt9m5SMXF0=", "properties": {"@source_uri": "https://tools.usps.com/UspsToolsRestServices/rest/POLocator/findLocations", "@spider": "usps_collection_boxes", "addr:city": "BUCKLIN", "addr:country": "US", "addr:full": "31 N LIVINGSTON ST", "addr:postcode": "64631", "addr:state": "MO", "amenity": "post_box", "brand": "United States Postal Service", "brand:wikidata": "Q668687", "collection_times": "Mo-Fr 13:45; Sa 11:45", "note": "ON 12/24 AND 12/31, THIS BOX MAY BE COLLECTED AS EARLY AS 12 NOON.", "nsi_id": "unitedstatespostalservice-a77078", "operator": "United States Postal Service", "operator:short": "USPS", "operator:type": "public", "operator:wikidata": "Q668687", "ref": "6463100002"}, "type": "Feature"}
{"geometry": {"coordinates": [-92.88854509, 39.782404686], "type": "Point"}, "id": "jvRdn_VHWr8F6hLLZA8gdVLy0i0=", "properties": {"@source_uri": "https://tools.usps.com/UspsToolsRestServices/rest/POLocator/findLocations", "@spider": "usps_collection_boxes", "addr:city": "BUCKLIN", "addr:country": "US", "addr:full": "31 N LIVINGSTON ST", "addr:postcode": "64631", "addr:state": "MO", "amenity": "post_box", "brand": "United States Postal Service", "brand:wikidata": "Q668687", "collection_times": "Mo-Fr 13:45; Sa 11:45", "indoor": "yes", "note": "ON 12/24 AND 12/31, THIS BOX MAY BE COLLECTED AS EARLY AS 12 NOON.", "nsi_id": "unitedstatespostalservice-a77078", "operator": "United States Postal Service", "operator:short": "USPS", "operator:type": "public", "operator:wikidata": "Q668687", "ref": "6463100006"}, "type": "Feature"}
{"geometry": {"coordinates": [-93.774938803, 40.438289276], "type": "Point"}, "id": "aw_88FmO2WXjvcEyfBh3ycc11fs=", "properties": {"@source_uri": "https://tools.usps.com/UspsToolsRestServices/rest/POLocator/findLocations", "@spider": "usps_collection_boxes", "addr:city": "CAINSVILLE", "addr:country": "US", "addr:full": "702 MAIN ST", "addr:postcode": "64632", "addr:state": "MO", "amenity": "post_box", "brand": "United States Postal Service", "brand:wikidata": "Q668687", "collection_times": "Mo-Fr 15:45; Sa 10:45", "note": "ON 12/24 AND 12/31, THIS BOX MAY BE COLLECTED AS EARLY AS 12 NOON.", "nsi_id": "unitedstatespostalservice-a77078", "operator": "United States Postal Service", "operator:short": "USPS", "operator:type": "public", "operator:wikidata": "Q668687", "ref": "6463200000"}, "type": "Feature"}
{"geometry": {"coordinates": [-93.774938803, 40.438289276], "type": "Point"}, "id": "-XGrMEawUm1qz2LGUW50RHwlqIA=", "properties": {"@source_uri": "https://tools.usps.com/UspsToolsRestServices/rest/POLocator/findLocations", "@spider": "usps_collection_boxes", "addr:city": "CAINSVILLE", "addr:country": "US", "addr:full": "702 MAIN ST", "addr:postcode": "64632", "addr:state": "MO", "amenity": "post_box", "brand": "United States Postal Service", "brand:wikidata": "Q668687", "collection_times": "Mo-Fr 15:45; Sa 10:45", "indoor": "yes", "note": "ON 12/24 AND 12/31, THIS BOX MAY BE COLLECTED AS EARLY AS 12 NOON.", "nsi_id": "unitedstatespostalservice-a77078", "operator": "United States Postal Service", "operator:short": "USPS", "operator:type": "public", "operator:wikidata": "Q668687", "ref": "6463200001"}, "type": "Feature"}
{"geometry": {"coordinates": [-93.774938803, 40.438289276], "type": "Point"}, "id": "z_oBOu2KzhoZL0K5tcSX9wFfrT0=", "properties": {"@source_uri": "https://tools.usps.com/UspsToolsRestServices/rest/POLocator/findLocations", "@spider": "usps_collection_boxes", "addr:city": "CAINSVILLE", "addr:country": "US", "addr:full": "702 MAIN ST", "addr:postcode": "64632", "addr:state": "MO", "amenity": "post_box", "brand": "United States Postal Service", "brand:wikidata": "Q668687", "collection_times": "Mo-Fr 15:45; Sa 10:45", "indoor": "yes", "note": "ON 12/24 AND 12/31, THIS BOX MAY BE COLLECTED AS EARLY AS 12 NOON.", "nsi_id": "unitedstatespostalservice-a77078", "operator": "United States Postal Service", "operator:short": "USPS", "operator:type": "public", "operator:wikidata": "Q668687", "ref": "6463200002"}, "type": "Feature"}
{"geometry": {"coordinates": [-93.774938803, 40.438289276], "type": "Point"}, "id": "AFl4icVvySTz0MAEcn5cnFYHz54=", "properties": {"@source_uri": "https://tools.usps.com/UspsToolsRestServices/rest/POLocator/findLocations", "@spider": "usps_collection_boxes", "addr:city": "CAINSVILLE", "addr:country": "US", "addr:full": "702 MAIN ST", "addr:postcode": "64632", "addr:state": "MO", "amenity": "post_box", "brand": "United States Postal Service", "brand:wikidata": "Q668687", "collection_times": "Mo-Fr 15:45; Sa 10:45", "indoor": "yes", "note": "ON 12/24 AND 12/31, THIS BOX MAY BE COLLECTED AS EARLY AS 12 NOON.", "nsi_id": "unitedstatespostalservice-a77078", "operator": "United States Postal Service", "operator:short": "USPS", "operator:type": "public", "operator:wikidata": "Q668687", "ref": "6463200004"}, "type": "Feature"}
{"geometry": {"coordinates": [-93.497030762, 39.359270499], "type": "Point"}, "id": "MLWzkFKpdjH6d4SaK2ReSALZUdE=", "properties": {"@source_uri": "https://tools.usps.com/UspsToolsRestServices/rest/POLocator/findLocations", "@spider": "usps_collection_boxes", "addr:city": "CARROLLTON", "addr:country": "US", "addr:full": "101 N FOLGER ST", "addr:postcode": "64633", "addr:state": "MO", "amenity": "post_box", "brand": "United States Postal Service", "brand:wikidata": "Q668687", "collection_times": "Mo-Fr 16:15; Sa 11:15", "note": "ON 12/24 AND 12/31, THIS BOX MAY BE COLLECTED AS EARLY AS 12 NOON.", "nsi_id": "unitedstatespostalservice-a77078", "operator": "United States Postal Service", "operator:short": "USPS", "operator:type": "public", "operator:wikidata": "Q668687", "ref": "6463300001"}, "type": "Feature"}
{"geometry": {"coordinates": [-93.49615083, 39.357709081], "type": "Point"}, "id": "vy_WQJQmLoP0QoIbxJVmu5php0I=", "properties": {"@source_uri": "https://tools.usps.com/UspsToolsRestServices/rest/POLocator/findLocations", "@spider": "usps_collection_boxes", "addr:city": "CARROLLTON", "addr:country": "US", "addr:full": "7 W WASHINGTON ST", "addr:postcode": "64633", "addr:state": "MO", "amenity": "post_box", "brand": "United States Postal Service", "brand:wikidata": "Q668687", "collection_times": "Mo-Sa 15:00", "note": "ON 12/24 AND 12/31, THIS BOX MAY BE COLLECTED AS EARLY AS 12 NOON.", "nsi_id": "unitedstatespostalservice-a77078", "operator": "United States Postal Service", "operator:short": "USPS", "operator:type": "public", "operator:wikidata": "Q668687", "ref": "6463300004"}, "type": "Feature"}
{"geometry": {"coordinates": [-93.496094509, 39.358419375], "type": "Point"}, "id": "usuhBfAU5Yp7EboQebmnMxQTPC8=", "properties": {"@source_uri": "https://tools.usps.com/UspsToolsRestServices/rest/POLocator/findLocations", "@spider": "usps_collection_boxes", "addr:city": "CARROLLTON", "addr:country": "US", "addr:full": "8 S MAIN ST", "addr:postcode": "64633", "addr:state": "MO", "amenity": "post_box", "brand": "United States Postal Service", "brand:wikidata": "Q668687", "collection_times": "Mo-Sa 15:00", "note": "ON 12/24 AND 12/31, THIS BOX MAY BE COLLECTED AS EARLY AS 12 NOON.", "nsi_id": "unitedstatespostalservice-a77078", "operator": "United States Postal Service", "operator:short": "USPS", "operator:type": "public", "operator:wikidata": "Q668687", "ref": "6463300005"}, "type": "Feature"}
{"geometry": {"coordinates": [-93.487814882, 39.362632469], "type": "Point"}, "id": "x-rsyEbQt0MTkotqWh0Mb9keSYs=", "properties": {"@source_uri": "https://tools.usps.com/UspsToolsRestServices/rest/POLocator/findLocations", "@spider": "usps_collection_boxes", "addr:city": "CARROLLTON", "addr:country": "US", "addr:full": "402 N MASON ST", "addr:postcode": "64633", "addr:state": "MO", "amenity": "post_box", "brand": "United States Postal Service", "brand:wikidata": "Q668687", "collection_times": "Mo-Sa 10:30", "nsi_id": "unitedstatespostalservice-a77078", "operator": "United States Postal Service", "operator:short": "USPS", "operator:type": "public", "operator:wikidata": "Q668687", "ref": "6463300006"}, "type": "Feature"}
{"geometry": {"coordinates": [-93.484964253, 39.370014001], "type": "Point"}, "id": "WwzAcQI0iDVcLWrRV1vQOIAZsi0=", "properties": {"@source_uri": "https://tools.usps.com/UspsToolsRestServices/rest/POLocator/findLocations", "@spider": "usps_collection_boxes", "addr:city": "CARROLLTON", "addr:country": "US", "addr:full": "1003 N US HIGHWAY 65", "addr:postcode": "64633", "addr:state": "MO", "amenity": "post_box", "brand": "United States Postal Service", "brand:wikidata": "Q668687", "collection_times": "Mo-Sa 14:30", "note": "ON 12/24 AND 12/31, THIS BOX MAY BE COLLECTED AS EARLY AS 12 NOON.", "nsi_id": "unitedstatespostalservice-a77078", "operator": "United States Postal Service", "operator:short": "USPS", "operator:type": "public", "operator:wikidata": "Q668687", "ref": "6463300018"}, "type": "Feature"}
{"geometry": {"coordinates": [-93.497030762, 39.359270499], "type": "Point"}, "id": "UkiK9kTLWZGDtjxY2OknF9nmtHc=", "properties": {"@source_uri": "https://tools.usps.com/UspsToolsRestServices/rest/POLocator/findLocations", "@spider": "usps_collection_boxes", "addr:city": "CARROLLTON", "addr:country": "US", "addr:full": "101 N FOLGER ST", "addr:postcode": "64633", "addr:state": "MO", "amenity": "post_box", "brand": "United States Postal Service", "brand:wikidata": "Q668687", "collection_times": "Mo-Fr 16:15; Sa 11:15", "indoor": "yes", "note": "ON 12/24 AND 12/31, THIS BOX MAY BE COLLECTED AS EARLY AS 12 NOON.", "nsi_id": "unitedstatespostalservice-a77078", "operator": "United States Postal Service", "operator:short": "USPS", "operator:type": "public", "operator:wikidata": "Q668687", "ref": "6463300022"}, "type": "Feature"}
{"geometry": {"coordinates": [-93.497030762, 39.359270499], "type": "Point"}, "id": "PaEdIQ7yCW3TJJaJVPQG5qvgh8o=", "properties": {"@source_uri": "https://tools.usps.com/UspsToolsRestServices/rest/POLocator/findLocations", "@spider": "usps_collection_boxes", "addr:city": "CARROLLTON", "addr:country": "US", "addr:full": "101 N FOLGER ST", "addr:postcode": "64633", "addr:state": "MO", "amenity": "post_box", "brand": "United States Postal Service", "brand:wikidata": "Q668687", "collection_times": "Mo-Fr 16:15; Sa 11:15", "indoor": "yes", "note": "ON 12/24 AND 12/31, THIS BOX MAY BE COLLECTED AS EARLY AS 12 NOON.", "nsi_id": "unitedstatespostalservice-a77078", "operator": "United States Postal Service", "operator:short": "USPS", "operator:type": "public", "operator:wikidata": "Q668687", "ref": "6463300023"}, "type": "Feature"}
{"geometry": {"coordinates": [-93.497030762, 39.359270499], "type": "Point"}, "id": "RhY5_9hy7N3-NUvdAzqDKBfaTIw=", "properties": {"@source_uri": "https://tools.usps.com/UspsToolsRestServices/rest/POLocator/findLocations", "@spider": "usps_collection_boxes", "addr:city": "CARROLLTON", "addr:country": "US", "addr:full": "101 N FOLGER ST", "addr:postcode": "64633", "addr:state": "MO", "amenity": "post_box", "brand": "United States Postal Service", "brand:wikidata": "Q668687", "collection_times": "Mo-Fr 16:15; Sa 11:15", "indoor": "yes", "note": "ON 12/24 AND 12/31, THIS BOX MAY BE COLLECTED AS EARLY AS 12 NOON.", "nsi_id": "unitedstatespostalservice-a77078", "operator": "United States Postal Service", "operator:short": "USPS", "operator:type": "public", "operator:wikidata": "Q668687", "ref": "6463300029"}, "type": "Feature"}
{"geometry": {"coordinates": [-93.476492655, 39.92218975], "type": "Point"}, "id": "F_wD6xqFILrzPZkzSbNI4yy68YA=", "properties": {"@source_uri": "https://tools.usps.com/UspsToolsRestServices/rest/POLocator/findLocations", "@spider": "usps_collection_boxes", "addr:city": "CHULA", "addr:country": "US", "addr:full": "640 MANSUR ST", "addr:postcode": "64635", "addr:state": "MO", "amenity": "post_box", "brand": "United States Postal Service", "brand:wikidata": "Q668687", "collection_times": "Mo-Fr 13:45; Sa 12:45", "note": "ON 12/24 AND 12/31, THIS BOX MAY BE COLLECTED AS EARLY AS 12 NOON.", "nsi_id": "unitedstatespostalservice-a77078", "operator": "United States Postal Service", "operator:short": "USPS", "operator:type": "public", "operator:wikidata": "Q668687", "ref": "6463500000"}, "type": "Feature"}
{"geometry": {"coordinates": [-93.47649297, 39.922173146], "type": "Point"}, "id": "6Honitg0NFCavHUj87Ki31g3Yaw=", "properties": {"@source_uri": "https://tools.usps.com/UspsToolsRestServices/rest/POLocator/findLocations", "@spider": "usps_collection_boxes", "addr:city": "CHULA", "addr:country": "US", "addr:full": "640 MANSUR ST", "addr:postcode": "64635", "addr:state": "MO", "amenity": "post_box", "brand": "United States Postal Service", "brand:wikidata": "Q668687", "collection_times": "Mo-Fr 13:45; Sa 12:45", "indoor": "yes", "note": "ON 12/24 AND 12/31, THIS BOX MAY BE COLLECTED AS EARLY AS 12 NOON.", "nsi_id": "unitedstatespostalservice-a77078", "operator": "United States Postal Service", "operator:short": "USPS", "operator:type": "public", "operator:wikidata": "Q668687", "ref": "6463500002"}, "type": "Feature"}
{"geometry": {"coordinates": [-93.476492655, 39.92218975], "type": "Point"}, "id": "4rWo_wY45nOswsjbz_4uOXuZxRs=", "properties": {"@source_uri": "https://tools.usps.com/UspsToolsRestServices/rest/POLocator/findLocations", "@spider": "usps_collection_boxes", "addr:city": "CHULA", "addr:country": "US", "addr:full": "640 MANSUR ST", "addr:postcode": "64635", "addr:state": "MO", "amenity": "post_box", "brand": "United States Postal Service", "brand:wikidata": "Q668687", "collection_times": "Mo-Fr 13:45; Sa 12:45", "indoor": "yes", "note": "ON 12/24 AND 12/31, THIS BOX MAY BE COLLECTED AS EARLY AS 12 NOON.", "nsi_id": "unitedstatespostalservice-a77078", "operator": "United States Postal Service", "operator:short": "USPS", "operator:type": "public", "operator:wikidata": "Q668687", "ref": "6463500004"}, "type": "Feature"}
{"geometry": {"coordinates": [-94.005167387, 40.104700188], "type": "Point"}, "id": "vmAntk9oRaZtg6a7SnS-bHMFV8M=", "properties": {"@source_uri": "https://tools.usps.com/UspsToolsRestServices/rest/POLocator/findLocations", "@spider": "usps_collection_boxes", "addr:city": "COFFEY", "addr:country": "US", "addr:full": "212 E STATE HIGHWAY B", "addr:postcode": "64636", "addr:state": "MO", "amenity": "post_box", "brand": "United States Postal Service", "brand:wikidata": "Q668687", "collection_times": "Mo-Sa 14:45", "note": "ON 12/24 AND 12/31, THIS BOX MAY BE COLLECTED AS EARLY AS 12 NOON.", "nsi_id": "unitedstatespostalservice-a77078", "operator": "United States Postal Service", "operator:short": "USPS", "operator:type": "public", "operator:wikidata": "Q668687", "ref": "6463600000"}, "type": "Feature"}
{"geometry": {"coordinates": [-94.005162703, 40.104708997], "type": "Point"}, "id": "W-Lr6row9RptyUkQdXiwOu54QKE=", "properties": {"@source_uri": "https://tools.usps.com/UspsToolsRestServices/rest/POLocator/findLocations", "@spider": "usps_collection_boxes", "addr:city": "COFFEY", "addr:country": "US", "addr:full": "212 E STATE HIGHWAY B", "addr:postcode": "64636", "addr:state": "MO", "amenity": "post_box", "brand": "United States Postal Service", "brand:wikidata": "Q668687", "collection_times": "Mo-Sa 14:45", "indoor": "yes", "note": "ON 12/24 AND 12/31, THIS BOX MAY BE COLLECTED AS EARLY AS 12 NOON.", "nsi_id": "unitedstatespostalservice-a77078", "operator": "United States Postal Service", "operator:short": "USPS", "operator:type": "public", "operator:wikidata": "Q668687", "ref": "6463600002"}, "type": "Feature"}
{"geometry": {"coordinates": [-94.005162703, 40.104708997], "type": "Point"}, "id": "Zyiuw5dz7HaON2TNpKz1VeKED3c=", "properties": {"@source_uri": "https://tools.usps.com/UspsToolsRestServices/rest/POLocator/findLocations", "@spider": "usps_collection_boxes", "addr:city": "COFFEY", "addr:country": "US", "addr:full": "212 E STATE HIGHWAY B", "addr:postcode": "64636", "addr:state": "MO", "amenity": "post_box", "brand": "United States Postal Service", "brand:wikidata": "Q668687", "collection_times": "Mo-Sa 14:45", "indoor": "yes", "note": "ON 12/24 AND 12/31, THIS BOX MAY BE COLLECTED AS EARLY AS 12 NOON.", "nsi_id": "unitedstatespostalservice-a77078", "operator": "United States Postal Service", "operator:short": "USPS", "operator:type": "public", "operator:wikidata": "Q668687", "ref": "6463600004"}, "type": "Feature"}
{"geometry": {"coordinates": [-93.926536479, 39.560628531], "type": "Point"}, "id": "lb2KXbOx8GYXpvPIxYA3GmnFH7I=", "properties": {"@source_uri": "https://tools.usps.com/UspsToolsRestServices/rest/POLocator/findLocations", "@spider": "usps_collection_boxes", "addr:city": "COWGILL", "addr:country": "US", "addr:full": "460 MAIN ST", "addr:postcode": "64637", "addr:state": "MO", "amenity": "post_box", "brand": "United States Postal Service", "brand:wikidata": "Q668687", "collection_times": "Mo-Fr 16:15; Sa 13:45", "note": "ON 12/24 AND 12/31, THIS BOX MAY BE COLLECTED AS EARLY AS 12 NOON.", "nsi_id": "unitedstatespostalservice-a77078", "operator": "United States Postal Service", "operator:short": "USPS", "operator:type": "public", "operator:wikidata": "Q668687", "ref": "6463700000"}, "type": "Feature"}
{"geometry": {"coordinates": [-93.926536479, 39.560628531], "type": "Point"}, "id": "kkTN3lGjKXEZ575AZnw4wy-i3y0=", "properties": {"@source_uri": "https://tools.usps.com/UspsToolsRestServices/rest/POLocator/findLocations", "@spider": "usps_collection_boxes", "addr:city": "COWGILL", "addr:country": "US", "addr:full": "460 MAIN ST", "addr:postcode": "64637", "addr:state": "MO", "amenity": "post_box", "brand": "United States Postal Service", "brand:wikidata": "Q668687", "collection_times": "Mo-Fr 16:15; Sa 13:45", "indoor": "yes", "note": "ON 12/24 AND 12/31, THIS BOX MAY BE COLLECTED AS EARLY AS 12 NOON.", "nsi_id": "unitedstatespostalservice-a77078", "operator": "United States Postal Service", "operator:short": "USPS", "operator:type": "public", "operator:wikidata": "Q668687", "ref": "6463700001"}, "type": "Feature"}
{"geometry": {"coordinates": [-93.926536479, 39.560628531], "type": "Point"}, "id": "MTzokJm0G3byEDfPVhDpofcfRkQ=", "properties": {"@source_uri": "https://tools.usps.com/UspsToolsRestServices/rest/POLocator/findLocations", "@spider": "usps_collection_boxes", "addr:city": "COWGILL", "addr:country": "US", "addr:full": "460 MAIN ST", "addr:postcode": "64637", "addr:state": "MO", "amenity": "post_box", "brand": "United States Postal Service", "brand:wikidata": "Q668687", "collection_times": "Mo-Fr 16:15; Sa 13:45", "indoor": "yes", "note": "ON 12/24 AND 12/31, THIS BOX MAY BE COLLECTED AS EARLY AS 12 NOON.", "nsi_id": "unitedstatespostalservice-a77078", "operator": "United States Postal Service", "operator:short": "USPS", "operator:type": "public", "operator:wikidata": "Q668687", "ref": "6463700003"}, "type": "Feature"}
{"geometry": {"coordinates": [-93.63494, 39.6674], "type": "Point"}, "id": "yhVOL1aIN_6oYIN0DxYSxA0XW5g=", "properties": {"@source_uri": "https://tools.usps.com/UspsToolsRestServices/rest/POLocator/findLocations", "@spider": "usps_collection_boxes", "addr:city": "DAWN", "addr:country": "US", "addr:full": "202 MAIN ST.", "addr:postcode": "64638", "addr:state": "MO", "amenity": "post_box", "brand": "United States Postal Service", "brand:wikidata": "Q668687", "collection_times": "Mo-Fr 15:45; Sa 13:45", "note": "ON 12/24 AND 12/31, THIS BOX MAY BE COLLECTED AS EARLY AS 12 NOON.", "nsi_id": "unitedstatespostalservice-a77078", "operator": "United States Postal Service", "operator:short": "USPS", "operator:type": "public", "operator:wikidata": "Q668687", "ref": "6463800000"}, "type": "Feature"}
{"geometry": {"coordinates": [-93.631161104, 39.668322705], "type": "Point"}, "id": "rQ4lhXSq3K0XwwrTkYsENyagLxo=", "properties": {"@source_uri": "https://tools.usps.com/UspsToolsRestServices/rest/POLocator/findLocations", "@spider": "usps_collection_boxes", "addr:city": "DAWN", "addr:country": "US", "addr:full": "7613 C HWY", "addr:postcode": "64638", "addr:state": "MO", "amenity": "post_box", "brand": "United States Postal Service", "brand:wikidata": "Q668687", "collection_times": "Mo-Fr 15:45; Sa 13:45", "indoor": "yes", "note": "ON 12/24 AND 12/31, THIS BOX MAY BE COLLECTED AS EARLY AS 12 NOON.", "nsi_id": "unitedstatespostalservice-a77078", "operator": "United States Postal Service", "operator:short": "USPS", "operator:type": "public", "operator:wikidata": "Q668687", "ref": "6463800001"}, "type": "Feature"}
{"geometry": {"coordinates": [-93.6326417, 39.6685349], "type": "Point"}, "id": "9H-4fFzkXh-DC4jnOqSCZK0Gp7Y=", "properties": {"@source_uri": "https://tools.usps.com/UspsToolsRestServices/rest/POLocator/findLocations", "@spider": "usps_collection_boxes", "addr:city": "DAWN", "addr:country": "US", "addr:full": "202 MAIN ST", "addr:postcode": "64638", "addr:state": "MO", "amenity": "post_box", "brand": "United States Postal Service", "brand:wikidata": "Q668687", "collection_times": "Mo-Fr 15:45; Sa 13:45", "indoor": "yes", "note": "ON 12/24 AND 12/31, THIS BOX MAY BE COLLECTED AS EARLY AS 12 NOON.", "nsi_id": "unitedstatespostalservice-a77078", "operator": "United States Postal Service", "operator:short": "USPS", "operator:type": "public", "operator:wikidata": "Q668687", "ref": "6463800004"}, "type": "Feature"}
{"geometry": {"coordinates": [-93.221802418, 39.38450905], "type": "Point"}, "id": "AOqWpIHY4UKXSwNz1KPTgDDlxJA=", "properties": {"@source_uri": "https://tools.usps.com/UspsToolsRestServices/rest/POLocator/findLocations", "@spider": "usps_collection_boxes", "addr:city": "DEWITT", "addr:country": "US", "addr:full": "711 JEFFERSON ST", "addr:postcode": "64639", "addr:state": "MO", "amenity": "post_box", "brand": "United States Postal Service", "brand:wikidata": "Q668687", "collection_times": "Mo-Sa 12:45", "indoor": "yes", "note": "ON 12/24 AND 12/31, THIS BOX MAY BE COLLECTED AS EARLY AS 12 NOON.", "nsi_id": "unitedstatespostalservice-a77078", "operator": "United States Postal Service", "operator:short": "USPS", "operator:type": "public", "operator:wikidata": "Q668687", "ref": "6463900000"}, "type": "Feature"}
{"geometry": {"coordinates": [-93.221802418, 39.38450905], "type": "Point"}, "id": "7HOAg2ksKlT1Ew_q6UZZnukae-c=", "properties": {"@source_uri": "https://tools.usps.com/UspsToolsRestServices/rest/POLocator/findLocations", "@spider": "usps_collection_boxes", "addr:city": "DEWITT", "addr:country": "US", "addr:full": "711 JEFFERSON ST", "addr:postcode": "64639", "addr:state": "MO", "amenity": "post_box", "brand": "United States Postal Service", "brand:wikidata": "Q668687", "collection_times": "Mo-Sa 12:45", "indoor": "yes", "note": "ON 12/24 AND 12/31, THIS BOX MAY BE COLLECTED AS EARLY AS 12 NOON.", "nsi_id": "unitedstatespostalservice-a77078", "operator": "United States Postal Service", "operator:short": "USPS", "operator:type": "public", "operator:wikidata": "Q668687", "ref": "6463900001"}, "type": "Feature"}
{"geometry": {"coordinates": [-93.961341788, 39.914404388], "type": "Point"}, "id": "VPUN3SwYCvb45t7xuyV3aPnvpZc=", "properties": {"@source_uri": "https://tools.usps.com/UspsToolsRestServices/rest/POLocator/findLocations", "@spider": "usps_collection_boxes", "addr:city": "GALLATIN", "addr:country": "US", "addr:full": "111 S MAIN ST", "addr:postcode": "64640", "addr:state": "MO", "amenity": "post_box", "brand": "United States Postal Service", "brand:wikidata": "Q668687", "collection_times": "Mo-Fr 16:15; Sa 11:15", "note": "ON 12/24 AND 12/31, THIS BOX MAY BE COLLECTED AS EARLY AS 12 NOON.", "nsi_id": "unitedstatespostalservice-a77078", "operator": "United States Postal Service", "operator:short": "USPS", "operator:type": "public", "operator:wikidata": "Q668687", "ref": "6464000001"}, "type": "Feature"}
{"geometry": {"coordinates": [-93.961341788, 39.914404388], "type": "Point"}, "id": "x19jhEp_fLEO5k57XfEIhLxSwFc=", "properties": {"@source_uri": "https://tools.usps.com/UspsToolsRestServices/rest/POLocator/findLocations", "@spider": "usps_collection_boxes", "addr:city": "GALLATIN", "addr:country": "US", "addr:full": "111 S MAIN ST", "addr:postcode": "64640", "addr:state": "MO", "amenity": "post_box", "brand": "United States Postal Service", "brand:wikidata": "Q668687", "collection_times": "Mo-Fr 16:15; Sa 11:15", "indoor": "yes", "note": "ON 12/24 AND 12/31, THIS BOX MAY BE COLLECTED AS EARLY AS 12 NOON.", "nsi_id": "unitedstatespostalservice-a77078", "operator": "United States Postal Service", "operator:short": "USPS", "operator:type": "public", "operator:wikidata": "Q668687", "ref": "6464000003"}, "type": "Feature"}
{"geometry": {"coordinates": [-93.961341788, 39.914404388], "type": "Point"}, "id": "iTJGac1OAbdYsZ-kMDlzHulJJmo=", "properties": {"@source_uri": "https://tools.usps.com/UspsToolsRestServices/rest/POLocator/findLocations", "@spider": "usps_collection_boxes", "addr:city": "GALLATIN", "addr:country": "US", "addr:full": "111 S MAIN ST", "addr:postcode": "64640", "addr:state": "MO", "amenity": "post_box", "brand": "United States Postal Service", "brand:wikidata": "Q668687", "collection_times": "Mo-Fr 16:15; Sa 11:15", "indoor": "yes", "note": "ON 12/24 AND 12/31, THIS BOX MAY BE COLLECTED AS EARLY AS 12 NOON.", "nsi_id": "unitedstatespostalservice-a77078", "operator": "United States Postal Service", "operator:short": "USPS", "operator:type": "public", "operator:wikidata": "Q668687", "ref": "6464000007"}, "type": "Feature"}
{"geometry": {"coordinates": [-93.3866838102, 40.1261919454], "type": "Point"}, "id": "maUyw3djnV1yD6gQDC5_rDmLfE4=", "properties": {"@source_uri": "https://tools.usps.com/UspsToolsRestServices/rest/POLocator/findLocations", "@spider": "usps_collection_boxes", "addr:city": "GALT", "addr:country": "US", "addr:full": "100 CENTER ST", "addr:postcode": "64641", "addr:state": "MO", "amenity": "post_box", "brand": "United States Postal Service", "brand:wikidata": "Q668687", "collection_times": "Mo-Fr 11:15; Sa 09:00", "nsi_id": "unitedstatespostalservice-a77078", "operator": "United States Postal Service", "operator:short": "USPS", "operator:type": "public", "operator:wikidata": "Q668687", "ref": "6464100000"}, "type": "Feature"}
{"geometry": {"coordinates": [-93.386688506, 40.126172528], "type": "Point"}, "id": "hY1hI_eX1__6LdGOoFVH_IDy9B0=", "properties": {"@source_uri": "https://tools.usps.com/UspsToolsRestServices/rest/POLocator/findLocations", "@spider": "usps_collection_boxes", "addr:city": "GALT", "addr:country": "US", "addr:full": "100 CENTER ST", "addr:postcode": "64641", "addr:state": "MO", "amenity": "post_box", "brand": "United States Postal Service", "brand:wikidata": "Q668687", "collection_times": "Mo-Fr 11:15; Sa 09:00", "indoor": "yes", "nsi_id": "unitedstatespostalservice-a77078", "operator": "United States Postal Service", "operator:short": "USPS", "operator:type": "public", "operator:wikidata": "Q668687", "ref": "6464100002"}, "type": "Feature"}
{"geometry": {"coordinates": [-93.386688506, 40.126172528], "type": "Point"}, "id": "oXtOSbCK6BxpT7Hdg3ArbdCX-dI=", "properties": {"@source_uri": "https://tools.usps.com/UspsToolsRestServices/rest/POLocator/findLocations", "@spider": "usps_collection_boxes", "addr:city": "GALT", "addr:country": "US", "addr:full": "100 CENTER ST", "addr:postcode": "64641", "addr:state": "MO", "amenity": "post_box", "brand": "United States Postal Service", "brand:wikidata": "Q668687", "collection_times": "Mo-Fr 11:15; Sa 09:00", "indoor": "yes", "nsi_id": "unitedstatespostalservice-a77078", "operator": "United States Postal Service", "operator:short": "USPS", "operator:type": "public", "operator:wikidata": "Q668687", "ref": "6464100004"}, "type": "Feature"}
{"geometry": {"coordinates": [-93.3431109755, 39.6038100075], "type": "Point"}, "id": "IQ5elnREq194JsZMeeddMno8FbU=", "properties": {"@source_uri": "https://tools.usps.com/UspsToolsRestServices/rest/POLocator/findLocations", "@spider": "usps_collection_boxes", "addr:city": "HALE", "addr:country": "US", "addr:full": "202 MAIN ST", "addr:postcode": "64643", "addr:state": "MO", "amenity": "post_box", "brand": "United States Postal Service", "brand:wikidata": "Q668687", "collection_times": "Mo-Fr 14:45; Sa 09:45", "note": "ON 12/24 AND 12/31, THIS BOX MAY BE COLLECTED AS EARLY AS 12 NOON.", "nsi_id": "unitedstatespostalservice-a77078", "operator": "United States Postal Service", "operator:short": "USPS", "operator:type": "public", "operator:wikidata": "Q668687", "ref": "6464300000"}, "type": "Feature"}
{"geometry": {"coordinates": [-93.342747848, 39.60378949], "type": "Point"}, "id": "EJDAAUwa_PAljhnb-Glbf2iKWZY=", "properties": {"@source_uri": "https://tools.usps.com/UspsToolsRestServices/rest/POLocator/findLocations", "@spider": "usps_collection_boxes", "addr:city": "HALE", "addr:country": "US", "addr:full": "202 MAIN ST", "addr:postcode": "64643", "addr:state": "MO", "amenity": "post_box", "brand": "United States Postal Service", "brand:wikidata": "Q668687", "collection_times": "Mo-Fr 14:45; Sa 09:45", "indoor": "yes", "note": "ON 12/24 AND 12/31, THIS BOX MAY BE COLLECTED AS EARLY AS 12 NOON.", "nsi_id": "unitedstatespostalservice-a77078", "operator": "United States Postal Service", "operator:short": "USPS", "operator:type": "public", "operator:wikidata": "Q668687", "ref": "6464300001"}, "type": "Feature"}
{"geometry": {"coordinates": [-93.342747848, 39.60378949], "type": "Point"}, "id": "kx2vWHyQZNVx4CaSpU2SXhb1A5k=", "properties": {"@source_uri": "https://tools.usps.com/UspsToolsRestServices/rest/POLocator/findLocations", "@spider": "usps_collection_boxes", "addr:city": "HALE", "addr:country": "US", "addr:full": "202 MAIN ST", "addr:postcode": "64643", "addr:state": "MO", "amenity": "post_box", "brand": "United States Postal Service", "brand:wikidata": "Q668687", "collection_times": "Mo-Fr 14:45; Sa 09:45", "indoor": "yes", "note": "ON 12/24 AND 12/31, THIS BOX MAY BE COLLECTED AS EARLY AS 12 NOON.", "nsi_id": "unitedstatespostalservice-a77078", "operator": "United States Postal Service", "operator:short": "USPS", "operator:type": "public", "operator:wikidata": "Q668687", "ref": "6464300003"}, "type": "Feature"}
{"geometry": {"coordinates": [-93.998267474, 39.744150669], "type": "Point"}, "id": "P7P1KQtZbmspxnzHhtwF-rlCwNY=", "properties": {"@source_uri": "https://tools.usps.com/UspsToolsRestServices/rest/POLocator/findLocations", "@spider": "usps_collection_boxes", "addr:city": "HAMILTON", "addr:country": "US", "addr:full": "106 W BIRD ST", "addr:postcode": "64644", "addr:state": "MO", "amenity": "post_box", "brand": "United States Postal Service", "brand:wikidata": "Q668687", "collection_times": "Mo-Fr 16:00; Sa 10:15", "note": "ON 12/24 AND 12/31, THIS BOX MAY BE COLLECTED AS EARLY AS 12 NOON.", "nsi_id": "unitedstatespostalservice-a77078", "operator": "United States Postal Service", "operator:short": "USPS", "operator:type": "public", "operator:wikidata": "Q668687", "ref": "6464400000"}, "type": "Feature"}
{"geometry": {"coordinates": [-93.998267474, 39.744150669], "type": "Point"}, "id": "HtMylLbmDUe4Tm1zBbpcb_9VB-c=", "properties": {"@source_uri": "https://tools.usps.com/UspsToolsRestServices/rest/POLocator/findLocations", "@spider": "usps_collection_boxes", "addr:city": "HAMILTON", "addr:country": "US", "addr:full": "106 W BIRD ST", "addr:postcode": "64644", "addr:state": "MO", "amenity": "post_box", "brand": "United States Postal Service", "brand:wikidata": "Q668687", "collection_times": "Mo-Fr 16:00; Sa 10:15", "indoor": "yes", "note": "ON 12/24 AND 12/31, THIS BOX MAY BE COLLECTED AS EARLY AS 12 NOON.", "nsi_id": "unitedstatespostalservice-a77078", "operator": "United States Postal Service", "operator:short": "USPS", "operator:type": "public", "operator:wikidata": "Q668687", "ref": "6464400001"}, "type": "Feature"}
{"geometry": {"coordinates": [-93.998267474, 39.744150669], "type": "Point"}, "id": "l57kBfqgubyzWDs8-An495rnZIo=", "properties": {"@source_uri": "https://tools.usps.com/UspsToolsRestServices/rest/POLocator/findLocations", "@spider": "usps_collection_boxes", "addr:city": "HAMILTON", "addr:country": "US", "addr:full": "106 W BIRD ST", "addr:postcode": "64644", "addr:state": "MO", "amenity": "post_box", "brand": "United States Postal Service", "brand:wikidata": "Q668687", "collection_times": "Mo-Fr 16:00; Sa 10:15", "indoor": "yes", "note": "ON 12/24 AND 12/31, THIS BOX MAY BE COLLECTED AS EARLY AS 12 NOON.", "nsi_id": "unitedstatespostalservice-a77078", "operator": "United States Postal Service", "operator:short": "USPS", "operator:type": "public", "operator:wikidata": "Q668687", "ref": "6464400002"}, "type": "Feature"}
{"geometry": {"coordinates": [-93.998267474, 39.744150669], "type": "Point"}, "id": "dEh-axPR_JGaTc3CTMA9cG99e1o=", "properties": {"@source_uri": "https://tools.usps.com/UspsToolsRestServices/rest/POLocator/findLocations", "@spider": "usps_collection_boxes", "addr:city": "HAMILTON", "addr:country": "US", "addr:full": "106 W BIRD ST", "addr:postcode": "64644", "addr:state": "MO", "amenity": "post_box", "brand": "United States Postal Service", "brand:wikidata": "Q668687", "collection_times": "Mo-Fr 16:00; Sa 10:15", "indoor": "yes", "note": "ON 12/24 AND 12/31, THIS BOX MAY BE COLLECTED AS EARLY AS 12 NOON.", "nsi_id": "unitedstatespostalservice-a77078", "operator": "United States Postal Service", "operator:short": "USPS", "operator:type": "public", "operator:wikidata": "Q668687", "ref": "6464400004"}, "type": "Feature"}
{"geometry": {"coordinates": [-93.98726777, 40.005113909], "type": "Point"}, "id": "P9aeAnu8VyNcXkN3NU0I-kC8ESM=", "properties": {"@source_uri": "https://tools.usps.com/UspsToolsRestServices/rest/POLocator/findLocations", "@spider": "usps_collection_boxes", "addr:city": "JAMESON", "addr:country": "US", "addr:full": "206 N MAIN ST", "addr:postcode": "64647", "addr:state": "MO", "amenity": "post_box", "brand": "United States Postal Service", "brand:wikidata": "Q668687", "collection_times": "Mo-Fr 12:15; Sa 11:45", "note": "ON 12/24 AND 12/31, THIS BOX MAY BE COLLECTED AS EARLY AS 12 NOON.", "nsi_id": "unitedstatespostalservice-a77078", "operator": "United States Postal Service", "operator:short": "USPS", "operator:type": "public", "operator:wikidata": "Q668687", "ref": "6464700000"}, "type": "Feature"}
{"geometry": {"coordinates": [-93.987253642, 40.005105458], "type": "Point"}, "id": "7iR9PbuzoiDCOnPs6lsPtMTZPb8=", "properties": {"@source_uri": "https://tools.usps.com/UspsToolsRestServices/rest/POLocator/findLocations", "@spider": "usps_collection_boxes", "addr:city": "JAMESON", "addr:country": "US", "addr:full": "206 N MAIN ST", "addr:postcode": "64647", "addr:state": "MO", "amenity": "post_box", "brand": "United States Postal Service", "brand:wikidata": "Q668687", "collection_times": "Mo-Fr 12:15; Sa 11:45", "indoor": "yes", "note": "ON 12/24 AND 12/31, THIS BOX MAY BE COLLECTED AS EARLY AS 12 NOON.", "nsi_id": "unitedstatespostalservice-a77078", "operator": "United States Postal Service", "operator:short": "USPS", "operator:type": "public", "operator:wikidata": "Q668687", "ref": "6464700001"}, "type": "Feature"}
{"geometry": {"coordinates": [-93.987253642, 40.005105458], "type": "Point"}, "id": "pm2diE9IbviB8waeesP5a1OnKco=", "properties": {"@source_uri": "https://tools.usps.com/UspsToolsRestServices/rest/POLocator/findLocations", "@spider": "usps_collection_boxes", "addr:city": "JAMESON", "addr:country": "US", "addr:full": "206 N MAIN ST", "addr:postcode": "64647", "addr:state": "MO", "amenity": "post_box", "brand": "United States Postal Service", "brand:wikidata": "Q668687", "collection_times": "Mo-Fr 12:15; Sa 11:45", "indoor": "yes", "note": "ON 12/24 AND 12/31, THIS BOX MAY BE COLLECTED AS EARLY AS 12 NOON.", "nsi_id": "unitedstatespostalservice-a77078", "operator": "United States Postal Service", "operator:short": "USPS", "operator:type": "public", "operator:wikidata": "Q668687", "ref": "6464700003"}, "type": "Feature"}
{"geometry": {"coordinates": [-93.8010252426, 39.9749527119], "type": "Point"}, "id": "CAT8xUwYovircXs825spnk1UQL4=", "properties": {"@source_uri": "https://tools.usps.com/UspsToolsRestServices/rest/POLocator/findLocations", "@spider": "usps_collection_boxes", "addr:city": "JAMESPORT", "addr:country": "US", "addr:full": "201 S BROADWAY ST", "addr:postcode": "64648", "addr:state": "MO", "amenity": "post_box", "brand": "United States Postal Service", "brand:wikidata": "Q668687", "collection_times": "Mo-Fr 16:00; Sa 11:15", "note": "ON 12/24 AND 12/31, THIS BOX MAY BE COLLECTED AS EARLY AS 12 NOON.", "nsi_id": "unitedstatespostalservice-a77078", "operator": "United States Postal Service", "operator:short": "USPS", "operator:type": "public", "operator:wikidata": "Q668687", "ref": "6464800000"}, "type": "Feature"}
{"geometry": {"coordinates": [-93.8010252426, 39.9749527119], "type": "Point"}, "id": "8YJKK-k6liQTHTYAQtMlbapl6Y0=", "properties": {"@source_uri": "https://tools.usps.com/UspsToolsRestServices/rest/POLocator/findLocations", "@spider": "usps_collection_boxes", "addr:city": "JAMESPORT", "addr:country": "US", "addr:full": "201 S BROADWAY ST", "addr:postcode": "64648", "addr:state": "MO", "amenity": "post_box", "brand": "United States Postal Service", "brand:wikidata": "Q668687", "collection_times": "Mo-Fr 16:00; Sa 11:15", "indoor": "yes", "note": "ON 12/24 AND 12/31, THIS BOX MAY BE COLLECTED AS EARLY AS 12 NOON.", "nsi_id": "unitedstatespostalservice-a77078", "operator": "United States Postal Service", "operator:short": "USPS", "operator:type": "public", "operator:wikidata": "Q668687", "ref": "6464800001"}, "type": "Feature"}
{"geometry": {"coordinates": [-94.1066635264, 39.781563304], "type": "Point"}, "id": "YNGi1WfhbM4Whh6DzkdaLTfurU8=", "properties": {"@source_uri": "https://tools.usps.com/UspsToolsRestServices/rest/POLocator/findLocations", "@spider": "usps_collection_boxes", "addr:city": "KIDDER", "addr:country": "US", "addr:full": "315 E 3RD ST", "addr:postcode": "64649", "addr:state": "MO", "amenity": "post_box", "brand": "United States Postal Service", "brand:wikidata": "Q668687", "collection_times": "Mo-Fr 14:45; Sa 10:00", "note": "ON 12/24 AND 12/31, THIS BOX MAY BE COLLECTED AS EARLY AS 12 NOON.", "nsi_id": "unitedstatespostalservice-a77078", "operator": "United States Postal Service", "operator:short": "USPS", "operator:type": "public", "operator:wikidata": "Q668687", "ref": "6464900000"}, "type": "Feature"}
{"geometry": {"coordinates": [-94.106671442, 39.781574433], "type": "Point"}, "id": "zTJdDbbQ1_9XnYug3q-MrelhF9M=", "properties": {"@source_uri": "https://tools.usps.com/UspsToolsRestServices/rest/POLocator/findLocations", "@spider": "usps_collection_boxes", "addr:city": "KIDDER", "addr:country": "US", "addr:full": "315 E 3RD ST", "addr:postcode": "64649", "addr:state": "MO", "amenity": "post_box", "brand": "United States Postal Service", "brand:wikidata": "Q668687", "collection_times": "Mo-Fr 14:45; Sa 10:00", "indoor": "yes", "note": "ON 12/24 AND 12/31, THIS BOX MAY BE COLLECTED AS EARLY AS 12 NOON.", "nsi_id": "unitedstatespostalservice-a77078", "operator": "United States Postal Service", "operator:short": "USPS", "operator:type": "public", "operator:wikidata": "Q668687", "ref": "6464900001"}, "type": "Feature"}
{"geometry": {"coordinates": [-94.106671442, 39.781574433], "type": "Point"}, "id": "3ek4vIq_UEGP3LJ35RUUC08sFn4=", "properties": {"@source_uri": "https://tools.usps.com/UspsToolsRestServices/rest/POLocator/findLocations", "@spider": "usps_collection_boxes", "addr:city": "KIDDER", "addr:country": "US", "addr:full": "315 E 3RD ST", "addr:postcode": "64649", "addr:state": "MO", "amenity": "post_box", "brand": "United States Postal Service", "brand:wikidata": "Q668687", "collection_times": "Mo-Fr 14:45; Sa 10:00", "indoor": "yes", "note": "ON 12/24 AND 12/31, THIS BOX MAY BE COLLECTED AS EARLY AS 12 NOON.", "nsi_id": "unitedstatespostalservice-a77078", "operator": "United States Postal Service", "operator:short": "USPS", "operator:type": "public", "operator:wikidata": "Q668687", "ref": "6464900003"}, "type": "Feature"}
{"geometry": {"coordinates": [-94.037731824, 39.643078161], "type": "Point"}, "id": "UpznokF6UIzWVcZ3E1O7tjTHKk4=", "properties": {"@source_uri": "https://tools.usps.com/UspsToolsRestServices/rest/POLocator/findLocations", "@spider": "usps_collection_boxes", "addr:city": "KINGSTON", "addr:country": "US", "addr:full": "36 N FRANKLIN ST", "addr:postcode": "64650", "addr:state": "MO", "amenity": "post_box", "brand": "United States Postal Service", "brand:wikidata": "Q668687", "collection_times": "Mo-Fr 15:45; Sa 13:30", "note": "ON 12/24 AND 12/31, THIS BOX MAY BE COLLECTED AS EARLY AS 12 NOON.", "nsi_id": "unitedstatespostalservice-a77078", "operator": "United States Postal Service", "operator:short": "USPS", "operator:type": "public", "operator:wikidata": "Q668687", "ref": "6465000000"}, "type": "Feature"}
{"geometry": {"coordinates": [-94.037360965, 39.643092006], "type": "Point"}, "id": "gQT0NwMqni61otfMlJ3Xsp_RUi0=", "properties": {"@source_uri": "https://tools.usps.com/UspsToolsRestServices/rest/POLocator/findLocations", "@spider": "usps_collection_boxes", "addr:city": "KINGSTON", "addr:country": "US", "addr:full": "36 N FRANKLIN ST", "addr:postcode": "64650", "addr:state": "MO", "amenity": "post_box", "brand": "United States Postal Service", "brand:wikidata": "Q668687", "collection_times": "Mo-Fr 15:45; Sa 13:30", "indoor": "yes", "note": "ON 12/24 AND 12/31, THIS BOX MAY BE COLLECTED AS EARLY AS 12 NOON.", "nsi_id": "unitedstatespostalservice-a77078", "operator": "United States Postal Service", "operator:short": "USPS", "operator:type": "public", "operator:wikidata": "Q668687", "ref": "6465000001"}, "type": "Feature"}
{"geometry": {"coordinates": [-94.037360965, 39.643092006], "type": "Point"}, "id": "cSTL8x3VxoisDN7GocVHj6Uq1v8=", "properties": {"@source_uri": "https://tools.usps.com/UspsToolsRestServices/rest/POLocator/findLocations", "@spider": "usps_collection_boxes", "addr:city": "KINGSTON", "addr:country": "US", "addr:full": "36 N FRANKLIN ST", "addr:postcode": "64650", "addr:state": "MO", "amenity": "post_box", "brand": "United States Postal Service", "brand:wikidata": "Q668687", "collection_times": "Mo-Fr 15:45; Sa 13:30", "indoor": "yes", "note": "ON 12/24 AND 12/31, THIS BOX MAY BE COLLECTED AS EARLY AS 12 NOON.", "nsi_id": "unitedstatespostalservice-a77078", "operator": "United States Postal Service", "operator:short": "USPS", "operator:type": "public", "operator:wikidata": "Q668687", "ref": "6465000002"}, "type": "Feature"}
{"geometry": {"coordinates": [-94.037731824, 39.643078161], "type": "Point"}, "id": "vNU5OZdGeJOpQkREs2HLsCo1Fdk=", "properties": {"@source_uri": "https://tools.usps.com/UspsToolsRestServices/rest/POLocator/findLocations", "@spider": "usps_collection_boxes", "addr:city": "KINGSTON", "addr:country": "US", "addr:full": "36 N FRANKLIN ST", "addr:postcode": "64650", "addr:state": "MO", "amenity": "post_box", "brand": "United States Postal Service", "brand:wikidata": "Q668687", "collection_times": "Mo-Fr 15:45; Sa 13:30", "indoor": "yes", "note": "ON 12/24 AND 12/31, THIS BOX MAY BE COLLECTED AS EARLY AS 12 NOON.", "nsi_id": "unitedstatespostalservice-a77078", "operator": "United States Postal Service", "operator:short": "USPS", "operator:type": "public", "operator:wikidata": "Q668687", "ref": "6465000004"}, "type": "Feature"}
{"geometry": {"coordinates": [-93.169145391, 39.78511046], "type": "Point"}, "id": "zLdXOcsU4N3vIFySztX9RABwoHI=", "properties": {"@source_uri": "https://tools.usps.com/UspsToolsRestServices/rest/POLocator/findLocations", "@spider": "usps_collection_boxes", "addr:city": "LACLEDE", "addr:country": "US", "addr:full": "607 PERSHING DR", "addr:postcode": "64651", "addr:state": "MO", "amenity": "post_box", "brand": "United States Postal Service", "brand:wikidata": "Q668687", "collection_times": "Mo-Fr 15:45; Sa 12:30", "note": "ON 12/24 AND 12/31, THIS BOX MAY BE COLLECTED AS EARLY AS 12 NOON.", "nsi_id": "unitedstatespostalservice-a77078", "operator": "United States Postal Service", "operator:short": "USPS", "operator:type": "public", "operator:wikidata": "Q668687", "ref": "6465100000"}, "type": "Feature"}
{"geometry": {"coordinates": [-93.169145391, 39.78511046], "type": "Point"}, "id": "Xqvg3BDsIf8rOV6gYu8TZNCz5K0=", "properties": {"@source_uri": "https://tools.usps.com/UspsToolsRestServices/rest/POLocator/findLocations", "@spider": "usps_collection_boxes", "addr:city": "LACLEDE", "addr:country": "US", "addr:full": "607 PERSHING DR", "addr:postcode": "64651", "addr:state": "MO", "amenity": "post_box", "brand": "United States Postal Service", "brand:wikidata": "Q668687", "collection_times": "Mo-Fr 15:45; Sa 12:30", "indoor": "yes", "note": "ON 12/24 AND 12/31, THIS BOX MAY BE COLLECTED AS EARLY AS 12 NOON.", "nsi_id": "unitedstatespostalservice-a77078", "operator": "United States Postal Service", "operator:short": "USPS", "operator:type": "public", "operator:wikidata": "Q668687", "ref": "6465100001"}, "type": "Feature"}
{"geometry": {"coordinates": [-93.169145391, 39.78511046], "type": "Point"}, "id": "p7eB8DC_FtjS0ukBNOZ-Q1Ks5ug=", "properties": {"@source_uri": "https://tools.usps.com/UspsToolsRestServices/rest/POLocator/findLocations", "@spider": "usps_collection_boxes", "addr:city": "LACLEDE", "addr:country": "US", "addr:full": "607 PERSHING DR", "addr:postcode": "64651", "addr:state": "MO", "amenity": "post_box", "brand": "United States Postal Service", "brand:wikidata": "Q668687", "collection_times": "Mo-Fr 15:45; Sa 12:30", "indoor": "yes", "note": "ON 12/24 AND 12/31, THIS BOX MAY BE COLLECTED AS EARLY AS 12 NOON.", "nsi_id": "unitedstatespostalservice-a77078", "operator": "United States Postal Service", "operator:short": "USPS", "operator:type": "public", "operator:wikidata": "Q668687", "ref": "6465100003"}, "type": "Feature"}
{"geometry": {"coordinates": [-93.446075028, 40.025672996], "type": "Point"}, "id": "sL-w6MKf-9EcINNKj1vICW2fFUg=", "properties": {"@source_uri": "https://tools.usps.com/UspsToolsRestServices/rest/POLocator/findLocations", "@spider": "usps_collection_boxes", "addr:city": "LAREDO", "addr:country": "US", "addr:full": "216 E MAIN ST", "addr:postcode": "64652", "addr:state": "MO", "amenity": "post_box", "brand": "United States Postal Service", "brand:wikidata": "Q668687", "collection_times": "Mo-Fr 15:45; Sa 13:30", "note": "ON 12/24 AND 12/31, THIS BOX MAY BE COLLECTED AS EARLY AS 12 NOON.", "nsi_id": "unitedstatespostalservice-a77078", "operator": "United States Postal Service", "operator:short": "USPS", "operator:type": "public", "operator:wikidata": "Q668687", "ref": "6465200000"}, "type": "Feature"}
{"geometry": {"coordinates": [-93.446876497, 40.025789178], "type": "Point"}, "id": "cyDOMb-3JtOYy1ljRfUUjcgbJqY=", "properties": {"@source_uri": "https://tools.usps.com/UspsToolsRestServices/rest/POLocator/findLocations", "@spider": "usps_collection_boxes", "addr:city": "LAREDO", "addr:country": "US", "addr:full": "216 E MAIN ST", "addr:postcode": "64652", "addr:state": "MO", "amenity": "post_box", "brand": "United States Postal Service", "brand:wikidata": "Q668687", "collection_times": "Mo-Fr 15:45; Sa 13:30", "indoor": "yes", "note": "ON 12/24 AND 12/31, THIS BOX MAY BE COLLECTED AS EARLY AS 12 NOON.", "nsi_id": "unitedstatespostalservice-a77078", "operator": "United States Postal Service", "operator:short": "USPS", "operator:type": "public", "operator:wikidata": "Q668687", "ref": "6465200002"}, "type": "Feature"}
{"geometry": {"coordinates": [-93.446876497, 40.025789178], "type": "Point"}, "id": "_f7ospBy-f483Whp_7Q9TvvfpLI=", "properties": {"@source_uri": "https://tools.usps.com/UspsToolsRestServices/rest/POLocator/findLocations", "@spider": "usps_collection_boxes", "addr:city": "LAREDO", "addr:country": "US", "addr:full": "216 E MAIN ST", "addr:postcode": "64652", "addr:state": "MO", "amenity": "post_box", "brand": "United States Postal Service", "brand:wikidata": "Q668687", "collection_times": "Mo-Fr 15:45; Sa 13:30", "indoor": "yes", "note": "ON 12/24 AND 12/31, THIS BOX MAY BE COLLECTED AS EARLY AS 12 NOON.", "nsi_id": "unitedstatespostalservice-a77078", "operator": "United States Postal Service", "operator:short": "USPS", "operator:type": "public", "operator:wikidata": "Q668687", "ref": "6465200004"}, "type": "Feature"}
{"geometry": {"coordinates": [-93.189577979, 39.878212982], "type": "Point"}, "id": "uuyvlofbIT9N-2DYF3z8_Oti0bA=", "properties": {"@source_uri": "https://tools.usps.com/UspsToolsRestServices/rest/POLocator/findLocations", "@spider": "usps_collection_boxes", "addr:city": "LINNEUS", "addr:country": "US", "addr:full": "200 S HIGH ST", "addr:postcode": "64653", "addr:state": "MO", "amenity": "post_box", "brand": "United States Postal Service", "brand:wikidata": "Q668687", "collection_times": "Mo-Fr 11:15; Sa 10:15", "nsi_id": "unitedstatespostalservice-a77078", "operator": "United States Postal Service", "operator:short": "USPS", "operator:type": "public", "operator:wikidata": "Q668687", "ref": "6465300000"}, "type": "Feature"}
{"geometry": {"coordinates": [-93.189757172, 39.878262], "type": "Point"}, "id": "72pJpqG4oC0FKSM5W8CKMVmG3zs=", "properties": {"@source_uri": "https://tools.usps.com/UspsToolsRestServices/rest/POLocator/findLocations", "@spider": "usps_collection_boxes", "addr:city": "LINNEUS", "addr:country": "US", "addr:full": "200 S HIGH ST", "addr:postcode": "64653", "addr:state": "MO", "amenity": "post_box", "brand": "United States Postal Service", "brand:wikidata": "Q668687", "collection_times": "Mo-Fr 11:15; Sa 10:15", "indoor": "yes", "nsi_id": "unitedstatespostalservice-a77078", "operator": "United States Postal Service", "operator:short": "USPS", "operator:type": "public", "operator:wikidata": "Q668687", "ref": "6465300002"}, "type": "Feature"}
{"geometry": {"coordinates": [-93.189757172, 39.878262], "type": "Point"}, "id": "MuVMLHH62Eh2qvzaYGrYmRtWo6c=", "properties": {"@source_uri": "https://tools.usps.com/UspsToolsRestServices/rest/POLocator/findLocations", "@spider": "usps_collection_boxes", "addr:city": "LINNEUS", "addr:country": "US", "addr:full": "200 S HIGH ST", "addr:postcode": "64653", "addr:state": "MO", "amenity": "post_box", "brand": "United States Postal Service", "brand:wikidata": "Q668687", "collection_times": "Mo-Fr 11:15; Sa 10:15", "indoor": "yes", "nsi_id": "unitedstatespostalservice-a77078", "operator": "United States Postal Service", "operator:short": "USPS", "operator:type": "public", "operator:wikidata": "Q668687", "ref": "6465300004"}, "type": "Feature"}
{"geometry": {"coordinates": [-93.289684056, 40.463994846], "type": "Point"}, "id": "W7c-wzO5P536bWYTkt2oxUnhDks=", "properties": {"@source_uri": "https://tools.usps.com/UspsToolsRestServices/rest/POLocator/findLocations", "@spider": "usps_collection_boxes", "addr:city": "LUCERNE", "addr:country": "US", "addr:full": "205 STATE HIGHWAY A E", "addr:postcode": "64655", "addr:state": "MO", "amenity": "post_box", "brand": "United States Postal Service", "brand:wikidata": "Q668687", "collection_times": "Mo-Fr 15:45; Sa 11:45", "note": "ON 12/24 AND 12/31, THIS BOX MAY BE COLLECTED AS EARLY AS 12 NOON.", "nsi_id": "unitedstatespostalservice-a77078", "operator": "United States Postal Service", "operator:short": "USPS", "operator:type": "public", "operator:wikidata": "Q668687", "ref": "6465500000"}, "type": "Feature"}
{"geometry": {"coordinates": [-93.289684056, 40.463994846], "type": "Point"}, "id": "-0T2A4kjW629uWtDqTwi6FcrUFU=", "properties": {"@source_uri": "https://tools.usps.com/UspsToolsRestServices/rest/POLocator/findLocations", "@spider": "usps_collection_boxes", "addr:city": "LUCERNE", "addr:country": "US", "addr:full": "205 STATE HIGHWAY A E", "addr:postcode": "64655", "addr:state": "MO", "amenity": "post_box", "brand": "United States Postal Service", "brand:wikidata": "Q668687", "collection_times": "Mo-Fr 15:45; Sa 11:45", "indoor": "yes", "note": "ON 12/24 AND 12/31, THIS BOX MAY BE COLLECTED AS EARLY AS 12 NOON.", "nsi_id": "unitedstatespostalservice-a77078", "operator": "United States Postal Service", "operator:short": "USPS", "operator:type": "public", "operator:wikidata": "Q668687", "ref": "6465500001"}, "type": "Feature"}
{"geometry": {"coordinates": [-93.289684056, 40.463994846], "type": "Point"}, "id": "U9ozQFy-Vk29FlF85o17prKcabc=", "properties": {"@source_uri": "https://tools.usps.com/UspsToolsRestServices/rest/POLocator/findLocations", "@spider": "usps_collection_boxes", "addr:city": "LUCERNE", "addr:country": "US", "addr:full": "205 STATE HIGHWAY A E", "addr:postcode": "64655", "addr:state": "MO", "amenity": "post_box", "brand": "United States Postal Service", "brand:wikidata": "Q668687", "collection_times": "Mo-Fr 15:45; Sa 11:45", "indoor": "yes", "note": "ON 12/24 AND 12/31, THIS BOX MAY BE COLLECTED AS EARLY AS 12 NOON.", "nsi_id": "unitedstatespostalservice-a77078", "operator": "United States Postal Service", "operator:short": "USPS", "operator:type": "public", "operator:wikidata": "Q668687", "ref": "6465500002"}, "type": "Feature"}
{"geometry": {"coordinates": [-93.289686482, 40.463971764], "type": "Point"}, "id": "2HqZEwE4C9_EUElIhuoWWwZeP6c=", "properties": {"@source_uri": "https://tools.usps.com/UspsToolsRestServices/rest/POLocator/findLocations", "@spider": "usps_collection_boxes", "addr:city": "LUCERNE", "addr:country": "US", "addr:full": "205 STATE HIGHWAY A E", "addr:postcode": "64655", "addr:state": "MO", "amenity": "post_box", "brand": "United States Postal Service", "brand:wikidata": "Q668687", "collection_times": "Mo-Fr 15:45; Sa 11:45", "indoor": "yes", "note": "ON 12/24 AND 12/31, THIS BOX MAY BE COLLECTED AS EARLY AS 12 NOON.", "nsi_id": "unitedstatespostalservice-a77078", "operator": "United States Postal Service", "operator:short": "USPS", "operator:type": "public", "operator:wikidata": "Q668687", "ref": "6465500004"}, "type": "Feature"}
{"geometry": {"coordinates": [-93.7022898489, 39.6530895422], "type": "Point"}, "id": "1Gir2A8iGcBL5rIcqgR0KWmgHgE=", "properties": {"@source_uri": "https://tools.usps.com/UspsToolsRestServices/rest/POLocator/findLocations", "@spider": "usps_collection_boxes", "addr:city": "LUDLOW", "addr:country": "US", "addr:full": "MAIN STREET ST", "addr:postcode": "64656", "addr:state": "MO", "amenity": "post_box", "brand": "United States Postal Service", "brand:wikidata": "Q668687", "collection_times": "Mo-Fr 11:15; Sa 09:30", "nsi_id": "unitedstatespostalservice-a77078", "operator": "United States Postal Service", "operator:short": "USPS", "operator:type": "public", "operator:wikidata": "Q668687", "ref": "6465600000"}, "type": "Feature"}
{"geometry": {"coordinates": [-93.702524972, 39.6536959939], "type": "Point"}, "id": "u7GEri5mph8xCqwitjfNsP_FYt4=", "properties": {"@source_uri": "https://tools.usps.com/UspsToolsRestServices/rest/POLocator/findLocations", "@spider": "usps_collection_boxes", "addr:city": "LUDLOW", "addr:country": "US", "addr:full": "210 MAIN ST", "addr:postcode": "64656", "addr:state": "MO", "amenity": "post_box", "brand": "United States Postal Service", "brand:wikidata": "Q668687", "collection_times": "Mo-Fr 11:15; Sa 09:30", "indoor": "yes", "nsi_id": "unitedstatespostalservice-a77078", "operator": "United States Postal Service", "operator:short": "USPS", "operator:type": "public", "operator:wikidata": "Q668687", "ref": "6465600001"}, "type": "Feature"}
{"geometry": {"coordinates": [-93.702350054, 39.65322204], "type": "Point"}, "id": "iQIVfe0BzmWnpbEDu2e3cNjBz-0=", "properties": {"@source_uri": "https://tools.usps.com/UspsToolsRestServices/rest/POLocator/findLocations", "@spider": "usps_collection_boxes", "addr:city": "LUDLOW", "addr:country": "US", "addr:full": "210 MAIN ST", "addr:postcode": "64656", "addr:state": "MO", "amenity": "post_box", "brand": "United States Postal Service", "brand:wikidata": "Q668687", "collection_times": "Mo-Fr 11:15; Sa 09:30", "indoor": "yes", "nsi_id": "unitedstatespostalservice-a77078", "operator": "United States Postal Service", "operator:short": "USPS", "operator:type": "public", "operator:wikidata": "Q668687", "ref": "6465600003"}, "type": "Feature"}
{"geometry": {"coordinates": [-94.223801847, 40.11089884], "type": "Point"}, "id": "Z4mYTtQyqNiK-LxfrkiGkEy_R50=", "properties": {"@source_uri": "https://tools.usps.com/UspsToolsRestServices/rest/POLocator/findLocations", "@spider": "usps_collection_boxes", "addr:city": "MC FALL", "addr:country": "US", "addr:full": "508 MAIN ST", "addr:postcode": "64657", "addr:state": "MO", "amenity": "post_box", "brand": "United States Postal Service", "brand:wikidata": "Q668687", "collection_times": "Mo-Sa 11:15", "nsi_id": "unitedstatespostalservice-a77078", "operator": "United States Postal Service", "operator:short": "USPS", "operator:type": "public", "operator:wikidata": "Q668687", "ref": "6465700000"}, "type": "Feature"}
{"geometry": {"coordinates": [-94.223804312, 40.110878757], "type": "Point"}, "id": "-7aDtF-8nbEWfH5WZpNrg_XXzqM=", "properties": {"@source_uri": "https://tools.usps.com/UspsToolsRestServices/rest/POLocator/findLocations", "@spider": "usps_collection_boxes", "addr:city": "MC FALL", "addr:country": "US", "addr:full": "508 MAIN ST", "addr:postcode": "64657", "addr:state": "MO", "amenity": "post_box", "brand": "United States Postal Service", "brand:wikidata": "Q668687", "collection_times": "Mo-Sa 11:15", "indoor": "yes", "nsi_id": "unitedstatespostalservice-a77078", "operator": "United States Postal Service", "operator:short": "USPS", "operator:type": "public", "operator:wikidata": "Q668687", "ref": "6465700002"}, "type": "Feature"}
{"geometry": {"coordinates": [-94.223804312, 40.110878757], "type": "Point"}, "id": "EqMkG0ThDXarSzJ2pox9mngxGhA=", "properties": {"@source_uri": "https://tools.usps.com/UspsToolsRestServices/rest/POLocator/findLocations", "@spider": "usps_collection_boxes", "addr:city": "MC FALL", "addr:country": "US", "addr:full": "508 MAIN ST", "addr:postcode": "64657", "addr:state": "MO", "amenity": "post_box", "brand": "United States Postal Service", "brand:wikidata": "Q668687", "collection_times": "Mo-Sa 11:15", "indoor": "yes", "nsi_id": "unitedstatespostalservice-a77078", "operator": "United States Postal Service", "operator:short": "USPS", "operator:type": "public", "operator:wikidata": "Q668687", "ref": "6465700004"}, "type": "Feature"}
{"geometry": {"coordinates": [-92.949957975, 39.714727984], "type": "Point"}, "id": "7HlGqRAMtZb86K9r4pdfjX8VFnU=", "properties": {"@source_uri": "https://tools.usps.com/UspsToolsRestServices/rest/POLocator/findLocations", "@spider": "usps_collection_boxes", "addr:city": "MARCELINE", "addr:country": "US", "addr:full": "120 E RITCHIE AVE", "addr:postcode": "64658", "addr:state": "MO", "amenity": "post_box", "brand": "United States Postal Service", "brand:wikidata": "Q668687", "collection_times": "Mo-Fr 16:15; Sa 12:45", "note": "ON 12/24 AND 12/31, THIS BOX MAY BE COLLECTED AS EARLY AS 12 NOON.", "nsi_id": "unitedstatespostalservice-a77078", "operator": "United States Postal Service", "operator:short": "USPS", "operator:type": "public", "operator:wikidata": "Q668687", "ref": "6465800004"}, "type": "Feature"}
{"geometry": {"coordinates": [-92.949957975, 39.714727984], "type": "Point"}, "id": "e0IwvgtRNnuUNelL6EjAGxpHME8=", "properties": {"@source_uri": "https://tools.usps.com/UspsToolsRestServices/rest/POLocator/findLocations", "@spider": "usps_collection_boxes", "addr:city": "MARCELINE", "addr:country": "US", "addr:full": "120 E RITCHIE AVE", "addr:postcode": "64658", "addr:state": "MO", "amenity": "post_box", "brand": "United States Postal Service", "brand:wikidata": "Q668687", "collection_times": "Mo-Fr 16:15; Sa 12:45", "indoor": "yes", "note": "ON 12/24 AND 12/31, THIS BOX MAY BE COLLECTED AS EARLY AS 12 NOON.", "nsi_id": "unitedstatespostalservice-a77078", "operator": "United States Postal Service", "operator:short": "USPS", "operator:type": "public", "operator:wikidata": "Q668687", "ref": "6465800009"}, "type": "Feature"}
{"geometry": {"coordinates": [-92.949957975, 39.714727984], "type": "Point"}, "id": "rasknHCh7e9Om0bso_NfwR7CXTA=", "properties": {"@source_uri": "https://tools.usps.com/UspsToolsRestServices/rest/POLocator/findLocations", "@spider": "usps_collection_boxes", "addr:city": "MARCELINE", "addr:country": "US", "addr:full": "120 E RITCHIE AVE", "addr:postcode": "64658", "addr:state": "MO", "amenity": "post_box", "brand": "United States Postal Service", "brand:wikidata": "Q668687", "collection_times": "Mo-Fr 16:15; Sa 12:45", "indoor": "yes", "note": "ON 12/24 AND 12/31, THIS BOX MAY BE COLLECTED AS EARLY AS 12 NOON.", "nsi_id": "unitedstatespostalservice-a77078", "operator": "United States Postal Service", "operator:short": "USPS", "operator:type": "public", "operator:wikidata": "Q668687", "ref": "6465800011"}, "type": "Feature"}
{"geometry": {"coordinates": [-93.302148684, 39.786993492], "type": "Point"}, "id": "Q8zOcMjP0pocNVlblOH4USoEtoM=", "properties": {"@source_uri": "https://tools.usps.com/UspsToolsRestServices/rest/POLocator/findLocations", "@spider": "usps_collection_boxes", "addr:city": "MEADVILLE", "addr:country": "US", "addr:full": "212 S MACON ST", "addr:postcode": "64659", "addr:state": "MO", "amenity": "post_box", "brand": "United States Postal Service", "brand:wikidata": "Q668687", "collection_times": "Mo-Fr 15:45; Sa 09:45", "note": "ON 12/24 AND 12/31, THIS BOX MAY BE COLLECTED AS EARLY AS 12 NOON.", "nsi_id": "unitedstatespostalservice-a77078", "operator": "United States Postal Service", "operator:short": "USPS", "operator:type": "public", "operator:wikidata": "Q668687", "ref": "6465900000"}, "type": "Feature"}
{"geometry": {"coordinates": [-93.302131882, 39.787029184], "type": "Point"}, "id": "5nSUMxmshPl1aoFXlfzVejdPOlM=", "properties": {"@source_uri": "https://tools.usps.com/UspsToolsRestServices/rest/POLocator/findLocations", "@spider": "usps_collection_boxes", "addr:city": "MEADVILLE", "addr:country": "US", "addr:full": "212 S MACON ST", "addr:postcode": "64659", "addr:state": "MO", "amenity": "post_box", "brand": "United States Postal Service", "brand:wikidata": "Q668687", "collection_times": "Mo-Fr 15:45; Sa 09:45", "indoor": "yes", "note": "ON 12/24 AND 12/31, THIS BOX MAY BE COLLECTED AS EARLY AS 12 NOON.", "nsi_id": "unitedstatespostalservice-a77078", "operator": "United States Postal Service", "operator:short": "USPS", "operator:type": "public", "operator:wikidata": "Q668687", "ref": "6465900001"}, "type": "Feature"}
{"geometry": {"coordinates": [-93.302131882, 39.787029184], "type": "Point"}, "id": "HiVNbxDHMa-kXWWHFYqy1Z7aRFU=", "properties": {"@source_uri": "https://tools.usps.com/UspsToolsRestServices/rest/POLocator/findLocations", "@spider": "usps_collection_boxes", "addr:city": "MEADVILLE", "addr:country": "US", "addr:full": "212 S MACON ST", "addr:postcode": "64659", "addr:state": "MO", "amenity": "post_box", "brand": "United States Postal Service", "brand:wikidata": "Q668687", "collection_times": "Mo-Fr 15:45; Sa 09:45", "indoor": "yes", "note": "ON 12/24 AND 12/31, THIS BOX MAY BE COLLECTED AS EARLY AS 12 NOON.", "nsi_id": "unitedstatespostalservice-a77078", "operator": "United States Postal Service", "operator:short": "USPS", "operator:type": "public", "operator:wikidata": "Q668687", "ref": "6465900003"}, "type": "Feature"}
{"geometry": {"coordinates": [-93.1351400321, 39.5903879821], "type": "Point"}, "id": "2cO9pfwRL31A9FcV580Bkgb0QOU=", "properties": {"@source_uri": "https://tools.usps.com/UspsToolsRestServices/rest/POLocator/findLocations", "@spider": "usps_collection_boxes", "addr:city": "MENDON", "addr:country": "US", "addr:full": "202 MAIN ST", "addr:postcode": "64660", "addr:state": "MO", "amenity": "post_box", "brand": "United States Postal Service", "brand:wikidata": "Q668687", "collection_times": "Mo-Sa 12:15", "note": "ON 12/24 AND 12/31, THIS BOX MAY BE COLLECTED AS EARLY AS 12 NOON.", "nsi_id": "unitedstatespostalservice-a77078", "operator": "United States Postal Service", "operator:short": "USPS", "operator:type": "public", "operator:wikidata": "Q668687", "ref": "6466000000"}, "type": "Feature"}
{"geometry": {"coordinates": [-93.134027468, 39.589050696], "type": "Point"}, "id": "K9qryNAUQ0LwqK0iYuF0hu-VoIE=", "properties": {"@source_uri": "https://tools.usps.com/UspsToolsRestServices/rest/POLocator/findLocations", "@spider": "usps_collection_boxes", "addr:city": "MENDON", "addr:country": "US", "addr:full": "202 MAIN ST", "addr:postcode": "64660", "addr:state": "MO", "amenity": "post_box", "brand": "United States Postal Service", "brand:wikidata": "Q668687", "collection_times": "Mo-Sa 12:15", "indoor": "yes", "note": "ON 12/24 AND 12/31, THIS BOX MAY BE COLLECTED AS EARLY AS 12 NOON.", "nsi_id": "unitedstatespostalservice-a77078", "operator": "United States Postal Service", "operator:short": "USPS", "operator:type": "public", "operator:wikidata": "Q668687", "ref": "6466000002"}, "type": "Feature"}
{"geometry": {"coordinates": [-93.134027468, 39.589050696], "type": "Point"}, "id": "9wYMjqFkynJxutzJhU_n6m0MrSg=", "properties": {"@source_uri": "https://tools.usps.com/UspsToolsRestServices/rest/POLocator/findLocations", "@spider": "usps_collection_boxes", "addr:city": "MENDON", "addr:country": "US", "addr:full": "202 MAIN ST", "addr:postcode": "64660", "addr:state": "MO", "amenity": "post_box", "brand": "United States Postal Service", "brand:wikidata": "Q668687", "collection_times": "Mo-Sa 12:15", "indoor": "yes", "note": "ON 12/24 AND 12/31, THIS BOX MAY BE COLLECTED AS EARLY AS 12 NOON.", "nsi_id": "unitedstatespostalservice-a77078", "operator": "United States Postal Service", "operator:short": "USPS", "operator:type": "public", "operator:wikidata": "Q668687", "ref": "6466000004"}, "type": "Feature"}
{"geometry": {"coordinates": [-93.53199548, 40.509579184], "type": "Point"}, "id": "nRQKFqDT-jwsqqMU8DsdGJwoU-g=", "properties": {"@source_uri": "https://tools.usps.com/UspsToolsRestServices/rest/POLocator/findLocations", "@spider": "usps_collection_boxes", "addr:city": "MERCER", "addr:country": "US", "addr:full": "101 STATE ST", "addr:postcode": "64661", "addr:state": "MO", "amenity": "post_box", "brand": "United States Postal Service", "brand:wikidata": "Q668687", "collection_times": "Mo-Fr 15:30; Sa 09:30", "note": "ON 12/24 AND 12/31, THIS BOX MAY BE COLLECTED AS EARLY AS 12 NOON.", "nsi_id": "unitedstatespostalservice-a77078", "operator": "United States Postal Service", "operator:short": "USPS", "operator:type": "public", "operator:wikidata": "Q668687", "ref": "6466100000"}, "type": "Feature"}
{"geometry": {"coordinates": [-93.53199548, 40.509579184], "type": "Point"}, "id": "TiIUGAduU8MkJWb7TAPlEVGcHaA=", "properties": {"@source_uri": "https://tools.usps.com/UspsToolsRestServices/rest/POLocator/findLocations", "@spider": "usps_collection_boxes", "addr:city": "MERCER", "addr:country": "US", "addr:full": "101 STATE ST", "addr:postcode": "64661", "addr:state": "MO", "amenity": "post_box", "brand": "United States Postal Service", "brand:wikidata": "Q668687", "collection_times": "Mo-Fr 15:30; Sa 09:30", "indoor": "yes", "note": "ON 12/24 AND 12/31, THIS BOX MAY BE COLLECTED AS EARLY AS 12 NOON.", "nsi_id": "unitedstatespostalservice-a77078", "operator": "United States Postal Service", "operator:short": "USPS", "operator:type": "public", "operator:wikidata": "Q668687", "ref": "6466100001"}, "type": "Feature"}
{"geometry": {"coordinates": [-93.531956627, 40.511433373], "type": "Point"}, "id": "b--gDclU1v4bBtKAe4GZeG-pAeY=", "properties": {"@source_uri": "https://tools.usps.com/UspsToolsRestServices/rest/POLocator/findLocations", "@spider": "usps_collection_boxes", "addr:city": "MERCER", "addr:country": "US", "addr:full": "101 N STATE ST", "addr:postcode": "64661", "addr:state": "MO", "amenity": "post_box", "brand": "United States Postal Service", "brand:wikidata": "Q668687", "collection_times": "Mo-Fr 15:30; Sa 09:30", "indoor": "yes", "note": "ON 12/24 AND 12/31, THIS BOX MAY BE COLLECTED AS EARLY AS 12 NOON.", "nsi_id": "unitedstatespostalservice-a77078", "operator": "United States Postal Service", "operator:short": "USPS", "operator:type": "public", "operator:wikidata": "Q668687", "ref": "6466100003"}, "type": "Feature"}
{"geometry": {"coordinates": [-93.335163818, 40.375873453], "type": "Point"}, "id": "AOKfshnAwz6WNKeazS4XPfYgnHM=", "properties": {"@source_uri": "https://tools.usps.com/UspsToolsRestServices/rest/POLocator/findLocations", "@spider": "usps_collection_boxes", "addr:city": "NEWTOWN", "addr:country": "US", "addr:full": "109 S MAIN ST", "addr:postcode": "64667", "addr:state": "MO", "amenity": "post_box", "brand": "United States Postal Service", "brand:wikidata": "Q668687", "collection_times": "Mo-Fr 10:45; Sa 08:45", "nsi_id": "unitedstatespostalservice-a77078", "operator": "United States Postal Service", "operator:short": "USPS", "operator:type": "public", "operator:wikidata": "Q668687", "ref": "6466700000"}, "type": "Feature"}
{"geometry": {"coordinates": [-93.335163818, 40.375873453], "type": "Point"}, "id": "mU_kDtQobiYK4IespP_cs4ORMAM=", "properties": {"@source_uri": "https://tools.usps.com/UspsToolsRestServices/rest/POLocator/findLocations", "@spider": "usps_collection_boxes", "addr:city": "NEWTOWN", "addr:country": "US", "addr:full": "109 S MAIN ST", "addr:postcode": "64667", "addr:state": "MO", "amenity": "post_box", "brand": "United States Postal Service", "brand:wikidata": "Q668687", "collection_times": "Mo-Fr 10:45; Sa 08:45", "indoor": "yes", "nsi_id": "unitedstatespostalservice-a77078", "operator": "United States Postal Service", "operator:short": "USPS", "operator:type": "public", "operator:wikidata": "Q668687", "ref": "6466700001"}, "type": "Feature"}
{"geometry": {"coordinates": [-93.335163818, 40.375873453], "type": "Point"}, "id": "BszhyGOCiG8wOIA4GSTa17R7hPg=", "properties": {"@source_uri": "https://tools.usps.com/UspsToolsRestServices/rest/POLocator/findLocations", "@spider": "usps_collection_boxes", "addr:city": "NEWTOWN", "addr:country": "US", "addr:full": "109 S MAIN ST", "addr:postcode": "64667", "addr:state": "MO", "amenity": "post_box", "brand": "United States Postal Service", "brand:wikidata": "Q668687", "collection_times": "Mo-Fr 10:45; Sa 08:45", "indoor": "yes", "nsi_id": "unitedstatespostalservice-a77078", "operator": "United States Postal Service", "operator:short": "USPS", "operator:type": "public", "operator:wikidata": "Q668687", "ref": "6466700002"}, "type": "Feature"}
{"geometry": {"coordinates": [-93.335163818, 40.375873453], "type": "Point"}, "id": "vvz7zyP0LJh_0GhFVlv41LdPQc4=", "properties": {"@source_uri": "https://tools.usps.com/UspsToolsRestServices/rest/POLocator/findLocations", "@spider": "usps_collection_boxes", "addr:city": "NEWTOWN", "addr:country": "US", "addr:full": "109 S MAIN ST", "addr:postcode": "64667", "addr:state": "MO", "amenity": "post_box", "brand": "United States Postal Service", "brand:wikidata": "Q668687", "collection_times": "Mo-Fr 10:45; Sa 08:45", "indoor": "yes", "nsi_id": "unitedstatespostalservice-a77078", "operator": "United States Postal Service", "operator:short": "USPS", "operator:type": "public", "operator:wikidata": "Q668687", "ref": "6466700004"}, "type": "Feature"}
{"geometry": {"coordinates": [-93.675330425, 39.302701701], "type": "Point"}, "id": "7Arg0GwkRxANi9RF89EXPoygvto=", "properties": {"@source_uri": "https://tools.usps.com/UspsToolsRestServices/rest/POLocator/findLocations", "@spider": "usps_collection_boxes", "addr:city": "NORBORNE", "addr:country": "US", "addr:full": "204 E 2ND ST", "addr:postcode": "64668", "addr:state": "MO", "amenity": "post_box", "brand": "United States Postal Service", "brand:wikidata": "Q668687", "collection_times": "Mo-Fr 15:45; Sa 10:45", "note": "ON 12/24 AND 12/31, THIS BOX MAY BE COLLECTED AS EARLY AS 12 NOON.", "nsi_id": "unitedstatespostalservice-a77078", "operator": "United States Postal Service", "operator:short": "USPS", "operator:type": "public", "operator:wikidata": "Q668687", "ref": "6466800000"}, "type": "Feature"}
{"geometry": {"coordinates": [-93.675330425, 39.302701701], "type": "Point"}, "id": "GavEA7rkvXPoThIThKyCiaVHjhU=", "properties": {"@source_uri": "https://tools.usps.com/UspsToolsRestServices/rest/POLocator/findLocations", "@spider": "usps_collection_boxes", "addr:city": "NORBORNE", "addr:country": "US", "addr:full": "204 E 2ND ST", "addr:postcode": "64668", "addr:state": "MO", "amenity": "post_box", "brand": "United States Postal Service", "brand:wikidata": "Q668687", "collection_times": "Mo-Fr 15:45; Sa 10:45", "indoor": "yes", "note": "ON 12/24 AND 12/31, THIS BOX MAY BE COLLECTED AS EARLY AS 12 NOON.", "nsi_id": "unitedstatespostalservice-a77078", "operator": "United States Postal Service", "operator:short": "USPS", "operator:type": "public", "operator:wikidata": "Q668687", "ref": "6466800001"}, "type": "Feature"}
{"geometry": {"coordinates": [-93.675330425, 39.302701701], "type": "Point"}, "id": "R-iydseb7VW2eZ8hEOBgMynLFRk=", "properties": {"@source_uri": "https://tools.usps.com/UspsToolsRestServices/rest/POLocator/findLocations", "@spider": "usps_collection_boxes", "addr:city": "NORBORNE", "addr:country": "US", "addr:full": "204 E 2ND ST", "addr:postcode": "64668", "addr:state": "MO", "amenity": "post_box", "brand": "United States Postal Service", "brand:wikidata": "Q668687", "collection_times": "Mo-Fr 15:45; Sa 10:45", "indoor": "yes", "note": "ON 12/24 AND 12/31, THIS BOX MAY BE COLLECTED AS EARLY AS 12 NOON.", "nsi_id": "unitedstatespostalservice-a77078", "operator": "United States Postal Service", "operator:short": "USPS", "operator:type": "public", "operator:wikidata": "Q668687", "ref": "6466800003"}, "type": "Feature"}
{"geometry": {"coordinates": [-94.100906873, 40.07625812], "type": "Point"}, "id": "XvvvZbm4IqU3KQdjBM5v3Q8QJtQ=", "properties": {"@source_uri": "https://tools.usps.com/UspsToolsRestServices/rest/POLocator/findLocations", "@spider": "usps_collection_boxes", "addr:city": "PATTONSBURG", "addr:country": "US", "addr:full": "105 2ND AVE", "addr:postcode": "64670", "addr:state": "MO", "amenity": "post_box", "brand": "United States Postal Service", "brand:wikidata": "Q668687", "collection_times": "Mo-Fr 15:45; Sa 09:45", "indoor": "yes", "note": "ON 12/24 AND 12/31, THIS BOX MAY BE COLLECTED AS EARLY AS 12 NOON.", "nsi_id": "unitedstatespostalservice-a77078", "operator": "United States Postal Service", "operator:short": "USPS", "operator:type": "public", "operator:wikidata": "Q668687", "ref": "6467000002"}, "type": "Feature"}
{"geometry": {"coordinates": [-94.100906873, 40.07625812], "type": "Point"}, "id": "_fwwQ3AHxDfUd8_7gvaoKZXXeAI=", "properties": {"@source_uri": "https://tools.usps.com/UspsToolsRestServices/rest/POLocator/findLocations", "@spider": "usps_collection_boxes", "addr:city": "PATTONSBURG", "addr:country": "US", "addr:full": "105 2ND AVE", "addr:postcode": "64670", "addr:state": "MO", "amenity": "post_box", "brand": "United States Postal Service", "brand:wikidata": "Q668687", "collection_times": "Mo-Fr 15:45; Sa 09:45", "note": "ON 12/24 AND 12/31, THIS BOX MAY BE COLLECTED AS EARLY AS 12 NOON.", "nsi_id": "unitedstatespostalservice-a77078", "operator": "United States Postal Service", "operator:short": "USPS", "operator:type": "public", "operator:wikidata": "Q668687", "ref": "6467000003"}, "type": "Feature"}
{"geometry": {"coordinates": [-94.100906873, 40.07625812], "type": "Point"}, "id": "k7Wap9iCvltG18r3ajBw-ja2OSA=", "properties": {"@source_uri": "https://tools.usps.com/UspsToolsRestServices/rest/POLocator/findLocations", "@spider": "usps_collection_boxes", "addr:city": "PATTONSBURG", "addr:country": "US", "addr:full": "105 2ND AVE", "addr:postcode": "64670", "addr:state": "MO", "amenity": "post_box", "brand": "United States Postal Service", "brand:wikidata": "Q668687", "collection_times": "Mo-Fr 15:45; Sa 09:45", "indoor": "yes", "note": "ON 12/24 AND 12/31, THIS BOX MAY BE COLLECTED AS EARLY AS 12 NOON.", "nsi_id": "unitedstatespostalservice-a77078", "operator": "United States Postal Service", "operator:short": "USPS", "operator:type": "public", "operator:wikidata": "Q668687", "ref": "6467000005"}, "type": "Feature"}
{"geometry": {"coordinates": [-94.039721849, 39.554117708], "type": "Point"}, "id": "mKFpPuY3DvPh8BqFH3hCwgDCyeU=", "properties": {"@source_uri": "https://tools.usps.com/UspsToolsRestServices/rest/POLocator/findLocations", "@spider": "usps_collection_boxes", "addr:city": "POLO", "addr:country": "US", "addr:full": "104 W ELM ST", "addr:postcode": "64671", "addr:state": "MO", "amenity": "post_box", "brand": "United States Postal Service", "brand:wikidata": "Q668687", "collection_times": "Mo-Fr 16:00; Sa 10:30", "note": "ON 12/24 AND 12/31, THIS BOX MAY BE COLLECTED AS EARLY AS 12 NOON.", "nsi_id": "unitedstatespostalservice-a77078", "operator": "United States Postal Service", "operator:short": "USPS", "operator:type": "public", "operator:wikidata": "Q668687", "ref": "6467100000"}, "type": "Feature"}
{"geometry": {"coordinates": [-94.039721849, 39.554117708], "type": "Point"}, "id": "nEvbXeNj4zsavQNTDlUO0cMCZ7A=", "properties": {"@source_uri": "https://tools.usps.com/UspsToolsRestServices/rest/POLocator/findLocations", "@spider": "usps_collection_boxes", "addr:city": "POLO", "addr:country": "US", "addr:full": "104 W ELM ST", "addr:postcode": "64671", "addr:state": "MO", "amenity": "post_box", "brand": "United States Postal Service", "brand:wikidata": "Q668687", "collection_times": "Mo-Fr 16:00; Sa 10:30", "indoor": "yes", "note": "ON 12/24 AND 12/31, THIS BOX MAY BE COLLECTED AS EARLY AS 12 NOON.", "nsi_id": "unitedstatespostalservice-a77078", "operator": "United States Postal Service", "operator:short": "USPS", "operator:type": "public", "operator:wikidata": "Q668687", "ref": "6467100001"}, "type": "Feature"}
{"geometry": {"coordinates": [-94.039721849, 39.554117708], "type": "Point"}, "id": "52LYBD9uaSuhLMKeeiiLinmL1c0=", "properties": {"@source_uri": "https://tools.usps.com/UspsToolsRestServices/rest/POLocator/findLocations", "@spider": "usps_collection_boxes", "addr:city": "POLO", "addr:country": "US", "addr:full": "104 W ELM ST", "addr:postcode": "64671", "addr:state": "MO", "amenity": "post_box", "brand": "United States Postal Service", "brand:wikidata": "Q668687", "collection_times": "Mo-Fr 16:00; Sa 10:30", "indoor": "yes", "note": "ON 12/24 AND 12/31, THIS BOX MAY BE COLLECTED AS EARLY AS 12 NOON.", "nsi_id": "unitedstatespostalservice-a77078", "operator": "United States Postal Service", "operator:short": "USPS", "operator:type": "public", "operator:wikidata": "Q668687", "ref": "6467100003"}, "type": "Feature"}
{"geometry": {"coordinates": [-93.301558087, 40.549393179], "type": "Point"}, "id": "VS9d_LNspcC7pleB_fTRWefJdEc=", "properties": {"@source_uri": "https://tools.usps.com/UspsToolsRestServices/rest/POLocator/findLocations", "@spider": "usps_collection_boxes", "addr:city": "POWERSVILLE", "addr:country": "US", "addr:full": "203 MAIN ST", "addr:postcode": "64672", "addr:state": "MO", "amenity": "post_box", "brand": "United States Postal Service", "brand:wikidata": "Q668687", "collection_times": "Mo-Fr 10:45; Sa 13:15", "note": "ON 12/24 AND 12/31, THIS BOX MAY BE COLLECTED AS EARLY AS 12 NOON.", "nsi_id": "unitedstatespostalservice-a77078", "operator": "United States Postal Service", "operator:short": "USPS", "operator:type": "public", "operator:wikidata": "Q668687", "ref": "6467200000"}, "type": "Feature"}
{"geometry": {"coordinates": [-93.301558087, 40.549393179], "type": "Point"}, "id": "cyewQECDK0jwbxD5C7P3svs29_0=", "properties": {"@source_uri": "https://tools.usps.com/UspsToolsRestServices/rest/POLocator/findLocations", "@spider": "usps_collection_boxes", "addr:city": "POWERSVILLE", "addr:country": "US", "addr:full": "203 MAIN ST", "addr:postcode": "64672", "addr:state": "MO", "amenity": "post_box", "brand": "United States Postal Service", "brand:wikidata": "Q668687", "collection_times": "Mo-Fr 10:45; Sa 13:15", "indoor": "yes", "note": "ON 12/24 AND 12/31, THIS BOX MAY BE COLLECTED AS EARLY AS 12 NOON.", "nsi_id": "unitedstatespostalservice-a77078", "operator": "United States Postal Service", "operator:short": "USPS", "operator:type": "public", "operator:wikidata": "Q668687", "ref": "6467200001"}, "type": "Feature"}
{"geometry": {"coordinates": [-93.301558087, 40.549393179], "type": "Point"}, "id": "Sa5Ks9Xb7Z9KYbA7_-pHPCyRGJE=", "properties": {"@source_uri": "https://tools.usps.com/UspsToolsRestServices/rest/POLocator/findLocations", "@spider": "usps_collection_boxes", "addr:city": "POWERSVILLE", "addr:country": "US", "addr:full": "203 MAIN ST", "addr:postcode": "64672", "addr:state": "MO", "amenity": "post_box", "brand": "United States Postal Service", "brand:wikidata": "Q668687", "collection_times": "Mo-Fr 10:45; Sa 13:15", "indoor": "yes", "note": "ON 12/24 AND 12/31, THIS BOX MAY BE COLLECTED AS EARLY AS 12 NOON.", "nsi_id": "unitedstatespostalservice-a77078", "operator": "United States Postal Service", "operator:short": "USPS", "operator:type": "public", "operator:wikidata": "Q668687", "ref": "6467200002"}, "type": "Feature"}
{"geometry": {"coordinates": [-93.301558087, 40.549393179], "type": "Point"}, "id": "nJdrdsUHQfvzxCKnmQmD9FRAuJ4=", "properties": {"@source_uri": "https://tools.usps.com/UspsToolsRestServices/rest/POLocator/findLocations", "@spider": "usps_collection_boxes", "addr:city": "POWERSVILLE", "addr:country": "US", "addr:full": "203 MAIN ST", "addr:postcode": "64672", "addr:state": "MO", "amenity": "post_box", "brand": "United States Postal Service", "brand:wikidata": "Q668687", "collection_times": "Mo-Fr 10:45; Sa 13:15", "indoor": "yes", "note": "ON 12/24 AND 12/31, THIS BOX MAY BE COLLECTED AS EARLY AS 12 NOON.", "nsi_id": "unitedstatespostalservice-a77078", "operator": "United States Postal Service", "operator:short": "USPS", "operator:type": "public", "operator:wikidata": "Q668687", "ref": "6467200004"}, "type": "Feature"}
{"geometry": {"coordinates": [-93.586211058, 40.396542803], "type": "Point"}, "id": "Pc1qqH-y1CMYHR3a9iSJd14oYA4=", "properties": {"@source_uri": "https://tools.usps.com/UspsToolsRestServices/rest/POLocator/findLocations", "@spider": "usps_collection_boxes", "addr:city": "PRINCETON", "addr:country": "US", "addr:full": "204 S BROADWAY ST", "addr:postcode": "64673", "addr:state": "MO", "amenity": "post_box", "brand": "United States Postal Service", "brand:wikidata": "Q668687", "collection_times": "Mo-Fr 16:15; Sa 10:15", "note": "ON 12/24 AND 12/31, THIS BOX MAY BE COLLECTED AS EARLY AS 12 NOON.", "nsi_id": "unitedstatespostalservice-a77078", "operator": "United States Postal Service", "operator:short": "USPS", "operator:type": "public", "operator:wikidata": "Q668687", "ref": "6467300002"}, "type": "Feature"}
{"geometry": {"coordinates": [-93.586211058, 40.396542803], "type": "Point"}, "id": "pGJ7EPNykuYVV_0IuJTs44DUH0I=", "properties": {"@source_uri": "https://tools.usps.com/UspsToolsRestServices/rest/POLocator/findLocations", "@spider": "usps_collection_boxes", "addr:city": "PRINCETON", "addr:country": "US", "addr:full": "204 S BROADWAY ST", "addr:postcode": "64673", "addr:state": "MO", "amenity": "post_box", "brand": "United States Postal Service", "brand:wikidata": "Q668687", "collection_times": "Mo-Fr 16:15; Sa 10:15", "indoor": "yes", "note": "ON 12/24 AND 12/31, THIS BOX MAY BE COLLECTED AS EARLY AS 12 NOON.", "nsi_id": "unitedstatespostalservice-a77078", "operator": "United States Postal Service", "operator:short": "USPS", "operator:type": "public", "operator:wikidata": "Q668687", "ref": "6467300006"}, "type": "Feature"}
{"geometry": {"coordinates": [-93.586211058, 40.396542803], "type": "Point"}, "id": "2kwVXyLQRmo1CDqFqNXbPFmbjSM=", "properties": {"@source_uri": "https://tools.usps.com/UspsToolsRestServices/rest/POLocator/findLocations", "@spider": "usps_collection_boxes", "addr:city": "PRINCETON", "addr:country": "US", "addr:full": "204 S BROADWAY ST", "addr:postcode": "64673", "addr:state": "MO", "amenity": "post_box", "brand": "United States Postal Service", "brand:wikidata": "Q668687", "collection_times": "Mo-Fr 16:15; Sa 10:15", "indoor": "yes", "note": "ON 12/24 AND 12/31, THIS BOX MAY BE COLLECTED AS EARLY AS 12 NOON.", "nsi_id": "unitedstatespostalservice-a77078", "operator": "United States Postal Service", "operator:short": "USPS", "operator:type": "public", "operator:wikidata": "Q668687", "ref": "6467300010"}, "type": "Feature"}
{"geometry": {"coordinates": [-93.1659847407, 39.9522626905], "type": "Point"}, "id": "UeGhRn_hxvSJlajNlwLx-lsjbpc=", "properties": {"@source_uri": "https://tools.usps.com/UspsToolsRestServices/rest/POLocator/findLocations", "@spider": "usps_collection_boxes", "addr:city": "PURDIN", "addr:country": "US", "addr:full": "401 C ST", "addr:postcode": "64674", "addr:state": "MO", "amenity": "post_box", "brand": "United States Postal Service", "brand:wikidata": "Q668687", "collection_times": "Mo-Fr 11:45; Sa 09:30", "nsi_id": "unitedstatespostalservice-a77078", "operator": "United States Postal Service", "operator:short": "USPS", "operator:type": "public", "operator:wikidata": "Q668687", "ref": "6467400000"}, "type": "Feature"}
{"geometry": {"coordinates": [-93.1659847407, 39.9522626905], "type": "Point"}, "id": "v4PwhrRH2zDFas52Eve9mxVFgxU=", "properties": {"@source_uri": "https://tools.usps.com/UspsToolsRestServices/rest/POLocator/findLocations", "@spider": "usps_collection_boxes", "addr:city": "PURDIN", "addr:country": "US", "addr:full": "401 C ST", "addr:postcode": "64674", "addr:state": "MO", "amenity": "post_box", "brand": "United States Postal Service", "brand:wikidata": "Q668687", "collection_times": "Mo-Fr 11:45; Sa 09:30", "indoor": "yes", "nsi_id": "unitedstatespostalservice-a77078", "operator": "United States Postal Service", "operator:short": "USPS", "operator:type": "public", "operator:wikidata": "Q668687", "ref": "6467400001"}, "type": "Feature"}
{"geometry": {"coordinates": [-93.1659847407, 39.9522626905], "type": "Point"}, "id": "qxd48OMAVFyozkle_vj2eWVfNZ4=", "properties": {"@source_uri": "https://tools.usps.com/UspsToolsRestServices/rest/POLocator/findLocations", "@spider": "usps_collection_boxes", "addr:city": "PURDIN", "addr:country": "US", "addr:full": "401 C ST", "addr:postcode": "64674", "addr:state": "MO", "amenity": "post_box", "brand": "United States Postal Service", "brand:wikidata": "Q668687", "collection_times": "Mo-Fr 11:45; Sa 09:30", "indoor": "yes", "nsi_id": "unitedstatespostalservice-a77078", "operator": "United States Postal Service", "operator:short": "USPS", "operator:type": "public", "operator:wikidata": "Q668687", "ref": "6467400003"}, "type": "Feature"}
{"geometry": {"coordinates": [-93.058660723, 39.653522506], "type": "Point"}, "id": "1NpEMcP59ouSTZ0mJSE4fg2EXos=", "properties": {"@source_uri": "https://tools.usps.com/UspsToolsRestServices/rest/POLocator/findLocations", "@spider": "usps_collection_boxes", "addr:city": "ROTHVILLE", "addr:country": "US", "addr:full": "209 MAIN ST", "addr:postcode": "64676", "addr:state": "MO", "amenity": "post_box", "brand": "United States Postal Service", "brand:wikidata": "Q668687", "collection_times": "Mo-Sa 12:15", "indoor": "yes", "note": "ON 12/24 AND 12/31, THIS BOX MAY BE COLLECTED AS EARLY AS 12 NOON.", "nsi_id": "unitedstatespostalservice-a77078", "operator": "United States Postal Service", "operator:short": "USPS", "operator:type": "public", "operator:wikidata": "Q668687", "ref": "6467600001"}, "type": "Feature"}
{"geometry": {"coordinates": [-93.058660723, 39.653522506], "type": "Point"}, "id": "MLvvseIDlzgz-1c6nufi370VZ3w=", "properties": {"@source_uri": "https://tools.usps.com/UspsToolsRestServices/rest/POLocator/findLocations", "@spider": "usps_collection_boxes", "addr:city": "ROTHVILLE", "addr:country": "US", "addr:full": "209 MAIN ST", "addr:postcode": "64676", "addr:state": "MO", "amenity": "post_box", "brand": "United States Postal Service", "brand:wikidata": "Q668687", "collection_times": "Mo-Sa 12:15", "note": "ON 12/24 AND 12/31, THIS BOX MAY BE COLLECTED AS EARLY AS 12 NOON.", "nsi_id": "unitedstatespostalservice-a77078", "operator": "United States Postal Service", "operator:short": "USPS", "operator:type": "public", "operator:wikidata": "Q668687", "ref": "6467600003"}, "type": "Feature"}
{"geometry": {"coordinates": [-93.058660723, 39.653522506], "type": "Point"}, "id": "H5BVjRzd8kYJ9gIVvaG6-xaCcPI=", "properties": {"@source_uri": "https://tools.usps.com/UspsToolsRestServices/rest/POLocator/findLocations", "@spider": "usps_collection_boxes", "addr:city": "ROTHVILLE", "addr:country": "US", "addr:full": "209 MAIN ST", "addr:postcode": "64676", "addr:state": "MO", "amenity": "post_box", "brand": "United States Postal Service", "brand:wikidata": "Q668687", "collection_times": "Mo-Sa 12:15", "indoor": "yes", "note": "ON 12/24 AND 12/31, THIS BOX MAY BE COLLECTED AS EARLY AS 12 NOON.", "nsi_id": "unitedstatespostalservice-a77078", "operator": "United States Postal Service", "operator:short": "USPS", "operator:type": "public", "operator:wikidata": "Q668687", "ref": "6467600005"}, "type": "Feature"}
{"geometry": {"coordinates": [-93.595523821, 40.248794349], "type": "Point"}, "id": "qFjpYW2qvRDQnOweZnrfetgLVUI=", "properties": {"@source_uri": "https://tools.usps.com/UspsToolsRestServices/rest/POLocator/findLocations", "@spider": "usps_collection_boxes", "addr:city": "SPICKARD", "addr:country": "US", "addr:full": "303 N 2ND ST", "addr:postcode": "64679", "addr:state": "MO", "amenity": "post_box", "brand": "United States Postal Service", "brand:wikidata": "Q668687", "collection_times": "Mo-Fr 15:45; Sa 13:45", "note": "ON 12/24 AND 12/31, THIS BOX MAY BE COLLECTED AS EARLY AS 12 NOON.", "nsi_id": "unitedstatespostalservice-a77078", "operator": "United States Postal Service", "operator:short": "USPS", "operator:type": "public", "operator:wikidata": "Q668687", "ref": "6467900000"}, "type": "Feature"}
{"geometry": {"coordinates": [-93.595912025, 40.243993998], "type": "Point"}, "id": "5PMwX8g9hEPJKuzXBJEUmEGQkuk=", "properties": {"@source_uri": "https://tools.usps.com/UspsToolsRestServices/rest/POLocator/findLocations", "@spider": "usps_collection_boxes", "addr:city": "SPICKARD", "addr:country": "US", "addr:full": "303 N 2ND ST", "addr:postcode": "64679", "addr:state": "MO", "amenity": "post_box", "brand": "United States Postal Service", "brand:wikidata": "Q668687", "collection_times": "Mo-Fr 15:45; Sa 13:45", "indoor": "yes", "note": "ON 12/24 AND 12/31, THIS BOX MAY BE COLLECTED AS EARLY AS 12 NOON.", "nsi_id": "unitedstatespostalservice-a77078", "operator": "United States Postal Service", "operator:short": "USPS", "operator:type": "public", "operator:wikidata": "Q668687", "ref": "6467900001"}, "type": "Feature"}
{"geometry": {"coordinates": [-93.595912025, 40.243993998], "type": "Point"}, "id": "WRJt5rw02iU6JsC6pUQQWaDxJdw=", "properties": {"@source_uri": "https://tools.usps.com/UspsToolsRestServices/rest/POLocator/findLocations", "@spider": "usps_collection_boxes", "addr:city": "SPICKARD", "addr:country": "US", "addr:full": "303 N 2ND ST", "addr:postcode": "64679", "addr:state": "MO", "amenity": "post_box", "brand": "United States Postal Service", "brand:wikidata": "Q668687", "collection_times": "Mo-Fr 15:45; Sa 13:45", "indoor": "yes", "note": "ON 12/24 AND 12/31, THIS BOX MAY BE COLLECTED AS EARLY AS 12 NOON.", "nsi_id": "unitedstatespostalservice-a77078", "operator": "United States Postal Service", "operator:short": "USPS", "operator:type": "public", "operator:wikidata": "Q668687", "ref": "6467900002"}, "type": "Feature"}
{"geometry": {"coordinates": [-93.595523821, 40.248794349], "type": "Point"}, "id": "JmgSOuEpeScEup1tLKwcViMYvUk=", "properties": {"@source_uri": "https://tools.usps.com/UspsToolsRestServices/rest/POLocator/findLocations", "@spider": "usps_collection_boxes", "addr:city": "SPICKARD", "addr:country": "US", "addr:full": "303 N 2ND ST", "addr:postcode": "64679", "addr:state": "MO", "amenity": "post_box", "brand": "United States Postal Service", "brand:wikidata": "Q668687", "collection_times": "Mo-Fr 15:45; Sa 13:45", "indoor": "yes", "note": "ON 12/24 AND 12/31, THIS BOX MAY BE COLLECTED AS EARLY AS 12 NOON.", "nsi_id": "unitedstatespostalservice-a77078", "operator": "United States Postal Service", "operator:short": "USPS", "operator:type": "public", "operator:wikidata": "Q668687", "ref": "6467900004"}, "type": "Feature"}
{"geometry": {"coordinates": [-93.2440792364, 39.6561937636], "type": "Point"}, "id": "6l0ZpSFOseLkrcZSnvp4yPhkeBk=", "properties": {"@source_uri": "https://tools.usps.com/UspsToolsRestServices/rest/POLocator/findLocations", "@spider": "usps_collection_boxes", "addr:city": "SUMNER", "addr:country": "US", "addr:full": "200 W CENTER ST", "addr:postcode": "64681", "addr:state": "MO", "amenity": "post_box", "brand": "United States Postal Service", "brand:wikidata": "Q668687", "collection_times": "Mo-Fr 15:45; Sa 14:15", "note": "ON 12/24 AND 12/31, THIS BOX MAY BE COLLECTED AS EARLY AS 12 NOON.", "nsi_id": "unitedstatespostalservice-a77078", "operator": "United States Postal Service", "operator:short": "USPS", "operator:type": "public", "operator:wikidata": "Q668687", "ref": "6468100000"}, "type": "Feature"}
{"geometry": {"coordinates": [-93.2440792364, 39.6561937636], "type": "Point"}, "id": "wRuRS8WjYkc5kvUmEH6XEXeJZ74=", "properties": {"@source_uri": "https://tools.usps.com/UspsToolsRestServices/rest/POLocator/findLocations", "@spider": "usps_collection_boxes", "addr:city": "SUMNER", "addr:country": "US", "addr:full": "200 W CENTER ST", "addr:postcode": "64681", "addr:state": "MO", "amenity": "post_box", "brand": "United States Postal Service", "brand:wikidata": "Q668687", "collection_times": "Mo-Fr 15:45; Sa 14:15", "indoor": "yes", "note": "ON 12/24 AND 12/31, THIS BOX MAY BE COLLECTED AS EARLY AS 12 NOON.", "nsi_id": "unitedstatespostalservice-a77078", "operator": "United States Postal Service", "operator:short": "USPS", "operator:type": "public", "operator:wikidata": "Q668687", "ref": "6468100001"}, "type": "Feature"}
{"geometry": {"coordinates": [-93.2440792364, 39.6561937636], "type": "Point"}, "id": "qdRMEYQAEfk6hbLTRQA5wvjwuIY=", "properties": {"@source_uri": "https://tools.usps.com/UspsToolsRestServices/rest/POLocator/findLocations", "@spider": "usps_collection_boxes", "addr:city": "SUMNER", "addr:country": "US", "addr:full": "200 W CENTER ST", "addr:postcode": "64681", "addr:state": "MO", "amenity": "post_box", "brand": "United States Postal Service", "brand:wikidata": "Q668687", "collection_times": "Mo-Fr 15:45; Sa 14:15", "indoor": "yes", "note": "ON 12/24 AND 12/31, THIS BOX MAY BE COLLECTED AS EARLY AS 12 NOON.", "nsi_id": "unitedstatespostalservice-a77078", "operator": "United States Postal Service", "operator:short": "USPS", "operator:type": "public", "operator:wikidata": "Q668687", "ref": "6468100003"}, "type": "Feature"}
{"geometry": {"coordinates": [-93.438605724, 39.536275963], "type": "Point"}, "id": "4ridDkDgzRwk0EsJkmqhEnuv5ZM=", "properties": {"@source_uri": "https://tools.usps.com/UspsToolsRestServices/rest/POLocator/findLocations", "@spider": "usps_collection_boxes", "addr:city": "TINA", "addr:country": "US", "addr:full": "201 N MAIN ST", "addr:postcode": "64682", "addr:state": "MO", "amenity": "post_box", "brand": "United States Postal Service", "brand:wikidata": "Q668687", "collection_times": "Mo-Sa 13:45", "note": "ON 12/24 AND 12/31, THIS BOX MAY BE COLLECTED AS EARLY AS 12 NOON.", "nsi_id": "unitedstatespostalservice-a77078", "operator": "United States Postal Service", "operator:short": "USPS", "operator:type": "public", "operator:wikidata": "Q668687", "ref": "6468200000"}, "type": "Feature"}
{"geometry": {"coordinates": [-93.438605724, 39.536275963], "type": "Point"}, "id": "-CJ-rK4YhGKXDVZBMRFDLMeF698=", "properties": {"@source_uri": "https://tools.usps.com/UspsToolsRestServices/rest/POLocator/findLocations", "@spider": "usps_collection_boxes", "addr:city": "TINA", "addr:country": "US", "addr:full": "201 N MAIN ST", "addr:postcode": "64682", "addr:state": "MO", "amenity": "post_box", "brand": "United States Postal Service", "brand:wikidata": "Q668687", "collection_times": "Mo-Sa 13:45", "indoor": "yes", "note": "ON 12/24 AND 12/31, THIS BOX MAY BE COLLECTED AS EARLY AS 12 NOON.", "nsi_id": "unitedstatespostalservice-a77078", "operator": "United States Postal Service", "operator:short": "USPS", "operator:type": "public", "operator:wikidata": "Q668687", "ref": "6468200001"}, "type": "Feature"}
{"geometry": {"coordinates": [-93.438605724, 39.536275963], "type": "Point"}, "id": "SUPOu2xbkw6hcOvhRBnvb_gfOnA=", "properties": {"@source_uri": "https://tools.usps.com/UspsToolsRestServices/rest/POLocator/findLocations", "@spider": "usps_collection_boxes", "addr:city": "TINA", "addr:country": "US", "addr:full": "201 N MAIN ST", "addr:postcode": "64682", "addr:state": "MO", "amenity": "post_box", "brand": "United States Postal Service", "brand:wikidata": "Q668687", "collection_times": "Mo-Sa 13:45", "indoor": "yes", "note": "ON 12/24 AND 12/31, THIS BOX MAY BE COLLECTED AS EARLY AS 12 NOON.", "nsi_id": "unitedstatespostalservice-a77078", "operator": "United States Postal Service", "operator:short": "USPS", "operator:type": "public", "operator:wikidata": "Q668687", "ref": "6468200003"}, "type": "Feature"}
{"geometry": {"coordinates": [-93.61842569, 40.07614769], "type": "Point"}, "id": "uZvwxTLMfOfgm2MbnldfCtnqKJw=", "properties": {"@source_uri": "https://tools.usps.com/UspsToolsRestServices/rest/POLocator/findLocations", "@spider": "usps_collection_boxes", "addr:city": "TRENTON", "addr:country": "US", "addr:full": "201 W 11TH ST", "addr:postcode": "64683", "addr:state": "MO", "amenity": "post_box", "brand": "United States Postal Service", "brand:wikidata": "Q668687", "collection_times": "Mo-Fr 16:15; Sa 10:45", "note": "ON 12/24 AND 12/31, THIS BOX MAY BE COLLECTED AS EARLY AS 12 NOON.", "nsi_id": "unitedstatespostalservice-a77078", "operator": "United States Postal Service", "operator:short": "USPS", "operator:type": "public", "operator:wikidata": "Q668687", "ref": "6468300001"}, "type": "Feature"}
{"geometry": {"coordinates": [-93.603960375, 40.089314374], "type": "Point"}, "id": "Aew38EBQv0sVHYpf99TtYZfdHpk=", "properties": {"@source_uri": "https://tools.usps.com/UspsToolsRestServices/rest/POLocator/findLocations", "@spider": "usps_collection_boxes", "addr:city": "TRENTON", "addr:country": "US", "addr:full": "2711 OKLAHOMA AVE", "addr:postcode": "64683", "addr:state": "MO", "amenity": "post_box", "brand": "United States Postal Service", "brand:wikidata": "Q668687", "collection_times": "Mo-Fr 15:00; Sa 14:30", "note": "ON 12/24 AND 12/31, THIS BOX MAY BE COLLECTED AS EARLY AS 12 NOON.", "nsi_id": "unitedstatespostalservice-a77078", "operator": "United States Postal Service", "operator:short": "USPS", "operator:type": "public", "operator:wikidata": "Q668687", "ref": "6468300005"}, "type": "Feature"}
{"geometry": {"coordinates": [-93.619240214, 40.073630745], "type": "Point"}, "id": "Hr8q_gbggdvTX0EYqE7yQ7_0Jac=", "properties": {"@source_uri": "https://tools.usps.com/UspsToolsRestServices/rest/POLocator/findLocations", "@spider": "usps_collection_boxes", "addr:city": "TRENTON", "addr:country": "US", "addr:full": "700 MAIN ST", "addr:postcode": "64683", "addr:state": "MO", "amenity": "post_box", "brand": "United States Postal Service", "brand:wikidata": "Q668687", "collection_times": "Mo-Fr 15:00; Sa 14:30", "note": "ON 12/24 AND 12/31, THIS BOX MAY BE COLLECTED AS EARLY AS 12 NOON.", "nsi_id": "unitedstatespostalservice-a77078", "operator": "United States Postal Service", "operator:short": "USPS", "operator:type": "public", "operator:wikidata": "Q668687", "ref": "6468300011"}, "type": "Feature"}
{"geometry": {"coordinates": [-93.599547312, 40.074234312], "type": "Point"}, "id": "MeGMsqPzV3lzqjXh-P1DnJX6WsA=", "properties": {"@source_uri": "https://tools.usps.com/UspsToolsRestServices/rest/POLocator/findLocations", "@spider": "usps_collection_boxes", "addr:city": "TRENTON", "addr:country": "US", "addr:full": "1800 E 9TH ST", "addr:postcode": "64683", "addr:state": "MO", "amenity": "post_box", "brand": "United States Postal Service", "brand:wikidata": "Q668687", "collection_times": "Mo-Sa 15:00", "note": "ON 12/24 AND 12/31, THIS BOX MAY BE COLLECTED AS EARLY AS 12 NOON.", "nsi_id": "unitedstatespostalservice-a77078", "operator": "United States Postal Service", "operator:short": "USPS", "operator:type": "public", "operator:wikidata": "Q668687", "ref": "6468300012"}, "type": "Feature"}
{"geometry": {"coordinates": [-93.61842569, 40.07614769], "type": "Point"}, "id": "75yqc1CmtC9Xo17Mbdbgq44rilA=", "properties": {"@source_uri": "https://tools.usps.com/UspsToolsRestServices/rest/POLocator/findLocations", "@spider": "usps_collection_boxes", "addr:city": "TRENTON", "addr:country": "US", "addr:full": "201 W 11TH ST", "addr:postcode": "64683", "addr:state": "MO", "amenity": "post_box", "brand": "United States Postal Service", "brand:wikidata": "Q668687", "collection_times": "Mo-Fr 16:15; Sa 10:45", "indoor": "yes", "note": "ON 12/24 AND 12/31, THIS BOX MAY BE COLLECTED AS EARLY AS 12 NOON.", "nsi_id": "unitedstatespostalservice-a77078", "operator": "United States Postal Service", "operator:short": "USPS", "operator:type": "public", "operator:wikidata": "Q668687", "ref": "6468300018"}, "type": "Feature"}
{"geometry": {"coordinates": [-93.6184258777, 40.0761568777], "type": "Point"}, "id": "nxqW3a65iRuZOEg-Z9PAQdcXAJw=", "properties": {"@source_uri": "https://tools.usps.com/UspsToolsRestServices/rest/POLocator/findLocations", "@spider": "usps_collection_boxes", "addr:city": "TRENTON", "addr:country": "US", "addr:full": "201 W 11TH ST", "addr:postcode": "64683", "addr:state": "MO", "amenity": "post_box", "brand": "United States Postal Service", "brand:wikidata": "Q668687", "collection_times": "Mo-Fr 16:15; Sa 10:45", "indoor": "yes", "note": "ON 12/24 AND 12/31, THIS BOX MAY BE COLLECTED AS EARLY AS 12 NOON.", "nsi_id": "unitedstatespostalservice-a77078", "operator": "United States Postal Service", "operator:short": "USPS", "operator:type": "public", "operator:wikidata": "Q668687", "ref": "6468300021"}, "type": "Feature"}
{"geometry": {"coordinates": [-93.6276999105, 39.7479151711], "type": "Point"}, "id": "XceFjx-QZsG_6SdIduNKAPfAMEw=", "properties": {"@source_uri": "https://tools.usps.com/UspsToolsRestServices/rest/POLocator/findLocations", "@spider": "usps_collection_boxes", "addr:city": "UTICA", "addr:country": "US", "addr:full": "509 W THROOP ST", "addr:postcode": "64686", "addr:state": "MO", "amenity": "post_box", "brand": "United States Postal Service", "brand:wikidata": "Q668687", "collection_times": "Mo-Fr 11:45; Sa 09:45", "nsi_id": "unitedstatespostalservice-a77078", "operator": "United States Postal Service", "operator:short": "USPS", "operator:type": "public", "operator:wikidata": "Q668687", "ref": "6468600000"}, "type": "Feature"}
{"geometry": {"coordinates": [-93.6276999105, 39.7479151711], "type": "Point"}, "id": "csUrm6cht7gWfyymuhS8xB1kaXQ=", "properties": {"@source_uri": "https://tools.usps.com/UspsToolsRestServices/rest/POLocator/findLocations", "@spider": "usps_collection_boxes", "addr:city": "UTICA", "addr:country": "US", "addr:full": "509 W THROOP ST", "addr:postcode": "64686", "addr:state": "MO", "amenity": "post_box", "brand": "United States Postal Service", "brand:wikidata": "Q668687", "collection_times": "Mo-Fr 11:45; Sa 09:45", "indoor": "yes", "nsi_id": "unitedstatespostalservice-a77078", "operator": "United States Postal Service", "operator:short": "USPS", "operator:type": "public", "operator:wikidata": "Q668687", "ref": "6468600001"}, "type": "Feature"}
{"geometry": {"coordinates": [-93.6276999105, 39.7479151711], "type": "Point"}, "id": "lgPJA3W05vMQJMTz0OdeXlPba9I=", "properties": {"@source_uri": "https://tools.usps.com/UspsToolsRestServices/rest/POLocator/findLocations", "@spider": "usps_collection_boxes", "addr:city": "UTICA", "addr:country": "US", "addr:full": "509 W THROOP ST", "addr:postcode": "64686", "addr:state": "MO", "amenity": "post_box", "brand": "United States Postal Service", "brand:wikidata": "Q668687", "collection_times": "Mo-Fr 11:45; Sa 09:45", "indoor": "yes", "nsi_id": "unitedstatespostalservice-a77078", "operator": "United States Postal Service", "operator:short": "USPS", "operator:type": "public", "operator:wikidata": "Q668687", "ref": "6468600004"}, "type": "Feature"}
{"geometry": {"coordinates": [-93.385865969, 39.787450427], "type": "Point"}, "id": "hPSkG-xRUeYno3ee2nvI13E7ymI=", "properties": {"@source_uri": "https://tools.usps.com/UspsToolsRestServices/rest/POLocator/findLocations", "@spider": "usps_collection_boxes", "addr:city": "WHEELING", "addr:country": "US", "addr:full": "104 N GRANT ST", "addr:postcode": "64688", "addr:state": "MO", "amenity": "post_box", "brand": "United States Postal Service", "brand:wikidata": "Q668687", "collection_times": "Mo-Fr 14:45; Sa 13:45", "note": "ON 12/24 AND 12/31, THIS BOX MAY BE COLLECTED AS EARLY AS 12 NOON.", "nsi_id": "unitedstatespostalservice-a77078", "operator": "United States Postal Service", "operator:short": "USPS", "operator:type": "public", "operator:wikidata": "Q668687", "ref": "6468800000"}, "type": "Feature"}
{"geometry": {"coordinates": [-93.385865969, 39.787450427], "type": "Point"}, "id": "KPtg3ad9KS6VeF8n4sMl0e2x0Uw=", "properties": {"@source_uri": "https://tools.usps.com/UspsToolsRestServices/rest/POLocator/findLocations", "@spider": "usps_collection_boxes", "addr:city": "WHEELING", "addr:country": "US", "addr:full": "104 N GRANT ST", "addr:postcode": "64688", "addr:state": "MO", "amenity": "post_box", "brand": "United States Postal Service", "brand:wikidata": "Q668687", "collection_times": "Mo-Fr 14:45; Sa 13:45", "indoor": "yes", "note": "ON 12/24 AND 12/31, THIS BOX MAY BE COLLECTED AS EARLY AS 12 NOON.", "nsi_id": "unitedstatespostalservice-a77078", "operator": "United States Postal Service", "operator:short": "USPS", "operator:type": "public", "operator:wikidata": "Q668687", "ref": "6468800001"}, "type": "Feature"}
{"geometry": {"coordinates": [-93.385865969, 39.787450427], "type": "Point"}, "id": "1e-1zj1JaCrkfW_HvrUc2eOKsiE=", "properties": {"@source_uri": "https://tools.usps.com/UspsToolsRestServices/rest/POLocator/findLocations", "@spider": "usps_collection_boxes", "addr:city": "WHEELING", "addr:country": "US", "addr:full": "104 N GRANT ST", "addr:postcode": "64688", "addr:state": "MO", "amenity": "post_box", "brand": "United States Postal Service", "brand:wikidata": "Q668687", "collection_times": "Mo-Fr 14:45; Sa 13:45", "indoor": "yes", "note": "ON 12/24 AND 12/31, THIS BOX MAY BE COLLECTED AS EARLY AS 12 NOON.", "nsi_id": "unitedstatespostalservice-a77078", "operator": "United States Postal Service", "operator:short": "USPS", "operator:type": "public", "operator:wikidata": "Q668687", "ref": "6468800003"}, "type": "Feature"}
{"geometry": {"coordinates": [-94.141397155, 39.870392456], "type": "Point"}, "id": "euUGs97HVVPjJGkh1C7Y6DNkUXE=", "properties": {"@source_uri": "https://tools.usps.com/UspsToolsRestServices/rest/POLocator/findLocations", "@spider": "usps_collection_boxes", "addr:city": "WINSTON", "addr:country": "US", "addr:full": "101 W 2ND ST", "addr:postcode": "64689", "addr:state": "MO", "amenity": "post_box", "brand": "United States Postal Service", "brand:wikidata": "Q668687", "collection_times": "Mo-Fr 11:45; Sa 09:45", "nsi_id": "unitedstatespostalservice-a77078", "operator": "United States Postal Service", "operator:short": "USPS", "operator:type": "public", "operator:wikidata": "Q668687", "ref": "6468900000"}, "type": "Feature"}
{"geometry": {"coordinates": [-94.1414001508, 39.8703855068], "type": "Point"}, "id": "i4bAyQTRhwBmmZBKKD4MVFSs7tU=", "properties": {"@source_uri": "https://tools.usps.com/UspsToolsRestServices/rest/POLocator/findLocations", "@spider": "usps_collection_boxes", "addr:city": "WINSTON", "addr:country": "US", "addr:full": "101 W 2ND ST", "addr:postcode": "64689", "addr:state": "MO", "amenity": "post_box", "brand": "United States Postal Service", "brand:wikidata": "Q668687", "collection_times": "Mo-Fr 11:45; Sa 09:45", "indoor": "yes", "nsi_id": "unitedstatespostalservice-a77078", "operator": "United States Postal Service", "operator:short": "USPS", "operator:type": "public", "operator:wikidata": "Q668687", "ref": "6468900005"}, "type": "Feature"}
{"geometry": {"coordinates": [-94.141397155, 39.870392456], "type": "Point"}, "id": "AKAwyM2pWk0ikEjoXni44OCCRK4=", "properties": {"@source_uri": "https://tools.usps.com/UspsToolsRestServices/rest/POLocator/findLocations", "@spider": "usps_collection_boxes", "addr:city": "WINSTON", "addr:country": "US", "addr:full": "101 W 2ND ST", "addr:postcode": "64689", "addr:state": "MO", "amenity": "post_box", "brand": "United States Postal Service", "brand:wikidata": "Q668687", "collection_times": "Mo-Fr 11:45; Sa 09:45", "indoor": "yes", "nsi_id": "unitedstatespostalservice-a77078", "operator": "United States Postal Service", "operator:short": "USPS", "operator:type": "public", "operator:wikidata": "Q668687", "ref": "6468900006"}, "type": "Feature"}
