{"dataset_attributes": {"@spider": "usps_collection_boxes", "spider:collection_time": "2023-10-25T08:26:15.836184"}, "geometry": {"coordinates": [-94.3661972, 38.662046], "type": "Point"}, "id": "4Uu66m9esS_z_q9ybc_EkvwRgCs=", "properties": {"@spider": "usps_collection_boxes", "addr:city": "HARRISONVILLE", "addr:country": "US", "addr:full": "2001 N COMMERCIAL ST", "addr:postcode": "64701", "addr:state": "MO", "amenity": "post_box", "brand": "United States Postal Service", "brand:wikidata": "Q668687", "collection_times": "Mo-Sa 11:00", "name": "USPS COLLECTION BOX - BLUE BOX", "nsi_id": "unitedstatespostalservice-a77078", "operator": "United States Postal Service", "operator:short": "USPS", "operator:type": "public", "operator:wikidata": "Q668687", "ref": "6470100010"}, "type": "Feature"}
{"dataset_attributes": {"@spider": "usps_collection_boxes", "spider:collection_time": "2023-10-25T08:26:15.836184"}, "geometry": {"coordinates": [-94.346961, 38.653093], "type": "Point"}, "id": "7pfUQAVvR-agRdK7He4lMhvrsaI=", "properties": {"@spider": "usps_collection_boxes", "addr:city": "HARRISONVILLE", "addr:country": "US", "addr:full": "305 E MECHANIC ST", "addr:postcode": "64701", "addr:state": "MO", "amenity": "post_box", "brand": "United States Postal Service", "brand:wikidata": "Q668687", "collection_times": "Mo-Fr 17:15; Sa 15:00", "name": "USPS COLLECTION BOX - PO LOBBY", "note": "ON 12/24 AND 12/31, THIS BOX MAY BE COLLECTED AS EARLY AS 12 NOON.", "nsi_id": "unitedstatespostalservice-a77078", "operator": "United States Postal Service", "operator:short": "USPS", "operator:type": "public", "operator:wikidata": "Q668687", "ref": "6470100015"}, "type": "Feature"}
{"dataset_attributes": {"@spider": "usps_collection_boxes", "spider:collection_time": "2023-10-25T08:26:15.836184"}, "geometry": {"coordinates": [-94.346961, 38.653093], "type": "Point"}, "id": "fwEA_fTfI5LRveu_G8IYsY2anIE=", "properties": {"@spider": "usps_collection_boxes", "addr:city": "HARRISONVILLE", "addr:country": "US", "addr:full": "305 E MECHANIC ST", "addr:postcode": "64701", "addr:state": "MO", "amenity": "post_box", "brand": "United States Postal Service", "brand:wikidata": "Q668687", "collection_times": "Mo-Fr 17:15; Sa 15:00", "name": "USPS COLLECTION BOX - BLUE BOX", "note": "ON 12/24 AND 12/31, THIS BOX MAY BE COLLECTED AS EARLY AS 12 NOON.", "nsi_id": "unitedstatespostalservice-a77078", "operator": "United States Postal Service", "operator:short": "USPS", "operator:type": "public", "operator:wikidata": "Q668687", "ref": "6470100019"}, "type": "Feature"}
{"dataset_attributes": {"@spider": "usps_collection_boxes", "spider:collection_time": "2023-10-25T08:26:15.836184"}, "geometry": {"coordinates": [-94.3728589613, 38.6595019878], "type": "Point"}, "id": "3C1O3FlQszpFir9QEcUVMmAvW-s=", "properties": {"@spider": "usps_collection_boxes", "addr:city": "HARRISONVILLE", "addr:country": "US", "addr:full": "2600 CANTRELL RD", "addr:postcode": "64701", "addr:state": "MO", "amenity": "post_box", "brand": "United States Postal Service", "brand:wikidata": "Q668687", "collection_times": "Mo-Sa 10:00", "name": "USPS COLLECTION BOX - BLUE BOX", "nsi_id": "unitedstatespostalservice-a77078", "operator": "United States Postal Service", "operator:short": "USPS", "operator:type": "public", "operator:wikidata": "Q668687", "ref": "6470100023"}, "type": "Feature"}
{"dataset_attributes": {"@spider": "usps_collection_boxes", "spider:collection_time": "2023-10-25T08:26:15.836184"}, "geometry": {"coordinates": [-94.346944638, 38.653060528], "type": "Point"}, "id": "ikRcIy6rCSNP1IFpbBdwu7oY4IE=", "properties": {"@spider": "usps_collection_boxes", "addr:city": "HARRISONVILLE", "addr:country": "US", "addr:full": "305 E MECHANIC ST", "addr:postcode": "64701", "addr:state": "MO", "amenity": "post_box", "brand": "United States Postal Service", "brand:wikidata": "Q668687", "collection_times": "Mo-Fr 17:00; Sa 12:00", "name": "USPS COLLECTION BOX - PO LOBBY", "note": "ON 12/24 AND 12/31, THIS BOX MAY BE COLLECTED AS EARLY AS 12 NOON.", "nsi_id": "unitedstatespostalservice-a77078", "operator": "United States Postal Service", "operator:short": "USPS", "operator:type": "public", "operator:wikidata": "Q668687", "ref": "6470100026"}, "type": "Feature"}
{"dataset_attributes": {"@spider": "usps_collection_boxes", "spider:collection_time": "2023-10-25T08:26:15.836184"}, "geometry": {"coordinates": [-94.3512955, 38.396928], "type": "Point"}, "id": "pPFsDpk3Y7Rc_YzvVtQD1fLcAgk=", "properties": {"@spider": "usps_collection_boxes", "addr:city": "ADRIAN", "addr:country": "US", "addr:full": "127 E MAIN ST", "addr:postcode": "64720", "addr:state": "MO", "amenity": "post_box", "brand": "United States Postal Service", "brand:wikidata": "Q668687", "collection_times": "Mo-Fr 15:45; Sa 09:45", "name": "USPS COLLECTION BOX - BLUE BOX", "note": "ON 12/24 AND 12/31, THIS BOX MAY BE COLLECTED AS EARLY AS 12 NOON.", "nsi_id": "unitedstatespostalservice-a77078", "operator": "United States Postal Service", "operator:short": "USPS", "operator:type": "public", "operator:wikidata": "Q668687", "ref": "6472000001"}, "type": "Feature"}
{"dataset_attributes": {"@spider": "usps_collection_boxes", "spider:collection_time": "2023-10-25T08:26:15.836184"}, "geometry": {"coordinates": [-94.3510659, 38.397152], "type": "Point"}, "id": "-RNAgev8bWbzL6aJcK9gbYnnIlE=", "properties": {"@spider": "usps_collection_boxes", "addr:city": "ADRIAN", "addr:country": "US", "addr:full": "127 E MAIN ST", "addr:postcode": "64720", "addr:state": "MO", "amenity": "post_box", "brand": "United States Postal Service", "brand:wikidata": "Q668687", "collection_times": "Mo-Fr 15:45; Sa 09:45", "name": "USPS COLLECTION BOX - PO LOBBY", "note": "ON 12/24 AND 12/31, THIS BOX MAY BE COLLECTED AS EARLY AS 12 NOON.", "nsi_id": "unitedstatespostalservice-a77078", "operator": "United States Postal Service", "operator:short": "USPS", "operator:type": "public", "operator:wikidata": "Q668687", "ref": "6472000002"}, "type": "Feature"}
{"dataset_attributes": {"@spider": "usps_collection_boxes", "spider:collection_time": "2023-10-25T08:26:15.836184"}, "geometry": {"coordinates": [-94.3510432, 38.397188], "type": "Point"}, "id": "hQ4FbK49iMZJwdNQntcBVh2rkB8=", "properties": {"@spider": "usps_collection_boxes", "addr:city": "ADRIAN", "addr:country": "US", "addr:full": "127 E MAIN ST", "addr:postcode": "64720", "addr:state": "MO", "amenity": "post_box", "brand": "United States Postal Service", "brand:wikidata": "Q668687", "collection_times": "Mo-Fr 15:45; Sa 09:45", "name": "USPS COLLECTION BOX - PO LOBBY", "note": "ON 12/24 AND 12/31, THIS BOX MAY BE COLLECTED AS EARLY AS 12 NOON.", "nsi_id": "unitedstatespostalservice-a77078", "operator": "United States Postal Service", "operator:short": "USPS", "operator:type": "public", "operator:wikidata": "Q668687", "ref": "6472000003"}, "type": "Feature"}
{"dataset_attributes": {"@spider": "usps_collection_boxes", "spider:collection_time": "2023-10-25T08:26:15.836184"}, "geometry": {"coordinates": [-94.3510629446, 38.3973784701], "type": "Point"}, "id": "zQUbtPXZY23YepikQCrR0y4YnlM=", "properties": {"@spider": "usps_collection_boxes", "addr:city": "ADRIAN", "addr:country": "US", "addr:full": "127 E MAIN ST", "addr:postcode": "64720", "addr:state": "MO", "amenity": "post_box", "brand": "United States Postal Service", "brand:wikidata": "Q668687", "collection_times": "Mo-Fr 16:30; Sa 10:00", "name": "USPS COLLECTION BOX - PO LOBBY", "note": "ON 12/24 AND 12/31, THIS BOX MAY BE COLLECTED AS EARLY AS 12 NOON.", "nsi_id": "unitedstatespostalservice-a77078", "operator": "United States Postal Service", "operator:short": "USPS", "operator:type": "public", "operator:wikidata": "Q668687", "ref": "6472000004"}, "type": "Feature"}
{"dataset_attributes": {"@spider": "usps_collection_boxes", "spider:collection_time": "2023-10-25T08:26:15.836184"}, "geometry": {"coordinates": [-94.612667, 38.256772], "type": "Point"}, "id": "NCKpyAMxX523rtTPxMJr1e2_zAY=", "properties": {"@spider": "usps_collection_boxes", "addr:city": "AMORET", "addr:country": "US", "addr:full": "101 STATE ROUTE 52", "addr:postcode": "64722", "addr:state": "MO", "amenity": "post_box", "brand": "United States Postal Service", "brand:wikidata": "Q668687", "collection_times": "Mo-Fr 14:45; Sa 09:45", "name": "USPS COLLECTION BOX - BLUE BOX", "note": "ON 12/24 AND 12/31, THIS BOX MAY BE COLLECTED AS EARLY AS 12 NOON.", "nsi_id": "unitedstatespostalservice-a77078", "operator": "United States Postal Service", "operator:short": "USPS", "operator:type": "public", "operator:wikidata": "Q668687", "ref": "6472200000"}, "type": "Feature"}
{"dataset_attributes": {"@spider": "usps_collection_boxes", "spider:collection_time": "2023-10-25T08:26:15.836184"}, "geometry": {"coordinates": [-94.612667, 38.256772], "type": "Point"}, "id": "_nr8iU8C4bZu0xTCUzFN17BYD0U=", "properties": {"@spider": "usps_collection_boxes", "addr:city": "AMORET", "addr:country": "US", "addr:full": "101 STATE ROUTE 52", "addr:postcode": "64722", "addr:state": "MO", "amenity": "post_box", "brand": "United States Postal Service", "brand:wikidata": "Q668687", "collection_times": "Mo-Sa 14:45", "name": "USPS COLLECTION BOX - PO LOBBY", "note": "ON 12/24 AND 12/31, THIS BOX MAY BE COLLECTED AS EARLY AS 12 NOON.", "nsi_id": "unitedstatespostalservice-a77078", "operator": "United States Postal Service", "operator:short": "USPS", "operator:type": "public", "operator:wikidata": "Q668687", "ref": "6472200001"}, "type": "Feature"}
{"dataset_attributes": {"@spider": "usps_collection_boxes", "spider:collection_time": "2023-10-25T08:26:15.836184"}, "geometry": {"coordinates": [-94.587299723, 38.254958254], "type": "Point"}, "id": "2a6C3b1f8NZsUNWbS0Csj0yEj3A=", "properties": {"@spider": "usps_collection_boxes", "addr:city": "AMORET", "addr:country": "US", "addr:full": "101 STATE ROUTE 52", "addr:postcode": "64722", "addr:state": "MO", "amenity": "post_box", "brand": "United States Postal Service", "brand:wikidata": "Q668687", "collection_times": "Mo-Sa 14:45", "name": "USPS COLLECTION BOX - PO LOBBY", "note": "ON 12/24 AND 12/31, THIS BOX MAY BE COLLECTED AS EARLY AS 12 NOON.", "nsi_id": "unitedstatespostalservice-a77078", "operator": "United States Postal Service", "operator:short": "USPS", "operator:type": "public", "operator:wikidata": "Q668687", "ref": "6472200002"}, "type": "Feature"}
{"dataset_attributes": {"@spider": "usps_collection_boxes", "spider:collection_time": "2023-10-25T08:26:15.836184"}, "geometry": {"coordinates": [-94.5867553851, 38.3500060495], "type": "Point"}, "id": "9xqV5wEtnqyU_UwNz5KAIBmsNxM=", "properties": {"@spider": "usps_collection_boxes", "addr:city": "AMSTERDAM", "addr:country": "US", "addr:full": "101 MAIN ST", "addr:postcode": "64723", "addr:state": "MO", "amenity": "post_box", "brand": "United States Postal Service", "brand:wikidata": "Q668687", "collection_times": "Mo-Fr 12:15; Sa 09:45", "name": "USPS COLLECTION BOX - BLUE BOX", "note": "ON 12/24 AND 12/31, THIS BOX MAY BE COLLECTED AS EARLY AS 12 NOON.", "nsi_id": "unitedstatespostalservice-a77078", "operator": "United States Postal Service", "operator:short": "USPS", "operator:type": "public", "operator:wikidata": "Q668687", "ref": "6472300000"}, "type": "Feature"}
{"dataset_attributes": {"@spider": "usps_collection_boxes", "spider:collection_time": "2023-10-25T08:26:15.836184"}, "geometry": {"coordinates": [-94.5868, 38.34995], "type": "Point"}, "id": "0-WjyQ0ediAeNb9beCvBjGD5A6w=", "properties": {"@spider": "usps_collection_boxes", "addr:city": "AMSTERDAM", "addr:country": "US", "addr:full": "101 MAIN ST", "addr:postcode": "64723", "addr:state": "MO", "amenity": "post_box", "brand": "United States Postal Service", "brand:wikidata": "Q668687", "collection_times": "Mo-Fr 12:00; Sa 09:30", "name": "USPS COLLECTION BOX - PO LOBBY", "nsi_id": "unitedstatespostalservice-a77078", "operator": "United States Postal Service", "operator:short": "USPS", "operator:type": "public", "operator:wikidata": "Q668687", "ref": "6472300001"}, "type": "Feature"}
{"dataset_attributes": {"@spider": "usps_collection_boxes", "spider:collection_time": "2023-10-25T08:26:15.836184"}, "geometry": {"coordinates": [-94.588904304, 38.349905971], "type": "Point"}, "id": "nH_9aZPBUkKW8MkHf7wkvcEnbog=", "properties": {"@spider": "usps_collection_boxes", "addr:city": "AMSTERDAM", "addr:country": "US", "addr:full": "13151 NW MAIN ST", "addr:postcode": "64723", "addr:state": "MO", "amenity": "post_box", "brand": "United States Postal Service", "brand:wikidata": "Q668687", "collection_times": "Mo-Fr 12:30; Sa 10:00", "name": "USPS COLLECTION BOX - PO LOBBY", "note": "ON 12/24 AND 12/31, THIS BOX MAY BE COLLECTED AS EARLY AS 12 NOON.", "nsi_id": "unitedstatespostalservice-a77078", "operator": "United States Postal Service", "operator:short": "USPS", "operator:type": "public", "operator:wikidata": "Q668687", "ref": "6472300002"}, "type": "Feature"}
{"dataset_attributes": {"@spider": "usps_collection_boxes", "spider:collection_time": "2023-10-25T08:26:15.836184"}, "geometry": {"coordinates": [-94.040589, 38.190875], "type": "Point"}, "id": "X5ZJ6mpSrcjGIwIHzdMpy3gvsDo=", "properties": {"@spider": "usps_collection_boxes", "addr:city": "APPLETON CITY", "addr:country": "US", "addr:full": "119 W 4TH ST", "addr:postcode": "64724", "addr:state": "MO", "amenity": "post_box", "brand": "United States Postal Service", "brand:wikidata": "Q668687", "collection_times": "Mo-Fr 15:45; Sa 10:15", "name": "USPS COLLECTION BOX - PO LOBBY", "note": "ON 12/24 AND 12/31, THIS BOX MAY BE COLLECTED AS EARLY AS 12 NOON.", "nsi_id": "unitedstatespostalservice-a77078", "operator": "United States Postal Service", "operator:short": "USPS", "operator:type": "public", "operator:wikidata": "Q668687", "ref": "6472400005"}, "type": "Feature"}
{"dataset_attributes": {"@spider": "usps_collection_boxes", "spider:collection_time": "2023-10-25T08:26:15.836184"}, "geometry": {"coordinates": [-94.0267407, 38.19037], "type": "Point"}, "id": "wpZguwx0Rzw5gJ6M0AJ86xJfASE=", "properties": {"@spider": "usps_collection_boxes", "addr:city": "APPLETON CITY", "addr:country": "US", "addr:full": "118 E 4TH ST", "addr:postcode": "64724", "addr:state": "MO", "amenity": "post_box", "brand": "United States Postal Service", "brand:wikidata": "Q668687", "collection_times": "Mo-Sa 14:45", "name": "USPS COLLECTION BOX - BLUE BOX", "note": "ON 12/24 AND 12/31, THIS BOX MAY BE COLLECTED AS EARLY AS 12 NOON.", "nsi_id": "unitedstatespostalservice-a77078", "operator": "United States Postal Service", "operator:short": "USPS", "operator:type": "public", "operator:wikidata": "Q668687", "ref": "6472400006"}, "type": "Feature"}
{"dataset_attributes": {"@spider": "usps_collection_boxes", "spider:collection_time": "2023-10-25T08:26:15.836184"}, "geometry": {"coordinates": [-94.02721, 38.18941], "type": "Point"}, "id": "cHZDzJXXtn9Grxu8EqLWBjGIqtM=", "properties": {"@spider": "usps_collection_boxes", "addr:city": "APPLETON CITY", "addr:country": "US", "addr:full": "119 W 4TH ST", "addr:postcode": "64724", "addr:state": "MO", "amenity": "post_box", "brand": "United States Postal Service", "brand:wikidata": "Q668687", "collection_times": "Mo-Fr 15:45; Sa 10:15", "name": "USPS COLLECTION BOX - BLUE BOX", "note": "ON 12/24 AND 12/31, THIS BOX MAY BE COLLECTED AS EARLY AS 12 NOON.", "nsi_id": "unitedstatespostalservice-a77078", "operator": "United States Postal Service", "operator:short": "USPS", "operator:type": "public", "operator:wikidata": "Q668687", "ref": "6472400007"}, "type": "Feature"}
{"dataset_attributes": {"@spider": "usps_collection_boxes", "spider:collection_time": "2023-10-25T08:26:15.836184"}, "geometry": {"coordinates": [-94.028257257, 38.190605001], "type": "Point"}, "id": "frMb76a2ysOtSiDuwOO9qWIBJXs=", "properties": {"@spider": "usps_collection_boxes", "addr:city": "APPLETON CITY", "addr:country": "US", "addr:full": "119 W 4TH ST", "addr:postcode": "64724", "addr:state": "MO", "amenity": "post_box", "brand": "United States Postal Service", "brand:wikidata": "Q668687", "collection_times": "Mo-Fr 15:45; Sa 10:30", "name": "USPS COLLECTION BOX - PO LOBBY", "note": "ON 12/24 AND 12/31, THIS BOX MAY BE COLLECTED AS EARLY AS 12 NOON.", "nsi_id": "unitedstatespostalservice-a77078", "operator": "United States Postal Service", "operator:short": "USPS", "operator:type": "public", "operator:wikidata": "Q668687", "ref": "6472400009"}, "type": "Feature"}
{"dataset_attributes": {"@spider": "usps_collection_boxes", "spider:collection_time": "2023-10-25T08:26:15.836184"}, "geometry": {"coordinates": [-94.35385, 38.482634], "type": "Point"}, "id": "U1WWb02vOfqHRayy_VFol-S-lC8=", "properties": {"@spider": "usps_collection_boxes", "addr:city": "ARCHIE", "addr:country": "US", "addr:full": "208 S MAIN ST", "addr:postcode": "64725", "addr:state": "MO", "amenity": "post_box", "brand": "United States Postal Service", "brand:wikidata": "Q668687", "collection_times": "Mo-Fr 16:00; Sa 11:45", "name": "USPS COLLECTION BOX - BLUE BOX", "note": "ON 12/24 AND 12/31, THIS BOX MAY BE COLLECTED AS EARLY AS 12 NOON.", "nsi_id": "unitedstatespostalservice-a77078", "operator": "United States Postal Service", "operator:short": "USPS", "operator:type": "public", "operator:wikidata": "Q668687", "ref": "6472500000"}, "type": "Feature"}
{"dataset_attributes": {"@spider": "usps_collection_boxes", "spider:collection_time": "2023-10-25T08:26:15.836184"}, "geometry": {"coordinates": [-94.3448624, 38.479433], "type": "Point"}, "id": "8mYM1uu51UmWIz3vMGbGIl-7FV0=", "properties": {"@spider": "usps_collection_boxes", "addr:city": "ARCHIE", "addr:country": "US", "addr:full": "502 S WEST OUTER RD", "addr:postcode": "64725", "addr:state": "MO", "amenity": "post_box", "brand": "United States Postal Service", "brand:wikidata": "Q668687", "collection_times": "Mo-Sa 12:30", "name": "USPS COLLECTION BOX - BLUE BOX", "note": "ON 12/24 AND 12/31, THIS BOX MAY BE COLLECTED AS EARLY AS 12 NOON.", "nsi_id": "unitedstatespostalservice-a77078", "operator": "United States Postal Service", "operator:short": "USPS", "operator:type": "public", "operator:wikidata": "Q668687", "ref": "6472500001"}, "type": "Feature"}
{"dataset_attributes": {"@spider": "usps_collection_boxes", "spider:collection_time": "2023-10-25T08:26:15.836184"}, "geometry": {"coordinates": [-94.35385, 38.482634], "type": "Point"}, "id": "8InutoyMLmK9nmPhEtzx2BvxU0s=", "properties": {"@spider": "usps_collection_boxes", "addr:city": "ARCHIE", "addr:country": "US", "addr:full": "208 S MAIN ST", "addr:postcode": "64725", "addr:state": "MO", "amenity": "post_box", "brand": "United States Postal Service", "brand:wikidata": "Q668687", "collection_times": "Mo-Fr 16:00; Sa 11:45", "name": "USPS COLLECTION BOX - PO LOBBY", "note": "ON 12/24 AND 12/31, THIS BOX MAY BE COLLECTED AS EARLY AS 12 NOON.", "nsi_id": "unitedstatespostalservice-a77078", "operator": "United States Postal Service", "operator:short": "USPS", "operator:type": "public", "operator:wikidata": "Q668687", "ref": "6472500003"}, "type": "Feature"}
{"dataset_attributes": {"@spider": "usps_collection_boxes", "spider:collection_time": "2023-10-25T08:26:15.836184"}, "geometry": {"coordinates": [-94.353930056, 38.482601205], "type": "Point"}, "id": "pBrmw3e03cfHeJp70ZyQ-M1top4=", "properties": {"@spider": "usps_collection_boxes", "addr:city": "ARCHIE", "addr:country": "US", "addr:full": "208 S MAIN ST", "addr:postcode": "64725", "addr:state": "MO", "amenity": "post_box", "brand": "United States Postal Service", "brand:wikidata": "Q668687", "collection_times": "Mo-Fr 16:00; Sa 11:45", "name": "USPS COLLECTION BOX - PO LOBBY", "note": "ON 12/24 AND 12/31, THIS BOX MAY BE COLLECTED AS EARLY AS 12 NOON.", "nsi_id": "unitedstatespostalservice-a77078", "operator": "United States Postal Service", "operator:short": "USPS", "operator:type": "public", "operator:wikidata": "Q668687", "ref": "6472500005"}, "type": "Feature"}
{"dataset_attributes": {"@spider": "usps_collection_boxes", "spider:collection_time": "2023-10-25T08:26:15.836184"}, "geometry": {"coordinates": [-93.960564, 38.555004], "type": "Point"}, "id": "7vLEaU4AAh10Q62D2WkZaN08Iqo=", "properties": {"@spider": "usps_collection_boxes", "addr:city": "BLAIRSTOWN", "addr:country": "US", "addr:full": "120 N MAIN ST", "addr:postcode": "64726", "addr:state": "MO", "amenity": "post_box", "brand": "United States Postal Service", "brand:wikidata": "Q668687", "collection_times": "Mo-Fr 15:30; Sa 16:00", "name": "USPS COLLECTION BOX - BLUE BOX", "note": "ON 12/24 AND 12/31, THIS BOX MAY BE COLLECTED AS EARLY AS 12 NOON.", "nsi_id": "unitedstatespostalservice-a77078", "operator": "United States Postal Service", "operator:short": "USPS", "operator:type": "public", "operator:wikidata": "Q668687", "ref": "6472600000"}, "type": "Feature"}
{"dataset_attributes": {"@spider": "usps_collection_boxes", "spider:collection_time": "2023-10-25T08:26:15.836184"}, "geometry": {"coordinates": [-93.960564, 38.555004], "type": "Point"}, "id": "ocYsWUDiWC9zhsUWk-bjRgirDWo=", "properties": {"@spider": "usps_collection_boxes", "addr:city": "BLAIRSTOWN", "addr:country": "US", "addr:full": "120 N MAIN ST", "addr:postcode": "64726", "addr:state": "MO", "amenity": "post_box", "brand": "United States Postal Service", "brand:wikidata": "Q668687", "collection_times": "Mo-Fr 11:15; Sa 09:15", "name": "USPS COLLECTION BOX - PO LOBBY", "nsi_id": "unitedstatespostalservice-a77078", "operator": "United States Postal Service", "operator:short": "USPS", "operator:type": "public", "operator:wikidata": "Q668687", "ref": "6472600001"}, "type": "Feature"}
{"dataset_attributes": {"@spider": "usps_collection_boxes", "spider:collection_time": "2023-10-25T08:26:15.836184"}, "geometry": {"coordinates": [-93.960568857, 38.555504329], "type": "Point"}, "id": "ZJb_f1Rl2FpoknU6c8UVmhDZ-Kw=", "properties": {"@spider": "usps_collection_boxes", "addr:city": "BLAIRSTOWN", "addr:country": "US", "addr:full": "120 N MAIN ST", "addr:postcode": "64726", "addr:state": "MO", "amenity": "post_box", "brand": "United States Postal Service", "brand:wikidata": "Q668687", "collection_times": "Mo-Fr 11:30; Sa 11:00", "name": "USPS COLLECTION BOX - PO LOBBY", "nsi_id": "unitedstatespostalservice-a77078", "operator": "United States Postal Service", "operator:short": "USPS", "operator:type": "public", "operator:wikidata": "Q668687", "ref": "6472600002"}, "type": "Feature"}
{"dataset_attributes": {"@spider": "usps_collection_boxes", "spider:collection_time": "2023-10-25T08:26:15.836184"}, "geometry": {"coordinates": [-94.4693159752, 37.6930270194], "type": "Point"}, "id": "mzoO5xnaKiIshVl77xNDkagDaOY=", "properties": {"@spider": "usps_collection_boxes", "addr:city": "BRONAUGH", "addr:country": "US", "addr:full": "101 W 4TH ST", "addr:postcode": "64728", "addr:state": "MO", "amenity": "post_box", "brand": "United States Postal Service", "brand:wikidata": "Q668687", "collection_times": "Mo-Fr 11:45; Sa 09:45", "name": "USPS COLLECTION BOX - BLUE BOX", "nsi_id": "unitedstatespostalservice-a77078", "operator": "United States Postal Service", "operator:short": "USPS", "operator:type": "public", "operator:wikidata": "Q668687", "ref": "6472800000"}, "type": "Feature"}
{"dataset_attributes": {"@spider": "usps_collection_boxes", "spider:collection_time": "2023-10-25T08:26:15.836184"}, "geometry": {"coordinates": [-94.4693159752, 37.6930270194], "type": "Point"}, "id": "XtVvf5a8NzJF_9kaouB3o3Nvb_o=", "properties": {"@spider": "usps_collection_boxes", "addr:city": "BRONAUGH", "addr:country": "US", "addr:full": "101 W 4TH ST", "addr:postcode": "64728", "addr:state": "MO", "amenity": "post_box", "brand": "United States Postal Service", "brand:wikidata": "Q668687", "collection_times": "Mo-Fr 11:30; Sa 09:30", "name": "USPS COLLECTION BOX - PO LOBBY", "nsi_id": "unitedstatespostalservice-a77078", "operator": "United States Postal Service", "operator:short": "USPS", "operator:type": "public", "operator:wikidata": "Q668687", "ref": "6472800001"}, "type": "Feature"}
{"dataset_attributes": {"@spider": "usps_collection_boxes", "spider:collection_time": "2023-10-25T08:26:15.836184"}, "geometry": {"coordinates": [-94.4693159752, 37.6930270194], "type": "Point"}, "id": "xSs1CqoI_cUpHGoV4fxnYHJ8_I8=", "properties": {"@spider": "usps_collection_boxes", "addr:city": "BRONAUGH", "addr:country": "US", "addr:full": "101 W 4TH ST", "addr:postcode": "64728", "addr:state": "MO", "amenity": "post_box", "brand": "United States Postal Service", "brand:wikidata": "Q668687", "collection_times": "Mo-Fr 12:00; Sa 10:00", "name": "USPS COLLECTION BOX - PO LOBBY", "nsi_id": "unitedstatespostalservice-a77078", "operator": "United States Postal Service", "operator:short": "USPS", "operator:type": "public", "operator:wikidata": "Q668687", "ref": "6472800003"}, "type": "Feature"}
{"dataset_attributes": {"@spider": "usps_collection_boxes", "spider:collection_time": "2023-10-25T08:26:15.836184"}, "geometry": {"coordinates": [-94.333329, 38.258551], "type": "Point"}, "id": "u_yuaUgT8a8-IorAPYSLvRcHQMQ=", "properties": {"@spider": "usps_collection_boxes", "addr:city": "BUTLER", "addr:country": "US", "addr:full": "114 W OHIO ST", "addr:postcode": "64730", "addr:state": "MO", "amenity": "post_box", "brand": "United States Postal Service", "brand:wikidata": "Q668687", "collection_times": "Mo-Fr 16:15; Sa 11:15", "name": "USPS COLLECTION BOX - BLUE BOX", "note": "ON 12/24 AND 12/31, THIS BOX MAY BE COLLECTED AS EARLY AS 12 NOON.", "nsi_id": "unitedstatespostalservice-a77078", "operator": "United States Postal Service", "operator:short": "USPS", "operator:type": "public", "operator:wikidata": "Q668687", "ref": "6473000001"}, "type": "Feature"}
{"dataset_attributes": {"@spider": "usps_collection_boxes", "spider:collection_time": "2023-10-25T08:26:15.836184"}, "geometry": {"coordinates": [-94.3318417, 38.257952], "type": "Point"}, "id": "YJ6SJRJ_hf-arpGIoAKkXX1kvUQ=", "properties": {"@spider": "usps_collection_boxes", "addr:city": "BUTLER", "addr:country": "US", "addr:full": "15 N MAIN ST", "addr:postcode": "64730", "addr:state": "MO", "amenity": "post_box", "brand": "United States Postal Service", "brand:wikidata": "Q668687", "collection_times": "Mo-Fr 14:00", "name": "USPS COLLECTION BOX - BLUE BOX", "note": "ON 12/24 AND 12/31, THIS BOX MAY BE COLLECTED AS EARLY AS 12 NOON.", "nsi_id": "unitedstatespostalservice-a77078", "operator": "United States Postal Service", "operator:short": "USPS", "operator:type": "public", "operator:wikidata": "Q668687", "ref": "6473000002"}, "type": "Feature"}
{"dataset_attributes": {"@spider": "usps_collection_boxes", "spider:collection_time": "2023-10-25T08:26:15.836184"}, "geometry": {"coordinates": [-94.3483194, 38.256649], "type": "Point"}, "id": "fRzbwl8KWpi8OKeDauODCiYmv24=", "properties": {"@spider": "usps_collection_boxes", "addr:city": "BUTLER", "addr:country": "US", "addr:full": "909 W FORT SCOTT ST", "addr:postcode": "64730", "addr:state": "MO", "amenity": "post_box", "brand": "United States Postal Service", "brand:wikidata": "Q668687", "collection_times": "Mo-Sa 10:00", "name": "USPS COLLECTION BOX - BLUE BOX", "nsi_id": "unitedstatespostalservice-a77078", "operator": "United States Postal Service", "operator:short": "USPS", "operator:type": "public", "operator:wikidata": "Q668687", "ref": "6473000007"}, "type": "Feature"}
{"dataset_attributes": {"@spider": "usps_collection_boxes", "spider:collection_time": "2023-10-25T08:26:15.836184"}, "geometry": {"coordinates": [-94.3425599, 38.264206], "type": "Point"}, "id": "c1kZtk7_5AQXXMgSZ4tTKPDd9dI=", "properties": {"@spider": "usps_collection_boxes", "addr:city": "BUTLER", "addr:country": "US", "addr:full": "700 W MILL ST", "addr:postcode": "64730", "addr:state": "MO", "amenity": "post_box", "brand": "United States Postal Service", "brand:wikidata": "Q668687", "collection_times": "Mo-Fr 13:00; Sa 12:00", "name": "USPS COLLECTION BOX - BLUE BOX", "note": "ON 12/24 AND 12/31, THIS BOX MAY BE COLLECTED AS EARLY AS 12 NOON.", "nsi_id": "unitedstatespostalservice-a77078", "operator": "United States Postal Service", "operator:short": "USPS", "operator:type": "public", "operator:wikidata": "Q668687", "ref": "6473000010"}, "type": "Feature"}
{"dataset_attributes": {"@spider": "usps_collection_boxes", "spider:collection_time": "2023-10-25T08:26:15.836184"}, "geometry": {"coordinates": [-94.333247, 38.258523], "type": "Point"}, "id": "AiubfZy9MYxEmRHEMAjhO8CZ2ho=", "properties": {"@spider": "usps_collection_boxes", "addr:city": "BUTLER", "addr:country": "US", "addr:full": "114 W OHIO ST", "addr:postcode": "64730", "addr:state": "MO", "amenity": "post_box", "brand": "United States Postal Service", "brand:wikidata": "Q668687", "collection_times": "Mo-Fr 16:15; Sa 11:15", "name": "USPS COLLECTION BOX - PO LOBBY", "note": "ON 12/24 AND 12/31, THIS BOX MAY BE COLLECTED AS EARLY AS 12 NOON.", "nsi_id": "unitedstatespostalservice-a77078", "operator": "United States Postal Service", "operator:short": "USPS", "operator:type": "public", "operator:wikidata": "Q668687", "ref": "6473000012"}, "type": "Feature"}
{"dataset_attributes": {"@spider": "usps_collection_boxes", "spider:collection_time": "2023-10-25T08:26:15.836184"}, "geometry": {"coordinates": [-94.3428831, 38.249322], "type": "Point"}, "id": "_KNiz7BZB90VRP2MXBS_NNT8w9E=", "properties": {"@spider": "usps_collection_boxes", "addr:city": "BUTLER", "addr:country": "US", "addr:full": "615 W NURSERY ST", "addr:postcode": "64730", "addr:state": "MO", "amenity": "post_box", "brand": "United States Postal Service", "brand:wikidata": "Q668687", "collection_times": "Mo-Fr 14:00; Sa 12:00", "name": "USPS COLLECTION BOX - BLUE BOX", "note": "ON 12/24 AND 12/31, THIS BOX MAY BE COLLECTED AS EARLY AS 12 NOON.", "nsi_id": "unitedstatespostalservice-a77078", "operator": "United States Postal Service", "operator:short": "USPS", "operator:type": "public", "operator:wikidata": "Q668687", "ref": "6473000015"}, "type": "Feature"}
{"dataset_attributes": {"@spider": "usps_collection_boxes", "spider:collection_time": "2023-10-25T08:26:15.836184"}, "geometry": {"coordinates": [-94.3333521811, 38.2585901771], "type": "Point"}, "id": "y5Wec2csXU1LF8x5OZRjTKeWI_g=", "properties": {"@spider": "usps_collection_boxes", "addr:city": "BUTLER", "addr:country": "US", "addr:full": "114 W OHIO ST", "addr:postcode": "64730", "addr:state": "MO", "amenity": "post_box", "brand": "United States Postal Service", "brand:wikidata": "Q668687", "collection_times": "Mo-Fr 16:30; Sa 11:30", "name": "USPS COLLECTION BOX - PO LOBBY", "note": "ON 12/24 AND 12/31, THIS BOX MAY BE COLLECTED AS EARLY AS 12 NOON.", "nsi_id": "unitedstatespostalservice-a77078", "operator": "United States Postal Service", "operator:short": "USPS", "operator:type": "public", "operator:wikidata": "Q668687", "ref": "6473000017"}, "type": "Feature"}
{"dataset_attributes": {"@spider": "usps_collection_boxes", "spider:collection_time": "2023-10-25T08:26:15.836184"}, "geometry": {"coordinates": [-93.854681665, 38.589047453], "type": "Point"}, "id": "bi9yjGUmXucaVDqxvz0iquzvDgM=", "properties": {"@spider": "usps_collection_boxes", "addr:city": "CHILHOWEE", "addr:country": "US", "addr:full": "111 E WALNUT ST", "addr:postcode": "64733", "addr:state": "MO", "amenity": "post_box", "brand": "United States Postal Service", "brand:wikidata": "Q668687", "collection_times": "Mo-Fr 16:15; Sa 12:30", "name": "USPS COLLECTION BOX - BLUE BOX", "note": "ON 12/24 AND 12/31, THIS BOX MAY BE COLLECTED AS EARLY AS 12 NOON.", "nsi_id": "unitedstatespostalservice-a77078", "operator": "United States Postal Service", "operator:short": "USPS", "operator:type": "public", "operator:wikidata": "Q668687", "ref": "6473300000"}, "type": "Feature"}
{"dataset_attributes": {"@spider": "usps_collection_boxes", "spider:collection_time": "2023-10-25T08:26:15.836184"}, "geometry": {"coordinates": [-93.855394, 38.589038], "type": "Point"}, "id": "PkjLOYiKi--DpuGydfmw3uAySnM=", "properties": {"@spider": "usps_collection_boxes", "addr:city": "CHILHOWEE", "addr:country": "US", "addr:full": "111 E WALNUT ST", "addr:postcode": "64733", "addr:state": "MO", "amenity": "post_box", "brand": "United States Postal Service", "brand:wikidata": "Q668687", "collection_times": "Mo-Fr 16:15; Sa 12:30", "name": "USPS COLLECTION BOX - PO LOBBY", "note": "ON 12/24 AND 12/31, THIS BOX MAY BE COLLECTED AS EARLY AS 12 NOON.", "nsi_id": "unitedstatespostalservice-a77078", "operator": "United States Postal Service", "operator:short": "USPS", "operator:type": "public", "operator:wikidata": "Q668687", "ref": "6473300001"}, "type": "Feature"}
{"dataset_attributes": {"@spider": "usps_collection_boxes", "spider:collection_time": "2023-10-25T08:26:15.836184"}, "geometry": {"coordinates": [-93.854681665, 38.589047453], "type": "Point"}, "id": "g9HjRSblaip1FmWMmVGMHuPODzA=", "properties": {"@spider": "usps_collection_boxes", "addr:city": "CHILHOWEE", "addr:country": "US", "addr:full": "111 E WALNUT ST", "addr:postcode": "64733", "addr:state": "MO", "amenity": "post_box", "brand": "United States Postal Service", "brand:wikidata": "Q668687", "collection_times": "Mo-Fr 16:15; Sa 12:30", "name": "USPS COLLECTION BOX - PO LOBBY", "note": "ON 12/24 AND 12/31, THIS BOX MAY BE COLLECTED AS EARLY AS 12 NOON.", "nsi_id": "unitedstatespostalservice-a77078", "operator": "United States Postal Service", "operator:short": "USPS", "operator:type": "public", "operator:wikidata": "Q668687", "ref": "6473300002"}, "type": "Feature"}
{"dataset_attributes": {"@spider": "usps_collection_boxes", "spider:collection_time": "2023-10-25T08:26:15.836184"}, "geometry": {"coordinates": [-94.59312, 38.679172], "type": "Point"}, "id": "0q1_EJWF2dZMFhwVH0EC8KigLOg=", "properties": {"@spider": "usps_collection_boxes", "addr:city": "CLEVELAND", "addr:country": "US", "addr:full": "215 MAIN ST", "addr:postcode": "64734", "addr:state": "MO", "amenity": "post_box", "brand": "United States Postal Service", "brand:wikidata": "Q668687", "collection_times": "Mo-Sa 16:00", "name": "USPS COLLECTION BOX - BLUE BOX", "note": "ON 12/24 AND 12/31, THIS BOX MAY BE COLLECTED AS EARLY AS 12 NOON.", "nsi_id": "unitedstatespostalservice-a77078", "operator": "United States Postal Service", "operator:short": "USPS", "operator:type": "public", "operator:wikidata": "Q668687", "ref": "6473400000"}, "type": "Feature"}
{"dataset_attributes": {"@spider": "usps_collection_boxes", "spider:collection_time": "2023-10-25T08:26:15.836184"}, "geometry": {"coordinates": [-94.593136, 38.6792], "type": "Point"}, "id": "Pmwhq1rFOnuRZf5ofCHL83EuDQY=", "properties": {"@spider": "usps_collection_boxes", "addr:city": "CLEVELAND", "addr:country": "US", "addr:full": "215 MAIN ST", "addr:postcode": "64734", "addr:state": "MO", "amenity": "post_box", "brand": "United States Postal Service", "brand:wikidata": "Q668687", "collection_times": "Mo-Fr 14:15; Sa 09:00", "name": "USPS COLLECTION BOX - PO LOBBY", "note": "ON 12/24 AND 12/31, THIS BOX MAY BE COLLECTED AS EARLY AS 12 NOON.", "nsi_id": "unitedstatespostalservice-a77078", "operator": "United States Postal Service", "operator:short": "USPS", "operator:type": "public", "operator:wikidata": "Q668687", "ref": "6473400001"}, "type": "Feature"}
{"dataset_attributes": {"@spider": "usps_collection_boxes", "spider:collection_time": "2023-10-25T08:26:15.836184"}, "geometry": {"coordinates": [-94.593134834, 38.679170565], "type": "Point"}, "id": "V7U39AvM0NXxk2ZhE1ChJb0DIE8=", "properties": {"@spider": "usps_collection_boxes", "addr:city": "CLEVELAND", "addr:country": "US", "addr:full": "215 MAIN ST", "addr:postcode": "64734", "addr:state": "MO", "amenity": "post_box", "brand": "United States Postal Service", "brand:wikidata": "Q668687", "collection_times": "Mo-Fr 14:30; Sa 09:00", "name": "USPS COLLECTION BOX - PO LOBBY", "note": "ON 12/24 AND 12/31, THIS BOX MAY BE COLLECTED AS EARLY AS 12 NOON.", "nsi_id": "unitedstatespostalservice-a77078", "operator": "United States Postal Service", "operator:short": "USPS", "operator:type": "public", "operator:wikidata": "Q668687", "ref": "6473400002"}, "type": "Feature"}
{"dataset_attributes": {"@spider": "usps_collection_boxes", "spider:collection_time": "2023-10-25T08:26:15.836184"}, "geometry": {"coordinates": [-93.774055, 38.370612], "type": "Point"}, "id": "aM_QgFkImvvUahC9HyvqqQLqico=", "properties": {"@spider": "usps_collection_boxes", "addr:city": "CLINTON", "addr:country": "US", "addr:full": "101 S 2ND ST", "addr:postcode": "64735", "addr:state": "MO", "amenity": "post_box", "brand": "United States Postal Service", "brand:wikidata": "Q668687", "collection_times": "Mo-Fr 17:30; Sa 16:30", "name": "USPS COLLECTION BOX - BLUE BOX", "note": "ON 12/24 AND 12/31, THIS BOX MAY BE COLLECTED AS EARLY AS 12 NOON.", "nsi_id": "unitedstatespostalservice-a77078", "operator": "United States Postal Service", "operator:short": "USPS", "operator:type": "public", "operator:wikidata": "Q668687", "ref": "6473500011"}, "type": "Feature"}
{"dataset_attributes": {"@spider": "usps_collection_boxes", "spider:collection_time": "2023-10-25T08:26:15.836184"}, "geometry": {"coordinates": [-93.774055, 38.370612], "type": "Point"}, "id": "dszYCvEdE3h7NWWcpYTM0HegtVs=", "properties": {"@spider": "usps_collection_boxes", "addr:city": "CLINTON", "addr:country": "US", "addr:full": "101 S 2ND ST", "addr:postcode": "64735", "addr:state": "MO", "amenity": "post_box", "brand": "United States Postal Service", "brand:wikidata": "Q668687", "collection_times": "Mo-Fr 17:30; Sa 16:30", "name": "USPS COLLECTION BOX - PO LOBBY", "note": "ON 12/24 AND 12/31, THIS BOX MAY BE COLLECTED AS EARLY AS 12 NOON.", "nsi_id": "unitedstatespostalservice-a77078", "operator": "United States Postal Service", "operator:short": "USPS", "operator:type": "public", "operator:wikidata": "Q668687", "ref": "6473500019"}, "type": "Feature"}
{"dataset_attributes": {"@spider": "usps_collection_boxes", "spider:collection_time": "2023-10-25T08:26:15.836184"}, "geometry": {"coordinates": [-93.774055, 38.370612], "type": "Point"}, "id": "LmyuZsg0Lq_lM2Dwi5M6wZMhiJo=", "properties": {"@spider": "usps_collection_boxes", "addr:city": "CLINTON", "addr:country": "US", "addr:full": "101 S 2ND ST", "addr:postcode": "64735", "addr:state": "MO", "amenity": "post_box", "brand": "United States Postal Service", "brand:wikidata": "Q668687", "collection_times": "Mo-Fr 17:30; Sa 16:30", "name": "USPS COLLECTION BOX - BLUE BOX", "note": "ON 12/24 AND 12/31, THIS BOX MAY BE COLLECTED AS EARLY AS 12 NOON.", "nsi_id": "unitedstatespostalservice-a77078", "operator": "United States Postal Service", "operator:short": "USPS", "operator:type": "public", "operator:wikidata": "Q668687", "ref": "6473500022"}, "type": "Feature"}
{"dataset_attributes": {"@spider": "usps_collection_boxes", "spider:collection_time": "2023-10-25T08:26:15.836184"}, "geometry": {"coordinates": [-93.774085872, 38.370503049], "type": "Point"}, "id": "84F2Qfn2j8fekF0dvBoRpGTPQ4Q=", "properties": {"@spider": "usps_collection_boxes", "addr:city": "CLINTON", "addr:country": "US", "addr:full": "101 S 2ND ST", "addr:postcode": "64735", "addr:state": "MO", "amenity": "post_box", "brand": "United States Postal Service", "brand:wikidata": "Q668687", "collection_times": "Mo-Fr 17:00; Sa 12:30", "name": "USPS COLLECTION BOX - PO LOBBY", "note": "ON 12/24 AND 12/31, THIS BOX MAY BE COLLECTED AS EARLY AS 12 NOON.", "nsi_id": "unitedstatespostalservice-a77078", "operator": "United States Postal Service", "operator:short": "USPS", "operator:type": "public", "operator:wikidata": "Q668687", "ref": "6473500025"}, "type": "Feature"}
{"dataset_attributes": {"@spider": "usps_collection_boxes", "spider:collection_time": "2023-10-25T08:26:15.836184"}, "geometry": {"coordinates": [-93.6219092, 37.888224], "type": "Point"}, "id": "_5vNW_v-SBoMTXFoNRIKfu9zjz4=", "properties": {"@spider": "usps_collection_boxes", "addr:city": "COLLINS", "addr:country": "US", "addr:full": "1312 MAIN ST", "addr:postcode": "64738", "addr:state": "MO", "amenity": "post_box", "brand": "United States Postal Service", "brand:wikidata": "Q668687", "collection_times": "Mo-Sa 12:00", "name": "USPS COLLECTION BOX - BLUE BOX", "nsi_id": "unitedstatespostalservice-a77078", "operator": "United States Postal Service", "operator:short": "USPS", "operator:type": "public", "operator:wikidata": "Q668687", "ref": "6473800000"}, "type": "Feature"}
{"dataset_attributes": {"@spider": "usps_collection_boxes", "spider:collection_time": "2023-10-25T08:26:15.836184"}, "geometry": {"coordinates": [-93.623137, 37.888557], "type": "Point"}, "id": "HDEd2_uj4M33sqVao8Z7xfRGVu4=", "properties": {"@spider": "usps_collection_boxes", "addr:city": "COLLINS", "addr:country": "US", "addr:full": "1312 MAIN ST", "addr:postcode": "64738", "addr:state": "MO", "amenity": "post_box", "brand": "United States Postal Service", "brand:wikidata": "Q668687", "collection_times": "Mo-Fr 11:45; Sa 10:00", "name": "USPS COLLECTION BOX - PO LOBBY", "nsi_id": "unitedstatespostalservice-a77078", "operator": "United States Postal Service", "operator:short": "USPS", "operator:type": "public", "operator:wikidata": "Q668687", "ref": "6473800002"}, "type": "Feature"}
{"dataset_attributes": {"@spider": "usps_collection_boxes", "spider:collection_time": "2023-10-25T08:26:15.836184"}, "geometry": {"coordinates": [-93.623088649, 37.888444465], "type": "Point"}, "id": "hWth2jJ2NvIIpGH4Fp98ZsG6OmA=", "properties": {"@spider": "usps_collection_boxes", "addr:city": "COLLINS", "addr:country": "US", "addr:full": "1312 MAIN ST", "addr:postcode": "64738", "addr:state": "MO", "amenity": "post_box", "brand": "United States Postal Service", "brand:wikidata": "Q668687", "collection_times": "Mo-Sa 12:00", "name": "USPS COLLECTION BOX - PO LOBBY", "nsi_id": "unitedstatespostalservice-a77078", "operator": "United States Postal Service", "operator:short": "USPS", "operator:type": "public", "operator:wikidata": "Q668687", "ref": "6473800003"}, "type": "Feature"}
{"dataset_attributes": {"@spider": "usps_collection_boxes", "spider:collection_time": "2023-10-25T08:26:15.836184"}, "geometry": {"coordinates": [-94.074888, 38.494821], "type": "Point"}, "id": "QEiOojruNVHS4vGm8cbuZIARw8A=", "properties": {"@spider": "usps_collection_boxes", "addr:city": "CREIGHTON", "addr:country": "US", "addr:full": "200 W 2ND ST", "addr:postcode": "64739", "addr:state": "MO", "amenity": "post_box", "brand": "United States Postal Service", "brand:wikidata": "Q668687", "collection_times": "Mo-Sa 15:45", "name": "USPS COLLECTION BOX - BLUE BOX", "note": "ON 12/24 AND 12/31, THIS BOX MAY BE COLLECTED AS EARLY AS 12 NOON.", "nsi_id": "unitedstatespostalservice-a77078", "operator": "United States Postal Service", "operator:short": "USPS", "operator:type": "public", "operator:wikidata": "Q668687", "ref": "6473900000"}, "type": "Feature"}
{"dataset_attributes": {"@spider": "usps_collection_boxes", "spider:collection_time": "2023-10-25T08:26:15.836184"}, "geometry": {"coordinates": [-94.074888, 38.494821], "type": "Point"}, "id": "YhuksepNWypnVx8eXafkx0jbRmA=", "properties": {"@spider": "usps_collection_boxes", "addr:city": "CREIGHTON", "addr:country": "US", "addr:full": "200 W 2ND ST", "addr:postcode": "64739", "addr:state": "MO", "amenity": "post_box", "brand": "United States Postal Service", "brand:wikidata": "Q668687", "collection_times": "Mo-Fr 15:45; Sa 09:45", "name": "USPS COLLECTION BOX - PO LOBBY", "note": "ON 12/24 AND 12/31, THIS BOX MAY BE COLLECTED AS EARLY AS 12 NOON.", "nsi_id": "unitedstatespostalservice-a77078", "operator": "United States Postal Service", "operator:short": "USPS", "operator:type": "public", "operator:wikidata": "Q668687", "ref": "6473900001"}, "type": "Feature"}
{"dataset_attributes": {"@spider": "usps_collection_boxes", "spider:collection_time": "2023-10-25T08:26:15.836184"}, "geometry": {"coordinates": [-94.075006842, 38.494937031], "type": "Point"}, "id": "Yw5G24pqPjq4fQYM7ZXAlg2xqrQ=", "properties": {"@spider": "usps_collection_boxes", "addr:city": "CREIGHTON", "addr:country": "US", "addr:full": "200 W 2ND ST", "addr:postcode": "64739", "addr:state": "MO", "amenity": "post_box", "brand": "United States Postal Service", "brand:wikidata": "Q668687", "collection_times": "Mo-Fr 16:30; Sa 13:00", "name": "USPS COLLECTION BOX - PO LOBBY", "note": "ON 12/24 AND 12/31, THIS BOX MAY BE COLLECTED AS EARLY AS 12 NOON.", "nsi_id": "unitedstatespostalservice-a77078", "operator": "United States Postal Service", "operator:short": "USPS", "operator:type": "public", "operator:wikidata": "Q668687", "ref": "6473900002"}, "type": "Feature"}
{"dataset_attributes": {"@spider": "usps_collection_boxes", "spider:collection_time": "2023-10-25T08:26:15.836184"}, "geometry": {"coordinates": [-93.779009, 38.260641], "type": "Point"}, "id": "1eIL09pA4cVsPil_wOABzBW3LuU=", "properties": {"@spider": "usps_collection_boxes", "addr:city": "DEEPWATER", "addr:country": "US", "addr:full": "108 S 8TH ST", "addr:postcode": "64740", "addr:state": "MO", "amenity": "post_box", "brand": "United States Postal Service", "brand:wikidata": "Q668687", "collection_times": "Mo-Fr 13:45; Sa 12:45", "name": "USPS COLLECTION BOX - BLUE BOX", "note": "ON 12/24 AND 12/31, THIS BOX MAY BE COLLECTED AS EARLY AS 12 NOON.", "nsi_id": "unitedstatespostalservice-a77078", "operator": "United States Postal Service", "operator:short": "USPS", "operator:type": "public", "operator:wikidata": "Q668687", "ref": "6474000000"}, "type": "Feature"}
{"dataset_attributes": {"@spider": "usps_collection_boxes", "spider:collection_time": "2023-10-25T08:26:15.836184"}, "geometry": {"coordinates": [-93.779042, 38.260717], "type": "Point"}, "id": "9bzZPlfAMb9e-sbNFdMwa1QRIJo=", "properties": {"@spider": "usps_collection_boxes", "addr:city": "DEEPWATER", "addr:country": "US", "addr:full": "108 S 8TH ST", "addr:postcode": "64740", "addr:state": "MO", "amenity": "post_box", "brand": "United States Postal Service", "brand:wikidata": "Q668687", "collection_times": "Mo-Fr 13:45; Sa 09:45", "name": "USPS COLLECTION BOX - PO LOBBY", "note": "ON 12/24 AND 12/31, THIS BOX MAY BE COLLECTED AS EARLY AS 12 NOON.", "nsi_id": "unitedstatespostalservice-a77078", "operator": "United States Postal Service", "operator:short": "USPS", "operator:type": "public", "operator:wikidata": "Q668687", "ref": "6474000001"}, "type": "Feature"}
{"dataset_attributes": {"@spider": "usps_collection_boxes", "spider:collection_time": "2023-10-25T08:26:15.836184"}, "geometry": {"coordinates": [-93.779078054, 38.260051994], "type": "Point"}, "id": "ds27yX3t1KT5i70_A7FhoOqnTk0=", "properties": {"@spider": "usps_collection_boxes", "addr:city": "DEEPWATER", "addr:country": "US", "addr:full": "108 S 8TH ST", "addr:postcode": "64740", "addr:state": "MO", "amenity": "post_box", "brand": "United States Postal Service", "brand:wikidata": "Q668687", "collection_times": "Mo-Fr 14:00; Sa 13:00", "name": "USPS COLLECTION BOX - PO LOBBY", "note": "ON 12/24 AND 12/31, THIS BOX MAY BE COLLECTED AS EARLY AS 12 NOON.", "nsi_id": "unitedstatespostalservice-a77078", "operator": "United States Postal Service", "operator:short": "USPS", "operator:type": "public", "operator:wikidata": "Q668687", "ref": "6474000002"}, "type": "Feature"}
{"dataset_attributes": {"@spider": "usps_collection_boxes", "spider:collection_time": "2023-10-25T08:26:15.836184"}, "geometry": {"coordinates": [-94.507554, 37.838389], "type": "Point"}, "id": "1BMdSHS_yomiXC9H-9bO5kmH-fM=", "properties": {"@spider": "usps_collection_boxes", "addr:city": "DEERFIELD", "addr:country": "US", "addr:full": "101 MAIN ST", "addr:postcode": "64741", "addr:state": "MO", "amenity": "post_box", "brand": "United States Postal Service", "brand:wikidata": "Q668687", "collection_times": "Mo-Fr 16:15; Sa 11:45", "name": "USPS COLLECTION BOX - BLUE BOX", "note": "ON 12/24 AND 12/31, THIS BOX MAY BE COLLECTED AS EARLY AS 12 NOON.", "nsi_id": "unitedstatespostalservice-a77078", "operator": "United States Postal Service", "operator:short": "USPS", "operator:type": "public", "operator:wikidata": "Q668687", "ref": "6474100000"}, "type": "Feature"}
{"dataset_attributes": {"@spider": "usps_collection_boxes", "spider:collection_time": "2023-10-25T08:26:15.836184"}, "geometry": {"coordinates": [-94.507554, 37.838389], "type": "Point"}, "id": "3Cr5_wPhw-qkO0VaNC45ByhMf4I=", "properties": {"@spider": "usps_collection_boxes", "addr:city": "DEERFIELD", "addr:country": "US", "addr:full": "101 MAIN ST", "addr:postcode": "64741", "addr:state": "MO", "amenity": "post_box", "brand": "United States Postal Service", "brand:wikidata": "Q668687", "collection_times": "Mo-Fr 16:00; Sa 08:30", "name": "USPS COLLECTION BOX - PO LOBBY", "note": "ON 12/24 AND 12/31, THIS BOX MAY BE COLLECTED AS EARLY AS 12 NOON.", "nsi_id": "unitedstatespostalservice-a77078", "operator": "United States Postal Service", "operator:short": "USPS", "operator:type": "public", "operator:wikidata": "Q668687", "ref": "6474100002"}, "type": "Feature"}
{"dataset_attributes": {"@spider": "usps_collection_boxes", "spider:collection_time": "2023-10-25T08:26:15.836184"}, "geometry": {"coordinates": [-94.507351942, 37.838326627], "type": "Point"}, "id": "19JnGLhgRg8Pw5-sfIL8tkAA1Jk=", "properties": {"@spider": "usps_collection_boxes", "addr:city": "DEERFIELD", "addr:country": "US", "addr:full": "102 E MAIN ST", "addr:postcode": "64741", "addr:state": "MO", "amenity": "post_box", "brand": "United States Postal Service", "brand:wikidata": "Q668687", "collection_times": "Mo-Fr 16:30; Sa 12:00", "name": "USPS COLLECTION BOX - PO LOBBY", "note": "ON 12/24 AND 12/31, THIS BOX MAY BE COLLECTED AS EARLY AS 12 NOON.", "nsi_id": "unitedstatespostalservice-a77078", "operator": "United States Postal Service", "operator:short": "USPS", "operator:type": "public", "operator:wikidata": "Q668687", "ref": "6474100003"}, "type": "Feature"}
{"dataset_attributes": {"@spider": "usps_collection_boxes", "spider:collection_time": "2023-10-25T08:26:15.836184"}, "geometry": {"coordinates": [-94.6090598, 38.478597], "type": "Point"}, "id": "NhB4re1g07mXMvpkJSAiEBs5Tj0=", "properties": {"@spider": "usps_collection_boxes", "addr:city": "DREXEL", "addr:country": "US", "addr:full": "118 S 2ND ST", "addr:postcode": "64742", "addr:state": "MO", "amenity": "post_box", "brand": "United States Postal Service", "brand:wikidata": "Q668687", "collection_times": "Mo-Fr 16:00; Sa 09:45", "name": "USPS COLLECTION BOX - BLUE BOX", "note": "ON 12/24 AND 12/31, THIS BOX MAY BE COLLECTED AS EARLY AS 12 NOON.", "nsi_id": "unitedstatespostalservice-a77078", "operator": "United States Postal Service", "operator:short": "USPS", "operator:type": "public", "operator:wikidata": "Q668687", "ref": "6474200000"}, "type": "Feature"}
{"dataset_attributes": {"@spider": "usps_collection_boxes", "spider:collection_time": "2023-10-25T08:26:15.836184"}, "geometry": {"coordinates": [-94.6089346, 38.478675], "type": "Point"}, "id": "DRFE-bk1TUb86lOB4BIiIT76ARU=", "properties": {"@spider": "usps_collection_boxes", "addr:city": "DREXEL", "addr:country": "US", "addr:full": "118 S 2ND ST", "addr:postcode": "64742", "addr:state": "MO", "amenity": "post_box", "brand": "United States Postal Service", "brand:wikidata": "Q668687", "collection_times": "Mo-Fr 16:00; Sa 09:45", "name": "USPS COLLECTION BOX - PO LOBBY", "note": "ON 12/24 AND 12/31, THIS BOX MAY BE COLLECTED AS EARLY AS 12 NOON.", "nsi_id": "unitedstatespostalservice-a77078", "operator": "United States Postal Service", "operator:short": "USPS", "operator:type": "public", "operator:wikidata": "Q668687", "ref": "6474200001"}, "type": "Feature"}
{"dataset_attributes": {"@spider": "usps_collection_boxes", "spider:collection_time": "2023-10-25T08:26:15.836184"}, "geometry": {"coordinates": [-94.608768077, 38.478654367], "type": "Point"}, "id": "qPhnvjF5HtJh35hnZ5pCryQcdcs=", "properties": {"@spider": "usps_collection_boxes", "addr:city": "DREXEL", "addr:country": "US", "addr:full": "118 S 2ND ST", "addr:postcode": "64742", "addr:state": "MO", "amenity": "post_box", "brand": "United States Postal Service", "brand:wikidata": "Q668687", "collection_times": "Mo-Fr 16:15; Sa 10:15", "name": "USPS COLLECTION BOX - PO LOBBY", "note": "ON 12/24 AND 12/31, THIS BOX MAY BE COLLECTED AS EARLY AS 12 NOON.", "nsi_id": "unitedstatespostalservice-a77078", "operator": "United States Postal Service", "operator:short": "USPS", "operator:type": "public", "operator:wikidata": "Q668687", "ref": "6474200003"}, "type": "Feature"}
{"dataset_attributes": {"@spider": "usps_collection_boxes", "spider:collection_time": "2023-10-25T08:26:15.836184"}, "geometry": {"coordinates": [-94.229499, 38.667246], "type": "Point"}, "id": "jHhKTNyMma_h8O0gc7D_TLRfuEg=", "properties": {"@spider": "usps_collection_boxes", "addr:city": "EAST LYNNE", "addr:country": "US", "addr:full": "415 MAIN ST", "addr:postcode": "64743", "addr:state": "MO", "amenity": "post_box", "brand": "United States Postal Service", "brand:wikidata": "Q668687", "collection_times": "Mo-Fr 16:15; Sa 09:15", "name": "USPS COLLECTION BOX - PO LOBBY", "note": "ON 12/24 AND 12/31, THIS BOX MAY BE COLLECTED AS EARLY AS 12 NOON.", "nsi_id": "unitedstatespostalservice-a77078", "operator": "United States Postal Service", "operator:short": "USPS", "operator:type": "public", "operator:wikidata": "Q668687", "ref": "6474300001"}, "type": "Feature"}
{"dataset_attributes": {"@spider": "usps_collection_boxes", "spider:collection_time": "2023-10-25T08:26:15.836184"}, "geometry": {"coordinates": [-94.2300190269, 38.667287501], "type": "Point"}, "id": "wvQOhIRPT5zCtFsHbLKHYPd-UqQ=", "properties": {"@spider": "usps_collection_boxes", "addr:city": "EAST LYNNE", "addr:country": "US", "addr:full": "415 MAIN ST", "addr:postcode": "64743", "addr:state": "MO", "amenity": "post_box", "brand": "United States Postal Service", "brand:wikidata": "Q668687", "collection_times": "Mo-Fr 16:30; Sa 14:00", "name": "USPS COLLECTION BOX - PO LOBBY", "note": "ON 12/24 AND 12/31, THIS BOX MAY BE COLLECTED AS EARLY AS 12 NOON.", "nsi_id": "unitedstatespostalservice-a77078", "operator": "United States Postal Service", "operator:short": "USPS", "operator:type": "public", "operator:wikidata": "Q668687", "ref": "6474300002"}, "type": "Feature"}
{"dataset_attributes": {"@spider": "usps_collection_boxes", "spider:collection_time": "2023-10-25T08:26:15.836184"}, "geometry": {"coordinates": [-94.021712, 37.873951], "type": "Point"}, "id": "MXmG4TUzVfNj1VxX8oIswpaaOrg=", "properties": {"@spider": "usps_collection_boxes", "addr:city": "EL DORADO SPG", "addr:country": "US", "addr:full": "407 S MAIN ST", "addr:postcode": "64744", "addr:state": "MO", "amenity": "post_box", "brand": "United States Postal Service", "brand:wikidata": "Q668687", "collection_times": "Mo-Fr 17:00; Sa 16:00", "name": "USPS COLLECTION BOX - BLUE BOX", "note": "ON 12/24 AND 12/31, THIS BOX MAY BE COLLECTED AS EARLY AS 12 NOON.", "nsi_id": "unitedstatespostalservice-a77078", "operator": "United States Postal Service", "operator:short": "USPS", "operator:type": "public", "operator:wikidata": "Q668687", "ref": "6474400002"}, "type": "Feature"}
{"dataset_attributes": {"@spider": "usps_collection_boxes", "spider:collection_time": "2023-10-25T08:26:15.836184"}, "geometry": {"coordinates": [-94.021712, 37.873951], "type": "Point"}, "id": "O4iCPZ8q2VwRVlyaHZQA1noOIYE=", "properties": {"@spider": "usps_collection_boxes", "addr:city": "EL DORADO SPG", "addr:country": "US", "addr:full": "407 S MAIN ST", "addr:postcode": "64744", "addr:state": "MO", "amenity": "post_box", "brand": "United States Postal Service", "brand:wikidata": "Q668687", "collection_times": "Mo-Fr 16:45; Sa 16:15", "name": "USPS COLLECTION BOX - PO LOBBY", "note": "ON 12/24 AND 12/31, THIS BOX MAY BE COLLECTED AS EARLY AS 12 NOON.", "nsi_id": "unitedstatespostalservice-a77078", "operator": "United States Postal Service", "operator:short": "USPS", "operator:type": "public", "operator:wikidata": "Q668687", "ref": "6474400009"}, "type": "Feature"}
{"dataset_attributes": {"@spider": "usps_collection_boxes", "spider:collection_time": "2023-10-25T08:26:15.836184"}, "geometry": {"coordinates": [-94.021629883, 37.874448064], "type": "Point"}, "id": "3r1BZAjt_rc0zSXRQRKPF_hzhh0=", "properties": {"@spider": "usps_collection_boxes", "addr:city": "EL DORADO SPG", "addr:country": "US", "addr:full": "407 S MAIN ST", "addr:postcode": "64744", "addr:state": "MO", "amenity": "post_box", "brand": "United States Postal Service", "brand:wikidata": "Q668687", "collection_times": "Mo-Fr 16:30; Sa 11:30", "name": "USPS COLLECTION BOX - PO LOBBY", "note": "ON 12/24 AND 12/31, THIS BOX MAY BE COLLECTED AS EARLY AS 12 NOON.", "nsi_id": "unitedstatespostalservice-a77078", "operator": "United States Postal Service", "operator:short": "USPS", "operator:type": "public", "operator:wikidata": "Q668687", "ref": "6474400010"}, "type": "Feature"}
{"dataset_attributes": {"@spider": "usps_collection_boxes", "spider:collection_time": "2023-10-25T08:26:15.836184"}, "geometry": {"coordinates": [-94.594528, 38.189522], "type": "Point"}, "id": "GLhlPUaobd5EPufvcaBl7my2p8g=", "properties": {"@spider": "usps_collection_boxes", "addr:city": "FOSTER", "addr:country": "US", "addr:full": "203 MAIN ST", "addr:postcode": "64745", "addr:state": "MO", "amenity": "post_box", "brand": "United States Postal Service", "brand:wikidata": "Q668687", "collection_times": "Mo-Fr 10:00; Sa 09:00", "name": "USPS COLLECTION BOX - BLUE BOX", "nsi_id": "unitedstatespostalservice-a77078", "operator": "United States Postal Service", "operator:short": "USPS", "operator:type": "public", "operator:wikidata": "Q668687", "ref": "6474500000"}, "type": "Feature"}
{"dataset_attributes": {"@spider": "usps_collection_boxes", "spider:collection_time": "2023-10-25T08:26:15.836184"}, "geometry": {"coordinates": [-94.594528, 38.189522], "type": "Point"}, "id": "405QjmcCkWsWZDIXbICOIW_Z7os=", "properties": {"@spider": "usps_collection_boxes", "addr:city": "FOSTER", "addr:country": "US", "addr:full": "203 MAIN ST", "addr:postcode": "64745", "addr:state": "MO", "amenity": "post_box", "brand": "United States Postal Service", "brand:wikidata": "Q668687", "collection_times": "Mo-Fr 10:00; Sa 09:00", "name": "USPS COLLECTION BOX - PO LOBBY", "nsi_id": "unitedstatespostalservice-a77078", "operator": "United States Postal Service", "operator:short": "USPS", "operator:type": "public", "operator:wikidata": "Q668687", "ref": "6474500001"}, "type": "Feature"}
{"dataset_attributes": {"@spider": "usps_collection_boxes", "spider:collection_time": "2023-10-25T08:26:15.836184"}, "geometry": {"coordinates": [-94.508232576, 38.168144345], "type": "Point"}, "id": "TvPjYWYr2QgrMuYo-ZY04pYAbwg=", "properties": {"@spider": "usps_collection_boxes", "addr:city": "FOSTER", "addr:country": "US", "addr:full": "203 MAIN ST", "addr:postcode": "64745", "addr:state": "MO", "amenity": "post_box", "brand": "United States Postal Service", "brand:wikidata": "Q668687", "collection_times": "Mo-Fr 10:15; Sa 09:15", "name": "USPS COLLECTION BOX - PO LOBBY", "nsi_id": "unitedstatespostalservice-a77078", "operator": "United States Postal Service", "operator:short": "USPS", "operator:type": "public", "operator:wikidata": "Q668687", "ref": "6474500002"}, "type": "Feature"}
{"dataset_attributes": {"@spider": "usps_collection_boxes", "spider:collection_time": "2023-10-25T08:26:15.836184"}, "geometry": {"coordinates": [-94.505929972, 38.617140017], "type": "Point"}, "id": "nH2OpJZ-5jEdnWiSS0qc05y8-FM=", "properties": {"@spider": "usps_collection_boxes", "addr:city": "FREEMAN", "addr:country": "US", "addr:full": "109 E MAIN ST", "addr:postcode": "64746", "addr:state": "MO", "amenity": "post_box", "brand": "United States Postal Service", "brand:wikidata": "Q668687", "collection_times": "Mo-Fr 16:00; Sa 16:45", "name": "USPS COLLECTION BOX - BLUE BOX", "note": "ON 12/24 AND 12/31, THIS BOX MAY BE COLLECTED AS EARLY AS 12 NOON.", "nsi_id": "unitedstatespostalservice-a77078", "operator": "United States Postal Service", "operator:short": "USPS", "operator:type": "public", "operator:wikidata": "Q668687", "ref": "6474600000"}, "type": "Feature"}
{"dataset_attributes": {"@spider": "usps_collection_boxes", "spider:collection_time": "2023-10-25T08:26:15.836184"}, "geometry": {"coordinates": [-94.506459, 38.617404], "type": "Point"}, "id": "058n14yOFl61V1viWkflU21daoY=", "properties": {"@spider": "usps_collection_boxes", "addr:city": "FREEMAN", "addr:country": "US", "addr:full": "109 E MAIN ST", "addr:postcode": "64746", "addr:state": "MO", "amenity": "post_box", "brand": "United States Postal Service", "brand:wikidata": "Q668687", "collection_times": "Mo-Fr 16:00; Sa 09:30", "name": "USPS COLLECTION BOX - PO LOBBY", "note": "ON 12/24 AND 12/31, THIS BOX MAY BE COLLECTED AS EARLY AS 12 NOON.", "nsi_id": "unitedstatespostalservice-a77078", "operator": "United States Postal Service", "operator:short": "USPS", "operator:type": "public", "operator:wikidata": "Q668687", "ref": "6474600001"}, "type": "Feature"}
{"dataset_attributes": {"@spider": "usps_collection_boxes", "spider:collection_time": "2023-10-25T08:26:15.836184"}, "geometry": {"coordinates": [-94.505931, 38.617369514], "type": "Point"}, "id": "KpTgHaQqnMHB7r0eaz6QEuX-frY=", "properties": {"@spider": "usps_collection_boxes", "addr:city": "FREEMAN", "addr:country": "US", "addr:full": "109 E MAIN ST", "addr:postcode": "64746", "addr:state": "MO", "amenity": "post_box", "brand": "United States Postal Service", "brand:wikidata": "Q668687", "collection_times": "Mo-Fr 16:00; Sa 12:00", "name": "USPS COLLECTION BOX - PO LOBBY", "note": "ON 12/24 AND 12/31, THIS BOX MAY BE COLLECTED AS EARLY AS 12 NOON.", "nsi_id": "unitedstatespostalservice-a77078", "operator": "United States Postal Service", "operator:short": "USPS", "operator:type": "public", "operator:wikidata": "Q668687", "ref": "6474600003"}, "type": "Feature"}
{"dataset_attributes": {"@spider": "usps_collection_boxes", "spider:collection_time": "2023-10-25T08:26:15.836184"}, "geometry": {"coordinates": [-94.190368, 38.561593], "type": "Point"}, "id": "MWCl-ur_RJgEu2Ks_LPVXn9CK9w=", "properties": {"@spider": "usps_collection_boxes", "addr:city": "GARDEN CITY", "addr:country": "US", "addr:full": "201 N 3RD ST", "addr:postcode": "64747", "addr:state": "MO", "amenity": "post_box", "brand": "United States Postal Service", "brand:wikidata": "Q668687", "collection_times": "Mo-Fr 16:30; Sa 17:00", "name": "USPS COLLECTION BOX - BLUE BOX", "note": "ON 12/24 AND 12/31, THIS BOX MAY BE COLLECTED AS EARLY AS 12 NOON.", "nsi_id": "unitedstatespostalservice-a77078", "operator": "United States Postal Service", "operator:short": "USPS", "operator:type": "public", "operator:wikidata": "Q668687", "ref": "6474700000"}, "type": "Feature"}
{"dataset_attributes": {"@spider": "usps_collection_boxes", "spider:collection_time": "2023-10-25T08:26:15.836184"}, "geometry": {"coordinates": [-94.190368, 38.561593], "type": "Point"}, "id": "9O35pSvhmZZ2qijvni0Fjq2ZMJs=", "properties": {"@spider": "usps_collection_boxes", "addr:city": "GARDEN CITY", "addr:country": "US", "addr:full": "201 N 3RD ST", "addr:postcode": "64747", "addr:state": "MO", "amenity": "post_box", "brand": "United States Postal Service", "brand:wikidata": "Q668687", "collection_times": "Mo-Fr 16:30; Sa 10:00", "name": "USPS COLLECTION BOX - PO LOBBY", "note": "ON 12/24 AND 12/31, THIS BOX MAY BE COLLECTED AS EARLY AS 12 NOON.", "nsi_id": "unitedstatespostalservice-a77078", "operator": "United States Postal Service", "operator:short": "USPS", "operator:type": "public", "operator:wikidata": "Q668687", "ref": "6474700001"}, "type": "Feature"}
{"dataset_attributes": {"@spider": "usps_collection_boxes", "spider:collection_time": "2023-10-25T08:26:15.836184"}, "geometry": {"coordinates": [-94.190368, 38.561593], "type": "Point"}, "id": "r2dlznzbiEFe5I5TA7D6rWI55-8=", "properties": {"@spider": "usps_collection_boxes", "addr:city": "GARDEN CITY", "addr:country": "US", "addr:full": "201 N 3RD ST", "addr:postcode": "64747", "addr:state": "MO", "amenity": "post_box", "brand": "United States Postal Service", "brand:wikidata": "Q668687", "collection_times": "Mo-Fr 16:30; Sa 10:00", "name": "USPS COLLECTION BOX - PO LOBBY", "note": "ON 12/24 AND 12/31, THIS BOX MAY BE COLLECTED AS EARLY AS 12 NOON.", "nsi_id": "unitedstatespostalservice-a77078", "operator": "United States Postal Service", "operator:short": "USPS", "operator:type": "public", "operator:wikidata": "Q668687", "ref": "6474700002"}, "type": "Feature"}
{"dataset_attributes": {"@spider": "usps_collection_boxes", "spider:collection_time": "2023-10-25T08:26:15.836184"}, "geometry": {"coordinates": [-94.1935188, 38.569202], "type": "Point"}, "id": "oRpl9foiaz9Gr9W9YVAPFWN6ZgU=", "properties": {"@spider": "usps_collection_boxes", "addr:city": "GARDEN CITY", "addr:country": "US", "addr:full": "31 S COUNTY RD F", "addr:postcode": "64747", "addr:state": "MO", "amenity": "post_box", "brand": "United States Postal Service", "brand:wikidata": "Q668687", "collection_times": "Mo-Sa 12:00", "name": "USPS COLLECTION BOX - BLUE BOX", "nsi_id": "unitedstatespostalservice-a77078", "operator": "United States Postal Service", "operator:short": "USPS", "operator:type": "public", "operator:wikidata": "Q668687", "ref": "6474700005"}, "type": "Feature"}
{"dataset_attributes": {"@spider": "usps_collection_boxes", "spider:collection_time": "2023-10-25T08:26:15.836184"}, "geometry": {"coordinates": [-94.19016398, 38.561714865], "type": "Point"}, "id": "DfN774uviY-uL9VoOYmjBDWl0Vk=", "properties": {"@spider": "usps_collection_boxes", "addr:city": "GARDEN CITY", "addr:country": "US", "addr:full": "201 N 3RD ST", "addr:postcode": "64747", "addr:state": "MO", "amenity": "post_box", "brand": "United States Postal Service", "brand:wikidata": "Q668687", "collection_times": "Mo-Fr 16:30; Sa 10:00", "name": "USPS COLLECTION BOX - PO LOBBY", "note": "ON 12/24 AND 12/31, THIS BOX MAY BE COLLECTED AS EARLY AS 12 NOON.", "nsi_id": "unitedstatespostalservice-a77078", "operator": "United States Postal Service", "operator:short": "USPS", "operator:type": "public", "operator:wikidata": "Q668687", "ref": "6474700007"}, "type": "Feature"}
{"dataset_attributes": {"@spider": "usps_collection_boxes", "spider:collection_time": "2023-10-25T08:26:15.836184"}, "geometry": {"coordinates": [-94.093066, 37.393021], "type": "Point"}, "id": "q5HqJaxMFZmp7fV6UkCWFUq61Hw=", "properties": {"@spider": "usps_collection_boxes", "addr:city": "GOLDEN CITY", "addr:country": "US", "addr:full": "519 MAIN ST", "addr:postcode": "64748", "addr:state": "MO", "amenity": "post_box", "brand": "United States Postal Service", "brand:wikidata": "Q668687", "collection_times": "Mo-Fr 15:45; Sa 10:15", "name": "USPS COLLECTION BOX - BLUE BOX", "note": "ON 12/24 AND 12/31, THIS BOX MAY BE COLLECTED AS EARLY AS 12 NOON.", "nsi_id": "unitedstatespostalservice-a77078", "operator": "United States Postal Service", "operator:short": "USPS", "operator:type": "public", "operator:wikidata": "Q668687", "ref": "6474800000"}, "type": "Feature"}
{"dataset_attributes": {"@spider": "usps_collection_boxes", "spider:collection_time": "2023-10-25T08:26:15.836184"}, "geometry": {"coordinates": [-94.092972, 37.393046], "type": "Point"}, "id": "DDVBaajdBSqQiS8XmxM3RSZqawg=", "properties": {"@spider": "usps_collection_boxes", "addr:city": "GOLDEN CITY", "addr:country": "US", "addr:full": "519 MAIN ST", "addr:postcode": "64748", "addr:state": "MO", "amenity": "post_box", "brand": "United States Postal Service", "brand:wikidata": "Q668687", "collection_times": "Mo-Fr 15:45; Sa 10:15", "name": "USPS COLLECTION BOX - PO LOBBY", "note": "ON 12/24 AND 12/31, THIS BOX MAY BE COLLECTED AS EARLY AS 12 NOON.", "nsi_id": "unitedstatespostalservice-a77078", "operator": "United States Postal Service", "operator:short": "USPS", "operator:type": "public", "operator:wikidata": "Q668687", "ref": "6474800002"}, "type": "Feature"}
{"dataset_attributes": {"@spider": "usps_collection_boxes", "spider:collection_time": "2023-10-25T08:26:15.836184"}, "geometry": {"coordinates": [-94.093179012, 37.392970757], "type": "Point"}, "id": "FOWSAJlWq_5SkDu-DloAxG1hwx0=", "properties": {"@spider": "usps_collection_boxes", "addr:city": "GOLDEN CITY", "addr:country": "US", "addr:full": "519 MAIN ST", "addr:postcode": "64748", "addr:state": "MO", "amenity": "post_box", "brand": "United States Postal Service", "brand:wikidata": "Q668687", "collection_times": "Mo-Fr 15:45; Sa 10:15", "name": "USPS COLLECTION BOX - PO LOBBY", "note": "ON 12/24 AND 12/31, THIS BOX MAY BE COLLECTED AS EARLY AS 12 NOON.", "nsi_id": "unitedstatespostalservice-a77078", "operator": "United States Postal Service", "operator:short": "USPS", "operator:type": "public", "operator:wikidata": "Q668687", "ref": "6474800004"}, "type": "Feature"}
{"dataset_attributes": {"@spider": "usps_collection_boxes", "spider:collection_time": "2023-10-25T08:26:15.836184"}, "geometry": {"coordinates": [-94.153435, 37.956055], "type": "Point"}, "id": "4zwN2yZZgWkSGfZcj7O28ZWCeQM=", "properties": {"@spider": "usps_collection_boxes", "addr:city": "HARWOOD", "addr:country": "US", "addr:full": "211 E COATES AVE", "addr:postcode": "64750", "addr:state": "MO", "amenity": "post_box", "brand": "United States Postal Service", "brand:wikidata": "Q668687", "collection_times": "Mo-Fr 16:30; Sa 15:15", "name": "USPS COLLECTION BOX - BLUE BOX", "note": "ON 12/24 AND 12/31, THIS BOX MAY BE COLLECTED AS EARLY AS 12 NOON.", "nsi_id": "unitedstatespostalservice-a77078", "operator": "United States Postal Service", "operator:short": "USPS", "operator:type": "public", "operator:wikidata": "Q668687", "ref": "6475000000"}, "type": "Feature"}
{"dataset_attributes": {"@spider": "usps_collection_boxes", "spider:collection_time": "2023-10-25T08:26:15.836184"}, "geometry": {"coordinates": [-94.153524, 37.956025], "type": "Point"}, "id": "s0NlOUoIU0IyExBOxyud1rFL0U8=", "properties": {"@spider": "usps_collection_boxes", "addr:city": "HARWOOD", "addr:country": "US", "addr:full": "211 E COATES AVE", "addr:postcode": "64750", "addr:state": "MO", "amenity": "post_box", "brand": "United States Postal Service", "brand:wikidata": "Q668687", "collection_times": "Mo-Fr 14:45; Sa 09:45", "name": "USPS COLLECTION BOX - PO LOBBY", "note": "ON 12/24 AND 12/31, THIS BOX MAY BE COLLECTED AS EARLY AS 12 NOON.", "nsi_id": "unitedstatespostalservice-a77078", "operator": "United States Postal Service", "operator:short": "USPS", "operator:type": "public", "operator:wikidata": "Q668687", "ref": "6475000001"}, "type": "Feature"}
{"dataset_attributes": {"@spider": "usps_collection_boxes", "spider:collection_time": "2023-10-25T08:26:15.836184"}, "geometry": {"coordinates": [-94.153474444, 37.956092836], "type": "Point"}, "id": "uoHZYOUUXLV-CwRvJSavYBDSKm0=", "properties": {"@spider": "usps_collection_boxes", "addr:city": "HARWOOD", "addr:country": "US", "addr:full": "211 E COATES AVE", "addr:postcode": "64750", "addr:state": "MO", "amenity": "post_box", "brand": "United States Postal Service", "brand:wikidata": "Q668687", "collection_times": "Mo-Sa 15:15", "name": "USPS COLLECTION BOX - PO LOBBY", "note": "ON 12/24 AND 12/31, THIS BOX MAY BE COLLECTED AS EARLY AS 12 NOON.", "nsi_id": "unitedstatespostalservice-a77078", "operator": "United States Postal Service", "operator:short": "USPS", "operator:type": "public", "operator:wikidata": "Q668687", "ref": "6475000002"}, "type": "Feature"}
{"dataset_attributes": {"@spider": "usps_collection_boxes", "spider:collection_time": "2023-10-25T08:26:15.836184"}, "geometry": {"coordinates": [-94.566748, 37.974181], "type": "Point"}, "id": "FyLAvw_WK6TWNzSbGBFSj31PjB4=", "properties": {"@spider": "usps_collection_boxes", "addr:city": "HUME", "addr:country": "US", "addr:full": "101 MAIN ST", "addr:postcode": "64752", "addr:state": "MO", "amenity": "post_box", "brand": "United States Postal Service", "brand:wikidata": "Q668687", "collection_times": "Mo-Fr 11:45; Sa 09:45", "name": "USPS COLLECTION BOX - BLUE BOX", "nsi_id": "unitedstatespostalservice-a77078", "operator": "United States Postal Service", "operator:short": "USPS", "operator:type": "public", "operator:wikidata": "Q668687", "ref": "6475200000"}, "type": "Feature"}
{"dataset_attributes": {"@spider": "usps_collection_boxes", "spider:collection_time": "2023-10-25T08:26:15.836184"}, "geometry": {"coordinates": [-94.566748, 37.974181], "type": "Point"}, "id": "oyzhIgeMMcCVmUU-_3HtF2xb2iY=", "properties": {"@spider": "usps_collection_boxes", "addr:city": "HUME", "addr:country": "US", "addr:full": "101 MAIN ST", "addr:postcode": "64752", "addr:state": "MO", "amenity": "post_box", "brand": "United States Postal Service", "brand:wikidata": "Q668687", "collection_times": "Mo-Fr 11:30; Sa 09:15", "name": "USPS COLLECTION BOX - PO LOBBY", "nsi_id": "unitedstatespostalservice-a77078", "operator": "United States Postal Service", "operator:short": "USPS", "operator:type": "public", "operator:wikidata": "Q668687", "ref": "6475200001"}, "type": "Feature"}
{"dataset_attributes": {"@spider": "usps_collection_boxes", "spider:collection_time": "2023-10-25T08:26:15.836184"}, "geometry": {"coordinates": [-94.582606325, 38.090739404], "type": "Point"}, "id": "1mMvfzRqtQVXFI9uBZ7yEU1JxwY=", "properties": {"@spider": "usps_collection_boxes", "addr:city": "HUME", "addr:country": "US", "addr:full": "101 MAIN ST", "addr:postcode": "64752", "addr:state": "MO", "amenity": "post_box", "brand": "United States Postal Service", "brand:wikidata": "Q668687", "collection_times": "Mo-Fr 12:00; Sa 10:00", "name": "USPS COLLECTION BOX - PO LOBBY", "nsi_id": "unitedstatespostalservice-a77078", "operator": "United States Postal Service", "operator:short": "USPS", "operator:type": "public", "operator:wikidata": "Q668687", "ref": "6475200002"}, "type": "Feature"}
{"dataset_attributes": {"@spider": "usps_collection_boxes", "spider:collection_time": "2023-10-25T08:26:15.836184"}, "geometry": {"coordinates": [-94.302457, 37.336143], "type": "Point"}, "id": "qCiIfSLIBj1ZKJomIEr68R1Yj7k=", "properties": {"@spider": "usps_collection_boxes", "addr:city": "JASPER", "addr:country": "US", "addr:full": "122 W GRAND ST", "addr:postcode": "64755", "addr:state": "MO", "amenity": "post_box", "brand": "United States Postal Service", "brand:wikidata": "Q668687", "collection_times": "Mo-Fr 15:45; Sa 12:45", "name": "USPS COLLECTION BOX - BLUE BOX", "note": "ON 12/24 AND 12/31, THIS BOX MAY BE COLLECTED AS EARLY AS 12 NOON.", "nsi_id": "unitedstatespostalservice-a77078", "operator": "United States Postal Service", "operator:short": "USPS", "operator:type": "public", "operator:wikidata": "Q668687", "ref": "6475500001"}, "type": "Feature"}
{"dataset_attributes": {"@spider": "usps_collection_boxes", "spider:collection_time": "2023-10-25T08:26:15.836184"}, "geometry": {"coordinates": [-94.302393, 37.336168], "type": "Point"}, "id": "MXA-322oWnaF2qJEJh0G14m5iXc=", "properties": {"@spider": "usps_collection_boxes", "addr:city": "JASPER", "addr:country": "US", "addr:full": "122 W GRAND ST", "addr:postcode": "64755", "addr:state": "MO", "amenity": "post_box", "brand": "United States Postal Service", "brand:wikidata": "Q668687", "collection_times": "Mo-Fr 15:45; Sa 12:45", "name": "USPS COLLECTION BOX - PO LOBBY", "note": "ON 12/24 AND 12/31, THIS BOX MAY BE COLLECTED AS EARLY AS 12 NOON.", "nsi_id": "unitedstatespostalservice-a77078", "operator": "United States Postal Service", "operator:short": "USPS", "operator:type": "public", "operator:wikidata": "Q668687", "ref": "6475500002"}, "type": "Feature"}
{"dataset_attributes": {"@spider": "usps_collection_boxes", "spider:collection_time": "2023-10-25T08:26:15.836184"}, "geometry": {"coordinates": [-94.303233587, 37.336162547], "type": "Point"}, "id": "TMWI-v9TFRsf2umhH9WVJwPcM0U=", "properties": {"@spider": "usps_collection_boxes", "addr:city": "JASPER", "addr:country": "US", "addr:full": "122 W GRAND ST", "addr:postcode": "64755", "addr:state": "MO", "amenity": "post_box", "brand": "United States Postal Service", "brand:wikidata": "Q668687", "collection_times": "Mo-Fr 15:45; Sa 12:45", "name": "USPS COLLECTION BOX - PO LOBBY", "note": "ON 12/24 AND 12/31, THIS BOX MAY BE COLLECTED AS EARLY AS 12 NOON.", "nsi_id": "unitedstatespostalservice-a77078", "operator": "United States Postal Service", "operator:short": "USPS", "operator:type": "public", "operator:wikidata": "Q668687", "ref": "6475500005"}, "type": "Feature"}
{"dataset_attributes": {"@spider": "usps_collection_boxes", "spider:collection_time": "2023-10-25T08:26:15.836184"}, "geometry": {"coordinates": [-94.0103522125, 37.6223088891], "type": "Point"}, "id": "XwoALHw_rtCzfRtQc6-7U92X2F4=", "properties": {"@spider": "usps_collection_boxes", "addr:city": "JERICO SPRINGS", "addr:country": "US", "addr:full": "302 S MAIN", "addr:postcode": "64756", "addr:state": "MO", "amenity": "post_box", "brand": "United States Postal Service", "brand:wikidata": "Q668687", "collection_times": "Mo-Fr 16:15; Sa 15:45", "name": "USPS COLLECTION BOX - BLUE BOX", "note": "ON 12/24 AND 12/31, THIS BOX MAY BE COLLECTED AS EARLY AS 12 NOON.", "nsi_id": "unitedstatespostalservice-a77078", "operator": "United States Postal Service", "operator:short": "USPS", "operator:type": "public", "operator:wikidata": "Q668687", "ref": "6475600000"}, "type": "Feature"}
{"dataset_attributes": {"@spider": "usps_collection_boxes", "spider:collection_time": "2023-10-25T08:26:15.836184"}, "geometry": {"coordinates": [-94.276579, 37.494415], "type": "Point"}, "id": "nY_qMbk8ph5_RQB3VC19tHYnDq4=", "properties": {"@spider": "usps_collection_boxes", "addr:city": "LAMAR", "addr:country": "US", "addr:full": "131 W 11TH ST", "addr:postcode": "64759", "addr:state": "MO", "amenity": "post_box", "brand": "United States Postal Service", "brand:wikidata": "Q668687", "collection_times": "Mo-Fr 16:30; Sa 15:45", "name": "USPS COLLECTION BOX - BLUE BOX", "note": "ON 12/24 AND 12/31, THIS BOX MAY BE COLLECTED AS EARLY AS 12 NOON.", "nsi_id": "unitedstatespostalservice-a77078", "operator": "United States Postal Service", "operator:short": "USPS", "operator:type": "public", "operator:wikidata": "Q668687", "ref": "6475900002"}, "type": "Feature"}
{"dataset_attributes": {"@spider": "usps_collection_boxes", "spider:collection_time": "2023-10-25T08:26:15.836184"}, "geometry": {"coordinates": [-94.276579, 37.494415], "type": "Point"}, "id": "FvxUtwZ-cvXJA1xhGryfeO1ENVc=", "properties": {"@spider": "usps_collection_boxes", "addr:city": "LAMAR", "addr:country": "US", "addr:full": "131 W 11TH ST", "addr:postcode": "64759", "addr:state": "MO", "amenity": "post_box", "brand": "United States Postal Service", "brand:wikidata": "Q668687", "collection_times": "Mo-Fr 16:30; Sa 15:45", "name": "USPS COLLECTION BOX - PO LOBBY", "note": "ON 12/24 AND 12/31, THIS BOX MAY BE COLLECTED AS EARLY AS 12 NOON.", "nsi_id": "unitedstatespostalservice-a77078", "operator": "United States Postal Service", "operator:short": "USPS", "operator:type": "public", "operator:wikidata": "Q668687", "ref": "6475900003"}, "type": "Feature"}
{"dataset_attributes": {"@spider": "usps_collection_boxes", "spider:collection_time": "2023-10-25T08:26:15.836184"}, "geometry": {"coordinates": [-94.276608798, 37.494287438], "type": "Point"}, "id": "WH922FoP4lwdrm5yJBjDz5AMj10=", "properties": {"@spider": "usps_collection_boxes", "addr:city": "LAMAR", "addr:country": "US", "addr:full": "131 W 11TH ST", "addr:postcode": "64759", "addr:state": "MO", "amenity": "post_box", "brand": "United States Postal Service", "brand:wikidata": "Q668687", "collection_times": "Mo-Fr 16:30; Sa 12:00", "name": "USPS COLLECTION BOX - PO LOBBY", "note": "ON 12/24 AND 12/31, THIS BOX MAY BE COLLECTED AS EARLY AS 12 NOON.", "nsi_id": "unitedstatespostalservice-a77078", "operator": "United States Postal Service", "operator:short": "USPS", "operator:type": "public", "operator:wikidata": "Q668687", "ref": "6475900011"}, "type": "Feature"}
{"dataset_attributes": {"@spider": "usps_collection_boxes", "spider:collection_time": "2023-10-25T08:26:15.836184"}, "geometry": {"coordinates": [-93.695839, 38.583711], "type": "Point"}, "id": "2jBe-2GUQDMI4BrF4vnq6U4aJqU=", "properties": {"@spider": "usps_collection_boxes", "addr:city": "LEETON", "addr:country": "US", "addr:full": "103 N MAIN ST", "addr:postcode": "64761", "addr:state": "MO", "amenity": "post_box", "brand": "United States Postal Service", "brand:wikidata": "Q668687", "collection_times": "Mo-Fr 11:15; Sa 10:00", "name": "USPS COLLECTION BOX - BLUE BOX", "nsi_id": "unitedstatespostalservice-a77078", "operator": "United States Postal Service", "operator:short": "USPS", "operator:type": "public", "operator:wikidata": "Q668687", "ref": "6476100000"}, "type": "Feature"}
{"dataset_attributes": {"@spider": "usps_collection_boxes", "spider:collection_time": "2023-10-25T08:26:15.836184"}, "geometry": {"coordinates": [-93.695839, 38.583711], "type": "Point"}, "id": "iP5j67XnBMZKWJEpi_dtG2wV-GA=", "properties": {"@spider": "usps_collection_boxes", "addr:city": "LEETON", "addr:country": "US", "addr:full": "103 N MAIN ST", "addr:postcode": "64761", "addr:state": "MO", "amenity": "post_box", "brand": "United States Postal Service", "brand:wikidata": "Q668687", "collection_times": "Mo-Fr 11:15; Sa 10:00", "name": "USPS COLLECTION BOX - PO LOBBY", "nsi_id": "unitedstatespostalservice-a77078", "operator": "United States Postal Service", "operator:short": "USPS", "operator:type": "public", "operator:wikidata": "Q668687", "ref": "6476100001"}, "type": "Feature"}
{"dataset_attributes": {"@spider": "usps_collection_boxes", "spider:collection_time": "2023-10-25T08:26:15.836184"}, "geometry": {"coordinates": [-93.695828148, 38.583690831], "type": "Point"}, "id": "1FM3y80es_XOrNITvY-9Fq3kQR0=", "properties": {"@spider": "usps_collection_boxes", "addr:city": "LEETON", "addr:country": "US", "addr:full": "103 N MAIN ST", "addr:postcode": "64761", "addr:state": "MO", "amenity": "post_box", "brand": "United States Postal Service", "brand:wikidata": "Q668687", "collection_times": "Mo-Fr 11:15; Sa 10:00", "name": "USPS COLLECTION BOX - PO LOBBY", "nsi_id": "unitedstatespostalservice-a77078", "operator": "United States Postal Service", "operator:short": "USPS", "operator:type": "public", "operator:wikidata": "Q668687", "ref": "6476100003"}, "type": "Feature"}
{"dataset_attributes": {"@spider": "usps_collection_boxes", "spider:collection_time": "2023-10-25T08:26:15.836184"}, "geometry": {"coordinates": [-94.520181, 37.556716], "type": "Point"}, "id": "gxpL-ABwHWykk8l02F97L9nB3aQ=", "properties": {"@spider": "usps_collection_boxes", "addr:city": "LIBERAL", "addr:country": "US", "addr:full": "128 S MAIN ST", "addr:postcode": "64762", "addr:state": "MO", "amenity": "post_box", "brand": "United States Postal Service", "brand:wikidata": "Q668687", "collection_times": "Mo-Fr 15:45; Sa 09:45", "name": "USPS COLLECTION BOX - BLUE BOX", "note": "ON 12/24 AND 12/31, THIS BOX MAY BE COLLECTED AS EARLY AS 12 NOON.", "nsi_id": "unitedstatespostalservice-a77078", "operator": "United States Postal Service", "operator:short": "USPS", "operator:type": "public", "operator:wikidata": "Q668687", "ref": "6476200001"}, "type": "Feature"}
{"dataset_attributes": {"@spider": "usps_collection_boxes", "spider:collection_time": "2023-10-25T08:26:15.836184"}, "geometry": {"coordinates": [-94.520181, 37.556716], "type": "Point"}, "id": "NrqFByBnsxtO3FbQXFDDeCYnl_M=", "properties": {"@spider": "usps_collection_boxes", "addr:city": "LIBERAL", "addr:country": "US", "addr:full": "128 S MAIN ST", "addr:postcode": "64762", "addr:state": "MO", "amenity": "post_box", "brand": "United States Postal Service", "brand:wikidata": "Q668687", "collection_times": "Mo-Fr 15:45; Sa 09:45", "name": "USPS COLLECTION BOX - PO LOBBY", "note": "ON 12/24 AND 12/31, THIS BOX MAY BE COLLECTED AS EARLY AS 12 NOON.", "nsi_id": "unitedstatespostalservice-a77078", "operator": "United States Postal Service", "operator:short": "USPS", "operator:type": "public", "operator:wikidata": "Q668687", "ref": "6476200003"}, "type": "Feature"}
{"dataset_attributes": {"@spider": "usps_collection_boxes", "spider:collection_time": "2023-10-25T08:26:15.836184"}, "geometry": {"coordinates": [-94.520106331, 37.559254286], "type": "Point"}, "id": "tzdrLHvnThXM0V9w1_rU-7H_oAs=", "properties": {"@spider": "usps_collection_boxes", "addr:city": "LIBERAL", "addr:country": "US", "addr:full": "128 S MAIN ST", "addr:postcode": "64762", "addr:state": "MO", "amenity": "post_box", "brand": "United States Postal Service", "brand:wikidata": "Q668687", "collection_times": "Mo-Fr 15:45; Sa 09:45", "name": "USPS COLLECTION BOX - PO LOBBY", "note": "ON 12/24 AND 12/31, THIS BOX MAY BE COLLECTED AS EARLY AS 12 NOON.", "nsi_id": "unitedstatespostalservice-a77078", "operator": "United States Postal Service", "operator:short": "USPS", "operator:type": "public", "operator:wikidata": "Q668687", "ref": "6476200004"}, "type": "Feature"}
{"dataset_attributes": {"@spider": "usps_collection_boxes", "spider:collection_time": "2023-10-25T08:26:15.836184"}, "geometry": {"coordinates": [-93.727769, 38.140063], "type": "Point"}, "id": "c7JOBNnKYpwEyqkTqgXepdQUgOQ=", "properties": {"@spider": "usps_collection_boxes", "addr:city": "LOWRY CITY", "addr:country": "US", "addr:full": "204 S MAIN ST", "addr:postcode": "64763", "addr:state": "MO", "amenity": "post_box", "brand": "United States Postal Service", "brand:wikidata": "Q668687", "collection_times": "Mo-Fr 16:30; Sa 09:45", "name": "USPS COLLECTION BOX - BLUE BOX", "note": "ON 12/24 AND 12/31, THIS BOX MAY BE COLLECTED AS EARLY AS 12 NOON.", "nsi_id": "unitedstatespostalservice-a77078", "operator": "United States Postal Service", "operator:short": "USPS", "operator:type": "public", "operator:wikidata": "Q668687", "ref": "6476300000"}, "type": "Feature"}
{"dataset_attributes": {"@spider": "usps_collection_boxes", "spider:collection_time": "2023-10-25T08:26:15.836184"}, "geometry": {"coordinates": [-93.727769, 38.140063], "type": "Point"}, "id": "R_rWamJ6KxOgHWVNb7VTctd84fk=", "properties": {"@spider": "usps_collection_boxes", "addr:city": "LOWRY CITY", "addr:country": "US", "addr:full": "204 S MAIN ST", "addr:postcode": "64763", "addr:state": "MO", "amenity": "post_box", "brand": "United States Postal Service", "brand:wikidata": "Q668687", "collection_times": "Mo-Fr 16:30; Sa 09:45", "name": "USPS COLLECTION BOX - PO LOBBY", "note": "ON 12/24 AND 12/31, THIS BOX MAY BE COLLECTED AS EARLY AS 12 NOON.", "nsi_id": "unitedstatespostalservice-a77078", "operator": "United States Postal Service", "operator:short": "USPS", "operator:type": "public", "operator:wikidata": "Q668687", "ref": "6476300002"}, "type": "Feature"}
{"dataset_attributes": {"@spider": "usps_collection_boxes", "spider:collection_time": "2023-10-25T08:26:15.836184"}, "geometry": {"coordinates": [-93.727804876, 38.141206211], "type": "Point"}, "id": "dgfdoQcb9rUZ3vugFxp2ylW9PSY=", "properties": {"@spider": "usps_collection_boxes", "addr:city": "LOWRY CITY", "addr:country": "US", "addr:full": "204 S MAIN ST", "addr:postcode": "64763", "addr:state": "MO", "amenity": "post_box", "brand": "United States Postal Service", "brand:wikidata": "Q668687", "collection_times": "Mo-Fr 16:30; Sa 10:00", "name": "USPS COLLECTION BOX - PO LOBBY", "note": "ON 12/24 AND 12/31, THIS BOX MAY BE COLLECTED AS EARLY AS 12 NOON.", "nsi_id": "unitedstatespostalservice-a77078", "operator": "United States Postal Service", "operator:short": "USPS", "operator:type": "public", "operator:wikidata": "Q668687", "ref": "6476300003"}, "type": "Feature"}
{"dataset_attributes": {"@spider": "usps_collection_boxes", "spider:collection_time": "2023-10-25T08:26:15.836184"}, "geometry": {"coordinates": [-94.443067, 37.998183], "type": "Point"}, "id": "2mSRWnZ6Qbmpe5DZgE3MQo2P1Lo=", "properties": {"@spider": "usps_collection_boxes", "addr:city": "METZ", "addr:country": "US", "addr:full": "117 S MAIN ST", "addr:postcode": "64765", "addr:state": "MO", "amenity": "post_box", "brand": "United States Postal Service", "brand:wikidata": "Q668687", "collection_times": "Mo-Fr 14:15; Sa 13:45", "name": "USPS COLLECTION BOX - BLUE BOX", "note": "ON 12/24 AND 12/31, THIS BOX MAY BE COLLECTED AS EARLY AS 12 NOON.", "nsi_id": "unitedstatespostalservice-a77078", "operator": "United States Postal Service", "operator:short": "USPS", "operator:type": "public", "operator:wikidata": "Q668687", "ref": "6476500000"}, "type": "Feature"}
{"dataset_attributes": {"@spider": "usps_collection_boxes", "spider:collection_time": "2023-10-25T08:26:15.836184"}, "geometry": {"coordinates": [-94.443067, 37.998183], "type": "Point"}, "id": "yi14HdFgs59tCo7IEe3SEMnFM9E=", "properties": {"@spider": "usps_collection_boxes", "addr:city": "METZ", "addr:country": "US", "addr:full": "117 S MAIN ST", "addr:postcode": "64765", "addr:state": "MO", "amenity": "post_box", "brand": "United States Postal Service", "brand:wikidata": "Q668687", "collection_times": "Mo-Fr 13:15; Sa 09:15", "name": "USPS COLLECTION BOX - PO LOBBY", "note": "ON 12/24 AND 12/31, THIS BOX MAY BE COLLECTED AS EARLY AS 12 NOON.", "nsi_id": "unitedstatespostalservice-a77078", "operator": "United States Postal Service", "operator:short": "USPS", "operator:type": "public", "operator:wikidata": "Q668687", "ref": "6476500001"}, "type": "Feature"}
{"dataset_attributes": {"@spider": "usps_collection_boxes", "spider:collection_time": "2023-10-25T08:26:15.836184"}, "geometry": {"coordinates": [-94.443035656, 37.998153], "type": "Point"}, "id": "S9uy1brZZdxG8dXESfQWB3lOu2E=", "properties": {"@spider": "usps_collection_boxes", "addr:city": "METZ", "addr:country": "US", "addr:full": "117 S MAIN ST", "addr:postcode": "64765", "addr:state": "MO", "amenity": "post_box", "brand": "United States Postal Service", "brand:wikidata": "Q668687", "collection_times": "Mo-Fr 14:30; Sa 14:00", "name": "USPS COLLECTION BOX - PO LOBBY", "note": "ON 12/24 AND 12/31, THIS BOX MAY BE COLLECTED AS EARLY AS 12 NOON.", "nsi_id": "unitedstatespostalservice-a77078", "operator": "United States Postal Service", "operator:short": "USPS", "operator:type": "public", "operator:wikidata": "Q668687", "ref": "6476500002"}, "type": "Feature"}
{"dataset_attributes": {"@spider": "usps_collection_boxes", "spider:collection_time": "2023-10-25T08:26:15.836184"}, "geometry": {"coordinates": [-94.305548, 37.75587], "type": "Point"}, "id": "55qYk8PaJAwA5Z4z7YuvU5W3P6c=", "properties": {"@spider": "usps_collection_boxes", "addr:city": "MILO", "addr:country": "US", "addr:full": "162 E MAIN ST", "addr:postcode": "64767", "addr:state": "MO", "amenity": "post_box", "brand": "United States Postal Service", "brand:wikidata": "Q668687", "collection_times": "Mo-Sa 14:45", "name": "USPS COLLECTION BOX - BLUE BOX", "note": "ON 12/24 AND 12/31, THIS BOX MAY BE COLLECTED AS EARLY AS 12 NOON.", "nsi_id": "unitedstatespostalservice-a77078", "operator": "United States Postal Service", "operator:short": "USPS", "operator:type": "public", "operator:wikidata": "Q668687", "ref": "6476700000"}, "type": "Feature"}
{"dataset_attributes": {"@spider": "usps_collection_boxes", "spider:collection_time": "2023-10-25T08:26:15.836184"}, "geometry": {"coordinates": [-94.305548, 37.75587], "type": "Point"}, "id": "iWNolFE1qK0f3q_XxeoYg2ZTvZc=", "properties": {"@spider": "usps_collection_boxes", "addr:city": "MILO", "addr:country": "US", "addr:full": "162 E MAIN ST", "addr:postcode": "64767", "addr:state": "MO", "amenity": "post_box", "brand": "United States Postal Service", "brand:wikidata": "Q668687", "collection_times": "Mo-Sa 14:45", "name": "USPS COLLECTION BOX - PO LOBBY", "note": "ON 12/24 AND 12/31, THIS BOX MAY BE COLLECTED AS EARLY AS 12 NOON.", "nsi_id": "unitedstatespostalservice-a77078", "operator": "United States Postal Service", "operator:short": "USPS", "operator:type": "public", "operator:wikidata": "Q668687", "ref": "6476700001"}, "type": "Feature"}
{"dataset_attributes": {"@spider": "usps_collection_boxes", "spider:collection_time": "2023-10-25T08:26:15.836184"}, "geometry": {"coordinates": [-94.305623506, 37.755835492], "type": "Point"}, "id": "DU1e66J47Kj38wq1kH2gK0r1r8o=", "properties": {"@spider": "usps_collection_boxes", "addr:city": "MILO", "addr:country": "US", "addr:full": "162 E MAIN ST", "addr:postcode": "64767", "addr:state": "MO", "amenity": "post_box", "brand": "United States Postal Service", "brand:wikidata": "Q668687", "collection_times": "Mo-Sa 15:00", "name": "USPS COLLECTION BOX - PO LOBBY", "note": "ON 12/24 AND 12/31, THIS BOX MAY BE COLLECTED AS EARLY AS 12 NOON.", "nsi_id": "unitedstatespostalservice-a77078", "operator": "United States Postal Service", "operator:short": "USPS", "operator:type": "public", "operator:wikidata": "Q668687", "ref": "6476700002"}, "type": "Feature"}
{"dataset_attributes": {"@spider": "usps_collection_boxes", "spider:collection_time": "2023-10-25T08:26:15.836184"}, "geometry": {"coordinates": [-94.588899, 37.478136], "type": "Point"}, "id": "nbdWAue2XCAnpUvOBXYv1TCm5jI=", "properties": {"@spider": "usps_collection_boxes", "addr:city": "MINDENMINES", "addr:country": "US", "addr:full": "604 MAIN ST", "addr:postcode": "64769", "addr:state": "MO", "amenity": "post_box", "brand": "United States Postal Service", "brand:wikidata": "Q668687", "collection_times": "Mo-Fr 12:15; Sa 10:00", "name": "USPS COLLECTION BOX - BLUE BOX", "note": "ON 12/24 AND 12/31, THIS BOX MAY BE COLLECTED AS EARLY AS 12 NOON.", "nsi_id": "unitedstatespostalservice-a77078", "operator": "United States Postal Service", "operator:short": "USPS", "operator:type": "public", "operator:wikidata": "Q668687", "ref": "6476900000"}, "type": "Feature"}
{"dataset_attributes": {"@spider": "usps_collection_boxes", "spider:collection_time": "2023-10-25T08:26:15.836184"}, "geometry": {"coordinates": [-94.588899, 37.478136], "type": "Point"}, "id": "-I7awFtiThMjhiWir78YKvde7PY=", "properties": {"@spider": "usps_collection_boxes", "addr:city": "MINDENMINES", "addr:country": "US", "addr:full": "604 MAIN ST", "addr:postcode": "64769", "addr:state": "MO", "amenity": "post_box", "brand": "United States Postal Service", "brand:wikidata": "Q668687", "collection_times": "Mo-Fr 12:45; Sa 10:00", "name": "USPS COLLECTION BOX - PO LOBBY", "note": "ON 12/24 AND 12/31, THIS BOX MAY BE COLLECTED AS EARLY AS 12 NOON.", "nsi_id": "unitedstatespostalservice-a77078", "operator": "United States Postal Service", "operator:short": "USPS", "operator:type": "public", "operator:wikidata": "Q668687", "ref": "6476900001"}, "type": "Feature"}
{"dataset_attributes": {"@spider": "usps_collection_boxes", "spider:collection_time": "2023-10-25T08:26:15.836184"}, "geometry": {"coordinates": [-94.588883466, 37.474177711], "type": "Point"}, "id": "5G-qoKsJdQ-J-do37-CYgUSS_j4=", "properties": {"@spider": "usps_collection_boxes", "addr:city": "MINDENMINES", "addr:country": "US", "addr:full": "604 MAIN ST", "addr:postcode": "64769", "addr:state": "MO", "amenity": "post_box", "brand": "United States Postal Service", "brand:wikidata": "Q668687", "collection_times": "Mo-Fr 12:45; Sa 10:00", "name": "USPS COLLECTION BOX - PO LOBBY", "note": "ON 12/24 AND 12/31, THIS BOX MAY BE COLLECTED AS EARLY AS 12 NOON.", "nsi_id": "unitedstatespostalservice-a77078", "operator": "United States Postal Service", "operator:short": "USPS", "operator:type": "public", "operator:wikidata": "Q668687", "ref": "6476900002"}, "type": "Feature"}
{"dataset_attributes": {"@spider": "usps_collection_boxes", "spider:collection_time": "2023-10-25T08:26:15.836184"}, "geometry": {"coordinates": [-93.9795789746, 38.257325994], "type": "Point"}, "id": "GJHBZUXCXYApME5jAsrIuM4G5F0=", "properties": {"@spider": "usps_collection_boxes", "addr:city": "MONTROSE", "addr:country": "US", "addr:full": "307 ILLINOIS AVE", "addr:postcode": "64770", "addr:state": "MO", "amenity": "post_box", "brand": "United States Postal Service", "brand:wikidata": "Q668687", "collection_times": "Mo-Fr 15:45; Sa 10:15", "name": "USPS COLLECTION BOX - BLUE BOX", "note": "ON 12/24 AND 12/31, THIS BOX MAY BE COLLECTED AS EARLY AS 12 NOON.", "nsi_id": "unitedstatespostalservice-a77078", "operator": "United States Postal Service", "operator:short": "USPS", "operator:type": "public", "operator:wikidata": "Q668687", "ref": "6477000000"}, "type": "Feature"}
{"dataset_attributes": {"@spider": "usps_collection_boxes", "spider:collection_time": "2023-10-25T08:26:15.836184"}, "geometry": {"coordinates": [-93.979837, 38.25746], "type": "Point"}, "id": "yKb2dl5gJ5ndrqPkOpoxm7ijpxM=", "properties": {"@spider": "usps_collection_boxes", "addr:city": "MONTROSE", "addr:country": "US", "addr:full": "307 ILLINOIS AVE", "addr:postcode": "64770", "addr:state": "MO", "amenity": "post_box", "brand": "United States Postal Service", "brand:wikidata": "Q668687", "collection_times": "Mo-Fr 15:45; Sa 09:15", "name": "USPS COLLECTION BOX - PO LOBBY", "note": "ON 12/24 AND 12/31, THIS BOX MAY BE COLLECTED AS EARLY AS 12 NOON.", "nsi_id": "unitedstatespostalservice-a77078", "operator": "United States Postal Service", "operator:short": "USPS", "operator:type": "public", "operator:wikidata": "Q668687", "ref": "6477000001"}, "type": "Feature"}
{"dataset_attributes": {"@spider": "usps_collection_boxes", "spider:collection_time": "2023-10-25T08:26:15.836184"}, "geometry": {"coordinates": [-93.979837156, 38.257450628], "type": "Point"}, "id": "ztXdWRq0XUr5jKafgyx42D5e3yg=", "properties": {"@spider": "usps_collection_boxes", "addr:city": "MONTROSE", "addr:country": "US", "addr:full": "307 ILLINOIS AVE", "addr:postcode": "64770", "addr:state": "MO", "amenity": "post_box", "brand": "United States Postal Service", "brand:wikidata": "Q668687", "collection_times": "Mo-Fr 16:00; Sa 10:30", "name": "USPS COLLECTION BOX - PO LOBBY", "note": "ON 12/24 AND 12/31, THIS BOX MAY BE COLLECTED AS EARLY AS 12 NOON.", "nsi_id": "unitedstatespostalservice-a77078", "operator": "United States Postal Service", "operator:short": "USPS", "operator:type": "public", "operator:wikidata": "Q668687", "ref": "6477000002"}, "type": "Feature"}
{"dataset_attributes": {"@spider": "usps_collection_boxes", "spider:collection_time": "2023-10-25T08:26:15.836184"}, "geometry": {"coordinates": [-94.45327, 37.764301], "type": "Point"}, "id": "rC3HRpmDP1suTnfg17BSAT12V1M=", "properties": {"@spider": "usps_collection_boxes", "addr:city": "MOUNDVILLE", "addr:country": "US", "addr:full": "101 S MAIN ST", "addr:postcode": "64771", "addr:state": "MO", "amenity": "post_box", "brand": "United States Postal Service", "brand:wikidata": "Q668687", "collection_times": "Mo-Fr 11:15; Sa 09:15", "name": "USPS COLLECTION BOX - BLUE BOX", "nsi_id": "unitedstatespostalservice-a77078", "operator": "United States Postal Service", "operator:short": "USPS", "operator:type": "public", "operator:wikidata": "Q668687", "ref": "6477100000"}, "type": "Feature"}
{"dataset_attributes": {"@spider": "usps_collection_boxes", "spider:collection_time": "2023-10-25T08:26:15.836184"}, "geometry": {"coordinates": [-94.45327, 37.764301], "type": "Point"}, "id": "uR66gbMSjda6LfpyOEqHNY46Qx0=", "properties": {"@spider": "usps_collection_boxes", "addr:city": "MOUNDVILLE", "addr:country": "US", "addr:full": "101 S MAIN ST", "addr:postcode": "64771", "addr:state": "MO", "amenity": "post_box", "brand": "United States Postal Service", "brand:wikidata": "Q668687", "collection_times": "Mo-Fr 11:00; Sa 09:00", "name": "USPS COLLECTION BOX - PO LOBBY", "nsi_id": "unitedstatespostalservice-a77078", "operator": "United States Postal Service", "operator:short": "USPS", "operator:type": "public", "operator:wikidata": "Q668687", "ref": "6477100001"}, "type": "Feature"}
{"dataset_attributes": {"@spider": "usps_collection_boxes", "spider:collection_time": "2023-10-25T08:26:15.836184"}, "geometry": {"coordinates": [-94.453236284, 37.764179078], "type": "Point"}, "id": "YO3Mn039dcFfxdOvHpmWgcpmHr0=", "properties": {"@spider": "usps_collection_boxes", "addr:city": "MOUNDVILLE", "addr:country": "US", "addr:full": "101 S MAIN ST", "addr:postcode": "64771", "addr:state": "MO", "amenity": "post_box", "brand": "United States Postal Service", "brand:wikidata": "Q668687", "collection_times": "Mo-Fr 11:30; Sa 09:30", "name": "USPS COLLECTION BOX - PO LOBBY", "nsi_id": "unitedstatespostalservice-a77078", "operator": "United States Postal Service", "operator:short": "USPS", "operator:type": "public", "operator:wikidata": "Q668687", "ref": "6477100003"}, "type": "Feature"}
{"dataset_attributes": {"@spider": "usps_collection_boxes", "spider:collection_time": "2023-10-25T08:26:15.836184"}, "geometry": {"coordinates": [-94.353992, 37.83808], "type": "Point"}, "id": "_y2SsHILwVj6XQSj8r1ugUH35-0=", "properties": {"@spider": "usps_collection_boxes", "addr:city": "NEVADA", "addr:country": "US", "addr:full": "104 S OAK ST", "addr:postcode": "64772", "addr:state": "MO", "amenity": "post_box", "brand": "United States Postal Service", "brand:wikidata": "Q668687", "collection_times": "Mo-Fr 17:15; Sa 17:00", "name": "USPS COLLECTION BOX - BLUE BOX", "note": "ON 12/24 AND 12/31, THIS BOX MAY BE COLLECTED AS EARLY AS 12 NOON.", "nsi_id": "unitedstatespostalservice-a77078", "operator": "United States Postal Service", "operator:short": "USPS", "operator:type": "public", "operator:wikidata": "Q668687", "ref": "6477200002"}, "type": "Feature"}
{"dataset_attributes": {"@spider": "usps_collection_boxes", "spider:collection_time": "2023-10-25T08:26:15.836184"}, "geometry": {"coordinates": [-94.3576654, 37.838388], "type": "Point"}, "id": "yi82ijhzoPpEz4J43aGrbuJyv9E=", "properties": {"@spider": "usps_collection_boxes", "addr:city": "NEVADA", "addr:country": "US", "addr:full": "100 W CHERRY ST", "addr:postcode": "64772", "addr:state": "MO", "amenity": "post_box", "brand": "United States Postal Service", "brand:wikidata": "Q668687", "collection_times": "Mo-Fr 15:15; Sa 14:30", "name": "USPS COLLECTION BOX - BLUE BOX", "note": "ON 12/24 AND 12/31, THIS BOX MAY BE COLLECTED AS EARLY AS 12 NOON.", "nsi_id": "unitedstatespostalservice-a77078", "operator": "United States Postal Service", "operator:short": "USPS", "operator:type": "public", "operator:wikidata": "Q668687", "ref": "6477200003"}, "type": "Feature"}
{"dataset_attributes": {"@spider": "usps_collection_boxes", "spider:collection_time": "2023-10-25T08:26:15.836184"}, "geometry": {"coordinates": [-94.3746912, 37.836743], "type": "Point"}, "id": "sfRzGxAwpku2TlPIRwzU4W2iuHs=", "properties": {"@spider": "usps_collection_boxes", "addr:city": "NEVADA", "addr:country": "US", "addr:full": "1407 W AUSTIN BLVD", "addr:postcode": "64772", "addr:state": "MO", "amenity": "post_box", "brand": "United States Postal Service", "brand:wikidata": "Q668687", "collection_times": "Mo-Fr 14:45; Sa 14:30", "name": "USPS COLLECTION BOX - BLUE BOX", "note": "ON 12/24 AND 12/31, THIS BOX MAY BE COLLECTED AS EARLY AS 12 NOON.", "nsi_id": "unitedstatespostalservice-a77078", "operator": "United States Postal Service", "operator:short": "USPS", "operator:type": "public", "operator:wikidata": "Q668687", "ref": "6477200007"}, "type": "Feature"}
{"dataset_attributes": {"@spider": "usps_collection_boxes", "spider:collection_time": "2023-10-25T08:26:15.836184"}, "geometry": {"coordinates": [-94.3260516, 37.83274], "type": "Point"}, "id": "S5iCTh_rveq4taE1u0XAiqG2Zeo=", "properties": {"@spider": "usps_collection_boxes", "addr:city": "NEVADA", "addr:country": "US", "addr:full": "2250 LINCOLN AVE", "addr:postcode": "64772", "addr:state": "MO", "amenity": "post_box", "brand": "United States Postal Service", "brand:wikidata": "Q668687", "collection_times": "Mo-Sa 14:30", "name": "USPS COLLECTION BOX - BLUE BOX", "note": "ON 12/24 AND 12/31, THIS BOX MAY BE COLLECTED AS EARLY AS 12 NOON.", "nsi_id": "unitedstatespostalservice-a77078", "operator": "United States Postal Service", "operator:short": "USPS", "operator:type": "public", "operator:wikidata": "Q668687", "ref": "6477200008"}, "type": "Feature"}
{"dataset_attributes": {"@spider": "usps_collection_boxes", "spider:collection_time": "2023-10-25T08:26:15.836184"}, "geometry": {"coordinates": [-94.353992, 37.83808], "type": "Point"}, "id": "zGQ1LN4E-X4eGKRNQ6ScIYeFwR4=", "properties": {"@spider": "usps_collection_boxes", "addr:city": "NEVADA", "addr:country": "US", "addr:full": "104 S OAK ST", "addr:postcode": "64772", "addr:state": "MO", "amenity": "post_box", "brand": "United States Postal Service", "brand:wikidata": "Q668687", "collection_times": "Mo-Fr 17:15; Sa 17:00", "name": "USPS COLLECTION BOX - PO LOBBY", "note": "ON 12/24 AND 12/31, THIS BOX MAY BE COLLECTED AS EARLY AS 12 NOON.", "nsi_id": "unitedstatespostalservice-a77078", "operator": "United States Postal Service", "operator:short": "USPS", "operator:type": "public", "operator:wikidata": "Q668687", "ref": "6477200011"}, "type": "Feature"}
{"dataset_attributes": {"@spider": "usps_collection_boxes", "spider:collection_time": "2023-10-25T08:26:15.836184"}, "geometry": {"coordinates": [-94.354045677, 37.837845063], "type": "Point"}, "id": "mBtGdY8cfQ8DEI_rnZUB0azVc1o=", "properties": {"@spider": "usps_collection_boxes", "addr:city": "NEVADA", "addr:country": "US", "addr:full": "104 S OAK ST", "addr:postcode": "64772", "addr:state": "MO", "amenity": "post_box", "brand": "United States Postal Service", "brand:wikidata": "Q668687", "collection_times": "Mo-Fr 17:00; Sa 12:00", "name": "USPS COLLECTION BOX - PO LOBBY", "note": "ON 12/24 AND 12/31, THIS BOX MAY BE COLLECTED AS EARLY AS 12 NOON.", "nsi_id": "unitedstatespostalservice-a77078", "operator": "United States Postal Service", "operator:short": "USPS", "operator:type": "public", "operator:wikidata": "Q668687", "ref": "6477200014"}, "type": "Feature"}
{"dataset_attributes": {"@spider": "usps_collection_boxes", "spider:collection_time": "2023-10-25T08:26:15.836184"}, "geometry": {"coordinates": [-93.703749, 38.045499], "type": "Point"}, "id": "8jf85K0HNtrlz77cDAUhsEiz1ZM=", "properties": {"@spider": "usps_collection_boxes", "addr:city": "OSCEOLA", "addr:country": "US", "addr:full": "565 3RD ST", "addr:postcode": "64776", "addr:state": "MO", "amenity": "post_box", "brand": "United States Postal Service", "brand:wikidata": "Q668687", "collection_times": "Mo-Fr 16:15; Sa 15:45", "name": "USPS COLLECTION BOX - BLUE BOX", "note": "ON 12/24 AND 12/31, THIS BOX MAY BE COLLECTED AS EARLY AS 12 NOON.", "nsi_id": "unitedstatespostalservice-a77078", "operator": "United States Postal Service", "operator:short": "USPS", "operator:type": "public", "operator:wikidata": "Q668687", "ref": "6477600000"}, "type": "Feature"}
{"dataset_attributes": {"@spider": "usps_collection_boxes", "spider:collection_time": "2023-10-25T08:26:15.836184"}, "geometry": {"coordinates": [-93.703736, 38.045563], "type": "Point"}, "id": "8jIuZcBp5jdDhj_rX6pQNgeJEw0=", "properties": {"@spider": "usps_collection_boxes", "addr:city": "OSCEOLA", "addr:country": "US", "addr:full": "565 3RD ST", "addr:postcode": "64776", "addr:state": "MO", "amenity": "post_box", "brand": "United States Postal Service", "brand:wikidata": "Q668687", "collection_times": "Mo-Fr 16:15; Sa 10:15", "name": "USPS COLLECTION BOX - PO LOBBY", "note": "ON 12/24 AND 12/31, THIS BOX MAY BE COLLECTED AS EARLY AS 12 NOON.", "nsi_id": "unitedstatespostalservice-a77078", "operator": "United States Postal Service", "operator:short": "USPS", "operator:type": "public", "operator:wikidata": "Q668687", "ref": "6477600001"}, "type": "Feature"}
{"dataset_attributes": {"@spider": "usps_collection_boxes", "spider:collection_time": "2023-10-25T08:26:15.836184"}, "geometry": {"coordinates": [-93.703736, 38.045563], "type": "Point"}, "id": "2yWM3vEX43eH0C3bs5OguzrjArM=", "properties": {"@spider": "usps_collection_boxes", "addr:city": "OSCEOLA", "addr:country": "US", "addr:full": "565 3RD ST", "addr:postcode": "64776", "addr:state": "MO", "amenity": "post_box", "brand": "United States Postal Service", "brand:wikidata": "Q668687", "collection_times": "Mo-Fr 16:15; Sa 10:15", "name": "USPS COLLECTION BOX - PO LOBBY", "note": "ON 12/24 AND 12/31, THIS BOX MAY BE COLLECTED AS EARLY AS 12 NOON.", "nsi_id": "unitedstatespostalservice-a77078", "operator": "United States Postal Service", "operator:short": "USPS", "operator:type": "public", "operator:wikidata": "Q668687", "ref": "6477600002"}, "type": "Feature"}
{"dataset_attributes": {"@spider": "usps_collection_boxes", "spider:collection_time": "2023-10-25T08:26:15.836184"}, "geometry": {"coordinates": [-93.702800589, 38.046579394], "type": "Point"}, "id": "zQA1vJ_tIZ2VSXYv5Nici6j6EjY=", "properties": {"@spider": "usps_collection_boxes", "addr:city": "OSCEOLA", "addr:country": "US", "addr:full": "565 3RD ST", "addr:postcode": "64776", "addr:state": "MO", "amenity": "post_box", "brand": "United States Postal Service", "brand:wikidata": "Q668687", "collection_times": "Mo-Fr 16:30; Sa 10:30", "name": "USPS COLLECTION BOX - PO LOBBY", "note": "ON 12/24 AND 12/31, THIS BOX MAY BE COLLECTED AS EARLY AS 12 NOON.", "nsi_id": "unitedstatespostalservice-a77078", "operator": "United States Postal Service", "operator:short": "USPS", "operator:type": "public", "operator:wikidata": "Q668687", "ref": "6477600003"}, "type": "Feature"}
{"dataset_attributes": {"@spider": "usps_collection_boxes", "spider:collection_time": "2023-10-25T08:26:15.836184"}, "geometry": {"coordinates": [-94.556499, 37.909966], "type": "Point"}, "id": "ct48-LJQSR2hjW6o0-uQhVsDmIQ=", "properties": {"@spider": "usps_collection_boxes", "addr:city": "RICHARDS", "addr:country": "US", "addr:full": "12309 S MAIN ST", "addr:postcode": "64778", "addr:state": "MO", "amenity": "post_box", "brand": "United States Postal Service", "brand:wikidata": "Q668687", "collection_times": "Mo-Fr 11:15; Sa 09:45", "name": "USPS COLLECTION BOX - BLUE BOX", "nsi_id": "unitedstatespostalservice-a77078", "operator": "United States Postal Service", "operator:short": "USPS", "operator:type": "public", "operator:wikidata": "Q668687", "ref": "6477800000"}, "type": "Feature"}
{"dataset_attributes": {"@spider": "usps_collection_boxes", "spider:collection_time": "2023-10-25T08:26:15.836184"}, "geometry": {"coordinates": [-94.556538, 37.909902], "type": "Point"}, "id": "s6A_Atv-8K_juc4dc9qrXn7BIMc=", "properties": {"@spider": "usps_collection_boxes", "addr:city": "RICHARDS", "addr:country": "US", "addr:full": "12309 S MAIN ST", "addr:postcode": "64778", "addr:state": "MO", "amenity": "post_box", "brand": "United States Postal Service", "brand:wikidata": "Q668687", "collection_times": "Mo-Fr 11:00; Sa 09:30", "name": "USPS COLLECTION BOX - PO LOBBY", "nsi_id": "unitedstatespostalservice-a77078", "operator": "United States Postal Service", "operator:short": "USPS", "operator:type": "public", "operator:wikidata": "Q668687", "ref": "6477800001"}, "type": "Feature"}
{"dataset_attributes": {"@spider": "usps_collection_boxes", "spider:collection_time": "2023-10-25T08:26:15.836184"}, "geometry": {"coordinates": [-94.5565092728, 37.9099065437], "type": "Point"}, "id": "NMU3REqAJ5xVO-ebhPOOPAZkFjc=", "properties": {"@spider": "usps_collection_boxes", "addr:city": "RICHARDS", "addr:country": "US", "addr:full": "12309 S MAIN ST", "addr:postcode": "64778", "addr:state": "MO", "amenity": "post_box", "brand": "United States Postal Service", "brand:wikidata": "Q668687", "collection_times": "Mo-Fr 11:30; Sa 10:00", "name": "USPS COLLECTION BOX - PO LOBBY", "nsi_id": "unitedstatespostalservice-a77078", "operator": "United States Postal Service", "operator:short": "USPS", "operator:type": "public", "operator:wikidata": "Q668687", "ref": "6477800002"}, "type": "Feature"}
{"dataset_attributes": {"@spider": "usps_collection_boxes", "spider:collection_time": "2023-10-25T08:26:15.836184"}, "geometry": {"coordinates": [-94.3628896643, 38.0965679748], "type": "Point"}, "id": "BVKPBvtQfoQQh9876mvcm94p8lI=", "properties": {"@spider": "usps_collection_boxes", "addr:city": "RICH HILL", "addr:country": "US", "addr:full": "114 N 6TH ST", "addr:postcode": "64779", "addr:state": "MO", "amenity": "post_box", "brand": "United States Postal Service", "brand:wikidata": "Q668687", "collection_times": "Mo-Fr 16:15; Sa 09:45", "name": "USPS COLLECTION BOX - BLUE BOX", "note": "ON 12/24 AND 12/31, THIS BOX MAY BE COLLECTED AS EARLY AS 12 NOON.", "nsi_id": "unitedstatespostalservice-a77078", "operator": "United States Postal Service", "operator:short": "USPS", "operator:type": "public", "operator:wikidata": "Q668687", "ref": "6477900001"}, "type": "Feature"}
{"dataset_attributes": {"@spider": "usps_collection_boxes", "spider:collection_time": "2023-10-25T08:26:15.836184"}, "geometry": {"coordinates": [-94.362802, 38.096581], "type": "Point"}, "id": "xdysZICNJG2j6msWHCQI6rrMKLg=", "properties": {"@spider": "usps_collection_boxes", "addr:city": "RICH HILL", "addr:country": "US", "addr:full": "114 N 6TH ST", "addr:postcode": "64779", "addr:state": "MO", "amenity": "post_box", "brand": "United States Postal Service", "brand:wikidata": "Q668687", "collection_times": "Mo-Fr 16:30; Sa 09:45", "name": "USPS COLLECTION BOX - PO LOBBY", "note": "ON 12/24 AND 12/31, THIS BOX MAY BE COLLECTED AS EARLY AS 12 NOON.", "nsi_id": "unitedstatespostalservice-a77078", "operator": "United States Postal Service", "operator:short": "USPS", "operator:type": "public", "operator:wikidata": "Q668687", "ref": "6477900004"}, "type": "Feature"}
{"dataset_attributes": {"@spider": "usps_collection_boxes", "spider:collection_time": "2023-10-25T08:26:15.836184"}, "geometry": {"coordinates": [-94.362874505, 38.096579532], "type": "Point"}, "id": "qO3ke-dNrMPH70RKw2isyZ3Mt78=", "properties": {"@spider": "usps_collection_boxes", "addr:city": "RICH HILL", "addr:country": "US", "addr:full": "114 N 6TH ST", "addr:postcode": "64779", "addr:state": "MO", "amenity": "post_box", "brand": "United States Postal Service", "brand:wikidata": "Q668687", "collection_times": "Mo-Fr 16:30; Sa 10:00", "name": "USPS COLLECTION BOX - PO LOBBY", "note": "ON 12/24 AND 12/31, THIS BOX MAY BE COLLECTED AS EARLY AS 12 NOON.", "nsi_id": "unitedstatespostalservice-a77078", "operator": "United States Postal Service", "operator:short": "USPS", "operator:type": "public", "operator:wikidata": "Q668687", "ref": "6477900005"}, "type": "Feature"}
{"dataset_attributes": {"@spider": "usps_collection_boxes", "spider:collection_time": "2023-10-25T08:26:15.836184"}, "geometry": {"coordinates": [-94.084256, 38.070271], "type": "Point"}, "id": "vLgvVsrXbZEyCEaxngK_sT-KBXM=", "properties": {"@spider": "usps_collection_boxes", "addr:city": "ROCKVILLE", "addr:country": "US", "addr:full": "318 W OSAGE AVE", "addr:postcode": "64780", "addr:state": "MO", "amenity": "post_box", "brand": "United States Postal Service", "brand:wikidata": "Q668687", "collection_times": "Mo-Fr 12:15; Sa 09:30", "name": "USPS COLLECTION BOX - BLUE BOX", "note": "ON 12/24 AND 12/31, THIS BOX MAY BE COLLECTED AS EARLY AS 12 NOON.", "nsi_id": "unitedstatespostalservice-a77078", "operator": "United States Postal Service", "operator:short": "USPS", "operator:type": "public", "operator:wikidata": "Q668687", "ref": "6478000000"}, "type": "Feature"}
{"dataset_attributes": {"@spider": "usps_collection_boxes", "spider:collection_time": "2023-10-25T08:26:15.836184"}, "geometry": {"coordinates": [-94.080418, 38.070161], "type": "Point"}, "id": "qLBmZS_QygG0zMTbr6N6YXwox7k=", "properties": {"@spider": "usps_collection_boxes", "addr:city": "ROCKVILLE", "addr:country": "US", "addr:full": "318 W OSAGE AVE", "addr:postcode": "64780", "addr:state": "MO", "amenity": "post_box", "brand": "United States Postal Service", "brand:wikidata": "Q668687", "collection_times": "Mo-Fr 12:15; Sa 09:30", "name": "USPS COLLECTION BOX - PO LOBBY", "note": "ON 12/24 AND 12/31, THIS BOX MAY BE COLLECTED AS EARLY AS 12 NOON.", "nsi_id": "unitedstatespostalservice-a77078", "operator": "United States Postal Service", "operator:short": "USPS", "operator:type": "public", "operator:wikidata": "Q668687", "ref": "6478000002"}, "type": "Feature"}
{"dataset_attributes": {"@spider": "usps_collection_boxes", "spider:collection_time": "2023-10-25T08:26:15.836184"}, "geometry": {"coordinates": [-94.081769298, 38.070085875], "type": "Point"}, "id": "JkyG4i_7U2jfW8yeLmfx7t42tkg=", "properties": {"@spider": "usps_collection_boxes", "addr:city": "ROCKVILLE", "addr:country": "US", "addr:full": "407 OSAGE AVE", "addr:postcode": "64780", "addr:state": "MO", "amenity": "post_box", "brand": "United States Postal Service", "brand:wikidata": "Q668687", "collection_times": "Mo-Fr 12:30; Sa 09:45", "name": "USPS COLLECTION BOX - PO LOBBY", "note": "ON 12/24 AND 12/31, THIS BOX MAY BE COLLECTED AS EARLY AS 12 NOON.", "nsi_id": "unitedstatespostalservice-a77078", "operator": "United States Postal Service", "operator:short": "USPS", "operator:type": "public", "operator:wikidata": "Q668687", "ref": "6478000003"}, "type": "Feature"}
{"dataset_attributes": {"@spider": "usps_collection_boxes", "spider:collection_time": "2023-10-25T08:26:15.836184"}, "geometry": {"coordinates": [-93.8098402353, 37.9759302587], "type": "Point"}, "id": "_EKfzFvsy_NzskPo-J_rg37uUz0=", "properties": {"@spider": "usps_collection_boxes", "addr:city": "ROSCOE", "addr:country": "US", "addr:full": "100 PECAN ST", "addr:postcode": "64781", "addr:state": "MO", "amenity": "post_box", "brand": "United States Postal Service", "brand:wikidata": "Q668687", "collection_times": "Mo-Fr 15:15; Sa 13:30", "name": "USPS COLLECTION BOX - BLUE BOX", "note": "ON 12/24 AND 12/31, THIS BOX MAY BE COLLECTED AS EARLY AS 12 NOON.", "nsi_id": "unitedstatespostalservice-a77078", "operator": "United States Postal Service", "operator:short": "USPS", "operator:type": "public", "operator:wikidata": "Q668687", "ref": "6478100000"}, "type": "Feature"}
{"dataset_attributes": {"@spider": "usps_collection_boxes", "spider:collection_time": "2023-10-25T08:26:15.836184"}, "geometry": {"coordinates": [-93.8098402353, 37.9759302587], "type": "Point"}, "id": "EQMsZKsxdD6lP-GKopZ74JIvJQs=", "properties": {"@spider": "usps_collection_boxes", "addr:city": "ROSCOE", "addr:country": "US", "addr:full": "100 PECAN ST", "addr:postcode": "64781", "addr:state": "MO", "amenity": "post_box", "brand": "United States Postal Service", "brand:wikidata": "Q668687", "collection_times": "Mo-Fr 15:15; Sa 10:00", "name": "USPS COLLECTION BOX - PO LOBBY", "note": "ON 12/24 AND 12/31, THIS BOX MAY BE COLLECTED AS EARLY AS 12 NOON.", "nsi_id": "unitedstatespostalservice-a77078", "operator": "United States Postal Service", "operator:short": "USPS", "operator:type": "public", "operator:wikidata": "Q668687", "ref": "6478100001"}, "type": "Feature"}
{"dataset_attributes": {"@spider": "usps_collection_boxes", "spider:collection_time": "2023-10-25T08:26:15.836184"}, "geometry": {"coordinates": [-93.8045660126, 37.9765265126], "type": "Point"}, "id": "RoW9hUcwvAmC4mJUR31k31q_2-4=", "properties": {"@spider": "usps_collection_boxes", "addr:city": "ROSCOE", "addr:country": "US", "addr:full": "100 PECAN ST", "addr:postcode": "64781", "addr:state": "MO", "amenity": "post_box", "brand": "United States Postal Service", "brand:wikidata": "Q668687", "collection_times": "Mo-Fr 15:30; Sa 15:45", "name": "USPS COLLECTION BOX - PO LOBBY", "note": "ON 12/24 AND 12/31, THIS BOX MAY BE COLLECTED AS EARLY AS 12 NOON.", "nsi_id": "unitedstatespostalservice-a77078", "operator": "United States Postal Service", "operator:short": "USPS", "operator:type": "public", "operator:wikidata": "Q668687", "ref": "6478100002"}, "type": "Feature"}
{"dataset_attributes": {"@spider": "usps_collection_boxes", "spider:collection_time": "2023-10-25T08:26:15.836184"}, "geometry": {"coordinates": [-94.114434, 38.018556], "type": "Point"}, "id": "j07J2hmY5o9aaUH7BWqHhY_03Ow=", "properties": {"@spider": "usps_collection_boxes", "addr:city": "SCHELL CITY", "addr:country": "US", "addr:full": "101 W 1ST ST", "addr:postcode": "64783", "addr:state": "MO", "amenity": "post_box", "brand": "United States Postal Service", "brand:wikidata": "Q668687", "collection_times": "Mo-Fr 15:45; Sa 15:00", "name": "USPS COLLECTION BOX - BLUE BOX", "note": "ON 12/24 AND 12/31, THIS BOX MAY BE COLLECTED AS EARLY AS 12 NOON.", "nsi_id": "unitedstatespostalservice-a77078", "operator": "United States Postal Service", "operator:short": "USPS", "operator:type": "public", "operator:wikidata": "Q668687", "ref": "6478300000"}, "type": "Feature"}
{"dataset_attributes": {"@spider": "usps_collection_boxes", "spider:collection_time": "2023-10-25T08:26:15.836184"}, "geometry": {"coordinates": [-94.114319, 38.01858], "type": "Point"}, "id": "tONCDnLf6aC-7qg-OhMllhle270=", "properties": {"@spider": "usps_collection_boxes", "addr:city": "SCHELL CITY", "addr:country": "US", "addr:full": "101 W 1ST ST", "addr:postcode": "64783", "addr:state": "MO", "amenity": "post_box", "brand": "United States Postal Service", "brand:wikidata": "Q668687", "collection_times": "Mo-Fr 11:30; Sa 09:00", "name": "USPS COLLECTION BOX - PO LOBBY", "nsi_id": "unitedstatespostalservice-a77078", "operator": "United States Postal Service", "operator:short": "USPS", "operator:type": "public", "operator:wikidata": "Q668687", "ref": "6478300001"}, "type": "Feature"}
{"dataset_attributes": {"@spider": "usps_collection_boxes", "spider:collection_time": "2023-10-25T08:26:15.836184"}, "geometry": {"coordinates": [-94.114602419, 38.018558496], "type": "Point"}, "id": "TnGJBjt50g3Q3HwXw5cI5-fOq4M=", "properties": {"@spider": "usps_collection_boxes", "addr:city": "SCHELL CITY", "addr:country": "US", "addr:full": "101 W 1ST ST", "addr:postcode": "64783", "addr:state": "MO", "amenity": "post_box", "brand": "United States Postal Service", "brand:wikidata": "Q668687", "collection_times": "Mo-Fr 12:00; Sa 09:30", "name": "USPS COLLECTION BOX - PO LOBBY", "nsi_id": "unitedstatespostalservice-a77078", "operator": "United States Postal Service", "operator:short": "USPS", "operator:type": "public", "operator:wikidata": "Q668687", "ref": "6478300002"}, "type": "Feature"}
{"dataset_attributes": {"@spider": "usps_collection_boxes", "spider:collection_time": "2023-10-25T08:26:15.836184"}, "geometry": {"coordinates": [-94.2947004133, 37.6580754677], "type": "Point"}, "id": "GiDl6NS9woFpYJ3Gvshm6ztBHLM=", "properties": {"@spider": "usps_collection_boxes", "addr:city": "SHELDON", "addr:country": "US", "addr:full": "300 W MAIN ST", "addr:postcode": "64784", "addr:state": "MO", "amenity": "post_box", "brand": "United States Postal Service", "brand:wikidata": "Q668687", "collection_times": "Mo-Fr 15:15; Sa 09:15", "name": "USPS COLLECTION BOX - PO LOBBY", "note": "ON 12/24 AND 12/31, THIS BOX MAY BE COLLECTED AS EARLY AS 12 NOON.", "nsi_id": "unitedstatespostalservice-a77078", "operator": "United States Postal Service", "operator:short": "USPS", "operator:type": "public", "operator:wikidata": "Q668687", "ref": "6478400004"}, "type": "Feature"}
{"dataset_attributes": {"@spider": "usps_collection_boxes", "spider:collection_time": "2023-10-25T08:26:15.836184"}, "geometry": {"coordinates": [-94.2947004133, 37.6580754677], "type": "Point"}, "id": "c-d7nwB9JxnaLn6a3TuWO6aLq_c=", "properties": {"@spider": "usps_collection_boxes", "addr:city": "SHELDON", "addr:country": "US", "addr:full": "300 W MAIN ST", "addr:postcode": "64784", "addr:state": "MO", "amenity": "post_box", "brand": "United States Postal Service", "brand:wikidata": "Q668687", "collection_times": "Mo-Fr 15:15; Sa 09:15", "name": "USPS COLLECTION BOX - BLUE BOX", "note": "ON 12/24 AND 12/31, THIS BOX MAY BE COLLECTED AS EARLY AS 12 NOON.", "nsi_id": "unitedstatespostalservice-a77078", "operator": "United States Postal Service", "operator:short": "USPS", "operator:type": "public", "operator:wikidata": "Q668687", "ref": "6478400005"}, "type": "Feature"}
{"dataset_attributes": {"@spider": "usps_collection_boxes", "spider:collection_time": "2023-10-25T08:26:15.836184"}, "geometry": {"coordinates": [-94.2947004133, 37.6580754677], "type": "Point"}, "id": "jwRqfWggYD4rY1x7gk83Kbr9fGE=", "properties": {"@spider": "usps_collection_boxes", "addr:city": "SHELDON", "addr:country": "US", "addr:full": "300 W MAIN ST", "addr:postcode": "64784", "addr:state": "MO", "amenity": "post_box", "brand": "United States Postal Service", "brand:wikidata": "Q668687", "collection_times": "Mo-Fr 15:15; Sa 09:15", "name": "USPS COLLECTION BOX - PO LOBBY", "note": "ON 12/24 AND 12/31, THIS BOX MAY BE COLLECTED AS EARLY AS 12 NOON.", "nsi_id": "unitedstatespostalservice-a77078", "operator": "United States Postal Service", "operator:short": "USPS", "operator:type": "public", "operator:wikidata": "Q668687", "ref": "6478400006"}, "type": "Feature"}
{"dataset_attributes": {"@spider": "usps_collection_boxes", "spider:collection_time": "2023-10-25T08:26:15.836184"}, "geometry": {"coordinates": [-94.001189, 38.458545], "type": "Point"}, "id": "udVzB-6a-Gk1UIQzI6T0hSzqWM4=", "properties": {"@spider": "usps_collection_boxes", "addr:city": "URICH", "addr:country": "US", "addr:full": "310 N MAIN ST", "addr:postcode": "64788", "addr:state": "MO", "amenity": "post_box", "brand": "United States Postal Service", "brand:wikidata": "Q668687", "collection_times": "Mo-Fr 16:00; Sa 16:15", "name": "USPS COLLECTION BOX - BLUE BOX", "note": "ON 12/24 AND 12/31, THIS BOX MAY BE COLLECTED AS EARLY AS 12 NOON.", "nsi_id": "unitedstatespostalservice-a77078", "operator": "United States Postal Service", "operator:short": "USPS", "operator:type": "public", "operator:wikidata": "Q668687", "ref": "6478800000"}, "type": "Feature"}
{"dataset_attributes": {"@spider": "usps_collection_boxes", "spider:collection_time": "2023-10-25T08:26:15.836184"}, "geometry": {"coordinates": [-94.001189, 38.458545], "type": "Point"}, "id": "sIFxwkuxHPc_dGFsM0M-jsseoRs=", "properties": {"@spider": "usps_collection_boxes", "addr:city": "URICH", "addr:country": "US", "addr:full": "310 N MAIN ST", "addr:postcode": "64788", "addr:state": "MO", "amenity": "post_box", "brand": "United States Postal Service", "brand:wikidata": "Q668687", "collection_times": "Mo-Fr 11:30; Sa 09:45", "name": "USPS COLLECTION BOX - PO LOBBY", "nsi_id": "unitedstatespostalservice-a77078", "operator": "United States Postal Service", "operator:short": "USPS", "operator:type": "public", "operator:wikidata": "Q668687", "ref": "6478800003"}, "type": "Feature"}
{"dataset_attributes": {"@spider": "usps_collection_boxes", "spider:collection_time": "2023-10-25T08:26:15.836184"}, "geometry": {"coordinates": [-94.23178, 37.89847], "type": "Point"}, "id": "mMFiBj7LrnUUVfZjgZgDIi4p8nI=", "properties": {"@spider": "usps_collection_boxes", "addr:city": "WALKER", "addr:country": "US", "addr:full": "116 E MARVIN AVE", "addr:postcode": "64790", "addr:state": "MO", "amenity": "post_box", "brand": "United States Postal Service", "brand:wikidata": "Q668687", "collection_times": "Mo-Fr 11:15; Sa 09:30", "name": "USPS COLLECTION BOX - BLUE BOX", "nsi_id": "unitedstatespostalservice-a77078", "operator": "United States Postal Service", "operator:short": "USPS", "operator:type": "public", "operator:wikidata": "Q668687", "ref": "6479000000"}, "type": "Feature"}
{"dataset_attributes": {"@spider": "usps_collection_boxes", "spider:collection_time": "2023-10-25T08:26:15.836184"}, "geometry": {"coordinates": [-94.231856, 37.898499], "type": "Point"}, "id": "7MBGFkyb8KdvAKg-Pj8Csq8cD1U=", "properties": {"@spider": "usps_collection_boxes", "addr:city": "WALKER", "addr:country": "US", "addr:full": "116 E MARVIN AVE", "addr:postcode": "64790", "addr:state": "MO", "amenity": "post_box", "brand": "United States Postal Service", "brand:wikidata": "Q668687", "collection_times": "Mo-Fr 11:30; Sa 09:00", "name": "USPS COLLECTION BOX - PO LOBBY", "nsi_id": "unitedstatespostalservice-a77078", "operator": "United States Postal Service", "operator:short": "USPS", "operator:type": "public", "operator:wikidata": "Q668687", "ref": "6479000001"}, "type": "Feature"}
{"dataset_attributes": {"@spider": "usps_collection_boxes", "spider:collection_time": "2023-10-25T08:26:15.836184"}, "geometry": {"coordinates": [-94.2312604191, 37.8984515251], "type": "Point"}, "id": "apbN65IiFLL0RzGNuLI38mSgGK8=", "properties": {"@spider": "usps_collection_boxes", "addr:city": "WALKER", "addr:country": "US", "addr:full": "116 E MARVIN AVE", "addr:postcode": "64790", "addr:state": "MO", "amenity": "post_box", "brand": "United States Postal Service", "brand:wikidata": "Q668687", "collection_times": "Mo-Fr 11:45; Sa 09:30", "name": "USPS COLLECTION BOX - PO LOBBY", "nsi_id": "unitedstatespostalservice-a77078", "operator": "United States Postal Service", "operator:short": "USPS", "operator:type": "public", "operator:wikidata": "Q668687", "ref": "6479000002"}, "type": "Feature"}
