{"dataset_attributes": {"@spider": "usps_collection_boxes", "spider:collection_time": "2023-10-01T08:22:44.298171"}, "geometry": {"coordinates": [-94.4588775, 37.083476], "type": "Point"}, "id": "GHzbOifiiBAsKVXqITMtPlQVJzM=", "properties": {"@spider": "usps_collection_boxes", "addr:city": "JOPLIN", "addr:country": "US", "addr:full": "701 DUQUESNE RD", "addr:postcode": "64801", "addr:state": "MO", "amenity": "post_box", "brand": "United States Postal Service", "brand:wikidata": "Q668687", "collection_times": "Mo-Sa 13:00", "name": "USPS COLLECTION BOX - BLUE BOX", "note": "ON 12/24 AND 12/31, THIS BOX MAY BE COLLECTED AS EARLY AS 12 NOON.", "nsi_id": "unitedstatespostalservice-a77078", "operator": "United States Postal Service", "operator:short": "USPS", "operator:type": "public", "operator:wikidata": "Q668687", "ref": "6480100008"}, "type": "Feature"}
{"dataset_attributes": {"@spider": "usps_collection_boxes", "spider:collection_time": "2023-10-01T08:22:44.298171"}, "geometry": {"coordinates": [-94.5023027, 37.082907], "type": "Point"}, "id": "8ZzORAVP4qHqbp7vaN-wG_qKP74=", "properties": {"@spider": "usps_collection_boxes", "addr:city": "JOPLIN", "addr:country": "US", "addr:full": "705 ILLINOIS AVE", "addr:postcode": "64801", "addr:state": "MO", "amenity": "post_box", "brand": "United States Postal Service", "brand:wikidata": "Q668687", "collection_times": "Mo-Sa 11:00", "name": "USPS COLLECTION BOX - BLUE BOX", "nsi_id": "unitedstatespostalservice-a77078", "operator": "United States Postal Service", "operator:short": "USPS", "operator:type": "public", "operator:wikidata": "Q668687", "ref": "6480100011"}, "type": "Feature"}
{"dataset_attributes": {"@spider": "usps_collection_boxes", "spider:collection_time": "2023-10-01T08:22:44.298171"}, "geometry": {"coordinates": [-94.512840013, 37.090829982], "type": "Point"}, "id": "lX7w7LEhd_U23g0P8uk-FRDL-8w=", "properties": {"@spider": "usps_collection_boxes", "addr:city": "JOPLIN", "addr:country": "US", "addr:full": "101 N MAIN ST", "addr:postcode": "64801", "addr:state": "MO", "amenity": "post_box", "brand": "United States Postal Service", "brand:wikidata": "Q668687", "collection_times": "Mo-Sa 16:30", "name": "USPS COLLECTION BOX - BLUE BOX", "note": "ON 12/24 AND 12/31, THIS BOX MAY BE COLLECTED AS EARLY AS 12 NOON.", "nsi_id": "unitedstatespostalservice-a77078", "operator": "United States Postal Service", "operator:short": "USPS", "operator:type": "public", "operator:wikidata": "Q668687", "ref": "6480100028"}, "type": "Feature"}
{"dataset_attributes": {"@spider": "usps_collection_boxes", "spider:collection_time": "2023-10-01T08:22:44.298171"}, "geometry": {"coordinates": [-94.5005659, 37.081851], "type": "Point"}, "id": "603oel6GByxkthWNijdmS1rGOBU=", "properties": {"@spider": "usps_collection_boxes", "addr:city": "JOPLIN", "addr:country": "US", "addr:full": "1110 E 7TH ST", "addr:postcode": "64801", "addr:state": "MO", "amenity": "post_box", "brand": "United States Postal Service", "brand:wikidata": "Q668687", "collection_times": "Mo-Sa 11:00", "name": "USPS COLLECTION BOX - BLUE BOX", "nsi_id": "unitedstatespostalservice-a77078", "operator": "United States Postal Service", "operator:short": "USPS", "operator:type": "public", "operator:wikidata": "Q668687", "ref": "6480100078"}, "type": "Feature"}
{"dataset_attributes": {"@spider": "usps_collection_boxes", "spider:collection_time": "2023-10-01T08:22:44.298171"}, "geometry": {"coordinates": [-94.4695428, 37.097072], "type": "Point"}, "id": "elYbmHWStMyGxRN8hCJPtfH1cJc=", "properties": {"@spider": "usps_collection_boxes", "addr:city": "JOPLIN", "addr:country": "US", "addr:full": "3502 NEWMAN RD", "addr:postcode": "64801", "addr:state": "MO", "amenity": "post_box", "brand": "United States Postal Service", "brand:wikidata": "Q668687", "collection_times": "Mo-Sa 11:00", "name": "USPS COLLECTION BOX - BLUE BOX", "nsi_id": "unitedstatespostalservice-a77078", "operator": "United States Postal Service", "operator:short": "USPS", "operator:type": "public", "operator:wikidata": "Q668687", "ref": "6480100107"}, "type": "Feature"}
{"dataset_attributes": {"@spider": "usps_collection_boxes", "spider:collection_time": "2023-10-01T08:22:44.298171"}, "geometry": {"coordinates": [-94.5311949, 37.08672], "type": "Point"}, "id": "3jj0araPUY_kKp_A04Bh9FqulsI=", "properties": {"@spider": "usps_collection_boxes", "addr:city": "JOPLIN", "addr:country": "US", "addr:full": "530 S MAIDEN LN", "addr:postcode": "64801", "addr:state": "MO", "amenity": "post_box", "brand": "United States Postal Service", "brand:wikidata": "Q668687", "collection_times": "Mo-Fr 14:45; Sa 14:30", "name": "USPS COLLECTION BOX - BLUE BOX", "note": "ON 12/24 AND 12/31, THIS BOX MAY BE COLLECTED AS EARLY AS 12 NOON.", "nsi_id": "unitedstatespostalservice-a77078", "operator": "United States Postal Service", "operator:short": "USPS", "operator:type": "public", "operator:wikidata": "Q668687", "ref": "6480100119"}, "type": "Feature"}
{"dataset_attributes": {"@spider": "usps_collection_boxes", "spider:collection_time": "2023-10-01T08:22:44.298171"}, "geometry": {"coordinates": [-94.5312135, 37.086705], "type": "Point"}, "id": "WwoHL_W78stuSbcMx_VDy4JQbp8=", "properties": {"@spider": "usps_collection_boxes", "addr:city": "JOPLIN", "addr:country": "US", "addr:full": "530 S MAIDEN LN", "addr:postcode": "64801", "addr:state": "MO", "amenity": "post_box", "brand": "United States Postal Service", "brand:wikidata": "Q668687", "collection_times": "Mo-Fr 14:45; Sa 14:30", "name": "USPS COLLECTION BOX - BLUE BOX", "note": "ON 12/24 AND 12/31, THIS BOX MAY BE COLLECTED AS EARLY AS 12 NOON.", "nsi_id": "unitedstatespostalservice-a77078", "operator": "United States Postal Service", "operator:short": "USPS", "operator:type": "public", "operator:wikidata": "Q668687", "ref": "6480100120"}, "type": "Feature"}
{"dataset_attributes": {"@spider": "usps_collection_boxes", "spider:collection_time": "2023-10-01T08:22:44.298171"}, "geometry": {"coordinates": [-94.4752851, 37.090996], "type": "Point"}, "id": "Jf7_q4fy49ddCIEjHmSWN57lGc0=", "properties": {"@spider": "usps_collection_boxes", "addr:city": "JOPLIN", "addr:country": "US", "addr:full": "101 N RANGE LINE RD", "addr:postcode": "64801", "addr:state": "MO", "amenity": "post_box", "brand": "United States Postal Service", "brand:wikidata": "Q668687", "collection_times": "Mo-Sa 09:30", "name": "USPS COLLECTION BOX - BLUE BOX", "nsi_id": "unitedstatespostalservice-a77078", "operator": "United States Postal Service", "operator:short": "USPS", "operator:type": "public", "operator:wikidata": "Q668687", "ref": "6480100122"}, "type": "Feature"}
{"dataset_attributes": {"@spider": "usps_collection_boxes", "spider:collection_time": "2023-10-01T08:22:44.298171"}, "geometry": {"coordinates": [-94.512840013, 37.090829982], "type": "Point"}, "id": "b6TTR6ZVb-p63inf41XFwnb6G4I=", "properties": {"@spider": "usps_collection_boxes", "addr:city": "JOPLIN", "addr:country": "US", "addr:full": "101 N MAIN ST", "addr:postcode": "64801", "addr:state": "MO", "amenity": "post_box", "brand": "United States Postal Service", "brand:wikidata": "Q668687", "collection_times": "Mo-Sa 16:30", "name": "USPS COLLECTION BOX - PO LOBBY", "note": "ON 12/24 AND 12/31, THIS BOX MAY BE COLLECTED AS EARLY AS 12 NOON.", "nsi_id": "unitedstatespostalservice-a77078", "operator": "United States Postal Service", "operator:short": "USPS", "operator:type": "public", "operator:wikidata": "Q668687", "ref": "6480100127"}, "type": "Feature"}
{"dataset_attributes": {"@spider": "usps_collection_boxes", "spider:collection_time": "2023-10-01T08:22:44.298171"}, "geometry": {"coordinates": [-94.512840013, 37.090829982], "type": "Point"}, "id": "Of5qEa2osG8uWkqWySixJrlMXLU=", "properties": {"@spider": "usps_collection_boxes", "addr:city": "JOPLIN", "addr:country": "US", "addr:full": "101 N MAIN ST", "addr:postcode": "64801", "addr:state": "MO", "amenity": "post_box", "brand": "United States Postal Service", "brand:wikidata": "Q668687", "collection_times": "Mo-Sa 16:30", "name": "USPS COLLECTION BOX - PO LOBBY", "note": "ON 12/24 AND 12/31, THIS BOX MAY BE COLLECTED AS EARLY AS 12 NOON.", "nsi_id": "unitedstatespostalservice-a77078", "operator": "United States Postal Service", "operator:short": "USPS", "operator:type": "public", "operator:wikidata": "Q668687", "ref": "6480100128"}, "type": "Feature"}
{"dataset_attributes": {"@spider": "usps_collection_boxes", "spider:collection_time": "2023-10-01T08:22:44.298171"}, "geometry": {"coordinates": [-94.512840013, 37.090829982], "type": "Point"}, "id": "gux6_v5zDPK7MHL4I73PA0M8270=", "properties": {"@spider": "usps_collection_boxes", "addr:city": "JOPLIN", "addr:country": "US", "addr:full": "101 N MAIN ST", "addr:postcode": "64801", "addr:state": "MO", "amenity": "post_box", "brand": "United States Postal Service", "brand:wikidata": "Q668687", "collection_times": "Mo-Sa 16:30", "name": "USPS COLLECTION BOX - PO LOBBY", "note": "ON 12/24 AND 12/31, THIS BOX MAY BE COLLECTED AS EARLY AS 12 NOON.", "nsi_id": "unitedstatespostalservice-a77078", "operator": "United States Postal Service", "operator:short": "USPS", "operator:type": "public", "operator:wikidata": "Q668687", "ref": "6480100129"}, "type": "Feature"}
{"dataset_attributes": {"@spider": "usps_collection_boxes", "spider:collection_time": "2023-10-01T08:22:44.298171"}, "geometry": {"coordinates": [-94.5468941, 37.085523], "type": "Point"}, "id": "sCX09x2_F9q8juUrEQ-hTH2plHI=", "properties": {"@spider": "usps_collection_boxes", "addr:city": "JOPLIN", "addr:country": "US", "addr:full": "2623 W 7TH ST", "addr:postcode": "64801", "addr:state": "MO", "amenity": "post_box", "brand": "United States Postal Service", "brand:wikidata": "Q668687", "collection_times": "Mo-Sa 09:00", "name": "USPS COLLECTION BOX - BLUE BOX", "nsi_id": "unitedstatespostalservice-a77078", "operator": "United States Postal Service", "operator:short": "USPS", "operator:type": "public", "operator:wikidata": "Q668687", "ref": "6480100130"}, "type": "Feature"}
{"dataset_attributes": {"@spider": "usps_collection_boxes", "spider:collection_time": "2023-10-01T08:22:44.298171"}, "geometry": {"coordinates": [-94.4762673, 37.11235], "type": "Point"}, "id": "8AlJFx9nhohbBQ5bF_QiWXd4uh4=", "properties": {"@spider": "usps_collection_boxes", "addr:city": "JOPLIN", "addr:country": "US", "addr:full": "2530 N RANGELINE RD", "addr:postcode": "64801", "addr:state": "MO", "amenity": "post_box", "brand": "United States Postal Service", "brand:wikidata": "Q668687", "collection_times": "Mo-Sa 14:30", "name": "USPS COLLECTION BOX - BLUE BOX", "note": "ON 12/24 AND 12/31, THIS BOX MAY BE COLLECTED AS EARLY AS 12 NOON.", "nsi_id": "unitedstatespostalservice-a77078", "operator": "United States Postal Service", "operator:short": "USPS", "operator:type": "public", "operator:wikidata": "Q668687", "ref": "6480100132"}, "type": "Feature"}
{"dataset_attributes": {"@spider": "usps_collection_boxes", "spider:collection_time": "2023-10-01T08:22:44.298171"}, "geometry": {"coordinates": [-94.5108700146, 37.1411999814], "type": "Point"}, "id": "SyCdNIq7M1gVG04jsSYYwJvNRzo=", "properties": {"@spider": "usps_collection_boxes", "addr:city": "JOPLIN", "addr:country": "US", "addr:full": "5935 N MAIN ST", "addr:postcode": "64801", "addr:state": "MO", "amenity": "post_box", "brand": "United States Postal Service", "brand:wikidata": "Q668687", "collection_times": "Mo-Sa 10:00", "name": "USPS COLLECTION BOX - BLUE BOX", "nsi_id": "unitedstatespostalservice-a77078", "operator": "United States Postal Service", "operator:short": "USPS", "operator:type": "public", "operator:wikidata": "Q668687", "ref": "6480100133"}, "type": "Feature"}
{"dataset_attributes": {"@spider": "usps_collection_boxes", "spider:collection_time": "2023-10-01T08:22:44.298171"}, "geometry": {"coordinates": [-94.512840013, 37.090829982], "type": "Point"}, "id": "Hit9nz0EtmUX2dBfsWW57iYMqZE=", "properties": {"@spider": "usps_collection_boxes", "addr:city": "JOPLIN", "addr:country": "US", "addr:full": "101 N MAIN ST", "addr:postcode": "64801", "addr:state": "MO", "amenity": "post_box", "brand": "United States Postal Service", "brand:wikidata": "Q668687", "collection_times": "Mo-Fr 17:15; Sa 12:15", "name": "USPS COLLECTION BOX - PO LOBBY", "note": "ON 12/24 AND 12/31, THIS BOX MAY BE COLLECTED AS EARLY AS 12 NOON.", "nsi_id": "unitedstatespostalservice-a77078", "operator": "United States Postal Service", "operator:short": "USPS", "operator:type": "public", "operator:wikidata": "Q668687", "ref": "6480100140"}, "type": "Feature"}
{"dataset_attributes": {"@spider": "usps_collection_boxes", "spider:collection_time": "2023-10-01T08:22:44.298171"}, "geometry": {"coordinates": [-94.5150542, 37.072103], "type": "Point"}, "id": "WeJ1wAIeJLbQry0OS25_Xyr53ho=", "properties": {"@spider": "usps_collection_boxes", "addr:city": "JOPLIN", "addr:country": "US", "addr:full": "1731 S JOPLIN AVE", "addr:postcode": "64804", "addr:state": "MO", "amenity": "post_box", "brand": "United States Postal Service", "brand:wikidata": "Q668687", "collection_times": "Mo-Sa 14:45", "name": "USPS COLLECTION BOX - BLUE BOX", "note": "ON 12/24 AND 12/31, THIS BOX MAY BE COLLECTED AS EARLY AS 12 NOON.", "nsi_id": "unitedstatespostalservice-a77078", "operator": "United States Postal Service", "operator:short": "USPS", "operator:type": "public", "operator:wikidata": "Q668687", "ref": "6480400000"}, "type": "Feature"}
{"dataset_attributes": {"@spider": "usps_collection_boxes", "spider:collection_time": "2023-10-01T08:22:44.298171"}, "geometry": {"coordinates": [-94.5150521, 37.072117], "type": "Point"}, "id": "wBGD_SuCXO2OHsxnhPEwvr2R62k=", "properties": {"@spider": "usps_collection_boxes", "addr:city": "JOPLIN", "addr:country": "US", "addr:full": "1731 S JOPLIN AVE", "addr:postcode": "64804", "addr:state": "MO", "amenity": "post_box", "brand": "United States Postal Service", "brand:wikidata": "Q668687", "collection_times": "Mo-Sa 14:45", "name": "USPS COLLECTION BOX - BLUE BOX", "note": "ON 12/24 AND 12/31, THIS BOX MAY BE COLLECTED AS EARLY AS 12 NOON.", "nsi_id": "unitedstatespostalservice-a77078", "operator": "United States Postal Service", "operator:short": "USPS", "operator:type": "public", "operator:wikidata": "Q668687", "ref": "6480400001"}, "type": "Feature"}
{"dataset_attributes": {"@spider": "usps_collection_boxes", "spider:collection_time": "2023-10-01T08:22:44.298171"}, "geometry": {"coordinates": [-94.514769, 37.055937], "type": "Point"}, "id": "ztGbIdxe4p8P3CI64gcRhnWnEqg=", "properties": {"@spider": "usps_collection_boxes", "addr:city": "JOPLIN", "addr:country": "US", "addr:full": "3115 S MAIN ST", "addr:postcode": "64804", "addr:state": "MO", "amenity": "post_box", "brand": "United States Postal Service", "brand:wikidata": "Q668687", "collection_times": "Mo-Fr 16:00; Sa 12:00", "name": "USPS COLLECTION BOX - BLUE BOX", "note": "ON 12/24 AND 12/31, THIS BOX MAY BE COLLECTED AS EARLY AS 12 NOON.", "nsi_id": "unitedstatespostalservice-a77078", "operator": "United States Postal Service", "operator:short": "USPS", "operator:type": "public", "operator:wikidata": "Q668687", "ref": "6480400011"}, "type": "Feature"}
{"dataset_attributes": {"@spider": "usps_collection_boxes", "spider:collection_time": "2023-10-01T08:22:44.298171"}, "geometry": {"coordinates": [-94.4787605, 37.055517], "type": "Point"}, "id": "XMPvZegkFQwnAaqAS4pmX-jDKJQ=", "properties": {"@spider": "usps_collection_boxes", "addr:city": "JOPLIN", "addr:country": "US", "addr:full": "3132 S RANGE LINE RD", "addr:postcode": "64804", "addr:state": "MO", "amenity": "post_box", "brand": "United States Postal Service", "brand:wikidata": "Q668687", "collection_times": "Mo-Sa 10:00", "name": "USPS COLLECTION BOX - BLUE BOX", "nsi_id": "unitedstatespostalservice-a77078", "operator": "United States Postal Service", "operator:short": "USPS", "operator:type": "public", "operator:wikidata": "Q668687", "ref": "6480400028"}, "type": "Feature"}
{"dataset_attributes": {"@spider": "usps_collection_boxes", "spider:collection_time": "2023-10-01T08:22:44.298171"}, "geometry": {"coordinates": [-94.4787608, 37.055531], "type": "Point"}, "id": "xGCE2MMXmc-42AqnSbokRAtD-wY=", "properties": {"@spider": "usps_collection_boxes", "addr:city": "JOPLIN", "addr:country": "US", "addr:full": "3132 S RANGE LINE RD", "addr:postcode": "64804", "addr:state": "MO", "amenity": "post_box", "brand": "United States Postal Service", "brand:wikidata": "Q668687", "collection_times": "Mo-Sa 10:00", "name": "USPS COLLECTION BOX - BLUE BOX", "nsi_id": "unitedstatespostalservice-a77078", "operator": "United States Postal Service", "operator:short": "USPS", "operator:type": "public", "operator:wikidata": "Q668687", "ref": "6480400029"}, "type": "Feature"}
{"dataset_attributes": {"@spider": "usps_collection_boxes", "spider:collection_time": "2023-10-01T08:22:44.298171"}, "geometry": {"coordinates": [-94.5260659, 37.051956], "type": "Point"}, "id": "HTzdM89LtzwzuOtw_-HA8yTAlR8=", "properties": {"@spider": "usps_collection_boxes", "addr:city": "JOPLIN", "addr:country": "US", "addr:full": "1102 W 32ND ST", "addr:postcode": "64804", "addr:state": "MO", "amenity": "post_box", "brand": "United States Postal Service", "brand:wikidata": "Q668687", "collection_times": "Mo-Sa 10:00", "name": "USPS COLLECTION BOX - BLUE BOX", "nsi_id": "unitedstatespostalservice-a77078", "operator": "United States Postal Service", "operator:short": "USPS", "operator:type": "public", "operator:wikidata": "Q668687", "ref": "6480400031"}, "type": "Feature"}
{"dataset_attributes": {"@spider": "usps_collection_boxes", "spider:collection_time": "2023-10-01T08:22:44.298171"}, "geometry": {"coordinates": [-94.5353217, 37.054382], "type": "Point"}, "id": "f7NxIC5K0tetRJAsSsool4Zi3_Q=", "properties": {"@spider": "usps_collection_boxes", "addr:city": "JOPLIN", "addr:country": "US", "addr:full": "1800 W 32ND ST", "addr:postcode": "64804", "addr:state": "MO", "amenity": "post_box", "brand": "United States Postal Service", "brand:wikidata": "Q668687", "collection_times": "Mo-Sa 14:45", "name": "USPS COLLECTION BOX - BLUE BOX", "note": "ON 12/24 AND 12/31, THIS BOX MAY BE COLLECTED AS EARLY AS 12 NOON.", "nsi_id": "unitedstatespostalservice-a77078", "operator": "United States Postal Service", "operator:short": "USPS", "operator:type": "public", "operator:wikidata": "Q668687", "ref": "6480400032"}, "type": "Feature"}
{"dataset_attributes": {"@spider": "usps_collection_boxes", "spider:collection_time": "2023-10-01T08:22:44.298171"}, "geometry": {"coordinates": [-94.5521471, 37.006867], "type": "Point"}, "id": "5Mu4XASRu3HlXW4cv2upQ7RpJ04=", "properties": {"@spider": "usps_collection_boxes", "addr:city": "JOPLIN", "addr:country": "US", "addr:full": "4240 HIGHWAY 43", "addr:postcode": "64804", "addr:state": "MO", "amenity": "post_box", "brand": "United States Postal Service", "brand:wikidata": "Q668687", "collection_times": "Mo-Sa 10:00", "name": "USPS COLLECTION BOX - BLUE BOX", "nsi_id": "unitedstatespostalservice-a77078", "operator": "United States Postal Service", "operator:short": "USPS", "operator:type": "public", "operator:wikidata": "Q668687", "ref": "6480400034"}, "type": "Feature"}
{"dataset_attributes": {"@spider": "usps_collection_boxes", "spider:collection_time": "2023-10-01T08:22:44.298171"}, "geometry": {"coordinates": [-94.514769, 37.055937], "type": "Point"}, "id": "EhT2lqTfuwGxA3nuX97tOAVWl-8=", "properties": {"@spider": "usps_collection_boxes", "addr:city": "JOPLIN", "addr:country": "US", "addr:full": "3115 S MAIN ST", "addr:postcode": "64804", "addr:state": "MO", "amenity": "post_box", "brand": "United States Postal Service", "brand:wikidata": "Q668687", "collection_times": "Mo-Fr 16:00; Sa 12:00", "name": "USPS COLLECTION BOX - PO LOBBY", "note": "ON 12/24 AND 12/31, THIS BOX MAY BE COLLECTED AS EARLY AS 12 NOON.", "nsi_id": "unitedstatespostalservice-a77078", "operator": "United States Postal Service", "operator:short": "USPS", "operator:type": "public", "operator:wikidata": "Q668687", "ref": "6480400048"}, "type": "Feature"}
{"dataset_attributes": {"@spider": "usps_collection_boxes", "spider:collection_time": "2023-10-01T08:22:44.298171"}, "geometry": {"coordinates": [-94.5786981, 36.997565], "type": "Point"}, "id": "N82C1Afx6IwjSXYVdXg2xdYDi5g=", "properties": {"@spider": "usps_collection_boxes", "addr:city": "JOPLIN", "addr:country": "US", "addr:full": "5000 BUTTERFIELD DR", "addr:postcode": "64804", "addr:state": "MO", "amenity": "post_box", "brand": "United States Postal Service", "brand:wikidata": "Q668687", "collection_times": "Mo-Sa 11:00", "name": "USPS COLLECTION BOX - BLUE BOX", "nsi_id": "unitedstatespostalservice-a77078", "operator": "United States Postal Service", "operator:short": "USPS", "operator:type": "public", "operator:wikidata": "Q668687", "ref": "6480400051"}, "type": "Feature"}
{"dataset_attributes": {"@spider": "usps_collection_boxes", "spider:collection_time": "2023-10-01T08:22:44.298171"}, "geometry": {"coordinates": [-94.4936747, 37.069144], "type": "Point"}, "id": "Cw65N1CtwcQJoRDa_uO0DTXyC3c=", "properties": {"@spider": "usps_collection_boxes", "addr:city": "JOPLIN", "addr:country": "US", "addr:full": "1904 E 20TH ST", "addr:postcode": "64804", "addr:state": "MO", "amenity": "post_box", "brand": "United States Postal Service", "brand:wikidata": "Q668687", "collection_times": "Mo-Sa 10:00", "name": "USPS COLLECTION BOX - BLUE BOX", "nsi_id": "unitedstatespostalservice-a77078", "operator": "United States Postal Service", "operator:short": "USPS", "operator:type": "public", "operator:wikidata": "Q668687", "ref": "6480400054"}, "type": "Feature"}
{"dataset_attributes": {"@spider": "usps_collection_boxes", "spider:collection_time": "2023-10-01T08:22:44.298171"}, "geometry": {"coordinates": [-94.5378022, 37.05648], "type": "Point"}, "id": "47tfEzEgVHdpTi4Td5Nkoji0X0Q=", "properties": {"@spider": "usps_collection_boxes", "addr:city": "JOPLIN", "addr:country": "US", "addr:full": "1905 W 32ND ST", "addr:postcode": "64804", "addr:state": "MO", "amenity": "post_box", "brand": "United States Postal Service", "brand:wikidata": "Q668687", "collection_times": "Mo-Fr 13:30; Sa 12:30", "name": "USPS COLLECTION BOX - BLUE BOX", "note": "ON 12/24 AND 12/31, THIS BOX MAY BE COLLECTED AS EARLY AS 12 NOON.", "nsi_id": "unitedstatespostalservice-a77078", "operator": "United States Postal Service", "operator:short": "USPS", "operator:type": "public", "operator:wikidata": "Q668687", "ref": "6480400056"}, "type": "Feature"}
{"dataset_attributes": {"@spider": "usps_collection_boxes", "spider:collection_time": "2023-10-01T08:22:44.298171"}, "geometry": {"coordinates": [-94.514769, 37.055937], "type": "Point"}, "id": "aS8PDYlTSjkFVdH1WRjxkUhgqlk=", "properties": {"@spider": "usps_collection_boxes", "addr:city": "JOPLIN", "addr:country": "US", "addr:full": "3115 S MAIN ST", "addr:postcode": "64804", "addr:state": "MO", "amenity": "post_box", "brand": "United States Postal Service", "brand:wikidata": "Q668687", "collection_times": "Mo-Fr 16:00; Sa 12:00", "name": "USPS COLLECTION BOX - APC", "note": "ON 12/24 AND 12/31, THIS BOX MAY BE COLLECTED AS EARLY AS 12 NOON.", "nsi_id": "unitedstatespostalservice-a77078", "operator": "United States Postal Service", "operator:short": "USPS", "operator:type": "public", "operator:wikidata": "Q668687", "ref": "6480400058"}, "type": "Feature"}
{"dataset_attributes": {"@spider": "usps_collection_boxes", "spider:collection_time": "2023-10-01T08:22:44.298171"}, "geometry": {"coordinates": [-94.514751193, 37.055948784], "type": "Point"}, "id": "LrDIY3dQP3GR2Qj5h9IsiDrZQw4=", "properties": {"@spider": "usps_collection_boxes", "addr:city": "JOPLIN", "addr:country": "US", "addr:full": "3115 S MAIN ST", "addr:postcode": "64804", "addr:state": "MO", "amenity": "post_box", "brand": "United States Postal Service", "brand:wikidata": "Q668687", "collection_times": "Mo-Fr 16:30; Sa 12:00", "name": "USPS COLLECTION BOX - PO LOBBY", "note": "ON 12/24 AND 12/31, THIS BOX MAY BE COLLECTED AS EARLY AS 12 NOON.", "nsi_id": "unitedstatespostalservice-a77078", "operator": "United States Postal Service", "operator:short": "USPS", "operator:type": "public", "operator:wikidata": "Q668687", "ref": "6480400063"}, "type": "Feature"}
{"dataset_attributes": {"@spider": "usps_collection_boxes", "spider:collection_time": "2023-10-01T08:22:44.298171"}, "geometry": {"coordinates": [-94.417779, 37.237934], "type": "Point"}, "id": "UW-NUriwfPOpf_J7NQfyg5cZj60=", "properties": {"@spider": "usps_collection_boxes", "addr:city": "ALBA", "addr:country": "US", "addr:full": "210 N MAIN ST", "addr:postcode": "64830", "addr:state": "MO", "amenity": "post_box", "brand": "United States Postal Service", "brand:wikidata": "Q668687", "collection_times": "Mo-Sa 10:15", "name": "USPS COLLECTION BOX - BLUE BOX", "nsi_id": "unitedstatespostalservice-a77078", "operator": "United States Postal Service", "operator:short": "USPS", "operator:type": "public", "operator:wikidata": "Q668687", "ref": "6483000000"}, "type": "Feature"}
{"dataset_attributes": {"@spider": "usps_collection_boxes", "spider:collection_time": "2023-10-01T08:22:44.298171"}, "geometry": {"coordinates": [-94.417779, 37.237934], "type": "Point"}, "id": "wna5be7RaRUH1AGHCzSYCCBIPsU=", "properties": {"@spider": "usps_collection_boxes", "addr:city": "ALBA", "addr:country": "US", "addr:full": "210 N MAIN ST", "addr:postcode": "64830", "addr:state": "MO", "amenity": "post_box", "brand": "United States Postal Service", "brand:wikidata": "Q668687", "collection_times": "Mo-Sa 10:00", "name": "USPS COLLECTION BOX - PO LOBBY", "nsi_id": "unitedstatespostalservice-a77078", "operator": "United States Postal Service", "operator:short": "USPS", "operator:type": "public", "operator:wikidata": "Q668687", "ref": "6483000001"}, "type": "Feature"}
{"dataset_attributes": {"@spider": "usps_collection_boxes", "spider:collection_time": "2023-10-01T08:22:44.298171"}, "geometry": {"coordinates": [-94.417795435, 37.238329425], "type": "Point"}, "id": "pq65Z4DeZAxPbLSPLer2JX08a1g=", "properties": {"@spider": "usps_collection_boxes", "addr:city": "ALBA", "addr:country": "US", "addr:full": "210 N MAIN ST", "addr:postcode": "64830", "addr:state": "MO", "amenity": "post_box", "brand": "United States Postal Service", "brand:wikidata": "Q668687", "collection_times": "Mo-Fr 16:30; Sa 10:30", "name": "USPS COLLECTION BOX - PO LOBBY", "note": "ON 12/24 AND 12/31, THIS BOX MAY BE COLLECTED AS EARLY AS 12 NOON.", "nsi_id": "unitedstatespostalservice-a77078", "operator": "United States Postal Service", "operator:short": "USPS", "operator:type": "public", "operator:wikidata": "Q668687", "ref": "6483000003"}, "type": "Feature"}
{"dataset_attributes": {"@spider": "usps_collection_boxes", "spider:collection_time": "2023-10-01T08:22:44.298171"}, "geometry": {"coordinates": [-94.443528, 36.650934], "type": "Point"}, "id": "u2jo0cwKu1OE3DSh5gLRQXY3N4w=", "properties": {"@spider": "usps_collection_boxes", "addr:city": "ANDERSON", "addr:country": "US", "addr:full": "200 E MAIN ST", "addr:postcode": "64831", "addr:state": "MO", "amenity": "post_box", "brand": "United States Postal Service", "brand:wikidata": "Q668687", "collection_times": "Mo-Fr 15:00; Sa 10:15", "name": "USPS COLLECTION BOX - PO LOBBY", "note": "ON 12/24 AND 12/31, THIS BOX MAY BE COLLECTED AS EARLY AS 12 NOON.", "nsi_id": "unitedstatespostalservice-a77078", "operator": "United States Postal Service", "operator:short": "USPS", "operator:type": "public", "operator:wikidata": "Q668687", "ref": "6483100002"}, "type": "Feature"}
{"dataset_attributes": {"@spider": "usps_collection_boxes", "spider:collection_time": "2023-10-01T08:22:44.298171"}, "geometry": {"coordinates": [-94.443528, 36.650934], "type": "Point"}, "id": "EKyCW9gIAAZtWa-_ihtbhb6vvfQ=", "properties": {"@spider": "usps_collection_boxes", "addr:city": "ANDERSON", "addr:country": "US", "addr:full": "200 E MAIN ST", "addr:postcode": "64831", "addr:state": "MO", "amenity": "post_box", "brand": "United States Postal Service", "brand:wikidata": "Q668687", "collection_times": "Mo-Fr 15:00; Sa 10:15", "name": "USPS COLLECTION BOX - BLUE BOX", "note": "ON 12/24 AND 12/31, THIS BOX MAY BE COLLECTED AS EARLY AS 12 NOON.", "nsi_id": "unitedstatespostalservice-a77078", "operator": "United States Postal Service", "operator:short": "USPS", "operator:type": "public", "operator:wikidata": "Q668687", "ref": "6483100004"}, "type": "Feature"}
{"dataset_attributes": {"@spider": "usps_collection_boxes", "spider:collection_time": "2023-10-01T08:22:44.298171"}, "geometry": {"coordinates": [-94.4424629475, 36.6508615506], "type": "Point"}, "id": "T26qnWVi5LuvNFLPyX2U8DIBdp8=", "properties": {"@spider": "usps_collection_boxes", "addr:city": "ANDERSON", "addr:country": "US", "addr:full": "200 E MAIN ST", "addr:postcode": "64831", "addr:state": "MO", "amenity": "post_box", "brand": "United States Postal Service", "brand:wikidata": "Q668687", "collection_times": "Mo-Fr 16:00; Sa 10:30", "name": "USPS COLLECTION BOX - PO LOBBY", "note": "ON 12/24 AND 12/31, THIS BOX MAY BE COLLECTED AS EARLY AS 12 NOON.", "nsi_id": "unitedstatespostalservice-a77078", "operator": "United States Postal Service", "operator:short": "USPS", "operator:type": "public", "operator:wikidata": "Q668687", "ref": "6483100006"}, "type": "Feature"}
{"dataset_attributes": {"@spider": "usps_collection_boxes", "spider:collection_time": "2023-10-01T08:22:44.298171"}, "geometry": {"coordinates": [-94.603851, 37.274475], "type": "Point"}, "id": "VCXO7H7U3DjAatxqEtfi5sLitK8=", "properties": {"@spider": "usps_collection_boxes", "addr:city": "ASBURY", "addr:country": "US", "addr:full": "497 MAIN ST", "addr:postcode": "64832", "addr:state": "MO", "amenity": "post_box", "brand": "United States Postal Service", "brand:wikidata": "Q668687", "collection_times": "Mo-Fr 11:00; Sa 09:00", "name": "USPS COLLECTION BOX - PO LOBBY", "nsi_id": "unitedstatespostalservice-a77078", "operator": "United States Postal Service", "operator:short": "USPS", "operator:type": "public", "operator:wikidata": "Q668687", "ref": "6483200000"}, "type": "Feature"}
{"dataset_attributes": {"@spider": "usps_collection_boxes", "spider:collection_time": "2023-10-01T08:22:44.298171"}, "geometry": {"coordinates": [-94.60396, 37.27445], "type": "Point"}, "id": "ENTTNuIyN-5jlAeBzCGMg_bmQrk=", "properties": {"@spider": "usps_collection_boxes", "addr:city": "ASBURY", "addr:country": "US", "addr:full": "497 MAIN ST", "addr:postcode": "64832", "addr:state": "MO", "amenity": "post_box", "brand": "United States Postal Service", "brand:wikidata": "Q668687", "collection_times": "Mo-Fr 11:00; Sa 09:00", "name": "USPS COLLECTION BOX - PO LOBBY", "nsi_id": "unitedstatespostalservice-a77078", "operator": "United States Postal Service", "operator:short": "USPS", "operator:type": "public", "operator:wikidata": "Q668687", "ref": "6483200001"}, "type": "Feature"}
{"dataset_attributes": {"@spider": "usps_collection_boxes", "spider:collection_time": "2023-10-01T08:22:44.298171"}, "geometry": {"coordinates": [-94.60396, 37.27445], "type": "Point"}, "id": "zdVjUaB6ywBJu6wf5-WLV4rDyy8=", "properties": {"@spider": "usps_collection_boxes", "addr:city": "ASBURY", "addr:country": "US", "addr:full": "497 MAIN ST", "addr:postcode": "64832", "addr:state": "MO", "amenity": "post_box", "brand": "United States Postal Service", "brand:wikidata": "Q668687", "collection_times": "Mo-Fr 11:00; Sa 09:00", "name": "USPS COLLECTION BOX - BLUE BOX", "nsi_id": "unitedstatespostalservice-a77078", "operator": "United States Postal Service", "operator:short": "USPS", "operator:type": "public", "operator:wikidata": "Q668687", "ref": "6483200002"}, "type": "Feature"}
{"dataset_attributes": {"@spider": "usps_collection_boxes", "spider:collection_time": "2023-10-01T08:22:44.298171"}, "geometry": {"coordinates": [-94.603770388, 37.274473445], "type": "Point"}, "id": "gp0Zpuud00rMfoTUZUahBwIqD3c=", "properties": {"@spider": "usps_collection_boxes", "addr:city": "ASBURY", "addr:country": "US", "addr:full": "497 MAIN ST", "addr:postcode": "64832", "addr:state": "MO", "amenity": "post_box", "brand": "United States Postal Service", "brand:wikidata": "Q668687", "collection_times": "Mo-Fr 11:30; Sa 12:00", "name": "USPS COLLECTION BOX - PO LOBBY", "nsi_id": "unitedstatespostalservice-a77078", "operator": "United States Postal Service", "operator:short": "USPS", "operator:type": "public", "operator:wikidata": "Q668687", "ref": "6483200004"}, "type": "Feature"}
{"dataset_attributes": {"@spider": "usps_collection_boxes", "spider:collection_time": "2023-10-01T08:22:44.298171"}, "geometry": {"coordinates": [-94.130023, 37.195841], "type": "Point"}, "id": "DBT1iVVS7W2JmrEyqiriNDoXs3Y=", "properties": {"@spider": "usps_collection_boxes", "addr:city": "AVILLA", "addr:country": "US", "addr:full": "205 GREENFIELD ST", "addr:postcode": "64833", "addr:state": "MO", "amenity": "post_box", "brand": "United States Postal Service", "brand:wikidata": "Q668687", "collection_times": "Mo-Fr 14:45; Sa 11:00", "name": "USPS COLLECTION BOX - BLUE BOX", "note": "ON 12/24 AND 12/31, THIS BOX MAY BE COLLECTED AS EARLY AS 12 NOON.", "nsi_id": "unitedstatespostalservice-a77078", "operator": "United States Postal Service", "operator:short": "USPS", "operator:type": "public", "operator:wikidata": "Q668687", "ref": "6483300000"}, "type": "Feature"}
{"dataset_attributes": {"@spider": "usps_collection_boxes", "spider:collection_time": "2023-10-01T08:22:44.298171"}, "geometry": {"coordinates": [-94.12992, 37.195812], "type": "Point"}, "id": "9hbExWK5DbSvITkD-3EmZEXrXnI=", "properties": {"@spider": "usps_collection_boxes", "addr:city": "AVILLA", "addr:country": "US", "addr:full": "205 GREENFIELD ST", "addr:postcode": "64833", "addr:state": "MO", "amenity": "post_box", "brand": "United States Postal Service", "brand:wikidata": "Q668687", "collection_times": "Mo-Fr 14:45; Sa 11:00", "name": "USPS COLLECTION BOX - PO LOBBY", "note": "ON 12/24 AND 12/31, THIS BOX MAY BE COLLECTED AS EARLY AS 12 NOON.", "nsi_id": "unitedstatespostalservice-a77078", "operator": "United States Postal Service", "operator:short": "USPS", "operator:type": "public", "operator:wikidata": "Q668687", "ref": "6483300002"}, "type": "Feature"}
{"dataset_attributes": {"@spider": "usps_collection_boxes", "spider:collection_time": "2023-10-01T08:22:44.298171"}, "geometry": {"coordinates": [-94.129929639, 37.195835511], "type": "Point"}, "id": "X9MfM4-F6b6OfpF1H1-AQtSlyog=", "properties": {"@spider": "usps_collection_boxes", "addr:city": "AVILLA", "addr:country": "US", "addr:full": "205 GREENFIELD ST", "addr:postcode": "64833", "addr:state": "MO", "amenity": "post_box", "brand": "United States Postal Service", "brand:wikidata": "Q668687", "collection_times": "Mo-Fr 15:00; Sa 11:30", "name": "USPS COLLECTION BOX - PO LOBBY", "note": "ON 12/24 AND 12/31, THIS BOX MAY BE COLLECTED AS EARLY AS 12 NOON.", "nsi_id": "unitedstatespostalservice-a77078", "operator": "United States Postal Service", "operator:short": "USPS", "operator:type": "public", "operator:wikidata": "Q668687", "ref": "6483300004"}, "type": "Feature"}
{"dataset_attributes": {"@spider": "usps_collection_boxes", "spider:collection_time": "2023-10-01T08:22:44.298171"}, "geometry": {"coordinates": [-94.564973, 37.176672], "type": "Point"}, "id": "WYgUZg8yF3gMpOECxWUhX9sN2A0=", "properties": {"@spider": "usps_collection_boxes", "addr:city": "CARL JUNCTION", "addr:country": "US", "addr:full": "111 S MAIN ST", "addr:postcode": "64834", "addr:state": "MO", "amenity": "post_box", "brand": "United States Postal Service", "brand:wikidata": "Q668687", "collection_times": "Mo-Fr 16:00; Sa 09:45", "name": "USPS COLLECTION BOX - BLUE BOX", "note": "ON 12/24 AND 12/31, THIS BOX MAY BE COLLECTED AS EARLY AS 12 NOON.", "nsi_id": "unitedstatespostalservice-a77078", "operator": "United States Postal Service", "operator:short": "USPS", "operator:type": "public", "operator:wikidata": "Q668687", "ref": "6483400000"}, "type": "Feature"}
{"dataset_attributes": {"@spider": "usps_collection_boxes", "spider:collection_time": "2023-10-01T08:22:44.298171"}, "geometry": {"coordinates": [-94.564973, 37.176672], "type": "Point"}, "id": "DwTNZvbgkdYADSvj3mgEeV8aAqQ=", "properties": {"@spider": "usps_collection_boxes", "addr:city": "CARL JUNCTION", "addr:country": "US", "addr:full": "111 S MAIN ST", "addr:postcode": "64834", "addr:state": "MO", "amenity": "post_box", "brand": "United States Postal Service", "brand:wikidata": "Q668687", "collection_times": "Mo-Fr 16:00; Sa 09:45", "name": "USPS COLLECTION BOX - PO LOBBY", "note": "ON 12/24 AND 12/31, THIS BOX MAY BE COLLECTED AS EARLY AS 12 NOON.", "nsi_id": "unitedstatespostalservice-a77078", "operator": "United States Postal Service", "operator:short": "USPS", "operator:type": "public", "operator:wikidata": "Q668687", "ref": "6483400001"}, "type": "Feature"}
{"dataset_attributes": {"@spider": "usps_collection_boxes", "spider:collection_time": "2023-10-01T08:22:44.298171"}, "geometry": {"coordinates": [-94.564967554, 37.176101298], "type": "Point"}, "id": "In3bBmi0SCCy-PDqV2QezU7_lAc=", "properties": {"@spider": "usps_collection_boxes", "addr:city": "CARL JUNCTION", "addr:country": "US", "addr:full": "111 S MAIN ST", "addr:postcode": "64834", "addr:state": "MO", "amenity": "post_box", "brand": "United States Postal Service", "brand:wikidata": "Q668687", "collection_times": "Mo-Fr 16:15; Sa 11:00", "name": "USPS COLLECTION BOX - PO LOBBY", "note": "ON 12/24 AND 12/31, THIS BOX MAY BE COLLECTED AS EARLY AS 12 NOON.", "nsi_id": "unitedstatespostalservice-a77078", "operator": "United States Postal Service", "operator:short": "USPS", "operator:type": "public", "operator:wikidata": "Q668687", "ref": "6483400004"}, "type": "Feature"}
{"dataset_attributes": {"@spider": "usps_collection_boxes", "spider:collection_time": "2023-10-01T08:22:44.298171"}, "geometry": {"coordinates": [-94.442529, 37.14917], "type": "Point"}, "id": "ZDU1AjpK3mATiOrpUeiRUG1Y9Uo=", "properties": {"@spider": "usps_collection_boxes", "addr:city": "CARTERVILLE", "addr:country": "US", "addr:full": "121 E MAIN ST", "addr:postcode": "64835", "addr:state": "MO", "amenity": "post_box", "brand": "United States Postal Service", "brand:wikidata": "Q668687", "collection_times": "Mo-Fr 16:00; Sa 09:30", "name": "USPS COLLECTION BOX - BLUE BOX", "note": "ON 12/24 AND 12/31, THIS BOX MAY BE COLLECTED AS EARLY AS 12 NOON.", "nsi_id": "unitedstatespostalservice-a77078", "operator": "United States Postal Service", "operator:short": "USPS", "operator:type": "public", "operator:wikidata": "Q668687", "ref": "6483500000"}, "type": "Feature"}
{"dataset_attributes": {"@spider": "usps_collection_boxes", "spider:collection_time": "2023-10-01T08:22:44.298171"}, "geometry": {"coordinates": [-94.442529, 37.14917], "type": "Point"}, "id": "RaEdsnGmZVXBntgkGqIeg7S9wRs=", "properties": {"@spider": "usps_collection_boxes", "addr:city": "CARTERVILLE", "addr:country": "US", "addr:full": "121 E MAIN ST", "addr:postcode": "64835", "addr:state": "MO", "amenity": "post_box", "brand": "United States Postal Service", "brand:wikidata": "Q668687", "collection_times": "Mo-Fr 16:00; Sa 09:30", "name": "USPS COLLECTION BOX - PO LOBBY", "note": "ON 12/24 AND 12/31, THIS BOX MAY BE COLLECTED AS EARLY AS 12 NOON.", "nsi_id": "unitedstatespostalservice-a77078", "operator": "United States Postal Service", "operator:short": "USPS", "operator:type": "public", "operator:wikidata": "Q668687", "ref": "6483500003"}, "type": "Feature"}
{"dataset_attributes": {"@spider": "usps_collection_boxes", "spider:collection_time": "2023-10-01T08:22:44.298171"}, "geometry": {"coordinates": [-94.44189128, 37.149119529], "type": "Point"}, "id": "59zyRPs7WJRfRu-Ao3XVLspSbKM=", "properties": {"@spider": "usps_collection_boxes", "addr:city": "CARTERVILLE", "addr:country": "US", "addr:full": "121 E MAIN ST", "addr:postcode": "64835", "addr:state": "MO", "amenity": "post_box", "brand": "United States Postal Service", "brand:wikidata": "Q668687", "collection_times": "Mo-Fr 16:15; Sa 11:00", "name": "USPS COLLECTION BOX - PO LOBBY", "note": "ON 12/24 AND 12/31, THIS BOX MAY BE COLLECTED AS EARLY AS 12 NOON.", "nsi_id": "unitedstatespostalservice-a77078", "operator": "United States Postal Service", "operator:short": "USPS", "operator:type": "public", "operator:wikidata": "Q668687", "ref": "6483500004"}, "type": "Feature"}
{"dataset_attributes": {"@spider": "usps_collection_boxes", "spider:collection_time": "2023-10-01T08:22:44.298171"}, "geometry": {"coordinates": [-94.312077, 37.177029], "type": "Point"}, "id": "Z7mZwfkZCgFO5dTBabc9fzmKLng=", "properties": {"@spider": "usps_collection_boxes", "addr:city": "CARTHAGE", "addr:country": "US", "addr:full": "226 W 3RD ST", "addr:postcode": "64836", "addr:state": "MO", "amenity": "post_box", "brand": "United States Postal Service", "brand:wikidata": "Q668687", "collection_times": "Mo-Fr 16:00; Sa 15:30", "name": "USPS COLLECTION BOX - PO LOBBY", "note": "ON 12/24 AND 12/31, THIS BOX MAY BE COLLECTED AS EARLY AS 12 NOON.", "nsi_id": "unitedstatespostalservice-a77078", "operator": "United States Postal Service", "operator:short": "USPS", "operator:type": "public", "operator:wikidata": "Q668687", "ref": "6483600000"}, "type": "Feature"}
{"dataset_attributes": {"@spider": "usps_collection_boxes", "spider:collection_time": "2023-10-01T08:22:44.298171"}, "geometry": {"coordinates": [-94.312077, 37.177029], "type": "Point"}, "id": "RTOAHTiKS_OsSQKeJRBeg0Isup0=", "properties": {"@spider": "usps_collection_boxes", "addr:city": "CARTHAGE", "addr:country": "US", "addr:full": "226 W 3RD ST", "addr:postcode": "64836", "addr:state": "MO", "amenity": "post_box", "brand": "United States Postal Service", "brand:wikidata": "Q668687", "collection_times": "Mo-Fr 16:00; Sa 15:30", "name": "USPS COLLECTION BOX - PO LOBBY", "note": "ON 12/24 AND 12/31, THIS BOX MAY BE COLLECTED AS EARLY AS 12 NOON.", "nsi_id": "unitedstatespostalservice-a77078", "operator": "United States Postal Service", "operator:short": "USPS", "operator:type": "public", "operator:wikidata": "Q668687", "ref": "6483600001"}, "type": "Feature"}
{"dataset_attributes": {"@spider": "usps_collection_boxes", "spider:collection_time": "2023-10-01T08:22:44.298171"}, "geometry": {"coordinates": [-94.3122919995, 37.1767719822], "type": "Point"}, "id": "5Fc1MsOyNQ4kTzJ_zut_gU1_8Gs=", "properties": {"@spider": "usps_collection_boxes", "addr:city": "CARTHAGE", "addr:country": "US", "addr:full": "226 W 3RD ST", "addr:postcode": "64836", "addr:state": "MO", "amenity": "post_box", "brand": "United States Postal Service", "brand:wikidata": "Q668687", "collection_times": "Mo-Fr 16:00; Sa 15:30", "name": "USPS COLLECTION BOX - BLUE BOX", "note": "ON 12/24 AND 12/31, THIS BOX MAY BE COLLECTED AS EARLY AS 12 NOON.", "nsi_id": "unitedstatespostalservice-a77078", "operator": "United States Postal Service", "operator:short": "USPS", "operator:type": "public", "operator:wikidata": "Q668687", "ref": "6483600003"}, "type": "Feature"}
{"dataset_attributes": {"@spider": "usps_collection_boxes", "spider:collection_time": "2023-10-01T08:22:44.298171"}, "geometry": {"coordinates": [-94.3125182, 37.141782], "type": "Point"}, "id": "hSV_foEUeWZk0djj3IDZQxvGnXo=", "properties": {"@spider": "usps_collection_boxes", "addr:city": "CARTHAGE", "addr:country": "US", "addr:full": "2705 GRAND AVE", "addr:postcode": "64836", "addr:state": "MO", "amenity": "post_box", "brand": "United States Postal Service", "brand:wikidata": "Q668687", "collection_times": "Mo-Sa 09:30", "name": "USPS COLLECTION BOX - BLUE BOX", "nsi_id": "unitedstatespostalservice-a77078", "operator": "United States Postal Service", "operator:short": "USPS", "operator:type": "public", "operator:wikidata": "Q668687", "ref": "6483600019"}, "type": "Feature"}
{"dataset_attributes": {"@spider": "usps_collection_boxes", "spider:collection_time": "2023-10-01T08:22:44.298171"}, "geometry": {"coordinates": [-94.3117499, 37.147328], "type": "Point"}, "id": "V2-55E3tAB_28UNxiCy28ECCh2E=", "properties": {"@spider": "usps_collection_boxes", "addr:city": "CARTHAGE", "addr:country": "US", "addr:full": "2417 GRAND AVE", "addr:postcode": "64836", "addr:state": "MO", "amenity": "post_box", "brand": "United States Postal Service", "brand:wikidata": "Q668687", "collection_times": "Mo-Sa 09:00", "name": "USPS COLLECTION BOX - BLUE BOX", "nsi_id": "unitedstatespostalservice-a77078", "operator": "United States Postal Service", "operator:short": "USPS", "operator:type": "public", "operator:wikidata": "Q668687", "ref": "6483600029"}, "type": "Feature"}
{"dataset_attributes": {"@spider": "usps_collection_boxes", "spider:collection_time": "2023-10-01T08:22:44.298171"}, "geometry": {"coordinates": [-94.312430361, 37.177024547], "type": "Point"}, "id": "9xgHtKk9KEEMzhEW7Ofqf9Web1s=", "properties": {"@spider": "usps_collection_boxes", "addr:city": "CARTHAGE", "addr:country": "US", "addr:full": "226 W 3RD ST", "addr:postcode": "64836", "addr:state": "MO", "amenity": "post_box", "brand": "United States Postal Service", "brand:wikidata": "Q668687", "collection_times": "Mo-Fr 16:30; Sa 12:00", "name": "USPS COLLECTION BOX - PO LOBBY", "note": "ON 12/24 AND 12/31, THIS BOX MAY BE COLLECTED AS EARLY AS 12 NOON.", "nsi_id": "unitedstatespostalservice-a77078", "operator": "United States Postal Service", "operator:short": "USPS", "operator:type": "public", "operator:wikidata": "Q668687", "ref": "6483600031"}, "type": "Feature"}
{"dataset_attributes": {"@spider": "usps_collection_boxes", "spider:collection_time": "2023-10-01T08:22:44.298171"}, "geometry": {"coordinates": [-94.314735, 36.995009], "type": "Point"}, "id": "5PM2LZLeo6UFNyuCAmnAhamwnHs=", "properties": {"@spider": "usps_collection_boxes", "addr:city": "DIAMOND", "addr:country": "US", "addr:full": "103 E MARKET ST", "addr:postcode": "64840", "addr:state": "MO", "amenity": "post_box", "brand": "United States Postal Service", "brand:wikidata": "Q668687", "collection_times": "Mo-Fr 15:45; Sa 09:15", "name": "USPS COLLECTION BOX - BLUE BOX", "note": "ON 12/24 AND 12/31, THIS BOX MAY BE COLLECTED AS EARLY AS 12 NOON.", "nsi_id": "unitedstatespostalservice-a77078", "operator": "United States Postal Service", "operator:short": "USPS", "operator:type": "public", "operator:wikidata": "Q668687", "ref": "6484000000"}, "type": "Feature"}
{"dataset_attributes": {"@spider": "usps_collection_boxes", "spider:collection_time": "2023-10-01T08:22:44.298171"}, "geometry": {"coordinates": [-94.314843, 36.994982], "type": "Point"}, "id": "wpP-zlGCVfZDxdpNKbY1rDLs9-c=", "properties": {"@spider": "usps_collection_boxes", "addr:city": "DIAMOND", "addr:country": "US", "addr:full": "103 E MARKET ST", "addr:postcode": "64840", "addr:state": "MO", "amenity": "post_box", "brand": "United States Postal Service", "brand:wikidata": "Q668687", "collection_times": "Mo-Fr 15:45; Sa 09:15", "name": "USPS COLLECTION BOX - PO LOBBY", "note": "ON 12/24 AND 12/31, THIS BOX MAY BE COLLECTED AS EARLY AS 12 NOON.", "nsi_id": "unitedstatespostalservice-a77078", "operator": "United States Postal Service", "operator:short": "USPS", "operator:type": "public", "operator:wikidata": "Q668687", "ref": "6484000004"}, "type": "Feature"}
{"dataset_attributes": {"@spider": "usps_collection_boxes", "spider:collection_time": "2023-10-01T08:22:44.298171"}, "geometry": {"coordinates": [-94.314775813, 36.99504857], "type": "Point"}, "id": "qk0yU9kNtEAhLQVLhPLthd2cYp4=", "properties": {"@spider": "usps_collection_boxes", "addr:city": "DIAMOND", "addr:country": "US", "addr:full": "103 E MARKET ST", "addr:postcode": "64840", "addr:state": "MO", "amenity": "post_box", "brand": "United States Postal Service", "brand:wikidata": "Q668687", "collection_times": "Mo-Fr 16:00; Sa 12:00", "name": "USPS COLLECTION BOX - PO LOBBY", "note": "ON 12/24 AND 12/31, THIS BOX MAY BE COLLECTED AS EARLY AS 12 NOON.", "nsi_id": "unitedstatespostalservice-a77078", "operator": "United States Postal Service", "operator:short": "USPS", "operator:type": "public", "operator:wikidata": "Q668687", "ref": "6484000006"}, "type": "Feature"}
{"dataset_attributes": {"@spider": "usps_collection_boxes", "spider:collection_time": "2023-10-01T08:22:44.298171"}, "geometry": {"coordinates": [-94.409368, 37.082322], "type": "Point"}, "id": "oWUTot_HsLfF_2vYrgHi8rPFEqY=", "properties": {"@spider": "usps_collection_boxes", "addr:city": "DUENWEG", "addr:country": "US", "addr:full": "201 WOLFE DR", "addr:postcode": "64841", "addr:state": "MO", "amenity": "post_box", "brand": "United States Postal Service", "brand:wikidata": "Q668687", "collection_times": "Mo-Fr 16:00; Sa 10:00", "name": "USPS COLLECTION BOX - BLUE BOX", "note": "ON 12/24 AND 12/31, THIS BOX MAY BE COLLECTED AS EARLY AS 12 NOON.", "nsi_id": "unitedstatespostalservice-a77078", "operator": "United States Postal Service", "operator:short": "USPS", "operator:type": "public", "operator:wikidata": "Q668687", "ref": "6484100000"}, "type": "Feature"}
{"dataset_attributes": {"@spider": "usps_collection_boxes", "spider:collection_time": "2023-10-01T08:22:44.298171"}, "geometry": {"coordinates": [-94.409398, 37.082413], "type": "Point"}, "id": "-veTFw8l654ni-3Qby3JLewe63w=", "properties": {"@spider": "usps_collection_boxes", "addr:city": "DUENWEG", "addr:country": "US", "addr:full": "201 WOLFE DR", "addr:postcode": "64841", "addr:state": "MO", "amenity": "post_box", "brand": "United States Postal Service", "brand:wikidata": "Q668687", "collection_times": "Mo-Fr 16:00; Sa 10:00", "name": "USPS COLLECTION BOX - PO LOBBY", "note": "ON 12/24 AND 12/31, THIS BOX MAY BE COLLECTED AS EARLY AS 12 NOON.", "nsi_id": "unitedstatespostalservice-a77078", "operator": "United States Postal Service", "operator:short": "USPS", "operator:type": "public", "operator:wikidata": "Q668687", "ref": "6484100001"}, "type": "Feature"}
{"dataset_attributes": {"@spider": "usps_collection_boxes", "spider:collection_time": "2023-10-01T08:22:44.298171"}, "geometry": {"coordinates": [-94.409378623, 37.082095659], "type": "Point"}, "id": "POyKrrxhXqVmu10MwcamMSjOWLA=", "properties": {"@spider": "usps_collection_boxes", "addr:city": "DUENWEG", "addr:country": "US", "addr:full": "201 WOLFE DR", "addr:postcode": "64841", "addr:state": "MO", "amenity": "post_box", "brand": "United States Postal Service", "brand:wikidata": "Q668687", "collection_times": "Mo-Fr 16:30; Sa 09:45", "name": "USPS COLLECTION BOX - PO LOBBY", "note": "ON 12/24 AND 12/31, THIS BOX MAY BE COLLECTED AS EARLY AS 12 NOON.", "nsi_id": "unitedstatespostalservice-a77078", "operator": "United States Postal Service", "operator:short": "USPS", "operator:type": "public", "operator:wikidata": "Q668687", "ref": "6484100003"}, "type": "Feature"}
{"dataset_attributes": {"@spider": "usps_collection_boxes", "spider:collection_time": "2023-10-01T08:22:44.298171"}, "geometry": {"coordinates": [-94.08828, 36.817522], "type": "Point"}, "id": "iYlXbXAqvE5DSr1cVLJM2d4zRfI=", "properties": {"@spider": "usps_collection_boxes", "addr:city": "FAIRVIEW", "addr:country": "US", "addr:full": "101 W MAIN ST", "addr:postcode": "64842", "addr:state": "MO", "amenity": "post_box", "brand": "United States Postal Service", "brand:wikidata": "Q668687", "collection_times": "Mo-Fr 14:45; Sa 09:00", "name": "USPS COLLECTION BOX - BLUE BOX", "note": "ON 12/24 AND 12/31, THIS BOX MAY BE COLLECTED AS EARLY AS 12 NOON.", "nsi_id": "unitedstatespostalservice-a77078", "operator": "United States Postal Service", "operator:short": "USPS", "operator:type": "public", "operator:wikidata": "Q668687", "ref": "6484200000"}, "type": "Feature"}
{"dataset_attributes": {"@spider": "usps_collection_boxes", "spider:collection_time": "2023-10-01T08:22:44.298171"}, "geometry": {"coordinates": [-94.08828, 36.817522], "type": "Point"}, "id": "ni_slQB3gK4uhseBhmAwlkcyy64=", "properties": {"@spider": "usps_collection_boxes", "addr:city": "FAIRVIEW", "addr:country": "US", "addr:full": "101 W MAIN ST", "addr:postcode": "64842", "addr:state": "MO", "amenity": "post_box", "brand": "United States Postal Service", "brand:wikidata": "Q668687", "collection_times": "Mo-Fr 14:45; Sa 09:00", "name": "USPS COLLECTION BOX - PO LOBBY", "note": "ON 12/24 AND 12/31, THIS BOX MAY BE COLLECTED AS EARLY AS 12 NOON.", "nsi_id": "unitedstatespostalservice-a77078", "operator": "United States Postal Service", "operator:short": "USPS", "operator:type": "public", "operator:wikidata": "Q668687", "ref": "6484200001"}, "type": "Feature"}
{"dataset_attributes": {"@spider": "usps_collection_boxes", "spider:collection_time": "2023-10-01T08:22:44.298171"}, "geometry": {"coordinates": [-94.088350552, 36.817588643], "type": "Point"}, "id": "qMqGHRfwFr5ku8yXKjFXYhOFjxI=", "properties": {"@spider": "usps_collection_boxes", "addr:city": "FAIRVIEW", "addr:country": "US", "addr:full": "101 W MAIN ST", "addr:postcode": "64842", "addr:state": "MO", "amenity": "post_box", "brand": "United States Postal Service", "brand:wikidata": "Q668687", "collection_times": "Mo-Fr 15:00; Sa 13:00", "name": "USPS COLLECTION BOX - PO LOBBY", "note": "ON 12/24 AND 12/31, THIS BOX MAY BE COLLECTED AS EARLY AS 12 NOON.", "nsi_id": "unitedstatespostalservice-a77078", "operator": "United States Postal Service", "operator:short": "USPS", "operator:type": "public", "operator:wikidata": "Q668687", "ref": "6484200003"}, "type": "Feature"}
{"dataset_attributes": {"@spider": "usps_collection_boxes", "spider:collection_time": "2023-10-01T08:22:44.298171"}, "geometry": {"coordinates": [-94.408499, 36.737642], "type": "Point"}, "id": "8xgNPV8wz51HjIDTidnNItN3XaU=", "properties": {"@spider": "usps_collection_boxes", "addr:city": "GOODMAN", "addr:country": "US", "addr:full": "103 W SPLITLOG ST", "addr:postcode": "64843", "addr:state": "MO", "amenity": "post_box", "brand": "United States Postal Service", "brand:wikidata": "Q668687", "collection_times": "Mo-Fr 15:15; Sa 11:00", "name": "USPS COLLECTION BOX - BLUE BOX", "note": "ON 12/24 AND 12/31, THIS BOX MAY BE COLLECTED AS EARLY AS 12 NOON.", "nsi_id": "unitedstatespostalservice-a77078", "operator": "United States Postal Service", "operator:short": "USPS", "operator:type": "public", "operator:wikidata": "Q668687", "ref": "6484300000"}, "type": "Feature"}
{"dataset_attributes": {"@spider": "usps_collection_boxes", "spider:collection_time": "2023-10-01T08:22:44.298171"}, "geometry": {"coordinates": [-94.408404, 36.737614], "type": "Point"}, "id": "OAkNM201YvPFuH5PhUy-InlLj00=", "properties": {"@spider": "usps_collection_boxes", "addr:city": "GOODMAN", "addr:country": "US", "addr:full": "103 W SPLITLOG ST", "addr:postcode": "64843", "addr:state": "MO", "amenity": "post_box", "brand": "United States Postal Service", "brand:wikidata": "Q668687", "collection_times": "Mo-Fr 15:15; Sa 11:00", "name": "USPS COLLECTION BOX - PO LOBBY", "note": "ON 12/24 AND 12/31, THIS BOX MAY BE COLLECTED AS EARLY AS 12 NOON.", "nsi_id": "unitedstatespostalservice-a77078", "operator": "United States Postal Service", "operator:short": "USPS", "operator:type": "public", "operator:wikidata": "Q668687", "ref": "6484300002"}, "type": "Feature"}
{"dataset_attributes": {"@spider": "usps_collection_boxes", "spider:collection_time": "2023-10-01T08:22:44.298171"}, "geometry": {"coordinates": [-94.409181273, 36.737667428], "type": "Point"}, "id": "02aTKTN_qH8Ry21qzXCD2xYzdO0=", "properties": {"@spider": "usps_collection_boxes", "addr:city": "GOODMAN", "addr:country": "US", "addr:full": "103 W SPLITLOG ST", "addr:postcode": "64843", "addr:state": "MO", "amenity": "post_box", "brand": "United States Postal Service", "brand:wikidata": "Q668687", "collection_times": "Mo-Fr 16:15; Sa 11:15", "name": "USPS COLLECTION BOX - PO LOBBY", "note": "ON 12/24 AND 12/31, THIS BOX MAY BE COLLECTED AS EARLY AS 12 NOON.", "nsi_id": "unitedstatespostalservice-a77078", "operator": "United States Postal Service", "operator:short": "USPS", "operator:type": "public", "operator:wikidata": "Q668687", "ref": "6484300003"}, "type": "Feature"}
{"dataset_attributes": {"@spider": "usps_collection_boxes", "spider:collection_time": "2023-10-01T08:22:44.298171"}, "geometry": {"coordinates": [-94.255185, 36.918949], "type": "Point"}, "id": "akOyYjhcLtm6vg474aJ9eDTo1w8=", "properties": {"@spider": "usps_collection_boxes", "addr:city": "GRANBY", "addr:country": "US", "addr:full": "126 S MAIN ST", "addr:postcode": "64844", "addr:state": "MO", "amenity": "post_box", "brand": "United States Postal Service", "brand:wikidata": "Q668687", "collection_times": "Mo-Fr 15:30; Sa 11:00", "name": "USPS COLLECTION BOX - BLUE BOX", "note": "ON 12/24 AND 12/31, THIS BOX MAY BE COLLECTED AS EARLY AS 12 NOON.", "nsi_id": "unitedstatespostalservice-a77078", "operator": "United States Postal Service", "operator:short": "USPS", "operator:type": "public", "operator:wikidata": "Q668687", "ref": "6484400000"}, "type": "Feature"}
{"dataset_attributes": {"@spider": "usps_collection_boxes", "spider:collection_time": "2023-10-01T08:22:44.298171"}, "geometry": {"coordinates": [-94.255185, 36.918949], "type": "Point"}, "id": "JMYguRF6d3HI2LGAvEUhvtKsRE8=", "properties": {"@spider": "usps_collection_boxes", "addr:city": "GRANBY", "addr:country": "US", "addr:full": "126 S MAIN ST", "addr:postcode": "64844", "addr:state": "MO", "amenity": "post_box", "brand": "United States Postal Service", "brand:wikidata": "Q668687", "collection_times": "Mo-Fr 15:30; Sa 11:00", "name": "USPS COLLECTION BOX - PO LOBBY", "note": "ON 12/24 AND 12/31, THIS BOX MAY BE COLLECTED AS EARLY AS 12 NOON.", "nsi_id": "unitedstatespostalservice-a77078", "operator": "United States Postal Service", "operator:short": "USPS", "operator:type": "public", "operator:wikidata": "Q668687", "ref": "6484400001"}, "type": "Feature"}
{"dataset_attributes": {"@spider": "usps_collection_boxes", "spider:collection_time": "2023-10-01T08:22:44.298171"}, "geometry": {"coordinates": [-94.255245774, 36.918915879], "type": "Point"}, "id": "7a9enBeNKR4amjhaeO2gu1VDmqo=", "properties": {"@spider": "usps_collection_boxes", "addr:city": "GRANBY", "addr:country": "US", "addr:full": "126 S MAIN ST", "addr:postcode": "64844", "addr:state": "MO", "amenity": "post_box", "brand": "United States Postal Service", "brand:wikidata": "Q668687", "collection_times": "Mo-Fr 16:45; Sa 12:45", "name": "USPS COLLECTION BOX - PO LOBBY", "note": "ON 12/24 AND 12/31, THIS BOX MAY BE COLLECTED AS EARLY AS 12 NOON.", "nsi_id": "unitedstatespostalservice-a77078", "operator": "United States Postal Service", "operator:short": "USPS", "operator:type": "public", "operator:wikidata": "Q668687", "ref": "6484400003"}, "type": "Feature"}
{"dataset_attributes": {"@spider": "usps_collection_boxes", "spider:collection_time": "2023-10-01T08:22:44.298171"}, "geometry": {"coordinates": [-94.448371, 36.607316], "type": "Point"}, "id": "ft7DjKP2VWqWPQiACRYWIOjVIU0=", "properties": {"@spider": "usps_collection_boxes", "addr:city": "LANAGAN", "addr:country": "US", "addr:full": "117 N MAIN ST", "addr:postcode": "64847", "addr:state": "MO", "amenity": "post_box", "brand": "United States Postal Service", "brand:wikidata": "Q668687", "collection_times": "Mo-Fr 15:00; Sa 12:00", "name": "USPS COLLECTION BOX - BLUE BOX", "note": "ON 12/24 AND 12/31, THIS BOX MAY BE COLLECTED AS EARLY AS 12 NOON.", "nsi_id": "unitedstatespostalservice-a77078", "operator": "United States Postal Service", "operator:short": "USPS", "operator:type": "public", "operator:wikidata": "Q668687", "ref": "6484700000"}, "type": "Feature"}
{"dataset_attributes": {"@spider": "usps_collection_boxes", "spider:collection_time": "2023-10-01T08:22:44.298171"}, "geometry": {"coordinates": [-94.448371, 36.607316], "type": "Point"}, "id": "GXJBVCeCTqGRjwSf4Pf8QmlBgzE=", "properties": {"@spider": "usps_collection_boxes", "addr:city": "LANAGAN", "addr:country": "US", "addr:full": "117 N MAIN ST", "addr:postcode": "64847", "addr:state": "MO", "amenity": "post_box", "brand": "United States Postal Service", "brand:wikidata": "Q668687", "collection_times": "Mo-Fr 15:00; Sa 12:00", "name": "USPS COLLECTION BOX - PO LOBBY", "note": "ON 12/24 AND 12/31, THIS BOX MAY BE COLLECTED AS EARLY AS 12 NOON.", "nsi_id": "unitedstatespostalservice-a77078", "operator": "United States Postal Service", "operator:short": "USPS", "operator:type": "public", "operator:wikidata": "Q668687", "ref": "6484700001"}, "type": "Feature"}
{"dataset_attributes": {"@spider": "usps_collection_boxes", "spider:collection_time": "2023-10-01T08:22:44.298171"}, "geometry": {"coordinates": [-94.448344079, 36.607443652], "type": "Point"}, "id": "mK4HFkaEoh-ggsNWwKQ2FjJ58Zg=", "properties": {"@spider": "usps_collection_boxes", "addr:city": "LANAGAN", "addr:country": "US", "addr:full": "117 N MAIN ST", "addr:postcode": "64847", "addr:state": "MO", "amenity": "post_box", "brand": "United States Postal Service", "brand:wikidata": "Q668687", "collection_times": "Mo-Fr 16:15; Sa 12:15", "name": "USPS COLLECTION BOX - PO LOBBY", "note": "ON 12/24 AND 12/31, THIS BOX MAY BE COLLECTED AS EARLY AS 12 NOON.", "nsi_id": "unitedstatespostalservice-a77078", "operator": "United States Postal Service", "operator:short": "USPS", "operator:type": "public", "operator:wikidata": "Q668687", "ref": "6484700003"}, "type": "Feature"}
{"dataset_attributes": {"@spider": "usps_collection_boxes", "spider:collection_time": "2023-10-01T08:22:44.298171"}, "geometry": {"coordinates": [-94.061831, 37.141247], "type": "Point"}, "id": "zOSWD1uA_-2KqxkwyOI3u0cp5YE=", "properties": {"@spider": "usps_collection_boxes", "addr:city": "LA RUSSELL", "addr:country": "US", "addr:full": "311 S MAIN ST", "addr:postcode": "64848", "addr:state": "MO", "amenity": "post_box", "brand": "United States Postal Service", "brand:wikidata": "Q668687", "collection_times": "Mo-Fr 15:00; Sa 09:00", "name": "USPS COLLECTION BOX - BLUE BOX", "note": "ON 12/24 AND 12/31, THIS BOX MAY BE COLLECTED AS EARLY AS 12 NOON.", "nsi_id": "unitedstatespostalservice-a77078", "operator": "United States Postal Service", "operator:short": "USPS", "operator:type": "public", "operator:wikidata": "Q668687", "ref": "6484800000"}, "type": "Feature"}
{"dataset_attributes": {"@spider": "usps_collection_boxes", "spider:collection_time": "2023-10-01T08:22:44.298171"}, "geometry": {"coordinates": [-94.061794, 37.141318], "type": "Point"}, "id": "sqLXoVp-neKINFMqrWLhqlbGRBU=", "properties": {"@spider": "usps_collection_boxes", "addr:city": "LA RUSSELL", "addr:country": "US", "addr:full": "311 S MAIN ST", "addr:postcode": "64848", "addr:state": "MO", "amenity": "post_box", "brand": "United States Postal Service", "brand:wikidata": "Q668687", "collection_times": "Mo-Fr 15:00; Sa 09:00", "name": "USPS COLLECTION BOX - PO LOBBY", "note": "ON 12/24 AND 12/31, THIS BOX MAY BE COLLECTED AS EARLY AS 12 NOON.", "nsi_id": "unitedstatespostalservice-a77078", "operator": "United States Postal Service", "operator:short": "USPS", "operator:type": "public", "operator:wikidata": "Q668687", "ref": "6484800002"}, "type": "Feature"}
{"dataset_attributes": {"@spider": "usps_collection_boxes", "spider:collection_time": "2023-10-01T08:22:44.298171"}, "geometry": {"coordinates": [-94.061855906, 37.140679341], "type": "Point"}, "id": "Q-lmrlPQQEkqcpLQFCQn7uUtBbw=", "properties": {"@spider": "usps_collection_boxes", "addr:city": "LA RUSSELL", "addr:country": "US", "addr:full": "311 S MAIN ST", "addr:postcode": "64848", "addr:state": "MO", "amenity": "post_box", "brand": "United States Postal Service", "brand:wikidata": "Q668687", "collection_times": "Mo-Fr 15:00; Sa 13:30", "name": "USPS COLLECTION BOX - PO LOBBY", "note": "ON 12/24 AND 12/31, THIS BOX MAY BE COLLECTED AS EARLY AS 12 NOON.", "nsi_id": "unitedstatespostalservice-a77078", "operator": "United States Postal Service", "operator:short": "USPS", "operator:type": "public", "operator:wikidata": "Q668687", "ref": "6484800004"}, "type": "Feature"}
{"dataset_attributes": {"@spider": "usps_collection_boxes", "spider:collection_time": "2023-10-01T08:22:44.298171"}, "geometry": {"coordinates": [-94.4445042995, 37.2544378123], "type": "Point"}, "id": "aU8XJBgWnl72e_kkJZUYNKgnwg0=", "properties": {"@spider": "usps_collection_boxes", "addr:city": "NECK CITY", "addr:country": "US", "addr:full": "200 GRAND AVE", "addr:postcode": "64849", "addr:state": "MO", "amenity": "post_box", "brand": "United States Postal Service", "brand:wikidata": "Q668687", "collection_times": "Mo-Sa 10:00", "name": "USPS COLLECTION BOX - BLUE BOX", "nsi_id": "unitedstatespostalservice-a77078", "operator": "United States Postal Service", "operator:short": "USPS", "operator:type": "public", "operator:wikidata": "Q668687", "ref": "6484900000"}, "type": "Feature"}
{"dataset_attributes": {"@spider": "usps_collection_boxes", "spider:collection_time": "2023-10-01T08:22:44.298171"}, "geometry": {"coordinates": [-94.368519, 36.867551], "type": "Point"}, "id": "TAcq4ELDsZw5DRh39RQ06soaNRk=", "properties": {"@spider": "usps_collection_boxes", "addr:city": "NEOSHO", "addr:country": "US", "addr:full": "101 E HICKORY ST", "addr:postcode": "64850", "addr:state": "MO", "amenity": "post_box", "brand": "United States Postal Service", "brand:wikidata": "Q668687", "collection_times": "Mo-Sa 15:45", "name": "USPS COLLECTION BOX - BLUE BOX", "note": "ON 12/24 AND 12/31, THIS BOX MAY BE COLLECTED AS EARLY AS 12 NOON.", "nsi_id": "unitedstatespostalservice-a77078", "operator": "United States Postal Service", "operator:short": "USPS", "operator:type": "public", "operator:wikidata": "Q668687", "ref": "6485000002"}, "type": "Feature"}
{"dataset_attributes": {"@spider": "usps_collection_boxes", "spider:collection_time": "2023-10-01T08:22:44.298171"}, "geometry": {"coordinates": [-94.3948672, 36.838741], "type": "Point"}, "id": "1DQsC6TRxarHQXIGspGI8GvT5u0=", "properties": {"@spider": "usps_collection_boxes", "addr:city": "NEOSHO", "addr:country": "US", "addr:full": "3200 LUSK DR", "addr:postcode": "64850", "addr:state": "MO", "amenity": "post_box", "brand": "United States Postal Service", "brand:wikidata": "Q668687", "collection_times": "Mo-Fr 10:00; Sa 10:30", "name": "USPS COLLECTION BOX - BLUE BOX", "nsi_id": "unitedstatespostalservice-a77078", "operator": "United States Postal Service", "operator:short": "USPS", "operator:type": "public", "operator:wikidata": "Q668687", "ref": "6485000015"}, "type": "Feature"}
{"dataset_attributes": {"@spider": "usps_collection_boxes", "spider:collection_time": "2023-10-01T08:22:44.298171"}, "geometry": {"coordinates": [-94.36863, 36.867581], "type": "Point"}, "id": "7-UagxyP4Vpy9nLPY7TMEm68xso=", "properties": {"@spider": "usps_collection_boxes", "addr:city": "NEOSHO", "addr:country": "US", "addr:full": "101 E HICKORY ST", "addr:postcode": "64850", "addr:state": "MO", "amenity": "post_box", "brand": "United States Postal Service", "brand:wikidata": "Q668687", "collection_times": "Mo-Sa 15:45", "name": "USPS COLLECTION BOX - PO LOBBY", "note": "ON 12/24 AND 12/31, THIS BOX MAY BE COLLECTED AS EARLY AS 12 NOON.", "nsi_id": "unitedstatespostalservice-a77078", "operator": "United States Postal Service", "operator:short": "USPS", "operator:type": "public", "operator:wikidata": "Q668687", "ref": "6485000023"}, "type": "Feature"}
{"dataset_attributes": {"@spider": "usps_collection_boxes", "spider:collection_time": "2023-10-01T08:22:44.298171"}, "geometry": {"coordinates": [-94.36863, 36.867581], "type": "Point"}, "id": "B6JdNqT2ZjawPMWpYAfBslxJzL4=", "properties": {"@spider": "usps_collection_boxes", "addr:city": "NEOSHO", "addr:country": "US", "addr:full": "101 E HICKORY ST", "addr:postcode": "64850", "addr:state": "MO", "amenity": "post_box", "brand": "United States Postal Service", "brand:wikidata": "Q668687", "collection_times": "Mo-Sa 15:45", "name": "USPS COLLECTION BOX - PO LOBBY", "note": "ON 12/24 AND 12/31, THIS BOX MAY BE COLLECTED AS EARLY AS 12 NOON.", "nsi_id": "unitedstatespostalservice-a77078", "operator": "United States Postal Service", "operator:short": "USPS", "operator:type": "public", "operator:wikidata": "Q668687", "ref": "6485000024"}, "type": "Feature"}
{"dataset_attributes": {"@spider": "usps_collection_boxes", "spider:collection_time": "2023-10-01T08:22:44.298171"}, "geometry": {"coordinates": [-94.4243839, 36.880106], "type": "Point"}, "id": "wiHLW5_iM_ARQ_Fcqwh8vFHyTSQ=", "properties": {"@spider": "usps_collection_boxes", "addr:city": "NEOSHO", "addr:country": "US", "addr:full": "12033 E HIGHWAY 86", "addr:postcode": "64850", "addr:state": "MO", "amenity": "post_box", "brand": "United States Postal Service", "brand:wikidata": "Q668687", "collection_times": "Mo-Sa 12:30", "name": "USPS COLLECTION BOX - BLUE BOX", "note": "ON 12/24 AND 12/31, THIS BOX MAY BE COLLECTED AS EARLY AS 12 NOON.", "nsi_id": "unitedstatespostalservice-a77078", "operator": "United States Postal Service", "operator:short": "USPS", "operator:type": "public", "operator:wikidata": "Q668687", "ref": "6485000028"}, "type": "Feature"}
{"dataset_attributes": {"@spider": "usps_collection_boxes", "spider:collection_time": "2023-10-01T08:22:44.298171"}, "geometry": {"coordinates": [-94.3801843, 36.869768], "type": "Point"}, "id": "EXkL-oM3Sj-3B_AF_yUyx72m1JY=", "properties": {"@spider": "usps_collection_boxes", "addr:city": "NEOSHO", "addr:country": "US", "addr:full": "110 N NEOSHO BLVD", "addr:postcode": "64850", "addr:state": "MO", "amenity": "post_box", "brand": "United States Postal Service", "brand:wikidata": "Q668687", "collection_times": "Mo-Fr 10:00; Sa 10:30", "name": "USPS COLLECTION BOX - BLUE BOX", "nsi_id": "unitedstatespostalservice-a77078", "operator": "United States Postal Service", "operator:short": "USPS", "operator:type": "public", "operator:wikidata": "Q668687", "ref": "6485000032"}, "type": "Feature"}
{"dataset_attributes": {"@spider": "usps_collection_boxes", "spider:collection_time": "2023-10-01T08:22:44.298171"}, "geometry": {"coordinates": [-94.368562054, 36.867499627], "type": "Point"}, "id": "e-aby7ikNJ1S2DZW4jFp5bpqy2Y=", "properties": {"@spider": "usps_collection_boxes", "addr:city": "NEOSHO", "addr:country": "US", "addr:full": "101 E HICKORY ST", "addr:postcode": "64850", "addr:state": "MO", "amenity": "post_box", "brand": "United States Postal Service", "brand:wikidata": "Q668687", "collection_times": "Mo-Fr 16:45; Sa 12:15", "name": "USPS COLLECTION BOX - PO LOBBY", "note": "ON 12/24 AND 12/31, THIS BOX MAY BE COLLECTED AS EARLY AS 12 NOON.", "nsi_id": "unitedstatespostalservice-a77078", "operator": "United States Postal Service", "operator:short": "USPS", "operator:type": "public", "operator:wikidata": "Q668687", "ref": "6485000035"}, "type": "Feature"}
{"dataset_attributes": {"@spider": "usps_collection_boxes", "spider:collection_time": "2023-10-01T08:22:44.298171"}, "geometry": {"coordinates": [-94.485014, 36.545064], "type": "Point"}, "id": "w5n3qxvdOC4r0fuxnKkO9_H5WXs=", "properties": {"@spider": "usps_collection_boxes", "addr:city": "NOEL", "addr:country": "US", "addr:full": "318 MAIN ST", "addr:postcode": "64854", "addr:state": "MO", "amenity": "post_box", "brand": "United States Postal Service", "brand:wikidata": "Q668687", "collection_times": "Mo-Fr 14:45; Sa 11:00", "name": "USPS COLLECTION BOX - BLUE BOX", "note": "ON 12/24 AND 12/31, THIS BOX MAY BE COLLECTED AS EARLY AS 12 NOON.", "nsi_id": "unitedstatespostalservice-a77078", "operator": "United States Postal Service", "operator:short": "USPS", "operator:type": "public", "operator:wikidata": "Q668687", "ref": "6485400000"}, "type": "Feature"}
{"dataset_attributes": {"@spider": "usps_collection_boxes", "spider:collection_time": "2023-10-01T08:22:44.298171"}, "geometry": {"coordinates": [-94.484898, 36.545073], "type": "Point"}, "id": "GJFS1-_NxyE-r3kQlnf_3yWLSz0=", "properties": {"@spider": "usps_collection_boxes", "addr:city": "NOEL", "addr:country": "US", "addr:full": "318 MAIN ST", "addr:postcode": "64854", "addr:state": "MO", "amenity": "post_box", "brand": "United States Postal Service", "brand:wikidata": "Q668687", "collection_times": "Mo-Fr 14:45; Sa 11:00", "name": "USPS COLLECTION BOX - PO LOBBY", "note": "ON 12/24 AND 12/31, THIS BOX MAY BE COLLECTED AS EARLY AS 12 NOON.", "nsi_id": "unitedstatespostalservice-a77078", "operator": "United States Postal Service", "operator:short": "USPS", "operator:type": "public", "operator:wikidata": "Q668687", "ref": "6485400005"}, "type": "Feature"}
{"dataset_attributes": {"@spider": "usps_collection_boxes", "spider:collection_time": "2023-10-01T08:22:44.298171"}, "geometry": {"coordinates": [-94.48511807, 36.545066718], "type": "Point"}, "id": "aiHo6oyX1UBtoREpDqKzfq-F-KM=", "properties": {"@spider": "usps_collection_boxes", "addr:city": "NOEL", "addr:country": "US", "addr:full": "318 MAIN ST", "addr:postcode": "64854", "addr:state": "MO", "amenity": "post_box", "brand": "United States Postal Service", "brand:wikidata": "Q668687", "collection_times": "Mo-Fr 16:30; Sa 11:00", "name": "USPS COLLECTION BOX - PO LOBBY", "note": "ON 12/24 AND 12/31, THIS BOX MAY BE COLLECTED AS EARLY AS 12 NOON.", "nsi_id": "unitedstatespostalservice-a77078", "operator": "United States Postal Service", "operator:short": "USPS", "operator:type": "public", "operator:wikidata": "Q668687", "ref": "6485400008"}, "type": "Feature"}
{"dataset_attributes": {"@spider": "usps_collection_boxes", "spider:collection_time": "2023-10-01T08:22:44.298171"}, "geometry": {"coordinates": [-94.470426, 37.188521], "type": "Point"}, "id": "eLSCmZdGr4-EfYd4cuAU4By_fG0=", "properties": {"@spider": "usps_collection_boxes", "addr:city": "ORONOGO", "addr:country": "US", "addr:full": "101 S 2ND ST", "addr:postcode": "64855", "addr:state": "MO", "amenity": "post_box", "brand": "United States Postal Service", "brand:wikidata": "Q668687", "collection_times": "Mo-Fr 16:00; Sa 09:15", "name": "USPS COLLECTION BOX - BLUE BOX", "note": "ON 12/24 AND 12/31, THIS BOX MAY BE COLLECTED AS EARLY AS 12 NOON.", "nsi_id": "unitedstatespostalservice-a77078", "operator": "United States Postal Service", "operator:short": "USPS", "operator:type": "public", "operator:wikidata": "Q668687", "ref": "6485500000"}, "type": "Feature"}
{"dataset_attributes": {"@spider": "usps_collection_boxes", "spider:collection_time": "2023-10-01T08:22:44.298171"}, "geometry": {"coordinates": [-94.47039, 37.188611], "type": "Point"}, "id": "0u-P0IEk4uQ1G3_ed7I5HV260Bg=", "properties": {"@spider": "usps_collection_boxes", "addr:city": "ORONOGO", "addr:country": "US", "addr:full": "101 S 2ND ST", "addr:postcode": "64855", "addr:state": "MO", "amenity": "post_box", "brand": "United States Postal Service", "brand:wikidata": "Q668687", "collection_times": "Mo-Fr 16:00; Sa 09:15", "name": "USPS COLLECTION BOX - PO LOBBY", "note": "ON 12/24 AND 12/31, THIS BOX MAY BE COLLECTED AS EARLY AS 12 NOON.", "nsi_id": "unitedstatespostalservice-a77078", "operator": "United States Postal Service", "operator:short": "USPS", "operator:type": "public", "operator:wikidata": "Q668687", "ref": "6485500001"}, "type": "Feature"}
{"dataset_attributes": {"@spider": "usps_collection_boxes", "spider:collection_time": "2023-10-01T08:22:44.298171"}, "geometry": {"coordinates": [-94.470453119, 37.188546823], "type": "Point"}, "id": "gZDyY7WEhBO_xkHVjbTqf2lqeYA=", "properties": {"@spider": "usps_collection_boxes", "addr:city": "ORONOGO", "addr:country": "US", "addr:full": "101 S 2ND ST", "addr:postcode": "64855", "addr:state": "MO", "amenity": "post_box", "brand": "United States Postal Service", "brand:wikidata": "Q668687", "collection_times": "Mo-Fr 16:15; Sa 11:00", "name": "USPS COLLECTION BOX - PO LOBBY", "note": "ON 12/24 AND 12/31, THIS BOX MAY BE COLLECTED AS EARLY AS 12 NOON.", "nsi_id": "unitedstatespostalservice-a77078", "operator": "United States Postal Service", "operator:short": "USPS", "operator:type": "public", "operator:wikidata": "Q668687", "ref": "6485500003"}, "type": "Feature"}
{"dataset_attributes": {"@spider": "usps_collection_boxes", "spider:collection_time": "2023-10-01T08:22:44.298171"}, "geometry": {"coordinates": [-94.383223, 36.593155], "type": "Point"}, "id": "lSEKerTuEnOXqGVRydY1xcbBEWc=", "properties": {"@spider": "usps_collection_boxes", "addr:city": "PINEVILLE", "addr:country": "US", "addr:full": "304 HARMON ST", "addr:postcode": "64856", "addr:state": "MO", "amenity": "post_box", "brand": "United States Postal Service", "brand:wikidata": "Q668687", "collection_times": "Mo-Fr 14:45; Sa 11:00", "name": "USPS COLLECTION BOX - BLUE BOX", "note": "ON 12/24 AND 12/31, THIS BOX MAY BE COLLECTED AS EARLY AS 12 NOON.", "nsi_id": "unitedstatespostalservice-a77078", "operator": "United States Postal Service", "operator:short": "USPS", "operator:type": "public", "operator:wikidata": "Q668687", "ref": "6485600000"}, "type": "Feature"}
{"dataset_attributes": {"@spider": "usps_collection_boxes", "spider:collection_time": "2023-10-01T08:22:44.298171"}, "geometry": {"coordinates": [-94.2787862, 36.508008], "type": "Point"}, "id": "SaxBV1kR98X3tOUEgc3y5PP9ps8=", "properties": {"@spider": "usps_collection_boxes", "addr:city": "PINEVILLE", "addr:country": "US", "addr:full": "100 COMMERCIAL LN", "addr:postcode": "64856", "addr:state": "MO", "amenity": "post_box", "brand": "United States Postal Service", "brand:wikidata": "Q668687", "collection_times": "Mo-Sa 12:00", "name": "USPS COLLECTION BOX - BLUE BOX", "nsi_id": "unitedstatespostalservice-a77078", "operator": "United States Postal Service", "operator:short": "USPS", "operator:type": "public", "operator:wikidata": "Q668687", "ref": "6485600001"}, "type": "Feature"}
{"dataset_attributes": {"@spider": "usps_collection_boxes", "spider:collection_time": "2023-10-01T08:22:44.298171"}, "geometry": {"coordinates": [-94.383255, 36.593186], "type": "Point"}, "id": "pKii-iukSYWfNu0t69Dyi3w8-M4=", "properties": {"@spider": "usps_collection_boxes", "addr:city": "PINEVILLE", "addr:country": "US", "addr:full": "304 HARMON ST", "addr:postcode": "64856", "addr:state": "MO", "amenity": "post_box", "brand": "United States Postal Service", "brand:wikidata": "Q668687", "collection_times": "Mo-Fr 14:45; Sa 11:00", "name": "USPS COLLECTION BOX - PO LOBBY", "note": "ON 12/24 AND 12/31, THIS BOX MAY BE COLLECTED AS EARLY AS 12 NOON.", "nsi_id": "unitedstatespostalservice-a77078", "operator": "United States Postal Service", "operator:short": "USPS", "operator:type": "public", "operator:wikidata": "Q668687", "ref": "6485600003"}, "type": "Feature"}
{"dataset_attributes": {"@spider": "usps_collection_boxes", "spider:collection_time": "2023-10-01T08:22:44.298171"}, "geometry": {"coordinates": [-94.383226761, 36.593117801], "type": "Point"}, "id": "OLyEd9R4WGZWER3IHhjCYToxDa4=", "properties": {"@spider": "usps_collection_boxes", "addr:city": "PINEVILLE", "addr:country": "US", "addr:full": "304 HARMON ST", "addr:postcode": "64856", "addr:state": "MO", "amenity": "post_box", "brand": "United States Postal Service", "brand:wikidata": "Q668687", "collection_times": "Mo-Fr 16:00; Sa 12:00", "name": "USPS COLLECTION BOX - PO LOBBY", "note": "ON 12/24 AND 12/31, THIS BOX MAY BE COLLECTED AS EARLY AS 12 NOON.", "nsi_id": "unitedstatespostalservice-a77078", "operator": "United States Postal Service", "operator:short": "USPS", "operator:type": "public", "operator:wikidata": "Q668687", "ref": "6485600005"}, "type": "Feature"}
{"dataset_attributes": {"@spider": "usps_collection_boxes", "spider:collection_time": "2023-10-01T08:22:44.298171"}, "geometry": {"coordinates": [-94.435884, 37.241456], "type": "Point"}, "id": "cufylpOb0_hq_HiL6l_ePI0WZX0=", "properties": {"@spider": "usps_collection_boxes", "addr:city": "PURCELL", "addr:country": "US", "addr:full": "104 W 4TH ST", "addr:postcode": "64857", "addr:state": "MO", "amenity": "post_box", "brand": "United States Postal Service", "brand:wikidata": "Q668687", "collection_times": "Mo-Fr 15:45; Sa 09:45", "name": "USPS COLLECTION BOX - BLUE BOX", "note": "ON 12/24 AND 12/31, THIS BOX MAY BE COLLECTED AS EARLY AS 12 NOON.", "nsi_id": "unitedstatespostalservice-a77078", "operator": "United States Postal Service", "operator:short": "USPS", "operator:type": "public", "operator:wikidata": "Q668687", "ref": "6485700000"}, "type": "Feature"}
{"dataset_attributes": {"@spider": "usps_collection_boxes", "spider:collection_time": "2023-10-01T08:22:44.298171"}, "geometry": {"coordinates": [-94.43578, 37.241482], "type": "Point"}, "id": "CJ1YCV9dkCR54dVkQHLy1gT2f1Y=", "properties": {"@spider": "usps_collection_boxes", "addr:city": "PURCELL", "addr:country": "US", "addr:full": "104 W 4TH ST", "addr:postcode": "64857", "addr:state": "MO", "amenity": "post_box", "brand": "United States Postal Service", "brand:wikidata": "Q668687", "collection_times": "Mo-Fr 15:45; Sa 09:45", "name": "USPS COLLECTION BOX - PO LOBBY", "note": "ON 12/24 AND 12/31, THIS BOX MAY BE COLLECTED AS EARLY AS 12 NOON.", "nsi_id": "unitedstatespostalservice-a77078", "operator": "United States Postal Service", "operator:short": "USPS", "operator:type": "public", "operator:wikidata": "Q668687", "ref": "6485700001"}, "type": "Feature"}
{"dataset_attributes": {"@spider": "usps_collection_boxes", "spider:collection_time": "2023-10-01T08:22:44.298171"}, "geometry": {"coordinates": [-94.435848334, 37.241407044], "type": "Point"}, "id": "XE_u9vyuCqLRtzE9L8TLUwjvrhM=", "properties": {"@spider": "usps_collection_boxes", "addr:city": "PURCELL", "addr:country": "US", "addr:full": "104 W 4TH ST", "addr:postcode": "64857", "addr:state": "MO", "amenity": "post_box", "brand": "United States Postal Service", "brand:wikidata": "Q668687", "collection_times": "Mo-Fr 16:00; Sa 10:00", "name": "USPS COLLECTION BOX - PO LOBBY", "note": "ON 12/24 AND 12/31, THIS BOX MAY BE COLLECTED AS EARLY AS 12 NOON.", "nsi_id": "unitedstatespostalservice-a77078", "operator": "United States Postal Service", "operator:short": "USPS", "operator:type": "public", "operator:wikidata": "Q668687", "ref": "6485700003"}, "type": "Feature"}
{"dataset_attributes": {"@spider": "usps_collection_boxes", "spider:collection_time": "2023-10-01T08:22:44.298171"}, "geometry": {"coordinates": [-94.527142, 36.896925], "type": "Point"}, "id": "siaDLDWiId5Q8jVDWRLfh3th6NI=", "properties": {"@spider": "usps_collection_boxes", "addr:city": "RACINE", "addr:country": "US", "addr:full": "11945 W HIGHWAY 86", "addr:postcode": "64858", "addr:state": "MO", "amenity": "post_box", "brand": "United States Postal Service", "brand:wikidata": "Q668687", "collection_times": "Mo-Fr 11:00; Sa 09:00", "name": "USPS COLLECTION BOX - BLUE BOX", "nsi_id": "unitedstatespostalservice-a77078", "operator": "United States Postal Service", "operator:short": "USPS", "operator:type": "public", "operator:wikidata": "Q668687", "ref": "6485800000"}, "type": "Feature"}
{"dataset_attributes": {"@spider": "usps_collection_boxes", "spider:collection_time": "2023-10-01T08:22:44.298171"}, "geometry": {"coordinates": [-94.52718, 36.896855], "type": "Point"}, "id": "FR5B--2rvRWlyM0xvGvD6SDN4cc=", "properties": {"@spider": "usps_collection_boxes", "addr:city": "RACINE", "addr:country": "US", "addr:full": "11945 W HIGHWAY 86", "addr:postcode": "64858", "addr:state": "MO", "amenity": "post_box", "brand": "United States Postal Service", "brand:wikidata": "Q668687", "collection_times": "Mo-Fr 11:00; Sa 09:00", "name": "USPS COLLECTION BOX - PO LOBBY", "nsi_id": "unitedstatespostalservice-a77078", "operator": "United States Postal Service", "operator:short": "USPS", "operator:type": "public", "operator:wikidata": "Q668687", "ref": "6485800001"}, "type": "Feature"}
{"dataset_attributes": {"@spider": "usps_collection_boxes", "spider:collection_time": "2023-10-01T08:22:44.298171"}, "geometry": {"coordinates": [-94.52711989, 36.896886432], "type": "Point"}, "id": "HqsE4rxPpKS8I-GoiYyNoHANiCw=", "properties": {"@spider": "usps_collection_boxes", "addr:city": "RACINE", "addr:country": "US", "addr:full": "11945 W HIGHWAY 86", "addr:postcode": "64858", "addr:state": "MO", "amenity": "post_box", "brand": "United States Postal Service", "brand:wikidata": "Q668687", "collection_times": "Mo-Fr 11:30; Sa 09:00", "name": "USPS COLLECTION BOX - PO LOBBY", "nsi_id": "unitedstatespostalservice-a77078", "operator": "United States Postal Service", "operator:short": "USPS", "operator:type": "public", "operator:wikidata": "Q668687", "ref": "6485800003"}, "type": "Feature"}
{"dataset_attributes": {"@spider": "usps_collection_boxes", "spider:collection_time": "2023-10-01T08:22:44.298171"}, "geometry": {"coordinates": [-94.16661, 37.11627], "type": "Point"}, "id": "Nu7b23pnJx0ArxlhmuiHbY8VOTw=", "properties": {"@spider": "usps_collection_boxes", "addr:city": "REEDS", "addr:country": "US", "addr:full": "5970 5TH ST", "addr:postcode": "64859", "addr:state": "MO", "amenity": "post_box", "brand": "United States Postal Service", "brand:wikidata": "Q668687", "collection_times": "Mo-Fr 15:30; Sa 10:30", "name": "USPS COLLECTION BOX - BLUE BOX", "note": "ON 12/24 AND 12/31, THIS BOX MAY BE COLLECTED AS EARLY AS 12 NOON.", "nsi_id": "unitedstatespostalservice-a77078", "operator": "United States Postal Service", "operator:short": "USPS", "operator:type": "public", "operator:wikidata": "Q668687", "ref": "6485900000"}, "type": "Feature"}
{"dataset_attributes": {"@spider": "usps_collection_boxes", "spider:collection_time": "2023-10-01T08:22:44.298171"}, "geometry": {"coordinates": [-94.166642, 37.116309], "type": "Point"}, "id": "qXavpK2MYe18w739gIMutZRVq8o=", "properties": {"@spider": "usps_collection_boxes", "addr:city": "REEDS", "addr:country": "US", "addr:full": "5970 5TH ST", "addr:postcode": "64859", "addr:state": "MO", "amenity": "post_box", "brand": "United States Postal Service", "brand:wikidata": "Q668687", "collection_times": "Mo-Fr 15:30; Sa 10:30", "name": "USPS COLLECTION BOX - PO LOBBY", "note": "ON 12/24 AND 12/31, THIS BOX MAY BE COLLECTED AS EARLY AS 12 NOON.", "nsi_id": "unitedstatespostalservice-a77078", "operator": "United States Postal Service", "operator:short": "USPS", "operator:type": "public", "operator:wikidata": "Q668687", "ref": "6485900001"}, "type": "Feature"}
{"dataset_attributes": {"@spider": "usps_collection_boxes", "spider:collection_time": "2023-10-01T08:22:44.298171"}, "geometry": {"coordinates": [-94.1660784585, 37.11609636], "type": "Point"}, "id": "kYBOIpxU8PigA1EahIIvuwvTXGU=", "properties": {"@spider": "usps_collection_boxes", "addr:city": "REEDS", "addr:country": "US", "addr:full": "5970 5TH ST", "addr:postcode": "64859", "addr:state": "MO", "amenity": "post_box", "brand": "United States Postal Service", "brand:wikidata": "Q668687", "collection_times": "Mo-Fr 16:00; Sa 12:00", "name": "USPS COLLECTION BOX - PO LOBBY", "note": "ON 12/24 AND 12/31, THIS BOX MAY BE COLLECTED AS EARLY AS 12 NOON.", "nsi_id": "unitedstatespostalservice-a77078", "operator": "United States Postal Service", "operator:short": "USPS", "operator:type": "public", "operator:wikidata": "Q668687", "ref": "6485900003"}, "type": "Feature"}
{"dataset_attributes": {"@spider": "usps_collection_boxes", "spider:collection_time": "2023-10-01T08:22:44.298171"}, "geometry": {"coordinates": [-94.089344, 36.746156], "type": "Point"}, "id": "LNij-Lz-ZgK-Glt-WHDC9Bzqvsk=", "properties": {"@spider": "usps_collection_boxes", "addr:city": "ROCKY COMFORT", "addr:country": "US", "addr:full": "121 MAIN ST", "addr:postcode": "64861", "addr:state": "MO", "amenity": "post_box", "brand": "United States Postal Service", "brand:wikidata": "Q668687", "collection_times": "Mo-Fr 14:45; Sa 09:30", "name": "USPS COLLECTION BOX - BLUE BOX", "note": "ON 12/24 AND 12/31, THIS BOX MAY BE COLLECTED AS EARLY AS 12 NOON.", "nsi_id": "unitedstatespostalservice-a77078", "operator": "United States Postal Service", "operator:short": "USPS", "operator:type": "public", "operator:wikidata": "Q668687", "ref": "6486100000"}, "type": "Feature"}
{"dataset_attributes": {"@spider": "usps_collection_boxes", "spider:collection_time": "2023-10-01T08:22:44.298171"}, "geometry": {"coordinates": [-94.089344, 36.746156], "type": "Point"}, "id": "6ucxZ6Jyi0HUIrB4wZ65A0T9_SI=", "properties": {"@spider": "usps_collection_boxes", "addr:city": "ROCKY COMFORT", "addr:country": "US", "addr:full": "121 MAIN ST", "addr:postcode": "64861", "addr:state": "MO", "amenity": "post_box", "brand": "United States Postal Service", "brand:wikidata": "Q668687", "collection_times": "Mo-Fr 14:45; Sa 09:30", "name": "USPS COLLECTION BOX - PO LOBBY", "note": "ON 12/24 AND 12/31, THIS BOX MAY BE COLLECTED AS EARLY AS 12 NOON.", "nsi_id": "unitedstatespostalservice-a77078", "operator": "United States Postal Service", "operator:short": "USPS", "operator:type": "public", "operator:wikidata": "Q668687", "ref": "6486100002"}, "type": "Feature"}
{"dataset_attributes": {"@spider": "usps_collection_boxes", "spider:collection_time": "2023-10-01T08:22:44.298171"}, "geometry": {"coordinates": [-94.089418859, 36.746170945], "type": "Point"}, "id": "BLEh5vIC4FWPaipSfH31WPz7OfQ=", "properties": {"@spider": "usps_collection_boxes", "addr:city": "ROCKY COMFORT", "addr:country": "US", "addr:full": "121 MAIN ST", "addr:postcode": "64861", "addr:state": "MO", "amenity": "post_box", "brand": "United States Postal Service", "brand:wikidata": "Q668687", "collection_times": "Mo-Fr 16:00; Sa 13:00", "name": "USPS COLLECTION BOX - PO LOBBY", "note": "ON 12/24 AND 12/31, THIS BOX MAY BE COLLECTED AS EARLY AS 12 NOON.", "nsi_id": "unitedstatespostalservice-a77078", "operator": "United States Postal Service", "operator:short": "USPS", "operator:type": "public", "operator:wikidata": "Q668687", "ref": "6486100005"}, "type": "Feature"}
{"dataset_attributes": {"@spider": "usps_collection_boxes", "spider:collection_time": "2023-10-01T08:22:44.298171"}, "geometry": {"coordinates": [-94.1157916, 37.070653], "type": "Point"}, "id": "Gfndwbmg2eSpifhCRiP9uzRKVZc=", "properties": {"@spider": "usps_collection_boxes", "addr:city": "SARCOXIE", "addr:country": "US", "addr:full": "216 N 5TH ST", "addr:postcode": "64862", "addr:state": "MO", "amenity": "post_box", "brand": "United States Postal Service", "brand:wikidata": "Q668687", "collection_times": "Mo-Fr 15:15; Sa 10:45", "name": "USPS COLLECTION BOX - BLUE BOX", "note": "ON 12/24 AND 12/31, THIS BOX MAY BE COLLECTED AS EARLY AS 12 NOON.", "nsi_id": "unitedstatespostalservice-a77078", "operator": "United States Postal Service", "operator:short": "USPS", "operator:type": "public", "operator:wikidata": "Q668687", "ref": "6486200002"}, "type": "Feature"}
{"dataset_attributes": {"@spider": "usps_collection_boxes", "spider:collection_time": "2023-10-01T08:22:44.298171"}, "geometry": {"coordinates": [-94.1158599, 37.07061], "type": "Point"}, "id": "fTXlxamAmmFadgv031OVgrdo6pU=", "properties": {"@spider": "usps_collection_boxes", "addr:city": "SARCOXIE", "addr:country": "US", "addr:full": "216 N 5TH ST", "addr:postcode": "64862", "addr:state": "MO", "amenity": "post_box", "brand": "United States Postal Service", "brand:wikidata": "Q668687", "collection_times": "Mo-Fr 15:15; Sa 10:45", "name": "USPS COLLECTION BOX - PO LOBBY", "note": "ON 12/24 AND 12/31, THIS BOX MAY BE COLLECTED AS EARLY AS 12 NOON.", "nsi_id": "unitedstatespostalservice-a77078", "operator": "United States Postal Service", "operator:short": "USPS", "operator:type": "public", "operator:wikidata": "Q668687", "ref": "6486200003"}, "type": "Feature"}
{"dataset_attributes": {"@spider": "usps_collection_boxes", "spider:collection_time": "2023-10-01T08:22:44.298171"}, "geometry": {"coordinates": [-94.115915623, 37.070783047], "type": "Point"}, "id": "Es59SukwaZ-4Gm-UXJKoLj7eOuw=", "properties": {"@spider": "usps_collection_boxes", "addr:city": "SARCOXIE", "addr:country": "US", "addr:full": "216 N 5TH ST", "addr:postcode": "64862", "addr:state": "MO", "amenity": "post_box", "brand": "United States Postal Service", "brand:wikidata": "Q668687", "collection_times": "Mo-Fr 16:30; Sa 10:30", "name": "USPS COLLECTION BOX - PO LOBBY", "note": "ON 12/24 AND 12/31, THIS BOX MAY BE COLLECTED AS EARLY AS 12 NOON.", "nsi_id": "unitedstatespostalservice-a77078", "operator": "United States Postal Service", "operator:short": "USPS", "operator:type": "public", "operator:wikidata": "Q668687", "ref": "6486200005"}, "type": "Feature"}
{"dataset_attributes": {"@spider": "usps_collection_boxes", "spider:collection_time": "2023-10-01T08:22:44.298171"}, "geometry": {"coordinates": [-94.611376411, 36.513871711], "type": "Point"}, "id": "LPV4dFTRXVhosSLrZVVkOaItSb4=", "properties": {"@spider": "usps_collection_boxes", "addr:city": "SOUTHWEST CITY", "addr:country": "US", "addr:full": "214 S MAIN ST", "addr:postcode": "64863", "addr:state": "MO", "amenity": "post_box", "brand": "United States Postal Service", "brand:wikidata": "Q668687", "collection_times": "Mo-Fr 14:45; Sa 11:00", "name": "USPS COLLECTION BOX - BLUE BOX", "note": "ON 12/24 AND 12/31, THIS BOX MAY BE COLLECTED AS EARLY AS 12 NOON.", "nsi_id": "unitedstatespostalservice-a77078", "operator": "United States Postal Service", "operator:short": "USPS", "operator:type": "public", "operator:wikidata": "Q668687", "ref": "6486300000"}, "type": "Feature"}
{"dataset_attributes": {"@spider": "usps_collection_boxes", "spider:collection_time": "2023-10-01T08:22:44.298171"}, "geometry": {"coordinates": [-94.611376411, 36.513871711], "type": "Point"}, "id": "UoyM8otydd_gmUrp8OwzWq72Fbc=", "properties": {"@spider": "usps_collection_boxes", "addr:city": "SOUTHWEST CITY", "addr:country": "US", "addr:full": "214 S MAIN ST", "addr:postcode": "64863", "addr:state": "MO", "amenity": "post_box", "brand": "United States Postal Service", "brand:wikidata": "Q668687", "collection_times": "Mo-Fr 14:45; Sa 11:00", "name": "USPS COLLECTION BOX - PO LOBBY", "note": "ON 12/24 AND 12/31, THIS BOX MAY BE COLLECTED AS EARLY AS 12 NOON.", "nsi_id": "unitedstatespostalservice-a77078", "operator": "United States Postal Service", "operator:short": "USPS", "operator:type": "public", "operator:wikidata": "Q668687", "ref": "6486300001"}, "type": "Feature"}
{"dataset_attributes": {"@spider": "usps_collection_boxes", "spider:collection_time": "2023-10-01T08:22:44.298171"}, "geometry": {"coordinates": [-94.611376411, 36.513871711], "type": "Point"}, "id": "xnHCIHdkk6K_T0HSpjiCQjqWFSw=", "properties": {"@spider": "usps_collection_boxes", "addr:city": "SOUTHWEST CITY", "addr:country": "US", "addr:full": "214 S MAIN ST", "addr:postcode": "64863", "addr:state": "MO", "amenity": "post_box", "brand": "United States Postal Service", "brand:wikidata": "Q668687", "collection_times": "Mo-Fr 16:00; Sa 12:30", "name": "USPS COLLECTION BOX - PO LOBBY", "note": "ON 12/24 AND 12/31, THIS BOX MAY BE COLLECTED AS EARLY AS 12 NOON.", "nsi_id": "unitedstatespostalservice-a77078", "operator": "United States Postal Service", "operator:short": "USPS", "operator:type": "public", "operator:wikidata": "Q668687", "ref": "6486300003"}, "type": "Feature"}
{"dataset_attributes": {"@spider": "usps_collection_boxes", "spider:collection_time": "2023-10-01T08:22:44.298171"}, "geometry": {"coordinates": [-94.479125, 37.03], "type": "Point"}, "id": "H2R1sfJZ0Q_j_eCFfbUtaifgEwg=", "properties": {"@spider": "usps_collection_boxes", "addr:city": "SAGINAW", "addr:country": "US", "addr:full": "5301 S RANGE LINE RD", "addr:postcode": "64864", "addr:state": "MO", "amenity": "post_box", "brand": "United States Postal Service", "brand:wikidata": "Q668687", "collection_times": "Mo-Fr 16:00; Sa 09:45", "name": "USPS COLLECTION BOX - BLUE BOX", "note": "ON 12/24 AND 12/31, THIS BOX MAY BE COLLECTED AS EARLY AS 12 NOON.", "nsi_id": "unitedstatespostalservice-a77078", "operator": "United States Postal Service", "operator:short": "USPS", "operator:type": "public", "operator:wikidata": "Q668687", "ref": "6486400000"}, "type": "Feature"}
{"dataset_attributes": {"@spider": "usps_collection_boxes", "spider:collection_time": "2023-10-01T08:22:44.298171"}, "geometry": {"coordinates": [-94.479159, 37.030091], "type": "Point"}, "id": "-dVzUw_JPSWRQNQQL5ZYnsHPG0g=", "properties": {"@spider": "usps_collection_boxes", "addr:city": "SAGINAW", "addr:country": "US", "addr:full": "5301 S RANGE LINE RD", "addr:postcode": "64864", "addr:state": "MO", "amenity": "post_box", "brand": "United States Postal Service", "brand:wikidata": "Q668687", "collection_times": "Mo-Fr 16:00; Sa 09:45", "name": "USPS COLLECTION BOX - PO LOBBY", "note": "ON 12/24 AND 12/31, THIS BOX MAY BE COLLECTED AS EARLY AS 12 NOON.", "nsi_id": "unitedstatespostalservice-a77078", "operator": "United States Postal Service", "operator:short": "USPS", "operator:type": "public", "operator:wikidata": "Q668687", "ref": "6486400001"}, "type": "Feature"}
{"dataset_attributes": {"@spider": "usps_collection_boxes", "spider:collection_time": "2023-10-01T08:22:44.298171"}, "geometry": {"coordinates": [-94.479107592, 37.030028592], "type": "Point"}, "id": "a_Q-XazR4bbryuDFitlbCa27M9w=", "properties": {"@spider": "usps_collection_boxes", "addr:city": "SAGINAW", "addr:country": "US", "addr:full": "5301 S RANGE LINE RD", "addr:postcode": "64864", "addr:state": "MO", "amenity": "post_box", "brand": "United States Postal Service", "brand:wikidata": "Q668687", "collection_times": "Mo-Fr 16:45; Sa 09:45", "name": "USPS COLLECTION BOX - PO LOBBY", "note": "ON 12/24 AND 12/31, THIS BOX MAY BE COLLECTED AS EARLY AS 12 NOON.", "nsi_id": "unitedstatespostalservice-a77078", "operator": "United States Postal Service", "operator:short": "USPS", "operator:type": "public", "operator:wikidata": "Q668687", "ref": "6486400003"}, "type": "Feature"}
{"dataset_attributes": {"@spider": "usps_collection_boxes", "spider:collection_time": "2023-10-01T08:22:44.298171"}, "geometry": {"coordinates": [-94.611183, 36.840917], "type": "Point"}, "id": "Nm6Xl2MD9s6HyA19b0bjgA__krQ=", "properties": {"@spider": "usps_collection_boxes", "addr:city": "SENECA", "addr:country": "US", "addr:full": "1205 CHEROKEE AVE", "addr:postcode": "64865", "addr:state": "MO", "amenity": "post_box", "brand": "United States Postal Service", "brand:wikidata": "Q668687", "collection_times": "Mo-Fr 15:45; Sa 10:30", "name": "USPS COLLECTION BOX - BLUE BOX", "note": "ON 12/24 AND 12/31, THIS BOX MAY BE COLLECTED AS EARLY AS 12 NOON.", "nsi_id": "unitedstatespostalservice-a77078", "operator": "United States Postal Service", "operator:short": "USPS", "operator:type": "public", "operator:wikidata": "Q668687", "ref": "6486500000"}, "type": "Feature"}
{"dataset_attributes": {"@spider": "usps_collection_boxes", "spider:collection_time": "2023-10-01T08:22:44.298171"}, "geometry": {"coordinates": [-94.611216, 36.840936], "type": "Point"}, "id": "hXt0ifdnlbVvyS3Q-HBfbdP6C0I=", "properties": {"@spider": "usps_collection_boxes", "addr:city": "SENECA", "addr:country": "US", "addr:full": "1205 CHEROKEE AVE", "addr:postcode": "64865", "addr:state": "MO", "amenity": "post_box", "brand": "United States Postal Service", "brand:wikidata": "Q668687", "collection_times": "Mo-Fr 15:45; Sa 10:30", "name": "USPS COLLECTION BOX - PO LOBBY", "note": "ON 12/24 AND 12/31, THIS BOX MAY BE COLLECTED AS EARLY AS 12 NOON.", "nsi_id": "unitedstatespostalservice-a77078", "operator": "United States Postal Service", "operator:short": "USPS", "operator:type": "public", "operator:wikidata": "Q668687", "ref": "6486500003"}, "type": "Feature"}
{"dataset_attributes": {"@spider": "usps_collection_boxes", "spider:collection_time": "2023-10-01T08:22:44.298171"}, "geometry": {"coordinates": [-94.6111623369, 36.8409171337], "type": "Point"}, "id": "CzjZebCmnYAUNFJE-rWGl_6XjlA=", "properties": {"@spider": "usps_collection_boxes", "addr:city": "SENECA", "addr:country": "US", "addr:full": "1205 CHEROKEE AVE", "addr:postcode": "64865", "addr:state": "MO", "amenity": "post_box", "brand": "United States Postal Service", "brand:wikidata": "Q668687", "collection_times": "Mo-Fr 16:30; Sa 12:00", "name": "USPS COLLECTION BOX - PO LOBBY", "note": "ON 12/24 AND 12/31, THIS BOX MAY BE COLLECTED AS EARLY AS 12 NOON.", "nsi_id": "unitedstatespostalservice-a77078", "operator": "United States Postal Service", "operator:short": "USPS", "operator:type": "public", "operator:wikidata": "Q668687", "ref": "6486500005"}, "type": "Feature"}
{"dataset_attributes": {"@spider": "usps_collection_boxes", "spider:collection_time": "2023-10-01T08:22:44.298171"}, "geometry": {"coordinates": [-94.189906, 36.861624], "type": "Point"}, "id": "f3gWhXxKFATg65u3RcEF_BrtTbc=", "properties": {"@spider": "usps_collection_boxes", "addr:city": "STARK CITY", "addr:country": "US", "addr:full": "302 KENT ST", "addr:postcode": "64866", "addr:state": "MO", "amenity": "post_box", "brand": "United States Postal Service", "brand:wikidata": "Q668687", "collection_times": "Mo-Fr 15:00; Sa 09:15", "name": "USPS COLLECTION BOX - BLUE BOX", "note": "ON 12/24 AND 12/31, THIS BOX MAY BE COLLECTED AS EARLY AS 12 NOON.", "nsi_id": "unitedstatespostalservice-a77078", "operator": "United States Postal Service", "operator:short": "USPS", "operator:type": "public", "operator:wikidata": "Q668687", "ref": "6486600000"}, "type": "Feature"}
{"dataset_attributes": {"@spider": "usps_collection_boxes", "spider:collection_time": "2023-10-01T08:22:44.298171"}, "geometry": {"coordinates": [-94.189876, 36.861539], "type": "Point"}, "id": "LKKdztquKYNn-u1OrnWbKL9-3h8=", "properties": {"@spider": "usps_collection_boxes", "addr:city": "STARK CITY", "addr:country": "US", "addr:full": "302 KENT ST", "addr:postcode": "64866", "addr:state": "MO", "amenity": "post_box", "brand": "United States Postal Service", "brand:wikidata": "Q668687", "collection_times": "Mo-Fr 15:00; Sa 09:15", "name": "USPS COLLECTION BOX - PO LOBBY", "note": "ON 12/24 AND 12/31, THIS BOX MAY BE COLLECTED AS EARLY AS 12 NOON.", "nsi_id": "unitedstatespostalservice-a77078", "operator": "United States Postal Service", "operator:short": "USPS", "operator:type": "public", "operator:wikidata": "Q668687", "ref": "6486600001"}, "type": "Feature"}
{"dataset_attributes": {"@spider": "usps_collection_boxes", "spider:collection_time": "2023-10-01T08:22:44.298171"}, "geometry": {"coordinates": [-94.1899369488, 36.8615874052], "type": "Point"}, "id": "BYM2cVhRW58jsl1DHgO15JDBF3M=", "properties": {"@spider": "usps_collection_boxes", "addr:city": "STARK CITY", "addr:country": "US", "addr:full": "302 KENT ST", "addr:postcode": "64866", "addr:state": "MO", "amenity": "post_box", "brand": "United States Postal Service", "brand:wikidata": "Q668687", "collection_times": "Mo-Fr 15:15; Sa 12:00", "name": "USPS COLLECTION BOX - PO LOBBY", "note": "ON 12/24 AND 12/31, THIS BOX MAY BE COLLECTED AS EARLY AS 12 NOON.", "nsi_id": "unitedstatespostalservice-a77078", "operator": "United States Postal Service", "operator:short": "USPS", "operator:type": "public", "operator:wikidata": "Q668687", "ref": "6486600004"}, "type": "Feature"}
{"dataset_attributes": {"@spider": "usps_collection_boxes", "spider:collection_time": "2023-10-01T08:22:44.298171"}, "geometry": {"coordinates": [-94.191930089, 36.760664293], "type": "Point"}, "id": "y6V_cwI9yRMz3ylsldWIzuY8w64=", "properties": {"@spider": "usps_collection_boxes", "addr:city": "STELLA", "addr:country": "US", "addr:full": "774 OZARK ST", "addr:postcode": "64867", "addr:state": "MO", "amenity": "post_box", "brand": "United States Postal Service", "brand:wikidata": "Q668687", "collection_times": "Mo-Fr 15:00; Sa 09:45", "name": "USPS COLLECTION BOX - BLUE BOX", "note": "ON 12/24 AND 12/31, THIS BOX MAY BE COLLECTED AS EARLY AS 12 NOON.", "nsi_id": "unitedstatespostalservice-a77078", "operator": "United States Postal Service", "operator:short": "USPS", "operator:type": "public", "operator:wikidata": "Q668687", "ref": "6486700000"}, "type": "Feature"}
{"dataset_attributes": {"@spider": "usps_collection_boxes", "spider:collection_time": "2023-10-01T08:22:44.298171"}, "geometry": {"coordinates": [-94.191930089, 36.760664293], "type": "Point"}, "id": "kOWN7CTAu61gECZaP5PKVrmv3SM=", "properties": {"@spider": "usps_collection_boxes", "addr:city": "STELLA", "addr:country": "US", "addr:full": "774 OZARK ST", "addr:postcode": "64867", "addr:state": "MO", "amenity": "post_box", "brand": "United States Postal Service", "brand:wikidata": "Q668687", "collection_times": "Mo-Fr 15:00; Sa 09:45", "name": "USPS COLLECTION BOX - PO LOBBY", "note": "ON 12/24 AND 12/31, THIS BOX MAY BE COLLECTED AS EARLY AS 12 NOON.", "nsi_id": "unitedstatespostalservice-a77078", "operator": "United States Postal Service", "operator:short": "USPS", "operator:type": "public", "operator:wikidata": "Q668687", "ref": "6486700003"}, "type": "Feature"}
{"dataset_attributes": {"@spider": "usps_collection_boxes", "spider:collection_time": "2023-10-01T08:22:44.298171"}, "geometry": {"coordinates": [-94.1919300893, 36.7606642926], "type": "Point"}, "id": "3rO4iHRs6osiNVYkwPpn8-28uo0=", "properties": {"@spider": "usps_collection_boxes", "addr:city": "STELLA", "addr:country": "US", "addr:full": "774 OZARK ST", "addr:postcode": "64867", "addr:state": "MO", "amenity": "post_box", "brand": "United States Postal Service", "brand:wikidata": "Q668687", "collection_times": "Mo-Fr 16:15; Sa 13:30", "name": "USPS COLLECTION BOX - PO LOBBY", "note": "ON 12/24 AND 12/31, THIS BOX MAY BE COLLECTED AS EARLY AS 12 NOON.", "nsi_id": "unitedstatespostalservice-a77078", "operator": "United States Postal Service", "operator:short": "USPS", "operator:type": "public", "operator:wikidata": "Q668687", "ref": "6486700004"}, "type": "Feature"}
{"dataset_attributes": {"@spider": "usps_collection_boxes", "spider:collection_time": "2023-10-01T08:22:44.298171"}, "geometry": {"coordinates": [-94.617124, 36.668362], "type": "Point"}, "id": "_N_QTsq5p8tIkvuBFsdRgod7n1E=", "properties": {"@spider": "usps_collection_boxes", "addr:city": "TIFF CITY", "addr:country": "US", "addr:full": "10703 W STATE HIGHWAY 76", "addr:postcode": "64868", "addr:state": "MO", "amenity": "post_box", "brand": "United States Postal Service", "brand:wikidata": "Q668687", "collection_times": "Mo-Fr 12:45; Sa 11:45", "name": "USPS COLLECTION BOX - BLUE BOX", "note": "ON 12/24 AND 12/31, THIS BOX MAY BE COLLECTED AS EARLY AS 12 NOON.", "nsi_id": "unitedstatespostalservice-a77078", "operator": "United States Postal Service", "operator:short": "USPS", "operator:type": "public", "operator:wikidata": "Q668687", "ref": "6486800000"}, "type": "Feature"}
{"dataset_attributes": {"@spider": "usps_collection_boxes", "spider:collection_time": "2023-10-01T08:22:44.298171"}, "geometry": {"coordinates": [-94.617025, 36.668394], "type": "Point"}, "id": "6Wt6RwRwp0KUotpsAGtO6JOoenM=", "properties": {"@spider": "usps_collection_boxes", "addr:city": "TIFF CITY", "addr:country": "US", "addr:full": "10703 W STATE HIGHWAY 76", "addr:postcode": "64868", "addr:state": "MO", "amenity": "post_box", "brand": "United States Postal Service", "brand:wikidata": "Q668687", "collection_times": "Mo-Fr 12:45; Sa 11:45", "name": "USPS COLLECTION BOX - PO LOBBY", "note": "ON 12/24 AND 12/31, THIS BOX MAY BE COLLECTED AS EARLY AS 12 NOON.", "nsi_id": "unitedstatespostalservice-a77078", "operator": "United States Postal Service", "operator:short": "USPS", "operator:type": "public", "operator:wikidata": "Q668687", "ref": "6486800001"}, "type": "Feature"}
{"dataset_attributes": {"@spider": "usps_collection_boxes", "spider:collection_time": "2023-10-01T08:22:44.298171"}, "geometry": {"coordinates": [-94.6171675418, 36.6683290711], "type": "Point"}, "id": "pWhh-8vQg2ip9Edah4okm--tOkU=", "properties": {"@spider": "usps_collection_boxes", "addr:city": "TIFF CITY", "addr:country": "US", "addr:full": "10703 W STATE HIGHWAY 76", "addr:postcode": "64868", "addr:state": "MO", "amenity": "post_box", "brand": "United States Postal Service", "brand:wikidata": "Q668687", "collection_times": "Mo-Fr 13:00; Sa 12:00", "name": "USPS COLLECTION BOX - PO LOBBY", "note": "ON 12/24 AND 12/31, THIS BOX MAY BE COLLECTED AS EARLY AS 12 NOON.", "nsi_id": "unitedstatespostalservice-a77078", "operator": "United States Postal Service", "operator:short": "USPS", "operator:type": "public", "operator:wikidata": "Q668687", "ref": "6486800003"}, "type": "Feature"}
{"dataset_attributes": {"@spider": "usps_collection_boxes", "spider:collection_time": "2023-10-01T08:22:44.298171"}, "geometry": {"coordinates": [-94.464211448, 37.147298543], "type": "Point"}, "id": "XFxMVIlJBtin9gq_JOKDgbg7vDk=", "properties": {"@spider": "usps_collection_boxes", "addr:city": "WEBB CITY", "addr:country": "US", "addr:full": "220 W DAUGHERTY ST", "addr:postcode": "64870", "addr:state": "MO", "amenity": "post_box", "brand": "United States Postal Service", "brand:wikidata": "Q668687", "collection_times": "Mo-Fr 16:00; Sa 15:00", "name": "USPS COLLECTION BOX - BLUE BOX", "note": "ON 12/24 AND 12/31, THIS BOX MAY BE COLLECTED AS EARLY AS 12 NOON.", "nsi_id": "unitedstatespostalservice-a77078", "operator": "United States Postal Service", "operator:short": "USPS", "operator:type": "public", "operator:wikidata": "Q668687", "ref": "6487000015"}, "type": "Feature"}
{"dataset_attributes": {"@spider": "usps_collection_boxes", "spider:collection_time": "2023-10-01T08:22:44.298171"}, "geometry": {"coordinates": [-94.464211448, 37.147298543], "type": "Point"}, "id": "4ZK4QmMRq5t9uLmfXG1LuPabEgY=", "properties": {"@spider": "usps_collection_boxes", "addr:city": "WEBB CITY", "addr:country": "US", "addr:full": "220 W DAUGHERTY ST", "addr:postcode": "64870", "addr:state": "MO", "amenity": "post_box", "brand": "United States Postal Service", "brand:wikidata": "Q668687", "collection_times": "Mo-Fr 16:00; Sa 15:00", "name": "USPS COLLECTION BOX - PO LOBBY", "note": "ON 12/24 AND 12/31, THIS BOX MAY BE COLLECTED AS EARLY AS 12 NOON.", "nsi_id": "unitedstatespostalservice-a77078", "operator": "United States Postal Service", "operator:short": "USPS", "operator:type": "public", "operator:wikidata": "Q668687", "ref": "6487000017"}, "type": "Feature"}
{"dataset_attributes": {"@spider": "usps_collection_boxes", "spider:collection_time": "2023-10-01T08:22:44.298171"}, "geometry": {"coordinates": [-94.464211448, 37.147298543], "type": "Point"}, "id": "Q51b4GZGsAe5w6abhSjOPf0Cbyg=", "properties": {"@spider": "usps_collection_boxes", "addr:city": "WEBB CITY", "addr:country": "US", "addr:full": "220 W DAUGHERTY ST", "addr:postcode": "64870", "addr:state": "MO", "amenity": "post_box", "brand": "United States Postal Service", "brand:wikidata": "Q668687", "collection_times": "Mo-Fr 16:00; Sa 15:00", "name": "USPS COLLECTION BOX - PO LOBBY", "note": "ON 12/24 AND 12/31, THIS BOX MAY BE COLLECTED AS EARLY AS 12 NOON.", "nsi_id": "unitedstatespostalservice-a77078", "operator": "United States Postal Service", "operator:short": "USPS", "operator:type": "public", "operator:wikidata": "Q668687", "ref": "6487000018"}, "type": "Feature"}
{"dataset_attributes": {"@spider": "usps_collection_boxes", "spider:collection_time": "2023-10-01T08:22:44.298171"}, "geometry": {"coordinates": [-94.4776683, 37.133233], "type": "Point"}, "id": "oJklGbwW-p1-QvQAE-vDoQN-AUw=", "properties": {"@spider": "usps_collection_boxes", "addr:city": "WEBB CITY", "addr:country": "US", "addr:full": "1212 S MADISON ST", "addr:postcode": "64870", "addr:state": "MO", "amenity": "post_box", "brand": "United States Postal Service", "brand:wikidata": "Q668687", "collection_times": "Mo-Sa 10:30", "name": "USPS COLLECTION BOX - BLUE BOX", "nsi_id": "unitedstatespostalservice-a77078", "operator": "United States Postal Service", "operator:short": "USPS", "operator:type": "public", "operator:wikidata": "Q668687", "ref": "6487000019"}, "type": "Feature"}
{"dataset_attributes": {"@spider": "usps_collection_boxes", "spider:collection_time": "2023-10-01T08:22:44.298171"}, "geometry": {"coordinates": [-94.464211448, 37.147298543], "type": "Point"}, "id": "dX9yz7K24GZ2Oim8XxMdvQP7mIs=", "properties": {"@spider": "usps_collection_boxes", "addr:city": "WEBB CITY", "addr:country": "US", "addr:full": "220 W DAUGHERTY ST", "addr:postcode": "64870", "addr:state": "MO", "amenity": "post_box", "brand": "United States Postal Service", "brand:wikidata": "Q668687", "collection_times": "Mo-Fr 16:30; Sa 11:00", "name": "USPS COLLECTION BOX - PO LOBBY", "note": "ON 12/24 AND 12/31, THIS BOX MAY BE COLLECTED AS EARLY AS 12 NOON.", "nsi_id": "unitedstatespostalservice-a77078", "operator": "United States Postal Service", "operator:short": "USPS", "operator:type": "public", "operator:wikidata": "Q668687", "ref": "6487000026"}, "type": "Feature"}
{"dataset_attributes": {"@spider": "usps_collection_boxes", "spider:collection_time": "2023-10-01T08:22:44.298171"}, "geometry": {"coordinates": [-94.05928, 36.758262], "type": "Point"}, "id": "NKKw-EZoaIfZzDDRL3h0epWSyKc=", "properties": {"@spider": "usps_collection_boxes", "addr:city": "WHEATON", "addr:country": "US", "addr:full": "300 S GILMAN ST", "addr:postcode": "64874", "addr:state": "MO", "amenity": "post_box", "brand": "United States Postal Service", "brand:wikidata": "Q668687", "collection_times": "Mo-Fr 14:30; Sa 10:15", "name": "USPS COLLECTION BOX - BLUE BOX", "note": "ON 12/24 AND 12/31, THIS BOX MAY BE COLLECTED AS EARLY AS 12 NOON.", "nsi_id": "unitedstatespostalservice-a77078", "operator": "United States Postal Service", "operator:short": "USPS", "operator:type": "public", "operator:wikidata": "Q668687", "ref": "6487400000"}, "type": "Feature"}
{"dataset_attributes": {"@spider": "usps_collection_boxes", "spider:collection_time": "2023-10-01T08:22:44.298171"}, "geometry": {"coordinates": [-94.059318, 36.758173], "type": "Point"}, "id": "7sx8TZJ-s4w5P49sbdVzCTv7Q3A=", "properties": {"@spider": "usps_collection_boxes", "addr:city": "WHEATON", "addr:country": "US", "addr:full": "300 S GILMAN ST", "addr:postcode": "64874", "addr:state": "MO", "amenity": "post_box", "brand": "United States Postal Service", "brand:wikidata": "Q668687", "collection_times": "Mo-Fr 14:30; Sa 10:15", "name": "USPS COLLECTION BOX - PO LOBBY", "note": "ON 12/24 AND 12/31, THIS BOX MAY BE COLLECTED AS EARLY AS 12 NOON.", "nsi_id": "unitedstatespostalservice-a77078", "operator": "United States Postal Service", "operator:short": "USPS", "operator:type": "public", "operator:wikidata": "Q668687", "ref": "6487400001"}, "type": "Feature"}
{"dataset_attributes": {"@spider": "usps_collection_boxes", "spider:collection_time": "2023-10-01T08:22:44.298171"}, "geometry": {"coordinates": [-94.0592642551, 36.7582240126], "type": "Point"}, "id": "_Ww8t9VAc0tGJG9BQftLXZ33NEU=", "properties": {"@spider": "usps_collection_boxes", "addr:city": "WHEATON", "addr:country": "US", "addr:full": "300 S GILMAN ST", "addr:postcode": "64874", "addr:state": "MO", "amenity": "post_box", "brand": "United States Postal Service", "brand:wikidata": "Q668687", "collection_times": "Mo-Fr 16:30; Sa 10:30", "name": "USPS COLLECTION BOX - PO LOBBY", "note": "ON 12/24 AND 12/31, THIS BOX MAY BE COLLECTED AS EARLY AS 12 NOON.", "nsi_id": "unitedstatespostalservice-a77078", "operator": "United States Postal Service", "operator:short": "USPS", "operator:type": "public", "operator:wikidata": "Q668687", "ref": "6487400004"}, "type": "Feature"}
