{"dataset_attributes": {"@spider": "usps_collection_boxes", "spider:collection_time": "2023-11-22T08:26:05.887177"}, "geometry": {"coordinates": [-92.02472, 38.294633], "type": "Point"}, "id": "FV9F3cMhmHKC4NNiLsgTGt2xItE=", "properties": {"@spider": "usps_collection_boxes", "addr:city": "ARGYLE", "addr:country": "US", "addr:full": "3 2ND ST", "addr:postcode": "65001", "addr:state": "MO", "amenity": "post_box", "brand": "United States Postal Service", "brand:wikidata": "Q668687", "collection_times": "Mo-Fr 12:45; Sa 09:30", "name": "USPS COLLECTION BOX - BLUE BOX", "note": "ON 12/24 AND 12/31, THIS BOX MAY BE COLLECTED AS EARLY AS 12 NOON.", "nsi_id": "unitedstatespostalservice-a77078", "operator": "United States Postal Service", "operator:short": "USPS", "operator:type": "public", "operator:wikidata": "Q668687", "ref": "6500100001"}, "type": "Feature"}
{"dataset_attributes": {"@spider": "usps_collection_boxes", "spider:collection_time": "2023-11-22T08:26:05.887177"}, "geometry": {"coordinates": [-92.024835, 38.294612], "type": "Point"}, "id": "KI38tTfmeCcMh8ineNs0_DuowyU=", "properties": {"@spider": "usps_collection_boxes", "addr:city": "ARGYLE", "addr:country": "US", "addr:full": "3 2ND ST", "addr:postcode": "65001", "addr:state": "MO", "amenity": "post_box", "brand": "United States Postal Service", "brand:wikidata": "Q668687", "collection_times": "Mo-Fr 11:45; Sa 10:45", "name": "USPS COLLECTION BOX - PO LOBBY", "nsi_id": "unitedstatespostalservice-a77078", "operator": "United States Postal Service", "operator:short": "USPS", "operator:type": "public", "operator:wikidata": "Q668687", "ref": "6500100002"}, "type": "Feature"}
{"dataset_attributes": {"@spider": "usps_collection_boxes", "spider:collection_time": "2023-11-22T08:26:05.887177"}, "geometry": {"coordinates": [-92.024761477, 38.294672603], "type": "Point"}, "id": "TPbY1stj-37nS7GEg7rwVva0rxk=", "properties": {"@spider": "usps_collection_boxes", "addr:city": "ARGYLE", "addr:country": "US", "addr:full": "3 2ND ST", "addr:postcode": "65001", "addr:state": "MO", "amenity": "post_box", "brand": "United States Postal Service", "brand:wikidata": "Q668687", "collection_times": "Mo-Fr 11:45; Sa 10:45", "name": "USPS COLLECTION BOX - PO LOBBY", "nsi_id": "unitedstatespostalservice-a77078", "operator": "United States Postal Service", "operator:short": "USPS", "operator:type": "public", "operator:wikidata": "Q668687", "ref": "6500100004"}, "type": "Feature"}
{"dataset_attributes": {"@spider": "usps_collection_boxes", "spider:collection_time": "2023-11-22T08:26:05.887177"}, "geometry": {"coordinates": [-92.2513379, 38.776389], "type": "Point"}, "id": "GrWQDQBvytvu3qbxTLk7IyE5p3M=", "properties": {"@spider": "usps_collection_boxes", "addr:city": "ASHLAND", "addr:country": "US", "addr:full": "109 EASTSIDE DR", "addr:postcode": "65010", "addr:state": "MO", "amenity": "post_box", "brand": "United States Postal Service", "brand:wikidata": "Q668687", "collection_times": "Mo-Sa 12:30", "name": "USPS COLLECTION BOX - BLUE BOX", "note": "ON 12/24 AND 12/31, THIS BOX MAY BE COLLECTED AS EARLY AS 12 NOON.", "nsi_id": "unitedstatespostalservice-a77078", "operator": "United States Postal Service", "operator:short": "USPS", "operator:type": "public", "operator:wikidata": "Q668687", "ref": "6501000001"}, "type": "Feature"}
{"dataset_attributes": {"@spider": "usps_collection_boxes", "spider:collection_time": "2023-11-22T08:26:05.887177"}, "geometry": {"coordinates": [-92.261574, 38.774713], "type": "Point"}, "id": "g3RR_M5RNt_mSk6MPO_wyUi_89o=", "properties": {"@spider": "usps_collection_boxes", "addr:city": "ASHLAND", "addr:country": "US", "addr:full": "131 E BROADWAY", "addr:postcode": "65010", "addr:state": "MO", "amenity": "post_box", "brand": "United States Postal Service", "brand:wikidata": "Q668687", "collection_times": "Mo-Fr 15:45; Sa 08:45", "name": "USPS COLLECTION BOX - BLUE BOX", "note": "ON 12/24 AND 12/31, THIS BOX MAY BE COLLECTED AS EARLY AS 12 NOON.", "nsi_id": "unitedstatespostalservice-a77078", "operator": "United States Postal Service", "operator:short": "USPS", "operator:type": "public", "operator:wikidata": "Q668687", "ref": "6501000002"}, "type": "Feature"}
{"dataset_attributes": {"@spider": "usps_collection_boxes", "spider:collection_time": "2023-11-22T08:26:05.887177"}, "geometry": {"coordinates": [-92.26162, 38.774687], "type": "Point"}, "id": "MLlKM5y7VsIW_DFsuNdQZsgJ0dk=", "properties": {"@spider": "usps_collection_boxes", "addr:city": "ASHLAND", "addr:country": "US", "addr:full": "131 E BROADWAY", "addr:postcode": "65010", "addr:state": "MO", "amenity": "post_box", "brand": "United States Postal Service", "brand:wikidata": "Q668687", "collection_times": "Mo-Fr 15:45; Sa 08:45", "name": "USPS COLLECTION BOX - PO LOBBY", "note": "ON 12/24 AND 12/31, THIS BOX MAY BE COLLECTED AS EARLY AS 12 NOON.", "nsi_id": "unitedstatespostalservice-a77078", "operator": "United States Postal Service", "operator:short": "USPS", "operator:type": "public", "operator:wikidata": "Q668687", "ref": "6501000003"}, "type": "Feature"}
{"dataset_attributes": {"@spider": "usps_collection_boxes", "spider:collection_time": "2023-11-22T08:26:05.887177"}, "geometry": {"coordinates": [-92.260660636, 38.774679442], "type": "Point"}, "id": "wr1pb3_eqFDYlPl5rzZSqJXmy8o=", "properties": {"@spider": "usps_collection_boxes", "addr:city": "ASHLAND", "addr:country": "US", "addr:full": "131 E BROADWAY", "addr:postcode": "65010", "addr:state": "MO", "amenity": "post_box", "brand": "United States Postal Service", "brand:wikidata": "Q668687", "collection_times": "Mo-Fr 15:45; Sa 08:45", "name": "USPS COLLECTION BOX - PO LOBBY", "note": "ON 12/24 AND 12/31, THIS BOX MAY BE COLLECTED AS EARLY AS 12 NOON.", "nsi_id": "unitedstatespostalservice-a77078", "operator": "United States Postal Service", "operator:short": "USPS", "operator:type": "public", "operator:wikidata": "Q668687", "ref": "6501000005"}, "type": "Feature"}
{"dataset_attributes": {"@spider": "usps_collection_boxes", "spider:collection_time": "2023-11-22T08:26:05.887177"}, "geometry": {"coordinates": [-91.725, 38.285315], "type": "Point"}, "id": "_IhcoLV-bKK_H5d5PBuMIGuCKfM=", "properties": {"@spider": "usps_collection_boxes", "addr:city": "BELLE", "addr:country": "US", "addr:full": "203 E 3RD ST", "addr:postcode": "65013", "addr:state": "MO", "amenity": "post_box", "brand": "United States Postal Service", "brand:wikidata": "Q668687", "collection_times": "Mo-Fr 15:45; Sa 09:30", "name": "USPS COLLECTION BOX - BLUE BOX", "note": "ON 12/24 AND 12/31, THIS BOX MAY BE COLLECTED AS EARLY AS 12 NOON.", "nsi_id": "unitedstatespostalservice-a77078", "operator": "United States Postal Service", "operator:short": "USPS", "operator:type": "public", "operator:wikidata": "Q668687", "ref": "6501300001"}, "type": "Feature"}
{"dataset_attributes": {"@spider": "usps_collection_boxes", "spider:collection_time": "2023-11-22T08:26:05.887177"}, "geometry": {"coordinates": [-91.719635, 38.287031], "type": "Point"}, "id": "1bh5gN-b5ty3o0IWMXTTZa1kVfs=", "properties": {"@spider": "usps_collection_boxes", "addr:city": "BELLE", "addr:country": "US", "addr:full": "203 E 3RD ST", "addr:postcode": "65013", "addr:state": "MO", "amenity": "post_box", "brand": "United States Postal Service", "brand:wikidata": "Q668687", "collection_times": "Mo-Fr 15:45; Sa 09:30", "name": "USPS COLLECTION BOX - PO LOBBY", "note": "ON 12/24 AND 12/31, THIS BOX MAY BE COLLECTED AS EARLY AS 12 NOON.", "nsi_id": "unitedstatespostalservice-a77078", "operator": "United States Postal Service", "operator:short": "USPS", "operator:type": "public", "operator:wikidata": "Q668687", "ref": "6501300003"}, "type": "Feature"}
{"dataset_attributes": {"@spider": "usps_collection_boxes", "spider:collection_time": "2023-11-22T08:26:05.887177"}, "geometry": {"coordinates": [-91.718810528, 38.287131464], "type": "Point"}, "id": "GHjXkb3AtlSf-ZhnKN7RlRWQlBo=", "properties": {"@spider": "usps_collection_boxes", "addr:city": "BELLE", "addr:country": "US", "addr:full": "203 E 3RD ST", "addr:postcode": "65013", "addr:state": "MO", "amenity": "post_box", "brand": "United States Postal Service", "brand:wikidata": "Q668687", "collection_times": "Mo-Fr 15:45; Sa 09:30", "name": "USPS COLLECTION BOX - PO LOBBY", "note": "ON 12/24 AND 12/31, THIS BOX MAY BE COLLECTED AS EARLY AS 12 NOON.", "nsi_id": "unitedstatespostalservice-a77078", "operator": "United States Postal Service", "operator:short": "USPS", "operator:type": "public", "operator:wikidata": "Q668687", "ref": "6501300005"}, "type": "Feature"}
{"dataset_attributes": {"@spider": "usps_collection_boxes", "spider:collection_time": "2023-11-22T08:26:05.887177"}, "geometry": {"coordinates": [-91.635193, 38.303278], "type": "Point"}, "id": "H5lBPUzXSKo0KSd2UuS968wbJgc=", "properties": {"@spider": "usps_collection_boxes", "addr:city": "BLAND", "addr:country": "US", "addr:full": "208 W COLORADO AVE", "addr:postcode": "65014", "addr:state": "MO", "amenity": "post_box", "brand": "United States Postal Service", "brand:wikidata": "Q668687", "collection_times": "Mo-Sa 10:30", "name": "USPS COLLECTION BOX - BLUE BOX", "nsi_id": "unitedstatespostalservice-a77078", "operator": "United States Postal Service", "operator:short": "USPS", "operator:type": "public", "operator:wikidata": "Q668687", "ref": "6501400002"}, "type": "Feature"}
{"dataset_attributes": {"@spider": "usps_collection_boxes", "spider:collection_time": "2023-11-22T08:26:05.887177"}, "geometry": {"coordinates": [-91.635193, 38.303278], "type": "Point"}, "id": "Pn_QmhaZOGhQfnB6MfzWJkPaees=", "properties": {"@spider": "usps_collection_boxes", "addr:city": "BLAND", "addr:country": "US", "addr:full": "208 W COLORADO AVE", "addr:postcode": "65014", "addr:state": "MO", "amenity": "post_box", "brand": "United States Postal Service", "brand:wikidata": "Q668687", "collection_times": "Mo-Fr 13:00; Sa 10:45", "name": "USPS COLLECTION BOX - PO LOBBY", "note": "ON 12/24 AND 12/31, THIS BOX MAY BE COLLECTED AS EARLY AS 12 NOON.", "nsi_id": "unitedstatespostalservice-a77078", "operator": "United States Postal Service", "operator:short": "USPS", "operator:type": "public", "operator:wikidata": "Q668687", "ref": "6501400006"}, "type": "Feature"}
{"dataset_attributes": {"@spider": "usps_collection_boxes", "spider:collection_time": "2023-11-22T08:26:05.887177"}, "geometry": {"coordinates": [-91.634461544, 38.303242438], "type": "Point"}, "id": "sqAalaFaC0tPqGcLGgbxVaXprsw=", "properties": {"@spider": "usps_collection_boxes", "addr:city": "BLAND", "addr:country": "US", "addr:full": "208 W COLORADO AVE", "addr:postcode": "65014", "addr:state": "MO", "amenity": "post_box", "brand": "United States Postal Service", "brand:wikidata": "Q668687", "collection_times": "Mo-Fr 13:00; Sa 10:45", "name": "USPS COLLECTION BOX - PO LOBBY", "note": "ON 12/24 AND 12/31, THIS BOX MAY BE COLLECTED AS EARLY AS 12 NOON.", "nsi_id": "unitedstatespostalservice-a77078", "operator": "United States Postal Service", "operator:short": "USPS", "operator:type": "public", "operator:wikidata": "Q668687", "ref": "6501400007"}, "type": "Feature"}
{"dataset_attributes": {"@spider": "usps_collection_boxes", "spider:collection_time": "2023-11-22T08:26:05.887177"}, "geometry": {"coordinates": [-91.964777355, 38.578648328], "type": "Point"}, "id": "dzhAh45y_u3gl7eEUoIjFdBhc24=", "properties": {"@spider": "usps_collection_boxes", "addr:city": "BONNOTS MILL", "addr:country": "US", "addr:full": "110 RIVERVIEW DR", "addr:postcode": "65016", "addr:state": "MO", "amenity": "post_box", "brand": "United States Postal Service", "brand:wikidata": "Q668687", "collection_times": "Mo-Fr 15:45; Sa 08:15", "name": "USPS COLLECTION BOX - BLUE BOX", "note": "ON 12/24 AND 12/31, THIS BOX MAY BE COLLECTED AS EARLY AS 12 NOON.", "nsi_id": "unitedstatespostalservice-a77078", "operator": "United States Postal Service", "operator:short": "USPS", "operator:type": "public", "operator:wikidata": "Q668687", "ref": "6501600001"}, "type": "Feature"}
{"dataset_attributes": {"@spider": "usps_collection_boxes", "spider:collection_time": "2023-11-22T08:26:05.887177"}, "geometry": {"coordinates": [-91.964777355, 38.578648328], "type": "Point"}, "id": "N9OE3M8ux5Kmjegc37jTYFyZ7jU=", "properties": {"@spider": "usps_collection_boxes", "addr:city": "BONNOTS MILL", "addr:country": "US", "addr:full": "110 RIVERVIEW DR", "addr:postcode": "65016", "addr:state": "MO", "amenity": "post_box", "brand": "United States Postal Service", "brand:wikidata": "Q668687", "collection_times": "Mo-Fr 10:45; Sa 09:30", "name": "USPS COLLECTION BOX - PO LOBBY", "nsi_id": "unitedstatespostalservice-a77078", "operator": "United States Postal Service", "operator:short": "USPS", "operator:type": "public", "operator:wikidata": "Q668687", "ref": "6501600002"}, "type": "Feature"}
{"dataset_attributes": {"@spider": "usps_collection_boxes", "spider:collection_time": "2023-11-22T08:26:05.887177"}, "geometry": {"coordinates": [-91.964777355, 38.578648328], "type": "Point"}, "id": "wAKbi3vvk7eWfSNyM2Ai8WDV0zY=", "properties": {"@spider": "usps_collection_boxes", "addr:city": "BONNOTS MILL", "addr:country": "US", "addr:full": "110 RIVERVIEW DR", "addr:postcode": "65016", "addr:state": "MO", "amenity": "post_box", "brand": "United States Postal Service", "brand:wikidata": "Q668687", "collection_times": "Mo-Fr 10:45; Sa 09:30", "name": "USPS COLLECTION BOX - PO LOBBY", "nsi_id": "unitedstatespostalservice-a77078", "operator": "United States Postal Service", "operator:short": "USPS", "operator:type": "public", "operator:wikidata": "Q668687", "ref": "6501600003"}, "type": "Feature"}
{"dataset_attributes": {"@spider": "usps_collection_boxes", "spider:collection_time": "2023-11-22T08:26:05.887177"}, "geometry": {"coordinates": [-92.4863708, 38.087205], "type": "Point"}, "id": "OwmbRML5D31v9XuEnsken71ec1A=", "properties": {"@spider": "usps_collection_boxes", "addr:city": "BRUMLEY", "addr:country": "US", "addr:full": "859 HIGHWAY C", "addr:postcode": "65017", "addr:state": "MO", "amenity": "post_box", "brand": "United States Postal Service", "brand:wikidata": "Q668687", "collection_times": "Mo-Fr 11:15; Sa 09:00", "name": "USPS COLLECTION BOX - BLUE BOX", "nsi_id": "unitedstatespostalservice-a77078", "operator": "United States Postal Service", "operator:short": "USPS", "operator:type": "public", "operator:wikidata": "Q668687", "ref": "6501700001"}, "type": "Feature"}
{"dataset_attributes": {"@spider": "usps_collection_boxes", "spider:collection_time": "2023-11-22T08:26:05.887177"}, "geometry": {"coordinates": [-92.4862894, 38.087107], "type": "Point"}, "id": "8-k__4qTQxzwcw1xPsDMh7vs8ug=", "properties": {"@spider": "usps_collection_boxes", "addr:city": "BRUMLEY", "addr:country": "US", "addr:full": "859 HIGHWAY C", "addr:postcode": "65017", "addr:state": "MO", "amenity": "post_box", "brand": "United States Postal Service", "brand:wikidata": "Q668687", "collection_times": "Mo-Fr 11:30; Sa 09:15", "name": "USPS COLLECTION BOX - PO LOBBY", "nsi_id": "unitedstatespostalservice-a77078", "operator": "United States Postal Service", "operator:short": "USPS", "operator:type": "public", "operator:wikidata": "Q668687", "ref": "6501700002"}, "type": "Feature"}
{"dataset_attributes": {"@spider": "usps_collection_boxes", "spider:collection_time": "2023-11-22T08:26:05.887177"}, "geometry": {"coordinates": [-92.485494401, 38.087941251], "type": "Point"}, "id": "QJPsTmuvC1O_9skNUioBvXYeyUM=", "properties": {"@spider": "usps_collection_boxes", "addr:city": "BRUMLEY", "addr:country": "US", "addr:full": "859 HIGHWAY C", "addr:postcode": "65017", "addr:state": "MO", "amenity": "post_box", "brand": "United States Postal Service", "brand:wikidata": "Q668687", "collection_times": "Mo-Fr 11:30; Sa 09:15", "name": "USPS COLLECTION BOX - PO LOBBY", "nsi_id": "unitedstatespostalservice-a77078", "operator": "United States Postal Service", "operator:short": "USPS", "operator:type": "public", "operator:wikidata": "Q668687", "ref": "6501700003"}, "type": "Feature"}
{"dataset_attributes": {"@spider": "usps_collection_boxes", "spider:collection_time": "2023-11-22T08:26:05.887177"}, "geometry": {"coordinates": [-92.565409, 38.633914], "type": "Point"}, "id": "8h8fGHmSaVunsHnjydqhY_r31Lc=", "properties": {"@spider": "usps_collection_boxes", "addr:city": "CALIFORNIA", "addr:country": "US", "addr:full": "200 N HIGH ST", "addr:postcode": "65018", "addr:state": "MO", "amenity": "post_box", "brand": "United States Postal Service", "brand:wikidata": "Q668687", "collection_times": "Mo-Fr 16:30; Sa 11:45", "name": "USPS COLLECTION BOX - BLUE BOX", "note": "ON 12/24 AND 12/31, THIS BOX MAY BE COLLECTED AS EARLY AS 12 NOON.", "nsi_id": "unitedstatespostalservice-a77078", "operator": "United States Postal Service", "operator:short": "USPS", "operator:type": "public", "operator:wikidata": "Q668687", "ref": "6501800001"}, "type": "Feature"}
{"dataset_attributes": {"@spider": "usps_collection_boxes", "spider:collection_time": "2023-11-22T08:26:05.887177"}, "geometry": {"coordinates": [-92.565409, 38.633914], "type": "Point"}, "id": "wyrE1liX_ZGl8HdV179IMOQMx14=", "properties": {"@spider": "usps_collection_boxes", "addr:city": "CALIFORNIA", "addr:country": "US", "addr:full": "200 N HIGH ST", "addr:postcode": "65018", "addr:state": "MO", "amenity": "post_box", "brand": "United States Postal Service", "brand:wikidata": "Q668687", "collection_times": "Mo-Fr 16:30; Sa 11:45", "name": "USPS COLLECTION BOX - BLUE BOX", "note": "ON 12/24 AND 12/31, THIS BOX MAY BE COLLECTED AS EARLY AS 12 NOON.", "nsi_id": "unitedstatespostalservice-a77078", "operator": "United States Postal Service", "operator:short": "USPS", "operator:type": "public", "operator:wikidata": "Q668687", "ref": "6501800004"}, "type": "Feature"}
{"dataset_attributes": {"@spider": "usps_collection_boxes", "spider:collection_time": "2023-11-22T08:26:05.887177"}, "geometry": {"coordinates": [-92.56494003, 38.63654999], "type": "Point"}, "id": "vqx2GyAJcgDM2uiMcdOSxGa3-44=", "properties": {"@spider": "usps_collection_boxes", "addr:city": "CALIFORNIA", "addr:country": "US", "addr:full": "200 E MAIN ST", "addr:postcode": "65018", "addr:state": "MO", "amenity": "post_box", "brand": "United States Postal Service", "brand:wikidata": "Q668687", "collection_times": "Mo-Sa 14:00", "name": "USPS COLLECTION BOX - BLUE BOX", "note": "ON 12/24 AND 12/31, THIS BOX MAY BE COLLECTED AS EARLY AS 12 NOON.", "nsi_id": "unitedstatespostalservice-a77078", "operator": "United States Postal Service", "operator:short": "USPS", "operator:type": "public", "operator:wikidata": "Q668687", "ref": "6501800006"}, "type": "Feature"}
{"dataset_attributes": {"@spider": "usps_collection_boxes", "spider:collection_time": "2023-11-22T08:26:05.887177"}, "geometry": {"coordinates": [-92.5893779, 38.63506], "type": "Point"}, "id": "HMXQEp2YUc3VEbgs2WoU6QmD1Lw=", "properties": {"@spider": "usps_collection_boxes", "addr:city": "CALIFORNIA", "addr:country": "US", "addr:full": "1305 W BUCHANAN ST", "addr:postcode": "65018", "addr:state": "MO", "amenity": "post_box", "brand": "United States Postal Service", "brand:wikidata": "Q668687", "collection_times": "Mo-Sa 08:30", "name": "USPS COLLECTION BOX - BLUE BOX", "nsi_id": "unitedstatespostalservice-a77078", "operator": "United States Postal Service", "operator:short": "USPS", "operator:type": "public", "operator:wikidata": "Q668687", "ref": "6501800007"}, "type": "Feature"}
{"dataset_attributes": {"@spider": "usps_collection_boxes", "spider:collection_time": "2023-11-22T08:26:05.887177"}, "geometry": {"coordinates": [-92.5808931, 38.629409], "type": "Point"}, "id": "ytsscqAL-fRb0VcboMHqfM8Vbdc=", "properties": {"@spider": "usps_collection_boxes", "addr:city": "CALIFORNIA", "addr:country": "US", "addr:full": "1021 W BUCHANAN ST", "addr:postcode": "65018", "addr:state": "MO", "amenity": "post_box", "brand": "United States Postal Service", "brand:wikidata": "Q668687", "collection_times": "Mo-Sa 14:00", "name": "USPS COLLECTION BOX - BLUE BOX", "note": "ON 12/24 AND 12/31, THIS BOX MAY BE COLLECTED AS EARLY AS 12 NOON.", "nsi_id": "unitedstatespostalservice-a77078", "operator": "United States Postal Service", "operator:short": "USPS", "operator:type": "public", "operator:wikidata": "Q668687", "ref": "6501800012"}, "type": "Feature"}
{"dataset_attributes": {"@spider": "usps_collection_boxes", "spider:collection_time": "2023-11-22T08:26:05.887177"}, "geometry": {"coordinates": [-92.5904438, 38.484543], "type": "Point"}, "id": "e0VrApkGB-e5bKjla51JPmsRR-Y=", "properties": {"@spider": "usps_collection_boxes", "addr:city": "CALIFORNIA", "addr:country": "US", "addr:full": "61241 HIGHWAY C", "addr:postcode": "65018", "addr:state": "MO", "amenity": "post_box", "brand": "United States Postal Service", "brand:wikidata": "Q668687", "collection_times": "Mo-Sa 10:30", "name": "USPS COLLECTION BOX - BLUE BOX", "nsi_id": "unitedstatespostalservice-a77078", "operator": "United States Postal Service", "operator:short": "USPS", "operator:type": "public", "operator:wikidata": "Q668687", "ref": "6501800015"}, "type": "Feature"}
{"dataset_attributes": {"@spider": "usps_collection_boxes", "spider:collection_time": "2023-11-22T08:26:05.887177"}, "geometry": {"coordinates": [-92.5858026, 38.632564], "type": "Point"}, "id": "9OsBKHsLafFI7z6dNe9w6-K4_oA=", "properties": {"@spider": "usps_collection_boxes", "addr:city": "CALIFORNIA", "addr:country": "US", "addr:full": "100 S GERHART RD", "addr:postcode": "65018", "addr:state": "MO", "amenity": "post_box", "brand": "United States Postal Service", "brand:wikidata": "Q668687", "collection_times": "Mo-Sa 08:45", "name": "USPS COLLECTION BOX - BLUE BOX", "nsi_id": "unitedstatespostalservice-a77078", "operator": "United States Postal Service", "operator:short": "USPS", "operator:type": "public", "operator:wikidata": "Q668687", "ref": "6501800016"}, "type": "Feature"}
{"dataset_attributes": {"@spider": "usps_collection_boxes", "spider:collection_time": "2023-11-22T08:26:05.887177"}, "geometry": {"coordinates": [-92.565409, 38.633914], "type": "Point"}, "id": "ImLEdTjNFm_CNXSV6XMnVQyUsDU=", "properties": {"@spider": "usps_collection_boxes", "addr:city": "CALIFORNIA", "addr:country": "US", "addr:full": "200 N HIGH ST", "addr:postcode": "65018", "addr:state": "MO", "amenity": "post_box", "brand": "United States Postal Service", "brand:wikidata": "Q668687", "collection_times": "Mo-Fr 16:30; Sa 11:45", "name": "USPS COLLECTION BOX - PO LOBBY", "note": "ON 12/24 AND 12/31, THIS BOX MAY BE COLLECTED AS EARLY AS 12 NOON.", "nsi_id": "unitedstatespostalservice-a77078", "operator": "United States Postal Service", "operator:short": "USPS", "operator:type": "public", "operator:wikidata": "Q668687", "ref": "6501800017"}, "type": "Feature"}
{"dataset_attributes": {"@spider": "usps_collection_boxes", "spider:collection_time": "2023-11-22T08:26:05.887177"}, "geometry": {"coordinates": [-92.565355219, 38.633959982], "type": "Point"}, "id": "eEAssld_pEbqyEkwVkVmwV50-GU=", "properties": {"@spider": "usps_collection_boxes", "addr:city": "CALIFORNIA", "addr:country": "US", "addr:full": "200 N HIGH ST", "addr:postcode": "65018", "addr:state": "MO", "amenity": "post_box", "brand": "United States Postal Service", "brand:wikidata": "Q668687", "collection_times": "Mo-Fr 16:30; Sa 11:45", "name": "USPS COLLECTION BOX - PO LOBBY", "note": "ON 12/24 AND 12/31, THIS BOX MAY BE COLLECTED AS EARLY AS 12 NOON.", "nsi_id": "unitedstatespostalservice-a77078", "operator": "United States Postal Service", "operator:short": "USPS", "operator:type": "public", "operator:wikidata": "Q668687", "ref": "6501800019"}, "type": "Feature"}
{"dataset_attributes": {"@spider": "usps_collection_boxes", "spider:collection_time": "2023-11-22T08:26:05.887177"}, "geometry": {"coordinates": [-92.753377, 38.003691], "type": "Point"}, "id": "1ANMm4O5_JxSINZdhyi1yetTWew=", "properties": {"@spider": "usps_collection_boxes", "addr:city": "CAMDENTON", "addr:country": "US", "addr:full": "625 W US HIGHWAY 54", "addr:postcode": "65020", "addr:state": "MO", "amenity": "post_box", "brand": "United States Postal Service", "brand:wikidata": "Q668687", "collection_times": "Mo-Fr 16:15; Sa 11:30", "name": "USPS COLLECTION BOX - BLUE BOX", "note": "ON 12/24 AND 12/31, THIS BOX MAY BE COLLECTED AS EARLY AS 12 NOON.", "nsi_id": "unitedstatespostalservice-a77078", "operator": "United States Postal Service", "operator:short": "USPS", "operator:type": "public", "operator:wikidata": "Q668687", "ref": "6502000001"}, "type": "Feature"}
{"dataset_attributes": {"@spider": "usps_collection_boxes", "spider:collection_time": "2023-11-22T08:26:05.887177"}, "geometry": {"coordinates": [-92.7457668, 38.008736], "type": "Point"}, "id": "p3KncrsXmzAmEBkKg_xTHN_Z7A8=", "properties": {"@spider": "usps_collection_boxes", "addr:city": "CAMDENTON", "addr:country": "US", "addr:full": "105 N BUSINESS ROUTE 5", "addr:postcode": "65020", "addr:state": "MO", "amenity": "post_box", "brand": "United States Postal Service", "brand:wikidata": "Q668687", "collection_times": "Mo-Fr 12:30; Sa 11:30", "name": "USPS COLLECTION BOX - BLUE BOX", "note": "ON 12/24 AND 12/31, THIS BOX MAY BE COLLECTED AS EARLY AS 12 NOON.", "nsi_id": "unitedstatespostalservice-a77078", "operator": "United States Postal Service", "operator:short": "USPS", "operator:type": "public", "operator:wikidata": "Q668687", "ref": "6502000002"}, "type": "Feature"}
{"dataset_attributes": {"@spider": "usps_collection_boxes", "spider:collection_time": "2023-11-22T08:26:05.887177"}, "geometry": {"coordinates": [-92.8201952274, 38.097167352], "type": "Point"}, "id": "goqL8bvWZPFwcEduIFlhXML3wUw=", "properties": {"@spider": "usps_collection_boxes", "addr:city": "CAMDENTON", "addr:country": "US", "addr:full": "8736 N STATE HIGHWAY 5", "addr:postcode": "65020", "addr:state": "MO", "amenity": "post_box", "brand": "United States Postal Service", "brand:wikidata": "Q668687", "collection_times": "Mo-Fr 11:30; Sa 10:30", "name": "USPS COLLECTION BOX - BLUE BOX", "nsi_id": "unitedstatespostalservice-a77078", "operator": "United States Postal Service", "operator:short": "USPS", "operator:type": "public", "operator:wikidata": "Q668687", "ref": "6502000005"}, "type": "Feature"}
{"dataset_attributes": {"@spider": "usps_collection_boxes", "spider:collection_time": "2023-11-22T08:26:05.887177"}, "geometry": {"coordinates": [-92.753367, 38.003665], "type": "Point"}, "id": "TdpLGQMUwWQ0ccI2_Pw3qBXplao=", "properties": {"@spider": "usps_collection_boxes", "addr:city": "CAMDENTON", "addr:country": "US", "addr:full": "625 W US HIGHWAY 54", "addr:postcode": "65020", "addr:state": "MO", "amenity": "post_box", "brand": "United States Postal Service", "brand:wikidata": "Q668687", "collection_times": "Mo-Fr 16:15; Sa 11:30", "name": "USPS COLLECTION BOX - BLUE BOX", "note": "ON 12/24 AND 12/31, THIS BOX MAY BE COLLECTED AS EARLY AS 12 NOON.", "nsi_id": "unitedstatespostalservice-a77078", "operator": "United States Postal Service", "operator:short": "USPS", "operator:type": "public", "operator:wikidata": "Q668687", "ref": "6502000006"}, "type": "Feature"}
{"dataset_attributes": {"@spider": "usps_collection_boxes", "spider:collection_time": "2023-11-22T08:26:05.887177"}, "geometry": {"coordinates": [-92.753367, 38.003665], "type": "Point"}, "id": "JccWU9uiWKDAwG4tnnu2mwZQ4UM=", "properties": {"@spider": "usps_collection_boxes", "addr:city": "CAMDENTON", "addr:country": "US", "addr:full": "625 W US HIGHWAY 54", "addr:postcode": "65020", "addr:state": "MO", "amenity": "post_box", "brand": "United States Postal Service", "brand:wikidata": "Q668687", "collection_times": "Mo-Fr 16:15; Sa 11:30", "name": "USPS COLLECTION BOX - PO LOBBY", "note": "ON 12/24 AND 12/31, THIS BOX MAY BE COLLECTED AS EARLY AS 12 NOON.", "nsi_id": "unitedstatespostalservice-a77078", "operator": "United States Postal Service", "operator:short": "USPS", "operator:type": "public", "operator:wikidata": "Q668687", "ref": "6502000008"}, "type": "Feature"}
{"dataset_attributes": {"@spider": "usps_collection_boxes", "spider:collection_time": "2023-11-22T08:26:05.887177"}, "geometry": {"coordinates": [-92.753789099, 38.003560777], "type": "Point"}, "id": "amj_v4VxFVfKQ0ASECQNIfLlpdQ=", "properties": {"@spider": "usps_collection_boxes", "addr:city": "CAMDENTON", "addr:country": "US", "addr:full": "625 W US HIGHWAY 54", "addr:postcode": "65020", "addr:state": "MO", "amenity": "post_box", "brand": "United States Postal Service", "brand:wikidata": "Q668687", "collection_times": "Mo-Fr 16:15; Sa 11:30", "name": "USPS COLLECTION BOX - PO LOBBY", "note": "ON 12/24 AND 12/31, THIS BOX MAY BE COLLECTED AS EARLY AS 12 NOON.", "nsi_id": "unitedstatespostalservice-a77078", "operator": "United States Postal Service", "operator:short": "USPS", "operator:type": "public", "operator:wikidata": "Q668687", "ref": "6502000011"}, "type": "Feature"}
{"dataset_attributes": {"@spider": "usps_collection_boxes", "spider:collection_time": "2023-11-22T08:26:05.887177"}, "geometry": {"coordinates": [-92.414551, 38.618762], "type": "Point"}, "id": "bz7UGAn1Xnwlu7EoNuGIz6YzPiY=", "properties": {"@spider": "usps_collection_boxes", "addr:city": "CENTERTOWN", "addr:country": "US", "addr:full": "11917 MAIN ST", "addr:postcode": "65023", "addr:state": "MO", "amenity": "post_box", "brand": "United States Postal Service", "brand:wikidata": "Q668687", "collection_times": "Mo-Fr 14:30; Sa 09:30", "name": "USPS COLLECTION BOX - BLUE BOX", "note": "ON 12/24 AND 12/31, THIS BOX MAY BE COLLECTED AS EARLY AS 12 NOON.", "nsi_id": "unitedstatespostalservice-a77078", "operator": "United States Postal Service", "operator:short": "USPS", "operator:type": "public", "operator:wikidata": "Q668687", "ref": "6502300001"}, "type": "Feature"}
{"dataset_attributes": {"@spider": "usps_collection_boxes", "spider:collection_time": "2023-11-22T08:26:05.887177"}, "geometry": {"coordinates": [-92.4145136, 38.618613], "type": "Point"}, "id": "qWrh8qSkcHp6Ci3M_BUGCzekuAY=", "properties": {"@spider": "usps_collection_boxes", "addr:city": "CENTERTOWN", "addr:country": "US", "addr:full": "11917 MAIN ST", "addr:postcode": "65023", "addr:state": "MO", "amenity": "post_box", "brand": "United States Postal Service", "brand:wikidata": "Q668687", "collection_times": "Mo-Fr 14:30; Sa 09:30", "name": "USPS COLLECTION BOX - PO LOBBY", "note": "ON 12/24 AND 12/31, THIS BOX MAY BE COLLECTED AS EARLY AS 12 NOON.", "nsi_id": "unitedstatespostalservice-a77078", "operator": "United States Postal Service", "operator:short": "USPS", "operator:type": "public", "operator:wikidata": "Q668687", "ref": "6502300002"}, "type": "Feature"}
{"dataset_attributes": {"@spider": "usps_collection_boxes", "spider:collection_time": "2023-11-22T08:26:05.887177"}, "geometry": {"coordinates": [-92.414614804, 38.618792331], "type": "Point"}, "id": "abhLodYXGJJpCOlv4CqlnmvHzN4=", "properties": {"@spider": "usps_collection_boxes", "addr:city": "CENTERTOWN", "addr:country": "US", "addr:full": "11917 MAIN ST", "addr:postcode": "65023", "addr:state": "MO", "amenity": "post_box", "brand": "United States Postal Service", "brand:wikidata": "Q668687", "collection_times": "Mo-Fr 14:30; Sa 09:30", "name": "USPS COLLECTION BOX - PO LOBBY", "note": "ON 12/24 AND 12/31, THIS BOX MAY BE COLLECTED AS EARLY AS 12 NOON.", "nsi_id": "unitedstatespostalservice-a77078", "operator": "United States Postal Service", "operator:short": "USPS", "operator:type": "public", "operator:wikidata": "Q668687", "ref": "6502300004"}, "type": "Feature"}
{"dataset_attributes": {"@spider": "usps_collection_boxes", "spider:collection_time": "2023-11-22T08:26:05.887177"}, "geometry": {"coordinates": [-91.7695472, 38.675606], "type": "Point"}, "id": "yBUJdnfxA-HTRL2_LZhZCvouLTM=", "properties": {"@spider": "usps_collection_boxes", "addr:city": "CHAMOIS", "addr:country": "US", "addr:full": "102 MAIN ST", "addr:postcode": "65024", "addr:state": "MO", "amenity": "post_box", "brand": "United States Postal Service", "brand:wikidata": "Q668687", "collection_times": "Mo-Fr 11:15; Sa 10:00", "name": "USPS COLLECTION BOX - BLUE BOX", "nsi_id": "unitedstatespostalservice-a77078", "operator": "United States Postal Service", "operator:short": "USPS", "operator:type": "public", "operator:wikidata": "Q668687", "ref": "6502400001"}, "type": "Feature"}
{"dataset_attributes": {"@spider": "usps_collection_boxes", "spider:collection_time": "2023-11-22T08:26:05.887177"}, "geometry": {"coordinates": [-91.7694606, 38.675593], "type": "Point"}, "id": "wAaPiCYrQIMslVJ88dMYt_-RcqU=", "properties": {"@spider": "usps_collection_boxes", "addr:city": "CHAMOIS", "addr:country": "US", "addr:full": "102 MAIN ST", "addr:postcode": "65024", "addr:state": "MO", "amenity": "post_box", "brand": "United States Postal Service", "brand:wikidata": "Q668687", "collection_times": "Mo-Fr 11:15; Sa 10:15", "name": "USPS COLLECTION BOX - PO LOBBY", "nsi_id": "unitedstatespostalservice-a77078", "operator": "United States Postal Service", "operator:short": "USPS", "operator:type": "public", "operator:wikidata": "Q668687", "ref": "6502400002"}, "type": "Feature"}
{"dataset_attributes": {"@spider": "usps_collection_boxes", "spider:collection_time": "2023-11-22T08:26:05.887177"}, "geometry": {"coordinates": [-91.769426173, 38.675542536], "type": "Point"}, "id": "JTFqulcXIooKZNS7f1j9LnOtEtQ=", "properties": {"@spider": "usps_collection_boxes", "addr:city": "CHAMOIS", "addr:country": "US", "addr:full": "102 MAIN ST", "addr:postcode": "65024", "addr:state": "MO", "amenity": "post_box", "brand": "United States Postal Service", "brand:wikidata": "Q668687", "collection_times": "Mo-Fr 11:15; Sa 10:15", "name": "USPS COLLECTION BOX - PO LOBBY", "nsi_id": "unitedstatespostalservice-a77078", "operator": "United States Postal Service", "operator:short": "USPS", "operator:type": "public", "operator:wikidata": "Q668687", "ref": "6502400005"}, "type": "Feature"}
{"dataset_attributes": {"@spider": "usps_collection_boxes", "spider:collection_time": "2023-11-22T08:26:05.887177"}, "geometry": {"coordinates": [-92.6677660331, 38.6616040015], "type": "Point"}, "id": "SKYDGKJWCYSmERUVx1wx9mFS0kM=", "properties": {"@spider": "usps_collection_boxes", "addr:city": "CLARKSBURG", "addr:country": "US", "addr:full": "112 W STATE ST", "addr:postcode": "65025", "addr:state": "MO", "amenity": "post_box", "brand": "United States Postal Service", "brand:wikidata": "Q668687", "collection_times": "Mo-Fr 15:45; Sa 11:15", "name": "USPS COLLECTION BOX - BLUE BOX", "note": "ON 12/24 AND 12/31, THIS BOX MAY BE COLLECTED AS EARLY AS 12 NOON.", "nsi_id": "unitedstatespostalservice-a77078", "operator": "United States Postal Service", "operator:short": "USPS", "operator:type": "public", "operator:wikidata": "Q668687", "ref": "6502500001"}, "type": "Feature"}
{"dataset_attributes": {"@spider": "usps_collection_boxes", "spider:collection_time": "2023-11-22T08:26:05.887177"}, "geometry": {"coordinates": [-92.6677660331, 38.6616040015], "type": "Point"}, "id": "0Kzd7rJh-jN9c_yrbG1R1R3fnPM=", "properties": {"@spider": "usps_collection_boxes", "addr:city": "CLARKSBURG", "addr:country": "US", "addr:full": "112 W STATE ST", "addr:postcode": "65025", "addr:state": "MO", "amenity": "post_box", "brand": "United States Postal Service", "brand:wikidata": "Q668687", "collection_times": "Mo-Fr 15:45; Sa 11:15", "name": "USPS COLLECTION BOX - PO LOBBY", "note": "ON 12/24 AND 12/31, THIS BOX MAY BE COLLECTED AS EARLY AS 12 NOON.", "nsi_id": "unitedstatespostalservice-a77078", "operator": "United States Postal Service", "operator:short": "USPS", "operator:type": "public", "operator:wikidata": "Q668687", "ref": "6502500002"}, "type": "Feature"}
{"dataset_attributes": {"@spider": "usps_collection_boxes", "spider:collection_time": "2023-11-22T08:26:05.887177"}, "geometry": {"coordinates": [-92.6677660331, 38.6616040015], "type": "Point"}, "id": "jaHcKFGK2m9_szGNwImTKQrcNVU=", "properties": {"@spider": "usps_collection_boxes", "addr:city": "CLARKSBURG", "addr:country": "US", "addr:full": "112 W STATE ST", "addr:postcode": "65025", "addr:state": "MO", "amenity": "post_box", "brand": "United States Postal Service", "brand:wikidata": "Q668687", "collection_times": "Mo-Fr 15:45; Sa 11:15", "name": "USPS COLLECTION BOX - PO LOBBY", "note": "ON 12/24 AND 12/31, THIS BOX MAY BE COLLECTED AS EARLY AS 12 NOON.", "nsi_id": "unitedstatespostalservice-a77078", "operator": "United States Postal Service", "operator:short": "USPS", "operator:type": "public", "operator:wikidata": "Q668687", "ref": "6502500004"}, "type": "Feature"}
{"dataset_attributes": {"@spider": "usps_collection_boxes", "spider:collection_time": "2023-11-22T08:26:05.887177"}, "geometry": {"coordinates": [-92.584295, 38.3469461], "type": "Point"}, "id": "JoYqG3y095UwYEdwQqAZCjuGoI8=", "properties": {"@spider": "usps_collection_boxes", "addr:city": "ELDON", "addr:country": "US", "addr:full": "202 E 1ST ST", "addr:postcode": "65026", "addr:state": "MO", "amenity": "post_box", "brand": "United States Postal Service", "brand:wikidata": "Q668687", "collection_times": "Mo-Fr 16:30; Sa 10:45", "name": "USPS COLLECTION BOX - BLUE BOX", "note": "ON 12/24 AND 12/31, THIS BOX MAY BE COLLECTED AS EARLY AS 12 NOON.", "nsi_id": "unitedstatespostalservice-a77078", "operator": "United States Postal Service", "operator:short": "USPS", "operator:type": "public", "operator:wikidata": "Q668687", "ref": "6502600003"}, "type": "Feature"}
{"dataset_attributes": {"@spider": "usps_collection_boxes", "spider:collection_time": "2023-11-22T08:26:05.887177"}, "geometry": {"coordinates": [-92.5816064, 38.341428], "type": "Point"}, "id": "df3AvvP22WQwJ5oDq9oi_GIdC9Y=", "properties": {"@spider": "usps_collection_boxes", "addr:city": "ELDON", "addr:country": "US", "addr:full": "1102 S HIGHWAY 54", "addr:postcode": "65026", "addr:state": "MO", "amenity": "post_box", "brand": "United States Postal Service", "brand:wikidata": "Q668687", "collection_times": "Mo-Sa 09:00", "name": "USPS COLLECTION BOX - BLUE BOX", "nsi_id": "unitedstatespostalservice-a77078", "operator": "United States Postal Service", "operator:short": "USPS", "operator:type": "public", "operator:wikidata": "Q668687", "ref": "6502600004"}, "type": "Feature"}
{"dataset_attributes": {"@spider": "usps_collection_boxes", "spider:collection_time": "2023-11-22T08:26:05.887177"}, "geometry": {"coordinates": [-92.5781889178, 38.3503503003], "type": "Point"}, "id": "wEIDgTPpJ-NbnZPxYQeYk6NHWTo=", "properties": {"@spider": "usps_collection_boxes", "addr:city": "ELDON", "addr:country": "US", "addr:full": "402 E NORTH ST", "addr:postcode": "65026", "addr:state": "MO", "amenity": "post_box", "brand": "United States Postal Service", "brand:wikidata": "Q668687", "collection_times": "Mo-Fr 13:30; Sa 13:00", "name": "USPS COLLECTION BOX - BLUE BOX", "note": "ON 12/24 AND 12/31, THIS BOX MAY BE COLLECTED AS EARLY AS 12 NOON.", "nsi_id": "unitedstatespostalservice-a77078", "operator": "United States Postal Service", "operator:short": "USPS", "operator:type": "public", "operator:wikidata": "Q668687", "ref": "6502600005"}, "type": "Feature"}
{"dataset_attributes": {"@spider": "usps_collection_boxes", "spider:collection_time": "2023-11-22T08:26:05.887177"}, "geometry": {"coordinates": [-92.5855431, 38.334961], "type": "Point"}, "id": "hRHhRPex7uSF18XKzOqru9ukEGU=", "properties": {"@spider": "usps_collection_boxes", "addr:city": "ELDON", "addr:country": "US", "addr:full": "1814 S BUSINESS 54", "addr:postcode": "65026", "addr:state": "MO", "amenity": "post_box", "brand": "United States Postal Service", "brand:wikidata": "Q668687", "collection_times": "Mo-Sa 09:30", "name": "USPS COLLECTION BOX - BLUE BOX", "nsi_id": "unitedstatespostalservice-a77078", "operator": "United States Postal Service", "operator:short": "USPS", "operator:type": "public", "operator:wikidata": "Q668687", "ref": "6502600007"}, "type": "Feature"}
{"dataset_attributes": {"@spider": "usps_collection_boxes", "spider:collection_time": "2023-11-22T08:26:05.887177"}, "geometry": {"coordinates": [-92.580229, 38.349613], "type": "Point"}, "id": "D1lszj-sVkmGM7RnLR_UrszqMbA=", "properties": {"@spider": "usps_collection_boxes", "addr:city": "ELDON", "addr:country": "US", "addr:full": "202 E 1ST ST", "addr:postcode": "65026", "addr:state": "MO", "amenity": "post_box", "brand": "United States Postal Service", "brand:wikidata": "Q668687", "collection_times": "Mo-Fr 16:30; Sa 10:45", "name": "USPS COLLECTION BOX - PO LOBBY", "note": "ON 12/24 AND 12/31, THIS BOX MAY BE COLLECTED AS EARLY AS 12 NOON.", "nsi_id": "unitedstatespostalservice-a77078", "operator": "United States Postal Service", "operator:short": "USPS", "operator:type": "public", "operator:wikidata": "Q668687", "ref": "6502600008"}, "type": "Feature"}
{"dataset_attributes": {"@spider": "usps_collection_boxes", "spider:collection_time": "2023-11-22T08:26:05.887177"}, "geometry": {"coordinates": [-92.579961389, 38.349571528], "type": "Point"}, "id": "-5OclpkKn_mJo2kAoW8otn8SMWQ=", "properties": {"@spider": "usps_collection_boxes", "addr:city": "ELDON", "addr:country": "US", "addr:full": "202 E 1ST ST", "addr:postcode": "65026", "addr:state": "MO", "amenity": "post_box", "brand": "United States Postal Service", "brand:wikidata": "Q668687", "collection_times": "Mo-Fr 16:30; Sa 10:45", "name": "USPS COLLECTION BOX - PO LOBBY", "note": "ON 12/24 AND 12/31, THIS BOX MAY BE COLLECTED AS EARLY AS 12 NOON.", "nsi_id": "unitedstatespostalservice-a77078", "operator": "United States Postal Service", "operator:short": "USPS", "operator:type": "public", "operator:wikidata": "Q668687", "ref": "6502600012"}, "type": "Feature"}
{"dataset_attributes": {"@spider": "usps_collection_boxes", "spider:collection_time": "2023-11-22T08:26:05.887177"}, "geometry": {"coordinates": [-92.4019313556, 38.354012277], "type": "Point"}, "id": "9cYj0rrn_WT5Qvqni_sDt3U16QE=", "properties": {"@spider": "usps_collection_boxes", "addr:city": "EUGENE", "addr:country": "US", "addr:full": "16106 BERRY ST", "addr:postcode": "65032", "addr:state": "MO", "amenity": "post_box", "brand": "United States Postal Service", "brand:wikidata": "Q668687", "collection_times": "Mo-Fr 10:45; Sa 09:30", "name": "USPS COLLECTION BOX - BLUE BOX", "nsi_id": "unitedstatespostalservice-a77078", "operator": "United States Postal Service", "operator:short": "USPS", "operator:type": "public", "operator:wikidata": "Q668687", "ref": "6503200003"}, "type": "Feature"}
{"dataset_attributes": {"@spider": "usps_collection_boxes", "spider:collection_time": "2023-11-22T08:26:05.887177"}, "geometry": {"coordinates": [-92.4019313556, 38.354012277], "type": "Point"}, "id": "2hGg9xmYwbDt9XVJRq98MZhLmzU=", "properties": {"@spider": "usps_collection_boxes", "addr:city": "EUGENE", "addr:country": "US", "addr:full": "16106 BERRY ST", "addr:postcode": "65032", "addr:state": "MO", "amenity": "post_box", "brand": "United States Postal Service", "brand:wikidata": "Q668687", "collection_times": "Mo-Fr 10:45; Sa 09:30", "name": "USPS COLLECTION BOX - PO LOBBY", "nsi_id": "unitedstatespostalservice-a77078", "operator": "United States Postal Service", "operator:short": "USPS", "operator:type": "public", "operator:wikidata": "Q668687", "ref": "6503200004"}, "type": "Feature"}
{"dataset_attributes": {"@spider": "usps_collection_boxes", "spider:collection_time": "2023-11-22T08:26:05.887177"}, "geometry": {"coordinates": [-92.796399975, 38.568683208], "type": "Point"}, "id": "NLftwkO-UIo5HzjwnDmKDZcgFdk=", "properties": {"@spider": "usps_collection_boxes", "addr:city": "FORTUNA", "addr:country": "US", "addr:full": "72456 WEBER ST", "addr:postcode": "65034", "addr:state": "MO", "amenity": "post_box", "brand": "United States Postal Service", "brand:wikidata": "Q668687", "collection_times": "Mo-Fr 12:15; Sa 08:30", "name": "USPS COLLECTION BOX - BLUE BOX", "note": "ON 12/24 AND 12/31, THIS BOX MAY BE COLLECTED AS EARLY AS 12 NOON.", "nsi_id": "unitedstatespostalservice-a77078", "operator": "United States Postal Service", "operator:short": "USPS", "operator:type": "public", "operator:wikidata": "Q668687", "ref": "6503400001"}, "type": "Feature"}
{"dataset_attributes": {"@spider": "usps_collection_boxes", "spider:collection_time": "2023-11-22T08:26:05.887177"}, "geometry": {"coordinates": [-92.796399975, 38.568683208], "type": "Point"}, "id": "K-tKX7xs0PqFwinRudmJvCQRe80=", "properties": {"@spider": "usps_collection_boxes", "addr:city": "FORTUNA", "addr:country": "US", "addr:full": "72456 WEBER ST", "addr:postcode": "65034", "addr:state": "MO", "amenity": "post_box", "brand": "United States Postal Service", "brand:wikidata": "Q668687", "collection_times": "Mo-Fr 12:15; Sa 10:00", "name": "USPS COLLECTION BOX - PO LOBBY", "note": "ON 12/24 AND 12/31, THIS BOX MAY BE COLLECTED AS EARLY AS 12 NOON.", "nsi_id": "unitedstatespostalservice-a77078", "operator": "United States Postal Service", "operator:short": "USPS", "operator:type": "public", "operator:wikidata": "Q668687", "ref": "6503400002"}, "type": "Feature"}
{"dataset_attributes": {"@spider": "usps_collection_boxes", "spider:collection_time": "2023-11-22T08:26:05.887177"}, "geometry": {"coordinates": [-92.796399975, 38.568683208], "type": "Point"}, "id": "lY6hLc4tiTry2LggkXt8x68VWb8=", "properties": {"@spider": "usps_collection_boxes", "addr:city": "FORTUNA", "addr:country": "US", "addr:full": "72456 WEBER ST", "addr:postcode": "65034", "addr:state": "MO", "amenity": "post_box", "brand": "United States Postal Service", "brand:wikidata": "Q668687", "collection_times": "Mo-Fr 12:15; Sa 10:00", "name": "USPS COLLECTION BOX - PO LOBBY", "note": "ON 12/24 AND 12/31, THIS BOX MAY BE COLLECTED AS EARLY AS 12 NOON.", "nsi_id": "unitedstatespostalservice-a77078", "operator": "United States Postal Service", "operator:short": "USPS", "operator:type": "public", "operator:wikidata": "Q668687", "ref": "6503400003"}, "type": "Feature"}
{"dataset_attributes": {"@spider": "usps_collection_boxes", "spider:collection_time": "2023-11-22T08:26:05.887177"}, "geometry": {"coordinates": [-91.9232728, 38.317007], "type": "Point"}, "id": "5l1d7pW1NIFexK8-JvOguYNmJqk=", "properties": {"@spider": "usps_collection_boxes", "addr:city": "FREEBURG", "addr:country": "US", "addr:full": "100 HARRISON ST", "addr:postcode": "65035", "addr:state": "MO", "amenity": "post_box", "brand": "United States Postal Service", "brand:wikidata": "Q668687", "collection_times": "Mo-Fr 14:45; Sa 09:15", "name": "USPS COLLECTION BOX - BLUE BOX", "note": "ON 12/24 AND 12/31, THIS BOX MAY BE COLLECTED AS EARLY AS 12 NOON.", "nsi_id": "unitedstatespostalservice-a77078", "operator": "United States Postal Service", "operator:short": "USPS", "operator:type": "public", "operator:wikidata": "Q668687", "ref": "6503500001"}, "type": "Feature"}
{"dataset_attributes": {"@spider": "usps_collection_boxes", "spider:collection_time": "2023-11-22T08:26:05.887177"}, "geometry": {"coordinates": [-91.9231318, 38.317022], "type": "Point"}, "id": "FXvJ4QfGlBnRLhiKmUDiLpQcGEI=", "properties": {"@spider": "usps_collection_boxes", "addr:city": "FREEBURG", "addr:country": "US", "addr:full": "100 HARRISON ST", "addr:postcode": "65035", "addr:state": "MO", "amenity": "post_box", "brand": "United States Postal Service", "brand:wikidata": "Q668687", "collection_times": "Mo-Fr 14:45; Sa 09:15", "name": "USPS COLLECTION BOX - PO LOBBY", "note": "ON 12/24 AND 12/31, THIS BOX MAY BE COLLECTED AS EARLY AS 12 NOON.", "nsi_id": "unitedstatespostalservice-a77078", "operator": "United States Postal Service", "operator:short": "USPS", "operator:type": "public", "operator:wikidata": "Q668687", "ref": "6503500002"}, "type": "Feature"}
{"dataset_attributes": {"@spider": "usps_collection_boxes", "spider:collection_time": "2023-11-22T08:26:05.887177"}, "geometry": {"coordinates": [-91.923110581, 38.3171145], "type": "Point"}, "id": "MAD8jCt0voPe1W5B5gQg8MkpsLw=", "properties": {"@spider": "usps_collection_boxes", "addr:city": "FREEBURG", "addr:country": "US", "addr:full": "100 HARRISON ST", "addr:postcode": "65035", "addr:state": "MO", "amenity": "post_box", "brand": "United States Postal Service", "brand:wikidata": "Q668687", "collection_times": "Mo-Fr 14:45; Sa 09:15", "name": "USPS COLLECTION BOX - PO LOBBY", "note": "ON 12/24 AND 12/31, THIS BOX MAY BE COLLECTED AS EARLY AS 12 NOON.", "nsi_id": "unitedstatespostalservice-a77078", "operator": "United States Postal Service", "operator:short": "USPS", "operator:type": "public", "operator:wikidata": "Q668687", "ref": "6503500004"}, "type": "Feature"}
{"dataset_attributes": {"@spider": "usps_collection_boxes", "spider:collection_time": "2023-11-22T08:26:05.887177"}, "geometry": {"coordinates": [-92.826043775, 38.316027652], "type": "Point"}, "id": "rldAMk_NTysMx_VGDjQgogucgbU=", "properties": {"@spider": "usps_collection_boxes", "addr:city": "GRAVOIS MILLS", "addr:country": "US", "addr:full": "25707 HIGHWAY 5", "addr:postcode": "65037", "addr:state": "MO", "amenity": "post_box", "brand": "United States Postal Service", "brand:wikidata": "Q668687", "collection_times": "Mo-Fr 15:45; Sa 10:45", "name": "USPS COLLECTION BOX - BLUE BOX", "note": "ON 12/24 AND 12/31, THIS BOX MAY BE COLLECTED AS EARLY AS 12 NOON.", "nsi_id": "unitedstatespostalservice-a77078", "operator": "United States Postal Service", "operator:short": "USPS", "operator:type": "public", "operator:wikidata": "Q668687", "ref": "6503700003"}, "type": "Feature"}
{"dataset_attributes": {"@spider": "usps_collection_boxes", "spider:collection_time": "2023-11-22T08:26:05.887177"}, "geometry": {"coordinates": [-92.8390593, 38.202426], "type": "Point"}, "id": "UJli1MqaS6qm7p0R_7b5qnwJMFI=", "properties": {"@spider": "usps_collection_boxes", "addr:city": "GRAVOIS MILLS", "addr:country": "US", "addr:full": "401 N MAIN ST", "addr:postcode": "65037", "addr:state": "MO", "amenity": "post_box", "brand": "United States Postal Service", "brand:wikidata": "Q668687", "collection_times": "Mo-Sa 12:00", "name": "USPS COLLECTION BOX - BLUE BOX", "nsi_id": "unitedstatespostalservice-a77078", "operator": "United States Postal Service", "operator:short": "USPS", "operator:type": "public", "operator:wikidata": "Q668687", "ref": "6503700005"}, "type": "Feature"}
{"dataset_attributes": {"@spider": "usps_collection_boxes", "spider:collection_time": "2023-11-22T08:26:05.887177"}, "geometry": {"coordinates": [-92.826043775, 38.316027652], "type": "Point"}, "id": "oPCzNfnau097KFNOJIflTkerHvM=", "properties": {"@spider": "usps_collection_boxes", "addr:city": "GRAVOIS MILLS", "addr:country": "US", "addr:full": "25707 HIGHWAY 5", "addr:postcode": "65037", "addr:state": "MO", "amenity": "post_box", "brand": "United States Postal Service", "brand:wikidata": "Q668687", "collection_times": "Mo-Fr 15:45; Sa 10:00", "name": "USPS COLLECTION BOX - PO LOBBY", "note": "ON 12/24 AND 12/31, THIS BOX MAY BE COLLECTED AS EARLY AS 12 NOON.", "nsi_id": "unitedstatespostalservice-a77078", "operator": "United States Postal Service", "operator:short": "USPS", "operator:type": "public", "operator:wikidata": "Q668687", "ref": "6503700008"}, "type": "Feature"}
{"dataset_attributes": {"@spider": "usps_collection_boxes", "spider:collection_time": "2023-11-22T08:26:05.887177"}, "geometry": {"coordinates": [-92.826043775, 38.316027652], "type": "Point"}, "id": "LfA6t73MbXfmcHday2IBD6m5pNY=", "properties": {"@spider": "usps_collection_boxes", "addr:city": "GRAVOIS MILLS", "addr:country": "US", "addr:full": "25707 HIGHWAY 5", "addr:postcode": "65037", "addr:state": "MO", "amenity": "post_box", "brand": "United States Postal Service", "brand:wikidata": "Q668687", "collection_times": "Mo-Fr 15:45; Sa 10:00", "name": "USPS COLLECTION BOX - PO LOBBY", "note": "ON 12/24 AND 12/31, THIS BOX MAY BE COLLECTED AS EARLY AS 12 NOON.", "nsi_id": "unitedstatespostalservice-a77078", "operator": "United States Postal Service", "operator:short": "USPS", "operator:type": "public", "operator:wikidata": "Q668687", "ref": "6503700011"}, "type": "Feature"}
{"dataset_attributes": {"@spider": "usps_collection_boxes", "spider:collection_time": "2023-11-22T08:26:05.887177"}, "geometry": {"coordinates": [-92.309129223, 38.695375006], "type": "Point"}, "id": "JiJOBBe1z9GOxus3tbpmI5uQ1ac=", "properties": {"@spider": "usps_collection_boxes", "addr:city": "HARTSBURG", "addr:country": "US", "addr:full": "11 N 2ND ST", "addr:postcode": "65039", "addr:state": "MO", "amenity": "post_box", "brand": "United States Postal Service", "brand:wikidata": "Q668687", "collection_times": "Mo-Fr 11:15; Sa 08:15", "name": "USPS COLLECTION BOX - BLUE BOX", "nsi_id": "unitedstatespostalservice-a77078", "operator": "United States Postal Service", "operator:short": "USPS", "operator:type": "public", "operator:wikidata": "Q668687", "ref": "6503900001"}, "type": "Feature"}
{"dataset_attributes": {"@spider": "usps_collection_boxes", "spider:collection_time": "2023-11-22T08:26:05.887177"}, "geometry": {"coordinates": [-92.309129223, 38.695375006], "type": "Point"}, "id": "WXR5mYiKgpUMoc8B3KqqDL4OMUM=", "properties": {"@spider": "usps_collection_boxes", "addr:city": "HARTSBURG", "addr:country": "US", "addr:full": "11 N 2ND ST", "addr:postcode": "65039", "addr:state": "MO", "amenity": "post_box", "brand": "United States Postal Service", "brand:wikidata": "Q668687", "collection_times": "Mo-Fr 11:15; Sa 09:00", "name": "USPS COLLECTION BOX - PO LOBBY", "nsi_id": "unitedstatespostalservice-a77078", "operator": "United States Postal Service", "operator:short": "USPS", "operator:type": "public", "operator:wikidata": "Q668687", "ref": "6503900002"}, "type": "Feature"}
{"dataset_attributes": {"@spider": "usps_collection_boxes", "spider:collection_time": "2023-11-22T08:26:05.887177"}, "geometry": {"coordinates": [-92.309129223, 38.695375006], "type": "Point"}, "id": "e1iCh-EOkF2FX_ZVhgiyadSJDbs=", "properties": {"@spider": "usps_collection_boxes", "addr:city": "HARTSBURG", "addr:country": "US", "addr:full": "11 N 2ND ST", "addr:postcode": "65039", "addr:state": "MO", "amenity": "post_box", "brand": "United States Postal Service", "brand:wikidata": "Q668687", "collection_times": "Mo-Fr 11:00; Sa 09:00", "name": "USPS COLLECTION BOX - PO LOBBY", "nsi_id": "unitedstatespostalservice-a77078", "operator": "United States Postal Service", "operator:short": "USPS", "operator:type": "public", "operator:wikidata": "Q668687", "ref": "6503900004"}, "type": "Feature"}
{"dataset_attributes": {"@spider": "usps_collection_boxes", "spider:collection_time": "2023-11-22T08:26:05.887177"}, "geometry": {"coordinates": [-92.323289, 38.344388], "type": "Point"}, "id": "q4RGf1A8M6325_qY-XnYtuG6p3c=", "properties": {"@spider": "usps_collection_boxes", "addr:city": "HENLEY", "addr:country": "US", "addr:full": "16503 PIT RD", "addr:postcode": "65040", "addr:state": "MO", "amenity": "post_box", "brand": "United States Postal Service", "brand:wikidata": "Q668687", "collection_times": "Mo-Fr 11:15; Sa 09:45", "name": "USPS COLLECTION BOX - BLUE BOX", "nsi_id": "unitedstatespostalservice-a77078", "operator": "United States Postal Service", "operator:short": "USPS", "operator:type": "public", "operator:wikidata": "Q668687", "ref": "6504000001"}, "type": "Feature"}
{"dataset_attributes": {"@spider": "usps_collection_boxes", "spider:collection_time": "2023-11-22T08:26:05.887177"}, "geometry": {"coordinates": [-92.32336, 38.344313], "type": "Point"}, "id": "gjkwsb0UXuinyofj6sMobxmehac=", "properties": {"@spider": "usps_collection_boxes", "addr:city": "HENLEY", "addr:country": "US", "addr:full": "16503 PIT RD", "addr:postcode": "65040", "addr:state": "MO", "amenity": "post_box", "brand": "United States Postal Service", "brand:wikidata": "Q668687", "collection_times": "Mo-Fr 11:15; Sa 09:45", "name": "USPS COLLECTION BOX - PO LOBBY", "nsi_id": "unitedstatespostalservice-a77078", "operator": "United States Postal Service", "operator:short": "USPS", "operator:type": "public", "operator:wikidata": "Q668687", "ref": "6504000002"}, "type": "Feature"}
{"dataset_attributes": {"@spider": "usps_collection_boxes", "spider:collection_time": "2023-11-22T08:26:05.887177"}, "geometry": {"coordinates": [-92.323271259, 38.344432108], "type": "Point"}, "id": "tZlo1KdYIXSiFRplHu8tn5DMLbA=", "properties": {"@spider": "usps_collection_boxes", "addr:city": "HENLEY", "addr:country": "US", "addr:full": "16503 PIT RD", "addr:postcode": "65040", "addr:state": "MO", "amenity": "post_box", "brand": "United States Postal Service", "brand:wikidata": "Q668687", "collection_times": "Mo-Fr 11:15; Sa 09:45", "name": "USPS COLLECTION BOX - PO LOBBY", "nsi_id": "unitedstatespostalservice-a77078", "operator": "United States Postal Service", "operator:short": "USPS", "operator:type": "public", "operator:wikidata": "Q668687", "ref": "6504000003"}, "type": "Feature"}
{"dataset_attributes": {"@spider": "usps_collection_boxes", "spider:collection_time": "2023-11-22T08:26:05.887177"}, "geometry": {"coordinates": [-91.446364, 38.69431], "type": "Point"}, "id": "5kDsmD-CCNZOLorNf3tiQFOK9hg=", "properties": {"@spider": "usps_collection_boxes", "addr:city": "HERMANN", "addr:country": "US", "addr:full": "412 W 16TH ST", "addr:postcode": "65041", "addr:state": "MO", "amenity": "post_box", "brand": "United States Postal Service", "brand:wikidata": "Q668687", "collection_times": "Mo-Fr 16:15; Sa 12:00", "name": "USPS COLLECTION BOX - BLUE BOX", "note": "ON 12/24 AND 12/31, THIS BOX MAY BE COLLECTED AS EARLY AS 12 NOON.", "nsi_id": "unitedstatespostalservice-a77078", "operator": "United States Postal Service", "operator:short": "USPS", "operator:type": "public", "operator:wikidata": "Q668687", "ref": "6504100001"}, "type": "Feature"}
{"dataset_attributes": {"@spider": "usps_collection_boxes", "spider:collection_time": "2023-11-22T08:26:05.887177"}, "geometry": {"coordinates": [-91.434242, 38.706865], "type": "Point"}, "id": "RsiLWvtg-cATa_xnSUU7F-davxc=", "properties": {"@spider": "usps_collection_boxes", "addr:city": "HERMANN", "addr:country": "US", "addr:full": "217 E 1ST ST", "addr:postcode": "65041", "addr:state": "MO", "amenity": "post_box", "brand": "United States Postal Service", "brand:wikidata": "Q668687", "collection_times": "Mo-Fr 10:45; Sa 09:00", "name": "USPS COLLECTION BOX - BLUE BOX", "nsi_id": "unitedstatespostalservice-a77078", "operator": "United States Postal Service", "operator:short": "USPS", "operator:type": "public", "operator:wikidata": "Q668687", "ref": "6504100002"}, "type": "Feature"}
{"dataset_attributes": {"@spider": "usps_collection_boxes", "spider:collection_time": "2023-11-22T08:26:05.887177"}, "geometry": {"coordinates": [-91.446275, 38.694331], "type": "Point"}, "id": "FeT4HU3IGQxxTWDe8O4QIN-RKwU=", "properties": {"@spider": "usps_collection_boxes", "addr:city": "HERMANN", "addr:country": "US", "addr:full": "412 W 16TH ST", "addr:postcode": "65041", "addr:state": "MO", "amenity": "post_box", "brand": "United States Postal Service", "brand:wikidata": "Q668687", "collection_times": "Mo-Fr 16:15; Sa 12:00", "name": "USPS COLLECTION BOX - BLUE BOX", "note": "ON 12/24 AND 12/31, THIS BOX MAY BE COLLECTED AS EARLY AS 12 NOON.", "nsi_id": "unitedstatespostalservice-a77078", "operator": "United States Postal Service", "operator:short": "USPS", "operator:type": "public", "operator:wikidata": "Q668687", "ref": "6504100003"}, "type": "Feature"}
{"dataset_attributes": {"@spider": "usps_collection_boxes", "spider:collection_time": "2023-11-22T08:26:05.887177"}, "geometry": {"coordinates": [-91.4377343, 38.70441], "type": "Point"}, "id": "XgPJeohjHwWqzzS7NAJT_nMGnak=", "properties": {"@spider": "usps_collection_boxes", "addr:city": "HERMANN", "addr:country": "US", "addr:full": "101 E 4TH ST", "addr:postcode": "65041", "addr:state": "MO", "amenity": "post_box", "brand": "United States Postal Service", "brand:wikidata": "Q668687", "collection_times": "Mo-Fr 10:45; Sa 09:00", "name": "USPS COLLECTION BOX - BLUE BOX", "nsi_id": "unitedstatespostalservice-a77078", "operator": "United States Postal Service", "operator:short": "USPS", "operator:type": "public", "operator:wikidata": "Q668687", "ref": "6504100006"}, "type": "Feature"}
{"dataset_attributes": {"@spider": "usps_collection_boxes", "spider:collection_time": "2023-11-22T08:26:05.887177"}, "geometry": {"coordinates": [-91.4326852, 38.707133], "type": "Point"}, "id": "7ZRSAX7mvsG47g6eig9joekSGho=", "properties": {"@spider": "usps_collection_boxes", "addr:city": "HERMANN", "addr:country": "US", "addr:full": "237 E 1ST ST", "addr:postcode": "65041", "addr:state": "MO", "amenity": "post_box", "brand": "United States Postal Service", "brand:wikidata": "Q668687", "collection_times": "Mo-Fr 10:45; Sa 09:00", "name": "USPS COLLECTION BOX - BLUE BOX", "nsi_id": "unitedstatespostalservice-a77078", "operator": "United States Postal Service", "operator:short": "USPS", "operator:type": "public", "operator:wikidata": "Q668687", "ref": "6504100009"}, "type": "Feature"}
{"dataset_attributes": {"@spider": "usps_collection_boxes", "spider:collection_time": "2023-11-22T08:26:05.887177"}, "geometry": {"coordinates": [-91.446275, 38.694331], "type": "Point"}, "id": "jGWlosRvPWB7N81PtdHqMsTEmS4=", "properties": {"@spider": "usps_collection_boxes", "addr:city": "HERMANN", "addr:country": "US", "addr:full": "412 W 16TH ST", "addr:postcode": "65041", "addr:state": "MO", "amenity": "post_box", "brand": "United States Postal Service", "brand:wikidata": "Q668687", "collection_times": "Mo-Fr 16:30; Sa 12:00", "name": "USPS COLLECTION BOX - PO LOBBY", "note": "ON 12/24 AND 12/31, THIS BOX MAY BE COLLECTED AS EARLY AS 12 NOON.", "nsi_id": "unitedstatespostalservice-a77078", "operator": "United States Postal Service", "operator:short": "USPS", "operator:type": "public", "operator:wikidata": "Q668687", "ref": "6504100010"}, "type": "Feature"}
{"dataset_attributes": {"@spider": "usps_collection_boxes", "spider:collection_time": "2023-11-22T08:26:05.887177"}, "geometry": {"coordinates": [-91.446232479, 38.694288511], "type": "Point"}, "id": "9CnFw-xW3J0nXDHx6S_nShLZc9U=", "properties": {"@spider": "usps_collection_boxes", "addr:city": "HERMANN", "addr:country": "US", "addr:full": "412 W 16TH ST", "addr:postcode": "65041", "addr:state": "MO", "amenity": "post_box", "brand": "United States Postal Service", "brand:wikidata": "Q668687", "collection_times": "Mo-Fr 16:30; Sa 12:00", "name": "USPS COLLECTION BOX - PO LOBBY", "note": "ON 12/24 AND 12/31, THIS BOX MAY BE COLLECTED AS EARLY AS 12 NOON.", "nsi_id": "unitedstatespostalservice-a77078", "operator": "United States Postal Service", "operator:short": "USPS", "operator:type": "public", "operator:wikidata": "Q668687", "ref": "6504100013"}, "type": "Feature"}
{"dataset_attributes": {"@spider": "usps_collection_boxes", "spider:collection_time": "2023-11-22T08:26:05.887177"}, "geometry": {"coordinates": [-92.1199941, 38.646068], "type": "Point"}, "id": "W89tOa-dU1Z2L6w8uAhG0mXWj-Q=", "properties": {"@spider": "usps_collection_boxes", "addr:city": "HOLTS SUMMIT", "addr:country": "US", "addr:full": "357 S SUMMIT DR", "addr:postcode": "65043", "addr:state": "MO", "amenity": "post_box", "brand": "United States Postal Service", "brand:wikidata": "Q668687", "collection_times": "Mo-Fr 15:30; Sa 09:00", "name": "USPS COLLECTION BOX - BLUE BOX", "note": "ON 12/24 AND 12/31, THIS BOX MAY BE COLLECTED AS EARLY AS 12 NOON.", "nsi_id": "unitedstatespostalservice-a77078", "operator": "United States Postal Service", "operator:short": "USPS", "operator:type": "public", "operator:wikidata": "Q668687", "ref": "6504300001"}, "type": "Feature"}
{"dataset_attributes": {"@spider": "usps_collection_boxes", "spider:collection_time": "2023-11-22T08:26:05.887177"}, "geometry": {"coordinates": [-92.1164684, 38.655384], "type": "Point"}, "id": "p2iyRtep8hm3WyEfosCSfWaJcvg=", "properties": {"@spider": "usps_collection_boxes", "addr:city": "HOLTS SUMMIT", "addr:country": "US", "addr:full": "170 W SIMON BLVD", "addr:postcode": "65043", "addr:state": "MO", "amenity": "post_box", "brand": "United States Postal Service", "brand:wikidata": "Q668687", "collection_times": "Mo-Fr 11:30", "name": "USPS COLLECTION BOX - BLUE BOX", "nsi_id": "unitedstatespostalservice-a77078", "operator": "United States Postal Service", "operator:short": "USPS", "operator:type": "public", "operator:wikidata": "Q668687", "ref": "6504300003"}, "type": "Feature"}
{"dataset_attributes": {"@spider": "usps_collection_boxes", "spider:collection_time": "2023-11-22T08:26:05.887177"}, "geometry": {"coordinates": [-92.120202031, 38.6556950112], "type": "Point"}, "id": "ka7bft--q_NN9oVLOc8N6oavZ-A=", "properties": {"@spider": "usps_collection_boxes", "addr:city": "HOLTS SUMMIT", "addr:country": "US", "addr:full": "252 W SIMON BLVD", "addr:postcode": "65043", "addr:state": "MO", "amenity": "post_box", "brand": "United States Postal Service", "brand:wikidata": "Q668687", "collection_times": "Mo-Fr 11:30", "name": "USPS COLLECTION BOX - BLUE BOX", "nsi_id": "unitedstatespostalservice-a77078", "operator": "United States Postal Service", "operator:short": "USPS", "operator:type": "public", "operator:wikidata": "Q668687", "ref": "6504300004"}, "type": "Feature"}
{"dataset_attributes": {"@spider": "usps_collection_boxes", "spider:collection_time": "2023-11-22T08:26:05.887177"}, "geometry": {"coordinates": [-92.1197603, 38.646231], "type": "Point"}, "id": "rouwsIoN87M6mokA78OdtMFwa-Y=", "properties": {"@spider": "usps_collection_boxes", "addr:city": "HOLTS SUMMIT", "addr:country": "US", "addr:full": "357 S SUMMIT DR", "addr:postcode": "65043", "addr:state": "MO", "amenity": "post_box", "brand": "United States Postal Service", "brand:wikidata": "Q668687", "collection_times": "Mo-Fr 15:30; Sa 09:00", "name": "USPS COLLECTION BOX - PO LOBBY", "note": "ON 12/24 AND 12/31, THIS BOX MAY BE COLLECTED AS EARLY AS 12 NOON.", "nsi_id": "unitedstatespostalservice-a77078", "operator": "United States Postal Service", "operator:short": "USPS", "operator:type": "public", "operator:wikidata": "Q668687", "ref": "6504300005"}, "type": "Feature"}
{"dataset_attributes": {"@spider": "usps_collection_boxes", "spider:collection_time": "2023-11-22T08:26:05.887177"}, "geometry": {"coordinates": [-92.119629288, 38.646868943], "type": "Point"}, "id": "0AnLmI3hgqTX5V2JKGuOGl2KM_w=", "properties": {"@spider": "usps_collection_boxes", "addr:city": "HOLTS SUMMIT", "addr:country": "US", "addr:full": "357 S SUMMIT DR", "addr:postcode": "65043", "addr:state": "MO", "amenity": "post_box", "brand": "United States Postal Service", "brand:wikidata": "Q668687", "collection_times": "Mo-Fr 15:30; Sa 09:00", "name": "USPS COLLECTION BOX - PO LOBBY", "note": "ON 12/24 AND 12/31, THIS BOX MAY BE COLLECTED AS EARLY AS 12 NOON.", "nsi_id": "unitedstatespostalservice-a77078", "operator": "United States Postal Service", "operator:short": "USPS", "operator:type": "public", "operator:wikidata": "Q668687", "ref": "6504300007"}, "type": "Feature"}
{"dataset_attributes": {"@spider": "usps_collection_boxes", "spider:collection_time": "2023-11-22T08:26:05.887177"}, "geometry": {"coordinates": [-92.4807596, 38.765676], "type": "Point"}, "id": "taxaSI-Gk01lRjUosJdtQRZlQlo=", "properties": {"@spider": "usps_collection_boxes", "addr:city": "JAMESTOWN", "addr:country": "US", "addr:full": "100 W ROW ST", "addr:postcode": "65046", "addr:state": "MO", "amenity": "post_box", "brand": "United States Postal Service", "brand:wikidata": "Q668687", "collection_times": "Mo-Fr 10:45; Sa 08:45", "name": "USPS COLLECTION BOX - BLUE BOX", "nsi_id": "unitedstatespostalservice-a77078", "operator": "United States Postal Service", "operator:short": "USPS", "operator:type": "public", "operator:wikidata": "Q668687", "ref": "6504600001"}, "type": "Feature"}
{"dataset_attributes": {"@spider": "usps_collection_boxes", "spider:collection_time": "2023-11-22T08:26:05.887177"}, "geometry": {"coordinates": [-92.480627, 38.765451], "type": "Point"}, "id": "sulx_eq5DLPRqnZ3mztGsvIzWU8=", "properties": {"@spider": "usps_collection_boxes", "addr:city": "JAMESTOWN", "addr:country": "US", "addr:full": "100 W ROW ST", "addr:postcode": "65046", "addr:state": "MO", "amenity": "post_box", "brand": "United States Postal Service", "brand:wikidata": "Q668687", "collection_times": "Mo-Fr 10:45; Sa 08:45", "name": "USPS COLLECTION BOX - PO LOBBY", "nsi_id": "unitedstatespostalservice-a77078", "operator": "United States Postal Service", "operator:short": "USPS", "operator:type": "public", "operator:wikidata": "Q668687", "ref": "6504600002"}, "type": "Feature"}
{"dataset_attributes": {"@spider": "usps_collection_boxes", "spider:collection_time": "2023-11-22T08:26:05.887177"}, "geometry": {"coordinates": [-92.480669995, 38.765539987], "type": "Point"}, "id": "qY9UTOwn7Lazt_WkqCSqSwg1G5Y=", "properties": {"@spider": "usps_collection_boxes", "addr:city": "JAMESTOWN", "addr:country": "US", "addr:full": "100 W ROW ST", "addr:postcode": "65046", "addr:state": "MO", "amenity": "post_box", "brand": "United States Postal Service", "brand:wikidata": "Q668687", "collection_times": "Mo-Fr 10:45; Sa 08:45", "name": "USPS COLLECTION BOX - PO LOBBY", "nsi_id": "unitedstatespostalservice-a77078", "operator": "United States Postal Service", "operator:short": "USPS", "operator:type": "public", "operator:wikidata": "Q668687", "ref": "6504600003"}, "type": "Feature"}
{"dataset_attributes": {"@spider": "usps_collection_boxes", "spider:collection_time": "2023-11-22T08:26:05.887177"}, "geometry": {"coordinates": [-92.587113, 38.139641488], "type": "Point"}, "id": "JjEKjb5sLdtJF1sfiu6NhHHuEyA=", "properties": {"@spider": "usps_collection_boxes", "addr:city": "KAISER", "addr:country": "US", "addr:full": "405 HIGHWAY 42", "addr:postcode": "65047", "addr:state": "MO", "amenity": "post_box", "brand": "United States Postal Service", "brand:wikidata": "Q668687", "collection_times": "Mo-Fr 14:45; Sa 09:45", "name": "USPS COLLECTION BOX - BLUE BOX", "note": "ON 12/24 AND 12/31, THIS BOX MAY BE COLLECTED AS EARLY AS 12 NOON.", "nsi_id": "unitedstatespostalservice-a77078", "operator": "United States Postal Service", "operator:short": "USPS", "operator:type": "public", "operator:wikidata": "Q668687", "ref": "6504700001"}, "type": "Feature"}
{"dataset_attributes": {"@spider": "usps_collection_boxes", "spider:collection_time": "2023-11-22T08:26:05.887177"}, "geometry": {"coordinates": [-92.587113, 38.139641488], "type": "Point"}, "id": "g4mPn3pUgrnwBoN3tlT215jj37o=", "properties": {"@spider": "usps_collection_boxes", "addr:city": "KAISER", "addr:country": "US", "addr:full": "405 HIGHWAY 42", "addr:postcode": "65047", "addr:state": "MO", "amenity": "post_box", "brand": "United States Postal Service", "brand:wikidata": "Q668687", "collection_times": "Mo-Fr 15:00; Sa 10:00", "name": "USPS COLLECTION BOX - PO LOBBY", "note": "ON 12/24 AND 12/31, THIS BOX MAY BE COLLECTED AS EARLY AS 12 NOON.", "nsi_id": "unitedstatespostalservice-a77078", "operator": "United States Postal Service", "operator:short": "USPS", "operator:type": "public", "operator:wikidata": "Q668687", "ref": "6504700002"}, "type": "Feature"}
{"dataset_attributes": {"@spider": "usps_collection_boxes", "spider:collection_time": "2023-11-22T08:26:05.887177"}, "geometry": {"coordinates": [-92.587113, 38.139641488], "type": "Point"}, "id": "0Zy5QCep6oDyJMDlWuWN8_9fa4c=", "properties": {"@spider": "usps_collection_boxes", "addr:city": "KAISER", "addr:country": "US", "addr:full": "405 HIGHWAY 42", "addr:postcode": "65047", "addr:state": "MO", "amenity": "post_box", "brand": "United States Postal Service", "brand:wikidata": "Q668687", "collection_times": "Mo-Fr 15:00; Sa 10:00", "name": "USPS COLLECTION BOX - PO LOBBY", "note": "ON 12/24 AND 12/31, THIS BOX MAY BE COLLECTED AS EARLY AS 12 NOON.", "nsi_id": "unitedstatespostalservice-a77078", "operator": "United States Postal Service", "operator:short": "USPS", "operator:type": "public", "operator:wikidata": "Q668687", "ref": "6504700004"}, "type": "Feature"}
{"dataset_attributes": {"@spider": "usps_collection_boxes", "spider:collection_time": "2023-11-22T08:26:05.887177"}, "geometry": {"coordinates": [-92.643176692, 38.188168885], "type": "Point"}, "id": "Hx4KnvJnqlGIdySD76ZCDrU6PqQ=", "properties": {"@spider": "usps_collection_boxes", "addr:city": "LAKE OZARK", "addr:country": "US", "addr:full": "2111 BAGNELL DAM BLVD", "addr:postcode": "65049", "addr:state": "MO", "amenity": "post_box", "brand": "United States Postal Service", "brand:wikidata": "Q668687", "collection_times": "Mo-Fr 16:15; Sa 13:15", "name": "USPS COLLECTION BOX - BLUE BOX", "note": "ON 12/24 AND 12/31, THIS BOX MAY BE COLLECTED AS EARLY AS 12 NOON.", "nsi_id": "unitedstatespostalservice-a77078", "operator": "United States Postal Service", "operator:short": "USPS", "operator:type": "public", "operator:wikidata": "Q668687", "ref": "6504900001"}, "type": "Feature"}
{"dataset_attributes": {"@spider": "usps_collection_boxes", "spider:collection_time": "2023-11-22T08:26:05.887177"}, "geometry": {"coordinates": [-92.6313669, 38.200703], "type": "Point"}, "id": "D_INRPM1WalhmmjC-NXSbPj1zNA=", "properties": {"@spider": "usps_collection_boxes", "addr:city": "LAKE OZARK", "addr:country": "US", "addr:full": "1220 BAGNELL DAM BLVD", "addr:postcode": "65049", "addr:state": "MO", "amenity": "post_box", "brand": "United States Postal Service", "brand:wikidata": "Q668687", "collection_times": "Mo-Sa 09:00", "name": "USPS COLLECTION BOX - BLUE BOX", "nsi_id": "unitedstatespostalservice-a77078", "operator": "United States Postal Service", "operator:short": "USPS", "operator:type": "public", "operator:wikidata": "Q668687", "ref": "6504900004"}, "type": "Feature"}
{"dataset_attributes": {"@spider": "usps_collection_boxes", "spider:collection_time": "2023-11-22T08:26:05.887177"}, "geometry": {"coordinates": [-92.7181984, 38.191544], "type": "Point"}, "id": "-YE0f8cWDSGHHKH6DXjE0SzREco=", "properties": {"@spider": "usps_collection_boxes", "addr:city": "LAKE OZARK", "addr:country": "US", "addr:full": "4467 HORSESHOE BEND PKWY", "addr:postcode": "65049", "addr:state": "MO", "amenity": "post_box", "brand": "United States Postal Service", "brand:wikidata": "Q668687", "collection_times": "Mo-Sa 10:30", "name": "USPS COLLECTION BOX - BLUE BOX", "nsi_id": "unitedstatespostalservice-a77078", "operator": "United States Postal Service", "operator:short": "USPS", "operator:type": "public", "operator:wikidata": "Q668687", "ref": "6504900006"}, "type": "Feature"}
{"dataset_attributes": {"@spider": "usps_collection_boxes", "spider:collection_time": "2023-11-22T08:26:05.887177"}, "geometry": {"coordinates": [-92.6345258, 38.183431], "type": "Point"}, "id": "PNwLZPPHXmk2yn9XACbn2NERmo4=", "properties": {"@spider": "usps_collection_boxes", "addr:city": "LAKE OZARK", "addr:country": "US", "addr:full": "2565 BAGNELL DAM BLVD", "addr:postcode": "65049", "addr:state": "MO", "amenity": "post_box", "brand": "United States Postal Service", "brand:wikidata": "Q668687", "collection_times": "Mo-Sa 09:45", "name": "USPS COLLECTION BOX - BLUE BOX", "nsi_id": "unitedstatespostalservice-a77078", "operator": "United States Postal Service", "operator:short": "USPS", "operator:type": "public", "operator:wikidata": "Q668687", "ref": "6504900007"}, "type": "Feature"}
{"dataset_attributes": {"@spider": "usps_collection_boxes", "spider:collection_time": "2023-11-22T08:26:05.887177"}, "geometry": {"coordinates": [-92.7150064, 38.191053], "type": "Point"}, "id": "zdUF2cHoqoXJHLdFTqRln3lUAw4=", "properties": {"@spider": "usps_collection_boxes", "addr:city": "LAKE OZARK", "addr:country": "US", "addr:full": "4314 HORSESHOE BEND PKWY", "addr:postcode": "65049", "addr:state": "MO", "amenity": "post_box", "brand": "United States Postal Service", "brand:wikidata": "Q668687", "collection_times": "Mo-Sa 10:00", "name": "USPS COLLECTION BOX - BLUE BOX", "nsi_id": "unitedstatespostalservice-a77078", "operator": "United States Postal Service", "operator:short": "USPS", "operator:type": "public", "operator:wikidata": "Q668687", "ref": "6504900008"}, "type": "Feature"}
{"dataset_attributes": {"@spider": "usps_collection_boxes", "spider:collection_time": "2023-11-22T08:26:05.887177"}, "geometry": {"coordinates": [-92.643176692, 38.188168885], "type": "Point"}, "id": "IxxGB-sLNTKlAyUKtHQJHZ7nGY8=", "properties": {"@spider": "usps_collection_boxes", "addr:city": "LAKE OZARK", "addr:country": "US", "addr:full": "2111 BAGNELL DAM BLVD", "addr:postcode": "65049", "addr:state": "MO", "amenity": "post_box", "brand": "United States Postal Service", "brand:wikidata": "Q668687", "collection_times": "Mo-Fr 16:30; Sa 13:30", "name": "USPS COLLECTION BOX - PO LOBBY", "note": "ON 12/24 AND 12/31, THIS BOX MAY BE COLLECTED AS EARLY AS 12 NOON.", "nsi_id": "unitedstatespostalservice-a77078", "operator": "United States Postal Service", "operator:short": "USPS", "operator:type": "public", "operator:wikidata": "Q668687", "ref": "6504900010"}, "type": "Feature"}
{"dataset_attributes": {"@spider": "usps_collection_boxes", "spider:collection_time": "2023-11-22T08:26:05.887177"}, "geometry": {"coordinates": [-92.643176692, 38.188168885], "type": "Point"}, "id": "jccM0dr-_uc5MwLuZkQyiOxT7Y0=", "properties": {"@spider": "usps_collection_boxes", "addr:city": "LAKE OZARK", "addr:country": "US", "addr:full": "2111 BAGNELL DAM BLVD", "addr:postcode": "65049", "addr:state": "MO", "amenity": "post_box", "brand": "United States Postal Service", "brand:wikidata": "Q668687", "collection_times": "Mo-Fr 16:30; Sa 13:30", "name": "USPS COLLECTION BOX - PO LOBBY", "note": "ON 12/24 AND 12/31, THIS BOX MAY BE COLLECTED AS EARLY AS 12 NOON.", "nsi_id": "unitedstatespostalservice-a77078", "operator": "United States Postal Service", "operator:short": "USPS", "operator:type": "public", "operator:wikidata": "Q668687", "ref": "6504900013"}, "type": "Feature"}
{"dataset_attributes": {"@spider": "usps_collection_boxes", "spider:collection_time": "2023-11-22T08:26:05.887177"}, "geometry": {"coordinates": [-92.681768, 38.557918], "type": "Point"}, "id": "pMc4ANx7vrasGQnD3Pmyb7dpYcQ=", "properties": {"@spider": "usps_collection_boxes", "addr:city": "LATHAM", "addr:country": "US", "addr:full": "100 STATE ROUTE E", "addr:postcode": "65050", "addr:state": "MO", "amenity": "post_box", "brand": "United States Postal Service", "brand:wikidata": "Q668687", "collection_times": "Mo-Fr 10:15; Sa 13:45", "name": "USPS COLLECTION BOX - BLUE BOX", "note": "ON 12/24 AND 12/31, THIS BOX MAY BE COLLECTED AS EARLY AS 12 NOON.", "nsi_id": "unitedstatespostalservice-a77078", "operator": "United States Postal Service", "operator:short": "USPS", "operator:type": "public", "operator:wikidata": "Q668687", "ref": "6505000001"}, "type": "Feature"}
{"dataset_attributes": {"@spider": "usps_collection_boxes", "spider:collection_time": "2023-11-22T08:26:05.887177"}, "geometry": {"coordinates": [-92.681611, 38.561548], "type": "Point"}, "id": "onIXJvw0MjPf9CIH3FD1sq_PPz4=", "properties": {"@spider": "usps_collection_boxes", "addr:city": "LATHAM", "addr:country": "US", "addr:full": "100 STATE ROUTE E", "addr:postcode": "65050", "addr:state": "MO", "amenity": "post_box", "brand": "United States Postal Service", "brand:wikidata": "Q668687", "collection_times": "Mo-Fr 10:15; Sa 13:45", "name": "USPS COLLECTION BOX - PO LOBBY", "note": "ON 12/24 AND 12/31, THIS BOX MAY BE COLLECTED AS EARLY AS 12 NOON.", "nsi_id": "unitedstatespostalservice-a77078", "operator": "United States Postal Service", "operator:short": "USPS", "operator:type": "public", "operator:wikidata": "Q668687", "ref": "6505000002"}, "type": "Feature"}
{"dataset_attributes": {"@spider": "usps_collection_boxes", "spider:collection_time": "2023-11-22T08:26:05.887177"}, "geometry": {"coordinates": [-92.6816537, 38.5587686], "type": "Point"}, "id": "wr8-FUTrHdIbS36IntgxG6h7n7M=", "properties": {"@spider": "usps_collection_boxes", "addr:city": "LATHAM", "addr:country": "US", "addr:full": "100 STATE ROUTE E", "addr:postcode": "65050", "addr:state": "MO", "amenity": "post_box", "brand": "United States Postal Service", "brand:wikidata": "Q668687", "collection_times": "Mo-Fr 10:15; Sa 13:45", "name": "USPS COLLECTION BOX - PO LOBBY", "note": "ON 12/24 AND 12/31, THIS BOX MAY BE COLLECTED AS EARLY AS 12 NOON.", "nsi_id": "unitedstatespostalservice-a77078", "operator": "United States Postal Service", "operator:short": "USPS", "operator:type": "public", "operator:wikidata": "Q668687", "ref": "6505000003"}, "type": "Feature"}
{"dataset_attributes": {"@spider": "usps_collection_boxes", "spider:collection_time": "2023-11-22T08:26:05.887177"}, "geometry": {"coordinates": [-91.842958416, 38.480318611], "type": "Point"}, "id": "gBQOGDoJQqG35HGJMeXHlzVtFCg=", "properties": {"@spider": "usps_collection_boxes", "addr:city": "LINN", "addr:country": "US", "addr:full": "1009 E MAIN ST", "addr:postcode": "65051", "addr:state": "MO", "amenity": "post_box", "brand": "United States Postal Service", "brand:wikidata": "Q668687", "collection_times": "Mo-Fr 15:30; Sa 09:30", "name": "USPS COLLECTION BOX - PO LOBBY", "note": "ON 12/24 AND 12/31, THIS BOX MAY BE COLLECTED AS EARLY AS 12 NOON.", "nsi_id": "unitedstatespostalservice-a77078", "operator": "United States Postal Service", "operator:short": "USPS", "operator:type": "public", "operator:wikidata": "Q668687", "ref": "6505100001"}, "type": "Feature"}
{"dataset_attributes": {"@spider": "usps_collection_boxes", "spider:collection_time": "2023-11-22T08:26:05.887177"}, "geometry": {"coordinates": [-91.842958416, 38.480318611], "type": "Point"}, "id": "p1dXpkHf11X31dJxMgblmzYtx2U=", "properties": {"@spider": "usps_collection_boxes", "addr:city": "LINN", "addr:country": "US", "addr:full": "1009 E MAIN ST", "addr:postcode": "65051", "addr:state": "MO", "amenity": "post_box", "brand": "United States Postal Service", "brand:wikidata": "Q668687", "collection_times": "Mo-Fr 15:30; Sa 09:30", "name": "USPS COLLECTION BOX - BLUE BOX", "note": "ON 12/24 AND 12/31, THIS BOX MAY BE COLLECTED AS EARLY AS 12 NOON.", "nsi_id": "unitedstatespostalservice-a77078", "operator": "United States Postal Service", "operator:short": "USPS", "operator:type": "public", "operator:wikidata": "Q668687", "ref": "6505100003"}, "type": "Feature"}
{"dataset_attributes": {"@spider": "usps_collection_boxes", "spider:collection_time": "2023-11-22T08:26:05.887177"}, "geometry": {"coordinates": [-91.8518299, 38.485873], "type": "Point"}, "id": "1Gxig5QJhQz_UnAkgRVM6PQ13is=", "properties": {"@spider": "usps_collection_boxes", "addr:city": "LINN", "addr:country": "US", "addr:full": "206 E MAIN ST", "addr:postcode": "65051", "addr:state": "MO", "amenity": "post_box", "brand": "United States Postal Service", "brand:wikidata": "Q668687", "collection_times": "Mo-Fr 13:15", "name": "USPS COLLECTION BOX - BLUE BOX", "note": "ON 12/24 AND 12/31, THIS BOX MAY BE COLLECTED AS EARLY AS 12 NOON.", "nsi_id": "unitedstatespostalservice-a77078", "operator": "United States Postal Service", "operator:short": "USPS", "operator:type": "public", "operator:wikidata": "Q668687", "ref": "6505100004"}, "type": "Feature"}
{"dataset_attributes": {"@spider": "usps_collection_boxes", "spider:collection_time": "2023-11-22T08:26:05.887177"}, "geometry": {"coordinates": [-91.8574253, 38.492998], "type": "Point"}, "id": "wAlK7lbZ_IFeQmekgMQCQGJ-7Vw=", "properties": {"@spider": "usps_collection_boxes", "addr:city": "LINN", "addr:country": "US", "addr:full": "318 W MAIN ST", "addr:postcode": "65051", "addr:state": "MO", "amenity": "post_box", "brand": "United States Postal Service", "brand:wikidata": "Q668687", "collection_times": "Mo-Fr 13:00", "name": "USPS COLLECTION BOX - BLUE BOX", "note": "ON 12/24 AND 12/31, THIS BOX MAY BE COLLECTED AS EARLY AS 12 NOON.", "nsi_id": "unitedstatespostalservice-a77078", "operator": "United States Postal Service", "operator:short": "USPS", "operator:type": "public", "operator:wikidata": "Q668687", "ref": "6505100007"}, "type": "Feature"}
{"dataset_attributes": {"@spider": "usps_collection_boxes", "spider:collection_time": "2023-11-22T08:26:05.887177"}, "geometry": {"coordinates": [-91.842958416, 38.480318611], "type": "Point"}, "id": "4p9jwyeDLjQ7xfl0KwA3iOFGr2w=", "properties": {"@spider": "usps_collection_boxes", "addr:city": "LINN", "addr:country": "US", "addr:full": "1009 E MAIN ST", "addr:postcode": "65051", "addr:state": "MO", "amenity": "post_box", "brand": "United States Postal Service", "brand:wikidata": "Q668687", "collection_times": "Mo-Fr 15:30; Sa 09:00", "name": "USPS COLLECTION BOX - PO LOBBY", "note": "ON 12/24 AND 12/31, THIS BOX MAY BE COLLECTED AS EARLY AS 12 NOON.", "nsi_id": "unitedstatespostalservice-a77078", "operator": "United States Postal Service", "operator:short": "USPS", "operator:type": "public", "operator:wikidata": "Q668687", "ref": "6505100009"}, "type": "Feature"}
{"dataset_attributes": {"@spider": "usps_collection_boxes", "spider:collection_time": "2023-11-22T08:26:05.887177"}, "geometry": {"coordinates": [-92.7056249, 38.038316], "type": "Point"}, "id": "YZVmjO3Rqrmw6mW9wr6917mybqw=", "properties": {"@spider": "usps_collection_boxes", "addr:city": "LINN CREEK", "addr:country": "US", "addr:full": "17 INDUSTRIAL PARK RD", "addr:postcode": "65052", "addr:state": "MO", "amenity": "post_box", "brand": "United States Postal Service", "brand:wikidata": "Q668687", "collection_times": "Mo-Fr 16:00; Sa 10:30", "name": "USPS COLLECTION BOX - PO LOBBY", "note": "ON 12/24 AND 12/31, THIS BOX MAY BE COLLECTED AS EARLY AS 12 NOON.", "nsi_id": "unitedstatespostalservice-a77078", "operator": "United States Postal Service", "operator:short": "USPS", "operator:type": "public", "operator:wikidata": "Q668687", "ref": "6505200002"}, "type": "Feature"}
{"dataset_attributes": {"@spider": "usps_collection_boxes", "spider:collection_time": "2023-11-22T08:26:05.887177"}, "geometry": {"coordinates": [-92.7054817, 38.038085], "type": "Point"}, "id": "J1T65xl4cnXT8GmV9dMyHFlYXEo=", "properties": {"@spider": "usps_collection_boxes", "addr:city": "LINN CREEK", "addr:country": "US", "addr:full": "17 INDUSTRIAL PARK RD", "addr:postcode": "65052", "addr:state": "MO", "amenity": "post_box", "brand": "United States Postal Service", "brand:wikidata": "Q668687", "collection_times": "Mo-Fr 16:00; Sa 10:30", "name": "USPS COLLECTION BOX - BLUE BOX", "note": "ON 12/24 AND 12/31, THIS BOX MAY BE COLLECTED AS EARLY AS 12 NOON.", "nsi_id": "unitedstatespostalservice-a77078", "operator": "United States Postal Service", "operator:short": "USPS", "operator:type": "public", "operator:wikidata": "Q668687", "ref": "6505200004"}, "type": "Feature"}
{"dataset_attributes": {"@spider": "usps_collection_boxes", "spider:collection_time": "2023-11-22T08:26:05.887177"}, "geometry": {"coordinates": [-92.7059495, 38.0339735], "type": "Point"}, "id": "JxRyxywR8pGYExNR1SyIbDq7xTA=", "properties": {"@spider": "usps_collection_boxes", "addr:city": "LINN CREEK", "addr:country": "US", "addr:full": "17 INDUSTRIAL PARK RD", "addr:postcode": "65052", "addr:state": "MO", "amenity": "post_box", "brand": "United States Postal Service", "brand:wikidata": "Q668687", "collection_times": "Mo-Fr 16:00; Sa 10:30", "name": "USPS COLLECTION BOX - PO LOBBY", "note": "ON 12/24 AND 12/31, THIS BOX MAY BE COLLECTED AS EARLY AS 12 NOON.", "nsi_id": "unitedstatespostalservice-a77078", "operator": "United States Postal Service", "operator:short": "USPS", "operator:type": "public", "operator:wikidata": "Q668687", "ref": "6505200005"}, "type": "Feature"}
{"dataset_attributes": {"@spider": "usps_collection_boxes", "spider:collection_time": "2023-11-22T08:26:05.887177"}, "geometry": {"coordinates": [-92.3647781, 38.541475], "type": "Point"}, "id": "QoioqEZteBbGCvy2LKQe2AkX58Y=", "properties": {"@spider": "usps_collection_boxes", "addr:city": "LOHMAN", "addr:country": "US", "addr:full": "2922 MAIN ST", "addr:postcode": "65053", "addr:state": "MO", "amenity": "post_box", "brand": "United States Postal Service", "brand:wikidata": "Q668687", "collection_times": "Mo-Fr 11:15; Sa 09:15", "name": "USPS COLLECTION BOX - BLUE BOX", "nsi_id": "unitedstatespostalservice-a77078", "operator": "United States Postal Service", "operator:short": "USPS", "operator:type": "public", "operator:wikidata": "Q668687", "ref": "6505300001"}, "type": "Feature"}
{"dataset_attributes": {"@spider": "usps_collection_boxes", "spider:collection_time": "2023-11-22T08:26:05.887177"}, "geometry": {"coordinates": [-92.364877, 38.541474], "type": "Point"}, "id": "Y_fVuc2CmfYdZYmxJnEjYytXzIE=", "properties": {"@spider": "usps_collection_boxes", "addr:city": "LOHMAN", "addr:country": "US", "addr:full": "2922 MAIN ST", "addr:postcode": "65053", "addr:state": "MO", "amenity": "post_box", "brand": "United States Postal Service", "brand:wikidata": "Q668687", "collection_times": "Mo-Fr 11:15; Sa 09:15", "name": "USPS COLLECTION BOX - PO LOBBY", "nsi_id": "unitedstatespostalservice-a77078", "operator": "United States Postal Service", "operator:short": "USPS", "operator:type": "public", "operator:wikidata": "Q668687", "ref": "6505300002"}, "type": "Feature"}
{"dataset_attributes": {"@spider": "usps_collection_boxes", "spider:collection_time": "2023-11-22T08:26:05.887177"}, "geometry": {"coordinates": [-92.364293527, 38.541385374], "type": "Point"}, "id": "FvtpHyqSURWTNhqDKabenHNpP-c=", "properties": {"@spider": "usps_collection_boxes", "addr:city": "LOHMAN", "addr:country": "US", "addr:full": "2922 MAIN ST", "addr:postcode": "65053", "addr:state": "MO", "amenity": "post_box", "brand": "United States Postal Service", "brand:wikidata": "Q668687", "collection_times": "Mo-Fr 11:00; Sa 08:45", "name": "USPS COLLECTION BOX - PO LOBBY", "nsi_id": "unitedstatespostalservice-a77078", "operator": "United States Postal Service", "operator:short": "USPS", "operator:type": "public", "operator:wikidata": "Q668687", "ref": "6505300003"}, "type": "Feature"}
{"dataset_attributes": {"@spider": "usps_collection_boxes", "spider:collection_time": "2023-11-22T08:26:05.887177"}, "geometry": {"coordinates": [-91.9500236, 38.509794], "type": "Point"}, "id": "yjzlFhJs63shgqz1_0R_28Y_byo=", "properties": {"@spider": "usps_collection_boxes", "addr:city": "LOOSE CREEK", "addr:country": "US", "addr:full": "162 COUNTY ROAD 402 STE 1", "addr:postcode": "65054", "addr:state": "MO", "amenity": "post_box", "brand": "United States Postal Service", "brand:wikidata": "Q668687", "collection_times": "Mo-Fr 10:45; Sa 09:30", "name": "USPS COLLECTION BOX - BLUE BOX", "nsi_id": "unitedstatespostalservice-a77078", "operator": "United States Postal Service", "operator:short": "USPS", "operator:type": "public", "operator:wikidata": "Q668687", "ref": "6505400001"}, "type": "Feature"}
{"dataset_attributes": {"@spider": "usps_collection_boxes", "spider:collection_time": "2023-11-22T08:26:05.887177"}, "geometry": {"coordinates": [-91.9500434, 38.509771], "type": "Point"}, "id": "dKqL8UJTvZ75LRwZaYlhfGodKnI=", "properties": {"@spider": "usps_collection_boxes", "addr:city": "LOOSE CREEK", "addr:country": "US", "addr:full": "162 COUNTY ROAD 402 STE 1", "addr:postcode": "65054", "addr:state": "MO", "amenity": "post_box", "brand": "United States Postal Service", "brand:wikidata": "Q668687", "collection_times": "Mo-Fr 10:45; Sa 09:30", "name": "USPS COLLECTION BOX - PO LOBBY", "nsi_id": "unitedstatespostalservice-a77078", "operator": "United States Postal Service", "operator:short": "USPS", "operator:type": "public", "operator:wikidata": "Q668687", "ref": "6505400002"}, "type": "Feature"}
{"dataset_attributes": {"@spider": "usps_collection_boxes", "spider:collection_time": "2023-11-22T08:26:05.887177"}, "geometry": {"coordinates": [-91.950089091, 38.509831773], "type": "Point"}, "id": "9RQW8kBHkzfhoYBLgKY-lorHw9E=", "properties": {"@spider": "usps_collection_boxes", "addr:city": "LOOSE CREEK", "addr:country": "US", "addr:full": "162 COUNTY ROAD 402 STE 1", "addr:postcode": "65054", "addr:state": "MO", "amenity": "post_box", "brand": "United States Postal Service", "brand:wikidata": "Q668687", "collection_times": "Mo-Fr 10:45; Sa 09:30", "name": "USPS COLLECTION BOX - PO LOBBY", "nsi_id": "unitedstatespostalservice-a77078", "operator": "United States Postal Service", "operator:short": "USPS", "operator:type": "public", "operator:wikidata": "Q668687", "ref": "6505400004"}, "type": "Feature"}
{"dataset_attributes": {"@spider": "usps_collection_boxes", "spider:collection_time": "2023-11-22T08:26:05.887177"}, "geometry": {"coordinates": [-92.474723, 38.61156], "type": "Point"}, "id": "dyslR9JkknU_KsRYtW-hxKwJDec=", "properties": {"@spider": "usps_collection_boxes", "addr:city": "MCGIRK", "addr:country": "US", "addr:full": "31461 EAST ST", "addr:postcode": "65055", "addr:state": "MO", "amenity": "post_box", "brand": "United States Postal Service", "brand:wikidata": "Q668687", "collection_times": "Mo-Fr 13:45; Sa 08:45", "name": "USPS COLLECTION BOX - BLUE BOX", "note": "ON 12/24 AND 12/31, THIS BOX MAY BE COLLECTED AS EARLY AS 12 NOON.", "nsi_id": "unitedstatespostalservice-a77078", "operator": "United States Postal Service", "operator:short": "USPS", "operator:type": "public", "operator:wikidata": "Q668687", "ref": "6505500001"}, "type": "Feature"}
{"dataset_attributes": {"@spider": "usps_collection_boxes", "spider:collection_time": "2023-11-22T08:26:05.887177"}, "geometry": {"coordinates": [-92.474723, 38.61156], "type": "Point"}, "id": "OpSjc0mugyxnjiTxsd0337Hi0EE=", "properties": {"@spider": "usps_collection_boxes", "addr:city": "MCGIRK", "addr:country": "US", "addr:full": "31461 EAST ST", "addr:postcode": "65055", "addr:state": "MO", "amenity": "post_box", "brand": "United States Postal Service", "brand:wikidata": "Q668687", "collection_times": "Mo-Fr 13:45; Sa 08:45", "name": "USPS COLLECTION BOX - PO LOBBY", "note": "ON 12/24 AND 12/31, THIS BOX MAY BE COLLECTED AS EARLY AS 12 NOON.", "nsi_id": "unitedstatespostalservice-a77078", "operator": "United States Postal Service", "operator:short": "USPS", "operator:type": "public", "operator:wikidata": "Q668687", "ref": "6505500002"}, "type": "Feature"}
{"dataset_attributes": {"@spider": "usps_collection_boxes", "spider:collection_time": "2023-11-22T08:26:05.887177"}, "geometry": {"coordinates": [-92.4748965, 38.611395], "type": "Point"}, "id": "2uOCSEQpCDXbt-aDgBJSnZoNmUI=", "properties": {"@spider": "usps_collection_boxes", "addr:city": "MCGIRK", "addr:country": "US", "addr:full": "31461 EAST ST", "addr:postcode": "65055", "addr:state": "MO", "amenity": "post_box", "brand": "United States Postal Service", "brand:wikidata": "Q668687", "collection_times": "Mo-Fr 13:45; Sa 08:45", "name": "USPS COLLECTION BOX - PO LOBBY", "note": "ON 12/24 AND 12/31, THIS BOX MAY BE COLLECTED AS EARLY AS 12 NOON.", "nsi_id": "unitedstatespostalservice-a77078", "operator": "United States Postal Service", "operator:short": "USPS", "operator:type": "public", "operator:wikidata": "Q668687", "ref": "6505500003"}, "type": "Feature"}
{"dataset_attributes": {"@spider": "usps_collection_boxes", "spider:collection_time": "2023-11-22T08:26:05.887177"}, "geometry": {"coordinates": [-92.1670765, 38.312204], "type": "Point"}, "id": "mN80DTddVX9OTK4pLlvYRUflX3s=", "properties": {"@spider": "usps_collection_boxes", "addr:city": "META", "addr:country": "US", "addr:full": "201 3RD ST", "addr:postcode": "65058", "addr:state": "MO", "amenity": "post_box", "brand": "United States Postal Service", "brand:wikidata": "Q668687", "collection_times": "Mo-Fr 14:45; Sa 10:00", "name": "USPS COLLECTION BOX - BLUE BOX", "note": "ON 12/24 AND 12/31, THIS BOX MAY BE COLLECTED AS EARLY AS 12 NOON.", "nsi_id": "unitedstatespostalservice-a77078", "operator": "United States Postal Service", "operator:short": "USPS", "operator:type": "public", "operator:wikidata": "Q668687", "ref": "6505800001"}, "type": "Feature"}
{"dataset_attributes": {"@spider": "usps_collection_boxes", "spider:collection_time": "2023-11-22T08:26:05.887177"}, "geometry": {"coordinates": [-92.1670535, 38.312258], "type": "Point"}, "id": "I_9fz-B9gix1U2Kl7fKlv9ARM5Q=", "properties": {"@spider": "usps_collection_boxes", "addr:city": "META", "addr:country": "US", "addr:full": "201 3RD ST", "addr:postcode": "65058", "addr:state": "MO", "amenity": "post_box", "brand": "United States Postal Service", "brand:wikidata": "Q668687", "collection_times": "Mo-Fr 14:45; Sa 09:45", "name": "USPS COLLECTION BOX - PO LOBBY", "note": "ON 12/24 AND 12/31, THIS BOX MAY BE COLLECTED AS EARLY AS 12 NOON.", "nsi_id": "unitedstatespostalservice-a77078", "operator": "United States Postal Service", "operator:short": "USPS", "operator:type": "public", "operator:wikidata": "Q668687", "ref": "6505800002"}, "type": "Feature"}
{"dataset_attributes": {"@spider": "usps_collection_boxes", "spider:collection_time": "2023-11-22T08:26:05.887177"}, "geometry": {"coordinates": [-92.161945034, 38.312818602], "type": "Point"}, "id": "kIKY0urLEVkNaq6WL26Z84DjNBQ=", "properties": {"@spider": "usps_collection_boxes", "addr:city": "META", "addr:country": "US", "addr:full": "201 3RD ST", "addr:postcode": "65058", "addr:state": "MO", "amenity": "post_box", "brand": "United States Postal Service", "brand:wikidata": "Q668687", "collection_times": "Mo-Fr 14:45; Sa 09:45", "name": "USPS COLLECTION BOX - PO LOBBY", "note": "ON 12/24 AND 12/31, THIS BOX MAY BE COLLECTED AS EARLY AS 12 NOON.", "nsi_id": "unitedstatespostalservice-a77078", "operator": "United States Postal Service", "operator:short": "USPS", "operator:type": "public", "operator:wikidata": "Q668687", "ref": "6505800003"}, "type": "Feature"}
{"dataset_attributes": {"@spider": "usps_collection_boxes", "spider:collection_time": "2023-11-22T08:26:05.887177"}, "geometry": {"coordinates": [-91.873371414, 38.6747839845], "type": "Point"}, "id": "VmjgPAcVOGMBI-Rz8q9gv5vBuCA=", "properties": {"@spider": "usps_collection_boxes", "addr:city": "MOKANE", "addr:country": "US", "addr:full": "212 FULTON AVE", "addr:postcode": "65059", "addr:state": "MO", "amenity": "post_box", "brand": "United States Postal Service", "brand:wikidata": "Q668687", "collection_times": "Mo-Fr 11:15; Sa 09:30", "name": "USPS COLLECTION BOX - BLUE BOX", "nsi_id": "unitedstatespostalservice-a77078", "operator": "United States Postal Service", "operator:short": "USPS", "operator:type": "public", "operator:wikidata": "Q668687", "ref": "6505900001"}, "type": "Feature"}
{"dataset_attributes": {"@spider": "usps_collection_boxes", "spider:collection_time": "2023-11-22T08:26:05.887177"}, "geometry": {"coordinates": [-91.873371414, 38.6747839845], "type": "Point"}, "id": "wyQH7Wwd75BnJPwzZa_FbBgo0Xs=", "properties": {"@spider": "usps_collection_boxes", "addr:city": "MOKANE", "addr:country": "US", "addr:full": "212 FULTON AVE", "addr:postcode": "65059", "addr:state": "MO", "amenity": "post_box", "brand": "United States Postal Service", "brand:wikidata": "Q668687", "collection_times": "Mo-Fr 11:15; Sa 09:30", "name": "USPS COLLECTION BOX - PO LOBBY", "nsi_id": "unitedstatespostalservice-a77078", "operator": "United States Postal Service", "operator:short": "USPS", "operator:type": "public", "operator:wikidata": "Q668687", "ref": "6505900002"}, "type": "Feature"}
{"dataset_attributes": {"@spider": "usps_collection_boxes", "spider:collection_time": "2023-11-22T08:26:05.887177"}, "geometry": {"coordinates": [-91.873371414, 38.6747839845], "type": "Point"}, "id": "7wNs8yGsTAQDfZkPvwf7q15PCcs=", "properties": {"@spider": "usps_collection_boxes", "addr:city": "MOKANE", "addr:country": "US", "addr:full": "212 FULTON AVE", "addr:postcode": "65059", "addr:state": "MO", "amenity": "post_box", "brand": "United States Postal Service", "brand:wikidata": "Q668687", "collection_times": "Mo-Fr 11:15; Sa 09:30", "name": "USPS COLLECTION BOX - PO LOBBY", "nsi_id": "unitedstatespostalservice-a77078", "operator": "United States Postal Service", "operator:short": "USPS", "operator:type": "public", "operator:wikidata": "Q668687", "ref": "6505900003"}, "type": "Feature"}
{"dataset_attributes": {"@spider": "usps_collection_boxes", "spider:collection_time": "2023-11-22T08:26:05.887177"}, "geometry": {"coordinates": [-91.630297862, 38.669240695], "type": "Point"}, "id": "xrY6L74LOO9Vf11FZunraigJdS0=", "properties": {"@spider": "usps_collection_boxes", "addr:city": "MORRISON", "addr:country": "US", "addr:full": "155 MAIN ST", "addr:postcode": "65061", "addr:state": "MO", "amenity": "post_box", "brand": "United States Postal Service", "brand:wikidata": "Q668687", "collection_times": "Mo-Fr 11:15; Sa 09:00", "name": "USPS COLLECTION BOX - BLUE BOX", "nsi_id": "unitedstatespostalservice-a77078", "operator": "United States Postal Service", "operator:short": "USPS", "operator:type": "public", "operator:wikidata": "Q668687", "ref": "6506100001"}, "type": "Feature"}
{"dataset_attributes": {"@spider": "usps_collection_boxes", "spider:collection_time": "2023-11-22T08:26:05.887177"}, "geometry": {"coordinates": [-91.630297862, 38.669240695], "type": "Point"}, "id": "E7HyqDZCn3rT3N88GrPX5A6tavQ=", "properties": {"@spider": "usps_collection_boxes", "addr:city": "MORRISON", "addr:country": "US", "addr:full": "155 MAIN ST", "addr:postcode": "65061", "addr:state": "MO", "amenity": "post_box", "brand": "United States Postal Service", "brand:wikidata": "Q668687", "collection_times": "Mo-Fr 11:15; Sa 09:00", "name": "USPS COLLECTION BOX - PO LOBBY", "nsi_id": "unitedstatespostalservice-a77078", "operator": "United States Postal Service", "operator:short": "USPS", "operator:type": "public", "operator:wikidata": "Q668687", "ref": "6506100002"}, "type": "Feature"}
{"dataset_attributes": {"@spider": "usps_collection_boxes", "spider:collection_time": "2023-11-22T08:26:05.887177"}, "geometry": {"coordinates": [-91.630297862, 38.669240695], "type": "Point"}, "id": "jbJjqav_6_W_d9C7hM_lL5MLG6A=", "properties": {"@spider": "usps_collection_boxes", "addr:city": "MORRISON", "addr:country": "US", "addr:full": "155 MAIN ST", "addr:postcode": "65061", "addr:state": "MO", "amenity": "post_box", "brand": "United States Postal Service", "brand:wikidata": "Q668687", "collection_times": "Mo-Fr 11:15; Sa 09:00", "name": "USPS COLLECTION BOX - PO LOBBY", "nsi_id": "unitedstatespostalservice-a77078", "operator": "United States Postal Service", "operator:short": "USPS", "operator:type": "public", "operator:wikidata": "Q668687", "ref": "6506100004"}, "type": "Feature"}
{"dataset_attributes": {"@spider": "usps_collection_boxes", "spider:collection_time": "2023-11-22T08:26:05.887177"}, "geometry": {"coordinates": [-92.091241, 38.719082], "type": "Point"}, "id": "Bm5of0SFmQ2GLDtLkQVKaOdnZGg=", "properties": {"@spider": "usps_collection_boxes", "addr:city": "NEW BLOOMFIELD", "addr:country": "US", "addr:full": "150 CHESTNUT ST", "addr:postcode": "65063", "addr:state": "MO", "amenity": "post_box", "brand": "United States Postal Service", "brand:wikidata": "Q668687", "collection_times": "Mo-Fr 13:15; Sa 08:45", "name": "USPS COLLECTION BOX - BLUE BOX", "note": "ON 12/24 AND 12/31, THIS BOX MAY BE COLLECTED AS EARLY AS 12 NOON.", "nsi_id": "unitedstatespostalservice-a77078", "operator": "United States Postal Service", "operator:short": "USPS", "operator:type": "public", "operator:wikidata": "Q668687", "ref": "6506300002"}, "type": "Feature"}
{"dataset_attributes": {"@spider": "usps_collection_boxes", "spider:collection_time": "2023-11-22T08:26:05.887177"}, "geometry": {"coordinates": [-92.0960794, 38.717998], "type": "Point"}, "id": "qQI-wb33hBAI67sczdBaXE8d1QA=", "properties": {"@spider": "usps_collection_boxes", "addr:city": "NEW BLOOMFIELD", "addr:country": "US", "addr:full": "712 GOLDEN VILLAGE DR", "addr:postcode": "65063", "addr:state": "MO", "amenity": "post_box", "brand": "United States Postal Service", "brand:wikidata": "Q668687", "collection_times": "Mo-Sa 08:30", "name": "USPS COLLECTION BOX - BLUE BOX", "nsi_id": "unitedstatespostalservice-a77078", "operator": "United States Postal Service", "operator:short": "USPS", "operator:type": "public", "operator:wikidata": "Q668687", "ref": "6506300003"}, "type": "Feature"}
{"dataset_attributes": {"@spider": "usps_collection_boxes", "spider:collection_time": "2023-11-22T08:26:05.887177"}, "geometry": {"coordinates": [-92.091228, 38.719031], "type": "Point"}, "id": "J0Juk7Kx06k0_W7LtUzPXrM3nC4=", "properties": {"@spider": "usps_collection_boxes", "addr:city": "NEW BLOOMFIELD", "addr:country": "US", "addr:full": "150 CHESTNUT ST", "addr:postcode": "65063", "addr:state": "MO", "amenity": "post_box", "brand": "United States Postal Service", "brand:wikidata": "Q668687", "collection_times": "Mo-Fr 13:15; Sa 12:15", "name": "USPS COLLECTION BOX - PO LOBBY", "note": "ON 12/24 AND 12/31, THIS BOX MAY BE COLLECTED AS EARLY AS 12 NOON.", "nsi_id": "unitedstatespostalservice-a77078", "operator": "United States Postal Service", "operator:short": "USPS", "operator:type": "public", "operator:wikidata": "Q668687", "ref": "6506300004"}, "type": "Feature"}
{"dataset_attributes": {"@spider": "usps_collection_boxes", "spider:collection_time": "2023-11-22T08:26:05.887177"}, "geometry": {"coordinates": [-92.09146838, 38.718710597], "type": "Point"}, "id": "8n6IGM3sodupiS5v1sWcceXuvoE=", "properties": {"@spider": "usps_collection_boxes", "addr:city": "NEW BLOOMFIELD", "addr:country": "US", "addr:full": "150 CHESTNUT ST", "addr:postcode": "65063", "addr:state": "MO", "amenity": "post_box", "brand": "United States Postal Service", "brand:wikidata": "Q668687", "collection_times": "Mo-Fr 13:15; Sa 12:15", "name": "USPS COLLECTION BOX - PO LOBBY", "note": "ON 12/24 AND 12/31, THIS BOX MAY BE COLLECTED AS EARLY AS 12 NOON.", "nsi_id": "unitedstatespostalservice-a77078", "operator": "United States Postal Service", "operator:short": "USPS", "operator:type": "public", "operator:wikidata": "Q668687", "ref": "6506300006"}, "type": "Feature"}
{"dataset_attributes": {"@spider": "usps_collection_boxes", "spider:collection_time": "2023-11-22T08:26:05.887177"}, "geometry": {"coordinates": [-92.529924392, 38.410762175], "type": "Point"}, "id": "JHf6UhLU0qMgP4BhXckpC5IV_l4=", "properties": {"@spider": "usps_collection_boxes", "addr:city": "OLEAN", "addr:country": "US", "addr:full": "252 MAIN ST", "addr:postcode": "65064", "addr:state": "MO", "amenity": "post_box", "brand": "United States Postal Service", "brand:wikidata": "Q668687", "collection_times": "Mo-Fr 13:45; Sa 09:30", "name": "USPS COLLECTION BOX - BLUE BOX", "note": "ON 12/24 AND 12/31, THIS BOX MAY BE COLLECTED AS EARLY AS 12 NOON.", "nsi_id": "unitedstatespostalservice-a77078", "operator": "United States Postal Service", "operator:short": "USPS", "operator:type": "public", "operator:wikidata": "Q668687", "ref": "6506400001"}, "type": "Feature"}
{"dataset_attributes": {"@spider": "usps_collection_boxes", "spider:collection_time": "2023-11-22T08:26:05.887177"}, "geometry": {"coordinates": [-92.529924392, 38.410762175], "type": "Point"}, "id": "AsGrk_j1BeBVZ9sE-evTNx0fzzk=", "properties": {"@spider": "usps_collection_boxes", "addr:city": "OLEAN", "addr:country": "US", "addr:full": "252 MAIN ST", "addr:postcode": "65064", "addr:state": "MO", "amenity": "post_box", "brand": "United States Postal Service", "brand:wikidata": "Q668687", "collection_times": "Mo-Fr 13:45; Sa 12:30", "name": "USPS COLLECTION BOX - PO LOBBY", "note": "ON 12/24 AND 12/31, THIS BOX MAY BE COLLECTED AS EARLY AS 12 NOON.", "nsi_id": "unitedstatespostalservice-a77078", "operator": "United States Postal Service", "operator:short": "USPS", "operator:type": "public", "operator:wikidata": "Q668687", "ref": "6506400002"}, "type": "Feature"}
{"dataset_attributes": {"@spider": "usps_collection_boxes", "spider:collection_time": "2023-11-22T08:26:05.887177"}, "geometry": {"coordinates": [-92.529924392, 38.410762175], "type": "Point"}, "id": "pFI0DfMXt0aVEsDubtDtw31YSpY=", "properties": {"@spider": "usps_collection_boxes", "addr:city": "OLEAN", "addr:country": "US", "addr:full": "252 MAIN ST", "addr:postcode": "65064", "addr:state": "MO", "amenity": "post_box", "brand": "United States Postal Service", "brand:wikidata": "Q668687", "collection_times": "Mo-Fr 13:45; Sa 12:30", "name": "USPS COLLECTION BOX - PO LOBBY", "note": "ON 12/24 AND 12/31, THIS BOX MAY BE COLLECTED AS EARLY AS 12 NOON.", "nsi_id": "unitedstatespostalservice-a77078", "operator": "United States Postal Service", "operator:short": "USPS", "operator:type": "public", "operator:wikidata": "Q668687", "ref": "6506400004"}, "type": "Feature"}
{"dataset_attributes": {"@spider": "usps_collection_boxes", "spider:collection_time": "2023-11-22T08:26:05.887177"}, "geometry": {"coordinates": [-92.6884511, 38.113259], "type": "Point"}, "id": "DAZ4ASUxEpl2x2-A3aF2asYDzXM=", "properties": {"@spider": "usps_collection_boxes", "addr:city": "OSAGE BEACH", "addr:country": "US", "addr:full": "6011 OSAGE BEACH PKWY", "addr:postcode": "65065", "addr:state": "MO", "amenity": "post_box", "brand": "United States Postal Service", "brand:wikidata": "Q668687", "collection_times": "Mo-Sa 09:45", "name": "USPS COLLECTION BOX - BLUE BOX", "nsi_id": "unitedstatespostalservice-a77078", "operator": "United States Postal Service", "operator:short": "USPS", "operator:type": "public", "operator:wikidata": "Q668687", "ref": "6506500004"}, "type": "Feature"}
{"dataset_attributes": {"@spider": "usps_collection_boxes", "spider:collection_time": "2023-11-22T08:26:05.887177"}, "geometry": {"coordinates": [-92.6272847, 38.145506], "type": "Point"}, "id": "A0Ak8Jy_0YJut4zzju_JKWAb2Ho=", "properties": {"@spider": "usps_collection_boxes", "addr:city": "OSAGE BEACH", "addr:country": "US", "addr:full": "4540 OSAGE BEACH PKWY", "addr:postcode": "65065", "addr:state": "MO", "amenity": "post_box", "brand": "United States Postal Service", "brand:wikidata": "Q668687", "collection_times": "Mo-Sa 09:00", "name": "USPS COLLECTION BOX - BLUE BOX", "nsi_id": "unitedstatespostalservice-a77078", "operator": "United States Postal Service", "operator:short": "USPS", "operator:type": "public", "operator:wikidata": "Q668687", "ref": "6506500006"}, "type": "Feature"}
{"dataset_attributes": {"@spider": "usps_collection_boxes", "spider:collection_time": "2023-11-22T08:26:05.887177"}, "geometry": {"coordinates": [-92.6083674, 38.16232], "type": "Point"}, "id": "L-GgBf8F1P0GkKoqZEn0f-Kho8w=", "properties": {"@spider": "usps_collection_boxes", "addr:city": "OSAGE BEACH", "addr:country": "US", "addr:full": "3797 OSAGE BEACH PKWY", "addr:postcode": "65065", "addr:state": "MO", "amenity": "post_box", "brand": "United States Postal Service", "brand:wikidata": "Q668687", "collection_times": "Mo-Sa 10:30", "name": "USPS COLLECTION BOX - BLUE BOX", "nsi_id": "unitedstatespostalservice-a77078", "operator": "United States Postal Service", "operator:short": "USPS", "operator:type": "public", "operator:wikidata": "Q668687", "ref": "6506500007"}, "type": "Feature"}
{"dataset_attributes": {"@spider": "usps_collection_boxes", "spider:collection_time": "2023-11-22T08:26:05.887177"}, "geometry": {"coordinates": [-92.6166539, 38.149749], "type": "Point"}, "id": "AWZK-E1cD-85VxDPQdG1FKiGKc8=", "properties": {"@spider": "usps_collection_boxes", "addr:city": "OSAGE BEACH", "addr:country": "US", "addr:full": "4252 OSAGE BEACH PKWY", "addr:postcode": "65065", "addr:state": "MO", "amenity": "post_box", "brand": "United States Postal Service", "brand:wikidata": "Q668687", "collection_times": "Mo-Sa 09:00", "name": "USPS COLLECTION BOX - BLUE BOX", "nsi_id": "unitedstatespostalservice-a77078", "operator": "United States Postal Service", "operator:short": "USPS", "operator:type": "public", "operator:wikidata": "Q668687", "ref": "6506500008"}, "type": "Feature"}
{"dataset_attributes": {"@spider": "usps_collection_boxes", "spider:collection_time": "2023-11-22T08:26:05.887177"}, "geometry": {"coordinates": [-92.669579522, 38.125986765], "type": "Point"}, "id": "jUGDkt2IeIEAXkrNHFppVAptJxI=", "properties": {"@spider": "usps_collection_boxes", "addr:city": "OSAGE BEACH", "addr:country": "US", "addr:full": "5545 OSAGE BEACH PKWY", "addr:postcode": "65065", "addr:state": "MO", "amenity": "post_box", "brand": "United States Postal Service", "brand:wikidata": "Q668687", "collection_times": "Mo-Fr 16:30; Sa 14:00", "name": "USPS COLLECTION BOX - PO LOBBY", "note": "ON 12/24 AND 12/31, THIS BOX MAY BE COLLECTED AS EARLY AS 12 NOON.", "nsi_id": "unitedstatespostalservice-a77078", "operator": "United States Postal Service", "operator:short": "USPS", "operator:type": "public", "operator:wikidata": "Q668687", "ref": "6506500011"}, "type": "Feature"}
{"dataset_attributes": {"@spider": "usps_collection_boxes", "spider:collection_time": "2023-11-22T08:26:05.887177"}, "geometry": {"coordinates": [-92.669579522, 38.125986765], "type": "Point"}, "id": "lusfKVHnal4S7x0HUqMI-vkitys=", "properties": {"@spider": "usps_collection_boxes", "addr:city": "OSAGE BEACH", "addr:country": "US", "addr:full": "5545 OSAGE BEACH PKWY", "addr:postcode": "65065", "addr:state": "MO", "amenity": "post_box", "brand": "United States Postal Service", "brand:wikidata": "Q668687", "collection_times": "Mo-Fr 16:30; Sa 14:00", "name": "USPS COLLECTION BOX - BLUE BOX", "note": "ON 12/24 AND 12/31, THIS BOX MAY BE COLLECTED AS EARLY AS 12 NOON.", "nsi_id": "unitedstatespostalservice-a77078", "operator": "United States Postal Service", "operator:short": "USPS", "operator:type": "public", "operator:wikidata": "Q668687", "ref": "6506500015"}, "type": "Feature"}
{"dataset_attributes": {"@spider": "usps_collection_boxes", "spider:collection_time": "2023-11-22T08:26:05.887177"}, "geometry": {"coordinates": [-92.669579522, 38.125986765], "type": "Point"}, "id": "bWBjFKKIPj4Qvx74SAe6T1m4d7g=", "properties": {"@spider": "usps_collection_boxes", "addr:city": "OSAGE BEACH", "addr:country": "US", "addr:full": "5545 OSAGE BEACH PKWY", "addr:postcode": "65065", "addr:state": "MO", "amenity": "post_box", "brand": "United States Postal Service", "brand:wikidata": "Q668687", "collection_times": "Mo-Fr 16:30; Sa 14:00", "name": "USPS COLLECTION BOX - PO LOBBY", "note": "ON 12/24 AND 12/31, THIS BOX MAY BE COLLECTED AS EARLY AS 12 NOON.", "nsi_id": "unitedstatespostalservice-a77078", "operator": "United States Postal Service", "operator:short": "USPS", "operator:type": "public", "operator:wikidata": "Q668687", "ref": "6506500018"}, "type": "Feature"}
{"dataset_attributes": {"@spider": "usps_collection_boxes", "spider:collection_time": "2023-11-22T08:26:05.887177"}, "geometry": {"coordinates": [-91.501688, 38.34599], "type": "Point"}, "id": "GPe9RByi8unPR6l-ktQM14QH6Xw=", "properties": {"@spider": "usps_collection_boxes", "addr:city": "OWENSVILLE", "addr:country": "US", "addr:full": "200 S 2ND ST", "addr:postcode": "65066", "addr:state": "MO", "amenity": "post_box", "brand": "United States Postal Service", "brand:wikidata": "Q668687", "collection_times": "Mo-Fr 16:15; Sa 12:00", "name": "USPS COLLECTION BOX - BLUE BOX", "note": "ON 12/24 AND 12/31, THIS BOX MAY BE COLLECTED AS EARLY AS 12 NOON.", "nsi_id": "unitedstatespostalservice-a77078", "operator": "United States Postal Service", "operator:short": "USPS", "operator:type": "public", "operator:wikidata": "Q668687", "ref": "6506600005"}, "type": "Feature"}
{"dataset_attributes": {"@spider": "usps_collection_boxes", "spider:collection_time": "2023-11-22T08:26:05.887177"}, "geometry": {"coordinates": [-91.501974346, 38.345113406], "type": "Point"}, "id": "IY8wd2Djh8YwZNRL_V2QUes966Q=", "properties": {"@spider": "usps_collection_boxes", "addr:city": "OWENSVILLE", "addr:country": "US", "addr:full": "201 W LINCOLN AVE", "addr:postcode": "65066", "addr:state": "MO", "amenity": "post_box", "brand": "United States Postal Service", "brand:wikidata": "Q668687", "collection_times": "Mo-Fr 16:15; Sa 12:00", "name": "USPS COLLECTION BOX - PO LOBBY", "note": "ON 12/24 AND 12/31, THIS BOX MAY BE COLLECTED AS EARLY AS 12 NOON.", "nsi_id": "unitedstatespostalservice-a77078", "operator": "United States Postal Service", "operator:short": "USPS", "operator:type": "public", "operator:wikidata": "Q668687", "ref": "6506600015"}, "type": "Feature"}
{"dataset_attributes": {"@spider": "usps_collection_boxes", "spider:collection_time": "2023-11-22T08:26:05.887177"}, "geometry": {"coordinates": [-91.501974346, 38.345113406], "type": "Point"}, "id": "Ju0xdqzgIyq8iI00aHLsYW7LYzA=", "properties": {"@spider": "usps_collection_boxes", "addr:city": "OWENSVILLE", "addr:country": "US", "addr:full": "201 W LINCOLN AVE", "addr:postcode": "65066", "addr:state": "MO", "amenity": "post_box", "brand": "United States Postal Service", "brand:wikidata": "Q668687", "collection_times": "Mo-Fr 16:15; Sa 12:00", "name": "USPS COLLECTION BOX - PO LOBBY", "note": "ON 12/24 AND 12/31, THIS BOX MAY BE COLLECTED AS EARLY AS 12 NOON.", "nsi_id": "unitedstatespostalservice-a77078", "operator": "United States Postal Service", "operator:short": "USPS", "operator:type": "public", "operator:wikidata": "Q668687", "ref": "6506600019"}, "type": "Feature"}
{"dataset_attributes": {"@spider": "usps_collection_boxes", "spider:collection_time": "2023-11-22T08:26:05.887177"}, "geometry": {"coordinates": [-91.719483, 38.710689], "type": "Point"}, "id": "PUoWokPTKAKpEUuQfc18nKa6u10=", "properties": {"@spider": "usps_collection_boxes", "addr:city": "PORTLAND", "addr:country": "US", "addr:full": "10452 STATE ROUTE 94", "addr:postcode": "65067", "addr:state": "MO", "amenity": "post_box", "brand": "United States Postal Service", "brand:wikidata": "Q668687", "collection_times": "Mo-Fr 09:15; Sa 08:30", "name": "USPS COLLECTION BOX - BLUE BOX", "nsi_id": "unitedstatespostalservice-a77078", "operator": "United States Postal Service", "operator:short": "USPS", "operator:type": "public", "operator:wikidata": "Q668687", "ref": "6506700001"}, "type": "Feature"}
{"dataset_attributes": {"@spider": "usps_collection_boxes", "spider:collection_time": "2023-11-22T08:26:05.887177"}, "geometry": {"coordinates": [-91.719483, 38.71069], "type": "Point"}, "id": "Yb4T-kRcGUvjukwx6ipoOsa__ZM=", "properties": {"@spider": "usps_collection_boxes", "addr:city": "PORTLAND", "addr:country": "US", "addr:full": "10452 STATE ROUTE 94", "addr:postcode": "65067", "addr:state": "MO", "amenity": "post_box", "brand": "United States Postal Service", "brand:wikidata": "Q668687", "collection_times": "Mo-Fr 09:15; Sa 08:45", "name": "USPS COLLECTION BOX - PO LOBBY", "nsi_id": "unitedstatespostalservice-a77078", "operator": "United States Postal Service", "operator:short": "USPS", "operator:type": "public", "operator:wikidata": "Q668687", "ref": "6506700002"}, "type": "Feature"}
{"dataset_attributes": {"@spider": "usps_collection_boxes", "spider:collection_time": "2023-11-22T08:26:05.887177"}, "geometry": {"coordinates": [-91.719448725, 38.71064255], "type": "Point"}, "id": "ucq_roXW2PAK_52AtjG36IAzxMs=", "properties": {"@spider": "usps_collection_boxes", "addr:city": "PORTLAND", "addr:country": "US", "addr:full": "10452 STATE ROUTE 94", "addr:postcode": "65067", "addr:state": "MO", "amenity": "post_box", "brand": "United States Postal Service", "brand:wikidata": "Q668687", "collection_times": "Mo-Fr 09:15; Sa 08:45", "name": "USPS COLLECTION BOX - PO LOBBY", "nsi_id": "unitedstatespostalservice-a77078", "operator": "United States Postal Service", "operator:short": "USPS", "operator:type": "public", "operator:wikidata": "Q668687", "ref": "6506700003"}, "type": "Feature"}
{"dataset_attributes": {"@spider": "usps_collection_boxes", "spider:collection_time": "2023-11-22T08:26:05.887177"}, "geometry": {"coordinates": [-92.590588295, 38.813083994], "type": "Point"}, "id": "l_4X0aoaO4c_KywxtJdpOSOjWYg=", "properties": {"@spider": "usps_collection_boxes", "addr:city": "PRAIRIE HOME", "addr:country": "US", "addr:full": "484 MAIN ST", "addr:postcode": "65068", "addr:state": "MO", "amenity": "post_box", "brand": "United States Postal Service", "brand:wikidata": "Q668687", "collection_times": "Mo-Fr 11:15; Sa 09:30", "name": "USPS COLLECTION BOX - BLUE BOX", "nsi_id": "unitedstatespostalservice-a77078", "operator": "United States Postal Service", "operator:short": "USPS", "operator:type": "public", "operator:wikidata": "Q668687", "ref": "6506800001"}, "type": "Feature"}
{"dataset_attributes": {"@spider": "usps_collection_boxes", "spider:collection_time": "2023-11-22T08:26:05.887177"}, "geometry": {"coordinates": [-92.590588295, 38.813083994], "type": "Point"}, "id": "3-scskoHkM0bpj_c4QHe6Pl8-f0=", "properties": {"@spider": "usps_collection_boxes", "addr:city": "PRAIRIE HOME", "addr:country": "US", "addr:full": "484 MAIN ST", "addr:postcode": "65068", "addr:state": "MO", "amenity": "post_box", "brand": "United States Postal Service", "brand:wikidata": "Q668687", "collection_times": "Mo-Fr 11:15; Sa 09:30", "name": "USPS COLLECTION BOX - PO LOBBY", "nsi_id": "unitedstatespostalservice-a77078", "operator": "United States Postal Service", "operator:short": "USPS", "operator:type": "public", "operator:wikidata": "Q668687", "ref": "6506800002"}, "type": "Feature"}
{"dataset_attributes": {"@spider": "usps_collection_boxes", "spider:collection_time": "2023-11-22T08:26:05.887177"}, "geometry": {"coordinates": [-92.590588295, 38.813083994], "type": "Point"}, "id": "5t8ib-yBY9GZwGVCOvvVL66g0-Q=", "properties": {"@spider": "usps_collection_boxes", "addr:city": "PRAIRIE HOME", "addr:country": "US", "addr:full": "484 MAIN ST", "addr:postcode": "65068", "addr:state": "MO", "amenity": "post_box", "brand": "United States Postal Service", "brand:wikidata": "Q668687", "collection_times": "Mo-Fr 11:15; Sa 09:30", "name": "USPS COLLECTION BOX - PO LOBBY", "nsi_id": "unitedstatespostalservice-a77078", "operator": "United States Postal Service", "operator:short": "USPS", "operator:type": "public", "operator:wikidata": "Q668687", "ref": "6506800003"}, "type": "Feature"}
{"dataset_attributes": {"@spider": "usps_collection_boxes", "spider:collection_time": "2023-11-22T08:26:05.887177"}, "geometry": {"coordinates": [-91.516231996, 38.719060989], "type": "Point"}, "id": "7hPZztuQwbI3dNW8HFtbTKUE8fI=", "properties": {"@spider": "usps_collection_boxes", "addr:city": "RHINELAND", "addr:country": "US", "addr:full": "102 BLUFF ST", "addr:postcode": "65069", "addr:state": "MO", "amenity": "post_box", "brand": "United States Postal Service", "brand:wikidata": "Q668687", "collection_times": "Mo-Fr 11:45; Sa 09:30", "name": "USPS COLLECTION BOX - BLUE BOX", "nsi_id": "unitedstatespostalservice-a77078", "operator": "United States Postal Service", "operator:short": "USPS", "operator:type": "public", "operator:wikidata": "Q668687", "ref": "6506900001"}, "type": "Feature"}
{"dataset_attributes": {"@spider": "usps_collection_boxes", "spider:collection_time": "2023-11-22T08:26:05.887177"}, "geometry": {"coordinates": [-91.516231996, 38.719060989], "type": "Point"}, "id": "IUFvS4Kt498eoqPUux8fBgABuOQ=", "properties": {"@spider": "usps_collection_boxes", "addr:city": "RHINELAND", "addr:country": "US", "addr:full": "102 BLUFF ST", "addr:postcode": "65069", "addr:state": "MO", "amenity": "post_box", "brand": "United States Postal Service", "brand:wikidata": "Q668687", "collection_times": "Mo-Fr 11:45; Sa 09:45", "name": "USPS COLLECTION BOX - PO LOBBY", "nsi_id": "unitedstatespostalservice-a77078", "operator": "United States Postal Service", "operator:short": "USPS", "operator:type": "public", "operator:wikidata": "Q668687", "ref": "6506900002"}, "type": "Feature"}
{"dataset_attributes": {"@spider": "usps_collection_boxes", "spider:collection_time": "2023-11-22T08:26:05.887177"}, "geometry": {"coordinates": [-91.516231996, 38.719060989], "type": "Point"}, "id": "zaRoZN3Uh7zX-8OuHXRkgkMRDsk=", "properties": {"@spider": "usps_collection_boxes", "addr:city": "RHINELAND", "addr:country": "US", "addr:full": "102 BLUFF ST", "addr:postcode": "65069", "addr:state": "MO", "amenity": "post_box", "brand": "United States Postal Service", "brand:wikidata": "Q668687", "collection_times": "Mo-Fr 11:45; Sa 09:45", "name": "USPS COLLECTION BOX - PO LOBBY", "nsi_id": "unitedstatespostalservice-a77078", "operator": "United States Postal Service", "operator:short": "USPS", "operator:type": "public", "operator:wikidata": "Q668687", "ref": "6506900003"}, "type": "Feature"}
{"dataset_attributes": {"@spider": "usps_collection_boxes", "spider:collection_time": "2023-11-22T08:26:05.887177"}, "geometry": {"coordinates": [-92.439948, 38.512715], "type": "Point"}, "id": "1CUiVzeg6hOHzG6HKpFT1ubUiMU=", "properties": {"@spider": "usps_collection_boxes", "addr:city": "RUSSELLVILLE", "addr:country": "US", "addr:full": "5103 SIMPSON ST", "addr:postcode": "65074", "addr:state": "MO", "amenity": "post_box", "brand": "United States Postal Service", "brand:wikidata": "Q668687", "collection_times": "Mo-Fr 14:30; Sa 09:45", "name": "USPS COLLECTION BOX - BLUE BOX", "note": "ON 12/24 AND 12/31, THIS BOX MAY BE COLLECTED AS EARLY AS 12 NOON.", "nsi_id": "unitedstatespostalservice-a77078", "operator": "United States Postal Service", "operator:short": "USPS", "operator:type": "public", "operator:wikidata": "Q668687", "ref": "6507400001"}, "type": "Feature"}
{"dataset_attributes": {"@spider": "usps_collection_boxes", "spider:collection_time": "2023-11-22T08:26:05.887177"}, "geometry": {"coordinates": [-92.439971, 38.512732], "type": "Point"}, "id": "s2T0UN8OtWHTY-ZbsL5R1gbR3uk=", "properties": {"@spider": "usps_collection_boxes", "addr:city": "RUSSELLVILLE", "addr:country": "US", "addr:full": "5103 SIMPSON ST", "addr:postcode": "65074", "addr:state": "MO", "amenity": "post_box", "brand": "United States Postal Service", "brand:wikidata": "Q668687", "collection_times": "Mo-Fr 14:30; Sa 09:45", "name": "USPS COLLECTION BOX - PO LOBBY", "note": "ON 12/24 AND 12/31, THIS BOX MAY BE COLLECTED AS EARLY AS 12 NOON.", "nsi_id": "unitedstatespostalservice-a77078", "operator": "United States Postal Service", "operator:short": "USPS", "operator:type": "public", "operator:wikidata": "Q668687", "ref": "6507400002"}, "type": "Feature"}
{"dataset_attributes": {"@spider": "usps_collection_boxes", "spider:collection_time": "2023-11-22T08:26:05.887177"}, "geometry": {"coordinates": [-92.439937857, 38.512763749], "type": "Point"}, "id": "mU57Rg173gCqdxKtMUJXcANg_ss=", "properties": {"@spider": "usps_collection_boxes", "addr:city": "RUSSELLVILLE", "addr:country": "US", "addr:full": "5103 SIMPSON ST", "addr:postcode": "65074", "addr:state": "MO", "amenity": "post_box", "brand": "United States Postal Service", "brand:wikidata": "Q668687", "collection_times": "Mo-Fr 14:30; Sa 09:45", "name": "USPS COLLECTION BOX - PO LOBBY", "note": "ON 12/24 AND 12/31, THIS BOX MAY BE COLLECTED AS EARLY AS 12 NOON.", "nsi_id": "unitedstatespostalservice-a77078", "operator": "United States Postal Service", "operator:short": "USPS", "operator:type": "public", "operator:wikidata": "Q668687", "ref": "6507400004"}, "type": "Feature"}
{"dataset_attributes": {"@spider": "usps_collection_boxes", "spider:collection_time": "2023-11-22T08:26:05.887177"}, "geometry": {"coordinates": [-92.268166, 38.25578], "type": "Point"}, "id": "8ubgrslgXjjqWwfRMfPFL6JzTu8=", "properties": {"@spider": "usps_collection_boxes", "addr:city": "SAINT ELIZABETH", "addr:country": "US", "addr:full": "140 S WALNUT ST", "addr:postcode": "65075", "addr:state": "MO", "amenity": "post_box", "brand": "United States Postal Service", "brand:wikidata": "Q668687", "collection_times": "Mo-Fr 11:45; Sa 10:15", "name": "USPS COLLECTION BOX - BLUE BOX", "nsi_id": "unitedstatespostalservice-a77078", "operator": "United States Postal Service", "operator:short": "USPS", "operator:type": "public", "operator:wikidata": "Q668687", "ref": "6507500001"}, "type": "Feature"}
{"dataset_attributes": {"@spider": "usps_collection_boxes", "spider:collection_time": "2023-11-22T08:26:05.887177"}, "geometry": {"coordinates": [-92.268144, 38.255807], "type": "Point"}, "id": "vMsm2K8dTRmgG40uDjzlfIVK_RE=", "properties": {"@spider": "usps_collection_boxes", "addr:city": "SAINT ELIZABETH", "addr:country": "US", "addr:full": "140 S WALNUT ST", "addr:postcode": "65075", "addr:state": "MO", "amenity": "post_box", "brand": "United States Postal Service", "brand:wikidata": "Q668687", "collection_times": "Mo-Fr 11:45; Sa 10:15", "name": "USPS COLLECTION BOX - PO LOBBY", "nsi_id": "unitedstatespostalservice-a77078", "operator": "United States Postal Service", "operator:short": "USPS", "operator:type": "public", "operator:wikidata": "Q668687", "ref": "6507500002"}, "type": "Feature"}
{"dataset_attributes": {"@spider": "usps_collection_boxes", "spider:collection_time": "2023-11-22T08:26:05.887177"}, "geometry": {"coordinates": [-92.268180033, 38.255732822], "type": "Point"}, "id": "fdvK1Ephn_sCLkg3QAT0Eb5tJoA=", "properties": {"@spider": "usps_collection_boxes", "addr:city": "SAINT ELIZABETH", "addr:country": "US", "addr:full": "140 S WALNUT ST", "addr:postcode": "65075", "addr:state": "MO", "amenity": "post_box", "brand": "United States Postal Service", "brand:wikidata": "Q668687", "collection_times": "Mo-Fr 11:45; Sa 10:15", "name": "USPS COLLECTION BOX - PO LOBBY", "nsi_id": "unitedstatespostalservice-a77078", "operator": "United States Postal Service", "operator:short": "USPS", "operator:type": "public", "operator:wikidata": "Q668687", "ref": "6507500004"}, "type": "Feature"}
{"dataset_attributes": {"@spider": "usps_collection_boxes", "spider:collection_time": "2023-11-22T08:26:05.887177"}, "geometry": {"coordinates": [-92.216381, 38.367943], "type": "Point"}, "id": "QVEX33xPtd8aHtyw9AMwW1Fi82E=", "properties": {"@spider": "usps_collection_boxes", "addr:city": "SAINT THOMAS", "addr:country": "US", "addr:full": "14807 ROUTE B", "addr:postcode": "65076", "addr:state": "MO", "amenity": "post_box", "brand": "United States Postal Service", "brand:wikidata": "Q668687", "collection_times": "Mo-Fr 15:30; Sa 12:45", "name": "USPS COLLECTION BOX - BLUE BOX", "note": "ON 12/24 AND 12/31, THIS BOX MAY BE COLLECTED AS EARLY AS 12 NOON.", "nsi_id": "unitedstatespostalservice-a77078", "operator": "United States Postal Service", "operator:short": "USPS", "operator:type": "public", "operator:wikidata": "Q668687", "ref": "6507600001"}, "type": "Feature"}
{"dataset_attributes": {"@spider": "usps_collection_boxes", "spider:collection_time": "2023-11-22T08:26:05.887177"}, "geometry": {"coordinates": [-92.216416, 38.367898], "type": "Point"}, "id": "MD7x9eSnkD_YTuhtQe0z2L5lPv8=", "properties": {"@spider": "usps_collection_boxes", "addr:city": "SAINT THOMAS", "addr:country": "US", "addr:full": "14807 ROUTE B", "addr:postcode": "65076", "addr:state": "MO", "amenity": "post_box", "brand": "United States Postal Service", "brand:wikidata": "Q668687", "collection_times": "Mo-Fr 15:30; Sa 12:45", "name": "USPS COLLECTION BOX - PO LOBBY", "note": "ON 12/24 AND 12/31, THIS BOX MAY BE COLLECTED AS EARLY AS 12 NOON.", "nsi_id": "unitedstatespostalservice-a77078", "operator": "United States Postal Service", "operator:short": "USPS", "operator:type": "public", "operator:wikidata": "Q668687", "ref": "6507600002"}, "type": "Feature"}
{"dataset_attributes": {"@spider": "usps_collection_boxes", "spider:collection_time": "2023-11-22T08:26:05.887177"}, "geometry": {"coordinates": [-92.216386441, 38.367926497], "type": "Point"}, "id": "UAYCgY4fgpyhue0Elf2j2k-p9nM=", "properties": {"@spider": "usps_collection_boxes", "addr:city": "SAINT THOMAS", "addr:country": "US", "addr:full": "14807 ROUTE B", "addr:postcode": "65076", "addr:state": "MO", "amenity": "post_box", "brand": "United States Postal Service", "brand:wikidata": "Q668687", "collection_times": "Mo-Fr 14:30; Sa 10:45", "name": "USPS COLLECTION BOX - PO LOBBY", "note": "ON 12/24 AND 12/31, THIS BOX MAY BE COLLECTED AS EARLY AS 12 NOON.", "nsi_id": "unitedstatespostalservice-a77078", "operator": "United States Postal Service", "operator:short": "USPS", "operator:type": "public", "operator:wikidata": "Q668687", "ref": "6507600003"}, "type": "Feature"}
{"dataset_attributes": {"@spider": "usps_collection_boxes", "spider:collection_time": "2023-11-22T08:26:05.887177"}, "geometry": {"coordinates": [-91.817168694, 38.7055436849], "type": "Point"}, "id": "uvMKXVfGugtmTV0uqIEo6bGSmJE=", "properties": {"@spider": "usps_collection_boxes", "addr:city": "STEEDMAN", "addr:country": "US", "addr:full": "9635 STATE ROAD CC", "addr:postcode": "65077", "addr:state": "MO", "amenity": "post_box", "brand": "United States Postal Service", "brand:wikidata": "Q668687", "collection_times": "Mo-Fr 14:45; Sa 09:45", "name": "USPS COLLECTION BOX - BLUE BOX", "note": "ON 12/24 AND 12/31, THIS BOX MAY BE COLLECTED AS EARLY AS 12 NOON.", "nsi_id": "unitedstatespostalservice-a77078", "operator": "United States Postal Service", "operator:short": "USPS", "operator:type": "public", "operator:wikidata": "Q668687", "ref": "6507700001"}, "type": "Feature"}
{"dataset_attributes": {"@spider": "usps_collection_boxes", "spider:collection_time": "2023-11-22T08:26:05.887177"}, "geometry": {"coordinates": [-91.817168694, 38.7055436849], "type": "Point"}, "id": "E2cc6rYCbEKNy1jy1VB0yibmi24=", "properties": {"@spider": "usps_collection_boxes", "addr:city": "STEEDMAN", "addr:country": "US", "addr:full": "9635 STATE ROAD CC", "addr:postcode": "65077", "addr:state": "MO", "amenity": "post_box", "brand": "United States Postal Service", "brand:wikidata": "Q668687", "collection_times": "Mo-Fr 14:45; Sa 09:30", "name": "USPS COLLECTION BOX - PO LOBBY", "note": "ON 12/24 AND 12/31, THIS BOX MAY BE COLLECTED AS EARLY AS 12 NOON.", "nsi_id": "unitedstatespostalservice-a77078", "operator": "United States Postal Service", "operator:short": "USPS", "operator:type": "public", "operator:wikidata": "Q668687", "ref": "6507700002"}, "type": "Feature"}
{"dataset_attributes": {"@spider": "usps_collection_boxes", "spider:collection_time": "2023-11-22T08:26:05.887177"}, "geometry": {"coordinates": [-91.817168694, 38.7055436849], "type": "Point"}, "id": "OgR4923ZPqb6XNEAtuHIjwBdP9A=", "properties": {"@spider": "usps_collection_boxes", "addr:city": "STEEDMAN", "addr:country": "US", "addr:full": "9635 STATE ROAD CC", "addr:postcode": "65077", "addr:state": "MO", "amenity": "post_box", "brand": "United States Postal Service", "brand:wikidata": "Q668687", "collection_times": "Mo-Fr 14:45; Sa 09:30", "name": "USPS COLLECTION BOX - PO LOBBY", "note": "ON 12/24 AND 12/31, THIS BOX MAY BE COLLECTED AS EARLY AS 12 NOON.", "nsi_id": "unitedstatespostalservice-a77078", "operator": "United States Postal Service", "operator:short": "USPS", "operator:type": "public", "operator:wikidata": "Q668687", "ref": "6507700003"}, "type": "Feature"}
{"dataset_attributes": {"@spider": "usps_collection_boxes", "spider:collection_time": "2023-11-22T08:26:05.887177"}, "geometry": {"coordinates": [-92.991981, 38.440724], "type": "Point"}, "id": "T6_WRzwJdBZfkvTWPljiL8gvC4k=", "properties": {"@spider": "usps_collection_boxes", "addr:city": "STOVER", "addr:country": "US", "addr:full": "300 W 2ND ST", "addr:postcode": "65078", "addr:state": "MO", "amenity": "post_box", "brand": "United States Postal Service", "brand:wikidata": "Q668687", "collection_times": "Mo-Fr 16:00; Sa 11:00", "name": "USPS COLLECTION BOX - BLUE BOX", "note": "ON 12/24 AND 12/31, THIS BOX MAY BE COLLECTED AS EARLY AS 12 NOON.", "nsi_id": "unitedstatespostalservice-a77078", "operator": "United States Postal Service", "operator:short": "USPS", "operator:type": "public", "operator:wikidata": "Q668687", "ref": "6507800001"}, "type": "Feature"}
{"dataset_attributes": {"@spider": "usps_collection_boxes", "spider:collection_time": "2023-11-22T08:26:05.887177"}, "geometry": {"coordinates": [-92.991981, 38.440724], "type": "Point"}, "id": "CYw6VbNS1ZH2C-qKnWpUhnN80FA=", "properties": {"@spider": "usps_collection_boxes", "addr:city": "STOVER", "addr:country": "US", "addr:full": "300 W 2ND ST", "addr:postcode": "65078", "addr:state": "MO", "amenity": "post_box", "brand": "United States Postal Service", "brand:wikidata": "Q668687", "collection_times": "Mo-Fr 16:00; Sa 11:00", "name": "USPS COLLECTION BOX - PO LOBBY", "note": "ON 12/24 AND 12/31, THIS BOX MAY BE COLLECTED AS EARLY AS 12 NOON.", "nsi_id": "unitedstatespostalservice-a77078", "operator": "United States Postal Service", "operator:short": "USPS", "operator:type": "public", "operator:wikidata": "Q668687", "ref": "6507800002"}, "type": "Feature"}
{"dataset_attributes": {"@spider": "usps_collection_boxes", "spider:collection_time": "2023-11-22T08:26:05.887177"}, "geometry": {"coordinates": [-92.992163254, 38.440695511], "type": "Point"}, "id": "Jgb_FU0tMqbQ5TigGH0yvjUAj4Y=", "properties": {"@spider": "usps_collection_boxes", "addr:city": "STOVER", "addr:country": "US", "addr:full": "300 W 2ND ST", "addr:postcode": "65078", "addr:state": "MO", "amenity": "post_box", "brand": "United States Postal Service", "brand:wikidata": "Q668687", "collection_times": "Mo-Fr 16:00; Sa 11:00", "name": "USPS COLLECTION BOX - PO LOBBY", "note": "ON 12/24 AND 12/31, THIS BOX MAY BE COLLECTED AS EARLY AS 12 NOON.", "nsi_id": "unitedstatespostalservice-a77078", "operator": "United States Postal Service", "operator:short": "USPS", "operator:type": "public", "operator:wikidata": "Q668687", "ref": "6507800004"}, "type": "Feature"}
{"dataset_attributes": {"@spider": "usps_collection_boxes", "spider:collection_time": "2023-11-22T08:26:05.887177"}, "geometry": {"coordinates": [-92.772436, 38.154155], "type": "Point"}, "id": "BWghxFKlEUVmQ7AmFYNZkeiTfk0=", "properties": {"@spider": "usps_collection_boxes", "addr:city": "SUNRISE BEACH", "addr:country": "US", "addr:full": "14190 N STATE HIGHWAY 5", "addr:postcode": "65079", "addr:state": "MO", "amenity": "post_box", "brand": "United States Postal Service", "brand:wikidata": "Q668687", "collection_times": "Mo-Fr 15:30; Sa 11:00", "name": "USPS COLLECTION BOX - BLUE BOX", "note": "ON 12/24 AND 12/31, THIS BOX MAY BE COLLECTED AS EARLY AS 12 NOON.", "nsi_id": "unitedstatespostalservice-a77078", "operator": "United States Postal Service", "operator:short": "USPS", "operator:type": "public", "operator:wikidata": "Q668687", "ref": "6507900001"}, "type": "Feature"}
{"dataset_attributes": {"@spider": "usps_collection_boxes", "spider:collection_time": "2023-11-22T08:26:05.887177"}, "geometry": {"coordinates": [-92.7726126, 38.154325], "type": "Point"}, "id": "Y5gDHBVp5Ri-ZdFijnX8dqysq-Y=", "properties": {"@spider": "usps_collection_boxes", "addr:city": "SUNRISE BEACH", "addr:country": "US", "addr:full": "14190 N STATE HIGHWAY 5", "addr:postcode": "65079", "addr:state": "MO", "amenity": "post_box", "brand": "United States Postal Service", "brand:wikidata": "Q668687", "collection_times": "Mo-Fr 15:30; Sa 11:00", "name": "USPS COLLECTION BOX - PO LOBBY", "note": "ON 12/24 AND 12/31, THIS BOX MAY BE COLLECTED AS EARLY AS 12 NOON.", "nsi_id": "unitedstatespostalservice-a77078", "operator": "United States Postal Service", "operator:short": "USPS", "operator:type": "public", "operator:wikidata": "Q668687", "ref": "6507900004"}, "type": "Feature"}
{"dataset_attributes": {"@spider": "usps_collection_boxes", "spider:collection_time": "2023-11-22T08:26:05.887177"}, "geometry": {"coordinates": [-92.7755118, 38.148133], "type": "Point"}, "id": "eOAsL_lEZNkkm5mb3UYbtz0vDrA=", "properties": {"@spider": "usps_collection_boxes", "addr:city": "SUNRISE BEACH", "addr:country": "US", "addr:full": "13655 N STATE HIGHWAY 5", "addr:postcode": "65079", "addr:state": "MO", "amenity": "post_box", "brand": "United States Postal Service", "brand:wikidata": "Q668687", "collection_times": "Mo-Sa 12:00", "name": "USPS COLLECTION BOX - BLUE BOX", "nsi_id": "unitedstatespostalservice-a77078", "operator": "United States Postal Service", "operator:short": "USPS", "operator:type": "public", "operator:wikidata": "Q668687", "ref": "6507900007"}, "type": "Feature"}
{"dataset_attributes": {"@spider": "usps_collection_boxes", "spider:collection_time": "2023-11-22T08:26:05.887177"}, "geometry": {"coordinates": [-92.772991355, 38.153734645], "type": "Point"}, "id": "_M35bThqzxjIoN3u1kHEyEm8PKk=", "properties": {"@spider": "usps_collection_boxes", "addr:city": "SUNRISE BEACH", "addr:country": "US", "addr:full": "14190 N STATE HIGHWAY 5", "addr:postcode": "65079", "addr:state": "MO", "amenity": "post_box", "brand": "United States Postal Service", "brand:wikidata": "Q668687", "collection_times": "Mo-Fr 15:30; Sa 11:00", "name": "USPS COLLECTION BOX - PO LOBBY", "note": "ON 12/24 AND 12/31, THIS BOX MAY BE COLLECTED AS EARLY AS 12 NOON.", "nsi_id": "unitedstatespostalservice-a77078", "operator": "United States Postal Service", "operator:short": "USPS", "operator:type": "public", "operator:wikidata": "Q668687", "ref": "6507900008"}, "type": "Feature"}
{"dataset_attributes": {"@spider": "usps_collection_boxes", "spider:collection_time": "2023-11-22T08:26:05.887177"}, "geometry": {"coordinates": [-91.948445, 38.621579], "type": "Point"}, "id": "jE8TPUnUljFfxyqPCEWI_rOhTVc=", "properties": {"@spider": "usps_collection_boxes", "addr:city": "TEBBETTS", "addr:country": "US", "addr:full": "5599 COUNTY ROAD 4011", "addr:postcode": "65080", "addr:state": "MO", "amenity": "post_box", "brand": "United States Postal Service", "brand:wikidata": "Q668687", "collection_times": "Mo-Fr 10:45; Sa 09:00", "name": "USPS COLLECTION BOX - BLUE BOX", "nsi_id": "unitedstatespostalservice-a77078", "operator": "United States Postal Service", "operator:short": "USPS", "operator:type": "public", "operator:wikidata": "Q668687", "ref": "6508000001"}, "type": "Feature"}
{"dataset_attributes": {"@spider": "usps_collection_boxes", "spider:collection_time": "2023-11-22T08:26:05.887177"}, "geometry": {"coordinates": [-91.948392, 38.621554], "type": "Point"}, "id": "C67vOTHH5m0LzNiYcIzmudsStG8=", "properties": {"@spider": "usps_collection_boxes", "addr:city": "TEBBETTS", "addr:country": "US", "addr:full": "5599 COUNTY ROAD 4011", "addr:postcode": "65080", "addr:state": "MO", "amenity": "post_box", "brand": "United States Postal Service", "brand:wikidata": "Q668687", "collection_times": "Mo-Fr 10:45; Sa 09:00", "name": "USPS COLLECTION BOX - PO LOBBY", "nsi_id": "unitedstatespostalservice-a77078", "operator": "United States Postal Service", "operator:short": "USPS", "operator:type": "public", "operator:wikidata": "Q668687", "ref": "6508000002"}, "type": "Feature"}
{"dataset_attributes": {"@spider": "usps_collection_boxes", "spider:collection_time": "2023-11-22T08:26:05.887177"}, "geometry": {"coordinates": [-91.948997893, 38.621631965], "type": "Point"}, "id": "plb26GCfkjenK2p0Qp7TiwwBaME=", "properties": {"@spider": "usps_collection_boxes", "addr:city": "TEBBETTS", "addr:country": "US", "addr:full": "5599 COUNTY ROAD 4011", "addr:postcode": "65080", "addr:state": "MO", "amenity": "post_box", "brand": "United States Postal Service", "brand:wikidata": "Q668687", "collection_times": "Mo-Fr 10:45; Sa 09:00", "name": "USPS COLLECTION BOX - PO LOBBY", "nsi_id": "unitedstatespostalservice-a77078", "operator": "United States Postal Service", "operator:short": "USPS", "operator:type": "public", "operator:wikidata": "Q668687", "ref": "6508000003"}, "type": "Feature"}
{"dataset_attributes": {"@spider": "usps_collection_boxes", "spider:collection_time": "2023-11-22T08:26:05.887177"}, "geometry": {"coordinates": [-92.780043, 38.655318], "type": "Point"}, "id": "79nScaEDWXvp2smxehwHe1I2XVg=", "properties": {"@spider": "usps_collection_boxes", "addr:city": "TIPTON", "addr:country": "US", "addr:full": "235 S OSAGE AVE", "addr:postcode": "65081", "addr:state": "MO", "amenity": "post_box", "brand": "United States Postal Service", "brand:wikidata": "Q668687", "collection_times": "Mo-Fr 15:45; Sa 12:00", "name": "USPS COLLECTION BOX - BLUE BOX", "note": "ON 12/24 AND 12/31, THIS BOX MAY BE COLLECTED AS EARLY AS 12 NOON.", "nsi_id": "unitedstatespostalservice-a77078", "operator": "United States Postal Service", "operator:short": "USPS", "operator:type": "public", "operator:wikidata": "Q668687", "ref": "6508100002"}, "type": "Feature"}
{"dataset_attributes": {"@spider": "usps_collection_boxes", "spider:collection_time": "2023-11-22T08:26:05.887177"}, "geometry": {"coordinates": [-92.779996, 38.65536], "type": "Point"}, "id": "VWQeNhmT-bdU--mjcNyPCps6r2w=", "properties": {"@spider": "usps_collection_boxes", "addr:city": "TIPTON", "addr:country": "US", "addr:full": "235 S OSAGE AVE", "addr:postcode": "65081", "addr:state": "MO", "amenity": "post_box", "brand": "United States Postal Service", "brand:wikidata": "Q668687", "collection_times": "Mo-Fr 15:45; Sa 12:00", "name": "USPS COLLECTION BOX - PO LOBBY", "note": "ON 12/24 AND 12/31, THIS BOX MAY BE COLLECTED AS EARLY AS 12 NOON.", "nsi_id": "unitedstatespostalservice-a77078", "operator": "United States Postal Service", "operator:short": "USPS", "operator:type": "public", "operator:wikidata": "Q668687", "ref": "6508100003"}, "type": "Feature"}
{"dataset_attributes": {"@spider": "usps_collection_boxes", "spider:collection_time": "2023-11-22T08:26:05.887177"}, "geometry": {"coordinates": [-92.780055938, 38.655361932], "type": "Point"}, "id": "hlfFHiQZ0Jsvaart1wHn_igtcaY=", "properties": {"@spider": "usps_collection_boxes", "addr:city": "TIPTON", "addr:country": "US", "addr:full": "235 S OSAGE AVE", "addr:postcode": "65081", "addr:state": "MO", "amenity": "post_box", "brand": "United States Postal Service", "brand:wikidata": "Q668687", "collection_times": "Mo-Fr 15:45; Sa 12:00", "name": "USPS COLLECTION BOX - PO LOBBY", "note": "ON 12/24 AND 12/31, THIS BOX MAY BE COLLECTED AS EARLY AS 12 NOON.", "nsi_id": "unitedstatespostalservice-a77078", "operator": "United States Postal Service", "operator:short": "USPS", "operator:type": "public", "operator:wikidata": "Q668687", "ref": "6508100005"}, "type": "Feature"}
{"dataset_attributes": {"@spider": "usps_collection_boxes", "spider:collection_time": "2023-11-22T08:26:05.887177"}, "geometry": {"coordinates": [-92.4614545, 38.236904], "type": "Point"}, "id": "5Ozdom5n-cOngY1tm2iytTpK4-Y=", "properties": {"@spider": "usps_collection_boxes", "addr:city": "TUSCUMBIA", "addr:country": "US", "addr:full": "1972 HIGHWAY 52", "addr:postcode": "65082", "addr:state": "MO", "amenity": "post_box", "brand": "United States Postal Service", "brand:wikidata": "Q668687", "collection_times": "Mo-Fr 11:00; Sa 09:45", "name": "USPS COLLECTION BOX - BLUE BOX", "nsi_id": "unitedstatespostalservice-a77078", "operator": "United States Postal Service", "operator:short": "USPS", "operator:type": "public", "operator:wikidata": "Q668687", "ref": "6508200001"}, "type": "Feature"}
{"dataset_attributes": {"@spider": "usps_collection_boxes", "spider:collection_time": "2023-11-22T08:26:05.887177"}, "geometry": {"coordinates": [-92.461701, 38.237121], "type": "Point"}, "id": "HwwOakI3RaEysd1NpShGr9-xIfc=", "properties": {"@spider": "usps_collection_boxes", "addr:city": "TUSCUMBIA", "addr:country": "US", "addr:full": "1972 HIGHWAY 52", "addr:postcode": "65082", "addr:state": "MO", "amenity": "post_box", "brand": "United States Postal Service", "brand:wikidata": "Q668687", "collection_times": "Mo-Fr 11:15; Sa 10:00", "name": "USPS COLLECTION BOX - PO LOBBY", "nsi_id": "unitedstatespostalservice-a77078", "operator": "United States Postal Service", "operator:short": "USPS", "operator:type": "public", "operator:wikidata": "Q668687", "ref": "6508200002"}, "type": "Feature"}
{"dataset_attributes": {"@spider": "usps_collection_boxes", "spider:collection_time": "2023-11-22T08:26:05.887177"}, "geometry": {"coordinates": [-92.461759553, 38.23712911], "type": "Point"}, "id": "8PhMsQuU4PbVUNQF97OAPjPN_L8=", "properties": {"@spider": "usps_collection_boxes", "addr:city": "TUSCUMBIA", "addr:country": "US", "addr:full": "1972 HIGHWAY 52", "addr:postcode": "65082", "addr:state": "MO", "amenity": "post_box", "brand": "United States Postal Service", "brand:wikidata": "Q668687", "collection_times": "Mo-Fr 11:15; Sa 10:00", "name": "USPS COLLECTION BOX - PO LOBBY", "nsi_id": "unitedstatespostalservice-a77078", "operator": "United States Postal Service", "operator:short": "USPS", "operator:type": "public", "operator:wikidata": "Q668687", "ref": "6508200003"}, "type": "Feature"}
{"dataset_attributes": {"@spider": "usps_collection_boxes", "spider:collection_time": "2023-11-22T08:26:05.887177"}, "geometry": {"coordinates": [-92.444644, 38.1533], "type": "Point"}, "id": "yD_z2e0A6xaCkAM5-P2sCGF_Bp4=", "properties": {"@spider": "usps_collection_boxes", "addr:city": "ULMAN", "addr:country": "US", "addr:full": "357 HIGHWAY C", "addr:postcode": "65083", "addr:state": "MO", "amenity": "post_box", "brand": "United States Postal Service", "brand:wikidata": "Q668687", "collection_times": "Mo-Fr 14:00; Sa 11:30", "name": "USPS COLLECTION BOX - BLUE BOX", "note": "ON 12/24 AND 12/31, THIS BOX MAY BE COLLECTED AS EARLY AS 12 NOON.", "nsi_id": "unitedstatespostalservice-a77078", "operator": "United States Postal Service", "operator:short": "USPS", "operator:type": "public", "operator:wikidata": "Q668687", "ref": "6508300001"}, "type": "Feature"}
{"dataset_attributes": {"@spider": "usps_collection_boxes", "spider:collection_time": "2023-11-22T08:26:05.887177"}, "geometry": {"coordinates": [-92.444644, 38.1533], "type": "Point"}, "id": "OnJoxBHtFe6-EEYf4Hi4hZS9niw=", "properties": {"@spider": "usps_collection_boxes", "addr:city": "ULMAN", "addr:country": "US", "addr:full": "357 HIGHWAY C", "addr:postcode": "65083", "addr:state": "MO", "amenity": "post_box", "brand": "United States Postal Service", "brand:wikidata": "Q668687", "collection_times": "Mo-Fr 14:15; Sa 11:45", "name": "USPS COLLECTION BOX - PO LOBBY", "note": "ON 12/24 AND 12/31, THIS BOX MAY BE COLLECTED AS EARLY AS 12 NOON.", "nsi_id": "unitedstatespostalservice-a77078", "operator": "United States Postal Service", "operator:short": "USPS", "operator:type": "public", "operator:wikidata": "Q668687", "ref": "6508300002"}, "type": "Feature"}
{"dataset_attributes": {"@spider": "usps_collection_boxes", "spider:collection_time": "2023-11-22T08:26:05.887177"}, "geometry": {"coordinates": [-92.444674192, 38.153283531], "type": "Point"}, "id": "FbVCOyuS-lyis4iUKcFrAFNKr1k=", "properties": {"@spider": "usps_collection_boxes", "addr:city": "ULMAN", "addr:country": "US", "addr:full": "357 HIGHWAY C", "addr:postcode": "65083", "addr:state": "MO", "amenity": "post_box", "brand": "United States Postal Service", "brand:wikidata": "Q668687", "collection_times": "Mo-Fr 14:15; Sa 11:45", "name": "USPS COLLECTION BOX - PO LOBBY", "note": "ON 12/24 AND 12/31, THIS BOX MAY BE COLLECTED AS EARLY AS 12 NOON.", "nsi_id": "unitedstatespostalservice-a77078", "operator": "United States Postal Service", "operator:short": "USPS", "operator:type": "public", "operator:wikidata": "Q668687", "ref": "6508300003"}, "type": "Feature"}
{"dataset_attributes": {"@spider": "usps_collection_boxes", "spider:collection_time": "2023-11-22T08:26:05.887177"}, "geometry": {"coordinates": [-92.8420475725, 38.4298913604], "type": "Point"}, "id": "9UmgLmioMKVEtDvqfHUZZ4x9Kko=", "properties": {"@spider": "usps_collection_boxes", "addr:city": "VERSAILLES", "addr:country": "US", "addr:full": "205 S MONROE ST", "addr:postcode": "65084", "addr:state": "MO", "amenity": "post_box", "brand": "United States Postal Service", "brand:wikidata": "Q668687", "collection_times": "Mo-Fr 15:30; Sa 10:30", "name": "USPS COLLECTION BOX - BLUE BOX", "note": "ON 12/24 AND 12/31, THIS BOX MAY BE COLLECTED AS EARLY AS 12 NOON.", "nsi_id": "unitedstatespostalservice-a77078", "operator": "United States Postal Service", "operator:short": "USPS", "operator:type": "public", "operator:wikidata": "Q668687", "ref": "6508400001"}, "type": "Feature"}
{"dataset_attributes": {"@spider": "usps_collection_boxes", "spider:collection_time": "2023-11-22T08:26:05.887177"}, "geometry": {"coordinates": [-92.841972, 38.429892], "type": "Point"}, "id": "h8iAnG1_aouprlEqyGNKhCYos-8=", "properties": {"@spider": "usps_collection_boxes", "addr:city": "VERSAILLES", "addr:country": "US", "addr:full": "205 S MONROE ST", "addr:postcode": "65084", "addr:state": "MO", "amenity": "post_box", "brand": "United States Postal Service", "brand:wikidata": "Q668687", "collection_times": "Mo-Fr 15:30; Sa 10:30", "name": "USPS COLLECTION BOX - PO LOBBY", "note": "ON 12/24 AND 12/31, THIS BOX MAY BE COLLECTED AS EARLY AS 12 NOON.", "nsi_id": "unitedstatespostalservice-a77078", "operator": "United States Postal Service", "operator:short": "USPS", "operator:type": "public", "operator:wikidata": "Q668687", "ref": "6508400009"}, "type": "Feature"}
{"dataset_attributes": {"@spider": "usps_collection_boxes", "spider:collection_time": "2023-11-22T08:26:05.887177"}, "geometry": {"coordinates": [-92.842006384, 38.429912127], "type": "Point"}, "id": "7aLIhI9xHUjcpz2kr7BTY4xZOUg=", "properties": {"@spider": "usps_collection_boxes", "addr:city": "VERSAILLES", "addr:country": "US", "addr:full": "205 S MONROE ST", "addr:postcode": "65084", "addr:state": "MO", "amenity": "post_box", "brand": "United States Postal Service", "brand:wikidata": "Q668687", "collection_times": "Mo-Fr 15:30; Sa 10:30", "name": "USPS COLLECTION BOX - PO LOBBY", "note": "ON 12/24 AND 12/31, THIS BOX MAY BE COLLECTED AS EARLY AS 12 NOON.", "nsi_id": "unitedstatespostalservice-a77078", "operator": "United States Postal Service", "operator:short": "USPS", "operator:type": "public", "operator:wikidata": "Q668687", "ref": "6508400015"}, "type": "Feature"}
{"dataset_attributes": {"@spider": "usps_collection_boxes", "spider:collection_time": "2023-11-22T08:26:05.887177"}, "geometry": {"coordinates": [-91.9963183, 38.44005], "type": "Point"}, "id": "lkJiKoLzp3fhYEw0o6G9VdCqt4I=", "properties": {"@spider": "usps_collection_boxes", "addr:city": "WESTPHALIA", "addr:country": "US", "addr:full": "126 E MAIN ST", "addr:postcode": "65085", "addr:state": "MO", "amenity": "post_box", "brand": "United States Postal Service", "brand:wikidata": "Q668687", "collection_times": "Mo-Fr 14:30; Sa 09:30", "name": "USPS COLLECTION BOX - BLUE BOX", "note": "ON 12/24 AND 12/31, THIS BOX MAY BE COLLECTED AS EARLY AS 12 NOON.", "nsi_id": "unitedstatespostalservice-a77078", "operator": "United States Postal Service", "operator:short": "USPS", "operator:type": "public", "operator:wikidata": "Q668687", "ref": "6508500001"}, "type": "Feature"}
{"dataset_attributes": {"@spider": "usps_collection_boxes", "spider:collection_time": "2023-11-22T08:26:05.887177"}, "geometry": {"coordinates": [-91.996397, 38.44013], "type": "Point"}, "id": "sHUKDFtpWndjrEOikGq_rHkEFUY=", "properties": {"@spider": "usps_collection_boxes", "addr:city": "WESTPHALIA", "addr:country": "US", "addr:full": "126 E MAIN ST", "addr:postcode": "65085", "addr:state": "MO", "amenity": "post_box", "brand": "United States Postal Service", "brand:wikidata": "Q668687", "collection_times": "Mo-Fr 14:30; Sa 09:00", "name": "USPS COLLECTION BOX - PO LOBBY", "note": "ON 12/24 AND 12/31, THIS BOX MAY BE COLLECTED AS EARLY AS 12 NOON.", "nsi_id": "unitedstatespostalservice-a77078", "operator": "United States Postal Service", "operator:short": "USPS", "operator:type": "public", "operator:wikidata": "Q668687", "ref": "6508500002"}, "type": "Feature"}
{"dataset_attributes": {"@spider": "usps_collection_boxes", "spider:collection_time": "2023-11-22T08:26:05.887177"}, "geometry": {"coordinates": [-91.996397, 38.44013], "type": "Point"}, "id": "0Q4LgNFwHzjIJbKrrL48gMcM6zc=", "properties": {"@spider": "usps_collection_boxes", "addr:city": "WESTPHALIA", "addr:country": "US", "addr:full": "126 E MAIN ST", "addr:postcode": "65085", "addr:state": "MO", "amenity": "post_box", "brand": "United States Postal Service", "brand:wikidata": "Q668687", "collection_times": "Mo-Fr 14:30; Sa 09:00", "name": "USPS COLLECTION BOX - PO LOBBY", "note": "ON 12/24 AND 12/31, THIS BOX MAY BE COLLECTED AS EARLY AS 12 NOON.", "nsi_id": "unitedstatespostalservice-a77078", "operator": "United States Postal Service", "operator:short": "USPS", "operator:type": "public", "operator:wikidata": "Q668687", "ref": "6508500003"}, "type": "Feature"}
{"dataset_attributes": {"@spider": "usps_collection_boxes", "spider:collection_time": "2023-11-22T08:26:05.887177"}, "geometry": {"coordinates": [-91.996598236, 38.440213419], "type": "Point"}, "id": "f2SRvZkzQJ2JMDfw-qkhlqL1VqY=", "properties": {"@spider": "usps_collection_boxes", "addr:city": "WESTPHALIA", "addr:country": "US", "addr:full": "126 E MAIN ST", "addr:postcode": "65085", "addr:state": "MO", "amenity": "post_box", "brand": "United States Postal Service", "brand:wikidata": "Q668687", "collection_times": "Mo-Fr 14:30; Sa 09:00", "name": "USPS COLLECTION BOX - PO LOBBY", "note": "ON 12/24 AND 12/31, THIS BOX MAY BE COLLECTED AS EARLY AS 12 NOON.", "nsi_id": "unitedstatespostalservice-a77078", "operator": "United States Postal Service", "operator:short": "USPS", "operator:type": "public", "operator:wikidata": "Q668687", "ref": "6508500005"}, "type": "Feature"}
