{"geometry": {"coordinates": [-92.1742316, 38.577448], "type": "Point"}, "id": "gfEQHbPP227h_62L5qbKEJksGiQ=", "properties": {"@source_uri": "https://tools.usps.com/UspsToolsRestServices/rest/POLocator/findLocations", "@spider": "usps_collection_boxes", "addr:city": "JEFFERSON CITY", "addr:country": "US", "addr:postcode": "65101", "addr:state": "MO", "addr:street_address": "131 W HIGH ST", "amenity": "post_box", "collection_times": "Mo-Fr 17:00; Sa 14:45", "note": "ON 12/24 AND 12/31, THIS BOX MAY BE COLLECTED AS EARLY AS 12 NOON.", "nsi_id": "unitedstatespostalservice-a77078", "operator": "United States Postal Service", "operator:short": "USPS", "operator:type": "public", "operator:wikidata": "Q668687", "ref": "6510100001"}, "type": "Feature"}
{"geometry": {"coordinates": [-92.173451, 38.57748], "type": "Point"}, "id": "7INVewLu_apKAjnu6p2gg5OQkQw=", "properties": {"@source_uri": "https://tools.usps.com/UspsToolsRestServices/rest/POLocator/findLocations", "@spider": "usps_collection_boxes", "addr:city": "JEFFERSON CITY", "addr:country": "US", "addr:postcode": "65101", "addr:state": "MO", "addr:street_address": "131 W HIGH ST", "amenity": "post_box", "collection_times": "Mo-Fr 17:00; Sa 14:15", "indoor": "yes", "note": "ON 12/24 AND 12/31, THIS BOX MAY BE COLLECTED AS EARLY AS 12 NOON.", "nsi_id": "unitedstatespostalservice-a77078", "operator": "United States Postal Service", "operator:short": "USPS", "operator:type": "public", "operator:wikidata": "Q668687", "ref": "6510100006"}, "type": "Feature"}
{"geometry": {"coordinates": [-92.1703871291, 38.5736539578], "type": "Point"}, "id": "QgXNL8n1SwJfeaunfng-Yj-5s7g=", "properties": {"@source_uri": "https://tools.usps.com/UspsToolsRestServices/rest/POLocator/findLocations", "@spider": "usps_collection_boxes", "addr:city": "JEFFERSON CITY", "addr:country": "US", "addr:postcode": "65101", "addr:state": "MO", "addr:street_address": "320 E MCCARTY ST", "amenity": "post_box", "collection_times": "Mo-Sa 14:30", "note": "ON 12/24 AND 12/31, THIS BOX MAY BE COLLECTED AS EARLY AS 12 NOON.", "nsi_id": "unitedstatespostalservice-a77078", "operator": "United States Postal Service", "operator:short": "USPS", "operator:type": "public", "operator:wikidata": "Q668687", "ref": "6510100015"}, "type": "Feature"}
{"geometry": {"coordinates": [-92.1698163, 38.577137], "type": "Point"}, "id": "AVZyNcArYNLxbVPsvVG3UhyqLeg=", "properties": {"@source_uri": "https://tools.usps.com/UspsToolsRestServices/rest/POLocator/findLocations", "@spider": "usps_collection_boxes", "addr:city": "JEFFERSON CITY", "addr:country": "US", "addr:postcode": "65101", "addr:state": "MO", "addr:street_address": "205 E CAPITOL AVE", "amenity": "post_box", "collection_times": "Mo-Sa 15:00", "note": "ON 12/24 AND 12/31, THIS BOX MAY BE COLLECTED AS EARLY AS 12 NOON.", "nsi_id": "unitedstatespostalservice-a77078", "operator": "United States Postal Service", "operator:short": "USPS", "operator:type": "public", "operator:wikidata": "Q668687", "ref": "6510100022"}, "type": "Feature"}
{"geometry": {"coordinates": [-92.1914402365, 38.5514102428], "type": "Point"}, "id": "unXYFfR0lTnLL5OTKiZnD2ESQh0=", "properties": {"@source_uri": "https://tools.usps.com/UspsToolsRestServices/rest/POLocator/findLocations", "@spider": "usps_collection_boxes", "addr:city": "JEFFERSON CITY", "addr:country": "US", "addr:postcode": "65101", "addr:state": "MO", "addr:street_address": "520 ELLIS BLVD", "amenity": "post_box", "collection_times": "Mo-Sa 10:00", "nsi_id": "unitedstatespostalservice-a77078", "operator": "United States Postal Service", "operator:short": "USPS", "operator:type": "public", "operator:wikidata": "Q668687", "ref": "6510100024"}, "type": "Feature"}
{"geometry": {"coordinates": [-92.1892115, 38.560113], "type": "Point"}, "id": "81iol14IfLQkgz0aRi1yGOZ7lmk=", "properties": {"@source_uri": "https://tools.usps.com/UspsToolsRestServices/rest/POLocator/findLocations", "@spider": "usps_collection_boxes", "addr:city": "JEFFERSON CITY", "addr:country": "US", "addr:postcode": "65101", "addr:state": "MO", "addr:street_address": "1445 CHRISTY DR", "amenity": "post_box", "collection_times": "Mo-Sa 13:30", "note": "ON 12/24 AND 12/31, THIS BOX MAY BE COLLECTED AS EARLY AS 12 NOON.", "nsi_id": "unitedstatespostalservice-a77078", "operator": "United States Postal Service", "operator:short": "USPS", "operator:type": "public", "operator:wikidata": "Q668687", "ref": "6510100025"}, "type": "Feature"}
{"geometry": {"coordinates": [-92.1649674749, 38.5715690894], "type": "Point"}, "id": "3tIn3KCCYmIT6C7ML8oQ_BSMlEs=", "properties": {"@source_uri": "https://tools.usps.com/UspsToolsRestServices/rest/POLocator/findLocations", "@spider": "usps_collection_boxes", "addr:city": "JEFFERSON CITY", "addr:country": "US", "addr:postcode": "65101", "addr:state": "MO", "addr:street_address": "628 E HIGH ST", "amenity": "post_box", "collection_times": "Mo-Sa 14:30", "note": "ON 12/24 AND 12/31, THIS BOX MAY BE COLLECTED AS EARLY AS 12 NOON.", "nsi_id": "unitedstatespostalservice-a77078", "operator": "United States Postal Service", "operator:short": "USPS", "operator:type": "public", "operator:wikidata": "Q668687", "ref": "6510100034"}, "type": "Feature"}
{"geometry": {"coordinates": [-92.1713834542, 38.576156564], "type": "Point"}, "id": "dd-jMsebTZckiyWnExhn2dWoLw4=", "properties": {"@source_uri": "https://tools.usps.com/UspsToolsRestServices/rest/POLocator/findLocations", "@spider": "usps_collection_boxes", "addr:city": "JEFFERSON CITY", "addr:country": "US", "addr:postcode": "65101", "addr:state": "MO", "addr:street_address": "132 E HIGH ST", "amenity": "post_box", "collection_times": "Mo-Sa 15:00", "note": "ON 12/24 AND 12/31, THIS BOX MAY BE COLLECTED AS EARLY AS 12 NOON.", "nsi_id": "unitedstatespostalservice-a77078", "operator": "United States Postal Service", "operator:short": "USPS", "operator:type": "public", "operator:wikidata": "Q668687", "ref": "6510100035"}, "type": "Feature"}
{"geometry": {"coordinates": [-92.1697672, 38.57528], "type": "Point"}, "id": "1Oz4DjautVlISsuUWFMwV4jQOG4=", "properties": {"@source_uri": "https://tools.usps.com/UspsToolsRestServices/rest/POLocator/findLocations", "@spider": "usps_collection_boxes", "addr:city": "JEFFERSON CITY", "addr:country": "US", "addr:postcode": "65101", "addr:state": "MO", "addr:street_address": "237 E HIGH ST", "amenity": "post_box", "collection_times": "Mo-Sa 15:00", "note": "ON 12/24 AND 12/31, THIS BOX MAY BE COLLECTED AS EARLY AS 12 NOON.", "nsi_id": "unitedstatespostalservice-a77078", "operator": "United States Postal Service", "operator:short": "USPS", "operator:type": "public", "operator:wikidata": "Q668687", "ref": "6510100037"}, "type": "Feature"}
{"geometry": {"coordinates": [-92.1741983, 38.577471], "type": "Point"}, "id": "9uMatXW9IVBVUdC0Dqf2f7D7lh4=", "properties": {"@source_uri": "https://tools.usps.com/UspsToolsRestServices/rest/POLocator/findLocations", "@spider": "usps_collection_boxes", "addr:city": "JEFFERSON CITY", "addr:country": "US", "addr:postcode": "65101", "addr:state": "MO", "addr:street_address": "131 W HIGH ST", "amenity": "post_box", "collection_times": "Mo-Fr 17:00; Sa 14:45", "note": "ON 12/24 AND 12/31, THIS BOX MAY BE COLLECTED AS EARLY AS 12 NOON.", "nsi_id": "unitedstatespostalservice-a77078", "operator": "United States Postal Service", "operator:short": "USPS", "operator:type": "public", "operator:wikidata": "Q668687", "ref": "6510100054"}, "type": "Feature"}
{"geometry": {"coordinates": [-92.173451, 38.57748], "type": "Point"}, "id": "oHlE9nSTRp9L1d8C0N9TnyUio0w=", "properties": {"@source_uri": "https://tools.usps.com/UspsToolsRestServices/rest/POLocator/findLocations", "@spider": "usps_collection_boxes", "addr:city": "JEFFERSON CITY", "addr:country": "US", "addr:postcode": "65101", "addr:state": "MO", "addr:street_address": "131 W HIGH ST", "amenity": "post_box", "collection_times": "Mo-Fr 17:00; Sa 14:45", "note": "ON 12/24 AND 12/31, THIS BOX MAY BE COLLECTED AS EARLY AS 12 NOON.", "nsi_id": "unitedstatespostalservice-a77078", "operator": "United States Postal Service", "operator:short": "USPS", "operator:type": "public", "operator:wikidata": "Q668687", "ref": "6510100055"}, "type": "Feature"}
{"geometry": {"coordinates": [-92.1742283, 38.577456], "type": "Point"}, "id": "F0ltamFeThymZJYmb3-k5itXzS8=", "properties": {"@source_uri": "https://tools.usps.com/UspsToolsRestServices/rest/POLocator/findLocations", "@spider": "usps_collection_boxes", "addr:city": "JEFFERSON CITY", "addr:country": "US", "addr:postcode": "65101", "addr:state": "MO", "addr:street_address": "131 W HIGH ST", "amenity": "post_box", "collection_times": "Mo-Fr 17:00; Sa 14:45", "note": "ON 12/24 AND 12/31, THIS BOX MAY BE COLLECTED AS EARLY AS 12 NOON.", "nsi_id": "unitedstatespostalservice-a77078", "operator": "United States Postal Service", "operator:short": "USPS", "operator:type": "public", "operator:wikidata": "Q668687", "ref": "6510100056"}, "type": "Feature"}
{"geometry": {"coordinates": [-92.1742062, 38.57747], "type": "Point"}, "id": "l8-JipL7HA8Zzm9r-xY_YwXNCnc=", "properties": {"@source_uri": "https://tools.usps.com/UspsToolsRestServices/rest/POLocator/findLocations", "@spider": "usps_collection_boxes", "addr:city": "JEFFERSON CITY", "addr:country": "US", "addr:postcode": "65101", "addr:state": "MO", "addr:street_address": "131 W HIGH ST", "amenity": "post_box", "collection_times": "Mo-Fr 17:00; Sa 14:45", "note": "ON 12/24 AND 12/31, THIS BOX MAY BE COLLECTED AS EARLY AS 12 NOON.", "nsi_id": "unitedstatespostalservice-a77078", "operator": "United States Postal Service", "operator:short": "USPS", "operator:type": "public", "operator:wikidata": "Q668687", "ref": "6510100057"}, "type": "Feature"}
{"geometry": {"coordinates": [-92.173451, 38.57748], "type": "Point"}, "id": "K9Nv37SFalGnNlJAvVZHfBRQHhk=", "properties": {"@source_uri": "https://tools.usps.com/UspsToolsRestServices/rest/POLocator/findLocations", "@spider": "usps_collection_boxes", "addr:city": "JEFFERSON CITY", "addr:country": "US", "addr:postcode": "65101", "addr:state": "MO", "addr:street_address": "131 W HIGH ST", "amenity": "post_box", "collection_times": "Mo-Fr 17:00; Sa 14:45", "note": "ON 12/24 AND 12/31, THIS BOX MAY BE COLLECTED AS EARLY AS 12 NOON.", "nsi_id": "unitedstatespostalservice-a77078", "operator": "United States Postal Service", "operator:short": "USPS", "operator:type": "public", "operator:wikidata": "Q668687", "ref": "6510100058"}, "type": "Feature"}
{"geometry": {"coordinates": [-92.1487695, 38.548994], "type": "Point"}, "id": "BdDDcnzJiMtedQZM_4dAt2F2qyg=", "properties": {"@source_uri": "https://tools.usps.com/UspsToolsRestServices/rest/POLocator/findLocations", "@spider": "usps_collection_boxes", "addr:city": "JEFFERSON CITY", "addr:country": "US", "addr:postcode": "65101", "addr:state": "MO", "addr:street_address": "821 EASTLAND DR", "amenity": "post_box", "collection_times": "Mo-Sa 12:00", "nsi_id": "unitedstatespostalservice-a77078", "operator": "United States Postal Service", "operator:short": "USPS", "operator:type": "public", "operator:wikidata": "Q668687", "ref": "6510100060"}, "type": "Feature"}
{"geometry": {"coordinates": [-92.1734074, 38.571893], "type": "Point"}, "id": "F7ZNLVerVcd3APqWmDFvBQrPb8U=", "properties": {"@source_uri": "https://tools.usps.com/UspsToolsRestServices/rest/POLocator/findLocations", "@spider": "usps_collection_boxes", "addr:city": "JEFFERSON CITY", "addr:country": "US", "addr:postcode": "65101", "addr:state": "MO", "addr:street_address": "601 MONROE ST", "amenity": "post_box", "collection_times": "Mo-Sa 10:00", "nsi_id": "unitedstatespostalservice-a77078", "operator": "United States Postal Service", "operator:short": "USPS", "operator:type": "public", "operator:wikidata": "Q668687", "ref": "6510100072"}, "type": "Feature"}
{"geometry": {"coordinates": [-92.166585645, 38.5728159584], "type": "Point"}, "id": "PK2Qd5TOh32PP0k8KMQxsMF7kRg=", "properties": {"@source_uri": "https://tools.usps.com/UspsToolsRestServices/rest/POLocator/findLocations", "@spider": "usps_collection_boxes", "addr:city": "JEFFERSON CITY", "addr:country": "US", "addr:postcode": "65101", "addr:state": "MO", "addr:street_address": "515 E HIGH ST", "amenity": "post_box", "collection_times": "Mo-Sa 14:30", "note": "ON 12/24 AND 12/31, THIS BOX MAY BE COLLECTED AS EARLY AS 12 NOON.", "nsi_id": "unitedstatespostalservice-a77078", "operator": "United States Postal Service", "operator:short": "USPS", "operator:type": "public", "operator:wikidata": "Q668687", "ref": "6510100074"}, "type": "Feature"}
{"geometry": {"coordinates": [-92.1926527907, 38.5572734771], "type": "Point"}, "id": "M5l3CEBnZQ5JwK59y-b4ETx56yw=", "properties": {"@source_uri": "https://tools.usps.com/UspsToolsRestServices/rest/POLocator/findLocations", "@spider": "usps_collection_boxes", "addr:city": "JEFFERSON CITY", "addr:country": "US", "addr:postcode": "65101", "addr:state": "MO", "addr:street_address": "1705 CHRISTY DR", "amenity": "post_box", "collection_times": "Mo-Sa 13:30", "note": "ON 12/24 AND 12/31, THIS BOX MAY BE COLLECTED AS EARLY AS 12 NOON.", "nsi_id": "unitedstatespostalservice-a77078", "operator": "United States Postal Service", "operator:short": "USPS", "operator:type": "public", "operator:wikidata": "Q668687", "ref": "6510100077"}, "type": "Feature"}
{"geometry": {"coordinates": [-92.17376, 38.571785], "type": "Point"}, "id": "gaWE6-ernb_DhVWQOTLpOSR7_Qs=", "properties": {"@source_uri": "https://tools.usps.com/UspsToolsRestServices/rest/POLocator/findLocations", "@spider": "usps_collection_boxes", "addr:city": "JEFFERSON CITY", "addr:country": "US", "addr:postcode": "65101", "addr:state": "MO", "addr:street_address": "301 W HIGH ST", "amenity": "post_box", "collection_times": "Mo-Fr 14:30", "note": "ON 12/24 AND 12/31, THIS BOX MAY BE COLLECTED AS EARLY AS 12 NOON.", "nsi_id": "unitedstatespostalservice-a77078", "operator": "United States Postal Service", "operator:short": "USPS", "operator:type": "public", "operator:wikidata": "Q668687", "ref": "6510100084"}, "type": "Feature"}
{"geometry": {"coordinates": [-92.1729540416, 38.5792209993], "type": "Point"}, "id": "sYjoO7Esos4rFHcHDPtxtc7wJVQ=", "properties": {"@source_uri": "https://tools.usps.com/UspsToolsRestServices/rest/POLocator/findLocations", "@spider": "usps_collection_boxes", "addr:city": "JEFFERSON CITY", "addr:country": "US", "addr:postcode": "65101", "addr:state": "MO", "addr:street_address": "201 W CAPITOL AVE", "amenity": "post_box", "collection_times": "Mo-Fr 14:30", "note": "ON 12/24 AND 12/31, THIS BOX MAY BE COLLECTED AS EARLY AS 12 NOON.", "nsi_id": "unitedstatespostalservice-a77078", "operator": "United States Postal Service", "operator:short": "USPS", "operator:type": "public", "operator:wikidata": "Q668687", "ref": "6510100085"}, "type": "Feature"}
{"geometry": {"coordinates": [-92.1663709133, 38.5744540671], "type": "Point"}, "id": "KcCuxvbYk7KYLX2GZhh48QP5ocg=", "properties": {"@source_uri": "https://tools.usps.com/UspsToolsRestServices/rest/POLocator/findLocations", "@spider": "usps_collection_boxes", "addr:city": "JEFFERSON CITY", "addr:country": "US", "addr:postcode": "65101", "addr:state": "MO", "addr:street_address": "428 E CAPITOL AVE", "amenity": "post_box", "collection_times": "Mo-Sa 14:30", "note": "ON 12/24 AND 12/31, THIS BOX MAY BE COLLECTED AS EARLY AS 12 NOON.", "nsi_id": "unitedstatespostalservice-a77078", "operator": "United States Postal Service", "operator:short": "USPS", "operator:type": "public", "operator:wikidata": "Q668687", "ref": "6510100087"}, "type": "Feature"}
{"geometry": {"coordinates": [-92.17335788, 38.577600148], "type": "Point"}, "id": "VeGD8OLLSFtWpqeF09V1p6GutK0=", "properties": {"@source_uri": "https://tools.usps.com/UspsToolsRestServices/rest/POLocator/findLocations", "@spider": "usps_collection_boxes", "addr:city": "JEFFERSON CITY", "addr:country": "US", "addr:postcode": "65101", "addr:state": "MO", "addr:street_address": "131 W HIGH ST RM 104", "amenity": "post_box", "collection_times": "Mo-Fr 17:30; Sa 14:00", "indoor": "yes", "note": "ON 12/24 AND 12/31, THIS BOX MAY BE COLLECTED AS EARLY AS 12 NOON.", "nsi_id": "unitedstatespostalservice-a77078", "operator": "United States Postal Service", "operator:short": "USPS", "operator:type": "public", "operator:wikidata": "Q668687", "ref": "6510100088"}, "type": "Feature"}
{"geometry": {"coordinates": [-92.197292696, 38.55481496], "type": "Point"}, "id": "4NSOgy5gY7phqKOUJ75qSGp_tJ4=", "properties": {"@source_uri": "https://tools.usps.com/UspsToolsRestServices/rest/POLocator/findLocations", "@spider": "usps_collection_boxes", "addr:city": "JEFFERSON CITY", "addr:country": "US", "addr:postcode": "65109", "addr:state": "MO", "addr:street_address": "1750 JEFFERSON ST", "amenity": "post_box", "collection_times": "Mo-Fr 17:00; Sa 14:45", "note": "ON 12/24 AND 12/31, THIS BOX MAY BE COLLECTED AS EARLY AS 12 NOON.", "nsi_id": "unitedstatespostalservice-a77078", "operator": "United States Postal Service", "operator:short": "USPS", "operator:type": "public", "operator:wikidata": "Q668687", "ref": "6510900001"}, "type": "Feature"}
{"geometry": {"coordinates": [-92.197292696, 38.55481496], "type": "Point"}, "id": "aAQOBwek3DohcsTp2LYRoa36YUo=", "properties": {"@source_uri": "https://tools.usps.com/UspsToolsRestServices/rest/POLocator/findLocations", "@spider": "usps_collection_boxes", "addr:city": "JEFFERSON CITY", "addr:country": "US", "addr:postcode": "65109", "addr:state": "MO", "addr:street_address": "1750 JEFFERSON ST", "amenity": "post_box", "collection_times": "Mo-Fr 17:00; Sa 14:45", "note": "ON 12/24 AND 12/31, THIS BOX MAY BE COLLECTED AS EARLY AS 12 NOON.", "nsi_id": "unitedstatespostalservice-a77078", "operator": "United States Postal Service", "operator:short": "USPS", "operator:type": "public", "operator:wikidata": "Q668687", "ref": "6510900002"}, "type": "Feature"}
{"geometry": {"coordinates": [-92.1939784, 38.579457], "type": "Point"}, "id": "HhaYnOMQ3RV1JCUrf0jLaDN7WpU=", "properties": {"@source_uri": "https://tools.usps.com/UspsToolsRestServices/rest/POLocator/findLocations", "@spider": "usps_collection_boxes", "addr:city": "JEFFERSON CITY", "addr:country": "US", "addr:postcode": "65109", "addr:state": "MO", "addr:street_address": "1412 MO BLVD", "amenity": "post_box", "collection_times": "Mo-Sa 15:00", "note": "ON 12/24 AND 12/31, THIS BOX MAY BE COLLECTED AS EARLY AS 12 NOON.", "nsi_id": "unitedstatespostalservice-a77078", "operator": "United States Postal Service", "operator:short": "USPS", "operator:type": "public", "operator:wikidata": "Q668687", "ref": "6510900008"}, "type": "Feature"}
{"geometry": {"coordinates": [-92.1998604, 38.563552], "type": "Point"}, "id": "hx8Pq5AjifxrSGvZBCvsfEhWb8Y=", "properties": {"@source_uri": "https://tools.usps.com/UspsToolsRestServices/rest/POLocator/findLocations", "@spider": "usps_collection_boxes", "addr:city": "JEFFERSON CITY", "addr:country": "US", "addr:postcode": "65109", "addr:state": "MO", "addr:street_address": "1431 SOUTHWEST BLVD", "amenity": "post_box", "collection_times": "Mo-Sa 11:00", "nsi_id": "unitedstatespostalservice-a77078", "operator": "United States Postal Service", "operator:short": "USPS", "operator:type": "public", "operator:wikidata": "Q668687", "ref": "6510900009"}, "type": "Feature"}
{"geometry": {"coordinates": [-92.1993724, 38.571279], "type": "Point"}, "id": "ooSadMKDiSfvXlVhTdoCayLv7R8=", "properties": {"@source_uri": "https://tools.usps.com/UspsToolsRestServices/rest/POLocator/findLocations", "@spider": "usps_collection_boxes", "addr:city": "JEFFERSON CITY", "addr:country": "US", "addr:postcode": "65109", "addr:state": "MO", "addr:street_address": "1705 WOODCLIFT DR", "amenity": "post_box", "collection_times": "Mo-Sa 10:00", "nsi_id": "unitedstatespostalservice-a77078", "operator": "United States Postal Service", "operator:short": "USPS", "operator:type": "public", "operator:wikidata": "Q668687", "ref": "6510900010"}, "type": "Feature"}
{"geometry": {"coordinates": [-92.2000877, 38.553977], "type": "Point"}, "id": "hsBlhTcsEQsuEu-WhAer8Rw78Y4=", "properties": {"@source_uri": "https://tools.usps.com/UspsToolsRestServices/rest/POLocator/findLocations", "@spider": "usps_collection_boxes", "addr:city": "JEFFERSON CITY", "addr:country": "US", "addr:postcode": "65109", "addr:state": "MO", "addr:street_address": "1904 SOUTHWEST BLVD", "amenity": "post_box", "collection_times": "Mo-Sa 15:00", "note": "ON 12/24 AND 12/31, THIS BOX MAY BE COLLECTED AS EARLY AS 12 NOON.", "nsi_id": "unitedstatespostalservice-a77078", "operator": "United States Postal Service", "operator:short": "USPS", "operator:type": "public", "operator:wikidata": "Q668687", "ref": "6510900015"}, "type": "Feature"}
{"geometry": {"coordinates": [-92.197292696, 38.55481496], "type": "Point"}, "id": "X_LhtpjzV6zlOr5mCCYQYxGuMYY=", "properties": {"@source_uri": "https://tools.usps.com/UspsToolsRestServices/rest/POLocator/findLocations", "@spider": "usps_collection_boxes", "addr:city": "JEFFERSON CITY", "addr:country": "US", "addr:postcode": "65109", "addr:state": "MO", "addr:street_address": "1750 JEFFERSON ST", "amenity": "post_box", "collection_times": "Mo-Fr 17:00; Sa 14:45", "note": "ON 12/24 AND 12/31, THIS BOX MAY BE COLLECTED AS EARLY AS 12 NOON.", "nsi_id": "unitedstatespostalservice-a77078", "operator": "United States Postal Service", "operator:short": "USPS", "operator:type": "public", "operator:wikidata": "Q668687", "ref": "6510900034"}, "type": "Feature"}
{"geometry": {"coordinates": [-92.2542724, 38.588035], "type": "Point"}, "id": "rZB8VXA86DH-PrIfPRk_WeKjQk4=", "properties": {"@source_uri": "https://tools.usps.com/UspsToolsRestServices/rest/POLocator/findLocations", "@spider": "usps_collection_boxes", "addr:city": "JEFFERSON CITY", "addr:country": "US", "addr:postcode": "65109", "addr:state": "MO", "addr:street_address": "3721 W TRUMAN BLVD", "amenity": "post_box", "collection_times": "Mo-Fr 16:30; Sa 14:30", "note": "ON 12/24 AND 12/31, THIS BOX MAY BE COLLECTED AS EARLY AS 12 NOON.", "nsi_id": "unitedstatespostalservice-a77078", "operator": "United States Postal Service", "operator:short": "USPS", "operator:type": "public", "operator:wikidata": "Q668687", "ref": "6510900035"}, "type": "Feature"}
{"geometry": {"coordinates": [-92.2250617, 38.594384], "type": "Point"}, "id": "rpuBxCQDRj9DsfqW834XDhOGg08=", "properties": {"@source_uri": "https://tools.usps.com/UspsToolsRestServices/rest/POLocator/findLocations", "@spider": "usps_collection_boxes", "addr:city": "JEFFERSON CITY", "addr:country": "US", "addr:postcode": "65109", "addr:state": "MO", "addr:street_address": "2805 W TRUMAN BLVD", "amenity": "post_box", "collection_times": "Mo-Sa 15:00", "note": "ON 12/24 AND 12/31, THIS BOX MAY BE COLLECTED AS EARLY AS 12 NOON.", "nsi_id": "unitedstatespostalservice-a77078", "operator": "United States Postal Service", "operator:short": "USPS", "operator:type": "public", "operator:wikidata": "Q668687", "ref": "6510900037"}, "type": "Feature"}
{"geometry": {"coordinates": [-92.2140471, 38.577288], "type": "Point"}, "id": "cuipcxmAEz4UGhibpfBpM_9r1NE=", "properties": {"@source_uri": "https://tools.usps.com/UspsToolsRestServices/rest/POLocator/findLocations", "@spider": "usps_collection_boxes", "addr:city": "JEFFERSON CITY", "addr:country": "US", "addr:postcode": "65109", "addr:state": "MO", "addr:street_address": "2421 HYDE PARK RD", "amenity": "post_box", "collection_times": "Mo-Sa 10:00", "nsi_id": "unitedstatespostalservice-a77078", "operator": "United States Postal Service", "operator:short": "USPS", "operator:type": "public", "operator:wikidata": "Q668687", "ref": "6510900038"}, "type": "Feature"}
{"geometry": {"coordinates": [-92.2028677, 38.58149], "type": "Point"}, "id": "4Gka925WlYO7rdDehoN7OtETCyY=", "properties": {"@source_uri": "https://tools.usps.com/UspsToolsRestServices/rest/POLocator/findLocations", "@spider": "usps_collection_boxes", "addr:city": "JEFFERSON CITY", "addr:country": "US", "addr:postcode": "65109", "addr:state": "MO", "addr:street_address": "2002 MO BLVD", "amenity": "post_box", "collection_times": "Mo-Sa 12:00", "nsi_id": "unitedstatespostalservice-a77078", "operator": "United States Postal Service", "operator:short": "USPS", "operator:type": "public", "operator:wikidata": "Q668687", "ref": "6510900039"}, "type": "Feature"}
{"geometry": {"coordinates": [-92.197292696, 38.55481496], "type": "Point"}, "id": "wSBOgd0kUG0dhwNzIVITFgg5d2U=", "properties": {"@source_uri": "https://tools.usps.com/UspsToolsRestServices/rest/POLocator/findLocations", "@spider": "usps_collection_boxes", "addr:city": "JEFFERSON CITY", "addr:country": "US", "addr:postcode": "65109", "addr:state": "MO", "addr:street_address": "1750 JEFFERSON ST", "amenity": "post_box", "collection_times": "Mo-Fr 18:00; Sa 17:15", "indoor": "yes", "note": "ON 12/24 AND 12/31, THIS BOX MAY BE COLLECTED AS EARLY AS 12 NOON.", "nsi_id": "unitedstatespostalservice-a77078", "operator": "United States Postal Service", "operator:short": "USPS", "operator:type": "public", "operator:wikidata": "Q668687", "ref": "6510900040"}, "type": "Feature"}
{"geometry": {"coordinates": [-92.197292696, 38.55481496], "type": "Point"}, "id": "ozyMezNicsvmkog010LfPAeBxHo=", "properties": {"@source_uri": "https://tools.usps.com/UspsToolsRestServices/rest/POLocator/findLocations", "@spider": "usps_collection_boxes", "addr:city": "JEFFERSON CITY", "addr:country": "US", "addr:postcode": "65109", "addr:state": "MO", "addr:street_address": "1750 JEFFERSON ST", "amenity": "post_box", "collection_times": "Mo-Fr 18:15; Sa 17:15", "name": "USPS COLLECTION BOX - APC", "note": "ON 12/24 AND 12/31, THIS BOX MAY BE COLLECTED AS EARLY AS 12 NOON.", "nsi_id": "unitedstatespostalservice-a77078", "operator": "United States Postal Service", "operator:short": "USPS", "operator:type": "public", "operator:wikidata": "Q668687", "ref": "6510900047"}, "type": "Feature"}
{"geometry": {"coordinates": [-92.254874, 38.587142], "type": "Point"}, "id": "YaydSA2nPW9QZP7Ve35ao1OfQDM=", "properties": {"@source_uri": "https://tools.usps.com/UspsToolsRestServices/rest/POLocator/findLocations", "@spider": "usps_collection_boxes", "addr:city": "JEFFERSON CITY", "addr:country": "US", "addr:postcode": "65109", "addr:state": "MO", "addr:street_address": "3723 W TRUMAN BLVD", "amenity": "post_box", "collection_times": "Mo-Fr 16:30; Sa 14:30", "note": "ON 12/24 AND 12/31, THIS BOX MAY BE COLLECTED AS EARLY AS 12 NOON.", "nsi_id": "unitedstatespostalservice-a77078", "operator": "United States Postal Service", "operator:short": "USPS", "operator:type": "public", "operator:wikidata": "Q668687", "ref": "6510900048"}, "type": "Feature"}
{"geometry": {"coordinates": [-92.2396635, 38.570444], "type": "Point"}, "id": "HW2FCm5mKsx_1KjCrFmFIUgQ3lk=", "properties": {"@source_uri": "https://tools.usps.com/UspsToolsRestServices/rest/POLocator/findLocations", "@spider": "usps_collection_boxes", "addr:city": "JEFFERSON CITY", "addr:country": "US", "addr:postcode": "65109", "addr:state": "MO", "addr:street_address": "1000 DIAMOND RDG", "amenity": "post_box", "collection_times": "Mo-Sa 15:00", "note": "ON 12/24 AND 12/31, THIS BOX MAY BE COLLECTED AS EARLY AS 12 NOON.", "nsi_id": "unitedstatespostalservice-a77078", "operator": "United States Postal Service", "operator:short": "USPS", "operator:type": "public", "operator:wikidata": "Q668687", "ref": "6510900049"}, "type": "Feature"}
{"geometry": {"coordinates": [-92.2396565, 38.570432], "type": "Point"}, "id": "1ImE03rekp7NAFxV1PxquOkR0Yk=", "properties": {"@source_uri": "https://tools.usps.com/UspsToolsRestServices/rest/POLocator/findLocations", "@spider": "usps_collection_boxes", "addr:city": "JEFFERSON CITY", "addr:country": "US", "addr:postcode": "65109", "addr:state": "MO", "addr:street_address": "1000 DIAMOND RDG", "amenity": "post_box", "collection_times": "Mo-Sa 15:00", "note": "ON 12/24 AND 12/31, THIS BOX MAY BE COLLECTED AS EARLY AS 12 NOON.", "nsi_id": "unitedstatespostalservice-a77078", "operator": "United States Postal Service", "operator:short": "USPS", "operator:type": "public", "operator:wikidata": "Q668687", "ref": "6510900050"}, "type": "Feature"}
{"geometry": {"coordinates": [-92.1991443, 38.579845], "type": "Point"}, "id": "r3ttX-ma1sV9Ru5XTInYuuCBd5Y=", "properties": {"@source_uri": "https://tools.usps.com/UspsToolsRestServices/rest/POLocator/findLocations", "@spider": "usps_collection_boxes", "addr:city": "JEFFERSON CITY", "addr:country": "US", "addr:postcode": "65109", "addr:state": "MO", "addr:street_address": "1801 MO BLVD", "amenity": "post_box", "collection_times": "Mo-Sa 11:00", "nsi_id": "unitedstatespostalservice-a77078", "operator": "United States Postal Service", "operator:short": "USPS", "operator:type": "public", "operator:wikidata": "Q668687", "ref": "6510900051"}, "type": "Feature"}
{"geometry": {"coordinates": [-92.2140788, 38.57041], "type": "Point"}, "id": "1EZ-owBrhShcoJSWlpgdpHTbWtc=", "properties": {"@source_uri": "https://tools.usps.com/UspsToolsRestServices/rest/POLocator/findLocations", "@spider": "usps_collection_boxes", "addr:city": "JEFFERSON CITY", "addr:country": "US", "addr:postcode": "65109", "addr:state": "MO", "addr:street_address": "1241 W STADIUM BLVD", "amenity": "post_box", "collection_times": "Mo-Sa 14:30", "note": "ON 12/24 AND 12/31, THIS BOX MAY BE COLLECTED AS EARLY AS 12 NOON.", "nsi_id": "unitedstatespostalservice-a77078", "operator": "United States Postal Service", "operator:short": "USPS", "operator:type": "public", "operator:wikidata": "Q668687", "ref": "6510900052"}, "type": "Feature"}
{"geometry": {"coordinates": [-92.197292696, 38.55481496], "type": "Point"}, "id": "aYiY9P4p42hROdFGhgf6gCVopM4=", "properties": {"@source_uri": "https://tools.usps.com/UspsToolsRestServices/rest/POLocator/findLocations", "@spider": "usps_collection_boxes", "addr:city": "JEFFERSON CITY", "addr:country": "US", "addr:postcode": "65109", "addr:state": "MO", "addr:street_address": "1750 JEFFERSON ST", "amenity": "post_box", "collection_times": "Mo-Fr 18:00; Sa 14:00", "indoor": "yes", "note": "ON 12/24 AND 12/31, THIS BOX MAY BE COLLECTED AS EARLY AS 12 NOON.", "nsi_id": "unitedstatespostalservice-a77078", "operator": "United States Postal Service", "operator:short": "USPS", "operator:type": "public", "operator:wikidata": "Q668687", "ref": "6510900056"}, "type": "Feature"}
