{"geometry": {"coordinates": [-92.3209584, 38.971334], "type": "Point"}, "id": "gSMoeTepD_7l6RCJpweS0LH_yUY=", "properties": {"@source_uri": "https://tools.usps.com/UspsToolsRestServices/rest/POLocator/findLocations", "@spider": "usps_collection_boxes", "addr:city": "COLUMBIA", "addr:country": "US", "addr:postcode": "65201", "addr:state": "MO", "addr:street_address": "1301 VANDIVER DR", "amenity": "post_box", "collection_times": "Mo-Sa 12:30", "note": "ON 12/24 AND 12/31, THIS BOX MAY BE COLLECTED AS EARLY AS 12 NOON.", "nsi_id": "unitedstatespostalservice-a77078", "operator": "United States Postal Service", "operator:short": "USPS", "operator:type": "public", "operator:wikidata": "Q668687", "ref": "6520100022"}, "type": "Feature"}
{"geometry": {"coordinates": [-92.3071022, 38.965713], "type": "Point"}, "id": "dxVKZsdtR2BBsTMMNmwo1-AQTdo=", "properties": {"@source_uri": "https://tools.usps.com/UspsToolsRestServices/rest/POLocator/findLocations", "@spider": "usps_collection_boxes", "addr:city": "COLUMBIA", "addr:country": "US", "addr:postcode": "65201", "addr:state": "MO", "addr:street_address": "1401 HATHMAN PL", "amenity": "post_box", "collection_times": "Mo-Sa 09:00", "nsi_id": "unitedstatespostalservice-a77078", "operator": "United States Postal Service", "operator:short": "USPS", "operator:type": "public", "operator:wikidata": "Q668687", "ref": "6520100023"}, "type": "Feature"}
{"geometry": {"coordinates": [-92.2961446, 38.95437], "type": "Point"}, "id": "g6_Uj1eep5kLWW4GA94Is4ajIKo=", "properties": {"@source_uri": "https://tools.usps.com/UspsToolsRestServices/rest/POLocator/findLocations", "@spider": "usps_collection_boxes", "addr:city": "COLUMBIA", "addr:country": "US", "addr:postcode": "65201", "addr:state": "MO", "addr:street_address": "415 CONLEY RD", "amenity": "post_box", "collection_times": "Mo-Sa 09:30", "nsi_id": "unitedstatespostalservice-a77078", "operator": "United States Postal Service", "operator:short": "USPS", "operator:type": "public", "operator:wikidata": "Q668687", "ref": "6520100028"}, "type": "Feature"}
{"geometry": {"coordinates": [-92.3336307, 38.909539], "type": "Point"}, "id": "QDHEK3XeeKfi63_ZvM2-AWnhV14=", "properties": {"@source_uri": "https://tools.usps.com/UspsToolsRestServices/rest/POLocator/findLocations", "@spider": "usps_collection_boxes", "addr:city": "COLUMBIA", "addr:country": "US", "addr:postcode": "65201", "addr:state": "MO", "addr:street_address": "3709 SANDMAN LN", "amenity": "post_box", "collection_times": "Mo-Fr 16:00; Sa 11:45", "note": "ON 12/24 AND 12/31, THIS BOX MAY BE COLLECTED AS EARLY AS 12 NOON.", "nsi_id": "unitedstatespostalservice-a77078", "operator": "United States Postal Service", "operator:short": "USPS", "operator:type": "public", "operator:wikidata": "Q668687", "ref": "6520100032"}, "type": "Feature"}
{"geometry": {"coordinates": [-92.2741686, 38.93848], "type": "Point"}, "id": "J4h3cQwQc5SWL353lhLQKIOIiC4=", "properties": {"@source_uri": "https://tools.usps.com/UspsToolsRestServices/rest/POLocator/findLocations", "@spider": "usps_collection_boxes", "addr:city": "COLUMBIA", "addr:country": "US", "addr:postcode": "65201", "addr:state": "MO", "addr:street_address": "1079 S EL CHAPARRAL AVE", "amenity": "post_box", "collection_times": "Mo-Sa 10:00", "nsi_id": "unitedstatespostalservice-a77078", "operator": "United States Postal Service", "operator:short": "USPS", "operator:type": "public", "operator:wikidata": "Q668687", "ref": "6520100034"}, "type": "Feature"}
{"geometry": {"coordinates": [-92.331017591, 38.945876051], "type": "Point"}, "id": "LqAWKsS3p6YaZvooYeQ0DlxWYzI=", "properties": {"@source_uri": "https://tools.usps.com/UspsToolsRestServices/rest/POLocator/findLocations", "@spider": "usps_collection_boxes", "addr:city": "COLUMBIA", "addr:country": "US", "addr:postcode": "65201", "addr:state": "MO", "addr:street_address": "600 E STEWART", "amenity": "post_box", "collection_times": "Mo-Sa 11:00", "nsi_id": "unitedstatespostalservice-a77078", "operator": "United States Postal Service", "operator:short": "USPS", "operator:type": "public", "operator:wikidata": "Q668687", "ref": "6520100042"}, "type": "Feature"}
{"geometry": {"coordinates": [-92.3274664858, 38.9465072847], "type": "Point"}, "id": "sgD5etg8Iqu3-GHu2x2PdpsPypk=", "properties": {"@source_uri": "https://tools.usps.com/UspsToolsRestServices/rest/POLocator/findLocations", "@spider": "usps_collection_boxes", "addr:city": "COLUMBIA", "addr:country": "US", "addr:postcode": "65201", "addr:state": "MO", "addr:street_address": "903 UNIVERSITY AVE", "amenity": "post_box", "collection_times": "Mo-Sa 10:00", "nsi_id": "unitedstatespostalservice-a77078", "operator": "United States Postal Service", "operator:short": "USPS", "operator:type": "public", "operator:wikidata": "Q668687", "ref": "6520100051"}, "type": "Feature"}
{"geometry": {"coordinates": [-92.3093676, 38.97185], "type": "Point"}, "id": "fEcPcaFnrpjcmahDjlpcCFBNXVA=", "properties": {"@source_uri": "https://tools.usps.com/UspsToolsRestServices/rest/POLocator/findLocations", "@spider": "usps_collection_boxes", "addr:city": "COLUMBIA", "addr:country": "US", "addr:postcode": "65201", "addr:state": "MO", "addr:street_address": "1611 BURLINGTON ST", "amenity": "post_box", "collection_times": "Mo-Fr 12:30; Sa 12:00", "note": "ON 12/24 AND 12/31, THIS BOX MAY BE COLLECTED AS EARLY AS 12 NOON.", "nsi_id": "unitedstatespostalservice-a77078", "operator": "United States Postal Service", "operator:short": "USPS", "operator:type": "public", "operator:wikidata": "Q668687", "ref": "6520100056"}, "type": "Feature"}
{"geometry": {"coordinates": [-92.2896159, 38.956894], "type": "Point"}, "id": "m3kwRIEdgEw2t6Ph4mG1Lm-MyDc=", "properties": {"@source_uri": "https://tools.usps.com/UspsToolsRestServices/rest/POLocator/findLocations", "@spider": "usps_collection_boxes", "addr:city": "COLUMBIA", "addr:country": "US", "addr:postcode": "65201", "addr:state": "MO", "addr:street_address": "404 N KEENE ST", "amenity": "post_box", "collection_times": "Mo-Fr 13:00; Sa 12:00", "note": "ON 12/24 AND 12/31, THIS BOX MAY BE COLLECTED AS EARLY AS 12 NOON.", "nsi_id": "unitedstatespostalservice-a77078", "operator": "United States Postal Service", "operator:short": "USPS", "operator:type": "public", "operator:wikidata": "Q668687", "ref": "6520100063"}, "type": "Feature"}
{"geometry": {"coordinates": [-92.3087029868, 38.9482819796], "type": "Point"}, "id": "5p-vSlGfbM7o36_EHkMl-wuBAMc=", "properties": {"@source_uri": "https://tools.usps.com/UspsToolsRestServices/rest/POLocator/findLocations", "@spider": "usps_collection_boxes", "addr:city": "COLUMBIA", "addr:country": "US", "addr:postcode": "65201", "addr:state": "MO", "addr:street_address": "2012 E BROADWAY", "amenity": "post_box", "collection_times": "Mo-Fr 15:30; Sa 12:00", "note": "ON 12/24 AND 12/31, THIS BOX MAY BE COLLECTED AS EARLY AS 12 NOON.", "nsi_id": "unitedstatespostalservice-a77078", "operator": "United States Postal Service", "operator:short": "USPS", "operator:type": "public", "operator:wikidata": "Q668687", "ref": "6520100070"}, "type": "Feature"}
{"geometry": {"coordinates": [-92.2957038, 38.914578], "type": "Point"}, "id": "qwcNdJjG0ZFXUqbIW2M8D8UPugo=", "properties": {"@source_uri": "https://tools.usps.com/UspsToolsRestServices/rest/POLocator/findLocations", "@spider": "usps_collection_boxes", "addr:city": "COLUMBIA", "addr:country": "US", "addr:postcode": "65201", "addr:state": "MO", "addr:street_address": "2909 FALLING LEAF LN", "amenity": "post_box", "collection_times": "Mo-Sa 10:00", "nsi_id": "unitedstatespostalservice-a77078", "operator": "United States Postal Service", "operator:short": "USPS", "operator:type": "public", "operator:wikidata": "Q668687", "ref": "6520100071"}, "type": "Feature"}
{"geometry": {"coordinates": [-92.3369813, 38.916035], "type": "Point"}, "id": "4p9I2Qrp3cMHo16wFVqDxnaPPCk=", "properties": {"@source_uri": "https://tools.usps.com/UspsToolsRestServices/rest/POLocator/findLocations", "@spider": "usps_collection_boxes", "addr:city": "COLUMBIA", "addr:country": "US", "addr:postcode": "65201", "addr:state": "MO", "addr:street_address": "212 E GREEN MEADOWS RD", "amenity": "post_box", "collection_times": "Mo-Sa 09:30", "nsi_id": "unitedstatespostalservice-a77078", "operator": "United States Postal Service", "operator:short": "USPS", "operator:type": "public", "operator:wikidata": "Q668687", "ref": "6520100074"}, "type": "Feature"}
{"geometry": {"coordinates": [-92.3100124, 38.965215], "type": "Point"}, "id": "l4Wph7ZTWmIhWEIsYmn-UNJ485w=", "properties": {"@source_uri": "https://tools.usps.com/UspsToolsRestServices/rest/POLocator/findLocations", "@spider": "usps_collection_boxes", "addr:city": "COLUMBIA", "addr:country": "US", "addr:postcode": "65201", "addr:state": "MO", "addr:street_address": "1812 PARIS RD", "amenity": "post_box", "collection_times": "Mo-Sa 10:00", "nsi_id": "unitedstatespostalservice-a77078", "operator": "United States Postal Service", "operator:short": "USPS", "operator:type": "public", "operator:wikidata": "Q668687", "ref": "6520100076"}, "type": "Feature"}
{"geometry": {"coordinates": [-92.330758, 38.939308], "type": "Point"}, "id": "-uK1Tf618suki7i_Bb9nV64N_ss=", "properties": {"@source_uri": "https://tools.usps.com/UspsToolsRestServices/rest/POLocator/findLocations", "@spider": "usps_collection_boxes", "addr:city": "COLUMBIA", "addr:country": "US", "addr:postcode": "65201", "addr:state": "MO", "addr:street_address": "502 KENTUCKY BLVD", "amenity": "post_box", "collection_times": "Mo-Sa 11:00", "nsi_id": "unitedstatespostalservice-a77078", "operator": "United States Postal Service", "operator:short": "USPS", "operator:type": "public", "operator:wikidata": "Q668687", "ref": "6520100084"}, "type": "Feature"}
{"geometry": {"coordinates": [-92.4334681, 38.973228], "type": "Point"}, "id": "jVhahr4cTfpwriAib9bCnPQKp1A=", "properties": {"@source_uri": "https://tools.usps.com/UspsToolsRestServices/rest/POLocator/findLocations", "@spider": "usps_collection_boxes", "addr:city": "COLUMBIA", "addr:country": "US", "addr:postcode": "65201", "addr:state": "MO", "addr:street_address": "6401 HIGHWAY 40 WEST RD", "amenity": "post_box", "collection_times": "Mo-Sa 10:00", "nsi_id": "unitedstatespostalservice-a77078", "operator": "United States Postal Service", "operator:short": "USPS", "operator:type": "public", "operator:wikidata": "Q668687", "ref": "6520100085"}, "type": "Feature"}
{"geometry": {"coordinates": [-92.3293647477, 38.9091001959], "type": "Point"}, "id": "IN_s-uht0ziSltxIA9ziGVT67kE=", "properties": {"@source_uri": "https://tools.usps.com/UspsToolsRestServices/rest/POLocator/findLocations", "@spider": "usps_collection_boxes", "addr:city": "COLUMBIA", "addr:country": "US", "addr:postcode": "65201", "addr:state": "MO", "addr:street_address": "3700 HYDE PARK AVE", "amenity": "post_box", "collection_times": "Mo-Sa 11:30", "nsi_id": "unitedstatespostalservice-a77078", "operator": "United States Postal Service", "operator:short": "USPS", "operator:type": "public", "operator:wikidata": "Q668687", "ref": "6520100089"}, "type": "Feature"}
{"geometry": {"coordinates": [-92.2882131, 38.960629], "type": "Point"}, "id": "92evzPCPZhwLCVgJboQWj-5WOjk=", "properties": {"@source_uri": "https://tools.usps.com/UspsToolsRestServices/rest/POLocator/findLocations", "@spider": "usps_collection_boxes", "addr:city": "COLUMBIA", "addr:country": "US", "addr:postcode": "65201", "addr:state": "MO", "addr:street_address": "900 N KEENE ST", "amenity": "post_box", "collection_times": "Mo-Sa 10:00", "nsi_id": "unitedstatespostalservice-a77078", "operator": "United States Postal Service", "operator:short": "USPS", "operator:type": "public", "operator:wikidata": "Q668687", "ref": "6520100090"}, "type": "Feature"}
{"geometry": {"coordinates": [-92.3304278, 38.911311], "type": "Point"}, "id": "5-w3sVjtamzDd3xlhUpFFFjjCwc=", "properties": {"@source_uri": "https://tools.usps.com/UspsToolsRestServices/rest/POLocator/findLocations", "@spider": "usps_collection_boxes", "addr:city": "COLUMBIA", "addr:country": "US", "addr:postcode": "65201", "addr:state": "MO", "addr:street_address": "3610 BUTTONWOOD DR", "amenity": "post_box", "collection_times": "Mo-Sa 10:00", "nsi_id": "unitedstatespostalservice-a77078", "operator": "United States Postal Service", "operator:short": "USPS", "operator:type": "public", "operator:wikidata": "Q668687", "ref": "6520100091"}, "type": "Feature"}
{"geometry": {"coordinates": [-92.3246228, 38.963885], "type": "Point"}, "id": "qYY5SE1Hy0bFwYKa5pG8-opDAgE=", "properties": {"@source_uri": "https://tools.usps.com/UspsToolsRestServices/rest/POLocator/findLocations", "@spider": "usps_collection_boxes", "addr:city": "COLUMBIA", "addr:country": "US", "addr:postcode": "65201", "addr:state": "MO", "addr:street_address": "1102 BUSINESS LOOP 70 E", "amenity": "post_box", "collection_times": "Mo-Sa 12:00", "nsi_id": "unitedstatespostalservice-a77078", "operator": "United States Postal Service", "operator:short": "USPS", "operator:type": "public", "operator:wikidata": "Q668687", "ref": "6520100097"}, "type": "Feature"}
{"geometry": {"coordinates": [-92.3176383, 38.93465], "type": "Point"}, "id": "oErRjm4ULNYPaRZotj69oecvK7s=", "properties": {"@source_uri": "https://tools.usps.com/UspsToolsRestServices/rest/POLocator/findLocations", "@spider": "usps_collection_boxes", "addr:city": "COLUMBIA", "addr:country": "US", "addr:postcode": "65201", "addr:state": "MO", "addr:street_address": "1133 ASHLAND RD", "amenity": "post_box", "collection_times": "Mo-Sa 11:00", "nsi_id": "unitedstatespostalservice-a77078", "operator": "United States Postal Service", "operator:short": "USPS", "operator:type": "public", "operator:wikidata": "Q668687", "ref": "6520100099"}, "type": "Feature"}
{"geometry": {"coordinates": [-92.3051795, 38.967361], "type": "Point"}, "id": "xbmxOdG0o7UTCdPqAPO-MAyuMZk=", "properties": {"@source_uri": "https://tools.usps.com/UspsToolsRestServices/rest/POLocator/findLocations", "@spider": "usps_collection_boxes", "addr:city": "COLUMBIA", "addr:country": "US", "addr:postcode": "65201", "addr:state": "MO", "addr:street_address": "1548 TOWNE DR", "amenity": "post_box", "collection_times": "Mo-Sa 10:00", "nsi_id": "unitedstatespostalservice-a77078", "operator": "United States Postal Service", "operator:short": "USPS", "operator:type": "public", "operator:wikidata": "Q668687", "ref": "6520100104"}, "type": "Feature"}
{"geometry": {"coordinates": [-92.3184259, 38.942002], "type": "Point"}, "id": "llpa2gTO7j-4Z804AW_gnNN5HXY=", "properties": {"@source_uri": "https://tools.usps.com/UspsToolsRestServices/rest/POLocator/findLocations", "@spider": "usps_collection_boxes", "addr:city": "COLUMBIA", "addr:country": "US", "addr:postcode": "65201", "addr:state": "MO", "addr:street_address": "1306 E ROLLINS ST", "amenity": "post_box", "collection_times": "Mo-Sa 11:00", "nsi_id": "unitedstatespostalservice-a77078", "operator": "United States Postal Service", "operator:short": "USPS", "operator:type": "public", "operator:wikidata": "Q668687", "ref": "6520100113"}, "type": "Feature"}
{"geometry": {"coordinates": [-92.309809, 38.908202], "type": "Point"}, "id": "Fcu-N596XU_IwfdmsXkYxeHHDqU=", "properties": {"@source_uri": "https://tools.usps.com/UspsToolsRestServices/rest/POLocator/findLocations", "@spider": "usps_collection_boxes", "addr:city": "COLUMBIA", "addr:country": "US", "addr:postcode": "65201", "addr:state": "MO", "addr:street_address": "3800 HERMITAGE RD", "amenity": "post_box", "collection_times": "Mo-Sa 10:00", "nsi_id": "unitedstatespostalservice-a77078", "operator": "United States Postal Service", "operator:short": "USPS", "operator:type": "public", "operator:wikidata": "Q668687", "ref": "6520100114"}, "type": "Feature"}
{"geometry": {"coordinates": [-92.3550673, 38.906697], "type": "Point"}, "id": "pV9JQ1-HgYBp75ZHgsT3cx17ofo=", "properties": {"@source_uri": "https://tools.usps.com/UspsToolsRestServices/rest/POLocator/findLocations", "@spider": "usps_collection_boxes", "addr:city": "COLUMBIA", "addr:country": "US", "addr:postcode": "65201", "addr:state": "MO", "addr:street_address": "1000 W NIFONG BLVD", "amenity": "post_box", "collection_times": "Mo-Sa 09:30", "nsi_id": "unitedstatespostalservice-a77078", "operator": "United States Postal Service", "operator:short": "USPS", "operator:type": "public", "operator:wikidata": "Q668687", "ref": "6520100117"}, "type": "Feature"}
{"geometry": {"coordinates": [-92.2237758, 38.815622], "type": "Point"}, "id": "nVR4NMTg9Nzn1qnrwFqrhnpWyOE=", "properties": {"@source_uri": "https://tools.usps.com/UspsToolsRestServices/rest/POLocator/findLocations", "@spider": "usps_collection_boxes", "addr:city": "COLUMBIA", "addr:country": "US", "addr:postcode": "65201", "addr:state": "MO", "addr:street_address": "11200 S AIRPORT DR", "amenity": "post_box", "collection_times": "Mo-Sa 10:00", "nsi_id": "unitedstatespostalservice-a77078", "operator": "United States Postal Service", "operator:short": "USPS", "operator:type": "public", "operator:wikidata": "Q668687", "ref": "6520100118"}, "type": "Feature"}
{"geometry": {"coordinates": [-92.3339972, 38.909682], "type": "Point"}, "id": "W03Y5O__Whis-ZEl-aNmNJOGUP8=", "properties": {"@source_uri": "https://tools.usps.com/UspsToolsRestServices/rest/POLocator/findLocations", "@spider": "usps_collection_boxes", "addr:city": "COLUMBIA", "addr:country": "US", "addr:postcode": "65201", "addr:state": "MO", "addr:street_address": "3709 SANDMAN LN", "amenity": "post_box", "collection_times": "Mo-Fr 16:00; Sa 11:45", "indoor": "yes", "note": "ON 12/24 AND 12/31, THIS BOX MAY BE COLLECTED AS EARLY AS 12 NOON.", "nsi_id": "unitedstatespostalservice-a77078", "operator": "United States Postal Service", "operator:short": "USPS", "operator:type": "public", "operator:wikidata": "Q668687", "ref": "6520100128"}, "type": "Feature"}
{"geometry": {"coordinates": [-92.3473943, 38.908207], "type": "Point"}, "id": "Wtmpg1rIsom_XX58LPMUuvH3wl8=", "properties": {"@source_uri": "https://tools.usps.com/UspsToolsRestServices/rest/POLocator/findLocations", "@spider": "usps_collection_boxes", "addr:city": "COLUMBIA", "addr:country": "US", "addr:postcode": "65201", "addr:state": "MO", "addr:street_address": "601 W NIFONG BLVD", "amenity": "post_box", "collection_times": "Mo-Sa 09:30", "nsi_id": "unitedstatespostalservice-a77078", "operator": "United States Postal Service", "operator:short": "USPS", "operator:type": "public", "operator:wikidata": "Q668687", "ref": "6520100133"}, "type": "Feature"}
{"geometry": {"coordinates": [-92.2910149, 38.916383], "type": "Point"}, "id": "mm1A9TDECHEwpqwxztZYNmwCcHc=", "properties": {"@source_uri": "https://tools.usps.com/UspsToolsRestServices/rest/POLocator/findLocations", "@spider": "usps_collection_boxes", "addr:city": "COLUMBIA", "addr:country": "US", "addr:postcode": "65201", "addr:state": "MO", "addr:street_address": "3212B LEMONE INDUSTRIAL BLVD", "amenity": "post_box", "collection_times": "Mo-Fr 16:30; Sa 13:30", "note": "ON 12/24 AND 12/31, THIS BOX MAY BE COLLECTED AS EARLY AS 12 NOON.", "nsi_id": "unitedstatespostalservice-a77078", "operator": "United States Postal Service", "operator:short": "USPS", "operator:type": "public", "operator:wikidata": "Q668687", "ref": "6520100139"}, "type": "Feature"}
{"geometry": {"coordinates": [-92.3245511, 38.9548637], "type": "Point"}, "id": "zHC4Xa07HTNkGIWgVyBaiKmUtR8=", "properties": {"@source_uri": "https://tools.usps.com/UspsToolsRestServices/rest/POLocator/findLocations", "@spider": "usps_collection_boxes", "addr:city": "COLUMBIA", "addr:country": "US", "addr:postcode": "65201", "addr:state": "MO", "addr:street_address": "1 HOSPITAL DR", "amenity": "post_box", "collection_times": "Mo-Sa 12:00", "nsi_id": "unitedstatespostalservice-a77078", "operator": "United States Postal Service", "operator:short": "USPS", "operator:type": "public", "operator:wikidata": "Q668687", "ref": "6520100140"}, "type": "Feature"}
{"geometry": {"coordinates": [-92.3161994, 38.969185], "type": "Point"}, "id": "PJdvFvO3kdBj938wJ1XjFR-VHdQ=", "properties": {"@source_uri": "https://tools.usps.com/UspsToolsRestServices/rest/POLocator/findLocations", "@spider": "usps_collection_boxes", "addr:city": "COLUMBIA", "addr:country": "US", "addr:postcode": "65201", "addr:state": "MO", "addr:street_address": "1512 HERIFORD RD", "amenity": "post_box", "collection_times": "Mo-Sa 09:30", "nsi_id": "unitedstatespostalservice-a77078", "operator": "United States Postal Service", "operator:short": "USPS", "operator:type": "public", "operator:wikidata": "Q668687", "ref": "6520100148"}, "type": "Feature"}
{"geometry": {"coordinates": [-92.364569, 38.924817], "type": "Point"}, "id": "I5cQobcPb3asEiF5iygl8Fpvt9k=", "properties": {"@source_uri": "https://tools.usps.com/UspsToolsRestServices/rest/POLocator/findLocations", "@spider": "usps_collection_boxes", "addr:city": "COLUMBIA", "addr:country": "US", "addr:postcode": "65201", "addr:state": "MO", "addr:street_address": "2620 COLONY", "amenity": "post_box", "collection_times": "Mo-Sa 09:30", "nsi_id": "unitedstatespostalservice-a77078", "operator": "United States Postal Service", "operator:short": "USPS", "operator:type": "public", "operator:wikidata": "Q668687", "ref": "6520100149"}, "type": "Feature"}
{"geometry": {"coordinates": [-92.3648328, 38.922763], "type": "Point"}, "id": "kJ8y8PzgW20f-d4eyploxR6Cu4M=", "properties": {"@source_uri": "https://tools.usps.com/UspsToolsRestServices/rest/POLocator/findLocations", "@spider": "usps_collection_boxes", "addr:city": "COLUMBIA", "addr:country": "US", "addr:postcode": "65201", "addr:state": "MO", "addr:street_address": "2718 FORUM BLVD", "amenity": "post_box", "collection_times": "Mo-Sa 09:30", "nsi_id": "unitedstatespostalservice-a77078", "operator": "United States Postal Service", "operator:short": "USPS", "operator:type": "public", "operator:wikidata": "Q668687", "ref": "6520100150"}, "type": "Feature"}
{"geometry": {"coordinates": [-92.333344014, 38.909509427], "type": "Point"}, "id": "v2F3xnGhfYQn6uNHjt7WKBSNE0U=", "properties": {"@source_uri": "https://tools.usps.com/UspsToolsRestServices/rest/POLocator/findLocations", "@spider": "usps_collection_boxes", "addr:city": "COLUMBIA", "addr:country": "US", "addr:postcode": "65201", "addr:state": "MO", "addr:street_address": "3709 SANDMAN LN", "amenity": "post_box", "collection_times": "Mo-Fr 16:00; Sa 11:45", "indoor": "yes", "note": "ON 12/24 AND 12/31, THIS BOX MAY BE COLLECTED AS EARLY AS 12 NOON.", "nsi_id": "unitedstatespostalservice-a77078", "operator": "United States Postal Service", "operator:short": "USPS", "operator:type": "public", "operator:wikidata": "Q668687", "ref": "6520100155"}, "type": "Feature"}
{"geometry": {"coordinates": [-92.327971976, 38.953315019], "type": "Point"}, "id": "4TTY-EoyDyXaNwAQcX8pfZE_dAE=", "properties": {"@source_uri": "https://tools.usps.com/UspsToolsRestServices/rest/POLocator/findLocations", "@spider": "usps_collection_boxes", "addr:city": "COLUMBIA", "addr:country": "US", "addr:postcode": "65201", "addr:state": "MO", "addr:street_address": "801 E WALNUT ST", "amenity": "post_box", "collection_times": "Mo-Sa 10:00", "nsi_id": "unitedstatespostalservice-a77078", "operator": "United States Postal Service", "operator:short": "USPS", "operator:type": "public", "operator:wikidata": "Q668687", "ref": "6520100156"}, "type": "Feature"}
{"geometry": {"coordinates": [-92.340565, 38.95791], "type": "Point"}, "id": "V2rru8t5YkD-6kH9cS2MY1eScMg=", "properties": {"@source_uri": "https://tools.usps.com/UspsToolsRestServices/rest/POLocator/findLocations", "@spider": "usps_collection_boxes", "addr:city": "COLUMBIA", "addr:country": "US", "addr:postcode": "65203", "addr:state": "MO", "addr:street_address": "511 E WALNUT ST", "amenity": "post_box", "collection_times": "Mo-Fr 17:00; Sa 13:45", "note": "ON 12/24 AND 12/31, THIS BOX MAY BE COLLECTED AS EARLY AS 12 NOON.", "nsi_id": "unitedstatespostalservice-a77078", "operator": "United States Postal Service", "operator:short": "USPS", "operator:type": "public", "operator:wikidata": "Q668687", "ref": "6520300006"}, "type": "Feature"}
{"geometry": {"coordinates": [-92.3312584, 38.952798], "type": "Point"}, "id": "ilNpgqf1WDltm2Xc4WlXGuzMI4Y=", "properties": {"@source_uri": "https://tools.usps.com/UspsToolsRestServices/rest/POLocator/findLocations", "@spider": "usps_collection_boxes", "addr:city": "COLUMBIA", "addr:country": "US", "addr:postcode": "65203", "addr:state": "MO", "addr:street_address": "511 E WALNUT ST", "amenity": "post_box", "collection_times": "Mo-Fr 17:45; Sa 13:45", "indoor": "yes", "note": "ON 12/24 AND 12/31, THIS BOX MAY BE COLLECTED AS EARLY AS 12 NOON.", "nsi_id": "unitedstatespostalservice-a77078", "operator": "United States Postal Service", "operator:short": "USPS", "operator:type": "public", "operator:wikidata": "Q668687", "ref": "6520300008"}, "type": "Feature"}
{"geometry": {"coordinates": [-92.3265917, 38.953631], "type": "Point"}, "id": "779eitBIXVloPct-0HX-fBmhsmg=", "properties": {"@source_uri": "https://tools.usps.com/UspsToolsRestServices/rest/POLocator/findLocations", "@spider": "usps_collection_boxes", "addr:city": "COLUMBIA", "addr:country": "US", "addr:postcode": "65203", "addr:state": "MO", "addr:street_address": "201 N 10TH ST", "amenity": "post_box", "collection_times": "Mo-Sa 10:00", "nsi_id": "unitedstatespostalservice-a77078", "operator": "United States Postal Service", "operator:short": "USPS", "operator:type": "public", "operator:wikidata": "Q668687", "ref": "6520300010"}, "type": "Feature"}
{"geometry": {"coordinates": [-92.3330789, 38.949646], "type": "Point"}, "id": "C8IuNyL4OG-mp-UKPygChlCtjCA=", "properties": {"@source_uri": "https://tools.usps.com/UspsToolsRestServices/rest/POLocator/findLocations", "@spider": "usps_collection_boxes", "addr:city": "COLUMBIA", "addr:country": "US", "addr:postcode": "65203", "addr:state": "MO", "addr:street_address": "401 LOCUST ST", "amenity": "post_box", "collection_times": "Mo-Sa 12:00", "nsi_id": "unitedstatespostalservice-a77078", "operator": "United States Postal Service", "operator:short": "USPS", "operator:type": "public", "operator:wikidata": "Q668687", "ref": "6520300013"}, "type": "Feature"}
{"geometry": {"coordinates": [-92.3304041, 38.950545], "type": "Point"}, "id": "UoV7zWwyXp-MBYncfM10YvamBgo=", "properties": {"@source_uri": "https://tools.usps.com/UspsToolsRestServices/rest/POLocator/findLocations", "@spider": "usps_collection_boxes", "addr:city": "COLUMBIA", "addr:country": "US", "addr:postcode": "65203", "addr:state": "MO", "addr:street_address": "608 CHERRY ST", "amenity": "post_box", "collection_times": "Mo-Sa 12:00", "nsi_id": "unitedstatespostalservice-a77078", "operator": "United States Postal Service", "operator:short": "USPS", "operator:type": "public", "operator:wikidata": "Q668687", "ref": "6520300016"}, "type": "Feature"}
{"geometry": {"coordinates": [-92.3284618, 38.950485], "type": "Point"}, "id": "Jij_mTPIHd_atQUFfU1ztNZKTTE=", "properties": {"@source_uri": "https://tools.usps.com/UspsToolsRestServices/rest/POLocator/findLocations", "@spider": "usps_collection_boxes", "addr:city": "COLUMBIA", "addr:country": "US", "addr:postcode": "65203", "addr:state": "MO", "addr:street_address": "800 CHERRY ST", "amenity": "post_box", "collection_times": "Mo-Sa 12:00", "nsi_id": "unitedstatespostalservice-a77078", "operator": "United States Postal Service", "operator:short": "USPS", "operator:type": "public", "operator:wikidata": "Q668687", "ref": "6520300019"}, "type": "Feature"}
{"geometry": {"coordinates": [-92.3275691, 38.951736], "type": "Point"}, "id": "e6avIOfMyosxLrowvgUxa5msUE8=", "properties": {"@source_uri": "https://tools.usps.com/UspsToolsRestServices/rest/POLocator/findLocations", "@spider": "usps_collection_boxes", "addr:city": "COLUMBIA", "addr:country": "US", "addr:postcode": "65203", "addr:state": "MO", "addr:street_address": "827 E BROADWAY", "amenity": "post_box", "collection_times": "Mo-Sa 11:00", "nsi_id": "unitedstatespostalservice-a77078", "operator": "United States Postal Service", "operator:short": "USPS", "operator:type": "public", "operator:wikidata": "Q668687", "ref": "6520300020"}, "type": "Feature"}
{"geometry": {"coordinates": [-92.3276703, 38.950463], "type": "Point"}, "id": "RRdq93k60M3ww9Y9Bi21GkaigmY=", "properties": {"@source_uri": "https://tools.usps.com/UspsToolsRestServices/rest/POLocator/findLocations", "@spider": "usps_collection_boxes", "addr:city": "COLUMBIA", "addr:country": "US", "addr:postcode": "65203", "addr:state": "MO", "addr:street_address": "111 S 9TH ST", "amenity": "post_box", "collection_times": "Mo-Sa 10:00", "nsi_id": "unitedstatespostalservice-a77078", "operator": "United States Postal Service", "operator:short": "USPS", "operator:type": "public", "operator:wikidata": "Q668687", "ref": "6520300022"}, "type": "Feature"}
{"geometry": {"coordinates": [-92.3275685, 38.952432], "type": "Point"}, "id": "qeORyrq3zKvoAJS0oA3SdDgEeUI=", "properties": {"@source_uri": "https://tools.usps.com/UspsToolsRestServices/rest/POLocator/findLocations", "@spider": "usps_collection_boxes", "addr:city": "COLUMBIA", "addr:country": "US", "addr:postcode": "65203", "addr:state": "MO", "addr:street_address": "33 N 9TH ST", "amenity": "post_box", "collection_times": "Mo-Sa 10:00", "nsi_id": "unitedstatespostalservice-a77078", "operator": "United States Postal Service", "operator:short": "USPS", "operator:type": "public", "operator:wikidata": "Q668687", "ref": "6520300023"}, "type": "Feature"}
{"geometry": {"coordinates": [-92.3289727, 38.952925], "type": "Point"}, "id": "U27JEm55SNMoVRjcZm-b8paBeD8=", "properties": {"@source_uri": "https://tools.usps.com/UspsToolsRestServices/rest/POLocator/findLocations", "@spider": "usps_collection_boxes", "addr:city": "COLUMBIA", "addr:country": "US", "addr:postcode": "65203", "addr:state": "MO", "addr:street_address": "705 E WALNUT ST", "amenity": "post_box", "collection_times": "Mo-Fr 12:00", "nsi_id": "unitedstatespostalservice-a77078", "operator": "United States Postal Service", "operator:short": "USPS", "operator:type": "public", "operator:wikidata": "Q668687", "ref": "6520300026"}, "type": "Feature"}
{"geometry": {"coordinates": [-92.372237, 38.955307], "type": "Point"}, "id": "PKbmVcd3QlO7-QVdFlbjbzk0u_I=", "properties": {"@source_uri": "https://tools.usps.com/UspsToolsRestServices/rest/POLocator/findLocations", "@spider": "usps_collection_boxes", "addr:city": "COLUMBIA", "addr:country": "US", "addr:postcode": "65203", "addr:state": "MO", "addr:street_address": "2101 W BROADWAY", "amenity": "post_box", "collection_times": "Mo-Sa 09:00", "nsi_id": "unitedstatespostalservice-a77078", "operator": "United States Postal Service", "operator:short": "USPS", "operator:type": "public", "operator:wikidata": "Q668687", "ref": "6520300027"}, "type": "Feature"}
{"geometry": {"coordinates": [-92.3533582, 38.952283], "type": "Point"}, "id": "Ox5JuBHFn8WvMvQYyyvYO9OCbY4=", "properties": {"@source_uri": "https://tools.usps.com/UspsToolsRestServices/rest/POLocator/findLocations", "@spider": "usps_collection_boxes", "addr:city": "COLUMBIA", "addr:country": "US", "addr:postcode": "65203", "addr:state": "MO", "addr:street_address": "1001 W BROADWAY", "amenity": "post_box", "collection_times": "Mo-Sa 09:30", "nsi_id": "unitedstatespostalservice-a77078", "operator": "United States Postal Service", "operator:short": "USPS", "operator:type": "public", "operator:wikidata": "Q668687", "ref": "6520300028"}, "type": "Feature"}
{"geometry": {"coordinates": [-92.3587451, 38.936753], "type": "Point"}, "id": "1ncG_8KQeES8bbQ2XMn9l7b5sn8=", "properties": {"@source_uri": "https://tools.usps.com/UspsToolsRestServices/rest/POLocator/findLocations", "@spider": "usps_collection_boxes", "addr:city": "COLUMBIA", "addr:country": "US", "addr:postcode": "65203", "addr:state": "MO", "addr:street_address": "1400 FORUM BLVD", "amenity": "post_box", "collection_times": "Mo-Sa 11:00", "nsi_id": "unitedstatespostalservice-a77078", "operator": "United States Postal Service", "operator:short": "USPS", "operator:type": "public", "operator:wikidata": "Q668687", "ref": "6520300029"}, "type": "Feature"}
{"geometry": {"coordinates": [-92.3285805, 38.95219], "type": "Point"}, "id": "9wcDsN_1fqkRlZmMnpyGzNXc040=", "properties": {"@source_uri": "https://tools.usps.com/UspsToolsRestServices/rest/POLocator/findLocations", "@spider": "usps_collection_boxes", "addr:city": "COLUMBIA", "addr:country": "US", "addr:postcode": "65203", "addr:state": "MO", "addr:street_address": "28 N 8TH ST", "amenity": "post_box", "collection_times": "Mo-Fr 11:30", "nsi_id": "unitedstatespostalservice-a77078", "operator": "United States Postal Service", "operator:short": "USPS", "operator:type": "public", "operator:wikidata": "Q668687", "ref": "6520300031"}, "type": "Feature"}
{"geometry": {"coordinates": [-92.3256999777, 38.9511679946], "type": "Point"}, "id": "p0486r-JfNMeuWrOJ_IUe5qqWFg=", "properties": {"@source_uri": "https://tools.usps.com/UspsToolsRestServices/rest/POLocator/findLocations", "@spider": "usps_collection_boxes", "addr:city": "COLUMBIA", "addr:country": "US", "addr:postcode": "65203", "addr:state": "MO", "addr:street_address": "1020 E BROADWAY", "amenity": "post_box", "collection_times": "Mo-Sa 09:00", "nsi_id": "unitedstatespostalservice-a77078", "operator": "United States Postal Service", "operator:short": "USPS", "operator:type": "public", "operator:wikidata": "Q668687", "ref": "6520300032"}, "type": "Feature"}
{"geometry": {"coordinates": [-92.3604855, 38.933092], "type": "Point"}, "id": "jKJ7QEGY3tZJEfa7x4uZvJwFMXc=", "properties": {"@source_uri": "https://tools.usps.com/UspsToolsRestServices/rest/POLocator/findLocations", "@spider": "usps_collection_boxes", "addr:city": "COLUMBIA", "addr:country": "US", "addr:postcode": "65203", "addr:state": "MO", "addr:street_address": "1700 FORUM BLVD", "amenity": "post_box", "collection_times": "Mo-Sa 11:00", "nsi_id": "unitedstatespostalservice-a77078", "operator": "United States Postal Service", "operator:short": "USPS", "operator:type": "public", "operator:wikidata": "Q668687", "ref": "6520300034"}, "type": "Feature"}
{"geometry": {"coordinates": [-92.3725618, 38.966755], "type": "Point"}, "id": "4McmjvNZLuQDQ8ryCEWlGid5pZc=", "properties": {"@source_uri": "https://tools.usps.com/UspsToolsRestServices/rest/POLocator/findLocations", "@spider": "usps_collection_boxes", "addr:city": "COLUMBIA", "addr:country": "US", "addr:postcode": "65203", "addr:state": "MO", "addr:street_address": "2100 INTERSTATE 70 DR SW", "amenity": "post_box", "collection_times": "Mo-Sa 09:30", "nsi_id": "unitedstatespostalservice-a77078", "operator": "United States Postal Service", "operator:short": "USPS", "operator:type": "public", "operator:wikidata": "Q668687", "ref": "6520300035"}, "type": "Feature"}
{"geometry": {"coordinates": [-92.3355352, 38.952272], "type": "Point"}, "id": "SvrZqg9wgmf_3AXvPj1B8t2kjZ0=", "properties": {"@source_uri": "https://tools.usps.com/UspsToolsRestServices/rest/POLocator/findLocations", "@spider": "usps_collection_boxes", "addr:city": "COLUMBIA", "addr:country": "US", "addr:postcode": "65203", "addr:state": "MO", "addr:street_address": "111 E BROADWAY", "amenity": "post_box", "collection_times": "Mo-Sa 11:00", "nsi_id": "unitedstatespostalservice-a77078", "operator": "United States Postal Service", "operator:short": "USPS", "operator:type": "public", "operator:wikidata": "Q668687", "ref": "6520300036"}, "type": "Feature"}
{"geometry": {"coordinates": [-92.3337111, 38.960952], "type": "Point"}, "id": "qlxyLx_8BmaevAcSulWrSZed-O4=", "properties": {"@source_uri": "https://tools.usps.com/UspsToolsRestServices/rest/POLocator/findLocations", "@spider": "usps_collection_boxes", "addr:city": "COLUMBIA", "addr:country": "US", "addr:postcode": "65203", "addr:state": "MO", "addr:street_address": "806 N PROVIDENCE RD", "amenity": "post_box", "collection_times": "Mo-Fr 12:00; Sa 10:00", "nsi_id": "unitedstatespostalservice-a77078", "operator": "United States Postal Service", "operator:short": "USPS", "operator:type": "public", "operator:wikidata": "Q668687", "ref": "6520300038"}, "type": "Feature"}
{"geometry": {"coordinates": [-92.3826205, 38.960868], "type": "Point"}, "id": "3IO5QFCFLKzVSCVFCZ-FlSmjM5A=", "properties": {"@source_uri": "https://tools.usps.com/UspsToolsRestServices/rest/POLocator/findLocations", "@spider": "usps_collection_boxes", "addr:city": "COLUMBIA", "addr:country": "US", "addr:postcode": "65203", "addr:state": "MO", "addr:street_address": "3000 W WORLEY ST", "amenity": "post_box", "collection_times": "Mo-Sa 10:00", "nsi_id": "unitedstatespostalservice-a77078", "operator": "United States Postal Service", "operator:short": "USPS", "operator:type": "public", "operator:wikidata": "Q668687", "ref": "6520300040"}, "type": "Feature"}
{"geometry": {"coordinates": [-92.3699472, 38.96114], "type": "Point"}, "id": "mPlLt3_hAiZfqGQ5R_V66qRY8dA=", "properties": {"@source_uri": "https://tools.usps.com/UspsToolsRestServices/rest/POLocator/findLocations", "@spider": "usps_collection_boxes", "addr:city": "COLUMBIA", "addr:country": "US", "addr:postcode": "65203", "addr:state": "MO", "addr:street_address": "2001 W WORLEY ST", "amenity": "post_box", "collection_times": "Mo-Sa 09:30", "nsi_id": "unitedstatespostalservice-a77078", "operator": "United States Postal Service", "operator:short": "USPS", "operator:type": "public", "operator:wikidata": "Q668687", "ref": "6520300041"}, "type": "Feature"}
{"geometry": {"coordinates": [-92.3750299, 38.966804], "type": "Point"}, "id": "MpfVeZBR4yhEST5oIiKx9Di-BAo=", "properties": {"@source_uri": "https://tools.usps.com/UspsToolsRestServices/rest/POLocator/findLocations", "@spider": "usps_collection_boxes", "addr:city": "COLUMBIA", "addr:country": "US", "addr:postcode": "65203", "addr:state": "MO", "addr:street_address": "1101 HUTCHENS DR", "amenity": "post_box", "collection_times": "Mo-Sa 09:30", "nsi_id": "unitedstatespostalservice-a77078", "operator": "United States Postal Service", "operator:short": "USPS", "operator:type": "public", "operator:wikidata": "Q668687", "ref": "6520300042"}, "type": "Feature"}
{"geometry": {"coordinates": [-92.3547204, 38.912309], "type": "Point"}, "id": "dFp5DwfYkR_SAUwp0-_FnyWbRao=", "properties": {"@source_uri": "https://tools.usps.com/UspsToolsRestServices/rest/POLocator/findLocations", "@spider": "usps_collection_boxes", "addr:city": "COLUMBIA", "addr:country": "US", "addr:postcode": "65203", "addr:state": "MO", "addr:street_address": "3705 FORUM BLVD", "amenity": "post_box", "collection_times": "Mo-Sa 10:00", "nsi_id": "unitedstatespostalservice-a77078", "operator": "United States Postal Service", "operator:short": "USPS", "operator:type": "public", "operator:wikidata": "Q668687", "ref": "6520300043"}, "type": "Feature"}
{"geometry": {"coordinates": [-92.375199, 38.963763], "type": "Point"}, "id": "LvJB9Id_nEW42-9YJ555R9LxHUs=", "properties": {"@source_uri": "https://tools.usps.com/UspsToolsRestServices/rest/POLocator/findLocations", "@spider": "usps_collection_boxes", "addr:city": "COLUMBIA", "addr:country": "US", "addr:postcode": "65203", "addr:state": "MO", "addr:street_address": "2300 BERNADETTE DR", "amenity": "post_box", "collection_times": "Mo-Fr 16:00; Sa 12:30", "indoor": "yes", "note": "ON 12/24 AND 12/31, THIS BOX MAY BE COLLECTED AS EARLY AS 12 NOON.", "nsi_id": "unitedstatespostalservice-a77078", "operator": "United States Postal Service", "operator:short": "USPS", "operator:type": "public", "operator:wikidata": "Q668687", "ref": "6520300044"}, "type": "Feature"}
{"geometry": {"coordinates": [-92.3377672, 38.951737], "type": "Point"}, "id": "0RQF8iFWB-nQYcqooI4K3Xole1c=", "properties": {"@source_uri": "https://tools.usps.com/UspsToolsRestServices/rest/POLocator/findLocations", "@spider": "usps_collection_boxes", "addr:city": "COLUMBIA", "addr:country": "US", "addr:postcode": "65203", "addr:state": "MO", "addr:street_address": "33 E BROADWAY", "amenity": "post_box", "collection_times": "Mo-Fr 11:00", "nsi_id": "unitedstatespostalservice-a77078", "operator": "United States Postal Service", "operator:short": "USPS", "operator:type": "public", "operator:wikidata": "Q668687", "ref": "6520300047"}, "type": "Feature"}
{"geometry": {"coordinates": [-92.3979299, 38.933152], "type": "Point"}, "id": "Y5ObiTaX1i11VNi1h7PzsAkG1uI=", "properties": {"@source_uri": "https://tools.usps.com/UspsToolsRestServices/rest/POLocator/findLocations", "@spider": "usps_collection_boxes", "addr:city": "COLUMBIA", "addr:country": "US", "addr:postcode": "65203", "addr:state": "MO", "addr:street_address": "2012 CHERRY HILL DR", "amenity": "post_box", "collection_times": "Mo-Sa 09:30", "nsi_id": "unitedstatespostalservice-a77078", "operator": "United States Postal Service", "operator:short": "USPS", "operator:type": "public", "operator:wikidata": "Q668687", "ref": "6520300048"}, "type": "Feature"}
{"geometry": {"coordinates": [-92.3287687, 38.94943], "type": "Point"}, "id": "_eBiHEhjyjkuWZ4Cf5Gxm0auEbY=", "properties": {"@source_uri": "https://tools.usps.com/UspsToolsRestServices/rest/POLocator/findLocations", "@spider": "usps_collection_boxes", "addr:city": "COLUMBIA", "addr:country": "US", "addr:postcode": "65203", "addr:state": "MO", "addr:street_address": "201 S 8TH ST", "amenity": "post_box", "collection_times": "Mo-Sa 09:00", "nsi_id": "unitedstatespostalservice-a77078", "operator": "United States Postal Service", "operator:short": "USPS", "operator:type": "public", "operator:wikidata": "Q668687", "ref": "6520300052"}, "type": "Feature"}
{"geometry": {"coordinates": [-92.3444368, 38.967432], "type": "Point"}, "id": "mFQkMHaW-HmMxtkje2Fp2OVVAag=", "properties": {"@source_uri": "https://tools.usps.com/UspsToolsRestServices/rest/POLocator/findLocations", "@spider": "usps_collection_boxes", "addr:city": "COLUMBIA", "addr:country": "US", "addr:postcode": "65203", "addr:state": "MO", "addr:street_address": "601 BUS 70 LOOP W", "amenity": "post_box", "collection_times": "Mo-Sa 09:30", "nsi_id": "unitedstatespostalservice-a77078", "operator": "United States Postal Service", "operator:short": "USPS", "operator:type": "public", "operator:wikidata": "Q668687", "ref": "6520300053"}, "type": "Feature"}
{"geometry": {"coordinates": [-92.3596884, 38.964154], "type": "Point"}, "id": "uE8MA_Ofmg5HnhlPVNejuC14Ayg=", "properties": {"@source_uri": "https://tools.usps.com/UspsToolsRestServices/rest/POLocator/findLocations", "@spider": "usps_collection_boxes", "addr:city": "COLUMBIA", "addr:country": "US", "addr:postcode": "65203", "addr:state": "MO", "addr:street_address": "1408 I 70 DR SW", "amenity": "post_box", "collection_times": "Mo-Sa 12:00", "nsi_id": "unitedstatespostalservice-a77078", "operator": "United States Postal Service", "operator:short": "USPS", "operator:type": "public", "operator:wikidata": "Q668687", "ref": "6520300055"}, "type": "Feature"}
{"geometry": {"coordinates": [-92.3327549, 38.972579], "type": "Point"}, "id": "toqsBcxplNg90QTrF9JQCTMbZmU=", "properties": {"@source_uri": "https://tools.usps.com/UspsToolsRestServices/rest/POLocator/findLocations", "@spider": "usps_collection_boxes", "addr:city": "COLUMBIA", "addr:country": "US", "addr:postcode": "65203", "addr:state": "MO", "addr:street_address": "1900 N PROVIDENCE RD", "amenity": "post_box", "collection_times": "Mo-Sa 09:30", "nsi_id": "unitedstatespostalservice-a77078", "operator": "United States Postal Service", "operator:short": "USPS", "operator:type": "public", "operator:wikidata": "Q668687", "ref": "6520300059"}, "type": "Feature"}
{"geometry": {"coordinates": [-92.3312886, 38.952796], "type": "Point"}, "id": "zsjeGO5iWF8_GZXLRYMngNcgR-E=", "properties": {"@source_uri": "https://tools.usps.com/UspsToolsRestServices/rest/POLocator/findLocations", "@spider": "usps_collection_boxes", "addr:city": "COLUMBIA", "addr:country": "US", "addr:postcode": "65203", "addr:state": "MO", "addr:street_address": "511 E WALNUT ST", "amenity": "post_box", "collection_times": "Mo-Fr 17:45; Sa 13:45", "name": "USPS COLLECTION BOX - APC", "note": "ON 12/24 AND 12/31, THIS BOX MAY BE COLLECTED AS EARLY AS 12 NOON.", "nsi_id": "unitedstatespostalservice-a77078", "operator": "United States Postal Service", "operator:short": "USPS", "operator:type": "public", "operator:wikidata": "Q668687", "ref": "6520300060"}, "type": "Feature"}
{"geometry": {"coordinates": [-92.3879064, 38.955751], "type": "Point"}, "id": "tIxg6JVIeYwe4Qb_W7rQuWjjC8M=", "properties": {"@source_uri": "https://tools.usps.com/UspsToolsRestServices/rest/POLocator/findLocations", "@spider": "usps_collection_boxes", "addr:city": "COLUMBIA", "addr:country": "US", "addr:postcode": "65203", "addr:state": "MO", "addr:street_address": "3601 W BROADWAY", "amenity": "post_box", "collection_times": "Mo-Fr 11:30; Sa 12:00", "nsi_id": "unitedstatespostalservice-a77078", "operator": "United States Postal Service", "operator:short": "USPS", "operator:type": "public", "operator:wikidata": "Q668687", "ref": "6520300061"}, "type": "Feature"}
{"geometry": {"coordinates": [-92.375199, 38.963763], "type": "Point"}, "id": "56G27E6AYrybd79fRLqhQI--G6Q=", "properties": {"@source_uri": "https://tools.usps.com/UspsToolsRestServices/rest/POLocator/findLocations", "@spider": "usps_collection_boxes", "addr:city": "COLUMBIA", "addr:country": "US", "addr:postcode": "65203", "addr:state": "MO", "addr:street_address": "2300 BERNADETTE DR", "amenity": "post_box", "collection_times": "Sa 14:00", "indoor": "yes", "note": "ON 12/24 AND 12/31, THIS BOX MAY BE COLLECTED AS EARLY AS 12 NOON.", "nsi_id": "unitedstatespostalservice-a77078", "operator": "United States Postal Service", "operator:short": "USPS", "operator:type": "public", "operator:wikidata": "Q668687", "ref": "6520300066"}, "type": "Feature"}
{"geometry": {"coordinates": [-92.701114, 39.270005], "type": "Point"}, "id": "RkSAQOzvoxHk4qnEl7FVKAzq0kQ=", "properties": {"@source_uri": "https://tools.usps.com/UspsToolsRestServices/rest/POLocator/findLocations", "@spider": "usps_collection_boxes", "addr:city": "ARMSTRONG", "addr:country": "US", "addr:postcode": "65230", "addr:state": "MO", "addr:street_address": "106 S CENTRAL ST", "amenity": "post_box", "collection_times": "Mo-Fr 12:45; Sa 13:00", "note": "ON 12/24 AND 12/31, THIS BOX MAY BE COLLECTED AS EARLY AS 12 NOON.", "nsi_id": "unitedstatespostalservice-a77078", "operator": "United States Postal Service", "operator:short": "USPS", "operator:type": "public", "operator:wikidata": "Q668687", "ref": "6523000001"}, "type": "Feature"}
{"geometry": {"coordinates": [-92.701114, 39.270006], "type": "Point"}, "id": "RBuV9rXuCdapvQDjfEAlVhTEPNY=", "properties": {"@source_uri": "https://tools.usps.com/UspsToolsRestServices/rest/POLocator/findLocations", "@spider": "usps_collection_boxes", "addr:city": "ARMSTRONG", "addr:country": "US", "addr:postcode": "65230", "addr:state": "MO", "addr:street_address": "106 S CENTRAL ST", "amenity": "post_box", "collection_times": "Mo-Fr 12:45; Sa 13:00", "indoor": "yes", "note": "ON 12/24 AND 12/31, THIS BOX MAY BE COLLECTED AS EARLY AS 12 NOON.", "nsi_id": "unitedstatespostalservice-a77078", "operator": "United States Postal Service", "operator:short": "USPS", "operator:type": "public", "operator:wikidata": "Q668687", "ref": "6523000002"}, "type": "Feature"}
{"geometry": {"coordinates": [-92.70110132, 39.26976404], "type": "Point"}, "id": "J-Lur9EafhbEcdGkseuqo_HTlc8=", "properties": {"@source_uri": "https://tools.usps.com/UspsToolsRestServices/rest/POLocator/findLocations", "@spider": "usps_collection_boxes", "addr:city": "ARMSTRONG", "addr:country": "US", "addr:postcode": "65230", "addr:state": "MO", "addr:street_address": "106 S CENTRAL ST", "amenity": "post_box", "collection_times": "Mo-Fr 12:45; Sa 13:00", "indoor": "yes", "note": "ON 12/24 AND 12/31, THIS BOX MAY BE COLLECTED AS EARLY AS 12 NOON.", "nsi_id": "unitedstatespostalservice-a77078", "operator": "United States Postal Service", "operator:short": "USPS", "operator:type": "public", "operator:wikidata": "Q668687", "ref": "6523000004"}, "type": "Feature"}
{"geometry": {"coordinates": [-91.89727, 39.017982], "type": "Point"}, "id": "oKNdoTE9wFvaT81crcJUC2tUUkM=", "properties": {"@source_uri": "https://tools.usps.com/UspsToolsRestServices/rest/POLocator/findLocations", "@spider": "usps_collection_boxes", "addr:city": "AUXVASSE", "addr:country": "US", "addr:postcode": "65231", "addr:state": "MO", "addr:street_address": "207 S MAIN ST", "amenity": "post_box", "collection_times": "Mo-Fr 15:30; Sa 08:30", "note": "ON 12/24 AND 12/31, THIS BOX MAY BE COLLECTED AS EARLY AS 12 NOON.", "nsi_id": "unitedstatespostalservice-a77078", "operator": "United States Postal Service", "operator:short": "USPS", "operator:type": "public", "operator:wikidata": "Q668687", "ref": "6523100001"}, "type": "Feature"}
{"geometry": {"coordinates": [-91.89727, 39.017982], "type": "Point"}, "id": "R4dnvl3B81Z33jPuaIxNb9TLmho=", "properties": {"@source_uri": "https://tools.usps.com/UspsToolsRestServices/rest/POLocator/findLocations", "@spider": "usps_collection_boxes", "addr:city": "AUXVASSE", "addr:country": "US", "addr:postcode": "65231", "addr:state": "MO", "addr:street_address": "207 S MAIN ST", "amenity": "post_box", "collection_times": "Mo-Fr 15:30; Sa 08:30", "indoor": "yes", "note": "ON 12/24 AND 12/31, THIS BOX MAY BE COLLECTED AS EARLY AS 12 NOON.", "nsi_id": "unitedstatespostalservice-a77078", "operator": "United States Postal Service", "operator:short": "USPS", "operator:type": "public", "operator:wikidata": "Q668687", "ref": "6523100002"}, "type": "Feature"}
{"geometry": {"coordinates": [-91.897387625, 39.017531385], "type": "Point"}, "id": "snWuuJgLgxWp9CQkDrrGfang8XY=", "properties": {"@source_uri": "https://tools.usps.com/UspsToolsRestServices/rest/POLocator/findLocations", "@spider": "usps_collection_boxes", "addr:city": "AUXVASSE", "addr:country": "US", "addr:postcode": "65231", "addr:state": "MO", "addr:street_address": "207 S MAIN ST", "amenity": "post_box", "collection_times": "Mo-Fr 15:30; Sa 08:30", "indoor": "yes", "note": "ON 12/24 AND 12/31, THIS BOX MAY BE COLLECTED AS EARLY AS 12 NOON.", "nsi_id": "unitedstatespostalservice-a77078", "operator": "United States Postal Service", "operator:short": "USPS", "operator:type": "public", "operator:wikidata": "Q668687", "ref": "6523100006"}, "type": "Feature"}
{"geometry": {"coordinates": [-91.7638485, 39.135176], "type": "Point"}, "id": "WuNsFiidchJ9BCYKVEz5rGnAY0o=", "properties": {"@source_uri": "https://tools.usps.com/UspsToolsRestServices/rest/POLocator/findLocations", "@spider": "usps_collection_boxes", "addr:city": "BENTON CITY", "addr:country": "US", "addr:postcode": "65232", "addr:state": "MO", "addr:street_address": "203 FRONT ST", "amenity": "post_box", "collection_times": "Mo-Fr 11:15; Sa 10:00", "nsi_id": "unitedstatespostalservice-a77078", "operator": "United States Postal Service", "operator:short": "USPS", "operator:type": "public", "operator:wikidata": "Q668687", "ref": "6523200001"}, "type": "Feature"}
{"geometry": {"coordinates": [-91.763705, 39.134972], "type": "Point"}, "id": "Aq1iXBJEWGvn7XmPJt-KA39vGXE=", "properties": {"@source_uri": "https://tools.usps.com/UspsToolsRestServices/rest/POLocator/findLocations", "@spider": "usps_collection_boxes", "addr:city": "BENTON CITY", "addr:country": "US", "addr:postcode": "65232", "addr:state": "MO", "addr:street_address": "203 FRONT ST", "amenity": "post_box", "collection_times": "Mo-Fr 11:15; Sa 10:15", "indoor": "yes", "nsi_id": "unitedstatespostalservice-a77078", "operator": "United States Postal Service", "operator:short": "USPS", "operator:type": "public", "operator:wikidata": "Q668687", "ref": "6523200002"}, "type": "Feature"}
{"geometry": {"coordinates": [-91.763932636, 39.135023453], "type": "Point"}, "id": "g-T7-ZMKzN2OFI_TOwWHcvu1ao8=", "properties": {"@source_uri": "https://tools.usps.com/UspsToolsRestServices/rest/POLocator/findLocations", "@spider": "usps_collection_boxes", "addr:city": "BENTON CITY", "addr:country": "US", "addr:postcode": "65232", "addr:state": "MO", "addr:street_address": "203 FRONT ST", "amenity": "post_box", "collection_times": "Mo-Fr 11:15; Sa 10:15", "indoor": "yes", "nsi_id": "unitedstatespostalservice-a77078", "operator": "United States Postal Service", "operator:short": "USPS", "operator:type": "public", "operator:wikidata": "Q668687", "ref": "6523200003"}, "type": "Feature"}
{"geometry": {"coordinates": [-92.7416672972, 38.9566961684], "type": "Point"}, "id": "x7WXcAS9Q-u0862bd1WMPp8Qyzo=", "properties": {"@source_uri": "https://tools.usps.com/UspsToolsRestServices/rest/POLocator/findLocations", "@spider": "usps_collection_boxes", "addr:city": "BOONVILLE", "addr:country": "US", "addr:postcode": "65233", "addr:state": "MO", "addr:street_address": "1915 BOONE VILLAGE PLZ", "amenity": "post_box", "collection_times": "Mo-Fr 11:30; Sa 10:00", "nsi_id": "unitedstatespostalservice-a77078", "operator": "United States Postal Service", "operator:short": "USPS", "operator:type": "public", "operator:wikidata": "Q668687", "ref": "6523300010"}, "type": "Feature"}
{"geometry": {"coordinates": [-92.7442966, 38.976578], "type": "Point"}, "id": "U2fjfZjvzcuVQj0EFWZ2YOSZU-4=", "properties": {"@source_uri": "https://tools.usps.com/UspsToolsRestServices/rest/POLocator/findLocations", "@spider": "usps_collection_boxes", "addr:city": "BOONVILLE", "addr:country": "US", "addr:postcode": "65233", "addr:state": "MO", "addr:street_address": "225 MAIN ST", "amenity": "post_box", "collection_times": "Mo-Fr 14:45; Sa 11:00", "note": "ON 12/24 AND 12/31, THIS BOX MAY BE COLLECTED AS EARLY AS 12 NOON.", "nsi_id": "unitedstatespostalservice-a77078", "operator": "United States Postal Service", "operator:short": "USPS", "operator:type": "public", "operator:wikidata": "Q668687", "ref": "6523300013"}, "type": "Feature"}
{"geometry": {"coordinates": [-92.7439783, 38.975464], "type": "Point"}, "id": "0WI1NzqOG2BaCYTSM-O7F1iP25w=", "properties": {"@source_uri": "https://tools.usps.com/UspsToolsRestServices/rest/POLocator/findLocations", "@spider": "usps_collection_boxes", "addr:city": "BOONVILLE", "addr:country": "US", "addr:postcode": "65233", "addr:state": "MO", "addr:street_address": "401 MAIN ST", "amenity": "post_box", "collection_times": "Mo-Fr 14:45; Sa 11:00", "note": "ON 12/24 AND 12/31, THIS BOX MAY BE COLLECTED AS EARLY AS 12 NOON.", "nsi_id": "unitedstatespostalservice-a77078", "operator": "United States Postal Service", "operator:short": "USPS", "operator:type": "public", "operator:wikidata": "Q668687", "ref": "6523300014"}, "type": "Feature"}
{"geometry": {"coordinates": [-92.743377, 38.975587], "type": "Point"}, "id": "A5e9NPjQnzyEFk3bt5bSbOmL9bo=", "properties": {"@source_uri": "https://tools.usps.com/UspsToolsRestServices/rest/POLocator/findLocations", "@spider": "usps_collection_boxes", "addr:city": "BOONVILLE", "addr:country": "US", "addr:postcode": "65233", "addr:state": "MO", "addr:street_address": "526 E SPRING ST", "amenity": "post_box", "collection_times": "Mo-Fr 16:30; Sa 11:30", "indoor": "yes", "note": "ON 12/24 AND 12/31, THIS BOX MAY BE COLLECTED AS EARLY AS 12 NOON.", "nsi_id": "unitedstatespostalservice-a77078", "operator": "United States Postal Service", "operator:short": "USPS", "operator:type": "public", "operator:wikidata": "Q668687", "ref": "6523300017"}, "type": "Feature"}
{"geometry": {"coordinates": [-92.7428499, 38.975568], "type": "Point"}, "id": "8FXAT1zykhbYjhSYF04VmMtOkjU=", "properties": {"@source_uri": "https://tools.usps.com/UspsToolsRestServices/rest/POLocator/findLocations", "@spider": "usps_collection_boxes", "addr:city": "BOONVILLE", "addr:country": "US", "addr:postcode": "65233", "addr:state": "MO", "addr:street_address": "526 E SPRING ST", "amenity": "post_box", "collection_times": "Mo-Fr 16:30; Sa 11:30", "note": "ON 12/24 AND 12/31, THIS BOX MAY BE COLLECTED AS EARLY AS 12 NOON.", "nsi_id": "unitedstatespostalservice-a77078", "operator": "United States Postal Service", "operator:short": "USPS", "operator:type": "public", "operator:wikidata": "Q668687", "ref": "6523300019"}, "type": "Feature"}
{"geometry": {"coordinates": [-92.742678467, 38.975677787], "type": "Point"}, "id": "BXWFiVMDHct2bouHaSpkM2SXmLc=", "properties": {"@source_uri": "https://tools.usps.com/UspsToolsRestServices/rest/POLocator/findLocations", "@spider": "usps_collection_boxes", "addr:city": "BOONVILLE", "addr:country": "US", "addr:postcode": "65233", "addr:state": "MO", "addr:street_address": "526 E SPRING ST", "amenity": "post_box", "collection_times": "Mo-Fr 16:30; Sa 11:30", "indoor": "yes", "note": "ON 12/24 AND 12/31, THIS BOX MAY BE COLLECTED AS EARLY AS 12 NOON.", "nsi_id": "unitedstatespostalservice-a77078", "operator": "United States Postal Service", "operator:short": "USPS", "operator:type": "public", "operator:wikidata": "Q668687", "ref": "6523300020"}, "type": "Feature"}
{"geometry": {"coordinates": [-93.13057275, 39.4234492332], "type": "Point"}, "id": "TlvQBbFmGOpa8drV1Wz9Oi3wnqc=", "properties": {"@source_uri": "https://tools.usps.com/UspsToolsRestServices/rest/POLocator/findLocations", "@spider": "usps_collection_boxes", "addr:city": "BRUNSWICK", "addr:country": "US", "addr:postcode": "65236", "addr:state": "MO", "addr:street_address": "101 W BROADWAY ST", "amenity": "post_box", "collection_times": "Mo-Fr 15:45; Sa 10:45", "note": "ON 12/24 AND 12/31, THIS BOX MAY BE COLLECTED AS EARLY AS 12 NOON.", "nsi_id": "unitedstatespostalservice-a77078", "operator": "United States Postal Service", "operator:short": "USPS", "operator:type": "public", "operator:wikidata": "Q668687", "ref": "6523600001"}, "type": "Feature"}
{"geometry": {"coordinates": [-93.13057275, 39.4234492332], "type": "Point"}, "id": "8gGERtvJp4aT8moVK8wN89JMpBE=", "properties": {"@source_uri": "https://tools.usps.com/UspsToolsRestServices/rest/POLocator/findLocations", "@spider": "usps_collection_boxes", "addr:city": "BRUNSWICK", "addr:country": "US", "addr:postcode": "65236", "addr:state": "MO", "addr:street_address": "101 W BROADWAY ST", "amenity": "post_box", "collection_times": "Mo-Fr 15:45; Sa 10:45", "indoor": "yes", "note": "ON 12/24 AND 12/31, THIS BOX MAY BE COLLECTED AS EARLY AS 12 NOON.", "nsi_id": "unitedstatespostalservice-a77078", "operator": "United States Postal Service", "operator:short": "USPS", "operator:type": "public", "operator:wikidata": "Q668687", "ref": "6523600009"}, "type": "Feature"}
{"geometry": {"coordinates": [-93.13057275, 39.4234492332], "type": "Point"}, "id": "IdcCTDQxsJhJKqP_fQCMoPWh8RY=", "properties": {"@source_uri": "https://tools.usps.com/UspsToolsRestServices/rest/POLocator/findLocations", "@spider": "usps_collection_boxes", "addr:city": "BRUNSWICK", "addr:country": "US", "addr:postcode": "65236", "addr:state": "MO", "addr:street_address": "101 W BROADWAY ST", "amenity": "post_box", "collection_times": "Mo-Fr 15:45; Sa 10:45", "indoor": "yes", "note": "ON 12/24 AND 12/31, THIS BOX MAY BE COLLECTED AS EARLY AS 12 NOON.", "nsi_id": "unitedstatespostalservice-a77078", "operator": "United States Postal Service", "operator:short": "USPS", "operator:type": "public", "operator:wikidata": "Q668687", "ref": "6523600010"}, "type": "Feature"}
{"geometry": {"coordinates": [-92.7999603, 38.788186], "type": "Point"}, "id": "uSSV4UTkTo2ChSiGbqBgBjeZAyI=", "properties": {"@source_uri": "https://tools.usps.com/UspsToolsRestServices/rest/POLocator/findLocations", "@spider": "usps_collection_boxes", "addr:city": "BUNCETON", "addr:country": "US", "addr:postcode": "65237", "addr:state": "MO", "addr:street_address": "112 W MAIN ST", "amenity": "post_box", "collection_times": "Mo-Fr 11:15; Sa 09:00", "nsi_id": "unitedstatespostalservice-a77078", "operator": "United States Postal Service", "operator:short": "USPS", "operator:type": "public", "operator:wikidata": "Q668687", "ref": "6523700001"}, "type": "Feature"}
{"geometry": {"coordinates": [-92.798844, 38.788139], "type": "Point"}, "id": "5efYc48SLgZzzdFRt6pPpVM6xvE=", "properties": {"@source_uri": "https://tools.usps.com/UspsToolsRestServices/rest/POLocator/findLocations", "@spider": "usps_collection_boxes", "addr:city": "BUNCETON", "addr:country": "US", "addr:postcode": "65237", "addr:state": "MO", "addr:street_address": "112 W MAIN ST", "amenity": "post_box", "collection_times": "Mo-Fr 11:15; Sa 09:00", "indoor": "yes", "nsi_id": "unitedstatespostalservice-a77078", "operator": "United States Postal Service", "operator:short": "USPS", "operator:type": "public", "operator:wikidata": "Q668687", "ref": "6523700002"}, "type": "Feature"}
{"geometry": {"coordinates": [-92.799828655, 38.788210328], "type": "Point"}, "id": "2B_opQo8wGhVcqjzOdMImQt_9uw=", "properties": {"@source_uri": "https://tools.usps.com/UspsToolsRestServices/rest/POLocator/findLocations", "@spider": "usps_collection_boxes", "addr:city": "BUNCETON", "addr:country": "US", "addr:postcode": "65237", "addr:state": "MO", "addr:street_address": "112 W MAIN ST", "amenity": "post_box", "collection_times": "Mo-Fr 11:15; Sa 09:00", "indoor": "yes", "nsi_id": "unitedstatespostalservice-a77078", "operator": "United States Postal Service", "operator:short": "USPS", "operator:type": "public", "operator:wikidata": "Q668687", "ref": "6523700004"}, "type": "Feature"}
{"geometry": {"coordinates": [-92.4408062, 39.51131], "type": "Point"}, "id": "XefpuMGlRVyn2MxhntMzLOvO_iE=", "properties": {"@source_uri": "https://tools.usps.com/UspsToolsRestServices/rest/POLocator/findLocations", "@spider": "usps_collection_boxes", "addr:city": "CAIRO", "addr:country": "US", "addr:postcode": "65239", "addr:state": "MO", "addr:street_address": "105 S MAIN ST", "amenity": "post_box", "collection_times": "Mo-Fr 11:45; Sa 08:45", "nsi_id": "unitedstatespostalservice-a77078", "operator": "United States Postal Service", "operator:short": "USPS", "operator:type": "public", "operator:wikidata": "Q668687", "ref": "6523900001"}, "type": "Feature"}
{"geometry": {"coordinates": [-92.4409173, 39.511256], "type": "Point"}, "id": "951DabcoKGLvzBkZvcwoMx6fhlg=", "properties": {"@source_uri": "https://tools.usps.com/UspsToolsRestServices/rest/POLocator/findLocations", "@spider": "usps_collection_boxes", "addr:city": "CAIRO", "addr:country": "US", "addr:postcode": "65239", "addr:state": "MO", "addr:street_address": "105 S MAIN ST", "amenity": "post_box", "collection_times": "Mo-Fr 11:45; Sa 08:45", "indoor": "yes", "nsi_id": "unitedstatespostalservice-a77078", "operator": "United States Postal Service", "operator:short": "USPS", "operator:type": "public", "operator:wikidata": "Q668687", "ref": "6523900002"}, "type": "Feature"}
{"geometry": {"coordinates": [-92.440756569, 39.511386702], "type": "Point"}, "id": "Bvsk7Pv7sxcSFPigmTpxbrbdQLA=", "properties": {"@source_uri": "https://tools.usps.com/UspsToolsRestServices/rest/POLocator/findLocations", "@spider": "usps_collection_boxes", "addr:city": "CAIRO", "addr:country": "US", "addr:postcode": "65239", "addr:state": "MO", "addr:street_address": "105 S MAIN ST", "amenity": "post_box", "collection_times": "Mo-Fr 11:45; Sa 08:45", "indoor": "yes", "nsi_id": "unitedstatespostalservice-a77078", "operator": "United States Postal Service", "operator:short": "USPS", "operator:type": "public", "operator:wikidata": "Q668687", "ref": "6523900003"}, "type": "Feature"}
{"geometry": {"coordinates": [-92.13825, 39.210511], "type": "Point"}, "id": "SGFmctMhGWkZ58T-2HSm6F3H41k=", "properties": {"@source_uri": "https://tools.usps.com/UspsToolsRestServices/rest/POLocator/findLocations", "@spider": "usps_collection_boxes", "addr:city": "CENTRALIA", "addr:country": "US", "addr:postcode": "65240", "addr:state": "MO", "addr:street_address": "104 W SNEED ST", "amenity": "post_box", "collection_times": "Mo-Fr 15:45; Sa 09:30", "note": "ON 12/24 AND 12/31, THIS BOX MAY BE COLLECTED AS EARLY AS 12 NOON.", "nsi_id": "unitedstatespostalservice-a77078", "operator": "United States Postal Service", "operator:short": "USPS", "operator:type": "public", "operator:wikidata": "Q668687", "ref": "6524000003"}, "type": "Feature"}
{"geometry": {"coordinates": [-92.138244, 39.210538], "type": "Point"}, "id": "lHSacg28eFBHGPEYXBOVnTmG1o0=", "properties": {"@source_uri": "https://tools.usps.com/UspsToolsRestServices/rest/POLocator/findLocations", "@spider": "usps_collection_boxes", "addr:city": "CENTRALIA", "addr:country": "US", "addr:postcode": "65240", "addr:state": "MO", "addr:street_address": "104 W SNEED ST", "amenity": "post_box", "collection_times": "Mo-Fr 15:45; Sa 09:30", "indoor": "yes", "note": "ON 12/24 AND 12/31, THIS BOX MAY BE COLLECTED AS EARLY AS 12 NOON.", "nsi_id": "unitedstatespostalservice-a77078", "operator": "United States Postal Service", "operator:short": "USPS", "operator:type": "public", "operator:wikidata": "Q668687", "ref": "6524000012"}, "type": "Feature"}
{"geometry": {"coordinates": [-92.138318067, 39.210508667], "type": "Point"}, "id": "wKN_R6GgKNPa7bxPzfzx6I5_YhU=", "properties": {"@source_uri": "https://tools.usps.com/UspsToolsRestServices/rest/POLocator/findLocations", "@spider": "usps_collection_boxes", "addr:city": "CENTRALIA", "addr:country": "US", "addr:postcode": "65240", "addr:state": "MO", "addr:street_address": "104 W SNEED ST", "amenity": "post_box", "collection_times": "Mo-Fr 15:45; Sa 09:30", "indoor": "yes", "note": "ON 12/24 AND 12/31, THIS BOX MAY BE COLLECTED AS EARLY AS 12 NOON.", "nsi_id": "unitedstatespostalservice-a77078", "operator": "United States Postal Service", "operator:short": "USPS", "operator:type": "public", "operator:wikidata": "Q668687", "ref": "6524000015"}, "type": "Feature"}
{"geometry": {"coordinates": [-92.413608667, 39.342684917], "type": "Point"}, "id": "7j9yLHiCEUb7YKuNG2EsqAqarDU=", "properties": {"@source_uri": "https://tools.usps.com/UspsToolsRestServices/rest/POLocator/findLocations", "@spider": "usps_collection_boxes", "addr:city": "CLARK", "addr:country": "US", "addr:postcode": "65243", "addr:state": "MO", "addr:street_address": "104 HUBBARD ST", "amenity": "post_box", "collection_times": "Mo-Fr 13:45; Sa 08:30", "note": "ON 12/24 AND 12/31, THIS BOX MAY BE COLLECTED AS EARLY AS 12 NOON.", "nsi_id": "unitedstatespostalservice-a77078", "operator": "United States Postal Service", "operator:short": "USPS", "operator:type": "public", "operator:wikidata": "Q668687", "ref": "6524300001"}, "type": "Feature"}
{"geometry": {"coordinates": [-92.413608667, 39.342684917], "type": "Point"}, "id": "t7ajhsjTSP-2XLUsbNex3PBsKeY=", "properties": {"@source_uri": "https://tools.usps.com/UspsToolsRestServices/rest/POLocator/findLocations", "@spider": "usps_collection_boxes", "addr:city": "CLARK", "addr:country": "US", "addr:postcode": "65243", "addr:state": "MO", "addr:street_address": "104 HUBBARD ST", "amenity": "post_box", "collection_times": "Mo-Fr 13:45; Sa 08:30", "indoor": "yes", "note": "ON 12/24 AND 12/31, THIS BOX MAY BE COLLECTED AS EARLY AS 12 NOON.", "nsi_id": "unitedstatespostalservice-a77078", "operator": "United States Postal Service", "operator:short": "USPS", "operator:type": "public", "operator:wikidata": "Q668687", "ref": "6524300002"}, "type": "Feature"}
{"geometry": {"coordinates": [-92.413608667, 39.342684917], "type": "Point"}, "id": "Z5xjHKYUwgi5e1iDK9AWx2RqVEY=", "properties": {"@source_uri": "https://tools.usps.com/UspsToolsRestServices/rest/POLocator/findLocations", "@spider": "usps_collection_boxes", "addr:city": "CLARK", "addr:country": "US", "addr:postcode": "65243", "addr:state": "MO", "addr:street_address": "104 HUBBARD ST", "amenity": "post_box", "collection_times": "Mo-Fr 13:45; Sa 08:30", "indoor": "yes", "note": "ON 12/24 AND 12/31, THIS BOX MAY BE COLLECTED AS EARLY AS 12 NOON.", "nsi_id": "unitedstatespostalservice-a77078", "operator": "United States Postal Service", "operator:short": "USPS", "operator:type": "public", "operator:wikidata": "Q668687", "ref": "6524300004"}, "type": "Feature"}
{"geometry": {"coordinates": [-92.665382, 39.442389], "type": "Point"}, "id": "w_HsQ1nL5tUL92kr_lKIxtneRXY=", "properties": {"@source_uri": "https://tools.usps.com/UspsToolsRestServices/rest/POLocator/findLocations", "@spider": "usps_collection_boxes", "addr:city": "CLIFTON HILL", "addr:country": "US", "addr:postcode": "65244", "addr:state": "MO", "addr:street_address": "639 HARLAN ST", "amenity": "post_box", "collection_times": "Mo-Fr 11:45; Sa 09:30", "nsi_id": "unitedstatespostalservice-a77078", "operator": "United States Postal Service", "operator:short": "USPS", "operator:type": "public", "operator:wikidata": "Q668687", "ref": "6524400001"}, "type": "Feature"}
{"geometry": {"coordinates": [-92.665347, 39.442395], "type": "Point"}, "id": "3QpGGyQ6lG10npQjsY18Y-QTHxM=", "properties": {"@source_uri": "https://tools.usps.com/UspsToolsRestServices/rest/POLocator/findLocations", "@spider": "usps_collection_boxes", "addr:city": "CLIFTON HILL", "addr:country": "US", "addr:postcode": "65244", "addr:state": "MO", "addr:street_address": "639 HARLAN ST", "amenity": "post_box", "collection_times": "Mo-Fr 11:45; Sa 09:30", "indoor": "yes", "nsi_id": "unitedstatespostalservice-a77078", "operator": "United States Postal Service", "operator:short": "USPS", "operator:type": "public", "operator:wikidata": "Q668687", "ref": "6524400002"}, "type": "Feature"}
{"geometry": {"coordinates": [-92.665386052, 39.442239555], "type": "Point"}, "id": "VBY0jr9N-x2JYYINA_jkDLiM8E4=", "properties": {"@source_uri": "https://tools.usps.com/UspsToolsRestServices/rest/POLocator/findLocations", "@spider": "usps_collection_boxes", "addr:city": "CLIFTON HILL", "addr:country": "US", "addr:postcode": "65244", "addr:state": "MO", "addr:street_address": "639 HARLAN ST", "amenity": "post_box", "collection_times": "Mo-Fr 11:45; Sa 09:30", "indoor": "yes", "nsi_id": "unitedstatespostalservice-a77078", "operator": "United States Postal Service", "operator:short": "USPS", "operator:type": "public", "operator:wikidata": "Q668687", "ref": "6524400003"}, "type": "Feature"}
{"geometry": {"coordinates": [-92.475463, 39.634901], "type": "Point"}, "id": "lYt3PHYCGiQhR94RuAIuhbfvqcU=", "properties": {"@source_uri": "https://tools.usps.com/UspsToolsRestServices/rest/POLocator/findLocations", "@spider": "usps_collection_boxes", "addr:city": "EXCELLO", "addr:country": "US", "addr:postcode": "65247", "addr:state": "MO", "addr:street_address": "38129 KAYAK AVE", "amenity": "post_box", "collection_times": "Mo-Fr 09:45; Sa 09:15", "nsi_id": "unitedstatespostalservice-a77078", "operator": "United States Postal Service", "operator:short": "USPS", "operator:type": "public", "operator:wikidata": "Q668687", "ref": "6524700001"}, "type": "Feature"}
{"geometry": {"coordinates": [-92.475428, 39.634895], "type": "Point"}, "id": "x8P7cdn7JekUEJSDLZD876KkJwQ=", "properties": {"@source_uri": "https://tools.usps.com/UspsToolsRestServices/rest/POLocator/findLocations", "@spider": "usps_collection_boxes", "addr:city": "EXCELLO", "addr:country": "US", "addr:postcode": "65247", "addr:state": "MO", "addr:street_address": "38129 KAYAK AVE", "amenity": "post_box", "collection_times": "Mo-Fr 09:45; Sa 09:15", "indoor": "yes", "nsi_id": "unitedstatespostalservice-a77078", "operator": "United States Postal Service", "operator:short": "USPS", "operator:type": "public", "operator:wikidata": "Q668687", "ref": "6524700002"}, "type": "Feature"}
{"geometry": {"coordinates": [-92.475447541, 39.63454792], "type": "Point"}, "id": "8-1KzuOIuio22zDLQwc1-p85Bps=", "properties": {"@source_uri": "https://tools.usps.com/UspsToolsRestServices/rest/POLocator/findLocations", "@spider": "usps_collection_boxes", "addr:city": "EXCELLO", "addr:country": "US", "addr:postcode": "65247", "addr:state": "MO", "addr:street_address": "38129 KAYAK AVE", "amenity": "post_box", "collection_times": "Mo-Fr 09:45; Sa 09:15", "indoor": "yes", "nsi_id": "unitedstatespostalservice-a77078", "operator": "United States Postal Service", "operator:short": "USPS", "operator:type": "public", "operator:wikidata": "Q668687", "ref": "6524700003"}, "type": "Feature"}
{"geometry": {"coordinates": [-92.6843766, 39.14516], "type": "Point"}, "id": "1ZJkOkAhRopLsligNT8RTro8GQU=", "properties": {"@source_uri": "https://tools.usps.com/UspsToolsRestServices/rest/POLocator/findLocations", "@spider": "usps_collection_boxes", "addr:city": "FAYETTE", "addr:country": "US", "addr:postcode": "65248", "addr:state": "MO", "addr:street_address": "103 W MORRISON ST", "amenity": "post_box", "collection_times": "Mo-Fr 15:30; Sa 10:30", "note": "ON 12/24 AND 12/31, THIS BOX MAY BE COLLECTED AS EARLY AS 12 NOON.", "nsi_id": "unitedstatespostalservice-a77078", "operator": "United States Postal Service", "operator:short": "USPS", "operator:type": "public", "operator:wikidata": "Q668687", "ref": "6524800001"}, "type": "Feature"}
{"geometry": {"coordinates": [-92.6841846, 39.145206], "type": "Point"}, "id": "kz9ACal89pYESHR8dBfiEzWIfhg=", "properties": {"@source_uri": "https://tools.usps.com/UspsToolsRestServices/rest/POLocator/findLocations", "@spider": "usps_collection_boxes", "addr:city": "FAYETTE", "addr:country": "US", "addr:postcode": "65248", "addr:state": "MO", "addr:street_address": "103 W MORRISON ST", "amenity": "post_box", "collection_times": "Mo-Fr 15:30; Sa 10:30", "indoor": "yes", "note": "ON 12/24 AND 12/31, THIS BOX MAY BE COLLECTED AS EARLY AS 12 NOON.", "nsi_id": "unitedstatespostalservice-a77078", "operator": "United States Postal Service", "operator:short": "USPS", "operator:type": "public", "operator:wikidata": "Q668687", "ref": "6524800015"}, "type": "Feature"}
{"geometry": {"coordinates": [-92.684291958, 39.145423004], "type": "Point"}, "id": "aBZegcc-ITmUmlAyCgg2_kY6OUU=", "properties": {"@source_uri": "https://tools.usps.com/UspsToolsRestServices/rest/POLocator/findLocations", "@spider": "usps_collection_boxes", "addr:city": "FAYETTE", "addr:country": "US", "addr:postcode": "65248", "addr:state": "MO", "addr:street_address": "103 W MORRISON ST", "amenity": "post_box", "collection_times": "Mo-Fr 15:30; Sa 10:30", "indoor": "yes", "note": "ON 12/24 AND 12/31, THIS BOX MAY BE COLLECTED AS EARLY AS 12 NOON.", "nsi_id": "unitedstatespostalservice-a77078", "operator": "United States Postal Service", "operator:short": "USPS", "operator:type": "public", "operator:wikidata": "Q668687", "ref": "6524800017"}, "type": "Feature"}
{"geometry": {"coordinates": [-92.7523889731, 39.0120110144], "type": "Point"}, "id": "HK_wGzpTaEohrBj8cDxn4bUupOg=", "properties": {"@source_uri": "https://tools.usps.com/UspsToolsRestServices/rest/POLocator/findLocations", "@spider": "usps_collection_boxes", "addr:city": "FRANKLIN", "addr:country": "US", "addr:postcode": "65250", "addr:state": "MO", "addr:street_address": "107 2ND ST", "amenity": "post_box", "collection_times": "Mo-Sa 11:15", "nsi_id": "unitedstatespostalservice-a77078", "operator": "United States Postal Service", "operator:short": "USPS", "operator:type": "public", "operator:wikidata": "Q668687", "ref": "6525000001"}, "type": "Feature"}
{"geometry": {"coordinates": [-92.7523889731, 39.0120110144], "type": "Point"}, "id": "59PLwCTYJcgcr0SSGKGLnmIcKIw=", "properties": {"@source_uri": "https://tools.usps.com/UspsToolsRestServices/rest/POLocator/findLocations", "@spider": "usps_collection_boxes", "addr:city": "FRANKLIN", "addr:country": "US", "addr:postcode": "65250", "addr:state": "MO", "addr:street_address": "107 2ND ST", "amenity": "post_box", "collection_times": "Mo-Sa 11:15", "indoor": "yes", "nsi_id": "unitedstatespostalservice-a77078", "operator": "United States Postal Service", "operator:short": "USPS", "operator:type": "public", "operator:wikidata": "Q668687", "ref": "6525000002"}, "type": "Feature"}
{"geometry": {"coordinates": [-92.7523889731, 39.0120110144], "type": "Point"}, "id": "EOuDEdIDNiivMHPith33v-HEoaQ=", "properties": {"@source_uri": "https://tools.usps.com/UspsToolsRestServices/rest/POLocator/findLocations", "@spider": "usps_collection_boxes", "addr:city": "FRANKLIN", "addr:country": "US", "addr:postcode": "65250", "addr:state": "MO", "addr:street_address": "107 2ND ST", "amenity": "post_box", "collection_times": "Mo-Sa 11:15", "indoor": "yes", "nsi_id": "unitedstatespostalservice-a77078", "operator": "United States Postal Service", "operator:short": "USPS", "operator:type": "public", "operator:wikidata": "Q668687", "ref": "6525000003"}, "type": "Feature"}
{"geometry": {"coordinates": [-91.948131, 38.845674], "type": "Point"}, "id": "d_e4c_Uk-XHzQ4EGPE_tuHpAeZk=", "properties": {"@source_uri": "https://tools.usps.com/UspsToolsRestServices/rest/POLocator/findLocations", "@spider": "usps_collection_boxes", "addr:city": "FULTON", "addr:country": "US", "addr:postcode": "65251", "addr:state": "MO", "addr:street_address": "301 COURT ST", "amenity": "post_box", "collection_times": "Mo-Fr 16:45; Sa 14:00", "note": "ON 12/24 AND 12/31, THIS BOX MAY BE COLLECTED AS EARLY AS 12 NOON.", "nsi_id": "unitedstatespostalservice-a77078", "operator": "United States Postal Service", "operator:short": "USPS", "operator:type": "public", "operator:wikidata": "Q668687", "ref": "6525100002"}, "type": "Feature"}
{"geometry": {"coordinates": [-91.943883, 38.866436], "type": "Point"}, "id": "VlF0OtCCJB5xMuEH3XqK3SDCC44=", "properties": {"@source_uri": "https://tools.usps.com/UspsToolsRestServices/rest/POLocator/findLocations", "@spider": "usps_collection_boxes", "addr:city": "FULTON", "addr:country": "US", "addr:postcode": "65251", "addr:state": "MO", "addr:street_address": "1701 N BLUFF ST", "amenity": "post_box", "collection_times": "Mo-Fr 11:30", "nsi_id": "unitedstatespostalservice-a77078", "operator": "United States Postal Service", "operator:short": "USPS", "operator:type": "public", "operator:wikidata": "Q668687", "ref": "6525100009"}, "type": "Feature"}
{"geometry": {"coordinates": [-91.948101, 38.845583], "type": "Point"}, "id": "oMIHW-075QjrQdf48-Jrjk86Lro=", "properties": {"@source_uri": "https://tools.usps.com/UspsToolsRestServices/rest/POLocator/findLocations", "@spider": "usps_collection_boxes", "addr:city": "FULTON", "addr:country": "US", "addr:postcode": "65251", "addr:state": "MO", "addr:street_address": "301 COURT ST", "amenity": "post_box", "collection_times": "Mo-Fr 17:00; Sa 14:00", "indoor": "yes", "note": "ON 12/24 AND 12/31, THIS BOX MAY BE COLLECTED AS EARLY AS 12 NOON.", "nsi_id": "unitedstatespostalservice-a77078", "operator": "United States Postal Service", "operator:short": "USPS", "operator:type": "public", "operator:wikidata": "Q668687", "ref": "6525100031"}, "type": "Feature"}
{"geometry": {"coordinates": [-91.9654599, 38.880311], "type": "Point"}, "id": "SuZzCFfQWjX5_hg58m4acjVQq_w=", "properties": {"@source_uri": "https://tools.usps.com/UspsToolsRestServices/rest/POLocator/findLocations", "@spider": "usps_collection_boxes", "addr:city": "FULTON", "addr:country": "US", "addr:postcode": "65251", "addr:state": "MO", "addr:street_address": "2625 FAIRWAY DR", "amenity": "post_box", "collection_times": "Mo-Sa 09:00", "nsi_id": "unitedstatespostalservice-a77078", "operator": "United States Postal Service", "operator:short": "USPS", "operator:type": "public", "operator:wikidata": "Q668687", "ref": "6525100036"}, "type": "Feature"}
{"geometry": {"coordinates": [-91.948159129, 38.845629044], "type": "Point"}, "id": "N0MrhKCU8pQFbEYd_W81a7OjdYw=", "properties": {"@source_uri": "https://tools.usps.com/UspsToolsRestServices/rest/POLocator/findLocations", "@spider": "usps_collection_boxes", "addr:city": "FULTON", "addr:country": "US", "addr:postcode": "65251", "addr:state": "MO", "addr:street_address": "301 COURT ST", "amenity": "post_box", "collection_times": "Mo-Fr 17:00; Sa 14:00", "indoor": "yes", "note": "ON 12/24 AND 12/31, THIS BOX MAY BE COLLECTED AS EARLY AS 12 NOON.", "nsi_id": "unitedstatespostalservice-a77078", "operator": "United States Postal Service", "operator:short": "USPS", "operator:type": "public", "operator:wikidata": "Q668687", "ref": "6525100039"}, "type": "Feature"}
{"geometry": {"coordinates": [-92.847368, 39.224424], "type": "Point"}, "id": "f7LilJ7MqFUbQa81yAjKgFunVLI=", "properties": {"@source_uri": "https://tools.usps.com/UspsToolsRestServices/rest/POLocator/findLocations", "@spider": "usps_collection_boxes", "addr:city": "GLASGOW", "addr:country": "US", "addr:postcode": "65254", "addr:state": "MO", "addr:street_address": "404 1ST ST", "amenity": "post_box", "collection_times": "Mo-Fr 14:45; Sa 09:45", "note": "ON 12/24 AND 12/31, THIS BOX MAY BE COLLECTED AS EARLY AS 12 NOON.", "nsi_id": "unitedstatespostalservice-a77078", "operator": "United States Postal Service", "operator:short": "USPS", "operator:type": "public", "operator:wikidata": "Q668687", "ref": "6525400002"}, "type": "Feature"}
{"geometry": {"coordinates": [-92.847409, 39.22439], "type": "Point"}, "id": "2UStxVKaBZ74VWC--AMQ1V3HdFM=", "properties": {"@source_uri": "https://tools.usps.com/UspsToolsRestServices/rest/POLocator/findLocations", "@spider": "usps_collection_boxes", "addr:city": "GLASGOW", "addr:country": "US", "addr:postcode": "65254", "addr:state": "MO", "addr:street_address": "404 1ST ST", "amenity": "post_box", "collection_times": "Mo-Fr 14:45; Sa 09:45", "indoor": "yes", "note": "ON 12/24 AND 12/31, THIS BOX MAY BE COLLECTED AS EARLY AS 12 NOON.", "nsi_id": "unitedstatespostalservice-a77078", "operator": "United States Postal Service", "operator:short": "USPS", "operator:type": "public", "operator:wikidata": "Q668687", "ref": "6525400007"}, "type": "Feature"}
{"geometry": {"coordinates": [-92.847347568, 39.224412627], "type": "Point"}, "id": "nCPhd8KUK6zoH-lDj7zrboKhtGA=", "properties": {"@source_uri": "https://tools.usps.com/UspsToolsRestServices/rest/POLocator/findLocations", "@spider": "usps_collection_boxes", "addr:city": "GLASGOW", "addr:country": "US", "addr:postcode": "65254", "addr:state": "MO", "addr:street_address": "404 1ST ST", "amenity": "post_box", "collection_times": "Mo-Fr 14:45; Sa 09:45", "indoor": "yes", "note": "ON 12/24 AND 12/31, THIS BOX MAY BE COLLECTED AS EARLY AS 12 NOON.", "nsi_id": "unitedstatespostalservice-a77078", "operator": "United States Postal Service", "operator:short": "USPS", "operator:type": "public", "operator:wikidata": "Q668687", "ref": "6525400008"}, "type": "Feature"}
{"geometry": {"coordinates": [-92.2236983, 39.117895], "type": "Point"}, "id": "tkIsCfTnzCG_jGbQ0ysDsymfdoM=", "properties": {"@source_uri": "https://tools.usps.com/UspsToolsRestServices/rest/POLocator/findLocations", "@spider": "usps_collection_boxes", "addr:city": "HALLSVILLE", "addr:country": "US", "addr:postcode": "65255", "addr:state": "MO", "addr:street_address": "319 HWY 124 E", "amenity": "post_box", "collection_times": "Mo-Fr 15:45; Sa 10:15", "note": "ON 12/24 AND 12/31, THIS BOX MAY BE COLLECTED AS EARLY AS 12 NOON.", "nsi_id": "unitedstatespostalservice-a77078", "operator": "United States Postal Service", "operator:short": "USPS", "operator:type": "public", "operator:wikidata": "Q668687", "ref": "6525500001"}, "type": "Feature"}
{"geometry": {"coordinates": [-92.2237471, 39.117945], "type": "Point"}, "id": "QhdexdpUJaEfhw8iN1DVmKijQ_8=", "properties": {"@source_uri": "https://tools.usps.com/UspsToolsRestServices/rest/POLocator/findLocations", "@spider": "usps_collection_boxes", "addr:city": "HALLSVILLE", "addr:country": "US", "addr:postcode": "65255", "addr:state": "MO", "addr:street_address": "319 HWY 124 E", "amenity": "post_box", "collection_times": "Mo-Fr 15:45; Sa 10:15", "indoor": "yes", "note": "ON 12/24 AND 12/31, THIS BOX MAY BE COLLECTED AS EARLY AS 12 NOON.", "nsi_id": "unitedstatespostalservice-a77078", "operator": "United States Postal Service", "operator:short": "USPS", "operator:type": "public", "operator:wikidata": "Q668687", "ref": "6525500002"}, "type": "Feature"}
{"geometry": {"coordinates": [-92.223702472, 39.117801519], "type": "Point"}, "id": "6-FaJw1KGm3FtaejQHo9D8Y9o1g=", "properties": {"@source_uri": "https://tools.usps.com/UspsToolsRestServices/rest/POLocator/findLocations", "@spider": "usps_collection_boxes", "addr:city": "HALLSVILLE", "addr:country": "US", "addr:postcode": "65255", "addr:state": "MO", "addr:street_address": "319 HWY 124 E", "amenity": "post_box", "collection_times": "Mo-Fr 15:45; Sa 10:15", "indoor": "yes", "note": "ON 12/24 AND 12/31, THIS BOX MAY BE COLLECTED AS EARLY AS 12 NOON.", "nsi_id": "unitedstatespostalservice-a77078", "operator": "United States Postal Service", "operator:short": "USPS", "operator:type": "public", "operator:wikidata": "Q668687", "ref": "6525500004"}, "type": "Feature"}
{"geometry": {"coordinates": [-92.462791, 39.141833], "type": "Point"}, "id": "T5LiKqbs6LruraV3RRFU1osLmVU=", "properties": {"@source_uri": "https://tools.usps.com/UspsToolsRestServices/rest/POLocator/findLocations", "@spider": "usps_collection_boxes", "addr:city": "HARRISBURG", "addr:country": "US", "addr:postcode": "65256", "addr:state": "MO", "addr:street_address": "181 W SEXTON ST", "amenity": "post_box", "collection_times": "Mo-Fr 14:15; Sa 09:45", "note": "ON 12/24 AND 12/31, THIS BOX MAY BE COLLECTED AS EARLY AS 12 NOON.", "nsi_id": "unitedstatespostalservice-a77078", "operator": "United States Postal Service", "operator:short": "USPS", "operator:type": "public", "operator:wikidata": "Q668687", "ref": "6525600001"}, "type": "Feature"}
{"geometry": {"coordinates": [-92.4628233039, 39.1418235149], "type": "Point"}, "id": "1R3y14359ffgkxwm6qhUvE_VTBM=", "properties": {"@source_uri": "https://tools.usps.com/UspsToolsRestServices/rest/POLocator/findLocations", "@spider": "usps_collection_boxes", "addr:city": "HARRISBURG", "addr:country": "US", "addr:postcode": "65256", "addr:state": "MO", "addr:street_address": "181 W SEXTON ST", "amenity": "post_box", "collection_times": "Mo-Fr 14:15; Sa 09:45", "indoor": "yes", "note": "ON 12/24 AND 12/31, THIS BOX MAY BE COLLECTED AS EARLY AS 12 NOON.", "nsi_id": "unitedstatespostalservice-a77078", "operator": "United States Postal Service", "operator:short": "USPS", "operator:type": "public", "operator:wikidata": "Q668687", "ref": "6525600002"}, "type": "Feature"}
{"geometry": {"coordinates": [-92.462823304, 39.141823515], "type": "Point"}, "id": "g3h7FZRBLVqdVTvSk18KxRkZG_U=", "properties": {"@source_uri": "https://tools.usps.com/UspsToolsRestServices/rest/POLocator/findLocations", "@spider": "usps_collection_boxes", "addr:city": "HARRISBURG", "addr:country": "US", "addr:postcode": "65256", "addr:state": "MO", "addr:street_address": "181 W SEXTON ST", "amenity": "post_box", "collection_times": "Mo-Fr 14:15; Sa 09:45", "indoor": "yes", "note": "ON 12/24 AND 12/31, THIS BOX MAY BE COLLECTED AS EARLY AS 12 NOON.", "nsi_id": "unitedstatespostalservice-a77078", "operator": "United States Postal Service", "operator:short": "USPS", "operator:type": "public", "operator:wikidata": "Q668687", "ref": "6525600004"}, "type": "Feature"}
{"geometry": {"coordinates": [-92.5134876, 39.304386], "type": "Point"}, "id": "BVAAZdH_XDzukSV-rn5K9y6ogeY=", "properties": {"@source_uri": "https://tools.usps.com/UspsToolsRestServices/rest/POLocator/findLocations", "@spider": "usps_collection_boxes", "addr:city": "HIGBEE", "addr:country": "US", "addr:postcode": "65257", "addr:state": "MO", "addr:street_address": "503 DIVISION ST", "amenity": "post_box", "collection_times": "Mo-Fr 10:45; Sa 09:15", "nsi_id": "unitedstatespostalservice-a77078", "operator": "United States Postal Service", "operator:short": "USPS", "operator:type": "public", "operator:wikidata": "Q668687", "ref": "6525700001"}, "type": "Feature"}
{"geometry": {"coordinates": [-92.5134412, 39.304268], "type": "Point"}, "id": "_pL-nAO6zaLLhBHT3DPz5LbsyP8=", "properties": {"@source_uri": "https://tools.usps.com/UspsToolsRestServices/rest/POLocator/findLocations", "@spider": "usps_collection_boxes", "addr:city": "HIGBEE", "addr:country": "US", "addr:postcode": "65257", "addr:state": "MO", "addr:street_address": "503 DIVISION ST", "amenity": "post_box", "collection_times": "Mo-Fr 10:45; Sa 09:15", "indoor": "yes", "nsi_id": "unitedstatespostalservice-a77078", "operator": "United States Postal Service", "operator:short": "USPS", "operator:type": "public", "operator:wikidata": "Q668687", "ref": "6525700002"}, "type": "Feature"}
{"geometry": {"coordinates": [-92.513444254, 39.304388558], "type": "Point"}, "id": "uHRKSAHoRgGsh5rooqJ_N0185Ic=", "properties": {"@source_uri": "https://tools.usps.com/UspsToolsRestServices/rest/POLocator/findLocations", "@spider": "usps_collection_boxes", "addr:city": "HIGBEE", "addr:country": "US", "addr:postcode": "65257", "addr:state": "MO", "addr:street_address": "503 DIVISION ST", "amenity": "post_box", "collection_times": "Mo-Fr 10:45; Sa 09:15", "indoor": "yes", "nsi_id": "unitedstatespostalservice-a77078", "operator": "United States Postal Service", "operator:short": "USPS", "operator:type": "public", "operator:wikidata": "Q668687", "ref": "6525700003"}, "type": "Feature"}
{"geometry": {"coordinates": [-92.1288019, 39.493768], "type": "Point"}, "id": "f3zOkeES_7ysP6cUbhxQpL8QO6c=", "properties": {"@source_uri": "https://tools.usps.com/UspsToolsRestServices/rest/POLocator/findLocations", "@spider": "usps_collection_boxes", "addr:city": "HOLLIDAY", "addr:country": "US", "addr:postcode": "65258", "addr:state": "MO", "addr:street_address": "305 MAIN ST", "amenity": "post_box", "collection_times": "Mo-Fr 11:15; Sa 08:30", "nsi_id": "unitedstatespostalservice-a77078", "operator": "United States Postal Service", "operator:short": "USPS", "operator:type": "public", "operator:wikidata": "Q668687", "ref": "6525800001"}, "type": "Feature"}
{"geometry": {"coordinates": [-92.128904, 39.494322], "type": "Point"}, "id": "xeulOMaN4RKA8ko2WrVFQitrIXE=", "properties": {"@source_uri": "https://tools.usps.com/UspsToolsRestServices/rest/POLocator/findLocations", "@spider": "usps_collection_boxes", "addr:city": "HOLLIDAY", "addr:country": "US", "addr:postcode": "65258", "addr:state": "MO", "addr:street_address": "305 MAIN ST", "amenity": "post_box", "collection_times": "Mo-Fr 11:15; Sa 09:00", "indoor": "yes", "nsi_id": "unitedstatespostalservice-a77078", "operator": "United States Postal Service", "operator:short": "USPS", "operator:type": "public", "operator:wikidata": "Q668687", "ref": "6525800002"}, "type": "Feature"}
{"geometry": {"coordinates": [-92.128847729, 39.494340144], "type": "Point"}, "id": "t6UVrqt8cmPdbFn4vAPFdW0gLZg=", "properties": {"@source_uri": "https://tools.usps.com/UspsToolsRestServices/rest/POLocator/findLocations", "@spider": "usps_collection_boxes", "addr:city": "HOLLIDAY", "addr:country": "US", "addr:postcode": "65258", "addr:state": "MO", "addr:street_address": "305 MAIN ST", "amenity": "post_box", "collection_times": "Mo-Fr 11:15; Sa 09:00", "indoor": "yes", "nsi_id": "unitedstatespostalservice-a77078", "operator": "United States Postal Service", "operator:short": "USPS", "operator:type": "public", "operator:wikidata": "Q668687", "ref": "6525800004"}, "type": "Feature"}
{"geometry": {"coordinates": [-92.5446957, 39.440024], "type": "Point"}, "id": "Y4NVLsn6ZuOt_MT1oPC1CSwyZLg=", "properties": {"@source_uri": "https://tools.usps.com/UspsToolsRestServices/rest/POLocator/findLocations", "@spider": "usps_collection_boxes", "addr:city": "HUNTSVILLE", "addr:country": "US", "addr:postcode": "65259", "addr:state": "MO", "addr:street_address": "121 S MAIN ST", "amenity": "post_box", "collection_times": "Mo-Fr 16:00; Sa 10:00", "note": "ON 12/24 AND 12/31, THIS BOX MAY BE COLLECTED AS EARLY AS 12 NOON.", "nsi_id": "unitedstatespostalservice-a77078", "operator": "United States Postal Service", "operator:short": "USPS", "operator:type": "public", "operator:wikidata": "Q668687", "ref": "6525900001"}, "type": "Feature"}
{"geometry": {"coordinates": [-92.5446953, 39.439889], "type": "Point"}, "id": "Pg3ggGvv1ZXLUbOSOixh_M850-Q=", "properties": {"@source_uri": "https://tools.usps.com/UspsToolsRestServices/rest/POLocator/findLocations", "@spider": "usps_collection_boxes", "addr:city": "HUNTSVILLE", "addr:country": "US", "addr:postcode": "65259", "addr:state": "MO", "addr:street_address": "121 S MAIN ST", "amenity": "post_box", "collection_times": "Mo-Fr 16:00; Sa 10:00", "indoor": "yes", "note": "ON 12/24 AND 12/31, THIS BOX MAY BE COLLECTED AS EARLY AS 12 NOON.", "nsi_id": "unitedstatespostalservice-a77078", "operator": "United States Postal Service", "operator:short": "USPS", "operator:type": "public", "operator:wikidata": "Q668687", "ref": "6525900004"}, "type": "Feature"}
{"geometry": {"coordinates": [-92.471566, 39.588113], "type": "Point"}, "id": "zpCHXPAzm4X_QS1YWHbOHHtNfA4=", "properties": {"@source_uri": "https://tools.usps.com/UspsToolsRestServices/rest/POLocator/findLocations", "@spider": "usps_collection_boxes", "addr:city": "JACKSONVILLE", "addr:country": "US", "addr:postcode": "65260", "addr:state": "MO", "addr:street_address": "124 W RANDOLPH ST", "amenity": "post_box", "collection_times": "Mo-Fr 11:15; Sa 08:30", "nsi_id": "unitedstatespostalservice-a77078", "operator": "United States Postal Service", "operator:short": "USPS", "operator:type": "public", "operator:wikidata": "Q668687", "ref": "6526000001"}, "type": "Feature"}
{"geometry": {"coordinates": [-92.471486, 39.58814], "type": "Point"}, "id": "m2s47XtWHphRiS0UQJg4J_3Ma3U=", "properties": {"@source_uri": "https://tools.usps.com/UspsToolsRestServices/rest/POLocator/findLocations", "@spider": "usps_collection_boxes", "addr:city": "JACKSONVILLE", "addr:country": "US", "addr:postcode": "65260", "addr:state": "MO", "addr:street_address": "124 W RANDOLPH ST", "amenity": "post_box", "collection_times": "Mo-Fr 11:15; Sa 08:30", "indoor": "yes", "nsi_id": "unitedstatespostalservice-a77078", "operator": "United States Postal Service", "operator:short": "USPS", "operator:type": "public", "operator:wikidata": "Q668687", "ref": "6526000002"}, "type": "Feature"}
{"geometry": {"coordinates": [-92.4720615, 39.588104536], "type": "Point"}, "id": "lUu3_lZyqOKt8MmbFc1UgoGlEPU=", "properties": {"@source_uri": "https://tools.usps.com/UspsToolsRestServices/rest/POLocator/findLocations", "@spider": "usps_collection_boxes", "addr:city": "JACKSONVILLE", "addr:country": "US", "addr:postcode": "65260", "addr:state": "MO", "addr:street_address": "124 W RANDOLPH ST", "amenity": "post_box", "collection_times": "Mo-Fr 11:15; Sa 08:30", "indoor": "yes", "nsi_id": "unitedstatespostalservice-a77078", "operator": "United States Postal Service", "operator:short": "USPS", "operator:type": "public", "operator:wikidata": "Q668687", "ref": "6526000003"}, "type": "Feature"}
{"geometry": {"coordinates": [-92.9391253229, 39.4345793685], "type": "Point"}, "id": "dWaheyPgLgqJA_7tnctxnfyY3b4=", "properties": {"@source_uri": "https://tools.usps.com/UspsToolsRestServices/rest/POLocator/findLocations", "@spider": "usps_collection_boxes", "addr:city": "KEYTESVILLE", "addr:country": "US", "addr:postcode": "65261", "addr:state": "MO", "addr:street_address": "418 W BRIDGE ST", "amenity": "post_box", "collection_times": "Mo-Fr 15:00; Sa 09:00", "note": "ON 12/24 AND 12/31, THIS BOX MAY BE COLLECTED AS EARLY AS 12 NOON.", "nsi_id": "unitedstatespostalservice-a77078", "operator": "United States Postal Service", "operator:short": "USPS", "operator:type": "public", "operator:wikidata": "Q668687", "ref": "6526100001"}, "type": "Feature"}
{"geometry": {"coordinates": [-92.9391253229, 39.4345793685], "type": "Point"}, "id": "V2X6_b6TnHJq9aTcQyz63I5Lrh8=", "properties": {"@source_uri": "https://tools.usps.com/UspsToolsRestServices/rest/POLocator/findLocations", "@spider": "usps_collection_boxes", "addr:city": "KEYTESVILLE", "addr:country": "US", "addr:postcode": "65261", "addr:state": "MO", "addr:street_address": "418 W BRIDGE ST", "amenity": "post_box", "collection_times": "Mo-Fr 15:00; Sa 09:00", "indoor": "yes", "note": "ON 12/24 AND 12/31, THIS BOX MAY BE COLLECTED AS EARLY AS 12 NOON.", "nsi_id": "unitedstatespostalservice-a77078", "operator": "United States Postal Service", "operator:short": "USPS", "operator:type": "public", "operator:wikidata": "Q668687", "ref": "6526100004"}, "type": "Feature"}
{"geometry": {"coordinates": [-92.9391253229, 39.4345793685], "type": "Point"}, "id": "HuC5JSfdvxpndIHclz8BOIBXu54=", "properties": {"@source_uri": "https://tools.usps.com/UspsToolsRestServices/rest/POLocator/findLocations", "@spider": "usps_collection_boxes", "addr:city": "KEYTESVILLE", "addr:country": "US", "addr:postcode": "65261", "addr:state": "MO", "addr:street_address": "418 W BRIDGE ST", "amenity": "post_box", "collection_times": "Mo-Fr 15:00; Sa 09:00", "indoor": "yes", "note": "ON 12/24 AND 12/31, THIS BOX MAY BE COLLECTED AS EARLY AS 12 NOON.", "nsi_id": "unitedstatespostalservice-a77078", "operator": "United States Postal Service", "operator:short": "USPS", "operator:type": "public", "operator:wikidata": "Q668687", "ref": "6526100006"}, "type": "Feature"}
{"geometry": {"coordinates": [-91.9417, 38.946455], "type": "Point"}, "id": "MqCx6aP_IrlK4BmhEwIHvXGCk0k=", "properties": {"@source_uri": "https://tools.usps.com/UspsToolsRestServices/rest/POLocator/findLocations", "@spider": "usps_collection_boxes", "addr:city": "KINGDOM CITY", "addr:country": "US", "addr:postcode": "65262", "addr:state": "MO", "addr:street_address": "5500 OLD US HIGHWAY 40", "amenity": "post_box", "collection_times": "Mo-Fr 15:00; Sa 09:00", "note": "ON 12/24 AND 12/31, THIS BOX MAY BE COLLECTED AS EARLY AS 12 NOON.", "nsi_id": "unitedstatespostalservice-a77078", "operator": "United States Postal Service", "operator:short": "USPS", "operator:type": "public", "operator:wikidata": "Q668687", "ref": "6526200001"}, "type": "Feature"}
{"geometry": {"coordinates": [-91.9426405, 38.941563], "type": "Point"}, "id": "zxQziwTJ5qNFilG35CDXNX1nsVc=", "properties": {"@source_uri": "https://tools.usps.com/UspsToolsRestServices/rest/POLocator/findLocations", "@spider": "usps_collection_boxes", "addr:city": "KINGDOM CITY", "addr:country": "US", "addr:postcode": "65262", "addr:state": "MO", "addr:street_address": "3301 COUNTY ROAD 211", "amenity": "post_box", "collection_times": "Mo-Sa 11:00", "nsi_id": "unitedstatespostalservice-a77078", "operator": "United States Postal Service", "operator:short": "USPS", "operator:type": "public", "operator:wikidata": "Q668687", "ref": "6526200004"}, "type": "Feature"}
{"geometry": {"coordinates": [-91.9396794, 38.940467], "type": "Point"}, "id": "bKK8PpCBED5ZuguH7JvjHhKqSgk=", "properties": {"@source_uri": "https://tools.usps.com/UspsToolsRestServices/rest/POLocator/findLocations", "@spider": "usps_collection_boxes", "addr:city": "KINGDOM CITY", "addr:country": "US", "addr:postcode": "65262", "addr:state": "MO", "addr:street_address": "3304 GOLD AVE", "amenity": "post_box", "collection_times": "Mo-Sa 11:00", "nsi_id": "unitedstatespostalservice-a77078", "operator": "United States Postal Service", "operator:short": "USPS", "operator:type": "public", "operator:wikidata": "Q668687", "ref": "6526200005"}, "type": "Feature"}
{"geometry": {"coordinates": [-91.944249, 38.949625], "type": "Point"}, "id": "BFgbzmqNjiECaN5C8gewWoKRQyU=", "properties": {"@source_uri": "https://tools.usps.com/UspsToolsRestServices/rest/POLocator/findLocations", "@spider": "usps_collection_boxes", "addr:city": "KINGDOM CITY", "addr:country": "US", "addr:postcode": "65262", "addr:state": "MO", "addr:street_address": "5500 OLD US HIGHWAY 40", "amenity": "post_box", "collection_times": "Mo-Fr 14:45; Sa 09:00", "indoor": "yes", "note": "ON 12/24 AND 12/31, THIS BOX MAY BE COLLECTED AS EARLY AS 12 NOON.", "nsi_id": "unitedstatespostalservice-a77078", "operator": "United States Postal Service", "operator:short": "USPS", "operator:type": "public", "operator:wikidata": "Q668687", "ref": "6526200008"}, "type": "Feature"}
{"geometry": {"coordinates": [-91.9428979, 38.940161], "type": "Point"}, "id": "QOH0Oio4sSBJKf_dUFnVrflGRb8=", "properties": {"@source_uri": "https://tools.usps.com/UspsToolsRestServices/rest/POLocator/findLocations", "@spider": "usps_collection_boxes", "addr:city": "KINGDOM CITY", "addr:country": "US", "addr:postcode": "65262", "addr:state": "MO", "addr:street_address": "3325 COUNTY ROAD 211", "amenity": "post_box", "collection_times": "Mo-Sa 11:00", "nsi_id": "unitedstatespostalservice-a77078", "operator": "United States Postal Service", "operator:short": "USPS", "operator:type": "public", "operator:wikidata": "Q668687", "ref": "6526200009"}, "type": "Feature"}
{"geometry": {"coordinates": [-91.944260429, 38.949561165], "type": "Point"}, "id": "cBRVA3mWqZnj97z4LwuKZFVd0S4=", "properties": {"@source_uri": "https://tools.usps.com/UspsToolsRestServices/rest/POLocator/findLocations", "@spider": "usps_collection_boxes", "addr:city": "KINGDOM CITY", "addr:country": "US", "addr:postcode": "65262", "addr:state": "MO", "addr:street_address": "5500 OLD US HIGHWAY 40", "amenity": "post_box", "collection_times": "Mo-Fr 14:45; Sa 09:00", "indoor": "yes", "note": "ON 12/24 AND 12/31, THIS BOX MAY BE COLLECTED AS EARLY AS 12 NOON.", "nsi_id": "unitedstatespostalservice-a77078", "operator": "United States Postal Service", "operator:short": "USPS", "operator:type": "public", "operator:wikidata": "Q668687", "ref": "6526200010"}, "type": "Feature"}
{"geometry": {"coordinates": [-92.2102691, 39.474188], "type": "Point"}, "id": "kyXqSt0CIg-noNdcntV_xbwsQ3k=", "properties": {"@source_uri": "https://tools.usps.com/UspsToolsRestServices/rest/POLocator/findLocations", "@spider": "usps_collection_boxes", "addr:city": "MADISON", "addr:country": "US", "addr:postcode": "65263", "addr:state": "MO", "addr:street_address": "101 N MAIN ST", "amenity": "post_box", "collection_times": "Mo-Fr 11:15; Sa 09:15", "nsi_id": "unitedstatespostalservice-a77078", "operator": "United States Postal Service", "operator:short": "USPS", "operator:type": "public", "operator:wikidata": "Q668687", "ref": "6526300001"}, "type": "Feature"}
{"geometry": {"coordinates": [-92.210219, 39.473453], "type": "Point"}, "id": "Y7PpmWlwupsPuvto9AyNY90ujmo=", "properties": {"@source_uri": "https://tools.usps.com/UspsToolsRestServices/rest/POLocator/findLocations", "@spider": "usps_collection_boxes", "addr:city": "MADISON", "addr:country": "US", "addr:postcode": "65263", "addr:state": "MO", "addr:street_address": "101 N MAIN ST", "amenity": "post_box", "collection_times": "Mo-Fr 11:15; Sa 09:15", "indoor": "yes", "nsi_id": "unitedstatespostalservice-a77078", "operator": "United States Postal Service", "operator:short": "USPS", "operator:type": "public", "operator:wikidata": "Q668687", "ref": "6526300002"}, "type": "Feature"}
{"geometry": {"coordinates": [-92.210265365, 39.473510048], "type": "Point"}, "id": "0p9R9rEdALK36OXAtWFr2Hl5PYQ=", "properties": {"@source_uri": "https://tools.usps.com/UspsToolsRestServices/rest/POLocator/findLocations", "@spider": "usps_collection_boxes", "addr:city": "MADISON", "addr:country": "US", "addr:postcode": "65263", "addr:state": "MO", "addr:street_address": "101 N MAIN ST", "amenity": "post_box", "collection_times": "Mo-Fr 11:15; Sa 09:15", "indoor": "yes", "nsi_id": "unitedstatespostalservice-a77078", "operator": "United States Postal Service", "operator:short": "USPS", "operator:type": "public", "operator:wikidata": "Q668687", "ref": "6526300004"}, "type": "Feature"}
{"geometry": {"coordinates": [-91.6455886, 39.099526], "type": "Point"}, "id": "aXHsEnBj8s_lQt7Itc3IWkrvzHI=", "properties": {"@source_uri": "https://tools.usps.com/UspsToolsRestServices/rest/POLocator/findLocations", "@spider": "usps_collection_boxes", "addr:city": "MARTINSBURG", "addr:country": "US", "addr:postcode": "65264", "addr:state": "MO", "addr:street_address": "208 E JEFFERSON ST", "amenity": "post_box", "collection_times": "Mo-Fr 11:15; Sa 09:00", "nsi_id": "unitedstatespostalservice-a77078", "operator": "United States Postal Service", "operator:short": "USPS", "operator:type": "public", "operator:wikidata": "Q668687", "ref": "6526400001"}, "type": "Feature"}
{"geometry": {"coordinates": [-91.6455983, 39.099414], "type": "Point"}, "id": "OBoZaB2dQ73X2OsMT_ZAUu8rxxQ=", "properties": {"@source_uri": "https://tools.usps.com/UspsToolsRestServices/rest/POLocator/findLocations", "@spider": "usps_collection_boxes", "addr:city": "MARTINSBURG", "addr:country": "US", "addr:postcode": "65264", "addr:state": "MO", "addr:street_address": "208 E JEFFERSON ST", "amenity": "post_box", "collection_times": "Mo-Fr 11:15; Sa 09:00", "indoor": "yes", "nsi_id": "unitedstatespostalservice-a77078", "operator": "United States Postal Service", "operator:short": "USPS", "operator:type": "public", "operator:wikidata": "Q668687", "ref": "6526400002"}, "type": "Feature"}
{"geometry": {"coordinates": [-91.645523141, 39.099609547], "type": "Point"}, "id": "pF2223GaQIwvk8g96pWVmNPeIE4=", "properties": {"@source_uri": "https://tools.usps.com/UspsToolsRestServices/rest/POLocator/findLocations", "@spider": "usps_collection_boxes", "addr:city": "MARTINSBURG", "addr:country": "US", "addr:postcode": "65264", "addr:state": "MO", "addr:street_address": "208 E JEFFERSON ST", "amenity": "post_box", "collection_times": "Mo-Fr 11:15; Sa 09:00", "indoor": "yes", "nsi_id": "unitedstatespostalservice-a77078", "operator": "United States Postal Service", "operator:short": "USPS", "operator:type": "public", "operator:wikidata": "Q668687", "ref": "6526400004"}, "type": "Feature"}
{"geometry": {"coordinates": [-91.8872632, 39.171837], "type": "Point"}, "id": "9Bs3V8lrV4miA8dIEvn3Uuwg3UQ=", "properties": {"@source_uri": "https://tools.usps.com/UspsToolsRestServices/rest/POLocator/findLocations", "@spider": "usps_collection_boxes", "addr:city": "MEXICO", "addr:country": "US", "addr:postcode": "65265", "addr:state": "MO", "addr:street_address": "420 W JACKSON ST", "amenity": "post_box", "collection_times": "Mo-Fr 17:00; Sa 11:45", "note": "ON 12/24 AND 12/31, THIS BOX MAY BE COLLECTED AS EARLY AS 12 NOON.", "nsi_id": "unitedstatespostalservice-a77078", "operator": "United States Postal Service", "operator:short": "USPS", "operator:type": "public", "operator:wikidata": "Q668687", "ref": "6526500001"}, "type": "Feature"}
{"geometry": {"coordinates": [-91.8826674, 39.171441], "type": "Point"}, "id": "c9fbVNcjSV7XukdwBQsBfbJamD0=", "properties": {"@source_uri": "https://tools.usps.com/UspsToolsRestServices/rest/POLocator/findLocations", "@spider": "usps_collection_boxes", "addr:city": "MEXICO", "addr:country": "US", "addr:postcode": "65265", "addr:state": "MO", "addr:street_address": "120 S JEFFERSON ST", "amenity": "post_box", "collection_times": "Mo-Sa 08:00", "nsi_id": "unitedstatespostalservice-a77078", "operator": "United States Postal Service", "operator:short": "USPS", "operator:type": "public", "operator:wikidata": "Q668687", "ref": "6526500003"}, "type": "Feature"}
{"geometry": {"coordinates": [-91.8867629, 39.171906], "type": "Point"}, "id": "1YLaVWUpDyBs6K5JUK1AEv7PHio=", "properties": {"@source_uri": "https://tools.usps.com/UspsToolsRestServices/rest/POLocator/findLocations", "@spider": "usps_collection_boxes", "addr:city": "MEXICO", "addr:country": "US", "addr:postcode": "65265", "addr:state": "MO", "addr:street_address": "420 W JACKSON ST", "amenity": "post_box", "collection_times": "Mo-Fr 17:00; Sa 11:45", "indoor": "yes", "note": "ON 12/24 AND 12/31, THIS BOX MAY BE COLLECTED AS EARLY AS 12 NOON.", "nsi_id": "unitedstatespostalservice-a77078", "operator": "United States Postal Service", "operator:short": "USPS", "operator:type": "public", "operator:wikidata": "Q668687", "ref": "6526500040"}, "type": "Feature"}
{"geometry": {"coordinates": [-91.8828094, 39.172601], "type": "Point"}, "id": "WjoEg8XOJlDoXe8-q84BPU22g8I=", "properties": {"@source_uri": "https://tools.usps.com/UspsToolsRestServices/rest/POLocator/findLocations", "@spider": "usps_collection_boxes", "addr:city": "MEXICO", "addr:country": "US", "addr:postcode": "65265", "addr:state": "MO", "addr:street_address": "101 N JEFFERSON ST", "amenity": "post_box", "collection_times": "Mo-Sa 11:00", "nsi_id": "unitedstatespostalservice-a77078", "operator": "United States Postal Service", "operator:short": "USPS", "operator:type": "public", "operator:wikidata": "Q668687", "ref": "6526500044"}, "type": "Feature"}
{"geometry": {"coordinates": [-91.886832, 39.172170492], "type": "Point"}, "id": "tA70gRidSurqCDyR48gOIcwzMpo=", "properties": {"@source_uri": "https://tools.usps.com/UspsToolsRestServices/rest/POLocator/findLocations", "@spider": "usps_collection_boxes", "addr:city": "MEXICO", "addr:country": "US", "addr:postcode": "65265", "addr:state": "MO", "addr:street_address": "420 W JACKSON ST", "amenity": "post_box", "collection_times": "Mo-Fr 17:00; Sa 11:45", "indoor": "yes", "note": "ON 12/24 AND 12/31, THIS BOX MAY BE COLLECTED AS EARLY AS 12 NOON.", "nsi_id": "unitedstatespostalservice-a77078", "operator": "United States Postal Service", "operator:short": "USPS", "operator:type": "public", "operator:wikidata": "Q668687", "ref": "6526500045"}, "type": "Feature"}
{"geometry": {"coordinates": [-92.4436899, 39.419984], "type": "Point"}, "id": "b7sOqt-vETAOfWgvMTTwt34-VyQ=", "properties": {"@source_uri": "https://tools.usps.com/UspsToolsRestServices/rest/POLocator/findLocations", "@spider": "usps_collection_boxes", "addr:city": "MOBERLY", "addr:country": "US", "addr:postcode": "65270", "addr:state": "MO", "addr:street_address": "121 JOHNSON ST", "amenity": "post_box", "collection_times": "Mo-Fr 16:45; Sa 10:45", "note": "ON 12/24 AND 12/31, THIS BOX MAY BE COLLECTED AS EARLY AS 12 NOON.", "nsi_id": "unitedstatespostalservice-a77078", "operator": "United States Postal Service", "operator:short": "USPS", "operator:type": "public", "operator:wikidata": "Q668687", "ref": "6527000001"}, "type": "Feature"}
{"geometry": {"coordinates": [-92.4367734, 39.419875], "type": "Point"}, "id": "uAPNBi4WIyd0YK4CK2oWVxQEUq8=", "properties": {"@source_uri": "https://tools.usps.com/UspsToolsRestServices/rest/POLocator/findLocations", "@spider": "usps_collection_boxes", "addr:city": "MOBERLY", "addr:country": "US", "addr:postcode": "65270", "addr:state": "MO", "addr:street_address": "101 W REED ST", "amenity": "post_box", "collection_times": "Mo-Sa 10:00", "nsi_id": "unitedstatespostalservice-a77078", "operator": "United States Postal Service", "operator:short": "USPS", "operator:type": "public", "operator:wikidata": "Q668687", "ref": "6527000003"}, "type": "Feature"}
{"geometry": {"coordinates": [-92.4138749, 39.42479], "type": "Point"}, "id": "stSrNPQZscWfwm3iTiz1DWzbYyw=", "properties": {"@source_uri": "https://tools.usps.com/UspsToolsRestServices/rest/POLocator/findLocations", "@spider": "usps_collection_boxes", "addr:city": "MOBERLY", "addr:country": "US", "addr:postcode": "65270", "addr:state": "MO", "addr:street_address": "1515 UNION AVE", "amenity": "post_box", "collection_times": "Mo-Sa 10:00", "nsi_id": "unitedstatespostalservice-a77078", "operator": "United States Postal Service", "operator:short": "USPS", "operator:type": "public", "operator:wikidata": "Q668687", "ref": "6527000010"}, "type": "Feature"}
{"geometry": {"coordinates": [-92.4392533, 39.42039], "type": "Point"}, "id": "CNZsJ7nLxEPpx3cMyBlyKv2noms=", "properties": {"@source_uri": "https://tools.usps.com/UspsToolsRestServices/rest/POLocator/findLocations", "@spider": "usps_collection_boxes", "addr:city": "MOBERLY", "addr:country": "US", "addr:postcode": "65270", "addr:state": "MO", "addr:street_address": "223 N WILLIAMS ST", "amenity": "post_box", "collection_times": "Mo-Sa 10:00", "nsi_id": "unitedstatespostalservice-a77078", "operator": "United States Postal Service", "operator:short": "USPS", "operator:type": "public", "operator:wikidata": "Q668687", "ref": "6527000016"}, "type": "Feature"}
{"geometry": {"coordinates": [-92.4402355, 39.419738], "type": "Point"}, "id": "WYZkcGykCeYtyvlJf4fuKGLthps=", "properties": {"@source_uri": "https://tools.usps.com/UspsToolsRestServices/rest/POLocator/findLocations", "@spider": "usps_collection_boxes", "addr:city": "MOBERLY", "addr:country": "US", "addr:postcode": "65270", "addr:state": "MO", "addr:street_address": "322 W REED ST", "amenity": "post_box", "collection_times": "Mo-Sa 09:00", "nsi_id": "unitedstatespostalservice-a77078", "operator": "United States Postal Service", "operator:short": "USPS", "operator:type": "public", "operator:wikidata": "Q668687", "ref": "6527000021"}, "type": "Feature"}
{"geometry": {"coordinates": [-92.4415586, 39.420674], "type": "Point"}, "id": "OiPqSA5QY6fOTBY-lz08xToY7VI=", "properties": {"@source_uri": "https://tools.usps.com/UspsToolsRestServices/rest/POLocator/findLocations", "@spider": "usps_collection_boxes", "addr:city": "MOBERLY", "addr:country": "US", "addr:postcode": "65270", "addr:state": "MO", "addr:street_address": "500 W COATES ST", "amenity": "post_box", "collection_times": "Mo-Sa 10:00", "nsi_id": "unitedstatespostalservice-a77078", "operator": "United States Postal Service", "operator:short": "USPS", "operator:type": "public", "operator:wikidata": "Q668687", "ref": "6527000027"}, "type": "Feature"}
{"geometry": {"coordinates": [-92.4198745, 39.44732], "type": "Point"}, "id": "-RznIYUxYNGkpJTFuz0vzUZJHDY=", "properties": {"@source_uri": "https://tools.usps.com/UspsToolsRestServices/rest/POLocator/findLocations", "@spider": "usps_collection_boxes", "addr:city": "MOBERLY", "addr:country": "US", "addr:postcode": "65270", "addr:state": "MO", "addr:street_address": "1301 E HIGHWAY 24", "amenity": "post_box", "collection_times": "Mo-Sa 10:00", "nsi_id": "unitedstatespostalservice-a77078", "operator": "United States Postal Service", "operator:short": "USPS", "operator:type": "public", "operator:wikidata": "Q668687", "ref": "6527000045"}, "type": "Feature"}
{"geometry": {"coordinates": [-92.4319335, 39.441918], "type": "Point"}, "id": "G8G_B1Ab_cVvNBUeyvpsAolcJ3c=", "properties": {"@source_uri": "https://tools.usps.com/UspsToolsRestServices/rest/POLocator/findLocations", "@spider": "usps_collection_boxes", "addr:city": "MOBERLY", "addr:country": "US", "addr:postcode": "65270", "addr:state": "MO", "addr:street_address": "314 E HIGHWAY 24", "amenity": "post_box", "collection_times": "Mo-Sa 10:00", "nsi_id": "unitedstatespostalservice-a77078", "operator": "United States Postal Service", "operator:short": "USPS", "operator:type": "public", "operator:wikidata": "Q668687", "ref": "6527000046"}, "type": "Feature"}
{"geometry": {"coordinates": [-92.443726, 39.419618], "type": "Point"}, "id": "rJ0KkWgnk2SacbRuBMP1IEejkfs=", "properties": {"@source_uri": "https://tools.usps.com/UspsToolsRestServices/rest/POLocator/findLocations", "@spider": "usps_collection_boxes", "addr:city": "MOBERLY", "addr:country": "US", "addr:postcode": "65270", "addr:state": "MO", "addr:street_address": "121 JOHNSON ST", "amenity": "post_box", "collection_times": "Mo-Fr 16:45; Sa 10:45", "indoor": "yes", "note": "ON 12/24 AND 12/31, THIS BOX MAY BE COLLECTED AS EARLY AS 12 NOON.", "nsi_id": "unitedstatespostalservice-a77078", "operator": "United States Postal Service", "operator:short": "USPS", "operator:type": "public", "operator:wikidata": "Q668687", "ref": "6527000048"}, "type": "Feature"}
{"geometry": {"coordinates": [-92.736782, 39.0173], "type": "Point"}, "id": "ngEVZy14KeXF6-aciC9vJ-ucp08=", "properties": {"@source_uri": "https://tools.usps.com/UspsToolsRestServices/rest/POLocator/findLocations", "@spider": "usps_collection_boxes", "addr:city": "NEW FRANKLIN", "addr:country": "US", "addr:postcode": "65274", "addr:state": "MO", "addr:street_address": "128 E BROADWAY", "amenity": "post_box", "collection_times": "Mo-Fr 14:30; Sa 10:15", "note": "ON 12/24 AND 12/31, THIS BOX MAY BE COLLECTED AS EARLY AS 12 NOON.", "nsi_id": "unitedstatespostalservice-a77078", "operator": "United States Postal Service", "operator:short": "USPS", "operator:type": "public", "operator:wikidata": "Q668687", "ref": "6527400001"}, "type": "Feature"}
{"geometry": {"coordinates": [-92.736833, 39.017274], "type": "Point"}, "id": "fwURaN1_NCEhzG15y6m9nwduxEA=", "properties": {"@source_uri": "https://tools.usps.com/UspsToolsRestServices/rest/POLocator/findLocations", "@spider": "usps_collection_boxes", "addr:city": "NEW FRANKLIN", "addr:country": "US", "addr:postcode": "65274", "addr:state": "MO", "addr:street_address": "128 E BROADWAY", "amenity": "post_box", "collection_times": "Mo-Fr 14:30; Sa 10:15", "indoor": "yes", "note": "ON 12/24 AND 12/31, THIS BOX MAY BE COLLECTED AS EARLY AS 12 NOON.", "nsi_id": "unitedstatespostalservice-a77078", "operator": "United States Postal Service", "operator:short": "USPS", "operator:type": "public", "operator:wikidata": "Q668687", "ref": "6527400002"}, "type": "Feature"}
{"geometry": {"coordinates": [-92.736371386, 39.017319746], "type": "Point"}, "id": "bYIIG15bUJ_wkjtg_M4MvaRcWmI=", "properties": {"@source_uri": "https://tools.usps.com/UspsToolsRestServices/rest/POLocator/findLocations", "@spider": "usps_collection_boxes", "addr:city": "NEW FRANKLIN", "addr:country": "US", "addr:postcode": "65274", "addr:state": "MO", "addr:street_address": "128 E BROADWAY", "amenity": "post_box", "collection_times": "Mo-Fr 14:30; Sa 10:15", "indoor": "yes", "note": "ON 12/24 AND 12/31, THIS BOX MAY BE COLLECTED AS EARLY AS 12 NOON.", "nsi_id": "unitedstatespostalservice-a77078", "operator": "United States Postal Service", "operator:short": "USPS", "operator:type": "public", "operator:wikidata": "Q668687", "ref": "6527400004"}, "type": "Feature"}
{"geometry": {"coordinates": [-92.001481, 39.482622], "type": "Point"}, "id": "ynYWC1B6RpyVfqE7bKFo4-BH6_4=", "properties": {"@source_uri": "https://tools.usps.com/UspsToolsRestServices/rest/POLocator/findLocations", "@spider": "usps_collection_boxes", "addr:city": "PARIS", "addr:country": "US", "addr:postcode": "65275", "addr:state": "MO", "addr:street_address": "307 N WASHINGTON ST", "amenity": "post_box", "collection_times": "Mo-Fr 15:45; Sa 09:00", "note": "ON 12/24 AND 12/31, THIS BOX MAY BE COLLECTED AS EARLY AS 12 NOON.", "nsi_id": "unitedstatespostalservice-a77078", "operator": "United States Postal Service", "operator:short": "USPS", "operator:type": "public", "operator:wikidata": "Q668687", "ref": "6527500001"}, "type": "Feature"}
{"geometry": {"coordinates": [-92.001481, 39.482622], "type": "Point"}, "id": "1FhTFFTIG-WLT9oK6vIe9_jaY5E=", "properties": {"@source_uri": "https://tools.usps.com/UspsToolsRestServices/rest/POLocator/findLocations", "@spider": "usps_collection_boxes", "addr:city": "PARIS", "addr:country": "US", "addr:postcode": "65275", "addr:state": "MO", "addr:street_address": "307 N WASHINGTON ST", "amenity": "post_box", "collection_times": "Mo-Fr 15:45; Sa 09:00", "indoor": "yes", "note": "ON 12/24 AND 12/31, THIS BOX MAY BE COLLECTED AS EARLY AS 12 NOON.", "nsi_id": "unitedstatespostalservice-a77078", "operator": "United States Postal Service", "operator:short": "USPS", "operator:type": "public", "operator:wikidata": "Q668687", "ref": "6527500004"}, "type": "Feature"}
{"geometry": {"coordinates": [-92.9116691, 38.874372], "type": "Point"}, "id": "nkqJKkk7ZCCKWnplHOw96pgtixs=", "properties": {"@source_uri": "https://tools.usps.com/UspsToolsRestServices/rest/POLocator/findLocations", "@spider": "usps_collection_boxes", "addr:city": "PILOT GROVE", "addr:country": "US", "addr:postcode": "65276", "addr:state": "MO", "addr:street_address": "206 ROE ST", "amenity": "post_box", "collection_times": "Mo-Fr 14:30; Sa 09:00", "note": "ON 12/24 AND 12/31, THIS BOX MAY BE COLLECTED AS EARLY AS 12 NOON.", "nsi_id": "unitedstatespostalservice-a77078", "operator": "United States Postal Service", "operator:short": "USPS", "operator:type": "public", "operator:wikidata": "Q668687", "ref": "6527600001"}, "type": "Feature"}
{"geometry": {"coordinates": [-92.911859, 38.874686], "type": "Point"}, "id": "aMzu7z5RFFZxNANJXjpU1tkc9mQ=", "properties": {"@source_uri": "https://tools.usps.com/UspsToolsRestServices/rest/POLocator/findLocations", "@spider": "usps_collection_boxes", "addr:city": "PILOT GROVE", "addr:country": "US", "addr:postcode": "65276", "addr:state": "MO", "addr:street_address": "206 ROE ST", "amenity": "post_box", "collection_times": "Mo-Fr 14:30; Sa 09:00", "indoor": "yes", "note": "ON 12/24 AND 12/31, THIS BOX MAY BE COLLECTED AS EARLY AS 12 NOON.", "nsi_id": "unitedstatespostalservice-a77078", "operator": "United States Postal Service", "operator:short": "USPS", "operator:type": "public", "operator:wikidata": "Q668687", "ref": "6527600002"}, "type": "Feature"}
{"geometry": {"coordinates": [-92.911663701, 38.874466405], "type": "Point"}, "id": "zKfWGcod7L9QNinS9oQjhJjoqWk=", "properties": {"@source_uri": "https://tools.usps.com/UspsToolsRestServices/rest/POLocator/findLocations", "@spider": "usps_collection_boxes", "addr:city": "PILOT GROVE", "addr:country": "US", "addr:postcode": "65276", "addr:state": "MO", "addr:street_address": "206 ROE ST", "amenity": "post_box", "collection_times": "Mo-Fr 14:30; Sa 09:00", "indoor": "yes", "note": "ON 12/24 AND 12/31, THIS BOX MAY BE COLLECTED AS EARLY AS 12 NOON.", "nsi_id": "unitedstatespostalservice-a77078", "operator": "United States Postal Service", "operator:short": "USPS", "operator:type": "public", "operator:wikidata": "Q668687", "ref": "6527600004"}, "type": "Feature"}
{"geometry": {"coordinates": [-92.413189, 39.341189], "type": "Point"}, "id": "rZGDF5BlvPoNSff1QwuXMqcrGhU=", "properties": {"@source_uri": "https://tools.usps.com/UspsToolsRestServices/rest/POLocator/findLocations", "@spider": "usps_collection_boxes", "addr:city": "RENICK", "addr:country": "US", "addr:postcode": "65278", "addr:state": "MO", "addr:street_address": "200 ROBINSON ST", "amenity": "post_box", "collection_times": "Mo-Sa 12:15", "note": "ON 12/24 AND 12/31, THIS BOX MAY BE COLLECTED AS EARLY AS 12 NOON.", "nsi_id": "unitedstatespostalservice-a77078", "operator": "United States Postal Service", "operator:short": "USPS", "operator:type": "public", "operator:wikidata": "Q668687", "ref": "6527800001"}, "type": "Feature"}
{"geometry": {"coordinates": [-92.413189, 39.341189], "type": "Point"}, "id": "fqzWriKg61nd8SmeCMaLXM3p79c=", "properties": {"@source_uri": "https://tools.usps.com/UspsToolsRestServices/rest/POLocator/findLocations", "@spider": "usps_collection_boxes", "addr:city": "RENICK", "addr:country": "US", "addr:postcode": "65278", "addr:state": "MO", "addr:street_address": "200 ROBINSON ST", "amenity": "post_box", "collection_times": "Mo-Sa 12:15", "indoor": "yes", "note": "ON 12/24 AND 12/31, THIS BOX MAY BE COLLECTED AS EARLY AS 12 NOON.", "nsi_id": "unitedstatespostalservice-a77078", "operator": "United States Postal Service", "operator:short": "USPS", "operator:type": "public", "operator:wikidata": "Q668687", "ref": "6527800002"}, "type": "Feature"}
{"geometry": {"coordinates": [-92.413241472, 39.341138617], "type": "Point"}, "id": "5PdgETVnPhcO6rHWMC-x0t91TUY=", "properties": {"@source_uri": "https://tools.usps.com/UspsToolsRestServices/rest/POLocator/findLocations", "@spider": "usps_collection_boxes", "addr:city": "RENICK", "addr:country": "US", "addr:postcode": "65278", "addr:state": "MO", "addr:street_address": "200 ROBINSON ST", "amenity": "post_box", "collection_times": "Mo-Sa 12:15", "indoor": "yes", "note": "ON 12/24 AND 12/31, THIS BOX MAY BE COLLECTED AS EARLY AS 12 NOON.", "nsi_id": "unitedstatespostalservice-a77078", "operator": "United States Postal Service", "operator:short": "USPS", "operator:type": "public", "operator:wikidata": "Q668687", "ref": "6527800003"}, "type": "Feature"}
{"geometry": {"coordinates": [-92.5666459988, 38.9792049997], "type": "Point"}, "id": "S2SokYfuDs_i-RDh8-RgaDwLIH4=", "properties": {"@source_uri": "https://tools.usps.com/UspsToolsRestServices/rest/POLocator/findLocations", "@spider": "usps_collection_boxes", "addr:city": "ROCHEPORT", "addr:country": "US", "addr:postcode": "65279", "addr:state": "MO", "addr:street_address": "200 CENTRAL ST", "amenity": "post_box", "collection_times": "Mo-Fr 13:45; Sa 09:30", "note": "ON 12/24 AND 12/31, THIS BOX MAY BE COLLECTED AS EARLY AS 12 NOON.", "nsi_id": "unitedstatespostalservice-a77078", "operator": "United States Postal Service", "operator:short": "USPS", "operator:type": "public", "operator:wikidata": "Q668687", "ref": "6527900001"}, "type": "Feature"}
{"geometry": {"coordinates": [-92.5666459988, 38.9792049997], "type": "Point"}, "id": "coez1500o-R0qxKsEmeDlm3jKyY=", "properties": {"@source_uri": "https://tools.usps.com/UspsToolsRestServices/rest/POLocator/findLocations", "@spider": "usps_collection_boxes", "addr:city": "ROCHEPORT", "addr:country": "US", "addr:postcode": "65279", "addr:state": "MO", "addr:street_address": "200 CENTRAL ST", "amenity": "post_box", "collection_times": "Mo-Fr 13:45; Sa 09:30", "indoor": "yes", "note": "ON 12/24 AND 12/31, THIS BOX MAY BE COLLECTED AS EARLY AS 12 NOON.", "nsi_id": "unitedstatespostalservice-a77078", "operator": "United States Postal Service", "operator:short": "USPS", "operator:type": "public", "operator:wikidata": "Q668687", "ref": "6527900002"}, "type": "Feature"}
{"geometry": {"coordinates": [-92.5666459988, 38.9792049997], "type": "Point"}, "id": "-O-HqJVfPErUN1tCe44JjqzrUQg=", "properties": {"@source_uri": "https://tools.usps.com/UspsToolsRestServices/rest/POLocator/findLocations", "@spider": "usps_collection_boxes", "addr:city": "ROCHEPORT", "addr:country": "US", "addr:postcode": "65279", "addr:state": "MO", "addr:street_address": "200 CENTRAL ST", "amenity": "post_box", "collection_times": "Mo-Fr 13:45; Sa 09:30", "indoor": "yes", "note": "ON 12/24 AND 12/31, THIS BOX MAY BE COLLECTED AS EARLY AS 12 NOON.", "nsi_id": "unitedstatespostalservice-a77078", "operator": "United States Postal Service", "operator:short": "USPS", "operator:type": "public", "operator:wikidata": "Q668687", "ref": "6527900003"}, "type": "Feature"}
{"geometry": {"coordinates": [-91.724357, 39.209918], "type": "Point"}, "id": "Epk_eQdY3UHhCTKY2FCfaZtlMwo=", "properties": {"@source_uri": "https://tools.usps.com/UspsToolsRestServices/rest/POLocator/findLocations", "@spider": "usps_collection_boxes", "addr:city": "RUSH HILL", "addr:country": "US", "addr:postcode": "65280", "addr:state": "MO", "addr:street_address": "301 N CENTER ST", "amenity": "post_box", "collection_times": "Mo-Fr 14:00; Sa 10:00", "note": "ON 12/24 AND 12/31, THIS BOX MAY BE COLLECTED AS EARLY AS 12 NOON.", "nsi_id": "unitedstatespostalservice-a77078", "operator": "United States Postal Service", "operator:short": "USPS", "operator:type": "public", "operator:wikidata": "Q668687", "ref": "6528000001"}, "type": "Feature"}
{"geometry": {"coordinates": [-91.724271, 39.209852], "type": "Point"}, "id": "TX_wKexb7DXygO9mt0ciQBAR534=", "properties": {"@source_uri": "https://tools.usps.com/UspsToolsRestServices/rest/POLocator/findLocations", "@spider": "usps_collection_boxes", "addr:city": "RUSH HILL", "addr:country": "US", "addr:postcode": "65280", "addr:state": "MO", "addr:street_address": "301 N CENTER ST", "amenity": "post_box", "collection_times": "Mo-Fr 15:45; Sa 10:45", "indoor": "yes", "note": "ON 12/24 AND 12/31, THIS BOX MAY BE COLLECTED AS EARLY AS 12 NOON.", "nsi_id": "unitedstatespostalservice-a77078", "operator": "United States Postal Service", "operator:short": "USPS", "operator:type": "public", "operator:wikidata": "Q668687", "ref": "6528000002"}, "type": "Feature"}
{"geometry": {"coordinates": [-91.724676078, 39.210231619], "type": "Point"}, "id": "9KETMEy5hMXlbxuPiG__wx91bNg=", "properties": {"@source_uri": "https://tools.usps.com/UspsToolsRestServices/rest/POLocator/findLocations", "@spider": "usps_collection_boxes", "addr:city": "RUSH HILL", "addr:country": "US", "addr:postcode": "65280", "addr:state": "MO", "addr:street_address": "301 N CENTER ST", "amenity": "post_box", "collection_times": "Mo-Fr 15:45; Sa 10:45", "indoor": "yes", "note": "ON 12/24 AND 12/31, THIS BOX MAY BE COLLECTED AS EARLY AS 12 NOON.", "nsi_id": "unitedstatespostalservice-a77078", "operator": "United States Postal Service", "operator:short": "USPS", "operator:type": "public", "operator:wikidata": "Q668687", "ref": "6528000003"}, "type": "Feature"}
{"geometry": {"coordinates": [-92.80125, 39.421801], "type": "Point"}, "id": "faH7_xGLDI8GfeFTrlMUpT687sU=", "properties": {"@source_uri": "https://tools.usps.com/UspsToolsRestServices/rest/POLocator/findLocations", "@spider": "usps_collection_boxes", "addr:city": "SALISBURY", "addr:country": "US", "addr:postcode": "65281", "addr:state": "MO", "addr:street_address": "110 E 4TH ST", "amenity": "post_box", "collection_times": "Mo-Fr 16:15; Sa 11:15", "note": "ON 12/24 AND 12/31, THIS BOX MAY BE COLLECTED AS EARLY AS 12 NOON.", "nsi_id": "unitedstatespostalservice-a77078", "operator": "United States Postal Service", "operator:short": "USPS", "operator:type": "public", "operator:wikidata": "Q668687", "ref": "6528100003"}, "type": "Feature"}
{"geometry": {"coordinates": [-92.801344, 39.421777], "type": "Point"}, "id": "PfB-XIQIEBrw1AuzQ6tlB6oCLA4=", "properties": {"@source_uri": "https://tools.usps.com/UspsToolsRestServices/rest/POLocator/findLocations", "@spider": "usps_collection_boxes", "addr:city": "SALISBURY", "addr:country": "US", "addr:postcode": "65281", "addr:state": "MO", "addr:street_address": "110 E 4TH ST", "amenity": "post_box", "collection_times": "Mo-Fr 16:15; Sa 11:15", "indoor": "yes", "note": "ON 12/24 AND 12/31, THIS BOX MAY BE COLLECTED AS EARLY AS 12 NOON.", "nsi_id": "unitedstatespostalservice-a77078", "operator": "United States Postal Service", "operator:short": "USPS", "operator:type": "public", "operator:wikidata": "Q668687", "ref": "6528100009"}, "type": "Feature"}
{"geometry": {"coordinates": [-92.801288028, 39.421840573], "type": "Point"}, "id": "U5p-_Ur-Z13PiXZitvmmz9rXXTg=", "properties": {"@source_uri": "https://tools.usps.com/UspsToolsRestServices/rest/POLocator/findLocations", "@spider": "usps_collection_boxes", "addr:city": "SALISBURY", "addr:country": "US", "addr:postcode": "65281", "addr:state": "MO", "addr:street_address": "110 E 4TH ST", "amenity": "post_box", "collection_times": "Mo-Fr 16:15; Sa 11:15", "indoor": "yes", "note": "ON 12/24 AND 12/31, THIS BOX MAY BE COLLECTED AS EARLY AS 12 NOON.", "nsi_id": "unitedstatespostalservice-a77078", "operator": "United States Postal Service", "operator:short": "USPS", "operator:type": "public", "operator:wikidata": "Q668687", "ref": "6528100012"}, "type": "Feature"}
{"geometry": {"coordinates": [-91.81938, 39.368756], "type": "Point"}, "id": "IF28vfVm6aXpoNrx-4Brue4_-Fw=", "properties": {"@source_uri": "https://tools.usps.com/UspsToolsRestServices/rest/POLocator/findLocations", "@spider": "usps_collection_boxes", "addr:city": "SANTA FE", "addr:country": "US", "addr:postcode": "65282", "addr:state": "MO", "addr:street_address": "35595 ROUTE D", "amenity": "post_box", "collection_times": "Mo-Sa 12:15", "note": "ON 12/24 AND 12/31, THIS BOX MAY BE COLLECTED AS EARLY AS 12 NOON.", "nsi_id": "unitedstatespostalservice-a77078", "operator": "United States Postal Service", "operator:short": "USPS", "operator:type": "public", "operator:wikidata": "Q668687", "ref": "6528200001"}, "type": "Feature"}
{"geometry": {"coordinates": [-91.819283, 39.368768], "type": "Point"}, "id": "y76yXNIaj2mRinRuEWBqfgD2ABM=", "properties": {"@source_uri": "https://tools.usps.com/UspsToolsRestServices/rest/POLocator/findLocations", "@spider": "usps_collection_boxes", "addr:city": "SANTA FE", "addr:country": "US", "addr:postcode": "65282", "addr:state": "MO", "addr:street_address": "35595 ROUTE D", "amenity": "post_box", "collection_times": "Mo-Sa 12:15", "indoor": "yes", "note": "ON 12/24 AND 12/31, THIS BOX MAY BE COLLECTED AS EARLY AS 12 NOON.", "nsi_id": "unitedstatespostalservice-a77078", "operator": "United States Postal Service", "operator:short": "USPS", "operator:type": "public", "operator:wikidata": "Q668687", "ref": "6528200002"}, "type": "Feature"}
{"geometry": {"coordinates": [-91.819351877, 39.368695778], "type": "Point"}, "id": "XHYSeI_D-yXCFmk1SWcs3Uztylg=", "properties": {"@source_uri": "https://tools.usps.com/UspsToolsRestServices/rest/POLocator/findLocations", "@spider": "usps_collection_boxes", "addr:city": "SANTA FE", "addr:country": "US", "addr:postcode": "65282", "addr:state": "MO", "addr:street_address": "35595 ROUTE D", "amenity": "post_box", "collection_times": "Mo-Sa 12:15", "indoor": "yes", "note": "ON 12/24 AND 12/31, THIS BOX MAY BE COLLECTED AS EARLY AS 12 NOON.", "nsi_id": "unitedstatespostalservice-a77078", "operator": "United States Postal Service", "operator:short": "USPS", "operator:type": "public", "operator:wikidata": "Q668687", "ref": "6528200003"}, "type": "Feature"}
{"geometry": {"coordinates": [-91.8655323, 39.55107], "type": "Point"}, "id": "e40SI2RwIU8aWyGVzTV10FssLxI=", "properties": {"@source_uri": "https://tools.usps.com/UspsToolsRestServices/rest/POLocator/findLocations", "@spider": "usps_collection_boxes", "addr:city": "STOUTSVILLE", "addr:country": "US", "addr:postcode": "65283", "addr:state": "MO", "addr:street_address": "24599 MONROE ROAD 473", "amenity": "post_box", "collection_times": "Mo-Fr 11:45; Sa 09:00", "nsi_id": "unitedstatespostalservice-a77078", "operator": "United States Postal Service", "operator:short": "USPS", "operator:type": "public", "operator:wikidata": "Q668687", "ref": "6528300001"}, "type": "Feature"}
{"geometry": {"coordinates": [-91.865208093, 39.550970884], "type": "Point"}, "id": "8IPUSpwFZxbkJxlWIlNNv-Vgtmc=", "properties": {"@source_uri": "https://tools.usps.com/UspsToolsRestServices/rest/POLocator/findLocations", "@spider": "usps_collection_boxes", "addr:city": "STOUTSVILLE", "addr:country": "US", "addr:postcode": "65283", "addr:state": "MO", "addr:street_address": "24599 MONROE ROAD 473", "amenity": "post_box", "collection_times": "Mo-Fr 11:45; Sa 09:00", "indoor": "yes", "nsi_id": "unitedstatespostalservice-a77078", "operator": "United States Postal Service", "operator:short": "USPS", "operator:type": "public", "operator:wikidata": "Q668687", "ref": "6528300002"}, "type": "Feature"}
{"geometry": {"coordinates": [-92.2821070404, 39.234725013], "type": "Point"}, "id": "dbyiSzYJapHq-I-qu-0BdjS1i-g=", "properties": {"@source_uri": "https://tools.usps.com/UspsToolsRestServices/rest/POLocator/findLocations", "@spider": "usps_collection_boxes", "addr:city": "STURGEON", "addr:country": "US", "addr:postcode": "65284", "addr:state": "MO", "addr:street_address": "111 N WENTZ ST", "amenity": "post_box", "collection_times": "Mo-Fr 14:15; Sa 09:30", "note": "ON 12/24 AND 12/31, THIS BOX MAY BE COLLECTED AS EARLY AS 12 NOON.", "nsi_id": "unitedstatespostalservice-a77078", "operator": "United States Postal Service", "operator:short": "USPS", "operator:type": "public", "operator:wikidata": "Q668687", "ref": "6528400001"}, "type": "Feature"}
{"geometry": {"coordinates": [-92.281979, 39.234272], "type": "Point"}, "id": "_JV4oDYjuwALa5aPwY8zR2QfFB8=", "properties": {"@source_uri": "https://tools.usps.com/UspsToolsRestServices/rest/POLocator/findLocations", "@spider": "usps_collection_boxes", "addr:city": "STURGEON", "addr:country": "US", "addr:postcode": "65284", "addr:state": "MO", "addr:street_address": "111 N WENTZ ST", "amenity": "post_box", "collection_times": "Mo-Fr 14:15; Sa 10:00", "indoor": "yes", "note": "ON 12/24 AND 12/31, THIS BOX MAY BE COLLECTED AS EARLY AS 12 NOON.", "nsi_id": "unitedstatespostalservice-a77078", "operator": "United States Postal Service", "operator:short": "USPS", "operator:type": "public", "operator:wikidata": "Q668687", "ref": "6528400002"}, "type": "Feature"}
{"geometry": {"coordinates": [-91.982691, 39.189151], "type": "Point"}, "id": "xyyls09G65mTkt7HMnBtg78qp0g=", "properties": {"@source_uri": "https://tools.usps.com/UspsToolsRestServices/rest/POLocator/findLocations", "@spider": "usps_collection_boxes", "addr:city": "THOMPSON", "addr:country": "US", "addr:postcode": "65285", "addr:state": "MO", "addr:street_address": "10339 AUDRAIN ROAD 945", "amenity": "post_box", "collection_times": "Mo-Fr 13:45; Sa 08:30", "note": "ON 12/24 AND 12/31, THIS BOX MAY BE COLLECTED AS EARLY AS 12 NOON.", "nsi_id": "unitedstatespostalservice-a77078", "operator": "United States Postal Service", "operator:short": "USPS", "operator:type": "public", "operator:wikidata": "Q668687", "ref": "6528500001"}, "type": "Feature"}
{"geometry": {"coordinates": [-91.982832, 39.189119], "type": "Point"}, "id": "3kxAxCgEHtJTa9BKMXxPvY_EWqU=", "properties": {"@source_uri": "https://tools.usps.com/UspsToolsRestServices/rest/POLocator/findLocations", "@spider": "usps_collection_boxes", "addr:city": "THOMPSON", "addr:country": "US", "addr:postcode": "65285", "addr:state": "MO", "addr:street_address": "10339 AUDRAIN ROAD 945", "amenity": "post_box", "collection_times": "Mo-Fr 13:45; Sa 10:15", "indoor": "yes", "note": "ON 12/24 AND 12/31, THIS BOX MAY BE COLLECTED AS EARLY AS 12 NOON.", "nsi_id": "unitedstatespostalservice-a77078", "operator": "United States Postal Service", "operator:short": "USPS", "operator:type": "public", "operator:wikidata": "Q668687", "ref": "6528500002"}, "type": "Feature"}
{"geometry": {"coordinates": [-92.522838, 38.906062], "type": "Point"}, "id": "I8h_QC0BdP6SPYSDl6R4oTRRxb0=", "properties": {"@source_uri": "https://tools.usps.com/UspsToolsRestServices/rest/POLocator/findLocations", "@spider": "usps_collection_boxes", "addr:city": "WOOLDRIDGE", "addr:country": "US", "addr:postcode": "65287", "addr:state": "MO", "addr:street_address": "103 W MAIN ST", "amenity": "post_box", "collection_times": "Mo-Sa 12:30", "note": "ON 12/24 AND 12/31, THIS BOX MAY BE COLLECTED AS EARLY AS 12 NOON.", "nsi_id": "unitedstatespostalservice-a77078", "operator": "United States Postal Service", "operator:short": "USPS", "operator:type": "public", "operator:wikidata": "Q668687", "ref": "6528700001"}, "type": "Feature"}
{"geometry": {"coordinates": [-92.5228883055, 38.906091338], "type": "Point"}, "id": "m9jJ9mDGlGvytb4_ywsvrJMs2Tg=", "properties": {"@source_uri": "https://tools.usps.com/UspsToolsRestServices/rest/POLocator/findLocations", "@spider": "usps_collection_boxes", "addr:city": "WOOLDRIDGE", "addr:country": "US", "addr:postcode": "65287", "addr:state": "MO", "addr:street_address": "103 W MAIN ST", "amenity": "post_box", "collection_times": "Mo-Sa 12:30", "indoor": "yes", "note": "ON 12/24 AND 12/31, THIS BOX MAY BE COLLECTED AS EARLY AS 12 NOON.", "nsi_id": "unitedstatespostalservice-a77078", "operator": "United States Postal Service", "operator:short": "USPS", "operator:type": "public", "operator:wikidata": "Q668687", "ref": "6528700002"}, "type": "Feature"}
