{"dataset_attributes": {"@spider": "usps_collection_boxes", "spider:collection_time": "2023-11-19T08:23:43.397954"}, "geometry": {"coordinates": [-93.2666263, 38.703046], "type": "Point"}, "id": "k_kt37k8k6ABArun17-l0TMFY2c=", "properties": {"@spider": "usps_collection_boxes", "addr:city": "SEDALIA", "addr:country": "US", "addr:full": "1020 THOMPSON BLVD", "addr:postcode": "65301", "addr:state": "MO", "amenity": "post_box", "brand": "United States Postal Service", "brand:wikidata": "Q668687", "collection_times": "Mo-Sa 10:00", "name": "USPS COLLECTION BOX - BLUE BOX", "nsi_id": "unitedstatespostalservice-a77078", "operator": "United States Postal Service", "operator:short": "USPS", "operator:type": "public", "operator:wikidata": "Q668687", "ref": "6530100003"}, "type": "Feature"}
{"dataset_attributes": {"@spider": "usps_collection_boxes", "spider:collection_time": "2023-11-19T08:23:43.397954"}, "geometry": {"coordinates": [-93.2415389, 38.698107], "type": "Point"}, "id": "cPRG6tGPIo0PiIsPmiu1ulFuEro=", "properties": {"@spider": "usps_collection_boxes", "addr:city": "SEDALIA", "addr:country": "US", "addr:full": "1200 W 16TH ST", "addr:postcode": "65301", "addr:state": "MO", "amenity": "post_box", "brand": "United States Postal Service", "brand:wikidata": "Q668687", "collection_times": "Mo-Sa 09:00", "name": "USPS COLLECTION BOX - BLUE BOX", "nsi_id": "unitedstatespostalservice-a77078", "operator": "United States Postal Service", "operator:short": "USPS", "operator:type": "public", "operator:wikidata": "Q668687", "ref": "6530100006"}, "type": "Feature"}
{"dataset_attributes": {"@spider": "usps_collection_boxes", "spider:collection_time": "2023-11-19T08:23:43.397954"}, "geometry": {"coordinates": [-93.2709438, 38.707387], "type": "Point"}, "id": "7XoP8-vtRf2XJcPRT017DERBiFg=", "properties": {"@spider": "usps_collection_boxes", "addr:city": "SEDALIA", "addr:country": "US", "addr:full": "3201 W BROADWAY BLVD", "addr:postcode": "65301", "addr:state": "MO", "amenity": "post_box", "brand": "United States Postal Service", "brand:wikidata": "Q668687", "collection_times": "Mo-Sa 11:00", "name": "USPS COLLECTION BOX - BLUE BOX", "nsi_id": "unitedstatespostalservice-a77078", "operator": "United States Postal Service", "operator:short": "USPS", "operator:type": "public", "operator:wikidata": "Q668687", "ref": "6530100012"}, "type": "Feature"}
{"dataset_attributes": {"@spider": "usps_collection_boxes", "spider:collection_time": "2023-11-19T08:23:43.397954"}, "geometry": {"coordinates": [-93.2280207, 38.708583], "type": "Point"}, "id": "KvtJm9kaueDui7c59fGG1ukNjtc=", "properties": {"@spider": "usps_collection_boxes", "addr:city": "SEDALIA", "addr:country": "US", "addr:full": "231 S OHIO AVE", "addr:postcode": "65301", "addr:state": "MO", "amenity": "post_box", "brand": "United States Postal Service", "brand:wikidata": "Q668687", "collection_times": "Mo-Sa 10:00", "name": "USPS COLLECTION BOX - BLUE BOX", "nsi_id": "unitedstatespostalservice-a77078", "operator": "United States Postal Service", "operator:short": "USPS", "operator:type": "public", "operator:wikidata": "Q668687", "ref": "6530100013"}, "type": "Feature"}
{"dataset_attributes": {"@spider": "usps_collection_boxes", "spider:collection_time": "2023-11-19T08:23:43.397954"}, "geometry": {"coordinates": [-93.2281349, 38.707583], "type": "Point"}, "id": "-VDOvL4meUHkhlhf4IqGLcei_KI=", "properties": {"@spider": "usps_collection_boxes", "addr:city": "SEDALIA", "addr:country": "US", "addr:full": "415 S OHIO AVE", "addr:postcode": "65301", "addr:state": "MO", "amenity": "post_box", "brand": "United States Postal Service", "brand:wikidata": "Q668687", "collection_times": "Mo-Sa 08:30", "name": "USPS COLLECTION BOX - BLUE BOX", "nsi_id": "unitedstatespostalservice-a77078", "operator": "United States Postal Service", "operator:short": "USPS", "operator:type": "public", "operator:wikidata": "Q668687", "ref": "6530100015"}, "type": "Feature"}
{"dataset_attributes": {"@spider": "usps_collection_boxes", "spider:collection_time": "2023-11-19T08:23:43.397954"}, "geometry": {"coordinates": [-93.2302156, 38.706585], "type": "Point"}, "id": "heZvmKbqQiZGweuUeWhOG1ylzbY=", "properties": {"@spider": "usps_collection_boxes", "addr:city": "SEDALIA", "addr:country": "US", "addr:full": "505 S KENTUCKY AVE", "addr:postcode": "65301", "addr:state": "MO", "amenity": "post_box", "brand": "United States Postal Service", "brand:wikidata": "Q668687", "collection_times": "Mo-Sa 14:15", "name": "USPS COLLECTION BOX - BLUE BOX", "note": "ON 12/24 AND 12/31, THIS BOX MAY BE COLLECTED AS EARLY AS 12 NOON.", "nsi_id": "unitedstatespostalservice-a77078", "operator": "United States Postal Service", "operator:short": "USPS", "operator:type": "public", "operator:wikidata": "Q668687", "ref": "6530100017"}, "type": "Feature"}
{"dataset_attributes": {"@spider": "usps_collection_boxes", "spider:collection_time": "2023-11-19T08:23:43.397954"}, "geometry": {"coordinates": [-93.2204226, 38.699013], "type": "Point"}, "id": "ubCjrbLjRr6eelxEOaaKyhcFivc=", "properties": {"@spider": "usps_collection_boxes", "addr:city": "SEDALIA", "addr:country": "US", "addr:full": "601 E 14TH ST", "addr:postcode": "65301", "addr:state": "MO", "amenity": "post_box", "brand": "United States Postal Service", "brand:wikidata": "Q668687", "collection_times": "Mo-Sa 13:45", "name": "USPS COLLECTION BOX - BLUE BOX", "note": "ON 12/24 AND 12/31, THIS BOX MAY BE COLLECTED AS EARLY AS 12 NOON.", "nsi_id": "unitedstatespostalservice-a77078", "operator": "United States Postal Service", "operator:short": "USPS", "operator:type": "public", "operator:wikidata": "Q668687", "ref": "6530100019"}, "type": "Feature"}
{"dataset_attributes": {"@spider": "usps_collection_boxes", "spider:collection_time": "2023-11-19T08:23:43.397954"}, "geometry": {"coordinates": [-93.2068133, 38.703059], "type": "Point"}, "id": "z7GYDFJNv0mZXngnGpkUaeUP7eQ=", "properties": {"@spider": "usps_collection_boxes", "addr:city": "SEDALIA", "addr:country": "US", "addr:full": "1650 E BROADWAY BLVD", "addr:postcode": "65301", "addr:state": "MO", "amenity": "post_box", "brand": "United States Postal Service", "brand:wikidata": "Q668687", "collection_times": "Mo-Sa 13:45", "name": "USPS COLLECTION BOX - BLUE BOX", "note": "ON 12/24 AND 12/31, THIS BOX MAY BE COLLECTED AS EARLY AS 12 NOON.", "nsi_id": "unitedstatespostalservice-a77078", "operator": "United States Postal Service", "operator:short": "USPS", "operator:type": "public", "operator:wikidata": "Q668687", "ref": "6530100028"}, "type": "Feature"}
{"dataset_attributes": {"@spider": "usps_collection_boxes", "spider:collection_time": "2023-11-19T08:23:43.397954"}, "geometry": {"coordinates": [-93.22416922, 38.706780475], "type": "Point"}, "id": "bpZ_2eDVqhPIcMxCnpMMttXl34c=", "properties": {"@spider": "usps_collection_boxes", "addr:city": "SEDALIA", "addr:country": "US", "addr:full": "405 E 5TH ST", "addr:postcode": "65301", "addr:state": "MO", "amenity": "post_box", "brand": "United States Postal Service", "brand:wikidata": "Q668687", "collection_times": "Mo-Fr 17:30; Sa 16:00", "name": "USPS COLLECTION BOX - BLUE BOX", "note": "ON 12/24 AND 12/31, THIS BOX MAY BE COLLECTED AS EARLY AS 12 NOON.", "nsi_id": "unitedstatespostalservice-a77078", "operator": "United States Postal Service", "operator:short": "USPS", "operator:type": "public", "operator:wikidata": "Q668687", "ref": "6530100043"}, "type": "Feature"}
{"dataset_attributes": {"@spider": "usps_collection_boxes", "spider:collection_time": "2023-11-19T08:23:43.397954"}, "geometry": {"coordinates": [-93.2515772, 38.700316], "type": "Point"}, "id": "gy0QRYn5doxOzDkV_MxB5fGUfGA=", "properties": {"@spider": "usps_collection_boxes", "addr:city": "SEDALIA", "addr:country": "US", "addr:full": "1400 S LIMIT AVE", "addr:postcode": "65301", "addr:state": "MO", "amenity": "post_box", "brand": "United States Postal Service", "brand:wikidata": "Q668687", "collection_times": "Mo-Sa 14:00", "name": "USPS COLLECTION BOX - BLUE BOX", "note": "ON 12/24 AND 12/31, THIS BOX MAY BE COLLECTED AS EARLY AS 12 NOON.", "nsi_id": "unitedstatespostalservice-a77078", "operator": "United States Postal Service", "operator:short": "USPS", "operator:type": "public", "operator:wikidata": "Q668687", "ref": "6530100045"}, "type": "Feature"}
{"dataset_attributes": {"@spider": "usps_collection_boxes", "spider:collection_time": "2023-11-19T08:23:43.397954"}, "geometry": {"coordinates": [-93.2654129, 38.705338], "type": "Point"}, "id": "lrLwvQm8MaBqpuxi_dgotxGnMVI=", "properties": {"@spider": "usps_collection_boxes", "addr:city": "SEDALIA", "addr:country": "US", "addr:full": "912 THOMPSON BLVD", "addr:postcode": "65301", "addr:state": "MO", "amenity": "post_box", "brand": "United States Postal Service", "brand:wikidata": "Q668687", "collection_times": "Mo-Sa 14:00", "name": "USPS COLLECTION BOX - BLUE BOX", "note": "ON 12/24 AND 12/31, THIS BOX MAY BE COLLECTED AS EARLY AS 12 NOON.", "nsi_id": "unitedstatespostalservice-a77078", "operator": "United States Postal Service", "operator:short": "USPS", "operator:type": "public", "operator:wikidata": "Q668687", "ref": "6530100050"}, "type": "Feature"}
{"dataset_attributes": {"@spider": "usps_collection_boxes", "spider:collection_time": "2023-11-19T08:23:43.397954"}, "geometry": {"coordinates": [-93.250497, 38.6977], "type": "Point"}, "id": "QmSvC1sbc89QChQI2kExMNUu5E4=", "properties": {"@spider": "usps_collection_boxes", "addr:city": "SEDALIA", "addr:country": "US", "addr:full": "1601 S LIMIT AVE", "addr:postcode": "65301", "addr:state": "MO", "amenity": "post_box", "brand": "United States Postal Service", "brand:wikidata": "Q668687", "collection_times": "Mo-Sa 14:00", "name": "USPS COLLECTION BOX - BLUE BOX", "note": "ON 12/24 AND 12/31, THIS BOX MAY BE COLLECTED AS EARLY AS 12 NOON.", "nsi_id": "unitedstatespostalservice-a77078", "operator": "United States Postal Service", "operator:short": "USPS", "operator:type": "public", "operator:wikidata": "Q668687", "ref": "6530100055"}, "type": "Feature"}
{"dataset_attributes": {"@spider": "usps_collection_boxes", "spider:collection_time": "2023-11-19T08:23:43.397954"}, "geometry": {"coordinates": [-93.22416922, 38.706780475], "type": "Point"}, "id": "nLdEK74TkR1HvEu6WcMkFGCeyP4=", "properties": {"@spider": "usps_collection_boxes", "addr:city": "SEDALIA", "addr:country": "US", "addr:full": "405 E 5TH ST", "addr:postcode": "65301", "addr:state": "MO", "amenity": "post_box", "brand": "United States Postal Service", "brand:wikidata": "Q668687", "collection_times": "Mo-Fr 17:30; Sa 16:00", "name": "USPS COLLECTION BOX - PO LOBBY", "note": "ON 12/24 AND 12/31, THIS BOX MAY BE COLLECTED AS EARLY AS 12 NOON.", "nsi_id": "unitedstatespostalservice-a77078", "operator": "United States Postal Service", "operator:short": "USPS", "operator:type": "public", "operator:wikidata": "Q668687", "ref": "6530100056"}, "type": "Feature"}
{"dataset_attributes": {"@spider": "usps_collection_boxes", "spider:collection_time": "2023-11-19T08:23:43.397954"}, "geometry": {"coordinates": [-93.2064745, 38.703473], "type": "Point"}, "id": "eTlAmu2WWTicTPPx1vsLLqpFrY0=", "properties": {"@spider": "usps_collection_boxes", "addr:city": "SEDALIA", "addr:country": "US", "addr:full": "1701 E BROADWAY BLVD", "addr:postcode": "65301", "addr:state": "MO", "amenity": "post_box", "brand": "United States Postal Service", "brand:wikidata": "Q668687", "collection_times": "Mo-Sa 11:00", "name": "USPS COLLECTION BOX - BLUE BOX", "nsi_id": "unitedstatespostalservice-a77078", "operator": "United States Postal Service", "operator:short": "USPS", "operator:type": "public", "operator:wikidata": "Q668687", "ref": "6530100062"}, "type": "Feature"}
{"dataset_attributes": {"@spider": "usps_collection_boxes", "spider:collection_time": "2023-11-19T08:23:43.397954"}, "geometry": {"coordinates": [-93.22416922, 38.706780475], "type": "Point"}, "id": "o7AlrwhunYs_KqlzKYSODWMP2js=", "properties": {"@spider": "usps_collection_boxes", "addr:city": "SEDALIA", "addr:country": "US", "addr:full": "405 E 5TH ST", "addr:postcode": "65301", "addr:state": "MO", "amenity": "post_box", "brand": "United States Postal Service", "brand:wikidata": "Q668687", "collection_times": "Mo-Fr 18:00; Sa 16:00", "name": "USPS COLLECTION BOX - PO LOBBY", "note": "ON 12/24 AND 12/31, THIS BOX MAY BE COLLECTED AS EARLY AS 12 NOON.", "nsi_id": "unitedstatespostalservice-a77078", "operator": "United States Postal Service", "operator:short": "USPS", "operator:type": "public", "operator:wikidata": "Q668687", "ref": "6530100065"}, "type": "Feature"}
{"dataset_attributes": {"@spider": "usps_collection_boxes", "spider:collection_time": "2023-11-19T08:23:43.397954"}, "geometry": {"coordinates": [-93.562777, 38.720812], "type": "Point"}, "id": "ad4q0ty2f1oRTfbHwy_CjsY2k5g=", "properties": {"@spider": "usps_collection_boxes", "addr:city": "WHITEMAN AFB", "addr:country": "US", "addr:full": "740 ARNOLD AVE", "addr:postcode": "65305", "addr:state": "MO", "amenity": "post_box", "brand": "United States Postal Service", "brand:wikidata": "Q668687", "collection_times": "Mo-Fr 14:45; Sa 14:15", "name": "USPS COLLECTION BOX - BLUE BOX", "note": "ON 12/24 AND 12/31, THIS BOX MAY BE COLLECTED AS EARLY AS 12 NOON.", "nsi_id": "unitedstatespostalservice-a77078", "operator": "United States Postal Service", "operator:short": "USPS", "operator:type": "public", "operator:wikidata": "Q668687", "ref": "6530500002"}, "type": "Feature"}
{"dataset_attributes": {"@spider": "usps_collection_boxes", "spider:collection_time": "2023-11-19T08:23:43.397954"}, "geometry": {"coordinates": [-93.562534, 38.724866], "type": "Point"}, "id": "bDVTEI1sWTtm1l0lAlPda6DTAaU=", "properties": {"@spider": "usps_collection_boxes", "addr:city": "WHITEMAN AFB", "addr:country": "US", "addr:full": "740 ARNOLD AVE", "addr:postcode": "65305", "addr:state": "MO", "amenity": "post_box", "brand": "United States Postal Service", "brand:wikidata": "Q668687", "collection_times": "Mo-Fr 14:45; Sa 14:15", "name": "USPS COLLECTION BOX - PO LOBBY", "note": "ON 12/24 AND 12/31, THIS BOX MAY BE COLLECTED AS EARLY AS 12 NOON.", "nsi_id": "unitedstatespostalservice-a77078", "operator": "United States Postal Service", "operator:short": "USPS", "operator:type": "public", "operator:wikidata": "Q668687", "ref": "6530500006"}, "type": "Feature"}
{"dataset_attributes": {"@spider": "usps_collection_boxes", "spider:collection_time": "2023-11-19T08:23:43.397954"}, "geometry": {"coordinates": [-93.562851463, 38.721942112], "type": "Point"}, "id": "wLwUBkFMpcu5uA4gxC5br2mhnsE=", "properties": {"@spider": "usps_collection_boxes", "addr:city": "WHITEMAN AFB", "addr:country": "US", "addr:full": "740 ARNOLD AVE", "addr:postcode": "65305", "addr:state": "MO", "amenity": "post_box", "brand": "United States Postal Service", "brand:wikidata": "Q668687", "collection_times": "Mo-Fr 14:45; Sa 14:15", "name": "USPS COLLECTION BOX - PO LOBBY", "note": "ON 12/24 AND 12/31, THIS BOX MAY BE COLLECTED AS EARLY AS 12 NOON.", "nsi_id": "unitedstatespostalservice-a77078", "operator": "United States Postal Service", "operator:short": "USPS", "operator:type": "public", "operator:wikidata": "Q668687", "ref": "6530500008"}, "type": "Feature"}
{"dataset_attributes": {"@spider": "usps_collection_boxes", "spider:collection_time": "2023-11-19T08:23:43.397954"}, "geometry": {"coordinates": [-92.944935, 39.070076], "type": "Point"}, "id": "U4-THNZFcshrGtyHrq5qJec0_Jw=", "properties": {"@spider": "usps_collection_boxes", "addr:city": "ARROW ROCK", "addr:country": "US", "addr:full": "304 MAIN ST", "addr:postcode": "65320", "addr:state": "MO", "amenity": "post_box", "brand": "United States Postal Service", "brand:wikidata": "Q668687", "collection_times": "Mo-Fr 16:00; Sa 09:30", "name": "USPS COLLECTION BOX - PO LOBBY", "note": "ON 12/24 AND 12/31, THIS BOX MAY BE COLLECTED AS EARLY AS 12 NOON.", "nsi_id": "unitedstatespostalservice-a77078", "operator": "United States Postal Service", "operator:short": "USPS", "operator:type": "public", "operator:wikidata": "Q668687", "ref": "6532000002"}, "type": "Feature"}
{"dataset_attributes": {"@spider": "usps_collection_boxes", "spider:collection_time": "2023-11-19T08:23:43.397954"}, "geometry": {"coordinates": [-92.945245573, 39.070065205], "type": "Point"}, "id": "_gb5YvLE3xF0M9K95bvJZ-lCYis=", "properties": {"@spider": "usps_collection_boxes", "addr:city": "ARROW ROCK", "addr:country": "US", "addr:full": "304 MAIN ST", "addr:postcode": "65320", "addr:state": "MO", "amenity": "post_box", "brand": "United States Postal Service", "brand:wikidata": "Q668687", "collection_times": "Mo-Fr 16:00; Sa 09:30", "name": "USPS COLLECTION BOX - PO LOBBY", "note": "ON 12/24 AND 12/31, THIS BOX MAY BE COLLECTED AS EARLY AS 12 NOON.", "nsi_id": "unitedstatespostalservice-a77078", "operator": "United States Postal Service", "operator:short": "USPS", "operator:type": "public", "operator:wikidata": "Q668687", "ref": "6532000003"}, "type": "Feature"}
{"dataset_attributes": {"@spider": "usps_collection_boxes", "spider:collection_time": "2023-11-19T08:23:43.397954"}, "geometry": {"coordinates": [-93.483755, 39.105583], "type": "Point"}, "id": "BMNn9Y7hqCmcUpfUkIRBCo2qIT0=", "properties": {"@spider": "usps_collection_boxes", "addr:city": "BLACKBURN", "addr:country": "US", "addr:full": "210 N MAIN ST", "addr:postcode": "65321", "addr:state": "MO", "amenity": "post_box", "brand": "United States Postal Service", "brand:wikidata": "Q668687", "collection_times": "Mo-Fr 11:15; Sa 09:30", "name": "USPS COLLECTION BOX - BLUE BOX", "nsi_id": "unitedstatespostalservice-a77078", "operator": "United States Postal Service", "operator:short": "USPS", "operator:type": "public", "operator:wikidata": "Q668687", "ref": "6532100001"}, "type": "Feature"}
{"dataset_attributes": {"@spider": "usps_collection_boxes", "spider:collection_time": "2023-11-19T08:23:43.397954"}, "geometry": {"coordinates": [-93.4863688, 39.10738], "type": "Point"}, "id": "hQLu7WHmqGnLL1zQuRnRZZKRVOc=", "properties": {"@spider": "usps_collection_boxes", "addr:city": "BLACKBURN", "addr:country": "US", "addr:full": "310 CHURCHILL ST", "addr:postcode": "65321", "addr:state": "MO", "amenity": "post_box", "brand": "United States Postal Service", "brand:wikidata": "Q668687", "collection_times": "Mo-Fr 10:00; Sa 09:30", "name": "USPS COLLECTION BOX - BLUE BOX", "nsi_id": "unitedstatespostalservice-a77078", "operator": "United States Postal Service", "operator:short": "USPS", "operator:type": "public", "operator:wikidata": "Q668687", "ref": "6532100002"}, "type": "Feature"}
{"dataset_attributes": {"@spider": "usps_collection_boxes", "spider:collection_time": "2023-11-19T08:23:43.397954"}, "geometry": {"coordinates": [-93.483755, 39.105583], "type": "Point"}, "id": "gX_KzDLF0-GmKuj9ui8YgqhmYFA=", "properties": {"@spider": "usps_collection_boxes", "addr:city": "BLACKBURN", "addr:country": "US", "addr:full": "210 N MAIN ST", "addr:postcode": "65321", "addr:state": "MO", "amenity": "post_box", "brand": "United States Postal Service", "brand:wikidata": "Q668687", "collection_times": "Mo-Fr 11:15; Sa 09:30", "name": "USPS COLLECTION BOX - PO LOBBY", "nsi_id": "unitedstatespostalservice-a77078", "operator": "United States Postal Service", "operator:short": "USPS", "operator:type": "public", "operator:wikidata": "Q668687", "ref": "6532100003"}, "type": "Feature"}
{"dataset_attributes": {"@spider": "usps_collection_boxes", "spider:collection_time": "2023-11-19T08:23:43.397954"}, "geometry": {"coordinates": [-93.483785103, 39.10563307], "type": "Point"}, "id": "v8eojs2ETirt6KSV8zrAIk0IpMc=", "properties": {"@spider": "usps_collection_boxes", "addr:city": "BLACKBURN", "addr:country": "US", "addr:full": "210 N MAIN ST", "addr:postcode": "65321", "addr:state": "MO", "amenity": "post_box", "brand": "United States Postal Service", "brand:wikidata": "Q668687", "collection_times": "Mo-Fr 11:15; Sa 09:30", "name": "USPS COLLECTION BOX - PO LOBBY", "nsi_id": "unitedstatespostalservice-a77078", "operator": "United States Postal Service", "operator:short": "USPS", "operator:type": "public", "operator:wikidata": "Q668687", "ref": "6532100004"}, "type": "Feature"}
{"dataset_attributes": {"@spider": "usps_collection_boxes", "spider:collection_time": "2023-11-19T08:23:43.397954"}, "geometry": {"coordinates": [-92.990107, 38.980991], "type": "Point"}, "id": "-8_vj87PHrY-NQlnnN1zhhMD8r4=", "properties": {"@spider": "usps_collection_boxes", "addr:city": "BLACKWATER", "addr:country": "US", "addr:full": "100 MAIN ST", "addr:postcode": "65322", "addr:state": "MO", "amenity": "post_box", "brand": "United States Postal Service", "brand:wikidata": "Q668687", "collection_times": "Mo-Fr 11:15; Sa 09:00", "name": "USPS COLLECTION BOX - BLUE BOX", "nsi_id": "unitedstatespostalservice-a77078", "operator": "United States Postal Service", "operator:short": "USPS", "operator:type": "public", "operator:wikidata": "Q668687", "ref": "6532200001"}, "type": "Feature"}
{"dataset_attributes": {"@spider": "usps_collection_boxes", "spider:collection_time": "2023-11-19T08:23:43.397954"}, "geometry": {"coordinates": [-92.990107, 38.980991], "type": "Point"}, "id": "QyxDReLw8kwi8BwZaO7fASU4_JE=", "properties": {"@spider": "usps_collection_boxes", "addr:city": "BLACKWATER", "addr:country": "US", "addr:full": "100 MAIN ST", "addr:postcode": "65322", "addr:state": "MO", "amenity": "post_box", "brand": "United States Postal Service", "brand:wikidata": "Q668687", "collection_times": "Mo-Fr 11:15; Sa 09:00", "name": "USPS COLLECTION BOX - PO LOBBY", "nsi_id": "unitedstatespostalservice-a77078", "operator": "United States Postal Service", "operator:short": "USPS", "operator:type": "public", "operator:wikidata": "Q668687", "ref": "6532200002"}, "type": "Feature"}
{"dataset_attributes": {"@spider": "usps_collection_boxes", "spider:collection_time": "2023-11-19T08:23:43.397954"}, "geometry": {"coordinates": [-92.990203368, 38.981010956], "type": "Point"}, "id": "5F6p5UCQxPlrGHX5eP0JR6rRRKc=", "properties": {"@spider": "usps_collection_boxes", "addr:city": "BLACKWATER", "addr:country": "US", "addr:full": "100 MAIN ST", "addr:postcode": "65322", "addr:state": "MO", "amenity": "post_box", "brand": "United States Postal Service", "brand:wikidata": "Q668687", "collection_times": "Mo-Fr 11:15; Sa 09:00", "name": "USPS COLLECTION BOX - PO LOBBY", "nsi_id": "unitedstatespostalservice-a77078", "operator": "United States Postal Service", "operator:short": "USPS", "operator:type": "public", "operator:wikidata": "Q668687", "ref": "6532200003"}, "type": "Feature"}
{"dataset_attributes": {"@spider": "usps_collection_boxes", "spider:collection_time": "2023-11-19T08:23:43.397954"}, "geometry": {"coordinates": [-93.6239347, 38.466295], "type": "Point"}, "id": "al3IJg41TD7KIt687kFDCdRlccs=", "properties": {"@spider": "usps_collection_boxes", "addr:city": "CALHOUN", "addr:country": "US", "addr:full": "200 E 5TH ST", "addr:postcode": "65323", "addr:state": "MO", "amenity": "post_box", "brand": "United States Postal Service", "brand:wikidata": "Q668687", "collection_times": "Mo-Fr 11:15; Sa 08:30", "name": "USPS COLLECTION BOX - BLUE BOX", "nsi_id": "unitedstatespostalservice-a77078", "operator": "United States Postal Service", "operator:short": "USPS", "operator:type": "public", "operator:wikidata": "Q668687", "ref": "6532300001"}, "type": "Feature"}
{"dataset_attributes": {"@spider": "usps_collection_boxes", "spider:collection_time": "2023-11-19T08:23:43.397954"}, "geometry": {"coordinates": [-93.6239438, 38.466256], "type": "Point"}, "id": "yPn2GoTYkw1srF-g9raw18RWyNY=", "properties": {"@spider": "usps_collection_boxes", "addr:city": "CALHOUN", "addr:country": "US", "addr:full": "200 E 5TH ST", "addr:postcode": "65323", "addr:state": "MO", "amenity": "post_box", "brand": "United States Postal Service", "brand:wikidata": "Q668687", "collection_times": "Mo-Fr 11:15; Sa 08:30", "name": "USPS COLLECTION BOX - PO LOBBY", "nsi_id": "unitedstatespostalservice-a77078", "operator": "United States Postal Service", "operator:short": "USPS", "operator:type": "public", "operator:wikidata": "Q668687", "ref": "6532300002"}, "type": "Feature"}
{"dataset_attributes": {"@spider": "usps_collection_boxes", "spider:collection_time": "2023-11-19T08:23:43.397954"}, "geometry": {"coordinates": [-93.623903277, 38.466374481], "type": "Point"}, "id": "YPpZrt5q_jKFc1pwLp_fWlLidsg=", "properties": {"@spider": "usps_collection_boxes", "addr:city": "CALHOUN", "addr:country": "US", "addr:full": "200 E 5TH ST", "addr:postcode": "65323", "addr:state": "MO", "amenity": "post_box", "brand": "United States Postal Service", "brand:wikidata": "Q668687", "collection_times": "Mo-Fr 11:15; Sa 08:30", "name": "USPS COLLECTION BOX - PO LOBBY", "nsi_id": "unitedstatespostalservice-a77078", "operator": "United States Postal Service", "operator:short": "USPS", "operator:type": "public", "operator:wikidata": "Q668687", "ref": "6532300003"}, "type": "Feature"}
{"dataset_attributes": {"@spider": "usps_collection_boxes", "spider:collection_time": "2023-11-19T08:23:43.397954"}, "geometry": {"coordinates": [-93.0524427988, 38.0968224011], "type": "Point"}, "id": "6f7GAKWSq1wanRUPF7O6rPN0QwE=", "properties": {"@spider": "usps_collection_boxes", "addr:city": "CLIMAX SPRINGS", "addr:country": "US", "addr:full": "14389 N STATE HIGHWAY 7", "addr:postcode": "65324", "addr:state": "MO", "amenity": "post_box", "brand": "United States Postal Service", "brand:wikidata": "Q668687", "collection_times": "Mo-Fr 15:00; Sa 09:15", "name": "USPS COLLECTION BOX - BLUE BOX", "note": "ON 12/24 AND 12/31, THIS BOX MAY BE COLLECTED AS EARLY AS 12 NOON.", "nsi_id": "unitedstatespostalservice-a77078", "operator": "United States Postal Service", "operator:short": "USPS", "operator:type": "public", "operator:wikidata": "Q668687", "ref": "6532400001"}, "type": "Feature"}
{"dataset_attributes": {"@spider": "usps_collection_boxes", "spider:collection_time": "2023-11-19T08:23:43.397954"}, "geometry": {"coordinates": [-93.0525073, 38.097053], "type": "Point"}, "id": "bky5igWIzu8aiApgnbKppJIAbhs=", "properties": {"@spider": "usps_collection_boxes", "addr:city": "CLIMAX SPRINGS", "addr:country": "US", "addr:full": "14389 N STATE HIGHWAY 7", "addr:postcode": "65324", "addr:state": "MO", "amenity": "post_box", "brand": "United States Postal Service", "brand:wikidata": "Q668687", "collection_times": "Mo-Fr 15:00; Sa 09:15", "name": "USPS COLLECTION BOX - PO LOBBY", "note": "ON 12/24 AND 12/31, THIS BOX MAY BE COLLECTED AS EARLY AS 12 NOON.", "nsi_id": "unitedstatespostalservice-a77078", "operator": "United States Postal Service", "operator:short": "USPS", "operator:type": "public", "operator:wikidata": "Q668687", "ref": "6532400002"}, "type": "Feature"}
{"dataset_attributes": {"@spider": "usps_collection_boxes", "spider:collection_time": "2023-11-19T08:23:43.397954"}, "geometry": {"coordinates": [-93.052809524, 38.096801432], "type": "Point"}, "id": "4WR5YNpjcr4kfyd-H0nh3G4UklY=", "properties": {"@spider": "usps_collection_boxes", "addr:city": "CLIMAX SPRINGS", "addr:country": "US", "addr:full": "14389 N STATE HIGHWAY 7", "addr:postcode": "65324", "addr:state": "MO", "amenity": "post_box", "brand": "United States Postal Service", "brand:wikidata": "Q668687", "collection_times": "Mo-Fr 15:00; Sa 09:15", "name": "USPS COLLECTION BOX - PO LOBBY", "note": "ON 12/24 AND 12/31, THIS BOX MAY BE COLLECTED AS EARLY AS 12 NOON.", "nsi_id": "unitedstatespostalservice-a77078", "operator": "United States Postal Service", "operator:short": "USPS", "operator:type": "public", "operator:wikidata": "Q668687", "ref": "6532400003"}, "type": "Feature"}
{"dataset_attributes": {"@spider": "usps_collection_boxes", "spider:collection_time": "2023-11-19T08:23:43.397954"}, "geometry": {"coordinates": [-93.204979, 38.460302], "type": "Point"}, "id": "2ilAhUR5LyaW0DZ226CqBQIjaaA=", "properties": {"@spider": "usps_collection_boxes", "addr:city": "COLE CAMP", "addr:country": "US", "addr:full": "201 W MAIN ST", "addr:postcode": "65325", "addr:state": "MO", "amenity": "post_box", "brand": "United States Postal Service", "brand:wikidata": "Q668687", "collection_times": "Mo-Fr 16:30; Sa 09:30", "name": "USPS COLLECTION BOX - BLUE BOX", "note": "ON 12/24 AND 12/31, THIS BOX MAY BE COLLECTED AS EARLY AS 12 NOON.", "nsi_id": "unitedstatespostalservice-a77078", "operator": "United States Postal Service", "operator:short": "USPS", "operator:type": "public", "operator:wikidata": "Q668687", "ref": "6532500001"}, "type": "Feature"}
{"dataset_attributes": {"@spider": "usps_collection_boxes", "spider:collection_time": "2023-11-19T08:23:43.397954"}, "geometry": {"coordinates": [-93.2052335, 38.46008], "type": "Point"}, "id": "xB0CbgAc3KrLvOUnQZ6SSm2iZgE=", "properties": {"@spider": "usps_collection_boxes", "addr:city": "COLE CAMP", "addr:country": "US", "addr:full": "201 W MAIN ST", "addr:postcode": "65325", "addr:state": "MO", "amenity": "post_box", "brand": "United States Postal Service", "brand:wikidata": "Q668687", "collection_times": "Mo-Fr 16:30; Sa 09:30", "name": "USPS COLLECTION BOX - PO LOBBY", "note": "ON 12/24 AND 12/31, THIS BOX MAY BE COLLECTED AS EARLY AS 12 NOON.", "nsi_id": "unitedstatespostalservice-a77078", "operator": "United States Postal Service", "operator:short": "USPS", "operator:type": "public", "operator:wikidata": "Q668687", "ref": "6532500003"}, "type": "Feature"}
{"dataset_attributes": {"@spider": "usps_collection_boxes", "spider:collection_time": "2023-11-19T08:23:43.397954"}, "geometry": {"coordinates": [-93.205055036, 38.460222072], "type": "Point"}, "id": "9tyCtxUZ5yi2kWa8LVzewB6aRYs=", "properties": {"@spider": "usps_collection_boxes", "addr:city": "COLE CAMP", "addr:country": "US", "addr:full": "201 W MAIN ST", "addr:postcode": "65325", "addr:state": "MO", "amenity": "post_box", "brand": "United States Postal Service", "brand:wikidata": "Q668687", "collection_times": "Mo-Fr 16:30; Sa 09:30", "name": "USPS COLLECTION BOX - PO LOBBY", "note": "ON 12/24 AND 12/31, THIS BOX MAY BE COLLECTED AS EARLY AS 12 NOON.", "nsi_id": "unitedstatespostalservice-a77078", "operator": "United States Postal Service", "operator:short": "USPS", "operator:type": "public", "operator:wikidata": "Q668687", "ref": "6532500005"}, "type": "Feature"}
{"dataset_attributes": {"@spider": "usps_collection_boxes", "spider:collection_time": "2023-11-19T08:23:43.397954"}, "geometry": {"coordinates": [-93.168423, 38.137837], "type": "Point"}, "id": "RiWezKlkZnT082-SL9jUAdNFk7k=", "properties": {"@spider": "usps_collection_boxes", "addr:city": "EDWARDS", "addr:country": "US", "addr:full": "29184 HIGHWAY 7", "addr:postcode": "65326", "addr:state": "MO", "amenity": "post_box", "brand": "United States Postal Service", "brand:wikidata": "Q668687", "collection_times": "Mo-Fr 14:45; Sa 09:30", "name": "USPS COLLECTION BOX - BLUE BOX", "note": "ON 12/24 AND 12/31, THIS BOX MAY BE COLLECTED AS EARLY AS 12 NOON.", "nsi_id": "unitedstatespostalservice-a77078", "operator": "United States Postal Service", "operator:short": "USPS", "operator:type": "public", "operator:wikidata": "Q668687", "ref": "6532600001"}, "type": "Feature"}
{"dataset_attributes": {"@spider": "usps_collection_boxes", "spider:collection_time": "2023-11-19T08:23:43.397954"}, "geometry": {"coordinates": [-93.168473, 38.137864], "type": "Point"}, "id": "Ah3Smlq2zzh1qsayCd6y2i65kJk=", "properties": {"@spider": "usps_collection_boxes", "addr:city": "EDWARDS", "addr:country": "US", "addr:full": "29184 HIGHWAY 7", "addr:postcode": "65326", "addr:state": "MO", "amenity": "post_box", "brand": "United States Postal Service", "brand:wikidata": "Q668687", "collection_times": "Mo-Fr 14:45; Sa 10:15", "name": "USPS COLLECTION BOX - PO LOBBY", "note": "ON 12/24 AND 12/31, THIS BOX MAY BE COLLECTED AS EARLY AS 12 NOON.", "nsi_id": "unitedstatespostalservice-a77078", "operator": "United States Postal Service", "operator:short": "USPS", "operator:type": "public", "operator:wikidata": "Q668687", "ref": "6532600002"}, "type": "Feature"}
{"dataset_attributes": {"@spider": "usps_collection_boxes", "spider:collection_time": "2023-11-19T08:23:43.397954"}, "geometry": {"coordinates": [-93.168443143, 38.137787328], "type": "Point"}, "id": "o0wVqIslzMrpoSbI0DNH3wMqGyk=", "properties": {"@spider": "usps_collection_boxes", "addr:city": "EDWARDS", "addr:country": "US", "addr:full": "29184 HIGHWAY 7", "addr:postcode": "65326", "addr:state": "MO", "amenity": "post_box", "brand": "United States Postal Service", "brand:wikidata": "Q668687", "collection_times": "Mo-Fr 14:45; Sa 10:15", "name": "USPS COLLECTION BOX - PO LOBBY", "note": "ON 12/24 AND 12/31, THIS BOX MAY BE COLLECTED AS EARLY AS 12 NOON.", "nsi_id": "unitedstatespostalservice-a77078", "operator": "United States Postal Service", "operator:short": "USPS", "operator:type": "public", "operator:wikidata": "Q668687", "ref": "6532600004"}, "type": "Feature"}
{"dataset_attributes": {"@spider": "usps_collection_boxes", "spider:collection_time": "2023-11-19T08:23:43.397954"}, "geometry": {"coordinates": [-93.494765, 38.973363], "type": "Point"}, "id": "b2NNUQKLtGyoC7niwteeQC1xXEE=", "properties": {"@spider": "usps_collection_boxes", "addr:city": "EMMA", "addr:country": "US", "addr:full": "204 N ELM ST", "addr:postcode": "65327", "addr:state": "MO", "amenity": "post_box", "brand": "United States Postal Service", "brand:wikidata": "Q668687", "collection_times": "Mo-Fr 16:30; Sa 09:30", "name": "USPS COLLECTION BOX - BLUE BOX", "note": "ON 12/24 AND 12/31, THIS BOX MAY BE COLLECTED AS EARLY AS 12 NOON.", "nsi_id": "unitedstatespostalservice-a77078", "operator": "United States Postal Service", "operator:short": "USPS", "operator:type": "public", "operator:wikidata": "Q668687", "ref": "6532700001"}, "type": "Feature"}
{"dataset_attributes": {"@spider": "usps_collection_boxes", "spider:collection_time": "2023-11-19T08:23:43.397954"}, "geometry": {"coordinates": [-93.494735, 38.973274], "type": "Point"}, "id": "VYk3l5AnjjfQGOtEkfdPG7YXDdA=", "properties": {"@spider": "usps_collection_boxes", "addr:city": "EMMA", "addr:country": "US", "addr:full": "204 N ELM ST", "addr:postcode": "65327", "addr:state": "MO", "amenity": "post_box", "brand": "United States Postal Service", "brand:wikidata": "Q668687", "collection_times": "Mo-Fr 16:40; Sa 09:30", "name": "USPS COLLECTION BOX - PO LOBBY", "note": "ON 12/24 AND 12/31, THIS BOX MAY BE COLLECTED AS EARLY AS 12 NOON.", "nsi_id": "unitedstatespostalservice-a77078", "operator": "United States Postal Service", "operator:short": "USPS", "operator:type": "public", "operator:wikidata": "Q668687", "ref": "6532700002"}, "type": "Feature"}
{"dataset_attributes": {"@spider": "usps_collection_boxes", "spider:collection_time": "2023-11-19T08:23:43.397954"}, "geometry": {"coordinates": [-93.49486367, 38.973362062], "type": "Point"}, "id": "h--4K0FRk0h7fGJc68WtPu_OyWA=", "properties": {"@spider": "usps_collection_boxes", "addr:city": "EMMA", "addr:country": "US", "addr:full": "204 N ELM ST", "addr:postcode": "65327", "addr:state": "MO", "amenity": "post_box", "brand": "United States Postal Service", "brand:wikidata": "Q668687", "collection_times": "Mo-Fr 16:30; Sa 09:30", "name": "USPS COLLECTION BOX - PO LOBBY", "note": "ON 12/24 AND 12/31, THIS BOX MAY BE COLLECTED AS EARLY AS 12 NOON.", "nsi_id": "unitedstatespostalservice-a77078", "operator": "United States Postal Service", "operator:short": "USPS", "operator:type": "public", "operator:wikidata": "Q668687", "ref": "6532700004"}, "type": "Feature"}
{"dataset_attributes": {"@spider": "usps_collection_boxes", "spider:collection_time": "2023-11-19T08:23:43.397954"}, "geometry": {"coordinates": [-92.9765753, 38.589941], "type": "Point"}, "id": "gbxLOM4gBqWkRyaHuYbvLJVUMeo=", "properties": {"@spider": "usps_collection_boxes", "addr:city": "FLORENCE", "addr:country": "US", "addr:full": "6628 HIGHWAY JJ", "addr:postcode": "65329", "addr:state": "MO", "amenity": "post_box", "brand": "United States Postal Service", "brand:wikidata": "Q668687", "collection_times": "Mo-Fr 12:30; Sa 10:15", "name": "USPS COLLECTION BOX - BLUE BOX", "note": "ON 12/24 AND 12/31, THIS BOX MAY BE COLLECTED AS EARLY AS 12 NOON.", "nsi_id": "unitedstatespostalservice-a77078", "operator": "United States Postal Service", "operator:short": "USPS", "operator:type": "public", "operator:wikidata": "Q668687", "ref": "6532900003"}, "type": "Feature"}
{"dataset_attributes": {"@spider": "usps_collection_boxes", "spider:collection_time": "2023-11-19T08:23:43.397954"}, "geometry": {"coordinates": [-92.9765938, 38.589973], "type": "Point"}, "id": "uQWefQHjLGkNeuK_c_gPH3bNnhU=", "properties": {"@spider": "usps_collection_boxes", "addr:city": "FLORENCE", "addr:country": "US", "addr:full": "6628 HIGHWAY JJ", "addr:postcode": "65329", "addr:state": "MO", "amenity": "post_box", "brand": "United States Postal Service", "brand:wikidata": "Q668687", "collection_times": "Mo-Fr 12:30; Sa 10:15", "name": "USPS COLLECTION BOX - PO LOBBY", "note": "ON 12/24 AND 12/31, THIS BOX MAY BE COLLECTED AS EARLY AS 12 NOON.", "nsi_id": "unitedstatespostalservice-a77078", "operator": "United States Postal Service", "operator:short": "USPS", "operator:type": "public", "operator:wikidata": "Q668687", "ref": "6532900004"}, "type": "Feature"}
{"dataset_attributes": {"@spider": "usps_collection_boxes", "spider:collection_time": "2023-11-19T08:23:43.397954"}, "geometry": {"coordinates": [-92.976502866, 38.589670538], "type": "Point"}, "id": "9sjHnTzepL_zrsALtZw19ZQtvwI=", "properties": {"@spider": "usps_collection_boxes", "addr:city": "FLORENCE", "addr:country": "US", "addr:full": "6628 HIGHWAY JJ", "addr:postcode": "65329", "addr:state": "MO", "amenity": "post_box", "brand": "United States Postal Service", "brand:wikidata": "Q668687", "collection_times": "Mo-Fr 12:30; Sa 10:15", "name": "USPS COLLECTION BOX - PO LOBBY", "note": "ON 12/24 AND 12/31, THIS BOX MAY BE COLLECTED AS EARLY AS 12 NOON.", "nsi_id": "unitedstatespostalservice-a77078", "operator": "United States Postal Service", "operator:short": "USPS", "operator:type": "public", "operator:wikidata": "Q668687", "ref": "6532900005"}, "type": "Feature"}
{"dataset_attributes": {"@spider": "usps_collection_boxes", "spider:collection_time": "2023-11-19T08:23:43.397954"}, "geometry": {"coordinates": [-93.004464, 39.233539], "type": "Point"}, "id": "34AUoVyUFFre0UjtNzatdzOk-HY=", "properties": {"@spider": "usps_collection_boxes", "addr:city": "GILLIAM", "addr:country": "US", "addr:full": "103 N BARTLETT ST", "addr:postcode": "65330", "addr:state": "MO", "amenity": "post_box", "brand": "United States Postal Service", "brand:wikidata": "Q668687", "collection_times": "Mo-Fr 15:00; Sa 10:15", "name": "USPS COLLECTION BOX - BLUE BOX", "note": "ON 12/24 AND 12/31, THIS BOX MAY BE COLLECTED AS EARLY AS 12 NOON.", "nsi_id": "unitedstatespostalservice-a77078", "operator": "United States Postal Service", "operator:short": "USPS", "operator:type": "public", "operator:wikidata": "Q668687", "ref": "6533000001"}, "type": "Feature"}
{"dataset_attributes": {"@spider": "usps_collection_boxes", "spider:collection_time": "2023-11-19T08:23:43.397954"}, "geometry": {"coordinates": [-93.004422, 39.233454], "type": "Point"}, "id": "e4yvMdpU773nQV2-Pd-t3etKnco=", "properties": {"@spider": "usps_collection_boxes", "addr:city": "GILLIAM", "addr:country": "US", "addr:full": "103 N BARTLETT ST", "addr:postcode": "65330", "addr:state": "MO", "amenity": "post_box", "brand": "United States Postal Service", "brand:wikidata": "Q668687", "collection_times": "Mo-Fr 14:45; Sa 12:45", "name": "USPS COLLECTION BOX - PO LOBBY", "note": "ON 12/24 AND 12/31, THIS BOX MAY BE COLLECTED AS EARLY AS 12 NOON.", "nsi_id": "unitedstatespostalservice-a77078", "operator": "United States Postal Service", "operator:short": "USPS", "operator:type": "public", "operator:wikidata": "Q668687", "ref": "6533000002"}, "type": "Feature"}
{"dataset_attributes": {"@spider": "usps_collection_boxes", "spider:collection_time": "2023-11-19T08:23:43.397954"}, "geometry": {"coordinates": [-93.004496679, 39.233769286], "type": "Point"}, "id": "QtPNafxPxMuL14_LZUdhYeuNn9M=", "properties": {"@spider": "usps_collection_boxes", "addr:city": "GILLIAM", "addr:country": "US", "addr:full": "103 N BARTLETT ST", "addr:postcode": "65330", "addr:state": "MO", "amenity": "post_box", "brand": "United States Postal Service", "brand:wikidata": "Q668687", "collection_times": "Mo-Fr 14:45; Sa 12:45", "name": "USPS COLLECTION BOX - PO LOBBY", "note": "ON 12/24 AND 12/31, THIS BOX MAY BE COLLECTED AS EARLY AS 12 NOON.", "nsi_id": "unitedstatespostalservice-a77078", "operator": "United States Postal Service", "operator:short": "USPS", "operator:type": "public", "operator:wikidata": "Q668687", "ref": "6533000004"}, "type": "Feature"}
{"dataset_attributes": {"@spider": "usps_collection_boxes", "spider:collection_time": "2023-11-19T08:23:43.397954"}, "geometry": {"coordinates": [-93.4091188, 38.620944], "type": "Point"}, "id": "tbsQfM1TT44HknqId6NbLgW1PD4=", "properties": {"@spider": "usps_collection_boxes", "addr:city": "GREEN RIDGE", "addr:country": "US", "addr:full": "106 N MAIN ST", "addr:postcode": "65332", "addr:state": "MO", "amenity": "post_box", "brand": "United States Postal Service", "brand:wikidata": "Q668687", "collection_times": "Mo-Fr 14:15; Sa 09:15", "name": "USPS COLLECTION BOX - PO LOBBY", "note": "ON 12/24 AND 12/31, THIS BOX MAY BE COLLECTED AS EARLY AS 12 NOON.", "nsi_id": "unitedstatespostalservice-a77078", "operator": "United States Postal Service", "operator:short": "USPS", "operator:type": "public", "operator:wikidata": "Q668687", "ref": "6533200002"}, "type": "Feature"}
{"dataset_attributes": {"@spider": "usps_collection_boxes", "spider:collection_time": "2023-11-19T08:23:43.397954"}, "geometry": {"coordinates": [-93.409239969, 38.620843018], "type": "Point"}, "id": "dKfDBeYumOkzfajtUGQUIsZ1hlY=", "properties": {"@spider": "usps_collection_boxes", "addr:city": "GREEN RIDGE", "addr:country": "US", "addr:full": "106 N MAIN ST", "addr:postcode": "65332", "addr:state": "MO", "amenity": "post_box", "brand": "United States Postal Service", "brand:wikidata": "Q668687", "collection_times": "Mo-Fr 14:15; Sa 09:15", "name": "USPS COLLECTION BOX - PO LOBBY", "note": "ON 12/24 AND 12/31, THIS BOX MAY BE COLLECTED AS EARLY AS 12 NOON.", "nsi_id": "unitedstatespostalservice-a77078", "operator": "United States Postal Service", "operator:short": "USPS", "operator:type": "public", "operator:wikidata": "Q668687", "ref": "6533200003"}, "type": "Feature"}
{"dataset_attributes": {"@spider": "usps_collection_boxes", "spider:collection_time": "2023-11-19T08:23:43.397954"}, "geometry": {"coordinates": [-93.356955, 38.898123], "type": "Point"}, "id": "MKVkMMpPuvOJimBYz1x2nIma4dU=", "properties": {"@spider": "usps_collection_boxes", "addr:city": "HOUSTONIA", "addr:country": "US", "addr:full": "103 N WALNUT ST", "addr:postcode": "65333", "addr:state": "MO", "amenity": "post_box", "brand": "United States Postal Service", "brand:wikidata": "Q668687", "collection_times": "Mo-Fr 11:45; Sa 11:30", "name": "USPS COLLECTION BOX - BLUE BOX", "nsi_id": "unitedstatespostalservice-a77078", "operator": "United States Postal Service", "operator:short": "USPS", "operator:type": "public", "operator:wikidata": "Q668687", "ref": "6533300001"}, "type": "Feature"}
{"dataset_attributes": {"@spider": "usps_collection_boxes", "spider:collection_time": "2023-11-19T08:23:43.397954"}, "geometry": {"coordinates": [-93.356996, 38.898038], "type": "Point"}, "id": "5XOMzu2_RrwxKmaJP8ATAmP3AVQ=", "properties": {"@spider": "usps_collection_boxes", "addr:city": "HOUSTONIA", "addr:country": "US", "addr:full": "103 N WALNUT ST", "addr:postcode": "65333", "addr:state": "MO", "amenity": "post_box", "brand": "United States Postal Service", "brand:wikidata": "Q668687", "collection_times": "Mo-Fr 11:45; Sa 11:30", "name": "USPS COLLECTION BOX - PO LOBBY", "nsi_id": "unitedstatespostalservice-a77078", "operator": "United States Postal Service", "operator:short": "USPS", "operator:type": "public", "operator:wikidata": "Q668687", "ref": "6533300002"}, "type": "Feature"}
{"dataset_attributes": {"@spider": "usps_collection_boxes", "spider:collection_time": "2023-11-19T08:23:43.397954"}, "geometry": {"coordinates": [-93.356957375, 38.898152267], "type": "Point"}, "id": "gxUEs3PB6KyuhvCxiwLYjUDwfLU=", "properties": {"@spider": "usps_collection_boxes", "addr:city": "HOUSTONIA", "addr:country": "US", "addr:full": "103 N WALNUT ST", "addr:postcode": "65333", "addr:state": "MO", "amenity": "post_box", "brand": "United States Postal Service", "brand:wikidata": "Q668687", "collection_times": "Mo-Fr 11:45; Sa 11:30", "name": "USPS COLLECTION BOX - PO LOBBY", "nsi_id": "unitedstatespostalservice-a77078", "operator": "United States Postal Service", "operator:short": "USPS", "operator:type": "public", "operator:wikidata": "Q668687", "ref": "6533300003"}, "type": "Feature"}
{"dataset_attributes": {"@spider": "usps_collection_boxes", "spider:collection_time": "2023-11-19T08:23:43.397954"}, "geometry": {"coordinates": [-93.295961, 38.836566], "type": "Point"}, "id": "Acin-tn28X1Ud6S-6W3NCORHV1w=", "properties": {"@spider": "usps_collection_boxes", "addr:city": "HUGHESVILLE", "addr:country": "US", "addr:full": "102 MOCKBEE ST", "addr:postcode": "65334", "addr:state": "MO", "amenity": "post_box", "brand": "United States Postal Service", "brand:wikidata": "Q668687", "collection_times": "Mo-Fr 10:45; Sa 07:30", "name": "USPS COLLECTION BOX - BLUE BOX", "nsi_id": "unitedstatespostalservice-a77078", "operator": "United States Postal Service", "operator:short": "USPS", "operator:type": "public", "operator:wikidata": "Q668687", "ref": "6533400001"}, "type": "Feature"}
{"dataset_attributes": {"@spider": "usps_collection_boxes", "spider:collection_time": "2023-11-19T08:23:43.397954"}, "geometry": {"coordinates": [-93.296059, 38.836518], "type": "Point"}, "id": "XbzrG_ijnGK2zjPMe7D-hsrkvlU=", "properties": {"@spider": "usps_collection_boxes", "addr:city": "HUGHESVILLE", "addr:country": "US", "addr:full": "102 MOCKBEE ST", "addr:postcode": "65334", "addr:state": "MO", "amenity": "post_box", "brand": "United States Postal Service", "brand:wikidata": "Q668687", "collection_times": "Mo-Fr 10:45; Sa 08:30", "name": "USPS COLLECTION BOX - PO LOBBY", "nsi_id": "unitedstatespostalservice-a77078", "operator": "United States Postal Service", "operator:short": "USPS", "operator:type": "public", "operator:wikidata": "Q668687", "ref": "6533400002"}, "type": "Feature"}
{"dataset_attributes": {"@spider": "usps_collection_boxes", "spider:collection_time": "2023-11-19T08:23:43.397954"}, "geometry": {"coordinates": [-93.295735711, 38.836607132], "type": "Point"}, "id": "yRz-9ILXOCdDkMk6KZRrWW525CE=", "properties": {"@spider": "usps_collection_boxes", "addr:city": "HUGHESVILLE", "addr:country": "US", "addr:full": "102 MOCKBEE ST", "addr:postcode": "65334", "addr:state": "MO", "amenity": "post_box", "brand": "United States Postal Service", "brand:wikidata": "Q668687", "collection_times": "Mo-Fr 10:45; Sa 08:30", "name": "USPS COLLECTION BOX - PO LOBBY", "nsi_id": "unitedstatespostalservice-a77078", "operator": "United States Postal Service", "operator:short": "USPS", "operator:type": "public", "operator:wikidata": "Q668687", "ref": "6533400004"}, "type": "Feature"}
{"dataset_attributes": {"@spider": "usps_collection_boxes", "spider:collection_time": "2023-11-19T08:23:43.397954"}, "geometry": {"coordinates": [-93.323684, 38.502522], "type": "Point"}, "id": "2f0ZYE7p7NesqJsfm0iJm8K2n3k=", "properties": {"@spider": "usps_collection_boxes", "addr:city": "IONIA", "addr:country": "US", "addr:full": "206 N MAIN ST", "addr:postcode": "65335", "addr:state": "MO", "amenity": "post_box", "brand": "United States Postal Service", "brand:wikidata": "Q668687", "collection_times": "Mo-Sa 12:15", "name": "USPS COLLECTION BOX - BLUE BOX", "note": "ON 12/24 AND 12/31, THIS BOX MAY BE COLLECTED AS EARLY AS 12 NOON.", "nsi_id": "unitedstatespostalservice-a77078", "operator": "United States Postal Service", "operator:short": "USPS", "operator:type": "public", "operator:wikidata": "Q668687", "ref": "6533500001"}, "type": "Feature"}
{"dataset_attributes": {"@spider": "usps_collection_boxes", "spider:collection_time": "2023-11-19T08:23:43.397954"}, "geometry": {"coordinates": [-93.323684, 38.502522], "type": "Point"}, "id": "NBRrSjVzoWSpV-4IFbcGncIchFY=", "properties": {"@spider": "usps_collection_boxes", "addr:city": "IONIA", "addr:country": "US", "addr:full": "206 N MAIN ST", "addr:postcode": "65335", "addr:state": "MO", "amenity": "post_box", "brand": "United States Postal Service", "brand:wikidata": "Q668687", "collection_times": "Mo-Sa 12:15", "name": "USPS COLLECTION BOX - PO LOBBY", "note": "ON 12/24 AND 12/31, THIS BOX MAY BE COLLECTED AS EARLY AS 12 NOON.", "nsi_id": "unitedstatespostalservice-a77078", "operator": "United States Postal Service", "operator:short": "USPS", "operator:type": "public", "operator:wikidata": "Q668687", "ref": "6533500002"}, "type": "Feature"}
{"dataset_attributes": {"@spider": "usps_collection_boxes", "spider:collection_time": "2023-11-19T08:23:43.397954"}, "geometry": {"coordinates": [-93.323629611, 38.502568441], "type": "Point"}, "id": "B02ICHeGbmm0Cj0b8hvPjKIyQDM=", "properties": {"@spider": "usps_collection_boxes", "addr:city": "IONIA", "addr:country": "US", "addr:full": "206 N MAIN ST", "addr:postcode": "65335", "addr:state": "MO", "amenity": "post_box", "brand": "United States Postal Service", "brand:wikidata": "Q668687", "collection_times": "Mo-Sa 12:15", "name": "USPS COLLECTION BOX - PO LOBBY", "note": "ON 12/24 AND 12/31, THIS BOX MAY BE COLLECTED AS EARLY AS 12 NOON.", "nsi_id": "unitedstatespostalservice-a77078", "operator": "United States Postal Service", "operator:short": "USPS", "operator:type": "public", "operator:wikidata": "Q668687", "ref": "6533500004"}, "type": "Feature"}
{"dataset_attributes": {"@spider": "usps_collection_boxes", "spider:collection_time": "2023-11-19T08:23:43.397954"}, "geometry": {"coordinates": [-93.561297, 38.765203], "type": "Point"}, "id": "h4Tu5VXu2O6JWEl-FVm7PiAxcHA=", "properties": {"@spider": "usps_collection_boxes", "addr:city": "KNOB NOSTER", "addr:country": "US", "addr:full": "505 W MCPHERSON ST", "addr:postcode": "65336", "addr:state": "MO", "amenity": "post_box", "brand": "United States Postal Service", "brand:wikidata": "Q668687", "collection_times": "Mo-Fr 16:30; Sa 15:00", "name": "USPS COLLECTION BOX - BLUE BOX", "note": "ON 12/24 AND 12/31, THIS BOX MAY BE COLLECTED AS EARLY AS 12 NOON.", "nsi_id": "unitedstatespostalservice-a77078", "operator": "United States Postal Service", "operator:short": "USPS", "operator:type": "public", "operator:wikidata": "Q668687", "ref": "6533600002"}, "type": "Feature"}
{"dataset_attributes": {"@spider": "usps_collection_boxes", "spider:collection_time": "2023-11-19T08:23:43.397954"}, "geometry": {"coordinates": [-93.561189, 38.765224], "type": "Point"}, "id": "i-yxmCohmS5h2UOTXpFzzPoTNIU=", "properties": {"@spider": "usps_collection_boxes", "addr:city": "KNOB NOSTER", "addr:country": "US", "addr:full": "505 W MCPHERSON ST", "addr:postcode": "65336", "addr:state": "MO", "amenity": "post_box", "brand": "United States Postal Service", "brand:wikidata": "Q668687", "collection_times": "Mo-Fr 16:30; Sa 15:00", "name": "USPS COLLECTION BOX - PO LOBBY", "note": "ON 12/24 AND 12/31, THIS BOX MAY BE COLLECTED AS EARLY AS 12 NOON.", "nsi_id": "unitedstatespostalservice-a77078", "operator": "United States Postal Service", "operator:short": "USPS", "operator:type": "public", "operator:wikidata": "Q668687", "ref": "6533600007"}, "type": "Feature"}
{"dataset_attributes": {"@spider": "usps_collection_boxes", "spider:collection_time": "2023-11-19T08:23:43.397954"}, "geometry": {"coordinates": [-93.562034469, 38.765234539], "type": "Point"}, "id": "5hjiCPzZzmrBbdYpROg9kB0dgi0=", "properties": {"@spider": "usps_collection_boxes", "addr:city": "KNOB NOSTER", "addr:country": "US", "addr:full": "505 W MCPHERSON ST", "addr:postcode": "65336", "addr:state": "MO", "amenity": "post_box", "brand": "United States Postal Service", "brand:wikidata": "Q668687", "collection_times": "Mo-Fr 16:30; Sa 15:00", "name": "USPS COLLECTION BOX - PO LOBBY", "note": "ON 12/24 AND 12/31, THIS BOX MAY BE COLLECTED AS EARLY AS 12 NOON.", "nsi_id": "unitedstatespostalservice-a77078", "operator": "United States Postal Service", "operator:short": "USPS", "operator:type": "public", "operator:wikidata": "Q668687", "ref": "6533600009"}, "type": "Feature"}
{"dataset_attributes": {"@spider": "usps_collection_boxes", "spider:collection_time": "2023-11-19T08:23:43.397954"}, "geometry": {"coordinates": [-93.424446, 38.774338], "type": "Point"}, "id": "7PBe7xtx_fChTiN1TivY2RmBp7g=", "properties": {"@spider": "usps_collection_boxes", "addr:city": "LA MONTE", "addr:country": "US", "addr:full": "111 S MAIN ST", "addr:postcode": "65337", "addr:state": "MO", "amenity": "post_box", "brand": "United States Postal Service", "brand:wikidata": "Q668687", "collection_times": "Mo-Fr 14:30; Sa 09:30", "name": "USPS COLLECTION BOX - BLUE BOX", "note": "ON 12/24 AND 12/31, THIS BOX MAY BE COLLECTED AS EARLY AS 12 NOON.", "nsi_id": "unitedstatespostalservice-a77078", "operator": "United States Postal Service", "operator:short": "USPS", "operator:type": "public", "operator:wikidata": "Q668687", "ref": "6533700002"}, "type": "Feature"}
{"dataset_attributes": {"@spider": "usps_collection_boxes", "spider:collection_time": "2023-11-19T08:23:43.397954"}, "geometry": {"coordinates": [-93.424446, 38.774338], "type": "Point"}, "id": "JY2OtPnqtoqXcPv-fiDR62-jGmQ=", "properties": {"@spider": "usps_collection_boxes", "addr:city": "LA MONTE", "addr:country": "US", "addr:full": "111 S MAIN ST", "addr:postcode": "65337", "addr:state": "MO", "amenity": "post_box", "brand": "United States Postal Service", "brand:wikidata": "Q668687", "collection_times": "Mo-Fr 14:30; Sa 09:30", "name": "USPS COLLECTION BOX - PO LOBBY", "note": "ON 12/24 AND 12/31, THIS BOX MAY BE COLLECTED AS EARLY AS 12 NOON.", "nsi_id": "unitedstatespostalservice-a77078", "operator": "United States Postal Service", "operator:short": "USPS", "operator:type": "public", "operator:wikidata": "Q668687", "ref": "6533700003"}, "type": "Feature"}
{"dataset_attributes": {"@spider": "usps_collection_boxes", "spider:collection_time": "2023-11-19T08:23:43.397954"}, "geometry": {"coordinates": [-93.424395437, 38.77428329], "type": "Point"}, "id": "xYLLK7DDcLbfbep8leo66BT7iSY=", "properties": {"@spider": "usps_collection_boxes", "addr:city": "LA MONTE", "addr:country": "US", "addr:full": "111 S MAIN ST", "addr:postcode": "65337", "addr:state": "MO", "amenity": "post_box", "brand": "United States Postal Service", "brand:wikidata": "Q668687", "collection_times": "Mo-Fr 14:30; Sa 09:30", "name": "USPS COLLECTION BOX - PO LOBBY", "note": "ON 12/24 AND 12/31, THIS BOX MAY BE COLLECTED AS EARLY AS 12 NOON.", "nsi_id": "unitedstatespostalservice-a77078", "operator": "United States Postal Service", "operator:short": "USPS", "operator:type": "public", "operator:wikidata": "Q668687", "ref": "6533700006"}, "type": "Feature"}
{"dataset_attributes": {"@spider": "usps_collection_boxes", "spider:collection_time": "2023-11-19T08:23:43.397954"}, "geometry": {"coordinates": [-93.334286, 38.390889], "type": "Point"}, "id": "G_DvKhLKGUlI_bKB20w-kUc6fQU=", "properties": {"@spider": "usps_collection_boxes", "addr:city": "LINCOLN", "addr:country": "US", "addr:full": "214 E MAIN ST", "addr:postcode": "65338", "addr:state": "MO", "amenity": "post_box", "brand": "United States Postal Service", "brand:wikidata": "Q668687", "collection_times": "Mo-Fr 15:45; Sa 09:30", "name": "USPS COLLECTION BOX - BLUE BOX", "note": "ON 12/24 AND 12/31, THIS BOX MAY BE COLLECTED AS EARLY AS 12 NOON.", "nsi_id": "unitedstatespostalservice-a77078", "operator": "United States Postal Service", "operator:short": "USPS", "operator:type": "public", "operator:wikidata": "Q668687", "ref": "6533800001"}, "type": "Feature"}
{"dataset_attributes": {"@spider": "usps_collection_boxes", "spider:collection_time": "2023-11-19T08:23:43.397954"}, "geometry": {"coordinates": [-93.338184, 38.391048], "type": "Point"}, "id": "Dsl41Fjpuk0oJ-yCVUrXdHD7Qf0=", "properties": {"@spider": "usps_collection_boxes", "addr:city": "LINCOLN", "addr:country": "US", "addr:full": "214 MAIN ST", "addr:postcode": "65338", "addr:state": "MO", "amenity": "post_box", "brand": "United States Postal Service", "brand:wikidata": "Q668687", "collection_times": "Mo-Fr 15:45; Sa 09:30", "name": "USPS COLLECTION BOX - PO LOBBY", "note": "ON 12/24 AND 12/31, THIS BOX MAY BE COLLECTED AS EARLY AS 12 NOON.", "nsi_id": "unitedstatespostalservice-a77078", "operator": "United States Postal Service", "operator:short": "USPS", "operator:type": "public", "operator:wikidata": "Q668687", "ref": "6533800002"}, "type": "Feature"}
{"dataset_attributes": {"@spider": "usps_collection_boxes", "spider:collection_time": "2023-11-19T08:23:43.397954"}, "geometry": {"coordinates": [-93.334316503, 38.390834832], "type": "Point"}, "id": "DUEhAIEdg523TIJXfV0HbKfV3w0=", "properties": {"@spider": "usps_collection_boxes", "addr:city": "LINCOLN", "addr:country": "US", "addr:full": "214 E MAIN ST", "addr:postcode": "65338", "addr:state": "MO", "amenity": "post_box", "brand": "United States Postal Service", "brand:wikidata": "Q668687", "collection_times": "Mo-Fr 15:45; Sa 09:30", "name": "USPS COLLECTION BOX - PO LOBBY", "note": "ON 12/24 AND 12/31, THIS BOX MAY BE COLLECTED AS EARLY AS 12 NOON.", "nsi_id": "unitedstatespostalservice-a77078", "operator": "United States Postal Service", "operator:short": "USPS", "operator:type": "public", "operator:wikidata": "Q668687", "ref": "6533800004"}, "type": "Feature"}
{"dataset_attributes": {"@spider": "usps_collection_boxes", "spider:collection_time": "2023-11-19T08:23:43.397954"}, "geometry": {"coordinates": [-93.362906, 39.193532], "type": "Point"}, "id": "tCtnpbcss9QxFs-arg-7Xw4y8lA=", "properties": {"@spider": "usps_collection_boxes", "addr:city": "MALTA BEND", "addr:country": "US", "addr:full": "106 N LINN ST", "addr:postcode": "65339", "addr:state": "MO", "amenity": "post_box", "brand": "United States Postal Service", "brand:wikidata": "Q668687", "collection_times": "Mo-Fr 11:45; Sa 09:00", "name": "USPS COLLECTION BOX - BLUE BOX", "nsi_id": "unitedstatespostalservice-a77078", "operator": "United States Postal Service", "operator:short": "USPS", "operator:type": "public", "operator:wikidata": "Q668687", "ref": "6533900001"}, "type": "Feature"}
{"dataset_attributes": {"@spider": "usps_collection_boxes", "spider:collection_time": "2023-11-19T08:23:43.397954"}, "geometry": {"coordinates": [-93.362875, 39.193462], "type": "Point"}, "id": "yz5CjKo7UHPiqX605XvYLu-5Wgo=", "properties": {"@spider": "usps_collection_boxes", "addr:city": "MALTA BEND", "addr:country": "US", "addr:full": "106 N LINN ST", "addr:postcode": "65339", "addr:state": "MO", "amenity": "post_box", "brand": "United States Postal Service", "brand:wikidata": "Q668687", "collection_times": "Mo-Fr 11:45; Sa 09:00", "name": "USPS COLLECTION BOX - PO LOBBY", "nsi_id": "unitedstatespostalservice-a77078", "operator": "United States Postal Service", "operator:short": "USPS", "operator:type": "public", "operator:wikidata": "Q668687", "ref": "6533900002"}, "type": "Feature"}
{"dataset_attributes": {"@spider": "usps_collection_boxes", "spider:collection_time": "2023-11-19T08:23:43.397954"}, "geometry": {"coordinates": [-93.362982011, 39.193865063], "type": "Point"}, "id": "-yRsoJa9po_3LXUVR_la5hAzcwk=", "properties": {"@spider": "usps_collection_boxes", "addr:city": "MALTA BEND", "addr:country": "US", "addr:full": "106 N LINN ST", "addr:postcode": "65339", "addr:state": "MO", "amenity": "post_box", "brand": "United States Postal Service", "brand:wikidata": "Q668687", "collection_times": "Mo-Fr 11:45; Sa 09:00", "name": "USPS COLLECTION BOX - PO LOBBY", "nsi_id": "unitedstatespostalservice-a77078", "operator": "United States Postal Service", "operator:short": "USPS", "operator:type": "public", "operator:wikidata": "Q668687", "ref": "6533900005"}, "type": "Feature"}
{"dataset_attributes": {"@spider": "usps_collection_boxes", "spider:collection_time": "2023-11-19T08:23:43.397954"}, "geometry": {"coordinates": [-93.1946539, 39.13415], "type": "Point"}, "id": "85NIohvipGfLfB7T5dcyIqR3hzs=", "properties": {"@spider": "usps_collection_boxes", "addr:city": "MARSHALL", "addr:country": "US", "addr:full": "1201 N ODELL AVE", "addr:postcode": "65340", "addr:state": "MO", "amenity": "post_box", "brand": "United States Postal Service", "brand:wikidata": "Q668687", "collection_times": "Mo-Sa 10:00", "name": "USPS COLLECTION BOX - BLUE BOX", "nsi_id": "unitedstatespostalservice-a77078", "operator": "United States Postal Service", "operator:short": "USPS", "operator:type": "public", "operator:wikidata": "Q668687", "ref": "6534000003"}, "type": "Feature"}
{"dataset_attributes": {"@spider": "usps_collection_boxes", "spider:collection_time": "2023-11-19T08:23:43.397954"}, "geometry": {"coordinates": [-93.1958585, 39.108374], "type": "Point"}, "id": "pxtbMfH1oDQIzSjha7CSe7PfA6w=", "properties": {"@spider": "usps_collection_boxes", "addr:city": "MARSHALL", "addr:country": "US", "addr:full": "1255 S ODELL AVE", "addr:postcode": "65340", "addr:state": "MO", "amenity": "post_box", "brand": "United States Postal Service", "brand:wikidata": "Q668687", "collection_times": "Mo-Sa 12:00", "name": "USPS COLLECTION BOX - BLUE BOX", "nsi_id": "unitedstatespostalservice-a77078", "operator": "United States Postal Service", "operator:short": "USPS", "operator:type": "public", "operator:wikidata": "Q668687", "ref": "6534000004"}, "type": "Feature"}
{"dataset_attributes": {"@spider": "usps_collection_boxes", "spider:collection_time": "2023-11-19T08:23:43.397954"}, "geometry": {"coordinates": [-93.195161286, 39.1052629008], "type": "Point"}, "id": "ax-oM7kuqdn2jJJOEUW8gJmwF6o=", "properties": {"@spider": "usps_collection_boxes", "addr:city": "MARSHALL", "addr:country": "US", "addr:full": "1573 S ODELL AVE", "addr:postcode": "65340", "addr:state": "MO", "amenity": "post_box", "brand": "United States Postal Service", "brand:wikidata": "Q668687", "collection_times": "Mo-Fr 10:00; Sa 09:30", "name": "USPS COLLECTION BOX - BLUE BOX", "nsi_id": "unitedstatespostalservice-a77078", "operator": "United States Postal Service", "operator:short": "USPS", "operator:type": "public", "operator:wikidata": "Q668687", "ref": "6534000006"}, "type": "Feature"}
{"dataset_attributes": {"@spider": "usps_collection_boxes", "spider:collection_time": "2023-11-19T08:23:43.397954"}, "geometry": {"coordinates": [-93.1968588, 39.122695], "type": "Point"}, "id": "WcdpsWlZoBewyMAAV_i3EKqSgKo=", "properties": {"@spider": "usps_collection_boxes", "addr:city": "MARSHALL", "addr:country": "US", "addr:full": "214 N LAFAYETTE AVE STE A", "addr:postcode": "65340", "addr:state": "MO", "amenity": "post_box", "brand": "United States Postal Service", "brand:wikidata": "Q668687", "collection_times": "Mo-Sa 07:30", "name": "USPS COLLECTION BOX - BLUE BOX", "nsi_id": "unitedstatespostalservice-a77078", "operator": "United States Postal Service", "operator:short": "USPS", "operator:type": "public", "operator:wikidata": "Q668687", "ref": "6534000007"}, "type": "Feature"}
{"dataset_attributes": {"@spider": "usps_collection_boxes", "spider:collection_time": "2023-11-19T08:23:43.397954"}, "geometry": {"coordinates": [-93.1920477, 39.11888], "type": "Point"}, "id": "IODlQ3D-mjzW0gAJmRwk8BC2mPw=", "properties": {"@spider": "usps_collection_boxes", "addr:city": "MARSHALL", "addr:country": "US", "addr:full": "275 S REDMAN AVE", "addr:postcode": "65340", "addr:state": "MO", "amenity": "post_box", "brand": "United States Postal Service", "brand:wikidata": "Q668687", "collection_times": "Mo-Fr 09:00; Sa 08:00", "name": "USPS COLLECTION BOX - BLUE BOX", "nsi_id": "unitedstatespostalservice-a77078", "operator": "United States Postal Service", "operator:short": "USPS", "operator:type": "public", "operator:wikidata": "Q668687", "ref": "6534000009"}, "type": "Feature"}
{"dataset_attributes": {"@spider": "usps_collection_boxes", "spider:collection_time": "2023-11-19T08:23:43.397954"}, "geometry": {"coordinates": [-93.2109631, 39.109736], "type": "Point"}, "id": "GelAMcsIkYWlFAhhn-jsZpHD1QA=", "properties": {"@spider": "usps_collection_boxes", "addr:city": "MARSHALL", "addr:country": "US", "addr:full": "925 W COLLEGE ST", "addr:postcode": "65340", "addr:state": "MO", "amenity": "post_box", "brand": "United States Postal Service", "brand:wikidata": "Q668687", "collection_times": "Mo-Sa 10:00", "name": "USPS COLLECTION BOX - BLUE BOX", "nsi_id": "unitedstatespostalservice-a77078", "operator": "United States Postal Service", "operator:short": "USPS", "operator:type": "public", "operator:wikidata": "Q668687", "ref": "6534000012"}, "type": "Feature"}
{"dataset_attributes": {"@spider": "usps_collection_boxes", "spider:collection_time": "2023-11-19T08:23:43.397954"}, "geometry": {"coordinates": [-93.2157159, 39.111199], "type": "Point"}, "id": "Mbr57aIytIaL5QIcubBxv296Y1c=", "properties": {"@spider": "usps_collection_boxes", "addr:city": "MARSHALL", "addr:country": "US", "addr:full": "855 CHEROKEE DR", "addr:postcode": "65340", "addr:state": "MO", "amenity": "post_box", "brand": "United States Postal Service", "brand:wikidata": "Q668687", "collection_times": "Mo-Sa 09:00", "name": "USPS COLLECTION BOX - BLUE BOX", "nsi_id": "unitedstatespostalservice-a77078", "operator": "United States Postal Service", "operator:short": "USPS", "operator:type": "public", "operator:wikidata": "Q668687", "ref": "6534000013"}, "type": "Feature"}
{"dataset_attributes": {"@spider": "usps_collection_boxes", "spider:collection_time": "2023-11-19T08:23:43.397954"}, "geometry": {"coordinates": [-93.1902616685, 39.1087945859], "type": "Point"}, "id": "azjfrOGoF3FQfhJrmrkG5aJoDuc=", "properties": {"@spider": "usps_collection_boxes", "addr:city": "MARSHALL", "addr:country": "US", "addr:full": "500 E COLLEGE ST", "addr:postcode": "65340", "addr:state": "MO", "amenity": "post_box", "brand": "United States Postal Service", "brand:wikidata": "Q668687", "collection_times": "Mo-Sa 10:00", "name": "USPS COLLECTION BOX - BLUE BOX", "nsi_id": "unitedstatespostalservice-a77078", "operator": "United States Postal Service", "operator:short": "USPS", "operator:type": "public", "operator:wikidata": "Q668687", "ref": "6534000016"}, "type": "Feature"}
{"dataset_attributes": {"@spider": "usps_collection_boxes", "spider:collection_time": "2023-11-19T08:23:43.397954"}, "geometry": {"coordinates": [-93.1963023, 39.120695], "type": "Point"}, "id": "MMGWQH9VFzKhmouEvMnh5_sLWBk=", "properties": {"@spider": "usps_collection_boxes", "addr:city": "MARSHALL", "addr:country": "US", "addr:full": "101 S JEFFERSON AVE", "addr:postcode": "65340", "addr:state": "MO", "amenity": "post_box", "brand": "United States Postal Service", "brand:wikidata": "Q668687", "collection_times": "Mo-Sa 10:00", "name": "USPS COLLECTION BOX - BLUE BOX", "nsi_id": "unitedstatespostalservice-a77078", "operator": "United States Postal Service", "operator:short": "USPS", "operator:type": "public", "operator:wikidata": "Q668687", "ref": "6534000017"}, "type": "Feature"}
{"dataset_attributes": {"@spider": "usps_collection_boxes", "spider:collection_time": "2023-11-19T08:23:43.397954"}, "geometry": {"coordinates": [-93.212731717, 39.093816033], "type": "Point"}, "id": "2e5RpVlaBz4xe-3-87MT4D0TSSw=", "properties": {"@spider": "usps_collection_boxes", "addr:city": "MARSHALL", "addr:country": "US", "addr:full": "2305 S HIGHWAY 65", "addr:postcode": "65340", "addr:state": "MO", "amenity": "post_box", "brand": "United States Postal Service", "brand:wikidata": "Q668687", "collection_times": "Mo-Sa 09:00", "name": "USPS COLLECTION BOX - BLUE BOX", "nsi_id": "unitedstatespostalservice-a77078", "operator": "United States Postal Service", "operator:short": "USPS", "operator:type": "public", "operator:wikidata": "Q668687", "ref": "6534000021"}, "type": "Feature"}
{"dataset_attributes": {"@spider": "usps_collection_boxes", "spider:collection_time": "2023-11-19T08:23:43.397954"}, "geometry": {"coordinates": [-93.1958874, 39.120408], "type": "Point"}, "id": "5V7JM-OwT3EpqB_J8-u21wIw4As=", "properties": {"@spider": "usps_collection_boxes", "addr:city": "MARSHALL", "addr:country": "US", "addr:full": "4 N JEFFERSON AVE", "addr:postcode": "65340", "addr:state": "MO", "amenity": "post_box", "brand": "United States Postal Service", "brand:wikidata": "Q668687", "collection_times": "Mo-Sa 10:00", "name": "USPS COLLECTION BOX - BLUE BOX", "nsi_id": "unitedstatespostalservice-a77078", "operator": "United States Postal Service", "operator:short": "USPS", "operator:type": "public", "operator:wikidata": "Q668687", "ref": "6534000022"}, "type": "Feature"}
{"dataset_attributes": {"@spider": "usps_collection_boxes", "spider:collection_time": "2023-11-19T08:23:43.397954"}, "geometry": {"coordinates": [-93.1961704, 39.121375], "type": "Point"}, "id": "5xNbBAeulXGlxFSKvuVTi7UEY54=", "properties": {"@spider": "usps_collection_boxes", "addr:city": "MARSHALL", "addr:country": "US", "addr:full": "27 E NORTH ST", "addr:postcode": "65340", "addr:state": "MO", "amenity": "post_box", "brand": "United States Postal Service", "brand:wikidata": "Q668687", "collection_times": "Mo-Sa 10:00", "name": "USPS COLLECTION BOX - BLUE BOX", "nsi_id": "unitedstatespostalservice-a77078", "operator": "United States Postal Service", "operator:short": "USPS", "operator:type": "public", "operator:wikidata": "Q668687", "ref": "6534000023"}, "type": "Feature"}
{"dataset_attributes": {"@spider": "usps_collection_boxes", "spider:collection_time": "2023-11-19T08:23:43.397954"}, "geometry": {"coordinates": [-93.197299, 39.122359], "type": "Point"}, "id": "U9rk0vsgRFkYUJtiuUazpjuzRWA=", "properties": {"@spider": "usps_collection_boxes", "addr:city": "MARSHALL", "addr:country": "US", "addr:full": "205 N LAFAYETTE AVE", "addr:postcode": "65340", "addr:state": "MO", "amenity": "post_box", "brand": "United States Postal Service", "brand:wikidata": "Q668687", "collection_times": "Mo-Fr 16:30; Sa 11:00", "name": "USPS COLLECTION BOX - PO LOBBY", "note": "ON 12/24 AND 12/31, THIS BOX MAY BE COLLECTED AS EARLY AS 12 NOON.", "nsi_id": "unitedstatespostalservice-a77078", "operator": "United States Postal Service", "operator:short": "USPS", "operator:type": "public", "operator:wikidata": "Q668687", "ref": "6534000036"}, "type": "Feature"}
{"dataset_attributes": {"@spider": "usps_collection_boxes", "spider:collection_time": "2023-11-19T08:23:43.397954"}, "geometry": {"coordinates": [-93.1968688, 39.122696], "type": "Point"}, "id": "hJFrSDlLhCYCtso1Q3xoGdQh7ck=", "properties": {"@spider": "usps_collection_boxes", "addr:city": "MARSHALL", "addr:country": "US", "addr:full": "214 N LAFAYETTE AVE STE A", "addr:postcode": "65340", "addr:state": "MO", "amenity": "post_box", "brand": "United States Postal Service", "brand:wikidata": "Q668687", "collection_times": "Mo-Sa 07:30", "name": "USPS COLLECTION BOX - BLUE BOX", "nsi_id": "unitedstatespostalservice-a77078", "operator": "United States Postal Service", "operator:short": "USPS", "operator:type": "public", "operator:wikidata": "Q668687", "ref": "6534000041"}, "type": "Feature"}
{"dataset_attributes": {"@spider": "usps_collection_boxes", "spider:collection_time": "2023-11-19T08:23:43.397954"}, "geometry": {"coordinates": [-93.197298372, 39.122451367], "type": "Point"}, "id": "cfmfL01aPFHiIDofZM8ho7ci3MQ=", "properties": {"@spider": "usps_collection_boxes", "addr:city": "MARSHALL", "addr:country": "US", "addr:full": "205 N LAFAYETTE AVE", "addr:postcode": "65340", "addr:state": "MO", "amenity": "post_box", "brand": "United States Postal Service", "brand:wikidata": "Q668687", "collection_times": "Mo-Fr 16:30; Sa 11:00", "name": "USPS COLLECTION BOX - PO LOBBY", "note": "ON 12/24 AND 12/31, THIS BOX MAY BE COLLECTED AS EARLY AS 12 NOON.", "nsi_id": "unitedstatespostalservice-a77078", "operator": "United States Postal Service", "operator:short": "USPS", "operator:type": "public", "operator:wikidata": "Q668687", "ref": "6534000043"}, "type": "Feature"}
{"dataset_attributes": {"@spider": "usps_collection_boxes", "spider:collection_time": "2023-11-19T08:23:43.397954"}, "geometry": {"coordinates": [-93.227735, 39.320901], "type": "Point"}, "id": "36LFqBYZgwVdd9mWkwHYIiCldfs=", "properties": {"@spider": "usps_collection_boxes", "addr:city": "MIAMI", "addr:country": "US", "addr:full": "212 N HIGH ST", "addr:postcode": "65344", "addr:state": "MO", "amenity": "post_box", "brand": "United States Postal Service", "brand:wikidata": "Q668687", "collection_times": "Mo-Fr 15:15; Sa 13:45", "name": "USPS COLLECTION BOX - BLUE BOX", "note": "ON 12/24 AND 12/31, THIS BOX MAY BE COLLECTED AS EARLY AS 12 NOON.", "nsi_id": "unitedstatespostalservice-a77078", "operator": "United States Postal Service", "operator:short": "USPS", "operator:type": "public", "operator:wikidata": "Q668687", "ref": "6534400001"}, "type": "Feature"}
{"dataset_attributes": {"@spider": "usps_collection_boxes", "spider:collection_time": "2023-11-19T08:23:43.397954"}, "geometry": {"coordinates": [-93.227829, 39.320961], "type": "Point"}, "id": "JR8dMdUhyLvbpoQZZ4hglfSoy8c=", "properties": {"@spider": "usps_collection_boxes", "addr:city": "MIAMI", "addr:country": "US", "addr:full": "212 N HIGH ST", "addr:postcode": "65344", "addr:state": "MO", "amenity": "post_box", "brand": "United States Postal Service", "brand:wikidata": "Q668687", "collection_times": "Mo-Fr 15:15; Sa 13:45", "name": "USPS COLLECTION BOX - PO LOBBY", "note": "ON 12/24 AND 12/31, THIS BOX MAY BE COLLECTED AS EARLY AS 12 NOON.", "nsi_id": "unitedstatespostalservice-a77078", "operator": "United States Postal Service", "operator:short": "USPS", "operator:type": "public", "operator:wikidata": "Q668687", "ref": "6534400002"}, "type": "Feature"}
{"dataset_attributes": {"@spider": "usps_collection_boxes", "spider:collection_time": "2023-11-19T08:23:43.397954"}, "geometry": {"coordinates": [-93.227747378, 39.320949499], "type": "Point"}, "id": "c0MTv3PsJleBkGjIz3Dm9Rc8mcY=", "properties": {"@spider": "usps_collection_boxes", "addr:city": "MIAMI", "addr:country": "US", "addr:full": "212 N HIGH ST", "addr:postcode": "65344", "addr:state": "MO", "amenity": "post_box", "brand": "United States Postal Service", "brand:wikidata": "Q668687", "collection_times": "Mo-Fr 15:15; Sa 13:45", "name": "USPS COLLECTION BOX - PO LOBBY", "note": "ON 12/24 AND 12/31, THIS BOX MAY BE COLLECTED AS EARLY AS 12 NOON.", "nsi_id": "unitedstatespostalservice-a77078", "operator": "United States Postal Service", "operator:short": "USPS", "operator:type": "public", "operator:wikidata": "Q668687", "ref": "6534400003"}, "type": "Feature"}
{"dataset_attributes": {"@spider": "usps_collection_boxes", "spider:collection_time": "2023-11-19T08:23:43.397954"}, "geometry": {"coordinates": [-93.001093, 38.699026], "type": "Point"}, "id": "1gzGUDU4thFcHonrRLbFb4F-A9E=", "properties": {"@spider": "usps_collection_boxes", "addr:city": "OTTERVILLE", "addr:country": "US", "addr:full": "204 E GROVER ST", "addr:postcode": "65348", "addr:state": "MO", "amenity": "post_box", "brand": "United States Postal Service", "brand:wikidata": "Q668687", "collection_times": "Mo-Fr 10:45; Sa 08:45", "name": "USPS COLLECTION BOX - BLUE BOX", "nsi_id": "unitedstatespostalservice-a77078", "operator": "United States Postal Service", "operator:short": "USPS", "operator:type": "public", "operator:wikidata": "Q668687", "ref": "6534800001"}, "type": "Feature"}
{"dataset_attributes": {"@spider": "usps_collection_boxes", "spider:collection_time": "2023-11-19T08:23:43.397954"}, "geometry": {"coordinates": [-93.001197, 38.699058], "type": "Point"}, "id": "sp77IsBLEBYVauVP4cjFoHzYkoc=", "properties": {"@spider": "usps_collection_boxes", "addr:city": "OTTERVILLE", "addr:country": "US", "addr:full": "204 E GROVER ST", "addr:postcode": "65348", "addr:state": "MO", "amenity": "post_box", "brand": "United States Postal Service", "brand:wikidata": "Q668687", "collection_times": "Mo-Fr 10:45; Sa 08:45", "name": "USPS COLLECTION BOX - PO LOBBY", "nsi_id": "unitedstatespostalservice-a77078", "operator": "United States Postal Service", "operator:short": "USPS", "operator:type": "public", "operator:wikidata": "Q668687", "ref": "6534800002"}, "type": "Feature"}
{"dataset_attributes": {"@spider": "usps_collection_boxes", "spider:collection_time": "2023-11-19T08:23:43.397954"}, "geometry": {"coordinates": [-93.000743057, 38.699014507], "type": "Point"}, "id": "yPbp5j_BGsbVO_DIxW7zwbgbttE=", "properties": {"@spider": "usps_collection_boxes", "addr:city": "OTTERVILLE", "addr:country": "US", "addr:full": "204 E GROVER ST", "addr:postcode": "65348", "addr:state": "MO", "amenity": "post_box", "brand": "United States Postal Service", "brand:wikidata": "Q668687", "collection_times": "Mo-Fr 10:45; Sa 08:45", "name": "USPS COLLECTION BOX - PO LOBBY", "nsi_id": "unitedstatespostalservice-a77078", "operator": "United States Postal Service", "operator:short": "USPS", "operator:type": "public", "operator:wikidata": "Q668687", "ref": "6534800004"}, "type": "Feature"}
{"dataset_attributes": {"@spider": "usps_collection_boxes", "spider:collection_time": "2023-11-19T08:23:43.397954"}, "geometry": {"coordinates": [-93.0619415, 39.219699], "type": "Point"}, "id": "dWEzcp2ys2RGFYKCUUbN5NzgNII=", "properties": {"@spider": "usps_collection_boxes", "addr:city": "SLATER", "addr:country": "US", "addr:full": "159 W MAPLE ST", "addr:postcode": "65349", "addr:state": "MO", "amenity": "post_box", "brand": "United States Postal Service", "brand:wikidata": "Q668687", "collection_times": "Mo-Fr 16:15; Sa 14:00", "name": "USPS COLLECTION BOX - BLUE BOX", "note": "ON 12/24 AND 12/31, THIS BOX MAY BE COLLECTED AS EARLY AS 12 NOON.", "nsi_id": "unitedstatespostalservice-a77078", "operator": "United States Postal Service", "operator:short": "USPS", "operator:type": "public", "operator:wikidata": "Q668687", "ref": "6534900001"}, "type": "Feature"}
{"dataset_attributes": {"@spider": "usps_collection_boxes", "spider:collection_time": "2023-11-19T08:23:43.397954"}, "geometry": {"coordinates": [-93.0616244, 39.221309], "type": "Point"}, "id": "8ay7s1cQoDjHwBpoQxUcGOLG08c=", "properties": {"@spider": "usps_collection_boxes", "addr:city": "SLATER", "addr:country": "US", "addr:full": "229 MAIN ST", "addr:postcode": "65349", "addr:state": "MO", "amenity": "post_box", "brand": "United States Postal Service", "brand:wikidata": "Q668687", "collection_times": "Mo-Fr 14:00; Sa 13:00", "name": "USPS COLLECTION BOX - BLUE BOX", "note": "ON 12/24 AND 12/31, THIS BOX MAY BE COLLECTED AS EARLY AS 12 NOON.", "nsi_id": "unitedstatespostalservice-a77078", "operator": "United States Postal Service", "operator:short": "USPS", "operator:type": "public", "operator:wikidata": "Q668687", "ref": "6534900002"}, "type": "Feature"}
{"dataset_attributes": {"@spider": "usps_collection_boxes", "spider:collection_time": "2023-11-19T08:23:43.397954"}, "geometry": {"coordinates": [-93.061904, 39.219964], "type": "Point"}, "id": "wpqto7kaoo_PPjW0wDxFM7LwLss=", "properties": {"@spider": "usps_collection_boxes", "addr:city": "SLATER", "addr:country": "US", "addr:full": "159 W MAPLE ST", "addr:postcode": "65349", "addr:state": "MO", "amenity": "post_box", "brand": "United States Postal Service", "brand:wikidata": "Q668687", "collection_times": "Mo-Fr 16:15; Sa 09:15", "name": "USPS COLLECTION BOX - PO LOBBY", "note": "ON 12/24 AND 12/31, THIS BOX MAY BE COLLECTED AS EARLY AS 12 NOON.", "nsi_id": "unitedstatespostalservice-a77078", "operator": "United States Postal Service", "operator:short": "USPS", "operator:type": "public", "operator:wikidata": "Q668687", "ref": "6534900003"}, "type": "Feature"}
{"dataset_attributes": {"@spider": "usps_collection_boxes", "spider:collection_time": "2023-11-19T08:23:43.397954"}, "geometry": {"coordinates": [-93.062254501, 39.219846214], "type": "Point"}, "id": "qrGBuRwRn3COBt_X5l4ASdXLIjI=", "properties": {"@spider": "usps_collection_boxes", "addr:city": "SLATER", "addr:country": "US", "addr:full": "159 W MAPLE ST", "addr:postcode": "65349", "addr:state": "MO", "amenity": "post_box", "brand": "United States Postal Service", "brand:wikidata": "Q668687", "collection_times": "Mo-Fr 16:15; Sa 09:15", "name": "USPS COLLECTION BOX - PO LOBBY", "note": "ON 12/24 AND 12/31, THIS BOX MAY BE COLLECTED AS EARLY AS 12 NOON.", "nsi_id": "unitedstatespostalservice-a77078", "operator": "United States Postal Service", "operator:short": "USPS", "operator:type": "public", "operator:wikidata": "Q668687", "ref": "6534900005"}, "type": "Feature"}
{"dataset_attributes": {"@spider": "usps_collection_boxes", "spider:collection_time": "2023-11-19T08:23:43.397954"}, "geometry": {"coordinates": [-93.094623, 38.683229], "type": "Point"}, "id": "XvbgJphVqBd-aw5IEUScQ3nIE6M=", "properties": {"@spider": "usps_collection_boxes", "addr:city": "SMITHTON", "addr:country": "US", "addr:full": "104 S WALNUT AVE", "addr:postcode": "65350", "addr:state": "MO", "amenity": "post_box", "brand": "United States Postal Service", "brand:wikidata": "Q668687", "collection_times": "Mo-Fr 10:45; Sa 09:00", "name": "USPS COLLECTION BOX - BLUE BOX", "nsi_id": "unitedstatespostalservice-a77078", "operator": "United States Postal Service", "operator:short": "USPS", "operator:type": "public", "operator:wikidata": "Q668687", "ref": "6535000002"}, "type": "Feature"}
{"dataset_attributes": {"@spider": "usps_collection_boxes", "spider:collection_time": "2023-11-19T08:23:43.397954"}, "geometry": {"coordinates": [-93.094638708, 38.682702335], "type": "Point"}, "id": "TQ3Tp6RpMyfijK4z6HMw72fnixg=", "properties": {"@spider": "usps_collection_boxes", "addr:city": "SMITHTON", "addr:country": "US", "addr:full": "104 S WALNUT AVE", "addr:postcode": "65350", "addr:state": "MO", "amenity": "post_box", "brand": "United States Postal Service", "brand:wikidata": "Q668687", "collection_times": "Mo-Fr 10:45; Sa 09:00", "name": "USPS COLLECTION BOX - PO LOBBY", "nsi_id": "unitedstatespostalservice-a77078", "operator": "United States Postal Service", "operator:short": "USPS", "operator:type": "public", "operator:wikidata": "Q668687", "ref": "6535000003"}, "type": "Feature"}
{"dataset_attributes": {"@spider": "usps_collection_boxes", "spider:collection_time": "2023-11-19T08:23:43.397954"}, "geometry": {"coordinates": [-93.418856, 38.964563], "type": "Point"}, "id": "yYCaZCbYJ7_sKB7OtejhD_uu1Uw=", "properties": {"@spider": "usps_collection_boxes", "addr:city": "SWEET SPRINGS", "addr:country": "US", "addr:full": "311 SPRING ST", "addr:postcode": "65351", "addr:state": "MO", "amenity": "post_box", "brand": "United States Postal Service", "brand:wikidata": "Q668687", "collection_times": "Mo-Fr 14:15; Sa 10:15", "name": "USPS COLLECTION BOX - BLUE BOX", "note": "ON 12/24 AND 12/31, THIS BOX MAY BE COLLECTED AS EARLY AS 12 NOON.", "nsi_id": "unitedstatespostalservice-a77078", "operator": "United States Postal Service", "operator:short": "USPS", "operator:type": "public", "operator:wikidata": "Q668687", "ref": "6535100002"}, "type": "Feature"}
{"dataset_attributes": {"@spider": "usps_collection_boxes", "spider:collection_time": "2023-11-19T08:23:43.397954"}, "geometry": {"coordinates": [-93.418893, 38.964526], "type": "Point"}, "id": "bVjiMqDXJXKiCZRM0vlXus5Xh38=", "properties": {"@spider": "usps_collection_boxes", "addr:city": "SWEET SPRINGS", "addr:country": "US", "addr:full": "311 SPRING ST", "addr:postcode": "65351", "addr:state": "MO", "amenity": "post_box", "brand": "United States Postal Service", "brand:wikidata": "Q668687", "collection_times": "Mo-Fr 14:15; Sa 10:15", "name": "USPS COLLECTION BOX - PO LOBBY", "note": "ON 12/24 AND 12/31, THIS BOX MAY BE COLLECTED AS EARLY AS 12 NOON.", "nsi_id": "unitedstatespostalservice-a77078", "operator": "United States Postal Service", "operator:short": "USPS", "operator:type": "public", "operator:wikidata": "Q668687", "ref": "6535100003"}, "type": "Feature"}
{"dataset_attributes": {"@spider": "usps_collection_boxes", "spider:collection_time": "2023-11-19T08:23:43.397954"}, "geometry": {"coordinates": [-93.418905406, 38.964556806], "type": "Point"}, "id": "YFeXsuCqL9H9vW9-hKsreVN2EWg=", "properties": {"@spider": "usps_collection_boxes", "addr:city": "SWEET SPRINGS", "addr:country": "US", "addr:full": "311 SPRING ST", "addr:postcode": "65351", "addr:state": "MO", "amenity": "post_box", "brand": "United States Postal Service", "brand:wikidata": "Q668687", "collection_times": "Mo-Fr 14:15; Sa 10:15", "name": "USPS COLLECTION BOX - PO LOBBY", "note": "ON 12/24 AND 12/31, THIS BOX MAY BE COLLECTED AS EARLY AS 12 NOON.", "nsi_id": "unitedstatespostalservice-a77078", "operator": "United States Postal Service", "operator:short": "USPS", "operator:type": "public", "operator:wikidata": "Q668687", "ref": "6535100005"}, "type": "Feature"}
{"dataset_attributes": {"@spider": "usps_collection_boxes", "spider:collection_time": "2023-11-19T08:23:43.397954"}, "geometry": {"coordinates": [-92.874117, 38.669771], "type": "Point"}, "id": "W4Z_VjNzAbISxRzxwZBPHpqlZBw=", "properties": {"@spider": "usps_collection_boxes", "addr:city": "SYRACUSE", "addr:country": "US", "addr:full": "214 E FRONT ST", "addr:postcode": "65354", "addr:state": "MO", "amenity": "post_box", "brand": "United States Postal Service", "brand:wikidata": "Q668687", "collection_times": "Mo-Fr 15:45; Sa 09:30", "name": "USPS COLLECTION BOX - BLUE BOX", "note": "ON 12/24 AND 12/31, THIS BOX MAY BE COLLECTED AS EARLY AS 12 NOON.", "nsi_id": "unitedstatespostalservice-a77078", "operator": "United States Postal Service", "operator:short": "USPS", "operator:type": "public", "operator:wikidata": "Q668687", "ref": "6535400001"}, "type": "Feature"}
{"dataset_attributes": {"@spider": "usps_collection_boxes", "spider:collection_time": "2023-11-19T08:23:43.397954"}, "geometry": {"coordinates": [-92.874107, 38.669801], "type": "Point"}, "id": "ja7VfGStQK54nhAvVHE-1eOmyEM=", "properties": {"@spider": "usps_collection_boxes", "addr:city": "SYRACUSE", "addr:country": "US", "addr:full": "214 E FRONT ST", "addr:postcode": "65354", "addr:state": "MO", "amenity": "post_box", "brand": "United States Postal Service", "brand:wikidata": "Q668687", "collection_times": "Mo-Fr 15:45; Sa 12:30", "name": "USPS COLLECTION BOX - PO LOBBY", "note": "ON 12/24 AND 12/31, THIS BOX MAY BE COLLECTED AS EARLY AS 12 NOON.", "nsi_id": "unitedstatespostalservice-a77078", "operator": "United States Postal Service", "operator:short": "USPS", "operator:type": "public", "operator:wikidata": "Q668687", "ref": "6535400002"}, "type": "Feature"}
{"dataset_attributes": {"@spider": "usps_collection_boxes", "spider:collection_time": "2023-11-19T08:23:43.397954"}, "geometry": {"coordinates": [-92.873715124, 38.669835805], "type": "Point"}, "id": "vFU7tr46HCN3yVKxHljalAp7-hE=", "properties": {"@spider": "usps_collection_boxes", "addr:city": "SYRACUSE", "addr:country": "US", "addr:full": "214 E FRONT ST", "addr:postcode": "65354", "addr:state": "MO", "amenity": "post_box", "brand": "United States Postal Service", "brand:wikidata": "Q668687", "collection_times": "Mo-Fr 15:45; Sa 12:30", "name": "USPS COLLECTION BOX - PO LOBBY", "note": "ON 12/24 AND 12/31, THIS BOX MAY BE COLLECTED AS EARLY AS 12 NOON.", "nsi_id": "unitedstatespostalservice-a77078", "operator": "United States Postal Service", "operator:short": "USPS", "operator:type": "public", "operator:wikidata": "Q668687", "ref": "6535400004"}, "type": "Feature"}
{"dataset_attributes": {"@spider": "usps_collection_boxes", "spider:collection_time": "2023-11-19T08:23:43.397954"}, "geometry": {"coordinates": [-93.3815223037, 38.2427953301], "type": "Point"}, "id": "2-ELkTMZUPSHDamv4kpU-wJr7Zc=", "properties": {"@spider": "usps_collection_boxes", "addr:city": "WARSAW", "addr:country": "US", "addr:full": "406 BENTON ST", "addr:postcode": "65355", "addr:state": "MO", "amenity": "post_box", "brand": "United States Postal Service", "brand:wikidata": "Q668687", "collection_times": "Mo-Fr 16:30; Sa 14:30", "name": "USPS COLLECTION BOX - BLUE BOX", "note": "ON 12/24 AND 12/31, THIS BOX MAY BE COLLECTED AS EARLY AS 12 NOON.", "nsi_id": "unitedstatespostalservice-a77078", "operator": "United States Postal Service", "operator:short": "USPS", "operator:type": "public", "operator:wikidata": "Q668687", "ref": "6535500001"}, "type": "Feature"}
{"dataset_attributes": {"@spider": "usps_collection_boxes", "spider:collection_time": "2023-11-19T08:23:43.397954"}, "geometry": {"coordinates": [-93.3815223037, 38.2427953301], "type": "Point"}, "id": "kNguFZYN07EZY0b03NXj5uU6XXs=", "properties": {"@spider": "usps_collection_boxes", "addr:city": "WARSAW", "addr:country": "US", "addr:full": "406 BENTON ST", "addr:postcode": "65355", "addr:state": "MO", "amenity": "post_box", "brand": "United States Postal Service", "brand:wikidata": "Q668687", "collection_times": "Mo-Fr 16:30; Sa 14:30", "name": "USPS COLLECTION BOX - PO LOBBY", "note": "ON 12/24 AND 12/31, THIS BOX MAY BE COLLECTED AS EARLY AS 12 NOON.", "nsi_id": "unitedstatespostalservice-a77078", "operator": "United States Postal Service", "operator:short": "USPS", "operator:type": "public", "operator:wikidata": "Q668687", "ref": "6535500004"}, "type": "Feature"}
{"dataset_attributes": {"@spider": "usps_collection_boxes", "spider:collection_time": "2023-11-19T08:23:43.397954"}, "geometry": {"coordinates": [-93.3712930295, 38.2617419997], "type": "Point"}, "id": "edM3DGntoPFO6BHRzgS668ki6Lk=", "properties": {"@spider": "usps_collection_boxes", "addr:city": "WARSAW", "addr:country": "US", "addr:full": "103 W POLK ST", "addr:postcode": "65355", "addr:state": "MO", "amenity": "post_box", "brand": "United States Postal Service", "brand:wikidata": "Q668687", "collection_times": "Mo-Sa 10:00", "name": "USPS COLLECTION BOX - BLUE BOX", "nsi_id": "unitedstatespostalservice-a77078", "operator": "United States Postal Service", "operator:short": "USPS", "operator:type": "public", "operator:wikidata": "Q668687", "ref": "6535500006"}, "type": "Feature"}
{"dataset_attributes": {"@spider": "usps_collection_boxes", "spider:collection_time": "2023-11-19T08:23:43.397954"}, "geometry": {"coordinates": [-93.3815223037, 38.2427953301], "type": "Point"}, "id": "4Jc2QnulqN3_HwJxP0gO0adDRBQ=", "properties": {"@spider": "usps_collection_boxes", "addr:city": "WARSAW", "addr:country": "US", "addr:full": "406 BENTON ST", "addr:postcode": "65355", "addr:state": "MO", "amenity": "post_box", "brand": "United States Postal Service", "brand:wikidata": "Q668687", "collection_times": "Mo-Fr 16:30; Sa 14:30", "name": "USPS COLLECTION BOX - PO LOBBY", "note": "ON 12/24 AND 12/31, THIS BOX MAY BE COLLECTED AS EARLY AS 12 NOON.", "nsi_id": "unitedstatespostalservice-a77078", "operator": "United States Postal Service", "operator:short": "USPS", "operator:type": "public", "operator:wikidata": "Q668687", "ref": "6535500007"}, "type": "Feature"}
{"dataset_attributes": {"@spider": "usps_collection_boxes", "spider:collection_time": "2023-11-19T08:23:43.397954"}, "geometry": {"coordinates": [-93.52137, 38.532279995], "type": "Point"}, "id": "xtDw2QQGOEDL2IyBuIK7zQGcDSQ=", "properties": {"@spider": "usps_collection_boxes", "addr:city": "WINDSOR", "addr:country": "US", "addr:full": "107 N MAIN ST", "addr:postcode": "65360", "addr:state": "MO", "amenity": "post_box", "brand": "United States Postal Service", "brand:wikidata": "Q668687", "collection_times": "Mo-Fr 16:30; Sa 09:30", "name": "USPS COLLECTION BOX - BLUE BOX", "note": "ON 12/24 AND 12/31, THIS BOX MAY BE COLLECTED AS EARLY AS 12 NOON.", "nsi_id": "unitedstatespostalservice-a77078", "operator": "United States Postal Service", "operator:short": "USPS", "operator:type": "public", "operator:wikidata": "Q668687", "ref": "6536000002"}, "type": "Feature"}
{"dataset_attributes": {"@spider": "usps_collection_boxes", "spider:collection_time": "2023-11-19T08:23:43.397954"}, "geometry": {"coordinates": [-93.52137, 38.532279995], "type": "Point"}, "id": "un56a8zkkLzTaxM8J_juYLyx7N8=", "properties": {"@spider": "usps_collection_boxes", "addr:city": "WINDSOR", "addr:country": "US", "addr:full": "107 N MAIN ST", "addr:postcode": "65360", "addr:state": "MO", "amenity": "post_box", "brand": "United States Postal Service", "brand:wikidata": "Q668687", "collection_times": "Mo-Fr 16:30; Sa 09:30", "name": "USPS COLLECTION BOX - PO LOBBY", "note": "ON 12/24 AND 12/31, THIS BOX MAY BE COLLECTED AS EARLY AS 12 NOON.", "nsi_id": "unitedstatespostalservice-a77078", "operator": "United States Postal Service", "operator:short": "USPS", "operator:type": "public", "operator:wikidata": "Q668687", "ref": "6536000007"}, "type": "Feature"}
{"dataset_attributes": {"@spider": "usps_collection_boxes", "spider:collection_time": "2023-11-19T08:23:43.397954"}, "geometry": {"coordinates": [-93.52137, 38.532279995], "type": "Point"}, "id": "TPf3YWQ7CVJdW1qaxczDFk3cjA0=", "properties": {"@spider": "usps_collection_boxes", "addr:city": "WINDSOR", "addr:country": "US", "addr:full": "107 N MAIN ST", "addr:postcode": "65360", "addr:state": "MO", "amenity": "post_box", "brand": "United States Postal Service", "brand:wikidata": "Q668687", "collection_times": "Mo-Fr 16:30; Sa 09:30", "name": "USPS COLLECTION BOX - PO LOBBY", "note": "ON 12/24 AND 12/31, THIS BOX MAY BE COLLECTED AS EARLY AS 12 NOON.", "nsi_id": "unitedstatespostalservice-a77078", "operator": "United States Postal Service", "operator:short": "USPS", "operator:type": "public", "operator:wikidata": "Q668687", "ref": "6536000009"}, "type": "Feature"}
