{"dataset_attributes": {"@spider": "usps_collection_boxes", "spider:collection_time": "2023-09-19T08:25:58.007339"}, "geometry": {"coordinates": [-91.774245, 37.949945], "type": "Point"}, "id": "W8n-w5wJlwixr_jEy5uNmR4pmjs=", "properties": {"@spider": "usps_collection_boxes", "addr:city": "ROLLA", "addr:country": "US", "addr:full": "501 W 8TH ST", "addr:postcode": "65401", "addr:state": "MO", "amenity": "post_box", "brand": "United States Postal Service", "brand:wikidata": "Q668687", "collection_times": "Mo-Sa 14:00", "name": "USPS COLLECTION BOX - BLUE BOX", "note": "ON 12/24 AND 12/31, THIS BOX MAY BE COLLECTED AS EARLY AS 12 NOON.", "nsi_id": "unitedstatespostalservice-a77078", "operator": "United States Postal Service", "operator:short": "USPS", "operator:type": "public", "operator:wikidata": "Q668687", "ref": "6540100000"}, "type": "Feature"}
{"dataset_attributes": {"@spider": "usps_collection_boxes", "spider:collection_time": "2023-09-19T08:25:58.007339"}, "geometry": {"coordinates": [-91.77413, 37.949971], "type": "Point"}, "id": "AZVvPzQ-RZY7curdsasPuanihxg=", "properties": {"@spider": "usps_collection_boxes", "addr:city": "ROLLA", "addr:country": "US", "addr:full": "501 W 8TH ST", "addr:postcode": "65401", "addr:state": "MO", "amenity": "post_box", "brand": "United States Postal Service", "brand:wikidata": "Q668687", "collection_times": "Mo-Sa 14:00", "name": "USPS COLLECTION BOX - BLUE BOX", "note": "ON 12/24 AND 12/31, THIS BOX MAY BE COLLECTED AS EARLY AS 12 NOON.", "nsi_id": "unitedstatespostalservice-a77078", "operator": "United States Postal Service", "operator:short": "USPS", "operator:type": "public", "operator:wikidata": "Q668687", "ref": "6540100001"}, "type": "Feature"}
{"dataset_attributes": {"@spider": "usps_collection_boxes", "spider:collection_time": "2023-09-19T08:25:58.007339"}, "geometry": {"coordinates": [-91.77413, 37.949971], "type": "Point"}, "id": "TjCDbSbUbSoT4gVyL7cG849C-BA=", "properties": {"@spider": "usps_collection_boxes", "addr:city": "ROLLA", "addr:country": "US", "addr:full": "501 W 8TH ST", "addr:postcode": "65401", "addr:state": "MO", "amenity": "post_box", "brand": "United States Postal Service", "brand:wikidata": "Q668687", "collection_times": "Mo-Sa 14:00", "name": "USPS COLLECTION BOX - BLUE BOX", "note": "ON 12/24 AND 12/31, THIS BOX MAY BE COLLECTED AS EARLY AS 12 NOON.", "nsi_id": "unitedstatespostalservice-a77078", "operator": "United States Postal Service", "operator:short": "USPS", "operator:type": "public", "operator:wikidata": "Q668687", "ref": "6540100003"}, "type": "Feature"}
{"dataset_attributes": {"@spider": "usps_collection_boxes", "spider:collection_time": "2023-09-19T08:25:58.007339"}, "geometry": {"coordinates": [-91.7863979, 37.952259], "type": "Point"}, "id": "Jkli7fmV_7aCKvkaiMpJuC0Miqc=", "properties": {"@spider": "usps_collection_boxes", "addr:city": "ROLLA", "addr:country": "US", "addr:full": "1000 W 10TH ST", "addr:postcode": "65401", "addr:state": "MO", "amenity": "post_box", "brand": "United States Postal Service", "brand:wikidata": "Q668687", "collection_times": "Mo-Sa 12:00", "name": "USPS COLLECTION BOX - BLUE BOX", "nsi_id": "unitedstatespostalservice-a77078", "operator": "United States Postal Service", "operator:short": "USPS", "operator:type": "public", "operator:wikidata": "Q668687", "ref": "6540100007"}, "type": "Feature"}
{"dataset_attributes": {"@spider": "usps_collection_boxes", "spider:collection_time": "2023-09-19T08:25:58.007339"}, "geometry": {"coordinates": [-91.7795072, 37.938176], "type": "Point"}, "id": "qK6MfeY0smOlzMtvpEBWymqS2UQ=", "properties": {"@spider": "usps_collection_boxes", "addr:city": "ROLLA", "addr:country": "US", "addr:full": "500 S BISHOP AVE", "addr:postcode": "65401", "addr:state": "MO", "amenity": "post_box", "brand": "United States Postal Service", "brand:wikidata": "Q668687", "collection_times": "Mo-Sa 10:00", "name": "USPS COLLECTION BOX - BLUE BOX", "nsi_id": "unitedstatespostalservice-a77078", "operator": "United States Postal Service", "operator:short": "USPS", "operator:type": "public", "operator:wikidata": "Q668687", "ref": "6540100011"}, "type": "Feature"}
{"dataset_attributes": {"@spider": "usps_collection_boxes", "spider:collection_time": "2023-09-19T08:25:58.007339"}, "geometry": {"coordinates": [-91.7733305, 37.946132], "type": "Point"}, "id": "q2ZXPQGHNki6paU68Dms8eBcf-s=", "properties": {"@spider": "usps_collection_boxes", "addr:city": "ROLLA", "addr:country": "US", "addr:full": "200 N MAIN ST", "addr:postcode": "65401", "addr:state": "MO", "amenity": "post_box", "brand": "United States Postal Service", "brand:wikidata": "Q668687", "collection_times": "Mo-Sa 13:00", "name": "USPS COLLECTION BOX - BLUE BOX", "note": "ON 12/24 AND 12/31, THIS BOX MAY BE COLLECTED AS EARLY AS 12 NOON.", "nsi_id": "unitedstatespostalservice-a77078", "operator": "United States Postal Service", "operator:short": "USPS", "operator:type": "public", "operator:wikidata": "Q668687", "ref": "6540100016"}, "type": "Feature"}
{"dataset_attributes": {"@spider": "usps_collection_boxes", "spider:collection_time": "2023-09-19T08:25:58.007339"}, "geometry": {"coordinates": [-91.7476758, 37.935045], "type": "Point"}, "id": "IYLMoZinNmfwYlUENpQbnbMCaNI=", "properties": {"@spider": "usps_collection_boxes", "addr:city": "ROLLA", "addr:country": "US", "addr:full": "1400 E STATE ROUTE 72", "addr:postcode": "65401", "addr:state": "MO", "amenity": "post_box", "brand": "United States Postal Service", "brand:wikidata": "Q668687", "collection_times": "Mo-Sa 12:00", "name": "USPS COLLECTION BOX - BLUE BOX", "nsi_id": "unitedstatespostalservice-a77078", "operator": "United States Postal Service", "operator:short": "USPS", "operator:type": "public", "operator:wikidata": "Q668687", "ref": "6540100018"}, "type": "Feature"}
{"dataset_attributes": {"@spider": "usps_collection_boxes", "spider:collection_time": "2023-09-19T08:25:58.007339"}, "geometry": {"coordinates": [-91.7510768, 37.952389], "type": "Point"}, "id": "C6TUMk4NnLrYbbajXTC0N8rZcVo=", "properties": {"@spider": "usps_collection_boxes", "addr:city": "ROLLA", "addr:country": "US", "addr:full": "1040 FORUM DR", "addr:postcode": "65401", "addr:state": "MO", "amenity": "post_box", "brand": "United States Postal Service", "brand:wikidata": "Q668687", "collection_times": "Mo-Sa 13:00", "name": "USPS COLLECTION BOX - BLUE BOX", "note": "ON 12/24 AND 12/31, THIS BOX MAY BE COLLECTED AS EARLY AS 12 NOON.", "nsi_id": "unitedstatespostalservice-a77078", "operator": "United States Postal Service", "operator:short": "USPS", "operator:type": "public", "operator:wikidata": "Q668687", "ref": "6540100020"}, "type": "Feature"}
{"dataset_attributes": {"@spider": "usps_collection_boxes", "spider:collection_time": "2023-09-19T08:25:58.007339"}, "geometry": {"coordinates": [-91.7867095, 37.943874], "type": "Point"}, "id": "AOSqbCPp8ROErhEpwjuioT9GAcU=", "properties": {"@spider": "usps_collection_boxes", "addr:city": "ROLLA", "addr:country": "US", "addr:full": "1111 KINGSHIGHWAY ST", "addr:postcode": "65401", "addr:state": "MO", "amenity": "post_box", "brand": "United States Postal Service", "brand:wikidata": "Q668687", "collection_times": "Mo-Sa 10:00", "name": "USPS COLLECTION BOX - BLUE BOX", "nsi_id": "unitedstatespostalservice-a77078", "operator": "United States Postal Service", "operator:short": "USPS", "operator:type": "public", "operator:wikidata": "Q668687", "ref": "6540100023"}, "type": "Feature"}
{"dataset_attributes": {"@spider": "usps_collection_boxes", "spider:collection_time": "2023-09-19T08:25:58.007339"}, "geometry": {"coordinates": [-91.7714889, 37.950277], "type": "Point"}, "id": "bHv-NoVJFWp7WxRpZ2J-iWPK0ZQ=", "properties": {"@spider": "usps_collection_boxes", "addr:city": "ROLLA", "addr:country": "US", "addr:full": "810 N PINE ST", "addr:postcode": "65401", "addr:state": "MO", "amenity": "post_box", "brand": "United States Postal Service", "brand:wikidata": "Q668687", "collection_times": "Mo-Sa 11:30", "name": "USPS COLLECTION BOX - BLUE BOX", "nsi_id": "unitedstatespostalservice-a77078", "operator": "United States Postal Service", "operator:short": "USPS", "operator:type": "public", "operator:wikidata": "Q668687", "ref": "6540100024"}, "type": "Feature"}
{"dataset_attributes": {"@spider": "usps_collection_boxes", "spider:collection_time": "2023-09-19T08:25:58.007339"}, "geometry": {"coordinates": [-91.77413, 37.949971], "type": "Point"}, "id": "bzqRNsQkRPr4FTiFhcNxQaNLlsk=", "properties": {"@spider": "usps_collection_boxes", "addr:city": "ROLLA", "addr:country": "US", "addr:full": "501 W 8TH ST", "addr:postcode": "65401", "addr:state": "MO", "amenity": "post_box", "brand": "United States Postal Service", "brand:wikidata": "Q668687", "collection_times": "Mo-Sa 14:00", "name": "USPS COLLECTION BOX - BLUE BOX", "note": "ON 12/24 AND 12/31, THIS BOX MAY BE COLLECTED AS EARLY AS 12 NOON.", "nsi_id": "unitedstatespostalservice-a77078", "operator": "United States Postal Service", "operator:short": "USPS", "operator:type": "public", "operator:wikidata": "Q668687", "ref": "6540100028"}, "type": "Feature"}
{"dataset_attributes": {"@spider": "usps_collection_boxes", "spider:collection_time": "2023-09-19T08:25:58.007339"}, "geometry": {"coordinates": [-91.77413, 37.949971], "type": "Point"}, "id": "tD1WX_zHJvgNUl0NcvcXNnPFsgA=", "properties": {"@spider": "usps_collection_boxes", "addr:city": "ROLLA", "addr:country": "US", "addr:full": "501 W 8TH ST", "addr:postcode": "65401", "addr:state": "MO", "amenity": "post_box", "brand": "United States Postal Service", "brand:wikidata": "Q668687", "collection_times": "Mo-Sa 14:00", "name": "USPS COLLECTION BOX - PO LOBBY", "note": "ON 12/24 AND 12/31, THIS BOX MAY BE COLLECTED AS EARLY AS 12 NOON.", "nsi_id": "unitedstatespostalservice-a77078", "operator": "United States Postal Service", "operator:short": "USPS", "operator:type": "public", "operator:wikidata": "Q668687", "ref": "6540100029"}, "type": "Feature"}
{"dataset_attributes": {"@spider": "usps_collection_boxes", "spider:collection_time": "2023-09-19T08:25:58.007339"}, "geometry": {"coordinates": [-91.77413, 37.949971], "type": "Point"}, "id": "zzNdCTBEBU0f18hZe9AbvVkLW_s=", "properties": {"@spider": "usps_collection_boxes", "addr:city": "ROLLA", "addr:country": "US", "addr:full": "501 W 8TH ST", "addr:postcode": "65401", "addr:state": "MO", "amenity": "post_box", "brand": "United States Postal Service", "brand:wikidata": "Q668687", "collection_times": "Mo-Sa 14:00", "name": "USPS COLLECTION BOX - PO LOBBY", "note": "ON 12/24 AND 12/31, THIS BOX MAY BE COLLECTED AS EARLY AS 12 NOON.", "nsi_id": "unitedstatespostalservice-a77078", "operator": "United States Postal Service", "operator:short": "USPS", "operator:type": "public", "operator:wikidata": "Q668687", "ref": "6540100030"}, "type": "Feature"}
{"dataset_attributes": {"@spider": "usps_collection_boxes", "spider:collection_time": "2023-09-19T08:25:58.007339"}, "geometry": {"coordinates": [-91.77413, 37.949971], "type": "Point"}, "id": "IFuvAp6jwFOTeRaT070X_bb7D8Q=", "properties": {"@spider": "usps_collection_boxes", "addr:city": "ROLLA", "addr:country": "US", "addr:full": "501 W 8TH ST", "addr:postcode": "65401", "addr:state": "MO", "amenity": "post_box", "brand": "United States Postal Service", "brand:wikidata": "Q668687", "collection_times": "Mo-Sa 14:00", "name": "USPS COLLECTION BOX - APC", "note": "ON 12/24 AND 12/31, THIS BOX MAY BE COLLECTED AS EARLY AS 12 NOON.", "nsi_id": "unitedstatespostalservice-a77078", "operator": "United States Postal Service", "operator:short": "USPS", "operator:type": "public", "operator:wikidata": "Q668687", "ref": "6540100036"}, "type": "Feature"}
{"dataset_attributes": {"@spider": "usps_collection_boxes", "spider:collection_time": "2023-09-19T08:25:58.007339"}, "geometry": {"coordinates": [-91.7705089, 37.950846], "type": "Point"}, "id": "Lzop-AH1lNw0jMD-cl0jpOJsw0k=", "properties": {"@spider": "usps_collection_boxes", "addr:city": "ROLLA", "addr:country": "US", "addr:full": "901 N ELM ST", "addr:postcode": "65401", "addr:state": "MO", "amenity": "post_box", "brand": "United States Postal Service", "brand:wikidata": "Q668687", "collection_times": "Mo-Sa 13:00", "name": "USPS COLLECTION BOX - BLUE BOX", "note": "ON 12/24 AND 12/31, THIS BOX MAY BE COLLECTED AS EARLY AS 12 NOON.", "nsi_id": "unitedstatespostalservice-a77078", "operator": "United States Postal Service", "operator:short": "USPS", "operator:type": "public", "operator:wikidata": "Q668687", "ref": "6540100037"}, "type": "Feature"}
{"dataset_attributes": {"@spider": "usps_collection_boxes", "spider:collection_time": "2023-09-19T08:25:58.007339"}, "geometry": {"coordinates": [-91.774265629, 37.949877165], "type": "Point"}, "id": "1Jg0MbyN8iS1w6a3YSoNaG7CejY=", "properties": {"@spider": "usps_collection_boxes", "addr:city": "ROLLA", "addr:country": "US", "addr:full": "501 W 8TH ST", "addr:postcode": "65401", "addr:state": "MO", "amenity": "post_box", "brand": "United States Postal Service", "brand:wikidata": "Q668687", "collection_times": "Mo-Fr 17:00; Sa 12:30", "name": "USPS COLLECTION BOX - PO LOBBY", "note": "ON 12/24 AND 12/31, THIS BOX MAY BE COLLECTED AS EARLY AS 12 NOON.", "nsi_id": "unitedstatespostalservice-a77078", "operator": "United States Postal Service", "operator:short": "USPS", "operator:type": "public", "operator:wikidata": "Q668687", "ref": "6540100042"}, "type": "Feature"}
{"dataset_attributes": {"@spider": "usps_collection_boxes", "spider:collection_time": "2023-09-19T08:25:58.007339"}, "geometry": {"coordinates": [-91.49549, 36.989832], "type": "Point"}, "id": "oiQS3mieaqKcbWsJ4OFlAoClfu4=", "properties": {"@spider": "usps_collection_boxes", "addr:city": "BIRCH TREE", "addr:country": "US", "addr:full": "100 1ST ST", "addr:postcode": "65438", "addr:state": "MO", "amenity": "post_box", "brand": "United States Postal Service", "brand:wikidata": "Q668687", "collection_times": "Mo-Fr 13:00; Sa 10:15", "name": "USPS COLLECTION BOX - BLUE BOX", "note": "ON 12/24 AND 12/31, THIS BOX MAY BE COLLECTED AS EARLY AS 12 NOON.", "nsi_id": "unitedstatespostalservice-a77078", "operator": "United States Postal Service", "operator:short": "USPS", "operator:type": "public", "operator:wikidata": "Q668687", "ref": "6543800000"}, "type": "Feature"}
{"dataset_attributes": {"@spider": "usps_collection_boxes", "spider:collection_time": "2023-09-19T08:25:58.007339"}, "geometry": {"coordinates": [-91.49549, 36.989832], "type": "Point"}, "id": "SIP7hPSRuFxFMIpuO_Op8X1cAx8=", "properties": {"@spider": "usps_collection_boxes", "addr:city": "BIRCH TREE", "addr:country": "US", "addr:full": "100 1ST ST", "addr:postcode": "65438", "addr:state": "MO", "amenity": "post_box", "brand": "United States Postal Service", "brand:wikidata": "Q668687", "collection_times": "Mo-Fr 13:00; Sa 10:15", "name": "USPS COLLECTION BOX - PO LOBBY", "note": "ON 12/24 AND 12/31, THIS BOX MAY BE COLLECTED AS EARLY AS 12 NOON.", "nsi_id": "unitedstatespostalservice-a77078", "operator": "United States Postal Service", "operator:short": "USPS", "operator:type": "public", "operator:wikidata": "Q668687", "ref": "6543800001"}, "type": "Feature"}
{"dataset_attributes": {"@spider": "usps_collection_boxes", "spider:collection_time": "2023-09-19T08:25:58.007339"}, "geometry": {"coordinates": [-91.154568, 37.646682], "type": "Point"}, "id": "sQ13tlx48jma4Hou1qqNboXggH4=", "properties": {"@spider": "usps_collection_boxes", "addr:city": "BIXBY", "addr:country": "US", "addr:full": "2573 STATE ROUTE 32", "addr:postcode": "65439", "addr:state": "MO", "amenity": "post_box", "brand": "United States Postal Service", "brand:wikidata": "Q668687", "collection_times": "Mo-Fr 12:00; Sa 09:45", "name": "USPS COLLECTION BOX - BLUE BOX", "nsi_id": "unitedstatespostalservice-a77078", "operator": "United States Postal Service", "operator:short": "USPS", "operator:type": "public", "operator:wikidata": "Q668687", "ref": "6543900000"}, "type": "Feature"}
{"dataset_attributes": {"@spider": "usps_collection_boxes", "spider:collection_time": "2023-09-19T08:25:58.007339"}, "geometry": {"coordinates": [-91.154568, 37.646682], "type": "Point"}, "id": "MmDyCc_80ek63G-6cJmYP67GeY4=", "properties": {"@spider": "usps_collection_boxes", "addr:city": "BIXBY", "addr:country": "US", "addr:full": "2573 STATE ROUTE 32", "addr:postcode": "65439", "addr:state": "MO", "amenity": "post_box", "brand": "United States Postal Service", "brand:wikidata": "Q668687", "collection_times": "Mo-Fr 12:00; Sa 09:45", "name": "USPS COLLECTION BOX - PO LOBBY", "nsi_id": "unitedstatespostalservice-a77078", "operator": "United States Postal Service", "operator:short": "USPS", "operator:type": "public", "operator:wikidata": "Q668687", "ref": "6543900001"}, "type": "Feature"}
{"dataset_attributes": {"@spider": "usps_collection_boxes", "spider:collection_time": "2023-09-19T08:25:58.007339"}, "geometry": {"coordinates": [-91.1934065481, 37.6448127061], "type": "Point"}, "id": "k74rRHdWLGHsdozDU8UGvXN3jzg=", "properties": {"@spider": "usps_collection_boxes", "addr:city": "BOSS", "addr:country": "US", "addr:full": "22333 E HIGHWAY 32", "addr:postcode": "65440", "addr:state": "MO", "amenity": "post_box", "brand": "United States Postal Service", "brand:wikidata": "Q668687", "collection_times": "Mo-Fr 11:45; Sa 10:45", "name": "USPS COLLECTION BOX - BLUE BOX", "nsi_id": "unitedstatespostalservice-a77078", "operator": "United States Postal Service", "operator:short": "USPS", "operator:type": "public", "operator:wikidata": "Q668687", "ref": "6544000000"}, "type": "Feature"}
{"dataset_attributes": {"@spider": "usps_collection_boxes", "spider:collection_time": "2023-09-19T08:25:58.007339"}, "geometry": {"coordinates": [-91.193311, 37.644807], "type": "Point"}, "id": "9_3yAK0BDoqxqJYSWMEGiiHiqs8=", "properties": {"@spider": "usps_collection_boxes", "addr:city": "BOSS", "addr:country": "US", "addr:full": "22333 E HIGHWAY 32", "addr:postcode": "65440", "addr:state": "MO", "amenity": "post_box", "brand": "United States Postal Service", "brand:wikidata": "Q668687", "collection_times": "Mo-Fr 11:45; Sa 10:45", "name": "USPS COLLECTION BOX - PO LOBBY", "nsi_id": "unitedstatespostalservice-a77078", "operator": "United States Postal Service", "operator:short": "USPS", "operator:type": "public", "operator:wikidata": "Q668687", "ref": "6544000001"}, "type": "Feature"}
{"dataset_attributes": {"@spider": "usps_collection_boxes", "spider:collection_time": "2023-09-19T08:25:58.007339"}, "geometry": {"coordinates": [-91.246337, 38.152658], "type": "Point"}, "id": "6HYrBvSnSdx9K_6KOje4Gmfl8UM=", "properties": {"@spider": "usps_collection_boxes", "addr:city": "BOURBON", "addr:country": "US", "addr:full": "218 E PINE ST", "addr:postcode": "65441", "addr:state": "MO", "amenity": "post_box", "brand": "United States Postal Service", "brand:wikidata": "Q668687", "collection_times": "Mo-Fr 13:00; Sa 12:00", "name": "USPS COLLECTION BOX - BLUE BOX", "note": "ON 12/24 AND 12/31, THIS BOX MAY BE COLLECTED AS EARLY AS 12 NOON.", "nsi_id": "unitedstatespostalservice-a77078", "operator": "United States Postal Service", "operator:short": "USPS", "operator:type": "public", "operator:wikidata": "Q668687", "ref": "6544100001"}, "type": "Feature"}
{"dataset_attributes": {"@spider": "usps_collection_boxes", "spider:collection_time": "2023-09-19T08:25:58.007339"}, "geometry": {"coordinates": [-91.246359, 38.152597], "type": "Point"}, "id": "vVAaW2LwKH__EGulbrE4qofFalI=", "properties": {"@spider": "usps_collection_boxes", "addr:city": "BOURBON", "addr:country": "US", "addr:full": "218 E PINE ST", "addr:postcode": "65441", "addr:state": "MO", "amenity": "post_box", "brand": "United States Postal Service", "brand:wikidata": "Q668687", "collection_times": "Mo-Fr 13:00; Sa 12:00", "name": "USPS COLLECTION BOX - PO LOBBY", "note": "ON 12/24 AND 12/31, THIS BOX MAY BE COLLECTED AS EARLY AS 12 NOON.", "nsi_id": "unitedstatespostalservice-a77078", "operator": "United States Postal Service", "operator:short": "USPS", "operator:type": "public", "operator:wikidata": "Q668687", "ref": "6544100005"}, "type": "Feature"}
{"dataset_attributes": {"@spider": "usps_collection_boxes", "spider:collection_time": "2023-09-19T08:25:58.007339"}, "geometry": {"coordinates": [-92.017203, 37.344361], "type": "Point"}, "id": "6gKgN5aq0zmlDvq9lXwtcxZHgec=", "properties": {"@spider": "usps_collection_boxes", "addr:city": "BUCYRUS", "addr:country": "US", "addr:full": "7866 HIGHWAY 17", "addr:postcode": "65444", "addr:state": "MO", "amenity": "post_box", "brand": "United States Postal Service", "brand:wikidata": "Q668687", "collection_times": "Mo-Sa 13:00", "name": "USPS COLLECTION BOX - BLUE BOX", "note": "ON 12/24 AND 12/31, THIS BOX MAY BE COLLECTED AS EARLY AS 12 NOON.", "nsi_id": "unitedstatespostalservice-a77078", "operator": "United States Postal Service", "operator:short": "USPS", "operator:type": "public", "operator:wikidata": "Q668687", "ref": "6544400000"}, "type": "Feature"}
{"dataset_attributes": {"@spider": "usps_collection_boxes", "spider:collection_time": "2023-09-19T08:25:58.007339"}, "geometry": {"coordinates": [-92.017128, 37.34433], "type": "Point"}, "id": "Ew2MAYNLg5e6CoP4z39Iju9VXso=", "properties": {"@spider": "usps_collection_boxes", "addr:city": "BUCYRUS", "addr:country": "US", "addr:full": "7866 HIGHWAY 17", "addr:postcode": "65444", "addr:state": "MO", "amenity": "post_box", "brand": "United States Postal Service", "brand:wikidata": "Q668687", "collection_times": "Mo-Sa 13:00", "name": "USPS COLLECTION BOX - PO LOBBY", "note": "ON 12/24 AND 12/31, THIS BOX MAY BE COLLECTED AS EARLY AS 12 NOON.", "nsi_id": "unitedstatespostalservice-a77078", "operator": "United States Postal Service", "operator:short": "USPS", "operator:type": "public", "operator:wikidata": "Q668687", "ref": "6544400001"}, "type": "Feature"}
{"dataset_attributes": {"@spider": "usps_collection_boxes", "spider:collection_time": "2023-09-19T08:25:58.007339"}, "geometry": {"coordinates": [-91.276932, 37.852543], "type": "Point"}, "id": "qrTYRXkeL4KBp8zFXazkd_JL6I0=", "properties": {"@spider": "usps_collection_boxes", "addr:city": "CHERRYVILLE", "addr:country": "US", "addr:full": "20376 HIGHWAY 19", "addr:postcode": "65446", "addr:state": "MO", "amenity": "post_box", "brand": "United States Postal Service", "brand:wikidata": "Q668687", "collection_times": "Mo-Fr 12:30; Sa 09:30", "name": "USPS COLLECTION BOX - BLUE BOX", "note": "ON 12/24 AND 12/31, THIS BOX MAY BE COLLECTED AS EARLY AS 12 NOON.", "nsi_id": "unitedstatespostalservice-a77078", "operator": "United States Postal Service", "operator:short": "USPS", "operator:type": "public", "operator:wikidata": "Q668687", "ref": "6544600000"}, "type": "Feature"}
{"dataset_attributes": {"@spider": "usps_collection_boxes", "spider:collection_time": "2023-09-19T08:25:58.007339"}, "geometry": {"coordinates": [-92.264036, 37.948999], "type": "Point"}, "id": "JwrkWv3_mrwivGl99Y3zxg8WP2s=", "properties": {"@spider": "usps_collection_boxes", "addr:city": "CROCKER", "addr:country": "US", "addr:full": "109 10TH ST", "addr:postcode": "65452", "addr:state": "MO", "amenity": "post_box", "brand": "United States Postal Service", "brand:wikidata": "Q668687", "collection_times": "Mo-Fr 14:00; Sa 10:30", "name": "USPS COLLECTION BOX - BLUE BOX", "note": "ON 12/24 AND 12/31, THIS BOX MAY BE COLLECTED AS EARLY AS 12 NOON.", "nsi_id": "unitedstatespostalservice-a77078", "operator": "United States Postal Service", "operator:short": "USPS", "operator:type": "public", "operator:wikidata": "Q668687", "ref": "6545200000"}, "type": "Feature"}
{"dataset_attributes": {"@spider": "usps_collection_boxes", "spider:collection_time": "2023-09-19T08:25:58.007339"}, "geometry": {"coordinates": [-92.26394, 37.949025], "type": "Point"}, "id": "Ek-94gvFuOw3vMROs9iSxEwinxQ=", "properties": {"@spider": "usps_collection_boxes", "addr:city": "CROCKER", "addr:country": "US", "addr:full": "109 10TH ST", "addr:postcode": "65452", "addr:state": "MO", "amenity": "post_box", "brand": "United States Postal Service", "brand:wikidata": "Q668687", "collection_times": "Mo-Fr 14:00; Sa 10:30", "name": "USPS COLLECTION BOX - PO LOBBY", "note": "ON 12/24 AND 12/31, THIS BOX MAY BE COLLECTED AS EARLY AS 12 NOON.", "nsi_id": "unitedstatespostalservice-a77078", "operator": "United States Postal Service", "operator:short": "USPS", "operator:type": "public", "operator:wikidata": "Q668687", "ref": "6545200001"}, "type": "Feature"}
{"dataset_attributes": {"@spider": "usps_collection_boxes", "spider:collection_time": "2023-09-19T08:25:58.007339"}, "geometry": {"coordinates": [-92.2640059538, 37.9489516973], "type": "Point"}, "id": "Wt2_RLBbJOejduFQqxg_lzCkJtY=", "properties": {"@spider": "usps_collection_boxes", "addr:city": "CROCKER", "addr:country": "US", "addr:full": "109 10TH ST", "addr:postcode": "65452", "addr:state": "MO", "amenity": "post_box", "brand": "United States Postal Service", "brand:wikidata": "Q668687", "collection_times": "Mo-Fr 14:00; Sa 10:30", "name": "USPS COLLECTION BOX - PO LOBBY", "note": "ON 12/24 AND 12/31, THIS BOX MAY BE COLLECTED AS EARLY AS 12 NOON.", "nsi_id": "unitedstatespostalservice-a77078", "operator": "United States Postal Service", "operator:short": "USPS", "operator:type": "public", "operator:wikidata": "Q668687", "ref": "6545200003"}, "type": "Feature"}
{"dataset_attributes": {"@spider": "usps_collection_boxes", "spider:collection_time": "2023-09-19T08:25:58.007339"}, "geometry": {"coordinates": [-92.264005443, 37.948942871], "type": "Point"}, "id": "NVUQytQKRNlB5SA8czN_dk7i2QE=", "properties": {"@spider": "usps_collection_boxes", "addr:city": "CROCKER", "addr:country": "US", "addr:full": "109 10TH ST", "addr:postcode": "65452", "addr:state": "MO", "amenity": "post_box", "brand": "United States Postal Service", "brand:wikidata": "Q668687", "collection_times": "Mo-Fr 16:30; Sa 10:30", "name": "USPS COLLECTION BOX - PO LOBBY", "note": "ON 12/24 AND 12/31, THIS BOX MAY BE COLLECTED AS EARLY AS 12 NOON.", "nsi_id": "unitedstatespostalservice-a77078", "operator": "United States Postal Service", "operator:short": "USPS", "operator:type": "public", "operator:wikidata": "Q668687", "ref": "6545200004"}, "type": "Feature"}
{"dataset_attributes": {"@spider": "usps_collection_boxes", "spider:collection_time": "2023-09-19T08:25:58.007339"}, "geometry": {"coordinates": [-91.407919, 38.061646], "type": "Point"}, "id": "mejDwOndIBtC7AYRmJ_dmzK76oE=", "properties": {"@spider": "usps_collection_boxes", "addr:city": "CUBA", "addr:country": "US", "addr:full": "703 W WASHINGTON ST", "addr:postcode": "65453", "addr:state": "MO", "amenity": "post_box", "brand": "United States Postal Service", "brand:wikidata": "Q668687", "collection_times": "Mo-Fr 13:30; Sa 12:00", "name": "USPS COLLECTION BOX - BLUE BOX", "note": "ON 12/24 AND 12/31, THIS BOX MAY BE COLLECTED AS EARLY AS 12 NOON.", "nsi_id": "unitedstatespostalservice-a77078", "operator": "United States Postal Service", "operator:short": "USPS", "operator:type": "public", "operator:wikidata": "Q668687", "ref": "6545300001"}, "type": "Feature"}
{"dataset_attributes": {"@spider": "usps_collection_boxes", "spider:collection_time": "2023-09-19T08:25:58.007339"}, "geometry": {"coordinates": [-91.407804, 38.061647], "type": "Point"}, "id": "Nr1TFRzy1RtfB17c1RVe-XoyPeY=", "properties": {"@spider": "usps_collection_boxes", "addr:city": "CUBA", "addr:country": "US", "addr:full": "703 W WASHINGTON ST", "addr:postcode": "65453", "addr:state": "MO", "amenity": "post_box", "brand": "United States Postal Service", "brand:wikidata": "Q668687", "collection_times": "Mo-Fr 13:30; Sa 12:00", "name": "USPS COLLECTION BOX - BLUE BOX", "note": "ON 12/24 AND 12/31, THIS BOX MAY BE COLLECTED AS EARLY AS 12 NOON.", "nsi_id": "unitedstatespostalservice-a77078", "operator": "United States Postal Service", "operator:short": "USPS", "operator:type": "public", "operator:wikidata": "Q668687", "ref": "6545300002"}, "type": "Feature"}
{"dataset_attributes": {"@spider": "usps_collection_boxes", "spider:collection_time": "2023-09-19T08:25:58.007339"}, "geometry": {"coordinates": [-91.4085413, 38.07437], "type": "Point"}, "id": "4whMwlbJAzusw2fcYS3u73-zWkg=", "properties": {"@spider": "usps_collection_boxes", "addr:city": "CUBA", "addr:country": "US", "addr:full": "5922 HIGHWAY 19", "addr:postcode": "65453", "addr:state": "MO", "amenity": "post_box", "brand": "United States Postal Service", "brand:wikidata": "Q668687", "collection_times": "Mo-Fr 12:30", "name": "USPS COLLECTION BOX - BLUE BOX", "note": "ON 12/24 AND 12/31, THIS BOX MAY BE COLLECTED AS EARLY AS 12 NOON.", "nsi_id": "unitedstatespostalservice-a77078", "operator": "United States Postal Service", "operator:short": "USPS", "operator:type": "public", "operator:wikidata": "Q668687", "ref": "6545300005"}, "type": "Feature"}
{"dataset_attributes": {"@spider": "usps_collection_boxes", "spider:collection_time": "2023-09-19T08:25:58.007339"}, "geometry": {"coordinates": [-91.4047768, 38.065105], "type": "Point"}, "id": "OZGmI6rrRA4UHwXHZa2HKMgIYQ0=", "properties": {"@spider": "usps_collection_boxes", "addr:city": "CUBA", "addr:country": "US", "addr:full": "314 N FRANKLIN ST", "addr:postcode": "65453", "addr:state": "MO", "amenity": "post_box", "brand": "United States Postal Service", "brand:wikidata": "Q668687", "collection_times": "Mo-Fr 11:00; Sa 10:30", "name": "USPS COLLECTION BOX - BLUE BOX", "nsi_id": "unitedstatespostalservice-a77078", "operator": "United States Postal Service", "operator:short": "USPS", "operator:type": "public", "operator:wikidata": "Q668687", "ref": "6545300009"}, "type": "Feature"}
{"dataset_attributes": {"@spider": "usps_collection_boxes", "spider:collection_time": "2023-09-19T08:25:58.007339"}, "geometry": {"coordinates": [-91.407804, 38.061647], "type": "Point"}, "id": "lwRtl68L18313bT-nla2PlVT30U=", "properties": {"@spider": "usps_collection_boxes", "addr:city": "CUBA", "addr:country": "US", "addr:full": "703 W WASHINGTON ST", "addr:postcode": "65453", "addr:state": "MO", "amenity": "post_box", "brand": "United States Postal Service", "brand:wikidata": "Q668687", "collection_times": "Mo-Fr 13:30; Sa 12:00", "name": "USPS COLLECTION BOX - PO LOBBY", "note": "ON 12/24 AND 12/31, THIS BOX MAY BE COLLECTED AS EARLY AS 12 NOON.", "nsi_id": "unitedstatespostalservice-a77078", "operator": "United States Postal Service", "operator:short": "USPS", "operator:type": "public", "operator:wikidata": "Q668687", "ref": "6545300012"}, "type": "Feature"}
{"dataset_attributes": {"@spider": "usps_collection_boxes", "spider:collection_time": "2023-09-19T08:25:58.007339"}, "geometry": {"coordinates": [-91.4082649683, 38.0617899811], "type": "Point"}, "id": "sOU1DFM_N12L2ypvGyFgILzYNTI=", "properties": {"@spider": "usps_collection_boxes", "addr:city": "CUBA", "addr:country": "US", "addr:full": "703 WASHINGTON ST", "addr:postcode": "65453", "addr:state": "MO", "amenity": "post_box", "brand": "United States Postal Service", "brand:wikidata": "Q668687", "collection_times": "Mo-Fr 16:30; Sa 12:30", "name": "USPS COLLECTION BOX - PO LOBBY", "note": "ON 12/24 AND 12/31, THIS BOX MAY BE COLLECTED AS EARLY AS 12 NOON.", "nsi_id": "unitedstatespostalservice-a77078", "operator": "United States Postal Service", "operator:short": "USPS", "operator:type": "public", "operator:wikidata": "Q668687", "ref": "6545300015"}, "type": "Feature"}
{"dataset_attributes": {"@spider": "usps_collection_boxes", "spider:collection_time": "2023-09-19T08:25:58.007339"}, "geometry": {"coordinates": [-92.0614807544, 37.8465067465], "type": "Point"}, "id": "F6g9_b7vLFAelSMe_WzTK7KiHoc=", "properties": {"@spider": "usps_collection_boxes", "addr:city": "DEVILS ELBOW", "addr:country": "US", "addr:full": "12175 TIMBER RD", "addr:postcode": "65457", "addr:state": "MO", "amenity": "post_box", "brand": "United States Postal Service", "brand:wikidata": "Q668687", "collection_times": "Mo-Fr 13:00; Sa 10:45", "name": "USPS COLLECTION BOX - BLUE BOX", "note": "ON 12/24 AND 12/31, THIS BOX MAY BE COLLECTED AS EARLY AS 12 NOON.", "nsi_id": "unitedstatespostalservice-a77078", "operator": "United States Postal Service", "operator:short": "USPS", "operator:type": "public", "operator:wikidata": "Q668687", "ref": "6545700000"}, "type": "Feature"}
{"dataset_attributes": {"@spider": "usps_collection_boxes", "spider:collection_time": "2023-09-19T08:25:58.007339"}, "geometry": {"coordinates": [-92.061341246, 37.846427489], "type": "Point"}, "id": "lY64H_Y-VR4CQYnHqxHbYoGFzqI=", "properties": {"@spider": "usps_collection_boxes", "addr:city": "DEVILS ELBOW", "addr:country": "US", "addr:full": "12175 TIMBER RD", "addr:postcode": "65457", "addr:state": "MO", "amenity": "post_box", "brand": "United States Postal Service", "brand:wikidata": "Q668687", "collection_times": "Mo-Fr 13:00; Sa 10:30", "name": "USPS COLLECTION BOX - PO LOBBY", "note": "ON 12/24 AND 12/31, THIS BOX MAY BE COLLECTED AS EARLY AS 12 NOON.", "nsi_id": "unitedstatespostalservice-a77078", "operator": "United States Postal Service", "operator:short": "USPS", "operator:type": "public", "operator:wikidata": "Q668687", "ref": "6545700002"}, "type": "Feature"}
{"dataset_attributes": {"@spider": "usps_collection_boxes", "spider:collection_time": "2023-09-19T08:25:58.007339"}, "geometry": {"coordinates": [-92.061341246, 37.846427489], "type": "Point"}, "id": "31r_GVel1VMnCNoUf6p9weanxQ0=", "properties": {"@spider": "usps_collection_boxes", "addr:city": "DEVILS ELBOW", "addr:country": "US", "addr:full": "12175 TIMBER RD", "addr:postcode": "65457", "addr:state": "MO", "amenity": "post_box", "brand": "United States Postal Service", "brand:wikidata": "Q668687", "collection_times": "Mo-Fr 14:00; Sa 11:00", "name": "USPS COLLECTION BOX - PO LOBBY", "note": "ON 12/24 AND 12/31, THIS BOX MAY BE COLLECTED AS EARLY AS 12 NOON.", "nsi_id": "unitedstatespostalservice-a77078", "operator": "United States Postal Service", "operator:short": "USPS", "operator:type": "public", "operator:wikidata": "Q668687", "ref": "6545700003"}, "type": "Feature"}
{"dataset_attributes": {"@spider": "usps_collection_boxes", "spider:collection_time": "2023-09-19T08:25:58.007339"}, "geometry": {"coordinates": [-92.094017, 37.991771], "type": "Point"}, "id": "b7YMxnMI2yMIsYLCTU7RLbqwweE=", "properties": {"@spider": "usps_collection_boxes", "addr:city": "DIXON", "addr:country": "US", "addr:full": "102 W 2ND ST", "addr:postcode": "65459", "addr:state": "MO", "amenity": "post_box", "brand": "United States Postal Service", "brand:wikidata": "Q668687", "collection_times": "Mo-Fr 13:15; Sa 10:45", "name": "USPS COLLECTION BOX - BLUE BOX", "note": "ON 12/24 AND 12/31, THIS BOX MAY BE COLLECTED AS EARLY AS 12 NOON.", "nsi_id": "unitedstatespostalservice-a77078", "operator": "United States Postal Service", "operator:short": "USPS", "operator:type": "public", "operator:wikidata": "Q668687", "ref": "6545900000"}, "type": "Feature"}
{"dataset_attributes": {"@spider": "usps_collection_boxes", "spider:collection_time": "2023-09-19T08:25:58.007339"}, "geometry": {"coordinates": [-92.094017, 37.991771], "type": "Point"}, "id": "dnFiI9IqQqZPCgBV3aNpbLofh4Q=", "properties": {"@spider": "usps_collection_boxes", "addr:city": "DIXON", "addr:country": "US", "addr:full": "102 W 2ND ST", "addr:postcode": "65459", "addr:state": "MO", "amenity": "post_box", "brand": "United States Postal Service", "brand:wikidata": "Q668687", "collection_times": "Mo-Fr 13:15; Sa 10:45", "name": "USPS COLLECTION BOX - PO LOBBY", "note": "ON 12/24 AND 12/31, THIS BOX MAY BE COLLECTED AS EARLY AS 12 NOON.", "nsi_id": "unitedstatespostalservice-a77078", "operator": "United States Postal Service", "operator:short": "USPS", "operator:type": "public", "operator:wikidata": "Q668687", "ref": "6545900001"}, "type": "Feature"}
{"dataset_attributes": {"@spider": "usps_collection_boxes", "spider:collection_time": "2023-09-19T08:25:58.007339"}, "geometry": {"coordinates": [-92.094017, 37.991771], "type": "Point"}, "id": "yhBIfGIc0yt0I0u0zVgaLnFi4NY=", "properties": {"@spider": "usps_collection_boxes", "addr:city": "DIXON", "addr:country": "US", "addr:full": "102 W 2ND ST", "addr:postcode": "65459", "addr:state": "MO", "amenity": "post_box", "brand": "United States Postal Service", "brand:wikidata": "Q668687", "collection_times": "Mo-Fr 13:15; Sa 10:45", "name": "USPS COLLECTION BOX - PO LOBBY", "note": "ON 12/24 AND 12/31, THIS BOX MAY BE COLLECTED AS EARLY AS 12 NOON.", "nsi_id": "unitedstatespostalservice-a77078", "operator": "United States Postal Service", "operator:short": "USPS", "operator:type": "public", "operator:wikidata": "Q668687", "ref": "6545900002"}, "type": "Feature"}
{"dataset_attributes": {"@spider": "usps_collection_boxes", "spider:collection_time": "2023-09-19T08:25:58.007339"}, "geometry": {"coordinates": [-92.094629778, 37.99179949], "type": "Point"}, "id": "FlH2FRdNZ3M2R0a2kKxJ5gwSO0o=", "properties": {"@spider": "usps_collection_boxes", "addr:city": "DIXON", "addr:country": "US", "addr:full": "102 W 2ND ST", "addr:postcode": "65459", "addr:state": "MO", "amenity": "post_box", "brand": "United States Postal Service", "brand:wikidata": "Q668687", "collection_times": "Mo-Fr 16:00; Sa 11:00", "name": "USPS COLLECTION BOX - PO LOBBY", "note": "ON 12/24 AND 12/31, THIS BOX MAY BE COLLECTED AS EARLY AS 12 NOON.", "nsi_id": "unitedstatespostalservice-a77078", "operator": "United States Postal Service", "operator:short": "USPS", "operator:type": "public", "operator:wikidata": "Q668687", "ref": "6545900003"}, "type": "Feature"}
{"dataset_attributes": {"@spider": "usps_collection_boxes", "spider:collection_time": "2023-09-19T08:25:58.007339"}, "geometry": {"coordinates": [-91.866973, 37.705763], "type": "Point"}, "id": "laOwT-ZjSTuDCvTH92EjGielS4g=", "properties": {"@spider": "usps_collection_boxes", "addr:city": "EDGAR SPRINGS", "addr:country": "US", "addr:full": "579 BROADWAY ST", "addr:postcode": "65462", "addr:state": "MO", "amenity": "post_box", "brand": "United States Postal Service", "brand:wikidata": "Q668687", "collection_times": "Mo-Fr 12:15; Sa 09:15", "name": "USPS COLLECTION BOX - BLUE BOX", "note": "ON 12/24 AND 12/31, THIS BOX MAY BE COLLECTED AS EARLY AS 12 NOON.", "nsi_id": "unitedstatespostalservice-a77078", "operator": "United States Postal Service", "operator:short": "USPS", "operator:type": "public", "operator:wikidata": "Q668687", "ref": "6546200000"}, "type": "Feature"}
{"dataset_attributes": {"@spider": "usps_collection_boxes", "spider:collection_time": "2023-09-19T08:25:58.007339"}, "geometry": {"coordinates": [-91.866928, 37.705738], "type": "Point"}, "id": "JCeqLpdTRZIhZPouiSl0KOsJiAQ=", "properties": {"@spider": "usps_collection_boxes", "addr:city": "EDGAR SPRINGS", "addr:country": "US", "addr:full": "579 BROADWAY ST", "addr:postcode": "65462", "addr:state": "MO", "amenity": "post_box", "brand": "United States Postal Service", "brand:wikidata": "Q668687", "collection_times": "Mo-Fr 12:15; Sa 09:15", "name": "USPS COLLECTION BOX - PO LOBBY", "note": "ON 12/24 AND 12/31, THIS BOX MAY BE COLLECTED AS EARLY AS 12 NOON.", "nsi_id": "unitedstatespostalservice-a77078", "operator": "United States Postal Service", "operator:short": "USPS", "operator:type": "public", "operator:wikidata": "Q668687", "ref": "6546200001"}, "type": "Feature"}
{"dataset_attributes": {"@spider": "usps_collection_boxes", "spider:collection_time": "2023-09-19T08:25:58.007339"}, "geometry": {"coordinates": [-92.746198, 37.829157], "type": "Point"}, "id": "n1fitOKzQ2YMiAaIzZhTVnUdwVo=", "properties": {"@spider": "usps_collection_boxes", "addr:city": "ELDRIDGE", "addr:country": "US", "addr:full": "15964 HIGHWAY E", "addr:postcode": "65463", "addr:state": "MO", "amenity": "post_box", "brand": "United States Postal Service", "brand:wikidata": "Q668687", "collection_times": "Mo-Sa 11:00", "name": "USPS COLLECTION BOX - BLUE BOX", "nsi_id": "unitedstatespostalservice-a77078", "operator": "United States Postal Service", "operator:short": "USPS", "operator:type": "public", "operator:wikidata": "Q668687", "ref": "6546300000"}, "type": "Feature"}
{"dataset_attributes": {"@spider": "usps_collection_boxes", "spider:collection_time": "2023-09-19T08:25:58.007339"}, "geometry": {"coordinates": [-92.746133, 37.829134], "type": "Point"}, "id": "sOKyJ3JBHIozbPWG0J4WrKC33sQ=", "properties": {"@spider": "usps_collection_boxes", "addr:city": "ELDRIDGE", "addr:country": "US", "addr:full": "15964 HIGHWAY E", "addr:postcode": "65463", "addr:state": "MO", "amenity": "post_box", "brand": "United States Postal Service", "brand:wikidata": "Q668687", "collection_times": "Mo-Sa 11:00", "name": "USPS COLLECTION BOX - PO LOBBY", "nsi_id": "unitedstatespostalservice-a77078", "operator": "United States Postal Service", "operator:short": "USPS", "operator:type": "public", "operator:wikidata": "Q668687", "ref": "6546300001"}, "type": "Feature"}
{"dataset_attributes": {"@spider": "usps_collection_boxes", "spider:collection_time": "2023-09-19T08:25:58.007339"}, "geometry": {"coordinates": [-91.9936799, 37.18759], "type": "Point"}, "id": "YPQ31zfCtsE4fWIYrPVVAXrTuuI=", "properties": {"@spider": "usps_collection_boxes", "addr:city": "ELK CREEK", "addr:country": "US", "addr:full": "15668 HIGHWAY H", "addr:postcode": "65464", "addr:state": "MO", "amenity": "post_box", "brand": "United States Postal Service", "brand:wikidata": "Q668687", "collection_times": "Mo-Sa 12:30", "name": "USPS COLLECTION BOX - BLUE BOX", "note": "ON 12/24 AND 12/31, THIS BOX MAY BE COLLECTED AS EARLY AS 12 NOON.", "nsi_id": "unitedstatespostalservice-a77078", "operator": "United States Postal Service", "operator:short": "USPS", "operator:type": "public", "operator:wikidata": "Q668687", "ref": "6546400000"}, "type": "Feature"}
{"dataset_attributes": {"@spider": "usps_collection_boxes", "spider:collection_time": "2023-09-19T08:25:58.007339"}, "geometry": {"coordinates": [-91.993591, 37.18772], "type": "Point"}, "id": "O9dF4vyaL0GuxJfTe_VYrxih7hI=", "properties": {"@spider": "usps_collection_boxes", "addr:city": "ELK CREEK", "addr:country": "US", "addr:full": "15668 HIGHWAY H", "addr:postcode": "65464", "addr:state": "MO", "amenity": "post_box", "brand": "United States Postal Service", "brand:wikidata": "Q668687", "collection_times": "Mo-Sa 12:30", "name": "USPS COLLECTION BOX - PO LOBBY", "note": "ON 12/24 AND 12/31, THIS BOX MAY BE COLLECTED AS EARLY AS 12 NOON.", "nsi_id": "unitedstatespostalservice-a77078", "operator": "United States Postal Service", "operator:short": "USPS", "operator:type": "public", "operator:wikidata": "Q668687", "ref": "6546400001"}, "type": "Feature"}
{"dataset_attributes": {"@spider": "usps_collection_boxes", "spider:collection_time": "2023-09-19T08:25:58.007339"}, "geometry": {"coordinates": [-91.358046, 37.144011], "type": "Point"}, "id": "35IMYohs-qqNSdxBRgY7hPzx9qo=", "properties": {"@spider": "usps_collection_boxes", "addr:city": "EMINENCE", "addr:country": "US", "addr:full": "205 S MAIN ST", "addr:postcode": "65466", "addr:state": "MO", "amenity": "post_box", "brand": "United States Postal Service", "brand:wikidata": "Q668687", "collection_times": "Mo-Fr 12:30; Sa 09:45", "name": "USPS COLLECTION BOX - BLUE BOX", "note": "ON 12/24 AND 12/31, THIS BOX MAY BE COLLECTED AS EARLY AS 12 NOON.", "nsi_id": "unitedstatespostalservice-a77078", "operator": "United States Postal Service", "operator:short": "USPS", "operator:type": "public", "operator:wikidata": "Q668687", "ref": "6546600000"}, "type": "Feature"}
{"dataset_attributes": {"@spider": "usps_collection_boxes", "spider:collection_time": "2023-09-19T08:25:58.007339"}, "geometry": {"coordinates": [-91.358046, 37.144011], "type": "Point"}, "id": "kGgC7cx9h-k0DxD-X4bRe4_LLUQ=", "properties": {"@spider": "usps_collection_boxes", "addr:city": "EMINENCE", "addr:country": "US", "addr:full": "205 S MAIN ST", "addr:postcode": "65466", "addr:state": "MO", "amenity": "post_box", "brand": "United States Postal Service", "brand:wikidata": "Q668687", "collection_times": "Mo-Fr 12:30; Sa 09:45", "name": "USPS COLLECTION BOX - PO LOBBY", "note": "ON 12/24 AND 12/31, THIS BOX MAY BE COLLECTED AS EARLY AS 12 NOON.", "nsi_id": "unitedstatespostalservice-a77078", "operator": "United States Postal Service", "operator:short": "USPS", "operator:type": "public", "operator:wikidata": "Q668687", "ref": "6546600001"}, "type": "Feature"}
{"dataset_attributes": {"@spider": "usps_collection_boxes", "spider:collection_time": "2023-09-19T08:25:58.007339"}, "geometry": {"coordinates": [-92.3780326, 37.604057], "type": "Point"}, "id": "s2aWgeX_nUWtpg__9azusD3zi3I=", "properties": {"@spider": "usps_collection_boxes", "addr:city": "FALCON", "addr:country": "US", "addr:full": "18906 VINTAGE DR", "addr:postcode": "65470", "addr:state": "MO", "amenity": "post_box", "brand": "United States Postal Service", "brand:wikidata": "Q668687", "collection_times": "Mo-Sa 11:45", "name": "USPS COLLECTION BOX - BLUE BOX", "nsi_id": "unitedstatespostalservice-a77078", "operator": "United States Postal Service", "operator:short": "USPS", "operator:type": "public", "operator:wikidata": "Q668687", "ref": "6547000000"}, "type": "Feature"}
{"dataset_attributes": {"@spider": "usps_collection_boxes", "spider:collection_time": "2023-09-19T08:25:58.007339"}, "geometry": {"coordinates": [-92.378265, 37.603294], "type": "Point"}, "id": "Hqhp9dx59MjGGMeTsW1I8wQI76U=", "properties": {"@spider": "usps_collection_boxes", "addr:city": "FALCON", "addr:country": "US", "addr:full": "18906 VINTAGE DR", "addr:postcode": "65470", "addr:state": "MO", "amenity": "post_box", "brand": "United States Postal Service", "brand:wikidata": "Q668687", "collection_times": "Mo-Sa 12:00", "name": "USPS COLLECTION BOX - PO LOBBY", "nsi_id": "unitedstatespostalservice-a77078", "operator": "United States Postal Service", "operator:short": "USPS", "operator:type": "public", "operator:wikidata": "Q668687", "ref": "6547000001"}, "type": "Feature"}
{"dataset_attributes": {"@spider": "usps_collection_boxes", "spider:collection_time": "2023-09-19T08:25:58.007339"}, "geometry": {"coordinates": [-92.378249331, 37.603989534], "type": "Point"}, "id": "nwTofOgS1cMjns25xmkc87I_CO4=", "properties": {"@spider": "usps_collection_boxes", "addr:city": "FALCON", "addr:country": "US", "addr:full": "18906 VINTAGE DR", "addr:postcode": "65470", "addr:state": "MO", "amenity": "post_box", "brand": "United States Postal Service", "brand:wikidata": "Q668687", "collection_times": "Mo-Sa 12:00", "name": "USPS COLLECTION BOX - PO LOBBY", "nsi_id": "unitedstatespostalservice-a77078", "operator": "United States Postal Service", "operator:short": "USPS", "operator:type": "public", "operator:wikidata": "Q668687", "ref": "6547000002"}, "type": "Feature"}
{"dataset_attributes": {"@spider": "usps_collection_boxes", "spider:collection_time": "2023-09-19T08:25:58.007339"}, "geometry": {"coordinates": [-92.113136, 37.746127], "type": "Point"}, "id": "8UYD3JjOYRDP31Cc5VlxfesIV30=", "properties": {"@spider": "usps_collection_boxes", "addr:city": "FT LEONARD WD", "addr:country": "US", "addr:full": "233 ILLINOIS AVE", "addr:postcode": "65473", "addr:state": "MO", "amenity": "post_box", "brand": "United States Postal Service", "brand:wikidata": "Q668687", "collection_times": "Mo-Sa 14:00", "name": "USPS COLLECTION BOX - BLUE BOX", "note": "ON 12/24 AND 12/31, THIS BOX MAY BE COLLECTED AS EARLY AS 12 NOON.", "nsi_id": "unitedstatespostalservice-a77078", "operator": "United States Postal Service", "operator:short": "USPS", "operator:type": "public", "operator:wikidata": "Q668687", "ref": "6547300001"}, "type": "Feature"}
{"dataset_attributes": {"@spider": "usps_collection_boxes", "spider:collection_time": "2023-09-19T08:25:58.007339"}, "geometry": {"coordinates": [-92.113136, 37.746127], "type": "Point"}, "id": "5r4uZAxZNaDE0mP__7Zwsr2a0Wk=", "properties": {"@spider": "usps_collection_boxes", "addr:city": "FT LEONARD WD", "addr:country": "US", "addr:full": "233 ILLINOIS AVE", "addr:postcode": "65473", "addr:state": "MO", "amenity": "post_box", "brand": "United States Postal Service", "brand:wikidata": "Q668687", "collection_times": "Mo-Sa 14:00", "name": "USPS COLLECTION BOX - PO LOBBY", "note": "ON 12/24 AND 12/31, THIS BOX MAY BE COLLECTED AS EARLY AS 12 NOON.", "nsi_id": "unitedstatespostalservice-a77078", "operator": "United States Postal Service", "operator:short": "USPS", "operator:type": "public", "operator:wikidata": "Q668687", "ref": "6547300002"}, "type": "Feature"}
{"dataset_attributes": {"@spider": "usps_collection_boxes", "spider:collection_time": "2023-09-19T08:25:58.007339"}, "geometry": {"coordinates": [-92.113136, 37.746127], "type": "Point"}, "id": "GRYVDFclgH7GvttKgEr5p-qIzeM=", "properties": {"@spider": "usps_collection_boxes", "addr:city": "FT LEONARD WD", "addr:country": "US", "addr:full": "233 ILLINOIS AVE", "addr:postcode": "65473", "addr:state": "MO", "amenity": "post_box", "brand": "United States Postal Service", "brand:wikidata": "Q668687", "collection_times": "Mo-Sa 14:00", "name": "USPS COLLECTION BOX - PO LOBBY", "note": "ON 12/24 AND 12/31, THIS BOX MAY BE COLLECTED AS EARLY AS 12 NOON.", "nsi_id": "unitedstatespostalservice-a77078", "operator": "United States Postal Service", "operator:short": "USPS", "operator:type": "public", "operator:wikidata": "Q668687", "ref": "6547300003"}, "type": "Feature"}
{"dataset_attributes": {"@spider": "usps_collection_boxes", "spider:collection_time": "2023-09-19T08:25:58.007339"}, "geometry": {"coordinates": [-92.1066058, 37.765147], "type": "Point"}, "id": "U7woTw1h5l-F0r6NoBtPjnvFY9o=", "properties": {"@spider": "usps_collection_boxes", "addr:city": "FT LEONARD WD", "addr:country": "US", "addr:full": "2100 OKLAHOMA AVE", "addr:postcode": "65473", "addr:state": "MO", "amenity": "post_box", "brand": "United States Postal Service", "brand:wikidata": "Q668687", "collection_times": "Mo-Sa 12:00", "name": "USPS COLLECTION BOX - BLUE BOX", "nsi_id": "unitedstatespostalservice-a77078", "operator": "United States Postal Service", "operator:short": "USPS", "operator:type": "public", "operator:wikidata": "Q668687", "ref": "6547300005"}, "type": "Feature"}
{"dataset_attributes": {"@spider": "usps_collection_boxes", "spider:collection_time": "2023-09-19T08:25:58.007339"}, "geometry": {"coordinates": [-92.1151799, 37.771146], "type": "Point"}, "id": "kGi9QApANvB4KfZEbQjlyO0J4fk=", "properties": {"@spider": "usps_collection_boxes", "addr:city": "FT LEONARD WD", "addr:country": "US", "addr:full": "3200 MSCOE LOOP", "addr:postcode": "65473", "addr:state": "MO", "amenity": "post_box", "brand": "United States Postal Service", "brand:wikidata": "Q668687", "collection_times": "Mo-Sa 12:00", "name": "USPS COLLECTION BOX - BLUE BOX", "nsi_id": "unitedstatespostalservice-a77078", "operator": "United States Postal Service", "operator:short": "USPS", "operator:type": "public", "operator:wikidata": "Q668687", "ref": "6547300007"}, "type": "Feature"}
{"dataset_attributes": {"@spider": "usps_collection_boxes", "spider:collection_time": "2023-09-19T08:25:58.007339"}, "geometry": {"coordinates": [-92.0927517, 37.744667], "type": "Point"}, "id": "I1Ju5QiKNC9fzLrSCRgZhSe7-z4=", "properties": {"@spider": "usps_collection_boxes", "addr:city": "FT LEONARD WD", "addr:country": "US", "addr:full": "4110 PINEY HILLS DR", "addr:postcode": "65473", "addr:state": "MO", "amenity": "post_box", "brand": "United States Postal Service", "brand:wikidata": "Q668687", "collection_times": "Mo-Sa 11:00", "name": "USPS COLLECTION BOX - BLUE BOX", "nsi_id": "unitedstatespostalservice-a77078", "operator": "United States Postal Service", "operator:short": "USPS", "operator:type": "public", "operator:wikidata": "Q668687", "ref": "6547300008"}, "type": "Feature"}
{"dataset_attributes": {"@spider": "usps_collection_boxes", "spider:collection_time": "2023-09-19T08:25:58.007339"}, "geometry": {"coordinates": [-92.1158158, 37.758641], "type": "Point"}, "id": "7l_qIEGEQw41WhV4DfNRFk3DYbg=", "properties": {"@spider": "usps_collection_boxes", "addr:city": "FT LEONARD WD", "addr:country": "US", "addr:full": "12994 12TH ST", "addr:postcode": "65473", "addr:state": "MO", "amenity": "post_box", "brand": "United States Postal Service", "brand:wikidata": "Q668687", "collection_times": "Mo-Sa 11:00", "name": "USPS COLLECTION BOX - BLUE BOX", "nsi_id": "unitedstatespostalservice-a77078", "operator": "United States Postal Service", "operator:short": "USPS", "operator:type": "public", "operator:wikidata": "Q668687", "ref": "6547300010"}, "type": "Feature"}
{"dataset_attributes": {"@spider": "usps_collection_boxes", "spider:collection_time": "2023-09-19T08:25:58.007339"}, "geometry": {"coordinates": [-92.1123631, 37.761292], "type": "Point"}, "id": "KDHo7pH4NNFAl44Dy3AaOd6hJIE=", "properties": {"@spider": "usps_collection_boxes", "addr:city": "FT LEONARD WD", "addr:country": "US", "addr:full": "5107 NEBRASKA AVE", "addr:postcode": "65473", "addr:state": "MO", "amenity": "post_box", "brand": "United States Postal Service", "brand:wikidata": "Q668687", "collection_times": "Mo-Sa 12:00", "name": "USPS COLLECTION BOX - BLUE BOX", "nsi_id": "unitedstatespostalservice-a77078", "operator": "United States Postal Service", "operator:short": "USPS", "operator:type": "public", "operator:wikidata": "Q668687", "ref": "6547300011"}, "type": "Feature"}
{"dataset_attributes": {"@spider": "usps_collection_boxes", "spider:collection_time": "2023-09-19T08:25:58.007339"}, "geometry": {"coordinates": [-91.664199, 37.263366], "type": "Point"}, "id": "c5nzpxJZ5WmAqXvYseNMI1bwZrw=", "properties": {"@spider": "usps_collection_boxes", "addr:city": "HARTSHORN", "addr:country": "US", "addr:full": "6041 HIGHWAY K", "addr:postcode": "65479", "addr:state": "MO", "amenity": "post_box", "brand": "United States Postal Service", "brand:wikidata": "Q668687", "collection_times": "Mo-Fr 09:15; Sa 10:15", "name": "USPS COLLECTION BOX - BLUE BOX", "nsi_id": "unitedstatespostalservice-a77078", "operator": "United States Postal Service", "operator:short": "USPS", "operator:type": "public", "operator:wikidata": "Q668687", "ref": "6547900000"}, "type": "Feature"}
{"dataset_attributes": {"@spider": "usps_collection_boxes", "spider:collection_time": "2023-09-19T08:25:58.007339"}, "geometry": {"coordinates": [-91.665765, 37.262507], "type": "Point"}, "id": "MWoFDvyyGFIA8WGYor9iZeJ7MNw=", "properties": {"@spider": "usps_collection_boxes", "addr:city": "HARTSHORN", "addr:country": "US", "addr:full": "6041 HIGHWAY K", "addr:postcode": "65479", "addr:state": "MO", "amenity": "post_box", "brand": "United States Postal Service", "brand:wikidata": "Q668687", "collection_times": "Mo-Fr 09:15; Sa 10:15", "name": "USPS COLLECTION BOX - PO LOBBY", "nsi_id": "unitedstatespostalservice-a77078", "operator": "United States Postal Service", "operator:short": "USPS", "operator:type": "public", "operator:wikidata": "Q668687", "ref": "6547900001"}, "type": "Feature"}
{"dataset_attributes": {"@spider": "usps_collection_boxes", "spider:collection_time": "2023-09-19T08:25:58.007339"}, "geometry": {"coordinates": [-91.957255, 37.327305], "type": "Point"}, "id": "IRpsp_qpvqzxJbV-EpPpxlyxZtU=", "properties": {"@spider": "usps_collection_boxes", "addr:city": "HOUSTON", "addr:country": "US", "addr:full": "203 N 1ST ST", "addr:postcode": "65483", "addr:state": "MO", "amenity": "post_box", "brand": "United States Postal Service", "brand:wikidata": "Q668687", "collection_times": "Mo-Sa 13:30", "name": "USPS COLLECTION BOX - BLUE BOX", "note": "ON 12/24 AND 12/31, THIS BOX MAY BE COLLECTED AS EARLY AS 12 NOON.", "nsi_id": "unitedstatespostalservice-a77078", "operator": "United States Postal Service", "operator:short": "USPS", "operator:type": "public", "operator:wikidata": "Q668687", "ref": "6548300002"}, "type": "Feature"}
{"dataset_attributes": {"@spider": "usps_collection_boxes", "spider:collection_time": "2023-09-19T08:25:58.007339"}, "geometry": {"coordinates": [-91.957227, 37.327218], "type": "Point"}, "id": "uyRGChsEabGguC0WtSRgv76giug=", "properties": {"@spider": "usps_collection_boxes", "addr:city": "HOUSTON", "addr:country": "US", "addr:full": "203 N 1ST ST", "addr:postcode": "65483", "addr:state": "MO", "amenity": "post_box", "brand": "United States Postal Service", "brand:wikidata": "Q668687", "collection_times": "Mo-Sa 13:30", "name": "USPS COLLECTION BOX - BLUE BOX", "note": "ON 12/24 AND 12/31, THIS BOX MAY BE COLLECTED AS EARLY AS 12 NOON.", "nsi_id": "unitedstatespostalservice-a77078", "operator": "United States Postal Service", "operator:short": "USPS", "operator:type": "public", "operator:wikidata": "Q668687", "ref": "6548300003"}, "type": "Feature"}
{"dataset_attributes": {"@spider": "usps_collection_boxes", "spider:collection_time": "2023-09-19T08:25:58.007339"}, "geometry": {"coordinates": [-91.957227, 37.327218], "type": "Point"}, "id": "6G2pSwTbO1fuJVUxaqaIhsw-HMI=", "properties": {"@spider": "usps_collection_boxes", "addr:city": "HOUSTON", "addr:country": "US", "addr:full": "203 N 1ST ST", "addr:postcode": "65483", "addr:state": "MO", "amenity": "post_box", "brand": "United States Postal Service", "brand:wikidata": "Q668687", "collection_times": "Mo-Fr 13:30; Sa 11:30", "name": "USPS COLLECTION BOX - PO LOBBY", "note": "ON 12/24 AND 12/31, THIS BOX MAY BE COLLECTED AS EARLY AS 12 NOON.", "nsi_id": "unitedstatespostalservice-a77078", "operator": "United States Postal Service", "operator:short": "USPS", "operator:type": "public", "operator:wikidata": "Q668687", "ref": "6548300004"}, "type": "Feature"}
{"dataset_attributes": {"@spider": "usps_collection_boxes", "spider:collection_time": "2023-09-19T08:25:58.007339"}, "geometry": {"coordinates": [-91.957227, 37.327218], "type": "Point"}, "id": "NW0C3L_IhqRd5A33ouFUs24hZA8=", "properties": {"@spider": "usps_collection_boxes", "addr:city": "HOUSTON", "addr:country": "US", "addr:full": "203 N 1ST ST", "addr:postcode": "65483", "addr:state": "MO", "amenity": "post_box", "brand": "United States Postal Service", "brand:wikidata": "Q668687", "collection_times": "Mo-Fr 13:30; Sa 11:30", "name": "USPS COLLECTION BOX - PO LOBBY", "note": "ON 12/24 AND 12/31, THIS BOX MAY BE COLLECTED AS EARLY AS 12 NOON.", "nsi_id": "unitedstatespostalservice-a77078", "operator": "United States Postal Service", "operator:short": "USPS", "operator:type": "public", "operator:wikidata": "Q668687", "ref": "6548300005"}, "type": "Feature"}
{"dataset_attributes": {"@spider": "usps_collection_boxes", "spider:collection_time": "2023-09-19T08:25:58.007339"}, "geometry": {"coordinates": [-91.9621441, 37.314024], "type": "Point"}, "id": "L1uVcRbKYi6rid6W4PZ6kKZle0w=", "properties": {"@spider": "usps_collection_boxes", "addr:city": "HOUSTON", "addr:country": "US", "addr:full": "1433 S SAM HOUSTON BLVD", "addr:postcode": "65483", "addr:state": "MO", "amenity": "post_box", "brand": "United States Postal Service", "brand:wikidata": "Q668687", "collection_times": "Mo-Sa 09:30", "name": "USPS COLLECTION BOX - BLUE BOX", "nsi_id": "unitedstatespostalservice-a77078", "operator": "United States Postal Service", "operator:short": "USPS", "operator:type": "public", "operator:wikidata": "Q668687", "ref": "6548300006"}, "type": "Feature"}
{"dataset_attributes": {"@spider": "usps_collection_boxes", "spider:collection_time": "2023-09-19T08:25:58.007339"}, "geometry": {"coordinates": [-91.957307365, 37.327239517], "type": "Point"}, "id": "-BsINwKl8kx_NGnv8ak5qZHl_Yk=", "properties": {"@spider": "usps_collection_boxes", "addr:city": "HOUSTON", "addr:country": "US", "addr:full": "203 N 1ST ST", "addr:postcode": "65483", "addr:state": "MO", "amenity": "post_box", "brand": "United States Postal Service", "brand:wikidata": "Q668687", "collection_times": "Mo-Fr 16:30; Sa 11:30", "name": "USPS COLLECTION BOX - PO LOBBY", "note": "ON 12/24 AND 12/31, THIS BOX MAY BE COLLECTED AS EARLY AS 12 NOON.", "nsi_id": "unitedstatespostalservice-a77078", "operator": "United States Postal Service", "operator:short": "USPS", "operator:type": "public", "operator:wikidata": "Q668687", "ref": "6548300008"}, "type": "Feature"}
{"dataset_attributes": {"@spider": "usps_collection_boxes", "spider:collection_time": "2023-09-19T08:25:58.007339"}, "geometry": {"coordinates": [-92.20393, 37.338003], "type": "Point"}, "id": "m_r7LI7_XnjqCPWkzLvvJpI1Kt4=", "properties": {"@spider": "usps_collection_boxes", "addr:city": "HUGGINS", "addr:country": "US", "addr:full": "7394 HIGHWAY M", "addr:postcode": "65484", "addr:state": "MO", "amenity": "post_box", "brand": "United States Postal Service", "brand:wikidata": "Q668687", "collection_times": "Mo-Sa 11:45", "name": "USPS COLLECTION BOX - PO LOBBY", "nsi_id": "unitedstatespostalservice-a77078", "operator": "United States Postal Service", "operator:short": "USPS", "operator:type": "public", "operator:wikidata": "Q668687", "ref": "6548400000"}, "type": "Feature"}
{"dataset_attributes": {"@spider": "usps_collection_boxes", "spider:collection_time": "2023-09-19T08:25:58.007339"}, "geometry": {"coordinates": [-92.203966, 37.337942], "type": "Point"}, "id": "8zO995ClQ5bLC6dAnxvxkItJVcc=", "properties": {"@spider": "usps_collection_boxes", "addr:city": "HUGGINS", "addr:country": "US", "addr:full": "7394 HIGHWAY M", "addr:postcode": "65484", "addr:state": "MO", "amenity": "post_box", "brand": "United States Postal Service", "brand:wikidata": "Q668687", "collection_times": "Mo-Sa 11:45", "name": "USPS COLLECTION BOX - BLUE BOX", "nsi_id": "unitedstatespostalservice-a77078", "operator": "United States Postal Service", "operator:short": "USPS", "operator:type": "public", "operator:wikidata": "Q668687", "ref": "6548400001"}, "type": "Feature"}
{"dataset_attributes": {"@spider": "usps_collection_boxes", "spider:collection_time": "2023-09-19T08:25:58.007339"}, "geometry": {"coordinates": [-92.293483, 38.090995], "type": "Point"}, "id": "9VVuUFzzuWlE3ZMGRqx0-VsBgu8=", "properties": {"@spider": "usps_collection_boxes", "addr:city": "IBERIA", "addr:country": "US", "addr:full": "836 HIGHWAY 42", "addr:postcode": "65486", "addr:state": "MO", "amenity": "post_box", "brand": "United States Postal Service", "brand:wikidata": "Q668687", "collection_times": "Mo-Fr 13:30; Sa 10:00", "name": "USPS COLLECTION BOX - BLUE BOX", "note": "ON 12/24 AND 12/31, THIS BOX MAY BE COLLECTED AS EARLY AS 12 NOON.", "nsi_id": "unitedstatespostalservice-a77078", "operator": "United States Postal Service", "operator:short": "USPS", "operator:type": "public", "operator:wikidata": "Q668687", "ref": "6548600000"}, "type": "Feature"}
{"dataset_attributes": {"@spider": "usps_collection_boxes", "spider:collection_time": "2023-09-19T08:25:58.007339"}, "geometry": {"coordinates": [-92.293494, 38.090943], "type": "Point"}, "id": "wfOZPk-kZxNhEm_7QtaaIEWEtT0=", "properties": {"@spider": "usps_collection_boxes", "addr:city": "IBERIA", "addr:country": "US", "addr:full": "836 HIGHWAY 42", "addr:postcode": "65486", "addr:state": "MO", "amenity": "post_box", "brand": "United States Postal Service", "brand:wikidata": "Q668687", "collection_times": "Mo-Fr 13:30; Sa 10:00", "name": "USPS COLLECTION BOX - PO LOBBY", "note": "ON 12/24 AND 12/31, THIS BOX MAY BE COLLECTED AS EARLY AS 12 NOON.", "nsi_id": "unitedstatespostalservice-a77078", "operator": "United States Postal Service", "operator:short": "USPS", "operator:type": "public", "operator:wikidata": "Q668687", "ref": "6548600001"}, "type": "Feature"}
