{"dataset_attributes": {"@spider": "usps_collection_boxes", "spider:collection_time": "2023-10-04T08:25:43.293951"}, "geometry": {"coordinates": [-91.573315, 37.476532], "type": "Point"}, "id": "8Cmb7E7mb5XhbI5-WaTVZ-0ZY3w=", "properties": {"@spider": "usps_collection_boxes", "addr:city": "JADWIN", "addr:country": "US", "addr:full": "9326 HIGHWAY K", "addr:postcode": "65501", "addr:state": "MO", "amenity": "post_box", "brand": "United States Postal Service", "brand:wikidata": "Q668687", "collection_times": "Mo-Sa 12:00", "name": "USPS COLLECTION BOX - BLUE BOX", "nsi_id": "unitedstatespostalservice-a77078", "operator": "United States Postal Service", "operator:short": "USPS", "operator:type": "public", "operator:wikidata": "Q668687", "ref": "6550100000"}, "type": "Feature"}
{"dataset_attributes": {"@spider": "usps_collection_boxes", "spider:collection_time": "2023-10-04T08:25:43.293951"}, "geometry": {"coordinates": [-91.573349, 37.476473], "type": "Point"}, "id": "Ij6YlbsnrR7R7NpZ6nCOsm0EwY8=", "properties": {"@spider": "usps_collection_boxes", "addr:city": "JADWIN", "addr:country": "US", "addr:full": "9326 HIGHWAY K", "addr:postcode": "65501", "addr:state": "MO", "amenity": "post_box", "brand": "United States Postal Service", "brand:wikidata": "Q668687", "collection_times": "Mo-Sa 12:00", "name": "USPS COLLECTION BOX - PO LOBBY", "nsi_id": "unitedstatespostalservice-a77078", "operator": "United States Postal Service", "operator:short": "USPS", "operator:type": "public", "operator:wikidata": "Q668687", "ref": "6550100001"}, "type": "Feature"}
{"dataset_attributes": {"@spider": "usps_collection_boxes", "spider:collection_time": "2023-10-04T08:25:43.293951"}, "geometry": {"coordinates": [-91.57329449, 37.476504597], "type": "Point"}, "id": "3aTDGcWhFpvLCsDYIiuA2F8tmYE=", "properties": {"@spider": "usps_collection_boxes", "addr:city": "JADWIN", "addr:country": "US", "addr:full": "9326 HIGHWAY K", "addr:postcode": "65501", "addr:state": "MO", "amenity": "post_box", "brand": "United States Postal Service", "brand:wikidata": "Q668687", "collection_times": "Mo-Sa 13:00", "name": "USPS COLLECTION BOX - PO LOBBY", "note": "ON 12/24 AND 12/31, THIS BOX MAY BE COLLECTED AS EARLY AS 12 NOON.", "nsi_id": "unitedstatespostalservice-a77078", "operator": "United States Postal Service", "operator:short": "USPS", "operator:type": "public", "operator:wikidata": "Q668687", "ref": "6550100002"}, "type": "Feature"}
{"dataset_attributes": {"@spider": "usps_collection_boxes", "spider:collection_time": "2023-10-04T08:25:43.293951"}, "geometry": {"coordinates": [-91.677509223, 37.7828501195], "type": "Point"}, "id": "x7v5OqnCp4p6feb97pT8tZa7iho=", "properties": {"@spider": "usps_collection_boxes", "addr:city": "LAKE SPRING", "addr:country": "US", "addr:full": "100 STATE ROUTE 72", "addr:postcode": "65532", "addr:state": "MO", "amenity": "post_box", "brand": "United States Postal Service", "brand:wikidata": "Q668687", "collection_times": "Mo-Sa 10:00", "name": "USPS COLLECTION BOX - BLUE BOX", "nsi_id": "unitedstatespostalservice-a77078", "operator": "United States Postal Service", "operator:short": "USPS", "operator:type": "public", "operator:wikidata": "Q668687", "ref": "6553200000"}, "type": "Feature"}
{"dataset_attributes": {"@spider": "usps_collection_boxes", "spider:collection_time": "2023-10-04T08:25:43.293951"}, "geometry": {"coordinates": [-91.679552128, 37.7881110047], "type": "Point"}, "id": "g-VTK2-2QwGl8AZr-Me8HBG_7jk=", "properties": {"@spider": "usps_collection_boxes", "addr:city": "LAKE SPRING", "addr:country": "US", "addr:full": "100 STATE ROUTE 72", "addr:postcode": "65532", "addr:state": "MO", "amenity": "post_box", "brand": "United States Postal Service", "brand:wikidata": "Q668687", "collection_times": "Mo-Sa 10:00", "name": "USPS COLLECTION BOX - PO LOBBY", "nsi_id": "unitedstatespostalservice-a77078", "operator": "United States Postal Service", "operator:short": "USPS", "operator:type": "public", "operator:wikidata": "Q668687", "ref": "6553200001"}, "type": "Feature"}
{"dataset_attributes": {"@spider": "usps_collection_boxes", "spider:collection_time": "2023-10-04T08:25:43.293951"}, "geometry": {"coordinates": [-91.677497678, 37.782839306], "type": "Point"}, "id": "TqMbpIKMODr8xpv1PRDyayW3ULE=", "properties": {"@spider": "usps_collection_boxes", "addr:city": "LAKE SPRING", "addr:country": "US", "addr:full": "100 STATE ROUTE 72", "addr:postcode": "65532", "addr:state": "MO", "amenity": "post_box", "brand": "United States Postal Service", "brand:wikidata": "Q668687", "collection_times": "Mo-Sa 10:00", "name": "USPS COLLECTION BOX - PO LOBBY", "nsi_id": "unitedstatespostalservice-a77078", "operator": "United States Postal Service", "operator:short": "USPS", "operator:type": "public", "operator:wikidata": "Q668687", "ref": "6553200003"}, "type": "Feature"}
{"dataset_attributes": {"@spider": "usps_collection_boxes", "spider:collection_time": "2023-10-04T08:25:43.293951"}, "geometry": {"coordinates": [-92.3135158, 37.754198], "type": "Point"}, "id": "_G9BMNHLgQV9i7DHkR4wqJfXW6U=", "properties": {"@spider": "usps_collection_boxes", "addr:city": "LAQUEY", "addr:country": "US", "addr:full": "28125 HIGHWAY AA", "addr:postcode": "65534", "addr:state": "MO", "amenity": "post_box", "brand": "United States Postal Service", "brand:wikidata": "Q668687", "collection_times": "Mo-Sa 12:30", "name": "USPS COLLECTION BOX - BLUE BOX", "note": "ON 12/24 AND 12/31, THIS BOX MAY BE COLLECTED AS EARLY AS 12 NOON.", "nsi_id": "unitedstatespostalservice-a77078", "operator": "United States Postal Service", "operator:short": "USPS", "operator:type": "public", "operator:wikidata": "Q668687", "ref": "6553400000"}, "type": "Feature"}
{"dataset_attributes": {"@spider": "usps_collection_boxes", "spider:collection_time": "2023-10-04T08:25:43.293951"}, "geometry": {"coordinates": [-92.312905, 37.753445], "type": "Point"}, "id": "Yvyws5sXUdVrlfmcadvSAUZGbzE=", "properties": {"@spider": "usps_collection_boxes", "addr:city": "LAQUEY", "addr:country": "US", "addr:full": "28125 HIGHWAY AA", "addr:postcode": "65534", "addr:state": "MO", "amenity": "post_box", "brand": "United States Postal Service", "brand:wikidata": "Q668687", "collection_times": "Mo-Fr 12:30; Sa 11:30", "name": "USPS COLLECTION BOX - PO LOBBY", "note": "ON 12/24 AND 12/31, THIS BOX MAY BE COLLECTED AS EARLY AS 12 NOON.", "nsi_id": "unitedstatespostalservice-a77078", "operator": "United States Postal Service", "operator:short": "USPS", "operator:type": "public", "operator:wikidata": "Q668687", "ref": "6553400001"}, "type": "Feature"}
{"dataset_attributes": {"@spider": "usps_collection_boxes", "spider:collection_time": "2023-10-04T08:25:43.293951"}, "geometry": {"coordinates": [-92.313027374, 37.7541349], "type": "Point"}, "id": "pSOemPhcbkyotvXKdE7ETzL3tT8=", "properties": {"@spider": "usps_collection_boxes", "addr:city": "LAQUEY", "addr:country": "US", "addr:full": "28125 HIGHWAY AA", "addr:postcode": "65534", "addr:state": "MO", "amenity": "post_box", "brand": "United States Postal Service", "brand:wikidata": "Q668687", "collection_times": "Mo-Fr 14:00; Sa 12:00", "name": "USPS COLLECTION BOX - PO LOBBY", "note": "ON 12/24 AND 12/31, THIS BOX MAY BE COLLECTED AS EARLY AS 12 NOON.", "nsi_id": "unitedstatespostalservice-a77078", "operator": "United States Postal Service", "operator:short": "USPS", "operator:type": "public", "operator:wikidata": "Q668687", "ref": "6553400002"}, "type": "Feature"}
{"dataset_attributes": {"@spider": "usps_collection_boxes", "spider:collection_time": "2023-10-04T08:25:43.293951"}, "geometry": {"coordinates": [-91.297542, 38.092492], "type": "Point"}, "id": "lIozDfNNREFtifdjCoXRQAr3DMo=", "properties": {"@spider": "usps_collection_boxes", "addr:city": "LEASBURG", "addr:country": "US", "addr:full": "2302 HIGHWAY H", "addr:postcode": "65535", "addr:state": "MO", "amenity": "post_box", "brand": "United States Postal Service", "brand:wikidata": "Q668687", "collection_times": "Mo-Fr 13:00; Sa 09:45", "name": "USPS COLLECTION BOX - BLUE BOX", "note": "ON 12/24 AND 12/31, THIS BOX MAY BE COLLECTED AS EARLY AS 12 NOON.", "nsi_id": "unitedstatespostalservice-a77078", "operator": "United States Postal Service", "operator:short": "USPS", "operator:type": "public", "operator:wikidata": "Q668687", "ref": "6553500000"}, "type": "Feature"}
{"dataset_attributes": {"@spider": "usps_collection_boxes", "spider:collection_time": "2023-10-04T08:25:43.293951"}, "geometry": {"coordinates": [-91.2976, 38.09257], "type": "Point"}, "id": "AOY-66mz50-YbOLkc4911j0Wk6Q=", "properties": {"@spider": "usps_collection_boxes", "addr:city": "LEASBURG", "addr:country": "US", "addr:full": "2302 HIGHWAY H", "addr:postcode": "65535", "addr:state": "MO", "amenity": "post_box", "brand": "United States Postal Service", "brand:wikidata": "Q668687", "collection_times": "Mo-Fr 13:00; Sa 09:45", "name": "USPS COLLECTION BOX - PO LOBBY", "note": "ON 12/24 AND 12/31, THIS BOX MAY BE COLLECTED AS EARLY AS 12 NOON.", "nsi_id": "unitedstatespostalservice-a77078", "operator": "United States Postal Service", "operator:short": "USPS", "operator:type": "public", "operator:wikidata": "Q668687", "ref": "6553500001"}, "type": "Feature"}
{"dataset_attributes": {"@spider": "usps_collection_boxes", "spider:collection_time": "2023-10-04T08:25:43.293951"}, "geometry": {"coordinates": [-91.297646141, 38.092467241], "type": "Point"}, "id": "2EGIlXSsb791sR-ufMnn5BqNG-w=", "properties": {"@spider": "usps_collection_boxes", "addr:city": "LEASBURG", "addr:country": "US", "addr:full": "2302 HIGHWAY H", "addr:postcode": "65535", "addr:state": "MO", "amenity": "post_box", "brand": "United States Postal Service", "brand:wikidata": "Q668687", "collection_times": "Mo-Fr 15:00; Sa 10:00", "name": "USPS COLLECTION BOX - PO LOBBY", "note": "ON 12/24 AND 12/31, THIS BOX MAY BE COLLECTED AS EARLY AS 12 NOON.", "nsi_id": "unitedstatespostalservice-a77078", "operator": "United States Postal Service", "operator:short": "USPS", "operator:type": "public", "operator:wikidata": "Q668687", "ref": "6553500002"}, "type": "Feature"}
{"dataset_attributes": {"@spider": "usps_collection_boxes", "spider:collection_time": "2023-10-04T08:25:43.293951"}, "geometry": {"coordinates": [-92.663575, 37.680751], "type": "Point"}, "id": "I5MgaB-XF8n4gTusuDoB60s0juM=", "properties": {"@spider": "usps_collection_boxes", "addr:city": "LEBANON", "addr:country": "US", "addr:full": "121 E COMMERCIAL ST", "addr:postcode": "65536", "addr:state": "MO", "amenity": "post_box", "brand": "United States Postal Service", "brand:wikidata": "Q668687", "collection_times": "Mo-Fr 14:30; Sa 13:00", "name": "USPS COLLECTION BOX - PO LOBBY", "note": "ON 12/24 AND 12/31, THIS BOX MAY BE COLLECTED AS EARLY AS 12 NOON.", "nsi_id": "unitedstatespostalservice-a77078", "operator": "United States Postal Service", "operator:short": "USPS", "operator:type": "public", "operator:wikidata": "Q668687", "ref": "6553600000"}, "type": "Feature"}
{"dataset_attributes": {"@spider": "usps_collection_boxes", "spider:collection_time": "2023-10-04T08:25:43.293951"}, "geometry": {"coordinates": [-92.663598, 37.680694], "type": "Point"}, "id": "i2nFQH4aiDTQVZPhbHey7YeIKhQ=", "properties": {"@spider": "usps_collection_boxes", "addr:city": "LEBANON", "addr:country": "US", "addr:full": "121 E COMMERCIAL ST", "addr:postcode": "65536", "addr:state": "MO", "amenity": "post_box", "brand": "United States Postal Service", "brand:wikidata": "Q668687", "collection_times": "Mo-Fr 14:30; Sa 13:00", "name": "USPS COLLECTION BOX - PO LOBBY", "note": "ON 12/24 AND 12/31, THIS BOX MAY BE COLLECTED AS EARLY AS 12 NOON.", "nsi_id": "unitedstatespostalservice-a77078", "operator": "United States Postal Service", "operator:short": "USPS", "operator:type": "public", "operator:wikidata": "Q668687", "ref": "6553600001"}, "type": "Feature"}
{"dataset_attributes": {"@spider": "usps_collection_boxes", "spider:collection_time": "2023-10-04T08:25:43.293951"}, "geometry": {"coordinates": [-92.663598, 37.680694], "type": "Point"}, "id": "grs2FRe-UCvOh-l5pDptZlyGzyc=", "properties": {"@spider": "usps_collection_boxes", "addr:city": "LEBANON", "addr:country": "US", "addr:full": "121 E COMMERCIAL ST", "addr:postcode": "65536", "addr:state": "MO", "amenity": "post_box", "brand": "United States Postal Service", "brand:wikidata": "Q668687", "collection_times": "Mo-Fr 14:30; Sa 13:00", "name": "USPS COLLECTION BOX - BLUE BOX", "note": "ON 12/24 AND 12/31, THIS BOX MAY BE COLLECTED AS EARLY AS 12 NOON.", "nsi_id": "unitedstatespostalservice-a77078", "operator": "United States Postal Service", "operator:short": "USPS", "operator:type": "public", "operator:wikidata": "Q668687", "ref": "6553600002"}, "type": "Feature"}
{"dataset_attributes": {"@spider": "usps_collection_boxes", "spider:collection_time": "2023-10-04T08:25:43.293951"}, "geometry": {"coordinates": [-92.6696057947, 37.6488345896], "type": "Point"}, "id": "VL2FePEMdmVABRV6dOi9qzTz87E=", "properties": {"@spider": "usps_collection_boxes", "addr:city": "LEBANON", "addr:country": "US", "addr:full": "2031 W ELM ST", "addr:postcode": "65536", "addr:state": "MO", "amenity": "post_box", "brand": "United States Postal Service", "brand:wikidata": "Q668687", "collection_times": "Mo-Sa 13:30", "name": "USPS COLLECTION BOX - BLUE BOX", "note": "ON 12/24 AND 12/31, THIS BOX MAY BE COLLECTED AS EARLY AS 12 NOON.", "nsi_id": "unitedstatespostalservice-a77078", "operator": "United States Postal Service", "operator:short": "USPS", "operator:type": "public", "operator:wikidata": "Q668687", "ref": "6553600010"}, "type": "Feature"}
{"dataset_attributes": {"@spider": "usps_collection_boxes", "spider:collection_time": "2023-10-04T08:25:43.293951"}, "geometry": {"coordinates": [-92.6657904, 37.678763], "type": "Point"}, "id": "VyzBbSv4--PldUgtY3gL0nLGNH4=", "properties": {"@spider": "usps_collection_boxes", "addr:city": "LEBANON", "addr:country": "US", "addr:full": "224 W COMMERCIAL ST", "addr:postcode": "65536", "addr:state": "MO", "amenity": "post_box", "brand": "United States Postal Service", "brand:wikidata": "Q668687", "collection_times": "Mo-Sa 09:30", "name": "USPS COLLECTION BOX - BLUE BOX", "nsi_id": "unitedstatespostalservice-a77078", "operator": "United States Postal Service", "operator:short": "USPS", "operator:type": "public", "operator:wikidata": "Q668687", "ref": "6553600011"}, "type": "Feature"}
{"dataset_attributes": {"@spider": "usps_collection_boxes", "spider:collection_time": "2023-10-04T08:25:43.293951"}, "geometry": {"coordinates": [-92.6459539741, 37.6634979936], "type": "Point"}, "id": "SRjNTH-0pI3_jLpsHyX4H2JowNo=", "properties": {"@spider": "usps_collection_boxes", "addr:city": "LEBANON", "addr:country": "US", "addr:full": "1800 S JEFFERSON AVE", "addr:postcode": "65536", "addr:state": "MO", "amenity": "post_box", "brand": "United States Postal Service", "brand:wikidata": "Q668687", "collection_times": "Mo-Sa 13:30", "name": "USPS COLLECTION BOX - BLUE BOX", "note": "ON 12/24 AND 12/31, THIS BOX MAY BE COLLECTED AS EARLY AS 12 NOON.", "nsi_id": "unitedstatespostalservice-a77078", "operator": "United States Postal Service", "operator:short": "USPS", "operator:type": "public", "operator:wikidata": "Q668687", "ref": "6553600020"}, "type": "Feature"}
{"dataset_attributes": {"@spider": "usps_collection_boxes", "spider:collection_time": "2023-10-04T08:25:43.293951"}, "geometry": {"coordinates": [-92.6344674, 37.681662], "type": "Point"}, "id": "PK2DDPTvGJgTHdXWWwTkaiuAewk=", "properties": {"@spider": "usps_collection_boxes", "addr:city": "LEBANON", "addr:country": "US", "addr:full": "100 HOSPITAL DR", "addr:postcode": "65536", "addr:state": "MO", "amenity": "post_box", "brand": "United States Postal Service", "brand:wikidata": "Q668687", "collection_times": "Mo-Sa 13:00", "name": "USPS COLLECTION BOX - BLUE BOX", "note": "ON 12/24 AND 12/31, THIS BOX MAY BE COLLECTED AS EARLY AS 12 NOON.", "nsi_id": "unitedstatespostalservice-a77078", "operator": "United States Postal Service", "operator:short": "USPS", "operator:type": "public", "operator:wikidata": "Q668687", "ref": "6553600023"}, "type": "Feature"}
{"dataset_attributes": {"@spider": "usps_collection_boxes", "spider:collection_time": "2023-10-04T08:25:43.293951"}, "geometry": {"coordinates": [-92.6677982, 37.701127], "type": "Point"}, "id": "lO4m4zxwYjUfZrkb8BTZMj7eYv4=", "properties": {"@spider": "usps_collection_boxes", "addr:city": "LEBANON", "addr:country": "US", "addr:full": "1130 LYNN ST", "addr:postcode": "65536", "addr:state": "MO", "amenity": "post_box", "brand": "United States Postal Service", "brand:wikidata": "Q668687", "collection_times": "Mo-Sa 13:00", "name": "USPS COLLECTION BOX - BLUE BOX", "note": "ON 12/24 AND 12/31, THIS BOX MAY BE COLLECTED AS EARLY AS 12 NOON.", "nsi_id": "unitedstatespostalservice-a77078", "operator": "United States Postal Service", "operator:short": "USPS", "operator:type": "public", "operator:wikidata": "Q668687", "ref": "6553600024"}, "type": "Feature"}
{"dataset_attributes": {"@spider": "usps_collection_boxes", "spider:collection_time": "2023-10-04T08:25:43.293951"}, "geometry": {"coordinates": [-92.637013, 37.672728], "type": "Point"}, "id": "sazFACEKfbVYfQdkDoEDHzhZ2kc=", "properties": {"@spider": "usps_collection_boxes", "addr:city": "LEBANON", "addr:country": "US", "addr:full": "701 E COPELAND ST", "addr:postcode": "65536", "addr:state": "MO", "amenity": "post_box", "brand": "United States Postal Service", "brand:wikidata": "Q668687", "collection_times": "Mo-Sa 14:30", "name": "USPS COLLECTION BOX - BLUE BOX", "note": "ON 12/24 AND 12/31, THIS BOX MAY BE COLLECTED AS EARLY AS 12 NOON.", "nsi_id": "unitedstatespostalservice-a77078", "operator": "United States Postal Service", "operator:short": "USPS", "operator:type": "public", "operator:wikidata": "Q668687", "ref": "6553600025"}, "type": "Feature"}
{"dataset_attributes": {"@spider": "usps_collection_boxes", "spider:collection_time": "2023-10-04T08:25:43.293951"}, "geometry": {"coordinates": [-92.6636160393, 37.6807652481], "type": "Point"}, "id": "1zmc67n-AWDzlPCxYRWn03OuaTY=", "properties": {"@spider": "usps_collection_boxes", "addr:city": "LEBANON", "addr:country": "US", "addr:full": "121 E COMMERCIAL ST", "addr:postcode": "65536", "addr:state": "MO", "amenity": "post_box", "brand": "United States Postal Service", "brand:wikidata": "Q668687", "collection_times": "Mo-Fr 16:45; Sa 13:15", "name": "USPS COLLECTION BOX - PO LOBBY", "note": "ON 12/24 AND 12/31, THIS BOX MAY BE COLLECTED AS EARLY AS 12 NOON.", "nsi_id": "unitedstatespostalservice-a77078", "operator": "United States Postal Service", "operator:short": "USPS", "operator:type": "public", "operator:wikidata": "Q668687", "ref": "6553600028"}, "type": "Feature"}
{"dataset_attributes": {"@spider": "usps_collection_boxes", "spider:collection_time": "2023-10-04T08:25:43.293951"}, "geometry": {"coordinates": [-91.7752663, 37.949421], "type": "Point"}, "id": "5YXqCnT7ndDBGWsXtiS14R1ePC0=", "properties": {"@spider": "usps_collection_boxes", "addr:city": "LICKING", "addr:country": "US", "addr:full": "133 S MAIN ST", "addr:postcode": "65542", "addr:state": "MO", "amenity": "post_box", "brand": "United States Postal Service", "brand:wikidata": "Q668687", "collection_times": "Mo-Fr 13:00; Sa 11:00", "name": "USPS COLLECTION BOX - BLUE BOX", "note": "ON 12/24 AND 12/31, THIS BOX MAY BE COLLECTED AS EARLY AS 12 NOON.", "nsi_id": "unitedstatespostalservice-a77078", "operator": "United States Postal Service", "operator:short": "USPS", "operator:type": "public", "operator:wikidata": "Q668687", "ref": "6554200000"}, "type": "Feature"}
{"dataset_attributes": {"@spider": "usps_collection_boxes", "spider:collection_time": "2023-10-04T08:25:43.293951"}, "geometry": {"coordinates": [-91.856928, 37.498021], "type": "Point"}, "id": "vp3FXXuRaY7oSGrFkkga4n-YtC0=", "properties": {"@spider": "usps_collection_boxes", "addr:city": "LICKING", "addr:country": "US", "addr:full": "133 S MAIN ST", "addr:postcode": "65542", "addr:state": "MO", "amenity": "post_box", "brand": "United States Postal Service", "brand:wikidata": "Q668687", "collection_times": "Mo-Fr 13:00; Sa 11:00", "name": "USPS COLLECTION BOX - PO LOBBY", "note": "ON 12/24 AND 12/31, THIS BOX MAY BE COLLECTED AS EARLY AS 12 NOON.", "nsi_id": "unitedstatespostalservice-a77078", "operator": "United States Postal Service", "operator:short": "USPS", "operator:type": "public", "operator:wikidata": "Q668687", "ref": "6554200001"}, "type": "Feature"}
{"dataset_attributes": {"@spider": "usps_collection_boxes", "spider:collection_time": "2023-10-04T08:25:43.293951"}, "geometry": {"coordinates": [-91.775061, 37.9496], "type": "Point"}, "id": "Sb20Pp2pv4_1C7C_-RsWAD5j6KQ=", "properties": {"@spider": "usps_collection_boxes", "addr:city": "LICKING", "addr:country": "US", "addr:full": "133 S MAIN ST", "addr:postcode": "65542", "addr:state": "MO", "amenity": "post_box", "brand": "United States Postal Service", "brand:wikidata": "Q668687", "collection_times": "Mo-Fr 13:00; Sa 11:00", "name": "USPS COLLECTION BOX - BLUE BOX", "note": "ON 12/24 AND 12/31, THIS BOX MAY BE COLLECTED AS EARLY AS 12 NOON.", "nsi_id": "unitedstatespostalservice-a77078", "operator": "United States Postal Service", "operator:short": "USPS", "operator:type": "public", "operator:wikidata": "Q668687", "ref": "6554200002"}, "type": "Feature"}
{"dataset_attributes": {"@spider": "usps_collection_boxes", "spider:collection_time": "2023-10-04T08:25:43.293951"}, "geometry": {"coordinates": [-91.8568765969, 37.4979863965], "type": "Point"}, "id": "_vDwlbvYGX1HchFJF0x6HVi8Iv0=", "properties": {"@spider": "usps_collection_boxes", "addr:city": "LICKING", "addr:country": "US", "addr:full": "133 S MAIN ST", "addr:postcode": "65542", "addr:state": "MO", "amenity": "post_box", "brand": "United States Postal Service", "brand:wikidata": "Q668687", "collection_times": "Mo-Fr 16:00; Sa 11:00", "name": "USPS COLLECTION BOX - PO LOBBY", "note": "ON 12/24 AND 12/31, THIS BOX MAY BE COLLECTED AS EARLY AS 12 NOON.", "nsi_id": "unitedstatespostalservice-a77078", "operator": "United States Postal Service", "operator:short": "USPS", "operator:type": "public", "operator:wikidata": "Q668687", "ref": "6554200003"}, "type": "Feature"}
{"dataset_attributes": {"@spider": "usps_collection_boxes", "spider:collection_time": "2023-10-04T08:25:43.293951"}, "geometry": {"coordinates": [-91.7029241, 37.000705], "type": "Point"}, "id": "QOgzEb8SS7zrnYvyQ0EzotLdKpc=", "properties": {"@spider": "usps_collection_boxes", "addr:city": "MOUNTAIN VIEW", "addr:country": "US", "addr:full": "105 W 6TH ST", "addr:postcode": "65548", "addr:state": "MO", "amenity": "post_box", "brand": "United States Postal Service", "brand:wikidata": "Q668687", "collection_times": "Mo-Fr 12:00; Sa 11:00", "name": "USPS COLLECTION BOX - BLUE BOX", "nsi_id": "unitedstatespostalservice-a77078", "operator": "United States Postal Service", "operator:short": "USPS", "operator:type": "public", "operator:wikidata": "Q668687", "ref": "6554800001"}, "type": "Feature"}
{"dataset_attributes": {"@spider": "usps_collection_boxes", "spider:collection_time": "2023-10-04T08:25:43.293951"}, "geometry": {"coordinates": [-91.707177, 36.995746], "type": "Point"}, "id": "OCoJcSLuTGOJEZL415VrFJoBk7Q=", "properties": {"@spider": "usps_collection_boxes", "addr:city": "MOUNTAIN VIEW", "addr:country": "US", "addr:full": "110 W 2ND ST", "addr:postcode": "65548", "addr:state": "MO", "amenity": "post_box", "brand": "United States Postal Service", "brand:wikidata": "Q668687", "collection_times": "Mo-Fr 12:00; Sa 11:00", "name": "USPS COLLECTION BOX - PO LOBBY", "nsi_id": "unitedstatespostalservice-a77078", "operator": "United States Postal Service", "operator:short": "USPS", "operator:type": "public", "operator:wikidata": "Q668687", "ref": "6554800002"}, "type": "Feature"}
{"dataset_attributes": {"@spider": "usps_collection_boxes", "spider:collection_time": "2023-10-04T08:25:43.293951"}, "geometry": {"coordinates": [-91.701780002, 36.996222763], "type": "Point"}, "id": "yW9kxDKnMG7v7Uhk5eHfsBj8RIM=", "properties": {"@spider": "usps_collection_boxes", "addr:city": "MOUNTAIN VIEW", "addr:country": "US", "addr:full": "110 W 2ND ST", "addr:postcode": "65548", "addr:state": "MO", "amenity": "post_box", "brand": "United States Postal Service", "brand:wikidata": "Q668687", "collection_times": "Mo-Fr 12:00; Sa 11:00", "name": "USPS COLLECTION BOX - PO LOBBY", "nsi_id": "unitedstatespostalservice-a77078", "operator": "United States Postal Service", "operator:short": "USPS", "operator:type": "public", "operator:wikidata": "Q668687", "ref": "6554800003"}, "type": "Feature"}
{"dataset_attributes": {"@spider": "usps_collection_boxes", "spider:collection_time": "2023-10-04T08:25:43.293951"}, "geometry": {"coordinates": [-91.707177, 36.995746], "type": "Point"}, "id": "ZhpCkLlTb0yXE04TSNiRBNHZqOs=", "properties": {"@spider": "usps_collection_boxes", "addr:city": "MOUNTAIN VIEW", "addr:country": "US", "addr:full": "110 W 2ND ST", "addr:postcode": "65548", "addr:state": "MO", "amenity": "post_box", "brand": "United States Postal Service", "brand:wikidata": "Q668687", "collection_times": "Mo-Fr 12:00; Sa 11:00", "name": "USPS COLLECTION BOX - BLUE BOX", "nsi_id": "unitedstatespostalservice-a77078", "operator": "United States Postal Service", "operator:short": "USPS", "operator:type": "public", "operator:wikidata": "Q668687", "ref": "6554800004"}, "type": "Feature"}
{"dataset_attributes": {"@spider": "usps_collection_boxes", "spider:collection_time": "2023-10-04T08:25:43.293951"}, "geometry": {"coordinates": [-91.701780002, 36.996222763], "type": "Point"}, "id": "yHRpV_EM3tnYKza3bbH6O_eJshU=", "properties": {"@spider": "usps_collection_boxes", "addr:city": "MOUNTAIN VIEW", "addr:country": "US", "addr:full": "110 W 2ND ST", "addr:postcode": "65548", "addr:state": "MO", "amenity": "post_box", "brand": "United States Postal Service", "brand:wikidata": "Q668687", "collection_times": "Mo-Fr 16:00; Sa 11:30", "name": "USPS COLLECTION BOX - PO LOBBY", "note": "ON 12/24 AND 12/31, THIS BOX MAY BE COLLECTED AS EARLY AS 12 NOON.", "nsi_id": "unitedstatespostalservice-a77078", "operator": "United States Postal Service", "operator:short": "USPS", "operator:type": "public", "operator:wikidata": "Q668687", "ref": "6554800006"}, "type": "Feature"}
{"dataset_attributes": {"@spider": "usps_collection_boxes", "spider:collection_time": "2023-10-04T08:25:43.293951"}, "geometry": {"coordinates": [-91.9026824241, 37.9131676423], "type": "Point"}, "id": "vJJZn0m1FjuwG_TXLYBOkl_1gkw=", "properties": {"@spider": "usps_collection_boxes", "addr:city": "NEWBURG", "addr:country": "US", "addr:full": "71 E 1ST ST", "addr:postcode": "65550", "addr:state": "MO", "amenity": "post_box", "brand": "United States Postal Service", "brand:wikidata": "Q668687", "collection_times": "Mo-Fr 14:15; Sa 11:45", "name": "USPS COLLECTION BOX - BLUE BOX", "note": "ON 12/24 AND 12/31, THIS BOX MAY BE COLLECTED AS EARLY AS 12 NOON.", "nsi_id": "unitedstatespostalservice-a77078", "operator": "United States Postal Service", "operator:short": "USPS", "operator:type": "public", "operator:wikidata": "Q668687", "ref": "6555000000"}, "type": "Feature"}
{"dataset_attributes": {"@spider": "usps_collection_boxes", "spider:collection_time": "2023-10-04T08:25:43.293951"}, "geometry": {"coordinates": [-91.8839580062, 37.9435929926], "type": "Point"}, "id": "5zoRIUuxjHGjBZBVYCbUDBEFK2U=", "properties": {"@spider": "usps_collection_boxes", "addr:city": "NEWBURG", "addr:country": "US", "addr:full": "91 TRUMAN ST", "addr:postcode": "65550", "addr:state": "MO", "amenity": "post_box", "brand": "United States Postal Service", "brand:wikidata": "Q668687", "collection_times": "Mo-Sa 10:00", "name": "USPS COLLECTION BOX - BLUE BOX", "nsi_id": "unitedstatespostalservice-a77078", "operator": "United States Postal Service", "operator:short": "USPS", "operator:type": "public", "operator:wikidata": "Q668687", "ref": "6555000001"}, "type": "Feature"}
{"dataset_attributes": {"@spider": "usps_collection_boxes", "spider:collection_time": "2023-10-04T08:25:43.293951"}, "geometry": {"coordinates": [-91.9026824241, 37.9131676423], "type": "Point"}, "id": "dQ3FHt_IRgR2dTgNr8T1sKsuByM=", "properties": {"@spider": "usps_collection_boxes", "addr:city": "NEWBURG", "addr:country": "US", "addr:full": "71 E 1ST ST", "addr:postcode": "65550", "addr:state": "MO", "amenity": "post_box", "brand": "United States Postal Service", "brand:wikidata": "Q668687", "collection_times": "Mo-Fr 14:15; Sa 11:45", "name": "USPS COLLECTION BOX - PO LOBBY", "note": "ON 12/24 AND 12/31, THIS BOX MAY BE COLLECTED AS EARLY AS 12 NOON.", "nsi_id": "unitedstatespostalservice-a77078", "operator": "United States Postal Service", "operator:short": "USPS", "operator:type": "public", "operator:wikidata": "Q668687", "ref": "6555000002"}, "type": "Feature"}
{"dataset_attributes": {"@spider": "usps_collection_boxes", "spider:collection_time": "2023-10-04T08:25:43.293951"}, "geometry": {"coordinates": [-91.902579065, 37.913120601], "type": "Point"}, "id": "Fy-lV8p-zxmssLejEOjRoeUuvbE=", "properties": {"@spider": "usps_collection_boxes", "addr:city": "NEWBURG", "addr:country": "US", "addr:full": "71 E 1ST ST", "addr:postcode": "65550", "addr:state": "MO", "amenity": "post_box", "brand": "United States Postal Service", "brand:wikidata": "Q668687", "collection_times": "Mo-Fr 14:15; Sa 11:45", "name": "USPS COLLECTION BOX - PO LOBBY", "note": "ON 12/24 AND 12/31, THIS BOX MAY BE COLLECTED AS EARLY AS 12 NOON.", "nsi_id": "unitedstatespostalservice-a77078", "operator": "United States Postal Service", "operator:short": "USPS", "operator:type": "public", "operator:wikidata": "Q668687", "ref": "6555000003"}, "type": "Feature"}
{"dataset_attributes": {"@spider": "usps_collection_boxes", "spider:collection_time": "2023-10-04T08:25:43.293951"}, "geometry": {"coordinates": [-92.2236185, 37.503384], "type": "Point"}, "id": "tu4xTdsbk6H4c1vtozhaymOF30k=", "properties": {"@spider": "usps_collection_boxes", "addr:city": "PLATO", "addr:country": "US", "addr:full": "10594 HIGHWAY 32", "addr:postcode": "65552", "addr:state": "MO", "amenity": "post_box", "brand": "United States Postal Service", "brand:wikidata": "Q668687", "collection_times": "Mo-Sa 13:00", "name": "USPS COLLECTION BOX - BLUE BOX", "note": "ON 12/24 AND 12/31, THIS BOX MAY BE COLLECTED AS EARLY AS 12 NOON.", "nsi_id": "unitedstatespostalservice-a77078", "operator": "United States Postal Service", "operator:short": "USPS", "operator:type": "public", "operator:wikidata": "Q668687", "ref": "6555200000"}, "type": "Feature"}
{"dataset_attributes": {"@spider": "usps_collection_boxes", "spider:collection_time": "2023-10-04T08:25:43.293951"}, "geometry": {"coordinates": [-92.223357, 37.503517], "type": "Point"}, "id": "7XXnSaJrBqHnOwiI_1M-oJe1fDs=", "properties": {"@spider": "usps_collection_boxes", "addr:city": "PLATO", "addr:country": "US", "addr:full": "10594 HIGHWAY 32", "addr:postcode": "65552", "addr:state": "MO", "amenity": "post_box", "brand": "United States Postal Service", "brand:wikidata": "Q668687", "collection_times": "Mo-Fr 13:00; Sa 09:30", "name": "USPS COLLECTION BOX - PO LOBBY", "note": "ON 12/24 AND 12/31, THIS BOX MAY BE COLLECTED AS EARLY AS 12 NOON.", "nsi_id": "unitedstatespostalservice-a77078", "operator": "United States Postal Service", "operator:short": "USPS", "operator:type": "public", "operator:wikidata": "Q668687", "ref": "6555200001"}, "type": "Feature"}
{"dataset_attributes": {"@spider": "usps_collection_boxes", "spider:collection_time": "2023-10-04T08:25:43.293951"}, "geometry": {"coordinates": [-92.2233490538, 37.5034367295], "type": "Point"}, "id": "hys48kXlSp9B_BBuIy_cLMnWYaE=", "properties": {"@spider": "usps_collection_boxes", "addr:city": "PLATO", "addr:country": "US", "addr:full": "10594 HIGHWAY 32", "addr:postcode": "65552", "addr:state": "MO", "amenity": "post_box", "brand": "United States Postal Service", "brand:wikidata": "Q668687", "collection_times": "Mo-Fr 15:45; Sa 10:00", "name": "USPS COLLECTION BOX - PO LOBBY", "note": "ON 12/24 AND 12/31, THIS BOX MAY BE COLLECTED AS EARLY AS 12 NOON.", "nsi_id": "unitedstatespostalservice-a77078", "operator": "United States Postal Service", "operator:short": "USPS", "operator:type": "public", "operator:wikidata": "Q668687", "ref": "6555200002"}, "type": "Feature"}
{"dataset_attributes": {"@spider": "usps_collection_boxes", "spider:collection_time": "2023-10-04T08:25:43.293951"}, "geometry": {"coordinates": [-91.8334571, 37.340573], "type": "Point"}, "id": "ICLWsnglgaWsOwEKXPO0bhxQxUA=", "properties": {"@spider": "usps_collection_boxes", "addr:city": "RAYMONDVILLE", "addr:country": "US", "addr:full": "174 N HIGHWAY 137", "addr:postcode": "65555", "addr:state": "MO", "amenity": "post_box", "brand": "United States Postal Service", "brand:wikidata": "Q668687", "collection_times": "Mo-Fr 13:30; Sa 09:45", "name": "USPS COLLECTION BOX - BLUE BOX", "note": "ON 12/24 AND 12/31, THIS BOX MAY BE COLLECTED AS EARLY AS 12 NOON.", "nsi_id": "unitedstatespostalservice-a77078", "operator": "United States Postal Service", "operator:short": "USPS", "operator:type": "public", "operator:wikidata": "Q668687", "ref": "6555500000"}, "type": "Feature"}
{"dataset_attributes": {"@spider": "usps_collection_boxes", "spider:collection_time": "2023-10-04T08:25:43.293951"}, "geometry": {"coordinates": [-91.833227, 37.341735], "type": "Point"}, "id": "HAOPqgMofbLyyCIIDKKvSn6qaFM=", "properties": {"@spider": "usps_collection_boxes", "addr:city": "RAYMONDVILLE", "addr:country": "US", "addr:full": "174 N HIGHWAY 137", "addr:postcode": "65555", "addr:state": "MO", "amenity": "post_box", "brand": "United States Postal Service", "brand:wikidata": "Q668687", "collection_times": "Mo-Fr 11:45; Sa 09:45", "name": "USPS COLLECTION BOX - PO LOBBY", "nsi_id": "unitedstatespostalservice-a77078", "operator": "United States Postal Service", "operator:short": "USPS", "operator:type": "public", "operator:wikidata": "Q668687", "ref": "6555500001"}, "type": "Feature"}
{"dataset_attributes": {"@spider": "usps_collection_boxes", "spider:collection_time": "2023-10-04T08:25:43.293951"}, "geometry": {"coordinates": [-91.833227, 37.341735], "type": "Point"}, "id": "LP2MaOp_sIq7IbCRxEyYtxPKZOQ=", "properties": {"@spider": "usps_collection_boxes", "addr:city": "RAYMONDVILLE", "addr:country": "US", "addr:full": "174 N HIGHWAY 137", "addr:postcode": "65555", "addr:state": "MO", "amenity": "post_box", "brand": "United States Postal Service", "brand:wikidata": "Q668687", "collection_times": "Mo-Fr 11:45; Sa 09:45", "name": "USPS COLLECTION BOX - PO LOBBY", "nsi_id": "unitedstatespostalservice-a77078", "operator": "United States Postal Service", "operator:short": "USPS", "operator:type": "public", "operator:wikidata": "Q668687", "ref": "6555500002"}, "type": "Feature"}
{"dataset_attributes": {"@spider": "usps_collection_boxes", "spider:collection_time": "2023-10-04T08:25:43.293951"}, "geometry": {"coordinates": [-91.8331624578, 37.3417476174], "type": "Point"}, "id": "G2ST-4yjlNQ8NHXQXcA5vhuKSgI=", "properties": {"@spider": "usps_collection_boxes", "addr:city": "RAYMONDVILLE", "addr:country": "US", "addr:full": "174 N HIGHWAY 137", "addr:postcode": "65555", "addr:state": "MO", "amenity": "post_box", "brand": "United States Postal Service", "brand:wikidata": "Q668687", "collection_times": "Mo-Sa 12:00", "name": "USPS COLLECTION BOX - PO LOBBY", "nsi_id": "unitedstatespostalservice-a77078", "operator": "United States Postal Service", "operator:short": "USPS", "operator:type": "public", "operator:wikidata": "Q668687", "ref": "6555500003"}, "type": "Feature"}
{"dataset_attributes": {"@spider": "usps_collection_boxes", "spider:collection_time": "2023-10-04T08:25:43.293951"}, "geometry": {"coordinates": [-92.404198, 37.856433], "type": "Point"}, "id": "74O3a2Qv5Cc5UULIdSUt6hoWYKY=", "properties": {"@spider": "usps_collection_boxes", "addr:city": "RICHLAND", "addr:country": "US", "addr:full": "114 W MCCLURG AVE", "addr:postcode": "65556", "addr:state": "MO", "amenity": "post_box", "brand": "United States Postal Service", "brand:wikidata": "Q668687", "collection_times": "Mo-Fr 14:15; Sa 10:45", "name": "USPS COLLECTION BOX - BLUE BOX", "note": "ON 12/24 AND 12/31, THIS BOX MAY BE COLLECTED AS EARLY AS 12 NOON.", "nsi_id": "unitedstatespostalservice-a77078", "operator": "United States Postal Service", "operator:short": "USPS", "operator:type": "public", "operator:wikidata": "Q668687", "ref": "6555600000"}, "type": "Feature"}
{"dataset_attributes": {"@spider": "usps_collection_boxes", "spider:collection_time": "2023-10-04T08:25:43.293951"}, "geometry": {"coordinates": [-92.404281, 37.856458], "type": "Point"}, "id": "MmKl3ACczsIP9uhrOmCDkkQyrPM=", "properties": {"@spider": "usps_collection_boxes", "addr:city": "RICHLAND", "addr:country": "US", "addr:full": "114 W MCCLURG AVE", "addr:postcode": "65556", "addr:state": "MO", "amenity": "post_box", "brand": "United States Postal Service", "brand:wikidata": "Q668687", "collection_times": "Mo-Fr 14:15; Sa 10:45", "name": "USPS COLLECTION BOX - PO LOBBY", "note": "ON 12/24 AND 12/31, THIS BOX MAY BE COLLECTED AS EARLY AS 12 NOON.", "nsi_id": "unitedstatespostalservice-a77078", "operator": "United States Postal Service", "operator:short": "USPS", "operator:type": "public", "operator:wikidata": "Q668687", "ref": "6555600001"}, "type": "Feature"}
{"dataset_attributes": {"@spider": "usps_collection_boxes", "spider:collection_time": "2023-10-04T08:25:43.293951"}, "geometry": {"coordinates": [-92.404558636, 37.856739702], "type": "Point"}, "id": "Gg4fEQI_wU8HsuKDKybRvPMTLqU=", "properties": {"@spider": "usps_collection_boxes", "addr:city": "RICHLAND", "addr:country": "US", "addr:full": "114 W MCCLURG AVE", "addr:postcode": "65556", "addr:state": "MO", "amenity": "post_box", "brand": "United States Postal Service", "brand:wikidata": "Q668687", "collection_times": "Mo-Fr 16:15; Sa 11:00", "name": "USPS COLLECTION BOX - PO LOBBY", "note": "ON 12/24 AND 12/31, THIS BOX MAY BE COLLECTED AS EARLY AS 12 NOON.", "nsi_id": "unitedstatespostalservice-a77078", "operator": "United States Postal Service", "operator:short": "USPS", "operator:type": "public", "operator:wikidata": "Q668687", "ref": "6555600002"}, "type": "Feature"}
{"dataset_attributes": {"@spider": "usps_collection_boxes", "spider:collection_time": "2023-10-04T08:25:43.293951"}, "geometry": {"coordinates": [-92.139211, 37.514634], "type": "Point"}, "id": "7tXmrnncIz_28fY17_OyoZXzCTA=", "properties": {"@spider": "usps_collection_boxes", "addr:city": "ROBY", "addr:country": "US", "addr:full": "12445 CASS LN", "addr:postcode": "65557", "addr:state": "MO", "amenity": "post_box", "brand": "United States Postal Service", "brand:wikidata": "Q668687", "collection_times": "Mo-Fr 13:00; Sa 11:45", "name": "USPS COLLECTION BOX - BLUE BOX", "note": "ON 12/24 AND 12/31, THIS BOX MAY BE COLLECTED AS EARLY AS 12 NOON.", "nsi_id": "unitedstatespostalservice-a77078", "operator": "United States Postal Service", "operator:short": "USPS", "operator:type": "public", "operator:wikidata": "Q668687", "ref": "6555700000"}, "type": "Feature"}
{"dataset_attributes": {"@spider": "usps_collection_boxes", "spider:collection_time": "2023-10-04T08:25:43.293951"}, "geometry": {"coordinates": [-92.139098, 37.514604], "type": "Point"}, "id": "paV6JaxV1ZhA5awV43LAxa8RSmw=", "properties": {"@spider": "usps_collection_boxes", "addr:city": "ROBY", "addr:country": "US", "addr:full": "12445 CASS LN", "addr:postcode": "65557", "addr:state": "MO", "amenity": "post_box", "brand": "United States Postal Service", "brand:wikidata": "Q668687", "collection_times": "Mo-Fr 13:00; Sa 11:45", "name": "USPS COLLECTION BOX - PO LOBBY", "note": "ON 12/24 AND 12/31, THIS BOX MAY BE COLLECTED AS EARLY AS 12 NOON.", "nsi_id": "unitedstatespostalservice-a77078", "operator": "United States Postal Service", "operator:short": "USPS", "operator:type": "public", "operator:wikidata": "Q668687", "ref": "6555700001"}, "type": "Feature"}
{"dataset_attributes": {"@spider": "usps_collection_boxes", "spider:collection_time": "2023-10-04T08:25:43.293951"}, "geometry": {"coordinates": [-92.140903963, 37.51466783], "type": "Point"}, "id": "GUwDuIDlav4B73AS5ZdqH0VvPRw=", "properties": {"@spider": "usps_collection_boxes", "addr:city": "ROBY", "addr:country": "US", "addr:full": "12445 CASS LN", "addr:postcode": "65557", "addr:state": "MO", "amenity": "post_box", "brand": "United States Postal Service", "brand:wikidata": "Q668687", "collection_times": "Mo-Sa 14:00", "name": "USPS COLLECTION BOX - PO LOBBY", "note": "ON 12/24 AND 12/31, THIS BOX MAY BE COLLECTED AS EARLY AS 12 NOON.", "nsi_id": "unitedstatespostalservice-a77078", "operator": "United States Postal Service", "operator:short": "USPS", "operator:type": "public", "operator:wikidata": "Q668687", "ref": "6555700002"}, "type": "Feature"}
{"dataset_attributes": {"@spider": "usps_collection_boxes", "spider:collection_time": "2023-10-04T08:25:43.293951"}, "geometry": {"coordinates": [-91.6176389584, 37.996867992], "type": "Point"}, "id": "XGsYms8Fvdjed0NF31Rwq4BnJdg=", "properties": {"@spider": "usps_collection_boxes", "addr:city": "SAINT JAMES", "addr:country": "US", "addr:full": "201 N BOURBEUSE ST", "addr:postcode": "65559", "addr:state": "MO", "amenity": "post_box", "brand": "United States Postal Service", "brand:wikidata": "Q668687", "collection_times": "Mo-Fr 16:15; Sa 12:45", "name": "USPS COLLECTION BOX - BLUE BOX", "note": "ON 12/24 AND 12/31, THIS BOX MAY BE COLLECTED AS EARLY AS 12 NOON.", "nsi_id": "unitedstatespostalservice-a77078", "operator": "United States Postal Service", "operator:short": "USPS", "operator:type": "public", "operator:wikidata": "Q668687", "ref": "6555900000"}, "type": "Feature"}
{"dataset_attributes": {"@spider": "usps_collection_boxes", "spider:collection_time": "2023-10-04T08:25:43.293951"}, "geometry": {"coordinates": [-91.6173131, 37.99973], "type": "Point"}, "id": "WLvehN3c0Y1DJJIjB52CVZv7y3A=", "properties": {"@spider": "usps_collection_boxes", "addr:city": "SAINT JAMES", "addr:country": "US", "addr:full": "319 N JEFFERSON ST", "addr:postcode": "65559", "addr:state": "MO", "amenity": "post_box", "brand": "United States Postal Service", "brand:wikidata": "Q668687", "collection_times": "Mo-Sa 12:00", "name": "USPS COLLECTION BOX - BLUE BOX", "nsi_id": "unitedstatespostalservice-a77078", "operator": "United States Postal Service", "operator:short": "USPS", "operator:type": "public", "operator:wikidata": "Q668687", "ref": "6555900003"}, "type": "Feature"}
{"dataset_attributes": {"@spider": "usps_collection_boxes", "spider:collection_time": "2023-10-04T08:25:43.293951"}, "geometry": {"coordinates": [-91.6176389584, 37.996867992], "type": "Point"}, "id": "z92w1Q5pkCHvoeua-zEBVFLthPQ=", "properties": {"@spider": "usps_collection_boxes", "addr:city": "SAINT JAMES", "addr:country": "US", "addr:full": "201 N BOURBEUSE ST", "addr:postcode": "65559", "addr:state": "MO", "amenity": "post_box", "brand": "United States Postal Service", "brand:wikidata": "Q668687", "collection_times": "Mo-Fr 16:15; Sa 12:45", "name": "USPS COLLECTION BOX - PO LOBBY", "note": "ON 12/24 AND 12/31, THIS BOX MAY BE COLLECTED AS EARLY AS 12 NOON.", "nsi_id": "unitedstatespostalservice-a77078", "operator": "United States Postal Service", "operator:short": "USPS", "operator:type": "public", "operator:wikidata": "Q668687", "ref": "6555900007"}, "type": "Feature"}
{"dataset_attributes": {"@spider": "usps_collection_boxes", "spider:collection_time": "2023-10-04T08:25:43.293951"}, "geometry": {"coordinates": [-91.6176389584, 37.996867992], "type": "Point"}, "id": "GId2ynqZbE5dDaGZ7GYZVGBGpRw=", "properties": {"@spider": "usps_collection_boxes", "addr:city": "SAINT JAMES", "addr:country": "US", "addr:full": "201 N BOURBEUSE ST", "addr:postcode": "65559", "addr:state": "MO", "amenity": "post_box", "brand": "United States Postal Service", "brand:wikidata": "Q668687", "collection_times": "Mo-Fr 16:15; Sa 12:45", "name": "USPS COLLECTION BOX - PO LOBBY", "note": "ON 12/24 AND 12/31, THIS BOX MAY BE COLLECTED AS EARLY AS 12 NOON.", "nsi_id": "unitedstatespostalservice-a77078", "operator": "United States Postal Service", "operator:short": "USPS", "operator:type": "public", "operator:wikidata": "Q668687", "ref": "6555900010"}, "type": "Feature"}
{"dataset_attributes": {"@spider": "usps_collection_boxes", "spider:collection_time": "2023-10-04T08:25:43.293951"}, "geometry": {"coordinates": [-91.538442, 37.644912], "type": "Point"}, "id": "fJxVkWzRkX-MnfSM72d8QTtOInw=", "properties": {"@spider": "usps_collection_boxes", "addr:city": "SALEM", "addr:country": "US", "addr:full": "303 N JACKSON ST", "addr:postcode": "65560", "addr:state": "MO", "amenity": "post_box", "brand": "United States Postal Service", "brand:wikidata": "Q668687", "collection_times": "Mo-Sa 13:00", "name": "USPS COLLECTION BOX - BLUE BOX", "note": "ON 12/24 AND 12/31, THIS BOX MAY BE COLLECTED AS EARLY AS 12 NOON.", "nsi_id": "unitedstatespostalservice-a77078", "operator": "United States Postal Service", "operator:short": "USPS", "operator:type": "public", "operator:wikidata": "Q668687", "ref": "6556000000"}, "type": "Feature"}
{"dataset_attributes": {"@spider": "usps_collection_boxes", "spider:collection_time": "2023-10-04T08:25:43.293951"}, "geometry": {"coordinates": [-91.53841, 37.644825], "type": "Point"}, "id": "x-yBYOnr_Zcg6hLpIAb3MbkKnEY=", "properties": {"@spider": "usps_collection_boxes", "addr:city": "SALEM", "addr:country": "US", "addr:full": "303 N JACKSON ST", "addr:postcode": "65560", "addr:state": "MO", "amenity": "post_box", "brand": "United States Postal Service", "brand:wikidata": "Q668687", "collection_times": "Mo-Sa 13:00", "name": "USPS COLLECTION BOX - BLUE BOX", "note": "ON 12/24 AND 12/31, THIS BOX MAY BE COLLECTED AS EARLY AS 12 NOON.", "nsi_id": "unitedstatespostalservice-a77078", "operator": "United States Postal Service", "operator:short": "USPS", "operator:type": "public", "operator:wikidata": "Q668687", "ref": "6556000001"}, "type": "Feature"}
{"dataset_attributes": {"@spider": "usps_collection_boxes", "spider:collection_time": "2023-10-04T08:25:43.293951"}, "geometry": {"coordinates": [-91.5461984, 37.634598], "type": "Point"}, "id": "AZK0qaDZp_E_zI1bPqc4yKOpi7Y=", "properties": {"@spider": "usps_collection_boxes", "addr:city": "SALEM", "addr:country": "US", "addr:full": "1101 W SCENIC RIVERS BLVD", "addr:postcode": "65560", "addr:state": "MO", "amenity": "post_box", "brand": "United States Postal Service", "brand:wikidata": "Q668687", "collection_times": "Mo-Sa 13:00", "name": "USPS COLLECTION BOX - BLUE BOX", "note": "ON 12/24 AND 12/31, THIS BOX MAY BE COLLECTED AS EARLY AS 12 NOON.", "nsi_id": "unitedstatespostalservice-a77078", "operator": "United States Postal Service", "operator:short": "USPS", "operator:type": "public", "operator:wikidata": "Q668687", "ref": "6556000002"}, "type": "Feature"}
{"dataset_attributes": {"@spider": "usps_collection_boxes", "spider:collection_time": "2023-10-04T08:25:43.293951"}, "geometry": {"coordinates": [-91.520832, 37.636012], "type": "Point"}, "id": "ni6gDFviFFp83loAfIVcFkc_ftE=", "properties": {"@spider": "usps_collection_boxes", "addr:city": "SALEM", "addr:country": "US", "addr:full": "1204 E SCENIC RIVERS BLVD", "addr:postcode": "65560", "addr:state": "MO", "amenity": "post_box", "brand": "United States Postal Service", "brand:wikidata": "Q668687", "collection_times": "Mo-Fr 12:30; Sa 12:15", "name": "USPS COLLECTION BOX - BLUE BOX", "note": "ON 12/24 AND 12/31, THIS BOX MAY BE COLLECTED AS EARLY AS 12 NOON.", "nsi_id": "unitedstatespostalservice-a77078", "operator": "United States Postal Service", "operator:short": "USPS", "operator:type": "public", "operator:wikidata": "Q668687", "ref": "6556000003"}, "type": "Feature"}
{"dataset_attributes": {"@spider": "usps_collection_boxes", "spider:collection_time": "2023-10-04T08:25:43.293951"}, "geometry": {"coordinates": [-91.53841, 37.644825], "type": "Point"}, "id": "5Kzyb7ihTvSwYcpPo0LwPJmGeDE=", "properties": {"@spider": "usps_collection_boxes", "addr:city": "SALEM", "addr:country": "US", "addr:full": "303 N JACKSON ST", "addr:postcode": "65560", "addr:state": "MO", "amenity": "post_box", "brand": "United States Postal Service", "brand:wikidata": "Q668687", "collection_times": "Mo-Sa 13:00", "name": "USPS COLLECTION BOX - BLUE BOX", "note": "ON 12/24 AND 12/31, THIS BOX MAY BE COLLECTED AS EARLY AS 12 NOON.", "nsi_id": "unitedstatespostalservice-a77078", "operator": "United States Postal Service", "operator:short": "USPS", "operator:type": "public", "operator:wikidata": "Q668687", "ref": "6556000009"}, "type": "Feature"}
{"dataset_attributes": {"@spider": "usps_collection_boxes", "spider:collection_time": "2023-10-04T08:25:43.293951"}, "geometry": {"coordinates": [-91.53841, 37.644825], "type": "Point"}, "id": "DbXJYMYdPP-lUd5IZMaJ1YlGcPY=", "properties": {"@spider": "usps_collection_boxes", "addr:city": "SALEM", "addr:country": "US", "addr:full": "303 N JACKSON ST", "addr:postcode": "65560", "addr:state": "MO", "amenity": "post_box", "brand": "United States Postal Service", "brand:wikidata": "Q668687", "collection_times": "Mo-Sa 13:00", "name": "USPS COLLECTION BOX - PO LOBBY", "note": "ON 12/24 AND 12/31, THIS BOX MAY BE COLLECTED AS EARLY AS 12 NOON.", "nsi_id": "unitedstatespostalservice-a77078", "operator": "United States Postal Service", "operator:short": "USPS", "operator:type": "public", "operator:wikidata": "Q668687", "ref": "6556000011"}, "type": "Feature"}
{"dataset_attributes": {"@spider": "usps_collection_boxes", "spider:collection_time": "2023-10-04T08:25:43.293951"}, "geometry": {"coordinates": [-91.5384668667, 37.6448718765], "type": "Point"}, "id": "dgyC1CV8MtUwp1HD3ilEkcsfMPw=", "properties": {"@spider": "usps_collection_boxes", "addr:city": "SALEM", "addr:country": "US", "addr:full": "303 N JACKSON ST", "addr:postcode": "65560", "addr:state": "MO", "amenity": "post_box", "brand": "United States Postal Service", "brand:wikidata": "Q668687", "collection_times": "Mo-Fr 16:15; Sa 12:15", "name": "USPS COLLECTION BOX - PO LOBBY", "note": "ON 12/24 AND 12/31, THIS BOX MAY BE COLLECTED AS EARLY AS 12 NOON.", "nsi_id": "unitedstatespostalservice-a77078", "operator": "United States Postal Service", "operator:short": "USPS", "operator:type": "public", "operator:wikidata": "Q668687", "ref": "6556000013"}, "type": "Feature"}
{"dataset_attributes": {"@spider": "usps_collection_boxes", "spider:collection_time": "2023-10-04T08:25:43.293951"}, "geometry": {"coordinates": [-91.354162, 37.966616], "type": "Point"}, "id": "BW3QVevJnnsam6TECLsr5wihvR0=", "properties": {"@spider": "usps_collection_boxes", "addr:city": "STEELVILLE", "addr:country": "US", "addr:full": "204 S 1ST ST", "addr:postcode": "65565", "addr:state": "MO", "amenity": "post_box", "brand": "United States Postal Service", "brand:wikidata": "Q668687", "collection_times": "Mo-Fr 13:00; Sa 12:00", "name": "USPS COLLECTION BOX - BLUE BOX", "note": "ON 12/24 AND 12/31, THIS BOX MAY BE COLLECTED AS EARLY AS 12 NOON.", "nsi_id": "unitedstatespostalservice-a77078", "operator": "United States Postal Service", "operator:short": "USPS", "operator:type": "public", "operator:wikidata": "Q668687", "ref": "6556500000"}, "type": "Feature"}
{"dataset_attributes": {"@spider": "usps_collection_boxes", "spider:collection_time": "2023-10-04T08:25:43.293951"}, "geometry": {"coordinates": [-91.354092, 37.966544], "type": "Point"}, "id": "aBtteWlpMlRZDw-bMWbjwkyolCY=", "properties": {"@spider": "usps_collection_boxes", "addr:city": "STEELVILLE", "addr:country": "US", "addr:full": "204 S 1ST ST", "addr:postcode": "65565", "addr:state": "MO", "amenity": "post_box", "brand": "United States Postal Service", "brand:wikidata": "Q668687", "collection_times": "Mo-Fr 13:00; Sa 12:00", "name": "USPS COLLECTION BOX - BLUE BOX", "note": "ON 12/24 AND 12/31, THIS BOX MAY BE COLLECTED AS EARLY AS 12 NOON.", "nsi_id": "unitedstatespostalservice-a77078", "operator": "United States Postal Service", "operator:short": "USPS", "operator:type": "public", "operator:wikidata": "Q668687", "ref": "6556500002"}, "type": "Feature"}
{"dataset_attributes": {"@spider": "usps_collection_boxes", "spider:collection_time": "2023-10-04T08:25:43.293951"}, "geometry": {"coordinates": [-91.354092, 37.966544], "type": "Point"}, "id": "81VHzh-AEJ_JkXdsP9lCUGDBvz8=", "properties": {"@spider": "usps_collection_boxes", "addr:city": "STEELVILLE", "addr:country": "US", "addr:full": "204 S 1ST ST", "addr:postcode": "65565", "addr:state": "MO", "amenity": "post_box", "brand": "United States Postal Service", "brand:wikidata": "Q668687", "collection_times": "Mo-Fr 13:00; Sa 12:00", "name": "USPS COLLECTION BOX - PO LOBBY", "note": "ON 12/24 AND 12/31, THIS BOX MAY BE COLLECTED AS EARLY AS 12 NOON.", "nsi_id": "unitedstatespostalservice-a77078", "operator": "United States Postal Service", "operator:short": "USPS", "operator:type": "public", "operator:wikidata": "Q668687", "ref": "6556500004"}, "type": "Feature"}
{"dataset_attributes": {"@spider": "usps_collection_boxes", "spider:collection_time": "2023-10-04T08:25:43.293951"}, "geometry": {"coordinates": [-91.3543622631, 37.9669993591], "type": "Point"}, "id": "2SmajeBHGN9_zSM6LIUVC7Xk87A=", "properties": {"@spider": "usps_collection_boxes", "addr:city": "STEELVILLE", "addr:country": "US", "addr:full": "204 S 1ST ST", "addr:postcode": "65565", "addr:state": "MO", "amenity": "post_box", "brand": "United States Postal Service", "brand:wikidata": "Q668687", "collection_times": "Mo-Fr 12:45; Sa 12:00", "name": "USPS COLLECTION BOX - PO LOBBY", "note": "ON 12/24 AND 12/31, THIS BOX MAY BE COLLECTED AS EARLY AS 12 NOON.", "nsi_id": "unitedstatespostalservice-a77078", "operator": "United States Postal Service", "operator:short": "USPS", "operator:type": "public", "operator:wikidata": "Q668687", "ref": "6556500006"}, "type": "Feature"}
{"dataset_attributes": {"@spider": "usps_collection_boxes", "spider:collection_time": "2023-10-04T08:25:43.293951"}, "geometry": {"coordinates": [-92.513253, 37.814575], "type": "Point"}, "id": "HYlM1KK-r64c2wfWx0nbLrpPoPI=", "properties": {"@spider": "usps_collection_boxes", "addr:city": "STOUTLAND", "addr:country": "US", "addr:full": "40 E STATE ROAD H", "addr:postcode": "65567", "addr:state": "MO", "amenity": "post_box", "brand": "United States Postal Service", "brand:wikidata": "Q668687", "collection_times": "Mo-Fr 13:30; Sa 10:00", "name": "USPS COLLECTION BOX - BLUE BOX", "note": "ON 12/24 AND 12/31, THIS BOX MAY BE COLLECTED AS EARLY AS 12 NOON.", "nsi_id": "unitedstatespostalservice-a77078", "operator": "United States Postal Service", "operator:short": "USPS", "operator:type": "public", "operator:wikidata": "Q668687", "ref": "6556700000"}, "type": "Feature"}
{"dataset_attributes": {"@spider": "usps_collection_boxes", "spider:collection_time": "2023-10-04T08:25:43.293951"}, "geometry": {"coordinates": [-92.513281, 37.814593], "type": "Point"}, "id": "L6sxTOQ2ujSqgWocW8PMWB-JAm4=", "properties": {"@spider": "usps_collection_boxes", "addr:city": "STOUTLAND", "addr:country": "US", "addr:full": "40 E STATE ROAD H", "addr:postcode": "65567", "addr:state": "MO", "amenity": "post_box", "brand": "United States Postal Service", "brand:wikidata": "Q668687", "collection_times": "Mo-Fr 13:30; Sa 10:00", "name": "USPS COLLECTION BOX - PO LOBBY", "note": "ON 12/24 AND 12/31, THIS BOX MAY BE COLLECTED AS EARLY AS 12 NOON.", "nsi_id": "unitedstatespostalservice-a77078", "operator": "United States Postal Service", "operator:short": "USPS", "operator:type": "public", "operator:wikidata": "Q668687", "ref": "6556700001"}, "type": "Feature"}
{"dataset_attributes": {"@spider": "usps_collection_boxes", "spider:collection_time": "2023-10-04T08:25:43.293951"}, "geometry": {"coordinates": [-92.5129482383, 37.8147325917], "type": "Point"}, "id": "wXKpRd3_usAUlxc68X--J5e63ZU=", "properties": {"@spider": "usps_collection_boxes", "addr:city": "STOUTLAND", "addr:country": "US", "addr:full": "40 E STATE ROAD H", "addr:postcode": "65567", "addr:state": "MO", "amenity": "post_box", "brand": "United States Postal Service", "brand:wikidata": "Q668687", "collection_times": "Mo-Fr 14:30; Sa 11:00", "name": "USPS COLLECTION BOX - PO LOBBY", "note": "ON 12/24 AND 12/31, THIS BOX MAY BE COLLECTED AS EARLY AS 12 NOON.", "nsi_id": "unitedstatespostalservice-a77078", "operator": "United States Postal Service", "operator:short": "USPS", "operator:type": "public", "operator:wikidata": "Q668687", "ref": "6556700002"}, "type": "Feature"}
{"dataset_attributes": {"@spider": "usps_collection_boxes", "spider:collection_time": "2023-10-04T08:25:43.293951"}, "geometry": {"coordinates": [-92.087557, 37.444333], "type": "Point"}, "id": "e96oYj9hrUelC99biuiN8WdDfP4=", "properties": {"@spider": "usps_collection_boxes", "addr:city": "SUCCESS", "addr:country": "US", "addr:full": "10798 HIGHWAY 17", "addr:postcode": "65570", "addr:state": "MO", "amenity": "post_box", "brand": "United States Postal Service", "brand:wikidata": "Q668687", "collection_times": "Mo-Sa 12:00", "name": "USPS COLLECTION BOX - PO LOBBY", "nsi_id": "unitedstatespostalservice-a77078", "operator": "United States Postal Service", "operator:short": "USPS", "operator:type": "public", "operator:wikidata": "Q668687", "ref": "6557000001"}, "type": "Feature"}
{"dataset_attributes": {"@spider": "usps_collection_boxes", "spider:collection_time": "2023-10-04T08:25:43.293951"}, "geometry": {"coordinates": [-92.087557, 37.444333], "type": "Point"}, "id": "cSyG7bF7t4ppU8p3zGidzTODRts=", "properties": {"@spider": "usps_collection_boxes", "addr:city": "SUCCESS", "addr:country": "US", "addr:full": "10798 HIGHWAY 17", "addr:postcode": "65570", "addr:state": "MO", "amenity": "post_box", "brand": "United States Postal Service", "brand:wikidata": "Q668687", "collection_times": "Mo-Sa 12:00", "name": "USPS COLLECTION BOX - BLUE BOX", "nsi_id": "unitedstatespostalservice-a77078", "operator": "United States Postal Service", "operator:short": "USPS", "operator:type": "public", "operator:wikidata": "Q668687", "ref": "6557000002"}, "type": "Feature"}
{"dataset_attributes": {"@spider": "usps_collection_boxes", "spider:collection_time": "2023-10-04T08:25:43.293951"}, "geometry": {"coordinates": [-92.0875602688, 37.4443787747], "type": "Point"}, "id": "HoNQavwy9GxHN3Nv76yDMoLy50s=", "properties": {"@spider": "usps_collection_boxes", "addr:city": "SUCCESS", "addr:country": "US", "addr:full": "10798 HIGHWAY 17", "addr:postcode": "65570", "addr:state": "MO", "amenity": "post_box", "brand": "United States Postal Service", "brand:wikidata": "Q668687", "collection_times": "Mo-Sa 13:00", "name": "USPS COLLECTION BOX - PO LOBBY", "note": "ON 12/24 AND 12/31, THIS BOX MAY BE COLLECTED AS EARLY AS 12 NOON.", "nsi_id": "unitedstatespostalservice-a77078", "operator": "United States Postal Service", "operator:short": "USPS", "operator:type": "public", "operator:wikidata": "Q668687", "ref": "6557000003"}, "type": "Feature"}
{"dataset_attributes": {"@spider": "usps_collection_boxes", "spider:collection_time": "2023-10-04T08:25:43.293951"}, "geometry": {"coordinates": [-91.656584, 37.179648], "type": "Point"}, "id": "JiTmNsin-4ED6sL2Xa5m4Fu2fCE=", "properties": {"@spider": "usps_collection_boxes", "addr:city": "SUMMERSVILLE", "addr:country": "US", "addr:full": "485 2ND ST", "addr:postcode": "65571", "addr:state": "MO", "amenity": "post_box", "brand": "United States Postal Service", "brand:wikidata": "Q668687", "collection_times": "Mo-Fr 13:15; Sa 10:00", "name": "USPS COLLECTION BOX - BLUE BOX", "note": "ON 12/24 AND 12/31, THIS BOX MAY BE COLLECTED AS EARLY AS 12 NOON.", "nsi_id": "unitedstatespostalservice-a77078", "operator": "United States Postal Service", "operator:short": "USPS", "operator:type": "public", "operator:wikidata": "Q668687", "ref": "6557100000"}, "type": "Feature"}
{"dataset_attributes": {"@spider": "usps_collection_boxes", "spider:collection_time": "2023-10-04T08:25:43.293951"}, "geometry": {"coordinates": [-91.656504, 37.179621], "type": "Point"}, "id": "GNLQ2hUwBsKvL8WM3Hj4Yi9QYhs=", "properties": {"@spider": "usps_collection_boxes", "addr:city": "SUMMERSVILLE", "addr:country": "US", "addr:full": "485 2ND ST", "addr:postcode": "65571", "addr:state": "MO", "amenity": "post_box", "brand": "United States Postal Service", "brand:wikidata": "Q668687", "collection_times": "Mo-Fr 13:15; Sa 10:00", "name": "USPS COLLECTION BOX - PO LOBBY", "note": "ON 12/24 AND 12/31, THIS BOX MAY BE COLLECTED AS EARLY AS 12 NOON.", "nsi_id": "unitedstatespostalservice-a77078", "operator": "United States Postal Service", "operator:short": "USPS", "operator:type": "public", "operator:wikidata": "Q668687", "ref": "6557100001"}, "type": "Feature"}
{"dataset_attributes": {"@spider": "usps_collection_boxes", "spider:collection_time": "2023-10-04T08:25:43.293951"}, "geometry": {"coordinates": [-91.65663563, 37.179683744], "type": "Point"}, "id": "LIHuY4bfakkLk6aHqkwA6Hf9fmI=", "properties": {"@spider": "usps_collection_boxes", "addr:city": "SUMMERSVILLE", "addr:country": "US", "addr:full": "485 2ND ST", "addr:postcode": "65571", "addr:state": "MO", "amenity": "post_box", "brand": "United States Postal Service", "brand:wikidata": "Q668687", "collection_times": "Mo-Fr 14:15; Sa 12:00", "name": "USPS COLLECTION BOX - PO LOBBY", "note": "ON 12/24 AND 12/31, THIS BOX MAY BE COLLECTED AS EARLY AS 12 NOON.", "nsi_id": "unitedstatespostalservice-a77078", "operator": "United States Postal Service", "operator:short": "USPS", "operator:type": "public", "operator:wikidata": "Q668687", "ref": "6557100002"}, "type": "Feature"}
{"dataset_attributes": {"@spider": "usps_collection_boxes", "spider:collection_time": "2023-10-04T08:25:43.293951"}, "geometry": {"coordinates": [-91.761013709, 38.114988192], "type": "Point"}, "id": "WsfykNJVYBZ25SmDMEqZSOX7ydE=", "properties": {"@spider": "usps_collection_boxes", "addr:city": "VICHY", "addr:country": "US", "addr:full": "14788 HIGHWAY 63 S", "addr:postcode": "65580", "addr:state": "MO", "amenity": "post_box", "brand": "United States Postal Service", "brand:wikidata": "Q668687", "collection_times": "Mo-Sa 11:30", "name": "USPS COLLECTION BOX - BLUE BOX", "nsi_id": "unitedstatespostalservice-a77078", "operator": "United States Postal Service", "operator:short": "USPS", "operator:type": "public", "operator:wikidata": "Q668687", "ref": "6558000000"}, "type": "Feature"}
{"dataset_attributes": {"@spider": "usps_collection_boxes", "spider:collection_time": "2023-10-04T08:25:43.293951"}, "geometry": {"coordinates": [-91.9468449549, 38.1856432302], "type": "Point"}, "id": "O074WM5sEiNfszJ_M9hLrb5t5MM=", "properties": {"@spider": "usps_collection_boxes", "addr:city": "VIENNA", "addr:country": "US", "addr:full": "202 S MAIN ST", "addr:postcode": "65582", "addr:state": "MO", "amenity": "post_box", "brand": "United States Postal Service", "brand:wikidata": "Q668687", "collection_times": "Mo-Fr 15:45; Sa 10:00", "name": "USPS COLLECTION BOX - BLUE BOX", "note": "ON 12/24 AND 12/31, THIS BOX MAY BE COLLECTED AS EARLY AS 12 NOON.", "nsi_id": "unitedstatespostalservice-a77078", "operator": "United States Postal Service", "operator:short": "USPS", "operator:type": "public", "operator:wikidata": "Q668687", "ref": "6558200000"}, "type": "Feature"}
{"dataset_attributes": {"@spider": "usps_collection_boxes", "spider:collection_time": "2023-10-04T08:25:43.293951"}, "geometry": {"coordinates": [-91.9468449549, 38.1856432302], "type": "Point"}, "id": "GO1ucJcvc2_5SM1dTeb80KYXGyU=", "properties": {"@spider": "usps_collection_boxes", "addr:city": "VIENNA", "addr:country": "US", "addr:full": "202 S MAIN ST", "addr:postcode": "65582", "addr:state": "MO", "amenity": "post_box", "brand": "United States Postal Service", "brand:wikidata": "Q668687", "collection_times": "Mo-Fr 15:45; Sa 10:00", "name": "USPS COLLECTION BOX - PO LOBBY", "note": "ON 12/24 AND 12/31, THIS BOX MAY BE COLLECTED AS EARLY AS 12 NOON.", "nsi_id": "unitedstatespostalservice-a77078", "operator": "United States Postal Service", "operator:short": "USPS", "operator:type": "public", "operator:wikidata": "Q668687", "ref": "6558200001"}, "type": "Feature"}
{"dataset_attributes": {"@spider": "usps_collection_boxes", "spider:collection_time": "2023-10-04T08:25:43.293951"}, "geometry": {"coordinates": [-91.9468449549, 38.1856432302], "type": "Point"}, "id": "qGU_HCA5CbRbJQCUQ5lInAO81Ks=", "properties": {"@spider": "usps_collection_boxes", "addr:city": "VIENNA", "addr:country": "US", "addr:full": "202 S MAIN ST", "addr:postcode": "65582", "addr:state": "MO", "amenity": "post_box", "brand": "United States Postal Service", "brand:wikidata": "Q668687", "collection_times": "Mo-Fr 15:45; Sa 10:00", "name": "USPS COLLECTION BOX - PO LOBBY", "note": "ON 12/24 AND 12/31, THIS BOX MAY BE COLLECTED AS EARLY AS 12 NOON.", "nsi_id": "unitedstatespostalservice-a77078", "operator": "United States Postal Service", "operator:short": "USPS", "operator:type": "public", "operator:wikidata": "Q668687", "ref": "6558200002"}, "type": "Feature"}
{"dataset_attributes": {"@spider": "usps_collection_boxes", "spider:collection_time": "2023-10-04T08:25:43.293951"}, "geometry": {"coordinates": [-91.946861221, 38.185637329], "type": "Point"}, "id": "VqZ1dBDdExfffZhjSLWe8RtidnQ=", "properties": {"@spider": "usps_collection_boxes", "addr:city": "VIENNA", "addr:country": "US", "addr:full": "202 S MAIN ST", "addr:postcode": "65582", "addr:state": "MO", "amenity": "post_box", "brand": "United States Postal Service", "brand:wikidata": "Q668687", "collection_times": "Mo-Fr 15:45; Sa 10:00", "name": "USPS COLLECTION BOX - PO LOBBY", "note": "ON 12/24 AND 12/31, THIS BOX MAY BE COLLECTED AS EARLY AS 12 NOON.", "nsi_id": "unitedstatespostalservice-a77078", "operator": "United States Postal Service", "operator:short": "USPS", "operator:type": "public", "operator:wikidata": "Q668687", "ref": "6558200003"}, "type": "Feature"}
{"dataset_attributes": {"@spider": "usps_collection_boxes", "spider:collection_time": "2023-10-04T08:25:43.293951"}, "geometry": {"coordinates": [-92.2239858, 37.810777], "type": "Point"}, "id": "zP2DwM0b4XX_Ck148cyS9eZAIXA=", "properties": {"@spider": "usps_collection_boxes", "addr:city": "WAYNESVILLE", "addr:country": "US", "addr:full": "200 ICHORD AVE", "addr:postcode": "65583", "addr:state": "MO", "amenity": "post_box", "brand": "United States Postal Service", "brand:wikidata": "Q668687", "collection_times": "Mo-Sa 11:30", "name": "USPS COLLECTION BOX - BLUE BOX", "nsi_id": "unitedstatespostalservice-a77078", "operator": "United States Postal Service", "operator:short": "USPS", "operator:type": "public", "operator:wikidata": "Q668687", "ref": "6558300004"}, "type": "Feature"}
{"dataset_attributes": {"@spider": "usps_collection_boxes", "spider:collection_time": "2023-10-04T08:25:43.293951"}, "geometry": {"coordinates": [-92.201577, 37.829554], "type": "Point"}, "id": "Ypweq-y0zstusp9WxVRq79cBdxg=", "properties": {"@spider": "usps_collection_boxes", "addr:city": "WAYNESVILLE", "addr:country": "US", "addr:full": "301 NORTH ST", "addr:postcode": "65583", "addr:state": "MO", "amenity": "post_box", "brand": "United States Postal Service", "brand:wikidata": "Q668687", "collection_times": "Mo-Sa 14:30", "name": "USPS COLLECTION BOX - PO LOBBY", "note": "ON 12/24 AND 12/31, THIS BOX MAY BE COLLECTED AS EARLY AS 12 NOON.", "nsi_id": "unitedstatespostalservice-a77078", "operator": "United States Postal Service", "operator:short": "USPS", "operator:type": "public", "operator:wikidata": "Q668687", "ref": "6558300010"}, "type": "Feature"}
{"dataset_attributes": {"@spider": "usps_collection_boxes", "spider:collection_time": "2023-10-04T08:25:43.293951"}, "geometry": {"coordinates": [-92.20169, 37.829584], "type": "Point"}, "id": "YUceQKIQAkYan7CIUX91vaQJlmI=", "properties": {"@spider": "usps_collection_boxes", "addr:city": "WAYNESVILLE", "addr:country": "US", "addr:full": "301 NORTH ST", "addr:postcode": "65583", "addr:state": "MO", "amenity": "post_box", "brand": "United States Postal Service", "brand:wikidata": "Q668687", "collection_times": "Mo-Sa 14:30", "name": "USPS COLLECTION BOX - PO LOBBY", "note": "ON 12/24 AND 12/31, THIS BOX MAY BE COLLECTED AS EARLY AS 12 NOON.", "nsi_id": "unitedstatespostalservice-a77078", "operator": "United States Postal Service", "operator:short": "USPS", "operator:type": "public", "operator:wikidata": "Q668687", "ref": "6558300011"}, "type": "Feature"}
{"dataset_attributes": {"@spider": "usps_collection_boxes", "spider:collection_time": "2023-10-04T08:25:43.293951"}, "geometry": {"coordinates": [-92.201614461, 37.829645167], "type": "Point"}, "id": "VNVqnN0Yzbw4aOPB_l1Ire-gewY=", "properties": {"@spider": "usps_collection_boxes", "addr:city": "WAYNESVILLE", "addr:country": "US", "addr:full": "301 NORTH ST", "addr:postcode": "65583", "addr:state": "MO", "amenity": "post_box", "brand": "United States Postal Service", "brand:wikidata": "Q668687", "collection_times": "Mo-Fr 17:30; Sa 14:00", "name": "USPS COLLECTION BOX - PO LOBBY", "note": "ON 12/24 AND 12/31, THIS BOX MAY BE COLLECTED AS EARLY AS 12 NOON.", "nsi_id": "unitedstatespostalservice-a77078", "operator": "United States Postal Service", "operator:short": "USPS", "operator:type": "public", "operator:wikidata": "Q668687", "ref": "6558300018"}, "type": "Feature"}
{"dataset_attributes": {"@spider": "usps_collection_boxes", "spider:collection_time": "2023-10-04T08:25:43.293951"}, "geometry": {"coordinates": [-92.1426383, 37.808889], "type": "Point"}, "id": "aSqEXQpjBI6kuxc11Z2xBov4gmo=", "properties": {"@spider": "usps_collection_boxes", "addr:city": "FT LEONARD WD", "addr:country": "US", "addr:full": "601 FINCHER WAY", "addr:postcode": "65584", "addr:state": "MO", "amenity": "post_box", "brand": "United States Postal Service", "brand:wikidata": "Q668687", "collection_times": "Mo-Sa 09:00", "name": "USPS COLLECTION BOX - BLUE BOX", "nsi_id": "unitedstatespostalservice-a77078", "operator": "United States Postal Service", "operator:short": "USPS", "operator:type": "public", "operator:wikidata": "Q668687", "ref": "6558400000"}, "type": "Feature"}
{"dataset_attributes": {"@spider": "usps_collection_boxes", "spider:collection_time": "2023-10-04T08:25:43.293951"}, "geometry": {"coordinates": [-92.1417322, 37.819589], "type": "Point"}, "id": "4BrKhDmY9VYlqfrCAxfLPSkA8ps=", "properties": {"@spider": "usps_collection_boxes", "addr:city": "FT LEONARD WD", "addr:country": "US", "addr:full": "220 MISSOURI AVE", "addr:postcode": "65584", "addr:state": "MO", "amenity": "post_box", "brand": "United States Postal Service", "brand:wikidata": "Q668687", "collection_times": "Mo-Sa 09:00", "name": "USPS COLLECTION BOX - BLUE BOX", "nsi_id": "unitedstatespostalservice-a77078", "operator": "United States Postal Service", "operator:short": "USPS", "operator:type": "public", "operator:wikidata": "Q668687", "ref": "6558400002"}, "type": "Feature"}
{"dataset_attributes": {"@spider": "usps_collection_boxes", "spider:collection_time": "2023-10-04T08:25:43.293951"}, "geometry": {"coordinates": [-92.138264, 37.814869], "type": "Point"}, "id": "Sj7Cn82_JZkISjAFP7wG8FkJopk=", "properties": {"@spider": "usps_collection_boxes", "addr:city": "FT LEONARD WD", "addr:country": "US", "addr:full": "194 EASTLAWN AVE", "addr:postcode": "65584", "addr:state": "MO", "amenity": "post_box", "brand": "United States Postal Service", "brand:wikidata": "Q668687", "collection_times": "Mo-Fr 13:45; Sa 09:00", "name": "USPS COLLECTION BOX - BLUE BOX", "note": "ON 12/24 AND 12/31, THIS BOX MAY BE COLLECTED AS EARLY AS 12 NOON.", "nsi_id": "unitedstatespostalservice-a77078", "operator": "United States Postal Service", "operator:short": "USPS", "operator:type": "public", "operator:wikidata": "Q668687", "ref": "6558400003"}, "type": "Feature"}
{"dataset_attributes": {"@spider": "usps_collection_boxes", "spider:collection_time": "2023-10-04T08:25:43.293951"}, "geometry": {"coordinates": [-92.1529558, 37.825874], "type": "Point"}, "id": "8BqrsJ9IP_B9Q_9I3jF8Ik2F1wc=", "properties": {"@spider": "usps_collection_boxes", "addr:city": "FT LEONARD WD", "addr:country": "US", "addr:full": "185 SAINT ROBERT BLVD", "addr:postcode": "65584", "addr:state": "MO", "amenity": "post_box", "brand": "United States Postal Service", "brand:wikidata": "Q668687", "collection_times": "Mo-Sa 10:00", "name": "USPS COLLECTION BOX - BLUE BOX", "nsi_id": "unitedstatespostalservice-a77078", "operator": "United States Postal Service", "operator:short": "USPS", "operator:type": "public", "operator:wikidata": "Q668687", "ref": "6558400005"}, "type": "Feature"}
{"dataset_attributes": {"@spider": "usps_collection_boxes", "spider:collection_time": "2023-10-04T08:25:43.293951"}, "geometry": {"coordinates": [-92.138264, 37.814869], "type": "Point"}, "id": "JxOX3rCPPGfxjBe6DFN8aEYsWmQ=", "properties": {"@spider": "usps_collection_boxes", "addr:city": "FT LEONARD WD", "addr:country": "US", "addr:full": "194 EASTLAWN AVE", "addr:postcode": "65584", "addr:state": "MO", "amenity": "post_box", "brand": "United States Postal Service", "brand:wikidata": "Q668687", "collection_times": "Mo-Fr 13:45; Sa 09:00", "name": "USPS COLLECTION BOX - BLUE BOX", "note": "ON 12/24 AND 12/31, THIS BOX MAY BE COLLECTED AS EARLY AS 12 NOON.", "nsi_id": "unitedstatespostalservice-a77078", "operator": "United States Postal Service", "operator:short": "USPS", "operator:type": "public", "operator:wikidata": "Q668687", "ref": "6558400006"}, "type": "Feature"}
{"dataset_attributes": {"@spider": "usps_collection_boxes", "spider:collection_time": "2023-10-04T08:25:43.293951"}, "geometry": {"coordinates": [-92.138264, 37.814869], "type": "Point"}, "id": "NZHGJGYgMBxvhEVHjvpvdRGBgrE=", "properties": {"@spider": "usps_collection_boxes", "addr:city": "FT LEONARD WD", "addr:country": "US", "addr:full": "194 EASTLAWN AVE", "addr:postcode": "65584", "addr:state": "MO", "amenity": "post_box", "brand": "United States Postal Service", "brand:wikidata": "Q668687", "collection_times": "Mo-Fr 13:45; Sa 09:00", "name": "USPS COLLECTION BOX - PO LOBBY", "note": "ON 12/24 AND 12/31, THIS BOX MAY BE COLLECTED AS EARLY AS 12 NOON.", "nsi_id": "unitedstatespostalservice-a77078", "operator": "United States Postal Service", "operator:short": "USPS", "operator:type": "public", "operator:wikidata": "Q668687", "ref": "6558400007"}, "type": "Feature"}
{"dataset_attributes": {"@spider": "usps_collection_boxes", "spider:collection_time": "2023-10-04T08:25:43.293951"}, "geometry": {"coordinates": [-92.138264, 37.814869], "type": "Point"}, "id": "Ub98N4de_nn1jgYrImh89tPrjXg=", "properties": {"@spider": "usps_collection_boxes", "addr:city": "FT LEONARD WD", "addr:country": "US", "addr:full": "194 EASTLAWN AVE", "addr:postcode": "65584", "addr:state": "MO", "amenity": "post_box", "brand": "United States Postal Service", "brand:wikidata": "Q668687", "collection_times": "Mo-Fr 13:45; Sa 09:00", "name": "USPS COLLECTION BOX - PO LOBBY", "note": "ON 12/24 AND 12/31, THIS BOX MAY BE COLLECTED AS EARLY AS 12 NOON.", "nsi_id": "unitedstatespostalservice-a77078", "operator": "United States Postal Service", "operator:short": "USPS", "operator:type": "public", "operator:wikidata": "Q668687", "ref": "6558400008"}, "type": "Feature"}
{"dataset_attributes": {"@spider": "usps_collection_boxes", "spider:collection_time": "2023-10-04T08:25:43.293951"}, "geometry": {"coordinates": [-92.138311103, 37.814763381], "type": "Point"}, "id": "SPGN2Y_LS5o42aEqMWs5zJ5C7cs=", "properties": {"@spider": "usps_collection_boxes", "addr:city": "FT LEONARD WD", "addr:country": "US", "addr:full": "194 EASTLAWN AVE STE B", "addr:postcode": "65584", "addr:state": "MO", "amenity": "post_box", "brand": "United States Postal Service", "brand:wikidata": "Q668687", "collection_times": "Mo-Fr 14:30", "name": "USPS COLLECTION BOX - PO LOBBY", "note": "ON 12/24 AND 12/31, THIS BOX MAY BE COLLECTED AS EARLY AS 12 NOON.", "nsi_id": "unitedstatespostalservice-a77078", "operator": "United States Postal Service", "operator:short": "USPS", "operator:type": "public", "operator:wikidata": "Q668687", "ref": "6558400009"}, "type": "Feature"}
{"dataset_attributes": {"@spider": "usps_collection_boxes", "spider:collection_time": "2023-10-04T08:25:43.293951"}, "geometry": {"coordinates": [-91.340565611, 37.8489859594], "type": "Point"}, "id": "x8sUJW6GODNVEZOgYmgeXAvZ1Yk=", "properties": {"@spider": "usps_collection_boxes", "addr:city": "WESCO", "addr:country": "US", "addr:full": "494 WESCO RD", "addr:postcode": "65586", "addr:state": "MO", "amenity": "post_box", "brand": "United States Postal Service", "brand:wikidata": "Q668687", "collection_times": "Mo-Sa 09:45", "name": "USPS COLLECTION BOX - BLUE BOX", "nsi_id": "unitedstatespostalservice-a77078", "operator": "United States Postal Service", "operator:short": "USPS", "operator:type": "public", "operator:wikidata": "Q668687", "ref": "6558600000"}, "type": "Feature"}
{"dataset_attributes": {"@spider": "usps_collection_boxes", "spider:collection_time": "2023-10-04T08:25:43.293951"}, "geometry": {"coordinates": [-91.427613253, 37.860724915], "type": "Point"}, "id": "5Gc-BWdqgP6pg_cQFKqpICTa1bs=", "properties": {"@spider": "usps_collection_boxes", "addr:city": "WESCO", "addr:country": "US", "addr:full": "494 WESCO RD", "addr:postcode": "65586", "addr:state": "MO", "amenity": "post_box", "brand": "United States Postal Service", "brand:wikidata": "Q668687", "collection_times": "Mo-Sa 13:00", "name": "USPS COLLECTION BOX - PO LOBBY", "note": "ON 12/24 AND 12/31, THIS BOX MAY BE COLLECTED AS EARLY AS 12 NOON.", "nsi_id": "unitedstatespostalservice-a77078", "operator": "United States Postal Service", "operator:short": "USPS", "operator:type": "public", "operator:wikidata": "Q668687", "ref": "6558600001"}, "type": "Feature"}
{"dataset_attributes": {"@spider": "usps_collection_boxes", "spider:collection_time": "2023-10-04T08:25:43.293951"}, "geometry": {"coordinates": [-91.3259883, 37.007978], "type": "Point"}, "id": "Bh2wHeUozZAMpCqanT4tN5_XXaE=", "properties": {"@spider": "usps_collection_boxes", "addr:city": "WINONA", "addr:country": "US", "addr:full": "102 E 1ST ST", "addr:postcode": "65588", "addr:state": "MO", "amenity": "post_box", "brand": "United States Postal Service", "brand:wikidata": "Q668687", "collection_times": "Mo-Fr 13:00; Sa 09:00", "name": "USPS COLLECTION BOX - BLUE BOX", "note": "ON 12/24 AND 12/31, THIS BOX MAY BE COLLECTED AS EARLY AS 12 NOON.", "nsi_id": "unitedstatespostalservice-a77078", "operator": "United States Postal Service", "operator:short": "USPS", "operator:type": "public", "operator:wikidata": "Q668687", "ref": "6558800000"}, "type": "Feature"}
{"dataset_attributes": {"@spider": "usps_collection_boxes", "spider:collection_time": "2023-10-04T08:25:43.293951"}, "geometry": {"coordinates": [-91.326046, 37.008033], "type": "Point"}, "id": "6HM_S1Cc1stUKTA0S9PzXhPsNhQ=", "properties": {"@spider": "usps_collection_boxes", "addr:city": "WINONA", "addr:country": "US", "addr:full": "102 E 1ST ST", "addr:postcode": "65588", "addr:state": "MO", "amenity": "post_box", "brand": "United States Postal Service", "brand:wikidata": "Q668687", "collection_times": "Mo-Fr 13:00; Sa 09:30", "name": "USPS COLLECTION BOX - PO LOBBY", "note": "ON 12/24 AND 12/31, THIS BOX MAY BE COLLECTED AS EARLY AS 12 NOON.", "nsi_id": "unitedstatespostalservice-a77078", "operator": "United States Postal Service", "operator:short": "USPS", "operator:type": "public", "operator:wikidata": "Q668687", "ref": "6558800002"}, "type": "Feature"}
{"dataset_attributes": {"@spider": "usps_collection_boxes", "spider:collection_time": "2023-10-04T08:25:43.293951"}, "geometry": {"coordinates": [-91.325989222, 37.007999631], "type": "Point"}, "id": "j_W8l-7zuzb-leDIqG6ghFWhIo0=", "properties": {"@spider": "usps_collection_boxes", "addr:city": "WINONA", "addr:country": "US", "addr:full": "102 E 1ST ST", "addr:postcode": "65588", "addr:state": "MO", "amenity": "post_box", "brand": "United States Postal Service", "brand:wikidata": "Q668687", "collection_times": "Mo-Fr 15:45; Sa 09:30", "name": "USPS COLLECTION BOX - PO LOBBY", "note": "ON 12/24 AND 12/31, THIS BOX MAY BE COLLECTED AS EARLY AS 12 NOON.", "nsi_id": "unitedstatespostalservice-a77078", "operator": "United States Postal Service", "operator:short": "USPS", "operator:type": "public", "operator:wikidata": "Q668687", "ref": "6558800004"}, "type": "Feature"}
{"dataset_attributes": {"@spider": "usps_collection_boxes", "spider:collection_time": "2023-10-04T08:25:43.293951"}, "geometry": {"coordinates": [-92.9090792, 37.611533], "type": "Point"}, "id": "-84jFW4oOxzq6s3xmClYYIGrlzQ=", "properties": {"@spider": "usps_collection_boxes", "addr:city": "LONGLANE", "addr:country": "US", "addr:full": "1668 STATE HIGHWAY 32", "addr:postcode": "65590", "addr:state": "MO", "amenity": "post_box", "brand": "United States Postal Service", "brand:wikidata": "Q668687", "collection_times": "Mo-Sa 08:30", "name": "USPS COLLECTION BOX - BLUE BOX", "nsi_id": "unitedstatespostalservice-a77078", "operator": "United States Postal Service", "operator:short": "USPS", "operator:type": "public", "operator:wikidata": "Q668687", "ref": "6559000000"}, "type": "Feature"}
{"dataset_attributes": {"@spider": "usps_collection_boxes", "spider:collection_time": "2023-10-04T08:25:43.293951"}, "geometry": {"coordinates": [-92.592365, 37.969807], "type": "Point"}, "id": "5WSqEvqWCGehogzyjIm8HNo4yks=", "properties": {"@spider": "usps_collection_boxes", "addr:city": "MONTREAL", "addr:country": "US", "addr:full": "4000 STATE RD E", "addr:postcode": "65591", "addr:state": "MO", "amenity": "post_box", "brand": "United States Postal Service", "brand:wikidata": "Q668687", "collection_times": "Mo-Fr 12:30; Sa 11:30", "name": "USPS COLLECTION BOX - PO LOBBY", "note": "ON 12/24 AND 12/31, THIS BOX MAY BE COLLECTED AS EARLY AS 12 NOON.", "nsi_id": "unitedstatespostalservice-a77078", "operator": "United States Postal Service", "operator:short": "USPS", "operator:type": "public", "operator:wikidata": "Q668687", "ref": "6559100001"}, "type": "Feature"}
{"dataset_attributes": {"@spider": "usps_collection_boxes", "spider:collection_time": "2023-10-04T08:25:43.293951"}, "geometry": {"coordinates": [-92.592401, 37.969747], "type": "Point"}, "id": "idlEq0m5r_gVCw4orLvgR3sxotc=", "properties": {"@spider": "usps_collection_boxes", "addr:city": "MONTREAL", "addr:country": "US", "addr:full": "4000 STATE RD E", "addr:postcode": "65591", "addr:state": "MO", "amenity": "post_box", "brand": "United States Postal Service", "brand:wikidata": "Q668687", "collection_times": "Mo-Fr 12:30; Sa 11:30", "name": "USPS COLLECTION BOX - BLUE BOX", "note": "ON 12/24 AND 12/31, THIS BOX MAY BE COLLECTED AS EARLY AS 12 NOON.", "nsi_id": "unitedstatespostalservice-a77078", "operator": "United States Postal Service", "operator:short": "USPS", "operator:type": "public", "operator:wikidata": "Q668687", "ref": "6559100003"}, "type": "Feature"}
{"dataset_attributes": {"@spider": "usps_collection_boxes", "spider:collection_time": "2023-10-04T08:25:43.293951"}, "geometry": {"coordinates": [-92.592406342, 37.968981402], "type": "Point"}, "id": "NU3GG3YOWcLn1rbm8tzwhbTZVtM=", "properties": {"@spider": "usps_collection_boxes", "addr:city": "MONTREAL", "addr:country": "US", "addr:full": "4000 STATE RD E", "addr:postcode": "65591", "addr:state": "MO", "amenity": "post_box", "brand": "United States Postal Service", "brand:wikidata": "Q668687", "collection_times": "Mo-Fr 13:00; Sa 11:45", "name": "USPS COLLECTION BOX - PO LOBBY", "note": "ON 12/24 AND 12/31, THIS BOX MAY BE COLLECTED AS EARLY AS 12 NOON.", "nsi_id": "unitedstatespostalservice-a77078", "operator": "United States Postal Service", "operator:short": "USPS", "operator:type": "public", "operator:wikidata": "Q668687", "ref": "6559100004"}, "type": "Feature"}
