{"dataset_attributes": {"@spider": "usps_collection_boxes"}, "geometry": {"coordinates": [-93.55374, 37.549043], "type": "Point"}, "id": "iJDh6Lba-aD8go6_0t8jbYZ2mmw=", "properties": {"@spider": "usps_collection_boxes", "addr:city": "ALDRICH", "addr:country": "US", "addr:full": "470 COMMERCIAL ST", "addr:postcode": "65601", "addr:state": "MO", "amenity": "post_box", "brand": "United States Postal Service", "brand:wikidata": "Q668687", "collection_times": "Mo-Fr 14:15; Sa 11:15", "name": "USPS COLLECTION BOX - BLUE BOX", "note": "ON 12/24 AND 12/31, THIS BOX MAY BE COLLECTED AS EARLY AS 12 NOON.", "nsi_id": "unitedstatespostalservice-a77078", "operator": "United States Postal Service", "operator:short": "USPS", "operator:type": "public", "operator:wikidata": "Q668687", "ref": "6560100000"}, "type": "Feature"}
{"dataset_attributes": {"@spider": "usps_collection_boxes"}, "geometry": {"coordinates": [-93.554677118, 37.54850131], "type": "Point"}, "id": "JJJ_Y7-CFtsSYTx3_VB0ewDD9Ys=", "properties": {"@spider": "usps_collection_boxes", "addr:city": "ALDRICH", "addr:country": "US", "addr:full": "470 COMMERCIAL ST", "addr:postcode": "65601", "addr:state": "MO", "amenity": "post_box", "brand": "United States Postal Service", "brand:wikidata": "Q668687", "collection_times": "Mo-Fr 14:30; Sa 12:15", "name": "USPS COLLECTION BOX - PO LOBBY", "note": "ON 12/24 AND 12/31, THIS BOX MAY BE COLLECTED AS EARLY AS 12 NOON.", "nsi_id": "unitedstatespostalservice-a77078", "operator": "United States Postal Service", "operator:short": "USPS", "operator:type": "public", "operator:wikidata": "Q668687", "ref": "6560100001"}, "type": "Feature"}
{"dataset_attributes": {"@spider": "usps_collection_boxes"}, "geometry": {"coordinates": [-93.873534, 37.548485], "type": "Point"}, "id": "-Ks0P179ZsshyAPKLMaXX4iNpuc=", "properties": {"@spider": "usps_collection_boxes", "addr:city": "ARCOLA", "addr:country": "US", "addr:full": "102 CHURCH ST", "addr:postcode": "65603", "addr:state": "MO", "amenity": "post_box", "brand": "United States Postal Service", "brand:wikidata": "Q668687", "collection_times": "Mo-Sa 11:30", "name": "USPS COLLECTION BOX - PO LOBBY", "nsi_id": "unitedstatespostalservice-a77078", "operator": "United States Postal Service", "operator:short": "USPS", "operator:type": "public", "operator:wikidata": "Q668687", "ref": "6560300000"}, "type": "Feature"}
{"dataset_attributes": {"@spider": "usps_collection_boxes"}, "geometry": {"coordinates": [-93.585628, 37.315796], "type": "Point"}, "id": "3n5GbqiharXQIx8D5rHlEc7Qa8I=", "properties": {"@spider": "usps_collection_boxes", "addr:city": "ASH GROVE", "addr:country": "US", "addr:full": "102 N TOWER ST", "addr:postcode": "65604", "addr:state": "MO", "amenity": "post_box", "brand": "United States Postal Service", "brand:wikidata": "Q668687", "collection_times": "Mo-Fr 15:30; Sa 10:00", "name": "USPS COLLECTION BOX - BLUE BOX", "note": "ON 12/24 AND 12/31, THIS BOX MAY BE COLLECTED AS EARLY AS 12 NOON.", "nsi_id": "unitedstatespostalservice-a77078", "operator": "United States Postal Service", "operator:short": "USPS", "operator:type": "public", "operator:wikidata": "Q668687", "ref": "6560400000"}, "type": "Feature"}
{"dataset_attributes": {"@spider": "usps_collection_boxes"}, "geometry": {"coordinates": [-93.585713, 37.315733], "type": "Point"}, "id": "U131eHbCVGEjMxze6ItBFe0od64=", "properties": {"@spider": "usps_collection_boxes", "addr:city": "ASH GROVE", "addr:country": "US", "addr:full": "102 N TOWER ST", "addr:postcode": "65604", "addr:state": "MO", "amenity": "post_box", "brand": "United States Postal Service", "brand:wikidata": "Q668687", "collection_times": "Mo-Fr 15:30; Sa 10:00", "name": "USPS COLLECTION BOX - PO LOBBY", "note": "ON 12/24 AND 12/31, THIS BOX MAY BE COLLECTED AS EARLY AS 12 NOON.", "nsi_id": "unitedstatespostalservice-a77078", "operator": "United States Postal Service", "operator:short": "USPS", "operator:type": "public", "operator:wikidata": "Q668687", "ref": "6560400001"}, "type": "Feature"}
{"dataset_attributes": {"@spider": "usps_collection_boxes"}, "geometry": {"coordinates": [-93.585257551, 37.316305363], "type": "Point"}, "id": "3MAzhD7QPMjksFZU8idHLgyo0iA=", "properties": {"@spider": "usps_collection_boxes", "addr:city": "ASH GROVE", "addr:country": "US", "addr:full": "102 N TOWER ST", "addr:postcode": "65604", "addr:state": "MO", "amenity": "post_box", "brand": "United States Postal Service", "brand:wikidata": "Q668687", "collection_times": "Mo-Fr 16:30; Sa 11:00", "name": "USPS COLLECTION BOX - PO LOBBY", "note": "ON 12/24 AND 12/31, THIS BOX MAY BE COLLECTED AS EARLY AS 12 NOON.", "nsi_id": "unitedstatespostalservice-a77078", "operator": "United States Postal Service", "operator:short": "USPS", "operator:type": "public", "operator:wikidata": "Q668687", "ref": "6560400002"}, "type": "Feature"}
{"dataset_attributes": {"@spider": "usps_collection_boxes"}, "geometry": {"coordinates": [-93.719753, 36.975211], "type": "Point"}, "id": "r6JdqSjjqr_ngSeW_kEbOHWPf0Y=", "properties": {"@spider": "usps_collection_boxes", "addr:city": "AURORA", "addr:country": "US", "addr:full": "102 E OLIVE ST", "addr:postcode": "65605", "addr:state": "MO", "amenity": "post_box", "brand": "United States Postal Service", "brand:wikidata": "Q668687", "collection_times": "Mo-Fr 15:30; Sa 14:00", "name": "USPS COLLECTION BOX - BLUE BOX", "note": "ON 12/24 AND 12/31, THIS BOX MAY BE COLLECTED AS EARLY AS 12 NOON.", "nsi_id": "unitedstatespostalservice-a77078", "operator": "United States Postal Service", "operator:short": "USPS", "operator:type": "public", "operator:wikidata": "Q668687", "ref": "6560500000"}, "type": "Feature"}
{"dataset_attributes": {"@spider": "usps_collection_boxes"}, "geometry": {"coordinates": [-93.7156473, 36.946585], "type": "Point"}, "id": "C1Rwa3JIuhfyqDz8RANiYpJR0Ms=", "properties": {"@spider": "usps_collection_boxes", "addr:city": "AURORA", "addr:country": "US", "addr:full": "3020 S ELLIOTT AVE", "addr:postcode": "65605", "addr:state": "MO", "amenity": "post_box", "brand": "United States Postal Service", "brand:wikidata": "Q668687", "collection_times": "Mo-Sa 13:00", "name": "USPS COLLECTION BOX - BLUE BOX", "note": "ON 12/24 AND 12/31, THIS BOX MAY BE COLLECTED AS EARLY AS 12 NOON.", "nsi_id": "unitedstatespostalservice-a77078", "operator": "United States Postal Service", "operator:short": "USPS", "operator:type": "public", "operator:wikidata": "Q668687", "ref": "6560500013"}, "type": "Feature"}
{"dataset_attributes": {"@spider": "usps_collection_boxes"}, "geometry": {"coordinates": [-93.719811, 36.97524], "type": "Point"}, "id": "5qNPVk4sncNpf_-3NXisPAkppyc=", "properties": {"@spider": "usps_collection_boxes", "addr:city": "AURORA", "addr:country": "US", "addr:full": "102 E OLIVE ST", "addr:postcode": "65605", "addr:state": "MO", "amenity": "post_box", "brand": "United States Postal Service", "brand:wikidata": "Q668687", "collection_times": "Mo-Fr 15:30; Sa 14:00", "name": "USPS COLLECTION BOX - PO LOBBY", "note": "ON 12/24 AND 12/31, THIS BOX MAY BE COLLECTED AS EARLY AS 12 NOON.", "nsi_id": "unitedstatespostalservice-a77078", "operator": "United States Postal Service", "operator:short": "USPS", "operator:type": "public", "operator:wikidata": "Q668687", "ref": "6560500014"}, "type": "Feature"}
{"dataset_attributes": {"@spider": "usps_collection_boxes"}, "geometry": {"coordinates": [-93.719735134, 36.975162221], "type": "Point"}, "id": "yyd1zcyFfAeBA5DuWrzq1TGF_w4=", "properties": {"@spider": "usps_collection_boxes", "addr:city": "AURORA", "addr:country": "US", "addr:full": "102 E OLIVE ST", "addr:postcode": "65605", "addr:state": "MO", "amenity": "post_box", "brand": "United States Postal Service", "brand:wikidata": "Q668687", "collection_times": "Mo-Fr 16:30; Sa 12:00", "name": "USPS COLLECTION BOX - PO LOBBY", "note": "ON 12/24 AND 12/31, THIS BOX MAY BE COLLECTED AS EARLY AS 12 NOON.", "nsi_id": "unitedstatespostalservice-a77078", "operator": "United States Postal Service", "operator:short": "USPS", "operator:type": "public", "operator:wikidata": "Q668687", "ref": "6560500017"}, "type": "Feature"}
{"dataset_attributes": {"@spider": "usps_collection_boxes"}, "geometry": {"coordinates": [-91.397657, 36.694731], "type": "Point"}, "id": "4rAFZCg76_DwcC6r5KlrRk-9vhs=", "properties": {"@spider": "usps_collection_boxes", "addr:city": "ALTON", "addr:country": "US", "addr:full": "198 MAIN ST", "addr:postcode": "65606", "addr:state": "MO", "amenity": "post_box", "brand": "United States Postal Service", "brand:wikidata": "Q668687", "collection_times": "Mo-Fr 12:30; Sa 11:00", "name": "USPS COLLECTION BOX - BLUE BOX", "note": "ON 12/24 AND 12/31, THIS BOX MAY BE COLLECTED AS EARLY AS 12 NOON.", "nsi_id": "unitedstatespostalservice-a77078", "operator": "United States Postal Service", "operator:short": "USPS", "operator:type": "public", "operator:wikidata": "Q668687", "ref": "6560600000"}, "type": "Feature"}
{"dataset_attributes": {"@spider": "usps_collection_boxes"}, "geometry": {"coordinates": [-91.397657, 36.694731], "type": "Point"}, "id": "dRQCMfPro1ZGbhZPckrJUDcxAqA=", "properties": {"@spider": "usps_collection_boxes", "addr:city": "ALTON", "addr:country": "US", "addr:full": "198 MAIN ST", "addr:postcode": "65606", "addr:state": "MO", "amenity": "post_box", "brand": "United States Postal Service", "brand:wikidata": "Q668687", "collection_times": "Mo-Fr 12:30; Sa 11:00", "name": "USPS COLLECTION BOX - PO LOBBY", "note": "ON 12/24 AND 12/31, THIS BOX MAY BE COLLECTED AS EARLY AS 12 NOON.", "nsi_id": "unitedstatespostalservice-a77078", "operator": "United States Postal Service", "operator:short": "USPS", "operator:type": "public", "operator:wikidata": "Q668687", "ref": "6560600004"}, "type": "Feature"}
{"dataset_attributes": {"@spider": "usps_collection_boxes"}, "geometry": {"coordinates": [-91.397657, 36.694731], "type": "Point"}, "id": "HBzQ85M92OE8VvqU153r4Y1Dww0=", "properties": {"@spider": "usps_collection_boxes", "addr:city": "ALTON", "addr:country": "US", "addr:full": "198 MAIN ST", "addr:postcode": "65606", "addr:state": "MO", "amenity": "post_box", "brand": "United States Postal Service", "brand:wikidata": "Q668687", "collection_times": "Mo-Fr 12:30; Sa 11:00", "name": "USPS COLLECTION BOX - PO LOBBY", "note": "ON 12/24 AND 12/31, THIS BOX MAY BE COLLECTED AS EARLY AS 12 NOON.", "nsi_id": "unitedstatespostalservice-a77078", "operator": "United States Postal Service", "operator:short": "USPS", "operator:type": "public", "operator:wikidata": "Q668687", "ref": "6560600005"}, "type": "Feature"}
{"dataset_attributes": {"@spider": "usps_collection_boxes"}, "geometry": {"coordinates": [-91.397664153, 36.694793465], "type": "Point"}, "id": "DWv8DakVAO1BENCBZPClpwT1RuM=", "properties": {"@spider": "usps_collection_boxes", "addr:city": "ALTON", "addr:country": "US", "addr:full": "198 MAIN ST", "addr:postcode": "65606", "addr:state": "MO", "amenity": "post_box", "brand": "United States Postal Service", "brand:wikidata": "Q668687", "collection_times": "Mo-Fr 16:00; Sa 12:00", "name": "USPS COLLECTION BOX - PO LOBBY", "note": "ON 12/24 AND 12/31, THIS BOX MAY BE COLLECTED AS EARLY AS 12 NOON.", "nsi_id": "unitedstatespostalservice-a77078", "operator": "United States Postal Service", "operator:short": "USPS", "operator:type": "public", "operator:wikidata": "Q668687", "ref": "6560600006"}, "type": "Feature"}
{"dataset_attributes": {"@spider": "usps_collection_boxes"}, "geometry": {"coordinates": [-92.6766382, 36.959965], "type": "Point"}, "id": "v2XSupIG3AYmDtYZkeYT34_sm3c=", "properties": {"@spider": "usps_collection_boxes", "addr:city": "AVA", "addr:country": "US", "addr:full": "RR 3 BOX 587", "addr:postcode": "65608", "addr:state": "MO", "amenity": "post_box", "brand": "United States Postal Service", "brand:wikidata": "Q668687", "collection_times": "Mo-Sa 13:30", "name": "USPS COLLECTION BOX - BLUE BOX", "note": "ON 12/24 AND 12/31, THIS BOX MAY BE COLLECTED AS EARLY AS 12 NOON.", "nsi_id": "unitedstatespostalservice-a77078", "operator": "United States Postal Service", "operator:short": "USPS", "operator:type": "public", "operator:wikidata": "Q668687", "ref": "6560800001"}, "type": "Feature"}
{"dataset_attributes": {"@spider": "usps_collection_boxes"}, "geometry": {"coordinates": [-92.66391, 36.952637], "type": "Point"}, "id": "nHSjDxcUp8cON0Sfy2S3nRdMthI=", "properties": {"@spider": "usps_collection_boxes", "addr:city": "AVA", "addr:country": "US", "addr:full": "499 W WASHINGTON AVE", "addr:postcode": "65608", "addr:state": "MO", "amenity": "post_box", "brand": "United States Postal Service", "brand:wikidata": "Q668687", "collection_times": "Mo-Fr 14:30; Sa 11:00", "name": "USPS COLLECTION BOX - PO LOBBY", "note": "ON 12/24 AND 12/31, THIS BOX MAY BE COLLECTED AS EARLY AS 12 NOON.", "nsi_id": "unitedstatespostalservice-a77078", "operator": "United States Postal Service", "operator:short": "USPS", "operator:type": "public", "operator:wikidata": "Q668687", "ref": "6560800002"}, "type": "Feature"}
{"dataset_attributes": {"@spider": "usps_collection_boxes"}, "geometry": {"coordinates": [-92.66394, 36.95267], "type": "Point"}, "id": "LSdKqMgvxv4DN5g6ME2vcpd2iR0=", "properties": {"@spider": "usps_collection_boxes", "addr:city": "AVA", "addr:country": "US", "addr:full": "499 W WASHINGTON AVE", "addr:postcode": "65608", "addr:state": "MO", "amenity": "post_box", "brand": "United States Postal Service", "brand:wikidata": "Q668687", "collection_times": "Mo-Fr 14:30; Sa 11:00", "name": "USPS COLLECTION BOX - PO LOBBY", "note": "ON 12/24 AND 12/31, THIS BOX MAY BE COLLECTED AS EARLY AS 12 NOON.", "nsi_id": "unitedstatespostalservice-a77078", "operator": "United States Postal Service", "operator:short": "USPS", "operator:type": "public", "operator:wikidata": "Q668687", "ref": "6560800003"}, "type": "Feature"}
{"dataset_attributes": {"@spider": "usps_collection_boxes"}, "geometry": {"coordinates": [-92.66394, 36.95267], "type": "Point"}, "id": "UG6vQwMHO8M7CNrQiJNO1-QPLgk=", "properties": {"@spider": "usps_collection_boxes", "addr:city": "AVA", "addr:country": "US", "addr:full": "499 W WASHINGTON AVE", "addr:postcode": "65608", "addr:state": "MO", "amenity": "post_box", "brand": "United States Postal Service", "brand:wikidata": "Q668687", "collection_times": "Mo-Fr 14:30; Sa 11:00", "name": "USPS COLLECTION BOX - PO LOBBY", "note": "ON 12/24 AND 12/31, THIS BOX MAY BE COLLECTED AS EARLY AS 12 NOON.", "nsi_id": "unitedstatespostalservice-a77078", "operator": "United States Postal Service", "operator:short": "USPS", "operator:type": "public", "operator:wikidata": "Q668687", "ref": "6560800004"}, "type": "Feature"}
{"dataset_attributes": {"@spider": "usps_collection_boxes"}, "geometry": {"coordinates": [-92.66394, 36.95267], "type": "Point"}, "id": "mCGJGTSX_xm-4PwViGhyyeqqaoE=", "properties": {"@spider": "usps_collection_boxes", "addr:city": "AVA", "addr:country": "US", "addr:full": "499 W WASHINGTON AVE", "addr:postcode": "65608", "addr:state": "MO", "amenity": "post_box", "brand": "United States Postal Service", "brand:wikidata": "Q668687", "collection_times": "Mo-Fr 14:30; Sa 11:00", "name": "USPS COLLECTION BOX - PO LOBBY", "note": "ON 12/24 AND 12/31, THIS BOX MAY BE COLLECTED AS EARLY AS 12 NOON.", "nsi_id": "unitedstatespostalservice-a77078", "operator": "United States Postal Service", "operator:short": "USPS", "operator:type": "public", "operator:wikidata": "Q668687", "ref": "6560800006"}, "type": "Feature"}
{"dataset_attributes": {"@spider": "usps_collection_boxes"}, "geometry": {"coordinates": [-92.66389051, 36.952634899], "type": "Point"}, "id": "a4PFKVbwB4psURlDFLs3CTq3hI0=", "properties": {"@spider": "usps_collection_boxes", "addr:city": "AVA", "addr:country": "US", "addr:full": "499 W WASHINGTON AVE", "addr:postcode": "65608", "addr:state": "MO", "amenity": "post_box", "brand": "United States Postal Service", "brand:wikidata": "Q668687", "collection_times": "Mo-Fr 16:30; Sa 11:00", "name": "USPS COLLECTION BOX - PO LOBBY", "note": "ON 12/24 AND 12/31, THIS BOX MAY BE COLLECTED AS EARLY AS 12 NOON.", "nsi_id": "unitedstatespostalservice-a77078", "operator": "United States Postal Service", "operator:short": "USPS", "operator:type": "public", "operator:wikidata": "Q668687", "ref": "6560800008"}, "type": "Feature"}
{"dataset_attributes": {"@spider": "usps_collection_boxes"}, "geometry": {"coordinates": [-92.143398, 36.52251], "type": "Point"}, "id": "DMdKVmMPb31fR41y5RqaCw4T9cg=", "properties": {"@spider": "usps_collection_boxes", "addr:city": "BAKERSFIELD", "addr:country": "US", "addr:full": "56 MAIN ST", "addr:postcode": "65609", "addr:state": "MO", "amenity": "post_box", "brand": "United States Postal Service", "brand:wikidata": "Q668687", "collection_times": "Mo-Fr 11:30; Sa 11:00", "name": "USPS COLLECTION BOX - PO LOBBY", "nsi_id": "unitedstatespostalservice-a77078", "operator": "United States Postal Service", "operator:short": "USPS", "operator:type": "public", "operator:wikidata": "Q668687", "ref": "6560900001"}, "type": "Feature"}
{"dataset_attributes": {"@spider": "usps_collection_boxes"}, "geometry": {"coordinates": [-92.143398, 36.52251], "type": "Point"}, "id": "n9lV3kZTwxQ7m4wfFemCS5clOrc=", "properties": {"@spider": "usps_collection_boxes", "addr:city": "BAKERSFIELD", "addr:country": "US", "addr:full": "56 MAIN ST", "addr:postcode": "65609", "addr:state": "MO", "amenity": "post_box", "brand": "United States Postal Service", "brand:wikidata": "Q668687", "collection_times": "Mo-Fr 11:30; Sa 11:00", "name": "USPS COLLECTION BOX - BLUE BOX", "nsi_id": "unitedstatespostalservice-a77078", "operator": "United States Postal Service", "operator:short": "USPS", "operator:type": "public", "operator:wikidata": "Q668687", "ref": "6560900002"}, "type": "Feature"}
{"dataset_attributes": {"@spider": "usps_collection_boxes"}, "geometry": {"coordinates": [-93.554894, 37.06565], "type": "Point"}, "id": "bJ2ZaMJ6H_hihtCWAr2S84BGH8A=", "properties": {"@spider": "usps_collection_boxes", "addr:city": "BILLINGS", "addr:country": "US", "addr:full": "109 NE US HIGHWAY 60", "addr:postcode": "65610", "addr:state": "MO", "amenity": "post_box", "brand": "United States Postal Service", "brand:wikidata": "Q668687", "collection_times": "Mo-Fr 15:30; Sa 10:30", "name": "USPS COLLECTION BOX - BLUE BOX", "note": "ON 12/24 AND 12/31, THIS BOX MAY BE COLLECTED AS EARLY AS 12 NOON.", "nsi_id": "unitedstatespostalservice-a77078", "operator": "United States Postal Service", "operator:short": "USPS", "operator:type": "public", "operator:wikidata": "Q668687", "ref": "6561000001"}, "type": "Feature"}
{"dataset_attributes": {"@spider": "usps_collection_boxes"}, "geometry": {"coordinates": [-93.554985, 37.065615], "type": "Point"}, "id": "IYuurs5cg-h9FtVQFU1cj2Y0bbw=", "properties": {"@spider": "usps_collection_boxes", "addr:city": "BILLINGS", "addr:country": "US", "addr:full": "109 NE US HIGHWAY 60", "addr:postcode": "65610", "addr:state": "MO", "amenity": "post_box", "brand": "United States Postal Service", "brand:wikidata": "Q668687", "collection_times": "Mo-Fr 15:30; Sa 10:30", "name": "USPS COLLECTION BOX - PO LOBBY", "note": "ON 12/24 AND 12/31, THIS BOX MAY BE COLLECTED AS EARLY AS 12 NOON.", "nsi_id": "unitedstatespostalservice-a77078", "operator": "United States Postal Service", "operator:short": "USPS", "operator:type": "public", "operator:wikidata": "Q668687", "ref": "6561000005"}, "type": "Feature"}
{"dataset_attributes": {"@spider": "usps_collection_boxes"}, "geometry": {"coordinates": [-93.554902238, 37.065592995], "type": "Point"}, "id": "sm6CUPcydO22W94v2Y2-lMhTq6A=", "properties": {"@spider": "usps_collection_boxes", "addr:city": "BILLINGS", "addr:country": "US", "addr:full": "109 NE US HIGHWAY 60", "addr:postcode": "65610", "addr:state": "MO", "amenity": "post_box", "brand": "United States Postal Service", "brand:wikidata": "Q668687", "collection_times": "Mo-Fr 16:30; Sa 12:30", "name": "USPS COLLECTION BOX - PO LOBBY", "note": "ON 12/24 AND 12/31, THIS BOX MAY BE COLLECTED AS EARLY AS 12 NOON.", "nsi_id": "unitedstatespostalservice-a77078", "operator": "United States Postal Service", "operator:short": "USPS", "operator:type": "public", "operator:wikidata": "Q668687", "ref": "6561000006"}, "type": "Feature"}
{"dataset_attributes": {"@spider": "usps_collection_boxes"}, "geometry": {"coordinates": [-93.397389, 36.499366], "type": "Point"}, "id": "r6JmBUgQ4_aSnadvC-AQ11d1a_A=", "properties": {"@spider": "usps_collection_boxes", "addr:city": "BLUE EYE", "addr:country": "US", "addr:full": "112 STATE HIGHWAY 13", "addr:postcode": "65611", "addr:state": "MO", "amenity": "post_box", "brand": "United States Postal Service", "brand:wikidata": "Q668687", "collection_times": "Mo-Fr 13:30; Sa 10:45", "name": "USPS COLLECTION BOX - BLUE BOX", "note": "ON 12/24 AND 12/31, THIS BOX MAY BE COLLECTED AS EARLY AS 12 NOON.", "nsi_id": "unitedstatespostalservice-a77078", "operator": "United States Postal Service", "operator:short": "USPS", "operator:type": "public", "operator:wikidata": "Q668687", "ref": "6561100000"}, "type": "Feature"}
{"dataset_attributes": {"@spider": "usps_collection_boxes"}, "geometry": {"coordinates": [-93.39742, 36.499397], "type": "Point"}, "id": "a4FjZocC8xP7DESOLhY0VBQoiAI=", "properties": {"@spider": "usps_collection_boxes", "addr:city": "BLUE EYE", "addr:country": "US", "addr:full": "112 STATE HIGHWAY 13", "addr:postcode": "65611", "addr:state": "MO", "amenity": "post_box", "brand": "United States Postal Service", "brand:wikidata": "Q668687", "collection_times": "Mo-Fr 13:30; Sa 10:45", "name": "USPS COLLECTION BOX - PO LOBBY", "note": "ON 12/24 AND 12/31, THIS BOX MAY BE COLLECTED AS EARLY AS 12 NOON.", "nsi_id": "unitedstatespostalservice-a77078", "operator": "United States Postal Service", "operator:short": "USPS", "operator:type": "public", "operator:wikidata": "Q668687", "ref": "6561100002"}, "type": "Feature"}
{"dataset_attributes": {"@spider": "usps_collection_boxes"}, "geometry": {"coordinates": [-93.397396334, 36.498942], "type": "Point"}, "id": "aSGph70gEzXJo74ADIedU3eK5lg=", "properties": {"@spider": "usps_collection_boxes", "addr:city": "BLUE EYE", "addr:country": "US", "addr:full": "112 STATE HIGHWAY 13", "addr:postcode": "65611", "addr:state": "MO", "amenity": "post_box", "brand": "United States Postal Service", "brand:wikidata": "Q668687", "collection_times": "Mo-Fr 15:30; Sa 11:00", "name": "USPS COLLECTION BOX - PO LOBBY", "note": "ON 12/24 AND 12/31, THIS BOX MAY BE COLLECTED AS EARLY AS 12 NOON.", "nsi_id": "unitedstatespostalservice-a77078", "operator": "United States Postal Service", "operator:short": "USPS", "operator:type": "public", "operator:wikidata": "Q668687", "ref": "6561100004"}, "type": "Feature"}
{"dataset_attributes": {"@spider": "usps_collection_boxes"}, "geometry": {"coordinates": [-93.507535, 37.256179], "type": "Point"}, "id": "ovA14wSWRTeVNLKgM8nQyHY4yhQ=", "properties": {"@spider": "usps_collection_boxes", "addr:city": "BOIS D ARC", "addr:country": "US", "addr:full": "10507 W STATE HIGHWAY T", "addr:postcode": "65612", "addr:state": "MO", "amenity": "post_box", "brand": "United States Postal Service", "brand:wikidata": "Q668687", "collection_times": "Mo-Fr 14:30; Sa 09:30", "name": "USPS COLLECTION BOX - BLUE BOX", "note": "ON 12/24 AND 12/31, THIS BOX MAY BE COLLECTED AS EARLY AS 12 NOON.", "nsi_id": "unitedstatespostalservice-a77078", "operator": "United States Postal Service", "operator:short": "USPS", "operator:type": "public", "operator:wikidata": "Q668687", "ref": "6561200000"}, "type": "Feature"}
{"dataset_attributes": {"@spider": "usps_collection_boxes"}, "geometry": {"coordinates": [-93.507504, 37.25611], "type": "Point"}, "id": "JO9UJTQtckWvkXe8daiC5muLXek=", "properties": {"@spider": "usps_collection_boxes", "addr:city": "BOIS D ARC", "addr:country": "US", "addr:full": "10507 W STATE HIGHWAY T", "addr:postcode": "65612", "addr:state": "MO", "amenity": "post_box", "brand": "United States Postal Service", "brand:wikidata": "Q668687", "collection_times": "Mo-Fr 14:30; Sa 09:30", "name": "USPS COLLECTION BOX - PO LOBBY", "note": "ON 12/24 AND 12/31, THIS BOX MAY BE COLLECTED AS EARLY AS 12 NOON.", "nsi_id": "unitedstatespostalservice-a77078", "operator": "United States Postal Service", "operator:short": "USPS", "operator:type": "public", "operator:wikidata": "Q668687", "ref": "6561200002"}, "type": "Feature"}
{"dataset_attributes": {"@spider": "usps_collection_boxes"}, "geometry": {"coordinates": [-93.4043177, 37.596595], "type": "Point"}, "id": "J8HUVsuxC5LmwzNzOIpgEiOP_6g=", "properties": {"@spider": "usps_collection_boxes", "addr:city": "BOLIVAR", "addr:country": "US", "addr:full": "800 E ALDRICH RD", "addr:postcode": "65613", "addr:state": "MO", "amenity": "post_box", "brand": "United States Postal Service", "brand:wikidata": "Q668687", "collection_times": "Mo-Sa 10:00", "name": "USPS COLLECTION BOX - BLUE BOX", "nsi_id": "unitedstatespostalservice-a77078", "operator": "United States Postal Service", "operator:short": "USPS", "operator:type": "public", "operator:wikidata": "Q668687", "ref": "6561300006"}, "type": "Feature"}
{"dataset_attributes": {"@spider": "usps_collection_boxes"}, "geometry": {"coordinates": [-93.410769, 37.612152], "type": "Point"}, "id": "yRt8U0owl1ZOU8btLXYBTvGZkTw=", "properties": {"@spider": "usps_collection_boxes", "addr:city": "BOLIVAR", "addr:country": "US", "addr:full": "328 S MAIN AVE", "addr:postcode": "65613", "addr:state": "MO", "amenity": "post_box", "brand": "United States Postal Service", "brand:wikidata": "Q668687", "collection_times": "Mo-Sa 15:15", "name": "USPS COLLECTION BOX - PO LOBBY", "note": "ON 12/24 AND 12/31, THIS BOX MAY BE COLLECTED AS EARLY AS 12 NOON.", "nsi_id": "unitedstatespostalservice-a77078", "operator": "United States Postal Service", "operator:short": "USPS", "operator:type": "public", "operator:wikidata": "Q668687", "ref": "6561300007"}, "type": "Feature"}
{"dataset_attributes": {"@spider": "usps_collection_boxes"}, "geometry": {"coordinates": [-93.410769, 37.612152], "type": "Point"}, "id": "3E-CIV33x_JOM0NxPmM_I75qR7A=", "properties": {"@spider": "usps_collection_boxes", "addr:city": "BOLIVAR", "addr:country": "US", "addr:full": "328 S MAIN AVE", "addr:postcode": "65613", "addr:state": "MO", "amenity": "post_box", "brand": "United States Postal Service", "brand:wikidata": "Q668687", "collection_times": "Mo-Sa 15:15", "name": "USPS COLLECTION BOX - PO LOBBY", "note": "ON 12/24 AND 12/31, THIS BOX MAY BE COLLECTED AS EARLY AS 12 NOON.", "nsi_id": "unitedstatespostalservice-a77078", "operator": "United States Postal Service", "operator:short": "USPS", "operator:type": "public", "operator:wikidata": "Q668687", "ref": "6561300008"}, "type": "Feature"}
{"dataset_attributes": {"@spider": "usps_collection_boxes"}, "geometry": {"coordinates": [-93.410825266, 37.612141138], "type": "Point"}, "id": "yt-t3-8PFn3Pl7uS0yQSFm5dhXQ=", "properties": {"@spider": "usps_collection_boxes", "addr:city": "BOLIVAR", "addr:country": "US", "addr:full": "328 S MAIN AVE", "addr:postcode": "65613", "addr:state": "MO", "amenity": "post_box", "brand": "United States Postal Service", "brand:wikidata": "Q668687", "collection_times": "Mo-Fr 16:45; Sa 13:30", "name": "USPS COLLECTION BOX - PO LOBBY", "note": "ON 12/24 AND 12/31, THIS BOX MAY BE COLLECTED AS EARLY AS 12 NOON.", "nsi_id": "unitedstatespostalservice-a77078", "operator": "United States Postal Service", "operator:short": "USPS", "operator:type": "public", "operator:wikidata": "Q668687", "ref": "6561300010"}, "type": "Feature"}
{"dataset_attributes": {"@spider": "usps_collection_boxes"}, "geometry": {"coordinates": [-92.911207, 36.781292], "type": "Point"}, "id": "Ym60H3EBYnkP8bgPz_ussMgh2j4=", "properties": {"@spider": "usps_collection_boxes", "addr:city": "BRADLEYVILLE", "addr:country": "US", "addr:full": "25856 STATE HIGHWAY 76", "addr:postcode": "65614", "addr:state": "MO", "amenity": "post_box", "brand": "United States Postal Service", "brand:wikidata": "Q668687", "collection_times": "Mo-Fr 13:30; Sa 09:45", "name": "USPS COLLECTION BOX - BLUE BOX", "note": "ON 12/24 AND 12/31, THIS BOX MAY BE COLLECTED AS EARLY AS 12 NOON.", "nsi_id": "unitedstatespostalservice-a77078", "operator": "United States Postal Service", "operator:short": "USPS", "operator:type": "public", "operator:wikidata": "Q668687", "ref": "6561400000"}, "type": "Feature"}
{"dataset_attributes": {"@spider": "usps_collection_boxes"}, "geometry": {"coordinates": [-92.911134, 36.781305], "type": "Point"}, "id": "VfCSx9KLDmVdbNaMs2XsD4wNsWM=", "properties": {"@spider": "usps_collection_boxes", "addr:city": "BRADLEYVILLE", "addr:country": "US", "addr:full": "25856 STATE HIGHWAY 76", "addr:postcode": "65614", "addr:state": "MO", "amenity": "post_box", "brand": "United States Postal Service", "brand:wikidata": "Q668687", "collection_times": "Mo-Fr 11:45; Sa 09:45", "name": "USPS COLLECTION BOX - PO LOBBY", "nsi_id": "unitedstatespostalservice-a77078", "operator": "United States Postal Service", "operator:short": "USPS", "operator:type": "public", "operator:wikidata": "Q668687", "ref": "6561400002"}, "type": "Feature"}
{"dataset_attributes": {"@spider": "usps_collection_boxes"}, "geometry": {"coordinates": [-92.911178959, 36.781275868], "type": "Point"}, "id": "JJgz1T0hOVbwXlnPHMVV1DFTDpI=", "properties": {"@spider": "usps_collection_boxes", "addr:city": "BRADLEYVILLE", "addr:country": "US", "addr:full": "25856 STATE HIGHWAY 76", "addr:postcode": "65614", "addr:state": "MO", "amenity": "post_box", "brand": "United States Postal Service", "brand:wikidata": "Q668687", "collection_times": "Mo-Fr 13:45; Sa 16:00", "name": "USPS COLLECTION BOX - PO LOBBY", "note": "ON 12/24 AND 12/31, THIS BOX MAY BE COLLECTED AS EARLY AS 12 NOON.", "nsi_id": "unitedstatespostalservice-a77078", "operator": "United States Postal Service", "operator:short": "USPS", "operator:type": "public", "operator:wikidata": "Q668687", "ref": "6561400003"}, "type": "Feature"}
{"dataset_attributes": {"@spider": "usps_collection_boxes"}, "geometry": {"coordinates": [-93.2854242, 36.64337], "type": "Point"}, "id": "NGM-6j9OIKUZCGgqcPC2xlfgYYw=", "properties": {"@spider": "usps_collection_boxes", "addr:city": "BRANSON", "addr:country": "US", "addr:full": "3460 W 76 COUNTRY BLVD", "addr:postcode": "65616", "addr:state": "MO", "amenity": "post_box", "brand": "United States Postal Service", "brand:wikidata": "Q668687", "collection_times": "Mo-Sa 10:00", "name": "USPS COLLECTION BOX - BLUE BOX", "nsi_id": "unitedstatespostalservice-a77078", "operator": "United States Postal Service", "operator:short": "USPS", "operator:type": "public", "operator:wikidata": "Q668687", "ref": "6561600000"}, "type": "Feature"}
{"dataset_attributes": {"@spider": "usps_collection_boxes"}, "geometry": {"coordinates": [-93.2294264, 36.612159], "type": "Point"}, "id": "cgtYhTO4kDAOEwWqz2JYxfGUjzM=", "properties": {"@spider": "usps_collection_boxes", "addr:city": "BRANSON", "addr:country": "US", "addr:full": "14159 ST HWY 65", "addr:postcode": "65616", "addr:state": "MO", "amenity": "post_box", "brand": "United States Postal Service", "brand:wikidata": "Q668687", "collection_times": "Mo-Sa 10:00", "name": "USPS COLLECTION BOX - BLUE BOX", "nsi_id": "unitedstatespostalservice-a77078", "operator": "United States Postal Service", "operator:short": "USPS", "operator:type": "public", "operator:wikidata": "Q668687", "ref": "6561600003"}, "type": "Feature"}
{"dataset_attributes": {"@spider": "usps_collection_boxes"}, "geometry": {"coordinates": [-93.2608694, 36.639835], "type": "Point"}, "id": "XXmmk9fYxfolt-JlS1eLrwqIA98=", "properties": {"@spider": "usps_collection_boxes", "addr:city": "BRANSON", "addr:country": "US", "addr:full": "2210 W HIGHWAY 76", "addr:postcode": "65616", "addr:state": "MO", "amenity": "post_box", "brand": "United States Postal Service", "brand:wikidata": "Q668687", "collection_times": "Mo-Sa 10:15", "name": "USPS COLLECTION BOX - BLUE BOX", "nsi_id": "unitedstatespostalservice-a77078", "operator": "United States Postal Service", "operator:short": "USPS", "operator:type": "public", "operator:wikidata": "Q668687", "ref": "6561600011"}, "type": "Feature"}
{"dataset_attributes": {"@spider": "usps_collection_boxes"}, "geometry": {"coordinates": [-93.2395595, 36.640148], "type": "Point"}, "id": "uZ6cIV96HUuQYMN4r9PvewuWDdg=", "properties": {"@spider": "usps_collection_boxes", "addr:city": "BRANSON", "addr:country": "US", "addr:full": "1208 W HIGHWAY 76", "addr:postcode": "65616", "addr:state": "MO", "amenity": "post_box", "brand": "United States Postal Service", "brand:wikidata": "Q668687", "collection_times": "Mo-Sa 09:45", "name": "USPS COLLECTION BOX - BLUE BOX", "nsi_id": "unitedstatespostalservice-a77078", "operator": "United States Postal Service", "operator:short": "USPS", "operator:type": "public", "operator:wikidata": "Q668687", "ref": "6561600012"}, "type": "Feature"}
{"dataset_attributes": {"@spider": "usps_collection_boxes"}, "geometry": {"coordinates": [-93.2171995, 36.644182], "type": "Point"}, "id": "YZmA_msNYUgAitg0lFpgv9Y8ATM=", "properties": {"@spider": "usps_collection_boxes", "addr:city": "BRANSON", "addr:country": "US", "addr:full": "101 W MAIN ST", "addr:postcode": "65616", "addr:state": "MO", "amenity": "post_box", "brand": "United States Postal Service", "brand:wikidata": "Q668687", "collection_times": "Mo-Sa 11:00", "name": "USPS COLLECTION BOX - BLUE BOX", "nsi_id": "unitedstatespostalservice-a77078", "operator": "United States Postal Service", "operator:short": "USPS", "operator:type": "public", "operator:wikidata": "Q668687", "ref": "6561600015"}, "type": "Feature"}
{"dataset_attributes": {"@spider": "usps_collection_boxes"}, "geometry": {"coordinates": [-93.2155049, 36.67262], "type": "Point"}, "id": "edyKeN971P0QIi4Xi-IwUWMyRcU=", "properties": {"@spider": "usps_collection_boxes", "addr:city": "BRANSON", "addr:country": "US", "addr:full": "7800 COZY COVE RD", "addr:postcode": "65616", "addr:state": "MO", "amenity": "post_box", "brand": "United States Postal Service", "brand:wikidata": "Q668687", "collection_times": "Mo-Sa 10:00", "name": "USPS COLLECTION BOX - BLUE BOX", "nsi_id": "unitedstatespostalservice-a77078", "operator": "United States Postal Service", "operator:short": "USPS", "operator:type": "public", "operator:wikidata": "Q668687", "ref": "6561600016"}, "type": "Feature"}
{"dataset_attributes": {"@spider": "usps_collection_boxes"}, "geometry": {"coordinates": [-93.2887649, 36.653276], "type": "Point"}, "id": "r09t8XRYUQJW4Eny8mQl6iPaKxo=", "properties": {"@spider": "usps_collection_boxes", "addr:city": "BRANSON", "addr:country": "US", "addr:full": "1 TREASURE LAKE DR", "addr:postcode": "65616", "addr:state": "MO", "amenity": "post_box", "brand": "United States Postal Service", "brand:wikidata": "Q668687", "collection_times": "Mo-Sa 10:00", "name": "USPS COLLECTION BOX - BLUE BOX", "nsi_id": "unitedstatespostalservice-a77078", "operator": "United States Postal Service", "operator:short": "USPS", "operator:type": "public", "operator:wikidata": "Q668687", "ref": "6561600017"}, "type": "Feature"}
{"dataset_attributes": {"@spider": "usps_collection_boxes"}, "geometry": {"coordinates": [-93.2835893, 36.605758], "type": "Point"}, "id": "rzLJ7QDUhwscBrbL3k8WFFVHjpA=", "properties": {"@spider": "usps_collection_boxes", "addr:city": "BRANSON", "addr:country": "US", "addr:full": "1 FALL CREEK DR", "addr:postcode": "65616", "addr:state": "MO", "amenity": "post_box", "brand": "United States Postal Service", "brand:wikidata": "Q668687", "collection_times": "Mo-Sa 11:00", "name": "USPS COLLECTION BOX - BLUE BOX", "nsi_id": "unitedstatespostalservice-a77078", "operator": "United States Postal Service", "operator:short": "USPS", "operator:type": "public", "operator:wikidata": "Q668687", "ref": "6561600018"}, "type": "Feature"}
{"dataset_attributes": {"@spider": "usps_collection_boxes"}, "geometry": {"coordinates": [-93.217013, 36.641705], "type": "Point"}, "id": "cEluNMXCnwRQI84OuBYzKN36Xuw=", "properties": {"@spider": "usps_collection_boxes", "addr:city": "BRANSON", "addr:country": "US", "addr:full": "320 S COMMERCIAL ST", "addr:postcode": "65616", "addr:state": "MO", "amenity": "post_box", "brand": "United States Postal Service", "brand:wikidata": "Q668687", "collection_times": "Mo-Fr 14:45; Sa 13:00", "name": "USPS COLLECTION BOX - BLUE BOX", "note": "ON 12/24 AND 12/31, THIS BOX MAY BE COLLECTED AS EARLY AS 12 NOON.", "nsi_id": "unitedstatespostalservice-a77078", "operator": "United States Postal Service", "operator:short": "USPS", "operator:type": "public", "operator:wikidata": "Q668687", "ref": "6561600020"}, "type": "Feature"}
{"dataset_attributes": {"@spider": "usps_collection_boxes"}, "geometry": {"coordinates": [-93.2417224, 36.662916], "type": "Point"}, "id": "ZC_N35rfMhI_Ma3TVeHrSdmg4Z4=", "properties": {"@spider": "usps_collection_boxes", "addr:city": "BRANSON", "addr:country": "US", "addr:full": "1447 STATE HIGHWAY 248", "addr:postcode": "65616", "addr:state": "MO", "amenity": "post_box", "brand": "United States Postal Service", "brand:wikidata": "Q668687", "collection_times": "Mo-Sa 09:00", "name": "USPS COLLECTION BOX - BLUE BOX", "nsi_id": "unitedstatespostalservice-a77078", "operator": "United States Postal Service", "operator:short": "USPS", "operator:type": "public", "operator:wikidata": "Q668687", "ref": "6561600023"}, "type": "Feature"}
{"dataset_attributes": {"@spider": "usps_collection_boxes"}, "geometry": {"coordinates": [-93.2296023, 36.644869], "type": "Point"}, "id": "BaNbaiWhZyTZ4u6cP-y33JxEY_o=", "properties": {"@spider": "usps_collection_boxes", "addr:city": "BRANSON", "addr:country": "US", "addr:full": "827 W MAIN ST", "addr:postcode": "65616", "addr:state": "MO", "amenity": "post_box", "brand": "United States Postal Service", "brand:wikidata": "Q668687", "collection_times": "Mo-Sa 10:00", "name": "USPS COLLECTION BOX - BLUE BOX", "nsi_id": "unitedstatespostalservice-a77078", "operator": "United States Postal Service", "operator:short": "USPS", "operator:type": "public", "operator:wikidata": "Q668687", "ref": "6561600024"}, "type": "Feature"}
{"dataset_attributes": {"@spider": "usps_collection_boxes"}, "geometry": {"coordinates": [-93.2877664, 36.598785], "type": "Point"}, "id": "J6xQOY7tYgna-AnyxJqz43g16QE=", "properties": {"@spider": "usps_collection_boxes", "addr:city": "BRANSON", "addr:country": "US", "addr:full": "159 POINTE ROYALE DR", "addr:postcode": "65616", "addr:state": "MO", "amenity": "post_box", "brand": "United States Postal Service", "brand:wikidata": "Q668687", "collection_times": "Mo-Sa 10:30", "name": "USPS COLLECTION BOX - BLUE BOX", "nsi_id": "unitedstatespostalservice-a77078", "operator": "United States Postal Service", "operator:short": "USPS", "operator:type": "public", "operator:wikidata": "Q668687", "ref": "6561600025"}, "type": "Feature"}
{"dataset_attributes": {"@spider": "usps_collection_boxes"}, "geometry": {"coordinates": [-93.2562841, 36.641824], "type": "Point"}, "id": "_f14LaviNEFHLmyYy2I3lCMXyKQ=", "properties": {"@spider": "usps_collection_boxes", "addr:city": "BRANSON", "addr:country": "US", "addr:full": "1945 W HIGHWAY 76", "addr:postcode": "65616", "addr:state": "MO", "amenity": "post_box", "brand": "United States Postal Service", "brand:wikidata": "Q668687", "collection_times": "Mo-Sa 10:00", "name": "USPS COLLECTION BOX - BLUE BOX", "nsi_id": "unitedstatespostalservice-a77078", "operator": "United States Postal Service", "operator:short": "USPS", "operator:type": "public", "operator:wikidata": "Q668687", "ref": "6561600027"}, "type": "Feature"}
{"dataset_attributes": {"@spider": "usps_collection_boxes"}, "geometry": {"coordinates": [-93.2220437, 36.643431], "type": "Point"}, "id": "IUCVANHyqjr9OHPfzVsN9gBmQt0=", "properties": {"@spider": "usps_collection_boxes", "addr:city": "BRANSON", "addr:country": "US", "addr:full": "500 W MAIN ST", "addr:postcode": "65616", "addr:state": "MO", "amenity": "post_box", "brand": "United States Postal Service", "brand:wikidata": "Q668687", "collection_times": "Mo-Sa 10:00", "name": "USPS COLLECTION BOX - BLUE BOX", "nsi_id": "unitedstatespostalservice-a77078", "operator": "United States Postal Service", "operator:short": "USPS", "operator:type": "public", "operator:wikidata": "Q668687", "ref": "6561600030"}, "type": "Feature"}
{"dataset_attributes": {"@spider": "usps_collection_boxes"}, "geometry": {"coordinates": [-93.2658149, 36.645771], "type": "Point"}, "id": "eXah9sc46EWRF8hSvZjRnnZJSOQ=", "properties": {"@spider": "usps_collection_boxes", "addr:city": "BRANSON", "addr:country": "US", "addr:full": "300 TANGER BLVD", "addr:postcode": "65616", "addr:state": "MO", "amenity": "post_box", "brand": "United States Postal Service", "brand:wikidata": "Q668687", "collection_times": "Mo-Sa 10:00", "name": "USPS COLLECTION BOX - BLUE BOX", "nsi_id": "unitedstatespostalservice-a77078", "operator": "United States Postal Service", "operator:short": "USPS", "operator:type": "public", "operator:wikidata": "Q668687", "ref": "6561600033"}, "type": "Feature"}
{"dataset_attributes": {"@spider": "usps_collection_boxes"}, "geometry": {"coordinates": [-93.2807562, 36.637131], "type": "Point"}, "id": "u5UdWo43T14gzES0H_x-WJMOCKk=", "properties": {"@spider": "usps_collection_boxes", "addr:city": "BRANSON", "addr:country": "US", "addr:full": "210 STATE HIGHWAY 165", "addr:postcode": "65616", "addr:state": "MO", "amenity": "post_box", "brand": "United States Postal Service", "brand:wikidata": "Q668687", "collection_times": "Mo-Sa 10:00", "name": "USPS COLLECTION BOX - BLUE BOX", "nsi_id": "unitedstatespostalservice-a77078", "operator": "United States Postal Service", "operator:short": "USPS", "operator:type": "public", "operator:wikidata": "Q668687", "ref": "6561600034"}, "type": "Feature"}
{"dataset_attributes": {"@spider": "usps_collection_boxes"}, "geometry": {"coordinates": [-93.3453387, 36.627146], "type": "Point"}, "id": "A3ospoKeM8f5jU8qsIFrkZWdY7U=", "properties": {"@spider": "usps_collection_boxes", "addr:city": "BRANSON", "addr:country": "US", "addr:full": "1575 TABLEROCK CIR", "addr:postcode": "65616", "addr:state": "MO", "amenity": "post_box", "brand": "United States Postal Service", "brand:wikidata": "Q668687", "collection_times": "Mo-Sa 10:30", "name": "USPS COLLECTION BOX - BLUE BOX", "nsi_id": "unitedstatespostalservice-a77078", "operator": "United States Postal Service", "operator:short": "USPS", "operator:type": "public", "operator:wikidata": "Q668687", "ref": "6561600035"}, "type": "Feature"}
{"dataset_attributes": {"@spider": "usps_collection_boxes"}, "geometry": {"coordinates": [-93.217051, 36.641794], "type": "Point"}, "id": "E_HM9r1aCXe4-QQn7my98Z_b90Q=", "properties": {"@spider": "usps_collection_boxes", "addr:city": "BRANSON", "addr:country": "US", "addr:full": "320 S COMMERCIAL ST", "addr:postcode": "65616", "addr:state": "MO", "amenity": "post_box", "brand": "United States Postal Service", "brand:wikidata": "Q668687", "collection_times": "Mo-Fr 14:45; Sa 13:00", "name": "USPS COLLECTION BOX - PO LOBBY", "note": "ON 12/24 AND 12/31, THIS BOX MAY BE COLLECTED AS EARLY AS 12 NOON.", "nsi_id": "unitedstatespostalservice-a77078", "operator": "United States Postal Service", "operator:short": "USPS", "operator:type": "public", "operator:wikidata": "Q668687", "ref": "6561600038"}, "type": "Feature"}
{"dataset_attributes": {"@spider": "usps_collection_boxes"}, "geometry": {"coordinates": [-93.2215139, 36.650378], "type": "Point"}, "id": "m50nEK-YHgkMFcBrRJGrFvR7i10=", "properties": {"@spider": "usps_collection_boxes", "addr:city": "BRANSON", "addr:country": "US", "addr:full": "427 CAHILL RD", "addr:postcode": "65616", "addr:state": "MO", "amenity": "post_box", "brand": "United States Postal Service", "brand:wikidata": "Q668687", "collection_times": "Mo-Sa 10:30", "name": "USPS COLLECTION BOX - BLUE BOX", "nsi_id": "unitedstatespostalservice-a77078", "operator": "United States Postal Service", "operator:short": "USPS", "operator:type": "public", "operator:wikidata": "Q668687", "ref": "6561600040"}, "type": "Feature"}
{"dataset_attributes": {"@spider": "usps_collection_boxes"}, "geometry": {"coordinates": [-93.3480986, 36.659038], "type": "Point"}, "id": "4ZcGpO63o39U4nJxdPKmJP6DKGE=", "properties": {"@spider": "usps_collection_boxes", "addr:city": "BRANSON", "addr:country": "US", "addr:full": "1 LANTERN BAY RD", "addr:postcode": "65616", "addr:state": "MO", "amenity": "post_box", "brand": "United States Postal Service", "brand:wikidata": "Q668687", "collection_times": "Mo-Sa 10:00", "name": "USPS COLLECTION BOX - BLUE BOX", "nsi_id": "unitedstatespostalservice-a77078", "operator": "United States Postal Service", "operator:short": "USPS", "operator:type": "public", "operator:wikidata": "Q668687", "ref": "6561600041"}, "type": "Feature"}
{"dataset_attributes": {"@spider": "usps_collection_boxes"}, "geometry": {"coordinates": [-93.269217, 36.637054], "type": "Point"}, "id": "Mw8MPhnsjLpqj_hw069MSJdm-9s=", "properties": {"@spider": "usps_collection_boxes", "addr:city": "BRANSON", "addr:country": "US", "addr:full": "2800 W 76 COUNTRY BLVD", "addr:postcode": "65616", "addr:state": "MO", "amenity": "post_box", "brand": "United States Postal Service", "brand:wikidata": "Q668687", "collection_times": "Mo-Sa 10:00", "name": "USPS COLLECTION BOX - BLUE BOX", "nsi_id": "unitedstatespostalservice-a77078", "operator": "United States Postal Service", "operator:short": "USPS", "operator:type": "public", "operator:wikidata": "Q668687", "ref": "6561600045"}, "type": "Feature"}
{"dataset_attributes": {"@spider": "usps_collection_boxes"}, "geometry": {"coordinates": [-93.2249407, 36.669827], "type": "Point"}, "id": "apn2YiaFjrdNAwMnxiXqABOX-X0=", "properties": {"@spider": "usps_collection_boxes", "addr:city": "BRANSON", "addr:country": "US", "addr:full": "220 BRANSON HILLS PKWY", "addr:postcode": "65616", "addr:state": "MO", "amenity": "post_box", "brand": "United States Postal Service", "brand:wikidata": "Q668687", "collection_times": "Mo-Sa 09:00", "name": "USPS COLLECTION BOX - BLUE BOX", "nsi_id": "unitedstatespostalservice-a77078", "operator": "United States Postal Service", "operator:short": "USPS", "operator:type": "public", "operator:wikidata": "Q668687", "ref": "6561600048"}, "type": "Feature"}
{"dataset_attributes": {"@spider": "usps_collection_boxes"}, "geometry": {"coordinates": [-93.2724108644, 36.6317472067], "type": "Point"}, "id": "_dfMelLlrdhePffb8pT_Duuv3Nc=", "properties": {"@spider": "usps_collection_boxes", "addr:city": "BRANSON", "addr:country": "US", "addr:full": "2900 GREEN MOUNTAIN DRIVE", "addr:postcode": "65616", "addr:state": "MO", "amenity": "post_box", "brand": "United States Postal Service", "brand:wikidata": "Q668687", "collection_times": "Mo-Sa 09:30", "name": "USPS COLLECTION BOX - BLUE BOX", "nsi_id": "unitedstatespostalservice-a77078", "operator": "United States Postal Service", "operator:short": "USPS", "operator:type": "public", "operator:wikidata": "Q668687", "ref": "6561600055"}, "type": "Feature"}
{"dataset_attributes": {"@spider": "usps_collection_boxes"}, "geometry": {"coordinates": [-93.2921139, 36.651905], "type": "Point"}, "id": "5cSw8u38lqPNJksYKkspZ3kfIYw=", "properties": {"@spider": "usps_collection_boxes", "addr:city": "BRANSON", "addr:country": "US", "addr:full": "4017 W HIGHWAY 76", "addr:postcode": "65616", "addr:state": "MO", "amenity": "post_box", "brand": "United States Postal Service", "brand:wikidata": "Q668687", "collection_times": "Mo-Sa 10:30", "name": "USPS COLLECTION BOX - BLUE BOX", "nsi_id": "unitedstatespostalservice-a77078", "operator": "United States Postal Service", "operator:short": "USPS", "operator:type": "public", "operator:wikidata": "Q668687", "ref": "6561600058"}, "type": "Feature"}
{"dataset_attributes": {"@spider": "usps_collection_boxes"}, "geometry": {"coordinates": [-93.217015764, 36.641646031], "type": "Point"}, "id": "-loMdvR87Vh3rzs56IwHrkRcmG0=", "properties": {"@spider": "usps_collection_boxes", "addr:city": "BRANSON", "addr:country": "US", "addr:full": "320 S COMMERCIAL ST", "addr:postcode": "65616", "addr:state": "MO", "amenity": "post_box", "brand": "United States Postal Service", "brand:wikidata": "Q668687", "collection_times": "Mo-Fr 16:30; Sa 13:00", "name": "USPS COLLECTION BOX - PO LOBBY", "note": "ON 12/24 AND 12/31, THIS BOX MAY BE COLLECTED AS EARLY AS 12 NOON.", "nsi_id": "unitedstatespostalservice-a77078", "operator": "United States Postal Service", "operator:short": "USPS", "operator:type": "public", "operator:wikidata": "Q668687", "ref": "6561600067"}, "type": "Feature"}
{"dataset_attributes": {"@spider": "usps_collection_boxes"}, "geometry": {"coordinates": [-93.34834, 37.458675], "type": "Point"}, "id": "B4qSz6GnJKvgR3sl9i7URlPnCf0=", "properties": {"@spider": "usps_collection_boxes", "addr:city": "BRIGHTON", "addr:country": "US", "addr:full": "1584 HIGHWAY 215", "addr:postcode": "65617", "addr:state": "MO", "amenity": "post_box", "brand": "United States Postal Service", "brand:wikidata": "Q668687", "collection_times": "Mo-Fr 14:00; Sa 08:45", "name": "USPS COLLECTION BOX - BLUE BOX", "note": "ON 12/24 AND 12/31, THIS BOX MAY BE COLLECTED AS EARLY AS 12 NOON.", "nsi_id": "unitedstatespostalservice-a77078", "operator": "United States Postal Service", "operator:short": "USPS", "operator:type": "public", "operator:wikidata": "Q668687", "ref": "6561700000"}, "type": "Feature"}
{"dataset_attributes": {"@spider": "usps_collection_boxes"}, "geometry": {"coordinates": [-93.350518, 37.472171], "type": "Point"}, "id": "Vt3B8sibA3mpU-evX2NWnL-jZ2k=", "properties": {"@spider": "usps_collection_boxes", "addr:city": "BRIGHTON", "addr:country": "US", "addr:full": "1584 HIGHWAY 215", "addr:postcode": "65617", "addr:state": "MO", "amenity": "post_box", "brand": "United States Postal Service", "brand:wikidata": "Q668687", "collection_times": "Mo-Fr 11:15; Sa 08:45", "name": "USPS COLLECTION BOX - PO LOBBY", "nsi_id": "unitedstatespostalservice-a77078", "operator": "United States Postal Service", "operator:short": "USPS", "operator:type": "public", "operator:wikidata": "Q668687", "ref": "6561700001"}, "type": "Feature"}
{"dataset_attributes": {"@spider": "usps_collection_boxes"}, "geometry": {"coordinates": [-93.3686826504, 37.4726678333], "type": "Point"}, "id": "iBUFN4wyjVkNhYUEgtsOliTULLs=", "properties": {"@spider": "usps_collection_boxes", "addr:city": "BRIGHTON", "addr:country": "US", "addr:full": "1584 HIGHWAY 215", "addr:postcode": "65617", "addr:state": "MO", "amenity": "post_box", "brand": "United States Postal Service", "brand:wikidata": "Q668687", "collection_times": "Mo-Fr 11:30; Sa 08:45", "name": "USPS COLLECTION BOX - PO LOBBY", "nsi_id": "unitedstatespostalservice-a77078", "operator": "United States Postal Service", "operator:short": "USPS", "operator:type": "public", "operator:wikidata": "Q668687", "ref": "6561700003"}, "type": "Feature"}
{"dataset_attributes": {"@spider": "usps_collection_boxes"}, "geometry": {"coordinates": [-93.42417, 37.165033], "type": "Point"}, "id": "1sZ7TxdZPW8y1IRiEmt4aAyt3-0=", "properties": {"@spider": "usps_collection_boxes", "addr:city": "BROOKLINE STA", "addr:country": "US", "addr:full": "2874 N BROOKLINE AVE", "addr:postcode": "65619", "addr:state": "MO", "amenity": "post_box", "brand": "United States Postal Service", "brand:wikidata": "Q668687", "collection_times": "Mo-Fr 15:45; Sa 09:45", "name": "USPS COLLECTION BOX - BLUE BOX", "note": "ON 12/24 AND 12/31, THIS BOX MAY BE COLLECTED AS EARLY AS 12 NOON.", "nsi_id": "unitedstatespostalservice-a77078", "operator": "United States Postal Service", "operator:short": "USPS", "operator:type": "public", "operator:wikidata": "Q668687", "ref": "6561900000"}, "type": "Feature"}
{"dataset_attributes": {"@spider": "usps_collection_boxes"}, "geometry": {"coordinates": [-93.3702995, 37.124293], "type": "Point"}, "id": "yWPGJMoaUwgOUhLdQOEvShv04gw=", "properties": {"@spider": "usps_collection_boxes", "addr:city": "BROOKLINE STA", "addr:country": "US", "addr:full": "5011 S STATE HIGHWAY FF", "addr:postcode": "65619", "addr:state": "MO", "amenity": "post_box", "brand": "United States Postal Service", "brand:wikidata": "Q668687", "collection_times": "Mo-Sa 12:00", "name": "USPS COLLECTION BOX - BLUE BOX", "nsi_id": "unitedstatespostalservice-a77078", "operator": "United States Postal Service", "operator:short": "USPS", "operator:type": "public", "operator:wikidata": "Q668687", "ref": "6561900003"}, "type": "Feature"}
{"dataset_attributes": {"@spider": "usps_collection_boxes"}, "geometry": {"coordinates": [-93.3792564, 37.165586], "type": "Point"}, "id": "flc-jOdcENc_c0KrEONX2Cmpw_I=", "properties": {"@spider": "usps_collection_boxes", "addr:city": "BROOKLINE STA", "addr:country": "US", "addr:full": "2763 S HARVEST LN", "addr:postcode": "65619", "addr:state": "MO", "amenity": "post_box", "brand": "United States Postal Service", "brand:wikidata": "Q668687", "collection_times": "Mo-Sa 11:00", "name": "USPS COLLECTION BOX - BLUE BOX", "nsi_id": "unitedstatespostalservice-a77078", "operator": "United States Postal Service", "operator:short": "USPS", "operator:type": "public", "operator:wikidata": "Q668687", "ref": "6561900004"}, "type": "Feature"}
{"dataset_attributes": {"@spider": "usps_collection_boxes"}, "geometry": {"coordinates": [-93.424206, 37.164958], "type": "Point"}, "id": "wtUi83dAZe07a-2NRXNegKCqvDM=", "properties": {"@spider": "usps_collection_boxes", "addr:city": "BROOKLINE STA", "addr:country": "US", "addr:full": "2874 N BROOKLINE AVE", "addr:postcode": "65619", "addr:state": "MO", "amenity": "post_box", "brand": "United States Postal Service", "brand:wikidata": "Q668687", "collection_times": "Mo-Fr 15:45; Sa 09:45", "name": "USPS COLLECTION BOX - PO LOBBY", "note": "ON 12/24 AND 12/31, THIS BOX MAY BE COLLECTED AS EARLY AS 12 NOON.", "nsi_id": "unitedstatespostalservice-a77078", "operator": "United States Postal Service", "operator:short": "USPS", "operator:type": "public", "operator:wikidata": "Q668687", "ref": "6561900005"}, "type": "Feature"}
{"dataset_attributes": {"@spider": "usps_collection_boxes"}, "geometry": {"coordinates": [-93.4241775748, 37.165004801], "type": "Point"}, "id": "y_2ThRjP4vNiQvsgTyBRz_puK70=", "properties": {"@spider": "usps_collection_boxes", "addr:city": "BROOKLINE STA", "addr:country": "US", "addr:full": "2874 N BROOKLINE AVE", "addr:postcode": "65619", "addr:state": "MO", "amenity": "post_box", "brand": "United States Postal Service", "brand:wikidata": "Q668687", "collection_times": "Mo-Fr 16:00; Sa 12:15", "name": "USPS COLLECTION BOX - PO LOBBY", "note": "ON 12/24 AND 12/31, THIS BOX MAY BE COLLECTED AS EARLY AS 12 NOON.", "nsi_id": "unitedstatespostalservice-a77078", "operator": "United States Postal Service", "operator:short": "USPS", "operator:type": "public", "operator:wikidata": "Q668687", "ref": "6561900007"}, "type": "Feature"}
{"dataset_attributes": {"@spider": "usps_collection_boxes"}, "geometry": {"coordinates": [-92.938228, 37.013471], "type": "Point"}, "id": "Z2RFHFpkhrforCR_MMjdHhjExcI=", "properties": {"@spider": "usps_collection_boxes", "addr:city": "BRUNER", "addr:country": "US", "addr:full": "13547 STATE HIGHWAY 14 E", "addr:postcode": "65620", "addr:state": "MO", "amenity": "post_box", "brand": "United States Postal Service", "brand:wikidata": "Q668687", "collection_times": "Mo-Sa 13:30", "name": "USPS COLLECTION BOX - BLUE BOX", "note": "ON 12/24 AND 12/31, THIS BOX MAY BE COLLECTED AS EARLY AS 12 NOON.", "nsi_id": "unitedstatespostalservice-a77078", "operator": "United States Postal Service", "operator:short": "USPS", "operator:type": "public", "operator:wikidata": "Q668687", "ref": "6562000000"}, "type": "Feature"}
{"dataset_attributes": {"@spider": "usps_collection_boxes"}, "geometry": {"coordinates": [-92.985858152, 37.014605328], "type": "Point"}, "id": "f-ECliz_0yJzIU9xLZ18yMd8M14=", "properties": {"@spider": "usps_collection_boxes", "addr:city": "BRUNER", "addr:country": "US", "addr:full": "13547 STATE HIGHWAY 14 E", "addr:postcode": "65620", "addr:state": "MO", "amenity": "post_box", "brand": "United States Postal Service", "brand:wikidata": "Q668687", "collection_times": "Mo-Sa 14:45", "name": "USPS COLLECTION BOX - PO LOBBY", "note": "ON 12/24 AND 12/31, THIS BOX MAY BE COLLECTED AS EARLY AS 12 NOON.", "nsi_id": "unitedstatespostalservice-a77078", "operator": "United States Postal Service", "operator:short": "USPS", "operator:type": "public", "operator:wikidata": "Q668687", "ref": "6562000002"}, "type": "Feature"}
{"dataset_attributes": {"@spider": "usps_collection_boxes"}, "geometry": {"coordinates": [-93.093357, 37.64313], "type": "Point"}, "id": "a8GYiCUD0C-yoGG4MLgPsgNE5Hk=", "properties": {"@spider": "usps_collection_boxes", "addr:city": "BUFFALO", "addr:country": "US", "addr:full": "215 S PINE ST", "addr:postcode": "65622", "addr:state": "MO", "amenity": "post_box", "brand": "United States Postal Service", "brand:wikidata": "Q668687", "collection_times": "Mo-Fr 15:15; Sa 12:00", "name": "USPS COLLECTION BOX - BLUE BOX", "note": "ON 12/24 AND 12/31, THIS BOX MAY BE COLLECTED AS EARLY AS 12 NOON.", "nsi_id": "unitedstatespostalservice-a77078", "operator": "United States Postal Service", "operator:short": "USPS", "operator:type": "public", "operator:wikidata": "Q668687", "ref": "6562200000"}, "type": "Feature"}
{"dataset_attributes": {"@spider": "usps_collection_boxes"}, "geometry": {"coordinates": [-93.0936415, 37.642815], "type": "Point"}, "id": "15w3daMspYaiSX7WO30PPjeC2NE=", "properties": {"@spider": "usps_collection_boxes", "addr:city": "BUFFALO", "addr:country": "US", "addr:full": "215 S PINE ST", "addr:postcode": "65622", "addr:state": "MO", "amenity": "post_box", "brand": "United States Postal Service", "brand:wikidata": "Q668687", "collection_times": "Mo-Fr 15:15; Sa 12:00", "name": "USPS COLLECTION BOX - PO LOBBY", "note": "ON 12/24 AND 12/31, THIS BOX MAY BE COLLECTED AS EARLY AS 12 NOON.", "nsi_id": "unitedstatespostalservice-a77078", "operator": "United States Postal Service", "operator:short": "USPS", "operator:type": "public", "operator:wikidata": "Q668687", "ref": "6562200001"}, "type": "Feature"}
{"dataset_attributes": {"@spider": "usps_collection_boxes"}, "geometry": {"coordinates": [-93.1050994, 37.641824], "type": "Point"}, "id": "H5KkC8n_R7oPQPenoQhogz-3Ynw=", "properties": {"@spider": "usps_collection_boxes", "addr:city": "BUFFALO", "addr:country": "US", "addr:full": "409 S ASH ST", "addr:postcode": "65622", "addr:state": "MO", "amenity": "post_box", "brand": "United States Postal Service", "brand:wikidata": "Q668687", "collection_times": "Mo-Fr 13:00", "name": "USPS COLLECTION BOX - BLUE BOX", "note": "ON 12/24 AND 12/31, THIS BOX MAY BE COLLECTED AS EARLY AS 12 NOON.", "nsi_id": "unitedstatespostalservice-a77078", "operator": "United States Postal Service", "operator:short": "USPS", "operator:type": "public", "operator:wikidata": "Q668687", "ref": "6562200002"}, "type": "Feature"}
{"dataset_attributes": {"@spider": "usps_collection_boxes"}, "geometry": {"coordinates": [-93.093367235, 37.642779419], "type": "Point"}, "id": "0eDCEyaeRyF5R6Fk1YEvR9GsU0M=", "properties": {"@spider": "usps_collection_boxes", "addr:city": "BUFFALO", "addr:country": "US", "addr:full": "215 S PINE ST", "addr:postcode": "65622", "addr:state": "MO", "amenity": "post_box", "brand": "United States Postal Service", "brand:wikidata": "Q668687", "collection_times": "Mo-Fr 17:00; Sa 12:00", "name": "USPS COLLECTION BOX - PO LOBBY", "note": "ON 12/24 AND 12/31, THIS BOX MAY BE COLLECTED AS EARLY AS 12 NOON.", "nsi_id": "unitedstatespostalservice-a77078", "operator": "United States Postal Service", "operator:short": "USPS", "operator:type": "public", "operator:wikidata": "Q668687", "ref": "6562200006"}, "type": "Feature"}
{"dataset_attributes": {"@spider": "usps_collection_boxes"}, "geometry": {"coordinates": [-93.503448, 36.728658], "type": "Point"}, "id": "4um1PkslXb8RJoyOVRbznVlNQRY=", "properties": {"@spider": "usps_collection_boxes", "addr:city": "CAPE FAIR", "addr:country": "US", "addr:full": "8089 W STATE HIGHWAY 76 UNIT 0", "addr:postcode": "65624", "addr:state": "MO", "amenity": "post_box", "brand": "United States Postal Service", "brand:wikidata": "Q668687", "collection_times": "Mo-Fr 14:30; Sa 12:00", "name": "USPS COLLECTION BOX - BLUE BOX", "note": "ON 12/24 AND 12/31, THIS BOX MAY BE COLLECTED AS EARLY AS 12 NOON.", "nsi_id": "unitedstatespostalservice-a77078", "operator": "United States Postal Service", "operator:short": "USPS", "operator:type": "public", "operator:wikidata": "Q668687", "ref": "6562400000"}, "type": "Feature"}
{"dataset_attributes": {"@spider": "usps_collection_boxes"}, "geometry": {"coordinates": [-93.50296, 36.72874], "type": "Point"}, "id": "s3oU3R4Fva3QHNd-k3e7Tnnhhi4=", "properties": {"@spider": "usps_collection_boxes", "addr:city": "CAPE FAIR", "addr:country": "US", "addr:full": "8089 W STATE HIGHWAY 76 UNIT 0", "addr:postcode": "65624", "addr:state": "MO", "amenity": "post_box", "brand": "United States Postal Service", "brand:wikidata": "Q668687", "collection_times": "Mo-Fr 14:30; Sa 12:00", "name": "USPS COLLECTION BOX - PO LOBBY", "note": "ON 12/24 AND 12/31, THIS BOX MAY BE COLLECTED AS EARLY AS 12 NOON.", "nsi_id": "unitedstatespostalservice-a77078", "operator": "United States Postal Service", "operator:short": "USPS", "operator:type": "public", "operator:wikidata": "Q668687", "ref": "6562400001"}, "type": "Feature"}
{"dataset_attributes": {"@spider": "usps_collection_boxes"}, "geometry": {"coordinates": [-93.50296, 36.72874], "type": "Point"}, "id": "noXUipWomtFI7fPqQsHwb5_iORc=", "properties": {"@spider": "usps_collection_boxes", "addr:city": "CAPE FAIR", "addr:country": "US", "addr:full": "8089 W STATE HIGHWAY 76 UNIT 0", "addr:postcode": "65624", "addr:state": "MO", "amenity": "post_box", "brand": "United States Postal Service", "brand:wikidata": "Q668687", "collection_times": "Mo-Fr 14:30; Sa 12:00", "name": "USPS COLLECTION BOX - PO LOBBY", "note": "ON 12/24 AND 12/31, THIS BOX MAY BE COLLECTED AS EARLY AS 12 NOON.", "nsi_id": "unitedstatespostalservice-a77078", "operator": "United States Postal Service", "operator:short": "USPS", "operator:type": "public", "operator:wikidata": "Q668687", "ref": "6562400002"}, "type": "Feature"}
{"dataset_attributes": {"@spider": "usps_collection_boxes"}, "geometry": {"coordinates": [-93.503292163, 36.728511431], "type": "Point"}, "id": "qQ2SFvEDi3x5ZjxuNWgXjjbX60c=", "properties": {"@spider": "usps_collection_boxes", "addr:city": "CAPE FAIR", "addr:country": "US", "addr:full": "8089 W STATE HIGHWAY 76 UNIT D", "addr:postcode": "65624", "addr:state": "MO", "amenity": "post_box", "brand": "United States Postal Service", "brand:wikidata": "Q668687", "collection_times": "Mo-Fr 15:00; Sa 12:30", "name": "USPS COLLECTION BOX - PO LOBBY", "note": "ON 12/24 AND 12/31, THIS BOX MAY BE COLLECTED AS EARLY AS 12 NOON.", "nsi_id": "unitedstatespostalservice-a77078", "operator": "United States Postal Service", "operator:short": "USPS", "operator:type": "public", "operator:wikidata": "Q668687", "ref": "6562400003"}, "type": "Feature"}
{"dataset_attributes": {"@spider": "usps_collection_boxes"}, "geometry": {"coordinates": [-93.8689283, 36.679511], "type": "Point"}, "id": "Xt_7i5oJ5pAoN65m6VWMXnHF9fg=", "properties": {"@spider": "usps_collection_boxes", "addr:city": "CASSVILLE", "addr:country": "US", "addr:full": "800 WEST ST", "addr:postcode": "65625", "addr:state": "MO", "amenity": "post_box", "brand": "United States Postal Service", "brand:wikidata": "Q668687", "collection_times": "Mo-Fr 13:30; Sa 10:30", "name": "USPS COLLECTION BOX - BLUE BOX", "note": "ON 12/24 AND 12/31, THIS BOX MAY BE COLLECTED AS EARLY AS 12 NOON.", "nsi_id": "unitedstatespostalservice-a77078", "operator": "United States Postal Service", "operator:short": "USPS", "operator:type": "public", "operator:wikidata": "Q668687", "ref": "6562500000"}, "type": "Feature"}
{"dataset_attributes": {"@spider": "usps_collection_boxes"}, "geometry": {"coordinates": [-93.8690101, 36.679396], "type": "Point"}, "id": "nzIDy8ckw75zUPlgQP0L3l8WfQc=", "properties": {"@spider": "usps_collection_boxes", "addr:city": "CASSVILLE", "addr:country": "US", "addr:full": "800 WEST ST", "addr:postcode": "65625", "addr:state": "MO", "amenity": "post_box", "brand": "United States Postal Service", "brand:wikidata": "Q668687", "collection_times": "Mo-Fr 13:30; Sa 10:30", "name": "USPS COLLECTION BOX - BLUE BOX", "note": "ON 12/24 AND 12/31, THIS BOX MAY BE COLLECTED AS EARLY AS 12 NOON.", "nsi_id": "unitedstatespostalservice-a77078", "operator": "United States Postal Service", "operator:short": "USPS", "operator:type": "public", "operator:wikidata": "Q668687", "ref": "6562500001"}, "type": "Feature"}
{"dataset_attributes": {"@spider": "usps_collection_boxes"}, "geometry": {"coordinates": [-93.8690425, 36.679332], "type": "Point"}, "id": "xTJEB-MktjvXclb6DEF1AAHoc7s=", "properties": {"@spider": "usps_collection_boxes", "addr:city": "CASSVILLE", "addr:country": "US", "addr:full": "800 WEST ST", "addr:postcode": "65625", "addr:state": "MO", "amenity": "post_box", "brand": "United States Postal Service", "brand:wikidata": "Q668687", "collection_times": "Mo-Fr 13:30; Sa 10:30", "name": "USPS COLLECTION BOX - PO LOBBY", "note": "ON 12/24 AND 12/31, THIS BOX MAY BE COLLECTED AS EARLY AS 12 NOON.", "nsi_id": "unitedstatespostalservice-a77078", "operator": "United States Postal Service", "operator:short": "USPS", "operator:type": "public", "operator:wikidata": "Q668687", "ref": "6562500011"}, "type": "Feature"}
{"dataset_attributes": {"@spider": "usps_collection_boxes"}, "geometry": {"coordinates": [-93.8690083, 36.679332], "type": "Point"}, "id": "Vy7pkrBszFSnbPzht1cDmgLq0IE=", "properties": {"@spider": "usps_collection_boxes", "addr:city": "CASSVILLE", "addr:country": "US", "addr:full": "800 WEST ST", "addr:postcode": "65625", "addr:state": "MO", "amenity": "post_box", "brand": "United States Postal Service", "brand:wikidata": "Q668687", "collection_times": "Mo-Fr 13:30; Sa 10:30", "name": "USPS COLLECTION BOX - PO LOBBY", "note": "ON 12/24 AND 12/31, THIS BOX MAY BE COLLECTED AS EARLY AS 12 NOON.", "nsi_id": "unitedstatespostalservice-a77078", "operator": "United States Postal Service", "operator:short": "USPS", "operator:type": "public", "operator:wikidata": "Q668687", "ref": "6562500012"}, "type": "Feature"}
{"dataset_attributes": {"@spider": "usps_collection_boxes"}, "geometry": {"coordinates": [-93.868636351, 36.679581953], "type": "Point"}, "id": "dI5df36ejzirRLWq5S_0hp4pVew=", "properties": {"@spider": "usps_collection_boxes", "addr:city": "CASSVILLE", "addr:country": "US", "addr:full": "800 WEST ST", "addr:postcode": "65625", "addr:state": "MO", "amenity": "post_box", "brand": "United States Postal Service", "brand:wikidata": "Q668687", "collection_times": "Mo-Fr 17:00; Sa 10:30", "name": "USPS COLLECTION BOX - PO LOBBY", "note": "ON 12/24 AND 12/31, THIS BOX MAY BE COLLECTED AS EARLY AS 12 NOON.", "nsi_id": "unitedstatespostalservice-a77078", "operator": "United States Postal Service", "operator:short": "USPS", "operator:type": "public", "operator:wikidata": "Q668687", "ref": "6562500014"}, "type": "Feature"}
{"dataset_attributes": {"@spider": "usps_collection_boxes"}, "geometry": {"coordinates": [-92.10035, 36.6143], "type": "Point"}, "id": "fk1R0QQ3r4ZLDnicFnaLfRN36V4=", "properties": {"@spider": "usps_collection_boxes", "addr:city": "CAULFIELD", "addr:country": "US", "addr:full": "377 US HIGHWAY 160", "addr:postcode": "65626", "addr:state": "MO", "amenity": "post_box", "brand": "United States Postal Service", "brand:wikidata": "Q668687", "collection_times": "Mo-Fr 15:00; Sa 10:45", "name": "USPS COLLECTION BOX - BLUE BOX", "note": "ON 12/24 AND 12/31, THIS BOX MAY BE COLLECTED AS EARLY AS 12 NOON.", "nsi_id": "unitedstatespostalservice-a77078", "operator": "United States Postal Service", "operator:short": "USPS", "operator:type": "public", "operator:wikidata": "Q668687", "ref": "6562600000"}, "type": "Feature"}
{"dataset_attributes": {"@spider": "usps_collection_boxes"}, "geometry": {"coordinates": [-92.100355, 36.614327], "type": "Point"}, "id": "uhMnB5Dpb1FhMfhssnnZvV2I_pM=", "properties": {"@spider": "usps_collection_boxes", "addr:city": "CAULFIELD", "addr:country": "US", "addr:full": "377 US HIGHWAY 160", "addr:postcode": "65626", "addr:state": "MO", "amenity": "post_box", "brand": "United States Postal Service", "brand:wikidata": "Q668687", "collection_times": "Mo-Fr 15:00; Sa 10:45", "name": "USPS COLLECTION BOX - PO LOBBY", "note": "ON 12/24 AND 12/31, THIS BOX MAY BE COLLECTED AS EARLY AS 12 NOON.", "nsi_id": "unitedstatespostalservice-a77078", "operator": "United States Postal Service", "operator:short": "USPS", "operator:type": "public", "operator:wikidata": "Q668687", "ref": "6562600001"}, "type": "Feature"}
{"dataset_attributes": {"@spider": "usps_collection_boxes"}, "geometry": {"coordinates": [-92.997817, 36.581412], "type": "Point"}, "id": "tehGAHbT_r19YDDFdIu8GoAw8M0=", "properties": {"@spider": "usps_collection_boxes", "addr:city": "CEDARCREEK", "addr:country": "US", "addr:full": "6589 STATE HIGHWAY M", "addr:postcode": "65627", "addr:state": "MO", "amenity": "post_box", "brand": "United States Postal Service", "brand:wikidata": "Q668687", "collection_times": "Mo-Fr 13:30; Sa 09:45", "name": "USPS COLLECTION BOX - BLUE BOX", "note": "ON 12/24 AND 12/31, THIS BOX MAY BE COLLECTED AS EARLY AS 12 NOON.", "nsi_id": "unitedstatespostalservice-a77078", "operator": "United States Postal Service", "operator:short": "USPS", "operator:type": "public", "operator:wikidata": "Q668687", "ref": "6562700000"}, "type": "Feature"}
{"dataset_attributes": {"@spider": "usps_collection_boxes"}, "geometry": {"coordinates": [-92.997851, 36.581422], "type": "Point"}, "id": "474nlXQ2CiStqByHjmCDMKpbTLc=", "properties": {"@spider": "usps_collection_boxes", "addr:city": "CEDARCREEK", "addr:country": "US", "addr:full": "6589 STATE HIGHWAY M", "addr:postcode": "65627", "addr:state": "MO", "amenity": "post_box", "brand": "United States Postal Service", "brand:wikidata": "Q668687", "collection_times": "Mo-Fr 13:30; Sa 09:45", "name": "USPS COLLECTION BOX - PO LOBBY", "note": "ON 12/24 AND 12/31, THIS BOX MAY BE COLLECTED AS EARLY AS 12 NOON.", "nsi_id": "unitedstatespostalservice-a77078", "operator": "United States Postal Service", "operator:short": "USPS", "operator:type": "public", "operator:wikidata": "Q668687", "ref": "6562700001"}, "type": "Feature"}
{"dataset_attributes": {"@spider": "usps_collection_boxes"}, "geometry": {"coordinates": [-92.997795817, 36.581407927], "type": "Point"}, "id": "oJb963nw0XrPOruqCnBzBDgYFJc=", "properties": {"@spider": "usps_collection_boxes", "addr:city": "CEDARCREEK", "addr:country": "US", "addr:full": "6589 STATE HIGHWAY M", "addr:postcode": "65627", "addr:state": "MO", "amenity": "post_box", "brand": "United States Postal Service", "brand:wikidata": "Q668687", "collection_times": "Mo-Fr 15:00; Sa 12:15", "name": "USPS COLLECTION BOX - PO LOBBY", "note": "ON 12/24 AND 12/31, THIS BOX MAY BE COLLECTED AS EARLY AS 12 NOON.", "nsi_id": "unitedstatespostalservice-a77078", "operator": "United States Postal Service", "operator:short": "USPS", "operator:type": "public", "operator:wikidata": "Q668687", "ref": "6562700002"}, "type": "Feature"}
{"dataset_attributes": {"@spider": "usps_collection_boxes"}, "geometry": {"coordinates": [-93.055767, 36.931839], "type": "Point"}, "id": "nHcIm8MU945OprdUjsypoumVqME=", "properties": {"@spider": "usps_collection_boxes", "addr:city": "CHADWICK", "addr:country": "US", "addr:full": "6409 STATE HIGHWAY 125 S", "addr:postcode": "65629", "addr:state": "MO", "amenity": "post_box", "brand": "United States Postal Service", "brand:wikidata": "Q668687", "collection_times": "Mo-Fr 13:30; Sa 08:30", "name": "USPS COLLECTION BOX - BLUE BOX", "note": "ON 12/24 AND 12/31, THIS BOX MAY BE COLLECTED AS EARLY AS 12 NOON.", "nsi_id": "unitedstatespostalservice-a77078", "operator": "United States Postal Service", "operator:short": "USPS", "operator:type": "public", "operator:wikidata": "Q668687", "ref": "6562900000"}, "type": "Feature"}
{"dataset_attributes": {"@spider": "usps_collection_boxes"}, "geometry": {"coordinates": [-93.055706, 36.931912], "type": "Point"}, "id": "6ydn4SDEsYX5-Vy5aMSx7l04qW0=", "properties": {"@spider": "usps_collection_boxes", "addr:city": "CHADWICK", "addr:country": "US", "addr:full": "6409 STATE HIGHWAY 125 S", "addr:postcode": "65629", "addr:state": "MO", "amenity": "post_box", "brand": "United States Postal Service", "brand:wikidata": "Q668687", "collection_times": "Mo-Fr 13:30; Sa 08:30", "name": "USPS COLLECTION BOX - PO LOBBY", "note": "ON 12/24 AND 12/31, THIS BOX MAY BE COLLECTED AS EARLY AS 12 NOON.", "nsi_id": "unitedstatespostalservice-a77078", "operator": "United States Postal Service", "operator:short": "USPS", "operator:type": "public", "operator:wikidata": "Q668687", "ref": "6562900001"}, "type": "Feature"}
{"dataset_attributes": {"@spider": "usps_collection_boxes"}, "geometry": {"coordinates": [-93.055523016, 36.932592153], "type": "Point"}, "id": "0SRtImPWeRmRPgi1lr7fQ5C8Za4=", "properties": {"@spider": "usps_collection_boxes", "addr:city": "CHADWICK", "addr:country": "US", "addr:full": "6409 STATE HIGHWAY 125 S", "addr:postcode": "65629", "addr:state": "MO", "amenity": "post_box", "brand": "United States Postal Service", "brand:wikidata": "Q668687", "collection_times": "Mo-Fr 16:30; Sa 14:00", "name": "USPS COLLECTION BOX - PO LOBBY", "note": "ON 12/24 AND 12/31, THIS BOX MAY BE COLLECTED AS EARLY AS 12 NOON.", "nsi_id": "unitedstatespostalservice-a77078", "operator": "United States Postal Service", "operator:short": "USPS", "operator:type": "public", "operator:wikidata": "Q668687", "ref": "6562900002"}, "type": "Feature"}
{"dataset_attributes": {"@spider": "usps_collection_boxes"}, "geometry": {"coordinates": [-93.470638, 37.029134], "type": "Point"}, "id": "n2J2LEKr_E-pcUeG4tQfL1dtjpc=", "properties": {"@spider": "usps_collection_boxes", "addr:city": "CLEVER", "addr:country": "US", "addr:full": "209 CLARKE AVE", "addr:postcode": "65631", "addr:state": "MO", "amenity": "post_box", "brand": "United States Postal Service", "brand:wikidata": "Q668687", "collection_times": "Mo-Fr 15:30; Sa 09:30", "name": "USPS COLLECTION BOX - BLUE BOX", "note": "ON 12/24 AND 12/31, THIS BOX MAY BE COLLECTED AS EARLY AS 12 NOON.", "nsi_id": "unitedstatespostalservice-a77078", "operator": "United States Postal Service", "operator:short": "USPS", "operator:type": "public", "operator:wikidata": "Q668687", "ref": "6563100000"}, "type": "Feature"}
{"dataset_attributes": {"@spider": "usps_collection_boxes"}, "geometry": {"coordinates": [-93.470602, 37.029209], "type": "Point"}, "id": "yKll3FlXrb5jDks4hOIXiNN5lQo=", "properties": {"@spider": "usps_collection_boxes", "addr:city": "CLEVER", "addr:country": "US", "addr:full": "209 CLARKE AVE", "addr:postcode": "65631", "addr:state": "MO", "amenity": "post_box", "brand": "United States Postal Service", "brand:wikidata": "Q668687", "collection_times": "Mo-Fr 15:30; Sa 09:30", "name": "USPS COLLECTION BOX - PO LOBBY", "note": "ON 12/24 AND 12/31, THIS BOX MAY BE COLLECTED AS EARLY AS 12 NOON.", "nsi_id": "unitedstatespostalservice-a77078", "operator": "United States Postal Service", "operator:short": "USPS", "operator:type": "public", "operator:wikidata": "Q668687", "ref": "6563100001"}, "type": "Feature"}
{"dataset_attributes": {"@spider": "usps_collection_boxes"}, "geometry": {"coordinates": [-93.470654407, 37.028457031], "type": "Point"}, "id": "KjhENnI1jAAXy7mqfmHBRh3FRew=", "properties": {"@spider": "usps_collection_boxes", "addr:city": "CLEVER", "addr:country": "US", "addr:full": "209 CLARKE AVE", "addr:postcode": "65631", "addr:state": "MO", "amenity": "post_box", "brand": "United States Postal Service", "brand:wikidata": "Q668687", "collection_times": "Mo-Fr 16:30; Sa 12:15", "name": "USPS COLLECTION BOX - PO LOBBY", "note": "ON 12/24 AND 12/31, THIS BOX MAY BE COLLECTED AS EARLY AS 12 NOON.", "nsi_id": "unitedstatespostalservice-a77078", "operator": "United States Postal Service", "operator:short": "USPS", "operator:type": "public", "operator:wikidata": "Q668687", "ref": "6563100005"}, "type": "Feature"}
{"dataset_attributes": {"@spider": "usps_collection_boxes"}, "geometry": {"coordinates": [-92.82612, 37.502663], "type": "Point"}, "id": "bTAloiddy3xZ1pVCL64SpIN1SiU=", "properties": {"@spider": "usps_collection_boxes", "addr:city": "CONWAY", "addr:country": "US", "addr:full": "601 W JEFFERSON AVE STE D", "addr:postcode": "65632", "addr:state": "MO", "amenity": "post_box", "brand": "United States Postal Service", "brand:wikidata": "Q668687", "collection_times": "Mo-Fr 14:45; Sa 10:30", "name": "USPS COLLECTION BOX - BLUE BOX", "note": "ON 12/24 AND 12/31, THIS BOX MAY BE COLLECTED AS EARLY AS 12 NOON.", "nsi_id": "unitedstatespostalservice-a77078", "operator": "United States Postal Service", "operator:short": "USPS", "operator:type": "public", "operator:wikidata": "Q668687", "ref": "6563200000"}, "type": "Feature"}
{"dataset_attributes": {"@spider": "usps_collection_boxes"}, "geometry": {"coordinates": [-92.826008, 37.502634], "type": "Point"}, "id": "Sj4y9cBOXx4xjV1T5Cn-EfweEEU=", "properties": {"@spider": "usps_collection_boxes", "addr:city": "CONWAY", "addr:country": "US", "addr:full": "601 W JEFFERSON AVE STE D", "addr:postcode": "65632", "addr:state": "MO", "amenity": "post_box", "brand": "United States Postal Service", "brand:wikidata": "Q668687", "collection_times": "Mo-Fr 14:45; Sa 10:30", "name": "USPS COLLECTION BOX - PO LOBBY", "note": "ON 12/24 AND 12/31, THIS BOX MAY BE COLLECTED AS EARLY AS 12 NOON.", "nsi_id": "unitedstatespostalservice-a77078", "operator": "United States Postal Service", "operator:short": "USPS", "operator:type": "public", "operator:wikidata": "Q668687", "ref": "6563200001"}, "type": "Feature"}
{"dataset_attributes": {"@spider": "usps_collection_boxes"}, "geometry": {"coordinates": [-92.826279388, 37.502666515], "type": "Point"}, "id": "GBPOCBUAcR56y_hT0VTdnRjnNUc=", "properties": {"@spider": "usps_collection_boxes", "addr:city": "CONWAY", "addr:country": "US", "addr:full": "601 W JEFFERSON AVE STE D", "addr:postcode": "65632", "addr:state": "MO", "amenity": "post_box", "brand": "United States Postal Service", "brand:wikidata": "Q668687", "collection_times": "Mo-Fr 16:00; Sa 10:30", "name": "USPS COLLECTION BOX - PO LOBBY", "note": "ON 12/24 AND 12/31, THIS BOX MAY BE COLLECTED AS EARLY AS 12 NOON.", "nsi_id": "unitedstatespostalservice-a77078", "operator": "United States Postal Service", "operator:short": "USPS", "operator:type": "public", "operator:wikidata": "Q668687", "ref": "6563200002"}, "type": "Feature"}
{"dataset_attributes": {"@spider": "usps_collection_boxes"}, "geometry": {"coordinates": [-93.573321, 36.90421], "type": "Point"}, "id": "d6Tg5Bspn1Mmqa-MiEiBE-GW9iU=", "properties": {"@spider": "usps_collection_boxes", "addr:city": "CRANE", "addr:country": "US", "addr:full": "118 MAIN ST", "addr:postcode": "65633", "addr:state": "MO", "amenity": "post_box", "brand": "United States Postal Service", "brand:wikidata": "Q668687", "collection_times": "Mo-Fr 15:00; Sa 09:45", "name": "USPS COLLECTION BOX - BLUE BOX", "note": "ON 12/24 AND 12/31, THIS BOX MAY BE COLLECTED AS EARLY AS 12 NOON.", "nsi_id": "unitedstatespostalservice-a77078", "operator": "United States Postal Service", "operator:short": "USPS", "operator:type": "public", "operator:wikidata": "Q668687", "ref": "6563300000"}, "type": "Feature"}
{"dataset_attributes": {"@spider": "usps_collection_boxes"}, "geometry": {"coordinates": [-93.573321, 36.90421], "type": "Point"}, "id": "NcWuc3yu_za2B55L1yIrd27ayvg=", "properties": {"@spider": "usps_collection_boxes", "addr:city": "CRANE", "addr:country": "US", "addr:full": "118 MAIN ST", "addr:postcode": "65633", "addr:state": "MO", "amenity": "post_box", "brand": "United States Postal Service", "brand:wikidata": "Q668687", "collection_times": "Mo-Fr 15:00; Sa 09:45", "name": "USPS COLLECTION BOX - PO LOBBY", "note": "ON 12/24 AND 12/31, THIS BOX MAY BE COLLECTED AS EARLY AS 12 NOON.", "nsi_id": "unitedstatespostalservice-a77078", "operator": "United States Postal Service", "operator:short": "USPS", "operator:type": "public", "operator:wikidata": "Q668687", "ref": "6563300004"}, "type": "Feature"}
{"dataset_attributes": {"@spider": "usps_collection_boxes"}, "geometry": {"coordinates": [-93.573059526, 36.904683059], "type": "Point"}, "id": "ARPlMddfRRV3dOH3Lvbw9vqb_tU=", "properties": {"@spider": "usps_collection_boxes", "addr:city": "CRANE", "addr:country": "US", "addr:full": "118 MAIN ST", "addr:postcode": "65633", "addr:state": "MO", "amenity": "post_box", "brand": "United States Postal Service", "brand:wikidata": "Q668687", "collection_times": "Mo-Fr 16:30; Sa 12:00", "name": "USPS COLLECTION BOX - PO LOBBY", "note": "ON 12/24 AND 12/31, THIS BOX MAY BE COLLECTED AS EARLY AS 12 NOON.", "nsi_id": "unitedstatespostalservice-a77078", "operator": "United States Postal Service", "operator:short": "USPS", "operator:type": "public", "operator:wikidata": "Q668687", "ref": "6563300005"}, "type": "Feature"}
{"dataset_attributes": {"@spider": "usps_collection_boxes"}, "geometry": {"coordinates": [-93.22761825, 38.024388], "type": "Point"}, "id": "A_iCshL8PalJbGZ5v_3ArWzsQVk=", "properties": {"@spider": "usps_collection_boxes", "addr:city": "CROSS TIMBERS", "addr:country": "US", "addr:full": "12808 PARK ST", "addr:postcode": "65634", "addr:state": "MO", "amenity": "post_box", "brand": "United States Postal Service", "brand:wikidata": "Q668687", "collection_times": "Mo-Fr 13:00; Sa 09:00", "name": "USPS COLLECTION BOX - BLUE BOX", "note": "ON 12/24 AND 12/31, THIS BOX MAY BE COLLECTED AS EARLY AS 12 NOON.", "nsi_id": "unitedstatespostalservice-a77078", "operator": "United States Postal Service", "operator:short": "USPS", "operator:type": "public", "operator:wikidata": "Q668687", "ref": "6563400000"}, "type": "Feature"}
{"dataset_attributes": {"@spider": "usps_collection_boxes"}, "geometry": {"coordinates": [-93.227559, 38.024103], "type": "Point"}, "id": "IMMYnGKoc5_5yWufJHtWTHPfXWM=", "properties": {"@spider": "usps_collection_boxes", "addr:city": "CROSS TIMBERS", "addr:country": "US", "addr:full": "12808 PARK ST", "addr:postcode": "65634", "addr:state": "MO", "amenity": "post_box", "brand": "United States Postal Service", "brand:wikidata": "Q668687", "collection_times": "Mo-Fr 13:00; Sa 09:00", "name": "USPS COLLECTION BOX - PO LOBBY", "note": "ON 12/24 AND 12/31, THIS BOX MAY BE COLLECTED AS EARLY AS 12 NOON.", "nsi_id": "unitedstatespostalservice-a77078", "operator": "United States Postal Service", "operator:short": "USPS", "operator:type": "public", "operator:wikidata": "Q668687", "ref": "6563400001"}, "type": "Feature"}
{"dataset_attributes": {"@spider": "usps_collection_boxes"}, "geometry": {"coordinates": [-93.22761825, 38.024388], "type": "Point"}, "id": "80qJTdRYBJ2Neds2p810IExMfe0=", "properties": {"@spider": "usps_collection_boxes", "addr:city": "CROSS TIMBERS", "addr:country": "US", "addr:full": "12808 PARK ST", "addr:postcode": "65634", "addr:state": "MO", "amenity": "post_box", "brand": "United States Postal Service", "brand:wikidata": "Q668687", "collection_times": "Mo-Fr 16:00; Sa 14:00", "name": "USPS COLLECTION BOX - PO LOBBY", "note": "ON 12/24 AND 12/31, THIS BOX MAY BE COLLECTED AS EARLY AS 12 NOON.", "nsi_id": "unitedstatespostalservice-a77078", "operator": "United States Postal Service", "operator:short": "USPS", "operator:type": "public", "operator:wikidata": "Q668687", "ref": "6563400002"}, "type": "Feature"}
{"dataset_attributes": {"@spider": "usps_collection_boxes"}, "geometry": {"coordinates": [-93.67381, 37.480326], "type": "Point"}, "id": "H4lGemDNABbOdrFlEkJBF1LFh0I=", "properties": {"@spider": "usps_collection_boxes", "addr:city": "DADEVILLE", "addr:country": "US", "addr:full": "103 E MAIN ST STE 103", "addr:postcode": "65635", "addr:state": "MO", "amenity": "post_box", "brand": "United States Postal Service", "brand:wikidata": "Q668687", "collection_times": "Mo-Fr 12:00; Sa 10:30", "name": "USPS COLLECTION BOX - BLUE BOX", "nsi_id": "unitedstatespostalservice-a77078", "operator": "United States Postal Service", "operator:short": "USPS", "operator:type": "public", "operator:wikidata": "Q668687", "ref": "6563500000"}, "type": "Feature"}
{"dataset_attributes": {"@spider": "usps_collection_boxes"}, "geometry": {"coordinates": [-92.847127, 37.172636], "type": "Point"}, "id": "NxR5PXuhClL3UafT3tBudiMoTyY=", "properties": {"@spider": "usps_collection_boxes", "addr:city": "DIGGINS", "addr:country": "US", "addr:full": "505 PLAZA DR", "addr:postcode": "65636", "addr:state": "MO", "amenity": "post_box", "brand": "United States Postal Service", "brand:wikidata": "Q668687", "collection_times": "Mo-Sa 13:00", "name": "USPS COLLECTION BOX - BLUE BOX", "note": "ON 12/24 AND 12/31, THIS BOX MAY BE COLLECTED AS EARLY AS 12 NOON.", "nsi_id": "unitedstatespostalservice-a77078", "operator": "United States Postal Service", "operator:short": "USPS", "operator:type": "public", "operator:wikidata": "Q668687", "ref": "6563600000"}, "type": "Feature"}
{"dataset_attributes": {"@spider": "usps_collection_boxes"}, "geometry": {"coordinates": [-92.847235, 37.172644], "type": "Point"}, "id": "h-fcZoE_eqME1zcNt5MxibFQ5-s=", "properties": {"@spider": "usps_collection_boxes", "addr:city": "DIGGINS", "addr:country": "US", "addr:full": "505 PLAZA DR", "addr:postcode": "65636", "addr:state": "MO", "amenity": "post_box", "brand": "United States Postal Service", "brand:wikidata": "Q668687", "collection_times": "Mo-Sa 13:00", "name": "USPS COLLECTION BOX - PO LOBBY", "note": "ON 12/24 AND 12/31, THIS BOX MAY BE COLLECTED AS EARLY AS 12 NOON.", "nsi_id": "unitedstatespostalservice-a77078", "operator": "United States Postal Service", "operator:short": "USPS", "operator:type": "public", "operator:wikidata": "Q668687", "ref": "6563600002"}, "type": "Feature"}
{"dataset_attributes": {"@spider": "usps_collection_boxes"}, "geometry": {"coordinates": [-92.220008, 36.777851], "type": "Point"}, "id": "p4UUlS-rFgRsxbpFyWIdw5Rdy0A=", "properties": {"@spider": "usps_collection_boxes", "addr:city": "DORA", "addr:country": "US", "addr:full": "100 COUNTY ROAD 379", "addr:postcode": "65637", "addr:state": "MO", "amenity": "post_box", "brand": "United States Postal Service", "brand:wikidata": "Q668687", "collection_times": "Mo-Fr 11:30; Sa 09:30", "name": "USPS COLLECTION BOX - BLUE BOX", "nsi_id": "unitedstatespostalservice-a77078", "operator": "United States Postal Service", "operator:short": "USPS", "operator:type": "public", "operator:wikidata": "Q668687", "ref": "6563700000"}, "type": "Feature"}
{"dataset_attributes": {"@spider": "usps_collection_boxes"}, "geometry": {"coordinates": [-92.220048, 36.777879], "type": "Point"}, "id": "9VNHdOZaX1NHTSV0G571znQDoxc=", "properties": {"@spider": "usps_collection_boxes", "addr:city": "DORA", "addr:country": "US", "addr:full": "100 COUNTY ROAD 379", "addr:postcode": "65637", "addr:state": "MO", "amenity": "post_box", "brand": "United States Postal Service", "brand:wikidata": "Q668687", "collection_times": "Mo-Fr 11:30; Sa 09:30", "name": "USPS COLLECTION BOX - PO LOBBY", "nsi_id": "unitedstatespostalservice-a77078", "operator": "United States Postal Service", "operator:short": "USPS", "operator:type": "public", "operator:wikidata": "Q668687", "ref": "6563700001"}, "type": "Feature"}
{"dataset_attributes": {"@spider": "usps_collection_boxes"}, "geometry": {"coordinates": [-92.220026119, 36.777795116], "type": "Point"}, "id": "O4XQV8awu1eBUg-sVrwKnP5hEnY=", "properties": {"@spider": "usps_collection_boxes", "addr:city": "DORA", "addr:country": "US", "addr:full": "100 COUNTY ROAD 379", "addr:postcode": "65637", "addr:state": "MO", "amenity": "post_box", "brand": "United States Postal Service", "brand:wikidata": "Q668687", "collection_times": "Mo-Fr 11:30; Sa 10:15", "name": "USPS COLLECTION BOX - PO LOBBY", "nsi_id": "unitedstatespostalservice-a77078", "operator": "United States Postal Service", "operator:short": "USPS", "operator:type": "public", "operator:wikidata": "Q668687", "ref": "6563700002"}, "type": "Feature"}
{"dataset_attributes": {"@spider": "usps_collection_boxes"}, "geometry": {"coordinates": [-93.578078, 37.703111], "type": "Point"}, "id": "GyAS4YYIUxVknN9QZY8f5xBtIh0=", "properties": {"@spider": "usps_collection_boxes", "addr:city": "DUNNEGAN", "addr:country": "US", "addr:full": "3777 S 28TH RD", "addr:postcode": "65640", "addr:state": "MO", "amenity": "post_box", "brand": "United States Postal Service", "brand:wikidata": "Q668687", "collection_times": "Mo-Fr 11:45; Sa 12:15", "name": "USPS COLLECTION BOX - BLUE BOX", "note": "ON 12/24 AND 12/31, THIS BOX MAY BE COLLECTED AS EARLY AS 12 NOON.", "nsi_id": "unitedstatespostalservice-a77078", "operator": "United States Postal Service", "operator:short": "USPS", "operator:type": "public", "operator:wikidata": "Q668687", "ref": "6564000000"}, "type": "Feature"}
{"dataset_attributes": {"@spider": "usps_collection_boxes"}, "geometry": {"coordinates": [-93.578046, 37.703061], "type": "Point"}, "id": "ivKy_rljzA09cC6y4BfQ8uqEh9E=", "properties": {"@spider": "usps_collection_boxes", "addr:city": "DUNNEGAN", "addr:country": "US", "addr:full": "3777 S 28TH RD", "addr:postcode": "65640", "addr:state": "MO", "amenity": "post_box", "brand": "United States Postal Service", "brand:wikidata": "Q668687", "collection_times": "Mo-Fr 11:45; Sa 12:15", "name": "USPS COLLECTION BOX - PO LOBBY", "note": "ON 12/24 AND 12/31, THIS BOX MAY BE COLLECTED AS EARLY AS 12 NOON.", "nsi_id": "unitedstatespostalservice-a77078", "operator": "United States Postal Service", "operator:short": "USPS", "operator:type": "public", "operator:wikidata": "Q668687", "ref": "6564000001"}, "type": "Feature"}
{"dataset_attributes": {"@spider": "usps_collection_boxes"}, "geometry": {"coordinates": [-93.578069544, 37.705141834], "type": "Point"}, "id": "PIOiuWRd1Ch_dSERctQPJdJ4c8g=", "properties": {"@spider": "usps_collection_boxes", "addr:city": "DUNNEGAN", "addr:country": "US", "addr:full": "3777 S 28TH RD", "addr:postcode": "65640", "addr:state": "MO", "amenity": "post_box", "brand": "United States Postal Service", "brand:wikidata": "Q668687", "collection_times": "Mo-Fr 12:00; Sa 12:30", "name": "USPS COLLECTION BOX - PO LOBBY", "note": "ON 12/24 AND 12/31, THIS BOX MAY BE COLLECTED AS EARLY AS 12 NOON.", "nsi_id": "unitedstatespostalservice-a77078", "operator": "United States Postal Service", "operator:short": "USPS", "operator:type": "public", "operator:wikidata": "Q668687", "ref": "6564000002"}, "type": "Feature"}
{"dataset_attributes": {"@spider": "usps_collection_boxes"}, "geometry": {"coordinates": [-93.755722, 36.547214], "type": "Point"}, "id": "e5cT0FhR6vu13yjGzu3hCzHWCVc=", "properties": {"@spider": "usps_collection_boxes", "addr:city": "EAGLE ROCK", "addr:country": "US", "addr:full": "28815 STATE HIGHWAY 86", "addr:postcode": "65641", "addr:state": "MO", "amenity": "post_box", "brand": "United States Postal Service", "brand:wikidata": "Q668687", "collection_times": "Mo-Fr 13:00; Sa 10:00", "name": "USPS COLLECTION BOX - BLUE BOX", "note": "ON 12/24 AND 12/31, THIS BOX MAY BE COLLECTED AS EARLY AS 12 NOON.", "nsi_id": "unitedstatespostalservice-a77078", "operator": "United States Postal Service", "operator:short": "USPS", "operator:type": "public", "operator:wikidata": "Q668687", "ref": "6564100000"}, "type": "Feature"}
{"dataset_attributes": {"@spider": "usps_collection_boxes"}, "geometry": {"coordinates": [-93.755673, 36.547172], "type": "Point"}, "id": "JKvw2LAouPvEXnd83ILO9cFzUbY=", "properties": {"@spider": "usps_collection_boxes", "addr:city": "EAGLE ROCK", "addr:country": "US", "addr:full": "28815 STATE HIGHWAY 86", "addr:postcode": "65641", "addr:state": "MO", "amenity": "post_box", "brand": "United States Postal Service", "brand:wikidata": "Q668687", "collection_times": "Mo-Fr 13:00; Sa 10:00", "name": "USPS COLLECTION BOX - PO LOBBY", "note": "ON 12/24 AND 12/31, THIS BOX MAY BE COLLECTED AS EARLY AS 12 NOON.", "nsi_id": "unitedstatespostalservice-a77078", "operator": "United States Postal Service", "operator:short": "USPS", "operator:type": "public", "operator:wikidata": "Q668687", "ref": "6564100001"}, "type": "Feature"}
{"dataset_attributes": {"@spider": "usps_collection_boxes"}, "geometry": {"coordinates": [-93.755743813, 36.547176976], "type": "Point"}, "id": "WE7jIijmnWle1kfUVCPtm6LDJNc=", "properties": {"@spider": "usps_collection_boxes", "addr:city": "EAGLE ROCK", "addr:country": "US", "addr:full": "28815 STATE HIGHWAY 86", "addr:postcode": "65641", "addr:state": "MO", "amenity": "post_box", "brand": "United States Postal Service", "brand:wikidata": "Q668687", "collection_times": "Mo-Fr 15:15; Sa 12:00", "name": "USPS COLLECTION BOX - PO LOBBY", "note": "ON 12/24 AND 12/31, THIS BOX MAY BE COLLECTED AS EARLY AS 12 NOON.", "nsi_id": "unitedstatespostalservice-a77078", "operator": "United States Postal Service", "operator:short": "USPS", "operator:type": "public", "operator:wikidata": "Q668687", "ref": "6564100002"}, "type": "Feature"}
{"dataset_attributes": {"@spider": "usps_collection_boxes"}, "geometry": {"coordinates": [-93.034231976, 37.442938982], "type": "Point"}, "id": "Z15mqbqsIZ2oOmmMtk3cR4Bjuag=", "properties": {"@spider": "usps_collection_boxes", "addr:city": "ELKLAND", "addr:country": "US", "addr:full": "3550 STATE HIGHWAY 38", "addr:postcode": "65644", "addr:state": "MO", "amenity": "post_box", "brand": "United States Postal Service", "brand:wikidata": "Q668687", "collection_times": "Mo-Fr 14:30; Sa 10:15", "name": "USPS COLLECTION BOX - PO LOBBY", "note": "ON 12/24 AND 12/31, THIS BOX MAY BE COLLECTED AS EARLY AS 12 NOON.", "nsi_id": "unitedstatespostalservice-a77078", "operator": "United States Postal Service", "operator:short": "USPS", "operator:type": "public", "operator:wikidata": "Q668687", "ref": "6564400000"}, "type": "Feature"}
{"dataset_attributes": {"@spider": "usps_collection_boxes"}, "geometry": {"coordinates": [-93.034231976, 37.442938982], "type": "Point"}, "id": "2Xd4_S617EM-T52Gsm0JD1LllPM=", "properties": {"@spider": "usps_collection_boxes", "addr:city": "ELKLAND", "addr:country": "US", "addr:full": "3550 STATE HIGHWAY 38", "addr:postcode": "65644", "addr:state": "MO", "amenity": "post_box", "brand": "United States Postal Service", "brand:wikidata": "Q668687", "collection_times": "Mo-Fr 14:30; Sa 10:15", "name": "USPS COLLECTION BOX - BLUE BOX", "note": "ON 12/24 AND 12/31, THIS BOX MAY BE COLLECTED AS EARLY AS 12 NOON.", "nsi_id": "unitedstatespostalservice-a77078", "operator": "United States Postal Service", "operator:short": "USPS", "operator:type": "public", "operator:wikidata": "Q668687", "ref": "6564400001"}, "type": "Feature"}
{"dataset_attributes": {"@spider": "usps_collection_boxes"}, "geometry": {"coordinates": [-93.034231976, 37.442938982], "type": "Point"}, "id": "H3T6TBc8j3cO9RhiLgKdDMcbvwc=", "properties": {"@spider": "usps_collection_boxes", "addr:city": "ELKLAND", "addr:country": "US", "addr:full": "3550 STATE HIGHWAY 38", "addr:postcode": "65644", "addr:state": "MO", "amenity": "post_box", "brand": "United States Postal Service", "brand:wikidata": "Q668687", "collection_times": "Mo-Fr 14:45; Sa 11:00", "name": "USPS COLLECTION BOX - PO LOBBY", "note": "ON 12/24 AND 12/31, THIS BOX MAY BE COLLECTED AS EARLY AS 12 NOON.", "nsi_id": "unitedstatespostalservice-a77078", "operator": "United States Postal Service", "operator:short": "USPS", "operator:type": "public", "operator:wikidata": "Q668687", "ref": "6564400002"}, "type": "Feature"}
{"dataset_attributes": {"@spider": "usps_collection_boxes"}, "geometry": {"coordinates": [-93.7034122362, 37.3409056828], "type": "Point"}, "id": "w7P41A6Sa7Wex0PqMr5OvbzzmuI=", "properties": {"@spider": "usps_collection_boxes", "addr:city": "EVERTON", "addr:country": "US", "addr:full": "102 W COMMERCIAL ST", "addr:postcode": "65646", "addr:state": "MO", "amenity": "post_box", "brand": "United States Postal Service", "brand:wikidata": "Q668687", "collection_times": "Mo-Fr 13:15; Sa 10:00", "name": "USPS COLLECTION BOX - BLUE BOX", "note": "ON 12/24 AND 12/31, THIS BOX MAY BE COLLECTED AS EARLY AS 12 NOON.", "nsi_id": "unitedstatespostalservice-a77078", "operator": "United States Postal Service", "operator:short": "USPS", "operator:type": "public", "operator:wikidata": "Q668687", "ref": "6564600000"}, "type": "Feature"}
{"dataset_attributes": {"@spider": "usps_collection_boxes"}, "geometry": {"coordinates": [-93.703339, 37.340963], "type": "Point"}, "id": "6VDoE8MrUwim66hwv2zmufB0ca4=", "properties": {"@spider": "usps_collection_boxes", "addr:city": "EVERTON", "addr:country": "US", "addr:full": "102 W COMMERCIAL ST", "addr:postcode": "65646", "addr:state": "MO", "amenity": "post_box", "brand": "United States Postal Service", "brand:wikidata": "Q668687", "collection_times": "Mo-Fr 13:15; Sa 10:00", "name": "USPS COLLECTION BOX - PO LOBBY", "note": "ON 12/24 AND 12/31, THIS BOX MAY BE COLLECTED AS EARLY AS 12 NOON.", "nsi_id": "unitedstatespostalservice-a77078", "operator": "United States Postal Service", "operator:short": "USPS", "operator:type": "public", "operator:wikidata": "Q668687", "ref": "6564600001"}, "type": "Feature"}
{"dataset_attributes": {"@spider": "usps_collection_boxes"}, "geometry": {"coordinates": [-93.7036547288, 37.3409425218], "type": "Point"}, "id": "CQQbumK0GCXvM4dxsszyZHNwrfk=", "properties": {"@spider": "usps_collection_boxes", "addr:city": "EVERTON", "addr:country": "US", "addr:full": "102 W COMMERCIAL ST", "addr:postcode": "65646", "addr:state": "MO", "amenity": "post_box", "brand": "United States Postal Service", "brand:wikidata": "Q668687", "collection_times": "Mo-Fr 13:30; Sa 10:30", "name": "USPS COLLECTION BOX - PO LOBBY", "note": "ON 12/24 AND 12/31, THIS BOX MAY BE COLLECTED AS EARLY AS 12 NOON.", "nsi_id": "unitedstatespostalservice-a77078", "operator": "United States Postal Service", "operator:short": "USPS", "operator:type": "public", "operator:wikidata": "Q668687", "ref": "6564600002"}, "type": "Feature"}
{"dataset_attributes": {"@spider": "usps_collection_boxes"}, "geometry": {"coordinates": [-93.941458, 36.66371], "type": "Point"}, "id": "uQrkRFv-v905_Y_T69zBDJCKMyc=", "properties": {"@spider": "usps_collection_boxes", "addr:city": "EXETER", "addr:country": "US", "addr:full": "100 S FRONT ST", "addr:postcode": "65647", "addr:state": "MO", "amenity": "post_box", "brand": "United States Postal Service", "brand:wikidata": "Q668687", "collection_times": "Mo-Fr 13:15; Sa 10:00", "name": "USPS COLLECTION BOX - BLUE BOX", "note": "ON 12/24 AND 12/31, THIS BOX MAY BE COLLECTED AS EARLY AS 12 NOON.", "nsi_id": "unitedstatespostalservice-a77078", "operator": "United States Postal Service", "operator:short": "USPS", "operator:type": "public", "operator:wikidata": "Q668687", "ref": "6564700000"}, "type": "Feature"}
{"dataset_attributes": {"@spider": "usps_collection_boxes"}, "geometry": {"coordinates": [-93.941487, 36.663794], "type": "Point"}, "id": "CYGfUZ4X7Ycuo32xG2LHkTlMoXc=", "properties": {"@spider": "usps_collection_boxes", "addr:city": "EXETER", "addr:country": "US", "addr:full": "100 S FRONT ST", "addr:postcode": "65647", "addr:state": "MO", "amenity": "post_box", "brand": "United States Postal Service", "brand:wikidata": "Q668687", "collection_times": "Mo-Fr 13:15; Sa 10:00", "name": "USPS COLLECTION BOX - PO LOBBY", "note": "ON 12/24 AND 12/31, THIS BOX MAY BE COLLECTED AS EARLY AS 12 NOON.", "nsi_id": "unitedstatespostalservice-a77078", "operator": "United States Postal Service", "operator:short": "USPS", "operator:type": "public", "operator:wikidata": "Q668687", "ref": "6564700001"}, "type": "Feature"}
{"dataset_attributes": {"@spider": "usps_collection_boxes"}, "geometry": {"coordinates": [-93.941436584, 36.663731072], "type": "Point"}, "id": "PcvaO6ryNrqfYPrnkuzptlx6r7o=", "properties": {"@spider": "usps_collection_boxes", "addr:city": "EXETER", "addr:country": "US", "addr:full": "100 S FRONT ST", "addr:postcode": "65647", "addr:state": "MO", "amenity": "post_box", "brand": "United States Postal Service", "brand:wikidata": "Q668687", "collection_times": "Mo-Fr 16:15; Sa 12:30", "name": "USPS COLLECTION BOX - PO LOBBY", "note": "ON 12/24 AND 12/31, THIS BOX MAY BE COLLECTED AS EARLY AS 12 NOON.", "nsi_id": "unitedstatespostalservice-a77078", "operator": "United States Postal Service", "operator:short": "USPS", "operator:type": "public", "operator:wikidata": "Q668687", "ref": "6564700003"}, "type": "Feature"}
{"dataset_attributes": {"@spider": "usps_collection_boxes"}, "geometry": {"coordinates": [-93.146239, 37.383764], "type": "Point"}, "id": "xPqX4Nz5tx_yi8zPT_UtWuTl0OE=", "properties": {"@spider": "usps_collection_boxes", "addr:city": "FAIR GROVE", "addr:country": "US", "addr:full": "210 E OLD MILL RD", "addr:postcode": "65648", "addr:state": "MO", "amenity": "post_box", "brand": "United States Postal Service", "brand:wikidata": "Q668687", "collection_times": "Mo-Fr 15:30; Sa 11:00", "name": "USPS COLLECTION BOX - BLUE BOX", "note": "ON 12/24 AND 12/31, THIS BOX MAY BE COLLECTED AS EARLY AS 12 NOON.", "nsi_id": "unitedstatespostalservice-a77078", "operator": "United States Postal Service", "operator:short": "USPS", "operator:type": "public", "operator:wikidata": "Q668687", "ref": "6564800000"}, "type": "Feature"}
{"dataset_attributes": {"@spider": "usps_collection_boxes"}, "geometry": {"coordinates": [-93.146351, 37.383793], "type": "Point"}, "id": "OCYI5SFBsNlJExDMUl69Bg3x_Jw=", "properties": {"@spider": "usps_collection_boxes", "addr:city": "FAIR GROVE", "addr:country": "US", "addr:full": "210 E OLD MILL RD", "addr:postcode": "65648", "addr:state": "MO", "amenity": "post_box", "brand": "United States Postal Service", "brand:wikidata": "Q668687", "collection_times": "Mo-Fr 15:30; Sa 11:00", "name": "USPS COLLECTION BOX - PO LOBBY", "note": "ON 12/24 AND 12/31, THIS BOX MAY BE COLLECTED AS EARLY AS 12 NOON.", "nsi_id": "unitedstatespostalservice-a77078", "operator": "United States Postal Service", "operator:short": "USPS", "operator:type": "public", "operator:wikidata": "Q668687", "ref": "6564800001"}, "type": "Feature"}
{"dataset_attributes": {"@spider": "usps_collection_boxes"}, "geometry": {"coordinates": [-93.146279994, 37.383703674], "type": "Point"}, "id": "sf4NBQv0ZE17nwcci2h4mK_5OQE=", "properties": {"@spider": "usps_collection_boxes", "addr:city": "FAIR GROVE", "addr:country": "US", "addr:full": "210 E OLD MILL RD", "addr:postcode": "65648", "addr:state": "MO", "amenity": "post_box", "brand": "United States Postal Service", "brand:wikidata": "Q668687", "collection_times": "Mo-Fr 16:45; Sa 11:15", "name": "USPS COLLECTION BOX - PO LOBBY", "note": "ON 12/24 AND 12/31, THIS BOX MAY BE COLLECTED AS EARLY AS 12 NOON.", "nsi_id": "unitedstatespostalservice-a77078", "operator": "United States Postal Service", "operator:short": "USPS", "operator:type": "public", "operator:wikidata": "Q668687", "ref": "6564800003"}, "type": "Feature"}
{"dataset_attributes": {"@spider": "usps_collection_boxes"}, "geometry": {"coordinates": [-93.577615, 37.63202], "type": "Point"}, "id": "wai7CSqgcUIhK0LYGc0CMh_LakQ=", "properties": {"@spider": "usps_collection_boxes", "addr:city": "FAIR PLAY", "addr:country": "US", "addr:full": "103 S TROOST AVE", "addr:postcode": "65649", "addr:state": "MO", "amenity": "post_box", "brand": "United States Postal Service", "brand:wikidata": "Q668687", "collection_times": "Mo-Fr 14:15; Sa 10:00", "name": "USPS COLLECTION BOX - BLUE BOX", "note": "ON 12/24 AND 12/31, THIS BOX MAY BE COLLECTED AS EARLY AS 12 NOON.", "nsi_id": "unitedstatespostalservice-a77078", "operator": "United States Postal Service", "operator:short": "USPS", "operator:type": "public", "operator:wikidata": "Q668687", "ref": "6564900000"}, "type": "Feature"}
{"dataset_attributes": {"@spider": "usps_collection_boxes"}, "geometry": {"coordinates": [-93.577588, 37.632108], "type": "Point"}, "id": "C1ZHx7a9QVLN-dpxJtTxUFkoVO0=", "properties": {"@spider": "usps_collection_boxes", "addr:city": "FAIR PLAY", "addr:country": "US", "addr:full": "103 S TROOST AVE", "addr:postcode": "65649", "addr:state": "MO", "amenity": "post_box", "brand": "United States Postal Service", "brand:wikidata": "Q668687", "collection_times": "Mo-Fr 14:15; Sa 10:00", "name": "USPS COLLECTION BOX - PO LOBBY", "note": "ON 12/24 AND 12/31, THIS BOX MAY BE COLLECTED AS EARLY AS 12 NOON.", "nsi_id": "unitedstatespostalservice-a77078", "operator": "United States Postal Service", "operator:short": "USPS", "operator:type": "public", "operator:wikidata": "Q668687", "ref": "6564900001"}, "type": "Feature"}
{"dataset_attributes": {"@spider": "usps_collection_boxes"}, "geometry": {"coordinates": [-93.577588, 37.632108], "type": "Point"}, "id": "Y7ExBftgvB41fE5zwiSPj4EXhfs=", "properties": {"@spider": "usps_collection_boxes", "addr:city": "FAIR PLAY", "addr:country": "US", "addr:full": "103 S TROOST AVE", "addr:postcode": "65649", "addr:state": "MO", "amenity": "post_box", "brand": "United States Postal Service", "brand:wikidata": "Q668687", "collection_times": "Mo-Fr 14:15; Sa 10:00", "name": "USPS COLLECTION BOX - PO LOBBY", "note": "ON 12/24 AND 12/31, THIS BOX MAY BE COLLECTED AS EARLY AS 12 NOON.", "nsi_id": "unitedstatespostalservice-a77078", "operator": "United States Postal Service", "operator:short": "USPS", "operator:type": "public", "operator:wikidata": "Q668687", "ref": "6564900002"}, "type": "Feature"}
{"dataset_attributes": {"@spider": "usps_collection_boxes"}, "geometry": {"coordinates": [-93.57768074, 37.632031655], "type": "Point"}, "id": "yeH-1enuBrFdxpcvrl-zEOYsgXE=", "properties": {"@spider": "usps_collection_boxes", "addr:city": "FAIR PLAY", "addr:country": "US", "addr:full": "103 S TROOST AVE", "addr:postcode": "65649", "addr:state": "MO", "amenity": "post_box", "brand": "United States Postal Service", "brand:wikidata": "Q668687", "collection_times": "Mo-Fr 16:15; Sa 11:45", "name": "USPS COLLECTION BOX - PO LOBBY", "note": "ON 12/24 AND 12/31, THIS BOX MAY BE COLLECTED AS EARLY AS 12 NOON.", "nsi_id": "unitedstatespostalservice-a77078", "operator": "United States Postal Service", "operator:short": "USPS", "operator:type": "public", "operator:wikidata": "Q668687", "ref": "6564900004"}, "type": "Feature"}
{"dataset_attributes": {"@spider": "usps_collection_boxes"}, "geometry": {"coordinates": [-93.502811, 37.806009], "type": "Point"}, "id": "wux9hgoElIbrHe97EEGYZ_aD9kQ=", "properties": {"@spider": "usps_collection_boxes", "addr:city": "FLEMINGTON", "addr:country": "US", "addr:full": "691 MAIN ST", "addr:postcode": "65650", "addr:state": "MO", "amenity": "post_box", "brand": "United States Postal Service", "brand:wikidata": "Q668687", "collection_times": "Mo-Fr 13:00; Sa 09:45", "name": "USPS COLLECTION BOX - BLUE BOX", "note": "ON 12/24 AND 12/31, THIS BOX MAY BE COLLECTED AS EARLY AS 12 NOON.", "nsi_id": "unitedstatespostalservice-a77078", "operator": "United States Postal Service", "operator:short": "USPS", "operator:type": "public", "operator:wikidata": "Q668687", "ref": "6565000000"}, "type": "Feature"}
{"dataset_attributes": {"@spider": "usps_collection_boxes"}, "geometry": {"coordinates": [-93.502811, 37.806009], "type": "Point"}, "id": "kQUJHkeo3BVcN35CRKaHAOzWH04=", "properties": {"@spider": "usps_collection_boxes", "addr:city": "FLEMINGTON", "addr:country": "US", "addr:full": "691 MAIN ST", "addr:postcode": "65650", "addr:state": "MO", "amenity": "post_box", "brand": "United States Postal Service", "brand:wikidata": "Q668687", "collection_times": "Mo-Fr 13:00; Sa 09:45", "name": "USPS COLLECTION BOX - PO LOBBY", "note": "ON 12/24 AND 12/31, THIS BOX MAY BE COLLECTED AS EARLY AS 12 NOON.", "nsi_id": "unitedstatespostalservice-a77078", "operator": "United States Postal Service", "operator:short": "USPS", "operator:type": "public", "operator:wikidata": "Q668687", "ref": "6565000001"}, "type": "Feature"}
{"dataset_attributes": {"@spider": "usps_collection_boxes"}, "geometry": {"coordinates": [-93.502847145, 37.806062747], "type": "Point"}, "id": "w73Rotb7qFGbeJLUFJgxADikfek=", "properties": {"@spider": "usps_collection_boxes", "addr:city": "FLEMINGTON", "addr:country": "US", "addr:full": "691 MAIN ST", "addr:postcode": "65650", "addr:state": "MO", "amenity": "post_box", "brand": "United States Postal Service", "brand:wikidata": "Q668687", "collection_times": "Mo-Fr 13:30; Sa 11:30", "name": "USPS COLLECTION BOX - PO LOBBY", "note": "ON 12/24 AND 12/31, THIS BOX MAY BE COLLECTED AS EARLY AS 12 NOON.", "nsi_id": "unitedstatespostalservice-a77078", "operator": "United States Postal Service", "operator:short": "USPS", "operator:type": "public", "operator:wikidata": "Q668687", "ref": "6565000002"}, "type": "Feature"}
{"dataset_attributes": {"@spider": "usps_collection_boxes"}, "geometry": {"coordinates": [-92.940549, 37.157393], "type": "Point"}, "id": "fOHKewsQbM4DL4CscNeo55jOGoI=", "properties": {"@spider": "usps_collection_boxes", "addr:city": "FORDLAND", "addr:country": "US", "addr:full": "132 MAIN ST", "addr:postcode": "65652", "addr:state": "MO", "amenity": "post_box", "brand": "United States Postal Service", "brand:wikidata": "Q668687", "collection_times": "Mo-Fr 15:15; Sa 10:00", "name": "USPS COLLECTION BOX - BLUE BOX", "note": "ON 12/24 AND 12/31, THIS BOX MAY BE COLLECTED AS EARLY AS 12 NOON.", "nsi_id": "unitedstatespostalservice-a77078", "operator": "United States Postal Service", "operator:short": "USPS", "operator:type": "public", "operator:wikidata": "Q668687", "ref": "6565200000"}, "type": "Feature"}
{"dataset_attributes": {"@spider": "usps_collection_boxes"}, "geometry": {"coordinates": [-92.940549, 37.157393], "type": "Point"}, "id": "6eQLBLKmvYz0wXSkgRUcKp-9lLU=", "properties": {"@spider": "usps_collection_boxes", "addr:city": "FORDLAND", "addr:country": "US", "addr:full": "132 MAIN ST", "addr:postcode": "65652", "addr:state": "MO", "amenity": "post_box", "brand": "United States Postal Service", "brand:wikidata": "Q668687", "collection_times": "Mo-Fr 15:15; Sa 10:00", "name": "USPS COLLECTION BOX - PO LOBBY", "note": "ON 12/24 AND 12/31, THIS BOX MAY BE COLLECTED AS EARLY AS 12 NOON.", "nsi_id": "unitedstatespostalservice-a77078", "operator": "United States Postal Service", "operator:short": "USPS", "operator:type": "public", "operator:wikidata": "Q668687", "ref": "6565200002"}, "type": "Feature"}
{"dataset_attributes": {"@spider": "usps_collection_boxes"}, "geometry": {"coordinates": [-92.940617577, 37.157399245], "type": "Point"}, "id": "uOVH2r8wi_2HPluebBUu-Z5Udog=", "properties": {"@spider": "usps_collection_boxes", "addr:city": "FORDLAND", "addr:country": "US", "addr:full": "132 MAIN ST", "addr:postcode": "65652", "addr:state": "MO", "amenity": "post_box", "brand": "United States Postal Service", "brand:wikidata": "Q668687", "collection_times": "Mo-Fr 16:00; Sa 10:15", "name": "USPS COLLECTION BOX - PO LOBBY", "note": "ON 12/24 AND 12/31, THIS BOX MAY BE COLLECTED AS EARLY AS 12 NOON.", "nsi_id": "unitedstatespostalservice-a77078", "operator": "United States Postal Service", "operator:short": "USPS", "operator:type": "public", "operator:wikidata": "Q668687", "ref": "6565200003"}, "type": "Feature"}
{"dataset_attributes": {"@spider": "usps_collection_boxes"}, "geometry": {"coordinates": [-93.118164, 36.686707], "type": "Point"}, "id": "OfhWrZS-maKWhxRtFSI1VLOzViI=", "properties": {"@spider": "usps_collection_boxes", "addr:city": "FORSYTH", "addr:country": "US", "addr:full": "215 SHADOWROCK DR", "addr:postcode": "65653", "addr:state": "MO", "amenity": "post_box", "brand": "United States Postal Service", "brand:wikidata": "Q668687", "collection_times": "Mo-Fr 14:15; Sa 12:00", "name": "USPS COLLECTION BOX - PO LOBBY", "note": "ON 12/24 AND 12/31, THIS BOX MAY BE COLLECTED AS EARLY AS 12 NOON.", "nsi_id": "unitedstatespostalservice-a77078", "operator": "United States Postal Service", "operator:short": "USPS", "operator:type": "public", "operator:wikidata": "Q668687", "ref": "6565300004"}, "type": "Feature"}
{"dataset_attributes": {"@spider": "usps_collection_boxes"}, "geometry": {"coordinates": [-93.118194, 36.68668], "type": "Point"}, "id": "Vldy8Saq81ahMuK8nKZ3vH-Mpn4=", "properties": {"@spider": "usps_collection_boxes", "addr:city": "FORSYTH", "addr:country": "US", "addr:full": "215 SHADOWROCK DR", "addr:postcode": "65653", "addr:state": "MO", "amenity": "post_box", "brand": "United States Postal Service", "brand:wikidata": "Q668687", "collection_times": "Mo-Fr 14:15; Sa 12:00", "name": "USPS COLLECTION BOX - BLUE BOX", "note": "ON 12/24 AND 12/31, THIS BOX MAY BE COLLECTED AS EARLY AS 12 NOON.", "nsi_id": "unitedstatespostalservice-a77078", "operator": "United States Postal Service", "operator:short": "USPS", "operator:type": "public", "operator:wikidata": "Q668687", "ref": "6565300007"}, "type": "Feature"}
{"dataset_attributes": {"@spider": "usps_collection_boxes"}, "geometry": {"coordinates": [-93.11805262, 36.686684848], "type": "Point"}, "id": "OGrC35s9BuxSoYzdu17JvomBlPc=", "properties": {"@spider": "usps_collection_boxes", "addr:city": "FORSYTH", "addr:country": "US", "addr:full": "215 SHADOWROCK DR", "addr:postcode": "65653", "addr:state": "MO", "amenity": "post_box", "brand": "United States Postal Service", "brand:wikidata": "Q668687", "collection_times": "Mo-Fr 16:30; Sa 12:30", "name": "USPS COLLECTION BOX - PO LOBBY", "note": "ON 12/24 AND 12/31, THIS BOX MAY BE COLLECTED AS EARLY AS 12 NOON.", "nsi_id": "unitedstatespostalservice-a77078", "operator": "United States Postal Service", "operator:short": "USPS", "operator:type": "public", "operator:wikidata": "Q668687", "ref": "6565300009"}, "type": "Feature"}
{"dataset_attributes": {"@spider": "usps_collection_boxes"}, "geometry": {"coordinates": [-93.8973152, 37.020919], "type": "Point"}, "id": "iD9grLZDzOAcgts0zbdTye5rrR8=", "properties": {"@spider": "usps_collection_boxes", "addr:city": "FREISTATT", "addr:country": "US", "addr:full": "101 E 3RD ST", "addr:postcode": "65654", "addr:state": "MO", "amenity": "post_box", "brand": "United States Postal Service", "brand:wikidata": "Q668687", "collection_times": "Mo-Sa 11:00", "name": "USPS COLLECTION BOX - BLUE BOX", "nsi_id": "unitedstatespostalservice-a77078", "operator": "United States Postal Service", "operator:short": "USPS", "operator:type": "public", "operator:wikidata": "Q668687", "ref": "6565400002"}, "type": "Feature"}
{"dataset_attributes": {"@spider": "usps_collection_boxes"}, "geometry": {"coordinates": [-92.431102, 36.603736], "type": "Point"}, "id": "dnBZvSk0vSZ8bUHTTaJm8-rrj-s=", "properties": {"@spider": "usps_collection_boxes", "addr:city": "GAINESVILLE", "addr:country": "US", "addr:full": "203 ELM ST", "addr:postcode": "65655", "addr:state": "MO", "amenity": "post_box", "brand": "United States Postal Service", "brand:wikidata": "Q668687", "collection_times": "Mo-Fr 13:30; Sa 11:00", "name": "USPS COLLECTION BOX - BLUE BOX", "note": "ON 12/24 AND 12/31, THIS BOX MAY BE COLLECTED AS EARLY AS 12 NOON.", "nsi_id": "unitedstatespostalservice-a77078", "operator": "United States Postal Service", "operator:short": "USPS", "operator:type": "public", "operator:wikidata": "Q668687", "ref": "6565500000"}, "type": "Feature"}
{"dataset_attributes": {"@spider": "usps_collection_boxes"}, "geometry": {"coordinates": [-92.431068, 36.603691], "type": "Point"}, "id": "eMOENj2tALku55bqypuHJHPg408=", "properties": {"@spider": "usps_collection_boxes", "addr:city": "GAINESVILLE", "addr:country": "US", "addr:full": "203 ELM ST", "addr:postcode": "65655", "addr:state": "MO", "amenity": "post_box", "brand": "United States Postal Service", "brand:wikidata": "Q668687", "collection_times": "Mo-Fr 13:30; Sa 11:00", "name": "USPS COLLECTION BOX - PO LOBBY", "note": "ON 12/24 AND 12/31, THIS BOX MAY BE COLLECTED AS EARLY AS 12 NOON.", "nsi_id": "unitedstatespostalservice-a77078", "operator": "United States Postal Service", "operator:short": "USPS", "operator:type": "public", "operator:wikidata": "Q668687", "ref": "6565500001"}, "type": "Feature"}
{"dataset_attributes": {"@spider": "usps_collection_boxes"}, "geometry": {"coordinates": [-92.431128412, 36.603708206], "type": "Point"}, "id": "UJRTjaHs8Wvli7zGiio6cMeHSHU=", "properties": {"@spider": "usps_collection_boxes", "addr:city": "GAINESVILLE", "addr:country": "US", "addr:full": "203 ELM ST", "addr:postcode": "65655", "addr:state": "MO", "amenity": "post_box", "brand": "United States Postal Service", "brand:wikidata": "Q668687", "collection_times": "Mo-Fr 16:00; Sa 10:00", "name": "USPS COLLECTION BOX - PO LOBBY", "note": "ON 12/24 AND 12/31, THIS BOX MAY BE COLLECTED AS EARLY AS 12 NOON.", "nsi_id": "unitedstatespostalservice-a77078", "operator": "United States Postal Service", "operator:short": "USPS", "operator:type": "public", "operator:wikidata": "Q668687", "ref": "6565500002"}, "type": "Feature"}
{"dataset_attributes": {"@spider": "usps_collection_boxes"}, "geometry": {"coordinates": [-93.468113, 36.81087], "type": "Point"}, "id": "QhBsX5YcDpfGkiPHKoNvWioXWQ0=", "properties": {"@spider": "usps_collection_boxes", "addr:city": "GALENA", "addr:country": "US", "addr:full": "30691 STATE HIGHWAY 413", "addr:postcode": "65656", "addr:state": "MO", "amenity": "post_box", "brand": "United States Postal Service", "brand:wikidata": "Q668687", "collection_times": "Mo-Fr 15:00; Sa 10:30", "name": "USPS COLLECTION BOX - PO LOBBY", "note": "ON 12/24 AND 12/31, THIS BOX MAY BE COLLECTED AS EARLY AS 12 NOON.", "nsi_id": "unitedstatespostalservice-a77078", "operator": "United States Postal Service", "operator:short": "USPS", "operator:type": "public", "operator:wikidata": "Q668687", "ref": "6565600000"}, "type": "Feature"}
{"dataset_attributes": {"@spider": "usps_collection_boxes"}, "geometry": {"coordinates": [-93.468145, 36.810913], "type": "Point"}, "id": "wR20r8bMxskWI2YE_NC1mNaziVg=", "properties": {"@spider": "usps_collection_boxes", "addr:city": "GALENA", "addr:country": "US", "addr:full": "30691 STATE HIGHWAY 413", "addr:postcode": "65656", "addr:state": "MO", "amenity": "post_box", "brand": "United States Postal Service", "brand:wikidata": "Q668687", "collection_times": "Mo-Fr 15:00; Sa 10:30", "name": "USPS COLLECTION BOX - BLUE BOX", "note": "ON 12/24 AND 12/31, THIS BOX MAY BE COLLECTED AS EARLY AS 12 NOON.", "nsi_id": "unitedstatespostalservice-a77078", "operator": "United States Postal Service", "operator:short": "USPS", "operator:type": "public", "operator:wikidata": "Q668687", "ref": "6565600002"}, "type": "Feature"}
{"dataset_attributes": {"@spider": "usps_collection_boxes"}, "geometry": {"coordinates": [-93.468145, 36.810913], "type": "Point"}, "id": "DRmNjCJcIWZeyLgURYfQ9lgFtNg=", "properties": {"@spider": "usps_collection_boxes", "addr:city": "GALENA", "addr:country": "US", "addr:full": "30691 STATE HIGHWAY 413", "addr:postcode": "65656", "addr:state": "MO", "amenity": "post_box", "brand": "United States Postal Service", "brand:wikidata": "Q668687", "collection_times": "Mo-Fr 15:00; Sa 10:30", "name": "USPS COLLECTION BOX - PO LOBBY", "note": "ON 12/24 AND 12/31, THIS BOX MAY BE COLLECTED AS EARLY AS 12 NOON.", "nsi_id": "unitedstatespostalservice-a77078", "operator": "United States Postal Service", "operator:short": "USPS", "operator:type": "public", "operator:wikidata": "Q668687", "ref": "6565600003"}, "type": "Feature"}
{"dataset_attributes": {"@spider": "usps_collection_boxes"}, "geometry": {"coordinates": [-93.46811031, 36.810857716], "type": "Point"}, "id": "sJi8oXpCdWRTO6joHT4S0IF9d6s=", "properties": {"@spider": "usps_collection_boxes", "addr:city": "GALENA", "addr:country": "US", "addr:full": "30691 STATE HIGHWAY 413", "addr:postcode": "65656", "addr:state": "MO", "amenity": "post_box", "brand": "United States Postal Service", "brand:wikidata": "Q668687", "collection_times": "Mo-Fr 16:00; Sa 10:30", "name": "USPS COLLECTION BOX - PO LOBBY", "note": "ON 12/24 AND 12/31, THIS BOX MAY BE COLLECTED AS EARLY AS 12 NOON.", "nsi_id": "unitedstatespostalservice-a77078", "operator": "United States Postal Service", "operator:short": "USPS", "operator:type": "public", "operator:wikidata": "Q668687", "ref": "6565600004"}, "type": "Feature"}
{"dataset_attributes": {"@spider": "usps_collection_boxes"}, "geometry": {"coordinates": [-93.653866734, 36.524029953], "type": "Point"}, "id": "d2xo_-UrEJsI7f5CFbmViB2dQSk=", "properties": {"@spider": "usps_collection_boxes", "addr:city": "GOLDEN", "addr:country": "US", "addr:full": "28667 STATE HIGHWAY J", "addr:postcode": "65658", "addr:state": "MO", "amenity": "post_box", "brand": "United States Postal Service", "brand:wikidata": "Q668687", "collection_times": "Mo-Fr 13:15; Sa 09:30", "name": "USPS COLLECTION BOX - BLUE BOX", "note": "ON 12/24 AND 12/31, THIS BOX MAY BE COLLECTED AS EARLY AS 12 NOON.", "nsi_id": "unitedstatespostalservice-a77078", "operator": "United States Postal Service", "operator:short": "USPS", "operator:type": "public", "operator:wikidata": "Q668687", "ref": "6565800000"}, "type": "Feature"}
{"dataset_attributes": {"@spider": "usps_collection_boxes"}, "geometry": {"coordinates": [-93.653809, 36.5241], "type": "Point"}, "id": "fgEOuB-YBgilhBWJd2oHFMLqENo=", "properties": {"@spider": "usps_collection_boxes", "addr:city": "GOLDEN", "addr:country": "US", "addr:full": "28667 STATE HIGHWAY J", "addr:postcode": "65658", "addr:state": "MO", "amenity": "post_box", "brand": "United States Postal Service", "brand:wikidata": "Q668687", "collection_times": "Mo-Fr 13:15; Sa 09:30", "name": "USPS COLLECTION BOX - PO LOBBY", "note": "ON 12/24 AND 12/31, THIS BOX MAY BE COLLECTED AS EARLY AS 12 NOON.", "nsi_id": "unitedstatespostalservice-a77078", "operator": "United States Postal Service", "operator:short": "USPS", "operator:type": "public", "operator:wikidata": "Q668687", "ref": "6565800001"}, "type": "Feature"}
{"dataset_attributes": {"@spider": "usps_collection_boxes"}, "geometry": {"coordinates": [-93.653866734, 36.524029953], "type": "Point"}, "id": "25rmgrncOZOpmFEhy_qcHciQD0k=", "properties": {"@spider": "usps_collection_boxes", "addr:city": "GOLDEN", "addr:country": "US", "addr:full": "28667 STATE HIGHWAY J", "addr:postcode": "65658", "addr:state": "MO", "amenity": "post_box", "brand": "United States Postal Service", "brand:wikidata": "Q668687", "collection_times": "Mo-Fr 15:15; Sa 10:30", "name": "USPS COLLECTION BOX - PO LOBBY", "note": "ON 12/24 AND 12/31, THIS BOX MAY BE COLLECTED AS EARLY AS 12 NOON.", "nsi_id": "unitedstatespostalservice-a77078", "operator": "United States Postal Service", "operator:short": "USPS", "operator:type": "public", "operator:wikidata": "Q668687", "ref": "6565800002"}, "type": "Feature"}
{"dataset_attributes": {"@spider": "usps_collection_boxes"}, "geometry": {"coordinates": [-92.281469, 37.318086], "type": "Point"}, "id": "zr74zUUxeeEXgzqghUHNTx-_hzA=", "properties": {"@spider": "usps_collection_boxes", "addr:city": "GRAFF", "addr:country": "US", "addr:full": "9335 HIGHWAY 38", "addr:postcode": "65660", "addr:state": "MO", "amenity": "post_box", "brand": "United States Postal Service", "brand:wikidata": "Q668687", "collection_times": "Mo-Sa 11:15", "name": "USPS COLLECTION BOX - BLUE BOX", "nsi_id": "unitedstatespostalservice-a77078", "operator": "United States Postal Service", "operator:short": "USPS", "operator:type": "public", "operator:wikidata": "Q668687", "ref": "6566000000"}, "type": "Feature"}
{"dataset_attributes": {"@spider": "usps_collection_boxes"}, "geometry": {"coordinates": [-92.281531, 37.318051], "type": "Point"}, "id": "My8gZDbjSWZ_f-lA7KKhcN__tjg=", "properties": {"@spider": "usps_collection_boxes", "addr:city": "GRAFF", "addr:country": "US", "addr:full": "9335 HIGHWAY 38", "addr:postcode": "65660", "addr:state": "MO", "amenity": "post_box", "brand": "United States Postal Service", "brand:wikidata": "Q668687", "collection_times": "Mo-Sa 11:15", "name": "USPS COLLECTION BOX - PO LOBBY", "nsi_id": "unitedstatespostalservice-a77078", "operator": "United States Postal Service", "operator:short": "USPS", "operator:type": "public", "operator:wikidata": "Q668687", "ref": "6566000001"}, "type": "Feature"}
{"dataset_attributes": {"@spider": "usps_collection_boxes"}, "geometry": {"coordinates": [-92.281779203, 37.318076527], "type": "Point"}, "id": "VpAcQD_lTcI1ZhLn459u9hHXGyY=", "properties": {"@spider": "usps_collection_boxes", "addr:city": "GRAFF", "addr:country": "US", "addr:full": "9335 HIGHWAY 38", "addr:postcode": "65660", "addr:state": "MO", "amenity": "post_box", "brand": "United States Postal Service", "brand:wikidata": "Q668687", "collection_times": "Mo-Sa 11:30", "name": "USPS COLLECTION BOX - PO LOBBY", "nsi_id": "unitedstatespostalservice-a77078", "operator": "United States Postal Service", "operator:short": "USPS", "operator:type": "public", "operator:wikidata": "Q668687", "ref": "6566000002"}, "type": "Feature"}
{"dataset_attributes": {"@spider": "usps_collection_boxes"}, "geometry": {"coordinates": [-93.840368, 37.41438], "type": "Point"}, "id": "OFsLspkrviCzgNmV0W28ggTgKew=", "properties": {"@spider": "usps_collection_boxes", "addr:city": "GREENFIELD", "addr:country": "US", "addr:full": "114 S MAIN ST", "addr:postcode": "65661", "addr:state": "MO", "amenity": "post_box", "brand": "United States Postal Service", "brand:wikidata": "Q668687", "collection_times": "Mo-Fr 13:45; Sa 09:30", "name": "USPS COLLECTION BOX - BLUE BOX", "note": "ON 12/24 AND 12/31, THIS BOX MAY BE COLLECTED AS EARLY AS 12 NOON.", "nsi_id": "unitedstatespostalservice-a77078", "operator": "United States Postal Service", "operator:short": "USPS", "operator:type": "public", "operator:wikidata": "Q668687", "ref": "6566100000"}, "type": "Feature"}
{"dataset_attributes": {"@spider": "usps_collection_boxes"}, "geometry": {"coordinates": [-93.840368, 37.41438], "type": "Point"}, "id": "m3C5xJDzMu1hmN0aV3JyvlosBMY=", "properties": {"@spider": "usps_collection_boxes", "addr:city": "GREENFIELD", "addr:country": "US", "addr:full": "114 S MAIN ST", "addr:postcode": "65661", "addr:state": "MO", "amenity": "post_box", "brand": "United States Postal Service", "brand:wikidata": "Q668687", "collection_times": "Mo-Fr 13:45; Sa 09:30", "name": "USPS COLLECTION BOX - PO LOBBY", "note": "ON 12/24 AND 12/31, THIS BOX MAY BE COLLECTED AS EARLY AS 12 NOON.", "nsi_id": "unitedstatespostalservice-a77078", "operator": "United States Postal Service", "operator:short": "USPS", "operator:type": "public", "operator:wikidata": "Q668687", "ref": "6566100004"}, "type": "Feature"}
{"dataset_attributes": {"@spider": "usps_collection_boxes"}, "geometry": {"coordinates": [-93.840337426, 37.414243006], "type": "Point"}, "id": "qzc1-rWq_BJBM8DVUtlk5K6g-pI=", "properties": {"@spider": "usps_collection_boxes", "addr:city": "GREENFIELD", "addr:country": "US", "addr:full": "114 S MAIN ST", "addr:postcode": "65661", "addr:state": "MO", "amenity": "post_box", "brand": "United States Postal Service", "brand:wikidata": "Q668687", "collection_times": "Mo-Fr 16:30; Sa 10:30", "name": "USPS COLLECTION BOX - PO LOBBY", "note": "ON 12/24 AND 12/31, THIS BOX MAY BE COLLECTED AS EARLY AS 12 NOON.", "nsi_id": "unitedstatespostalservice-a77078", "operator": "United States Postal Service", "operator:short": "USPS", "operator:type": "public", "operator:wikidata": "Q668687", "ref": "6566100005"}, "type": "Feature"}
{"dataset_attributes": {"@spider": "usps_collection_boxes"}, "geometry": {"coordinates": [-92.6091, 37.399954], "type": "Point"}, "id": "2FZ5IV_ibroImTZyy8poijObLX4=", "properties": {"@spider": "usps_collection_boxes", "addr:city": "GROVESPRING", "addr:country": "US", "addr:full": "2123 HIGHWAY M", "addr:postcode": "65662", "addr:state": "MO", "amenity": "post_box", "brand": "United States Postal Service", "brand:wikidata": "Q668687", "collection_times": "Mo-Fr 13:00; Sa 11:30", "name": "USPS COLLECTION BOX - BLUE BOX", "note": "ON 12/24 AND 12/31, THIS BOX MAY BE COLLECTED AS EARLY AS 12 NOON.", "nsi_id": "unitedstatespostalservice-a77078", "operator": "United States Postal Service", "operator:short": "USPS", "operator:type": "public", "operator:wikidata": "Q668687", "ref": "6566200000"}, "type": "Feature"}
{"dataset_attributes": {"@spider": "usps_collection_boxes"}, "geometry": {"coordinates": [-92.609164, 37.39993], "type": "Point"}, "id": "5xOUhmxy7hdQ83i6AZHdb1SiZik=", "properties": {"@spider": "usps_collection_boxes", "addr:city": "GROVESPRING", "addr:country": "US", "addr:full": "2123 HIGHWAY M", "addr:postcode": "65662", "addr:state": "MO", "amenity": "post_box", "brand": "United States Postal Service", "brand:wikidata": "Q668687", "collection_times": "Mo-Fr 13:00; Sa 11:30", "name": "USPS COLLECTION BOX - PO LOBBY", "note": "ON 12/24 AND 12/31, THIS BOX MAY BE COLLECTED AS EARLY AS 12 NOON.", "nsi_id": "unitedstatespostalservice-a77078", "operator": "United States Postal Service", "operator:short": "USPS", "operator:type": "public", "operator:wikidata": "Q668687", "ref": "6566200001"}, "type": "Feature"}
{"dataset_attributes": {"@spider": "usps_collection_boxes"}, "geometry": {"coordinates": [-92.609317807, 37.400000729], "type": "Point"}, "id": "T0NXnnH8nYABnqYDk8p0EbaciT4=", "properties": {"@spider": "usps_collection_boxes", "addr:city": "GROVESPRING", "addr:country": "US", "addr:full": "2123 HIGHWAY M", "addr:postcode": "65662", "addr:state": "MO", "amenity": "post_box", "brand": "United States Postal Service", "brand:wikidata": "Q668687", "collection_times": "Mo-Fr 15:00; Sa 13:15", "name": "USPS COLLECTION BOX - PO LOBBY", "note": "ON 12/24 AND 12/31, THIS BOX MAY BE COLLECTED AS EARLY AS 12 NOON.", "nsi_id": "unitedstatespostalservice-a77078", "operator": "United States Postal Service", "operator:short": "USPS", "operator:type": "public", "operator:wikidata": "Q668687", "ref": "6566200002"}, "type": "Feature"}
{"dataset_attributes": {"@spider": "usps_collection_boxes"}, "geometry": {"coordinates": [-93.242694, 37.616292], "type": "Point"}, "id": "N7_Qu9b3mIcaDRf4WgHdSn27xdM=", "properties": {"@spider": "usps_collection_boxes", "addr:city": "HALF WAY", "addr:country": "US", "addr:full": "2132 HIGHWAY 32", "addr:postcode": "65663", "addr:state": "MO", "amenity": "post_box", "brand": "United States Postal Service", "brand:wikidata": "Q668687", "collection_times": "Mo-Fr 14:45; Sa 09:45", "name": "USPS COLLECTION BOX - BLUE BOX", "note": "ON 12/24 AND 12/31, THIS BOX MAY BE COLLECTED AS EARLY AS 12 NOON.", "nsi_id": "unitedstatespostalservice-a77078", "operator": "United States Postal Service", "operator:short": "USPS", "operator:type": "public", "operator:wikidata": "Q668687", "ref": "6566300000"}, "type": "Feature"}
{"dataset_attributes": {"@spider": "usps_collection_boxes"}, "geometry": {"coordinates": [-93.242724, 37.616324], "type": "Point"}, "id": "LXy8XCak8xn538JY1r0VUWtlp0U=", "properties": {"@spider": "usps_collection_boxes", "addr:city": "HALF WAY", "addr:country": "US", "addr:full": "2132 HIGHWAY 32", "addr:postcode": "65663", "addr:state": "MO", "amenity": "post_box", "brand": "United States Postal Service", "brand:wikidata": "Q668687", "collection_times": "Mo-Fr 14:45; Sa 09:45", "name": "USPS COLLECTION BOX - PO LOBBY", "note": "ON 12/24 AND 12/31, THIS BOX MAY BE COLLECTED AS EARLY AS 12 NOON.", "nsi_id": "unitedstatespostalservice-a77078", "operator": "United States Postal Service", "operator:short": "USPS", "operator:type": "public", "operator:wikidata": "Q668687", "ref": "6566300001"}, "type": "Feature"}
{"dataset_attributes": {"@spider": "usps_collection_boxes"}, "geometry": {"coordinates": [-93.296944818, 37.607365538], "type": "Point"}, "id": "THQc8g-9pWlI8TjblNlWwenSXU0=", "properties": {"@spider": "usps_collection_boxes", "addr:city": "HALF WAY", "addr:country": "US", "addr:full": "2132 HIGHWAY 32", "addr:postcode": "65663", "addr:state": "MO", "amenity": "post_box", "brand": "United States Postal Service", "brand:wikidata": "Q668687", "collection_times": "Mo-Fr 16:00; Sa 12:00", "name": "USPS COLLECTION BOX - PO LOBBY", "note": "ON 12/24 AND 12/31, THIS BOX MAY BE COLLECTED AS EARLY AS 12 NOON.", "nsi_id": "unitedstatespostalservice-a77078", "operator": "United States Postal Service", "operator:short": "USPS", "operator:type": "public", "operator:wikidata": "Q668687", "ref": "6566300002"}, "type": "Feature"}
{"dataset_attributes": {"@spider": "usps_collection_boxes"}, "geometry": {"coordinates": [-93.6274900071, 37.1935072955], "type": "Point"}, "id": "oRFhPZxK2eMqavL9PTpwZL8YbEo=", "properties": {"@spider": "usps_collection_boxes", "addr:city": "HALLTOWN", "addr:country": "US", "addr:full": "224 MAIN ST", "addr:postcode": "65664", "addr:state": "MO", "amenity": "post_box", "brand": "United States Postal Service", "brand:wikidata": "Q668687", "collection_times": "Mo-Fr 15:45; Sa 09:30", "name": "USPS COLLECTION BOX - BLUE BOX", "note": "ON 12/24 AND 12/31, THIS BOX MAY BE COLLECTED AS EARLY AS 12 NOON.", "nsi_id": "unitedstatespostalservice-a77078", "operator": "United States Postal Service", "operator:short": "USPS", "operator:type": "public", "operator:wikidata": "Q668687", "ref": "6566400000"}, "type": "Feature"}
{"dataset_attributes": {"@spider": "usps_collection_boxes"}, "geometry": {"coordinates": [-93.6274900071, 37.1935072955], "type": "Point"}, "id": "rjc0jLJfGIEHpBqvEb3Vtp0yy6s=", "properties": {"@spider": "usps_collection_boxes", "addr:city": "HALLTOWN", "addr:country": "US", "addr:full": "224 MAIN ST", "addr:postcode": "65664", "addr:state": "MO", "amenity": "post_box", "brand": "United States Postal Service", "brand:wikidata": "Q668687", "collection_times": "Mo-Fr 15:45; Sa 09:00", "name": "USPS COLLECTION BOX - PO LOBBY", "note": "ON 12/24 AND 12/31, THIS BOX MAY BE COLLECTED AS EARLY AS 12 NOON.", "nsi_id": "unitedstatespostalservice-a77078", "operator": "United States Postal Service", "operator:short": "USPS", "operator:type": "public", "operator:wikidata": "Q668687", "ref": "6566400001"}, "type": "Feature"}
{"dataset_attributes": {"@spider": "usps_collection_boxes"}, "geometry": {"coordinates": [-93.6274900071, 37.1935072955], "type": "Point"}, "id": "ThYE6Qy0Neia4oQdASsckAVB6Po=", "properties": {"@spider": "usps_collection_boxes", "addr:city": "HALLTOWN", "addr:country": "US", "addr:full": "224 MAIN ST", "addr:postcode": "65664", "addr:state": "MO", "amenity": "post_box", "brand": "United States Postal Service", "brand:wikidata": "Q668687", "collection_times": "Mo-Fr 16:00; Sa 09:30", "name": "USPS COLLECTION BOX - PO LOBBY", "note": "ON 12/24 AND 12/31, THIS BOX MAY BE COLLECTED AS EARLY AS 12 NOON.", "nsi_id": "unitedstatespostalservice-a77078", "operator": "United States Postal Service", "operator:short": "USPS", "operator:type": "public", "operator:wikidata": "Q668687", "ref": "6566400002"}, "type": "Feature"}
{"dataset_attributes": {"@spider": "usps_collection_boxes"}, "geometry": {"coordinates": [-92.511364, 37.250544], "type": "Point"}, "id": "s0Y5-lHdfhlGHqjF9PAR_WJAO2A=", "properties": {"@spider": "usps_collection_boxes", "addr:city": "HARTVILLE", "addr:country": "US", "addr:full": "130 COURT SQ", "addr:postcode": "65667", "addr:state": "MO", "amenity": "post_box", "brand": "United States Postal Service", "brand:wikidata": "Q668687", "collection_times": "Mo-Fr 15:30; Sa 10:30", "name": "USPS COLLECTION BOX - BLUE BOX", "note": "ON 12/24 AND 12/31, THIS BOX MAY BE COLLECTED AS EARLY AS 12 NOON.", "nsi_id": "unitedstatespostalservice-a77078", "operator": "United States Postal Service", "operator:short": "USPS", "operator:type": "public", "operator:wikidata": "Q668687", "ref": "6566700000"}, "type": "Feature"}
{"dataset_attributes": {"@spider": "usps_collection_boxes"}, "geometry": {"coordinates": [-92.511395, 37.250581], "type": "Point"}, "id": "mPNKWZ8qu3ZzY1M41BGfRxdmoJQ=", "properties": {"@spider": "usps_collection_boxes", "addr:city": "HARTVILLE", "addr:country": "US", "addr:full": "130 COURT SQ", "addr:postcode": "65667", "addr:state": "MO", "amenity": "post_box", "brand": "United States Postal Service", "brand:wikidata": "Q668687", "collection_times": "Mo-Fr 15:30; Sa 10:30", "name": "USPS COLLECTION BOX - PO LOBBY", "note": "ON 12/24 AND 12/31, THIS BOX MAY BE COLLECTED AS EARLY AS 12 NOON.", "nsi_id": "unitedstatespostalservice-a77078", "operator": "United States Postal Service", "operator:short": "USPS", "operator:type": "public", "operator:wikidata": "Q668687", "ref": "6566700001"}, "type": "Feature"}
{"dataset_attributes": {"@spider": "usps_collection_boxes"}, "geometry": {"coordinates": [-92.511121056, 37.250004369], "type": "Point"}, "id": "UWyDLkQ4d8h0Gi_FUXW5JnzRb9s=", "properties": {"@spider": "usps_collection_boxes", "addr:city": "HARTVILLE", "addr:country": "US", "addr:full": "130 COURT SQ", "addr:postcode": "65667", "addr:state": "MO", "amenity": "post_box", "brand": "United States Postal Service", "brand:wikidata": "Q668687", "collection_times": "Mo-Fr 16:30; Sa 11:00", "name": "USPS COLLECTION BOX - PO LOBBY", "note": "ON 12/24 AND 12/31, THIS BOX MAY BE COLLECTED AS EARLY AS 12 NOON.", "nsi_id": "unitedstatespostalservice-a77078", "operator": "United States Postal Service", "operator:short": "USPS", "operator:type": "public", "operator:wikidata": "Q668687", "ref": "6566700002"}, "type": "Feature"}
{"dataset_attributes": {"@spider": "usps_collection_boxes"}, "geometry": {"coordinates": [-93.316513348, 37.940051362], "type": "Point"}, "id": "u74fbK3Uh-Q6-AgycAh3jh0N8UQ=", "properties": {"@spider": "usps_collection_boxes", "addr:city": "HERMITAGE", "addr:country": "US", "addr:full": "18704 SPRING ST", "addr:postcode": "65668", "addr:state": "MO", "amenity": "post_box", "brand": "United States Postal Service", "brand:wikidata": "Q668687", "collection_times": "Mo-Fr 15:15; Sa 10:00", "name": "USPS COLLECTION BOX - BLUE BOX", "note": "ON 12/24 AND 12/31, THIS BOX MAY BE COLLECTED AS EARLY AS 12 NOON.", "nsi_id": "unitedstatespostalservice-a77078", "operator": "United States Postal Service", "operator:short": "USPS", "operator:type": "public", "operator:wikidata": "Q668687", "ref": "6566800000"}, "type": "Feature"}
{"dataset_attributes": {"@spider": "usps_collection_boxes"}, "geometry": {"coordinates": [-93.316415, 37.941308], "type": "Point"}, "id": "iTaWPoAM2e0uEiCYnB2e4--uUYA=", "properties": {"@spider": "usps_collection_boxes", "addr:city": "HERMITAGE", "addr:country": "US", "addr:full": "18704 SPRING ST", "addr:postcode": "65668", "addr:state": "MO", "amenity": "post_box", "brand": "United States Postal Service", "brand:wikidata": "Q668687", "collection_times": "Mo-Fr 15:15; Sa 10:00", "name": "USPS COLLECTION BOX - PO LOBBY", "note": "ON 12/24 AND 12/31, THIS BOX MAY BE COLLECTED AS EARLY AS 12 NOON.", "nsi_id": "unitedstatespostalservice-a77078", "operator": "United States Postal Service", "operator:short": "USPS", "operator:type": "public", "operator:wikidata": "Q668687", "ref": "6566800001"}, "type": "Feature"}
{"dataset_attributes": {"@spider": "usps_collection_boxes"}, "geometry": {"coordinates": [-93.316513348, 37.940051362], "type": "Point"}, "id": "4bUl-DCn9QkPWwXmbQYhIVUmxjk=", "properties": {"@spider": "usps_collection_boxes", "addr:city": "HERMITAGE", "addr:country": "US", "addr:full": "18704 SPRING ST", "addr:postcode": "65668", "addr:state": "MO", "amenity": "post_box", "brand": "United States Postal Service", "brand:wikidata": "Q668687", "collection_times": "Mo-Fr 16:00; Sa 10:30", "name": "USPS COLLECTION BOX - PO LOBBY", "note": "ON 12/24 AND 12/31, THIS BOX MAY BE COLLECTED AS EARLY AS 12 NOON.", "nsi_id": "unitedstatespostalservice-a77078", "operator": "United States Postal Service", "operator:short": "USPS", "operator:type": "public", "operator:wikidata": "Q668687", "ref": "6566800002"}, "type": "Feature"}
{"dataset_attributes": {"@spider": "usps_collection_boxes"}, "geometry": {"coordinates": [-93.28086, 36.932873], "type": "Point"}, "id": "z9PtJeoFIp5nVOcMXjmAG3mFYTg=", "properties": {"@spider": "usps_collection_boxes", "addr:city": "HIGHLANDVILLE", "addr:country": "US", "addr:full": "299 KENTLING AVE", "addr:postcode": "65669", "addr:state": "MO", "amenity": "post_box", "brand": "United States Postal Service", "brand:wikidata": "Q668687", "collection_times": "Mo-Fr 14:00; Sa 09:00", "name": "USPS COLLECTION BOX - BLUE BOX", "note": "ON 12/24 AND 12/31, THIS BOX MAY BE COLLECTED AS EARLY AS 12 NOON.", "nsi_id": "unitedstatespostalservice-a77078", "operator": "United States Postal Service", "operator:short": "USPS", "operator:type": "public", "operator:wikidata": "Q668687", "ref": "6566900000"}, "type": "Feature"}
{"dataset_attributes": {"@spider": "usps_collection_boxes"}, "geometry": {"coordinates": [-93.280749, 36.932843], "type": "Point"}, "id": "yOqdLDhbNLiiJg_sUPjw9HzFid8=", "properties": {"@spider": "usps_collection_boxes", "addr:city": "HIGHLANDVILLE", "addr:country": "US", "addr:full": "299 KENTLING AVE", "addr:postcode": "65669", "addr:state": "MO", "amenity": "post_box", "brand": "United States Postal Service", "brand:wikidata": "Q668687", "collection_times": "Mo-Fr 14:00; Sa 09:00", "name": "USPS COLLECTION BOX - PO LOBBY", "note": "ON 12/24 AND 12/31, THIS BOX MAY BE COLLECTED AS EARLY AS 12 NOON.", "nsi_id": "unitedstatespostalservice-a77078", "operator": "United States Postal Service", "operator:short": "USPS", "operator:type": "public", "operator:wikidata": "Q668687", "ref": "6566900001"}, "type": "Feature"}
{"dataset_attributes": {"@spider": "usps_collection_boxes"}, "geometry": {"coordinates": [-93.2810304133, 36.932877471], "type": "Point"}, "id": "JM9XXMkZcJM_csHE2Th715H-a_I=", "properties": {"@spider": "usps_collection_boxes", "addr:city": "HIGHLANDVILLE", "addr:country": "US", "addr:full": "299 KENTLING AVE", "addr:postcode": "65669", "addr:state": "MO", "amenity": "post_box", "brand": "United States Postal Service", "brand:wikidata": "Q668687", "collection_times": "Mo-Fr 14:15; Sa 09:15", "name": "USPS COLLECTION BOX - PO LOBBY", "note": "ON 12/24 AND 12/31, THIS BOX MAY BE COLLECTED AS EARLY AS 12 NOON.", "nsi_id": "unitedstatespostalservice-a77078", "operator": "United States Postal Service", "operator:short": "USPS", "operator:type": "public", "operator:wikidata": "Q668687", "ref": "6566900002"}, "type": "Feature"}
{"dataset_attributes": {"@spider": "usps_collection_boxes"}, "geometry": {"coordinates": [-93.215229, 36.623528], "type": "Point"}, "id": "QYHatqMCKAeh0TjA2FgJbIHXoGs=", "properties": {"@spider": "usps_collection_boxes", "addr:city": "HOLLISTER", "addr:country": "US", "addr:full": "1980 S BUSINESS HIGHWAY 65", "addr:postcode": "65673", "addr:state": "MO", "amenity": "post_box", "brand": "United States Postal Service", "brand:wikidata": "Q668687", "collection_times": "Mo-Fr 14:30; Sa 10:30", "name": "USPS COLLECTION BOX - BLUE BOX", "note": "ON 12/24 AND 12/31, THIS BOX MAY BE COLLECTED AS EARLY AS 12 NOON.", "nsi_id": "unitedstatespostalservice-a77078", "operator": "United States Postal Service", "operator:short": "USPS", "operator:type": "public", "operator:wikidata": "Q668687", "ref": "6567300000"}, "type": "Feature"}
{"dataset_attributes": {"@spider": "usps_collection_boxes"}, "geometry": {"coordinates": [-93.215195, 36.623536], "type": "Point"}, "id": "52Dnhn1FTwpoIzuPXXi-f0HKqq4=", "properties": {"@spider": "usps_collection_boxes", "addr:city": "HOLLISTER", "addr:country": "US", "addr:full": "1980 S BUSINESS HIGHWAY 65", "addr:postcode": "65673", "addr:state": "MO", "amenity": "post_box", "brand": "United States Postal Service", "brand:wikidata": "Q668687", "collection_times": "Mo-Fr 14:30; Sa 10:30", "name": "USPS COLLECTION BOX - PO LOBBY", "note": "ON 12/24 AND 12/31, THIS BOX MAY BE COLLECTED AS EARLY AS 12 NOON.", "nsi_id": "unitedstatespostalservice-a77078", "operator": "United States Postal Service", "operator:short": "USPS", "operator:type": "public", "operator:wikidata": "Q668687", "ref": "6567300002"}, "type": "Feature"}
{"dataset_attributes": {"@spider": "usps_collection_boxes"}, "geometry": {"coordinates": [-93.215195, 36.623536], "type": "Point"}, "id": "_F26ukvU8ID2wTfK8inCutpmZPo=", "properties": {"@spider": "usps_collection_boxes", "addr:city": "HOLLISTER", "addr:country": "US", "addr:full": "1980 S BUSINESS HIGHWAY 65", "addr:postcode": "65673", "addr:state": "MO", "amenity": "post_box", "brand": "United States Postal Service", "brand:wikidata": "Q668687", "collection_times": "Mo-Fr 14:30; Sa 10:30", "name": "USPS COLLECTION BOX - PO LOBBY", "note": "ON 12/24 AND 12/31, THIS BOX MAY BE COLLECTED AS EARLY AS 12 NOON.", "nsi_id": "unitedstatespostalservice-a77078", "operator": "United States Postal Service", "operator:short": "USPS", "operator:type": "public", "operator:wikidata": "Q668687", "ref": "6567300003"}, "type": "Feature"}
{"dataset_attributes": {"@spider": "usps_collection_boxes"}, "geometry": {"coordinates": [-93.21574, 36.622491], "type": "Point"}, "id": "fmn3Eb2EV7PCOkesY1fuKq_SJNM=", "properties": {"@spider": "usps_collection_boxes", "addr:city": "HOLLISTER", "addr:country": "US", "addr:full": "146 WHITEHALL", "addr:postcode": "65673", "addr:state": "MO", "amenity": "post_box", "brand": "United States Postal Service", "brand:wikidata": "Q668687", "collection_times": "Mo-Fr 14:30; Sa 10:30", "name": "USPS COLLECTION BOX - BLUE BOX", "note": "ON 12/24 AND 12/31, THIS BOX MAY BE COLLECTED AS EARLY AS 12 NOON.", "nsi_id": "unitedstatespostalservice-a77078", "operator": "United States Postal Service", "operator:short": "USPS", "operator:type": "public", "operator:wikidata": "Q668687", "ref": "6567300004"}, "type": "Feature"}
{"dataset_attributes": {"@spider": "usps_collection_boxes"}, "geometry": {"coordinates": [-93.215364484, 36.623652538], "type": "Point"}, "id": "JwOc-mT7sQRaSVfdUxMBabozBqk=", "properties": {"@spider": "usps_collection_boxes", "addr:city": "HOLLISTER", "addr:country": "US", "addr:full": "1980 S BUSINESS 65", "addr:postcode": "65673", "addr:state": "MO", "amenity": "post_box", "brand": "United States Postal Service", "brand:wikidata": "Q668687", "collection_times": "Mo-Fr 16:30; Sa 10:30", "name": "USPS COLLECTION BOX - PO LOBBY", "note": "ON 12/24 AND 12/31, THIS BOX MAY BE COLLECTED AS EARLY AS 12 NOON.", "nsi_id": "unitedstatespostalservice-a77078", "operator": "United States Postal Service", "operator:short": "USPS", "operator:type": "public", "operator:wikidata": "Q668687", "ref": "6567300005"}, "type": "Feature"}
{"dataset_attributes": {"@spider": "usps_collection_boxes"}, "geometry": {"coordinates": [-93.578582, 37.794368], "type": "Point"}, "id": "PO5VqT8Z0JyYcMy5_duGARXtIjU=", "properties": {"@spider": "usps_collection_boxes", "addr:city": "HUMANSVILLE", "addr:country": "US", "addr:full": "200 W TILDEN ST", "addr:postcode": "65674", "addr:state": "MO", "amenity": "post_box", "brand": "United States Postal Service", "brand:wikidata": "Q668687", "collection_times": "Mo-Fr 14:45; Sa 10:30", "name": "USPS COLLECTION BOX - BLUE BOX", "note": "ON 12/24 AND 12/31, THIS BOX MAY BE COLLECTED AS EARLY AS 12 NOON.", "nsi_id": "unitedstatespostalservice-a77078", "operator": "United States Postal Service", "operator:short": "USPS", "operator:type": "public", "operator:wikidata": "Q668687", "ref": "6567400000"}, "type": "Feature"}
{"dataset_attributes": {"@spider": "usps_collection_boxes"}, "geometry": {"coordinates": [-93.578467, 37.794392], "type": "Point"}, "id": "8UpSvO_qpHLH-pHDDNtWlbjAkAk=", "properties": {"@spider": "usps_collection_boxes", "addr:city": "HUMANSVILLE", "addr:country": "US", "addr:full": "200 W TILDEN ST", "addr:postcode": "65674", "addr:state": "MO", "amenity": "post_box", "brand": "United States Postal Service", "brand:wikidata": "Q668687", "collection_times": "Mo-Fr 14:45; Sa 10:30", "name": "USPS COLLECTION BOX - PO LOBBY", "note": "ON 12/24 AND 12/31, THIS BOX MAY BE COLLECTED AS EARLY AS 12 NOON.", "nsi_id": "unitedstatespostalservice-a77078", "operator": "United States Postal Service", "operator:short": "USPS", "operator:type": "public", "operator:wikidata": "Q668687", "ref": "6567400001"}, "type": "Feature"}
{"dataset_attributes": {"@spider": "usps_collection_boxes"}, "geometry": {"coordinates": [-93.578050138, 37.794296398], "type": "Point"}, "id": "5KCEdxSUkJzDb2rlqnblXyua0tQ=", "properties": {"@spider": "usps_collection_boxes", "addr:city": "HUMANSVILLE", "addr:country": "US", "addr:full": "200 W TILDEN ST", "addr:postcode": "65674", "addr:state": "MO", "amenity": "post_box", "brand": "United States Postal Service", "brand:wikidata": "Q668687", "collection_times": "Mo-Fr 16:30; Sa 10:30", "name": "USPS COLLECTION BOX - PO LOBBY", "note": "ON 12/24 AND 12/31, THIS BOX MAY BE COLLECTED AS EARLY AS 12 NOON.", "nsi_id": "unitedstatespostalservice-a77078", "operator": "United States Postal Service", "operator:short": "USPS", "operator:type": "public", "operator:wikidata": "Q668687", "ref": "6567400002"}, "type": "Feature"}
{"dataset_attributes": {"@spider": "usps_collection_boxes"}, "geometry": {"coordinates": [-93.4965263964, 36.9312734313], "type": "Point"}, "id": "vOj6K1uKK5uhAIKgkQdc3-CCAQY=", "properties": {"@spider": "usps_collection_boxes", "addr:city": "HURLEY", "addr:country": "US", "addr:full": "103 RAIL ST", "addr:postcode": "65675", "addr:state": "MO", "amenity": "post_box", "brand": "United States Postal Service", "brand:wikidata": "Q668687", "collection_times": "Mo-Fr 15:15; Sa 10:00", "name": "USPS COLLECTION BOX - BLUE BOX", "note": "ON 12/24 AND 12/31, THIS BOX MAY BE COLLECTED AS EARLY AS 12 NOON.", "nsi_id": "unitedstatespostalservice-a77078", "operator": "United States Postal Service", "operator:short": "USPS", "operator:type": "public", "operator:wikidata": "Q668687", "ref": "6567500000"}, "type": "Feature"}
{"dataset_attributes": {"@spider": "usps_collection_boxes"}, "geometry": {"coordinates": [-93.4968140412, 36.9308360046], "type": "Point"}, "id": "AaemlpdZFkSsuULOuFXmQOUW17Y=", "properties": {"@spider": "usps_collection_boxes", "addr:city": "HURLEY", "addr:country": "US", "addr:full": "101 S RAIL ST", "addr:postcode": "65675", "addr:state": "MO", "amenity": "post_box", "brand": "United States Postal Service", "brand:wikidata": "Q668687", "collection_times": "Mo-Fr 15:15; Sa 10:00", "name": "USPS COLLECTION BOX - PO LOBBY", "note": "ON 12/24 AND 12/31, THIS BOX MAY BE COLLECTED AS EARLY AS 12 NOON.", "nsi_id": "unitedstatespostalservice-a77078", "operator": "United States Postal Service", "operator:short": "USPS", "operator:type": "public", "operator:wikidata": "Q668687", "ref": "6567500001"}, "type": "Feature"}
{"dataset_attributes": {"@spider": "usps_collection_boxes"}, "geometry": {"coordinates": [-93.4965999276, 36.9308259063], "type": "Point"}, "id": "-5Xdxr_vldmgCuTiniuf5bCZGjc=", "properties": {"@spider": "usps_collection_boxes", "addr:city": "HURLEY", "addr:country": "US", "addr:full": "103 S RAIL ST", "addr:postcode": "65675", "addr:state": "MO", "amenity": "post_box", "brand": "United States Postal Service", "brand:wikidata": "Q668687", "collection_times": "Mo-Fr 15:30; Sa 12:00", "name": "USPS COLLECTION BOX - PO LOBBY", "note": "ON 12/24 AND 12/31, THIS BOX MAY BE COLLECTED AS EARLY AS 12 NOON.", "nsi_id": "unitedstatespostalservice-a77078", "operator": "United States Postal Service", "operator:short": "USPS", "operator:type": "public", "operator:wikidata": "Q668687", "ref": "6567500002"}, "type": "Feature"}
{"dataset_attributes": {"@spider": "usps_collection_boxes"}, "geometry": {"coordinates": [-92.625649, 36.575191], "type": "Point"}, "id": "1xJqjxDNc5H_vayzMrOUKbsrXA8=", "properties": {"@spider": "usps_collection_boxes", "addr:city": "ISABELLA", "addr:country": "US", "addr:full": "8 US HIGHWAY 160", "addr:postcode": "65676", "addr:state": "MO", "amenity": "post_box", "brand": "United States Postal Service", "brand:wikidata": "Q668687", "collection_times": "Mo-Sa 11:45", "name": "USPS COLLECTION BOX - BLUE BOX", "nsi_id": "unitedstatespostalservice-a77078", "operator": "United States Postal Service", "operator:short": "USPS", "operator:type": "public", "operator:wikidata": "Q668687", "ref": "6567600000"}, "type": "Feature"}
{"dataset_attributes": {"@spider": "usps_collection_boxes"}, "geometry": {"coordinates": [-92.625649, 36.575191], "type": "Point"}, "id": "4mmvYaOgmouJr84vej-3mf4n7tI=", "properties": {"@spider": "usps_collection_boxes", "addr:city": "ISABELLA", "addr:country": "US", "addr:full": "8 US HIGHWAY 160", "addr:postcode": "65676", "addr:state": "MO", "amenity": "post_box", "brand": "United States Postal Service", "brand:wikidata": "Q668687", "collection_times": "Mo-Sa 11:45", "name": "USPS COLLECTION BOX - PO LOBBY", "nsi_id": "unitedstatespostalservice-a77078", "operator": "United States Postal Service", "operator:short": "USPS", "operator:type": "public", "operator:wikidata": "Q668687", "ref": "6567600001"}, "type": "Feature"}
{"dataset_attributes": {"@spider": "usps_collection_boxes"}, "geometry": {"coordinates": [-92.625649, 36.575191], "type": "Point"}, "id": "gAzJq4SSbasMAiHbi-YGiOf0AEs=", "properties": {"@spider": "usps_collection_boxes", "addr:city": "ISABELLA", "addr:country": "US", "addr:full": "8 US HIGHWAY 160", "addr:postcode": "65676", "addr:state": "MO", "amenity": "post_box", "brand": "United States Postal Service", "brand:wikidata": "Q668687", "collection_times": "Mo-Sa 11:45", "name": "USPS COLLECTION BOX - PO LOBBY", "nsi_id": "unitedstatespostalservice-a77078", "operator": "United States Postal Service", "operator:short": "USPS", "operator:type": "public", "operator:wikidata": "Q668687", "ref": "6567600002"}, "type": "Feature"}
{"dataset_attributes": {"@spider": "usps_collection_boxes"}, "geometry": {"coordinates": [-92.611216805, 36.583578], "type": "Point"}, "id": "9-55RvuHUfEis2ehPaVZlIh7pgE=", "properties": {"@spider": "usps_collection_boxes", "addr:city": "ISABELLA", "addr:country": "US", "addr:full": "9614 US HIGHWAY 160", "addr:postcode": "65676", "addr:state": "MO", "amenity": "post_box", "brand": "United States Postal Service", "brand:wikidata": "Q668687", "collection_times": "Mo-Fr 15:45; Sa 12:30", "name": "USPS COLLECTION BOX - PO LOBBY", "note": "ON 12/24 AND 12/31, THIS BOX MAY BE COLLECTED AS EARLY AS 12 NOON.", "nsi_id": "unitedstatespostalservice-a77078", "operator": "United States Postal Service", "operator:short": "USPS", "operator:type": "public", "operator:wikidata": "Q668687", "ref": "6567600003"}, "type": "Feature"}
{"dataset_attributes": {"@spider": "usps_collection_boxes"}, "geometry": {"coordinates": [-93.16469, 36.623144], "type": "Point"}, "id": "nqAZ0_ueykMyjfAY3vI3mxFZAjY=", "properties": {"@spider": "usps_collection_boxes", "addr:city": "KIRBYVILLE", "addr:country": "US", "addr:full": "4202 E STATE HIGHWAY 76", "addr:postcode": "65679", "addr:state": "MO", "amenity": "post_box", "brand": "United States Postal Service", "brand:wikidata": "Q668687", "collection_times": "Mo-Fr 10:45; Sa 10:15", "name": "USPS COLLECTION BOX - BLUE BOX", "nsi_id": "unitedstatespostalservice-a77078", "operator": "United States Postal Service", "operator:short": "USPS", "operator:type": "public", "operator:wikidata": "Q668687", "ref": "6567900000"}, "type": "Feature"}
{"dataset_attributes": {"@spider": "usps_collection_boxes"}, "geometry": {"coordinates": [-93.164797, 36.623172], "type": "Point"}, "id": "_X_HeDXwI8s-qk_-mJUbTa5aMWk=", "properties": {"@spider": "usps_collection_boxes", "addr:city": "KIRBYVILLE", "addr:country": "US", "addr:full": "4202 E STATE HIGHWAY 76", "addr:postcode": "65679", "addr:state": "MO", "amenity": "post_box", "brand": "United States Postal Service", "brand:wikidata": "Q668687", "collection_times": "Mo-Fr 10:45; Sa 10:15", "name": "USPS COLLECTION BOX - PO LOBBY", "nsi_id": "unitedstatespostalservice-a77078", "operator": "United States Postal Service", "operator:short": "USPS", "operator:type": "public", "operator:wikidata": "Q668687", "ref": "6567900001"}, "type": "Feature"}
{"dataset_attributes": {"@spider": "usps_collection_boxes"}, "geometry": {"coordinates": [-93.164730886, 36.623087846], "type": "Point"}, "id": "tVQ1TEa7DOclNhH7lB_tiabZG8o=", "properties": {"@spider": "usps_collection_boxes", "addr:city": "KIRBYVILLE", "addr:country": "US", "addr:full": "4202 E STATE HIGHWAY 76", "addr:postcode": "65679", "addr:state": "MO", "amenity": "post_box", "brand": "United States Postal Service", "brand:wikidata": "Q668687", "collection_times": "Mo-Fr 16:00; Sa 13:00", "name": "USPS COLLECTION BOX - PO LOBBY", "note": "ON 12/24 AND 12/31, THIS BOX MAY BE COLLECTED AS EARLY AS 12 NOON.", "nsi_id": "unitedstatespostalservice-a77078", "operator": "United States Postal Service", "operator:short": "USPS", "operator:type": "public", "operator:wikidata": "Q668687", "ref": "6567900002"}, "type": "Feature"}
{"dataset_attributes": {"@spider": "usps_collection_boxes"}, "geometry": {"coordinates": [-93.049667, 36.683515], "type": "Point"}, "id": "cfQ93_4Lr5oN2v-s0HXw4Mh9rPE=", "properties": {"@spider": "usps_collection_boxes", "addr:city": "KISSEE MILLS", "addr:country": "US", "addr:full": "13044 E STATE HIGHWAY 76", "addr:postcode": "65680", "addr:state": "MO", "amenity": "post_box", "brand": "United States Postal Service", "brand:wikidata": "Q668687", "collection_times": "Mo-Fr 15:00; Sa 12:00", "name": "USPS COLLECTION BOX - BLUE BOX", "note": "ON 12/24 AND 12/31, THIS BOX MAY BE COLLECTED AS EARLY AS 12 NOON.", "nsi_id": "unitedstatespostalservice-a77078", "operator": "United States Postal Service", "operator:short": "USPS", "operator:type": "public", "operator:wikidata": "Q668687", "ref": "6568000002"}, "type": "Feature"}
{"dataset_attributes": {"@spider": "usps_collection_boxes"}, "geometry": {"coordinates": [-93.049667, 36.683515], "type": "Point"}, "id": "QtKHQVeS50mkZRlA-Pwc-zs-_lY=", "properties": {"@spider": "usps_collection_boxes", "addr:city": "KISSEE MILLS", "addr:country": "US", "addr:full": "13044 E STATE HIGHWAY 76", "addr:postcode": "65680", "addr:state": "MO", "amenity": "post_box", "brand": "United States Postal Service", "brand:wikidata": "Q668687", "collection_times": "Mo-Fr 15:00; Sa 12:00", "name": "USPS COLLECTION BOX - PO LOBBY", "note": "ON 12/24 AND 12/31, THIS BOX MAY BE COLLECTED AS EARLY AS 12 NOON.", "nsi_id": "unitedstatespostalservice-a77078", "operator": "United States Postal Service", "operator:short": "USPS", "operator:type": "public", "operator:wikidata": "Q668687", "ref": "6568000003"}, "type": "Feature"}
{"dataset_attributes": {"@spider": "usps_collection_boxes"}, "geometry": {"coordinates": [-92.972920506, 36.787367049], "type": "Point"}, "id": "sl-uimyfm_KI_J5agkLTvMM8dcg=", "properties": {"@spider": "usps_collection_boxes", "addr:city": "KISSEE MILLS", "addr:country": "US", "addr:full": "13044 E STATE HIGHWAY 76", "addr:postcode": "65680", "addr:state": "MO", "amenity": "post_box", "brand": "United States Postal Service", "brand:wikidata": "Q668687", "collection_times": "Mo-Fr 16:00; Sa 13:00", "name": "USPS COLLECTION BOX - PO LOBBY", "note": "ON 12/24 AND 12/31, THIS BOX MAY BE COLLECTED AS EARLY AS 12 NOON.", "nsi_id": "unitedstatespostalservice-a77078", "operator": "United States Postal Service", "operator:short": "USPS", "operator:type": "public", "operator:wikidata": "Q668687", "ref": "6568000004"}, "type": "Feature"}
{"dataset_attributes": {"@spider": "usps_collection_boxes"}, "geometry": {"coordinates": [-93.43966, 36.564566], "type": "Point"}, "id": "CFgRb6lptcPigSVTXhGOYZKHy1I=", "properties": {"@spider": "usps_collection_boxes", "addr:city": "LAMPE", "addr:country": "US", "addr:full": "99 STATE HIGHWAY H", "addr:postcode": "65681", "addr:state": "MO", "amenity": "post_box", "brand": "United States Postal Service", "brand:wikidata": "Q668687", "collection_times": "Mo-Fr 14:00; Sa 11:15", "name": "USPS COLLECTION BOX - BLUE BOX", "note": "ON 12/24 AND 12/31, THIS BOX MAY BE COLLECTED AS EARLY AS 12 NOON.", "nsi_id": "unitedstatespostalservice-a77078", "operator": "United States Postal Service", "operator:short": "USPS", "operator:type": "public", "operator:wikidata": "Q668687", "ref": "6568100000"}, "type": "Feature"}
{"dataset_attributes": {"@spider": "usps_collection_boxes"}, "geometry": {"coordinates": [-93.43966, 36.564566], "type": "Point"}, "id": "Z9QSLd5PiekAVZi1CCV81hfsgGo=", "properties": {"@spider": "usps_collection_boxes", "addr:city": "LAMPE", "addr:country": "US", "addr:full": "99 STATE HIGHWAY H", "addr:postcode": "65681", "addr:state": "MO", "amenity": "post_box", "brand": "United States Postal Service", "brand:wikidata": "Q668687", "collection_times": "Mo-Fr 14:00; Sa 11:15", "name": "USPS COLLECTION BOX - PO LOBBY", "note": "ON 12/24 AND 12/31, THIS BOX MAY BE COLLECTED AS EARLY AS 12 NOON.", "nsi_id": "unitedstatespostalservice-a77078", "operator": "United States Postal Service", "operator:short": "USPS", "operator:type": "public", "operator:wikidata": "Q668687", "ref": "6568100003"}, "type": "Feature"}
{"dataset_attributes": {"@spider": "usps_collection_boxes"}, "geometry": {"coordinates": [-93.439657992, 36.56455774], "type": "Point"}, "id": "Pqs4w3by1A5XZH-1wfENlrB1CHs=", "properties": {"@spider": "usps_collection_boxes", "addr:city": "LAMPE", "addr:country": "US", "addr:full": "99 STATE ROUTE H", "addr:postcode": "65681", "addr:state": "MO", "amenity": "post_box", "brand": "United States Postal Service", "brand:wikidata": "Q668687", "collection_times": "Mo-Fr 16:00; Sa 11:30", "name": "USPS COLLECTION BOX - PO LOBBY", "note": "ON 12/24 AND 12/31, THIS BOX MAY BE COLLECTED AS EARLY AS 12 NOON.", "nsi_id": "unitedstatespostalservice-a77078", "operator": "United States Postal Service", "operator:short": "USPS", "operator:type": "public", "operator:wikidata": "Q668687", "ref": "6568100004"}, "type": "Feature"}
{"dataset_attributes": {"@spider": "usps_collection_boxes"}, "geometry": {"coordinates": [-93.953217, 37.38566], "type": "Point"}, "id": "cNL0aPqS5LawFo3Bq_rx0iET14E=", "properties": {"@spider": "usps_collection_boxes", "addr:city": "LOCKWOOD", "addr:country": "US", "addr:full": "800 MAIN ST", "addr:postcode": "65682", "addr:state": "MO", "amenity": "post_box", "brand": "United States Postal Service", "brand:wikidata": "Q668687", "collection_times": "Mo-Fr 14:15; Sa 09:45", "name": "USPS COLLECTION BOX - BLUE BOX", "note": "ON 12/24 AND 12/31, THIS BOX MAY BE COLLECTED AS EARLY AS 12 NOON.", "nsi_id": "unitedstatespostalservice-a77078", "operator": "United States Postal Service", "operator:short": "USPS", "operator:type": "public", "operator:wikidata": "Q668687", "ref": "6568200000"}, "type": "Feature"}
{"dataset_attributes": {"@spider": "usps_collection_boxes"}, "geometry": {"coordinates": [-93.953249, 37.385751], "type": "Point"}, "id": "aiwL0FSX_zKsUYzEJmcbpGsqI3A=", "properties": {"@spider": "usps_collection_boxes", "addr:city": "LOCKWOOD", "addr:country": "US", "addr:full": "800 MAIN ST", "addr:postcode": "65682", "addr:state": "MO", "amenity": "post_box", "brand": "United States Postal Service", "brand:wikidata": "Q668687", "collection_times": "Mo-Fr 14:15; Sa 09:45", "name": "USPS COLLECTION BOX - PO LOBBY", "note": "ON 12/24 AND 12/31, THIS BOX MAY BE COLLECTED AS EARLY AS 12 NOON.", "nsi_id": "unitedstatespostalservice-a77078", "operator": "United States Postal Service", "operator:short": "USPS", "operator:type": "public", "operator:wikidata": "Q668687", "ref": "6568200001"}, "type": "Feature"}
{"dataset_attributes": {"@spider": "usps_collection_boxes"}, "geometry": {"coordinates": [-93.953216897, 37.385701994], "type": "Point"}, "id": "KnCyqZaPewhVEyWNeLvVEbyuS6g=", "properties": {"@spider": "usps_collection_boxes", "addr:city": "LOCKWOOD", "addr:country": "US", "addr:full": "800 MAIN ST", "addr:postcode": "65682", "addr:state": "MO", "amenity": "post_box", "brand": "United States Postal Service", "brand:wikidata": "Q668687", "collection_times": "Mo-Fr 16:00; Sa 12:00", "name": "USPS COLLECTION BOX - PO LOBBY", "note": "ON 12/24 AND 12/31, THIS BOX MAY BE COLLECTED AS EARLY AS 12 NOON.", "nsi_id": "unitedstatespostalservice-a77078", "operator": "United States Postal Service", "operator:short": "USPS", "operator:type": "public", "operator:wikidata": "Q668687", "ref": "6568200002"}, "type": "Feature"}
{"dataset_attributes": {"@spider": "usps_collection_boxes"}, "geometry": {"coordinates": [-93.1399257, 37.75783], "type": "Point"}, "id": "IZl0l58kjVUh_4qAMn71J6AIcoQ=", "properties": {"@spider": "usps_collection_boxes", "addr:city": "LOUISBURG", "addr:country": "US", "addr:full": "274 STATE HIGHWAY 64", "addr:postcode": "65685", "addr:state": "MO", "amenity": "post_box", "brand": "United States Postal Service", "brand:wikidata": "Q668687", "collection_times": "Mo-Fr 12:00; Sa 09:45", "name": "USPS COLLECTION BOX - BLUE BOX", "nsi_id": "unitedstatespostalservice-a77078", "operator": "United States Postal Service", "operator:short": "USPS", "operator:type": "public", "operator:wikidata": "Q668687", "ref": "6568500000"}, "type": "Feature"}
{"dataset_attributes": {"@spider": "usps_collection_boxes"}, "geometry": {"coordinates": [-93.139875975, 37.7576719866], "type": "Point"}, "id": "-8tXzUm2j7obaWfskIcAexAH6KU=", "properties": {"@spider": "usps_collection_boxes", "addr:city": "LOUISBURG", "addr:country": "US", "addr:full": "274 STATE HIGHWAY 64", "addr:postcode": "65685", "addr:state": "MO", "amenity": "post_box", "brand": "United States Postal Service", "brand:wikidata": "Q668687", "collection_times": "Mo-Fr 11:45; Sa 09:30", "name": "USPS COLLECTION BOX - PO LOBBY", "nsi_id": "unitedstatespostalservice-a77078", "operator": "United States Postal Service", "operator:short": "USPS", "operator:type": "public", "operator:wikidata": "Q668687", "ref": "6568500001"}, "type": "Feature"}
{"dataset_attributes": {"@spider": "usps_collection_boxes"}, "geometry": {"coordinates": [-93.139892948, 37.757856532], "type": "Point"}, "id": "aGWnYwqVRZfdecfdReh6Iq2j0T8=", "properties": {"@spider": "usps_collection_boxes", "addr:city": "LOUISBURG", "addr:country": "US", "addr:full": "274 STATE HIGHWAY 64", "addr:postcode": "65685", "addr:state": "MO", "amenity": "post_box", "brand": "United States Postal Service", "brand:wikidata": "Q668687", "collection_times": "Mo-Fr 11:45; Sa 09:30", "name": "USPS COLLECTION BOX - PO LOBBY", "nsi_id": "unitedstatespostalservice-a77078", "operator": "United States Postal Service", "operator:short": "USPS", "operator:type": "public", "operator:wikidata": "Q668687", "ref": "6568500003"}, "type": "Feature"}
{"dataset_attributes": {"@spider": "usps_collection_boxes"}, "geometry": {"coordinates": [-93.423395, 36.630706], "type": "Point"}, "id": "mswtYzXtSUoMit85icNTuYTWEwU=", "properties": {"@spider": "usps_collection_boxes", "addr:city": "KIMBERLING CITY", "addr:country": "US", "addr:full": "38A KIMBERLING CTR LN", "addr:postcode": "65686", "addr:state": "MO", "amenity": "post_box", "brand": "United States Postal Service", "brand:wikidata": "Q668687", "collection_times": "Mo-Fr 14:15; Sa 11:45", "name": "USPS COLLECTION BOX - BLUE BOX", "note": "ON 12/24 AND 12/31, THIS BOX MAY BE COLLECTED AS EARLY AS 12 NOON.", "nsi_id": "unitedstatespostalservice-a77078", "operator": "United States Postal Service", "operator:short": "USPS", "operator:type": "public", "operator:wikidata": "Q668687", "ref": "6568600000"}, "type": "Feature"}
{"dataset_attributes": {"@spider": "usps_collection_boxes"}, "geometry": {"coordinates": [-93.423296, 36.630746], "type": "Point"}, "id": "RAnX7fyv1fjig9BkvdAyVNss8kY=", "properties": {"@spider": "usps_collection_boxes", "addr:city": "KIMBERLING CITY", "addr:country": "US", "addr:full": "38A KIMBERLING CTR LN", "addr:postcode": "65686", "addr:state": "MO", "amenity": "post_box", "brand": "United States Postal Service", "brand:wikidata": "Q668687", "collection_times": "Mo-Fr 14:15; Sa 11:45", "name": "USPS COLLECTION BOX - PO LOBBY", "note": "ON 12/24 AND 12/31, THIS BOX MAY BE COLLECTED AS EARLY AS 12 NOON.", "nsi_id": "unitedstatespostalservice-a77078", "operator": "United States Postal Service", "operator:short": "USPS", "operator:type": "public", "operator:wikidata": "Q668687", "ref": "6568600003"}, "type": "Feature"}
{"dataset_attributes": {"@spider": "usps_collection_boxes"}, "geometry": {"coordinates": [-93.423325701, 36.630664047], "type": "Point"}, "id": "c9NdbfnfRuZoMpG3mfSGbyNfJ6o=", "properties": {"@spider": "usps_collection_boxes", "addr:city": "KIMBERLING CITY", "addr:country": "US", "addr:full": "38A KIMBERLING CTR LN", "addr:postcode": "65686", "addr:state": "MO", "amenity": "post_box", "brand": "United States Postal Service", "brand:wikidata": "Q668687", "collection_times": "Mo-Fr 16:00; Sa 12:00", "name": "USPS COLLECTION BOX - PO LOBBY", "note": "ON 12/24 AND 12/31, THIS BOX MAY BE COLLECTED AS EARLY AS 12 NOON.", "nsi_id": "unitedstatespostalservice-a77078", "operator": "United States Postal Service", "operator:short": "USPS", "operator:type": "public", "operator:wikidata": "Q668687", "ref": "6568600005"}, "type": "Feature"}
{"dataset_attributes": {"@spider": "usps_collection_boxes"}, "geometry": {"coordinates": [-91.698673646, 36.650870522], "type": "Point"}, "id": "ogsDmO5F7RhYyfm42ZTDtnELQlk=", "properties": {"@spider": "usps_collection_boxes", "addr:city": "BRANDSVILLE", "addr:country": "US", "addr:full": "212 E MAIN ST", "addr:postcode": "65688", "addr:state": "MO", "amenity": "post_box", "brand": "United States Postal Service", "brand:wikidata": "Q668687", "collection_times": "Mo-Sa 12:45", "name": "USPS COLLECTION BOX - BLUE BOX", "note": "ON 12/24 AND 12/31, THIS BOX MAY BE COLLECTED AS EARLY AS 12 NOON.", "nsi_id": "unitedstatespostalservice-a77078", "operator": "United States Postal Service", "operator:short": "USPS", "operator:type": "public", "operator:wikidata": "Q668687", "ref": "6568800000"}, "type": "Feature"}
{"dataset_attributes": {"@spider": "usps_collection_boxes"}, "geometry": {"coordinates": [-91.714121, 36.650863], "type": "Point"}, "id": "eHroRqKVwmDtn04DXI84rnVlaw4=", "properties": {"@spider": "usps_collection_boxes", "addr:city": "BRANDSVILLE", "addr:country": "US", "addr:full": "212 E MAIN ST", "addr:postcode": "65688", "addr:state": "MO", "amenity": "post_box", "brand": "United States Postal Service", "brand:wikidata": "Q668687", "collection_times": "Mo-Sa 12:45", "name": "USPS COLLECTION BOX - PO LOBBY", "note": "ON 12/24 AND 12/31, THIS BOX MAY BE COLLECTED AS EARLY AS 12 NOON.", "nsi_id": "unitedstatespostalservice-a77078", "operator": "United States Postal Service", "operator:short": "USPS", "operator:type": "public", "operator:wikidata": "Q668687", "ref": "6568800001"}, "type": "Feature"}
{"dataset_attributes": {"@spider": "usps_collection_boxes"}, "geometry": {"coordinates": [-91.698673646, 36.650870522], "type": "Point"}, "id": "NmfV2abOGfjn35M2gT8-c80F41o=", "properties": {"@spider": "usps_collection_boxes", "addr:city": "BRANDSVILLE", "addr:country": "US", "addr:full": "212 E MAIN ST", "addr:postcode": "65688", "addr:state": "MO", "amenity": "post_box", "brand": "United States Postal Service", "brand:wikidata": "Q668687", "collection_times": "Mo-Sa 13:00", "name": "USPS COLLECTION BOX - PO LOBBY", "note": "ON 12/24 AND 12/31, THIS BOX MAY BE COLLECTED AS EARLY AS 12 NOON.", "nsi_id": "unitedstatespostalservice-a77078", "operator": "United States Postal Service", "operator:short": "USPS", "operator:type": "public", "operator:wikidata": "Q668687", "ref": "6568800002"}, "type": "Feature"}
{"dataset_attributes": {"@spider": "usps_collection_boxes"}, "geometry": {"coordinates": [-92.100885, 37.122634], "type": "Point"}, "id": "VrXuQ5oNcZEXM1LVZvmMIRJqJUM=", "properties": {"@spider": "usps_collection_boxes", "addr:city": "CABOOL", "addr:country": "US", "addr:full": "519 CEDAR AVE", "addr:postcode": "65689", "addr:state": "MO", "amenity": "post_box", "brand": "United States Postal Service", "brand:wikidata": "Q668687", "collection_times": "Mo-Fr 14:15; Sa 11:00", "name": "USPS COLLECTION BOX - BLUE BOX", "note": "ON 12/24 AND 12/31, THIS BOX MAY BE COLLECTED AS EARLY AS 12 NOON.", "nsi_id": "unitedstatespostalservice-a77078", "operator": "United States Postal Service", "operator:short": "USPS", "operator:type": "public", "operator:wikidata": "Q668687", "ref": "6568900000"}, "type": "Feature"}
{"dataset_attributes": {"@spider": "usps_collection_boxes"}, "geometry": {"coordinates": [-92.100852, 37.122591], "type": "Point"}, "id": "E7fMi-U0JL-j6aw5KYRNx3mAwHc=", "properties": {"@spider": "usps_collection_boxes", "addr:city": "CABOOL", "addr:country": "US", "addr:full": "519 CEDAR AVE", "addr:postcode": "65689", "addr:state": "MO", "amenity": "post_box", "brand": "United States Postal Service", "brand:wikidata": "Q668687", "collection_times": "Mo-Fr 14:15; Sa 11:00", "name": "USPS COLLECTION BOX - PO LOBBY", "note": "ON 12/24 AND 12/31, THIS BOX MAY BE COLLECTED AS EARLY AS 12 NOON.", "nsi_id": "unitedstatespostalservice-a77078", "operator": "United States Postal Service", "operator:short": "USPS", "operator:type": "public", "operator:wikidata": "Q668687", "ref": "6568900001"}, "type": "Feature"}
{"dataset_attributes": {"@spider": "usps_collection_boxes"}, "geometry": {"coordinates": [-92.100918407, 37.121975781], "type": "Point"}, "id": "gl5N3kjJn5paaUPu_Xyli1qBFqA=", "properties": {"@spider": "usps_collection_boxes", "addr:city": "CABOOL", "addr:country": "US", "addr:full": "519 CEDAR AVE", "addr:postcode": "65689", "addr:state": "MO", "amenity": "post_box", "brand": "United States Postal Service", "brand:wikidata": "Q668687", "collection_times": "Mo-Fr 17:00; Sa 12:30", "name": "USPS COLLECTION BOX - PO LOBBY", "note": "ON 12/24 AND 12/31, THIS BOX MAY BE COLLECTED AS EARLY AS 12 NOON.", "nsi_id": "unitedstatespostalservice-a77078", "operator": "United States Postal Service", "operator:short": "USPS", "operator:type": "public", "operator:wikidata": "Q668687", "ref": "6568900002"}, "type": "Feature"}
{"dataset_attributes": {"@spider": "usps_collection_boxes"}, "geometry": {"coordinates": [-91.645596, 36.595858], "type": "Point"}, "id": "oXd2tloPTsO51iyBpp9IgTm5a_g=", "properties": {"@spider": "usps_collection_boxes", "addr:city": "KOSHKONONG", "addr:country": "US", "addr:full": "303 DIGGINS ST", "addr:postcode": "65692", "addr:state": "MO", "amenity": "post_box", "brand": "United States Postal Service", "brand:wikidata": "Q668687", "collection_times": "Mo-Fr 12:00; Sa 09:30", "name": "USPS COLLECTION BOX - BLUE BOX", "nsi_id": "unitedstatespostalservice-a77078", "operator": "United States Postal Service", "operator:short": "USPS", "operator:type": "public", "operator:wikidata": "Q668687", "ref": "6569200000"}, "type": "Feature"}
{"dataset_attributes": {"@spider": "usps_collection_boxes"}, "geometry": {"coordinates": [-91.6456194, 36.595792], "type": "Point"}, "id": "DcbTc60fvHtdHMl7lhDo_dEjzAA=", "properties": {"@spider": "usps_collection_boxes", "addr:city": "KOSHKONONG", "addr:country": "US", "addr:full": "303 DIGGINS ST", "addr:postcode": "65692", "addr:state": "MO", "amenity": "post_box", "brand": "United States Postal Service", "brand:wikidata": "Q668687", "collection_times": "Mo-Fr 12:00; Sa 09:30", "name": "USPS COLLECTION BOX - PO LOBBY", "nsi_id": "unitedstatespostalservice-a77078", "operator": "United States Postal Service", "operator:short": "USPS", "operator:type": "public", "operator:wikidata": "Q668687", "ref": "6569200001"}, "type": "Feature"}
{"dataset_attributes": {"@spider": "usps_collection_boxes"}, "geometry": {"coordinates": [-91.6451872324, 36.5959637328], "type": "Point"}, "id": "mGTzGbDqM7_EbTrrj21lYw8H1Kw=", "properties": {"@spider": "usps_collection_boxes", "addr:city": "KOSHKONONG", "addr:country": "US", "addr:full": "303 DIGGINS ST", "addr:postcode": "65692", "addr:state": "MO", "amenity": "post_box", "brand": "United States Postal Service", "brand:wikidata": "Q668687", "collection_times": "Mo-Fr 12:15; Sa 10:00", "name": "USPS COLLECTION BOX - PO LOBBY", "note": "ON 12/24 AND 12/31, THIS BOX MAY BE COLLECTED AS EARLY AS 12 NOON.", "nsi_id": "unitedstatespostalservice-a77078", "operator": "United States Postal Service", "operator:short": "USPS", "operator:type": "public", "operator:wikidata": "Q668687", "ref": "6569200002"}, "type": "Feature"}
