{"geometry": {"coordinates": [-95.007572277, 38.089887477], "type": "Point"}, "id": "9ONihdcoseUTGLS8Bci-BsoVnJ4=", "properties": {"@spider": "usps_collection_boxes", "addr:city": "BLUE MOUND", "addr:country": "US", "addr:full": "409 E MAIN ST", "addr:postcode": "66010", "addr:state": "KS", "amenity": "post_box", "brand": "United States Postal Service", "brand:wikidata": "Q668687", "collection_times": "Mo-Sa 15:45", "name": "USPS COLLECTION BOX - BLUE BOX", "note": "ON 12/24 AND 12/31, THIS BOX MAY BE COLLECTED AS EARLY AS 12 NOON.", "nsi_id": "unitedstatespostalservice-a77078", "operator": "United States Postal Service", "operator:short": "USPS", "operator:type": "public", "operator:wikidata": "Q668687", "ref": "6601000000"}, "type": "Feature"}
{"geometry": {"coordinates": [-95.007572277, 38.089887477], "type": "Point"}, "id": "AdTB0IMJmuKqLbn0T5cUGtjw5nQ=", "properties": {"@spider": "usps_collection_boxes", "addr:city": "BLUE MOUND", "addr:country": "US", "addr:full": "409 E MAIN ST", "addr:postcode": "66010", "addr:state": "KS", "amenity": "post_box", "brand": "United States Postal Service", "brand:wikidata": "Q668687", "collection_times": "Mo-Fr 11:45; Sa 09:15", "name": "USPS COLLECTION BOX - PO LOBBY", "nsi_id": "unitedstatespostalservice-a77078", "operator": "United States Postal Service", "operator:short": "USPS", "operator:type": "public", "operator:wikidata": "Q668687", "ref": "6601000001"}, "type": "Feature"}
{"geometry": {"coordinates": [-95.007572277, 38.089887477], "type": "Point"}, "id": "9X-ZWNjGs0oTyeyTtyWYh3w3JPg=", "properties": {"@spider": "usps_collection_boxes", "addr:city": "BLUE MOUND", "addr:country": "US", "addr:full": "409 E MAIN ST", "addr:postcode": "66010", "addr:state": "KS", "amenity": "post_box", "brand": "United States Postal Service", "brand:wikidata": "Q668687", "collection_times": "Mo-Fr 13:00; Sa 11:00", "name": "USPS COLLECTION BOX - PO LOBBY", "note": "ON 12/24 AND 12/31, THIS BOX MAY BE COLLECTED AS EARLY AS 12 NOON.", "nsi_id": "unitedstatespostalservice-a77078", "operator": "United States Postal Service", "operator:short": "USPS", "operator:type": "public", "operator:wikidata": "Q668687", "ref": "6601000004"}, "type": "Feature"}
{"geometry": {"coordinates": [-95.0145145, 38.219062], "type": "Point"}, "id": "dEV3FZXgygRBJv-KX9VNaYsgleY=", "properties": {"@spider": "usps_collection_boxes", "addr:city": "CENTERVILLE", "addr:country": "US", "addr:full": "206 E MARKET ST", "addr:postcode": "66014", "addr:state": "KS", "amenity": "post_box", "brand": "United States Postal Service", "brand:wikidata": "Q668687", "collection_times": "Mo-Fr 13:15; Sa 12:15", "name": "USPS COLLECTION BOX - BLUE BOX", "note": "ON 12/24 AND 12/31, THIS BOX MAY BE COLLECTED AS EARLY AS 12 NOON.", "nsi_id": "unitedstatespostalservice-a77078", "operator": "United States Postal Service", "operator:short": "USPS", "operator:type": "public", "operator:wikidata": "Q668687", "ref": "6601400000"}, "type": "Feature"}
{"geometry": {"coordinates": [-95.0144720241, 38.2191690142], "type": "Point"}, "id": "Ut6EDaT09FuXk67rYbHZWX8Q8fo=", "properties": {"@spider": "usps_collection_boxes", "addr:city": "CENTERVILLE", "addr:country": "US", "addr:full": "206 E MARKET ST", "addr:postcode": "66014", "addr:state": "KS", "amenity": "post_box", "brand": "United States Postal Service", "brand:wikidata": "Q668687", "collection_times": "Mo-Fr 13:15; Sa 10:15", "name": "USPS COLLECTION BOX - PO LOBBY", "note": "ON 12/24 AND 12/31, THIS BOX MAY BE COLLECTED AS EARLY AS 12 NOON.", "nsi_id": "unitedstatespostalservice-a77078", "operator": "United States Postal Service", "operator:short": "USPS", "operator:type": "public", "operator:wikidata": "Q668687", "ref": "6601400001"}, "type": "Feature"}
{"geometry": {"coordinates": [-95.0144720241, 38.2191690142], "type": "Point"}, "id": "ZiMpgLzHaVwzY6bvPlJLvB_MVmY=", "properties": {"@spider": "usps_collection_boxes", "addr:city": "CENTERVILLE", "addr:country": "US", "addr:full": "206 E MARKET ST", "addr:postcode": "66014", "addr:state": "KS", "amenity": "post_box", "brand": "United States Postal Service", "brand:wikidata": "Q668687", "collection_times": "Mo-Fr 13:30; Sa 12:00", "name": "USPS COLLECTION BOX - PO LOBBY", "note": "ON 12/24 AND 12/31, THIS BOX MAY BE COLLECTED AS EARLY AS 12 NOON.", "nsi_id": "unitedstatespostalservice-a77078", "operator": "United States Postal Service", "operator:short": "USPS", "operator:type": "public", "operator:wikidata": "Q668687", "ref": "6601400002"}, "type": "Feature"}
{"geometry": {"coordinates": [-95.3664609, 38.071348], "type": "Point"}, "id": "YIsmed1MyouCtOVSNWrRkN_V37k=", "properties": {"@spider": "usps_collection_boxes", "addr:city": "COLONY", "addr:country": "US", "addr:full": "206 E BROAD ST", "addr:postcode": "66015", "addr:state": "KS", "amenity": "post_box", "brand": "United States Postal Service", "brand:wikidata": "Q668687", "collection_times": "Mo-Fr 14:00; Sa 14:15", "name": "USPS COLLECTION BOX - BLUE BOX", "note": "ON 12/24 AND 12/31, THIS BOX MAY BE COLLECTED AS EARLY AS 12 NOON.", "nsi_id": "unitedstatespostalservice-a77078", "operator": "United States Postal Service", "operator:short": "USPS", "operator:type": "public", "operator:wikidata": "Q668687", "ref": "6601500000"}, "type": "Feature"}
{"geometry": {"coordinates": [-95.366739, 38.07126], "type": "Point"}, "id": "VbcjO6hwIMX2wU81PL7dXfja-y0=", "properties": {"@spider": "usps_collection_boxes", "addr:city": "COLONY", "addr:country": "US", "addr:full": "206 E BROAD ST", "addr:postcode": "66015", "addr:state": "KS", "amenity": "post_box", "brand": "United States Postal Service", "brand:wikidata": "Q668687", "collection_times": "Mo-Fr 13:45; Sa 11:00", "name": "USPS COLLECTION BOX - PO LOBBY", "note": "ON 12/24 AND 12/31, THIS BOX MAY BE COLLECTED AS EARLY AS 12 NOON.", "nsi_id": "unitedstatespostalservice-a77078", "operator": "United States Postal Service", "operator:short": "USPS", "operator:type": "public", "operator:wikidata": "Q668687", "ref": "6601500002"}, "type": "Feature"}
{"geometry": {"coordinates": [-95.3665835867, 38.0712225545], "type": "Point"}, "id": "YEMBHdou6W4cLKNv0B1b9-CQD7k=", "properties": {"@spider": "usps_collection_boxes", "addr:city": "COLONY", "addr:country": "US", "addr:full": "206 E BROAD ST", "addr:postcode": "66015", "addr:state": "KS", "amenity": "post_box", "brand": "United States Postal Service", "brand:wikidata": "Q668687", "collection_times": "Mo-Fr 14:00; Sa 12:00", "name": "USPS COLLECTION BOX - PO LOBBY", "note": "ON 12/24 AND 12/31, THIS BOX MAY BE COLLECTED AS EARLY AS 12 NOON.", "nsi_id": "unitedstatespostalservice-a77078", "operator": "United States Postal Service", "operator:short": "USPS", "operator:type": "public", "operator:wikidata": "Q668687", "ref": "6601500004"}, "type": "Feature"}
{"geometry": {"coordinates": [-95.242096, 38.281815], "type": "Point"}, "id": "P5Kmb2JNTmMaTObNRUMTg-uSW-U=", "properties": {"@spider": "usps_collection_boxes", "addr:city": "GARNETT", "addr:country": "US", "addr:full": "304 S OAK ST", "addr:postcode": "66032", "addr:state": "KS", "amenity": "post_box", "brand": "United States Postal Service", "brand:wikidata": "Q668687", "collection_times": "Mo-Fr 15:40; Sa 12:00", "name": "USPS COLLECTION BOX - BLUE BOX", "note": "ON 12/24 AND 12/31, THIS BOX MAY BE COLLECTED AS EARLY AS 12 NOON.", "nsi_id": "unitedstatespostalservice-a77078", "operator": "United States Postal Service", "operator:short": "USPS", "operator:type": "public", "operator:wikidata": "Q668687", "ref": "6603200001"}, "type": "Feature"}
{"geometry": {"coordinates": [-95.242131, 38.281833], "type": "Point"}, "id": "OlgbfUj1uUpWpISyD-z5g6n2_Zw=", "properties": {"@spider": "usps_collection_boxes", "addr:city": "GARNETT", "addr:country": "US", "addr:full": "304 S OAK ST", "addr:postcode": "66032", "addr:state": "KS", "amenity": "post_box", "brand": "United States Postal Service", "brand:wikidata": "Q668687", "collection_times": "Mo-Fr 15:45; Sa 12:00", "name": "USPS COLLECTION BOX - PO LOBBY", "note": "ON 12/24 AND 12/31, THIS BOX MAY BE COLLECTED AS EARLY AS 12 NOON.", "nsi_id": "unitedstatespostalservice-a77078", "operator": "United States Postal Service", "operator:short": "USPS", "operator:type": "public", "operator:wikidata": "Q668687", "ref": "6603200003"}, "type": "Feature"}
{"geometry": {"coordinates": [-95.2416974, 38.281568], "type": "Point"}, "id": "xaPTUFtgKfBOe158Tkd4t7fj-uw=", "properties": {"@spider": "usps_collection_boxes", "addr:city": "GARNETT", "addr:country": "US", "addr:full": "304 S OAK ST", "addr:postcode": "66032", "addr:state": "KS", "amenity": "post_box", "brand": "United States Postal Service", "brand:wikidata": "Q668687", "collection_times": "Mo-Fr 15:40; Sa 12:00", "name": "USPS COLLECTION BOX - BLUE BOX", "note": "ON 12/24 AND 12/31, THIS BOX MAY BE COLLECTED AS EARLY AS 12 NOON.", "nsi_id": "unitedstatespostalservice-a77078", "operator": "United States Postal Service", "operator:short": "USPS", "operator:type": "public", "operator:wikidata": "Q668687", "ref": "6603200005"}, "type": "Feature"}
{"geometry": {"coordinates": [-95.2420984525, 38.281779], "type": "Point"}, "id": "VLGhLTgeglfiIrj-RGGx42Dd080=", "properties": {"@spider": "usps_collection_boxes", "addr:city": "GARNETT", "addr:country": "US", "addr:full": "304 S OAK ST", "addr:postcode": "66032", "addr:state": "KS", "amenity": "post_box", "brand": "United States Postal Service", "brand:wikidata": "Q668687", "collection_times": "Mo-Fr 15:30; Sa 12:00", "name": "USPS COLLECTION BOX - PO LOBBY", "note": "ON 12/24 AND 12/31, THIS BOX MAY BE COLLECTED AS EARLY AS 12 NOON.", "nsi_id": "unitedstatespostalservice-a77078", "operator": "United States Postal Service", "operator:short": "USPS", "operator:type": "public", "operator:wikidata": "Q668687", "ref": "6603200007"}, "type": "Feature"}
{"geometry": {"coordinates": [-95.1278121, 38.366709], "type": "Point"}, "id": "YNXi5mx98HB4apbNjSBQ7DsqcvE=", "properties": {"@spider": "usps_collection_boxes", "addr:city": "GREELEY", "addr:country": "US", "addr:full": "114 W BROWN ST", "addr:postcode": "66033", "addr:state": "KS", "amenity": "post_box", "brand": "United States Postal Service", "brand:wikidata": "Q668687", "collection_times": "Mo-Sa 15:00", "name": "USPS COLLECTION BOX - BLUE BOX", "note": "ON 12/24 AND 12/31, THIS BOX MAY BE COLLECTED AS EARLY AS 12 NOON.", "nsi_id": "unitedstatespostalservice-a77078", "operator": "United States Postal Service", "operator:short": "USPS", "operator:type": "public", "operator:wikidata": "Q668687", "ref": "6603300000"}, "type": "Feature"}
{"geometry": {"coordinates": [-95.127918, 38.366632], "type": "Point"}, "id": "vY3Tq1ya-k7VDz5u2Qf6abm0Dvo=", "properties": {"@spider": "usps_collection_boxes", "addr:city": "GREELEY", "addr:country": "US", "addr:full": "114 W BROWN ST", "addr:postcode": "66033", "addr:state": "KS", "amenity": "post_box", "brand": "United States Postal Service", "brand:wikidata": "Q668687", "collection_times": "Mo-Fr 12:45; Sa 09:00", "name": "USPS COLLECTION BOX - PO LOBBY", "note": "ON 12/24 AND 12/31, THIS BOX MAY BE COLLECTED AS EARLY AS 12 NOON.", "nsi_id": "unitedstatespostalservice-a77078", "operator": "United States Postal Service", "operator:short": "USPS", "operator:type": "public", "operator:wikidata": "Q668687", "ref": "6603300001"}, "type": "Feature"}
{"geometry": {"coordinates": [-95.127894, 38.366649471], "type": "Point"}, "id": "IYv4gTPu5P9mAlVAnfU_YXjv5eg=", "properties": {"@spider": "usps_collection_boxes", "addr:city": "GREELEY", "addr:country": "US", "addr:full": "114 W BROWN ST", "addr:postcode": "66033", "addr:state": "KS", "amenity": "post_box", "brand": "United States Postal Service", "brand:wikidata": "Q668687", "collection_times": "Mo-Fr 13:00; Sa 10:00", "name": "USPS COLLECTION BOX - PO LOBBY", "note": "ON 12/24 AND 12/31, THIS BOX MAY BE COLLECTED AS EARLY AS 12 NOON.", "nsi_id": "unitedstatespostalservice-a77078", "operator": "United States Postal Service", "operator:short": "USPS", "operator:type": "public", "operator:wikidata": "Q668687", "ref": "6603300003"}, "type": "Feature"}
{"geometry": {"coordinates": [-95.1545459, 38.083046], "type": "Point"}, "id": "9xFuz7Lcwpg1WwWvvkqUGeThb_w=", "properties": {"@spider": "usps_collection_boxes", "addr:city": "KINCAID", "addr:country": "US", "addr:full": "100 N COMMERCIAL ST", "addr:postcode": "66039", "addr:state": "KS", "amenity": "post_box", "brand": "United States Postal Service", "brand:wikidata": "Q668687", "collection_times": "Mo-Sa 15:30", "name": "USPS COLLECTION BOX - BLUE BOX", "note": "ON 12/24 AND 12/31, THIS BOX MAY BE COLLECTED AS EARLY AS 12 NOON.", "nsi_id": "unitedstatespostalservice-a77078", "operator": "United States Postal Service", "operator:short": "USPS", "operator:type": "public", "operator:wikidata": "Q668687", "ref": "6603900000"}, "type": "Feature"}
{"geometry": {"coordinates": [-95.15443, 38.082912], "type": "Point"}, "id": "ifVXrUrQGuPtQRVt8I8a9H2nyfo=", "properties": {"@spider": "usps_collection_boxes", "addr:city": "KINCAID", "addr:country": "US", "addr:full": "100 N COMMERCIAL ST", "addr:postcode": "66039", "addr:state": "KS", "amenity": "post_box", "brand": "United States Postal Service", "brand:wikidata": "Q668687", "collection_times": "Mo-Fr 10:45; Sa 09:45", "name": "USPS COLLECTION BOX - PO LOBBY", "nsi_id": "unitedstatespostalservice-a77078", "operator": "United States Postal Service", "operator:short": "USPS", "operator:type": "public", "operator:wikidata": "Q668687", "ref": "6603900001"}, "type": "Feature"}
{"geometry": {"coordinates": [-95.154465431, 38.083077587], "type": "Point"}, "id": "dFQvaPRYyh0n6aKC4odvMlwdVfI=", "properties": {"@spider": "usps_collection_boxes", "addr:city": "KINCAID", "addr:country": "US", "addr:full": "100 N COMMERCIAL ST", "addr:postcode": "66039", "addr:state": "KS", "amenity": "post_box", "brand": "United States Postal Service", "brand:wikidata": "Q668687", "collection_times": "Mo-Fr 10:45; Sa 10:15", "name": "USPS COLLECTION BOX - PO LOBBY", "nsi_id": "unitedstatespostalservice-a77078", "operator": "United States Postal Service", "operator:short": "USPS", "operator:type": "public", "operator:wikidata": "Q668687", "ref": "6603900003"}, "type": "Feature"}
{"geometry": {"coordinates": [-95.084207, 38.440388], "type": "Point"}, "id": "lwXN0gkoWvU3WFrINEVExMkX7Ik=", "properties": {"@spider": "usps_collection_boxes", "addr:city": "LANE", "addr:country": "US", "addr:full": "416 KANSAS AVE", "addr:postcode": "66042", "addr:state": "KS", "amenity": "post_box", "brand": "United States Postal Service", "brand:wikidata": "Q668687", "collection_times": "Mo-Fr 12:45; Sa 12:00", "name": "USPS COLLECTION BOX - PO LOBBY", "note": "ON 12/24 AND 12/31, THIS BOX MAY BE COLLECTED AS EARLY AS 12 NOON.", "nsi_id": "unitedstatespostalservice-a77078", "operator": "United States Postal Service", "operator:short": "USPS", "operator:type": "public", "operator:wikidata": "Q668687", "ref": "6604200000"}, "type": "Feature"}
{"geometry": {"coordinates": [-95.0842654, 38.440024], "type": "Point"}, "id": "U4ix8tEZPdy8SJhRw6TAWMdhWkY=", "properties": {"@spider": "usps_collection_boxes", "addr:city": "LANE", "addr:country": "US", "addr:full": "416 KANSAS AVE", "addr:postcode": "66042", "addr:state": "KS", "amenity": "post_box", "brand": "United States Postal Service", "brand:wikidata": "Q668687", "collection_times": "Mo-Sa 15:15", "name": "USPS COLLECTION BOX - BLUE BOX", "note": "ON 12/24 AND 12/31, THIS BOX MAY BE COLLECTED AS EARLY AS 12 NOON.", "nsi_id": "unitedstatespostalservice-a77078", "operator": "United States Postal Service", "operator:short": "USPS", "operator:type": "public", "operator:wikidata": "Q668687", "ref": "6604200001"}, "type": "Feature"}
{"geometry": {"coordinates": [-95.084216552, 38.440016696], "type": "Point"}, "id": "sEfQn9A19JvZ60zyi0HX6QY6Mio=", "properties": {"@spider": "usps_collection_boxes", "addr:city": "LANE", "addr:country": "US", "addr:full": "416 KANSAS AVE", "addr:postcode": "66042", "addr:state": "KS", "amenity": "post_box", "brand": "United States Postal Service", "brand:wikidata": "Q668687", "collection_times": "Mo-Fr 14:00; Sa 12:30", "name": "USPS COLLECTION BOX - PO LOBBY", "note": "ON 12/24 AND 12/31, THIS BOX MAY BE COLLECTED AS EARLY AS 12 NOON.", "nsi_id": "unitedstatespostalservice-a77078", "operator": "United States Postal Service", "operator:short": "USPS", "operator:type": "public", "operator:wikidata": "Q668687", "ref": "6604200003"}, "type": "Feature"}
{"geometry": {"coordinates": [-94.991963, 38.328478], "type": "Point"}, "id": "gLtlQ2XSB62rJKPbpt6s9Mw46_4=", "properties": {"@spider": "usps_collection_boxes", "addr:city": "PARKER", "addr:country": "US", "addr:full": "102 N CENTER AVE", "addr:postcode": "66072", "addr:state": "KS", "amenity": "post_box", "brand": "United States Postal Service", "brand:wikidata": "Q668687", "collection_times": "Mo-Sa 14:20", "name": "USPS COLLECTION BOX - BLUE BOX", "note": "ON 12/24 AND 12/31, THIS BOX MAY BE COLLECTED AS EARLY AS 12 NOON.", "nsi_id": "unitedstatespostalservice-a77078", "operator": "United States Postal Service", "operator:short": "USPS", "operator:type": "public", "operator:wikidata": "Q668687", "ref": "6607200000"}, "type": "Feature"}
{"geometry": {"coordinates": [-94.991929, 38.328391], "type": "Point"}, "id": "zlEYBUXzvS1J1eFIPz5NN1XFXHs=", "properties": {"@spider": "usps_collection_boxes", "addr:city": "PARKER", "addr:country": "US", "addr:full": "102 N CENTER AVE", "addr:postcode": "66072", "addr:state": "KS", "amenity": "post_box", "brand": "United States Postal Service", "brand:wikidata": "Q668687", "collection_times": "Mo-Fr 12:45; Sa 09:30", "name": "USPS COLLECTION BOX - PO LOBBY", "note": "ON 12/24 AND 12/31, THIS BOX MAY BE COLLECTED AS EARLY AS 12 NOON.", "nsi_id": "unitedstatespostalservice-a77078", "operator": "United States Postal Service", "operator:short": "USPS", "operator:type": "public", "operator:wikidata": "Q668687", "ref": "6607200004"}, "type": "Feature"}
{"geometry": {"coordinates": [-94.9919780625, 38.328678], "type": "Point"}, "id": "-JMEdD2IH6tnMuuJL_VtldG6-0M=", "properties": {"@spider": "usps_collection_boxes", "addr:city": "PARKER", "addr:country": "US", "addr:full": "102 N CENTER AVE", "addr:postcode": "66072", "addr:state": "KS", "amenity": "post_box", "brand": "United States Postal Service", "brand:wikidata": "Q668687", "collection_times": "Mo-Fr 13:00; Sa 10:30", "name": "USPS COLLECTION BOX - PO LOBBY", "note": "ON 12/24 AND 12/31, THIS BOX MAY BE COLLECTED AS EARLY AS 12 NOON.", "nsi_id": "unitedstatespostalservice-a77078", "operator": "United States Postal Service", "operator:short": "USPS", "operator:type": "public", "operator:wikidata": "Q668687", "ref": "6607200005"}, "type": "Feature"}
{"geometry": {"coordinates": [-95.4529651541, 38.6080828324], "type": "Point"}, "id": "tQYyGZn2l4d_2X0qN8SKSyVUjP0=", "properties": {"@spider": "usps_collection_boxes", "addr:city": "POMONA", "addr:country": "US", "addr:full": "230 MADISON ST", "addr:postcode": "66076", "addr:state": "KS", "amenity": "post_box", "brand": "United States Postal Service", "brand:wikidata": "Q668687", "collection_times": "Mo-Fr 14:30; Sa 11:00", "name": "USPS COLLECTION BOX - BLUE BOX", "note": "ON 12/24 AND 12/31, THIS BOX MAY BE COLLECTED AS EARLY AS 12 NOON.", "nsi_id": "unitedstatespostalservice-a77078", "operator": "United States Postal Service", "operator:short": "USPS", "operator:type": "public", "operator:wikidata": "Q668687", "ref": "6607600000"}, "type": "Feature"}
{"geometry": {"coordinates": [-95.452957, 38.607241], "type": "Point"}, "id": "fgsjL8RdIc9YLa224XX0IOHUtQg=", "properties": {"@spider": "usps_collection_boxes", "addr:city": "POMONA", "addr:country": "US", "addr:full": "230 MADISON ST", "addr:postcode": "66076", "addr:state": "KS", "amenity": "post_box", "brand": "United States Postal Service", "brand:wikidata": "Q668687", "collection_times": "Mo-Fr 14:45; Sa 09:45", "name": "USPS COLLECTION BOX - PO LOBBY", "note": "ON 12/24 AND 12/31, THIS BOX MAY BE COLLECTED AS EARLY AS 12 NOON.", "nsi_id": "unitedstatespostalservice-a77078", "operator": "United States Postal Service", "operator:short": "USPS", "operator:type": "public", "operator:wikidata": "Q668687", "ref": "6607600002"}, "type": "Feature"}
{"geometry": {"coordinates": [-95.452965154, 38.608082832], "type": "Point"}, "id": "3r7CcPpYsrMzbVOZqkasnEZzY3c=", "properties": {"@spider": "usps_collection_boxes", "addr:city": "POMONA", "addr:country": "US", "addr:full": "230 MADISON ST", "addr:postcode": "66076", "addr:state": "KS", "amenity": "post_box", "brand": "United States Postal Service", "brand:wikidata": "Q668687", "collection_times": "Mo-Fr 14:30; Sa 12:00", "name": "USPS COLLECTION BOX - PO LOBBY", "note": "ON 12/24 AND 12/31, THIS BOX MAY BE COLLECTED AS EARLY AS 12 NOON.", "nsi_id": "unitedstatespostalservice-a77078", "operator": "United States Postal Service", "operator:short": "USPS", "operator:type": "public", "operator:wikidata": "Q668687", "ref": "6607600004"}, "type": "Feature"}
{"geometry": {"coordinates": [-95.2749787, 38.488498], "type": "Point"}, "id": "Aklb-igpiMtTvaiJErect-SmOZE=", "properties": {"@spider": "usps_collection_boxes", "addr:city": "PRINCETON", "addr:country": "US", "addr:full": "314 GALVESTON ST", "addr:postcode": "66078", "addr:state": "KS", "amenity": "post_box", "brand": "United States Postal Service", "brand:wikidata": "Q668687", "collection_times": "Mo-Sa 16:15", "name": "USPS COLLECTION BOX - BLUE BOX", "note": "ON 12/24 AND 12/31, THIS BOX MAY BE COLLECTED AS EARLY AS 12 NOON.", "nsi_id": "unitedstatespostalservice-a77078", "operator": "United States Postal Service", "operator:short": "USPS", "operator:type": "public", "operator:wikidata": "Q668687", "ref": "6607800000"}, "type": "Feature"}
{"geometry": {"coordinates": [-95.274785, 38.488924], "type": "Point"}, "id": "C_XCbNo9Oa4250Fh5bm6kG6_j9Q=", "properties": {"@spider": "usps_collection_boxes", "addr:city": "PRINCETON", "addr:country": "US", "addr:full": "314 GALVESTON ST", "addr:postcode": "66078", "addr:state": "KS", "amenity": "post_box", "brand": "United States Postal Service", "brand:wikidata": "Q668687", "collection_times": "Mo-Fr 16:30", "name": "USPS COLLECTION BOX - PO LOBBY", "note": "ON 12/24 AND 12/31, THIS BOX MAY BE COLLECTED AS EARLY AS 12 NOON.", "nsi_id": "unitedstatespostalservice-a77078", "operator": "United States Postal Service", "operator:short": "USPS", "operator:type": "public", "operator:wikidata": "Q668687", "ref": "6607800001"}, "type": "Feature"}
{"geometry": {"coordinates": [-95.2748663915, 38.4884578498], "type": "Point"}, "id": "PB5H3vz06oi7DQxBj_-7WPeKa5M=", "properties": {"@spider": "usps_collection_boxes", "addr:city": "PRINCETON", "addr:country": "US", "addr:full": "314 GALVESTON ST", "addr:postcode": "66078", "addr:state": "KS", "amenity": "post_box", "brand": "United States Postal Service", "brand:wikidata": "Q668687", "collection_times": "Mo-Fr 16:15; Sa 09:30", "name": "USPS COLLECTION BOX - PO LOBBY", "note": "ON 12/24 AND 12/31, THIS BOX MAY BE COLLECTED AS EARLY AS 12 NOON.", "nsi_id": "unitedstatespostalservice-a77078", "operator": "United States Postal Service", "operator:short": "USPS", "operator:type": "public", "operator:wikidata": "Q668687", "ref": "6607800003"}, "type": "Feature"}
{"geometry": {"coordinates": [-95.2553173, 38.401488], "type": "Point"}, "id": "6QxLxaUZskokKBUXRpJYPmwJ340=", "properties": {"@spider": "usps_collection_boxes", "addr:city": "RICHMOND", "addr:country": "US", "addr:full": "117 E CENTRAL ST", "addr:postcode": "66080", "addr:state": "KS", "amenity": "post_box", "brand": "United States Postal Service", "brand:wikidata": "Q668687", "collection_times": "Mo-Fr 16:00; Sa 15:00", "name": "USPS COLLECTION BOX - BLUE BOX", "note": "ON 12/24 AND 12/31, THIS BOX MAY BE COLLECTED AS EARLY AS 12 NOON.", "nsi_id": "unitedstatespostalservice-a77078", "operator": "United States Postal Service", "operator:short": "USPS", "operator:type": "public", "operator:wikidata": "Q668687", "ref": "6608000000"}, "type": "Feature"}
{"geometry": {"coordinates": [-95.256061, 38.401578], "type": "Point"}, "id": "dZ06rBbqQmztoF1DIz8i34IRl9s=", "properties": {"@spider": "usps_collection_boxes", "addr:city": "RICHMOND", "addr:country": "US", "addr:full": "117 E CENTRAL ST", "addr:postcode": "66080", "addr:state": "KS", "amenity": "post_box", "brand": "United States Postal Service", "brand:wikidata": "Q668687", "collection_times": "Mo-Fr 12:45; Sa 09:15", "name": "USPS COLLECTION BOX - PO LOBBY", "note": "ON 12/24 AND 12/31, THIS BOX MAY BE COLLECTED AS EARLY AS 12 NOON.", "nsi_id": "unitedstatespostalservice-a77078", "operator": "United States Postal Service", "operator:short": "USPS", "operator:type": "public", "operator:wikidata": "Q668687", "ref": "6608000001"}, "type": "Feature"}
{"geometry": {"coordinates": [-95.255343335, 38.401541488], "type": "Point"}, "id": "X0DFZO216ZAnZN2ZUEDKKj08qq0=", "properties": {"@spider": "usps_collection_boxes", "addr:city": "RICHMOND", "addr:country": "US", "addr:full": "117 E CENTRAL ST", "addr:postcode": "66080", "addr:state": "KS", "amenity": "post_box", "brand": "United States Postal Service", "brand:wikidata": "Q668687", "collection_times": "Mo-Fr 13:00; Sa 11:30", "name": "USPS COLLECTION BOX - PO LOBBY", "note": "ON 12/24 AND 12/31, THIS BOX MAY BE COLLECTED AS EARLY AS 12 NOON.", "nsi_id": "unitedstatespostalservice-a77078", "operator": "United States Postal Service", "operator:short": "USPS", "operator:type": "public", "operator:wikidata": "Q668687", "ref": "6608000003"}, "type": "Feature"}
{"geometry": {"coordinates": [-95.2926249, 38.16976], "type": "Point"}, "id": "tV6m9P_gx_ISGqXZ4dElG6_wrHM=", "properties": {"@spider": "usps_collection_boxes", "addr:city": "WELDA", "addr:country": "US", "addr:full": "104 KAUBLE ST", "addr:postcode": "66091", "addr:state": "KS", "amenity": "post_box", "brand": "United States Postal Service", "brand:wikidata": "Q668687", "collection_times": "Mo-Fr 14:25; Sa 14:30", "name": "USPS COLLECTION BOX - BLUE BOX", "note": "ON 12/24 AND 12/31, THIS BOX MAY BE COLLECTED AS EARLY AS 12 NOON.", "nsi_id": "unitedstatespostalservice-a77078", "operator": "United States Postal Service", "operator:short": "USPS", "operator:type": "public", "operator:wikidata": "Q668687", "ref": "6609100000"}, "type": "Feature"}
{"geometry": {"coordinates": [-95.292714, 38.170265], "type": "Point"}, "id": "ZQ5p4jEbGtxsT51GBvq9d_Szzhs=", "properties": {"@spider": "usps_collection_boxes", "addr:city": "WELDA", "addr:country": "US", "addr:full": "104 KAUBLE ST", "addr:postcode": "66091", "addr:state": "KS", "amenity": "post_box", "brand": "United States Postal Service", "brand:wikidata": "Q668687", "collection_times": "Mo-Fr 11:45; Sa 11:00", "name": "USPS COLLECTION BOX - PO LOBBY", "nsi_id": "unitedstatespostalservice-a77078", "operator": "United States Postal Service", "operator:short": "USPS", "operator:type": "public", "operator:wikidata": "Q668687", "ref": "6609100001"}, "type": "Feature"}
{"geometry": {"coordinates": [-95.292657254, 38.170306108], "type": "Point"}, "id": "LtN4BZdeyDV5CrMWOSZsjuCFxzU=", "properties": {"@spider": "usps_collection_boxes", "addr:city": "WELDA", "addr:country": "US", "addr:full": "104 KAUBLE ST", "addr:postcode": "66091", "addr:state": "KS", "amenity": "post_box", "brand": "United States Postal Service", "brand:wikidata": "Q668687", "collection_times": "Mo-Sa 12:00", "name": "USPS COLLECTION BOX - PO LOBBY", "nsi_id": "unitedstatespostalservice-a77078", "operator": "United States Postal Service", "operator:short": "USPS", "operator:type": "public", "operator:wikidata": "Q668687", "ref": "6609100003"}, "type": "Feature"}
{"geometry": {"coordinates": [-95.4897279, 38.181751], "type": "Point"}, "id": "OscojfaMKZflmFXVtq6bPabTuAM=", "properties": {"@spider": "usps_collection_boxes", "addr:city": "WESTPHALIA", "addr:country": "US", "addr:full": "504 LINCOLN AVE", "addr:postcode": "66093", "addr:state": "KS", "amenity": "post_box", "brand": "United States Postal Service", "brand:wikidata": "Q668687", "collection_times": "Mo-Sa 15:15", "name": "USPS COLLECTION BOX - BLUE BOX", "note": "ON 12/24 AND 12/31, THIS BOX MAY BE COLLECTED AS EARLY AS 12 NOON.", "nsi_id": "unitedstatespostalservice-a77078", "operator": "United States Postal Service", "operator:short": "USPS", "operator:type": "public", "operator:wikidata": "Q668687", "ref": "6609300000"}, "type": "Feature"}
{"geometry": {"coordinates": [-95.489895, 38.181711], "type": "Point"}, "id": "wuezweDXmGDLPd1gYqvBswBCAqs=", "properties": {"@spider": "usps_collection_boxes", "addr:city": "WESTPHALIA", "addr:country": "US", "addr:full": "504 LINCOLN AVE", "addr:postcode": "66093", "addr:state": "KS", "amenity": "post_box", "brand": "United States Postal Service", "brand:wikidata": "Q668687", "collection_times": "Mo-Fr 11:45; Sa 09:15", "name": "USPS COLLECTION BOX - PO LOBBY", "nsi_id": "unitedstatespostalservice-a77078", "operator": "United States Postal Service", "operator:short": "USPS", "operator:type": "public", "operator:wikidata": "Q668687", "ref": "6609300002"}, "type": "Feature"}
{"geometry": {"coordinates": [-95.489613335, 38.181744471], "type": "Point"}, "id": "xj7PvMXfx6pVGscCFqLFujNqsXA=", "properties": {"@spider": "usps_collection_boxes", "addr:city": "WESTPHALIA", "addr:country": "US", "addr:full": "504 LINCOLN AVE", "addr:postcode": "66093", "addr:state": "KS", "amenity": "post_box", "brand": "United States Postal Service", "brand:wikidata": "Q668687", "collection_times": "Mo-Fr 12:00; Sa 11:30", "name": "USPS COLLECTION BOX - PO LOBBY", "nsi_id": "unitedstatespostalservice-a77078", "operator": "United States Postal Service", "operator:short": "USPS", "operator:type": "public", "operator:wikidata": "Q668687", "ref": "6609300005"}, "type": "Feature"}
{"geometry": {"coordinates": [-95.4675273, 38.478939], "type": "Point"}, "id": "1VUxhoya5lyVr2oqe9DonkypLAc=", "properties": {"@spider": "usps_collection_boxes", "addr:city": "WILLIAMSBURG", "addr:country": "US", "addr:full": "100 W WILLIAM ST", "addr:postcode": "66095", "addr:state": "KS", "amenity": "post_box", "brand": "United States Postal Service", "brand:wikidata": "Q668687", "collection_times": "Mo-Fr 11:45; Sa 09:45", "name": "USPS COLLECTION BOX - PO LOBBY", "nsi_id": "unitedstatespostalservice-a77078", "operator": "United States Postal Service", "operator:short": "USPS", "operator:type": "public", "operator:wikidata": "Q668687", "ref": "6609500001"}, "type": "Feature"}
{"geometry": {"coordinates": [-95.4675126, 38.478966], "type": "Point"}, "id": "VYyz9tGozxgjJyI85wDXXqVNYsU=", "properties": {"@spider": "usps_collection_boxes", "addr:city": "WILLIAMSBURG", "addr:country": "US", "addr:full": "100 W WILLIAM ST", "addr:postcode": "66095", "addr:state": "KS", "amenity": "post_box", "brand": "United States Postal Service", "brand:wikidata": "Q668687", "collection_times": "Mo-Fr 11:45; Sa 09:45", "name": "USPS COLLECTION BOX - PO LOBBY", "nsi_id": "unitedstatespostalservice-a77078", "operator": "United States Postal Service", "operator:short": "USPS", "operator:type": "public", "operator:wikidata": "Q668687", "ref": "6609500002"}, "type": "Feature"}
{"geometry": {"coordinates": [-95.4675693, 38.479133], "type": "Point"}, "id": "Ip-niYvPjYNBFSm92Raz2Ua8PJE=", "properties": {"@spider": "usps_collection_boxes", "addr:city": "WILLIAMSBURG", "addr:country": "US", "addr:full": "100 W WILLIAM ST", "addr:postcode": "66095", "addr:state": "KS", "amenity": "post_box", "brand": "United States Postal Service", "brand:wikidata": "Q668687", "collection_times": "Mo-Fr 14:05; Sa 11:00", "name": "USPS COLLECTION BOX - BLUE BOX", "note": "ON 12/24 AND 12/31, THIS BOX MAY BE COLLECTED AS EARLY AS 12 NOON.", "nsi_id": "unitedstatespostalservice-a77078", "operator": "United States Postal Service", "operator:short": "USPS", "operator:type": "public", "operator:wikidata": "Q668687", "ref": "6609500003"}, "type": "Feature"}
{"geometry": {"coordinates": [-95.466857513, 38.478745013], "type": "Point"}, "id": "F_i1MGcwTrBwVMdybLUPWNncNVg=", "properties": {"@spider": "usps_collection_boxes", "addr:city": "WILLIAMSBURG", "addr:country": "US", "addr:full": "100 W WILLIAM ST", "addr:postcode": "66095", "addr:state": "KS", "amenity": "post_box", "brand": "United States Postal Service", "brand:wikidata": "Q668687", "collection_times": "Mo-Fr 12:00; Sa 11:45", "name": "USPS COLLECTION BOX - PO LOBBY", "nsi_id": "unitedstatespostalservice-a77078", "operator": "United States Postal Service", "operator:short": "USPS", "operator:type": "public", "operator:wikidata": "Q668687", "ref": "6609500005"}, "type": "Feature"}
