{"dataset_attributes": {"@spider": "usps_collection_boxes", "spider:collection_time": "2023-11-04T08:23:02.835734"}, "geometry": {"coordinates": [-94.623372, 39.117553519], "type": "Point"}, "id": "PdUgvJ7VUN-TunfHCyte9jhWAjw=", "properties": {"@spider": "usps_collection_boxes", "addr:city": "KANSAS CITY", "addr:country": "US", "addr:full": "550 NEBRASKA AVE", "addr:postcode": "66101", "addr:state": "KS", "amenity": "post_box", "brand": "United States Postal Service", "brand:wikidata": "Q668687", "collection_times": "Mo-Fr 15:00; Sa 13:00", "name": "USPS COLLECTION BOX - BLUE BOX", "note": "ON 12/24 AND 12/31, THIS BOX MAY BE COLLECTED AS EARLY AS 12 NOON.", "nsi_id": "unitedstatespostalservice-a77078", "operator": "United States Postal Service", "operator:short": "USPS", "operator:type": "public", "operator:wikidata": "Q668687", "ref": "6610100006"}, "type": "Feature"}
{"dataset_attributes": {"@spider": "usps_collection_boxes", "spider:collection_time": "2023-11-04T08:23:02.835734"}, "geometry": {"coordinates": [-94.6279377, 39.113316], "type": "Point"}, "id": "RF8b6ws6VrUPbCnfiNsR83EGIso=", "properties": {"@spider": "usps_collection_boxes", "addr:city": "KANSAS CITY", "addr:country": "US", "addr:full": "710 N 7TH ST", "addr:postcode": "66101", "addr:state": "KS", "amenity": "post_box", "brand": "United States Postal Service", "brand:wikidata": "Q668687", "collection_times": "Mo-Fr 13:00", "name": "USPS COLLECTION BOX - BLUE BOX", "note": "ON 12/24 AND 12/31, THIS BOX MAY BE COLLECTED AS EARLY AS 12 NOON.", "nsi_id": "unitedstatespostalservice-a77078", "operator": "United States Postal Service", "operator:short": "USPS", "operator:type": "public", "operator:wikidata": "Q668687", "ref": "6610100019"}, "type": "Feature"}
{"dataset_attributes": {"@spider": "usps_collection_boxes", "spider:collection_time": "2023-11-04T08:23:02.835734"}, "geometry": {"coordinates": [-94.6279391, 39.11337], "type": "Point"}, "id": "FpfzLLbc7Im7zZJUo3JmJOvS594=", "properties": {"@spider": "usps_collection_boxes", "addr:city": "KANSAS CITY", "addr:country": "US", "addr:full": "710 N 7TH ST", "addr:postcode": "66101", "addr:state": "KS", "amenity": "post_box", "brand": "United States Postal Service", "brand:wikidata": "Q668687", "collection_times": "Mo-Fr 13:00", "name": "USPS COLLECTION BOX - BLUE BOX", "note": "ON 12/24 AND 12/31, THIS BOX MAY BE COLLECTED AS EARLY AS 12 NOON.", "nsi_id": "unitedstatespostalservice-a77078", "operator": "United States Postal Service", "operator:short": "USPS", "operator:type": "public", "operator:wikidata": "Q668687", "ref": "6610100020"}, "type": "Feature"}
{"dataset_attributes": {"@spider": "usps_collection_boxes", "spider:collection_time": "2023-11-04T08:23:02.835734"}, "geometry": {"coordinates": [-94.6192286, 39.116628], "type": "Point"}, "id": "oN_gYfnzYpBmPwHqGj1dMaWOmJ0=", "properties": {"@spider": "usps_collection_boxes", "addr:city": "KANSAS CITY", "addr:country": "US", "addr:full": "402 STATE AVE", "addr:postcode": "66101", "addr:state": "KS", "amenity": "post_box", "brand": "United States Postal Service", "brand:wikidata": "Q668687", "collection_times": "Mo-Fr 13:00", "name": "USPS COLLECTION BOX - BLUE BOX", "note": "ON 12/24 AND 12/31, THIS BOX MAY BE COLLECTED AS EARLY AS 12 NOON.", "nsi_id": "unitedstatespostalservice-a77078", "operator": "United States Postal Service", "operator:short": "USPS", "operator:type": "public", "operator:wikidata": "Q668687", "ref": "6610100023"}, "type": "Feature"}
{"dataset_attributes": {"@spider": "usps_collection_boxes", "spider:collection_time": "2023-11-04T08:23:02.835734"}, "geometry": {"coordinates": [-94.6237758, 39.109962], "type": "Point"}, "id": "VWFdUjRBu5t9vRBKTXJTQ0qXrlE=", "properties": {"@spider": "usps_collection_boxes", "addr:city": "KANSAS CITY", "addr:country": "US", "addr:full": "401 N 6TH ST", "addr:postcode": "66101", "addr:state": "KS", "amenity": "post_box", "brand": "United States Postal Service", "brand:wikidata": "Q668687", "collection_times": "Mo-Sa 13:00", "name": "USPS COLLECTION BOX - BLUE BOX", "note": "ON 12/24 AND 12/31, THIS BOX MAY BE COLLECTED AS EARLY AS 12 NOON.", "nsi_id": "unitedstatespostalservice-a77078", "operator": "United States Postal Service", "operator:short": "USPS", "operator:type": "public", "operator:wikidata": "Q668687", "ref": "6610100024"}, "type": "Feature"}
{"dataset_attributes": {"@spider": "usps_collection_boxes", "spider:collection_time": "2023-11-04T08:23:02.835734"}, "geometry": {"coordinates": [-94.623372, 39.117553519], "type": "Point"}, "id": "Zs_Lr9lpcovlTdnYLliHsuDxzsg=", "properties": {"@spider": "usps_collection_boxes", "addr:city": "KANSAS CITY", "addr:country": "US", "addr:full": "550 NEBRASKA AVE", "addr:postcode": "66101", "addr:state": "KS", "amenity": "post_box", "brand": "United States Postal Service", "brand:wikidata": "Q668687", "collection_times": "Mo-Fr 14:45; Sa 13:00", "name": "USPS COLLECTION BOX - PO LOBBY", "note": "ON 12/24 AND 12/31, THIS BOX MAY BE COLLECTED AS EARLY AS 12 NOON.", "nsi_id": "unitedstatespostalservice-a77078", "operator": "United States Postal Service", "operator:short": "USPS", "operator:type": "public", "operator:wikidata": "Q668687", "ref": "6610100069"}, "type": "Feature"}
{"dataset_attributes": {"@spider": "usps_collection_boxes", "spider:collection_time": "2023-11-04T08:23:02.835734"}, "geometry": {"coordinates": [-94.623372, 39.117553519], "type": "Point"}, "id": "5JfdO4x-146GYMCaD5nxq9_1Yo4=", "properties": {"@spider": "usps_collection_boxes", "addr:city": "KANSAS CITY", "addr:country": "US", "addr:full": "550 NEBRASKA AVE", "addr:postcode": "66101", "addr:state": "KS", "amenity": "post_box", "brand": "United States Postal Service", "brand:wikidata": "Q668687", "collection_times": "Mo-Fr 17:15; Sa 12:15", "name": "USPS COLLECTION BOX - PO LOBBY", "note": "ON 12/24 AND 12/31, THIS BOX MAY BE COLLECTED AS EARLY AS 12 NOON.", "nsi_id": "unitedstatespostalservice-a77078", "operator": "United States Postal Service", "operator:short": "USPS", "operator:type": "public", "operator:wikidata": "Q668687", "ref": "6610100082"}, "type": "Feature"}
{"dataset_attributes": {"@spider": "usps_collection_boxes", "spider:collection_time": "2023-11-04T08:23:02.835734"}, "geometry": {"coordinates": [-94.7089099, 39.120236], "type": "Point"}, "id": "Fk_7vc53aNjZriaaikXb9HOTMRY=", "properties": {"@spider": "usps_collection_boxes", "addr:city": "KANSAS CITY", "addr:country": "US", "addr:full": "1333 MEADOWLARK LN", "addr:postcode": "66102", "addr:state": "KS", "amenity": "post_box", "brand": "United States Postal Service", "brand:wikidata": "Q668687", "collection_times": "Mo-Sa 12:30", "name": "USPS COLLECTION BOX - BLUE BOX", "note": "ON 12/24 AND 12/31, THIS BOX MAY BE COLLECTED AS EARLY AS 12 NOON.", "nsi_id": "unitedstatespostalservice-a77078", "operator": "United States Postal Service", "operator:short": "USPS", "operator:type": "public", "operator:wikidata": "Q668687", "ref": "6610200003"}, "type": "Feature"}
{"dataset_attributes": {"@spider": "usps_collection_boxes", "spider:collection_time": "2023-11-04T08:23:02.835734"}, "geometry": {"coordinates": [-94.6724319, 39.117612], "type": "Point"}, "id": "D0n4dT0f_WzbCBSXCs2VpV52lOo=", "properties": {"@spider": "usps_collection_boxes", "addr:city": "KANSAS CITY", "addr:country": "US", "addr:full": "3750 STATE AVE", "addr:postcode": "66102", "addr:state": "KS", "amenity": "post_box", "brand": "United States Postal Service", "brand:wikidata": "Q668687", "collection_times": "Mo-Sa 11:30", "name": "USPS COLLECTION BOX - BLUE BOX", "nsi_id": "unitedstatespostalservice-a77078", "operator": "United States Postal Service", "operator:short": "USPS", "operator:type": "public", "operator:wikidata": "Q668687", "ref": "6610200020"}, "type": "Feature"}
{"dataset_attributes": {"@spider": "usps_collection_boxes", "spider:collection_time": "2023-11-04T08:23:02.835734"}, "geometry": {"coordinates": [-94.7313724, 39.128335], "type": "Point"}, "id": "0FSaHOWUGNxp6Hn-dnW85eabQLU=", "properties": {"@spider": "usps_collection_boxes", "addr:city": "KANSAS CITY", "addr:country": "US", "addr:full": "6611 PARALLEL PKWY", "addr:postcode": "66102", "addr:state": "KS", "amenity": "post_box", "brand": "United States Postal Service", "brand:wikidata": "Q668687", "collection_times": "Mo-Sa 11:15", "name": "USPS COLLECTION BOX - BLUE BOX", "nsi_id": "unitedstatespostalservice-a77078", "operator": "United States Postal Service", "operator:short": "USPS", "operator:type": "public", "operator:wikidata": "Q668687", "ref": "6610200027"}, "type": "Feature"}
{"dataset_attributes": {"@spider": "usps_collection_boxes", "spider:collection_time": "2023-11-04T08:23:02.835734"}, "geometry": {"coordinates": [-94.6488354, 39.099976], "type": "Point"}, "id": "VRsvFxYaYWzGnER8ugVdHX1hna4=", "properties": {"@spider": "usps_collection_boxes", "addr:city": "KANSAS CITY", "addr:country": "US", "addr:full": "155 S 18TH ST", "addr:postcode": "66102", "addr:state": "KS", "amenity": "post_box", "brand": "United States Postal Service", "brand:wikidata": "Q668687", "collection_times": "Mo-Sa 10:00", "name": "USPS COLLECTION BOX - BLUE BOX", "nsi_id": "unitedstatespostalservice-a77078", "operator": "United States Postal Service", "operator:short": "USPS", "operator:type": "public", "operator:wikidata": "Q668687", "ref": "6610200029"}, "type": "Feature"}
{"dataset_attributes": {"@spider": "usps_collection_boxes", "spider:collection_time": "2023-11-04T08:23:02.835734"}, "geometry": {"coordinates": [-94.6508039602, 39.1063000071], "type": "Point"}, "id": "vBuOVnNgxxpghsbbi_SvYmKnMdc=", "properties": {"@spider": "usps_collection_boxes", "addr:city": "KANSAS CITY", "addr:country": "US", "addr:full": "1901 CENTRAL AVE", "addr:postcode": "66102", "addr:state": "KS", "amenity": "post_box", "brand": "United States Postal Service", "brand:wikidata": "Q668687", "collection_times": "Mo-Sa 12:00", "name": "USPS COLLECTION BOX - BLUE BOX", "nsi_id": "unitedstatespostalservice-a77078", "operator": "United States Postal Service", "operator:short": "USPS", "operator:type": "public", "operator:wikidata": "Q668687", "ref": "6610200039"}, "type": "Feature"}
{"dataset_attributes": {"@spider": "usps_collection_boxes", "spider:collection_time": "2023-11-04T08:23:02.835734"}, "geometry": {"coordinates": [-94.610566706, 39.061686257], "type": "Point"}, "id": "WjU7HBDwUKRneyr07AYUlAUONPE=", "properties": {"@spider": "usps_collection_boxes", "addr:city": "KANSAS CITY", "addr:country": "US", "addr:full": "2200 W 36TH AVE", "addr:postcode": "66103", "addr:state": "KS", "amenity": "post_box", "brand": "United States Postal Service", "brand:wikidata": "Q668687", "collection_times": "Mo-Fr 14:45; Sa 13:00", "name": "USPS COLLECTION BOX - BLUE BOX", "note": "ON 12/24 AND 12/31, THIS BOX MAY BE COLLECTED AS EARLY AS 12 NOON.", "nsi_id": "unitedstatespostalservice-a77078", "operator": "United States Postal Service", "operator:short": "USPS", "operator:type": "public", "operator:wikidata": "Q668687", "ref": "6610300000"}, "type": "Feature"}
{"dataset_attributes": {"@spider": "usps_collection_boxes", "spider:collection_time": "2023-11-04T08:23:02.835734"}, "geometry": {"coordinates": [-94.610566706, 39.061686257], "type": "Point"}, "id": "uz567yXO-sH--JypF1stPrZ9QUg=", "properties": {"@spider": "usps_collection_boxes", "addr:city": "KANSAS CITY", "addr:country": "US", "addr:full": "2200 W 36TH AVE", "addr:postcode": "66103", "addr:state": "KS", "amenity": "post_box", "brand": "United States Postal Service", "brand:wikidata": "Q668687", "collection_times": "Mo-Fr 14:45; Sa 13:00", "name": "USPS COLLECTION BOX - BLUE BOX", "note": "ON 12/24 AND 12/31, THIS BOX MAY BE COLLECTED AS EARLY AS 12 NOON.", "nsi_id": "unitedstatespostalservice-a77078", "operator": "United States Postal Service", "operator:short": "USPS", "operator:type": "public", "operator:wikidata": "Q668687", "ref": "6610300001"}, "type": "Feature"}
{"dataset_attributes": {"@spider": "usps_collection_boxes", "spider:collection_time": "2023-11-04T08:23:02.835734"}, "geometry": {"coordinates": [-94.6134500087, 39.0640130122], "type": "Point"}, "id": "5AheewpskWLMiefuiwbaU2QBwnw=", "properties": {"@spider": "usps_collection_boxes", "addr:city": "KANSAS CITY", "addr:country": "US", "addr:full": "3500 RAINBOW BLVD", "addr:postcode": "66103", "addr:state": "KS", "amenity": "post_box", "brand": "United States Postal Service", "brand:wikidata": "Q668687", "collection_times": "Mo-Fr 14:45; Sa 12:45", "name": "USPS COLLECTION BOX - BLUE BOX", "note": "ON 12/24 AND 12/31, THIS BOX MAY BE COLLECTED AS EARLY AS 12 NOON.", "nsi_id": "unitedstatespostalservice-a77078", "operator": "United States Postal Service", "operator:short": "USPS", "operator:type": "public", "operator:wikidata": "Q668687", "ref": "6610300011"}, "type": "Feature"}
{"dataset_attributes": {"@spider": "usps_collection_boxes", "spider:collection_time": "2023-11-04T08:23:02.835734"}, "geometry": {"coordinates": [-94.6241618, 39.08766], "type": "Point"}, "id": "GLn11b2_UO4-SJmQoNGC6wGol_4=", "properties": {"@spider": "usps_collection_boxes", "addr:city": "KANSAS CITY", "addr:country": "US", "addr:full": "628 KANSAS AVE", "addr:postcode": "66103", "addr:state": "KS", "amenity": "post_box", "brand": "United States Postal Service", "brand:wikidata": "Q668687", "collection_times": "Mo-Fr 14:45; Sa 12:45", "name": "USPS COLLECTION BOX - BLUE BOX", "note": "ON 12/24 AND 12/31, THIS BOX MAY BE COLLECTED AS EARLY AS 12 NOON.", "nsi_id": "unitedstatespostalservice-a77078", "operator": "United States Postal Service", "operator:short": "USPS", "operator:type": "public", "operator:wikidata": "Q668687", "ref": "6610300025"}, "type": "Feature"}
{"dataset_attributes": {"@spider": "usps_collection_boxes", "spider:collection_time": "2023-11-04T08:23:02.835734"}, "geometry": {"coordinates": [-94.6108666, 39.075771], "type": "Point"}, "id": "ikgtVOa24kcVrJBcnt8H474g2jU=", "properties": {"@spider": "usps_collection_boxes", "addr:city": "KANSAS CITY", "addr:country": "US", "addr:full": "106 GREYSTONE AVE", "addr:postcode": "66103", "addr:state": "KS", "amenity": "post_box", "brand": "United States Postal Service", "brand:wikidata": "Q668687", "collection_times": "Mo-Fr 14:45; Sa 13:00", "name": "USPS COLLECTION BOX - BLUE BOX", "note": "ON 12/24 AND 12/31, THIS BOX MAY BE COLLECTED AS EARLY AS 12 NOON.", "nsi_id": "unitedstatespostalservice-a77078", "operator": "United States Postal Service", "operator:short": "USPS", "operator:type": "public", "operator:wikidata": "Q668687", "ref": "6610300031"}, "type": "Feature"}
{"dataset_attributes": {"@spider": "usps_collection_boxes", "spider:collection_time": "2023-11-04T08:23:02.835734"}, "geometry": {"coordinates": [-94.610566706, 39.061686257], "type": "Point"}, "id": "BevSYYY5JiTLHFMXOitwkawn8zA=", "properties": {"@spider": "usps_collection_boxes", "addr:city": "KANSAS CITY", "addr:country": "US", "addr:full": "2200 W 36TH AVE", "addr:postcode": "66103", "addr:state": "KS", "amenity": "post_box", "brand": "United States Postal Service", "brand:wikidata": "Q668687", "collection_times": "Mo-Fr 14:45; Sa 13:00", "name": "USPS COLLECTION BOX - PO LOBBY", "note": "ON 12/24 AND 12/31, THIS BOX MAY BE COLLECTED AS EARLY AS 12 NOON.", "nsi_id": "unitedstatespostalservice-a77078", "operator": "United States Postal Service", "operator:short": "USPS", "operator:type": "public", "operator:wikidata": "Q668687", "ref": "6610300032"}, "type": "Feature"}
{"dataset_attributes": {"@spider": "usps_collection_boxes", "spider:collection_time": "2023-11-04T08:23:02.835734"}, "geometry": {"coordinates": [-94.6192921, 39.044334], "type": "Point"}, "id": "ASac63NHUMtVOeVYXakYDmHO-BA=", "properties": {"@spider": "usps_collection_boxes", "addr:city": "KANSAS CITY", "addr:country": "US", "addr:full": "2818 W 47TH AVE", "addr:postcode": "66103", "addr:state": "KS", "amenity": "post_box", "brand": "United States Postal Service", "brand:wikidata": "Q668687", "collection_times": "Mo-Fr 14:45; Sa 13:00", "name": "USPS COLLECTION BOX - BLUE BOX", "note": "ON 12/24 AND 12/31, THIS BOX MAY BE COLLECTED AS EARLY AS 12 NOON.", "nsi_id": "unitedstatespostalservice-a77078", "operator": "United States Postal Service", "operator:short": "USPS", "operator:type": "public", "operator:wikidata": "Q668687", "ref": "6610300035"}, "type": "Feature"}
{"dataset_attributes": {"@spider": "usps_collection_boxes", "spider:collection_time": "2023-11-04T08:23:02.835734"}, "geometry": {"coordinates": [-94.610566706, 39.061686257], "type": "Point"}, "id": "EYeo1M7ilDL6VvcNuU0DCI1MA1E=", "properties": {"@spider": "usps_collection_boxes", "addr:city": "KANSAS CITY", "addr:country": "US", "addr:full": "2200 W 36TH AVE", "addr:postcode": "66103", "addr:state": "KS", "amenity": "post_box", "brand": "United States Postal Service", "brand:wikidata": "Q668687", "collection_times": "Mo-Fr 17:15; Sa 12:15", "name": "USPS COLLECTION BOX - PO LOBBY", "note": "ON 12/24 AND 12/31, THIS BOX MAY BE COLLECTED AS EARLY AS 12 NOON.", "nsi_id": "unitedstatespostalservice-a77078", "operator": "United States Postal Service", "operator:short": "USPS", "operator:type": "public", "operator:wikidata": "Q668687", "ref": "6610300040"}, "type": "Feature"}
{"dataset_attributes": {"@spider": "usps_collection_boxes", "spider:collection_time": "2023-11-04T08:23:02.835734"}, "geometry": {"coordinates": [-94.6959319593, 39.1435229914], "type": "Point"}, "id": "7adbVP8Ew0FVe8o4cwIoNeQ9xnM=", "properties": {"@spider": "usps_collection_boxes", "addr:city": "KANSAS CITY", "addr:country": "US", "addr:full": "3115 N 51ST ST", "addr:postcode": "66104", "addr:state": "KS", "amenity": "post_box", "brand": "United States Postal Service", "brand:wikidata": "Q668687", "collection_times": "Mo-Sa 14:45", "name": "USPS COLLECTION BOX - BLUE BOX", "note": "ON 12/24 AND 12/31, THIS BOX MAY BE COLLECTED AS EARLY AS 12 NOON.", "nsi_id": "unitedstatespostalservice-a77078", "operator": "United States Postal Service", "operator:short": "USPS", "operator:type": "public", "operator:wikidata": "Q668687", "ref": "6610400001"}, "type": "Feature"}
{"dataset_attributes": {"@spider": "usps_collection_boxes", "spider:collection_time": "2023-11-04T08:23:02.835734"}, "geometry": {"coordinates": [-94.6963879, 39.143536], "type": "Point"}, "id": "SnrTtC8vRgTtfitPCp8QWC_OUUA=", "properties": {"@spider": "usps_collection_boxes", "addr:city": "KANSAS CITY", "addr:country": "US", "addr:full": "3115 N 51ST ST", "addr:postcode": "66104", "addr:state": "KS", "amenity": "post_box", "brand": "United States Postal Service", "brand:wikidata": "Q668687", "collection_times": "Mo-Sa 14:45", "name": "USPS COLLECTION BOX - BLUE BOX", "note": "ON 12/24 AND 12/31, THIS BOX MAY BE COLLECTED AS EARLY AS 12 NOON.", "nsi_id": "unitedstatespostalservice-a77078", "operator": "United States Postal Service", "operator:short": "USPS", "operator:type": "public", "operator:wikidata": "Q668687", "ref": "6610400002"}, "type": "Feature"}
{"dataset_attributes": {"@spider": "usps_collection_boxes", "spider:collection_time": "2023-11-04T08:23:02.835734"}, "geometry": {"coordinates": [-94.7205529, 39.143381], "type": "Point"}, "id": "65-zMkXA1sVB2vQGAziKZiwITLo=", "properties": {"@spider": "usps_collection_boxes", "addr:city": "KANSAS CITY", "addr:country": "US", "addr:full": "6100 LEAVENWORTH RD", "addr:postcode": "66104", "addr:state": "KS", "amenity": "post_box", "brand": "United States Postal Service", "brand:wikidata": "Q668687", "collection_times": "Mo-Sa 11:00", "name": "USPS COLLECTION BOX - BLUE BOX", "nsi_id": "unitedstatespostalservice-a77078", "operator": "United States Postal Service", "operator:short": "USPS", "operator:type": "public", "operator:wikidata": "Q668687", "ref": "6610400015"}, "type": "Feature"}
{"dataset_attributes": {"@spider": "usps_collection_boxes", "spider:collection_time": "2023-11-04T08:23:02.835734"}, "geometry": {"coordinates": [-94.6961218, 39.143504], "type": "Point"}, "id": "IyNGDiB0s4HJQ15UDb8QHi79KFo=", "properties": {"@spider": "usps_collection_boxes", "addr:city": "KANSAS CITY", "addr:country": "US", "addr:full": "3115 N 51ST ST", "addr:postcode": "66104", "addr:state": "KS", "amenity": "post_box", "brand": "United States Postal Service", "brand:wikidata": "Q668687", "collection_times": "Mo-Fr 17:00; Sa 15:15", "name": "USPS COLLECTION BOX - PO LOBBY", "note": "ON 12/24 AND 12/31, THIS BOX MAY BE COLLECTED AS EARLY AS 12 NOON.", "nsi_id": "unitedstatespostalservice-a77078", "operator": "United States Postal Service", "operator:short": "USPS", "operator:type": "public", "operator:wikidata": "Q668687", "ref": "6610400016"}, "type": "Feature"}
{"dataset_attributes": {"@spider": "usps_collection_boxes", "spider:collection_time": "2023-11-04T08:23:02.835734"}, "geometry": {"coordinates": [-94.6960203, 39.143504], "type": "Point"}, "id": "rko9tPOzGWkicXbHc4D84OeSQFM=", "properties": {"@spider": "usps_collection_boxes", "addr:city": "KANSAS CITY", "addr:country": "US", "addr:full": "3115 N 51ST ST", "addr:postcode": "66104", "addr:state": "KS", "amenity": "post_box", "brand": "United States Postal Service", "brand:wikidata": "Q668687", "collection_times": "Mo-Fr 17:00; Sa 15:15", "name": "USPS COLLECTION BOX - PO LOBBY", "note": "ON 12/24 AND 12/31, THIS BOX MAY BE COLLECTED AS EARLY AS 12 NOON.", "nsi_id": "unitedstatespostalservice-a77078", "operator": "United States Postal Service", "operator:short": "USPS", "operator:type": "public", "operator:wikidata": "Q668687", "ref": "6610400017"}, "type": "Feature"}
{"dataset_attributes": {"@spider": "usps_collection_boxes", "spider:collection_time": "2023-11-04T08:23:02.835734"}, "geometry": {"coordinates": [-94.6479689859, 39.1291650915], "type": "Point"}, "id": "KS5ZyG-GX2uVxffq5gmptCtgtYA=", "properties": {"@spider": "usps_collection_boxes", "addr:city": "KANSAS CITY", "addr:country": "US", "addr:full": "1705 PARALLEL PKWY", "addr:postcode": "66104", "addr:state": "KS", "amenity": "post_box", "brand": "United States Postal Service", "brand:wikidata": "Q668687", "collection_times": "Mo-Sa 11:30", "name": "USPS COLLECTION BOX - BLUE BOX", "nsi_id": "unitedstatespostalservice-a77078", "operator": "United States Postal Service", "operator:short": "USPS", "operator:type": "public", "operator:wikidata": "Q668687", "ref": "6610400019"}, "type": "Feature"}
{"dataset_attributes": {"@spider": "usps_collection_boxes", "spider:collection_time": "2023-11-04T08:23:02.835734"}, "geometry": {"coordinates": [-94.6493893, 39.138177], "type": "Point"}, "id": "usYbJWMCqdyKQW8iATCGTHNFyDw=", "properties": {"@spider": "usps_collection_boxes", "addr:city": "KANSAS CITY", "addr:country": "US", "addr:full": "1801 QUINDARO BLVD", "addr:postcode": "66104", "addr:state": "KS", "amenity": "post_box", "brand": "United States Postal Service", "brand:wikidata": "Q668687", "collection_times": "Mo-Sa 11:45", "name": "USPS COLLECTION BOX - BLUE BOX", "nsi_id": "unitedstatespostalservice-a77078", "operator": "United States Postal Service", "operator:short": "USPS", "operator:type": "public", "operator:wikidata": "Q668687", "ref": "6610400020"}, "type": "Feature"}
{"dataset_attributes": {"@spider": "usps_collection_boxes", "spider:collection_time": "2023-11-04T08:23:02.835734"}, "geometry": {"coordinates": [-94.6964745722, 39.1434746647], "type": "Point"}, "id": "oQgEU5slGejFqQHo2cpUj4z-Mao=", "properties": {"@spider": "usps_collection_boxes", "addr:city": "KANSAS CITY", "addr:country": "US", "addr:full": "3115 N 51ST ST", "addr:postcode": "66104", "addr:state": "KS", "amenity": "post_box", "brand": "United States Postal Service", "brand:wikidata": "Q668687", "collection_times": "Mo-Fr 17:15; Sa 12:15", "name": "USPS COLLECTION BOX - PO LOBBY", "note": "ON 12/24 AND 12/31, THIS BOX MAY BE COLLECTED AS EARLY AS 12 NOON.", "nsi_id": "unitedstatespostalservice-a77078", "operator": "United States Postal Service", "operator:short": "USPS", "operator:type": "public", "operator:wikidata": "Q668687", "ref": "6610400022"}, "type": "Feature"}
{"dataset_attributes": {"@spider": "usps_collection_boxes", "spider:collection_time": "2023-11-04T08:23:02.835734"}, "geometry": {"coordinates": [-94.6682028, 39.075183], "type": "Point"}, "id": "MH8_sSgysLND7COR4F27KKLdlME=", "properties": {"@spider": "usps_collection_boxes", "addr:city": "KANSAS CITY", "addr:country": "US", "addr:full": "3400 STRONG AVE", "addr:postcode": "66106", "addr:state": "KS", "amenity": "post_box", "brand": "United States Postal Service", "brand:wikidata": "Q668687", "collection_times": "Mo-Fr 14:45; Sa 12:00", "name": "USPS COLLECTION BOX - BLUE BOX", "note": "ON 12/24 AND 12/31, THIS BOX MAY BE COLLECTED AS EARLY AS 12 NOON.", "nsi_id": "unitedstatespostalservice-a77078", "operator": "United States Postal Service", "operator:short": "USPS", "operator:type": "public", "operator:wikidata": "Q668687", "ref": "6610600001"}, "type": "Feature"}
{"dataset_attributes": {"@spider": "usps_collection_boxes", "spider:collection_time": "2023-11-04T08:23:02.835734"}, "geometry": {"coordinates": [-94.704429, 39.090132], "type": "Point"}, "id": "ndyHp6wtaIIS8ZbRjvVCRkbPHgY=", "properties": {"@spider": "usps_collection_boxes", "addr:city": "KANSAS CITY", "addr:country": "US", "addr:full": "5429 TURNER DR", "addr:postcode": "66106", "addr:state": "KS", "amenity": "post_box", "brand": "United States Postal Service", "brand:wikidata": "Q668687", "collection_times": "Mo-Fr 14:30; Sa 13:00", "name": "USPS COLLECTION BOX - BLUE BOX", "note": "ON 12/24 AND 12/31, THIS BOX MAY BE COLLECTED AS EARLY AS 12 NOON.", "nsi_id": "unitedstatespostalservice-a77078", "operator": "United States Postal Service", "operator:short": "USPS", "operator:type": "public", "operator:wikidata": "Q668687", "ref": "6610600005"}, "type": "Feature"}
{"dataset_attributes": {"@spider": "usps_collection_boxes", "spider:collection_time": "2023-11-04T08:23:02.835734"}, "geometry": {"coordinates": [-94.6676016, 39.044594], "type": "Point"}, "id": "LRBMJ_n8noAtIB4Z32bNnZyQiyg=", "properties": {"@spider": "usps_collection_boxes", "addr:city": "KANSAS CITY", "addr:country": "US", "addr:full": "3320 MERRIAM LN", "addr:postcode": "66106", "addr:state": "KS", "amenity": "post_box", "brand": "United States Postal Service", "brand:wikidata": "Q668687", "collection_times": "Mo-Sa 11:00", "name": "USPS COLLECTION BOX - BLUE BOX", "nsi_id": "unitedstatespostalservice-a77078", "operator": "United States Postal Service", "operator:short": "USPS", "operator:type": "public", "operator:wikidata": "Q668687", "ref": "6610600007"}, "type": "Feature"}
{"dataset_attributes": {"@spider": "usps_collection_boxes", "spider:collection_time": "2023-11-04T08:23:02.835734"}, "geometry": {"coordinates": [-94.6797036883, 39.048507335], "type": "Point"}, "id": "esnPr1ux2n8QJ_alEMdXP2QWvwk=", "properties": {"@spider": "usps_collection_boxes", "addr:city": "KANSAS CITY", "addr:country": "US", "addr:full": "4400 FOREST AVE", "addr:postcode": "66106", "addr:state": "KS", "amenity": "post_box", "brand": "United States Postal Service", "brand:wikidata": "Q668687", "collection_times": "Mo-Sa 12:00", "name": "USPS COLLECTION BOX - BLUE BOX", "nsi_id": "unitedstatespostalservice-a77078", "operator": "United States Postal Service", "operator:short": "USPS", "operator:type": "public", "operator:wikidata": "Q668687", "ref": "6610600011"}, "type": "Feature"}
{"dataset_attributes": {"@spider": "usps_collection_boxes", "spider:collection_time": "2023-11-04T08:23:02.835734"}, "geometry": {"coordinates": [-94.6860171, 39.05099], "type": "Point"}, "id": "VetcZkNWxNTnUtwkI-Ag5Ojmmps=", "properties": {"@spider": "usps_collection_boxes", "addr:city": "KANSAS CITY", "addr:country": "US", "addr:full": "2803 S 47TH ST", "addr:postcode": "66106", "addr:state": "KS", "amenity": "post_box", "brand": "United States Postal Service", "brand:wikidata": "Q668687", "collection_times": "Mo-Sa 11:00", "name": "USPS COLLECTION BOX - BLUE BOX", "nsi_id": "unitedstatespostalservice-a77078", "operator": "United States Postal Service", "operator:short": "USPS", "operator:type": "public", "operator:wikidata": "Q668687", "ref": "6610600012"}, "type": "Feature"}
{"dataset_attributes": {"@spider": "usps_collection_boxes", "spider:collection_time": "2023-11-04T08:23:02.835734"}, "geometry": {"coordinates": [-94.6485552, 39.06216], "type": "Point"}, "id": "vLm5RUOWN3dusEtJvNkOwmVxq88=", "properties": {"@spider": "usps_collection_boxes", "addr:city": "KANSAS CITY", "addr:country": "US", "addr:full": "1717 STEELE RD", "addr:postcode": "66106", "addr:state": "KS", "amenity": "post_box", "brand": "United States Postal Service", "brand:wikidata": "Q668687", "collection_times": "Mo-Sa 12:00", "name": "USPS COLLECTION BOX - BLUE BOX", "nsi_id": "unitedstatespostalservice-a77078", "operator": "United States Postal Service", "operator:short": "USPS", "operator:type": "public", "operator:wikidata": "Q668687", "ref": "6610600018"}, "type": "Feature"}
{"dataset_attributes": {"@spider": "usps_collection_boxes", "spider:collection_time": "2023-11-04T08:23:02.835734"}, "geometry": {"coordinates": [-94.6784933, 39.090186], "type": "Point"}, "id": "vIZoG_jjAb89U_sDRUgNajUp6Oc=", "properties": {"@spider": "usps_collection_boxes", "addr:city": "KANSAS CITY", "addr:country": "US", "addr:full": "4202 KANSAS AVE", "addr:postcode": "66106", "addr:state": "KS", "amenity": "post_box", "brand": "United States Postal Service", "brand:wikidata": "Q668687", "collection_times": "Mo-Sa 12:00", "name": "USPS COLLECTION BOX - BLUE BOX", "nsi_id": "unitedstatespostalservice-a77078", "operator": "United States Postal Service", "operator:short": "USPS", "operator:type": "public", "operator:wikidata": "Q668687", "ref": "6610600027"}, "type": "Feature"}
{"dataset_attributes": {"@spider": "usps_collection_boxes", "spider:collection_time": "2023-11-04T08:23:02.835734"}, "geometry": {"coordinates": [-94.6680498, 39.075279], "type": "Point"}, "id": "wL_kEdu4VSPamxjoYrKDigRNxuo=", "properties": {"@spider": "usps_collection_boxes", "addr:city": "KANSAS CITY", "addr:country": "US", "addr:full": "3400 STRONG AVE", "addr:postcode": "66106", "addr:state": "KS", "amenity": "post_box", "brand": "United States Postal Service", "brand:wikidata": "Q668687", "collection_times": "Mo-Fr 12:00; Sa 10:00", "name": "USPS COLLECTION BOX - PO LOBBY", "nsi_id": "unitedstatespostalservice-a77078", "operator": "United States Postal Service", "operator:short": "USPS", "operator:type": "public", "operator:wikidata": "Q668687", "ref": "6610600028"}, "type": "Feature"}
{"dataset_attributes": {"@spider": "usps_collection_boxes", "spider:collection_time": "2023-11-04T08:23:02.835734"}, "geometry": {"coordinates": [-94.7049566, 39.081002], "type": "Point"}, "id": "Bs0rZ4wjJPJpzKaNaER6D6-3tPk=", "properties": {"@spider": "usps_collection_boxes", "addr:city": "KANSAS CITY", "addr:country": "US", "addr:full": "929 S 55TH ST", "addr:postcode": "66106", "addr:state": "KS", "amenity": "post_box", "brand": "United States Postal Service", "brand:wikidata": "Q668687", "collection_times": "Mo-Sa 12:00", "name": "USPS COLLECTION BOX - BLUE BOX", "nsi_id": "unitedstatespostalservice-a77078", "operator": "United States Postal Service", "operator:short": "USPS", "operator:type": "public", "operator:wikidata": "Q668687", "ref": "6610600033"}, "type": "Feature"}
{"dataset_attributes": {"@spider": "usps_collection_boxes", "spider:collection_time": "2023-11-04T08:23:02.835734"}, "geometry": {"coordinates": [-94.689762962, 39.097839985], "type": "Point"}, "id": "9kt3ugzX2F9GNGncPqLBj0y_WsY=", "properties": {"@spider": "usps_collection_boxes", "addr:city": "KANSAS CITY", "addr:country": "US", "addr:full": "4900 SPEAKER RD", "addr:postcode": "66106", "addr:state": "KS", "amenity": "post_box", "brand": "United States Postal Service", "brand:wikidata": "Q668687", "collection_times": "Mo-Fr 12:00", "name": "USPS COLLECTION BOX - BLUE BOX", "nsi_id": "unitedstatespostalservice-a77078", "operator": "United States Postal Service", "operator:short": "USPS", "operator:type": "public", "operator:wikidata": "Q668687", "ref": "6610600034"}, "type": "Feature"}
{"dataset_attributes": {"@spider": "usps_collection_boxes", "spider:collection_time": "2023-11-04T08:23:02.835734"}, "geometry": {"coordinates": [-94.6681891236, 39.0751936236], "type": "Point"}, "id": "KCfQjV7JVdNl7zm7l6sIzfpHi1c=", "properties": {"@spider": "usps_collection_boxes", "addr:city": "KANSAS CITY", "addr:country": "US", "addr:full": "3400 STRONG AVE", "addr:postcode": "66106", "addr:state": "KS", "amenity": "post_box", "brand": "United States Postal Service", "brand:wikidata": "Q668687", "collection_times": "Mo-Fr 12:15", "name": "USPS COLLECTION BOX - PO LOBBY", "note": "ON 12/24 AND 12/31, THIS BOX MAY BE COLLECTED AS EARLY AS 12 NOON.", "nsi_id": "unitedstatespostalservice-a77078", "operator": "United States Postal Service", "operator:short": "USPS", "operator:type": "public", "operator:wikidata": "Q668687", "ref": "6610600036"}, "type": "Feature"}
{"dataset_attributes": {"@spider": "usps_collection_boxes", "spider:collection_time": "2023-11-04T08:23:02.835734"}, "geometry": {"coordinates": [-94.8586035, 39.144617], "type": "Point"}, "id": "mvDBrnPpqvZ61CgwO8OGEhxmJcI=", "properties": {"@spider": "usps_collection_boxes", "addr:city": "KANSAS CITY", "addr:country": "US", "addr:full": "12036 LEAVENWORTH RD", "addr:postcode": "66109", "addr:state": "KS", "amenity": "post_box", "brand": "United States Postal Service", "brand:wikidata": "Q668687", "collection_times": "Mo-Sa 11:00", "name": "USPS COLLECTION BOX - BLUE BOX", "nsi_id": "unitedstatespostalservice-a77078", "operator": "United States Postal Service", "operator:short": "USPS", "operator:type": "public", "operator:wikidata": "Q668687", "ref": "6610900000"}, "type": "Feature"}
{"dataset_attributes": {"@spider": "usps_collection_boxes", "spider:collection_time": "2023-11-04T08:23:02.835734"}, "geometry": {"coordinates": [-94.729577216, 39.0914228], "type": "Point"}, "id": "hLFdorvV3kBhKe_a4z-O6Y2JCs8=", "properties": {"@spider": "usps_collection_boxes", "addr:city": "KANSAS CITY", "addr:country": "US", "addr:full": "6540 KAW DR", "addr:postcode": "66111", "addr:state": "KS", "amenity": "post_box", "brand": "United States Postal Service", "brand:wikidata": "Q668687", "collection_times": "Mo-Fr 16:45; Sa 12:15", "name": "USPS COLLECTION BOX - BLUE BOX", "note": "ON 12/24 AND 12/31, THIS BOX MAY BE COLLECTED AS EARLY AS 12 NOON.", "nsi_id": "unitedstatespostalservice-a77078", "operator": "United States Postal Service", "operator:short": "USPS", "operator:type": "public", "operator:wikidata": "Q668687", "ref": "6611100001"}, "type": "Feature"}
{"dataset_attributes": {"@spider": "usps_collection_boxes", "spider:collection_time": "2023-11-04T08:23:02.835734"}, "geometry": {"coordinates": [-94.729577216, 39.0914228], "type": "Point"}, "id": "qcFaGcycLr5njTtf2s-vYueqxvU=", "properties": {"@spider": "usps_collection_boxes", "addr:city": "KANSAS CITY", "addr:country": "US", "addr:full": "6540 KAW DR", "addr:postcode": "66111", "addr:state": "KS", "amenity": "post_box", "brand": "United States Postal Service", "brand:wikidata": "Q668687", "collection_times": "Mo-Fr 16:45; Sa 12:15", "name": "USPS COLLECTION BOX - EXPRESS", "note": "ON 12/24 AND 12/31, THIS BOX MAY BE COLLECTED AS EARLY AS 12 NOON.", "nsi_id": "unitedstatespostalservice-a77078", "operator": "United States Postal Service", "operator:short": "USPS", "operator:type": "public", "operator:wikidata": "Q668687", "ref": "6611100002"}, "type": "Feature"}
{"dataset_attributes": {"@spider": "usps_collection_boxes", "spider:collection_time": "2023-11-04T08:23:02.835734"}, "geometry": {"coordinates": [-94.729577216, 39.0914228], "type": "Point"}, "id": "ZWujp2vwvnZbeh0kY2I__M6Yr4I=", "properties": {"@spider": "usps_collection_boxes", "addr:city": "KANSAS CITY", "addr:country": "US", "addr:full": "6540 KAW DR", "addr:postcode": "66111", "addr:state": "KS", "amenity": "post_box", "brand": "United States Postal Service", "brand:wikidata": "Q668687", "collection_times": "Mo-Fr 12:00", "name": "USPS COLLECTION BOX - PO LOBBY", "nsi_id": "unitedstatespostalservice-a77078", "operator": "United States Postal Service", "operator:short": "USPS", "operator:type": "public", "operator:wikidata": "Q668687", "ref": "6611100003"}, "type": "Feature"}
{"dataset_attributes": {"@spider": "usps_collection_boxes", "spider:collection_time": "2023-11-04T08:23:02.835734"}, "geometry": {"coordinates": [-94.8292105, 39.125662], "type": "Point"}, "id": "Rlt_ViWZ8ZEQUIgzXO03hHi2aak=", "properties": {"@spider": "usps_collection_boxes", "addr:city": "KANSAS CITY", "addr:country": "US", "addr:full": "1801 VILLAGE WEST PKWY", "addr:postcode": "66111", "addr:state": "KS", "amenity": "post_box", "brand": "United States Postal Service", "brand:wikidata": "Q668687", "collection_times": "Mo-Sa 11:00", "name": "USPS COLLECTION BOX - BLUE BOX", "nsi_id": "unitedstatespostalservice-a77078", "operator": "United States Postal Service", "operator:short": "USPS", "operator:type": "public", "operator:wikidata": "Q668687", "ref": "6611100006"}, "type": "Feature"}
{"dataset_attributes": {"@spider": "usps_collection_boxes", "spider:collection_time": "2023-11-04T08:23:02.835734"}, "geometry": {"coordinates": [-94.7998006, 39.055892], "type": "Point"}, "id": "FuSpzAyqGDv7He7UNSmXGOKBT-M=", "properties": {"@spider": "usps_collection_boxes", "addr:city": "KANSAS CITY", "addr:country": "US", "addr:full": "2525 MIDPOINT DR", "addr:postcode": "66111", "addr:state": "KS", "amenity": "post_box", "brand": "United States Postal Service", "brand:wikidata": "Q668687", "collection_times": "Mo-Fr 10:00", "name": "USPS COLLECTION BOX - BLUE BOX", "nsi_id": "unitedstatespostalservice-a77078", "operator": "United States Postal Service", "operator:short": "USPS", "operator:type": "public", "operator:wikidata": "Q668687", "ref": "6611100007"}, "type": "Feature"}
{"dataset_attributes": {"@spider": "usps_collection_boxes", "spider:collection_time": "2023-11-04T08:23:02.835734"}, "geometry": {"coordinates": [-94.729577216, 39.0914228], "type": "Point"}, "id": "qfBxADMFzPG6v5CGEcrdD6JvKco=", "properties": {"@spider": "usps_collection_boxes", "addr:city": "KANSAS CITY", "addr:country": "US", "addr:full": "6540 KAW DR", "addr:postcode": "66111", "addr:state": "KS", "amenity": "post_box", "brand": "United States Postal Service", "brand:wikidata": "Q668687", "collection_times": "Mo-Fr 13:45", "name": "USPS COLLECTION BOX - PO LOBBY", "note": "ON 12/24 AND 12/31, THIS BOX MAY BE COLLECTED AS EARLY AS 12 NOON.", "nsi_id": "unitedstatespostalservice-a77078", "operator": "United States Postal Service", "operator:short": "USPS", "operator:type": "public", "operator:wikidata": "Q668687", "ref": "6611100008"}, "type": "Feature"}
{"dataset_attributes": {"@spider": "usps_collection_boxes", "spider:collection_time": "2023-11-04T08:23:02.835734"}, "geometry": {"coordinates": [-94.821649888, 39.061877612], "type": "Point"}, "id": "5JV_aCrp1pV_TZqsTml5Mo0omgY=", "properties": {"@spider": "usps_collection_boxes", "addr:city": "KANSAS CITY", "addr:country": "US", "addr:full": "104 S 4TH ST", "addr:postcode": "66111", "addr:state": "KS", "amenity": "post_box", "brand": "United States Postal Service", "brand:wikidata": "Q668687", "collection_times": "Mo-Fr 13:30; Sa 11:45", "name": "USPS COLLECTION BOX - PO LOBBY", "note": "ON 12/24 AND 12/31, THIS BOX MAY BE COLLECTED AS EARLY AS 12 NOON.", "nsi_id": "unitedstatespostalservice-a77078", "operator": "United States Postal Service", "operator:short": "USPS", "operator:type": "public", "operator:wikidata": "Q668687", "ref": "6611100010"}, "type": "Feature"}
{"dataset_attributes": {"@spider": "usps_collection_boxes", "spider:collection_time": "2023-11-04T08:23:02.835734"}, "geometry": {"coordinates": [-94.7859250171, 39.1272610096], "type": "Point"}, "id": "7eqZG29KLJ8OT4Dlp1RGd8NHUDI=", "properties": {"@spider": "usps_collection_boxes", "addr:city": "KANSAS CITY", "addr:country": "US", "addr:full": "8919 PARALLEL PKWY", "addr:postcode": "66112", "addr:state": "KS", "amenity": "post_box", "brand": "United States Postal Service", "brand:wikidata": "Q668687", "collection_times": "Mo-Fr 10:00", "name": "USPS COLLECTION BOX - BLUE BOX", "nsi_id": "unitedstatespostalservice-a77078", "operator": "United States Postal Service", "operator:short": "USPS", "operator:type": "public", "operator:wikidata": "Q668687", "ref": "6611200007"}, "type": "Feature"}
{"dataset_attributes": {"@spider": "usps_collection_boxes", "spider:collection_time": "2023-11-04T08:23:02.835734"}, "geometry": {"coordinates": [-94.7861935, 39.126377], "type": "Point"}, "id": "jX7_gGZQc3JVok3IEk2NP70W-jI=", "properties": {"@spider": "usps_collection_boxes", "addr:city": "KANSAS CITY", "addr:country": "US", "addr:full": "8929 PARALLEL PKWY", "addr:postcode": "66112", "addr:state": "KS", "amenity": "post_box", "brand": "United States Postal Service", "brand:wikidata": "Q668687", "collection_times": "Mo-Fr 10:00", "name": "USPS COLLECTION BOX - BLUE BOX", "nsi_id": "unitedstatespostalservice-a77078", "operator": "United States Postal Service", "operator:short": "USPS", "operator:type": "public", "operator:wikidata": "Q668687", "ref": "6611200008"}, "type": "Feature"}
{"dataset_attributes": {"@spider": "usps_collection_boxes", "spider:collection_time": "2023-11-04T08:23:02.835734"}, "geometry": {"coordinates": [-94.758769, 39.117442], "type": "Point"}, "id": "-XMKO1XwfYzsBx6mzi5tYuGYTHs=", "properties": {"@spider": "usps_collection_boxes", "addr:city": "KANSAS CITY", "addr:country": "US", "addr:full": "7706 STATE AVE", "addr:postcode": "66112", "addr:state": "KS", "amenity": "post_box", "brand": "United States Postal Service", "brand:wikidata": "Q668687", "collection_times": "Mo-Sa 10:00", "name": "USPS COLLECTION BOX - BLUE BOX", "nsi_id": "unitedstatespostalservice-a77078", "operator": "United States Postal Service", "operator:short": "USPS", "operator:type": "public", "operator:wikidata": "Q668687", "ref": "6611200009"}, "type": "Feature"}
{"dataset_attributes": {"@spider": "usps_collection_boxes", "spider:collection_time": "2023-11-04T08:23:02.835734"}, "geometry": {"coordinates": [-94.7497107, 39.120811], "type": "Point"}, "id": "TIK4Kvdi3zlOdUDZZ-jWCDKVqKM=", "properties": {"@spider": "usps_collection_boxes", "addr:city": "KANSAS CITY", "addr:country": "US", "addr:full": "7250 STATE AVE", "addr:postcode": "66112", "addr:state": "KS", "amenity": "post_box", "brand": "United States Postal Service", "brand:wikidata": "Q668687", "collection_times": "Mo-Sa 12:00", "name": "USPS COLLECTION BOX - BLUE BOX", "nsi_id": "unitedstatespostalservice-a77078", "operator": "United States Postal Service", "operator:short": "USPS", "operator:type": "public", "operator:wikidata": "Q668687", "ref": "6611200027"}, "type": "Feature"}
{"dataset_attributes": {"@spider": "usps_collection_boxes", "spider:collection_time": "2023-11-04T08:23:02.835734"}, "geometry": {"coordinates": [-94.7629587, 39.119223], "type": "Point"}, "id": "eepv5BEBrI1UPZu5OMclG-tGczc=", "properties": {"@spider": "usps_collection_boxes", "addr:city": "KANSAS CITY", "addr:country": "US", "addr:full": "1310 N 78TH TER", "addr:postcode": "66112", "addr:state": "KS", "amenity": "post_box", "brand": "United States Postal Service", "brand:wikidata": "Q668687", "collection_times": "Mo-Fr 14:45; Sa 15:00", "name": "USPS COLLECTION BOX - PO LOBBY", "note": "ON 12/24 AND 12/31, THIS BOX MAY BE COLLECTED AS EARLY AS 12 NOON.", "nsi_id": "unitedstatespostalservice-a77078", "operator": "United States Postal Service", "operator:short": "USPS", "operator:type": "public", "operator:wikidata": "Q668687", "ref": "6611200030"}, "type": "Feature"}
{"dataset_attributes": {"@spider": "usps_collection_boxes", "spider:collection_time": "2023-11-04T08:23:02.835734"}, "geometry": {"coordinates": [-94.7677865, 39.129379], "type": "Point"}, "id": "XhJfP2Sa1MXLmkY6wGbxrdKFuZ8=", "properties": {"@spider": "usps_collection_boxes", "addr:city": "KANSAS CITY", "addr:country": "US", "addr:full": "8120 PARALLEL PKWY", "addr:postcode": "66112", "addr:state": "KS", "amenity": "post_box", "brand": "United States Postal Service", "brand:wikidata": "Q668687", "collection_times": "Mo-Sa 10:00", "name": "USPS COLLECTION BOX - BLUE BOX", "nsi_id": "unitedstatespostalservice-a77078", "operator": "United States Postal Service", "operator:short": "USPS", "operator:type": "public", "operator:wikidata": "Q668687", "ref": "6611200032"}, "type": "Feature"}
{"dataset_attributes": {"@spider": "usps_collection_boxes", "spider:collection_time": "2023-11-04T08:23:02.835734"}, "geometry": {"coordinates": [-94.7859250171, 39.1272610096], "type": "Point"}, "id": "3Eo-6y6jgVc51nENW5tSh93Qk6s=", "properties": {"@spider": "usps_collection_boxes", "addr:city": "KANSAS CITY", "addr:country": "US", "addr:full": "8919 PARALLEL PKWY", "addr:postcode": "66112", "addr:state": "KS", "amenity": "post_box", "brand": "United States Postal Service", "brand:wikidata": "Q668687", "collection_times": "Mo-Fr 10:00", "name": "USPS COLLECTION BOX - BLUE BOX", "nsi_id": "unitedstatespostalservice-a77078", "operator": "United States Postal Service", "operator:short": "USPS", "operator:type": "public", "operator:wikidata": "Q668687", "ref": "6611200033"}, "type": "Feature"}
{"dataset_attributes": {"@spider": "usps_collection_boxes", "spider:collection_time": "2023-11-04T08:23:02.835734"}, "geometry": {"coordinates": [-94.7861036, 39.115983], "type": "Point"}, "id": "b9Md8qHNVdWZEQrn9O1CdrFwv6Y=", "properties": {"@spider": "usps_collection_boxes", "addr:city": "KANSAS CITY", "addr:country": "US", "addr:full": "8901 STATE AVE", "addr:postcode": "66112", "addr:state": "KS", "amenity": "post_box", "brand": "United States Postal Service", "brand:wikidata": "Q668687", "collection_times": "Mo-Fr 11:00", "name": "USPS COLLECTION BOX - BLUE BOX", "nsi_id": "unitedstatespostalservice-a77078", "operator": "United States Postal Service", "operator:short": "USPS", "operator:type": "public", "operator:wikidata": "Q668687", "ref": "6611200034"}, "type": "Feature"}
{"dataset_attributes": {"@spider": "usps_collection_boxes", "spider:collection_time": "2023-11-04T08:23:02.835734"}, "geometry": {"coordinates": [-94.7625273767, 39.1193648382], "type": "Point"}, "id": "6-JSjza_CFZR30ZN5dejRoLVeKM=", "properties": {"@spider": "usps_collection_boxes", "addr:city": "KANSAS CITY", "addr:country": "US", "addr:full": "1310 N 78TH TER", "addr:postcode": "66112", "addr:state": "KS", "amenity": "post_box", "brand": "United States Postal Service", "brand:wikidata": "Q668687", "collection_times": "Mo-Fr 17:15; Sa 12:15", "name": "USPS COLLECTION BOX - PO LOBBY", "note": "ON 12/24 AND 12/31, THIS BOX MAY BE COLLECTED AS EARLY AS 12 NOON.", "nsi_id": "unitedstatespostalservice-a77078", "operator": "United States Postal Service", "operator:short": "USPS", "operator:type": "public", "operator:wikidata": "Q668687", "ref": "6611200038"}, "type": "Feature"}
{"dataset_attributes": {"@spider": "usps_collection_boxes", "spider:collection_time": "2023-11-04T08:23:02.835734"}, "geometry": {"coordinates": [-94.8219412, 39.062155], "type": "Point"}, "id": "u1Zyl7ZWZelNWxQ5OBAoSEU9CIE=", "properties": {"@spider": "usps_collection_boxes", "addr:city": "EDWARDSVILLE", "addr:country": "US", "addr:full": "104 S 4TH ST", "addr:postcode": "66113", "addr:state": "KS", "amenity": "post_box", "brand": "United States Postal Service", "brand:wikidata": "Q668687", "collection_times": "Mo-Fr 17:00; Sa 12:00", "name": "USPS COLLECTION BOX - BLUE BOX", "note": "ON 12/24 AND 12/31, THIS BOX MAY BE COLLECTED AS EARLY AS 12 NOON.", "nsi_id": "unitedstatespostalservice-a77078", "operator": "United States Postal Service", "operator:short": "USPS", "operator:type": "public", "operator:wikidata": "Q668687", "ref": "6611300001"}, "type": "Feature"}
{"dataset_attributes": {"@spider": "usps_collection_boxes", "spider:collection_time": "2023-11-04T08:23:02.835734"}, "geometry": {"coordinates": [-94.8219239, 39.062154], "type": "Point"}, "id": "mcy3KZs0tXhGhOFKGFmBbfXFS3o=", "properties": {"@spider": "usps_collection_boxes", "addr:city": "EDWARDSVILLE", "addr:country": "US", "addr:full": "104 S 4TH ST", "addr:postcode": "66113", "addr:state": "KS", "amenity": "post_box", "brand": "United States Postal Service", "brand:wikidata": "Q668687", "collection_times": "Mo-Fr 17:00; Sa 12:00", "name": "USPS COLLECTION BOX - EXPRESS", "note": "ON 12/24 AND 12/31, THIS BOX MAY BE COLLECTED AS EARLY AS 12 NOON.", "nsi_id": "unitedstatespostalservice-a77078", "operator": "United States Postal Service", "operator:short": "USPS", "operator:type": "public", "operator:wikidata": "Q668687", "ref": "6611300002"}, "type": "Feature"}
{"dataset_attributes": {"@spider": "usps_collection_boxes", "spider:collection_time": "2023-11-04T08:23:02.835734"}, "geometry": {"coordinates": [-94.821667, 39.062149], "type": "Point"}, "id": "7B1W7JwaVnL8orh8LfuQDvnDtRU=", "properties": {"@spider": "usps_collection_boxes", "addr:city": "EDWARDSVILLE", "addr:country": "US", "addr:full": "104 S 4TH ST", "addr:postcode": "66113", "addr:state": "KS", "amenity": "post_box", "brand": "United States Postal Service", "brand:wikidata": "Q668687", "collection_times": "Mo-Fr 13:00; Sa 11:15", "name": "USPS COLLECTION BOX - PO LOBBY", "note": "ON 12/24 AND 12/31, THIS BOX MAY BE COLLECTED AS EARLY AS 12 NOON.", "nsi_id": "unitedstatespostalservice-a77078", "operator": "United States Postal Service", "operator:short": "USPS", "operator:type": "public", "operator:wikidata": "Q668687", "ref": "6611300003"}, "type": "Feature"}
{"dataset_attributes": {"@spider": "usps_collection_boxes", "spider:collection_time": "2023-11-04T08:23:02.835734"}, "geometry": {"coordinates": [-94.6114405, 39.119784], "type": "Point"}, "id": "znIBhGNM4leph0hKS66noSCDmNU=", "properties": {"@spider": "usps_collection_boxes", "addr:city": "KANSAS CITY", "addr:country": "US", "addr:full": "1401 FAIRFAX TRFY", "addr:postcode": "66115", "addr:state": "KS", "amenity": "post_box", "brand": "United States Postal Service", "brand:wikidata": "Q668687", "collection_times": "Mo-Sa 13:00", "name": "USPS COLLECTION BOX - BLUE BOX", "note": "ON 12/24 AND 12/31, THIS BOX MAY BE COLLECTED AS EARLY AS 12 NOON.", "nsi_id": "unitedstatespostalservice-a77078", "operator": "United States Postal Service", "operator:short": "USPS", "operator:type": "public", "operator:wikidata": "Q668687", "ref": "6611500001"}, "type": "Feature"}
{"dataset_attributes": {"@spider": "usps_collection_boxes", "spider:collection_time": "2023-11-04T08:23:02.835734"}, "geometry": {"coordinates": [-94.6236223025, 39.1501994833], "type": "Point"}, "id": "tb6B-AbKlXu8agdMCvdZ20vPNbA=", "properties": {"@spider": "usps_collection_boxes", "addr:city": "KANSAS CITY", "addr:country": "US", "addr:full": "720 KINDLEBERGER RD", "addr:postcode": "66115", "addr:state": "KS", "amenity": "post_box", "brand": "United States Postal Service", "brand:wikidata": "Q668687", "collection_times": "Mo-Fr 15:00; Sa 14:15", "name": "USPS COLLECTION BOX - BLUE BOX", "note": "ON 12/24 AND 12/31, THIS BOX MAY BE COLLECTED AS EARLY AS 12 NOON.", "nsi_id": "unitedstatespostalservice-a77078", "operator": "United States Postal Service", "operator:short": "USPS", "operator:type": "public", "operator:wikidata": "Q668687", "ref": "6611500008"}, "type": "Feature"}
