{"geometry": {"coordinates": [-94.6616227, 39.019405], "type": "Point"}, "id": "o7k6yFnH2TgdQgRhZwBQHDuJkp8=", "properties": {"@source_uri": "https://tools.usps.com/UspsToolsRestServices/rest/POLocator/findLocations", "@spider": "usps_collection_boxes", "addr:city": "SHAWNEE MISSION", "addr:country": "US", "addr:postcode": "66202", "addr:state": "KS", "addr:street_address": "6655 MARTWAY ST", "amenity": "post_box", "collection_times": "Mo-Sa 09:00", "nsi_id": "unitedstatespostalservice-a77078", "operator": "United States Postal Service", "operator:short": "USPS", "operator:type": "public", "operator:wikidata": "Q668687", "ref": "6620200000"}, "type": "Feature"}
{"geometry": {"coordinates": [-94.6560088, 39.0242251], "type": "Point"}, "id": "SP1vxmHnVN7zwNPooa0Kd3eSEqw=", "properties": {"@source_uri": "https://tools.usps.com/UspsToolsRestServices/rest/POLocator/findLocations", "@spider": "usps_collection_boxes", "addr:city": "SHAWNEE MISSION", "addr:country": "US", "addr:postcode": "66202", "addr:state": "KS", "addr:street_address": "9001 W 62ND ST", "amenity": "post_box", "collection_times": "Mo-Fr 10:00", "nsi_id": "unitedstatespostalservice-a77078", "operator": "United States Postal Service", "operator:short": "USPS", "operator:type": "public", "operator:wikidata": "Q668687", "ref": "6620200007"}, "type": "Feature"}
{"geometry": {"coordinates": [-94.6851922, 39.015501], "type": "Point"}, "id": "BnXxb3cdBhwTxjnMgK1LijozlIM=", "properties": {"@source_uri": "https://tools.usps.com/UspsToolsRestServices/rest/POLocator/findLocations", "@spider": "usps_collection_boxes", "addr:city": "SHAWNEE MISSION", "addr:country": "US", "addr:postcode": "66202", "addr:state": "KS", "addr:street_address": "6250 TERRYDALE ST", "amenity": "post_box", "collection_times": "Mo-Fr 11:15", "nsi_id": "unitedstatespostalservice-a77078", "operator": "United States Postal Service", "operator:short": "USPS", "operator:type": "public", "operator:wikidata": "Q668687", "ref": "6620200008"}, "type": "Feature"}
{"geometry": {"coordinates": [-94.6645168, 39.039017], "type": "Point"}, "id": "iwz1NayA8-m_7sdBmQ3892ZpG50=", "properties": {"@source_uri": "https://tools.usps.com/UspsToolsRestServices/rest/POLocator/findLocations", "@spider": "usps_collection_boxes", "addr:city": "SHAWNEE MISSION", "addr:country": "US", "addr:postcode": "66202", "addr:state": "KS", "addr:street_address": "4801 BROADMOOR ST", "amenity": "post_box", "collection_times": "Mo-Fr 13:00", "note": "ON 12/24 AND 12/31, THIS BOX MAY BE COLLECTED AS EARLY AS 12 NOON.", "nsi_id": "unitedstatespostalservice-a77078", "operator": "United States Postal Service", "operator:short": "USPS", "operator:type": "public", "operator:wikidata": "Q668687", "ref": "6620200054"}, "type": "Feature"}
{"geometry": {"coordinates": [-94.6650550396, 39.0190270026], "type": "Point"}, "id": "hUyzvsur1-UE75ARe9lNjMgk7dI=", "properties": {"@source_uri": "https://tools.usps.com/UspsToolsRestServices/rest/POLocator/findLocations", "@spider": "usps_collection_boxes", "addr:city": "SHAWNEE MISSION", "addr:country": "US", "addr:postcode": "66202", "addr:state": "KS", "addr:street_address": "6029 BROADMOOR ST", "amenity": "post_box", "collection_times": "Mo-Sa 17:20", "note": "ON 12/24 AND 12/31, THIS BOX MAY BE COLLECTED AS EARLY AS 12 NOON.", "nsi_id": "unitedstatespostalservice-a77078", "operator": "United States Postal Service", "operator:short": "USPS", "operator:type": "public", "operator:wikidata": "Q668687", "ref": "6620200127"}, "type": "Feature"}
{"geometry": {"coordinates": [-94.665616623, 39.01896], "type": "Point"}, "id": "GnBiWStXnTbStzbSaqvGZFCT3wU=", "properties": {"@source_uri": "https://tools.usps.com/UspsToolsRestServices/rest/POLocator/findLocations", "@spider": "usps_collection_boxes", "addr:city": "SHAWNEE MISSION", "addr:country": "US", "addr:postcode": "66202", "addr:state": "KS", "addr:street_address": "6029 BROADMOOR ST", "amenity": "post_box", "collection_times": "Mo-Sa 17:20", "indoor": "yes", "note": "ON 12/24 AND 12/31, THIS BOX MAY BE COLLECTED AS EARLY AS 12 NOON.", "nsi_id": "unitedstatespostalservice-a77078", "operator": "United States Postal Service", "operator:short": "USPS", "operator:type": "public", "operator:wikidata": "Q668687", "ref": "6620200130"}, "type": "Feature"}
{"geometry": {"coordinates": [-94.6560088, 39.0242251], "type": "Point"}, "id": "JfEsoKApjN9HlNEJElRSg1d90T8=", "properties": {"@source_uri": "https://tools.usps.com/UspsToolsRestServices/rest/POLocator/findLocations", "@spider": "usps_collection_boxes", "addr:city": "SHAWNEE MISSION", "addr:country": "US", "addr:postcode": "66202", "addr:state": "KS", "addr:street_address": "6300 LAMAR AVE", "amenity": "post_box", "collection_times": "Mo-Fr 09:00", "nsi_id": "unitedstatespostalservice-a77078", "operator": "United States Postal Service", "operator:short": "USPS", "operator:type": "public", "operator:wikidata": "Q668687", "ref": "6620200135"}, "type": "Feature"}
{"geometry": {"coordinates": [-94.6667476, 39.013237], "type": "Point"}, "id": "ROfc2KWYPrvmX6OA3zVBAbyk9i8=", "properties": {"@source_uri": "https://tools.usps.com/UspsToolsRestServices/rest/POLocator/findLocations", "@spider": "usps_collection_boxes", "addr:city": "SHAWNEE MISSION", "addr:country": "US", "addr:postcode": "66202", "addr:state": "KS", "addr:street_address": "6901 SHAWNEE MISSION PKWY", "amenity": "post_box", "collection_times": "Mo-Fr 10:00", "nsi_id": "unitedstatespostalservice-a77078", "operator": "United States Postal Service", "operator:short": "USPS", "operator:type": "public", "operator:wikidata": "Q668687", "ref": "6620200145"}, "type": "Feature"}
{"geometry": {"coordinates": [-94.6640487, 39.012333], "type": "Point"}, "id": "1sX-VAchoXY9RVN-SkRgSFffqFI=", "properties": {"@source_uri": "https://tools.usps.com/UspsToolsRestServices/rest/POLocator/findLocations", "@spider": "usps_collection_boxes", "addr:city": "SHAWNEE MISSION", "addr:country": "US", "addr:postcode": "66202", "addr:state": "KS", "addr:street_address": "6800 W 64TH ST", "amenity": "post_box", "collection_times": "Mo-Fr 10:30", "nsi_id": "unitedstatespostalservice-a77078", "operator": "United States Postal Service", "operator:short": "USPS", "operator:type": "public", "operator:wikidata": "Q668687", "ref": "6620200149"}, "type": "Feature"}
{"geometry": {"coordinates": [-94.6640499, 39.012225], "type": "Point"}, "id": "_SSISopB4_G_4u1qfG3ptVYq-SM=", "properties": {"@source_uri": "https://tools.usps.com/UspsToolsRestServices/rest/POLocator/findLocations", "@spider": "usps_collection_boxes", "addr:city": "SHAWNEE MISSION", "addr:country": "US", "addr:postcode": "66202", "addr:state": "KS", "addr:street_address": "6701 W 64TH ST", "amenity": "post_box", "collection_times": "Mo-Fr 10:30", "nsi_id": "unitedstatespostalservice-a77078", "operator": "United States Postal Service", "operator:short": "USPS", "operator:type": "public", "operator:wikidata": "Q668687", "ref": "6620200153"}, "type": "Feature"}
{"geometry": {"coordinates": [-94.665616623, 39.01896], "type": "Point"}, "id": "gtfPxoWpQmBgto9obv5NuF93lvM=", "properties": {"@source_uri": "https://tools.usps.com/UspsToolsRestServices/rest/POLocator/findLocations", "@spider": "usps_collection_boxes", "addr:city": "SHAWNEE MISSION", "addr:country": "US", "addr:postcode": "66202", "addr:state": "KS", "addr:street_address": "6029 BROADMOOR ST", "amenity": "post_box", "collection_times": "Mo-Sa 17:20", "name": "USPS COLLECTION BOX - APC", "note": "ON 12/24 AND 12/31, THIS BOX MAY BE COLLECTED AS EARLY AS 12 NOON.", "nsi_id": "unitedstatespostalservice-a77078", "operator": "United States Postal Service", "operator:short": "USPS", "operator:type": "public", "operator:wikidata": "Q668687", "ref": "6620200158"}, "type": "Feature"}
{"geometry": {"coordinates": [-94.665616623, 39.01896], "type": "Point"}, "id": "8sf_oW1lOMkgqWKO3XFz6qA1tX0=", "properties": {"@source_uri": "https://tools.usps.com/UspsToolsRestServices/rest/POLocator/findLocations", "@spider": "usps_collection_boxes", "addr:city": "SHAWNEE MISSION", "addr:country": "US", "addr:postcode": "66202", "addr:state": "KS", "addr:street_address": "6029 BROADMOOR ST", "amenity": "post_box", "collection_times": "Mo-Fr 18:00; Sa 16:00", "indoor": "yes", "note": "ON 12/24 AND 12/31, THIS BOX MAY BE COLLECTED AS EARLY AS 12 NOON.", "nsi_id": "unitedstatespostalservice-a77078", "operator": "United States Postal Service", "operator:short": "USPS", "operator:type": "public", "operator:wikidata": "Q668687", "ref": "6620200160"}, "type": "Feature"}
{"geometry": {"coordinates": [-94.714534587, 39.016818], "type": "Point"}, "id": "vjNlbCOWpZYcfBUZOc9c78B_3i4=", "properties": {"@source_uri": "https://tools.usps.com/UspsToolsRestServices/rest/POLocator/findLocations", "@spider": "usps_collection_boxes", "addr:city": "SHAWNEE MISSION", "addr:country": "US", "addr:postcode": "66203", "addr:state": "KS", "addr:street_address": "6201 NIEMAN RD", "amenity": "post_box", "collection_times": "Mo-Fr 17:30; Sa 16:45", "note": "ON 12/24 AND 12/31, THIS BOX MAY BE COLLECTED AS EARLY AS 12 NOON.", "nsi_id": "unitedstatespostalservice-a77078", "operator": "United States Postal Service", "operator:short": "USPS", "operator:type": "public", "operator:wikidata": "Q668687", "ref": "6620300010"}, "type": "Feature"}
{"geometry": {"coordinates": [-94.7155933, 39.023304], "type": "Point"}, "id": "G3yeARuIB9haJgf5Gy5IJL12BAI=", "properties": {"@source_uri": "https://tools.usps.com/UspsToolsRestServices/rest/POLocator/findLocations", "@spider": "usps_collection_boxes", "addr:city": "SHAWNEE MISSION", "addr:country": "US", "addr:postcode": "66203", "addr:state": "KS", "addr:street_address": "11110 JOHNSON DR", "amenity": "post_box", "collection_times": "Mo-Sa 12:00", "nsi_id": "unitedstatespostalservice-a77078", "operator": "United States Postal Service", "operator:short": "USPS", "operator:type": "public", "operator:wikidata": "Q668687", "ref": "6620300018"}, "type": "Feature"}
{"geometry": {"coordinates": [-94.714534587, 39.016818], "type": "Point"}, "id": "61GBXIYCTNyhkGVGvLSyjjOR294=", "properties": {"@source_uri": "https://tools.usps.com/UspsToolsRestServices/rest/POLocator/findLocations", "@spider": "usps_collection_boxes", "addr:city": "SHAWNEE MISSION", "addr:country": "US", "addr:postcode": "66203", "addr:state": "KS", "addr:street_address": "6201 NIEMAN RD", "amenity": "post_box", "collection_times": "Mo-Fr 17:30; Sa 16:45", "indoor": "yes", "note": "ON 12/24 AND 12/31, THIS BOX MAY BE COLLECTED AS EARLY AS 12 NOON.", "nsi_id": "unitedstatespostalservice-a77078", "operator": "United States Postal Service", "operator:short": "USPS", "operator:type": "public", "operator:wikidata": "Q668687", "ref": "6620300022"}, "type": "Feature"}
{"geometry": {"coordinates": [-94.714534587, 39.016818], "type": "Point"}, "id": "JzUDyhpKXDDAI8B03UWCIacOU2o=", "properties": {"@source_uri": "https://tools.usps.com/UspsToolsRestServices/rest/POLocator/findLocations", "@spider": "usps_collection_boxes", "addr:city": "SHAWNEE MISSION", "addr:country": "US", "addr:postcode": "66203", "addr:state": "KS", "addr:street_address": "6201 NIEMAN RD", "amenity": "post_box", "collection_times": "Mo-Fr 17:30; Sa 16:45", "name": "USPS COLLECTION BOX - APC", "note": "ON 12/24 AND 12/31, THIS BOX MAY BE COLLECTED AS EARLY AS 12 NOON.", "nsi_id": "unitedstatespostalservice-a77078", "operator": "United States Postal Service", "operator:short": "USPS", "operator:type": "public", "operator:wikidata": "Q668687", "ref": "6620300028"}, "type": "Feature"}
{"geometry": {"coordinates": [-94.714534587, 39.016818], "type": "Point"}, "id": "LFGVCLArUz2GOoUssXzqfPyf7Dk=", "properties": {"@source_uri": "https://tools.usps.com/UspsToolsRestServices/rest/POLocator/findLocations", "@spider": "usps_collection_boxes", "addr:city": "SHAWNEE MISSION", "addr:country": "US", "addr:postcode": "66203", "addr:state": "KS", "addr:street_address": "6201 NIEMAN RD", "amenity": "post_box", "collection_times": "Mo-Fr 17:15; Sa 13:15", "indoor": "yes", "note": "ON 12/24 AND 12/31, THIS BOX MAY BE COLLECTED AS EARLY AS 12 NOON.", "nsi_id": "unitedstatespostalservice-a77078", "operator": "United States Postal Service", "operator:short": "USPS", "operator:type": "public", "operator:wikidata": "Q668687", "ref": "6620300030"}, "type": "Feature"}
{"geometry": {"coordinates": [-94.6659161, 38.994108], "type": "Point"}, "id": "1xZ1ODCMQChiey4wHEwERbHwnqo=", "properties": {"@source_uri": "https://tools.usps.com/UspsToolsRestServices/rest/POLocator/findLocations", "@spider": "usps_collection_boxes", "addr:city": "SHAWNEE MISSION", "addr:country": "US", "addr:postcode": "66204", "addr:state": "KS", "addr:street_address": "7000 W 75TH ST", "amenity": "post_box", "collection_times": "Mo-Fr 09:30", "nsi_id": "unitedstatespostalservice-a77078", "operator": "United States Postal Service", "operator:short": "USPS", "operator:type": "public", "operator:wikidata": "Q668687", "ref": "6620400010"}, "type": "Feature"}
{"geometry": {"coordinates": [-94.6885899, 38.992585], "type": "Point"}, "id": "ia7xpySDZgyWlsWSdWvPd16TGSs=", "properties": {"@source_uri": "https://tools.usps.com/UspsToolsRestServices/rest/POLocator/findLocations", "@spider": "usps_collection_boxes", "addr:city": "SHAWNEE MISSION", "addr:country": "US", "addr:postcode": "66204", "addr:state": "KS", "addr:street_address": "8861 W 75TH ST", "amenity": "post_box", "collection_times": "Mo-Sa 09:00", "nsi_id": "unitedstatespostalservice-a77078", "operator": "United States Postal Service", "operator:short": "USPS", "operator:type": "public", "operator:wikidata": "Q668687", "ref": "6620400017"}, "type": "Feature"}
{"geometry": {"coordinates": [-94.6906319981, 38.9956730087], "type": "Point"}, "id": "M6JYdczefprErv7YmFKfdB_XjZI=", "properties": {"@source_uri": "https://tools.usps.com/UspsToolsRestServices/rest/POLocator/findLocations", "@spider": "usps_collection_boxes", "addr:city": "SHAWNEE MISSION", "addr:country": "US", "addr:postcode": "66204", "addr:state": "KS", "addr:street_address": "9100 W 74TH ST", "amenity": "post_box", "collection_times": "Mo-Sa 09:00", "nsi_id": "unitedstatespostalservice-a77078", "operator": "United States Postal Service", "operator:short": "USPS", "operator:type": "public", "operator:wikidata": "Q668687", "ref": "6620400020"}, "type": "Feature"}
{"geometry": {"coordinates": [-94.673577804, 38.983653367], "type": "Point"}, "id": "yX7epj9Q1FclTyTqes-nvz3NSoM=", "properties": {"@source_uri": "https://tools.usps.com/UspsToolsRestServices/rest/POLocator/findLocations", "@spider": "usps_collection_boxes", "addr:city": "SHAWNEE MISSION", "addr:country": "US", "addr:postcode": "66204", "addr:state": "KS", "addr:street_address": "8010 CONSER ST", "amenity": "post_box", "collection_times": "Mo-Fr 16:00; Sa 11:30", "indoor": "yes", "note": "ON 12/24 AND 12/31, THIS BOX MAY BE COLLECTED AS EARLY AS 12 NOON.", "nsi_id": "unitedstatespostalservice-a77078", "operator": "United States Postal Service", "operator:short": "USPS", "operator:type": "public", "operator:wikidata": "Q668687", "ref": "6620400027"}, "type": "Feature"}
{"geometry": {"coordinates": [-94.67703, 38.988531], "type": "Point"}, "id": "cY8Q6TNCPYDvVtZMT3N9HHhPZ08=", "properties": {"@source_uri": "https://tools.usps.com/UspsToolsRestServices/rest/POLocator/findLocations", "@spider": "usps_collection_boxes", "addr:city": "SHAWNEE MISSION", "addr:country": "US", "addr:postcode": "66204", "addr:state": "KS", "addr:street_address": "6740 ANTIOCH RD", "amenity": "post_box", "collection_times": "Mo-Sa 09:00", "nsi_id": "unitedstatespostalservice-a77078", "operator": "United States Postal Service", "operator:short": "USPS", "operator:type": "public", "operator:wikidata": "Q668687", "ref": "6620400029"}, "type": "Feature"}
{"geometry": {"coordinates": [-94.6886438, 38.993501], "type": "Point"}, "id": "Fhsf0KoTm36O7ucJ_NrXIzwoji8=", "properties": {"@source_uri": "https://tools.usps.com/UspsToolsRestServices/rest/POLocator/findLocations", "@spider": "usps_collection_boxes", "addr:city": "SHAWNEE MISSION", "addr:country": "US", "addr:postcode": "66204", "addr:state": "KS", "addr:street_address": "8800 W 75TH ST", "amenity": "post_box", "collection_times": "Mo-Sa 09:00", "nsi_id": "unitedstatespostalservice-a77078", "operator": "United States Postal Service", "operator:short": "USPS", "operator:type": "public", "operator:wikidata": "Q668687", "ref": "6620400030"}, "type": "Feature"}
{"geometry": {"coordinates": [-94.6731831, 38.981685], "type": "Point"}, "id": "BqORjziQ-k2VcDZ4c3R2x5VPj3A=", "properties": {"@source_uri": "https://tools.usps.com/UspsToolsRestServices/rest/POLocator/findLocations", "@spider": "usps_collection_boxes", "addr:city": "SHAWNEE MISSION", "addr:country": "US", "addr:postcode": "66204", "addr:state": "KS", "addr:street_address": "8101 SANTA FE DR", "amenity": "post_box", "collection_times": "Mo-Sa 09:00", "nsi_id": "unitedstatespostalservice-a77078", "operator": "United States Postal Service", "operator:short": "USPS", "operator:type": "public", "operator:wikidata": "Q668687", "ref": "6620400033"}, "type": "Feature"}
{"geometry": {"coordinates": [-94.703841, 38.992989494], "type": "Point"}, "id": "7j58oNfRgjr4n2uL8JhBExJ1Hfk=", "properties": {"@source_uri": "https://tools.usps.com/UspsToolsRestServices/rest/POLocator/findLocations", "@spider": "usps_collection_boxes", "addr:city": "SHAWNEE MISSION", "addr:country": "US", "addr:postcode": "66204", "addr:state": "KS", "addr:street_address": "10200 W 75TH ST", "amenity": "post_box", "collection_times": "Mo-Sa 10:00", "nsi_id": "unitedstatespostalservice-a77078", "operator": "United States Postal Service", "operator:short": "USPS", "operator:type": "public", "operator:wikidata": "Q668687", "ref": "6620400040"}, "type": "Feature"}
{"geometry": {"coordinates": [-94.673577804, 38.983653367], "type": "Point"}, "id": "uJnJWyM8jk28TmNlk26r6Bb5Kk0=", "properties": {"@source_uri": "https://tools.usps.com/UspsToolsRestServices/rest/POLocator/findLocations", "@spider": "usps_collection_boxes", "addr:city": "SHAWNEE MISSION", "addr:country": "US", "addr:postcode": "66204", "addr:state": "KS", "addr:street_address": "8010 CONSER ST", "amenity": "post_box", "collection_times": "Mo-Fr 17:15; Sa 12:15", "indoor": "yes", "note": "ON 12/24 AND 12/31, THIS BOX MAY BE COLLECTED AS EARLY AS 12 NOON.", "nsi_id": "unitedstatespostalservice-a77078", "operator": "United States Postal Service", "operator:short": "USPS", "operator:type": "public", "operator:wikidata": "Q668687", "ref": "6620400041"}, "type": "Feature"}
{"geometry": {"coordinates": [-94.648005137, 39.022573392], "type": "Point"}, "id": "gFsEsrNDcSx3XgAkconcXUOElaQ=", "properties": {"@source_uri": "https://tools.usps.com/UspsToolsRestServices/rest/POLocator/findLocations", "@spider": "usps_collection_boxes", "addr:city": "FAIRWAY", "addr:country": "US", "addr:postcode": "66205", "addr:state": "KS", "addr:street_address": "5419 JOHNSON DR", "amenity": "post_box", "collection_times": "Mo-Sa 12:00", "nsi_id": "unitedstatespostalservice-a77078", "operator": "United States Postal Service", "operator:short": "USPS", "operator:type": "public", "operator:wikidata": "Q668687", "ref": "6620500002"}, "type": "Feature"}
{"geometry": {"coordinates": [-94.6364273, 39.027905], "type": "Point"}, "id": "rpXH3XR4gJBTb6Lg_2RZ7hVdNfU=", "properties": {"@source_uri": "https://tools.usps.com/UspsToolsRestServices/rest/POLocator/findLocations", "@spider": "usps_collection_boxes", "addr:city": "FAIRWAY", "addr:country": "US", "addr:postcode": "66205", "addr:state": "KS", "addr:street_address": "4400 SHAWNEE MISSION PKWY", "amenity": "post_box", "collection_times": "Mo-Fr 10:00", "nsi_id": "unitedstatespostalservice-a77078", "operator": "United States Postal Service", "operator:short": "USPS", "operator:type": "public", "operator:wikidata": "Q668687", "ref": "6620500003"}, "type": "Feature"}
{"geometry": {"coordinates": [-94.6309385, 39.020533], "type": "Point"}, "id": "OI3cqEIT47vgOB7shDf0Kmzimms=", "properties": {"@source_uri": "https://tools.usps.com/UspsToolsRestServices/rest/POLocator/findLocations", "@spider": "usps_collection_boxes", "addr:city": "FAIRWAY", "addr:country": "US", "addr:postcode": "66205", "addr:state": "KS", "addr:street_address": "6000 MISSION RD", "amenity": "post_box", "collection_times": "Mo-Fr 12:00", "nsi_id": "unitedstatespostalservice-a77078", "operator": "United States Postal Service", "operator:short": "USPS", "operator:type": "public", "operator:wikidata": "Q668687", "ref": "6620500012"}, "type": "Feature"}
{"geometry": {"coordinates": [-94.6168636, 39.033559], "type": "Point"}, "id": "cGiIM7MOzJGd9L091gP_kMI9Erk=", "properties": {"@source_uri": "https://tools.usps.com/UspsToolsRestServices/rest/POLocator/findLocations", "@spider": "usps_collection_boxes", "addr:city": "FAIRWAY", "addr:country": "US", "addr:postcode": "66205", "addr:state": "KS", "addr:street_address": "2706 W 53RD ST", "amenity": "post_box", "collection_times": "Mo-Fr 10:00", "nsi_id": "unitedstatespostalservice-a77078", "operator": "United States Postal Service", "operator:short": "USPS", "operator:type": "public", "operator:wikidata": "Q668687", "ref": "6620500013"}, "type": "Feature"}
{"geometry": {"coordinates": [-94.6404499, 39.036331], "type": "Point"}, "id": "b79AIRA7Tg2DqaEQPcxAdRVKDEk=", "properties": {"@source_uri": "https://tools.usps.com/UspsToolsRestServices/rest/POLocator/findLocations", "@spider": "usps_collection_boxes", "addr:city": "FAIRWAY", "addr:country": "US", "addr:postcode": "66205", "addr:state": "KS", "addr:street_address": "5150 ROE BLVD", "amenity": "post_box", "collection_times": "Mo-Fr 09:00", "nsi_id": "unitedstatespostalservice-a77078", "operator": "United States Postal Service", "operator:short": "USPS", "operator:type": "public", "operator:wikidata": "Q668687", "ref": "6620500015"}, "type": "Feature"}
{"geometry": {"coordinates": [-94.648005137, 39.022573392], "type": "Point"}, "id": "TW3g1l1WCYdmH-p2jJ-FHiOcy98=", "properties": {"@source_uri": "https://tools.usps.com/UspsToolsRestServices/rest/POLocator/findLocations", "@spider": "usps_collection_boxes", "addr:city": "FAIRWAY", "addr:country": "US", "addr:postcode": "66205", "addr:state": "KS", "addr:street_address": "5419 JOHNSON DR", "amenity": "post_box", "collection_times": "Mo-Fr 16:45", "indoor": "yes", "note": "ON 12/24 AND 12/31, THIS BOX MAY BE COLLECTED AS EARLY AS 12 NOON.", "nsi_id": "unitedstatespostalservice-a77078", "operator": "United States Postal Service", "operator:short": "USPS", "operator:type": "public", "operator:wikidata": "Q668687", "ref": "6620500029"}, "type": "Feature"}
{"geometry": {"coordinates": [-94.6312333, 38.977173], "type": "Point"}, "id": "xXKU2RR6_d5cT-vrxCOqVqnkBpI=", "properties": {"@source_uri": "https://tools.usps.com/UspsToolsRestServices/rest/POLocator/findLocations", "@spider": "usps_collection_boxes", "addr:city": "SHAWNEE MISSION", "addr:country": "US", "addr:postcode": "66206", "addr:state": "KS", "addr:street_address": "8340 MISSION RD", "amenity": "post_box", "collection_times": "Mo-Fr 12:00", "nsi_id": "unitedstatespostalservice-a77078", "operator": "United States Postal Service", "operator:short": "USPS", "operator:type": "public", "operator:wikidata": "Q668687", "ref": "6620600000"}, "type": "Feature"}
{"geometry": {"coordinates": [-94.6090788, 38.967608], "type": "Point"}, "id": "ThKYTOXg63nBakwsme2yxIht88Q=", "properties": {"@source_uri": "https://tools.usps.com/UspsToolsRestServices/rest/POLocator/findLocations", "@spider": "usps_collection_boxes", "addr:city": "SHAWNEE MISSION", "addr:country": "US", "addr:postcode": "66206", "addr:state": "KS", "addr:street_address": "8900 STATE LINE RD", "amenity": "post_box", "collection_times": "Mo-Fr 12:00", "nsi_id": "unitedstatespostalservice-a77078", "operator": "United States Postal Service", "operator:short": "USPS", "operator:type": "public", "operator:wikidata": "Q668687", "ref": "6620600007"}, "type": "Feature"}
{"geometry": {"coordinates": [-94.635531297, 38.935413316], "type": "Point"}, "id": "Rp2QJn1Ma7cBnbuvY6AA_-xrTkY=", "properties": {"@source_uri": "https://tools.usps.com/UspsToolsRestServices/rest/POLocator/findLocations", "@spider": "usps_collection_boxes", "addr:city": "PRAIRIE VILLAGE", "addr:country": "US", "addr:postcode": "66207", "addr:state": "KS", "addr:street_address": "4225 W 107TH ST", "amenity": "post_box", "collection_times": "Mo-Fr 15:45; Sa 16:00", "note": "ON 12/24 AND 12/31, THIS BOX MAY BE COLLECTED AS EARLY AS 12 NOON.", "nsi_id": "unitedstatespostalservice-a77078", "operator": "United States Postal Service", "operator:short": "USPS", "operator:type": "public", "operator:wikidata": "Q668687", "ref": "6620700002"}, "type": "Feature"}
{"geometry": {"coordinates": [-94.6404324158, 38.9658620477], "type": "Point"}, "id": "Rz4ZvNWB7UAGnBb40XqsFWNpvO4=", "properties": {"@source_uri": "https://tools.usps.com/UspsToolsRestServices/rest/POLocator/findLocations", "@spider": "usps_collection_boxes", "addr:city": "PRAIRIE VILLAGE", "addr:country": "US", "addr:postcode": "66207", "addr:state": "KS", "addr:street_address": "5305 W 94TH TER", "amenity": "post_box", "collection_times": "Mo-Fr 12:00; Sa 09:30", "nsi_id": "unitedstatespostalservice-a77078", "operator": "United States Postal Service", "operator:short": "USPS", "operator:type": "public", "operator:wikidata": "Q668687", "ref": "6620700007"}, "type": "Feature"}
{"geometry": {"coordinates": [-94.6514349, 38.957625], "type": "Point"}, "id": "BVMOu_qIGsDSjNkyQPgJ0lXIa9g=", "properties": {"@source_uri": "https://tools.usps.com/UspsToolsRestServices/rest/POLocator/findLocations", "@spider": "usps_collection_boxes", "addr:city": "PRAIRIE VILLAGE", "addr:country": "US", "addr:postcode": "66207", "addr:state": "KS", "addr:street_address": "9400 REEDS RD", "amenity": "post_box", "collection_times": "Mo-Fr 12:00; Sa 10:15", "nsi_id": "unitedstatespostalservice-a77078", "operator": "United States Postal Service", "operator:short": "USPS", "operator:type": "public", "operator:wikidata": "Q668687", "ref": "6620700012"}, "type": "Feature"}
{"geometry": {"coordinates": [-94.635531297, 38.935413316], "type": "Point"}, "id": "E8-JNpds24u2Sx9stiY5jHEmsQo=", "properties": {"@source_uri": "https://tools.usps.com/UspsToolsRestServices/rest/POLocator/findLocations", "@spider": "usps_collection_boxes", "addr:city": "PRAIRIE VILLAGE", "addr:country": "US", "addr:postcode": "66207", "addr:state": "KS", "addr:street_address": "4225 W 107TH ST", "amenity": "post_box", "collection_times": "Mo-Fr 17:15; Sa 13:00", "indoor": "yes", "note": "ON 12/24 AND 12/31, THIS BOX MAY BE COLLECTED AS EARLY AS 12 NOON.", "nsi_id": "unitedstatespostalservice-a77078", "operator": "United States Postal Service", "operator:short": "USPS", "operator:type": "public", "operator:wikidata": "Q668687", "ref": "6620700017"}, "type": "Feature"}
{"geometry": {"coordinates": [-94.635531297, 38.935413316], "type": "Point"}, "id": "PAtAcYuGqWWEGWUsATG_1sM_y_Y=", "properties": {"@source_uri": "https://tools.usps.com/UspsToolsRestServices/rest/POLocator/findLocations", "@spider": "usps_collection_boxes", "addr:city": "PRAIRIE VILLAGE", "addr:country": "US", "addr:postcode": "66207", "addr:state": "KS", "addr:street_address": "4225 W 107TH ST", "amenity": "post_box", "collection_times": "Mo-Fr 16:15; Sa 13:00", "name": "USPS COLLECTION BOX - APC", "note": "ON 12/24 AND 12/31, THIS BOX MAY BE COLLECTED AS EARLY AS 12 NOON.", "nsi_id": "unitedstatespostalservice-a77078", "operator": "United States Postal Service", "operator:short": "USPS", "operator:type": "public", "operator:wikidata": "Q668687", "ref": "6620700023"}, "type": "Feature"}
{"geometry": {"coordinates": [-94.635531297, 38.935413316], "type": "Point"}, "id": "Aaw5s9O4ztUa6LKQVqzp_CTxGsI=", "properties": {"@source_uri": "https://tools.usps.com/UspsToolsRestServices/rest/POLocator/findLocations", "@spider": "usps_collection_boxes", "addr:city": "PRAIRIE VILLAGE", "addr:country": "US", "addr:postcode": "66207", "addr:state": "KS", "addr:street_address": "4225 W 107TH ST", "amenity": "post_box", "collection_times": "Mo-Fr 17:15; Sa 13:15", "indoor": "yes", "note": "ON 12/24 AND 12/31, THIS BOX MAY BE COLLECTED AS EARLY AS 12 NOON.", "nsi_id": "unitedstatespostalservice-a77078", "operator": "United States Postal Service", "operator:short": "USPS", "operator:type": "public", "operator:wikidata": "Q668687", "ref": "6620700027"}, "type": "Feature"}
{"geometry": {"coordinates": [-94.6088652, 38.989824], "type": "Point"}, "id": "pQXfZdedtm28KqkIpk_1DyrIVfg=", "properties": {"@source_uri": "https://tools.usps.com/UspsToolsRestServices/rest/POLocator/findLocations", "@spider": "usps_collection_boxes", "addr:city": "SHAWNEE MISSION", "addr:country": "US", "addr:postcode": "66208", "addr:state": "KS", "addr:street_address": "7600 STATE LINE RD", "amenity": "post_box", "collection_times": "Sa 09:30", "nsi_id": "unitedstatespostalservice-a77078", "operator": "United States Postal Service", "operator:short": "USPS", "operator:type": "public", "operator:wikidata": "Q668687", "ref": "6620800006"}, "type": "Feature"}
{"geometry": {"coordinates": [-94.630347655, 38.996324948], "type": "Point"}, "id": "1Bc9xB0lm0A5bQeuimkwMKOoTLI=", "properties": {"@source_uri": "https://tools.usps.com/UspsToolsRestServices/rest/POLocator/findLocations", "@spider": "usps_collection_boxes", "addr:city": "SHAWNEE MISSION", "addr:country": "US", "addr:postcode": "66208", "addr:state": "KS", "addr:street_address": "7301 MISSION RD", "amenity": "post_box", "collection_times": "Mo-Sa 09:30", "nsi_id": "unitedstatespostalservice-a77078", "operator": "United States Postal Service", "operator:short": "USPS", "operator:type": "public", "operator:wikidata": "Q668687", "ref": "6620800016"}, "type": "Feature"}
{"geometry": {"coordinates": [-94.6337078, 38.978096], "type": "Point"}, "id": "nPlRTrFvFDt2S3Y3lQYDWzRxm6I=", "properties": {"@source_uri": "https://tools.usps.com/UspsToolsRestServices/rest/POLocator/findLocations", "@spider": "usps_collection_boxes", "addr:city": "SHAWNEE MISSION", "addr:country": "US", "addr:postcode": "66208", "addr:state": "KS", "addr:street_address": "4121 W 83RD ST", "amenity": "post_box", "collection_times": "Mo-Fr 12:00", "nsi_id": "unitedstatespostalservice-a77078", "operator": "United States Postal Service", "operator:short": "USPS", "operator:type": "public", "operator:wikidata": "Q668687", "ref": "6620800026"}, "type": "Feature"}
{"geometry": {"coordinates": [-94.631465621, 39.003595827], "type": "Point"}, "id": "cTVneV2AfGjnmfUejSamHMHq4KA=", "properties": {"@source_uri": "https://tools.usps.com/UspsToolsRestServices/rest/POLocator/findLocations", "@spider": "usps_collection_boxes", "addr:city": "SHAWNEE MISSION", "addr:country": "US", "addr:postcode": "66208", "addr:state": "KS", "addr:street_address": "6917 TOMAHAWK RD", "amenity": "post_box", "collection_times": "Mo-Fr 15:45; Sa 11:45", "note": "ON 12/24 AND 12/31, THIS BOX MAY BE COLLECTED AS EARLY AS 12 NOON.", "nsi_id": "unitedstatespostalservice-a77078", "operator": "United States Postal Service", "operator:short": "USPS", "operator:type": "public", "operator:wikidata": "Q668687", "ref": "6620800034"}, "type": "Feature"}
{"geometry": {"coordinates": [-94.631465621, 39.003595827], "type": "Point"}, "id": "ab0AvoYhGYFOuxoci1Deue07stA=", "properties": {"@source_uri": "https://tools.usps.com/UspsToolsRestServices/rest/POLocator/findLocations", "@spider": "usps_collection_boxes", "addr:city": "SHAWNEE MISSION", "addr:country": "US", "addr:postcode": "66208", "addr:state": "KS", "addr:street_address": "6917 TOMAHAWK RD", "amenity": "post_box", "collection_times": "Mo-Fr 15:45; Sa 11:45", "indoor": "yes", "note": "ON 12/24 AND 12/31, THIS BOX MAY BE COLLECTED AS EARLY AS 12 NOON.", "nsi_id": "unitedstatespostalservice-a77078", "operator": "United States Postal Service", "operator:short": "USPS", "operator:type": "public", "operator:wikidata": "Q668687", "ref": "6620800037"}, "type": "Feature"}
{"geometry": {"coordinates": [-94.6331469, 38.979587], "type": "Point"}, "id": "rziVe6VqvzvxDzbmA9W-NWXEl3Y=", "properties": {"@source_uri": "https://tools.usps.com/UspsToolsRestServices/rest/POLocator/findLocations", "@spider": "usps_collection_boxes", "addr:city": "SHAWNEE MISSION", "addr:country": "US", "addr:postcode": "66208", "addr:state": "KS", "addr:street_address": "4050 W 83RD ST", "amenity": "post_box", "collection_times": "Mo-Sa 12:00", "nsi_id": "unitedstatespostalservice-a77078", "operator": "United States Postal Service", "operator:short": "USPS", "operator:type": "public", "operator:wikidata": "Q668687", "ref": "6620800038"}, "type": "Feature"}
{"geometry": {"coordinates": [-94.6311819, 38.984633], "type": "Point"}, "id": "K2YwywpFH-78Wj_RFMdJNujjolw=", "properties": {"@source_uri": "https://tools.usps.com/UspsToolsRestServices/rest/POLocator/findLocations", "@spider": "usps_collection_boxes", "addr:city": "SHAWNEE MISSION", "addr:country": "US", "addr:postcode": "66208", "addr:state": "KS", "addr:street_address": "3904 W 80TH ST", "amenity": "post_box", "collection_times": "Mo-Sa 09:00", "nsi_id": "unitedstatespostalservice-a77078", "operator": "United States Postal Service", "operator:short": "USPS", "operator:type": "public", "operator:wikidata": "Q668687", "ref": "6620800041"}, "type": "Feature"}
{"geometry": {"coordinates": [-94.631465621, 39.003595827], "type": "Point"}, "id": "wTDzBCIOrESu5TJ3FGANW5L5Ozs=", "properties": {"@source_uri": "https://tools.usps.com/UspsToolsRestServices/rest/POLocator/findLocations", "@spider": "usps_collection_boxes", "addr:city": "SHAWNEE MISSION", "addr:country": "US", "addr:postcode": "66208", "addr:state": "KS", "addr:street_address": "6917 TOMAHAWK RD", "amenity": "post_box", "collection_times": "Mo-Fr 17:15; Sa 11:45", "name": "USPS COLLECTION BOX - APC", "note": "ON 12/24 AND 12/31, THIS BOX MAY BE COLLECTED AS EARLY AS 12 NOON.", "nsi_id": "unitedstatespostalservice-a77078", "operator": "United States Postal Service", "operator:short": "USPS", "operator:type": "public", "operator:wikidata": "Q668687", "ref": "6620800051"}, "type": "Feature"}
{"geometry": {"coordinates": [-94.6307922, 39.002482], "type": "Point"}, "id": "DMPk1QIC3YKwwIorZd9t0_ou8_8=", "properties": {"@source_uri": "https://tools.usps.com/UspsToolsRestServices/rest/POLocator/findLocations", "@spider": "usps_collection_boxes", "addr:city": "SHAWNEE MISSION", "addr:country": "US", "addr:postcode": "66208", "addr:state": "KS", "addr:street_address": "6949 MISSION RD", "amenity": "post_box", "collection_times": "Mo-Sa 10:00", "nsi_id": "unitedstatespostalservice-a77078", "operator": "United States Postal Service", "operator:short": "USPS", "operator:type": "public", "operator:wikidata": "Q668687", "ref": "6620800054"}, "type": "Feature"}
{"geometry": {"coordinates": [-94.631465621, 39.003595827], "type": "Point"}, "id": "pr3tBde-Cg4W20LyYZSzAwtT-4E=", "properties": {"@source_uri": "https://tools.usps.com/UspsToolsRestServices/rest/POLocator/findLocations", "@spider": "usps_collection_boxes", "addr:city": "SHAWNEE MISSION", "addr:country": "US", "addr:postcode": "66208", "addr:state": "KS", "addr:street_address": "6917 TOMAHAWK RD", "amenity": "post_box", "collection_times": "Mo-Fr 17:15; Sa 13:15", "indoor": "yes", "note": "ON 12/24 AND 12/31, THIS BOX MAY BE COLLECTED AS EARLY AS 12 NOON.", "nsi_id": "unitedstatespostalservice-a77078", "operator": "United States Postal Service", "operator:short": "USPS", "operator:type": "public", "operator:wikidata": "Q668687", "ref": "6620800055"}, "type": "Feature"}
{"geometry": {"coordinates": [-94.6080257957, 38.8913606744], "type": "Point"}, "id": "IAy3LLW9hwn6KObo6G4gisyK8_s=", "properties": {"@source_uri": "https://tools.usps.com/UspsToolsRestServices/rest/POLocator/findLocations", "@spider": "usps_collection_boxes", "addr:city": "SHAWNEE MISSION", "addr:country": "US", "addr:postcode": "66209", "addr:state": "KS", "addr:street_address": "13000 STATE LINE RD", "amenity": "post_box", "collection_times": "Mo-Sa 10:00", "nsi_id": "unitedstatespostalservice-a77078", "operator": "United States Postal Service", "operator:short": "USPS", "operator:type": "public", "operator:wikidata": "Q668687", "ref": "6620900000"}, "type": "Feature"}
{"geometry": {"coordinates": [-94.6670584, 38.908281], "type": "Point"}, "id": "FJBdpsndllBQlOUpG07G1CDThfU=", "properties": {"@source_uri": "https://tools.usps.com/UspsToolsRestServices/rest/POLocator/findLocations", "@spider": "usps_collection_boxes", "addr:city": "SHAWNEE MISSION", "addr:country": "US", "addr:postcode": "66209", "addr:state": "KS", "addr:street_address": "7000 W 121ST ST", "amenity": "post_box", "collection_times": "Mo-Fr 12:00", "nsi_id": "unitedstatespostalservice-a77078", "operator": "United States Postal Service", "operator:short": "USPS", "operator:type": "public", "operator:wikidata": "Q668687", "ref": "6620900003"}, "type": "Feature"}
{"geometry": {"coordinates": [-94.608043324, 38.907171], "type": "Point"}, "id": "0Id2f7JLGouTICEsYS2bP1_NK6A=", "properties": {"@source_uri": "https://tools.usps.com/UspsToolsRestServices/rest/POLocator/findLocations", "@spider": "usps_collection_boxes", "addr:city": "SHAWNEE MISSION", "addr:country": "US", "addr:postcode": "66209", "addr:state": "KS", "addr:street_address": "12200 STATE LINE RD", "amenity": "post_box", "collection_times": "Mo-Sa 13:00", "note": "ON 12/24 AND 12/31, THIS BOX MAY BE COLLECTED AS EARLY AS 12 NOON.", "nsi_id": "unitedstatespostalservice-a77078", "operator": "United States Postal Service", "operator:short": "USPS", "operator:type": "public", "operator:wikidata": "Q668687", "ref": "6620900004"}, "type": "Feature"}
{"geometry": {"coordinates": [-94.6413579, 38.910687], "type": "Point"}, "id": "gytKbomC6CXCP-ERmVRGnHWZnqI=", "properties": {"@source_uri": "https://tools.usps.com/UspsToolsRestServices/rest/POLocator/findLocations", "@spider": "usps_collection_boxes", "addr:city": "SHAWNEE MISSION", "addr:country": "US", "addr:postcode": "66209", "addr:state": "KS", "addr:street_address": "11966 ROE AVE", "amenity": "post_box", "collection_times": "Mo-Fr 12:00; Sa 11:00", "nsi_id": "unitedstatespostalservice-a77078", "operator": "United States Postal Service", "operator:short": "USPS", "operator:type": "public", "operator:wikidata": "Q668687", "ref": "6620900006"}, "type": "Feature"}
{"geometry": {"coordinates": [-94.6672753, 38.886704], "type": "Point"}, "id": "5Wca8kUVy4vVO1vaqN0NCY40_cA=", "properties": {"@source_uri": "https://tools.usps.com/UspsToolsRestServices/rest/POLocator/findLocations", "@spider": "usps_collection_boxes", "addr:city": "SHAWNEE MISSION", "addr:country": "US", "addr:postcode": "66209", "addr:state": "KS", "addr:street_address": "7000 W 133RD ST", "amenity": "post_box", "collection_times": "Mo-Fr 12:00", "nsi_id": "unitedstatespostalservice-a77078", "operator": "United States Postal Service", "operator:short": "USPS", "operator:type": "public", "operator:wikidata": "Q668687", "ref": "6620900011"}, "type": "Feature"}
{"geometry": {"coordinates": [-94.6281829, 38.885668], "type": "Point"}, "id": "qNBAGyuu0zVAROxp8f0c4ytFEbk=", "properties": {"@source_uri": "https://tools.usps.com/UspsToolsRestServices/rest/POLocator/findLocations", "@spider": "usps_collection_boxes", "addr:city": "SHAWNEE MISSION", "addr:country": "US", "addr:postcode": "66209", "addr:state": "KS", "addr:street_address": "13351 MISSION RD", "amenity": "post_box", "collection_times": "Mo-Fr 11:00; Sa 10:00", "nsi_id": "unitedstatespostalservice-a77078", "operator": "United States Postal Service", "operator:short": "USPS", "operator:type": "public", "operator:wikidata": "Q668687", "ref": "6620900015"}, "type": "Feature"}
{"geometry": {"coordinates": [-94.681995, 38.92227], "type": "Point"}, "id": "k3eQhkrBoQlg5Rce5fRiTP1QTys=", "properties": {"@source_uri": "https://tools.usps.com/UspsToolsRestServices/rest/POLocator/findLocations", "@spider": "usps_collection_boxes", "addr:city": "SHAWNEE MISSION", "addr:country": "US", "addr:postcode": "66210", "addr:state": "KS", "addr:street_address": "13300 COLLEGE BLVD", "amenity": "post_box", "collection_times": "Mo-Fr 12:00", "nsi_id": "unitedstatespostalservice-a77078", "operator": "United States Postal Service", "operator:short": "USPS", "operator:type": "public", "operator:wikidata": "Q668687", "ref": "6621000003"}, "type": "Feature"}
{"geometry": {"coordinates": [-94.6942112, 38.928668], "type": "Point"}, "id": "Y2CRwfGO9IdEwNGwWras2XgPa9w=", "properties": {"@source_uri": "https://tools.usps.com/UspsToolsRestServices/rest/POLocator/findLocations", "@spider": "usps_collection_boxes", "addr:city": "SHAWNEE MISSION", "addr:country": "US", "addr:postcode": "66210", "addr:state": "KS", "addr:street_address": "9393 W 110TH ST", "amenity": "post_box", "collection_times": "Mo-Fr 11:15", "nsi_id": "unitedstatespostalservice-a77078", "operator": "United States Postal Service", "operator:short": "USPS", "operator:type": "public", "operator:wikidata": "Q668687", "ref": "6621000008"}, "type": "Feature"}
{"geometry": {"coordinates": [-94.7243133, 38.927855], "type": "Point"}, "id": "bC8W8ogJG5rLxEh7dIfyp3BO9_U=", "properties": {"@source_uri": "https://tools.usps.com/UspsToolsRestServices/rest/POLocator/findLocations", "@spider": "usps_collection_boxes", "addr:city": "SHAWNEE MISSION", "addr:country": "US", "addr:postcode": "66210", "addr:state": "KS", "addr:street_address": "11900 COLLEGE BLVD", "amenity": "post_box", "collection_times": "Mo-Fr 11:15", "nsi_id": "unitedstatespostalservice-a77078", "operator": "United States Postal Service", "operator:short": "USPS", "operator:type": "public", "operator:wikidata": "Q668687", "ref": "6621000010"}, "type": "Feature"}
{"geometry": {"coordinates": [-94.6816431, 38.926411], "type": "Point"}, "id": "iYRzSZQaYDnVNmEC6d-PN9WAqfQ=", "properties": {"@source_uri": "https://tools.usps.com/UspsToolsRestServices/rest/POLocator/findLocations", "@spider": "usps_collection_boxes", "addr:city": "SHAWNEE MISSION", "addr:country": "US", "addr:postcode": "66210", "addr:state": "KS", "addr:street_address": "8101 COLLEGE BLVD", "amenity": "post_box", "collection_times": "Mo-Fr 11:45", "nsi_id": "unitedstatespostalservice-a77078", "operator": "United States Postal Service", "operator:short": "USPS", "operator:type": "public", "operator:wikidata": "Q668687", "ref": "6621000012"}, "type": "Feature"}
{"geometry": {"coordinates": [-94.6887308, 38.931071], "type": "Point"}, "id": "ymkwxcT7b9R_TjEIVedTQ62hd20=", "properties": {"@source_uri": "https://tools.usps.com/UspsToolsRestServices/rest/POLocator/findLocations", "@spider": "usps_collection_boxes", "addr:city": "SHAWNEE MISSION", "addr:country": "US", "addr:postcode": "66210", "addr:state": "KS", "addr:street_address": "10880 BENSON DR", "amenity": "post_box", "collection_times": "Mo-Fr 13:00", "note": "ON 12/24 AND 12/31, THIS BOX MAY BE COLLECTED AS EARLY AS 12 NOON.", "nsi_id": "unitedstatespostalservice-a77078", "operator": "United States Postal Service", "operator:short": "USPS", "operator:type": "public", "operator:wikidata": "Q668687", "ref": "6621000016"}, "type": "Feature"}
{"geometry": {"coordinates": [-94.6992234, 38.928638], "type": "Point"}, "id": "O9TGajvz8NqjYp_NDvHAegNhhbY=", "properties": {"@source_uri": "https://tools.usps.com/UspsToolsRestServices/rest/POLocator/findLocations", "@spider": "usps_collection_boxes", "addr:city": "SHAWNEE MISSION", "addr:country": "US", "addr:postcode": "66210", "addr:state": "KS", "addr:street_address": "9962 COLLEGE BLVD", "amenity": "post_box", "collection_times": "Mo-Fr 11:30", "nsi_id": "unitedstatespostalservice-a77078", "operator": "United States Postal Service", "operator:short": "USPS", "operator:type": "public", "operator:wikidata": "Q668687", "ref": "6621000019"}, "type": "Feature"}
{"geometry": {"coordinates": [-94.6911106, 38.929625], "type": "Point"}, "id": "0EVBmf8qJrgwbCksPKIdKqxzeRI=", "properties": {"@source_uri": "https://tools.usps.com/UspsToolsRestServices/rest/POLocator/findLocations", "@spider": "usps_collection_boxes", "addr:city": "SHAWNEE MISSION", "addr:country": "US", "addr:postcode": "66210", "addr:state": "KS", "addr:street_address": "10950 GRANDVIEW DR", "amenity": "post_box", "collection_times": "Mo-Fr 13:00", "note": "ON 12/24 AND 12/31, THIS BOX MAY BE COLLECTED AS EARLY AS 12 NOON.", "nsi_id": "unitedstatespostalservice-a77078", "operator": "United States Postal Service", "operator:short": "USPS", "operator:type": "public", "operator:wikidata": "Q668687", "ref": "6621000025"}, "type": "Feature"}
{"geometry": {"coordinates": [-94.7205913, 38.927066], "type": "Point"}, "id": "EzLGhcmHPTcysVMvg29Asq10lII=", "properties": {"@source_uri": "https://tools.usps.com/UspsToolsRestServices/rest/POLocator/findLocations", "@spider": "usps_collection_boxes", "addr:city": "SHAWNEE MISSION", "addr:country": "US", "addr:postcode": "66210", "addr:state": "KS", "addr:street_address": "11700 W 112TH ST", "amenity": "post_box", "collection_times": "Mo-Fr 12:00", "nsi_id": "unitedstatespostalservice-a77078", "operator": "United States Postal Service", "operator:short": "USPS", "operator:type": "public", "operator:wikidata": "Q668687", "ref": "6621000026"}, "type": "Feature"}
{"geometry": {"coordinates": [-94.6702233, 38.928929], "type": "Point"}, "id": "sdntrM20DCX0S7X248yNbCr00Fk=", "properties": {"@source_uri": "https://tools.usps.com/UspsToolsRestServices/rest/POLocator/findLocations", "@spider": "usps_collection_boxes", "addr:city": "SHAWNEE MISSION", "addr:country": "US", "addr:postcode": "66210", "addr:state": "KS", "addr:street_address": "7201 W 110TH ST", "amenity": "post_box", "collection_times": "Mo-Fr 10:00", "nsi_id": "unitedstatespostalservice-a77078", "operator": "United States Postal Service", "operator:short": "USPS", "operator:type": "public", "operator:wikidata": "Q668687", "ref": "6621000028"}, "type": "Feature"}
{"geometry": {"coordinates": [-94.6849707, 38.929065], "type": "Point"}, "id": "dbaX8UTnReetjVuHenrC_gmB9ZE=", "properties": {"@source_uri": "https://tools.usps.com/UspsToolsRestServices/rest/POLocator/findLocations", "@spider": "usps_collection_boxes", "addr:city": "SHAWNEE MISSION", "addr:country": "US", "addr:postcode": "66210", "addr:state": "KS", "addr:street_address": "8620 W 110TH ST", "amenity": "post_box", "collection_times": "Mo-Fr 12:00", "nsi_id": "unitedstatespostalservice-a77078", "operator": "United States Postal Service", "operator:short": "USPS", "operator:type": "public", "operator:wikidata": "Q668687", "ref": "6621000030"}, "type": "Feature"}
{"geometry": {"coordinates": [-94.6939288, 38.928733], "type": "Point"}, "id": "GPf0PmIKoISUcOl3XC6Mw8mpjYM=", "properties": {"@source_uri": "https://tools.usps.com/UspsToolsRestServices/rest/POLocator/findLocations", "@spider": "usps_collection_boxes", "addr:city": "SHAWNEE MISSION", "addr:country": "US", "addr:postcode": "66210", "addr:state": "KS", "addr:street_address": "9300 W 110TH ST", "amenity": "post_box", "collection_times": "Mo-Fr 09:00", "nsi_id": "unitedstatespostalservice-a77078", "operator": "United States Postal Service", "operator:short": "USPS", "operator:type": "public", "operator:wikidata": "Q668687", "ref": "6621000035"}, "type": "Feature"}
{"geometry": {"coordinates": [-94.6801579, 38.928137], "type": "Point"}, "id": "unYxvSR_gzTC2taChNN1XBcadzQ=", "properties": {"@source_uri": "https://tools.usps.com/UspsToolsRestServices/rest/POLocator/findLocations", "@spider": "usps_collection_boxes", "addr:city": "SHAWNEE MISSION", "addr:country": "US", "addr:postcode": "66210", "addr:state": "KS", "addr:street_address": "8005 W 110TH ST", "amenity": "post_box", "collection_times": "Mo-Fr 12:00", "nsi_id": "unitedstatespostalservice-a77078", "operator": "United States Postal Service", "operator:short": "USPS", "operator:type": "public", "operator:wikidata": "Q668687", "ref": "6621000038"}, "type": "Feature"}
{"geometry": {"coordinates": [-94.7173667, 38.928714], "type": "Point"}, "id": "puwkjpdG-_KqbVEi8r-lFcg4iQ8=", "properties": {"@source_uri": "https://tools.usps.com/UspsToolsRestServices/rest/POLocator/findLocations", "@spider": "usps_collection_boxes", "addr:city": "SHAWNEE MISSION", "addr:country": "US", "addr:postcode": "66210", "addr:state": "KS", "addr:street_address": "11011 KING ST", "amenity": "post_box", "collection_times": "Mo-Fr 12:00", "nsi_id": "unitedstatespostalservice-a77078", "operator": "United States Postal Service", "operator:short": "USPS", "operator:type": "public", "operator:wikidata": "Q668687", "ref": "6621000054"}, "type": "Feature"}
{"geometry": {"coordinates": [-94.7265446, 38.92832], "type": "Point"}, "id": "2RvO2mj88lz2jRVtenmVqSzW4cc=", "properties": {"@source_uri": "https://tools.usps.com/UspsToolsRestServices/rest/POLocator/findLocations", "@spider": "usps_collection_boxes", "addr:city": "SHAWNEE MISSION", "addr:country": "US", "addr:postcode": "66210", "addr:state": "KS", "addr:street_address": "11930 COLLEGE BLVD", "amenity": "post_box", "collection_times": "Mo-Fr 11:15", "nsi_id": "unitedstatespostalservice-a77078", "operator": "United States Postal Service", "operator:short": "USPS", "operator:type": "public", "operator:wikidata": "Q668687", "ref": "6621000067"}, "type": "Feature"}
{"geometry": {"coordinates": [-94.6754383, 38.931314], "type": "Point"}, "id": "XWg_r4R6G34O02Nf7E3XV5dWyME=", "properties": {"@source_uri": "https://tools.usps.com/UspsToolsRestServices/rest/POLocator/findLocations", "@spider": "usps_collection_boxes", "addr:city": "SHAWNEE MISSION", "addr:country": "US", "addr:postcode": "66210", "addr:state": "KS", "addr:street_address": "10901 LOWELL AVE", "amenity": "post_box", "collection_times": "Mo-Fr 12:00", "nsi_id": "unitedstatespostalservice-a77078", "operator": "United States Postal Service", "operator:short": "USPS", "operator:type": "public", "operator:wikidata": "Q668687", "ref": "6621000070"}, "type": "Feature"}
{"geometry": {"coordinates": [-94.6657842, 38.915759], "type": "Point"}, "id": "pukT6j9074Mb_5Xsq2GkeGEFd5c=", "properties": {"@source_uri": "https://tools.usps.com/UspsToolsRestServices/rest/POLocator/findLocations", "@spider": "usps_collection_boxes", "addr:city": "SHAWNEE MISSION", "addr:country": "US", "addr:postcode": "66210", "addr:state": "KS", "addr:street_address": "11585 METCALF AVE", "amenity": "post_box", "collection_times": "Mo-Sa 10:00", "nsi_id": "unitedstatespostalservice-a77078", "operator": "United States Postal Service", "operator:short": "USPS", "operator:type": "public", "operator:wikidata": "Q668687", "ref": "6621000074"}, "type": "Feature"}
{"geometry": {"coordinates": [-94.7251422, 38.928827], "type": "Point"}, "id": "GJE8YRA000ndycARi_-iGmsFMTg=", "properties": {"@source_uri": "https://tools.usps.com/UspsToolsRestServices/rest/POLocator/findLocations", "@spider": "usps_collection_boxes", "addr:city": "SHAWNEE MISSION", "addr:country": "US", "addr:postcode": "66210", "addr:state": "KS", "addr:street_address": "11920 COLLEGE BLVD", "amenity": "post_box", "collection_times": "Mo-Fr 11:30", "nsi_id": "unitedstatespostalservice-a77078", "operator": "United States Postal Service", "operator:short": "USPS", "operator:type": "public", "operator:wikidata": "Q668687", "ref": "6621000079"}, "type": "Feature"}
{"geometry": {"coordinates": [-94.6893266, 38.932897], "type": "Point"}, "id": "ijJDqyiJ-RVw9q5DlQzUCvmQ4So=", "properties": {"@source_uri": "https://tools.usps.com/UspsToolsRestServices/rest/POLocator/findLocations", "@spider": "usps_collection_boxes", "addr:city": "SHAWNEE MISSION", "addr:country": "US", "addr:postcode": "66210", "addr:state": "KS", "addr:street_address": "8900 INDIAN CREEK PKWY", "amenity": "post_box", "collection_times": "Mo-Fr 12:00", "nsi_id": "unitedstatespostalservice-a77078", "operator": "United States Postal Service", "operator:short": "USPS", "operator:type": "public", "operator:wikidata": "Q668687", "ref": "6621000103"}, "type": "Feature"}
{"geometry": {"coordinates": [-94.6485903417, 38.9251773527], "type": "Point"}, "id": "FMndrDZ_iii6kn0yy3jrSU_HRQ0=", "properties": {"@source_uri": "https://tools.usps.com/UspsToolsRestServices/rest/POLocator/findLocations", "@spider": "usps_collection_boxes", "addr:city": "SHAWNEE MISSION", "addr:country": "US", "addr:postcode": "66211", "addr:state": "KS", "addr:street_address": "5400 W 112TH ST", "amenity": "post_box", "collection_times": "Mo-Fr 12:00", "nsi_id": "unitedstatespostalservice-a77078", "operator": "United States Postal Service", "operator:short": "USPS", "operator:type": "public", "operator:wikidata": "Q668687", "ref": "6621100011"}, "type": "Feature"}
{"geometry": {"coordinates": [-94.6377317, 38.929092], "type": "Point"}, "id": "W9XgnSEoj-pALWJABxgCzKYPcO4=", "properties": {"@source_uri": "https://tools.usps.com/UspsToolsRestServices/rest/POLocator/findLocations", "@spider": "usps_collection_boxes", "addr:city": "SHAWNEE MISSION", "addr:country": "US", "addr:postcode": "66211", "addr:state": "KS", "addr:street_address": "10977 GRANADA LN", "amenity": "post_box", "collection_times": "Mo-Fr 12:00; Sa 09:30", "nsi_id": "unitedstatespostalservice-a77078", "operator": "United States Postal Service", "operator:short": "USPS", "operator:type": "public", "operator:wikidata": "Q668687", "ref": "6621100014"}, "type": "Feature"}
{"geometry": {"coordinates": [-94.6409242, 38.927304], "type": "Point"}, "id": "O6e4i2Y7CvypkfKG9OM1TNrZDiA=", "properties": {"@source_uri": "https://tools.usps.com/UspsToolsRestServices/rest/POLocator/findLocations", "@spider": "usps_collection_boxes", "addr:city": "SHAWNEE MISSION", "addr:country": "US", "addr:postcode": "66211", "addr:state": "KS", "addr:street_address": "4707 COLLEGE BLVD", "amenity": "post_box", "collection_times": "Mo-Fr 12:00", "nsi_id": "unitedstatespostalservice-a77078", "operator": "United States Postal Service", "operator:short": "USPS", "operator:type": "public", "operator:wikidata": "Q668687", "ref": "6621100017"}, "type": "Feature"}
{"geometry": {"coordinates": [-94.6429254, 38.927967], "type": "Point"}, "id": "pwlxTN8s1dScLc3SoYyqgJNi2iQ=", "properties": {"@source_uri": "https://tools.usps.com/UspsToolsRestServices/rest/POLocator/findLocations", "@spider": "usps_collection_boxes", "addr:city": "SHAWNEE MISSION", "addr:country": "US", "addr:postcode": "66211", "addr:state": "KS", "addr:street_address": "4900 COLLEGE BLVD", "amenity": "post_box", "collection_times": "Mo-Fr 11:45; Sa 09:30", "nsi_id": "unitedstatespostalservice-a77078", "operator": "United States Postal Service", "operator:short": "USPS", "operator:type": "public", "operator:wikidata": "Q668687", "ref": "6621100022"}, "type": "Feature"}
{"geometry": {"coordinates": [-94.6361059, 38.931362], "type": "Point"}, "id": "45rdwjH2-dDNVc0IHHSGWEp17dY=", "properties": {"@source_uri": "https://tools.usps.com/UspsToolsRestServices/rest/POLocator/findLocations", "@spider": "usps_collection_boxes", "addr:city": "SHAWNEE MISSION", "addr:country": "US", "addr:postcode": "66211", "addr:state": "KS", "addr:street_address": "4370 W 109TH ST", "amenity": "post_box", "collection_times": "Mo-Fr 11:45; Sa 09:30", "nsi_id": "unitedstatespostalservice-a77078", "operator": "United States Postal Service", "operator:short": "USPS", "operator:type": "public", "operator:wikidata": "Q668687", "ref": "6621100032"}, "type": "Feature"}
{"geometry": {"coordinates": [-94.6374209945, 38.9149300097], "type": "Point"}, "id": "ysKpvDXMb0q3yroKhJxCj6uP75U=", "properties": {"@source_uri": "https://tools.usps.com/UspsToolsRestServices/rest/POLocator/findLocations", "@spider": "usps_collection_boxes", "addr:city": "SHAWNEE MISSION", "addr:country": "US", "addr:postcode": "66211", "addr:state": "KS", "addr:street_address": "11839 ROE AVE", "amenity": "post_box", "collection_times": "Mo-Fr 12:00", "nsi_id": "unitedstatespostalservice-a77078", "operator": "United States Postal Service", "operator:short": "USPS", "operator:type": "public", "operator:wikidata": "Q668687", "ref": "6621100037"}, "type": "Feature"}
{"geometry": {"coordinates": [-94.6605372, 38.929843], "type": "Point"}, "id": "Xcl2Cz76UJxHPQLCBuJk_HhszO8=", "properties": {"@source_uri": "https://tools.usps.com/UspsToolsRestServices/rest/POLocator/findLocations", "@spider": "usps_collection_boxes", "addr:city": "SHAWNEE MISSION", "addr:country": "US", "addr:postcode": "66211", "addr:state": "KS", "addr:street_address": "6400 W 110TH ST", "amenity": "post_box", "collection_times": "Mo-Fr 12:00", "nsi_id": "unitedstatespostalservice-a77078", "operator": "United States Postal Service", "operator:short": "USPS", "operator:type": "public", "operator:wikidata": "Q668687", "ref": "6621100046"}, "type": "Feature"}
{"geometry": {"coordinates": [-94.6533361, 38.932506], "type": "Point"}, "id": "TxE2kAIyNdXKvDzpPZCKf02C1TI=", "properties": {"@source_uri": "https://tools.usps.com/UspsToolsRestServices/rest/POLocator/findLocations", "@spider": "usps_collection_boxes", "addr:city": "SHAWNEE MISSION", "addr:country": "US", "addr:postcode": "66211", "addr:state": "KS", "addr:street_address": "10730 NALL AVE", "amenity": "post_box", "collection_times": "Mo-Fr 11:00", "nsi_id": "unitedstatespostalservice-a77078", "operator": "United States Postal Service", "operator:short": "USPS", "operator:type": "public", "operator:wikidata": "Q668687", "ref": "6621100067"}, "type": "Feature"}
{"geometry": {"coordinates": [-94.6638331, 38.938169], "type": "Point"}, "id": "rJHm_DpBbHHq0ngmu67AVNAYUKc=", "properties": {"@source_uri": "https://tools.usps.com/UspsToolsRestServices/rest/POLocator/findLocations", "@spider": "usps_collection_boxes", "addr:city": "SHAWNEE MISSION", "addr:country": "US", "addr:postcode": "66212", "addr:state": "KS", "addr:street_address": "10551 BARKLEY ST", "amenity": "post_box", "collection_times": "Mo-Sa 11:30", "nsi_id": "unitedstatespostalservice-a77078", "operator": "United States Postal Service", "operator:short": "USPS", "operator:type": "public", "operator:wikidata": "Q668687", "ref": "6621200007"}, "type": "Feature"}
{"geometry": {"coordinates": [-94.661658, 38.9568194932], "type": "Point"}, "id": "4Va9eOE0vmC4fLFcp0550m2ZsL0=", "properties": {"@source_uri": "https://tools.usps.com/UspsToolsRestServices/rest/POLocator/findLocations", "@spider": "usps_collection_boxes", "addr:city": "SHAWNEE MISSION", "addr:country": "US", "addr:postcode": "66212", "addr:state": "KS", "addr:street_address": "6580 W 95TH ST", "amenity": "post_box", "collection_times": "Mo-Fr 11:30; Sa 09:00", "nsi_id": "unitedstatespostalservice-a77078", "operator": "United States Postal Service", "operator:short": "USPS", "operator:type": "public", "operator:wikidata": "Q668687", "ref": "6621200013"}, "type": "Feature"}
{"geometry": {"coordinates": [-94.686247652, 38.95254], "type": "Point"}, "id": "6ivw4qP_Y_dMmbG_yV9ZSpk0kv0=", "properties": {"@source_uri": "https://tools.usps.com/UspsToolsRestServices/rest/POLocator/findLocations", "@spider": "usps_collection_boxes", "addr:city": "SHAWNEE MISSION", "addr:country": "US", "addr:postcode": "66212", "addr:state": "KS", "addr:street_address": "9727 ANTIOCH RD", "amenity": "post_box", "collection_times": "Mo-Sa 16:30", "note": "ON 12/24 AND 12/31, THIS BOX MAY BE COLLECTED AS EARLY AS 12 NOON.", "nsi_id": "unitedstatespostalservice-a77078", "operator": "United States Postal Service", "operator:short": "USPS", "operator:type": "public", "operator:wikidata": "Q668687", "ref": "6621200019"}, "type": "Feature"}
{"geometry": {"coordinates": [-94.7026689, 38.941229], "type": "Point"}, "id": "nbO3ySsDGVyWdqvVMiY4bNUdyPw=", "properties": {"@source_uri": "https://tools.usps.com/UspsToolsRestServices/rest/POLocator/findLocations", "@spider": "usps_collection_boxes", "addr:city": "SHAWNEE MISSION", "addr:country": "US", "addr:postcode": "66212", "addr:state": "KS", "addr:street_address": "10330 MASTIN ST", "amenity": "post_box", "collection_times": "Mo-Fr 14:00; Sa 09:30", "note": "ON 12/24 AND 12/31, THIS BOX MAY BE COLLECTED AS EARLY AS 12 NOON.", "nsi_id": "unitedstatespostalservice-a77078", "operator": "United States Postal Service", "operator:short": "USPS", "operator:type": "public", "operator:wikidata": "Q668687", "ref": "6621200025"}, "type": "Feature"}
{"geometry": {"coordinates": [-94.7038104, 38.971703], "type": "Point"}, "id": "cCU0cM2YwCuh50kOlK565Qr612E=", "properties": {"@source_uri": "https://tools.usps.com/UspsToolsRestServices/rest/POLocator/findLocations", "@spider": "usps_collection_boxes", "addr:city": "SHAWNEE MISSION", "addr:country": "US", "addr:postcode": "66212", "addr:state": "KS", "addr:street_address": "10100 SANTA FE LN", "amenity": "post_box", "collection_times": "Mo-Fr 11:30; Sa 09:00", "nsi_id": "unitedstatespostalservice-a77078", "operator": "United States Postal Service", "operator:short": "USPS", "operator:type": "public", "operator:wikidata": "Q668687", "ref": "6621200043"}, "type": "Feature"}
{"geometry": {"coordinates": [-94.6707341317, 38.9514688226], "type": "Point"}, "id": "LiPiqQcwIxpNZn-X6FqbqqN0XMQ=", "properties": {"@source_uri": "https://tools.usps.com/UspsToolsRestServices/rest/POLocator/findLocations", "@spider": "usps_collection_boxes", "addr:city": "SHAWNEE MISSION", "addr:country": "US", "addr:postcode": "66212", "addr:state": "KS", "addr:street_address": "7255 W 98TH TER", "amenity": "post_box", "collection_times": "Mo-Fr 12:00", "nsi_id": "unitedstatespostalservice-a77078", "operator": "United States Postal Service", "operator:short": "USPS", "operator:type": "public", "operator:wikidata": "Q668687", "ref": "6621200050"}, "type": "Feature"}
{"geometry": {"coordinates": [-94.6871419, 38.972205], "type": "Point"}, "id": "kpdQO2G0VTGhK9AEaB04dIzZ6HA=", "properties": {"@source_uri": "https://tools.usps.com/UspsToolsRestServices/rest/POLocator/findLocations", "@spider": "usps_collection_boxes", "addr:city": "SHAWNEE MISSION", "addr:country": "US", "addr:postcode": "66212", "addr:state": "KS", "addr:street_address": "8686 ANTIOCH RD", "amenity": "post_box", "collection_times": "Mo-Fr 12:00", "nsi_id": "unitedstatespostalservice-a77078", "operator": "United States Postal Service", "operator:short": "USPS", "operator:type": "public", "operator:wikidata": "Q668687", "ref": "6621200051"}, "type": "Feature"}
{"geometry": {"coordinates": [-94.686247652, 38.95254], "type": "Point"}, "id": "M8jZ70cmPVuJcrd_DjYIqfH65SI=", "properties": {"@source_uri": "https://tools.usps.com/UspsToolsRestServices/rest/POLocator/findLocations", "@spider": "usps_collection_boxes", "addr:city": "SHAWNEE MISSION", "addr:country": "US", "addr:postcode": "66212", "addr:state": "KS", "addr:street_address": "9727 ANTIOCH RD", "amenity": "post_box", "collection_times": "Mo-Fr 16:30; Sa 16:00", "indoor": "yes", "note": "ON 12/24 AND 12/31, THIS BOX MAY BE COLLECTED AS EARLY AS 12 NOON.", "nsi_id": "unitedstatespostalservice-a77078", "operator": "United States Postal Service", "operator:short": "USPS", "operator:type": "public", "operator:wikidata": "Q668687", "ref": "6621200054"}, "type": "Feature"}
{"geometry": {"coordinates": [-94.686247652, 38.95254], "type": "Point"}, "id": "WxyCfNrz3IyH3UcixgEw1IQ50Ww=", "properties": {"@source_uri": "https://tools.usps.com/UspsToolsRestServices/rest/POLocator/findLocations", "@spider": "usps_collection_boxes", "addr:city": "SHAWNEE MISSION", "addr:country": "US", "addr:postcode": "66212", "addr:state": "KS", "addr:street_address": "9727 ANTIOCH RD", "amenity": "post_box", "collection_times": "Mo-Fr 16:30; Sa 16:00", "name": "USPS COLLECTION BOX - APC", "note": "ON 12/24 AND 12/31, THIS BOX MAY BE COLLECTED AS EARLY AS 12 NOON.", "nsi_id": "unitedstatespostalservice-a77078", "operator": "United States Postal Service", "operator:short": "USPS", "operator:type": "public", "operator:wikidata": "Q668687", "ref": "6621200072"}, "type": "Feature"}
{"geometry": {"coordinates": [-94.686247652, 38.95254], "type": "Point"}, "id": "8Ou_zC6C0EPlXUg-vV9OlQ4P4ig=", "properties": {"@source_uri": "https://tools.usps.com/UspsToolsRestServices/rest/POLocator/findLocations", "@spider": "usps_collection_boxes", "addr:city": "SHAWNEE MISSION", "addr:country": "US", "addr:postcode": "66212", "addr:state": "KS", "addr:street_address": "9727 ANTIOCH RD", "amenity": "post_box", "collection_times": "Mo-Fr 17:15; Sa 13:15", "indoor": "yes", "note": "ON 12/24 AND 12/31, THIS BOX MAY BE COLLECTED AS EARLY AS 12 NOON.", "nsi_id": "unitedstatespostalservice-a77078", "operator": "United States Postal Service", "operator:short": "USPS", "operator:type": "public", "operator:wikidata": "Q668687", "ref": "6621200076"}, "type": "Feature"}
{"geometry": {"coordinates": [-94.7026027, 38.914648], "type": "Point"}, "id": "7kqo3iTwJUv41vm-n6COUJSvCzM=", "properties": {"@source_uri": "https://tools.usps.com/UspsToolsRestServices/rest/POLocator/findLocations", "@spider": "usps_collection_boxes", "addr:city": "SHAWNEE MISSION", "addr:country": "US", "addr:postcode": "66213", "addr:state": "KS", "addr:street_address": "10118 W 119TH ST", "amenity": "post_box", "collection_times": "Mo-Fr 10:00", "nsi_id": "unitedstatespostalservice-a77078", "operator": "United States Postal Service", "operator:short": "USPS", "operator:type": "public", "operator:wikidata": "Q668687", "ref": "6621300001"}, "type": "Feature"}
{"geometry": {"coordinates": [-94.7245729, 38.899958], "type": "Point"}, "id": "sVPLjr1GD-LDy6WpA52nnrrE2MQ=", "properties": {"@source_uri": "https://tools.usps.com/UspsToolsRestServices/rest/POLocator/findLocations", "@spider": "usps_collection_boxes", "addr:city": "SHAWNEE MISSION", "addr:country": "US", "addr:postcode": "66213", "addr:state": "KS", "addr:street_address": "12600 QUIVIRA RD", "amenity": "post_box", "collection_times": "Mo-Fr 10:00", "nsi_id": "unitedstatespostalservice-a77078", "operator": "United States Postal Service", "operator:short": "USPS", "operator:type": "public", "operator:wikidata": "Q668687", "ref": "6621300010"}, "type": "Feature"}
{"geometry": {"coordinates": [-94.6724035, 38.911759], "type": "Point"}, "id": "HT0ieRMRXu4lCSEIiveN7rMbT0Y=", "properties": {"@source_uri": "https://tools.usps.com/UspsToolsRestServices/rest/POLocator/findLocations", "@spider": "usps_collection_boxes", "addr:city": "SHAWNEE MISSION", "addr:country": "US", "addr:postcode": "66213", "addr:state": "KS", "addr:street_address": "11935 RILEY ST", "amenity": "post_box", "collection_times": "Mo-Fr 12:00", "nsi_id": "unitedstatespostalservice-a77078", "operator": "United States Postal Service", "operator:short": "USPS", "operator:type": "public", "operator:wikidata": "Q668687", "ref": "6621300013"}, "type": "Feature"}
{"geometry": {"coordinates": [-94.6693849, 38.894461], "type": "Point"}, "id": "E5WsFtvqRqsfuN215qn1vLP-sTI=", "properties": {"@source_uri": "https://tools.usps.com/UspsToolsRestServices/rest/POLocator/findLocations", "@spider": "usps_collection_boxes", "addr:city": "SHAWNEE MISSION", "addr:country": "US", "addr:postcode": "66213", "addr:state": "KS", "addr:street_address": "12900 METCALF AVE", "amenity": "post_box", "collection_times": "Mo-Fr 12:00", "nsi_id": "unitedstatespostalservice-a77078", "operator": "United States Postal Service", "operator:short": "USPS", "operator:type": "public", "operator:wikidata": "Q668687", "ref": "6621300016"}, "type": "Feature"}
{"geometry": {"coordinates": [-94.6705199, 38.913925], "type": "Point"}, "id": "uMzfXAqPUsxcJDFuMP5YZ2ZB0B8=", "properties": {"@source_uri": "https://tools.usps.com/UspsToolsRestServices/rest/POLocator/findLocations", "@spider": "usps_collection_boxes", "addr:city": "SHAWNEE MISSION", "addr:country": "US", "addr:postcode": "66213", "addr:state": "KS", "addr:street_address": "7124 W 119TH ST", "amenity": "post_box", "collection_times": "Mo-Sa 12:00", "nsi_id": "unitedstatespostalservice-a77078", "operator": "United States Postal Service", "operator:short": "USPS", "operator:type": "public", "operator:wikidata": "Q668687", "ref": "6621300017"}, "type": "Feature"}
{"geometry": {"coordinates": [-94.6853840047, 38.9015190065], "type": "Point"}, "id": "lorz4RuEi0ZXe2-_HuIBvV2EXDM=", "properties": {"@source_uri": "https://tools.usps.com/UspsToolsRestServices/rest/POLocator/findLocations", "@spider": "usps_collection_boxes", "addr:city": "SHAWNEE MISSION", "addr:country": "US", "addr:postcode": "66213", "addr:state": "KS", "addr:street_address": "12433 ANTIOCH RD", "amenity": "post_box", "collection_times": "Mo-Fr 16:05; Sa 16:45", "note": "ON 12/24 AND 12/31, THIS BOX MAY BE COLLECTED AS EARLY AS 12 NOON.", "nsi_id": "unitedstatespostalservice-a77078", "operator": "United States Postal Service", "operator:short": "USPS", "operator:type": "public", "operator:wikidata": "Q668687", "ref": "6621300020"}, "type": "Feature"}
{"geometry": {"coordinates": [-94.6718099, 38.891814], "type": "Point"}, "id": "HyTYc57Mz9sIXk6iptM6ezbtizk=", "properties": {"@source_uri": "https://tools.usps.com/UspsToolsRestServices/rest/POLocator/findLocations", "@spider": "usps_collection_boxes", "addr:city": "SHAWNEE MISSION", "addr:country": "US", "addr:postcode": "66213", "addr:state": "KS", "addr:street_address": "7311 W 130TH ST", "amenity": "post_box", "collection_times": "Mo-Fr 12:00", "nsi_id": "unitedstatespostalservice-a77078", "operator": "United States Postal Service", "operator:short": "USPS", "operator:type": "public", "operator:wikidata": "Q668687", "ref": "6621300022"}, "type": "Feature"}
{"geometry": {"coordinates": [-94.686315673, 38.901438639], "type": "Point"}, "id": "NJuiwGj5scEjqnawZxPerPOuCZQ=", "properties": {"@source_uri": "https://tools.usps.com/UspsToolsRestServices/rest/POLocator/findLocations", "@spider": "usps_collection_boxes", "addr:city": "SHAWNEE MISSION", "addr:country": "US", "addr:postcode": "66213", "addr:state": "KS", "addr:street_address": "12433 ANTIOCH RD", "amenity": "post_box", "collection_times": "Mo-Fr 16:05; Sa 16:45", "indoor": "yes", "note": "ON 12/24 AND 12/31, THIS BOX MAY BE COLLECTED AS EARLY AS 12 NOON.", "nsi_id": "unitedstatespostalservice-a77078", "operator": "United States Postal Service", "operator:short": "USPS", "operator:type": "public", "operator:wikidata": "Q668687", "ref": "6621300025"}, "type": "Feature"}
{"geometry": {"coordinates": [-94.686315673, 38.901438639], "type": "Point"}, "id": "4PQhxz7pJ8pL-FWscb932biOJqc=", "properties": {"@source_uri": "https://tools.usps.com/UspsToolsRestServices/rest/POLocator/findLocations", "@spider": "usps_collection_boxes", "addr:city": "SHAWNEE MISSION", "addr:country": "US", "addr:postcode": "66213", "addr:state": "KS", "addr:street_address": "12433 ANTIOCH RD", "amenity": "post_box", "collection_times": "Mo-Fr 16:05; Sa 16:45", "indoor": "yes", "note": "ON 12/24 AND 12/31, THIS BOX MAY BE COLLECTED AS EARLY AS 12 NOON.", "nsi_id": "unitedstatespostalservice-a77078", "operator": "United States Postal Service", "operator:short": "USPS", "operator:type": "public", "operator:wikidata": "Q668687", "ref": "6621300026"}, "type": "Feature"}
{"geometry": {"coordinates": [-94.6697049, 38.889972], "type": "Point"}, "id": "zAmmnGwyvJWibgDsXkX-zrjmR-E=", "properties": {"@source_uri": "https://tools.usps.com/UspsToolsRestServices/rest/POLocator/findLocations", "@spider": "usps_collection_boxes", "addr:city": "SHAWNEE MISSION", "addr:country": "US", "addr:postcode": "66213", "addr:state": "KS", "addr:street_address": "13200 METCALF AVE", "amenity": "post_box", "collection_times": "Mo-Fr 12:30", "note": "ON 12/24 AND 12/31, THIS BOX MAY BE COLLECTED AS EARLY AS 12 NOON.", "nsi_id": "unitedstatespostalservice-a77078", "operator": "United States Postal Service", "operator:short": "USPS", "operator:type": "public", "operator:wikidata": "Q668687", "ref": "6621300042"}, "type": "Feature"}
{"geometry": {"coordinates": [-94.6673563, 38.899793], "type": "Point"}, "id": "RLWdX40EHxvSA-OVSVOtFqbEpNk=", "properties": {"@source_uri": "https://tools.usps.com/UspsToolsRestServices/rest/POLocator/findLocations", "@spider": "usps_collection_boxes", "addr:city": "SHAWNEE MISSION", "addr:country": "US", "addr:postcode": "66213", "addr:state": "KS", "addr:street_address": "12641 METCALF AVE", "amenity": "post_box", "collection_times": "Mo-Sa 11:00", "nsi_id": "unitedstatespostalservice-a77078", "operator": "United States Postal Service", "operator:short": "USPS", "operator:type": "public", "operator:wikidata": "Q668687", "ref": "6621300046"}, "type": "Feature"}
{"geometry": {"coordinates": [-94.686315673, 38.901438639], "type": "Point"}, "id": "A-9NleV6wMZBhJkgWJUIg75f3_s=", "properties": {"@source_uri": "https://tools.usps.com/UspsToolsRestServices/rest/POLocator/findLocations", "@spider": "usps_collection_boxes", "addr:city": "SHAWNEE MISSION", "addr:country": "US", "addr:postcode": "66213", "addr:state": "KS", "addr:street_address": "12433 ANTIOCH RD", "amenity": "post_box", "collection_times": "Mo-Fr 16:05; Sa 16:45", "name": "USPS COLLECTION BOX - APC", "note": "ON 12/24 AND 12/31, THIS BOX MAY BE COLLECTED AS EARLY AS 12 NOON.", "nsi_id": "unitedstatespostalservice-a77078", "operator": "United States Postal Service", "operator:short": "USPS", "operator:type": "public", "operator:wikidata": "Q668687", "ref": "6621300048"}, "type": "Feature"}
{"geometry": {"coordinates": [-94.6702654, 38.903268], "type": "Point"}, "id": "B7ceekw8m_fSgdCka3gX-UfIHdk=", "properties": {"@source_uri": "https://tools.usps.com/UspsToolsRestServices/rest/POLocator/findLocations", "@spider": "usps_collection_boxes", "addr:city": "SHAWNEE MISSION", "addr:country": "US", "addr:postcode": "66213", "addr:state": "KS", "addr:street_address": "12300 METCALF AVE", "amenity": "post_box", "collection_times": "Mo-Sa 11:00", "nsi_id": "unitedstatespostalservice-a77078", "operator": "United States Postal Service", "operator:short": "USPS", "operator:type": "public", "operator:wikidata": "Q668687", "ref": "6621300050"}, "type": "Feature"}
{"geometry": {"coordinates": [-94.686315673, 38.901438639], "type": "Point"}, "id": "rFgz3ym27u2j4hBGKLpbPdy7NWk=", "properties": {"@source_uri": "https://tools.usps.com/UspsToolsRestServices/rest/POLocator/findLocations", "@spider": "usps_collection_boxes", "addr:city": "SHAWNEE MISSION", "addr:country": "US", "addr:postcode": "66213", "addr:state": "KS", "addr:street_address": "12433 ANTIOCH RD", "amenity": "post_box", "collection_times": "Mo-Fr 16:45; Sa 16:15", "indoor": "yes", "note": "ON 12/24 AND 12/31, THIS BOX MAY BE COLLECTED AS EARLY AS 12 NOON.", "nsi_id": "unitedstatespostalservice-a77078", "operator": "United States Postal Service", "operator:short": "USPS", "operator:type": "public", "operator:wikidata": "Q668687", "ref": "6621300053"}, "type": "Feature"}
{"geometry": {"coordinates": [-94.7225461, 38.974774], "type": "Point"}, "id": "NIrHhSCHX_pImaLvD53oQDHNobA=", "properties": {"@source_uri": "https://tools.usps.com/UspsToolsRestServices/rest/POLocator/findLocations", "@spider": "usps_collection_boxes", "addr:city": "SHAWNEE MISSION", "addr:country": "US", "addr:postcode": "66214", "addr:state": "KS", "addr:street_address": "11850 W 85TH ST", "amenity": "post_box", "collection_times": "Mo-Fr 12:00", "nsi_id": "unitedstatespostalservice-a77078", "operator": "United States Postal Service", "operator:short": "USPS", "operator:type": "public", "operator:wikidata": "Q668687", "ref": "6621400004"}, "type": "Feature"}
{"geometry": {"coordinates": [-94.7172016, 38.973915], "type": "Point"}, "id": "fw6BvhWXE0U1-8pO1q59ZxipEzo=", "properties": {"@source_uri": "https://tools.usps.com/UspsToolsRestServices/rest/POLocator/findLocations", "@spider": "usps_collection_boxes", "addr:city": "SHAWNEE MISSION", "addr:country": "US", "addr:postcode": "66214", "addr:state": "KS", "addr:street_address": "8600 MARSHALL DR", "amenity": "post_box", "collection_times": "Mo-Fr 12:00", "nsi_id": "unitedstatespostalservice-a77078", "operator": "United States Postal Service", "operator:short": "USPS", "operator:type": "public", "operator:wikidata": "Q668687", "ref": "6621400007"}, "type": "Feature"}
{"geometry": {"coordinates": [-94.7155018, 38.954876], "type": "Point"}, "id": "Y_dgfZfJBa6v1uw9ernI_6sK9ok=", "properties": {"@source_uri": "https://tools.usps.com/UspsToolsRestServices/rest/POLocator/findLocations", "@spider": "usps_collection_boxes", "addr:city": "SHAWNEE MISSION", "addr:country": "US", "addr:postcode": "66214", "addr:state": "KS", "addr:street_address": "11201 W 95TH ST", "amenity": "post_box", "collection_times": "Mo-Sa 12:00", "nsi_id": "unitedstatespostalservice-a77078", "operator": "United States Postal Service", "operator:short": "USPS", "operator:type": "public", "operator:wikidata": "Q668687", "ref": "6621400011"}, "type": "Feature"}
{"geometry": {"coordinates": [-94.7065366, 38.975735], "type": "Point"}, "id": "09surAZGGWpD8Odt1iH7JMfjmqA=", "properties": {"@source_uri": "https://tools.usps.com/UspsToolsRestServices/rest/POLocator/findLocations", "@spider": "usps_collection_boxes", "addr:city": "SHAWNEE MISSION", "addr:country": "US", "addr:postcode": "66214", "addr:state": "KS", "addr:street_address": "10412 W 84TH TER", "amenity": "post_box", "collection_times": "Mo-Sa 12:00", "nsi_id": "unitedstatespostalservice-a77078", "operator": "United States Postal Service", "operator:short": "USPS", "operator:type": "public", "operator:wikidata": "Q668687", "ref": "6621400020"}, "type": "Feature"}
{"geometry": {"coordinates": [-94.7178600238, 38.9627700154], "type": "Point"}, "id": "xKWClwe6eqNl9sdjjPRFVcoEvc8=", "properties": {"@source_uri": "https://tools.usps.com/UspsToolsRestServices/rest/POLocator/findLocations", "@spider": "usps_collection_boxes", "addr:city": "SHAWNEE MISSION", "addr:country": "US", "addr:postcode": "66214", "addr:state": "KS", "addr:street_address": "9120 FLINT ST", "amenity": "post_box", "collection_times": "Mo-Sa 12:15", "note": "ON 12/24 AND 12/31, THIS BOX MAY BE COLLECTED AS EARLY AS 12 NOON.", "nsi_id": "unitedstatespostalservice-a77078", "operator": "United States Postal Service", "operator:short": "USPS", "operator:type": "public", "operator:wikidata": "Q668687", "ref": "6621400029"}, "type": "Feature"}
{"geometry": {"coordinates": [-94.7299875, 38.977565], "type": "Point"}, "id": "nf-f8PjUQxWWCH6N7Ff3goZkXvE=", "properties": {"@source_uri": "https://tools.usps.com/UspsToolsRestServices/rest/POLocator/findLocations", "@spider": "usps_collection_boxes", "addr:city": "SHAWNEE MISSION", "addr:country": "US", "addr:postcode": "66215", "addr:state": "KS", "addr:street_address": "9601 DICE LN", "amenity": "post_box", "collection_times": "Mo-Sa 13:30", "note": "ON 12/24 AND 12/31, THIS BOX MAY BE COLLECTED AS EARLY AS 12 NOON.", "nsi_id": "unitedstatespostalservice-a77078", "operator": "United States Postal Service", "operator:short": "USPS", "operator:type": "public", "operator:wikidata": "Q668687", "ref": "6621500003"}, "type": "Feature"}
{"geometry": {"coordinates": [-94.7245564, 38.984932], "type": "Point"}, "id": "C8bp0ncDrPuuu3sOqKqhAqrge_0=", "properties": {"@source_uri": "https://tools.usps.com/UspsToolsRestServices/rest/POLocator/findLocations", "@spider": "usps_collection_boxes", "addr:city": "SHAWNEE MISSION", "addr:country": "US", "addr:postcode": "66215", "addr:state": "KS", "addr:street_address": "7900 QUIVIRA RD", "amenity": "post_box", "collection_times": "Mo-Fr 12:00", "nsi_id": "unitedstatespostalservice-a77078", "operator": "United States Postal Service", "operator:short": "USPS", "operator:type": "public", "operator:wikidata": "Q668687", "ref": "6621500006"}, "type": "Feature"}
{"geometry": {"coordinates": [-94.7596609941, 38.9440059936], "type": "Point"}, "id": "gtf6NKg7NNFLUiWRVhh12eD1bxA=", "properties": {"@source_uri": "https://tools.usps.com/UspsToolsRestServices/rest/POLocator/findLocations", "@spider": "usps_collection_boxes", "addr:city": "SHAWNEE MISSION", "addr:country": "US", "addr:postcode": "66215", "addr:state": "KS", "addr:street_address": "15001 W 101ST TER", "amenity": "post_box", "collection_times": "Mo-Sa 12:00", "nsi_id": "unitedstatespostalservice-a77078", "operator": "United States Postal Service", "operator:short": "USPS", "operator:type": "public", "operator:wikidata": "Q668687", "ref": "6621500020"}, "type": "Feature"}
{"geometry": {"coordinates": [-94.7288023, 38.956016], "type": "Point"}, "id": "Nc2ZFGBPXVAxwl0My8i2-mU5XYs=", "properties": {"@source_uri": "https://tools.usps.com/UspsToolsRestServices/rest/POLocator/findLocations", "@spider": "usps_collection_boxes", "addr:city": "SHAWNEE MISSION", "addr:country": "US", "addr:postcode": "66215", "addr:state": "KS", "addr:street_address": "12345 W 95TH ST", "amenity": "post_box", "collection_times": "Mo-Sa 12:00", "nsi_id": "unitedstatespostalservice-a77078", "operator": "United States Postal Service", "operator:short": "USPS", "operator:type": "public", "operator:wikidata": "Q668687", "ref": "6621500028"}, "type": "Feature"}
{"geometry": {"coordinates": [-94.7435259, 38.957258], "type": "Point"}, "id": "Af60WDJNT9xZLqKAWoNOBFSe5zM=", "properties": {"@source_uri": "https://tools.usps.com/UspsToolsRestServices/rest/POLocator/findLocations", "@spider": "usps_collection_boxes", "addr:city": "SHAWNEE MISSION", "addr:country": "US", "addr:postcode": "66215", "addr:state": "KS", "addr:street_address": "13610 W 95TH ST", "amenity": "post_box", "collection_times": "Mo-Fr 12:00", "nsi_id": "unitedstatespostalservice-a77078", "operator": "United States Postal Service", "operator:short": "USPS", "operator:type": "public", "operator:wikidata": "Q668687", "ref": "6621500031"}, "type": "Feature"}
{"geometry": {"coordinates": [-94.7248283, 38.936658], "type": "Point"}, "id": "wnTd3ONmfcwim6A-pJEfEgOhMgs=", "properties": {"@source_uri": "https://tools.usps.com/UspsToolsRestServices/rest/POLocator/findLocations", "@spider": "usps_collection_boxes", "addr:city": "SHAWNEE MISSION", "addr:country": "US", "addr:postcode": "66215", "addr:state": "KS", "addr:street_address": "10600 QUIVIRA RD", "amenity": "post_box", "collection_times": "Mo-Fr 12:00", "nsi_id": "unitedstatespostalservice-a77078", "operator": "United States Postal Service", "operator:short": "USPS", "operator:type": "public", "operator:wikidata": "Q668687", "ref": "6621500034"}, "type": "Feature"}
{"geometry": {"coordinates": [-94.7399468, 38.971846], "type": "Point"}, "id": "wKjsXtRFKDq9TqfqpgottF212mY=", "properties": {"@source_uri": "https://tools.usps.com/UspsToolsRestServices/rest/POLocator/findLocations", "@spider": "usps_collection_boxes", "addr:city": "SHAWNEE MISSION", "addr:country": "US", "addr:postcode": "66215", "addr:state": "KS", "addr:street_address": "13230 W 87TH STREET PKWY", "amenity": "post_box", "collection_times": "Mo-Sa 12:00", "nsi_id": "unitedstatespostalservice-a77078", "operator": "United States Postal Service", "operator:short": "USPS", "operator:type": "public", "operator:wikidata": "Q668687", "ref": "6621500038"}, "type": "Feature"}
{"geometry": {"coordinates": [-94.728347844, 38.968676581], "type": "Point"}, "id": "8uk2B74pgEV-NXBtfW-q0vPVsFs=", "properties": {"@source_uri": "https://tools.usps.com/UspsToolsRestServices/rest/POLocator/findLocations", "@spider": "usps_collection_boxes", "addr:city": "SHAWNEE MISSION", "addr:country": "US", "addr:postcode": "66215", "addr:state": "KS", "addr:street_address": "8820 MONROVIA ST", "amenity": "post_box", "collection_times": "Mo-Sa 15:45", "note": "ON 12/24 AND 12/31, THIS BOX MAY BE COLLECTED AS EARLY AS 12 NOON.", "nsi_id": "unitedstatespostalservice-a77078", "operator": "United States Postal Service", "operator:short": "USPS", "operator:type": "public", "operator:wikidata": "Q668687", "ref": "6621500040"}, "type": "Feature"}
{"geometry": {"coordinates": [-94.7399605, 38.948846], "type": "Point"}, "id": "U4oqgF6T4q3uLV-KLrM_ylReBFE=", "properties": {"@source_uri": "https://tools.usps.com/UspsToolsRestServices/rest/POLocator/findLocations", "@spider": "usps_collection_boxes", "addr:city": "SHAWNEE MISSION", "addr:country": "US", "addr:postcode": "66215", "addr:state": "KS", "addr:street_address": "10000 MARSHALL DR", "amenity": "post_box", "collection_times": "Mo-Sa 12:00", "nsi_id": "unitedstatespostalservice-a77078", "operator": "United States Postal Service", "operator:short": "USPS", "operator:type": "public", "operator:wikidata": "Q668687", "ref": "6621500044"}, "type": "Feature"}
{"geometry": {"coordinates": [-94.7432766, 38.93609], "type": "Point"}, "id": "tfDIVEDSCoUEB9Iu9jZ7kEUkq04=", "properties": {"@source_uri": "https://tools.usps.com/UspsToolsRestServices/rest/POLocator/findLocations", "@spider": "usps_collection_boxes", "addr:city": "SHAWNEE MISSION", "addr:country": "US", "addr:postcode": "66215", "addr:state": "KS", "addr:street_address": "10610 SUMMIT ST", "amenity": "post_box", "collection_times": "Mo-Fr 12:00", "nsi_id": "unitedstatespostalservice-a77078", "operator": "United States Postal Service", "operator:short": "USPS", "operator:type": "public", "operator:wikidata": "Q668687", "ref": "6621500048"}, "type": "Feature"}
{"geometry": {"coordinates": [-94.7606364, 38.972182], "type": "Point"}, "id": "0KpqdfnYyRwV4dVCVpS0lfwArYk=", "properties": {"@source_uri": "https://tools.usps.com/UspsToolsRestServices/rest/POLocator/findLocations", "@spider": "usps_collection_boxes", "addr:city": "SHAWNEE MISSION", "addr:country": "US", "addr:postcode": "66215", "addr:state": "KS", "addr:street_address": "15000 W 87TH STREET PKWY", "amenity": "post_box", "collection_times": "Mo-Sa 13:00", "note": "ON 12/24 AND 12/31, THIS BOX MAY BE COLLECTED AS EARLY AS 12 NOON.", "nsi_id": "unitedstatespostalservice-a77078", "operator": "United States Postal Service", "operator:short": "USPS", "operator:type": "public", "operator:wikidata": "Q668687", "ref": "6621500050"}, "type": "Feature"}
{"geometry": {"coordinates": [-94.728347844, 38.968676581], "type": "Point"}, "id": "vQoCay5iAPO_ELLILQ3u_q3uIFQ=", "properties": {"@source_uri": "https://tools.usps.com/UspsToolsRestServices/rest/POLocator/findLocations", "@spider": "usps_collection_boxes", "addr:city": "SHAWNEE MISSION", "addr:country": "US", "addr:postcode": "66215", "addr:state": "KS", "addr:street_address": "8820 MONROVIA ST", "amenity": "post_box", "collection_times": "Mo-Fr 16:35; Sa 13:00", "indoor": "yes", "note": "ON 12/24 AND 12/31, THIS BOX MAY BE COLLECTED AS EARLY AS 12 NOON.", "nsi_id": "unitedstatespostalservice-a77078", "operator": "United States Postal Service", "operator:short": "USPS", "operator:type": "public", "operator:wikidata": "Q668687", "ref": "6621500053"}, "type": "Feature"}
{"geometry": {"coordinates": [-94.728347844, 38.968676581], "type": "Point"}, "id": "ekb3TT38mqZVuqcX1dR7L2pk0W4=", "properties": {"@source_uri": "https://tools.usps.com/UspsToolsRestServices/rest/POLocator/findLocations", "@spider": "usps_collection_boxes", "addr:city": "SHAWNEE MISSION", "addr:country": "US", "addr:postcode": "66215", "addr:state": "KS", "addr:street_address": "8820 MONROVIA ST", "amenity": "post_box", "collection_times": "Mo-Fr 16:35; Sa 13:00", "name": "USPS COLLECTION BOX - APC", "note": "ON 12/24 AND 12/31, THIS BOX MAY BE COLLECTED AS EARLY AS 12 NOON.", "nsi_id": "unitedstatespostalservice-a77078", "operator": "United States Postal Service", "operator:short": "USPS", "operator:type": "public", "operator:wikidata": "Q668687", "ref": "6621500054"}, "type": "Feature"}
{"geometry": {"coordinates": [-94.728347844, 38.968676581], "type": "Point"}, "id": "otNikkxrRYCSm5ZZbs0iHcka-qY=", "properties": {"@source_uri": "https://tools.usps.com/UspsToolsRestServices/rest/POLocator/findLocations", "@spider": "usps_collection_boxes", "addr:city": "SHAWNEE MISSION", "addr:country": "US", "addr:postcode": "66215", "addr:state": "KS", "addr:street_address": "8820 MONROVIA ST", "amenity": "post_box", "collection_times": "Mo-Fr 17:15; Sa 13:15", "indoor": "yes", "note": "ON 12/24 AND 12/31, THIS BOX MAY BE COLLECTED AS EARLY AS 12 NOON.", "nsi_id": "unitedstatespostalservice-a77078", "operator": "United States Postal Service", "operator:short": "USPS", "operator:type": "public", "operator:wikidata": "Q668687", "ref": "6621500067"}, "type": "Feature"}
{"geometry": {"coordinates": [-94.7305661, 39.014361], "type": "Point"}, "id": "pOM2R2TbVFF9QH4wMoZrxSCzCX0=", "properties": {"@source_uri": "https://tools.usps.com/UspsToolsRestServices/rest/POLocator/findLocations", "@spider": "usps_collection_boxes", "addr:city": "SHAWNEE MISSION", "addr:country": "US", "addr:postcode": "66216", "addr:state": "KS", "addr:street_address": "6333 LONG AVE", "amenity": "post_box", "collection_times": "Mo-Sa 15:00", "note": "ON 12/24 AND 12/31, THIS BOX MAY BE COLLECTED AS EARLY AS 12 NOON.", "nsi_id": "unitedstatespostalservice-a77078", "operator": "United States Postal Service", "operator:short": "USPS", "operator:type": "public", "operator:wikidata": "Q668687", "ref": "6621600005"}, "type": "Feature"}
{"geometry": {"coordinates": [-94.7439278, 39.015541], "type": "Point"}, "id": "-Z_KP6pJPhHKuVAZMHdXWwiZd10=", "properties": {"@source_uri": "https://tools.usps.com/UspsToolsRestServices/rest/POLocator/findLocations", "@spider": "usps_collection_boxes", "addr:city": "SHAWNEE MISSION", "addr:country": "US", "addr:postcode": "66216", "addr:state": "KS", "addr:street_address": "13550 W 63RD ST", "amenity": "post_box", "collection_times": "Mo-Sa 12:00", "nsi_id": "unitedstatespostalservice-a77078", "operator": "United States Postal Service", "operator:short": "USPS", "operator:type": "public", "operator:wikidata": "Q668687", "ref": "6621600006"}, "type": "Feature"}
{"geometry": {"coordinates": [-94.7770964, 38.998255], "type": "Point"}, "id": "VowhPn8Angl7OtluzhloZ1YzKag=", "properties": {"@source_uri": "https://tools.usps.com/UspsToolsRestServices/rest/POLocator/findLocations", "@spider": "usps_collection_boxes", "addr:city": "LAKE QUIVIRA", "addr:country": "US", "addr:postcode": "66217", "addr:state": "KS", "addr:street_address": "16301 MIDLAND DR", "amenity": "post_box", "collection_times": "Mo-Sa 12:00", "nsi_id": "unitedstatespostalservice-a77078", "operator": "United States Postal Service", "operator:short": "USPS", "operator:type": "public", "operator:wikidata": "Q668687", "ref": "6621700000"}, "type": "Feature"}
{"geometry": {"coordinates": [-94.7698074, 39.050195], "type": "Point"}, "id": "78940bcLiL8NsL5CKQggPX_66YY=", "properties": {"@source_uri": "https://tools.usps.com/UspsToolsRestServices/rest/POLocator/findLocations", "@spider": "usps_collection_boxes", "addr:city": "LAKE QUIVIRA", "addr:country": "US", "addr:postcode": "66217", "addr:state": "KS", "addr:street_address": "8100 HOLIDAY DR", "amenity": "post_box", "collection_times": "Mo-Sa 10:30", "nsi_id": "unitedstatespostalservice-a77078", "operator": "United States Postal Service", "operator:short": "USPS", "operator:type": "public", "operator:wikidata": "Q668687", "ref": "6621700002"}, "type": "Feature"}
{"geometry": {"coordinates": [-94.76424, 38.95499], "type": "Point"}, "id": "upmF3IB7XZECGulZuJd6vzLEK4M=", "properties": {"@source_uri": "https://tools.usps.com/UspsToolsRestServices/rest/POLocator/findLocations", "@spider": "usps_collection_boxes", "addr:city": "SHAWNEE MISSION", "addr:country": "US", "addr:postcode": "66219", "addr:state": "KS", "addr:street_address": "15377 W 95TH ST", "amenity": "post_box", "collection_times": "Mo-Sa 11:00", "name": "USPS COLLECTION BOX - EXPRESS", "nsi_id": "unitedstatespostalservice-a77078", "operator": "United States Postal Service", "operator:short": "USPS", "operator:type": "public", "operator:wikidata": "Q668687", "ref": "6621900002"}, "type": "Feature"}
{"geometry": {"coordinates": [-94.7674058, 38.970279], "type": "Point"}, "id": "JwDbFyQWMdm8FMMZK1GLBieuzoA=", "properties": {"@source_uri": "https://tools.usps.com/UspsToolsRestServices/rest/POLocator/findLocations", "@spider": "usps_collection_boxes", "addr:city": "SHAWNEE MISSION", "addr:country": "US", "addr:postcode": "66219", "addr:state": "KS", "addr:street_address": "8755 BOURGADE ST", "amenity": "post_box", "collection_times": "Mo-Sa 10:30", "nsi_id": "unitedstatespostalservice-a77078", "operator": "United States Postal Service", "operator:short": "USPS", "operator:type": "public", "operator:wikidata": "Q668687", "ref": "6621900006"}, "type": "Feature"}
{"geometry": {"coordinates": [-94.7725463, 38.953874], "type": "Point"}, "id": "ClZyZGN8SrMC9KAqVny4rPiV5Vg=", "properties": {"@source_uri": "https://tools.usps.com/UspsToolsRestServices/rest/POLocator/findLocations", "@spider": "usps_collection_boxes", "addr:city": "SHAWNEE MISSION", "addr:country": "US", "addr:postcode": "66219", "addr:state": "KS", "addr:street_address": "9640 LEGLER RD", "amenity": "post_box", "collection_times": "Mo-Sa 11:00", "nsi_id": "unitedstatespostalservice-a77078", "operator": "United States Postal Service", "operator:short": "USPS", "operator:type": "public", "operator:wikidata": "Q668687", "ref": "6621900010"}, "type": "Feature"}
{"geometry": {"coordinates": [-94.7625112, 38.931034], "type": "Point"}, "id": "n_HE_gMcbVphS9S283XYb80Y7XE=", "properties": {"@source_uri": "https://tools.usps.com/UspsToolsRestServices/rest/POLocator/findLocations", "@spider": "usps_collection_boxes", "addr:city": "SHAWNEE MISSION", "addr:country": "US", "addr:postcode": "66219", "addr:state": "KS", "addr:street_address": "15301 W 109TH ST", "amenity": "post_box", "collection_times": "Mo-Fr 11:30; Sa 10:00", "nsi_id": "unitedstatespostalservice-a77078", "operator": "United States Postal Service", "operator:short": "USPS", "operator:type": "public", "operator:wikidata": "Q668687", "ref": "6621900012"}, "type": "Feature"}
{"geometry": {"coordinates": [-94.777915019, 38.9506579977], "type": "Point"}, "id": "gs87Hnk8f8E1M6-v23o-WfW2J6Q=", "properties": {"@source_uri": "https://tools.usps.com/UspsToolsRestServices/rest/POLocator/findLocations", "@spider": "usps_collection_boxes", "addr:city": "SHAWNEE MISSION", "addr:country": "US", "addr:postcode": "66219", "addr:state": "KS", "addr:street_address": "9801 RENNER BLVD", "amenity": "post_box", "collection_times": "Mo-Fr 12:00", "nsi_id": "unitedstatespostalservice-a77078", "operator": "United States Postal Service", "operator:short": "USPS", "operator:type": "public", "operator:wikidata": "Q668687", "ref": "6621900019"}, "type": "Feature"}
{"geometry": {"coordinates": [-94.7805152, 38.924941], "type": "Point"}, "id": "uzMzuGTfnEMLuv8ZVIrc_VxgBR8=", "properties": {"@source_uri": "https://tools.usps.com/UspsToolsRestServices/rest/POLocator/findLocations", "@spider": "usps_collection_boxes", "addr:city": "SHAWNEE MISSION", "addr:country": "US", "addr:postcode": "66219", "addr:state": "KS", "addr:street_address": "11214 RENNER BLVD", "amenity": "post_box", "collection_times": "Mo-Fr 12:00", "nsi_id": "unitedstatespostalservice-a77078", "operator": "United States Postal Service", "operator:short": "USPS", "operator:type": "public", "operator:wikidata": "Q668687", "ref": "6621900021"}, "type": "Feature"}
{"geometry": {"coordinates": [-94.6871198536, 38.8838434573], "type": "Point"}, "id": "7p8wtgo-7y7wyGOMpd8HUJ7QiTU=", "properties": {"@source_uri": "https://tools.usps.com/UspsToolsRestServices/rest/POLocator/findLocations", "@spider": "usps_collection_boxes", "addr:city": "SHAWNEE MISSION", "addr:country": "US", "addr:postcode": "66221", "addr:state": "KS", "addr:street_address": "8728 W 135 ST", "amenity": "post_box", "collection_times": "Mo-Sa 12:00", "nsi_id": "unitedstatespostalservice-a77078", "operator": "United States Postal Service", "operator:short": "USPS", "operator:type": "public", "operator:wikidata": "Q668687", "ref": "6622100000"}, "type": "Feature"}
{"geometry": {"coordinates": [-94.7224711, 38.886164], "type": "Point"}, "id": "GmEDowbD0qF0gTiaAb8nOIVE4O8=", "properties": {"@source_uri": "https://tools.usps.com/UspsToolsRestServices/rest/POLocator/findLocations", "@spider": "usps_collection_boxes", "addr:city": "SHAWNEE MISSION", "addr:country": "US", "addr:postcode": "66221", "addr:state": "KS", "addr:street_address": "11700 W 135TH ST", "amenity": "post_box", "collection_times": "Mo-Sa 12:00", "nsi_id": "unitedstatespostalservice-a77078", "operator": "United States Postal Service", "operator:short": "USPS", "operator:type": "public", "operator:wikidata": "Q668687", "ref": "6622100001"}, "type": "Feature"}
{"geometry": {"coordinates": [-94.6726910373, 38.8549999887], "type": "Point"}, "id": "ldRR636T1ROqDgpKe9yULICpk1U=", "properties": {"@source_uri": "https://tools.usps.com/UspsToolsRestServices/rest/POLocator/findLocations", "@spider": "usps_collection_boxes", "addr:city": "SHAWNEE MISSION", "addr:country": "US", "addr:postcode": "66223", "addr:state": "KS", "addr:street_address": "7500 W 151ST ST", "amenity": "post_box", "collection_times": "Mo-Fr 16:30; Sa 15:00", "note": "ON 12/24 AND 12/31, THIS BOX MAY BE COLLECTED AS EARLY AS 12 NOON.", "nsi_id": "unitedstatespostalservice-a77078", "operator": "United States Postal Service", "operator:short": "USPS", "operator:type": "public", "operator:wikidata": "Q668687", "ref": "6622300002"}, "type": "Feature"}
{"geometry": {"coordinates": [-94.6691941, 38.853525], "type": "Point"}, "id": "ujWTRMR8Dp3Ux_-63K6wBPxwlSo=", "properties": {"@source_uri": "https://tools.usps.com/UspsToolsRestServices/rest/POLocator/findLocations", "@spider": "usps_collection_boxes", "addr:city": "SHAWNEE MISSION", "addr:country": "US", "addr:postcode": "66223", "addr:state": "KS", "addr:street_address": "7201 W 151ST ST", "amenity": "post_box", "collection_times": "Mo-Fr 10:00", "nsi_id": "unitedstatespostalservice-a77078", "operator": "United States Postal Service", "operator:short": "USPS", "operator:type": "public", "operator:wikidata": "Q668687", "ref": "6622300006"}, "type": "Feature"}
{"geometry": {"coordinates": [-94.672844361, 38.854632475], "type": "Point"}, "id": "cUB-VgJdk9P8uGoLZHlvLJRqM6g=", "properties": {"@source_uri": "https://tools.usps.com/UspsToolsRestServices/rest/POLocator/findLocations", "@spider": "usps_collection_boxes", "addr:city": "SHAWNEE MISSION", "addr:country": "US", "addr:postcode": "66223", "addr:state": "KS", "addr:street_address": "7500 W 151ST ST", "amenity": "post_box", "collection_times": "Mo-Fr 17:20; Sa 13:00", "indoor": "yes", "note": "ON 12/24 AND 12/31, THIS BOX MAY BE COLLECTED AS EARLY AS 12 NOON.", "nsi_id": "unitedstatespostalservice-a77078", "operator": "United States Postal Service", "operator:short": "USPS", "operator:type": "public", "operator:wikidata": "Q668687", "ref": "6622300010"}, "type": "Feature"}
{"geometry": {"coordinates": [-94.672844361, 38.854632475], "type": "Point"}, "id": "tiZsoHPav6vnivdp_DBpAcW1f-E=", "properties": {"@source_uri": "https://tools.usps.com/UspsToolsRestServices/rest/POLocator/findLocations", "@spider": "usps_collection_boxes", "addr:city": "SHAWNEE MISSION", "addr:country": "US", "addr:postcode": "66223", "addr:state": "KS", "addr:street_address": "7500 W 151ST ST", "amenity": "post_box", "collection_times": "Mo-Fr 17:20; Sa 13:00", "indoor": "yes", "note": "ON 12/24 AND 12/31, THIS BOX MAY BE COLLECTED AS EARLY AS 12 NOON.", "nsi_id": "unitedstatespostalservice-a77078", "operator": "United States Postal Service", "operator:short": "USPS", "operator:type": "public", "operator:wikidata": "Q668687", "ref": "6622300011"}, "type": "Feature"}
{"geometry": {"coordinates": [-94.672844361, 38.854632475], "type": "Point"}, "id": "RbLTsEDQ84z-e-Q0NKwJbdnYOqw=", "properties": {"@source_uri": "https://tools.usps.com/UspsToolsRestServices/rest/POLocator/findLocations", "@spider": "usps_collection_boxes", "addr:city": "SHAWNEE MISSION", "addr:country": "US", "addr:postcode": "66223", "addr:state": "KS", "addr:street_address": "7500 W 151ST ST", "amenity": "post_box", "collection_times": "Mo-Fr 17:20; Sa 13:00", "indoor": "yes", "note": "ON 12/24 AND 12/31, THIS BOX MAY BE COLLECTED AS EARLY AS 12 NOON.", "nsi_id": "unitedstatespostalservice-a77078", "operator": "United States Postal Service", "operator:short": "USPS", "operator:type": "public", "operator:wikidata": "Q668687", "ref": "6622300012"}, "type": "Feature"}
{"geometry": {"coordinates": [-94.672844361, 38.854632475], "type": "Point"}, "id": "LYv9dLYpDxD5tk4WORyk7fsDl58=", "properties": {"@source_uri": "https://tools.usps.com/UspsToolsRestServices/rest/POLocator/findLocations", "@spider": "usps_collection_boxes", "addr:city": "SHAWNEE MISSION", "addr:country": "US", "addr:postcode": "66223", "addr:state": "KS", "addr:street_address": "7500 W 151ST ST", "amenity": "post_box", "collection_times": "Mo-Fr 17:20; Sa 13:00", "indoor": "yes", "note": "ON 12/24 AND 12/31, THIS BOX MAY BE COLLECTED AS EARLY AS 12 NOON.", "nsi_id": "unitedstatespostalservice-a77078", "operator": "United States Postal Service", "operator:short": "USPS", "operator:type": "public", "operator:wikidata": "Q668687", "ref": "6622300013"}, "type": "Feature"}
{"geometry": {"coordinates": [-94.6677798443, 38.8619275301], "type": "Point"}, "id": "wU0M4Brh409GdhhIt4b0biVkeHQ=", "properties": {"@source_uri": "https://tools.usps.com/UspsToolsRestServices/rest/POLocator/findLocations", "@spider": "usps_collection_boxes", "addr:city": "SHAWNEE MISSION", "addr:country": "US", "addr:postcode": "66223", "addr:state": "KS", "addr:street_address": "16050 MARTY CIR", "amenity": "post_box", "collection_times": "Mo-Fr 16:30; Sa 16:00", "note": "ON 12/24 AND 12/31, THIS BOX MAY BE COLLECTED AS EARLY AS 12 NOON.", "nsi_id": "unitedstatespostalservice-a77078", "operator": "United States Postal Service", "operator:short": "USPS", "operator:type": "public", "operator:wikidata": "Q668687", "ref": "6622300016"}, "type": "Feature"}
{"geometry": {"coordinates": [-94.672844361, 38.854632475], "type": "Point"}, "id": "8bO9VPbujVn_BncYzDJGEm5gSKU=", "properties": {"@source_uri": "https://tools.usps.com/UspsToolsRestServices/rest/POLocator/findLocations", "@spider": "usps_collection_boxes", "addr:city": "SHAWNEE MISSION", "addr:country": "US", "addr:postcode": "66223", "addr:state": "KS", "addr:street_address": "7500 W 151ST ST", "amenity": "post_box", "collection_times": "Mo-Fr 17:20; Sa 13:00", "name": "USPS COLLECTION BOX - APC", "note": "ON 12/24 AND 12/31, THIS BOX MAY BE COLLECTED AS EARLY AS 12 NOON.", "nsi_id": "unitedstatespostalservice-a77078", "operator": "United States Postal Service", "operator:short": "USPS", "operator:type": "public", "operator:wikidata": "Q668687", "ref": "6622300021"}, "type": "Feature"}
{"geometry": {"coordinates": [-94.672844361, 38.854632475], "type": "Point"}, "id": "wqUJ5lfNiP69WVbru8rUOMuPSAw=", "properties": {"@source_uri": "https://tools.usps.com/UspsToolsRestServices/rest/POLocator/findLocations", "@spider": "usps_collection_boxes", "addr:city": "SHAWNEE MISSION", "addr:country": "US", "addr:postcode": "66223", "addr:state": "KS", "addr:street_address": "7500 W 151ST ST", "amenity": "post_box", "collection_times": "Mo-Fr 18:15; Sa 15:15", "indoor": "yes", "note": "ON 12/24 AND 12/31, THIS BOX MAY BE COLLECTED AS EARLY AS 12 NOON.", "nsi_id": "unitedstatespostalservice-a77078", "operator": "United States Postal Service", "operator:short": "USPS", "operator:type": "public", "operator:wikidata": "Q668687", "ref": "6622300027"}, "type": "Feature"}
{"geometry": {"coordinates": [-94.61746, 38.8692237], "type": "Point"}, "id": "amy4BPnEx__DehqdptiJC2i-GJw=", "properties": {"@source_uri": "https://tools.usps.com/UspsToolsRestServices/rest/POLocator/findLocations", "@spider": "usps_collection_boxes", "addr:city": "SHAWNEE MISSION", "addr:country": "US", "addr:postcode": "66224", "addr:state": "KS", "addr:street_address": "4744 W 136TH ST.", "amenity": "post_box", "collection_times": "Mo-Sa 12:30", "note": "ON 12/24 AND 12/31, THIS BOX MAY BE COLLECTED AS EARLY AS 12 NOON.", "nsi_id": "unitedstatespostalservice-a77078", "operator": "United States Postal Service", "operator:short": "USPS", "operator:type": "public", "operator:wikidata": "Q668687", "ref": "6622400005"}, "type": "Feature"}
{"geometry": {"coordinates": [-94.841580016, 39.0088600055], "type": "Point"}, "id": "C-u5-zVwXs_LlGbyDSN-23PCq-I=", "properties": {"@source_uri": "https://tools.usps.com/UspsToolsRestServices/rest/POLocator/findLocations", "@spider": "usps_collection_boxes", "addr:city": "SHAWNEE MISSION", "addr:country": "US", "addr:postcode": "66226", "addr:state": "KS", "addr:street_address": "22015 W 66TH ST", "amenity": "post_box", "collection_times": "Mo-Fr 16:50; Sa 16:45", "note": "ON 12/24 AND 12/31, THIS BOX MAY BE COLLECTED AS EARLY AS 12 NOON.", "nsi_id": "unitedstatespostalservice-a77078", "operator": "United States Postal Service", "operator:short": "USPS", "operator:type": "public", "operator:wikidata": "Q668687", "ref": "6622600001"}, "type": "Feature"}
{"geometry": {"coordinates": [-94.84177705, 39.009375695], "type": "Point"}, "id": "Ws811WnaF73fRF_6fwqHM0zswxs=", "properties": {"@source_uri": "https://tools.usps.com/UspsToolsRestServices/rest/POLocator/findLocations", "@spider": "usps_collection_boxes", "addr:city": "SHAWNEE MISSION", "addr:country": "US", "addr:postcode": "66226", "addr:state": "KS", "addr:street_address": "22015 W 66TH ST", "amenity": "post_box", "collection_times": "Mo-Fr 16:50; Sa 15:45", "indoor": "yes", "note": "ON 12/24 AND 12/31, THIS BOX MAY BE COLLECTED AS EARLY AS 12 NOON.", "nsi_id": "unitedstatespostalservice-a77078", "operator": "United States Postal Service", "operator:short": "USPS", "operator:type": "public", "operator:wikidata": "Q668687", "ref": "6622600004"}, "type": "Feature"}
{"geometry": {"coordinates": [-94.84177705, 39.009375695], "type": "Point"}, "id": "qFMOmivBcxEmheQKSYyCgnQlE_A=", "properties": {"@source_uri": "https://tools.usps.com/UspsToolsRestServices/rest/POLocator/findLocations", "@spider": "usps_collection_boxes", "addr:city": "SHAWNEE MISSION", "addr:country": "US", "addr:postcode": "66226", "addr:state": "KS", "addr:street_address": "22015 W 66TH ST", "amenity": "post_box", "collection_times": "Mo-Fr 16:50; Sa 15:45", "indoor": "yes", "note": "ON 12/24 AND 12/31, THIS BOX MAY BE COLLECTED AS EARLY AS 12 NOON.", "nsi_id": "unitedstatespostalservice-a77078", "operator": "United States Postal Service", "operator:short": "USPS", "operator:type": "public", "operator:wikidata": "Q668687", "ref": "6622600005"}, "type": "Feature"}
{"geometry": {"coordinates": [-94.84177705, 39.009375695], "type": "Point"}, "id": "zP2HsDiSi78fM09cnpQB-lPtwdw=", "properties": {"@source_uri": "https://tools.usps.com/UspsToolsRestServices/rest/POLocator/findLocations", "@spider": "usps_collection_boxes", "addr:city": "SHAWNEE MISSION", "addr:country": "US", "addr:postcode": "66226", "addr:state": "KS", "addr:street_address": "22015 W 66TH ST", "amenity": "post_box", "collection_times": "Mo-Fr 16:50; Sa 15:45", "name": "USPS COLLECTION BOX - APC", "note": "ON 12/24 AND 12/31, THIS BOX MAY BE COLLECTED AS EARLY AS 12 NOON.", "nsi_id": "unitedstatespostalservice-a77078", "operator": "United States Postal Service", "operator:short": "USPS", "operator:type": "public", "operator:wikidata": "Q668687", "ref": "6622600006"}, "type": "Feature"}
{"geometry": {"coordinates": [-94.84177705, 39.009375695], "type": "Point"}, "id": "B5eQqC8YLH3o7Y98RRvUIPxIZEo=", "properties": {"@source_uri": "https://tools.usps.com/UspsToolsRestServices/rest/POLocator/findLocations", "@spider": "usps_collection_boxes", "addr:city": "SHAWNEE MISSION", "addr:country": "US", "addr:postcode": "66226", "addr:state": "KS", "addr:street_address": "22015 W 66TH ST", "amenity": "post_box", "collection_times": "Mo-Fr 18:15; Sa 13:15", "indoor": "yes", "note": "ON 12/24 AND 12/31, THIS BOX MAY BE COLLECTED AS EARLY AS 12 NOON.", "nsi_id": "unitedstatespostalservice-a77078", "operator": "United States Postal Service", "operator:short": "USPS", "operator:type": "public", "operator:wikidata": "Q668687", "ref": "6622600009"}, "type": "Feature"}
{"geometry": {"coordinates": [-94.860131, 38.980848], "type": "Point"}, "id": "1f3RNR0DDpqjA7cd2jURT44vqS4=", "properties": {"@source_uri": "https://tools.usps.com/UspsToolsRestServices/rest/POLocator/findLocations", "@spider": "usps_collection_boxes", "addr:city": "SHAWNEE MISSION", "addr:country": "US", "addr:postcode": "66227", "addr:state": "KS", "addr:street_address": "8100 COLE PKWY", "amenity": "post_box", "collection_times": "Mo-Sa 12:00", "nsi_id": "unitedstatespostalservice-a77078", "operator": "United States Postal Service", "operator:short": "USPS", "operator:type": "public", "operator:wikidata": "Q668687", "ref": "6622700000"}, "type": "Feature"}
