{"geometry": {"coordinates": [-96.2894981711, 39.0136858848], "type": "Point"}, "id": "TxzfkpnoOAUXWIeSFLXf7Rcx5_A=", "properties": {"@spider": "usps_collection_boxes", "addr:city": "ALMA", "addr:country": "US", "addr:full": "320 MISSOURI AVE", "addr:postcode": "66401", "addr:state": "KS", "amenity": "post_box", "brand": "United States Postal Service", "brand:wikidata": "Q668687", "collection_times": "Mo-Fr 14:00; Sa 09:30", "name": "USPS COLLECTION BOX - PO LOBBY", "note": "ON 12/24 AND 12/31, THIS BOX MAY BE COLLECTED AS EARLY AS 12 NOON.", "nsi_id": "unitedstatespostalservice-a77078", "operator": "United States Postal Service", "operator:short": "USPS", "operator:type": "public", "operator:wikidata": "Q668687", "ref": "6640100002"}, "type": "Feature"}
{"geometry": {"coordinates": [-96.2894981711, 39.0136858848], "type": "Point"}, "id": "lD5HLgC3G8iLW4nO05hWVdCElvg=", "properties": {"@spider": "usps_collection_boxes", "addr:city": "ALMA", "addr:country": "US", "addr:full": "320 MISSOURI AVE", "addr:postcode": "66401", "addr:state": "KS", "amenity": "post_box", "brand": "United States Postal Service", "brand:wikidata": "Q668687", "collection_times": "Mo-Fr 14:00; Sa 08:45", "name": "USPS COLLECTION BOX - BLUE BOX", "note": "ON 12/24 AND 12/31, THIS BOX MAY BE COLLECTED AS EARLY AS 12 NOON.", "nsi_id": "unitedstatespostalservice-a77078", "operator": "United States Postal Service", "operator:short": "USPS", "operator:type": "public", "operator:wikidata": "Q668687", "ref": "6640100003"}, "type": "Feature"}
{"geometry": {"coordinates": [-96.2894981711, 39.0136858848], "type": "Point"}, "id": "q-ZstxakGCt0YZ2zUZ0Ie5Anbuw=", "properties": {"@spider": "usps_collection_boxes", "addr:city": "ALMA", "addr:country": "US", "addr:full": "320 MISSOURI AVE", "addr:postcode": "66401", "addr:state": "KS", "amenity": "post_box", "brand": "United States Postal Service", "brand:wikidata": "Q668687", "collection_times": "Mo-Fr 14:00; Sa 09:30", "name": "USPS COLLECTION BOX - PO LOBBY", "note": "ON 12/24 AND 12/31, THIS BOX MAY BE COLLECTED AS EARLY AS 12 NOON.", "nsi_id": "unitedstatespostalservice-a77078", "operator": "United States Postal Service", "operator:short": "USPS", "operator:type": "public", "operator:wikidata": "Q668687", "ref": "6640100004"}, "type": "Feature"}
{"geometry": {"coordinates": [-96.25783612, 39.872004098], "type": "Point"}, "id": "NohEEcvJqpoSjIvWOAHqZ3_MHcc=", "properties": {"@spider": "usps_collection_boxes", "addr:city": "AXTELL", "addr:country": "US", "addr:full": "206 5TH ST", "addr:postcode": "66403", "addr:state": "KS", "amenity": "post_box", "brand": "United States Postal Service", "brand:wikidata": "Q668687", "collection_times": "Mo-Fr 13:45; Sa 08:45", "name": "USPS COLLECTION BOX - BLUE BOX", "note": "ON 12/24 AND 12/31, THIS BOX MAY BE COLLECTED AS EARLY AS 12 NOON.", "nsi_id": "unitedstatespostalservice-a77078", "operator": "United States Postal Service", "operator:short": "USPS", "operator:type": "public", "operator:wikidata": "Q668687", "ref": "6640300001"}, "type": "Feature"}
{"geometry": {"coordinates": [-96.25783612, 39.872004098], "type": "Point"}, "id": "faCh9dpZb4H-EuJ3JUbNEPyLlaI=", "properties": {"@spider": "usps_collection_boxes", "addr:city": "AXTELL", "addr:country": "US", "addr:full": "206 5TH ST", "addr:postcode": "66403", "addr:state": "KS", "amenity": "post_box", "brand": "United States Postal Service", "brand:wikidata": "Q668687", "collection_times": "Mo-Fr 14:00; Sa 09:00", "name": "USPS COLLECTION BOX - PO LOBBY", "note": "ON 12/24 AND 12/31, THIS BOX MAY BE COLLECTED AS EARLY AS 12 NOON.", "nsi_id": "unitedstatespostalservice-a77078", "operator": "United States Postal Service", "operator:short": "USPS", "operator:type": "public", "operator:wikidata": "Q668687", "ref": "6640300002"}, "type": "Feature"}
{"geometry": {"coordinates": [-96.25783612, 39.872004098], "type": "Point"}, "id": "mo5-5O4FUV2npqbdvMDjYpu-pGE=", "properties": {"@spider": "usps_collection_boxes", "addr:city": "AXTELL", "addr:country": "US", "addr:full": "206 5TH ST", "addr:postcode": "66403", "addr:state": "KS", "amenity": "post_box", "brand": "United States Postal Service", "brand:wikidata": "Q668687", "collection_times": "Mo-Fr 14:00; Sa 09:00", "name": "USPS COLLECTION BOX - PO LOBBY", "note": "ON 12/24 AND 12/31, THIS BOX MAY BE COLLECTED AS EARLY AS 12 NOON.", "nsi_id": "unitedstatespostalservice-a77078", "operator": "United States Postal Service", "operator:short": "USPS", "operator:type": "public", "operator:wikidata": "Q668687", "ref": "6640300003"}, "type": "Feature"}
{"geometry": {"coordinates": [-96.184511, 39.843048], "type": "Point"}, "id": "BDjdImBbKId_UjBea1Oc8i9jKpk=", "properties": {"@spider": "usps_collection_boxes", "addr:city": "BAILEYVILLE", "addr:country": "US", "addr:full": "215 MAIN ST", "addr:postcode": "66404", "addr:state": "KS", "amenity": "post_box", "brand": "United States Postal Service", "brand:wikidata": "Q668687", "collection_times": "Mo-Fr 13:15; Sa 10:45", "name": "USPS COLLECTION BOX - BLUE BOX", "note": "ON 12/24 AND 12/31, THIS BOX MAY BE COLLECTED AS EARLY AS 12 NOON.", "nsi_id": "unitedstatespostalservice-a77078", "operator": "United States Postal Service", "operator:short": "USPS", "operator:type": "public", "operator:wikidata": "Q668687", "ref": "6640400001"}, "type": "Feature"}
{"geometry": {"coordinates": [-96.184511, 39.843048], "type": "Point"}, "id": "75GuK7JXdo6sf0-mQZmScqGf76s=", "properties": {"@spider": "usps_collection_boxes", "addr:city": "BAILEYVILLE", "addr:country": "US", "addr:full": "215 MAIN ST", "addr:postcode": "66404", "addr:state": "KS", "amenity": "post_box", "brand": "United States Postal Service", "brand:wikidata": "Q668687", "collection_times": "Mo-Fr 13:15; Sa 10:45", "name": "USPS COLLECTION BOX - PO LOBBY", "note": "ON 12/24 AND 12/31, THIS BOX MAY BE COLLECTED AS EARLY AS 12 NOON.", "nsi_id": "unitedstatespostalservice-a77078", "operator": "United States Postal Service", "operator:short": "USPS", "operator:type": "public", "operator:wikidata": "Q668687", "ref": "6640400002"}, "type": "Feature"}
{"geometry": {"coordinates": [-96.1844898148, 39.843090788], "type": "Point"}, "id": "PMm7rhsSTHUjT-B3UgegUT59jR8=", "properties": {"@spider": "usps_collection_boxes", "addr:city": "BAILEYVILLE", "addr:country": "US", "addr:full": "215 MAIN ST", "addr:postcode": "66404", "addr:state": "KS", "amenity": "post_box", "brand": "United States Postal Service", "brand:wikidata": "Q668687", "collection_times": "Mo-Fr 13:15; Sa 10:45", "name": "USPS COLLECTION BOX - PO LOBBY", "note": "ON 12/24 AND 12/31, THIS BOX MAY BE COLLECTED AS EARLY AS 12 NOON.", "nsi_id": "unitedstatespostalservice-a77078", "operator": "United States Postal Service", "operator:short": "USPS", "operator:type": "public", "operator:wikidata": "Q668687", "ref": "6640400003"}, "type": "Feature"}
{"geometry": {"coordinates": [-96.417046683, 39.860424639], "type": "Point"}, "id": "azE_48VSDoQVJ2KZUHc6z9t38Og=", "properties": {"@spider": "usps_collection_boxes", "addr:city": "BEATTIE", "addr:country": "US", "addr:full": "302 CENTER ST", "addr:postcode": "66406", "addr:state": "KS", "amenity": "post_box", "brand": "United States Postal Service", "brand:wikidata": "Q668687", "collection_times": "Mo-Fr 12:15; Sa 09:15", "name": "USPS COLLECTION BOX - BLUE BOX", "note": "ON 12/24 AND 12/31, THIS BOX MAY BE COLLECTED AS EARLY AS 12 NOON.", "nsi_id": "unitedstatespostalservice-a77078", "operator": "United States Postal Service", "operator:short": "USPS", "operator:type": "public", "operator:wikidata": "Q668687", "ref": "6640600001"}, "type": "Feature"}
{"geometry": {"coordinates": [-96.417046683, 39.860424639], "type": "Point"}, "id": "b5iy8MRGni3cHYRc-fxmyWpP0fE=", "properties": {"@spider": "usps_collection_boxes", "addr:city": "BEATTIE", "addr:country": "US", "addr:full": "302 CENTER ST", "addr:postcode": "66406", "addr:state": "KS", "amenity": "post_box", "brand": "United States Postal Service", "brand:wikidata": "Q668687", "collection_times": "Mo-Fr 12:15; Sa 09:15", "name": "USPS COLLECTION BOX - PO LOBBY", "note": "ON 12/24 AND 12/31, THIS BOX MAY BE COLLECTED AS EARLY AS 12 NOON.", "nsi_id": "unitedstatespostalservice-a77078", "operator": "United States Postal Service", "operator:short": "USPS", "operator:type": "public", "operator:wikidata": "Q668687", "ref": "6640600002"}, "type": "Feature"}
{"geometry": {"coordinates": [-96.417046683, 39.860424639], "type": "Point"}, "id": "YLIPMbCYIFFygPvmSIKdMipiMlg=", "properties": {"@spider": "usps_collection_boxes", "addr:city": "BEATTIE", "addr:country": "US", "addr:full": "302 CENTER ST", "addr:postcode": "66406", "addr:state": "KS", "amenity": "post_box", "brand": "United States Postal Service", "brand:wikidata": "Q668687", "collection_times": "Mo-Fr 12:15; Sa 09:15", "name": "USPS COLLECTION BOX - PO LOBBY", "note": "ON 12/24 AND 12/31, THIS BOX MAY BE COLLECTED AS EARLY AS 12 NOON.", "nsi_id": "unitedstatespostalservice-a77078", "operator": "United States Postal Service", "operator:short": "USPS", "operator:type": "public", "operator:wikidata": "Q668687", "ref": "6640600003"}, "type": "Feature"}
{"geometry": {"coordinates": [-96.178991, 39.215743], "type": "Point"}, "id": "hE8vFbAzRUtNRvSM0STOnXSigTI=", "properties": {"@spider": "usps_collection_boxes", "addr:city": "BELVUE", "addr:country": "US", "addr:full": "307 3RD ST", "addr:postcode": "66407", "addr:state": "KS", "amenity": "post_box", "brand": "United States Postal Service", "brand:wikidata": "Q668687", "collection_times": "Mo-Fr 10:45; Sa 08:45", "name": "USPS COLLECTION BOX - BLUE BOX", "nsi_id": "unitedstatespostalservice-a77078", "operator": "United States Postal Service", "operator:short": "USPS", "operator:type": "public", "operator:wikidata": "Q668687", "ref": "6640700001"}, "type": "Feature"}
{"geometry": {"coordinates": [-96.178991, 39.215743], "type": "Point"}, "id": "S9qGGJrHqLKIsZs6ptP0_DmN9h4=", "properties": {"@spider": "usps_collection_boxes", "addr:city": "BELVUE", "addr:country": "US", "addr:full": "307 3RD ST", "addr:postcode": "66407", "addr:state": "KS", "amenity": "post_box", "brand": "United States Postal Service", "brand:wikidata": "Q668687", "collection_times": "Mo-Fr 10:45; Sa 08:45", "name": "USPS COLLECTION BOX - PO LOBBY", "nsi_id": "unitedstatespostalservice-a77078", "operator": "United States Postal Service", "operator:short": "USPS", "operator:type": "public", "operator:wikidata": "Q668687", "ref": "6640700002"}, "type": "Feature"}
{"geometry": {"coordinates": [-96.1789905, 39.215739532], "type": "Point"}, "id": "Pc_LjceVn-ReteT8leEJEPcSJ4E=", "properties": {"@spider": "usps_collection_boxes", "addr:city": "BELVUE", "addr:country": "US", "addr:full": "307 3RD ST", "addr:postcode": "66407", "addr:state": "KS", "amenity": "post_box", "brand": "United States Postal Service", "brand:wikidata": "Q668687", "collection_times": "Mo-Fr 10:45; Sa 08:45", "name": "USPS COLLECTION BOX - PO LOBBY", "nsi_id": "unitedstatespostalservice-a77078", "operator": "United States Postal Service", "operator:short": "USPS", "operator:type": "public", "operator:wikidata": "Q668687", "ref": "6640700003"}, "type": "Feature"}
{"geometry": {"coordinates": [-95.971858, 39.962815], "type": "Point"}, "id": "erddAvRYLDymmMiQGmjc0elgokM=", "properties": {"@spider": "usps_collection_boxes", "addr:city": "BERN", "addr:country": "US", "addr:full": "403 MAIN ST", "addr:postcode": "66408", "addr:state": "KS", "amenity": "post_box", "brand": "United States Postal Service", "brand:wikidata": "Q668687", "collection_times": "Mo-Fr 11:30; Sa 09:30", "name": "USPS COLLECTION BOX - BLUE BOX", "nsi_id": "unitedstatespostalservice-a77078", "operator": "United States Postal Service", "operator:short": "USPS", "operator:type": "public", "operator:wikidata": "Q668687", "ref": "6640800001"}, "type": "Feature"}
{"geometry": {"coordinates": [-95.971858, 39.962815], "type": "Point"}, "id": "jrBuZDhAoBxGy7s3iNts0Nmrtq8=", "properties": {"@spider": "usps_collection_boxes", "addr:city": "BERN", "addr:country": "US", "addr:full": "403 MAIN ST", "addr:postcode": "66408", "addr:state": "KS", "amenity": "post_box", "brand": "United States Postal Service", "brand:wikidata": "Q668687", "collection_times": "Mo-Fr 11:30; Sa 09:00", "name": "USPS COLLECTION BOX - PO LOBBY", "nsi_id": "unitedstatespostalservice-a77078", "operator": "United States Postal Service", "operator:short": "USPS", "operator:type": "public", "operator:wikidata": "Q668687", "ref": "6640800002"}, "type": "Feature"}
{"geometry": {"coordinates": [-95.9719036433, 39.9627609689], "type": "Point"}, "id": "hj1DeusKW6Z3rWfzMuGhhHNj9BY=", "properties": {"@spider": "usps_collection_boxes", "addr:city": "BERN", "addr:country": "US", "addr:full": "403 MAIN ST", "addr:postcode": "66408", "addr:state": "KS", "amenity": "post_box", "brand": "United States Postal Service", "brand:wikidata": "Q668687", "collection_times": "Mo-Fr 11:30; Sa 09:00", "name": "USPS COLLECTION BOX - PO LOBBY", "nsi_id": "unitedstatespostalservice-a77078", "operator": "United States Postal Service", "operator:short": "USPS", "operator:type": "public", "operator:wikidata": "Q668687", "ref": "6640800003"}, "type": "Feature"}
{"geometry": {"coordinates": [-96.658737258, 39.681602016], "type": "Point"}, "id": "LEQZUOq5cKv50s9N9Rh2pI_0jPQ=", "properties": {"@spider": "usps_collection_boxes", "addr:city": "BLUE RAPIDS", "addr:country": "US", "addr:full": "22 PUBLIC SQ", "addr:postcode": "66411", "addr:state": "KS", "amenity": "post_box", "brand": "United States Postal Service", "brand:wikidata": "Q668687", "collection_times": "Mo-Fr 13:00; Sa 08:45", "name": "USPS COLLECTION BOX - BLUE BOX", "note": "ON 12/24 AND 12/31, THIS BOX MAY BE COLLECTED AS EARLY AS 12 NOON.", "nsi_id": "unitedstatespostalservice-a77078", "operator": "United States Postal Service", "operator:short": "USPS", "operator:type": "public", "operator:wikidata": "Q668687", "ref": "6641100001"}, "type": "Feature"}
{"geometry": {"coordinates": [-96.658737258, 39.681602016], "type": "Point"}, "id": "_YUDnYO-iBE2PkyKzKjCWzDokEA=", "properties": {"@spider": "usps_collection_boxes", "addr:city": "BLUE RAPIDS", "addr:country": "US", "addr:full": "22 PUBLIC SQ", "addr:postcode": "66411", "addr:state": "KS", "amenity": "post_box", "brand": "United States Postal Service", "brand:wikidata": "Q668687", "collection_times": "Mo-Fr 14:00; Sa 08:45", "name": "USPS COLLECTION BOX - PO LOBBY", "note": "ON 12/24 AND 12/31, THIS BOX MAY BE COLLECTED AS EARLY AS 12 NOON.", "nsi_id": "unitedstatespostalservice-a77078", "operator": "United States Postal Service", "operator:short": "USPS", "operator:type": "public", "operator:wikidata": "Q668687", "ref": "6641100002"}, "type": "Feature"}
{"geometry": {"coordinates": [-96.658737258, 39.681602016], "type": "Point"}, "id": "Sb2OY3AACagxBB-ug5vP09CO8WY=", "properties": {"@spider": "usps_collection_boxes", "addr:city": "BLUE RAPIDS", "addr:country": "US", "addr:full": "22 PUBLIC SQ", "addr:postcode": "66411", "addr:state": "KS", "amenity": "post_box", "brand": "United States Postal Service", "brand:wikidata": "Q668687", "collection_times": "Mo-Fr 14:00; Sa 08:45", "name": "USPS COLLECTION BOX - PO LOBBY", "note": "ON 12/24 AND 12/31, THIS BOX MAY BE COLLECTED AS EARLY AS 12 NOON.", "nsi_id": "unitedstatespostalservice-a77078", "operator": "United States Postal Service", "operator:short": "USPS", "operator:type": "public", "operator:wikidata": "Q668687", "ref": "6641100003"}, "type": "Feature"}
{"geometry": {"coordinates": [-96.789119, 39.901333], "type": "Point"}, "id": "Ro-ogpqY8_-w20BBUMtZOP998HE=", "properties": {"@spider": "usps_collection_boxes", "addr:city": "BREMEN", "addr:country": "US", "addr:full": "107 BRENNEKE ST", "addr:postcode": "66412", "addr:state": "KS", "amenity": "post_box", "brand": "United States Postal Service", "brand:wikidata": "Q668687", "collection_times": "Mo-Fr 13:00; Sa 11:15", "name": "USPS COLLECTION BOX - BLUE BOX", "note": "ON 12/24 AND 12/31, THIS BOX MAY BE COLLECTED AS EARLY AS 12 NOON.", "nsi_id": "unitedstatespostalservice-a77078", "operator": "United States Postal Service", "operator:short": "USPS", "operator:type": "public", "operator:wikidata": "Q668687", "ref": "6641200001"}, "type": "Feature"}
{"geometry": {"coordinates": [-96.789098, 39.901991], "type": "Point"}, "id": "pDlXYpJ39SYbLRUioVFGgRDGIDk=", "properties": {"@spider": "usps_collection_boxes", "addr:city": "BREMEN", "addr:country": "US", "addr:full": "107 BRENNEKE ST", "addr:postcode": "66412", "addr:state": "KS", "amenity": "post_box", "brand": "United States Postal Service", "brand:wikidata": "Q668687", "collection_times": "Mo-Fr 13:00; Sa 11:15", "name": "USPS COLLECTION BOX - PO LOBBY", "note": "ON 12/24 AND 12/31, THIS BOX MAY BE COLLECTED AS EARLY AS 12 NOON.", "nsi_id": "unitedstatespostalservice-a77078", "operator": "United States Postal Service", "operator:short": "USPS", "operator:type": "public", "operator:wikidata": "Q668687", "ref": "6641200002"}, "type": "Feature"}
{"geometry": {"coordinates": [-96.789125493, 39.902013056], "type": "Point"}, "id": "m1l-krnHq7NaniXDku1cN1qdySw=", "properties": {"@spider": "usps_collection_boxes", "addr:city": "BREMEN", "addr:country": "US", "addr:full": "107 BRENNEKE", "addr:postcode": "66412", "addr:state": "KS", "amenity": "post_box", "brand": "United States Postal Service", "brand:wikidata": "Q668687", "collection_times": "Mo-Fr 13:00; Sa 11:15", "name": "USPS COLLECTION BOX - PO LOBBY", "note": "ON 12/24 AND 12/31, THIS BOX MAY BE COLLECTED AS EARLY AS 12 NOON.", "nsi_id": "unitedstatespostalservice-a77078", "operator": "United States Postal Service", "operator:short": "USPS", "operator:type": "public", "operator:wikidata": "Q668687", "ref": "6641200003"}, "type": "Feature"}
{"geometry": {"coordinates": [-95.834675705, 38.75268555], "type": "Point"}, "id": "VUFO9ITiPQpXuZcqhptDIjT3hH4=", "properties": {"@spider": "usps_collection_boxes", "addr:city": "BURLINGAME", "addr:country": "US", "addr:full": "123 S TOPEKA AVE", "addr:postcode": "66413", "addr:state": "KS", "amenity": "post_box", "brand": "United States Postal Service", "brand:wikidata": "Q668687", "collection_times": "Mo-Fr 14:00; Sa 09:15", "name": "USPS COLLECTION BOX - PO LOBBY", "note": "ON 12/24 AND 12/31, THIS BOX MAY BE COLLECTED AS EARLY AS 12 NOON.", "nsi_id": "unitedstatespostalservice-a77078", "operator": "United States Postal Service", "operator:short": "USPS", "operator:type": "public", "operator:wikidata": "Q668687", "ref": "6641300003"}, "type": "Feature"}
{"geometry": {"coordinates": [-95.834675705, 38.75268555], "type": "Point"}, "id": "7cwggUaqBb-QG5JwshNMJoS0tjs=", "properties": {"@spider": "usps_collection_boxes", "addr:city": "BURLINGAME", "addr:country": "US", "addr:full": "123 S TOPEKA AVE", "addr:postcode": "66413", "addr:state": "KS", "amenity": "post_box", "brand": "United States Postal Service", "brand:wikidata": "Q668687", "collection_times": "Mo-Fr 14:00; Sa 09:15", "name": "USPS COLLECTION BOX - BLUE BOX", "note": "ON 12/24 AND 12/31, THIS BOX MAY BE COLLECTED AS EARLY AS 12 NOON.", "nsi_id": "unitedstatespostalservice-a77078", "operator": "United States Postal Service", "operator:short": "USPS", "operator:type": "public", "operator:wikidata": "Q668687", "ref": "6641300004"}, "type": "Feature"}
{"geometry": {"coordinates": [-95.834675705, 38.75268555], "type": "Point"}, "id": "Py9wsluI87TGxg1iK8s_eimZbQ0=", "properties": {"@spider": "usps_collection_boxes", "addr:city": "BURLINGAME", "addr:country": "US", "addr:full": "123 S TOPEKA AVE", "addr:postcode": "66413", "addr:state": "KS", "amenity": "post_box", "brand": "United States Postal Service", "brand:wikidata": "Q668687", "collection_times": "Mo-Fr 14:00; Sa 09:15", "name": "USPS COLLECTION BOX - PO LOBBY", "note": "ON 12/24 AND 12/31, THIS BOX MAY BE COLLECTED AS EARLY AS 12 NOON.", "nsi_id": "unitedstatespostalservice-a77078", "operator": "United States Postal Service", "operator:short": "USPS", "operator:type": "public", "operator:wikidata": "Q668687", "ref": "6641300005"}, "type": "Feature"}
{"geometry": {"coordinates": [-96.130046554, 39.72269344], "type": "Point"}, "id": "imCHFgIih6UdD4KwbFonAg0DXSc=", "properties": {"@spider": "usps_collection_boxes", "addr:city": "CENTRALIA", "addr:country": "US", "addr:full": "505 4TH ST", "addr:postcode": "66415", "addr:state": "KS", "amenity": "post_box", "brand": "United States Postal Service", "brand:wikidata": "Q668687", "collection_times": "Mo-Fr 11:45; Sa 09:15", "name": "USPS COLLECTION BOX - BLUE BOX", "nsi_id": "unitedstatespostalservice-a77078", "operator": "United States Postal Service", "operator:short": "USPS", "operator:type": "public", "operator:wikidata": "Q668687", "ref": "6641500001"}, "type": "Feature"}
{"geometry": {"coordinates": [-96.130046554, 39.72269344], "type": "Point"}, "id": "w0DlgJHwlustotkTClwU37A1f14=", "properties": {"@spider": "usps_collection_boxes", "addr:city": "CENTRALIA", "addr:country": "US", "addr:full": "505 4TH ST", "addr:postcode": "66415", "addr:state": "KS", "amenity": "post_box", "brand": "United States Postal Service", "brand:wikidata": "Q668687", "collection_times": "Mo-Fr 11:45; Sa 09:15", "name": "USPS COLLECTION BOX - PO LOBBY", "nsi_id": "unitedstatespostalservice-a77078", "operator": "United States Postal Service", "operator:short": "USPS", "operator:type": "public", "operator:wikidata": "Q668687", "ref": "6641500002"}, "type": "Feature"}
{"geometry": {"coordinates": [-96.130046554, 39.72269344], "type": "Point"}, "id": "O16aX9bDYBNUs88yak2vdkCuqhw=", "properties": {"@spider": "usps_collection_boxes", "addr:city": "CENTRALIA", "addr:country": "US", "addr:full": "505 4TH ST", "addr:postcode": "66415", "addr:state": "KS", "amenity": "post_box", "brand": "United States Postal Service", "brand:wikidata": "Q668687", "collection_times": "Mo-Fr 11:45; Sa 09:15", "name": "USPS COLLECTION BOX - PO LOBBY", "nsi_id": "unitedstatespostalservice-a77078", "operator": "United States Postal Service", "operator:short": "USPS", "operator:type": "public", "operator:wikidata": "Q668687", "ref": "6641500003"}, "type": "Feature"}
{"geometry": {"coordinates": [-96.107633, 38.860089], "type": "Point"}, "id": "gn5owmEpeP7d-eD7lV8F9p84kg0=", "properties": {"@spider": "usps_collection_boxes", "addr:city": "ESKRIDGE", "addr:country": "US", "addr:full": "122 S MAIN ST", "addr:postcode": "66423", "addr:state": "KS", "amenity": "post_box", "brand": "United States Postal Service", "brand:wikidata": "Q668687", "collection_times": "Mo-Fr 11:15; Sa 08:45", "name": "USPS COLLECTION BOX - BLUE BOX", "nsi_id": "unitedstatespostalservice-a77078", "operator": "United States Postal Service", "operator:short": "USPS", "operator:type": "public", "operator:wikidata": "Q668687", "ref": "6642300001"}, "type": "Feature"}
{"geometry": {"coordinates": [-96.1078990046, 38.8595120091], "type": "Point"}, "id": "6QfFeiISXeGH6NTWT8qtK-4Qm9c=", "properties": {"@spider": "usps_collection_boxes", "addr:city": "ESKRIDGE", "addr:country": "US", "addr:full": "122 S MAIN ST", "addr:postcode": "66423", "addr:state": "KS", "amenity": "post_box", "brand": "United States Postal Service", "brand:wikidata": "Q668687", "collection_times": "Mo-Fr 11:15; Sa 08:45", "name": "USPS COLLECTION BOX - PO LOBBY", "nsi_id": "unitedstatespostalservice-a77078", "operator": "United States Postal Service", "operator:short": "USPS", "operator:type": "public", "operator:wikidata": "Q668687", "ref": "6642300002"}, "type": "Feature"}
{"geometry": {"coordinates": [-96.1078990046, 38.8595120091], "type": "Point"}, "id": "yvA3henaJIg5m778lVaGX1kYcHU=", "properties": {"@spider": "usps_collection_boxes", "addr:city": "ESKRIDGE", "addr:country": "US", "addr:full": "122 S MAIN ST", "addr:postcode": "66423", "addr:state": "KS", "amenity": "post_box", "brand": "United States Postal Service", "brand:wikidata": "Q668687", "collection_times": "Mo-Fr 11:15; Sa 08:45", "name": "USPS COLLECTION BOX - PO LOBBY", "nsi_id": "unitedstatespostalservice-a77078", "operator": "United States Postal Service", "operator:short": "USPS", "operator:type": "public", "operator:wikidata": "Q668687", "ref": "6642300003"}, "type": "Feature"}
{"geometry": {"coordinates": [-95.728217, 39.839928], "type": "Point"}, "id": "6X4JBU4EkoWhBS1hX2FFoWMPjg0=", "properties": {"@spider": "usps_collection_boxes", "addr:city": "FAIRVIEW", "addr:country": "US", "addr:full": "210 S WALNUT ST", "addr:postcode": "66425", "addr:state": "KS", "amenity": "post_box", "brand": "United States Postal Service", "brand:wikidata": "Q668687", "collection_times": "Mo-Fr 13:30; Sa 11:30", "name": "USPS COLLECTION BOX - BLUE BOX", "note": "ON 12/24 AND 12/31, THIS BOX MAY BE COLLECTED AS EARLY AS 12 NOON.", "nsi_id": "unitedstatespostalservice-a77078", "operator": "United States Postal Service", "operator:short": "USPS", "operator:type": "public", "operator:wikidata": "Q668687", "ref": "6642500001"}, "type": "Feature"}
{"geometry": {"coordinates": [-95.728217, 39.839928], "type": "Point"}, "id": "iD2HKrhZuQ-XyV7ZxyEKVTk4nTw=", "properties": {"@spider": "usps_collection_boxes", "addr:city": "FAIRVIEW", "addr:country": "US", "addr:full": "210 S WALNUT ST", "addr:postcode": "66425", "addr:state": "KS", "amenity": "post_box", "brand": "United States Postal Service", "brand:wikidata": "Q668687", "collection_times": "Mo-Fr 13:30; Sa 11:30", "name": "USPS COLLECTION BOX - PO LOBBY", "note": "ON 12/24 AND 12/31, THIS BOX MAY BE COLLECTED AS EARLY AS 12 NOON.", "nsi_id": "unitedstatespostalservice-a77078", "operator": "United States Postal Service", "operator:short": "USPS", "operator:type": "public", "operator:wikidata": "Q668687", "ref": "6642500002"}, "type": "Feature"}
{"geometry": {"coordinates": [-95.728193118, 39.839939183], "type": "Point"}, "id": "Adn1yHovIp8XHpyRD3XnFwN-1J4=", "properties": {"@spider": "usps_collection_boxes", "addr:city": "FAIRVIEW", "addr:country": "US", "addr:full": "210 S WALNUT ST", "addr:postcode": "66425", "addr:state": "KS", "amenity": "post_box", "brand": "United States Postal Service", "brand:wikidata": "Q668687", "collection_times": "Mo-Fr 13:30; Sa 11:30", "name": "USPS COLLECTION BOX - PO LOBBY", "note": "ON 12/24 AND 12/31, THIS BOX MAY BE COLLECTED AS EARLY AS 12 NOON.", "nsi_id": "unitedstatespostalservice-a77078", "operator": "United States Postal Service", "operator:short": "USPS", "operator:type": "public", "operator:wikidata": "Q668687", "ref": "6642500003"}, "type": "Feature"}
{"geometry": {"coordinates": [-96.4203430284, 39.7022395101], "type": "Point"}, "id": "hYa6An-fYD8DJjb77SE1AlNIH20=", "properties": {"@spider": "usps_collection_boxes", "addr:city": "FRANKFORT", "addr:country": "US", "addr:full": "137 W 2ND ST", "addr:postcode": "66427", "addr:state": "KS", "amenity": "post_box", "brand": "United States Postal Service", "brand:wikidata": "Q668687", "collection_times": "Mo-Fr 14:00; Sa 08:45", "name": "USPS COLLECTION BOX - BLUE BOX", "note": "ON 12/24 AND 12/31, THIS BOX MAY BE COLLECTED AS EARLY AS 12 NOON.", "nsi_id": "unitedstatespostalservice-a77078", "operator": "United States Postal Service", "operator:short": "USPS", "operator:type": "public", "operator:wikidata": "Q668687", "ref": "6642700002"}, "type": "Feature"}
{"geometry": {"coordinates": [-96.4203430284, 39.7022395101], "type": "Point"}, "id": "z2aCVbbwo2QaIyo4LKyck1tctyY=", "properties": {"@spider": "usps_collection_boxes", "addr:city": "FRANKFORT", "addr:country": "US", "addr:full": "137 W 2ND ST", "addr:postcode": "66427", "addr:state": "KS", "amenity": "post_box", "brand": "United States Postal Service", "brand:wikidata": "Q668687", "collection_times": "Mo-Fr 14:00; Sa 08:45", "name": "USPS COLLECTION BOX - PO LOBBY", "note": "ON 12/24 AND 12/31, THIS BOX MAY BE COLLECTED AS EARLY AS 12 NOON.", "nsi_id": "unitedstatespostalservice-a77078", "operator": "United States Postal Service", "operator:short": "USPS", "operator:type": "public", "operator:wikidata": "Q668687", "ref": "6642700003"}, "type": "Feature"}
{"geometry": {"coordinates": [-96.4203430284, 39.7022395101], "type": "Point"}, "id": "NllS2JazckFzICDFBLq4LTA5-T8=", "properties": {"@spider": "usps_collection_boxes", "addr:city": "FRANKFORT", "addr:country": "US", "addr:full": "137 W 2ND ST", "addr:postcode": "66427", "addr:state": "KS", "amenity": "post_box", "brand": "United States Postal Service", "brand:wikidata": "Q668687", "collection_times": "Mo-Fr 14:00; Sa 08:45", "name": "USPS COLLECTION BOX - PO LOBBY", "note": "ON 12/24 AND 12/31, THIS BOX MAY BE COLLECTED AS EARLY AS 12 NOON.", "nsi_id": "unitedstatespostalservice-a77078", "operator": "United States Postal Service", "operator:short": "USPS", "operator:type": "public", "operator:wikidata": "Q668687", "ref": "6642700004"}, "type": "Feature"}
{"geometry": {"coordinates": [-95.96015, 38.791544], "type": "Point"}, "id": "1ERxNReDxQHKIUxzIKInjG7eMfc=", "properties": {"@spider": "usps_collection_boxes", "addr:city": "HARVEYVILLE", "addr:country": "US", "addr:full": "185 MAIN ST", "addr:postcode": "66431", "addr:state": "KS", "amenity": "post_box", "brand": "United States Postal Service", "brand:wikidata": "Q668687", "collection_times": "Mo-Fr 11:30; Sa 09:30", "name": "USPS COLLECTION BOX - BLUE BOX", "nsi_id": "unitedstatespostalservice-a77078", "operator": "United States Postal Service", "operator:short": "USPS", "operator:type": "public", "operator:wikidata": "Q668687", "ref": "6643100001"}, "type": "Feature"}
{"geometry": {"coordinates": [-95.96015, 38.791544], "type": "Point"}, "id": "d40mcN6NZe0rdPOmhfP9Xv_Sccg=", "properties": {"@spider": "usps_collection_boxes", "addr:city": "HARVEYVILLE", "addr:country": "US", "addr:full": "185 MAIN ST", "addr:postcode": "66431", "addr:state": "KS", "amenity": "post_box", "brand": "United States Postal Service", "brand:wikidata": "Q668687", "collection_times": "Mo-Fr 11:30; Sa 09:30", "name": "USPS COLLECTION BOX - PO LOBBY", "nsi_id": "unitedstatespostalservice-a77078", "operator": "United States Postal Service", "operator:short": "USPS", "operator:type": "public", "operator:wikidata": "Q668687", "ref": "6643100002"}, "type": "Feature"}
{"geometry": {"coordinates": [-95.960178919, 38.791514455], "type": "Point"}, "id": "AAcPGbyp57irmRH-eFA5yvRQhC4=", "properties": {"@spider": "usps_collection_boxes", "addr:city": "HARVEYVILLE", "addr:country": "US", "addr:full": "185 MAIN ST", "addr:postcode": "66431", "addr:state": "KS", "amenity": "post_box", "brand": "United States Postal Service", "brand:wikidata": "Q668687", "collection_times": "Mo-Fr 11:30; Sa 09:30", "name": "USPS COLLECTION BOX - PO LOBBY", "nsi_id": "unitedstatespostalservice-a77078", "operator": "United States Postal Service", "operator:short": "USPS", "operator:type": "public", "operator:wikidata": "Q668687", "ref": "6643100003"}, "type": "Feature"}
{"geometry": {"coordinates": [-96.521422, 39.840553], "type": "Point"}, "id": "i829dRZdhLuvLElfW1nbL2DwHcg=", "properties": {"@spider": "usps_collection_boxes", "addr:city": "HOME", "addr:country": "US", "addr:full": "213 2ND ST", "addr:postcode": "66438", "addr:state": "KS", "amenity": "post_box", "brand": "United States Postal Service", "brand:wikidata": "Q668687", "collection_times": "Mo-Fr 12:00", "name": "USPS COLLECTION BOX - BLUE BOX", "nsi_id": "unitedstatespostalservice-a77078", "operator": "United States Postal Service", "operator:short": "USPS", "operator:type": "public", "operator:wikidata": "Q668687", "ref": "6643800001"}, "type": "Feature"}
{"geometry": {"coordinates": [-96.521422, 39.840553], "type": "Point"}, "id": "RlkCsT5uC5dcesorX_4J9UZbNRA=", "properties": {"@spider": "usps_collection_boxes", "addr:city": "HOME", "addr:country": "US", "addr:full": "213 2ND ST", "addr:postcode": "66438", "addr:state": "KS", "amenity": "post_box", "brand": "United States Postal Service", "brand:wikidata": "Q668687", "collection_times": "Mo-Fr 12:00", "name": "USPS COLLECTION BOX - PO LOBBY", "nsi_id": "unitedstatespostalservice-a77078", "operator": "United States Postal Service", "operator:short": "USPS", "operator:type": "public", "operator:wikidata": "Q668687", "ref": "6643800002"}, "type": "Feature"}
{"geometry": {"coordinates": [-96.5214219446, 39.8405465323], "type": "Point"}, "id": "g7UhNUFMPe32TEH7idxl9c-nHGQ=", "properties": {"@spider": "usps_collection_boxes", "addr:city": "HOME", "addr:country": "US", "addr:full": "213 2ND ST", "addr:postcode": "66438", "addr:state": "KS", "amenity": "post_box", "brand": "United States Postal Service", "brand:wikidata": "Q668687", "collection_times": "Mo-Fr 12:00", "name": "USPS COLLECTION BOX - PO LOBBY", "nsi_id": "unitedstatespostalservice-a77078", "operator": "United States Postal Service", "operator:short": "USPS", "operator:type": "public", "operator:wikidata": "Q668687", "ref": "6643800003"}, "type": "Feature"}
{"geometry": {"coordinates": [-96.833403, 39.02939], "type": "Point"}, "id": "F3-CayhdD1rY6qBX6ECInoTo91k=", "properties": {"@spider": "usps_collection_boxes", "addr:city": "JUNCTION CITY", "addr:country": "US", "addr:full": "700 N ADAMS ST", "addr:postcode": "66441", "addr:state": "KS", "amenity": "post_box", "brand": "United States Postal Service", "brand:wikidata": "Q668687", "collection_times": "Mo-Fr 14:30; Sa 13:00", "name": "USPS COLLECTION BOX - BLUE BOX", "note": "ON 12/24 AND 12/31, THIS BOX MAY BE COLLECTED AS EARLY AS 12 NOON.", "nsi_id": "unitedstatespostalservice-a77078", "operator": "United States Postal Service", "operator:short": "USPS", "operator:type": "public", "operator:wikidata": "Q668687", "ref": "6644100004"}, "type": "Feature"}
{"geometry": {"coordinates": [-96.8296641, 39.029351], "type": "Point"}, "id": "VB59KoC6UylWw7vtBfpAfU6_u1Y=", "properties": {"@spider": "usps_collection_boxes", "addr:city": "JUNCTION CITY", "addr:country": "US", "addr:full": "702 N WASHINGTON ST", "addr:postcode": "66441", "addr:state": "KS", "amenity": "post_box", "brand": "United States Postal Service", "brand:wikidata": "Q668687", "collection_times": "Mo-Sa 13:30", "name": "USPS COLLECTION BOX - BLUE BOX", "note": "ON 12/24 AND 12/31, THIS BOX MAY BE COLLECTED AS EARLY AS 12 NOON.", "nsi_id": "unitedstatespostalservice-a77078", "operator": "United States Postal Service", "operator:short": "USPS", "operator:type": "public", "operator:wikidata": "Q668687", "ref": "6644100009"}, "type": "Feature"}
{"geometry": {"coordinates": [-96.8471527, 39.028365], "type": "Point"}, "id": "OCBKCviZ4cR3_V3bdf_lQWAJSyA=", "properties": {"@spider": "usps_collection_boxes", "addr:city": "JUNCTION CITY", "addr:country": "US", "addr:full": "1000 W 6TH ST", "addr:postcode": "66441", "addr:state": "KS", "amenity": "post_box", "brand": "United States Postal Service", "brand:wikidata": "Q668687", "collection_times": "Mo-Sa 13:00", "name": "USPS COLLECTION BOX - BLUE BOX", "note": "ON 12/24 AND 12/31, THIS BOX MAY BE COLLECTED AS EARLY AS 12 NOON.", "nsi_id": "unitedstatespostalservice-a77078", "operator": "United States Postal Service", "operator:short": "USPS", "operator:type": "public", "operator:wikidata": "Q668687", "ref": "6644100010"}, "type": "Feature"}
{"geometry": {"coordinates": [-96.8409278, 39.028534], "type": "Point"}, "id": "0uZkJAR_j73XC4MMHMeH6S9jX6Q=", "properties": {"@spider": "usps_collection_boxes", "addr:city": "JUNCTION CITY", "addr:country": "US", "addr:full": "614 W 6TH ST", "addr:postcode": "66441", "addr:state": "KS", "amenity": "post_box", "brand": "United States Postal Service", "brand:wikidata": "Q668687", "collection_times": "Mo-Sa 14:00", "name": "USPS COLLECTION BOX - BLUE BOX", "note": "ON 12/24 AND 12/31, THIS BOX MAY BE COLLECTED AS EARLY AS 12 NOON.", "nsi_id": "unitedstatespostalservice-a77078", "operator": "United States Postal Service", "operator:short": "USPS", "operator:type": "public", "operator:wikidata": "Q668687", "ref": "6644100011"}, "type": "Feature"}
{"geometry": {"coordinates": [-96.8296764, 39.030402], "type": "Point"}, "id": "AeWkFAS5i1T-JW_0gslbpnZlhDg=", "properties": {"@spider": "usps_collection_boxes", "addr:city": "JUNCTION CITY", "addr:country": "US", "addr:full": "800 N WASHINGTON ST", "addr:postcode": "66441", "addr:state": "KS", "amenity": "post_box", "brand": "United States Postal Service", "brand:wikidata": "Q668687", "collection_times": "Mo-Sa 13:30", "name": "USPS COLLECTION BOX - BLUE BOX", "note": "ON 12/24 AND 12/31, THIS BOX MAY BE COLLECTED AS EARLY AS 12 NOON.", "nsi_id": "unitedstatespostalservice-a77078", "operator": "United States Postal Service", "operator:short": "USPS", "operator:type": "public", "operator:wikidata": "Q668687", "ref": "6644100013"}, "type": "Feature"}
{"geometry": {"coordinates": [-96.833962, 39.029328], "type": "Point"}, "id": "TQltC7pposQPuZoGMEwplgL59JM=", "properties": {"@spider": "usps_collection_boxes", "addr:city": "JUNCTION CITY", "addr:country": "US", "addr:full": "302 W 7TH ST", "addr:postcode": "66441", "addr:state": "KS", "amenity": "post_box", "brand": "United States Postal Service", "brand:wikidata": "Q668687", "collection_times": "Mo-Fr 14:30; Sa 13:00", "name": "USPS COLLECTION BOX - PO LOBBY", "note": "ON 12/24 AND 12/31, THIS BOX MAY BE COLLECTED AS EARLY AS 12 NOON.", "nsi_id": "unitedstatespostalservice-a77078", "operator": "United States Postal Service", "operator:short": "USPS", "operator:type": "public", "operator:wikidata": "Q668687", "ref": "6644100019"}, "type": "Feature"}
{"geometry": {"coordinates": [-96.833961, 39.029325504], "type": "Point"}, "id": "gIWZpiQbn9jhoBh64ehp4qqz2E4=", "properties": {"@spider": "usps_collection_boxes", "addr:city": "JUNCTION CITY", "addr:country": "US", "addr:full": "302 W 7TH ST", "addr:postcode": "66441", "addr:state": "KS", "amenity": "post_box", "brand": "United States Postal Service", "brand:wikidata": "Q668687", "collection_times": "Mo-Fr 14:30; Sa 12:00", "name": "USPS COLLECTION BOX - PO LOBBY", "note": "ON 12/24 AND 12/31, THIS BOX MAY BE COLLECTED AS EARLY AS 12 NOON.", "nsi_id": "unitedstatespostalservice-a77078", "operator": "United States Postal Service", "operator:short": "USPS", "operator:type": "public", "operator:wikidata": "Q668687", "ref": "6644100026"}, "type": "Feature"}
{"geometry": {"coordinates": [-96.801102, 39.096431], "type": "Point"}, "id": "DHDGyFfiSM5ICy5vvQMOV2zPXu4=", "properties": {"@spider": "usps_collection_boxes", "addr:city": "FORT RILEY", "addr:country": "US", "addr:full": "5302 ASHBY AVE", "addr:postcode": "66442", "addr:state": "KS", "amenity": "post_box", "brand": "United States Postal Service", "brand:wikidata": "Q668687", "collection_times": "Mo-Fr 14:30; Sa 12:00", "name": "USPS COLLECTION BOX - BLUE BOX", "note": "ON 12/24 AND 12/31, THIS BOX MAY BE COLLECTED AS EARLY AS 12 NOON.", "nsi_id": "unitedstatespostalservice-a77078", "operator": "United States Postal Service", "operator:short": "USPS", "operator:type": "public", "operator:wikidata": "Q668687", "ref": "6644200001"}, "type": "Feature"}
{"geometry": {"coordinates": [-96.801102, 39.096431], "type": "Point"}, "id": "m2nixEfrTv70kXwmyVU2l2oB_Lk=", "properties": {"@spider": "usps_collection_boxes", "addr:city": "FORT RILEY", "addr:country": "US", "addr:full": "5302 ASHBY AVE", "addr:postcode": "66442", "addr:state": "KS", "amenity": "post_box", "brand": "United States Postal Service", "brand:wikidata": "Q668687", "collection_times": "Mo-Fr 14:30; Sa 12:00", "name": "USPS COLLECTION BOX - PO LOBBY", "note": "ON 12/24 AND 12/31, THIS BOX MAY BE COLLECTED AS EARLY AS 12 NOON.", "nsi_id": "unitedstatespostalservice-a77078", "operator": "United States Postal Service", "operator:short": "USPS", "operator:type": "public", "operator:wikidata": "Q668687", "ref": "6644200010"}, "type": "Feature"}
{"geometry": {"coordinates": [-96.801057287, 39.096447465], "type": "Point"}, "id": "N3Lw1DFXH-WRz72ElXq6XVMuy3c=", "properties": {"@spider": "usps_collection_boxes", "addr:city": "FORT RILEY", "addr:country": "US", "addr:full": "5302 ASHBY AVE", "addr:postcode": "66442", "addr:state": "KS", "amenity": "post_box", "brand": "United States Postal Service", "brand:wikidata": "Q668687", "collection_times": "Mo-Fr 14:30; Sa 12:00", "name": "USPS COLLECTION BOX - PO LOBBY", "note": "ON 12/24 AND 12/31, THIS BOX MAY BE COLLECTED AS EARLY AS 12 NOON.", "nsi_id": "unitedstatespostalservice-a77078", "operator": "United States Postal Service", "operator:short": "USPS", "operator:type": "public", "operator:wikidata": "Q668687", "ref": "6644200015"}, "type": "Feature"}
{"geometry": {"coordinates": [-96.859037, 39.364392], "type": "Point"}, "id": "rjjs09Wx3LAwuJx5_hZpt9JAPjA=", "properties": {"@spider": "usps_collection_boxes", "addr:city": "LEONARDVILLE", "addr:country": "US", "addr:full": "103 W BARTON RD", "addr:postcode": "66449", "addr:state": "KS", "amenity": "post_box", "brand": "United States Postal Service", "brand:wikidata": "Q668687", "collection_times": "Mo-Fr 12:30; Sa 09:45", "name": "USPS COLLECTION BOX - BLUE BOX", "note": "ON 12/24 AND 12/31, THIS BOX MAY BE COLLECTED AS EARLY AS 12 NOON.", "nsi_id": "unitedstatespostalservice-a77078", "operator": "United States Postal Service", "operator:short": "USPS", "operator:type": "public", "operator:wikidata": "Q668687", "ref": "6644900001"}, "type": "Feature"}
{"geometry": {"coordinates": [-96.859037, 39.364392], "type": "Point"}, "id": "96q2zCX-8J7Mf5YNJ_Z__aX0Tu4=", "properties": {"@spider": "usps_collection_boxes", "addr:city": "LEONARDVILLE", "addr:country": "US", "addr:full": "103 W BARTON RD", "addr:postcode": "66449", "addr:state": "KS", "amenity": "post_box", "brand": "United States Postal Service", "brand:wikidata": "Q668687", "collection_times": "Mo-Fr 12:30; Sa 09:45", "name": "USPS COLLECTION BOX - PO LOBBY", "note": "ON 12/24 AND 12/31, THIS BOX MAY BE COLLECTED AS EARLY AS 12 NOON.", "nsi_id": "unitedstatespostalservice-a77078", "operator": "United States Postal Service", "operator:short": "USPS", "operator:type": "public", "operator:wikidata": "Q668687", "ref": "6644900002"}, "type": "Feature"}
{"geometry": {"coordinates": [-96.859471332, 39.364381508], "type": "Point"}, "id": "PNxgj8tS9ZfHg6E_B8IrmBYuwaE=", "properties": {"@spider": "usps_collection_boxes", "addr:city": "LEONARDVILLE", "addr:country": "US", "addr:full": "103 W BARTON RD", "addr:postcode": "66449", "addr:state": "KS", "amenity": "post_box", "brand": "United States Postal Service", "brand:wikidata": "Q668687", "collection_times": "Mo-Fr 12:30; Sa 09:45", "name": "USPS COLLECTION BOX - PO LOBBY", "note": "ON 12/24 AND 12/31, THIS BOX MAY BE COLLECTED AS EARLY AS 12 NOON.", "nsi_id": "unitedstatespostalservice-a77078", "operator": "United States Postal Service", "operator:short": "USPS", "operator:type": "public", "operator:wikidata": "Q668687", "ref": "6644900003"}, "type": "Feature"}
{"geometry": {"coordinates": [-95.684469, 38.610073], "type": "Point"}, "id": "T20oTRfwV36wJ9VDc9k9fEcht9U=", "properties": {"@spider": "usps_collection_boxes", "addr:city": "LYNDON", "addr:country": "US", "addr:full": "712 TOPEKA AVE", "addr:postcode": "66451", "addr:state": "KS", "amenity": "post_box", "brand": "United States Postal Service", "brand:wikidata": "Q668687", "collection_times": "Mo-Fr 14:15; Sa 13:00", "name": "USPS COLLECTION BOX - BLUE BOX", "note": "ON 12/24 AND 12/31, THIS BOX MAY BE COLLECTED AS EARLY AS 12 NOON.", "nsi_id": "unitedstatespostalservice-a77078", "operator": "United States Postal Service", "operator:short": "USPS", "operator:type": "public", "operator:wikidata": "Q668687", "ref": "6645100001"}, "type": "Feature"}
{"geometry": {"coordinates": [-95.684469, 38.610073], "type": "Point"}, "id": "bFDXI2S7Tp9dWDdcWJexhfi2GnM=", "properties": {"@spider": "usps_collection_boxes", "addr:city": "LYNDON", "addr:country": "US", "addr:full": "712 TOPEKA AVE", "addr:postcode": "66451", "addr:state": "KS", "amenity": "post_box", "brand": "United States Postal Service", "brand:wikidata": "Q668687", "collection_times": "Mo-Fr 14:15; Sa 13:00", "name": "USPS COLLECTION BOX - PO LOBBY", "note": "ON 12/24 AND 12/31, THIS BOX MAY BE COLLECTED AS EARLY AS 12 NOON.", "nsi_id": "unitedstatespostalservice-a77078", "operator": "United States Postal Service", "operator:short": "USPS", "operator:type": "public", "operator:wikidata": "Q668687", "ref": "6645100002"}, "type": "Feature"}
{"geometry": {"coordinates": [-95.684478603, 38.610260801], "type": "Point"}, "id": "jdQ98vcF5sxjq6eWOWqoQAmQle8=", "properties": {"@spider": "usps_collection_boxes", "addr:city": "LYNDON", "addr:country": "US", "addr:full": "712 TOPEKA AVE", "addr:postcode": "66451", "addr:state": "KS", "amenity": "post_box", "brand": "United States Postal Service", "brand:wikidata": "Q668687", "collection_times": "Mo-Fr 14:15; Sa 13:00", "name": "USPS COLLECTION BOX - PO LOBBY", "note": "ON 12/24 AND 12/31, THIS BOX MAY BE COLLECTED AS EARLY AS 12 NOON.", "nsi_id": "unitedstatespostalservice-a77078", "operator": "United States Postal Service", "operator:short": "USPS", "operator:type": "public", "operator:wikidata": "Q668687", "ref": "6645100004"}, "type": "Feature"}
