{"geometry": {"coordinates": [-96.5642038324, 39.1815164788], "type": "Point"}, "id": "r3vHng6pslQMH7OK3deltlcnPyA=", "properties": {"@spider": "usps_collection_boxes", "addr:city": "MANHATTAN", "addr:country": "US", "addr:full": "500 LEAVENWORTH ST", "addr:postcode": "66502", "addr:state": "KS", "amenity": "post_box", "brand": "United States Postal Service", "brand:wikidata": "Q668687", "collection_times": "Mo-Fr 15:30; Sa 14:20", "name": "USPS COLLECTION BOX - BLUE BOX", "note": "ON 12/24 AND 12/31, THIS BOX MAY BE COLLECTED AS EARLY AS 12 NOON.", "nsi_id": "unitedstatespostalservice-a77078", "operator": "United States Postal Service", "operator:short": "USPS", "operator:type": "public", "operator:wikidata": "Q668687", "ref": "6650200003"}, "type": "Feature"}
{"geometry": {"coordinates": [-96.5649958, 39.181898], "type": "Point"}, "id": "jmbHuDtqlFCeZZZnABlAGRwC4us=", "properties": {"@spider": "usps_collection_boxes", "addr:city": "MANHATTAN", "addr:country": "US", "addr:full": "500 LEAVENWORTH ST", "addr:postcode": "66502", "addr:state": "KS", "amenity": "post_box", "brand": "United States Postal Service", "brand:wikidata": "Q668687", "collection_times": "Mo-Fr 15:30; Sa 14:20", "name": "USPS COLLECTION BOX - BLUE BOX", "note": "ON 12/24 AND 12/31, THIS BOX MAY BE COLLECTED AS EARLY AS 12 NOON.", "nsi_id": "unitedstatespostalservice-a77078", "operator": "United States Postal Service", "operator:short": "USPS", "operator:type": "public", "operator:wikidata": "Q668687", "ref": "6650200005"}, "type": "Feature"}
{"geometry": {"coordinates": [-96.5629189, 39.180187], "type": "Point"}, "id": "Y1_mjH8DPpUsyrqaEpdWsioaBIs=", "properties": {"@spider": "usps_collection_boxes", "addr:city": "MANHATTAN", "addr:country": "US", "addr:full": "100 COURTHOUSE PLZ", "addr:postcode": "66502", "addr:state": "KS", "amenity": "post_box", "brand": "United States Postal Service", "brand:wikidata": "Q668687", "collection_times": "Mo-Fr 13:15", "name": "USPS COLLECTION BOX - BLUE BOX", "note": "ON 12/24 AND 12/31, THIS BOX MAY BE COLLECTED AS EARLY AS 12 NOON.", "nsi_id": "unitedstatespostalservice-a77078", "operator": "United States Postal Service", "operator:short": "USPS", "operator:type": "public", "operator:wikidata": "Q668687", "ref": "6650200009"}, "type": "Feature"}
{"geometry": {"coordinates": [-96.5559166, 39.1838], "type": "Point"}, "id": "3kkyfF6VJyma6PwnJHtjxDYEDVQ=", "properties": {"@spider": "usps_collection_boxes", "addr:city": "MANHATTAN", "addr:country": "US", "addr:full": "130 SARBER LN", "addr:postcode": "66502", "addr:state": "KS", "amenity": "post_box", "brand": "United States Postal Service", "brand:wikidata": "Q668687", "collection_times": "Mo-Sa 13:05", "name": "USPS COLLECTION BOX - BLUE BOX", "note": "ON 12/24 AND 12/31, THIS BOX MAY BE COLLECTED AS EARLY AS 12 NOON.", "nsi_id": "unitedstatespostalservice-a77078", "operator": "United States Postal Service", "operator:short": "USPS", "operator:type": "public", "operator:wikidata": "Q668687", "ref": "6650200016"}, "type": "Feature"}
{"geometry": {"coordinates": [-96.5984124, 39.191912], "type": "Point"}, "id": "YmhfZuJMhCn6zueaIh4g5LODk6g=", "properties": {"@spider": "usps_collection_boxes", "addr:city": "MANHATTAN", "addr:country": "US", "addr:full": "1133 COLLEGE AVE", "addr:postcode": "66502", "addr:state": "KS", "amenity": "post_box", "brand": "United States Postal Service", "brand:wikidata": "Q668687", "collection_times": "Mo-Fr 12:20; Sa 13:25", "name": "USPS COLLECTION BOX - BLUE BOX", "note": "ON 12/24 AND 12/31, THIS BOX MAY BE COLLECTED AS EARLY AS 12 NOON.", "nsi_id": "unitedstatespostalservice-a77078", "operator": "United States Postal Service", "operator:short": "USPS", "operator:type": "public", "operator:wikidata": "Q668687", "ref": "6650200031"}, "type": "Feature"}
{"geometry": {"coordinates": [-96.5639344, 39.181706], "type": "Point"}, "id": "0FQMvLBpmVyaW-hm9mEDMqESrkE=", "properties": {"@spider": "usps_collection_boxes", "addr:city": "MANHATTAN", "addr:country": "US", "addr:full": "500 LEAVENWORTH ST", "addr:postcode": "66502", "addr:state": "KS", "amenity": "post_box", "brand": "United States Postal Service", "brand:wikidata": "Q668687", "collection_times": "Mo-Sa 15:30", "name": "USPS COLLECTION BOX - PO LOBBY", "note": "ON 12/24 AND 12/31, THIS BOX MAY BE COLLECTED AS EARLY AS 12 NOON.", "nsi_id": "unitedstatespostalservice-a77078", "operator": "United States Postal Service", "operator:short": "USPS", "operator:type": "public", "operator:wikidata": "Q668687", "ref": "6650200051"}, "type": "Feature"}
{"geometry": {"coordinates": [-96.5890591, 39.191619], "type": "Point"}, "id": "xooL7atAIIuT0PIii1q8gMVRZ2I=", "properties": {"@spider": "usps_collection_boxes", "addr:city": "MANHATTAN", "addr:country": "US", "addr:full": "1105 SUNSET AVE", "addr:postcode": "66502", "addr:state": "KS", "amenity": "post_box", "brand": "United States Postal Service", "brand:wikidata": "Q668687", "collection_times": "Mo-Sa 12:35", "name": "USPS COLLECTION BOX - BLUE BOX", "note": "ON 12/24 AND 12/31, THIS BOX MAY BE COLLECTED AS EARLY AS 12 NOON.", "nsi_id": "unitedstatespostalservice-a77078", "operator": "United States Postal Service", "operator:short": "USPS", "operator:type": "public", "operator:wikidata": "Q668687", "ref": "6650200054"}, "type": "Feature"}
{"geometry": {"coordinates": [-96.583305, 39.186098], "type": "Point"}, "id": "kEIJht7iftVpZm_MoMV-pO2aHyM=", "properties": {"@spider": "usps_collection_boxes", "addr:city": "MANHATTAN", "addr:country": "US", "addr:full": "1700 ANDERSON AVE", "addr:postcode": "66502", "addr:state": "KS", "amenity": "post_box", "brand": "United States Postal Service", "brand:wikidata": "Q668687", "collection_times": "Mo-Sa 12:30", "name": "USPS COLLECTION BOX - BLUE BOX", "note": "ON 12/24 AND 12/31, THIS BOX MAY BE COLLECTED AS EARLY AS 12 NOON.", "nsi_id": "unitedstatespostalservice-a77078", "operator": "United States Postal Service", "operator:short": "USPS", "operator:type": "public", "operator:wikidata": "Q668687", "ref": "6650200055"}, "type": "Feature"}
{"geometry": {"coordinates": [-96.6077964, 39.190322], "type": "Point"}, "id": "8zQVPwDIWgodoFul_qLJDElKD78=", "properties": {"@spider": "usps_collection_boxes", "addr:city": "MANHATTAN", "addr:country": "US", "addr:full": "1100 WESTLOOP PL", "addr:postcode": "66502", "addr:state": "KS", "amenity": "post_box", "brand": "United States Postal Service", "brand:wikidata": "Q668687", "collection_times": "Mo-Sa 15:15", "name": "USPS COLLECTION BOX - BLUE BOX", "note": "ON 12/24 AND 12/31, THIS BOX MAY BE COLLECTED AS EARLY AS 12 NOON.", "nsi_id": "unitedstatespostalservice-a77078", "operator": "United States Postal Service", "operator:short": "USPS", "operator:type": "public", "operator:wikidata": "Q668687", "ref": "6650200056"}, "type": "Feature"}
{"geometry": {"coordinates": [-96.5638109, 39.181606], "type": "Point"}, "id": "gY7_jYwzjvuJqDnwKHIQ315cv1E=", "properties": {"@spider": "usps_collection_boxes", "addr:city": "MANHATTAN", "addr:country": "US", "addr:full": "500 LEAVENWORTH ST", "addr:postcode": "66502", "addr:state": "KS", "amenity": "post_box", "brand": "United States Postal Service", "brand:wikidata": "Q668687", "collection_times": "Mo-Sa 15:30", "name": "USPS COLLECTION BOX - PO LOBBY", "note": "ON 12/24 AND 12/31, THIS BOX MAY BE COLLECTED AS EARLY AS 12 NOON.", "nsi_id": "unitedstatespostalservice-a77078", "operator": "United States Postal Service", "operator:short": "USPS", "operator:type": "public", "operator:wikidata": "Q668687", "ref": "6650200057"}, "type": "Feature"}
{"geometry": {"coordinates": [-96.560165813, 39.18508309], "type": "Point"}, "id": "PvmlbLeB1aEBDBrTpf3b0bn_vfY=", "properties": {"@spider": "usps_collection_boxes", "addr:city": "MANHATTAN", "addr:country": "US", "addr:full": "601 3RD PL", "addr:postcode": "66502", "addr:state": "KS", "amenity": "post_box", "brand": "United States Postal Service", "brand:wikidata": "Q668687", "collection_times": "Mo-Sa 13:20", "name": "USPS COLLECTION BOX - PO LOBBY", "note": "ON 12/24 AND 12/31, THIS BOX MAY BE COLLECTED AS EARLY AS 12 NOON.", "nsi_id": "unitedstatespostalservice-a77078", "operator": "United States Postal Service", "operator:short": "USPS", "operator:type": "public", "operator:wikidata": "Q668687", "ref": "6650200058"}, "type": "Feature"}
{"geometry": {"coordinates": [-96.564203832, 39.181516479], "type": "Point"}, "id": "Y0GuNOLwK1RhUM7O0-TZjH26YgQ=", "properties": {"@spider": "usps_collection_boxes", "addr:city": "MANHATTAN", "addr:country": "US", "addr:full": "500 LEAVENWORTH ST", "addr:postcode": "66502", "addr:state": "KS", "amenity": "post_box", "brand": "United States Postal Service", "brand:wikidata": "Q668687", "collection_times": "Mo-Fr 15:50; Sa 12:00", "name": "USPS COLLECTION BOX - PO LOBBY", "note": "ON 12/24 AND 12/31, THIS BOX MAY BE COLLECTED AS EARLY AS 12 NOON.", "nsi_id": "unitedstatespostalservice-a77078", "operator": "United States Postal Service", "operator:short": "USPS", "operator:type": "public", "operator:wikidata": "Q668687", "ref": "6650200062"}, "type": "Feature"}
{"geometry": {"coordinates": [-96.6051453245, 39.1750853469], "type": "Point"}, "id": "0jp9hI2sIg85lbcpSCTOiq25YKQ=", "properties": {"@spider": "usps_collection_boxes", "addr:city": "MANHATTAN", "addr:country": "US", "addr:full": "222 SOUTHWIND PL", "addr:postcode": "66503", "addr:state": "KS", "amenity": "post_box", "brand": "United States Postal Service", "brand:wikidata": "Q668687", "collection_times": "Mo-Fr 13:00", "name": "USPS COLLECTION BOX - BLUE BOX", "note": "ON 12/24 AND 12/31, THIS BOX MAY BE COLLECTED AS EARLY AS 12 NOON.", "nsi_id": "unitedstatespostalservice-a77078", "operator": "United States Postal Service", "operator:short": "USPS", "operator:type": "public", "operator:wikidata": "Q668687", "ref": "6650300000"}, "type": "Feature"}
{"geometry": {"coordinates": [-96.6182969, 39.204019], "type": "Point"}, "id": "zKOQCiWuzvJN9AfQYRiwFcgcacg=", "properties": {"@spider": "usps_collection_boxes", "addr:city": "MANHATTAN", "addr:country": "US", "addr:full": "3270 KIMBALL AVE", "addr:postcode": "66503", "addr:state": "KS", "amenity": "post_box", "brand": "United States Postal Service", "brand:wikidata": "Q668687", "collection_times": "Mo-Sa 13:10", "name": "USPS COLLECTION BOX - BLUE BOX", "note": "ON 12/24 AND 12/31, THIS BOX MAY BE COLLECTED AS EARLY AS 12 NOON.", "nsi_id": "unitedstatespostalservice-a77078", "operator": "United States Postal Service", "operator:short": "USPS", "operator:type": "public", "operator:wikidata": "Q668687", "ref": "6650300002"}, "type": "Feature"}
{"geometry": {"coordinates": [-96.6150216, 39.189153], "type": "Point"}, "id": "yqpPT9u0MeJmflXafZ5K_fS7368=", "properties": {"@spider": "usps_collection_boxes", "addr:city": "MANHATTAN", "addr:country": "US", "addr:full": "3011 ANDERSON AVE", "addr:postcode": "66503", "addr:state": "KS", "amenity": "post_box", "brand": "United States Postal Service", "brand:wikidata": "Q668687", "collection_times": "Mo-Sa 13:00", "name": "USPS COLLECTION BOX - BLUE BOX", "note": "ON 12/24 AND 12/31, THIS BOX MAY BE COLLECTED AS EARLY AS 12 NOON.", "nsi_id": "unitedstatespostalservice-a77078", "operator": "United States Postal Service", "operator:short": "USPS", "operator:type": "public", "operator:wikidata": "Q668687", "ref": "6650300003"}, "type": "Feature"}
{"geometry": {"coordinates": [-96.6263807, 39.189908], "type": "Point"}, "id": "niOZ5B2Sw3bZ63vfzPcV-z_X_A8=", "properties": {"@spider": "usps_collection_boxes", "addr:city": "MANHATTAN", "addr:country": "US", "addr:full": "1121 HUDSON AVE", "addr:postcode": "66503", "addr:state": "KS", "amenity": "post_box", "brand": "United States Postal Service", "brand:wikidata": "Q668687", "collection_times": "Mo-Fr 13:00", "name": "USPS COLLECTION BOX - BLUE BOX", "note": "ON 12/24 AND 12/31, THIS BOX MAY BE COLLECTED AS EARLY AS 12 NOON.", "nsi_id": "unitedstatespostalservice-a77078", "operator": "United States Postal Service", "operator:short": "USPS", "operator:type": "public", "operator:wikidata": "Q668687", "ref": "6650300004"}, "type": "Feature"}
{"geometry": {"coordinates": [-96.583248, 39.193932], "type": "Point"}, "id": "ov-BeDnjef25tUkzBvbvo-PpoQw=", "properties": {"@spider": "usps_collection_boxes", "addr:city": "MANHATTAN", "addr:country": "US", "addr:full": "113 DYKSTRA HALL", "addr:postcode": "66506", "addr:state": "KS", "amenity": "post_box", "brand": "United States Postal Service", "brand:wikidata": "Q668687", "collection_times": "Mo-Sa 14:00", "name": "USPS COLLECTION BOX - BLUE BOX", "note": "ON 12/24 AND 12/31, THIS BOX MAY BE COLLECTED AS EARLY AS 12 NOON.", "nsi_id": "unitedstatespostalservice-a77078", "operator": "United States Postal Service", "operator:short": "USPS", "operator:type": "public", "operator:wikidata": "Q668687", "ref": "6650600000"}, "type": "Feature"}
{"geometry": {"coordinates": [-96.6442672, 39.841825], "type": "Point"}, "id": "5PADqjCJD_ksiXP5phpcxB2_TLA=", "properties": {"@spider": "usps_collection_boxes", "addr:city": "MARYSVILLE", "addr:country": "US", "addr:full": "1100 BROADWAY", "addr:postcode": "66508", "addr:state": "KS", "amenity": "post_box", "brand": "United States Postal Service", "brand:wikidata": "Q668687", "collection_times": "Mo-Sa 12:00", "name": "USPS COLLECTION BOX - BLUE BOX", "nsi_id": "unitedstatespostalservice-a77078", "operator": "United States Postal Service", "operator:short": "USPS", "operator:type": "public", "operator:wikidata": "Q668687", "ref": "6650800002"}, "type": "Feature"}
{"geometry": {"coordinates": [-96.6472086, 39.840834], "type": "Point"}, "id": "d9KHpWLw2CF-u96Re7yQFJSAeFI=", "properties": {"@spider": "usps_collection_boxes", "addr:city": "MARYSVILLE", "addr:country": "US", "addr:full": "109 S 9TH ST", "addr:postcode": "66508", "addr:state": "KS", "amenity": "post_box", "brand": "United States Postal Service", "brand:wikidata": "Q668687", "collection_times": "Mo-Fr 14:15; Sa 10:15", "name": "USPS COLLECTION BOX - BLUE BOX", "note": "ON 12/24 AND 12/31, THIS BOX MAY BE COLLECTED AS EARLY AS 12 NOON.", "nsi_id": "unitedstatespostalservice-a77078", "operator": "United States Postal Service", "operator:short": "USPS", "operator:type": "public", "operator:wikidata": "Q668687", "ref": "6650800005"}, "type": "Feature"}
{"geometry": {"coordinates": [-96.6470795, 39.841046], "type": "Point"}, "id": "RfS-hwD_z-gHDqcXkZ6gQ3A3jtY=", "properties": {"@spider": "usps_collection_boxes", "addr:city": "MARYSVILLE", "addr:country": "US", "addr:full": "109 S 9TH ST", "addr:postcode": "66508", "addr:state": "KS", "amenity": "post_box", "brand": "United States Postal Service", "brand:wikidata": "Q668687", "collection_times": "Mo-Fr 14:15; Sa 10:15", "name": "USPS COLLECTION BOX - PO LOBBY", "note": "ON 12/24 AND 12/31, THIS BOX MAY BE COLLECTED AS EARLY AS 12 NOON.", "nsi_id": "unitedstatespostalservice-a77078", "operator": "United States Postal Service", "operator:short": "USPS", "operator:type": "public", "operator:wikidata": "Q668687", "ref": "6650800007"}, "type": "Feature"}
{"geometry": {"coordinates": [-96.6537844, 39.844846], "type": "Point"}, "id": "6R8uD9i1Rf-bMT8QARe3onVEOS0=", "properties": {"@spider": "usps_collection_boxes", "addr:city": "MARYSVILLE", "addr:country": "US", "addr:full": "406 N 3RD ST", "addr:postcode": "66508", "addr:state": "KS", "amenity": "post_box", "brand": "United States Postal Service", "brand:wikidata": "Q668687", "collection_times": "Mo-Fr 12:00", "name": "USPS COLLECTION BOX - BLUE BOX", "nsi_id": "unitedstatespostalservice-a77078", "operator": "United States Postal Service", "operator:short": "USPS", "operator:type": "public", "operator:wikidata": "Q668687", "ref": "6650800008"}, "type": "Feature"}
{"geometry": {"coordinates": [-96.6472098, 39.840851], "type": "Point"}, "id": "pf7xa4zKHBs6um5mmOj0GgNHDRc=", "properties": {"@spider": "usps_collection_boxes", "addr:city": "MARYSVILLE", "addr:country": "US", "addr:full": "109 S 9TH ST", "addr:postcode": "66508", "addr:state": "KS", "amenity": "post_box", "brand": "United States Postal Service", "brand:wikidata": "Q668687", "collection_times": "Mo-Fr 14:15; Sa 10:15", "name": "USPS COLLECTION BOX - BLUE BOX", "note": "ON 12/24 AND 12/31, THIS BOX MAY BE COLLECTED AS EARLY AS 12 NOON.", "nsi_id": "unitedstatespostalservice-a77078", "operator": "United States Postal Service", "operator:short": "USPS", "operator:type": "public", "operator:wikidata": "Q668687", "ref": "6650800010"}, "type": "Feature"}
{"geometry": {"coordinates": [-96.647096, 39.840991], "type": "Point"}, "id": "cbvxKsqrwRV5f_6Tj9jKG3Ey1sY=", "properties": {"@spider": "usps_collection_boxes", "addr:city": "MARYSVILLE", "addr:country": "US", "addr:full": "109 S 9TH ST", "addr:postcode": "66508", "addr:state": "KS", "amenity": "post_box", "brand": "United States Postal Service", "brand:wikidata": "Q668687", "collection_times": "Mo-Fr 14:15; Sa 10:15", "name": "USPS COLLECTION BOX - PO LOBBY", "note": "ON 12/24 AND 12/31, THIS BOX MAY BE COLLECTED AS EARLY AS 12 NOON.", "nsi_id": "unitedstatespostalservice-a77078", "operator": "United States Postal Service", "operator:short": "USPS", "operator:type": "public", "operator:wikidata": "Q668687", "ref": "6650800011"}, "type": "Feature"}
{"geometry": {"coordinates": [-96.646889277, 39.841164], "type": "Point"}, "id": "f2_W8t3TPPpRrujWqLqVEHIX3YM=", "properties": {"@spider": "usps_collection_boxes", "addr:city": "MARYSVILLE", "addr:country": "US", "addr:full": "109 S 9TH ST", "addr:postcode": "66508", "addr:state": "KS", "amenity": "post_box", "brand": "United States Postal Service", "brand:wikidata": "Q668687", "collection_times": "Mo-Fr 14:15; Sa 10:15", "name": "USPS COLLECTION BOX - PO LOBBY", "note": "ON 12/24 AND 12/31, THIS BOX MAY BE COLLECTED AS EARLY AS 12 NOON.", "nsi_id": "unitedstatespostalservice-a77078", "operator": "United States Postal Service", "operator:short": "USPS", "operator:type": "public", "operator:wikidata": "Q668687", "ref": "6650800012"}, "type": "Feature"}
{"geometry": {"coordinates": [-95.637421, 38.507027], "type": "Point"}, "id": "Zup1IhuzMaUctAWO0bMkMjZXS3Y=", "properties": {"@spider": "usps_collection_boxes", "addr:city": "MELVERN", "addr:country": "US", "addr:full": "118 NE EMPORIA ST", "addr:postcode": "66510", "addr:state": "KS", "amenity": "post_box", "brand": "United States Postal Service", "brand:wikidata": "Q668687", "collection_times": "Mo-Fr 11:45; Sa 08:45", "name": "USPS COLLECTION BOX - BLUE BOX", "nsi_id": "unitedstatespostalservice-a77078", "operator": "United States Postal Service", "operator:short": "USPS", "operator:type": "public", "operator:wikidata": "Q668687", "ref": "6651000001"}, "type": "Feature"}
{"geometry": {"coordinates": [-95.637421, 38.507027], "type": "Point"}, "id": "_2RTqDGDNOXxmPm0pL0cqveCp_Q=", "properties": {"@spider": "usps_collection_boxes", "addr:city": "MELVERN", "addr:country": "US", "addr:full": "118 NE EMPORIA ST", "addr:postcode": "66510", "addr:state": "KS", "amenity": "post_box", "brand": "United States Postal Service", "brand:wikidata": "Q668687", "collection_times": "Mo-Fr 11:45; Sa 08:45", "name": "USPS COLLECTION BOX - PO LOBBY", "nsi_id": "unitedstatespostalservice-a77078", "operator": "United States Postal Service", "operator:short": "USPS", "operator:type": "public", "operator:wikidata": "Q668687", "ref": "6651000002"}, "type": "Feature"}
{"geometry": {"coordinates": [-95.637419832, 38.507022512], "type": "Point"}, "id": "FI4KcJSjoFbyvQ8GDNs6FzLnDlg=", "properties": {"@spider": "usps_collection_boxes", "addr:city": "MELVERN", "addr:country": "US", "addr:full": "118 NE EMPORIA ST", "addr:postcode": "66510", "addr:state": "KS", "amenity": "post_box", "brand": "United States Postal Service", "brand:wikidata": "Q668687", "collection_times": "Mo-Fr 11:45; Sa 08:45", "name": "USPS COLLECTION BOX - PO LOBBY", "nsi_id": "unitedstatespostalservice-a77078", "operator": "United States Postal Service", "operator:short": "USPS", "operator:type": "public", "operator:wikidata": "Q668687", "ref": "6651000003"}, "type": "Feature"}
{"geometry": {"coordinates": [-96.911968, 39.175041], "type": "Point"}, "id": "UiKbEPb0jXiN-GI47LsrAbEO6ww=", "properties": {"@spider": "usps_collection_boxes", "addr:city": "MILFORD", "addr:country": "US", "addr:full": "106 WHITING ST", "addr:postcode": "66514", "addr:state": "KS", "amenity": "post_box", "brand": "United States Postal Service", "brand:wikidata": "Q668687", "collection_times": "Mo-Fr 11:45; Sa 08:45", "name": "USPS COLLECTION BOX - BLUE BOX", "nsi_id": "unitedstatespostalservice-a77078", "operator": "United States Postal Service", "operator:short": "USPS", "operator:type": "public", "operator:wikidata": "Q668687", "ref": "6651400001"}, "type": "Feature"}
{"geometry": {"coordinates": [-96.911968, 39.175041], "type": "Point"}, "id": "1rjYoG9DJpduas7oJG5bEJxbOaU=", "properties": {"@spider": "usps_collection_boxes", "addr:city": "MILFORD", "addr:country": "US", "addr:full": "106 WHITING ST", "addr:postcode": "66514", "addr:state": "KS", "amenity": "post_box", "brand": "United States Postal Service", "brand:wikidata": "Q668687", "collection_times": "Mo-Fr 11:45; Sa 08:45", "name": "USPS COLLECTION BOX - PO LOBBY", "nsi_id": "unitedstatespostalservice-a77078", "operator": "United States Postal Service", "operator:short": "USPS", "operator:type": "public", "operator:wikidata": "Q668687", "ref": "6651400002"}, "type": "Feature"}
{"geometry": {"coordinates": [-96.91197042, 39.175035098], "type": "Point"}, "id": "I1fsO-Wgimh1ExJL-gefUlNpxgU=", "properties": {"@spider": "usps_collection_boxes", "addr:city": "MILFORD", "addr:country": "US", "addr:full": "106 WHITING ST", "addr:postcode": "66514", "addr:state": "KS", "amenity": "post_box", "brand": "United States Postal Service", "brand:wikidata": "Q668687", "collection_times": "Mo-Fr 11:45; Sa 08:45", "name": "USPS COLLECTION BOX - PO LOBBY", "nsi_id": "unitedstatespostalservice-a77078", "operator": "United States Postal Service", "operator:short": "USPS", "operator:type": "public", "operator:wikidata": "Q668687", "ref": "6651400003"}, "type": "Feature"}
{"geometry": {"coordinates": [-95.693699, 39.928467], "type": "Point"}, "id": "hPxnKlQoemt26clNVff2AhsqKTo=", "properties": {"@spider": "usps_collection_boxes", "addr:city": "MORRILL", "addr:country": "US", "addr:full": "616 ROXANNA ST", "addr:postcode": "66515", "addr:state": "KS", "amenity": "post_box", "brand": "United States Postal Service", "brand:wikidata": "Q668687", "collection_times": "Mo-Sa 09:00", "name": "USPS COLLECTION BOX - BLUE BOX", "nsi_id": "unitedstatespostalservice-a77078", "operator": "United States Postal Service", "operator:short": "USPS", "operator:type": "public", "operator:wikidata": "Q668687", "ref": "6651500001"}, "type": "Feature"}
{"geometry": {"coordinates": [-95.693779, 39.928441], "type": "Point"}, "id": "aMxuXJ4GotocK7wjVm_29MukQQ4=", "properties": {"@spider": "usps_collection_boxes", "addr:city": "MORRILL", "addr:country": "US", "addr:full": "616 ROXANNA ST", "addr:postcode": "66515", "addr:state": "KS", "amenity": "post_box", "brand": "United States Postal Service", "brand:wikidata": "Q668687", "collection_times": "Mo-Sa 09:00", "name": "USPS COLLECTION BOX - PO LOBBY", "nsi_id": "unitedstatespostalservice-a77078", "operator": "United States Postal Service", "operator:short": "USPS", "operator:type": "public", "operator:wikidata": "Q668687", "ref": "6651500002"}, "type": "Feature"}
{"geometry": {"coordinates": [-95.693183832, 39.928450493], "type": "Point"}, "id": "0uhZlog_Lynke4jy_6UZT-6njMc=", "properties": {"@spider": "usps_collection_boxes", "addr:city": "MORRILL", "addr:country": "US", "addr:full": "616 ROXANNA ST", "addr:postcode": "66515", "addr:state": "KS", "amenity": "post_box", "brand": "United States Postal Service", "brand:wikidata": "Q668687", "collection_times": "Mo-Sa 09:00", "name": "USPS COLLECTION BOX - PO LOBBY", "nsi_id": "unitedstatespostalservice-a77078", "operator": "United States Postal Service", "operator:short": "USPS", "operator:type": "public", "operator:wikidata": "Q668687", "ref": "6651500003"}, "type": "Feature"}
{"geometry": {"coordinates": [-96.710729942, 39.1157124746], "type": "Point"}, "id": "RzTb86JK32ByT2MbclIW_zHWftA=", "properties": {"@spider": "usps_collection_boxes", "addr:city": "OGDEN", "addr:country": "US", "addr:full": "310 RILEY AVE", "addr:postcode": "66517", "addr:state": "KS", "amenity": "post_box", "brand": "United States Postal Service", "brand:wikidata": "Q668687", "collection_times": "Mo-Fr 14:45; Sa 10:00", "name": "USPS COLLECTION BOX - BLUE BOX", "note": "ON 12/24 AND 12/31, THIS BOX MAY BE COLLECTED AS EARLY AS 12 NOON.", "nsi_id": "unitedstatespostalservice-a77078", "operator": "United States Postal Service", "operator:short": "USPS", "operator:type": "public", "operator:wikidata": "Q668687", "ref": "6651700001"}, "type": "Feature"}
{"geometry": {"coordinates": [-96.710729942, 39.1157124746], "type": "Point"}, "id": "ZDDG55q9bpjjT9u5Dflq_-j2VkE=", "properties": {"@spider": "usps_collection_boxes", "addr:city": "OGDEN", "addr:country": "US", "addr:full": "310 RILEY AVE", "addr:postcode": "66517", "addr:state": "KS", "amenity": "post_box", "brand": "United States Postal Service", "brand:wikidata": "Q668687", "collection_times": "Mo-Fr 14:45; Sa 10:00", "name": "USPS COLLECTION BOX - PO LOBBY", "note": "ON 12/24 AND 12/31, THIS BOX MAY BE COLLECTED AS EARLY AS 12 NOON.", "nsi_id": "unitedstatespostalservice-a77078", "operator": "United States Postal Service", "operator:short": "USPS", "operator:type": "public", "operator:wikidata": "Q668687", "ref": "6651700002"}, "type": "Feature"}
{"geometry": {"coordinates": [-96.710729942, 39.1157124746], "type": "Point"}, "id": "6F_euQdEQZjwr8Isvl68mw86hTY=", "properties": {"@spider": "usps_collection_boxes", "addr:city": "OGDEN", "addr:country": "US", "addr:full": "310 RILEY AVE", "addr:postcode": "66517", "addr:state": "KS", "amenity": "post_box", "brand": "United States Postal Service", "brand:wikidata": "Q668687", "collection_times": "Mo-Fr 14:45; Sa 10:00", "name": "USPS COLLECTION BOX - PO LOBBY", "note": "ON 12/24 AND 12/31, THIS BOX MAY BE COLLECTED AS EARLY AS 12 NOON.", "nsi_id": "unitedstatespostalservice-a77078", "operator": "United States Postal Service", "operator:short": "USPS", "operator:type": "public", "operator:wikidata": "Q668687", "ref": "6651700003"}, "type": "Feature"}
{"geometry": {"coordinates": [-96.599791, 39.963572], "type": "Point"}, "id": "FyiZEn3Ei2_TF1U5WtHNTwyK7TA=", "properties": {"@spider": "usps_collection_boxes", "addr:city": "OKETO", "addr:country": "US", "addr:full": "121 CENTER ST", "addr:postcode": "66518", "addr:state": "KS", "amenity": "post_box", "brand": "United States Postal Service", "brand:wikidata": "Q668687", "collection_times": "Mo-Fr 09:45; Sa 09:15", "name": "USPS COLLECTION BOX - BLUE BOX", "nsi_id": "unitedstatespostalservice-a77078", "operator": "United States Postal Service", "operator:short": "USPS", "operator:type": "public", "operator:wikidata": "Q668687", "ref": "6651800001"}, "type": "Feature"}
{"geometry": {"coordinates": [-96.599791, 39.963572], "type": "Point"}, "id": "uZEw2cIKng5bRDb4kk51ax2F0qg=", "properties": {"@spider": "usps_collection_boxes", "addr:city": "OKETO", "addr:country": "US", "addr:full": "121 CENTER ST", "addr:postcode": "66518", "addr:state": "KS", "amenity": "post_box", "brand": "United States Postal Service", "brand:wikidata": "Q668687", "collection_times": "Mo-Fr 09:45; Sa 09:15", "name": "USPS COLLECTION BOX - PO LOBBY", "nsi_id": "unitedstatespostalservice-a77078", "operator": "United States Postal Service", "operator:short": "USPS", "operator:type": "public", "operator:wikidata": "Q668687", "ref": "6651800002"}, "type": "Feature"}
{"geometry": {"coordinates": [-96.599793945, 39.96357054], "type": "Point"}, "id": "xxcpKRaSSrwx-k1fS2kBn95h0aA=", "properties": {"@spider": "usps_collection_boxes", "addr:city": "OKETO", "addr:country": "US", "addr:full": "121 E CENTER ST", "addr:postcode": "66518", "addr:state": "KS", "amenity": "post_box", "brand": "United States Postal Service", "brand:wikidata": "Q668687", "collection_times": "Mo-Fr 09:45; Sa 09:15", "name": "USPS COLLECTION BOX - PO LOBBY", "nsi_id": "unitedstatespostalservice-a77078", "operator": "United States Postal Service", "operator:short": "USPS", "operator:type": "public", "operator:wikidata": "Q668687", "ref": "6651800003"}, "type": "Feature"}
{"geometry": {"coordinates": [-96.615032, 39.430881], "type": "Point"}, "id": "IbfoDzbTI36Fy6z_gJBYru5x_Qs=", "properties": {"@spider": "usps_collection_boxes", "addr:city": "OLSBURG", "addr:country": "US", "addr:full": "319 2ND ST", "addr:postcode": "66520", "addr:state": "KS", "amenity": "post_box", "brand": "United States Postal Service", "brand:wikidata": "Q668687", "collection_times": "Mo-Fr 11:45; Sa 09:00", "name": "USPS COLLECTION BOX - BLUE BOX", "nsi_id": "unitedstatespostalservice-a77078", "operator": "United States Postal Service", "operator:short": "USPS", "operator:type": "public", "operator:wikidata": "Q668687", "ref": "6652000001"}, "type": "Feature"}
{"geometry": {"coordinates": [-96.615032, 39.430881], "type": "Point"}, "id": "dyr0kKzDsJJ1ZOsuAUeZqMAr6xg=", "properties": {"@spider": "usps_collection_boxes", "addr:city": "OLSBURG", "addr:country": "US", "addr:full": "319 2ND ST", "addr:postcode": "66520", "addr:state": "KS", "amenity": "post_box", "brand": "United States Postal Service", "brand:wikidata": "Q668687", "collection_times": "Mo-Fr 11:45; Sa 09:00", "name": "USPS COLLECTION BOX - PO LOBBY", "nsi_id": "unitedstatespostalservice-a77078", "operator": "United States Postal Service", "operator:short": "USPS", "operator:type": "public", "operator:wikidata": "Q668687", "ref": "6652000002"}, "type": "Feature"}
{"geometry": {"coordinates": [-96.615039602, 39.431313], "type": "Point"}, "id": "W8rBHl-4VpSBI7NLYteCer2tYzY=", "properties": {"@spider": "usps_collection_boxes", "addr:city": "OLSBURG", "addr:country": "US", "addr:full": "319 2ND ST", "addr:postcode": "66520", "addr:state": "KS", "amenity": "post_box", "brand": "United States Postal Service", "brand:wikidata": "Q668687", "collection_times": "Mo-Fr 11:45; Sa 09:00", "name": "USPS COLLECTION BOX - PO LOBBY", "nsi_id": "unitedstatespostalservice-a77078", "operator": "United States Postal Service", "operator:short": "USPS", "operator:type": "public", "operator:wikidata": "Q668687", "ref": "6652000003"}, "type": "Feature"}
{"geometry": {"coordinates": [-96.1715783835, 39.4899573353], "type": "Point"}, "id": "CPXWUgKCHovP2XJ6ynIE3LMbdSk=", "properties": {"@spider": "usps_collection_boxes", "addr:city": "ONAGA", "addr:country": "US", "addr:full": "300 LUCIEN ST", "addr:postcode": "66521", "addr:state": "KS", "amenity": "post_box", "brand": "United States Postal Service", "brand:wikidata": "Q668687", "collection_times": "Mo-Fr 14:15; Sa 09:45", "name": "USPS COLLECTION BOX - BLUE BOX", "note": "ON 12/24 AND 12/31, THIS BOX MAY BE COLLECTED AS EARLY AS 12 NOON.", "nsi_id": "unitedstatespostalservice-a77078", "operator": "United States Postal Service", "operator:short": "USPS", "operator:type": "public", "operator:wikidata": "Q668687", "ref": "6652100001"}, "type": "Feature"}
{"geometry": {"coordinates": [-96.1715783835, 39.4899573353], "type": "Point"}, "id": "BQQXQnNTCQF4Hf7yZqyofL4PLqk=", "properties": {"@spider": "usps_collection_boxes", "addr:city": "ONAGA", "addr:country": "US", "addr:full": "300 LUCIEN ST", "addr:postcode": "66521", "addr:state": "KS", "amenity": "post_box", "brand": "United States Postal Service", "brand:wikidata": "Q668687", "collection_times": "Mo-Fr 14:15; Sa 09:45", "name": "USPS COLLECTION BOX - PO LOBBY", "note": "ON 12/24 AND 12/31, THIS BOX MAY BE COLLECTED AS EARLY AS 12 NOON.", "nsi_id": "unitedstatespostalservice-a77078", "operator": "United States Postal Service", "operator:short": "USPS", "operator:type": "public", "operator:wikidata": "Q668687", "ref": "6652100002"}, "type": "Feature"}
{"geometry": {"coordinates": [-96.1715783835, 39.4899573353], "type": "Point"}, "id": "tnjBbMHeENuNLn7LFsjBp4xargE=", "properties": {"@spider": "usps_collection_boxes", "addr:city": "ONAGA", "addr:country": "US", "addr:full": "300 LUCIEN ST", "addr:postcode": "66521", "addr:state": "KS", "amenity": "post_box", "brand": "United States Postal Service", "brand:wikidata": "Q668687", "collection_times": "Mo-Fr 14:15; Sa 09:45", "name": "USPS COLLECTION BOX - PO LOBBY", "note": "ON 12/24 AND 12/31, THIS BOX MAY BE COLLECTED AS EARLY AS 12 NOON.", "nsi_id": "unitedstatespostalservice-a77078", "operator": "United States Postal Service", "operator:short": "USPS", "operator:type": "public", "operator:wikidata": "Q668687", "ref": "6652100004"}, "type": "Feature"}
{"geometry": {"coordinates": [-95.825703, 38.634343], "type": "Point"}, "id": "B4252Sgylkz-f12rUm-AUX3mNQo=", "properties": {"@spider": "usps_collection_boxes", "addr:city": "OSAGE CITY", "addr:country": "US", "addr:full": "123 S 6TH ST", "addr:postcode": "66523", "addr:state": "KS", "amenity": "post_box", "brand": "United States Postal Service", "brand:wikidata": "Q668687", "collection_times": "Mo-Fr 14:00; Sa 09:45", "name": "USPS COLLECTION BOX - BLUE BOX", "note": "ON 12/24 AND 12/31, THIS BOX MAY BE COLLECTED AS EARLY AS 12 NOON.", "nsi_id": "unitedstatespostalservice-a77078", "operator": "United States Postal Service", "operator:short": "USPS", "operator:type": "public", "operator:wikidata": "Q668687", "ref": "6652300001"}, "type": "Feature"}
{"geometry": {"coordinates": [-95.825703, 38.634343], "type": "Point"}, "id": "FPWmVKXHyn70D5L7Ga38fSx5qKo=", "properties": {"@spider": "usps_collection_boxes", "addr:city": "OSAGE CITY", "addr:country": "US", "addr:full": "123 S 6TH ST", "addr:postcode": "66523", "addr:state": "KS", "amenity": "post_box", "brand": "United States Postal Service", "brand:wikidata": "Q668687", "collection_times": "Mo-Fr 14:00; Sa 09:45", "name": "USPS COLLECTION BOX - BLUE BOX", "note": "ON 12/24 AND 12/31, THIS BOX MAY BE COLLECTED AS EARLY AS 12 NOON.", "nsi_id": "unitedstatespostalservice-a77078", "operator": "United States Postal Service", "operator:short": "USPS", "operator:type": "public", "operator:wikidata": "Q668687", "ref": "6652300002"}, "type": "Feature"}
{"geometry": {"coordinates": [-95.825703, 38.634343], "type": "Point"}, "id": "29_Qs32t8LBu4Y3rOHdzrVd8XB4=", "properties": {"@spider": "usps_collection_boxes", "addr:city": "OSAGE CITY", "addr:country": "US", "addr:full": "123 S 6TH ST", "addr:postcode": "66523", "addr:state": "KS", "amenity": "post_box", "brand": "United States Postal Service", "brand:wikidata": "Q668687", "collection_times": "Mo-Fr 15:30; Sa 09:45", "name": "USPS COLLECTION BOX - PO LOBBY", "note": "ON 12/24 AND 12/31, THIS BOX MAY BE COLLECTED AS EARLY AS 12 NOON.", "nsi_id": "unitedstatespostalservice-a77078", "operator": "United States Postal Service", "operator:short": "USPS", "operator:type": "public", "operator:wikidata": "Q668687", "ref": "6652300004"}, "type": "Feature"}
{"geometry": {"coordinates": [-95.825730392, 38.634354886], "type": "Point"}, "id": "Gb6B2kJpQ2FprNvH40FrXwRctK4=", "properties": {"@spider": "usps_collection_boxes", "addr:city": "OSAGE CITY", "addr:country": "US", "addr:full": "123 S 6TH ST", "addr:postcode": "66523", "addr:state": "KS", "amenity": "post_box", "brand": "United States Postal Service", "brand:wikidata": "Q668687", "collection_times": "Mo-Fr 15:30; Sa 09:45", "name": "USPS COLLECTION BOX - PO LOBBY", "note": "ON 12/24 AND 12/31, THIS BOX MAY BE COLLECTED AS EARLY AS 12 NOON.", "nsi_id": "unitedstatespostalservice-a77078", "operator": "United States Postal Service", "operator:short": "USPS", "operator:type": "public", "operator:wikidata": "Q668687", "ref": "6652300005"}, "type": "Feature"}
{"geometry": {"coordinates": [-96.168886, 39.06711], "type": "Point"}, "id": "I9RJkRzBvfEUkQNqVcXo1BBIIXw=", "properties": {"@spider": "usps_collection_boxes", "addr:city": "PAXICO", "addr:country": "US", "addr:full": "201 NEWBURY AVE", "addr:postcode": "66526", "addr:state": "KS", "amenity": "post_box", "brand": "United States Postal Service", "brand:wikidata": "Q668687", "collection_times": "Mo-Fr 14:45; Sa 12:15", "name": "USPS COLLECTION BOX - BLUE BOX", "note": "ON 12/24 AND 12/31, THIS BOX MAY BE COLLECTED AS EARLY AS 12 NOON.", "nsi_id": "unitedstatespostalservice-a77078", "operator": "United States Postal Service", "operator:short": "USPS", "operator:type": "public", "operator:wikidata": "Q668687", "ref": "6652600001"}, "type": "Feature"}
{"geometry": {"coordinates": [-96.168886, 39.06711], "type": "Point"}, "id": "5jPJwdRZi07nS2IUgnE_Z-qzYTY=", "properties": {"@spider": "usps_collection_boxes", "addr:city": "PAXICO", "addr:country": "US", "addr:full": "201 NEWBURY AVE", "addr:postcode": "66526", "addr:state": "KS", "amenity": "post_box", "brand": "United States Postal Service", "brand:wikidata": "Q668687", "collection_times": "Mo-Fr 14:30; Sa 12:15", "name": "USPS COLLECTION BOX - PO LOBBY", "note": "ON 12/24 AND 12/31, THIS BOX MAY BE COLLECTED AS EARLY AS 12 NOON.", "nsi_id": "unitedstatespostalservice-a77078", "operator": "United States Postal Service", "operator:short": "USPS", "operator:type": "public", "operator:wikidata": "Q668687", "ref": "6652600002"}, "type": "Feature"}
{"geometry": {"coordinates": [-96.168886394, 39.06711], "type": "Point"}, "id": "ilw5oLH2co5nO3H23Lko-SMg1D8=", "properties": {"@spider": "usps_collection_boxes", "addr:city": "PAXICO", "addr:country": "US", "addr:full": "201 NEWBURY AVE", "addr:postcode": "66526", "addr:state": "KS", "amenity": "post_box", "brand": "United States Postal Service", "brand:wikidata": "Q668687", "collection_times": "Mo-Fr 14:30; Sa 12:15", "name": "USPS COLLECTION BOX - PO LOBBY", "note": "ON 12/24 AND 12/31, THIS BOX MAY BE COLLECTED AS EARLY AS 12 NOON.", "nsi_id": "unitedstatespostalservice-a77078", "operator": "United States Postal Service", "operator:short": "USPS", "operator:type": "public", "operator:wikidata": "Q668687", "ref": "6652600003"}, "type": "Feature"}
{"geometry": {"coordinates": [-95.5271063465, 38.5800295809], "type": "Point"}, "id": "U_qVzvaEOuFqa4vmHpOoQNPA4Es=", "properties": {"@spider": "usps_collection_boxes", "addr:city": "QUENEMO", "addr:country": "US", "addr:full": "121 N 5TH ST", "addr:postcode": "66528", "addr:state": "KS", "amenity": "post_box", "brand": "United States Postal Service", "brand:wikidata": "Q668687", "collection_times": "Mo-Fr 11:45; Sa 09:15", "name": "USPS COLLECTION BOX - BLUE BOX", "nsi_id": "unitedstatespostalservice-a77078", "operator": "United States Postal Service", "operator:short": "USPS", "operator:type": "public", "operator:wikidata": "Q668687", "ref": "6652800001"}, "type": "Feature"}
{"geometry": {"coordinates": [-95.527107, 38.58003], "type": "Point"}, "id": "wQgL3p_01VUaH8ZzjNoe-To_8q0=", "properties": {"@spider": "usps_collection_boxes", "addr:city": "QUENEMO", "addr:country": "US", "addr:full": "121 N 5TH ST", "addr:postcode": "66528", "addr:state": "KS", "amenity": "post_box", "brand": "United States Postal Service", "brand:wikidata": "Q668687", "collection_times": "Mo-Fr 11:45; Sa 09:15", "name": "USPS COLLECTION BOX - PO LOBBY", "nsi_id": "unitedstatespostalservice-a77078", "operator": "United States Postal Service", "operator:short": "USPS", "operator:type": "public", "operator:wikidata": "Q668687", "ref": "6652800002"}, "type": "Feature"}
{"geometry": {"coordinates": [-95.527106347, 38.580029581], "type": "Point"}, "id": "m3CSq-hShB54HGPTjoLF4bIuUxM=", "properties": {"@spider": "usps_collection_boxes", "addr:city": "QUENEMO", "addr:country": "US", "addr:full": "121 N 5TH ST", "addr:postcode": "66528", "addr:state": "KS", "amenity": "post_box", "brand": "United States Postal Service", "brand:wikidata": "Q668687", "collection_times": "Mo-Fr 11:45; Sa 09:15", "name": "USPS COLLECTION BOX - PO LOBBY", "nsi_id": "unitedstatespostalservice-a77078", "operator": "United States Postal Service", "operator:short": "USPS", "operator:type": "public", "operator:wikidata": "Q668687", "ref": "6652800003"}, "type": "Feature"}
{"geometry": {"coordinates": [-96.825094452, 39.297968665], "type": "Point"}, "id": "Hr2VzLVb8SdaaHGjB_ZcXp8BE-w=", "properties": {"@spider": "usps_collection_boxes", "addr:city": "RILEY", "addr:country": "US", "addr:full": "122 S BROADWAY ST", "addr:postcode": "66531", "addr:state": "KS", "amenity": "post_box", "brand": "United States Postal Service", "brand:wikidata": "Q668687", "collection_times": "Mo-Fr 13:45; Sa 09:15", "name": "USPS COLLECTION BOX - BLUE BOX", "note": "ON 12/24 AND 12/31, THIS BOX MAY BE COLLECTED AS EARLY AS 12 NOON.", "nsi_id": "unitedstatespostalservice-a77078", "operator": "United States Postal Service", "operator:short": "USPS", "operator:type": "public", "operator:wikidata": "Q668687", "ref": "6653100001"}, "type": "Feature"}
{"geometry": {"coordinates": [-96.825094452, 39.297968665], "type": "Point"}, "id": "asq_RobXYUK7C9oTPrrum4XvuPc=", "properties": {"@spider": "usps_collection_boxes", "addr:city": "RILEY", "addr:country": "US", "addr:full": "122 S BROADWAY ST", "addr:postcode": "66531", "addr:state": "KS", "amenity": "post_box", "brand": "United States Postal Service", "brand:wikidata": "Q668687", "collection_times": "Mo-Fr 13:45; Sa 09:15", "name": "USPS COLLECTION BOX - PO LOBBY", "note": "ON 12/24 AND 12/31, THIS BOX MAY BE COLLECTED AS EARLY AS 12 NOON.", "nsi_id": "unitedstatespostalservice-a77078", "operator": "United States Postal Service", "operator:short": "USPS", "operator:type": "public", "operator:wikidata": "Q668687", "ref": "6653100002"}, "type": "Feature"}
{"geometry": {"coordinates": [-96.825094452, 39.297968665], "type": "Point"}, "id": "-C1oqgJS2bsr_A7qVr3K2f9GqIo=", "properties": {"@spider": "usps_collection_boxes", "addr:city": "RILEY", "addr:country": "US", "addr:full": "122 S BROADWAY ST", "addr:postcode": "66531", "addr:state": "KS", "amenity": "post_box", "brand": "United States Postal Service", "brand:wikidata": "Q668687", "collection_times": "Mo-Fr 13:45; Sa 09:15", "name": "USPS COLLECTION BOX - PO LOBBY", "note": "ON 12/24 AND 12/31, THIS BOX MAY BE COLLECTED AS EARLY AS 12 NOON.", "nsi_id": "unitedstatespostalservice-a77078", "operator": "United States Postal Service", "operator:short": "USPS", "operator:type": "public", "operator:wikidata": "Q668687", "ref": "6653100003"}, "type": "Feature"}
{"geometry": {"coordinates": [-95.801136, 39.903148], "type": "Point"}, "id": "ELP96Nb24epE4s5E5nqGlozlwro=", "properties": {"@spider": "usps_collection_boxes", "addr:city": "SABETHA", "addr:country": "US", "addr:full": "122 S 9TH ST", "addr:postcode": "66534", "addr:state": "KS", "amenity": "post_box", "brand": "United States Postal Service", "brand:wikidata": "Q668687", "collection_times": "Mo-Sa 14:00", "name": "USPS COLLECTION BOX - BLUE BOX", "note": "ON 12/24 AND 12/31, THIS BOX MAY BE COLLECTED AS EARLY AS 12 NOON.", "nsi_id": "unitedstatespostalservice-a77078", "operator": "United States Postal Service", "operator:short": "USPS", "operator:type": "public", "operator:wikidata": "Q668687", "ref": "6653400005"}, "type": "Feature"}
{"geometry": {"coordinates": [-95.801136, 39.903148], "type": "Point"}, "id": "N-6kL_RGWlihQRZYB71SnZTmuR8=", "properties": {"@spider": "usps_collection_boxes", "addr:city": "SABETHA", "addr:country": "US", "addr:full": "122 S 9TH ST", "addr:postcode": "66534", "addr:state": "KS", "amenity": "post_box", "brand": "United States Postal Service", "brand:wikidata": "Q668687", "collection_times": "Mo-Fr 14:00; Sa 09:00", "name": "USPS COLLECTION BOX - PO LOBBY", "note": "ON 12/24 AND 12/31, THIS BOX MAY BE COLLECTED AS EARLY AS 12 NOON.", "nsi_id": "unitedstatespostalservice-a77078", "operator": "United States Postal Service", "operator:short": "USPS", "operator:type": "public", "operator:wikidata": "Q668687", "ref": "6653400006"}, "type": "Feature"}
{"geometry": {"coordinates": [-95.801119927, 39.903160601], "type": "Point"}, "id": "yhJPMntAYxo0Sa_MvE8zHyYJEJU=", "properties": {"@spider": "usps_collection_boxes", "addr:city": "SABETHA", "addr:country": "US", "addr:full": "122 S 9TH ST", "addr:postcode": "66534", "addr:state": "KS", "amenity": "post_box", "brand": "United States Postal Service", "brand:wikidata": "Q668687", "collection_times": "Mo-Fr 14:00; Sa 09:00", "name": "USPS COLLECTION BOX - PO LOBBY", "note": "ON 12/24 AND 12/31, THIS BOX MAY BE COLLECTED AS EARLY AS 12 NOON.", "nsi_id": "unitedstatespostalservice-a77078", "operator": "United States Postal Service", "operator:short": "USPS", "operator:type": "public", "operator:wikidata": "Q668687", "ref": "6653400007"}, "type": "Feature"}
{"geometry": {"coordinates": [-96.422095379, 39.190682932], "type": "Point"}, "id": "aF83GOZbUWuv6nTBK1cnZ7RkzJM=", "properties": {"@spider": "usps_collection_boxes", "addr:city": "SAINT GEORGE", "addr:country": "US", "addr:full": "203 1ST ST", "addr:postcode": "66535", "addr:state": "KS", "amenity": "post_box", "brand": "United States Postal Service", "brand:wikidata": "Q668687", "collection_times": "Mo-Fr 14:00; Sa 08:45", "name": "USPS COLLECTION BOX - BLUE BOX", "note": "ON 12/24 AND 12/31, THIS BOX MAY BE COLLECTED AS EARLY AS 12 NOON.", "nsi_id": "unitedstatespostalservice-a77078", "operator": "United States Postal Service", "operator:short": "USPS", "operator:type": "public", "operator:wikidata": "Q668687", "ref": "6653500001"}, "type": "Feature"}
{"geometry": {"coordinates": [-96.422095379, 39.190682932], "type": "Point"}, "id": "dCSQ1zgMjqYOLmm7casnxVtJ7hc=", "properties": {"@spider": "usps_collection_boxes", "addr:city": "SAINT GEORGE", "addr:country": "US", "addr:full": "203 1ST ST", "addr:postcode": "66535", "addr:state": "KS", "amenity": "post_box", "brand": "United States Postal Service", "brand:wikidata": "Q668687", "collection_times": "Mo-Fr 15:15; Sa 08:45", "name": "USPS COLLECTION BOX - PO LOBBY", "note": "ON 12/24 AND 12/31, THIS BOX MAY BE COLLECTED AS EARLY AS 12 NOON.", "nsi_id": "unitedstatespostalservice-a77078", "operator": "United States Postal Service", "operator:short": "USPS", "operator:type": "public", "operator:wikidata": "Q668687", "ref": "6653500004"}, "type": "Feature"}
{"geometry": {"coordinates": [-96.422095379, 39.190682932], "type": "Point"}, "id": "XWuvfPxcEfVogz8ComCVcawhoh4=", "properties": {"@spider": "usps_collection_boxes", "addr:city": "SAINT GEORGE", "addr:country": "US", "addr:full": "203 1ST ST", "addr:postcode": "66535", "addr:state": "KS", "amenity": "post_box", "brand": "United States Postal Service", "brand:wikidata": "Q668687", "collection_times": "Mo-Fr 15:15; Sa 08:45", "name": "USPS COLLECTION BOX - PO LOBBY", "note": "ON 12/24 AND 12/31, THIS BOX MAY BE COLLECTED AS EARLY AS 12 NOON.", "nsi_id": "unitedstatespostalservice-a77078", "operator": "United States Postal Service", "operator:short": "USPS", "operator:type": "public", "operator:wikidata": "Q668687", "ref": "6653500005"}, "type": "Feature"}
{"geometry": {"coordinates": [-96.0628042, 39.834153], "type": "Point"}, "id": "grv68v3FO8RQSrODWW8fDYPgNFE=", "properties": {"@spider": "usps_collection_boxes", "addr:city": "SENECA", "addr:country": "US", "addr:full": "502 MAIN ST", "addr:postcode": "66538", "addr:state": "KS", "amenity": "post_box", "brand": "United States Postal Service", "brand:wikidata": "Q668687", "collection_times": "Mo-Sa 13:00", "name": "USPS COLLECTION BOX - BLUE BOX", "note": "ON 12/24 AND 12/31, THIS BOX MAY BE COLLECTED AS EARLY AS 12 NOON.", "nsi_id": "unitedstatespostalservice-a77078", "operator": "United States Postal Service", "operator:short": "USPS", "operator:type": "public", "operator:wikidata": "Q668687", "ref": "6653800002"}, "type": "Feature"}
{"geometry": {"coordinates": [-96.0646442, 39.836411], "type": "Point"}, "id": "8_-ynN7is_2_MpENjP7LFVNNBYg=", "properties": {"@spider": "usps_collection_boxes", "addr:city": "SENECA", "addr:country": "US", "addr:full": "607 NEMAHA ST", "addr:postcode": "66538", "addr:state": "KS", "amenity": "post_box", "brand": "United States Postal Service", "brand:wikidata": "Q668687", "collection_times": "Mo-Sa 13:15", "name": "USPS COLLECTION BOX - BLUE BOX", "note": "ON 12/24 AND 12/31, THIS BOX MAY BE COLLECTED AS EARLY AS 12 NOON.", "nsi_id": "unitedstatespostalservice-a77078", "operator": "United States Postal Service", "operator:short": "USPS", "operator:type": "public", "operator:wikidata": "Q668687", "ref": "6653800005"}, "type": "Feature"}
{"geometry": {"coordinates": [-96.0645249, 39.8345], "type": "Point"}, "id": "hOwurjecSlP7yBEJYXDq5nW5zhw=", "properties": {"@spider": "usps_collection_boxes", "addr:city": "SENECA", "addr:country": "US", "addr:full": "607 MAIN ST", "addr:postcode": "66538", "addr:state": "KS", "amenity": "post_box", "brand": "United States Postal Service", "brand:wikidata": "Q668687", "collection_times": "Mo-Fr 15:00; Sa 10:15", "name": "USPS COLLECTION BOX - BLUE BOX", "note": "ON 12/24 AND 12/31, THIS BOX MAY BE COLLECTED AS EARLY AS 12 NOON.", "nsi_id": "unitedstatespostalservice-a77078", "operator": "United States Postal Service", "operator:short": "USPS", "operator:type": "public", "operator:wikidata": "Q668687", "ref": "6653800009"}, "type": "Feature"}
{"geometry": {"coordinates": [-96.0647063, 39.834455], "type": "Point"}, "id": "Q5bXOH_qpmS8FF7ewpgwaFqC5ro=", "properties": {"@spider": "usps_collection_boxes", "addr:city": "SENECA", "addr:country": "US", "addr:full": "607 MAIN ST", "addr:postcode": "66538", "addr:state": "KS", "amenity": "post_box", "brand": "United States Postal Service", "brand:wikidata": "Q668687", "collection_times": "Mo-Fr 15:00; Sa 09:30", "name": "USPS COLLECTION BOX - PO LOBBY", "note": "ON 12/24 AND 12/31, THIS BOX MAY BE COLLECTED AS EARLY AS 12 NOON.", "nsi_id": "unitedstatespostalservice-a77078", "operator": "United States Postal Service", "operator:short": "USPS", "operator:type": "public", "operator:wikidata": "Q668687", "ref": "6653800010"}, "type": "Feature"}
{"geometry": {"coordinates": [-96.064694277, 39.83430253], "type": "Point"}, "id": "7soTBsruM8gyJHiHG_ifeVDQXP4=", "properties": {"@spider": "usps_collection_boxes", "addr:city": "SENECA", "addr:country": "US", "addr:full": "607 MAIN ST", "addr:postcode": "66538", "addr:state": "KS", "amenity": "post_box", "brand": "United States Postal Service", "brand:wikidata": "Q668687", "collection_times": "Mo-Fr 15:00; Sa 09:30", "name": "USPS COLLECTION BOX - PO LOBBY", "note": "ON 12/24 AND 12/31, THIS BOX MAY BE COLLECTED AS EARLY AS 12 NOON.", "nsi_id": "unitedstatespostalservice-a77078", "operator": "United States Postal Service", "operator:short": "USPS", "operator:type": "public", "operator:wikidata": "Q668687", "ref": "6653800011"}, "type": "Feature"}
{"geometry": {"coordinates": [-96.348566, 39.997709], "type": "Point"}, "id": "94Myc87czefW7L_br7nIo0304Hk=", "properties": {"@spider": "usps_collection_boxes", "addr:city": "SUMMERFIELD", "addr:country": "US", "addr:full": "320 MAIN ST", "addr:postcode": "66541", "addr:state": "KS", "amenity": "post_box", "brand": "United States Postal Service", "brand:wikidata": "Q668687", "collection_times": "Mo-Fr 11:45; Sa 09:45", "name": "USPS COLLECTION BOX - BLUE BOX", "nsi_id": "unitedstatespostalservice-a77078", "operator": "United States Postal Service", "operator:short": "USPS", "operator:type": "public", "operator:wikidata": "Q668687", "ref": "6654100001"}, "type": "Feature"}
{"geometry": {"coordinates": [-96.348566, 39.997709], "type": "Point"}, "id": "RXrqIz7fammStN1mdV4J_NM3jYE=", "properties": {"@spider": "usps_collection_boxes", "addr:city": "SUMMERFIELD", "addr:country": "US", "addr:full": "320 MAIN ST", "addr:postcode": "66541", "addr:state": "KS", "amenity": "post_box", "brand": "United States Postal Service", "brand:wikidata": "Q668687", "collection_times": "Mo-Fr 11:45; Sa 09:15", "name": "USPS COLLECTION BOX - PO LOBBY", "nsi_id": "unitedstatespostalservice-a77078", "operator": "United States Postal Service", "operator:short": "USPS", "operator:type": "public", "operator:wikidata": "Q668687", "ref": "6654100002"}, "type": "Feature"}
{"geometry": {"coordinates": [-96.348566617, 39.997709749], "type": "Point"}, "id": "PyTMOFYwU1w7G0akXh3sfz0Tmm4=", "properties": {"@spider": "usps_collection_boxes", "addr:city": "SUMMERFIELD", "addr:country": "US", "addr:full": "320 MAIN ST", "addr:postcode": "66541", "addr:state": "KS", "amenity": "post_box", "brand": "United States Postal Service", "brand:wikidata": "Q668687", "collection_times": "Mo-Fr 10:45; Sa 09:15", "name": "USPS COLLECTION BOX - PO LOBBY", "nsi_id": "unitedstatespostalservice-a77078", "operator": "United States Postal Service", "operator:short": "USPS", "operator:type": "public", "operator:wikidata": "Q668687", "ref": "6654100003"}, "type": "Feature"}
{"geometry": {"coordinates": [-96.305931, 39.202112], "type": "Point"}, "id": "T8-vWq8ODntyw6ougVmq0X4DmQE=", "properties": {"@spider": "usps_collection_boxes", "addr:city": "WAMEGO", "addr:country": "US", "addr:full": "807 5TH ST", "addr:postcode": "66547", "addr:state": "KS", "amenity": "post_box", "brand": "United States Postal Service", "brand:wikidata": "Q668687", "collection_times": "Mo-Sa 15:15", "name": "USPS COLLECTION BOX - BLUE BOX", "note": "ON 12/24 AND 12/31, THIS BOX MAY BE COLLECTED AS EARLY AS 12 NOON.", "nsi_id": "unitedstatespostalservice-a77078", "operator": "United States Postal Service", "operator:short": "USPS", "operator:type": "public", "operator:wikidata": "Q668687", "ref": "6654700002"}, "type": "Feature"}
{"geometry": {"coordinates": [-96.305931, 39.202112], "type": "Point"}, "id": "RQqcQyGA1MCzpqkAi1ZCtgmkQIY=", "properties": {"@spider": "usps_collection_boxes", "addr:city": "WAMEGO", "addr:country": "US", "addr:full": "807 5TH ST", "addr:postcode": "66547", "addr:state": "KS", "amenity": "post_box", "brand": "United States Postal Service", "brand:wikidata": "Q668687", "collection_times": "Mo-Sa 15:15", "name": "USPS COLLECTION BOX - PO LOBBY", "note": "ON 12/24 AND 12/31, THIS BOX MAY BE COLLECTED AS EARLY AS 12 NOON.", "nsi_id": "unitedstatespostalservice-a77078", "operator": "United States Postal Service", "operator:short": "USPS", "operator:type": "public", "operator:wikidata": "Q668687", "ref": "6654700008"}, "type": "Feature"}
{"geometry": {"coordinates": [-96.305931, 39.202112], "type": "Point"}, "id": "jQJgKpSe77lTZq1oD7BoDlks_2c=", "properties": {"@spider": "usps_collection_boxes", "addr:city": "WAMEGO", "addr:country": "US", "addr:full": "807 5TH ST", "addr:postcode": "66547", "addr:state": "KS", "amenity": "post_box", "brand": "United States Postal Service", "brand:wikidata": "Q668687", "collection_times": "Mo-Sa 15:15", "name": "USPS COLLECTION BOX - PO LOBBY", "note": "ON 12/24 AND 12/31, THIS BOX MAY BE COLLECTED AS EARLY AS 12 NOON.", "nsi_id": "unitedstatespostalservice-a77078", "operator": "United States Postal Service", "operator:short": "USPS", "operator:type": "public", "operator:wikidata": "Q668687", "ref": "6654700009"}, "type": "Feature"}
{"geometry": {"coordinates": [-96.306021, 39.2021105467], "type": "Point"}, "id": "JIOJhysDCZ73W9ruLWCCqz_OVgc=", "properties": {"@spider": "usps_collection_boxes", "addr:city": "WAMEGO", "addr:country": "US", "addr:full": "807 5TH ST", "addr:postcode": "66547", "addr:state": "KS", "amenity": "post_box", "brand": "United States Postal Service", "brand:wikidata": "Q668687", "collection_times": "Mo-Fr 15:15; Sa 10:00", "name": "USPS COLLECTION BOX - PO LOBBY", "note": "ON 12/24 AND 12/31, THIS BOX MAY BE COLLECTED AS EARLY AS 12 NOON.", "nsi_id": "unitedstatespostalservice-a77078", "operator": "United States Postal Service", "operator:short": "USPS", "operator:type": "public", "operator:wikidata": "Q668687", "ref": "6654700010"}, "type": "Feature"}
{"geometry": {"coordinates": [-96.7494624, 39.692121], "type": "Point"}, "id": "h8TXwZtaWEy7scl5lha4yVPDpn8=", "properties": {"@spider": "usps_collection_boxes", "addr:city": "WATERVILLE", "addr:country": "US", "addr:full": "102 S NEBRASKA ST", "addr:postcode": "66548", "addr:state": "KS", "amenity": "post_box", "brand": "United States Postal Service", "brand:wikidata": "Q668687", "collection_times": "Mo-Fr 13:30; Sa 09:15", "name": "USPS COLLECTION BOX - BLUE BOX", "note": "ON 12/24 AND 12/31, THIS BOX MAY BE COLLECTED AS EARLY AS 12 NOON.", "nsi_id": "unitedstatespostalservice-a77078", "operator": "United States Postal Service", "operator:short": "USPS", "operator:type": "public", "operator:wikidata": "Q668687", "ref": "6654800001"}, "type": "Feature"}
{"geometry": {"coordinates": [-96.749367, 39.69223], "type": "Point"}, "id": "bE8rcE2bUo-hgy-1dqLCIbV6zIw=", "properties": {"@spider": "usps_collection_boxes", "addr:city": "WATERVILLE", "addr:country": "US", "addr:full": "102 S NEBRASKA ST", "addr:postcode": "66548", "addr:state": "KS", "amenity": "post_box", "brand": "United States Postal Service", "brand:wikidata": "Q668687", "collection_times": "Mo-Fr 13:45; Sa 09:15", "name": "USPS COLLECTION BOX - PO LOBBY", "note": "ON 12/24 AND 12/31, THIS BOX MAY BE COLLECTED AS EARLY AS 12 NOON.", "nsi_id": "unitedstatespostalservice-a77078", "operator": "United States Postal Service", "operator:short": "USPS", "operator:type": "public", "operator:wikidata": "Q668687", "ref": "6654800002"}, "type": "Feature"}
{"geometry": {"coordinates": [-96.7493656819, 39.6922233353], "type": "Point"}, "id": "hBm0FkLA1fRp_-IWAcXfD0BYQ_Q=", "properties": {"@spider": "usps_collection_boxes", "addr:city": "WATERVILLE", "addr:country": "US", "addr:full": "102 S NEBRASKA ST", "addr:postcode": "66548", "addr:state": "KS", "amenity": "post_box", "brand": "United States Postal Service", "brand:wikidata": "Q668687", "collection_times": "Mo-Fr 13:45; Sa 09:15", "name": "USPS COLLECTION BOX - PO LOBBY", "note": "ON 12/24 AND 12/31, THIS BOX MAY BE COLLECTED AS EARLY AS 12 NOON.", "nsi_id": "unitedstatespostalservice-a77078", "operator": "United States Postal Service", "operator:short": "USPS", "operator:type": "public", "operator:wikidata": "Q668687", "ref": "6654800003"}, "type": "Feature"}
{"geometry": {"coordinates": [-96.413143332, 39.393033504], "type": "Point"}, "id": "0w2racG95ngPqXayOA3BNszgyeo=", "properties": {"@spider": "usps_collection_boxes", "addr:city": "WESTMORELAND", "addr:country": "US", "addr:full": "306 MAIN ST", "addr:postcode": "66549", "addr:state": "KS", "amenity": "post_box", "brand": "United States Postal Service", "brand:wikidata": "Q668687", "collection_times": "Mo-Fr 14:15; Sa 09:45", "name": "USPS COLLECTION BOX - BLUE BOX", "note": "ON 12/24 AND 12/31, THIS BOX MAY BE COLLECTED AS EARLY AS 12 NOON.", "nsi_id": "unitedstatespostalservice-a77078", "operator": "United States Postal Service", "operator:short": "USPS", "operator:type": "public", "operator:wikidata": "Q668687", "ref": "6654900001"}, "type": "Feature"}
{"geometry": {"coordinates": [-96.413143332, 39.393033504], "type": "Point"}, "id": "cbH_JMXnPC4a7ktbD23lxC_scd0=", "properties": {"@spider": "usps_collection_boxes", "addr:city": "WESTMORELAND", "addr:country": "US", "addr:full": "306 MAIN ST", "addr:postcode": "66549", "addr:state": "KS", "amenity": "post_box", "brand": "United States Postal Service", "brand:wikidata": "Q668687", "collection_times": "Mo-Fr 14:15; Sa 09:45", "name": "USPS COLLECTION BOX - PO LOBBY", "note": "ON 12/24 AND 12/31, THIS BOX MAY BE COLLECTED AS EARLY AS 12 NOON.", "nsi_id": "unitedstatespostalservice-a77078", "operator": "United States Postal Service", "operator:short": "USPS", "operator:type": "public", "operator:wikidata": "Q668687", "ref": "6654900002"}, "type": "Feature"}
{"geometry": {"coordinates": [-96.413143332, 39.393033504], "type": "Point"}, "id": "wgr885O8rArFP4QRpUr6LlkHz3g=", "properties": {"@spider": "usps_collection_boxes", "addr:city": "WESTMORELAND", "addr:country": "US", "addr:full": "306 MAIN ST", "addr:postcode": "66549", "addr:state": "KS", "amenity": "post_box", "brand": "United States Postal Service", "brand:wikidata": "Q668687", "collection_times": "Mo-Fr 14:15; Sa 09:45", "name": "USPS COLLECTION BOX - PO LOBBY", "note": "ON 12/24 AND 12/31, THIS BOX MAY BE COLLECTED AS EARLY AS 12 NOON.", "nsi_id": "unitedstatespostalservice-a77078", "operator": "United States Postal Service", "operator:short": "USPS", "operator:type": "public", "operator:wikidata": "Q668687", "ref": "6654900003"}, "type": "Feature"}
{"geometry": {"coordinates": [-96.763071, 39.430692], "type": "Point"}, "id": "wMM2lPZtpA8TRqoix9U4nEjS_r8=", "properties": {"@spider": "usps_collection_boxes", "addr:city": "RANDOLPH", "addr:country": "US", "addr:full": "117 W RANDOLPH ST", "addr:postcode": "66554", "addr:state": "KS", "amenity": "post_box", "brand": "United States Postal Service", "brand:wikidata": "Q668687", "collection_times": "Mo-Fr 11:30; Sa 08:30", "name": "USPS COLLECTION BOX - BLUE BOX", "nsi_id": "unitedstatespostalservice-a77078", "operator": "United States Postal Service", "operator:short": "USPS", "operator:type": "public", "operator:wikidata": "Q668687", "ref": "6655400001"}, "type": "Feature"}
{"geometry": {"coordinates": [-96.763071, 39.430692], "type": "Point"}, "id": "SOM3TG8hdOUdx9qgmA0lpx1hBA0=", "properties": {"@spider": "usps_collection_boxes", "addr:city": "RANDOLPH", "addr:country": "US", "addr:full": "117 W RANDOLPH ST", "addr:postcode": "66554", "addr:state": "KS", "amenity": "post_box", "brand": "United States Postal Service", "brand:wikidata": "Q668687", "collection_times": "Mo-Fr 11:30; Sa 08:30", "name": "USPS COLLECTION BOX - PO LOBBY", "nsi_id": "unitedstatespostalservice-a77078", "operator": "United States Postal Service", "operator:short": "USPS", "operator:type": "public", "operator:wikidata": "Q668687", "ref": "6655400002"}, "type": "Feature"}
{"geometry": {"coordinates": [-96.763130612, 39.430688503], "type": "Point"}, "id": "VPgdWnikHSyDeaTWN_84rK9NW20=", "properties": {"@spider": "usps_collection_boxes", "addr:city": "RANDOLPH", "addr:country": "US", "addr:full": "117 W RANDOLPH ST", "addr:postcode": "66554", "addr:state": "KS", "amenity": "post_box", "brand": "United States Postal Service", "brand:wikidata": "Q668687", "collection_times": "Mo-Fr 11:30; Sa 08:30", "name": "USPS COLLECTION BOX - PO LOBBY", "nsi_id": "unitedstatespostalservice-a77078", "operator": "United States Postal Service", "operator:short": "USPS", "operator:type": "public", "operator:wikidata": "Q668687", "ref": "6655400003"}, "type": "Feature"}
