{"dataset_attributes": {"@spider": "usps_collection_boxes", "spider:collection_time": "2023-09-13T08:25:17.985642"}, "geometry": {"coordinates": [-95.6725, 39.053477], "type": "Point"}, "id": "a-evnHIg3Q_xO4Up26GM8LZ6u8E=", "properties": {"@spider": "usps_collection_boxes", "addr:city": "TOPEKA", "addr:country": "US", "addr:full": "424 S KANSAS AVE", "addr:postcode": "66603", "addr:state": "KS", "amenity": "post_box", "brand": "United States Postal Service", "brand:wikidata": "Q668687", "collection_times": "Mo-Fr 17:00; Sa 12:00", "name": "USPS COLLECTION BOX - BLUE BOX", "note": "ON 12/24 AND 12/31, THIS BOX MAY BE COLLECTED AS EARLY AS 12 NOON.", "nsi_id": "unitedstatespostalservice-a77078", "operator": "United States Postal Service", "operator:short": "USPS", "operator:type": "public", "operator:wikidata": "Q668687", "ref": "6660300006"}, "type": "Feature"}
{"dataset_attributes": {"@spider": "usps_collection_boxes", "spider:collection_time": "2023-09-13T08:25:17.985642"}, "geometry": {"coordinates": [-95.6717122, 39.051434], "type": "Point"}, "id": "7qx5fifpM-pFSKjhbp75b2_6JOM=", "properties": {"@spider": "usps_collection_boxes", "addr:city": "TOPEKA", "addr:country": "US", "addr:full": "120 SE 6TH AVE", "addr:postcode": "66603", "addr:state": "KS", "amenity": "post_box", "brand": "United States Postal Service", "brand:wikidata": "Q668687", "collection_times": "Mo-Fr 14:15", "name": "USPS COLLECTION BOX - BLUE BOX", "note": "ON 12/24 AND 12/31, THIS BOX MAY BE COLLECTED AS EARLY AS 12 NOON.", "nsi_id": "unitedstatespostalservice-a77078", "operator": "United States Postal Service", "operator:short": "USPS", "operator:type": "public", "operator:wikidata": "Q668687", "ref": "6660300014"}, "type": "Feature"}
{"dataset_attributes": {"@spider": "usps_collection_boxes", "spider:collection_time": "2023-09-13T08:25:17.985642"}, "geometry": {"coordinates": [-95.6743442, 39.049857], "type": "Point"}, "id": "YParoPE2MwPv-kBXAAJVnSkKp20=", "properties": {"@spider": "usps_collection_boxes", "addr:city": "TOPEKA", "addr:country": "US", "addr:full": "700 S KANSAS AVE", "addr:postcode": "66603", "addr:state": "KS", "amenity": "post_box", "brand": "United States Postal Service", "brand:wikidata": "Q668687", "collection_times": "Mo-Fr 14:05", "name": "USPS COLLECTION BOX - BLUE BOX", "note": "ON 12/24 AND 12/31, THIS BOX MAY BE COLLECTED AS EARLY AS 12 NOON.", "nsi_id": "unitedstatespostalservice-a77078", "operator": "United States Postal Service", "operator:short": "USPS", "operator:type": "public", "operator:wikidata": "Q668687", "ref": "6660300020"}, "type": "Feature"}
{"dataset_attributes": {"@spider": "usps_collection_boxes", "spider:collection_time": "2023-09-13T08:25:17.985642"}, "geometry": {"coordinates": [-95.67666, 39.054975], "type": "Point"}, "id": "ZBmwj4BHRA9xFqGdvDQ22JCbTR4=", "properties": {"@spider": "usps_collection_boxes", "addr:city": "TOPEKA", "addr:country": "US", "addr:full": "424 S KANSAS AVE", "addr:postcode": "66603", "addr:state": "KS", "amenity": "post_box", "brand": "United States Postal Service", "brand:wikidata": "Q668687", "collection_times": "Mo-Fr 17:00; Sa 12:00", "name": "USPS COLLECTION BOX - PO LOBBY", "note": "ON 12/24 AND 12/31, THIS BOX MAY BE COLLECTED AS EARLY AS 12 NOON.", "nsi_id": "unitedstatespostalservice-a77078", "operator": "United States Postal Service", "operator:short": "USPS", "operator:type": "public", "operator:wikidata": "Q668687", "ref": "6660300063"}, "type": "Feature"}
{"dataset_attributes": {"@spider": "usps_collection_boxes", "spider:collection_time": "2023-09-13T08:25:17.985642"}, "geometry": {"coordinates": [-95.67666, 39.054975], "type": "Point"}, "id": "jiXtPldixTMuLt7H6F8cIeH_rsU=", "properties": {"@spider": "usps_collection_boxes", "addr:city": "TOPEKA", "addr:country": "US", "addr:full": "424 S KANSAS AVE", "addr:postcode": "66603", "addr:state": "KS", "amenity": "post_box", "brand": "United States Postal Service", "brand:wikidata": "Q668687", "collection_times": "Mo-Fr 17:00; Sa 12:00", "name": "USPS COLLECTION BOX - PO LOBBY", "note": "ON 12/24 AND 12/31, THIS BOX MAY BE COLLECTED AS EARLY AS 12 NOON.", "nsi_id": "unitedstatespostalservice-a77078", "operator": "United States Postal Service", "operator:short": "USPS", "operator:type": "public", "operator:wikidata": "Q668687", "ref": "6660300069"}, "type": "Feature"}
{"dataset_attributes": {"@spider": "usps_collection_boxes", "spider:collection_time": "2023-09-13T08:25:17.985642"}, "geometry": {"coordinates": [-95.67666, 39.054975], "type": "Point"}, "id": "2UrYcGbwZY6lb1dq3VKo8U8bMB4=", "properties": {"@spider": "usps_collection_boxes", "addr:city": "TOPEKA", "addr:country": "US", "addr:full": "424 S KANSAS AVE", "addr:postcode": "66603", "addr:state": "KS", "amenity": "post_box", "brand": "United States Postal Service", "brand:wikidata": "Q668687", "collection_times": "Mo-Fr 17:00; Sa 12:00", "name": "USPS COLLECTION BOX - PO LOBBY", "note": "ON 12/24 AND 12/31, THIS BOX MAY BE COLLECTED AS EARLY AS 12 NOON.", "nsi_id": "unitedstatespostalservice-a77078", "operator": "United States Postal Service", "operator:short": "USPS", "operator:type": "public", "operator:wikidata": "Q668687", "ref": "6660300070"}, "type": "Feature"}
{"dataset_attributes": {"@spider": "usps_collection_boxes", "spider:collection_time": "2023-09-13T08:25:17.985642"}, "geometry": {"coordinates": [-95.67666, 39.054975], "type": "Point"}, "id": "joMAuO2Jse-k32KX5WXIVWey7XM=", "properties": {"@spider": "usps_collection_boxes", "addr:city": "TOPEKA", "addr:country": "US", "addr:full": "424 S KANSAS AVE", "addr:postcode": "66603", "addr:state": "KS", "amenity": "post_box", "brand": "United States Postal Service", "brand:wikidata": "Q668687", "collection_times": "Mo-Fr 17:00; Sa 12:00", "name": "USPS COLLECTION BOX - PO LOBBY", "note": "ON 12/24 AND 12/31, THIS BOX MAY BE COLLECTED AS EARLY AS 12 NOON.", "nsi_id": "unitedstatespostalservice-a77078", "operator": "United States Postal Service", "operator:short": "USPS", "operator:type": "public", "operator:wikidata": "Q668687", "ref": "6660300071"}, "type": "Feature"}
{"dataset_attributes": {"@spider": "usps_collection_boxes", "spider:collection_time": "2023-09-13T08:25:17.985642"}, "geometry": {"coordinates": [-95.728227, 39.041961], "type": "Point"}, "id": "s4odj5o_UC4zcTB2ig3W79yvTkg=", "properties": {"@spider": "usps_collection_boxes", "addr:city": "TOPEKA", "addr:country": "US", "addr:full": "1430 SW WOODHULL ST", "addr:postcode": "66604", "addr:state": "KS", "amenity": "post_box", "brand": "United States Postal Service", "brand:wikidata": "Q668687", "collection_times": "Mo-Fr 17:00; Sa 16:00", "name": "USPS COLLECTION BOX - BLUE BOX", "note": "ON 12/24 AND 12/31, THIS BOX MAY BE COLLECTED AS EARLY AS 12 NOON.", "nsi_id": "unitedstatespostalservice-a77078", "operator": "United States Postal Service", "operator:short": "USPS", "operator:type": "public", "operator:wikidata": "Q668687", "ref": "6660400001"}, "type": "Feature"}
{"dataset_attributes": {"@spider": "usps_collection_boxes", "spider:collection_time": "2023-09-13T08:25:17.985642"}, "geometry": {"coordinates": [-95.7435917, 39.03739], "type": "Point"}, "id": "taBBbZkcYFjo5h807Al396QvLvc=", "properties": {"@spider": "usps_collection_boxes", "addr:city": "TOPEKA", "addr:country": "US", "addr:full": "1635 SW FAIRLAWN RD", "addr:postcode": "66604", "addr:state": "KS", "amenity": "post_box", "brand": "United States Postal Service", "brand:wikidata": "Q668687", "collection_times": "Mo-Sa 15:25", "name": "USPS COLLECTION BOX - BLUE BOX", "note": "ON 12/24 AND 12/31, THIS BOX MAY BE COLLECTED AS EARLY AS 12 NOON.", "nsi_id": "unitedstatespostalservice-a77078", "operator": "United States Postal Service", "operator:short": "USPS", "operator:type": "public", "operator:wikidata": "Q668687", "ref": "6660400012"}, "type": "Feature"}
{"dataset_attributes": {"@spider": "usps_collection_boxes", "spider:collection_time": "2023-09-13T08:25:17.985642"}, "geometry": {"coordinates": [-95.7108927, 39.029277], "type": "Point"}, "id": "rX2ImhvvflORNGwe7-DycTfgpkw=", "properties": {"@spider": "usps_collection_boxes", "addr:city": "TOPEKA", "addr:country": "US", "addr:full": "2621 SW 21ST ST", "addr:postcode": "66604", "addr:state": "KS", "amenity": "post_box", "brand": "United States Postal Service", "brand:wikidata": "Q668687", "collection_times": "Mo-Sa 15:00", "name": "USPS COLLECTION BOX - BLUE BOX", "note": "ON 12/24 AND 12/31, THIS BOX MAY BE COLLECTED AS EARLY AS 12 NOON.", "nsi_id": "unitedstatespostalservice-a77078", "operator": "United States Postal Service", "operator:short": "USPS", "operator:type": "public", "operator:wikidata": "Q668687", "ref": "6660400027"}, "type": "Feature"}
{"dataset_attributes": {"@spider": "usps_collection_boxes", "spider:collection_time": "2023-09-13T08:25:17.985642"}, "geometry": {"coordinates": [-95.728227, 39.041961], "type": "Point"}, "id": "h9lJ1J-ukKd50WSa5I34VVWSOpE=", "properties": {"@spider": "usps_collection_boxes", "addr:city": "TOPEKA", "addr:country": "US", "addr:full": "1430 SW WOODHULL ST", "addr:postcode": "66604", "addr:state": "KS", "amenity": "post_box", "brand": "United States Postal Service", "brand:wikidata": "Q668687", "collection_times": "Mo-Fr 17:00; Sa 12:00", "name": "USPS COLLECTION BOX - PO LOBBY", "note": "ON 12/24 AND 12/31, THIS BOX MAY BE COLLECTED AS EARLY AS 12 NOON.", "nsi_id": "unitedstatespostalservice-a77078", "operator": "United States Postal Service", "operator:short": "USPS", "operator:type": "public", "operator:wikidata": "Q668687", "ref": "6660400055"}, "type": "Feature"}
{"dataset_attributes": {"@spider": "usps_collection_boxes", "spider:collection_time": "2023-09-13T08:25:17.985642"}, "geometry": {"coordinates": [-95.7637142, 39.046618], "type": "Point"}, "id": "E4D1JX6tzlseaVzuOFmGO-EiJFk=", "properties": {"@spider": "usps_collection_boxes", "addr:city": "TOPEKA", "addr:country": "US", "addr:full": "1133 SW WANAMAKER RD", "addr:postcode": "66604", "addr:state": "KS", "amenity": "post_box", "brand": "United States Postal Service", "brand:wikidata": "Q668687", "collection_times": "Mo-Fr 12:00", "name": "USPS COLLECTION BOX - BLUE BOX", "nsi_id": "unitedstatespostalservice-a77078", "operator": "United States Postal Service", "operator:short": "USPS", "operator:type": "public", "operator:wikidata": "Q668687", "ref": "6660400057"}, "type": "Feature"}
{"dataset_attributes": {"@spider": "usps_collection_boxes", "spider:collection_time": "2023-09-13T08:25:17.985642"}, "geometry": {"coordinates": [-95.728227, 39.041961], "type": "Point"}, "id": "F_MBvor1eIIdHF3dl552VWLQ1zY=", "properties": {"@spider": "usps_collection_boxes", "addr:city": "TOPEKA", "addr:country": "US", "addr:full": "1430 SW WOODHULL ST", "addr:postcode": "66604", "addr:state": "KS", "amenity": "post_box", "brand": "United States Postal Service", "brand:wikidata": "Q668687", "collection_times": "Mo-Fr 17:00; Sa 12:00", "name": "USPS COLLECTION BOX - PO LOBBY", "note": "ON 12/24 AND 12/31, THIS BOX MAY BE COLLECTED AS EARLY AS 12 NOON.", "nsi_id": "unitedstatespostalservice-a77078", "operator": "United States Postal Service", "operator:short": "USPS", "operator:type": "public", "operator:wikidata": "Q668687", "ref": "6660400059"}, "type": "Feature"}
{"dataset_attributes": {"@spider": "usps_collection_boxes", "spider:collection_time": "2023-09-13T08:25:17.985642"}, "geometry": {"coordinates": [-95.728227, 39.041961], "type": "Point"}, "id": "S-c-dWMdA62iN2UlN8DkB9XTUlU=", "properties": {"@spider": "usps_collection_boxes", "addr:city": "TOPEKA", "addr:country": "US", "addr:full": "1430 SW WOODHULL ST", "addr:postcode": "66604", "addr:state": "KS", "amenity": "post_box", "brand": "United States Postal Service", "brand:wikidata": "Q668687", "collection_times": "Mo-Fr 17:00; Sa 12:00", "name": "USPS COLLECTION BOX - PO LOBBY", "note": "ON 12/24 AND 12/31, THIS BOX MAY BE COLLECTED AS EARLY AS 12 NOON.", "nsi_id": "unitedstatespostalservice-a77078", "operator": "United States Postal Service", "operator:short": "USPS", "operator:type": "public", "operator:wikidata": "Q668687", "ref": "6660400060"}, "type": "Feature"}
{"dataset_attributes": {"@spider": "usps_collection_boxes", "spider:collection_time": "2023-09-13T08:25:17.985642"}, "geometry": {"coordinates": [-95.728216656, 39.041594612], "type": "Point"}, "id": "WVojf5fI5kLwwBTDg7DCg6LZJSA=", "properties": {"@spider": "usps_collection_boxes", "addr:city": "TOPEKA", "addr:country": "US", "addr:full": "1430 SW WOODHULL ST", "addr:postcode": "66604", "addr:state": "KS", "amenity": "post_box", "brand": "United States Postal Service", "brand:wikidata": "Q668687", "collection_times": "Mo-Fr 17:00; Sa 12:00", "name": "USPS COLLECTION BOX - PO LOBBY", "note": "ON 12/24 AND 12/31, THIS BOX MAY BE COLLECTED AS EARLY AS 12 NOON.", "nsi_id": "unitedstatespostalservice-a77078", "operator": "United States Postal Service", "operator:short": "USPS", "operator:type": "public", "operator:wikidata": "Q668687", "ref": "6660400065"}, "type": "Feature"}
{"dataset_attributes": {"@spider": "usps_collection_boxes", "spider:collection_time": "2023-09-13T08:25:17.985642"}, "geometry": {"coordinates": [-95.67032585, 39.014043443], "type": "Point"}, "id": "-SRO4oVOGa2JG5-JsUmerKM-q6k=", "properties": {"@spider": "usps_collection_boxes", "addr:city": "TOPEKA", "addr:country": "US", "addr:full": "2921 SE ADAMS ST", "addr:postcode": "66605", "addr:state": "KS", "amenity": "post_box", "brand": "United States Postal Service", "brand:wikidata": "Q668687", "collection_times": "Mo-Fr 17:00; Sa 14:55", "name": "USPS COLLECTION BOX - BLUE BOX", "note": "ON 12/24 AND 12/31, THIS BOX MAY BE COLLECTED AS EARLY AS 12 NOON.", "nsi_id": "unitedstatespostalservice-a77078", "operator": "United States Postal Service", "operator:short": "USPS", "operator:type": "public", "operator:wikidata": "Q668687", "ref": "6660500000"}, "type": "Feature"}
{"dataset_attributes": {"@spider": "usps_collection_boxes", "spider:collection_time": "2023-09-13T08:25:17.985642"}, "geometry": {"coordinates": [-95.6502890008, 39.0147469933], "type": "Point"}, "id": "G-T4SDSyZLGjpRpin7OSDB7pdjo=", "properties": {"@spider": "usps_collection_boxes", "addr:city": "TOPEKA", "addr:country": "US", "addr:full": "2009 SE 29TH ST", "addr:postcode": "66605", "addr:state": "KS", "amenity": "post_box", "brand": "United States Postal Service", "brand:wikidata": "Q668687", "collection_times": "Mo-Fr 14:40; Sa 14:48", "name": "USPS COLLECTION BOX - BLUE BOX", "note": "ON 12/24 AND 12/31, THIS BOX MAY BE COLLECTED AS EARLY AS 12 NOON.", "nsi_id": "unitedstatespostalservice-a77078", "operator": "United States Postal Service", "operator:short": "USPS", "operator:type": "public", "operator:wikidata": "Q668687", "ref": "6660500003"}, "type": "Feature"}
{"dataset_attributes": {"@spider": "usps_collection_boxes", "spider:collection_time": "2023-09-13T08:25:17.985642"}, "geometry": {"coordinates": [-95.670297, 39.014732], "type": "Point"}, "id": "eC6ji-6I-fg4jR8y3psAgdQl9Wo=", "properties": {"@spider": "usps_collection_boxes", "addr:city": "TOPEKA", "addr:country": "US", "addr:full": "2921 SE ADAMS ST", "addr:postcode": "66605", "addr:state": "KS", "amenity": "post_box", "brand": "United States Postal Service", "brand:wikidata": "Q668687", "collection_times": "Mo-Fr 17:00; Sa 14:53", "name": "USPS COLLECTION BOX - PO LOBBY", "note": "ON 12/24 AND 12/31, THIS BOX MAY BE COLLECTED AS EARLY AS 12 NOON.", "nsi_id": "unitedstatespostalservice-a77078", "operator": "United States Postal Service", "operator:short": "USPS", "operator:type": "public", "operator:wikidata": "Q668687", "ref": "6660500021"}, "type": "Feature"}
{"dataset_attributes": {"@spider": "usps_collection_boxes", "spider:collection_time": "2023-09-13T08:25:17.985642"}, "geometry": {"coordinates": [-95.670297, 39.014732], "type": "Point"}, "id": "FeryNRuvk7XWnfflwcwNP1TWt4E=", "properties": {"@spider": "usps_collection_boxes", "addr:city": "TOPEKA", "addr:country": "US", "addr:full": "2921 SE ADAMS ST", "addr:postcode": "66605", "addr:state": "KS", "amenity": "post_box", "brand": "United States Postal Service", "brand:wikidata": "Q668687", "collection_times": "Mo-Fr 17:00; Sa 14:53", "name": "USPS COLLECTION BOX - PO LOBBY", "note": "ON 12/24 AND 12/31, THIS BOX MAY BE COLLECTED AS EARLY AS 12 NOON.", "nsi_id": "unitedstatespostalservice-a77078", "operator": "United States Postal Service", "operator:short": "USPS", "operator:type": "public", "operator:wikidata": "Q668687", "ref": "6660500022"}, "type": "Feature"}
{"dataset_attributes": {"@spider": "usps_collection_boxes", "spider:collection_time": "2023-09-13T08:25:17.985642"}, "geometry": {"coordinates": [-95.67032585, 39.014043443], "type": "Point"}, "id": "iCZHbUlmmiadq8-VtnJ-KUbl9bo=", "properties": {"@spider": "usps_collection_boxes", "addr:city": "TOPEKA", "addr:country": "US", "addr:full": "2921 SE ADAMS ST", "addr:postcode": "66605", "addr:state": "KS", "amenity": "post_box", "brand": "United States Postal Service", "brand:wikidata": "Q668687", "collection_times": "Mo-Fr 17:00; Sa 12:00", "name": "USPS COLLECTION BOX - PO LOBBY", "note": "ON 12/24 AND 12/31, THIS BOX MAY BE COLLECTED AS EARLY AS 12 NOON.", "nsi_id": "unitedstatespostalservice-a77078", "operator": "United States Postal Service", "operator:short": "USPS", "operator:type": "public", "operator:wikidata": "Q668687", "ref": "6660500023"}, "type": "Feature"}
{"dataset_attributes": {"@spider": "usps_collection_boxes", "spider:collection_time": "2023-09-13T08:25:17.985642"}, "geometry": {"coordinates": [-95.698587065, 39.0534164608], "type": "Point"}, "id": "XvuMHEw5rnE2w3QT6RZoWBpVR3E=", "properties": {"@spider": "usps_collection_boxes", "addr:city": "TOPEKA", "addr:country": "US", "addr:full": "900 SW MULVANE ST", "addr:postcode": "66606", "addr:state": "KS", "amenity": "post_box", "brand": "United States Postal Service", "brand:wikidata": "Q668687", "collection_times": "Mo-Fr 15:12", "name": "USPS COLLECTION BOX - BLUE BOX", "note": "ON 12/24 AND 12/31, THIS BOX MAY BE COLLECTED AS EARLY AS 12 NOON.", "nsi_id": "unitedstatespostalservice-a77078", "operator": "United States Postal Service", "operator:short": "USPS", "operator:type": "public", "operator:wikidata": "Q668687", "ref": "6660600002"}, "type": "Feature"}
{"dataset_attributes": {"@spider": "usps_collection_boxes", "spider:collection_time": "2023-09-13T08:25:17.985642"}, "geometry": {"coordinates": [-95.6631944668, 39.08769744], "type": "Point"}, "id": "FI7RTKvxw5KoKhGHHaoIg2p9Jq8=", "properties": {"@spider": "usps_collection_boxes", "addr:city": "TOPEKA", "addr:country": "US", "addr:full": "220 NW LYMAN RD", "addr:postcode": "66608", "addr:state": "KS", "amenity": "post_box", "brand": "United States Postal Service", "brand:wikidata": "Q668687", "collection_times": "Mo-Fr 17:00; Sa 14:00", "name": "USPS COLLECTION BOX - BLUE BOX", "note": "ON 12/24 AND 12/31, THIS BOX MAY BE COLLECTED AS EARLY AS 12 NOON.", "nsi_id": "unitedstatespostalservice-a77078", "operator": "United States Postal Service", "operator:short": "USPS", "operator:type": "public", "operator:wikidata": "Q668687", "ref": "6660800014"}, "type": "Feature"}
{"dataset_attributes": {"@spider": "usps_collection_boxes", "spider:collection_time": "2023-09-13T08:25:17.985642"}, "geometry": {"coordinates": [-95.663186, 39.087657], "type": "Point"}, "id": "1M2Rtrtq8846poXPuuoHP8iO-CA=", "properties": {"@spider": "usps_collection_boxes", "addr:city": "TOPEKA", "addr:country": "US", "addr:full": "220 NW LYMAN RD", "addr:postcode": "66608", "addr:state": "KS", "amenity": "post_box", "brand": "United States Postal Service", "brand:wikidata": "Q668687", "collection_times": "Mo-Fr 17:00; Sa 16:00", "name": "USPS COLLECTION BOX - PO LOBBY", "note": "ON 12/24 AND 12/31, THIS BOX MAY BE COLLECTED AS EARLY AS 12 NOON.", "nsi_id": "unitedstatespostalservice-a77078", "operator": "United States Postal Service", "operator:short": "USPS", "operator:type": "public", "operator:wikidata": "Q668687", "ref": "6660800018"}, "type": "Feature"}
{"dataset_attributes": {"@spider": "usps_collection_boxes", "spider:collection_time": "2023-09-13T08:25:17.985642"}, "geometry": {"coordinates": [-95.663186, 39.087657], "type": "Point"}, "id": "SFU9flJA6u9jN9HRAJwcY1SxbaE=", "properties": {"@spider": "usps_collection_boxes", "addr:city": "TOPEKA", "addr:country": "US", "addr:full": "220 NW LYMAN RD", "addr:postcode": "66608", "addr:state": "KS", "amenity": "post_box", "brand": "United States Postal Service", "brand:wikidata": "Q668687", "collection_times": "Mo-Fr 17:00; Sa 16:00", "name": "USPS COLLECTION BOX - PO LOBBY", "note": "ON 12/24 AND 12/31, THIS BOX MAY BE COLLECTED AS EARLY AS 12 NOON.", "nsi_id": "unitedstatespostalservice-a77078", "operator": "United States Postal Service", "operator:short": "USPS", "operator:type": "public", "operator:wikidata": "Q668687", "ref": "6660800019"}, "type": "Feature"}
{"dataset_attributes": {"@spider": "usps_collection_boxes", "spider:collection_time": "2023-09-13T08:25:17.985642"}, "geometry": {"coordinates": [-95.663186, 39.087657], "type": "Point"}, "id": "zEmpY0S8uWOigvNMa0-mjMantuo=", "properties": {"@spider": "usps_collection_boxes", "addr:city": "TOPEKA", "addr:country": "US", "addr:full": "220 NW LYMAN RD", "addr:postcode": "66608", "addr:state": "KS", "amenity": "post_box", "brand": "United States Postal Service", "brand:wikidata": "Q668687", "collection_times": "Mo-Fr 17:00; Sa 16:00", "name": "USPS COLLECTION BOX - PO LOBBY", "note": "ON 12/24 AND 12/31, THIS BOX MAY BE COLLECTED AS EARLY AS 12 NOON.", "nsi_id": "unitedstatespostalservice-a77078", "operator": "United States Postal Service", "operator:short": "USPS", "operator:type": "public", "operator:wikidata": "Q668687", "ref": "6660800020"}, "type": "Feature"}
{"dataset_attributes": {"@spider": "usps_collection_boxes", "spider:collection_time": "2023-09-13T08:25:17.985642"}, "geometry": {"coordinates": [-95.663186, 39.087657], "type": "Point"}, "id": "xLjK3-yhpzjK7n3oXNYKKTO3g1U=", "properties": {"@spider": "usps_collection_boxes", "addr:city": "TOPEKA", "addr:country": "US", "addr:full": "220 NW LYMAN RD", "addr:postcode": "66608", "addr:state": "KS", "amenity": "post_box", "brand": "United States Postal Service", "brand:wikidata": "Q668687", "collection_times": "Mo-Fr 17:00; Sa 16:00", "name": "USPS COLLECTION BOX - PO LOBBY", "note": "ON 12/24 AND 12/31, THIS BOX MAY BE COLLECTED AS EARLY AS 12 NOON.", "nsi_id": "unitedstatespostalservice-a77078", "operator": "United States Postal Service", "operator:short": "USPS", "operator:type": "public", "operator:wikidata": "Q668687", "ref": "6660800021"}, "type": "Feature"}
{"dataset_attributes": {"@spider": "usps_collection_boxes", "spider:collection_time": "2023-09-13T08:25:17.985642"}, "geometry": {"coordinates": [-95.663194467, 39.08769744], "type": "Point"}, "id": "caAHnFQr-0t8-Cmlzkq62NX4nbM=", "properties": {"@spider": "usps_collection_boxes", "addr:city": "TOPEKA", "addr:country": "US", "addr:full": "220 NW LYMAN RD", "addr:postcode": "66608", "addr:state": "KS", "amenity": "post_box", "brand": "United States Postal Service", "brand:wikidata": "Q668687", "collection_times": "Mo-Fr 17:00; Sa 12:00", "name": "USPS COLLECTION BOX - PO LOBBY", "note": "ON 12/24 AND 12/31, THIS BOX MAY BE COLLECTED AS EARLY AS 12 NOON.", "nsi_id": "unitedstatespostalservice-a77078", "operator": "United States Postal Service", "operator:short": "USPS", "operator:type": "public", "operator:wikidata": "Q668687", "ref": "6660800022"}, "type": "Feature"}
{"dataset_attributes": {"@spider": "usps_collection_boxes", "spider:collection_time": "2023-09-13T08:25:17.985642"}, "geometry": {"coordinates": [-95.7058708997, 39.0005145107], "type": "Point"}, "id": "5Ebri5FHQ2D5ozzhTVD8FQ9THPM=", "properties": {"@spider": "usps_collection_boxes", "addr:city": "TOPEKA", "addr:country": "US", "addr:full": "3700 SW BURLINGAME RD", "addr:postcode": "66609", "addr:state": "KS", "amenity": "post_box", "brand": "United States Postal Service", "brand:wikidata": "Q668687", "collection_times": "Mo-Fr 15:20; Sa 14:00", "name": "USPS COLLECTION BOX - BLUE BOX", "note": "ON 12/24 AND 12/31, THIS BOX MAY BE COLLECTED AS EARLY AS 12 NOON.", "nsi_id": "unitedstatespostalservice-a77078", "operator": "United States Postal Service", "operator:short": "USPS", "operator:type": "public", "operator:wikidata": "Q668687", "ref": "6660900007"}, "type": "Feature"}
{"dataset_attributes": {"@spider": "usps_collection_boxes", "spider:collection_time": "2023-09-13T08:25:17.985642"}, "geometry": {"coordinates": [-95.6877174969, 39.01473], "type": "Point"}, "id": "4Fyyfmc0E8x205VNlt4cX5Md36k=", "properties": {"@spider": "usps_collection_boxes", "addr:city": "TOPEKA", "addr:country": "US", "addr:full": "2901 SW TOPEKA BLVD", "addr:postcode": "66611", "addr:state": "KS", "amenity": "post_box", "brand": "United States Postal Service", "brand:wikidata": "Q668687", "collection_times": "Mo-Fr 15:15; Sa 14:30", "name": "USPS COLLECTION BOX - BLUE BOX", "note": "ON 12/24 AND 12/31, THIS BOX MAY BE COLLECTED AS EARLY AS 12 NOON.", "nsi_id": "unitedstatespostalservice-a77078", "operator": "United States Postal Service", "operator:short": "USPS", "operator:type": "public", "operator:wikidata": "Q668687", "ref": "6661100007"}, "type": "Feature"}
{"dataset_attributes": {"@spider": "usps_collection_boxes", "spider:collection_time": "2023-09-13T08:25:17.985642"}, "geometry": {"coordinates": [-95.6933299, 39.000222], "type": "Point"}, "id": "98Px1xC9aOiG5IbGiJQPGT3_cTI=", "properties": {"@spider": "usps_collection_boxes", "addr:city": "TOPEKA", "addr:country": "US", "addr:full": "1301 SW 37TH ST", "addr:postcode": "66611", "addr:state": "KS", "amenity": "post_box", "brand": "United States Postal Service", "brand:wikidata": "Q668687", "collection_times": "Mo-Fr 15:18; Sa 14:20", "name": "USPS COLLECTION BOX - BLUE BOX", "note": "ON 12/24 AND 12/31, THIS BOX MAY BE COLLECTED AS EARLY AS 12 NOON.", "nsi_id": "unitedstatespostalservice-a77078", "operator": "United States Postal Service", "operator:short": "USPS", "operator:type": "public", "operator:wikidata": "Q668687", "ref": "6661100010"}, "type": "Feature"}
{"dataset_attributes": {"@spider": "usps_collection_boxes", "spider:collection_time": "2023-09-13T08:25:17.985642"}, "geometry": {"coordinates": [-95.6874552, 39.00255], "type": "Point"}, "id": "mlK_y77MjcNAFyDBv8QgLJoEyiw=", "properties": {"@spider": "usps_collection_boxes", "addr:city": "TOPEKA", "addr:country": "US", "addr:full": "3650 SW TOPEKA BLVD", "addr:postcode": "66611", "addr:state": "KS", "amenity": "post_box", "brand": "United States Postal Service", "brand:wikidata": "Q668687", "collection_times": "Mo-Fr 15:17; Sa 14:00", "name": "USPS COLLECTION BOX - BLUE BOX", "note": "ON 12/24 AND 12/31, THIS BOX MAY BE COLLECTED AS EARLY AS 12 NOON.", "nsi_id": "unitedstatespostalservice-a77078", "operator": "United States Postal Service", "operator:short": "USPS", "operator:type": "public", "operator:wikidata": "Q668687", "ref": "6661100012"}, "type": "Feature"}
{"dataset_attributes": {"@spider": "usps_collection_boxes", "spider:collection_time": "2023-09-13T08:25:17.985642"}, "geometry": {"coordinates": [-95.6874578, 39.002578], "type": "Point"}, "id": "N-ClbJF3r2eKxe-nOC-6CkbWG9M=", "properties": {"@spider": "usps_collection_boxes", "addr:city": "TOPEKA", "addr:country": "US", "addr:full": "3650 SW TOPEKA BLVD", "addr:postcode": "66611", "addr:state": "KS", "amenity": "post_box", "brand": "United States Postal Service", "brand:wikidata": "Q668687", "collection_times": "Mo-Fr 15:17; Sa 14:00", "name": "USPS COLLECTION BOX - BLUE BOX", "note": "ON 12/24 AND 12/31, THIS BOX MAY BE COLLECTED AS EARLY AS 12 NOON.", "nsi_id": "unitedstatespostalservice-a77078", "operator": "United States Postal Service", "operator:short": "USPS", "operator:type": "public", "operator:wikidata": "Q668687", "ref": "6661100013"}, "type": "Feature"}
{"dataset_attributes": {"@spider": "usps_collection_boxes", "spider:collection_time": "2023-09-13T08:25:17.985642"}, "geometry": {"coordinates": [-95.6735894, 39.046864], "type": "Point"}, "id": "76VxpByX_IlGdMYbPCfX_uY5-94=", "properties": {"@spider": "usps_collection_boxes", "addr:city": "TOPEKA", "addr:country": "US", "addr:full": "900 SE QUINCY ST", "addr:postcode": "66612", "addr:state": "KS", "amenity": "post_box", "brand": "United States Postal Service", "brand:wikidata": "Q668687", "collection_times": "Mo-Fr 14:18", "name": "USPS COLLECTION BOX - BLUE BOX", "note": "ON 12/24 AND 12/31, THIS BOX MAY BE COLLECTED AS EARLY AS 12 NOON.", "nsi_id": "unitedstatespostalservice-a77078", "operator": "United States Postal Service", "operator:short": "USPS", "operator:type": "public", "operator:wikidata": "Q668687", "ref": "6661200008"}, "type": "Feature"}
{"dataset_attributes": {"@spider": "usps_collection_boxes", "spider:collection_time": "2023-09-13T08:25:17.985642"}, "geometry": {"coordinates": [-95.7458599637, 39.0286319931], "type": "Point"}, "id": "0yT_Tnfhw6Aofi3v-aSJ0yMMCwg=", "properties": {"@spider": "usps_collection_boxes", "addr:city": "TOPEKA", "addr:country": "US", "addr:full": "5325 SW 21ST ST", "addr:postcode": "66614", "addr:state": "KS", "amenity": "post_box", "brand": "United States Postal Service", "brand:wikidata": "Q668687", "collection_times": "Mo-Fr 15:20; Sa 14:10", "name": "USPS COLLECTION BOX - BLUE BOX", "note": "ON 12/24 AND 12/31, THIS BOX MAY BE COLLECTED AS EARLY AS 12 NOON.", "nsi_id": "unitedstatespostalservice-a77078", "operator": "United States Postal Service", "operator:short": "USPS", "operator:type": "public", "operator:wikidata": "Q668687", "ref": "6661400001"}, "type": "Feature"}
{"dataset_attributes": {"@spider": "usps_collection_boxes", "spider:collection_time": "2023-09-13T08:25:17.985642"}, "geometry": {"coordinates": [-95.7264477, 39.014559], "type": "Point"}, "id": "Ut_w4axpBIehLeNwn7DXPdrBkvk=", "properties": {"@spider": "usps_collection_boxes", "addr:city": "TOPEKA", "addr:country": "US", "addr:full": "2900 SW GAGE BLVD", "addr:postcode": "66614", "addr:state": "KS", "amenity": "post_box", "brand": "United States Postal Service", "brand:wikidata": "Q668687", "collection_times": "Mo-Fr 15:10; Sa 13:55", "name": "USPS COLLECTION BOX - BLUE BOX", "note": "ON 12/24 AND 12/31, THIS BOX MAY BE COLLECTED AS EARLY AS 12 NOON.", "nsi_id": "unitedstatespostalservice-a77078", "operator": "United States Postal Service", "operator:short": "USPS", "operator:type": "public", "operator:wikidata": "Q668687", "ref": "6661400004"}, "type": "Feature"}
{"dataset_attributes": {"@spider": "usps_collection_boxes", "spider:collection_time": "2023-09-13T08:25:17.985642"}, "geometry": {"coordinates": [-95.7134495, 39.014907], "type": "Point"}, "id": "vmXSQBmBPtaRD6aTZYzD_lrGMww=", "properties": {"@spider": "usps_collection_boxes", "addr:city": "TOPEKA", "addr:country": "US", "addr:full": "2900 SW OAKLEY AVE", "addr:postcode": "66614", "addr:state": "KS", "amenity": "post_box", "brand": "United States Postal Service", "brand:wikidata": "Q668687", "collection_times": "Mo-Fr 15:12; Sa 14:00", "name": "USPS COLLECTION BOX - BLUE BOX", "note": "ON 12/24 AND 12/31, THIS BOX MAY BE COLLECTED AS EARLY AS 12 NOON.", "nsi_id": "unitedstatespostalservice-a77078", "operator": "United States Postal Service", "operator:short": "USPS", "operator:type": "public", "operator:wikidata": "Q668687", "ref": "6661400006"}, "type": "Feature"}
{"dataset_attributes": {"@spider": "usps_collection_boxes", "spider:collection_time": "2023-09-13T08:25:17.985642"}, "geometry": {"coordinates": [-95.7134284, 39.014896], "type": "Point"}, "id": "na-0Tx-s1TsqvV83yYk6EHso0BI=", "properties": {"@spider": "usps_collection_boxes", "addr:city": "TOPEKA", "addr:country": "US", "addr:full": "2900 SW OAKLEY AVE", "addr:postcode": "66614", "addr:state": "KS", "amenity": "post_box", "brand": "United States Postal Service", "brand:wikidata": "Q668687", "collection_times": "Mo-Fr 15:12; Sa 14:00", "name": "USPS COLLECTION BOX - BLUE BOX", "note": "ON 12/24 AND 12/31, THIS BOX MAY BE COLLECTED AS EARLY AS 12 NOON.", "nsi_id": "unitedstatespostalservice-a77078", "operator": "United States Postal Service", "operator:short": "USPS", "operator:type": "public", "operator:wikidata": "Q668687", "ref": "6661400007"}, "type": "Feature"}
{"dataset_attributes": {"@spider": "usps_collection_boxes", "spider:collection_time": "2023-09-13T08:25:17.985642"}, "geometry": {"coordinates": [-95.762377879, 39.013856581], "type": "Point"}, "id": "zhVOGYe2INUmxaQHHOd4eVh5LGU=", "properties": {"@spider": "usps_collection_boxes", "addr:city": "TOPEKA", "addr:country": "US", "addr:full": "2951 SW WANAMAKER RD", "addr:postcode": "66614", "addr:state": "KS", "amenity": "post_box", "brand": "United States Postal Service", "brand:wikidata": "Q668687", "collection_times": "Mo-Fr 15:00; Sa 13:40", "name": "USPS COLLECTION BOX - PO LOBBY", "note": "ON 12/24 AND 12/31, THIS BOX MAY BE COLLECTED AS EARLY AS 12 NOON.", "nsi_id": "unitedstatespostalservice-a77078", "operator": "United States Postal Service", "operator:short": "USPS", "operator:type": "public", "operator:wikidata": "Q668687", "ref": "6661400012"}, "type": "Feature"}
{"dataset_attributes": {"@spider": "usps_collection_boxes", "spider:collection_time": "2023-09-13T08:25:17.985642"}, "geometry": {"coordinates": [-95.7514860078, 39.014698548], "type": "Point"}, "id": "PGAAXO2t9MRyl24CZodkt77kCnk=", "properties": {"@spider": "usps_collection_boxes", "addr:city": "TOPEKA", "addr:country": "US", "addr:full": "5660 SW 29TH ST", "addr:postcode": "66614", "addr:state": "KS", "amenity": "post_box", "brand": "United States Postal Service", "brand:wikidata": "Q668687", "collection_times": "Mo-Fr 15:05; Sa 13:50", "name": "USPS COLLECTION BOX - BLUE BOX", "note": "ON 12/24 AND 12/31, THIS BOX MAY BE COLLECTED AS EARLY AS 12 NOON.", "nsi_id": "unitedstatespostalservice-a77078", "operator": "United States Postal Service", "operator:short": "USPS", "operator:type": "public", "operator:wikidata": "Q668687", "ref": "6661400016"}, "type": "Feature"}
{"dataset_attributes": {"@spider": "usps_collection_boxes", "spider:collection_time": "2023-09-13T08:25:17.985642"}, "geometry": {"coordinates": [-95.765861, 39.014597], "type": "Point"}, "id": "KTxYsFrzL5xoAoMoBxhzjaaik2U=", "properties": {"@spider": "usps_collection_boxes", "addr:city": "TOPEKA", "addr:country": "US", "addr:full": "6120 SW 29TH ST", "addr:postcode": "66614", "addr:state": "KS", "amenity": "post_box", "brand": "United States Postal Service", "brand:wikidata": "Q668687", "collection_times": "Mo-Fr 17:00; Sa 13:30", "name": "USPS COLLECTION BOX - BLUE BOX", "note": "ON 12/24 AND 12/31, THIS BOX MAY BE COLLECTED AS EARLY AS 12 NOON.", "nsi_id": "unitedstatespostalservice-a77078", "operator": "United States Postal Service", "operator:short": "USPS", "operator:type": "public", "operator:wikidata": "Q668687", "ref": "6661400020"}, "type": "Feature"}
{"dataset_attributes": {"@spider": "usps_collection_boxes", "spider:collection_time": "2023-09-13T08:25:17.985642"}, "geometry": {"coordinates": [-95.7797019816, 39.0150870052], "type": "Point"}, "id": "4gS0po32LlVZTbbMRnC3w-dyBd8=", "properties": {"@spider": "usps_collection_boxes", "addr:city": "TOPEKA", "addr:country": "US", "addr:full": "6730 SW 29TH ST", "addr:postcode": "66614", "addr:state": "KS", "amenity": "post_box", "brand": "United States Postal Service", "brand:wikidata": "Q668687", "collection_times": "Mo-Fr 14:40", "name": "USPS COLLECTION BOX - BLUE BOX", "note": "ON 12/24 AND 12/31, THIS BOX MAY BE COLLECTED AS EARLY AS 12 NOON.", "nsi_id": "unitedstatespostalservice-a77078", "operator": "United States Postal Service", "operator:short": "USPS", "operator:type": "public", "operator:wikidata": "Q668687", "ref": "6661400023"}, "type": "Feature"}
{"dataset_attributes": {"@spider": "usps_collection_boxes", "spider:collection_time": "2023-09-13T08:25:17.985642"}, "geometry": {"coordinates": [-95.638457, 39.066421], "type": "Point"}, "id": "b3JF9X7COi37RrGXAVqy2dluCwo=", "properties": {"@spider": "usps_collection_boxes", "addr:city": "TOPEKA", "addr:country": "US", "addr:full": "2620 NE SARDOU AVE", "addr:postcode": "66616", "addr:state": "KS", "amenity": "post_box", "brand": "United States Postal Service", "brand:wikidata": "Q668687", "collection_times": "Mo-Sa 14:05", "name": "USPS COLLECTION BOX - BLUE BOX", "note": "ON 12/24 AND 12/31, THIS BOX MAY BE COLLECTED AS EARLY AS 12 NOON.", "nsi_id": "unitedstatespostalservice-a77078", "operator": "United States Postal Service", "operator:short": "USPS", "operator:type": "public", "operator:wikidata": "Q668687", "ref": "6661600001"}, "type": "Feature"}
{"dataset_attributes": {"@spider": "usps_collection_boxes", "spider:collection_time": "2023-09-13T08:25:17.985642"}, "geometry": {"coordinates": [-95.723554653, 39.076830754], "type": "Point"}, "id": "50eR81T_3OvktIvm6rnVCY7BlMo=", "properties": {"@spider": "usps_collection_boxes", "addr:city": "TOPEKA", "addr:country": "US", "addr:full": "1410 NW GAGE BLVD", "addr:postcode": "66618", "addr:state": "KS", "amenity": "post_box", "brand": "United States Postal Service", "brand:wikidata": "Q668687", "collection_times": "Mo-Sa 18:30", "name": "USPS COLLECTION BOX - BLUE BOX", "note": "ON 12/24 AND 12/31, THIS BOX MAY BE COLLECTED AS EARLY AS 12 NOON.", "nsi_id": "unitedstatespostalservice-a77078", "operator": "United States Postal Service", "operator:short": "USPS", "operator:type": "public", "operator:wikidata": "Q668687", "ref": "6661800000"}, "type": "Feature"}
{"dataset_attributes": {"@spider": "usps_collection_boxes", "spider:collection_time": "2023-09-13T08:25:17.985642"}, "geometry": {"coordinates": [-95.723554653, 39.076830754], "type": "Point"}, "id": "W_govxeoUXbCFB1jiWvVR8LtXG8=", "properties": {"@spider": "usps_collection_boxes", "addr:city": "TOPEKA", "addr:country": "US", "addr:full": "1410 NW GAGE BLVD", "addr:postcode": "66618", "addr:state": "KS", "amenity": "post_box", "brand": "United States Postal Service", "brand:wikidata": "Q668687", "collection_times": "Mo-Sa 18:30", "name": "USPS COLLECTION BOX - BLUE BOX", "note": "ON 12/24 AND 12/31, THIS BOX MAY BE COLLECTED AS EARLY AS 12 NOON.", "nsi_id": "unitedstatespostalservice-a77078", "operator": "United States Postal Service", "operator:short": "USPS", "operator:type": "public", "operator:wikidata": "Q668687", "ref": "6661800001"}, "type": "Feature"}
{"dataset_attributes": {"@spider": "usps_collection_boxes", "spider:collection_time": "2023-09-13T08:25:17.985642"}, "geometry": {"coordinates": [-95.7184252, 39.12894], "type": "Point"}, "id": "_8YE4kyeVge1aE_5sNDpLLoWYsI=", "properties": {"@spider": "usps_collection_boxes", "addr:city": "TOPEKA", "addr:country": "US", "addr:full": "3603 NW 46TH ST", "addr:postcode": "66618", "addr:state": "KS", "amenity": "post_box", "brand": "United States Postal Service", "brand:wikidata": "Q668687", "collection_times": "Mo-Fr 15:30; Sa 14:00", "name": "USPS COLLECTION BOX - BLUE BOX", "note": "ON 12/24 AND 12/31, THIS BOX MAY BE COLLECTED AS EARLY AS 12 NOON.", "nsi_id": "unitedstatespostalservice-a77078", "operator": "United States Postal Service", "operator:short": "USPS", "operator:type": "public", "operator:wikidata": "Q668687", "ref": "6661800003"}, "type": "Feature"}
{"dataset_attributes": {"@spider": "usps_collection_boxes", "spider:collection_time": "2023-09-13T08:25:17.985642"}, "geometry": {"coordinates": [-95.723554653, 39.076830754], "type": "Point"}, "id": "mZPZva4wkecp0reVyruy-deJXuc=", "properties": {"@spider": "usps_collection_boxes", "addr:city": "TOPEKA", "addr:country": "US", "addr:full": "1410 NW GAGE BLVD", "addr:postcode": "66618", "addr:state": "KS", "amenity": "post_box", "brand": "United States Postal Service", "brand:wikidata": "Q668687", "collection_times": "Mo-Sa 18:30", "name": "USPS COLLECTION BOX - PO LOBBY", "note": "ON 12/24 AND 12/31, THIS BOX MAY BE COLLECTED AS EARLY AS 12 NOON.", "nsi_id": "unitedstatespostalservice-a77078", "operator": "United States Postal Service", "operator:short": "USPS", "operator:type": "public", "operator:wikidata": "Q668687", "ref": "6661800004"}, "type": "Feature"}
{"dataset_attributes": {"@spider": "usps_collection_boxes", "spider:collection_time": "2023-09-13T08:25:17.985642"}, "geometry": {"coordinates": [-95.723554653, 39.076830754], "type": "Point"}, "id": "unTliOqieMcC2DB6jbxPX3Ie0v0=", "properties": {"@spider": "usps_collection_boxes", "addr:city": "TOPEKA", "addr:country": "US", "addr:full": "1410 NW GAGE BLVD", "addr:postcode": "66618", "addr:state": "KS", "amenity": "post_box", "brand": "United States Postal Service", "brand:wikidata": "Q668687", "collection_times": "Mo-Fr 18:30", "name": "USPS COLLECTION BOX - PO LOBBY", "note": "ON 12/24 AND 12/31, THIS BOX MAY BE COLLECTED AS EARLY AS 12 NOON.", "nsi_id": "unitedstatespostalservice-a77078", "operator": "United States Postal Service", "operator:short": "USPS", "operator:type": "public", "operator:wikidata": "Q668687", "ref": "6661800006"}, "type": "Feature"}
{"dataset_attributes": {"@spider": "usps_collection_boxes", "spider:collection_time": "2023-09-13T08:25:17.985642"}, "geometry": {"coordinates": [-95.6869319, 38.96168], "type": "Point"}, "id": "X-C8nxI2xSlO0siXvWdMXk1M_as=", "properties": {"@spider": "usps_collection_boxes", "addr:city": "TOPEKA", "addr:country": "US", "addr:full": "5826 SW TOPEKA BLVD", "addr:postcode": "66619", "addr:state": "KS", "amenity": "post_box", "brand": "United States Postal Service", "brand:wikidata": "Q668687", "collection_times": "Mo-Fr 15:35; Sa 14:00", "name": "USPS COLLECTION BOX - BLUE BOX", "note": "ON 12/24 AND 12/31, THIS BOX MAY BE COLLECTED AS EARLY AS 12 NOON.", "nsi_id": "unitedstatespostalservice-a77078", "operator": "United States Postal Service", "operator:short": "USPS", "operator:type": "public", "operator:wikidata": "Q668687", "ref": "6661900000"}, "type": "Feature"}
{"dataset_attributes": {"@spider": "usps_collection_boxes", "spider:collection_time": "2023-09-13T08:25:17.985642"}, "geometry": {"coordinates": [-95.68767, 38.934028], "type": "Point"}, "id": "oE69-aIeLf5Z0egErEB75Z7gAX8=", "properties": {"@spider": "usps_collection_boxes", "addr:city": "TOPEKA", "addr:country": "US", "addr:full": "7215 SW TOPEKA BLVD", "addr:postcode": "66619", "addr:state": "KS", "amenity": "post_box", "brand": "United States Postal Service", "brand:wikidata": "Q668687", "collection_times": "Mo-Fr 15:35", "name": "USPS COLLECTION BOX - BLUE BOX", "note": "ON 12/24 AND 12/31, THIS BOX MAY BE COLLECTED AS EARLY AS 12 NOON.", "nsi_id": "unitedstatespostalservice-a77078", "operator": "United States Postal Service", "operator:short": "USPS", "operator:type": "public", "operator:wikidata": "Q668687", "ref": "6661900004"}, "type": "Feature"}
{"dataset_attributes": {"@spider": "usps_collection_boxes", "spider:collection_time": "2023-09-13T08:25:17.985642"}, "geometry": {"coordinates": [-95.67027699, 39.0529079964], "type": "Point"}, "id": "dHQXBSkuDWtcmxTvpLoz_HToC58=", "properties": {"@spider": "usps_collection_boxes", "addr:city": "TOPEKA", "addr:country": "US", "addr:full": "444 SE QUINCY ST", "addr:postcode": "66683", "addr:state": "KS", "amenity": "post_box", "brand": "United States Postal Service", "brand:wikidata": "Q668687", "collection_times": "Mo-Fr 14:30", "name": "USPS COLLECTION BOX - BLUE BOX", "note": "ON 12/24 AND 12/31, THIS BOX MAY BE COLLECTED AS EARLY AS 12 NOON.", "nsi_id": "unitedstatespostalservice-a77078", "operator": "United States Postal Service", "operator:short": "USPS", "operator:type": "public", "operator:wikidata": "Q668687", "ref": "6668300001"}, "type": "Feature"}
