{"geometry": {"coordinates": [-95.662305867, 37.523718251], "type": "Point"}, "id": "SbMcyhoXVZfK0XmWCyI19kniUpw=", "properties": {"@spider": "usps_collection_boxes", "addr:city": "ALTOONA", "addr:country": "US", "addr:full": "732 MAIN ST", "addr:postcode": "66710", "addr:state": "KS", "amenity": "post_box", "brand": "United States Postal Service", "brand:wikidata": "Q668687", "collection_times": "Mo-Fr 12:15; Sa 10:15", "name": "USPS COLLECTION BOX - BLUE BOX", "note": "ON 12/24 AND 12/31, THIS BOX MAY BE COLLECTED AS EARLY AS 12 NOON.", "nsi_id": "unitedstatespostalservice-a77078", "operator": "United States Postal Service", "operator:short": "USPS", "operator:type": "public", "operator:wikidata": "Q668687", "ref": "6671000000"}, "type": "Feature"}
{"geometry": {"coordinates": [-95.662305867, 37.523718251], "type": "Point"}, "id": "9lMWdSok0R99bOk7ZKtgA4Mt9cc=", "properties": {"@spider": "usps_collection_boxes", "addr:city": "ALTOONA", "addr:country": "US", "addr:full": "732 MAIN ST", "addr:postcode": "66710", "addr:state": "KS", "amenity": "post_box", "brand": "United States Postal Service", "brand:wikidata": "Q668687", "collection_times": "Mo-Fr 12:15; Sa 10:15", "name": "USPS COLLECTION BOX - PO LOBBY", "note": "ON 12/24 AND 12/31, THIS BOX MAY BE COLLECTED AS EARLY AS 12 NOON.", "nsi_id": "unitedstatespostalservice-a77078", "operator": "United States Postal Service", "operator:short": "USPS", "operator:type": "public", "operator:wikidata": "Q668687", "ref": "6671000001"}, "type": "Feature"}
{"geometry": {"coordinates": [-95.662305867, 37.523718251], "type": "Point"}, "id": "vu1P5Fbwe6xSJq3GoCu8ZDuebKw=", "properties": {"@spider": "usps_collection_boxes", "addr:city": "ALTOONA", "addr:country": "US", "addr:full": "732 MAIN ST", "addr:postcode": "66710", "addr:state": "KS", "amenity": "post_box", "brand": "United States Postal Service", "brand:wikidata": "Q668687", "collection_times": "Mo-Fr 12:30; Sa 10:30", "name": "USPS COLLECTION BOX - PO LOBBY", "note": "ON 12/24 AND 12/31, THIS BOX MAY BE COLLECTED AS EARLY AS 12 NOON.", "nsi_id": "unitedstatespostalservice-a77078", "operator": "United States Postal Service", "operator:short": "USPS", "operator:type": "public", "operator:wikidata": "Q668687", "ref": "6671000002"}, "type": "Feature"}
{"geometry": {"coordinates": [-95.742472, 37.627004], "type": "Point"}, "id": "jG4MROIlPsEyIPkxw-IMWNybTcg=", "properties": {"@spider": "usps_collection_boxes", "addr:city": "BENEDICT", "addr:country": "US", "addr:full": "505 MAIN ST", "addr:postcode": "66714", "addr:state": "KS", "amenity": "post_box", "brand": "United States Postal Service", "brand:wikidata": "Q668687", "collection_times": "Mo-Sa 11:15", "name": "USPS COLLECTION BOX - BLUE BOX", "nsi_id": "unitedstatespostalservice-a77078", "operator": "United States Postal Service", "operator:short": "USPS", "operator:type": "public", "operator:wikidata": "Q668687", "ref": "6671400000"}, "type": "Feature"}
{"geometry": {"coordinates": [-95.742472, 37.627004], "type": "Point"}, "id": "GsdUlbIxAV7E-WaFHnKC3axIp4E=", "properties": {"@spider": "usps_collection_boxes", "addr:city": "BENEDICT", "addr:country": "US", "addr:full": "505 MAIN ST", "addr:postcode": "66714", "addr:state": "KS", "amenity": "post_box", "brand": "United States Postal Service", "brand:wikidata": "Q668687", "collection_times": "Mo-Sa 11:15", "name": "USPS COLLECTION BOX - PO LOBBY", "nsi_id": "unitedstatespostalservice-a77078", "operator": "United States Postal Service", "operator:short": "USPS", "operator:type": "public", "operator:wikidata": "Q668687", "ref": "6671400001"}, "type": "Feature"}
{"geometry": {"coordinates": [-95.7424689811, 37.6269036178], "type": "Point"}, "id": "5hoKpBBnaGptkB5tF6bhJgfzcO4=", "properties": {"@spider": "usps_collection_boxes", "addr:city": "BENEDICT", "addr:country": "US", "addr:full": "505 MAIN ST", "addr:postcode": "66714", "addr:state": "KS", "amenity": "post_box", "brand": "United States Postal Service", "brand:wikidata": "Q668687", "collection_times": "Mo-Fr 12:30; Sa 12:15", "name": "USPS COLLECTION BOX - PO LOBBY", "note": "ON 12/24 AND 12/31, THIS BOX MAY BE COLLECTED AS EARLY AS 12 NOON.", "nsi_id": "unitedstatespostalservice-a77078", "operator": "United States Postal Service", "operator:short": "USPS", "operator:type": "public", "operator:wikidata": "Q668687", "ref": "6671400003"}, "type": "Feature"}
{"geometry": {"coordinates": [-95.072186308, 37.895211199], "type": "Point"}, "id": "PpLaBCv0d_O-085X9aECUyX_Crk=", "properties": {"@spider": "usps_collection_boxes", "addr:city": "BRONSON", "addr:country": "US", "addr:full": "520 CLAY ST", "addr:postcode": "66716", "addr:state": "KS", "amenity": "post_box", "brand": "United States Postal Service", "brand:wikidata": "Q668687", "collection_times": "Mo-Fr 11:45; Sa 08:45", "name": "USPS COLLECTION BOX - BLUE BOX", "nsi_id": "unitedstatespostalservice-a77078", "operator": "United States Postal Service", "operator:short": "USPS", "operator:type": "public", "operator:wikidata": "Q668687", "ref": "6671600000"}, "type": "Feature"}
{"geometry": {"coordinates": [-95.072186308, 37.895211199], "type": "Point"}, "id": "eqa0XKBAZjpW7YxILegYWknF6rc=", "properties": {"@spider": "usps_collection_boxes", "addr:city": "BRONSON", "addr:country": "US", "addr:full": "520 CLAY ST", "addr:postcode": "66716", "addr:state": "KS", "amenity": "post_box", "brand": "United States Postal Service", "brand:wikidata": "Q668687", "collection_times": "Mo-Fr 11:45; Sa 08:45", "name": "USPS COLLECTION BOX - PO LOBBY", "nsi_id": "unitedstatespostalservice-a77078", "operator": "United States Postal Service", "operator:short": "USPS", "operator:type": "public", "operator:wikidata": "Q668687", "ref": "6671600001"}, "type": "Feature"}
{"geometry": {"coordinates": [-95.072186308, 37.895211199], "type": "Point"}, "id": "sYtHwvc9Jdr2YfhmutdnEm-9aAI=", "properties": {"@spider": "usps_collection_boxes", "addr:city": "BRONSON", "addr:country": "US", "addr:full": "520 CLAY ST", "addr:postcode": "66716", "addr:state": "KS", "amenity": "post_box", "brand": "United States Postal Service", "brand:wikidata": "Q668687", "collection_times": "Mo-Fr 12:00; Sa 09:00", "name": "USPS COLLECTION BOX - PO LOBBY", "nsi_id": "unitedstatespostalservice-a77078", "operator": "United States Postal Service", "operator:short": "USPS", "operator:type": "public", "operator:wikidata": "Q668687", "ref": "6671600004"}, "type": "Feature"}
{"geometry": {"coordinates": [-95.697701, 37.710587], "type": "Point"}, "id": "nOr0E7hSpvAiMKYFFx5Iu_CJ8sU=", "properties": {"@spider": "usps_collection_boxes", "addr:city": "BUFFALO", "addr:country": "US", "addr:full": "308 N MAIN ST", "addr:postcode": "66717", "addr:state": "KS", "amenity": "post_box", "brand": "United States Postal Service", "brand:wikidata": "Q668687", "collection_times": "Mo-Fr 13:45; Sa 10:15", "name": "USPS COLLECTION BOX - BLUE BOX", "note": "ON 12/24 AND 12/31, THIS BOX MAY BE COLLECTED AS EARLY AS 12 NOON.", "nsi_id": "unitedstatespostalservice-a77078", "operator": "United States Postal Service", "operator:short": "USPS", "operator:type": "public", "operator:wikidata": "Q668687", "ref": "6671700000"}, "type": "Feature"}
{"geometry": {"coordinates": [-95.697515, 37.710782], "type": "Point"}, "id": "y2K9Phgv4qxOZ1jOpSDxuvXhdgs=", "properties": {"@spider": "usps_collection_boxes", "addr:city": "BUFFALO", "addr:country": "US", "addr:full": "312 N MAIN ST", "addr:postcode": "66717", "addr:state": "KS", "amenity": "post_box", "brand": "United States Postal Service", "brand:wikidata": "Q668687", "collection_times": "Mo-Fr 13:45; Sa 10:15", "name": "USPS COLLECTION BOX - PO LOBBY", "note": "ON 12/24 AND 12/31, THIS BOX MAY BE COLLECTED AS EARLY AS 12 NOON.", "nsi_id": "unitedstatespostalservice-a77078", "operator": "United States Postal Service", "operator:short": "USPS", "operator:type": "public", "operator:wikidata": "Q668687", "ref": "6671700001"}, "type": "Feature"}
{"geometry": {"coordinates": [-95.697558891, 37.710207583], "type": "Point"}, "id": "psuaEmjYNrG5IeFV_xhSEsWgltY=", "properties": {"@spider": "usps_collection_boxes", "addr:city": "BUFFALO", "addr:country": "US", "addr:full": "308 N MAIN ST", "addr:postcode": "66717", "addr:state": "KS", "amenity": "post_box", "brand": "United States Postal Service", "brand:wikidata": "Q668687", "collection_times": "Mo-Fr 14:00; Sa 13:00", "name": "USPS COLLECTION BOX - PO LOBBY", "note": "ON 12/24 AND 12/31, THIS BOX MAY BE COLLECTED AS EARLY AS 12 NOON.", "nsi_id": "unitedstatespostalservice-a77078", "operator": "United States Postal Service", "operator:short": "USPS", "operator:type": "public", "operator:wikidata": "Q668687", "ref": "6671700003"}, "type": "Feature"}
{"geometry": {"coordinates": [-95.4522799, 37.654455], "type": "Point"}, "id": "vzh7NCY2Q_mv_09WNT9ILbUC4GE=", "properties": {"@spider": "usps_collection_boxes", "addr:city": "CHANUTE", "addr:country": "US", "addr:full": "2700 S SANTA FE AVE", "addr:postcode": "66720", "addr:state": "KS", "amenity": "post_box", "brand": "United States Postal Service", "brand:wikidata": "Q668687", "collection_times": "Mo-Sa 12:00", "name": "USPS COLLECTION BOX - BLUE BOX", "nsi_id": "unitedstatespostalservice-a77078", "operator": "United States Postal Service", "operator:short": "USPS", "operator:type": "public", "operator:wikidata": "Q668687", "ref": "6672000007"}, "type": "Feature"}
{"geometry": {"coordinates": [-95.451775751, 37.682936445], "type": "Point"}, "id": "U91UUV3u7elzsh1qzm5VMcD6kmI=", "properties": {"@spider": "usps_collection_boxes", "addr:city": "CHANUTE", "addr:country": "US", "addr:full": "102 N LINCOLN AVE", "addr:postcode": "66720", "addr:state": "KS", "amenity": "post_box", "brand": "United States Postal Service", "brand:wikidata": "Q668687", "collection_times": "Mo-Fr 16:00; Sa 14:25", "name": "USPS COLLECTION BOX - BLUE BOX", "note": "ON 12/24 AND 12/31, THIS BOX MAY BE COLLECTED AS EARLY AS 12 NOON.", "nsi_id": "unitedstatespostalservice-a77078", "operator": "United States Postal Service", "operator:short": "USPS", "operator:type": "public", "operator:wikidata": "Q668687", "ref": "6672000011"}, "type": "Feature"}
{"geometry": {"coordinates": [-95.451775751, 37.682936445], "type": "Point"}, "id": "X2m9nLeH9zwBTRpnD1iFx5AoTes=", "properties": {"@spider": "usps_collection_boxes", "addr:city": "CHANUTE", "addr:country": "US", "addr:full": "102 N LINCOLN AVE", "addr:postcode": "66720", "addr:state": "KS", "amenity": "post_box", "brand": "United States Postal Service", "brand:wikidata": "Q668687", "collection_times": "Mo-Fr 16:00; Sa 14:25", "name": "USPS COLLECTION BOX - PO LOBBY", "note": "ON 12/24 AND 12/31, THIS BOX MAY BE COLLECTED AS EARLY AS 12 NOON.", "nsi_id": "unitedstatespostalservice-a77078", "operator": "United States Postal Service", "operator:short": "USPS", "operator:type": "public", "operator:wikidata": "Q668687", "ref": "6672000013"}, "type": "Feature"}
{"geometry": {"coordinates": [-95.451775751, 37.682936445], "type": "Point"}, "id": "R01bWlERq_Nfh0UMA404MClc9OA=", "properties": {"@spider": "usps_collection_boxes", "addr:city": "CHANUTE", "addr:country": "US", "addr:full": "102 N LINCOLN AVE", "addr:postcode": "66720", "addr:state": "KS", "amenity": "post_box", "brand": "United States Postal Service", "brand:wikidata": "Q668687", "collection_times": "Mo-Fr 16:30; Sa 11:30", "name": "USPS COLLECTION BOX - PO LOBBY", "note": "ON 12/24 AND 12/31, THIS BOX MAY BE COLLECTED AS EARLY AS 12 NOON.", "nsi_id": "unitedstatespostalservice-a77078", "operator": "United States Postal Service", "operator:short": "USPS", "operator:type": "public", "operator:wikidata": "Q668687", "ref": "6672000017"}, "type": "Feature"}
{"geometry": {"coordinates": [-95.243939832, 37.567310503], "type": "Point"}, "id": "T-p8Bkk29zlCCi_mDnw5PR-Kv9w=", "properties": {"@spider": "usps_collection_boxes", "addr:city": "ERIE", "addr:country": "US", "addr:full": "115 W 2ND ST", "addr:postcode": "66733", "addr:state": "KS", "amenity": "post_box", "brand": "United States Postal Service", "brand:wikidata": "Q668687", "collection_times": "Mo-Fr 15:35; Sa 09:45", "name": "USPS COLLECTION BOX - BLUE BOX", "note": "ON 12/24 AND 12/31, THIS BOX MAY BE COLLECTED AS EARLY AS 12 NOON.", "nsi_id": "unitedstatespostalservice-a77078", "operator": "United States Postal Service", "operator:short": "USPS", "operator:type": "public", "operator:wikidata": "Q668687", "ref": "6673300000"}, "type": "Feature"}
{"geometry": {"coordinates": [-95.243939832, 37.567310503], "type": "Point"}, "id": "vgKYDEi_pSY1iRHRlrVUg45XmGc=", "properties": {"@spider": "usps_collection_boxes", "addr:city": "ERIE", "addr:country": "US", "addr:full": "115 W 2ND ST", "addr:postcode": "66733", "addr:state": "KS", "amenity": "post_box", "brand": "United States Postal Service", "brand:wikidata": "Q668687", "collection_times": "Mo-Fr 15:00; Sa 09:45", "name": "USPS COLLECTION BOX - PO LOBBY", "note": "ON 12/24 AND 12/31, THIS BOX MAY BE COLLECTED AS EARLY AS 12 NOON.", "nsi_id": "unitedstatespostalservice-a77078", "operator": "United States Postal Service", "operator:short": "USPS", "operator:type": "public", "operator:wikidata": "Q668687", "ref": "6673300003"}, "type": "Feature"}
{"geometry": {"coordinates": [-95.243939832, 37.567310503], "type": "Point"}, "id": "ukgnTtsqPAY1PCcv-mxeBLeVacE=", "properties": {"@spider": "usps_collection_boxes", "addr:city": "ERIE", "addr:country": "US", "addr:full": "115 W 2ND ST", "addr:postcode": "66733", "addr:state": "KS", "amenity": "post_box", "brand": "United States Postal Service", "brand:wikidata": "Q668687", "collection_times": "Mo-Fr 15:30; Sa 10:15", "name": "USPS COLLECTION BOX - PO LOBBY", "note": "ON 12/24 AND 12/31, THIS BOX MAY BE COLLECTED AS EARLY AS 12 NOON.", "nsi_id": "unitedstatespostalservice-a77078", "operator": "United States Postal Service", "operator:short": "USPS", "operator:type": "public", "operator:wikidata": "Q668687", "ref": "6673300006"}, "type": "Feature"}
{"geometry": {"coordinates": [-95.8162069, 37.524239], "type": "Point"}, "id": "AC5zm-N4__dR6rkY1cP0KtEsxl4=", "properties": {"@spider": "usps_collection_boxes", "addr:city": "FREDONIA", "addr:country": "US", "addr:full": "519 S 15TH ST", "addr:postcode": "66736", "addr:state": "KS", "amenity": "post_box", "brand": "United States Postal Service", "brand:wikidata": "Q668687", "collection_times": "Mo-Sa 12:30", "name": "USPS COLLECTION BOX - BLUE BOX", "note": "ON 12/24 AND 12/31, THIS BOX MAY BE COLLECTED AS EARLY AS 12 NOON.", "nsi_id": "unitedstatespostalservice-a77078", "operator": "United States Postal Service", "operator:short": "USPS", "operator:type": "public", "operator:wikidata": "Q668687", "ref": "6673600003"}, "type": "Feature"}
{"geometry": {"coordinates": [-95.8295881, 37.533502], "type": "Point"}, "id": "PPuVHtCKBIkr3YWQd-VG51m2ixc=", "properties": {"@spider": "usps_collection_boxes", "addr:city": "FREDONIA", "addr:country": "US", "addr:full": "428 MADISON ST", "addr:postcode": "66736", "addr:state": "KS", "amenity": "post_box", "brand": "United States Postal Service", "brand:wikidata": "Q668687", "collection_times": "Mo-Fr 13:45; Sa 10:30", "name": "USPS COLLECTION BOX - BLUE BOX", "note": "ON 12/24 AND 12/31, THIS BOX MAY BE COLLECTED AS EARLY AS 12 NOON.", "nsi_id": "unitedstatespostalservice-a77078", "operator": "United States Postal Service", "operator:short": "USPS", "operator:type": "public", "operator:wikidata": "Q668687", "ref": "6673600004"}, "type": "Feature"}
{"geometry": {"coordinates": [-95.8298166, 37.533573], "type": "Point"}, "id": "M4uSblwLP_8aHlphpPG7_JjV4HE=", "properties": {"@spider": "usps_collection_boxes", "addr:city": "FREDONIA", "addr:country": "US", "addr:full": "428 MADISON ST", "addr:postcode": "66736", "addr:state": "KS", "amenity": "post_box", "brand": "United States Postal Service", "brand:wikidata": "Q668687", "collection_times": "Mo-Fr 13:30; Sa 10:30", "name": "USPS COLLECTION BOX - PO LOBBY", "note": "ON 12/24 AND 12/31, THIS BOX MAY BE COLLECTED AS EARLY AS 12 NOON.", "nsi_id": "unitedstatespostalservice-a77078", "operator": "United States Postal Service", "operator:short": "USPS", "operator:type": "public", "operator:wikidata": "Q668687", "ref": "6673600006"}, "type": "Feature"}
{"geometry": {"coordinates": [-95.8297936, 37.533576], "type": "Point"}, "id": "eAelqIsaatacwlEWZWn35B53svI=", "properties": {"@spider": "usps_collection_boxes", "addr:city": "FREDONIA", "addr:country": "US", "addr:full": "428 MADISON ST", "addr:postcode": "66736", "addr:state": "KS", "amenity": "post_box", "brand": "United States Postal Service", "brand:wikidata": "Q668687", "collection_times": "Mo-Fr 13:30; Sa 10:30", "name": "USPS COLLECTION BOX - PO LOBBY", "note": "ON 12/24 AND 12/31, THIS BOX MAY BE COLLECTED AS EARLY AS 12 NOON.", "nsi_id": "unitedstatespostalservice-a77078", "operator": "United States Postal Service", "operator:short": "USPS", "operator:type": "public", "operator:wikidata": "Q668687", "ref": "6673600008"}, "type": "Feature"}
{"geometry": {"coordinates": [-95.8118169922, 37.5307519909], "type": "Point"}, "id": "dY-w8NV6x7s93s-o1TrJRkqp00s=", "properties": {"@spider": "usps_collection_boxes", "addr:city": "FREDONIA", "addr:country": "US", "addr:full": "1715 E WASHINGTON ST", "addr:postcode": "66736", "addr:state": "KS", "amenity": "post_box", "brand": "United States Postal Service", "brand:wikidata": "Q668687", "collection_times": "Mo-Sa 12:00", "name": "USPS COLLECTION BOX - BLUE BOX", "nsi_id": "unitedstatespostalservice-a77078", "operator": "United States Postal Service", "operator:short": "USPS", "operator:type": "public", "operator:wikidata": "Q668687", "ref": "6673600009"}, "type": "Feature"}
{"geometry": {"coordinates": [-95.8305736676, 37.5337574851], "type": "Point"}, "id": "G5t3p81uuk-BgR_OJVCv5EWHA1s=", "properties": {"@spider": "usps_collection_boxes", "addr:city": "FREDONIA", "addr:country": "US", "addr:full": "428 MADISON ST", "addr:postcode": "66736", "addr:state": "KS", "amenity": "post_box", "brand": "United States Postal Service", "brand:wikidata": "Q668687", "collection_times": "Mo-Fr 15:45; Sa 11:15", "name": "USPS COLLECTION BOX - PO LOBBY", "note": "ON 12/24 AND 12/31, THIS BOX MAY BE COLLECTED AS EARLY AS 12 NOON.", "nsi_id": "unitedstatespostalservice-a77078", "operator": "United States Postal Service", "operator:short": "USPS", "operator:type": "public", "operator:wikidata": "Q668687", "ref": "6673600011"}, "type": "Feature"}
{"geometry": {"coordinates": [-95.356472, 37.471088], "type": "Point"}, "id": "P-fhQlFQ9G8EZmZOg7RoK2s_BAw=", "properties": {"@spider": "usps_collection_boxes", "addr:city": "GALESBURG", "addr:country": "US", "addr:full": "119 CENTER ST", "addr:postcode": "66740", "addr:state": "KS", "amenity": "post_box", "brand": "United States Postal Service", "brand:wikidata": "Q668687", "collection_times": "Mo-Fr 12:45; Sa 09:30", "name": "USPS COLLECTION BOX - PO LOBBY", "note": "ON 12/24 AND 12/31, THIS BOX MAY BE COLLECTED AS EARLY AS 12 NOON.", "nsi_id": "unitedstatespostalservice-a77078", "operator": "United States Postal Service", "operator:short": "USPS", "operator:type": "public", "operator:wikidata": "Q668687", "ref": "6674000001"}, "type": "Feature"}
{"geometry": {"coordinates": [-95.355513, 37.4711075188], "type": "Point"}, "id": "XFGzPMyMloR1sbV5ba-VhePr_UE=", "properties": {"@spider": "usps_collection_boxes", "addr:city": "GALESBURG", "addr:country": "US", "addr:full": "119 CENTER ST", "addr:postcode": "66740", "addr:state": "KS", "amenity": "post_box", "brand": "United States Postal Service", "brand:wikidata": "Q668687", "collection_times": "Mo-Sa 13:00", "name": "USPS COLLECTION BOX - PO LOBBY", "note": "ON 12/24 AND 12/31, THIS BOX MAY BE COLLECTED AS EARLY AS 12 NOON.", "nsi_id": "unitedstatespostalservice-a77078", "operator": "United States Postal Service", "operator:short": "USPS", "operator:type": "public", "operator:wikidata": "Q668687", "ref": "6674000004"}, "type": "Feature"}
{"geometry": {"coordinates": [-95.342238, 37.921992], "type": "Point"}, "id": "dLOxhqC6fac0LtiM1D9Bb4qveUI=", "properties": {"@spider": "usps_collection_boxes", "addr:city": "GAS", "addr:country": "US", "addr:full": "102 W 1ST ST", "addr:postcode": "66742", "addr:state": "KS", "amenity": "post_box", "brand": "United States Postal Service", "brand:wikidata": "Q668687", "collection_times": "Mo-Fr 10:45; Sa 08:30", "name": "USPS COLLECTION BOX - PO LOBBY", "nsi_id": "unitedstatespostalservice-a77078", "operator": "United States Postal Service", "operator:short": "USPS", "operator:type": "public", "operator:wikidata": "Q668687", "ref": "6674200001"}, "type": "Feature"}
{"geometry": {"coordinates": [-95.3423147567, 37.9220584591], "type": "Point"}, "id": "4nQ8q6NVa7d4t7FOpmxYIAQWyT4=", "properties": {"@spider": "usps_collection_boxes", "addr:city": "GAS", "addr:country": "US", "addr:full": "102 W 1ST ST", "addr:postcode": "66742", "addr:state": "KS", "amenity": "post_box", "brand": "United States Postal Service", "brand:wikidata": "Q668687", "collection_times": "Mo-Fr 11:00; Sa 08:45", "name": "USPS COLLECTION BOX - PO LOBBY", "nsi_id": "unitedstatespostalservice-a77078", "operator": "United States Postal Service", "operator:short": "USPS", "operator:type": "public", "operator:wikidata": "Q668687", "ref": "6674200004"}, "type": "Feature"}
{"geometry": {"coordinates": [-94.969591, 37.661486], "type": "Point"}, "id": "alVTxcgSVOyMngW74rzAX7yrYMA=", "properties": {"@spider": "usps_collection_boxes", "addr:city": "HEPLER", "addr:country": "US", "addr:full": "213 N PRAIRIE AVE", "addr:postcode": "66746", "addr:state": "KS", "amenity": "post_box", "brand": "United States Postal Service", "brand:wikidata": "Q668687", "collection_times": "Mo-Fr 12:45; Sa 09:45", "name": "USPS COLLECTION BOX - PO LOBBY", "note": "ON 12/24 AND 12/31, THIS BOX MAY BE COLLECTED AS EARLY AS 12 NOON.", "nsi_id": "unitedstatespostalservice-a77078", "operator": "United States Postal Service", "operator:short": "USPS", "operator:type": "public", "operator:wikidata": "Q668687", "ref": "6674600000"}, "type": "Feature"}
{"geometry": {"coordinates": [-94.9695851872, 37.6623537799], "type": "Point"}, "id": "OHL-a_4foYkoyh1BvedxCJcp1ok=", "properties": {"@spider": "usps_collection_boxes", "addr:city": "HEPLER", "addr:country": "US", "addr:full": "213 N PRAIRIE AVE", "addr:postcode": "66746", "addr:state": "KS", "amenity": "post_box", "brand": "United States Postal Service", "brand:wikidata": "Q668687", "collection_times": "Mo-Fr 13:00; Sa 11:00", "name": "USPS COLLECTION BOX - PO LOBBY", "note": "ON 12/24 AND 12/31, THIS BOX MAY BE COLLECTED AS EARLY AS 12 NOON.", "nsi_id": "unitedstatespostalservice-a77078", "operator": "United States Postal Service", "operator:short": "USPS", "operator:type": "public", "operator:wikidata": "Q668687", "ref": "6674600004"}, "type": "Feature"}
{"geometry": {"coordinates": [-95.43666, 37.810272], "type": "Point"}, "id": "3qK2bdELJMQpD1R_Zv4lkARuFG4=", "properties": {"@spider": "usps_collection_boxes", "addr:city": "HUMBOLDT", "addr:country": "US", "addr:full": "811 NEW YORK ST", "addr:postcode": "66748", "addr:state": "KS", "amenity": "post_box", "brand": "United States Postal Service", "brand:wikidata": "Q668687", "collection_times": "Mo-Fr 15:05; Sa 11:00", "name": "USPS COLLECTION BOX - PO LOBBY", "note": "ON 12/24 AND 12/31, THIS BOX MAY BE COLLECTED AS EARLY AS 12 NOON.", "nsi_id": "unitedstatespostalservice-a77078", "operator": "United States Postal Service", "operator:short": "USPS", "operator:type": "public", "operator:wikidata": "Q668687", "ref": "6674800003"}, "type": "Feature"}
{"geometry": {"coordinates": [-95.4366040073, 37.8101966502], "type": "Point"}, "id": "h-f9Zkv_RpW0nZkthQXIRfgtVCE=", "properties": {"@spider": "usps_collection_boxes", "addr:city": "HUMBOLDT", "addr:country": "US", "addr:full": "811 NEW YORK ST", "addr:postcode": "66748", "addr:state": "KS", "amenity": "post_box", "brand": "United States Postal Service", "brand:wikidata": "Q668687", "collection_times": "Mo-Fr 15:05; Sa 11:00", "name": "USPS COLLECTION BOX - PO LOBBY", "note": "ON 12/24 AND 12/31, THIS BOX MAY BE COLLECTED AS EARLY AS 12 NOON.", "nsi_id": "unitedstatespostalservice-a77078", "operator": "United States Postal Service", "operator:short": "USPS", "operator:type": "public", "operator:wikidata": "Q668687", "ref": "6674800006"}, "type": "Feature"}
{"geometry": {"coordinates": [-95.3904602515, 37.9221095395], "type": "Point"}, "id": "gn1l1E0SyQ8RWiNUh87RuzCd0p0=", "properties": {"@spider": "usps_collection_boxes", "addr:city": "IOLA", "addr:country": "US", "addr:full": "1201 EAST ST", "addr:postcode": "66749", "addr:state": "KS", "amenity": "post_box", "brand": "United States Postal Service", "brand:wikidata": "Q668687", "collection_times": "Mo-Sa 14:00", "name": "USPS COLLECTION BOX - BLUE BOX", "note": "ON 12/24 AND 12/31, THIS BOX MAY BE COLLECTED AS EARLY AS 12 NOON.", "nsi_id": "unitedstatespostalservice-a77078", "operator": "United States Postal Service", "operator:short": "USPS", "operator:type": "public", "operator:wikidata": "Q668687", "ref": "6674900003"}, "type": "Feature"}
{"geometry": {"coordinates": [-95.4045205, 37.924049], "type": "Point"}, "id": "a2hMMbhp1EnwW5UO---NH-NJz6E=", "properties": {"@spider": "usps_collection_boxes", "addr:city": "IOLA", "addr:country": "US", "addr:full": "217 NORTH ST", "addr:postcode": "66749", "addr:state": "KS", "amenity": "post_box", "brand": "United States Postal Service", "brand:wikidata": "Q668687", "collection_times": "Mo-Sa 14:00", "name": "USPS COLLECTION BOX - BLUE BOX", "note": "ON 12/24 AND 12/31, THIS BOX MAY BE COLLECTED AS EARLY AS 12 NOON.", "nsi_id": "unitedstatespostalservice-a77078", "operator": "United States Postal Service", "operator:short": "USPS", "operator:type": "public", "operator:wikidata": "Q668687", "ref": "6674900004"}, "type": "Feature"}
{"geometry": {"coordinates": [-95.405758, 37.922258], "type": "Point"}, "id": "me5nc93lDSv0RAkFevqh8oKPfSU=", "properties": {"@spider": "usps_collection_boxes", "addr:city": "IOLA", "addr:country": "US", "addr:full": "120 WEST ST", "addr:postcode": "66749", "addr:state": "KS", "amenity": "post_box", "brand": "United States Postal Service", "brand:wikidata": "Q668687", "collection_times": "Mo-Fr 15:30; Sa 15:00", "name": "USPS COLLECTION BOX - BLUE BOX", "note": "ON 12/24 AND 12/31, THIS BOX MAY BE COLLECTED AS EARLY AS 12 NOON.", "nsi_id": "unitedstatespostalservice-a77078", "operator": "United States Postal Service", "operator:short": "USPS", "operator:type": "public", "operator:wikidata": "Q668687", "ref": "6674900007"}, "type": "Feature"}
{"geometry": {"coordinates": [-95.405758, 37.922258], "type": "Point"}, "id": "1fZRey1vlFF0GyJWS6s8mMCE8s4=", "properties": {"@spider": "usps_collection_boxes", "addr:city": "IOLA", "addr:country": "US", "addr:full": "120 WEST ST", "addr:postcode": "66749", "addr:state": "KS", "amenity": "post_box", "brand": "United States Postal Service", "brand:wikidata": "Q668687", "collection_times": "Mo-Fr 15:30; Sa 15:00", "name": "USPS COLLECTION BOX - PO LOBBY", "note": "ON 12/24 AND 12/31, THIS BOX MAY BE COLLECTED AS EARLY AS 12 NOON.", "nsi_id": "unitedstatespostalservice-a77078", "operator": "United States Postal Service", "operator:short": "USPS", "operator:type": "public", "operator:wikidata": "Q668687", "ref": "6674900011"}, "type": "Feature"}
{"geometry": {"coordinates": [-95.4111833, 37.94262], "type": "Point"}, "id": "N5WZmZaeBSYsXskyYMo-6NlB8LA=", "properties": {"@spider": "usps_collection_boxes", "addr:city": "IOLA", "addr:country": "US", "addr:full": "2200 N STATE ST", "addr:postcode": "66749", "addr:state": "KS", "amenity": "post_box", "brand": "United States Postal Service", "brand:wikidata": "Q668687", "collection_times": "Mo-Sa 10:00", "name": "USPS COLLECTION BOX - BLUE BOX", "nsi_id": "unitedstatespostalservice-a77078", "operator": "United States Postal Service", "operator:short": "USPS", "operator:type": "public", "operator:wikidata": "Q668687", "ref": "6674900014"}, "type": "Feature"}
{"geometry": {"coordinates": [-95.4033366, 37.921171], "type": "Point"}, "id": "3EZyLlJMlaKRRcw5axwpHFap_M4=", "properties": {"@spider": "usps_collection_boxes", "addr:city": "IOLA", "addr:country": "US", "addr:full": "101 E MADISON AVE", "addr:postcode": "66749", "addr:state": "KS", "amenity": "post_box", "brand": "United States Postal Service", "brand:wikidata": "Q668687", "collection_times": "Mo-Sa 14:00", "name": "USPS COLLECTION BOX - BLUE BOX", "note": "ON 12/24 AND 12/31, THIS BOX MAY BE COLLECTED AS EARLY AS 12 NOON.", "nsi_id": "unitedstatespostalservice-a77078", "operator": "United States Postal Service", "operator:short": "USPS", "operator:type": "public", "operator:wikidata": "Q668687", "ref": "6674900015"}, "type": "Feature"}
{"geometry": {"coordinates": [-95.4063940284, 37.9222634788], "type": "Point"}, "id": "35gr3_gU7bINuTZY4JdVaXj871o=", "properties": {"@spider": "usps_collection_boxes", "addr:city": "IOLA", "addr:country": "US", "addr:full": "120 WEST ST", "addr:postcode": "66749", "addr:state": "KS", "amenity": "post_box", "brand": "United States Postal Service", "brand:wikidata": "Q668687", "collection_times": "Mo-Fr 16:00; Sa 12:00", "name": "USPS COLLECTION BOX - PO LOBBY", "note": "ON 12/24 AND 12/31, THIS BOX MAY BE COLLECTED AS EARLY AS 12 NOON.", "nsi_id": "unitedstatespostalservice-a77078", "operator": "United States Postal Service", "operator:short": "USPS", "operator:type": "public", "operator:wikidata": "Q668687", "ref": "6674900018"}, "type": "Feature"}
{"geometry": {"coordinates": [-95.299164, 37.914485], "type": "Point"}, "id": "zorI43uCdpfhcehWfTcpqZ01kMc=", "properties": {"@spider": "usps_collection_boxes", "addr:city": "LAHARPE", "addr:country": "US", "addr:full": "802 S MAIN ST", "addr:postcode": "66751", "addr:state": "KS", "amenity": "post_box", "brand": "United States Postal Service", "brand:wikidata": "Q668687", "collection_times": "Mo-Fr 15:30; Sa 11:00", "name": "USPS COLLECTION BOX - PO LOBBY", "note": "ON 12/24 AND 12/31, THIS BOX MAY BE COLLECTED AS EARLY AS 12 NOON.", "nsi_id": "unitedstatespostalservice-a77078", "operator": "United States Postal Service", "operator:short": "USPS", "operator:type": "public", "operator:wikidata": "Q668687", "ref": "6675100001"}, "type": "Feature"}
{"geometry": {"coordinates": [-95.299190569, 37.914503698], "type": "Point"}, "id": "Hh6ibbRO4Xl0FExsFNBCDqUecu0=", "properties": {"@spider": "usps_collection_boxes", "addr:city": "LAHARPE", "addr:country": "US", "addr:full": "802 S MAIN ST", "addr:postcode": "66751", "addr:state": "KS", "amenity": "post_box", "brand": "United States Postal Service", "brand:wikidata": "Q668687", "collection_times": "Mo-Fr 15:45; Sa 11:30", "name": "USPS COLLECTION BOX - PO LOBBY", "note": "ON 12/24 AND 12/31, THIS BOX MAY BE COLLECTED AS EARLY AS 12 NOON.", "nsi_id": "unitedstatespostalservice-a77078", "operator": "United States Postal Service", "operator:short": "USPS", "operator:type": "public", "operator:wikidata": "Q668687", "ref": "6675100006"}, "type": "Feature"}
{"geometry": {"coordinates": [-95.01854, 37.353281], "type": "Point"}, "id": "EkZzz9HqSajpAPjNJAjO2il0Nhk=", "properties": {"@spider": "usps_collection_boxes", "addr:city": "MC CUNE", "addr:country": "US", "addr:full": "601 MAIN ST", "addr:postcode": "66753", "addr:state": "KS", "amenity": "post_box", "brand": "United States Postal Service", "brand:wikidata": "Q668687", "collection_times": "Mo-Fr 12:15; Sa 09:15", "name": "USPS COLLECTION BOX - PO LOBBY", "note": "ON 12/24 AND 12/31, THIS BOX MAY BE COLLECTED AS EARLY AS 12 NOON.", "nsi_id": "unitedstatespostalservice-a77078", "operator": "United States Postal Service", "operator:short": "USPS", "operator:type": "public", "operator:wikidata": "Q668687", "ref": "6675300001"}, "type": "Feature"}
{"geometry": {"coordinates": [-95.018509469, 37.353131665], "type": "Point"}, "id": "9WKfbVt1VHe0c943Ze_Yw09yuZo=", "properties": {"@spider": "usps_collection_boxes", "addr:city": "MC CUNE", "addr:country": "US", "addr:full": "601 MAIN ST", "addr:postcode": "66753", "addr:state": "KS", "amenity": "post_box", "brand": "United States Postal Service", "brand:wikidata": "Q668687", "collection_times": "Mo-Fr 14:00; Sa 11:30", "name": "USPS COLLECTION BOX - PO LOBBY", "note": "ON 12/24 AND 12/31, THIS BOX MAY BE COLLECTED AS EARLY AS 12 NOON.", "nsi_id": "unitedstatespostalservice-a77078", "operator": "United States Postal Service", "operator:short": "USPS", "operator:type": "public", "operator:wikidata": "Q668687", "ref": "6675300004"}, "type": "Feature"}
{"geometry": {"coordinates": [-94.8849536674, 38.0150673137], "type": "Point"}, "id": "r0n39-T3iO9YvZiMXpG4zCXr5ZY=", "properties": {"@spider": "usps_collection_boxes", "addr:city": "MAPLETON", "addr:country": "US", "addr:full": "108 W 6TH ST", "addr:postcode": "66754", "addr:state": "KS", "amenity": "post_box", "brand": "United States Postal Service", "brand:wikidata": "Q668687", "collection_times": "Mo-Sa 10:30", "name": "USPS COLLECTION BOX - PO LOBBY", "nsi_id": "unitedstatespostalservice-a77078", "operator": "United States Postal Service", "operator:short": "USPS", "operator:type": "public", "operator:wikidata": "Q668687", "ref": "6675400000"}, "type": "Feature"}
{"geometry": {"coordinates": [-94.884901, 38.015144], "type": "Point"}, "id": "Knmz1DH600AaRmZ5Ruu9qc6lrxQ=", "properties": {"@spider": "usps_collection_boxes", "addr:city": "MAPLETON", "addr:country": "US", "addr:full": "108 W 6TH ST", "addr:postcode": "66754", "addr:state": "KS", "amenity": "post_box", "brand": "United States Postal Service", "brand:wikidata": "Q668687", "collection_times": "Mo-Sa 10:30", "name": "USPS COLLECTION BOX - BLUE BOX", "nsi_id": "unitedstatespostalservice-a77078", "operator": "United States Postal Service", "operator:short": "USPS", "operator:type": "public", "operator:wikidata": "Q668687", "ref": "6675400001"}, "type": "Feature"}
{"geometry": {"coordinates": [-94.8849536674, 38.0150673137], "type": "Point"}, "id": "fuUSruZj0PjyC7wWkv3Xwj_qZS8=", "properties": {"@spider": "usps_collection_boxes", "addr:city": "MAPLETON", "addr:country": "US", "addr:full": "108 W 6TH ST", "addr:postcode": "66754", "addr:state": "KS", "amenity": "post_box", "brand": "United States Postal Service", "brand:wikidata": "Q668687", "collection_times": "Mo-Sa 11:30", "name": "USPS COLLECTION BOX - PO LOBBY", "nsi_id": "unitedstatespostalservice-a77078", "operator": "United States Postal Service", "operator:short": "USPS", "operator:type": "public", "operator:wikidata": "Q668687", "ref": "6675400003"}, "type": "Feature"}
{"geometry": {"coordinates": [-95.170127, 37.914925], "type": "Point"}, "id": "FKpAM4Fy9Bc_IIKfFsfdxz0Gu2U=", "properties": {"@spider": "usps_collection_boxes", "addr:city": "MORAN", "addr:country": "US", "addr:full": "226 N CEDAR ST", "addr:postcode": "66755", "addr:state": "KS", "amenity": "post_box", "brand": "United States Postal Service", "brand:wikidata": "Q668687", "collection_times": "Mo-Fr 14:15; Sa 08:30", "name": "USPS COLLECTION BOX - PO LOBBY", "note": "ON 12/24 AND 12/31, THIS BOX MAY BE COLLECTED AS EARLY AS 12 NOON.", "nsi_id": "unitedstatespostalservice-a77078", "operator": "United States Postal Service", "operator:short": "USPS", "operator:type": "public", "operator:wikidata": "Q668687", "ref": "6675500001"}, "type": "Feature"}
{"geometry": {"coordinates": [-95.1701678149, 37.9150743353], "type": "Point"}, "id": "AbX3w8w9fztrtXd3yPbdyhU1O68=", "properties": {"@spider": "usps_collection_boxes", "addr:city": "MORAN", "addr:country": "US", "addr:full": "226 N CEDAR ST", "addr:postcode": "66755", "addr:state": "KS", "amenity": "post_box", "brand": "United States Postal Service", "brand:wikidata": "Q668687", "collection_times": "Mo-Fr 14:30; Sa 09:00", "name": "USPS COLLECTION BOX - PO LOBBY", "note": "ON 12/24 AND 12/31, THIS BOX MAY BE COLLECTED AS EARLY AS 12 NOON.", "nsi_id": "unitedstatespostalservice-a77078", "operator": "United States Postal Service", "operator:short": "USPS", "operator:type": "public", "operator:wikidata": "Q668687", "ref": "6675500004"}, "type": "Feature"}
{"geometry": {"coordinates": [-95.679834, 37.417931], "type": "Point"}, "id": "uSAzLdIwMDFEJka3noV3m4mBthE=", "properties": {"@spider": "usps_collection_boxes", "addr:city": "NEODESHA", "addr:country": "US", "addr:full": "123 N 5TH ST", "addr:postcode": "66757", "addr:state": "KS", "amenity": "post_box", "brand": "United States Postal Service", "brand:wikidata": "Q668687", "collection_times": "Mo-Fr 13:25; Sa 11:00", "name": "USPS COLLECTION BOX - BLUE BOX", "note": "ON 12/24 AND 12/31, THIS BOX MAY BE COLLECTED AS EARLY AS 12 NOON.", "nsi_id": "unitedstatespostalservice-a77078", "operator": "United States Postal Service", "operator:short": "USPS", "operator:type": "public", "operator:wikidata": "Q668687", "ref": "6675700001"}, "type": "Feature"}
{"geometry": {"coordinates": [-95.6798, 37.41802], "type": "Point"}, "id": "FaiapcQo90zfmF9PGdHyZ9aaxWo=", "properties": {"@spider": "usps_collection_boxes", "addr:city": "NEODESHA", "addr:country": "US", "addr:full": "123 N 5TH ST", "addr:postcode": "66757", "addr:state": "KS", "amenity": "post_box", "brand": "United States Postal Service", "brand:wikidata": "Q668687", "collection_times": "Mo-Fr 13:25; Sa 11:00", "name": "USPS COLLECTION BOX - PO LOBBY", "note": "ON 12/24 AND 12/31, THIS BOX MAY BE COLLECTED AS EARLY AS 12 NOON.", "nsi_id": "unitedstatespostalservice-a77078", "operator": "United States Postal Service", "operator:short": "USPS", "operator:type": "public", "operator:wikidata": "Q668687", "ref": "6675700003"}, "type": "Feature"}
{"geometry": {"coordinates": [-95.679858404, 37.417955596], "type": "Point"}, "id": "4k5R85h9gLE-gxkZ4z-KWt10bFc=", "properties": {"@spider": "usps_collection_boxes", "addr:city": "NEODESHA", "addr:country": "US", "addr:full": "123 N 5TH ST", "addr:postcode": "66757", "addr:state": "KS", "amenity": "post_box", "brand": "United States Postal Service", "brand:wikidata": "Q668687", "collection_times": "Mo-Fr 14:45; Sa 11:00", "name": "USPS COLLECTION BOX - PO LOBBY", "note": "ON 12/24 AND 12/31, THIS BOX MAY BE COLLECTED AS EARLY AS 12 NOON.", "nsi_id": "unitedstatespostalservice-a77078", "operator": "United States Postal Service", "operator:short": "USPS", "operator:type": "public", "operator:wikidata": "Q668687", "ref": "6675700006"}, "type": "Feature"}
{"geometry": {"coordinates": [-95.5559553876, 38.0033456647], "type": "Point"}, "id": "JT9XVZOA47ws9OsT3M6rFFbhRa0=", "properties": {"@spider": "usps_collection_boxes", "addr:city": "NEOSHO FALLS", "addr:country": "US", "addr:full": "1102 MAIN ST", "addr:postcode": "66758", "addr:state": "KS", "amenity": "post_box", "brand": "United States Postal Service", "brand:wikidata": "Q668687", "collection_times": "Mo-Sa 10:30", "name": "USPS COLLECTION BOX - BLUE BOX", "nsi_id": "unitedstatespostalservice-a77078", "operator": "United States Postal Service", "operator:short": "USPS", "operator:type": "public", "operator:wikidata": "Q668687", "ref": "6675800000"}, "type": "Feature"}
{"geometry": {"coordinates": [-95.5559553876, 38.0033456647], "type": "Point"}, "id": "iD2XKVuK5gEEfp4AXVAUBg74G7U=", "properties": {"@spider": "usps_collection_boxes", "addr:city": "NEOSHO FALLS", "addr:country": "US", "addr:full": "1102 MAIN ST", "addr:postcode": "66758", "addr:state": "KS", "amenity": "post_box", "brand": "United States Postal Service", "brand:wikidata": "Q668687", "collection_times": "Mo-Sa 10:30", "name": "USPS COLLECTION BOX - PO LOBBY", "nsi_id": "unitedstatespostalservice-a77078", "operator": "United States Postal Service", "operator:short": "USPS", "operator:type": "public", "operator:wikidata": "Q668687", "ref": "6675800001"}, "type": "Feature"}
{"geometry": {"coordinates": [-95.5559553876, 38.0033456647], "type": "Point"}, "id": "xv6ExhrZHLYikYQqf-lnRvPkXoo=", "properties": {"@spider": "usps_collection_boxes", "addr:city": "NEOSHO FALLS", "addr:country": "US", "addr:full": "1102 MAIN ST", "addr:postcode": "66758", "addr:state": "KS", "amenity": "post_box", "brand": "United States Postal Service", "brand:wikidata": "Q668687", "collection_times": "Mo-Sa 10:15", "name": "USPS COLLECTION BOX - PO LOBBY", "nsi_id": "unitedstatespostalservice-a77078", "operator": "United States Postal Service", "operator:short": "USPS", "operator:type": "public", "operator:wikidata": "Q668687", "ref": "6675800003"}, "type": "Feature"}
{"geometry": {"coordinates": [-95.536411, 37.922068], "type": "Point"}, "id": "UmYdjqxZqTBBSQ5_3DLjlOFNzRs=", "properties": {"@spider": "usps_collection_boxes", "addr:city": "PIQUA", "addr:country": "US", "addr:full": "108 W 2ND ST", "addr:postcode": "66761", "addr:state": "KS", "amenity": "post_box", "brand": "United States Postal Service", "brand:wikidata": "Q668687", "collection_times": "Mo-Sa 12:00", "name": "USPS COLLECTION BOX - BLUE BOX", "nsi_id": "unitedstatespostalservice-a77078", "operator": "United States Postal Service", "operator:short": "USPS", "operator:type": "public", "operator:wikidata": "Q668687", "ref": "6676100000"}, "type": "Feature"}
{"geometry": {"coordinates": [-94.881527, 37.835848], "type": "Point"}, "id": "AfQhAG-Bbig7bVrk2Ked_Rp8yNg=", "properties": {"@spider": "usps_collection_boxes", "addr:city": "REDFIELD", "addr:country": "US", "addr:full": "205 N PINE ST", "addr:postcode": "66769", "addr:state": "KS", "amenity": "post_box", "brand": "United States Postal Service", "brand:wikidata": "Q668687", "collection_times": "Mo-Fr 11:45; Sa 08:45", "name": "USPS COLLECTION BOX - PO LOBBY", "nsi_id": "unitedstatespostalservice-a77078", "operator": "United States Postal Service", "operator:short": "USPS", "operator:type": "public", "operator:wikidata": "Q668687", "ref": "6676900001"}, "type": "Feature"}
{"geometry": {"coordinates": [-94.881526667, 37.836162251], "type": "Point"}, "id": "_1zHLET9zE_WBWXuPx5TiQ0G-WA=", "properties": {"@spider": "usps_collection_boxes", "addr:city": "REDFIELD", "addr:country": "US", "addr:full": "205 PINE ST", "addr:postcode": "66769", "addr:state": "KS", "amenity": "post_box", "brand": "United States Postal Service", "brand:wikidata": "Q668687", "collection_times": "Mo-Fr 12:00; Sa 11:30", "name": "USPS COLLECTION BOX - PO LOBBY", "nsi_id": "unitedstatespostalservice-a77078", "operator": "United States Postal Service", "operator:short": "USPS", "operator:type": "public", "operator:wikidata": "Q668687", "ref": "6676900004"}, "type": "Feature"}
{"geometry": {"coordinates": [-95.171765, 37.51925], "type": "Point"}, "id": "4nyOp0eLKVR8Pf2VavxgS7yPad8=", "properties": {"@spider": "usps_collection_boxes", "addr:city": "SAINT PAUL", "addr:country": "US", "addr:full": "719 CENTRAL ST", "addr:postcode": "66771", "addr:state": "KS", "amenity": "post_box", "brand": "United States Postal Service", "brand:wikidata": "Q668687", "collection_times": "Mo-Fr 14:55; Sa 09:30", "name": "USPS COLLECTION BOX - PO LOBBY", "note": "ON 12/24 AND 12/31, THIS BOX MAY BE COLLECTED AS EARLY AS 12 NOON.", "nsi_id": "unitedstatespostalservice-a77078", "operator": "United States Postal Service", "operator:short": "USPS", "operator:type": "public", "operator:wikidata": "Q668687", "ref": "6677100001"}, "type": "Feature"}
{"geometry": {"coordinates": [-95.172812665, 37.519201521], "type": "Point"}, "id": "WJT9cTyt08ZnxvOcNWikLf5CPP4=", "properties": {"@spider": "usps_collection_boxes", "addr:city": "SAINT PAUL", "addr:country": "US", "addr:full": "719 CENTRAL ST", "addr:postcode": "66771", "addr:state": "KS", "amenity": "post_box", "brand": "United States Postal Service", "brand:wikidata": "Q668687", "collection_times": "Mo-Fr 16:00; Sa 10:45", "name": "USPS COLLECTION BOX - PO LOBBY", "note": "ON 12/24 AND 12/31, THIS BOX MAY BE COLLECTED AS EARLY AS 12 NOON.", "nsi_id": "unitedstatespostalservice-a77078", "operator": "United States Postal Service", "operator:short": "USPS", "operator:type": "public", "operator:wikidata": "Q668687", "ref": "6677100004"}, "type": "Feature"}
{"geometry": {"coordinates": [-95.143609, 37.689852], "type": "Point"}, "id": "2Rr43oanJWfEzthQua4Nfpa8TKo=", "properties": {"@spider": "usps_collection_boxes", "addr:city": "STARK", "addr:country": "US", "addr:full": "111 W MAIN ST", "addr:postcode": "66775", "addr:state": "KS", "amenity": "post_box", "brand": "United States Postal Service", "brand:wikidata": "Q668687", "collection_times": "Mo-Fr 11:45; Sa 09:15", "name": "USPS COLLECTION BOX - BLUE BOX", "nsi_id": "unitedstatespostalservice-a77078", "operator": "United States Postal Service", "operator:short": "USPS", "operator:type": "public", "operator:wikidata": "Q668687", "ref": "6677500000"}, "type": "Feature"}
{"geometry": {"coordinates": [-95.143609, 37.689852], "type": "Point"}, "id": "J8HWm0sDeR9vLUP5nlIGK3fD7cQ=", "properties": {"@spider": "usps_collection_boxes", "addr:city": "STARK", "addr:country": "US", "addr:full": "111 W MAIN ST", "addr:postcode": "66775", "addr:state": "KS", "amenity": "post_box", "brand": "United States Postal Service", "brand:wikidata": "Q668687", "collection_times": "Mo-Fr 11:45; Sa 09:00", "name": "USPS COLLECTION BOX - PO LOBBY", "nsi_id": "unitedstatespostalservice-a77078", "operator": "United States Postal Service", "operator:short": "USPS", "operator:type": "public", "operator:wikidata": "Q668687", "ref": "6677500001"}, "type": "Feature"}
{"geometry": {"coordinates": [-95.143661696, 37.689976543], "type": "Point"}, "id": "RpV0zSo2YSapmGSyxpiNq84iux8=", "properties": {"@spider": "usps_collection_boxes", "addr:city": "STARK", "addr:country": "US", "addr:full": "111 W MAIN ST", "addr:postcode": "66775", "addr:state": "KS", "amenity": "post_box", "brand": "United States Postal Service", "brand:wikidata": "Q668687", "collection_times": "Mo-Fr 12:00; Sa 09:15", "name": "USPS COLLECTION BOX - PO LOBBY", "nsi_id": "unitedstatespostalservice-a77078", "operator": "United States Postal Service", "operator:short": "USPS", "operator:type": "public", "operator:wikidata": "Q668687", "ref": "6677500003"}, "type": "Feature"}
{"geometry": {"coordinates": [-95.469751, 37.487946], "type": "Point"}, "id": "emmcibVxch6DEyge8D1rpNWZeI8=", "properties": {"@spider": "usps_collection_boxes", "addr:city": "THAYER", "addr:country": "US", "addr:full": "111 NEOSHO AVE", "addr:postcode": "66776", "addr:state": "KS", "amenity": "post_box", "brand": "United States Postal Service", "brand:wikidata": "Q668687", "collection_times": "Mo-Fr 14:00; Sa 09:00", "name": "USPS COLLECTION BOX - PO LOBBY", "note": "ON 12/24 AND 12/31, THIS BOX MAY BE COLLECTED AS EARLY AS 12 NOON.", "nsi_id": "unitedstatespostalservice-a77078", "operator": "United States Postal Service", "operator:short": "USPS", "operator:type": "public", "operator:wikidata": "Q668687", "ref": "6677600002"}, "type": "Feature"}
{"geometry": {"coordinates": [-95.471180832, 37.487838492], "type": "Point"}, "id": "M6FkhKB9l37cSBjqXYYZFxCfByo=", "properties": {"@spider": "usps_collection_boxes", "addr:city": "THAYER", "addr:country": "US", "addr:full": "111 W NEOSHO AVE", "addr:postcode": "66776", "addr:state": "KS", "amenity": "post_box", "brand": "United States Postal Service", "brand:wikidata": "Q668687", "collection_times": "Mo-Fr 14:45; Sa 09:30", "name": "USPS COLLECTION BOX - PO LOBBY", "note": "ON 12/24 AND 12/31, THIS BOX MAY BE COLLECTED AS EARLY AS 12 NOON.", "nsi_id": "unitedstatespostalservice-a77078", "operator": "United States Postal Service", "operator:short": "USPS", "operator:type": "public", "operator:wikidata": "Q668687", "ref": "6677600004"}, "type": "Feature"}
{"geometry": {"coordinates": [-95.9505099971, 37.7980600194], "type": "Point"}, "id": "OTzKe35rmrB5w1HvLBiFG_1FBfo=", "properties": {"@spider": "usps_collection_boxes", "addr:city": "TORONTO", "addr:country": "US", "addr:full": "110 W MAIN ST", "addr:postcode": "66777", "addr:state": "KS", "amenity": "post_box", "brand": "United States Postal Service", "brand:wikidata": "Q668687", "collection_times": "Mo-Sa 08:45", "name": "USPS COLLECTION BOX - BLUE BOX", "nsi_id": "unitedstatespostalservice-a77078", "operator": "United States Postal Service", "operator:short": "USPS", "operator:type": "public", "operator:wikidata": "Q668687", "ref": "6677700000"}, "type": "Feature"}
{"geometry": {"coordinates": [-94.978221, 37.845904], "type": "Point"}, "id": "4aR5_faPncM3aMQ0x6F0G5Ge0us=", "properties": {"@spider": "usps_collection_boxes", "addr:city": "UNIONTOWN", "addr:country": "US", "addr:full": "106 2ND ST", "addr:postcode": "66779", "addr:state": "KS", "amenity": "post_box", "brand": "United States Postal Service", "brand:wikidata": "Q668687", "collection_times": "Mo-Fr 10:45; Sa 08:45", "name": "USPS COLLECTION BOX - PO LOBBY", "nsi_id": "unitedstatespostalservice-a77078", "operator": "United States Postal Service", "operator:short": "USPS", "operator:type": "public", "operator:wikidata": "Q668687", "ref": "6677900001"}, "type": "Feature"}
{"geometry": {"coordinates": [-94.977881832, 37.845869481], "type": "Point"}, "id": "4DzpsvpRwzpvHX42VdtfUC1r-uQ=", "properties": {"@spider": "usps_collection_boxes", "addr:city": "UNIONTOWN", "addr:country": "US", "addr:full": "106 2ND ST", "addr:postcode": "66779", "addr:state": "KS", "amenity": "post_box", "brand": "United States Postal Service", "brand:wikidata": "Q668687", "collection_times": "Mo-Fr 11:00; Sa 09:00", "name": "USPS COLLECTION BOX - PO LOBBY", "nsi_id": "unitedstatespostalservice-a77078", "operator": "United States Postal Service", "operator:short": "USPS", "operator:type": "public", "operator:wikidata": "Q668687", "ref": "6677900003"}, "type": "Feature"}
{"geometry": {"coordinates": [-95.07539, 37.601552], "type": "Point"}, "id": "iBNYozyF3gmdG_11vsbJPs9gE94=", "properties": {"@spider": "usps_collection_boxes", "addr:city": "WALNUT", "addr:country": "US", "addr:full": "119 S MAIN ST", "addr:postcode": "66780", "addr:state": "KS", "amenity": "post_box", "brand": "United States Postal Service", "brand:wikidata": "Q668687", "collection_times": "Mo-Fr 13:45; Sa 08:45", "name": "USPS COLLECTION BOX - PO LOBBY", "note": "ON 12/24 AND 12/31, THIS BOX MAY BE COLLECTED AS EARLY AS 12 NOON.", "nsi_id": "unitedstatespostalservice-a77078", "operator": "United States Postal Service", "operator:short": "USPS", "operator:type": "public", "operator:wikidata": "Q668687", "ref": "6678000001"}, "type": "Feature"}
{"geometry": {"coordinates": [-95.075437173, 37.600983335], "type": "Point"}, "id": "pvraEcjETjOcmTNQgUFWDdokGLY=", "properties": {"@spider": "usps_collection_boxes", "addr:city": "WALNUT", "addr:country": "US", "addr:full": "119 S MAIN ST", "addr:postcode": "66780", "addr:state": "KS", "amenity": "post_box", "brand": "United States Postal Service", "brand:wikidata": "Q668687", "collection_times": "Mo-Fr 14:00; Sa 10:30", "name": "USPS COLLECTION BOX - PO LOBBY", "note": "ON 12/24 AND 12/31, THIS BOX MAY BE COLLECTED AS EARLY AS 12 NOON.", "nsi_id": "unitedstatespostalservice-a77078", "operator": "United States Postal Service", "operator:short": "USPS", "operator:type": "public", "operator:wikidata": "Q668687", "ref": "6678000003"}, "type": "Feature"}
{"geometry": {"coordinates": [-94.920539, 37.281706], "type": "Point"}, "id": "R_qpGW0_QLMFUlnyRrSHe10Lx_M=", "properties": {"@spider": "usps_collection_boxes", "addr:city": "WEST MINERAL", "addr:country": "US", "addr:full": "102 JOPLIN ST", "addr:postcode": "66782", "addr:state": "KS", "amenity": "post_box", "brand": "United States Postal Service", "brand:wikidata": "Q668687", "collection_times": "Mo-Fr 11:45; Sa 08:45", "name": "USPS COLLECTION BOX - PO LOBBY", "nsi_id": "unitedstatespostalservice-a77078", "operator": "United States Postal Service", "operator:short": "USPS", "operator:type": "public", "operator:wikidata": "Q668687", "ref": "6678200001"}, "type": "Feature"}
{"geometry": {"coordinates": [-94.920516452, 37.281987587], "type": "Point"}, "id": "iudsz3jpWxA-ciCI2krv-Y76964=", "properties": {"@spider": "usps_collection_boxes", "addr:city": "WEST MINERAL", "addr:country": "US", "addr:full": "102 JOPLIN ST", "addr:postcode": "66782", "addr:state": "KS", "amenity": "post_box", "brand": "United States Postal Service", "brand:wikidata": "Q668687", "collection_times": "Mo-Fr 13:00; Sa 10:00", "name": "USPS COLLECTION BOX - PO LOBBY", "note": "ON 12/24 AND 12/31, THIS BOX MAY BE COLLECTED AS EARLY AS 12 NOON.", "nsi_id": "unitedstatespostalservice-a77078", "operator": "United States Postal Service", "operator:short": "USPS", "operator:type": "public", "operator:wikidata": "Q668687", "ref": "6678200003"}, "type": "Feature"}
{"geometry": {"coordinates": [-95.732507, 37.882393], "type": "Point"}, "id": "we8dk0alyNBFuWjjZ-jnEo9u2DE=", "properties": {"@spider": "usps_collection_boxes", "addr:city": "YATES CENTER", "addr:country": "US", "addr:full": "200 N MAIN ST", "addr:postcode": "66783", "addr:state": "KS", "amenity": "post_box", "brand": "United States Postal Service", "brand:wikidata": "Q668687", "collection_times": "Mo-Fr 15:15; Sa 09:00", "name": "USPS COLLECTION BOX - PO LOBBY", "note": "ON 12/24 AND 12/31, THIS BOX MAY BE COLLECTED AS EARLY AS 12 NOON.", "nsi_id": "unitedstatespostalservice-a77078", "operator": "United States Postal Service", "operator:short": "USPS", "operator:type": "public", "operator:wikidata": "Q668687", "ref": "6678300004"}, "type": "Feature"}
{"geometry": {"coordinates": [-95.732475692, 37.882682749], "type": "Point"}, "id": "tlQe0KKwA2jRCK6LWBkUTITxSLE=", "properties": {"@spider": "usps_collection_boxes", "addr:city": "YATES CENTER", "addr:country": "US", "addr:full": "200 N MAIN ST", "addr:postcode": "66783", "addr:state": "KS", "amenity": "post_box", "brand": "United States Postal Service", "brand:wikidata": "Q668687", "collection_times": "Mo-Fr 15:30; Sa 10:00", "name": "USPS COLLECTION BOX - PO LOBBY", "note": "ON 12/24 AND 12/31, THIS BOX MAY BE COLLECTED AS EARLY AS 12 NOON.", "nsi_id": "unitedstatespostalservice-a77078", "operator": "United States Postal Service", "operator:short": "USPS", "operator:type": "public", "operator:wikidata": "Q668687", "ref": "6678300006"}, "type": "Feature"}
