{"geometry": {"coordinates": [-96.1820183, 38.405581], "type": "Point"}, "id": "dDz5Ihicf_PS6o6d5xNDwFxvC-E=", "properties": {"@source_uri": "https://tools.usps.com/UspsToolsRestServices/rest/POLocator/findLocations", "@spider": "usps_collection_boxes", "addr:city": "EMPORIA", "addr:country": "US", "addr:postcode": "66801", "addr:state": "KS", "addr:street_address": "625 MERCHANT ST", "amenity": "post_box", "collection_times": "Mo-Sa 16:00", "note": "ON 12/24 AND 12/31, THIS BOX MAY BE COLLECTED AS EARLY AS 12 NOON.", "nsi_id": "unitedstatespostalservice-a77078", "operator": "United States Postal Service", "operator:short": "USPS", "operator:type": "public", "operator:wikidata": "Q668687", "ref": "6680100001"}, "type": "Feature"}
{"geometry": {"coordinates": [-96.2171055593, 38.425012554], "type": "Point"}, "id": "X0O4AjJRsUOdGeqRbfBpBoFgziw=", "properties": {"@source_uri": "https://tools.usps.com/UspsToolsRestServices/rest/POLocator/findLocations", "@spider": "usps_collection_boxes", "addr:city": "EMPORIA", "addr:country": "US", "addr:postcode": "66801", "addr:state": "KS", "addr:street_address": "2301 INDUSTRIAL RD", "amenity": "post_box", "collection_times": "Mo-Sa 11:00", "nsi_id": "unitedstatespostalservice-a77078", "operator": "United States Postal Service", "operator:short": "USPS", "operator:type": "public", "operator:wikidata": "Q668687", "ref": "6680100005"}, "type": "Feature"}
{"geometry": {"coordinates": [-96.1977333, 38.41214], "type": "Point"}, "id": "JcheWGW2bmTdM0y2XOHsUTquy4o=", "properties": {"@source_uri": "https://tools.usps.com/UspsToolsRestServices/rest/POLocator/findLocations", "@spider": "usps_collection_boxes", "addr:city": "EMPORIA", "addr:country": "US", "addr:postcode": "66801", "addr:state": "KS", "addr:street_address": "1301 W 12TH AVE", "amenity": "post_box", "collection_times": "Mo-Fr 13:45", "note": "ON 12/24 AND 12/31, THIS BOX MAY BE COLLECTED AS EARLY AS 12 NOON.", "nsi_id": "unitedstatespostalservice-a77078", "operator": "United States Postal Service", "operator:short": "USPS", "operator:type": "public", "operator:wikidata": "Q668687", "ref": "6680100006"}, "type": "Feature"}
{"geometry": {"coordinates": [-96.2162721, 38.414171], "type": "Point"}, "id": "mOFikWwp7A3MrAqdZV2_0LsAR_k=", "properties": {"@source_uri": "https://tools.usps.com/UspsToolsRestServices/rest/POLocator/findLocations", "@spider": "usps_collection_boxes", "addr:city": "EMPORIA", "addr:country": "US", "addr:postcode": "66801", "addr:state": "KS", "addr:street_address": "1312 INDUSTRIAL RD", "amenity": "post_box", "collection_times": "Mo-Sa 14:00", "note": "ON 12/24 AND 12/31, THIS BOX MAY BE COLLECTED AS EARLY AS 12 NOON.", "nsi_id": "unitedstatespostalservice-a77078", "operator": "United States Postal Service", "operator:short": "USPS", "operator:type": "public", "operator:wikidata": "Q668687", "ref": "6680100010"}, "type": "Feature"}
{"geometry": {"coordinates": [-96.18079298, 38.3995230116], "type": "Point"}, "id": "jDXjxhjwn7ssoIikNuwQjfhxV5M=", "properties": {"@source_uri": "https://tools.usps.com/UspsToolsRestServices/rest/POLocator/findLocations", "@spider": "usps_collection_boxes", "addr:city": "EMPORIA", "addr:country": "US", "addr:postcode": "66801", "addr:state": "KS", "addr:street_address": "115 COMMERCIAL ST", "amenity": "post_box", "collection_times": "Mo-Fr 14:00", "note": "ON 12/24 AND 12/31, THIS BOX MAY BE COLLECTED AS EARLY AS 12 NOON.", "nsi_id": "unitedstatespostalservice-a77078", "operator": "United States Postal Service", "operator:short": "USPS", "operator:type": "public", "operator:wikidata": "Q668687", "ref": "6680100015"}, "type": "Feature"}
{"geometry": {"coordinates": [-96.2372533, 38.411341], "type": "Point"}, "id": "p5g76kmbKOehyy4rPauiQf07bY8=", "properties": {"@source_uri": "https://tools.usps.com/UspsToolsRestServices/rest/POLocator/findLocations", "@spider": "usps_collection_boxes", "addr:city": "EMPORIA", "addr:country": "US", "addr:postcode": "66801", "addr:state": "KS", "addr:street_address": "4215 W US HIGHWAY 50", "amenity": "post_box", "collection_times": "Mo-Sa 09:00", "nsi_id": "unitedstatespostalservice-a77078", "operator": "United States Postal Service", "operator:short": "USPS", "operator:type": "public", "operator:wikidata": "Q668687", "ref": "6680100016"}, "type": "Feature"}
{"geometry": {"coordinates": [-96.1818049, 38.405902], "type": "Point"}, "id": "-4_5bpiUNr1A1RK5jq3byQasEv4=", "properties": {"@source_uri": "https://tools.usps.com/UspsToolsRestServices/rest/POLocator/findLocations", "@spider": "usps_collection_boxes", "addr:city": "EMPORIA", "addr:country": "US", "addr:postcode": "66801", "addr:state": "KS", "addr:street_address": "625 MERCHANT ST", "amenity": "post_box", "collection_times": "Mo-Sa 16:00", "indoor": "yes", "note": "ON 12/24 AND 12/31, THIS BOX MAY BE COLLECTED AS EARLY AS 12 NOON.", "nsi_id": "unitedstatespostalservice-a77078", "operator": "United States Postal Service", "operator:short": "USPS", "operator:type": "public", "operator:wikidata": "Q668687", "ref": "6680100022"}, "type": "Feature"}
{"geometry": {"coordinates": [-96.180287399, 38.413847768], "type": "Point"}, "id": "dA9_CnRWo56DIMM5Tcnv1hM5FEQ=", "properties": {"@source_uri": "https://tools.usps.com/UspsToolsRestServices/rest/POLocator/findLocations", "@spider": "usps_collection_boxes", "addr:city": "EMPORIA", "addr:country": "US", "addr:postcode": "66801", "addr:state": "KS", "addr:street_address": "1 KELLOGG CIR", "amenity": "post_box", "collection_times": "Mo-Fr 14:00", "note": "ON 12/24 AND 12/31, THIS BOX MAY BE COLLECTED AS EARLY AS 12 NOON.", "nsi_id": "unitedstatespostalservice-a77078", "operator": "United States Postal Service", "operator:short": "USPS", "operator:type": "public", "operator:wikidata": "Q668687", "ref": "6680100025"}, "type": "Feature"}
{"geometry": {"coordinates": [-96.1801199, 38.402828], "type": "Point"}, "id": "BzkF8W0WMd1ZGZJeO5N61nWc2M8=", "properties": {"@source_uri": "https://tools.usps.com/UspsToolsRestServices/rest/POLocator/findLocations", "@spider": "usps_collection_boxes", "addr:city": "EMPORIA", "addr:country": "US", "addr:postcode": "66801", "addr:state": "KS", "addr:street_address": "402 COMMERCIAL ST", "amenity": "post_box", "collection_times": "Mo-Fr 13:45", "note": "ON 12/24 AND 12/31, THIS BOX MAY BE COLLECTED AS EARLY AS 12 NOON.", "nsi_id": "unitedstatespostalservice-a77078", "operator": "United States Postal Service", "operator:short": "USPS", "operator:type": "public", "operator:wikidata": "Q668687", "ref": "6680100026"}, "type": "Feature"}
{"geometry": {"coordinates": [-96.181487034, 38.405799], "type": "Point"}, "id": "VxuCJH-_MmEB9Yp6oM856h2Z_2c=", "properties": {"@source_uri": "https://tools.usps.com/UspsToolsRestServices/rest/POLocator/findLocations", "@spider": "usps_collection_boxes", "addr:city": "EMPORIA", "addr:country": "US", "addr:postcode": "66801", "addr:state": "KS", "addr:street_address": "625 MERCHANT ST", "amenity": "post_box", "collection_times": "Mo-Fr 16:00; Sa 11:30", "indoor": "yes", "note": "ON 12/24 AND 12/31, THIS BOX MAY BE COLLECTED AS EARLY AS 12 NOON.", "nsi_id": "unitedstatespostalservice-a77078", "operator": "United States Postal Service", "operator:short": "USPS", "operator:type": "public", "operator:wikidata": "Q668687", "ref": "6680100028"}, "type": "Feature"}
{"geometry": {"coordinates": [-96.1043799, 38.639737], "type": "Point"}, "id": "pOannDhmD3XufoICfi1GclZBZMY=", "properties": {"@source_uri": "https://tools.usps.com/UspsToolsRestServices/rest/POLocator/findLocations", "@spider": "usps_collection_boxes", "addr:city": "ADMIRE", "addr:country": "US", "addr:postcode": "66830", "addr:state": "KS", "addr:street_address": "107 W 5TH ST", "amenity": "post_box", "collection_times": "Mo-Sa 12:00", "nsi_id": "unitedstatespostalservice-a77078", "operator": "United States Postal Service", "operator:short": "USPS", "operator:type": "public", "operator:wikidata": "Q668687", "ref": "6683000001"}, "type": "Feature"}
{"geometry": {"coordinates": [-96.10459, 38.639816], "type": "Point"}, "id": "cYoErmexvQQ3lnZ8f8Gup1cuG78=", "properties": {"@source_uri": "https://tools.usps.com/UspsToolsRestServices/rest/POLocator/findLocations", "@spider": "usps_collection_boxes", "addr:city": "ADMIRE", "addr:country": "US", "addr:postcode": "66830", "addr:state": "KS", "addr:street_address": "107 W 5TH ST", "amenity": "post_box", "collection_times": "Mo-Sa 09:45", "indoor": "yes", "nsi_id": "unitedstatespostalservice-a77078", "operator": "United States Postal Service", "operator:short": "USPS", "operator:type": "public", "operator:wikidata": "Q668687", "ref": "6683000002"}, "type": "Feature"}
{"geometry": {"coordinates": [-96.104586171, 38.639739045], "type": "Point"}, "id": "Yjvrgzq6CEFKvYLBPhSthWBZ8vg=", "properties": {"@source_uri": "https://tools.usps.com/UspsToolsRestServices/rest/POLocator/findLocations", "@spider": "usps_collection_boxes", "addr:city": "ADMIRE", "addr:country": "US", "addr:postcode": "66830", "addr:state": "KS", "addr:street_address": "107 W 5TH ST", "amenity": "post_box", "collection_times": "Mo-Sa 09:45", "indoor": "yes", "nsi_id": "unitedstatespostalservice-a77078", "operator": "United States Postal Service", "operator:short": "USPS", "operator:type": "public", "operator:wikidata": "Q668687", "ref": "6683000003"}, "type": "Feature"}
{"geometry": {"coordinates": [-96.169736, 38.655079], "type": "Point"}, "id": "9uyljM8ImZkV2Cpag0cgs5DlqfA=", "properties": {"@source_uri": "https://tools.usps.com/UspsToolsRestServices/rest/POLocator/findLocations", "@spider": "usps_collection_boxes", "addr:city": "ALLEN", "addr:country": "US", "addr:postcode": "66833", "addr:state": "KS", "addr:street_address": "402 MAIN ST", "amenity": "post_box", "collection_times": "Mo-Fr 11:45; Sa 09:45", "nsi_id": "unitedstatespostalservice-a77078", "operator": "United States Postal Service", "operator:short": "USPS", "operator:type": "public", "operator:wikidata": "Q668687", "ref": "6683300001"}, "type": "Feature"}
{"geometry": {"coordinates": [-96.169736, 38.655079], "type": "Point"}, "id": "-EgS6reSIs1vRXwFjfOGC-c_HaI=", "properties": {"@source_uri": "https://tools.usps.com/UspsToolsRestServices/rest/POLocator/findLocations", "@spider": "usps_collection_boxes", "addr:city": "ALLEN", "addr:country": "US", "addr:postcode": "66833", "addr:state": "KS", "addr:street_address": "402 MAIN ST", "amenity": "post_box", "collection_times": "Mo-Fr 11:45; Sa 09:45", "indoor": "yes", "nsi_id": "unitedstatespostalservice-a77078", "operator": "United States Postal Service", "operator:short": "USPS", "operator:type": "public", "operator:wikidata": "Q668687", "ref": "6683300002"}, "type": "Feature"}
{"geometry": {"coordinates": [-96.169735339, 38.655071665], "type": "Point"}, "id": "V1JJh0rIuQ86fpfRzwKucV-smB0=", "properties": {"@source_uri": "https://tools.usps.com/UspsToolsRestServices/rest/POLocator/findLocations", "@spider": "usps_collection_boxes", "addr:city": "ALLEN", "addr:country": "US", "addr:postcode": "66833", "addr:state": "KS", "addr:street_address": "402 MAIN ST", "amenity": "post_box", "collection_times": "Mo-Fr 11:45; Sa 09:45", "indoor": "yes", "nsi_id": "unitedstatespostalservice-a77078", "operator": "United States Postal Service", "operator:short": "USPS", "operator:type": "public", "operator:wikidata": "Q668687", "ref": "6683300003"}, "type": "Feature"}
{"geometry": {"coordinates": [-96.48911, 38.865985], "type": "Point"}, "id": "cekbodJPCXA-tZhbEHR7Or8S66I=", "properties": {"@source_uri": "https://tools.usps.com/UspsToolsRestServices/rest/POLocator/findLocations", "@spider": "usps_collection_boxes", "addr:city": "ALTA VISTA", "addr:country": "US", "addr:postcode": "66834", "addr:state": "KS", "addr:street_address": "618 MAIN ST", "amenity": "post_box", "collection_times": "Mo-Fr 11:45; Sa 08:45", "nsi_id": "unitedstatespostalservice-a77078", "operator": "United States Postal Service", "operator:short": "USPS", "operator:type": "public", "operator:wikidata": "Q668687", "ref": "6683400001"}, "type": "Feature"}
{"geometry": {"coordinates": [-96.48911, 38.865985], "type": "Point"}, "id": "4MSl22Y39pcTc0y49q_19dWNiSg=", "properties": {"@source_uri": "https://tools.usps.com/UspsToolsRestServices/rest/POLocator/findLocations", "@spider": "usps_collection_boxes", "addr:city": "ALTA VISTA", "addr:country": "US", "addr:postcode": "66834", "addr:state": "KS", "addr:street_address": "618 MAIN ST", "amenity": "post_box", "collection_times": "Mo-Fr 11:45; Sa 08:45", "indoor": "yes", "nsi_id": "unitedstatespostalservice-a77078", "operator": "United States Postal Service", "operator:short": "USPS", "operator:type": "public", "operator:wikidata": "Q668687", "ref": "6683400002"}, "type": "Feature"}
{"geometry": {"coordinates": [-96.48911, 38.865985], "type": "Point"}, "id": "mYohngXchSiXZSSt9KGwlkNOpm4=", "properties": {"@source_uri": "https://tools.usps.com/UspsToolsRestServices/rest/POLocator/findLocations", "@spider": "usps_collection_boxes", "addr:city": "ALTA VISTA", "addr:country": "US", "addr:postcode": "66834", "addr:state": "KS", "addr:street_address": "618 MAIN ST", "amenity": "post_box", "collection_times": "Mo-Fr 11:45; Sa 08:45", "indoor": "yes", "nsi_id": "unitedstatespostalservice-a77078", "operator": "United States Postal Service", "operator:short": "USPS", "operator:type": "public", "operator:wikidata": "Q668687", "ref": "6683400003"}, "type": "Feature"}
{"geometry": {"coordinates": [-96.262126871, 38.506400969], "type": "Point"}, "id": "IZ0QVJEqk-1i2MbnifujD5fcVLs=", "properties": {"@source_uri": "https://tools.usps.com/UspsToolsRestServices/rest/POLocator/findLocations", "@spider": "usps_collection_boxes", "addr:city": "AMERICUS", "addr:country": "US", "addr:postcode": "66835", "addr:state": "KS", "addr:street_address": "611 MAIN ST", "amenity": "post_box", "collection_times": "Mo-Fr 11:45; Sa 08:45", "nsi_id": "unitedstatespostalservice-a77078", "operator": "United States Postal Service", "operator:short": "USPS", "operator:type": "public", "operator:wikidata": "Q668687", "ref": "6683500001"}, "type": "Feature"}
{"geometry": {"coordinates": [-96.262126871, 38.506400969], "type": "Point"}, "id": "dMuqJXjcqnktigHjZWJLP1t7F8o=", "properties": {"@source_uri": "https://tools.usps.com/UspsToolsRestServices/rest/POLocator/findLocations", "@spider": "usps_collection_boxes", "addr:city": "AMERICUS", "addr:country": "US", "addr:postcode": "66835", "addr:state": "KS", "addr:street_address": "611 MAIN ST", "amenity": "post_box", "collection_times": "Mo-Fr 11:45; Sa 08:45", "indoor": "yes", "nsi_id": "unitedstatespostalservice-a77078", "operator": "United States Postal Service", "operator:short": "USPS", "operator:type": "public", "operator:wikidata": "Q668687", "ref": "6683500002"}, "type": "Feature"}
{"geometry": {"coordinates": [-96.262126871, 38.506400969], "type": "Point"}, "id": "8JjyDH_oR0pYSqEC0HhQS8uokvM=", "properties": {"@source_uri": "https://tools.usps.com/UspsToolsRestServices/rest/POLocator/findLocations", "@spider": "usps_collection_boxes", "addr:city": "AMERICUS", "addr:country": "US", "addr:postcode": "66835", "addr:state": "KS", "addr:street_address": "611 MAIN ST", "amenity": "post_box", "collection_times": "Mo-Fr 11:45; Sa 08:45", "indoor": "yes", "nsi_id": "unitedstatespostalservice-a77078", "operator": "United States Postal Service", "operator:short": "USPS", "operator:type": "public", "operator:wikidata": "Q668687", "ref": "6683500003"}, "type": "Feature"}
{"geometry": {"coordinates": [-96.847220253, 38.551827274], "type": "Point"}, "id": "byvrAOsrWqMcSFGkdiRLpNgAahE=", "properties": {"@source_uri": "https://tools.usps.com/UspsToolsRestServices/rest/POLocator/findLocations", "@spider": "usps_collection_boxes", "addr:city": "BURDICK", "addr:country": "US", "addr:postcode": "66838", "addr:state": "KS", "addr:street_address": "536 MAIN ST", "amenity": "post_box", "collection_times": "Mo-Sa 10:30", "nsi_id": "unitedstatespostalservice-a77078", "operator": "United States Postal Service", "operator:short": "USPS", "operator:type": "public", "operator:wikidata": "Q668687", "ref": "6683800001"}, "type": "Feature"}
{"geometry": {"coordinates": [-95.738428, 38.264525], "type": "Point"}, "id": "2K_xsTvHra3HVx-uEygVhPMhqVE=", "properties": {"@source_uri": "https://tools.usps.com/UspsToolsRestServices/rest/POLocator/findLocations", "@spider": "usps_collection_boxes", "addr:city": "BURLINGTON", "addr:country": "US", "addr:postcode": "66839", "addr:state": "KS", "addr:street_address": "306 N MAIN ST", "amenity": "post_box", "collection_times": "Mo-Sa 14:15", "note": "ON 12/24 AND 12/31, THIS BOX MAY BE COLLECTED AS EARLY AS 12 NOON.", "nsi_id": "unitedstatespostalservice-a77078", "operator": "United States Postal Service", "operator:short": "USPS", "operator:type": "public", "operator:wikidata": "Q668687", "ref": "6683900002"}, "type": "Feature"}
{"geometry": {"coordinates": [-95.738676, 38.193981], "type": "Point"}, "id": "YU1Ntc65uSeGHKKTtdhBmc2Nr3U=", "properties": {"@source_uri": "https://tools.usps.com/UspsToolsRestServices/rest/POLocator/findLocations", "@spider": "usps_collection_boxes", "addr:city": "BURLINGTON", "addr:country": "US", "addr:postcode": "66839", "addr:state": "KS", "addr:street_address": "118 S 4TH ST", "amenity": "post_box", "collection_times": "Mo-Fr 13:15; Sa 10:15", "note": "ON 12/24 AND 12/31, THIS BOX MAY BE COLLECTED AS EARLY AS 12 NOON.", "nsi_id": "unitedstatespostalservice-a77078", "operator": "United States Postal Service", "operator:short": "USPS", "operator:type": "public", "operator:wikidata": "Q668687", "ref": "6683900003"}, "type": "Feature"}
{"geometry": {"coordinates": [-95.738676, 38.193981], "type": "Point"}, "id": "KOGQr4xP8yZ13noxUJZ32C7RRcU=", "properties": {"@source_uri": "https://tools.usps.com/UspsToolsRestServices/rest/POLocator/findLocations", "@spider": "usps_collection_boxes", "addr:city": "BURLINGTON", "addr:country": "US", "addr:postcode": "66839", "addr:state": "KS", "addr:street_address": "118 S 4TH ST", "amenity": "post_box", "collection_times": "Mo-Fr 14:00; Sa 10:15", "indoor": "yes", "note": "ON 12/24 AND 12/31, THIS BOX MAY BE COLLECTED AS EARLY AS 12 NOON.", "nsi_id": "unitedstatespostalservice-a77078", "operator": "United States Postal Service", "operator:short": "USPS", "operator:type": "public", "operator:wikidata": "Q668687", "ref": "6683900005"}, "type": "Feature"}
{"geometry": {"coordinates": [-95.73867849, 38.193975], "type": "Point"}, "id": "zwFGFth9afMbk75BYt6ElR6mKIU=", "properties": {"@source_uri": "https://tools.usps.com/UspsToolsRestServices/rest/POLocator/findLocations", "@spider": "usps_collection_boxes", "addr:city": "BURLINGTON", "addr:country": "US", "addr:postcode": "66839", "addr:state": "KS", "addr:street_address": "118 S 4TH ST", "amenity": "post_box", "collection_times": "Mo-Fr 14:00; Sa 09:30", "indoor": "yes", "note": "ON 12/24 AND 12/31, THIS BOX MAY BE COLLECTED AS EARLY AS 12 NOON.", "nsi_id": "unitedstatespostalservice-a77078", "operator": "United States Postal Service", "operator:short": "USPS", "operator:type": "public", "operator:wikidata": "Q668687", "ref": "6683900007"}, "type": "Feature"}
{"geometry": {"coordinates": [-96.886401, 38.089517], "type": "Point"}, "id": "-c-jXqcy0bV9BJ9LYIUI3CjHyCA=", "properties": {"@source_uri": "https://tools.usps.com/UspsToolsRestServices/rest/POLocator/findLocations", "@spider": "usps_collection_boxes", "addr:city": "BURNS", "addr:country": "US", "addr:postcode": "66840", "addr:state": "KS", "addr:street_address": "111 N WASHINGTON AVE", "amenity": "post_box", "collection_times": "Mo-Fr 12:00; Sa 09:00", "nsi_id": "unitedstatespostalservice-a77078", "operator": "United States Postal Service", "operator:short": "USPS", "operator:type": "public", "operator:wikidata": "Q668687", "ref": "6684000001"}, "type": "Feature"}
{"geometry": {"coordinates": [-96.886401, 38.089517], "type": "Point"}, "id": "vK2_4UslTSNQi95xjQC1szUkxOU=", "properties": {"@source_uri": "https://tools.usps.com/UspsToolsRestServices/rest/POLocator/findLocations", "@spider": "usps_collection_boxes", "addr:city": "BURNS", "addr:country": "US", "addr:postcode": "66840", "addr:state": "KS", "addr:street_address": "111 N WASHINGTON AVE", "amenity": "post_box", "collection_times": "Mo-Fr 12:00; Sa 09:00", "indoor": "yes", "nsi_id": "unitedstatespostalservice-a77078", "operator": "United States Postal Service", "operator:short": "USPS", "operator:type": "public", "operator:wikidata": "Q668687", "ref": "6684000002"}, "type": "Feature"}
{"geometry": {"coordinates": [-96.8867307091, 38.0937825173], "type": "Point"}, "id": "xLRTqHnXCq4OiiZ9ruIX_RfPMn4=", "properties": {"@source_uri": "https://tools.usps.com/UspsToolsRestServices/rest/POLocator/findLocations", "@spider": "usps_collection_boxes", "addr:city": "BURNS", "addr:country": "US", "addr:postcode": "66840", "addr:state": "KS", "addr:street_address": "111 N WASHINGTON AVE", "amenity": "post_box", "collection_times": "Mo-Fr 12:00; Sa 09:00", "indoor": "yes", "nsi_id": "unitedstatespostalservice-a77078", "operator": "United States Postal Service", "operator:short": "USPS", "operator:type": "public", "operator:wikidata": "Q668687", "ref": "6684000003"}, "type": "Feature"}
{"geometry": {"coordinates": [-96.637264, 38.038994], "type": "Point"}, "id": "cNfg2phlDxTO3vZAFmLmqvDlNfA=", "properties": {"@source_uri": "https://tools.usps.com/UspsToolsRestServices/rest/POLocator/findLocations", "@spider": "usps_collection_boxes", "addr:city": "CASSODAY", "addr:country": "US", "addr:postcode": "66842", "addr:state": "KS", "addr:street_address": "308 E MAIN ST", "amenity": "post_box", "collection_times": "Mo-Fr 12:00; Sa 08:45", "nsi_id": "unitedstatespostalservice-a77078", "operator": "United States Postal Service", "operator:short": "USPS", "operator:type": "public", "operator:wikidata": "Q668687", "ref": "6684200001"}, "type": "Feature"}
{"geometry": {"coordinates": [-96.637264, 38.038994], "type": "Point"}, "id": "oOcC-SZzgqX1XMmpaj5olCvFHX4=", "properties": {"@source_uri": "https://tools.usps.com/UspsToolsRestServices/rest/POLocator/findLocations", "@spider": "usps_collection_boxes", "addr:city": "CASSODAY", "addr:country": "US", "addr:postcode": "66842", "addr:state": "KS", "addr:street_address": "308 E MAIN ST", "amenity": "post_box", "collection_times": "Mo-Fr 12:00; Sa 08:45", "indoor": "yes", "nsi_id": "unitedstatespostalservice-a77078", "operator": "United States Postal Service", "operator:short": "USPS", "operator:type": "public", "operator:wikidata": "Q668687", "ref": "6684200002"}, "type": "Feature"}
{"geometry": {"coordinates": [-96.637376794, 38.03906814], "type": "Point"}, "id": "kz4rCF1WyeYTw7BGBlmSgluDo4s=", "properties": {"@source_uri": "https://tools.usps.com/UspsToolsRestServices/rest/POLocator/findLocations", "@spider": "usps_collection_boxes", "addr:city": "CASSODAY", "addr:country": "US", "addr:postcode": "66842", "addr:state": "KS", "addr:street_address": "308 E MAIN ST", "amenity": "post_box", "collection_times": "Mo-Fr 12:00", "indoor": "yes", "nsi_id": "unitedstatespostalservice-a77078", "operator": "United States Postal Service", "operator:short": "USPS", "operator:type": "public", "operator:wikidata": "Q668687", "ref": "6684200003"}, "type": "Feature"}
{"geometry": {"coordinates": [-96.824159034, 38.2607100197], "type": "Point"}, "id": "4TjOaiSVrINp6sJoE0befF0xy8s=", "properties": {"@source_uri": "https://tools.usps.com/UspsToolsRestServices/rest/POLocator/findLocations", "@spider": "usps_collection_boxes", "addr:city": "CEDAR POINT", "addr:country": "US", "addr:postcode": "66843", "addr:state": "KS", "addr:street_address": "417 WALNUT ST", "amenity": "post_box", "collection_times": "Mo-Fr 13:50; Sa 13:15", "note": "ON 12/24 AND 12/31, THIS BOX MAY BE COLLECTED AS EARLY AS 12 NOON.", "nsi_id": "unitedstatespostalservice-a77078", "operator": "United States Postal Service", "operator:short": "USPS", "operator:type": "public", "operator:wikidata": "Q668687", "ref": "6684300001"}, "type": "Feature"}
{"geometry": {"coordinates": [-96.824159034, 38.2607100197], "type": "Point"}, "id": "mItkSxyDY3r_Fdhk-waobmxUN_w=", "properties": {"@source_uri": "https://tools.usps.com/UspsToolsRestServices/rest/POLocator/findLocations", "@spider": "usps_collection_boxes", "addr:city": "CEDAR POINT", "addr:country": "US", "addr:postcode": "66843", "addr:state": "KS", "addr:street_address": "417 WALNUT ST", "amenity": "post_box", "collection_times": "Mo-Fr 14:20; Sa 13:15", "indoor": "yes", "note": "ON 12/24 AND 12/31, THIS BOX MAY BE COLLECTED AS EARLY AS 12 NOON.", "nsi_id": "unitedstatespostalservice-a77078", "operator": "United States Postal Service", "operator:short": "USPS", "operator:type": "public", "operator:wikidata": "Q668687", "ref": "6684300004"}, "type": "Feature"}
{"geometry": {"coordinates": [-96.541625999, 38.372912864], "type": "Point"}, "id": "kjktCw7e4-j_NDtY1_VpeQxH9a8=", "properties": {"@source_uri": "https://tools.usps.com/UspsToolsRestServices/rest/POLocator/findLocations", "@spider": "usps_collection_boxes", "addr:city": "COTTONWOOD FALLS", "addr:country": "US", "addr:postcode": "66845", "addr:state": "KS", "addr:street_address": "206 BROADWAY ST", "amenity": "post_box", "collection_times": "Mo-Fr 14:00; Sa 08:45", "note": "ON 12/24 AND 12/31, THIS BOX MAY BE COLLECTED AS EARLY AS 12 NOON.", "nsi_id": "unitedstatespostalservice-a77078", "operator": "United States Postal Service", "operator:short": "USPS", "operator:type": "public", "operator:wikidata": "Q668687", "ref": "6684500001"}, "type": "Feature"}
{"geometry": {"coordinates": [-96.541625999, 38.372912864], "type": "Point"}, "id": "awNQI5QWjHLWfz0CHD0hTgObQzQ=", "properties": {"@source_uri": "https://tools.usps.com/UspsToolsRestServices/rest/POLocator/findLocations", "@spider": "usps_collection_boxes", "addr:city": "COTTONWOOD FALLS", "addr:country": "US", "addr:postcode": "66845", "addr:state": "KS", "addr:street_address": "206 BROADWAY ST", "amenity": "post_box", "collection_times": "Mo-Fr 14:00; Sa 08:45", "indoor": "yes", "note": "ON 12/24 AND 12/31, THIS BOX MAY BE COLLECTED AS EARLY AS 12 NOON.", "nsi_id": "unitedstatespostalservice-a77078", "operator": "United States Postal Service", "operator:short": "USPS", "operator:type": "public", "operator:wikidata": "Q668687", "ref": "6684500002"}, "type": "Feature"}
{"geometry": {"coordinates": [-96.541625999, 38.372912864], "type": "Point"}, "id": "m2fiPgxCnVkL4gi1e493qbX0qcw=", "properties": {"@source_uri": "https://tools.usps.com/UspsToolsRestServices/rest/POLocator/findLocations", "@spider": "usps_collection_boxes", "addr:city": "COTTONWOOD FALLS", "addr:country": "US", "addr:postcode": "66845", "addr:state": "KS", "addr:street_address": "206 BROADWAY ST", "amenity": "post_box", "collection_times": "Mo-Fr 14:30; Sa 08:45", "indoor": "yes", "note": "ON 12/24 AND 12/31, THIS BOX MAY BE COLLECTED AS EARLY AS 12 NOON.", "nsi_id": "unitedstatespostalservice-a77078", "operator": "United States Postal Service", "operator:short": "USPS", "operator:type": "public", "operator:wikidata": "Q668687", "ref": "6684500003"}, "type": "Feature"}
{"geometry": {"coordinates": [-96.4951021, 38.659272], "type": "Point"}, "id": "lzZqfMxQXUnzOP_fg7e7sOdRVxM=", "properties": {"@source_uri": "https://tools.usps.com/UspsToolsRestServices/rest/POLocator/findLocations", "@spider": "usps_collection_boxes", "addr:city": "COUNCIL GROVE", "addr:country": "US", "addr:postcode": "66846", "addr:state": "KS", "addr:street_address": "501 W MAIN ST", "amenity": "post_box", "collection_times": "Mo-Sa 13:00", "note": "ON 12/24 AND 12/31, THIS BOX MAY BE COLLECTED AS EARLY AS 12 NOON.", "nsi_id": "unitedstatespostalservice-a77078", "operator": "United States Postal Service", "operator:short": "USPS", "operator:type": "public", "operator:wikidata": "Q668687", "ref": "6684600003"}, "type": "Feature"}
{"geometry": {"coordinates": [-96.4855521, 38.661396], "type": "Point"}, "id": "EcwYyeWATBqHV5otdb07Bcpyv2I=", "properties": {"@source_uri": "https://tools.usps.com/UspsToolsRestServices/rest/POLocator/findLocations", "@spider": "usps_collection_boxes", "addr:city": "COUNCIL GROVE", "addr:country": "US", "addr:postcode": "66846", "addr:state": "KS", "addr:street_address": "115 E MAIN ST", "amenity": "post_box", "collection_times": "Mo-Sa 09:30", "nsi_id": "unitedstatespostalservice-a77078", "operator": "United States Postal Service", "operator:short": "USPS", "operator:type": "public", "operator:wikidata": "Q668687", "ref": "6684600005"}, "type": "Feature"}
{"geometry": {"coordinates": [-96.489209, 38.661255], "type": "Point"}, "id": "hxiS8igKmU2-0mpXT96Zd7YZAJQ=", "properties": {"@source_uri": "https://tools.usps.com/UspsToolsRestServices/rest/POLocator/findLocations", "@spider": "usps_collection_boxes", "addr:city": "COUNCIL GROVE", "addr:country": "US", "addr:postcode": "66846", "addr:state": "KS", "addr:street_address": "13 WOOD ST", "amenity": "post_box", "collection_times": "Mo-Fr 14:00; Sa 10:00", "note": "ON 12/24 AND 12/31, THIS BOX MAY BE COLLECTED AS EARLY AS 12 NOON.", "nsi_id": "unitedstatespostalservice-a77078", "operator": "United States Postal Service", "operator:short": "USPS", "operator:type": "public", "operator:wikidata": "Q668687", "ref": "6684600008"}, "type": "Feature"}
{"geometry": {"coordinates": [-96.489237, 38.661455], "type": "Point"}, "id": "ugu66CaM7f-35ZiirexfwSy5o24=", "properties": {"@source_uri": "https://tools.usps.com/UspsToolsRestServices/rest/POLocator/findLocations", "@spider": "usps_collection_boxes", "addr:city": "COUNCIL GROVE", "addr:country": "US", "addr:postcode": "66846", "addr:state": "KS", "addr:street_address": "103 W MAIN ST", "amenity": "post_box", "collection_times": "Mo-Fr 14:00; Sa 10:00", "indoor": "yes", "note": "ON 12/24 AND 12/31, THIS BOX MAY BE COLLECTED AS EARLY AS 12 NOON.", "nsi_id": "unitedstatespostalservice-a77078", "operator": "United States Postal Service", "operator:short": "USPS", "operator:type": "public", "operator:wikidata": "Q668687", "ref": "6684600010"}, "type": "Feature"}
{"geometry": {"coordinates": [-96.489266206, 38.661365696], "type": "Point"}, "id": "mmR0uEQke8f5H6k4XottMhZ7wlo=", "properties": {"@source_uri": "https://tools.usps.com/UspsToolsRestServices/rest/POLocator/findLocations", "@spider": "usps_collection_boxes", "addr:city": "COUNCIL GROVE", "addr:country": "US", "addr:postcode": "66846", "addr:state": "KS", "addr:street_address": "103 W MAIN ST", "amenity": "post_box", "collection_times": "Mo-Fr 14:00; Sa 10:00", "indoor": "yes", "note": "ON 12/24 AND 12/31, THIS BOX MAY BE COLLECTED AS EARLY AS 12 NOON.", "nsi_id": "unitedstatespostalservice-a77078", "operator": "United States Postal Service", "operator:short": "USPS", "operator:type": "public", "operator:wikidata": "Q668687", "ref": "6684600011"}, "type": "Feature"}
{"geometry": {"coordinates": [-96.592753, 38.843161], "type": "Point"}, "id": "j-bKDmBo0oofR-SZdngv0nJdnFk=", "properties": {"@source_uri": "https://tools.usps.com/UspsToolsRestServices/rest/POLocator/findLocations", "@spider": "usps_collection_boxes", "addr:city": "DWIGHT", "addr:country": "US", "addr:postcode": "66849", "addr:state": "KS", "addr:street_address": "608 E MAIN ST", "amenity": "post_box", "collection_times": "Mo-Fr 12:45; Sa 12:15", "note": "ON 12/24 AND 12/31, THIS BOX MAY BE COLLECTED AS EARLY AS 12 NOON.", "nsi_id": "unitedstatespostalservice-a77078", "operator": "United States Postal Service", "operator:short": "USPS", "operator:type": "public", "operator:wikidata": "Q668687", "ref": "6684900001"}, "type": "Feature"}
{"geometry": {"coordinates": [-96.592753, 38.843161], "type": "Point"}, "id": "2aJqFXNFzIOwIILPnkfQ2K95Twg=", "properties": {"@source_uri": "https://tools.usps.com/UspsToolsRestServices/rest/POLocator/findLocations", "@spider": "usps_collection_boxes", "addr:city": "DWIGHT", "addr:country": "US", "addr:postcode": "66849", "addr:state": "KS", "addr:street_address": "608 E MAIN ST", "amenity": "post_box", "collection_times": "Mo-Fr 12:45; Sa 12:15", "indoor": "yes", "note": "ON 12/24 AND 12/31, THIS BOX MAY BE COLLECTED AS EARLY AS 12 NOON.", "nsi_id": "unitedstatespostalservice-a77078", "operator": "United States Postal Service", "operator:short": "USPS", "operator:type": "public", "operator:wikidata": "Q668687", "ref": "6684900002"}, "type": "Feature"}
{"geometry": {"coordinates": [-96.5927270566, 38.8431020954], "type": "Point"}, "id": "D2QbeLbiW8DKy9YrIBos-zlldzY=", "properties": {"@source_uri": "https://tools.usps.com/UspsToolsRestServices/rest/POLocator/findLocations", "@spider": "usps_collection_boxes", "addr:city": "DWIGHT", "addr:country": "US", "addr:postcode": "66849", "addr:state": "KS", "addr:street_address": "608 E MAIN ST", "amenity": "post_box", "collection_times": "Mo-Fr 12:45; Sa 12:15", "indoor": "yes", "note": "ON 12/24 AND 12/31, THIS BOX MAY BE COLLECTED AS EARLY AS 12 NOON.", "nsi_id": "unitedstatespostalservice-a77078", "operator": "United States Postal Service", "operator:short": "USPS", "operator:type": "public", "operator:wikidata": "Q668687", "ref": "6684900003"}, "type": "Feature"}
{"geometry": {"coordinates": [-96.64711, 38.37308], "type": "Point"}, "id": "IAejltT1qLh4j78j3dTKYHoOD_E=", "properties": {"@source_uri": "https://tools.usps.com/UspsToolsRestServices/rest/POLocator/findLocations", "@spider": "usps_collection_boxes", "addr:city": "ELMDALE", "addr:country": "US", "addr:postcode": "66850", "addr:state": "KS", "addr:street_address": "100 MAIN ST", "amenity": "post_box", "collection_times": "Mo-Fr 14:00; Sa 13:30", "note": "ON 12/24 AND 12/31, THIS BOX MAY BE COLLECTED AS EARLY AS 12 NOON.", "nsi_id": "unitedstatespostalservice-a77078", "operator": "United States Postal Service", "operator:short": "USPS", "operator:type": "public", "operator:wikidata": "Q668687", "ref": "6685000001"}, "type": "Feature"}
{"geometry": {"coordinates": [-96.6471023608, 38.3734664662], "type": "Point"}, "id": "ezg0IZsE3XKp-L6ib10pcqiWVHY=", "properties": {"@source_uri": "https://tools.usps.com/UspsToolsRestServices/rest/POLocator/findLocations", "@spider": "usps_collection_boxes", "addr:city": "ELMDALE", "addr:country": "US", "addr:postcode": "66850", "addr:state": "KS", "addr:street_address": "100 MAIN ST", "amenity": "post_box", "collection_times": "Mo-Fr 14:00; Sa 13:30", "indoor": "yes", "note": "ON 12/24 AND 12/31, THIS BOX MAY BE COLLECTED AS EARLY AS 12 NOON.", "nsi_id": "unitedstatespostalservice-a77078", "operator": "United States Postal Service", "operator:short": "USPS", "operator:type": "public", "operator:wikidata": "Q668687", "ref": "6685000002"}, "type": "Feature"}
{"geometry": {"coordinates": [-96.6471023608, 38.3734664662], "type": "Point"}, "id": "Ov83qbRqA80rDIf1JH05msocD4I=", "properties": {"@source_uri": "https://tools.usps.com/UspsToolsRestServices/rest/POLocator/findLocations", "@spider": "usps_collection_boxes", "addr:city": "ELMDALE", "addr:country": "US", "addr:postcode": "66850", "addr:state": "KS", "addr:street_address": "100 MAIN ST", "amenity": "post_box", "collection_times": "Mo-Fr 14:15; Sa 13:30", "indoor": "yes", "note": "ON 12/24 AND 12/31, THIS BOX MAY BE COLLECTED AS EARLY AS 12 NOON.", "nsi_id": "unitedstatespostalservice-a77078", "operator": "United States Postal Service", "operator:short": "USPS", "operator:type": "public", "operator:wikidata": "Q668687", "ref": "6685000003"}, "type": "Feature"}
{"geometry": {"coordinates": [-96.926086, 38.240403], "type": "Point"}, "id": "VTFWAE4Jz6JeUdya5yctPa30jCM=", "properties": {"@source_uri": "https://tools.usps.com/UspsToolsRestServices/rest/POLocator/findLocations", "@spider": "usps_collection_boxes", "addr:city": "FLORENCE", "addr:country": "US", "addr:postcode": "66851", "addr:state": "KS", "addr:street_address": "302 MAIN ST", "amenity": "post_box", "collection_times": "Mo-Fr 12:00; Sa 10:00", "nsi_id": "unitedstatespostalservice-a77078", "operator": "United States Postal Service", "operator:short": "USPS", "operator:type": "public", "operator:wikidata": "Q668687", "ref": "6685100001"}, "type": "Feature"}
{"geometry": {"coordinates": [-96.9260836668, 38.240406398], "type": "Point"}, "id": "D88jn0yHRr3aYr4b3jz6gZwqPak=", "properties": {"@source_uri": "https://tools.usps.com/UspsToolsRestServices/rest/POLocator/findLocations", "@spider": "usps_collection_boxes", "addr:city": "FLORENCE", "addr:country": "US", "addr:postcode": "66851", "addr:state": "KS", "addr:street_address": "302 MAIN ST", "amenity": "post_box", "collection_times": "Mo-Fr 12:00; Sa 10:00", "indoor": "yes", "nsi_id": "unitedstatespostalservice-a77078", "operator": "United States Postal Service", "operator:short": "USPS", "operator:type": "public", "operator:wikidata": "Q668687", "ref": "6685100002"}, "type": "Feature"}
{"geometry": {"coordinates": [-96.9260836668, 38.240406398], "type": "Point"}, "id": "6jKAqKi48Jqs7_JHtnEnd02_yFE=", "properties": {"@source_uri": "https://tools.usps.com/UspsToolsRestServices/rest/POLocator/findLocations", "@spider": "usps_collection_boxes", "addr:city": "FLORENCE", "addr:country": "US", "addr:postcode": "66851", "addr:state": "KS", "addr:street_address": "302 MAIN ST", "amenity": "post_box", "collection_times": "Mo-Fr 12:00; Sa 10:00", "indoor": "yes", "nsi_id": "unitedstatespostalservice-a77078", "operator": "United States Postal Service", "operator:short": "USPS", "operator:type": "public", "operator:wikidata": "Q668687", "ref": "6685100003"}, "type": "Feature"}
{"geometry": {"coordinates": [-95.883330429, 38.097638865], "type": "Point"}, "id": "vRqAJUNRxo0EVPqBdy_He1c0XbA=", "properties": {"@source_uri": "https://tools.usps.com/UspsToolsRestServices/rest/POLocator/findLocations", "@spider": "usps_collection_boxes", "addr:city": "GRIDLEY", "addr:country": "US", "addr:postcode": "66852", "addr:state": "KS", "addr:street_address": "423 MAIN ST", "amenity": "post_box", "collection_times": "Mo-Fr 13:00; Sa 09:45", "note": "ON 12/24 AND 12/31, THIS BOX MAY BE COLLECTED AS EARLY AS 12 NOON.", "nsi_id": "unitedstatespostalservice-a77078", "operator": "United States Postal Service", "operator:short": "USPS", "operator:type": "public", "operator:wikidata": "Q668687", "ref": "6685200001"}, "type": "Feature"}
{"geometry": {"coordinates": [-95.883330429, 38.097638865], "type": "Point"}, "id": "9SDu2hnotF6-1mdEViMLJiOykME=", "properties": {"@source_uri": "https://tools.usps.com/UspsToolsRestServices/rest/POLocator/findLocations", "@spider": "usps_collection_boxes", "addr:city": "GRIDLEY", "addr:country": "US", "addr:postcode": "66852", "addr:state": "KS", "addr:street_address": "423 MAIN ST", "amenity": "post_box", "collection_times": "Mo-Fr 13:00; Sa 09:45", "indoor": "yes", "note": "ON 12/24 AND 12/31, THIS BOX MAY BE COLLECTED AS EARLY AS 12 NOON.", "nsi_id": "unitedstatespostalservice-a77078", "operator": "United States Postal Service", "operator:short": "USPS", "operator:type": "public", "operator:wikidata": "Q668687", "ref": "6685200002"}, "type": "Feature"}
{"geometry": {"coordinates": [-95.883330429, 38.097638865], "type": "Point"}, "id": "w7pcUMlnEbklhABVOB13T_39sQU=", "properties": {"@source_uri": "https://tools.usps.com/UspsToolsRestServices/rest/POLocator/findLocations", "@spider": "usps_collection_boxes", "addr:city": "GRIDLEY", "addr:country": "US", "addr:postcode": "66852", "addr:state": "KS", "addr:street_address": "423 MAIN ST", "amenity": "post_box", "collection_times": "Mo-Fr 13:15; Sa 09:45", "indoor": "yes", "note": "ON 12/24 AND 12/31, THIS BOX MAY BE COLLECTED AS EARLY AS 12 NOON.", "nsi_id": "unitedstatespostalservice-a77078", "operator": "United States Postal Service", "operator:short": "USPS", "operator:type": "public", "operator:wikidata": "Q668687", "ref": "6685200003"}, "type": "Feature"}
{"geometry": {"coordinates": [-96.1631449667, 37.9792820047], "type": "Point"}, "id": "03gQ_cVFnt6JSfw_9B-XjvuArtI=", "properties": {"@source_uri": "https://tools.usps.com/UspsToolsRestServices/rest/POLocator/findLocations", "@spider": "usps_collection_boxes", "addr:city": "HAMILTON", "addr:country": "US", "addr:postcode": "66853", "addr:state": "KS", "addr:street_address": "29 E MAIN ST", "amenity": "post_box", "collection_times": "Mo-Fr 12:00; Sa 09:00", "nsi_id": "unitedstatespostalservice-a77078", "operator": "United States Postal Service", "operator:short": "USPS", "operator:type": "public", "operator:wikidata": "Q668687", "ref": "6685300001"}, "type": "Feature"}
{"geometry": {"coordinates": [-96.163129, 37.979492], "type": "Point"}, "id": "qH6-a2CA1LZdMxJZUiBBwUnBO9c=", "properties": {"@source_uri": "https://tools.usps.com/UspsToolsRestServices/rest/POLocator/findLocations", "@spider": "usps_collection_boxes", "addr:city": "HAMILTON", "addr:country": "US", "addr:postcode": "66853", "addr:state": "KS", "addr:street_address": "29 E MAIN ST", "amenity": "post_box", "collection_times": "Mo-Fr 12:00; Sa 09:00", "indoor": "yes", "nsi_id": "unitedstatespostalservice-a77078", "operator": "United States Postal Service", "operator:short": "USPS", "operator:type": "public", "operator:wikidata": "Q668687", "ref": "6685300002"}, "type": "Feature"}
{"geometry": {"coordinates": [-96.163130765, 37.979488385], "type": "Point"}, "id": "-55D9-CS9YasR05sFx8-VJ5bRXg=", "properties": {"@source_uri": "https://tools.usps.com/UspsToolsRestServices/rest/POLocator/findLocations", "@spider": "usps_collection_boxes", "addr:city": "HAMILTON", "addr:country": "US", "addr:postcode": "66853", "addr:state": "KS", "addr:street_address": "29 E MAIN ST", "amenity": "post_box", "collection_times": "Mo-Fr 12:00; Sa 09:00", "indoor": "yes", "nsi_id": "unitedstatespostalservice-a77078", "operator": "United States Postal Service", "operator:short": "USPS", "operator:type": "public", "operator:wikidata": "Q668687", "ref": "6685300003"}, "type": "Feature"}
{"geometry": {"coordinates": [-95.957521, 38.309161], "type": "Point"}, "id": "KxgCqTqpZL0eh1IbhOUVL4EUSSc=", "properties": {"@source_uri": "https://tools.usps.com/UspsToolsRestServices/rest/POLocator/findLocations", "@spider": "usps_collection_boxes", "addr:city": "HARTFORD", "addr:country": "US", "addr:postcode": "66854", "addr:state": "KS", "addr:street_address": "212 COMMERCIAL ST", "amenity": "post_box", "collection_times": "Mo-Fr 11:45; Sa 08:45", "nsi_id": "unitedstatespostalservice-a77078", "operator": "United States Postal Service", "operator:short": "USPS", "operator:type": "public", "operator:wikidata": "Q668687", "ref": "6685400001"}, "type": "Feature"}
{"geometry": {"coordinates": [-95.957521, 38.309161], "type": "Point"}, "id": "-jUTS5beTVLFYQ5ZZTmW7f0Xd9o=", "properties": {"@source_uri": "https://tools.usps.com/UspsToolsRestServices/rest/POLocator/findLocations", "@spider": "usps_collection_boxes", "addr:city": "HARTFORD", "addr:country": "US", "addr:postcode": "66854", "addr:state": "KS", "addr:street_address": "212 COMMERCIAL ST", "amenity": "post_box", "collection_times": "Mo-Fr 11:45; Sa 08:45", "indoor": "yes", "nsi_id": "unitedstatespostalservice-a77078", "operator": "United States Postal Service", "operator:short": "USPS", "operator:type": "public", "operator:wikidata": "Q668687", "ref": "6685400002"}, "type": "Feature"}
{"geometry": {"coordinates": [-95.957498701, 38.309177046], "type": "Point"}, "id": "IG417kP7gAXvRe0Ao7OzvCF0jCQ=", "properties": {"@source_uri": "https://tools.usps.com/UspsToolsRestServices/rest/POLocator/findLocations", "@spider": "usps_collection_boxes", "addr:city": "HARTFORD", "addr:country": "US", "addr:postcode": "66854", "addr:state": "KS", "addr:street_address": "212 COMMERCIAL ST", "amenity": "post_box", "collection_times": "Mo-Fr 11:45; Sa 08:45", "indoor": "yes", "nsi_id": "unitedstatespostalservice-a77078", "operator": "United States Postal Service", "operator:short": "USPS", "operator:type": "public", "operator:wikidata": "Q668687", "ref": "6685400004"}, "type": "Feature"}
{"geometry": {"coordinates": [-95.8581315, 38.415693457], "type": "Point"}, "id": "NqxlVZyX-6FZ53IQyYUaLEVoaRA=", "properties": {"@source_uri": "https://tools.usps.com/UspsToolsRestServices/rest/POLocator/findLocations", "@spider": "usps_collection_boxes", "addr:city": "LEBO", "addr:country": "US", "addr:postcode": "66856", "addr:state": "KS", "addr:street_address": "4 W BROADWAY ST", "amenity": "post_box", "collection_times": "Mo-Fr 14:50; Sa 09:45", "note": "ON 12/24 AND 12/31, THIS BOX MAY BE COLLECTED AS EARLY AS 12 NOON.", "nsi_id": "unitedstatespostalservice-a77078", "operator": "United States Postal Service", "operator:short": "USPS", "operator:type": "public", "operator:wikidata": "Q668687", "ref": "6685600001"}, "type": "Feature"}
{"geometry": {"coordinates": [-95.858131, 38.415697], "type": "Point"}, "id": "qYTPUlhBp0jALEdILc9wwilbBKE=", "properties": {"@source_uri": "https://tools.usps.com/UspsToolsRestServices/rest/POLocator/findLocations", "@spider": "usps_collection_boxes", "addr:city": "LEBO", "addr:country": "US", "addr:postcode": "66856", "addr:state": "KS", "addr:street_address": "4 W BROADWAY ST", "amenity": "post_box", "collection_times": "Mo-Fr 14:50; Sa 09:45", "indoor": "yes", "note": "ON 12/24 AND 12/31, THIS BOX MAY BE COLLECTED AS EARLY AS 12 NOON.", "nsi_id": "unitedstatespostalservice-a77078", "operator": "United States Postal Service", "operator:short": "USPS", "operator:type": "public", "operator:wikidata": "Q668687", "ref": "6685600003"}, "type": "Feature"}
{"geometry": {"coordinates": [-95.8581315, 38.4156934566], "type": "Point"}, "id": "8zAzaJzmYlLF3OH6ZsexKULIKf4=", "properties": {"@source_uri": "https://tools.usps.com/UspsToolsRestServices/rest/POLocator/findLocations", "@spider": "usps_collection_boxes", "addr:city": "LEBO", "addr:country": "US", "addr:postcode": "66856", "addr:state": "KS", "addr:street_address": "4 W BROADWAY ST", "amenity": "post_box", "collection_times": "Mo-Fr 15:05; Sa 09:30", "indoor": "yes", "note": "ON 12/24 AND 12/31, THIS BOX MAY BE COLLECTED AS EARLY AS 12 NOON.", "nsi_id": "unitedstatespostalservice-a77078", "operator": "United States Postal Service", "operator:short": "USPS", "operator:type": "public", "operator:wikidata": "Q668687", "ref": "6685600004"}, "type": "Feature"}
{"geometry": {"coordinates": [-95.6329018324, 38.0822225332], "type": "Point"}, "id": "HG67ShetwlLUfB7cBmHepdO3Vbs=", "properties": {"@source_uri": "https://tools.usps.com/UspsToolsRestServices/rest/POLocator/findLocations", "@spider": "usps_collection_boxes", "addr:city": "LEROY", "addr:country": "US", "addr:postcode": "66857", "addr:state": "KS", "addr:street_address": "418 E 6TH ST", "amenity": "post_box", "collection_times": "Mo-Fr 11:00; Sa 08:45", "nsi_id": "unitedstatespostalservice-a77078", "operator": "United States Postal Service", "operator:short": "USPS", "operator:type": "public", "operator:wikidata": "Q668687", "ref": "6685700001"}, "type": "Feature"}
{"geometry": {"coordinates": [-95.6329018324, 38.0822225332], "type": "Point"}, "id": "F1mGBJiOnuD1Hrq5S8eqz4DupJg=", "properties": {"@source_uri": "https://tools.usps.com/UspsToolsRestServices/rest/POLocator/findLocations", "@spider": "usps_collection_boxes", "addr:city": "LEROY", "addr:country": "US", "addr:postcode": "66857", "addr:state": "KS", "addr:street_address": "418 E 6TH ST", "amenity": "post_box", "collection_times": "Mo-Fr 11:00; Sa 08:45", "indoor": "yes", "nsi_id": "unitedstatespostalservice-a77078", "operator": "United States Postal Service", "operator:short": "USPS", "operator:type": "public", "operator:wikidata": "Q668687", "ref": "6685700002"}, "type": "Feature"}
{"geometry": {"coordinates": [-95.6329018324, 38.0822225332], "type": "Point"}, "id": "YWCgi2jWfbjt1W6MToqc9L7Q4Eg=", "properties": {"@source_uri": "https://tools.usps.com/UspsToolsRestServices/rest/POLocator/findLocations", "@spider": "usps_collection_boxes", "addr:city": "LEROY", "addr:country": "US", "addr:postcode": "66857", "addr:state": "KS", "addr:street_address": "418 E 6TH ST", "amenity": "post_box", "collection_times": "Mo-Fr 11:00; Sa 08:45", "indoor": "yes", "nsi_id": "unitedstatespostalservice-a77078", "operator": "United States Postal Service", "operator:short": "USPS", "operator:type": "public", "operator:wikidata": "Q668687", "ref": "6685700003"}, "type": "Feature"}
{"geometry": {"coordinates": [-96.961265, 38.492497], "type": "Point"}, "id": "0SBFfjXzQt6uYZ6YJEVs9tVW6u8=", "properties": {"@source_uri": "https://tools.usps.com/UspsToolsRestServices/rest/POLocator/findLocations", "@spider": "usps_collection_boxes", "addr:city": "LINCOLNVILLE", "addr:country": "US", "addr:postcode": "66858", "addr:state": "KS", "addr:street_address": "319 ADAMS ST", "amenity": "post_box", "collection_times": "Mo-Fr 11:15; Sa 10:45", "nsi_id": "unitedstatespostalservice-a77078", "operator": "United States Postal Service", "operator:short": "USPS", "operator:type": "public", "operator:wikidata": "Q668687", "ref": "6685800001"}, "type": "Feature"}
{"geometry": {"coordinates": [-96.961265, 38.492497], "type": "Point"}, "id": "8KikGCk-ykPyp4GtNq-QzzdmROo=", "properties": {"@source_uri": "https://tools.usps.com/UspsToolsRestServices/rest/POLocator/findLocations", "@spider": "usps_collection_boxes", "addr:city": "LINCOLNVILLE", "addr:country": "US", "addr:postcode": "66858", "addr:state": "KS", "addr:street_address": "319 ADAMS ST", "amenity": "post_box", "collection_times": "Mo-Fr 11:15; Sa 10:45", "indoor": "yes", "nsi_id": "unitedstatespostalservice-a77078", "operator": "United States Postal Service", "operator:short": "USPS", "operator:type": "public", "operator:wikidata": "Q668687", "ref": "6685800002"}, "type": "Feature"}
{"geometry": {"coordinates": [-96.961289321, 38.492471079], "type": "Point"}, "id": "um_cPkyP0bPELoiBL1Amh5-60Lo=", "properties": {"@source_uri": "https://tools.usps.com/UspsToolsRestServices/rest/POLocator/findLocations", "@spider": "usps_collection_boxes", "addr:city": "LINCOLNVILLE", "addr:country": "US", "addr:postcode": "66858", "addr:state": "KS", "addr:street_address": "319 ADAMS ST", "amenity": "post_box", "collection_times": "Mo-Fr 11:15; Sa 10:45", "indoor": "yes", "nsi_id": "unitedstatespostalservice-a77078", "operator": "United States Postal Service", "operator:short": "USPS", "operator:type": "public", "operator:wikidata": "Q668687", "ref": "6685800003"}, "type": "Feature"}
{"geometry": {"coordinates": [-96.98365, 38.56601], "type": "Point"}, "id": "0kv0E832RBVHvUeVXw53DRapN7w=", "properties": {"@source_uri": "https://tools.usps.com/UspsToolsRestServices/rest/POLocator/findLocations", "@spider": "usps_collection_boxes", "addr:city": "LOST SPRINGS", "addr:country": "US", "addr:postcode": "66859", "addr:state": "KS", "addr:street_address": "125 BERRY ST", "amenity": "post_box", "collection_times": "Mo-Sa 12:45", "note": "ON 12/24 AND 12/31, THIS BOX MAY BE COLLECTED AS EARLY AS 12 NOON.", "nsi_id": "unitedstatespostalservice-a77078", "operator": "United States Postal Service", "operator:short": "USPS", "operator:type": "public", "operator:wikidata": "Q668687", "ref": "6685900001"}, "type": "Feature"}
{"geometry": {"coordinates": [-96.967151, 38.565719], "type": "Point"}, "id": "b0TKY3CNY8pXiDKxguSnVRuzme4=", "properties": {"@source_uri": "https://tools.usps.com/UspsToolsRestServices/rest/POLocator/findLocations", "@spider": "usps_collection_boxes", "addr:city": "LOST SPRINGS", "addr:country": "US", "addr:postcode": "66859", "addr:state": "KS", "addr:street_address": "125 BERRY ST", "amenity": "post_box", "collection_times": "Mo-Sa 12:45", "indoor": "yes", "note": "ON 12/24 AND 12/31, THIS BOX MAY BE COLLECTED AS EARLY AS 12 NOON.", "nsi_id": "unitedstatespostalservice-a77078", "operator": "United States Postal Service", "operator:short": "USPS", "operator:type": "public", "operator:wikidata": "Q668687", "ref": "6685900002"}, "type": "Feature"}
{"geometry": {"coordinates": [-96.967175435, 38.56572255], "type": "Point"}, "id": "qFRy7ouwj1l8Nfkfm0ZoiV7rqWw=", "properties": {"@source_uri": "https://tools.usps.com/UspsToolsRestServices/rest/POLocator/findLocations", "@spider": "usps_collection_boxes", "addr:city": "LOST SPRINGS", "addr:country": "US", "addr:postcode": "66859", "addr:state": "KS", "addr:street_address": "125 BERRY ST", "amenity": "post_box", "collection_times": "Mo-Sa 12:45", "indoor": "yes", "note": "ON 12/24 AND 12/31, THIS BOX MAY BE COLLECTED AS EARLY AS 12 NOON.", "nsi_id": "unitedstatespostalservice-a77078", "operator": "United States Postal Service", "operator:short": "USPS", "operator:type": "public", "operator:wikidata": "Q668687", "ref": "6685900003"}, "type": "Feature"}
{"geometry": {"coordinates": [-96.136099897, 38.137421717], "type": "Point"}, "id": "rwl9sOmwzCA2GKBK15JkxDJYnDc=", "properties": {"@source_uri": "https://tools.usps.com/UspsToolsRestServices/rest/POLocator/findLocations", "@spider": "usps_collection_boxes", "addr:city": "MADISON", "addr:country": "US", "addr:postcode": "66860", "addr:state": "KS", "addr:street_address": "115 S 3RD ST", "amenity": "post_box", "collection_times": "Mo-Fr 14:00; Sa 09:45", "note": "ON 12/24 AND 12/31, THIS BOX MAY BE COLLECTED AS EARLY AS 12 NOON.", "nsi_id": "unitedstatespostalservice-a77078", "operator": "United States Postal Service", "operator:short": "USPS", "operator:type": "public", "operator:wikidata": "Q668687", "ref": "6686000001"}, "type": "Feature"}
{"geometry": {"coordinates": [-96.136099897, 38.137421717], "type": "Point"}, "id": "6TrqlbKmNAPXGhJ6fPlX9cMbPfA=", "properties": {"@source_uri": "https://tools.usps.com/UspsToolsRestServices/rest/POLocator/findLocations", "@spider": "usps_collection_boxes", "addr:city": "MADISON", "addr:country": "US", "addr:postcode": "66860", "addr:state": "KS", "addr:street_address": "115 S 3RD ST", "amenity": "post_box", "collection_times": "Mo-Fr 14:00; Sa 09:45", "indoor": "yes", "note": "ON 12/24 AND 12/31, THIS BOX MAY BE COLLECTED AS EARLY AS 12 NOON.", "nsi_id": "unitedstatespostalservice-a77078", "operator": "United States Postal Service", "operator:short": "USPS", "operator:type": "public", "operator:wikidata": "Q668687", "ref": "6686000002"}, "type": "Feature"}
{"geometry": {"coordinates": [-96.136099897, 38.137421717], "type": "Point"}, "id": "Dt4m84m4IkdLCKU77BpePQV2dQg=", "properties": {"@source_uri": "https://tools.usps.com/UspsToolsRestServices/rest/POLocator/findLocations", "@spider": "usps_collection_boxes", "addr:city": "MADISON", "addr:country": "US", "addr:postcode": "66860", "addr:state": "KS", "addr:street_address": "115 S 3RD ST", "amenity": "post_box", "collection_times": "Mo-Fr 14:30; Sa 09:45", "indoor": "yes", "note": "ON 12/24 AND 12/31, THIS BOX MAY BE COLLECTED AS EARLY AS 12 NOON.", "nsi_id": "unitedstatespostalservice-a77078", "operator": "United States Postal Service", "operator:short": "USPS", "operator:type": "public", "operator:wikidata": "Q668687", "ref": "6686000003"}, "type": "Feature"}
{"geometry": {"coordinates": [-97.018501, 38.348134], "type": "Point"}, "id": "rPXWjEMPfCZ_Ol0R4aw1U0Kza2k=", "properties": {"@source_uri": "https://tools.usps.com/UspsToolsRestServices/rest/POLocator/findLocations", "@spider": "usps_collection_boxes", "addr:city": "MARION", "addr:country": "US", "addr:postcode": "66861", "addr:state": "KS", "addr:street_address": "423 E MAIN ST", "amenity": "post_box", "collection_times": "Mo-Fr 13:45; Sa 09:45", "note": "ON 12/24 AND 12/31, THIS BOX MAY BE COLLECTED AS EARLY AS 12 NOON.", "nsi_id": "unitedstatespostalservice-a77078", "operator": "United States Postal Service", "operator:short": "USPS", "operator:type": "public", "operator:wikidata": "Q668687", "ref": "6686100001"}, "type": "Feature"}
{"geometry": {"coordinates": [-97.018501, 38.348134], "type": "Point"}, "id": "C48OeKUIV4_x_C1Eu6YQtBf0OUs=", "properties": {"@source_uri": "https://tools.usps.com/UspsToolsRestServices/rest/POLocator/findLocations", "@spider": "usps_collection_boxes", "addr:city": "MARION", "addr:country": "US", "addr:postcode": "66861", "addr:state": "KS", "addr:street_address": "423 E MAIN ST", "amenity": "post_box", "collection_times": "Mo-Fr 13:45; Sa 09:45", "indoor": "yes", "note": "ON 12/24 AND 12/31, THIS BOX MAY BE COLLECTED AS EARLY AS 12 NOON.", "nsi_id": "unitedstatespostalservice-a77078", "operator": "United States Postal Service", "operator:short": "USPS", "operator:type": "public", "operator:wikidata": "Q668687", "ref": "6686100003"}, "type": "Feature"}
{"geometry": {"coordinates": [-97.0183523608, 38.348124499], "type": "Point"}, "id": "jmXCljDU_3dA8xl2N5K0cmpKaGs=", "properties": {"@source_uri": "https://tools.usps.com/UspsToolsRestServices/rest/POLocator/findLocations", "@spider": "usps_collection_boxes", "addr:city": "MARION", "addr:country": "US", "addr:postcode": "66861", "addr:state": "KS", "addr:street_address": "423 E MAIN ST", "amenity": "post_box", "collection_times": "Mo-Fr 13:45; Sa 09:45", "indoor": "yes", "note": "ON 12/24 AND 12/31, THIS BOX MAY BE COLLECTED AS EARLY AS 12 NOON.", "nsi_id": "unitedstatespostalservice-a77078", "operator": "United States Postal Service", "operator:short": "USPS", "operator:type": "public", "operator:wikidata": "Q668687", "ref": "6686100004"}, "type": "Feature"}
{"geometry": {"coordinates": [-96.563232, 38.158019], "type": "Point"}, "id": "dIW-ZGc0NgJhNdMv_dm_ccS_iGA=", "properties": {"@source_uri": "https://tools.usps.com/UspsToolsRestServices/rest/POLocator/findLocations", "@spider": "usps_collection_boxes", "addr:city": "MATFIELD GREEN", "addr:country": "US", "addr:postcode": "66862", "addr:state": "KS", "addr:street_address": "202 REED ST", "amenity": "post_box", "collection_times": "Mo-Sa 09:00", "nsi_id": "unitedstatespostalservice-a77078", "operator": "United States Postal Service", "operator:short": "USPS", "operator:type": "public", "operator:wikidata": "Q668687", "ref": "6686200001"}, "type": "Feature"}
{"geometry": {"coordinates": [-96.080126, 37.832579], "type": "Point"}, "id": "xflWMplQsRmztsJX2iWBfQXo5sA=", "properties": {"@source_uri": "https://tools.usps.com/UspsToolsRestServices/rest/POLocator/findLocations", "@spider": "usps_collection_boxes", "addr:city": "NEAL", "addr:country": "US", "addr:postcode": "66863", "addr:state": "KS", "addr:street_address": "1567 AA30 RD", "amenity": "post_box", "collection_times": "Mo-Sa 11:15", "nsi_id": "unitedstatespostalservice-a77078", "operator": "United States Postal Service", "operator:short": "USPS", "operator:type": "public", "operator:wikidata": "Q668687", "ref": "6686300001"}, "type": "Feature"}
{"geometry": {"coordinates": [-96.080091, 37.832633], "type": "Point"}, "id": "PTQDSydpuNn4GO93hdnV3dVvnPw=", "properties": {"@source_uri": "https://tools.usps.com/UspsToolsRestServices/rest/POLocator/findLocations", "@spider": "usps_collection_boxes", "addr:city": "NEAL", "addr:country": "US", "addr:postcode": "66863", "addr:state": "KS", "addr:street_address": "1567 AA30 RD", "amenity": "post_box", "collection_times": "Mo-Sa 11:15", "indoor": "yes", "nsi_id": "unitedstatespostalservice-a77078", "operator": "United States Postal Service", "operator:short": "USPS", "operator:type": "public", "operator:wikidata": "Q668687", "ref": "6686300002"}, "type": "Feature"}
{"geometry": {"coordinates": [-96.0802102611, 37.8323909727], "type": "Point"}, "id": "shQKUWa5iXeGENCVG-3eg7LFZsw=", "properties": {"@source_uri": "https://tools.usps.com/UspsToolsRestServices/rest/POLocator/findLocations", "@spider": "usps_collection_boxes", "addr:city": "NEAL", "addr:country": "US", "addr:postcode": "66863", "addr:state": "KS", "addr:street_address": "1567 AA30 RD", "amenity": "post_box", "collection_times": "Mo-Sa 11:15", "indoor": "yes", "nsi_id": "unitedstatespostalservice-a77078", "operator": "United States Postal Service", "operator:short": "USPS", "operator:type": "public", "operator:wikidata": "Q668687", "ref": "6686300004"}, "type": "Feature"}
{"geometry": {"coordinates": [-95.992577, 38.366534], "type": "Point"}, "id": "J_E5TCJp2EGr47AFvPwSUWkAGMs=", "properties": {"@source_uri": "https://tools.usps.com/UspsToolsRestServices/rest/POLocator/findLocations", "@spider": "usps_collection_boxes", "addr:city": "NEOSHO RAPIDS", "addr:country": "US", "addr:postcode": "66864", "addr:state": "KS", "addr:street_address": "516 MAIN ST", "amenity": "post_box", "collection_times": "Mo-Fr 10:45; Sa 09:45", "nsi_id": "unitedstatespostalservice-a77078", "operator": "United States Postal Service", "operator:short": "USPS", "operator:type": "public", "operator:wikidata": "Q668687", "ref": "6686400001"}, "type": "Feature"}
{"geometry": {"coordinates": [-95.992577, 38.366534], "type": "Point"}, "id": "olVVjQ1pWQIiifDv4hUDSBiMlhI=", "properties": {"@source_uri": "https://tools.usps.com/UspsToolsRestServices/rest/POLocator/findLocations", "@spider": "usps_collection_boxes", "addr:city": "NEOSHO RAPIDS", "addr:country": "US", "addr:postcode": "66864", "addr:state": "KS", "addr:street_address": "516 MAIN ST", "amenity": "post_box", "collection_times": "Mo-Fr 10:45; Sa 09:45", "indoor": "yes", "nsi_id": "unitedstatespostalservice-a77078", "operator": "United States Postal Service", "operator:short": "USPS", "operator:type": "public", "operator:wikidata": "Q668687", "ref": "6686400002"}, "type": "Feature"}
{"geometry": {"coordinates": [-95.992558876, 38.366511041], "type": "Point"}, "id": "nvANLAiZdGzwfjaR5ub6EyxAW7w=", "properties": {"@source_uri": "https://tools.usps.com/UspsToolsRestServices/rest/POLocator/findLocations", "@spider": "usps_collection_boxes", "addr:city": "NEOSHO RAPIDS", "addr:country": "US", "addr:postcode": "66864", "addr:state": "KS", "addr:street_address": "516 MAIN ST", "amenity": "post_box", "collection_times": "Mo-Fr 10:45; Sa 09:45", "indoor": "yes", "nsi_id": "unitedstatespostalservice-a77078", "operator": "United States Postal Service", "operator:short": "USPS", "operator:type": "public", "operator:wikidata": "Q668687", "ref": "6686400003"}, "type": "Feature"}
{"geometry": {"coordinates": [-96.16599, 38.262985], "type": "Point"}, "id": "UGNAR8Zt3ToBSvQ08_kbukkgw6U=", "properties": {"@source_uri": "https://tools.usps.com/UspsToolsRestServices/rest/POLocator/findLocations", "@spider": "usps_collection_boxes", "addr:city": "OLPE", "addr:country": "US", "addr:postcode": "66865", "addr:state": "KS", "addr:street_address": "122 WESTPHALIA ST", "amenity": "post_box", "collection_times": "Mo-Sa 11:45", "nsi_id": "unitedstatespostalservice-a77078", "operator": "United States Postal Service", "operator:short": "USPS", "operator:type": "public", "operator:wikidata": "Q668687", "ref": "6686500001"}, "type": "Feature"}
{"geometry": {"coordinates": [-97.107390723, 38.16612246], "type": "Point"}, "id": "KKc3faQa_JAsL66p21FhF2qrK-g=", "properties": {"@source_uri": "https://tools.usps.com/UspsToolsRestServices/rest/POLocator/findLocations", "@spider": "usps_collection_boxes", "addr:city": "PEABODY", "addr:country": "US", "addr:postcode": "66866", "addr:state": "KS", "addr:street_address": "105 W 2ND ST", "amenity": "post_box", "collection_times": "Mo-Fr 13:15; Sa 09:45", "note": "ON 12/24 AND 12/31, THIS BOX MAY BE COLLECTED AS EARLY AS 12 NOON.", "nsi_id": "unitedstatespostalservice-a77078", "operator": "United States Postal Service", "operator:short": "USPS", "operator:type": "public", "operator:wikidata": "Q668687", "ref": "6686600001"}, "type": "Feature"}
{"geometry": {"coordinates": [-97.107390723, 38.16612246], "type": "Point"}, "id": "I4fsbydlOJkLyQJ4OXcyqUrGp2Q=", "properties": {"@source_uri": "https://tools.usps.com/UspsToolsRestServices/rest/POLocator/findLocations", "@spider": "usps_collection_boxes", "addr:city": "PEABODY", "addr:country": "US", "addr:postcode": "66866", "addr:state": "KS", "addr:street_address": "105 W 2ND ST", "amenity": "post_box", "collection_times": "Mo-Fr 13:15; Sa 09:45", "indoor": "yes", "note": "ON 12/24 AND 12/31, THIS BOX MAY BE COLLECTED AS EARLY AS 12 NOON.", "nsi_id": "unitedstatespostalservice-a77078", "operator": "United States Postal Service", "operator:short": "USPS", "operator:type": "public", "operator:wikidata": "Q668687", "ref": "6686600002"}, "type": "Feature"}
{"geometry": {"coordinates": [-97.107390723, 38.16612246], "type": "Point"}, "id": "jR5onCjkgPldw2pyfEpAmuCeNSI=", "properties": {"@source_uri": "https://tools.usps.com/UspsToolsRestServices/rest/POLocator/findLocations", "@spider": "usps_collection_boxes", "addr:city": "PEABODY", "addr:country": "US", "addr:postcode": "66866", "addr:state": "KS", "addr:street_address": "105 W 2ND ST", "amenity": "post_box", "collection_times": "Mo-Fr 13:15; Sa 09:45", "indoor": "yes", "note": "ON 12/24 AND 12/31, THIS BOX MAY BE COLLECTED AS EARLY AS 12 NOON.", "nsi_id": "unitedstatespostalservice-a77078", "operator": "United States Postal Service", "operator:short": "USPS", "operator:type": "public", "operator:wikidata": "Q668687", "ref": "6686600003"}, "type": "Feature"}
{"geometry": {"coordinates": [-95.957751, 38.519694], "type": "Point"}, "id": "j7GUC5tmX39MzDwvaJA31DbpoBA=", "properties": {"@source_uri": "https://tools.usps.com/UspsToolsRestServices/rest/POLocator/findLocations", "@spider": "usps_collection_boxes", "addr:city": "READING", "addr:country": "US", "addr:postcode": "66868", "addr:state": "KS", "addr:street_address": "413 1ST ST", "amenity": "post_box", "collection_times": "Mo-Fr 13:15; Sa 11:15", "note": "ON 12/24 AND 12/31, THIS BOX MAY BE COLLECTED AS EARLY AS 12 NOON.", "nsi_id": "unitedstatespostalservice-a77078", "operator": "United States Postal Service", "operator:short": "USPS", "operator:type": "public", "operator:wikidata": "Q668687", "ref": "6686800001"}, "type": "Feature"}
{"geometry": {"coordinates": [-95.957751, 38.519694], "type": "Point"}, "id": "xRKpFVfpSeU81zeBn1hV9dtSD5c=", "properties": {"@source_uri": "https://tools.usps.com/UspsToolsRestServices/rest/POLocator/findLocations", "@spider": "usps_collection_boxes", "addr:city": "READING", "addr:country": "US", "addr:postcode": "66868", "addr:state": "KS", "addr:street_address": "413 1ST ST", "amenity": "post_box", "collection_times": "Mo-Fr 13:15; Sa 11:15", "indoor": "yes", "note": "ON 12/24 AND 12/31, THIS BOX MAY BE COLLECTED AS EARLY AS 12 NOON.", "nsi_id": "unitedstatespostalservice-a77078", "operator": "United States Postal Service", "operator:short": "USPS", "operator:type": "public", "operator:wikidata": "Q668687", "ref": "6686800002"}, "type": "Feature"}
{"geometry": {"coordinates": [-95.957752668, 38.519684488], "type": "Point"}, "id": "9NYEcPMLtcsXw7eywCzaV8JQy-o=", "properties": {"@source_uri": "https://tools.usps.com/UspsToolsRestServices/rest/POLocator/findLocations", "@spider": "usps_collection_boxes", "addr:city": "READING", "addr:country": "US", "addr:postcode": "66868", "addr:state": "KS", "addr:street_address": "413 1ST ST", "amenity": "post_box", "collection_times": "Mo-Fr 13:15; Sa 11:15", "indoor": "yes", "note": "ON 12/24 AND 12/31, THIS BOX MAY BE COLLECTED AS EARLY AS 12 NOON.", "nsi_id": "unitedstatespostalservice-a77078", "operator": "United States Postal Service", "operator:short": "USPS", "operator:type": "public", "operator:wikidata": "Q668687", "ref": "6686800003"}, "type": "Feature"}
{"geometry": {"coordinates": [-96.539122, 38.388466], "type": "Point"}, "id": "pj6YSyp8qRJgfawkIvLXPn0_sSE=", "properties": {"@source_uri": "https://tools.usps.com/UspsToolsRestServices/rest/POLocator/findLocations", "@spider": "usps_collection_boxes", "addr:city": "STRONG CITY", "addr:country": "US", "addr:postcode": "66869", "addr:state": "KS", "addr:street_address": "309 COTTONWOOD ST", "amenity": "post_box", "collection_times": "Mo-Fr 11:45; Sa 08:45", "nsi_id": "unitedstatespostalservice-a77078", "operator": "United States Postal Service", "operator:short": "USPS", "operator:type": "public", "operator:wikidata": "Q668687", "ref": "6686900001"}, "type": "Feature"}
{"geometry": {"coordinates": [-96.5300156, 38.3976481], "type": "Point"}, "id": "T7VnjcQ8Oa3KfdYcv-4VB04Tnao=", "properties": {"@source_uri": "https://tools.usps.com/UspsToolsRestServices/rest/POLocator/findLocations", "@spider": "usps_collection_boxes", "addr:city": "STRONG CITY", "addr:country": "US", "addr:postcode": "66869", "addr:state": "KS", "addr:street_address": "309 COTTONWOOD ST", "amenity": "post_box", "collection_times": "Mo-Fr 11:45; Sa 08:45", "indoor": "yes", "nsi_id": "unitedstatespostalservice-a77078", "operator": "United States Postal Service", "operator:short": "USPS", "operator:type": "public", "operator:wikidata": "Q668687", "ref": "6686900002"}, "type": "Feature"}
{"geometry": {"coordinates": [-96.5300156, 38.3976481], "type": "Point"}, "id": "uYsBZXAjQ_Tg92HcAbN87sq2e7c=", "properties": {"@source_uri": "https://tools.usps.com/UspsToolsRestServices/rest/POLocator/findLocations", "@spider": "usps_collection_boxes", "addr:city": "STRONG CITY", "addr:country": "US", "addr:postcode": "66869", "addr:state": "KS", "addr:street_address": "309 COTTONWOOD ST", "amenity": "post_box", "collection_times": "Mo-Fr 12:00; Sa 09:00", "indoor": "yes", "nsi_id": "unitedstatespostalservice-a77078", "operator": "United States Postal Service", "operator:short": "USPS", "operator:type": "public", "operator:wikidata": "Q668687", "ref": "6686900003"}, "type": "Feature"}
{"geometry": {"coordinates": [-96.009401, 37.980758], "type": "Point"}, "id": "rzg42STvRCBdxzN-SgUp42s5tgo=", "properties": {"@source_uri": "https://tools.usps.com/UspsToolsRestServices/rest/POLocator/findLocations", "@spider": "usps_collection_boxes", "addr:city": "VIRGIL", "addr:country": "US", "addr:postcode": "66870", "addr:state": "KS", "addr:street_address": "206 S MAIN ST", "amenity": "post_box", "collection_times": "Mo-Sa 11:45", "nsi_id": "unitedstatespostalservice-a77078", "operator": "United States Postal Service", "operator:short": "USPS", "operator:type": "public", "operator:wikidata": "Q668687", "ref": "6687000001"}, "type": "Feature"}
{"geometry": {"coordinates": [-96.00937966, 37.98077063], "type": "Point"}, "id": "aCElMVLCME0XvvakaWCfdtemSkQ=", "properties": {"@source_uri": "https://tools.usps.com/UspsToolsRestServices/rest/POLocator/findLocations", "@spider": "usps_collection_boxes", "addr:city": "VIRGIL", "addr:country": "US", "addr:postcode": "66870", "addr:state": "KS", "addr:street_address": "206 S MAIN ST", "amenity": "post_box", "collection_times": "Mo-Sa 11:45", "indoor": "yes", "nsi_id": "unitedstatespostalservice-a77078", "operator": "United States Postal Service", "operator:short": "USPS", "operator:type": "public", "operator:wikidata": "Q668687", "ref": "6687000003"}, "type": "Feature"}
{"geometry": {"coordinates": [-95.600207915, 38.393154], "type": "Point"}, "id": "iWuxz6IUzXA-ZrDQ_Nkb2NWn9lQ=", "properties": {"@source_uri": "https://tools.usps.com/UspsToolsRestServices/rest/POLocator/findLocations", "@spider": "usps_collection_boxes", "addr:city": "WAVERLY", "addr:country": "US", "addr:postcode": "66871", "addr:state": "KS", "addr:street_address": "402 PEARSON AVE", "amenity": "post_box", "collection_times": "Mo-Fr 13:00; Sa 09:15", "note": "ON 12/24 AND 12/31, THIS BOX MAY BE COLLECTED AS EARLY AS 12 NOON.", "nsi_id": "unitedstatespostalservice-a77078", "operator": "United States Postal Service", "operator:short": "USPS", "operator:type": "public", "operator:wikidata": "Q668687", "ref": "6687100000"}, "type": "Feature"}
{"geometry": {"coordinates": [-95.600207915, 38.393154], "type": "Point"}, "id": "o95LqJecNNh9--fUH8fffJ1GpPs=", "properties": {"@source_uri": "https://tools.usps.com/UspsToolsRestServices/rest/POLocator/findLocations", "@spider": "usps_collection_boxes", "addr:city": "WAVERLY", "addr:country": "US", "addr:postcode": "66871", "addr:state": "KS", "addr:street_address": "402 PEARSON AVE", "amenity": "post_box", "collection_times": "Mo-Fr 13:30; Sa 09:15", "indoor": "yes", "note": "ON 12/24 AND 12/31, THIS BOX MAY BE COLLECTED AS EARLY AS 12 NOON.", "nsi_id": "unitedstatespostalservice-a77078", "operator": "United States Postal Service", "operator:short": "USPS", "operator:type": "public", "operator:wikidata": "Q668687", "ref": "6687100001"}, "type": "Feature"}
{"geometry": {"coordinates": [-95.600207915, 38.393154], "type": "Point"}, "id": "QLJ2s2QRK2aKQn2l01OIqdpnI_Y=", "properties": {"@source_uri": "https://tools.usps.com/UspsToolsRestServices/rest/POLocator/findLocations", "@spider": "usps_collection_boxes", "addr:city": "WAVERLY", "addr:country": "US", "addr:postcode": "66871", "addr:state": "KS", "addr:street_address": "402 PEARSON AVE", "amenity": "post_box", "collection_times": "Mo-Fr 13:30; Sa 09:15", "indoor": "yes", "note": "ON 12/24 AND 12/31, THIS BOX MAY BE COLLECTED AS EARLY AS 12 NOON.", "nsi_id": "unitedstatespostalservice-a77078", "operator": "United States Postal Service", "operator:short": "USPS", "operator:type": "public", "operator:wikidata": "Q668687", "ref": "6687100002"}, "type": "Feature"}
{"geometry": {"coordinates": [-96.7366, 38.795675], "type": "Point"}, "id": "v9oTwJ0gAVGubcIDwyFk5tuWYpo=", "properties": {"@source_uri": "https://tools.usps.com/UspsToolsRestServices/rest/POLocator/findLocations", "@spider": "usps_collection_boxes", "addr:city": "WHITE CITY", "addr:country": "US", "addr:postcode": "66872", "addr:state": "KS", "addr:street_address": "113 W MACKENZIE ST", "amenity": "post_box", "collection_times": "Mo-Fr 12:30; Sa 10:15", "note": "ON 12/24 AND 12/31, THIS BOX MAY BE COLLECTED AS EARLY AS 12 NOON.", "nsi_id": "unitedstatespostalservice-a77078", "operator": "United States Postal Service", "operator:short": "USPS", "operator:type": "public", "operator:wikidata": "Q668687", "ref": "6687200001"}, "type": "Feature"}
{"geometry": {"coordinates": [-96.7366, 38.795675], "type": "Point"}, "id": "sCs0L2ebeacXYmok_vQbOYGlwaY=", "properties": {"@source_uri": "https://tools.usps.com/UspsToolsRestServices/rest/POLocator/findLocations", "@spider": "usps_collection_boxes", "addr:city": "WHITE CITY", "addr:country": "US", "addr:postcode": "66872", "addr:state": "KS", "addr:street_address": "113 W MACKENZIE ST", "amenity": "post_box", "collection_times": "Mo-Fr 12:30; Sa 10:15", "indoor": "yes", "note": "ON 12/24 AND 12/31, THIS BOX MAY BE COLLECTED AS EARLY AS 12 NOON.", "nsi_id": "unitedstatespostalservice-a77078", "operator": "United States Postal Service", "operator:short": "USPS", "operator:type": "public", "operator:wikidata": "Q668687", "ref": "6687200002"}, "type": "Feature"}
{"geometry": {"coordinates": [-96.7366096965, 38.7956236917], "type": "Point"}, "id": "ApodmNYEJP-ezr_S9nTrbGLACsg=", "properties": {"@source_uri": "https://tools.usps.com/UspsToolsRestServices/rest/POLocator/findLocations", "@spider": "usps_collection_boxes", "addr:city": "WHITE CITY", "addr:country": "US", "addr:postcode": "66872", "addr:state": "KS", "addr:street_address": "113 W MACKENZIE ST", "amenity": "post_box", "collection_times": "Mo-Fr 12:45; Sa 10:15", "indoor": "yes", "note": "ON 12/24 AND 12/31, THIS BOX MAY BE COLLECTED AS EARLY AS 12 NOON.", "nsi_id": "unitedstatespostalservice-a77078", "operator": "United States Postal Service", "operator:short": "USPS", "operator:type": "public", "operator:wikidata": "Q668687", "ref": "6687200003"}, "type": "Feature"}
