{"geometry": {"coordinates": [-97.6653075681, 39.5545310455], "type": "Point"}, "id": "skbNceKgKWwrxD61Zj4LyzIcdSQ=", "properties": {"@source_uri": "https://tools.usps.com/UspsToolsRestServices/rest/POLocator/findLocations", "@spider": "usps_collection_boxes", "addr:city": "CONCORDIA", "addr:country": "US", "addr:postcode": "66901", "addr:state": "KS", "addr:street_address": "2221 CAMPUS DR", "amenity": "post_box", "collection_times": "Mo-Sa 13:00", "note": "ON 12/24 AND 12/31, THIS BOX MAY BE COLLECTED AS EARLY AS 12 NOON.", "nsi_id": "unitedstatespostalservice-a77078", "operator": "United States Postal Service", "operator:short": "USPS", "operator:type": "public", "operator:wikidata": "Q668687", "ref": "6690100005"}, "type": "Feature"}
{"geometry": {"coordinates": [-97.6610746387, 39.5707856647], "type": "Point"}, "id": "zoqW3znBwaDH55huMDC13GJWHvQ=", "properties": {"@source_uri": "https://tools.usps.com/UspsToolsRestServices/rest/POLocator/findLocations", "@spider": "usps_collection_boxes", "addr:city": "CONCORDIA", "addr:country": "US", "addr:postcode": "66901", "addr:state": "KS", "addr:street_address": "622 WASHINGTON ST", "amenity": "post_box", "collection_times": "Mo-Sa 14:25", "note": "ON 12/24 AND 12/31, THIS BOX MAY BE COLLECTED AS EARLY AS 12 NOON.", "nsi_id": "unitedstatespostalservice-a77078", "operator": "United States Postal Service", "operator:short": "USPS", "operator:type": "public", "operator:wikidata": "Q668687", "ref": "6690100006"}, "type": "Feature"}
{"geometry": {"coordinates": [-97.661077, 39.57079], "type": "Point"}, "id": "IDKZwLsR31Zu0RctG8HYRJzVWMc=", "properties": {"@source_uri": "https://tools.usps.com/UspsToolsRestServices/rest/POLocator/findLocations", "@spider": "usps_collection_boxes", "addr:city": "CONCORDIA", "addr:country": "US", "addr:postcode": "66901", "addr:state": "KS", "addr:street_address": "622 WASHINGTON ST", "amenity": "post_box", "collection_times": "Mo-Sa 14:25", "indoor": "yes", "note": "ON 12/24 AND 12/31, THIS BOX MAY BE COLLECTED AS EARLY AS 12 NOON.", "nsi_id": "unitedstatespostalservice-a77078", "operator": "United States Postal Service", "operator:short": "USPS", "operator:type": "public", "operator:wikidata": "Q668687", "ref": "6690100007"}, "type": "Feature"}
{"geometry": {"coordinates": [-97.661077, 39.57079], "type": "Point"}, "id": "YsghOVeaT85zU_Tq8IZ8GSE4BCw=", "properties": {"@source_uri": "https://tools.usps.com/UspsToolsRestServices/rest/POLocator/findLocations", "@spider": "usps_collection_boxes", "addr:city": "CONCORDIA", "addr:country": "US", "addr:postcode": "66901", "addr:state": "KS", "addr:street_address": "622 WASHINGTON ST", "amenity": "post_box", "collection_times": "Mo-Sa 14:25", "indoor": "yes", "note": "ON 12/24 AND 12/31, THIS BOX MAY BE COLLECTED AS EARLY AS 12 NOON.", "nsi_id": "unitedstatespostalservice-a77078", "operator": "United States Postal Service", "operator:short": "USPS", "operator:type": "public", "operator:wikidata": "Q668687", "ref": "6690100008"}, "type": "Feature"}
{"geometry": {"coordinates": [-97.661079139, 39.570785665], "type": "Point"}, "id": "Qo2NvF2A8BK-v-4bkeKGTS94kJU=", "properties": {"@source_uri": "https://tools.usps.com/UspsToolsRestServices/rest/POLocator/findLocations", "@spider": "usps_collection_boxes", "addr:city": "CONCORDIA", "addr:country": "US", "addr:postcode": "66901", "addr:state": "KS", "addr:street_address": "622 WASHINGTON ST", "amenity": "post_box", "collection_times": "Mo-Fr 14:25; Sa 11:00", "indoor": "yes", "note": "ON 12/24 AND 12/31, THIS BOX MAY BE COLLECTED AS EARLY AS 12 NOON.", "nsi_id": "unitedstatespostalservice-a77078", "operator": "United States Postal Service", "operator:short": "USPS", "operator:type": "public", "operator:wikidata": "Q668687", "ref": "6690100009"}, "type": "Feature"}
{"geometry": {"coordinates": [-96.8726949, 39.712509], "type": "Point"}, "id": "BLflRkAKKJWGGOYmzAvInM0JOUA=", "properties": {"@source_uri": "https://tools.usps.com/UspsToolsRestServices/rest/POLocator/findLocations", "@spider": "usps_collection_boxes", "addr:city": "BARNES", "addr:country": "US", "addr:postcode": "66933", "addr:state": "KS", "addr:street_address": "20 N CENTER ST", "amenity": "post_box", "collection_times": "Mo-Fr 11:00; Sa 09:30", "nsi_id": "unitedstatespostalservice-a77078", "operator": "United States Postal Service", "operator:short": "USPS", "operator:type": "public", "operator:wikidata": "Q668687", "ref": "6693300001"}, "type": "Feature"}
{"geometry": {"coordinates": [-96.8728272992, 39.7124641676], "type": "Point"}, "id": "e0QWyMJk9E6g6udzPhrYrT2y81I=", "properties": {"@source_uri": "https://tools.usps.com/UspsToolsRestServices/rest/POLocator/findLocations", "@spider": "usps_collection_boxes", "addr:city": "BARNES", "addr:country": "US", "addr:postcode": "66933", "addr:state": "KS", "addr:street_address": "20 N CENTER ST", "amenity": "post_box", "collection_times": "Mo-Fr 11:15; Sa 09:30", "indoor": "yes", "nsi_id": "unitedstatespostalservice-a77078", "operator": "United States Postal Service", "operator:short": "USPS", "operator:type": "public", "operator:wikidata": "Q668687", "ref": "6693300002"}, "type": "Feature"}
{"geometry": {"coordinates": [-96.872827299, 39.712464168], "type": "Point"}, "id": "4et55ObZituk-n1-n3eV1MozWy4=", "properties": {"@source_uri": "https://tools.usps.com/UspsToolsRestServices/rest/POLocator/findLocations", "@spider": "usps_collection_boxes", "addr:city": "BARNES", "addr:country": "US", "addr:postcode": "66933", "addr:state": "KS", "addr:street_address": "20 N CENTER ST", "amenity": "post_box", "collection_times": "Mo-Fr 11:15; Sa 09:30", "indoor": "yes", "nsi_id": "unitedstatespostalservice-a77078", "operator": "United States Postal Service", "operator:short": "USPS", "operator:type": "public", "operator:wikidata": "Q668687", "ref": "6693300003"}, "type": "Feature"}
{"geometry": {"coordinates": [-97.6306817, 39.822733], "type": "Point"}, "id": "F6v7D3iK-v1c4kC6x3MkLjEfXck=", "properties": {"@source_uri": "https://tools.usps.com/UspsToolsRestServices/rest/POLocator/findLocations", "@spider": "usps_collection_boxes", "addr:city": "BELLEVILLE", "addr:country": "US", "addr:postcode": "66935", "addr:state": "KS", "addr:street_address": "1821 M ST", "amenity": "post_box", "collection_times": "Mo-Sa 12:15", "note": "ON 12/24 AND 12/31, THIS BOX MAY BE COLLECTED AS EARLY AS 12 NOON.", "nsi_id": "unitedstatespostalservice-a77078", "operator": "United States Postal Service", "operator:short": "USPS", "operator:type": "public", "operator:wikidata": "Q668687", "ref": "6693500002"}, "type": "Feature"}
{"geometry": {"coordinates": [-97.632502, 39.824047], "type": "Point"}, "id": "VJHJOtEH3lNoTATAwK5CHGF9SBE=", "properties": {"@source_uri": "https://tools.usps.com/UspsToolsRestServices/rest/POLocator/findLocations", "@spider": "usps_collection_boxes", "addr:city": "BELLEVILLE", "addr:country": "US", "addr:postcode": "66935", "addr:state": "KS", "addr:street_address": "1119 18TH ST", "amenity": "post_box", "collection_times": "Mo-Fr 12:15; Sa 10:15", "note": "ON 12/24 AND 12/31, THIS BOX MAY BE COLLECTED AS EARLY AS 12 NOON.", "nsi_id": "unitedstatespostalservice-a77078", "operator": "United States Postal Service", "operator:short": "USPS", "operator:type": "public", "operator:wikidata": "Q668687", "ref": "6693500003"}, "type": "Feature"}
{"geometry": {"coordinates": [-97.632502, 39.824047], "type": "Point"}, "id": "VsASXfwwMQfS7dZcjBa1df5lAgk=", "properties": {"@source_uri": "https://tools.usps.com/UspsToolsRestServices/rest/POLocator/findLocations", "@spider": "usps_collection_boxes", "addr:city": "BELLEVILLE", "addr:country": "US", "addr:postcode": "66935", "addr:state": "KS", "addr:street_address": "1119 18TH ST", "amenity": "post_box", "collection_times": "Mo-Fr 12:15; Sa 10:15", "indoor": "yes", "note": "ON 12/24 AND 12/31, THIS BOX MAY BE COLLECTED AS EARLY AS 12 NOON.", "nsi_id": "unitedstatespostalservice-a77078", "operator": "United States Postal Service", "operator:short": "USPS", "operator:type": "public", "operator:wikidata": "Q668687", "ref": "6693500006"}, "type": "Feature"}
{"geometry": {"coordinates": [-97.632500223, 39.824040475], "type": "Point"}, "id": "EG5vpyGGi6iIhML_w9kLmR1rz4M=", "properties": {"@source_uri": "https://tools.usps.com/UspsToolsRestServices/rest/POLocator/findLocations", "@spider": "usps_collection_boxes", "addr:city": "BELLEVILLE", "addr:country": "US", "addr:postcode": "66935", "addr:state": "KS", "addr:street_address": "1119 18TH ST", "amenity": "post_box", "collection_times": "Mo-Fr 12:15; Sa 10:15", "indoor": "yes", "note": "ON 12/24 AND 12/31, THIS BOX MAY BE COLLECTED AS EARLY AS 12 NOON.", "nsi_id": "unitedstatespostalservice-a77078", "operator": "United States Postal Service", "operator:short": "USPS", "operator:type": "public", "operator:wikidata": "Q668687", "ref": "6693500008"}, "type": "Feature"}
{"geometry": {"coordinates": [-98.306047, 39.86055], "type": "Point"}, "id": "hs9ygGdPMpaYIh-FYNp16BPwXK8=", "properties": {"@source_uri": "https://tools.usps.com/UspsToolsRestServices/rest/POLocator/findLocations", "@spider": "usps_collection_boxes", "addr:city": "BURR OAK", "addr:country": "US", "addr:postcode": "66936", "addr:state": "KS", "addr:street_address": "117 S MAIN ST", "amenity": "post_box", "collection_times": "Mo-Fr 11:15; Sa 08:45", "nsi_id": "unitedstatespostalservice-a77078", "operator": "United States Postal Service", "operator:short": "USPS", "operator:type": "public", "operator:wikidata": "Q668687", "ref": "6693600001"}, "type": "Feature"}
{"geometry": {"coordinates": [-98.306049, 39.870995], "type": "Point"}, "id": "afxDBrbFwia0s8fLVUrXeD0tt-w=", "properties": {"@source_uri": "https://tools.usps.com/UspsToolsRestServices/rest/POLocator/findLocations", "@spider": "usps_collection_boxes", "addr:city": "BURR OAK", "addr:country": "US", "addr:postcode": "66936", "addr:state": "KS", "addr:street_address": "117 S MAIN ST", "amenity": "post_box", "collection_times": "Mo-Fr 11:15; Sa 08:45", "indoor": "yes", "nsi_id": "unitedstatespostalservice-a77078", "operator": "United States Postal Service", "operator:short": "USPS", "operator:type": "public", "operator:wikidata": "Q668687", "ref": "6693600002"}, "type": "Feature"}
{"geometry": {"coordinates": [-98.306055762, 39.870423], "type": "Point"}, "id": "5SL4fqDSls9uaV4qYVyihkvzjOQ=", "properties": {"@source_uri": "https://tools.usps.com/UspsToolsRestServices/rest/POLocator/findLocations", "@spider": "usps_collection_boxes", "addr:city": "BURR OAK", "addr:country": "US", "addr:postcode": "66936", "addr:state": "KS", "addr:street_address": "117 S MAIN ST", "amenity": "post_box", "collection_times": "Mo-Fr 11:15", "indoor": "yes", "nsi_id": "unitedstatespostalservice-a77078", "operator": "United States Postal Service", "operator:short": "USPS", "operator:type": "public", "operator:wikidata": "Q668687", "ref": "6693600003"}, "type": "Feature"}
{"geometry": {"coordinates": [-97.280303055, 39.566767472], "type": "Point"}, "id": "TJLt_WQwjfRo-2gLdn5tsXt6Q4Q=", "properties": {"@source_uri": "https://tools.usps.com/UspsToolsRestServices/rest/POLocator/findLocations", "@spider": "usps_collection_boxes", "addr:city": "CLIFTON", "addr:country": "US", "addr:postcode": "66937", "addr:state": "KS", "addr:street_address": "101 E PARALLEL ST", "amenity": "post_box", "collection_times": "Mo-Fr 12:05; Sa 09:15", "note": "ON 12/24 AND 12/31, THIS BOX MAY BE COLLECTED AS EARLY AS 12 NOON.", "nsi_id": "unitedstatespostalservice-a77078", "operator": "United States Postal Service", "operator:short": "USPS", "operator:type": "public", "operator:wikidata": "Q668687", "ref": "6693700001"}, "type": "Feature"}
{"geometry": {"coordinates": [-97.280303055, 39.566767472], "type": "Point"}, "id": "XjvLnnqCMVvEwsVAw1EyP-4S91g=", "properties": {"@source_uri": "https://tools.usps.com/UspsToolsRestServices/rest/POLocator/findLocations", "@spider": "usps_collection_boxes", "addr:city": "CLIFTON", "addr:country": "US", "addr:postcode": "66937", "addr:state": "KS", "addr:street_address": "101 E PARALLEL ST", "amenity": "post_box", "collection_times": "Mo-Fr 12:05; Sa 09:15", "indoor": "yes", "note": "ON 12/24 AND 12/31, THIS BOX MAY BE COLLECTED AS EARLY AS 12 NOON.", "nsi_id": "unitedstatespostalservice-a77078", "operator": "United States Postal Service", "operator:short": "USPS", "operator:type": "public", "operator:wikidata": "Q668687", "ref": "6693700002"}, "type": "Feature"}
{"geometry": {"coordinates": [-97.280303055, 39.566767472], "type": "Point"}, "id": "z3uGVLuXZIufVefhCajsCz9Gpco=", "properties": {"@source_uri": "https://tools.usps.com/UspsToolsRestServices/rest/POLocator/findLocations", "@spider": "usps_collection_boxes", "addr:city": "CLIFTON", "addr:country": "US", "addr:postcode": "66937", "addr:state": "KS", "addr:street_address": "101 E PARALLEL ST", "amenity": "post_box", "collection_times": "Mo-Fr 12:05; Sa 09:15", "indoor": "yes", "note": "ON 12/24 AND 12/31, THIS BOX MAY BE COLLECTED AS EARLY AS 12 NOON.", "nsi_id": "unitedstatespostalservice-a77078", "operator": "United States Postal Service", "operator:short": "USPS", "operator:type": "public", "operator:wikidata": "Q668687", "ref": "6693700003"}, "type": "Feature"}
{"geometry": {"coordinates": [-97.397311668, 39.591155496], "type": "Point"}, "id": "ZB7nKIatfISzESSalOSXJ6ZkMcI=", "properties": {"@source_uri": "https://tools.usps.com/UspsToolsRestServices/rest/POLocator/findLocations", "@spider": "usps_collection_boxes", "addr:city": "CLYDE", "addr:country": "US", "addr:postcode": "66938", "addr:state": "KS", "addr:street_address": "308 WASHINGTON ST", "amenity": "post_box", "collection_times": "Mo-Fr 12:00; Sa 09:45", "nsi_id": "unitedstatespostalservice-a77078", "operator": "United States Postal Service", "operator:short": "USPS", "operator:type": "public", "operator:wikidata": "Q668687", "ref": "6693800001"}, "type": "Feature"}
{"geometry": {"coordinates": [-97.397311668, 39.591155496], "type": "Point"}, "id": "eOE0BKO3n1w2yg9hmUFgWilbO0k=", "properties": {"@source_uri": "https://tools.usps.com/UspsToolsRestServices/rest/POLocator/findLocations", "@spider": "usps_collection_boxes", "addr:city": "CLYDE", "addr:country": "US", "addr:postcode": "66938", "addr:state": "KS", "addr:street_address": "308 WASHINGTON ST", "amenity": "post_box", "collection_times": "Mo-Fr 13:35; Sa 09:45", "indoor": "yes", "note": "ON 12/24 AND 12/31, THIS BOX MAY BE COLLECTED AS EARLY AS 12 NOON.", "nsi_id": "unitedstatespostalservice-a77078", "operator": "United States Postal Service", "operator:short": "USPS", "operator:type": "public", "operator:wikidata": "Q668687", "ref": "6693800002"}, "type": "Feature"}
{"geometry": {"coordinates": [-97.397311668, 39.591155496], "type": "Point"}, "id": "R8aifBnWLv0LFqKpEEPI2Ppg8cE=", "properties": {"@source_uri": "https://tools.usps.com/UspsToolsRestServices/rest/POLocator/findLocations", "@spider": "usps_collection_boxes", "addr:city": "CLYDE", "addr:country": "US", "addr:postcode": "66938", "addr:state": "KS", "addr:street_address": "308 WASHINGTON ST", "amenity": "post_box", "collection_times": "Mo-Fr 13:35; Sa 09:45", "indoor": "yes", "note": "ON 12/24 AND 12/31, THIS BOX MAY BE COLLECTED AS EARLY AS 12 NOON.", "nsi_id": "unitedstatespostalservice-a77078", "operator": "United States Postal Service", "operator:short": "USPS", "operator:type": "public", "operator:wikidata": "Q668687", "ref": "6693800004"}, "type": "Feature"}
{"geometry": {"coordinates": [-97.895056288, 39.782529639], "type": "Point"}, "id": "WbibkFSlf1Gy0YOo90bVXA_d-ds=", "properties": {"@source_uri": "https://tools.usps.com/UspsToolsRestServices/rest/POLocator/findLocations", "@spider": "usps_collection_boxes", "addr:city": "COURTLAND", "addr:country": "US", "addr:postcode": "66939", "addr:state": "KS", "addr:street_address": "416 MAIN ST", "amenity": "post_box", "collection_times": "Mo-Fr 11:45; Sa 08:45", "nsi_id": "unitedstatespostalservice-a77078", "operator": "United States Postal Service", "operator:short": "USPS", "operator:type": "public", "operator:wikidata": "Q668687", "ref": "6693900001"}, "type": "Feature"}
{"geometry": {"coordinates": [-97.895056288, 39.782529639], "type": "Point"}, "id": "R8ZDfuIFmBp2aAnxG2YZXRzc65o=", "properties": {"@source_uri": "https://tools.usps.com/UspsToolsRestServices/rest/POLocator/findLocations", "@spider": "usps_collection_boxes", "addr:city": "COURTLAND", "addr:country": "US", "addr:postcode": "66939", "addr:state": "KS", "addr:street_address": "416 MAIN ST", "amenity": "post_box", "collection_times": "Mo-Fr 11:45; Sa 08:45", "indoor": "yes", "nsi_id": "unitedstatespostalservice-a77078", "operator": "United States Postal Service", "operator:short": "USPS", "operator:type": "public", "operator:wikidata": "Q668687", "ref": "6693900002"}, "type": "Feature"}
{"geometry": {"coordinates": [-97.895056288, 39.782529639], "type": "Point"}, "id": "OchhzMEE1jK4vIipioNqGEKBkgE=", "properties": {"@source_uri": "https://tools.usps.com/UspsToolsRestServices/rest/POLocator/findLocations", "@spider": "usps_collection_boxes", "addr:city": "COURTLAND", "addr:country": "US", "addr:postcode": "66939", "addr:state": "KS", "addr:street_address": "416 MAIN ST", "amenity": "post_box", "collection_times": "Mo-Fr 11:45; Sa 08:45", "indoor": "yes", "nsi_id": "unitedstatespostalservice-a77078", "operator": "United States Postal Service", "operator:short": "USPS", "operator:type": "public", "operator:wikidata": "Q668687", "ref": "6693900003"}, "type": "Feature"}
{"geometry": {"coordinates": [-97.457866, 39.80087], "type": "Point"}, "id": "J94x3nMJHpYBvm0G8EJv0IgClw0=", "properties": {"@source_uri": "https://tools.usps.com/UspsToolsRestServices/rest/POLocator/findLocations", "@spider": "usps_collection_boxes", "addr:city": "CUBA", "addr:country": "US", "addr:postcode": "66940", "addr:state": "KS", "addr:street_address": "309 BAIRD ST", "amenity": "post_box", "collection_times": "Mo-Fr 11:45; Sa 08:45", "nsi_id": "unitedstatespostalservice-a77078", "operator": "United States Postal Service", "operator:short": "USPS", "operator:type": "public", "operator:wikidata": "Q668687", "ref": "6694000001"}, "type": "Feature"}
{"geometry": {"coordinates": [-97.457866, 39.80087], "type": "Point"}, "id": "WhnHCh2gIae517UH9aqPqee0we4=", "properties": {"@source_uri": "https://tools.usps.com/UspsToolsRestServices/rest/POLocator/findLocations", "@spider": "usps_collection_boxes", "addr:city": "CUBA", "addr:country": "US", "addr:postcode": "66940", "addr:state": "KS", "addr:street_address": "309 BAIRD ST", "amenity": "post_box", "collection_times": "Mo-Fr 11:45; Sa 08:45", "indoor": "yes", "nsi_id": "unitedstatespostalservice-a77078", "operator": "United States Postal Service", "operator:short": "USPS", "operator:type": "public", "operator:wikidata": "Q668687", "ref": "6694000002"}, "type": "Feature"}
{"geometry": {"coordinates": [-97.4578667919, 39.8008626392], "type": "Point"}, "id": "4ny1nLaja7vBviVvIYyslqCDmfc=", "properties": {"@source_uri": "https://tools.usps.com/UspsToolsRestServices/rest/POLocator/findLocations", "@spider": "usps_collection_boxes", "addr:city": "CUBA", "addr:country": "US", "addr:postcode": "66940", "addr:state": "KS", "addr:street_address": "309 BAIRD ST", "amenity": "post_box", "collection_times": "Mo-Fr 11:45; Sa 08:45", "indoor": "yes", "nsi_id": "unitedstatespostalservice-a77078", "operator": "United States Postal Service", "operator:short": "USPS", "operator:type": "public", "operator:wikidata": "Q668687", "ref": "6694000003"}, "type": "Feature"}
{"geometry": {"coordinates": [-98.4359112, 39.823263], "type": "Point"}, "id": "hBApOmeQKXdoVgJKfgJE3Uza7Tg=", "properties": {"@source_uri": "https://tools.usps.com/UspsToolsRestServices/rest/POLocator/findLocations", "@spider": "usps_collection_boxes", "addr:city": "ESBON", "addr:country": "US", "addr:postcode": "66941", "addr:state": "KS", "addr:street_address": "315 GRAND AVE", "amenity": "post_box", "collection_times": "Mo-Fr 10:50; Sa 08:45", "nsi_id": "unitedstatespostalservice-a77078", "operator": "United States Postal Service", "operator:short": "USPS", "operator:type": "public", "operator:wikidata": "Q668687", "ref": "6694100001"}, "type": "Feature"}
{"geometry": {"coordinates": [-98.435738, 39.823259], "type": "Point"}, "id": "r7CnKNXzOk8UK57JHyF9SNJcwRU=", "properties": {"@source_uri": "https://tools.usps.com/UspsToolsRestServices/rest/POLocator/findLocations", "@spider": "usps_collection_boxes", "addr:city": "ESBON", "addr:country": "US", "addr:postcode": "66941", "addr:state": "KS", "addr:street_address": "315 GRAND AVE", "amenity": "post_box", "collection_times": "Mo-Fr 10:50; Sa 08:45", "indoor": "yes", "nsi_id": "unitedstatespostalservice-a77078", "operator": "United States Postal Service", "operator:short": "USPS", "operator:type": "public", "operator:wikidata": "Q668687", "ref": "6694100002"}, "type": "Feature"}
{"geometry": {"coordinates": [-98.435736306, 39.823253445], "type": "Point"}, "id": "caSiCVCrdw0U1rcyQXbiB2MlJ8A=", "properties": {"@source_uri": "https://tools.usps.com/UspsToolsRestServices/rest/POLocator/findLocations", "@spider": "usps_collection_boxes", "addr:city": "ESBON", "addr:country": "US", "addr:postcode": "66941", "addr:state": "KS", "addr:street_address": "315 GRAND AVE", "amenity": "post_box", "collection_times": "Mo-Fr 10:50", "indoor": "yes", "nsi_id": "unitedstatespostalservice-a77078", "operator": "United States Postal Service", "operator:short": "USPS", "operator:type": "public", "operator:wikidata": "Q668687", "ref": "6694100003"}, "type": "Feature"}
{"geometry": {"coordinates": [-97.993127, 39.780334], "type": "Point"}, "id": "GqYKra1C1cFbGKdYtVs4cTNSp1M=", "properties": {"@source_uri": "https://tools.usps.com/UspsToolsRestServices/rest/POLocator/findLocations", "@spider": "usps_collection_boxes", "addr:city": "FORMOSO", "addr:country": "US", "addr:postcode": "66942", "addr:state": "KS", "addr:street_address": "106 MAIN ST", "amenity": "post_box", "collection_times": "Mo-Fr 11:15; Sa 08:30", "nsi_id": "unitedstatespostalservice-a77078", "operator": "United States Postal Service", "operator:short": "USPS", "operator:type": "public", "operator:wikidata": "Q668687", "ref": "6694200001"}, "type": "Feature"}
{"geometry": {"coordinates": [-97.993127, 39.780334], "type": "Point"}, "id": "karkXu4zwKzkZAMiMyEp3IRBMN8=", "properties": {"@source_uri": "https://tools.usps.com/UspsToolsRestServices/rest/POLocator/findLocations", "@spider": "usps_collection_boxes", "addr:city": "FORMOSO", "addr:country": "US", "addr:postcode": "66942", "addr:state": "KS", "addr:street_address": "106 MAIN ST", "amenity": "post_box", "collection_times": "Mo-Fr 11:15; Sa 08:30", "indoor": "yes", "nsi_id": "unitedstatespostalservice-a77078", "operator": "United States Postal Service", "operator:short": "USPS", "operator:type": "public", "operator:wikidata": "Q668687", "ref": "6694200002"}, "type": "Feature"}
{"geometry": {"coordinates": [-97.993151989, 39.780359693], "type": "Point"}, "id": "cP8Dq_xdxP3xjCSd5pW2tQOG5t8=", "properties": {"@source_uri": "https://tools.usps.com/UspsToolsRestServices/rest/POLocator/findLocations", "@spider": "usps_collection_boxes", "addr:city": "FORMOSO", "addr:country": "US", "addr:postcode": "66942", "addr:state": "KS", "addr:street_address": "106 MAIN ST", "amenity": "post_box", "collection_times": "Mo-Fr 11:15; Sa 08:30", "indoor": "yes", "nsi_id": "unitedstatespostalservice-a77078", "operator": "United States Postal Service", "operator:short": "USPS", "operator:type": "public", "operator:wikidata": "Q668687", "ref": "6694200003"}, "type": "Feature"}
{"geometry": {"coordinates": [-96.976919125, 39.727186263], "type": "Point"}, "id": "_vkCX8BPR3bPNyW7dp8aKaoNnYU=", "properties": {"@source_uri": "https://tools.usps.com/UspsToolsRestServices/rest/POLocator/findLocations", "@spider": "usps_collection_boxes", "addr:city": "GREENLEAF", "addr:country": "US", "addr:postcode": "66943", "addr:state": "KS", "addr:street_address": "418 COMMERCIAL ST", "amenity": "post_box", "collection_times": "Mo-Fr 11:10; Sa 09:45", "nsi_id": "unitedstatespostalservice-a77078", "operator": "United States Postal Service", "operator:short": "USPS", "operator:type": "public", "operator:wikidata": "Q668687", "ref": "6694300001"}, "type": "Feature"}
{"geometry": {"coordinates": [-96.976919125, 39.727186263], "type": "Point"}, "id": "rX5ePAf7eafnBbn4aESMV9ZgBio=", "properties": {"@source_uri": "https://tools.usps.com/UspsToolsRestServices/rest/POLocator/findLocations", "@spider": "usps_collection_boxes", "addr:city": "GREENLEAF", "addr:country": "US", "addr:postcode": "66943", "addr:state": "KS", "addr:street_address": "418 COMMERCIAL ST", "amenity": "post_box", "collection_times": "Mo-Fr 11:10; Sa 09:45", "indoor": "yes", "nsi_id": "unitedstatespostalservice-a77078", "operator": "United States Postal Service", "operator:short": "USPS", "operator:type": "public", "operator:wikidata": "Q668687", "ref": "6694300002"}, "type": "Feature"}
{"geometry": {"coordinates": [-96.976919125, 39.727186263], "type": "Point"}, "id": "jM5qBhrimMfNgQmwnNWjWN7uwvs=", "properties": {"@source_uri": "https://tools.usps.com/UspsToolsRestServices/rest/POLocator/findLocations", "@spider": "usps_collection_boxes", "addr:city": "GREENLEAF", "addr:country": "US", "addr:postcode": "66943", "addr:state": "KS", "addr:street_address": "418 COMMERCIAL ST", "amenity": "post_box", "collection_times": "Mo-Fr 11:00; Sa 09:45", "indoor": "yes", "nsi_id": "unitedstatespostalservice-a77078", "operator": "United States Postal Service", "operator:short": "USPS", "operator:type": "public", "operator:wikidata": "Q668687", "ref": "6694300003"}, "type": "Feature"}
{"geometry": {"coordinates": [-97.2998239, 39.85681], "type": "Point"}, "id": "wn0-32pIifh09QUDRD8M33QlhnI=", "properties": {"@source_uri": "https://tools.usps.com/UspsToolsRestServices/rest/POLocator/findLocations", "@spider": "usps_collection_boxes", "addr:city": "HADDAM", "addr:country": "US", "addr:postcode": "66944", "addr:state": "KS", "addr:street_address": "503 MAIN ST", "amenity": "post_box", "collection_times": "Mo-Fr 11:30; Sa 09:00", "nsi_id": "unitedstatespostalservice-a77078", "operator": "United States Postal Service", "operator:short": "USPS", "operator:type": "public", "operator:wikidata": "Q668687", "ref": "6694400001"}, "type": "Feature"}
{"geometry": {"coordinates": [-97.299841, 39.856923], "type": "Point"}, "id": "C3iwx2L9GbHd_MB4XsvDeYL0L7I=", "properties": {"@source_uri": "https://tools.usps.com/UspsToolsRestServices/rest/POLocator/findLocations", "@spider": "usps_collection_boxes", "addr:city": "HADDAM", "addr:country": "US", "addr:postcode": "66944", "addr:state": "KS", "addr:street_address": "503 MAIN ST", "amenity": "post_box", "collection_times": "Mo-Fr 11:45; Sa 09:00", "indoor": "yes", "nsi_id": "unitedstatespostalservice-a77078", "operator": "United States Postal Service", "operator:short": "USPS", "operator:type": "public", "operator:wikidata": "Q668687", "ref": "6694400002"}, "type": "Feature"}
{"geometry": {"coordinates": [-97.299841584, 39.856914547], "type": "Point"}, "id": "nWIED3wjdCU8aIOb-U8cm5M-l3Q=", "properties": {"@source_uri": "https://tools.usps.com/UspsToolsRestServices/rest/POLocator/findLocations", "@spider": "usps_collection_boxes", "addr:city": "HADDAM", "addr:country": "US", "addr:postcode": "66944", "addr:state": "KS", "addr:street_address": "503 MAIN ST", "amenity": "post_box", "collection_times": "Mo-Fr 11:45; Sa 09:00", "indoor": "yes", "nsi_id": "unitedstatespostalservice-a77078", "operator": "United States Postal Service", "operator:short": "USPS", "operator:type": "public", "operator:wikidata": "Q668687", "ref": "6694400003"}, "type": "Feature"}
{"geometry": {"coordinates": [-96.876054, 39.892787488], "type": "Point"}, "id": "ZiPIlJ59Oxk8zcnfNzJ2ZoUSSqM=", "properties": {"@source_uri": "https://tools.usps.com/UspsToolsRestServices/rest/POLocator/findLocations", "@spider": "usps_collection_boxes", "addr:city": "HANOVER", "addr:country": "US", "addr:postcode": "66945", "addr:state": "KS", "addr:street_address": "101 E NORTH ST", "amenity": "post_box", "collection_times": "Mo-Fr 11:15; Sa 10:15", "nsi_id": "unitedstatespostalservice-a77078", "operator": "United States Postal Service", "operator:short": "USPS", "operator:type": "public", "operator:wikidata": "Q668687", "ref": "6694500001"}, "type": "Feature"}
{"geometry": {"coordinates": [-96.876054, 39.892787488], "type": "Point"}, "id": "U5Rk5CzsBih157COXz-crwsDhYE=", "properties": {"@source_uri": "https://tools.usps.com/UspsToolsRestServices/rest/POLocator/findLocations", "@spider": "usps_collection_boxes", "addr:city": "HANOVER", "addr:country": "US", "addr:postcode": "66945", "addr:state": "KS", "addr:street_address": "101 E NORTH ST", "amenity": "post_box", "collection_times": "Mo-Fr 11:15; Sa 10:15", "indoor": "yes", "nsi_id": "unitedstatespostalservice-a77078", "operator": "United States Postal Service", "operator:short": "USPS", "operator:type": "public", "operator:wikidata": "Q668687", "ref": "6694500002"}, "type": "Feature"}
{"geometry": {"coordinates": [-96.876054, 39.892787488], "type": "Point"}, "id": "9mfU9A4e94SaVUU2xyqdstZGVPs=", "properties": {"@source_uri": "https://tools.usps.com/UspsToolsRestServices/rest/POLocator/findLocations", "@spider": "usps_collection_boxes", "addr:city": "HANOVER", "addr:country": "US", "addr:postcode": "66945", "addr:state": "KS", "addr:street_address": "101 E NORTH ST", "amenity": "post_box", "collection_times": "Mo-Fr 11:15; Sa 10:15", "indoor": "yes", "nsi_id": "unitedstatespostalservice-a77078", "operator": "United States Postal Service", "operator:short": "USPS", "operator:type": "public", "operator:wikidata": "Q668687", "ref": "6694500003"}, "type": "Feature"}
{"geometry": {"coordinates": [-96.9923446, 39.980879], "type": "Point"}, "id": "Gj16SDmFkvfCj3JChUqzp848538=", "properties": {"@source_uri": "https://tools.usps.com/UspsToolsRestServices/rest/POLocator/findLocations", "@spider": "usps_collection_boxes", "addr:city": "HOLLENBERG", "addr:country": "US", "addr:postcode": "66946", "addr:state": "KS", "addr:street_address": "113 MAIN ST", "amenity": "post_box", "collection_times": "Mo-Fr 11:30; Sa 10:15", "nsi_id": "unitedstatespostalservice-a77078", "operator": "United States Postal Service", "operator:short": "USPS", "operator:type": "public", "operator:wikidata": "Q668687", "ref": "6694600001"}, "type": "Feature"}
{"geometry": {"coordinates": [-96.992371, 39.980828], "type": "Point"}, "id": "gllPBreJ9yeV8SMt6bXwn1_p15k=", "properties": {"@source_uri": "https://tools.usps.com/UspsToolsRestServices/rest/POLocator/findLocations", "@spider": "usps_collection_boxes", "addr:city": "HOLLENBERG", "addr:country": "US", "addr:postcode": "66946", "addr:state": "KS", "addr:street_address": "113 MAIN ST", "amenity": "post_box", "collection_times": "Mo-Sa 09:45", "indoor": "yes", "nsi_id": "unitedstatespostalservice-a77078", "operator": "United States Postal Service", "operator:short": "USPS", "operator:type": "public", "operator:wikidata": "Q668687", "ref": "6694600002"}, "type": "Feature"}
{"geometry": {"coordinates": [-96.99237, 39.980820519], "type": "Point"}, "id": "n9LlDqeiMH2T2LfOeKM5oeEslVI=", "properties": {"@source_uri": "https://tools.usps.com/UspsToolsRestServices/rest/POLocator/findLocations", "@spider": "usps_collection_boxes", "addr:city": "HOLLENBERG", "addr:country": "US", "addr:postcode": "66946", "addr:state": "KS", "addr:street_address": "113 MAIN ST", "amenity": "post_box", "collection_times": "Mo-Sa 09:45", "indoor": "yes", "nsi_id": "unitedstatespostalservice-a77078", "operator": "United States Postal Service", "operator:short": "USPS", "operator:type": "public", "operator:wikidata": "Q668687", "ref": "6694600003"}, "type": "Feature"}
{"geometry": {"coordinates": [-97.862437, 39.600161], "type": "Point"}, "id": "06HtNTQgGN6xekQPDO8rvG2i5oo=", "properties": {"@source_uri": "https://tools.usps.com/UspsToolsRestServices/rest/POLocator/findLocations", "@spider": "usps_collection_boxes", "addr:city": "JAMESTOWN", "addr:country": "US", "addr:postcode": "66948", "addr:state": "KS", "addr:street_address": "304 WALNUT ST", "amenity": "post_box", "collection_times": "Mo-Fr 12:50; Sa 09:30", "note": "ON 12/24 AND 12/31, THIS BOX MAY BE COLLECTED AS EARLY AS 12 NOON.", "nsi_id": "unitedstatespostalservice-a77078", "operator": "United States Postal Service", "operator:short": "USPS", "operator:type": "public", "operator:wikidata": "Q668687", "ref": "6694800001"}, "type": "Feature"}
{"geometry": {"coordinates": [-97.862437, 39.600161], "type": "Point"}, "id": "C7s2HY0a13tqhChJiX4y77LFrxo=", "properties": {"@source_uri": "https://tools.usps.com/UspsToolsRestServices/rest/POLocator/findLocations", "@spider": "usps_collection_boxes", "addr:city": "JAMESTOWN", "addr:country": "US", "addr:postcode": "66948", "addr:state": "KS", "addr:street_address": "304 WALNUT ST", "amenity": "post_box", "collection_times": "Mo-Fr 12:50; Sa 09:30", "indoor": "yes", "note": "ON 12/24 AND 12/31, THIS BOX MAY BE COLLECTED AS EARLY AS 12 NOON.", "nsi_id": "unitedstatespostalservice-a77078", "operator": "United States Postal Service", "operator:short": "USPS", "operator:type": "public", "operator:wikidata": "Q668687", "ref": "6694800002"}, "type": "Feature"}
{"geometry": {"coordinates": [-97.86243562, 39.600153031], "type": "Point"}, "id": "uKnktbdcB7IvcHy6GYT7WwrhUSc=", "properties": {"@source_uri": "https://tools.usps.com/UspsToolsRestServices/rest/POLocator/findLocations", "@spider": "usps_collection_boxes", "addr:city": "JAMESTOWN", "addr:country": "US", "addr:postcode": "66948", "addr:state": "KS", "addr:street_address": "304 WALNUT ST", "amenity": "post_box", "collection_times": "Mo-Fr 12:50; Sa 09:30", "indoor": "yes", "note": "ON 12/24 AND 12/31, THIS BOX MAY BE COLLECTED AS EARLY AS 12 NOON.", "nsi_id": "unitedstatespostalservice-a77078", "operator": "United States Postal Service", "operator:short": "USPS", "operator:type": "public", "operator:wikidata": "Q668687", "ref": "6694800003"}, "type": "Feature"}
{"geometry": {"coordinates": [-98.1536999, 39.670774], "type": "Point"}, "id": "-mKGU3p4-ZBSWjdQ6tbe8dvGTjM=", "properties": {"@source_uri": "https://tools.usps.com/UspsToolsRestServices/rest/POLocator/findLocations", "@spider": "usps_collection_boxes", "addr:city": "JEWELL", "addr:country": "US", "addr:postcode": "66949", "addr:state": "KS", "addr:street_address": "315 MAIN ST", "amenity": "post_box", "collection_times": "Mo-Fr 11:45; Sa 08:45", "nsi_id": "unitedstatespostalservice-a77078", "operator": "United States Postal Service", "operator:short": "USPS", "operator:type": "public", "operator:wikidata": "Q668687", "ref": "6694900001"}, "type": "Feature"}
{"geometry": {"coordinates": [-98.153661, 39.670408], "type": "Point"}, "id": "bIW_89MAIEmXsrkt25kLrqnRPfE=", "properties": {"@source_uri": "https://tools.usps.com/UspsToolsRestServices/rest/POLocator/findLocations", "@spider": "usps_collection_boxes", "addr:city": "JEWELL", "addr:country": "US", "addr:postcode": "66949", "addr:state": "KS", "addr:street_address": "315 MAIN ST", "amenity": "post_box", "collection_times": "Mo-Fr 11:45; Sa 08:45", "indoor": "yes", "nsi_id": "unitedstatespostalservice-a77078", "operator": "United States Postal Service", "operator:short": "USPS", "operator:type": "public", "operator:wikidata": "Q668687", "ref": "6694900002"}, "type": "Feature"}
{"geometry": {"coordinates": [-98.15366272, 39.670403446], "type": "Point"}, "id": "Q5HDm1fAKz0OvG8ad4IIxUFzzT4=", "properties": {"@source_uri": "https://tools.usps.com/UspsToolsRestServices/rest/POLocator/findLocations", "@spider": "usps_collection_boxes", "addr:city": "JEWELL", "addr:country": "US", "addr:postcode": "66949", "addr:state": "KS", "addr:street_address": "315 MAIN ST", "amenity": "post_box", "collection_times": "Mo-Fr 11:45; Sa 08:45", "indoor": "yes", "nsi_id": "unitedstatespostalservice-a77078", "operator": "United States Postal Service", "operator:short": "USPS", "operator:type": "public", "operator:wikidata": "Q668687", "ref": "6694900003"}, "type": "Feature"}
{"geometry": {"coordinates": [-99.031867, 39.765241], "type": "Point"}, "id": "kkTeyjMq5qTqPIDcyZrdofluFFQ=", "properties": {"@source_uri": "https://tools.usps.com/UspsToolsRestServices/rest/POLocator/findLocations", "@spider": "usps_collection_boxes", "addr:city": "KENSINGTON", "addr:country": "US", "addr:postcode": "66951", "addr:state": "KS", "addr:street_address": "201 S MAIN ST", "amenity": "post_box", "collection_times": "Mo-Fr 11:10; Sa 09:45", "nsi_id": "unitedstatespostalservice-a77078", "operator": "United States Postal Service", "operator:short": "USPS", "operator:type": "public", "operator:wikidata": "Q668687", "ref": "6695100001"}, "type": "Feature"}
{"geometry": {"coordinates": [-99.031867, 39.765241], "type": "Point"}, "id": "EfSQvGgnlglzd_sQ10sDVLeEU8s=", "properties": {"@source_uri": "https://tools.usps.com/UspsToolsRestServices/rest/POLocator/findLocations", "@spider": "usps_collection_boxes", "addr:city": "KENSINGTON", "addr:country": "US", "addr:postcode": "66951", "addr:state": "KS", "addr:street_address": "201 S MAIN ST", "amenity": "post_box", "collection_times": "Mo-Fr 11:10; Sa 09:45", "indoor": "yes", "nsi_id": "unitedstatespostalservice-a77078", "operator": "United States Postal Service", "operator:short": "USPS", "operator:type": "public", "operator:wikidata": "Q668687", "ref": "6695100002"}, "type": "Feature"}
{"geometry": {"coordinates": [-99.0318967841, 39.7683177485], "type": "Point"}, "id": "fiOblRawGgLsR5fqQWPelSSJ1f0=", "properties": {"@source_uri": "https://tools.usps.com/UspsToolsRestServices/rest/POLocator/findLocations", "@spider": "usps_collection_boxes", "addr:city": "KENSINGTON", "addr:country": "US", "addr:postcode": "66951", "addr:state": "KS", "addr:street_address": "201 N MAIN ST", "amenity": "post_box", "collection_times": "Mo-Fr 11:10; Sa 09:45", "indoor": "yes", "nsi_id": "unitedstatespostalservice-a77078", "operator": "United States Postal Service", "operator:short": "USPS", "operator:type": "public", "operator:wikidata": "Q668687", "ref": "6695100003"}, "type": "Feature"}
{"geometry": {"coordinates": [-98.555155, 39.80926], "type": "Point"}, "id": "gF7oG7IMoCeXT4Wxe3Yls_MSO00=", "properties": {"@source_uri": "https://tools.usps.com/UspsToolsRestServices/rest/POLocator/findLocations", "@spider": "usps_collection_boxes", "addr:city": "LEBANON", "addr:country": "US", "addr:postcode": "66952", "addr:state": "KS", "addr:street_address": "416 MAIN ST", "amenity": "post_box", "collection_times": "Mo-Fr 11:15; Sa 08:45", "nsi_id": "unitedstatespostalservice-a77078", "operator": "United States Postal Service", "operator:short": "USPS", "operator:type": "public", "operator:wikidata": "Q668687", "ref": "6695200001"}, "type": "Feature"}
{"geometry": {"coordinates": [-98.555155, 39.80926], "type": "Point"}, "id": "LWQl8G9wGsmHE6QnsdB06OFzaKw=", "properties": {"@source_uri": "https://tools.usps.com/UspsToolsRestServices/rest/POLocator/findLocations", "@spider": "usps_collection_boxes", "addr:city": "LEBANON", "addr:country": "US", "addr:postcode": "66952", "addr:state": "KS", "addr:street_address": "416 MAIN ST", "amenity": "post_box", "collection_times": "Mo-Fr 11:15; Sa 08:45", "indoor": "yes", "nsi_id": "unitedstatespostalservice-a77078", "operator": "United States Postal Service", "operator:short": "USPS", "operator:type": "public", "operator:wikidata": "Q668687", "ref": "6695200002"}, "type": "Feature"}
{"geometry": {"coordinates": [-98.555154245, 39.809258497], "type": "Point"}, "id": "ZeyZp4k5gJsPRdkYj7Ke3_izm0U=", "properties": {"@source_uri": "https://tools.usps.com/UspsToolsRestServices/rest/POLocator/findLocations", "@spider": "usps_collection_boxes", "addr:city": "LEBANON", "addr:country": "US", "addr:postcode": "66952", "addr:state": "KS", "addr:street_address": "416 MAIN ST", "amenity": "post_box", "collection_times": "Mo-Fr 11:15; Sa 08:45", "indoor": "yes", "nsi_id": "unitedstatespostalservice-a77078", "operator": "United States Postal Service", "operator:short": "USPS", "operator:type": "public", "operator:wikidata": "Q668687", "ref": "6695200003"}, "type": "Feature"}
{"geometry": {"coordinates": [-97.0847048, 39.679533], "type": "Point"}, "id": "2ayJIAAW-1HxwpRM9sTz0NZRMvI=", "properties": {"@source_uri": "https://tools.usps.com/UspsToolsRestServices/rest/POLocator/findLocations", "@spider": "usps_collection_boxes", "addr:city": "LINN", "addr:country": "US", "addr:postcode": "66953", "addr:state": "KS", "addr:street_address": "501 S OAK ST", "amenity": "post_box", "collection_times": "Mo-Fr 11:15; Sa 09:15", "nsi_id": "unitedstatespostalservice-a77078", "operator": "United States Postal Service", "operator:short": "USPS", "operator:type": "public", "operator:wikidata": "Q668687", "ref": "6695300001"}, "type": "Feature"}
{"geometry": {"coordinates": [-97.0847048, 39.679533], "type": "Point"}, "id": "wM44E7gRFZASrypJ2tZmP0FFVPY=", "properties": {"@source_uri": "https://tools.usps.com/UspsToolsRestServices/rest/POLocator/findLocations", "@spider": "usps_collection_boxes", "addr:city": "LINN", "addr:country": "US", "addr:postcode": "66953", "addr:state": "KS", "addr:street_address": "501 S OAK ST", "amenity": "post_box", "collection_times": "Mo-Fr 11:15; Sa 09:15", "indoor": "yes", "nsi_id": "unitedstatespostalservice-a77078", "operator": "United States Postal Service", "operator:short": "USPS", "operator:type": "public", "operator:wikidata": "Q668687", "ref": "6695300002"}, "type": "Feature"}
{"geometry": {"coordinates": [-97.0847048, 39.679533], "type": "Point"}, "id": "sG4cdHnLjEaaQThxZfK_9pD0aa8=", "properties": {"@source_uri": "https://tools.usps.com/UspsToolsRestServices/rest/POLocator/findLocations", "@spider": "usps_collection_boxes", "addr:city": "LINN", "addr:country": "US", "addr:postcode": "66953", "addr:state": "KS", "addr:street_address": "501 S OAK ST", "amenity": "post_box", "collection_times": "Mo-Fr 11:15; Sa 09:15", "indoor": "yes", "nsi_id": "unitedstatespostalservice-a77078", "operator": "United States Postal Service", "operator:short": "USPS", "operator:type": "public", "operator:wikidata": "Q668687", "ref": "6695300003"}, "type": "Feature"}
{"geometry": {"coordinates": [-97.3537371, 39.989885], "type": "Point"}, "id": "BM0TxftWMLSBAREfpinLM62mmtc=", "properties": {"@source_uri": "https://tools.usps.com/UspsToolsRestServices/rest/POLocator/findLocations", "@spider": "usps_collection_boxes", "addr:city": "MAHASKA", "addr:country": "US", "addr:postcode": "66955", "addr:state": "KS", "addr:street_address": "212 N MAIN ST", "amenity": "post_box", "collection_times": "Mo-Fr 11:20; Sa 08:45", "nsi_id": "unitedstatespostalservice-a77078", "operator": "United States Postal Service", "operator:short": "USPS", "operator:type": "public", "operator:wikidata": "Q668687", "ref": "6695500001"}, "type": "Feature"}
{"geometry": {"coordinates": [-97.353806, 39.98984], "type": "Point"}, "id": "kjOOSAhjsdc9itF7HSUhdVQvFjk=", "properties": {"@source_uri": "https://tools.usps.com/UspsToolsRestServices/rest/POLocator/findLocations", "@spider": "usps_collection_boxes", "addr:city": "MAHASKA", "addr:country": "US", "addr:postcode": "66955", "addr:state": "KS", "addr:street_address": "212 N MAIN ST", "amenity": "post_box", "collection_times": "Mo-Fr 11:30; Sa 08:45", "indoor": "yes", "nsi_id": "unitedstatespostalservice-a77078", "operator": "United States Postal Service", "operator:short": "USPS", "operator:type": "public", "operator:wikidata": "Q668687", "ref": "6695500002"}, "type": "Feature"}
{"geometry": {"coordinates": [-97.353807661, 39.989835587], "type": "Point"}, "id": "O0UdOL-cauf0IlajSJv5ta4gE1M=", "properties": {"@source_uri": "https://tools.usps.com/UspsToolsRestServices/rest/POLocator/findLocations", "@spider": "usps_collection_boxes", "addr:city": "MAHASKA", "addr:country": "US", "addr:postcode": "66955", "addr:state": "KS", "addr:street_address": "212 N MAIN ST", "amenity": "post_box", "collection_times": "Mo-Fr 11:30; Sa 08:45", "indoor": "yes", "nsi_id": "unitedstatespostalservice-a77078", "operator": "United States Postal Service", "operator:short": "USPS", "operator:type": "public", "operator:wikidata": "Q668687", "ref": "6695500003"}, "type": "Feature"}
{"geometry": {"coordinates": [-98.21029, 39.785389], "type": "Point"}, "id": "U-eA8pGqr-C8CxLTXkmYp7BPuRU=", "properties": {"@source_uri": "https://tools.usps.com/UspsToolsRestServices/rest/POLocator/findLocations", "@spider": "usps_collection_boxes", "addr:city": "MANKATO", "addr:country": "US", "addr:postcode": "66956", "addr:state": "KS", "addr:street_address": "109 S COMMERCIAL ST", "amenity": "post_box", "collection_times": "Mo-Fr 11:15; Sa 09:45", "nsi_id": "unitedstatespostalservice-a77078", "operator": "United States Postal Service", "operator:short": "USPS", "operator:type": "public", "operator:wikidata": "Q668687", "ref": "6695600001"}, "type": "Feature"}
{"geometry": {"coordinates": [-98.21029, 39.785389], "type": "Point"}, "id": "G1Azw05dItzs7WyjDkgvWBTGxh0=", "properties": {"@source_uri": "https://tools.usps.com/UspsToolsRestServices/rest/POLocator/findLocations", "@spider": "usps_collection_boxes", "addr:city": "MANKATO", "addr:country": "US", "addr:postcode": "66956", "addr:state": "KS", "addr:street_address": "109 S COMMERCIAL ST", "amenity": "post_box", "collection_times": "Mo-Fr 11:15; Sa 09:45", "indoor": "yes", "nsi_id": "unitedstatespostalservice-a77078", "operator": "United States Postal Service", "operator:short": "USPS", "operator:type": "public", "operator:wikidata": "Q668687", "ref": "6695600002"}, "type": "Feature"}
{"geometry": {"coordinates": [-98.2100087153, 39.7853641152], "type": "Point"}, "id": "wR16NffGrLp3M-tlX_A2lvYicyM=", "properties": {"@source_uri": "https://tools.usps.com/UspsToolsRestServices/rest/POLocator/findLocations", "@spider": "usps_collection_boxes", "addr:city": "MANKATO", "addr:country": "US", "addr:postcode": "66956", "addr:state": "KS", "addr:street_address": "109 S COMMERCIAL ST", "amenity": "post_box", "collection_times": "Mo-Fr 11:15; Sa 09:45", "indoor": "yes", "nsi_id": "unitedstatespostalservice-a77078", "operator": "United States Postal Service", "operator:short": "USPS", "operator:type": "public", "operator:wikidata": "Q668687", "ref": "6695600004"}, "type": "Feature"}
{"geometry": {"coordinates": [-97.173016, 39.84487], "type": "Point"}, "id": "3fPK-Ydq32kI3Xpbn23GxnYgRYk=", "properties": {"@source_uri": "https://tools.usps.com/UspsToolsRestServices/rest/POLocator/findLocations", "@spider": "usps_collection_boxes", "addr:city": "MORROWVILLE", "addr:country": "US", "addr:postcode": "66958", "addr:state": "KS", "addr:street_address": "116 S MAIN ST", "amenity": "post_box", "collection_times": "Mo-Fr 11:15; Sa 10:15", "nsi_id": "unitedstatespostalservice-a77078", "operator": "United States Postal Service", "operator:short": "USPS", "operator:type": "public", "operator:wikidata": "Q668687", "ref": "6695800001"}, "type": "Feature"}
{"geometry": {"coordinates": [-97.173016201, 39.844871665], "type": "Point"}, "id": "OZBfNYoa7nc4VMWk-jEcQp2BlJ4=", "properties": {"@source_uri": "https://tools.usps.com/UspsToolsRestServices/rest/POLocator/findLocations", "@spider": "usps_collection_boxes", "addr:city": "MORROWVILLE", "addr:country": "US", "addr:postcode": "66958", "addr:state": "KS", "addr:street_address": "116 S MAIN ST", "amenity": "post_box", "collection_times": "Mo-Fr 11:15; Sa 10:15", "indoor": "yes", "nsi_id": "unitedstatespostalservice-a77078", "operator": "United States Postal Service", "operator:short": "USPS", "operator:type": "public", "operator:wikidata": "Q668687", "ref": "6695800002"}, "type": "Feature"}
{"geometry": {"coordinates": [-97.173016201, 39.844871665], "type": "Point"}, "id": "jWLjhift7DZjzP7mI88dg2rrKlo=", "properties": {"@source_uri": "https://tools.usps.com/UspsToolsRestServices/rest/POLocator/findLocations", "@spider": "usps_collection_boxes", "addr:city": "MORROWVILLE", "addr:country": "US", "addr:postcode": "66958", "addr:state": "KS", "addr:street_address": "116 S MAIN ST", "amenity": "post_box", "collection_times": "Mo-Fr 11:15; Sa 10:15", "indoor": "yes", "nsi_id": "unitedstatespostalservice-a77078", "operator": "United States Postal Service", "operator:short": "USPS", "operator:type": "public", "operator:wikidata": "Q668687", "ref": "6695800003"}, "type": "Feature"}
{"geometry": {"coordinates": [-97.538117, 39.913451], "type": "Point"}, "id": "hUj7TqiDHIfzVAURD3uTzR6_F54=", "properties": {"@source_uri": "https://tools.usps.com/UspsToolsRestServices/rest/POLocator/findLocations", "@spider": "usps_collection_boxes", "addr:city": "MUNDEN", "addr:country": "US", "addr:postcode": "66959", "addr:state": "KS", "addr:street_address": "106 S MAIN ST", "amenity": "post_box", "collection_times": "Mo-Fr 09:45; Sa 08:45", "nsi_id": "unitedstatespostalservice-a77078", "operator": "United States Postal Service", "operator:short": "USPS", "operator:type": "public", "operator:wikidata": "Q668687", "ref": "6695900001"}, "type": "Feature"}
{"geometry": {"coordinates": [-97.538117, 39.913451], "type": "Point"}, "id": "7qYIo2YEhFUaX8bG92v3ZuskBqk=", "properties": {"@source_uri": "https://tools.usps.com/UspsToolsRestServices/rest/POLocator/findLocations", "@spider": "usps_collection_boxes", "addr:city": "MUNDEN", "addr:country": "US", "addr:postcode": "66959", "addr:state": "KS", "addr:street_address": "106 S MAIN ST", "amenity": "post_box", "collection_times": "Mo-Fr 09:45; Sa 08:45", "indoor": "yes", "nsi_id": "unitedstatespostalservice-a77078", "operator": "United States Postal Service", "operator:short": "USPS", "operator:type": "public", "operator:wikidata": "Q668687", "ref": "6695900002"}, "type": "Feature"}
{"geometry": {"coordinates": [-97.538117325, 39.913469665], "type": "Point"}, "id": "_8F0wepHyKXVPaAApMUwDPU8Kxs=", "properties": {"@source_uri": "https://tools.usps.com/UspsToolsRestServices/rest/POLocator/findLocations", "@spider": "usps_collection_boxes", "addr:city": "MUNDEN", "addr:country": "US", "addr:postcode": "66959", "addr:state": "KS", "addr:street_address": "106 S MAIN ST", "amenity": "post_box", "collection_times": "Mo-Fr 09:45; Sa 08:45", "indoor": "yes", "nsi_id": "unitedstatespostalservice-a77078", "operator": "United States Postal Service", "operator:short": "USPS", "operator:type": "public", "operator:wikidata": "Q668687", "ref": "6695900003"}, "type": "Feature"}
{"geometry": {"coordinates": [-97.428281, 39.961196], "type": "Point"}, "id": "oeZt95E56IjqiyyQFcP0s9JnDgg=", "properties": {"@source_uri": "https://tools.usps.com/UspsToolsRestServices/rest/POLocator/findLocations", "@spider": "usps_collection_boxes", "addr:city": "NARKA", "addr:country": "US", "addr:postcode": "66960", "addr:state": "KS", "addr:street_address": "100 MAIN ST", "amenity": "post_box", "collection_times": "Mo-Fr 09:45; Sa 08:45", "nsi_id": "unitedstatespostalservice-a77078", "operator": "United States Postal Service", "operator:short": "USPS", "operator:type": "public", "operator:wikidata": "Q668687", "ref": "6696000001"}, "type": "Feature"}
{"geometry": {"coordinates": [-97.428281, 39.961196], "type": "Point"}, "id": "kuE03dRXmd7y8z37yY6gwlEWaq0=", "properties": {"@source_uri": "https://tools.usps.com/UspsToolsRestServices/rest/POLocator/findLocations", "@spider": "usps_collection_boxes", "addr:city": "NARKA", "addr:country": "US", "addr:postcode": "66960", "addr:state": "KS", "addr:street_address": "100 MAIN ST", "amenity": "post_box", "collection_times": "Mo-Fr 09:45; Sa 08:45", "indoor": "yes", "nsi_id": "unitedstatespostalservice-a77078", "operator": "United States Postal Service", "operator:short": "USPS", "operator:type": "public", "operator:wikidata": "Q668687", "ref": "6696000002"}, "type": "Feature"}
{"geometry": {"coordinates": [-97.42828272, 39.961230457], "type": "Point"}, "id": "QIUzH6I9bgCt93A9dTwrzLT7Cwk=", "properties": {"@source_uri": "https://tools.usps.com/UspsToolsRestServices/rest/POLocator/findLocations", "@spider": "usps_collection_boxes", "addr:city": "NARKA", "addr:country": "US", "addr:postcode": "66960", "addr:state": "KS", "addr:street_address": "100 MAIN ST", "amenity": "post_box", "collection_times": "Mo-Fr 09:45; Sa 08:45", "indoor": "yes", "nsi_id": "unitedstatespostalservice-a77078", "operator": "United States Postal Service", "operator:short": "USPS", "operator:type": "public", "operator:wikidata": "Q668687", "ref": "6696000003"}, "type": "Feature"}
{"geometry": {"coordinates": [-97.1394999, 39.631838], "type": "Point"}, "id": "EwcaWb_ZTKuT8Vi-Qwhab3ItJa4=", "properties": {"@source_uri": "https://tools.usps.com/UspsToolsRestServices/rest/POLocator/findLocations", "@spider": "usps_collection_boxes", "addr:city": "PALMER", "addr:country": "US", "addr:postcode": "66962", "addr:state": "KS", "addr:street_address": "101 E 2ND ST", "amenity": "post_box", "collection_times": "Mo-Fr 11:45; Sa 09:00", "nsi_id": "unitedstatespostalservice-a77078", "operator": "United States Postal Service", "operator:short": "USPS", "operator:type": "public", "operator:wikidata": "Q668687", "ref": "6696200001"}, "type": "Feature"}
{"geometry": {"coordinates": [-97.139385, 39.631757], "type": "Point"}, "id": "5e7pWxLROz4RxOSE11STsLhYC0E=", "properties": {"@source_uri": "https://tools.usps.com/UspsToolsRestServices/rest/POLocator/findLocations", "@spider": "usps_collection_boxes", "addr:city": "PALMER", "addr:country": "US", "addr:postcode": "66962", "addr:state": "KS", "addr:street_address": "101 E 2ND ST", "amenity": "post_box", "collection_times": "Mo-Fr 11:45; Sa 09:00", "indoor": "yes", "nsi_id": "unitedstatespostalservice-a77078", "operator": "United States Postal Service", "operator:short": "USPS", "operator:type": "public", "operator:wikidata": "Q668687", "ref": "6696200002"}, "type": "Feature"}
{"geometry": {"coordinates": [-97.139385032, 39.631754954], "type": "Point"}, "id": "argx1hGBu0BEgnBZJfoldidHxIQ=", "properties": {"@source_uri": "https://tools.usps.com/UspsToolsRestServices/rest/POLocator/findLocations", "@spider": "usps_collection_boxes", "addr:city": "PALMER", "addr:country": "US", "addr:postcode": "66962", "addr:state": "KS", "addr:street_address": "101 E 2ND ST", "amenity": "post_box", "collection_times": "Mo-Fr 11:45; Sa 09:00", "indoor": "yes", "nsi_id": "unitedstatespostalservice-a77078", "operator": "United States Postal Service", "operator:short": "USPS", "operator:type": "public", "operator:wikidata": "Q668687", "ref": "6696200003"}, "type": "Feature"}
{"geometry": {"coordinates": [-98.0438719, 39.640838], "type": "Point"}, "id": "Nd-1T1jTo-mUNyn2qnyhxYz9DF8=", "properties": {"@source_uri": "https://tools.usps.com/UspsToolsRestServices/rest/POLocator/findLocations", "@spider": "usps_collection_boxes", "addr:city": "RANDALL", "addr:country": "US", "addr:postcode": "66963", "addr:state": "KS", "addr:street_address": "105 MAIN ST", "amenity": "post_box", "collection_times": "Mo-Fr 09:45; Sa 08:45", "nsi_id": "unitedstatespostalservice-a77078", "operator": "United States Postal Service", "operator:short": "USPS", "operator:type": "public", "operator:wikidata": "Q668687", "ref": "6696300001"}, "type": "Feature"}
{"geometry": {"coordinates": [-98.043744, 39.641278], "type": "Point"}, "id": "OUcY0ebAjhTbTcHaSZJlf2AFn6w=", "properties": {"@source_uri": "https://tools.usps.com/UspsToolsRestServices/rest/POLocator/findLocations", "@spider": "usps_collection_boxes", "addr:city": "RANDALL", "addr:country": "US", "addr:postcode": "66963", "addr:state": "KS", "addr:street_address": "105 MAIN ST", "amenity": "post_box", "collection_times": "Mo-Fr 09:45; Sa 08:45", "indoor": "yes", "nsi_id": "unitedstatespostalservice-a77078", "operator": "United States Postal Service", "operator:short": "USPS", "operator:type": "public", "operator:wikidata": "Q668687", "ref": "6696300002"}, "type": "Feature"}
{"geometry": {"coordinates": [-98.043877242, 39.640394963], "type": "Point"}, "id": "7QkA7_3laE11_Mtk8tpKPGraf6I=", "properties": {"@source_uri": "https://tools.usps.com/UspsToolsRestServices/rest/POLocator/findLocations", "@spider": "usps_collection_boxes", "addr:city": "RANDALL", "addr:country": "US", "addr:postcode": "66963", "addr:state": "KS", "addr:street_address": "105 MAIN ST", "amenity": "post_box", "collection_times": "Mo-Fr 09:45; Sa 08:45", "indoor": "yes", "nsi_id": "unitedstatespostalservice-a77078", "operator": "United States Postal Service", "operator:short": "USPS", "operator:type": "public", "operator:wikidata": "Q668687", "ref": "6696300003"}, "type": "Feature"}
{"geometry": {"coordinates": [-97.824931, 39.922967], "type": "Point"}, "id": "lq-_-4xXnEtNZsxO694IcDdlYRY=", "properties": {"@source_uri": "https://tools.usps.com/UspsToolsRestServices/rest/POLocator/findLocations", "@spider": "usps_collection_boxes", "addr:city": "REPUBLIC", "addr:country": "US", "addr:postcode": "66964", "addr:state": "KS", "addr:street_address": "413 MAIN ST", "amenity": "post_box", "collection_times": "Mo-Fr 11:10; Sa 10:30", "nsi_id": "unitedstatespostalservice-a77078", "operator": "United States Postal Service", "operator:short": "USPS", "operator:type": "public", "operator:wikidata": "Q668687", "ref": "6696400001"}, "type": "Feature"}
{"geometry": {"coordinates": [-97.824931, 39.922967], "type": "Point"}, "id": "BMWZ-Nj39C7PHa8nih8qJwam6tw=", "properties": {"@source_uri": "https://tools.usps.com/UspsToolsRestServices/rest/POLocator/findLocations", "@spider": "usps_collection_boxes", "addr:city": "REPUBLIC", "addr:country": "US", "addr:postcode": "66964", "addr:state": "KS", "addr:street_address": "413 MAIN ST", "amenity": "post_box", "collection_times": "Mo-Fr 11:10; Sa 10:30", "indoor": "yes", "nsi_id": "unitedstatespostalservice-a77078", "operator": "United States Postal Service", "operator:short": "USPS", "operator:type": "public", "operator:wikidata": "Q668687", "ref": "6696400002"}, "type": "Feature"}
{"geometry": {"coordinates": [-97.824934226, 39.922964453], "type": "Point"}, "id": "rdShFZ_cY_QUAyLM_HERMoEVWFw=", "properties": {"@source_uri": "https://tools.usps.com/UspsToolsRestServices/rest/POLocator/findLocations", "@spider": "usps_collection_boxes", "addr:city": "REPUBLIC", "addr:country": "US", "addr:postcode": "66964", "addr:state": "KS", "addr:street_address": "413 MAIN ST", "amenity": "post_box", "collection_times": "Mo-Fr 11:10; Sa 10:30", "indoor": "yes", "nsi_id": "unitedstatespostalservice-a77078", "operator": "United States Postal Service", "operator:short": "USPS", "operator:type": "public", "operator:wikidata": "Q668687", "ref": "6696400003"}, "type": "Feature"}
{"geometry": {"coordinates": [-97.78536, 39.796247], "type": "Point"}, "id": "EGXth-V1VieqhOEXtMozlVMO1ow=", "properties": {"@source_uri": "https://tools.usps.com/UspsToolsRestServices/rest/POLocator/findLocations", "@spider": "usps_collection_boxes", "addr:city": "SCANDIA", "addr:country": "US", "addr:postcode": "66966", "addr:state": "KS", "addr:street_address": "300 4TH ST", "amenity": "post_box", "collection_times": "Mo-Fr 11:45; Sa 08:45", "nsi_id": "unitedstatespostalservice-a77078", "operator": "United States Postal Service", "operator:short": "USPS", "operator:type": "public", "operator:wikidata": "Q668687", "ref": "6696600001"}, "type": "Feature"}
{"geometry": {"coordinates": [-97.78536, 39.796247], "type": "Point"}, "id": "N8dsjqFYVILXy-KpdinQjOt-cPs=", "properties": {"@source_uri": "https://tools.usps.com/UspsToolsRestServices/rest/POLocator/findLocations", "@spider": "usps_collection_boxes", "addr:city": "SCANDIA", "addr:country": "US", "addr:postcode": "66966", "addr:state": "KS", "addr:street_address": "300 4TH ST", "amenity": "post_box", "collection_times": "Mo-Fr 11:45; Sa 08:45", "indoor": "yes", "nsi_id": "unitedstatespostalservice-a77078", "operator": "United States Postal Service", "operator:short": "USPS", "operator:type": "public", "operator:wikidata": "Q668687", "ref": "6696600002"}, "type": "Feature"}
{"geometry": {"coordinates": [-97.7853598324, 39.7962465076], "type": "Point"}, "id": "hq_vz-lWsFyU90FEuictYxWS9pc=", "properties": {"@source_uri": "https://tools.usps.com/UspsToolsRestServices/rest/POLocator/findLocations", "@spider": "usps_collection_boxes", "addr:city": "SCANDIA", "addr:country": "US", "addr:postcode": "66966", "addr:state": "KS", "addr:street_address": "300 4TH ST", "amenity": "post_box", "collection_times": "Mo-Fr 11:45; Sa 08:45", "indoor": "yes", "nsi_id": "unitedstatespostalservice-a77078", "operator": "United States Postal Service", "operator:short": "USPS", "operator:type": "public", "operator:wikidata": "Q668687", "ref": "6696600003"}, "type": "Feature"}
{"geometry": {"coordinates": [-98.7847828324, 39.7766525035], "type": "Point"}, "id": "UBMq7dIPm7c8tQsp-qRrafRWagA=", "properties": {"@source_uri": "https://tools.usps.com/UspsToolsRestServices/rest/POLocator/findLocations", "@spider": "usps_collection_boxes", "addr:city": "SMITH CENTER", "addr:country": "US", "addr:postcode": "66967", "addr:state": "KS", "addr:street_address": "119 E COURT ST", "amenity": "post_box", "collection_times": "Mo-Fr 11:15; Sa 09:45", "nsi_id": "unitedstatespostalservice-a77078", "operator": "United States Postal Service", "operator:short": "USPS", "operator:type": "public", "operator:wikidata": "Q668687", "ref": "6696700001"}, "type": "Feature"}
{"geometry": {"coordinates": [-98.7847828324, 39.7766525035], "type": "Point"}, "id": "35GCe7Wn8bk1Lik9lI4c3MiuFos=", "properties": {"@source_uri": "https://tools.usps.com/UspsToolsRestServices/rest/POLocator/findLocations", "@spider": "usps_collection_boxes", "addr:city": "SMITH CENTER", "addr:country": "US", "addr:postcode": "66967", "addr:state": "KS", "addr:street_address": "119 E COURT ST", "amenity": "post_box", "collection_times": "Mo-Fr 11:15; Sa 09:45", "indoor": "yes", "nsi_id": "unitedstatespostalservice-a77078", "operator": "United States Postal Service", "operator:short": "USPS", "operator:type": "public", "operator:wikidata": "Q668687", "ref": "6696700005"}, "type": "Feature"}
{"geometry": {"coordinates": [-98.7847828324, 39.7766525035], "type": "Point"}, "id": "mo8VZXFowZZrUvjusMAwDkH0P9U=", "properties": {"@source_uri": "https://tools.usps.com/UspsToolsRestServices/rest/POLocator/findLocations", "@spider": "usps_collection_boxes", "addr:city": "SMITH CENTER", "addr:country": "US", "addr:postcode": "66967", "addr:state": "KS", "addr:street_address": "119 E COURT ST", "amenity": "post_box", "collection_times": "Mo-Fr 11:15; Sa 09:45", "indoor": "yes", "nsi_id": "unitedstatespostalservice-a77078", "operator": "United States Postal Service", "operator:short": "USPS", "operator:type": "public", "operator:wikidata": "Q668687", "ref": "6696700006"}, "type": "Feature"}
{"geometry": {"coordinates": [-97.0514476, 39.817422], "type": "Point"}, "id": "3HhK3eKeOCSBrfmFt8HKJj-wWWM=", "properties": {"@source_uri": "https://tools.usps.com/UspsToolsRestServices/rest/POLocator/findLocations", "@spider": "usps_collection_boxes", "addr:city": "WASHINGTON", "addr:country": "US", "addr:postcode": "66968", "addr:state": "KS", "addr:street_address": "301 C ST", "amenity": "post_box", "collection_times": "Mo-Sa 12:00", "nsi_id": "unitedstatespostalservice-a77078", "operator": "United States Postal Service", "operator:short": "USPS", "operator:type": "public", "operator:wikidata": "Q668687", "ref": "6696800001"}, "type": "Feature"}
{"geometry": {"coordinates": [-97.050962, 39.819522], "type": "Point"}, "id": "9AyUuQcSN0vPOCTbQfxCWnNJxJU=", "properties": {"@source_uri": "https://tools.usps.com/UspsToolsRestServices/rest/POLocator/findLocations", "@spider": "usps_collection_boxes", "addr:city": "WASHINGTON", "addr:country": "US", "addr:postcode": "66968", "addr:state": "KS", "addr:street_address": "100 C ST", "amenity": "post_box", "collection_times": "Mo-Fr 12:00; Sa 09:45", "nsi_id": "unitedstatespostalservice-a77078", "operator": "United States Postal Service", "operator:short": "USPS", "operator:type": "public", "operator:wikidata": "Q668687", "ref": "6696800005"}, "type": "Feature"}
{"geometry": {"coordinates": [-98.035409, 39.931852], "type": "Point"}, "id": "z4M0jGmLhBSgbGol7fj9wKy1R6Q=", "properties": {"@source_uri": "https://tools.usps.com/UspsToolsRestServices/rest/POLocator/findLocations", "@spider": "usps_collection_boxes", "addr:city": "WEBBER", "addr:country": "US", "addr:postcode": "66970", "addr:state": "KS", "addr:street_address": "202 LAMM ST", "amenity": "post_box", "collection_times": "Mo-Sa 09:15", "nsi_id": "unitedstatespostalservice-a77078", "operator": "United States Postal Service", "operator:short": "USPS", "operator:type": "public", "operator:wikidata": "Q668687", "ref": "6697000001"}, "type": "Feature"}
{"geometry": {"coordinates": [-98.035409, 39.931852], "type": "Point"}, "id": "yn56ApoQ_h0FimliLWTEFzwaqqM=", "properties": {"@source_uri": "https://tools.usps.com/UspsToolsRestServices/rest/POLocator/findLocations", "@spider": "usps_collection_boxes", "addr:city": "WEBBER", "addr:country": "US", "addr:postcode": "66970", "addr:state": "KS", "addr:street_address": "202 LAMM ST", "amenity": "post_box", "collection_times": "Mo-Sa 09:15", "indoor": "yes", "nsi_id": "unitedstatespostalservice-a77078", "operator": "United States Postal Service", "operator:short": "USPS", "operator:type": "public", "operator:wikidata": "Q668687", "ref": "6697000002"}, "type": "Feature"}
{"geometry": {"coordinates": [-98.035516281, 39.934286717], "type": "Point"}, "id": "Kx3MLACMD5qkwxyxok4ASuqmnH8=", "properties": {"@source_uri": "https://tools.usps.com/UspsToolsRestServices/rest/POLocator/findLocations", "@spider": "usps_collection_boxes", "addr:city": "WEBBER", "addr:country": "US", "addr:postcode": "66970", "addr:state": "KS", "addr:street_address": "202 LAMM ST", "amenity": "post_box", "collection_times": "Mo-Sa 09:15", "indoor": "yes", "nsi_id": "unitedstatespostalservice-a77078", "operator": "United States Postal Service", "operator:short": "USPS", "operator:type": "public", "operator:wikidata": "Q668687", "ref": "6697000003"}, "type": "Feature"}
