{"geometry": {"coordinates": [-97.6300882, 37.791117671], "type": "Point"}, "id": "IkVHOYz1jGI6yGN1bsigqY0Ja8Q=", "properties": {"@source_uri": "https://tools.usps.com/UspsToolsRestServices/rest/POLocator/findLocations", "@spider": "usps_collection_boxes", "addr:city": "ANDALE", "addr:country": "US", "addr:postcode": "67001", "addr:state": "KS", "addr:street_address": "318 N MAIN ST", "amenity": "post_box", "brand": "United States Postal Service", "brand:wikidata": "Q668687", "collection_times": "Mo-Fr 14:15; Sa 10:15", "note": "ON 12/24 AND 12/31, THIS BOX MAY BE COLLECTED AS EARLY AS 12 NOON.", "nsi_id": "unitedstatespostalservice-a77078", "operator": "United States Postal Service", "operator:short": "USPS", "operator:type": "public", "operator:wikidata": "Q668687", "ref": "6700100001"}, "type": "Feature"}
{"geometry": {"coordinates": [-97.6298470132, 37.7911350167], "type": "Point"}, "id": "e0VZAqcCXkTjN5P7IZ3zh8kzwVg=", "properties": {"@source_uri": "https://tools.usps.com/UspsToolsRestServices/rest/POLocator/findLocations", "@spider": "usps_collection_boxes", "addr:city": "ANDALE", "addr:country": "US", "addr:postcode": "67001", "addr:state": "KS", "addr:street_address": "318 N MAIN ST", "amenity": "post_box", "brand": "United States Postal Service", "brand:wikidata": "Q668687", "collection_times": "Mo-Fr 14:15; Sa 10:15", "indoor": "yes", "note": "ON 12/24 AND 12/31, THIS BOX MAY BE COLLECTED AS EARLY AS 12 NOON.", "nsi_id": "unitedstatespostalservice-a77078", "operator": "United States Postal Service", "operator:short": "USPS", "operator:type": "public", "operator:wikidata": "Q668687", "ref": "6700100002"}, "type": "Feature"}
{"geometry": {"coordinates": [-97.6298470132, 37.7911350167], "type": "Point"}, "id": "n1iEU-J6dy5fFNy-PJtNdHLlGtA=", "properties": {"@source_uri": "https://tools.usps.com/UspsToolsRestServices/rest/POLocator/findLocations", "@spider": "usps_collection_boxes", "addr:city": "ANDALE", "addr:country": "US", "addr:postcode": "67001", "addr:state": "KS", "addr:street_address": "318 N MAIN ST", "amenity": "post_box", "brand": "United States Postal Service", "brand:wikidata": "Q668687", "collection_times": "Mo-Fr 14:15; Sa 10:15", "indoor": "yes", "note": "ON 12/24 AND 12/31, THIS BOX MAY BE COLLECTED AS EARLY AS 12 NOON.", "nsi_id": "unitedstatespostalservice-a77078", "operator": "United States Postal Service", "operator:short": "USPS", "operator:type": "public", "operator:wikidata": "Q668687", "ref": "6700100003"}, "type": "Feature"}
{"geometry": {"coordinates": [-97.135832, 37.688999], "type": "Point"}, "id": "xw3piTAjeOxO6QjQojvf8He7QBw=", "properties": {"@source_uri": "https://tools.usps.com/UspsToolsRestServices/rest/POLocator/findLocations", "@spider": "usps_collection_boxes", "addr:city": "ANDOVER", "addr:country": "US", "addr:postcode": "67002", "addr:state": "KS", "addr:street_address": "211 N ANDOVER RD", "amenity": "post_box", "brand": "United States Postal Service", "brand:wikidata": "Q668687", "collection_times": "Mo-Fr 16:15; Sa 11:45", "note": "ON 12/24 AND 12/31, THIS BOX MAY BE COLLECTED AS EARLY AS 12 NOON.", "nsi_id": "unitedstatespostalservice-a77078", "operator": "United States Postal Service", "operator:short": "USPS", "operator:type": "public", "operator:wikidata": "Q668687", "ref": "6700200003"}, "type": "Feature"}
{"geometry": {"coordinates": [-97.135832, 37.688999], "type": "Point"}, "id": "9NQ9_VKspfnFuO5vI1f69rIa4EU=", "properties": {"@source_uri": "https://tools.usps.com/UspsToolsRestServices/rest/POLocator/findLocations", "@spider": "usps_collection_boxes", "addr:city": "ANDOVER", "addr:country": "US", "addr:postcode": "67002", "addr:state": "KS", "addr:street_address": "211 N ANDOVER RD", "amenity": "post_box", "brand": "United States Postal Service", "brand:wikidata": "Q668687", "collection_times": "Mo-Fr 16:15; Sa 11:45", "indoor": "yes", "note": "ON 12/24 AND 12/31, THIS BOX MAY BE COLLECTED AS EARLY AS 12 NOON.", "nsi_id": "unitedstatespostalservice-a77078", "operator": "United States Postal Service", "operator:short": "USPS", "operator:type": "public", "operator:wikidata": "Q668687", "ref": "6700200004"}, "type": "Feature"}
{"geometry": {"coordinates": [-97.1352458376, 37.6804745312], "type": "Point"}, "id": "hgjvBjGFRos7_lbrZAa4jwn_RnM=", "properties": {"@source_uri": "https://tools.usps.com/UspsToolsRestServices/rest/POLocator/findLocations", "@spider": "usps_collection_boxes", "addr:city": "ANDOVER", "addr:country": "US", "addr:postcode": "67002", "addr:state": "KS", "addr:street_address": "426 S ANDOVER RD", "amenity": "post_box", "brand": "United States Postal Service", "brand:wikidata": "Q668687", "collection_times": "Mo-Sa 12:00", "nsi_id": "unitedstatespostalservice-a77078", "operator": "United States Postal Service", "operator:short": "USPS", "operator:type": "public", "operator:wikidata": "Q668687", "ref": "6700200006"}, "type": "Feature"}
{"geometry": {"coordinates": [-97.135288717, 37.688930277], "type": "Point"}, "id": "4aBFdRp8JxA3YPrDyo192IMPTq4=", "properties": {"@source_uri": "https://tools.usps.com/UspsToolsRestServices/rest/POLocator/findLocations", "@spider": "usps_collection_boxes", "addr:city": "ANDOVER", "addr:country": "US", "addr:postcode": "67002", "addr:state": "KS", "addr:street_address": "211 N ANDOVER RD", "amenity": "post_box", "brand": "United States Postal Service", "brand:wikidata": "Q668687", "collection_times": "Mo-Fr 16:15; Sa 11:45", "indoor": "yes", "note": "ON 12/24 AND 12/31, THIS BOX MAY BE COLLECTED AS EARLY AS 12 NOON.", "nsi_id": "unitedstatespostalservice-a77078", "operator": "United States Postal Service", "operator:short": "USPS", "operator:type": "public", "operator:wikidata": "Q668687", "ref": "6700200009"}, "type": "Feature"}
{"geometry": {"coordinates": [-98.031113612, 37.153302504], "type": "Point"}, "id": "FLV-gxXDSC5Toy9GNW-dV-fUF5Y=", "properties": {"@source_uri": "https://tools.usps.com/UspsToolsRestServices/rest/POLocator/findLocations", "@spider": "usps_collection_boxes", "addr:city": "ANTHONY", "addr:country": "US", "addr:postcode": "67003", "addr:state": "KS", "addr:street_address": "121 W STEADMAN ST", "amenity": "post_box", "brand": "United States Postal Service", "brand:wikidata": "Q668687", "collection_times": "Mo-Fr 16:45; Sa 10:45", "note": "ON 12/24 AND 12/31, THIS BOX MAY BE COLLECTED AS EARLY AS 12 NOON.", "nsi_id": "unitedstatespostalservice-a77078", "operator": "United States Postal Service", "operator:short": "USPS", "operator:type": "public", "operator:wikidata": "Q668687", "ref": "6700300005"}, "type": "Feature"}
{"geometry": {"coordinates": [-98.030381, 37.153309], "type": "Point"}, "id": "ZdC1EJVmkZUXml-gTxJLGJqkdqA=", "properties": {"@source_uri": "https://tools.usps.com/UspsToolsRestServices/rest/POLocator/findLocations", "@spider": "usps_collection_boxes", "addr:city": "ANTHONY", "addr:country": "US", "addr:postcode": "67003", "addr:state": "KS", "addr:street_address": "121 W STEADMAN ST", "amenity": "post_box", "brand": "United States Postal Service", "brand:wikidata": "Q668687", "collection_times": "Mo-Fr 16:45; Sa 10:45", "indoor": "yes", "note": "ON 12/24 AND 12/31, THIS BOX MAY BE COLLECTED AS EARLY AS 12 NOON.", "nsi_id": "unitedstatespostalservice-a77078", "operator": "United States Postal Service", "operator:short": "USPS", "operator:type": "public", "operator:wikidata": "Q668687", "ref": "6700300006"}, "type": "Feature"}
{"geometry": {"coordinates": [-98.0311136123, 37.1533025043], "type": "Point"}, "id": "ZqHLofRl2UmyOjBG_jU-bV9eNHk=", "properties": {"@source_uri": "https://tools.usps.com/UspsToolsRestServices/rest/POLocator/findLocations", "@spider": "usps_collection_boxes", "addr:city": "ANTHONY", "addr:country": "US", "addr:postcode": "67003", "addr:state": "KS", "addr:street_address": "121 W STEADMAN ST", "amenity": "post_box", "brand": "United States Postal Service", "brand:wikidata": "Q668687", "collection_times": "Mo-Fr 16:45; Sa 10:45", "indoor": "yes", "note": "ON 12/24 AND 12/31, THIS BOX MAY BE COLLECTED AS EARLY AS 12 NOON.", "nsi_id": "unitedstatespostalservice-a77078", "operator": "United States Postal Service", "operator:short": "USPS", "operator:type": "public", "operator:wikidata": "Q668687", "ref": "6700300008"}, "type": "Feature"}
{"geometry": {"coordinates": [-97.765557991, 37.265265], "type": "Point"}, "id": "JD1JOYtjpvPdBW82pcsDdWt228A=", "properties": {"@source_uri": "https://tools.usps.com/UspsToolsRestServices/rest/POLocator/findLocations", "@spider": "usps_collection_boxes", "addr:city": "ARGONIA", "addr:country": "US", "addr:postcode": "67004", "addr:state": "KS", "addr:street_address": "111 S MAIN ST", "amenity": "post_box", "brand": "United States Postal Service", "brand:wikidata": "Q668687", "collection_times": "Mo-Fr 11:00; Sa 09:45", "nsi_id": "unitedstatespostalservice-a77078", "operator": "United States Postal Service", "operator:short": "USPS", "operator:type": "public", "operator:wikidata": "Q668687", "ref": "6700400001"}, "type": "Feature"}
{"geometry": {"coordinates": [-97.765557991, 37.265265], "type": "Point"}, "id": "g5yITJWR_A2kKyBxLQvy48g4Rc4=", "properties": {"@source_uri": "https://tools.usps.com/UspsToolsRestServices/rest/POLocator/findLocations", "@spider": "usps_collection_boxes", "addr:city": "ARGONIA", "addr:country": "US", "addr:postcode": "67004", "addr:state": "KS", "addr:street_address": "111 S MAIN ST", "amenity": "post_box", "brand": "United States Postal Service", "brand:wikidata": "Q668687", "collection_times": "Mo-Fr 11:00; Sa 09:45", "indoor": "yes", "nsi_id": "unitedstatespostalservice-a77078", "operator": "United States Postal Service", "operator:short": "USPS", "operator:type": "public", "operator:wikidata": "Q668687", "ref": "6700400002"}, "type": "Feature"}
{"geometry": {"coordinates": [-97.765557991, 37.265265], "type": "Point"}, "id": "FsEdubtDoLk73g5XacGrtvbFrkg=", "properties": {"@source_uri": "https://tools.usps.com/UspsToolsRestServices/rest/POLocator/findLocations", "@spider": "usps_collection_boxes", "addr:city": "ARGONIA", "addr:country": "US", "addr:postcode": "67004", "addr:state": "KS", "addr:street_address": "111 S MAIN ST", "amenity": "post_box", "brand": "United States Postal Service", "brand:wikidata": "Q668687", "collection_times": "Mo-Fr 11:00; Sa 09:45", "indoor": "yes", "nsi_id": "unitedstatespostalservice-a77078", "operator": "United States Postal Service", "operator:short": "USPS", "operator:type": "public", "operator:wikidata": "Q668687", "ref": "6700400003"}, "type": "Feature"}
{"geometry": {"coordinates": [-97.0372949899, 37.0601030146], "type": "Point"}, "id": "PPj7UKj0jtHVyOGe9mU6zj4Di_M=", "properties": {"@source_uri": "https://tools.usps.com/UspsToolsRestServices/rest/POLocator/findLocations", "@spider": "usps_collection_boxes", "addr:city": "ARKANSAS CITY", "addr:country": "US", "addr:postcode": "67005", "addr:state": "KS", "addr:street_address": "210 E WASHINGTON AVE", "amenity": "post_box", "brand": "United States Postal Service", "brand:wikidata": "Q668687", "collection_times": "Mo-Fr 16:30; Sa 11:30", "note": "ON 12/24 AND 12/31, THIS BOX MAY BE COLLECTED AS EARLY AS 12 NOON.", "nsi_id": "unitedstatespostalservice-a77078", "operator": "United States Postal Service", "operator:short": "USPS", "operator:type": "public", "operator:wikidata": "Q668687", "ref": "6700500006"}, "type": "Feature"}
{"geometry": {"coordinates": [-97.0404219, 37.08675], "type": "Point"}, "id": "v-GK1J--FGYrTQ_sOpzw6_S51QY=", "properties": {"@source_uri": "https://tools.usps.com/UspsToolsRestServices/rest/POLocator/findLocations", "@spider": "usps_collection_boxes", "addr:city": "ARKANSAS CITY", "addr:country": "US", "addr:postcode": "67005", "addr:state": "KS", "addr:street_address": "2147 N SUMMIT ST", "amenity": "post_box", "brand": "United States Postal Service", "brand:wikidata": "Q668687", "collection_times": "Mo-Sa 11:00", "nsi_id": "unitedstatespostalservice-a77078", "operator": "United States Postal Service", "operator:short": "USPS", "operator:type": "public", "operator:wikidata": "Q668687", "ref": "6700500008"}, "type": "Feature"}
{"geometry": {"coordinates": [-97.037333277, 37.059942475], "type": "Point"}, "id": "p_hgcfYOY67vqwhFy0sK1zbRSHc=", "properties": {"@source_uri": "https://tools.usps.com/UspsToolsRestServices/rest/POLocator/findLocations", "@spider": "usps_collection_boxes", "addr:city": "ARKANSAS CITY", "addr:country": "US", "addr:postcode": "67005", "addr:state": "KS", "addr:street_address": "210 E WASHINGTON AVE", "amenity": "post_box", "brand": "United States Postal Service", "brand:wikidata": "Q668687", "collection_times": "Mo-Fr 16:30; Sa 15:00", "indoor": "yes", "note": "ON 12/24 AND 12/31, THIS BOX MAY BE COLLECTED AS EARLY AS 12 NOON.", "nsi_id": "unitedstatespostalservice-a77078", "operator": "United States Postal Service", "operator:short": "USPS", "operator:type": "public", "operator:wikidata": "Q668687", "ref": "6700500009"}, "type": "Feature"}
{"geometry": {"coordinates": [-97.037333277, 37.059942475], "type": "Point"}, "id": "_MlW0IQewyd8HJkippyimayLijY=", "properties": {"@source_uri": "https://tools.usps.com/UspsToolsRestServices/rest/POLocator/findLocations", "@spider": "usps_collection_boxes", "addr:city": "ARKANSAS CITY", "addr:country": "US", "addr:postcode": "67005", "addr:state": "KS", "addr:street_address": "210 E WASHINGTON AVE", "amenity": "post_box", "brand": "United States Postal Service", "brand:wikidata": "Q668687", "collection_times": "Mo-Fr 16:30; Sa 11:00", "indoor": "yes", "note": "ON 12/24 AND 12/31, THIS BOX MAY BE COLLECTED AS EARLY AS 12 NOON.", "nsi_id": "unitedstatespostalservice-a77078", "operator": "United States Postal Service", "operator:short": "USPS", "operator:type": "public", "operator:wikidata": "Q668687", "ref": "6700500010"}, "type": "Feature"}
{"geometry": {"coordinates": [-96.7694939, 37.435695], "type": "Point"}, "id": "24yeefdrfzeZM-JIykQA7WPfWnc=", "properties": {"@source_uri": "https://tools.usps.com/UspsToolsRestServices/rest/POLocator/findLocations", "@spider": "usps_collection_boxes", "addr:city": "ATLANTA", "addr:country": "US", "addr:postcode": "67008", "addr:state": "KS", "addr:street_address": "401 S MAIN ST", "amenity": "post_box", "brand": "United States Postal Service", "brand:wikidata": "Q668687", "collection_times": "Mo-Fr 12:45; Sa 09:30", "note": "ON 12/24 AND 12/31, THIS BOX MAY BE COLLECTED AS EARLY AS 12 NOON.", "nsi_id": "unitedstatespostalservice-a77078", "operator": "United States Postal Service", "operator:short": "USPS", "operator:type": "public", "operator:wikidata": "Q668687", "ref": "6700800001"}, "type": "Feature"}
{"geometry": {"coordinates": [-96.769358, 37.435732], "type": "Point"}, "id": "iYqyaf5DdLGJLV9B3FeWLzwxl4w=", "properties": {"@source_uri": "https://tools.usps.com/UspsToolsRestServices/rest/POLocator/findLocations", "@spider": "usps_collection_boxes", "addr:city": "ATLANTA", "addr:country": "US", "addr:postcode": "67008", "addr:state": "KS", "addr:street_address": "401 S MAIN ST", "amenity": "post_box", "brand": "United States Postal Service", "brand:wikidata": "Q668687", "collection_times": "Mo-Fr 12:45; Sa 09:30", "indoor": "yes", "note": "ON 12/24 AND 12/31, THIS BOX MAY BE COLLECTED AS EARLY AS 12 NOON.", "nsi_id": "unitedstatespostalservice-a77078", "operator": "United States Postal Service", "operator:short": "USPS", "operator:type": "public", "operator:wikidata": "Q668687", "ref": "6700800002"}, "type": "Feature"}
{"geometry": {"coordinates": [-96.769357574, 37.435624659], "type": "Point"}, "id": "I0IhwyzwjN22uBcbp5Iq1h_cg6o=", "properties": {"@source_uri": "https://tools.usps.com/UspsToolsRestServices/rest/POLocator/findLocations", "@spider": "usps_collection_boxes", "addr:city": "ATLANTA", "addr:country": "US", "addr:postcode": "67008", "addr:state": "KS", "addr:street_address": "401 S MAIN ST", "amenity": "post_box", "brand": "United States Postal Service", "brand:wikidata": "Q668687", "collection_times": "Mo-Fr 12:45; Sa 09:30", "indoor": "yes", "note": "ON 12/24 AND 12/31, THIS BOX MAY BE COLLECTED AS EARLY AS 12 NOON.", "nsi_id": "unitedstatespostalservice-a77078", "operator": "United States Postal Service", "operator:short": "USPS", "operator:type": "public", "operator:wikidata": "Q668687", "ref": "6700800003"}, "type": "Feature"}
{"geometry": {"coordinates": [-98.2260165, 37.240534], "type": "Point"}, "id": "_Azgylx06dAsQ4ktUpga_8P0jX4=", "properties": {"@source_uri": "https://tools.usps.com/UspsToolsRestServices/rest/POLocator/findLocations", "@spider": "usps_collection_boxes", "addr:city": "ATTICA", "addr:country": "US", "addr:postcode": "67009", "addr:state": "KS", "addr:street_address": "136 N MAIN ST", "amenity": "post_box", "brand": "United States Postal Service", "brand:wikidata": "Q668687", "collection_times": "Mo-Fr 11:45; Sa 09:45", "nsi_id": "unitedstatespostalservice-a77078", "operator": "United States Postal Service", "operator:short": "USPS", "operator:type": "public", "operator:wikidata": "Q668687", "ref": "6700900001"}, "type": "Feature"}
{"geometry": {"coordinates": [-98.227885, 37.244729], "type": "Point"}, "id": "B3UiBE4Qk2KKYBRmNKYq_aQ7WvE=", "properties": {"@source_uri": "https://tools.usps.com/UspsToolsRestServices/rest/POLocator/findLocations", "@spider": "usps_collection_boxes", "addr:city": "ATTICA", "addr:country": "US", "addr:postcode": "67009", "addr:state": "KS", "addr:street_address": "136 N MAIN ST", "amenity": "post_box", "brand": "United States Postal Service", "brand:wikidata": "Q668687", "collection_times": "Mo-Fr 11:45; Sa 09:45", "indoor": "yes", "nsi_id": "unitedstatespostalservice-a77078", "operator": "United States Postal Service", "operator:short": "USPS", "operator:type": "public", "operator:wikidata": "Q668687", "ref": "6700900002"}, "type": "Feature"}
{"geometry": {"coordinates": [-98.2258990912, 37.2402853472], "type": "Point"}, "id": "Y5q9l6RWfMNbFbU7MYxVSQDUjmA=", "properties": {"@source_uri": "https://tools.usps.com/UspsToolsRestServices/rest/POLocator/findLocations", "@spider": "usps_collection_boxes", "addr:city": "ATTICA", "addr:country": "US", "addr:postcode": "67009", "addr:state": "KS", "addr:street_address": "136 N MAIN ST", "amenity": "post_box", "brand": "United States Postal Service", "brand:wikidata": "Q668687", "collection_times": "Mo-Fr 11:45; Sa 09:45", "indoor": "yes", "nsi_id": "unitedstatespostalservice-a77078", "operator": "United States Postal Service", "operator:short": "USPS", "operator:type": "public", "operator:wikidata": "Q668687", "ref": "6700900003"}, "type": "Feature"}
{"geometry": {"coordinates": [-96.971396289, 37.690848], "type": "Point"}, "id": "-uW3IkakZal4cbL-8aLB80VUmXo=", "properties": {"@source_uri": "https://tools.usps.com/UspsToolsRestServices/rest/POLocator/findLocations", "@spider": "usps_collection_boxes", "addr:city": "AUGUSTA", "addr:country": "US", "addr:postcode": "67010", "addr:state": "KS", "addr:street_address": "1510 OHIO ST", "amenity": "post_box", "brand": "United States Postal Service", "brand:wikidata": "Q668687", "collection_times": "Mo-Sa 15:00", "note": "ON 12/24 AND 12/31, THIS BOX MAY BE COLLECTED AS EARLY AS 12 NOON.", "nsi_id": "unitedstatespostalservice-a77078", "operator": "United States Postal Service", "operator:short": "USPS", "operator:type": "public", "operator:wikidata": "Q668687", "ref": "6701000004"}, "type": "Feature"}
{"geometry": {"coordinates": [-96.9780561, 37.675989], "type": "Point"}, "id": "oUfH-NdAZXCkh8BLGNyNZGZPEdM=", "properties": {"@source_uri": "https://tools.usps.com/UspsToolsRestServices/rest/POLocator/findLocations", "@spider": "usps_collection_boxes", "addr:city": "AUGUSTA", "addr:country": "US", "addr:postcode": "67010", "addr:state": "KS", "addr:street_address": "119 E 5TH AVE", "amenity": "post_box", "brand": "United States Postal Service", "brand:wikidata": "Q668687", "collection_times": "Mo-Fr 16:15; Sa 15:45", "indoor": "yes", "note": "ON 12/24 AND 12/31, THIS BOX MAY BE COLLECTED AS EARLY AS 12 NOON.", "nsi_id": "unitedstatespostalservice-a77078", "operator": "United States Postal Service", "operator:short": "USPS", "operator:type": "public", "operator:wikidata": "Q668687", "ref": "6701000006"}, "type": "Feature"}
{"geometry": {"coordinates": [-96.9778051, 37.67592], "type": "Point"}, "id": "ZrDPb2KxqRB9OxoYyol1O_hdP3c=", "properties": {"@source_uri": "https://tools.usps.com/UspsToolsRestServices/rest/POLocator/findLocations", "@spider": "usps_collection_boxes", "addr:city": "AUGUSTA", "addr:country": "US", "addr:postcode": "67010", "addr:state": "KS", "addr:street_address": "119 E 5TH AVE", "amenity": "post_box", "brand": "United States Postal Service", "brand:wikidata": "Q668687", "collection_times": "Mo-Fr 16:15; Sa 15:45", "note": "ON 12/24 AND 12/31, THIS BOX MAY BE COLLECTED AS EARLY AS 12 NOON.", "nsi_id": "unitedstatespostalservice-a77078", "operator": "United States Postal Service", "operator:short": "USPS", "operator:type": "public", "operator:wikidata": "Q668687", "ref": "6701000008"}, "type": "Feature"}
{"geometry": {"coordinates": [-96.987592, 37.679383], "type": "Point"}, "id": "4nhcZs-F4wP1ELTeyYOz_ZcTiu0=", "properties": {"@source_uri": "https://tools.usps.com/UspsToolsRestServices/rest/POLocator/findLocations", "@spider": "usps_collection_boxes", "addr:city": "AUGUSTA", "addr:country": "US", "addr:postcode": "67010", "addr:state": "KS", "addr:street_address": "719 W 7TH AVE", "amenity": "post_box", "brand": "United States Postal Service", "brand:wikidata": "Q668687", "collection_times": "Mo-Sa 14:00", "note": "ON 12/24 AND 12/31, THIS BOX MAY BE COLLECTED AS EARLY AS 12 NOON.", "nsi_id": "unitedstatespostalservice-a77078", "operator": "United States Postal Service", "operator:short": "USPS", "operator:type": "public", "operator:wikidata": "Q668687", "ref": "6701000014"}, "type": "Feature"}
{"geometry": {"coordinates": [-96.978091668, 37.676141488], "type": "Point"}, "id": "oxAMoSeJkZHwjxffS_q_Yvr6CCQ=", "properties": {"@source_uri": "https://tools.usps.com/UspsToolsRestServices/rest/POLocator/findLocations", "@spider": "usps_collection_boxes", "addr:city": "AUGUSTA", "addr:country": "US", "addr:postcode": "67010", "addr:state": "KS", "addr:street_address": "119 E 5TH AVE", "amenity": "post_box", "brand": "United States Postal Service", "brand:wikidata": "Q668687", "collection_times": "Mo-Fr 16:15; Sa 10:00", "indoor": "yes", "note": "ON 12/24 AND 12/31, THIS BOX MAY BE COLLECTED AS EARLY AS 12 NOON.", "nsi_id": "unitedstatespostalservice-a77078", "operator": "United States Postal Service", "operator:short": "USPS", "operator:type": "public", "operator:wikidata": "Q668687", "ref": "6701000015"}, "type": "Feature"}
{"geometry": {"coordinates": [-97.2810616, 37.393176], "type": "Point"}, "id": "we3sDjUyXkXl_e50Lh9kfhlAKVU=", "properties": {"@source_uri": "https://tools.usps.com/UspsToolsRestServices/rest/POLocator/findLocations", "@spider": "usps_collection_boxes", "addr:city": "BELLE PLAINE", "addr:country": "US", "addr:postcode": "67013", "addr:state": "KS", "addr:street_address": "434 N MERCHANT ST", "amenity": "post_box", "brand": "United States Postal Service", "brand:wikidata": "Q668687", "collection_times": "Mo-Fr 16:15; Sa 09:15", "note": "ON 12/24 AND 12/31, THIS BOX MAY BE COLLECTED AS EARLY AS 12 NOON.", "nsi_id": "unitedstatespostalservice-a77078", "operator": "United States Postal Service", "operator:short": "USPS", "operator:type": "public", "operator:wikidata": "Q668687", "ref": "6701300001"}, "type": "Feature"}
{"geometry": {"coordinates": [-97.281137, 37.393169], "type": "Point"}, "id": "zktVGA8U6pUG_wNvYwCOgZHmI5U=", "properties": {"@source_uri": "https://tools.usps.com/UspsToolsRestServices/rest/POLocator/findLocations", "@spider": "usps_collection_boxes", "addr:city": "BELLE PLAINE", "addr:country": "US", "addr:postcode": "67013", "addr:state": "KS", "addr:street_address": "434 N MERCHANT ST", "amenity": "post_box", "brand": "United States Postal Service", "brand:wikidata": "Q668687", "collection_times": "Mo-Fr 16:15; Sa 09:15", "indoor": "yes", "note": "ON 12/24 AND 12/31, THIS BOX MAY BE COLLECTED AS EARLY AS 12 NOON.", "nsi_id": "unitedstatespostalservice-a77078", "operator": "United States Postal Service", "operator:short": "USPS", "operator:type": "public", "operator:wikidata": "Q668687", "ref": "6701300002"}, "type": "Feature"}
{"geometry": {"coordinates": [-97.2811379, 37.393164], "type": "Point"}, "id": "l2k8YbadT05qYWIRHku8nFF8qKg=", "properties": {"@source_uri": "https://tools.usps.com/UspsToolsRestServices/rest/POLocator/findLocations", "@spider": "usps_collection_boxes", "addr:city": "BELLE PLAINE", "addr:country": "US", "addr:postcode": "67013", "addr:state": "KS", "addr:street_address": "434 N MERCHANT ST", "amenity": "post_box", "brand": "United States Postal Service", "brand:wikidata": "Q668687", "collection_times": "Mo-Fr 16:15; Sa 09:15", "indoor": "yes", "note": "ON 12/24 AND 12/31, THIS BOX MAY BE COLLECTED AS EARLY AS 12 NOON.", "nsi_id": "unitedstatespostalservice-a77078", "operator": "United States Postal Service", "operator:short": "USPS", "operator:type": "public", "operator:wikidata": "Q668687", "ref": "6701300003"}, "type": "Feature"}
{"geometry": {"coordinates": [-97.5164599, 37.885351], "type": "Point"}, "id": "rmtJjkvfCv75FfI2dMYfqdN1fJs=", "properties": {"@source_uri": "https://tools.usps.com/UspsToolsRestServices/rest/POLocator/findLocations", "@spider": "usps_collection_boxes", "addr:city": "BENTLEY", "addr:country": "US", "addr:postcode": "67016", "addr:state": "KS", "addr:street_address": "140 S WICHITA ST", "amenity": "post_box", "brand": "United States Postal Service", "brand:wikidata": "Q668687", "collection_times": "Mo-Fr 12:45; Sa 09:15", "note": "ON 12/24 AND 12/31, THIS BOX MAY BE COLLECTED AS EARLY AS 12 NOON.", "nsi_id": "unitedstatespostalservice-a77078", "operator": "United States Postal Service", "operator:short": "USPS", "operator:type": "public", "operator:wikidata": "Q668687", "ref": "6701600001"}, "type": "Feature"}
{"geometry": {"coordinates": [-97.516548, 37.885404], "type": "Point"}, "id": "x7nuustvLmgF0BbiA_877B38fQc=", "properties": {"@source_uri": "https://tools.usps.com/UspsToolsRestServices/rest/POLocator/findLocations", "@spider": "usps_collection_boxes", "addr:city": "BENTLEY", "addr:country": "US", "addr:postcode": "67016", "addr:state": "KS", "addr:street_address": "140 S WICHITA ST", "amenity": "post_box", "brand": "United States Postal Service", "brand:wikidata": "Q668687", "collection_times": "Mo-Fr 12:45; Sa 09:15", "indoor": "yes", "note": "ON 12/24 AND 12/31, THIS BOX MAY BE COLLECTED AS EARLY AS 12 NOON.", "nsi_id": "unitedstatespostalservice-a77078", "operator": "United States Postal Service", "operator:short": "USPS", "operator:type": "public", "operator:wikidata": "Q668687", "ref": "6701600002"}, "type": "Feature"}
{"geometry": {"coordinates": [-97.5165567251, 37.8852536575], "type": "Point"}, "id": "UQ20W4UbMo9nwp7LvU9UNQ9XFdA=", "properties": {"@source_uri": "https://tools.usps.com/UspsToolsRestServices/rest/POLocator/findLocations", "@spider": "usps_collection_boxes", "addr:city": "BENTLEY", "addr:country": "US", "addr:postcode": "67016", "addr:state": "KS", "addr:street_address": "140 S WICHITA ST", "amenity": "post_box", "brand": "United States Postal Service", "brand:wikidata": "Q668687", "collection_times": "Mo-Fr 12:45; Sa 09:15", "indoor": "yes", "note": "ON 12/24 AND 12/31, THIS BOX MAY BE COLLECTED AS EARLY AS 12 NOON.", "nsi_id": "unitedstatespostalservice-a77078", "operator": "United States Postal Service", "operator:short": "USPS", "operator:type": "public", "operator:wikidata": "Q668687", "ref": "6701600003"}, "type": "Feature"}
{"geometry": {"coordinates": [-97.108648036, 37.795758014], "type": "Point"}, "id": "IZvb7PNheggwS3pA4BI82AjfFlg=", "properties": {"@source_uri": "https://tools.usps.com/UspsToolsRestServices/rest/POLocator/findLocations", "@spider": "usps_collection_boxes", "addr:city": "BENTON", "addr:country": "US", "addr:postcode": "67017", "addr:state": "KS", "addr:street_address": "815 N MAIN ST", "amenity": "post_box", "brand": "United States Postal Service", "brand:wikidata": "Q668687", "collection_times": "Mo-Sa 09:00", "nsi_id": "unitedstatespostalservice-a77078", "operator": "United States Postal Service", "operator:short": "USPS", "operator:type": "public", "operator:wikidata": "Q668687", "ref": "6701700001"}, "type": "Feature"}
{"geometry": {"coordinates": [-97.108065, 37.788201], "type": "Point"}, "id": "xxQ2s38z--Wx-kqj8c9A5_nqjog=", "properties": {"@source_uri": "https://tools.usps.com/UspsToolsRestServices/rest/POLocator/findLocations", "@spider": "usps_collection_boxes", "addr:city": "BENTON", "addr:country": "US", "addr:postcode": "67017", "addr:state": "KS", "addr:street_address": "135 S MAIN ST", "amenity": "post_box", "brand": "United States Postal Service", "brand:wikidata": "Q668687", "collection_times": "Mo-Fr 16:15; Sa 09:45", "indoor": "yes", "note": "ON 12/24 AND 12/31, THIS BOX MAY BE COLLECTED AS EARLY AS 12 NOON.", "nsi_id": "unitedstatespostalservice-a77078", "operator": "United States Postal Service", "operator:short": "USPS", "operator:type": "public", "operator:wikidata": "Q668687", "ref": "6701700002"}, "type": "Feature"}
{"geometry": {"coordinates": [-97.8705266, 37.076563], "type": "Point"}, "id": "D6pUf0zQvMlmV298wxE2ViCp5R0=", "properties": {"@source_uri": "https://tools.usps.com/UspsToolsRestServices/rest/POLocator/findLocations", "@spider": "usps_collection_boxes", "addr:city": "BLUFF CITY", "addr:country": "US", "addr:postcode": "67018", "addr:state": "KS", "addr:street_address": "621 CENTRAL AVE", "amenity": "post_box", "brand": "United States Postal Service", "brand:wikidata": "Q668687", "collection_times": "Mo-Sa 10:45", "nsi_id": "unitedstatespostalservice-a77078", "operator": "United States Postal Service", "operator:short": "USPS", "operator:type": "public", "operator:wikidata": "Q668687", "ref": "6701800001"}, "type": "Feature"}
{"geometry": {"coordinates": [-97.870073, 37.076295], "type": "Point"}, "id": "eElImyry0bdDvuckxxiG5PFYb2Q=", "properties": {"@source_uri": "https://tools.usps.com/UspsToolsRestServices/rest/POLocator/findLocations", "@spider": "usps_collection_boxes", "addr:city": "BLUFF CITY", "addr:country": "US", "addr:postcode": "67018", "addr:state": "KS", "addr:street_address": "621 CENTRAL AVE", "amenity": "post_box", "brand": "United States Postal Service", "brand:wikidata": "Q668687", "collection_times": "Mo-Sa 10:45", "indoor": "yes", "nsi_id": "unitedstatespostalservice-a77078", "operator": "United States Postal Service", "operator:short": "USPS", "operator:type": "public", "operator:wikidata": "Q668687", "ref": "6701800002"}, "type": "Feature"}
{"geometry": {"coordinates": [-97.870984085, 37.076326682], "type": "Point"}, "id": "v6nBtVQ0lQgdonaggwwtB_-m9HI=", "properties": {"@source_uri": "https://tools.usps.com/UspsToolsRestServices/rest/POLocator/findLocations", "@spider": "usps_collection_boxes", "addr:city": "BLUFF CITY", "addr:country": "US", "addr:postcode": "67018", "addr:state": "KS", "addr:street_address": "621 CENTRAL AVE", "amenity": "post_box", "brand": "United States Postal Service", "brand:wikidata": "Q668687", "collection_times": "Mo-Sa 10:45", "indoor": "yes", "nsi_id": "unitedstatespostalservice-a77078", "operator": "United States Postal Service", "operator:short": "USPS", "operator:type": "public", "operator:wikidata": "Q668687", "ref": "6701800003"}, "type": "Feature"}
{"geometry": {"coordinates": [-96.7534366, 37.31572], "type": "Point"}, "id": "TIz_-OW-6Xn5-HOZR7vo2ofhgrw=", "properties": {"@source_uri": "https://tools.usps.com/UspsToolsRestServices/rest/POLocator/findLocations", "@spider": "usps_collection_boxes", "addr:city": "BURDEN", "addr:country": "US", "addr:postcode": "67019", "addr:state": "KS", "addr:street_address": "417 N MAIN ST", "amenity": "post_box", "brand": "United States Postal Service", "brand:wikidata": "Q668687", "collection_times": "Mo-Fr 11:45; Sa 09:30", "nsi_id": "unitedstatespostalservice-a77078", "operator": "United States Postal Service", "operator:short": "USPS", "operator:type": "public", "operator:wikidata": "Q668687", "ref": "6701900001"}, "type": "Feature"}
{"geometry": {"coordinates": [-96.753456, 37.315689], "type": "Point"}, "id": "u5-Oj1e5fSRRpCRG1UArie43Z7g=", "properties": {"@source_uri": "https://tools.usps.com/UspsToolsRestServices/rest/POLocator/findLocations", "@spider": "usps_collection_boxes", "addr:city": "BURDEN", "addr:country": "US", "addr:postcode": "67019", "addr:state": "KS", "addr:street_address": "417 N MAIN ST", "amenity": "post_box", "brand": "United States Postal Service", "brand:wikidata": "Q668687", "collection_times": "Mo-Fr 11:45; Sa 09:30", "indoor": "yes", "nsi_id": "unitedstatespostalservice-a77078", "operator": "United States Postal Service", "operator:short": "USPS", "operator:type": "public", "operator:wikidata": "Q668687", "ref": "6701900002"}, "type": "Feature"}
{"geometry": {"coordinates": [-96.753458056, 37.315682026], "type": "Point"}, "id": "EECbs4aeojwhRaIhBtm2Ytai9NE=", "properties": {"@source_uri": "https://tools.usps.com/UspsToolsRestServices/rest/POLocator/findLocations", "@spider": "usps_collection_boxes", "addr:city": "BURDEN", "addr:country": "US", "addr:postcode": "67019", "addr:state": "KS", "addr:street_address": "417 N MAIN ST", "amenity": "post_box", "brand": "United States Postal Service", "brand:wikidata": "Q668687", "collection_times": "Mo-Fr 11:45; Sa 09:30", "indoor": "yes", "nsi_id": "unitedstatespostalservice-a77078", "operator": "United States Postal Service", "operator:short": "USPS", "operator:type": "public", "operator:wikidata": "Q668687", "ref": "6701900003"}, "type": "Feature"}
{"geometry": {"coordinates": [-97.6710015, 38.0251875], "type": "Point"}, "id": "ZDBZvVdv2Ib1KAU2hehXiI4fp4I=", "properties": {"@source_uri": "https://tools.usps.com/UspsToolsRestServices/rest/POLocator/findLocations", "@spider": "usps_collection_boxes", "addr:city": "BURRTON", "addr:country": "US", "addr:postcode": "67020", "addr:state": "KS", "addr:street_address": "106 E ADAMS ST", "amenity": "post_box", "brand": "United States Postal Service", "brand:wikidata": "Q668687", "collection_times": "Mo-Fr 14:45; Sa 10:45", "note": "ON 12/24 AND 12/31, THIS BOX MAY BE COLLECTED AS EARLY AS 12 NOON.", "nsi_id": "unitedstatespostalservice-a77078", "operator": "United States Postal Service", "operator:short": "USPS", "operator:type": "public", "operator:wikidata": "Q668687", "ref": "6702000001"}, "type": "Feature"}
{"geometry": {"coordinates": [-97.6710015, 38.0251875], "type": "Point"}, "id": "0WDBabj-6FswrDnoC5lz7FHSdf8=", "properties": {"@source_uri": "https://tools.usps.com/UspsToolsRestServices/rest/POLocator/findLocations", "@spider": "usps_collection_boxes", "addr:city": "BURRTON", "addr:country": "US", "addr:postcode": "67020", "addr:state": "KS", "addr:street_address": "106 E ADAMS ST", "amenity": "post_box", "brand": "United States Postal Service", "brand:wikidata": "Q668687", "collection_times": "Mo-Fr 14:45; Sa 10:45", "indoor": "yes", "note": "ON 12/24 AND 12/31, THIS BOX MAY BE COLLECTED AS EARLY AS 12 NOON.", "nsi_id": "unitedstatespostalservice-a77078", "operator": "United States Postal Service", "operator:short": "USPS", "operator:type": "public", "operator:wikidata": "Q668687", "ref": "6702000002"}, "type": "Feature"}
{"geometry": {"coordinates": [-97.6710015, 38.0251875], "type": "Point"}, "id": "FubDsH3HWR891eCXAI3eGa09bQU=", "properties": {"@source_uri": "https://tools.usps.com/UspsToolsRestServices/rest/POLocator/findLocations", "@spider": "usps_collection_boxes", "addr:city": "BURRTON", "addr:country": "US", "addr:postcode": "67020", "addr:state": "KS", "addr:street_address": "106 E ADAMS ST", "amenity": "post_box", "brand": "United States Postal Service", "brand:wikidata": "Q668687", "collection_times": "Mo-Fr 14:45; Sa 10:45", "indoor": "yes", "note": "ON 12/24 AND 12/31, THIS BOX MAY BE COLLECTED AS EARLY AS 12 NOON.", "nsi_id": "unitedstatespostalservice-a77078", "operator": "United States Postal Service", "operator:short": "USPS", "operator:type": "public", "operator:wikidata": "Q668687", "ref": "6702000003"}, "type": "Feature"}
{"geometry": {"coordinates": [-97.606331, 37.03314], "type": "Point"}, "id": "CSpEr-hdx9XBvvFDc5Z6uzWcrDk=", "properties": {"@source_uri": "https://tools.usps.com/UspsToolsRestServices/rest/POLocator/findLocations", "@spider": "usps_collection_boxes", "addr:city": "CALDWELL", "addr:country": "US", "addr:postcode": "67022", "addr:state": "KS", "addr:street_address": "14 N MAIN ST", "amenity": "post_box", "brand": "United States Postal Service", "brand:wikidata": "Q668687", "collection_times": "Mo-Fr 14:00; Sa 10:15", "note": "ON 12/24 AND 12/31, THIS BOX MAY BE COLLECTED AS EARLY AS 12 NOON.", "nsi_id": "unitedstatespostalservice-a77078", "operator": "United States Postal Service", "operator:short": "USPS", "operator:type": "public", "operator:wikidata": "Q668687", "ref": "6702200004"}, "type": "Feature"}
{"geometry": {"coordinates": [-97.606907, 37.033239], "type": "Point"}, "id": "4f5NDdZLhGuuv7GaRC4_WhdtQMo=", "properties": {"@source_uri": "https://tools.usps.com/UspsToolsRestServices/rest/POLocator/findLocations", "@spider": "usps_collection_boxes", "addr:city": "CALDWELL", "addr:country": "US", "addr:postcode": "67022", "addr:state": "KS", "addr:street_address": "14 N MAIN ST", "amenity": "post_box", "brand": "United States Postal Service", "brand:wikidata": "Q668687", "collection_times": "Mo-Fr 14:00; Sa 10:15", "indoor": "yes", "note": "ON 12/24 AND 12/31, THIS BOX MAY BE COLLECTED AS EARLY AS 12 NOON.", "nsi_id": "unitedstatespostalservice-a77078", "operator": "United States Postal Service", "operator:short": "USPS", "operator:type": "public", "operator:wikidata": "Q668687", "ref": "6702200005"}, "type": "Feature"}
{"geometry": {"coordinates": [-97.6069055931, 37.033056], "type": "Point"}, "id": "kwtqX6qWu1VZOjvrEeqPJ9ZIfmo=", "properties": {"@source_uri": "https://tools.usps.com/UspsToolsRestServices/rest/POLocator/findLocations", "@spider": "usps_collection_boxes", "addr:city": "CALDWELL", "addr:country": "US", "addr:postcode": "67022", "addr:state": "KS", "addr:street_address": "14 N MAIN ST", "amenity": "post_box", "brand": "United States Postal Service", "brand:wikidata": "Q668687", "collection_times": "Mo-Fr 14:00; Sa 10:15", "indoor": "yes", "note": "ON 12/24 AND 12/31, THIS BOX MAY BE COLLECTED AS EARLY AS 12 NOON.", "nsi_id": "unitedstatespostalservice-a77078", "operator": "United States Postal Service", "operator:short": "USPS", "operator:type": "public", "operator:wikidata": "Q668687", "ref": "6702200006"}, "type": "Feature"}
{"geometry": {"coordinates": [-96.6663024, 37.317489], "type": "Point"}, "id": "Pm-l4dCkTZN9uhK1bLz790SC7ug=", "properties": {"@source_uri": "https://tools.usps.com/UspsToolsRestServices/rest/POLocator/findLocations", "@spider": "usps_collection_boxes", "addr:city": "CAMBRIDGE", "addr:country": "US", "addr:postcode": "67023", "addr:state": "KS", "addr:street_address": "208 W MAIN ST", "amenity": "post_box", "brand": "United States Postal Service", "brand:wikidata": "Q668687", "collection_times": "Mo-Fr 09:45; Sa 09:00", "nsi_id": "unitedstatespostalservice-a77078", "operator": "United States Postal Service", "operator:short": "USPS", "operator:type": "public", "operator:wikidata": "Q668687", "ref": "6702300001"}, "type": "Feature"}
{"geometry": {"coordinates": [-96.666363, 37.317456], "type": "Point"}, "id": "acHa19o5hGllMl5jn03aGNnHwjo=", "properties": {"@source_uri": "https://tools.usps.com/UspsToolsRestServices/rest/POLocator/findLocations", "@spider": "usps_collection_boxes", "addr:city": "CAMBRIDGE", "addr:country": "US", "addr:postcode": "67023", "addr:state": "KS", "addr:street_address": "208 W MAIN ST", "amenity": "post_box", "brand": "United States Postal Service", "brand:wikidata": "Q668687", "collection_times": "Mo-Fr 09:45; Sa 09:00", "indoor": "yes", "nsi_id": "unitedstatespostalservice-a77078", "operator": "United States Postal Service", "operator:short": "USPS", "operator:type": "public", "operator:wikidata": "Q668687", "ref": "6702300002"}, "type": "Feature"}
{"geometry": {"coordinates": [-96.666384675, 37.317494283], "type": "Point"}, "id": "P1CWypbHJWBhkYlzEu8ieJO-XS8=", "properties": {"@source_uri": "https://tools.usps.com/UspsToolsRestServices/rest/POLocator/findLocations", "@spider": "usps_collection_boxes", "addr:city": "CAMBRIDGE", "addr:country": "US", "addr:postcode": "67023", "addr:state": "KS", "addr:street_address": "208 W MAIN ST", "amenity": "post_box", "brand": "United States Postal Service", "brand:wikidata": "Q668687", "collection_times": "Mo-Fr 09:45; Sa 09:00", "indoor": "yes", "nsi_id": "unitedstatespostalservice-a77078", "operator": "United States Postal Service", "operator:short": "USPS", "operator:type": "public", "operator:wikidata": "Q668687", "ref": "6702300003"}, "type": "Feature"}
{"geometry": {"coordinates": [-96.4994485, 37.10607], "type": "Point"}, "id": "sr6QO_KeZ6UFwbWkzxT2OFqc9tE=", "properties": {"@source_uri": "https://tools.usps.com/UspsToolsRestServices/rest/POLocator/findLocations", "@spider": "usps_collection_boxes", "addr:city": "CEDAR VALE", "addr:country": "US", "addr:postcode": "67024", "addr:state": "KS", "addr:street_address": "706 CEDAR ST", "amenity": "post_box", "brand": "United States Postal Service", "brand:wikidata": "Q668687", "collection_times": "Mo-Fr 14:45; Sa 10:45", "note": "ON 12/24 AND 12/31, THIS BOX MAY BE COLLECTED AS EARLY AS 12 NOON.", "nsi_id": "unitedstatespostalservice-a77078", "operator": "United States Postal Service", "operator:short": "USPS", "operator:type": "public", "operator:wikidata": "Q668687", "ref": "6702400001"}, "type": "Feature"}
{"geometry": {"coordinates": [-96.499521, 37.105983], "type": "Point"}, "id": "CmLdaTqk5Gf5ktmgzyKUYkO4f_Q=", "properties": {"@source_uri": "https://tools.usps.com/UspsToolsRestServices/rest/POLocator/findLocations", "@spider": "usps_collection_boxes", "addr:city": "CEDAR VALE", "addr:country": "US", "addr:postcode": "67024", "addr:state": "KS", "addr:street_address": "706 CEDAR ST", "amenity": "post_box", "brand": "United States Postal Service", "brand:wikidata": "Q668687", "collection_times": "Mo-Fr 14:45; Sa 10:45", "indoor": "yes", "note": "ON 12/24 AND 12/31, THIS BOX MAY BE COLLECTED AS EARLY AS 12 NOON.", "nsi_id": "unitedstatespostalservice-a77078", "operator": "United States Postal Service", "operator:short": "USPS", "operator:type": "public", "operator:wikidata": "Q668687", "ref": "6702400002"}, "type": "Feature"}
{"geometry": {"coordinates": [-96.4995420721, 37.1060004641], "type": "Point"}, "id": "fwyg7-3PIeIcsmxbpoWK8uyMmQc=", "properties": {"@source_uri": "https://tools.usps.com/UspsToolsRestServices/rest/POLocator/findLocations", "@spider": "usps_collection_boxes", "addr:city": "CEDAR VALE", "addr:country": "US", "addr:postcode": "67024", "addr:state": "KS", "addr:street_address": "706 CEDAR ST", "amenity": "post_box", "brand": "United States Postal Service", "brand:wikidata": "Q668687", "collection_times": "Mo-Fr 14:45; Sa 10:45", "indoor": "yes", "note": "ON 12/24 AND 12/31, THIS BOX MAY BE COLLECTED AS EARLY AS 12 NOON.", "nsi_id": "unitedstatespostalservice-a77078", "operator": "United States Postal Service", "operator:short": "USPS", "operator:type": "public", "operator:wikidata": "Q668687", "ref": "6702400003"}, "type": "Feature"}
{"geometry": {"coordinates": [-97.7812402, 37.628555], "type": "Point"}, "id": "jQEs0OPMJom2IjaRhiS0qLW_L8w=", "properties": {"@source_uri": "https://tools.usps.com/UspsToolsRestServices/rest/POLocator/findLocations", "@spider": "usps_collection_boxes", "addr:city": "CHENEY", "addr:country": "US", "addr:postcode": "67025", "addr:state": "KS", "addr:street_address": "215 N MAIN ST", "amenity": "post_box", "brand": "United States Postal Service", "brand:wikidata": "Q668687", "collection_times": "Mo-Fr 16:00; Sa 09:45", "note": "ON 12/24 AND 12/31, THIS BOX MAY BE COLLECTED AS EARLY AS 12 NOON.", "nsi_id": "unitedstatespostalservice-a77078", "operator": "United States Postal Service", "operator:short": "USPS", "operator:type": "public", "operator:wikidata": "Q668687", "ref": "6702500001"}, "type": "Feature"}
{"geometry": {"coordinates": [-97.781265, 37.628534], "type": "Point"}, "id": "jlFs9WYj87vfcelY-PST_z1F7mc=", "properties": {"@source_uri": "https://tools.usps.com/UspsToolsRestServices/rest/POLocator/findLocations", "@spider": "usps_collection_boxes", "addr:city": "CHENEY", "addr:country": "US", "addr:postcode": "67025", "addr:state": "KS", "addr:street_address": "215 N MAIN ST", "amenity": "post_box", "brand": "United States Postal Service", "brand:wikidata": "Q668687", "collection_times": "Mo-Fr 16:00; Sa 09:45", "indoor": "yes", "note": "ON 12/24 AND 12/31, THIS BOX MAY BE COLLECTED AS EARLY AS 12 NOON.", "nsi_id": "unitedstatespostalservice-a77078", "operator": "United States Postal Service", "operator:short": "USPS", "operator:type": "public", "operator:wikidata": "Q668687", "ref": "6702500002"}, "type": "Feature"}
{"geometry": {"coordinates": [-97.7812677108, 37.6285313927], "type": "Point"}, "id": "2qioRapDzLRPlfTkDohuY6DZFeA=", "properties": {"@source_uri": "https://tools.usps.com/UspsToolsRestServices/rest/POLocator/findLocations", "@spider": "usps_collection_boxes", "addr:city": "CHENEY", "addr:country": "US", "addr:postcode": "67025", "addr:state": "KS", "addr:street_address": "215 N MAIN ST", "amenity": "post_box", "brand": "United States Postal Service", "brand:wikidata": "Q668687", "collection_times": "Mo-Fr 16:00; Sa 09:45", "indoor": "yes", "note": "ON 12/24 AND 12/31, THIS BOX MAY BE COLLECTED AS EARLY AS 12 NOON.", "nsi_id": "unitedstatespostalservice-a77078", "operator": "United States Postal Service", "operator:short": "USPS", "operator:type": "public", "operator:wikidata": "Q668687", "ref": "6702500003"}, "type": "Feature"}
{"geometry": {"coordinates": [-97.4960430048, 37.5130530156], "type": "Point"}, "id": "2tgyja5zzvvPuziNnSxKfMOtNIg=", "properties": {"@source_uri": "https://tools.usps.com/UspsToolsRestServices/rest/POLocator/findLocations", "@spider": "usps_collection_boxes", "addr:city": "CLEARWATER", "addr:country": "US", "addr:postcode": "67026", "addr:state": "KS", "addr:street_address": "640 N 4TH ST", "amenity": "post_box", "brand": "United States Postal Service", "brand:wikidata": "Q668687", "collection_times": "Mo-Fr 16:15; Sa 10:15", "note": "ON 12/24 AND 12/31, THIS BOX MAY BE COLLECTED AS EARLY AS 12 NOON.", "nsi_id": "unitedstatespostalservice-a77078", "operator": "United States Postal Service", "operator:short": "USPS", "operator:type": "public", "operator:wikidata": "Q668687", "ref": "6702600001"}, "type": "Feature"}
{"geometry": {"coordinates": [-97.4965678522, 37.5130164133], "type": "Point"}, "id": "bKNlceWQyhkinmmVHDSPr5-3eNI=", "properties": {"@source_uri": "https://tools.usps.com/UspsToolsRestServices/rest/POLocator/findLocations", "@spider": "usps_collection_boxes", "addr:city": "CLEARWATER", "addr:country": "US", "addr:postcode": "67026", "addr:state": "KS", "addr:street_address": "640 N 4TH ST", "amenity": "post_box", "brand": "United States Postal Service", "brand:wikidata": "Q668687", "collection_times": "Mo-Fr 16:15; Sa 10:15", "indoor": "yes", "note": "ON 12/24 AND 12/31, THIS BOX MAY BE COLLECTED AS EARLY AS 12 NOON.", "nsi_id": "unitedstatespostalservice-a77078", "operator": "United States Postal Service", "operator:short": "USPS", "operator:type": "public", "operator:wikidata": "Q668687", "ref": "6702600003"}, "type": "Feature"}
{"geometry": {"coordinates": [-97.4965678522, 37.5130164133], "type": "Point"}, "id": "-aRZDVmSyGrtpjdKmjXr48x4HoU=", "properties": {"@source_uri": "https://tools.usps.com/UspsToolsRestServices/rest/POLocator/findLocations", "@spider": "usps_collection_boxes", "addr:city": "CLEARWATER", "addr:country": "US", "addr:postcode": "67026", "addr:state": "KS", "addr:street_address": "640 N 4TH ST", "amenity": "post_box", "brand": "United States Postal Service", "brand:wikidata": "Q668687", "collection_times": "Mo-Fr 16:15; Sa 10:15", "indoor": "yes", "note": "ON 12/24 AND 12/31, THIS BOX MAY BE COLLECTED AS EARLY AS 12 NOON.", "nsi_id": "unitedstatespostalservice-a77078", "operator": "United States Postal Service", "operator:short": "USPS", "operator:type": "public", "operator:wikidata": "Q668687", "ref": "6702600004"}, "type": "Feature"}
{"geometry": {"coordinates": [-99.326021223, 37.2700544644], "type": "Point"}, "id": "MYUShgLpqV8Fk5Vfk42C89z1pF0=", "properties": {"@source_uri": "https://tools.usps.com/UspsToolsRestServices/rest/POLocator/findLocations", "@spider": "usps_collection_boxes", "addr:city": "COLDWATER", "addr:country": "US", "addr:postcode": "67029", "addr:state": "KS", "addr:street_address": "212 E MAIN ST", "amenity": "post_box", "brand": "United States Postal Service", "brand:wikidata": "Q668687", "collection_times": "Mo-Fr 15:05; Sa 10:15", "note": "ON 12/24 AND 12/31, THIS BOX MAY BE COLLECTED AS EARLY AS 12 NOON.", "nsi_id": "unitedstatespostalservice-a77078", "operator": "United States Postal Service", "operator:short": "USPS", "operator:type": "public", "operator:wikidata": "Q668687", "ref": "6702900001"}, "type": "Feature"}
{"geometry": {"coordinates": [-99.326021223, 37.2700544644], "type": "Point"}, "id": "z6sp-RG_-Z15k3ozUivs0MXwjaY=", "properties": {"@source_uri": "https://tools.usps.com/UspsToolsRestServices/rest/POLocator/findLocations", "@spider": "usps_collection_boxes", "addr:city": "COLDWATER", "addr:country": "US", "addr:postcode": "67029", "addr:state": "KS", "addr:street_address": "212 E MAIN ST", "amenity": "post_box", "brand": "United States Postal Service", "brand:wikidata": "Q668687", "collection_times": "Mo-Fr 15:05; Sa 10:15", "indoor": "yes", "note": "ON 12/24 AND 12/31, THIS BOX MAY BE COLLECTED AS EARLY AS 12 NOON.", "nsi_id": "unitedstatespostalservice-a77078", "operator": "United States Postal Service", "operator:short": "USPS", "operator:type": "public", "operator:wikidata": "Q668687", "ref": "6702900002"}, "type": "Feature"}
{"geometry": {"coordinates": [-99.326021223, 37.2700544644], "type": "Point"}, "id": "CiBbKqCFL96N0XzldEid8gly0_0=", "properties": {"@source_uri": "https://tools.usps.com/UspsToolsRestServices/rest/POLocator/findLocations", "@spider": "usps_collection_boxes", "addr:city": "COLDWATER", "addr:country": "US", "addr:postcode": "67029", "addr:state": "KS", "addr:street_address": "212 E MAIN ST", "amenity": "post_box", "brand": "United States Postal Service", "brand:wikidata": "Q668687", "collection_times": "Mo-Fr 15:05; Sa 10:15", "indoor": "yes", "note": "ON 12/24 AND 12/31, THIS BOX MAY BE COLLECTED AS EARLY AS 12 NOON.", "nsi_id": "unitedstatespostalservice-a77078", "operator": "United States Postal Service", "operator:short": "USPS", "operator:type": "public", "operator:wikidata": "Q668687", "ref": "6702900003"}, "type": "Feature"}
{"geometry": {"coordinates": [-97.5402716493, 37.7827965284], "type": "Point"}, "id": "wC1maids8xE4ZoW-GsGeA8Kp6IE=", "properties": {"@source_uri": "https://tools.usps.com/UspsToolsRestServices/rest/POLocator/findLocations", "@spider": "usps_collection_boxes", "addr:city": "COLWICH", "addr:country": "US", "addr:postcode": "67030", "addr:state": "KS", "addr:street_address": "417 W WICHITA AVE", "amenity": "post_box", "brand": "United States Postal Service", "brand:wikidata": "Q668687", "collection_times": "Mo-Fr 16:15; Sa 10:15", "note": "ON 12/24 AND 12/31, THIS BOX MAY BE COLLECTED AS EARLY AS 12 NOON.", "nsi_id": "unitedstatespostalservice-a77078", "operator": "United States Postal Service", "operator:short": "USPS", "operator:type": "public", "operator:wikidata": "Q668687", "ref": "6703000001"}, "type": "Feature"}
{"geometry": {"coordinates": [-97.5402716493, 37.7827965284], "type": "Point"}, "id": "Z4udLZTWMgaayhXv6ajdmfM12eU=", "properties": {"@source_uri": "https://tools.usps.com/UspsToolsRestServices/rest/POLocator/findLocations", "@spider": "usps_collection_boxes", "addr:city": "COLWICH", "addr:country": "US", "addr:postcode": "67030", "addr:state": "KS", "addr:street_address": "417 W WICHITA AVE", "amenity": "post_box", "brand": "United States Postal Service", "brand:wikidata": "Q668687", "collection_times": "Mo-Fr 16:15; Sa 10:15", "indoor": "yes", "note": "ON 12/24 AND 12/31, THIS BOX MAY BE COLLECTED AS EARLY AS 12 NOON.", "nsi_id": "unitedstatespostalservice-a77078", "operator": "United States Postal Service", "operator:short": "USPS", "operator:type": "public", "operator:wikidata": "Q668687", "ref": "6703000002"}, "type": "Feature"}
{"geometry": {"coordinates": [-97.5402716493, 37.7827965284], "type": "Point"}, "id": "-8yeo7Ph-coL0foZxxVBIXFz2OI=", "properties": {"@source_uri": "https://tools.usps.com/UspsToolsRestServices/rest/POLocator/findLocations", "@spider": "usps_collection_boxes", "addr:city": "COLWICH", "addr:country": "US", "addr:postcode": "67030", "addr:state": "KS", "addr:street_address": "417 W WICHITA AVE", "amenity": "post_box", "brand": "United States Postal Service", "brand:wikidata": "Q668687", "collection_times": "Mo-Fr 16:15; Sa 10:15", "indoor": "yes", "note": "ON 12/24 AND 12/31, THIS BOX MAY BE COLLECTED AS EARLY AS 12 NOON.", "nsi_id": "unitedstatespostalservice-a77078", "operator": "United States Postal Service", "operator:short": "USPS", "operator:type": "public", "operator:wikidata": "Q668687", "ref": "6703000003"}, "type": "Feature"}
{"geometry": {"coordinates": [-97.6430341, 37.390328], "type": "Point"}, "id": "kDwbxqiaPC5hUGCALldbcSvyIjU=", "properties": {"@source_uri": "https://tools.usps.com/UspsToolsRestServices/rest/POLocator/findLocations", "@spider": "usps_collection_boxes", "addr:city": "CONWAY SPRINGS", "addr:country": "US", "addr:postcode": "67031", "addr:state": "KS", "addr:street_address": "212 W SPRING ST", "amenity": "post_box", "brand": "United States Postal Service", "brand:wikidata": "Q668687", "collection_times": "Mo-Fr 16:15; Sa 10:45", "note": "ON 12/24 AND 12/31, THIS BOX MAY BE COLLECTED AS EARLY AS 12 NOON.", "nsi_id": "unitedstatespostalservice-a77078", "operator": "United States Postal Service", "operator:short": "USPS", "operator:type": "public", "operator:wikidata": "Q668687", "ref": "6703100001"}, "type": "Feature"}
{"geometry": {"coordinates": [-97.642729, 37.390277], "type": "Point"}, "id": "R8BBmEoT1Pr_pkpcrijAsH00dmA=", "properties": {"@source_uri": "https://tools.usps.com/UspsToolsRestServices/rest/POLocator/findLocations", "@spider": "usps_collection_boxes", "addr:city": "CONWAY SPRINGS", "addr:country": "US", "addr:postcode": "67031", "addr:state": "KS", "addr:street_address": "212 W SPRING ST", "amenity": "post_box", "brand": "United States Postal Service", "brand:wikidata": "Q668687", "collection_times": "Mo-Fr 16:15; Sa 10:45", "indoor": "yes", "note": "ON 12/24 AND 12/31, THIS BOX MAY BE COLLECTED AS EARLY AS 12 NOON.", "nsi_id": "unitedstatespostalservice-a77078", "operator": "United States Postal Service", "operator:short": "USPS", "operator:type": "public", "operator:wikidata": "Q668687", "ref": "6703100002"}, "type": "Feature"}
{"geometry": {"coordinates": [-97.6430524561, 37.3902734788], "type": "Point"}, "id": "eErzXVBs4A6aiwaJIc9gzKwOKNw=", "properties": {"@source_uri": "https://tools.usps.com/UspsToolsRestServices/rest/POLocator/findLocations", "@spider": "usps_collection_boxes", "addr:city": "CONWAY SPRINGS", "addr:country": "US", "addr:postcode": "67031", "addr:state": "KS", "addr:street_address": "212 W SPRING ST", "amenity": "post_box", "brand": "United States Postal Service", "brand:wikidata": "Q668687", "collection_times": "Mo-Fr 16:15; Sa 10:45", "indoor": "yes", "note": "ON 12/24 AND 12/31, THIS BOX MAY BE COLLECTED AS EARLY AS 12 NOON.", "nsi_id": "unitedstatespostalservice-a77078", "operator": "United States Postal Service", "operator:short": "USPS", "operator:type": "public", "operator:wikidata": "Q668687", "ref": "6703100003"}, "type": "Feature"}
{"geometry": {"coordinates": [-98.4330157, 37.645772], "type": "Point"}, "id": "-HaTos1kkEcCQRTA77j3huXL9rQ=", "properties": {"@source_uri": "https://tools.usps.com/UspsToolsRestServices/rest/POLocator/findLocations", "@spider": "usps_collection_boxes", "addr:city": "CUNNINGHAM", "addr:country": "US", "addr:postcode": "67035", "addr:state": "KS", "addr:street_address": "107 N MAIN ST", "amenity": "post_box", "brand": "United States Postal Service", "brand:wikidata": "Q668687", "collection_times": "Mo-Fr 14:15; Sa 09:45", "note": "ON 12/24 AND 12/31, THIS BOX MAY BE COLLECTED AS EARLY AS 12 NOON.", "nsi_id": "unitedstatespostalservice-a77078", "operator": "United States Postal Service", "operator:short": "USPS", "operator:type": "public", "operator:wikidata": "Q668687", "ref": "6703500001"}, "type": "Feature"}
{"geometry": {"coordinates": [-98.432833, 37.645426], "type": "Point"}, "id": "yzEZzFFC6I41gBAS6OCPDbOqiVo=", "properties": {"@source_uri": "https://tools.usps.com/UspsToolsRestServices/rest/POLocator/findLocations", "@spider": "usps_collection_boxes", "addr:city": "CUNNINGHAM", "addr:country": "US", "addr:postcode": "67035", "addr:state": "KS", "addr:street_address": "107 N MAIN ST", "amenity": "post_box", "brand": "United States Postal Service", "brand:wikidata": "Q668687", "collection_times": "Mo-Fr 14:15; Sa 09:45", "indoor": "yes", "note": "ON 12/24 AND 12/31, THIS BOX MAY BE COLLECTED AS EARLY AS 12 NOON.", "nsi_id": "unitedstatespostalservice-a77078", "operator": "United States Postal Service", "operator:short": "USPS", "operator:type": "public", "operator:wikidata": "Q668687", "ref": "6703500002"}, "type": "Feature"}
{"geometry": {"coordinates": [-98.319328318, 37.717737294], "type": "Point"}, "id": "mF_zTyU8R94KpiR6GC2kFHIwES0=", "properties": {"@source_uri": "https://tools.usps.com/UspsToolsRestServices/rest/POLocator/findLocations", "@spider": "usps_collection_boxes", "addr:city": "CUNNINGHAM", "addr:country": "US", "addr:postcode": "67035", "addr:state": "KS", "addr:street_address": "107 W MAIN ST", "amenity": "post_box", "brand": "United States Postal Service", "brand:wikidata": "Q668687", "collection_times": "Mo-Fr 14:15; Sa 09:45", "indoor": "yes", "note": "ON 12/24 AND 12/31, THIS BOX MAY BE COLLECTED AS EARLY AS 12 NOON.", "nsi_id": "unitedstatespostalservice-a77078", "operator": "United States Postal Service", "operator:short": "USPS", "operator:type": "public", "operator:wikidata": "Q668687", "ref": "6703500003"}, "type": "Feature"}
{"geometry": {"coordinates": [-97.8916234, 37.284298], "type": "Point"}, "id": "z-UMmoEQV7eHcVWMcu8XR-nXV7w=", "properties": {"@source_uri": "https://tools.usps.com/UspsToolsRestServices/rest/POLocator/findLocations", "@spider": "usps_collection_boxes", "addr:city": "DANVILLE", "addr:country": "US", "addr:postcode": "67036", "addr:state": "KS", "addr:street_address": "104 RYAN AVE", "amenity": "post_box", "brand": "United States Postal Service", "brand:wikidata": "Q668687", "collection_times": "Mo-Fr 12:30; Sa 11:30", "note": "ON 12/24 AND 12/31, THIS BOX MAY BE COLLECTED AS EARLY AS 12 NOON.", "nsi_id": "unitedstatespostalservice-a77078", "operator": "United States Postal Service", "operator:short": "USPS", "operator:type": "public", "operator:wikidata": "Q668687", "ref": "6703600001"}, "type": "Feature"}
{"geometry": {"coordinates": [-97.8914870312, 37.2843029989], "type": "Point"}, "id": "MZEW2r_KviRLEfmDMqXXXbI6cNE=", "properties": {"@source_uri": "https://tools.usps.com/UspsToolsRestServices/rest/POLocator/findLocations", "@spider": "usps_collection_boxes", "addr:city": "DANVILLE", "addr:country": "US", "addr:postcode": "67036", "addr:state": "KS", "addr:street_address": "104 RYAN AVE", "amenity": "post_box", "brand": "United States Postal Service", "brand:wikidata": "Q668687", "collection_times": "Mo-Fr 12:30; Sa 11:30", "indoor": "yes", "note": "ON 12/24 AND 12/31, THIS BOX MAY BE COLLECTED AS EARLY AS 12 NOON.", "nsi_id": "unitedstatespostalservice-a77078", "operator": "United States Postal Service", "operator:short": "USPS", "operator:type": "public", "operator:wikidata": "Q668687", "ref": "6703600002"}, "type": "Feature"}
{"geometry": {"coordinates": [-97.8914870312, 37.2843029989], "type": "Point"}, "id": "jMK-waEY13C5WFnU-RBb6Okp4lY=", "properties": {"@source_uri": "https://tools.usps.com/UspsToolsRestServices/rest/POLocator/findLocations", "@spider": "usps_collection_boxes", "addr:city": "DANVILLE", "addr:country": "US", "addr:postcode": "67036", "addr:state": "KS", "addr:street_address": "104 RYAN AVE", "amenity": "post_box", "brand": "United States Postal Service", "brand:wikidata": "Q668687", "collection_times": "Mo-Fr 12:30; Sa 11:30", "indoor": "yes", "note": "ON 12/24 AND 12/31, THIS BOX MAY BE COLLECTED AS EARLY AS 12 NOON.", "nsi_id": "unitedstatespostalservice-a77078", "operator": "United States Postal Service", "operator:short": "USPS", "operator:type": "public", "operator:wikidata": "Q668687", "ref": "6703600003"}, "type": "Feature"}
{"geometry": {"coordinates": [-97.2470393, 37.550575], "type": "Point"}, "id": "GjeQjwrrj2-0RjiEJqgnWQ6sBPM=", "properties": {"@source_uri": "https://tools.usps.com/UspsToolsRestServices/rest/POLocator/findLocations", "@spider": "usps_collection_boxes", "addr:city": "DERBY", "addr:country": "US", "addr:postcode": "67037", "addr:state": "KS", "addr:street_address": "1600 E WALNUT GROVE RD", "amenity": "post_box", "brand": "United States Postal Service", "brand:wikidata": "Q668687", "collection_times": "Mo-Sa 10:00", "nsi_id": "unitedstatespostalservice-a77078", "operator": "United States Postal Service", "operator:short": "USPS", "operator:type": "public", "operator:wikidata": "Q668687", "ref": "6703700001"}, "type": "Feature"}
{"geometry": {"coordinates": [-97.266635, 37.543895], "type": "Point"}, "id": "2FEtklsllAvzkoZQn3n1VHmLsqA=", "properties": {"@source_uri": "https://tools.usps.com/UspsToolsRestServices/rest/POLocator/findLocations", "@spider": "usps_collection_boxes", "addr:city": "DERBY", "addr:country": "US", "addr:postcode": "67037", "addr:state": "KS", "addr:street_address": "201 W GREENWAY ST", "amenity": "post_box", "brand": "United States Postal Service", "brand:wikidata": "Q668687", "collection_times": "Mo-Fr 17:00; Sa 15:00", "note": "ON 12/24 AND 12/31, THIS BOX MAY BE COLLECTED AS EARLY AS 12 NOON.", "nsi_id": "unitedstatespostalservice-a77078", "operator": "United States Postal Service", "operator:short": "USPS", "operator:type": "public", "operator:wikidata": "Q668687", "ref": "6703700008"}, "type": "Feature"}
{"geometry": {"coordinates": [-97.271833668, 37.556991485], "type": "Point"}, "id": "JjTchZf4R43MBXg78b-1dOD287M=", "properties": {"@source_uri": "https://tools.usps.com/UspsToolsRestServices/rest/POLocator/findLocations", "@spider": "usps_collection_boxes", "addr:city": "DERBY", "addr:country": "US", "addr:postcode": "67037", "addr:state": "KS", "addr:street_address": "201 W GREENWAY ST", "amenity": "post_box", "brand": "United States Postal Service", "brand:wikidata": "Q668687", "collection_times": "Mo-Fr 17:00; Sa 15:00", "indoor": "yes", "note": "ON 12/24 AND 12/31, THIS BOX MAY BE COLLECTED AS EARLY AS 12 NOON.", "nsi_id": "unitedstatespostalservice-a77078", "operator": "United States Postal Service", "operator:short": "USPS", "operator:type": "public", "operator:wikidata": "Q668687", "ref": "6703700010"}, "type": "Feature"}
{"geometry": {"coordinates": [-97.271833668, 37.556991485], "type": "Point"}, "id": "A7icM7iYlnFNFbPiNxtyAgSWzHc=", "properties": {"@source_uri": "https://tools.usps.com/UspsToolsRestServices/rest/POLocator/findLocations", "@spider": "usps_collection_boxes", "addr:city": "DERBY", "addr:country": "US", "addr:postcode": "67037", "addr:state": "KS", "addr:street_address": "201 W GREENWAY ST", "amenity": "post_box", "brand": "United States Postal Service", "brand:wikidata": "Q668687", "collection_times": "Mo-Fr 17:00; Sa 12:00", "indoor": "yes", "note": "ON 12/24 AND 12/31, THIS BOX MAY BE COLLECTED AS EARLY AS 12 NOON.", "nsi_id": "unitedstatespostalservice-a77078", "operator": "United States Postal Service", "operator:short": "USPS", "operator:type": "public", "operator:wikidata": "Q668687", "ref": "6703700017"}, "type": "Feature"}
{"geometry": {"coordinates": [-96.7165548, 37.179787], "type": "Point"}, "id": "G0flclg9v52Eiy3Ei9BELArpBLQ=", "properties": {"@source_uri": "https://tools.usps.com/UspsToolsRestServices/rest/POLocator/findLocations", "@spider": "usps_collection_boxes", "addr:city": "DEXTER", "addr:country": "US", "addr:postcode": "67038", "addr:state": "KS", "addr:street_address": "118 N MAIN ST", "amenity": "post_box", "brand": "United States Postal Service", "brand:wikidata": "Q668687", "collection_times": "Mo-Fr 11:45; Sa 09:00", "nsi_id": "unitedstatespostalservice-a77078", "operator": "United States Postal Service", "operator:short": "USPS", "operator:type": "public", "operator:wikidata": "Q668687", "ref": "6703800001"}, "type": "Feature"}
{"geometry": {"coordinates": [-96.716637, 37.179772], "type": "Point"}, "id": "JKb2jHYD759KWUxXsbjHZcWLhXU=", "properties": {"@source_uri": "https://tools.usps.com/UspsToolsRestServices/rest/POLocator/findLocations", "@spider": "usps_collection_boxes", "addr:city": "DEXTER", "addr:country": "US", "addr:postcode": "67038", "addr:state": "KS", "addr:street_address": "118 N MAIN ST", "amenity": "post_box", "brand": "United States Postal Service", "brand:wikidata": "Q668687", "collection_times": "Mo-Fr 11:45; Sa 09:00", "indoor": "yes", "nsi_id": "unitedstatespostalservice-a77078", "operator": "United States Postal Service", "operator:short": "USPS", "operator:type": "public", "operator:wikidata": "Q668687", "ref": "6703800002"}, "type": "Feature"}
{"geometry": {"coordinates": [-96.716639444, 37.179764656], "type": "Point"}, "id": "w-a2_KlatdrZKXCg9wEF5AzWO_Y=", "properties": {"@source_uri": "https://tools.usps.com/UspsToolsRestServices/rest/POLocator/findLocations", "@spider": "usps_collection_boxes", "addr:city": "DEXTER", "addr:country": "US", "addr:postcode": "67038", "addr:state": "KS", "addr:street_address": "118 N MAIN ST", "amenity": "post_box", "brand": "United States Postal Service", "brand:wikidata": "Q668687", "collection_times": "Mo-Fr 11:45; Sa 09:00", "indoor": "yes", "nsi_id": "unitedstatespostalservice-a77078", "operator": "United States Postal Service", "operator:short": "USPS", "operator:type": "public", "operator:wikidata": "Q668687", "ref": "6703800003"}, "type": "Feature"}
{"geometry": {"coordinates": [-97.0164547, 37.516967], "type": "Point"}, "id": "Vzjlg02uhYPoiYdJx2aHkMoYyOY=", "properties": {"@source_uri": "https://tools.usps.com/UspsToolsRestServices/rest/POLocator/findLocations", "@spider": "usps_collection_boxes", "addr:city": "DOUGLASS", "addr:country": "US", "addr:postcode": "67039", "addr:state": "KS", "addr:street_address": "315 S FORREST ST", "amenity": "post_box", "brand": "United States Postal Service", "brand:wikidata": "Q668687", "collection_times": "Mo-Fr 16:15; Sa 09:15", "note": "ON 12/24 AND 12/31, THIS BOX MAY BE COLLECTED AS EARLY AS 12 NOON.", "nsi_id": "unitedstatespostalservice-a77078", "operator": "United States Postal Service", "operator:short": "USPS", "operator:type": "public", "operator:wikidata": "Q668687", "ref": "6703900001"}, "type": "Feature"}
{"geometry": {"coordinates": [-97.016305, 37.517198], "type": "Point"}, "id": "WiwaBhn7_o2PBnkogQ_1RLNOptE=", "properties": {"@source_uri": "https://tools.usps.com/UspsToolsRestServices/rest/POLocator/findLocations", "@spider": "usps_collection_boxes", "addr:city": "DOUGLASS", "addr:country": "US", "addr:postcode": "67039", "addr:state": "KS", "addr:street_address": "315 S FORREST ST", "amenity": "post_box", "brand": "United States Postal Service", "brand:wikidata": "Q668687", "collection_times": "Mo-Fr 16:15; Sa 09:15", "indoor": "yes", "note": "ON 12/24 AND 12/31, THIS BOX MAY BE COLLECTED AS EARLY AS 12 NOON.", "nsi_id": "unitedstatespostalservice-a77078", "operator": "United States Postal Service", "operator:short": "USPS", "operator:type": "public", "operator:wikidata": "Q668687", "ref": "6703900002"}, "type": "Feature"}
{"geometry": {"coordinates": [-97.016296089, 37.5169757427], "type": "Point"}, "id": "usTjVbWEkrO3c3OONBeQfOsR9Hw=", "properties": {"@source_uri": "https://tools.usps.com/UspsToolsRestServices/rest/POLocator/findLocations", "@spider": "usps_collection_boxes", "addr:city": "DOUGLASS", "addr:country": "US", "addr:postcode": "67039", "addr:state": "KS", "addr:street_address": "315 FORREST ST", "amenity": "post_box", "brand": "United States Postal Service", "brand:wikidata": "Q668687", "collection_times": "Mo-Fr 16:15; Sa 09:15", "indoor": "yes", "note": "ON 12/24 AND 12/31, THIS BOX MAY BE COLLECTED AS EARLY AS 12 NOON.", "nsi_id": "unitedstatespostalservice-a77078", "operator": "United States Postal Service", "operator:short": "USPS", "operator:type": "public", "operator:wikidata": "Q668687", "ref": "6703900003"}, "type": "Feature"}
{"geometry": {"coordinates": [-97.1266342, 38.053273], "type": "Point"}, "id": "4khEBXGRRoOI8TTDa9A7sqngvAA=", "properties": {"@source_uri": "https://tools.usps.com/UspsToolsRestServices/rest/POLocator/findLocations", "@spider": "usps_collection_boxes", "addr:city": "ELBING", "addr:country": "US", "addr:postcode": "67041", "addr:state": "KS", "addr:street_address": "225 N MAIN ST", "amenity": "post_box", "brand": "United States Postal Service", "brand:wikidata": "Q668687", "collection_times": "Mo-Fr 11:45; Sa 09:15", "nsi_id": "unitedstatespostalservice-a77078", "operator": "United States Postal Service", "operator:short": "USPS", "operator:type": "public", "operator:wikidata": "Q668687", "ref": "6704100001"}, "type": "Feature"}
{"geometry": {"coordinates": [-97.126575, 38.052726], "type": "Point"}, "id": "hDZUaBGcWMoc8uzAeiKtXqzwl1I=", "properties": {"@source_uri": "https://tools.usps.com/UspsToolsRestServices/rest/POLocator/findLocations", "@spider": "usps_collection_boxes", "addr:city": "ELBING", "addr:country": "US", "addr:postcode": "67041", "addr:state": "KS", "addr:street_address": "225 N MAIN ST", "amenity": "post_box", "brand": "United States Postal Service", "brand:wikidata": "Q668687", "collection_times": "Mo-Fr 11:45; Sa 09:15", "indoor": "yes", "nsi_id": "unitedstatespostalservice-a77078", "operator": "United States Postal Service", "operator:short": "USPS", "operator:type": "public", "operator:wikidata": "Q668687", "ref": "6704100002"}, "type": "Feature"}
{"geometry": {"coordinates": [-97.1266018243, 38.0527045806], "type": "Point"}, "id": "x7qCT05OLthQcm1oTi-pasq6sbA=", "properties": {"@source_uri": "https://tools.usps.com/UspsToolsRestServices/rest/POLocator/findLocations", "@spider": "usps_collection_boxes", "addr:city": "ELBING", "addr:country": "US", "addr:postcode": "67041", "addr:state": "KS", "addr:street_address": "225 N MAIN ST", "amenity": "post_box", "brand": "United States Postal Service", "brand:wikidata": "Q668687", "collection_times": "Mo-Fr 11:45; Sa 09:15", "indoor": "yes", "nsi_id": "unitedstatespostalservice-a77078", "operator": "United States Postal Service", "operator:short": "USPS", "operator:type": "public", "operator:wikidata": "Q668687", "ref": "6704100003"}, "type": "Feature"}
{"geometry": {"coordinates": [-96.8824699, 37.817567], "type": "Point"}, "id": "Pa6fOl_3IUvhAnzeAQg2F13UUAw=", "properties": {"@source_uri": "https://tools.usps.com/UspsToolsRestServices/rest/POLocator/findLocations", "@spider": "usps_collection_boxes", "addr:city": "EL DORADO", "addr:country": "US", "addr:postcode": "67042", "addr:state": "KS", "addr:street_address": "2354 W CENTRAL AVE", "amenity": "post_box", "brand": "United States Postal Service", "brand:wikidata": "Q668687", "collection_times": "Mo-Fr 14:00; Sa 11:00", "note": "ON 12/24 AND 12/31, THIS BOX MAY BE COLLECTED AS EARLY AS 12 NOON.", "nsi_id": "unitedstatespostalservice-a77078", "operator": "United States Postal Service", "operator:short": "USPS", "operator:type": "public", "operator:wikidata": "Q668687", "ref": "6704200006"}, "type": "Feature"}
{"geometry": {"coordinates": [-96.8524971, 37.817561], "type": "Point"}, "id": "bQPNPRqmGZML-g1-ZoXF4qrvVAM=", "properties": {"@source_uri": "https://tools.usps.com/UspsToolsRestServices/rest/POLocator/findLocations", "@spider": "usps_collection_boxes", "addr:city": "EL DORADO", "addr:country": "US", "addr:postcode": "67042", "addr:state": "KS", "addr:street_address": "226 W CENTRAL AVE", "amenity": "post_box", "brand": "United States Postal Service", "brand:wikidata": "Q668687", "collection_times": "Mo-Sa 14:00", "note": "ON 12/24 AND 12/31, THIS BOX MAY BE COLLECTED AS EARLY AS 12 NOON.", "nsi_id": "unitedstatespostalservice-a77078", "operator": "United States Postal Service", "operator:short": "USPS", "operator:type": "public", "operator:wikidata": "Q668687", "ref": "6704200009"}, "type": "Feature"}
{"geometry": {"coordinates": [-96.8490412, 37.816822], "type": "Point"}, "id": "rgJ5DkwfCrW0XJDKmtAhAOzSu9w=", "properties": {"@source_uri": "https://tools.usps.com/UspsToolsRestServices/rest/POLocator/findLocations", "@spider": "usps_collection_boxes", "addr:city": "EL DORADO", "addr:country": "US", "addr:postcode": "67042", "addr:state": "KS", "addr:street_address": "131 E CENTRAL AVE", "amenity": "post_box", "brand": "United States Postal Service", "brand:wikidata": "Q668687", "collection_times": "Mo-Fr 16:15; Sa 15:00", "note": "ON 12/24 AND 12/31, THIS BOX MAY BE COLLECTED AS EARLY AS 12 NOON.", "nsi_id": "unitedstatespostalservice-a77078", "operator": "United States Postal Service", "operator:short": "USPS", "operator:type": "public", "operator:wikidata": "Q668687", "ref": "6704200012"}, "type": "Feature"}
{"geometry": {"coordinates": [-96.8484499, 37.825146], "type": "Point"}, "id": "WE8HbFKMrmgEqdqpFWui9wpUoB0=", "properties": {"@source_uri": "https://tools.usps.com/UspsToolsRestServices/rest/POLocator/findLocations", "@spider": "usps_collection_boxes", "addr:city": "EL DORADO", "addr:country": "US", "addr:postcode": "67042", "addr:state": "KS", "addr:street_address": "700 N MAIN ST", "amenity": "post_box", "brand": "United States Postal Service", "brand:wikidata": "Q668687", "collection_times": "Mo-Sa 14:00", "note": "ON 12/24 AND 12/31, THIS BOX MAY BE COLLECTED AS EARLY AS 12 NOON.", "nsi_id": "unitedstatespostalservice-a77078", "operator": "United States Postal Service", "operator:short": "USPS", "operator:type": "public", "operator:wikidata": "Q668687", "ref": "6704200014"}, "type": "Feature"}
{"geometry": {"coordinates": [-96.848821, 37.817393], "type": "Point"}, "id": "czb4It8UZUlZQCn4xM53GdHnhM0=", "properties": {"@source_uri": "https://tools.usps.com/UspsToolsRestServices/rest/POLocator/findLocations", "@spider": "usps_collection_boxes", "addr:city": "EL DORADO", "addr:country": "US", "addr:postcode": "67042", "addr:state": "KS", "addr:street_address": "131 E CENTRAL AVE", "amenity": "post_box", "brand": "United States Postal Service", "brand:wikidata": "Q668687", "collection_times": "Mo-Fr 16:15; Sa 15:00", "indoor": "yes", "note": "ON 12/24 AND 12/31, THIS BOX MAY BE COLLECTED AS EARLY AS 12 NOON.", "nsi_id": "unitedstatespostalservice-a77078", "operator": "United States Postal Service", "operator:short": "USPS", "operator:type": "public", "operator:wikidata": "Q668687", "ref": "6704200017"}, "type": "Feature"}
{"geometry": {"coordinates": [-96.848893431, 37.817392466], "type": "Point"}, "id": "0Va_m2ATeS8CfNJsYdAdwVfW9Dg=", "properties": {"@source_uri": "https://tools.usps.com/UspsToolsRestServices/rest/POLocator/findLocations", "@spider": "usps_collection_boxes", "addr:city": "EL DORADO", "addr:country": "US", "addr:postcode": "67042", "addr:state": "KS", "addr:street_address": "131 E CENTRAL AVE", "amenity": "post_box", "brand": "United States Postal Service", "brand:wikidata": "Q668687", "collection_times": "Mo-Fr 16:45", "indoor": "yes", "note": "ON 12/24 AND 12/31, THIS BOX MAY BE COLLECTED AS EARLY AS 12 NOON.", "nsi_id": "unitedstatespostalservice-a77078", "operator": "United States Postal Service", "operator:short": "USPS", "operator:type": "public", "operator:wikidata": "Q668687", "ref": "6704200021"}, "type": "Feature"}
{"geometry": {"coordinates": [-96.2956047, 37.82159], "type": "Point"}, "id": "B9NV9y-gh1UjwnQN1LoIXgcWQcI=", "properties": {"@source_uri": "https://tools.usps.com/UspsToolsRestServices/rest/POLocator/findLocations", "@spider": "usps_collection_boxes", "addr:city": "EUREKA", "addr:country": "US", "addr:postcode": "67045", "addr:state": "KS", "addr:street_address": "301 N OAK ST", "amenity": "post_box", "brand": "United States Postal Service", "brand:wikidata": "Q668687", "collection_times": "Mo-Fr 16:15; Sa 09:45", "note": "ON 12/24 AND 12/31, THIS BOX MAY BE COLLECTED AS EARLY AS 12 NOON.", "nsi_id": "unitedstatespostalservice-a77078", "operator": "United States Postal Service", "operator:short": "USPS", "operator:type": "public", "operator:wikidata": "Q668687", "ref": "6704500001"}, "type": "Feature"}
{"geometry": {"coordinates": [-96.295586, 37.82142], "type": "Point"}, "id": "ea89G7ozzKLEzxpXIurYC0dqagQ=", "properties": {"@source_uri": "https://tools.usps.com/UspsToolsRestServices/rest/POLocator/findLocations", "@spider": "usps_collection_boxes", "addr:city": "EUREKA", "addr:country": "US", "addr:postcode": "67045", "addr:state": "KS", "addr:street_address": "301 N OAK ST", "amenity": "post_box", "brand": "United States Postal Service", "brand:wikidata": "Q668687", "collection_times": "Mo-Fr 16:15; Sa 09:45", "indoor": "yes", "note": "ON 12/24 AND 12/31, THIS BOX MAY BE COLLECTED AS EARLY AS 12 NOON.", "nsi_id": "unitedstatespostalservice-a77078", "operator": "United States Postal Service", "operator:short": "USPS", "operator:type": "public", "operator:wikidata": "Q668687", "ref": "6704500003"}, "type": "Feature"}
{"geometry": {"coordinates": [-96.5340862, 37.658528], "type": "Point"}, "id": "w0GO72Kk_AfMWvUhP3iabomK1Ig=", "properties": {"@source_uri": "https://tools.usps.com/UspsToolsRestServices/rest/POLocator/findLocations", "@spider": "usps_collection_boxes", "addr:city": "EUREKA", "addr:country": "US", "addr:postcode": "67045", "addr:state": "KS", "addr:street_address": "11406 SE WAIE ST", "amenity": "post_box", "brand": "United States Postal Service", "brand:wikidata": "Q668687", "collection_times": "Mo-Sa 10:00", "nsi_id": "unitedstatespostalservice-a77078", "operator": "United States Postal Service", "operator:short": "USPS", "operator:type": "public", "operator:wikidata": "Q668687", "ref": "6704500004"}, "type": "Feature"}
{"geometry": {"coordinates": [-96.295587808, 37.821419749], "type": "Point"}, "id": "PCi1S3W_20cGxqWVT_mcxmVFVtA=", "properties": {"@source_uri": "https://tools.usps.com/UspsToolsRestServices/rest/POLocator/findLocations", "@spider": "usps_collection_boxes", "addr:city": "EUREKA", "addr:country": "US", "addr:postcode": "67045", "addr:state": "KS", "addr:street_address": "301 N OAK ST", "amenity": "post_box", "brand": "United States Postal Service", "brand:wikidata": "Q668687", "collection_times": "Mo-Fr 16:15; Sa 09:45", "indoor": "yes", "note": "ON 12/24 AND 12/31, THIS BOX MAY BE COLLECTED AS EARLY AS 12 NOON.", "nsi_id": "unitedstatespostalservice-a77078", "operator": "United States Postal Service", "operator:short": "USPS", "operator:type": "public", "operator:wikidata": "Q668687", "ref": "6704500005"}, "type": "Feature"}
{"geometry": {"coordinates": [-96.0281945, 37.608467], "type": "Point"}, "id": "VHB5p5DPwhnzJP64jgFPywAUEOw=", "properties": {"@source_uri": "https://tools.usps.com/UspsToolsRestServices/rest/POLocator/findLocations", "@spider": "usps_collection_boxes", "addr:city": "FALL RIVER", "addr:country": "US", "addr:postcode": "67047", "addr:state": "KS", "addr:street_address": "412 MERCHANTS AVE", "amenity": "post_box", "brand": "United States Postal Service", "brand:wikidata": "Q668687", "collection_times": "Mo-Fr 11:15; Sa 08:15", "nsi_id": "unitedstatespostalservice-a77078", "operator": "United States Postal Service", "operator:short": "USPS", "operator:type": "public", "operator:wikidata": "Q668687", "ref": "6704700001"}, "type": "Feature"}
{"geometry": {"coordinates": [-96.028136, 37.60848], "type": "Point"}, "id": "RgVk0DZ-2weVJnrVAYZ4VycBzag=", "properties": {"@source_uri": "https://tools.usps.com/UspsToolsRestServices/rest/POLocator/findLocations", "@spider": "usps_collection_boxes", "addr:city": "FALL RIVER", "addr:country": "US", "addr:postcode": "67047", "addr:state": "KS", "addr:street_address": "412 MERCHANTS AVE", "amenity": "post_box", "brand": "United States Postal Service", "brand:wikidata": "Q668687", "collection_times": "Mo-Fr 11:15; Sa 08:15", "indoor": "yes", "nsi_id": "unitedstatespostalservice-a77078", "operator": "United States Postal Service", "operator:short": "USPS", "operator:type": "public", "operator:wikidata": "Q668687", "ref": "6704700003"}, "type": "Feature"}
{"geometry": {"coordinates": [-96.0281386839, 37.6084803353], "type": "Point"}, "id": "rTgZ21UP3r6hIktdms-ITYLxWkU=", "properties": {"@source_uri": "https://tools.usps.com/UspsToolsRestServices/rest/POLocator/findLocations", "@spider": "usps_collection_boxes", "addr:city": "FALL RIVER", "addr:country": "US", "addr:postcode": "67047", "addr:state": "KS", "addr:street_address": "412 MERCHANTS AVE", "amenity": "post_box", "brand": "United States Postal Service", "brand:wikidata": "Q668687", "collection_times": "Mo-Fr 11:15; Sa 08:15", "indoor": "yes", "nsi_id": "unitedstatespostalservice-a77078", "operator": "United States Postal Service", "operator:short": "USPS", "operator:type": "public", "operator:wikidata": "Q668687", "ref": "6704700004"}, "type": "Feature"}
{"geometry": {"coordinates": [-97.8570268, 37.19766], "type": "Point"}, "id": "KjKtuZSJrZrAXXjuctO_ySZwGik=", "properties": {"@source_uri": "https://tools.usps.com/UspsToolsRestServices/rest/POLocator/findLocations", "@spider": "usps_collection_boxes", "addr:city": "FREEPORT", "addr:country": "US", "addr:postcode": "67049", "addr:state": "KS", "addr:street_address": "102 W MAIN ST", "amenity": "post_box", "brand": "United States Postal Service", "brand:wikidata": "Q668687", "collection_times": "Mo-Sa 09:00", "nsi_id": "unitedstatespostalservice-a77078", "operator": "United States Postal Service", "operator:short": "USPS", "operator:type": "public", "operator:wikidata": "Q668687", "ref": "6704900001"}, "type": "Feature"}
{"geometry": {"coordinates": [-97.6836630226, 37.6572090097], "type": "Point"}, "id": "WFpC6A8s-87ybk1pizd15SC8SHY=", "properties": {"@source_uri": "https://tools.usps.com/UspsToolsRestServices/rest/POLocator/findLocations", "@spider": "usps_collection_boxes", "addr:city": "GARDEN PLAIN", "addr:country": "US", "addr:postcode": "67050", "addr:state": "KS", "addr:street_address": "412 N MAIN ST", "amenity": "post_box", "brand": "United States Postal Service", "brand:wikidata": "Q668687", "collection_times": "Mo-Fr 15:15; Sa 11:30", "note": "ON 12/24 AND 12/31, THIS BOX MAY BE COLLECTED AS EARLY AS 12 NOON.", "nsi_id": "unitedstatespostalservice-a77078", "operator": "United States Postal Service", "operator:short": "USPS", "operator:type": "public", "operator:wikidata": "Q668687", "ref": "6705000001"}, "type": "Feature"}
{"geometry": {"coordinates": [-97.683917823, 37.657196162], "type": "Point"}, "id": "tkmeSPHAdPsTbR0tRWWqHjB0mh4=", "properties": {"@source_uri": "https://tools.usps.com/UspsToolsRestServices/rest/POLocator/findLocations", "@spider": "usps_collection_boxes", "addr:city": "GARDEN PLAIN", "addr:country": "US", "addr:postcode": "67050", "addr:state": "KS", "addr:street_address": "412 N MAIN ST", "amenity": "post_box", "brand": "United States Postal Service", "brand:wikidata": "Q668687", "collection_times": "Mo-Fr 15:15; Sa 11:30", "indoor": "yes", "note": "ON 12/24 AND 12/31, THIS BOX MAY BE COLLECTED AS EARLY AS 12 NOON.", "nsi_id": "unitedstatespostalservice-a77078", "operator": "United States Postal Service", "operator:short": "USPS", "operator:type": "public", "operator:wikidata": "Q668687", "ref": "6705000002"}, "type": "Feature"}
{"geometry": {"coordinates": [-97.683917823, 37.657196162], "type": "Point"}, "id": "1-pldqYR-e-M9WuGZnk7-L0CgGw=", "properties": {"@source_uri": "https://tools.usps.com/UspsToolsRestServices/rest/POLocator/findLocations", "@spider": "usps_collection_boxes", "addr:city": "GARDEN PLAIN", "addr:country": "US", "addr:postcode": "67050", "addr:state": "KS", "addr:street_address": "412 N MAIN ST", "amenity": "post_box", "brand": "United States Postal Service", "brand:wikidata": "Q668687", "collection_times": "Mo-Fr 15:15; Sa 11:30", "indoor": "yes", "note": "ON 12/24 AND 12/31, THIS BOX MAY BE COLLECTED AS EARLY AS 12 NOON.", "nsi_id": "unitedstatespostalservice-a77078", "operator": "United States Postal Service", "operator:short": "USPS", "operator:type": "public", "operator:wikidata": "Q668687", "ref": "6705000003"}, "type": "Feature"}
{"geometry": {"coordinates": [-97.1490764469, 37.1133896647], "type": "Point"}, "id": "CgtxiLpYzQ1FW4bzEqfPCF1y88s=", "properties": {"@source_uri": "https://tools.usps.com/UspsToolsRestServices/rest/POLocator/findLocations", "@spider": "usps_collection_boxes", "addr:city": "GEUDA SPRINGS", "addr:country": "US", "addr:postcode": "67051", "addr:state": "KS", "addr:street_address": "117 S 1ST ST", "amenity": "post_box", "brand": "United States Postal Service", "brand:wikidata": "Q668687", "collection_times": "Mo-Sa 15:30", "note": "ON 12/24 AND 12/31, THIS BOX MAY BE COLLECTED AS EARLY AS 12 NOON.", "nsi_id": "unitedstatespostalservice-a77078", "operator": "United States Postal Service", "operator:short": "USPS", "operator:type": "public", "operator:wikidata": "Q668687", "ref": "6705100000"}, "type": "Feature"}
{"geometry": {"coordinates": [-97.149075, 37.11332], "type": "Point"}, "id": "Xq7ETQuKjR90Xpt3IaVohIgecN8=", "properties": {"@source_uri": "https://tools.usps.com/UspsToolsRestServices/rest/POLocator/findLocations", "@spider": "usps_collection_boxes", "addr:city": "GEUDA SPRINGS", "addr:country": "US", "addr:postcode": "67051", "addr:state": "KS", "addr:street_address": "117 S 1ST ST", "amenity": "post_box", "brand": "United States Postal Service", "brand:wikidata": "Q668687", "collection_times": "Mo-Sa 15:30", "indoor": "yes", "note": "ON 12/24 AND 12/31, THIS BOX MAY BE COLLECTED AS EARLY AS 12 NOON.", "nsi_id": "unitedstatespostalservice-a77078", "operator": "United States Postal Service", "operator:short": "USPS", "operator:type": "public", "operator:wikidata": "Q668687", "ref": "6705100001"}, "type": "Feature"}
{"geometry": {"coordinates": [-97.149076447, 37.113389665], "type": "Point"}, "id": "0Kl5G1at7dXOVbTenll3yzwCxy8=", "properties": {"@source_uri": "https://tools.usps.com/UspsToolsRestServices/rest/POLocator/findLocations", "@spider": "usps_collection_boxes", "addr:city": "GEUDA SPRINGS", "addr:country": "US", "addr:postcode": "67051", "addr:state": "KS", "addr:street_address": "117 S 1ST ST", "amenity": "post_box", "brand": "United States Postal Service", "brand:wikidata": "Q668687", "collection_times": "Mo-Sa 15:30", "indoor": "yes", "note": "ON 12/24 AND 12/31, THIS BOX MAY BE COLLECTED AS EARLY AS 12 NOON.", "nsi_id": "unitedstatespostalservice-a77078", "operator": "United States Postal Service", "operator:short": "USPS", "operator:type": "public", "operator:wikidata": "Q668687", "ref": "6705100002"}, "type": "Feature"}
{"geometry": {"coordinates": [-97.5744819, 37.659942], "type": "Point"}, "id": "m1xYz4qXWd_74CNZaaXHMW5VIqg=", "properties": {"@source_uri": "https://tools.usps.com/UspsToolsRestServices/rest/POLocator/findLocations", "@spider": "usps_collection_boxes", "addr:city": "GODDARD", "addr:country": "US", "addr:postcode": "67052", "addr:state": "KS", "addr:street_address": "328 N MAIN ST", "amenity": "post_box", "brand": "United States Postal Service", "brand:wikidata": "Q668687", "collection_times": "Mo-Fr 16:15; Sa 11:30", "note": "ON 12/24 AND 12/31, THIS BOX MAY BE COLLECTED AS EARLY AS 12 NOON.", "nsi_id": "unitedstatespostalservice-a77078", "operator": "United States Postal Service", "operator:short": "USPS", "operator:type": "public", "operator:wikidata": "Q668687", "ref": "6705200002"}, "type": "Feature"}
{"geometry": {"coordinates": [-97.574905, 37.659959], "type": "Point"}, "id": "rLZ9NNeky6HrL1Nj_uogj12KYJo=", "properties": {"@source_uri": "https://tools.usps.com/UspsToolsRestServices/rest/POLocator/findLocations", "@spider": "usps_collection_boxes", "addr:city": "GODDARD", "addr:country": "US", "addr:postcode": "67052", "addr:state": "KS", "addr:street_address": "328 N MAIN ST", "amenity": "post_box", "brand": "United States Postal Service", "brand:wikidata": "Q668687", "collection_times": "Mo-Fr 16:15; Sa 11:15", "indoor": "yes", "note": "ON 12/24 AND 12/31, THIS BOX MAY BE COLLECTED AS EARLY AS 12 NOON.", "nsi_id": "unitedstatespostalservice-a77078", "operator": "United States Postal Service", "operator:short": "USPS", "operator:type": "public", "operator:wikidata": "Q668687", "ref": "6705200003"}, "type": "Feature"}
{"geometry": {"coordinates": [-97.574908765, 37.65996], "type": "Point"}, "id": "zL9XYZJZJoQ_GuATXyS8jPj48eg=", "properties": {"@source_uri": "https://tools.usps.com/UspsToolsRestServices/rest/POLocator/findLocations", "@spider": "usps_collection_boxes", "addr:city": "GODDARD", "addr:country": "US", "addr:postcode": "67052", "addr:state": "KS", "addr:street_address": "328 N MAIN ST", "amenity": "post_box", "brand": "United States Postal Service", "brand:wikidata": "Q668687", "collection_times": "Mo-Fr 16:15; Sa 11:15", "indoor": "yes", "note": "ON 12/24 AND 12/31, THIS BOX MAY BE COLLECTED AS EARLY AS 12 NOON.", "nsi_id": "unitedstatespostalservice-a77078", "operator": "United States Postal Service", "operator:short": "USPS", "operator:type": "public", "operator:wikidata": "Q668687", "ref": "6705200005"}, "type": "Feature"}
{"geometry": {"coordinates": [-97.3482609971, 38.2464865218], "type": "Point"}, "id": "pRxdCKZ_zbFOXhDIAm1fDEZLvwk=", "properties": {"@source_uri": "https://tools.usps.com/UspsToolsRestServices/rest/POLocator/findLocations", "@spider": "usps_collection_boxes", "addr:city": "GOESSEL", "addr:country": "US", "addr:postcode": "67053", "addr:state": "KS", "addr:street_address": "207 E MAIN ST", "amenity": "post_box", "brand": "United States Postal Service", "brand:wikidata": "Q668687", "collection_times": "Mo-Fr 16:15; Sa 08:45", "note": "ON 12/24 AND 12/31, THIS BOX MAY BE COLLECTED AS EARLY AS 12 NOON.", "nsi_id": "unitedstatespostalservice-a77078", "operator": "United States Postal Service", "operator:short": "USPS", "operator:type": "public", "operator:wikidata": "Q668687", "ref": "6705300001"}, "type": "Feature"}
{"geometry": {"coordinates": [-97.3482609971, 38.2464865218], "type": "Point"}, "id": "RlJYBGO9syT3AlSgZyO3AfL_eE4=", "properties": {"@source_uri": "https://tools.usps.com/UspsToolsRestServices/rest/POLocator/findLocations", "@spider": "usps_collection_boxes", "addr:city": "GOESSEL", "addr:country": "US", "addr:postcode": "67053", "addr:state": "KS", "addr:street_address": "207 E MAIN ST", "amenity": "post_box", "brand": "United States Postal Service", "brand:wikidata": "Q668687", "collection_times": "Mo-Fr 16:15; Sa 08:45", "indoor": "yes", "note": "ON 12/24 AND 12/31, THIS BOX MAY BE COLLECTED AS EARLY AS 12 NOON.", "nsi_id": "unitedstatespostalservice-a77078", "operator": "United States Postal Service", "operator:short": "USPS", "operator:type": "public", "operator:wikidata": "Q668687", "ref": "6705300002"}, "type": "Feature"}
{"geometry": {"coordinates": [-97.3482609971, 38.2464865218], "type": "Point"}, "id": "5vvuZ7U3H-GlkDolGlivtmQwjXA=", "properties": {"@source_uri": "https://tools.usps.com/UspsToolsRestServices/rest/POLocator/findLocations", "@spider": "usps_collection_boxes", "addr:city": "GOESSEL", "addr:country": "US", "addr:postcode": "67053", "addr:state": "KS", "addr:street_address": "207 E MAIN ST", "amenity": "post_box", "brand": "United States Postal Service", "brand:wikidata": "Q668687", "collection_times": "Mo-Fr 16:15; Sa 08:45", "indoor": "yes", "note": "ON 12/24 AND 12/31, THIS BOX MAY BE COLLECTED AS EARLY AS 12 NOON.", "nsi_id": "unitedstatespostalservice-a77078", "operator": "United States Postal Service", "operator:short": "USPS", "operator:type": "public", "operator:wikidata": "Q668687", "ref": "6705300003"}, "type": "Feature"}
{"geometry": {"coordinates": [-99.2925290201, 37.6056689804], "type": "Point"}, "id": "JE4AmW287y60xRaJKkPHXw4QKPY=", "properties": {"@source_uri": "https://tools.usps.com/UspsToolsRestServices/rest/POLocator/findLocations", "@spider": "usps_collection_boxes", "addr:city": "GREENSBURG", "addr:country": "US", "addr:postcode": "67054", "addr:state": "KS", "addr:street_address": "116 S MAIN ST", "amenity": "post_box", "brand": "United States Postal Service", "brand:wikidata": "Q668687", "collection_times": "Mo-Fr 15:45; Sa 10:45", "note": "ON 12/24 AND 12/31, THIS BOX MAY BE COLLECTED AS EARLY AS 12 NOON.", "nsi_id": "unitedstatespostalservice-a77078", "operator": "United States Postal Service", "operator:short": "USPS", "operator:type": "public", "operator:wikidata": "Q668687", "ref": "6705400001"}, "type": "Feature"}
{"geometry": {"coordinates": [-99.292836313, 37.605663251], "type": "Point"}, "id": "EQENVgTBWUcZrvNZTrLHCakWwas=", "properties": {"@source_uri": "https://tools.usps.com/UspsToolsRestServices/rest/POLocator/findLocations", "@spider": "usps_collection_boxes", "addr:city": "GREENSBURG", "addr:country": "US", "addr:postcode": "67054", "addr:state": "KS", "addr:street_address": "116 S MAIN ST", "amenity": "post_box", "brand": "United States Postal Service", "brand:wikidata": "Q668687", "collection_times": "Mo-Fr 15:45; Sa 10:45", "indoor": "yes", "note": "ON 12/24 AND 12/31, THIS BOX MAY BE COLLECTED AS EARLY AS 12 NOON.", "nsi_id": "unitedstatespostalservice-a77078", "operator": "United States Postal Service", "operator:short": "USPS", "operator:type": "public", "operator:wikidata": "Q668687", "ref": "6705400005"}, "type": "Feature"}
{"geometry": {"coordinates": [-99.292836313, 37.605663251], "type": "Point"}, "id": "e_fmIZdbvbhUeocXrFWVnY5BpoI=", "properties": {"@source_uri": "https://tools.usps.com/UspsToolsRestServices/rest/POLocator/findLocations", "@spider": "usps_collection_boxes", "addr:city": "GREENSBURG", "addr:country": "US", "addr:postcode": "67054", "addr:state": "KS", "addr:street_address": "116 S MAIN ST", "amenity": "post_box", "brand": "United States Postal Service", "brand:wikidata": "Q668687", "collection_times": "Mo-Fr 15:45; Sa 10:45", "indoor": "yes", "note": "ON 12/24 AND 12/31, THIS BOX MAY BE COLLECTED AS EARLY AS 12 NOON.", "nsi_id": "unitedstatespostalservice-a77078", "operator": "United States Postal Service", "operator:short": "USPS", "operator:type": "public", "operator:wikidata": "Q668687", "ref": "6705400006"}, "type": "Feature"}
{"geometry": {"coordinates": [-97.5062813, 38.00222], "type": "Point"}, "id": "0bVDpbtuTvX8wVUm4tjh06TKCfI=", "properties": {"@source_uri": "https://tools.usps.com/UspsToolsRestServices/rest/POLocator/findLocations", "@spider": "usps_collection_boxes", "addr:city": "HALSTEAD", "addr:country": "US", "addr:postcode": "67056", "addr:state": "KS", "addr:street_address": "319 MAIN ST", "amenity": "post_box", "brand": "United States Postal Service", "brand:wikidata": "Q668687", "collection_times": "Mo-Fr 16:15; Sa 10:45", "note": "ON 12/24 AND 12/31, THIS BOX MAY BE COLLECTED AS EARLY AS 12 NOON.", "nsi_id": "unitedstatespostalservice-a77078", "operator": "United States Postal Service", "operator:short": "USPS", "operator:type": "public", "operator:wikidata": "Q668687", "ref": "6705600001"}, "type": "Feature"}
{"geometry": {"coordinates": [-97.506095, 38.002411], "type": "Point"}, "id": "dXM8pMXCZJhn5-guO74DGoKPWpc=", "properties": {"@source_uri": "https://tools.usps.com/UspsToolsRestServices/rest/POLocator/findLocations", "@spider": "usps_collection_boxes", "addr:city": "HALSTEAD", "addr:country": "US", "addr:postcode": "67056", "addr:state": "KS", "addr:street_address": "319 MAIN ST", "amenity": "post_box", "brand": "United States Postal Service", "brand:wikidata": "Q668687", "collection_times": "Mo-Fr 16:15; Sa 10:45", "indoor": "yes", "note": "ON 12/24 AND 12/31, THIS BOX MAY BE COLLECTED AS EARLY AS 12 NOON.", "nsi_id": "unitedstatespostalservice-a77078", "operator": "United States Postal Service", "operator:short": "USPS", "operator:type": "public", "operator:wikidata": "Q668687", "ref": "6705600005"}, "type": "Feature"}
{"geometry": {"coordinates": [-97.5060983843, 38.0024107544], "type": "Point"}, "id": "4wG7UGrhnUr1mHbQ-aXgbzCEaug=", "properties": {"@source_uri": "https://tools.usps.com/UspsToolsRestServices/rest/POLocator/findLocations", "@spider": "usps_collection_boxes", "addr:city": "HALSTEAD", "addr:country": "US", "addr:postcode": "67056", "addr:state": "KS", "addr:street_address": "319 MAIN ST", "amenity": "post_box", "brand": "United States Postal Service", "brand:wikidata": "Q668687", "collection_times": "Mo-Fr 16:15; Sa 10:45", "indoor": "yes", "note": "ON 12/24 AND 12/31, THIS BOX MAY BE COLLECTED AS EARLY AS 12 NOON.", "nsi_id": "unitedstatespostalservice-a77078", "operator": "United States Postal Service", "operator:short": "USPS", "operator:type": "public", "operator:wikidata": "Q668687", "ref": "6705600006"}, "type": "Feature"}
{"geometry": {"coordinates": [-98.6495229, 37.013297], "type": "Point"}, "id": "YKgiu5vFh-jEtptB89g_tDnqezo=", "properties": {"@source_uri": "https://tools.usps.com/UspsToolsRestServices/rest/POLocator/findLocations", "@spider": "usps_collection_boxes", "addr:city": "HARDTNER", "addr:country": "US", "addr:postcode": "67057", "addr:state": "KS", "addr:street_address": "109 S MAIN ST", "amenity": "post_box", "brand": "United States Postal Service", "brand:wikidata": "Q668687", "collection_times": "Mo-Fr 11:45; Sa 09:45", "nsi_id": "unitedstatespostalservice-a77078", "operator": "United States Postal Service", "operator:short": "USPS", "operator:type": "public", "operator:wikidata": "Q668687", "ref": "6705700001"}, "type": "Feature"}
{"geometry": {"coordinates": [-98.64936, 37.013682], "type": "Point"}, "id": "DqQg0tAWuBWAPFDo7sG8hYxqons=", "properties": {"@source_uri": "https://tools.usps.com/UspsToolsRestServices/rest/POLocator/findLocations", "@spider": "usps_collection_boxes", "addr:city": "HARDTNER", "addr:country": "US", "addr:postcode": "67057", "addr:state": "KS", "addr:street_address": "109 S MAIN ST", "amenity": "post_box", "brand": "United States Postal Service", "brand:wikidata": "Q668687", "collection_times": "Mo-Fr 11:45; Sa 09:45", "indoor": "yes", "nsi_id": "unitedstatespostalservice-a77078", "operator": "United States Postal Service", "operator:short": "USPS", "operator:type": "public", "operator:wikidata": "Q668687", "ref": "6705700002"}, "type": "Feature"}
{"geometry": {"coordinates": [-98.649374932, 37.013273696], "type": "Point"}, "id": "vDVggguC-ep6all8tZVi9vekClI=", "properties": {"@source_uri": "https://tools.usps.com/UspsToolsRestServices/rest/POLocator/findLocations", "@spider": "usps_collection_boxes", "addr:city": "HARDTNER", "addr:country": "US", "addr:postcode": "67057", "addr:state": "KS", "addr:street_address": "109 S MAIN ST", "amenity": "post_box", "brand": "United States Postal Service", "brand:wikidata": "Q668687", "collection_times": "Mo-Fr 11:45; Sa 09:45", "indoor": "yes", "nsi_id": "unitedstatespostalservice-a77078", "operator": "United States Postal Service", "operator:short": "USPS", "operator:type": "public", "operator:wikidata": "Q668687", "ref": "6705700003"}, "type": "Feature"}
{"geometry": {"coordinates": [-98.0257210313, 37.2876050078], "type": "Point"}, "id": "XFrR1pj9odRoByXO8ZKzvT8dMEk=", "properties": {"@source_uri": "https://tools.usps.com/UspsToolsRestServices/rest/POLocator/findLocations", "@spider": "usps_collection_boxes", "addr:city": "HARPER", "addr:country": "US", "addr:postcode": "67058", "addr:state": "KS", "addr:street_address": "901 CENTRAL ST", "amenity": "post_box", "brand": "United States Postal Service", "brand:wikidata": "Q668687", "collection_times": "Mo-Fr 16:45; Sa 10:15", "note": "ON 12/24 AND 12/31, THIS BOX MAY BE COLLECTED AS EARLY AS 12 NOON.", "nsi_id": "unitedstatespostalservice-a77078", "operator": "United States Postal Service", "operator:short": "USPS", "operator:type": "public", "operator:wikidata": "Q668687", "ref": "6705800002"}, "type": "Feature"}
{"geometry": {"coordinates": [-98.0259789582, 37.2875936961], "type": "Point"}, "id": "wpWq8JiHCTIarWacxq8ssjtUIx4=", "properties": {"@source_uri": "https://tools.usps.com/UspsToolsRestServices/rest/POLocator/findLocations", "@spider": "usps_collection_boxes", "addr:city": "HARPER", "addr:country": "US", "addr:postcode": "67058", "addr:state": "KS", "addr:street_address": "901 CENTRAL ST", "amenity": "post_box", "brand": "United States Postal Service", "brand:wikidata": "Q668687", "collection_times": "Mo-Fr 16:45; Sa 10:15", "indoor": "yes", "note": "ON 12/24 AND 12/31, THIS BOX MAY BE COLLECTED AS EARLY AS 12 NOON.", "nsi_id": "unitedstatespostalservice-a77078", "operator": "United States Postal Service", "operator:short": "USPS", "operator:type": "public", "operator:wikidata": "Q668687", "ref": "6705800004"}, "type": "Feature"}
{"geometry": {"coordinates": [-98.0259789582, 37.2875936961], "type": "Point"}, "id": "cWDFphLW6mDY-c7383aCjKbl7Yw=", "properties": {"@source_uri": "https://tools.usps.com/UspsToolsRestServices/rest/POLocator/findLocations", "@spider": "usps_collection_boxes", "addr:city": "HARPER", "addr:country": "US", "addr:postcode": "67058", "addr:state": "KS", "addr:street_address": "901 CENTRAL ST", "amenity": "post_box", "brand": "United States Postal Service", "brand:wikidata": "Q668687", "collection_times": "Mo-Fr 16:45; Sa 10:15", "indoor": "yes", "note": "ON 12/24 AND 12/31, THIS BOX MAY BE COLLECTED AS EARLY AS 12 NOON.", "nsi_id": "unitedstatespostalservice-a77078", "operator": "United States Postal Service", "operator:short": "USPS", "operator:type": "public", "operator:wikidata": "Q668687", "ref": "6705800005"}, "type": "Feature"}
{"geometry": {"coordinates": [-99.106267691, 37.615598246], "type": "Point"}, "id": "9MIrhSf3GrJykjcC4fwhZzpILlY=", "properties": {"@source_uri": "https://tools.usps.com/UspsToolsRestServices/rest/POLocator/findLocations", "@spider": "usps_collection_boxes", "addr:city": "HAVILAND", "addr:country": "US", "addr:postcode": "67059", "addr:state": "KS", "addr:street_address": "106 N MAIN ST", "amenity": "post_box", "brand": "United States Postal Service", "brand:wikidata": "Q668687", "collection_times": "Mo-Fr 13:45; Sa 10:15", "note": "ON 12/24 AND 12/31, THIS BOX MAY BE COLLECTED AS EARLY AS 12 NOON.", "nsi_id": "unitedstatespostalservice-a77078", "operator": "United States Postal Service", "operator:short": "USPS", "operator:type": "public", "operator:wikidata": "Q668687", "ref": "6705900001"}, "type": "Feature"}
{"geometry": {"coordinates": [-99.106277, 37.615659], "type": "Point"}, "id": "uNjohmauCqpZpVWJP-dHltZToSA=", "properties": {"@source_uri": "https://tools.usps.com/UspsToolsRestServices/rest/POLocator/findLocations", "@spider": "usps_collection_boxes", "addr:city": "HAVILAND", "addr:country": "US", "addr:postcode": "67059", "addr:state": "KS", "addr:street_address": "108 N MAIN ST", "amenity": "post_box", "brand": "United States Postal Service", "brand:wikidata": "Q668687", "collection_times": "Mo-Fr 13:45; Sa 10:15", "indoor": "yes", "note": "ON 12/24 AND 12/31, THIS BOX MAY BE COLLECTED AS EARLY AS 12 NOON.", "nsi_id": "unitedstatespostalservice-a77078", "operator": "United States Postal Service", "operator:short": "USPS", "operator:type": "public", "operator:wikidata": "Q668687", "ref": "6705900002"}, "type": "Feature"}
{"geometry": {"coordinates": [-99.106267691, 37.615598246], "type": "Point"}, "id": "vYtL-OQhVZ0WDliayPs-QEOxSyA=", "properties": {"@source_uri": "https://tools.usps.com/UspsToolsRestServices/rest/POLocator/findLocations", "@spider": "usps_collection_boxes", "addr:city": "HAVILAND", "addr:country": "US", "addr:postcode": "67059", "addr:state": "KS", "addr:street_address": "106 N MAIN ST", "amenity": "post_box", "brand": "United States Postal Service", "brand:wikidata": "Q668687", "collection_times": "Mo-Fr 13:45; Sa 10:15", "indoor": "yes", "note": "ON 12/24 AND 12/31, THIS BOX MAY BE COLLECTED AS EARLY AS 12 NOON.", "nsi_id": "unitedstatespostalservice-a77078", "operator": "United States Postal Service", "operator:short": "USPS", "operator:type": "public", "operator:wikidata": "Q668687", "ref": "6705900003"}, "type": "Feature"}
{"geometry": {"coordinates": [-97.3331133, 37.564101], "type": "Point"}, "id": "hKx4F6dWp9e5EMuxw8LO651K5rg=", "properties": {"@source_uri": "https://tools.usps.com/UspsToolsRestServices/rest/POLocator/findLocations", "@spider": "usps_collection_boxes", "addr:city": "HAYSVILLE", "addr:country": "US", "addr:postcode": "67060", "addr:state": "KS", "addr:street_address": "7200 S BROADWAY ST", "amenity": "post_box", "brand": "United States Postal Service", "brand:wikidata": "Q668687", "collection_times": "Mo-Sa 14:30", "note": "ON 12/24 AND 12/31, THIS BOX MAY BE COLLECTED AS EARLY AS 12 NOON.", "nsi_id": "unitedstatespostalservice-a77078", "operator": "United States Postal Service", "operator:short": "USPS", "operator:type": "public", "operator:wikidata": "Q668687", "ref": "6706000001"}, "type": "Feature"}
{"geometry": {"coordinates": [-97.354755, 37.564758], "type": "Point"}, "id": "g6qjk4y8xSjXIBWi2jIAqcBU14g=", "properties": {"@source_uri": "https://tools.usps.com/UspsToolsRestServices/rest/POLocator/findLocations", "@spider": "usps_collection_boxes", "addr:city": "HAYSVILLE", "addr:country": "US", "addr:postcode": "67060", "addr:state": "KS", "addr:street_address": "224 W GRAND AVE", "amenity": "post_box", "brand": "United States Postal Service", "brand:wikidata": "Q668687", "collection_times": "Mo-Fr 16:30; Sa 14:30", "note": "ON 12/24 AND 12/31, THIS BOX MAY BE COLLECTED AS EARLY AS 12 NOON.", "nsi_id": "unitedstatespostalservice-a77078", "operator": "United States Postal Service", "operator:short": "USPS", "operator:type": "public", "operator:wikidata": "Q668687", "ref": "6706000002"}, "type": "Feature"}
{"geometry": {"coordinates": [-97.354985, 37.56432], "type": "Point"}, "id": "rTsOZCpXjhYczZLzMfI0y8rb-KQ=", "properties": {"@source_uri": "https://tools.usps.com/UspsToolsRestServices/rest/POLocator/findLocations", "@spider": "usps_collection_boxes", "addr:city": "HAYSVILLE", "addr:country": "US", "addr:postcode": "67060", "addr:state": "KS", "addr:street_address": "224 W GRAND AVE", "amenity": "post_box", "brand": "United States Postal Service", "brand:wikidata": "Q668687", "collection_times": "Mo-Fr 16:30; Sa 14:30", "indoor": "yes", "note": "ON 12/24 AND 12/31, THIS BOX MAY BE COLLECTED AS EARLY AS 12 NOON.", "nsi_id": "unitedstatespostalservice-a77078", "operator": "United States Postal Service", "operator:short": "USPS", "operator:type": "public", "operator:wikidata": "Q668687", "ref": "6706000003"}, "type": "Feature"}
{"geometry": {"coordinates": [-97.354985, 37.56432], "type": "Point"}, "id": "S6qb3JP6J0rf874cIM8qGvXF6g0=", "properties": {"@source_uri": "https://tools.usps.com/UspsToolsRestServices/rest/POLocator/findLocations", "@spider": "usps_collection_boxes", "addr:city": "HAYSVILLE", "addr:country": "US", "addr:postcode": "67060", "addr:state": "KS", "addr:street_address": "224 W GRAND AVE", "amenity": "post_box", "brand": "United States Postal Service", "brand:wikidata": "Q668687", "collection_times": "Mo-Fr 16:30; Sa 11:00", "indoor": "yes", "note": "ON 12/24 AND 12/31, THIS BOX MAY BE COLLECTED AS EARLY AS 12 NOON.", "nsi_id": "unitedstatespostalservice-a77078", "operator": "United States Postal Service", "operator:short": "USPS", "operator:type": "public", "operator:wikidata": "Q668687", "ref": "6706000004"}, "type": "Feature"}
{"geometry": {"coordinates": [-98.3982724, 37.090352], "type": "Point"}, "id": "lLm8E_wSvU_duSLk3zoLIERwo24=", "properties": {"@source_uri": "https://tools.usps.com/UspsToolsRestServices/rest/POLocator/findLocations", "@spider": "usps_collection_boxes", "addr:city": "HAZELTON", "addr:country": "US", "addr:postcode": "67061", "addr:state": "KS", "addr:street_address": "405 E MAIN ST", "amenity": "post_box", "brand": "United States Postal Service", "brand:wikidata": "Q668687", "collection_times": "Mo-Sa 10:00", "nsi_id": "unitedstatespostalservice-a77078", "operator": "United States Postal Service", "operator:short": "USPS", "operator:type": "public", "operator:wikidata": "Q668687", "ref": "6706100001"}, "type": "Feature"}
{"geometry": {"coordinates": [-97.4325219, 38.140054], "type": "Point"}, "id": "pMX0kODQbNNRybbyGkBmJrxlYlc=", "properties": {"@source_uri": "https://tools.usps.com/UspsToolsRestServices/rest/POLocator/findLocations", "@spider": "usps_collection_boxes", "addr:city": "HESSTON", "addr:country": "US", "addr:postcode": "67062", "addr:state": "KS", "addr:street_address": "120 W KNOTT ST", "amenity": "post_box", "brand": "United States Postal Service", "brand:wikidata": "Q668687", "collection_times": "Mo-Fr 16:15; Sa 10:15", "note": "ON 12/24 AND 12/31, THIS BOX MAY BE COLLECTED AS EARLY AS 12 NOON.", "nsi_id": "unitedstatespostalservice-a77078", "operator": "United States Postal Service", "operator:short": "USPS", "operator:type": "public", "operator:wikidata": "Q668687", "ref": "6706200002"}, "type": "Feature"}
{"geometry": {"coordinates": [-97.432561, 38.139578], "type": "Point"}, "id": "ONTCg86KpDceuMf0_We3qREXuvg=", "properties": {"@source_uri": "https://tools.usps.com/UspsToolsRestServices/rest/POLocator/findLocations", "@spider": "usps_collection_boxes", "addr:city": "HESSTON", "addr:country": "US", "addr:postcode": "67062", "addr:state": "KS", "addr:street_address": "120 W KNOTT ST", "amenity": "post_box", "brand": "United States Postal Service", "brand:wikidata": "Q668687", "collection_times": "Mo-Fr 16:15; Sa 10:15", "indoor": "yes", "note": "ON 12/24 AND 12/31, THIS BOX MAY BE COLLECTED AS EARLY AS 12 NOON.", "nsi_id": "unitedstatespostalservice-a77078", "operator": "United States Postal Service", "operator:short": "USPS", "operator:type": "public", "operator:wikidata": "Q668687", "ref": "6706200003"}, "type": "Feature"}
{"geometry": {"coordinates": [-97.432559832, 38.139576504], "type": "Point"}, "id": "h2Ed4yEGPRe6QArXliwm84yoDvE=", "properties": {"@source_uri": "https://tools.usps.com/UspsToolsRestServices/rest/POLocator/findLocations", "@spider": "usps_collection_boxes", "addr:city": "HESSTON", "addr:country": "US", "addr:postcode": "67062", "addr:state": "KS", "addr:street_address": "120 W KNOTT ST", "amenity": "post_box", "brand": "United States Postal Service", "brand:wikidata": "Q668687", "collection_times": "Mo-Fr 16:15; Sa 10:15", "indoor": "yes", "note": "ON 12/24 AND 12/31, THIS BOX MAY BE COLLECTED AS EARLY AS 12 NOON.", "nsi_id": "unitedstatespostalservice-a77078", "operator": "United States Postal Service", "operator:short": "USPS", "operator:type": "public", "operator:wikidata": "Q668687", "ref": "6706200004"}, "type": "Feature"}
{"geometry": {"coordinates": [-97.2048499, 38.353427], "type": "Point"}, "id": "n9UqttWAPueYt8UkWo4hbjztx-Q=", "properties": {"@source_uri": "https://tools.usps.com/UspsToolsRestServices/rest/POLocator/findLocations", "@spider": "usps_collection_boxes", "addr:city": "HILLSBORO", "addr:country": "US", "addr:postcode": "67063", "addr:state": "KS", "addr:street_address": "101 N MAIN ST", "amenity": "post_box", "brand": "United States Postal Service", "brand:wikidata": "Q668687", "collection_times": "Mo-Fr 14:00; Sa 12:00", "note": "ON 12/24 AND 12/31, THIS BOX MAY BE COLLECTED AS EARLY AS 12 NOON.", "nsi_id": "unitedstatespostalservice-a77078", "operator": "United States Postal Service", "operator:short": "USPS", "operator:type": "public", "operator:wikidata": "Q668687", "ref": "6706300008"}, "type": "Feature"}
{"geometry": {"coordinates": [-97.204734, 38.354863], "type": "Point"}, "id": "_w1Qfhc5X5oUy0DkMjOVpqFIMYU=", "properties": {"@source_uri": "https://tools.usps.com/UspsToolsRestServices/rest/POLocator/findLocations", "@spider": "usps_collection_boxes", "addr:city": "HILLSBORO", "addr:country": "US", "addr:postcode": "67063", "addr:state": "KS", "addr:street_address": "201 N MAIN ST", "amenity": "post_box", "brand": "United States Postal Service", "brand:wikidata": "Q668687", "collection_times": "Mo-Fr 16:00; Sa 12:00", "note": "ON 12/24 AND 12/31, THIS BOX MAY BE COLLECTED AS EARLY AS 12 NOON.", "nsi_id": "unitedstatespostalservice-a77078", "operator": "United States Postal Service", "operator:short": "USPS", "operator:type": "public", "operator:wikidata": "Q668687", "ref": "6706300010"}, "type": "Feature"}
{"geometry": {"coordinates": [-97.204734, 38.354863], "type": "Point"}, "id": "HCSsHQGsFoXOBAcqbQrW9sQKkzc=", "properties": {"@source_uri": "https://tools.usps.com/UspsToolsRestServices/rest/POLocator/findLocations", "@spider": "usps_collection_boxes", "addr:city": "HILLSBORO", "addr:country": "US", "addr:postcode": "67063", "addr:state": "KS", "addr:street_address": "201 N MAIN ST", "amenity": "post_box", "brand": "United States Postal Service", "brand:wikidata": "Q668687", "collection_times": "Mo-Fr 16:20; Sa 12:00", "indoor": "yes", "note": "ON 12/24 AND 12/31, THIS BOX MAY BE COLLECTED AS EARLY AS 12 NOON.", "nsi_id": "unitedstatespostalservice-a77078", "operator": "United States Postal Service", "operator:short": "USPS", "operator:type": "public", "operator:wikidata": "Q668687", "ref": "6706300011"}, "type": "Feature"}
{"geometry": {"coordinates": [-97.204759895, 38.354826395], "type": "Point"}, "id": "4MwGDRRk8YX0VQ22knEGWZP7p7Y=", "properties": {"@source_uri": "https://tools.usps.com/UspsToolsRestServices/rest/POLocator/findLocations", "@spider": "usps_collection_boxes", "addr:city": "HILLSBORO", "addr:country": "US", "addr:postcode": "67063", "addr:state": "KS", "addr:street_address": "201 N MAIN ST", "amenity": "post_box", "brand": "United States Postal Service", "brand:wikidata": "Q668687", "collection_times": "Mo-Fr 16:20; Sa 12:00", "indoor": "yes", "note": "ON 12/24 AND 12/31, THIS BOX MAY BE COLLECTED AS EARLY AS 12 NOON.", "nsi_id": "unitedstatespostalservice-a77078", "operator": "United States Postal Service", "operator:short": "USPS", "operator:type": "public", "operator:wikidata": "Q668687", "ref": "6706300014"}, "type": "Feature"}
{"geometry": {"coordinates": [-98.5505727, 37.467684], "type": "Point"}, "id": "GdKlVElbZqY9WgaLNtyYDfaHmgA=", "properties": {"@source_uri": "https://tools.usps.com/UspsToolsRestServices/rest/POLocator/findLocations", "@spider": "usps_collection_boxes", "addr:city": "ISABEL", "addr:country": "US", "addr:postcode": "67065", "addr:state": "KS", "addr:street_address": "122 N MAIN ST", "amenity": "post_box", "brand": "United States Postal Service", "brand:wikidata": "Q668687", "collection_times": "Mo-Fr 14:15; Sa 11:15", "note": "ON 12/24 AND 12/31, THIS BOX MAY BE COLLECTED AS EARLY AS 12 NOON.", "nsi_id": "unitedstatespostalservice-a77078", "operator": "United States Postal Service", "operator:short": "USPS", "operator:type": "public", "operator:wikidata": "Q668687", "ref": "6706500001"}, "type": "Feature"}
{"geometry": {"coordinates": [-98.551061, 37.466763], "type": "Point"}, "id": "hRJFwunY0tj6V7UrLVOPc_zWQiU=", "properties": {"@source_uri": "https://tools.usps.com/UspsToolsRestServices/rest/POLocator/findLocations", "@spider": "usps_collection_boxes", "addr:city": "ISABEL", "addr:country": "US", "addr:postcode": "67065", "addr:state": "KS", "addr:street_address": "122 N MAIN ST", "amenity": "post_box", "brand": "United States Postal Service", "brand:wikidata": "Q668687", "collection_times": "Mo-Fr 14:15; Sa 11:15", "indoor": "yes", "note": "ON 12/24 AND 12/31, THIS BOX MAY BE COLLECTED AS EARLY AS 12 NOON.", "nsi_id": "unitedstatespostalservice-a77078", "operator": "United States Postal Service", "operator:short": "USPS", "operator:type": "public", "operator:wikidata": "Q668687", "ref": "6706500002"}, "type": "Feature"}
{"geometry": {"coordinates": [-98.550650507, 37.467726895], "type": "Point"}, "id": "LobT7nLDxzaSkIH73d9yKDDwQNU=", "properties": {"@source_uri": "https://tools.usps.com/UspsToolsRestServices/rest/POLocator/findLocations", "@spider": "usps_collection_boxes", "addr:city": "ISABEL", "addr:country": "US", "addr:postcode": "67065", "addr:state": "KS", "addr:street_address": "122 N MAIN ST", "amenity": "post_box", "brand": "United States Postal Service", "brand:wikidata": "Q668687", "collection_times": "Mo-Fr 14:15; Sa 11:15", "indoor": "yes", "note": "ON 12/24 AND 12/31, THIS BOX MAY BE COLLECTED AS EARLY AS 12 NOON.", "nsi_id": "unitedstatespostalservice-a77078", "operator": "United States Postal Service", "operator:short": "USPS", "operator:type": "public", "operator:wikidata": "Q668687", "ref": "6706500003"}, "type": "Feature"}
{"geometry": {"coordinates": [-98.7323505, 37.729273], "type": "Point"}, "id": "2Cck1Cg2fHRA_QRDSYU-eqx80iY=", "properties": {"@source_uri": "https://tools.usps.com/UspsToolsRestServices/rest/POLocator/findLocations", "@spider": "usps_collection_boxes", "addr:city": "IUKA", "addr:country": "US", "addr:postcode": "67066", "addr:state": "KS", "addr:street_address": "204 N MAIN ST", "amenity": "post_box", "brand": "United States Postal Service", "brand:wikidata": "Q668687", "collection_times": "Mo-Fr 11:45; Sa 09:45", "nsi_id": "unitedstatespostalservice-a77078", "operator": "United States Postal Service", "operator:short": "USPS", "operator:type": "public", "operator:wikidata": "Q668687", "ref": "6706600001"}, "type": "Feature"}
{"geometry": {"coordinates": [-98.732516, 37.72937], "type": "Point"}, "id": "AFdX1FrbZee_CTh90jj3vzuq-Gk=", "properties": {"@source_uri": "https://tools.usps.com/UspsToolsRestServices/rest/POLocator/findLocations", "@spider": "usps_collection_boxes", "addr:city": "IUKA", "addr:country": "US", "addr:postcode": "67066", "addr:state": "KS", "addr:street_address": "204 N MAIN ST", "amenity": "post_box", "brand": "United States Postal Service", "brand:wikidata": "Q668687", "collection_times": "Mo-Fr 11:45; Sa 09:45", "indoor": "yes", "nsi_id": "unitedstatespostalservice-a77078", "operator": "United States Postal Service", "operator:short": "USPS", "operator:type": "public", "operator:wikidata": "Q668687", "ref": "6706600002"}, "type": "Feature"}
{"geometry": {"coordinates": [-98.732516283, 37.729368], "type": "Point"}, "id": "XTJnIkFjIGWh-g8nKHBJf1z4NOk=", "properties": {"@source_uri": "https://tools.usps.com/UspsToolsRestServices/rest/POLocator/findLocations", "@spider": "usps_collection_boxes", "addr:city": "IUKA", "addr:country": "US", "addr:postcode": "67066", "addr:state": "KS", "addr:street_address": "204 N MAIN ST", "amenity": "post_box", "brand": "United States Postal Service", "brand:wikidata": "Q668687", "collection_times": "Mo-Fr 11:45; Sa 09:45", "indoor": "yes", "nsi_id": "unitedstatespostalservice-a77078", "operator": "United States Postal Service", "operator:short": "USPS", "operator:type": "public", "operator:wikidata": "Q668687", "ref": "6706600003"}, "type": "Feature"}
{"geometry": {"coordinates": [-97.2772216, 37.79574], "type": "Point"}, "id": "arPzxr7gzj8fUWJW1iIiWr7qMyw=", "properties": {"@source_uri": "https://tools.usps.com/UspsToolsRestServices/rest/POLocator/findLocations", "@spider": "usps_collection_boxes", "addr:city": "KECHI", "addr:country": "US", "addr:postcode": "67067", "addr:state": "KS", "addr:street_address": "307 E KECHI RD", "amenity": "post_box", "brand": "United States Postal Service", "brand:wikidata": "Q668687", "collection_times": "Mo-Fr 16:15; Sa 10:15", "note": "ON 12/24 AND 12/31, THIS BOX MAY BE COLLECTED AS EARLY AS 12 NOON.", "nsi_id": "unitedstatespostalservice-a77078", "operator": "United States Postal Service", "operator:short": "USPS", "operator:type": "public", "operator:wikidata": "Q668687", "ref": "6706700001"}, "type": "Feature"}
{"geometry": {"coordinates": [-97.277032, 37.795833], "type": "Point"}, "id": "HX3rBlw_6U5f5B1r4WaB2fCsZn8=", "properties": {"@source_uri": "https://tools.usps.com/UspsToolsRestServices/rest/POLocator/findLocations", "@spider": "usps_collection_boxes", "addr:city": "KECHI", "addr:country": "US", "addr:postcode": "67067", "addr:state": "KS", "addr:street_address": "307 E KECHI RD", "amenity": "post_box", "brand": "United States Postal Service", "brand:wikidata": "Q668687", "collection_times": "Mo-Fr 16:15; Sa 10:15", "indoor": "yes", "note": "ON 12/24 AND 12/31, THIS BOX MAY BE COLLECTED AS EARLY AS 12 NOON.", "nsi_id": "unitedstatespostalservice-a77078", "operator": "United States Postal Service", "operator:short": "USPS", "operator:type": "public", "operator:wikidata": "Q668687", "ref": "6706700002"}, "type": "Feature"}
{"geometry": {"coordinates": [-97.2770615255, 37.7958275323], "type": "Point"}, "id": "270CsLw_1mVKKuuQabhlMUi1EaI=", "properties": {"@source_uri": "https://tools.usps.com/UspsToolsRestServices/rest/POLocator/findLocations", "@spider": "usps_collection_boxes", "addr:city": "KECHI", "addr:country": "US", "addr:postcode": "67067", "addr:state": "KS", "addr:street_address": "307 E KECHI RD", "amenity": "post_box", "brand": "United States Postal Service", "brand:wikidata": "Q668687", "collection_times": "Mo-Fr 16:15; Sa 10:15", "indoor": "yes", "note": "ON 12/24 AND 12/31, THIS BOX MAY BE COLLECTED AS EARLY AS 12 NOON.", "nsi_id": "unitedstatespostalservice-a77078", "operator": "United States Postal Service", "operator:short": "USPS", "operator:type": "public", "operator:wikidata": "Q668687", "ref": "6706700003"}, "type": "Feature"}
{"geometry": {"coordinates": [-98.1116454, 37.642466], "type": "Point"}, "id": "2GP7Tm95IjNcerIYQBMndb7c35w=", "properties": {"@source_uri": "https://tools.usps.com/UspsToolsRestServices/rest/POLocator/findLocations", "@spider": "usps_collection_boxes", "addr:city": "KINGMAN", "addr:country": "US", "addr:postcode": "67068", "addr:state": "KS", "addr:street_address": "128 N SPRUCE ST", "amenity": "post_box", "brand": "United States Postal Service", "brand:wikidata": "Q668687", "collection_times": "Mo-Fr 15:30", "note": "ON 12/24 AND 12/31, THIS BOX MAY BE COLLECTED AS EARLY AS 12 NOON.", "nsi_id": "unitedstatespostalservice-a77078", "operator": "United States Postal Service", "operator:short": "USPS", "operator:type": "public", "operator:wikidata": "Q668687", "ref": "6706800002"}, "type": "Feature"}
{"geometry": {"coordinates": [-98.1138842, 37.645712], "type": "Point"}, "id": "OoRGMhqjY1fhPbA0YhbTms8thcI=", "properties": {"@source_uri": "https://tools.usps.com/UspsToolsRestServices/rest/POLocator/findLocations", "@spider": "usps_collection_boxes", "addr:city": "KINGMAN", "addr:country": "US", "addr:postcode": "67068", "addr:state": "KS", "addr:street_address": "425 N MAIN ST", "amenity": "post_box", "brand": "United States Postal Service", "brand:wikidata": "Q668687", "collection_times": "Mo-Fr 16:15; Sa 10:00", "note": "ON 12/24 AND 12/31, THIS BOX MAY BE COLLECTED AS EARLY AS 12 NOON.", "nsi_id": "unitedstatespostalservice-a77078", "operator": "United States Postal Service", "operator:short": "USPS", "operator:type": "public", "operator:wikidata": "Q668687", "ref": "6706800003"}, "type": "Feature"}
{"geometry": {"coordinates": [-98.113236, 37.64556], "type": "Point"}, "id": "-Y5Hy-d18lEKCvyVBa5PKC88XUg=", "properties": {"@source_uri": "https://tools.usps.com/UspsToolsRestServices/rest/POLocator/findLocations", "@spider": "usps_collection_boxes", "addr:city": "KINGMAN", "addr:country": "US", "addr:postcode": "67068", "addr:state": "KS", "addr:street_address": "425 N MAIN ST", "amenity": "post_box", "brand": "United States Postal Service", "brand:wikidata": "Q668687", "collection_times": "Mo-Fr 16:15; Sa 10:00", "indoor": "yes", "note": "ON 12/24 AND 12/31, THIS BOX MAY BE COLLECTED AS EARLY AS 12 NOON.", "nsi_id": "unitedstatespostalservice-a77078", "operator": "United States Postal Service", "operator:short": "USPS", "operator:type": "public", "operator:wikidata": "Q668687", "ref": "6706800007"}, "type": "Feature"}
{"geometry": {"coordinates": [-98.113238716, 37.64556], "type": "Point"}, "id": "XA7hVMyFpkrnmytGcJhw79d47ig=", "properties": {"@source_uri": "https://tools.usps.com/UspsToolsRestServices/rest/POLocator/findLocations", "@spider": "usps_collection_boxes", "addr:city": "KINGMAN", "addr:country": "US", "addr:postcode": "67068", "addr:state": "KS", "addr:street_address": "425 N MAIN ST", "amenity": "post_box", "brand": "United States Postal Service", "brand:wikidata": "Q668687", "collection_times": "Mo-Fr 15:45; Sa 10:00", "indoor": "yes", "note": "ON 12/24 AND 12/31, THIS BOX MAY BE COLLECTED AS EARLY AS 12 NOON.", "nsi_id": "unitedstatespostalservice-a77078", "operator": "United States Postal Service", "operator:short": "USPS", "operator:type": "public", "operator:wikidata": "Q668687", "ref": "6706800008"}, "type": "Feature"}
{"geometry": {"coordinates": [-98.4864103324, 37.0170314716], "type": "Point"}, "id": "tQf0DIFbT9c5yPurXHzA3XkWyUQ=", "properties": {"@source_uri": "https://tools.usps.com/UspsToolsRestServices/rest/POLocator/findLocations", "@spider": "usps_collection_boxes", "addr:city": "KIOWA", "addr:country": "US", "addr:postcode": "67070", "addr:state": "KS", "addr:street_address": "602 MAIN ST", "amenity": "post_box", "brand": "United States Postal Service", "brand:wikidata": "Q668687", "collection_times": "Mo-Fr 16:15; Sa 09:45", "note": "ON 12/24 AND 12/31, THIS BOX MAY BE COLLECTED AS EARLY AS 12 NOON.", "nsi_id": "unitedstatespostalservice-a77078", "operator": "United States Postal Service", "operator:short": "USPS", "operator:type": "public", "operator:wikidata": "Q668687", "ref": "6707000001"}, "type": "Feature"}
{"geometry": {"coordinates": [-98.4864103324, 37.0170314716], "type": "Point"}, "id": "Omu9uvH3w0kGxYXF_JyMVTYFKtk=", "properties": {"@source_uri": "https://tools.usps.com/UspsToolsRestServices/rest/POLocator/findLocations", "@spider": "usps_collection_boxes", "addr:city": "KIOWA", "addr:country": "US", "addr:postcode": "67070", "addr:state": "KS", "addr:street_address": "602 MAIN ST", "amenity": "post_box", "brand": "United States Postal Service", "brand:wikidata": "Q668687", "collection_times": "Mo-Fr 16:15; Sa 09:45", "indoor": "yes", "note": "ON 12/24 AND 12/31, THIS BOX MAY BE COLLECTED AS EARLY AS 12 NOON.", "nsi_id": "unitedstatespostalservice-a77078", "operator": "United States Postal Service", "operator:short": "USPS", "operator:type": "public", "operator:wikidata": "Q668687", "ref": "6707000003"}, "type": "Feature"}
{"geometry": {"coordinates": [-98.4864103324, 37.0170314716], "type": "Point"}, "id": "4FxoVgOIMoZjIYHfgx_8735hq9Q=", "properties": {"@source_uri": "https://tools.usps.com/UspsToolsRestServices/rest/POLocator/findLocations", "@spider": "usps_collection_boxes", "addr:city": "KIOWA", "addr:country": "US", "addr:postcode": "67070", "addr:state": "KS", "addr:street_address": "602 MAIN ST", "amenity": "post_box", "brand": "United States Postal Service", "brand:wikidata": "Q668687", "collection_times": "Mo-Fr 16:15; Sa 09:45", "indoor": "yes", "note": "ON 12/24 AND 12/31, THIS BOX MAY BE COLLECTED AS EARLY AS 12 NOON.", "nsi_id": "unitedstatespostalservice-a77078", "operator": "United States Postal Service", "operator:short": "USPS", "operator:type": "public", "operator:wikidata": "Q668687", "ref": "6707000004"}, "type": "Feature"}
{"geometry": {"coordinates": [-96.6411912, 37.53452], "type": "Point"}, "id": "smPavM2LRBYUL7KH8nAsI8RlJyw=", "properties": {"@source_uri": "https://tools.usps.com/UspsToolsRestServices/rest/POLocator/findLocations", "@spider": "usps_collection_boxes", "addr:city": "LATHAM", "addr:country": "US", "addr:postcode": "67072", "addr:state": "KS", "addr:street_address": "209 W BLAINE ST", "amenity": "post_box", "brand": "United States Postal Service", "brand:wikidata": "Q668687", "collection_times": "Mo-Sa 12:15", "note": "ON 12/24 AND 12/31, THIS BOX MAY BE COLLECTED AS EARLY AS 12 NOON.", "nsi_id": "unitedstatespostalservice-a77078", "operator": "United States Postal Service", "operator:short": "USPS", "operator:type": "public", "operator:wikidata": "Q668687", "ref": "6707200001"}, "type": "Feature"}
{"geometry": {"coordinates": [-96.641242, 37.534613], "type": "Point"}, "id": "yDM4lbRTet3b60bjFMCgOumuWjc=", "properties": {"@source_uri": "https://tools.usps.com/UspsToolsRestServices/rest/POLocator/findLocations", "@spider": "usps_collection_boxes", "addr:city": "LATHAM", "addr:country": "US", "addr:postcode": "67072", "addr:state": "KS", "addr:street_address": "209 W BLAINE ST", "amenity": "post_box", "brand": "United States Postal Service", "brand:wikidata": "Q668687", "collection_times": "Mo-Sa 11:45", "indoor": "yes", "nsi_id": "unitedstatespostalservice-a77078", "operator": "United States Postal Service", "operator:short": "USPS", "operator:type": "public", "operator:wikidata": "Q668687", "ref": "6707200002"}, "type": "Feature"}
{"geometry": {"coordinates": [-96.641162749, 37.534612528], "type": "Point"}, "id": "ftnkHk6dbuRJrXxN-NF7o-FbsSs=", "properties": {"@source_uri": "https://tools.usps.com/UspsToolsRestServices/rest/POLocator/findLocations", "@spider": "usps_collection_boxes", "addr:city": "LATHAM", "addr:country": "US", "addr:postcode": "67072", "addr:state": "KS", "addr:street_address": "209 W BLAINE ST", "amenity": "post_box", "brand": "United States Postal Service", "brand:wikidata": "Q668687", "collection_times": "Mo-Sa 11:45", "indoor": "yes", "nsi_id": "unitedstatespostalservice-a77078", "operator": "United States Postal Service", "operator:short": "USPS", "operator:type": "public", "operator:wikidata": "Q668687", "ref": "6707200003"}, "type": "Feature"}
{"geometry": {"coordinates": [-97.3037624, 38.372517], "type": "Point"}, "id": "eFvwTh-N4Qdam5uJURRxhL_Ym08=", "properties": {"@source_uri": "https://tools.usps.com/UspsToolsRestServices/rest/POLocator/findLocations", "@spider": "usps_collection_boxes", "addr:city": "LEHIGH", "addr:country": "US", "addr:postcode": "67073", "addr:state": "KS", "addr:street_address": "112 W MAIN ST", "amenity": "post_box", "brand": "United States Postal Service", "brand:wikidata": "Q668687", "collection_times": "Mo-Fr 15:15; Sa 11:45", "note": "ON 12/24 AND 12/31, THIS BOX MAY BE COLLECTED AS EARLY AS 12 NOON.", "nsi_id": "unitedstatespostalservice-a77078", "operator": "United States Postal Service", "operator:short": "USPS", "operator:type": "public", "operator:wikidata": "Q668687", "ref": "6707300001"}, "type": "Feature"}
{"geometry": {"coordinates": [-97.303341, 38.372663], "type": "Point"}, "id": "dbie_rD4-5vgqDztCsQoL4E-IWs=", "properties": {"@source_uri": "https://tools.usps.com/UspsToolsRestServices/rest/POLocator/findLocations", "@spider": "usps_collection_boxes", "addr:city": "LEHIGH", "addr:country": "US", "addr:postcode": "67073", "addr:state": "KS", "addr:street_address": "112 W MAIN ST", "amenity": "post_box", "brand": "United States Postal Service", "brand:wikidata": "Q668687", "collection_times": "Mo-Fr 15:15; Sa 11:45", "indoor": "yes", "note": "ON 12/24 AND 12/31, THIS BOX MAY BE COLLECTED AS EARLY AS 12 NOON.", "nsi_id": "unitedstatespostalservice-a77078", "operator": "United States Postal Service", "operator:short": "USPS", "operator:type": "public", "operator:wikidata": "Q668687", "ref": "6707300002"}, "type": "Feature"}
{"geometry": {"coordinates": [-97.303334841, 38.372705755], "type": "Point"}, "id": "OqcftaeykFK8X8K45Cs9aKhitmg=", "properties": {"@source_uri": "https://tools.usps.com/UspsToolsRestServices/rest/POLocator/findLocations", "@spider": "usps_collection_boxes", "addr:city": "LEHIGH", "addr:country": "US", "addr:postcode": "67073", "addr:state": "KS", "addr:street_address": "112 W MAIN ST", "amenity": "post_box", "brand": "United States Postal Service", "brand:wikidata": "Q668687", "collection_times": "Mo-Fr 15:15; Sa 11:45", "indoor": "yes", "note": "ON 12/24 AND 12/31, THIS BOX MAY BE COLLECTED AS EARLY AS 12 NOON.", "nsi_id": "unitedstatespostalservice-a77078", "operator": "United States Postal Service", "operator:short": "USPS", "operator:type": "public", "operator:wikidata": "Q668687", "ref": "6707300003"}, "type": "Feature"}
{"geometry": {"coordinates": [-96.7811914, 37.687994], "type": "Point"}, "id": "VhQ3f4OHN4nQntUBHVPw9nXOQ0g=", "properties": {"@source_uri": "https://tools.usps.com/UspsToolsRestServices/rest/POLocator/findLocations", "@spider": "usps_collection_boxes", "addr:city": "LEON", "addr:country": "US", "addr:postcode": "67074", "addr:state": "KS", "addr:street_address": "105 S MAIN ST", "amenity": "post_box", "brand": "United States Postal Service", "brand:wikidata": "Q668687", "collection_times": "Mo-Fr 13:45; Sa 08:45", "note": "ON 12/24 AND 12/31, THIS BOX MAY BE COLLECTED AS EARLY AS 12 NOON.", "nsi_id": "unitedstatespostalservice-a77078", "operator": "United States Postal Service", "operator:short": "USPS", "operator:type": "public", "operator:wikidata": "Q668687", "ref": "6707400001"}, "type": "Feature"}
{"geometry": {"coordinates": [-96.781343, 37.688147], "type": "Point"}, "id": "9_bEbcicxEy0Cc6hfjcywc65ATE=", "properties": {"@source_uri": "https://tools.usps.com/UspsToolsRestServices/rest/POLocator/findLocations", "@spider": "usps_collection_boxes", "addr:city": "LEON", "addr:country": "US", "addr:postcode": "67074", "addr:state": "KS", "addr:street_address": "105 S MAIN ST", "amenity": "post_box", "brand": "United States Postal Service", "brand:wikidata": "Q668687", "collection_times": "Mo-Fr 13:45; Sa 08:45", "indoor": "yes", "note": "ON 12/24 AND 12/31, THIS BOX MAY BE COLLECTED AS EARLY AS 12 NOON.", "nsi_id": "unitedstatespostalservice-a77078", "operator": "United States Postal Service", "operator:short": "USPS", "operator:type": "public", "operator:wikidata": "Q668687", "ref": "6707400002"}, "type": "Feature"}
{"geometry": {"coordinates": [-96.7813487056, 37.6880305284], "type": "Point"}, "id": "rLoZn1lb4ejaLldQ2AZOvXRyFRo=", "properties": {"@source_uri": "https://tools.usps.com/UspsToolsRestServices/rest/POLocator/findLocations", "@spider": "usps_collection_boxes", "addr:city": "LEON", "addr:country": "US", "addr:postcode": "67074", "addr:state": "KS", "addr:street_address": "105 S MAIN ST", "amenity": "post_box", "brand": "United States Postal Service", "brand:wikidata": "Q668687", "collection_times": "Mo-Fr 13:45", "indoor": "yes", "note": "ON 12/24 AND 12/31, THIS BOX MAY BE COLLECTED AS EARLY AS 12 NOON.", "nsi_id": "unitedstatespostalservice-a77078", "operator": "United States Postal Service", "operator:short": "USPS", "operator:type": "public", "operator:wikidata": "Q668687", "ref": "6707400003"}, "type": "Feature"}
