{"dataset_attributes": {"@spider": "usps_collection_boxes", "spider:collection_time": "2023-10-31T08:25:14.480804"}, "geometry": {"coordinates": [-97.4676150258, 37.7773710097], "type": "Point"}, "id": "0Dh4hdn9wX2r2MWzYVJy9ZL2eeg=", "properties": {"@spider": "usps_collection_boxes", "addr:city": "MAIZE", "addr:country": "US", "addr:full": "115 E ALBERT ST", "addr:postcode": "67101", "addr:state": "KS", "amenity": "post_box", "brand": "United States Postal Service", "brand:wikidata": "Q668687", "collection_times": "Mo-Fr 16:15; Sa 09:45", "name": "USPS COLLECTION BOX - BLUE BOX", "note": "ON 12/24 AND 12/31, THIS BOX MAY BE COLLECTED AS EARLY AS 12 NOON.", "nsi_id": "unitedstatespostalservice-a77078", "operator": "United States Postal Service", "operator:short": "USPS", "operator:type": "public", "operator:wikidata": "Q668687", "ref": "6710100001"}, "type": "Feature"}
{"dataset_attributes": {"@spider": "usps_collection_boxes", "spider:collection_time": "2023-10-31T08:25:14.480804"}, "geometry": {"coordinates": [-97.4676702784, 37.7775784774], "type": "Point"}, "id": "u0VJqrZSbUC5pTyWn4INwgtrT7E=", "properties": {"@spider": "usps_collection_boxes", "addr:city": "MAIZE", "addr:country": "US", "addr:full": "115 E ALBERT ST", "addr:postcode": "67101", "addr:state": "KS", "amenity": "post_box", "brand": "United States Postal Service", "brand:wikidata": "Q668687", "collection_times": "Mo-Fr 16:15; Sa 09:45", "name": "USPS COLLECTION BOX - PO LOBBY", "note": "ON 12/24 AND 12/31, THIS BOX MAY BE COLLECTED AS EARLY AS 12 NOON.", "nsi_id": "unitedstatespostalservice-a77078", "operator": "United States Postal Service", "operator:short": "USPS", "operator:type": "public", "operator:wikidata": "Q668687", "ref": "6710100002"}, "type": "Feature"}
{"dataset_attributes": {"@spider": "usps_collection_boxes", "spider:collection_time": "2023-10-31T08:25:14.480804"}, "geometry": {"coordinates": [-97.4676702784, 37.7775784774], "type": "Point"}, "id": "2l796vjzW2_G9yaDmUGMjcxheKo=", "properties": {"@spider": "usps_collection_boxes", "addr:city": "MAIZE", "addr:country": "US", "addr:full": "115 E ALBERT ST", "addr:postcode": "67101", "addr:state": "KS", "amenity": "post_box", "brand": "United States Postal Service", "brand:wikidata": "Q668687", "collection_times": "Mo-Fr 16:15; Sa 09:45", "name": "USPS COLLECTION BOX - PO LOBBY", "note": "ON 12/24 AND 12/31, THIS BOX MAY BE COLLECTED AS EARLY AS 12 NOON.", "nsi_id": "unitedstatespostalservice-a77078", "operator": "United States Postal Service", "operator:short": "USPS", "operator:type": "public", "operator:wikidata": "Q668687", "ref": "6710100003"}, "type": "Feature"}
{"dataset_attributes": {"@spider": "usps_collection_boxes", "spider:collection_time": "2023-10-31T08:25:14.480804"}, "geometry": {"coordinates": [-97.5453347, 37.262559], "type": "Point"}, "id": "oo_W1M_8O8jR9JP3vIG6kFUNyiA=", "properties": {"@spider": "usps_collection_boxes", "addr:city": "MAYFIELD", "addr:country": "US", "addr:full": "116 N OSBORN ST", "addr:postcode": "67103", "addr:state": "KS", "amenity": "post_box", "brand": "United States Postal Service", "brand:wikidata": "Q668687", "collection_times": "Mo-Fr 15:30; Sa 11:30", "name": "USPS COLLECTION BOX - BLUE BOX", "note": "ON 12/24 AND 12/31, THIS BOX MAY BE COLLECTED AS EARLY AS 12 NOON.", "nsi_id": "unitedstatespostalservice-a77078", "operator": "United States Postal Service", "operator:short": "USPS", "operator:type": "public", "operator:wikidata": "Q668687", "ref": "6710300001"}, "type": "Feature"}
{"dataset_attributes": {"@spider": "usps_collection_boxes", "spider:collection_time": "2023-10-31T08:25:14.480804"}, "geometry": {"coordinates": [-97.54557, 37.26256], "type": "Point"}, "id": "k2Bx_0SDdk-ugw7-Yzvo_AzyqNo=", "properties": {"@spider": "usps_collection_boxes", "addr:city": "MAYFIELD", "addr:country": "US", "addr:full": "116 N OSBORN ST", "addr:postcode": "67103", "addr:state": "KS", "amenity": "post_box", "brand": "United States Postal Service", "brand:wikidata": "Q668687", "collection_times": "Mo-Fr 15:30; Sa 11:30", "name": "USPS COLLECTION BOX - PO LOBBY", "note": "ON 12/24 AND 12/31, THIS BOX MAY BE COLLECTED AS EARLY AS 12 NOON.", "nsi_id": "unitedstatespostalservice-a77078", "operator": "United States Postal Service", "operator:short": "USPS", "operator:type": "public", "operator:wikidata": "Q668687", "ref": "6710300002"}, "type": "Feature"}
{"dataset_attributes": {"@spider": "usps_collection_boxes", "spider:collection_time": "2023-10-31T08:25:14.480804"}, "geometry": {"coordinates": [-97.545247531, 37.262555665], "type": "Point"}, "id": "-OzJqn-4NJSx67vVhMbBXsVsu6o=", "properties": {"@spider": "usps_collection_boxes", "addr:city": "MAYFIELD", "addr:country": "US", "addr:full": "116 N OSBORN ST", "addr:postcode": "67103", "addr:state": "KS", "amenity": "post_box", "brand": "United States Postal Service", "brand:wikidata": "Q668687", "collection_times": "Mo-Fr 15:30; Sa 11:30", "name": "USPS COLLECTION BOX - PO LOBBY", "note": "ON 12/24 AND 12/31, THIS BOX MAY BE COLLECTED AS EARLY AS 12 NOON.", "nsi_id": "unitedstatespostalservice-a77078", "operator": "United States Postal Service", "operator:short": "USPS", "operator:type": "public", "operator:wikidata": "Q668687", "ref": "6710300003"}, "type": "Feature"}
{"dataset_attributes": {"@spider": "usps_collection_boxes", "spider:collection_time": "2023-10-31T08:25:14.480804"}, "geometry": {"coordinates": [-98.58028803, 37.280886996], "type": "Point"}, "id": "pMBF3nlXvI-A5tcShI4hKjmAjoY=", "properties": {"@spider": "usps_collection_boxes", "addr:city": "MEDICINE LODGE", "addr:country": "US", "addr:full": "108 W KANSAS AVE", "addr:postcode": "67104", "addr:state": "KS", "amenity": "post_box", "brand": "United States Postal Service", "brand:wikidata": "Q668687", "collection_times": "Mo-Fr 16:15; Sa 10:45", "name": "USPS COLLECTION BOX - BLUE BOX", "note": "ON 12/24 AND 12/31, THIS BOX MAY BE COLLECTED AS EARLY AS 12 NOON.", "nsi_id": "unitedstatespostalservice-a77078", "operator": "United States Postal Service", "operator:short": "USPS", "operator:type": "public", "operator:wikidata": "Q668687", "ref": "6710400004"}, "type": "Feature"}
{"dataset_attributes": {"@spider": "usps_collection_boxes", "spider:collection_time": "2023-10-31T08:25:14.480804"}, "geometry": {"coordinates": [-98.5802633068, 37.2806854971], "type": "Point"}, "id": "Gp3cr1SAyB3k_JCt0t12JM_67Dc=", "properties": {"@spider": "usps_collection_boxes", "addr:city": "MEDICINE LODGE", "addr:country": "US", "addr:full": "108 W KANSAS AVE", "addr:postcode": "67104", "addr:state": "KS", "amenity": "post_box", "brand": "United States Postal Service", "brand:wikidata": "Q668687", "collection_times": "Mo-Fr 16:15; Sa 10:45", "name": "USPS COLLECTION BOX - PO LOBBY", "note": "ON 12/24 AND 12/31, THIS BOX MAY BE COLLECTED AS EARLY AS 12 NOON.", "nsi_id": "unitedstatespostalservice-a77078", "operator": "United States Postal Service", "operator:short": "USPS", "operator:type": "public", "operator:wikidata": "Q668687", "ref": "6710400005"}, "type": "Feature"}
{"dataset_attributes": {"@spider": "usps_collection_boxes", "spider:collection_time": "2023-10-31T08:25:14.480804"}, "geometry": {"coordinates": [-98.5802633068, 37.2806854971], "type": "Point"}, "id": "0ukre9mt6TaTms-CnLR5ldljWHg=", "properties": {"@spider": "usps_collection_boxes", "addr:city": "MEDICINE LODGE", "addr:country": "US", "addr:full": "108 W KANSAS AVE", "addr:postcode": "67104", "addr:state": "KS", "amenity": "post_box", "brand": "United States Postal Service", "brand:wikidata": "Q668687", "collection_times": "Mo-Fr 16:15; Sa 10:45", "name": "USPS COLLECTION BOX - PO LOBBY", "note": "ON 12/24 AND 12/31, THIS BOX MAY BE COLLECTED AS EARLY AS 12 NOON.", "nsi_id": "unitedstatespostalservice-a77078", "operator": "United States Postal Service", "operator:short": "USPS", "operator:type": "public", "operator:wikidata": "Q668687", "ref": "6710400006"}, "type": "Feature"}
{"dataset_attributes": {"@spider": "usps_collection_boxes", "spider:collection_time": "2023-10-31T08:25:14.480804"}, "geometry": {"coordinates": [-97.7736651, 37.431536], "type": "Point"}, "id": "8r0Gzi7xdTGn0PlTpktClhDsTSo=", "properties": {"@spider": "usps_collection_boxes", "addr:city": "MILTON", "addr:country": "US", "addr:full": "1211 N WALNUT ST", "addr:postcode": "67106", "addr:state": "KS", "amenity": "post_box", "brand": "United States Postal Service", "brand:wikidata": "Q668687", "collection_times": "Mo-Fr 10:45; Sa 09:45", "name": "USPS COLLECTION BOX - BLUE BOX", "nsi_id": "unitedstatespostalservice-a77078", "operator": "United States Postal Service", "operator:short": "USPS", "operator:type": "public", "operator:wikidata": "Q668687", "ref": "6710600001"}, "type": "Feature"}
{"dataset_attributes": {"@spider": "usps_collection_boxes", "spider:collection_time": "2023-10-31T08:25:14.480804"}, "geometry": {"coordinates": [-97.773578, 37.431511], "type": "Point"}, "id": "v_ze7UXYUaWRm_oR0Paletk8jqs=", "properties": {"@spider": "usps_collection_boxes", "addr:city": "MILTON", "addr:country": "US", "addr:full": "1211 N WALNUT ST", "addr:postcode": "67106", "addr:state": "KS", "amenity": "post_box", "brand": "United States Postal Service", "brand:wikidata": "Q668687", "collection_times": "Mo-Fr 10:55; Sa 09:45", "name": "USPS COLLECTION BOX - PO LOBBY", "nsi_id": "unitedstatespostalservice-a77078", "operator": "United States Postal Service", "operator:short": "USPS", "operator:type": "public", "operator:wikidata": "Q668687", "ref": "6710600002"}, "type": "Feature"}
{"dataset_attributes": {"@spider": "usps_collection_boxes", "spider:collection_time": "2023-10-31T08:25:14.480804"}, "geometry": {"coordinates": [-97.773577118, 37.431403994], "type": "Point"}, "id": "srTmzWLh-pJhF4nXf9BcaU7Sk88=", "properties": {"@spider": "usps_collection_boxes", "addr:city": "MILTON", "addr:country": "US", "addr:full": "1211 N WALNUT ST", "addr:postcode": "67106", "addr:state": "KS", "amenity": "post_box", "brand": "United States Postal Service", "brand:wikidata": "Q668687", "collection_times": "Mo-Fr 10:55; Sa 09:45", "name": "USPS COLLECTION BOX - PO LOBBY", "nsi_id": "unitedstatespostalservice-a77078", "operator": "United States Postal Service", "operator:short": "USPS", "operator:type": "public", "operator:wikidata": "Q668687", "ref": "6710600003"}, "type": "Feature"}
{"dataset_attributes": {"@spider": "usps_collection_boxes", "spider:collection_time": "2023-10-31T08:25:14.480804"}, "geometry": {"coordinates": [-97.5190889937, 38.202633], "type": "Point"}, "id": "rFJVsTZJ6jvt2V9jm56KcalGi4M=", "properties": {"@spider": "usps_collection_boxes", "addr:city": "MOUNDRIDGE", "addr:country": "US", "addr:full": "111 S CHRISTIAN AVE", "addr:postcode": "67107", "addr:state": "KS", "amenity": "post_box", "brand": "United States Postal Service", "brand:wikidata": "Q668687", "collection_times": "Mo-Fr 15:30; Sa 11:15", "name": "USPS COLLECTION BOX - BLUE BOX", "note": "ON 12/24 AND 12/31, THIS BOX MAY BE COLLECTED AS EARLY AS 12 NOON.", "nsi_id": "unitedstatespostalservice-a77078", "operator": "United States Postal Service", "operator:short": "USPS", "operator:type": "public", "operator:wikidata": "Q668687", "ref": "6710700001"}, "type": "Feature"}
{"dataset_attributes": {"@spider": "usps_collection_boxes", "spider:collection_time": "2023-10-31T08:25:14.480804"}, "geometry": {"coordinates": [-97.5190889937, 38.202633], "type": "Point"}, "id": "2NkOkRdFXZDiCsWOtK2UCewTn8A=", "properties": {"@spider": "usps_collection_boxes", "addr:city": "MOUNDRIDGE", "addr:country": "US", "addr:full": "111 S CHRISTIAN AVE", "addr:postcode": "67107", "addr:state": "KS", "amenity": "post_box", "brand": "United States Postal Service", "brand:wikidata": "Q668687", "collection_times": "Mo-Fr 15:30; Sa 11:15", "name": "USPS COLLECTION BOX - PO LOBBY", "note": "ON 12/24 AND 12/31, THIS BOX MAY BE COLLECTED AS EARLY AS 12 NOON.", "nsi_id": "unitedstatespostalservice-a77078", "operator": "United States Postal Service", "operator:short": "USPS", "operator:type": "public", "operator:wikidata": "Q668687", "ref": "6710700002"}, "type": "Feature"}
{"dataset_attributes": {"@spider": "usps_collection_boxes", "spider:collection_time": "2023-10-31T08:25:14.480804"}, "geometry": {"coordinates": [-97.5190889937, 38.202633], "type": "Point"}, "id": "DvnTCmSPDPSkZdeKzmR9vE_Ypvs=", "properties": {"@spider": "usps_collection_boxes", "addr:city": "MOUNDRIDGE", "addr:country": "US", "addr:full": "111 S CHRISTIAN AVE", "addr:postcode": "67107", "addr:state": "KS", "amenity": "post_box", "brand": "United States Postal Service", "brand:wikidata": "Q668687", "collection_times": "Mo-Fr 16:15; Sa 11:15", "name": "USPS COLLECTION BOX - PO LOBBY", "note": "ON 12/24 AND 12/31, THIS BOX MAY BE COLLECTED AS EARLY AS 12 NOON.", "nsi_id": "unitedstatespostalservice-a77078", "operator": "United States Postal Service", "operator:short": "USPS", "operator:type": "public", "operator:wikidata": "Q668687", "ref": "6710700003"}, "type": "Feature"}
{"dataset_attributes": {"@spider": "usps_collection_boxes", "spider:collection_time": "2023-10-31T08:25:14.480804"}, "geometry": {"coordinates": [-97.6664203, 37.86852], "type": "Point"}, "id": "MFgaca9raFBkVwYRoehJNQLJjZU=", "properties": {"@spider": "usps_collection_boxes", "addr:city": "MOUNT HOPE", "addr:country": "US", "addr:full": "125 W MAIN ST", "addr:postcode": "67108", "addr:state": "KS", "amenity": "post_box", "brand": "United States Postal Service", "brand:wikidata": "Q668687", "collection_times": "Mo-Fr 11:45; Sa 10:45", "name": "USPS COLLECTION BOX - BLUE BOX", "nsi_id": "unitedstatespostalservice-a77078", "operator": "United States Postal Service", "operator:short": "USPS", "operator:type": "public", "operator:wikidata": "Q668687", "ref": "6710800001"}, "type": "Feature"}
{"dataset_attributes": {"@spider": "usps_collection_boxes", "spider:collection_time": "2023-10-31T08:25:14.480804"}, "geometry": {"coordinates": [-97.666381, 37.868662], "type": "Point"}, "id": "m5CwJA1Cfa7xTFpND8-Ao01BMaU=", "properties": {"@spider": "usps_collection_boxes", "addr:city": "MOUNT HOPE", "addr:country": "US", "addr:full": "125 W MAIN ST", "addr:postcode": "67108", "addr:state": "KS", "amenity": "post_box", "brand": "United States Postal Service", "brand:wikidata": "Q668687", "collection_times": "Mo-Fr 11:45; Sa 10:45", "name": "USPS COLLECTION BOX - PO LOBBY", "nsi_id": "unitedstatespostalservice-a77078", "operator": "United States Postal Service", "operator:short": "USPS", "operator:type": "public", "operator:wikidata": "Q668687", "ref": "6710800002"}, "type": "Feature"}
{"dataset_attributes": {"@spider": "usps_collection_boxes", "spider:collection_time": "2023-10-31T08:25:14.480804"}, "geometry": {"coordinates": [-97.6663801676, 37.8686544957], "type": "Point"}, "id": "8YfcmyMb3XcNUNiSozAGE4Cwm5I=", "properties": {"@spider": "usps_collection_boxes", "addr:city": "MOUNT HOPE", "addr:country": "US", "addr:full": "125 W MAIN ST", "addr:postcode": "67108", "addr:state": "KS", "amenity": "post_box", "brand": "United States Postal Service", "brand:wikidata": "Q668687", "collection_times": "Mo-Fr 11:45; Sa 10:45", "name": "USPS COLLECTION BOX - PO LOBBY", "nsi_id": "unitedstatespostalservice-a77078", "operator": "United States Postal Service", "operator:short": "USPS", "operator:type": "public", "operator:wikidata": "Q668687", "ref": "6710800003"}, "type": "Feature"}
{"dataset_attributes": {"@spider": "usps_collection_boxes", "spider:collection_time": "2023-10-31T08:25:14.480804"}, "geometry": {"coordinates": [-99.475563, 37.585324], "type": "Point"}, "id": "Zo3pa6pLUeOF-0IkbTyZoIG5KiI=", "properties": {"@spider": "usps_collection_boxes", "addr:city": "MULLINVILLE", "addr:country": "US", "addr:full": "117 S MAIN ST", "addr:postcode": "67109", "addr:state": "KS", "amenity": "post_box", "brand": "United States Postal Service", "brand:wikidata": "Q668687", "collection_times": "Mo-Fr 11:45; Sa 09:15", "name": "USPS COLLECTION BOX - BLUE BOX", "nsi_id": "unitedstatespostalservice-a77078", "operator": "United States Postal Service", "operator:short": "USPS", "operator:type": "public", "operator:wikidata": "Q668687", "ref": "6710900001"}, "type": "Feature"}
{"dataset_attributes": {"@spider": "usps_collection_boxes", "spider:collection_time": "2023-10-31T08:25:14.480804"}, "geometry": {"coordinates": [-99.475667, 37.585301], "type": "Point"}, "id": "E3d3TWFatM3CqlSGkI7VfHveBs4=", "properties": {"@spider": "usps_collection_boxes", "addr:city": "MULLINVILLE", "addr:country": "US", "addr:full": "117 S MAIN ST", "addr:postcode": "67109", "addr:state": "KS", "amenity": "post_box", "brand": "United States Postal Service", "brand:wikidata": "Q668687", "collection_times": "Mo-Fr 11:45; Sa 09:15", "name": "USPS COLLECTION BOX - PO LOBBY", "nsi_id": "unitedstatespostalservice-a77078", "operator": "United States Postal Service", "operator:short": "USPS", "operator:type": "public", "operator:wikidata": "Q668687", "ref": "6710900002"}, "type": "Feature"}
{"dataset_attributes": {"@spider": "usps_collection_boxes", "spider:collection_time": "2023-10-31T08:25:14.480804"}, "geometry": {"coordinates": [-99.475665342, 37.585296587], "type": "Point"}, "id": "_kSCCyLTEdzkrMyHtjlmyY0BNO0=", "properties": {"@spider": "usps_collection_boxes", "addr:city": "MULLINVILLE", "addr:country": "US", "addr:full": "117 S MAIN ST", "addr:postcode": "67109", "addr:state": "KS", "amenity": "post_box", "brand": "United States Postal Service", "brand:wikidata": "Q668687", "collection_times": "Mo-Fr 11:45; Sa 09:15", "name": "USPS COLLECTION BOX - PO LOBBY", "nsi_id": "unitedstatespostalservice-a77078", "operator": "United States Postal Service", "operator:short": "USPS", "operator:type": "public", "operator:wikidata": "Q668687", "ref": "6710900004"}, "type": "Feature"}
{"dataset_attributes": {"@spider": "usps_collection_boxes", "spider:collection_time": "2023-10-31T08:25:14.480804"}, "geometry": {"coordinates": [-97.2438137, 37.475012], "type": "Point"}, "id": "qV37b-6PV-MdBqT29WjjKZCXRhQ=", "properties": {"@spider": "usps_collection_boxes", "addr:city": "MULVANE", "addr:country": "US", "addr:full": "104 E MAIN ST", "addr:postcode": "67110", "addr:state": "KS", "amenity": "post_box", "brand": "United States Postal Service", "brand:wikidata": "Q668687", "collection_times": "Mo-Sa 14:00", "name": "USPS COLLECTION BOX - BLUE BOX", "note": "ON 12/24 AND 12/31, THIS BOX MAY BE COLLECTED AS EARLY AS 12 NOON.", "nsi_id": "unitedstatespostalservice-a77078", "operator": "United States Postal Service", "operator:short": "USPS", "operator:type": "public", "operator:wikidata": "Q668687", "ref": "6711000002"}, "type": "Feature"}
{"dataset_attributes": {"@spider": "usps_collection_boxes", "spider:collection_time": "2023-10-31T08:25:14.480804"}, "geometry": {"coordinates": [-97.2450799, 37.486475], "type": "Point"}, "id": "kBl6icyA0UH3PeqtclLKv3qVWl4=", "properties": {"@spider": "usps_collection_boxes", "addr:city": "MULVANE", "addr:country": "US", "addr:full": "1203 N 2ND AVE", "addr:postcode": "67110", "addr:state": "KS", "amenity": "post_box", "brand": "United States Postal Service", "brand:wikidata": "Q668687", "collection_times": "Mo-Sa 14:00", "name": "USPS COLLECTION BOX - BLUE BOX", "note": "ON 12/24 AND 12/31, THIS BOX MAY BE COLLECTED AS EARLY AS 12 NOON.", "nsi_id": "unitedstatespostalservice-a77078", "operator": "United States Postal Service", "operator:short": "USPS", "operator:type": "public", "operator:wikidata": "Q668687", "ref": "6711000003"}, "type": "Feature"}
{"dataset_attributes": {"@spider": "usps_collection_boxes", "spider:collection_time": "2023-10-31T08:25:14.480804"}, "geometry": {"coordinates": [-97.2450039989, 37.4746770167], "type": "Point"}, "id": "Zqxmvwi2CMX7mf9YjjJ0hf1vv_Y=", "properties": {"@spider": "usps_collection_boxes", "addr:city": "MULVANE", "addr:country": "US", "addr:full": "116 W. MAIN ST", "addr:postcode": "67110", "addr:state": "KS", "amenity": "post_box", "brand": "United States Postal Service", "brand:wikidata": "Q668687", "collection_times": "Mo-Fr 16:15; Sa 11:45", "name": "USPS COLLECTION BOX - BLUE BOX", "note": "ON 12/24 AND 12/31, THIS BOX MAY BE COLLECTED AS EARLY AS 12 NOON.", "nsi_id": "unitedstatespostalservice-a77078", "operator": "United States Postal Service", "operator:short": "USPS", "operator:type": "public", "operator:wikidata": "Q668687", "ref": "6711000005"}, "type": "Feature"}
{"dataset_attributes": {"@spider": "usps_collection_boxes", "spider:collection_time": "2023-10-31T08:25:14.480804"}, "geometry": {"coordinates": [-97.2450039989, 37.4746770167], "type": "Point"}, "id": "GHdIpvqvqfl_0nYqrt0p4sVOMAQ=", "properties": {"@spider": "usps_collection_boxes", "addr:city": "MULVANE", "addr:country": "US", "addr:full": "116 W MAIN ST", "addr:postcode": "67110", "addr:state": "KS", "amenity": "post_box", "brand": "United States Postal Service", "brand:wikidata": "Q668687", "collection_times": "Mo-Fr 16:15; Sa 11:45", "name": "USPS COLLECTION BOX - PO LOBBY", "note": "ON 12/24 AND 12/31, THIS BOX MAY BE COLLECTED AS EARLY AS 12 NOON.", "nsi_id": "unitedstatespostalservice-a77078", "operator": "United States Postal Service", "operator:short": "USPS", "operator:type": "public", "operator:wikidata": "Q668687", "ref": "6711000006"}, "type": "Feature"}
{"dataset_attributes": {"@spider": "usps_collection_boxes", "spider:collection_time": "2023-10-31T08:25:14.480804"}, "geometry": {"coordinates": [-97.2450039989, 37.4746770167], "type": "Point"}, "id": "OPQJZaB3sKecYV5i8v5ONgvFQ24=", "properties": {"@spider": "usps_collection_boxes", "addr:city": "MULVANE", "addr:country": "US", "addr:full": "116 W. MAIN ST.", "addr:postcode": "67110", "addr:state": "KS", "amenity": "post_box", "brand": "United States Postal Service", "brand:wikidata": "Q668687", "collection_times": "Mo-Fr 16:15; Sa 11:45", "name": "USPS COLLECTION BOX - PO LOBBY", "note": "ON 12/24 AND 12/31, THIS BOX MAY BE COLLECTED AS EARLY AS 12 NOON.", "nsi_id": "unitedstatespostalservice-a77078", "operator": "United States Postal Service", "operator:short": "USPS", "operator:type": "public", "operator:wikidata": "Q668687", "ref": "6711000008"}, "type": "Feature"}
{"dataset_attributes": {"@spider": "usps_collection_boxes", "spider:collection_time": "2023-10-31T08:25:14.480804"}, "geometry": {"coordinates": [-97.9300274, 37.609574], "type": "Point"}, "id": "6BgsKImyU4NaOPZLpf8gYC3stEw=", "properties": {"@spider": "usps_collection_boxes", "addr:city": "MURDOCK", "addr:country": "US", "addr:full": "2624 SE MURDOCK AVE", "addr:postcode": "67111", "addr:state": "KS", "amenity": "post_box", "brand": "United States Postal Service", "brand:wikidata": "Q668687", "collection_times": "Mo-Fr 11:45; Sa 10:45", "name": "USPS COLLECTION BOX - BLUE BOX", "nsi_id": "unitedstatespostalservice-a77078", "operator": "United States Postal Service", "operator:short": "USPS", "operator:type": "public", "operator:wikidata": "Q668687", "ref": "6711100001"}, "type": "Feature"}
{"dataset_attributes": {"@spider": "usps_collection_boxes", "spider:collection_time": "2023-10-31T08:25:14.480804"}, "geometry": {"coordinates": [-97.92997, 37.608584], "type": "Point"}, "id": "BOfju6Wf7qkgKWthtGkthhw0-Uo=", "properties": {"@spider": "usps_collection_boxes", "addr:city": "MURDOCK", "addr:country": "US", "addr:full": "2624 SE MURDOCK AVE", "addr:postcode": "67111", "addr:state": "KS", "amenity": "post_box", "brand": "United States Postal Service", "brand:wikidata": "Q668687", "collection_times": "Mo-Fr 11:45; Sa 10:45", "name": "USPS COLLECTION BOX - PO LOBBY", "nsi_id": "unitedstatespostalservice-a77078", "operator": "United States Postal Service", "operator:short": "USPS", "operator:type": "public", "operator:wikidata": "Q668687", "ref": "6711100002"}, "type": "Feature"}
{"dataset_attributes": {"@spider": "usps_collection_boxes", "spider:collection_time": "2023-10-31T08:25:14.480804"}, "geometry": {"coordinates": [-97.929946023, 37.608581593], "type": "Point"}, "id": "eg8i1HCQOdDr1YYDHpitXSEFufQ=", "properties": {"@spider": "usps_collection_boxes", "addr:city": "MURDOCK", "addr:country": "US", "addr:full": "2624 SE MURDOCK AVE", "addr:postcode": "67111", "addr:state": "KS", "amenity": "post_box", "brand": "United States Postal Service", "brand:wikidata": "Q668687", "collection_times": "Mo-Fr 11:45; Sa 10:45", "name": "USPS COLLECTION BOX - PO LOBBY", "nsi_id": "unitedstatespostalservice-a77078", "operator": "United States Postal Service", "operator:short": "USPS", "operator:type": "public", "operator:wikidata": "Q668687", "ref": "6711100003"}, "type": "Feature"}
{"dataset_attributes": {"@spider": "usps_collection_boxes", "spider:collection_time": "2023-10-31T08:25:14.480804"}, "geometry": {"coordinates": [-98.4209547, 37.440487], "type": "Point"}, "id": "wdWbVRtRMzfwOamoS_oz5KtnFH4=", "properties": {"@spider": "usps_collection_boxes", "addr:city": "NASHVILLE", "addr:country": "US", "addr:full": "118 S MAIN ST", "addr:postcode": "67112", "addr:state": "KS", "amenity": "post_box", "brand": "United States Postal Service", "brand:wikidata": "Q668687", "collection_times": "Mo-Fr 11:15; Sa 08:45", "name": "USPS COLLECTION BOX - BLUE BOX", "nsi_id": "unitedstatespostalservice-a77078", "operator": "United States Postal Service", "operator:short": "USPS", "operator:type": "public", "operator:wikidata": "Q668687", "ref": "6711200001"}, "type": "Feature"}
{"dataset_attributes": {"@spider": "usps_collection_boxes", "spider:collection_time": "2023-10-31T08:25:14.480804"}, "geometry": {"coordinates": [-98.421266, 37.44205], "type": "Point"}, "id": "ScB1oT6t4pmlbwmxunibkaYeEy4=", "properties": {"@spider": "usps_collection_boxes", "addr:city": "NASHVILLE", "addr:country": "US", "addr:full": "118 S MAIN ST", "addr:postcode": "67112", "addr:state": "KS", "amenity": "post_box", "brand": "United States Postal Service", "brand:wikidata": "Q668687", "collection_times": "Mo-Fr 11:15; Sa 08:45", "name": "USPS COLLECTION BOX - PO LOBBY", "nsi_id": "unitedstatespostalservice-a77078", "operator": "United States Postal Service", "operator:short": "USPS", "operator:type": "public", "operator:wikidata": "Q668687", "ref": "6711200002"}, "type": "Feature"}
{"dataset_attributes": {"@spider": "usps_collection_boxes", "spider:collection_time": "2023-10-31T08:25:14.480804"}, "geometry": {"coordinates": [-98.4212664, 37.44203378], "type": "Point"}, "id": "4Zrjwf-G3nQl7tUfc-1SPVEA1Uw=", "properties": {"@spider": "usps_collection_boxes", "addr:city": "NASHVILLE", "addr:country": "US", "addr:full": "118 S MAIN ST", "addr:postcode": "67112", "addr:state": "KS", "amenity": "post_box", "brand": "United States Postal Service", "brand:wikidata": "Q668687", "collection_times": "Mo-Fr 11:15; Sa 08:45", "name": "USPS COLLECTION BOX - PO LOBBY", "nsi_id": "unitedstatespostalservice-a77078", "operator": "United States Postal Service", "operator:short": "USPS", "operator:type": "public", "operator:wikidata": "Q668687", "ref": "6711200003"}, "type": "Feature"}
{"dataset_attributes": {"@spider": "usps_collection_boxes", "spider:collection_time": "2023-10-31T08:25:14.480804"}, "geometry": {"coordinates": [-97.3718005, 38.045165], "type": "Point"}, "id": "lswbqAY3FddsZK0eisgR-uKcDBU=", "properties": {"@spider": "usps_collection_boxes", "addr:city": "NEWTON", "addr:country": "US", "addr:full": "216 N MERIDIAN RD", "addr:postcode": "67114", "addr:state": "KS", "amenity": "post_box", "brand": "United States Postal Service", "brand:wikidata": "Q668687", "collection_times": "Mo-Sa 12:00", "name": "USPS COLLECTION BOX - BLUE BOX", "nsi_id": "unitedstatespostalservice-a77078", "operator": "United States Postal Service", "operator:short": "USPS", "operator:type": "public", "operator:wikidata": "Q668687", "ref": "6711400003"}, "type": "Feature"}
{"dataset_attributes": {"@spider": "usps_collection_boxes", "spider:collection_time": "2023-10-31T08:25:14.480804"}, "geometry": {"coordinates": [-97.3450683, 38.038715], "type": "Point"}, "id": "YDUQb3szhtM7n9LQyPZdA9JbnM8=", "properties": {"@spider": "usps_collection_boxes", "addr:city": "NEWTON", "addr:country": "US", "addr:full": "411 WASHINGTON RD", "addr:postcode": "67114", "addr:state": "KS", "amenity": "post_box", "brand": "United States Postal Service", "brand:wikidata": "Q668687", "collection_times": "Mo-Sa 14:00", "name": "USPS COLLECTION BOX - BLUE BOX", "note": "ON 12/24 AND 12/31, THIS BOX MAY BE COLLECTED AS EARLY AS 12 NOON.", "nsi_id": "unitedstatespostalservice-a77078", "operator": "United States Postal Service", "operator:short": "USPS", "operator:type": "public", "operator:wikidata": "Q668687", "ref": "6711400009"}, "type": "Feature"}
{"dataset_attributes": {"@spider": "usps_collection_boxes", "spider:collection_time": "2023-10-31T08:25:14.480804"}, "geometry": {"coordinates": [-97.3338084, 38.023786], "type": "Point"}, "id": "YeoPpc_WFnT4JIki5T4WW1yEMJg=", "properties": {"@spider": "usps_collection_boxes", "addr:city": "NEWTON", "addr:country": "US", "addr:full": "600 MEDICAL CENTER DR", "addr:postcode": "67114", "addr:state": "KS", "amenity": "post_box", "brand": "United States Postal Service", "brand:wikidata": "Q668687", "collection_times": "Mo-Sa 14:00", "name": "USPS COLLECTION BOX - BLUE BOX", "note": "ON 12/24 AND 12/31, THIS BOX MAY BE COLLECTED AS EARLY AS 12 NOON.", "nsi_id": "unitedstatespostalservice-a77078", "operator": "United States Postal Service", "operator:short": "USPS", "operator:type": "public", "operator:wikidata": "Q668687", "ref": "6711400018"}, "type": "Feature"}
{"dataset_attributes": {"@spider": "usps_collection_boxes", "spider:collection_time": "2023-10-31T08:25:14.480804"}, "geometry": {"coordinates": [-97.347076, 38.04663], "type": "Point"}, "id": "HegtZ_DT7AxGtT43RycI0vd50aA=", "properties": {"@spider": "usps_collection_boxes", "addr:city": "NEWTON", "addr:country": "US", "addr:full": "400 N POPLAR ST", "addr:postcode": "67114", "addr:state": "KS", "amenity": "post_box", "brand": "United States Postal Service", "brand:wikidata": "Q668687", "collection_times": "Mo-Fr 16:30; Sa 15:00", "name": "USPS COLLECTION BOX - PO LOBBY", "note": "ON 12/24 AND 12/31, THIS BOX MAY BE COLLECTED AS EARLY AS 12 NOON.", "nsi_id": "unitedstatespostalservice-a77078", "operator": "United States Postal Service", "operator:short": "USPS", "operator:type": "public", "operator:wikidata": "Q668687", "ref": "6711400019"}, "type": "Feature"}
{"dataset_attributes": {"@spider": "usps_collection_boxes", "spider:collection_time": "2023-10-31T08:25:14.480804"}, "geometry": {"coordinates": [-97.3465133, 38.046866], "type": "Point"}, "id": "2mMbnWzNIVZ-0RcqbJgbRa6asQg=", "properties": {"@spider": "usps_collection_boxes", "addr:city": "NEWTON", "addr:country": "US", "addr:full": "400 N POPLAR ST", "addr:postcode": "67114", "addr:state": "KS", "amenity": "post_box", "brand": "United States Postal Service", "brand:wikidata": "Q668687", "collection_times": "Mo-Fr 16:30; Sa 15:00", "name": "USPS COLLECTION BOX - BLUE BOX", "note": "ON 12/24 AND 12/31, THIS BOX MAY BE COLLECTED AS EARLY AS 12 NOON.", "nsi_id": "unitedstatespostalservice-a77078", "operator": "United States Postal Service", "operator:short": "USPS", "operator:type": "public", "operator:wikidata": "Q668687", "ref": "6711400022"}, "type": "Feature"}
{"dataset_attributes": {"@spider": "usps_collection_boxes", "spider:collection_time": "2023-10-31T08:25:14.480804"}, "geometry": {"coordinates": [-97.347077579, 38.046627251], "type": "Point"}, "id": "dVhWpXVlFKLdc4lSAsoLaPXOASc=", "properties": {"@spider": "usps_collection_boxes", "addr:city": "NEWTON", "addr:country": "US", "addr:full": "400 N POPLAR ST", "addr:postcode": "67114", "addr:state": "KS", "amenity": "post_box", "brand": "United States Postal Service", "brand:wikidata": "Q668687", "collection_times": "Mo-Fr 16:30; Sa 12:00", "name": "USPS COLLECTION BOX - PO LOBBY", "note": "ON 12/24 AND 12/31, THIS BOX MAY BE COLLECTED AS EARLY AS 12 NOON.", "nsi_id": "unitedstatespostalservice-a77078", "operator": "United States Postal Service", "operator:short": "USPS", "operator:type": "public", "operator:wikidata": "Q668687", "ref": "6711400023"}, "type": "Feature"}
{"dataset_attributes": {"@spider": "usps_collection_boxes", "spider:collection_time": "2023-10-31T08:25:14.480804"}, "geometry": {"coordinates": [-97.345265, 38.07265], "type": "Point"}, "id": "kMS5-7fn2IeMXVJz2bENm_jLFjg=", "properties": {"@spider": "usps_collection_boxes", "addr:city": "NORTH NEWTON", "addr:country": "US", "addr:full": "2509 N MAIN ST", "addr:postcode": "67117", "addr:state": "KS", "amenity": "post_box", "brand": "United States Postal Service", "brand:wikidata": "Q668687", "collection_times": "Mo-Fr 16:15; Sa 09:15", "name": "USPS COLLECTION BOX - PO LOBBY", "note": "ON 12/24 AND 12/31, THIS BOX MAY BE COLLECTED AS EARLY AS 12 NOON.", "nsi_id": "unitedstatespostalservice-a77078", "operator": "United States Postal Service", "operator:short": "USPS", "operator:type": "public", "operator:wikidata": "Q668687", "ref": "6711700002"}, "type": "Feature"}
{"dataset_attributes": {"@spider": "usps_collection_boxes", "spider:collection_time": "2023-10-31T08:25:14.480804"}, "geometry": {"coordinates": [-97.3453639, 38.072581], "type": "Point"}, "id": "Pj5AbX3e7KuO7niYyU-By9PdWfE=", "properties": {"@spider": "usps_collection_boxes", "addr:city": "NORTH NEWTON", "addr:country": "US", "addr:full": "2509 N MAIN ST", "addr:postcode": "67117", "addr:state": "KS", "amenity": "post_box", "brand": "United States Postal Service", "brand:wikidata": "Q668687", "collection_times": "Mo-Fr 16:15; Sa 09:15", "name": "USPS COLLECTION BOX - BLUE BOX", "note": "ON 12/24 AND 12/31, THIS BOX MAY BE COLLECTED AS EARLY AS 12 NOON.", "nsi_id": "unitedstatespostalservice-a77078", "operator": "United States Postal Service", "operator:short": "USPS", "operator:type": "public", "operator:wikidata": "Q668687", "ref": "6711700003"}, "type": "Feature"}
{"dataset_attributes": {"@spider": "usps_collection_boxes", "spider:collection_time": "2023-10-31T08:25:14.480804"}, "geometry": {"coordinates": [-97.3452573732, 38.0726465554], "type": "Point"}, "id": "aQxhQYQwvmFSmvGEGQmGB7dcJ0s=", "properties": {"@spider": "usps_collection_boxes", "addr:city": "NORTH NEWTON", "addr:country": "US", "addr:full": "2509 N MAIN ST", "addr:postcode": "67117", "addr:state": "KS", "amenity": "post_box", "brand": "United States Postal Service", "brand:wikidata": "Q668687", "collection_times": "Mo-Fr 16:15; Sa 09:15", "name": "USPS COLLECTION BOX - PO LOBBY", "note": "ON 12/24 AND 12/31, THIS BOX MAY BE COLLECTED AS EARLY AS 12 NOON.", "nsi_id": "unitedstatespostalservice-a77078", "operator": "United States Postal Service", "operator:short": "USPS", "operator:type": "public", "operator:wikidata": "Q668687", "ref": "6711700004"}, "type": "Feature"}
{"dataset_attributes": {"@spider": "usps_collection_boxes", "spider:collection_time": "2023-10-31T08:25:14.480804"}, "geometry": {"coordinates": [-97.8492287, 37.45692], "type": "Point"}, "id": "o3FlaAQJIcmtBEi5wx0XtavcVQM=", "properties": {"@spider": "usps_collection_boxes", "addr:city": "NORWICH", "addr:country": "US", "addr:full": "307 S MAIN ST", "addr:postcode": "67118", "addr:state": "KS", "amenity": "post_box", "brand": "United States Postal Service", "brand:wikidata": "Q668687", "collection_times": "Mo-Sa 08:00", "name": "USPS COLLECTION BOX - BLUE BOX", "nsi_id": "unitedstatespostalservice-a77078", "operator": "United States Postal Service", "operator:short": "USPS", "operator:type": "public", "operator:wikidata": "Q668687", "ref": "6711800001"}, "type": "Feature"}
{"dataset_attributes": {"@spider": "usps_collection_boxes", "spider:collection_time": "2023-10-31T08:25:14.480804"}, "geometry": {"coordinates": [-97.169028965, 37.275122619], "type": "Point"}, "id": "6atNnaFPtm-8FQIoCbE1LGouEBM=", "properties": {"@spider": "usps_collection_boxes", "addr:city": "OXFORD", "addr:country": "US", "addr:full": "120 N SUMNER ST", "addr:postcode": "67119", "addr:state": "KS", "amenity": "post_box", "brand": "United States Postal Service", "brand:wikidata": "Q668687", "collection_times": "Mo-Fr 15:45; Sa 09:45", "name": "USPS COLLECTION BOX - BLUE BOX", "note": "ON 12/24 AND 12/31, THIS BOX MAY BE COLLECTED AS EARLY AS 12 NOON.", "nsi_id": "unitedstatespostalservice-a77078", "operator": "United States Postal Service", "operator:short": "USPS", "operator:type": "public", "operator:wikidata": "Q668687", "ref": "6711900001"}, "type": "Feature"}
{"dataset_attributes": {"@spider": "usps_collection_boxes", "spider:collection_time": "2023-10-31T08:25:14.480804"}, "geometry": {"coordinates": [-97.169028965, 37.275122619], "type": "Point"}, "id": "cvnbLqYqe_oLpZshALlpUrSrjkg=", "properties": {"@spider": "usps_collection_boxes", "addr:city": "OXFORD", "addr:country": "US", "addr:full": "120 N SUMNER ST", "addr:postcode": "67119", "addr:state": "KS", "amenity": "post_box", "brand": "United States Postal Service", "brand:wikidata": "Q668687", "collection_times": "Mo-Fr 15:45; Sa 09:45", "name": "USPS COLLECTION BOX - PO LOBBY", "note": "ON 12/24 AND 12/31, THIS BOX MAY BE COLLECTED AS EARLY AS 12 NOON.", "nsi_id": "unitedstatespostalservice-a77078", "operator": "United States Postal Service", "operator:short": "USPS", "operator:type": "public", "operator:wikidata": "Q668687", "ref": "6711900002"}, "type": "Feature"}
{"dataset_attributes": {"@spider": "usps_collection_boxes", "spider:collection_time": "2023-10-31T08:25:14.480804"}, "geometry": {"coordinates": [-97.169028965, 37.275122619], "type": "Point"}, "id": "IjnEtlBD7aG8Xz68iQ4A6GtLgz0=", "properties": {"@spider": "usps_collection_boxes", "addr:city": "OXFORD", "addr:country": "US", "addr:full": "120 N SUMNER ST", "addr:postcode": "67119", "addr:state": "KS", "amenity": "post_box", "brand": "United States Postal Service", "brand:wikidata": "Q668687", "collection_times": "Mo-Fr 15:45; Sa 09:45", "name": "USPS COLLECTION BOX - PO LOBBY", "note": "ON 12/24 AND 12/31, THIS BOX MAY BE COLLECTED AS EARLY AS 12 NOON.", "nsi_id": "unitedstatespostalservice-a77078", "operator": "United States Postal Service", "operator:short": "USPS", "operator:type": "public", "operator:wikidata": "Q668687", "ref": "6711900003"}, "type": "Feature"}
{"dataset_attributes": {"@spider": "usps_collection_boxes", "spider:collection_time": "2023-10-31T08:25:14.480804"}, "geometry": {"coordinates": [-97.372742024, 37.4774329865], "type": "Point"}, "id": "rVYM5yEi8AU-QsgbfzT6WQMOOtU=", "properties": {"@spider": "usps_collection_boxes", "addr:city": "PECK", "addr:country": "US", "addr:full": "328 W 7TH ST", "addr:postcode": "67120", "addr:state": "KS", "amenity": "post_box", "brand": "United States Postal Service", "brand:wikidata": "Q668687", "collection_times": "Mo-Fr 10:45; Sa 10:15", "name": "USPS COLLECTION BOX - BLUE BOX", "nsi_id": "unitedstatespostalservice-a77078", "operator": "United States Postal Service", "operator:short": "USPS", "operator:type": "public", "operator:wikidata": "Q668687", "ref": "6712000001"}, "type": "Feature"}
{"dataset_attributes": {"@spider": "usps_collection_boxes", "spider:collection_time": "2023-10-31T08:25:14.480804"}, "geometry": {"coordinates": [-97.372571, 37.47749], "type": "Point"}, "id": "IHV8n49ct73gYPc1FbzmPD8Xnpw=", "properties": {"@spider": "usps_collection_boxes", "addr:city": "PECK", "addr:country": "US", "addr:full": "328 W 7TH ST", "addr:postcode": "67120", "addr:state": "KS", "amenity": "post_box", "brand": "United States Postal Service", "brand:wikidata": "Q668687", "collection_times": "Mo-Fr 10:45; Sa 10:15", "name": "USPS COLLECTION BOX - PO LOBBY", "nsi_id": "unitedstatespostalservice-a77078", "operator": "United States Postal Service", "operator:short": "USPS", "operator:type": "public", "operator:wikidata": "Q668687", "ref": "6712000002"}, "type": "Feature"}
{"dataset_attributes": {"@spider": "usps_collection_boxes", "spider:collection_time": "2023-10-31T08:25:14.480804"}, "geometry": {"coordinates": [-97.373566475, 37.477205914], "type": "Point"}, "id": "EVurh2fdQHtUHhSgfrdPdC5gKqo=", "properties": {"@spider": "usps_collection_boxes", "addr:city": "PECK", "addr:country": "US", "addr:full": "328 W 7TH ST", "addr:postcode": "67120", "addr:state": "KS", "amenity": "post_box", "brand": "United States Postal Service", "brand:wikidata": "Q668687", "collection_times": "Mo-Fr 10:45; Sa 10:15", "name": "USPS COLLECTION BOX - PO LOBBY", "nsi_id": "unitedstatespostalservice-a77078", "operator": "United States Postal Service", "operator:short": "USPS", "operator:type": "public", "operator:wikidata": "Q668687", "ref": "6712000003"}, "type": "Feature"}
{"dataset_attributes": {"@spider": "usps_collection_boxes", "spider:collection_time": "2023-10-31T08:25:14.480804"}, "geometry": {"coordinates": [-96.3671914, 37.622142], "type": "Point"}, "id": "wDeSwmWx_YL-J5gdkV7hd369Ngc=", "properties": {"@spider": "usps_collection_boxes", "addr:city": "PIEDMONT", "addr:country": "US", "addr:full": "107 J80 RD", "addr:postcode": "67122", "addr:state": "KS", "amenity": "post_box", "brand": "United States Postal Service", "brand:wikidata": "Q668687", "collection_times": "Mo-Sa 10:45", "name": "USPS COLLECTION BOX - BLUE BOX", "nsi_id": "unitedstatespostalservice-a77078", "operator": "United States Postal Service", "operator:short": "USPS", "operator:type": "public", "operator:wikidata": "Q668687", "ref": "6712200001"}, "type": "Feature"}
{"dataset_attributes": {"@spider": "usps_collection_boxes", "spider:collection_time": "2023-10-31T08:25:14.480804"}, "geometry": {"coordinates": [-96.367108, 37.622261], "type": "Point"}, "id": "lrVuo9-O7zWqXrwXnCZUm2_Ak3w=", "properties": {"@spider": "usps_collection_boxes", "addr:city": "PIEDMONT", "addr:country": "US", "addr:full": "107 J80 RD", "addr:postcode": "67122", "addr:state": "KS", "amenity": "post_box", "brand": "United States Postal Service", "brand:wikidata": "Q668687", "collection_times": "Mo-Sa 10:45", "name": "USPS COLLECTION BOX - PO LOBBY", "nsi_id": "unitedstatespostalservice-a77078", "operator": "United States Postal Service", "operator:short": "USPS", "operator:type": "public", "operator:wikidata": "Q668687", "ref": "6712200002"}, "type": "Feature"}
{"dataset_attributes": {"@spider": "usps_collection_boxes", "spider:collection_time": "2023-10-31T08:25:14.480804"}, "geometry": {"coordinates": [-96.36713233, 37.622280572], "type": "Point"}, "id": "yNCC0h5s8xT_uOJWy9Ic3XoGoxU=", "properties": {"@spider": "usps_collection_boxes", "addr:city": "PIEDMONT", "addr:country": "US", "addr:full": "107 J80 RD", "addr:postcode": "67122", "addr:state": "KS", "amenity": "post_box", "brand": "United States Postal Service", "brand:wikidata": "Q668687", "collection_times": "Mo-Sa 10:45", "name": "USPS COLLECTION BOX - PO LOBBY", "nsi_id": "unitedstatespostalservice-a77078", "operator": "United States Postal Service", "operator:short": "USPS", "operator:type": "public", "operator:wikidata": "Q668687", "ref": "6712200003"}, "type": "Feature"}
{"dataset_attributes": {"@spider": "usps_collection_boxes", "spider:collection_time": "2023-10-31T08:25:14.480804"}, "geometry": {"coordinates": [-97.0197263, 37.938348], "type": "Point"}, "id": "hkCcQpfwfiZfxfJsTTLAipAcpBc=", "properties": {"@spider": "usps_collection_boxes", "addr:city": "POTWIN", "addr:country": "US", "addr:full": "103 E MARSHALL AVE", "addr:postcode": "67123", "addr:state": "KS", "amenity": "post_box", "brand": "United States Postal Service", "brand:wikidata": "Q668687", "collection_times": "Mo-Fr 12:45; Sa 09:45", "name": "USPS COLLECTION BOX - BLUE BOX", "note": "ON 12/24 AND 12/31, THIS BOX MAY BE COLLECTED AS EARLY AS 12 NOON.", "nsi_id": "unitedstatespostalservice-a77078", "operator": "United States Postal Service", "operator:short": "USPS", "operator:type": "public", "operator:wikidata": "Q668687", "ref": "6712300001"}, "type": "Feature"}
{"dataset_attributes": {"@spider": "usps_collection_boxes", "spider:collection_time": "2023-10-31T08:25:14.480804"}, "geometry": {"coordinates": [-97.019741, 37.938414], "type": "Point"}, "id": "MrcmruFcgybVwBxHfyM1LxNFN0s=", "properties": {"@spider": "usps_collection_boxes", "addr:city": "POTWIN", "addr:country": "US", "addr:full": "103 E MARSHALL AVE", "addr:postcode": "67123", "addr:state": "KS", "amenity": "post_box", "brand": "United States Postal Service", "brand:wikidata": "Q668687", "collection_times": "Mo-Fr 12:45; Sa 09:45", "name": "USPS COLLECTION BOX - PO LOBBY", "note": "ON 12/24 AND 12/31, THIS BOX MAY BE COLLECTED AS EARLY AS 12 NOON.", "nsi_id": "unitedstatespostalservice-a77078", "operator": "United States Postal Service", "operator:short": "USPS", "operator:type": "public", "operator:wikidata": "Q668687", "ref": "6712300002"}, "type": "Feature"}
{"dataset_attributes": {"@spider": "usps_collection_boxes", "spider:collection_time": "2023-10-31T08:25:14.480804"}, "geometry": {"coordinates": [-97.019743668, 37.938409514], "type": "Point"}, "id": "zt79Bw65Z5PX-kmMU85DDRU1FJM=", "properties": {"@spider": "usps_collection_boxes", "addr:city": "POTWIN", "addr:country": "US", "addr:full": "103 E MARSHALL AVE", "addr:postcode": "67123", "addr:state": "KS", "amenity": "post_box", "brand": "United States Postal Service", "brand:wikidata": "Q668687", "collection_times": "Mo-Fr 12:45; Sa 09:45", "name": "USPS COLLECTION BOX - PO LOBBY", "note": "ON 12/24 AND 12/31, THIS BOX MAY BE COLLECTED AS EARLY AS 12 NOON.", "nsi_id": "unitedstatespostalservice-a77078", "operator": "United States Postal Service", "operator:short": "USPS", "operator:type": "public", "operator:wikidata": "Q668687", "ref": "6712300003"}, "type": "Feature"}
{"dataset_attributes": {"@spider": "usps_collection_boxes", "spider:collection_time": "2023-10-31T08:25:14.480804"}, "geometry": {"coordinates": [-98.7131436, 37.644478], "type": "Point"}, "id": "wyEqNQsIy9qc2Nyi5wQUHg-Naqo=", "properties": {"@spider": "usps_collection_boxes", "addr:city": "PRATT", "addr:country": "US", "addr:full": "2003 E 1ST ST", "addr:postcode": "67124", "addr:state": "KS", "amenity": "post_box", "brand": "United States Postal Service", "brand:wikidata": "Q668687", "collection_times": "Mo-Sa 15:00", "name": "USPS COLLECTION BOX - BLUE BOX", "note": "ON 12/24 AND 12/31, THIS BOX MAY BE COLLECTED AS EARLY AS 12 NOON.", "nsi_id": "unitedstatespostalservice-a77078", "operator": "United States Postal Service", "operator:short": "USPS", "operator:type": "public", "operator:wikidata": "Q668687", "ref": "6712400003"}, "type": "Feature"}
{"dataset_attributes": {"@spider": "usps_collection_boxes", "spider:collection_time": "2023-10-31T08:25:14.480804"}, "geometry": {"coordinates": [-98.73778, 37.643917], "type": "Point"}, "id": "SF72sB3pWhvNOn2kHey5vhJutFM=", "properties": {"@spider": "usps_collection_boxes", "addr:city": "PRATT", "addr:country": "US", "addr:full": "202 E 3RD ST", "addr:postcode": "67124", "addr:state": "KS", "amenity": "post_box", "brand": "United States Postal Service", "brand:wikidata": "Q668687", "collection_times": "Mo-Fr 16:30; Sa 11:00", "name": "USPS COLLECTION BOX - PO LOBBY", "note": "ON 12/24 AND 12/31, THIS BOX MAY BE COLLECTED AS EARLY AS 12 NOON.", "nsi_id": "unitedstatespostalservice-a77078", "operator": "United States Postal Service", "operator:short": "USPS", "operator:type": "public", "operator:wikidata": "Q668687", "ref": "6712400008"}, "type": "Feature"}
{"dataset_attributes": {"@spider": "usps_collection_boxes", "spider:collection_time": "2023-10-31T08:25:14.480804"}, "geometry": {"coordinates": [-98.7279119162, 37.6459395049], "type": "Point"}, "id": "nU9WJ7FPQo9U6HQO5C6lmuAb9aA=", "properties": {"@spider": "usps_collection_boxes", "addr:city": "PRATT", "addr:country": "US", "addr:full": "1108 E 1ST ST", "addr:postcode": "67124", "addr:state": "KS", "amenity": "post_box", "brand": "United States Postal Service", "brand:wikidata": "Q668687", "collection_times": "Mo-Sa 15:00", "name": "USPS COLLECTION BOX - BLUE BOX", "note": "ON 12/24 AND 12/31, THIS BOX MAY BE COLLECTED AS EARLY AS 12 NOON.", "nsi_id": "unitedstatespostalservice-a77078", "operator": "United States Postal Service", "operator:short": "USPS", "operator:type": "public", "operator:wikidata": "Q668687", "ref": "6712400011"}, "type": "Feature"}
{"dataset_attributes": {"@spider": "usps_collection_boxes", "spider:collection_time": "2023-10-31T08:25:14.480804"}, "geometry": {"coordinates": [-98.7413569, 37.644111], "type": "Point"}, "id": "JcGlwezzgwiIp04qhfZXbTo2mCs=", "properties": {"@spider": "usps_collection_boxes", "addr:city": "PRATT", "addr:country": "US", "addr:full": "210 W 3RD ST", "addr:postcode": "67124", "addr:state": "KS", "amenity": "post_box", "brand": "United States Postal Service", "brand:wikidata": "Q668687", "collection_times": "Mo-Sa 15:00", "name": "USPS COLLECTION BOX - BLUE BOX", "note": "ON 12/24 AND 12/31, THIS BOX MAY BE COLLECTED AS EARLY AS 12 NOON.", "nsi_id": "unitedstatespostalservice-a77078", "operator": "United States Postal Service", "operator:short": "USPS", "operator:type": "public", "operator:wikidata": "Q668687", "ref": "6712400012"}, "type": "Feature"}
{"dataset_attributes": {"@spider": "usps_collection_boxes", "spider:collection_time": "2023-10-31T08:25:14.480804"}, "geometry": {"coordinates": [-98.737781223, 37.64390953], "type": "Point"}, "id": "oVVPBgYtOTicuJMyUNnQ7UoSp1w=", "properties": {"@spider": "usps_collection_boxes", "addr:city": "PRATT", "addr:country": "US", "addr:full": "202 E 3RD ST", "addr:postcode": "67124", "addr:state": "KS", "amenity": "post_box", "brand": "United States Postal Service", "brand:wikidata": "Q668687", "collection_times": "Mo-Fr 16:30; Sa 11:00", "name": "USPS COLLECTION BOX - PO LOBBY", "note": "ON 12/24 AND 12/31, THIS BOX MAY BE COLLECTED AS EARLY AS 12 NOON.", "nsi_id": "unitedstatespostalservice-a77078", "operator": "United States Postal Service", "operator:short": "USPS", "operator:type": "public", "operator:wikidata": "Q668687", "ref": "6712400014"}, "type": "Feature"}
{"dataset_attributes": {"@spider": "usps_collection_boxes", "spider:collection_time": "2023-10-31T08:25:14.480804"}, "geometry": {"coordinates": [-99.484295311, 37.202875132], "type": "Point"}, "id": "WvCRDmgnR_-gXY42u-555h475G8=", "properties": {"@spider": "usps_collection_boxes", "addr:city": "PROTECTION", "addr:country": "US", "addr:full": "107 W WALNUT ST", "addr:postcode": "67127", "addr:state": "KS", "amenity": "post_box", "brand": "United States Postal Service", "brand:wikidata": "Q668687", "collection_times": "Mo-Fr 14:30; Sa 10:45", "name": "USPS COLLECTION BOX - BLUE BOX", "note": "ON 12/24 AND 12/31, THIS BOX MAY BE COLLECTED AS EARLY AS 12 NOON.", "nsi_id": "unitedstatespostalservice-a77078", "operator": "United States Postal Service", "operator:short": "USPS", "operator:type": "public", "operator:wikidata": "Q668687", "ref": "6712700001"}, "type": "Feature"}
{"dataset_attributes": {"@spider": "usps_collection_boxes", "spider:collection_time": "2023-10-31T08:25:14.480804"}, "geometry": {"coordinates": [-99.484329, 37.202921], "type": "Point"}, "id": "XpaEDnMkwS7wC2ZonZcM9pPDThQ=", "properties": {"@spider": "usps_collection_boxes", "addr:city": "PROTECTION", "addr:country": "US", "addr:full": "107 W WALNUT ST", "addr:postcode": "67127", "addr:state": "KS", "amenity": "post_box", "brand": "United States Postal Service", "brand:wikidata": "Q668687", "collection_times": "Mo-Fr 14:40; Sa 10:45", "name": "USPS COLLECTION BOX - PO LOBBY", "note": "ON 12/24 AND 12/31, THIS BOX MAY BE COLLECTED AS EARLY AS 12 NOON.", "nsi_id": "unitedstatespostalservice-a77078", "operator": "United States Postal Service", "operator:short": "USPS", "operator:type": "public", "operator:wikidata": "Q668687", "ref": "6712700002"}, "type": "Feature"}
{"dataset_attributes": {"@spider": "usps_collection_boxes", "spider:collection_time": "2023-10-31T08:25:14.480804"}, "geometry": {"coordinates": [-99.484295166, 37.202866302], "type": "Point"}, "id": "W4QU7n0qMmRGICjEy4MYQZNeFXU=", "properties": {"@spider": "usps_collection_boxes", "addr:city": "PROTECTION", "addr:country": "US", "addr:full": "107 W WALNUT ST", "addr:postcode": "67127", "addr:state": "KS", "amenity": "post_box", "brand": "United States Postal Service", "brand:wikidata": "Q668687", "collection_times": "Mo-Fr 14:40; Sa 10:45", "name": "USPS COLLECTION BOX - PO LOBBY", "note": "ON 12/24 AND 12/31, THIS BOX MAY BE COLLECTED AS EARLY AS 12 NOON.", "nsi_id": "unitedstatespostalservice-a77078", "operator": "United States Postal Service", "operator:short": "USPS", "operator:type": "public", "operator:wikidata": "Q668687", "ref": "6712700004"}, "type": "Feature"}
{"dataset_attributes": {"@spider": "usps_collection_boxes", "spider:collection_time": "2023-10-31T08:25:14.480804"}, "geometry": {"coordinates": [-97.0069903, 37.440707], "type": "Point"}, "id": "eHVvpUZ7Q-A-Pnuo5k_TGCP6oEM=", "properties": {"@spider": "usps_collection_boxes", "addr:city": "ROCK", "addr:country": "US", "addr:full": "333 WILLIAMS", "addr:postcode": "67131", "addr:state": "KS", "amenity": "post_box", "brand": "United States Postal Service", "brand:wikidata": "Q668687", "collection_times": "Mo-Sa 09:45", "name": "USPS COLLECTION BOX - BLUE BOX", "nsi_id": "unitedstatespostalservice-a77078", "operator": "United States Postal Service", "operator:short": "USPS", "operator:type": "public", "operator:wikidata": "Q668687", "ref": "6713100001"}, "type": "Feature"}
{"dataset_attributes": {"@spider": "usps_collection_boxes", "spider:collection_time": "2023-10-31T08:25:14.480804"}, "geometry": {"coordinates": [-97.007468, 37.440786], "type": "Point"}, "id": "eNjN_2sJNgYD2sM0N0K7Bd0cRfo=", "properties": {"@spider": "usps_collection_boxes", "addr:city": "ROCK", "addr:country": "US", "addr:full": "333 E WILLIAMS ST", "addr:postcode": "67131", "addr:state": "KS", "amenity": "post_box", "brand": "United States Postal Service", "brand:wikidata": "Q668687", "collection_times": "Mo-Sa 09:45", "name": "USPS COLLECTION BOX - PO LOBBY", "nsi_id": "unitedstatespostalservice-a77078", "operator": "United States Postal Service", "operator:short": "USPS", "operator:type": "public", "operator:wikidata": "Q668687", "ref": "6713100002"}, "type": "Feature"}
{"dataset_attributes": {"@spider": "usps_collection_boxes", "spider:collection_time": "2023-10-31T08:25:14.480804"}, "geometry": {"coordinates": [-97.007460881, 37.440731355], "type": "Point"}, "id": "_ozExWNgA2WHWP0t6VmvSZbXZ1A=", "properties": {"@spider": "usps_collection_boxes", "addr:city": "ROCK", "addr:country": "US", "addr:full": "333 WILLIAMS", "addr:postcode": "67131", "addr:state": "KS", "amenity": "post_box", "brand": "United States Postal Service", "brand:wikidata": "Q668687", "collection_times": "Mo-Sa 09:45", "name": "USPS COLLECTION BOX - PO LOBBY", "nsi_id": "unitedstatespostalservice-a77078", "operator": "United States Postal Service", "operator:short": "USPS", "operator:type": "public", "operator:wikidata": "Q668687", "ref": "6713100003"}, "type": "Feature"}
{"dataset_attributes": {"@spider": "usps_collection_boxes", "spider:collection_time": "2023-10-31T08:25:14.480804"}, "geometry": {"coordinates": [-96.6199584, 37.815984], "type": "Point"}, "id": "XaxjABqQJnAgzkbMNKlGsLqJyEY=", "properties": {"@spider": "usps_collection_boxes", "addr:city": "ROSALIA", "addr:country": "US", "addr:full": "616 SE ROSALIA RD", "addr:postcode": "67132", "addr:state": "KS", "amenity": "post_box", "brand": "United States Postal Service", "brand:wikidata": "Q668687", "collection_times": "Mo-Fr 09:45; Sa 09:15", "name": "USPS COLLECTION BOX - BLUE BOX", "nsi_id": "unitedstatespostalservice-a77078", "operator": "United States Postal Service", "operator:short": "USPS", "operator:type": "public", "operator:wikidata": "Q668687", "ref": "6713200001"}, "type": "Feature"}
{"dataset_attributes": {"@spider": "usps_collection_boxes", "spider:collection_time": "2023-10-31T08:25:14.480804"}, "geometry": {"coordinates": [-96.620047, 37.81604], "type": "Point"}, "id": "cE_b42gLBUvgVabXBVZQJ9tfJ_0=", "properties": {"@spider": "usps_collection_boxes", "addr:city": "ROSALIA", "addr:country": "US", "addr:full": "616 SE ROSALIA RD", "addr:postcode": "67132", "addr:state": "KS", "amenity": "post_box", "brand": "United States Postal Service", "brand:wikidata": "Q668687", "collection_times": "Mo-Fr 09:45; Sa 09:15", "name": "USPS COLLECTION BOX - PO LOBBY", "nsi_id": "unitedstatespostalservice-a77078", "operator": "United States Postal Service", "operator:short": "USPS", "operator:type": "public", "operator:wikidata": "Q668687", "ref": "6713200002"}, "type": "Feature"}
{"dataset_attributes": {"@spider": "usps_collection_boxes", "spider:collection_time": "2023-10-31T08:25:14.480804"}, "geometry": {"coordinates": [-96.6200452, 37.816038], "type": "Point"}, "id": "Nzbnvxjn90NatjmnmLXT_RK5-XI=", "properties": {"@spider": "usps_collection_boxes", "addr:city": "ROSALIA", "addr:country": "US", "addr:full": "616 SE ROSALIA RD", "addr:postcode": "67132", "addr:state": "KS", "amenity": "post_box", "brand": "United States Postal Service", "brand:wikidata": "Q668687", "collection_times": "Mo-Fr 09:45; Sa 09:15", "name": "USPS COLLECTION BOX - PO LOBBY", "nsi_id": "unitedstatespostalservice-a77078", "operator": "United States Postal Service", "operator:short": "USPS", "operator:type": "public", "operator:wikidata": "Q668687", "ref": "6713200003"}, "type": "Feature"}
{"dataset_attributes": {"@spider": "usps_collection_boxes", "spider:collection_time": "2023-10-31T08:25:14.480804"}, "geometry": {"coordinates": [-97.1355033, 37.563192], "type": "Point"}, "id": "kRVqys0hzcyNPxTPwFuL4rNG7_4=", "properties": {"@spider": "usps_collection_boxes", "addr:city": "ROSE HILL", "addr:country": "US", "addr:full": "401 N ROSE HILL RD", "addr:postcode": "67133", "addr:state": "KS", "amenity": "post_box", "brand": "United States Postal Service", "brand:wikidata": "Q668687", "collection_times": "Mo-Fr 16:15; Sa 10:45", "name": "USPS COLLECTION BOX - BLUE BOX", "note": "ON 12/24 AND 12/31, THIS BOX MAY BE COLLECTED AS EARLY AS 12 NOON.", "nsi_id": "unitedstatespostalservice-a77078", "operator": "United States Postal Service", "operator:short": "USPS", "operator:type": "public", "operator:wikidata": "Q668687", "ref": "6713300001"}, "type": "Feature"}
{"dataset_attributes": {"@spider": "usps_collection_boxes", "spider:collection_time": "2023-10-31T08:25:14.480804"}, "geometry": {"coordinates": [-97.1349376, 37.573715], "type": "Point"}, "id": "5iMQkxSrn_SFzWDLu40NRs_rYrg=", "properties": {"@spider": "usps_collection_boxes", "addr:city": "ROSE HILL", "addr:country": "US", "addr:full": "1060 N ROSE HILL RD", "addr:postcode": "67133", "addr:state": "KS", "amenity": "post_box", "brand": "United States Postal Service", "brand:wikidata": "Q668687", "collection_times": "Mo-Sa 13:00", "name": "USPS COLLECTION BOX - BLUE BOX", "note": "ON 12/24 AND 12/31, THIS BOX MAY BE COLLECTED AS EARLY AS 12 NOON.", "nsi_id": "unitedstatespostalservice-a77078", "operator": "United States Postal Service", "operator:short": "USPS", "operator:type": "public", "operator:wikidata": "Q668687", "ref": "6713300002"}, "type": "Feature"}
{"dataset_attributes": {"@spider": "usps_collection_boxes", "spider:collection_time": "2023-10-31T08:25:14.480804"}, "geometry": {"coordinates": [-97.135096, 37.56331], "type": "Point"}, "id": "m5Jx2F1DbfbwgkTI7NYnnmzqd1Y=", "properties": {"@spider": "usps_collection_boxes", "addr:city": "ROSE HILL", "addr:country": "US", "addr:full": "401 N ROSE HILL RD", "addr:postcode": "67133", "addr:state": "KS", "amenity": "post_box", "brand": "United States Postal Service", "brand:wikidata": "Q668687", "collection_times": "Mo-Fr 16:15; Sa 10:45", "name": "USPS COLLECTION BOX - PO LOBBY", "note": "ON 12/24 AND 12/31, THIS BOX MAY BE COLLECTED AS EARLY AS 12 NOON.", "nsi_id": "unitedstatespostalservice-a77078", "operator": "United States Postal Service", "operator:short": "USPS", "operator:type": "public", "operator:wikidata": "Q668687", "ref": "6713300004"}, "type": "Feature"}
{"dataset_attributes": {"@spider": "usps_collection_boxes", "spider:collection_time": "2023-10-31T08:25:14.480804"}, "geometry": {"coordinates": [-97.135098702, 37.563444], "type": "Point"}, "id": "19HXoeWywoszf76GN8b9-_n6LzY=", "properties": {"@spider": "usps_collection_boxes", "addr:city": "ROSE HILL", "addr:country": "US", "addr:full": "401 N ROSE HILL RD", "addr:postcode": "67133", "addr:state": "KS", "amenity": "post_box", "brand": "United States Postal Service", "brand:wikidata": "Q668687", "collection_times": "Mo-Fr 16:15; Sa 10:45", "name": "USPS COLLECTION BOX - PO LOBBY", "note": "ON 12/24 AND 12/31, THIS BOX MAY BE COLLECTED AS EARLY AS 12 NOON.", "nsi_id": "unitedstatespostalservice-a77078", "operator": "United States Postal Service", "operator:short": "USPS", "operator:type": "public", "operator:wikidata": "Q668687", "ref": "6713300005"}, "type": "Feature"}
{"dataset_attributes": {"@spider": "usps_collection_boxes", "spider:collection_time": "2023-10-31T08:25:14.480804"}, "geometry": {"coordinates": [-98.6837031, 37.4988], "type": "Point"}, "id": "6PpShm6pGhh2FY8y8kJAMr-GPXM=", "properties": {"@spider": "usps_collection_boxes", "addr:city": "SAWYER", "addr:country": "US", "addr:full": "200 S MAIN ST", "addr:postcode": "67134", "addr:state": "KS", "amenity": "post_box", "brand": "United States Postal Service", "brand:wikidata": "Q668687", "collection_times": "Mo-Fr 11:15; Sa 10:45", "name": "USPS COLLECTION BOX - BLUE BOX", "nsi_id": "unitedstatespostalservice-a77078", "operator": "United States Postal Service", "operator:short": "USPS", "operator:type": "public", "operator:wikidata": "Q668687", "ref": "6713400001"}, "type": "Feature"}
{"dataset_attributes": {"@spider": "usps_collection_boxes", "spider:collection_time": "2023-10-31T08:25:14.480804"}, "geometry": {"coordinates": [-98.683777, 37.498721], "type": "Point"}, "id": "u0pHqL-nlm1oJ_LxAOr93Ob1aHU=", "properties": {"@spider": "usps_collection_boxes", "addr:city": "SAWYER", "addr:country": "US", "addr:full": "200 S MAIN ST", "addr:postcode": "67134", "addr:state": "KS", "amenity": "post_box", "brand": "United States Postal Service", "brand:wikidata": "Q668687", "collection_times": "Mo-Fr 11:15; Sa 10:45", "name": "USPS COLLECTION BOX - PO LOBBY", "nsi_id": "unitedstatespostalservice-a77078", "operator": "United States Postal Service", "operator:short": "USPS", "operator:type": "public", "operator:wikidata": "Q668687", "ref": "6713400002"}, "type": "Feature"}
{"dataset_attributes": {"@spider": "usps_collection_boxes", "spider:collection_time": "2023-10-31T08:25:14.480804"}, "geometry": {"coordinates": [-98.683778338, 37.498716], "type": "Point"}, "id": "9bwXp3AFnGRT2a01hXXQ8RCOTEI=", "properties": {"@spider": "usps_collection_boxes", "addr:city": "SAWYER", "addr:country": "US", "addr:full": "200 S MAIN ST", "addr:postcode": "67134", "addr:state": "KS", "amenity": "post_box", "brand": "United States Postal Service", "brand:wikidata": "Q668687", "collection_times": "Mo-Fr 11:15; Sa 10:45", "name": "USPS COLLECTION BOX - PO LOBBY", "nsi_id": "unitedstatespostalservice-a77078", "operator": "United States Postal Service", "operator:short": "USPS", "operator:type": "public", "operator:wikidata": "Q668687", "ref": "6713400003"}, "type": "Feature"}
{"dataset_attributes": {"@spider": "usps_collection_boxes", "spider:collection_time": "2023-10-31T08:25:14.480804"}, "geometry": {"coordinates": [-97.4246474, 37.916723], "type": "Point"}, "id": "HrfiX1_N6pPNaP61rhjNKDDKZPE=", "properties": {"@spider": "usps_collection_boxes", "addr:city": "SEDGWICK", "addr:country": "US", "addr:full": "415 N COMMERCIAL AVE", "addr:postcode": "67135", "addr:state": "KS", "amenity": "post_box", "brand": "United States Postal Service", "brand:wikidata": "Q668687", "collection_times": "Mo-Fr 16:15; Sa 10:15", "name": "USPS COLLECTION BOX - BLUE BOX", "note": "ON 12/24 AND 12/31, THIS BOX MAY BE COLLECTED AS EARLY AS 12 NOON.", "nsi_id": "unitedstatespostalservice-a77078", "operator": "United States Postal Service", "operator:short": "USPS", "operator:type": "public", "operator:wikidata": "Q668687", "ref": "6713500001"}, "type": "Feature"}
{"dataset_attributes": {"@spider": "usps_collection_boxes", "spider:collection_time": "2023-10-31T08:25:14.480804"}, "geometry": {"coordinates": [-97.424537, 37.916651], "type": "Point"}, "id": "EMH428INYKYb0gQx0jLQ1UxWH_Q=", "properties": {"@spider": "usps_collection_boxes", "addr:city": "SEDGWICK", "addr:country": "US", "addr:full": "415 N COMMERCIAL AVE", "addr:postcode": "67135", "addr:state": "KS", "amenity": "post_box", "brand": "United States Postal Service", "brand:wikidata": "Q668687", "collection_times": "Mo-Fr 16:15; Sa 10:15", "name": "USPS COLLECTION BOX - PO LOBBY", "note": "ON 12/24 AND 12/31, THIS BOX MAY BE COLLECTED AS EARLY AS 12 NOON.", "nsi_id": "unitedstatespostalservice-a77078", "operator": "United States Postal Service", "operator:short": "USPS", "operator:type": "public", "operator:wikidata": "Q668687", "ref": "6713500002"}, "type": "Feature"}
{"dataset_attributes": {"@spider": "usps_collection_boxes", "spider:collection_time": "2023-10-31T08:25:14.480804"}, "geometry": {"coordinates": [-97.4245363188, 37.916648277], "type": "Point"}, "id": "nHZfqjQHp1AuMxjoZTMo6xwfKLQ=", "properties": {"@spider": "usps_collection_boxes", "addr:city": "SEDGWICK", "addr:country": "US", "addr:full": "415 N COMMERCIAL AVE", "addr:postcode": "67135", "addr:state": "KS", "amenity": "post_box", "brand": "United States Postal Service", "brand:wikidata": "Q668687", "collection_times": "Mo-Fr 16:15; Sa 10:15", "name": "USPS COLLECTION BOX - PO LOBBY", "note": "ON 12/24 AND 12/31, THIS BOX MAY BE COLLECTED AS EARLY AS 12 NOON.", "nsi_id": "unitedstatespostalservice-a77078", "operator": "United States Postal Service", "operator:short": "USPS", "operator:type": "public", "operator:wikidata": "Q668687", "ref": "6713500003"}, "type": "Feature"}
{"dataset_attributes": {"@spider": "usps_collection_boxes", "spider:collection_time": "2023-10-31T08:25:14.480804"}, "geometry": {"coordinates": [-96.2280644, 37.620856], "type": "Point"}, "id": "Di7uwUB7AFHdWE6gZHIzDMnny9E=", "properties": {"@spider": "usps_collection_boxes", "addr:city": "SEVERY", "addr:country": "US", "addr:full": "115 W MAIN ST", "addr:postcode": "67137", "addr:state": "KS", "amenity": "post_box", "brand": "United States Postal Service", "brand:wikidata": "Q668687", "collection_times": "Mo-Fr 11:15; Sa 08:45", "name": "USPS COLLECTION BOX - BLUE BOX", "nsi_id": "unitedstatespostalservice-a77078", "operator": "United States Postal Service", "operator:short": "USPS", "operator:type": "public", "operator:wikidata": "Q668687", "ref": "6713700001"}, "type": "Feature"}
{"dataset_attributes": {"@spider": "usps_collection_boxes", "spider:collection_time": "2023-10-31T08:25:14.480804"}, "geometry": {"coordinates": [-96.227107, 37.62097], "type": "Point"}, "id": "QR7X23MS2vH54AUdeCZ2X1dZCq4=", "properties": {"@spider": "usps_collection_boxes", "addr:city": "SEVERY", "addr:country": "US", "addr:full": "115 W MAIN ST", "addr:postcode": "67137", "addr:state": "KS", "amenity": "post_box", "brand": "United States Postal Service", "brand:wikidata": "Q668687", "collection_times": "Mo-Fr 11:15; Sa 08:45", "name": "USPS COLLECTION BOX - PO LOBBY", "nsi_id": "unitedstatespostalservice-a77078", "operator": "United States Postal Service", "operator:short": "USPS", "operator:type": "public", "operator:wikidata": "Q668687", "ref": "6713700002"}, "type": "Feature"}
{"dataset_attributes": {"@spider": "usps_collection_boxes", "spider:collection_time": "2023-10-31T08:25:14.480804"}, "geometry": {"coordinates": [-96.227082412, 37.62091457], "type": "Point"}, "id": "C_YGMjrMdg4hmsGA6U1gMaDP-Uw=", "properties": {"@spider": "usps_collection_boxes", "addr:city": "SEVERY", "addr:country": "US", "addr:full": "115 W MAIN ST", "addr:postcode": "67137", "addr:state": "KS", "amenity": "post_box", "brand": "United States Postal Service", "brand:wikidata": "Q668687", "collection_times": "Mo-Fr 11:15; Sa 08:45", "name": "USPS COLLECTION BOX - PO LOBBY", "nsi_id": "unitedstatespostalservice-a77078", "operator": "United States Postal Service", "operator:short": "USPS", "operator:type": "public", "operator:wikidata": "Q668687", "ref": "6713700004"}, "type": "Feature"}
{"dataset_attributes": {"@spider": "usps_collection_boxes", "spider:collection_time": "2023-10-31T08:25:14.480804"}, "geometry": {"coordinates": [-98.4201129, 37.247773], "type": "Point"}, "id": "n6HElaXOMyTQCNWHSgP9auWIw_c=", "properties": {"@spider": "usps_collection_boxes", "addr:city": "SHARON", "addr:country": "US", "addr:full": "108 S BROADWAY ST", "addr:postcode": "67138", "addr:state": "KS", "amenity": "post_box", "brand": "United States Postal Service", "brand:wikidata": "Q668687", "collection_times": "Mo-Fr 11:45; Sa 09:15", "name": "USPS COLLECTION BOX - BLUE BOX", "nsi_id": "unitedstatespostalservice-a77078", "operator": "United States Postal Service", "operator:short": "USPS", "operator:type": "public", "operator:wikidata": "Q668687", "ref": "6713800001"}, "type": "Feature"}
{"dataset_attributes": {"@spider": "usps_collection_boxes", "spider:collection_time": "2023-10-31T08:25:14.480804"}, "geometry": {"coordinates": [-98.420207, 37.24781], "type": "Point"}, "id": "s_qLaYbo5-727jrFAehp2-6ZNtE=", "properties": {"@spider": "usps_collection_boxes", "addr:city": "SHARON", "addr:country": "US", "addr:full": "108 S BROADWAY ST", "addr:postcode": "67138", "addr:state": "KS", "amenity": "post_box", "brand": "United States Postal Service", "brand:wikidata": "Q668687", "collection_times": "Mo-Fr 11:45; Sa 09:15", "name": "USPS COLLECTION BOX - PO LOBBY", "nsi_id": "unitedstatespostalservice-a77078", "operator": "United States Postal Service", "operator:short": "USPS", "operator:type": "public", "operator:wikidata": "Q668687", "ref": "6713800002"}, "type": "Feature"}
{"dataset_attributes": {"@spider": "usps_collection_boxes", "spider:collection_time": "2023-10-31T08:25:14.480804"}, "geometry": {"coordinates": [-98.420207016, 37.247804361], "type": "Point"}, "id": "9fRSdG8eNJ5fkw_kGuiuShWeuhU=", "properties": {"@spider": "usps_collection_boxes", "addr:city": "SHARON", "addr:country": "US", "addr:full": "108 S BROADWAY ST", "addr:postcode": "67138", "addr:state": "KS", "amenity": "post_box", "brand": "United States Postal Service", "brand:wikidata": "Q668687", "collection_times": "Mo-Fr 11:45; Sa 09:15", "name": "USPS COLLECTION BOX - PO LOBBY", "nsi_id": "unitedstatespostalservice-a77078", "operator": "United States Postal Service", "operator:short": "USPS", "operator:type": "public", "operator:wikidata": "Q668687", "ref": "6713800003"}, "type": "Feature"}
{"dataset_attributes": {"@spider": "usps_collection_boxes", "spider:collection_time": "2023-10-31T08:25:14.480804"}, "geometry": {"coordinates": [-97.4010603, 37.050195], "type": "Point"}, "id": "yYnKLXWAHTJqZqif_T7kbHovt-Y=", "properties": {"@spider": "usps_collection_boxes", "addr:city": "SOUTH HAVEN", "addr:country": "US", "addr:full": "114 N MAIN ST", "addr:postcode": "67140", "addr:state": "KS", "amenity": "post_box", "brand": "United States Postal Service", "brand:wikidata": "Q668687", "collection_times": "Mo-Fr 12:30; Sa 09:15", "name": "USPS COLLECTION BOX - BLUE BOX", "note": "ON 12/24 AND 12/31, THIS BOX MAY BE COLLECTED AS EARLY AS 12 NOON.", "nsi_id": "unitedstatespostalservice-a77078", "operator": "United States Postal Service", "operator:short": "USPS", "operator:type": "public", "operator:wikidata": "Q668687", "ref": "6714000001"}, "type": "Feature"}
{"dataset_attributes": {"@spider": "usps_collection_boxes", "spider:collection_time": "2023-10-31T08:25:14.480804"}, "geometry": {"coordinates": [-97.401157, 37.05021], "type": "Point"}, "id": "MdQOCQE2LT4MI0zm18p0XQgkb68=", "properties": {"@spider": "usps_collection_boxes", "addr:city": "SOUTH HAVEN", "addr:country": "US", "addr:full": "114 N MAIN ST", "addr:postcode": "67140", "addr:state": "KS", "amenity": "post_box", "brand": "United States Postal Service", "brand:wikidata": "Q668687", "collection_times": "Mo-Fr 12:30; Sa 09:15", "name": "USPS COLLECTION BOX - PO LOBBY", "note": "ON 12/24 AND 12/31, THIS BOX MAY BE COLLECTED AS EARLY AS 12 NOON.", "nsi_id": "unitedstatespostalservice-a77078", "operator": "United States Postal Service", "operator:short": "USPS", "operator:type": "public", "operator:wikidata": "Q668687", "ref": "6714000003"}, "type": "Feature"}
{"dataset_attributes": {"@spider": "usps_collection_boxes", "spider:collection_time": "2023-10-31T08:25:14.480804"}, "geometry": {"coordinates": [-97.401155619, 37.050209696], "type": "Point"}, "id": "Gh9YjFP4MVoSMxTxKDJ_2yrheF4=", "properties": {"@spider": "usps_collection_boxes", "addr:city": "SOUTH HAVEN", "addr:country": "US", "addr:full": "114 N MAIN ST", "addr:postcode": "67140", "addr:state": "KS", "amenity": "post_box", "brand": "United States Postal Service", "brand:wikidata": "Q668687", "collection_times": "Mo-Fr 12:30; Sa 09:15", "name": "USPS COLLECTION BOX - PO LOBBY", "note": "ON 12/24 AND 12/31, THIS BOX MAY BE COLLECTED AS EARLY AS 12 NOON.", "nsi_id": "unitedstatespostalservice-a77078", "operator": "United States Postal Service", "operator:short": "USPS", "operator:type": "public", "operator:wikidata": "Q668687", "ref": "6714000004"}, "type": "Feature"}
{"dataset_attributes": {"@spider": "usps_collection_boxes", "spider:collection_time": "2023-10-31T08:25:14.480804"}, "geometry": {"coordinates": [-98.1642906, 37.445558], "type": "Point"}, "id": "VP8I23xaBQ1p-tfVrpXh5r-ULNE=", "properties": {"@spider": "usps_collection_boxes", "addr:city": "SPIVEY", "addr:country": "US", "addr:full": "125 W STANLEY ST", "addr:postcode": "67142", "addr:state": "KS", "amenity": "post_box", "brand": "United States Postal Service", "brand:wikidata": "Q668687", "collection_times": "Mo-Fr 11:00; Sa 08:45", "name": "USPS COLLECTION BOX - BLUE BOX", "nsi_id": "unitedstatespostalservice-a77078", "operator": "United States Postal Service", "operator:short": "USPS", "operator:type": "public", "operator:wikidata": "Q668687", "ref": "6714200001"}, "type": "Feature"}
{"dataset_attributes": {"@spider": "usps_collection_boxes", "spider:collection_time": "2023-10-31T08:25:14.480804"}, "geometry": {"coordinates": [-98.163791, 37.445663], "type": "Point"}, "id": "2jbtbZ3Ohi8YpCdJF1VGULm3yQc=", "properties": {"@spider": "usps_collection_boxes", "addr:city": "SPIVEY", "addr:country": "US", "addr:full": "125 W STANLEY ST", "addr:postcode": "67142", "addr:state": "KS", "amenity": "post_box", "brand": "United States Postal Service", "brand:wikidata": "Q668687", "collection_times": "Mo-Fr 11:00; Sa 08:45", "name": "USPS COLLECTION BOX - PO LOBBY", "nsi_id": "unitedstatespostalservice-a77078", "operator": "United States Postal Service", "operator:short": "USPS", "operator:type": "public", "operator:wikidata": "Q668687", "ref": "6714200002"}, "type": "Feature"}
{"dataset_attributes": {"@spider": "usps_collection_boxes", "spider:collection_time": "2023-10-31T08:25:14.480804"}, "geometry": {"coordinates": [-98.1637614476, 37.4456133496], "type": "Point"}, "id": "4pmAtMuzwtiGmKkndX-kT50RB0s=", "properties": {"@spider": "usps_collection_boxes", "addr:city": "SPIVEY", "addr:country": "US", "addr:full": "125 W STANLEY ST", "addr:postcode": "67142", "addr:state": "KS", "amenity": "post_box", "brand": "United States Postal Service", "brand:wikidata": "Q668687", "collection_times": "Mo-Fr 11:00; Sa 08:45", "name": "USPS COLLECTION BOX - PO LOBBY", "nsi_id": "unitedstatespostalservice-a77078", "operator": "United States Postal Service", "operator:short": "USPS", "operator:type": "public", "operator:wikidata": "Q668687", "ref": "6714200003"}, "type": "Feature"}
{"dataset_attributes": {"@spider": "usps_collection_boxes", "spider:collection_time": "2023-10-31T08:25:14.480804"}, "geometry": {"coordinates": [-98.916516282, 37.380221399], "type": "Point"}, "id": "aDQx4lfKpY9_UevODzIjPut4mhs=", "properties": {"@spider": "usps_collection_boxes", "addr:city": "SUN CITY", "addr:country": "US", "addr:full": "102 E WALNUT ST", "addr:postcode": "67143", "addr:state": "KS", "amenity": "post_box", "brand": "United States Postal Service", "brand:wikidata": "Q668687", "collection_times": "Mo-Fr 10:15; Sa 10:00", "name": "USPS COLLECTION BOX - BLUE BOX", "nsi_id": "unitedstatespostalservice-a77078", "operator": "United States Postal Service", "operator:short": "USPS", "operator:type": "public", "operator:wikidata": "Q668687", "ref": "6714300001"}, "type": "Feature"}
{"dataset_attributes": {"@spider": "usps_collection_boxes", "spider:collection_time": "2023-10-31T08:25:14.480804"}, "geometry": {"coordinates": [-98.916516282, 37.380221399], "type": "Point"}, "id": "se-g1yjKr72Wfk4D1V53fnr-18A=", "properties": {"@spider": "usps_collection_boxes", "addr:city": "SUN CITY", "addr:country": "US", "addr:full": "102 E WALNUT ST", "addr:postcode": "67143", "addr:state": "KS", "amenity": "post_box", "brand": "United States Postal Service", "brand:wikidata": "Q668687", "collection_times": "Mo-Fr 10:15; Sa 10:00", "name": "USPS COLLECTION BOX - PO LOBBY", "nsi_id": "unitedstatespostalservice-a77078", "operator": "United States Postal Service", "operator:short": "USPS", "operator:type": "public", "operator:wikidata": "Q668687", "ref": "6714300003"}, "type": "Feature"}
{"dataset_attributes": {"@spider": "usps_collection_boxes", "spider:collection_time": "2023-10-31T08:25:14.480804"}, "geometry": {"coordinates": [-97.0005757, 37.796153], "type": "Point"}, "id": "p7J894GK298eZp7g8em9bnmQYaE=", "properties": {"@spider": "usps_collection_boxes", "addr:city": "TOWANDA", "addr:country": "US", "addr:full": "550 MAIN ST", "addr:postcode": "67144", "addr:state": "KS", "amenity": "post_box", "brand": "United States Postal Service", "brand:wikidata": "Q668687", "collection_times": "Mo-Fr 15:15; Sa 09:45", "name": "USPS COLLECTION BOX - BLUE BOX", "note": "ON 12/24 AND 12/31, THIS BOX MAY BE COLLECTED AS EARLY AS 12 NOON.", "nsi_id": "unitedstatespostalservice-a77078", "operator": "United States Postal Service", "operator:short": "USPS", "operator:type": "public", "operator:wikidata": "Q668687", "ref": "6714400001"}, "type": "Feature"}
{"dataset_attributes": {"@spider": "usps_collection_boxes", "spider:collection_time": "2023-10-31T08:25:14.480804"}, "geometry": {"coordinates": [-97.001039, 37.795943], "type": "Point"}, "id": "SgCFKONY4UPSmFc0OsYh47xXaCM=", "properties": {"@spider": "usps_collection_boxes", "addr:city": "TOWANDA", "addr:country": "US", "addr:full": "550 MAIN ST", "addr:postcode": "67144", "addr:state": "KS", "amenity": "post_box", "brand": "United States Postal Service", "brand:wikidata": "Q668687", "collection_times": "Mo-Fr 15:15; Sa 09:45", "name": "USPS COLLECTION BOX - PO LOBBY", "note": "ON 12/24 AND 12/31, THIS BOX MAY BE COLLECTED AS EARLY AS 12 NOON.", "nsi_id": "unitedstatespostalservice-a77078", "operator": "United States Postal Service", "operator:short": "USPS", "operator:type": "public", "operator:wikidata": "Q668687", "ref": "6714400002"}, "type": "Feature"}
{"dataset_attributes": {"@spider": "usps_collection_boxes", "spider:collection_time": "2023-10-31T08:25:14.480804"}, "geometry": {"coordinates": [-97.000812, 37.7959394977], "type": "Point"}, "id": "h3qmwg1aGD-G0eW8NbAdDQIrjBU=", "properties": {"@spider": "usps_collection_boxes", "addr:city": "TOWANDA", "addr:country": "US", "addr:full": "550 MAIN ST", "addr:postcode": "67144", "addr:state": "KS", "amenity": "post_box", "brand": "United States Postal Service", "brand:wikidata": "Q668687", "collection_times": "Mo-Fr 15:15; Sa 09:45", "name": "USPS COLLECTION BOX - PO LOBBY", "note": "ON 12/24 AND 12/31, THIS BOX MAY BE COLLECTED AS EARLY AS 12 NOON.", "nsi_id": "unitedstatespostalservice-a77078", "operator": "United States Postal Service", "operator:short": "USPS", "operator:type": "public", "operator:wikidata": "Q668687", "ref": "6714400003"}, "type": "Feature"}
{"dataset_attributes": {"@spider": "usps_collection_boxes", "spider:collection_time": "2023-10-31T08:25:14.480804"}, "geometry": {"coordinates": [-97.1151020178, 37.3833040043], "type": "Point"}, "id": "TR_5ZIt_U675-D_YxEzblDomNUQ=", "properties": {"@spider": "usps_collection_boxes", "addr:city": "UDALL", "addr:country": "US", "addr:full": "507 S CLARK ST", "addr:postcode": "67146", "addr:state": "KS", "amenity": "post_box", "brand": "United States Postal Service", "brand:wikidata": "Q668687", "collection_times": "Mo-Fr 14:15; Sa 09:15", "name": "USPS COLLECTION BOX - BLUE BOX", "note": "ON 12/24 AND 12/31, THIS BOX MAY BE COLLECTED AS EARLY AS 12 NOON.", "nsi_id": "unitedstatespostalservice-a77078", "operator": "United States Postal Service", "operator:short": "USPS", "operator:type": "public", "operator:wikidata": "Q668687", "ref": "6714600001"}, "type": "Feature"}
{"dataset_attributes": {"@spider": "usps_collection_boxes", "spider:collection_time": "2023-10-31T08:25:14.480804"}, "geometry": {"coordinates": [-97.114826097, 37.383165], "type": "Point"}, "id": "yt8TnrzS5jKk2kCTTYF2hxNd_n0=", "properties": {"@spider": "usps_collection_boxes", "addr:city": "UDALL", "addr:country": "US", "addr:full": "507 S CLARK ST", "addr:postcode": "67146", "addr:state": "KS", "amenity": "post_box", "brand": "United States Postal Service", "brand:wikidata": "Q668687", "collection_times": "Mo-Fr 14:15; Sa 09:15", "name": "USPS COLLECTION BOX - PO LOBBY", "note": "ON 12/24 AND 12/31, THIS BOX MAY BE COLLECTED AS EARLY AS 12 NOON.", "nsi_id": "unitedstatespostalservice-a77078", "operator": "United States Postal Service", "operator:short": "USPS", "operator:type": "public", "operator:wikidata": "Q668687", "ref": "6714600004"}, "type": "Feature"}
{"dataset_attributes": {"@spider": "usps_collection_boxes", "spider:collection_time": "2023-10-31T08:25:14.480804"}, "geometry": {"coordinates": [-97.114826097, 37.383165], "type": "Point"}, "id": "m6GjjBWinA99IlE-KS7kor2mI6U=", "properties": {"@spider": "usps_collection_boxes", "addr:city": "UDALL", "addr:country": "US", "addr:full": "507 S CLARK ST", "addr:postcode": "67146", "addr:state": "KS", "amenity": "post_box", "brand": "United States Postal Service", "brand:wikidata": "Q668687", "collection_times": "Mo-Fr 14:15; Sa 09:15", "name": "USPS COLLECTION BOX - PO LOBBY", "note": "ON 12/24 AND 12/31, THIS BOX MAY BE COLLECTED AS EARLY AS 12 NOON.", "nsi_id": "unitedstatespostalservice-a77078", "operator": "United States Postal Service", "operator:short": "USPS", "operator:type": "public", "operator:wikidata": "Q668687", "ref": "6714600005"}, "type": "Feature"}
{"dataset_attributes": {"@spider": "usps_collection_boxes", "spider:collection_time": "2023-10-31T08:25:14.480804"}, "geometry": {"coordinates": [-97.3704889, 37.831995], "type": "Point"}, "id": "gmhp63EpOVaNFJNFypzlHtmgaA4=", "properties": {"@spider": "usps_collection_boxes", "addr:city": "VALLEY CENTER", "addr:country": "US", "addr:full": "205 E MAIN ST", "addr:postcode": "67147", "addr:state": "KS", "amenity": "post_box", "brand": "United States Postal Service", "brand:wikidata": "Q668687", "collection_times": "Mo-Fr 16:45; Sa 10:45", "name": "USPS COLLECTION BOX - BLUE BOX", "note": "ON 12/24 AND 12/31, THIS BOX MAY BE COLLECTED AS EARLY AS 12 NOON.", "nsi_id": "unitedstatespostalservice-a77078", "operator": "United States Postal Service", "operator:short": "USPS", "operator:type": "public", "operator:wikidata": "Q668687", "ref": "6714700001"}, "type": "Feature"}
{"dataset_attributes": {"@spider": "usps_collection_boxes", "spider:collection_time": "2023-10-31T08:25:14.480804"}, "geometry": {"coordinates": [-97.370193, 37.832293], "type": "Point"}, "id": "Xfi1aZSJnNSBzYCVyqXCDmk-4nI=", "properties": {"@spider": "usps_collection_boxes", "addr:city": "VALLEY CENTER", "addr:country": "US", "addr:full": "205 E MAIN ST", "addr:postcode": "67147", "addr:state": "KS", "amenity": "post_box", "brand": "United States Postal Service", "brand:wikidata": "Q668687", "collection_times": "Mo-Fr 16:45; Sa 10:45", "name": "USPS COLLECTION BOX - PO LOBBY", "note": "ON 12/24 AND 12/31, THIS BOX MAY BE COLLECTED AS EARLY AS 12 NOON.", "nsi_id": "unitedstatespostalservice-a77078", "operator": "United States Postal Service", "operator:short": "USPS", "operator:type": "public", "operator:wikidata": "Q668687", "ref": "6714700010"}, "type": "Feature"}
{"dataset_attributes": {"@spider": "usps_collection_boxes", "spider:collection_time": "2023-10-31T08:25:14.480804"}, "geometry": {"coordinates": [-97.371995702, 37.827405], "type": "Point"}, "id": "IaBtnYNrkreQ918OBPKvWJ4xAuw=", "properties": {"@spider": "usps_collection_boxes", "addr:city": "VALLEY CENTER", "addr:country": "US", "addr:full": "506 S MERIDIAN AVE", "addr:postcode": "67147", "addr:state": "KS", "amenity": "post_box", "brand": "United States Postal Service", "brand:wikidata": "Q668687", "collection_times": "Mo-Sa 12:00", "name": "USPS COLLECTION BOX - BLUE BOX", "nsi_id": "unitedstatespostalservice-a77078", "operator": "United States Postal Service", "operator:short": "USPS", "operator:type": "public", "operator:wikidata": "Q668687", "ref": "6714700011"}, "type": "Feature"}
{"dataset_attributes": {"@spider": "usps_collection_boxes", "spider:collection_time": "2023-10-31T08:25:14.480804"}, "geometry": {"coordinates": [-97.370193641, 37.832292547], "type": "Point"}, "id": "iKtyeHk5Z-LRVXy-MqBDQ46m_-0=", "properties": {"@spider": "usps_collection_boxes", "addr:city": "VALLEY CENTER", "addr:country": "US", "addr:full": "205 E MAIN ST", "addr:postcode": "67147", "addr:state": "KS", "amenity": "post_box", "brand": "United States Postal Service", "brand:wikidata": "Q668687", "collection_times": "Mo-Fr 14:45; Sa 10:45", "name": "USPS COLLECTION BOX - PO LOBBY", "note": "ON 12/24 AND 12/31, THIS BOX MAY BE COLLECTED AS EARLY AS 12 NOON.", "nsi_id": "unitedstatespostalservice-a77078", "operator": "United States Postal Service", "operator:short": "USPS", "operator:type": "public", "operator:wikidata": "Q668687", "ref": "6714700012"}, "type": "Feature"}
{"dataset_attributes": {"@spider": "usps_collection_boxes", "spider:collection_time": "2023-10-31T08:25:14.480804"}, "geometry": {"coordinates": [-97.6443493, 37.480591], "type": "Point"}, "id": "q1HUcxztjfMth6BAcGSC5nYSu1U=", "properties": {"@spider": "usps_collection_boxes", "addr:city": "VIOLA", "addr:country": "US", "addr:full": "205 S MAIN ST", "addr:postcode": "67149", "addr:state": "KS", "amenity": "post_box", "brand": "United States Postal Service", "brand:wikidata": "Q668687", "collection_times": "Mo-Fr 11:45; Sa 09:15", "name": "USPS COLLECTION BOX - BLUE BOX", "nsi_id": "unitedstatespostalservice-a77078", "operator": "United States Postal Service", "operator:short": "USPS", "operator:type": "public", "operator:wikidata": "Q668687", "ref": "6714900001"}, "type": "Feature"}
{"dataset_attributes": {"@spider": "usps_collection_boxes", "spider:collection_time": "2023-10-31T08:25:14.480804"}, "geometry": {"coordinates": [-97.644255, 37.48062], "type": "Point"}, "id": "90IEp7hV3uIt_jh3SiOI-cAmPJE=", "properties": {"@spider": "usps_collection_boxes", "addr:city": "VIOLA", "addr:country": "US", "addr:full": "205 S MAIN ST", "addr:postcode": "67149", "addr:state": "KS", "amenity": "post_box", "brand": "United States Postal Service", "brand:wikidata": "Q668687", "collection_times": "Mo-Fr 11:45; Sa 09:15", "name": "USPS COLLECTION BOX - PO LOBBY", "nsi_id": "unitedstatespostalservice-a77078", "operator": "United States Postal Service", "operator:short": "USPS", "operator:type": "public", "operator:wikidata": "Q668687", "ref": "6714900002"}, "type": "Feature"}
{"dataset_attributes": {"@spider": "usps_collection_boxes", "spider:collection_time": "2023-10-31T08:25:14.480804"}, "geometry": {"coordinates": [-97.6442551, 37.480611227], "type": "Point"}, "id": "pEy04w_MhX-uCrJ7_6bJfcVpvbU=", "properties": {"@spider": "usps_collection_boxes", "addr:city": "VIOLA", "addr:country": "US", "addr:full": "205 S MAIN ST", "addr:postcode": "67149", "addr:state": "KS", "amenity": "post_box", "brand": "United States Postal Service", "brand:wikidata": "Q668687", "collection_times": "Mo-Fr 11:45; Sa 09:15", "name": "USPS COLLECTION BOX - PO LOBBY", "nsi_id": "unitedstatespostalservice-a77078", "operator": "United States Postal Service", "operator:short": "USPS", "operator:type": "public", "operator:wikidata": "Q668687", "ref": "6714900003"}, "type": "Feature"}
{"dataset_attributes": {"@spider": "usps_collection_boxes", "spider:collection_time": "2023-10-31T08:25:14.480804"}, "geometry": {"coordinates": [-97.2583238, 38.116206], "type": "Point"}, "id": "D1_px9d43bzaLAukajluL9bD1_A=", "properties": {"@spider": "usps_collection_boxes", "addr:city": "WALTON", "addr:country": "US", "addr:full": "301 S 2ND AVE", "addr:postcode": "67151", "addr:state": "KS", "amenity": "post_box", "brand": "United States Postal Service", "brand:wikidata": "Q668687", "collection_times": "Mo-Fr 16:00; Sa 13:45", "name": "USPS COLLECTION BOX - BLUE BOX", "note": "ON 12/24 AND 12/31, THIS BOX MAY BE COLLECTED AS EARLY AS 12 NOON.", "nsi_id": "unitedstatespostalservice-a77078", "operator": "United States Postal Service", "operator:short": "USPS", "operator:type": "public", "operator:wikidata": "Q668687", "ref": "6715100001"}, "type": "Feature"}
{"dataset_attributes": {"@spider": "usps_collection_boxes", "spider:collection_time": "2023-10-31T08:25:14.480804"}, "geometry": {"coordinates": [-97.25806, 38.116461], "type": "Point"}, "id": "EZ3NB02XpxXUC_OJlajYmyBWgPU=", "properties": {"@spider": "usps_collection_boxes", "addr:city": "WALTON", "addr:country": "US", "addr:full": "301 S 2ND AVE", "addr:postcode": "67151", "addr:state": "KS", "amenity": "post_box", "brand": "United States Postal Service", "brand:wikidata": "Q668687", "collection_times": "Mo-Fr 16:00; Sa 13:45", "name": "USPS COLLECTION BOX - PO LOBBY", "note": "ON 12/24 AND 12/31, THIS BOX MAY BE COLLECTED AS EARLY AS 12 NOON.", "nsi_id": "unitedstatespostalservice-a77078", "operator": "United States Postal Service", "operator:short": "USPS", "operator:type": "public", "operator:wikidata": "Q668687", "ref": "6715100002"}, "type": "Feature"}
{"dataset_attributes": {"@spider": "usps_collection_boxes", "spider:collection_time": "2023-10-31T08:25:14.480804"}, "geometry": {"coordinates": [-97.258089397, 38.116451581], "type": "Point"}, "id": "AAk0QMdIiMltD8986ieDkmon6Eo=", "properties": {"@spider": "usps_collection_boxes", "addr:city": "WALTON", "addr:country": "US", "addr:full": "301 S 2ND AVE", "addr:postcode": "67151", "addr:state": "KS", "amenity": "post_box", "brand": "United States Postal Service", "brand:wikidata": "Q668687", "collection_times": "Mo-Fr 16:00; Sa 13:45", "name": "USPS COLLECTION BOX - PO LOBBY", "note": "ON 12/24 AND 12/31, THIS BOX MAY BE COLLECTED AS EARLY AS 12 NOON.", "nsi_id": "unitedstatespostalservice-a77078", "operator": "United States Postal Service", "operator:short": "USPS", "operator:type": "public", "operator:wikidata": "Q668687", "ref": "6715100003"}, "type": "Feature"}
{"dataset_attributes": {"@spider": "usps_collection_boxes", "spider:collection_time": "2023-10-31T08:25:14.480804"}, "geometry": {"coordinates": [-97.3975492, 37.270069], "type": "Point"}, "id": "bPXQ8yU_bNowLv9Y02pOfeSfb6A=", "properties": {"@spider": "usps_collection_boxes", "addr:city": "WELLINGTON", "addr:country": "US", "addr:full": "501 N WASHINGTON AVE", "addr:postcode": "67152", "addr:state": "KS", "amenity": "post_box", "brand": "United States Postal Service", "brand:wikidata": "Q668687", "collection_times": "Mo-Fr 15:00", "name": "USPS COLLECTION BOX - BLUE BOX", "note": "ON 12/24 AND 12/31, THIS BOX MAY BE COLLECTED AS EARLY AS 12 NOON.", "nsi_id": "unitedstatespostalservice-a77078", "operator": "United States Postal Service", "operator:short": "USPS", "operator:type": "public", "operator:wikidata": "Q668687", "ref": "6715200001"}, "type": "Feature"}
{"dataset_attributes": {"@spider": "usps_collection_boxes", "spider:collection_time": "2023-10-31T08:25:14.480804"}, "geometry": {"coordinates": [-97.4006066, 37.266276], "type": "Point"}, "id": "WpP8zOGrY_5xaFXUOl3BDDAE4Es=", "properties": {"@spider": "usps_collection_boxes", "addr:city": "WELLINGTON", "addr:country": "US", "addr:full": "221 W HARVEY AVE", "addr:postcode": "67152", "addr:state": "KS", "amenity": "post_box", "brand": "United States Postal Service", "brand:wikidata": "Q668687", "collection_times": "Mo-Fr 16:15; Sa 10:30", "name": "USPS COLLECTION BOX - BLUE BOX", "note": "ON 12/24 AND 12/31, THIS BOX MAY BE COLLECTED AS EARLY AS 12 NOON.", "nsi_id": "unitedstatespostalservice-a77078", "operator": "United States Postal Service", "operator:short": "USPS", "operator:type": "public", "operator:wikidata": "Q668687", "ref": "6715200006"}, "type": "Feature"}
{"dataset_attributes": {"@spider": "usps_collection_boxes", "spider:collection_time": "2023-10-31T08:25:14.480804"}, "geometry": {"coordinates": [-97.4114709, 37.268059], "type": "Point"}, "id": "A2dZ9xMgI6K-yilxPnxMl4h5g-8=", "properties": {"@spider": "usps_collection_boxes", "addr:city": "WELLINGTON", "addr:country": "US", "addr:full": "1111 W 8TH ST", "addr:postcode": "67152", "addr:state": "KS", "amenity": "post_box", "brand": "United States Postal Service", "brand:wikidata": "Q668687", "collection_times": "Mo-Sa 12:00", "name": "USPS COLLECTION BOX - BLUE BOX", "nsi_id": "unitedstatespostalservice-a77078", "operator": "United States Postal Service", "operator:short": "USPS", "operator:type": "public", "operator:wikidata": "Q668687", "ref": "6715200008"}, "type": "Feature"}
{"dataset_attributes": {"@spider": "usps_collection_boxes", "spider:collection_time": "2023-10-31T08:25:14.480804"}, "geometry": {"coordinates": [-97.399872, 37.265746], "type": "Point"}, "id": "7wr5TrZMeDfibGtrJLFL1mGVcMs=", "properties": {"@spider": "usps_collection_boxes", "addr:city": "WELLINGTON", "addr:country": "US", "addr:full": "221 W HARVEY AVE", "addr:postcode": "67152", "addr:state": "KS", "amenity": "post_box", "brand": "United States Postal Service", "brand:wikidata": "Q668687", "collection_times": "Mo-Fr 16:15; Sa 15:30", "name": "USPS COLLECTION BOX - PO LOBBY", "note": "ON 12/24 AND 12/31, THIS BOX MAY BE COLLECTED AS EARLY AS 12 NOON.", "nsi_id": "unitedstatespostalservice-a77078", "operator": "United States Postal Service", "operator:short": "USPS", "operator:type": "public", "operator:wikidata": "Q668687", "ref": "6715200012"}, "type": "Feature"}
{"dataset_attributes": {"@spider": "usps_collection_boxes", "spider:collection_time": "2023-10-31T08:25:14.480804"}, "geometry": {"coordinates": [-97.4002308893, 37.2657324938], "type": "Point"}, "id": "4mpHN08hvz8GVs3vHR1avPApxII=", "properties": {"@spider": "usps_collection_boxes", "addr:city": "WELLINGTON", "addr:country": "US", "addr:full": "221 W HARVEY AVE", "addr:postcode": "67152", "addr:state": "KS", "amenity": "post_box", "brand": "United States Postal Service", "brand:wikidata": "Q668687", "collection_times": "Mo-Fr 16:15", "name": "USPS COLLECTION BOX - PO LOBBY", "note": "ON 12/24 AND 12/31, THIS BOX MAY BE COLLECTED AS EARLY AS 12 NOON.", "nsi_id": "unitedstatespostalservice-a77078", "operator": "United States Postal Service", "operator:short": "USPS", "operator:type": "public", "operator:wikidata": "Q668687", "ref": "6715200015"}, "type": "Feature"}
{"dataset_attributes": {"@spider": "usps_collection_boxes", "spider:collection_time": "2023-10-31T08:25:14.480804"}, "geometry": {"coordinates": [-97.1495887, 37.963168], "type": "Point"}, "id": "Kf57l8TZS_AuW_HUKNPSIdnXrFY=", "properties": {"@spider": "usps_collection_boxes", "addr:city": "WHITEWATER", "addr:country": "US", "addr:full": "117 S MAIN ST", "addr:postcode": "67154", "addr:state": "KS", "amenity": "post_box", "brand": "United States Postal Service", "brand:wikidata": "Q668687", "collection_times": "Mo-Fr 13:45; Sa 09:45", "name": "USPS COLLECTION BOX - BLUE BOX", "note": "ON 12/24 AND 12/31, THIS BOX MAY BE COLLECTED AS EARLY AS 12 NOON.", "nsi_id": "unitedstatespostalservice-a77078", "operator": "United States Postal Service", "operator:short": "USPS", "operator:type": "public", "operator:wikidata": "Q668687", "ref": "6715400001"}, "type": "Feature"}
{"dataset_attributes": {"@spider": "usps_collection_boxes", "spider:collection_time": "2023-10-31T08:25:14.480804"}, "geometry": {"coordinates": [-97.1497507, 37.963142], "type": "Point"}, "id": "MX-tlBkq4pwMwXRFqSrQ2tah0-s=", "properties": {"@spider": "usps_collection_boxes", "addr:city": "WHITEWATER", "addr:country": "US", "addr:full": "117 S MAIN ST", "addr:postcode": "67154", "addr:state": "KS", "amenity": "post_box", "brand": "United States Postal Service", "brand:wikidata": "Q668687", "collection_times": "Mo-Fr 13:45; Sa 09:45", "name": "USPS COLLECTION BOX - PO LOBBY", "note": "ON 12/24 AND 12/31, THIS BOX MAY BE COLLECTED AS EARLY AS 12 NOON.", "nsi_id": "unitedstatespostalservice-a77078", "operator": "United States Postal Service", "operator:short": "USPS", "operator:type": "public", "operator:wikidata": "Q668687", "ref": "6715400002"}, "type": "Feature"}
{"dataset_attributes": {"@spider": "usps_collection_boxes", "spider:collection_time": "2023-10-31T08:25:14.480804"}, "geometry": {"coordinates": [-97.1494973771, 37.9631157485], "type": "Point"}, "id": "z3VofFtMj9K8qFkh8HVT0VBEKF4=", "properties": {"@spider": "usps_collection_boxes", "addr:city": "WHITEWATER", "addr:country": "US", "addr:full": "117 S MAIN ST", "addr:postcode": "67154", "addr:state": "KS", "amenity": "post_box", "brand": "United States Postal Service", "brand:wikidata": "Q668687", "collection_times": "Mo-Fr 13:45; Sa 09:45", "name": "USPS COLLECTION BOX - PO LOBBY", "note": "ON 12/24 AND 12/31, THIS BOX MAY BE COLLECTED AS EARLY AS 12 NOON.", "nsi_id": "unitedstatespostalservice-a77078", "operator": "United States Postal Service", "operator:short": "USPS", "operator:type": "public", "operator:wikidata": "Q668687", "ref": "6715400003"}, "type": "Feature"}
{"dataset_attributes": {"@spider": "usps_collection_boxes", "spider:collection_time": "2023-10-31T08:25:14.480804"}, "geometry": {"coordinates": [-99.2092488, 37.334687], "type": "Point"}, "id": "-W4Wh54XmmYh8pdQYOswpTF87ZU=", "properties": {"@spider": "usps_collection_boxes", "addr:city": "WILMORE", "addr:country": "US", "addr:full": "102 S MAIN ST", "addr:postcode": "67155", "addr:state": "KS", "amenity": "post_box", "brand": "United States Postal Service", "brand:wikidata": "Q668687", "collection_times": "Mo-Fr 09:45; Sa 08:45", "name": "USPS COLLECTION BOX - BLUE BOX", "nsi_id": "unitedstatespostalservice-a77078", "operator": "United States Postal Service", "operator:short": "USPS", "operator:type": "public", "operator:wikidata": "Q668687", "ref": "6715500001"}, "type": "Feature"}
{"dataset_attributes": {"@spider": "usps_collection_boxes", "spider:collection_time": "2023-10-31T08:25:14.480804"}, "geometry": {"coordinates": [-99.209215, 37.334806], "type": "Point"}, "id": "k2416oEjnNcxW-NMr4tAaswKA_8=", "properties": {"@spider": "usps_collection_boxes", "addr:city": "WILMORE", "addr:country": "US", "addr:full": "102 S MAIN ST", "addr:postcode": "67155", "addr:state": "KS", "amenity": "post_box", "brand": "United States Postal Service", "brand:wikidata": "Q668687", "collection_times": "Mo-Fr 09:45; Sa 08:45", "name": "USPS COLLECTION BOX - PO LOBBY", "nsi_id": "unitedstatespostalservice-a77078", "operator": "United States Postal Service", "operator:short": "USPS", "operator:type": "public", "operator:wikidata": "Q668687", "ref": "6715500002"}, "type": "Feature"}
{"dataset_attributes": {"@spider": "usps_collection_boxes", "spider:collection_time": "2023-10-31T08:25:14.480804"}, "geometry": {"coordinates": [-99.209238153, 37.334820415], "type": "Point"}, "id": "ieYHRj7vUVIxuJNuO8vj8HGDqhk=", "properties": {"@spider": "usps_collection_boxes", "addr:city": "WILMORE", "addr:country": "US", "addr:full": "102 S MAIN ST", "addr:postcode": "67155", "addr:state": "KS", "amenity": "post_box", "brand": "United States Postal Service", "brand:wikidata": "Q668687", "collection_times": "Mo-Fr 09:45; Sa 08:45", "name": "USPS COLLECTION BOX - PO LOBBY", "nsi_id": "unitedstatespostalservice-a77078", "operator": "United States Postal Service", "operator:short": "USPS", "operator:type": "public", "operator:wikidata": "Q668687", "ref": "6715500003"}, "type": "Feature"}
{"dataset_attributes": {"@spider": "usps_collection_boxes", "spider:collection_time": "2023-10-31T08:25:14.480804"}, "geometry": {"coordinates": [-96.9974318, 37.240333], "type": "Point"}, "id": "BFbTWhrMlaCQIeOIk8EaF_3p6wI=", "properties": {"@spider": "usps_collection_boxes", "addr:city": "WINFIELD", "addr:country": "US", "addr:full": "823 MAIN ST", "addr:postcode": "67156", "addr:state": "KS", "amenity": "post_box", "brand": "United States Postal Service", "brand:wikidata": "Q668687", "collection_times": "Mo-Fr 15:00; Sa 14:00", "name": "USPS COLLECTION BOX - BLUE BOX", "note": "ON 12/24 AND 12/31, THIS BOX MAY BE COLLECTED AS EARLY AS 12 NOON.", "nsi_id": "unitedstatespostalservice-a77078", "operator": "United States Postal Service", "operator:short": "USPS", "operator:type": "public", "operator:wikidata": "Q668687", "ref": "6715600002"}, "type": "Feature"}
{"dataset_attributes": {"@spider": "usps_collection_boxes", "spider:collection_time": "2023-10-31T08:25:14.480804"}, "geometry": {"coordinates": [-96.9737343, 37.242482], "type": "Point"}, "id": "2cneFtFwFW-itZ4g-ohi5SLFlh8=", "properties": {"@spider": "usps_collection_boxes", "addr:city": "WINFIELD", "addr:country": "US", "addr:full": "1906 E 9TH AVE", "addr:postcode": "67156", "addr:state": "KS", "amenity": "post_box", "brand": "United States Postal Service", "brand:wikidata": "Q668687", "collection_times": "Mo-Sa 12:00", "name": "USPS COLLECTION BOX - BLUE BOX", "nsi_id": "unitedstatespostalservice-a77078", "operator": "United States Postal Service", "operator:short": "USPS", "operator:type": "public", "operator:wikidata": "Q668687", "ref": "6715600003"}, "type": "Feature"}
{"dataset_attributes": {"@spider": "usps_collection_boxes", "spider:collection_time": "2023-10-31T08:25:14.480804"}, "geometry": {"coordinates": [-96.9818654, 37.244605], "type": "Point"}, "id": "aoVlTUK6Q1YwqxwE8_1SwV9Wsho=", "properties": {"@spider": "usps_collection_boxes", "addr:city": "WINFIELD", "addr:country": "US", "addr:full": "1301 E 5TH AVE", "addr:postcode": "67156", "addr:state": "KS", "amenity": "post_box", "brand": "United States Postal Service", "brand:wikidata": "Q668687", "collection_times": "Mo-Sa 12:00", "name": "USPS COLLECTION BOX - BLUE BOX", "nsi_id": "unitedstatespostalservice-a77078", "operator": "United States Postal Service", "operator:short": "USPS", "operator:type": "public", "operator:wikidata": "Q668687", "ref": "6715600004"}, "type": "Feature"}
{"dataset_attributes": {"@spider": "usps_collection_boxes", "spider:collection_time": "2023-10-31T08:25:14.480804"}, "geometry": {"coordinates": [-96.9950109446, 37.2393235299], "type": "Point"}, "id": "rcRuFtyqINTvGEdjMI0IoR2zjWE=", "properties": {"@spider": "usps_collection_boxes", "addr:city": "WINFIELD", "addr:country": "US", "addr:full": "218 E 10TH AVE", "addr:postcode": "67156", "addr:state": "KS", "amenity": "post_box", "brand": "United States Postal Service", "brand:wikidata": "Q668687", "collection_times": "Mo-Fr 16:15; Sa 15:30", "name": "USPS COLLECTION BOX - BLUE BOX", "note": "ON 12/24 AND 12/31, THIS BOX MAY BE COLLECTED AS EARLY AS 12 NOON.", "nsi_id": "unitedstatespostalservice-a77078", "operator": "United States Postal Service", "operator:short": "USPS", "operator:type": "public", "operator:wikidata": "Q668687", "ref": "6715600006"}, "type": "Feature"}
{"dataset_attributes": {"@spider": "usps_collection_boxes", "spider:collection_time": "2023-10-31T08:25:14.480804"}, "geometry": {"coordinates": [-96.994872, 37.239328], "type": "Point"}, "id": "4S-sbZsXWQAnGSJjBkX_XROFaCw=", "properties": {"@spider": "usps_collection_boxes", "addr:city": "WINFIELD", "addr:country": "US", "addr:full": "218 E 10TH AVE", "addr:postcode": "67156", "addr:state": "KS", "amenity": "post_box", "brand": "United States Postal Service", "brand:wikidata": "Q668687", "collection_times": "Mo-Fr 16:15; Sa 15:30", "name": "USPS COLLECTION BOX - PO LOBBY", "note": "ON 12/24 AND 12/31, THIS BOX MAY BE COLLECTED AS EARLY AS 12 NOON.", "nsi_id": "unitedstatespostalservice-a77078", "operator": "United States Postal Service", "operator:short": "USPS", "operator:type": "public", "operator:wikidata": "Q668687", "ref": "6715600008"}, "type": "Feature"}
{"dataset_attributes": {"@spider": "usps_collection_boxes", "spider:collection_time": "2023-10-31T08:25:14.480804"}, "geometry": {"coordinates": [-97.0265982, 37.16977], "type": "Point"}, "id": "Xic3Q-NBtfP3dJnycQIvOAWWiS4=", "properties": {"@spider": "usps_collection_boxes", "addr:city": "WINFIELD", "addr:country": "US", "addr:full": "22214 D ST", "addr:postcode": "67156", "addr:state": "KS", "amenity": "post_box", "brand": "United States Postal Service", "brand:wikidata": "Q668687", "collection_times": "Mo-Sa 10:00", "name": "USPS COLLECTION BOX - BLUE BOX", "nsi_id": "unitedstatespostalservice-a77078", "operator": "United States Postal Service", "operator:short": "USPS", "operator:type": "public", "operator:wikidata": "Q668687", "ref": "6715600011"}, "type": "Feature"}
{"dataset_attributes": {"@spider": "usps_collection_boxes", "spider:collection_time": "2023-10-31T08:25:14.480804"}, "geometry": {"coordinates": [-96.995010945, 37.23932353], "type": "Point"}, "id": "vunQl524SYpaf8f_lMKIUD7wkoQ=", "properties": {"@spider": "usps_collection_boxes", "addr:city": "WINFIELD", "addr:country": "US", "addr:full": "218 E 10TH AVE", "addr:postcode": "67156", "addr:state": "KS", "amenity": "post_box", "brand": "United States Postal Service", "brand:wikidata": "Q668687", "collection_times": "Mo-Fr 16:15; Sa 10:30", "name": "USPS COLLECTION BOX - PO LOBBY", "note": "ON 12/24 AND 12/31, THIS BOX MAY BE COLLECTED AS EARLY AS 12 NOON.", "nsi_id": "unitedstatespostalservice-a77078", "operator": "United States Postal Service", "operator:short": "USPS", "operator:type": "public", "operator:wikidata": "Q668687", "ref": "6715600015"}, "type": "Feature"}
{"dataset_attributes": {"@spider": "usps_collection_boxes", "spider:collection_time": "2023-10-31T08:25:14.480804"}, "geometry": {"coordinates": [-98.2818448, 37.444037], "type": "Point"}, "id": "FfeN9ZmYFTqigOtq1Pn2anliN80=", "properties": {"@spider": "usps_collection_boxes", "addr:city": "ZENDA", "addr:country": "US", "addr:full": "210 N MAIN ST", "addr:postcode": "67159", "addr:state": "KS", "amenity": "post_box", "brand": "United States Postal Service", "brand:wikidata": "Q668687", "collection_times": "Mo-Sa 11:15", "name": "USPS COLLECTION BOX - BLUE BOX", "nsi_id": "unitedstatespostalservice-a77078", "operator": "United States Postal Service", "operator:short": "USPS", "operator:type": "public", "operator:wikidata": "Q668687", "ref": "6715900001"}, "type": "Feature"}
{"dataset_attributes": {"@spider": "usps_collection_boxes", "spider:collection_time": "2023-10-31T08:25:14.480804"}, "geometry": {"coordinates": [-98.28193, 37.443899], "type": "Point"}, "id": "vMAjoHWZIb48NU0uV0JokejA_bI=", "properties": {"@spider": "usps_collection_boxes", "addr:city": "ZENDA", "addr:country": "US", "addr:full": "210 N MAIN ST", "addr:postcode": "67159", "addr:state": "KS", "amenity": "post_box", "brand": "United States Postal Service", "brand:wikidata": "Q668687", "collection_times": "Mo-Sa 11:15", "name": "USPS COLLECTION BOX - PO LOBBY", "nsi_id": "unitedstatespostalservice-a77078", "operator": "United States Postal Service", "operator:short": "USPS", "operator:type": "public", "operator:wikidata": "Q668687", "ref": "6715900002"}, "type": "Feature"}
{"dataset_attributes": {"@spider": "usps_collection_boxes", "spider:collection_time": "2023-10-31T08:25:14.480804"}, "geometry": {"coordinates": [-98.281938459, 37.443895743], "type": "Point"}, "id": "sgYEuAXxg7YD8j7iw0mdi5CZymw=", "properties": {"@spider": "usps_collection_boxes", "addr:city": "ZENDA", "addr:country": "US", "addr:full": "210 N MAIN ST", "addr:postcode": "67159", "addr:state": "KS", "amenity": "post_box", "brand": "United States Postal Service", "brand:wikidata": "Q668687", "collection_times": "Mo-Sa 11:15", "name": "USPS COLLECTION BOX - PO LOBBY", "nsi_id": "unitedstatespostalservice-a77078", "operator": "United States Postal Service", "operator:short": "USPS", "operator:type": "public", "operator:wikidata": "Q668687", "ref": "6715900003"}, "type": "Feature"}
