{"geometry": {"coordinates": [-97.341336, 37.69065], "type": "Point"}, "id": "FbynPUrW5QuJrzGCD_6NWnvlvm8=", "properties": {"@source_uri": "https://tools.usps.com/UspsToolsRestServices/rest/POLocator/findLocations", "@spider": "usps_collection_boxes", "addr:city": "WICHITA", "addr:country": "US", "addr:postcode": "67202", "addr:state": "KS", "addr:street_address": "330 W 2ND ST N", "amenity": "post_box", "collection_times": "Mo-Fr 17:55; Sa 17:05", "note": "ON 12/24 AND 12/31, THIS BOX MAY BE COLLECTED AS EARLY AS 12 NOON.", "nsi_id": "unitedstatespostalservice-a77078", "operator": "United States Postal Service", "operator:short": "USPS", "operator:type": "public", "operator:wikidata": "Q668687", "ref": "6720200001"}, "type": "Feature"}
{"geometry": {"coordinates": [-97.335547, 37.686731], "type": "Point"}, "id": "q1RNGetxd3nOJ2oj77YT0GWIlBo=", "properties": {"@source_uri": "https://tools.usps.com/UspsToolsRestServices/rest/POLocator/findLocations", "@spider": "usps_collection_boxes", "addr:city": "WICHITA", "addr:country": "US", "addr:postcode": "67202", "addr:state": "KS", "addr:street_address": "100 N BROADWAY ST", "amenity": "post_box", "collection_times": "Mo-Fr 14:00", "note": "ON 12/24 AND 12/31, THIS BOX MAY BE COLLECTED AS EARLY AS 12 NOON.", "nsi_id": "unitedstatespostalservice-a77078", "operator": "United States Postal Service", "operator:short": "USPS", "operator:type": "public", "operator:wikidata": "Q668687", "ref": "6720200010"}, "type": "Feature"}
{"geometry": {"coordinates": [-97.338245, 37.690379], "type": "Point"}, "id": "kgTPc4YWAbi7o5CH8oX53QBrypI=", "properties": {"@source_uri": "https://tools.usps.com/UspsToolsRestServices/rest/POLocator/findLocations", "@spider": "usps_collection_boxes", "addr:city": "WICHITA", "addr:country": "US", "addr:postcode": "67202", "addr:state": "KS", "addr:street_address": "301 N MAIN ST", "amenity": "post_box", "collection_times": "Mo-Fr 10:00", "nsi_id": "unitedstatespostalservice-a77078", "operator": "United States Postal Service", "operator:short": "USPS", "operator:type": "public", "operator:wikidata": "Q668687", "ref": "6720200046"}, "type": "Feature"}
{"geometry": {"coordinates": [-97.331056438, 37.685965092], "type": "Point"}, "id": "zs2S_OOyD2pBiBeuJBrQF-ckp4k=", "properties": {"@source_uri": "https://tools.usps.com/UspsToolsRestServices/rest/POLocator/findLocations", "@spider": "usps_collection_boxes", "addr:city": "WICHITA", "addr:country": "US", "addr:postcode": "67202", "addr:state": "KS", "addr:street_address": "645 E DOUGLAS AVE", "amenity": "post_box", "collection_times": "Mo-Fr 14:00", "note": "ON 12/24 AND 12/31, THIS BOX MAY BE COLLECTED AS EARLY AS 12 NOON.", "nsi_id": "unitedstatespostalservice-a77078", "operator": "United States Postal Service", "operator:short": "USPS", "operator:type": "public", "operator:wikidata": "Q668687", "ref": "6720200049"}, "type": "Feature"}
{"geometry": {"coordinates": [-97.340922, 37.686582], "type": "Point"}, "id": "wHznjGseXEjCI55WRmOZwsTpqHc=", "properties": {"@source_uri": "https://tools.usps.com/UspsToolsRestServices/rest/POLocator/findLocations", "@spider": "usps_collection_boxes", "addr:city": "WICHITA", "addr:country": "US", "addr:postcode": "67202", "addr:state": "KS", "addr:street_address": "300 W DOUGLAS AVE", "amenity": "post_box", "collection_times": "Mo-Fr 16:55", "note": "ON 12/24 AND 12/31, THIS BOX MAY BE COLLECTED AS EARLY AS 12 NOON.", "nsi_id": "unitedstatespostalservice-a77078", "operator": "United States Postal Service", "operator:short": "USPS", "operator:type": "public", "operator:wikidata": "Q668687", "ref": "6720200052"}, "type": "Feature"}
{"geometry": {"coordinates": [-97.3356377957, 37.6889418678], "type": "Point"}, "id": "1TyQz6nftFWKUff538FbN3d7Z6k=", "properties": {"@source_uri": "https://tools.usps.com/UspsToolsRestServices/rest/POLocator/findLocations", "@spider": "usps_collection_boxes", "addr:city": "WICHITA", "addr:country": "US", "addr:postcode": "67202", "addr:state": "KS", "addr:street_address": "255 N BROADWAY AVE", "amenity": "post_box", "collection_times": "Mo-Fr 11:00", "nsi_id": "unitedstatespostalservice-a77078", "operator": "United States Postal Service", "operator:short": "USPS", "operator:type": "public", "operator:wikidata": "Q668687", "ref": "6720200064"}, "type": "Feature"}
{"geometry": {"coordinates": [-97.3365165, 37.688274], "type": "Point"}, "id": "MqYUNcr5OjCQGQLYeZfjMII3DT8=", "properties": {"@source_uri": "https://tools.usps.com/UspsToolsRestServices/rest/POLocator/findLocations", "@spider": "usps_collection_boxes", "addr:city": "WICHITA", "addr:country": "US", "addr:postcode": "67202", "addr:state": "KS", "addr:street_address": "200 E 1ST ST N", "amenity": "post_box", "collection_times": "Mo-Fr 14:00", "note": "ON 12/24 AND 12/31, THIS BOX MAY BE COLLECTED AS EARLY AS 12 NOON.", "nsi_id": "unitedstatespostalservice-a77078", "operator": "United States Postal Service", "operator:short": "USPS", "operator:type": "public", "operator:wikidata": "Q668687", "ref": "6720200070"}, "type": "Feature"}
{"geometry": {"coordinates": [-97.342066, 37.689349], "type": "Point"}, "id": "aJ1LxmOGxQyyM4m3kQjxivgEnrk=", "properties": {"@source_uri": "https://tools.usps.com/UspsToolsRestServices/rest/POLocator/findLocations", "@spider": "usps_collection_boxes", "addr:city": "WICHITA", "addr:country": "US", "addr:postcode": "67202", "addr:state": "KS", "addr:street_address": "245 N WACO ST", "amenity": "post_box", "collection_times": "Mo-Fr 11:00", "nsi_id": "unitedstatespostalservice-a77078", "operator": "United States Postal Service", "operator:short": "USPS", "operator:type": "public", "operator:wikidata": "Q668687", "ref": "6720200086"}, "type": "Feature"}
{"geometry": {"coordinates": [-97.33295, 37.686985], "type": "Point"}, "id": "JwIvb_hs6mJQtHq2FxiWSxhKROY=", "properties": {"@source_uri": "https://tools.usps.com/UspsToolsRestServices/rest/POLocator/findLocations", "@spider": "usps_collection_boxes", "addr:city": "WICHITA", "addr:country": "US", "addr:postcode": "67202", "addr:state": "KS", "addr:street_address": "100 S MAIN ST", "amenity": "post_box", "collection_times": "Mo-Fr 11:00", "nsi_id": "unitedstatespostalservice-a77078", "operator": "United States Postal Service", "operator:short": "USPS", "operator:type": "public", "operator:wikidata": "Q668687", "ref": "6720200090"}, "type": "Feature"}
{"geometry": {"coordinates": [-97.3414499, 37.690284], "type": "Point"}, "id": "5Ff_mFx-9t69MWCVIQxKUxbh7-w=", "properties": {"@source_uri": "https://tools.usps.com/UspsToolsRestServices/rest/POLocator/findLocations", "@spider": "usps_collection_boxes", "addr:city": "WICHITA", "addr:country": "US", "addr:postcode": "67202", "addr:state": "KS", "addr:street_address": "330 W 2ND ST N", "amenity": "post_box", "collection_times": "Mo-Fr 17:35; Sa 16:30", "indoor": "yes", "note": "ON 12/24 AND 12/31, THIS BOX MAY BE COLLECTED AS EARLY AS 12 NOON.", "nsi_id": "unitedstatespostalservice-a77078", "operator": "United States Postal Service", "operator:short": "USPS", "operator:type": "public", "operator:wikidata": "Q668687", "ref": "6720200108"}, "type": "Feature"}
{"geometry": {"coordinates": [-97.341082, 37.689768], "type": "Point"}, "id": "TwMz4AywCcvkQ95ewn-ocRrXeZk=", "properties": {"@source_uri": "https://tools.usps.com/UspsToolsRestServices/rest/POLocator/findLocations", "@spider": "usps_collection_boxes", "addr:city": "WICHITA", "addr:country": "US", "addr:postcode": "67202", "addr:state": "KS", "addr:street_address": "330 W 2ND ST N", "amenity": "post_box", "collection_times": "Mo-Fr 17:35; Sa 16:30", "name": "USPS COLLECTION BOX - APC", "note": "ON 12/24 AND 12/31, THIS BOX MAY BE COLLECTED AS EARLY AS 12 NOON.", "nsi_id": "unitedstatespostalservice-a77078", "operator": "United States Postal Service", "operator:short": "USPS", "operator:type": "public", "operator:wikidata": "Q668687", "ref": "6720200116"}, "type": "Feature"}
{"geometry": {"coordinates": [-97.338245, 37.690379], "type": "Point"}, "id": "BM_6KQkzBvfcce-nFMQKPRHVdxw=", "properties": {"@source_uri": "https://tools.usps.com/UspsToolsRestServices/rest/POLocator/findLocations", "@spider": "usps_collection_boxes", "addr:city": "WICHITA", "addr:country": "US", "addr:postcode": "67202", "addr:state": "KS", "addr:street_address": "301 N MAIN ST", "amenity": "post_box", "collection_times": "Mo-Fr 10:00", "nsi_id": "unitedstatespostalservice-a77078", "operator": "United States Postal Service", "operator:short": "USPS", "operator:type": "public", "operator:wikidata": "Q668687", "ref": "6720200117"}, "type": "Feature"}
{"geometry": {"coordinates": [-97.338245, 37.690379], "type": "Point"}, "id": "zRRw-MrgWXW52BjcSsJXzW167ac=", "properties": {"@source_uri": "https://tools.usps.com/UspsToolsRestServices/rest/POLocator/findLocations", "@spider": "usps_collection_boxes", "addr:city": "WICHITA", "addr:country": "US", "addr:postcode": "67202", "addr:state": "KS", "addr:street_address": "301 N MAIN ST", "amenity": "post_box", "collection_times": "Mo-Fr 10:00", "nsi_id": "unitedstatespostalservice-a77078", "operator": "United States Postal Service", "operator:short": "USPS", "operator:type": "public", "operator:wikidata": "Q668687", "ref": "6720200118"}, "type": "Feature"}
{"geometry": {"coordinates": [-97.341353361, 37.689764462], "type": "Point"}, "id": "8W7RXHwUrZFHtKvB5TjMoBnd5SE=", "properties": {"@source_uri": "https://tools.usps.com/UspsToolsRestServices/rest/POLocator/findLocations", "@spider": "usps_collection_boxes", "addr:city": "WICHITA", "addr:country": "US", "addr:postcode": "67202", "addr:state": "KS", "addr:street_address": "330 W 2ND ST", "amenity": "post_box", "collection_times": "Mo-Fr 17:35; Sa 12:00", "indoor": "yes", "note": "ON 12/24 AND 12/31, THIS BOX MAY BE COLLECTED AS EARLY AS 12 NOON.", "nsi_id": "unitedstatespostalservice-a77078", "operator": "United States Postal Service", "operator:short": "USPS", "operator:type": "public", "operator:wikidata": "Q668687", "ref": "6720200125"}, "type": "Feature"}
{"geometry": {"coordinates": [-97.3892755, 37.693921], "type": "Point"}, "id": "CO9YrOw7CsOl9coVO1F2i8gRoq0=", "properties": {"@source_uri": "https://tools.usps.com/UspsToolsRestServices/rest/POLocator/findLocations", "@spider": "usps_collection_boxes", "addr:city": "WICHITA", "addr:country": "US", "addr:postcode": "67203", "addr:state": "KS", "addr:street_address": "640 N WEST ST", "amenity": "post_box", "collection_times": "Mo-Sa 10:00", "nsi_id": "unitedstatespostalservice-a77078", "operator": "United States Postal Service", "operator:short": "USPS", "operator:type": "public", "operator:wikidata": "Q668687", "ref": "6720300002"}, "type": "Feature"}
{"geometry": {"coordinates": [-97.3913926, 37.70786], "type": "Point"}, "id": "AS-FsbbfoJmazVOZDjLGvx8qUbQ=", "properties": {"@source_uri": "https://tools.usps.com/UspsToolsRestServices/rest/POLocator/findLocations", "@spider": "usps_collection_boxes", "addr:city": "WICHITA", "addr:country": "US", "addr:postcode": "67203", "addr:state": "KS", "addr:street_address": "1315 N WEST ST", "amenity": "post_box", "collection_times": "Mo-Fr 11:00", "nsi_id": "unitedstatespostalservice-a77078", "operator": "United States Postal Service", "operator:short": "USPS", "operator:type": "public", "operator:wikidata": "Q668687", "ref": "6720300005"}, "type": "Feature"}
{"geometry": {"coordinates": [-97.3726738, 37.695517], "type": "Point"}, "id": "nyNPErga4_YYF-fF3b0nOVaEVv0=", "properties": {"@source_uri": "https://tools.usps.com/UspsToolsRestServices/rest/POLocator/findLocations", "@spider": "usps_collection_boxes", "addr:city": "WICHITA", "addr:country": "US", "addr:postcode": "67203", "addr:state": "KS", "addr:street_address": "2622 W CENTRAL AVE", "amenity": "post_box", "collection_times": "Mo-Fr 13:30; Sa 11:40", "note": "ON 12/24 AND 12/31, THIS BOX MAY BE COLLECTED AS EARLY AS 12 NOON.", "nsi_id": "unitedstatespostalservice-a77078", "operator": "United States Postal Service", "operator:short": "USPS", "operator:type": "public", "operator:wikidata": "Q668687", "ref": "6720300019"}, "type": "Feature"}
{"geometry": {"coordinates": [-97.3633184, 37.719249], "type": "Point"}, "id": "SNITqjy4q2sllejqjfkh1IhJLUA=", "properties": {"@source_uri": "https://tools.usps.com/UspsToolsRestServices/rest/POLocator/findLocations", "@spider": "usps_collection_boxes", "addr:city": "WICHITA", "addr:country": "US", "addr:postcode": "67203", "addr:state": "KS", "addr:street_address": "1999 N AMIDON AVE", "amenity": "post_box", "collection_times": "Mo-Fr 11:00", "nsi_id": "unitedstatespostalservice-a77078", "operator": "United States Postal Service", "operator:short": "USPS", "operator:type": "public", "operator:wikidata": "Q668687", "ref": "6720300022"}, "type": "Feature"}
{"geometry": {"coordinates": [-97.345225, 37.7080044], "type": "Point"}, "id": "r1TD5uAX3nUpA1KOyhE39QpxIgI=", "properties": {"@source_uri": "https://tools.usps.com/UspsToolsRestServices/rest/POLocator/findLocations", "@spider": "usps_collection_boxes", "addr:city": "WICHITA", "addr:country": "US", "addr:postcode": "67203", "addr:state": "KS", "addr:street_address": "3932 W 13TH ST N", "amenity": "post_box", "collection_times": "Mo-Sa 13:00", "note": "ON 12/24 AND 12/31, THIS BOX MAY BE COLLECTED AS EARLY AS 12 NOON.", "nsi_id": "unitedstatespostalservice-a77078", "operator": "United States Postal Service", "operator:short": "USPS", "operator:type": "public", "operator:wikidata": "Q668687", "ref": "6720300027"}, "type": "Feature"}
{"geometry": {"coordinates": [-97.345225, 37.7080044], "type": "Point"}, "id": "k-CtbquQKMGEXpwJdeY9SFrQOm4=", "properties": {"@source_uri": "https://tools.usps.com/UspsToolsRestServices/rest/POLocator/findLocations", "@spider": "usps_collection_boxes", "addr:city": "WICHITA", "addr:country": "US", "addr:postcode": "67203", "addr:state": "KS", "addr:street_address": "2499 W 13TH ST N", "amenity": "post_box", "collection_times": "Mo-Sa 11:00", "nsi_id": "unitedstatespostalservice-a77078", "operator": "United States Postal Service", "operator:short": "USPS", "operator:type": "public", "operator:wikidata": "Q668687", "ref": "6720300030"}, "type": "Feature"}
{"geometry": {"coordinates": [-97.3448799, 37.725158], "type": "Point"}, "id": "y5jwuI0HlrLbjmPIxWpCsXFaUgM=", "properties": {"@source_uri": "https://tools.usps.com/UspsToolsRestServices/rest/POLocator/findLocations", "@spider": "usps_collection_boxes", "addr:city": "WICHITA", "addr:country": "US", "addr:postcode": "67204", "addr:state": "KS", "addr:street_address": "2325 N ARKANSAS AVE", "amenity": "post_box", "collection_times": "Mo-Sa 17:00", "note": "ON 12/24 AND 12/31, THIS BOX MAY BE COLLECTED AS EARLY AS 12 NOON.", "nsi_id": "unitedstatespostalservice-a77078", "operator": "United States Postal Service", "operator:short": "USPS", "operator:type": "public", "operator:wikidata": "Q668687", "ref": "6720400001"}, "type": "Feature"}
{"geometry": {"coordinates": [-97.3735580022, 37.784455981], "type": "Point"}, "id": "x72jNZJ42Zk5cm_R80cX4xwzH1Q=", "properties": {"@source_uri": "https://tools.usps.com/UspsToolsRestServices/rest/POLocator/findLocations", "@spider": "usps_collection_boxes", "addr:city": "WICHITA", "addr:country": "US", "addr:postcode": "67204", "addr:state": "KS", "addr:street_address": "5475 N MERIDIAN AVE", "amenity": "post_box", "collection_times": "Mo-Fr 15:00; Sa 13:40", "note": "ON 12/24 AND 12/31, THIS BOX MAY BE COLLECTED AS EARLY AS 12 NOON.", "nsi_id": "unitedstatespostalservice-a77078", "operator": "United States Postal Service", "operator:short": "USPS", "operator:type": "public", "operator:wikidata": "Q668687", "ref": "6720400004"}, "type": "Feature"}
{"geometry": {"coordinates": [-97.344806, 37.72527], "type": "Point"}, "id": "KB2usBYQMzAcjWbCQEmdM9j-wI8=", "properties": {"@source_uri": "https://tools.usps.com/UspsToolsRestServices/rest/POLocator/findLocations", "@spider": "usps_collection_boxes", "addr:city": "WICHITA", "addr:country": "US", "addr:postcode": "67204", "addr:state": "KS", "addr:street_address": "2325 N ARKANSAS AVE", "amenity": "post_box", "collection_times": "Mo-Fr 16:35; Sa 15:15", "indoor": "yes", "note": "ON 12/24 AND 12/31, THIS BOX MAY BE COLLECTED AS EARLY AS 12 NOON.", "nsi_id": "unitedstatespostalservice-a77078", "operator": "United States Postal Service", "operator:short": "USPS", "operator:type": "public", "operator:wikidata": "Q668687", "ref": "6720400009"}, "type": "Feature"}
{"geometry": {"coordinates": [-97.344804757, 37.725264754], "type": "Point"}, "id": "GwIn6xC7B7HL_y2JhjUCeYY7Jew=", "properties": {"@source_uri": "https://tools.usps.com/UspsToolsRestServices/rest/POLocator/findLocations", "@spider": "usps_collection_boxes", "addr:city": "WICHITA", "addr:country": "US", "addr:postcode": "67204", "addr:state": "KS", "addr:street_address": "2325 N ARKANSAS AVE", "amenity": "post_box", "collection_times": "Mo-Fr 16:35; Sa 12:00", "indoor": "yes", "note": "ON 12/24 AND 12/31, THIS BOX MAY BE COLLECTED AS EARLY AS 12 NOON.", "nsi_id": "unitedstatespostalservice-a77078", "operator": "United States Postal Service", "operator:short": "USPS", "operator:type": "public", "operator:wikidata": "Q668687", "ref": "6720400010"}, "type": "Feature"}
{"geometry": {"coordinates": [-97.4315682, 37.723835], "type": "Point"}, "id": "7TvX5AQk0Fx5AvWqpcBbYDVLvnM=", "properties": {"@source_uri": "https://tools.usps.com/UspsToolsRestServices/rest/POLocator/findLocations", "@spider": "usps_collection_boxes", "addr:city": "WICHITA", "addr:country": "US", "addr:postcode": "67205", "addr:state": "KS", "addr:street_address": "7570 W 21ST ST N", "amenity": "post_box", "collection_times": "Mo-Fr 10:30", "nsi_id": "unitedstatespostalservice-a77078", "operator": "United States Postal Service", "operator:short": "USPS", "operator:type": "public", "operator:wikidata": "Q668687", "ref": "6720500001"}, "type": "Feature"}
{"geometry": {"coordinates": [-97.4611395, 37.724004], "type": "Point"}, "id": "23jLD9uPzOjl4T-er1sEVuLlCqQ=", "properties": {"@source_uri": "https://tools.usps.com/UspsToolsRestServices/rest/POLocator/findLocations", "@spider": "usps_collection_boxes", "addr:city": "WICHITA", "addr:country": "US", "addr:postcode": "67205", "addr:state": "KS", "addr:street_address": "10222 W 21ST ST N", "amenity": "post_box", "collection_times": "Mo-Fr 17:00; Sa 16:30", "note": "ON 12/24 AND 12/31, THIS BOX MAY BE COLLECTED AS EARLY AS 12 NOON.", "nsi_id": "unitedstatespostalservice-a77078", "operator": "United States Postal Service", "operator:short": "USPS", "operator:type": "public", "operator:wikidata": "Q668687", "ref": "6720500007"}, "type": "Feature"}
{"geometry": {"coordinates": [-97.4454829, 37.722609], "type": "Point"}, "id": "ESuiHTp6NZAotQ4k2to3EtZYmAY=", "properties": {"@source_uri": "https://tools.usps.com/UspsToolsRestServices/rest/POLocator/findLocations", "@spider": "usps_collection_boxes", "addr:city": "WICHITA", "addr:country": "US", "addr:postcode": "67205", "addr:state": "KS", "addr:street_address": "8821 W 21ST ST N", "amenity": "post_box", "collection_times": "Mo-Fr 17:00; Sa 14:15", "note": "ON 12/24 AND 12/31, THIS BOX MAY BE COLLECTED AS EARLY AS 12 NOON.", "nsi_id": "unitedstatespostalservice-a77078", "operator": "United States Postal Service", "operator:short": "USPS", "operator:type": "public", "operator:wikidata": "Q668687", "ref": "6720500009"}, "type": "Feature"}
{"geometry": {"coordinates": [-97.4620959617, 37.7499419859], "type": "Point"}, "id": "Ft4y75xnL-J5AHzG2XyTCyh4nxM=", "properties": {"@source_uri": "https://tools.usps.com/UspsToolsRestServices/rest/POLocator/findLocations", "@spider": "usps_collection_boxes", "addr:city": "WICHITA", "addr:country": "US", "addr:postcode": "67205", "addr:state": "KS", "addr:street_address": "3710 N MAIZE RD", "amenity": "post_box", "collection_times": "Mo-Sa 17:00", "note": "ON 12/24 AND 12/31, THIS BOX MAY BE COLLECTED AS EARLY AS 12 NOON.", "nsi_id": "unitedstatespostalservice-a77078", "operator": "United States Postal Service", "operator:short": "USPS", "operator:type": "public", "operator:wikidata": "Q668687", "ref": "6720500011"}, "type": "Feature"}
{"geometry": {"coordinates": [-97.2075624, 37.693337], "type": "Point"}, "id": "Eeg8wraAz_Vr9XuCYpeasOdLdHc=", "properties": {"@source_uri": "https://tools.usps.com/UspsToolsRestServices/rest/POLocator/findLocations", "@spider": "usps_collection_boxes", "addr:city": "WICHITA", "addr:country": "US", "addr:postcode": "67206", "addr:state": "KS", "addr:street_address": "11333 E CENTRAL AVE", "amenity": "post_box", "collection_times": "Mo-Fr 13:00", "note": "ON 12/24 AND 12/31, THIS BOX MAY BE COLLECTED AS EARLY AS 12 NOON.", "nsi_id": "unitedstatespostalservice-a77078", "operator": "United States Postal Service", "operator:short": "USPS", "operator:type": "public", "operator:wikidata": "Q668687", "ref": "6720600014"}, "type": "Feature"}
{"geometry": {"coordinates": [-97.2604838, 37.693976], "type": "Point"}, "id": "quQcPFeNSTtQ_WeYFhwYwbnmCZY=", "properties": {"@source_uri": "https://tools.usps.com/UspsToolsRestServices/rest/POLocator/findLocations", "@spider": "usps_collection_boxes", "addr:city": "WICHITA", "addr:country": "US", "addr:postcode": "67206", "addr:state": "KS", "addr:street_address": "6420 E CENTRAL AVE", "amenity": "post_box", "collection_times": "Mo-Sa 10:00", "nsi_id": "unitedstatespostalservice-a77078", "operator": "United States Postal Service", "operator:short": "USPS", "operator:type": "public", "operator:wikidata": "Q668687", "ref": "6720600017"}, "type": "Feature"}
{"geometry": {"coordinates": [-97.227356, 37.708415], "type": "Point"}, "id": "5KtnGPz6Bxru-ohY_9bfoYeur6k=", "properties": {"@source_uri": "https://tools.usps.com/UspsToolsRestServices/rest/POLocator/findLocations", "@spider": "usps_collection_boxes", "addr:city": "WICHITA", "addr:country": "US", "addr:postcode": "67206", "addr:state": "KS", "addr:street_address": "1861 N ROCK RD", "amenity": "post_box", "collection_times": "Mo-Fr 10:30", "nsi_id": "unitedstatespostalservice-a77078", "operator": "United States Postal Service", "operator:short": "USPS", "operator:type": "public", "operator:wikidata": "Q668687", "ref": "6720600022"}, "type": "Feature"}
{"geometry": {"coordinates": [-97.2430831, 37.690145], "type": "Point"}, "id": "VVr_u6pS0v4dciin824qJTXFdF8=", "properties": {"@source_uri": "https://tools.usps.com/UspsToolsRestServices/rest/POLocator/findLocations", "@spider": "usps_collection_boxes", "addr:city": "WICHITA", "addr:country": "US", "addr:postcode": "67206", "addr:state": "KS", "addr:street_address": "260 N ROCK RD", "amenity": "post_box", "collection_times": "Mo-Fr 14:00", "note": "ON 12/24 AND 12/31, THIS BOX MAY BE COLLECTED AS EARLY AS 12 NOON.", "nsi_id": "unitedstatespostalservice-a77078", "operator": "United States Postal Service", "operator:short": "USPS", "operator:type": "public", "operator:wikidata": "Q668687", "ref": "6720600027"}, "type": "Feature"}
{"geometry": {"coordinates": [-97.2474544, 37.693633], "type": "Point"}, "id": "9jFpLPIYnRnis7DDl7lcLkEN0Tw=", "properties": {"@source_uri": "https://tools.usps.com/UspsToolsRestServices/rest/POLocator/findLocations", "@spider": "usps_collection_boxes", "addr:city": "WICHITA", "addr:country": "US", "addr:postcode": "67206", "addr:state": "KS", "addr:street_address": "7707 E CENTRAL AVE", "amenity": "post_box", "collection_times": "Mo-Fr 17:00; Sa 14:05", "note": "ON 12/24 AND 12/31, THIS BOX MAY BE COLLECTED AS EARLY AS 12 NOON.", "nsi_id": "unitedstatespostalservice-a77078", "operator": "United States Postal Service", "operator:short": "USPS", "operator:type": "public", "operator:wikidata": "Q668687", "ref": "6720600032"}, "type": "Feature"}
{"geometry": {"coordinates": [-97.2401453, 37.722068], "type": "Point"}, "id": "Z3lVPcsFaHqtoR3bCZHjUT4znrY=", "properties": {"@source_uri": "https://tools.usps.com/UspsToolsRestServices/rest/POLocator/findLocations", "@spider": "usps_collection_boxes", "addr:city": "WICHITA", "addr:country": "US", "addr:postcode": "67206", "addr:state": "KS", "addr:street_address": "8301 E 21ST ST N", "amenity": "post_box", "collection_times": "Mo-Fr 17:00", "note": "ON 12/24 AND 12/31, THIS BOX MAY BE COLLECTED AS EARLY AS 12 NOON.", "nsi_id": "unitedstatespostalservice-a77078", "operator": "United States Postal Service", "operator:short": "USPS", "operator:type": "public", "operator:wikidata": "Q668687", "ref": "6720600033"}, "type": "Feature"}
{"geometry": {"coordinates": [-97.2434452, 37.694731], "type": "Point"}, "id": "HhA2Z_OoDS07bFKSI8LV_XQWgUY=", "properties": {"@source_uri": "https://tools.usps.com/UspsToolsRestServices/rest/POLocator/findLocations", "@spider": "usps_collection_boxes", "addr:city": "WICHITA", "addr:country": "US", "addr:postcode": "67206", "addr:state": "KS", "addr:street_address": "8020 E CENTRAL AVE", "amenity": "post_box", "collection_times": "Mo-Fr 13:00", "note": "ON 12/24 AND 12/31, THIS BOX MAY BE COLLECTED AS EARLY AS 12 NOON.", "nsi_id": "unitedstatespostalservice-a77078", "operator": "United States Postal Service", "operator:short": "USPS", "operator:type": "public", "operator:wikidata": "Q668687", "ref": "6720600034"}, "type": "Feature"}
{"geometry": {"coordinates": [-97.245084968, 37.7051990096], "type": "Point"}, "id": "GvypxhyRq-p7KJ58Dkqu0kMsgps=", "properties": {"@source_uri": "https://tools.usps.com/UspsToolsRestServices/rest/POLocator/findLocations", "@spider": "usps_collection_boxes", "addr:city": "WICHITA", "addr:country": "US", "addr:postcode": "67206", "addr:state": "KS", "addr:street_address": "1223 N ROCK RD", "amenity": "post_box", "collection_times": "Mo-Fr 14:00", "note": "ON 12/24 AND 12/31, THIS BOX MAY BE COLLECTED AS EARLY AS 12 NOON.", "nsi_id": "unitedstatespostalservice-a77078", "operator": "United States Postal Service", "operator:short": "USPS", "operator:type": "public", "operator:wikidata": "Q668687", "ref": "6720600035"}, "type": "Feature"}
{"geometry": {"coordinates": [-97.2236463, 37.713249], "type": "Point"}, "id": "92Z5ZgJigNvwr4imuygRmyf40IY=", "properties": {"@source_uri": "https://tools.usps.com/UspsToolsRestServices/rest/POLocator/findLocations", "@spider": "usps_collection_boxes", "addr:city": "WICHITA", "addr:country": "US", "addr:postcode": "67206", "addr:state": "KS", "addr:street_address": "1625 N WATERFRONT PKWY", "amenity": "post_box", "collection_times": "Mo-Fr 13:00", "note": "ON 12/24 AND 12/31, THIS BOX MAY BE COLLECTED AS EARLY AS 12 NOON.", "nsi_id": "unitedstatespostalservice-a77078", "operator": "United States Postal Service", "operator:short": "USPS", "operator:type": "public", "operator:wikidata": "Q668687", "ref": "6720600037"}, "type": "Feature"}
{"geometry": {"coordinates": [-97.228983, 37.682443], "type": "Point"}, "id": "XIn4CAqs8lXV_u3VYDLjuo5c79o=", "properties": {"@source_uri": "https://tools.usps.com/UspsToolsRestServices/rest/POLocator/findLocations", "@spider": "usps_collection_boxes", "addr:city": "WICHITA", "addr:country": "US", "addr:postcode": "67207", "addr:state": "KS", "addr:street_address": "9350 E CORPORATE HILLS DR", "amenity": "post_box", "collection_times": "Mo-Sa 17:40", "note": "ON 12/24 AND 12/31, THIS BOX MAY BE COLLECTED AS EARLY AS 12 NOON.", "nsi_id": "unitedstatespostalservice-a77078", "operator": "United States Postal Service", "operator:short": "USPS", "operator:type": "public", "operator:wikidata": "Q668687", "ref": "6720700002"}, "type": "Feature"}
{"geometry": {"coordinates": [-97.2447406, 37.663798], "type": "Point"}, "id": "eAod5-pxWhJoIJh-hJXo0ZcKh80=", "properties": {"@source_uri": "https://tools.usps.com/UspsToolsRestServices/rest/POLocator/findLocations", "@spider": "usps_collection_boxes", "addr:city": "WICHITA", "addr:country": "US", "addr:postcode": "67207", "addr:state": "KS", "addr:street_address": "1645 S ROCK RD", "amenity": "post_box", "collection_times": "Mo-Sa 12:00", "nsi_id": "unitedstatespostalservice-a77078", "operator": "United States Postal Service", "operator:short": "USPS", "operator:type": "public", "operator:wikidata": "Q668687", "ref": "6720700007"}, "type": "Feature"}
{"geometry": {"coordinates": [-97.2273547, 37.664876], "type": "Point"}, "id": "x-KDShPSK_xOQx07SMYctfrSsjk=", "properties": {"@source_uri": "https://tools.usps.com/UspsToolsRestServices/rest/POLocator/findLocations", "@spider": "usps_collection_boxes", "addr:city": "WICHITA", "addr:country": "US", "addr:postcode": "67207", "addr:state": "KS", "addr:street_address": "9450 E HARRY ST", "amenity": "post_box", "collection_times": "Mo-Sa 13:00", "note": "ON 12/24 AND 12/31, THIS BOX MAY BE COLLECTED AS EARLY AS 12 NOON.", "nsi_id": "unitedstatespostalservice-a77078", "operator": "United States Postal Service", "operator:short": "USPS", "operator:type": "public", "operator:wikidata": "Q668687", "ref": "6720700039"}, "type": "Feature"}
{"geometry": {"coordinates": [-97.228983, 37.682443], "type": "Point"}, "id": "IYHDof1_PbtGRm5zYqPUZ2yKPj8=", "properties": {"@source_uri": "https://tools.usps.com/UspsToolsRestServices/rest/POLocator/findLocations", "@spider": "usps_collection_boxes", "addr:city": "WICHITA", "addr:country": "US", "addr:postcode": "67207", "addr:state": "KS", "addr:street_address": "9350 E CORPORATE HILLS DR", "amenity": "post_box", "collection_times": "Mo-Fr 17:30; Sa 17:40", "indoor": "yes", "note": "ON 12/24 AND 12/31, THIS BOX MAY BE COLLECTED AS EARLY AS 12 NOON.", "nsi_id": "unitedstatespostalservice-a77078", "operator": "United States Postal Service", "operator:short": "USPS", "operator:type": "public", "operator:wikidata": "Q668687", "ref": "6720700042"}, "type": "Feature"}
{"geometry": {"coordinates": [-97.252907644, 37.685142063], "type": "Point"}, "id": "Rb0Qc5SyZy6_pHi_-tQedezE9zc=", "properties": {"@source_uri": "https://tools.usps.com/UspsToolsRestServices/rest/POLocator/findLocations", "@spider": "usps_collection_boxes", "addr:city": "WICHITA", "addr:country": "US", "addr:postcode": "67207", "addr:state": "KS", "addr:street_address": "121 S WHITTIER RD", "amenity": "post_box", "collection_times": "Mo-Fr 14:00", "note": "ON 12/24 AND 12/31, THIS BOX MAY BE COLLECTED AS EARLY AS 12 NOON.", "nsi_id": "unitedstatespostalservice-a77078", "operator": "United States Postal Service", "operator:short": "USPS", "operator:type": "public", "operator:wikidata": "Q668687", "ref": "6720700043"}, "type": "Feature"}
{"geometry": {"coordinates": [-97.2314659, 37.684703], "type": "Point"}, "id": "nCu-Bu49nNPGVqf8Y33Y7AkRzRw=", "properties": {"@source_uri": "https://tools.usps.com/UspsToolsRestServices/rest/POLocator/findLocations", "@spider": "usps_collection_boxes", "addr:city": "WICHITA", "addr:country": "US", "addr:postcode": "67207", "addr:state": "KS", "addr:street_address": "9111 E DOUGLAS AVE", "amenity": "post_box", "collection_times": "Mo-Fr 13:00", "note": "ON 12/24 AND 12/31, THIS BOX MAY BE COLLECTED AS EARLY AS 12 NOON.", "nsi_id": "unitedstatespostalservice-a77078", "operator": "United States Postal Service", "operator:short": "USPS", "operator:type": "public", "operator:wikidata": "Q668687", "ref": "6720700046"}, "type": "Feature"}
{"geometry": {"coordinates": [-97.228983, 37.682443], "type": "Point"}, "id": "0BbQztmZioDpO81XbJdH2ASSjcg=", "properties": {"@source_uri": "https://tools.usps.com/UspsToolsRestServices/rest/POLocator/findLocations", "@spider": "usps_collection_boxes", "addr:city": "WICHITA", "addr:country": "US", "addr:postcode": "67207", "addr:state": "KS", "addr:street_address": "9350 E CORPORATE HILLS DR", "amenity": "post_box", "collection_times": "Mo-Fr 17:30; Sa 17:40", "name": "USPS COLLECTION BOX - APC", "note": "ON 12/24 AND 12/31, THIS BOX MAY BE COLLECTED AS EARLY AS 12 NOON.", "nsi_id": "unitedstatespostalservice-a77078", "operator": "United States Postal Service", "operator:short": "USPS", "operator:type": "public", "operator:wikidata": "Q668687", "ref": "6720700047"}, "type": "Feature"}
{"geometry": {"coordinates": [-97.2219985, 37.709876], "type": "Point"}, "id": "AMcaisHVYGueuQUQt06gd8w7GLU=", "properties": {"@source_uri": "https://tools.usps.com/UspsToolsRestServices/rest/POLocator/findLocations", "@spider": "usps_collection_boxes", "addr:city": "WICHITA", "addr:country": "US", "addr:postcode": "67207", "addr:state": "KS", "addr:street_address": "10096 E 13TH ST N", "amenity": "post_box", "collection_times": "Mo-Fr 14:00", "note": "ON 12/24 AND 12/31, THIS BOX MAY BE COLLECTED AS EARLY AS 12 NOON.", "nsi_id": "unitedstatespostalservice-a77078", "operator": "United States Postal Service", "operator:short": "USPS", "operator:type": "public", "operator:wikidata": "Q668687", "ref": "6720700048"}, "type": "Feature"}
{"geometry": {"coordinates": [-97.228840249, 37.681946494], "type": "Point"}, "id": "iyz4Z6m7OvblnjvZqI93wm29bWA=", "properties": {"@source_uri": "https://tools.usps.com/UspsToolsRestServices/rest/POLocator/findLocations", "@spider": "usps_collection_boxes", "addr:city": "WICHITA", "addr:country": "US", "addr:postcode": "67207", "addr:state": "KS", "addr:street_address": "9350 E CORPORATE HILLS DR", "amenity": "post_box", "collection_times": "Mo-Fr 17:30; Sa 13:00", "indoor": "yes", "note": "ON 12/24 AND 12/31, THIS BOX MAY BE COLLECTED AS EARLY AS 12 NOON.", "nsi_id": "unitedstatespostalservice-a77078", "operator": "United States Postal Service", "operator:short": "USPS", "operator:type": "public", "operator:wikidata": "Q668687", "ref": "6720700052"}, "type": "Feature"}
{"geometry": {"coordinates": [-97.280518, 37.706825], "type": "Point"}, "id": "XXRmXP7VzGJIp5sMqiXmY5wWgH8=", "properties": {"@source_uri": "https://tools.usps.com/UspsToolsRestServices/rest/POLocator/findLocations", "@spider": "usps_collection_boxes", "addr:city": "WICHITA", "addr:country": "US", "addr:postcode": "67208", "addr:state": "KS", "addr:street_address": "1314 N OLIVER AVE", "amenity": "post_box", "collection_times": "Mo-Fr 17:25; Sa 17:30", "note": "ON 12/24 AND 12/31, THIS BOX MAY BE COLLECTED AS EARLY AS 12 NOON.", "nsi_id": "unitedstatespostalservice-a77078", "operator": "United States Postal Service", "operator:short": "USPS", "operator:type": "public", "operator:wikidata": "Q668687", "ref": "6720800001"}, "type": "Feature"}
{"geometry": {"coordinates": [-97.2946514, 37.719312], "type": "Point"}, "id": "1PVXA06BZ747fui7HIP1fcWk3Tg=", "properties": {"@source_uri": "https://tools.usps.com/UspsToolsRestServices/rest/POLocator/findLocations", "@spider": "usps_collection_boxes", "addr:city": "WICHITA", "addr:country": "US", "addr:postcode": "67208", "addr:state": "KS", "addr:street_address": "1845 FAIRMOUNT ST", "amenity": "post_box", "collection_times": "Mo-Fr 16:05", "note": "ON 12/24 AND 12/31, THIS BOX MAY BE COLLECTED AS EARLY AS 12 NOON.", "nsi_id": "unitedstatespostalservice-a77078", "operator": "United States Postal Service", "operator:short": "USPS", "operator:type": "public", "operator:wikidata": "Q668687", "ref": "6720800006"}, "type": "Feature"}
{"geometry": {"coordinates": [-97.2610182, 37.692472], "type": "Point"}, "id": "1bTsScsIxR18Lx0I5Um7boRZAaM=", "properties": {"@source_uri": "https://tools.usps.com/UspsToolsRestServices/rest/POLocator/findLocations", "@spider": "usps_collection_boxes", "addr:city": "WICHITA", "addr:country": "US", "addr:postcode": "67208", "addr:state": "KS", "addr:street_address": "400 N WOODLAWN ST", "amenity": "post_box", "collection_times": "Mo-Fr 15:00", "note": "ON 12/24 AND 12/31, THIS BOX MAY BE COLLECTED AS EARLY AS 12 NOON.", "nsi_id": "unitedstatespostalservice-a77078", "operator": "United States Postal Service", "operator:short": "USPS", "operator:type": "public", "operator:wikidata": "Q668687", "ref": "6720800012"}, "type": "Feature"}
{"geometry": {"coordinates": [-97.2637994, 37.708273], "type": "Point"}, "id": "T0GBatF2PLvHLN6ntuXlhTV0YHQ=", "properties": {"@source_uri": "https://tools.usps.com/UspsToolsRestServices/rest/POLocator/findLocations", "@spider": "usps_collection_boxes", "addr:city": "WICHITA", "addr:country": "US", "addr:postcode": "67208", "addr:state": "KS", "addr:street_address": "6209 E 13TH ST N", "amenity": "post_box", "collection_times": "Mo-Sa 14:00", "note": "ON 12/24 AND 12/31, THIS BOX MAY BE COLLECTED AS EARLY AS 12 NOON.", "nsi_id": "unitedstatespostalservice-a77078", "operator": "United States Postal Service", "operator:short": "USPS", "operator:type": "public", "operator:wikidata": "Q668687", "ref": "6720800036"}, "type": "Feature"}
{"geometry": {"coordinates": [-97.280518, 37.706825], "type": "Point"}, "id": "xdCI740dtLmKBOPMRO_R7ZJ7Hk0=", "properties": {"@source_uri": "https://tools.usps.com/UspsToolsRestServices/rest/POLocator/findLocations", "@spider": "usps_collection_boxes", "addr:city": "WICHITA", "addr:country": "US", "addr:postcode": "67208", "addr:state": "KS", "addr:street_address": "1314 N OLIVER AVE", "amenity": "post_box", "collection_times": "Mo-Fr 17:20; Sa 17:15", "indoor": "yes", "note": "ON 12/24 AND 12/31, THIS BOX MAY BE COLLECTED AS EARLY AS 12 NOON.", "nsi_id": "unitedstatespostalservice-a77078", "operator": "United States Postal Service", "operator:short": "USPS", "operator:type": "public", "operator:wikidata": "Q668687", "ref": "6720800039"}, "type": "Feature"}
{"geometry": {"coordinates": [-97.280518, 37.706825], "type": "Point"}, "id": "GjDCF41RWBoy4EQTzwuTOGzNnFs=", "properties": {"@source_uri": "https://tools.usps.com/UspsToolsRestServices/rest/POLocator/findLocations", "@spider": "usps_collection_boxes", "addr:city": "WICHITA", "addr:country": "US", "addr:postcode": "67208", "addr:state": "KS", "addr:street_address": "1314 N OLIVER AVE", "amenity": "post_box", "collection_times": "Mo-Fr 17:20; Sa 17:15", "indoor": "yes", "note": "ON 12/24 AND 12/31, THIS BOX MAY BE COLLECTED AS EARLY AS 12 NOON.", "nsi_id": "unitedstatespostalservice-a77078", "operator": "United States Postal Service", "operator:short": "USPS", "operator:type": "public", "operator:wikidata": "Q668687", "ref": "6720800040"}, "type": "Feature"}
{"geometry": {"coordinates": [-97.2612134, 37.722079], "type": "Point"}, "id": "VB972022ziPIrlTQTAlwreqHkSM=", "properties": {"@source_uri": "https://tools.usps.com/UspsToolsRestServices/rest/POLocator/findLocations", "@spider": "usps_collection_boxes", "addr:city": "WICHITA", "addr:country": "US", "addr:postcode": "67208", "addr:state": "KS", "addr:street_address": "2100 N WOODLAWN ST", "amenity": "post_box", "collection_times": "Mo-Sa 13:00", "note": "ON 12/24 AND 12/31, THIS BOX MAY BE COLLECTED AS EARLY AS 12 NOON.", "nsi_id": "unitedstatespostalservice-a77078", "operator": "United States Postal Service", "operator:short": "USPS", "operator:type": "public", "operator:wikidata": "Q668687", "ref": "6720800041"}, "type": "Feature"}
{"geometry": {"coordinates": [-97.280515782, 37.706965502], "type": "Point"}, "id": "bqCXHm7FJteI_yuSAK_5Yl2dDHw=", "properties": {"@source_uri": "https://tools.usps.com/UspsToolsRestServices/rest/POLocator/findLocations", "@spider": "usps_collection_boxes", "addr:city": "WICHITA", "addr:country": "US", "addr:postcode": "67208", "addr:state": "KS", "addr:street_address": "1314 N OLIVER AVE", "amenity": "post_box", "collection_times": "Mo-Fr 17:20; Sa 12:00", "indoor": "yes", "note": "ON 12/24 AND 12/31, THIS BOX MAY BE COLLECTED AS EARLY AS 12 NOON.", "nsi_id": "unitedstatespostalservice-a77078", "operator": "United States Postal Service", "operator:short": "USPS", "operator:type": "public", "operator:wikidata": "Q668687", "ref": "6720800047"}, "type": "Feature"}
{"geometry": {"coordinates": [-97.444068, 37.673465], "type": "Point"}, "id": "ItVvrVyKiubugOouiAtF-VJCi9k=", "properties": {"@source_uri": "https://tools.usps.com/UspsToolsRestServices/rest/POLocator/findLocations", "@spider": "usps_collection_boxes", "addr:city": "WICHITA", "addr:country": "US", "addr:postcode": "67209", "addr:state": "KS", "addr:street_address": "626 S TYLER RD", "amenity": "post_box", "collection_times": "Mo-Fr 17:30; Sa 17:20", "note": "ON 12/24 AND 12/31, THIS BOX MAY BE COLLECTED AS EARLY AS 12 NOON.", "nsi_id": "unitedstatespostalservice-a77078", "operator": "United States Postal Service", "operator:short": "USPS", "operator:type": "public", "operator:wikidata": "Q668687", "ref": "6720900000"}, "type": "Feature"}
{"geometry": {"coordinates": [-97.4149699, 37.673241], "type": "Point"}, "id": "nrv68aD8bkFxO7lWpw2Rz2BGfKQ=", "properties": {"@source_uri": "https://tools.usps.com/UspsToolsRestServices/rest/POLocator/findLocations", "@spider": "usps_collection_boxes", "addr:city": "WICHITA", "addr:country": "US", "addr:postcode": "67209", "addr:state": "KS", "addr:street_address": "6200 W KELLOGG DR", "amenity": "post_box", "collection_times": "Mo-Fr 15:35", "note": "ON 12/24 AND 12/31, THIS BOX MAY BE COLLECTED AS EARLY AS 12 NOON.", "nsi_id": "unitedstatespostalservice-a77078", "operator": "United States Postal Service", "operator:short": "USPS", "operator:type": "public", "operator:wikidata": "Q668687", "ref": "6720900012"}, "type": "Feature"}
{"geometry": {"coordinates": [-97.4439899, 37.679897], "type": "Point"}, "id": "qGjVDDHQ7DttOeSjQidpD6Oxux0=", "properties": {"@source_uri": "https://tools.usps.com/UspsToolsRestServices/rest/POLocator/findLocations", "@spider": "usps_collection_boxes", "addr:city": "WICHITA", "addr:country": "US", "addr:postcode": "67209", "addr:state": "KS", "addr:street_address": "242 S TYLER RD", "amenity": "post_box", "collection_times": "Mo-Sa 14:00", "note": "ON 12/24 AND 12/31, THIS BOX MAY BE COLLECTED AS EARLY AS 12 NOON.", "nsi_id": "unitedstatespostalservice-a77078", "operator": "United States Postal Service", "operator:short": "USPS", "operator:type": "public", "operator:wikidata": "Q668687", "ref": "6720900018"}, "type": "Feature"}
{"geometry": {"coordinates": [-97.444068, 37.673465], "type": "Point"}, "id": "fWQX5eoHtDxJARLQyz13-u9Tzf8=", "properties": {"@source_uri": "https://tools.usps.com/UspsToolsRestServices/rest/POLocator/findLocations", "@spider": "usps_collection_boxes", "addr:city": "WICHITA", "addr:country": "US", "addr:postcode": "67209", "addr:state": "KS", "addr:street_address": "626 S TYLER RD", "amenity": "post_box", "collection_times": "Mo-Fr 17:30; Sa 16:20", "indoor": "yes", "note": "ON 12/24 AND 12/31, THIS BOX MAY BE COLLECTED AS EARLY AS 12 NOON.", "nsi_id": "unitedstatespostalservice-a77078", "operator": "United States Postal Service", "operator:short": "USPS", "operator:type": "public", "operator:wikidata": "Q668687", "ref": "6720900028"}, "type": "Feature"}
{"geometry": {"coordinates": [-97.4618722, 37.665833], "type": "Point"}, "id": "QPiNXEus6gNRs705dqpzasIGfoc=", "properties": {"@source_uri": "https://tools.usps.com/UspsToolsRestServices/rest/POLocator/findLocations", "@spider": "usps_collection_boxes", "addr:city": "WICHITA", "addr:country": "US", "addr:postcode": "67209", "addr:state": "KS", "addr:street_address": "1500 S MAIZE RD", "amenity": "post_box", "collection_times": "Mo-Fr 15:00", "note": "ON 12/24 AND 12/31, THIS BOX MAY BE COLLECTED AS EARLY AS 12 NOON.", "nsi_id": "unitedstatespostalservice-a77078", "operator": "United States Postal Service", "operator:short": "USPS", "operator:type": "public", "operator:wikidata": "Q668687", "ref": "6720900032"}, "type": "Feature"}
{"geometry": {"coordinates": [-97.2515339, 37.631215], "type": "Point"}, "id": "xBBq3Zc2QPgel18cyXH6hz7Jv8A=", "properties": {"@source_uri": "https://tools.usps.com/UspsToolsRestServices/rest/POLocator/findLocations", "@spider": "usps_collection_boxes", "addr:city": "WICHITA", "addr:country": "US", "addr:postcode": "67210", "addr:state": "KS", "addr:street_address": "2801 S ROCK RD", "amenity": "post_box", "collection_times": "Mo-Sa 13:00", "note": "ON 12/24 AND 12/31, THIS BOX MAY BE COLLECTED AS EARLY AS 12 NOON.", "nsi_id": "unitedstatespostalservice-a77078", "operator": "United States Postal Service", "operator:short": "USPS", "operator:type": "public", "operator:wikidata": "Q668687", "ref": "6721000005"}, "type": "Feature"}
{"geometry": {"coordinates": [-97.3176347, 37.670951], "type": "Point"}, "id": "cnKA6eNfBwWkbAeX_J4XjB8V4QM=", "properties": {"@source_uri": "https://tools.usps.com/UspsToolsRestServices/rest/POLocator/findLocations", "@spider": "usps_collection_boxes", "addr:city": "WICHITA", "addr:country": "US", "addr:postcode": "67211", "addr:state": "KS", "addr:street_address": "1607 E LINCOLN ST", "amenity": "post_box", "collection_times": "Mo-Sa 11:00", "nsi_id": "unitedstatespostalservice-a77078", "operator": "United States Postal Service", "operator:short": "USPS", "operator:type": "public", "operator:wikidata": "Q668687", "ref": "6721100012"}, "type": "Feature"}
{"geometry": {"coordinates": [-97.4446682, 37.693286], "type": "Point"}, "id": "42OHdc7f6YD837z3j9cOB-EZQKE=", "properties": {"@source_uri": "https://tools.usps.com/UspsToolsRestServices/rest/POLocator/findLocations", "@spider": "usps_collection_boxes", "addr:city": "WICHITA", "addr:country": "US", "addr:postcode": "67212", "addr:state": "KS", "addr:street_address": "8977 W CENTRAL AVE", "amenity": "post_box", "collection_times": "Mo-Sa 14:00", "note": "ON 12/24 AND 12/31, THIS BOX MAY BE COLLECTED AS EARLY AS 12 NOON.", "nsi_id": "unitedstatespostalservice-a77078", "operator": "United States Postal Service", "operator:short": "USPS", "operator:type": "public", "operator:wikidata": "Q668687", "ref": "6721200004"}, "type": "Feature"}
{"geometry": {"coordinates": [-97.4459169, 37.708952], "type": "Point"}, "id": "y-ftfSIDX4kZlGQ7_72FENqlEhQ=", "properties": {"@source_uri": "https://tools.usps.com/UspsToolsRestServices/rest/POLocator/findLocations", "@spider": "usps_collection_boxes", "addr:city": "WICHITA", "addr:country": "US", "addr:postcode": "67212", "addr:state": "KS", "addr:street_address": "8828 W 13TH ST N", "amenity": "post_box", "collection_times": "Mo-Fr 17:00; Sa 16:15", "note": "ON 12/24 AND 12/31, THIS BOX MAY BE COLLECTED AS EARLY AS 12 NOON.", "nsi_id": "unitedstatespostalservice-a77078", "operator": "United States Postal Service", "operator:short": "USPS", "operator:type": "public", "operator:wikidata": "Q668687", "ref": "6721200013"}, "type": "Feature"}
{"geometry": {"coordinates": [-97.4331487, 37.7150585], "type": "Point"}, "id": "yjFis8v0fm7CtGXNnwbRsb6U3ys=", "properties": {"@source_uri": "https://tools.usps.com/UspsToolsRestServices/rest/POLocator/findLocations", "@spider": "usps_collection_boxes", "addr:city": "WICHITA", "addr:country": "US", "addr:postcode": "67212", "addr:state": "KS", "addr:street_address": "10515 W CENTRAL AVE", "amenity": "post_box", "collection_times": "Mo-Fr 17:00; Sa 16:45", "note": "ON 12/24 AND 12/31, THIS BOX MAY BE COLLECTED AS EARLY AS 12 NOON.", "nsi_id": "unitedstatespostalservice-a77078", "operator": "United States Postal Service", "operator:short": "USPS", "operator:type": "public", "operator:wikidata": "Q668687", "ref": "6721200020"}, "type": "Feature"}
{"geometry": {"coordinates": [-97.4631216, 37.707916], "type": "Point"}, "id": "9zQqy5n8cp18xdHvMLLzBgxcBTA=", "properties": {"@source_uri": "https://tools.usps.com/UspsToolsRestServices/rest/POLocator/findLocations", "@spider": "usps_collection_boxes", "addr:city": "WICHITA", "addr:country": "US", "addr:postcode": "67212", "addr:state": "KS", "addr:street_address": "10405 W 13TH ST N", "amenity": "post_box", "collection_times": "Mo-Fr 14:30", "note": "ON 12/24 AND 12/31, THIS BOX MAY BE COLLECTED AS EARLY AS 12 NOON.", "nsi_id": "unitedstatespostalservice-a77078", "operator": "United States Postal Service", "operator:short": "USPS", "operator:type": "public", "operator:wikidata": "Q668687", "ref": "6721200021"}, "type": "Feature"}
{"geometry": {"coordinates": [-97.3696269, 37.651201], "type": "Point"}, "id": "c1HtpsKGeoMj2C-vLWo3SW6_0T4=", "properties": {"@source_uri": "https://tools.usps.com/UspsToolsRestServices/rest/POLocator/findLocations", "@spider": "usps_collection_boxes", "addr:city": "WICHITA", "addr:country": "US", "addr:postcode": "67213", "addr:state": "KS", "addr:street_address": "2301 W PAWNEE ST", "amenity": "post_box", "collection_times": "Mo-Sa 10:00", "nsi_id": "unitedstatespostalservice-a77078", "operator": "United States Postal Service", "operator:short": "USPS", "operator:type": "public", "operator:wikidata": "Q668687", "ref": "6721300007"}, "type": "Feature"}
{"geometry": {"coordinates": [-97.3718625226, 37.6838165423], "type": "Point"}, "id": "SwlR2fTmsPGWAKwEEvXwByUWs80=", "properties": {"@source_uri": "https://tools.usps.com/UspsToolsRestServices/rest/POLocator/findLocations", "@spider": "usps_collection_boxes", "addr:city": "WICHITA", "addr:country": "US", "addr:postcode": "67213", "addr:state": "KS", "addr:street_address": "2525 W DOUGLAS AVE", "amenity": "post_box", "collection_times": "Mo-Fr 15:00", "note": "ON 12/24 AND 12/31, THIS BOX MAY BE COLLECTED AS EARLY AS 12 NOON.", "nsi_id": "unitedstatespostalservice-a77078", "operator": "United States Postal Service", "operator:short": "USPS", "operator:type": "public", "operator:wikidata": "Q668687", "ref": "6721300028"}, "type": "Feature"}
{"geometry": {"coordinates": [-97.3886161, 37.680468], "type": "Point"}, "id": "Dy0A2x9-rIEi7grnzRJlW021eJY=", "properties": {"@source_uri": "https://tools.usps.com/UspsToolsRestServices/rest/POLocator/findLocations", "@spider": "usps_collection_boxes", "addr:city": "WICHITA", "addr:country": "US", "addr:postcode": "67213", "addr:state": "KS", "addr:street_address": "240 S WEST ST", "amenity": "post_box", "collection_times": "Mo-Fr 15:40", "note": "ON 12/24 AND 12/31, THIS BOX MAY BE COLLECTED AS EARLY AS 12 NOON.", "nsi_id": "unitedstatespostalservice-a77078", "operator": "United States Postal Service", "operator:short": "USPS", "operator:type": "public", "operator:wikidata": "Q668687", "ref": "6721300031"}, "type": "Feature"}
{"geometry": {"coordinates": [-97.2991669, 37.687035], "type": "Point"}, "id": "aeWoZw9xU2y6FO7vo13OlWUppjA=", "properties": {"@source_uri": "https://tools.usps.com/UspsToolsRestServices/rest/POLocator/findLocations", "@spider": "usps_collection_boxes", "addr:city": "WICHITA", "addr:country": "US", "addr:postcode": "67214", "addr:state": "KS", "addr:street_address": "3020 E DOUGLAS AVE", "amenity": "post_box", "collection_times": "Mo-Fr 17:00; Sa 13:30", "note": "ON 12/24 AND 12/31, THIS BOX MAY BE COLLECTED AS EARLY AS 12 NOON.", "nsi_id": "unitedstatespostalservice-a77078", "operator": "United States Postal Service", "operator:short": "USPS", "operator:type": "public", "operator:wikidata": "Q668687", "ref": "6721400034"}, "type": "Feature"}
{"geometry": {"coordinates": [-97.3329765, 37.698346], "type": "Point"}, "id": "oWg6HTDLNIk-_GFD3UKcPq50yA8=", "properties": {"@source_uri": "https://tools.usps.com/UspsToolsRestServices/rest/POLocator/findLocations", "@spider": "usps_collection_boxes", "addr:city": "WICHITA", "addr:country": "US", "addr:postcode": "67214", "addr:state": "KS", "addr:street_address": "818 N EMPORIA ST", "amenity": "post_box", "collection_times": "Mo-Fr 13:00", "note": "ON 12/24 AND 12/31, THIS BOX MAY BE COLLECTED AS EARLY AS 12 NOON.", "nsi_id": "unitedstatespostalservice-a77078", "operator": "United States Postal Service", "operator:short": "USPS", "operator:type": "public", "operator:wikidata": "Q668687", "ref": "6721400052"}, "type": "Feature"}
{"geometry": {"coordinates": [-97.3173363, 37.634276], "type": "Point"}, "id": "MqNJnPE4QNQp-SN6Tpp49c-cr_g=", "properties": {"@source_uri": "https://tools.usps.com/UspsToolsRestServices/rest/POLocator/findLocations", "@spider": "usps_collection_boxes", "addr:city": "WICHITA", "addr:country": "US", "addr:postcode": "67216", "addr:state": "KS", "addr:street_address": "3241 S HYDRAULIC ST", "amenity": "post_box", "collection_times": "Mo-Fr 17:30; Sa 17:15", "note": "ON 12/24 AND 12/31, THIS BOX MAY BE COLLECTED AS EARLY AS 12 NOON.", "nsi_id": "unitedstatespostalservice-a77078", "operator": "United States Postal Service", "operator:short": "USPS", "operator:type": "public", "operator:wikidata": "Q668687", "ref": "6721600001"}, "type": "Feature"}
{"geometry": {"coordinates": [-97.317694, 37.634446], "type": "Point"}, "id": "pXddge0Wq-hzNe4XYdloRYZNppE=", "properties": {"@source_uri": "https://tools.usps.com/UspsToolsRestServices/rest/POLocator/findLocations", "@spider": "usps_collection_boxes", "addr:city": "WICHITA", "addr:country": "US", "addr:postcode": "67216", "addr:state": "KS", "addr:street_address": "3241 S HYDRAULIC ST", "amenity": "post_box", "collection_times": "Mo-Fr 16:55; Sa 15:20", "indoor": "yes", "note": "ON 12/24 AND 12/31, THIS BOX MAY BE COLLECTED AS EARLY AS 12 NOON.", "nsi_id": "unitedstatespostalservice-a77078", "operator": "United States Postal Service", "operator:short": "USPS", "operator:type": "public", "operator:wikidata": "Q668687", "ref": "6721600013"}, "type": "Feature"}
{"geometry": {"coordinates": [-97.3178287, 37.634462], "type": "Point"}, "id": "mV-GtPJPbCZB6Y7n73yUI2ln_Kg=", "properties": {"@source_uri": "https://tools.usps.com/UspsToolsRestServices/rest/POLocator/findLocations", "@spider": "usps_collection_boxes", "addr:city": "WICHITA", "addr:country": "US", "addr:postcode": "67216", "addr:state": "KS", "addr:street_address": "3241 S HYDRAULIC ST", "amenity": "post_box", "collection_times": "Mo-Fr 16:55; Sa 15:20", "indoor": "yes", "note": "ON 12/24 AND 12/31, THIS BOX MAY BE COLLECTED AS EARLY AS 12 NOON.", "nsi_id": "unitedstatespostalservice-a77078", "operator": "United States Postal Service", "operator:short": "USPS", "operator:type": "public", "operator:wikidata": "Q668687", "ref": "6721600014"}, "type": "Feature"}
{"geometry": {"coordinates": [-97.317135663, 37.634318749], "type": "Point"}, "id": "7eaA-kCvj2J6XRMYdEtkad30GUA=", "properties": {"@source_uri": "https://tools.usps.com/UspsToolsRestServices/rest/POLocator/findLocations", "@spider": "usps_collection_boxes", "addr:city": "WICHITA", "addr:country": "US", "addr:postcode": "67216", "addr:state": "KS", "addr:street_address": "3241 S HYDRAULIC ST", "amenity": "post_box", "collection_times": "Mo-Fr 16:55; Sa 12:00", "indoor": "yes", "note": "ON 12/24 AND 12/31, THIS BOX MAY BE COLLECTED AS EARLY AS 12 NOON.", "nsi_id": "unitedstatespostalservice-a77078", "operator": "United States Postal Service", "operator:short": "USPS", "operator:type": "public", "operator:wikidata": "Q668687", "ref": "6721600015"}, "type": "Feature"}
{"geometry": {"coordinates": [-97.3568959, 37.650692], "type": "Point"}, "id": "0psk_7TE8jwOJjM2V-aBAzwtsJE=", "properties": {"@source_uri": "https://tools.usps.com/UspsToolsRestServices/rest/POLocator/findLocations", "@spider": "usps_collection_boxes", "addr:city": "WICHITA", "addr:country": "US", "addr:postcode": "67217", "addr:state": "KS", "addr:street_address": "2510 S ELIZABETH AVE", "amenity": "post_box", "collection_times": "Mo-Fr 17:00; Sa 16:20", "note": "ON 12/24 AND 12/31, THIS BOX MAY BE COLLECTED AS EARLY AS 12 NOON.", "nsi_id": "unitedstatespostalservice-a77078", "operator": "United States Postal Service", "operator:short": "USPS", "operator:type": "public", "operator:wikidata": "Q668687", "ref": "6721700002"}, "type": "Feature"}
{"geometry": {"coordinates": [-97.3528116, 37.63612], "type": "Point"}, "id": "1i48JXcQB45zm-Uhmfmua-AHU7c=", "properties": {"@source_uri": "https://tools.usps.com/UspsToolsRestServices/rest/POLocator/findLocations", "@spider": "usps_collection_boxes", "addr:city": "WICHITA", "addr:country": "US", "addr:postcode": "67217", "addr:state": "KS", "addr:street_address": "3211 S SENECA ST", "amenity": "post_box", "collection_times": "Mo-Fr 14:30", "note": "ON 12/24 AND 12/31, THIS BOX MAY BE COLLECTED AS EARLY AS 12 NOON.", "nsi_id": "unitedstatespostalservice-a77078", "operator": "United States Postal Service", "operator:short": "USPS", "operator:type": "public", "operator:wikidata": "Q668687", "ref": "6721700005"}, "type": "Feature"}
{"geometry": {"coordinates": [-97.3720657, 37.62263], "type": "Point"}, "id": "JnZpF2-3gGa8DArQJmr1rd-70zY=", "properties": {"@source_uri": "https://tools.usps.com/UspsToolsRestServices/rest/POLocator/findLocations", "@spider": "usps_collection_boxes", "addr:city": "WICHITA", "addr:country": "US", "addr:postcode": "67217", "addr:state": "KS", "addr:street_address": "3945 S MERIDIAN AVE", "amenity": "post_box", "collection_times": "Mo-Fr 14:25", "note": "ON 12/24 AND 12/31, THIS BOX MAY BE COLLECTED AS EARLY AS 12 NOON.", "nsi_id": "unitedstatespostalservice-a77078", "operator": "United States Postal Service", "operator:short": "USPS", "operator:type": "public", "operator:wikidata": "Q668687", "ref": "6721700008"}, "type": "Feature"}
{"geometry": {"coordinates": [-97.3564119811, 37.6502169937], "type": "Point"}, "id": "Wf7fn2pE82Bk126uIoINR019htg=", "properties": {"@source_uri": "https://tools.usps.com/UspsToolsRestServices/rest/POLocator/findLocations", "@spider": "usps_collection_boxes", "addr:city": "WICHITA", "addr:country": "US", "addr:postcode": "67217", "addr:state": "KS", "addr:street_address": "2510 S ELIZABETH AVE", "amenity": "post_box", "collection_times": "Mo-Fr 17:00; Sa 16:20", "note": "ON 12/24 AND 12/31, THIS BOX MAY BE COLLECTED AS EARLY AS 12 NOON.", "nsi_id": "unitedstatespostalservice-a77078", "operator": "United States Postal Service", "operator:short": "USPS", "operator:type": "public", "operator:wikidata": "Q668687", "ref": "6721700018"}, "type": "Feature"}
{"geometry": {"coordinates": [-97.3890093, 37.641404], "type": "Point"}, "id": "S4tezVleaUoyqsqTR_0-O3RGXTw=", "properties": {"@source_uri": "https://tools.usps.com/UspsToolsRestServices/rest/POLocator/findLocations", "@spider": "usps_collection_boxes", "addr:city": "WICHITA", "addr:country": "US", "addr:postcode": "67217", "addr:state": "KS", "addr:street_address": "3930 W 29TH ST S", "amenity": "post_box", "collection_times": "Mo-Fr 10:00", "nsi_id": "unitedstatespostalservice-a77078", "operator": "United States Postal Service", "operator:short": "USPS", "operator:type": "public", "operator:wikidata": "Q668687", "ref": "6721700021"}, "type": "Feature"}
{"geometry": {"coordinates": [-97.35720675, 37.6500684446], "type": "Point"}, "id": "6dTJIdd_c_NCkJlVs7NgKn9Cb5Q=", "properties": {"@source_uri": "https://tools.usps.com/UspsToolsRestServices/rest/POLocator/findLocations", "@spider": "usps_collection_boxes", "addr:city": "WICHITA", "addr:country": "US", "addr:postcode": "67217", "addr:state": "KS", "addr:street_address": "2510 S ELIZABETH AVE", "amenity": "post_box", "collection_times": "Mo-Fr 17:05; Sa 12:05", "indoor": "yes", "note": "ON 12/24 AND 12/31, THIS BOX MAY BE COLLECTED AS EARLY AS 12 NOON.", "nsi_id": "unitedstatespostalservice-a77078", "operator": "United States Postal Service", "operator:short": "USPS", "operator:type": "public", "operator:wikidata": "Q668687", "ref": "6721700027"}, "type": "Feature"}
{"geometry": {"coordinates": [-97.2713367068, 37.6713170733], "type": "Point"}, "id": "AhRyFzGIFwy9vI1ETxo5C3Q_4nc=", "properties": {"@source_uri": "https://tools.usps.com/UspsToolsRestServices/rest/POLocator/findLocations", "@spider": "usps_collection_boxes", "addr:city": "WICHITA", "addr:country": "US", "addr:postcode": "67218", "addr:state": "KS", "addr:street_address": "903 S EDGEMOOR ST", "amenity": "post_box", "collection_times": "Mo-Fr 13:00", "note": "ON 12/24 AND 12/31, THIS BOX MAY BE COLLECTED AS EARLY AS 12 NOON.", "nsi_id": "unitedstatespostalservice-a77078", "operator": "United States Postal Service", "operator:short": "USPS", "operator:type": "public", "operator:wikidata": "Q668687", "ref": "6721800002"}, "type": "Feature"}
{"geometry": {"coordinates": [-97.2725678, 37.664839], "type": "Point"}, "id": "2ZeY3WdL-wHKAVNc1W34UUn3Ys0=", "properties": {"@source_uri": "https://tools.usps.com/UspsToolsRestServices/rest/POLocator/findLocations", "@spider": "usps_collection_boxes", "addr:city": "WICHITA", "addr:country": "US", "addr:postcode": "67218", "addr:state": "KS", "addr:street_address": "5500 E HARRY ST", "amenity": "post_box", "collection_times": "Mo-Sa 15:00", "note": "ON 12/24 AND 12/31, THIS BOX MAY BE COLLECTED AS EARLY AS 12 NOON.", "nsi_id": "unitedstatespostalservice-a77078", "operator": "United States Postal Service", "operator:short": "USPS", "operator:type": "public", "operator:wikidata": "Q668687", "ref": "6721800004"}, "type": "Feature"}
{"geometry": {"coordinates": [-97.2803224, 37.67033], "type": "Point"}, "id": "80j0C2QMBW4NpKUOyIi7DjbmnDo=", "properties": {"@source_uri": "https://tools.usps.com/UspsToolsRestServices/rest/POLocator/findLocations", "@spider": "usps_collection_boxes", "addr:city": "WICHITA", "addr:country": "US", "addr:postcode": "67218", "addr:state": "KS", "addr:street_address": "952 S OLIVER ST", "amenity": "post_box", "collection_times": "Mo-Fr 15:00; Sa 13:45", "note": "ON 12/24 AND 12/31, THIS BOX MAY BE COLLECTED AS EARLY AS 12 NOON.", "nsi_id": "unitedstatespostalservice-a77078", "operator": "United States Postal Service", "operator:short": "USPS", "operator:type": "public", "operator:wikidata": "Q668687", "ref": "6721800006"}, "type": "Feature"}
{"geometry": {"coordinates": [-97.2918042829, 37.664506609], "type": "Point"}, "id": "y8j8rMbbaU45_lPCvNT8Cd3flqo=", "properties": {"@source_uri": "https://tools.usps.com/UspsToolsRestServices/rest/POLocator/findLocations", "@spider": "usps_collection_boxes", "addr:city": "WICHITA", "addr:country": "US", "addr:postcode": "67218", "addr:state": "KS", "addr:street_address": "3805 E HARRY ST", "amenity": "post_box", "collection_times": "Mo-Sa 14:00", "note": "ON 12/24 AND 12/31, THIS BOX MAY BE COLLECTED AS EARLY AS 12 NOON.", "nsi_id": "unitedstatespostalservice-a77078", "operator": "United States Postal Service", "operator:short": "USPS", "operator:type": "public", "operator:wikidata": "Q668687", "ref": "6721800010"}, "type": "Feature"}
{"geometry": {"coordinates": [-97.335947777, 37.797128361], "type": "Point"}, "id": "jfPeW03x4id-pwSSMdXTpD4xI6s=", "properties": {"@source_uri": "https://tools.usps.com/UspsToolsRestServices/rest/POLocator/findLocations", "@spider": "usps_collection_boxes", "addr:city": "PARK CITY", "addr:country": "US", "addr:postcode": "67219", "addr:state": "KS", "addr:street_address": "6223 N BROADWAY AVE", "amenity": "post_box", "collection_times": "Mo-Fr 18:35; Sa 15:50", "indoor": "yes", "note": "ON 12/24 AND 12/31, THIS BOX MAY BE COLLECTED AS EARLY AS 12 NOON.", "nsi_id": "unitedstatespostalservice-a77078", "operator": "United States Postal Service", "operator:short": "USPS", "operator:type": "public", "operator:wikidata": "Q668687", "ref": "6721900002"}, "type": "Feature"}
{"geometry": {"coordinates": [-97.3362019, 37.797282], "type": "Point"}, "id": "F746Y69n6MSzPLDBf1KvP3_MJKc=", "properties": {"@source_uri": "https://tools.usps.com/UspsToolsRestServices/rest/POLocator/findLocations", "@spider": "usps_collection_boxes", "addr:city": "PARK CITY", "addr:country": "US", "addr:postcode": "67219", "addr:state": "KS", "addr:street_address": "6223 N BROADWAY AVE", "amenity": "post_box", "collection_times": "Mo-Fr 17:00; Sa 15:50", "note": "ON 12/24 AND 12/31, THIS BOX MAY BE COLLECTED AS EARLY AS 12 NOON.", "nsi_id": "unitedstatespostalservice-a77078", "operator": "United States Postal Service", "operator:short": "USPS", "operator:type": "public", "operator:wikidata": "Q668687", "ref": "6721900003"}, "type": "Feature"}
{"geometry": {"coordinates": [-97.3360617, 37.735765], "type": "Point"}, "id": "mv4wjg10SiPOdtDUQSEHdHVcr-w=", "properties": {"@source_uri": "https://tools.usps.com/UspsToolsRestServices/rest/POLocator/findLocations", "@spider": "usps_collection_boxes", "addr:city": "PARK CITY", "addr:country": "US", "addr:postcode": "67219", "addr:state": "KS", "addr:street_address": "2901 N BROADWAY AVE", "amenity": "post_box", "collection_times": "Mo-Fr 14:10; Sa 13:15", "note": "ON 12/24 AND 12/31, THIS BOX MAY BE COLLECTED AS EARLY AS 12 NOON.", "nsi_id": "unitedstatespostalservice-a77078", "operator": "United States Postal Service", "operator:short": "USPS", "operator:type": "public", "operator:wikidata": "Q668687", "ref": "6721900005"}, "type": "Feature"}
{"geometry": {"coordinates": [-97.3172446, 37.796197], "type": "Point"}, "id": "uXBMHnpWeKy8xG_3MqSjUhwMrbs=", "properties": {"@source_uri": "https://tools.usps.com/UspsToolsRestServices/rest/POLocator/findLocations", "@spider": "usps_collection_boxes", "addr:city": "PARK CITY", "addr:country": "US", "addr:postcode": "67219", "addr:state": "KS", "addr:street_address": "1704 E 61ST ST N", "amenity": "post_box", "collection_times": "Mo-Fr 17:00", "note": "ON 12/24 AND 12/31, THIS BOX MAY BE COLLECTED AS EARLY AS 12 NOON.", "nsi_id": "unitedstatespostalservice-a77078", "operator": "United States Postal Service", "operator:short": "USPS", "operator:type": "public", "operator:wikidata": "Q668687", "ref": "6721900008"}, "type": "Feature"}
{"geometry": {"coordinates": [-97.264049024, 37.7507570003], "type": "Point"}, "id": "M8Y-otKn7dgJgYwbQE4yvJWOPFQ=", "properties": {"@source_uri": "https://tools.usps.com/UspsToolsRestServices/rest/POLocator/findLocations", "@spider": "usps_collection_boxes", "addr:city": "WICHITA", "addr:country": "US", "addr:postcode": "67220", "addr:state": "KS", "addr:street_address": "3707 N WOODLAWN BLVD", "amenity": "post_box", "collection_times": "Mo-Sa 13:00", "note": "ON 12/24 AND 12/31, THIS BOX MAY BE COLLECTED AS EARLY AS 12 NOON.", "nsi_id": "unitedstatespostalservice-a77078", "operator": "United States Postal Service", "operator:short": "USPS", "operator:type": "public", "operator:wikidata": "Q668687", "ref": "6722000001"}, "type": "Feature"}
{"geometry": {"coordinates": [-97.2449041, 37.736418], "type": "Point"}, "id": "xO1o5pr_eQSyYHp8mARiq57i0tk=", "properties": {"@source_uri": "https://tools.usps.com/UspsToolsRestServices/rest/POLocator/findLocations", "@spider": "usps_collection_boxes", "addr:city": "WICHITA", "addr:country": "US", "addr:postcode": "67226", "addr:state": "KS", "addr:street_address": "2945 N ROCK RD", "amenity": "post_box", "collection_times": "Mo-Sa 14:00", "note": "ON 12/24 AND 12/31, THIS BOX MAY BE COLLECTED AS EARLY AS 12 NOON.", "nsi_id": "unitedstatespostalservice-a77078", "operator": "United States Postal Service", "operator:short": "USPS", "operator:type": "public", "operator:wikidata": "Q668687", "ref": "6722600000"}, "type": "Feature"}
{"geometry": {"coordinates": [-97.2436661, 37.752498], "type": "Point"}, "id": "FXvq4OA3qW8z3jLxTdZ7_kPK5GY=", "properties": {"@source_uri": "https://tools.usps.com/UspsToolsRestServices/rest/POLocator/findLocations", "@spider": "usps_collection_boxes", "addr:city": "WICHITA", "addr:country": "US", "addr:postcode": "67226", "addr:state": "KS", "addr:street_address": "3820 N ROCK RD", "amenity": "post_box", "collection_times": "Mo-Sa 10:00", "nsi_id": "unitedstatespostalservice-a77078", "operator": "United States Postal Service", "operator:short": "USPS", "operator:type": "public", "operator:wikidata": "Q668687", "ref": "6722600007"}, "type": "Feature"}
{"geometry": {"coordinates": [-97.2424223, 37.74625], "type": "Point"}, "id": "cNbIK9Uw7DO2fo2TMl5kLJD3qOI=", "properties": {"@source_uri": "https://tools.usps.com/UspsToolsRestServices/rest/POLocator/findLocations", "@spider": "usps_collection_boxes", "addr:city": "WICHITA", "addr:country": "US", "addr:postcode": "67226", "addr:state": "KS", "addr:street_address": "3450 N ROCK RD", "amenity": "post_box", "collection_times": "Mo-Fr 10:00", "nsi_id": "unitedstatespostalservice-a77078", "operator": "United States Postal Service", "operator:short": "USPS", "operator:type": "public", "operator:wikidata": "Q668687", "ref": "6722600013"}, "type": "Feature"}
{"geometry": {"coordinates": [-97.2420919, 37.755069], "type": "Point"}, "id": "aW7BMMBJO2Sw9weF6IeVygTTJ4U=", "properties": {"@source_uri": "https://tools.usps.com/UspsToolsRestServices/rest/POLocator/findLocations", "@spider": "usps_collection_boxes", "addr:city": "WICHITA", "addr:country": "US", "addr:postcode": "67226", "addr:state": "KS", "addr:street_address": "8200 E THORN DR", "amenity": "post_box", "collection_times": "Mo-Fr 10:00", "nsi_id": "unitedstatespostalservice-a77078", "operator": "United States Postal Service", "operator:short": "USPS", "operator:type": "public", "operator:wikidata": "Q668687", "ref": "6722600027"}, "type": "Feature"}
{"geometry": {"coordinates": [-97.4970354, 37.678026], "type": "Point"}, "id": "0eWV01EazdD9BzFq0AZ6Zac7RGM=", "properties": {"@source_uri": "https://tools.usps.com/UspsToolsRestServices/rest/POLocator/findLocations", "@spider": "usps_collection_boxes", "addr:city": "WICHITA", "addr:country": "US", "addr:postcode": "67235", "addr:state": "KS", "addr:street_address": "13415 W MAPLE ST", "amenity": "post_box", "collection_times": "Mo-Fr 17:00; Sa 16:50", "note": "ON 12/24 AND 12/31, THIS BOX MAY BE COLLECTED AS EARLY AS 12 NOON.", "nsi_id": "unitedstatespostalservice-a77078", "operator": "United States Postal Service", "operator:short": "USPS", "operator:type": "public", "operator:wikidata": "Q668687", "ref": "6723500000"}, "type": "Feature"}
{"geometry": {"coordinates": [-97.424341, 37.665334], "type": "Point"}, "id": "HU9DinvWpf17CUAQRv5AYS4zQYk=", "properties": {"@source_uri": "https://tools.usps.com/UspsToolsRestServices/rest/POLocator/findLocations", "@spider": "usps_collection_boxes", "addr:city": "WICHITA", "addr:country": "US", "addr:postcode": "67276", "addr:state": "KS", "addr:street_address": "7117 W HARRY ST", "amenity": "post_box", "collection_times": "Mo-Sa 20:00", "indoor": "yes", "note": "ON 12/24 AND 12/31, THIS BOX MAY BE COLLECTED AS EARLY AS 12 NOON.", "nsi_id": "unitedstatespostalservice-a77078", "operator": "United States Postal Service", "operator:short": "USPS", "operator:type": "public", "operator:wikidata": "Q668687", "ref": "6727600000"}, "type": "Feature"}
{"geometry": {"coordinates": [-97.4240689, 37.665077], "type": "Point"}, "id": "fTUKqfzxfM9SIk1qoJNnPSs3njk=", "properties": {"@source_uri": "https://tools.usps.com/UspsToolsRestServices/rest/POLocator/findLocations", "@spider": "usps_collection_boxes", "addr:city": "WICHITA", "addr:country": "US", "addr:postcode": "67276", "addr:state": "KS", "addr:street_address": "7117 W HARRY ST", "amenity": "post_box", "collection_times": "Mo-Sa 20:00", "name": "USPS COLLECTION BOX - EXPRESS", "note": "ON 12/24 AND 12/31, THIS BOX MAY BE COLLECTED AS EARLY AS 12 NOON.", "nsi_id": "unitedstatespostalservice-a77078", "operator": "United States Postal Service", "operator:short": "USPS", "operator:type": "public", "operator:wikidata": "Q668687", "ref": "6727600001"}, "type": "Feature"}
{"geometry": {"coordinates": [-97.4240789, 37.665076], "type": "Point"}, "id": "2I6v5v-VzenkrWYZqe_3pm_J4Ng=", "properties": {"@source_uri": "https://tools.usps.com/UspsToolsRestServices/rest/POLocator/findLocations", "@spider": "usps_collection_boxes", "addr:city": "WICHITA", "addr:country": "US", "addr:postcode": "67276", "addr:state": "KS", "addr:street_address": "7117 W HARRY ST", "amenity": "post_box", "collection_times": "Mo-Sa 20:00", "note": "ON 12/24 AND 12/31, THIS BOX MAY BE COLLECTED AS EARLY AS 12 NOON.", "nsi_id": "unitedstatespostalservice-a77078", "operator": "United States Postal Service", "operator:short": "USPS", "operator:type": "public", "operator:wikidata": "Q668687", "ref": "6727600002"}, "type": "Feature"}
{"geometry": {"coordinates": [-97.4239757, 37.664937], "type": "Point"}, "id": "ZOpo9vXAqG6xvf0rO58v-uTVqqs=", "properties": {"@source_uri": "https://tools.usps.com/UspsToolsRestServices/rest/POLocator/findLocations", "@spider": "usps_collection_boxes", "addr:city": "WICHITA", "addr:country": "US", "addr:postcode": "67276", "addr:state": "KS", "addr:street_address": "7117 W HARRY ST", "amenity": "post_box", "collection_times": "Mo-Sa 20:00", "name": "USPS COLLECTION BOX - APC", "note": "ON 12/24 AND 12/31, THIS BOX MAY BE COLLECTED AS EARLY AS 12 NOON.", "nsi_id": "unitedstatespostalservice-a77078", "operator": "United States Postal Service", "operator:short": "USPS", "operator:type": "public", "operator:wikidata": "Q668687", "ref": "6727600005"}, "type": "Feature"}
{"geometry": {"coordinates": [-97.424262, 37.665287791], "type": "Point"}, "id": "I8OXYW_dI0SJYa95d1A1VZGKY6Q=", "properties": {"@source_uri": "https://tools.usps.com/UspsToolsRestServices/rest/POLocator/findLocations", "@spider": "usps_collection_boxes", "addr:city": "WICHITA", "addr:country": "US", "addr:postcode": "67276", "addr:state": "KS", "addr:street_address": "7117 W HARRY ST", "amenity": "post_box", "collection_times": "Mo-Fr 17:30; Sa 14:00", "indoor": "yes", "note": "ON 12/24 AND 12/31, THIS BOX MAY BE COLLECTED AS EARLY AS 12 NOON.", "nsi_id": "unitedstatespostalservice-a77078", "operator": "United States Postal Service", "operator:short": "USPS", "operator:type": "public", "operator:wikidata": "Q668687", "ref": "6727600006"}, "type": "Feature"}
{"geometry": {"coordinates": [-97.424262, 37.6652877911], "type": "Point"}, "id": "odrL3vm3j3VofAxo6m6LubsLgT0=", "properties": {"@source_uri": "https://tools.usps.com/UspsToolsRestServices/rest/POLocator/findLocations", "@spider": "usps_collection_boxes", "addr:city": "WICHITA", "addr:country": "US", "addr:postcode": "67276", "addr:state": "KS", "addr:street_address": "7117 W HARRY ST", "amenity": "post_box", "collection_times": "Mo-Sa 20:00", "name": "USPS COLLECTION BOX - APC", "note": "ON 12/24 AND 12/31, THIS BOX MAY BE COLLECTED AS EARLY AS 12 NOON.", "nsi_id": "unitedstatespostalservice-a77078", "operator": "United States Postal Service", "operator:short": "USPS", "operator:type": "public", "operator:wikidata": "Q668687", "ref": "6727600007"}, "type": "Feature"}
