{"dataset_attributes": {"@spider": "usps_collection_boxes", "spider:collection_time": "2023-09-19T08:25:58.007339"}, "geometry": {"coordinates": [-95.706401, 37.225619], "type": "Point"}, "id": "uLYuMalDdhpkCu8aFXBMGMd9ZEc=", "properties": {"@spider": "usps_collection_boxes", "addr:city": "INDEPENDENCE", "addr:country": "US", "addr:full": "116 E LAUREL ST", "addr:postcode": "67301", "addr:state": "KS", "amenity": "post_box", "brand": "United States Postal Service", "brand:wikidata": "Q668687", "collection_times": "Mo-Sa 16:50", "name": "USPS COLLECTION BOX - BLUE BOX", "note": "ON 12/24 AND 12/31, THIS BOX MAY BE COLLECTED AS EARLY AS 12 NOON.", "nsi_id": "unitedstatespostalservice-a77078", "operator": "United States Postal Service", "operator:short": "USPS", "operator:type": "public", "operator:wikidata": "Q668687", "ref": "6730100004"}, "type": "Feature"}
{"dataset_attributes": {"@spider": "usps_collection_boxes", "spider:collection_time": "2023-09-19T08:25:58.007339"}, "geometry": {"coordinates": [-95.706401, 37.225619], "type": "Point"}, "id": "VOfufMmdBsK6VlR3LGu8ukToEwY=", "properties": {"@spider": "usps_collection_boxes", "addr:city": "INDEPENDENCE", "addr:country": "US", "addr:full": "116 E LAUREL ST", "addr:postcode": "67301", "addr:state": "KS", "amenity": "post_box", "brand": "United States Postal Service", "brand:wikidata": "Q668687", "collection_times": "Mo-Sa 16:50", "name": "USPS COLLECTION BOX - BLUE BOX", "note": "ON 12/24 AND 12/31, THIS BOX MAY BE COLLECTED AS EARLY AS 12 NOON.", "nsi_id": "unitedstatespostalservice-a77078", "operator": "United States Postal Service", "operator:short": "USPS", "operator:type": "public", "operator:wikidata": "Q668687", "ref": "6730100005"}, "type": "Feature"}
{"dataset_attributes": {"@spider": "usps_collection_boxes", "spider:collection_time": "2023-09-19T08:25:58.007339"}, "geometry": {"coordinates": [-95.716430817, 37.225468564], "type": "Point"}, "id": "ljVO9DvHOzvMxgJL9M4aTuWQqE4=", "properties": {"@spider": "usps_collection_boxes", "addr:city": "INDEPENDENCE", "addr:country": "US", "addr:full": "811 W LAUREL ST", "addr:postcode": "67301", "addr:state": "KS", "amenity": "post_box", "brand": "United States Postal Service", "brand:wikidata": "Q668687", "collection_times": "Mo-Sa 12:00", "name": "USPS COLLECTION BOX - BLUE BOX", "nsi_id": "unitedstatespostalservice-a77078", "operator": "United States Postal Service", "operator:short": "USPS", "operator:type": "public", "operator:wikidata": "Q668687", "ref": "6730100006"}, "type": "Feature"}
{"dataset_attributes": {"@spider": "usps_collection_boxes", "spider:collection_time": "2023-09-19T08:25:58.007339"}, "geometry": {"coordinates": [-95.706401, 37.225619], "type": "Point"}, "id": "Gp2rrlqeB0XqD91nOkdxrrOcZtg=", "properties": {"@spider": "usps_collection_boxes", "addr:city": "INDEPENDENCE", "addr:country": "US", "addr:full": "116 E LAUREL ST", "addr:postcode": "67301", "addr:state": "KS", "amenity": "post_box", "brand": "United States Postal Service", "brand:wikidata": "Q668687", "collection_times": "Mo-Sa 16:50", "name": "USPS COLLECTION BOX - PO LOBBY", "note": "ON 12/24 AND 12/31, THIS BOX MAY BE COLLECTED AS EARLY AS 12 NOON.", "nsi_id": "unitedstatespostalservice-a77078", "operator": "United States Postal Service", "operator:short": "USPS", "operator:type": "public", "operator:wikidata": "Q668687", "ref": "6730100008"}, "type": "Feature"}
{"dataset_attributes": {"@spider": "usps_collection_boxes", "spider:collection_time": "2023-09-19T08:25:58.007339"}, "geometry": {"coordinates": [-95.7425899, 37.224188], "type": "Point"}, "id": "3mYkJ_LfPuGjRRlM7FR6-y7i2T0=", "properties": {"@spider": "usps_collection_boxes", "addr:city": "INDEPENDENCE", "addr:country": "US", "addr:full": "121 PETER PAN RD", "addr:postcode": "67301", "addr:state": "KS", "amenity": "post_box", "brand": "United States Postal Service", "brand:wikidata": "Q668687", "collection_times": "Mo-Sa 12:00", "name": "USPS COLLECTION BOX - BLUE BOX", "nsi_id": "unitedstatespostalservice-a77078", "operator": "United States Postal Service", "operator:short": "USPS", "operator:type": "public", "operator:wikidata": "Q668687", "ref": "6730100009"}, "type": "Feature"}
{"dataset_attributes": {"@spider": "usps_collection_boxes", "spider:collection_time": "2023-09-19T08:25:58.007339"}, "geometry": {"coordinates": [-95.706401, 37.225619], "type": "Point"}, "id": "AYcD9vaO8Nxk5Izb6bxmAGhOoRI=", "properties": {"@spider": "usps_collection_boxes", "addr:city": "INDEPENDENCE", "addr:country": "US", "addr:full": "116 E LAUREL ST", "addr:postcode": "67301", "addr:state": "KS", "amenity": "post_box", "brand": "United States Postal Service", "brand:wikidata": "Q668687", "collection_times": "Mo-Sa 16:50", "name": "USPS COLLECTION BOX - PO LOBBY", "note": "ON 12/24 AND 12/31, THIS BOX MAY BE COLLECTED AS EARLY AS 12 NOON.", "nsi_id": "unitedstatespostalservice-a77078", "operator": "United States Postal Service", "operator:short": "USPS", "operator:type": "public", "operator:wikidata": "Q668687", "ref": "6730100010"}, "type": "Feature"}
{"dataset_attributes": {"@spider": "usps_collection_boxes", "spider:collection_time": "2023-09-19T08:25:58.007339"}, "geometry": {"coordinates": [-95.705662332, 37.225495505], "type": "Point"}, "id": "KCcOPOF2XCi_8Z79PFsQ2W5YiGc=", "properties": {"@spider": "usps_collection_boxes", "addr:city": "INDEPENDENCE", "addr:country": "US", "addr:full": "116 E LAUREL ST", "addr:postcode": "67301", "addr:state": "KS", "amenity": "post_box", "brand": "United States Postal Service", "brand:wikidata": "Q668687", "collection_times": "Mo-Fr 16:50; Sa 12:00", "name": "USPS COLLECTION BOX - PO LOBBY", "note": "ON 12/24 AND 12/31, THIS BOX MAY BE COLLECTED AS EARLY AS 12 NOON.", "nsi_id": "unitedstatespostalservice-a77078", "operator": "United States Postal Service", "operator:short": "USPS", "operator:type": "public", "operator:wikidata": "Q668687", "ref": "6730100012"}, "type": "Feature"}
{"dataset_attributes": {"@spider": "usps_collection_boxes", "spider:collection_time": "2023-09-19T08:25:58.007339"}, "geometry": {"coordinates": [-95.2971549907, 37.1925893608], "type": "Point"}, "id": "9p0Slxi1kifSCndGz9h1V1XUf4Q=", "properties": {"@spider": "usps_collection_boxes", "addr:city": "ALTAMONT", "addr:country": "US", "addr:full": "410 S HUSTON ST", "addr:postcode": "67330", "addr:state": "KS", "amenity": "post_box", "brand": "United States Postal Service", "brand:wikidata": "Q668687", "collection_times": "Mo-Fr 14:40; Sa 10:15", "name": "USPS COLLECTION BOX - BLUE BOX", "note": "ON 12/24 AND 12/31, THIS BOX MAY BE COLLECTED AS EARLY AS 12 NOON.", "nsi_id": "unitedstatespostalservice-a77078", "operator": "United States Postal Service", "operator:short": "USPS", "operator:type": "public", "operator:wikidata": "Q668687", "ref": "6733000001"}, "type": "Feature"}
{"dataset_attributes": {"@spider": "usps_collection_boxes", "spider:collection_time": "2023-09-19T08:25:58.007339"}, "geometry": {"coordinates": [-95.2971549907, 37.1925893608], "type": "Point"}, "id": "d0TBguHt28I_eRkkLOzc13qAXoM=", "properties": {"@spider": "usps_collection_boxes", "addr:city": "ALTAMONT", "addr:country": "US", "addr:full": "410 S HUSTON ST", "addr:postcode": "67330", "addr:state": "KS", "amenity": "post_box", "brand": "United States Postal Service", "brand:wikidata": "Q668687", "collection_times": "Mo-Fr 14:40; Sa 10:15", "name": "USPS COLLECTION BOX - PO LOBBY", "note": "ON 12/24 AND 12/31, THIS BOX MAY BE COLLECTED AS EARLY AS 12 NOON.", "nsi_id": "unitedstatespostalservice-a77078", "operator": "United States Postal Service", "operator:short": "USPS", "operator:type": "public", "operator:wikidata": "Q668687", "ref": "6733000002"}, "type": "Feature"}
{"dataset_attributes": {"@spider": "usps_collection_boxes", "spider:collection_time": "2023-09-19T08:25:58.007339"}, "geometry": {"coordinates": [-95.2971549907, 37.1925893608], "type": "Point"}, "id": "VGlpRE1uBLbaBgHYIoWR83DWAT4=", "properties": {"@spider": "usps_collection_boxes", "addr:city": "ALTAMONT", "addr:country": "US", "addr:full": "410 S HUSTON ST", "addr:postcode": "67330", "addr:state": "KS", "amenity": "post_box", "brand": "United States Postal Service", "brand:wikidata": "Q668687", "collection_times": "Mo-Fr 14:40; Sa 10:15", "name": "USPS COLLECTION BOX - PO LOBBY", "note": "ON 12/24 AND 12/31, THIS BOX MAY BE COLLECTED AS EARLY AS 12 NOON.", "nsi_id": "unitedstatespostalservice-a77078", "operator": "United States Postal Service", "operator:short": "USPS", "operator:type": "public", "operator:wikidata": "Q668687", "ref": "6733000003"}, "type": "Feature"}
{"dataset_attributes": {"@spider": "usps_collection_boxes", "spider:collection_time": "2023-09-19T08:25:58.007339"}, "geometry": {"coordinates": [-95.2971549907, 37.1925893608], "type": "Point"}, "id": "LEKvg3g8McoV7_fC7ZMKHxiwyCM=", "properties": {"@spider": "usps_collection_boxes", "addr:city": "ALTAMONT", "addr:country": "US", "addr:full": "410 S HUSTON ST", "addr:postcode": "67330", "addr:state": "KS", "amenity": "post_box", "brand": "United States Postal Service", "brand:wikidata": "Q668687", "collection_times": "Mo-Fr 14:40; Sa 10:15", "name": "USPS COLLECTION BOX - PO LOBBY", "note": "ON 12/24 AND 12/31, THIS BOX MAY BE COLLECTED AS EARLY AS 12 NOON.", "nsi_id": "unitedstatespostalservice-a77078", "operator": "United States Postal Service", "operator:short": "USPS", "operator:type": "public", "operator:wikidata": "Q668687", "ref": "6733000004"}, "type": "Feature"}
{"dataset_attributes": {"@spider": "usps_collection_boxes", "spider:collection_time": "2023-09-19T08:25:58.007339"}, "geometry": {"coordinates": [-95.2110237362, 37.0541134535], "type": "Point"}, "id": "QicwY_y9qGdMPnq8wCmbUU-FL2g=", "properties": {"@spider": "usps_collection_boxes", "addr:city": "BARTLETT", "addr:country": "US", "addr:full": "512 MAIN ST", "addr:postcode": "67332", "addr:state": "KS", "amenity": "post_box", "brand": "United States Postal Service", "brand:wikidata": "Q668687", "collection_times": "Mo-Sa 10:30", "name": "USPS COLLECTION BOX - BLUE BOX", "nsi_id": "unitedstatespostalservice-a77078", "operator": "United States Postal Service", "operator:short": "USPS", "operator:type": "public", "operator:wikidata": "Q668687", "ref": "6733200001"}, "type": "Feature"}
{"dataset_attributes": {"@spider": "usps_collection_boxes", "spider:collection_time": "2023-09-19T08:25:58.007339"}, "geometry": {"coordinates": [-95.936322, 37.010542], "type": "Point"}, "id": "9JsSGY49TztJud0-FjxC_OSzLeQ=", "properties": {"@spider": "usps_collection_boxes", "addr:city": "CANEY", "addr:country": "US", "addr:full": "201 W 5TH AVE", "addr:postcode": "67333", "addr:state": "KS", "amenity": "post_box", "brand": "United States Postal Service", "brand:wikidata": "Q668687", "collection_times": "Mo-Fr 15:05; Sa 10:15", "name": "USPS COLLECTION BOX - BLUE BOX", "note": "ON 12/24 AND 12/31, THIS BOX MAY BE COLLECTED AS EARLY AS 12 NOON.", "nsi_id": "unitedstatespostalservice-a77078", "operator": "United States Postal Service", "operator:short": "USPS", "operator:type": "public", "operator:wikidata": "Q668687", "ref": "6733300005"}, "type": "Feature"}
{"dataset_attributes": {"@spider": "usps_collection_boxes", "spider:collection_time": "2023-09-19T08:25:58.007339"}, "geometry": {"coordinates": [-95.936322, 37.010542], "type": "Point"}, "id": "qdVcaKYzRW8kNBAXURTZcssFY74=", "properties": {"@spider": "usps_collection_boxes", "addr:city": "CANEY", "addr:country": "US", "addr:full": "201 W 5TH AVE", "addr:postcode": "67333", "addr:state": "KS", "amenity": "post_box", "brand": "United States Postal Service", "brand:wikidata": "Q668687", "collection_times": "Mo-Fr 15:05; Sa 10:15", "name": "USPS COLLECTION BOX - PO LOBBY", "note": "ON 12/24 AND 12/31, THIS BOX MAY BE COLLECTED AS EARLY AS 12 NOON.", "nsi_id": "unitedstatespostalservice-a77078", "operator": "United States Postal Service", "operator:short": "USPS", "operator:type": "public", "operator:wikidata": "Q668687", "ref": "6733300006"}, "type": "Feature"}
{"dataset_attributes": {"@spider": "usps_collection_boxes", "spider:collection_time": "2023-09-19T08:25:58.007339"}, "geometry": {"coordinates": [-95.936286565, 37.010492901], "type": "Point"}, "id": "SolMRlQ1-Neg2274FX0i2IHQN0M=", "properties": {"@spider": "usps_collection_boxes", "addr:city": "CANEY", "addr:country": "US", "addr:full": "201 W 5TH AVE", "addr:postcode": "67333", "addr:state": "KS", "amenity": "post_box", "brand": "United States Postal Service", "brand:wikidata": "Q668687", "collection_times": "Mo-Fr 15:05; Sa 10:15", "name": "USPS COLLECTION BOX - PO LOBBY", "note": "ON 12/24 AND 12/31, THIS BOX MAY BE COLLECTED AS EARLY AS 12 NOON.", "nsi_id": "unitedstatespostalservice-a77078", "operator": "United States Postal Service", "operator:short": "USPS", "operator:type": "public", "operator:wikidata": "Q668687", "ref": "6733300008"}, "type": "Feature"}
{"dataset_attributes": {"@spider": "usps_collection_boxes", "spider:collection_time": "2023-09-19T08:25:58.007339"}, "geometry": {"coordinates": [-96.177797, 37.024425], "type": "Point"}, "id": "NqK3W-YFMNyQSQEVmJu-n5n0ktg=", "properties": {"@spider": "usps_collection_boxes", "addr:city": "CHAUTAUQUA", "addr:country": "US", "addr:full": "100 E LAUREL ST", "addr:postcode": "67334", "addr:state": "KS", "amenity": "post_box", "brand": "United States Postal Service", "brand:wikidata": "Q668687", "collection_times": "Mo-Sa 11:00", "name": "USPS COLLECTION BOX - BLUE BOX", "nsi_id": "unitedstatespostalservice-a77078", "operator": "United States Postal Service", "operator:short": "USPS", "operator:type": "public", "operator:wikidata": "Q668687", "ref": "6733400001"}, "type": "Feature"}
{"dataset_attributes": {"@spider": "usps_collection_boxes", "spider:collection_time": "2023-09-19T08:25:58.007339"}, "geometry": {"coordinates": [-96.177909, 37.024454], "type": "Point"}, "id": "j_Wuns2EO01nyz8N1zYw2rlJMu0=", "properties": {"@spider": "usps_collection_boxes", "addr:city": "CHAUTAUQUA", "addr:country": "US", "addr:full": "100 E LAUREL ST", "addr:postcode": "67334", "addr:state": "KS", "amenity": "post_box", "brand": "United States Postal Service", "brand:wikidata": "Q668687", "collection_times": "Mo-Sa 11:00", "name": "USPS COLLECTION BOX - PO LOBBY", "nsi_id": "unitedstatespostalservice-a77078", "operator": "United States Postal Service", "operator:short": "USPS", "operator:type": "public", "operator:wikidata": "Q668687", "ref": "6733400002"}, "type": "Feature"}
{"dataset_attributes": {"@spider": "usps_collection_boxes", "spider:collection_time": "2023-09-19T08:25:58.007339"}, "geometry": {"coordinates": [-96.177822386, 37.024387965], "type": "Point"}, "id": "Qz6lm9U8JrlUAXYBhztmfHTdH4I=", "properties": {"@spider": "usps_collection_boxes", "addr:city": "CHAUTAUQUA", "addr:country": "US", "addr:full": "100 E LAUREL ST", "addr:postcode": "67334", "addr:state": "KS", "amenity": "post_box", "brand": "United States Postal Service", "brand:wikidata": "Q668687", "collection_times": "Mo-Sa 11:00", "name": "USPS COLLECTION BOX - PO LOBBY", "nsi_id": "unitedstatespostalservice-a77078", "operator": "United States Postal Service", "operator:short": "USPS", "operator:type": "public", "operator:wikidata": "Q668687", "ref": "6733400003"}, "type": "Feature"}
{"dataset_attributes": {"@spider": "usps_collection_boxes", "spider:collection_time": "2023-09-19T08:25:58.007339"}, "geometry": {"coordinates": [-95.5525468176, 37.2700215257], "type": "Point"}, "id": "WTuZWUecxZeUAhSqOD_TfTPoLA4=", "properties": {"@spider": "usps_collection_boxes", "addr:city": "CHERRYVALE", "addr:country": "US", "addr:full": "205 N NEOSHO ST", "addr:postcode": "67335", "addr:state": "KS", "amenity": "post_box", "brand": "United States Postal Service", "brand:wikidata": "Q668687", "collection_times": "Mo-Fr 15:25; Sa 08:45", "name": "USPS COLLECTION BOX - BLUE BOX", "note": "ON 12/24 AND 12/31, THIS BOX MAY BE COLLECTED AS EARLY AS 12 NOON.", "nsi_id": "unitedstatespostalservice-a77078", "operator": "United States Postal Service", "operator:short": "USPS", "operator:type": "public", "operator:wikidata": "Q668687", "ref": "6733500002"}, "type": "Feature"}
{"dataset_attributes": {"@spider": "usps_collection_boxes", "spider:collection_time": "2023-09-19T08:25:58.007339"}, "geometry": {"coordinates": [-95.5525468176, 37.2700215257], "type": "Point"}, "id": "fGLKfHjtdhe4KfXhCajmJm_c3AI=", "properties": {"@spider": "usps_collection_boxes", "addr:city": "CHERRYVALE", "addr:country": "US", "addr:full": "205 N NEOSHO ST", "addr:postcode": "67335", "addr:state": "KS", "amenity": "post_box", "brand": "United States Postal Service", "brand:wikidata": "Q668687", "collection_times": "Mo-Fr 15:25; Sa 08:45", "name": "USPS COLLECTION BOX - PO LOBBY", "note": "ON 12/24 AND 12/31, THIS BOX MAY BE COLLECTED AS EARLY AS 12 NOON.", "nsi_id": "unitedstatespostalservice-a77078", "operator": "United States Postal Service", "operator:short": "USPS", "operator:type": "public", "operator:wikidata": "Q668687", "ref": "6733500004"}, "type": "Feature"}
{"dataset_attributes": {"@spider": "usps_collection_boxes", "spider:collection_time": "2023-09-19T08:25:58.007339"}, "geometry": {"coordinates": [-95.5525468176, 37.2700215257], "type": "Point"}, "id": "l8ptHXHWAtCalOGiqMvPb2HXSEI=", "properties": {"@spider": "usps_collection_boxes", "addr:city": "CHERRYVALE", "addr:country": "US", "addr:full": "205 N NEOSHO ST", "addr:postcode": "67335", "addr:state": "KS", "amenity": "post_box", "brand": "United States Postal Service", "brand:wikidata": "Q668687", "collection_times": "Mo-Fr 15:25", "name": "USPS COLLECTION BOX - PO LOBBY", "note": "ON 12/24 AND 12/31, THIS BOX MAY BE COLLECTED AS EARLY AS 12 NOON.", "nsi_id": "unitedstatespostalservice-a77078", "operator": "United States Postal Service", "operator:short": "USPS", "operator:type": "public", "operator:wikidata": "Q668687", "ref": "6733500005"}, "type": "Feature"}
{"dataset_attributes": {"@spider": "usps_collection_boxes", "spider:collection_time": "2023-09-19T08:25:58.007339"}, "geometry": {"coordinates": [-95.0902605, 37.0369195226], "type": "Point"}, "id": "FCYBcY_o0nGLMzfg2ItNh-uSHFc=", "properties": {"@spider": "usps_collection_boxes", "addr:city": "CHETOPA", "addr:country": "US", "addr:full": "519 MAPLE ST", "addr:postcode": "67336", "addr:state": "KS", "amenity": "post_box", "brand": "United States Postal Service", "brand:wikidata": "Q668687", "collection_times": "Mo-Fr 14:10; Sa 09:15", "name": "USPS COLLECTION BOX - BLUE BOX", "note": "ON 12/24 AND 12/31, THIS BOX MAY BE COLLECTED AS EARLY AS 12 NOON.", "nsi_id": "unitedstatespostalservice-a77078", "operator": "United States Postal Service", "operator:short": "USPS", "operator:type": "public", "operator:wikidata": "Q668687", "ref": "6733600001"}, "type": "Feature"}
{"dataset_attributes": {"@spider": "usps_collection_boxes", "spider:collection_time": "2023-09-19T08:25:58.007339"}, "geometry": {"coordinates": [-95.0902605, 37.0369195226], "type": "Point"}, "id": "URz-b4C18b0aikyGaUGHjB1z9kI=", "properties": {"@spider": "usps_collection_boxes", "addr:city": "CHETOPA", "addr:country": "US", "addr:full": "519 MAPLE ST", "addr:postcode": "67336", "addr:state": "KS", "amenity": "post_box", "brand": "United States Postal Service", "brand:wikidata": "Q668687", "collection_times": "Mo-Fr 14:05; Sa 09:15", "name": "USPS COLLECTION BOX - PO LOBBY", "note": "ON 12/24 AND 12/31, THIS BOX MAY BE COLLECTED AS EARLY AS 12 NOON.", "nsi_id": "unitedstatespostalservice-a77078", "operator": "United States Postal Service", "operator:short": "USPS", "operator:type": "public", "operator:wikidata": "Q668687", "ref": "6733600002"}, "type": "Feature"}
{"dataset_attributes": {"@spider": "usps_collection_boxes", "spider:collection_time": "2023-09-19T08:25:58.007339"}, "geometry": {"coordinates": [-95.0902605, 37.0369195226], "type": "Point"}, "id": "D564pfkDxtPVhyyuF7RSXgwhmGw=", "properties": {"@spider": "usps_collection_boxes", "addr:city": "CHETOPA", "addr:country": "US", "addr:full": "519 MAPLE ST", "addr:postcode": "67336", "addr:state": "KS", "amenity": "post_box", "brand": "United States Postal Service", "brand:wikidata": "Q668687", "collection_times": "Mo-Fr 14:05; Sa 09:15", "name": "USPS COLLECTION BOX - PO LOBBY", "note": "ON 12/24 AND 12/31, THIS BOX MAY BE COLLECTED AS EARLY AS 12 NOON.", "nsi_id": "unitedstatespostalservice-a77078", "operator": "United States Postal Service", "operator:short": "USPS", "operator:type": "public", "operator:wikidata": "Q668687", "ref": "6733600003"}, "type": "Feature"}
{"dataset_attributes": {"@spider": "usps_collection_boxes", "spider:collection_time": "2023-09-19T08:25:58.007339"}, "geometry": {"coordinates": [-95.6158307, 37.037215], "type": "Point"}, "id": "DXs9WuNyJjKMPPK1QT9qBIwv8PI=", "properties": {"@spider": "usps_collection_boxes", "addr:city": "COFFEYVILLE", "addr:country": "US", "addr:full": "102 W 7TH ST", "addr:postcode": "67337", "addr:state": "KS", "amenity": "post_box", "brand": "United States Postal Service", "brand:wikidata": "Q668687", "collection_times": "Mo-Sa 15:00", "name": "USPS COLLECTION BOX - BLUE BOX", "note": "ON 12/24 AND 12/31, THIS BOX MAY BE COLLECTED AS EARLY AS 12 NOON.", "nsi_id": "unitedstatespostalservice-a77078", "operator": "United States Postal Service", "operator:short": "USPS", "operator:type": "public", "operator:wikidata": "Q668687", "ref": "6733700001"}, "type": "Feature"}
{"dataset_attributes": {"@spider": "usps_collection_boxes", "spider:collection_time": "2023-09-19T08:25:58.007339"}, "geometry": {"coordinates": [-95.6404377, 37.034873], "type": "Point"}, "id": "oFttxWPUry9mt2snnbZQJVP16fA=", "properties": {"@spider": "usps_collection_boxes", "addr:city": "COFFEYVILLE", "addr:country": "US", "addr:full": "900 HALL ST", "addr:postcode": "67337", "addr:state": "KS", "amenity": "post_box", "brand": "United States Postal Service", "brand:wikidata": "Q668687", "collection_times": "Mo-Sa 15:00", "name": "USPS COLLECTION BOX - BLUE BOX", "note": "ON 12/24 AND 12/31, THIS BOX MAY BE COLLECTED AS EARLY AS 12 NOON.", "nsi_id": "unitedstatespostalservice-a77078", "operator": "United States Postal Service", "operator:short": "USPS", "operator:type": "public", "operator:wikidata": "Q668687", "ref": "6733700018"}, "type": "Feature"}
{"dataset_attributes": {"@spider": "usps_collection_boxes", "spider:collection_time": "2023-09-19T08:25:58.007339"}, "geometry": {"coordinates": [-95.6185922, 37.036155], "type": "Point"}, "id": "cfbY1CyZklo1owfjbXCh4Qjkcuo=", "properties": {"@spider": "usps_collection_boxes", "addr:city": "COFFEYVILLE", "addr:country": "US", "addr:full": "232 W 8TH ST", "addr:postcode": "67337", "addr:state": "KS", "amenity": "post_box", "brand": "United States Postal Service", "brand:wikidata": "Q668687", "collection_times": "Mo-Fr 15:30; Sa 15:20", "name": "USPS COLLECTION BOX - BLUE BOX", "note": "ON 12/24 AND 12/31, THIS BOX MAY BE COLLECTED AS EARLY AS 12 NOON.", "nsi_id": "unitedstatespostalservice-a77078", "operator": "United States Postal Service", "operator:short": "USPS", "operator:type": "public", "operator:wikidata": "Q668687", "ref": "6733700022"}, "type": "Feature"}
{"dataset_attributes": {"@spider": "usps_collection_boxes", "spider:collection_time": "2023-09-19T08:25:58.007339"}, "geometry": {"coordinates": [-95.6185949, 37.036358], "type": "Point"}, "id": "tT0Phn3PDNf8jQESO74fq69zQ0E=", "properties": {"@spider": "usps_collection_boxes", "addr:city": "COFFEYVILLE", "addr:country": "US", "addr:full": "232 W 8TH ST", "addr:postcode": "67337", "addr:state": "KS", "amenity": "post_box", "brand": "United States Postal Service", "brand:wikidata": "Q668687", "collection_times": "Mo-Sa 15:20", "name": "USPS COLLECTION BOX - PO LOBBY", "note": "ON 12/24 AND 12/31, THIS BOX MAY BE COLLECTED AS EARLY AS 12 NOON.", "nsi_id": "unitedstatespostalservice-a77078", "operator": "United States Postal Service", "operator:short": "USPS", "operator:type": "public", "operator:wikidata": "Q668687", "ref": "6733700023"}, "type": "Feature"}
{"dataset_attributes": {"@spider": "usps_collection_boxes", "spider:collection_time": "2023-09-19T08:25:58.007339"}, "geometry": {"coordinates": [-95.6186245, 37.036163], "type": "Point"}, "id": "B9MpsDbQTImsu-wyOrlN6YQRCuM=", "properties": {"@spider": "usps_collection_boxes", "addr:city": "COFFEYVILLE", "addr:country": "US", "addr:full": "232 W 8TH ST", "addr:postcode": "67337", "addr:state": "KS", "amenity": "post_box", "brand": "United States Postal Service", "brand:wikidata": "Q668687", "collection_times": "Mo-Fr 15:30; Sa 15:20", "name": "USPS COLLECTION BOX - BLUE BOX", "note": "ON 12/24 AND 12/31, THIS BOX MAY BE COLLECTED AS EARLY AS 12 NOON.", "nsi_id": "unitedstatespostalservice-a77078", "operator": "United States Postal Service", "operator:short": "USPS", "operator:type": "public", "operator:wikidata": "Q668687", "ref": "6733700026"}, "type": "Feature"}
{"dataset_attributes": {"@spider": "usps_collection_boxes", "spider:collection_time": "2023-09-19T08:25:58.007339"}, "geometry": {"coordinates": [-95.617914201, 37.036187609], "type": "Point"}, "id": "qgt-_9Sq-HMi-u9RzWyQpblmK-4=", "properties": {"@spider": "usps_collection_boxes", "addr:city": "COFFEYVILLE", "addr:country": "US", "addr:full": "232 W 8TH ST", "addr:postcode": "67337", "addr:state": "KS", "amenity": "post_box", "brand": "United States Postal Service", "brand:wikidata": "Q668687", "collection_times": "Mo-Fr 15:20", "name": "USPS COLLECTION BOX - PO LOBBY", "note": "ON 12/24 AND 12/31, THIS BOX MAY BE COLLECTED AS EARLY AS 12 NOON.", "nsi_id": "unitedstatespostalservice-a77078", "operator": "United States Postal Service", "operator:short": "USPS", "operator:type": "public", "operator:wikidata": "Q668687", "ref": "6733700028"}, "type": "Feature"}
{"dataset_attributes": {"@spider": "usps_collection_boxes", "spider:collection_time": "2023-09-19T08:25:58.007339"}, "geometry": {"coordinates": [-95.710572, 37.056048], "type": "Point"}, "id": "BRB6IRLY4Qq26VptwAHupQi98jg=", "properties": {"@spider": "usps_collection_boxes", "addr:city": "DEARING", "addr:country": "US", "addr:full": "312 S INDEPENDENCE ST", "addr:postcode": "67340", "addr:state": "KS", "amenity": "post_box", "brand": "United States Postal Service", "brand:wikidata": "Q668687", "collection_times": "Mo-Fr 11:45; Sa 09:30", "name": "USPS COLLECTION BOX - BLUE BOX", "nsi_id": "unitedstatespostalservice-a77078", "operator": "United States Postal Service", "operator:short": "USPS", "operator:type": "public", "operator:wikidata": "Q668687", "ref": "6734000001"}, "type": "Feature"}
{"dataset_attributes": {"@spider": "usps_collection_boxes", "spider:collection_time": "2023-09-19T08:25:58.007339"}, "geometry": {"coordinates": [-95.710538, 37.056116], "type": "Point"}, "id": "W616tb_XbgXbPNELip5g7ey-MCc=", "properties": {"@spider": "usps_collection_boxes", "addr:city": "DEARING", "addr:country": "US", "addr:full": "312 S INDEPENDENCE ST", "addr:postcode": "67340", "addr:state": "KS", "amenity": "post_box", "brand": "United States Postal Service", "brand:wikidata": "Q668687", "collection_times": "Mo-Fr 11:45; Sa 09:30", "name": "USPS COLLECTION BOX - PO LOBBY", "nsi_id": "unitedstatespostalservice-a77078", "operator": "United States Postal Service", "operator:short": "USPS", "operator:type": "public", "operator:wikidata": "Q668687", "ref": "6734000002"}, "type": "Feature"}
{"dataset_attributes": {"@spider": "usps_collection_boxes", "spider:collection_time": "2023-09-19T08:25:58.007339"}, "geometry": {"coordinates": [-95.710577414, 37.055664], "type": "Point"}, "id": "DG3Q8tUkvJ3BSJodVBoHxDREQSg=", "properties": {"@spider": "usps_collection_boxes", "addr:city": "DEARING", "addr:country": "US", "addr:full": "312 S INDEPENDENCE ST", "addr:postcode": "67340", "addr:state": "KS", "amenity": "post_box", "brand": "United States Postal Service", "brand:wikidata": "Q668687", "collection_times": "Mo-Fr 11:45; Sa 09:30", "name": "USPS COLLECTION BOX - PO LOBBY", "nsi_id": "unitedstatespostalservice-a77078", "operator": "United States Postal Service", "operator:short": "USPS", "operator:type": "public", "operator:wikidata": "Q668687", "ref": "6734000003"}, "type": "Feature"}
{"dataset_attributes": {"@spider": "usps_collection_boxes", "spider:collection_time": "2023-09-19T08:25:58.007339"}, "geometry": {"coordinates": [-95.4125136, 37.346289], "type": "Point"}, "id": "1vWgMU27x-zgtd-PpC2NTU_8agM=", "properties": {"@spider": "usps_collection_boxes", "addr:city": "DENNIS", "addr:country": "US", "addr:full": "103 S MAIN ST", "addr:postcode": "67341", "addr:state": "KS", "amenity": "post_box", "brand": "United States Postal Service", "brand:wikidata": "Q668687", "collection_times": "Mo-Fr 09:45; Sa 09:15", "name": "USPS COLLECTION BOX - BLUE BOX", "nsi_id": "unitedstatespostalservice-a77078", "operator": "United States Postal Service", "operator:short": "USPS", "operator:type": "public", "operator:wikidata": "Q668687", "ref": "6734100001"}, "type": "Feature"}
{"dataset_attributes": {"@spider": "usps_collection_boxes", "spider:collection_time": "2023-09-19T08:25:58.007339"}, "geometry": {"coordinates": [-95.359246111, 37.057599283], "type": "Point"}, "id": "lcyqLWv5LG2ZcAzF9OrYU4SPkLQ=", "properties": {"@spider": "usps_collection_boxes", "addr:city": "EDNA", "addr:country": "US", "addr:full": "109 N DELAWARE ST", "addr:postcode": "67342", "addr:state": "KS", "amenity": "post_box", "brand": "United States Postal Service", "brand:wikidata": "Q668687", "collection_times": "Mo-Fr 13:45; Sa 10:45", "name": "USPS COLLECTION BOX - BLUE BOX", "note": "ON 12/24 AND 12/31, THIS BOX MAY BE COLLECTED AS EARLY AS 12 NOON.", "nsi_id": "unitedstatespostalservice-a77078", "operator": "United States Postal Service", "operator:short": "USPS", "operator:type": "public", "operator:wikidata": "Q668687", "ref": "6734200001"}, "type": "Feature"}
{"dataset_attributes": {"@spider": "usps_collection_boxes", "spider:collection_time": "2023-09-19T08:25:58.007339"}, "geometry": {"coordinates": [-95.359246111, 37.057599283], "type": "Point"}, "id": "S8uIN5aP0tyQm4kFXGJcftUWIAE=", "properties": {"@spider": "usps_collection_boxes", "addr:city": "EDNA", "addr:country": "US", "addr:full": "109 N DELAWARE ST", "addr:postcode": "67342", "addr:state": "KS", "amenity": "post_box", "brand": "United States Postal Service", "brand:wikidata": "Q668687", "collection_times": "Mo-Fr 13:45; Sa 10:45", "name": "USPS COLLECTION BOX - PO LOBBY", "note": "ON 12/24 AND 12/31, THIS BOX MAY BE COLLECTED AS EARLY AS 12 NOON.", "nsi_id": "unitedstatespostalservice-a77078", "operator": "United States Postal Service", "operator:short": "USPS", "operator:type": "public", "operator:wikidata": "Q668687", "ref": "6734200002"}, "type": "Feature"}
{"dataset_attributes": {"@spider": "usps_collection_boxes", "spider:collection_time": "2023-09-19T08:25:58.007339"}, "geometry": {"coordinates": [-95.359246111, 37.057599283], "type": "Point"}, "id": "-481CrTyYy4yDGi1SzxhgQk1kEU=", "properties": {"@spider": "usps_collection_boxes", "addr:city": "EDNA", "addr:country": "US", "addr:full": "109 N DELAWARE ST", "addr:postcode": "67342", "addr:state": "KS", "amenity": "post_box", "brand": "United States Postal Service", "brand:wikidata": "Q668687", "collection_times": "Mo-Fr 13:45; Sa 10:45", "name": "USPS COLLECTION BOX - PO LOBBY", "note": "ON 12/24 AND 12/31, THIS BOX MAY BE COLLECTED AS EARLY AS 12 NOON.", "nsi_id": "unitedstatespostalservice-a77078", "operator": "United States Postal Service", "operator:short": "USPS", "operator:type": "public", "operator:wikidata": "Q668687", "ref": "6734200003"}, "type": "Feature"}
{"dataset_attributes": {"@spider": "usps_collection_boxes", "spider:collection_time": "2023-09-19T08:25:58.007339"}, "geometry": {"coordinates": [-95.9099533324, 37.2918295029], "type": "Point"}, "id": "kUzfh6fcq5pDY4spx_PzfKSlODo=", "properties": {"@spider": "usps_collection_boxes", "addr:city": "ELK CITY", "addr:country": "US", "addr:full": "123 E HICKORY ST", "addr:postcode": "67344", "addr:state": "KS", "amenity": "post_box", "brand": "United States Postal Service", "brand:wikidata": "Q668687", "collection_times": "Mo-Fr 11:10; Sa 09:30", "name": "USPS COLLECTION BOX - BLUE BOX", "nsi_id": "unitedstatespostalservice-a77078", "operator": "United States Postal Service", "operator:short": "USPS", "operator:type": "public", "operator:wikidata": "Q668687", "ref": "6734400001"}, "type": "Feature"}
{"dataset_attributes": {"@spider": "usps_collection_boxes", "spider:collection_time": "2023-09-19T08:25:58.007339"}, "geometry": {"coordinates": [-95.909951, 37.291803], "type": "Point"}, "id": "uXdQE7tMWMmbCyjM8WcCqDGj8hY=", "properties": {"@spider": "usps_collection_boxes", "addr:city": "ELK CITY", "addr:country": "US", "addr:full": "123 E HICKORY ST", "addr:postcode": "67344", "addr:state": "KS", "amenity": "post_box", "brand": "United States Postal Service", "brand:wikidata": "Q668687", "collection_times": "Mo-Fr 11:10; Sa 09:15", "name": "USPS COLLECTION BOX - PO LOBBY", "nsi_id": "unitedstatespostalservice-a77078", "operator": "United States Postal Service", "operator:short": "USPS", "operator:type": "public", "operator:wikidata": "Q668687", "ref": "6734400002"}, "type": "Feature"}
{"dataset_attributes": {"@spider": "usps_collection_boxes", "spider:collection_time": "2023-09-19T08:25:58.007339"}, "geometry": {"coordinates": [-95.909953332, 37.291829503], "type": "Point"}, "id": "fCXheu4AWkab-jaNFdAMG75SxNw=", "properties": {"@spider": "usps_collection_boxes", "addr:city": "ELK CITY", "addr:country": "US", "addr:full": "123 E HICKORY ST", "addr:postcode": "67344", "addr:state": "KS", "amenity": "post_box", "brand": "United States Postal Service", "brand:wikidata": "Q668687", "collection_times": "Mo-Fr 11:10; Sa 09:15", "name": "USPS COLLECTION BOX - PO LOBBY", "nsi_id": "unitedstatespostalservice-a77078", "operator": "United States Postal Service", "operator:short": "USPS", "operator:type": "public", "operator:wikidata": "Q668687", "ref": "6734400003"}, "type": "Feature"}
{"dataset_attributes": {"@spider": "usps_collection_boxes", "spider:collection_time": "2023-09-19T08:25:58.007339"}, "geometry": {"coordinates": [-96.1894753927, 37.3729767485], "type": "Point"}, "id": "siYBT2F4YQl89NxFLBbLE5pv2xI=", "properties": {"@spider": "usps_collection_boxes", "addr:city": "ELK FALLS", "addr:country": "US", "addr:full": "712 7TH ST", "addr:postcode": "67345", "addr:state": "KS", "amenity": "post_box", "brand": "United States Postal Service", "brand:wikidata": "Q668687", "collection_times": "Mo-Sa 10:45", "name": "USPS COLLECTION BOX - BLUE BOX", "nsi_id": "unitedstatespostalservice-a77078", "operator": "United States Postal Service", "operator:short": "USPS", "operator:type": "public", "operator:wikidata": "Q668687", "ref": "6734500001"}, "type": "Feature"}
{"dataset_attributes": {"@spider": "usps_collection_boxes", "spider:collection_time": "2023-09-19T08:25:58.007339"}, "geometry": {"coordinates": [-96.189476, 37.372979], "type": "Point"}, "id": "C9oNwWq3ye2TdpXtE3QN8SCY9BU=", "properties": {"@spider": "usps_collection_boxes", "addr:city": "ELK FALLS", "addr:country": "US", "addr:full": "712 7TH ST", "addr:postcode": "67345", "addr:state": "KS", "amenity": "post_box", "brand": "United States Postal Service", "brand:wikidata": "Q668687", "collection_times": "Mo-Sa 10:45", "name": "USPS COLLECTION BOX - PO LOBBY", "nsi_id": "unitedstatespostalservice-a77078", "operator": "United States Postal Service", "operator:short": "USPS", "operator:type": "public", "operator:wikidata": "Q668687", "ref": "6734500002"}, "type": "Feature"}
{"dataset_attributes": {"@spider": "usps_collection_boxes", "spider:collection_time": "2023-09-19T08:25:58.007339"}, "geometry": {"coordinates": [-96.189475393, 37.372976749], "type": "Point"}, "id": "gP60WlClKxk2j78XGboN9_PaeiU=", "properties": {"@spider": "usps_collection_boxes", "addr:city": "ELK FALLS", "addr:country": "US", "addr:full": "712 7TH ST", "addr:postcode": "67345", "addr:state": "KS", "amenity": "post_box", "brand": "United States Postal Service", "brand:wikidata": "Q668687", "collection_times": "Mo-Sa 10:45", "name": "USPS COLLECTION BOX - PO LOBBY", "nsi_id": "unitedstatespostalservice-a77078", "operator": "United States Postal Service", "operator:short": "USPS", "operator:type": "public", "operator:wikidata": "Q668687", "ref": "6734500003"}, "type": "Feature"}
{"dataset_attributes": {"@spider": "usps_collection_boxes", "spider:collection_time": "2023-09-19T08:25:58.007339"}, "geometry": {"coordinates": [-96.4494499, 37.347552], "type": "Point"}, "id": "aNymkQsstp5nBdgSVQbePryopJ8=", "properties": {"@spider": "usps_collection_boxes", "addr:city": "GRENOLA", "addr:country": "US", "addr:full": "115 S MAIN ST", "addr:postcode": "67346", "addr:state": "KS", "amenity": "post_box", "brand": "United States Postal Service", "brand:wikidata": "Q668687", "collection_times": "Mo-Sa 14:10", "name": "USPS COLLECTION BOX - BLUE BOX", "note": "ON 12/24 AND 12/31, THIS BOX MAY BE COLLECTED AS EARLY AS 12 NOON.", "nsi_id": "unitedstatespostalservice-a77078", "operator": "United States Postal Service", "operator:short": "USPS", "operator:type": "public", "operator:wikidata": "Q668687", "ref": "6734600001"}, "type": "Feature"}
{"dataset_attributes": {"@spider": "usps_collection_boxes", "spider:collection_time": "2023-09-19T08:25:58.007339"}, "geometry": {"coordinates": [-95.9408379, 37.091714], "type": "Point"}, "id": "zNwIE7nuOfe0_aOROJBHImnRLX4=", "properties": {"@spider": "usps_collection_boxes", "addr:city": "HAVANA", "addr:country": "US", "addr:full": "505 E MARY ST", "addr:postcode": "67347", "addr:state": "KS", "amenity": "post_box", "brand": "United States Postal Service", "brand:wikidata": "Q668687", "collection_times": "Mo-Sa 09:45", "name": "USPS COLLECTION BOX - BLUE BOX", "nsi_id": "unitedstatespostalservice-a77078", "operator": "United States Postal Service", "operator:short": "USPS", "operator:type": "public", "operator:wikidata": "Q668687", "ref": "6734700001"}, "type": "Feature"}
{"dataset_attributes": {"@spider": "usps_collection_boxes", "spider:collection_time": "2023-09-19T08:25:58.007339"}, "geometry": {"coordinates": [-95.940792, 37.091833], "type": "Point"}, "id": "W-z9QSKP6I5yy0MH_FwvuWyE0SU=", "properties": {"@spider": "usps_collection_boxes", "addr:city": "HAVANA", "addr:country": "US", "addr:full": "505 E MARY ST", "addr:postcode": "67347", "addr:state": "KS", "amenity": "post_box", "brand": "United States Postal Service", "brand:wikidata": "Q668687", "collection_times": "Mo-Sa 09:45", "name": "USPS COLLECTION BOX - PO LOBBY", "nsi_id": "unitedstatespostalservice-a77078", "operator": "United States Postal Service", "operator:short": "USPS", "operator:type": "public", "operator:wikidata": "Q668687", "ref": "6734700002"}, "type": "Feature"}
{"dataset_attributes": {"@spider": "usps_collection_boxes", "spider:collection_time": "2023-09-19T08:25:58.007339"}, "geometry": {"coordinates": [-95.940450168, 37.091820511], "type": "Point"}, "id": "730WmaDpEVcLt_LFKciweSqvmng=", "properties": {"@spider": "usps_collection_boxes", "addr:city": "HAVANA", "addr:country": "US", "addr:full": "505 E MARY ST", "addr:postcode": "67347", "addr:state": "KS", "amenity": "post_box", "brand": "United States Postal Service", "brand:wikidata": "Q668687", "collection_times": "Mo-Sa 09:45", "name": "USPS COLLECTION BOX - PO LOBBY", "nsi_id": "unitedstatespostalservice-a77078", "operator": "United States Postal Service", "operator:short": "USPS", "operator:type": "public", "operator:wikidata": "Q668687", "ref": "6734700003"}, "type": "Feature"}
{"dataset_attributes": {"@spider": "usps_collection_boxes", "spider:collection_time": "2023-09-19T08:25:58.007339"}, "geometry": {"coordinates": [-96.262592223, 37.4689775395], "type": "Point"}, "id": "rczElYRYGxm3IC0Y_SOP6CrdD6Y=", "properties": {"@spider": "usps_collection_boxes", "addr:city": "HOWARD", "addr:country": "US", "addr:full": "135 E RANDOLPH ST", "addr:postcode": "67349", "addr:state": "KS", "amenity": "post_box", "brand": "United States Postal Service", "brand:wikidata": "Q668687", "collection_times": "Mo-Fr 14:40; Sa 09:30", "name": "USPS COLLECTION BOX - BLUE BOX", "note": "ON 12/24 AND 12/31, THIS BOX MAY BE COLLECTED AS EARLY AS 12 NOON.", "nsi_id": "unitedstatespostalservice-a77078", "operator": "United States Postal Service", "operator:short": "USPS", "operator:type": "public", "operator:wikidata": "Q668687", "ref": "6734900001"}, "type": "Feature"}
{"dataset_attributes": {"@spider": "usps_collection_boxes", "spider:collection_time": "2023-09-19T08:25:58.007339"}, "geometry": {"coordinates": [-96.262592223, 37.4689775395], "type": "Point"}, "id": "HP7Qm7KOVibHhOn5SvTu8D0WOjE=", "properties": {"@spider": "usps_collection_boxes", "addr:city": "HOWARD", "addr:country": "US", "addr:full": "135 E RANDOLPH ST", "addr:postcode": "67349", "addr:state": "KS", "amenity": "post_box", "brand": "United States Postal Service", "brand:wikidata": "Q668687", "collection_times": "Mo-Fr 14:40; Sa 09:30", "name": "USPS COLLECTION BOX - PO LOBBY", "note": "ON 12/24 AND 12/31, THIS BOX MAY BE COLLECTED AS EARLY AS 12 NOON.", "nsi_id": "unitedstatespostalservice-a77078", "operator": "United States Postal Service", "operator:short": "USPS", "operator:type": "public", "operator:wikidata": "Q668687", "ref": "6734900002"}, "type": "Feature"}
{"dataset_attributes": {"@spider": "usps_collection_boxes", "spider:collection_time": "2023-09-19T08:25:58.007339"}, "geometry": {"coordinates": [-96.262592223, 37.4689775395], "type": "Point"}, "id": "wqcM4MiRb626Ao2-ZZVw8OS0sRM=", "properties": {"@spider": "usps_collection_boxes", "addr:city": "HOWARD", "addr:country": "US", "addr:full": "135 E RANDOLPH ST", "addr:postcode": "67349", "addr:state": "KS", "amenity": "post_box", "brand": "United States Postal Service", "brand:wikidata": "Q668687", "collection_times": "Mo-Fr 14:40; Sa 09:30", "name": "USPS COLLECTION BOX - PO LOBBY", "note": "ON 12/24 AND 12/31, THIS BOX MAY BE COLLECTED AS EARLY AS 12 NOON.", "nsi_id": "unitedstatespostalservice-a77078", "operator": "United States Postal Service", "operator:short": "USPS", "operator:type": "public", "operator:wikidata": "Q668687", "ref": "6734900003"}, "type": "Feature"}
{"dataset_attributes": {"@spider": "usps_collection_boxes", "spider:collection_time": "2023-09-19T08:25:58.007339"}, "geometry": {"coordinates": [-95.596247, 37.15554], "type": "Point"}, "id": "023nTXxT-CSeLWRYoacO9ZxmcwQ=", "properties": {"@spider": "usps_collection_boxes", "addr:city": "LIBERTY", "addr:country": "US", "addr:full": "204 MAIN ST", "addr:postcode": "67351", "addr:state": "KS", "amenity": "post_box", "brand": "United States Postal Service", "brand:wikidata": "Q668687", "collection_times": "Mo-Sa 09:45", "name": "USPS COLLECTION BOX - BLUE BOX", "nsi_id": "unitedstatespostalservice-a77078", "operator": "United States Postal Service", "operator:short": "USPS", "operator:type": "public", "operator:wikidata": "Q668687", "ref": "6735100001"}, "type": "Feature"}
{"dataset_attributes": {"@spider": "usps_collection_boxes", "spider:collection_time": "2023-09-19T08:25:58.007339"}, "geometry": {"coordinates": [-95.596247, 37.15554], "type": "Point"}, "id": "QFrKMGtJQO-Xt1MU9KHWrLlywiA=", "properties": {"@spider": "usps_collection_boxes", "addr:city": "LIBERTY", "addr:country": "US", "addr:full": "204 MAIN ST", "addr:postcode": "67351", "addr:state": "KS", "amenity": "post_box", "brand": "United States Postal Service", "brand:wikidata": "Q668687", "collection_times": "Mo-Sa 09:45", "name": "USPS COLLECTION BOX - PO LOBBY", "nsi_id": "unitedstatespostalservice-a77078", "operator": "United States Postal Service", "operator:short": "USPS", "operator:type": "public", "operator:wikidata": "Q668687", "ref": "6735100002"}, "type": "Feature"}
{"dataset_attributes": {"@spider": "usps_collection_boxes", "spider:collection_time": "2023-09-19T08:25:58.007339"}, "geometry": {"coordinates": [-95.596211683, 37.155581721], "type": "Point"}, "id": "9MJ1Cb8dfvbJ-QKxhSk-EHstgvc=", "properties": {"@spider": "usps_collection_boxes", "addr:city": "LIBERTY", "addr:country": "US", "addr:full": "204 MAIN ST", "addr:postcode": "67351", "addr:state": "KS", "amenity": "post_box", "brand": "United States Postal Service", "brand:wikidata": "Q668687", "collection_times": "Mo-Sa 09:45", "name": "USPS COLLECTION BOX - PO LOBBY", "nsi_id": "unitedstatespostalservice-a77078", "operator": "United States Postal Service", "operator:short": "USPS", "operator:type": "public", "operator:wikidata": "Q668687", "ref": "6735100003"}, "type": "Feature"}
{"dataset_attributes": {"@spider": "usps_collection_boxes", "spider:collection_time": "2023-09-19T08:25:58.007339"}, "geometry": {"coordinates": [-96.080707426, 37.3783134971], "type": "Point"}, "id": "duGcoNzUvF56SIVBBOP1YWTXNMg=", "properties": {"@spider": "usps_collection_boxes", "addr:city": "LONGTON", "addr:country": "US", "addr:full": "416 KANSAS", "addr:postcode": "67352", "addr:state": "KS", "amenity": "post_box", "brand": "United States Postal Service", "brand:wikidata": "Q668687", "collection_times": "Mo-Sa 15:20", "name": "USPS COLLECTION BOX - BLUE BOX", "note": "ON 12/24 AND 12/31, THIS BOX MAY BE COLLECTED AS EARLY AS 12 NOON.", "nsi_id": "unitedstatespostalservice-a77078", "operator": "United States Postal Service", "operator:short": "USPS", "operator:type": "public", "operator:wikidata": "Q668687", "ref": "6735200001"}, "type": "Feature"}
{"dataset_attributes": {"@spider": "usps_collection_boxes", "spider:collection_time": "2023-09-19T08:25:58.007339"}, "geometry": {"coordinates": [-96.302833, 37.361474], "type": "Point"}, "id": "kmuqIff_lOwOvLlMCwTGOnYL9co=", "properties": {"@spider": "usps_collection_boxes", "addr:city": "MOLINE", "addr:country": "US", "addr:full": "112 N MAIN ST", "addr:postcode": "67353", "addr:state": "KS", "amenity": "post_box", "brand": "United States Postal Service", "brand:wikidata": "Q668687", "collection_times": "Mo-Fr 11:45; Sa 09:00", "name": "USPS COLLECTION BOX - BLUE BOX", "nsi_id": "unitedstatespostalservice-a77078", "operator": "United States Postal Service", "operator:short": "USPS", "operator:type": "public", "operator:wikidata": "Q668687", "ref": "6735300001"}, "type": "Feature"}
{"dataset_attributes": {"@spider": "usps_collection_boxes", "spider:collection_time": "2023-09-19T08:25:58.007339"}, "geometry": {"coordinates": [-96.302833, 37.361474], "type": "Point"}, "id": "pU4TUhNOSKSqaEzwuyVSYjsGzAE=", "properties": {"@spider": "usps_collection_boxes", "addr:city": "MOLINE", "addr:country": "US", "addr:full": "112 N MAIN ST", "addr:postcode": "67353", "addr:state": "KS", "amenity": "post_box", "brand": "United States Postal Service", "brand:wikidata": "Q668687", "collection_times": "Mo-Fr 11:45; Sa 09:00", "name": "USPS COLLECTION BOX - PO LOBBY", "nsi_id": "unitedstatespostalservice-a77078", "operator": "United States Postal Service", "operator:short": "USPS", "operator:type": "public", "operator:wikidata": "Q668687", "ref": "6735300002"}, "type": "Feature"}
{"dataset_attributes": {"@spider": "usps_collection_boxes", "spider:collection_time": "2023-09-19T08:25:58.007339"}, "geometry": {"coordinates": [-96.302812105, 37.361442154], "type": "Point"}, "id": "HZMvgqrjYBH0h_BUcMsPO3yN9Dg=", "properties": {"@spider": "usps_collection_boxes", "addr:city": "MOLINE", "addr:country": "US", "addr:full": "112 N MAIN ST", "addr:postcode": "67353", "addr:state": "KS", "amenity": "post_box", "brand": "United States Postal Service", "brand:wikidata": "Q668687", "collection_times": "Mo-Fr 11:45; Sa 09:00", "name": "USPS COLLECTION BOX - PO LOBBY", "nsi_id": "unitedstatespostalservice-a77078", "operator": "United States Postal Service", "operator:short": "USPS", "operator:type": "public", "operator:wikidata": "Q668687", "ref": "6735300003"}, "type": "Feature"}
{"dataset_attributes": {"@spider": "usps_collection_boxes", "spider:collection_time": "2023-09-19T08:25:58.007339"}, "geometry": {"coordinates": [-95.4049079, 37.205168], "type": "Point"}, "id": "zHnBZL4OLhkEgXGQKKNVQxkGMoU=", "properties": {"@spider": "usps_collection_boxes", "addr:city": "MOUND VALLEY", "addr:country": "US", "addr:full": "413 HICKORY ST", "addr:postcode": "67354", "addr:state": "KS", "amenity": "post_box", "brand": "United States Postal Service", "brand:wikidata": "Q668687", "collection_times": "Mo-Fr 11:15; Sa 08:45", "name": "USPS COLLECTION BOX - BLUE BOX", "nsi_id": "unitedstatespostalservice-a77078", "operator": "United States Postal Service", "operator:short": "USPS", "operator:type": "public", "operator:wikidata": "Q668687", "ref": "6735400001"}, "type": "Feature"}
{"dataset_attributes": {"@spider": "usps_collection_boxes", "spider:collection_time": "2023-09-19T08:25:58.007339"}, "geometry": {"coordinates": [-95.404956, 37.205291], "type": "Point"}, "id": "jRt9F9bh-O1NDydFLYyycuoq8Jc=", "properties": {"@spider": "usps_collection_boxes", "addr:city": "MOUND VALLEY", "addr:country": "US", "addr:full": "413 HICKORY ST", "addr:postcode": "67354", "addr:state": "KS", "amenity": "post_box", "brand": "United States Postal Service", "brand:wikidata": "Q668687", "collection_times": "Mo-Fr 11:15; Sa 08:45", "name": "USPS COLLECTION BOX - PO LOBBY", "nsi_id": "unitedstatespostalservice-a77078", "operator": "United States Postal Service", "operator:short": "USPS", "operator:type": "public", "operator:wikidata": "Q668687", "ref": "6735400002"}, "type": "Feature"}
{"dataset_attributes": {"@spider": "usps_collection_boxes", "spider:collection_time": "2023-09-19T08:25:58.007339"}, "geometry": {"coordinates": [-95.404959473, 37.205288832], "type": "Point"}, "id": "Yk2Fw4gunQA0gAY6wUgT7a-ZUq4=", "properties": {"@spider": "usps_collection_boxes", "addr:city": "MOUND VALLEY", "addr:country": "US", "addr:full": "413 HICKORY ST", "addr:postcode": "67354", "addr:state": "KS", "amenity": "post_box", "brand": "United States Postal Service", "brand:wikidata": "Q668687", "collection_times": "Mo-Fr 11:15; Sa 08:45", "name": "USPS COLLECTION BOX - PO LOBBY", "nsi_id": "unitedstatespostalservice-a77078", "operator": "United States Postal Service", "operator:short": "USPS", "operator:type": "public", "operator:wikidata": "Q668687", "ref": "6735400003"}, "type": "Feature"}
{"dataset_attributes": {"@spider": "usps_collection_boxes", "spider:collection_time": "2023-09-19T08:25:58.007339"}, "geometry": {"coordinates": [-96.01406428, 37.067932298], "type": "Point"}, "id": "Ele8TD0RVogM9Pfa_a6jVF_kDow=", "properties": {"@spider": "usps_collection_boxes", "addr:city": "NIOTAZE", "addr:country": "US", "addr:full": "113 W NORTH 2ND ST", "addr:postcode": "67355", "addr:state": "KS", "amenity": "post_box", "brand": "United States Postal Service", "brand:wikidata": "Q668687", "collection_times": "Mo-Sa 09:45", "name": "USPS COLLECTION BOX - BLUE BOX", "nsi_id": "unitedstatespostalservice-a77078", "operator": "United States Postal Service", "operator:short": "USPS", "operator:type": "public", "operator:wikidata": "Q668687", "ref": "6735500001"}, "type": "Feature"}
{"dataset_attributes": {"@spider": "usps_collection_boxes", "spider:collection_time": "2023-09-19T08:25:58.007339"}, "geometry": {"coordinates": [-96.01406428, 37.0679322981], "type": "Point"}, "id": "mAXnEyLAh7giiPHFq5JGZko4GJE=", "properties": {"@spider": "usps_collection_boxes", "addr:city": "NIOTAZE", "addr:country": "US", "addr:full": "113 W NORTH 2ND ST", "addr:postcode": "67355", "addr:state": "KS", "amenity": "post_box", "brand": "United States Postal Service", "brand:wikidata": "Q668687", "collection_times": "Mo-Sa 09:45", "name": "USPS COLLECTION BOX - PO LOBBY", "nsi_id": "unitedstatespostalservice-a77078", "operator": "United States Postal Service", "operator:short": "USPS", "operator:type": "public", "operator:wikidata": "Q668687", "ref": "6735500003"}, "type": "Feature"}
{"dataset_attributes": {"@spider": "usps_collection_boxes", "spider:collection_time": "2023-09-19T08:25:58.007339"}, "geometry": {"coordinates": [-95.1076146, 37.165454], "type": "Point"}, "id": "Y1lybaNuwzyE3hxMGfbBxrh4ehg=", "properties": {"@spider": "usps_collection_boxes", "addr:city": "OSWEGO", "addr:country": "US", "addr:full": "501 MERCHANT ST", "addr:postcode": "67356", "addr:state": "KS", "amenity": "post_box", "brand": "United States Postal Service", "brand:wikidata": "Q668687", "collection_times": "Mo-Fr 12:00", "name": "USPS COLLECTION BOX - BLUE BOX", "nsi_id": "unitedstatespostalservice-a77078", "operator": "United States Postal Service", "operator:short": "USPS", "operator:type": "public", "operator:wikidata": "Q668687", "ref": "6735600001"}, "type": "Feature"}
{"dataset_attributes": {"@spider": "usps_collection_boxes", "spider:collection_time": "2023-09-19T08:25:58.007339"}, "geometry": {"coordinates": [-95.109714, 37.1671364572], "type": "Point"}, "id": "AMvSXXPQNsDdTG8hmu6ezUGD0F8=", "properties": {"@spider": "usps_collection_boxes", "addr:city": "OSWEGO", "addr:country": "US", "addr:full": "819 4TH ST", "addr:postcode": "67356", "addr:state": "KS", "amenity": "post_box", "brand": "United States Postal Service", "brand:wikidata": "Q668687", "collection_times": "Mo-Fr 14:20; Sa 10:00", "name": "USPS COLLECTION BOX - BLUE BOX", "note": "ON 12/24 AND 12/31, THIS BOX MAY BE COLLECTED AS EARLY AS 12 NOON.", "nsi_id": "unitedstatespostalservice-a77078", "operator": "United States Postal Service", "operator:short": "USPS", "operator:type": "public", "operator:wikidata": "Q668687", "ref": "6735600003"}, "type": "Feature"}
{"dataset_attributes": {"@spider": "usps_collection_boxes", "spider:collection_time": "2023-09-19T08:25:58.007339"}, "geometry": {"coordinates": [-95.109714, 37.1671364572], "type": "Point"}, "id": "FpPPbJoNHCPRiy_cZLfyJqpcDw4=", "properties": {"@spider": "usps_collection_boxes", "addr:city": "OSWEGO", "addr:country": "US", "addr:full": "819 4TH ST", "addr:postcode": "67356", "addr:state": "KS", "amenity": "post_box", "brand": "United States Postal Service", "brand:wikidata": "Q668687", "collection_times": "Mo-Fr 14:20; Sa 10:00", "name": "USPS COLLECTION BOX - PO LOBBY", "note": "ON 12/24 AND 12/31, THIS BOX MAY BE COLLECTED AS EARLY AS 12 NOON.", "nsi_id": "unitedstatespostalservice-a77078", "operator": "United States Postal Service", "operator:short": "USPS", "operator:type": "public", "operator:wikidata": "Q668687", "ref": "6735600005"}, "type": "Feature"}
{"dataset_attributes": {"@spider": "usps_collection_boxes", "spider:collection_time": "2023-09-19T08:25:58.007339"}, "geometry": {"coordinates": [-95.109714, 37.1671364572], "type": "Point"}, "id": "BU9GxFrIdm_EINc8B9O_tx6un-U=", "properties": {"@spider": "usps_collection_boxes", "addr:city": "OSWEGO", "addr:country": "US", "addr:full": "819 4TH ST", "addr:postcode": "67356", "addr:state": "KS", "amenity": "post_box", "brand": "United States Postal Service", "brand:wikidata": "Q668687", "collection_times": "Mo-Fr 14:20; Sa 10:00", "name": "USPS COLLECTION BOX - PO LOBBY", "note": "ON 12/24 AND 12/31, THIS BOX MAY BE COLLECTED AS EARLY AS 12 NOON.", "nsi_id": "unitedstatespostalservice-a77078", "operator": "United States Postal Service", "operator:short": "USPS", "operator:type": "public", "operator:wikidata": "Q668687", "ref": "6735600006"}, "type": "Feature"}
{"dataset_attributes": {"@spider": "usps_collection_boxes", "spider:collection_time": "2023-09-19T08:25:58.007339"}, "geometry": {"coordinates": [-95.261161, 37.340463], "type": "Point"}, "id": "XB3xKbPiWN3iGRqnlsBMvOs02PE=", "properties": {"@spider": "usps_collection_boxes", "addr:city": "PARSONS", "addr:country": "US", "addr:full": "1700 MAIN ST", "addr:postcode": "67357", "addr:state": "KS", "amenity": "post_box", "brand": "United States Postal Service", "brand:wikidata": "Q668687", "collection_times": "Mo-Fr 14:20; Sa 10:30", "name": "USPS COLLECTION BOX - BLUE BOX", "note": "ON 12/24 AND 12/31, THIS BOX MAY BE COLLECTED AS EARLY AS 12 NOON.", "nsi_id": "unitedstatespostalservice-a77078", "operator": "United States Postal Service", "operator:short": "USPS", "operator:type": "public", "operator:wikidata": "Q668687", "ref": "6735700001"}, "type": "Feature"}
{"dataset_attributes": {"@spider": "usps_collection_boxes", "spider:collection_time": "2023-09-19T08:25:58.007339"}, "geometry": {"coordinates": [-95.261161, 37.340463], "type": "Point"}, "id": "_DRI-JF0IhZ4eCzAio1XOGwjiN0=", "properties": {"@spider": "usps_collection_boxes", "addr:city": "PARSONS", "addr:country": "US", "addr:full": "1700 MAIN ST", "addr:postcode": "67357", "addr:state": "KS", "amenity": "post_box", "brand": "United States Postal Service", "brand:wikidata": "Q668687", "collection_times": "Mo-Fr 14:20; Sa 10:30", "name": "USPS COLLECTION BOX - PO LOBBY", "note": "ON 12/24 AND 12/31, THIS BOX MAY BE COLLECTED AS EARLY AS 12 NOON.", "nsi_id": "unitedstatespostalservice-a77078", "operator": "United States Postal Service", "operator:short": "USPS", "operator:type": "public", "operator:wikidata": "Q668687", "ref": "6735700011"}, "type": "Feature"}
{"dataset_attributes": {"@spider": "usps_collection_boxes", "spider:collection_time": "2023-09-19T08:25:58.007339"}, "geometry": {"coordinates": [-95.2611516932, 37.3404695467], "type": "Point"}, "id": "MfuxfVmpUyBbQj8b2A7APwmjCOY=", "properties": {"@spider": "usps_collection_boxes", "addr:city": "PARSONS", "addr:country": "US", "addr:full": "1700 MAIN ST", "addr:postcode": "67357", "addr:state": "KS", "amenity": "post_box", "brand": "United States Postal Service", "brand:wikidata": "Q668687", "collection_times": "Mo-Fr 14:20; Sa 10:30", "name": "USPS COLLECTION BOX - PO LOBBY", "note": "ON 12/24 AND 12/31, THIS BOX MAY BE COLLECTED AS EARLY AS 12 NOON.", "nsi_id": "unitedstatespostalservice-a77078", "operator": "United States Postal Service", "operator:short": "USPS", "operator:type": "public", "operator:wikidata": "Q668687", "ref": "6735700014"}, "type": "Feature"}
{"dataset_attributes": {"@spider": "usps_collection_boxes", "spider:collection_time": "2023-09-19T08:25:58.007339"}, "geometry": {"coordinates": [-96.0969319, 37.085182], "type": "Point"}, "id": "_5poexRZrG4q8IsKWbj0LuiKcpc=", "properties": {"@spider": "usps_collection_boxes", "addr:city": "PERU", "addr:country": "US", "addr:full": "101 E 6TH ST", "addr:postcode": "67360", "addr:state": "KS", "amenity": "post_box", "brand": "United States Postal Service", "brand:wikidata": "Q668687", "collection_times": "Mo-Fr 14:15; Sa 11:15", "name": "USPS COLLECTION BOX - BLUE BOX", "note": "ON 12/24 AND 12/31, THIS BOX MAY BE COLLECTED AS EARLY AS 12 NOON.", "nsi_id": "unitedstatespostalservice-a77078", "operator": "United States Postal Service", "operator:short": "USPS", "operator:type": "public", "operator:wikidata": "Q668687", "ref": "6736000001"}, "type": "Feature"}
{"dataset_attributes": {"@spider": "usps_collection_boxes", "spider:collection_time": "2023-09-19T08:25:58.007339"}, "geometry": {"coordinates": [-96.096931, 37.085233], "type": "Point"}, "id": "JrCJznjXm5dmRV9bTnPtRH97XZA=", "properties": {"@spider": "usps_collection_boxes", "addr:city": "PERU", "addr:country": "US", "addr:full": "101 E 6TH ST", "addr:postcode": "67360", "addr:state": "KS", "amenity": "post_box", "brand": "United States Postal Service", "brand:wikidata": "Q668687", "collection_times": "Mo-Fr 14:15; Sa 11:15", "name": "USPS COLLECTION BOX - PO LOBBY", "note": "ON 12/24 AND 12/31, THIS BOX MAY BE COLLECTED AS EARLY AS 12 NOON.", "nsi_id": "unitedstatespostalservice-a77078", "operator": "United States Postal Service", "operator:short": "USPS", "operator:type": "public", "operator:wikidata": "Q668687", "ref": "6736000002"}, "type": "Feature"}
{"dataset_attributes": {"@spider": "usps_collection_boxes", "spider:collection_time": "2023-09-19T08:25:58.007339"}, "geometry": {"coordinates": [-96.096883668, 37.085229547], "type": "Point"}, "id": "G5QIMGKGnUKMR1rXcsBFsSOeNpI=", "properties": {"@spider": "usps_collection_boxes", "addr:city": "PERU", "addr:country": "US", "addr:full": "101 E 6TH ST", "addr:postcode": "67360", "addr:state": "KS", "amenity": "post_box", "brand": "United States Postal Service", "brand:wikidata": "Q668687", "collection_times": "Mo-Fr 14:15; Sa 11:15", "name": "USPS COLLECTION BOX - PO LOBBY", "note": "ON 12/24 AND 12/31, THIS BOX MAY BE COLLECTED AS EARLY AS 12 NOON.", "nsi_id": "unitedstatespostalservice-a77078", "operator": "United States Postal Service", "operator:short": "USPS", "operator:type": "public", "operator:wikidata": "Q668687", "ref": "6736000003"}, "type": "Feature"}
{"dataset_attributes": {"@spider": "usps_collection_boxes", "spider:collection_time": "2023-09-19T08:25:58.007339"}, "geometry": {"coordinates": [-96.188205, 37.1267], "type": "Point"}, "id": "N5f_2myBAOfWTcHfa5awXM1i44o=", "properties": {"@spider": "usps_collection_boxes", "addr:city": "SEDAN", "addr:country": "US", "addr:full": "109 S MONTGOMERY ST", "addr:postcode": "67361", "addr:state": "KS", "amenity": "post_box", "brand": "United States Postal Service", "brand:wikidata": "Q668687", "collection_times": "Mo-Fr 14:10; Sa 09:00", "name": "USPS COLLECTION BOX - BLUE BOX", "note": "ON 12/24 AND 12/31, THIS BOX MAY BE COLLECTED AS EARLY AS 12 NOON.", "nsi_id": "unitedstatespostalservice-a77078", "operator": "United States Postal Service", "operator:short": "USPS", "operator:type": "public", "operator:wikidata": "Q668687", "ref": "6736100001"}, "type": "Feature"}
{"dataset_attributes": {"@spider": "usps_collection_boxes", "spider:collection_time": "2023-09-19T08:25:58.007339"}, "geometry": {"coordinates": [-96.188481, 37.12683047], "type": "Point"}, "id": "zZC9_sfeq_moDSTI5OuNWXrE5cA=", "properties": {"@spider": "usps_collection_boxes", "addr:city": "SEDAN", "addr:country": "US", "addr:full": "205 W MAIN ST", "addr:postcode": "67361", "addr:state": "KS", "amenity": "post_box", "brand": "United States Postal Service", "brand:wikidata": "Q668687", "collection_times": "Mo-Fr 14:10; Sa 09:00", "name": "USPS COLLECTION BOX - PO LOBBY", "note": "ON 12/24 AND 12/31, THIS BOX MAY BE COLLECTED AS EARLY AS 12 NOON.", "nsi_id": "unitedstatespostalservice-a77078", "operator": "United States Postal Service", "operator:short": "USPS", "operator:type": "public", "operator:wikidata": "Q668687", "ref": "6736100002"}, "type": "Feature"}
{"dataset_attributes": {"@spider": "usps_collection_boxes", "spider:collection_time": "2023-09-19T08:25:58.007339"}, "geometry": {"coordinates": [-96.188481, 37.12683047], "type": "Point"}, "id": "moWbpjMBZA6wtA7_SdNUnBi4rcM=", "properties": {"@spider": "usps_collection_boxes", "addr:city": "SEDAN", "addr:country": "US", "addr:full": "205 W MAIN ST", "addr:postcode": "67361", "addr:state": "KS", "amenity": "post_box", "brand": "United States Postal Service", "brand:wikidata": "Q668687", "collection_times": "Mo-Fr 14:10; Sa 09:00", "name": "USPS COLLECTION BOX - PO LOBBY", "note": "ON 12/24 AND 12/31, THIS BOX MAY BE COLLECTED AS EARLY AS 12 NOON.", "nsi_id": "unitedstatespostalservice-a77078", "operator": "United States Postal Service", "operator:short": "USPS", "operator:type": "public", "operator:wikidata": "Q668687", "ref": "6736100004"}, "type": "Feature"}
{"dataset_attributes": {"@spider": "usps_collection_boxes", "spider:collection_time": "2023-09-19T08:25:58.007339"}, "geometry": {"coordinates": [-95.7105914, 37.327042], "type": "Point"}, "id": "A4PmJzfY0tUboCBS7LjeTpNHAoQ=", "properties": {"@spider": "usps_collection_boxes", "addr:city": "SYCAMORE", "addr:country": "US", "addr:full": "102 E MAIN", "addr:postcode": "67363", "addr:state": "KS", "amenity": "post_box", "brand": "United States Postal Service", "brand:wikidata": "Q668687", "collection_times": "Mo-Sa 09:45", "name": "USPS COLLECTION BOX - BLUE BOX", "nsi_id": "unitedstatespostalservice-a77078", "operator": "United States Postal Service", "operator:short": "USPS", "operator:type": "public", "operator:wikidata": "Q668687", "ref": "6736300001"}, "type": "Feature"}
{"dataset_attributes": {"@spider": "usps_collection_boxes", "spider:collection_time": "2023-09-19T08:25:58.007339"}, "geometry": {"coordinates": [-95.7108406365, 37.326948343], "type": "Point"}, "id": "702lgtKUcLPdipXwk5fmPnoVbQY=", "properties": {"@spider": "usps_collection_boxes", "addr:city": "SYCAMORE", "addr:country": "US", "addr:full": "102 E MAIN", "addr:postcode": "67363", "addr:state": "KS", "amenity": "post_box", "brand": "United States Postal Service", "brand:wikidata": "Q668687", "collection_times": "Mo-Sa 09:45", "name": "USPS COLLECTION BOX - PO LOBBY", "nsi_id": "unitedstatespostalservice-a77078", "operator": "United States Postal Service", "operator:short": "USPS", "operator:type": "public", "operator:wikidata": "Q668687", "ref": "6736300002"}, "type": "Feature"}
{"dataset_attributes": {"@spider": "usps_collection_boxes", "spider:collection_time": "2023-09-19T08:25:58.007339"}, "geometry": {"coordinates": [-95.710977265, 37.327052224], "type": "Point"}, "id": "4uNaoiO-M0XJ0nVt69pp68RCnMw=", "properties": {"@spider": "usps_collection_boxes", "addr:city": "SYCAMORE", "addr:country": "US", "addr:full": "102 E MAIN", "addr:postcode": "67363", "addr:state": "KS", "amenity": "post_box", "brand": "United States Postal Service", "brand:wikidata": "Q668687", "collection_times": "Mo-Sa 09:45", "name": "USPS COLLECTION BOX - PO LOBBY", "nsi_id": "unitedstatespostalservice-a77078", "operator": "United States Postal Service", "operator:short": "USPS", "operator:type": "public", "operator:wikidata": "Q668687", "ref": "6736300003"}, "type": "Feature"}
{"dataset_attributes": {"@spider": "usps_collection_boxes", "spider:collection_time": "2023-09-19T08:25:58.007339"}, "geometry": {"coordinates": [-95.8214566, 37.036395], "type": "Point"}, "id": "E_sLvx4z_9zk3e-cD54hBMAPE1Y=", "properties": {"@spider": "usps_collection_boxes", "addr:city": "TYRO", "addr:country": "US", "addr:full": "202 W MAIN ST", "addr:postcode": "67364", "addr:state": "KS", "amenity": "post_box", "brand": "United States Postal Service", "brand:wikidata": "Q668687", "collection_times": "Mo-Fr 12:15; Sa 09:15", "name": "USPS COLLECTION BOX - BLUE BOX", "note": "ON 12/24 AND 12/31, THIS BOX MAY BE COLLECTED AS EARLY AS 12 NOON.", "nsi_id": "unitedstatespostalservice-a77078", "operator": "United States Postal Service", "operator:short": "USPS", "operator:type": "public", "operator:wikidata": "Q668687", "ref": "6736400001"}, "type": "Feature"}
{"dataset_attributes": {"@spider": "usps_collection_boxes", "spider:collection_time": "2023-09-19T08:25:58.007339"}, "geometry": {"coordinates": [-95.821075, 37.036243], "type": "Point"}, "id": "3Vd-ZfYMnkiXTILokUVal9TX37c=", "properties": {"@spider": "usps_collection_boxes", "addr:city": "TYRO", "addr:country": "US", "addr:full": "202 W MAIN ST", "addr:postcode": "67364", "addr:state": "KS", "amenity": "post_box", "brand": "United States Postal Service", "brand:wikidata": "Q668687", "collection_times": "Mo-Fr 12:15; Sa 09:15", "name": "USPS COLLECTION BOX - PO LOBBY", "note": "ON 12/24 AND 12/31, THIS BOX MAY BE COLLECTED AS EARLY AS 12 NOON.", "nsi_id": "unitedstatespostalservice-a77078", "operator": "United States Postal Service", "operator:short": "USPS", "operator:type": "public", "operator:wikidata": "Q668687", "ref": "6736400002"}, "type": "Feature"}
{"dataset_attributes": {"@spider": "usps_collection_boxes", "spider:collection_time": "2023-09-19T08:25:58.007339"}, "geometry": {"coordinates": [-95.8215605554, 37.0362755043], "type": "Point"}, "id": "RkedbacEq1GOi9eh_FsLtQfLjKc=", "properties": {"@spider": "usps_collection_boxes", "addr:city": "TYRO", "addr:country": "US", "addr:full": "202 W MAIN ST", "addr:postcode": "67364", "addr:state": "KS", "amenity": "post_box", "brand": "United States Postal Service", "brand:wikidata": "Q668687", "collection_times": "Mo-Fr 12:15; Sa 09:15", "name": "USPS COLLECTION BOX - PO LOBBY", "note": "ON 12/24 AND 12/31, THIS BOX MAY BE COLLECTED AS EARLY AS 12 NOON.", "nsi_id": "unitedstatespostalservice-a77078", "operator": "United States Postal Service", "operator:short": "USPS", "operator:type": "public", "operator:wikidata": "Q668687", "ref": "6736400003"}, "type": "Feature"}
