{"geometry": {"coordinates": [-97.765473, 39.27312], "type": "Point"}, "id": "zKuFdEaWuC5FjG5tIJWgLzrTFjg=", "properties": {"@spider": "usps_collection_boxes", "addr:city": "DELPHOS", "addr:country": "US", "addr:full": "120 N MAIN ST", "addr:postcode": "67436", "addr:state": "KS", "brand": "USPS", "collection_times": "Mo-Sa 13:15", "name": "USPS COLLECTION BOX - BLUE BOX", "note": "ON 12/24 AND 12/31, THIS BOX MAY BE COLLECTED AS EARLY AS 12 NOON.", "ref": "6743600001"}, "type": "Feature"}
{"geometry": {"coordinates": [-97.765473, 39.27312], "type": "Point"}, "id": "4bTisW6TW9KyXHw8sUgP246aSDY=", "properties": {"@spider": "usps_collection_boxes", "addr:city": "DELPHOS", "addr:country": "US", "addr:full": "120 N MAIN ST", "addr:postcode": "67436", "addr:state": "KS", "brand": "USPS", "collection_times": "Mo-Fr 11:45; Sa 08:45", "name": "USPS COLLECTION BOX - PO LOBBY", "ref": "6743600002"}, "type": "Feature"}
{"geometry": {"coordinates": [-97.7654175218, 39.2736949104], "type": "Point"}, "id": "P9UB1YDqszpSHmGPuX-77Oh1bPw=", "properties": {"@spider": "usps_collection_boxes", "addr:city": "DELPHOS", "addr:country": "US", "addr:full": "120 N MAIN ST", "addr:postcode": "67436", "addr:state": "KS", "brand": "USPS", "collection_times": "Mo-Fr 11:45; Sa 08:45", "name": "USPS COLLECTION BOX - PO LOBBY", "ref": "6743600003"}, "type": "Feature"}
{"geometry": {"coordinates": [-97.840457, 39.361131], "type": "Point"}, "id": "EgJPwDvYjoVUbpBKBnokaHSxyIU=", "properties": {"@spider": "usps_collection_boxes", "addr:city": "GLASCO", "addr:country": "US", "addr:full": "101 E MAIN ST", "addr:postcode": "67445", "addr:state": "KS", "brand": "USPS", "collection_times": "Mo-Sa 12:45", "name": "USPS COLLECTION BOX - BLUE BOX", "note": "ON 12/24 AND 12/31, THIS BOX MAY BE COLLECTED AS EARLY AS 12 NOON.", "ref": "6744500001"}, "type": "Feature"}
{"geometry": {"coordinates": [-97.840457, 39.361131], "type": "Point"}, "id": "qKrGOkPq9nb_ffyVDpHkLnsgLyc=", "properties": {"@spider": "usps_collection_boxes", "addr:city": "GLASCO", "addr:country": "US", "addr:full": "101 E MAIN ST", "addr:postcode": "67445", "addr:state": "KS", "brand": "USPS", "collection_times": "Mo-Fr 11:45; Sa 09:15", "name": "USPS COLLECTION BOX - PO LOBBY", "ref": "6744500002"}, "type": "Feature"}
{"geometry": {"coordinates": [-97.840460402, 39.36109847], "type": "Point"}, "id": "fpnpC9AQVyyqmpVnc1pafPzM75Q=", "properties": {"@spider": "usps_collection_boxes", "addr:city": "GLASCO", "addr:country": "US", "addr:full": "101 E MAIN ST", "addr:postcode": "67445", "addr:state": "KS", "brand": "USPS", "collection_times": "Mo-Fr 11:45; Sa 09:15", "name": "USPS COLLECTION BOX - PO LOBBY", "ref": "6744500003"}, "type": "Feature"}
