{"geometry": {"coordinates": [-97.9363110186, 38.0592729794], "type": "Point"}, "id": "Nq9LiMrWYVYsKg4PibzIaq3ZY7A=", "properties": {"@source_uri": "https://tools.usps.com/UspsToolsRestServices/rest/POLocator/findLocations", "@spider": "usps_collection_boxes", "addr:city": "HUTCHINSON", "addr:country": "US", "addr:postcode": "67501", "addr:state": "KS", "addr:street_address": "206 W 5TH AVE", "amenity": "post_box", "collection_times": "Mo-Sa 15:00", "note": "ON 12/24 AND 12/31, THIS BOX MAY BE COLLECTED AS EARLY AS 12 NOON.", "nsi_id": "unitedstatespostalservice-a77078", "operator": "United States Postal Service", "operator:short": "USPS", "operator:type": "public", "operator:wikidata": "Q668687", "ref": "6750100004"}, "type": "Feature"}
{"geometry": {"coordinates": [-97.9318551301, 38.064771], "type": "Point"}, "id": "ZSvkXUcUdFrsU5k6sVwgl9bQfAY=", "properties": {"@source_uri": "https://tools.usps.com/UspsToolsRestServices/rest/POLocator/findLocations", "@spider": "usps_collection_boxes", "addr:city": "HUTCHINSON", "addr:country": "US", "addr:postcode": "67501", "addr:state": "KS", "addr:street_address": "1020 N MAIN ST", "amenity": "post_box", "collection_times": "Mo-Sa 15:00", "note": "ON 12/24 AND 12/31, THIS BOX MAY BE COLLECTED AS EARLY AS 12 NOON.", "nsi_id": "unitedstatespostalservice-a77078", "operator": "United States Postal Service", "operator:short": "USPS", "operator:type": "public", "operator:wikidata": "Q668687", "ref": "6750100007"}, "type": "Feature"}
{"geometry": {"coordinates": [-97.929041, 38.053528], "type": "Point"}, "id": "4Jf5NAUW9iEdOo0cCH3P64aVfJA=", "properties": {"@source_uri": "https://tools.usps.com/UspsToolsRestServices/rest/POLocator/findLocations", "@spider": "usps_collection_boxes", "addr:city": "HUTCHINSON", "addr:country": "US", "addr:postcode": "67501", "addr:state": "KS", "addr:street_address": "128 E 1ST AVE", "amenity": "post_box", "collection_times": "Mo-Sa 18:45", "note": "ON 12/24 AND 12/31, THIS BOX MAY BE COLLECTED AS EARLY AS 12 NOON.", "nsi_id": "unitedstatespostalservice-a77078", "operator": "United States Postal Service", "operator:short": "USPS", "operator:type": "public", "operator:wikidata": "Q668687", "ref": "6750100012"}, "type": "Feature"}
{"geometry": {"coordinates": [-97.929041, 38.053528], "type": "Point"}, "id": "7ixxtRKPXVk1HJoM0fUJiNhwCEs=", "properties": {"@source_uri": "https://tools.usps.com/UspsToolsRestServices/rest/POLocator/findLocations", "@spider": "usps_collection_boxes", "addr:city": "HUTCHINSON", "addr:country": "US", "addr:postcode": "67501", "addr:state": "KS", "addr:street_address": "128 E 1ST AVE", "amenity": "post_box", "collection_times": "Mo-Sa 18:30", "indoor": "yes", "note": "ON 12/24 AND 12/31, THIS BOX MAY BE COLLECTED AS EARLY AS 12 NOON.", "nsi_id": "unitedstatespostalservice-a77078", "operator": "United States Postal Service", "operator:short": "USPS", "operator:type": "public", "operator:wikidata": "Q668687", "ref": "6750100034"}, "type": "Feature"}
{"geometry": {"coordinates": [-97.903151, 38.07116], "type": "Point"}, "id": "kmvJB7_CCTjRvO0ZWFaKIKGJFR8=", "properties": {"@source_uri": "https://tools.usps.com/UspsToolsRestServices/rest/POLocator/findLocations", "@spider": "usps_collection_boxes", "addr:city": "HUTCHINSON", "addr:country": "US", "addr:postcode": "67501", "addr:state": "KS", "addr:street_address": "1600 N LORRAINE ST", "amenity": "post_box", "collection_times": "Mo-Fr 16:30; Sa 16:00", "note": "ON 12/24 AND 12/31, THIS BOX MAY BE COLLECTED AS EARLY AS 12 NOON.", "nsi_id": "unitedstatespostalservice-a77078", "operator": "United States Postal Service", "operator:short": "USPS", "operator:type": "public", "operator:wikidata": "Q668687", "ref": "6750100035"}, "type": "Feature"}
{"geometry": {"coordinates": [-97.9031326, 38.071154], "type": "Point"}, "id": "BIoPh4ijp3VLD_ORx5kDd8BKHBU=", "properties": {"@source_uri": "https://tools.usps.com/UspsToolsRestServices/rest/POLocator/findLocations", "@spider": "usps_collection_boxes", "addr:city": "HUTCHINSON", "addr:country": "US", "addr:postcode": "67501", "addr:state": "KS", "addr:street_address": "1600 N LORRAINE ST", "amenity": "post_box", "collection_times": "Mo-Fr 16:30; Sa 16:00", "note": "ON 12/24 AND 12/31, THIS BOX MAY BE COLLECTED AS EARLY AS 12 NOON.", "nsi_id": "unitedstatespostalservice-a77078", "operator": "United States Postal Service", "operator:short": "USPS", "operator:type": "public", "operator:wikidata": "Q668687", "ref": "6750100036"}, "type": "Feature"}
{"geometry": {"coordinates": [-97.8942315, 38.068996], "type": "Point"}, "id": "MZy4EnxxasJb3lqToNxfSfX6VC8=", "properties": {"@source_uri": "https://tools.usps.com/UspsToolsRestServices/rest/POLocator/findLocations", "@spider": "usps_collection_boxes", "addr:city": "HUTCHINSON", "addr:country": "US", "addr:postcode": "67501", "addr:state": "KS", "addr:street_address": "1905 E 17TH AVE", "amenity": "post_box", "collection_times": "Mo-Sa 10:30", "nsi_id": "unitedstatespostalservice-a77078", "operator": "United States Postal Service", "operator:short": "USPS", "operator:type": "public", "operator:wikidata": "Q668687", "ref": "6750100038"}, "type": "Feature"}
{"geometry": {"coordinates": [-97.929041, 38.053528], "type": "Point"}, "id": "f6TXy7PLYrl_dmi1JEAjpMacUoI=", "properties": {"@source_uri": "https://tools.usps.com/UspsToolsRestServices/rest/POLocator/findLocations", "@spider": "usps_collection_boxes", "addr:city": "HUTCHINSON", "addr:country": "US", "addr:postcode": "67501", "addr:state": "KS", "addr:street_address": "128 E 1ST AVE", "amenity": "post_box", "collection_times": "Mo-Sa 18:30", "indoor": "yes", "note": "ON 12/24 AND 12/31, THIS BOX MAY BE COLLECTED AS EARLY AS 12 NOON.", "nsi_id": "unitedstatespostalservice-a77078", "operator": "United States Postal Service", "operator:short": "USPS", "operator:type": "public", "operator:wikidata": "Q668687", "ref": "6750100041"}, "type": "Feature"}
{"geometry": {"coordinates": [-97.9290445284, 38.0535244971], "type": "Point"}, "id": "UP36jAd-KXUkKVvE7mgv-oN2g7w=", "properties": {"@source_uri": "https://tools.usps.com/UspsToolsRestServices/rest/POLocator/findLocations", "@spider": "usps_collection_boxes", "addr:city": "HUTCHINSON", "addr:country": "US", "addr:postcode": "67501", "addr:state": "KS", "addr:street_address": "128 E 1ST AVE", "amenity": "post_box", "collection_times": "Mo-Fr 17:00; Sa 12:00", "indoor": "yes", "note": "ON 12/24 AND 12/31, THIS BOX MAY BE COLLECTED AS EARLY AS 12 NOON.", "nsi_id": "unitedstatespostalservice-a77078", "operator": "United States Postal Service", "operator:short": "USPS", "operator:type": "public", "operator:wikidata": "Q668687", "ref": "6750100042"}, "type": "Feature"}
{"geometry": {"coordinates": [-97.9320182957, 38.0834918123], "type": "Point"}, "id": "f9E0NCI9f_y2rzHrfvbCSUmU23Q=", "properties": {"@source_uri": "https://tools.usps.com/UspsToolsRestServices/rest/POLocator/findLocations", "@spider": "usps_collection_boxes", "addr:city": "HUTCHINSON", "addr:country": "US", "addr:postcode": "67502", "addr:state": "KS", "addr:street_address": "2727 N MAIN ST", "amenity": "post_box", "collection_times": "Mo-Sa 15:00", "note": "ON 12/24 AND 12/31, THIS BOX MAY BE COLLECTED AS EARLY AS 12 NOON.", "nsi_id": "unitedstatespostalservice-a77078", "operator": "United States Postal Service", "operator:short": "USPS", "operator:type": "public", "operator:wikidata": "Q668687", "ref": "6750200000"}, "type": "Feature"}
{"geometry": {"coordinates": [-97.94738, 38.078135], "type": "Point"}, "id": "3Fdr1vHtEAih5KSrFnSZ1G0yDQA=", "properties": {"@source_uri": "https://tools.usps.com/UspsToolsRestServices/rest/POLocator/findLocations", "@spider": "usps_collection_boxes", "addr:city": "HUTCHINSON", "addr:country": "US", "addr:postcode": "67502", "addr:state": "KS", "addr:street_address": "1320 E 30TH AVE", "amenity": "post_box", "collection_times": "Mo-Sa 15:00", "note": "ON 12/24 AND 12/31, THIS BOX MAY BE COLLECTED AS EARLY AS 12 NOON.", "nsi_id": "unitedstatespostalservice-a77078", "operator": "United States Postal Service", "operator:short": "USPS", "operator:type": "public", "operator:wikidata": "Q668687", "ref": "6750200001"}, "type": "Feature"}
{"geometry": {"coordinates": [-97.9209698367, 38.0865485017], "type": "Point"}, "id": "wNVf3VBljh_PdQLKXvhg8QL_aSU=", "properties": {"@source_uri": "https://tools.usps.com/UspsToolsRestServices/rest/POLocator/findLocations", "@spider": "usps_collection_boxes", "addr:city": "HUTCHINSON", "addr:country": "US", "addr:postcode": "67502", "addr:state": "KS", "addr:street_address": "517 E 30TH AVE", "amenity": "post_box", "collection_times": "Mo-Fr 16:30; Sa 16:00", "note": "ON 12/24 AND 12/31, THIS BOX MAY BE COLLECTED AS EARLY AS 12 NOON.", "nsi_id": "unitedstatespostalservice-a77078", "operator": "United States Postal Service", "operator:short": "USPS", "operator:type": "public", "operator:wikidata": "Q668687", "ref": "6750200004"}, "type": "Feature"}
{"geometry": {"coordinates": [-97.9209698367, 38.0865485017], "type": "Point"}, "id": "DQTkSKLL5cDyB3RDbWKrnrVHurw=", "properties": {"@source_uri": "https://tools.usps.com/UspsToolsRestServices/rest/POLocator/findLocations", "@spider": "usps_collection_boxes", "addr:city": "HUTCHINSON", "addr:country": "US", "addr:postcode": "67502", "addr:state": "KS", "addr:street_address": "517 E 30TH AVE", "amenity": "post_box", "collection_times": "Mo-Fr 16:30; Sa 16:00", "note": "ON 12/24 AND 12/31, THIS BOX MAY BE COLLECTED AS EARLY AS 12 NOON.", "nsi_id": "unitedstatespostalservice-a77078", "operator": "United States Postal Service", "operator:short": "USPS", "operator:type": "public", "operator:wikidata": "Q668687", "ref": "6750200009"}, "type": "Feature"}
{"geometry": {"coordinates": [-97.9398930249, 38.0335630002], "type": "Point"}, "id": "X4pRFITdOMj9DwcbiMl5_0wXUEI=", "properties": {"@source_uri": "https://tools.usps.com/UspsToolsRestServices/rest/POLocator/findLocations", "@spider": "usps_collection_boxes", "addr:city": "HUTCHINSON", "addr:country": "US", "addr:postcode": "67505", "addr:state": "KS", "addr:street_address": "406 N MAIN ST", "amenity": "post_box", "collection_times": "Mo-Sa 15:00", "note": "ON 12/24 AND 12/31, THIS BOX MAY BE COLLECTED AS EARLY AS 12 NOON.", "nsi_id": "unitedstatespostalservice-a77078", "operator": "United States Postal Service", "operator:short": "USPS", "operator:type": "public", "operator:wikidata": "Q668687", "ref": "6750500001"}, "type": "Feature"}
{"geometry": {"coordinates": [-98.20448, 37.970123], "type": "Point"}, "id": "v5xjiOB6UfEYP4XIJQZD-4AQuYE=", "properties": {"@source_uri": "https://tools.usps.com/UspsToolsRestServices/rest/POLocator/findLocations", "@spider": "usps_collection_boxes", "addr:city": "ABBYVILLE", "addr:country": "US", "addr:postcode": "67510", "addr:state": "KS", "addr:street_address": "108 N MAIN ST", "amenity": "post_box", "collection_times": "Mo-Fr 11:45; Sa 09:45", "nsi_id": "unitedstatespostalservice-a77078", "operator": "United States Postal Service", "operator:short": "USPS", "operator:type": "public", "operator:wikidata": "Q668687", "ref": "6751000001"}, "type": "Feature"}
{"geometry": {"coordinates": [-98.20448, 37.970123], "type": "Point"}, "id": "Z3FyLVhDzgF-o0TMNx1iBPNiPYo=", "properties": {"@source_uri": "https://tools.usps.com/UspsToolsRestServices/rest/POLocator/findLocations", "@spider": "usps_collection_boxes", "addr:city": "ABBYVILLE", "addr:country": "US", "addr:postcode": "67510", "addr:state": "KS", "addr:street_address": "108 N MAIN ST", "amenity": "post_box", "collection_times": "Mo-Fr 11:45; Sa 09:45", "indoor": "yes", "nsi_id": "unitedstatespostalservice-a77078", "operator": "United States Postal Service", "operator:short": "USPS", "operator:type": "public", "operator:wikidata": "Q668687", "ref": "6751000002"}, "type": "Feature"}
{"geometry": {"coordinates": [-98.204461741, 37.970090562], "type": "Point"}, "id": "Z8etuykWYiyd4Y7wJxr7ra-haY0=", "properties": {"@source_uri": "https://tools.usps.com/UspsToolsRestServices/rest/POLocator/findLocations", "@spider": "usps_collection_boxes", "addr:city": "ABBYVILLE", "addr:country": "US", "addr:postcode": "67510", "addr:state": "KS", "addr:street_address": "108 N MAIN ST", "amenity": "post_box", "collection_times": "Mo-Fr 11:45; Sa 09:45", "indoor": "yes", "nsi_id": "unitedstatespostalservice-a77078", "operator": "United States Postal Service", "operator:short": "USPS", "operator:type": "public", "operator:wikidata": "Q668687", "ref": "6751000003"}, "type": "Feature"}
{"geometry": {"coordinates": [-99.0129020247, 38.4523489924], "type": "Point"}, "id": "3PPc2YAeOKTIERqb3URVhK1KH3Q=", "properties": {"@source_uri": "https://tools.usps.com/UspsToolsRestServices/rest/POLocator/findLocations", "@spider": "usps_collection_boxes", "addr:city": "ALBERT", "addr:country": "US", "addr:postcode": "67511", "addr:state": "KS", "addr:street_address": "2004 MAIN ST", "amenity": "post_box", "collection_times": "Mo-Sa 09:00", "nsi_id": "unitedstatespostalservice-a77078", "operator": "United States Postal Service", "operator:short": "USPS", "operator:type": "public", "operator:wikidata": "Q668687", "ref": "6751100001"}, "type": "Feature"}
{"geometry": {"coordinates": [-98.312094, 38.243713], "type": "Point"}, "id": "ukeUf_dBS_UA_EgOLLcOf8nknQg=", "properties": {"@source_uri": "https://tools.usps.com/UspsToolsRestServices/rest/POLocator/findLocations", "@spider": "usps_collection_boxes", "addr:city": "ALDEN", "addr:country": "US", "addr:postcode": "67512", "addr:state": "KS", "addr:street_address": "204 PIONEER ST", "amenity": "post_box", "collection_times": "Mo-Fr 10:30; Sa 08:30", "nsi_id": "unitedstatespostalservice-a77078", "operator": "United States Postal Service", "operator:short": "USPS", "operator:type": "public", "operator:wikidata": "Q668687", "ref": "6751200001"}, "type": "Feature"}
{"geometry": {"coordinates": [-98.312094, 38.243713], "type": "Point"}, "id": "ySWrNzFfDEFOIPZoZ2eJVtlbASU=", "properties": {"@source_uri": "https://tools.usps.com/UspsToolsRestServices/rest/POLocator/findLocations", "@spider": "usps_collection_boxes", "addr:city": "ALDEN", "addr:country": "US", "addr:postcode": "67512", "addr:state": "KS", "addr:street_address": "204 PIONEER ST", "amenity": "post_box", "collection_times": "Mo-Fr 10:30; Sa 08:30", "indoor": "yes", "nsi_id": "unitedstatespostalservice-a77078", "operator": "United States Postal Service", "operator:short": "USPS", "operator:type": "public", "operator:wikidata": "Q668687", "ref": "6751200002"}, "type": "Feature"}
{"geometry": {"coordinates": [-98.312073363, 38.243676727], "type": "Point"}, "id": "_FaASSMkjz8_KyOSfF6eqIGDxnU=", "properties": {"@source_uri": "https://tools.usps.com/UspsToolsRestServices/rest/POLocator/findLocations", "@spider": "usps_collection_boxes", "addr:city": "ALDEN", "addr:country": "US", "addr:postcode": "67512", "addr:state": "KS", "addr:street_address": "204 PIONEER ST", "amenity": "post_box", "collection_times": "Mo-Fr 10:30; Sa 08:30", "indoor": "yes", "nsi_id": "unitedstatespostalservice-a77078", "operator": "United States Postal Service", "operator:short": "USPS", "operator:type": "public", "operator:wikidata": "Q668687", "ref": "6751200003"}, "type": "Feature"}
{"geometry": {"coordinates": [-99.552856, 38.468153], "type": "Point"}, "id": "wks6hagc6NpxVgEn-n1inyVaiRI=", "properties": {"@source_uri": "https://tools.usps.com/UspsToolsRestServices/rest/POLocator/findLocations", "@spider": "usps_collection_boxes", "addr:city": "ALEXANDER", "addr:country": "US", "addr:postcode": "67513", "addr:state": "KS", "addr:street_address": "103 MAIN ST", "amenity": "post_box", "collection_times": "Mo-Sa 14:15", "note": "ON 12/24 AND 12/31, THIS BOX MAY BE COLLECTED AS EARLY AS 12 NOON.", "nsi_id": "unitedstatespostalservice-a77078", "operator": "United States Postal Service", "operator:short": "USPS", "operator:type": "public", "operator:wikidata": "Q668687", "ref": "6751300001"}, "type": "Feature"}
{"geometry": {"coordinates": [-99.552856, 38.468153], "type": "Point"}, "id": "JvAJFZrgNE6Rdud54L07bAJg2lM=", "properties": {"@source_uri": "https://tools.usps.com/UspsToolsRestServices/rest/POLocator/findLocations", "@spider": "usps_collection_boxes", "addr:city": "ALEXANDER", "addr:country": "US", "addr:postcode": "67513", "addr:state": "KS", "addr:street_address": "103 MAIN ST", "amenity": "post_box", "collection_times": "Mo-Fr 14:45; Sa 14:15", "indoor": "yes", "note": "ON 12/24 AND 12/31, THIS BOX MAY BE COLLECTED AS EARLY AS 12 NOON.", "nsi_id": "unitedstatespostalservice-a77078", "operator": "United States Postal Service", "operator:short": "USPS", "operator:type": "public", "operator:wikidata": "Q668687", "ref": "6751300002"}, "type": "Feature"}
{"geometry": {"coordinates": [-99.552857597, 38.468140418], "type": "Point"}, "id": "uA-4BDETqeH4ynB1x8xWDE-FRWs=", "properties": {"@source_uri": "https://tools.usps.com/UspsToolsRestServices/rest/POLocator/findLocations", "@spider": "usps_collection_boxes", "addr:city": "ALEXANDER", "addr:country": "US", "addr:postcode": "67513", "addr:state": "KS", "addr:street_address": "103 MAIN ST", "amenity": "post_box", "collection_times": "Mo-Fr 14:45; Sa 14:15", "indoor": "yes", "note": "ON 12/24 AND 12/31, THIS BOX MAY BE COLLECTED AS EARLY AS 12 NOON.", "nsi_id": "unitedstatespostalservice-a77078", "operator": "United States Postal Service", "operator:short": "USPS", "operator:type": "public", "operator:wikidata": "Q668687", "ref": "6751300003"}, "type": "Feature"}
{"geometry": {"coordinates": [-98.1765687727, 37.8964645173], "type": "Point"}, "id": "KmKeB-aoJUYYmSGQK2YLYE9-U4Y=", "properties": {"@source_uri": "https://tools.usps.com/UspsToolsRestServices/rest/POLocator/findLocations", "@spider": "usps_collection_boxes", "addr:city": "ARLINGTON", "addr:country": "US", "addr:postcode": "67514", "addr:state": "KS", "addr:street_address": "111 W MAIN ST", "amenity": "post_box", "collection_times": "Mo-Fr 11:45; Sa 08:30", "nsi_id": "unitedstatespostalservice-a77078", "operator": "United States Postal Service", "operator:short": "USPS", "operator:type": "public", "operator:wikidata": "Q668687", "ref": "6751400001"}, "type": "Feature"}
{"geometry": {"coordinates": [-98.1765687727, 37.8964645173], "type": "Point"}, "id": "E7Yhi_k75jnO2H8oBbfak3cOJwQ=", "properties": {"@source_uri": "https://tools.usps.com/UspsToolsRestServices/rest/POLocator/findLocations", "@spider": "usps_collection_boxes", "addr:city": "ARLINGTON", "addr:country": "US", "addr:postcode": "67514", "addr:state": "KS", "addr:street_address": "111 W MAIN ST", "amenity": "post_box", "collection_times": "Mo-Fr 11:45; Sa 08:30", "indoor": "yes", "nsi_id": "unitedstatespostalservice-a77078", "operator": "United States Postal Service", "operator:short": "USPS", "operator:type": "public", "operator:wikidata": "Q668687", "ref": "6751400002"}, "type": "Feature"}
{"geometry": {"coordinates": [-98.1765687727, 37.8964645173], "type": "Point"}, "id": "xqAzzfBEft2T-YHfi7yOzGO1iVU=", "properties": {"@source_uri": "https://tools.usps.com/UspsToolsRestServices/rest/POLocator/findLocations", "@spider": "usps_collection_boxes", "addr:city": "ARLINGTON", "addr:country": "US", "addr:postcode": "67514", "addr:state": "KS", "addr:street_address": "111 W MAIN ST", "amenity": "post_box", "collection_times": "Mo-Fr 11:45; Sa 08:30", "indoor": "yes", "nsi_id": "unitedstatespostalservice-a77078", "operator": "United States Postal Service", "operator:short": "USPS", "operator:type": "public", "operator:wikidata": "Q668687", "ref": "6751400003"}, "type": "Feature"}
{"geometry": {"coordinates": [-99.691312, 38.443891], "type": "Point"}, "id": "Pu839_bQvQZlTERF2amvBycZLlg=", "properties": {"@source_uri": "https://tools.usps.com/UspsToolsRestServices/rest/POLocator/findLocations", "@spider": "usps_collection_boxes", "addr:city": "BAZINE", "addr:country": "US", "addr:postcode": "67516", "addr:state": "KS", "addr:street_address": "207 S MAIN ST", "amenity": "post_box", "collection_times": "Mo-Fr 12:15; Sa 09:45", "note": "ON 12/24 AND 12/31, THIS BOX MAY BE COLLECTED AS EARLY AS 12 NOON.", "nsi_id": "unitedstatespostalservice-a77078", "operator": "United States Postal Service", "operator:short": "USPS", "operator:type": "public", "operator:wikidata": "Q668687", "ref": "6751600001"}, "type": "Feature"}
{"geometry": {"coordinates": [-99.691312, 38.443891], "type": "Point"}, "id": "nCePgkWSYv-fJ-f_VTHVMJnMlhI=", "properties": {"@source_uri": "https://tools.usps.com/UspsToolsRestServices/rest/POLocator/findLocations", "@spider": "usps_collection_boxes", "addr:city": "BAZINE", "addr:country": "US", "addr:postcode": "67516", "addr:state": "KS", "addr:street_address": "207 S MAIN ST", "amenity": "post_box", "collection_times": "Mo-Fr 12:15; Sa 09:45", "indoor": "yes", "note": "ON 12/24 AND 12/31, THIS BOX MAY BE COLLECTED AS EARLY AS 12 NOON.", "nsi_id": "unitedstatespostalservice-a77078", "operator": "United States Postal Service", "operator:short": "USPS", "operator:type": "public", "operator:wikidata": "Q668687", "ref": "6751600002"}, "type": "Feature"}
{"geometry": {"coordinates": [-99.691345997, 38.443898149], "type": "Point"}, "id": "ZKqN_xQh7aY965xRMvHP7GMOAsM=", "properties": {"@source_uri": "https://tools.usps.com/UspsToolsRestServices/rest/POLocator/findLocations", "@spider": "usps_collection_boxes", "addr:city": "BAZINE", "addr:country": "US", "addr:postcode": "67516", "addr:state": "KS", "addr:street_address": "207 S MAIN ST", "amenity": "post_box", "collection_times": "Mo-Fr 12:15; Sa 09:45", "indoor": "yes", "note": "ON 12/24 AND 12/31, THIS BOX MAY BE COLLECTED AS EARLY AS 12 NOON.", "nsi_id": "unitedstatespostalservice-a77078", "operator": "United States Postal Service", "operator:short": "USPS", "operator:type": "public", "operator:wikidata": "Q668687", "ref": "6751600003"}, "type": "Feature"}
{"geometry": {"coordinates": [-99.099158, 37.951135], "type": "Point"}, "id": "RsERf-PWBQtHcIZ_3tPv0MxTFMY=", "properties": {"@source_uri": "https://tools.usps.com/UspsToolsRestServices/rest/POLocator/findLocations", "@spider": "usps_collection_boxes", "addr:city": "BELPRE", "addr:country": "US", "addr:postcode": "67519", "addr:state": "KS", "addr:street_address": "506 DUDLEY ST", "amenity": "post_box", "collection_times": "Mo-Fr 14:30; Sa 10:45", "note": "ON 12/24 AND 12/31, THIS BOX MAY BE COLLECTED AS EARLY AS 12 NOON.", "nsi_id": "unitedstatespostalservice-a77078", "operator": "United States Postal Service", "operator:short": "USPS", "operator:type": "public", "operator:wikidata": "Q668687", "ref": "6751900001"}, "type": "Feature"}
{"geometry": {"coordinates": [-99.099158, 37.951135], "type": "Point"}, "id": "U-bYr9lWYt-ARGLpnlrDeqQA2vU=", "properties": {"@source_uri": "https://tools.usps.com/UspsToolsRestServices/rest/POLocator/findLocations", "@spider": "usps_collection_boxes", "addr:city": "BELPRE", "addr:country": "US", "addr:postcode": "67519", "addr:state": "KS", "addr:street_address": "506 DUDLEY ST", "amenity": "post_box", "collection_times": "Mo-Fr 14:45; Sa 10:45", "indoor": "yes", "note": "ON 12/24 AND 12/31, THIS BOX MAY BE COLLECTED AS EARLY AS 12 NOON.", "nsi_id": "unitedstatespostalservice-a77078", "operator": "United States Postal Service", "operator:short": "USPS", "operator:type": "public", "operator:wikidata": "Q668687", "ref": "6751900002"}, "type": "Feature"}
{"geometry": {"coordinates": [-99.099145805, 37.951031357], "type": "Point"}, "id": "4SZeOf9MY_RLzQJissiaZ9LFlUI=", "properties": {"@source_uri": "https://tools.usps.com/UspsToolsRestServices/rest/POLocator/findLocations", "@spider": "usps_collection_boxes", "addr:city": "BELPRE", "addr:country": "US", "addr:postcode": "67519", "addr:state": "KS", "addr:street_address": "506 DUDLEY ST", "amenity": "post_box", "collection_times": "Mo-Fr 14:45; Sa 10:45", "indoor": "yes", "note": "ON 12/24 AND 12/31, THIS BOX MAY BE COLLECTED AS EARLY AS 12 NOON.", "nsi_id": "unitedstatespostalservice-a77078", "operator": "United States Postal Service", "operator:short": "USPS", "operator:type": "public", "operator:wikidata": "Q668687", "ref": "6751900003"}, "type": "Feature"}
{"geometry": {"coordinates": [-99.1983519, 38.521428], "type": "Point"}, "id": "Lcl6hVjgDgu13YUVjSVtrsUgxdY=", "properties": {"@source_uri": "https://tools.usps.com/UspsToolsRestServices/rest/POLocator/findLocations", "@spider": "usps_collection_boxes", "addr:city": "BISON", "addr:country": "US", "addr:postcode": "67520", "addr:state": "KS", "addr:street_address": "219 MAIN ST", "amenity": "post_box", "collection_times": "Mo-Fr 11:15; Sa 08:45", "nsi_id": "unitedstatespostalservice-a77078", "operator": "United States Postal Service", "operator:short": "USPS", "operator:type": "public", "operator:wikidata": "Q668687", "ref": "6752000001"}, "type": "Feature"}
{"geometry": {"coordinates": [-99.198266, 38.521419], "type": "Point"}, "id": "dwET7maboa9y66zWoIplQ7QkTAQ=", "properties": {"@source_uri": "https://tools.usps.com/UspsToolsRestServices/rest/POLocator/findLocations", "@spider": "usps_collection_boxes", "addr:city": "BISON", "addr:country": "US", "addr:postcode": "67520", "addr:state": "KS", "addr:street_address": "219 MAIN ST", "amenity": "post_box", "collection_times": "Mo-Fr 11:15; Sa 08:45", "indoor": "yes", "nsi_id": "unitedstatespostalservice-a77078", "operator": "United States Postal Service", "operator:short": "USPS", "operator:type": "public", "operator:wikidata": "Q668687", "ref": "6752000002"}, "type": "Feature"}
{"geometry": {"coordinates": [-99.198277143, 38.5214483294], "type": "Point"}, "id": "OMNxC5X4de9CHPgbCtBontN9EmM=", "properties": {"@source_uri": "https://tools.usps.com/UspsToolsRestServices/rest/POLocator/findLocations", "@spider": "usps_collection_boxes", "addr:city": "BISON", "addr:country": "US", "addr:postcode": "67520", "addr:state": "KS", "addr:street_address": "219 MAIN ST", "amenity": "post_box", "collection_times": "Mo-Fr 11:15; Sa 08:45", "indoor": "yes", "nsi_id": "unitedstatespostalservice-a77078", "operator": "United States Postal Service", "operator:short": "USPS", "operator:type": "public", "operator:wikidata": "Q668687", "ref": "6752000003"}, "type": "Feature"}
{"geometry": {"coordinates": [-99.744942, 38.640033], "type": "Point"}, "id": "DwVQ0ozZrokICXTILXPPrgfDZo4=", "properties": {"@source_uri": "https://tools.usps.com/UspsToolsRestServices/rest/POLocator/findLocations", "@spider": "usps_collection_boxes", "addr:city": "BROWNELL", "addr:country": "US", "addr:postcode": "67521", "addr:state": "KS", "addr:street_address": "100 W STATE ROAD 4", "amenity": "post_box", "collection_times": "Mo-Fr 12:15; Sa 09:55", "note": "ON 12/24 AND 12/31, THIS BOX MAY BE COLLECTED AS EARLY AS 12 NOON.", "nsi_id": "unitedstatespostalservice-a77078", "operator": "United States Postal Service", "operator:short": "USPS", "operator:type": "public", "operator:wikidata": "Q668687", "ref": "6752100001"}, "type": "Feature"}
{"geometry": {"coordinates": [-99.744941, 38.640034], "type": "Point"}, "id": "s5aERyuVx1w36iCnFOYWvoJ2FMc=", "properties": {"@source_uri": "https://tools.usps.com/UspsToolsRestServices/rest/POLocator/findLocations", "@spider": "usps_collection_boxes", "addr:city": "BROWNELL", "addr:country": "US", "addr:postcode": "67521", "addr:state": "KS", "addr:street_address": "100 W STATE ROAD 4", "amenity": "post_box", "collection_times": "Mo-Fr 12:15; Sa 09:55", "indoor": "yes", "note": "ON 12/24 AND 12/31, THIS BOX MAY BE COLLECTED AS EARLY AS 12 NOON.", "nsi_id": "unitedstatespostalservice-a77078", "operator": "United States Postal Service", "operator:short": "USPS", "operator:type": "public", "operator:wikidata": "Q668687", "ref": "6752100002"}, "type": "Feature"}
{"geometry": {"coordinates": [-99.7453361764, 38.6401331764], "type": "Point"}, "id": "QBEOe_E3enPXvuXWi66bJBhyVTE=", "properties": {"@source_uri": "https://tools.usps.com/UspsToolsRestServices/rest/POLocator/findLocations", "@spider": "usps_collection_boxes", "addr:city": "BROWNELL", "addr:country": "US", "addr:postcode": "67521", "addr:state": "KS", "addr:street_address": "100 W STATE ROAD 4", "amenity": "post_box", "collection_times": "Mo-Fr 12:15; Sa 09:55", "indoor": "yes", "note": "ON 12/24 AND 12/31, THIS BOX MAY BE COLLECTED AS EARLY AS 12 NOON.", "nsi_id": "unitedstatespostalservice-a77078", "operator": "United States Postal Service", "operator:short": "USPS", "operator:type": "public", "operator:wikidata": "Q668687", "ref": "6752100003"}, "type": "Feature"}
{"geometry": {"coordinates": [-97.7705051629, 38.1351219045], "type": "Point"}, "id": "1_s89NCY7N1HJj-Mm_Fk1IqBYv0=", "properties": {"@source_uri": "https://tools.usps.com/UspsToolsRestServices/rest/POLocator/findLocations", "@spider": "usps_collection_boxes", "addr:city": "BUHLER", "addr:country": "US", "addr:postcode": "67522", "addr:state": "KS", "addr:street_address": "106 N MAIN ST", "amenity": "post_box", "collection_times": "Mo-Fr 15:50; Sa 10:15", "note": "ON 12/24 AND 12/31, THIS BOX MAY BE COLLECTED AS EARLY AS 12 NOON.", "nsi_id": "unitedstatespostalservice-a77078", "operator": "United States Postal Service", "operator:short": "USPS", "operator:type": "public", "operator:wikidata": "Q668687", "ref": "6752200001"}, "type": "Feature"}
{"geometry": {"coordinates": [-97.7705051629, 38.1351219045], "type": "Point"}, "id": "RlXwxKzAoPloT4fb14MyiJsN9mk=", "properties": {"@source_uri": "https://tools.usps.com/UspsToolsRestServices/rest/POLocator/findLocations", "@spider": "usps_collection_boxes", "addr:city": "BUHLER", "addr:country": "US", "addr:postcode": "67522", "addr:state": "KS", "addr:street_address": "106 N MAIN ST", "amenity": "post_box", "collection_times": "Mo-Fr 15:40; Sa 10:15", "indoor": "yes", "note": "ON 12/24 AND 12/31, THIS BOX MAY BE COLLECTED AS EARLY AS 12 NOON.", "nsi_id": "unitedstatespostalservice-a77078", "operator": "United States Postal Service", "operator:short": "USPS", "operator:type": "public", "operator:wikidata": "Q668687", "ref": "6752200002"}, "type": "Feature"}
{"geometry": {"coordinates": [-97.7705051629, 38.1351219045], "type": "Point"}, "id": "yfYqePrxSnp9fU-G_KRm46RubQ0=", "properties": {"@source_uri": "https://tools.usps.com/UspsToolsRestServices/rest/POLocator/findLocations", "@spider": "usps_collection_boxes", "addr:city": "BUHLER", "addr:country": "US", "addr:postcode": "67522", "addr:state": "KS", "addr:street_address": "106 N MAIN ST", "amenity": "post_box", "collection_times": "Mo-Fr 15:40; Sa 10:15", "indoor": "yes", "note": "ON 12/24 AND 12/31, THIS BOX MAY BE COLLECTED AS EARLY AS 12 NOON.", "nsi_id": "unitedstatespostalservice-a77078", "operator": "United States Postal Service", "operator:short": "USPS", "operator:type": "public", "operator:wikidata": "Q668687", "ref": "6752200003"}, "type": "Feature"}
{"geometry": {"coordinates": [-99.527046, 38.191301], "type": "Point"}, "id": "CQMzCEWNYNdVD30q-OqAc0xO-t8=", "properties": {"@source_uri": "https://tools.usps.com/UspsToolsRestServices/rest/POLocator/findLocations", "@spider": "usps_collection_boxes", "addr:city": "BURDETT", "addr:country": "US", "addr:postcode": "67523", "addr:state": "KS", "addr:street_address": "202 ELM ST", "amenity": "post_box", "collection_times": "Mo-Fr 11:45; Sa 09:45", "nsi_id": "unitedstatespostalservice-a77078", "operator": "United States Postal Service", "operator:short": "USPS", "operator:type": "public", "operator:wikidata": "Q668687", "ref": "6752300001"}, "type": "Feature"}
{"geometry": {"coordinates": [-99.527046, 38.191301], "type": "Point"}, "id": "mzXTTfZn3NkeyuaqqshbUvywxxQ=", "properties": {"@source_uri": "https://tools.usps.com/UspsToolsRestServices/rest/POLocator/findLocations", "@spider": "usps_collection_boxes", "addr:city": "BURDETT", "addr:country": "US", "addr:postcode": "67523", "addr:state": "KS", "addr:street_address": "202 ELM ST", "amenity": "post_box", "collection_times": "Mo-Fr 11:45; Sa 09:45", "indoor": "yes", "nsi_id": "unitedstatespostalservice-a77078", "operator": "United States Postal Service", "operator:short": "USPS", "operator:type": "public", "operator:wikidata": "Q668687", "ref": "6752300002"}, "type": "Feature"}
{"geometry": {"coordinates": [-99.5270450319, 38.1912933353], "type": "Point"}, "id": "3pfxM47QuCmTc2RmJ0zX9t-ZCD8=", "properties": {"@source_uri": "https://tools.usps.com/UspsToolsRestServices/rest/POLocator/findLocations", "@spider": "usps_collection_boxes", "addr:city": "BURDETT", "addr:country": "US", "addr:postcode": "67523", "addr:state": "KS", "addr:street_address": "202 ELM ST", "amenity": "post_box", "collection_times": "Mo-Fr 11:45; Sa 09:45", "indoor": "yes", "nsi_id": "unitedstatespostalservice-a77078", "operator": "United States Postal Service", "operator:short": "USPS", "operator:type": "public", "operator:wikidata": "Q668687", "ref": "6752300003"}, "type": "Feature"}
{"geometry": {"coordinates": [-98.349501395, 38.354003641], "type": "Point"}, "id": "r4_Jxi_DsqG6sS-S0sn6xYpvg7I=", "properties": {"@source_uri": "https://tools.usps.com/UspsToolsRestServices/rest/POLocator/findLocations", "@spider": "usps_collection_boxes", "addr:city": "CHASE", "addr:country": "US", "addr:postcode": "67524", "addr:state": "KS", "addr:street_address": "513 MAIN ST", "amenity": "post_box", "collection_times": "Mo-Fr 11:45; Sa 09:15", "nsi_id": "unitedstatespostalservice-a77078", "operator": "United States Postal Service", "operator:short": "USPS", "operator:type": "public", "operator:wikidata": "Q668687", "ref": "6752400001"}, "type": "Feature"}
{"geometry": {"coordinates": [-98.349501395, 38.354003641], "type": "Point"}, "id": "5pniXZM604Ihqxq30aAk212Tffg=", "properties": {"@source_uri": "https://tools.usps.com/UspsToolsRestServices/rest/POLocator/findLocations", "@spider": "usps_collection_boxes", "addr:city": "CHASE", "addr:country": "US", "addr:postcode": "67524", "addr:state": "KS", "addr:street_address": "513 MAIN ST", "amenity": "post_box", "collection_times": "Mo-Fr 11:45; Sa 09:15", "indoor": "yes", "nsi_id": "unitedstatespostalservice-a77078", "operator": "United States Postal Service", "operator:short": "USPS", "operator:type": "public", "operator:wikidata": "Q668687", "ref": "6752400002"}, "type": "Feature"}
{"geometry": {"coordinates": [-98.349501395, 38.354003641], "type": "Point"}, "id": "V4_RJ5fbsfGtChEP0TZdVLHSu00=", "properties": {"@source_uri": "https://tools.usps.com/UspsToolsRestServices/rest/POLocator/findLocations", "@spider": "usps_collection_boxes", "addr:city": "CHASE", "addr:country": "US", "addr:postcode": "67524", "addr:state": "KS", "addr:street_address": "513 MAIN ST", "amenity": "post_box", "collection_times": "Mo-Fr 11:45; Sa 09:15", "indoor": "yes", "nsi_id": "unitedstatespostalservice-a77078", "operator": "United States Postal Service", "operator:short": "USPS", "operator:type": "public", "operator:wikidata": "Q668687", "ref": "6752400003"}, "type": "Feature"}
{"geometry": {"coordinates": [-98.533556846, 38.524293251], "type": "Point"}, "id": "wY4uW4-LhJNw8IG2jA3tEa-gz3c=", "properties": {"@source_uri": "https://tools.usps.com/UspsToolsRestServices/rest/POLocator/findLocations", "@spider": "usps_collection_boxes", "addr:city": "CLAFLIN", "addr:country": "US", "addr:postcode": "67525", "addr:state": "KS", "addr:street_address": "218 MAIN ST", "amenity": "post_box", "collection_times": "Mo-Fr 14:15; Sa 09:45", "note": "ON 12/24 AND 12/31, THIS BOX MAY BE COLLECTED AS EARLY AS 12 NOON.", "nsi_id": "unitedstatespostalservice-a77078", "operator": "United States Postal Service", "operator:short": "USPS", "operator:type": "public", "operator:wikidata": "Q668687", "ref": "6752500001"}, "type": "Feature"}
{"geometry": {"coordinates": [-98.533556846, 38.524293251], "type": "Point"}, "id": "cFqRFjZA5lfvvgn0R-m3bxw8tY4=", "properties": {"@source_uri": "https://tools.usps.com/UspsToolsRestServices/rest/POLocator/findLocations", "@spider": "usps_collection_boxes", "addr:city": "CLAFLIN", "addr:country": "US", "addr:postcode": "67525", "addr:state": "KS", "addr:street_address": "218 MAIN ST", "amenity": "post_box", "collection_times": "Mo-Fr 14:10; Sa 09:45", "indoor": "yes", "note": "ON 12/24 AND 12/31, THIS BOX MAY BE COLLECTED AS EARLY AS 12 NOON.", "nsi_id": "unitedstatespostalservice-a77078", "operator": "United States Postal Service", "operator:short": "USPS", "operator:type": "public", "operator:wikidata": "Q668687", "ref": "6752500003"}, "type": "Feature"}
{"geometry": {"coordinates": [-98.533556846, 38.524293251], "type": "Point"}, "id": "xAsd56sAxhXtNR2t65q022emMJc=", "properties": {"@source_uri": "https://tools.usps.com/UspsToolsRestServices/rest/POLocator/findLocations", "@spider": "usps_collection_boxes", "addr:city": "CLAFLIN", "addr:country": "US", "addr:postcode": "67525", "addr:state": "KS", "addr:street_address": "218 MAIN ST", "amenity": "post_box", "collection_times": "Mo-Fr 14:10; Sa 09:45", "indoor": "yes", "note": "ON 12/24 AND 12/31, THIS BOX MAY BE COLLECTED AS EARLY AS 12 NOON.", "nsi_id": "unitedstatespostalservice-a77078", "operator": "United States Postal Service", "operator:short": "USPS", "operator:type": "public", "operator:wikidata": "Q668687", "ref": "6752500004"}, "type": "Feature"}
{"geometry": {"coordinates": [-98.581255, 38.355671], "type": "Point"}, "id": "0f4_U3WKR4lFInnEdG40P7x6YgY=", "properties": {"@source_uri": "https://tools.usps.com/UspsToolsRestServices/rest/POLocator/findLocations", "@spider": "usps_collection_boxes", "addr:city": "ELLINWOOD", "addr:country": "US", "addr:postcode": "67526", "addr:state": "KS", "addr:street_address": "200 N MAIN ST", "amenity": "post_box", "collection_times": "Mo-Fr 13:45; Sa 10:15", "note": "ON 12/24 AND 12/31, THIS BOX MAY BE COLLECTED AS EARLY AS 12 NOON.", "nsi_id": "unitedstatespostalservice-a77078", "operator": "United States Postal Service", "operator:short": "USPS", "operator:type": "public", "operator:wikidata": "Q668687", "ref": "6752600001"}, "type": "Feature"}
{"geometry": {"coordinates": [-98.581255, 38.355671], "type": "Point"}, "id": "_97AXZdKuZX3Ee0OZ-443uidSkw=", "properties": {"@source_uri": "https://tools.usps.com/UspsToolsRestServices/rest/POLocator/findLocations", "@spider": "usps_collection_boxes", "addr:city": "ELLINWOOD", "addr:country": "US", "addr:postcode": "67526", "addr:state": "KS", "addr:street_address": "200 N MAIN ST", "amenity": "post_box", "collection_times": "Mo-Fr 15:00; Sa 10:15", "indoor": "yes", "note": "ON 12/24 AND 12/31, THIS BOX MAY BE COLLECTED AS EARLY AS 12 NOON.", "nsi_id": "unitedstatespostalservice-a77078", "operator": "United States Postal Service", "operator:short": "USPS", "operator:type": "public", "operator:wikidata": "Q668687", "ref": "6752600002"}, "type": "Feature"}
{"geometry": {"coordinates": [-98.5812590003, 38.355669], "type": "Point"}, "id": "l3oFeUDMTKwgF1ciJZ0IvaqAbso=", "properties": {"@source_uri": "https://tools.usps.com/UspsToolsRestServices/rest/POLocator/findLocations", "@spider": "usps_collection_boxes", "addr:city": "ELLINWOOD", "addr:country": "US", "addr:postcode": "67526", "addr:state": "KS", "addr:street_address": "200 N MAIN ST", "amenity": "post_box", "collection_times": "Mo-Fr 15:00; Sa 10:15", "indoor": "yes", "note": "ON 12/24 AND 12/31, THIS BOX MAY BE COLLECTED AS EARLY AS 12 NOON.", "nsi_id": "unitedstatespostalservice-a77078", "operator": "United States Postal Service", "operator:short": "USPS", "operator:type": "public", "operator:wikidata": "Q668687", "ref": "6752600003"}, "type": "Feature"}
{"geometry": {"coordinates": [-99.2433939, 38.07587], "type": "Point"}, "id": "36jdAvYkSI6DB5KaPlW6R9-iU1Y=", "properties": {"@source_uri": "https://tools.usps.com/UspsToolsRestServices/rest/POLocator/findLocations", "@spider": "usps_collection_boxes", "addr:city": "GARFIELD", "addr:country": "US", "addr:postcode": "67529", "addr:state": "KS", "addr:street_address": "213 3RD ST", "amenity": "post_box", "collection_times": "Mo-Fr 11:45; Sa 09:00", "nsi_id": "unitedstatespostalservice-a77078", "operator": "United States Postal Service", "operator:short": "USPS", "operator:type": "public", "operator:wikidata": "Q668687", "ref": "6752900001"}, "type": "Feature"}
{"geometry": {"coordinates": [-99.243401, 38.075817], "type": "Point"}, "id": "rdP8VCAnGcLyNWRZpt706kFhkm4=", "properties": {"@source_uri": "https://tools.usps.com/UspsToolsRestServices/rest/POLocator/findLocations", "@spider": "usps_collection_boxes", "addr:city": "GARFIELD", "addr:country": "US", "addr:postcode": "67529", "addr:state": "KS", "addr:street_address": "213 3RD ST", "amenity": "post_box", "collection_times": "Mo-Fr 11:45; Sa 09:00", "indoor": "yes", "nsi_id": "unitedstatespostalservice-a77078", "operator": "United States Postal Service", "operator:short": "USPS", "operator:type": "public", "operator:wikidata": "Q668687", "ref": "6752900002"}, "type": "Feature"}
{"geometry": {"coordinates": [-99.2434006676, 38.075815486], "type": "Point"}, "id": "D5gDUkhOhPFW5s9tSugQk4b4KhI=", "properties": {"@source_uri": "https://tools.usps.com/UspsToolsRestServices/rest/POLocator/findLocations", "@spider": "usps_collection_boxes", "addr:city": "GARFIELD", "addr:country": "US", "addr:postcode": "67529", "addr:state": "KS", "addr:street_address": "213 3RD ST", "amenity": "post_box", "collection_times": "Mo-Fr 11:45; Sa 09:00", "indoor": "yes", "nsi_id": "unitedstatespostalservice-a77078", "operator": "United States Postal Service", "operator:short": "USPS", "operator:type": "public", "operator:wikidata": "Q668687", "ref": "6752900003"}, "type": "Feature"}
{"geometry": {"coordinates": [-98.8047733, 38.367954], "type": "Point"}, "id": "lKXU8Wbnv_FvdHDWbdbPzw60xkA=", "properties": {"@source_uri": "https://tools.usps.com/UspsToolsRestServices/rest/POLocator/findLocations", "@spider": "usps_collection_boxes", "addr:city": "GREAT BEND", "addr:country": "US", "addr:postcode": "67530", "addr:state": "KS", "addr:street_address": "1649 K 96 HWY", "amenity": "post_box", "collection_times": "Mo-Fr 15:00; Sa 13:00", "note": "ON 12/24 AND 12/31, THIS BOX MAY BE COLLECTED AS EARLY AS 12 NOON.", "nsi_id": "unitedstatespostalservice-a77078", "operator": "United States Postal Service", "operator:short": "USPS", "operator:type": "public", "operator:wikidata": "Q668687", "ref": "6753000005"}, "type": "Feature"}
{"geometry": {"coordinates": [-98.7652543, 38.365402], "type": "Point"}, "id": "arhwy_CHmat_THzg_7kbzi5uE3A=", "properties": {"@source_uri": "https://tools.usps.com/UspsToolsRestServices/rest/POLocator/findLocations", "@spider": "usps_collection_boxes", "addr:city": "GREAT BEND", "addr:country": "US", "addr:postcode": "67530", "addr:state": "KS", "addr:street_address": "1321 MAIN ST", "amenity": "post_box", "collection_times": "Mo-Fr 15:00; Sa 13:00", "note": "ON 12/24 AND 12/31, THIS BOX MAY BE COLLECTED AS EARLY AS 12 NOON.", "nsi_id": "unitedstatespostalservice-a77078", "operator": "United States Postal Service", "operator:short": "USPS", "operator:type": "public", "operator:wikidata": "Q668687", "ref": "6753000007"}, "type": "Feature"}
{"geometry": {"coordinates": [-98.7653456, 38.370098], "type": "Point"}, "id": "P44Sp1mQ3IrT2KwTDMyJrj_SfyQ=", "properties": {"@source_uri": "https://tools.usps.com/UspsToolsRestServices/rest/POLocator/findLocations", "@spider": "usps_collection_boxes", "addr:city": "GREAT BEND", "addr:country": "US", "addr:postcode": "67530", "addr:state": "KS", "addr:street_address": "1811 MAIN ST", "amenity": "post_box", "collection_times": "Mo-Fr 15:00; Sa 13:00", "note": "ON 12/24 AND 12/31, THIS BOX MAY BE COLLECTED AS EARLY AS 12 NOON.", "nsi_id": "unitedstatespostalservice-a77078", "operator": "United States Postal Service", "operator:short": "USPS", "operator:type": "public", "operator:wikidata": "Q668687", "ref": "6753000008"}, "type": "Feature"}
{"geometry": {"coordinates": [-98.7886829, 38.366534], "type": "Point"}, "id": "vqOjMpTyLAJDZdxKkDtHttj70s0=", "properties": {"@source_uri": "https://tools.usps.com/UspsToolsRestServices/rest/POLocator/findLocations", "@spider": "usps_collection_boxes", "addr:city": "GREAT BEND", "addr:country": "US", "addr:postcode": "67530", "addr:state": "KS", "addr:street_address": "3600 BROADWAY AVE", "amenity": "post_box", "collection_times": "Mo-Fr 15:00; Sa 13:00", "note": "ON 12/24 AND 12/31, THIS BOX MAY BE COLLECTED AS EARLY AS 12 NOON.", "nsi_id": "unitedstatespostalservice-a77078", "operator": "United States Postal Service", "operator:short": "USPS", "operator:type": "public", "operator:wikidata": "Q668687", "ref": "6753000010"}, "type": "Feature"}
{"geometry": {"coordinates": [-98.7669599702, 38.3680399965], "type": "Point"}, "id": "WqIyOpdcZ_Fwj5uKOh-2rlkG_EU=", "properties": {"@source_uri": "https://tools.usps.com/UspsToolsRestServices/rest/POLocator/findLocations", "@spider": "usps_collection_boxes", "addr:city": "GREAT BEND", "addr:country": "US", "addr:postcode": "67530", "addr:state": "KS", "addr:street_address": "2100 16TH ST", "amenity": "post_box", "collection_times": "Mo-Sa 14:15", "note": "ON 12/24 AND 12/31, THIS BOX MAY BE COLLECTED AS EARLY AS 12 NOON.", "nsi_id": "unitedstatespostalservice-a77078", "operator": "United States Postal Service", "operator:short": "USPS", "operator:type": "public", "operator:wikidata": "Q668687", "ref": "6753000021"}, "type": "Feature"}
{"geometry": {"coordinates": [-98.766962, 38.367638], "type": "Point"}, "id": "TCDy6Oq1OcNdcGLzHdFfthSS4cQ=", "properties": {"@source_uri": "https://tools.usps.com/UspsToolsRestServices/rest/POLocator/findLocations", "@spider": "usps_collection_boxes", "addr:city": "GREAT BEND", "addr:country": "US", "addr:postcode": "67530", "addr:state": "KS", "addr:street_address": "2100 16TH ST", "amenity": "post_box", "collection_times": "Mo-Fr 17:00; Sa 11:30", "indoor": "yes", "note": "ON 12/24 AND 12/31, THIS BOX MAY BE COLLECTED AS EARLY AS 12 NOON.", "nsi_id": "unitedstatespostalservice-a77078", "operator": "United States Postal Service", "operator:short": "USPS", "operator:type": "public", "operator:wikidata": "Q668687", "ref": "6753000025"}, "type": "Feature"}
{"geometry": {"coordinates": [-98.7874671, 38.359689], "type": "Point"}, "id": "FkRY2cTvWt2Tu9H6RvHAH_4YHN0=", "properties": {"@source_uri": "https://tools.usps.com/UspsToolsRestServices/rest/POLocator/findLocations", "@spider": "usps_collection_boxes", "addr:city": "GREAT BEND", "addr:country": "US", "addr:postcode": "67530", "addr:state": "KS", "addr:street_address": "3503 10TH ST", "amenity": "post_box", "collection_times": "Mo-Sa 15:00", "note": "ON 12/24 AND 12/31, THIS BOX MAY BE COLLECTED AS EARLY AS 12 NOON.", "nsi_id": "unitedstatespostalservice-a77078", "operator": "United States Postal Service", "operator:short": "USPS", "operator:type": "public", "operator:wikidata": "Q668687", "ref": "6753000026"}, "type": "Feature"}
{"geometry": {"coordinates": [-98.766963168, 38.367632501], "type": "Point"}, "id": "cSVVN-bZsT6UqQ70rpQn7zpakZg=", "properties": {"@source_uri": "https://tools.usps.com/UspsToolsRestServices/rest/POLocator/findLocations", "@spider": "usps_collection_boxes", "addr:city": "GREAT BEND", "addr:country": "US", "addr:postcode": "67530", "addr:state": "KS", "addr:street_address": "2100 16TH ST", "amenity": "post_box", "collection_times": "Mo-Fr 17:00; Sa 11:30", "indoor": "yes", "note": "ON 12/24 AND 12/31, THIS BOX MAY BE COLLECTED AS EARLY AS 12 NOON.", "nsi_id": "unitedstatespostalservice-a77078", "operator": "United States Postal Service", "operator:short": "USPS", "operator:type": "public", "operator:wikidata": "Q668687", "ref": "6753000028"}, "type": "Feature"}
{"geometry": {"coordinates": [-97.7826192251, 37.9014932828], "type": "Point"}, "id": "AUFZT6nBpvZBgh4tfyBf-jOmBGE=", "properties": {"@source_uri": "https://tools.usps.com/UspsToolsRestServices/rest/POLocator/findLocations", "@spider": "usps_collection_boxes", "addr:city": "HAVEN", "addr:country": "US", "addr:postcode": "67543", "addr:state": "KS", "addr:street_address": "106 N KANSAS ST", "amenity": "post_box", "collection_times": "Mo-Fr 15:00; Sa 10:15", "note": "ON 12/24 AND 12/31, THIS BOX MAY BE COLLECTED AS EARLY AS 12 NOON.", "nsi_id": "unitedstatespostalservice-a77078", "operator": "United States Postal Service", "operator:short": "USPS", "operator:type": "public", "operator:wikidata": "Q668687", "ref": "6754300001"}, "type": "Feature"}
{"geometry": {"coordinates": [-97.7826192251, 37.9014932828], "type": "Point"}, "id": "e7xMkrrHsljL4x-EwB5CjHefgaU=", "properties": {"@source_uri": "https://tools.usps.com/UspsToolsRestServices/rest/POLocator/findLocations", "@spider": "usps_collection_boxes", "addr:city": "HAVEN", "addr:country": "US", "addr:postcode": "67543", "addr:state": "KS", "addr:street_address": "106 N KANSAS ST", "amenity": "post_box", "collection_times": "Mo-Fr 15:10; Sa 10:15", "indoor": "yes", "note": "ON 12/24 AND 12/31, THIS BOX MAY BE COLLECTED AS EARLY AS 12 NOON.", "nsi_id": "unitedstatespostalservice-a77078", "operator": "United States Postal Service", "operator:short": "USPS", "operator:type": "public", "operator:wikidata": "Q668687", "ref": "6754300002"}, "type": "Feature"}
{"geometry": {"coordinates": [-97.7826192251, 37.9014932828], "type": "Point"}, "id": "ee7pl2MxPdeKwIobZ-l8pkdEsEI=", "properties": {"@source_uri": "https://tools.usps.com/UspsToolsRestServices/rest/POLocator/findLocations", "@spider": "usps_collection_boxes", "addr:city": "HAVEN", "addr:country": "US", "addr:postcode": "67543", "addr:state": "KS", "addr:street_address": "106 N KANSAS ST", "amenity": "post_box", "collection_times": "Mo-Fr 15:10; Sa 10:15", "indoor": "yes", "note": "ON 12/24 AND 12/31, THIS BOX MAY BE COLLECTED AS EARLY AS 12 NOON.", "nsi_id": "unitedstatespostalservice-a77078", "operator": "United States Postal Service", "operator:short": "USPS", "operator:type": "public", "operator:wikidata": "Q668687", "ref": "6754300003"}, "type": "Feature"}
{"geometry": {"coordinates": [-98.77815, 38.517955], "type": "Point"}, "id": "QFSv6XEaWul2XJWi11aSI5tcrQ8=", "properties": {"@source_uri": "https://tools.usps.com/UspsToolsRestServices/rest/POLocator/findLocations", "@spider": "usps_collection_boxes", "addr:city": "HOISINGTON", "addr:country": "US", "addr:postcode": "67544", "addr:state": "KS", "addr:street_address": "121 E 2ND ST", "amenity": "post_box", "collection_times": "Mo-Fr 13:00; Sa 10:00", "note": "ON 12/24 AND 12/31, THIS BOX MAY BE COLLECTED AS EARLY AS 12 NOON.", "nsi_id": "unitedstatespostalservice-a77078", "operator": "United States Postal Service", "operator:short": "USPS", "operator:type": "public", "operator:wikidata": "Q668687", "ref": "6754400001"}, "type": "Feature"}
{"geometry": {"coordinates": [-98.7764713324, 38.5147995212], "type": "Point"}, "id": "VVYYA2ecR8cIypK5jBu_7Wy92LQ=", "properties": {"@source_uri": "https://tools.usps.com/UspsToolsRestServices/rest/POLocator/findLocations", "@spider": "usps_collection_boxes", "addr:city": "HOISINGTON", "addr:country": "US", "addr:postcode": "67544", "addr:state": "KS", "addr:street_address": "121 E 2ND ST", "amenity": "post_box", "collection_times": "Mo-Fr 16:15; Sa 10:00", "indoor": "yes", "note": "ON 12/24 AND 12/31, THIS BOX MAY BE COLLECTED AS EARLY AS 12 NOON.", "nsi_id": "unitedstatespostalservice-a77078", "operator": "United States Postal Service", "operator:short": "USPS", "operator:type": "public", "operator:wikidata": "Q668687", "ref": "6754400005"}, "type": "Feature"}
{"geometry": {"coordinates": [-98.7764713324, 38.5147995212], "type": "Point"}, "id": "Jf8qjx97B3PXVhw9ikM1xkKGAuo=", "properties": {"@source_uri": "https://tools.usps.com/UspsToolsRestServices/rest/POLocator/findLocations", "@spider": "usps_collection_boxes", "addr:city": "HOISINGTON", "addr:country": "US", "addr:postcode": "67544", "addr:state": "KS", "addr:street_address": "121 E 2ND ST", "amenity": "post_box", "collection_times": "Mo-Fr 16:30; Sa 10:00", "indoor": "yes", "note": "ON 12/24 AND 12/31, THIS BOX MAY BE COLLECTED AS EARLY AS 12 NOON.", "nsi_id": "unitedstatespostalservice-a77078", "operator": "United States Postal Service", "operator:short": "USPS", "operator:type": "public", "operator:wikidata": "Q668687", "ref": "6754400006"}, "type": "Feature"}
{"geometry": {"coordinates": [-97.7758285574, 38.2302986961], "type": "Point"}, "id": "_qMhDs3SauMfp_ld8o6BnsSdC_k=", "properties": {"@source_uri": "https://tools.usps.com/UspsToolsRestServices/rest/POLocator/findLocations", "@spider": "usps_collection_boxes", "addr:city": "INMAN", "addr:country": "US", "addr:postcode": "67546", "addr:state": "KS", "addr:street_address": "210 S MAIN ST", "amenity": "post_box", "collection_times": "Mo-Fr 16:10; Sa 10:15", "note": "ON 12/24 AND 12/31, THIS BOX MAY BE COLLECTED AS EARLY AS 12 NOON.", "nsi_id": "unitedstatespostalservice-a77078", "operator": "United States Postal Service", "operator:short": "USPS", "operator:type": "public", "operator:wikidata": "Q668687", "ref": "6754600001"}, "type": "Feature"}
{"geometry": {"coordinates": [-97.7758285574, 38.2302986961], "type": "Point"}, "id": "mxa4LOSfJMlka1plUwfT83h_ttk=", "properties": {"@source_uri": "https://tools.usps.com/UspsToolsRestServices/rest/POLocator/findLocations", "@spider": "usps_collection_boxes", "addr:city": "INMAN", "addr:country": "US", "addr:postcode": "67546", "addr:state": "KS", "addr:street_address": "210 S MAIN ST", "amenity": "post_box", "collection_times": "Mo-Fr 16:00; Sa 10:15", "indoor": "yes", "note": "ON 12/24 AND 12/31, THIS BOX MAY BE COLLECTED AS EARLY AS 12 NOON.", "nsi_id": "unitedstatespostalservice-a77078", "operator": "United States Postal Service", "operator:short": "USPS", "operator:type": "public", "operator:wikidata": "Q668687", "ref": "6754600002"}, "type": "Feature"}
{"geometry": {"coordinates": [-97.7758285574, 38.2302986961], "type": "Point"}, "id": "XRd5YOxjPbcQY6fSxg3eSWGo7D0=", "properties": {"@source_uri": "https://tools.usps.com/UspsToolsRestServices/rest/POLocator/findLocations", "@spider": "usps_collection_boxes", "addr:city": "INMAN", "addr:country": "US", "addr:postcode": "67546", "addr:state": "KS", "addr:street_address": "210 S MAIN ST", "amenity": "post_box", "collection_times": "Mo-Fr 16:00; Sa 10:15", "indoor": "yes", "note": "ON 12/24 AND 12/31, THIS BOX MAY BE COLLECTED AS EARLY AS 12 NOON.", "nsi_id": "unitedstatespostalservice-a77078", "operator": "United States Postal Service", "operator:short": "USPS", "operator:type": "public", "operator:wikidata": "Q668687", "ref": "6754600003"}, "type": "Feature"}
{"geometry": {"coordinates": [-99.4111752178, 37.9212662201], "type": "Point"}, "id": "0LLzhER5eew83UdLC10fpt_ChPo=", "properties": {"@source_uri": "https://tools.usps.com/UspsToolsRestServices/rest/POLocator/findLocations", "@spider": "usps_collection_boxes", "addr:city": "KINSLEY", "addr:country": "US", "addr:postcode": "67547", "addr:state": "KS", "addr:street_address": "717 MARSH AVE", "amenity": "post_box", "collection_times": "Mo-Fr 14:20; Sa 10:15", "note": "ON 12/24 AND 12/31, THIS BOX MAY BE COLLECTED AS EARLY AS 12 NOON.", "nsi_id": "unitedstatespostalservice-a77078", "operator": "United States Postal Service", "operator:short": "USPS", "operator:type": "public", "operator:wikidata": "Q668687", "ref": "6754700004"}, "type": "Feature"}
{"geometry": {"coordinates": [-99.411176, 37.92127], "type": "Point"}, "id": "ca-6zlF46kBWPXBC7Ob_qIxPNcY=", "properties": {"@source_uri": "https://tools.usps.com/UspsToolsRestServices/rest/POLocator/findLocations", "@spider": "usps_collection_boxes", "addr:city": "KINSLEY", "addr:country": "US", "addr:postcode": "67547", "addr:state": "KS", "addr:street_address": "717 MARSH AVE", "amenity": "post_box", "collection_times": "Mo-Fr 14:10; Sa 10:15", "indoor": "yes", "note": "ON 12/24 AND 12/31, THIS BOX MAY BE COLLECTED AS EARLY AS 12 NOON.", "nsi_id": "unitedstatespostalservice-a77078", "operator": "United States Postal Service", "operator:short": "USPS", "operator:type": "public", "operator:wikidata": "Q668687", "ref": "6754700006"}, "type": "Feature"}
{"geometry": {"coordinates": [-99.4111752178, 37.9212662201], "type": "Point"}, "id": "ZbKLBLhSrOC7Bcqgt2qBOZb0ISU=", "properties": {"@source_uri": "https://tools.usps.com/UspsToolsRestServices/rest/POLocator/findLocations", "@spider": "usps_collection_boxes", "addr:city": "KINSLEY", "addr:country": "US", "addr:postcode": "67547", "addr:state": "KS", "addr:street_address": "717 MARSH AVE", "amenity": "post_box", "collection_times": "Mo-Fr 14:10; Sa 10:15", "indoor": "yes", "note": "ON 12/24 AND 12/31, THIS BOX MAY BE COLLECTED AS EARLY AS 12 NOON.", "nsi_id": "unitedstatespostalservice-a77078", "operator": "United States Postal Service", "operator:short": "USPS", "operator:type": "public", "operator:wikidata": "Q668687", "ref": "6754700007"}, "type": "Feature"}
{"geometry": {"coordinates": [-99.308811777, 38.5307124605], "type": "Point"}, "id": "4_E0kP0-RZ5wpe4Cv1sD8JwfSKo=", "properties": {"@source_uri": "https://tools.usps.com/UspsToolsRestServices/rest/POLocator/findLocations", "@spider": "usps_collection_boxes", "addr:city": "LA CROSSE", "addr:country": "US", "addr:postcode": "67548", "addr:state": "KS", "addr:street_address": "122 E 8TH ST", "amenity": "post_box", "collection_times": "Mo-Fr 15:00; Sa 10:15", "note": "ON 12/24 AND 12/31, THIS BOX MAY BE COLLECTED AS EARLY AS 12 NOON.", "nsi_id": "unitedstatespostalservice-a77078", "operator": "United States Postal Service", "operator:short": "USPS", "operator:type": "public", "operator:wikidata": "Q668687", "ref": "6754800001"}, "type": "Feature"}
{"geometry": {"coordinates": [-99.308811777, 38.53071246], "type": "Point"}, "id": "10P-etMifFKMZspxu__sBE8_Jd4=", "properties": {"@source_uri": "https://tools.usps.com/UspsToolsRestServices/rest/POLocator/findLocations", "@spider": "usps_collection_boxes", "addr:city": "LA CROSSE", "addr:country": "US", "addr:postcode": "67548", "addr:state": "KS", "addr:street_address": "122 E 8TH ST", "amenity": "post_box", "collection_times": "Mo-Fr 15:15; Sa 10:15", "indoor": "yes", "note": "ON 12/24 AND 12/31, THIS BOX MAY BE COLLECTED AS EARLY AS 12 NOON.", "nsi_id": "unitedstatespostalservice-a77078", "operator": "United States Postal Service", "operator:short": "USPS", "operator:type": "public", "operator:wikidata": "Q668687", "ref": "6754800003"}, "type": "Feature"}
{"geometry": {"coordinates": [-99.308811777, 38.5307124605], "type": "Point"}, "id": "Uovcuye4_rR2O86M3eHN17LE8YM=", "properties": {"@source_uri": "https://tools.usps.com/UspsToolsRestServices/rest/POLocator/findLocations", "@spider": "usps_collection_boxes", "addr:city": "LA CROSSE", "addr:country": "US", "addr:postcode": "67548", "addr:state": "KS", "addr:street_address": "122 E 8TH ST", "amenity": "post_box", "collection_times": "Mo-Fr 15:15; Sa 10:15", "indoor": "yes", "note": "ON 12/24 AND 12/31, THIS BOX MAY BE COLLECTED AS EARLY AS 12 NOON.", "nsi_id": "unitedstatespostalservice-a77078", "operator": "United States Postal Service", "operator:short": "USPS", "operator:type": "public", "operator:wikidata": "Q668687", "ref": "6754800004"}, "type": "Feature"}
{"geometry": {"coordinates": [-99.0989805, 38.182079], "type": "Point"}, "id": "qp0XxP36vrpQexDyo6_LQxp2Tp8=", "properties": {"@source_uri": "https://tools.usps.com/UspsToolsRestServices/rest/POLocator/findLocations", "@spider": "usps_collection_boxes", "addr:city": "LARNED", "addr:country": "US", "addr:postcode": "67550", "addr:state": "KS", "addr:street_address": "803 BROADWAY ST", "amenity": "post_box", "collection_times": "Mo-Sa 14:45", "note": "ON 12/24 AND 12/31, THIS BOX MAY BE COLLECTED AS EARLY AS 12 NOON.", "nsi_id": "unitedstatespostalservice-a77078", "operator": "United States Postal Service", "operator:short": "USPS", "operator:type": "public", "operator:wikidata": "Q668687", "ref": "6755000004"}, "type": "Feature"}
{"geometry": {"coordinates": [-99.098416, 38.181801], "type": "Point"}, "id": "9jeX37-PxPf_OxtV71gI2SAg5Ko=", "properties": {"@source_uri": "https://tools.usps.com/UspsToolsRestServices/rest/POLocator/findLocations", "@spider": "usps_collection_boxes", "addr:city": "LARNED", "addr:country": "US", "addr:postcode": "67550", "addr:state": "KS", "addr:street_address": "803 BROADWAY ST", "amenity": "post_box", "collection_times": "Mo-Sa 15:10", "indoor": "yes", "note": "ON 12/24 AND 12/31, THIS BOX MAY BE COLLECTED AS EARLY AS 12 NOON.", "nsi_id": "unitedstatespostalservice-a77078", "operator": "United States Postal Service", "operator:short": "USPS", "operator:type": "public", "operator:wikidata": "Q668687", "ref": "6755000006"}, "type": "Feature"}
{"geometry": {"coordinates": [-99.098416, 38.181801], "type": "Point"}, "id": "xtR-UpY4I3wW_nsLuTCjM6kNX1s=", "properties": {"@source_uri": "https://tools.usps.com/UspsToolsRestServices/rest/POLocator/findLocations", "@spider": "usps_collection_boxes", "addr:city": "LARNED", "addr:country": "US", "addr:postcode": "67550", "addr:state": "KS", "addr:street_address": "803 BROADWAY ST", "amenity": "post_box", "collection_times": "Mo-Sa 15:10", "indoor": "yes", "note": "ON 12/24 AND 12/31, THIS BOX MAY BE COLLECTED AS EARLY AS 12 NOON.", "nsi_id": "unitedstatespostalservice-a77078", "operator": "United States Postal Service", "operator:short": "USPS", "operator:type": "public", "operator:wikidata": "Q668687", "ref": "6755000007"}, "type": "Feature"}
{"geometry": {"coordinates": [-99.098417994, 38.181978], "type": "Point"}, "id": "4eYErssIgTZmwhdhLUQOuK9cI80=", "properties": {"@source_uri": "https://tools.usps.com/UspsToolsRestServices/rest/POLocator/findLocations", "@spider": "usps_collection_boxes", "addr:city": "LARNED", "addr:country": "US", "addr:postcode": "67550", "addr:state": "KS", "addr:street_address": "803 BROADWAY ST", "amenity": "post_box", "collection_times": "Mo-Fr 15:10; Sa 11:00", "indoor": "yes", "note": "ON 12/24 AND 12/31, THIS BOX MAY BE COLLECTED AS EARLY AS 12 NOON.", "nsi_id": "unitedstatespostalservice-a77078", "operator": "United States Postal Service", "operator:short": "USPS", "operator:type": "public", "operator:wikidata": "Q668687", "ref": "6755000009"}, "type": "Feature"}
{"geometry": {"coordinates": [-99.254478, 37.938237], "type": "Point"}, "id": "zJWI1AYY7jlwAH0CxIkzTMnurnY=", "properties": {"@source_uri": "https://tools.usps.com/UspsToolsRestServices/rest/POLocator/findLocations", "@spider": "usps_collection_boxes", "addr:city": "LEWIS", "addr:country": "US", "addr:postcode": "67552", "addr:state": "KS", "addr:street_address": "123 MAIN ST", "amenity": "post_box", "collection_times": "Mo-Fr 11:45; Sa 08:45", "indoor": "yes", "nsi_id": "unitedstatespostalservice-a77078", "operator": "United States Postal Service", "operator:short": "USPS", "operator:type": "public", "operator:wikidata": "Q668687", "ref": "6755200002"}, "type": "Feature"}
{"geometry": {"coordinates": [-99.254478, 37.938237], "type": "Point"}, "id": "tdwX3Y0_-Amqe6Yb2AFEnoUKCBE=", "properties": {"@source_uri": "https://tools.usps.com/UspsToolsRestServices/rest/POLocator/findLocations", "@spider": "usps_collection_boxes", "addr:city": "LEWIS", "addr:country": "US", "addr:postcode": "67552", "addr:state": "KS", "addr:street_address": "123 MAIN ST", "amenity": "post_box", "collection_times": "Mo-Fr 11:45; Sa 08:45", "nsi_id": "unitedstatespostalservice-a77078", "operator": "United States Postal Service", "operator:short": "USPS", "operator:type": "public", "operator:wikidata": "Q668687", "ref": "6755200003"}, "type": "Feature"}
{"geometry": {"coordinates": [-99.254725232, 37.939047192], "type": "Point"}, "id": "1S9mRa4kmEBYXxwUk3ptJLMN5Uk=", "properties": {"@source_uri": "https://tools.usps.com/UspsToolsRestServices/rest/POLocator/findLocations", "@spider": "usps_collection_boxes", "addr:city": "LEWIS", "addr:country": "US", "addr:postcode": "67552", "addr:state": "KS", "addr:street_address": "123 MAIN ST", "amenity": "post_box", "collection_times": "Mo-Fr 11:45; Sa 08:45", "indoor": "yes", "nsi_id": "unitedstatespostalservice-a77078", "operator": "United States Postal Service", "operator:short": "USPS", "operator:type": "public", "operator:wikidata": "Q668687", "ref": "6755200004"}, "type": "Feature"}
{"geometry": {"coordinates": [-98.203286, 38.348331], "type": "Point"}, "id": "V56zwM_7JiCI15_SgIWe76hnhBo=", "properties": {"@source_uri": "https://tools.usps.com/UspsToolsRestServices/rest/POLocator/findLocations", "@spider": "usps_collection_boxes", "addr:city": "LYONS", "addr:country": "US", "addr:postcode": "67554", "addr:state": "KS", "addr:street_address": "121 EAST AVE N", "amenity": "post_box", "collection_times": "Mo-Fr 15:00; Sa 09:15", "note": "ON 12/24 AND 12/31, THIS BOX MAY BE COLLECTED AS EARLY AS 12 NOON.", "nsi_id": "unitedstatespostalservice-a77078", "operator": "United States Postal Service", "operator:short": "USPS", "operator:type": "public", "operator:wikidata": "Q668687", "ref": "6755400004"}, "type": "Feature"}
{"geometry": {"coordinates": [-98.203286, 38.348331], "type": "Point"}, "id": "FRXpSUj2s47ntTK2cDqCnj5g1VU=", "properties": {"@source_uri": "https://tools.usps.com/UspsToolsRestServices/rest/POLocator/findLocations", "@spider": "usps_collection_boxes", "addr:city": "LYONS", "addr:country": "US", "addr:postcode": "67554", "addr:state": "KS", "addr:street_address": "121 EAST AVE N", "amenity": "post_box", "collection_times": "Mo-Fr 15:30; Sa 09:15", "indoor": "yes", "note": "ON 12/24 AND 12/31, THIS BOX MAY BE COLLECTED AS EARLY AS 12 NOON.", "nsi_id": "unitedstatespostalservice-a77078", "operator": "United States Postal Service", "operator:short": "USPS", "operator:type": "public", "operator:wikidata": "Q668687", "ref": "6755400007"}, "type": "Feature"}
{"geometry": {"coordinates": [-98.203289026, 38.348325376], "type": "Point"}, "id": "CHDQeVZbG-slbqp_S_tMMaHZGrM=", "properties": {"@source_uri": "https://tools.usps.com/UspsToolsRestServices/rest/POLocator/findLocations", "@spider": "usps_collection_boxes", "addr:city": "LYONS", "addr:country": "US", "addr:postcode": "67554", "addr:state": "KS", "addr:street_address": "121 EAST AVE N", "amenity": "post_box", "collection_times": "Mo-Fr 15:30; Sa 09:15", "indoor": "yes", "note": "ON 12/24 AND 12/31, THIS BOX MAY BE COLLECTED AS EARLY AS 12 NOON.", "nsi_id": "unitedstatespostalservice-a77078", "operator": "United States Postal Service", "operator:short": "USPS", "operator:type": "public", "operator:wikidata": "Q668687", "ref": "6755400008"}, "type": "Feature"}
{"geometry": {"coordinates": [-99.569370039, 38.583719986], "type": "Point"}, "id": "ZDV1Qp_5ryi4S4Utk6MSZznqCAw=", "properties": {"@source_uri": "https://tools.usps.com/UspsToolsRestServices/rest/POLocator/findLocations", "@spider": "usps_collection_boxes", "addr:city": "MCCRACKEN", "addr:country": "US", "addr:postcode": "67556", "addr:state": "KS", "addr:street_address": "202 MAIN ST", "amenity": "post_box", "collection_times": "Mo-Fr 11:45; Sa 10:30", "nsi_id": "unitedstatespostalservice-a77078", "operator": "United States Postal Service", "operator:short": "USPS", "operator:type": "public", "operator:wikidata": "Q668687", "ref": "6755600001"}, "type": "Feature"}
{"geometry": {"coordinates": [-99.569370039, 38.583719986], "type": "Point"}, "id": "987WFKfioD4oxY5L3wlGDk32K6s=", "properties": {"@source_uri": "https://tools.usps.com/UspsToolsRestServices/rest/POLocator/findLocations", "@spider": "usps_collection_boxes", "addr:city": "MCCRACKEN", "addr:country": "US", "addr:postcode": "67556", "addr:state": "KS", "addr:street_address": "202 MAIN ST", "amenity": "post_box", "collection_times": "Mo-Fr 11:45; Sa 10:30", "indoor": "yes", "nsi_id": "unitedstatespostalservice-a77078", "operator": "United States Postal Service", "operator:short": "USPS", "operator:type": "public", "operator:wikidata": "Q668687", "ref": "6755600005"}, "type": "Feature"}
{"geometry": {"coordinates": [-98.967864, 37.958083], "type": "Point"}, "id": "vAdRB0FoYGLOTQWjr1LGQEeOo-I=", "properties": {"@source_uri": "https://tools.usps.com/UspsToolsRestServices/rest/POLocator/findLocations", "@spider": "usps_collection_boxes", "addr:city": "MACKSVILLE", "addr:country": "US", "addr:postcode": "67557", "addr:state": "KS", "addr:street_address": "214 N MAIN ST", "amenity": "post_box", "collection_times": "Mo-Fr 14:00; Sa 11:30", "note": "ON 12/24 AND 12/31, THIS BOX MAY BE COLLECTED AS EARLY AS 12 NOON.", "nsi_id": "unitedstatespostalservice-a77078", "operator": "United States Postal Service", "operator:short": "USPS", "operator:type": "public", "operator:wikidata": "Q668687", "ref": "6755700001"}, "type": "Feature"}
{"geometry": {"coordinates": [-98.967864, 37.958083], "type": "Point"}, "id": "vrxgTfzTphW_eDMvn8hSd2aI-sI=", "properties": {"@source_uri": "https://tools.usps.com/UspsToolsRestServices/rest/POLocator/findLocations", "@spider": "usps_collection_boxes", "addr:city": "MACKSVILLE", "addr:country": "US", "addr:postcode": "67557", "addr:state": "KS", "addr:street_address": "214 N MAIN ST", "amenity": "post_box", "collection_times": "Mo-Fr 14:00; Sa 11:30", "indoor": "yes", "note": "ON 12/24 AND 12/31, THIS BOX MAY BE COLLECTED AS EARLY AS 12 NOON.", "nsi_id": "unitedstatespostalservice-a77078", "operator": "United States Postal Service", "operator:short": "USPS", "operator:type": "public", "operator:wikidata": "Q668687", "ref": "6755700002"}, "type": "Feature"}
{"geometry": {"coordinates": [-98.967891399, 37.95804757], "type": "Point"}, "id": "xQHDfdBeuMy_3OFp6dLy_913dXY=", "properties": {"@source_uri": "https://tools.usps.com/UspsToolsRestServices/rest/POLocator/findLocations", "@spider": "usps_collection_boxes", "addr:city": "MACKSVILLE", "addr:country": "US", "addr:postcode": "67557", "addr:state": "KS", "addr:street_address": "214 N MAIN ST", "amenity": "post_box", "collection_times": "Mo-Fr 14:00; Sa 11:30", "indoor": "yes", "note": "ON 12/24 AND 12/31, THIS BOX MAY BE COLLECTED AS EARLY AS 12 NOON.", "nsi_id": "unitedstatespostalservice-a77078", "operator": "United States Postal Service", "operator:short": "USPS", "operator:type": "public", "operator:wikidata": "Q668687", "ref": "6755700003"}, "type": "Feature"}
{"geometry": {"coordinates": [-99.9063166, 38.453536], "type": "Point"}, "id": "K8YEYzktTlEXOzeF6LWLL7Tg4JA=", "properties": {"@source_uri": "https://tools.usps.com/UspsToolsRestServices/rest/POLocator/findLocations", "@spider": "usps_collection_boxes", "addr:city": "NESS CITY", "addr:country": "US", "addr:postcode": "67560", "addr:state": "KS", "addr:street_address": "108 S KANSAS AVE", "amenity": "post_box", "collection_times": "Mo-Fr 12:15; Sa 11:15", "note": "ON 12/24 AND 12/31, THIS BOX MAY BE COLLECTED AS EARLY AS 12 NOON.", "nsi_id": "unitedstatespostalservice-a77078", "operator": "United States Postal Service", "operator:short": "USPS", "operator:type": "public", "operator:wikidata": "Q668687", "ref": "6756000002"}, "type": "Feature"}
{"geometry": {"coordinates": [-99.906424, 38.453777], "type": "Point"}, "id": "kyjxWIHxI-9WunY9rlsUyWLPUwY=", "properties": {"@source_uri": "https://tools.usps.com/UspsToolsRestServices/rest/POLocator/findLocations", "@spider": "usps_collection_boxes", "addr:city": "NESS CITY", "addr:country": "US", "addr:postcode": "67560", "addr:state": "KS", "addr:street_address": "108 S KANSAS AVE", "amenity": "post_box", "collection_times": "Mo-Fr 14:10; Sa 11:15", "indoor": "yes", "note": "ON 12/24 AND 12/31, THIS BOX MAY BE COLLECTED AS EARLY AS 12 NOON.", "nsi_id": "unitedstatespostalservice-a77078", "operator": "United States Postal Service", "operator:short": "USPS", "operator:type": "public", "operator:wikidata": "Q668687", "ref": "6756000003"}, "type": "Feature"}
{"geometry": {"coordinates": [-99.906403482, 38.453793077], "type": "Point"}, "id": "HfJCXk9Cr04F2QsdQK6bVMlGd3g=", "properties": {"@source_uri": "https://tools.usps.com/UspsToolsRestServices/rest/POLocator/findLocations", "@spider": "usps_collection_boxes", "addr:city": "NESS CITY", "addr:country": "US", "addr:postcode": "67560", "addr:state": "KS", "addr:street_address": "108 S KANSAS AVE", "amenity": "post_box", "collection_times": "Mo-Fr 14:10; Sa 11:15", "indoor": "yes", "note": "ON 12/24 AND 12/31, THIS BOX MAY BE COLLECTED AS EARLY AS 12 NOON.", "nsi_id": "unitedstatespostalservice-a77078", "operator": "United States Postal Service", "operator:short": "USPS", "operator:type": "public", "operator:wikidata": "Q668687", "ref": "6756000004"}, "type": "Feature"}
{"geometry": {"coordinates": [-98.08395, 38.14818], "type": "Point"}, "id": "tCDm9-LbskDT93FnaV3aowrhweA=", "properties": {"@source_uri": "https://tools.usps.com/UspsToolsRestServices/rest/POLocator/findLocations", "@spider": "usps_collection_boxes", "addr:city": "NICKERSON", "addr:country": "US", "addr:postcode": "67561", "addr:state": "KS", "addr:street_address": "6 N NICKERSON ST", "amenity": "post_box", "collection_times": "Mo-Fr 15:15; Sa 09:45", "note": "ON 12/24 AND 12/31, THIS BOX MAY BE COLLECTED AS EARLY AS 12 NOON.", "nsi_id": "unitedstatespostalservice-a77078", "operator": "United States Postal Service", "operator:short": "USPS", "operator:type": "public", "operator:wikidata": "Q668687", "ref": "6756100001"}, "type": "Feature"}
{"geometry": {"coordinates": [-98.082217, 38.146447], "type": "Point"}, "id": "22uvRXumS95cY9sZHq17HYMOGAU=", "properties": {"@source_uri": "https://tools.usps.com/UspsToolsRestServices/rest/POLocator/findLocations", "@spider": "usps_collection_boxes", "addr:city": "NICKERSON", "addr:country": "US", "addr:postcode": "67561", "addr:state": "KS", "addr:street_address": "6 N NICKERSON ST", "amenity": "post_box", "collection_times": "Mo-Fr 15:15; Sa 09:45", "indoor": "yes", "note": "ON 12/24 AND 12/31, THIS BOX MAY BE COLLECTED AS EARLY AS 12 NOON.", "nsi_id": "unitedstatespostalservice-a77078", "operator": "United States Postal Service", "operator:short": "USPS", "operator:type": "public", "operator:wikidata": "Q668687", "ref": "6756100002"}, "type": "Feature"}
{"geometry": {"coordinates": [-98.082217, 38.146447], "type": "Point"}, "id": "WKio7b_904fHbD28mIXY9En19Es=", "properties": {"@source_uri": "https://tools.usps.com/UspsToolsRestServices/rest/POLocator/findLocations", "@spider": "usps_collection_boxes", "addr:city": "NICKERSON", "addr:country": "US", "addr:postcode": "67561", "addr:state": "KS", "addr:street_address": "6 N NICKERSON ST", "amenity": "post_box", "collection_times": "Mo-Fr 15:15; Sa 09:45", "indoor": "yes", "note": "ON 12/24 AND 12/31, THIS BOX MAY BE COLLECTED AS EARLY AS 12 NOON.", "nsi_id": "unitedstatespostalservice-a77078", "operator": "United States Postal Service", "operator:short": "USPS", "operator:type": "public", "operator:wikidata": "Q668687", "ref": "6756100004"}, "type": "Feature"}
{"geometry": {"coordinates": [-98.0822267413, 38.1463866215], "type": "Point"}, "id": "0_twDRehsil9z-AibEQIbyoUs0Q=", "properties": {"@source_uri": "https://tools.usps.com/UspsToolsRestServices/rest/POLocator/findLocations", "@spider": "usps_collection_boxes", "addr:city": "NICKERSON", "addr:country": "US", "addr:postcode": "67561", "addr:state": "KS", "addr:street_address": "6 N NICKERSON ST", "amenity": "post_box", "collection_times": "Mo-Fr 15:15; Sa 09:45", "indoor": "yes", "note": "ON 12/24 AND 12/31, THIS BOX MAY BE COLLECTED AS EARLY AS 12 NOON.", "nsi_id": "unitedstatespostalservice-a77078", "operator": "United States Postal Service", "operator:short": "USPS", "operator:type": "public", "operator:wikidata": "Q668687", "ref": "6756100005"}, "type": "Feature"}
{"geometry": {"coordinates": [-99.5579976, 37.891429], "type": "Point"}, "id": "HL6HdVGVEQcfQ5A8x3Ll-zdwSPE=", "properties": {"@source_uri": "https://tools.usps.com/UspsToolsRestServices/rest/POLocator/findLocations", "@spider": "usps_collection_boxes", "addr:city": "OFFERLE", "addr:country": "US", "addr:postcode": "67563", "addr:state": "KS", "addr:street_address": "116 S MAIN ST", "amenity": "post_box", "collection_times": "Mo-Sa 12:00", "nsi_id": "unitedstatespostalservice-a77078", "operator": "United States Postal Service", "operator:short": "USPS", "operator:type": "public", "operator:wikidata": "Q668687", "ref": "6756300001"}, "type": "Feature"}
{"geometry": {"coordinates": [-98.9363699, 38.516818], "type": "Point"}, "id": "issl50dfweMoZvK_0FGuffvQ2jw=", "properties": {"@source_uri": "https://tools.usps.com/UspsToolsRestServices/rest/POLocator/findLocations", "@spider": "usps_collection_boxes", "addr:city": "OLMITZ", "addr:country": "US", "addr:postcode": "67564", "addr:state": "KS", "addr:street_address": "223 MAIN ST", "amenity": "post_box", "collection_times": "Mo-Fr 14:15; Sa 12:30", "note": "ON 12/24 AND 12/31, THIS BOX MAY BE COLLECTED AS EARLY AS 12 NOON.", "nsi_id": "unitedstatespostalservice-a77078", "operator": "United States Postal Service", "operator:short": "USPS", "operator:type": "public", "operator:wikidata": "Q668687", "ref": "6756400001"}, "type": "Feature"}
{"geometry": {"coordinates": [-98.936306, 38.516131], "type": "Point"}, "id": "_X1hjzFaHhJ4sfXrZOt5pGhrwMs=", "properties": {"@source_uri": "https://tools.usps.com/UspsToolsRestServices/rest/POLocator/findLocations", "@spider": "usps_collection_boxes", "addr:city": "OLMITZ", "addr:country": "US", "addr:postcode": "67564", "addr:state": "KS", "addr:street_address": "223 MAIN ST", "amenity": "post_box", "collection_times": "Mo-Fr 14:10; Sa 12:30", "indoor": "yes", "note": "ON 12/24 AND 12/31, THIS BOX MAY BE COLLECTED AS EARLY AS 12 NOON.", "nsi_id": "unitedstatespostalservice-a77078", "operator": "United States Postal Service", "operator:short": "USPS", "operator:type": "public", "operator:wikidata": "Q668687", "ref": "6756400002"}, "type": "Feature"}
{"geometry": {"coordinates": [-98.936295625, 38.516796335], "type": "Point"}, "id": "Cx0Avk9bSYldxM9RajuFxlG6amI=", "properties": {"@source_uri": "https://tools.usps.com/UspsToolsRestServices/rest/POLocator/findLocations", "@spider": "usps_collection_boxes", "addr:city": "OLMITZ", "addr:country": "US", "addr:postcode": "67564", "addr:state": "KS", "addr:street_address": "223 MAIN ST", "amenity": "post_box", "collection_times": "Mo-Fr 14:10; Sa 12:30", "indoor": "yes", "note": "ON 12/24 AND 12/31, THIS BOX MAY BE COLLECTED AS EARLY AS 12 NOON.", "nsi_id": "unitedstatespostalservice-a77078", "operator": "United States Postal Service", "operator:short": "USPS", "operator:type": "public", "operator:wikidata": "Q668687", "ref": "6756400003"}, "type": "Feature"}
{"geometry": {"coordinates": [-99.0515419, 38.534496], "type": "Point"}, "id": "SvcIgpn5jWwPypuuq84xXYHYKDQ=", "properties": {"@source_uri": "https://tools.usps.com/UspsToolsRestServices/rest/POLocator/findLocations", "@spider": "usps_collection_boxes", "addr:city": "OTIS", "addr:country": "US", "addr:postcode": "67565", "addr:state": "KS", "addr:street_address": "100 N MAIN ST", "amenity": "post_box", "collection_times": "Mo-Fr 11:15; Sa 08:45", "nsi_id": "unitedstatespostalservice-a77078", "operator": "United States Postal Service", "operator:short": "USPS", "operator:type": "public", "operator:wikidata": "Q668687", "ref": "6756500001"}, "type": "Feature"}
{"geometry": {"coordinates": [-99.051446, 38.534511], "type": "Point"}, "id": "b71x-wKmMJ9-xrc_xE27KqEsXIY=", "properties": {"@source_uri": "https://tools.usps.com/UspsToolsRestServices/rest/POLocator/findLocations", "@spider": "usps_collection_boxes", "addr:city": "OTIS", "addr:country": "US", "addr:postcode": "67565", "addr:state": "KS", "addr:street_address": "100 N MAIN ST", "amenity": "post_box", "collection_times": "Mo-Fr 11:15; Sa 08:45", "indoor": "yes", "nsi_id": "unitedstatespostalservice-a77078", "operator": "United States Postal Service", "operator:short": "USPS", "operator:type": "public", "operator:wikidata": "Q668687", "ref": "6756500002"}, "type": "Feature"}
{"geometry": {"coordinates": [-99.051445669, 38.534517], "type": "Point"}, "id": "d9ammHxEUU5zsyL3bpx2z8Fzi1I=", "properties": {"@source_uri": "https://tools.usps.com/UspsToolsRestServices/rest/POLocator/findLocations", "@spider": "usps_collection_boxes", "addr:city": "OTIS", "addr:country": "US", "addr:postcode": "67565", "addr:state": "KS", "addr:street_address": "100 N MAIN ST", "amenity": "post_box", "collection_times": "Mo-Fr 11:15; Sa 08:45", "indoor": "yes", "nsi_id": "unitedstatespostalservice-a77078", "operator": "United States Postal Service", "operator:short": "USPS", "operator:type": "public", "operator:wikidata": "Q668687", "ref": "6756500003"}, "type": "Feature"}
{"geometry": {"coordinates": [-98.092357, 37.967728], "type": "Point"}, "id": "daPlOIZXA0sJfN2rIawNBSIja9s=", "properties": {"@source_uri": "https://tools.usps.com/UspsToolsRestServices/rest/POLocator/findLocations", "@spider": "usps_collection_boxes", "addr:city": "PARTRIDGE", "addr:country": "US", "addr:postcode": "67566", "addr:state": "KS", "addr:street_address": "24 S MAIN ST", "amenity": "post_box", "collection_times": "Mo-Fr 15:05; Sa 11:45", "note": "ON 12/24 AND 12/31, THIS BOX MAY BE COLLECTED AS EARLY AS 12 NOON.", "nsi_id": "unitedstatespostalservice-a77078", "operator": "United States Postal Service", "operator:short": "USPS", "operator:type": "public", "operator:wikidata": "Q668687", "ref": "6756600001"}, "type": "Feature"}
{"geometry": {"coordinates": [-98.092357, 37.967728], "type": "Point"}, "id": "pYaD23JfRDH6JVxpGBnKuFaRVfU=", "properties": {"@source_uri": "https://tools.usps.com/UspsToolsRestServices/rest/POLocator/findLocations", "@spider": "usps_collection_boxes", "addr:city": "PARTRIDGE", "addr:country": "US", "addr:postcode": "67566", "addr:state": "KS", "addr:street_address": "24 S MAIN ST", "amenity": "post_box", "collection_times": "Mo-Fr 15:30; Sa 11:45", "indoor": "yes", "note": "ON 12/24 AND 12/31, THIS BOX MAY BE COLLECTED AS EARLY AS 12 NOON.", "nsi_id": "unitedstatespostalservice-a77078", "operator": "United States Postal Service", "operator:short": "USPS", "operator:type": "public", "operator:wikidata": "Q668687", "ref": "6756600002"}, "type": "Feature"}
{"geometry": {"coordinates": [-98.0923561956, 37.9677242725], "type": "Point"}, "id": "ouv8Obo8c5YFj4B4pWjU-IsZMoM=", "properties": {"@source_uri": "https://tools.usps.com/UspsToolsRestServices/rest/POLocator/findLocations", "@spider": "usps_collection_boxes", "addr:city": "PARTRIDGE", "addr:country": "US", "addr:postcode": "67566", "addr:state": "KS", "addr:street_address": "24 S MAIN ST", "amenity": "post_box", "collection_times": "Mo-Fr 15:30; Sa 11:45", "indoor": "yes", "note": "ON 12/24 AND 12/31, THIS BOX MAY BE COLLECTED AS EARLY AS 12 NOON.", "nsi_id": "unitedstatespostalservice-a77078", "operator": "United States Postal Service", "operator:short": "USPS", "operator:type": "public", "operator:wikidata": "Q668687", "ref": "6756600003"}, "type": "Feature"}
{"geometry": {"coordinates": [-98.9813679, 38.265786], "type": "Point"}, "id": "2I4YrPheOOkix8YqBq-crEgRPKE=", "properties": {"@source_uri": "https://tools.usps.com/UspsToolsRestServices/rest/POLocator/findLocations", "@spider": "usps_collection_boxes", "addr:city": "PAWNEE ROCK", "addr:country": "US", "addr:postcode": "67567", "addr:state": "KS", "addr:street_address": "501 CENTRE ST", "amenity": "post_box", "collection_times": "Mo-Fr 11:45; Sa 08:45", "nsi_id": "unitedstatespostalservice-a77078", "operator": "United States Postal Service", "operator:short": "USPS", "operator:type": "public", "operator:wikidata": "Q668687", "ref": "6756700001"}, "type": "Feature"}
{"geometry": {"coordinates": [-98.981491, 38.265799], "type": "Point"}, "id": "W7G13Z3tlHUqTKuAz4u5LL34beg=", "properties": {"@source_uri": "https://tools.usps.com/UspsToolsRestServices/rest/POLocator/findLocations", "@spider": "usps_collection_boxes", "addr:city": "PAWNEE ROCK", "addr:country": "US", "addr:postcode": "67567", "addr:state": "KS", "addr:street_address": "501 CENTRE ST", "amenity": "post_box", "collection_times": "Mo-Fr 11:45; Sa 08:45", "indoor": "yes", "nsi_id": "unitedstatespostalservice-a77078", "operator": "United States Postal Service", "operator:short": "USPS", "operator:type": "public", "operator:wikidata": "Q668687", "ref": "6756700002"}, "type": "Feature"}
{"geometry": {"coordinates": [-98.981316486, 38.265795587], "type": "Point"}, "id": "LEK7dF-5YzCJkU9TtDPX9GGHY-Y=", "properties": {"@source_uri": "https://tools.usps.com/UspsToolsRestServices/rest/POLocator/findLocations", "@spider": "usps_collection_boxes", "addr:city": "PAWNEE ROCK", "addr:country": "US", "addr:postcode": "67567", "addr:state": "KS", "addr:street_address": "501 CENTRE ST", "amenity": "post_box", "collection_times": "Mo-Fr 11:45; Sa 08:45", "indoor": "yes", "nsi_id": "unitedstatespostalservice-a77078", "operator": "United States Postal Service", "operator:short": "USPS", "operator:type": "public", "operator:wikidata": "Q668687", "ref": "6756700003"}, "type": "Feature"}
{"geometry": {"coordinates": [-98.020478989, 37.7809460171], "type": "Point"}, "id": "oR5Jhbs2lewmGObdhfVPM8iXJKU=", "properties": {"@source_uri": "https://tools.usps.com/UspsToolsRestServices/rest/POLocator/findLocations", "@spider": "usps_collection_boxes", "addr:city": "PRETTY PRAIRIE", "addr:country": "US", "addr:postcode": "67570", "addr:state": "KS", "addr:street_address": "114 W MAIN ST", "amenity": "post_box", "collection_times": "Mo-Fr 13:45; Sa 09:45", "note": "ON 12/24 AND 12/31, THIS BOX MAY BE COLLECTED AS EARLY AS 12 NOON.", "nsi_id": "unitedstatespostalservice-a77078", "operator": "United States Postal Service", "operator:short": "USPS", "operator:type": "public", "operator:wikidata": "Q668687", "ref": "6757000001"}, "type": "Feature"}
{"geometry": {"coordinates": [-98.020470106, 37.780743497], "type": "Point"}, "id": "YeSBpDEyc4cDDHBX9FTzjGPBhY4=", "properties": {"@source_uri": "https://tools.usps.com/UspsToolsRestServices/rest/POLocator/findLocations", "@spider": "usps_collection_boxes", "addr:city": "PRETTY PRAIRIE", "addr:country": "US", "addr:postcode": "67570", "addr:state": "KS", "addr:street_address": "114 W MAIN ST", "amenity": "post_box", "collection_times": "Mo-Fr 13:45; Sa 09:45", "indoor": "yes", "note": "ON 12/24 AND 12/31, THIS BOX MAY BE COLLECTED AS EARLY AS 12 NOON.", "nsi_id": "unitedstatespostalservice-a77078", "operator": "United States Postal Service", "operator:short": "USPS", "operator:type": "public", "operator:wikidata": "Q668687", "ref": "6757000002"}, "type": "Feature"}
{"geometry": {"coordinates": [-98.020470106, 37.780743497], "type": "Point"}, "id": "LK7H-jHmxwOQaQVg64RbkzIuPcc=", "properties": {"@source_uri": "https://tools.usps.com/UspsToolsRestServices/rest/POLocator/findLocations", "@spider": "usps_collection_boxes", "addr:city": "PRETTY PRAIRIE", "addr:country": "US", "addr:postcode": "67570", "addr:state": "KS", "addr:street_address": "114 W MAIN ST", "amenity": "post_box", "collection_times": "Mo-Fr 13:45; Sa 09:45", "indoor": "yes", "note": "ON 12/24 AND 12/31, THIS BOX MAY BE COLLECTED AS EARLY AS 12 NOON.", "nsi_id": "unitedstatespostalservice-a77078", "operator": "United States Postal Service", "operator:short": "USPS", "operator:type": "public", "operator:wikidata": "Q668687", "ref": "6757000003"}, "type": "Feature"}
{"geometry": {"coordinates": [-99.9316879, 38.633914], "type": "Point"}, "id": "-h8jMJng31hBEzT4iLxmLm-wsSw=", "properties": {"@source_uri": "https://tools.usps.com/UspsToolsRestServices/rest/POLocator/findLocations", "@spider": "usps_collection_boxes", "addr:city": "RANSOM", "addr:country": "US", "addr:postcode": "67572", "addr:state": "KS", "addr:street_address": "417 S VERMONT AVE", "amenity": "post_box", "collection_times": "Mo-Fr 12:25; Sa 09:10", "note": "ON 12/24 AND 12/31, THIS BOX MAY BE COLLECTED AS EARLY AS 12 NOON.", "nsi_id": "unitedstatespostalservice-a77078", "operator": "United States Postal Service", "operator:short": "USPS", "operator:type": "public", "operator:wikidata": "Q668687", "ref": "6757200001"}, "type": "Feature"}
{"geometry": {"coordinates": [-99.931607, 38.634518], "type": "Point"}, "id": "maQvg_sKpQRy0WcwUmYAgaVxkiQ=", "properties": {"@source_uri": "https://tools.usps.com/UspsToolsRestServices/rest/POLocator/findLocations", "@spider": "usps_collection_boxes", "addr:city": "RANSOM", "addr:country": "US", "addr:postcode": "67572", "addr:state": "KS", "addr:street_address": "417 S VERMONT AVE", "amenity": "post_box", "collection_times": "Mo-Fr 12:25; Sa 09:10", "indoor": "yes", "note": "ON 12/24 AND 12/31, THIS BOX MAY BE COLLECTED AS EARLY AS 12 NOON.", "nsi_id": "unitedstatespostalservice-a77078", "operator": "United States Postal Service", "operator:short": "USPS", "operator:type": "public", "operator:wikidata": "Q668687", "ref": "6757200002"}, "type": "Feature"}
{"geometry": {"coordinates": [-99.9316328111, 38.6345309654], "type": "Point"}, "id": "fjfG2e_628owonuH_EFDg84v5MU=", "properties": {"@source_uri": "https://tools.usps.com/UspsToolsRestServices/rest/POLocator/findLocations", "@spider": "usps_collection_boxes", "addr:city": "RANSOM", "addr:country": "US", "addr:postcode": "67572", "addr:state": "KS", "addr:street_address": "417 S VERMONT AVE", "amenity": "post_box", "collection_times": "Mo-Fr 12:25; Sa 09:10", "indoor": "yes", "note": "ON 12/24 AND 12/31, THIS BOX MAY BE COLLECTED AS EARLY AS 12 NOON.", "nsi_id": "unitedstatespostalservice-a77078", "operator": "United States Postal Service", "operator:short": "USPS", "operator:type": "public", "operator:wikidata": "Q668687", "ref": "6757200003"}, "type": "Feature"}
{"geometry": {"coordinates": [-98.4158655957, 38.2779319652], "type": "Point"}, "id": "byxmk1K66JrKvpBLXsNBueaED10=", "properties": {"@source_uri": "https://tools.usps.com/UspsToolsRestServices/rest/POLocator/findLocations", "@spider": "usps_collection_boxes", "addr:city": "RAYMOND", "addr:country": "US", "addr:postcode": "67573", "addr:state": "KS", "addr:street_address": "401 MAIN ST", "amenity": "post_box", "collection_times": "Mo-Fr 11:45; Sa 11:15", "nsi_id": "unitedstatespostalservice-a77078", "operator": "United States Postal Service", "operator:short": "USPS", "operator:type": "public", "operator:wikidata": "Q668687", "ref": "6757300001"}, "type": "Feature"}
{"geometry": {"coordinates": [-98.41634999, 38.278060014], "type": "Point"}, "id": "ORQvciVEJSEaB2jbYAVcpqHn8zg=", "properties": {"@source_uri": "https://tools.usps.com/UspsToolsRestServices/rest/POLocator/findLocations", "@spider": "usps_collection_boxes", "addr:city": "RAYMOND", "addr:country": "US", "addr:postcode": "67573", "addr:state": "KS", "addr:street_address": "401 MAIN ST", "amenity": "post_box", "collection_times": "Mo-Sa 11:15", "indoor": "yes", "nsi_id": "unitedstatespostalservice-a77078", "operator": "United States Postal Service", "operator:short": "USPS", "operator:type": "public", "operator:wikidata": "Q668687", "ref": "6757300003"}, "type": "Feature"}
{"geometry": {"coordinates": [-99.4007849, 38.194783], "type": "Point"}, "id": "WTmk1uyw_fuIshlXZgvLtbh9Y6w=", "properties": {"@source_uri": "https://tools.usps.com/UspsToolsRestServices/rest/POLocator/findLocations", "@spider": "usps_collection_boxes", "addr:city": "ROZEL", "addr:country": "US", "addr:postcode": "67574", "addr:state": "KS", "addr:street_address": "108 N MAIN ST", "amenity": "post_box", "collection_times": "Mo-Fr 11:45; Sa 09:15", "nsi_id": "unitedstatespostalservice-a77078", "operator": "United States Postal Service", "operator:short": "USPS", "operator:type": "public", "operator:wikidata": "Q668687", "ref": "6757400001"}, "type": "Feature"}
{"geometry": {"coordinates": [-99.400792, 38.19444], "type": "Point"}, "id": "cLpPZqaCXC5YzWVKB4--JC9eDj8=", "properties": {"@source_uri": "https://tools.usps.com/UspsToolsRestServices/rest/POLocator/findLocations", "@spider": "usps_collection_boxes", "addr:city": "ROZEL", "addr:country": "US", "addr:postcode": "67574", "addr:state": "KS", "addr:street_address": "108 N MAIN ST", "amenity": "post_box", "collection_times": "Mo-Fr 11:45; Sa 09:15", "indoor": "yes", "nsi_id": "unitedstatespostalservice-a77078", "operator": "United States Postal Service", "operator:short": "USPS", "operator:type": "public", "operator:wikidata": "Q668687", "ref": "6757400002"}, "type": "Feature"}
{"geometry": {"coordinates": [-99.400824057, 38.194405854], "type": "Point"}, "id": "Qh8xY2HN4aBuB_2l5SOlJ3Ee01w=", "properties": {"@source_uri": "https://tools.usps.com/UspsToolsRestServices/rest/POLocator/findLocations", "@spider": "usps_collection_boxes", "addr:city": "ROZEL", "addr:country": "US", "addr:postcode": "67574", "addr:state": "KS", "addr:street_address": "108 N MAIN ST", "amenity": "post_box", "collection_times": "Mo-Fr 11:45; Sa 09:15", "indoor": "yes", "nsi_id": "unitedstatespostalservice-a77078", "operator": "United States Postal Service", "operator:short": "USPS", "operator:type": "public", "operator:wikidata": "Q668687", "ref": "6757400003"}, "type": "Feature"}
{"geometry": {"coordinates": [-99.3090549, 38.467811], "type": "Point"}, "id": "7PTGG1yOACdhj39XGGRXPUFPzCM=", "properties": {"@source_uri": "https://tools.usps.com/UspsToolsRestServices/rest/POLocator/findLocations", "@spider": "usps_collection_boxes", "addr:city": "RUSH CENTER", "addr:country": "US", "addr:postcode": "67575", "addr:state": "KS", "addr:street_address": "221 N MAIN ST", "amenity": "post_box", "collection_times": "Mo-Fr 11:15; Sa 08:45", "nsi_id": "unitedstatespostalservice-a77078", "operator": "United States Postal Service", "operator:short": "USPS", "operator:type": "public", "operator:wikidata": "Q668687", "ref": "6757500001"}, "type": "Feature"}
{"geometry": {"coordinates": [-99.308849, 38.467463], "type": "Point"}, "id": "BfEVi3fxTLvu2wJUGDXz5v0RdcM=", "properties": {"@source_uri": "https://tools.usps.com/UspsToolsRestServices/rest/POLocator/findLocations", "@spider": "usps_collection_boxes", "addr:city": "RUSH CENTER", "addr:country": "US", "addr:postcode": "67575", "addr:state": "KS", "addr:street_address": "221 N MAIN ST", "amenity": "post_box", "collection_times": "Mo-Fr 11:15; Sa 08:45", "indoor": "yes", "nsi_id": "unitedstatespostalservice-a77078", "operator": "United States Postal Service", "operator:short": "USPS", "operator:type": "public", "operator:wikidata": "Q668687", "ref": "6757500002"}, "type": "Feature"}
{"geometry": {"coordinates": [-99.308875592, 38.467818503], "type": "Point"}, "id": "JPR6Opp-6yjN59hquSAtSAIIhzY=", "properties": {"@source_uri": "https://tools.usps.com/UspsToolsRestServices/rest/POLocator/findLocations", "@spider": "usps_collection_boxes", "addr:city": "RUSH CENTER", "addr:country": "US", "addr:postcode": "67575", "addr:state": "KS", "addr:street_address": "221 N MAIN ST", "amenity": "post_box", "collection_times": "Mo-Fr 11:15; Sa 08:45", "indoor": "yes", "nsi_id": "unitedstatespostalservice-a77078", "operator": "United States Postal Service", "operator:short": "USPS", "operator:type": "public", "operator:wikidata": "Q668687", "ref": "6757500003"}, "type": "Feature"}
{"geometry": {"coordinates": [-98.7616353588, 38.002293], "type": "Point"}, "id": "3Oh9T9DQS1Ec7ehXWBIJaf8fZO8=", "properties": {"@source_uri": "https://tools.usps.com/UspsToolsRestServices/rest/POLocator/findLocations", "@spider": "usps_collection_boxes", "addr:city": "SAINT JOHN", "addr:country": "US", "addr:postcode": "67576", "addr:state": "KS", "addr:street_address": "320 N MAIN ST", "amenity": "post_box", "collection_times": "Mo-Fr 15:30; Sa 09:45", "note": "ON 12/24 AND 12/31, THIS BOX MAY BE COLLECTED AS EARLY AS 12 NOON.", "nsi_id": "unitedstatespostalservice-a77078", "operator": "United States Postal Service", "operator:short": "USPS", "operator:type": "public", "operator:wikidata": "Q668687", "ref": "6757600004"}, "type": "Feature"}
{"geometry": {"coordinates": [-98.7616353588, 38.002293], "type": "Point"}, "id": "HJtutLxziyHVpRHHQM53WtP6Y8M=", "properties": {"@source_uri": "https://tools.usps.com/UspsToolsRestServices/rest/POLocator/findLocations", "@spider": "usps_collection_boxes", "addr:city": "SAINT JOHN", "addr:country": "US", "addr:postcode": "67576", "addr:state": "KS", "addr:street_address": "320 N MAIN ST", "amenity": "post_box", "collection_times": "Mo-Fr 15:30; Sa 09:45", "indoor": "yes", "note": "ON 12/24 AND 12/31, THIS BOX MAY BE COLLECTED AS EARLY AS 12 NOON.", "nsi_id": "unitedstatespostalservice-a77078", "operator": "United States Postal Service", "operator:short": "USPS", "operator:type": "public", "operator:wikidata": "Q668687", "ref": "6757600005"}, "type": "Feature"}
{"geometry": {"coordinates": [-98.7616353588, 38.002293], "type": "Point"}, "id": "zB4qXgkWSc_KtxM9gHQ1KSd5mKY=", "properties": {"@source_uri": "https://tools.usps.com/UspsToolsRestServices/rest/POLocator/findLocations", "@spider": "usps_collection_boxes", "addr:city": "SAINT JOHN", "addr:country": "US", "addr:postcode": "67576", "addr:state": "KS", "addr:street_address": "320 N MAIN ST", "amenity": "post_box", "collection_times": "Mo-Fr 15:30; Sa 09:45", "indoor": "yes", "note": "ON 12/24 AND 12/31, THIS BOX MAY BE COLLECTED AS EARLY AS 12 NOON.", "nsi_id": "unitedstatespostalservice-a77078", "operator": "United States Postal Service", "operator:short": "USPS", "operator:type": "public", "operator:wikidata": "Q668687", "ref": "6757600007"}, "type": "Feature"}
{"geometry": {"coordinates": [-98.6003150988, 37.962260447], "type": "Point"}, "id": "VuIlUwt05SSJRTfUgdauHb_p9Jc=", "properties": {"@source_uri": "https://tools.usps.com/UspsToolsRestServices/rest/POLocator/findLocations", "@spider": "usps_collection_boxes", "addr:city": "STAFFORD", "addr:country": "US", "addr:postcode": "67578", "addr:state": "KS", "addr:street_address": "108 N MAIN ST", "amenity": "post_box", "collection_times": "Mo-Fr 14:15; Sa 09:45", "note": "ON 12/24 AND 12/31, THIS BOX MAY BE COLLECTED AS EARLY AS 12 NOON.", "nsi_id": "unitedstatespostalservice-a77078", "operator": "United States Postal Service", "operator:short": "USPS", "operator:type": "public", "operator:wikidata": "Q668687", "ref": "6757800001"}, "type": "Feature"}
{"geometry": {"coordinates": [-98.600337, 37.96229], "type": "Point"}, "id": "qjZbAIaGqCaUhaeqiBcvfuXYCZs=", "properties": {"@source_uri": "https://tools.usps.com/UspsToolsRestServices/rest/POLocator/findLocations", "@spider": "usps_collection_boxes", "addr:city": "STAFFORD", "addr:country": "US", "addr:postcode": "67578", "addr:state": "KS", "addr:street_address": "108 N MAIN ST", "amenity": "post_box", "collection_times": "Mo-Fr 15:50; Sa 09:45", "indoor": "yes", "note": "ON 12/24 AND 12/31, THIS BOX MAY BE COLLECTED AS EARLY AS 12 NOON.", "nsi_id": "unitedstatespostalservice-a77078", "operator": "United States Postal Service", "operator:short": "USPS", "operator:type": "public", "operator:wikidata": "Q668687", "ref": "6757800002"}, "type": "Feature"}
{"geometry": {"coordinates": [-98.6003178501, 37.9622570512], "type": "Point"}, "id": "4uoYKdleCdKLT0Cr9C66uu9yTDQ=", "properties": {"@source_uri": "https://tools.usps.com/UspsToolsRestServices/rest/POLocator/findLocations", "@spider": "usps_collection_boxes", "addr:city": "STAFFORD", "addr:country": "US", "addr:postcode": "67578", "addr:state": "KS", "addr:street_address": "108 N MAIN ST", "amenity": "post_box", "collection_times": "Mo-Fr 15:50; Sa 09:45", "indoor": "yes", "note": "ON 12/24 AND 12/31, THIS BOX MAY BE COLLECTED AS EARLY AS 12 NOON.", "nsi_id": "unitedstatespostalservice-a77078", "operator": "United States Postal Service", "operator:short": "USPS", "operator:type": "public", "operator:wikidata": "Q668687", "ref": "6757800003"}, "type": "Feature"}
{"geometry": {"coordinates": [-98.206816597, 38.209471188], "type": "Point"}, "id": "K0m3E6pkVnsFUpMPkADjKLXzVmA=", "properties": {"@source_uri": "https://tools.usps.com/UspsToolsRestServices/rest/POLocator/findLocations", "@spider": "usps_collection_boxes", "addr:city": "STERLING", "addr:country": "US", "addr:postcode": "67579", "addr:state": "KS", "addr:street_address": "116 S BROADWAY AVE", "amenity": "post_box", "collection_times": "Mo-Fr 15:30; Sa 09:15", "note": "ON 12/24 AND 12/31, THIS BOX MAY BE COLLECTED AS EARLY AS 12 NOON.", "nsi_id": "unitedstatespostalservice-a77078", "operator": "United States Postal Service", "operator:short": "USPS", "operator:type": "public", "operator:wikidata": "Q668687", "ref": "6757900002"}, "type": "Feature"}
{"geometry": {"coordinates": [-98.206816597, 38.209471188], "type": "Point"}, "id": "iu5bAQBZiL93LqWC2aEBFg6aJaQ=", "properties": {"@source_uri": "https://tools.usps.com/UspsToolsRestServices/rest/POLocator/findLocations", "@spider": "usps_collection_boxes", "addr:city": "STERLING", "addr:country": "US", "addr:postcode": "67579", "addr:state": "KS", "addr:street_address": "116 S BROADWAY AVE", "amenity": "post_box", "collection_times": "Mo-Fr 16:10; Sa 09:15", "indoor": "yes", "note": "ON 12/24 AND 12/31, THIS BOX MAY BE COLLECTED AS EARLY AS 12 NOON.", "nsi_id": "unitedstatespostalservice-a77078", "operator": "United States Postal Service", "operator:short": "USPS", "operator:type": "public", "operator:wikidata": "Q668687", "ref": "6757900005"}, "type": "Feature"}
{"geometry": {"coordinates": [-98.206816597, 38.209471188], "type": "Point"}, "id": "RFfxvYbCCw9DVnG5XuDdmCizCwk=", "properties": {"@source_uri": "https://tools.usps.com/UspsToolsRestServices/rest/POLocator/findLocations", "@spider": "usps_collection_boxes", "addr:city": "STERLING", "addr:country": "US", "addr:postcode": "67579", "addr:state": "KS", "addr:street_address": "116 S BROADWAY AVE", "amenity": "post_box", "collection_times": "Mo-Fr 16:10; Sa 09:15", "indoor": "yes", "note": "ON 12/24 AND 12/31, THIS BOX MAY BE COLLECTED AS EARLY AS 12 NOON.", "nsi_id": "unitedstatespostalservice-a77078", "operator": "United States Postal Service", "operator:short": "USPS", "operator:type": "public", "operator:wikidata": "Q668687", "ref": "6757900006"}, "type": "Feature"}
{"geometry": {"coordinates": [-98.408704, 37.959201], "type": "Point"}, "id": "VPNRFWcFPNCn1s_PrDESK5AjMFY=", "properties": {"@source_uri": "https://tools.usps.com/UspsToolsRestServices/rest/POLocator/findLocations", "@spider": "usps_collection_boxes", "addr:city": "SYLVIA", "addr:country": "US", "addr:postcode": "67581", "addr:state": "KS", "addr:street_address": "119 S MAIN ST", "amenity": "post_box", "collection_times": "Mo-Fr 14:30; Sa 10:30", "note": "ON 12/24 AND 12/31, THIS BOX MAY BE COLLECTED AS EARLY AS 12 NOON.", "nsi_id": "unitedstatespostalservice-a77078", "operator": "United States Postal Service", "operator:short": "USPS", "operator:type": "public", "operator:wikidata": "Q668687", "ref": "6758100001"}, "type": "Feature"}
{"geometry": {"coordinates": [-98.408704, 37.959201], "type": "Point"}, "id": "BfQ5gLydfELSW-MHhUNdRhqmwIE=", "properties": {"@source_uri": "https://tools.usps.com/UspsToolsRestServices/rest/POLocator/findLocations", "@spider": "usps_collection_boxes", "addr:city": "SYLVIA", "addr:country": "US", "addr:postcode": "67581", "addr:state": "KS", "addr:street_address": "119 S MAIN ST", "amenity": "post_box", "collection_times": "Mo-Fr 16:10; Sa 10:30", "indoor": "yes", "note": "ON 12/24 AND 12/31, THIS BOX MAY BE COLLECTED AS EARLY AS 12 NOON.", "nsi_id": "unitedstatespostalservice-a77078", "operator": "United States Postal Service", "operator:short": "USPS", "operator:type": "public", "operator:wikidata": "Q668687", "ref": "6758100002"}, "type": "Feature"}
{"geometry": {"coordinates": [-98.408692705, 37.959180434], "type": "Point"}, "id": "PCp-0-xi1QqwP2YXh-p7oT2t_UE=", "properties": {"@source_uri": "https://tools.usps.com/UspsToolsRestServices/rest/POLocator/findLocations", "@spider": "usps_collection_boxes", "addr:city": "SYLVIA", "addr:country": "US", "addr:postcode": "67581", "addr:state": "KS", "addr:street_address": "119 S MAIN ST", "amenity": "post_box", "collection_times": "Mo-Fr 16:10; Sa 10:30", "indoor": "yes", "note": "ON 12/24 AND 12/31, THIS BOX MAY BE COLLECTED AS EARLY AS 12 NOON.", "nsi_id": "unitedstatespostalservice-a77078", "operator": "United States Postal Service", "operator:short": "USPS", "operator:type": "public", "operator:wikidata": "Q668687", "ref": "6758100003"}, "type": "Feature"}
{"geometry": {"coordinates": [-98.428916, 37.80617], "type": "Point"}, "id": "X5QA3RsopQu3rakRAA6RlzmwfAs=", "properties": {"@source_uri": "https://tools.usps.com/UspsToolsRestServices/rest/POLocator/findLocations", "@spider": "usps_collection_boxes", "addr:city": "TURON", "addr:country": "US", "addr:postcode": "67583", "addr:state": "KS", "addr:street_address": "108 N BURNS ST", "amenity": "post_box", "collection_times": "Mo-Fr 11:30; Sa 09:15", "nsi_id": "unitedstatespostalservice-a77078", "operator": "United States Postal Service", "operator:short": "USPS", "operator:type": "public", "operator:wikidata": "Q668687", "ref": "6758300001"}, "type": "Feature"}
{"geometry": {"coordinates": [-98.428916, 37.80617], "type": "Point"}, "id": "d5QW0EKkDAnOyAhWhuswU7L4IqA=", "properties": {"@source_uri": "https://tools.usps.com/UspsToolsRestServices/rest/POLocator/findLocations", "@spider": "usps_collection_boxes", "addr:city": "TURON", "addr:country": "US", "addr:postcode": "67583", "addr:state": "KS", "addr:street_address": "108 N BURNS ST", "amenity": "post_box", "collection_times": "Mo-Fr 11:40; Sa 09:15", "indoor": "yes", "nsi_id": "unitedstatespostalservice-a77078", "operator": "United States Postal Service", "operator:short": "USPS", "operator:type": "public", "operator:wikidata": "Q668687", "ref": "6758300003"}, "type": "Feature"}
{"geometry": {"coordinates": [-98.428915239, 37.806168311], "type": "Point"}, "id": "yHPE_4E_UU29N0Yp8M4povxx5kw=", "properties": {"@source_uri": "https://tools.usps.com/UspsToolsRestServices/rest/POLocator/findLocations", "@spider": "usps_collection_boxes", "addr:city": "TURON", "addr:country": "US", "addr:postcode": "67583", "addr:state": "KS", "addr:street_address": "108 N BURNS ST", "amenity": "post_box", "collection_times": "Mo-Fr 11:40; Sa 09:15", "indoor": "yes", "nsi_id": "unitedstatespostalservice-a77078", "operator": "United States Postal Service", "operator:short": "USPS", "operator:type": "public", "operator:wikidata": "Q668687", "ref": "6758300004"}, "type": "Feature"}
{"geometry": {"coordinates": [-100.166908, 38.64302], "type": "Point"}, "id": "nQhdKV7rp-N34NALokzYnzuGTvQ=", "properties": {"@source_uri": "https://tools.usps.com/UspsToolsRestServices/rest/POLocator/findLocations", "@spider": "usps_collection_boxes", "addr:city": "UTICA", "addr:country": "US", "addr:postcode": "67584", "addr:state": "KS", "addr:street_address": "142 S OHIO ST", "amenity": "post_box", "collection_times": "Mo-Fr 12:45; Sa 10:00", "note": "ON 12/24 AND 12/31, THIS BOX MAY BE COLLECTED AS EARLY AS 12 NOON.", "nsi_id": "unitedstatespostalservice-a77078", "operator": "United States Postal Service", "operator:short": "USPS", "operator:type": "public", "operator:wikidata": "Q668687", "ref": "6758400001"}, "type": "Feature"}
{"geometry": {"coordinates": [-100.166908, 38.64302], "type": "Point"}, "id": "QF-gl_VePx6sogLUGp4qgIJLSO4=", "properties": {"@source_uri": "https://tools.usps.com/UspsToolsRestServices/rest/POLocator/findLocations", "@spider": "usps_collection_boxes", "addr:city": "UTICA", "addr:country": "US", "addr:postcode": "67584", "addr:state": "KS", "addr:street_address": "142 S OHIO ST", "amenity": "post_box", "collection_times": "Mo-Fr 12:45; Sa 10:00", "indoor": "yes", "note": "ON 12/24 AND 12/31, THIS BOX MAY BE COLLECTED AS EARLY AS 12 NOON.", "nsi_id": "unitedstatespostalservice-a77078", "operator": "United States Postal Service", "operator:short": "USPS", "operator:type": "public", "operator:wikidata": "Q668687", "ref": "6758400002"}, "type": "Feature"}
{"geometry": {"coordinates": [-100.16688991, 38.643016422], "type": "Point"}, "id": "E7WPt-kNhmI2OXYtpJiYvs9K9Zk=", "properties": {"@source_uri": "https://tools.usps.com/UspsToolsRestServices/rest/POLocator/findLocations", "@spider": "usps_collection_boxes", "addr:city": "UTICA", "addr:country": "US", "addr:postcode": "67584", "addr:state": "KS", "addr:street_address": "142 S OHIO AVE", "amenity": "post_box", "collection_times": "Mo-Fr 12:45; Sa 10:00", "indoor": "yes", "note": "ON 12/24 AND 12/31, THIS BOX MAY BE COLLECTED AS EARLY AS 12 NOON.", "nsi_id": "unitedstatespostalservice-a77078", "operator": "United States Postal Service", "operator:short": "USPS", "operator:type": "public", "operator:wikidata": "Q668687", "ref": "6758400004"}, "type": "Feature"}
{"geometry": {"coordinates": [-97.869666, 37.94088], "type": "Point"}, "id": "wh8h1wXle9wEejs2RjqKrDbABLM=", "properties": {"@source_uri": "https://tools.usps.com/UspsToolsRestServices/rest/POLocator/findLocations", "@spider": "usps_collection_boxes", "addr:city": "YODER", "addr:country": "US", "addr:postcode": "67585", "addr:state": "KS", "addr:street_address": "9803 S MAIN ST", "amenity": "post_box", "collection_times": "Mo-Fr 12:45; Sa 09:15", "note": "ON 12/24 AND 12/31, THIS BOX MAY BE COLLECTED AS EARLY AS 12 NOON.", "nsi_id": "unitedstatespostalservice-a77078", "operator": "United States Postal Service", "operator:short": "USPS", "operator:type": "public", "operator:wikidata": "Q668687", "ref": "6758500001"}, "type": "Feature"}
{"geometry": {"coordinates": [-97.869666, 37.94088], "type": "Point"}, "id": "NxU6CyRM4s1DWyg97ZiOaKrDf6I=", "properties": {"@source_uri": "https://tools.usps.com/UspsToolsRestServices/rest/POLocator/findLocations", "@spider": "usps_collection_boxes", "addr:city": "YODER", "addr:country": "US", "addr:postcode": "67585", "addr:state": "KS", "addr:street_address": "9803 S MAIN ST", "amenity": "post_box", "collection_times": "Mo-Fr 12:40; Sa 09:15", "indoor": "yes", "note": "ON 12/24 AND 12/31, THIS BOX MAY BE COLLECTED AS EARLY AS 12 NOON.", "nsi_id": "unitedstatespostalservice-a77078", "operator": "United States Postal Service", "operator:short": "USPS", "operator:type": "public", "operator:wikidata": "Q668687", "ref": "6758500002"}, "type": "Feature"}
{"geometry": {"coordinates": [-97.8696488221, 37.9408043294], "type": "Point"}, "id": "YiNVAjtMYwB0jrwkRF5IZqfGviU=", "properties": {"@source_uri": "https://tools.usps.com/UspsToolsRestServices/rest/POLocator/findLocations", "@spider": "usps_collection_boxes", "addr:city": "YODER", "addr:country": "US", "addr:postcode": "67585", "addr:state": "KS", "addr:street_address": "9803 S MAIN ST", "amenity": "post_box", "collection_times": "Mo-Fr 12:40; Sa 09:15", "indoor": "yes", "note": "ON 12/24 AND 12/31, THIS BOX MAY BE COLLECTED AS EARLY AS 12 NOON.", "nsi_id": "unitedstatespostalservice-a77078", "operator": "United States Postal Service", "operator:short": "USPS", "operator:type": "public", "operator:wikidata": "Q668687", "ref": "6758500003"}, "type": "Feature"}
