{"dataset_attributes": {"@spider": "usps_collection_boxes", "spider:collection_time": "2023-11-22T08:26:05.887177"}, "geometry": {"coordinates": [-99.3294092, 38.868606], "type": "Point"}, "id": "MsGbCOIk5BoIK5J6IW5uKnCwO2k=", "properties": {"@spider": "usps_collection_boxes", "addr:city": "HAYS", "addr:country": "US", "addr:full": "210 E 7TH ST", "addr:postcode": "67601", "addr:state": "KS", "amenity": "post_box", "brand": "United States Postal Service", "brand:wikidata": "Q668687", "collection_times": "Mo-Sa 14:35", "name": "USPS COLLECTION BOX - BLUE BOX", "note": "ON 12/24 AND 12/31, THIS BOX MAY BE COLLECTED AS EARLY AS 12 NOON.", "nsi_id": "unitedstatespostalservice-a77078", "operator": "United States Postal Service", "operator:short": "USPS", "operator:type": "public", "operator:wikidata": "Q668687", "ref": "6760100000"}, "type": "Feature"}
{"dataset_attributes": {"@spider": "usps_collection_boxes", "spider:collection_time": "2023-11-22T08:26:05.887177"}, "geometry": {"coordinates": [-99.2994399, 38.8718], "type": "Point"}, "id": "nFCXxJ1yy-cJeqbi3OIBEV98wH4=", "properties": {"@spider": "usps_collection_boxes", "addr:city": "HAYS", "addr:country": "US", "addr:full": "1305 CANTERBURY DR", "addr:postcode": "67601", "addr:state": "KS", "amenity": "post_box", "brand": "United States Postal Service", "brand:wikidata": "Q668687", "collection_times": "Mo-Sa 14:50", "name": "USPS COLLECTION BOX - BLUE BOX", "note": "ON 12/24 AND 12/31, THIS BOX MAY BE COLLECTED AS EARLY AS 12 NOON.", "nsi_id": "unitedstatespostalservice-a77078", "operator": "United States Postal Service", "operator:short": "USPS", "operator:type": "public", "operator:wikidata": "Q668687", "ref": "6760100001"}, "type": "Feature"}
{"dataset_attributes": {"@spider": "usps_collection_boxes", "spider:collection_time": "2023-11-22T08:26:05.887177"}, "geometry": {"coordinates": [-99.3174529, 38.880338], "type": "Point"}, "id": "f93FhfXg1Yhe1P92va7kMkg9C4Q=", "properties": {"@spider": "usps_collection_boxes", "addr:city": "HAYS", "addr:country": "US", "addr:full": "2400 VINE ST", "addr:postcode": "67601", "addr:state": "KS", "amenity": "post_box", "brand": "United States Postal Service", "brand:wikidata": "Q668687", "collection_times": "Mo-Sa 14:55", "name": "USPS COLLECTION BOX - BLUE BOX", "note": "ON 12/24 AND 12/31, THIS BOX MAY BE COLLECTED AS EARLY AS 12 NOON.", "nsi_id": "unitedstatespostalservice-a77078", "operator": "United States Postal Service", "operator:short": "USPS", "operator:type": "public", "operator:wikidata": "Q668687", "ref": "6760100002"}, "type": "Feature"}
{"dataset_attributes": {"@spider": "usps_collection_boxes", "spider:collection_time": "2023-11-22T08:26:05.887177"}, "geometry": {"coordinates": [-99.3173839, 38.888981], "type": "Point"}, "id": "jqdFxlWyGa-MuHZaa62NklnQA78=", "properties": {"@spider": "usps_collection_boxes", "addr:city": "HAYS", "addr:country": "US", "addr:full": "2818 VINE ST", "addr:postcode": "67601", "addr:state": "KS", "amenity": "post_box", "brand": "United States Postal Service", "brand:wikidata": "Q668687", "collection_times": "Mo-Sa 15:00", "name": "USPS COLLECTION BOX - BLUE BOX", "note": "ON 12/24 AND 12/31, THIS BOX MAY BE COLLECTED AS EARLY AS 12 NOON.", "nsi_id": "unitedstatespostalservice-a77078", "operator": "United States Postal Service", "operator:short": "USPS", "operator:type": "public", "operator:wikidata": "Q668687", "ref": "6760100003"}, "type": "Feature"}
{"dataset_attributes": {"@spider": "usps_collection_boxes", "spider:collection_time": "2023-11-22T08:26:05.887177"}, "geometry": {"coordinates": [-99.316213, 38.890291], "type": "Point"}, "id": "oKpRN-XIl-tmXGbjgLoCBRmer_Y=", "properties": {"@spider": "usps_collection_boxes", "addr:city": "HAYS", "addr:country": "US", "addr:full": "2918 VINE ST", "addr:postcode": "67601", "addr:state": "KS", "amenity": "post_box", "brand": "United States Postal Service", "brand:wikidata": "Q668687", "collection_times": "Mo-Sa 15:00", "name": "USPS COLLECTION BOX - BLUE BOX", "note": "ON 12/24 AND 12/31, THIS BOX MAY BE COLLECTED AS EARLY AS 12 NOON.", "nsi_id": "unitedstatespostalservice-a77078", "operator": "United States Postal Service", "operator:short": "USPS", "operator:type": "public", "operator:wikidata": "Q668687", "ref": "6760100004"}, "type": "Feature"}
{"dataset_attributes": {"@spider": "usps_collection_boxes", "spider:collection_time": "2023-11-22T08:26:05.887177"}, "geometry": {"coordinates": [-99.3364841, 38.886247], "type": "Point"}, "id": "RzZCkcAGuDRGHEVWeX1vSdtOhs0=", "properties": {"@spider": "usps_collection_boxes", "addr:city": "HAYS", "addr:country": "US", "addr:full": "2703 HALL ST", "addr:postcode": "67601", "addr:state": "KS", "amenity": "post_box", "brand": "United States Postal Service", "brand:wikidata": "Q668687", "collection_times": "Mo-Sa 15:20", "name": "USPS COLLECTION BOX - BLUE BOX", "note": "ON 12/24 AND 12/31, THIS BOX MAY BE COLLECTED AS EARLY AS 12 NOON.", "nsi_id": "unitedstatespostalservice-a77078", "operator": "United States Postal Service", "operator:short": "USPS", "operator:type": "public", "operator:wikidata": "Q668687", "ref": "6760100007"}, "type": "Feature"}
{"dataset_attributes": {"@spider": "usps_collection_boxes", "spider:collection_time": "2023-11-22T08:26:05.887177"}, "geometry": {"coordinates": [-99.3301392, 38.872853], "type": "Point"}, "id": "igz_6fxG8sUbrtZ3l_b5ExSWk1M=", "properties": {"@spider": "usps_collection_boxes", "addr:city": "HAYS", "addr:country": "US", "addr:full": "1201 MAIN ST", "addr:postcode": "67601", "addr:state": "KS", "amenity": "post_box", "brand": "United States Postal Service", "brand:wikidata": "Q668687", "collection_times": "Mo-Sa 15:25", "name": "USPS COLLECTION BOX - BLUE BOX", "note": "ON 12/24 AND 12/31, THIS BOX MAY BE COLLECTED AS EARLY AS 12 NOON.", "nsi_id": "unitedstatespostalservice-a77078", "operator": "United States Postal Service", "operator:short": "USPS", "operator:type": "public", "operator:wikidata": "Q668687", "ref": "6760100009"}, "type": "Feature"}
{"dataset_attributes": {"@spider": "usps_collection_boxes", "spider:collection_time": "2023-11-22T08:26:05.887177"}, "geometry": {"coordinates": [-99.3192204, 38.885759], "type": "Point"}, "id": "cFmUbH1zxBm1wpnpUsf85NHjREI=", "properties": {"@spider": "usps_collection_boxes", "addr:city": "HAYS", "addr:country": "US", "addr:full": "2707 VINE ST", "addr:postcode": "67601", "addr:state": "KS", "amenity": "post_box", "brand": "United States Postal Service", "brand:wikidata": "Q668687", "collection_times": "Mo-Sa 15:10", "name": "USPS COLLECTION BOX - BLUE BOX", "note": "ON 12/24 AND 12/31, THIS BOX MAY BE COLLECTED AS EARLY AS 12 NOON.", "nsi_id": "unitedstatespostalservice-a77078", "operator": "United States Postal Service", "operator:short": "USPS", "operator:type": "public", "operator:wikidata": "Q668687", "ref": "6760100016"}, "type": "Feature"}
{"dataset_attributes": {"@spider": "usps_collection_boxes", "spider:collection_time": "2023-11-22T08:26:05.887177"}, "geometry": {"coordinates": [-99.333497, 38.870552], "type": "Point"}, "id": "rX-PQrSSECN6gqiMPwBkI1KVO4g=", "properties": {"@spider": "usps_collection_boxes", "addr:city": "HAYS", "addr:country": "US", "addr:full": "706 FORT ST", "addr:postcode": "67601", "addr:state": "KS", "amenity": "post_box", "brand": "United States Postal Service", "brand:wikidata": "Q668687", "collection_times": "Mo-Sa 16:00", "name": "USPS COLLECTION BOX - BLUE BOX", "note": "ON 12/24 AND 12/31, THIS BOX MAY BE COLLECTED AS EARLY AS 12 NOON.", "nsi_id": "unitedstatespostalservice-a77078", "operator": "United States Postal Service", "operator:short": "USPS", "operator:type": "public", "operator:wikidata": "Q668687", "ref": "6760100018"}, "type": "Feature"}
{"dataset_attributes": {"@spider": "usps_collection_boxes", "spider:collection_time": "2023-11-22T08:26:05.887177"}, "geometry": {"coordinates": [-99.2649986, 38.810544], "type": "Point"}, "id": "xtuNBRImS1xqM9eiqq-qxLXOFZw=", "properties": {"@spider": "usps_collection_boxes", "addr:city": "HAYS", "addr:country": "US", "addr:full": "883 MOSCOW ST", "addr:postcode": "67601", "addr:state": "KS", "amenity": "post_box", "brand": "United States Postal Service", "brand:wikidata": "Q668687", "collection_times": "Mo-Sa 08:55", "name": "USPS COLLECTION BOX - BLUE BOX", "nsi_id": "unitedstatespostalservice-a77078", "operator": "United States Postal Service", "operator:short": "USPS", "operator:type": "public", "operator:wikidata": "Q668687", "ref": "6760100020"}, "type": "Feature"}
{"dataset_attributes": {"@spider": "usps_collection_boxes", "spider:collection_time": "2023-11-22T08:26:05.887177"}, "geometry": {"coordinates": [-99.3321957, 38.872396], "type": "Point"}, "id": "Y9EHcoXUqzpsYx-YgoCJ7lzbDlE=", "properties": {"@spider": "usps_collection_boxes", "addr:city": "HAYS", "addr:country": "US", "addr:full": "126 W 11TH ST", "addr:postcode": "67601", "addr:state": "KS", "amenity": "post_box", "brand": "United States Postal Service", "brand:wikidata": "Q668687", "collection_times": "Mo-Sa 15:30", "name": "USPS COLLECTION BOX - BLUE BOX", "note": "ON 12/24 AND 12/31, THIS BOX MAY BE COLLECTED AS EARLY AS 12 NOON.", "nsi_id": "unitedstatespostalservice-a77078", "operator": "United States Postal Service", "operator:short": "USPS", "operator:type": "public", "operator:wikidata": "Q668687", "ref": "6760100022"}, "type": "Feature"}
{"dataset_attributes": {"@spider": "usps_collection_boxes", "spider:collection_time": "2023-11-22T08:26:05.887177"}, "geometry": {"coordinates": [-99.3325447, 38.875187], "type": "Point"}, "id": "CRbLo5d1bCmUrKIApDgjAqyr77M=", "properties": {"@spider": "usps_collection_boxes", "addr:city": "HAYS", "addr:country": "US", "addr:full": "301 W 13TH ST", "addr:postcode": "67601", "addr:state": "KS", "amenity": "post_box", "brand": "United States Postal Service", "brand:wikidata": "Q668687", "collection_times": "Mo-Sa 15:25", "name": "USPS COLLECTION BOX - BLUE BOX", "note": "ON 12/24 AND 12/31, THIS BOX MAY BE COLLECTED AS EARLY AS 12 NOON.", "nsi_id": "unitedstatespostalservice-a77078", "operator": "United States Postal Service", "operator:short": "USPS", "operator:type": "public", "operator:wikidata": "Q668687", "ref": "6760100032"}, "type": "Feature"}
{"dataset_attributes": {"@spider": "usps_collection_boxes", "spider:collection_time": "2023-11-22T08:26:05.887177"}, "geometry": {"coordinates": [-99.333575, 38.870494], "type": "Point"}, "id": "aXpx_YEHv6C7GgfIK7-8bZUJWNw=", "properties": {"@spider": "usps_collection_boxes", "addr:city": "HAYS", "addr:country": "US", "addr:full": "706 FORT ST", "addr:postcode": "67601", "addr:state": "KS", "amenity": "post_box", "brand": "United States Postal Service", "brand:wikidata": "Q668687", "collection_times": "Mo-Fr 15:50; Sa 15:30", "name": "USPS COLLECTION BOX - PO LOBBY", "note": "ON 12/24 AND 12/31, THIS BOX MAY BE COLLECTED AS EARLY AS 12 NOON.", "nsi_id": "unitedstatespostalservice-a77078", "operator": "United States Postal Service", "operator:short": "USPS", "operator:type": "public", "operator:wikidata": "Q668687", "ref": "6760100033"}, "type": "Feature"}
{"dataset_attributes": {"@spider": "usps_collection_boxes", "spider:collection_time": "2023-11-22T08:26:05.887177"}, "geometry": {"coordinates": [-99.333575, 38.870494], "type": "Point"}, "id": "Sd-GGiAgvvSibYNKyiJJU1VlL7Y=", "properties": {"@spider": "usps_collection_boxes", "addr:city": "HAYS", "addr:country": "US", "addr:full": "706 FORT ST", "addr:postcode": "67601", "addr:state": "KS", "amenity": "post_box", "brand": "United States Postal Service", "brand:wikidata": "Q668687", "collection_times": "Mo-Fr 15:50; Sa 15:30", "name": "USPS COLLECTION BOX - PO LOBBY", "note": "ON 12/24 AND 12/31, THIS BOX MAY BE COLLECTED AS EARLY AS 12 NOON.", "nsi_id": "unitedstatespostalservice-a77078", "operator": "United States Postal Service", "operator:short": "USPS", "operator:type": "public", "operator:wikidata": "Q668687", "ref": "6760100034"}, "type": "Feature"}
{"dataset_attributes": {"@spider": "usps_collection_boxes", "spider:collection_time": "2023-11-22T08:26:05.887177"}, "geometry": {"coordinates": [-99.3204984, 38.903525], "type": "Point"}, "id": "sulubkKt_ffNSzwVzG7M6gzPlCw=", "properties": {"@spider": "usps_collection_boxes", "addr:city": "HAYS", "addr:country": "US", "addr:full": "4301 VINE ST", "addr:postcode": "67601", "addr:state": "KS", "amenity": "post_box", "brand": "United States Postal Service", "brand:wikidata": "Q668687", "collection_times": "Mo-Sa 15:05", "name": "USPS COLLECTION BOX - BLUE BOX", "note": "ON 12/24 AND 12/31, THIS BOX MAY BE COLLECTED AS EARLY AS 12 NOON.", "nsi_id": "unitedstatespostalservice-a77078", "operator": "United States Postal Service", "operator:short": "USPS", "operator:type": "public", "operator:wikidata": "Q668687", "ref": "6760100040"}, "type": "Feature"}
{"dataset_attributes": {"@spider": "usps_collection_boxes", "spider:collection_time": "2023-11-22T08:26:05.887177"}, "geometry": {"coordinates": [-99.333177344, 38.871028018], "type": "Point"}, "id": "2iu4wse-n2cGRvi6uCksLN-7u90=", "properties": {"@spider": "usps_collection_boxes", "addr:city": "HAYS", "addr:country": "US", "addr:full": "706 FORT ST", "addr:postcode": "67601", "addr:state": "KS", "amenity": "post_box", "brand": "United States Postal Service", "brand:wikidata": "Q668687", "collection_times": "Mo-Fr 15:50; Sa 12:00", "name": "USPS COLLECTION BOX - PO LOBBY", "note": "ON 12/24 AND 12/31, THIS BOX MAY BE COLLECTED AS EARLY AS 12 NOON.", "nsi_id": "unitedstatespostalservice-a77078", "operator": "United States Postal Service", "operator:short": "USPS", "operator:type": "public", "operator:wikidata": "Q668687", "ref": "6760100043"}, "type": "Feature"}
{"dataset_attributes": {"@spider": "usps_collection_boxes", "spider:collection_time": "2023-11-22T08:26:05.887177"}, "geometry": {"coordinates": [-99.119043, 39.762096], "type": "Point"}, "id": "5PI0PxChvQLriidOJr9UwB85EfM=", "properties": {"@spider": "usps_collection_boxes", "addr:city": "AGRA", "addr:country": "US", "addr:full": "317 MAIN ST", "addr:postcode": "67621", "addr:state": "KS", "amenity": "post_box", "brand": "United States Postal Service", "brand:wikidata": "Q668687", "collection_times": "Mo-Fr 11:00; Sa 08:30", "name": "USPS COLLECTION BOX - BLUE BOX", "nsi_id": "unitedstatespostalservice-a77078", "operator": "United States Postal Service", "operator:short": "USPS", "operator:type": "public", "operator:wikidata": "Q668687", "ref": "6762100001"}, "type": "Feature"}
{"dataset_attributes": {"@spider": "usps_collection_boxes", "spider:collection_time": "2023-11-22T08:26:05.887177"}, "geometry": {"coordinates": [-99.119043, 39.762096], "type": "Point"}, "id": "txyDgbYz7RH5Ej_ugILC5GMYCeY=", "properties": {"@spider": "usps_collection_boxes", "addr:city": "AGRA", "addr:country": "US", "addr:full": "317 MAIN ST", "addr:postcode": "67621", "addr:state": "KS", "amenity": "post_box", "brand": "United States Postal Service", "brand:wikidata": "Q668687", "collection_times": "Mo-Fr 11:00; Sa 08:30", "name": "USPS COLLECTION BOX - PO LOBBY", "nsi_id": "unitedstatespostalservice-a77078", "operator": "United States Postal Service", "operator:short": "USPS", "operator:type": "public", "operator:wikidata": "Q668687", "ref": "6762100002"}, "type": "Feature"}
{"dataset_attributes": {"@spider": "usps_collection_boxes", "spider:collection_time": "2023-11-22T08:26:05.887177"}, "geometry": {"coordinates": [-99.119068881, 39.762066746], "type": "Point"}, "id": "3JgSovMBSd9KaUGhe2oSUU0HdS4=", "properties": {"@spider": "usps_collection_boxes", "addr:city": "AGRA", "addr:country": "US", "addr:full": "317 MAIN ST", "addr:postcode": "67621", "addr:state": "KS", "amenity": "post_box", "brand": "United States Postal Service", "brand:wikidata": "Q668687", "collection_times": "Mo-Fr 11:00; Sa 08:30", "name": "USPS COLLECTION BOX - PO LOBBY", "nsi_id": "unitedstatespostalservice-a77078", "operator": "United States Postal Service", "operator:short": "USPS", "operator:type": "public", "operator:wikidata": "Q668687", "ref": "6762100003"}, "type": "Feature"}
{"dataset_attributes": {"@spider": "usps_collection_boxes", "spider:collection_time": "2023-11-22T08:26:05.887177"}, "geometry": {"coordinates": [-99.70676, 39.892964], "type": "Point"}, "id": "EkJc12poLNofzZax8Cb--V6U1n0=", "properties": {"@spider": "usps_collection_boxes", "addr:city": "ALMENA", "addr:country": "US", "addr:full": "503 MAIN ST", "addr:postcode": "67622", "addr:state": "KS", "amenity": "post_box", "brand": "United States Postal Service", "brand:wikidata": "Q668687", "collection_times": "Mo-Fr 11:45; Sa 09:30", "name": "USPS COLLECTION BOX - BLUE BOX", "nsi_id": "unitedstatespostalservice-a77078", "operator": "United States Postal Service", "operator:short": "USPS", "operator:type": "public", "operator:wikidata": "Q668687", "ref": "6762200001"}, "type": "Feature"}
{"dataset_attributes": {"@spider": "usps_collection_boxes", "spider:collection_time": "2023-11-22T08:26:05.887177"}, "geometry": {"coordinates": [-99.70676, 39.892964], "type": "Point"}, "id": "0dBv7G0yfYu527Vj7xWYUioovf4=", "properties": {"@spider": "usps_collection_boxes", "addr:city": "ALMENA", "addr:country": "US", "addr:full": "503 MAIN ST", "addr:postcode": "67622", "addr:state": "KS", "amenity": "post_box", "brand": "United States Postal Service", "brand:wikidata": "Q668687", "collection_times": "Mo-Fr 11:45; Sa 09:30", "name": "USPS COLLECTION BOX - PO LOBBY", "nsi_id": "unitedstatespostalservice-a77078", "operator": "United States Postal Service", "operator:short": "USPS", "operator:type": "public", "operator:wikidata": "Q668687", "ref": "6762200002"}, "type": "Feature"}
{"dataset_attributes": {"@spider": "usps_collection_boxes", "spider:collection_time": "2023-11-22T08:26:05.887177"}, "geometry": {"coordinates": [-99.70670362, 39.892893309], "type": "Point"}, "id": "t4yRCLOemTO13ouhTFh90PMfNMk=", "properties": {"@spider": "usps_collection_boxes", "addr:city": "ALMENA", "addr:country": "US", "addr:full": "503 MAIN ST", "addr:postcode": "67622", "addr:state": "KS", "amenity": "post_box", "brand": "United States Postal Service", "brand:wikidata": "Q668687", "collection_times": "Mo-Fr 11:45; Sa 09:30", "name": "USPS COLLECTION BOX - PO LOBBY", "nsi_id": "unitedstatespostalservice-a77078", "operator": "United States Postal Service", "operator:short": "USPS", "operator:type": "public", "operator:wikidata": "Q668687", "ref": "6762200003"}, "type": "Feature"}
{"dataset_attributes": {"@spider": "usps_collection_boxes", "spider:collection_time": "2023-11-22T08:26:05.887177"}, "geometry": {"coordinates": [-98.94789, 39.465927], "type": "Point"}, "id": "B0E1iJv8LKojjtWEeoKA35rWpgw=", "properties": {"@spider": "usps_collection_boxes", "addr:city": "ALTON", "addr:country": "US", "addr:full": "703 MILL ST STE B", "addr:postcode": "67623", "addr:state": "KS", "amenity": "post_box", "brand": "United States Postal Service", "brand:wikidata": "Q668687", "collection_times": "Mo-Fr 11:45; Sa 08:45", "name": "USPS COLLECTION BOX - BLUE BOX", "nsi_id": "unitedstatespostalservice-a77078", "operator": "United States Postal Service", "operator:short": "USPS", "operator:type": "public", "operator:wikidata": "Q668687", "ref": "6762300001"}, "type": "Feature"}
{"dataset_attributes": {"@spider": "usps_collection_boxes", "spider:collection_time": "2023-11-22T08:26:05.887177"}, "geometry": {"coordinates": [-98.94789, 39.465927], "type": "Point"}, "id": "QaK3n4OimPl3nT-tO9Bo0BwYyiA=", "properties": {"@spider": "usps_collection_boxes", "addr:city": "ALTON", "addr:country": "US", "addr:full": "703 MILL ST STE B", "addr:postcode": "67623", "addr:state": "KS", "amenity": "post_box", "brand": "United States Postal Service", "brand:wikidata": "Q668687", "collection_times": "Mo-Fr 11:45; Sa 09:00", "name": "USPS COLLECTION BOX - PO LOBBY", "nsi_id": "unitedstatespostalservice-a77078", "operator": "United States Postal Service", "operator:short": "USPS", "operator:type": "public", "operator:wikidata": "Q668687", "ref": "6762300002"}, "type": "Feature"}
{"dataset_attributes": {"@spider": "usps_collection_boxes", "spider:collection_time": "2023-11-22T08:26:05.887177"}, "geometry": {"coordinates": [-98.947914743, 39.465952894], "type": "Point"}, "id": "hKuh3KMlmQbi8fo58StT9tFK3Vk=", "properties": {"@spider": "usps_collection_boxes", "addr:city": "ALTON", "addr:country": "US", "addr:full": "703 MILL ST STE B", "addr:postcode": "67623", "addr:state": "KS", "amenity": "post_box", "brand": "United States Postal Service", "brand:wikidata": "Q668687", "collection_times": "Mo-Fr 11:45; Sa 09:00", "name": "USPS COLLECTION BOX - PO LOBBY", "nsi_id": "unitedstatespostalservice-a77078", "operator": "United States Postal Service", "operator:short": "USPS", "operator:type": "public", "operator:wikidata": "Q668687", "ref": "6762300003"}, "type": "Feature"}
{"dataset_attributes": {"@spider": "usps_collection_boxes", "spider:collection_time": "2023-11-22T08:26:05.887177"}, "geometry": {"coordinates": [-99.616275, 39.39203], "type": "Point"}, "id": "r2Gs3CuU4GWbloKn6apvDvDzFpM=", "properties": {"@spider": "usps_collection_boxes", "addr:city": "BOGUE", "addr:country": "US", "addr:full": "410 MAIN ST", "addr:postcode": "67625", "addr:state": "KS", "amenity": "post_box", "brand": "United States Postal Service", "brand:wikidata": "Q668687", "collection_times": "Mo-Fr 11:45; Sa 10:45", "name": "USPS COLLECTION BOX - BLUE BOX", "nsi_id": "unitedstatespostalservice-a77078", "operator": "United States Postal Service", "operator:short": "USPS", "operator:type": "public", "operator:wikidata": "Q668687", "ref": "6762500001"}, "type": "Feature"}
{"dataset_attributes": {"@spider": "usps_collection_boxes", "spider:collection_time": "2023-11-22T08:26:05.887177"}, "geometry": {"coordinates": [-99.68731, 39.360163], "type": "Point"}, "id": "A7Zlr0TM1Miz_7zEMtcHXLjMOtM=", "properties": {"@spider": "usps_collection_boxes", "addr:city": "BOGUE", "addr:country": "US", "addr:full": "410 MAIN ST", "addr:postcode": "67625", "addr:state": "KS", "amenity": "post_box", "brand": "United States Postal Service", "brand:wikidata": "Q668687", "collection_times": "Mo-Fr 11:45; Sa 10:45", "name": "USPS COLLECTION BOX - PO LOBBY", "nsi_id": "unitedstatespostalservice-a77078", "operator": "United States Postal Service", "operator:short": "USPS", "operator:type": "public", "operator:wikidata": "Q668687", "ref": "6762500002"}, "type": "Feature"}
{"dataset_attributes": {"@spider": "usps_collection_boxes", "spider:collection_time": "2023-11-22T08:26:05.887177"}, "geometry": {"coordinates": [-99.687291201, 39.360130642], "type": "Point"}, "id": "dC8BgOL63bzMg_nGXhulB14yX8E=", "properties": {"@spider": "usps_collection_boxes", "addr:city": "BOGUE", "addr:country": "US", "addr:full": "410 MAIN ST", "addr:postcode": "67625", "addr:state": "KS", "amenity": "post_box", "brand": "United States Postal Service", "brand:wikidata": "Q668687", "collection_times": "Mo-Fr 11:45; Sa 10:45", "name": "USPS COLLECTION BOX - PO LOBBY", "nsi_id": "unitedstatespostalservice-a77078", "operator": "United States Postal Service", "operator:short": "USPS", "operator:type": "public", "operator:wikidata": "Q668687", "ref": "6762500003"}, "type": "Feature"}
{"dataset_attributes": {"@spider": "usps_collection_boxes", "spider:collection_time": "2023-11-22T08:26:05.887177"}, "geometry": {"coordinates": [-98.7048914, 38.874412], "type": "Point"}, "id": "3Xn-oSm_S8SPnYyLZgdaAJN4aN4=", "properties": {"@spider": "usps_collection_boxes", "addr:city": "BUNKER HILL", "addr:country": "US", "addr:full": "563 ELM ST", "addr:postcode": "67626", "addr:state": "KS", "amenity": "post_box", "brand": "United States Postal Service", "brand:wikidata": "Q668687", "collection_times": "Mo-Fr 11:15; Sa 09:15", "name": "USPS COLLECTION BOX - BLUE BOX", "nsi_id": "unitedstatespostalservice-a77078", "operator": "United States Postal Service", "operator:short": "USPS", "operator:type": "public", "operator:wikidata": "Q668687", "ref": "6762600001"}, "type": "Feature"}
{"dataset_attributes": {"@spider": "usps_collection_boxes", "spider:collection_time": "2023-11-22T08:26:05.887177"}, "geometry": {"coordinates": [-98.704955, 38.87437], "type": "Point"}, "id": "O2hJ4ALwTo8A9SY3fSGcoU5eKo0=", "properties": {"@spider": "usps_collection_boxes", "addr:city": "BUNKER HILL", "addr:country": "US", "addr:full": "563 ELM ST", "addr:postcode": "67626", "addr:state": "KS", "amenity": "post_box", "brand": "United States Postal Service", "brand:wikidata": "Q668687", "collection_times": "Mo-Fr 11:15; Sa 09:15", "name": "USPS COLLECTION BOX - PO LOBBY", "nsi_id": "unitedstatespostalservice-a77078", "operator": "United States Postal Service", "operator:short": "USPS", "operator:type": "public", "operator:wikidata": "Q668687", "ref": "6762600002"}, "type": "Feature"}
{"dataset_attributes": {"@spider": "usps_collection_boxes", "spider:collection_time": "2023-11-22T08:26:05.887177"}, "geometry": {"coordinates": [-98.704958733, 38.874366335], "type": "Point"}, "id": "9OtzwUt51HFsqzUtQHuYkvpqUCI=", "properties": {"@spider": "usps_collection_boxes", "addr:city": "BUNKER HILL", "addr:country": "US", "addr:full": "563 ELM ST", "addr:postcode": "67626", "addr:state": "KS", "amenity": "post_box", "brand": "United States Postal Service", "brand:wikidata": "Q668687", "collection_times": "Mo-Fr 11:15; Sa 09:15", "name": "USPS COLLECTION BOX - PO LOBBY", "nsi_id": "unitedstatespostalservice-a77078", "operator": "United States Postal Service", "operator:short": "USPS", "operator:type": "public", "operator:wikidata": "Q668687", "ref": "6762600003"}, "type": "Feature"}
{"dataset_attributes": {"@spider": "usps_collection_boxes", "spider:collection_time": "2023-11-22T08:26:05.887177"}, "geometry": {"coordinates": [-98.940194, 39.655875], "type": "Point"}, "id": "jPQxQaoBZP0laL-JH3CI06hhrN0=", "properties": {"@spider": "usps_collection_boxes", "addr:city": "CEDAR", "addr:country": "US", "addr:full": "100 MAIN ST", "addr:postcode": "67628", "addr:state": "KS", "amenity": "post_box", "brand": "United States Postal Service", "brand:wikidata": "Q668687", "collection_times": "Mo-Fr 10:00; Sa 09:15", "name": "USPS COLLECTION BOX - BLUE BOX", "nsi_id": "unitedstatespostalservice-a77078", "operator": "United States Postal Service", "operator:short": "USPS", "operator:type": "public", "operator:wikidata": "Q668687", "ref": "6762800001"}, "type": "Feature"}
{"dataset_attributes": {"@spider": "usps_collection_boxes", "spider:collection_time": "2023-11-22T08:26:05.887177"}, "geometry": {"coordinates": [-98.940194, 39.655875], "type": "Point"}, "id": "jDhk8uCYgAiT8iLYc5N2fAhZSW0=", "properties": {"@spider": "usps_collection_boxes", "addr:city": "CEDAR", "addr:country": "US", "addr:full": "100 MAIN ST", "addr:postcode": "67628", "addr:state": "KS", "amenity": "post_box", "brand": "United States Postal Service", "brand:wikidata": "Q668687", "collection_times": "Mo-Fr 10:00; Sa 09:15", "name": "USPS COLLECTION BOX - PO LOBBY", "nsi_id": "unitedstatespostalservice-a77078", "operator": "United States Postal Service", "operator:short": "USPS", "operator:type": "public", "operator:wikidata": "Q668687", "ref": "6762800002"}, "type": "Feature"}
{"dataset_attributes": {"@spider": "usps_collection_boxes", "spider:collection_time": "2023-11-22T08:26:05.887177"}, "geometry": {"coordinates": [-98.940216365, 39.655865679], "type": "Point"}, "id": "eT7HjWyX9t44Nnv12u7DRNSReJw=", "properties": {"@spider": "usps_collection_boxes", "addr:city": "CEDAR", "addr:country": "US", "addr:full": "100 MAIN ST", "addr:postcode": "67628", "addr:state": "KS", "amenity": "post_box", "brand": "United States Postal Service", "brand:wikidata": "Q668687", "collection_times": "Mo-Fr 10:00; Sa 09:15", "name": "USPS COLLECTION BOX - PO LOBBY", "nsi_id": "unitedstatespostalservice-a77078", "operator": "United States Postal Service", "operator:short": "USPS", "operator:type": "public", "operator:wikidata": "Q668687", "ref": "6762800003"}, "type": "Feature"}
{"dataset_attributes": {"@spider": "usps_collection_boxes", "spider:collection_time": "2023-11-22T08:26:05.887177"}, "geometry": {"coordinates": [-100.117935, 39.037894], "type": "Point"}, "id": "UN06pPH71GPPilJhzxGSLkZdx64=", "properties": {"@spider": "usps_collection_boxes", "addr:city": "COLLYER", "addr:country": "US", "addr:full": "313 AINSILE AVE", "addr:postcode": "67631", "addr:state": "KS", "amenity": "post_box", "brand": "United States Postal Service", "brand:wikidata": "Q668687", "collection_times": "Mo-Fr 11:15; Sa 08:15", "name": "USPS COLLECTION BOX - BLUE BOX", "nsi_id": "unitedstatespostalservice-a77078", "operator": "United States Postal Service", "operator:short": "USPS", "operator:type": "public", "operator:wikidata": "Q668687", "ref": "6763100001"}, "type": "Feature"}
{"dataset_attributes": {"@spider": "usps_collection_boxes", "spider:collection_time": "2023-11-22T08:26:05.887177"}, "geometry": {"coordinates": [-100.118045, 39.037951], "type": "Point"}, "id": "9tYoyedgUtyV7Mvr9Q-HHYtes9Q=", "properties": {"@spider": "usps_collection_boxes", "addr:city": "COLLYER", "addr:country": "US", "addr:full": "313 AINSILE AVE", "addr:postcode": "67631", "addr:state": "KS", "amenity": "post_box", "brand": "United States Postal Service", "brand:wikidata": "Q668687", "collection_times": "Mo-Fr 11:15; Sa 08:15", "name": "USPS COLLECTION BOX - PO LOBBY", "nsi_id": "unitedstatespostalservice-a77078", "operator": "United States Postal Service", "operator:short": "USPS", "operator:type": "public", "operator:wikidata": "Q668687", "ref": "6763100002"}, "type": "Feature"}
{"dataset_attributes": {"@spider": "usps_collection_boxes", "spider:collection_time": "2023-11-22T08:26:05.887177"}, "geometry": {"coordinates": [-100.117848388, 39.0383028459], "type": "Point"}, "id": "AUweWpHF6Zue1NhWrBWvv_wtWuk=", "properties": {"@spider": "usps_collection_boxes", "addr:city": "COLLYER", "addr:country": "US", "addr:full": "313 AINSLIE AVE", "addr:postcode": "67631", "addr:state": "KS", "amenity": "post_box", "brand": "United States Postal Service", "brand:wikidata": "Q668687", "collection_times": "Mo-Fr 11:15; Sa 08:15", "name": "USPS COLLECTION BOX - PO LOBBY", "nsi_id": "unitedstatespostalservice-a77078", "operator": "United States Postal Service", "operator:short": "USPS", "operator:type": "public", "operator:wikidata": "Q668687", "ref": "6763100003"}, "type": "Feature"}
{"dataset_attributes": {"@spider": "usps_collection_boxes", "spider:collection_time": "2023-11-22T08:26:05.887177"}, "geometry": {"coordinates": [-99.5853939, 39.318406], "type": "Point"}, "id": "nckLGBUzEKElKPvGut_849dJpuI=", "properties": {"@spider": "usps_collection_boxes", "addr:city": "DAMAR", "addr:country": "US", "addr:full": "302 MAIN ST", "addr:postcode": "67632", "addr:state": "KS", "amenity": "post_box", "brand": "United States Postal Service", "brand:wikidata": "Q668687", "collection_times": "Mo-Fr 11:45; Sa 09:45", "name": "USPS COLLECTION BOX - BLUE BOX", "nsi_id": "unitedstatespostalservice-a77078", "operator": "United States Postal Service", "operator:short": "USPS", "operator:type": "public", "operator:wikidata": "Q668687", "ref": "6763200001"}, "type": "Feature"}
{"dataset_attributes": {"@spider": "usps_collection_boxes", "spider:collection_time": "2023-11-22T08:26:05.887177"}, "geometry": {"coordinates": [-99.585212, 39.318361], "type": "Point"}, "id": "XCWBsWYndblW-hSTMLXITKNuV6g=", "properties": {"@spider": "usps_collection_boxes", "addr:city": "DAMAR", "addr:country": "US", "addr:full": "302 MAIN ST", "addr:postcode": "67632", "addr:state": "KS", "amenity": "post_box", "brand": "United States Postal Service", "brand:wikidata": "Q668687", "collection_times": "Mo-Fr 11:45; Sa 09:45", "name": "USPS COLLECTION BOX - PO LOBBY", "nsi_id": "unitedstatespostalservice-a77078", "operator": "United States Postal Service", "operator:short": "USPS", "operator:type": "public", "operator:wikidata": "Q668687", "ref": "6763200002"}, "type": "Feature"}
{"dataset_attributes": {"@spider": "usps_collection_boxes", "spider:collection_time": "2023-11-22T08:26:05.887177"}, "geometry": {"coordinates": [-99.585289972, 39.3184271718], "type": "Point"}, "id": "zOGfKb0ppTllB7JxxDIK7wKOARM=", "properties": {"@spider": "usps_collection_boxes", "addr:city": "DAMAR", "addr:country": "US", "addr:full": "302 MAIN ST", "addr:postcode": "67632", "addr:state": "KS", "amenity": "post_box", "brand": "United States Postal Service", "brand:wikidata": "Q668687", "collection_times": "Mo-Fr 11:45", "name": "USPS COLLECTION BOX - PO LOBBY", "nsi_id": "unitedstatespostalservice-a77078", "operator": "United States Postal Service", "operator:short": "USPS", "operator:type": "public", "operator:wikidata": "Q668687", "ref": "6763200003"}, "type": "Feature"}
{"dataset_attributes": {"@spider": "usps_collection_boxes", "spider:collection_time": "2023-11-22T08:26:05.887177"}, "geometry": {"coordinates": [-98.5892642, 38.84628], "type": "Point"}, "id": "qaiXCSq-qa1ZMfMaxR0jxa5dykg=", "properties": {"@spider": "usps_collection_boxes", "addr:city": "DORRANCE", "addr:country": "US", "addr:full": "521 MAIN ST", "addr:postcode": "67634", "addr:state": "KS", "amenity": "post_box", "brand": "United States Postal Service", "brand:wikidata": "Q668687", "collection_times": "Mo-Fr 11:15; Sa 08:30", "name": "USPS COLLECTION BOX - BLUE BOX", "nsi_id": "unitedstatespostalservice-a77078", "operator": "United States Postal Service", "operator:short": "USPS", "operator:type": "public", "operator:wikidata": "Q668687", "ref": "6763400001"}, "type": "Feature"}
{"dataset_attributes": {"@spider": "usps_collection_boxes", "spider:collection_time": "2023-11-22T08:26:05.887177"}, "geometry": {"coordinates": [-98.589146, 38.84583], "type": "Point"}, "id": "_9EWHcUCAnaAMrhNuVhwLinA5iM=", "properties": {"@spider": "usps_collection_boxes", "addr:city": "DORRANCE", "addr:country": "US", "addr:full": "521 MAIN ST", "addr:postcode": "67634", "addr:state": "KS", "amenity": "post_box", "brand": "United States Postal Service", "brand:wikidata": "Q668687", "collection_times": "Mo-Fr 11:15; Sa 08:30", "name": "USPS COLLECTION BOX - PO LOBBY", "nsi_id": "unitedstatespostalservice-a77078", "operator": "United States Postal Service", "operator:short": "USPS", "operator:type": "public", "operator:wikidata": "Q668687", "ref": "6763400002"}, "type": "Feature"}
{"dataset_attributes": {"@spider": "usps_collection_boxes", "spider:collection_time": "2023-11-22T08:26:05.887177"}, "geometry": {"coordinates": [-98.589156252, 38.846186749], "type": "Point"}, "id": "5g7CSw4yoS_N92e_xMvy_vedw6Q=", "properties": {"@spider": "usps_collection_boxes", "addr:city": "DORRANCE", "addr:country": "US", "addr:full": "521 MAIN ST", "addr:postcode": "67634", "addr:state": "KS", "amenity": "post_box", "brand": "United States Postal Service", "brand:wikidata": "Q668687", "collection_times": "Mo-Fr 11:15; Sa 08:30", "name": "USPS COLLECTION BOX - PO LOBBY", "nsi_id": "unitedstatespostalservice-a77078", "operator": "United States Postal Service", "operator:short": "USPS", "operator:type": "public", "operator:wikidata": "Q668687", "ref": "6763400003"}, "type": "Feature"}
{"dataset_attributes": {"@spider": "usps_collection_boxes", "spider:collection_time": "2023-11-22T08:26:05.887177"}, "geometry": {"coordinates": [-99.5616776927, 38.9397231932], "type": "Point"}, "id": "67YSe5rt3ezJAeMDXug4I2suoVg=", "properties": {"@spider": "usps_collection_boxes", "addr:city": "ELLIS", "addr:country": "US", "addr:full": "807 JEFFERSON ST", "addr:postcode": "67637", "addr:state": "KS", "amenity": "post_box", "brand": "United States Postal Service", "brand:wikidata": "Q668687", "collection_times": "Mo-Fr 13:05; Sa 09:45", "name": "USPS COLLECTION BOX - BLUE BOX", "note": "ON 12/24 AND 12/31, THIS BOX MAY BE COLLECTED AS EARLY AS 12 NOON.", "nsi_id": "unitedstatespostalservice-a77078", "operator": "United States Postal Service", "operator:short": "USPS", "operator:type": "public", "operator:wikidata": "Q668687", "ref": "6763700003"}, "type": "Feature"}
{"dataset_attributes": {"@spider": "usps_collection_boxes", "spider:collection_time": "2023-11-22T08:26:05.887177"}, "geometry": {"coordinates": [-99.5616776927, 38.9397231932], "type": "Point"}, "id": "HpGi0OtUO4QW9izwdW-WFt297Rs=", "properties": {"@spider": "usps_collection_boxes", "addr:city": "ELLIS", "addr:country": "US", "addr:full": "807 JEFFERSON ST", "addr:postcode": "67637", "addr:state": "KS", "amenity": "post_box", "brand": "United States Postal Service", "brand:wikidata": "Q668687", "collection_times": "Mo-Fr 13:05; Sa 09:45", "name": "USPS COLLECTION BOX - PO LOBBY", "note": "ON 12/24 AND 12/31, THIS BOX MAY BE COLLECTED AS EARLY AS 12 NOON.", "nsi_id": "unitedstatespostalservice-a77078", "operator": "United States Postal Service", "operator:short": "USPS", "operator:type": "public", "operator:wikidata": "Q668687", "ref": "6763700004"}, "type": "Feature"}
{"dataset_attributes": {"@spider": "usps_collection_boxes", "spider:collection_time": "2023-11-22T08:26:05.887177"}, "geometry": {"coordinates": [-99.5616776927, 38.9397231932], "type": "Point"}, "id": "LBGF-7at3eG8aHNgXPbEFqz3IQk=", "properties": {"@spider": "usps_collection_boxes", "addr:city": "ELLIS", "addr:country": "US", "addr:full": "807 JEFFERSON ST", "addr:postcode": "67637", "addr:state": "KS", "amenity": "post_box", "brand": "United States Postal Service", "brand:wikidata": "Q668687", "collection_times": "Mo-Fr 13:05; Sa 09:45", "name": "USPS COLLECTION BOX - PO LOBBY", "note": "ON 12/24 AND 12/31, THIS BOX MAY BE COLLECTED AS EARLY AS 12 NOON.", "nsi_id": "unitedstatespostalservice-a77078", "operator": "United States Postal Service", "operator:short": "USPS", "operator:type": "public", "operator:wikidata": "Q668687", "ref": "6763700007"}, "type": "Feature"}
{"dataset_attributes": {"@spider": "usps_collection_boxes", "spider:collection_time": "2023-11-22T08:26:05.887177"}, "geometry": {"coordinates": [-98.846187, 39.646704], "type": "Point"}, "id": "Yz0TO7UlJI75SljQdSsVfbZ8lqU=", "properties": {"@spider": "usps_collection_boxes", "addr:city": "GAYLORD", "addr:country": "US", "addr:full": "600 5TH ST", "addr:postcode": "67638", "addr:state": "KS", "amenity": "post_box", "brand": "United States Postal Service", "brand:wikidata": "Q668687", "collection_times": "Mo-Fr 12:00; Sa 10:45", "name": "USPS COLLECTION BOX - BLUE BOX", "nsi_id": "unitedstatespostalservice-a77078", "operator": "United States Postal Service", "operator:short": "USPS", "operator:type": "public", "operator:wikidata": "Q668687", "ref": "6763800001"}, "type": "Feature"}
{"dataset_attributes": {"@spider": "usps_collection_boxes", "spider:collection_time": "2023-11-22T08:26:05.887177"}, "geometry": {"coordinates": [-98.846187, 39.646704], "type": "Point"}, "id": "N8LarMhRrGnXLCfBPJ1ZImxjMPg=", "properties": {"@spider": "usps_collection_boxes", "addr:city": "GAYLORD", "addr:country": "US", "addr:full": "600 5TH ST", "addr:postcode": "67638", "addr:state": "KS", "amenity": "post_box", "brand": "United States Postal Service", "brand:wikidata": "Q668687", "collection_times": "Mo-Fr 12:00; Sa 10:45", "name": "USPS COLLECTION BOX - PO LOBBY", "nsi_id": "unitedstatespostalservice-a77078", "operator": "United States Postal Service", "operator:short": "USPS", "operator:type": "public", "operator:wikidata": "Q668687", "ref": "6763800002"}, "type": "Feature"}
{"dataset_attributes": {"@spider": "usps_collection_boxes", "spider:collection_time": "2023-11-22T08:26:05.887177"}, "geometry": {"coordinates": [-98.846167291, 39.646662453], "type": "Point"}, "id": "kpC9pGmzIHJMxfiwP-CVDg11vLI=", "properties": {"@spider": "usps_collection_boxes", "addr:city": "GAYLORD", "addr:country": "US", "addr:full": "600 5TH ST", "addr:postcode": "67638", "addr:state": "KS", "amenity": "post_box", "brand": "United States Postal Service", "brand:wikidata": "Q668687", "collection_times": "Mo-Fr 12:00; Sa 10:45", "name": "USPS COLLECTION BOX - PO LOBBY", "nsi_id": "unitedstatespostalservice-a77078", "operator": "United States Postal Service", "operator:short": "USPS", "operator:type": "public", "operator:wikidata": "Q668687", "ref": "6763800003"}, "type": "Feature"}
{"dataset_attributes": {"@spider": "usps_collection_boxes", "spider:collection_time": "2023-11-22T08:26:05.887177"}, "geometry": {"coordinates": [-99.039761, 38.876343], "type": "Point"}, "id": "GnJJWxgu4xD8oSNpUz11sSVAr6E=", "properties": {"@spider": "usps_collection_boxes", "addr:city": "GORHAM KS", "addr:country": "US", "addr:full": "119 E US HIGHWAY 40", "addr:postcode": "67640", "addr:state": "KS", "amenity": "post_box", "brand": "United States Postal Service", "brand:wikidata": "Q668687", "collection_times": "Mo-Fr 11:45; Sa 09:45", "name": "USPS COLLECTION BOX - BLUE BOX", "nsi_id": "unitedstatespostalservice-a77078", "operator": "United States Postal Service", "operator:short": "USPS", "operator:type": "public", "operator:wikidata": "Q668687", "ref": "6764000001"}, "type": "Feature"}
{"dataset_attributes": {"@spider": "usps_collection_boxes", "spider:collection_time": "2023-11-22T08:26:05.887177"}, "geometry": {"coordinates": [-99.022867, 38.879947], "type": "Point"}, "id": "JiYOWaxva8mVtNGDiVKrnNuhCHA=", "properties": {"@spider": "usps_collection_boxes", "addr:city": "GORHAM KS", "addr:country": "US", "addr:full": "119 E US HIGHWAY 40", "addr:postcode": "67640", "addr:state": "KS", "amenity": "post_box", "brand": "United States Postal Service", "brand:wikidata": "Q668687", "collection_times": "Mo-Fr 11:45; Sa 09:45", "name": "USPS COLLECTION BOX - PO LOBBY", "nsi_id": "unitedstatespostalservice-a77078", "operator": "United States Postal Service", "operator:short": "USPS", "operator:type": "public", "operator:wikidata": "Q668687", "ref": "6764000002"}, "type": "Feature"}
{"dataset_attributes": {"@spider": "usps_collection_boxes", "spider:collection_time": "2023-11-22T08:26:05.887177"}, "geometry": {"coordinates": [-99.022553665, 38.879936453], "type": "Point"}, "id": "cVadaqEPe8aUlYyrPVnp5MEytRA=", "properties": {"@spider": "usps_collection_boxes", "addr:city": "GORHAM KS", "addr:country": "US", "addr:full": "119 E US HIGHWAY 40", "addr:postcode": "67640", "addr:state": "KS", "amenity": "post_box", "brand": "United States Postal Service", "brand:wikidata": "Q668687", "collection_times": "Mo-Fr 11:45; Sa 09:45", "name": "USPS COLLECTION BOX - PO LOBBY", "nsi_id": "unitedstatespostalservice-a77078", "operator": "United States Postal Service", "operator:short": "USPS", "operator:type": "public", "operator:wikidata": "Q668687", "ref": "6764000003"}, "type": "Feature"}
{"dataset_attributes": {"@spider": "usps_collection_boxes", "spider:collection_time": "2023-11-22T08:26:05.887177"}, "geometry": {"coordinates": [-99.84169, 39.364578], "type": "Point"}, "id": "lhSZUalQwj7EJBmscXVlhEtaHAc=", "properties": {"@spider": "usps_collection_boxes", "addr:city": "HILL CITY", "addr:country": "US", "addr:full": "112 E MAIN ST", "addr:postcode": "67642", "addr:state": "KS", "amenity": "post_box", "brand": "United States Postal Service", "brand:wikidata": "Q668687", "collection_times": "Mo-Fr 11:15; Sa 09:45", "name": "USPS COLLECTION BOX - BLUE BOX", "nsi_id": "unitedstatespostalservice-a77078", "operator": "United States Postal Service", "operator:short": "USPS", "operator:type": "public", "operator:wikidata": "Q668687", "ref": "6764200002"}, "type": "Feature"}
{"dataset_attributes": {"@spider": "usps_collection_boxes", "spider:collection_time": "2023-11-22T08:26:05.887177"}, "geometry": {"coordinates": [-99.84169, 39.364578], "type": "Point"}, "id": "9gVtEyE_tIf4E2NeGJLv7Y8QeCU=", "properties": {"@spider": "usps_collection_boxes", "addr:city": "HILL CITY", "addr:country": "US", "addr:full": "112 E MAIN ST", "addr:postcode": "67642", "addr:state": "KS", "amenity": "post_box", "brand": "United States Postal Service", "brand:wikidata": "Q668687", "collection_times": "Mo-Fr 11:15; Sa 09:45", "name": "USPS COLLECTION BOX - PO LOBBY", "nsi_id": "unitedstatespostalservice-a77078", "operator": "United States Postal Service", "operator:short": "USPS", "operator:type": "public", "operator:wikidata": "Q668687", "ref": "6764200003"}, "type": "Feature"}
{"dataset_attributes": {"@spider": "usps_collection_boxes", "spider:collection_time": "2023-11-22T08:26:05.887177"}, "geometry": {"coordinates": [-99.8417249456, 39.3646173885], "type": "Point"}, "id": "rHCLMDuL1QSFInOguGEdC8v_3Lc=", "properties": {"@spider": "usps_collection_boxes", "addr:city": "HILL CITY", "addr:country": "US", "addr:full": "112 E MAIN ST", "addr:postcode": "67642", "addr:state": "KS", "amenity": "post_box", "brand": "United States Postal Service", "brand:wikidata": "Q668687", "collection_times": "Mo-Fr 11:15; Sa 09:45", "name": "USPS COLLECTION BOX - PO LOBBY", "nsi_id": "unitedstatespostalservice-a77078", "operator": "United States Postal Service", "operator:short": "USPS", "operator:type": "public", "operator:wikidata": "Q668687", "ref": "6764200004"}, "type": "Feature"}
{"dataset_attributes": {"@spider": "usps_collection_boxes", "spider:collection_time": "2023-11-22T08:26:05.887177"}, "geometry": {"coordinates": [-100.293335, 39.680729], "type": "Point"}, "id": "9Sxilw_EzI60iLt1ycQaZkarHtc=", "properties": {"@spider": "usps_collection_boxes", "addr:city": "JENNINGS", "addr:country": "US", "addr:full": "123 S KANSAS AVE", "addr:postcode": "67643", "addr:state": "KS", "amenity": "post_box", "brand": "United States Postal Service", "brand:wikidata": "Q668687", "collection_times": "Mo-Fr 11:10; Sa 09:45", "name": "USPS COLLECTION BOX - BLUE BOX", "nsi_id": "unitedstatespostalservice-a77078", "operator": "United States Postal Service", "operator:short": "USPS", "operator:type": "public", "operator:wikidata": "Q668687", "ref": "6764300001"}, "type": "Feature"}
{"dataset_attributes": {"@spider": "usps_collection_boxes", "spider:collection_time": "2023-11-22T08:26:05.887177"}, "geometry": {"coordinates": [-100.293335, 39.680729], "type": "Point"}, "id": "4DpW4M1-b1ZFTIfySPwZ3pRdNBY=", "properties": {"@spider": "usps_collection_boxes", "addr:city": "JENNINGS", "addr:country": "US", "addr:full": "123 S KANSAS AVE", "addr:postcode": "67643", "addr:state": "KS", "amenity": "post_box", "brand": "United States Postal Service", "brand:wikidata": "Q668687", "collection_times": "Mo-Fr 11:10; Sa 09:45", "name": "USPS COLLECTION BOX - PO LOBBY", "nsi_id": "unitedstatespostalservice-a77078", "operator": "United States Postal Service", "operator:short": "USPS", "operator:type": "public", "operator:wikidata": "Q668687", "ref": "6764300002"}, "type": "Feature"}
{"dataset_attributes": {"@spider": "usps_collection_boxes", "spider:collection_time": "2023-11-22T08:26:05.887177"}, "geometry": {"coordinates": [-100.293357382, 39.680744116], "type": "Point"}, "id": "oqsCbiuVZTAcgAmDAFbMxv7HCps=", "properties": {"@spider": "usps_collection_boxes", "addr:city": "JENNINGS", "addr:country": "US", "addr:full": "123 S KANSAS AVE", "addr:postcode": "67643", "addr:state": "KS", "amenity": "post_box", "brand": "United States Postal Service", "brand:wikidata": "Q668687", "collection_times": "Mo-Fr 11:10; Sa 09:45", "name": "USPS COLLECTION BOX - PO LOBBY", "nsi_id": "unitedstatespostalservice-a77078", "operator": "United States Postal Service", "operator:short": "USPS", "operator:type": "public", "operator:wikidata": "Q668687", "ref": "6764300003"}, "type": "Feature"}
{"dataset_attributes": {"@spider": "usps_collection_boxes", "spider:collection_time": "2023-11-22T08:26:05.887177"}, "geometry": {"coordinates": [-99.1230662771, 39.6728838334], "type": "Point"}, "id": "I6V8cLh8zyKm6TN2YG4vmpeH_Rk=", "properties": {"@spider": "usps_collection_boxes", "addr:city": "KIRWIN", "addr:country": "US", "addr:full": "9 SQUARE ST", "addr:postcode": "67644", "addr:state": "KS", "amenity": "post_box", "brand": "United States Postal Service", "brand:wikidata": "Q668687", "collection_times": "Mo-Fr 11:45; Sa 08:15", "name": "USPS COLLECTION BOX - BLUE BOX", "nsi_id": "unitedstatespostalservice-a77078", "operator": "United States Postal Service", "operator:short": "USPS", "operator:type": "public", "operator:wikidata": "Q668687", "ref": "6764400001"}, "type": "Feature"}
{"dataset_attributes": {"@spider": "usps_collection_boxes", "spider:collection_time": "2023-11-22T08:26:05.887177"}, "geometry": {"coordinates": [-99.123287, 39.672621], "type": "Point"}, "id": "Q0PmPNWqewYyWdZIHQtfB05QZJM=", "properties": {"@spider": "usps_collection_boxes", "addr:city": "KIRWIN", "addr:country": "US", "addr:full": "9 SQUARE ST", "addr:postcode": "67644", "addr:state": "KS", "amenity": "post_box", "brand": "United States Postal Service", "brand:wikidata": "Q668687", "collection_times": "Mo-Fr 11:45; Sa 08:15", "name": "USPS COLLECTION BOX - PO LOBBY", "nsi_id": "unitedstatespostalservice-a77078", "operator": "United States Postal Service", "operator:short": "USPS", "operator:type": "public", "operator:wikidata": "Q668687", "ref": "6764400002"}, "type": "Feature"}
{"dataset_attributes": {"@spider": "usps_collection_boxes", "spider:collection_time": "2023-11-22T08:26:05.887177"}, "geometry": {"coordinates": [-99.123053488, 39.67287755], "type": "Point"}, "id": "1WDX3nh3hWue0OkKsUFTINlfE0E=", "properties": {"@spider": "usps_collection_boxes", "addr:city": "KIRWIN", "addr:country": "US", "addr:full": "9 SQUARE ST", "addr:postcode": "67644", "addr:state": "KS", "amenity": "post_box", "brand": "United States Postal Service", "brand:wikidata": "Q668687", "collection_times": "Mo-Fr 11:45; Sa 08:15", "name": "USPS COLLECTION BOX - PO LOBBY", "nsi_id": "unitedstatespostalservice-a77078", "operator": "United States Postal Service", "operator:short": "USPS", "operator:type": "public", "operator:wikidata": "Q668687", "ref": "6764400003"}, "type": "Feature"}
{"dataset_attributes": {"@spider": "usps_collection_boxes", "spider:collection_time": "2023-11-22T08:26:05.887177"}, "geometry": {"coordinates": [-100.002310882, 39.610293584], "type": "Point"}, "id": "ROCyAL7qxMEh3-TojK258q75fGw=", "properties": {"@spider": "usps_collection_boxes", "addr:city": "LENORA", "addr:country": "US", "addr:full": "115 S MAIN ST", "addr:postcode": "67645", "addr:state": "KS", "amenity": "post_box", "brand": "United States Postal Service", "brand:wikidata": "Q668687", "collection_times": "Mo-Fr 11:50; Sa 09:45", "name": "USPS COLLECTION BOX - BLUE BOX", "nsi_id": "unitedstatespostalservice-a77078", "operator": "United States Postal Service", "operator:short": "USPS", "operator:type": "public", "operator:wikidata": "Q668687", "ref": "6764500001"}, "type": "Feature"}
{"dataset_attributes": {"@spider": "usps_collection_boxes", "spider:collection_time": "2023-11-22T08:26:05.887177"}, "geometry": {"coordinates": [-100.002310882, 39.610293584], "type": "Point"}, "id": "F8tpjqVIz7n5PTdvAn0L7VzGddc=", "properties": {"@spider": "usps_collection_boxes", "addr:city": "LENORA", "addr:country": "US", "addr:full": "115 S MAIN ST", "addr:postcode": "67645", "addr:state": "KS", "amenity": "post_box", "brand": "United States Postal Service", "brand:wikidata": "Q668687", "collection_times": "Mo-Fr 11:50; Sa 09:45", "name": "USPS COLLECTION BOX - PO LOBBY", "nsi_id": "unitedstatespostalservice-a77078", "operator": "United States Postal Service", "operator:short": "USPS", "operator:type": "public", "operator:wikidata": "Q668687", "ref": "6764500003"}, "type": "Feature"}
{"dataset_attributes": {"@spider": "usps_collection_boxes", "spider:collection_time": "2023-11-22T08:26:05.887177"}, "geometry": {"coordinates": [-100.002310882, 39.610293584], "type": "Point"}, "id": "_ZwC8cztfuWF_k1Fa2xT3jLqJf4=", "properties": {"@spider": "usps_collection_boxes", "addr:city": "LENORA", "addr:country": "US", "addr:full": "115 S MAIN ST", "addr:postcode": "67645", "addr:state": "KS", "amenity": "post_box", "brand": "United States Postal Service", "brand:wikidata": "Q668687", "collection_times": "Mo-Fr 11:50; Sa 09:45", "name": "USPS COLLECTION BOX - PO LOBBY", "nsi_id": "unitedstatespostalservice-a77078", "operator": "United States Postal Service", "operator:short": "USPS", "operator:type": "public", "operator:wikidata": "Q668687", "ref": "6764500004"}, "type": "Feature"}
{"dataset_attributes": {"@spider": "usps_collection_boxes", "spider:collection_time": "2023-11-22T08:26:05.887177"}, "geometry": {"coordinates": [-99.566237, 39.661617], "type": "Point"}, "id": "SSgFavIoUhnrk2_JzanMY46CnYY=", "properties": {"@spider": "usps_collection_boxes", "addr:city": "LOGAN", "addr:country": "US", "addr:full": "206 W MAIN ST", "addr:postcode": "67646", "addr:state": "KS", "amenity": "post_box", "brand": "United States Postal Service", "brand:wikidata": "Q668687", "collection_times": "Mo-Fr 11:45; Sa 09:00", "name": "USPS COLLECTION BOX - BLUE BOX", "nsi_id": "unitedstatespostalservice-a77078", "operator": "United States Postal Service", "operator:short": "USPS", "operator:type": "public", "operator:wikidata": "Q668687", "ref": "6764600001"}, "type": "Feature"}
{"dataset_attributes": {"@spider": "usps_collection_boxes", "spider:collection_time": "2023-11-22T08:26:05.887177"}, "geometry": {"coordinates": [-99.566237, 39.661617], "type": "Point"}, "id": "nV5JoEEYRnWbLXW9bJKlH4FDhSo=", "properties": {"@spider": "usps_collection_boxes", "addr:city": "LOGAN", "addr:country": "US", "addr:full": "206 W MAIN ST", "addr:postcode": "67646", "addr:state": "KS", "amenity": "post_box", "brand": "United States Postal Service", "brand:wikidata": "Q668687", "collection_times": "Mo-Fr 11:45; Sa 09:00", "name": "USPS COLLECTION BOX - PO LOBBY", "nsi_id": "unitedstatespostalservice-a77078", "operator": "United States Postal Service", "operator:short": "USPS", "operator:type": "public", "operator:wikidata": "Q668687", "ref": "6764600002"}, "type": "Feature"}
{"dataset_attributes": {"@spider": "usps_collection_boxes", "spider:collection_time": "2023-11-22T08:26:05.887177"}, "geometry": {"coordinates": [-99.5662815756, 39.6615577579], "type": "Point"}, "id": "qmK18tJOem_wdvCFmRSn6mdrMNU=", "properties": {"@spider": "usps_collection_boxes", "addr:city": "LOGAN", "addr:country": "US", "addr:full": "206 W MAIN ST", "addr:postcode": "67646", "addr:state": "KS", "amenity": "post_box", "brand": "United States Postal Service", "brand:wikidata": "Q668687", "collection_times": "Mo-Fr 11:45; Sa 09:00", "name": "USPS COLLECTION BOX - PO LOBBY", "nsi_id": "unitedstatespostalservice-a77078", "operator": "United States Postal Service", "operator:short": "USPS", "operator:type": "public", "operator:wikidata": "Q668687", "ref": "6764600003"}, "type": "Feature"}
{"dataset_attributes": {"@spider": "usps_collection_boxes", "spider:collection_time": "2023-11-22T08:26:05.887177"}, "geometry": {"coordinates": [-99.534148, 39.949288], "type": "Point"}, "id": "fYE47tvElk8nMIRFuLfnLAy5s-0=", "properties": {"@spider": "usps_collection_boxes", "addr:city": "LONG ISLAND", "addr:country": "US", "addr:full": "335 WASHINGTON AVE", "addr:postcode": "67647", "addr:state": "KS", "amenity": "post_box", "brand": "United States Postal Service", "brand:wikidata": "Q668687", "collection_times": "Mo-Fr 11:45; Sa 09:15", "name": "USPS COLLECTION BOX - BLUE BOX", "nsi_id": "unitedstatespostalservice-a77078", "operator": "United States Postal Service", "operator:short": "USPS", "operator:type": "public", "operator:wikidata": "Q668687", "ref": "6764700001"}, "type": "Feature"}
{"dataset_attributes": {"@spider": "usps_collection_boxes", "spider:collection_time": "2023-11-22T08:26:05.887177"}, "geometry": {"coordinates": [-99.534148, 39.949288], "type": "Point"}, "id": "2c3vjvCll9Ar1mcOvGBmJJ_j8r8=", "properties": {"@spider": "usps_collection_boxes", "addr:city": "LONG ISLAND", "addr:country": "US", "addr:full": "335 WASHINGTON AVE", "addr:postcode": "67647", "addr:state": "KS", "amenity": "post_box", "brand": "United States Postal Service", "brand:wikidata": "Q668687", "collection_times": "Mo-Fr 11:45; Sa 09:15", "name": "USPS COLLECTION BOX - PO LOBBY", "nsi_id": "unitedstatespostalservice-a77078", "operator": "United States Postal Service", "operator:short": "USPS", "operator:type": "public", "operator:wikidata": "Q668687", "ref": "6764700002"}, "type": "Feature"}
{"dataset_attributes": {"@spider": "usps_collection_boxes", "spider:collection_time": "2023-11-22T08:26:05.887177"}, "geometry": {"coordinates": [-99.5341292991, 39.9494162201], "type": "Point"}, "id": "ozWr51h9466G_2YZ-HdpZLMUgKY=", "properties": {"@spider": "usps_collection_boxes", "addr:city": "LONG ISLAND", "addr:country": "US", "addr:full": "335 WASHINGTON AVE", "addr:postcode": "67647", "addr:state": "KS", "amenity": "post_box", "brand": "United States Postal Service", "brand:wikidata": "Q668687", "collection_times": "Mo-Fr 11:45; Sa 09:15", "name": "USPS COLLECTION BOX - PO LOBBY", "nsi_id": "unitedstatespostalservice-a77078", "operator": "United States Postal Service", "operator:short": "USPS", "operator:type": "public", "operator:wikidata": "Q668687", "ref": "6764700003"}, "type": "Feature"}
{"dataset_attributes": {"@spider": "usps_collection_boxes", "spider:collection_time": "2023-11-22T08:26:05.887177"}, "geometry": {"coordinates": [-98.5378558, 39.057446], "type": "Point"}, "id": "NZZBzbzBQZ-yKrcjXDN0tyVuZlQ=", "properties": {"@spider": "usps_collection_boxes", "addr:city": "LUCAS", "addr:country": "US", "addr:full": "218 S MAIN ST", "addr:postcode": "67648", "addr:state": "KS", "amenity": "post_box", "brand": "United States Postal Service", "brand:wikidata": "Q668687", "collection_times": "Mo-Fr 10:50; Sa 08:45", "name": "USPS COLLECTION BOX - BLUE BOX", "nsi_id": "unitedstatespostalservice-a77078", "operator": "United States Postal Service", "operator:short": "USPS", "operator:type": "public", "operator:wikidata": "Q668687", "ref": "6764800001"}, "type": "Feature"}
{"dataset_attributes": {"@spider": "usps_collection_boxes", "spider:collection_time": "2023-11-22T08:26:05.887177"}, "geometry": {"coordinates": [-98.537997, 39.057411], "type": "Point"}, "id": "oE7rO3bf5cZEqJbEodO_Isdr75w=", "properties": {"@spider": "usps_collection_boxes", "addr:city": "LUCAS", "addr:country": "US", "addr:full": "218 S MAIN ST", "addr:postcode": "67648", "addr:state": "KS", "amenity": "post_box", "brand": "United States Postal Service", "brand:wikidata": "Q668687", "collection_times": "Mo-Fr 10:50; Sa 08:45", "name": "USPS COLLECTION BOX - PO LOBBY", "nsi_id": "unitedstatespostalservice-a77078", "operator": "United States Postal Service", "operator:short": "USPS", "operator:type": "public", "operator:wikidata": "Q668687", "ref": "6764800002"}, "type": "Feature"}
{"dataset_attributes": {"@spider": "usps_collection_boxes", "spider:collection_time": "2023-11-22T08:26:05.887177"}, "geometry": {"coordinates": [-98.5379980945, 39.0574082515], "type": "Point"}, "id": "I6EmC474moVscNNu74uxdxzFJnE=", "properties": {"@spider": "usps_collection_boxes", "addr:city": "LUCAS", "addr:country": "US", "addr:full": "218 S MAIN ST", "addr:postcode": "67648", "addr:state": "KS", "amenity": "post_box", "brand": "United States Postal Service", "brand:wikidata": "Q668687", "collection_times": "Mo-Fr 10:50; Sa 08:45", "name": "USPS COLLECTION BOX - PO LOBBY", "nsi_id": "unitedstatespostalservice-a77078", "operator": "United States Postal Service", "operator:short": "USPS", "operator:type": "public", "operator:wikidata": "Q668687", "ref": "6764800003"}, "type": "Feature"}
{"dataset_attributes": {"@spider": "usps_collection_boxes", "spider:collection_time": "2023-11-22T08:26:05.887177"}, "geometry": {"coordinates": [-98.6918712, 39.112252], "type": "Point"}, "id": "xEvLWb_P3q8FOxibmOT1KSCRj6U=", "properties": {"@spider": "usps_collection_boxes", "addr:city": "LURAY", "addr:country": "US", "addr:full": "101 S MAIN ST", "addr:postcode": "67649", "addr:state": "KS", "amenity": "post_box", "brand": "United States Postal Service", "brand:wikidata": "Q668687", "collection_times": "Mo-Fr 11:10; Sa 09:15", "name": "USPS COLLECTION BOX - BLUE BOX", "nsi_id": "unitedstatespostalservice-a77078", "operator": "United States Postal Service", "operator:short": "USPS", "operator:type": "public", "operator:wikidata": "Q668687", "ref": "6764900001"}, "type": "Feature"}
{"dataset_attributes": {"@spider": "usps_collection_boxes", "spider:collection_time": "2023-11-22T08:26:05.887177"}, "geometry": {"coordinates": [-98.691956, 39.11224], "type": "Point"}, "id": "NchuUM8gDSdcxATvopa99Bt49d8=", "properties": {"@spider": "usps_collection_boxes", "addr:city": "LURAY", "addr:country": "US", "addr:full": "101 S MAIN ST", "addr:postcode": "67649", "addr:state": "KS", "amenity": "post_box", "brand": "United States Postal Service", "brand:wikidata": "Q668687", "collection_times": "Mo-Fr 11:10; Sa 09:15", "name": "USPS COLLECTION BOX - PO LOBBY", "nsi_id": "unitedstatespostalservice-a77078", "operator": "United States Postal Service", "operator:short": "USPS", "operator:type": "public", "operator:wikidata": "Q668687", "ref": "6764900002"}, "type": "Feature"}
{"dataset_attributes": {"@spider": "usps_collection_boxes", "spider:collection_time": "2023-11-22T08:26:05.887177"}, "geometry": {"coordinates": [-98.6919580873, 39.112236], "type": "Point"}, "id": "vtk3XS_qRLlaNnnu168I6kHF2W4=", "properties": {"@spider": "usps_collection_boxes", "addr:city": "LURAY", "addr:country": "US", "addr:full": "101 S MAIN ST", "addr:postcode": "67649", "addr:state": "KS", "amenity": "post_box", "brand": "United States Postal Service", "brand:wikidata": "Q668687", "collection_times": "Mo-Fr 11:10; Sa 09:15", "name": "USPS COLLECTION BOX - PO LOBBY", "nsi_id": "unitedstatespostalservice-a77078", "operator": "United States Postal Service", "operator:short": "USPS", "operator:type": "public", "operator:wikidata": "Q668687", "ref": "6764900003"}, "type": "Feature"}
{"dataset_attributes": {"@spider": "usps_collection_boxes", "spider:collection_time": "2023-11-22T08:26:05.887177"}, "geometry": {"coordinates": [-100.074805, 39.34941], "type": "Point"}, "id": "xmBF0HjI3vNiFDVR5GH2MoJ9H_Y=", "properties": {"@spider": "usps_collection_boxes", "addr:city": "MORLAND", "addr:country": "US", "addr:full": "409 MAIN ST", "addr:postcode": "67650", "addr:state": "KS", "amenity": "post_box", "brand": "United States Postal Service", "brand:wikidata": "Q668687", "collection_times": "Mo-Fr 11:15; Sa 09:00", "name": "USPS COLLECTION BOX - BLUE BOX", "nsi_id": "unitedstatespostalservice-a77078", "operator": "United States Postal Service", "operator:short": "USPS", "operator:type": "public", "operator:wikidata": "Q668687", "ref": "6765000001"}, "type": "Feature"}
{"dataset_attributes": {"@spider": "usps_collection_boxes", "spider:collection_time": "2023-11-22T08:26:05.887177"}, "geometry": {"coordinates": [-100.074805, 39.34941], "type": "Point"}, "id": "iW-wxRpOtvVaj9QWfTEcZWDmjuc=", "properties": {"@spider": "usps_collection_boxes", "addr:city": "MORLAND", "addr:country": "US", "addr:full": "409 MAIN ST", "addr:postcode": "67650", "addr:state": "KS", "amenity": "post_box", "brand": "United States Postal Service", "brand:wikidata": "Q668687", "collection_times": "Mo-Fr 11:15; Sa 09:00", "name": "USPS COLLECTION BOX - PO LOBBY", "nsi_id": "unitedstatespostalservice-a77078", "operator": "United States Postal Service", "operator:short": "USPS", "operator:type": "public", "operator:wikidata": "Q668687", "ref": "6765000002"}, "type": "Feature"}
{"dataset_attributes": {"@spider": "usps_collection_boxes", "spider:collection_time": "2023-11-22T08:26:05.887177"}, "geometry": {"coordinates": [-100.076401293, 39.349348089], "type": "Point"}, "id": "GNQwOZ1A0OyX2IVcFv-p238XBJs=", "properties": {"@spider": "usps_collection_boxes", "addr:city": "MORLAND", "addr:country": "US", "addr:full": "409 MAIN ST", "addr:postcode": "67650", "addr:state": "KS", "amenity": "post_box", "brand": "United States Postal Service", "brand:wikidata": "Q668687", "collection_times": "Mo-Fr 11:15; Sa 09:00", "name": "USPS COLLECTION BOX - PO LOBBY", "nsi_id": "unitedstatespostalservice-a77078", "operator": "United States Postal Service", "operator:short": "USPS", "operator:type": "public", "operator:wikidata": "Q668687", "ref": "6765000003"}, "type": "Feature"}
{"dataset_attributes": {"@spider": "usps_collection_boxes", "spider:collection_time": "2023-11-22T08:26:05.887177"}, "geometry": {"coordinates": [-99.0232909728, 39.1908364318], "type": "Point"}, "id": "_zsdSzkJZqeK7PvAW9uUE5XbBHQ=", "properties": {"@spider": "usps_collection_boxes", "addr:city": "NATOMA", "addr:country": "US", "addr:full": "402 ELM ST", "addr:postcode": "67651", "addr:state": "KS", "amenity": "post_box", "brand": "United States Postal Service", "brand:wikidata": "Q668687", "collection_times": "Mo-Fr 11:45; Sa 08:45", "name": "USPS COLLECTION BOX - BLUE BOX", "nsi_id": "unitedstatespostalservice-a77078", "operator": "United States Postal Service", "operator:short": "USPS", "operator:type": "public", "operator:wikidata": "Q668687", "ref": "6765100001"}, "type": "Feature"}
{"dataset_attributes": {"@spider": "usps_collection_boxes", "spider:collection_time": "2023-11-22T08:26:05.887177"}, "geometry": {"coordinates": [-99.0245699692, 39.1885550177], "type": "Point"}, "id": "YKJFm5yrqXVJIb-HVO8J-1eAJxA=", "properties": {"@spider": "usps_collection_boxes", "addr:city": "NATOMA", "addr:country": "US", "addr:full": "402 ELM ST", "addr:postcode": "67651", "addr:state": "KS", "amenity": "post_box", "brand": "United States Postal Service", "brand:wikidata": "Q668687", "collection_times": "Mo-Fr 11:45; Sa 08:45", "name": "USPS COLLECTION BOX - PO LOBBY", "nsi_id": "unitedstatespostalservice-a77078", "operator": "United States Postal Service", "operator:short": "USPS", "operator:type": "public", "operator:wikidata": "Q668687", "ref": "6765100002"}, "type": "Feature"}
{"dataset_attributes": {"@spider": "usps_collection_boxes", "spider:collection_time": "2023-11-22T08:26:05.887177"}, "geometry": {"coordinates": [-99.0245699692, 39.1885550177], "type": "Point"}, "id": "BY_cgS4GDNDnRBkdrbr6CLxqz-w=", "properties": {"@spider": "usps_collection_boxes", "addr:city": "NATOMA", "addr:country": "US", "addr:full": "402 ELM ST", "addr:postcode": "67651", "addr:state": "KS", "amenity": "post_box", "brand": "United States Postal Service", "brand:wikidata": "Q668687", "collection_times": "Mo-Fr 11:45; Sa 08:45", "name": "USPS COLLECTION BOX - PO LOBBY", "nsi_id": "unitedstatespostalservice-a77078", "operator": "United States Postal Service", "operator:short": "USPS", "operator:type": "public", "operator:wikidata": "Q668687", "ref": "6765100003"}, "type": "Feature"}
{"dataset_attributes": {"@spider": "usps_collection_boxes", "spider:collection_time": "2023-11-22T08:26:05.887177"}, "geometry": {"coordinates": [-100.1906333145, 39.8368787151], "type": "Point"}, "id": "FEWdFJGRVJ334A-jQP6Zb15zG5U=", "properties": {"@spider": "usps_collection_boxes", "addr:city": "NORCATUR", "addr:country": "US", "addr:full": "106 S DECATUR AVE", "addr:postcode": "67653", "addr:state": "KS", "amenity": "post_box", "brand": "United States Postal Service", "brand:wikidata": "Q668687", "collection_times": "Mo-Fr 11:40; Sa 09:15", "name": "USPS COLLECTION BOX - BLUE BOX", "nsi_id": "unitedstatespostalservice-a77078", "operator": "United States Postal Service", "operator:short": "USPS", "operator:type": "public", "operator:wikidata": "Q668687", "ref": "6765300001"}, "type": "Feature"}
{"dataset_attributes": {"@spider": "usps_collection_boxes", "spider:collection_time": "2023-11-22T08:26:05.887177"}, "geometry": {"coordinates": [-100.190607, 39.836852], "type": "Point"}, "id": "TcVwlvLMVMB1KHK8r6BY0iwxjJI=", "properties": {"@spider": "usps_collection_boxes", "addr:city": "NORCATUR", "addr:country": "US", "addr:full": "106 S DECATUR AVE", "addr:postcode": "67653", "addr:state": "KS", "amenity": "post_box", "brand": "United States Postal Service", "brand:wikidata": "Q668687", "collection_times": "Mo-Fr 11:40; Sa 09:15", "name": "USPS COLLECTION BOX - PO LOBBY", "nsi_id": "unitedstatespostalservice-a77078", "operator": "United States Postal Service", "operator:short": "USPS", "operator:type": "public", "operator:wikidata": "Q668687", "ref": "6765300002"}, "type": "Feature"}
{"dataset_attributes": {"@spider": "usps_collection_boxes", "spider:collection_time": "2023-11-22T08:26:05.887177"}, "geometry": {"coordinates": [-100.190633409, 39.836870203], "type": "Point"}, "id": "QbYNQY73IWaofPnho3DqZqeKQ9s=", "properties": {"@spider": "usps_collection_boxes", "addr:city": "NORCATUR", "addr:country": "US", "addr:full": "106 S DECATUR AVE", "addr:postcode": "67653", "addr:state": "KS", "amenity": "post_box", "brand": "United States Postal Service", "brand:wikidata": "Q668687", "collection_times": "Mo-Fr 11:40; Sa 09:15", "name": "USPS COLLECTION BOX - PO LOBBY", "nsi_id": "unitedstatespostalservice-a77078", "operator": "United States Postal Service", "operator:short": "USPS", "operator:type": "public", "operator:wikidata": "Q668687", "ref": "6765300003"}, "type": "Feature"}
{"dataset_attributes": {"@spider": "usps_collection_boxes", "spider:collection_time": "2023-11-22T08:26:05.887177"}, "geometry": {"coordinates": [-99.886998004, 39.828093579], "type": "Point"}, "id": "YMHW29Nzb6_f_y5etjEt4XSBJFM=", "properties": {"@spider": "usps_collection_boxes", "addr:city": "NORTON", "addr:country": "US", "addr:full": "302 E WASHINGTON ST", "addr:postcode": "67654", "addr:state": "KS", "amenity": "post_box", "brand": "United States Postal Service", "brand:wikidata": "Q668687", "collection_times": "Mo-Fr 11:15; Sa 10:45", "name": "USPS COLLECTION BOX - BLUE BOX", "nsi_id": "unitedstatespostalservice-a77078", "operator": "United States Postal Service", "operator:short": "USPS", "operator:type": "public", "operator:wikidata": "Q668687", "ref": "6765400004"}, "type": "Feature"}
{"dataset_attributes": {"@spider": "usps_collection_boxes", "spider:collection_time": "2023-11-22T08:26:05.887177"}, "geometry": {"coordinates": [-99.886998004, 39.828093579], "type": "Point"}, "id": "LEQZh8w2gxSH5g5YLUhpQXzSOn8=", "properties": {"@spider": "usps_collection_boxes", "addr:city": "NORTON", "addr:country": "US", "addr:full": "302 E WASHINGTON ST", "addr:postcode": "67654", "addr:state": "KS", "amenity": "post_box", "brand": "United States Postal Service", "brand:wikidata": "Q668687", "collection_times": "Mo-Fr 11:15; Sa 10:45", "name": "USPS COLLECTION BOX - PO LOBBY", "nsi_id": "unitedstatespostalservice-a77078", "operator": "United States Postal Service", "operator:short": "USPS", "operator:type": "public", "operator:wikidata": "Q668687", "ref": "6765400005"}, "type": "Feature"}
{"dataset_attributes": {"@spider": "usps_collection_boxes", "spider:collection_time": "2023-11-22T08:26:05.887177"}, "geometry": {"coordinates": [-99.886998004, 39.828093579], "type": "Point"}, "id": "skAIo4Mztyn0HgvS1OjKt7OJDxs=", "properties": {"@spider": "usps_collection_boxes", "addr:city": "NORTON", "addr:country": "US", "addr:full": "302 E WASHINGTON ST", "addr:postcode": "67654", "addr:state": "KS", "amenity": "post_box", "brand": "United States Postal Service", "brand:wikidata": "Q668687", "collection_times": "Mo-Fr 11:15; Sa 10:45", "name": "USPS COLLECTION BOX - PO LOBBY", "nsi_id": "unitedstatespostalservice-a77078", "operator": "United States Postal Service", "operator:short": "USPS", "operator:type": "public", "operator:wikidata": "Q668687", "ref": "6765400006"}, "type": "Feature"}
{"dataset_attributes": {"@spider": "usps_collection_boxes", "spider:collection_time": "2023-11-22T08:26:05.887177"}, "geometry": {"coordinates": [-99.563043639, 39.252893787], "type": "Point"}, "id": "ZHuQtoSNCgovjMGMeTPwJeMhZ2A=", "properties": {"@spider": "usps_collection_boxes", "addr:city": "PALCO", "addr:country": "US", "addr:full": "411 MAIN ST", "addr:postcode": "67657", "addr:state": "KS", "amenity": "post_box", "brand": "United States Postal Service", "brand:wikidata": "Q668687", "collection_times": "Mo-Fr 11:45; Sa 08:30", "name": "USPS COLLECTION BOX - BLUE BOX", "nsi_id": "unitedstatespostalservice-a77078", "operator": "United States Postal Service", "operator:short": "USPS", "operator:type": "public", "operator:wikidata": "Q668687", "ref": "6765700001"}, "type": "Feature"}
{"dataset_attributes": {"@spider": "usps_collection_boxes", "spider:collection_time": "2023-11-22T08:26:05.887177"}, "geometry": {"coordinates": [-99.563043639, 39.252893787], "type": "Point"}, "id": "z48Ft4ihZgRZ4snw_z4Ua2L4IZs=", "properties": {"@spider": "usps_collection_boxes", "addr:city": "PALCO", "addr:country": "US", "addr:full": "411 MAIN ST", "addr:postcode": "67657", "addr:state": "KS", "amenity": "post_box", "brand": "United States Postal Service", "brand:wikidata": "Q668687", "collection_times": "Mo-Fr 11:45; Sa 08:30", "name": "USPS COLLECTION BOX - PO LOBBY", "nsi_id": "unitedstatespostalservice-a77078", "operator": "United States Postal Service", "operator:short": "USPS", "operator:type": "public", "operator:wikidata": "Q668687", "ref": "6765700002"}, "type": "Feature"}
{"dataset_attributes": {"@spider": "usps_collection_boxes", "spider:collection_time": "2023-11-22T08:26:05.887177"}, "geometry": {"coordinates": [-99.563043639, 39.252893787], "type": "Point"}, "id": "tSaaUSbXRgD5z8uU19GSTgbwIok=", "properties": {"@spider": "usps_collection_boxes", "addr:city": "PALCO", "addr:country": "US", "addr:full": "411 MAIN ST", "addr:postcode": "67657", "addr:state": "KS", "amenity": "post_box", "brand": "United States Postal Service", "brand:wikidata": "Q668687", "collection_times": "Mo-Fr 11:45; Sa 08:30", "name": "USPS COLLECTION BOX - PO LOBBY", "nsi_id": "unitedstatespostalservice-a77078", "operator": "United States Postal Service", "operator:short": "USPS", "operator:type": "public", "operator:wikidata": "Q668687", "ref": "6765700003"}, "type": "Feature"}
{"dataset_attributes": {"@spider": "usps_collection_boxes", "spider:collection_time": "2023-11-22T08:26:05.887177"}, "geometry": {"coordinates": [-98.9182929, 39.114733], "type": "Point"}, "id": "jpaxu1QZjcvvveb_TzQUxBjBZC4=", "properties": {"@spider": "usps_collection_boxes", "addr:city": "PARADISE", "addr:country": "US", "addr:full": "116 MAIN ST", "addr:postcode": "67658", "addr:state": "KS", "amenity": "post_box", "brand": "United States Postal Service", "brand:wikidata": "Q668687", "collection_times": "Mo-Fr 11:15; Sa 09:00", "name": "USPS COLLECTION BOX - BLUE BOX", "nsi_id": "unitedstatespostalservice-a77078", "operator": "United States Postal Service", "operator:short": "USPS", "operator:type": "public", "operator:wikidata": "Q668687", "ref": "6765800001"}, "type": "Feature"}
{"dataset_attributes": {"@spider": "usps_collection_boxes", "spider:collection_time": "2023-11-22T08:26:05.887177"}, "geometry": {"coordinates": [-98.9183559, 39.114813], "type": "Point"}, "id": "aTe3s_z2HIRWIbQrSg-e36kRGYM=", "properties": {"@spider": "usps_collection_boxes", "addr:city": "PARADISE", "addr:country": "US", "addr:full": "116 MAIN ST", "addr:postcode": "67658", "addr:state": "KS", "amenity": "post_box", "brand": "United States Postal Service", "brand:wikidata": "Q668687", "collection_times": "Mo-Fr 11:15; Sa 09:15", "name": "USPS COLLECTION BOX - PO LOBBY", "nsi_id": "unitedstatespostalservice-a77078", "operator": "United States Postal Service", "operator:short": "USPS", "operator:type": "public", "operator:wikidata": "Q668687", "ref": "6765800002"}, "type": "Feature"}
{"dataset_attributes": {"@spider": "usps_collection_boxes", "spider:collection_time": "2023-11-22T08:26:05.887177"}, "geometry": {"coordinates": [-98.918161405, 39.114702418], "type": "Point"}, "id": "r4tNcv5UfOVuTzf_dRJyJRI4QWQ=", "properties": {"@spider": "usps_collection_boxes", "addr:city": "PARADISE", "addr:country": "US", "addr:full": "116 MAIN ST", "addr:postcode": "67658", "addr:state": "KS", "amenity": "post_box", "brand": "United States Postal Service", "brand:wikidata": "Q668687", "collection_times": "Mo-Fr 11:15; Sa 09:15", "name": "USPS COLLECTION BOX - PO LOBBY", "nsi_id": "unitedstatespostalservice-a77078", "operator": "United States Postal Service", "operator:short": "USPS", "operator:type": "public", "operator:wikidata": "Q668687", "ref": "6765800003"}, "type": "Feature"}
{"dataset_attributes": {"@spider": "usps_collection_boxes", "spider:collection_time": "2023-11-22T08:26:05.887177"}, "geometry": {"coordinates": [-99.3255116, 39.758105], "type": "Point"}, "id": "gnnaHcZaTd7xMwCsikd2A1dHzCA=", "properties": {"@spider": "usps_collection_boxes", "addr:city": "PHILLIPSBURG", "addr:country": "US", "addr:full": "888 2ND ST", "addr:postcode": "67661", "addr:state": "KS", "amenity": "post_box", "brand": "United States Postal Service", "brand:wikidata": "Q668687", "collection_times": "Mo-Fr 12:15; Sa 10:15", "name": "USPS COLLECTION BOX - BLUE BOX", "note": "ON 12/24 AND 12/31, THIS BOX MAY BE COLLECTED AS EARLY AS 12 NOON.", "nsi_id": "unitedstatespostalservice-a77078", "operator": "United States Postal Service", "operator:short": "USPS", "operator:type": "public", "operator:wikidata": "Q668687", "ref": "6766100002"}, "type": "Feature"}
{"dataset_attributes": {"@spider": "usps_collection_boxes", "spider:collection_time": "2023-11-22T08:26:05.887177"}, "geometry": {"coordinates": [-99.326001, 39.758015], "type": "Point"}, "id": "vEQT9rtC94kZI0fVxJlIg0_2loo=", "properties": {"@spider": "usps_collection_boxes", "addr:city": "PHILLIPSBURG", "addr:country": "US", "addr:full": "888 2ND ST", "addr:postcode": "67661", "addr:state": "KS", "amenity": "post_box", "brand": "United States Postal Service", "brand:wikidata": "Q668687", "collection_times": "Mo-Fr 12:15; Sa 10:15", "name": "USPS COLLECTION BOX - PO LOBBY", "note": "ON 12/24 AND 12/31, THIS BOX MAY BE COLLECTED AS EARLY AS 12 NOON.", "nsi_id": "unitedstatespostalservice-a77078", "operator": "United States Postal Service", "operator:short": "USPS", "operator:type": "public", "operator:wikidata": "Q668687", "ref": "6766100004"}, "type": "Feature"}
{"dataset_attributes": {"@spider": "usps_collection_boxes", "spider:collection_time": "2023-11-22T08:26:05.887177"}, "geometry": {"coordinates": [-99.325967708, 39.757806], "type": "Point"}, "id": "7IqF9DcNF7LuXmqAw0USBWoHJSU=", "properties": {"@spider": "usps_collection_boxes", "addr:city": "PHILLIPSBURG", "addr:country": "US", "addr:full": "888 2ND ST", "addr:postcode": "67661", "addr:state": "KS", "amenity": "post_box", "brand": "United States Postal Service", "brand:wikidata": "Q668687", "collection_times": "Mo-Fr 12:15; Sa 10:15", "name": "USPS COLLECTION BOX - PO LOBBY", "note": "ON 12/24 AND 12/31, THIS BOX MAY BE COLLECTED AS EARLY AS 12 NOON.", "nsi_id": "unitedstatespostalservice-a77078", "operator": "United States Postal Service", "operator:short": "USPS", "operator:type": "public", "operator:wikidata": "Q668687", "ref": "6766100005"}, "type": "Feature"}
{"dataset_attributes": {"@spider": "usps_collection_boxes", "spider:collection_time": "2023-11-22T08:26:05.887177"}, "geometry": {"coordinates": [-99.3010074308, 39.2342772152], "type": "Point"}, "id": "FgeEHsGr5CeWtRtIra0hHvbtRyg=", "properties": {"@spider": "usps_collection_boxes", "addr:city": "PLAINVILLE", "addr:country": "US", "addr:full": "111 S MAIN ST", "addr:postcode": "67663", "addr:state": "KS", "amenity": "post_box", "brand": "United States Postal Service", "brand:wikidata": "Q668687", "collection_times": "Mo-Fr 12:45; Sa 10:45", "name": "USPS COLLECTION BOX - BLUE BOX", "note": "ON 12/24 AND 12/31, THIS BOX MAY BE COLLECTED AS EARLY AS 12 NOON.", "nsi_id": "unitedstatespostalservice-a77078", "operator": "United States Postal Service", "operator:short": "USPS", "operator:type": "public", "operator:wikidata": "Q668687", "ref": "6766300002"}, "type": "Feature"}
{"dataset_attributes": {"@spider": "usps_collection_boxes", "spider:collection_time": "2023-11-22T08:26:05.887177"}, "geometry": {"coordinates": [-99.3010074308, 39.2342772152], "type": "Point"}, "id": "PAJMBHjma-X8bJ3ArAe1B6bMUiQ=", "properties": {"@spider": "usps_collection_boxes", "addr:city": "PLAINVILLE", "addr:country": "US", "addr:full": "111 S MAIN ST", "addr:postcode": "67663", "addr:state": "KS", "amenity": "post_box", "brand": "United States Postal Service", "brand:wikidata": "Q668687", "collection_times": "Mo-Fr 12:45; Sa 10:45", "name": "USPS COLLECTION BOX - PO LOBBY", "note": "ON 12/24 AND 12/31, THIS BOX MAY BE COLLECTED AS EARLY AS 12 NOON.", "nsi_id": "unitedstatespostalservice-a77078", "operator": "United States Postal Service", "operator:short": "USPS", "operator:type": "public", "operator:wikidata": "Q668687", "ref": "6766300006"}, "type": "Feature"}
{"dataset_attributes": {"@spider": "usps_collection_boxes", "spider:collection_time": "2023-11-22T08:26:05.887177"}, "geometry": {"coordinates": [-99.3010074308, 39.2342772152], "type": "Point"}, "id": "XvYmyjUZGz4Gyj_AgdCmzcmGxFE=", "properties": {"@spider": "usps_collection_boxes", "addr:city": "PLAINVILLE", "addr:country": "US", "addr:full": "111 S MAIN ST", "addr:postcode": "67663", "addr:state": "KS", "amenity": "post_box", "brand": "United States Postal Service", "brand:wikidata": "Q668687", "collection_times": "Mo-Fr 12:45; Sa 10:45", "name": "USPS COLLECTION BOX - PO LOBBY", "note": "ON 12/24 AND 12/31, THIS BOX MAY BE COLLECTED AS EARLY AS 12 NOON.", "nsi_id": "unitedstatespostalservice-a77078", "operator": "United States Postal Service", "operator:short": "USPS", "operator:type": "public", "operator:wikidata": "Q668687", "ref": "6766300009"}, "type": "Feature"}
{"dataset_attributes": {"@spider": "usps_collection_boxes", "spider:collection_time": "2023-11-22T08:26:05.887177"}, "geometry": {"coordinates": [-99.574095, 39.832391], "type": "Point"}, "id": "J0uy8RYnQ8YDJbpmglg3bJFomFs=", "properties": {"@spider": "usps_collection_boxes", "addr:city": "PRAIRIE VIEW", "addr:country": "US", "addr:full": "401 MAIN ST", "addr:postcode": "67664", "addr:state": "KS", "amenity": "post_box", "brand": "United States Postal Service", "brand:wikidata": "Q668687", "collection_times": "Mo-Fr 10:45; Sa 09:45", "name": "USPS COLLECTION BOX - BLUE BOX", "nsi_id": "unitedstatespostalservice-a77078", "operator": "United States Postal Service", "operator:short": "USPS", "operator:type": "public", "operator:wikidata": "Q668687", "ref": "6766400001"}, "type": "Feature"}
{"dataset_attributes": {"@spider": "usps_collection_boxes", "spider:collection_time": "2023-11-22T08:26:05.887177"}, "geometry": {"coordinates": [-99.574095, 39.832391], "type": "Point"}, "id": "22WB98dRv2fHTPo_gCxthklawY8=", "properties": {"@spider": "usps_collection_boxes", "addr:city": "PRAIRIE VIEW", "addr:country": "US", "addr:full": "401 MAIN ST", "addr:postcode": "67664", "addr:state": "KS", "amenity": "post_box", "brand": "United States Postal Service", "brand:wikidata": "Q668687", "collection_times": "Mo-Fr 10:45; Sa 09:45", "name": "USPS COLLECTION BOX - PO LOBBY", "nsi_id": "unitedstatespostalservice-a77078", "operator": "United States Postal Service", "operator:short": "USPS", "operator:type": "public", "operator:wikidata": "Q668687", "ref": "6766400002"}, "type": "Feature"}
{"dataset_attributes": {"@spider": "usps_collection_boxes", "spider:collection_time": "2023-11-22T08:26:05.887177"}, "geometry": {"coordinates": [-99.574097284, 39.832487497], "type": "Point"}, "id": "8z_HfsBXnALObKClmL84oplWNiU=", "properties": {"@spider": "usps_collection_boxes", "addr:city": "PRAIRIE VIEW", "addr:country": "US", "addr:full": "401 MAIN ST", "addr:postcode": "67664", "addr:state": "KS", "amenity": "post_box", "brand": "United States Postal Service", "brand:wikidata": "Q668687", "collection_times": "Mo-Fr 10:45; Sa 09:45", "name": "USPS COLLECTION BOX - PO LOBBY", "nsi_id": "unitedstatespostalservice-a77078", "operator": "United States Postal Service", "operator:short": "USPS", "operator:type": "public", "operator:wikidata": "Q668687", "ref": "6766400003"}, "type": "Feature"}
{"dataset_attributes": {"@spider": "usps_collection_boxes", "spider:collection_time": "2023-11-22T08:26:05.887177"}, "geometry": {"coordinates": [-98.8610023, 38.891543], "type": "Point"}, "id": "0gghRs6do_RTl6jAILIdtSxgYx0=", "properties": {"@spider": "usps_collection_boxes", "addr:city": "RUSSELL", "addr:country": "US", "addr:full": "135 W WISCONSIN ST", "addr:postcode": "67665", "addr:state": "KS", "amenity": "post_box", "brand": "United States Postal Service", "brand:wikidata": "Q668687", "collection_times": "Mo-Fr 12:15; Sa 11:15", "name": "USPS COLLECTION BOX - BLUE BOX", "note": "ON 12/24 AND 12/31, THIS BOX MAY BE COLLECTED AS EARLY AS 12 NOON.", "nsi_id": "unitedstatespostalservice-a77078", "operator": "United States Postal Service", "operator:short": "USPS", "operator:type": "public", "operator:wikidata": "Q668687", "ref": "6766500006"}, "type": "Feature"}
{"dataset_attributes": {"@spider": "usps_collection_boxes", "spider:collection_time": "2023-11-22T08:26:05.887177"}, "geometry": {"coordinates": [-98.8607634, 38.891406], "type": "Point"}, "id": "7PNnnT4LhECk1FrI477r02O3Oeg=", "properties": {"@spider": "usps_collection_boxes", "addr:city": "RUSSELL", "addr:country": "US", "addr:full": "135 W WISCONSIN ST", "addr:postcode": "67665", "addr:state": "KS", "amenity": "post_box", "brand": "United States Postal Service", "brand:wikidata": "Q668687", "collection_times": "Mo-Fr 12:15; Sa 11:15", "name": "USPS COLLECTION BOX - PO LOBBY", "note": "ON 12/24 AND 12/31, THIS BOX MAY BE COLLECTED AS EARLY AS 12 NOON.", "nsi_id": "unitedstatespostalservice-a77078", "operator": "United States Postal Service", "operator:short": "USPS", "operator:type": "public", "operator:wikidata": "Q668687", "ref": "6766500008"}, "type": "Feature"}
{"dataset_attributes": {"@spider": "usps_collection_boxes", "spider:collection_time": "2023-11-22T08:26:05.887177"}, "geometry": {"coordinates": [-98.860784338, 38.891154519], "type": "Point"}, "id": "CrhYf29qnb9__HGr9zDQU8gg3XU=", "properties": {"@spider": "usps_collection_boxes", "addr:city": "RUSSELL", "addr:country": "US", "addr:full": "135 W 6TH ST", "addr:postcode": "67665", "addr:state": "KS", "amenity": "post_box", "brand": "United States Postal Service", "brand:wikidata": "Q668687", "collection_times": "Mo-Fr 12:15; Sa 11:15", "name": "USPS COLLECTION BOX - PO LOBBY", "note": "ON 12/24 AND 12/31, THIS BOX MAY BE COLLECTED AS EARLY AS 12 NOON.", "nsi_id": "unitedstatespostalservice-a77078", "operator": "United States Postal Service", "operator:short": "USPS", "operator:type": "public", "operator:wikidata": "Q668687", "ref": "6766500012"}, "type": "Feature"}
{"dataset_attributes": {"@spider": "usps_collection_boxes", "spider:collection_time": "2023-11-22T08:26:05.887177"}, "geometry": {"coordinates": [-99.2735774, 39.435965], "type": "Point"}, "id": "AvaornY9repNc-i6zKtaokQj2bE=", "properties": {"@spider": "usps_collection_boxes", "addr:city": "STOCKTON", "addr:country": "US", "addr:full": "116 S WALNUT ST", "addr:postcode": "67669", "addr:state": "KS", "amenity": "post_box", "brand": "United States Postal Service", "brand:wikidata": "Q668687", "collection_times": "Mo-Fr 13:45; Sa 09:45", "name": "USPS COLLECTION BOX - BLUE BOX", "note": "ON 12/24 AND 12/31, THIS BOX MAY BE COLLECTED AS EARLY AS 12 NOON.", "nsi_id": "unitedstatespostalservice-a77078", "operator": "United States Postal Service", "operator:short": "USPS", "operator:type": "public", "operator:wikidata": "Q668687", "ref": "6766900002"}, "type": "Feature"}
{"dataset_attributes": {"@spider": "usps_collection_boxes", "spider:collection_time": "2023-11-22T08:26:05.887177"}, "geometry": {"coordinates": [-99.2736551159, 39.4363452122], "type": "Point"}, "id": "r6FMtcTOUMWrgDolVMW_v_ODSMk=", "properties": {"@spider": "usps_collection_boxes", "addr:city": "STOCKTON", "addr:country": "US", "addr:full": "124 S WALNUT ST", "addr:postcode": "67669", "addr:state": "KS", "amenity": "post_box", "brand": "United States Postal Service", "brand:wikidata": "Q668687", "collection_times": "Mo-Fr 13:45; Sa 09:45", "name": "USPS COLLECTION BOX - PO LOBBY", "note": "ON 12/24 AND 12/31, THIS BOX MAY BE COLLECTED AS EARLY AS 12 NOON.", "nsi_id": "unitedstatespostalservice-a77078", "operator": "United States Postal Service", "operator:short": "USPS", "operator:type": "public", "operator:wikidata": "Q668687", "ref": "6766900003"}, "type": "Feature"}
{"dataset_attributes": {"@spider": "usps_collection_boxes", "spider:collection_time": "2023-11-22T08:26:05.887177"}, "geometry": {"coordinates": [-99.2736551159, 39.4363452122], "type": "Point"}, "id": "vxaqNkaVoafk1ZVeUHFWaUr7sLI=", "properties": {"@spider": "usps_collection_boxes", "addr:city": "STOCKTON", "addr:country": "US", "addr:full": "124 S WALNUT ST", "addr:postcode": "67669", "addr:state": "KS", "amenity": "post_box", "brand": "United States Postal Service", "brand:wikidata": "Q668687", "collection_times": "Mo-Fr 13:45; Sa 09:45", "name": "USPS COLLECTION BOX - PO LOBBY", "note": "ON 12/24 AND 12/31, THIS BOX MAY BE COLLECTED AS EARLY AS 12 NOON.", "nsi_id": "unitedstatespostalservice-a77078", "operator": "United States Postal Service", "operator:short": "USPS", "operator:type": "public", "operator:wikidata": "Q668687", "ref": "6766900004"}, "type": "Feature"}
{"dataset_attributes": {"@spider": "usps_collection_boxes", "spider:collection_time": "2023-11-22T08:26:05.887177"}, "geometry": {"coordinates": [-99.1471764, 38.850305], "type": "Point"}, "id": "N6QnK1NXKzl2z_T96Lo29LSmcTQ=", "properties": {"@spider": "usps_collection_boxes", "addr:city": "VICTORIA", "addr:country": "US", "addr:full": "1003 4TH ST", "addr:postcode": "67671", "addr:state": "KS", "amenity": "post_box", "brand": "United States Postal Service", "brand:wikidata": "Q668687", "collection_times": "Mo-Fr 12:55; Sa 08:15", "name": "USPS COLLECTION BOX - BLUE BOX", "note": "ON 12/24 AND 12/31, THIS BOX MAY BE COLLECTED AS EARLY AS 12 NOON.", "nsi_id": "unitedstatespostalservice-a77078", "operator": "United States Postal Service", "operator:short": "USPS", "operator:type": "public", "operator:wikidata": "Q668687", "ref": "6767100001"}, "type": "Feature"}
{"dataset_attributes": {"@spider": "usps_collection_boxes", "spider:collection_time": "2023-11-22T08:26:05.887177"}, "geometry": {"coordinates": [-99.146772, 38.850107], "type": "Point"}, "id": "m_uizTh89LcjUZnH5iNdbSE85ro=", "properties": {"@spider": "usps_collection_boxes", "addr:city": "VICTORIA", "addr:country": "US", "addr:full": "1003 4TH ST", "addr:postcode": "67671", "addr:state": "KS", "amenity": "post_box", "brand": "United States Postal Service", "brand:wikidata": "Q668687", "collection_times": "Mo-Fr 13:00; Sa 08:15", "name": "USPS COLLECTION BOX - PO LOBBY", "note": "ON 12/24 AND 12/31, THIS BOX MAY BE COLLECTED AS EARLY AS 12 NOON.", "nsi_id": "unitedstatespostalservice-a77078", "operator": "United States Postal Service", "operator:short": "USPS", "operator:type": "public", "operator:wikidata": "Q668687", "ref": "6767100002"}, "type": "Feature"}
{"dataset_attributes": {"@spider": "usps_collection_boxes", "spider:collection_time": "2023-11-22T08:26:05.887177"}, "geometry": {"coordinates": [-99.1467485718, 38.8500866806], "type": "Point"}, "id": "Ya1f7Gf99j4XnKUxpcHLYXCT8w8=", "properties": {"@spider": "usps_collection_boxes", "addr:city": "VICTORIA", "addr:country": "US", "addr:full": "1003 4TH ST", "addr:postcode": "67671", "addr:state": "KS", "amenity": "post_box", "brand": "United States Postal Service", "brand:wikidata": "Q668687", "collection_times": "Mo-Fr 13:00; Sa 08:15", "name": "USPS COLLECTION BOX - PO LOBBY", "note": "ON 12/24 AND 12/31, THIS BOX MAY BE COLLECTED AS EARLY AS 12 NOON.", "nsi_id": "unitedstatespostalservice-a77078", "operator": "United States Postal Service", "operator:short": "USPS", "operator:type": "public", "operator:wikidata": "Q668687", "ref": "6767100003"}, "type": "Feature"}
{"dataset_attributes": {"@spider": "usps_collection_boxes", "spider:collection_time": "2023-11-22T08:26:05.887177"}, "geometry": {"coordinates": [-99.885351, 39.025495], "type": "Point"}, "id": "_TRQCg9QKalOsq8aySsKMdu5_tw=", "properties": {"@spider": "usps_collection_boxes", "addr:city": "WAKEENEY", "addr:country": "US", "addr:full": "407 RUSSELL AVE", "addr:postcode": "67672", "addr:state": "KS", "amenity": "post_box", "brand": "United States Postal Service", "brand:wikidata": "Q668687", "collection_times": "Mo-Fr 12:15; Sa 08:45", "name": "USPS COLLECTION BOX - BLUE BOX", "note": "ON 12/24 AND 12/31, THIS BOX MAY BE COLLECTED AS EARLY AS 12 NOON.", "nsi_id": "unitedstatespostalservice-a77078", "operator": "United States Postal Service", "operator:short": "USPS", "operator:type": "public", "operator:wikidata": "Q668687", "ref": "6767200002"}, "type": "Feature"}
{"dataset_attributes": {"@spider": "usps_collection_boxes", "spider:collection_time": "2023-11-22T08:26:05.887177"}, "geometry": {"coordinates": [-99.885453, 39.025522], "type": "Point"}, "id": "dl5EhLkXx0nAiyGnhwD70rR0K6Y=", "properties": {"@spider": "usps_collection_boxes", "addr:city": "WAKEENEY", "addr:country": "US", "addr:full": "407 RUSSELL AVE", "addr:postcode": "67672", "addr:state": "KS", "amenity": "post_box", "brand": "United States Postal Service", "brand:wikidata": "Q668687", "collection_times": "Mo-Fr 12:15; Sa 08:45", "name": "USPS COLLECTION BOX - PO LOBBY", "note": "ON 12/24 AND 12/31, THIS BOX MAY BE COLLECTED AS EARLY AS 12 NOON.", "nsi_id": "unitedstatespostalservice-a77078", "operator": "United States Postal Service", "operator:short": "USPS", "operator:type": "public", "operator:wikidata": "Q668687", "ref": "6767200003"}, "type": "Feature"}
{"dataset_attributes": {"@spider": "usps_collection_boxes", "spider:collection_time": "2023-11-22T08:26:05.887177"}, "geometry": {"coordinates": [-99.885385984, 39.025437508], "type": "Point"}, "id": "C1SVvaInZnCLKrDeldAZcVuoqV0=", "properties": {"@spider": "usps_collection_boxes", "addr:city": "WAKEENEY", "addr:country": "US", "addr:full": "407 RUSSELL AVE", "addr:postcode": "67672", "addr:state": "KS", "amenity": "post_box", "brand": "United States Postal Service", "brand:wikidata": "Q668687", "collection_times": "Mo-Fr 12:15; Sa 08:45", "name": "USPS COLLECTION BOX - PO LOBBY", "note": "ON 12/24 AND 12/31, THIS BOX MAY BE COLLECTED AS EARLY AS 12 NOON.", "nsi_id": "unitedstatespostalservice-a77078", "operator": "United States Postal Service", "operator:short": "USPS", "operator:type": "public", "operator:wikidata": "Q668687", "ref": "6767200004"}, "type": "Feature"}
{"dataset_attributes": {"@spider": "usps_collection_boxes", "spider:collection_time": "2023-11-22T08:26:05.887177"}, "geometry": {"coordinates": [-98.798327, 39.119898], "type": "Point"}, "id": "dsqFswUfoT9T6T31KpVyyrmr3UM=", "properties": {"@spider": "usps_collection_boxes", "addr:city": "WALDO", "addr:country": "US", "addr:full": "422 MAIN ST", "addr:postcode": "67673", "addr:state": "KS", "amenity": "post_box", "brand": "United States Postal Service", "brand:wikidata": "Q668687", "collection_times": "Mo-Sa 11:15", "name": "USPS COLLECTION BOX - BLUE BOX", "nsi_id": "unitedstatespostalservice-a77078", "operator": "United States Postal Service", "operator:short": "USPS", "operator:type": "public", "operator:wikidata": "Q668687", "ref": "6767300001"}, "type": "Feature"}
{"dataset_attributes": {"@spider": "usps_collection_boxes", "spider:collection_time": "2023-11-22T08:26:05.887177"}, "geometry": {"coordinates": [-98.798327, 39.119898], "type": "Point"}, "id": "BWRGvFOhKr80qlb7IdEItmwlIi4=", "properties": {"@spider": "usps_collection_boxes", "addr:city": "WALDO", "addr:country": "US", "addr:full": "422 MAIN ST", "addr:postcode": "67673", "addr:state": "KS", "amenity": "post_box", "brand": "United States Postal Service", "brand:wikidata": "Q668687", "collection_times": "Mo-Sa 11:15", "name": "USPS COLLECTION BOX - PO LOBBY", "nsi_id": "unitedstatespostalservice-a77078", "operator": "United States Postal Service", "operator:short": "USPS", "operator:type": "public", "operator:wikidata": "Q668687", "ref": "6767300002"}, "type": "Feature"}
{"dataset_attributes": {"@spider": "usps_collection_boxes", "spider:collection_time": "2023-11-22T08:26:05.887177"}, "geometry": {"coordinates": [-98.798349348, 39.120318356], "type": "Point"}, "id": "9YC2hidLHJAtkcMeWjvyGXqPOro=", "properties": {"@spider": "usps_collection_boxes", "addr:city": "WALDO", "addr:country": "US", "addr:full": "422 MAIN ST", "addr:postcode": "67673", "addr:state": "KS", "amenity": "post_box", "brand": "United States Postal Service", "brand:wikidata": "Q668687", "collection_times": "Mo-Sa 11:15", "name": "USPS COLLECTION BOX - PO LOBBY", "nsi_id": "unitedstatespostalservice-a77078", "operator": "United States Postal Service", "operator:short": "USPS", "operator:type": "public", "operator:wikidata": "Q668687", "ref": "6767300003"}, "type": "Feature"}
{"dataset_attributes": {"@spider": "usps_collection_boxes", "spider:collection_time": "2023-11-22T08:26:05.887177"}, "geometry": {"coordinates": [-99.099548, 39.453479], "type": "Point"}, "id": "ncR5EEHvNe-ekXmFqS4kiWyqVak=", "properties": {"@spider": "usps_collection_boxes", "addr:city": "WOODSTON", "addr:country": "US", "addr:full": "508 MAIN ST", "addr:postcode": "67675", "addr:state": "KS", "amenity": "post_box", "brand": "United States Postal Service", "brand:wikidata": "Q668687", "collection_times": "Mo-Fr 09:15; Sa 08:15", "name": "USPS COLLECTION BOX - BLUE BOX", "nsi_id": "unitedstatespostalservice-a77078", "operator": "United States Postal Service", "operator:short": "USPS", "operator:type": "public", "operator:wikidata": "Q668687", "ref": "6767500001"}, "type": "Feature"}
{"dataset_attributes": {"@spider": "usps_collection_boxes", "spider:collection_time": "2023-11-22T08:26:05.887177"}, "geometry": {"coordinates": [-99.099548, 39.453479], "type": "Point"}, "id": "zIjOTjcoqj45FQPs3IulfEd1mps=", "properties": {"@spider": "usps_collection_boxes", "addr:city": "WOODSTON", "addr:country": "US", "addr:full": "508 MAIN ST", "addr:postcode": "67675", "addr:state": "KS", "amenity": "post_box", "brand": "United States Postal Service", "brand:wikidata": "Q668687", "collection_times": "Mo-Fr 09:15; Sa 08:15", "name": "USPS COLLECTION BOX - PO LOBBY", "nsi_id": "unitedstatespostalservice-a77078", "operator": "United States Postal Service", "operator:short": "USPS", "operator:type": "public", "operator:wikidata": "Q668687", "ref": "6767500002"}, "type": "Feature"}
{"dataset_attributes": {"@spider": "usps_collection_boxes", "spider:collection_time": "2023-11-22T08:26:05.887177"}, "geometry": {"coordinates": [-99.099493233, 39.453547461], "type": "Point"}, "id": "rxxTsqJmd66_Y24HJ89V6gmynJc=", "properties": {"@spider": "usps_collection_boxes", "addr:city": "WOODSTON", "addr:country": "US", "addr:full": "508 MAIN ST", "addr:postcode": "67675", "addr:state": "KS", "amenity": "post_box", "brand": "United States Postal Service", "brand:wikidata": "Q668687", "collection_times": "Mo-Fr 09:15", "name": "USPS COLLECTION BOX - PO LOBBY", "nsi_id": "unitedstatespostalservice-a77078", "operator": "United States Postal Service", "operator:short": "USPS", "operator:type": "public", "operator:wikidata": "Q668687", "ref": "6767500003"}, "type": "Feature"}
