{"dataset_attributes": {"@spider": "usps_collection_boxes", "spider:collection_time": "2023-11-16T08:25:30.774899"}, "geometry": {"coordinates": [-101.043346, 39.398361], "type": "Point"}, "id": "6Ha6rRCzsKMHDbP-y_q13RQssJY=", "properties": {"@spider": "usps_collection_boxes", "addr:city": "COLBY", "addr:country": "US", "addr:full": "535 N COURT AVE", "addr:postcode": "67701", "addr:state": "KS", "amenity": "post_box", "brand": "United States Postal Service", "brand:wikidata": "Q668687", "collection_times": "Mo-Sa 16:45", "name": "USPS COLLECTION BOX - BLUE BOX", "note": "ON 12/24 AND 12/31, THIS BOX MAY BE COLLECTED AS EARLY AS 12 NOON.", "nsi_id": "unitedstatespostalservice-a77078", "operator": "United States Postal Service", "operator:short": "USPS", "operator:type": "public", "operator:wikidata": "Q668687", "ref": "6770100001"}, "type": "Feature"}
{"dataset_attributes": {"@spider": "usps_collection_boxes", "spider:collection_time": "2023-11-16T08:25:30.774899"}, "geometry": {"coordinates": [-101.055171, 39.392049], "type": "Point"}, "id": "y0b6shLFtzxSPYLn-rxGMljOsv8=", "properties": {"@spider": "usps_collection_boxes", "addr:city": "COLBY", "addr:country": "US", "addr:full": "350 S RANGE AVE", "addr:postcode": "67701", "addr:state": "KS", "amenity": "post_box", "brand": "United States Postal Service", "brand:wikidata": "Q668687", "collection_times": "Mo-Sa 08:30", "name": "USPS COLLECTION BOX - BLUE BOX", "nsi_id": "unitedstatespostalservice-a77078", "operator": "United States Postal Service", "operator:short": "USPS", "operator:type": "public", "operator:wikidata": "Q668687", "ref": "6770100005"}, "type": "Feature"}
{"dataset_attributes": {"@spider": "usps_collection_boxes", "spider:collection_time": "2023-11-16T08:25:30.774899"}, "geometry": {"coordinates": [-101.043346, 39.398361], "type": "Point"}, "id": "oqIPT5EPYVt-rsCQGw5oiCmy7nQ=", "properties": {"@spider": "usps_collection_boxes", "addr:city": "COLBY", "addr:country": "US", "addr:full": "535 N COURT AVE", "addr:postcode": "67701", "addr:state": "KS", "amenity": "post_box", "brand": "United States Postal Service", "brand:wikidata": "Q668687", "collection_times": "Mo-Sa 16:45", "name": "USPS COLLECTION BOX - PO LOBBY", "note": "ON 12/24 AND 12/31, THIS BOX MAY BE COLLECTED AS EARLY AS 12 NOON.", "nsi_id": "unitedstatespostalservice-a77078", "operator": "United States Postal Service", "operator:short": "USPS", "operator:type": "public", "operator:wikidata": "Q668687", "ref": "6770100009"}, "type": "Feature"}
{"dataset_attributes": {"@spider": "usps_collection_boxes", "spider:collection_time": "2023-11-16T08:25:30.774899"}, "geometry": {"coordinates": [-101.043344412, 39.398490671], "type": "Point"}, "id": "d5CYjMCpm-bNDL4LLeA3-QZHP8o=", "properties": {"@spider": "usps_collection_boxes", "addr:city": "COLBY", "addr:country": "US", "addr:full": "535 N COURT AVE", "addr:postcode": "67701", "addr:state": "KS", "amenity": "post_box", "brand": "United States Postal Service", "brand:wikidata": "Q668687", "collection_times": "Mo-Fr 17:00; Sa 11:30", "name": "USPS COLLECTION BOX - PO LOBBY", "note": "ON 12/24 AND 12/31, THIS BOX MAY BE COLLECTED AS EARLY AS 12 NOON.", "nsi_id": "unitedstatespostalservice-a77078", "operator": "United States Postal Service", "operator:short": "USPS", "operator:type": "public", "operator:wikidata": "Q668687", "ref": "6770100011"}, "type": "Feature"}
{"dataset_attributes": {"@spider": "usps_collection_boxes", "spider:collection_time": "2023-11-16T08:25:30.774899"}, "geometry": {"coordinates": [-101.040188, 39.807591], "type": "Point"}, "id": "kz78Ny7d8_0pzYbsZl6nCPYHeT4=", "properties": {"@spider": "usps_collection_boxes", "addr:city": "ATWOOD", "addr:country": "US", "addr:full": "501 MAIN ST", "addr:postcode": "67730", "addr:state": "KS", "amenity": "post_box", "brand": "United States Postal Service", "brand:wikidata": "Q668687", "collection_times": "Mo-Fr 14:35; Sa 09:45", "name": "USPS COLLECTION BOX - BLUE BOX", "note": "ON 12/24 AND 12/31, THIS BOX MAY BE COLLECTED AS EARLY AS 12 NOON.", "nsi_id": "unitedstatespostalservice-a77078", "operator": "United States Postal Service", "operator:short": "USPS", "operator:type": "public", "operator:wikidata": "Q668687", "ref": "6773000002"}, "type": "Feature"}
{"dataset_attributes": {"@spider": "usps_collection_boxes", "spider:collection_time": "2023-11-16T08:25:30.774899"}, "geometry": {"coordinates": [-101.040188, 39.807591], "type": "Point"}, "id": "S0yB-hrBGEGlszvtN4R1JzY_8qI=", "properties": {"@spider": "usps_collection_boxes", "addr:city": "ATWOOD", "addr:country": "US", "addr:full": "501 MAIN ST", "addr:postcode": "67730", "addr:state": "KS", "amenity": "post_box", "brand": "United States Postal Service", "brand:wikidata": "Q668687", "collection_times": "Mo-Fr 14:35; Sa 09:45", "name": "USPS COLLECTION BOX - PO LOBBY", "note": "ON 12/24 AND 12/31, THIS BOX MAY BE COLLECTED AS EARLY AS 12 NOON.", "nsi_id": "unitedstatespostalservice-a77078", "operator": "United States Postal Service", "operator:short": "USPS", "operator:type": "public", "operator:wikidata": "Q668687", "ref": "6773000005"}, "type": "Feature"}
{"dataset_attributes": {"@spider": "usps_collection_boxes", "spider:collection_time": "2023-11-16T08:25:30.774899"}, "geometry": {"coordinates": [-101.040188, 39.807591], "type": "Point"}, "id": "gt-HIkjSaYhFCBELqnrjcicqqG8=", "properties": {"@spider": "usps_collection_boxes", "addr:city": "ATWOOD", "addr:country": "US", "addr:full": "501 MAIN ST", "addr:postcode": "67730", "addr:state": "KS", "amenity": "post_box", "brand": "United States Postal Service", "brand:wikidata": "Q668687", "collection_times": "Mo-Fr 14:35; Sa 09:45", "name": "USPS COLLECTION BOX - PO LOBBY", "note": "ON 12/24 AND 12/31, THIS BOX MAY BE COLLECTED AS EARLY AS 12 NOON.", "nsi_id": "unitedstatespostalservice-a77078", "operator": "United States Postal Service", "operator:short": "USPS", "operator:type": "public", "operator:wikidata": "Q668687", "ref": "6773000006"}, "type": "Feature"}
{"dataset_attributes": {"@spider": "usps_collection_boxes", "spider:collection_time": "2023-11-16T08:25:30.774899"}, "geometry": {"coordinates": [-101.040118798, 39.807660564], "type": "Point"}, "id": "epyqy8lzfMw8FKchbCIwtkdDSA4=", "properties": {"@spider": "usps_collection_boxes", "addr:city": "ATWOOD", "addr:country": "US", "addr:full": "501 MAIN ST", "addr:postcode": "67730", "addr:state": "KS", "amenity": "post_box", "brand": "United States Postal Service", "brand:wikidata": "Q668687", "collection_times": "Mo-Fr 14:35; Sa 09:45", "name": "USPS COLLECTION BOX - PO LOBBY", "note": "ON 12/24 AND 12/31, THIS BOX MAY BE COLLECTED AS EARLY AS 12 NOON.", "nsi_id": "unitedstatespostalservice-a77078", "operator": "United States Postal Service", "operator:short": "USPS", "operator:type": "public", "operator:wikidata": "Q668687", "ref": "6773000007"}, "type": "Feature"}
{"dataset_attributes": {"@spider": "usps_collection_boxes", "spider:collection_time": "2023-11-16T08:25:30.774899"}, "geometry": {"coordinates": [-101.533079, 39.749596], "type": "Point"}, "id": "aks8eHj0_ySiQROCZWIT6LjcCWY=", "properties": {"@spider": "usps_collection_boxes", "addr:city": "BIRD CITY", "addr:country": "US", "addr:full": "117 W BRESSLER", "addr:postcode": "67731", "addr:state": "KS", "amenity": "post_box", "brand": "United States Postal Service", "brand:wikidata": "Q668687", "collection_times": "Mo-Fr 13:50; Sa 08:45", "name": "USPS COLLECTION BOX - BLUE BOX", "note": "ON 12/24 AND 12/31, THIS BOX MAY BE COLLECTED AS EARLY AS 12 NOON.", "nsi_id": "unitedstatespostalservice-a77078", "operator": "United States Postal Service", "operator:short": "USPS", "operator:type": "public", "operator:wikidata": "Q668687", "ref": "6773100001"}, "type": "Feature"}
{"dataset_attributes": {"@spider": "usps_collection_boxes", "spider:collection_time": "2023-11-16T08:25:30.774899"}, "geometry": {"coordinates": [-101.533, 39.749623], "type": "Point"}, "id": "hS53y-iNSpwrxmme7xj2RRqoAlg=", "properties": {"@spider": "usps_collection_boxes", "addr:city": "BIRD CITY", "addr:country": "US", "addr:full": "117 W BRESSLER", "addr:postcode": "67731", "addr:state": "KS", "amenity": "post_box", "brand": "United States Postal Service", "brand:wikidata": "Q668687", "collection_times": "Mo-Fr 13:50; Sa 08:45", "name": "USPS COLLECTION BOX - PO LOBBY", "note": "ON 12/24 AND 12/31, THIS BOX MAY BE COLLECTED AS EARLY AS 12 NOON.", "nsi_id": "unitedstatespostalservice-a77078", "operator": "United States Postal Service", "operator:short": "USPS", "operator:type": "public", "operator:wikidata": "Q668687", "ref": "6773100002"}, "type": "Feature"}
{"dataset_attributes": {"@spider": "usps_collection_boxes", "spider:collection_time": "2023-11-16T08:25:30.774899"}, "geometry": {"coordinates": [-101.5337835, 39.7495845284], "type": "Point"}, "id": "49e3AmP7nHEQFc7755kqepFObuM=", "properties": {"@spider": "usps_collection_boxes", "addr:city": "BIRD CITY", "addr:country": "US", "addr:full": "117 W BRESSLER", "addr:postcode": "67731", "addr:state": "KS", "amenity": "post_box", "brand": "United States Postal Service", "brand:wikidata": "Q668687", "collection_times": "Mo-Fr 13:50; Sa 08:45", "name": "USPS COLLECTION BOX - PO LOBBY", "note": "ON 12/24 AND 12/31, THIS BOX MAY BE COLLECTED AS EARLY AS 12 NOON.", "nsi_id": "unitedstatespostalservice-a77078", "operator": "United States Postal Service", "operator:short": "USPS", "operator:type": "public", "operator:wikidata": "Q668687", "ref": "6773100003"}, "type": "Feature"}
{"dataset_attributes": {"@spider": "usps_collection_boxes", "spider:collection_time": "2023-11-16T08:25:30.774899"}, "geometry": {"coordinates": [-101.376921, 39.363126], "type": "Point"}, "id": "gC3tG3WkBp_L88T3Wuh_P9dhDCI=", "properties": {"@spider": "usps_collection_boxes", "addr:city": "BREWSTER", "addr:country": "US", "addr:full": "329 KANSAS AVE", "addr:postcode": "67732", "addr:state": "KS", "amenity": "post_box", "brand": "United States Postal Service", "brand:wikidata": "Q668687", "collection_times": "Mo-Fr 14:40; Sa 09:45", "name": "USPS COLLECTION BOX - BLUE BOX", "note": "ON 12/24 AND 12/31, THIS BOX MAY BE COLLECTED AS EARLY AS 12 NOON.", "nsi_id": "unitedstatespostalservice-a77078", "operator": "United States Postal Service", "operator:short": "USPS", "operator:type": "public", "operator:wikidata": "Q668687", "ref": "6773200001"}, "type": "Feature"}
{"dataset_attributes": {"@spider": "usps_collection_boxes", "spider:collection_time": "2023-11-16T08:25:30.774899"}, "geometry": {"coordinates": [-101.376957, 39.363164], "type": "Point"}, "id": "6tQvvWAbOkSTBH89ishiaum2tGs=", "properties": {"@spider": "usps_collection_boxes", "addr:city": "BREWSTER", "addr:country": "US", "addr:full": "329 KANSAS AVE", "addr:postcode": "67732", "addr:state": "KS", "amenity": "post_box", "brand": "United States Postal Service", "brand:wikidata": "Q668687", "collection_times": "Mo-Fr 14:40; Sa 09:45", "name": "USPS COLLECTION BOX - PO LOBBY", "note": "ON 12/24 AND 12/31, THIS BOX MAY BE COLLECTED AS EARLY AS 12 NOON.", "nsi_id": "unitedstatespostalservice-a77078", "operator": "United States Postal Service", "operator:short": "USPS", "operator:type": "public", "operator:wikidata": "Q668687", "ref": "6773200002"}, "type": "Feature"}
{"dataset_attributes": {"@spider": "usps_collection_boxes", "spider:collection_time": "2023-11-16T08:25:30.774899"}, "geometry": {"coordinates": [-101.3769184635, 39.3624902515], "type": "Point"}, "id": "tYbQKZBoaLNnLvxWNmVa4JKrh5k=", "properties": {"@spider": "usps_collection_boxes", "addr:city": "BREWSTER", "addr:country": "US", "addr:full": "329 KANSAS AVE", "addr:postcode": "67732", "addr:state": "KS", "amenity": "post_box", "brand": "United States Postal Service", "brand:wikidata": "Q668687", "collection_times": "Mo-Fr 14:40; Sa 09:45", "name": "USPS COLLECTION BOX - PO LOBBY", "note": "ON 12/24 AND 12/31, THIS BOX MAY BE COLLECTED AS EARLY AS 12 NOON.", "nsi_id": "unitedstatespostalservice-a77078", "operator": "United States Postal Service", "operator:short": "USPS", "operator:type": "public", "operator:wikidata": "Q668687", "ref": "6773200003"}, "type": "Feature"}
{"dataset_attributes": {"@spider": "usps_collection_boxes", "spider:collection_time": "2023-11-16T08:25:30.774899"}, "geometry": {"coordinates": [-101.547895, 39.338462], "type": "Point"}, "id": "Lkj_4V_4l6Bozmfl36ZsTwL5lPY=", "properties": {"@spider": "usps_collection_boxes", "addr:city": "EDSON", "addr:country": "US", "addr:full": "6419 MAIN ST", "addr:postcode": "67733", "addr:state": "KS", "amenity": "post_box", "brand": "United States Postal Service", "brand:wikidata": "Q668687", "collection_times": "Mo-Fr 10:45; Sa 08:30", "name": "USPS COLLECTION BOX - BLUE BOX", "nsi_id": "unitedstatespostalservice-a77078", "operator": "United States Postal Service", "operator:short": "USPS", "operator:type": "public", "operator:wikidata": "Q668687", "ref": "6773300001"}, "type": "Feature"}
{"dataset_attributes": {"@spider": "usps_collection_boxes", "spider:collection_time": "2023-11-16T08:25:30.774899"}, "geometry": {"coordinates": [-101.546649, 39.338275], "type": "Point"}, "id": "FfIMFlqyReCGqf3jHxsDiFXpuyI=", "properties": {"@spider": "usps_collection_boxes", "addr:city": "EDSON", "addr:country": "US", "addr:full": "6419 MAIN ST", "addr:postcode": "67733", "addr:state": "KS", "amenity": "post_box", "brand": "United States Postal Service", "brand:wikidata": "Q668687", "collection_times": "Mo-Fr 10:45; Sa 08:30", "name": "USPS COLLECTION BOX - PO LOBBY", "nsi_id": "unitedstatespostalservice-a77078", "operator": "United States Postal Service", "operator:short": "USPS", "operator:type": "public", "operator:wikidata": "Q668687", "ref": "6773300002"}, "type": "Feature"}
{"dataset_attributes": {"@spider": "usps_collection_boxes", "spider:collection_time": "2023-11-16T08:25:30.774899"}, "geometry": {"coordinates": [-101.546596115, 39.338311406], "type": "Point"}, "id": "XNwZ7DXww98GUhB34zeKC2cUClA=", "properties": {"@spider": "usps_collection_boxes", "addr:city": "EDSON", "addr:country": "US", "addr:full": "6419 MAIN ST", "addr:postcode": "67733", "addr:state": "KS", "amenity": "post_box", "brand": "United States Postal Service", "brand:wikidata": "Q668687", "collection_times": "Mo-Fr 10:45; Sa 08:30", "name": "USPS COLLECTION BOX - PO LOBBY", "nsi_id": "unitedstatespostalservice-a77078", "operator": "United States Postal Service", "operator:short": "USPS", "operator:type": "public", "operator:wikidata": "Q668687", "ref": "6773300003"}, "type": "Feature"}
{"dataset_attributes": {"@spider": "usps_collection_boxes", "spider:collection_time": "2023-11-16T08:25:30.774899"}, "geometry": {"coordinates": [-101.727964, 39.334484], "type": "Point"}, "id": "-N8xvZMV8tP3j78guM6DJXIF4pc=", "properties": {"@spider": "usps_collection_boxes", "addr:city": "GOODLAND", "addr:country": "US", "addr:full": "2160 COMMERCE RD", "addr:postcode": "67735", "addr:state": "KS", "amenity": "post_box", "brand": "United States Postal Service", "brand:wikidata": "Q668687", "collection_times": "Mo-Sa 08:30", "name": "USPS COLLECTION BOX - BLUE BOX", "nsi_id": "unitedstatespostalservice-a77078", "operator": "United States Postal Service", "operator:short": "USPS", "operator:type": "public", "operator:wikidata": "Q668687", "ref": "6773500002"}, "type": "Feature"}
{"dataset_attributes": {"@spider": "usps_collection_boxes", "spider:collection_time": "2023-11-16T08:25:30.774899"}, "geometry": {"coordinates": [-101.711393, 39.34801], "type": "Point"}, "id": "NkYSDvGEuawyUzJdqMnoM1p8_Vg=", "properties": {"@spider": "usps_collection_boxes", "addr:city": "GOODLAND", "addr:country": "US", "addr:full": "124 E 11TH ST", "addr:postcode": "67735", "addr:state": "KS", "amenity": "post_box", "brand": "United States Postal Service", "brand:wikidata": "Q668687", "collection_times": "Mo-Fr 12:50; Sa 10:15", "name": "USPS COLLECTION BOX - BLUE BOX", "note": "ON 12/24 AND 12/31, THIS BOX MAY BE COLLECTED AS EARLY AS 12 NOON.", "nsi_id": "unitedstatespostalservice-a77078", "operator": "United States Postal Service", "operator:short": "USPS", "operator:type": "public", "operator:wikidata": "Q668687", "ref": "6773500003"}, "type": "Feature"}
{"dataset_attributes": {"@spider": "usps_collection_boxes", "spider:collection_time": "2023-11-16T08:25:30.774899"}, "geometry": {"coordinates": [-101.711393, 39.34801], "type": "Point"}, "id": "C1eiPTkYRgshcM6toSFuyoaVcaQ=", "properties": {"@spider": "usps_collection_boxes", "addr:city": "GOODLAND", "addr:country": "US", "addr:full": "124 E 11TH ST", "addr:postcode": "67735", "addr:state": "KS", "amenity": "post_box", "brand": "United States Postal Service", "brand:wikidata": "Q668687", "collection_times": "Mo-Fr 12:50; Sa 10:15", "name": "USPS COLLECTION BOX - PO LOBBY", "note": "ON 12/24 AND 12/31, THIS BOX MAY BE COLLECTED AS EARLY AS 12 NOON.", "nsi_id": "unitedstatespostalservice-a77078", "operator": "United States Postal Service", "operator:short": "USPS", "operator:type": "public", "operator:wikidata": "Q668687", "ref": "6773500005"}, "type": "Feature"}
{"dataset_attributes": {"@spider": "usps_collection_boxes", "spider:collection_time": "2023-11-16T08:25:30.774899"}, "geometry": {"coordinates": [-101.711393, 39.34801], "type": "Point"}, "id": "76v-Z8yMzPc2YWaYTqkzg38OwIs=", "properties": {"@spider": "usps_collection_boxes", "addr:city": "GOODLAND", "addr:country": "US", "addr:full": "124 E 11TH ST", "addr:postcode": "67735", "addr:state": "KS", "amenity": "post_box", "brand": "United States Postal Service", "brand:wikidata": "Q668687", "collection_times": "Mo-Fr 12:50; Sa 10:15", "name": "USPS COLLECTION BOX - PO LOBBY", "note": "ON 12/24 AND 12/31, THIS BOX MAY BE COLLECTED AS EARLY AS 12 NOON.", "nsi_id": "unitedstatespostalservice-a77078", "operator": "United States Postal Service", "operator:short": "USPS", "operator:type": "public", "operator:wikidata": "Q668687", "ref": "6773500006"}, "type": "Feature"}
{"dataset_attributes": {"@spider": "usps_collection_boxes", "spider:collection_time": "2023-11-16T08:25:30.774899"}, "geometry": {"coordinates": [-101.711420853, 39.348046909], "type": "Point"}, "id": "26HOB3Us53UfRky0muK3-ku-c2c=", "properties": {"@spider": "usps_collection_boxes", "addr:city": "GOODLAND", "addr:country": "US", "addr:full": "124 E 11TH ST", "addr:postcode": "67735", "addr:state": "KS", "amenity": "post_box", "brand": "United States Postal Service", "brand:wikidata": "Q668687", "collection_times": "Mo-Fr 12:50; Sa 10:15", "name": "USPS COLLECTION BOX - PO LOBBY", "note": "ON 12/24 AND 12/31, THIS BOX MAY BE COLLECTED AS EARLY AS 12 NOON.", "nsi_id": "unitedstatespostalservice-a77078", "operator": "United States Postal Service", "operator:short": "USPS", "operator:type": "public", "operator:wikidata": "Q668687", "ref": "6773500007"}, "type": "Feature"}
{"dataset_attributes": {"@spider": "usps_collection_boxes", "spider:collection_time": "2023-11-16T08:25:30.774899"}, "geometry": {"coordinates": [-100.487981, 38.958871], "type": "Point"}, "id": "SzjfRFqNnmIMZcp80GZ_L37L33s=", "properties": {"@spider": "usps_collection_boxes", "addr:city": "GOVE", "addr:country": "US", "addr:full": "402 BROAD ST", "addr:postcode": "67736", "addr:state": "KS", "amenity": "post_box", "brand": "United States Postal Service", "brand:wikidata": "Q668687", "collection_times": "Mo-Fr 12:40; Sa 11:00", "name": "USPS COLLECTION BOX - BLUE BOX", "note": "ON 12/24 AND 12/31, THIS BOX MAY BE COLLECTED AS EARLY AS 12 NOON.", "nsi_id": "unitedstatespostalservice-a77078", "operator": "United States Postal Service", "operator:short": "USPS", "operator:type": "public", "operator:wikidata": "Q668687", "ref": "6773600001"}, "type": "Feature"}
{"dataset_attributes": {"@spider": "usps_collection_boxes", "spider:collection_time": "2023-11-16T08:25:30.774899"}, "geometry": {"coordinates": [-100.487867, 38.958921], "type": "Point"}, "id": "mkCpYL9DnLldFvCmr89RFJeI6H0=", "properties": {"@spider": "usps_collection_boxes", "addr:city": "GOVE", "addr:country": "US", "addr:full": "402 BROAD ST", "addr:postcode": "67736", "addr:state": "KS", "amenity": "post_box", "brand": "United States Postal Service", "brand:wikidata": "Q668687", "collection_times": "Mo-Fr 12:40; Sa 11:00", "name": "USPS COLLECTION BOX - PO LOBBY", "note": "ON 12/24 AND 12/31, THIS BOX MAY BE COLLECTED AS EARLY AS 12 NOON.", "nsi_id": "unitedstatespostalservice-a77078", "operator": "United States Postal Service", "operator:short": "USPS", "operator:type": "public", "operator:wikidata": "Q668687", "ref": "6773600002"}, "type": "Feature"}
{"dataset_attributes": {"@spider": "usps_collection_boxes", "spider:collection_time": "2023-11-16T08:25:30.774899"}, "geometry": {"coordinates": [-100.487929058, 38.958854708], "type": "Point"}, "id": "uYFwWZUs8J_fq2NjiiyYl0GL3qQ=", "properties": {"@spider": "usps_collection_boxes", "addr:city": "GOVE", "addr:country": "US", "addr:full": "402 BROAD ST", "addr:postcode": "67736", "addr:state": "KS", "amenity": "post_box", "brand": "United States Postal Service", "brand:wikidata": "Q668687", "collection_times": "Mo-Fr 12:40; Sa 11:00", "name": "USPS COLLECTION BOX - PO LOBBY", "note": "ON 12/24 AND 12/31, THIS BOX MAY BE COLLECTED AS EARLY AS 12 NOON.", "nsi_id": "unitedstatespostalservice-a77078", "operator": "United States Postal Service", "operator:short": "USPS", "operator:type": "public", "operator:wikidata": "Q668687", "ref": "6773600003"}, "type": "Feature"}
{"dataset_attributes": {"@spider": "usps_collection_boxes", "spider:collection_time": "2023-11-16T08:25:30.774899"}, "geometry": {"coordinates": [-100.465348, 39.112237], "type": "Point"}, "id": "HDWugCv5ZdPYYvIl1FNlfR4Qh0E=", "properties": {"@spider": "usps_collection_boxes", "addr:city": "GRAINFIELD", "addr:country": "US", "addr:full": "205 MAIN ST", "addr:postcode": "67737", "addr:state": "KS", "amenity": "post_box", "brand": "United States Postal Service", "brand:wikidata": "Q668687", "collection_times": "Mo-Fr 14:20; Sa 09:45", "name": "USPS COLLECTION BOX - BLUE BOX", "note": "ON 12/24 AND 12/31, THIS BOX MAY BE COLLECTED AS EARLY AS 12 NOON.", "nsi_id": "unitedstatespostalservice-a77078", "operator": "United States Postal Service", "operator:short": "USPS", "operator:type": "public", "operator:wikidata": "Q668687", "ref": "6773700001"}, "type": "Feature"}
{"dataset_attributes": {"@spider": "usps_collection_boxes", "spider:collection_time": "2023-11-16T08:25:30.774899"}, "geometry": {"coordinates": [-100.465348, 39.112237], "type": "Point"}, "id": "Brwqyi0h1n3_xM8D-BfrK8QJvyE=", "properties": {"@spider": "usps_collection_boxes", "addr:city": "GRAINFIELD", "addr:country": "US", "addr:full": "205 MAIN ST", "addr:postcode": "67737", "addr:state": "KS", "amenity": "post_box", "brand": "United States Postal Service", "brand:wikidata": "Q668687", "collection_times": "Mo-Fr 14:20; Sa 09:45", "name": "USPS COLLECTION BOX - PO LOBBY", "note": "ON 12/24 AND 12/31, THIS BOX MAY BE COLLECTED AS EARLY AS 12 NOON.", "nsi_id": "unitedstatespostalservice-a77078", "operator": "United States Postal Service", "operator:short": "USPS", "operator:type": "public", "operator:wikidata": "Q668687", "ref": "6773700002"}, "type": "Feature"}
{"dataset_attributes": {"@spider": "usps_collection_boxes", "spider:collection_time": "2023-11-16T08:25:30.774899"}, "geometry": {"coordinates": [-100.465295613, 39.112279703], "type": "Point"}, "id": "qaaBFwLX_07O655Y3Z2Jvpj0AgM=", "properties": {"@spider": "usps_collection_boxes", "addr:city": "GRAINFIELD", "addr:country": "US", "addr:full": "205 MAIN ST", "addr:postcode": "67737", "addr:state": "KS", "amenity": "post_box", "brand": "United States Postal Service", "brand:wikidata": "Q668687", "collection_times": "Mo-Fr 14:20; Sa 09:45", "name": "USPS COLLECTION BOX - PO LOBBY", "note": "ON 12/24 AND 12/31, THIS BOX MAY BE COLLECTED AS EARLY AS 12 NOON.", "nsi_id": "unitedstatespostalservice-a77078", "operator": "United States Postal Service", "operator:short": "USPS", "operator:type": "public", "operator:wikidata": "Q668687", "ref": "6773700004"}, "type": "Feature"}
{"dataset_attributes": {"@spider": "usps_collection_boxes", "spider:collection_time": "2023-11-16T08:25:30.774899"}, "geometry": {"coordinates": [-100.628999, 39.126288], "type": "Point"}, "id": "fMw6isYOoB5ZOmQGCa3aSIinzIE=", "properties": {"@spider": "usps_collection_boxes", "addr:city": "GRINNELL", "addr:country": "US", "addr:full": "93 S ADAMS ST", "addr:postcode": "67738", "addr:state": "KS", "amenity": "post_box", "brand": "United States Postal Service", "brand:wikidata": "Q668687", "collection_times": "Mo-Fr 13:20; Sa 09:45", "name": "USPS COLLECTION BOX - BLUE BOX", "note": "ON 12/24 AND 12/31, THIS BOX MAY BE COLLECTED AS EARLY AS 12 NOON.", "nsi_id": "unitedstatespostalservice-a77078", "operator": "United States Postal Service", "operator:short": "USPS", "operator:type": "public", "operator:wikidata": "Q668687", "ref": "6773800001"}, "type": "Feature"}
{"dataset_attributes": {"@spider": "usps_collection_boxes", "spider:collection_time": "2023-11-16T08:25:30.774899"}, "geometry": {"coordinates": [-100.629033, 39.126334], "type": "Point"}, "id": "piTn5XT-hHcj55r9_s4HMBL48IQ=", "properties": {"@spider": "usps_collection_boxes", "addr:city": "GRINNELL", "addr:country": "US", "addr:full": "93 S ADAMS ST", "addr:postcode": "67738", "addr:state": "KS", "amenity": "post_box", "brand": "United States Postal Service", "brand:wikidata": "Q668687", "collection_times": "Mo-Fr 13:20; Sa 09:45", "name": "USPS COLLECTION BOX - PO LOBBY", "note": "ON 12/24 AND 12/31, THIS BOX MAY BE COLLECTED AS EARLY AS 12 NOON.", "nsi_id": "unitedstatespostalservice-a77078", "operator": "United States Postal Service", "operator:short": "USPS", "operator:type": "public", "operator:wikidata": "Q668687", "ref": "6773800002"}, "type": "Feature"}
{"dataset_attributes": {"@spider": "usps_collection_boxes", "spider:collection_time": "2023-11-16T08:25:30.774899"}, "geometry": {"coordinates": [-100.629033, 39.126334], "type": "Point"}, "id": "yflCECl0ey8A31rlRxFBYE96ZvQ=", "properties": {"@spider": "usps_collection_boxes", "addr:city": "GRINNELL", "addr:country": "US", "addr:full": "93 S ADAMS ST", "addr:postcode": "67738", "addr:state": "KS", "amenity": "post_box", "brand": "United States Postal Service", "brand:wikidata": "Q668687", "collection_times": "Mo-Fr 13:20; Sa 09:45", "name": "USPS COLLECTION BOX - PO LOBBY", "note": "ON 12/24 AND 12/31, THIS BOX MAY BE COLLECTED AS EARLY AS 12 NOON.", "nsi_id": "unitedstatespostalservice-a77078", "operator": "United States Postal Service", "operator:short": "USPS", "operator:type": "public", "operator:wikidata": "Q668687", "ref": "6773800003"}, "type": "Feature"}
{"dataset_attributes": {"@spider": "usps_collection_boxes", "spider:collection_time": "2023-11-16T08:25:30.774899"}, "geometry": {"coordinates": [-100.62898389, 39.126293033], "type": "Point"}, "id": "aGXuw7G6EgU5n4_8GmAve6RBxHg=", "properties": {"@spider": "usps_collection_boxes", "addr:city": "GRINNELL", "addr:country": "US", "addr:full": "93 S ADAMS ST", "addr:postcode": "67738", "addr:state": "KS", "amenity": "post_box", "brand": "United States Postal Service", "brand:wikidata": "Q668687", "collection_times": "Mo-Fr 13:20; Sa 09:45", "name": "USPS COLLECTION BOX - PO LOBBY", "note": "ON 12/24 AND 12/31, THIS BOX MAY BE COLLECTED AS EARLY AS 12 NOON.", "nsi_id": "unitedstatespostalservice-a77078", "operator": "United States Postal Service", "operator:short": "USPS", "operator:type": "public", "operator:wikidata": "Q668687", "ref": "6773800004"}, "type": "Feature"}
{"dataset_attributes": {"@spider": "usps_collection_boxes", "spider:collection_time": "2023-11-16T08:25:30.774899"}, "geometry": {"coordinates": [-100.785525, 39.90825], "type": "Point"}, "id": "kSVf1i2hEtBZUzlcA6IDCI3wzPc=", "properties": {"@spider": "usps_collection_boxes", "addr:city": "HERNDON", "addr:country": "US", "addr:full": "306 S QUINCY AVE", "addr:postcode": "67739", "addr:state": "KS", "amenity": "post_box", "brand": "United States Postal Service", "brand:wikidata": "Q668687", "collection_times": "Mo-Fr 12:00; Sa 09:15", "name": "USPS COLLECTION BOX - BLUE BOX", "nsi_id": "unitedstatespostalservice-a77078", "operator": "United States Postal Service", "operator:short": "USPS", "operator:type": "public", "operator:wikidata": "Q668687", "ref": "6773900001"}, "type": "Feature"}
{"dataset_attributes": {"@spider": "usps_collection_boxes", "spider:collection_time": "2023-11-16T08:25:30.774899"}, "geometry": {"coordinates": [-100.785368, 39.905972], "type": "Point"}, "id": "A7WvR_HntfZFLEg9yBHi6MZwbiw=", "properties": {"@spider": "usps_collection_boxes", "addr:city": "HERNDON", "addr:country": "US", "addr:full": "306 S QUINCY AVE", "addr:postcode": "67739", "addr:state": "KS", "amenity": "post_box", "brand": "United States Postal Service", "brand:wikidata": "Q668687", "collection_times": "Mo-Fr 12:30; Sa 09:15", "name": "USPS COLLECTION BOX - PO LOBBY", "note": "ON 12/24 AND 12/31, THIS BOX MAY BE COLLECTED AS EARLY AS 12 NOON.", "nsi_id": "unitedstatespostalservice-a77078", "operator": "United States Postal Service", "operator:short": "USPS", "operator:type": "public", "operator:wikidata": "Q668687", "ref": "6773900002"}, "type": "Feature"}
{"dataset_attributes": {"@spider": "usps_collection_boxes", "spider:collection_time": "2023-11-16T08:25:30.774899"}, "geometry": {"coordinates": [-100.785400879, 39.908633483], "type": "Point"}, "id": "JI7_sdto5irI17IE7jy9JFtpWqA=", "properties": {"@spider": "usps_collection_boxes", "addr:city": "HERNDON", "addr:country": "US", "addr:full": "306 S QUINCY AVE", "addr:postcode": "67739", "addr:state": "KS", "amenity": "post_box", "brand": "United States Postal Service", "brand:wikidata": "Q668687", "collection_times": "Mo-Fr 12:30; Sa 09:15", "name": "USPS COLLECTION BOX - PO LOBBY", "note": "ON 12/24 AND 12/31, THIS BOX MAY BE COLLECTED AS EARLY AS 12 NOON.", "nsi_id": "unitedstatespostalservice-a77078", "operator": "United States Postal Service", "operator:short": "USPS", "operator:type": "public", "operator:wikidata": "Q668687", "ref": "6773900003"}, "type": "Feature"}
{"dataset_attributes": {"@spider": "usps_collection_boxes", "spider:collection_time": "2023-11-16T08:25:30.774899"}, "geometry": {"coordinates": [-100.4422940409, 39.3534939826], "type": "Point"}, "id": "IL56onzt848qI-fzCYwfj3EhPV8=", "properties": {"@spider": "usps_collection_boxes", "addr:city": "HOXIE", "addr:country": "US", "addr:full": "733 MAIN ST", "addr:postcode": "67740", "addr:state": "KS", "amenity": "post_box", "brand": "United States Postal Service", "brand:wikidata": "Q668687", "collection_times": "Mo-Fr 14:50; Sa 10:15", "name": "USPS COLLECTION BOX - BLUE BOX", "note": "ON 12/24 AND 12/31, THIS BOX MAY BE COLLECTED AS EARLY AS 12 NOON.", "nsi_id": "unitedstatespostalservice-a77078", "operator": "United States Postal Service", "operator:short": "USPS", "operator:type": "public", "operator:wikidata": "Q668687", "ref": "6774000001"}, "type": "Feature"}
{"dataset_attributes": {"@spider": "usps_collection_boxes", "spider:collection_time": "2023-11-16T08:25:30.774899"}, "geometry": {"coordinates": [-100.594782, 39.337766], "type": "Point"}, "id": "6P76xLauCyN_TiNV8Pjn9RlOKeU=", "properties": {"@spider": "usps_collection_boxes", "addr:city": "HOXIE", "addr:country": "US", "addr:full": "733 MAIN ST", "addr:postcode": "67740", "addr:state": "KS", "amenity": "post_box", "brand": "United States Postal Service", "brand:wikidata": "Q668687", "collection_times": "Mo-Fr 14:50; Sa 10:15", "name": "USPS COLLECTION BOX - PO LOBBY", "note": "ON 12/24 AND 12/31, THIS BOX MAY BE COLLECTED AS EARLY AS 12 NOON.", "nsi_id": "unitedstatespostalservice-a77078", "operator": "United States Postal Service", "operator:short": "USPS", "operator:type": "public", "operator:wikidata": "Q668687", "ref": "6774000002"}, "type": "Feature"}
{"dataset_attributes": {"@spider": "usps_collection_boxes", "spider:collection_time": "2023-11-16T08:25:30.774899"}, "geometry": {"coordinates": [-100.594782, 39.337766], "type": "Point"}, "id": "L9PCFLXxpyutdSpdCEXh4ub0_V8=", "properties": {"@spider": "usps_collection_boxes", "addr:city": "HOXIE", "addr:country": "US", "addr:full": "733 MAIN ST", "addr:postcode": "67740", "addr:state": "KS", "amenity": "post_box", "brand": "United States Postal Service", "brand:wikidata": "Q668687", "collection_times": "Mo-Fr 14:50; Sa 10:15", "name": "USPS COLLECTION BOX - PO LOBBY", "note": "ON 12/24 AND 12/31, THIS BOX MAY BE COLLECTED AS EARLY AS 12 NOON.", "nsi_id": "unitedstatespostalservice-a77078", "operator": "United States Postal Service", "operator:short": "USPS", "operator:type": "public", "operator:wikidata": "Q668687", "ref": "6774000003"}, "type": "Feature"}
{"dataset_attributes": {"@spider": "usps_collection_boxes", "spider:collection_time": "2023-11-16T08:25:30.774899"}, "geometry": {"coordinates": [-100.4419763223, 39.3610484849], "type": "Point"}, "id": "Y2S4x81RKRlMxWJrX1u6RqOSqJ4=", "properties": {"@spider": "usps_collection_boxes", "addr:city": "HOXIE", "addr:country": "US", "addr:full": "733 MAIN ST", "addr:postcode": "67740", "addr:state": "KS", "amenity": "post_box", "brand": "United States Postal Service", "brand:wikidata": "Q668687", "collection_times": "Mo-Fr 14:50; Sa 10:15", "name": "USPS COLLECTION BOX - PO LOBBY", "note": "ON 12/24 AND 12/31, THIS BOX MAY BE COLLECTED AS EARLY AS 12 NOON.", "nsi_id": "unitedstatespostalservice-a77078", "operator": "United States Postal Service", "operator:short": "USPS", "operator:type": "public", "operator:wikidata": "Q668687", "ref": "6774000004"}, "type": "Feature"}
{"dataset_attributes": {"@spider": "usps_collection_boxes", "spider:collection_time": "2023-11-16T08:25:30.774899"}, "geometry": {"coordinates": [-102.036903, 39.335234], "type": "Point"}, "id": "PRZTiMsLSi3RnvkqtOg3PtnBCZg=", "properties": {"@spider": "usps_collection_boxes", "addr:city": "KANORADO", "addr:country": "US", "addr:full": "202 MAIN ST", "addr:postcode": "67741", "addr:state": "KS", "amenity": "post_box", "brand": "United States Postal Service", "brand:wikidata": "Q668687", "collection_times": "Mo-Fr 11:45; Sa 08:45", "name": "USPS COLLECTION BOX - BLUE BOX", "nsi_id": "unitedstatespostalservice-a77078", "operator": "United States Postal Service", "operator:short": "USPS", "operator:type": "public", "operator:wikidata": "Q668687", "ref": "6774100001"}, "type": "Feature"}
{"dataset_attributes": {"@spider": "usps_collection_boxes", "spider:collection_time": "2023-11-16T08:25:30.774899"}, "geometry": {"coordinates": [-102.036799, 39.335128], "type": "Point"}, "id": "AYCBTrLB7KgPiuk3aH5Mi7oqSck=", "properties": {"@spider": "usps_collection_boxes", "addr:city": "KANORADO", "addr:country": "US", "addr:full": "202 MAIN ST", "addr:postcode": "67741", "addr:state": "KS", "amenity": "post_box", "brand": "United States Postal Service", "brand:wikidata": "Q668687", "collection_times": "Mo-Fr 11:45; Sa 08:45", "name": "USPS COLLECTION BOX - PO LOBBY", "nsi_id": "unitedstatespostalservice-a77078", "operator": "United States Postal Service", "operator:short": "USPS", "operator:type": "public", "operator:wikidata": "Q668687", "ref": "6774100002"}, "type": "Feature"}
{"dataset_attributes": {"@spider": "usps_collection_boxes", "spider:collection_time": "2023-11-16T08:25:30.774899"}, "geometry": {"coordinates": [-102.0368593337, 39.3351769757], "type": "Point"}, "id": "E0UXNgs_R-wJGJ_LKCuQAtTb608=", "properties": {"@spider": "usps_collection_boxes", "addr:city": "KANORADO", "addr:country": "US", "addr:full": "202 MAIN ST", "addr:postcode": "67741", "addr:state": "KS", "amenity": "post_box", "brand": "United States Postal Service", "brand:wikidata": "Q668687", "collection_times": "Mo-Fr 11:45; Sa 08:45", "name": "USPS COLLECTION BOX - PO LOBBY", "nsi_id": "unitedstatespostalservice-a77078", "operator": "United States Postal Service", "operator:short": "USPS", "operator:type": "public", "operator:wikidata": "Q668687", "ref": "6774100003"}, "type": "Feature"}
{"dataset_attributes": {"@spider": "usps_collection_boxes", "spider:collection_time": "2023-11-16T08:25:30.774899"}, "geometry": {"coordinates": [-101.372691, 39.78432], "type": "Point"}, "id": "GAH6G0OH2KqxqijvrUaBgieGseA=", "properties": {"@spider": "usps_collection_boxes", "addr:city": "MCDONALD", "addr:country": "US", "addr:full": "218 RAWLINS AVE", "addr:postcode": "67745", "addr:state": "KS", "amenity": "post_box", "brand": "United States Postal Service", "brand:wikidata": "Q668687", "collection_times": "Mo-Fr 11:45; Sa 09:15", "name": "USPS COLLECTION BOX - BLUE BOX", "nsi_id": "unitedstatespostalservice-a77078", "operator": "United States Postal Service", "operator:short": "USPS", "operator:type": "public", "operator:wikidata": "Q668687", "ref": "6774500001"}, "type": "Feature"}
{"dataset_attributes": {"@spider": "usps_collection_boxes", "spider:collection_time": "2023-11-16T08:25:30.774899"}, "geometry": {"coordinates": [-101.372582, 39.783869], "type": "Point"}, "id": "_7lNerBbe1JrZJ3IZxjNp6v1PYw=", "properties": {"@spider": "usps_collection_boxes", "addr:city": "MCDONALD", "addr:country": "US", "addr:full": "218 RAWLINS AVE", "addr:postcode": "67745", "addr:state": "KS", "amenity": "post_box", "brand": "United States Postal Service", "brand:wikidata": "Q668687", "collection_times": "Mo-Fr 11:45; Sa 09:15", "name": "USPS COLLECTION BOX - PO LOBBY", "nsi_id": "unitedstatespostalservice-a77078", "operator": "United States Postal Service", "operator:short": "USPS", "operator:type": "public", "operator:wikidata": "Q668687", "ref": "6774500002"}, "type": "Feature"}
{"dataset_attributes": {"@spider": "usps_collection_boxes", "spider:collection_time": "2023-11-16T08:25:30.774899"}, "geometry": {"coordinates": [-101.372639371, 39.783902642], "type": "Point"}, "id": "UV2W8K9tJcvYDZ-WrXiPKYubz3U=", "properties": {"@spider": "usps_collection_boxes", "addr:city": "MCDONALD", "addr:country": "US", "addr:full": "218 RAWLINS AVE", "addr:postcode": "67745", "addr:state": "KS", "amenity": "post_box", "brand": "United States Postal Service", "brand:wikidata": "Q668687", "collection_times": "Mo-Fr 11:45; Sa 09:15", "name": "USPS COLLECTION BOX - PO LOBBY", "nsi_id": "unitedstatespostalservice-a77078", "operator": "United States Postal Service", "operator:short": "USPS", "operator:type": "public", "operator:wikidata": "Q668687", "ref": "6774500003"}, "type": "Feature"}
{"dataset_attributes": {"@spider": "usps_collection_boxes", "spider:collection_time": "2023-11-16T08:25:30.774899"}, "geometry": {"coordinates": [-100.852563, 39.126483], "type": "Point"}, "id": "mFqO4gbT6tw3oK7bYwgzh_Ygutg=", "properties": {"@spider": "usps_collection_boxes", "addr:city": "OAKLEY", "addr:country": "US", "addr:full": "200 HUDSON AVE", "addr:postcode": "67748", "addr:state": "KS", "amenity": "post_box", "brand": "United States Postal Service", "brand:wikidata": "Q668687", "collection_times": "Mo-Fr 14:30; Sa 10:45", "name": "USPS COLLECTION BOX - BLUE BOX", "note": "ON 12/24 AND 12/31, THIS BOX MAY BE COLLECTED AS EARLY AS 12 NOON.", "nsi_id": "unitedstatespostalservice-a77078", "operator": "United States Postal Service", "operator:short": "USPS", "operator:type": "public", "operator:wikidata": "Q668687", "ref": "6774800001"}, "type": "Feature"}
{"dataset_attributes": {"@spider": "usps_collection_boxes", "spider:collection_time": "2023-11-16T08:25:30.774899"}, "geometry": {"coordinates": [-100.8526, 39.126394], "type": "Point"}, "id": "zWn2cQTh1iNMIDbsg9aht1KUmvs=", "properties": {"@spider": "usps_collection_boxes", "addr:city": "OAKLEY", "addr:country": "US", "addr:full": "200 HUDSON AVE", "addr:postcode": "67748", "addr:state": "KS", "amenity": "post_box", "brand": "United States Postal Service", "brand:wikidata": "Q668687", "collection_times": "Mo-Fr 14:30; Sa 10:45", "name": "USPS COLLECTION BOX - PO LOBBY", "note": "ON 12/24 AND 12/31, THIS BOX MAY BE COLLECTED AS EARLY AS 12 NOON.", "nsi_id": "unitedstatespostalservice-a77078", "operator": "United States Postal Service", "operator:short": "USPS", "operator:type": "public", "operator:wikidata": "Q668687", "ref": "6774800003"}, "type": "Feature"}
{"dataset_attributes": {"@spider": "usps_collection_boxes", "spider:collection_time": "2023-11-16T08:25:30.774899"}, "geometry": {"coordinates": [-100.85254139, 39.126439633], "type": "Point"}, "id": "rC1EhPADMmdCw4FiV4jImYTFsAw=", "properties": {"@spider": "usps_collection_boxes", "addr:city": "OAKLEY", "addr:country": "US", "addr:full": "200 HUDSON AVE", "addr:postcode": "67748", "addr:state": "KS", "amenity": "post_box", "brand": "United States Postal Service", "brand:wikidata": "Q668687", "collection_times": "Mo-Fr 14:30; Sa 10:45", "name": "USPS COLLECTION BOX - PO LOBBY", "note": "ON 12/24 AND 12/31, THIS BOX MAY BE COLLECTED AS EARLY AS 12 NOON.", "nsi_id": "unitedstatespostalservice-a77078", "operator": "United States Postal Service", "operator:short": "USPS", "operator:type": "public", "operator:wikidata": "Q668687", "ref": "6774800005"}, "type": "Feature"}
{"dataset_attributes": {"@spider": "usps_collection_boxes", "spider:collection_time": "2023-11-16T08:25:30.774899"}, "geometry": {"coordinates": [-100.5285968775, 39.818905445], "type": "Point"}, "id": "MPJCT4oqGxOZLUKxLST0HE6hEAA=", "properties": {"@spider": "usps_collection_boxes", "addr:city": "OBERLIN", "addr:country": "US", "addr:full": "135 E HALL ST", "addr:postcode": "67749", "addr:state": "KS", "amenity": "post_box", "brand": "United States Postal Service", "brand:wikidata": "Q668687", "collection_times": "Mo-Fr 13:50; Sa 10:45", "name": "USPS COLLECTION BOX - BLUE BOX", "note": "ON 12/24 AND 12/31, THIS BOX MAY BE COLLECTED AS EARLY AS 12 NOON.", "nsi_id": "unitedstatespostalservice-a77078", "operator": "United States Postal Service", "operator:short": "USPS", "operator:type": "public", "operator:wikidata": "Q668687", "ref": "6774900001"}, "type": "Feature"}
{"dataset_attributes": {"@spider": "usps_collection_boxes", "spider:collection_time": "2023-11-16T08:25:30.774899"}, "geometry": {"coordinates": [-100.528617, 39.81898], "type": "Point"}, "id": "Pkk-L-u7h7U9ZXtzVviE1CTaOdo=", "properties": {"@spider": "usps_collection_boxes", "addr:city": "OBERLIN", "addr:country": "US", "addr:full": "135 E HALL ST", "addr:postcode": "67749", "addr:state": "KS", "amenity": "post_box", "brand": "United States Postal Service", "brand:wikidata": "Q668687", "collection_times": "Mo-Fr 13:50; Sa 10:45", "name": "USPS COLLECTION BOX - PO LOBBY", "note": "ON 12/24 AND 12/31, THIS BOX MAY BE COLLECTED AS EARLY AS 12 NOON.", "nsi_id": "unitedstatespostalservice-a77078", "operator": "United States Postal Service", "operator:short": "USPS", "operator:type": "public", "operator:wikidata": "Q668687", "ref": "6774900002"}, "type": "Feature"}
{"dataset_attributes": {"@spider": "usps_collection_boxes", "spider:collection_time": "2023-11-16T08:25:30.774899"}, "geometry": {"coordinates": [-100.528617, 39.81898], "type": "Point"}, "id": "cnLXiajlL7_tLqbwOxvXvGdBgiI=", "properties": {"@spider": "usps_collection_boxes", "addr:city": "OBERLIN", "addr:country": "US", "addr:full": "135 E HALL ST", "addr:postcode": "67749", "addr:state": "KS", "amenity": "post_box", "brand": "United States Postal Service", "brand:wikidata": "Q668687", "collection_times": "Mo-Fr 13:50; Sa 10:45", "name": "USPS COLLECTION BOX - PO LOBBY", "note": "ON 12/24 AND 12/31, THIS BOX MAY BE COLLECTED AS EARLY AS 12 NOON.", "nsi_id": "unitedstatespostalservice-a77078", "operator": "United States Postal Service", "operator:short": "USPS", "operator:type": "public", "operator:wikidata": "Q668687", "ref": "6774900003"}, "type": "Feature"}
{"dataset_attributes": {"@spider": "usps_collection_boxes", "spider:collection_time": "2023-11-16T08:25:30.774899"}, "geometry": {"coordinates": [-100.5285983844, 39.8189045889], "type": "Point"}, "id": "KGOv5oUOz5eGixA7KccC54Tlyjw=", "properties": {"@spider": "usps_collection_boxes", "addr:city": "OBERLIN", "addr:country": "US", "addr:full": "135 E HALL ST", "addr:postcode": "67749", "addr:state": "KS", "amenity": "post_box", "brand": "United States Postal Service", "brand:wikidata": "Q668687", "collection_times": "Mo-Fr 13:50; Sa 10:45", "name": "USPS COLLECTION BOX - PO LOBBY", "note": "ON 12/24 AND 12/31, THIS BOX MAY BE COLLECTED AS EARLY AS 12 NOON.", "nsi_id": "unitedstatespostalservice-a77078", "operator": "United States Postal Service", "operator:short": "USPS", "operator:type": "public", "operator:wikidata": "Q668687", "ref": "6774900006"}, "type": "Feature"}
{"dataset_attributes": {"@spider": "usps_collection_boxes", "spider:collection_time": "2023-11-16T08:25:30.774899"}, "geometry": {"coordinates": [-100.2348798877, 39.0695452945], "type": "Point"}, "id": "hOvWA3c5gf0iePiJvr17DidLv1g=", "properties": {"@spider": "usps_collection_boxes", "addr:city": "QUINTER", "addr:country": "US", "addr:full": "315 MAIN ST", "addr:postcode": "67752", "addr:state": "KS", "amenity": "post_box", "brand": "United States Postal Service", "brand:wikidata": "Q668687", "collection_times": "Mo-Fr 13:55; Sa 10:15", "name": "USPS COLLECTION BOX - BLUE BOX", "note": "ON 12/24 AND 12/31, THIS BOX MAY BE COLLECTED AS EARLY AS 12 NOON.", "nsi_id": "unitedstatespostalservice-a77078", "operator": "United States Postal Service", "operator:short": "USPS", "operator:type": "public", "operator:wikidata": "Q668687", "ref": "6775200001"}, "type": "Feature"}
{"dataset_attributes": {"@spider": "usps_collection_boxes", "spider:collection_time": "2023-11-16T08:25:30.774899"}, "geometry": {"coordinates": [-100.2348798877, 39.0695452945], "type": "Point"}, "id": "8WAkhFl4nfKRsDz9d647rcDohhI=", "properties": {"@spider": "usps_collection_boxes", "addr:city": "QUINTER", "addr:country": "US", "addr:full": "315 MAIN ST", "addr:postcode": "67752", "addr:state": "KS", "amenity": "post_box", "brand": "United States Postal Service", "brand:wikidata": "Q668687", "collection_times": "Mo-Fr 13:55; Sa 10:15", "name": "USPS COLLECTION BOX - PO LOBBY", "note": "ON 12/24 AND 12/31, THIS BOX MAY BE COLLECTED AS EARLY AS 12 NOON.", "nsi_id": "unitedstatespostalservice-a77078", "operator": "United States Postal Service", "operator:short": "USPS", "operator:type": "public", "operator:wikidata": "Q668687", "ref": "6775200002"}, "type": "Feature"}
{"dataset_attributes": {"@spider": "usps_collection_boxes", "spider:collection_time": "2023-11-16T08:25:30.774899"}, "geometry": {"coordinates": [-100.2348798877, 39.0695452945], "type": "Point"}, "id": "5a6cCkSYviyIpvdd1JMTOfwBeU8=", "properties": {"@spider": "usps_collection_boxes", "addr:city": "QUINTER", "addr:country": "US", "addr:full": "315 MAIN ST", "addr:postcode": "67752", "addr:state": "KS", "amenity": "post_box", "brand": "United States Postal Service", "brand:wikidata": "Q668687", "collection_times": "Mo-Fr 13:55; Sa 10:15", "name": "USPS COLLECTION BOX - PO LOBBY", "note": "ON 12/24 AND 12/31, THIS BOX MAY BE COLLECTED AS EARLY AS 12 NOON.", "nsi_id": "unitedstatespostalservice-a77078", "operator": "United States Postal Service", "operator:short": "USPS", "operator:type": "public", "operator:wikidata": "Q668687", "ref": "6775200004"}, "type": "Feature"}
{"dataset_attributes": {"@spider": "usps_collection_boxes", "spider:collection_time": "2023-11-16T08:25:30.774899"}, "geometry": {"coordinates": [-101.8037923324, 39.7741994716], "type": "Point"}, "id": "eW2g5vEp5WbTRYyk9WP2LZU7mwM=", "properties": {"@spider": "usps_collection_boxes", "addr:city": "SAINT FRANCIS", "addr:country": "US", "addr:full": "222 W WASHINGTON ST", "addr:postcode": "67756", "addr:state": "KS", "amenity": "post_box", "brand": "United States Postal Service", "brand:wikidata": "Q668687", "collection_times": "Mo-Fr 13:30; Sa 10:45", "name": "USPS COLLECTION BOX - BLUE BOX", "note": "ON 12/24 AND 12/31, THIS BOX MAY BE COLLECTED AS EARLY AS 12 NOON.", "nsi_id": "unitedstatespostalservice-a77078", "operator": "United States Postal Service", "operator:short": "USPS", "operator:type": "public", "operator:wikidata": "Q668687", "ref": "6775600001"}, "type": "Feature"}
{"dataset_attributes": {"@spider": "usps_collection_boxes", "spider:collection_time": "2023-11-16T08:25:30.774899"}, "geometry": {"coordinates": [-101.8037923324, 39.7741994716], "type": "Point"}, "id": "XRGXVH8BHYSibdvF7XrT3FuUOrg=", "properties": {"@spider": "usps_collection_boxes", "addr:city": "SAINT FRANCIS", "addr:country": "US", "addr:full": "222 W WASHINGTON ST", "addr:postcode": "67756", "addr:state": "KS", "amenity": "post_box", "brand": "United States Postal Service", "brand:wikidata": "Q668687", "collection_times": "Mo-Fr 13:30; Sa 10:45", "name": "USPS COLLECTION BOX - PO LOBBY", "note": "ON 12/24 AND 12/31, THIS BOX MAY BE COLLECTED AS EARLY AS 12 NOON.", "nsi_id": "unitedstatespostalservice-a77078", "operator": "United States Postal Service", "operator:short": "USPS", "operator:type": "public", "operator:wikidata": "Q668687", "ref": "6775600003"}, "type": "Feature"}
{"dataset_attributes": {"@spider": "usps_collection_boxes", "spider:collection_time": "2023-11-16T08:25:30.774899"}, "geometry": {"coordinates": [-101.8037923324, 39.7741994716], "type": "Point"}, "id": "ic1HEg4PWs9ePYNgwBrP_vfe5wo=", "properties": {"@spider": "usps_collection_boxes", "addr:city": "SAINT FRANCIS", "addr:country": "US", "addr:full": "222 W WASHINGTON ST", "addr:postcode": "67756", "addr:state": "KS", "amenity": "post_box", "brand": "United States Postal Service", "brand:wikidata": "Q668687", "collection_times": "Mo-Fr 13:30; Sa 10:45", "name": "USPS COLLECTION BOX - PO LOBBY", "note": "ON 12/24 AND 12/31, THIS BOX MAY BE COLLECTED AS EARLY AS 12 NOON.", "nsi_id": "unitedstatespostalservice-a77078", "operator": "United States Postal Service", "operator:short": "USPS", "operator:type": "public", "operator:wikidata": "Q668687", "ref": "6775600004"}, "type": "Feature"}
{"dataset_attributes": {"@spider": "usps_collection_boxes", "spider:collection_time": "2023-11-16T08:25:30.774899"}, "geometry": {"coordinates": [-101.8037923324, 39.7741994716], "type": "Point"}, "id": "QDI5zxZaWWh1TCXakZe-9zUfj08=", "properties": {"@spider": "usps_collection_boxes", "addr:city": "SAINT FRANCIS", "addr:country": "US", "addr:full": "222 W WASHINGTON ST", "addr:postcode": "67756", "addr:state": "KS", "amenity": "post_box", "brand": "United States Postal Service", "brand:wikidata": "Q668687", "collection_times": "Mo-Fr 13:30; Sa 10:45", "name": "USPS COLLECTION BOX - PO LOBBY", "note": "ON 12/24 AND 12/31, THIS BOX MAY BE COLLECTED AS EARLY AS 12 NOON.", "nsi_id": "unitedstatespostalservice-a77078", "operator": "United States Postal Service", "operator:short": "USPS", "operator:type": "public", "operator:wikidata": "Q668687", "ref": "6775600005"}, "type": "Feature"}
{"dataset_attributes": {"@spider": "usps_collection_boxes", "spider:collection_time": "2023-11-16T08:25:30.774899"}, "geometry": {"coordinates": [-100.567693117, 39.541594286], "type": "Point"}, "id": "klqAahppGI1jwnCRpMfUGXOOEmI=", "properties": {"@spider": "usps_collection_boxes", "addr:city": "SELDEN", "addr:country": "US", "addr:full": "102 S KANSAS AVE", "addr:postcode": "67757", "addr:state": "KS", "amenity": "post_box", "brand": "United States Postal Service", "brand:wikidata": "Q668687", "collection_times": "Mo-Fr 14:20; Sa 08:45", "name": "USPS COLLECTION BOX - BLUE BOX", "note": "ON 12/24 AND 12/31, THIS BOX MAY BE COLLECTED AS EARLY AS 12 NOON.", "nsi_id": "unitedstatespostalservice-a77078", "operator": "United States Postal Service", "operator:short": "USPS", "operator:type": "public", "operator:wikidata": "Q668687", "ref": "6775700001"}, "type": "Feature"}
{"dataset_attributes": {"@spider": "usps_collection_boxes", "spider:collection_time": "2023-11-16T08:25:30.774899"}, "geometry": {"coordinates": [-100.5674800279, 39.5414900126], "type": "Point"}, "id": "wkb6CZlZaIezSqgIC9Eyrhw2J3o=", "properties": {"@spider": "usps_collection_boxes", "addr:city": "SELDEN", "addr:country": "US", "addr:full": "102 S KANSAS AVE", "addr:postcode": "67757", "addr:state": "KS", "amenity": "post_box", "brand": "United States Postal Service", "brand:wikidata": "Q668687", "collection_times": "Mo-Fr 14:20; Sa 08:45", "name": "USPS COLLECTION BOX - PO LOBBY", "note": "ON 12/24 AND 12/31, THIS BOX MAY BE COLLECTED AS EARLY AS 12 NOON.", "nsi_id": "unitedstatespostalservice-a77078", "operator": "United States Postal Service", "operator:short": "USPS", "operator:type": "public", "operator:wikidata": "Q668687", "ref": "6775700002"}, "type": "Feature"}
{"dataset_attributes": {"@spider": "usps_collection_boxes", "spider:collection_time": "2023-11-16T08:25:30.774899"}, "geometry": {"coordinates": [-100.5674800279, 39.5414900126], "type": "Point"}, "id": "m5xUbLsvZQ6FUZ2VQDNLXfT-1N4=", "properties": {"@spider": "usps_collection_boxes", "addr:city": "SELDEN", "addr:country": "US", "addr:full": "102 S KANSAS AVE", "addr:postcode": "67757", "addr:state": "KS", "amenity": "post_box", "brand": "United States Postal Service", "brand:wikidata": "Q668687", "collection_times": "Mo-Fr 14:20; Sa 08:45", "name": "USPS COLLECTION BOX - PO LOBBY", "note": "ON 12/24 AND 12/31, THIS BOX MAY BE COLLECTED AS EARLY AS 12 NOON.", "nsi_id": "unitedstatespostalservice-a77078", "operator": "United States Postal Service", "operator:short": "USPS", "operator:type": "public", "operator:wikidata": "Q668687", "ref": "6775700003"}, "type": "Feature"}
{"dataset_attributes": {"@spider": "usps_collection_boxes", "spider:collection_time": "2023-11-16T08:25:30.774899"}, "geometry": {"coordinates": [-101.7516652017, 38.8967226337], "type": "Point"}, "id": "iR_yR7XUjcazt0v41-92w-nbMpA=", "properties": {"@spider": "usps_collection_boxes", "addr:city": "SHARON SPRINGS", "addr:country": "US", "addr:full": "304 N MAIN ST", "addr:postcode": "67758", "addr:state": "KS", "amenity": "post_box", "brand": "United States Postal Service", "brand:wikidata": "Q668687", "collection_times": "Mo-Fr 12:10; Sa 09:45", "name": "USPS COLLECTION BOX - BLUE BOX", "note": "ON 12/24 AND 12/31, THIS BOX MAY BE COLLECTED AS EARLY AS 12 NOON.", "nsi_id": "unitedstatespostalservice-a77078", "operator": "United States Postal Service", "operator:short": "USPS", "operator:type": "public", "operator:wikidata": "Q668687", "ref": "6775800001"}, "type": "Feature"}
{"dataset_attributes": {"@spider": "usps_collection_boxes", "spider:collection_time": "2023-11-16T08:25:30.774899"}, "geometry": {"coordinates": [-101.7516652017, 38.8967226337], "type": "Point"}, "id": "3TxvEJa293RXPE_Q6j1Oe9MTU0Q=", "properties": {"@spider": "usps_collection_boxes", "addr:city": "SHARON SPRINGS", "addr:country": "US", "addr:full": "304 N MAIN ST", "addr:postcode": "67758", "addr:state": "KS", "amenity": "post_box", "brand": "United States Postal Service", "brand:wikidata": "Q668687", "collection_times": "Mo-Fr 12:10; Sa 09:45", "name": "USPS COLLECTION BOX - PO LOBBY", "note": "ON 12/24 AND 12/31, THIS BOX MAY BE COLLECTED AS EARLY AS 12 NOON.", "nsi_id": "unitedstatespostalservice-a77078", "operator": "United States Postal Service", "operator:short": "USPS", "operator:type": "public", "operator:wikidata": "Q668687", "ref": "6775800002"}, "type": "Feature"}
{"dataset_attributes": {"@spider": "usps_collection_boxes", "spider:collection_time": "2023-11-16T08:25:30.774899"}, "geometry": {"coordinates": [-101.7516652017, 38.8967226337], "type": "Point"}, "id": "jXQUdlkqMi7Y_nXV-sp5wNfX80E=", "properties": {"@spider": "usps_collection_boxes", "addr:city": "SHARON SPRINGS", "addr:country": "US", "addr:full": "304 N MAIN ST", "addr:postcode": "67758", "addr:state": "KS", "amenity": "post_box", "brand": "United States Postal Service", "brand:wikidata": "Q668687", "collection_times": "Mo-Fr 12:10; Sa 09:45", "name": "USPS COLLECTION BOX - PO LOBBY", "note": "ON 12/24 AND 12/31, THIS BOX MAY BE COLLECTED AS EARLY AS 12 NOON.", "nsi_id": "unitedstatespostalservice-a77078", "operator": "United States Postal Service", "operator:short": "USPS", "operator:type": "public", "operator:wikidata": "Q668687", "ref": "6775800004"}, "type": "Feature"}
{"dataset_attributes": {"@spider": "usps_collection_boxes", "spider:collection_time": "2023-11-16T08:25:30.774899"}, "geometry": {"coordinates": [-101.966531, 38.868436], "type": "Point"}, "id": "GA1-H_aI6Hep5RHJcy4BQCUMcMw=", "properties": {"@spider": "usps_collection_boxes", "addr:city": "WESKAN", "addr:country": "US", "addr:full": "527 WESKAN AVE", "addr:postcode": "67762", "addr:state": "KS", "amenity": "post_box", "brand": "United States Postal Service", "brand:wikidata": "Q668687", "collection_times": "Mo-Fr 11:00; Sa 08:45", "name": "USPS COLLECTION BOX - BLUE BOX", "nsi_id": "unitedstatespostalservice-a77078", "operator": "United States Postal Service", "operator:short": "USPS", "operator:type": "public", "operator:wikidata": "Q668687", "ref": "6776200001"}, "type": "Feature"}
{"dataset_attributes": {"@spider": "usps_collection_boxes", "spider:collection_time": "2023-11-16T08:25:30.774899"}, "geometry": {"coordinates": [-101.966495, 38.86846], "type": "Point"}, "id": "g6TOlVLdZH7oeBUe3cWwN_f5ymc=", "properties": {"@spider": "usps_collection_boxes", "addr:city": "WESKAN", "addr:country": "US", "addr:full": "527 WESKAN AVE", "addr:postcode": "67762", "addr:state": "KS", "amenity": "post_box", "brand": "United States Postal Service", "brand:wikidata": "Q668687", "collection_times": "Mo-Fr 11:00; Sa 08:45", "name": "USPS COLLECTION BOX - PO LOBBY", "nsi_id": "unitedstatespostalservice-a77078", "operator": "United States Postal Service", "operator:short": "USPS", "operator:type": "public", "operator:wikidata": "Q668687", "ref": "6776200002"}, "type": "Feature"}
{"dataset_attributes": {"@spider": "usps_collection_boxes", "spider:collection_time": "2023-11-16T08:25:30.774899"}, "geometry": {"coordinates": [-101.966556499, 38.868437696], "type": "Point"}, "id": "7oFnlMaQT1Nn7xo4JjCi9brDyKo=", "properties": {"@spider": "usps_collection_boxes", "addr:city": "WESKAN", "addr:country": "US", "addr:full": "527 WESKAN AVE", "addr:postcode": "67762", "addr:state": "KS", "amenity": "post_box", "brand": "United States Postal Service", "brand:wikidata": "Q668687", "collection_times": "Mo-Fr 11:00; Sa 08:45", "name": "USPS COLLECTION BOX - PO LOBBY", "nsi_id": "unitedstatespostalservice-a77078", "operator": "United States Postal Service", "operator:short": "USPS", "operator:type": "public", "operator:wikidata": "Q668687", "ref": "6776200004"}, "type": "Feature"}
{"dataset_attributes": {"@spider": "usps_collection_boxes", "spider:collection_time": "2023-11-16T08:25:30.774899"}, "geometry": {"coordinates": [-101.244249, 39.061205], "type": "Point"}, "id": "AF0_5QbGREySFyvDBVa-tjXgkRA=", "properties": {"@spider": "usps_collection_boxes", "addr:city": "WINONA", "addr:country": "US", "addr:full": "304 BELLVIEW AVE", "addr:postcode": "67764", "addr:state": "KS", "amenity": "post_box", "brand": "United States Postal Service", "brand:wikidata": "Q668687", "collection_times": "Mo-Fr 13:40; Sa 11:00", "name": "USPS COLLECTION BOX - BLUE BOX", "note": "ON 12/24 AND 12/31, THIS BOX MAY BE COLLECTED AS EARLY AS 12 NOON.", "nsi_id": "unitedstatespostalservice-a77078", "operator": "United States Postal Service", "operator:short": "USPS", "operator:type": "public", "operator:wikidata": "Q668687", "ref": "6776400001"}, "type": "Feature"}
{"dataset_attributes": {"@spider": "usps_collection_boxes", "spider:collection_time": "2023-11-16T08:25:30.774899"}, "geometry": {"coordinates": [-101.244288, 39.061123], "type": "Point"}, "id": "d8iuz0TjIPQ5Dm7M3wfVEekoyWQ=", "properties": {"@spider": "usps_collection_boxes", "addr:city": "WINONA", "addr:country": "US", "addr:full": "304 BELLVIEW AVE", "addr:postcode": "67764", "addr:state": "KS", "amenity": "post_box", "brand": "United States Postal Service", "brand:wikidata": "Q668687", "collection_times": "Mo-Fr 13:30; Sa 11:00", "name": "USPS COLLECTION BOX - PO LOBBY", "note": "ON 12/24 AND 12/31, THIS BOX MAY BE COLLECTED AS EARLY AS 12 NOON.", "nsi_id": "unitedstatespostalservice-a77078", "operator": "United States Postal Service", "operator:short": "USPS", "operator:type": "public", "operator:wikidata": "Q668687", "ref": "6776400002"}, "type": "Feature"}
{"dataset_attributes": {"@spider": "usps_collection_boxes", "spider:collection_time": "2023-11-16T08:25:30.774899"}, "geometry": {"coordinates": [-101.2442324273, 39.0611607752], "type": "Point"}, "id": "utQziToOLCSuFeCTLws7Jyy_jfM=", "properties": {"@spider": "usps_collection_boxes", "addr:city": "WINONA", "addr:country": "US", "addr:full": "304 BELLVIEW AVE", "addr:postcode": "67764", "addr:state": "KS", "amenity": "post_box", "brand": "United States Postal Service", "brand:wikidata": "Q668687", "collection_times": "Mo-Fr 13:30; Sa 11:00", "name": "USPS COLLECTION BOX - PO LOBBY", "note": "ON 12/24 AND 12/31, THIS BOX MAY BE COLLECTED AS EARLY AS 12 NOON.", "nsi_id": "unitedstatespostalservice-a77078", "operator": "United States Postal Service", "operator:short": "USPS", "operator:type": "public", "operator:wikidata": "Q668687", "ref": "6776400006"}, "type": "Feature"}
