{"geometry": {"coordinates": [-100.016807, 37.754548], "type": "Point"}, "id": "XSrzwA_q-wzl9jBR30LnPyqsCg8=", "properties": {"@spider": "usps_collection_boxes", "addr:city": "DODGE CITY", "addr:country": "US", "addr:full": "700 CENTRAL AVE", "addr:postcode": "67801", "addr:state": "KS", "brand": "USPS", "brand:wikidata": "Q668687", "collection_times": "Mo-Sa 16:35", "name": "USPS COLLECTION BOX - BLUE BOX", "note": "ON 12/24 AND 12/31, THIS BOX MAY BE COLLECTED AS EARLY AS 12 NOON.", "ref": "6780100001"}, "type": "Feature"}
{"geometry": {"coordinates": [-100.020302, 37.736675], "type": "Point"}, "id": "tt7-q2KavkmEYgGTnhBBQkPACGo=", "properties": {"@spider": "usps_collection_boxes", "addr:city": "DODGE CITY", "addr:country": "US", "addr:full": "819 S 2ND AVE", "addr:postcode": "67801", "addr:state": "KS", "brand": "USPS", "brand:wikidata": "Q668687", "collection_times": "Mo-Sa 15:00", "name": "USPS COLLECTION BOX - BLUE BOX", "note": "ON 12/24 AND 12/31, THIS BOX MAY BE COLLECTED AS EARLY AS 12 NOON.", "ref": "6780100010"}, "type": "Feature"}
{"geometry": {"coordinates": [-100.019278, 37.779198], "type": "Point"}, "id": "s1ecv_s-e252j-vjMHb4Ttghm3M=", "properties": {"@spider": "usps_collection_boxes", "addr:city": "DODGE CITY", "addr:country": "US", "addr:full": "2601 CENTRAL AVE", "addr:postcode": "67801", "addr:state": "KS", "brand": "USPS", "brand:wikidata": "Q668687", "collection_times": "Mo-Sa 15:00", "name": "USPS COLLECTION BOX - BLUE BOX", "note": "ON 12/24 AND 12/31, THIS BOX MAY BE COLLECTED AS EARLY AS 12 NOON.", "ref": "6780100011"}, "type": "Feature"}
{"geometry": {"coordinates": [-100.016535, 37.771514], "type": "Point"}, "id": "jsel7NotdErqeKFeZ58VKb2KCks=", "properties": {"@spider": "usps_collection_boxes", "addr:city": "DODGE CITY", "addr:country": "US", "addr:full": "2100 1ST AVE", "addr:postcode": "67801", "addr:state": "KS", "brand": "USPS", "brand:wikidata": "Q668687", "collection_times": "Mo-Sa 15:00", "name": "USPS COLLECTION BOX - BLUE BOX", "note": "ON 12/24 AND 12/31, THIS BOX MAY BE COLLECTED AS EARLY AS 12 NOON.", "ref": "6780100014"}, "type": "Feature"}
{"geometry": {"coordinates": [-100.016807, 37.754548], "type": "Point"}, "id": "Q4jTA9yt-Juh22KPUObo2rGMDXQ=", "properties": {"@spider": "usps_collection_boxes", "addr:city": "DODGE CITY", "addr:country": "US", "addr:full": "700 CENTRAL AVE", "addr:postcode": "67801", "addr:state": "KS", "brand": "USPS", "brand:wikidata": "Q668687", "collection_times": "Mo-Sa 16:35", "name": "USPS COLLECTION BOX - PO LOBBY", "note": "ON 12/24 AND 12/31, THIS BOX MAY BE COLLECTED AS EARLY AS 12 NOON.", "ref": "6780100027"}, "type": "Feature"}
{"geometry": {"coordinates": [-100.035051, 37.767776], "type": "Point"}, "id": "ausnA-4bys9e9hsOViEbU9lAQNI=", "properties": {"@spider": "usps_collection_boxes", "addr:city": "DODGE CITY", "addr:country": "US", "addr:full": "1905 N 14TH AVE", "addr:postcode": "67801", "addr:state": "KS", "brand": "USPS", "brand:wikidata": "Q668687", "collection_times": "Mo-Sa 15:00", "name": "USPS COLLECTION BOX - BLUE BOX", "note": "ON 12/24 AND 12/31, THIS BOX MAY BE COLLECTED AS EARLY AS 12 NOON.", "ref": "6780100029"}, "type": "Feature"}
{"geometry": {"coordinates": [-100.0168053533, 37.7545475692], "type": "Point"}, "id": "uNu1vVvZUkmnJ0uYWXJrESbjmeo=", "properties": {"@spider": "usps_collection_boxes", "addr:city": "DODGE CITY", "addr:country": "US", "addr:full": "700 CENTRAL AVE", "addr:postcode": "67801", "addr:state": "KS", "brand": "USPS", "brand:wikidata": "Q668687", "collection_times": "Mo-Fr 16:35; Sa 12:00", "name": "USPS COLLECTION BOX - PO LOBBY", "note": "ON 12/24 AND 12/31, THIS BOX MAY BE COLLECTED AS EARLY AS 12 NOON.", "ref": "6780100032"}, "type": "Feature"}
{"geometry": {"coordinates": [-99.7657142, 37.189154], "type": "Point"}, "id": "P3F3wbZLXDlwe2S1mgyfFzOagn0=", "properties": {"@spider": "usps_collection_boxes", "addr:city": "ASHLAND", "addr:country": "US", "addr:full": "710 MAIN ST", "addr:postcode": "67831", "addr:state": "KS", "brand": "USPS", "brand:wikidata": "Q668687", "collection_times": "Mo-Fr 11:30; Sa 10:30", "name": "USPS COLLECTION BOX - BLUE BOX", "ref": "6783100001"}, "type": "Feature"}
{"geometry": {"coordinates": [-99.765808, 37.189488], "type": "Point"}, "id": "S5sKIJ2VD1VjbOCCYFiUySMBmAg=", "properties": {"@spider": "usps_collection_boxes", "addr:city": "ASHLAND", "addr:country": "US", "addr:full": "710 MAIN ST", "addr:postcode": "67831", "addr:state": "KS", "brand": "USPS", "brand:wikidata": "Q668687", "collection_times": "Mo-Fr 11:50; Sa 10:30", "name": "USPS COLLECTION BOX - PO LOBBY", "ref": "6783100002"}, "type": "Feature"}
{"geometry": {"coordinates": [-99.765775491, 37.189125251], "type": "Point"}, "id": "Yp0YWGK44gTTA7IQvIyfBrqwi8I=", "properties": {"@spider": "usps_collection_boxes", "addr:city": "ASHLAND", "addr:country": "US", "addr:full": "710 MAIN ST", "addr:postcode": "67831", "addr:state": "KS", "brand": "USPS", "brand:wikidata": "Q668687", "collection_times": "Mo-Fr 11:50; Sa 10:30", "name": "USPS COLLECTION BOX - PO LOBBY", "ref": "6783100003"}, "type": "Feature"}
{"geometry": {"coordinates": [-99.6341346978, 37.5492242515], "type": "Point"}, "id": "oXPw2qJmX5UD2o8LQQTWE0yyLVQ=", "properties": {"@spider": "usps_collection_boxes", "addr:city": "BUCKLIN", "addr:country": "US", "addr:full": "107 S MAIN ST", "addr:postcode": "67834", "addr:state": "KS", "brand": "USPS", "brand:wikidata": "Q668687", "collection_times": "Mo-Fr 12:00; Sa 09:45", "name": "USPS COLLECTION BOX - BLUE BOX", "ref": "6783400001"}, "type": "Feature"}
{"geometry": {"coordinates": [-99.6341346978, 37.5492242515], "type": "Point"}, "id": "ahSXT9Q835rKYF7EBjjPFxc3ErU=", "properties": {"@spider": "usps_collection_boxes", "addr:city": "BUCKLIN", "addr:country": "US", "addr:full": "107 S MAIN ST", "addr:postcode": "67834", "addr:state": "KS", "brand": "USPS", "brand:wikidata": "Q668687", "collection_times": "Mo-Fr 12:00; Sa 09:45", "name": "USPS COLLECTION BOX - PO LOBBY", "ref": "6783400002"}, "type": "Feature"}
{"geometry": {"coordinates": [-99.6341346978, 37.5492242515], "type": "Point"}, "id": "_dpcWdrWnBeaJe_9eMRg8q_hr_g=", "properties": {"@spider": "usps_collection_boxes", "addr:city": "BUCKLIN", "addr:country": "US", "addr:full": "107 S MAIN ST", "addr:postcode": "67834", "addr:state": "KS", "brand": "USPS", "brand:wikidata": "Q668687", "collection_times": "Mo-Fr 12:00; Sa 09:45", "name": "USPS COLLECTION BOX - PO LOBBY", "ref": "6783400003"}, "type": "Feature"}
{"geometry": {"coordinates": [-100.3481480716, 37.8084434666], "type": "Point"}, "id": "lDkWE0Rlvhvg3-BKhwaLBFK-p2E=", "properties": {"@spider": "usps_collection_boxes", "addr:city": "CIMARRON", "addr:country": "US", "addr:full": "207 N MAIN ST", "addr:postcode": "67835", "addr:state": "KS", "brand": "USPS", "brand:wikidata": "Q668687", "collection_times": "Mo-Fr 12:00; Sa 09:45", "name": "USPS COLLECTION BOX - BLUE BOX", "ref": "6783500001"}, "type": "Feature"}
{"geometry": {"coordinates": [-100.3481480716, 37.8084434666], "type": "Point"}, "id": "Hx9WIOttuwjygfHutLVV_ReQ1_U=", "properties": {"@spider": "usps_collection_boxes", "addr:city": "CIMARRON", "addr:country": "US", "addr:full": "207 N MAIN ST", "addr:postcode": "67835", "addr:state": "KS", "brand": "USPS", "brand:wikidata": "Q668687", "collection_times": "Mo-Fr 12:45; Sa 09:45", "name": "USPS COLLECTION BOX - PO LOBBY", "note": "ON 12/24 AND 12/31, THIS BOX MAY BE COLLECTED AS EARLY AS 12 NOON.", "ref": "6783500003"}, "type": "Feature"}
{"geometry": {"coordinates": [-100.3481480716, 37.8084434666], "type": "Point"}, "id": "n_qMDLkZ6uzmerl4k1h4VYEw3-A=", "properties": {"@spider": "usps_collection_boxes", "addr:city": "CIMARRON", "addr:country": "US", "addr:full": "207 N MAIN ST", "addr:postcode": "67835", "addr:state": "KS", "brand": "USPS", "brand:wikidata": "Q668687", "collection_times": "Mo-Fr 12:45; Sa 09:45", "name": "USPS COLLECTION BOX - PO LOBBY", "note": "ON 12/24 AND 12/31, THIS BOX MAY BE COLLECTED AS EARLY AS 12 NOON.", "ref": "6783500004"}, "type": "Feature"}
{"geometry": {"coordinates": [-102.0089122367, 38.0405268191], "type": "Point"}, "id": "-nMqdujmzIS033QP_256HBN9ChQ=", "properties": {"@spider": "usps_collection_boxes", "addr:city": "COOLIDGE", "addr:country": "US", "addr:full": "100 STATE ROAD 50", "addr:postcode": "67836", "addr:state": "KS", "brand": "USPS", "brand:wikidata": "Q668687", "collection_times": "Mo-Sa 11:00", "name": "USPS COLLECTION BOX - PO LOBBY", "ref": "6783600003"}, "type": "Feature"}
{"geometry": {"coordinates": [-100.6299309901, 37.542056999], "type": "Point"}, "id": "qri-UUxEf_zvW_vK0E7A7oAQftM=", "properties": {"@spider": "usps_collection_boxes", "addr:city": "COPELAND", "addr:country": "US", "addr:full": "107 SANTA FE ST", "addr:postcode": "67837", "addr:state": "KS", "brand": "USPS", "brand:wikidata": "Q668687", "collection_times": "Mo-Fr 12:40; Sa 08:45", "name": "USPS COLLECTION BOX - BLUE BOX", "note": "ON 12/24 AND 12/31, THIS BOX MAY BE COLLECTED AS EARLY AS 12 NOON.", "ref": "6783700001"}, "type": "Feature"}
{"geometry": {"coordinates": [-100.629597115, 37.542041665], "type": "Point"}, "id": "WkXDa0sumN-Nj8Kn4w5tclCH93M=", "properties": {"@spider": "usps_collection_boxes", "addr:city": "COPELAND", "addr:country": "US", "addr:full": "107 SANTA FE ST", "addr:postcode": "67837", "addr:state": "KS", "brand": "USPS", "brand:wikidata": "Q668687", "collection_times": "Mo-Fr 12:40; Sa 08:45", "name": "USPS COLLECTION BOX - PO LOBBY", "note": "ON 12/24 AND 12/31, THIS BOX MAY BE COLLECTED AS EARLY AS 12 NOON.", "ref": "6783700002"}, "type": "Feature"}
{"geometry": {"coordinates": [-100.629597115, 37.542041665], "type": "Point"}, "id": "OJjQmfmrkU35OF48f4UeBkSZSeM=", "properties": {"@spider": "usps_collection_boxes", "addr:city": "COPELAND", "addr:country": "US", "addr:full": "107 SANTA FE ST", "addr:postcode": "67837", "addr:state": "KS", "brand": "USPS", "brand:wikidata": "Q668687", "collection_times": "Mo-Fr 12:40; Sa 08:45", "name": "USPS COLLECTION BOX - PO LOBBY", "note": "ON 12/24 AND 12/31, THIS BOX MAY BE COLLECTED AS EARLY AS 12 NOON.", "ref": "6783700003"}, "type": "Feature"}
{"geometry": {"coordinates": [-101.133001616, 37.97926355], "type": "Point"}, "id": "1RWB3LvEDWD5WBRVMlAPF3P5CyY=", "properties": {"@spider": "usps_collection_boxes", "addr:city": "DEERFIELD", "addr:country": "US", "addr:full": "514 MAIN ST", "addr:postcode": "67838", "addr:state": "KS", "brand": "USPS", "brand:wikidata": "Q668687", "collection_times": "Mo-Fr 14:00; Sa 09:45", "name": "USPS COLLECTION BOX - BLUE BOX", "note": "ON 12/24 AND 12/31, THIS BOX MAY BE COLLECTED AS EARLY AS 12 NOON.", "ref": "6783800001"}, "type": "Feature"}
{"geometry": {"coordinates": [-101.133001616, 37.97926355], "type": "Point"}, "id": "_DFYzus9wloe6e_-DRUnYGTqrr8=", "properties": {"@spider": "usps_collection_boxes", "addr:city": "DEERFIELD", "addr:country": "US", "addr:full": "514 MAIN ST", "addr:postcode": "67838", "addr:state": "KS", "brand": "USPS", "brand:wikidata": "Q668687", "collection_times": "Mo-Fr 14:00; Sa 09:45", "name": "USPS COLLECTION BOX - PO LOBBY", "note": "ON 12/24 AND 12/31, THIS BOX MAY BE COLLECTED AS EARLY AS 12 NOON.", "ref": "6783800002"}, "type": "Feature"}
{"geometry": {"coordinates": [-101.133001616, 37.97926355], "type": "Point"}, "id": "eTxm7YDpjQQVP13m4hlAcTMj1kU=", "properties": {"@spider": "usps_collection_boxes", "addr:city": "DEERFIELD", "addr:country": "US", "addr:full": "514 MAIN ST", "addr:postcode": "67838", "addr:state": "KS", "brand": "USPS", "brand:wikidata": "Q668687", "collection_times": "Mo-Fr 14:00; Sa 09:45", "name": "USPS COLLECTION BOX - PO LOBBY", "note": "ON 12/24 AND 12/31, THIS BOX MAY BE COLLECTED AS EARLY AS 12 NOON.", "ref": "6783800003"}, "type": "Feature"}
{"geometry": {"coordinates": [-100.4654961174, 38.4808030511], "type": "Point"}, "id": "9GEeVOhAg6BRA_45j3Za7O-xZXI=", "properties": {"@spider": "usps_collection_boxes", "addr:city": "DIGHTON", "addr:country": "US", "addr:full": "205 S LANE ST", "addr:postcode": "67839", "addr:state": "KS", "brand": "USPS", "brand:wikidata": "Q668687", "collection_times": "Mo-Fr 12:40; Sa 11:45", "name": "USPS COLLECTION BOX - BLUE BOX", "note": "ON 12/24 AND 12/31, THIS BOX MAY BE COLLECTED AS EARLY AS 12 NOON.", "ref": "6783900002"}, "type": "Feature"}
{"geometry": {"coordinates": [-100.4654961174, 38.4808030511], "type": "Point"}, "id": "pdtl0pxapZsddoML8_MDWfn-ot0=", "properties": {"@spider": "usps_collection_boxes", "addr:city": "DIGHTON", "addr:country": "US", "addr:full": "205 S LANE ST", "addr:postcode": "67839", "addr:state": "KS", "brand": "USPS", "brand:wikidata": "Q668687", "collection_times": "Mo-Fr 12:40; Sa 11:45", "name": "USPS COLLECTION BOX - PO LOBBY", "note": "ON 12/24 AND 12/31, THIS BOX MAY BE COLLECTED AS EARLY AS 12 NOON.", "ref": "6783900003"}, "type": "Feature"}
{"geometry": {"coordinates": [-100.4654961174, 38.4808030511], "type": "Point"}, "id": "keU0YOgSD3g0XX-DmGkGbRCo1Ps=", "properties": {"@spider": "usps_collection_boxes", "addr:city": "DIGHTON", "addr:country": "US", "addr:full": "205 S LANE ST", "addr:postcode": "67839", "addr:state": "KS", "brand": "USPS", "brand:wikidata": "Q668687", "collection_times": "Mo-Fr 12:40; Sa 11:45", "name": "USPS COLLECTION BOX - PO LOBBY", "note": "ON 12/24 AND 12/31, THIS BOX MAY BE COLLECTED AS EARLY AS 12 NOON.", "ref": "6783900004"}, "type": "Feature"}
{"geometry": {"coordinates": [-99.9989573479, 37.1496201656], "type": "Point"}, "id": "LO5y9Eqc25Q-zPV_grlH9z3-lkg=", "properties": {"@spider": "usps_collection_boxes", "addr:city": "ENGLEWOOD", "addr:country": "US", "addr:full": "100 N STATE ROAD 283", "addr:postcode": "67840", "addr:state": "KS", "brand": "USPS", "brand:wikidata": "Q668687", "collection_times": "Mo-Sa 10:15", "name": "USPS COLLECTION BOX - BLUE BOX", "ref": "6784000000"}, "type": "Feature"}
{"geometry": {"coordinates": [-99.9989573479, 37.1496201656], "type": "Point"}, "id": "VzqFoxOGiA4KQghwNC375YbiHss=", "properties": {"@spider": "usps_collection_boxes", "addr:city": "ENGLEWOOD", "addr:country": "US", "addr:full": "100 N STATE ROAD 283", "addr:postcode": "67840", "addr:state": "KS", "brand": "USPS", "brand:wikidata": "Q668687", "collection_times": "Mo-Sa 10:15", "name": "USPS COLLECTION BOX - PO LOBBY", "ref": "6784000001"}, "type": "Feature"}
{"geometry": {"coordinates": [-99.9872551, 37.034264404], "type": "Point"}, "id": "qCNOL8y7bnz8vJYUbo9eBvqgrhg=", "properties": {"@spider": "usps_collection_boxes", "addr:city": "ENGLEWOOD", "addr:country": "US", "addr:full": "100 N STATE ROAD 283", "addr:postcode": "67840", "addr:state": "KS", "brand": "USPS", "brand:wikidata": "Q668687", "collection_times": "Mo-Sa 10:15", "name": "USPS COLLECTION BOX - PO LOBBY", "ref": "6784000002"}, "type": "Feature"}
{"geometry": {"coordinates": [-100.233386, 37.652538], "type": "Point"}, "id": "ymc9yFESkY-Mwkx8EHPOAcDeH3s=", "properties": {"@spider": "usps_collection_boxes", "addr:city": "ENSIGN", "addr:country": "US", "addr:full": "306 AUBREY ST", "addr:postcode": "67841", "addr:state": "KS", "brand": "USPS", "brand:wikidata": "Q668687", "collection_times": "Mo-Fr 13:20; Sa 10:15", "name": "USPS COLLECTION BOX - PO LOBBY", "note": "ON 12/24 AND 12/31, THIS BOX MAY BE COLLECTED AS EARLY AS 12 NOON.", "ref": "6784100002"}, "type": "Feature"}
{"geometry": {"coordinates": [-100.233386, 37.652538], "type": "Point"}, "id": "VDH7vq1XlfNc8Wx_WsLhiBAqOqo=", "properties": {"@spider": "usps_collection_boxes", "addr:city": "ENSIGN", "addr:country": "US", "addr:full": "306 AUBREY ST", "addr:postcode": "67841", "addr:state": "KS", "brand": "USPS", "brand:wikidata": "Q668687", "collection_times": "Mo-Fr 13:20; Sa 10:15", "name": "USPS COLLECTION BOX - BLUE BOX", "note": "ON 12/24 AND 12/31, THIS BOX MAY BE COLLECTED AS EARLY AS 12 NOON.", "ref": "6784100003"}, "type": "Feature"}
{"geometry": {"coordinates": [-100.233386809, 37.652534801], "type": "Point"}, "id": "sRoHqWtaC_GnNkxXRGJOp1EXO4c=", "properties": {"@spider": "usps_collection_boxes", "addr:city": "ENSIGN", "addr:country": "US", "addr:full": "306 AUBREY ST", "addr:postcode": "67841", "addr:state": "KS", "brand": "USPS", "brand:wikidata": "Q668687", "collection_times": "Mo-Fr 13:20; Sa 10:15", "name": "USPS COLLECTION BOX - PO LOBBY", "note": "ON 12/24 AND 12/31, THIS BOX MAY BE COLLECTED AS EARLY AS 12 NOON.", "ref": "6784100004"}, "type": "Feature"}
{"geometry": {"coordinates": [-99.753801, 37.63855], "type": "Point"}, "id": "5r6JzS_xZe2Pm2pH5QtdhesOU9k=", "properties": {"@spider": "usps_collection_boxes", "addr:city": "FORD", "addr:country": "US", "addr:full": "601 N MAIN ST", "addr:postcode": "67842", "addr:state": "KS", "brand": "USPS", "brand:wikidata": "Q668687", "collection_times": "Mo-Fr 12:45; Sa 12:00", "name": "USPS COLLECTION BOX - BLUE BOX", "note": "ON 12/24 AND 12/31, THIS BOX MAY BE COLLECTED AS EARLY AS 12 NOON.", "ref": "6784200001"}, "type": "Feature"}
{"geometry": {"coordinates": [-99.753801, 37.63855], "type": "Point"}, "id": "wz_tNRc3caOdlFbZzaEIdRHg89A=", "properties": {"@spider": "usps_collection_boxes", "addr:city": "FORD", "addr:country": "US", "addr:full": "601 N MAIN ST", "addr:postcode": "67842", "addr:state": "KS", "brand": "USPS", "brand:wikidata": "Q668687", "collection_times": "Mo-Fr 12:45; Sa 12:00", "name": "USPS COLLECTION BOX - PO LOBBY", "note": "ON 12/24 AND 12/31, THIS BOX MAY BE COLLECTED AS EARLY AS 12 NOON.", "ref": "6784200002"}, "type": "Feature"}
{"geometry": {"coordinates": [-99.753808713, 37.63845], "type": "Point"}, "id": "Po28fHxkm4qdh_-3YEDk1WaG94c=", "properties": {"@spider": "usps_collection_boxes", "addr:city": "FORD", "addr:country": "US", "addr:full": "601 N MAIN ST", "addr:postcode": "67842", "addr:state": "KS", "brand": "USPS", "brand:wikidata": "Q668687", "collection_times": "Mo-Fr 12:45; Sa 12:00", "name": "USPS COLLECTION BOX - PO LOBBY", "note": "ON 12/24 AND 12/31, THIS BOX MAY BE COLLECTED AS EARLY AS 12 NOON.", "ref": "6784200003"}, "type": "Feature"}
{"geometry": {"coordinates": [-100.1954784582, 37.381302], "type": "Point"}, "id": "ImRk431fEJltVm7Wq9kWX6IyWDo=", "properties": {"@spider": "usps_collection_boxes", "addr:city": "FOWLER", "addr:country": "US", "addr:full": "410 N MAIN ST", "addr:postcode": "67844", "addr:state": "KS", "brand": "USPS", "brand:wikidata": "Q668687", "collection_times": "Mo-Fr 11:30; Sa 09:15", "name": "USPS COLLECTION BOX - BLUE BOX", "ref": "6784400001"}, "type": "Feature"}
{"geometry": {"coordinates": [-100.1954784582, 37.381302], "type": "Point"}, "id": "qwCrQ1UKWF-142JvE7O7Z0IGk18=", "properties": {"@spider": "usps_collection_boxes", "addr:city": "FOWLER", "addr:country": "US", "addr:full": "410 N MAIN ST", "addr:postcode": "67844", "addr:state": "KS", "brand": "USPS", "brand:wikidata": "Q668687", "collection_times": "Mo-Fr 11:15; Sa 09:15", "name": "USPS COLLECTION BOX - PO LOBBY", "ref": "6784400002"}, "type": "Feature"}
{"geometry": {"coordinates": [-100.1954784582, 37.381302], "type": "Point"}, "id": "tG-Pey7FDgYynpBmcZcXvPRFkVQ=", "properties": {"@spider": "usps_collection_boxes", "addr:city": "FOWLER", "addr:country": "US", "addr:full": "410 N MAIN ST", "addr:postcode": "67844", "addr:state": "KS", "brand": "USPS", "brand:wikidata": "Q668687", "collection_times": "Mo-Fr 11:15; Sa 09:15", "name": "USPS COLLECTION BOX - PO LOBBY", "ref": "6784400003"}, "type": "Feature"}
{"geometry": {"coordinates": [-100.855449, 37.964671], "type": "Point"}, "id": "FoSauB6s5POcJo8KZAH4WFldtqw=", "properties": {"@spider": "usps_collection_boxes", "addr:city": "GARDEN CITY", "addr:country": "US", "addr:full": "1509 E FULTON TER", "addr:postcode": "67846", "addr:state": "KS", "brand": "USPS", "brand:wikidata": "Q668687", "collection_times": "Mo-Sa 14:30", "name": "USPS COLLECTION BOX - BLUE BOX", "note": "ON 12/24 AND 12/31, THIS BOX MAY BE COLLECTED AS EARLY AS 12 NOON.", "ref": "6784600005"}, "type": "Feature"}
{"geometry": {"coordinates": [-100.847806, 37.965937], "type": "Point"}, "id": "xpQHUeKgQtqXDPsuDyPFBZZaMI8=", "properties": {"@spider": "usps_collection_boxes", "addr:city": "GARDEN CITY", "addr:country": "US", "addr:full": "405 N CAMPUS DR", "addr:postcode": "67846", "addr:state": "KS", "brand": "USPS", "brand:wikidata": "Q668687", "collection_times": "Mo-Sa 14:30", "name": "USPS COLLECTION BOX - BLUE BOX", "note": "ON 12/24 AND 12/31, THIS BOX MAY BE COLLECTED AS EARLY AS 12 NOON.", "ref": "6784600010"}, "type": "Feature"}
{"geometry": {"coordinates": [-100.858385, 37.976293], "type": "Point"}, "id": "zddJkuAEzCMQzmP7UlT6_DUc-hE=", "properties": {"@spider": "usps_collection_boxes", "addr:city": "GARDEN CITY", "addr:country": "US", "addr:full": "1305 E KANSAS AVE", "addr:postcode": "67846", "addr:state": "KS", "brand": "USPS", "brand:wikidata": "Q668687", "collection_times": "Mo-Sa 14:30", "name": "USPS COLLECTION BOX - BLUE BOX", "note": "ON 12/24 AND 12/31, THIS BOX MAY BE COLLECTED AS EARLY AS 12 NOON.", "ref": "6784600011"}, "type": "Feature"}
{"geometry": {"coordinates": [-100.87101, 37.967303], "type": "Point"}, "id": "Up2RGiUuE104lurY7wMvqV9Vb6k=", "properties": {"@spider": "usps_collection_boxes", "addr:city": "GARDEN CITY", "addr:country": "US", "addr:full": "410 N 6TH ST", "addr:postcode": "67846", "addr:state": "KS", "brand": "USPS", "brand:wikidata": "Q668687", "collection_times": "Mo-Sa 15:15", "name": "USPS COLLECTION BOX - PO LOBBY", "note": "ON 12/24 AND 12/31, THIS BOX MAY BE COLLECTED AS EARLY AS 12 NOON.", "ref": "6784600030"}, "type": "Feature"}
{"geometry": {"coordinates": [-100.834537, 37.9859], "type": "Point"}, "id": "B8TuZM6-RdpxT-Wn8MpGREspUVo=", "properties": {"@spider": "usps_collection_boxes", "addr:city": "GARDEN CITY", "addr:country": "US", "addr:full": "3101 E KANSAS AVE", "addr:postcode": "67846", "addr:state": "KS", "brand": "USPS", "brand:wikidata": "Q668687", "collection_times": "Mo-Sa 14:15", "name": "USPS COLLECTION BOX - BLUE BOX", "note": "ON 12/24 AND 12/31, THIS BOX MAY BE COLLECTED AS EARLY AS 12 NOON.", "ref": "6784600031"}, "type": "Feature"}
{"geometry": {"coordinates": [-100.876479, 37.968422], "type": "Point"}, "id": "6LMIwftT7dJpWeKJ9J5q5H_yeTk=", "properties": {"@spider": "usps_collection_boxes", "addr:city": "GARDEN CITY", "addr:country": "US", "addr:full": "311 N 9TH ST", "addr:postcode": "67846", "addr:state": "KS", "brand": "USPS", "brand:wikidata": "Q668687", "collection_times": "Mo-Sa 14:30", "name": "USPS COLLECTION BOX - BLUE BOX", "note": "ON 12/24 AND 12/31, THIS BOX MAY BE COLLECTED AS EARLY AS 12 NOON.", "ref": "6784600033"}, "type": "Feature"}
{"geometry": {"coordinates": [-100.87101, 37.967303], "type": "Point"}, "id": "8h-y6fMQQGxZgbpLQEARfAYHUKU=", "properties": {"@spider": "usps_collection_boxes", "addr:city": "GARDEN CITY", "addr:country": "US", "addr:full": "410 N 6TH ST", "addr:postcode": "67846", "addr:state": "KS", "brand": "USPS", "brand:wikidata": "Q668687", "collection_times": "Mo-Sa 15:15", "name": "USPS COLLECTION BOX - BLUE BOX", "note": "ON 12/24 AND 12/31, THIS BOX MAY BE COLLECTED AS EARLY AS 12 NOON.", "ref": "6784600036"}, "type": "Feature"}
{"geometry": {"coordinates": [-100.870870288, 37.967666375], "type": "Point"}, "id": "Z39OKQI5rBP1S9uU6xyUVIkX9w0=", "properties": {"@spider": "usps_collection_boxes", "addr:city": "GARDEN CITY", "addr:country": "US", "addr:full": "410 N 6TH ST", "addr:postcode": "67846", "addr:state": "KS", "brand": "USPS", "brand:wikidata": "Q668687", "collection_times": "Mo-Fr 15:15; Sa 13:00", "name": "USPS COLLECTION BOX - PO LOBBY", "note": "ON 12/24 AND 12/31, THIS BOX MAY BE COLLECTED AS EARLY AS 12 NOON.", "ref": "6784600039"}, "type": "Feature"}
{"geometry": {"coordinates": [-99.7144466, 38.122506], "type": "Point"}, "id": "z0l6NjWxlgj_-njuUjfNo-se3Xw=", "properties": {"@spider": "usps_collection_boxes", "addr:city": "HANSTON", "addr:country": "US", "addr:full": "104 N LOGAN ST", "addr:postcode": "67849", "addr:state": "KS", "brand": "USPS", "brand:wikidata": "Q668687", "collection_times": "Mo-Fr 11:00; Sa 09:00", "name": "USPS COLLECTION BOX - BLUE BOX", "ref": "6784900001"}, "type": "Feature"}
{"geometry": {"coordinates": [-99.714483, 38.122278], "type": "Point"}, "id": "NBUH68UyyBIHS-Sk58fV_3Yht4s=", "properties": {"@spider": "usps_collection_boxes", "addr:city": "HANSTON", "addr:country": "US", "addr:full": "104 N LOGAN ST", "addr:postcode": "67849", "addr:state": "KS", "brand": "USPS", "brand:wikidata": "Q668687", "collection_times": "Mo-Fr 11:30; Sa 09:00", "name": "USPS COLLECTION BOX - PO LOBBY", "ref": "6784900002"}, "type": "Feature"}
{"geometry": {"coordinates": [-99.714465283, 38.122240828], "type": "Point"}, "id": "hhACcllLHHw6mdMzMAV04JcxHBc=", "properties": {"@spider": "usps_collection_boxes", "addr:city": "HANSTON", "addr:country": "US", "addr:full": "104 N LOGAN ST", "addr:postcode": "67849", "addr:state": "KS", "brand": "USPS", "brand:wikidata": "Q668687", "collection_times": "Mo-Fr 11:30; Sa 09:00", "name": "USPS COLLECTION BOX - PO LOBBY", "ref": "6784900003"}, "type": "Feature"}
{"geometry": {"coordinates": [-100.617749, 38.600703], "type": "Point"}, "id": "GIeV4iH-S4G_5cEn8sRdAIw2wBQ=", "properties": {"@spider": "usps_collection_boxes", "addr:city": "HEALY", "addr:country": "US", "addr:full": "1001 S ELM ST", "addr:postcode": "67850", "addr:state": "KS", "brand": "USPS", "brand:wikidata": "Q668687", "collection_times": "Mo-Sa 12:15", "name": "USPS COLLECTION BOX - BLUE BOX", "note": "ON 12/24 AND 12/31, THIS BOX MAY BE COLLECTED AS EARLY AS 12 NOON.", "ref": "6785000001"}, "type": "Feature"}
{"geometry": {"coordinates": [-100.617749, 38.600703], "type": "Point"}, "id": "q_51_gL0ksdz0zTdcGnVJucbUQ8=", "properties": {"@spider": "usps_collection_boxes", "addr:city": "HEALY", "addr:country": "US", "addr:full": "1001 S ELM ST", "addr:postcode": "67850", "addr:state": "KS", "brand": "USPS", "brand:wikidata": "Q668687", "collection_times": "Mo-Sa 12:15", "name": "USPS COLLECTION BOX - PO LOBBY", "note": "ON 12/24 AND 12/31, THIS BOX MAY BE COLLECTED AS EARLY AS 12 NOON.", "ref": "6785000002"}, "type": "Feature"}
{"geometry": {"coordinates": [-100.617737585, 38.600297109], "type": "Point"}, "id": "sgwKUXn6BfmjjDxqaUy3z7RiLkg=", "properties": {"@spider": "usps_collection_boxes", "addr:city": "HEALY", "addr:country": "US", "addr:full": "1001 S ELM ST", "addr:postcode": "67850", "addr:state": "KS", "brand": "USPS", "brand:wikidata": "Q668687", "collection_times": "Mo-Sa 12:15", "name": "USPS COLLECTION BOX - PO LOBBY", "note": "ON 12/24 AND 12/31, THIS BOX MAY BE COLLECTED AS EARLY AS 12 NOON.", "ref": "6785000003"}, "type": "Feature"}
{"geometry": {"coordinates": [-100.9918049533, 37.989813403], "type": "Point"}, "id": "d1z3rvLMysSwkSsfCgm0c5bKyqc=", "properties": {"@spider": "usps_collection_boxes", "addr:city": "HOLCOMB", "addr:country": "US", "addr:full": "304 N JONES AVE", "addr:postcode": "67851", "addr:state": "KS", "brand": "USPS", "brand:wikidata": "Q668687", "collection_times": "Mo-Fr 14:00; Sa 10:45", "name": "USPS COLLECTION BOX - BLUE BOX", "note": "ON 12/24 AND 12/31, THIS BOX MAY BE COLLECTED AS EARLY AS 12 NOON.", "ref": "6785100001"}, "type": "Feature"}
{"geometry": {"coordinates": [-100.9918049533, 37.989813403], "type": "Point"}, "id": "_dDeCuFC3BchXPv6Cx7bEYy4fsc=", "properties": {"@spider": "usps_collection_boxes", "addr:city": "HOLCOMB", "addr:country": "US", "addr:full": "304 N JONES AVE", "addr:postcode": "67851", "addr:state": "KS", "brand": "USPS", "brand:wikidata": "Q668687", "collection_times": "Mo-Fr 14:40; Sa 10:45", "name": "USPS COLLECTION BOX - PO LOBBY", "note": "ON 12/24 AND 12/31, THIS BOX MAY BE COLLECTED AS EARLY AS 12 NOON.", "ref": "6785100005"}, "type": "Feature"}
{"geometry": {"coordinates": [-100.9918049533, 37.989813403], "type": "Point"}, "id": "hpQDMJHdOmeJ_C95yB9jEcbKE2E=", "properties": {"@spider": "usps_collection_boxes", "addr:city": "HOLCOMB", "addr:country": "US", "addr:full": "304 N JONES AVE", "addr:postcode": "67851", "addr:state": "KS", "brand": "USPS", "brand:wikidata": "Q668687", "collection_times": "Mo-Fr 14:40; Sa 10:45", "name": "USPS COLLECTION BOX - PO LOBBY", "note": "ON 12/24 AND 12/31, THIS BOX MAY BE COLLECTED AS EARLY AS 12 NOON.", "ref": "6785100007"}, "type": "Feature"}
{"geometry": {"coordinates": [-100.454734474, 37.827757196], "type": "Point"}, "id": "Cs1cjEz2VNhurdxOyv4C7MHAwMU=", "properties": {"@spider": "usps_collection_boxes", "addr:city": "INGALLS", "addr:country": "US", "addr:full": "111 S MAIN ST", "addr:postcode": "67853", "addr:state": "KS", "brand": "USPS", "brand:wikidata": "Q668687", "collection_times": "Mo-Fr 12:15; Sa 11:15", "name": "USPS COLLECTION BOX - BLUE BOX", "note": "ON 12/24 AND 12/31, THIS BOX MAY BE COLLECTED AS EARLY AS 12 NOON.", "ref": "6785300001"}, "type": "Feature"}
{"geometry": {"coordinates": [-100.454734474, 37.827757196], "type": "Point"}, "id": "mTqGCI133JHcE6v0R2wAvhKykE8=", "properties": {"@spider": "usps_collection_boxes", "addr:city": "INGALLS", "addr:country": "US", "addr:full": "111 S MAIN ST", "addr:postcode": "67853", "addr:state": "KS", "brand": "USPS", "brand:wikidata": "Q668687", "collection_times": "Mo-Fr 12:15; Sa 11:15", "name": "USPS COLLECTION BOX - PO LOBBY", "note": "ON 12/24 AND 12/31, THIS BOX MAY BE COLLECTED AS EARLY AS 12 NOON.", "ref": "6785300002"}, "type": "Feature"}
{"geometry": {"coordinates": [-100.454734474, 37.827757196], "type": "Point"}, "id": "POzcEPikt0ezlD4YXNZagAbqU3A=", "properties": {"@spider": "usps_collection_boxes", "addr:city": "INGALLS", "addr:country": "US", "addr:full": "111 S MAIN ST", "addr:postcode": "67853", "addr:state": "KS", "brand": "USPS", "brand:wikidata": "Q668687", "collection_times": "Mo-Fr 12:15; Sa 11:15", "name": "USPS COLLECTION BOX - PO LOBBY", "note": "ON 12/24 AND 12/31, THIS BOX MAY BE COLLECTED AS EARLY AS 12 NOON.", "ref": "6785300003"}, "type": "Feature"}
{"geometry": {"coordinates": [-99.8924951026, 38.0864786424], "type": "Point"}, "id": "La2aGiM9S6pzt209oU_omzl11e0=", "properties": {"@spider": "usps_collection_boxes", "addr:city": "JETMORE", "addr:country": "US", "addr:full": "320 BOWLUS ST", "addr:postcode": "67854", "addr:state": "KS", "brand": "USPS", "brand:wikidata": "Q668687", "collection_times": "Mo-Fr 11:00; Sa 09:45", "name": "USPS COLLECTION BOX - BLUE BOX", "ref": "6785400001"}, "type": "Feature"}
{"geometry": {"coordinates": [-99.8924951026, 38.0864786424], "type": "Point"}, "id": "lvA0A097nBICaYaYUjX3GrpHVE4=", "properties": {"@spider": "usps_collection_boxes", "addr:city": "JETMORE", "addr:country": "US", "addr:full": "320 BOWLUS ST", "addr:postcode": "67854", "addr:state": "KS", "brand": "USPS", "brand:wikidata": "Q668687", "collection_times": "Mo-Fr 11:55; Sa 09:45", "name": "USPS COLLECTION BOX - PO LOBBY", "ref": "6785400002"}, "type": "Feature"}
{"geometry": {"coordinates": [-99.8924951026, 38.0864786424], "type": "Point"}, "id": "D9Kc4gKFn-vtAZagFROOiohxQX0=", "properties": {"@spider": "usps_collection_boxes", "addr:city": "JETMORE", "addr:country": "US", "addr:full": "320 BOWLUS ST", "addr:postcode": "67854", "addr:state": "KS", "brand": "USPS", "brand:wikidata": "Q668687", "collection_times": "Mo-Fr 11:55; Sa 09:45", "name": "USPS COLLECTION BOX - PO LOBBY", "ref": "6785400003"}, "type": "Feature"}
{"geometry": {"coordinates": [-101.7507234628, 37.5700660613], "type": "Point"}, "id": "PZ-IS0a7UGrfDL8kvK5OCMuLBiA=", "properties": {"@spider": "usps_collection_boxes", "addr:city": "JOHNSON", "addr:country": "US", "addr:full": "115 S MAIN ST", "addr:postcode": "67855", "addr:state": "KS", "brand": "USPS", "brand:wikidata": "Q668687", "collection_times": "Mo-Fr 13:20; Sa 12:45", "name": "USPS COLLECTION BOX - BLUE BOX", "note": "ON 12/24 AND 12/31, THIS BOX MAY BE COLLECTED AS EARLY AS 12 NOON.", "ref": "6785500002"}, "type": "Feature"}
{"geometry": {"coordinates": [-101.7507234628, 37.5700660613], "type": "Point"}, "id": "LAT23lP4hLT1PM9kDUjJi9kamnM=", "properties": {"@spider": "usps_collection_boxes", "addr:city": "JOHNSON", "addr:country": "US", "addr:full": "115 S MAIN ST", "addr:postcode": "67855", "addr:state": "KS", "brand": "USPS", "brand:wikidata": "Q668687", "collection_times": "Mo-Fr 13:20; Sa 12:45", "name": "USPS COLLECTION BOX - PO LOBBY", "note": "ON 12/24 AND 12/31, THIS BOX MAY BE COLLECTED AS EARLY AS 12 NOON.", "ref": "6785500003"}, "type": "Feature"}
{"geometry": {"coordinates": [-101.7507234628, 37.5700660613], "type": "Point"}, "id": "n4nHuGdrHm2JHu-CzSNRyZCh6m0=", "properties": {"@spider": "usps_collection_boxes", "addr:city": "JOHNSON", "addr:country": "US", "addr:full": "115 S MAIN ST", "addr:postcode": "67855", "addr:state": "KS", "brand": "USPS", "brand:wikidata": "Q668687", "collection_times": "Mo-Fr 13:20; Sa 12:45", "name": "USPS COLLECTION BOX - PO LOBBY", "note": "ON 12/24 AND 12/31, THIS BOX MAY BE COLLECTED AS EARLY AS 12 NOON.", "ref": "6785500004"}, "type": "Feature"}
{"geometry": {"coordinates": [-101.586777268, 37.856494169], "type": "Point"}, "id": "HmxGGpteY0P5l_kgslBWeH88rLw=", "properties": {"@spider": "usps_collection_boxes", "addr:city": "KENDALL", "addr:country": "US", "addr:full": "102 W B ST", "addr:postcode": "67857", "addr:state": "KS", "brand": "USPS", "brand:wikidata": "Q668687", "collection_times": "Mo-Fr 11:45; Sa 10:00", "name": "USPS COLLECTION BOX - BLUE BOX", "ref": "6785700001"}, "type": "Feature"}
{"geometry": {"coordinates": [-101.586777268, 37.856494169], "type": "Point"}, "id": "jmSM76xhmwuLkBrq5u0gVRXAj88=", "properties": {"@spider": "usps_collection_boxes", "addr:city": "KENDALL", "addr:country": "US", "addr:full": "102 W B ST", "addr:postcode": "67857", "addr:state": "KS", "brand": "USPS", "brand:wikidata": "Q668687", "collection_times": "Mo-Fr 11:50; Sa 10:00", "name": "USPS COLLECTION BOX - PO LOBBY", "ref": "6785700002"}, "type": "Feature"}
{"geometry": {"coordinates": [-101.5454811, 37.9347715], "type": "Point"}, "id": "Zgo5ZOnKZoRnCyLakGnxF-_G72s=", "properties": {"@spider": "usps_collection_boxes", "addr:city": "KENDALL", "addr:country": "US", "addr:full": "102 W B ST", "addr:postcode": "67857", "addr:state": "KS", "brand": "USPS", "brand:wikidata": "Q668687", "collection_times": "Mo-Fr 11:50; Sa 10:00", "name": "USPS COLLECTION BOX - PO LOBBY", "ref": "6785700003"}, "type": "Feature"}
{"geometry": {"coordinates": [-100.700137, 37.20346], "type": "Point"}, "id": "4ziSaJb8ZY4daxaKfwiSl0ITw1I=", "properties": {"@spider": "usps_collection_boxes", "addr:city": "KISMET", "addr:country": "US", "addr:full": "506 MAIN ST", "addr:postcode": "67859", "addr:state": "KS", "brand": "USPS", "brand:wikidata": "Q668687", "collection_times": "Mo-Fr 11:45; Sa 10:00", "name": "USPS COLLECTION BOX - BLUE BOX", "ref": "6785900001"}, "type": "Feature"}
{"geometry": {"coordinates": [-100.700137, 37.20346], "type": "Point"}, "id": "-ugeP82r6qWMs_toQJGk9umR_x4=", "properties": {"@spider": "usps_collection_boxes", "addr:city": "KISMET", "addr:country": "US", "addr:full": "506 MAIN ST", "addr:postcode": "67859", "addr:state": "KS", "brand": "USPS", "brand:wikidata": "Q668687", "collection_times": "Mo-Fr 11:40; Sa 10:00", "name": "USPS COLLECTION BOX - PO LOBBY", "ref": "6785900002"}, "type": "Feature"}
{"geometry": {"coordinates": [-100.700136039, 37.203453335], "type": "Point"}, "id": "CgaccsEP8zzTvTd6JEmwXilJTjQ=", "properties": {"@spider": "usps_collection_boxes", "addr:city": "KISMET", "addr:country": "US", "addr:full": "506 MAIN ST", "addr:postcode": "67859", "addr:state": "KS", "brand": "USPS", "brand:wikidata": "Q668687", "collection_times": "Mo-Fr 11:40; Sa 10:00", "name": "USPS COLLECTION BOX - PO LOBBY", "ref": "6785900003"}, "type": "Feature"}
{"geometry": {"coordinates": [-101.254746, 37.941715], "type": "Point"}, "id": "3HibHKzDuGCi3vpdOVRg-dM2sfI=", "properties": {"@spider": "usps_collection_boxes", "addr:city": "LAKIN", "addr:country": "US", "addr:full": "108 E LINCOLN AVE", "addr:postcode": "67860", "addr:state": "KS", "brand": "USPS", "brand:wikidata": "Q668687", "collection_times": "Mo-Fr 14:15; Sa 10:45", "name": "USPS COLLECTION BOX - BLUE BOX", "note": "ON 12/24 AND 12/31, THIS BOX MAY BE COLLECTED AS EARLY AS 12 NOON.", "ref": "6786000001"}, "type": "Feature"}
{"geometry": {"coordinates": [-101.254746, 37.941715], "type": "Point"}, "id": "SKSzlty81ostXPpHBUhMAUFA_Rw=", "properties": {"@spider": "usps_collection_boxes", "addr:city": "LAKIN", "addr:country": "US", "addr:full": "108 E LINCOLN AVE", "addr:postcode": "67860", "addr:state": "KS", "brand": "USPS", "brand:wikidata": "Q668687", "collection_times": "Mo-Fr 14:15; Sa 10:45", "name": "USPS COLLECTION BOX - PO LOBBY", "note": "ON 12/24 AND 12/31, THIS BOX MAY BE COLLECTED AS EARLY AS 12 NOON.", "ref": "6786000002"}, "type": "Feature"}
{"geometry": {"coordinates": [-101.2547464988, 37.9417133284], "type": "Point"}, "id": "Z40-zEcOzUqB_1WkT1KI3Ux8Vkc=", "properties": {"@spider": "usps_collection_boxes", "addr:city": "LAKIN", "addr:country": "US", "addr:full": "108 E LINCOLN AVE", "addr:postcode": "67860", "addr:state": "KS", "brand": "USPS", "brand:wikidata": "Q668687", "collection_times": "Mo-Fr 14:15; Sa 10:45", "name": "USPS COLLECTION BOX - PO LOBBY", "note": "ON 12/24 AND 12/31, THIS BOX MAY BE COLLECTED AS EARLY AS 12 NOON.", "ref": "6786000003"}, "type": "Feature"}
{"geometry": {"coordinates": [-101.3582834556, 38.4802229872], "type": "Point"}, "id": "2_2Ej5rNi3zuyoPNZW3e3VnYCBQ=", "properties": {"@spider": "usps_collection_boxes", "addr:city": "LEOTI", "addr:country": "US", "addr:full": "209 N 4TH ST", "addr:postcode": "67861", "addr:state": "KS", "brand": "USPS", "brand:wikidata": "Q668687", "collection_times": "Mo-Fr 12:35; Sa 10:45", "name": "USPS COLLECTION BOX - BLUE BOX", "note": "ON 12/24 AND 12/31, THIS BOX MAY BE COLLECTED AS EARLY AS 12 NOON.", "ref": "6786100002"}, "type": "Feature"}
{"geometry": {"coordinates": [-101.3582834556, 38.4802229872], "type": "Point"}, "id": "KwsAszAV1smTDlnyw4K5PjE09_A=", "properties": {"@spider": "usps_collection_boxes", "addr:city": "LEOTI", "addr:country": "US", "addr:full": "209 N 4TH ST", "addr:postcode": "67861", "addr:state": "KS", "brand": "USPS", "brand:wikidata": "Q668687", "collection_times": "Mo-Fr 12:35; Sa 10:45", "name": "USPS COLLECTION BOX - PO LOBBY", "note": "ON 12/24 AND 12/31, THIS BOX MAY BE COLLECTED AS EARLY AS 12 NOON.", "ref": "6786100003"}, "type": "Feature"}
{"geometry": {"coordinates": [-101.3582834556, 38.4802229872], "type": "Point"}, "id": "g4IIOO4bsnj1uhPxs8l34p2152g=", "properties": {"@spider": "usps_collection_boxes", "addr:city": "LEOTI", "addr:country": "US", "addr:full": "209 N 4TH ST", "addr:postcode": "67861", "addr:state": "KS", "brand": "USPS", "brand:wikidata": "Q668687", "collection_times": "Mo-Fr 12:35; Sa 10:45", "name": "USPS COLLECTION BOX - PO LOBBY", "note": "ON 12/24 AND 12/31, THIS BOX MAY BE COLLECTED AS EARLY AS 12 NOON.", "ref": "6786100004"}, "type": "Feature"}
{"geometry": {"coordinates": [-101.3582834556, 38.4802229872], "type": "Point"}, "id": "EysvAIR_3JnDvo0cJWpxaWtOe50=", "properties": {"@spider": "usps_collection_boxes", "addr:city": "LEOTI", "addr:country": "US", "addr:full": "209 N 4TH ST", "addr:postcode": "67861", "addr:state": "KS", "brand": "USPS", "brand:wikidata": "Q668687", "collection_times": "Mo-Fr 12:35; Sa 10:45", "name": "USPS COLLECTION BOX - PO LOBBY", "note": "ON 12/24 AND 12/31, THIS BOX MAY BE COLLECTED AS EARLY AS 12 NOON.", "ref": "6786100005"}, "type": "Feature"}
{"geometry": {"coordinates": [-101.885075, 37.523012], "type": "Point"}, "id": "tCWQZarJOrEPZEn_TRlezkBK9Dg=", "properties": {"@spider": "usps_collection_boxes", "addr:city": "MANTER", "addr:country": "US", "addr:full": "216 N MAIN ST", "addr:postcode": "67862", "addr:state": "KS", "brand": "USPS", "brand:wikidata": "Q668687", "collection_times": "Mo-Fr 11:00; Sa 11:30", "name": "USPS COLLECTION BOX - BLUE BOX", "ref": "6786200001"}, "type": "Feature"}
{"geometry": {"coordinates": [-101.885075, 37.523012], "type": "Point"}, "id": "510l1zIBlI3HIGgPJnNsHeaqxao=", "properties": {"@spider": "usps_collection_boxes", "addr:city": "MANTER", "addr:country": "US", "addr:full": "216 N MAIN ST", "addr:postcode": "67862", "addr:state": "KS", "brand": "USPS", "brand:wikidata": "Q668687", "collection_times": "Mo-Fr 11:00; Sa 11:30", "name": "USPS COLLECTION BOX - PO LOBBY", "ref": "6786200002"}, "type": "Feature"}
{"geometry": {"coordinates": [-101.885098657, 37.522981487], "type": "Point"}, "id": "bxxUdhsyG1N29cp-9X1MAlkjILs=", "properties": {"@spider": "usps_collection_boxes", "addr:city": "MANTER", "addr:country": "US", "addr:full": "216 N MAIN ST", "addr:postcode": "67862", "addr:state": "KS", "brand": "USPS", "brand:wikidata": "Q668687", "collection_times": "Mo-Fr 11:00; Sa 11:30", "name": "USPS COLLECTION BOX - PO LOBBY", "ref": "6786200003"}, "type": "Feature"}
{"geometry": {"coordinates": [-100.339802, 37.284374], "type": "Point"}, "id": "OiQTAsXvTH5e0jL0P-14sQZ_P8g=", "properties": {"@spider": "usps_collection_boxes", "addr:city": "MEADE", "addr:country": "US", "addr:full": "101 E WEST PLAINS ST", "addr:postcode": "67864", "addr:state": "KS", "brand": "USPS", "brand:wikidata": "Q668687", "collection_times": "Mo-Fr 12:20; Sa 10:45", "name": "USPS COLLECTION BOX - BLUE BOX", "note": "ON 12/24 AND 12/31, THIS BOX MAY BE COLLECTED AS EARLY AS 12 NOON.", "ref": "6786400001"}, "type": "Feature"}
{"geometry": {"coordinates": [-100.339802, 37.284374], "type": "Point"}, "id": "Jd8GPVBTWixvPrMcg_jtdf0jzao=", "properties": {"@spider": "usps_collection_boxes", "addr:city": "MEADE", "addr:country": "US", "addr:full": "101 E WEST PLAINS ST", "addr:postcode": "67864", "addr:state": "KS", "brand": "USPS", "brand:wikidata": "Q668687", "collection_times": "Mo-Fr 12:20; Sa 10:45", "name": "USPS COLLECTION BOX - PO LOBBY", "note": "ON 12/24 AND 12/31, THIS BOX MAY BE COLLECTED AS EARLY AS 12 NOON.", "ref": "6786400002"}, "type": "Feature"}
{"geometry": {"coordinates": [-100.3397308324, 37.2843664701], "type": "Point"}, "id": "yGloiuZxTtlQWF2uXsXoWelgNQE=", "properties": {"@spider": "usps_collection_boxes", "addr:city": "MEADE", "addr:country": "US", "addr:full": "101 E WEST PLAINS ST", "addr:postcode": "67864", "addr:state": "KS", "brand": "USPS", "brand:wikidata": "Q668687", "collection_times": "Mo-Fr 12:20; Sa 10:45", "name": "USPS COLLECTION BOX - PO LOBBY", "note": "ON 12/24 AND 12/31, THIS BOX MAY BE COLLECTED AS EARLY AS 12 NOON.", "ref": "6786400003"}, "type": "Feature"}
{"geometry": {"coordinates": [-100.013797, 37.442872], "type": "Point"}, "id": "Sd5Yg-1kxb9vZto65CX9arIL1WU=", "properties": {"@spider": "usps_collection_boxes", "addr:city": "MINNEOLA", "addr:country": "US", "addr:full": "116 S MAIN ST", "addr:postcode": "67865", "addr:state": "KS", "brand": "USPS", "brand:wikidata": "Q668687", "collection_times": "Mo-Fr 12:45; Sa 09:15", "name": "USPS COLLECTION BOX - BLUE BOX", "note": "ON 12/24 AND 12/31, THIS BOX MAY BE COLLECTED AS EARLY AS 12 NOON.", "ref": "6786500001"}, "type": "Feature"}
{"geometry": {"coordinates": [-100.013797, 37.442872], "type": "Point"}, "id": "QcqR8DvBOWoEM0NBCDAW_TwWLMM=", "properties": {"@spider": "usps_collection_boxes", "addr:city": "MINNEOLA", "addr:country": "US", "addr:full": "116 S MAIN ST", "addr:postcode": "67865", "addr:state": "KS", "brand": "USPS", "brand:wikidata": "Q668687", "collection_times": "Mo-Fr 13:00; Sa 09:15", "name": "USPS COLLECTION BOX - PO LOBBY", "note": "ON 12/24 AND 12/31, THIS BOX MAY BE COLLECTED AS EARLY AS 12 NOON.", "ref": "6786500002"}, "type": "Feature"}
{"geometry": {"coordinates": [-100.0137958927, 37.442871199], "type": "Point"}, "id": "Z7uT3WAFUD41GTwwqHOUCrslKl4=", "properties": {"@spider": "usps_collection_boxes", "addr:city": "MINNEOLA", "addr:country": "US", "addr:full": "116 S MAIN ST", "addr:postcode": "67865", "addr:state": "KS", "brand": "USPS", "brand:wikidata": "Q668687", "collection_times": "Mo-Fr 13:00; Sa 09:15", "name": "USPS COLLECTION BOX - PO LOBBY", "note": "ON 12/24 AND 12/31, THIS BOX MAY BE COLLECTED AS EARLY AS 12 NOON.", "ref": "6786500003"}, "type": "Feature"}
{"geometry": {"coordinates": [-100.442557987, 37.5976529893], "type": "Point"}, "id": "pkmZWwUuvCJUF9rpahy61q__Hls=", "properties": {"@spider": "usps_collection_boxes", "addr:city": "MONTEZUMA", "addr:country": "US", "addr:full": "207 N AZTEC ST", "addr:postcode": "67867", "addr:state": "KS", "brand": "USPS", "brand:wikidata": "Q668687", "collection_times": "Mo-Fr 13:00; Sa 10:15", "name": "USPS COLLECTION BOX - BLUE BOX", "note": "ON 12/24 AND 12/31, THIS BOX MAY BE COLLECTED AS EARLY AS 12 NOON.", "ref": "6786700001"}, "type": "Feature"}
{"geometry": {"coordinates": [-100.4428053416, 37.59768], "type": "Point"}, "id": "yhPp0CQPl4gyLI7y2_z4stkWps0=", "properties": {"@spider": "usps_collection_boxes", "addr:city": "MONTEZUMA", "addr:country": "US", "addr:full": "207 N AZTEC ST", "addr:postcode": "67867", "addr:state": "KS", "brand": "USPS", "brand:wikidata": "Q668687", "collection_times": "Mo-Fr 13:00; Sa 10:15", "name": "USPS COLLECTION BOX - PO LOBBY", "note": "ON 12/24 AND 12/31, THIS BOX MAY BE COLLECTED AS EARLY AS 12 NOON.", "ref": "6786700002"}, "type": "Feature"}
{"geometry": {"coordinates": [-100.4428053416, 37.59768], "type": "Point"}, "id": "SLHq1kKXPfVskYG6wh74a5em7eg=", "properties": {"@spider": "usps_collection_boxes", "addr:city": "MONTEZUMA", "addr:country": "US", "addr:full": "207 N AZTEC ST", "addr:postcode": "67867", "addr:state": "KS", "brand": "USPS", "brand:wikidata": "Q668687", "collection_times": "Mo-Fr 13:00; Sa 10:15", "name": "USPS COLLECTION BOX - PO LOBBY", "note": "ON 12/24 AND 12/31, THIS BOX MAY BE COLLECTED AS EARLY AS 12 NOON.", "ref": "6786700003"}, "type": "Feature"}
{"geometry": {"coordinates": [-100.589702, 37.26021], "type": "Point"}, "id": "jN342MYt-7L6WkbYnSJ24uc5CqM=", "properties": {"@spider": "usps_collection_boxes", "addr:city": "PLAINS", "addr:country": "US", "addr:full": "416 GRAND AVE", "addr:postcode": "67869", "addr:state": "KS", "brand": "USPS", "brand:wikidata": "Q668687", "collection_times": "Mo-Fr 12:00; Sa 10:15", "name": "USPS COLLECTION BOX - BLUE BOX", "ref": "6786900001"}, "type": "Feature"}
{"geometry": {"coordinates": [-100.589702, 37.26021], "type": "Point"}, "id": "5qLCe90r-QzbdDogtBmV8dEu1Tc=", "properties": {"@spider": "usps_collection_boxes", "addr:city": "PLAINS", "addr:country": "US", "addr:full": "416 GRAND AVE", "addr:postcode": "67869", "addr:state": "KS", "brand": "USPS", "brand:wikidata": "Q668687", "collection_times": "Mo-Fr 12:00; Sa 10:15", "name": "USPS COLLECTION BOX - PO LOBBY", "ref": "6786900002"}, "type": "Feature"}
{"geometry": {"coordinates": [-100.5896827845, 37.2601771926], "type": "Point"}, "id": "OVsQJ3I6nOmajr764XBI_h1PYhM=", "properties": {"@spider": "usps_collection_boxes", "addr:city": "PLAINS", "addr:country": "US", "addr:full": "416 GRAND AVE", "addr:postcode": "67869", "addr:state": "KS", "brand": "USPS", "brand:wikidata": "Q668687", "collection_times": "Mo-Fr 12:00; Sa 10:15", "name": "USPS COLLECTION BOX - PO LOBBY", "ref": "6786900003"}, "type": "Feature"}
{"geometry": {"coordinates": [-100.985764, 37.438911], "type": "Point"}, "id": "TbxcvzRIkQ-_8B7wd6m7wwfCxv4=", "properties": {"@spider": "usps_collection_boxes", "addr:city": "SATANTA", "addr:country": "US", "addr:full": "117 SEQUOYAH ST", "addr:postcode": "67870", "addr:state": "KS", "brand": "USPS", "brand:wikidata": "Q668687", "collection_times": "Mo-Fr 11:00; Sa 10:30", "name": "USPS COLLECTION BOX - BLUE BOX", "ref": "6787000001"}, "type": "Feature"}
{"geometry": {"coordinates": [-100.985642, 37.440346], "type": "Point"}, "id": "ExHgvf3PHkuCq0MJqaC68I50YE8=", "properties": {"@spider": "usps_collection_boxes", "addr:city": "SATANTA", "addr:country": "US", "addr:full": "117 SEQUOYAH ST", "addr:postcode": "67870", "addr:state": "KS", "brand": "USPS", "brand:wikidata": "Q668687", "collection_times": "Mo-Fr 12:00; Sa 10:45", "name": "USPS COLLECTION BOX - PO LOBBY", "ref": "6787000002"}, "type": "Feature"}
{"geometry": {"coordinates": [-100.9857040209, 37.4403003193], "type": "Point"}, "id": "qxSBwhPMktvo2Ob8T8QDAMBFP_A=", "properties": {"@spider": "usps_collection_boxes", "addr:city": "SATANTA", "addr:country": "US", "addr:full": "117 SEQUOYAH ST", "addr:postcode": "67870", "addr:state": "KS", "brand": "USPS", "brand:wikidata": "Q668687", "collection_times": "Mo-Fr 12:00; Sa 10:45", "name": "USPS COLLECTION BOX - PO LOBBY", "ref": "6787000003"}, "type": "Feature"}
{"geometry": {"coordinates": [-100.907036, 38.484558], "type": "Point"}, "id": "p2BmOQmozFjDh120KlAnRK28RTA=", "properties": {"@spider": "usps_collection_boxes", "addr:city": "SCOTT CITY", "addr:country": "US", "addr:full": "100 W 3RD ST", "addr:postcode": "67871", "addr:state": "KS", "brand": "USPS", "brand:wikidata": "Q668687", "collection_times": "Mo-Fr 13:10; Sa 10:30", "name": "USPS COLLECTION BOX - BLUE BOX", "note": "ON 12/24 AND 12/31, THIS BOX MAY BE COLLECTED AS EARLY AS 12 NOON.", "ref": "6787100001"}, "type": "Feature"}
{"geometry": {"coordinates": [-100.907035, 38.484554], "type": "Point"}, "id": "RzjhTciN36eCtTHQ9L3bH1WaE0w=", "properties": {"@spider": "usps_collection_boxes", "addr:city": "SCOTT CITY", "addr:country": "US", "addr:full": "100 W 3RD ST", "addr:postcode": "67871", "addr:state": "KS", "brand": "USPS", "brand:wikidata": "Q668687", "collection_times": "Mo-Fr 13:10; Sa 10:30", "name": "USPS COLLECTION BOX - BLUE BOX", "note": "ON 12/24 AND 12/31, THIS BOX MAY BE COLLECTED AS EARLY AS 12 NOON.", "ref": "6787100003"}, "type": "Feature"}
{"geometry": {"coordinates": [-100.907035, 38.484554], "type": "Point"}, "id": "0laSSa0MTNd9TsD_z6pLog3DCYg=", "properties": {"@spider": "usps_collection_boxes", "addr:city": "SCOTT CITY", "addr:country": "US", "addr:full": "100 W 3RD ST", "addr:postcode": "67871", "addr:state": "KS", "brand": "USPS", "brand:wikidata": "Q668687", "collection_times": "Mo-Fr 13:10; Sa 10:45", "name": "USPS COLLECTION BOX - PO LOBBY", "note": "ON 12/24 AND 12/31, THIS BOX MAY BE COLLECTED AS EARLY AS 12 NOON.", "ref": "6787100004"}, "type": "Feature"}
{"geometry": {"coordinates": [-100.906958081, 38.484855555], "type": "Point"}, "id": "IV5gx7o-D_mfgcHI3M9xh9I5Fio=", "properties": {"@spider": "usps_collection_boxes", "addr:city": "SCOTT CITY", "addr:country": "US", "addr:full": "211 S MAIN ST", "addr:postcode": "67871", "addr:state": "KS", "brand": "USPS", "brand:wikidata": "Q668687", "collection_times": "Mo-Fr 13:10; Sa 10:45", "name": "USPS COLLECTION BOX - PO LOBBY", "note": "ON 12/24 AND 12/31, THIS BOX MAY BE COLLECTED AS EARLY AS 12 NOON.", "ref": "6787100005"}, "type": "Feature"}
{"geometry": {"coordinates": [-99.7549742839, 37.8449000466], "type": "Point"}, "id": "PMJwyeTdLpAqMgqM5vjwCGtdlJc=", "properties": {"@spider": "usps_collection_boxes", "addr:city": "SPEARVILLE", "addr:country": "US", "addr:full": "302 MAIN ST", "addr:postcode": "67876", "addr:state": "KS", "brand": "USPS", "brand:wikidata": "Q668687", "collection_times": "Mo-Fr 12:45; Sa 08:45", "name": "USPS COLLECTION BOX - BLUE BOX", "note": "ON 12/24 AND 12/31, THIS BOX MAY BE COLLECTED AS EARLY AS 12 NOON.", "ref": "6787600001"}, "type": "Feature"}
{"geometry": {"coordinates": [-99.755895, 37.849046], "type": "Point"}, "id": "9Z7uj-IVTT--gamQ7cNEenBRn4Y=", "properties": {"@spider": "usps_collection_boxes", "addr:city": "SPEARVILLE", "addr:country": "US", "addr:full": "302 MAIN ST", "addr:postcode": "67876", "addr:state": "KS", "brand": "USPS", "brand:wikidata": "Q668687", "collection_times": "Mo-Fr 12:45; Sa 08:45", "name": "USPS COLLECTION BOX - PO LOBBY", "note": "ON 12/24 AND 12/31, THIS BOX MAY BE COLLECTED AS EARLY AS 12 NOON.", "ref": "6787600002"}, "type": "Feature"}
{"geometry": {"coordinates": [-99.7560070744, 37.8491800222], "type": "Point"}, "id": "n8hg-u1H7-akTClIcAo9CaSOS-w=", "properties": {"@spider": "usps_collection_boxes", "addr:city": "SPEARVILLE", "addr:country": "US", "addr:full": "302 MAIN ST", "addr:postcode": "67876", "addr:state": "KS", "brand": "USPS", "brand:wikidata": "Q668687", "collection_times": "Mo-Fr 12:45; Sa 08:45", "name": "USPS COLLECTION BOX - PO LOBBY", "note": "ON 12/24 AND 12/31, THIS BOX MAY BE COLLECTED AS EARLY AS 12 NOON.", "ref": "6787600003"}, "type": "Feature"}
{"geometry": {"coordinates": [-100.8441000156, 37.4802809895], "type": "Point"}, "id": "AwrwoJq9hiu6gFVxNwUVJamrbtc=", "properties": {"@spider": "usps_collection_boxes", "addr:city": "SUBLETTE", "addr:country": "US", "addr:full": "209 S INMAN ST", "addr:postcode": "67877", "addr:state": "KS", "brand": "USPS", "brand:wikidata": "Q668687", "collection_times": "Mo-Fr 12:00; Sa 11:15", "name": "USPS COLLECTION BOX - BLUE BOX", "ref": "6787700001"}, "type": "Feature"}
{"geometry": {"coordinates": [-100.843789, 37.48097], "type": "Point"}, "id": "3CmhcPlccMBZyNSGkqeU1ZPIaTk=", "properties": {"@spider": "usps_collection_boxes", "addr:city": "SUBLETTE", "addr:country": "US", "addr:full": "209 S INMAN ST", "addr:postcode": "67877", "addr:state": "KS", "brand": "USPS", "brand:wikidata": "Q668687", "collection_times": "Mo-Fr 12:20; Sa 11:15", "name": "USPS COLLECTION BOX - PO LOBBY", "note": "ON 12/24 AND 12/31, THIS BOX MAY BE COLLECTED AS EARLY AS 12 NOON.", "ref": "6787700002"}, "type": "Feature"}
{"geometry": {"coordinates": [-100.8438187459, 37.4809887112], "type": "Point"}, "id": "eTs239E0fCCiMWfa4NnjK0viY1Q=", "properties": {"@spider": "usps_collection_boxes", "addr:city": "SUBLETTE", "addr:country": "US", "addr:full": "209 S INMAN ST", "addr:postcode": "67877", "addr:state": "KS", "brand": "USPS", "brand:wikidata": "Q668687", "collection_times": "Mo-Fr 12:20; Sa 11:15", "name": "USPS COLLECTION BOX - PO LOBBY", "note": "ON 12/24 AND 12/31, THIS BOX MAY BE COLLECTED AS EARLY AS 12 NOON.", "ref": "6787700003"}, "type": "Feature"}
{"geometry": {"coordinates": [-101.7509514317, 37.9813565745], "type": "Point"}, "id": "NmsJPb0SJljYXfKtpwVg5M8YqD4=", "properties": {"@spider": "usps_collection_boxes", "addr:city": "SYRACUSE", "addr:country": "US", "addr:full": "200 N GATES ST", "addr:postcode": "67878", "addr:state": "KS", "brand": "USPS", "brand:wikidata": "Q668687", "collection_times": "Mo-Fr 12:30; Sa 11:45", "name": "USPS COLLECTION BOX - BLUE BOX", "note": "ON 12/24 AND 12/31, THIS BOX MAY BE COLLECTED AS EARLY AS 12 NOON.", "ref": "6787800001"}, "type": "Feature"}
{"geometry": {"coordinates": [-101.7509514317, 37.9813565745], "type": "Point"}, "id": "u7IZrrrc6JLnx5_04WMtVlzLMSc=", "properties": {"@spider": "usps_collection_boxes", "addr:city": "SYRACUSE", "addr:country": "US", "addr:full": "200 N GATES ST", "addr:postcode": "67878", "addr:state": "KS", "brand": "USPS", "brand:wikidata": "Q668687", "collection_times": "Mo-Fr 12:30; Sa 11:45", "name": "USPS COLLECTION BOX - PO LOBBY", "note": "ON 12/24 AND 12/31, THIS BOX MAY BE COLLECTED AS EARLY AS 12 NOON.", "ref": "6787800002"}, "type": "Feature"}
{"geometry": {"coordinates": [-101.7509514317, 37.9813565745], "type": "Point"}, "id": "oDvahN9xBOC1IoT_kKXC_lDKSjo=", "properties": {"@spider": "usps_collection_boxes", "addr:city": "SYRACUSE", "addr:country": "US", "addr:full": "200 N GATES ST", "addr:postcode": "67878", "addr:state": "KS", "brand": "USPS", "brand:wikidata": "Q668687", "collection_times": "Mo-Fr 12:30; Sa 11:45", "name": "USPS COLLECTION BOX - PO LOBBY", "note": "ON 12/24 AND 12/31, THIS BOX MAY BE COLLECTED AS EARLY AS 12 NOON.", "ref": "6787800003"}, "type": "Feature"}
{"geometry": {"coordinates": [-101.7527681961, 38.469688996], "type": "Point"}, "id": "unuGycU14uVEXX83M800EHsHoEc=", "properties": {"@spider": "usps_collection_boxes", "addr:city": "TRIBUNE", "addr:country": "US", "addr:full": "123 W GREELEY AVE", "addr:postcode": "67879", "addr:state": "KS", "brand": "USPS", "brand:wikidata": "Q668687", "collection_times": "Mo-Fr 11:10; Sa 10:45", "name": "USPS COLLECTION BOX - BLUE BOX", "ref": "6787900001"}, "type": "Feature"}
{"geometry": {"coordinates": [-101.7527681961, 38.469688996], "type": "Point"}, "id": "pnx5AzYKFs7szCSBdfLEvVcy6IY=", "properties": {"@spider": "usps_collection_boxes", "addr:city": "TRIBUNE", "addr:country": "US", "addr:full": "123 W GREELEY AVE", "addr:postcode": "67879", "addr:state": "KS", "brand": "USPS", "brand:wikidata": "Q668687", "collection_times": "Mo-Fr 11:10; Sa 10:45", "name": "USPS COLLECTION BOX - PO LOBBY", "ref": "6787900002"}, "type": "Feature"}
{"geometry": {"coordinates": [-101.7527681961, 38.469688996], "type": "Point"}, "id": "iGzcmW71o2AbHOh8DpfUZApzeVQ=", "properties": {"@spider": "usps_collection_boxes", "addr:city": "TRIBUNE", "addr:country": "US", "addr:full": "123 W GREELEY AVE", "addr:postcode": "67879", "addr:state": "KS", "brand": "USPS", "brand:wikidata": "Q668687", "collection_times": "Mo-Fr 11:10; Sa 10:45", "name": "USPS COLLECTION BOX - PO LOBBY", "ref": "6787900003"}, "type": "Feature"}
{"geometry": {"coordinates": [-101.7527681961, 38.469688996], "type": "Point"}, "id": "Nmh_IPiwwwgf0YM74FOQJS_hZvM=", "properties": {"@spider": "usps_collection_boxes", "addr:city": "TRIBUNE", "addr:country": "US", "addr:full": "123 W GREELEY AVE", "addr:postcode": "67879", "addr:state": "KS", "brand": "USPS", "brand:wikidata": "Q668687", "collection_times": "Mo-Fr 11:10; Sa 10:45", "name": "USPS COLLECTION BOX - PO LOBBY", "ref": "6787900004"}, "type": "Feature"}
{"geometry": {"coordinates": [-101.359337, 37.578901], "type": "Point"}, "id": "bekkRNUfOuyQKbPQMt4scxu8LS0=", "properties": {"@spider": "usps_collection_boxes", "addr:city": "ULYSSES", "addr:country": "US", "addr:full": "208 S BAUGHMAN ST", "addr:postcode": "67880", "addr:state": "KS", "brand": "USPS", "brand:wikidata": "Q668687", "collection_times": "Mo-Fr 13:55; Sa 12:00", "name": "USPS COLLECTION BOX - BLUE BOX", "note": "ON 12/24 AND 12/31, THIS BOX MAY BE COLLECTED AS EARLY AS 12 NOON.", "ref": "6788000002"}, "type": "Feature"}
{"geometry": {"coordinates": [-101.359337, 37.578901], "type": "Point"}, "id": "u-NT6LzMI7hnACgBPNtkIThyopE=", "properties": {"@spider": "usps_collection_boxes", "addr:city": "ULYSSES", "addr:country": "US", "addr:full": "208 S BAUGHMAN ST", "addr:postcode": "67880", "addr:state": "KS", "brand": "USPS", "brand:wikidata": "Q668687", "collection_times": "Mo-Fr 13:55; Sa 12:00", "name": "USPS COLLECTION BOX - PO LOBBY", "note": "ON 12/24 AND 12/31, THIS BOX MAY BE COLLECTED AS EARLY AS 12 NOON.", "ref": "6788000004"}, "type": "Feature"}
{"geometry": {"coordinates": [-101.359337, 37.578901], "type": "Point"}, "id": "UJEnJlvR6DgL7Q6IWNGUPDbfOPw=", "properties": {"@spider": "usps_collection_boxes", "addr:city": "ULYSSES", "addr:country": "US", "addr:full": "208 S BAUGHMAN ST", "addr:postcode": "67880", "addr:state": "KS", "brand": "USPS", "brand:wikidata": "Q668687", "collection_times": "Mo-Fr 13:55; Sa 12:00", "name": "USPS COLLECTION BOX - PO LOBBY", "note": "ON 12/24 AND 12/31, THIS BOX MAY BE COLLECTED AS EARLY AS 12 NOON.", "ref": "6788000005"}, "type": "Feature"}
{"geometry": {"coordinates": [-101.359375834, 37.578905749], "type": "Point"}, "id": "H_92ebGHYbFcrQUETbs_QvNdJnI=", "properties": {"@spider": "usps_collection_boxes", "addr:city": "ULYSSES", "addr:country": "US", "addr:full": "208 S BAUGHMAN ST", "addr:postcode": "67880", "addr:state": "KS", "brand": "USPS", "brand:wikidata": "Q668687", "collection_times": "Mo-Fr 13:55; Sa 12:00", "name": "USPS COLLECTION BOX - PO LOBBY", "note": "ON 12/24 AND 12/31, THIS BOX MAY BE COLLECTED AS EARLY AS 12 NOON.", "ref": "6788000007"}, "type": "Feature"}
{"geometry": {"coordinates": [-99.8920259, 37.779714], "type": "Point"}, "id": "j-cXSXVifdmE8YCFpAs9VVUxE0s=", "properties": {"@spider": "usps_collection_boxes", "addr:city": "WRIGHT", "addr:country": "US", "addr:full": "10894 MAIN ST", "addr:postcode": "67882", "addr:state": "KS", "brand": "USPS", "brand:wikidata": "Q668687", "collection_times": "Mo-Fr 12:00; Sa 09:45", "name": "USPS COLLECTION BOX - BLUE BOX", "ref": "6788200001"}, "type": "Feature"}
{"geometry": {"coordinates": [-99.892, 37.77969], "type": "Point"}, "id": "-l8wKMC6_XJgVcWJJ1GmbATepv8=", "properties": {"@spider": "usps_collection_boxes", "addr:city": "WRIGHT", "addr:country": "US", "addr:full": "10894 MAIN ST", "addr:postcode": "67882", "addr:state": "KS", "brand": "USPS", "brand:wikidata": "Q668687", "collection_times": "Mo-Fr 12:00; Sa 09:45", "name": "USPS COLLECTION BOX - PO LOBBY", "ref": "6788200002"}, "type": "Feature"}
{"geometry": {"coordinates": [-99.892128726, 37.779687251], "type": "Point"}, "id": "-Y6fke4JnWLG1dwBYWm2-ijs280=", "properties": {"@spider": "usps_collection_boxes", "addr:city": "WRIGHT", "addr:country": "US", "addr:full": "10894 MAIN ST", "addr:postcode": "67882", "addr:state": "KS", "brand": "USPS", "brand:wikidata": "Q668687", "collection_times": "Mo-Fr 12:00; Sa 09:45", "name": "USPS COLLECTION BOX - PO LOBBY", "ref": "6788200003"}, "type": "Feature"}
