{"geometry": {"coordinates": [-100.921949, 37.042797], "type": "Point"}, "id": "hl9VsndZHb0AlWeMm8FvAZ7JCeA=", "properties": {"@source_uri": "https://tools.usps.com/UspsToolsRestServices/rest/POLocator/findLocations", "@spider": "usps_collection_boxes", "addr:city": "LIBERAL", "addr:country": "US", "addr:full": "25 E 5TH ST", "addr:postcode": "67901", "addr:state": "KS", "amenity": "post_box", "brand": "United States Postal Service", "brand:wikidata": "Q668687", "collection_times": "Mo-Sa 17:00", "note": "ON 12/24 AND 12/31, THIS BOX MAY BE COLLECTED AS EARLY AS 12 NOON.", "nsi_id": "unitedstatespostalservice-a77078", "operator": "United States Postal Service", "operator:short": "USPS", "operator:type": "public", "operator:wikidata": "Q668687", "ref": "6790100000"}, "type": "Feature"}
{"geometry": {"coordinates": [-100.921928, 37.050568], "type": "Point"}, "id": "if1QL6qd91fazcC-rZ7jni0LmKY=", "properties": {"@source_uri": "https://tools.usps.com/UspsToolsRestServices/rest/POLocator/findLocations", "@spider": "usps_collection_boxes", "addr:city": "LIBERAL", "addr:country": "US", "addr:full": "25 E 11TH ST", "addr:postcode": "67901", "addr:state": "KS", "amenity": "post_box", "brand": "United States Postal Service", "brand:wikidata": "Q668687", "collection_times": "Mo-Fr 15:00; Sa 13:30", "note": "ON 12/24 AND 12/31, THIS BOX MAY BE COLLECTED AS EARLY AS 12 NOON.", "nsi_id": "unitedstatespostalservice-a77078", "operator": "United States Postal Service", "operator:short": "USPS", "operator:type": "public", "operator:wikidata": "Q668687", "ref": "6790100003"}, "type": "Feature"}
{"geometry": {"coordinates": [-100.940692, 37.054087], "type": "Point"}, "id": "euLd2cw-EmDozbzCBjhCoC3T76M=", "properties": {"@source_uri": "https://tools.usps.com/UspsToolsRestServices/rest/POLocator/findLocations", "@spider": "usps_collection_boxes", "addr:city": "LIBERAL", "addr:country": "US", "addr:full": "1460 N WESTERN AVE", "addr:postcode": "67901", "addr:state": "KS", "amenity": "post_box", "brand": "United States Postal Service", "brand:wikidata": "Q668687", "collection_times": "Mo-Fr 15:00; Sa 13:30", "note": "ON 12/24 AND 12/31, THIS BOX MAY BE COLLECTED AS EARLY AS 12 NOON.", "nsi_id": "unitedstatespostalservice-a77078", "operator": "United States Postal Service", "operator:short": "USPS", "operator:type": "public", "operator:wikidata": "Q668687", "ref": "6790100014"}, "type": "Feature"}
{"geometry": {"coordinates": [-100.921949, 37.042797], "type": "Point"}, "id": "ykmmh45wKQ3Ogwzlz_M8bKt0iq8=", "properties": {"@source_uri": "https://tools.usps.com/UspsToolsRestServices/rest/POLocator/findLocations", "@spider": "usps_collection_boxes", "addr:city": "LIBERAL", "addr:country": "US", "addr:full": "25 E 5TH ST", "addr:postcode": "67901", "addr:state": "KS", "amenity": "post_box", "brand": "United States Postal Service", "brand:wikidata": "Q668687", "collection_times": "Mo-Sa 17:00", "indoor": "yes", "note": "ON 12/24 AND 12/31, THIS BOX MAY BE COLLECTED AS EARLY AS 12 NOON.", "nsi_id": "unitedstatespostalservice-a77078", "operator": "United States Postal Service", "operator:short": "USPS", "operator:type": "public", "operator:wikidata": "Q668687", "ref": "6790100018"}, "type": "Feature"}
{"geometry": {"coordinates": [-100.922684, 37.065323], "type": "Point"}, "id": "Lzy1HZX-kCshsVfZ4AzoK5oeVv0=", "properties": {"@source_uri": "https://tools.usps.com/UspsToolsRestServices/rest/POLocator/findLocations", "@spider": "usps_collection_boxes", "addr:city": "LIBERAL", "addr:country": "US", "addr:full": "2310 N KANSAS AVE", "addr:postcode": "67901", "addr:state": "KS", "amenity": "post_box", "brand": "United States Postal Service", "brand:wikidata": "Q668687", "collection_times": "Mo-Sa 13:30", "note": "ON 12/24 AND 12/31, THIS BOX MAY BE COLLECTED AS EARLY AS 12 NOON.", "nsi_id": "unitedstatespostalservice-a77078", "operator": "United States Postal Service", "operator:short": "USPS", "operator:type": "public", "operator:wikidata": "Q668687", "ref": "6790100019"}, "type": "Feature"}
{"geometry": {"coordinates": [-100.926565, 37.055923], "type": "Point"}, "id": "S__FK1JRyARhQZ21oQYEslYDEx0=", "properties": {"@source_uri": "https://tools.usps.com/UspsToolsRestServices/rest/POLocator/findLocations", "@spider": "usps_collection_boxes", "addr:city": "LIBERAL", "addr:country": "US", "addr:full": "315 W 15TH ST", "addr:postcode": "67901", "addr:state": "KS", "amenity": "post_box", "brand": "United States Postal Service", "brand:wikidata": "Q668687", "collection_times": "Mo-Fr 10:00", "nsi_id": "unitedstatespostalservice-a77078", "operator": "United States Postal Service", "operator:short": "USPS", "operator:type": "public", "operator:wikidata": "Q668687", "ref": "6790100021"}, "type": "Feature"}
{"geometry": {"coordinates": [-100.921392, 37.042790508], "type": "Point"}, "id": "KiJXRzFy4gK8HiRTBL3PQhApp7U=", "properties": {"@source_uri": "https://tools.usps.com/UspsToolsRestServices/rest/POLocator/findLocations", "@spider": "usps_collection_boxes", "addr:city": "LIBERAL", "addr:country": "US", "addr:full": "25 E 5TH ST", "addr:postcode": "67901", "addr:state": "KS", "amenity": "post_box", "brand": "United States Postal Service", "brand:wikidata": "Q668687", "collection_times": "Mo-Fr 17:00; Sa 12:00", "indoor": "yes", "note": "ON 12/24 AND 12/31, THIS BOX MAY BE COLLECTED AS EARLY AS 12 NOON.", "nsi_id": "unitedstatespostalservice-a77078", "operator": "United States Postal Service", "operator:short": "USPS", "operator:type": "public", "operator:wikidata": "Q668687", "ref": "6790100022"}, "type": "Feature"}
{"geometry": {"coordinates": [-101.899817, 37.00345], "type": "Point"}, "id": "aYpPs__tjKwcrsFATTQQfNsEfD4=", "properties": {"@source_uri": "https://tools.usps.com/UspsToolsRestServices/rest/POLocator/findLocations", "@spider": "usps_collection_boxes", "addr:city": "ELKHART", "addr:country": "US", "addr:full": "336 MORTON ST", "addr:postcode": "67950", "addr:state": "KS", "amenity": "post_box", "brand": "United States Postal Service", "brand:wikidata": "Q668687", "collection_times": "Mo-Fr 15:00; Sa 11:15", "note": "ON 12/24 AND 12/31, THIS BOX MAY BE COLLECTED AS EARLY AS 12 NOON.", "nsi_id": "unitedstatespostalservice-a77078", "operator": "United States Postal Service", "operator:short": "USPS", "operator:type": "public", "operator:wikidata": "Q668687", "ref": "6795000001"}, "type": "Feature"}
{"geometry": {"coordinates": [-101.899817, 37.00345], "type": "Point"}, "id": "aEDosor00tW5Imakn8oA_U7H6-0=", "properties": {"@source_uri": "https://tools.usps.com/UspsToolsRestServices/rest/POLocator/findLocations", "@spider": "usps_collection_boxes", "addr:city": "ELKHART", "addr:country": "US", "addr:full": "336 MORTON ST", "addr:postcode": "67950", "addr:state": "KS", "amenity": "post_box", "brand": "United States Postal Service", "brand:wikidata": "Q668687", "collection_times": "Mo-Fr 15:00; Sa 11:15", "indoor": "yes", "note": "ON 12/24 AND 12/31, THIS BOX MAY BE COLLECTED AS EARLY AS 12 NOON.", "nsi_id": "unitedstatespostalservice-a77078", "operator": "United States Postal Service", "operator:short": "USPS", "operator:type": "public", "operator:wikidata": "Q668687", "ref": "6795000002"}, "type": "Feature"}
{"geometry": {"coordinates": [-101.899817, 37.00345], "type": "Point"}, "id": "rIR0QJw86kLaw27sIEUiBMb8hU0=", "properties": {"@source_uri": "https://tools.usps.com/UspsToolsRestServices/rest/POLocator/findLocations", "@spider": "usps_collection_boxes", "addr:city": "ELKHART", "addr:country": "US", "addr:full": "336 MORTON ST", "addr:postcode": "67950", "addr:state": "KS", "amenity": "post_box", "brand": "United States Postal Service", "brand:wikidata": "Q668687", "collection_times": "Mo-Fr 15:00; Sa 11:15", "indoor": "yes", "note": "ON 12/24 AND 12/31, THIS BOX MAY BE COLLECTED AS EARLY AS 12 NOON.", "nsi_id": "unitedstatespostalservice-a77078", "operator": "United States Postal Service", "operator:short": "USPS", "operator:type": "public", "operator:wikidata": "Q668687", "ref": "6795000003"}, "type": "Feature"}
{"geometry": {"coordinates": [-101.8998147936, 37.0034872136], "type": "Point"}, "id": "ArD-rgkPJ6t9UM7AbbV61s8klR0=", "properties": {"@source_uri": "https://tools.usps.com/UspsToolsRestServices/rest/POLocator/findLocations", "@spider": "usps_collection_boxes", "addr:city": "ELKHART", "addr:country": "US", "addr:full": "336 MORTON ST", "addr:postcode": "67950", "addr:state": "KS", "amenity": "post_box", "brand": "United States Postal Service", "brand:wikidata": "Q668687", "collection_times": "Mo-Fr 15:00; Sa 11:15", "indoor": "yes", "note": "ON 12/24 AND 12/31, THIS BOX MAY BE COLLECTED AS EARLY AS 12 NOON.", "nsi_id": "unitedstatespostalservice-a77078", "operator": "United States Postal Service", "operator:short": "USPS", "operator:type": "public", "operator:wikidata": "Q668687", "ref": "6795000004"}, "type": "Feature"}
{"geometry": {"coordinates": [-101.3494599617, 37.1779070176], "type": "Point"}, "id": "TKwMMTE-cvGMUF5jS9MMkl2mQUc=", "properties": {"@source_uri": "https://tools.usps.com/UspsToolsRestServices/rest/POLocator/findLocations", "@spider": "usps_collection_boxes", "addr:city": "HUGOTON", "addr:country": "US", "addr:full": "512 S JACKSON ST", "addr:postcode": "67951", "addr:state": "KS", "amenity": "post_box", "brand": "United States Postal Service", "brand:wikidata": "Q668687", "collection_times": "Mo-Fr 16:00; Sa 11:30", "note": "ON 12/24 AND 12/31, THIS BOX MAY BE COLLECTED AS EARLY AS 12 NOON.", "nsi_id": "unitedstatespostalservice-a77078", "operator": "United States Postal Service", "operator:short": "USPS", "operator:type": "public", "operator:wikidata": "Q668687", "ref": "6795100001"}, "type": "Feature"}
{"geometry": {"coordinates": [-101.349767, 37.177891], "type": "Point"}, "id": "TkGSbCNEKwYIZHqafxPwoSrI7gw=", "properties": {"@source_uri": "https://tools.usps.com/UspsToolsRestServices/rest/POLocator/findLocations", "@spider": "usps_collection_boxes", "addr:city": "HUGOTON", "addr:country": "US", "addr:full": "512 S JACKSON ST", "addr:postcode": "67951", "addr:state": "KS", "amenity": "post_box", "brand": "United States Postal Service", "brand:wikidata": "Q668687", "collection_times": "Mo-Fr 16:15; Sa 11:30", "indoor": "yes", "note": "ON 12/24 AND 12/31, THIS BOX MAY BE COLLECTED AS EARLY AS 12 NOON.", "nsi_id": "unitedstatespostalservice-a77078", "operator": "United States Postal Service", "operator:short": "USPS", "operator:type": "public", "operator:wikidata": "Q668687", "ref": "6795100005"}, "type": "Feature"}
{"geometry": {"coordinates": [-101.349767, 37.177891], "type": "Point"}, "id": "KDbX9iUGFd_FajR6e04OVKE5Qag=", "properties": {"@source_uri": "https://tools.usps.com/UspsToolsRestServices/rest/POLocator/findLocations", "@spider": "usps_collection_boxes", "addr:city": "HUGOTON", "addr:country": "US", "addr:full": "512 S JACKSON ST", "addr:postcode": "67951", "addr:state": "KS", "amenity": "post_box", "brand": "United States Postal Service", "brand:wikidata": "Q668687", "collection_times": "Mo-Fr 16:15; Sa 11:30", "indoor": "yes", "note": "ON 12/24 AND 12/31, THIS BOX MAY BE COLLECTED AS EARLY AS 12 NOON.", "nsi_id": "unitedstatespostalservice-a77078", "operator": "United States Postal Service", "operator:short": "USPS", "operator:type": "public", "operator:wikidata": "Q668687", "ref": "6795100006"}, "type": "Feature"}
{"geometry": {"coordinates": [-101.349767031, 37.177884], "type": "Point"}, "id": "KPJozcByE2ZSpMSI0wdGBjPH9Sw=", "properties": {"@source_uri": "https://tools.usps.com/UspsToolsRestServices/rest/POLocator/findLocations", "@spider": "usps_collection_boxes", "addr:city": "HUGOTON", "addr:country": "US", "addr:full": "512 S JACKSON ST", "addr:postcode": "67951", "addr:state": "KS", "amenity": "post_box", "brand": "United States Postal Service", "brand:wikidata": "Q668687", "collection_times": "Mo-Fr 16:15; Sa 11:30", "indoor": "yes", "note": "ON 12/24 AND 12/31, THIS BOX MAY BE COLLECTED AS EARLY AS 12 NOON.", "nsi_id": "unitedstatespostalservice-a77078", "operator": "United States Postal Service", "operator:short": "USPS", "operator:type": "public", "operator:wikidata": "Q668687", "ref": "6795100007"}, "type": "Feature"}
{"geometry": {"coordinates": [-101.210044, 37.323187], "type": "Point"}, "id": "kzZ70MHxSCf1KWF4TIso4dwTWls=", "properties": {"@source_uri": "https://tools.usps.com/UspsToolsRestServices/rest/POLocator/findLocations", "@spider": "usps_collection_boxes", "addr:city": "MOSCOW", "addr:country": "US", "addr:full": "301 W CIMARRON ST", "addr:postcode": "67952", "addr:state": "KS", "amenity": "post_box", "brand": "United States Postal Service", "brand:wikidata": "Q668687", "collection_times": "Mo-Fr 14:20; Sa 11:20", "note": "ON 12/24 AND 12/31, THIS BOX MAY BE COLLECTED AS EARLY AS 12 NOON.", "nsi_id": "unitedstatespostalservice-a77078", "operator": "United States Postal Service", "operator:short": "USPS", "operator:type": "public", "operator:wikidata": "Q668687", "ref": "6795200001"}, "type": "Feature"}
{"geometry": {"coordinates": [-101.20969, 37.323974], "type": "Point"}, "id": "x87G8oIj97djZOerE8OWuLz3TeA=", "properties": {"@source_uri": "https://tools.usps.com/UspsToolsRestServices/rest/POLocator/findLocations", "@spider": "usps_collection_boxes", "addr:city": "MOSCOW", "addr:country": "US", "addr:full": "301 W CIMARRON ST", "addr:postcode": "67952", "addr:state": "KS", "amenity": "post_box", "brand": "United States Postal Service", "brand:wikidata": "Q668687", "collection_times": "Mo-Fr 14:10; Sa 11:10", "indoor": "yes", "note": "ON 12/24 AND 12/31, THIS BOX MAY BE COLLECTED AS EARLY AS 12 NOON.", "nsi_id": "unitedstatespostalservice-a77078", "operator": "United States Postal Service", "operator:short": "USPS", "operator:type": "public", "operator:wikidata": "Q668687", "ref": "6795200002"}, "type": "Feature"}
{"geometry": {"coordinates": [-101.209896601, 37.323679254], "type": "Point"}, "id": "-4r03eu-jlyvNTk691AmGAXXnME=", "properties": {"@source_uri": "https://tools.usps.com/UspsToolsRestServices/rest/POLocator/findLocations", "@spider": "usps_collection_boxes", "addr:city": "MOSCOW", "addr:country": "US", "addr:full": "301 W CIMARRON ST", "addr:postcode": "67952", "addr:state": "KS", "amenity": "post_box", "brand": "United States Postal Service", "brand:wikidata": "Q668687", "collection_times": "Mo-Fr 14:10; Sa 11:10", "indoor": "yes", "note": "ON 12/24 AND 12/31, THIS BOX MAY BE COLLECTED AS EARLY AS 12 NOON.", "nsi_id": "unitedstatespostalservice-a77078", "operator": "United States Postal Service", "operator:short": "USPS", "operator:type": "public", "operator:wikidata": "Q668687", "ref": "6795200003"}, "type": "Feature"}
{"geometry": {"coordinates": [-101.781162, 37.265268], "type": "Point"}, "id": "_-s3KVFQJz-7IJl8hIRbz55Lym8=", "properties": {"@source_uri": "https://tools.usps.com/UspsToolsRestServices/rest/POLocator/findLocations", "@spider": "usps_collection_boxes", "addr:city": "RICHFIELD", "addr:country": "US", "addr:full": "223 7TH ST", "addr:postcode": "67953", "addr:state": "KS", "amenity": "post_box", "brand": "United States Postal Service", "brand:wikidata": "Q668687", "collection_times": "Mo-Fr 13:15; Sa 12:15", "note": "ON 12/24 AND 12/31, THIS BOX MAY BE COLLECTED AS EARLY AS 12 NOON.", "nsi_id": "unitedstatespostalservice-a77078", "operator": "United States Postal Service", "operator:short": "USPS", "operator:type": "public", "operator:wikidata": "Q668687", "ref": "6795300001"}, "type": "Feature"}
{"geometry": {"coordinates": [-101.78113, 37.265296], "type": "Point"}, "id": "9bzqm8bNMfDbe-o-vXqCoTVb6_Y=", "properties": {"@source_uri": "https://tools.usps.com/UspsToolsRestServices/rest/POLocator/findLocations", "@spider": "usps_collection_boxes", "addr:city": "RICHFIELD", "addr:country": "US", "addr:full": "223 7TH ST", "addr:postcode": "67953", "addr:state": "KS", "amenity": "post_box", "brand": "United States Postal Service", "brand:wikidata": "Q668687", "collection_times": "Mo-Fr 13:15; Sa 12:15", "indoor": "yes", "note": "ON 12/24 AND 12/31, THIS BOX MAY BE COLLECTED AS EARLY AS 12 NOON.", "nsi_id": "unitedstatespostalservice-a77078", "operator": "United States Postal Service", "operator:short": "USPS", "operator:type": "public", "operator:wikidata": "Q668687", "ref": "6795300002"}, "type": "Feature"}
{"geometry": {"coordinates": [-101.7811531, 37.265213608], "type": "Point"}, "id": "UI3wIHvN89uNkxzmVQcRTAb1DI4=", "properties": {"@source_uri": "https://tools.usps.com/UspsToolsRestServices/rest/POLocator/findLocations", "@spider": "usps_collection_boxes", "addr:city": "RICHFIELD", "addr:country": "US", "addr:full": "223 7TH ST", "addr:postcode": "67953", "addr:state": "KS", "amenity": "post_box", "brand": "United States Postal Service", "brand:wikidata": "Q668687", "collection_times": "Mo-Fr 13:15; Sa 12:15", "indoor": "yes", "note": "ON 12/24 AND 12/31, THIS BOX MAY BE COLLECTED AS EARLY AS 12 NOON.", "nsi_id": "unitedstatespostalservice-a77078", "operator": "United States Postal Service", "operator:short": "USPS", "operator:type": "public", "operator:wikidata": "Q668687", "ref": "6795300003"}, "type": "Feature"}
{"geometry": {"coordinates": [-101.632893, 37.120044], "type": "Point"}, "id": "KZpgCl3fy21foUwpSjkf4f26lx8=", "properties": {"@source_uri": "https://tools.usps.com/UspsToolsRestServices/rest/POLocator/findLocations", "@spider": "usps_collection_boxes", "addr:city": "ROLLA", "addr:country": "US", "addr:full": "301 S WASHINGTON ST", "addr:postcode": "67954", "addr:state": "KS", "amenity": "post_box", "brand": "United States Postal Service", "brand:wikidata": "Q668687", "collection_times": "Mo-Fr 15:00; Sa 10:15", "note": "ON 12/24 AND 12/31, THIS BOX MAY BE COLLECTED AS EARLY AS 12 NOON.", "nsi_id": "unitedstatespostalservice-a77078", "operator": "United States Postal Service", "operator:short": "USPS", "operator:type": "public", "operator:wikidata": "Q668687", "ref": "6795400001"}, "type": "Feature"}
{"geometry": {"coordinates": [-101.632928, 37.120134], "type": "Point"}, "id": "whdfD0RykPxMQRIFfYuwNXNJ6_Q=", "properties": {"@source_uri": "https://tools.usps.com/UspsToolsRestServices/rest/POLocator/findLocations", "@spider": "usps_collection_boxes", "addr:city": "ROLLA", "addr:country": "US", "addr:full": "301 S WASHINGTON ST", "addr:postcode": "67954", "addr:state": "KS", "amenity": "post_box", "brand": "United States Postal Service", "brand:wikidata": "Q668687", "collection_times": "Mo-Fr 15:00; Sa 10:15", "indoor": "yes", "note": "ON 12/24 AND 12/31, THIS BOX MAY BE COLLECTED AS EARLY AS 12 NOON.", "nsi_id": "unitedstatespostalservice-a77078", "operator": "United States Postal Service", "operator:short": "USPS", "operator:type": "public", "operator:wikidata": "Q668687", "ref": "6795400002"}, "type": "Feature"}
{"geometry": {"coordinates": [-101.6328741039, 37.1200650852], "type": "Point"}, "id": "ThtwCa_B8QbLGXAIm8hzlEgdomw=", "properties": {"@source_uri": "https://tools.usps.com/UspsToolsRestServices/rest/POLocator/findLocations", "@spider": "usps_collection_boxes", "addr:city": "ROLLA", "addr:country": "US", "addr:full": "301 S WASHINGTON ST", "addr:postcode": "67954", "addr:state": "KS", "amenity": "post_box", "brand": "United States Postal Service", "brand:wikidata": "Q668687", "collection_times": "Mo-Fr 15:00; Sa 10:15", "indoor": "yes", "note": "ON 12/24 AND 12/31, THIS BOX MAY BE COLLECTED AS EARLY AS 12 NOON.", "nsi_id": "unitedstatespostalservice-a77078", "operator": "United States Postal Service", "operator:short": "USPS", "operator:type": "public", "operator:wikidata": "Q668687", "ref": "6795400003"}, "type": "Feature"}
