{"dataset_attributes": {"@spider": "usps_collection_boxes", "spider:collection_time": "2023-11-01T08:25:09.026919"}, "geometry": {"coordinates": [-96.950467579, 41.333697671], "type": "Point"}, "id": "YVP3RoR7cO8AqSM1ejqL_dQZL-o=", "properties": {"@spider": "usps_collection_boxes", "addr:city": "ABIE", "addr:country": "US", "addr:full": "305 2ND ST", "addr:postcode": "68001", "addr:state": "NE", "amenity": "post_box", "brand": "United States Postal Service", "brand:wikidata": "Q668687", "collection_times": "Mo-Sa 12:15", "name": "USPS COLLECTION BOX - BLUE BOX", "note": "ON 12/24 AND 12/31, THIS BOX MAY BE COLLECTED AS EARLY AS 12 NOON.", "nsi_id": "unitedstatespostalservice-a77078", "operator": "United States Postal Service", "operator:short": "USPS", "operator:type": "public", "operator:wikidata": "Q668687", "ref": "6800100000"}, "type": "Feature"}
{"dataset_attributes": {"@spider": "usps_collection_boxes", "spider:collection_time": "2023-11-01T08:25:09.026919"}, "geometry": {"coordinates": [-96.349627144, 41.452119251], "type": "Point"}, "id": "Q49iSRf825zcTDMCuU7WGn2fD4s=", "properties": {"@spider": "usps_collection_boxes", "addr:city": "ARLINGTON", "addr:country": "US", "addr:full": "237 N 2ND ST", "addr:postcode": "68002", "addr:state": "NE", "amenity": "post_box", "brand": "United States Postal Service", "brand:wikidata": "Q668687", "collection_times": "Mo-Fr 17:10; Sa 17:15", "name": "USPS COLLECTION BOX - BLUE BOX", "note": "ON 12/24 AND 12/31, THIS BOX MAY BE COLLECTED AS EARLY AS 12 NOON.", "nsi_id": "unitedstatespostalservice-a77078", "operator": "United States Postal Service", "operator:short": "USPS", "operator:type": "public", "operator:wikidata": "Q668687", "ref": "6800200001"}, "type": "Feature"}
{"dataset_attributes": {"@spider": "usps_collection_boxes", "spider:collection_time": "2023-11-01T08:25:09.026919"}, "geometry": {"coordinates": [-96.349627144, 41.452119251], "type": "Point"}, "id": "Ip5jO6D5HeRmWZ6CGIcFb-wF5gs=", "properties": {"@spider": "usps_collection_boxes", "addr:city": "ARLINGTON", "addr:country": "US", "addr:full": "237 N 2ND ST", "addr:postcode": "68002", "addr:state": "NE", "amenity": "post_box", "brand": "United States Postal Service", "brand:wikidata": "Q668687", "collection_times": "Mo-Fr 16:45; Sa 09:00", "name": "USPS COLLECTION BOX - PO LOBBY", "note": "ON 12/24 AND 12/31, THIS BOX MAY BE COLLECTED AS EARLY AS 12 NOON.", "nsi_id": "unitedstatespostalservice-a77078", "operator": "United States Postal Service", "operator:short": "USPS", "operator:type": "public", "operator:wikidata": "Q668687", "ref": "6800200002"}, "type": "Feature"}
{"dataset_attributes": {"@spider": "usps_collection_boxes", "spider:collection_time": "2023-11-01T08:25:09.026919"}, "geometry": {"coordinates": [-96.349627144, 41.452119251], "type": "Point"}, "id": "jOSlG2SvC4F35qFtCCH1fFo3_gU=", "properties": {"@spider": "usps_collection_boxes", "addr:city": "ARLINGTON", "addr:country": "US", "addr:full": "237 N 2ND ST", "addr:postcode": "68002", "addr:state": "NE", "amenity": "post_box", "brand": "United States Postal Service", "brand:wikidata": "Q668687", "collection_times": "Mo-Fr 16:45; Sa 09:00", "name": "USPS COLLECTION BOX - PO LOBBY", "note": "ON 12/24 AND 12/31, THIS BOX MAY BE COLLECTED AS EARLY AS 12 NOON.", "nsi_id": "unitedstatespostalservice-a77078", "operator": "United States Postal Service", "operator:short": "USPS", "operator:type": "public", "operator:wikidata": "Q668687", "ref": "6800200004"}, "type": "Feature"}
{"dataset_attributes": {"@spider": "usps_collection_boxes", "spider:collection_time": "2023-11-01T08:25:09.026919"}, "geometry": {"coordinates": [-96.371889816, 41.044586991], "type": "Point"}, "id": "3-TYMRJYq8DkWTS7bZoV_Lfxi9s=", "properties": {"@spider": "usps_collection_boxes", "addr:city": "ASHLAND", "addr:country": "US", "addr:full": "705 N 17TH ST", "addr:postcode": "68003", "addr:state": "NE", "amenity": "post_box", "brand": "United States Postal Service", "brand:wikidata": "Q668687", "collection_times": "Mo-Sa 13:00", "name": "USPS COLLECTION BOX - BLUE BOX", "note": "ON 12/24 AND 12/31, THIS BOX MAY BE COLLECTED AS EARLY AS 12 NOON.", "nsi_id": "unitedstatespostalservice-a77078", "operator": "United States Postal Service", "operator:short": "USPS", "operator:type": "public", "operator:wikidata": "Q668687", "ref": "6800300003"}, "type": "Feature"}
{"dataset_attributes": {"@spider": "usps_collection_boxes", "spider:collection_time": "2023-11-01T08:25:09.026919"}, "geometry": {"coordinates": [-96.370492804, 41.039161479], "type": "Point"}, "id": "6pdwqnqG6U8QyreXiKRIJtwBzUU=", "properties": {"@spider": "usps_collection_boxes", "addr:city": "ASHLAND", "addr:country": "US", "addr:full": "1542 SILVER ST", "addr:postcode": "68003", "addr:state": "NE", "amenity": "post_box", "brand": "United States Postal Service", "brand:wikidata": "Q668687", "collection_times": "Mo-Fr 16:15; Sa 17:25", "name": "USPS COLLECTION BOX - BLUE BOX", "note": "ON 12/24 AND 12/31, THIS BOX MAY BE COLLECTED AS EARLY AS 12 NOON.", "nsi_id": "unitedstatespostalservice-a77078", "operator": "United States Postal Service", "operator:short": "USPS", "operator:type": "public", "operator:wikidata": "Q668687", "ref": "6800300004"}, "type": "Feature"}
{"dataset_attributes": {"@spider": "usps_collection_boxes", "spider:collection_time": "2023-11-01T08:25:09.026919"}, "geometry": {"coordinates": [-96.370492804, 41.039161479], "type": "Point"}, "id": "HOOXdm_nMvqqWYJP10EASZixl8k=", "properties": {"@spider": "usps_collection_boxes", "addr:city": "ASHLAND", "addr:country": "US", "addr:full": "1542 SILVER ST", "addr:postcode": "68003", "addr:state": "NE", "amenity": "post_box", "brand": "United States Postal Service", "brand:wikidata": "Q668687", "collection_times": "Mo-Fr 16:15; Sa 10:30", "name": "USPS COLLECTION BOX - PO LOBBY", "note": "ON 12/24 AND 12/31, THIS BOX MAY BE COLLECTED AS EARLY AS 12 NOON.", "nsi_id": "unitedstatespostalservice-a77078", "operator": "United States Postal Service", "operator:short": "USPS", "operator:type": "public", "operator:wikidata": "Q668687", "ref": "6800300005"}, "type": "Feature"}
{"dataset_attributes": {"@spider": "usps_collection_boxes", "spider:collection_time": "2023-11-01T08:25:09.026919"}, "geometry": {"coordinates": [-96.370492804, 41.039161479], "type": "Point"}, "id": "yqwofixfkN8IJXUWRQJkL-Tkkys=", "properties": {"@spider": "usps_collection_boxes", "addr:city": "ASHLAND", "addr:country": "US", "addr:full": "1542 SILVER ST", "addr:postcode": "68003", "addr:state": "NE", "amenity": "post_box", "brand": "United States Postal Service", "brand:wikidata": "Q668687", "collection_times": "Mo-Fr 16:15; Sa 10:30", "name": "USPS COLLECTION BOX - PO LOBBY", "note": "ON 12/24 AND 12/31, THIS BOX MAY BE COLLECTED AS EARLY AS 12 NOON.", "nsi_id": "unitedstatespostalservice-a77078", "operator": "United States Postal Service", "operator:short": "USPS", "operator:type": "public", "operator:wikidata": "Q668687", "ref": "6800300007"}, "type": "Feature"}
{"dataset_attributes": {"@spider": "usps_collection_boxes", "spider:collection_time": "2023-11-01T08:25:09.026919"}, "geometry": {"coordinates": [-96.573327865, 42.012850913], "type": "Point"}, "id": "O0oWGmdmzbT1lbqNjk1am6Lbh_A=", "properties": {"@spider": "usps_collection_boxes", "addr:city": "BANCROFT", "addr:country": "US", "addr:full": "203 POPLAR ST", "addr:postcode": "68004", "addr:state": "NE", "amenity": "post_box", "brand": "United States Postal Service", "brand:wikidata": "Q668687", "collection_times": "Mo-Fr 15:40; Sa 15:45", "name": "USPS COLLECTION BOX - BLUE BOX", "note": "ON 12/24 AND 12/31, THIS BOX MAY BE COLLECTED AS EARLY AS 12 NOON.", "nsi_id": "unitedstatespostalservice-a77078", "operator": "United States Postal Service", "operator:short": "USPS", "operator:type": "public", "operator:wikidata": "Q668687", "ref": "6800400001"}, "type": "Feature"}
{"dataset_attributes": {"@spider": "usps_collection_boxes", "spider:collection_time": "2023-11-01T08:25:09.026919"}, "geometry": {"coordinates": [-96.573327865, 42.012850913], "type": "Point"}, "id": "QQ01vNsB0JyHlWn-AXST4oSjSGg=", "properties": {"@spider": "usps_collection_boxes", "addr:city": "BANCROFT", "addr:country": "US", "addr:full": "203 POPLAR ST", "addr:postcode": "68004", "addr:state": "NE", "amenity": "post_box", "brand": "United States Postal Service", "brand:wikidata": "Q668687", "collection_times": "Mo-Fr 15:15; Sa 10:45", "name": "USPS COLLECTION BOX - PO LOBBY", "note": "ON 12/24 AND 12/31, THIS BOX MAY BE COLLECTED AS EARLY AS 12 NOON.", "nsi_id": "unitedstatespostalservice-a77078", "operator": "United States Postal Service", "operator:short": "USPS", "operator:type": "public", "operator:wikidata": "Q668687", "ref": "6800400002"}, "type": "Feature"}
{"dataset_attributes": {"@spider": "usps_collection_boxes", "spider:collection_time": "2023-11-01T08:25:09.026919"}, "geometry": {"coordinates": [-96.573327865, 42.012850913], "type": "Point"}, "id": "lsCGodqpVJYZpRxFdjkSr2BiG_U=", "properties": {"@spider": "usps_collection_boxes", "addr:city": "BANCROFT", "addr:country": "US", "addr:full": "203 POPLAR ST", "addr:postcode": "68004", "addr:state": "NE", "amenity": "post_box", "brand": "United States Postal Service", "brand:wikidata": "Q668687", "collection_times": "Mo-Fr 15:15; Sa 10:45", "name": "USPS COLLECTION BOX - PO LOBBY", "note": "ON 12/24 AND 12/31, THIS BOX MAY BE COLLECTED AS EARLY AS 12 NOON.", "nsi_id": "unitedstatespostalservice-a77078", "operator": "United States Postal Service", "operator:short": "USPS", "operator:type": "public", "operator:wikidata": "Q668687", "ref": "6800400004"}, "type": "Feature"}
{"dataset_attributes": {"@spider": "usps_collection_boxes", "spider:collection_time": "2023-11-01T08:25:09.026919"}, "geometry": {"coordinates": [-95.8958089417, 41.1375588606], "type": "Point"}, "id": "lo3-Rw__RNrPirWEwP0caFjKkQo=", "properties": {"@spider": "usps_collection_boxes", "addr:city": "BELLEVUE", "addr:country": "US", "addr:full": "211 W 22ND AVE", "addr:postcode": "68005", "addr:state": "NE", "amenity": "post_box", "brand": "United States Postal Service", "brand:wikidata": "Q668687", "collection_times": "Mo-Sa 16:00", "name": "USPS COLLECTION BOX - BLUE BOX", "note": "ON 12/24 AND 12/31, THIS BOX MAY BE COLLECTED AS EARLY AS 12 NOON.", "nsi_id": "unitedstatespostalservice-a77078", "operator": "United States Postal Service", "operator:short": "USPS", "operator:type": "public", "operator:wikidata": "Q668687", "ref": "6800500003"}, "type": "Feature"}
{"dataset_attributes": {"@spider": "usps_collection_boxes", "spider:collection_time": "2023-11-01T08:25:09.026919"}, "geometry": {"coordinates": [-95.912813832, 41.140516787], "type": "Point"}, "id": "KO2k1mrsdJ8GXlCtWPIhJDWQqHo=", "properties": {"@spider": "usps_collection_boxes", "addr:city": "BELLEVUE", "addr:country": "US", "addr:full": "1502 HARLAN DR", "addr:postcode": "68005", "addr:state": "NE", "amenity": "post_box", "brand": "United States Postal Service", "brand:wikidata": "Q668687", "collection_times": "Mo-Fr 15:00; Sa 14:30", "name": "USPS COLLECTION BOX - BLUE BOX", "note": "ON 12/24 AND 12/31, THIS BOX MAY BE COLLECTED AS EARLY AS 12 NOON.", "nsi_id": "unitedstatespostalservice-a77078", "operator": "United States Postal Service", "operator:short": "USPS", "operator:type": "public", "operator:wikidata": "Q668687", "ref": "6800500005"}, "type": "Feature"}
{"dataset_attributes": {"@spider": "usps_collection_boxes", "spider:collection_time": "2023-11-01T08:25:09.026919"}, "geometry": {"coordinates": [-95.907527005, 41.149914998], "type": "Point"}, "id": "pqZU380_tnSgePw5gnnTB4FZy1w=", "properties": {"@spider": "usps_collection_boxes", "addr:city": "BELLEVUE", "addr:country": "US", "addr:full": "1003 LINCOLN RD", "addr:postcode": "68005", "addr:state": "NE", "amenity": "post_box", "brand": "United States Postal Service", "brand:wikidata": "Q668687", "collection_times": "Mo-Fr 15:00; Sa 14:30", "name": "USPS COLLECTION BOX - BLUE BOX", "note": "ON 12/24 AND 12/31, THIS BOX MAY BE COLLECTED AS EARLY AS 12 NOON.", "nsi_id": "unitedstatespostalservice-a77078", "operator": "United States Postal Service", "operator:short": "USPS", "operator:type": "public", "operator:wikidata": "Q668687", "ref": "6800500013"}, "type": "Feature"}
{"dataset_attributes": {"@spider": "usps_collection_boxes", "spider:collection_time": "2023-11-01T08:25:09.026919"}, "geometry": {"coordinates": [-95.917276427, 41.150559587], "type": "Point"}, "id": "akSsg5CsERE-ZZWJMCzJqNOhwYE=", "properties": {"@spider": "usps_collection_boxes", "addr:city": "BELLEVUE", "addr:country": "US", "addr:full": "1000 GALVIN RD S", "addr:postcode": "68005", "addr:state": "NE", "amenity": "post_box", "brand": "United States Postal Service", "brand:wikidata": "Q668687", "collection_times": "Mo-Fr 15:00; Sa 14:30", "name": "USPS COLLECTION BOX - BLUE BOX", "note": "ON 12/24 AND 12/31, THIS BOX MAY BE COLLECTED AS EARLY AS 12 NOON.", "nsi_id": "unitedstatespostalservice-a77078", "operator": "United States Postal Service", "operator:short": "USPS", "operator:type": "public", "operator:wikidata": "Q668687", "ref": "6800500014"}, "type": "Feature"}
{"dataset_attributes": {"@spider": "usps_collection_boxes", "spider:collection_time": "2023-11-01T08:25:09.026919"}, "geometry": {"coordinates": [-95.909204609, 41.141236351], "type": "Point"}, "id": "JK1p8VG6_oDUzF-Ysk_ztI9Sv-8=", "properties": {"@spider": "usps_collection_boxes", "addr:city": "BELLEVUE", "addr:country": "US", "addr:full": "1802 GALVIN RD S", "addr:postcode": "68005", "addr:state": "NE", "amenity": "post_box", "brand": "United States Postal Service", "brand:wikidata": "Q668687", "collection_times": "Mo-Fr 15:00; Sa 14:30", "name": "USPS COLLECTION BOX - BLUE BOX", "note": "ON 12/24 AND 12/31, THIS BOX MAY BE COLLECTED AS EARLY AS 12 NOON.", "nsi_id": "unitedstatespostalservice-a77078", "operator": "United States Postal Service", "operator:short": "USPS", "operator:type": "public", "operator:wikidata": "Q668687", "ref": "6800500017"}, "type": "Feature"}
{"dataset_attributes": {"@spider": "usps_collection_boxes", "spider:collection_time": "2023-11-01T08:25:09.026919"}, "geometry": {"coordinates": [-95.917758639, 41.152730991], "type": "Point"}, "id": "7EsM2Cc5Fgw3VTQQWxRxVPKVqog=", "properties": {"@spider": "usps_collection_boxes", "addr:city": "BELLEVUE", "addr:country": "US", "addr:full": "801 GALVIN RD S", "addr:postcode": "68005", "addr:state": "NE", "amenity": "post_box", "brand": "United States Postal Service", "brand:wikidata": "Q668687", "collection_times": "Mo-Sa 15:00", "name": "USPS COLLECTION BOX - BLUE BOX", "note": "ON 12/24 AND 12/31, THIS BOX MAY BE COLLECTED AS EARLY AS 12 NOON.", "nsi_id": "unitedstatespostalservice-a77078", "operator": "United States Postal Service", "operator:short": "USPS", "operator:type": "public", "operator:wikidata": "Q668687", "ref": "6800500022"}, "type": "Feature"}
{"dataset_attributes": {"@spider": "usps_collection_boxes", "spider:collection_time": "2023-11-01T08:25:09.026919"}, "geometry": {"coordinates": [-95.926009395, 41.175527571], "type": "Point"}, "id": "a5wLyhYg9udLWCiKMiWI-NJSORE=", "properties": {"@spider": "usps_collection_boxes", "addr:city": "BELLEVUE", "addr:country": "US", "addr:full": "909 FORT CROOK RD N", "addr:postcode": "68005", "addr:state": "NE", "amenity": "post_box", "brand": "United States Postal Service", "brand:wikidata": "Q668687", "collection_times": "Mo-Fr 15:30; Sa 15:00", "name": "USPS COLLECTION BOX - BLUE BOX", "note": "ON 12/24 AND 12/31, THIS BOX MAY BE COLLECTED AS EARLY AS 12 NOON.", "nsi_id": "unitedstatespostalservice-a77078", "operator": "United States Postal Service", "operator:short": "USPS", "operator:type": "public", "operator:wikidata": "Q668687", "ref": "6800500023"}, "type": "Feature"}
{"dataset_attributes": {"@spider": "usps_collection_boxes", "spider:collection_time": "2023-11-01T08:25:09.026919"}, "geometry": {"coordinates": [-95.926769696, 41.177650104], "type": "Point"}, "id": "D2kRJbGT2VaeN0hxSdVUd9pkexE=", "properties": {"@spider": "usps_collection_boxes", "addr:city": "BELLEVUE", "addr:country": "US", "addr:full": "1001 FORT CROOK RD N", "addr:postcode": "68005", "addr:state": "NE", "amenity": "post_box", "brand": "United States Postal Service", "brand:wikidata": "Q668687", "collection_times": "Mo-Fr 15:30; Sa 15:00", "name": "USPS COLLECTION BOX - BLUE BOX", "note": "ON 12/24 AND 12/31, THIS BOX MAY BE COLLECTED AS EARLY AS 12 NOON.", "nsi_id": "unitedstatespostalservice-a77078", "operator": "United States Postal Service", "operator:short": "USPS", "operator:type": "public", "operator:wikidata": "Q668687", "ref": "6800500025"}, "type": "Feature"}
{"dataset_attributes": {"@spider": "usps_collection_boxes", "spider:collection_time": "2023-11-01T08:25:09.026919"}, "geometry": {"coordinates": [-95.907898615, 41.162982414], "type": "Point"}, "id": "qfvXDmHbnnshWBphk0Ing53LJJQ=", "properties": {"@spider": "usps_collection_boxes", "addr:city": "BELLEVUE", "addr:country": "US", "addr:full": "206 MARTIN DR", "addr:postcode": "68005", "addr:state": "NE", "amenity": "post_box", "brand": "United States Postal Service", "brand:wikidata": "Q668687", "collection_times": "Mo-Sa 15:30", "name": "USPS COLLECTION BOX - BLUE BOX", "note": "ON 12/24 AND 12/31, THIS BOX MAY BE COLLECTED AS EARLY AS 12 NOON.", "nsi_id": "unitedstatespostalservice-a77078", "operator": "United States Postal Service", "operator:short": "USPS", "operator:type": "public", "operator:wikidata": "Q668687", "ref": "6800500028"}, "type": "Feature"}
{"dataset_attributes": {"@spider": "usps_collection_boxes", "spider:collection_time": "2023-11-01T08:25:09.026919"}, "geometry": {"coordinates": [-95.929617955, 41.147402107], "type": "Point"}, "id": "AUja0ILxb1GZV2jSqushvyfnD70=", "properties": {"@spider": "usps_collection_boxes", "addr:city": "BELLEVUE", "addr:country": "US", "addr:full": "2609 VICTORIA AVE", "addr:postcode": "68005", "addr:state": "NE", "amenity": "post_box", "brand": "United States Postal Service", "brand:wikidata": "Q668687", "collection_times": "Mo-Sa 17:05", "name": "USPS COLLECTION BOX - BLUE BOX", "note": "ON 12/24 AND 12/31, THIS BOX MAY BE COLLECTED AS EARLY AS 12 NOON.", "nsi_id": "unitedstatespostalservice-a77078", "operator": "United States Postal Service", "operator:short": "USPS", "operator:type": "public", "operator:wikidata": "Q668687", "ref": "6800500039"}, "type": "Feature"}
{"dataset_attributes": {"@spider": "usps_collection_boxes", "spider:collection_time": "2023-11-01T08:25:09.026919"}, "geometry": {"coordinates": [-95.92859702, 41.1471079807], "type": "Point"}, "id": "qMnHOoI4HXHy2Ecxtbi32t_Vurs=", "properties": {"@spider": "usps_collection_boxes", "addr:city": "BELLEVUE", "addr:country": "US", "addr:full": "2609 VICTORIA AVE", "addr:postcode": "68005", "addr:state": "NE", "amenity": "post_box", "brand": "United States Postal Service", "brand:wikidata": "Q668687", "collection_times": "Mo-Sa 17:05", "name": "USPS COLLECTION BOX - BLUE BOX", "note": "ON 12/24 AND 12/31, THIS BOX MAY BE COLLECTED AS EARLY AS 12 NOON.", "nsi_id": "unitedstatespostalservice-a77078", "operator": "United States Postal Service", "operator:short": "USPS", "operator:type": "public", "operator:wikidata": "Q668687", "ref": "6800500040"}, "type": "Feature"}
{"dataset_attributes": {"@spider": "usps_collection_boxes", "spider:collection_time": "2023-11-01T08:25:09.026919"}, "geometry": {"coordinates": [-95.916829685, 41.150181316], "type": "Point"}, "id": "qxfkA4OD5fQ_vcfj7Nn1rHS-L4o=", "properties": {"@spider": "usps_collection_boxes", "addr:city": "BELLEVUE", "addr:country": "US", "addr:full": "1021 GALVIN RD S", "addr:postcode": "68005", "addr:state": "NE", "amenity": "post_box", "brand": "United States Postal Service", "brand:wikidata": "Q668687", "collection_times": "Mo-Sa 15:00", "name": "USPS COLLECTION BOX - BLUE BOX", "note": "ON 12/24 AND 12/31, THIS BOX MAY BE COLLECTED AS EARLY AS 12 NOON.", "nsi_id": "unitedstatespostalservice-a77078", "operator": "United States Postal Service", "operator:short": "USPS", "operator:type": "public", "operator:wikidata": "Q668687", "ref": "6800500043"}, "type": "Feature"}
{"dataset_attributes": {"@spider": "usps_collection_boxes", "spider:collection_time": "2023-11-01T08:25:09.026919"}, "geometry": {"coordinates": [-95.929617955, 41.147402107], "type": "Point"}, "id": "A8B_FMbfQJYvika1f_XztHqpAis=", "properties": {"@spider": "usps_collection_boxes", "addr:city": "BELLEVUE", "addr:country": "US", "addr:full": "2609 VICTORIA AVE", "addr:postcode": "68005", "addr:state": "NE", "amenity": "post_box", "brand": "United States Postal Service", "brand:wikidata": "Q668687", "collection_times": "Mo-Sa 17:05", "name": "USPS COLLECTION BOX - PO LOBBY", "note": "ON 12/24 AND 12/31, THIS BOX MAY BE COLLECTED AS EARLY AS 12 NOON.", "nsi_id": "unitedstatespostalservice-a77078", "operator": "United States Postal Service", "operator:short": "USPS", "operator:type": "public", "operator:wikidata": "Q668687", "ref": "6800500050"}, "type": "Feature"}
{"dataset_attributes": {"@spider": "usps_collection_boxes", "spider:collection_time": "2023-11-01T08:25:09.026919"}, "geometry": {"coordinates": [-95.8932530255, 41.1364345101], "type": "Point"}, "id": "317F-r4wmawv5x9kV84INyJmJZI=", "properties": {"@spider": "usps_collection_boxes", "addr:city": "BELLEVUE", "addr:country": "US", "addr:full": "103 E MISSION AVE", "addr:postcode": "68005", "addr:state": "NE", "amenity": "post_box", "brand": "United States Postal Service", "brand:wikidata": "Q668687", "collection_times": "Mo-Fr 11:00; Sa 09:00", "name": "USPS COLLECTION BOX - PO LOBBY", "nsi_id": "unitedstatespostalservice-a77078", "operator": "United States Postal Service", "operator:short": "USPS", "operator:type": "public", "operator:wikidata": "Q668687", "ref": "6800500051"}, "type": "Feature"}
{"dataset_attributes": {"@spider": "usps_collection_boxes", "spider:collection_time": "2023-11-01T08:25:09.026919"}, "geometry": {"coordinates": [-95.929617955, 41.147402107], "type": "Point"}, "id": "Ls8OSb8kAnZkmtFiRooTDD5e_T4=", "properties": {"@spider": "usps_collection_boxes", "addr:city": "BELLEVUE", "addr:country": "US", "addr:full": "2609 VICTORIA AVE", "addr:postcode": "68005", "addr:state": "NE", "amenity": "post_box", "brand": "United States Postal Service", "brand:wikidata": "Q668687", "collection_times": "Mo-Sa 17:05", "name": "USPS COLLECTION BOX - APC", "note": "ON 12/24 AND 12/31, THIS BOX MAY BE COLLECTED AS EARLY AS 12 NOON.", "nsi_id": "unitedstatespostalservice-a77078", "operator": "United States Postal Service", "operator:short": "USPS", "operator:type": "public", "operator:wikidata": "Q668687", "ref": "6800500053"}, "type": "Feature"}
{"dataset_attributes": {"@spider": "usps_collection_boxes", "spider:collection_time": "2023-11-01T08:25:09.026919"}, "geometry": {"coordinates": [-95.929617955, 41.147402107], "type": "Point"}, "id": "GG2mCW-qbqYS2ibBdEU9J4IgnGk=", "properties": {"@spider": "usps_collection_boxes", "addr:city": "BELLEVUE", "addr:country": "US", "addr:full": "2609 VICTORIA AVE", "addr:postcode": "68005", "addr:state": "NE", "amenity": "post_box", "brand": "United States Postal Service", "brand:wikidata": "Q668687", "collection_times": "Mo-Fr 17:05; Sa 13:00", "name": "USPS COLLECTION BOX - PO LOBBY", "note": "ON 12/24 AND 12/31, THIS BOX MAY BE COLLECTED AS EARLY AS 12 NOON.", "nsi_id": "unitedstatespostalservice-a77078", "operator": "United States Postal Service", "operator:short": "USPS", "operator:type": "public", "operator:wikidata": "Q668687", "ref": "6800500056"}, "type": "Feature"}
{"dataset_attributes": {"@spider": "usps_collection_boxes", "spider:collection_time": "2023-11-01T08:25:09.026919"}, "geometry": {"coordinates": [-96.1559200176, 41.3637590135], "type": "Point"}, "id": "rJFOyygM9DqCb-ZM_jqS6i7itEQ=", "properties": {"@spider": "usps_collection_boxes", "addr:city": "BENNINGTON", "addr:country": "US", "addr:full": "124 S STARK ST", "addr:postcode": "68007", "addr:state": "NE", "amenity": "post_box", "brand": "United States Postal Service", "brand:wikidata": "Q668687", "collection_times": "Mo-Fr 16:15; Sa 17:00", "name": "USPS COLLECTION BOX - BLUE BOX", "note": "ON 12/24 AND 12/31, THIS BOX MAY BE COLLECTED AS EARLY AS 12 NOON.", "nsi_id": "unitedstatespostalservice-a77078", "operator": "United States Postal Service", "operator:short": "USPS", "operator:type": "public", "operator:wikidata": "Q668687", "ref": "6800700001"}, "type": "Feature"}
{"dataset_attributes": {"@spider": "usps_collection_boxes", "spider:collection_time": "2023-11-01T08:25:09.026919"}, "geometry": {"coordinates": [-96.155690042, 41.363709276], "type": "Point"}, "id": "pwMAXdgC72ACwvaXqJWkALdV-ho=", "properties": {"@spider": "usps_collection_boxes", "addr:city": "BENNINGTON", "addr:country": "US", "addr:full": "124 S STARK ST", "addr:postcode": "68007", "addr:state": "NE", "amenity": "post_box", "brand": "United States Postal Service", "brand:wikidata": "Q668687", "collection_times": "Mo-Fr 16:15; Sa 10:00", "name": "USPS COLLECTION BOX - PO LOBBY", "note": "ON 12/24 AND 12/31, THIS BOX MAY BE COLLECTED AS EARLY AS 12 NOON.", "nsi_id": "unitedstatespostalservice-a77078", "operator": "United States Postal Service", "operator:short": "USPS", "operator:type": "public", "operator:wikidata": "Q668687", "ref": "6800700002"}, "type": "Feature"}
{"dataset_attributes": {"@spider": "usps_collection_boxes", "spider:collection_time": "2023-11-01T08:25:09.026919"}, "geometry": {"coordinates": [-96.155690042, 41.363709276], "type": "Point"}, "id": "Z553boC1Auk6ESt8dmslWSPZ3xM=", "properties": {"@spider": "usps_collection_boxes", "addr:city": "BENNINGTON", "addr:country": "US", "addr:full": "124 S STARK ST", "addr:postcode": "68007", "addr:state": "NE", "amenity": "post_box", "brand": "United States Postal Service", "brand:wikidata": "Q668687", "collection_times": "Mo-Fr 16:15; Sa 10:00", "name": "USPS COLLECTION BOX - PO LOBBY", "note": "ON 12/24 AND 12/31, THIS BOX MAY BE COLLECTED AS EARLY AS 12 NOON.", "nsi_id": "unitedstatespostalservice-a77078", "operator": "United States Postal Service", "operator:short": "USPS", "operator:type": "public", "operator:wikidata": "Q668687", "ref": "6800700004"}, "type": "Feature"}
{"dataset_attributes": {"@spider": "usps_collection_boxes", "spider:collection_time": "2023-11-01T08:25:09.026919"}, "geometry": {"coordinates": [-96.136073768, 41.542415329], "type": "Point"}, "id": "tFT15lHdeRIE2Xes7HN6UWzmThM=", "properties": {"@spider": "usps_collection_boxes", "addr:city": "BLAIR", "addr:country": "US", "addr:full": "218 S 16TH ST", "addr:postcode": "68008", "addr:state": "NE", "amenity": "post_box", "brand": "United States Postal Service", "brand:wikidata": "Q668687", "collection_times": "Mo-Sa 14:00", "name": "USPS COLLECTION BOX - BLUE BOX", "note": "ON 12/24 AND 12/31, THIS BOX MAY BE COLLECTED AS EARLY AS 12 NOON.", "nsi_id": "unitedstatespostalservice-a77078", "operator": "United States Postal Service", "operator:short": "USPS", "operator:type": "public", "operator:wikidata": "Q668687", "ref": "6800800003"}, "type": "Feature"}
{"dataset_attributes": {"@spider": "usps_collection_boxes", "spider:collection_time": "2023-11-01T08:25:09.026919"}, "geometry": {"coordinates": [-96.125308857, 41.542726647], "type": "Point"}, "id": "c2nvB25gxBY9dk7jbwrdoJTLCVY=", "properties": {"@spider": "usps_collection_boxes", "addr:city": "BLAIR", "addr:country": "US", "addr:full": "865 LINCOLN ST", "addr:postcode": "68008", "addr:state": "NE", "amenity": "post_box", "brand": "United States Postal Service", "brand:wikidata": "Q668687", "collection_times": "Mo-Sa 10:00", "name": "USPS COLLECTION BOX - BLUE BOX", "nsi_id": "unitedstatespostalservice-a77078", "operator": "United States Postal Service", "operator:short": "USPS", "operator:type": "public", "operator:wikidata": "Q668687", "ref": "6800800009"}, "type": "Feature"}
{"dataset_attributes": {"@spider": "usps_collection_boxes", "spider:collection_time": "2023-11-01T08:25:09.026919"}, "geometry": {"coordinates": [-96.124838284, 41.44895688], "type": "Point"}, "id": "O6EBnUelfxco0ZH_h8VNS0f28X8=", "properties": {"@spider": "usps_collection_boxes", "addr:city": "BLAIR", "addr:country": "US", "addr:full": "4861 LAKELAND DR", "addr:postcode": "68008", "addr:state": "NE", "amenity": "post_box", "brand": "United States Postal Service", "brand:wikidata": "Q668687", "collection_times": "Mo-Sa 10:45", "name": "USPS COLLECTION BOX - BLUE BOX", "nsi_id": "unitedstatespostalservice-a77078", "operator": "United States Postal Service", "operator:short": "USPS", "operator:type": "public", "operator:wikidata": "Q668687", "ref": "6800800015"}, "type": "Feature"}
{"dataset_attributes": {"@spider": "usps_collection_boxes", "spider:collection_time": "2023-11-01T08:25:09.026919"}, "geometry": {"coordinates": [-96.1457309162, 41.5022685293], "type": "Point"}, "id": "EHVtyJhdd49_8FMKJwnXRvMZNq4=", "properties": {"@spider": "usps_collection_boxes", "addr:city": "BLAIR", "addr:country": "US", "addr:full": "12490 ANN DR", "addr:postcode": "68008", "addr:state": "NE", "amenity": "post_box", "brand": "United States Postal Service", "brand:wikidata": "Q668687", "collection_times": "Mo-Sa 09:30", "name": "USPS COLLECTION BOX - BLUE BOX", "nsi_id": "unitedstatespostalservice-a77078", "operator": "United States Postal Service", "operator:short": "USPS", "operator:type": "public", "operator:wikidata": "Q668687", "ref": "6800800017"}, "type": "Feature"}
{"dataset_attributes": {"@spider": "usps_collection_boxes", "spider:collection_time": "2023-11-01T08:25:09.026919"}, "geometry": {"coordinates": [-96.136136692, 41.544917466], "type": "Point"}, "id": "bPnf99_AVwQIp6uiWNP33rcz7h4=", "properties": {"@spider": "usps_collection_boxes", "addr:city": "BLAIR", "addr:country": "US", "addr:full": "201 N 16TH ST", "addr:postcode": "68008", "addr:state": "NE", "amenity": "post_box", "brand": "United States Postal Service", "brand:wikidata": "Q668687", "collection_times": "Mo-Fr 17:10; Sa 17:15", "name": "USPS COLLECTION BOX - BLUE BOX", "note": "ON 12/24 AND 12/31, THIS BOX MAY BE COLLECTED AS EARLY AS 12 NOON.", "nsi_id": "unitedstatespostalservice-a77078", "operator": "United States Postal Service", "operator:short": "USPS", "operator:type": "public", "operator:wikidata": "Q668687", "ref": "6800800018"}, "type": "Feature"}
{"dataset_attributes": {"@spider": "usps_collection_boxes", "spider:collection_time": "2023-11-01T08:25:09.026919"}, "geometry": {"coordinates": [-96.136136692, 41.544917466], "type": "Point"}, "id": "XyuHSvWFMwZl5eXUkEUtyy59640=", "properties": {"@spider": "usps_collection_boxes", "addr:city": "BLAIR", "addr:country": "US", "addr:full": "201 N 16TH ST", "addr:postcode": "68008", "addr:state": "NE", "amenity": "post_box", "brand": "United States Postal Service", "brand:wikidata": "Q668687", "collection_times": "Mo-Fr 17:00; Sa 15:00", "name": "USPS COLLECTION BOX - PO LOBBY", "note": "ON 12/24 AND 12/31, THIS BOX MAY BE COLLECTED AS EARLY AS 12 NOON.", "nsi_id": "unitedstatespostalservice-a77078", "operator": "United States Postal Service", "operator:short": "USPS", "operator:type": "public", "operator:wikidata": "Q668687", "ref": "6800800020"}, "type": "Feature"}
{"dataset_attributes": {"@spider": "usps_collection_boxes", "spider:collection_time": "2023-11-01T08:25:09.026919"}, "geometry": {"coordinates": [-96.1352505, 41.540716502], "type": "Point"}, "id": "u0pdhV8_TaldbG8-yt3QJgh6UG0=", "properties": {"@spider": "usps_collection_boxes", "addr:city": "BLAIR", "addr:country": "US", "addr:full": "1555 COLFAX ST", "addr:postcode": "68008", "addr:state": "NE", "amenity": "post_box", "brand": "United States Postal Service", "brand:wikidata": "Q668687", "collection_times": "Mo-Sa 13:55", "name": "USPS COLLECTION BOX - BLUE BOX", "note": "ON 12/24 AND 12/31, THIS BOX MAY BE COLLECTED AS EARLY AS 12 NOON.", "nsi_id": "unitedstatespostalservice-a77078", "operator": "United States Postal Service", "operator:short": "USPS", "operator:type": "public", "operator:wikidata": "Q668687", "ref": "6800800023"}, "type": "Feature"}
{"dataset_attributes": {"@spider": "usps_collection_boxes", "spider:collection_time": "2023-11-01T08:25:09.026919"}, "geometry": {"coordinates": [-96.136136692, 41.544917466], "type": "Point"}, "id": "Tx7KSQTgZz0pamWeFRedGbLho4M=", "properties": {"@spider": "usps_collection_boxes", "addr:city": "BLAIR", "addr:country": "US", "addr:full": "201 N 16TH ST", "addr:postcode": "68008", "addr:state": "NE", "amenity": "post_box", "brand": "United States Postal Service", "brand:wikidata": "Q668687", "collection_times": "Mo-Fr 17:00; Sa 11:30", "name": "USPS COLLECTION BOX - PO LOBBY", "note": "ON 12/24 AND 12/31, THIS BOX MAY BE COLLECTED AS EARLY AS 12 NOON.", "nsi_id": "unitedstatespostalservice-a77078", "operator": "United States Postal Service", "operator:short": "USPS", "operator:type": "public", "operator:wikidata": "Q668687", "ref": "6800800024"}, "type": "Feature"}
{"dataset_attributes": {"@spider": "usps_collection_boxes", "spider:collection_time": "2023-11-01T08:25:09.026919"}, "geometry": {"coordinates": [-96.1319816, 41.2590539], "type": "Point"}, "id": "au1zowHbl81T2wLulkUdYR6-MPs=", "properties": {"@spider": "usps_collection_boxes", "addr:city": "BOYSTOWN", "addr:country": "US", "addr:full": "139 S 144TH ST", "addr:postcode": "68010", "addr:state": "NE", "amenity": "post_box", "brand": "United States Postal Service", "brand:wikidata": "Q668687", "collection_times": "Mo-Fr 17:30; Sa 16:35", "name": "USPS COLLECTION BOX - BLUE BOX", "note": "ON 12/24 AND 12/31, THIS BOX MAY BE COLLECTED AS EARLY AS 12 NOON.", "nsi_id": "unitedstatespostalservice-a77078", "operator": "United States Postal Service", "operator:short": "USPS", "operator:type": "public", "operator:wikidata": "Q668687", "ref": "6801000003"}, "type": "Feature"}
{"dataset_attributes": {"@spider": "usps_collection_boxes", "spider:collection_time": "2023-11-01T08:25:09.026919"}, "geometry": {"coordinates": [-96.1319816, 41.2590539], "type": "Point"}, "id": "8pcbaQ_NVW_zSYRI3LRX5b68nio=", "properties": {"@spider": "usps_collection_boxes", "addr:city": "BOYSTOWN", "addr:country": "US", "addr:full": "139 S 144TH ST", "addr:postcode": "68010", "addr:state": "NE", "amenity": "post_box", "brand": "United States Postal Service", "brand:wikidata": "Q668687", "collection_times": "Mo-Fr 17:30; Sa 16:35", "name": "USPS COLLECTION BOX - BLUE BOX", "note": "ON 12/24 AND 12/31, THIS BOX MAY BE COLLECTED AS EARLY AS 12 NOON.", "nsi_id": "unitedstatespostalservice-a77078", "operator": "United States Postal Service", "operator:short": "USPS", "operator:type": "public", "operator:wikidata": "Q668687", "ref": "6801000004"}, "type": "Feature"}
{"dataset_attributes": {"@spider": "usps_collection_boxes", "spider:collection_time": "2023-11-01T08:25:09.026919"}, "geometry": {"coordinates": [-96.138586134, 41.261466874], "type": "Point"}, "id": "4UMtat6xCgbtdUf3p2UUvB2Zfgw=", "properties": {"@spider": "usps_collection_boxes", "addr:city": "BOYSTOWN", "addr:country": "US", "addr:full": "139 S 144TH ST", "addr:postcode": "68010", "addr:state": "NE", "amenity": "post_box", "brand": "United States Postal Service", "brand:wikidata": "Q668687", "collection_times": "Mo-Fr 17:30; Sa 16:35", "name": "USPS COLLECTION BOX - PO LOBBY", "note": "ON 12/24 AND 12/31, THIS BOX MAY BE COLLECTED AS EARLY AS 12 NOON.", "nsi_id": "unitedstatespostalservice-a77078", "operator": "United States Postal Service", "operator:short": "USPS", "operator:type": "public", "operator:wikidata": "Q668687", "ref": "6801000012"}, "type": "Feature"}
{"dataset_attributes": {"@spider": "usps_collection_boxes", "spider:collection_time": "2023-11-01T08:25:09.026919"}, "geometry": {"coordinates": [-96.138586134, 41.261466874], "type": "Point"}, "id": "4mNToJBOu3NSfoWFCi-n-AcPHys=", "properties": {"@spider": "usps_collection_boxes", "addr:city": "BOYSTOWN", "addr:country": "US", "addr:full": "139 S 144TH ST", "addr:postcode": "68010", "addr:state": "NE", "amenity": "post_box", "brand": "United States Postal Service", "brand:wikidata": "Q668687", "collection_times": "Mo-Fr 17:30; Sa 16:35", "name": "USPS COLLECTION BOX - PO LOBBY", "note": "ON 12/24 AND 12/31, THIS BOX MAY BE COLLECTED AS EARLY AS 12 NOON.", "nsi_id": "unitedstatespostalservice-a77078", "operator": "United States Postal Service", "operator:short": "USPS", "operator:type": "public", "operator:wikidata": "Q668687", "ref": "6801000013"}, "type": "Feature"}
{"dataset_attributes": {"@spider": "usps_collection_boxes", "spider:collection_time": "2023-11-01T08:25:09.026919"}, "geometry": {"coordinates": [-96.138586134, 41.261466874], "type": "Point"}, "id": "rf_K1mq5entOH49VnImZOwAoO9M=", "properties": {"@spider": "usps_collection_boxes", "addr:city": "BOYSTOWN", "addr:country": "US", "addr:full": "139 S 144TH ST", "addr:postcode": "68010", "addr:state": "NE", "amenity": "post_box", "brand": "United States Postal Service", "brand:wikidata": "Q668687", "collection_times": "Mo-Fr 17:30; Sa 16:35", "name": "USPS COLLECTION BOX - PO LOBBY", "note": "ON 12/24 AND 12/31, THIS BOX MAY BE COLLECTED AS EARLY AS 12 NOON.", "nsi_id": "unitedstatespostalservice-a77078", "operator": "United States Postal Service", "operator:short": "USPS", "operator:type": "public", "operator:wikidata": "Q668687", "ref": "6801000014"}, "type": "Feature"}
{"dataset_attributes": {"@spider": "usps_collection_boxes", "spider:collection_time": "2023-11-01T08:25:09.026919"}, "geometry": {"coordinates": [-96.138586134, 41.261466874], "type": "Point"}, "id": "QVzN_dS6Nd23QjTWMiyKpoX43bA=", "properties": {"@spider": "usps_collection_boxes", "addr:city": "BOYSTOWN", "addr:country": "US", "addr:full": "139 S 144TH ST", "addr:postcode": "68010", "addr:state": "NE", "amenity": "post_box", "brand": "United States Postal Service", "brand:wikidata": "Q668687", "collection_times": "Mo-Fr 17:30; Sa 16:35", "name": "USPS COLLECTION BOX - PO LOBBY", "note": "ON 12/24 AND 12/31, THIS BOX MAY BE COLLECTED AS EARLY AS 12 NOON.", "nsi_id": "unitedstatespostalservice-a77078", "operator": "United States Postal Service", "operator:short": "USPS", "operator:type": "public", "operator:wikidata": "Q668687", "ref": "6801000015"}, "type": "Feature"}
{"dataset_attributes": {"@spider": "usps_collection_boxes", "spider:collection_time": "2023-11-01T08:25:09.026919"}, "geometry": {"coordinates": [-96.138586134, 41.261466874], "type": "Point"}, "id": "B2qZyfYUWJfoJ9AYY9oxsVCNhVE=", "properties": {"@spider": "usps_collection_boxes", "addr:city": "BOYSTOWN", "addr:country": "US", "addr:full": "139 S 144TH ST", "addr:postcode": "68010", "addr:state": "NE", "amenity": "post_box", "brand": "United States Postal Service", "brand:wikidata": "Q668687", "collection_times": "Mo-Fr 17:30; Sa 16:35", "name": "USPS COLLECTION BOX - APC", "note": "ON 12/24 AND 12/31, THIS BOX MAY BE COLLECTED AS EARLY AS 12 NOON.", "nsi_id": "unitedstatespostalservice-a77078", "operator": "United States Postal Service", "operator:short": "USPS", "operator:type": "public", "operator:wikidata": "Q668687", "ref": "6801000017"}, "type": "Feature"}
{"dataset_attributes": {"@spider": "usps_collection_boxes", "spider:collection_time": "2023-11-01T08:25:09.026919"}, "geometry": {"coordinates": [-96.959032973, 41.283922507], "type": "Point"}, "id": "oM4dn5XxGRq_bMMdaKUc6g8KimQ=", "properties": {"@spider": "usps_collection_boxes", "addr:city": "BRUNO", "addr:country": "US", "addr:full": "205 2ND ST", "addr:postcode": "68014", "addr:state": "NE", "amenity": "post_box", "brand": "United States Postal Service", "brand:wikidata": "Q668687", "collection_times": "Mo-Sa 15:05", "name": "USPS COLLECTION BOX - BLUE BOX", "note": "ON 12/24 AND 12/31, THIS BOX MAY BE COLLECTED AS EARLY AS 12 NOON.", "nsi_id": "unitedstatespostalservice-a77078", "operator": "United States Postal Service", "operator:short": "USPS", "operator:type": "public", "operator:wikidata": "Q668687", "ref": "6801400001"}, "type": "Feature"}
{"dataset_attributes": {"@spider": "usps_collection_boxes", "spider:collection_time": "2023-11-01T08:25:09.026919"}, "geometry": {"coordinates": [-96.959032973, 41.283922507], "type": "Point"}, "id": "nni5luBlgy8B824EZ3zTneJeecE=", "properties": {"@spider": "usps_collection_boxes", "addr:city": "BRUNO", "addr:country": "US", "addr:full": "205 2ND ST", "addr:postcode": "68014", "addr:state": "NE", "amenity": "post_box", "brand": "United States Postal Service", "brand:wikidata": "Q668687", "collection_times": "Mo-Fr 12:00; Sa 09:30", "name": "USPS COLLECTION BOX - PO LOBBY", "nsi_id": "unitedstatespostalservice-a77078", "operator": "United States Postal Service", "operator:short": "USPS", "operator:type": "public", "operator:wikidata": "Q668687", "ref": "6801400002"}, "type": "Feature"}
{"dataset_attributes": {"@spider": "usps_collection_boxes", "spider:collection_time": "2023-11-01T08:25:09.026919"}, "geometry": {"coordinates": [-96.959032973, 41.283922507], "type": "Point"}, "id": "BpnAzU-1_tJrG7A6ZiZP4TUWAc8=", "properties": {"@spider": "usps_collection_boxes", "addr:city": "BRUNO", "addr:country": "US", "addr:full": "205 2ND ST", "addr:postcode": "68014", "addr:state": "NE", "amenity": "post_box", "brand": "United States Postal Service", "brand:wikidata": "Q668687", "collection_times": "Mo-Fr 12:00; Sa 09:30", "name": "USPS COLLECTION BOX - PO LOBBY", "nsi_id": "unitedstatespostalservice-a77078", "operator": "United States Postal Service", "operator:short": "USPS", "operator:type": "public", "operator:wikidata": "Q668687", "ref": "6801400004"}, "type": "Feature"}
{"dataset_attributes": {"@spider": "usps_collection_boxes", "spider:collection_time": "2023-11-01T08:25:09.026919"}, "geometry": {"coordinates": [-96.611121084, 41.396987496], "type": "Point"}, "id": "TGWhNtk-Vp6X4ydSoF6eXX_R2ec=", "properties": {"@spider": "usps_collection_boxes", "addr:city": "CEDAR BLUFFS", "addr:country": "US", "addr:full": "105 W MAIN ST", "addr:postcode": "68015", "addr:state": "NE", "amenity": "post_box", "brand": "United States Postal Service", "brand:wikidata": "Q668687", "collection_times": "Mo-Sa 16:10", "name": "USPS COLLECTION BOX - BLUE BOX", "note": "ON 12/24 AND 12/31, THIS BOX MAY BE COLLECTED AS EARLY AS 12 NOON.", "nsi_id": "unitedstatespostalservice-a77078", "operator": "United States Postal Service", "operator:short": "USPS", "operator:type": "public", "operator:wikidata": "Q668687", "ref": "6801500001"}, "type": "Feature"}
{"dataset_attributes": {"@spider": "usps_collection_boxes", "spider:collection_time": "2023-11-01T08:25:09.026919"}, "geometry": {"coordinates": [-96.611121084, 41.396987496], "type": "Point"}, "id": "VRK1bodsVvoHN3RVljNfDQXOQOs=", "properties": {"@spider": "usps_collection_boxes", "addr:city": "CEDAR BLUFFS", "addr:country": "US", "addr:full": "105 W MAIN ST", "addr:postcode": "68015", "addr:state": "NE", "amenity": "post_box", "brand": "United States Postal Service", "brand:wikidata": "Q668687", "collection_times": "Mo-Fr 14:00; Sa 10:00", "name": "USPS COLLECTION BOX - PO LOBBY", "note": "ON 12/24 AND 12/31, THIS BOX MAY BE COLLECTED AS EARLY AS 12 NOON.", "nsi_id": "unitedstatespostalservice-a77078", "operator": "United States Postal Service", "operator:short": "USPS", "operator:type": "public", "operator:wikidata": "Q668687", "ref": "6801500002"}, "type": "Feature"}
{"dataset_attributes": {"@spider": "usps_collection_boxes", "spider:collection_time": "2023-11-01T08:25:09.026919"}, "geometry": {"coordinates": [-96.611121084, 41.396987496], "type": "Point"}, "id": "yblDlbGSKDHQHtLTxq2-fEJ2TwI=", "properties": {"@spider": "usps_collection_boxes", "addr:city": "CEDAR BLUFFS", "addr:country": "US", "addr:full": "105 W MAIN ST", "addr:postcode": "68015", "addr:state": "NE", "amenity": "post_box", "brand": "United States Postal Service", "brand:wikidata": "Q668687", "collection_times": "Mo-Fr 14:00; Sa 10:00", "name": "USPS COLLECTION BOX - PO LOBBY", "note": "ON 12/24 AND 12/31, THIS BOX MAY BE COLLECTED AS EARLY AS 12 NOON.", "nsi_id": "unitedstatespostalservice-a77078", "operator": "United States Postal Service", "operator:short": "USPS", "operator:type": "public", "operator:wikidata": "Q668687", "ref": "6801500004"}, "type": "Feature"}
{"dataset_attributes": {"@spider": "usps_collection_boxes", "spider:collection_time": "2023-11-01T08:25:09.026919"}, "geometry": {"coordinates": [-96.101744351, 41.036061096], "type": "Point"}, "id": "d2oWrezyTvBMh2tCyHHbP0r_K9g=", "properties": {"@spider": "usps_collection_boxes", "addr:city": "CEDAR CREEK", "addr:country": "US", "addr:full": "104 PARSON DR", "addr:postcode": "68016", "addr:state": "NE", "amenity": "post_box", "brand": "United States Postal Service", "brand:wikidata": "Q668687", "collection_times": "Mo-Fr 16:00; Sa 16:05", "name": "USPS COLLECTION BOX - BLUE BOX", "note": "ON 12/24 AND 12/31, THIS BOX MAY BE COLLECTED AS EARLY AS 12 NOON.", "nsi_id": "unitedstatespostalservice-a77078", "operator": "United States Postal Service", "operator:short": "USPS", "operator:type": "public", "operator:wikidata": "Q668687", "ref": "6801600001"}, "type": "Feature"}
{"dataset_attributes": {"@spider": "usps_collection_boxes", "spider:collection_time": "2023-11-01T08:25:09.026919"}, "geometry": {"coordinates": [-96.101744351, 41.036061096], "type": "Point"}, "id": "4JF2apqOEdGVQpZTZepHKyYo2jc=", "properties": {"@spider": "usps_collection_boxes", "addr:city": "CEDAR CREEK", "addr:country": "US", "addr:full": "104 PARSON DR", "addr:postcode": "68016", "addr:state": "NE", "amenity": "post_box", "brand": "United States Postal Service", "brand:wikidata": "Q668687", "collection_times": "Mo-Fr 14:20; Sa 12:10", "name": "USPS COLLECTION BOX - PO LOBBY", "note": "ON 12/24 AND 12/31, THIS BOX MAY BE COLLECTED AS EARLY AS 12 NOON.", "nsi_id": "unitedstatespostalservice-a77078", "operator": "United States Postal Service", "operator:short": "USPS", "operator:type": "public", "operator:wikidata": "Q668687", "ref": "6801600002"}, "type": "Feature"}
{"dataset_attributes": {"@spider": "usps_collection_boxes", "spider:collection_time": "2023-11-01T08:25:09.026919"}, "geometry": {"coordinates": [-96.101744351, 41.036061096], "type": "Point"}, "id": "0ohvxkY6G9UqXz4Mfk3JsqPy2vo=", "properties": {"@spider": "usps_collection_boxes", "addr:city": "CEDAR CREEK", "addr:country": "US", "addr:full": "104 PARSON DR", "addr:postcode": "68016", "addr:state": "NE", "amenity": "post_box", "brand": "United States Postal Service", "brand:wikidata": "Q668687", "collection_times": "Mo-Fr 14:20; Sa 12:10", "name": "USPS COLLECTION BOX - PO LOBBY", "note": "ON 12/24 AND 12/31, THIS BOX MAY BE COLLECTED AS EARLY AS 12 NOON.", "nsi_id": "unitedstatespostalservice-a77078", "operator": "United States Postal Service", "operator:short": "USPS", "operator:type": "public", "operator:wikidata": "Q668687", "ref": "6801600005"}, "type": "Feature"}
{"dataset_attributes": {"@spider": "usps_collection_boxes", "spider:collection_time": "2023-11-01T08:25:09.026919"}, "geometry": {"coordinates": [-96.644954549, 41.057836994], "type": "Point"}, "id": "bE-MlPcm0yA6fsCKbCtfX50aIEg=", "properties": {"@spider": "usps_collection_boxes", "addr:city": "CERESCO", "addr:country": "US", "addr:full": "313 2ND ST", "addr:postcode": "68017", "addr:state": "NE", "amenity": "post_box", "brand": "United States Postal Service", "brand:wikidata": "Q668687", "collection_times": "Mo-Fr 16:10; Sa 16:15", "name": "USPS COLLECTION BOX - BLUE BOX", "note": "ON 12/24 AND 12/31, THIS BOX MAY BE COLLECTED AS EARLY AS 12 NOON.", "nsi_id": "unitedstatespostalservice-a77078", "operator": "United States Postal Service", "operator:short": "USPS", "operator:type": "public", "operator:wikidata": "Q668687", "ref": "6801700001"}, "type": "Feature"}
{"dataset_attributes": {"@spider": "usps_collection_boxes", "spider:collection_time": "2023-11-01T08:25:09.026919"}, "geometry": {"coordinates": [-96.644954549, 41.057836994], "type": "Point"}, "id": "ewtQ2EazIkzDEGbkUvZsTPfhUJo=", "properties": {"@spider": "usps_collection_boxes", "addr:city": "CERESCO", "addr:country": "US", "addr:full": "313 2ND ST", "addr:postcode": "68017", "addr:state": "NE", "amenity": "post_box", "brand": "United States Postal Service", "brand:wikidata": "Q668687", "collection_times": "Mo-Fr 16:10; Sa 10:00", "name": "USPS COLLECTION BOX - PO LOBBY", "note": "ON 12/24 AND 12/31, THIS BOX MAY BE COLLECTED AS EARLY AS 12 NOON.", "nsi_id": "unitedstatespostalservice-a77078", "operator": "United States Postal Service", "operator:short": "USPS", "operator:type": "public", "operator:wikidata": "Q668687", "ref": "6801700003"}, "type": "Feature"}
{"dataset_attributes": {"@spider": "usps_collection_boxes", "spider:collection_time": "2023-11-01T08:25:09.026919"}, "geometry": {"coordinates": [-96.644954549, 41.057836994], "type": "Point"}, "id": "3jK2IPc-NBDOiIHXcwzwwVndQe8=", "properties": {"@spider": "usps_collection_boxes", "addr:city": "CERESCO", "addr:country": "US", "addr:full": "313 2ND ST", "addr:postcode": "68017", "addr:state": "NE", "amenity": "post_box", "brand": "United States Postal Service", "brand:wikidata": "Q668687", "collection_times": "Mo-Fr 16:10; Sa 10:00", "name": "USPS COLLECTION BOX - PO LOBBY", "note": "ON 12/24 AND 12/31, THIS BOX MAY BE COLLECTED AS EARLY AS 12 NOON.", "nsi_id": "unitedstatespostalservice-a77078", "operator": "United States Postal Service", "operator:short": "USPS", "operator:type": "public", "operator:wikidata": "Q668687", "ref": "6801700005"}, "type": "Feature"}
{"dataset_attributes": {"@spider": "usps_collection_boxes", "spider:collection_time": "2023-11-01T08:25:09.026919"}, "geometry": {"coordinates": [-96.60912322, 41.297427512], "type": "Point"}, "id": "_Ax5BUBJ58dRNy5nER-H--ZA5pA=", "properties": {"@spider": "usps_collection_boxes", "addr:city": "COLON", "addr:country": "US", "addr:full": "108 SPRUCE ST", "addr:postcode": "68018", "addr:state": "NE", "amenity": "post_box", "brand": "United States Postal Service", "brand:wikidata": "Q668687", "collection_times": "Mo-Sa 15:55", "name": "USPS COLLECTION BOX - BLUE BOX", "note": "ON 12/24 AND 12/31, THIS BOX MAY BE COLLECTED AS EARLY AS 12 NOON.", "nsi_id": "unitedstatespostalservice-a77078", "operator": "United States Postal Service", "operator:short": "USPS", "operator:type": "public", "operator:wikidata": "Q668687", "ref": "6801800001"}, "type": "Feature"}
{"dataset_attributes": {"@spider": "usps_collection_boxes", "spider:collection_time": "2023-11-01T08:25:09.026919"}, "geometry": {"coordinates": [-96.60912322, 41.297427512], "type": "Point"}, "id": "RLSSn1HeRH590I_OnERek7xgCaI=", "properties": {"@spider": "usps_collection_boxes", "addr:city": "COLON", "addr:country": "US", "addr:full": "108 SPRUCE ST", "addr:postcode": "68018", "addr:state": "NE", "amenity": "post_box", "brand": "United States Postal Service", "brand:wikidata": "Q668687", "collection_times": "Mo-Sa 14:30", "name": "USPS COLLECTION BOX - PO LOBBY", "note": "ON 12/24 AND 12/31, THIS BOX MAY BE COLLECTED AS EARLY AS 12 NOON.", "nsi_id": "unitedstatespostalservice-a77078", "operator": "United States Postal Service", "operator:short": "USPS", "operator:type": "public", "operator:wikidata": "Q668687", "ref": "6801800002"}, "type": "Feature"}
{"dataset_attributes": {"@spider": "usps_collection_boxes", "spider:collection_time": "2023-11-01T08:25:09.026919"}, "geometry": {"coordinates": [-96.60912322, 41.297427512], "type": "Point"}, "id": "hkTStERxtSwyprb-d9vNk-eL-K8=", "properties": {"@spider": "usps_collection_boxes", "addr:city": "COLON", "addr:country": "US", "addr:full": "108 SPRUCE ST", "addr:postcode": "68018", "addr:state": "NE", "amenity": "post_box", "brand": "United States Postal Service", "brand:wikidata": "Q668687", "collection_times": "Mo-Sa 14:30", "name": "USPS COLLECTION BOX - PO LOBBY", "note": "ON 12/24 AND 12/31, THIS BOX MAY BE COLLECTED AS EARLY AS 12 NOON.", "nsi_id": "unitedstatespostalservice-a77078", "operator": "United States Postal Service", "operator:short": "USPS", "operator:type": "public", "operator:wikidata": "Q668687", "ref": "6801800005"}, "type": "Feature"}
{"dataset_attributes": {"@spider": "usps_collection_boxes", "spider:collection_time": "2023-11-01T08:25:09.026919"}, "geometry": {"coordinates": [-96.364053083, 41.786426293], "type": "Point"}, "id": "kRUHTX3eZdCImFfHQuX_xgtBs8s=", "properties": {"@spider": "usps_collection_boxes", "addr:city": "CRAIG", "addr:country": "US", "addr:full": "149 N MAIN ST", "addr:postcode": "68019", "addr:state": "NE", "amenity": "post_box", "brand": "United States Postal Service", "brand:wikidata": "Q668687", "collection_times": "Mo-Fr 16:50; Sa 16:55", "name": "USPS COLLECTION BOX - BLUE BOX", "note": "ON 12/24 AND 12/31, THIS BOX MAY BE COLLECTED AS EARLY AS 12 NOON.", "nsi_id": "unitedstatespostalservice-a77078", "operator": "United States Postal Service", "operator:short": "USPS", "operator:type": "public", "operator:wikidata": "Q668687", "ref": "6801900001"}, "type": "Feature"}
{"dataset_attributes": {"@spider": "usps_collection_boxes", "spider:collection_time": "2023-11-01T08:25:09.026919"}, "geometry": {"coordinates": [-96.364053083, 41.786426293], "type": "Point"}, "id": "DhZm84oJrx_jiReAIEUSqryl7vQ=", "properties": {"@spider": "usps_collection_boxes", "addr:city": "CRAIG", "addr:country": "US", "addr:full": "149 N MAIN ST", "addr:postcode": "68019", "addr:state": "NE", "amenity": "post_box", "brand": "United States Postal Service", "brand:wikidata": "Q668687", "collection_times": "Mo-Fr 12:00; Sa 10:30", "name": "USPS COLLECTION BOX - PO LOBBY", "nsi_id": "unitedstatespostalservice-a77078", "operator": "United States Postal Service", "operator:short": "USPS", "operator:type": "public", "operator:wikidata": "Q668687", "ref": "6801900002"}, "type": "Feature"}
{"dataset_attributes": {"@spider": "usps_collection_boxes", "spider:collection_time": "2023-11-01T08:25:09.026919"}, "geometry": {"coordinates": [-96.364053083, 41.786426293], "type": "Point"}, "id": "TwL5eDUXRXFkgLjZD5S4OAgXdG4=", "properties": {"@spider": "usps_collection_boxes", "addr:city": "CRAIG", "addr:country": "US", "addr:full": "149 N MAIN ST", "addr:postcode": "68019", "addr:state": "NE", "amenity": "post_box", "brand": "United States Postal Service", "brand:wikidata": "Q668687", "collection_times": "Mo-Fr 12:00; Sa 10:30", "name": "USPS COLLECTION BOX - PO LOBBY", "nsi_id": "unitedstatespostalservice-a77078", "operator": "United States Postal Service", "operator:short": "USPS", "operator:type": "public", "operator:wikidata": "Q668687", "ref": "6801900004"}, "type": "Feature"}
{"dataset_attributes": {"@spider": "usps_collection_boxes", "spider:collection_time": "2023-11-01T08:25:09.026919"}, "geometry": {"coordinates": [-96.249856745, 42.006070643], "type": "Point"}, "id": "VXliFVoOgAV8NQJfKVHW2apQFZo=", "properties": {"@spider": "usps_collection_boxes", "addr:city": "DECATUR", "addr:country": "US", "addr:full": "833 S BROADWAY ST", "addr:postcode": "68020", "addr:state": "NE", "amenity": "post_box", "brand": "United States Postal Service", "brand:wikidata": "Q668687", "collection_times": "Mo-Sa 16:30", "name": "USPS COLLECTION BOX - BLUE BOX", "note": "ON 12/24 AND 12/31, THIS BOX MAY BE COLLECTED AS EARLY AS 12 NOON.", "nsi_id": "unitedstatespostalservice-a77078", "operator": "United States Postal Service", "operator:short": "USPS", "operator:type": "public", "operator:wikidata": "Q668687", "ref": "6802000001"}, "type": "Feature"}
{"dataset_attributes": {"@spider": "usps_collection_boxes", "spider:collection_time": "2023-11-01T08:25:09.026919"}, "geometry": {"coordinates": [-96.249856745, 42.006070643], "type": "Point"}, "id": "GULz4nrFqF4M-q9eUGk7rtM-dR4=", "properties": {"@spider": "usps_collection_boxes", "addr:city": "DECATUR", "addr:country": "US", "addr:full": "833 S BROADWAY ST", "addr:postcode": "68020", "addr:state": "NE", "amenity": "post_box", "brand": "United States Postal Service", "brand:wikidata": "Q668687", "collection_times": "Mo-Fr 11:30; Sa 10:00", "name": "USPS COLLECTION BOX - PO LOBBY", "nsi_id": "unitedstatespostalservice-a77078", "operator": "United States Postal Service", "operator:short": "USPS", "operator:type": "public", "operator:wikidata": "Q668687", "ref": "6802000002"}, "type": "Feature"}
{"dataset_attributes": {"@spider": "usps_collection_boxes", "spider:collection_time": "2023-11-01T08:25:09.026919"}, "geometry": {"coordinates": [-96.249856745, 42.006070643], "type": "Point"}, "id": "dzJ5tm_XnykDhWKu0QPnu2ubCb8=", "properties": {"@spider": "usps_collection_boxes", "addr:city": "DECATUR", "addr:country": "US", "addr:full": "833 S BROADWAY ST", "addr:postcode": "68020", "addr:state": "NE", "amenity": "post_box", "brand": "United States Postal Service", "brand:wikidata": "Q668687", "collection_times": "Mo-Fr 11:30; Sa 10:00", "name": "USPS COLLECTION BOX - PO LOBBY", "nsi_id": "unitedstatespostalservice-a77078", "operator": "United States Postal Service", "operator:short": "USPS", "operator:type": "public", "operator:wikidata": "Q668687", "ref": "6802000004"}, "type": "Feature"}
{"dataset_attributes": {"@spider": "usps_collection_boxes", "spider:collection_time": "2023-11-01T08:25:09.026919"}, "geometry": {"coordinates": [-96.232125362, 41.286763297], "type": "Point"}, "id": "1ZBWG-CIimXg2u9Dn8bs-fcOSdc=", "properties": {"@spider": "usps_collection_boxes", "addr:city": "ELKHORN", "addr:country": "US", "addr:full": "20284 WIRT ST", "addr:postcode": "68022", "addr:state": "NE", "amenity": "post_box", "brand": "United States Postal Service", "brand:wikidata": "Q668687", "collection_times": "Mo-Fr 16:30; Sa 16:40", "name": "USPS COLLECTION BOX - BLUE BOX", "note": "ON 12/24 AND 12/31, THIS BOX MAY BE COLLECTED AS EARLY AS 12 NOON.", "nsi_id": "unitedstatespostalservice-a77078", "operator": "United States Postal Service", "operator:short": "USPS", "operator:type": "public", "operator:wikidata": "Q668687", "ref": "6802200001"}, "type": "Feature"}
{"dataset_attributes": {"@spider": "usps_collection_boxes", "spider:collection_time": "2023-11-01T08:25:09.026919"}, "geometry": {"coordinates": [-96.232125362, 41.286763297], "type": "Point"}, "id": "_ikELC_6Nf7tEE8O39QBO1ttpR4=", "properties": {"@spider": "usps_collection_boxes", "addr:city": "ELKHORN", "addr:country": "US", "addr:full": "20284 WIRT ST", "addr:postcode": "68022", "addr:state": "NE", "amenity": "post_box", "brand": "United States Postal Service", "brand:wikidata": "Q668687", "collection_times": "Mo-Fr 16:30; Sa 16:40", "name": "USPS COLLECTION BOX - BLUE BOX", "note": "ON 12/24 AND 12/31, THIS BOX MAY BE COLLECTED AS EARLY AS 12 NOON.", "nsi_id": "unitedstatespostalservice-a77078", "operator": "United States Postal Service", "operator:short": "USPS", "operator:type": "public", "operator:wikidata": "Q668687", "ref": "6802200004"}, "type": "Feature"}
{"dataset_attributes": {"@spider": "usps_collection_boxes", "spider:collection_time": "2023-11-01T08:25:09.026919"}, "geometry": {"coordinates": [-96.232125362, 41.286763297], "type": "Point"}, "id": "rB1EAq-s56a1xMaEzW9o18hxbwY=", "properties": {"@spider": "usps_collection_boxes", "addr:city": "ELKHORN", "addr:country": "US", "addr:full": "20284 WIRT ST", "addr:postcode": "68022", "addr:state": "NE", "amenity": "post_box", "brand": "United States Postal Service", "brand:wikidata": "Q668687", "collection_times": "Mo-Fr 16:20; Sa 12:00", "name": "USPS COLLECTION BOX - PO LOBBY", "note": "ON 12/24 AND 12/31, THIS BOX MAY BE COLLECTED AS EARLY AS 12 NOON.", "nsi_id": "unitedstatespostalservice-a77078", "operator": "United States Postal Service", "operator:short": "USPS", "operator:type": "public", "operator:wikidata": "Q668687", "ref": "6802200007"}, "type": "Feature"}
{"dataset_attributes": {"@spider": "usps_collection_boxes", "spider:collection_time": "2023-11-01T08:25:09.026919"}, "geometry": {"coordinates": [-96.233229499, 41.276474811], "type": "Point"}, "id": "nmf__APhPQMPWlfscrqcAE6zdJo=", "properties": {"@spider": "usps_collection_boxes", "addr:city": "ELKHORN", "addr:country": "US", "addr:full": "1908 N 203RD ST", "addr:postcode": "68022", "addr:state": "NE", "amenity": "post_box", "brand": "United States Postal Service", "brand:wikidata": "Q668687", "collection_times": "Mo-Sa 10:30", "name": "USPS COLLECTION BOX - BLUE BOX", "nsi_id": "unitedstatespostalservice-a77078", "operator": "United States Postal Service", "operator:short": "USPS", "operator:type": "public", "operator:wikidata": "Q668687", "ref": "6802200010"}, "type": "Feature"}
{"dataset_attributes": {"@spider": "usps_collection_boxes", "spider:collection_time": "2023-11-01T08:25:09.026919"}, "geometry": {"coordinates": [-96.243723758, 41.254770008], "type": "Point"}, "id": "PNxKeTtbGQ_7GYY5wWZHRL_Sl5M=", "properties": {"@spider": "usps_collection_boxes", "addr:city": "ELKHORN", "addr:country": "US", "addr:full": "400 S 210TH ST", "addr:postcode": "68022", "addr:state": "NE", "amenity": "post_box", "brand": "United States Postal Service", "brand:wikidata": "Q668687", "collection_times": "Mo-Sa 10:30", "name": "USPS COLLECTION BOX - BLUE BOX", "nsi_id": "unitedstatespostalservice-a77078", "operator": "United States Postal Service", "operator:short": "USPS", "operator:type": "public", "operator:wikidata": "Q668687", "ref": "6802200011"}, "type": "Feature"}
{"dataset_attributes": {"@spider": "usps_collection_boxes", "spider:collection_time": "2023-11-01T08:25:09.026919"}, "geometry": {"coordinates": [-96.219881026, 41.248432502], "type": "Point"}, "id": "ttnRvIoQUb3wrhRuXoJ9YwpLqXk=", "properties": {"@spider": "usps_collection_boxes", "addr:city": "ELKHORN", "addr:country": "US", "addr:full": "19500 PACIFIC ST", "addr:postcode": "68022", "addr:state": "NE", "amenity": "post_box", "brand": "United States Postal Service", "brand:wikidata": "Q668687", "collection_times": "Mo-Sa 10:30", "name": "USPS COLLECTION BOX - BLUE BOX", "nsi_id": "unitedstatespostalservice-a77078", "operator": "United States Postal Service", "operator:short": "USPS", "operator:type": "public", "operator:wikidata": "Q668687", "ref": "6802200012"}, "type": "Feature"}
{"dataset_attributes": {"@spider": "usps_collection_boxes", "spider:collection_time": "2023-11-01T08:25:09.026919"}, "geometry": {"coordinates": [-96.218807616, 41.281043942], "type": "Point"}, "id": "g8Xt2bptTCQrdMh5U9f_lum25LA=", "properties": {"@spider": "usps_collection_boxes", "addr:city": "ELKHORN", "addr:country": "US", "addr:full": "19312 GRANT PLZ", "addr:postcode": "68022", "addr:state": "NE", "amenity": "post_box", "brand": "United States Postal Service", "brand:wikidata": "Q668687", "collection_times": "Mo-Sa 11:30", "name": "USPS COLLECTION BOX - BLUE BOX", "nsi_id": "unitedstatespostalservice-a77078", "operator": "United States Postal Service", "operator:short": "USPS", "operator:type": "public", "operator:wikidata": "Q668687", "ref": "6802200013"}, "type": "Feature"}
{"dataset_attributes": {"@spider": "usps_collection_boxes", "spider:collection_time": "2023-11-01T08:25:09.026919"}, "geometry": {"coordinates": [-96.232125362, 41.286763297], "type": "Point"}, "id": "LIFXyCDaN-Bo5bK1LI43z5jPVcc=", "properties": {"@spider": "usps_collection_boxes", "addr:city": "ELKHORN", "addr:country": "US", "addr:full": "20284 WIRT ST", "addr:postcode": "68022", "addr:state": "NE", "amenity": "post_box", "brand": "United States Postal Service", "brand:wikidata": "Q668687", "collection_times": "Mo-Fr 16:20; Sa 12:00", "name": "USPS COLLECTION BOX - PO LOBBY", "note": "ON 12/24 AND 12/31, THIS BOX MAY BE COLLECTED AS EARLY AS 12 NOON.", "nsi_id": "unitedstatespostalservice-a77078", "operator": "United States Postal Service", "operator:short": "USPS", "operator:type": "public", "operator:wikidata": "Q668687", "ref": "6802200014"}, "type": "Feature"}
{"dataset_attributes": {"@spider": "usps_collection_boxes", "spider:collection_time": "2023-11-01T08:25:09.026919"}, "geometry": {"coordinates": [-96.232125362, 41.286763297], "type": "Point"}, "id": "ydkC-lFvRar-KUjHM3U5ppAZBwc=", "properties": {"@spider": "usps_collection_boxes", "addr:city": "ELKHORN", "addr:country": "US", "addr:full": "20284 WIRT ST", "addr:postcode": "68022", "addr:state": "NE", "amenity": "post_box", "brand": "United States Postal Service", "brand:wikidata": "Q668687", "collection_times": "Mo-Fr 16:20; Sa 12:00", "name": "USPS COLLECTION BOX - PO LOBBY", "note": "ON 12/24 AND 12/31, THIS BOX MAY BE COLLECTED AS EARLY AS 12 NOON.", "nsi_id": "unitedstatespostalservice-a77078", "operator": "United States Postal Service", "operator:short": "USPS", "operator:type": "public", "operator:wikidata": "Q668687", "ref": "6802200015"}, "type": "Feature"}
{"dataset_attributes": {"@spider": "usps_collection_boxes", "spider:collection_time": "2023-11-01T08:25:09.026919"}, "geometry": {"coordinates": [-96.232125362, 41.286763297], "type": "Point"}, "id": "s9A9341vnmIIxrK8ciYKcaPvxWU=", "properties": {"@spider": "usps_collection_boxes", "addr:city": "ELKHORN", "addr:country": "US", "addr:full": "20284 WIRT ST", "addr:postcode": "68022", "addr:state": "NE", "amenity": "post_box", "brand": "United States Postal Service", "brand:wikidata": "Q668687", "collection_times": "Mo-Fr 16:20; Sa 12:00", "name": "USPS COLLECTION BOX - PO LOBBY", "note": "ON 12/24 AND 12/31, THIS BOX MAY BE COLLECTED AS EARLY AS 12 NOON.", "nsi_id": "unitedstatespostalservice-a77078", "operator": "United States Postal Service", "operator:short": "USPS", "operator:type": "public", "operator:wikidata": "Q668687", "ref": "6802200016"}, "type": "Feature"}
{"dataset_attributes": {"@spider": "usps_collection_boxes", "spider:collection_time": "2023-11-01T08:25:09.026919"}, "geometry": {"coordinates": [-96.232125362, 41.286763297], "type": "Point"}, "id": "Wdly5_YWFmRK35At8VVKvZqurto=", "properties": {"@spider": "usps_collection_boxes", "addr:city": "ELKHORN", "addr:country": "US", "addr:full": "20284 WIRT ST", "addr:postcode": "68022", "addr:state": "NE", "amenity": "post_box", "brand": "United States Postal Service", "brand:wikidata": "Q668687", "collection_times": "Mo-Fr 16:20; Sa 12:00", "name": "USPS COLLECTION BOX - PO LOBBY", "note": "ON 12/24 AND 12/31, THIS BOX MAY BE COLLECTED AS EARLY AS 12 NOON.", "nsi_id": "unitedstatespostalservice-a77078", "operator": "United States Postal Service", "operator:short": "USPS", "operator:type": "public", "operator:wikidata": "Q668687", "ref": "6802200018"}, "type": "Feature"}
{"dataset_attributes": {"@spider": "usps_collection_boxes", "spider:collection_time": "2023-11-01T08:25:09.026919"}, "geometry": {"coordinates": [-96.026389677, 41.459193], "type": "Point"}, "id": "H5HnQf6m3GtFImjZ2bjQ73Jr670=", "properties": {"@spider": "usps_collection_boxes", "addr:city": "FORT CALHOUN", "addr:country": "US", "addr:full": "406 N 14TH ST", "addr:postcode": "68023", "addr:state": "NE", "amenity": "post_box", "brand": "United States Postal Service", "brand:wikidata": "Q668687", "collection_times": "Mo-Fr 16:30; Sa 17:40", "name": "USPS COLLECTION BOX - BLUE BOX", "note": "ON 12/24 AND 12/31, THIS BOX MAY BE COLLECTED AS EARLY AS 12 NOON.", "nsi_id": "unitedstatespostalservice-a77078", "operator": "United States Postal Service", "operator:short": "USPS", "operator:type": "public", "operator:wikidata": "Q668687", "ref": "6802300002"}, "type": "Feature"}
{"dataset_attributes": {"@spider": "usps_collection_boxes", "spider:collection_time": "2023-11-01T08:25:09.026919"}, "geometry": {"coordinates": [-96.026389677, 41.459193], "type": "Point"}, "id": "SwfOUlAbehBvcYuTZG_elmnKBRo=", "properties": {"@spider": "usps_collection_boxes", "addr:city": "FORT CALHOUN", "addr:country": "US", "addr:full": "406 N 14TH ST", "addr:postcode": "68023", "addr:state": "NE", "amenity": "post_box", "brand": "United States Postal Service", "brand:wikidata": "Q668687", "collection_times": "Mo-Fr 16:30; Sa 11:00", "name": "USPS COLLECTION BOX - PO LOBBY", "note": "ON 12/24 AND 12/31, THIS BOX MAY BE COLLECTED AS EARLY AS 12 NOON.", "nsi_id": "unitedstatespostalservice-a77078", "operator": "United States Postal Service", "operator:short": "USPS", "operator:type": "public", "operator:wikidata": "Q668687", "ref": "6802300003"}, "type": "Feature"}
{"dataset_attributes": {"@spider": "usps_collection_boxes", "spider:collection_time": "2023-11-01T08:25:09.026919"}, "geometry": {"coordinates": [-96.026389677, 41.459193], "type": "Point"}, "id": "-PGTU-7wG0LpYLECofx-kv6_KEM=", "properties": {"@spider": "usps_collection_boxes", "addr:city": "FORT CALHOUN", "addr:country": "US", "addr:full": "406 N 14TH ST", "addr:postcode": "68023", "addr:state": "NE", "amenity": "post_box", "brand": "United States Postal Service", "brand:wikidata": "Q668687", "collection_times": "Mo-Fr 16:30; Sa 11:00", "name": "USPS COLLECTION BOX - PO LOBBY", "note": "ON 12/24 AND 12/31, THIS BOX MAY BE COLLECTED AS EARLY AS 12 NOON.", "nsi_id": "unitedstatespostalservice-a77078", "operator": "United States Postal Service", "operator:short": "USPS", "operator:type": "public", "operator:wikidata": "Q668687", "ref": "6802300005"}, "type": "Feature"}
{"dataset_attributes": {"@spider": "usps_collection_boxes", "spider:collection_time": "2023-11-01T08:25:09.026919"}, "geometry": {"coordinates": [-96.496029989, 41.43495679], "type": "Point"}, "id": "rdL9ffqp1J5l8qT1MXnSPtKU36Q=", "properties": {"@spider": "usps_collection_boxes", "addr:city": "FREMONT", "addr:country": "US", "addr:full": "617 N MAIN ST", "addr:postcode": "68025", "addr:state": "NE", "amenity": "post_box", "brand": "United States Postal Service", "brand:wikidata": "Q668687", "collection_times": "Mo-Fr 11:00", "name": "USPS COLLECTION BOX - BLUE BOX", "nsi_id": "unitedstatespostalservice-a77078", "operator": "United States Postal Service", "operator:short": "USPS", "operator:type": "public", "operator:wikidata": "Q668687", "ref": "6802500008"}, "type": "Feature"}
{"dataset_attributes": {"@spider": "usps_collection_boxes", "spider:collection_time": "2023-11-01T08:25:09.026919"}, "geometry": {"coordinates": [-96.4835166324, 41.4434443622], "type": "Point"}, "id": "sBGxBIA1lPL1EF9vlRczjb5vKrk=", "properties": {"@spider": "usps_collection_boxes", "addr:city": "FREMONT", "addr:country": "US", "addr:full": "1531 N BELL ST", "addr:postcode": "68025", "addr:state": "NE", "amenity": "post_box", "brand": "United States Postal Service", "brand:wikidata": "Q668687", "collection_times": "Mo-Sa 10:45", "name": "USPS COLLECTION BOX - BLUE BOX", "nsi_id": "unitedstatespostalservice-a77078", "operator": "United States Postal Service", "operator:short": "USPS", "operator:type": "public", "operator:wikidata": "Q668687", "ref": "6802500009"}, "type": "Feature"}
{"dataset_attributes": {"@spider": "usps_collection_boxes", "spider:collection_time": "2023-11-01T08:25:09.026919"}, "geometry": {"coordinates": [-96.49746225, 41.433280787], "type": "Point"}, "id": "-bsdSlSwcgodKIF8dE0LfHCrfm4=", "properties": {"@spider": "usps_collection_boxes", "addr:city": "FREMONT", "addr:country": "US", "addr:full": "435 N PARK AVE", "addr:postcode": "68025", "addr:state": "NE", "amenity": "post_box", "brand": "United States Postal Service", "brand:wikidata": "Q668687", "collection_times": "Mo-Fr 10:00", "name": "USPS COLLECTION BOX - BLUE BOX", "nsi_id": "unitedstatespostalservice-a77078", "operator": "United States Postal Service", "operator:short": "USPS", "operator:type": "public", "operator:wikidata": "Q668687", "ref": "6802500013"}, "type": "Feature"}
{"dataset_attributes": {"@spider": "usps_collection_boxes", "spider:collection_time": "2023-11-01T08:25:09.026919"}, "geometry": {"coordinates": [-96.493752, 41.450481509], "type": "Point"}, "id": "jMFrIRJGM_uk6RaAVSqjFFLJL2E=", "properties": {"@spider": "usps_collection_boxes", "addr:city": "FREMONT", "addr:country": "US", "addr:full": "322 E 22ND ST", "addr:postcode": "68025", "addr:state": "NE", "amenity": "post_box", "brand": "United States Postal Service", "brand:wikidata": "Q668687", "collection_times": "Mo-Sa 09:00", "name": "USPS COLLECTION BOX - BLUE BOX", "nsi_id": "unitedstatespostalservice-a77078", "operator": "United States Postal Service", "operator:short": "USPS", "operator:type": "public", "operator:wikidata": "Q668687", "ref": "6802500018"}, "type": "Feature"}
{"dataset_attributes": {"@spider": "usps_collection_boxes", "spider:collection_time": "2023-11-01T08:25:09.026919"}, "geometry": {"coordinates": [-96.48653008, 41.451600121], "type": "Point"}, "id": "Ut-Hg_HGivCuh-sReKVZV5ckc0A=", "properties": {"@spider": "usps_collection_boxes", "addr:city": "FREMONT", "addr:country": "US", "addr:full": "860 E 23RD ST", "addr:postcode": "68025", "addr:state": "NE", "amenity": "post_box", "brand": "United States Postal Service", "brand:wikidata": "Q668687", "collection_times": "Mo-Fr 11:00; Sa 10:00", "name": "USPS COLLECTION BOX - BLUE BOX", "nsi_id": "unitedstatespostalservice-a77078", "operator": "United States Postal Service", "operator:short": "USPS", "operator:type": "public", "operator:wikidata": "Q668687", "ref": "6802500020"}, "type": "Feature"}
{"dataset_attributes": {"@spider": "usps_collection_boxes", "spider:collection_time": "2023-11-01T08:25:09.026919"}, "geometry": {"coordinates": [-96.457374, 41.451707514], "type": "Point"}, "id": "R7Eoqk0duPrVuMrIMRY6gMcyFnc=", "properties": {"@spider": "usps_collection_boxes", "addr:city": "FREMONT", "addr:country": "US", "addr:full": "3010 E 23RD ST", "addr:postcode": "68025", "addr:state": "NE", "amenity": "post_box", "brand": "United States Postal Service", "brand:wikidata": "Q668687", "collection_times": "Mo-Sa 11:00", "name": "USPS COLLECTION BOX - BLUE BOX", "nsi_id": "unitedstatespostalservice-a77078", "operator": "United States Postal Service", "operator:short": "USPS", "operator:type": "public", "operator:wikidata": "Q668687", "ref": "6802500023"}, "type": "Feature"}
{"dataset_attributes": {"@spider": "usps_collection_boxes", "spider:collection_time": "2023-11-01T08:25:09.026919"}, "geometry": {"coordinates": [-96.501740055, 41.451441504], "type": "Point"}, "id": "T3Ft-Ew0tfUKiilFu-fcoCJ-zD0=", "properties": {"@spider": "usps_collection_boxes", "addr:city": "FREMONT", "addr:country": "US", "addr:full": "450 W 23RD ST", "addr:postcode": "68025", "addr:state": "NE", "amenity": "post_box", "brand": "United States Postal Service", "brand:wikidata": "Q668687", "collection_times": "Mo-Fr 10:00; Sa 09:00", "name": "USPS COLLECTION BOX - BLUE BOX", "nsi_id": "unitedstatespostalservice-a77078", "operator": "United States Postal Service", "operator:short": "USPS", "operator:type": "public", "operator:wikidata": "Q668687", "ref": "6802500024"}, "type": "Feature"}
{"dataset_attributes": {"@spider": "usps_collection_boxes", "spider:collection_time": "2023-11-01T08:25:09.026919"}, "geometry": {"coordinates": [-96.49705994, 41.434842435], "type": "Point"}, "id": "3FQ4CrMI5vjJZjZLL3xAaYLEmBE=", "properties": {"@spider": "usps_collection_boxes", "addr:city": "FREMONT", "addr:country": "US", "addr:full": "100 E 6TH ST", "addr:postcode": "68025", "addr:state": "NE", "amenity": "post_box", "brand": "United States Postal Service", "brand:wikidata": "Q668687", "collection_times": "Mo-Fr 11:00", "name": "USPS COLLECTION BOX - BLUE BOX", "nsi_id": "unitedstatespostalservice-a77078", "operator": "United States Postal Service", "operator:short": "USPS", "operator:type": "public", "operator:wikidata": "Q668687", "ref": "6802500032"}, "type": "Feature"}
{"dataset_attributes": {"@spider": "usps_collection_boxes", "spider:collection_time": "2023-11-01T08:25:09.026919"}, "geometry": {"coordinates": [-96.490805, 41.4363], "type": "Point"}, "id": "e6ydp7Ph4mfLFZT-rWgrvEWmtNk=", "properties": {"@spider": "usps_collection_boxes", "addr:city": "FREMONT", "addr:country": "US", "addr:full": "406 E 6TH ST", "addr:postcode": "68025", "addr:state": "NE", "amenity": "post_box", "brand": "United States Postal Service", "brand:wikidata": "Q668687", "collection_times": "Mo-Sa 15:45", "name": "USPS COLLECTION BOX - BLUE BOX", "note": "ON 12/24 AND 12/31, THIS BOX MAY BE COLLECTED AS EARLY AS 12 NOON.", "nsi_id": "unitedstatespostalservice-a77078", "operator": "United States Postal Service", "operator:short": "USPS", "operator:type": "public", "operator:wikidata": "Q668687", "ref": "6802500034"}, "type": "Feature"}
{"dataset_attributes": {"@spider": "usps_collection_boxes", "spider:collection_time": "2023-11-01T08:25:09.026919"}, "geometry": {"coordinates": [-96.49323044, 41.43463446], "type": "Point"}, "id": "okjYmXwiuEzJVIiW2EqK4szdXbo=", "properties": {"@spider": "usps_collection_boxes", "addr:city": "FREMONT", "addr:country": "US", "addr:full": "406 E 6TH ST", "addr:postcode": "68025", "addr:state": "NE", "amenity": "post_box", "brand": "United States Postal Service", "brand:wikidata": "Q668687", "collection_times": "Mo-Sa 15:45", "name": "USPS COLLECTION BOX - BLUE BOX", "note": "ON 12/24 AND 12/31, THIS BOX MAY BE COLLECTED AS EARLY AS 12 NOON.", "nsi_id": "unitedstatespostalservice-a77078", "operator": "United States Postal Service", "operator:short": "USPS", "operator:type": "public", "operator:wikidata": "Q668687", "ref": "6802500036"}, "type": "Feature"}
{"dataset_attributes": {"@spider": "usps_collection_boxes", "spider:collection_time": "2023-11-01T08:25:09.026919"}, "geometry": {"coordinates": [-96.49323044, 41.43463446], "type": "Point"}, "id": "SiKPXiEbFkCdQjJyyrSfl7Den_E=", "properties": {"@spider": "usps_collection_boxes", "addr:city": "FREMONT", "addr:country": "US", "addr:full": "406 E 6TH ST", "addr:postcode": "68025", "addr:state": "NE", "amenity": "post_box", "brand": "United States Postal Service", "brand:wikidata": "Q668687", "collection_times": "Mo-Sa 15:45", "name": "USPS COLLECTION BOX - BLUE BOX", "note": "ON 12/24 AND 12/31, THIS BOX MAY BE COLLECTED AS EARLY AS 12 NOON.", "nsi_id": "unitedstatespostalservice-a77078", "operator": "United States Postal Service", "operator:short": "USPS", "operator:type": "public", "operator:wikidata": "Q668687", "ref": "6802500037"}, "type": "Feature"}
{"dataset_attributes": {"@spider": "usps_collection_boxes", "spider:collection_time": "2023-11-01T08:25:09.026919"}, "geometry": {"coordinates": [-96.467574138, 41.451514498], "type": "Point"}, "id": "JxNxrMO-BY4Hrb79AxL8_hC3o-4=", "properties": {"@spider": "usps_collection_boxes", "addr:city": "FREMONT", "addr:country": "US", "addr:full": "2300 E 23RD ST", "addr:postcode": "68025", "addr:state": "NE", "amenity": "post_box", "brand": "United States Postal Service", "brand:wikidata": "Q668687", "collection_times": "Mo-Fr 11:00", "name": "USPS COLLECTION BOX - BLUE BOX", "nsi_id": "unitedstatespostalservice-a77078", "operator": "United States Postal Service", "operator:short": "USPS", "operator:type": "public", "operator:wikidata": "Q668687", "ref": "6802500038"}, "type": "Feature"}
{"dataset_attributes": {"@spider": "usps_collection_boxes", "spider:collection_time": "2023-11-01T08:25:09.026919"}, "geometry": {"coordinates": [-96.494103334, 41.434722113], "type": "Point"}, "id": "Td9hzHwq2CP4o-UbpeCQH9_CMDg=", "properties": {"@spider": "usps_collection_boxes", "addr:city": "FREMONT", "addr:country": "US", "addr:full": "348 E 6TH ST", "addr:postcode": "68025", "addr:state": "NE", "amenity": "post_box", "brand": "United States Postal Service", "brand:wikidata": "Q668687", "collection_times": "Mo-Fr 16:30; Sa 16:00", "name": "USPS COLLECTION BOX - PO LOBBY", "note": "ON 12/24 AND 12/31, THIS BOX MAY BE COLLECTED AS EARLY AS 12 NOON.", "nsi_id": "unitedstatespostalservice-a77078", "operator": "United States Postal Service", "operator:short": "USPS", "operator:type": "public", "operator:wikidata": "Q668687", "ref": "6802500047"}, "type": "Feature"}
{"dataset_attributes": {"@spider": "usps_collection_boxes", "spider:collection_time": "2023-11-01T08:25:09.026919"}, "geometry": {"coordinates": [-96.473782247, 41.434560428], "type": "Point"}, "id": "0gYfMrjBCMe01TOYEAJE8CAHn2Y=", "properties": {"@spider": "usps_collection_boxes", "addr:city": "FREMONT", "addr:country": "US", "addr:full": "1800 E MILITARY AVE", "addr:postcode": "68025", "addr:state": "NE", "amenity": "post_box", "brand": "United States Postal Service", "brand:wikidata": "Q668687", "collection_times": "Mo-Fr 10:00", "name": "USPS COLLECTION BOX - BLUE BOX", "nsi_id": "unitedstatespostalservice-a77078", "operator": "United States Postal Service", "operator:short": "USPS", "operator:type": "public", "operator:wikidata": "Q668687", "ref": "6802500049"}, "type": "Feature"}
{"dataset_attributes": {"@spider": "usps_collection_boxes", "spider:collection_time": "2023-11-01T08:25:09.026919"}, "geometry": {"coordinates": [-96.511653419, 41.451434453], "type": "Point"}, "id": "45vyUKjd7fu6_7DBY2ePrg-xLeI=", "properties": {"@spider": "usps_collection_boxes", "addr:city": "FREMONT", "addr:country": "US", "addr:full": "1156 W 23RD ST", "addr:postcode": "68025", "addr:state": "NE", "amenity": "post_box", "brand": "United States Postal Service", "brand:wikidata": "Q668687", "collection_times": "Mo-Sa 08:30", "name": "USPS COLLECTION BOX - BLUE BOX", "nsi_id": "unitedstatespostalservice-a77078", "operator": "United States Postal Service", "operator:short": "USPS", "operator:type": "public", "operator:wikidata": "Q668687", "ref": "6802500053"}, "type": "Feature"}
{"dataset_attributes": {"@spider": "usps_collection_boxes", "spider:collection_time": "2023-11-01T08:25:09.026919"}, "geometry": {"coordinates": [-96.487064277, 41.451555492], "type": "Point"}, "id": "7W2ZTcJjWgSsRJg-hIuU7_og-Sg=", "properties": {"@spider": "usps_collection_boxes", "addr:city": "FREMONT", "addr:country": "US", "addr:full": "840 E 23RD ST", "addr:postcode": "68025", "addr:state": "NE", "amenity": "post_box", "brand": "United States Postal Service", "brand:wikidata": "Q668687", "collection_times": "Mo-Fr 15:30; Sa 15:00", "name": "USPS COLLECTION BOX - PO LOBBY", "note": "ON 12/24 AND 12/31, THIS BOX MAY BE COLLECTED AS EARLY AS 12 NOON.", "nsi_id": "unitedstatespostalservice-a77078", "operator": "United States Postal Service", "operator:short": "USPS", "operator:type": "public", "operator:wikidata": "Q668687", "ref": "6802500055"}, "type": "Feature"}
{"dataset_attributes": {"@spider": "usps_collection_boxes", "spider:collection_time": "2023-11-01T08:25:09.026919"}, "geometry": {"coordinates": [-96.494103334, 41.434722113], "type": "Point"}, "id": "v88nOeHbs0F4lxfOMsHeayToWRE=", "properties": {"@spider": "usps_collection_boxes", "addr:city": "FREMONT", "addr:country": "US", "addr:full": "348 E 6TH ST", "addr:postcode": "68025", "addr:state": "NE", "amenity": "post_box", "brand": "United States Postal Service", "brand:wikidata": "Q668687", "collection_times": "Mo-Fr 16:30; Sa 12:00", "name": "USPS COLLECTION BOX - PO LOBBY", "note": "ON 12/24 AND 12/31, THIS BOX MAY BE COLLECTED AS EARLY AS 12 NOON.", "nsi_id": "unitedstatespostalservice-a77078", "operator": "United States Postal Service", "operator:short": "USPS", "operator:type": "public", "operator:wikidata": "Q668687", "ref": "6802500058"}, "type": "Feature"}
{"dataset_attributes": {"@spider": "usps_collection_boxes", "spider:collection_time": "2023-11-01T08:25:09.026919"}, "geometry": {"coordinates": [-96.4964680264, 41.4339509986], "type": "Point"}, "id": "excY95vJDCaK8zS5yBqZ1WxT7fg=", "properties": {"@spider": "usps_collection_boxes", "addr:city": "FREMONT", "addr:country": "US", "addr:full": "505 N MAIN ST", "addr:postcode": "68025", "addr:state": "NE", "amenity": "post_box", "brand": "United States Postal Service", "brand:wikidata": "Q668687", "collection_times": "Mo-Fr 11:00", "name": "USPS COLLECTION BOX - BLUE BOX", "nsi_id": "unitedstatespostalservice-a77078", "operator": "United States Postal Service", "operator:short": "USPS", "operator:type": "public", "operator:wikidata": "Q668687", "ref": "6802500059"}, "type": "Feature"}
{"dataset_attributes": {"@spider": "usps_collection_boxes", "spider:collection_time": "2023-11-01T08:25:09.026919"}, "geometry": {"coordinates": [-96.239668465, 41.145815443], "type": "Point"}, "id": "rFxpCHZ3cAHo3U6_2J0iE3ukNq4=", "properties": {"@spider": "usps_collection_boxes", "addr:city": "GRETNA", "addr:country": "US", "addr:full": "916 VILLAGE SQ", "addr:postcode": "68028", "addr:state": "NE", "amenity": "post_box", "brand": "United States Postal Service", "brand:wikidata": "Q668687", "collection_times": "Mo-Sa 11:30", "name": "USPS COLLECTION BOX - BLUE BOX", "nsi_id": "unitedstatespostalservice-a77078", "operator": "United States Postal Service", "operator:short": "USPS", "operator:type": "public", "operator:wikidata": "Q668687", "ref": "6802800003"}, "type": "Feature"}
{"dataset_attributes": {"@spider": "usps_collection_boxes", "spider:collection_time": "2023-11-01T08:25:09.026919"}, "geometry": {"coordinates": [-96.253459458, 41.091579472], "type": "Point"}, "id": "pbpTVNffL2Vq1ZK4x5QC7aCquyc=", "properties": {"@spider": "usps_collection_boxes", "addr:city": "GRETNA", "addr:country": "US", "addr:full": "15010 S HIGHWAY 31", "addr:postcode": "68028", "addr:state": "NE", "amenity": "post_box", "brand": "United States Postal Service", "brand:wikidata": "Q668687", "collection_times": "Mo-Sa 10:30", "name": "USPS COLLECTION BOX - BLUE BOX", "nsi_id": "unitedstatespostalservice-a77078", "operator": "United States Postal Service", "operator:short": "USPS", "operator:type": "public", "operator:wikidata": "Q668687", "ref": "6802800004"}, "type": "Feature"}
{"dataset_attributes": {"@spider": "usps_collection_boxes", "spider:collection_time": "2023-11-01T08:25:09.026919"}, "geometry": {"coordinates": [-96.238179, 41.1456414533], "type": "Point"}, "id": "14pFfLAKKErUEHeOY-MFDj1JUTo=", "properties": {"@spider": "usps_collection_boxes", "addr:city": "GRETNA", "addr:country": "US", "addr:full": "104 E ENTERPRISE DR", "addr:postcode": "68028", "addr:state": "NE", "amenity": "post_box", "brand": "United States Postal Service", "brand:wikidata": "Q668687", "collection_times": "Mo-Fr 16:30; Sa 16:40", "name": "USPS COLLECTION BOX - BLUE BOX", "note": "ON 12/24 AND 12/31, THIS BOX MAY BE COLLECTED AS EARLY AS 12 NOON.", "nsi_id": "unitedstatespostalservice-a77078", "operator": "United States Postal Service", "operator:short": "USPS", "operator:type": "public", "operator:wikidata": "Q668687", "ref": "6802800005"}, "type": "Feature"}
{"dataset_attributes": {"@spider": "usps_collection_boxes", "spider:collection_time": "2023-11-01T08:25:09.026919"}, "geometry": {"coordinates": [-96.2381835, 41.145632453], "type": "Point"}, "id": "3NHe9lco99XxrjZX_10x53jF2sI=", "properties": {"@spider": "usps_collection_boxes", "addr:city": "GRETNA", "addr:country": "US", "addr:full": "104 E ENTERPRISE DR", "addr:postcode": "68028", "addr:state": "NE", "amenity": "post_box", "brand": "United States Postal Service", "brand:wikidata": "Q668687", "collection_times": "Mo-Fr 16:30; Sa 11:30", "name": "USPS COLLECTION BOX - PO LOBBY", "note": "ON 12/24 AND 12/31, THIS BOX MAY BE COLLECTED AS EARLY AS 12 NOON.", "nsi_id": "unitedstatespostalservice-a77078", "operator": "United States Postal Service", "operator:short": "USPS", "operator:type": "public", "operator:wikidata": "Q668687", "ref": "6802800011"}, "type": "Feature"}
{"dataset_attributes": {"@spider": "usps_collection_boxes", "spider:collection_time": "2023-11-01T08:25:09.026919"}, "geometry": {"coordinates": [-96.2381835, 41.145632453], "type": "Point"}, "id": "gV_cuBLG_JHK26ycpvGIS9tcVUw=", "properties": {"@spider": "usps_collection_boxes", "addr:city": "GRETNA", "addr:country": "US", "addr:full": "104 E ENTERPRISE DR", "addr:postcode": "68028", "addr:state": "NE", "amenity": "post_box", "brand": "United States Postal Service", "brand:wikidata": "Q668687", "collection_times": "Mo-Fr 16:30; Sa 11:30", "name": "USPS COLLECTION BOX - PO LOBBY", "note": "ON 12/24 AND 12/31, THIS BOX MAY BE COLLECTED AS EARLY AS 12 NOON.", "nsi_id": "unitedstatespostalservice-a77078", "operator": "United States Postal Service", "operator:short": "USPS", "operator:type": "public", "operator:wikidata": "Q668687", "ref": "6802800014"}, "type": "Feature"}
{"dataset_attributes": {"@spider": "usps_collection_boxes", "spider:collection_time": "2023-11-01T08:25:09.026919"}, "geometry": {"coordinates": [-96.238179, 41.1456414533], "type": "Point"}, "id": "1enrFBlcFsAlYuvggYDo0GddZ_c=", "properties": {"@spider": "usps_collection_boxes", "addr:city": "GRETNA", "addr:country": "US", "addr:full": "104 E ENTERPRISE DR", "addr:postcode": "68028", "addr:state": "NE", "amenity": "post_box", "brand": "United States Postal Service", "brand:wikidata": "Q668687", "collection_times": "Mo-Fr 16:30; Sa 16:40", "name": "USPS COLLECTION BOX - BLUE BOX", "note": "ON 12/24 AND 12/31, THIS BOX MAY BE COLLECTED AS EARLY AS 12 NOON.", "nsi_id": "unitedstatespostalservice-a77078", "operator": "United States Postal Service", "operator:short": "USPS", "operator:type": "public", "operator:wikidata": "Q668687", "ref": "6802800017"}, "type": "Feature"}
{"dataset_attributes": {"@spider": "usps_collection_boxes", "spider:collection_time": "2023-11-01T08:25:09.026919"}, "geometry": {"coordinates": [-96.215558013, 41.6732400012], "type": "Point"}, "id": "twcVHFU1DYyjFWmfdMdUAiV3ubE=", "properties": {"@spider": "usps_collection_boxes", "addr:city": "HERMAN", "addr:country": "US", "addr:full": "108 5TH ST", "addr:postcode": "68029", "addr:state": "NE", "amenity": "post_box", "brand": "United States Postal Service", "brand:wikidata": "Q668687", "collection_times": "Mo-Sa 16:50", "name": "USPS COLLECTION BOX - BLUE BOX", "note": "ON 12/24 AND 12/31, THIS BOX MAY BE COLLECTED AS EARLY AS 12 NOON.", "nsi_id": "unitedstatespostalservice-a77078", "operator": "United States Postal Service", "operator:short": "USPS", "operator:type": "public", "operator:wikidata": "Q668687", "ref": "6802900001"}, "type": "Feature"}
{"dataset_attributes": {"@spider": "usps_collection_boxes", "spider:collection_time": "2023-11-01T08:25:09.026919"}, "geometry": {"coordinates": [-96.215513782, 41.673104024], "type": "Point"}, "id": "17vY6V0ID7MCNFlGvvQsF_QC7DY=", "properties": {"@spider": "usps_collection_boxes", "addr:city": "HERMAN", "addr:country": "US", "addr:full": "108 5TH ST", "addr:postcode": "68029", "addr:state": "NE", "amenity": "post_box", "brand": "United States Postal Service", "brand:wikidata": "Q668687", "collection_times": "Mo-Fr 12:00; Sa 10:00", "name": "USPS COLLECTION BOX - PO LOBBY", "nsi_id": "unitedstatespostalservice-a77078", "operator": "United States Postal Service", "operator:short": "USPS", "operator:type": "public", "operator:wikidata": "Q668687", "ref": "6802900002"}, "type": "Feature"}
{"dataset_attributes": {"@spider": "usps_collection_boxes", "spider:collection_time": "2023-11-01T08:25:09.026919"}, "geometry": {"coordinates": [-96.215513782, 41.673104024], "type": "Point"}, "id": "oBeNdgOKOuqb8id3VbfjIogKM0o=", "properties": {"@spider": "usps_collection_boxes", "addr:city": "HERMAN", "addr:country": "US", "addr:full": "108 W 5TH ST", "addr:postcode": "68029", "addr:state": "NE", "amenity": "post_box", "brand": "United States Postal Service", "brand:wikidata": "Q668687", "collection_times": "Mo-Fr 12:00; Sa 10:00", "name": "USPS COLLECTION BOX - PO LOBBY", "nsi_id": "unitedstatespostalservice-a77078", "operator": "United States Postal Service", "operator:short": "USPS", "operator:type": "public", "operator:wikidata": "Q668687", "ref": "6802900004"}, "type": "Feature"}
{"dataset_attributes": {"@spider": "usps_collection_boxes", "spider:collection_time": "2023-11-01T08:25:09.026919"}, "geometry": {"coordinates": [-96.489702435, 42.321431132], "type": "Point"}, "id": "1Gn6KiAfTJu24QLAGDcwZPZUpkE=", "properties": {"@spider": "usps_collection_boxes", "addr:city": "HOMER", "addr:country": "US", "addr:full": "113 JOHN ST", "addr:postcode": "68030", "addr:state": "NE", "amenity": "post_box", "brand": "United States Postal Service", "brand:wikidata": "Q668687", "collection_times": "Mo-Sa 15:20", "name": "USPS COLLECTION BOX - BLUE BOX", "note": "ON 12/24 AND 12/31, THIS BOX MAY BE COLLECTED AS EARLY AS 12 NOON.", "nsi_id": "unitedstatespostalservice-a77078", "operator": "United States Postal Service", "operator:short": "USPS", "operator:type": "public", "operator:wikidata": "Q668687", "ref": "6803000001"}, "type": "Feature"}
{"dataset_attributes": {"@spider": "usps_collection_boxes", "spider:collection_time": "2023-11-01T08:25:09.026919"}, "geometry": {"coordinates": [-96.489702435, 42.321431132], "type": "Point"}, "id": "QKtf_el28CwxwvRFFn01BT9Fl7A=", "properties": {"@spider": "usps_collection_boxes", "addr:city": "HOMER", "addr:country": "US", "addr:full": "113 JOHN ST", "addr:postcode": "68030", "addr:state": "NE", "amenity": "post_box", "brand": "United States Postal Service", "brand:wikidata": "Q668687", "collection_times": "Mo-Fr 12:30; Sa 10:30", "name": "USPS COLLECTION BOX - PO LOBBY", "note": "ON 12/24 AND 12/31, THIS BOX MAY BE COLLECTED AS EARLY AS 12 NOON.", "nsi_id": "unitedstatespostalservice-a77078", "operator": "United States Postal Service", "operator:short": "USPS", "operator:type": "public", "operator:wikidata": "Q668687", "ref": "6803000002"}, "type": "Feature"}
{"dataset_attributes": {"@spider": "usps_collection_boxes", "spider:collection_time": "2023-11-01T08:25:09.026919"}, "geometry": {"coordinates": [-96.489702435, 42.321431132], "type": "Point"}, "id": "6vOhyrbWHuS7OZfv4YLewsvhVXk=", "properties": {"@spider": "usps_collection_boxes", "addr:city": "HOMER", "addr:country": "US", "addr:full": "113 JOHN ST", "addr:postcode": "68030", "addr:state": "NE", "amenity": "post_box", "brand": "United States Postal Service", "brand:wikidata": "Q668687", "collection_times": "Mo-Fr 12:30; Sa 10:30", "name": "USPS COLLECTION BOX - PO LOBBY", "note": "ON 12/24 AND 12/31, THIS BOX MAY BE COLLECTED AS EARLY AS 12 NOON.", "nsi_id": "unitedstatespostalservice-a77078", "operator": "United States Postal Service", "operator:short": "USPS", "operator:type": "public", "operator:wikidata": "Q668687", "ref": "6803000005"}, "type": "Feature"}
{"dataset_attributes": {"@spider": "usps_collection_boxes", "spider:collection_time": "2023-11-01T08:25:09.026919"}, "geometry": {"coordinates": [-96.547768761, 41.612327581], "type": "Point"}, "id": "lX4Bhmc91gDgu-Ph1npTSTefSBI=", "properties": {"@spider": "usps_collection_boxes", "addr:city": "HOOPER", "addr:country": "US", "addr:full": "211 N MAIN ST", "addr:postcode": "68031", "addr:state": "NE", "amenity": "post_box", "brand": "United States Postal Service", "brand:wikidata": "Q668687", "collection_times": "Mo-Sa 16:00", "name": "USPS COLLECTION BOX - BLUE BOX", "note": "ON 12/24 AND 12/31, THIS BOX MAY BE COLLECTED AS EARLY AS 12 NOON.", "nsi_id": "unitedstatespostalservice-a77078", "operator": "United States Postal Service", "operator:short": "USPS", "operator:type": "public", "operator:wikidata": "Q668687", "ref": "6803100001"}, "type": "Feature"}
{"dataset_attributes": {"@spider": "usps_collection_boxes", "spider:collection_time": "2023-11-01T08:25:09.026919"}, "geometry": {"coordinates": [-96.547768761, 41.612327581], "type": "Point"}, "id": "tbXHa9QmiZO7rNw-OcxxV5hTBiU=", "properties": {"@spider": "usps_collection_boxes", "addr:city": "HOOPER", "addr:country": "US", "addr:full": "211 N MAIN ST", "addr:postcode": "68031", "addr:state": "NE", "amenity": "post_box", "brand": "United States Postal Service", "brand:wikidata": "Q668687", "collection_times": "Mo-Fr 16:00; Sa 10:00", "name": "USPS COLLECTION BOX - PO LOBBY", "note": "ON 12/24 AND 12/31, THIS BOX MAY BE COLLECTED AS EARLY AS 12 NOON.", "nsi_id": "unitedstatespostalservice-a77078", "operator": "United States Postal Service", "operator:short": "USPS", "operator:type": "public", "operator:wikidata": "Q668687", "ref": "6803100002"}, "type": "Feature"}
{"dataset_attributes": {"@spider": "usps_collection_boxes", "spider:collection_time": "2023-11-01T08:25:09.026919"}, "geometry": {"coordinates": [-96.547768761, 41.612327581], "type": "Point"}, "id": "kr0w3uT725-dI8JQrK_n9FdI0OM=", "properties": {"@spider": "usps_collection_boxes", "addr:city": "HOOPER", "addr:country": "US", "addr:full": "211 N MAIN ST", "addr:postcode": "68031", "addr:state": "NE", "amenity": "post_box", "brand": "United States Postal Service", "brand:wikidata": "Q668687", "collection_times": "Mo-Fr 16:00; Sa 10:00", "name": "USPS COLLECTION BOX - PO LOBBY", "note": "ON 12/24 AND 12/31, THIS BOX MAY BE COLLECTED AS EARLY AS 12 NOON.", "nsi_id": "unitedstatespostalservice-a77078", "operator": "United States Postal Service", "operator:short": "USPS", "operator:type": "public", "operator:wikidata": "Q668687", "ref": "6803100005"}, "type": "Feature"}
{"dataset_attributes": {"@spider": "usps_collection_boxes", "spider:collection_time": "2023-11-01T08:25:09.026919"}, "geometry": {"coordinates": [-96.547800261, 41.608017], "type": "Point"}, "id": "J6WYI81V4-zO4N9BfgmUxr_OFgU=", "properties": {"@spider": "usps_collection_boxes", "addr:city": "HOOPER", "addr:country": "US", "addr:full": "211 MAIN ST", "addr:postcode": "68031", "addr:state": "NE", "amenity": "post_box", "brand": "United States Postal Service", "brand:wikidata": "Q668687", "collection_times": "Mo-Fr 16:00; Sa 10:00", "name": "USPS COLLECTION BOX - PO LOBBY", "note": "ON 12/24 AND 12/31, THIS BOX MAY BE COLLECTED AS EARLY AS 12 NOON.", "nsi_id": "unitedstatespostalservice-a77078", "operator": "United States Postal Service", "operator:short": "USPS", "operator:type": "public", "operator:wikidata": "Q668687", "ref": "6803100006"}, "type": "Feature"}
{"dataset_attributes": {"@spider": "usps_collection_boxes", "spider:collection_time": "2023-11-01T08:25:09.026919"}, "geometry": {"coordinates": [-96.540527009, 41.158377723], "type": "Point"}, "id": "mjNMtSw1IMGytNpO4loUPhEIYS0=", "properties": {"@spider": "usps_collection_boxes", "addr:city": "ITHACA", "addr:country": "US", "addr:full": "402 MAIN ST", "addr:postcode": "68033", "addr:state": "NE", "amenity": "post_box", "brand": "United States Postal Service", "brand:wikidata": "Q668687", "collection_times": "Mo-Fr 16:30; Sa 12:00", "name": "USPS COLLECTION BOX - PO LOBBY", "note": "ON 12/24 AND 12/31, THIS BOX MAY BE COLLECTED AS EARLY AS 12 NOON.", "nsi_id": "unitedstatespostalservice-a77078", "operator": "United States Postal Service", "operator:short": "USPS", "operator:type": "public", "operator:wikidata": "Q668687", "ref": "6803300002"}, "type": "Feature"}
{"dataset_attributes": {"@spider": "usps_collection_boxes", "spider:collection_time": "2023-11-01T08:25:09.026919"}, "geometry": {"coordinates": [-96.540527009, 41.158377723], "type": "Point"}, "id": "jRQCWg86skMoifCRsjqXpAhgDbc=", "properties": {"@spider": "usps_collection_boxes", "addr:city": "ITHACA", "addr:country": "US", "addr:full": "402 MAIN ST", "addr:postcode": "68033", "addr:state": "NE", "amenity": "post_box", "brand": "United States Postal Service", "brand:wikidata": "Q668687", "collection_times": "Mo-Sa 16:35", "name": "USPS COLLECTION BOX - BLUE BOX", "note": "ON 12/24 AND 12/31, THIS BOX MAY BE COLLECTED AS EARLY AS 12 NOON.", "nsi_id": "unitedstatespostalservice-a77078", "operator": "United States Postal Service", "operator:short": "USPS", "operator:type": "public", "operator:wikidata": "Q668687", "ref": "6803300003"}, "type": "Feature"}
{"dataset_attributes": {"@spider": "usps_collection_boxes", "spider:collection_time": "2023-11-01T08:25:09.026919"}, "geometry": {"coordinates": [-96.540527009, 41.158377723], "type": "Point"}, "id": "ka7IYWwx8kO00uI6ihiyGYQ0pvw=", "properties": {"@spider": "usps_collection_boxes", "addr:city": "ITHACA", "addr:country": "US", "addr:full": "402 MAIN ST", "addr:postcode": "68033", "addr:state": "NE", "amenity": "post_box", "brand": "United States Postal Service", "brand:wikidata": "Q668687", "collection_times": "Mo-Fr 16:30; Sa 12:00", "name": "USPS COLLECTION BOX - PO LOBBY", "note": "ON 12/24 AND 12/31, THIS BOX MAY BE COLLECTED AS EARLY AS 12 NOON.", "nsi_id": "unitedstatespostalservice-a77078", "operator": "United States Postal Service", "operator:short": "USPS", "operator:type": "public", "operator:wikidata": "Q668687", "ref": "6803300005"}, "type": "Feature"}
{"dataset_attributes": {"@spider": "usps_collection_boxes", "spider:collection_time": "2023-11-01T08:25:09.026919"}, "geometry": {"coordinates": [-96.201698666, 41.473179419], "type": "Point"}, "id": "JrJGcEv1UnLANcc0-WAShgw_uMA=", "properties": {"@spider": "usps_collection_boxes", "addr:city": "KENNARD", "addr:country": "US", "addr:full": "204 MAIN ST", "addr:postcode": "68034", "addr:state": "NE", "amenity": "post_box", "brand": "United States Postal Service", "brand:wikidata": "Q668687", "collection_times": "Mo-Fr 16:00; Sa 14:50", "name": "USPS COLLECTION BOX - BLUE BOX", "note": "ON 12/24 AND 12/31, THIS BOX MAY BE COLLECTED AS EARLY AS 12 NOON.", "nsi_id": "unitedstatespostalservice-a77078", "operator": "United States Postal Service", "operator:short": "USPS", "operator:type": "public", "operator:wikidata": "Q668687", "ref": "6803400001"}, "type": "Feature"}
{"dataset_attributes": {"@spider": "usps_collection_boxes", "spider:collection_time": "2023-11-01T08:25:09.026919"}, "geometry": {"coordinates": [-96.201698666, 41.473179419], "type": "Point"}, "id": "Jl8BIgHQ6MIPQ5N6BXeqArduRe8=", "properties": {"@spider": "usps_collection_boxes", "addr:city": "KENNARD", "addr:country": "US", "addr:full": "204 MAIN ST", "addr:postcode": "68034", "addr:state": "NE", "amenity": "post_box", "brand": "United States Postal Service", "brand:wikidata": "Q668687", "collection_times": "Mo-Fr 16:00; Sa 14:50", "name": "USPS COLLECTION BOX - PO LOBBY", "note": "ON 12/24 AND 12/31, THIS BOX MAY BE COLLECTED AS EARLY AS 12 NOON.", "nsi_id": "unitedstatespostalservice-a77078", "operator": "United States Postal Service", "operator:short": "USPS", "operator:type": "public", "operator:wikidata": "Q668687", "ref": "6803400002"}, "type": "Feature"}
{"dataset_attributes": {"@spider": "usps_collection_boxes", "spider:collection_time": "2023-11-01T08:25:09.026919"}, "geometry": {"coordinates": [-96.201698666, 41.473179419], "type": "Point"}, "id": "weKm6zF7SsCz5dH1QoXqITfyL2s=", "properties": {"@spider": "usps_collection_boxes", "addr:city": "KENNARD", "addr:country": "US", "addr:full": "204 MAIN ST", "addr:postcode": "68034", "addr:state": "NE", "amenity": "post_box", "brand": "United States Postal Service", "brand:wikidata": "Q668687", "collection_times": "Mo-Fr 16:00; Sa 14:50", "name": "USPS COLLECTION BOX - PO LOBBY", "note": "ON 12/24 AND 12/31, THIS BOX MAY BE COLLECTED AS EARLY AS 12 NOON.", "nsi_id": "unitedstatespostalservice-a77078", "operator": "United States Postal Service", "operator:short": "USPS", "operator:type": "public", "operator:wikidata": "Q668687", "ref": "6803400005"}, "type": "Feature"}
{"dataset_attributes": {"@spider": "usps_collection_boxes", "spider:collection_time": "2023-11-01T08:25:09.026919"}, "geometry": {"coordinates": [-96.9323805, 41.413535488], "type": "Point"}, "id": "ynTimItzQrgTIlJpdr8wfLz7Eew=", "properties": {"@spider": "usps_collection_boxes", "addr:city": "LINWOOD", "addr:country": "US", "addr:full": "215 2ND ST", "addr:postcode": "68036", "addr:state": "NE", "amenity": "post_box", "brand": "United States Postal Service", "brand:wikidata": "Q668687", "collection_times": "Mo-Sa 12:00", "name": "USPS COLLECTION BOX - BLUE BOX", "nsi_id": "unitedstatespostalservice-a77078", "operator": "United States Postal Service", "operator:short": "USPS", "operator:type": "public", "operator:wikidata": "Q668687", "ref": "6803600000"}, "type": "Feature"}
{"dataset_attributes": {"@spider": "usps_collection_boxes", "spider:collection_time": "2023-11-01T08:25:09.026919"}, "geometry": {"coordinates": [-96.9323805, 41.413535488], "type": "Point"}, "id": "XQu62ceCiQ_sid0Wr-F7DPW_Pwc=", "properties": {"@spider": "usps_collection_boxes", "addr:city": "LINWOOD", "addr:country": "US", "addr:full": "215 2ND ST", "addr:postcode": "68036", "addr:state": "NE", "amenity": "post_box", "brand": "United States Postal Service", "brand:wikidata": "Q668687", "collection_times": "Mo-Sa 12:00", "name": "USPS COLLECTION BOX - PO LOBBY", "nsi_id": "unitedstatespostalservice-a77078", "operator": "United States Postal Service", "operator:short": "USPS", "operator:type": "public", "operator:wikidata": "Q668687", "ref": "6803600001"}, "type": "Feature"}
{"dataset_attributes": {"@spider": "usps_collection_boxes", "spider:collection_time": "2023-11-01T08:25:09.026919"}, "geometry": {"coordinates": [-96.163177644, 41.000688922], "type": "Point"}, "id": "z3uwTrui0eJEtcxQFeXIttD0org=", "properties": {"@spider": "usps_collection_boxes", "addr:city": "LOUISVILLE", "addr:country": "US", "addr:full": "202 CHERRY ST", "addr:postcode": "68037", "addr:state": "NE", "amenity": "post_box", "brand": "United States Postal Service", "brand:wikidata": "Q668687", "collection_times": "Mo-Fr 15:30; Sa 15:35", "name": "USPS COLLECTION BOX - BLUE BOX", "note": "ON 12/24 AND 12/31, THIS BOX MAY BE COLLECTED AS EARLY AS 12 NOON.", "nsi_id": "unitedstatespostalservice-a77078", "operator": "United States Postal Service", "operator:short": "USPS", "operator:type": "public", "operator:wikidata": "Q668687", "ref": "6803700001"}, "type": "Feature"}
{"dataset_attributes": {"@spider": "usps_collection_boxes", "spider:collection_time": "2023-11-01T08:25:09.026919"}, "geometry": {"coordinates": [-96.163177644, 41.000688922], "type": "Point"}, "id": "jlhFozdaaNT2faRJ78RaOLpTnnk=", "properties": {"@spider": "usps_collection_boxes", "addr:city": "LOUISVILLE", "addr:country": "US", "addr:full": "202 CHERRY ST", "addr:postcode": "68037", "addr:state": "NE", "amenity": "post_box", "brand": "United States Postal Service", "brand:wikidata": "Q668687", "collection_times": "Mo-Fr 15:15; Sa 10:15", "name": "USPS COLLECTION BOX - PO LOBBY", "note": "ON 12/24 AND 12/31, THIS BOX MAY BE COLLECTED AS EARLY AS 12 NOON.", "nsi_id": "unitedstatespostalservice-a77078", "operator": "United States Postal Service", "operator:short": "USPS", "operator:type": "public", "operator:wikidata": "Q668687", "ref": "6803700002"}, "type": "Feature"}
{"dataset_attributes": {"@spider": "usps_collection_boxes", "spider:collection_time": "2023-11-01T08:25:09.026919"}, "geometry": {"coordinates": [-96.163177644, 41.000688922], "type": "Point"}, "id": "7TUaAuHeWpaywGKDjKDQ1AJpS70=", "properties": {"@spider": "usps_collection_boxes", "addr:city": "LOUISVILLE", "addr:country": "US", "addr:full": "202 CHERRY ST", "addr:postcode": "68037", "addr:state": "NE", "amenity": "post_box", "brand": "United States Postal Service", "brand:wikidata": "Q668687", "collection_times": "Mo-Fr 15:15; Sa 10:15", "name": "USPS COLLECTION BOX - PO LOBBY", "note": "ON 12/24 AND 12/31, THIS BOX MAY BE COLLECTED AS EARLY AS 12 NOON.", "nsi_id": "unitedstatespostalservice-a77078", "operator": "United States Postal Service", "operator:short": "USPS", "operator:type": "public", "operator:wikidata": "Q668687", "ref": "6803700004"}, "type": "Feature"}
{"dataset_attributes": {"@spider": "usps_collection_boxes", "spider:collection_time": "2023-11-01T08:25:09.026919"}, "geometry": {"coordinates": [-96.477352453, 41.93709227], "type": "Point"}, "id": "iS3tCYbUMS6lPi9IJmvnrLhZrso=", "properties": {"@spider": "usps_collection_boxes", "addr:city": "LYONS", "addr:country": "US", "addr:full": "145 S 2ND ST", "addr:postcode": "68038", "addr:state": "NE", "amenity": "post_box", "brand": "United States Postal Service", "brand:wikidata": "Q668687", "collection_times": "Mo-Fr 16:15; Sa 16:20", "name": "USPS COLLECTION BOX - BLUE BOX", "note": "ON 12/24 AND 12/31, THIS BOX MAY BE COLLECTED AS EARLY AS 12 NOON.", "nsi_id": "unitedstatespostalservice-a77078", "operator": "United States Postal Service", "operator:short": "USPS", "operator:type": "public", "operator:wikidata": "Q668687", "ref": "6803800001"}, "type": "Feature"}
{"dataset_attributes": {"@spider": "usps_collection_boxes", "spider:collection_time": "2023-11-01T08:25:09.026919"}, "geometry": {"coordinates": [-96.477831282, 41.937466178], "type": "Point"}, "id": "6yhkDkypQEqzod6cwFn4OHypoqQ=", "properties": {"@spider": "usps_collection_boxes", "addr:city": "LYONS", "addr:country": "US", "addr:full": "165 MAIN ST", "addr:postcode": "68038", "addr:state": "NE", "amenity": "post_box", "brand": "United States Postal Service", "brand:wikidata": "Q668687", "collection_times": "Mo-Fr 16:05; Sa 09:30", "name": "USPS COLLECTION BOX - PO LOBBY", "note": "ON 12/24 AND 12/31, THIS BOX MAY BE COLLECTED AS EARLY AS 12 NOON.", "nsi_id": "unitedstatespostalservice-a77078", "operator": "United States Postal Service", "operator:short": "USPS", "operator:type": "public", "operator:wikidata": "Q668687", "ref": "6803800002"}, "type": "Feature"}
{"dataset_attributes": {"@spider": "usps_collection_boxes", "spider:collection_time": "2023-11-01T08:25:09.026919"}, "geometry": {"coordinates": [-96.477352453, 41.93709227], "type": "Point"}, "id": "BDO_fT6uRS4Fzwcb-wPjhw326Xo=", "properties": {"@spider": "usps_collection_boxes", "addr:city": "LYONS", "addr:country": "US", "addr:full": "145 S 2ND ST", "addr:postcode": "68038", "addr:state": "NE", "amenity": "post_box", "brand": "United States Postal Service", "brand:wikidata": "Q668687", "collection_times": "Mo-Fr 16:05; Sa 09:30", "name": "USPS COLLECTION BOX - PO LOBBY", "note": "ON 12/24 AND 12/31, THIS BOX MAY BE COLLECTED AS EARLY AS 12 NOON.", "nsi_id": "unitedstatespostalservice-a77078", "operator": "United States Postal Service", "operator:short": "USPS", "operator:type": "public", "operator:wikidata": "Q668687", "ref": "6803800005"}, "type": "Feature"}
{"dataset_attributes": {"@spider": "usps_collection_boxes", "spider:collection_time": "2023-11-01T08:25:09.026919"}, "geometry": {"coordinates": [-96.356417857, 42.115584963], "type": "Point"}, "id": "u4YwEbGOe8DlwI68xB1iKQFWmTQ=", "properties": {"@spider": "usps_collection_boxes", "addr:city": "MACY", "addr:country": "US", "addr:full": "665 SUNRISE DR", "addr:postcode": "68039", "addr:state": "NE", "amenity": "post_box", "brand": "United States Postal Service", "brand:wikidata": "Q668687", "collection_times": "Mo-Fr 12:00; Sa 10:00", "name": "USPS COLLECTION BOX - PO LOBBY", "nsi_id": "unitedstatespostalservice-a77078", "operator": "United States Postal Service", "operator:short": "USPS", "operator:type": "public", "operator:wikidata": "Q668687", "ref": "6803900002"}, "type": "Feature"}
{"dataset_attributes": {"@spider": "usps_collection_boxes", "spider:collection_time": "2023-11-01T08:25:09.026919"}, "geometry": {"coordinates": [-96.356417857, 42.115584963], "type": "Point"}, "id": "IX87_7PT_JQl1vgRQjRrF4Jg0Z4=", "properties": {"@spider": "usps_collection_boxes", "addr:city": "MACY", "addr:country": "US", "addr:full": "665 SUNRISE DR", "addr:postcode": "68039", "addr:state": "NE", "amenity": "post_box", "brand": "United States Postal Service", "brand:wikidata": "Q668687", "collection_times": "Mo-Fr 12:00; Sa 10:00", "name": "USPS COLLECTION BOX - PO LOBBY", "nsi_id": "unitedstatespostalservice-a77078", "operator": "United States Postal Service", "operator:short": "USPS", "operator:type": "public", "operator:wikidata": "Q668687", "ref": "6803900004"}, "type": "Feature"}
{"dataset_attributes": {"@spider": "usps_collection_boxes", "spider:collection_time": "2023-11-01T08:25:09.026919"}, "geometry": {"coordinates": [-96.356417857, 42.115584963], "type": "Point"}, "id": "lhJeZrNJuuMDN3rzuimsBDmojP4=", "properties": {"@spider": "usps_collection_boxes", "addr:city": "MACY", "addr:country": "US", "addr:full": "665 SUNRISE DR", "addr:postcode": "68039", "addr:state": "NE", "amenity": "post_box", "brand": "United States Postal Service", "brand:wikidata": "Q668687", "collection_times": "Mo-Fr 12:00; Sa 10:00", "name": "USPS COLLECTION BOX - PO LOBBY", "nsi_id": "unitedstatespostalservice-a77078", "operator": "United States Postal Service", "operator:short": "USPS", "operator:type": "public", "operator:wikidata": "Q668687", "ref": "6803900005"}, "type": "Feature"}
{"dataset_attributes": {"@spider": "usps_collection_boxes", "spider:collection_time": "2023-11-01T08:25:09.026919"}, "geometry": {"coordinates": [-96.722103979, 41.265755665], "type": "Point"}, "id": "-FHj7sXsrdnzWp2oY6SHW_6kbeE=", "properties": {"@spider": "usps_collection_boxes", "addr:city": "MALMO", "addr:country": "US", "addr:full": "158 CENTER AVE", "addr:postcode": "68040", "addr:state": "NE", "amenity": "post_box", "brand": "United States Postal Service", "brand:wikidata": "Q668687", "collection_times": "Mo-Fr 13:20; Sa 13:10", "name": "USPS COLLECTION BOX - BLUE BOX", "note": "ON 12/24 AND 12/31, THIS BOX MAY BE COLLECTED AS EARLY AS 12 NOON.", "nsi_id": "unitedstatespostalservice-a77078", "operator": "United States Postal Service", "operator:short": "USPS", "operator:type": "public", "operator:wikidata": "Q668687", "ref": "6804000001"}, "type": "Feature"}
{"dataset_attributes": {"@spider": "usps_collection_boxes", "spider:collection_time": "2023-11-01T08:25:09.026919"}, "geometry": {"coordinates": [-96.722103979, 41.265755665], "type": "Point"}, "id": "rK-lFbqj7eHMQhJuk1qXwpTYpxY=", "properties": {"@spider": "usps_collection_boxes", "addr:city": "MALMO", "addr:country": "US", "addr:full": "158 CENTER AVE", "addr:postcode": "68040", "addr:state": "NE", "amenity": "post_box", "brand": "United States Postal Service", "brand:wikidata": "Q668687", "collection_times": "Mo-Fr 13:20; Sa 13:10", "name": "USPS COLLECTION BOX - PO LOBBY", "note": "ON 12/24 AND 12/31, THIS BOX MAY BE COLLECTED AS EARLY AS 12 NOON.", "nsi_id": "unitedstatespostalservice-a77078", "operator": "United States Postal Service", "operator:short": "USPS", "operator:type": "public", "operator:wikidata": "Q668687", "ref": "6804000002"}, "type": "Feature"}
{"dataset_attributes": {"@spider": "usps_collection_boxes", "spider:collection_time": "2023-11-01T08:25:09.026919"}, "geometry": {"coordinates": [-96.722103979, 41.265755665], "type": "Point"}, "id": "F9dR6wJM_VyfRTgM8lRAvZtUCXo=", "properties": {"@spider": "usps_collection_boxes", "addr:city": "MALMO", "addr:country": "US", "addr:full": "158 CENTER AVE", "addr:postcode": "68040", "addr:state": "NE", "amenity": "post_box", "brand": "United States Postal Service", "brand:wikidata": "Q668687", "collection_times": "Mo-Fr 13:20; Sa 13:10", "name": "USPS COLLECTION BOX - PO LOBBY", "note": "ON 12/24 AND 12/31, THIS BOX MAY BE COLLECTED AS EARLY AS 12 NOON.", "nsi_id": "unitedstatespostalservice-a77078", "operator": "United States Postal Service", "operator:short": "USPS", "operator:type": "public", "operator:wikidata": "Q668687", "ref": "6804000003"}, "type": "Feature"}
{"dataset_attributes": {"@spider": "usps_collection_boxes", "spider:collection_time": "2023-11-01T08:25:09.026919"}, "geometry": {"coordinates": [-96.489075439, 41.227019162], "type": "Point"}, "id": "Blnv7V1UwiS4uevJrLuFT6u-Izs=", "properties": {"@spider": "usps_collection_boxes", "addr:city": "MEAD", "addr:country": "US", "addr:full": "320 S VINE ST", "addr:postcode": "68041", "addr:state": "NE", "amenity": "post_box", "brand": "United States Postal Service", "brand:wikidata": "Q668687", "collection_times": "Mo-Sa 16:40", "name": "USPS COLLECTION BOX - BLUE BOX", "note": "ON 12/24 AND 12/31, THIS BOX MAY BE COLLECTED AS EARLY AS 12 NOON.", "nsi_id": "unitedstatespostalservice-a77078", "operator": "United States Postal Service", "operator:short": "USPS", "operator:type": "public", "operator:wikidata": "Q668687", "ref": "6804100001"}, "type": "Feature"}
{"dataset_attributes": {"@spider": "usps_collection_boxes", "spider:collection_time": "2023-11-01T08:25:09.026919"}, "geometry": {"coordinates": [-96.489075439, 41.227019162], "type": "Point"}, "id": "sN2Qi3zon40BgUVRXXsn0Mg3LWk=", "properties": {"@spider": "usps_collection_boxes", "addr:city": "MEAD", "addr:country": "US", "addr:full": "320 S VINE ST", "addr:postcode": "68041", "addr:state": "NE", "amenity": "post_box", "brand": "United States Postal Service", "brand:wikidata": "Q668687", "collection_times": "Mo-Fr 14:00; Sa 09:30", "name": "USPS COLLECTION BOX - PO LOBBY", "note": "ON 12/24 AND 12/31, THIS BOX MAY BE COLLECTED AS EARLY AS 12 NOON.", "nsi_id": "unitedstatespostalservice-a77078", "operator": "United States Postal Service", "operator:short": "USPS", "operator:type": "public", "operator:wikidata": "Q668687", "ref": "6804100002"}, "type": "Feature"}
{"dataset_attributes": {"@spider": "usps_collection_boxes", "spider:collection_time": "2023-11-01T08:25:09.026919"}, "geometry": {"coordinates": [-96.489075439, 41.227019162], "type": "Point"}, "id": "4u8DzEr2t1M84f7W-52LuoPecCo=", "properties": {"@spider": "usps_collection_boxes", "addr:city": "MEAD", "addr:country": "US", "addr:full": "320 S VINE ST", "addr:postcode": "68041", "addr:state": "NE", "amenity": "post_box", "brand": "United States Postal Service", "brand:wikidata": "Q668687", "collection_times": "Mo-Fr 14:00; Sa 09:30", "name": "USPS COLLECTION BOX - PO LOBBY", "note": "ON 12/24 AND 12/31, THIS BOX MAY BE COLLECTED AS EARLY AS 12 NOON.", "nsi_id": "unitedstatespostalservice-a77078", "operator": "United States Postal Service", "operator:short": "USPS", "operator:type": "public", "operator:wikidata": "Q668687", "ref": "6804100004"}, "type": "Feature"}
{"dataset_attributes": {"@spider": "usps_collection_boxes", "spider:collection_time": "2023-11-01T08:25:09.026919"}, "geometry": {"coordinates": [-96.469433832, 41.53446654], "type": "Point"}, "id": "pZi4TVDl8jYQZpoemge0NvXjmPw=", "properties": {"@spider": "usps_collection_boxes", "addr:city": "NICKERSON", "addr:country": "US", "addr:full": "209 CEDAR ST", "addr:postcode": "68044", "addr:state": "NE", "amenity": "post_box", "brand": "United States Postal Service", "brand:wikidata": "Q668687", "collection_times": "Mo-Sa 16:20", "name": "USPS COLLECTION BOX - BLUE BOX", "note": "ON 12/24 AND 12/31, THIS BOX MAY BE COLLECTED AS EARLY AS 12 NOON.", "nsi_id": "unitedstatespostalservice-a77078", "operator": "United States Postal Service", "operator:short": "USPS", "operator:type": "public", "operator:wikidata": "Q668687", "ref": "6804400001"}, "type": "Feature"}
{"dataset_attributes": {"@spider": "usps_collection_boxes", "spider:collection_time": "2023-11-01T08:25:09.026919"}, "geometry": {"coordinates": [-96.469433832, 41.53446654], "type": "Point"}, "id": "-ZuJ-Aalf_t09dbUdPz-oUkMi0c=", "properties": {"@spider": "usps_collection_boxes", "addr:city": "NICKERSON", "addr:country": "US", "addr:full": "209 CEDAR ST", "addr:postcode": "68044", "addr:state": "NE", "amenity": "post_box", "brand": "United States Postal Service", "brand:wikidata": "Q668687", "collection_times": "Mo-Fr 12:00; Sa 11:00", "name": "USPS COLLECTION BOX - PO LOBBY", "nsi_id": "unitedstatespostalservice-a77078", "operator": "United States Postal Service", "operator:short": "USPS", "operator:type": "public", "operator:wikidata": "Q668687", "ref": "6804400002"}, "type": "Feature"}
{"dataset_attributes": {"@spider": "usps_collection_boxes", "spider:collection_time": "2023-11-01T08:25:09.026919"}, "geometry": {"coordinates": [-96.469433832, 41.53446654], "type": "Point"}, "id": "-IIvskhQOSTC3hqd1MnYdpr_SPg=", "properties": {"@spider": "usps_collection_boxes", "addr:city": "NICKERSON", "addr:country": "US", "addr:full": "209 CEDAR ST", "addr:postcode": "68044", "addr:state": "NE", "amenity": "post_box", "brand": "United States Postal Service", "brand:wikidata": "Q668687", "collection_times": "Mo-Fr 12:00; Sa 11:00", "name": "USPS COLLECTION BOX - PO LOBBY", "nsi_id": "unitedstatespostalservice-a77078", "operator": "United States Postal Service", "operator:short": "USPS", "operator:type": "public", "operator:wikidata": "Q668687", "ref": "6804400005"}, "type": "Feature"}
{"dataset_attributes": {"@spider": "usps_collection_boxes", "spider:collection_time": "2023-11-01T08:25:09.026919"}, "geometry": {"coordinates": [-96.46665414, 41.83582717], "type": "Point"}, "id": "XlxWboBKjM1rh5jSB-gfAxNTdio=", "properties": {"@spider": "usps_collection_boxes", "addr:city": "OAKLAND", "addr:country": "US", "addr:full": "313 N OAKLAND AVE", "addr:postcode": "68045", "addr:state": "NE", "amenity": "post_box", "brand": "United States Postal Service", "brand:wikidata": "Q668687", "collection_times": "Mo-Fr 16:35; Sa 16:40", "name": "USPS COLLECTION BOX - BLUE BOX", "note": "ON 12/24 AND 12/31, THIS BOX MAY BE COLLECTED AS EARLY AS 12 NOON.", "nsi_id": "unitedstatespostalservice-a77078", "operator": "United States Postal Service", "operator:short": "USPS", "operator:type": "public", "operator:wikidata": "Q668687", "ref": "6804500005"}, "type": "Feature"}
{"dataset_attributes": {"@spider": "usps_collection_boxes", "spider:collection_time": "2023-11-01T08:25:09.026919"}, "geometry": {"coordinates": [-96.46665414, 41.83582717], "type": "Point"}, "id": "f7XQ6q9kUXE8l3P7Znb-rYYZlD0=", "properties": {"@spider": "usps_collection_boxes", "addr:city": "OAKLAND", "addr:country": "US", "addr:full": "313 N OAKLAND AVE", "addr:postcode": "68045", "addr:state": "NE", "amenity": "post_box", "brand": "United States Postal Service", "brand:wikidata": "Q668687", "collection_times": "Mo-Fr 16:25; Sa 10:00", "name": "USPS COLLECTION BOX - PO LOBBY", "note": "ON 12/24 AND 12/31, THIS BOX MAY BE COLLECTED AS EARLY AS 12 NOON.", "nsi_id": "unitedstatespostalservice-a77078", "operator": "United States Postal Service", "operator:short": "USPS", "operator:type": "public", "operator:wikidata": "Q668687", "ref": "6804500006"}, "type": "Feature"}
{"dataset_attributes": {"@spider": "usps_collection_boxes", "spider:collection_time": "2023-11-01T08:25:09.026919"}, "geometry": {"coordinates": [-96.46665414, 41.83582717], "type": "Point"}, "id": "5dHXE8a6YYrX4o24rxtvidE5SIE=", "properties": {"@spider": "usps_collection_boxes", "addr:city": "OAKLAND", "addr:country": "US", "addr:full": "313 N OAKLAND AVE", "addr:postcode": "68045", "addr:state": "NE", "amenity": "post_box", "brand": "United States Postal Service", "brand:wikidata": "Q668687", "collection_times": "Mo-Fr 16:25; Sa 10:00", "name": "USPS COLLECTION BOX - PO LOBBY", "note": "ON 12/24 AND 12/31, THIS BOX MAY BE COLLECTED AS EARLY AS 12 NOON.", "nsi_id": "unitedstatespostalservice-a77078", "operator": "United States Postal Service", "operator:short": "USPS", "operator:type": "public", "operator:wikidata": "Q668687", "ref": "6804500008"}, "type": "Feature"}
{"dataset_attributes": {"@spider": "usps_collection_boxes", "spider:collection_time": "2023-11-01T08:25:09.026919"}, "geometry": {"coordinates": [-96.0389389917, 41.140686018], "type": "Point"}, "id": "SjFacp0NTg-zgLFMLWGBXTOJ-a0=", "properties": {"@spider": "usps_collection_boxes", "addr:city": "PAPILLION", "addr:country": "US", "addr:full": "1210 GOLDEN GATE DR", "addr:postcode": "68046", "addr:state": "NE", "amenity": "post_box", "brand": "United States Postal Service", "brand:wikidata": "Q668687", "collection_times": "Mo-Sa 12:00", "name": "USPS COLLECTION BOX - BLUE BOX", "nsi_id": "unitedstatespostalservice-a77078", "operator": "United States Postal Service", "operator:short": "USPS", "operator:type": "public", "operator:wikidata": "Q668687", "ref": "6804600001"}, "type": "Feature"}
{"dataset_attributes": {"@spider": "usps_collection_boxes", "spider:collection_time": "2023-11-01T08:25:09.026919"}, "geometry": {"coordinates": [-96.043883223, 41.157387547], "type": "Point"}, "id": "HjV4DRWtBMNQEwJQ50unXWmH_cI=", "properties": {"@spider": "usps_collection_boxes", "addr:city": "PAPILLION", "addr:country": "US", "addr:full": "145 W 2ND ST", "addr:postcode": "68046", "addr:state": "NE", "amenity": "post_box", "brand": "United States Postal Service", "brand:wikidata": "Q668687", "collection_times": "Mo-Sa 10:00", "name": "USPS COLLECTION BOX - BLUE BOX", "nsi_id": "unitedstatespostalservice-a77078", "operator": "United States Postal Service", "operator:short": "USPS", "operator:type": "public", "operator:wikidata": "Q668687", "ref": "6804600004"}, "type": "Feature"}
{"dataset_attributes": {"@spider": "usps_collection_boxes", "spider:collection_time": "2023-11-01T08:25:09.026919"}, "geometry": {"coordinates": [-96.042272055, 41.158455504], "type": "Point"}, "id": "9zsmFtk6XMVCx4yk9svWJj5yXGw=", "properties": {"@spider": "usps_collection_boxes", "addr:city": "PAPILLION", "addr:country": "US", "addr:full": "122 E 3RD ST", "addr:postcode": "68046", "addr:state": "NE", "amenity": "post_box", "brand": "United States Postal Service", "brand:wikidata": "Q668687", "collection_times": "Mo-Sa 10:00", "name": "USPS COLLECTION BOX - BLUE BOX", "nsi_id": "unitedstatespostalservice-a77078", "operator": "United States Postal Service", "operator:short": "USPS", "operator:type": "public", "operator:wikidata": "Q668687", "ref": "6804600005"}, "type": "Feature"}
{"dataset_attributes": {"@spider": "usps_collection_boxes", "spider:collection_time": "2023-11-01T08:25:09.026919"}, "geometry": {"coordinates": [-96.0443378004, 41.1699200291], "type": "Point"}, "id": "h7vyYHNKQuq3mftvnjwFyueZuIU=", "properties": {"@spider": "usps_collection_boxes", "addr:city": "PAPILLION", "addr:country": "US", "addr:full": "909 N ADAMS ST", "addr:postcode": "68046", "addr:state": "NE", "amenity": "post_box", "brand": "United States Postal Service", "brand:wikidata": "Q668687", "collection_times": "Mo-Fr 17:30; Sa 16:30", "name": "USPS COLLECTION BOX - BLUE BOX", "note": "ON 12/24 AND 12/31, THIS BOX MAY BE COLLECTED AS EARLY AS 12 NOON.", "nsi_id": "unitedstatespostalservice-a77078", "operator": "United States Postal Service", "operator:short": "USPS", "operator:type": "public", "operator:wikidata": "Q668687", "ref": "6804600008"}, "type": "Feature"}
{"dataset_attributes": {"@spider": "usps_collection_boxes", "spider:collection_time": "2023-11-01T08:25:09.026919"}, "geometry": {"coordinates": [-96.044326526, 41.170022665], "type": "Point"}, "id": "x2gaVBtSTKqO3z1vQhneCiGJSeA=", "properties": {"@spider": "usps_collection_boxes", "addr:city": "PAPILLION", "addr:country": "US", "addr:full": "909 N ADAMS ST", "addr:postcode": "68046", "addr:state": "NE", "amenity": "post_box", "brand": "United States Postal Service", "brand:wikidata": "Q668687", "collection_times": "Mo-Fr 17:30; Sa 16:30", "name": "USPS COLLECTION BOX - BLUE BOX", "note": "ON 12/24 AND 12/31, THIS BOX MAY BE COLLECTED AS EARLY AS 12 NOON.", "nsi_id": "unitedstatespostalservice-a77078", "operator": "United States Postal Service", "operator:short": "USPS", "operator:type": "public", "operator:wikidata": "Q668687", "ref": "6804600009"}, "type": "Feature"}
{"dataset_attributes": {"@spider": "usps_collection_boxes", "spider:collection_time": "2023-11-01T08:25:09.026919"}, "geometry": {"coordinates": [-96.044326526, 41.170022665], "type": "Point"}, "id": "hVHUXT7AHMFCTJF9P1rkmK6kSU0=", "properties": {"@spider": "usps_collection_boxes", "addr:city": "PAPILLION", "addr:country": "US", "addr:full": "909 N ADAMS ST", "addr:postcode": "68046", "addr:state": "NE", "amenity": "post_box", "brand": "United States Postal Service", "brand:wikidata": "Q668687", "collection_times": "Mo-Fr 17:30; Sa 16:30", "name": "USPS COLLECTION BOX - BLUE BOX", "note": "ON 12/24 AND 12/31, THIS BOX MAY BE COLLECTED AS EARLY AS 12 NOON.", "nsi_id": "unitedstatespostalservice-a77078", "operator": "United States Postal Service", "operator:short": "USPS", "operator:type": "public", "operator:wikidata": "Q668687", "ref": "6804600010"}, "type": "Feature"}
{"dataset_attributes": {"@spider": "usps_collection_boxes", "spider:collection_time": "2023-11-01T08:25:09.026919"}, "geometry": {"coordinates": [-96.0364290308, 41.1391939973], "type": "Point"}, "id": "64_YBOhelkNQNHXZByMzmVxLFPU=", "properties": {"@spider": "usps_collection_boxes", "addr:city": "PAPILLION", "addr:country": "US", "addr:full": "1401 E GOLD COAST RD", "addr:postcode": "68046", "addr:state": "NE", "amenity": "post_box", "brand": "United States Postal Service", "brand:wikidata": "Q668687", "collection_times": "Mo-Sa 10:00", "name": "USPS COLLECTION BOX - BLUE BOX", "nsi_id": "unitedstatespostalservice-a77078", "operator": "United States Postal Service", "operator:short": "USPS", "operator:type": "public", "operator:wikidata": "Q668687", "ref": "6804600012"}, "type": "Feature"}
{"dataset_attributes": {"@spider": "usps_collection_boxes", "spider:collection_time": "2023-11-01T08:25:09.026919"}, "geometry": {"coordinates": [-96.078006037, 41.174515002], "type": "Point"}, "id": "e5vP1_UfBIW7R-YB_GO_KPM9fUk=", "properties": {"@spider": "usps_collection_boxes", "addr:city": "PAPILLION", "addr:country": "US", "addr:full": "10717 VIRGINIA PLAZA ST 119", "addr:postcode": "68046", "addr:state": "NE", "amenity": "post_box", "brand": "United States Postal Service", "brand:wikidata": "Q668687", "collection_times": "Mo-Fr 17:15; Sa 13:15", "name": "USPS COLLECTION BOX - PO LOBBY", "note": "ON 12/24 AND 12/31, THIS BOX MAY BE COLLECTED AS EARLY AS 12 NOON.", "nsi_id": "unitedstatespostalservice-a77078", "operator": "United States Postal Service", "operator:short": "USPS", "operator:type": "public", "operator:wikidata": "Q668687", "ref": "6804600018"}, "type": "Feature"}
{"dataset_attributes": {"@spider": "usps_collection_boxes", "spider:collection_time": "2023-11-01T08:25:09.026919"}, "geometry": {"coordinates": [-96.0780060366, 41.174515002], "type": "Point"}, "id": "52NOKJk4lg1CPYeB4hEcba7jZQI=", "properties": {"@spider": "usps_collection_boxes", "addr:city": "PAPILLION", "addr:country": "US", "addr:full": "10717 VIRGINIA PLAZA ST 119", "addr:postcode": "68046", "addr:state": "NE", "amenity": "post_box", "brand": "United States Postal Service", "brand:wikidata": "Q668687", "collection_times": "Mo-Fr 17:15; Sa 13:15", "name": "USPS COLLECTION BOX - APC", "note": "ON 12/24 AND 12/31, THIS BOX MAY BE COLLECTED AS EARLY AS 12 NOON.", "nsi_id": "unitedstatespostalservice-a77078", "operator": "United States Postal Service", "operator:short": "USPS", "operator:type": "public", "operator:wikidata": "Q668687", "ref": "6804600020"}, "type": "Feature"}
{"dataset_attributes": {"@spider": "usps_collection_boxes", "spider:collection_time": "2023-11-01T08:25:09.026919"}, "geometry": {"coordinates": [-96.025064507, 41.136315773], "type": "Point"}, "id": "Y71yHAeNhHJp2YDSc-Vu8eyMxFM=", "properties": {"@spider": "usps_collection_boxes", "addr:city": "PAPILLION", "addr:country": "US", "addr:full": "11650 S 73RD ST", "addr:postcode": "68046", "addr:state": "NE", "amenity": "post_box", "brand": "United States Postal Service", "brand:wikidata": "Q668687", "collection_times": "Mo-Fr 17:15; Sa 16:40", "name": "USPS COLLECTION BOX - PO LOBBY", "note": "ON 12/24 AND 12/31, THIS BOX MAY BE COLLECTED AS EARLY AS 12 NOON.", "nsi_id": "unitedstatespostalservice-a77078", "operator": "United States Postal Service", "operator:short": "USPS", "operator:type": "public", "operator:wikidata": "Q668687", "ref": "6804600022"}, "type": "Feature"}
{"dataset_attributes": {"@spider": "usps_collection_boxes", "spider:collection_time": "2023-11-01T08:25:09.026919"}, "geometry": {"coordinates": [-96.0250645073, 41.1363157732], "type": "Point"}, "id": "DEbtXDqwVvivd4KKAgmIrwj7AFY=", "properties": {"@spider": "usps_collection_boxes", "addr:city": "PAPILLION", "addr:country": "US", "addr:full": "11650 S 73RD ST", "addr:postcode": "68046", "addr:state": "NE", "amenity": "post_box", "brand": "United States Postal Service", "brand:wikidata": "Q668687", "collection_times": "Mo-Fr 17:15; Sa 16:35", "name": "USPS COLLECTION BOX - BLUE BOX", "note": "ON 12/24 AND 12/31, THIS BOX MAY BE COLLECTED AS EARLY AS 12 NOON.", "nsi_id": "unitedstatespostalservice-a77078", "operator": "United States Postal Service", "operator:short": "USPS", "operator:type": "public", "operator:wikidata": "Q668687", "ref": "6804600023"}, "type": "Feature"}
{"dataset_attributes": {"@spider": "usps_collection_boxes", "spider:collection_time": "2023-11-01T08:25:09.026919"}, "geometry": {"coordinates": [-96.0780060366, 41.174515002], "type": "Point"}, "id": "3el35K_EBhtdff3JPi-MbMlG68U=", "properties": {"@spider": "usps_collection_boxes", "addr:city": "PAPILLION", "addr:country": "US", "addr:full": "10717 VIRGINIA PLAZA ST 119", "addr:postcode": "68046", "addr:state": "NE", "amenity": "post_box", "brand": "United States Postal Service", "brand:wikidata": "Q668687", "collection_times": "Mo-Fr 17:30; Sa 13:30", "name": "USPS COLLECTION BOX - PO LOBBY", "note": "ON 12/24 AND 12/31, THIS BOX MAY BE COLLECTED AS EARLY AS 12 NOON.", "nsi_id": "unitedstatespostalservice-a77078", "operator": "United States Postal Service", "operator:short": "USPS", "operator:type": "public", "operator:wikidata": "Q668687", "ref": "6804600029"}, "type": "Feature"}
{"dataset_attributes": {"@spider": "usps_collection_boxes", "spider:collection_time": "2023-11-01T08:25:09.026919"}, "geometry": {"coordinates": [-96.706683, 42.114055528], "type": "Point"}, "id": "i7UcuaS-g1E3EZOeyea7YNEHTFg=", "properties": {"@spider": "usps_collection_boxes", "addr:city": "PENDER", "addr:country": "US", "addr:full": "319 MAIN ST", "addr:postcode": "68047", "addr:state": "NE", "amenity": "post_box", "brand": "United States Postal Service", "brand:wikidata": "Q668687", "collection_times": "Mo-Fr 15:15; Sa 15:20", "name": "USPS COLLECTION BOX - BLUE BOX", "note": "ON 12/24 AND 12/31, THIS BOX MAY BE COLLECTED AS EARLY AS 12 NOON.", "nsi_id": "unitedstatespostalservice-a77078", "operator": "United States Postal Service", "operator:short": "USPS", "operator:type": "public", "operator:wikidata": "Q668687", "ref": "6804700001"}, "type": "Feature"}
{"dataset_attributes": {"@spider": "usps_collection_boxes", "spider:collection_time": "2023-11-01T08:25:09.026919"}, "geometry": {"coordinates": [-96.706683, 42.114055528], "type": "Point"}, "id": "S3epFNDGzC15XOp4suVCNhXGW0k=", "properties": {"@spider": "usps_collection_boxes", "addr:city": "PENDER", "addr:country": "US", "addr:full": "319 MAIN ST", "addr:postcode": "68047", "addr:state": "NE", "amenity": "post_box", "brand": "United States Postal Service", "brand:wikidata": "Q668687", "collection_times": "Mo-Fr 15:15; Sa 10:00", "name": "USPS COLLECTION BOX - PO LOBBY", "note": "ON 12/24 AND 12/31, THIS BOX MAY BE COLLECTED AS EARLY AS 12 NOON.", "nsi_id": "unitedstatespostalservice-a77078", "operator": "United States Postal Service", "operator:short": "USPS", "operator:type": "public", "operator:wikidata": "Q668687", "ref": "6804700002"}, "type": "Feature"}
{"dataset_attributes": {"@spider": "usps_collection_boxes", "spider:collection_time": "2023-11-01T08:25:09.026919"}, "geometry": {"coordinates": [-96.706683, 42.114055528], "type": "Point"}, "id": "7Uyi2s1bt9d3b6zhFmuOXyGrvFU=", "properties": {"@spider": "usps_collection_boxes", "addr:city": "PENDER", "addr:country": "US", "addr:full": "319 MAIN ST", "addr:postcode": "68047", "addr:state": "NE", "amenity": "post_box", "brand": "United States Postal Service", "brand:wikidata": "Q668687", "collection_times": "Mo-Fr 15:15; Sa 10:00", "name": "USPS COLLECTION BOX - PO LOBBY", "note": "ON 12/24 AND 12/31, THIS BOX MAY BE COLLECTED AS EARLY AS 12 NOON.", "nsi_id": "unitedstatespostalservice-a77078", "operator": "United States Postal Service", "operator:short": "USPS", "operator:type": "public", "operator:wikidata": "Q668687", "ref": "6804700005"}, "type": "Feature"}
{"dataset_attributes": {"@spider": "usps_collection_boxes", "spider:collection_time": "2023-11-01T08:25:09.026919"}, "geometry": {"coordinates": [-95.885203668, 41.011141528], "type": "Point"}, "id": "e7komY64e_cgcl2rSbSTVb-4wjE=", "properties": {"@spider": "usps_collection_boxes", "addr:city": "PLATTSMOUTH", "addr:country": "US", "addr:full": "501 MAIN ST", "addr:postcode": "68048", "addr:state": "NE", "amenity": "post_box", "brand": "United States Postal Service", "brand:wikidata": "Q668687", "collection_times": "Mo-Fr 15:40; Sa 13:30", "name": "USPS COLLECTION BOX - BLUE BOX", "note": "ON 12/24 AND 12/31, THIS BOX MAY BE COLLECTED AS EARLY AS 12 NOON.", "nsi_id": "unitedstatespostalservice-a77078", "operator": "United States Postal Service", "operator:short": "USPS", "operator:type": "public", "operator:wikidata": "Q668687", "ref": "6804800001"}, "type": "Feature"}
{"dataset_attributes": {"@spider": "usps_collection_boxes", "spider:collection_time": "2023-11-01T08:25:09.026919"}, "geometry": {"coordinates": [-95.9071199856, 41.0035950043], "type": "Point"}, "id": "alQ9ttPgwDZC7fBAYgHLVKde6vs=", "properties": {"@spider": "usps_collection_boxes", "addr:city": "PLATTSMOUTH", "addr:country": "US", "addr:full": "2380 8TH AVE", "addr:postcode": "68048", "addr:state": "NE", "amenity": "post_box", "brand": "United States Postal Service", "brand:wikidata": "Q668687", "collection_times": "Mo-Fr 15:40; Sa 10:00", "name": "USPS COLLECTION BOX - BLUE BOX", "note": "ON 12/24 AND 12/31, THIS BOX MAY BE COLLECTED AS EARLY AS 12 NOON.", "nsi_id": "unitedstatespostalservice-a77078", "operator": "United States Postal Service", "operator:short": "USPS", "operator:type": "public", "operator:wikidata": "Q668687", "ref": "6804800006"}, "type": "Feature"}
{"dataset_attributes": {"@spider": "usps_collection_boxes", "spider:collection_time": "2023-11-01T08:25:09.026919"}, "geometry": {"coordinates": [-95.889020018, 41.013307464], "type": "Point"}, "id": "YZdy5K3W2lRT9aGa2Itb899Gt8U=", "properties": {"@spider": "usps_collection_boxes", "addr:city": "PLATTSMOUTH", "addr:country": "US", "addr:full": "802 AVENUE B", "addr:postcode": "68048", "addr:state": "NE", "amenity": "post_box", "brand": "United States Postal Service", "brand:wikidata": "Q668687", "collection_times": "Mo-Fr 16:30; Sa 16:40", "name": "USPS COLLECTION BOX - BLUE BOX", "note": "ON 12/24 AND 12/31, THIS BOX MAY BE COLLECTED AS EARLY AS 12 NOON.", "nsi_id": "unitedstatespostalservice-a77078", "operator": "United States Postal Service", "operator:short": "USPS", "operator:type": "public", "operator:wikidata": "Q668687", "ref": "6804800007"}, "type": "Feature"}
{"dataset_attributes": {"@spider": "usps_collection_boxes", "spider:collection_time": "2023-11-01T08:25:09.026919"}, "geometry": {"coordinates": [-95.889020018, 41.013307464], "type": "Point"}, "id": "HDcyVAl3MNsf8m8jTjMh_8BHa_w=", "properties": {"@spider": "usps_collection_boxes", "addr:city": "PLATTSMOUTH", "addr:country": "US", "addr:full": "802 AVENUE B", "addr:postcode": "68048", "addr:state": "NE", "amenity": "post_box", "brand": "United States Postal Service", "brand:wikidata": "Q668687", "collection_times": "Mo-Fr 16:20; Sa 12:00", "name": "USPS COLLECTION BOX - PO LOBBY", "note": "ON 12/24 AND 12/31, THIS BOX MAY BE COLLECTED AS EARLY AS 12 NOON.", "nsi_id": "unitedstatespostalservice-a77078", "operator": "United States Postal Service", "operator:short": "USPS", "operator:type": "public", "operator:wikidata": "Q668687", "ref": "6804800010"}, "type": "Feature"}
{"dataset_attributes": {"@spider": "usps_collection_boxes", "spider:collection_time": "2023-11-01T08:25:09.026919"}, "geometry": {"coordinates": [-95.8831739685, 41.0112225949], "type": "Point"}, "id": "zlgKsIQnCNSeK4plT0a2MXPSc0g=", "properties": {"@spider": "usps_collection_boxes", "addr:city": "PLATTSMOUTH", "addr:country": "US", "addr:full": "346 MAIN ST", "addr:postcode": "68048", "addr:state": "NE", "amenity": "post_box", "brand": "United States Postal Service", "brand:wikidata": "Q668687", "collection_times": "Mo-Fr 15:45; Sa 13:30", "name": "USPS COLLECTION BOX - BLUE BOX", "note": "ON 12/24 AND 12/31, THIS BOX MAY BE COLLECTED AS EARLY AS 12 NOON.", "nsi_id": "unitedstatespostalservice-a77078", "operator": "United States Postal Service", "operator:short": "USPS", "operator:type": "public", "operator:wikidata": "Q668687", "ref": "6804800012"}, "type": "Feature"}
{"dataset_attributes": {"@spider": "usps_collection_boxes", "spider:collection_time": "2023-11-01T08:25:09.026919"}, "geometry": {"coordinates": [-95.8831739685, 41.0112225949], "type": "Point"}, "id": "h6tIetBc2f8h4uvlVcALJ3lqYJ8=", "properties": {"@spider": "usps_collection_boxes", "addr:city": "PLATTSMOUTH", "addr:country": "US", "addr:full": "346 MAIN ST", "addr:postcode": "68048", "addr:state": "NE", "amenity": "post_box", "brand": "United States Postal Service", "brand:wikidata": "Q668687", "collection_times": "Mo-Fr 15:45; Sa 13:30", "name": "USPS COLLECTION BOX - BLUE BOX", "note": "ON 12/24 AND 12/31, THIS BOX MAY BE COLLECTED AS EARLY AS 12 NOON.", "nsi_id": "unitedstatespostalservice-a77078", "operator": "United States Postal Service", "operator:short": "USPS", "operator:type": "public", "operator:wikidata": "Q668687", "ref": "6804800013"}, "type": "Feature"}
{"dataset_attributes": {"@spider": "usps_collection_boxes", "spider:collection_time": "2023-11-01T08:25:09.026919"}, "geometry": {"coordinates": [-95.90966787, 41.00966542], "type": "Point"}, "id": "zdtgSxRFLkcFI1WmkKsn2-GItAw=", "properties": {"@spider": "usps_collection_boxes", "addr:city": "PLATTSMOUTH", "addr:country": "US", "addr:full": "16418 WESTSIDE DR", "addr:postcode": "68048", "addr:state": "NE", "amenity": "post_box", "brand": "United States Postal Service", "brand:wikidata": "Q668687", "collection_times": "Mo-Fr 15:30; Sa 09:00", "name": "USPS COLLECTION BOX - PO LOBBY", "note": "ON 12/24 AND 12/31, THIS BOX MAY BE COLLECTED AS EARLY AS 12 NOON.", "nsi_id": "unitedstatespostalservice-a77078", "operator": "United States Postal Service", "operator:short": "USPS", "operator:type": "public", "operator:wikidata": "Q668687", "ref": "6804800014"}, "type": "Feature"}
{"dataset_attributes": {"@spider": "usps_collection_boxes", "spider:collection_time": "2023-11-01T08:25:09.026919"}, "geometry": {"coordinates": [-95.889020018, 41.013307464], "type": "Point"}, "id": "wTAzxngj12sfmHZRrq9UpKDIpk4=", "properties": {"@spider": "usps_collection_boxes", "addr:city": "PLATTSMOUTH", "addr:country": "US", "addr:full": "802 AVENUE B", "addr:postcode": "68048", "addr:state": "NE", "amenity": "post_box", "brand": "United States Postal Service", "brand:wikidata": "Q668687", "collection_times": "Mo-Fr 16:20; Sa 11:30", "name": "USPS COLLECTION BOX - PO LOBBY", "note": "ON 12/24 AND 12/31, THIS BOX MAY BE COLLECTED AS EARLY AS 12 NOON.", "nsi_id": "unitedstatespostalservice-a77078", "operator": "United States Postal Service", "operator:short": "USPS", "operator:type": "public", "operator:wikidata": "Q668687", "ref": "6804800015"}, "type": "Feature"}
{"dataset_attributes": {"@spider": "usps_collection_boxes", "spider:collection_time": "2023-11-01T08:25:09.026919"}, "geometry": {"coordinates": [-96.808615404, 41.310013919], "type": "Point"}, "id": "0rzZ35TJD6Y4K95KLqsu6ySs0D8=", "properties": {"@spider": "usps_collection_boxes", "addr:city": "PRAGUE", "addr:country": "US", "addr:full": "303 W CENTER AVE", "addr:postcode": "68050", "addr:state": "NE", "amenity": "post_box", "brand": "United States Postal Service", "brand:wikidata": "Q668687", "collection_times": "Mo-Sa 15:30", "name": "USPS COLLECTION BOX - BLUE BOX", "note": "ON 12/24 AND 12/31, THIS BOX MAY BE COLLECTED AS EARLY AS 12 NOON.", "nsi_id": "unitedstatespostalservice-a77078", "operator": "United States Postal Service", "operator:short": "USPS", "operator:type": "public", "operator:wikidata": "Q668687", "ref": "6805000001"}, "type": "Feature"}
{"dataset_attributes": {"@spider": "usps_collection_boxes", "spider:collection_time": "2023-11-01T08:25:09.026919"}, "geometry": {"coordinates": [-96.808615404, 41.310013919], "type": "Point"}, "id": "cEdK23hKCC45X-RPSOGDU3UAOUc=", "properties": {"@spider": "usps_collection_boxes", "addr:city": "PRAGUE", "addr:country": "US", "addr:full": "303 W CENTER AVE", "addr:postcode": "68050", "addr:state": "NE", "amenity": "post_box", "brand": "United States Postal Service", "brand:wikidata": "Q668687", "collection_times": "Mo-Fr 12:00; Sa 10:00", "name": "USPS COLLECTION BOX - PO LOBBY", "nsi_id": "unitedstatespostalservice-a77078", "operator": "United States Postal Service", "operator:short": "USPS", "operator:type": "public", "operator:wikidata": "Q668687", "ref": "6805000002"}, "type": "Feature"}
{"dataset_attributes": {"@spider": "usps_collection_boxes", "spider:collection_time": "2023-11-01T08:25:09.026919"}, "geometry": {"coordinates": [-96.808615404, 41.310013919], "type": "Point"}, "id": "RTBWRp2QkxNyaoR5wKxkm62k0HI=", "properties": {"@spider": "usps_collection_boxes", "addr:city": "PRAGUE", "addr:country": "US", "addr:full": "303 W CENTER AVE", "addr:postcode": "68050", "addr:state": "NE", "amenity": "post_box", "brand": "United States Postal Service", "brand:wikidata": "Q668687", "collection_times": "Mo-Fr 12:00; Sa 10:00", "name": "USPS COLLECTION BOX - PO LOBBY", "nsi_id": "unitedstatespostalservice-a77078", "operator": "United States Postal Service", "operator:short": "USPS", "operator:type": "public", "operator:wikidata": "Q668687", "ref": "6805000004"}, "type": "Feature"}
{"dataset_attributes": {"@spider": "usps_collection_boxes", "spider:collection_time": "2023-11-01T08:25:09.026919"}, "geometry": {"coordinates": [-96.512454987, 42.058665555], "type": "Point"}, "id": "KCmMdDrryIyAPeaGb3D0rUWfOj8=", "properties": {"@spider": "usps_collection_boxes", "addr:city": "ROSALIE", "addr:country": "US", "addr:full": "200 FARLEY AVE", "addr:postcode": "68055", "addr:state": "NE", "amenity": "post_box", "brand": "United States Postal Service", "brand:wikidata": "Q668687", "collection_times": "Mo-Sa 15:55", "name": "USPS COLLECTION BOX - BLUE BOX", "note": "ON 12/24 AND 12/31, THIS BOX MAY BE COLLECTED AS EARLY AS 12 NOON.", "nsi_id": "unitedstatespostalservice-a77078", "operator": "United States Postal Service", "operator:short": "USPS", "operator:type": "public", "operator:wikidata": "Q668687", "ref": "6805500001"}, "type": "Feature"}
{"dataset_attributes": {"@spider": "usps_collection_boxes", "spider:collection_time": "2023-11-01T08:25:09.026919"}, "geometry": {"coordinates": [-96.512454987, 42.058665555], "type": "Point"}, "id": "IFkJWsHXwl6TGnx0fEJl-xbBQWI=", "properties": {"@spider": "usps_collection_boxes", "addr:city": "ROSALIE", "addr:country": "US", "addr:full": "200 FARLEY AVE", "addr:postcode": "68055", "addr:state": "NE", "amenity": "post_box", "brand": "United States Postal Service", "brand:wikidata": "Q668687", "collection_times": "Mo-Fr 14:00; Sa 13:30", "name": "USPS COLLECTION BOX - PO LOBBY", "note": "ON 12/24 AND 12/31, THIS BOX MAY BE COLLECTED AS EARLY AS 12 NOON.", "nsi_id": "unitedstatespostalservice-a77078", "operator": "United States Postal Service", "operator:short": "USPS", "operator:type": "public", "operator:wikidata": "Q668687", "ref": "6805500002"}, "type": "Feature"}
{"dataset_attributes": {"@spider": "usps_collection_boxes", "spider:collection_time": "2023-11-01T08:25:09.026919"}, "geometry": {"coordinates": [-96.512454987, 42.058665555], "type": "Point"}, "id": "XZPQBOg8sYQeBR_9pHd90Kj3XFo=", "properties": {"@spider": "usps_collection_boxes", "addr:city": "ROSALIE", "addr:country": "US", "addr:full": "200 FARLEY AVE", "addr:postcode": "68055", "addr:state": "NE", "amenity": "post_box", "brand": "United States Postal Service", "brand:wikidata": "Q668687", "collection_times": "Mo-Fr 14:00; Sa 13:30", "name": "USPS COLLECTION BOX - PO LOBBY", "note": "ON 12/24 AND 12/31, THIS BOX MAY BE COLLECTED AS EARLY AS 12 NOON.", "nsi_id": "unitedstatespostalservice-a77078", "operator": "United States Postal Service", "operator:short": "USPS", "operator:type": "public", "operator:wikidata": "Q668687", "ref": "6805500004"}, "type": "Feature"}
{"dataset_attributes": {"@spider": "usps_collection_boxes", "spider:collection_time": "2023-11-01T08:25:09.026919"}, "geometry": {"coordinates": [-96.6668402755, 41.6668133294], "type": "Point"}, "id": "BoCVjAK2cc-CV6XNLDxQwA1l13o=", "properties": {"@spider": "usps_collection_boxes", "addr:city": "SCRIBNER", "addr:country": "US", "addr:full": "501 3RD ST", "addr:postcode": "68057", "addr:state": "NE", "amenity": "post_box", "brand": "United States Postal Service", "brand:wikidata": "Q668687", "collection_times": "Mo-Sa 15:40", "name": "USPS COLLECTION BOX - BLUE BOX", "note": "ON 12/24 AND 12/31, THIS BOX MAY BE COLLECTED AS EARLY AS 12 NOON.", "nsi_id": "unitedstatespostalservice-a77078", "operator": "United States Postal Service", "operator:short": "USPS", "operator:type": "public", "operator:wikidata": "Q668687", "ref": "6805700001"}, "type": "Feature"}
{"dataset_attributes": {"@spider": "usps_collection_boxes", "spider:collection_time": "2023-11-01T08:25:09.026919"}, "geometry": {"coordinates": [-96.666840275, 41.666813329], "type": "Point"}, "id": "mNfpRFtXktSzpf3YjGTLM26KVxY=", "properties": {"@spider": "usps_collection_boxes", "addr:city": "SCRIBNER", "addr:country": "US", "addr:full": "501 3RD ST", "addr:postcode": "68057", "addr:state": "NE", "amenity": "post_box", "brand": "United States Postal Service", "brand:wikidata": "Q668687", "collection_times": "Mo-Fr 15:30; Sa 10:30", "name": "USPS COLLECTION BOX - PO LOBBY", "note": "ON 12/24 AND 12/31, THIS BOX MAY BE COLLECTED AS EARLY AS 12 NOON.", "nsi_id": "unitedstatespostalservice-a77078", "operator": "United States Postal Service", "operator:short": "USPS", "operator:type": "public", "operator:wikidata": "Q668687", "ref": "6805700005"}, "type": "Feature"}
{"dataset_attributes": {"@spider": "usps_collection_boxes", "spider:collection_time": "2023-11-01T08:25:09.026919"}, "geometry": {"coordinates": [-96.666840275, 41.666813329], "type": "Point"}, "id": "jZjor8OWMDh7K2J5qKvnPW-HInQ=", "properties": {"@spider": "usps_collection_boxes", "addr:city": "SCRIBNER", "addr:country": "US", "addr:full": "501 3RD ST", "addr:postcode": "68057", "addr:state": "NE", "amenity": "post_box", "brand": "United States Postal Service", "brand:wikidata": "Q668687", "collection_times": "Mo-Fr 15:30; Sa 10:30", "name": "USPS COLLECTION BOX - PO LOBBY", "note": "ON 12/24 AND 12/31, THIS BOX MAY BE COLLECTED AS EARLY AS 12 NOON.", "nsi_id": "unitedstatespostalservice-a77078", "operator": "United States Postal Service", "operator:short": "USPS", "operator:type": "public", "operator:wikidata": "Q668687", "ref": "6805700006"}, "type": "Feature"}
{"dataset_attributes": {"@spider": "usps_collection_boxes", "spider:collection_time": "2023-11-01T08:25:09.026919"}, "geometry": {"coordinates": [-96.245895673, 41.002639467], "type": "Point"}, "id": "e1W4Gh_ttomHaCPSbn2mezGxxSQ=", "properties": {"@spider": "usps_collection_boxes", "addr:city": "SOUTH BEND", "addr:country": "US", "addr:full": "103 N NEBRASKA ST", "addr:postcode": "68058", "addr:state": "NE", "amenity": "post_box", "brand": "United States Postal Service", "brand:wikidata": "Q668687", "collection_times": "Mo-Fr 15:10; Sa 15:15", "name": "USPS COLLECTION BOX - BLUE BOX", "note": "ON 12/24 AND 12/31, THIS BOX MAY BE COLLECTED AS EARLY AS 12 NOON.", "nsi_id": "unitedstatespostalservice-a77078", "operator": "United States Postal Service", "operator:short": "USPS", "operator:type": "public", "operator:wikidata": "Q668687", "ref": "6805800001"}, "type": "Feature"}
{"dataset_attributes": {"@spider": "usps_collection_boxes", "spider:collection_time": "2023-11-01T08:25:09.026919"}, "geometry": {"coordinates": [-96.133638991, 41.082387995], "type": "Point"}, "id": "_DZ3H5uctCoqesSo5ZXcXapA7K0=", "properties": {"@spider": "usps_collection_boxes", "addr:city": "SPRINGFIELD", "addr:country": "US", "addr:full": "160 N 2ND ST", "addr:postcode": "68059", "addr:state": "NE", "amenity": "post_box", "brand": "United States Postal Service", "brand:wikidata": "Q668687", "collection_times": "Mo-Fr 15:45; Sa 15:55", "name": "USPS COLLECTION BOX - BLUE BOX", "note": "ON 12/24 AND 12/31, THIS BOX MAY BE COLLECTED AS EARLY AS 12 NOON.", "nsi_id": "unitedstatespostalservice-a77078", "operator": "United States Postal Service", "operator:short": "USPS", "operator:type": "public", "operator:wikidata": "Q668687", "ref": "6805900001"}, "type": "Feature"}
{"dataset_attributes": {"@spider": "usps_collection_boxes", "spider:collection_time": "2023-11-01T08:25:09.026919"}, "geometry": {"coordinates": [-96.133466491, 41.082399], "type": "Point"}, "id": "RK9xCKC2xZoLV3b8vrtDMe-I4AQ=", "properties": {"@spider": "usps_collection_boxes", "addr:city": "SPRINGFIELD", "addr:country": "US", "addr:full": "160 N 2ND ST", "addr:postcode": "68059", "addr:state": "NE", "amenity": "post_box", "brand": "United States Postal Service", "brand:wikidata": "Q668687", "collection_times": "Mo-Fr 15:35; Sa 10:30", "name": "USPS COLLECTION BOX - PO LOBBY", "note": "ON 12/24 AND 12/31, THIS BOX MAY BE COLLECTED AS EARLY AS 12 NOON.", "nsi_id": "unitedstatespostalservice-a77078", "operator": "United States Postal Service", "operator:short": "USPS", "operator:type": "public", "operator:wikidata": "Q668687", "ref": "6805900002"}, "type": "Feature"}
{"dataset_attributes": {"@spider": "usps_collection_boxes", "spider:collection_time": "2023-11-01T08:25:09.026919"}, "geometry": {"coordinates": [-96.133466491, 41.082399], "type": "Point"}, "id": "zZnSNS_vC95rk9DY4YOUF5nYL2s=", "properties": {"@spider": "usps_collection_boxes", "addr:city": "SPRINGFIELD", "addr:country": "US", "addr:full": "160 N 2ND ST", "addr:postcode": "68059", "addr:state": "NE", "amenity": "post_box", "brand": "United States Postal Service", "brand:wikidata": "Q668687", "collection_times": "Mo-Fr 15:35; Sa 10:30", "name": "USPS COLLECTION BOX - PO LOBBY", "note": "ON 12/24 AND 12/31, THIS BOX MAY BE COLLECTED AS EARLY AS 12 NOON.", "nsi_id": "unitedstatespostalservice-a77078", "operator": "United States Postal Service", "operator:short": "USPS", "operator:type": "public", "operator:wikidata": "Q668687", "ref": "6805900005"}, "type": "Feature"}
{"dataset_attributes": {"@spider": "usps_collection_boxes", "spider:collection_time": "2023-11-01T08:25:09.026919"}, "geometry": {"coordinates": [-96.222594165, 41.775795844], "type": "Point"}, "id": "QDj9HHU8z7SIGMQkWpWduw2BLck=", "properties": {"@spider": "usps_collection_boxes", "addr:city": "TEKAMAH", "addr:country": "US", "addr:full": "315 S 14TH ST", "addr:postcode": "68061", "addr:state": "NE", "amenity": "post_box", "brand": "United States Postal Service", "brand:wikidata": "Q668687", "collection_times": "Mo-Fr 16:25; Sa 16:35", "name": "USPS COLLECTION BOX - BLUE BOX", "note": "ON 12/24 AND 12/31, THIS BOX MAY BE COLLECTED AS EARLY AS 12 NOON.", "nsi_id": "unitedstatespostalservice-a77078", "operator": "United States Postal Service", "operator:short": "USPS", "operator:type": "public", "operator:wikidata": "Q668687", "ref": "6806100004"}, "type": "Feature"}
{"dataset_attributes": {"@spider": "usps_collection_boxes", "spider:collection_time": "2023-11-01T08:25:09.026919"}, "geometry": {"coordinates": [-96.221566941, 41.77590295], "type": "Point"}, "id": "aCv4lCeY630OWlNHWnKs_9ElgxE=", "properties": {"@spider": "usps_collection_boxes", "addr:city": "TEKAMAH", "addr:country": "US", "addr:full": "1323 K ST", "addr:postcode": "68061", "addr:state": "NE", "amenity": "post_box", "brand": "United States Postal Service", "brand:wikidata": "Q668687", "collection_times": "Mo-Fr 16:15; Sa 10:15", "name": "USPS COLLECTION BOX - PO LOBBY", "note": "ON 12/24 AND 12/31, THIS BOX MAY BE COLLECTED AS EARLY AS 12 NOON.", "nsi_id": "unitedstatespostalservice-a77078", "operator": "United States Postal Service", "operator:short": "USPS", "operator:type": "public", "operator:wikidata": "Q668687", "ref": "6806100005"}, "type": "Feature"}
{"dataset_attributes": {"@spider": "usps_collection_boxes", "spider:collection_time": "2023-11-01T08:25:09.026919"}, "geometry": {"coordinates": [-96.221566941, 41.77590295], "type": "Point"}, "id": "LCgr8xyioDyQTW6fQMj3y8lZLzA=", "properties": {"@spider": "usps_collection_boxes", "addr:city": "TEKAMAH", "addr:country": "US", "addr:full": "1323 K ST", "addr:postcode": "68061", "addr:state": "NE", "amenity": "post_box", "brand": "United States Postal Service", "brand:wikidata": "Q668687", "collection_times": "Mo-Fr 16:15; Sa 10:15", "name": "USPS COLLECTION BOX - PO LOBBY", "note": "ON 12/24 AND 12/31, THIS BOX MAY BE COLLECTED AS EARLY AS 12 NOON.", "nsi_id": "unitedstatespostalservice-a77078", "operator": "United States Postal Service", "operator:short": "USPS", "operator:type": "public", "operator:wikidata": "Q668687", "ref": "6806100007"}, "type": "Feature"}
{"dataset_attributes": {"@spider": "usps_collection_boxes", "spider:collection_time": "2023-11-01T08:25:09.026919"}, "geometry": {"coordinates": [-96.700770632, 42.176909965], "type": "Point"}, "id": "IkNQDHTYC3URhiGltTiW02ZbyzQ=", "properties": {"@spider": "usps_collection_boxes", "addr:city": "THURSTON", "addr:country": "US", "addr:full": "111 S MAIN ST", "addr:postcode": "68062", "addr:state": "NE", "amenity": "post_box", "brand": "United States Postal Service", "brand:wikidata": "Q668687", "collection_times": "Mo-Fr 14:55; Sa 15:00", "name": "USPS COLLECTION BOX - BLUE BOX", "note": "ON 12/24 AND 12/31, THIS BOX MAY BE COLLECTED AS EARLY AS 12 NOON.", "nsi_id": "unitedstatespostalservice-a77078", "operator": "United States Postal Service", "operator:short": "USPS", "operator:type": "public", "operator:wikidata": "Q668687", "ref": "6806200001"}, "type": "Feature"}
{"dataset_attributes": {"@spider": "usps_collection_boxes", "spider:collection_time": "2023-11-01T08:25:09.026919"}, "geometry": {"coordinates": [-96.700770632, 42.176909965], "type": "Point"}, "id": "3fVW-2N08stukgpLgIlxlVhdmFc=", "properties": {"@spider": "usps_collection_boxes", "addr:city": "THURSTON", "addr:country": "US", "addr:full": "111 S MAIN ST", "addr:postcode": "68062", "addr:state": "NE", "amenity": "post_box", "brand": "United States Postal Service", "brand:wikidata": "Q668687", "collection_times": "Mo-Fr 12:00; Sa 09:30", "name": "USPS COLLECTION BOX - PO LOBBY", "nsi_id": "unitedstatespostalservice-a77078", "operator": "United States Postal Service", "operator:short": "USPS", "operator:type": "public", "operator:wikidata": "Q668687", "ref": "6806200002"}, "type": "Feature"}
{"dataset_attributes": {"@spider": "usps_collection_boxes", "spider:collection_time": "2023-11-01T08:25:09.026919"}, "geometry": {"coordinates": [-96.700770632, 42.176909965], "type": "Point"}, "id": "bcK3fiW4IrE7iXnutsNL6l3kLb0=", "properties": {"@spider": "usps_collection_boxes", "addr:city": "THURSTON", "addr:country": "US", "addr:full": "111 S MAIN ST", "addr:postcode": "68062", "addr:state": "NE", "amenity": "post_box", "brand": "United States Postal Service", "brand:wikidata": "Q668687", "collection_times": "Mo-Fr 12:00; Sa 09:30", "name": "USPS COLLECTION BOX - PO LOBBY", "nsi_id": "unitedstatespostalservice-a77078", "operator": "United States Postal Service", "operator:short": "USPS", "operator:type": "public", "operator:wikidata": "Q668687", "ref": "6806200005"}, "type": "Feature"}
{"dataset_attributes": {"@spider": "usps_collection_boxes", "spider:collection_time": "2023-11-01T08:25:09.026919"}, "geometry": {"coordinates": [-96.504978153, 41.7349304705], "type": "Point"}, "id": "7aKBYrIaWBU6EephExbTE_YtfoI=", "properties": {"@spider": "usps_collection_boxes", "addr:city": "UEHLING", "addr:country": "US", "addr:full": "406 MAIN ST", "addr:postcode": "68063", "addr:state": "NE", "amenity": "post_box", "brand": "United States Postal Service", "brand:wikidata": "Q668687", "collection_times": "Mo-Sa 15:20", "name": "USPS COLLECTION BOX - BLUE BOX", "note": "ON 12/24 AND 12/31, THIS BOX MAY BE COLLECTED AS EARLY AS 12 NOON.", "nsi_id": "unitedstatespostalservice-a77078", "operator": "United States Postal Service", "operator:short": "USPS", "operator:type": "public", "operator:wikidata": "Q668687", "ref": "6806300001"}, "type": "Feature"}
{"dataset_attributes": {"@spider": "usps_collection_boxes", "spider:collection_time": "2023-11-01T08:25:09.026919"}, "geometry": {"coordinates": [-96.504978153, 41.734930471], "type": "Point"}, "id": "fWhHABXtoNqt4ppoWYTv3Sq1XZg=", "properties": {"@spider": "usps_collection_boxes", "addr:city": "UEHLING", "addr:country": "US", "addr:full": "406 MAIN ST", "addr:postcode": "68063", "addr:state": "NE", "amenity": "post_box", "brand": "United States Postal Service", "brand:wikidata": "Q668687", "collection_times": "Mo-Fr 12:50; Sa 11:50", "name": "USPS COLLECTION BOX - PO LOBBY", "note": "ON 12/24 AND 12/31, THIS BOX MAY BE COLLECTED AS EARLY AS 12 NOON.", "nsi_id": "unitedstatespostalservice-a77078", "operator": "United States Postal Service", "operator:short": "USPS", "operator:type": "public", "operator:wikidata": "Q668687", "ref": "6806300002"}, "type": "Feature"}
{"dataset_attributes": {"@spider": "usps_collection_boxes", "spider:collection_time": "2023-11-01T08:25:09.026919"}, "geometry": {"coordinates": [-96.504978153, 41.734930471], "type": "Point"}, "id": "Nzy_J3Er1UHoGjX83Gpcoem1eTM=", "properties": {"@spider": "usps_collection_boxes", "addr:city": "UEHLING", "addr:country": "US", "addr:full": "406 MAIN ST", "addr:postcode": "68063", "addr:state": "NE", "amenity": "post_box", "brand": "United States Postal Service", "brand:wikidata": "Q668687", "collection_times": "Mo-Fr 12:50; Sa 11:50", "name": "USPS COLLECTION BOX - PO LOBBY", "note": "ON 12/24 AND 12/31, THIS BOX MAY BE COLLECTED AS EARLY AS 12 NOON.", "nsi_id": "unitedstatespostalservice-a77078", "operator": "United States Postal Service", "operator:short": "USPS", "operator:type": "public", "operator:wikidata": "Q668687", "ref": "6806300005"}, "type": "Feature"}
{"dataset_attributes": {"@spider": "usps_collection_boxes", "spider:collection_time": "2023-11-01T08:25:09.026919"}, "geometry": {"coordinates": [-96.344578531, 41.313564281], "type": "Point"}, "id": "y1Aai4yGsnjBiWfwB_MKhTUkILo=", "properties": {"@spider": "usps_collection_boxes", "addr:city": "VALLEY", "addr:country": "US", "addr:full": "108 E 2ND ST", "addr:postcode": "68064", "addr:state": "NE", "amenity": "post_box", "brand": "United States Postal Service", "brand:wikidata": "Q668687", "collection_times": "Mo-Fr 16:10; Sa 16:00", "name": "USPS COLLECTION BOX - BLUE BOX", "note": "ON 12/24 AND 12/31, THIS BOX MAY BE COLLECTED AS EARLY AS 12 NOON.", "nsi_id": "unitedstatespostalservice-a77078", "operator": "United States Postal Service", "operator:short": "USPS", "operator:type": "public", "operator:wikidata": "Q668687", "ref": "6806400001"}, "type": "Feature"}
{"dataset_attributes": {"@spider": "usps_collection_boxes", "spider:collection_time": "2023-11-01T08:25:09.026919"}, "geometry": {"coordinates": [-96.344578531, 41.313564281], "type": "Point"}, "id": "nRRcSKchgzfowhb7Fa6qxFVJQKM=", "properties": {"@spider": "usps_collection_boxes", "addr:city": "VALLEY", "addr:country": "US", "addr:full": "108 E 2ND ST", "addr:postcode": "68064", "addr:state": "NE", "amenity": "post_box", "brand": "United States Postal Service", "brand:wikidata": "Q668687", "collection_times": "Mo-Fr 16:00; Sa 10:00", "name": "USPS COLLECTION BOX - PO LOBBY", "note": "ON 12/24 AND 12/31, THIS BOX MAY BE COLLECTED AS EARLY AS 12 NOON.", "nsi_id": "unitedstatespostalservice-a77078", "operator": "United States Postal Service", "operator:short": "USPS", "operator:type": "public", "operator:wikidata": "Q668687", "ref": "6806400003"}, "type": "Feature"}
{"dataset_attributes": {"@spider": "usps_collection_boxes", "spider:collection_time": "2023-11-01T08:25:09.026919"}, "geometry": {"coordinates": [-96.344578531, 41.313564281], "type": "Point"}, "id": "GiEHDtiwHv8L_eVEVbQ85hych28=", "properties": {"@spider": "usps_collection_boxes", "addr:city": "VALLEY", "addr:country": "US", "addr:full": "108 E 2ND ST", "addr:postcode": "68064", "addr:state": "NE", "amenity": "post_box", "brand": "United States Postal Service", "brand:wikidata": "Q668687", "collection_times": "Mo-Fr 16:00; Sa 10:00", "name": "USPS COLLECTION BOX - PO LOBBY", "note": "ON 12/24 AND 12/31, THIS BOX MAY BE COLLECTED AS EARLY AS 12 NOON.", "nsi_id": "unitedstatespostalservice-a77078", "operator": "United States Postal Service", "operator:short": "USPS", "operator:type": "public", "operator:wikidata": "Q668687", "ref": "6806400005"}, "type": "Feature"}
{"dataset_attributes": {"@spider": "usps_collection_boxes", "spider:collection_time": "2023-11-01T08:25:09.026919"}, "geometry": {"coordinates": [-96.834318889, 41.082577418], "type": "Point"}, "id": "7LzRo_Ful1Hd-_M9AxT4nC7_eLc=", "properties": {"@spider": "usps_collection_boxes", "addr:city": "VALPARAISO", "addr:country": "US", "addr:full": "120 N PINE ST", "addr:postcode": "68065", "addr:state": "NE", "amenity": "post_box", "brand": "United States Postal Service", "brand:wikidata": "Q668687", "collection_times": "Mo-Sa 16:05", "name": "USPS COLLECTION BOX - BLUE BOX", "note": "ON 12/24 AND 12/31, THIS BOX MAY BE COLLECTED AS EARLY AS 12 NOON.", "nsi_id": "unitedstatespostalservice-a77078", "operator": "United States Postal Service", "operator:short": "USPS", "operator:type": "public", "operator:wikidata": "Q668687", "ref": "6806500001"}, "type": "Feature"}
{"dataset_attributes": {"@spider": "usps_collection_boxes", "spider:collection_time": "2023-11-01T08:25:09.026919"}, "geometry": {"coordinates": [-96.834318889, 41.082577418], "type": "Point"}, "id": "5lKRbDTQBgrU8N5vWxXSzXSSG54=", "properties": {"@spider": "usps_collection_boxes", "addr:city": "VALPARAISO", "addr:country": "US", "addr:full": "120 N PINE ST", "addr:postcode": "68065", "addr:state": "NE", "amenity": "post_box", "brand": "United States Postal Service", "brand:wikidata": "Q668687", "collection_times": "Mo-Fr 14:30; Sa 09:30", "name": "USPS COLLECTION BOX - PO LOBBY", "note": "ON 12/24 AND 12/31, THIS BOX MAY BE COLLECTED AS EARLY AS 12 NOON.", "nsi_id": "unitedstatespostalservice-a77078", "operator": "United States Postal Service", "operator:short": "USPS", "operator:type": "public", "operator:wikidata": "Q668687", "ref": "6806500002"}, "type": "Feature"}
{"dataset_attributes": {"@spider": "usps_collection_boxes", "spider:collection_time": "2023-11-01T08:25:09.026919"}, "geometry": {"coordinates": [-96.834318889, 41.082577418], "type": "Point"}, "id": "m3Hmj8uf7zijTtE8aYaQEX9P2QQ=", "properties": {"@spider": "usps_collection_boxes", "addr:city": "VALPARAISO", "addr:country": "US", "addr:full": "120 N PINE ST", "addr:postcode": "68065", "addr:state": "NE", "amenity": "post_box", "brand": "United States Postal Service", "brand:wikidata": "Q668687", "collection_times": "Mo-Fr 14:30; Sa 09:30", "name": "USPS COLLECTION BOX - PO LOBBY", "note": "ON 12/24 AND 12/31, THIS BOX MAY BE COLLECTED AS EARLY AS 12 NOON.", "nsi_id": "unitedstatespostalservice-a77078", "operator": "United States Postal Service", "operator:short": "USPS", "operator:type": "public", "operator:wikidata": "Q668687", "ref": "6806500005"}, "type": "Feature"}
{"dataset_attributes": {"@spider": "usps_collection_boxes", "spider:collection_time": "2023-11-01T08:25:09.026919"}, "geometry": {"coordinates": [-96.619261081, 41.211034479], "type": "Point"}, "id": "wKzfLxRBixDNItnFY-T6fIVnyDw=", "properties": {"@spider": "usps_collection_boxes", "addr:city": "WAHOO", "addr:country": "US", "addr:full": "134 E 6TH ST", "addr:postcode": "68066", "addr:state": "NE", "amenity": "post_box", "brand": "United States Postal Service", "brand:wikidata": "Q668687", "collection_times": "Mo-Fr 16:15; Sa 16:10", "name": "USPS COLLECTION BOX - BLUE BOX", "note": "ON 12/24 AND 12/31, THIS BOX MAY BE COLLECTED AS EARLY AS 12 NOON.", "nsi_id": "unitedstatespostalservice-a77078", "operator": "United States Postal Service", "operator:short": "USPS", "operator:type": "public", "operator:wikidata": "Q668687", "ref": "6806600001"}, "type": "Feature"}
{"dataset_attributes": {"@spider": "usps_collection_boxes", "spider:collection_time": "2023-11-01T08:25:09.026919"}, "geometry": {"coordinates": [-96.619261081, 41.211034479], "type": "Point"}, "id": "izumpVuQV3UHI8JoMbFI-VMFXcw=", "properties": {"@spider": "usps_collection_boxes", "addr:city": "WAHOO", "addr:country": "US", "addr:full": "134 E 6TH ST", "addr:postcode": "68066", "addr:state": "NE", "amenity": "post_box", "brand": "United States Postal Service", "brand:wikidata": "Q668687", "collection_times": "Mo-Fr 16:00; Sa 10:20", "name": "USPS COLLECTION BOX - PO LOBBY", "note": "ON 12/24 AND 12/31, THIS BOX MAY BE COLLECTED AS EARLY AS 12 NOON.", "nsi_id": "unitedstatespostalservice-a77078", "operator": "United States Postal Service", "operator:short": "USPS", "operator:type": "public", "operator:wikidata": "Q668687", "ref": "6806600013"}, "type": "Feature"}
{"dataset_attributes": {"@spider": "usps_collection_boxes", "spider:collection_time": "2023-11-01T08:25:09.026919"}, "geometry": {"coordinates": [-96.622870804, 41.210097461], "type": "Point"}, "id": "4-2cLiq3mRzPGUf7ey8OpgnzZi0=", "properties": {"@spider": "usps_collection_boxes", "addr:city": "WAHOO", "addr:country": "US", "addr:full": "314 W 5TH ST", "addr:postcode": "68066", "addr:state": "NE", "amenity": "post_box", "brand": "United States Postal Service", "brand:wikidata": "Q668687", "collection_times": "Mo-Sa 12:30", "name": "USPS COLLECTION BOX - BLUE BOX", "note": "ON 12/24 AND 12/31, THIS BOX MAY BE COLLECTED AS EARLY AS 12 NOON.", "nsi_id": "unitedstatespostalservice-a77078", "operator": "United States Postal Service", "operator:short": "USPS", "operator:type": "public", "operator:wikidata": "Q668687", "ref": "6806600015"}, "type": "Feature"}
{"dataset_attributes": {"@spider": "usps_collection_boxes", "spider:collection_time": "2023-11-01T08:25:09.026919"}, "geometry": {"coordinates": [-96.619261081, 41.211034479], "type": "Point"}, "id": "Ib0BZkm-TNeRgHD0sK5J54Y1Lmw=", "properties": {"@spider": "usps_collection_boxes", "addr:city": "WAHOO", "addr:country": "US", "addr:full": "134 E 6TH ST", "addr:postcode": "68066", "addr:state": "NE", "amenity": "post_box", "brand": "United States Postal Service", "brand:wikidata": "Q668687", "collection_times": "Mo-Fr 16:00; Sa 10:20", "name": "USPS COLLECTION BOX - PO LOBBY", "note": "ON 12/24 AND 12/31, THIS BOX MAY BE COLLECTED AS EARLY AS 12 NOON.", "nsi_id": "unitedstatespostalservice-a77078", "operator": "United States Postal Service", "operator:short": "USPS", "operator:type": "public", "operator:wikidata": "Q668687", "ref": "6806600017"}, "type": "Feature"}
{"dataset_attributes": {"@spider": "usps_collection_boxes", "spider:collection_time": "2023-11-01T08:25:09.026919"}, "geometry": {"coordinates": [-96.488716234, 42.148260314], "type": "Point"}, "id": "e9H5kW25jn8V5x3DEvjzc4QIpBo=", "properties": {"@spider": "usps_collection_boxes", "addr:city": "WALTHILL", "addr:country": "US", "addr:full": "316 MAIN ST", "addr:postcode": "68067", "addr:state": "NE", "amenity": "post_box", "brand": "United States Postal Service", "brand:wikidata": "Q668687", "collection_times": "Mo-Sa 15:55", "name": "USPS COLLECTION BOX - BLUE BOX", "note": "ON 12/24 AND 12/31, THIS BOX MAY BE COLLECTED AS EARLY AS 12 NOON.", "nsi_id": "unitedstatespostalservice-a77078", "operator": "United States Postal Service", "operator:short": "USPS", "operator:type": "public", "operator:wikidata": "Q668687", "ref": "6806700001"}, "type": "Feature"}
{"dataset_attributes": {"@spider": "usps_collection_boxes", "spider:collection_time": "2023-11-01T08:25:09.026919"}, "geometry": {"coordinates": [-96.488716234, 42.148260314], "type": "Point"}, "id": "_3Liap8SARXU8I3-kUCW8oCMQ_w=", "properties": {"@spider": "usps_collection_boxes", "addr:city": "WALTHILL", "addr:country": "US", "addr:full": "316 MAIN ST", "addr:postcode": "68067", "addr:state": "NE", "amenity": "post_box", "brand": "United States Postal Service", "brand:wikidata": "Q668687", "collection_times": "Mo-Fr 15:20; Sa 11:20", "name": "USPS COLLECTION BOX - PO LOBBY", "note": "ON 12/24 AND 12/31, THIS BOX MAY BE COLLECTED AS EARLY AS 12 NOON.", "nsi_id": "unitedstatespostalservice-a77078", "operator": "United States Postal Service", "operator:short": "USPS", "operator:type": "public", "operator:wikidata": "Q668687", "ref": "6806700002"}, "type": "Feature"}
{"dataset_attributes": {"@spider": "usps_collection_boxes", "spider:collection_time": "2023-11-01T08:25:09.026919"}, "geometry": {"coordinates": [-96.488716234, 42.148260314], "type": "Point"}, "id": "UmzCW44Wo1tUVXl42oQrpwa0OAU=", "properties": {"@spider": "usps_collection_boxes", "addr:city": "WALTHILL", "addr:country": "US", "addr:full": "316 MAIN ST", "addr:postcode": "68067", "addr:state": "NE", "amenity": "post_box", "brand": "United States Postal Service", "brand:wikidata": "Q668687", "collection_times": "Mo-Fr 15:20; Sa 11:20", "name": "USPS COLLECTION BOX - PO LOBBY", "note": "ON 12/24 AND 12/31, THIS BOX MAY BE COLLECTED AS EARLY AS 12 NOON.", "nsi_id": "unitedstatespostalservice-a77078", "operator": "United States Postal Service", "operator:short": "USPS", "operator:type": "public", "operator:wikidata": "Q668687", "ref": "6806700004"}, "type": "Feature"}
{"dataset_attributes": {"@spider": "usps_collection_boxes", "spider:collection_time": "2023-11-01T08:25:09.026919"}, "geometry": {"coordinates": [-96.2844080827, 41.2876019845], "type": "Point"}, "id": "msg_v2x9zHFUkrVXp04h-XCW5ao=", "properties": {"@spider": "usps_collection_boxes", "addr:city": "WATERLOO", "addr:country": "US", "addr:full": "206 WASHINGTON ST", "addr:postcode": "68069", "addr:state": "NE", "amenity": "post_box", "brand": "United States Postal Service", "brand:wikidata": "Q668687", "collection_times": "Mo-Fr 16:30; Sa 17:10", "name": "USPS COLLECTION BOX - BLUE BOX", "note": "ON 12/24 AND 12/31, THIS BOX MAY BE COLLECTED AS EARLY AS 12 NOON.", "nsi_id": "unitedstatespostalservice-a77078", "operator": "United States Postal Service", "operator:short": "USPS", "operator:type": "public", "operator:wikidata": "Q668687", "ref": "6806900001"}, "type": "Feature"}
{"dataset_attributes": {"@spider": "usps_collection_boxes", "spider:collection_time": "2023-11-01T08:25:09.026919"}, "geometry": {"coordinates": [-96.2844080827, 41.2876019845], "type": "Point"}, "id": "pPNiadd5bBp5GcraqBiGzC5ZLcQ=", "properties": {"@spider": "usps_collection_boxes", "addr:city": "WATERLOO", "addr:country": "US", "addr:full": "206 WASHINGTON ST", "addr:postcode": "68069", "addr:state": "NE", "amenity": "post_box", "brand": "United States Postal Service", "brand:wikidata": "Q668687", "collection_times": "Mo-Fr 16:30; Sa 10:00", "name": "USPS COLLECTION BOX - PO LOBBY", "note": "ON 12/24 AND 12/31, THIS BOX MAY BE COLLECTED AS EARLY AS 12 NOON.", "nsi_id": "unitedstatespostalservice-a77078", "operator": "United States Postal Service", "operator:short": "USPS", "operator:type": "public", "operator:wikidata": "Q668687", "ref": "6806900002"}, "type": "Feature"}
{"dataset_attributes": {"@spider": "usps_collection_boxes", "spider:collection_time": "2023-11-01T08:25:09.026919"}, "geometry": {"coordinates": [-96.2844080827, 41.2876019845], "type": "Point"}, "id": "y_oiuMf4G2jpAU9d8liRk1q_GYg=", "properties": {"@spider": "usps_collection_boxes", "addr:city": "WATERLOO", "addr:country": "US", "addr:full": "206 WASHINGTON ST", "addr:postcode": "68069", "addr:state": "NE", "amenity": "post_box", "brand": "United States Postal Service", "brand:wikidata": "Q668687", "collection_times": "Mo-Fr 16:30; Sa 10:00", "name": "USPS COLLECTION BOX - PO LOBBY", "note": "ON 12/24 AND 12/31, THIS BOX MAY BE COLLECTED AS EARLY AS 12 NOON.", "nsi_id": "unitedstatespostalservice-a77078", "operator": "United States Postal Service", "operator:short": "USPS", "operator:type": "public", "operator:wikidata": "Q668687", "ref": "6806900004"}, "type": "Feature"}
{"dataset_attributes": {"@spider": "usps_collection_boxes", "spider:collection_time": "2023-11-01T08:25:09.026919"}, "geometry": {"coordinates": [-96.744226986, 41.19255788], "type": "Point"}, "id": "t8ifaK5stNKxys-ZwXAlARW_DFo=", "properties": {"@spider": "usps_collection_boxes", "addr:city": "WESTON", "addr:country": "US", "addr:full": "345 ELM ST", "addr:postcode": "68070", "addr:state": "NE", "amenity": "post_box", "brand": "United States Postal Service", "brand:wikidata": "Q668687", "collection_times": "Mo-Sa 15:45", "name": "USPS COLLECTION BOX - BLUE BOX", "note": "ON 12/24 AND 12/31, THIS BOX MAY BE COLLECTED AS EARLY AS 12 NOON.", "nsi_id": "unitedstatespostalservice-a77078", "operator": "United States Postal Service", "operator:short": "USPS", "operator:type": "public", "operator:wikidata": "Q668687", "ref": "6807000001"}, "type": "Feature"}
{"dataset_attributes": {"@spider": "usps_collection_boxes", "spider:collection_time": "2023-11-01T08:25:09.026919"}, "geometry": {"coordinates": [-96.744226986, 41.19255788], "type": "Point"}, "id": "OjlqHkXBeA35DiDvauaRZ4XCgME=", "properties": {"@spider": "usps_collection_boxes", "addr:city": "WESTON", "addr:country": "US", "addr:full": "345 ELM ST", "addr:postcode": "68070", "addr:state": "NE", "amenity": "post_box", "brand": "United States Postal Service", "brand:wikidata": "Q668687", "collection_times": "Mo-Fr 11:30; Sa 08:45", "name": "USPS COLLECTION BOX - PO LOBBY", "nsi_id": "unitedstatespostalservice-a77078", "operator": "United States Postal Service", "operator:short": "USPS", "operator:type": "public", "operator:wikidata": "Q668687", "ref": "6807000002"}, "type": "Feature"}
{"dataset_attributes": {"@spider": "usps_collection_boxes", "spider:collection_time": "2023-11-01T08:25:09.026919"}, "geometry": {"coordinates": [-96.744226986, 41.19255788], "type": "Point"}, "id": "P7qobawryl05dz6veI2lY4X5IB0=", "properties": {"@spider": "usps_collection_boxes", "addr:city": "WESTON", "addr:country": "US", "addr:full": "345 ELM ST", "addr:postcode": "68070", "addr:state": "NE", "amenity": "post_box", "brand": "United States Postal Service", "brand:wikidata": "Q668687", "collection_times": "Mo-Fr 11:30; Sa 08:45", "name": "USPS COLLECTION BOX - PO LOBBY", "nsi_id": "unitedstatespostalservice-a77078", "operator": "United States Postal Service", "operator:short": "USPS", "operator:type": "public", "operator:wikidata": "Q668687", "ref": "6807000004"}, "type": "Feature"}
{"dataset_attributes": {"@spider": "usps_collection_boxes", "spider:collection_time": "2023-11-01T08:25:09.026919"}, "geometry": {"coordinates": [-96.472276712, 42.234629384], "type": "Point"}, "id": "EoDuDqGC8vzSH7pg3ACqFIvsIUY=", "properties": {"@spider": "usps_collection_boxes", "addr:city": "WINNEBAGO", "addr:country": "US", "addr:full": "100 BLUFF AVE", "addr:postcode": "68071", "addr:state": "NE", "amenity": "post_box", "brand": "United States Postal Service", "brand:wikidata": "Q668687", "collection_times": "Mo-Fr 15:30; Sa 15:40", "name": "USPS COLLECTION BOX - BLUE BOX", "note": "ON 12/24 AND 12/31, THIS BOX MAY BE COLLECTED AS EARLY AS 12 NOON.", "nsi_id": "unitedstatespostalservice-a77078", "operator": "United States Postal Service", "operator:short": "USPS", "operator:type": "public", "operator:wikidata": "Q668687", "ref": "6807100001"}, "type": "Feature"}
{"dataset_attributes": {"@spider": "usps_collection_boxes", "spider:collection_time": "2023-11-01T08:25:09.026919"}, "geometry": {"coordinates": [-96.472276712, 42.234629384], "type": "Point"}, "id": "GwnUhzgkN5F6RsLRJGGpY-qGC8w=", "properties": {"@spider": "usps_collection_boxes", "addr:city": "WINNEBAGO", "addr:country": "US", "addr:full": "100 BLUFF AVE", "addr:postcode": "68071", "addr:state": "NE", "amenity": "post_box", "brand": "United States Postal Service", "brand:wikidata": "Q668687", "collection_times": "Mo-Fr 15:00; Sa 11:00", "name": "USPS COLLECTION BOX - PO LOBBY", "note": "ON 12/24 AND 12/31, THIS BOX MAY BE COLLECTED AS EARLY AS 12 NOON.", "nsi_id": "unitedstatespostalservice-a77078", "operator": "United States Postal Service", "operator:short": "USPS", "operator:type": "public", "operator:wikidata": "Q668687", "ref": "6807100002"}, "type": "Feature"}
{"dataset_attributes": {"@spider": "usps_collection_boxes", "spider:collection_time": "2023-11-01T08:25:09.026919"}, "geometry": {"coordinates": [-96.472276712, 42.234629384], "type": "Point"}, "id": "OQy7fz6Qa2Pfkkz85OyPxvJ1Zdo=", "properties": {"@spider": "usps_collection_boxes", "addr:city": "WINNEBAGO", "addr:country": "US", "addr:full": "100 BLUFF AVE", "addr:postcode": "68071", "addr:state": "NE", "amenity": "post_box", "brand": "United States Postal Service", "brand:wikidata": "Q668687", "collection_times": "Mo-Fr 15:00; Sa 11:00", "name": "USPS COLLECTION BOX - PO LOBBY", "note": "ON 12/24 AND 12/31, THIS BOX MAY BE COLLECTED AS EARLY AS 12 NOON.", "nsi_id": "unitedstatespostalservice-a77078", "operator": "United States Postal Service", "operator:short": "USPS", "operator:type": "public", "operator:wikidata": "Q668687", "ref": "6807100004"}, "type": "Feature"}
{"dataset_attributes": {"@spider": "usps_collection_boxes", "spider:collection_time": "2023-11-01T08:25:09.026919"}, "geometry": {"coordinates": [-96.396093504, 41.244792891], "type": "Point"}, "id": "1ik4JWVS2dyGuCw_SN4SMt3OXEg=", "properties": {"@spider": "usps_collection_boxes", "addr:city": "YUTAN", "addr:country": "US", "addr:full": "502 1ST ST", "addr:postcode": "68073", "addr:state": "NE", "amenity": "post_box", "brand": "United States Postal Service", "brand:wikidata": "Q668687", "collection_times": "Mo-Sa 17:00", "name": "USPS COLLECTION BOX - BLUE BOX", "note": "ON 12/24 AND 12/31, THIS BOX MAY BE COLLECTED AS EARLY AS 12 NOON.", "nsi_id": "unitedstatespostalservice-a77078", "operator": "United States Postal Service", "operator:short": "USPS", "operator:type": "public", "operator:wikidata": "Q668687", "ref": "6807300001"}, "type": "Feature"}
{"dataset_attributes": {"@spider": "usps_collection_boxes", "spider:collection_time": "2023-11-01T08:25:09.026919"}, "geometry": {"coordinates": [-96.395021916, 41.233810472], "type": "Point"}, "id": "HWnErhgWDPSAo9yaoa-Z5E6zmsk=", "properties": {"@spider": "usps_collection_boxes", "addr:city": "YUTAN", "addr:country": "US", "addr:full": "546 COUNTY ROAD M", "addr:postcode": "68073", "addr:state": "NE", "amenity": "post_box", "brand": "United States Postal Service", "brand:wikidata": "Q668687", "collection_times": "Mo-Sa 12:00", "name": "USPS COLLECTION BOX - BLUE BOX", "nsi_id": "unitedstatespostalservice-a77078", "operator": "United States Postal Service", "operator:short": "USPS", "operator:type": "public", "operator:wikidata": "Q668687", "ref": "6807300002"}, "type": "Feature"}
{"dataset_attributes": {"@spider": "usps_collection_boxes", "spider:collection_time": "2023-11-01T08:25:09.026919"}, "geometry": {"coordinates": [-96.396093504, 41.244792891], "type": "Point"}, "id": "-TZ-9ntCkF7Btd57sO6F73Ojq1U=", "properties": {"@spider": "usps_collection_boxes", "addr:city": "YUTAN", "addr:country": "US", "addr:full": "502 1ST ST", "addr:postcode": "68073", "addr:state": "NE", "amenity": "post_box", "brand": "United States Postal Service", "brand:wikidata": "Q668687", "collection_times": "Mo-Fr 14:00; Sa 09:00", "name": "USPS COLLECTION BOX - PO LOBBY", "note": "ON 12/24 AND 12/31, THIS BOX MAY BE COLLECTED AS EARLY AS 12 NOON.", "nsi_id": "unitedstatespostalservice-a77078", "operator": "United States Postal Service", "operator:short": "USPS", "operator:type": "public", "operator:wikidata": "Q668687", "ref": "6807300003"}, "type": "Feature"}
{"dataset_attributes": {"@spider": "usps_collection_boxes", "spider:collection_time": "2023-11-01T08:25:09.026919"}, "geometry": {"coordinates": [-96.396093504, 41.244792891], "type": "Point"}, "id": "Z7874WrOE1U64B9rfuLi31zy_Z8=", "properties": {"@spider": "usps_collection_boxes", "addr:city": "YUTAN", "addr:country": "US", "addr:full": "502 1ST ST", "addr:postcode": "68073", "addr:state": "NE", "amenity": "post_box", "brand": "United States Postal Service", "brand:wikidata": "Q668687", "collection_times": "Mo-Fr 14:00; Sa 09:00", "name": "USPS COLLECTION BOX - PO LOBBY", "note": "ON 12/24 AND 12/31, THIS BOX MAY BE COLLECTED AS EARLY AS 12 NOON.", "nsi_id": "unitedstatespostalservice-a77078", "operator": "United States Postal Service", "operator:short": "USPS", "operator:type": "public", "operator:wikidata": "Q668687", "ref": "6807300005"}, "type": "Feature"}
