{"geometry": {"coordinates": [-95.9295233557, 41.2575346841], "type": "Point"}, "id": "OzWLz15Jq7_zZiHc5RGivbFjtJs=", "properties": {"@source_uri": "https://tools.usps.com/UspsToolsRestServices/rest/POLocator/findLocations", "@spider": "usps_collection_boxes", "addr:city": "OMAHA", "addr:country": "US", "addr:postcode": "68102", "addr:state": "NE", "addr:street_address": "1001 FARNAM ST", "amenity": "post_box", "collection_times": "Mo-Sa 09:00", "nsi_id": "unitedstatespostalservice-a77078", "operator": "United States Postal Service", "operator:short": "USPS", "operator:type": "public", "operator:wikidata": "Q668687", "ref": "6810200003"}, "type": "Feature"}
{"geometry": {"coordinates": [-95.933016, 41.257242], "type": "Point"}, "id": "PUGXntk1h3FPOyTcymrNjaNj2GM=", "properties": {"@source_uri": "https://tools.usps.com/UspsToolsRestServices/rest/POLocator/findLocations", "@spider": "usps_collection_boxes", "addr:city": "OMAHA", "addr:country": "US", "addr:postcode": "68102", "addr:state": "NE", "addr:street_address": "1299 FARNAM ST", "amenity": "post_box", "collection_times": "Mo-Sa 09:00", "nsi_id": "unitedstatespostalservice-a77078", "operator": "United States Postal Service", "operator:short": "USPS", "operator:type": "public", "operator:wikidata": "Q668687", "ref": "6810200009"}, "type": "Feature"}
{"geometry": {"coordinates": [-95.94117813, 41.258465413], "type": "Point"}, "id": "D_VcCUfDBQP_cHtHKIWR6CZ6Z1g=", "properties": {"@source_uri": "https://tools.usps.com/UspsToolsRestServices/rest/POLocator/findLocations", "@spider": "usps_collection_boxes", "addr:city": "OMAHA", "addr:country": "US", "addr:postcode": "68102", "addr:state": "NE", "addr:street_address": "206 S 19TH ST", "amenity": "post_box", "collection_times": "Mo-Sa 10:00", "nsi_id": "unitedstatespostalservice-a77078", "operator": "United States Postal Service", "operator:short": "USPS", "operator:type": "public", "operator:wikidata": "Q668687", "ref": "6810200077"}, "type": "Feature"}
{"geometry": {"coordinates": [-95.9406885, 41.25834], "type": "Point"}, "id": "6kziCWOYCE62KHqPnaCNJuG7ZQ4=", "properties": {"@source_uri": "https://tools.usps.com/UspsToolsRestServices/rest/POLocator/findLocations", "@spider": "usps_collection_boxes", "addr:city": "OMAHA", "addr:country": "US", "addr:postcode": "68102", "addr:state": "NE", "addr:street_address": "209 S 19TH ST", "amenity": "post_box", "collection_times": "Mo-Fr 08:45", "nsi_id": "unitedstatespostalservice-a77078", "operator": "United States Postal Service", "operator:short": "USPS", "operator:type": "public", "operator:wikidata": "Q668687", "ref": "6810200080"}, "type": "Feature"}
{"geometry": {"coordinates": [-95.941827, 41.257551468], "type": "Point"}, "id": "mTFjoueVXQn3Lsxb2lstnXWd2ow=", "properties": {"@source_uri": "https://tools.usps.com/UspsToolsRestServices/rest/POLocator/findLocations", "@spider": "usps_collection_boxes", "addr:city": "OMAHA", "addr:country": "US", "addr:postcode": "68102", "addr:state": "NE", "addr:street_address": "1913 FARNAM ST", "amenity": "post_box", "collection_times": "Mo-Sa 10:00", "nsi_id": "unitedstatespostalservice-a77078", "operator": "United States Postal Service", "operator:short": "USPS", "operator:type": "public", "operator:wikidata": "Q668687", "ref": "6810200083"}, "type": "Feature"}
{"geometry": {"coordinates": [-95.941224, 41.256459], "type": "Point"}, "id": "rjdFf8n40pP1x00acTdO94rSYVg=", "properties": {"@source_uri": "https://tools.usps.com/UspsToolsRestServices/rest/POLocator/findLocations", "@spider": "usps_collection_boxes", "addr:city": "OMAHA", "addr:country": "US", "addr:postcode": "68102", "addr:state": "NE", "addr:street_address": "1905 HARNEY ST", "amenity": "post_box", "collection_times": "Mo-Sa 10:30", "nsi_id": "unitedstatespostalservice-a77078", "operator": "United States Postal Service", "operator:short": "USPS", "operator:type": "public", "operator:wikidata": "Q668687", "ref": "6810200089"}, "type": "Feature"}
{"geometry": {"coordinates": [-95.9430015, 41.255577], "type": "Point"}, "id": "uEzgmQxCdt4De01OE6eXZxVptY8=", "properties": {"@source_uri": "https://tools.usps.com/UspsToolsRestServices/rest/POLocator/findLocations", "@spider": "usps_collection_boxes", "addr:city": "OMAHA", "addr:country": "US", "addr:postcode": "68102", "addr:state": "NE", "addr:street_address": "430 S 20TH ST", "amenity": "post_box", "collection_times": "Mo-Sa 10:30", "nsi_id": "unitedstatespostalservice-a77078", "operator": "United States Postal Service", "operator:short": "USPS", "operator:type": "public", "operator:wikidata": "Q668687", "ref": "6810200094"}, "type": "Feature"}
{"geometry": {"coordinates": [-95.946916586, 41.258775004], "type": "Point"}, "id": "w3s6hvaMLWRPe6tllOLCfYf00Cw=", "properties": {"@source_uri": "https://tools.usps.com/UspsToolsRestServices/rest/POLocator/findLocations", "@spider": "usps_collection_boxes", "addr:city": "OMAHA", "addr:country": "US", "addr:postcode": "68102", "addr:state": "NE", "addr:street_address": "120 S 24TH ST", "amenity": "post_box", "collection_times": "Mo-Fr 09:30", "nsi_id": "unitedstatespostalservice-a77078", "operator": "United States Postal Service", "operator:short": "USPS", "operator:type": "public", "operator:wikidata": "Q668687", "ref": "6810200128"}, "type": "Feature"}
{"geometry": {"coordinates": [-95.945260943, 41.259740503], "type": "Point"}, "id": "YGGpB1yYE8aU88kppvZbCIcowIA=", "properties": {"@source_uri": "https://tools.usps.com/UspsToolsRestServices/rest/POLocator/findLocations", "@spider": "usps_collection_boxes", "addr:city": "OMAHA", "addr:country": "US", "addr:postcode": "68102", "addr:state": "NE", "addr:street_address": "2027 DODGE ST", "amenity": "post_box", "collection_times": "Mo-Fr 09:15", "nsi_id": "unitedstatespostalservice-a77078", "operator": "United States Postal Service", "operator:short": "USPS", "operator:type": "public", "operator:wikidata": "Q668687", "ref": "6810200134"}, "type": "Feature"}
{"geometry": {"coordinates": [-95.939909717, 41.258713217], "type": "Point"}, "id": "Bjq0Pu6Oa3rkG0aELAqiQnZ6p8E=", "properties": {"@source_uri": "https://tools.usps.com/UspsToolsRestServices/rest/POLocator/findLocations", "@spider": "usps_collection_boxes", "addr:city": "OMAHA", "addr:country": "US", "addr:postcode": "68102", "addr:state": "NE", "addr:street_address": "1800 DOUGLAS ST", "amenity": "post_box", "collection_times": "Mo-Fr 09:00", "nsi_id": "unitedstatespostalservice-a77078", "operator": "United States Postal Service", "operator:short": "USPS", "operator:type": "public", "operator:wikidata": "Q668687", "ref": "6810200141"}, "type": "Feature"}
{"geometry": {"coordinates": [-95.9375216, 41.259724], "type": "Point"}, "id": "ZPp0c50gG7vIMSvel9YVUnRYvXc=", "properties": {"@source_uri": "https://tools.usps.com/UspsToolsRestServices/rest/POLocator/findLocations", "@spider": "usps_collection_boxes", "addr:city": "OMAHA", "addr:country": "US", "addr:postcode": "68102", "addr:state": "NE", "addr:street_address": "1617 FARNAM ST", "amenity": "post_box", "collection_times": "Mo-Fr 16:30", "indoor": "yes", "note": "ON 12/24 AND 12/31, THIS BOX MAY BE COLLECTED AS EARLY AS 12 NOON.", "nsi_id": "unitedstatespostalservice-a77078", "operator": "United States Postal Service", "operator:short": "USPS", "operator:type": "public", "operator:wikidata": "Q668687", "ref": "6810200144"}, "type": "Feature"}
{"geometry": {"coordinates": [-95.9375216, 41.259724], "type": "Point"}, "id": "kRFHP_C0VYNVwcqnLSSjcipOQ2Q=", "properties": {"@source_uri": "https://tools.usps.com/UspsToolsRestServices/rest/POLocator/findLocations", "@spider": "usps_collection_boxes", "addr:city": "OMAHA", "addr:country": "US", "addr:postcode": "68102", "addr:state": "NE", "addr:street_address": "1617 FARNAM ST", "amenity": "post_box", "collection_times": "Mo-Fr 16:30", "indoor": "yes", "note": "ON 12/24 AND 12/31, THIS BOX MAY BE COLLECTED AS EARLY AS 12 NOON.", "nsi_id": "unitedstatespostalservice-a77078", "operator": "United States Postal Service", "operator:short": "USPS", "operator:type": "public", "operator:wikidata": "Q668687", "ref": "6810200145"}, "type": "Feature"}
{"geometry": {"coordinates": [-95.9375216, 41.259724], "type": "Point"}, "id": "mMQ_JYkkwCAqYxk1XKuAeCC3dRo=", "properties": {"@source_uri": "https://tools.usps.com/UspsToolsRestServices/rest/POLocator/findLocations", "@spider": "usps_collection_boxes", "addr:city": "OMAHA", "addr:country": "US", "addr:postcode": "68102", "addr:state": "NE", "addr:street_address": "1617 FARNAM ST", "amenity": "post_box", "collection_times": "Mo-Fr 16:30", "indoor": "yes", "note": "ON 12/24 AND 12/31, THIS BOX MAY BE COLLECTED AS EARLY AS 12 NOON.", "nsi_id": "unitedstatespostalservice-a77078", "operator": "United States Postal Service", "operator:short": "USPS", "operator:type": "public", "operator:wikidata": "Q668687", "ref": "6810200146"}, "type": "Feature"}
{"geometry": {"coordinates": [-95.9375216, 41.259724], "type": "Point"}, "id": "AOQYdaxu4FVAXwJ0TngziR6in-c=", "properties": {"@source_uri": "https://tools.usps.com/UspsToolsRestServices/rest/POLocator/findLocations", "@spider": "usps_collection_boxes", "addr:city": "OMAHA", "addr:country": "US", "addr:postcode": "68102", "addr:state": "NE", "addr:street_address": "1617 FARNAM ST", "amenity": "post_box", "collection_times": "Mo-Fr 16:30", "indoor": "yes", "note": "ON 12/24 AND 12/31, THIS BOX MAY BE COLLECTED AS EARLY AS 12 NOON.", "nsi_id": "unitedstatespostalservice-a77078", "operator": "United States Postal Service", "operator:short": "USPS", "operator:type": "public", "operator:wikidata": "Q668687", "ref": "6810200149"}, "type": "Feature"}
{"geometry": {"coordinates": [-95.9338649623, 41.2571039895], "type": "Point"}, "id": "223Uec-mAAZ9T7X9-zGZBcz9JKA=", "properties": {"@source_uri": "https://tools.usps.com/UspsToolsRestServices/rest/POLocator/findLocations", "@spider": "usps_collection_boxes", "addr:city": "OMAHA", "addr:country": "US", "addr:postcode": "68102", "addr:state": "NE", "addr:street_address": "1313 FARNAM ST", "amenity": "post_box", "collection_times": "Mo-Sa 10:00", "nsi_id": "unitedstatespostalservice-a77078", "operator": "United States Postal Service", "operator:short": "USPS", "operator:type": "public", "operator:wikidata": "Q668687", "ref": "6810200161"}, "type": "Feature"}
{"geometry": {"coordinates": [-96.0092070401, 41.2847540021], "type": "Point"}, "id": "ZbQ4CxoN5ST7s9epHQLHw1K7lW0=", "properties": {"@source_uri": "https://tools.usps.com/UspsToolsRestServices/rest/POLocator/findLocations", "@spider": "usps_collection_boxes", "addr:city": "OMAHA", "addr:country": "US", "addr:postcode": "68104", "addr:state": "NE", "addr:street_address": "6223 MAPLE ST", "amenity": "post_box", "collection_times": "Mo-Fr 17:15; Sa 16:45", "note": "ON 12/24 AND 12/31, THIS BOX MAY BE COLLECTED AS EARLY AS 12 NOON.", "nsi_id": "unitedstatespostalservice-a77078", "operator": "United States Postal Service", "operator:short": "USPS", "operator:type": "public", "operator:wikidata": "Q668687", "ref": "6810400002"}, "type": "Feature"}
{"geometry": {"coordinates": [-96.004727439, 41.285673], "type": "Point"}, "id": "48mFAilwQKa1dxKTAiqe0bMWO34=", "properties": {"@source_uri": "https://tools.usps.com/UspsToolsRestServices/rest/POLocator/findLocations", "@spider": "usps_collection_boxes", "addr:city": "OMAHA", "addr:country": "US", "addr:postcode": "68104", "addr:state": "NE", "addr:street_address": "2929 N 60TH ST", "amenity": "post_box", "collection_times": "Mo-Sa 10:30", "nsi_id": "unitedstatespostalservice-a77078", "operator": "United States Postal Service", "operator:short": "USPS", "operator:type": "public", "operator:wikidata": "Q668687", "ref": "6810400016"}, "type": "Feature"}
{"geometry": {"coordinates": [-96.004536497, 41.311674714], "type": "Point"}, "id": "yUFOvqdMlvbh4XRQYmV1_XjQIuU=", "properties": {"@source_uri": "https://tools.usps.com/UspsToolsRestServices/rest/POLocator/findLocations", "@spider": "usps_collection_boxes", "addr:city": "OMAHA", "addr:country": "US", "addr:postcode": "68104", "addr:state": "NE", "addr:street_address": "5811 N 60TH ST", "amenity": "post_box", "collection_times": "Mo-Sa 10:30", "nsi_id": "unitedstatespostalservice-a77078", "operator": "United States Postal Service", "operator:short": "USPS", "operator:type": "public", "operator:wikidata": "Q668687", "ref": "6810400017"}, "type": "Feature"}
{"geometry": {"coordinates": [-96.019622659, 41.315898384], "type": "Point"}, "id": "jowlTAhMUT7I15jQadLkc-clxyg=", "properties": {"@source_uri": "https://tools.usps.com/UspsToolsRestServices/rest/POLocator/findLocations", "@spider": "usps_collection_boxes", "addr:city": "OMAHA", "addr:country": "US", "addr:postcode": "68104", "addr:state": "NE", "addr:street_address": "6404 N 70TH PLZ", "amenity": "post_box", "collection_times": "Mo-Sa 11:00", "nsi_id": "unitedstatespostalservice-a77078", "operator": "United States Postal Service", "operator:short": "USPS", "operator:type": "public", "operator:wikidata": "Q668687", "ref": "6810400018"}, "type": "Feature"}
{"geometry": {"coordinates": [-96.009173026, 41.284972521], "type": "Point"}, "id": "R9EwFYHJPNhaDwS6EwPF8gTBCLY=", "properties": {"@source_uri": "https://tools.usps.com/UspsToolsRestServices/rest/POLocator/findLocations", "@spider": "usps_collection_boxes", "addr:city": "OMAHA", "addr:country": "US", "addr:postcode": "68104", "addr:state": "NE", "addr:street_address": "6223 MAPLE ST", "amenity": "post_box", "collection_times": "Mo-Fr 17:15; Sa 16:45", "indoor": "yes", "note": "ON 12/24 AND 12/31, THIS BOX MAY BE COLLECTED AS EARLY AS 12 NOON.", "nsi_id": "unitedstatespostalservice-a77078", "operator": "United States Postal Service", "operator:short": "USPS", "operator:type": "public", "operator:wikidata": "Q668687", "ref": "6810400026"}, "type": "Feature"}
{"geometry": {"coordinates": [-96.009173026, 41.284972521], "type": "Point"}, "id": "gVA5T--Hct1dujvEFHbJj0NemxQ=", "properties": {"@source_uri": "https://tools.usps.com/UspsToolsRestServices/rest/POLocator/findLocations", "@spider": "usps_collection_boxes", "addr:city": "OMAHA", "addr:country": "US", "addr:postcode": "68104", "addr:state": "NE", "addr:street_address": "6223 MAPLE ST", "amenity": "post_box", "collection_times": "Mo-Fr 17:15; Sa 16:45", "indoor": "yes", "note": "ON 12/24 AND 12/31, THIS BOX MAY BE COLLECTED AS EARLY AS 12 NOON.", "nsi_id": "unitedstatespostalservice-a77078", "operator": "United States Postal Service", "operator:short": "USPS", "operator:type": "public", "operator:wikidata": "Q668687", "ref": "6810400027"}, "type": "Feature"}
{"geometry": {"coordinates": [-95.957014361, 41.25248625], "type": "Point"}, "id": "Qis9v_J1tEypByXCxL5WVaPUJ5Q=", "properties": {"@source_uri": "https://tools.usps.com/UspsToolsRestServices/rest/POLocator/findLocations", "@spider": "usps_collection_boxes", "addr:city": "OMAHA", "addr:country": "US", "addr:postcode": "68105", "addr:state": "NE", "addr:street_address": "3030 LEAVENWORTH ST", "amenity": "post_box", "collection_times": "Mo-Sa 11:00", "nsi_id": "unitedstatespostalservice-a77078", "operator": "United States Postal Service", "operator:short": "USPS", "operator:type": "public", "operator:wikidata": "Q668687", "ref": "6810500000"}, "type": "Feature"}
{"geometry": {"coordinates": [-95.960461707, 41.231228637], "type": "Point"}, "id": "4h36T_fa3NXatVCqjuytFmgXO78=", "properties": {"@source_uri": "https://tools.usps.com/UspsToolsRestServices/rest/POLocator/findLocations", "@spider": "usps_collection_boxes", "addr:city": "OMAHA", "addr:country": "US", "addr:postcode": "68105", "addr:state": "NE", "addr:street_address": "3052 S 32ND AVE", "amenity": "post_box", "collection_times": "Mo-Sa 12:00", "nsi_id": "unitedstatespostalservice-a77078", "operator": "United States Postal Service", "operator:short": "USPS", "operator:type": "public", "operator:wikidata": "Q668687", "ref": "6810500006"}, "type": "Feature"}
{"geometry": {"coordinates": [-95.97578545, 41.239548], "type": "Point"}, "id": "7WMY6H0qY-MAYl-A2v9wSTbhA4A=", "properties": {"@source_uri": "https://tools.usps.com/UspsToolsRestServices/rest/POLocator/findLocations", "@spider": "usps_collection_boxes", "addr:city": "OMAHA", "addr:country": "US", "addr:postcode": "68105", "addr:state": "NE", "addr:street_address": "2101 S 42ND ST", "amenity": "post_box", "collection_times": "Mo-Fr 09:30", "nsi_id": "unitedstatespostalservice-a77078", "operator": "United States Postal Service", "operator:short": "USPS", "operator:type": "public", "operator:wikidata": "Q668687", "ref": "6810500011"}, "type": "Feature"}
{"geometry": {"coordinates": [-95.975735634, 41.247729412], "type": "Point"}, "id": "almUvIyJfGe4-IamlLi9-a881Jk=", "properties": {"@source_uri": "https://tools.usps.com/UspsToolsRestServices/rest/POLocator/findLocations", "@spider": "usps_collection_boxes", "addr:city": "OMAHA", "addr:country": "US", "addr:postcode": "68105", "addr:state": "NE", "addr:street_address": "1215 S 42ND ST", "amenity": "post_box", "collection_times": "Mo-Sa 10:30", "nsi_id": "unitedstatespostalservice-a77078", "operator": "United States Postal Service", "operator:short": "USPS", "operator:type": "public", "operator:wikidata": "Q668687", "ref": "6810500014"}, "type": "Feature"}
{"geometry": {"coordinates": [-95.947492149, 41.252374521], "type": "Point"}, "id": "VP3zEQpIRLh8C6mR4ye2Bb9Rmj0=", "properties": {"@source_uri": "https://tools.usps.com/UspsToolsRestServices/rest/POLocator/findLocations", "@spider": "usps_collection_boxes", "addr:city": "OMAHA", "addr:country": "US", "addr:postcode": "68105", "addr:state": "NE", "addr:street_address": "2401 LEAVENWORTH ST", "amenity": "post_box", "collection_times": "Mo-Sa 10:30", "nsi_id": "unitedstatespostalservice-a77078", "operator": "United States Postal Service", "operator:short": "USPS", "operator:type": "public", "operator:wikidata": "Q668687", "ref": "6810500021"}, "type": "Feature"}
{"geometry": {"coordinates": [-95.973883182, 41.245215515], "type": "Point"}, "id": "CR6pXIZ8Boc7biy1BwIXfYLzsss=", "properties": {"@source_uri": "https://tools.usps.com/UspsToolsRestServices/rest/POLocator/findLocations", "@spider": "usps_collection_boxes", "addr:city": "OMAHA", "addr:country": "US", "addr:postcode": "68105", "addr:state": "NE", "addr:street_address": "4102 WOOLWORTH AVE", "amenity": "post_box", "collection_times": "Mo-Sa 09:30", "nsi_id": "unitedstatespostalservice-a77078", "operator": "United States Postal Service", "operator:short": "USPS", "operator:type": "public", "operator:wikidata": "Q668687", "ref": "6810500035"}, "type": "Feature"}
{"geometry": {"coordinates": [-96.014575134, 41.24139746], "type": "Point"}, "id": "PzW_Lyg2fECcOor_f_JUk9MtMAc=", "properties": {"@source_uri": "https://tools.usps.com/UspsToolsRestServices/rest/POLocator/findLocations", "@spider": "usps_collection_boxes", "addr:city": "OMAHA", "addr:country": "US", "addr:postcode": "68106", "addr:state": "NE", "addr:street_address": "1911 S 67TH ST", "amenity": "post_box", "collection_times": "Mo-Fr 10:00", "nsi_id": "unitedstatespostalservice-a77078", "operator": "United States Postal Service", "operator:short": "USPS", "operator:type": "public", "operator:wikidata": "Q668687", "ref": "6810600003"}, "type": "Feature"}
{"geometry": {"coordinates": [-96.020841526, 41.248771454], "type": "Point"}, "id": "yyCndyh4LeItS1ImP-Y7aMHllZc=", "properties": {"@source_uri": "https://tools.usps.com/UspsToolsRestServices/rest/POLocator/findLocations", "@spider": "usps_collection_boxes", "addr:city": "OMAHA", "addr:country": "US", "addr:postcode": "68106", "addr:state": "NE", "addr:street_address": "6910 PACIFIC ST", "amenity": "post_box", "collection_times": "Mo-Fr 09:30", "nsi_id": "unitedstatespostalservice-a77078", "operator": "United States Postal Service", "operator:short": "USPS", "operator:type": "public", "operator:wikidata": "Q668687", "ref": "6810600010"}, "type": "Feature"}
{"geometry": {"coordinates": [-96.004787042, 41.245397497], "type": "Point"}, "id": "-p1m9hqsNESEAmyFcRDJWTkcHo8=", "properties": {"@source_uri": "https://tools.usps.com/UspsToolsRestServices/rest/POLocator/findLocations", "@spider": "usps_collection_boxes", "addr:city": "OMAHA", "addr:country": "US", "addr:postcode": "68106", "addr:state": "NE", "addr:street_address": "1418 S 60TH ST", "amenity": "post_box", "collection_times": "Mo-Sa 09:00", "nsi_id": "unitedstatespostalservice-a77078", "operator": "United States Postal Service", "operator:short": "USPS", "operator:type": "public", "operator:wikidata": "Q668687", "ref": "6810600012"}, "type": "Feature"}
{"geometry": {"coordinates": [-95.98643642, 41.250735122], "type": "Point"}, "id": "0WkNCfMaFg0-H7vZk6poeWYTXfg=", "properties": {"@source_uri": "https://tools.usps.com/UspsToolsRestServices/rest/POLocator/findLocations", "@spider": "usps_collection_boxes", "addr:city": "OMAHA", "addr:country": "US", "addr:postcode": "68106", "addr:state": "NE", "addr:street_address": "888 S SADDLE CREEK RD", "amenity": "post_box", "collection_times": "Mo-Sa 09:30", "nsi_id": "unitedstatespostalservice-a77078", "operator": "United States Postal Service", "operator:short": "USPS", "operator:type": "public", "operator:wikidata": "Q668687", "ref": "6810600015"}, "type": "Feature"}
{"geometry": {"coordinates": [-95.995064468, 41.251616413], "type": "Point"}, "id": "NSTaHY62U9CH923S-Sw6d4bpLio=", "properties": {"@source_uri": "https://tools.usps.com/UspsToolsRestServices/rest/POLocator/findLocations", "@spider": "usps_collection_boxes", "addr:city": "OMAHA", "addr:country": "US", "addr:postcode": "68106", "addr:state": "NE", "addr:street_address": "801 S 52ND ST", "amenity": "post_box", "collection_times": "Mo-Sa 14:30", "note": "ON 12/24 AND 12/31, THIS BOX MAY BE COLLECTED AS EARLY AS 12 NOON.", "nsi_id": "unitedstatespostalservice-a77078", "operator": "United States Postal Service", "operator:short": "USPS", "operator:type": "public", "operator:wikidata": "Q668687", "ref": "6810600017"}, "type": "Feature"}
{"geometry": {"coordinates": [-95.9956425, 41.252397504], "type": "Point"}, "id": "pqybQszuIXPioGn7qk7TAYw8PK0=", "properties": {"@source_uri": "https://tools.usps.com/UspsToolsRestServices/rest/POLocator/findLocations", "@spider": "usps_collection_boxes", "addr:city": "OMAHA", "addr:country": "US", "addr:postcode": "68106", "addr:state": "NE", "addr:street_address": "5188 LEAVENWORTH ST", "amenity": "post_box", "collection_times": "Mo-Sa 10:00", "nsi_id": "unitedstatespostalservice-a77078", "operator": "United States Postal Service", "operator:short": "USPS", "operator:type": "public", "operator:wikidata": "Q668687", "ref": "6810600018"}, "type": "Feature"}
{"geometry": {"coordinates": [-95.990938338, 41.226887864], "type": "Point"}, "id": "HUfQpyKXBuhjq4jPw2anb6GepLI=", "properties": {"@source_uri": "https://tools.usps.com/UspsToolsRestServices/rest/POLocator/findLocations", "@spider": "usps_collection_boxes", "addr:city": "OMAHA", "addr:country": "US", "addr:postcode": "68106", "addr:state": "NE", "addr:street_address": "5023 GROVER ST", "amenity": "post_box", "collection_times": "Mo-Sa 10:30", "nsi_id": "unitedstatespostalservice-a77078", "operator": "United States Postal Service", "operator:short": "USPS", "operator:type": "public", "operator:wikidata": "Q668687", "ref": "6810600019"}, "type": "Feature"}
{"geometry": {"coordinates": [-95.980588866, 41.247066366], "type": "Point"}, "id": "9e3D9pOlywip-W6wZa_gmqHiPz0=", "properties": {"@source_uri": "https://tools.usps.com/UspsToolsRestServices/rest/POLocator/findLocations", "@spider": "usps_collection_boxes", "addr:city": "OMAHA", "addr:country": "US", "addr:postcode": "68106", "addr:state": "NE", "addr:street_address": "1298 S 45TH ST", "amenity": "post_box", "collection_times": "Mo-Sa 09:15", "nsi_id": "unitedstatespostalservice-a77078", "operator": "United States Postal Service", "operator:short": "USPS", "operator:type": "public", "operator:wikidata": "Q668687", "ref": "6810600024"}, "type": "Feature"}
{"geometry": {"coordinates": [-95.981534672, 41.252324795], "type": "Point"}, "id": "OKlHtuNBrpqu0T7SMozG53PE6y4=", "properties": {"@source_uri": "https://tools.usps.com/UspsToolsRestServices/rest/POLocator/findLocations", "@spider": "usps_collection_boxes", "addr:city": "OMAHA", "addr:country": "US", "addr:postcode": "68106", "addr:state": "NE", "addr:street_address": "4517 LEAVENWORTH ST", "amenity": "post_box", "collection_times": "Mo-Sa 09:15", "nsi_id": "unitedstatespostalservice-a77078", "operator": "United States Postal Service", "operator:short": "USPS", "operator:type": "public", "operator:wikidata": "Q668687", "ref": "6810600026"}, "type": "Feature"}
{"geometry": {"coordinates": [-95.9928110316, 41.24246202], "type": "Point"}, "id": "FQadavUPk6Ii5gqRX-B5f9LLZuc=", "properties": {"@source_uri": "https://tools.usps.com/UspsToolsRestServices/rest/POLocator/findLocations", "@spider": "usps_collection_boxes", "addr:city": "OMAHA", "addr:country": "US", "addr:postcode": "68106", "addr:state": "NE", "addr:street_address": "1718 S 51ST ST", "amenity": "post_box", "collection_times": "Mo-Fr 17:15; Sa 16:30", "note": "ON 12/24 AND 12/31, THIS BOX MAY BE COLLECTED AS EARLY AS 12 NOON.", "nsi_id": "unitedstatespostalservice-a77078", "operator": "United States Postal Service", "operator:short": "USPS", "operator:type": "public", "operator:wikidata": "Q668687", "ref": "6810600027"}, "type": "Feature"}
{"geometry": {"coordinates": [-96.016882004, 41.226888668], "type": "Point"}, "id": "6K0eGEBQpI9U4pIME6DVsVM9z34=", "properties": {"@source_uri": "https://tools.usps.com/UspsToolsRestServices/rest/POLocator/findLocations", "@spider": "usps_collection_boxes", "addr:city": "OMAHA", "addr:country": "US", "addr:postcode": "68106", "addr:state": "NE", "addr:street_address": "6711 GROVER ST", "amenity": "post_box", "collection_times": "Mo-Sa 10:30", "nsi_id": "unitedstatespostalservice-a77078", "operator": "United States Postal Service", "operator:short": "USPS", "operator:type": "public", "operator:wikidata": "Q668687", "ref": "6810600036"}, "type": "Feature"}
{"geometry": {"coordinates": [-95.992458991, 41.242321779], "type": "Point"}, "id": "l2eT6C7mmR73ZvtswKNyroRAaHk=", "properties": {"@source_uri": "https://tools.usps.com/UspsToolsRestServices/rest/POLocator/findLocations", "@spider": "usps_collection_boxes", "addr:city": "OMAHA", "addr:country": "US", "addr:postcode": "68106", "addr:state": "NE", "addr:street_address": "1718 S 51ST ST", "amenity": "post_box", "collection_times": "Mo-Fr 17:15; Sa 16:30", "indoor": "yes", "note": "ON 12/24 AND 12/31, THIS BOX MAY BE COLLECTED AS EARLY AS 12 NOON.", "nsi_id": "unitedstatespostalservice-a77078", "operator": "United States Postal Service", "operator:short": "USPS", "operator:type": "public", "operator:wikidata": "Q668687", "ref": "6810600040"}, "type": "Feature"}
{"geometry": {"coordinates": [-95.992458991, 41.242321779], "type": "Point"}, "id": "JkXWDuDVJ7AjDY8xaCIlZYY7u9g=", "properties": {"@source_uri": "https://tools.usps.com/UspsToolsRestServices/rest/POLocator/findLocations", "@spider": "usps_collection_boxes", "addr:city": "OMAHA", "addr:country": "US", "addr:postcode": "68106", "addr:state": "NE", "addr:street_address": "1718 S 51ST ST", "amenity": "post_box", "collection_times": "Mo-Fr 17:15; Sa 16:30", "indoor": "yes", "note": "ON 12/24 AND 12/31, THIS BOX MAY BE COLLECTED AS EARLY AS 12 NOON.", "nsi_id": "unitedstatespostalservice-a77078", "operator": "United States Postal Service", "operator:short": "USPS", "operator:type": "public", "operator:wikidata": "Q668687", "ref": "6810600042"}, "type": "Feature"}
{"geometry": {"coordinates": [-96.011328075, 41.243473915], "type": "Point"}, "id": "vtU3nYy9vKZna_JcKwQ8sxCg-1Q=", "properties": {"@source_uri": "https://tools.usps.com/UspsToolsRestServices/rest/POLocator/findLocations", "@spider": "usps_collection_boxes", "addr:city": "OMAHA", "addr:country": "US", "addr:postcode": "68106", "addr:state": "NE", "addr:street_address": "2232 S 64TH ST", "amenity": "post_box", "collection_times": "Mo-Fr 09:45", "nsi_id": "unitedstatespostalservice-a77078", "operator": "United States Postal Service", "operator:short": "USPS", "operator:type": "public", "operator:wikidata": "Q668687", "ref": "6810600053"}, "type": "Feature"}
{"geometry": {"coordinates": [-95.992458991, 41.242321779], "type": "Point"}, "id": "erfwTwjyiEV1eHGHkwPpzN_KirQ=", "properties": {"@source_uri": "https://tools.usps.com/UspsToolsRestServices/rest/POLocator/findLocations", "@spider": "usps_collection_boxes", "addr:city": "OMAHA", "addr:country": "US", "addr:postcode": "68106", "addr:state": "NE", "addr:street_address": "1718 S 51ST ST", "amenity": "post_box", "collection_times": "Mo-Fr 17:15; Sa 12:00", "indoor": "yes", "note": "ON 12/24 AND 12/31, THIS BOX MAY BE COLLECTED AS EARLY AS 12 NOON.", "nsi_id": "unitedstatespostalservice-a77078", "operator": "United States Postal Service", "operator:short": "USPS", "operator:type": "public", "operator:wikidata": "Q668687", "ref": "6810600057"}, "type": "Feature"}
{"geometry": {"coordinates": [-95.947110434, 41.211469352], "type": "Point"}, "id": "EtmaFSap5lgCiwENyncz4hzRRT8=", "properties": {"@source_uri": "https://tools.usps.com/UspsToolsRestServices/rest/POLocator/findLocations", "@spider": "usps_collection_boxes", "addr:city": "OMAHA", "addr:country": "US", "addr:postcode": "68107", "addr:state": "NE", "addr:street_address": "4730 S 24TH ST", "amenity": "post_box", "collection_times": "Mo-Fr 17:00; Sa 11:45", "note": "ON 12/24 AND 12/31, THIS BOX MAY BE COLLECTED AS EARLY AS 12 NOON.", "nsi_id": "unitedstatespostalservice-a77078", "operator": "United States Postal Service", "operator:short": "USPS", "operator:type": "public", "operator:wikidata": "Q668687", "ref": "6810700002"}, "type": "Feature"}
{"geometry": {"coordinates": [-95.977720663, 41.193155966], "type": "Point"}, "id": "o1Rgsh3ZY1T0RomcF6uUi3UoBTE=", "properties": {"@source_uri": "https://tools.usps.com/UspsToolsRestServices/rest/POLocator/findLocations", "@spider": "usps_collection_boxes", "addr:city": "OMAHA", "addr:country": "US", "addr:postcode": "68107", "addr:state": "NE", "addr:street_address": "6607 SUNSHINE DR", "amenity": "post_box", "collection_times": "Mo-Sa 11:00", "nsi_id": "unitedstatespostalservice-a77078", "operator": "United States Postal Service", "operator:short": "USPS", "operator:type": "public", "operator:wikidata": "Q668687", "ref": "6810700007"}, "type": "Feature"}
{"geometry": {"coordinates": [-95.963726983, 41.215950503], "type": "Point"}, "id": "L3BIXMUjRXdNvomA0v5QX-piav8=", "properties": {"@source_uri": "https://tools.usps.com/UspsToolsRestServices/rest/POLocator/findLocations", "@spider": "usps_collection_boxes", "addr:city": "OMAHA", "addr:country": "US", "addr:postcode": "68107", "addr:state": "NE", "addr:street_address": "4401 S 34TH ST", "amenity": "post_box", "collection_times": "Mo-Sa 10:00", "nsi_id": "unitedstatespostalservice-a77078", "operator": "United States Postal Service", "operator:short": "USPS", "operator:type": "public", "operator:wikidata": "Q668687", "ref": "6810700024"}, "type": "Feature"}
{"geometry": {"coordinates": [-95.9658525, 41.21221549], "type": "Point"}, "id": "lxJrnCnSiisC6Ip1jtlIuPL6Dbg=", "properties": {"@source_uri": "https://tools.usps.com/UspsToolsRestServices/rest/POLocator/findLocations", "@spider": "usps_collection_boxes", "addr:city": "OMAHA", "addr:country": "US", "addr:postcode": "68107", "addr:state": "NE", "addr:street_address": "3505 L ST", "amenity": "post_box", "collection_times": "Mo-Sa 11:00", "nsi_id": "unitedstatespostalservice-a77078", "operator": "United States Postal Service", "operator:short": "USPS", "operator:type": "public", "operator:wikidata": "Q668687", "ref": "6810700032"}, "type": "Feature"}
{"geometry": {"coordinates": [-95.947110434, 41.211469352], "type": "Point"}, "id": "3768YLn-SKtC310ycuPhe_kngI4=", "properties": {"@source_uri": "https://tools.usps.com/UspsToolsRestServices/rest/POLocator/findLocations", "@spider": "usps_collection_boxes", "addr:city": "OMAHA", "addr:country": "US", "addr:postcode": "68107", "addr:state": "NE", "addr:street_address": "4730 S 24TH ST", "amenity": "post_box", "collection_times": "Mo-Fr 17:00; Sa 11:45", "indoor": "yes", "note": "ON 12/24 AND 12/31, THIS BOX MAY BE COLLECTED AS EARLY AS 12 NOON.", "nsi_id": "unitedstatespostalservice-a77078", "operator": "United States Postal Service", "operator:short": "USPS", "operator:type": "public", "operator:wikidata": "Q668687", "ref": "6810700049"}, "type": "Feature"}
{"geometry": {"coordinates": [-95.947110434, 41.211469352], "type": "Point"}, "id": "oqHtwG5SVPD3NA4j4nBmc9bi-bU=", "properties": {"@source_uri": "https://tools.usps.com/UspsToolsRestServices/rest/POLocator/findLocations", "@spider": "usps_collection_boxes", "addr:city": "OMAHA", "addr:country": "US", "addr:postcode": "68107", "addr:state": "NE", "addr:street_address": "4730 S 24TH ST", "amenity": "post_box", "collection_times": "Mo-Fr 17:25; Sa 12:00", "indoor": "yes", "note": "ON 12/24 AND 12/31, THIS BOX MAY BE COLLECTED AS EARLY AS 12 NOON.", "nsi_id": "unitedstatespostalservice-a77078", "operator": "United States Postal Service", "operator:short": "USPS", "operator:type": "public", "operator:wikidata": "Q668687", "ref": "6810700054"}, "type": "Feature"}
{"geometry": {"coordinates": [-95.9319, 41.249174484], "type": "Point"}, "id": "dWRkkoMF9SbQiRvPp-LxbAPYWks=", "properties": {"@source_uri": "https://tools.usps.com/UspsToolsRestServices/rest/POLocator/findLocations", "@spider": "usps_collection_boxes", "addr:city": "OMAHA", "addr:country": "US", "addr:postcode": "68108", "addr:state": "NE", "addr:street_address": "1124 PACIFIC ST", "amenity": "post_box", "collection_times": "Mo-Sa 18:30", "note": "ON 12/24 AND 12/31, THIS BOX MAY BE COLLECTED AS EARLY AS 12 NOON.", "nsi_id": "unitedstatespostalservice-a77078", "operator": "United States Postal Service", "operator:short": "USPS", "operator:type": "public", "operator:wikidata": "Q668687", "ref": "6810800001"}, "type": "Feature"}
{"geometry": {"coordinates": [-95.932679, 41.239505], "type": "Point"}, "id": "VR_hdiZE3jScb9uBAZmMh1dGtGc=", "properties": {"@source_uri": "https://tools.usps.com/UspsToolsRestServices/rest/POLocator/findLocations", "@spider": "usps_collection_boxes", "addr:city": "OMAHA", "addr:country": "US", "addr:postcode": "68108", "addr:state": "NE", "addr:street_address": "3026 S 24TH ST", "amenity": "post_box", "collection_times": "Mo-Sa 10:30", "nsi_id": "unitedstatespostalservice-a77078", "operator": "United States Postal Service", "operator:short": "USPS", "operator:type": "public", "operator:wikidata": "Q668687", "ref": "6810800016"}, "type": "Feature"}
{"geometry": {"coordinates": [-95.9319, 41.249174484], "type": "Point"}, "id": "m54AjzXC6VvstAKb2WLvL_tXJt0=", "properties": {"@source_uri": "https://tools.usps.com/UspsToolsRestServices/rest/POLocator/findLocations", "@spider": "usps_collection_boxes", "addr:city": "OMAHA", "addr:country": "US", "addr:postcode": "68108", "addr:state": "NE", "addr:street_address": "1124 PACIFIC ST", "amenity": "post_box", "collection_times": "Mo-Sa 20:00", "indoor": "yes", "note": "ON 12/24 AND 12/31, THIS BOX MAY BE COLLECTED AS EARLY AS 12 NOON.", "nsi_id": "unitedstatespostalservice-a77078", "operator": "United States Postal Service", "operator:short": "USPS", "operator:type": "public", "operator:wikidata": "Q668687", "ref": "6810800026"}, "type": "Feature"}
{"geometry": {"coordinates": [-95.9319, 41.249174484], "type": "Point"}, "id": "f5vUyt1bOaMNyYFD9dumo2My9Ic=", "properties": {"@source_uri": "https://tools.usps.com/UspsToolsRestServices/rest/POLocator/findLocations", "@spider": "usps_collection_boxes", "addr:city": "OMAHA", "addr:country": "US", "addr:postcode": "68108", "addr:state": "NE", "addr:street_address": "1124 PACIFIC ST", "amenity": "post_box", "collection_times": "Mo-Sa 20:00", "indoor": "yes", "note": "ON 12/24 AND 12/31, THIS BOX MAY BE COLLECTED AS EARLY AS 12 NOON.", "nsi_id": "unitedstatespostalservice-a77078", "operator": "United States Postal Service", "operator:short": "USPS", "operator:type": "public", "operator:wikidata": "Q668687", "ref": "6810800028"}, "type": "Feature"}
{"geometry": {"coordinates": [-95.9319, 41.249174484], "type": "Point"}, "id": "mPvJjd6Z76DTqdbZC9w3BPmC4UM=", "properties": {"@source_uri": "https://tools.usps.com/UspsToolsRestServices/rest/POLocator/findLocations", "@spider": "usps_collection_boxes", "addr:city": "OMAHA", "addr:country": "US", "addr:postcode": "68108", "addr:state": "NE", "addr:street_address": "1124 PACIFIC ST", "amenity": "post_box", "collection_times": "Mo-Sa 20:00", "indoor": "yes", "note": "ON 12/24 AND 12/31, THIS BOX MAY BE COLLECTED AS EARLY AS 12 NOON.", "nsi_id": "unitedstatespostalservice-a77078", "operator": "United States Postal Service", "operator:short": "USPS", "operator:type": "public", "operator:wikidata": "Q668687", "ref": "6810800029"}, "type": "Feature"}
{"geometry": {"coordinates": [-95.9319, 41.249174484], "type": "Point"}, "id": "D6bxNI6vCrA9LUD138-pwXqplB8=", "properties": {"@source_uri": "https://tools.usps.com/UspsToolsRestServices/rest/POLocator/findLocations", "@spider": "usps_collection_boxes", "addr:city": "OMAHA", "addr:country": "US", "addr:postcode": "68108", "addr:state": "NE", "addr:street_address": "1124 PACIFIC ST", "amenity": "post_box", "collection_times": "Mo-Sa 20:00", "indoor": "yes", "note": "ON 12/24 AND 12/31, THIS BOX MAY BE COLLECTED AS EARLY AS 12 NOON.", "nsi_id": "unitedstatespostalservice-a77078", "operator": "United States Postal Service", "operator:short": "USPS", "operator:type": "public", "operator:wikidata": "Q668687", "ref": "6810800030"}, "type": "Feature"}
{"geometry": {"coordinates": [-95.9319, 41.249174484], "type": "Point"}, "id": "uD-77z-UofQVo4T-TxSxZIP5Mhc=", "properties": {"@source_uri": "https://tools.usps.com/UspsToolsRestServices/rest/POLocator/findLocations", "@spider": "usps_collection_boxes", "addr:city": "OMAHA", "addr:country": "US", "addr:postcode": "68108", "addr:state": "NE", "addr:street_address": "1124 PACIFIC ST", "amenity": "post_box", "collection_times": "Mo-Sa 20:00", "indoor": "yes", "note": "ON 12/24 AND 12/31, THIS BOX MAY BE COLLECTED AS EARLY AS 12 NOON.", "nsi_id": "unitedstatespostalservice-a77078", "operator": "United States Postal Service", "operator:short": "USPS", "operator:type": "public", "operator:wikidata": "Q668687", "ref": "6810800031"}, "type": "Feature"}
{"geometry": {"coordinates": [-95.9319, 41.249174484], "type": "Point"}, "id": "ejiQEKVcpdK2UchowVeHxAdqwAQ=", "properties": {"@source_uri": "https://tools.usps.com/UspsToolsRestServices/rest/POLocator/findLocations", "@spider": "usps_collection_boxes", "addr:city": "OMAHA", "addr:country": "US", "addr:postcode": "68108", "addr:state": "NE", "addr:street_address": "1124 PACIFIC ST", "amenity": "post_box", "collection_times": "Mo-Sa 20:00", "indoor": "yes", "note": "ON 12/24 AND 12/31, THIS BOX MAY BE COLLECTED AS EARLY AS 12 NOON.", "nsi_id": "unitedstatespostalservice-a77078", "operator": "United States Postal Service", "operator:short": "USPS", "operator:type": "public", "operator:wikidata": "Q668687", "ref": "6810800046"}, "type": "Feature"}
{"geometry": {"coordinates": [-95.946360033, 41.2813059805], "type": "Point"}, "id": "z5QK2eGPvrndpYC5BFk_tvp-woI=", "properties": {"@source_uri": "https://tools.usps.com/UspsToolsRestServices/rest/POLocator/findLocations", "@spider": "usps_collection_boxes", "addr:city": "OMAHA", "addr:country": "US", "addr:postcode": "68110", "addr:state": "NE", "addr:street_address": "2229 LAKE ST", "amenity": "post_box", "collection_times": "Mo-Sa 10:30", "nsi_id": "unitedstatespostalservice-a77078", "operator": "United States Postal Service", "operator:short": "USPS", "operator:type": "public", "operator:wikidata": "Q668687", "ref": "6811000008"}, "type": "Feature"}
{"geometry": {"coordinates": [-95.930300051, 41.279150548], "type": "Point"}, "id": "v7gxoaj93q5T0RCsT62nQ8fo7Xs=", "properties": {"@source_uri": "https://tools.usps.com/UspsToolsRestServices/rest/POLocator/findLocations", "@spider": "usps_collection_boxes", "addr:city": "OMAHA", "addr:country": "US", "addr:postcode": "68110", "addr:state": "NE", "addr:street_address": "2222 N 11TH ST", "amenity": "post_box", "collection_times": "Mo-Sa 09:00", "nsi_id": "unitedstatespostalservice-a77078", "operator": "United States Postal Service", "operator:short": "USPS", "operator:type": "public", "operator:wikidata": "Q668687", "ref": "6811000022"}, "type": "Feature"}
{"geometry": {"coordinates": [-95.958051114, 41.300466461], "type": "Point"}, "id": "0XNOodcI3uYLdMlDa5QNhQH-19A=", "properties": {"@source_uri": "https://tools.usps.com/UspsToolsRestServices/rest/POLocator/findLocations", "@spider": "usps_collection_boxes", "addr:city": "OMAHA", "addr:country": "US", "addr:postcode": "68111", "addr:state": "NE", "addr:street_address": "3030 MEREDITH AVE", "amenity": "post_box", "collection_times": "Mo-Fr 17:00; Sa 16:15", "note": "ON 12/24 AND 12/31, THIS BOX MAY BE COLLECTED AS EARLY AS 12 NOON.", "nsi_id": "unitedstatespostalservice-a77078", "operator": "United States Postal Service", "operator:short": "USPS", "operator:type": "public", "operator:wikidata": "Q668687", "ref": "6811100001"}, "type": "Feature"}
{"geometry": {"coordinates": [-95.957244, 41.281417502], "type": "Point"}, "id": "raNHZIsdfzctQWCaAZB4jxjXXOE=", "properties": {"@source_uri": "https://tools.usps.com/UspsToolsRestServices/rest/POLocator/findLocations", "@spider": "usps_collection_boxes", "addr:city": "OMAHA", "addr:country": "US", "addr:postcode": "68111", "addr:state": "NE", "addr:street_address": "3005 LAKE ST", "amenity": "post_box", "collection_times": "Mo-Sa 09:30", "nsi_id": "unitedstatespostalservice-a77078", "operator": "United States Postal Service", "operator:short": "USPS", "operator:type": "public", "operator:wikidata": "Q668687", "ref": "6811100008"}, "type": "Feature"}
{"geometry": {"coordinates": [-95.958051114, 41.300466461], "type": "Point"}, "id": "wb1DeSmJX2bpmFNvh049bGo-OnU=", "properties": {"@source_uri": "https://tools.usps.com/UspsToolsRestServices/rest/POLocator/findLocations", "@spider": "usps_collection_boxes", "addr:city": "OMAHA", "addr:country": "US", "addr:postcode": "68111", "addr:state": "NE", "addr:street_address": "3030 MEREDITH AVE", "amenity": "post_box", "collection_times": "Mo-Fr 17:00; Sa 16:15", "indoor": "yes", "note": "ON 12/24 AND 12/31, THIS BOX MAY BE COLLECTED AS EARLY AS 12 NOON.", "nsi_id": "unitedstatespostalservice-a77078", "operator": "United States Postal Service", "operator:short": "USPS", "operator:type": "public", "operator:wikidata": "Q668687", "ref": "6811100017"}, "type": "Feature"}
{"geometry": {"coordinates": [-95.958051114, 41.300466461], "type": "Point"}, "id": "zPCzt-6IGsA7qISmipzWb4LeKC8=", "properties": {"@source_uri": "https://tools.usps.com/UspsToolsRestServices/rest/POLocator/findLocations", "@spider": "usps_collection_boxes", "addr:city": "OMAHA", "addr:country": "US", "addr:postcode": "68111", "addr:state": "NE", "addr:street_address": "3030 MEREDITH AVE", "amenity": "post_box", "collection_times": "Mo-Fr 17:00; Sa 13:00", "indoor": "yes", "note": "ON 12/24 AND 12/31, THIS BOX MAY BE COLLECTED AS EARLY AS 12 NOON.", "nsi_id": "unitedstatespostalservice-a77078", "operator": "United States Postal Service", "operator:short": "USPS", "operator:type": "public", "operator:wikidata": "Q668687", "ref": "6811100019"}, "type": "Feature"}
{"geometry": {"coordinates": [-95.960075, 41.32993], "type": "Point"}, "id": "t6ebBDdgl46nlOc_a6DJekKRWa0=", "properties": {"@source_uri": "https://tools.usps.com/UspsToolsRestServices/rest/POLocator/findLocations", "@spider": "usps_collection_boxes", "addr:city": "OMAHA", "addr:country": "US", "addr:postcode": "68112", "addr:state": "NE", "addr:street_address": "2910 STATE ST", "amenity": "post_box", "collection_times": "Mo-Fr 17:30; Sa 12:00", "note": "ON 12/24 AND 12/31, THIS BOX MAY BE COLLECTED AS EARLY AS 12 NOON.", "nsi_id": "unitedstatespostalservice-a77078", "operator": "United States Postal Service", "operator:short": "USPS", "operator:type": "public", "operator:wikidata": "Q668687", "ref": "6811200000"}, "type": "Feature"}
{"geometry": {"coordinates": [-95.957844261, 41.327046357], "type": "Point"}, "id": "435HYF0UMM82_gHoAvV6pYVO7ak=", "properties": {"@source_uri": "https://tools.usps.com/UspsToolsRestServices/rest/POLocator/findLocations", "@spider": "usps_collection_boxes", "addr:city": "OMAHA", "addr:country": "US", "addr:postcode": "68112", "addr:state": "NE", "addr:street_address": "7400 N 30TH ST", "amenity": "post_box", "collection_times": "Mo-Sa 09:30", "nsi_id": "unitedstatespostalservice-a77078", "operator": "United States Postal Service", "operator:short": "USPS", "operator:type": "public", "operator:wikidata": "Q668687", "ref": "6811200006"}, "type": "Feature"}
{"geometry": {"coordinates": [-95.957239976, 41.324458945], "type": "Point"}, "id": "VK-WLHPP7LvlPeNMAPp15uIlQNU=", "properties": {"@source_uri": "https://tools.usps.com/UspsToolsRestServices/rest/POLocator/findLocations", "@spider": "usps_collection_boxes", "addr:city": "OMAHA", "addr:country": "US", "addr:postcode": "68112", "addr:state": "NE", "addr:street_address": "3002 MARTIN AVE", "amenity": "post_box", "collection_times": "Mo-Sa 09:30", "nsi_id": "unitedstatespostalservice-a77078", "operator": "United States Postal Service", "operator:short": "USPS", "operator:type": "public", "operator:wikidata": "Q668687", "ref": "6811200007"}, "type": "Feature"}
{"geometry": {"coordinates": [-95.959418228, 41.336414286], "type": "Point"}, "id": "6N7NiYqcdwEEIpJc7_Bnj68n86k=", "properties": {"@source_uri": "https://tools.usps.com/UspsToolsRestServices/rest/POLocator/findLocations", "@spider": "usps_collection_boxes", "addr:city": "OMAHA", "addr:country": "US", "addr:postcode": "68112", "addr:state": "NE", "addr:street_address": "2910 STATE ST", "amenity": "post_box", "collection_times": "Mo-Fr 17:30; Sa 12:00", "indoor": "yes", "note": "ON 12/24 AND 12/31, THIS BOX MAY BE COLLECTED AS EARLY AS 12 NOON.", "nsi_id": "unitedstatespostalservice-a77078", "operator": "United States Postal Service", "operator:short": "USPS", "operator:type": "public", "operator:wikidata": "Q668687", "ref": "6811200017"}, "type": "Feature"}
{"geometry": {"coordinates": [-95.959418228, 41.336414286], "type": "Point"}, "id": "qMu7agV-mInTXMJC28ZwHlkzRgo=", "properties": {"@source_uri": "https://tools.usps.com/UspsToolsRestServices/rest/POLocator/findLocations", "@spider": "usps_collection_boxes", "addr:city": "OMAHA", "addr:country": "US", "addr:postcode": "68112", "addr:state": "NE", "addr:street_address": "2910 STATE ST", "amenity": "post_box", "collection_times": "Mo-Fr 17:30; Sa 12:00", "indoor": "yes", "note": "ON 12/24 AND 12/31, THIS BOX MAY BE COLLECTED AS EARLY AS 12 NOON.", "nsi_id": "unitedstatespostalservice-a77078", "operator": "United States Postal Service", "operator:short": "USPS", "operator:type": "public", "operator:wikidata": "Q668687", "ref": "6811200022"}, "type": "Feature"}
{"geometry": {"coordinates": [-95.919195676, 41.117505361], "type": "Point"}, "id": "_dQEMAE4zn2M9tisghyfUFVBECE=", "properties": {"@source_uri": "https://tools.usps.com/UspsToolsRestServices/rest/POLocator/findLocations", "@spider": "usps_collection_boxes", "addr:city": "OMAHA", "addr:country": "US", "addr:postcode": "68113", "addr:state": "NE", "addr:street_address": "906 GARLAND ST", "amenity": "post_box", "collection_times": "Mo-Fr 16:30; Sa 13:00", "note": "ON 12/24 AND 12/31, THIS BOX MAY BE COLLECTED AS EARLY AS 12 NOON.", "nsi_id": "unitedstatespostalservice-a77078", "operator": "United States Postal Service", "operator:short": "USPS", "operator:type": "public", "operator:wikidata": "Q668687", "ref": "6811300000"}, "type": "Feature"}
{"geometry": {"coordinates": [-95.919195676, 41.117505361], "type": "Point"}, "id": "WcZLdBBwnwS_7FfMLi0QfBo4FqM=", "properties": {"@source_uri": "https://tools.usps.com/UspsToolsRestServices/rest/POLocator/findLocations", "@spider": "usps_collection_boxes", "addr:city": "OMAHA", "addr:country": "US", "addr:postcode": "68113", "addr:state": "NE", "addr:street_address": "906 GARLAND ST", "amenity": "post_box", "collection_times": "Mo-Fr 16:30; Sa 13:00", "indoor": "yes", "note": "ON 12/24 AND 12/31, THIS BOX MAY BE COLLECTED AS EARLY AS 12 NOON.", "nsi_id": "unitedstatespostalservice-a77078", "operator": "United States Postal Service", "operator:short": "USPS", "operator:type": "public", "operator:wikidata": "Q668687", "ref": "6811300011"}, "type": "Feature"}
{"geometry": {"coordinates": [-96.031417991, 41.26016934], "type": "Point"}, "id": "0OZfPrZGW_whlVWVy_RNVdP8pms=", "properties": {"@source_uri": "https://tools.usps.com/UspsToolsRestServices/rest/POLocator/findLocations", "@spider": "usps_collection_boxes", "addr:city": "OMAHA", "addr:country": "US", "addr:postcode": "68114", "addr:state": "NE", "addr:street_address": "205 N 76TH ST", "amenity": "post_box", "collection_times": "Mo-Sa 09:15", "nsi_id": "unitedstatespostalservice-a77078", "operator": "United States Postal Service", "operator:short": "USPS", "operator:type": "public", "operator:wikidata": "Q668687", "ref": "6811400015"}, "type": "Feature"}
{"geometry": {"coordinates": [-96.0320025, 41.248833504], "type": "Point"}, "id": "9n87vKsbcSrkmLZlbFMjuSA2eWk=", "properties": {"@source_uri": "https://tools.usps.com/UspsToolsRestServices/rest/POLocator/findLocations", "@spider": "usps_collection_boxes", "addr:city": "OMAHA", "addr:country": "US", "addr:postcode": "68114", "addr:state": "NE", "addr:street_address": "7602 PACIFIC ST", "amenity": "post_box", "collection_times": "Mo-Fr 09:15", "nsi_id": "unitedstatespostalservice-a77078", "operator": "United States Postal Service", "operator:short": "USPS", "operator:type": "public", "operator:wikidata": "Q668687", "ref": "6811400017"}, "type": "Feature"}
{"geometry": {"coordinates": [-96.031373453, 41.249943251], "type": "Point"}, "id": "H98aFVow1TMmPIW7k34BoUJicDY=", "properties": {"@source_uri": "https://tools.usps.com/UspsToolsRestServices/rest/POLocator/findLocations", "@spider": "usps_collection_boxes", "addr:city": "OMAHA", "addr:country": "US", "addr:postcode": "68114", "addr:state": "NE", "addr:street_address": "909 S 76TH ST", "amenity": "post_box", "collection_times": "Mo-Sa 09:00", "nsi_id": "unitedstatespostalservice-a77078", "operator": "United States Postal Service", "operator:short": "USPS", "operator:type": "public", "operator:wikidata": "Q668687", "ref": "6811400018"}, "type": "Feature"}
{"geometry": {"coordinates": [-96.033033, 41.248774481], "type": "Point"}, "id": "KvcrZ0-VSEEYUnLJqyMVnXZmMTg=", "properties": {"@source_uri": "https://tools.usps.com/UspsToolsRestServices/rest/POLocator/findLocations", "@spider": "usps_collection_boxes", "addr:city": "OMAHA", "addr:country": "US", "addr:postcode": "68114", "addr:state": "NE", "addr:street_address": "7701 PACIFIC ST", "amenity": "post_box", "collection_times": "Mo-Sa 10:15", "nsi_id": "unitedstatespostalservice-a77078", "operator": "United States Postal Service", "operator:short": "USPS", "operator:type": "public", "operator:wikidata": "Q668687", "ref": "6811400020"}, "type": "Feature"}
{"geometry": {"coordinates": [-96.043655061, 41.261762822], "type": "Point"}, "id": "0NiXZJNCIhDrfsnbHqg29DeXMys=", "properties": {"@source_uri": "https://tools.usps.com/UspsToolsRestServices/rest/POLocator/findLocations", "@spider": "usps_collection_boxes", "addr:city": "OMAHA", "addr:country": "US", "addr:postcode": "68114", "addr:state": "NE", "addr:street_address": "8401 W DODGE RD", "amenity": "post_box", "collection_times": "Mo-Fr 09:30", "nsi_id": "unitedstatespostalservice-a77078", "operator": "United States Postal Service", "operator:short": "USPS", "operator:type": "public", "operator:wikidata": "Q668687", "ref": "6811400030"}, "type": "Feature"}
{"geometry": {"coordinates": [-96.044022726, 41.262252408], "type": "Point"}, "id": "sVpvqHey9VN6wgYMRcxdrY9iMSU=", "properties": {"@source_uri": "https://tools.usps.com/UspsToolsRestServices/rest/POLocator/findLocations", "@spider": "usps_collection_boxes", "addr:city": "OMAHA", "addr:country": "US", "addr:postcode": "68114", "addr:state": "NE", "addr:street_address": "8420 W DODGE RD", "amenity": "post_box", "collection_times": "Mo-Fr 09:15", "nsi_id": "unitedstatespostalservice-a77078", "operator": "United States Postal Service", "operator:short": "USPS", "operator:type": "public", "operator:wikidata": "Q668687", "ref": "6811400032"}, "type": "Feature"}
{"geometry": {"coordinates": [-96.0479685, 41.24887601], "type": "Point"}, "id": "Los6lRkJpLwAn7pceNiLfh-pZi0=", "properties": {"@source_uri": "https://tools.usps.com/UspsToolsRestServices/rest/POLocator/findLocations", "@spider": "usps_collection_boxes", "addr:city": "OMAHA", "addr:country": "US", "addr:postcode": "68114", "addr:state": "NE", "addr:street_address": "8722 PACIFIC ST", "amenity": "post_box", "collection_times": "Mo-Sa 13:00", "note": "ON 12/24 AND 12/31, THIS BOX MAY BE COLLECTED AS EARLY AS 12 NOON.", "nsi_id": "unitedstatespostalservice-a77078", "operator": "United States Postal Service", "operator:short": "USPS", "operator:type": "public", "operator:wikidata": "Q668687", "ref": "6811400041"}, "type": "Feature"}
{"geometry": {"coordinates": [-96.050631211, 41.261527737], "type": "Point"}, "id": "r3kHcqFolwJw0jBfIomDYgeeMCs=", "properties": {"@source_uri": "https://tools.usps.com/UspsToolsRestServices/rest/POLocator/findLocations", "@spider": "usps_collection_boxes", "addr:city": "OMAHA", "addr:country": "US", "addr:postcode": "68114", "addr:state": "NE", "addr:street_address": "251 N 89TH ST", "amenity": "post_box", "collection_times": "Mo-Fr 09:15", "nsi_id": "unitedstatespostalservice-a77078", "operator": "United States Postal Service", "operator:short": "USPS", "operator:type": "public", "operator:wikidata": "Q668687", "ref": "6811400043"}, "type": "Feature"}
{"geometry": {"coordinates": [-96.051583362, 41.263446494], "type": "Point"}, "id": "Eq9ZNTvju1YYGw2dYeY-PJjStjQ=", "properties": {"@source_uri": "https://tools.usps.com/UspsToolsRestServices/rest/POLocator/findLocations", "@spider": "usps_collection_boxes", "addr:city": "OMAHA", "addr:country": "US", "addr:postcode": "68114", "addr:state": "NE", "addr:street_address": "8990 W DODGE RD", "amenity": "post_box", "collection_times": "Mo-Fr 10:00", "nsi_id": "unitedstatespostalservice-a77078", "operator": "United States Postal Service", "operator:short": "USPS", "operator:type": "public", "operator:wikidata": "Q668687", "ref": "6811400048"}, "type": "Feature"}
{"geometry": {"coordinates": [-96.060581277, 41.26697149], "type": "Point"}, "id": "uRUqwoGn3yDwL1Kg2dVOCfvLYGk=", "properties": {"@source_uri": "https://tools.usps.com/UspsToolsRestServices/rest/POLocator/findLocations", "@spider": "usps_collection_boxes", "addr:city": "OMAHA", "addr:country": "US", "addr:postcode": "68114", "addr:state": "NE", "addr:street_address": "9405 BURT ST", "amenity": "post_box", "collection_times": "Mo-Sa 14:30", "note": "ON 12/24 AND 12/31, THIS BOX MAY BE COLLECTED AS EARLY AS 12 NOON.", "nsi_id": "unitedstatespostalservice-a77078", "operator": "United States Postal Service", "operator:short": "USPS", "operator:type": "public", "operator:wikidata": "Q668687", "ref": "6811400049"}, "type": "Feature"}
{"geometry": {"coordinates": [-96.054903, 41.263466505], "type": "Point"}, "id": "y7Qzu0LNfCiAp0N4tSiIS2LZZ64=", "properties": {"@source_uri": "https://tools.usps.com/UspsToolsRestServices/rest/POLocator/findLocations", "@spider": "usps_collection_boxes", "addr:city": "OMAHA", "addr:country": "US", "addr:postcode": "68114", "addr:state": "NE", "addr:street_address": "9140 W DODGE RD", "amenity": "post_box", "collection_times": "Mo-Sa 11:00", "nsi_id": "unitedstatespostalservice-a77078", "operator": "United States Postal Service", "operator:short": "USPS", "operator:type": "public", "operator:wikidata": "Q668687", "ref": "6811400054"}, "type": "Feature"}
{"geometry": {"coordinates": [-96.056163456, 41.263472458], "type": "Point"}, "id": "yUIYuUT4xtuOLhugnzrw6GDgFX0=", "properties": {"@source_uri": "https://tools.usps.com/UspsToolsRestServices/rest/POLocator/findLocations", "@spider": "usps_collection_boxes", "addr:city": "OMAHA", "addr:country": "US", "addr:postcode": "68114", "addr:state": "NE", "addr:street_address": "9202 W DODGE RD", "amenity": "post_box", "collection_times": "Mo-Fr 09:00", "nsi_id": "unitedstatespostalservice-a77078", "operator": "United States Postal Service", "operator:short": "USPS", "operator:type": "public", "operator:wikidata": "Q668687", "ref": "6811400056"}, "type": "Feature"}
{"geometry": {"coordinates": [-96.056792361, 41.263472458], "type": "Point"}, "id": "WXzEFOVaEcXS8lU0Qyqcvuc5q58=", "properties": {"@source_uri": "https://tools.usps.com/UspsToolsRestServices/rest/POLocator/findLocations", "@spider": "usps_collection_boxes", "addr:city": "OMAHA", "addr:country": "US", "addr:postcode": "68114", "addr:state": "NE", "addr:street_address": "9290 W DODGE RD", "amenity": "post_box", "collection_times": "Mo-Fr 09:00", "nsi_id": "unitedstatespostalservice-a77078", "operator": "United States Postal Service", "operator:short": "USPS", "operator:type": "public", "operator:wikidata": "Q668687", "ref": "6811400058"}, "type": "Feature"}
{"geometry": {"coordinates": [-96.058089388, 41.265227523], "type": "Point"}, "id": "HOJVC86gskg5Oi7VZxw6r4Pe7yc=", "properties": {"@source_uri": "https://tools.usps.com/UspsToolsRestServices/rest/POLocator/findLocations", "@spider": "usps_collection_boxes", "addr:city": "OMAHA", "addr:country": "US", "addr:postcode": "68114", "addr:state": "NE", "addr:street_address": "9300 UNDERWOOD AVE", "amenity": "post_box", "collection_times": "Mo-Fr 09:00", "nsi_id": "unitedstatespostalservice-a77078", "operator": "United States Postal Service", "operator:short": "USPS", "operator:type": "public", "operator:wikidata": "Q668687", "ref": "6811400063"}, "type": "Feature"}
{"geometry": {"coordinates": [-96.058841158, 41.263482451], "type": "Point"}, "id": "rhML47cEWKQGLsXDRGNf4Ft4Xo8=", "properties": {"@source_uri": "https://tools.usps.com/UspsToolsRestServices/rest/POLocator/findLocations", "@spider": "usps_collection_boxes", "addr:city": "OMAHA", "addr:country": "US", "addr:postcode": "68114", "addr:state": "NE", "addr:street_address": "9394 W DODGE RD", "amenity": "post_box", "collection_times": "Mo-Fr 09:00", "nsi_id": "unitedstatespostalservice-a77078", "operator": "United States Postal Service", "operator:short": "USPS", "operator:type": "public", "operator:wikidata": "Q668687", "ref": "6811400065"}, "type": "Feature"}
{"geometry": {"coordinates": [-96.05249, 41.270225], "type": "Point"}, "id": "1ur4XathcpT1GY22Kan9trPtoVk=", "properties": {"@source_uri": "https://tools.usps.com/UspsToolsRestServices/rest/POLocator/findLocations", "@spider": "usps_collection_boxes", "addr:city": "OMAHA", "addr:country": "US", "addr:postcode": "68114", "addr:state": "NE", "addr:street_address": "10050 REGENCY CIR", "amenity": "post_box", "collection_times": "Mo-Fr 10:00", "nsi_id": "unitedstatespostalservice-a77078", "operator": "United States Postal Service", "operator:short": "USPS", "operator:type": "public", "operator:wikidata": "Q668687", "ref": "6811400068"}, "type": "Feature"}
{"geometry": {"coordinates": [-96.066829999, 41.264587001], "type": "Point"}, "id": "tdt1DHtozsKBp9YNpjLV7y-BCqo=", "properties": {"@source_uri": "https://tools.usps.com/UspsToolsRestServices/rest/POLocator/findLocations", "@spider": "usps_collection_boxes", "addr:city": "OMAHA", "addr:country": "US", "addr:postcode": "68114", "addr:state": "NE", "addr:street_address": "10000 CALIFORNIA ST", "amenity": "post_box", "collection_times": "Mo-Sa 12:30", "note": "ON 12/24 AND 12/31, THIS BOX MAY BE COLLECTED AS EARLY AS 12 NOON.", "nsi_id": "unitedstatespostalservice-a77078", "operator": "United States Postal Service", "operator:short": "USPS", "operator:type": "public", "operator:wikidata": "Q668687", "ref": "6811400076"}, "type": "Feature"}
{"geometry": {"coordinates": [-96.070180664, 41.260886246], "type": "Point"}, "id": "zOMVZ906CPszdXWm2f4-sC8vYIM=", "properties": {"@source_uri": "https://tools.usps.com/UspsToolsRestServices/rest/POLocator/findLocations", "@spider": "usps_collection_boxes", "addr:city": "OMAHA", "addr:country": "US", "addr:postcode": "68114", "addr:state": "NE", "addr:street_address": "10040 REGENCY CIR", "amenity": "post_box", "collection_times": "Mo-Fr 10:00", "nsi_id": "unitedstatespostalservice-a77078", "operator": "United States Postal Service", "operator:short": "USPS", "operator:type": "public", "operator:wikidata": "Q668687", "ref": "6811400083"}, "type": "Feature"}
{"geometry": {"coordinates": [-96.074101447, 41.257060492], "type": "Point"}, "id": "FZWvfUL1iIoI2IOCNF9M7Uiu3uY=", "properties": {"@source_uri": "https://tools.usps.com/UspsToolsRestServices/rest/POLocator/findLocations", "@spider": "usps_collection_boxes", "addr:city": "OMAHA", "addr:country": "US", "addr:postcode": "68114", "addr:state": "NE", "addr:street_address": "400 ESSEX CT", "amenity": "post_box", "collection_times": "Mo-Fr 10:00", "nsi_id": "unitedstatespostalservice-a77078", "operator": "United States Postal Service", "operator:short": "USPS", "operator:type": "public", "operator:wikidata": "Q668687", "ref": "6811400085"}, "type": "Feature"}
{"geometry": {"coordinates": [-96.0814609733, 41.2493920099], "type": "Point"}, "id": "nGs4e3L7ELsG9UroTamntWe6dC8=", "properties": {"@source_uri": "https://tools.usps.com/UspsToolsRestServices/rest/POLocator/findLocations", "@spider": "usps_collection_boxes", "addr:city": "OMAHA", "addr:country": "US", "addr:postcode": "68114", "addr:state": "NE", "addr:street_address": "10730 PACIFIC ST", "amenity": "post_box", "collection_times": "Mo-Fr 10:00", "nsi_id": "unitedstatespostalservice-a77078", "operator": "United States Postal Service", "operator:short": "USPS", "operator:type": "public", "operator:wikidata": "Q668687", "ref": "6811400090"}, "type": "Feature"}
{"geometry": {"coordinates": [-96.073001084, 41.259785211], "type": "Point"}, "id": "Zy7RWHx949PluZV5FpX37SBowko=", "properties": {"@source_uri": "https://tools.usps.com/UspsToolsRestServices/rest/POLocator/findLocations", "@spider": "usps_collection_boxes", "addr:city": "OMAHA", "addr:country": "US", "addr:postcode": "68114", "addr:state": "NE", "addr:street_address": "10235 REGENCY CIR", "amenity": "post_box", "collection_times": "Mo-Fr 11:00", "nsi_id": "unitedstatespostalservice-a77078", "operator": "United States Postal Service", "operator:short": "USPS", "operator:type": "public", "operator:wikidata": "Q668687", "ref": "6811400094"}, "type": "Feature"}
{"geometry": {"coordinates": [-96.050970835, 41.263191487], "type": "Point"}, "id": "aHxCa0R42oY1gdgd2IHE237xJvM=", "properties": {"@source_uri": "https://tools.usps.com/UspsToolsRestServices/rest/POLocator/findLocations", "@spider": "usps_collection_boxes", "addr:city": "OMAHA", "addr:country": "US", "addr:postcode": "68114", "addr:state": "NE", "addr:street_address": "8901 W DODGE RD", "amenity": "post_box", "collection_times": "Mo-Fr 09:30", "nsi_id": "unitedstatespostalservice-a77078", "operator": "United States Postal Service", "operator:short": "USPS", "operator:type": "public", "operator:wikidata": "Q668687", "ref": "6811400104"}, "type": "Feature"}
{"geometry": {"coordinates": [-96.074879213, 41.255542976], "type": "Point"}, "id": "yp7gyWb0YrbZYj2_Y6cxw4W7Rp8=", "properties": {"@source_uri": "https://tools.usps.com/UspsToolsRestServices/rest/POLocator/findLocations", "@spider": "usps_collection_boxes", "addr:city": "OMAHA", "addr:country": "US", "addr:postcode": "68114", "addr:state": "NE", "addr:street_address": "440 REGENCY PARKWAY DR", "amenity": "post_box", "collection_times": "Mo-Sa 11:30", "nsi_id": "unitedstatespostalservice-a77078", "operator": "United States Postal Service", "operator:short": "USPS", "operator:type": "public", "operator:wikidata": "Q668687", "ref": "6811400109"}, "type": "Feature"}
{"geometry": {"coordinates": [-96.052446458, 41.276911042], "type": "Point"}, "id": "u9TbbvNZYIgZyoGHfCXsPdD5odk=", "properties": {"@source_uri": "https://tools.usps.com/UspsToolsRestServices/rest/POLocator/findLocations", "@spider": "usps_collection_boxes", "addr:city": "OMAHA", "addr:country": "US", "addr:postcode": "68114", "addr:state": "NE", "addr:street_address": "9002 PARKER ST", "amenity": "post_box", "collection_times": "Mo-Sa 10:30", "nsi_id": "unitedstatespostalservice-a77078", "operator": "United States Postal Service", "operator:short": "USPS", "operator:type": "public", "operator:wikidata": "Q668687", "ref": "6811400113"}, "type": "Feature"}
{"geometry": {"coordinates": [-96.0368339606, 41.2608079944], "type": "Point"}, "id": "QJduApZ_LUiy-QqfZUVXC5pYlvI=", "properties": {"@source_uri": "https://tools.usps.com/UspsToolsRestServices/rest/POLocator/findLocations", "@spider": "usps_collection_boxes", "addr:city": "OMAHA", "addr:country": "US", "addr:postcode": "68114", "addr:state": "NE", "addr:street_address": "7811 DAVENPORT ST", "amenity": "post_box", "collection_times": "Mo-Fr 09:30", "nsi_id": "unitedstatespostalservice-a77078", "operator": "United States Postal Service", "operator:short": "USPS", "operator:type": "public", "operator:wikidata": "Q668687", "ref": "6811400114"}, "type": "Feature"}
{"geometry": {"coordinates": [-96.037722843, 41.263363453], "type": "Point"}, "id": "50BFHOAsfRlLM87WGwwQMEyNwdY=", "properties": {"@source_uri": "https://tools.usps.com/UspsToolsRestServices/rest/POLocator/findLocations", "@spider": "usps_collection_boxes", "addr:city": "OMAHA", "addr:country": "US", "addr:postcode": "68114", "addr:state": "NE", "addr:street_address": "7910 CASS ST", "amenity": "post_box", "collection_times": "Mo-Sa 09:30", "nsi_id": "unitedstatespostalservice-a77078", "operator": "United States Postal Service", "operator:short": "USPS", "operator:type": "public", "operator:wikidata": "Q668687", "ref": "6811400125"}, "type": "Feature"}
{"geometry": {"coordinates": [-96.048460452, 41.263396476], "type": "Point"}, "id": "9oVJQSZq0uubj7x4knVNs7vlJLk=", "properties": {"@source_uri": "https://tools.usps.com/UspsToolsRestServices/rest/POLocator/findLocations", "@spider": "usps_collection_boxes", "addr:city": "OMAHA", "addr:country": "US", "addr:postcode": "68114", "addr:state": "NE", "addr:street_address": "8712 W DODGE RD", "amenity": "post_box", "collection_times": "Mo-Fr 09:00", "nsi_id": "unitedstatespostalservice-a77078", "operator": "United States Postal Service", "operator:short": "USPS", "operator:type": "public", "operator:wikidata": "Q668687", "ref": "6811400144"}, "type": "Feature"}
{"geometry": {"coordinates": [-96.054992277, 41.270529513], "type": "Point"}, "id": "rzJ-eggFoAGUjM5TeIpOAeSc6P0=", "properties": {"@source_uri": "https://tools.usps.com/UspsToolsRestServices/rest/POLocator/findLocations", "@spider": "usps_collection_boxes", "addr:city": "OMAHA", "addr:country": "US", "addr:postcode": "68114", "addr:state": "NE", "addr:street_address": "9101 WESTERN AVE", "amenity": "post_box", "collection_times": "Mo-Fr 09:15", "nsi_id": "unitedstatespostalservice-a77078", "operator": "United States Postal Service", "operator:short": "USPS", "operator:type": "public", "operator:wikidata": "Q668687", "ref": "6811400152"}, "type": "Feature"}
{"geometry": {"coordinates": [-96.05249, 41.270225], "type": "Point"}, "id": "q4wf3AaRvlXFql_nd1yE-oGXLhM=", "properties": {"@source_uri": "https://tools.usps.com/UspsToolsRestServices/rest/POLocator/findLocations", "@spider": "usps_collection_boxes", "addr:city": "OMAHA", "addr:country": "US", "addr:postcode": "68114", "addr:state": "NE", "addr:street_address": "1111 N 102 CT", "amenity": "post_box", "collection_times": "Mo-Fr 09:15", "nsi_id": "unitedstatespostalservice-a77078", "operator": "United States Postal Service", "operator:short": "USPS", "operator:type": "public", "operator:wikidata": "Q668687", "ref": "6811400154"}, "type": "Feature"}
{"geometry": {"coordinates": [-96.072869929, 41.269410754], "type": "Point"}, "id": "YPU03lZZHOvbBRRGs8O_Y0IDUcc=", "properties": {"@source_uri": "https://tools.usps.com/UspsToolsRestServices/rest/POLocator/findLocations", "@spider": "usps_collection_boxes", "addr:city": "OMAHA", "addr:country": "US", "addr:postcode": "68114", "addr:state": "NE", "addr:street_address": "1111 N 102ND CT", "amenity": "post_box", "collection_times": "Mo-Fr 09:15", "nsi_id": "unitedstatespostalservice-a77078", "operator": "United States Postal Service", "operator:short": "USPS", "operator:type": "public", "operator:wikidata": "Q668687", "ref": "6811400155"}, "type": "Feature"}
{"geometry": {"coordinates": [-96.158008724, 41.277772071], "type": "Point"}, "id": "6QPtoxCD6_wmJO0efOz9NL3C90s=", "properties": {"@source_uri": "https://tools.usps.com/UspsToolsRestServices/rest/POLocator/findLocations", "@spider": "usps_collection_boxes", "addr:city": "OMAHA", "addr:country": "US", "addr:postcode": "68116", "addr:state": "NE", "addr:street_address": "2011 N 156TH ST", "amenity": "post_box", "collection_times": "Mo-Sa 10:30", "nsi_id": "unitedstatespostalservice-a77078", "operator": "United States Postal Service", "operator:short": "USPS", "operator:type": "public", "operator:wikidata": "Q668687", "ref": "6811600000"}, "type": "Feature"}
{"geometry": {"coordinates": [-96.156948705, 41.293482928], "type": "Point"}, "id": "LRfW2IGaEF4F8j-DjrZzu5spRPQ=", "properties": {"@source_uri": "https://tools.usps.com/UspsToolsRestServices/rest/POLocator/findLocations", "@spider": "usps_collection_boxes", "addr:city": "OMAHA", "addr:country": "US", "addr:postcode": "68116", "addr:state": "NE", "addr:street_address": "15525 SPAULDING PLZ", "amenity": "post_box", "collection_times": "Mo-Sa 11:00", "nsi_id": "unitedstatespostalservice-a77078", "operator": "United States Postal Service", "operator:short": "USPS", "operator:type": "public", "operator:wikidata": "Q668687", "ref": "6811600001"}, "type": "Feature"}
{"geometry": {"coordinates": [-96.158247063, 41.289882077], "type": "Point"}, "id": "ryrzKPPpMa5eICfsWTs4NI0NgNo=", "properties": {"@source_uri": "https://tools.usps.com/UspsToolsRestServices/rest/POLocator/findLocations", "@spider": "usps_collection_boxes", "addr:city": "OMAHA", "addr:country": "US", "addr:postcode": "68116", "addr:state": "NE", "addr:street_address": "3410 N 156TH ST", "amenity": "post_box", "collection_times": "Mo-Sa 09:45", "nsi_id": "unitedstatespostalservice-a77078", "operator": "United States Postal Service", "operator:short": "USPS", "operator:type": "public", "operator:wikidata": "Q668687", "ref": "6811600002"}, "type": "Feature"}
{"geometry": {"coordinates": [-96.023743426, 41.32113125], "type": "Point"}, "id": "t9XXQTusjhGHKWviuKHSjTKgISw=", "properties": {"@source_uri": "https://tools.usps.com/UspsToolsRestServices/rest/POLocator/findLocations", "@spider": "usps_collection_boxes", "addr:city": "OMAHA", "addr:country": "US", "addr:postcode": "68122", "addr:state": "NE", "addr:street_address": "6751 N 72ND ST", "amenity": "post_box", "collection_times": "Mo-Sa 10:00", "nsi_id": "unitedstatespostalservice-a77078", "operator": "United States Postal Service", "operator:short": "USPS", "operator:type": "public", "operator:wikidata": "Q668687", "ref": "6812200000"}, "type": "Feature"}
{"geometry": {"coordinates": [-96.023734741, 41.321453429], "type": "Point"}, "id": "6AeRuIdR9i_zgY0v_7EKmOEq5i4=", "properties": {"@source_uri": "https://tools.usps.com/UspsToolsRestServices/rest/POLocator/findLocations", "@spider": "usps_collection_boxes", "addr:city": "OMAHA", "addr:country": "US", "addr:postcode": "68122", "addr:state": "NE", "addr:street_address": "6901 N 72ND ST", "amenity": "post_box", "collection_times": "Mo-Sa 10:00", "nsi_id": "unitedstatespostalservice-a77078", "operator": "United States Postal Service", "operator:short": "USPS", "operator:type": "public", "operator:wikidata": "Q668687", "ref": "6812200002"}, "type": "Feature"}
{"geometry": {"coordinates": [-96.0654759821, 41.3216799003], "type": "Point"}, "id": "-S2E1p5Z2Jowvl-KOSnAIQD1HAk=", "properties": {"@source_uri": "https://tools.usps.com/UspsToolsRestServices/rest/POLocator/findLocations", "@spider": "usps_collection_boxes", "addr:city": "OMAHA", "addr:country": "US", "addr:postcode": "68122", "addr:state": "NE", "addr:street_address": "6916 N 97TH CIR", "amenity": "post_box", "collection_times": "Mo-Sa 10:00", "nsi_id": "unitedstatespostalservice-a77078", "operator": "United States Postal Service", "operator:short": "USPS", "operator:type": "public", "operator:wikidata": "Q668687", "ref": "6812200003"}, "type": "Feature"}
{"geometry": {"coordinates": [-95.963506449, 41.131022468], "type": "Point"}, "id": "nXMlCAFLN_x53rf8XX-3KsnJPFs=", "properties": {"@source_uri": "https://tools.usps.com/UspsToolsRestServices/rest/POLocator/findLocations", "@spider": "usps_collection_boxes", "addr:city": "BELLEVUE", "addr:country": "US", "addr:postcode": "68123", "addr:state": "NE", "addr:street_address": "3410 GRANADA PKWY", "amenity": "post_box", "collection_times": "Mo-Sa 11:30", "nsi_id": "unitedstatespostalservice-a77078", "operator": "United States Postal Service", "operator:short": "USPS", "operator:type": "public", "operator:wikidata": "Q668687", "ref": "6812300006"}, "type": "Feature"}
{"geometry": {"coordinates": [-95.959995736, 41.137342684], "type": "Point"}, "id": "Z71sHL87trIC_147ggfrJigq93g=", "properties": {"@source_uri": "https://tools.usps.com/UspsToolsRestServices/rest/POLocator/findLocations", "@spider": "usps_collection_boxes", "addr:city": "BELLEVUE", "addr:country": "US", "addr:postcode": "68123", "addr:state": "NE", "addr:street_address": "3117 COMSTOCK AVE", "amenity": "post_box", "collection_times": "Mo-Sa 11:00", "nsi_id": "unitedstatespostalservice-a77078", "operator": "United States Postal Service", "operator:short": "USPS", "operator:type": "public", "operator:wikidata": "Q668687", "ref": "6812300007"}, "type": "Feature"}
{"geometry": {"coordinates": [-95.9685324447, 41.1175356211], "type": "Point"}, "id": "Y3AnGsRma8ljduucTNGaY4PWuMc=", "properties": {"@source_uri": "https://tools.usps.com/UspsToolsRestServices/rest/POLocator/findLocations", "@spider": "usps_collection_boxes", "addr:city": "BELLEVUE", "addr:country": "US", "addr:postcode": "68123", "addr:state": "NE", "addr:street_address": "3701 LEAWOOD DR", "amenity": "post_box", "collection_times": "Mo-Sa 10:00", "nsi_id": "unitedstatespostalservice-a77078", "operator": "United States Postal Service", "operator:short": "USPS", "operator:type": "public", "operator:wikidata": "Q668687", "ref": "6812300008"}, "type": "Feature"}
{"geometry": {"coordinates": [-95.941435273, 41.1163305], "type": "Point"}, "id": "omvQAn6Ep3nSSDTuIwzTTQ6cUEI=", "properties": {"@source_uri": "https://tools.usps.com/UspsToolsRestServices/rest/POLocator/findLocations", "@spider": "usps_collection_boxes", "addr:city": "BELLEVUE", "addr:country": "US", "addr:postcode": "68123", "addr:state": "NE", "addr:street_address": "1729 SCARBOROUGH DR", "amenity": "post_box", "collection_times": "Mo-Sa 11:00", "nsi_id": "unitedstatespostalservice-a77078", "operator": "United States Postal Service", "operator:short": "USPS", "operator:type": "public", "operator:wikidata": "Q668687", "ref": "6812300011"}, "type": "Feature"}
{"geometry": {"coordinates": [-95.95448249, 41.120782548], "type": "Point"}, "id": "8TEP30Kj3cQYPakm0deBJ-2-9D8=", "properties": {"@source_uri": "https://tools.usps.com/UspsToolsRestServices/rest/POLocator/findLocations", "@spider": "usps_collection_boxes", "addr:city": "BELLEVUE", "addr:country": "US", "addr:postcode": "68123", "addr:state": "NE", "addr:street_address": "2871 CAPEHART RD", "amenity": "post_box", "collection_times": "Mo-Sa 14:00", "note": "ON 12/24 AND 12/31, THIS BOX MAY BE COLLECTED AS EARLY AS 12 NOON.", "nsi_id": "unitedstatespostalservice-a77078", "operator": "United States Postal Service", "operator:short": "USPS", "operator:type": "public", "operator:wikidata": "Q668687", "ref": "6812300012"}, "type": "Feature"}
{"geometry": {"coordinates": [-95.944190223, 41.160279451], "type": "Point"}, "id": "ugvRHwRbO2FpokTrxY-34nMb82E=", "properties": {"@source_uri": "https://tools.usps.com/UspsToolsRestServices/rest/POLocator/findLocations", "@spider": "usps_collection_boxes", "addr:city": "BELLEVUE", "addr:country": "US", "addr:postcode": "68123", "addr:state": "NE", "addr:street_address": "2202 GREGG RD", "amenity": "post_box", "collection_times": "Mo-Sa 10:00", "nsi_id": "unitedstatespostalservice-a77078", "operator": "United States Postal Service", "operator:short": "USPS", "operator:type": "public", "operator:wikidata": "Q668687", "ref": "6812300013"}, "type": "Feature"}
{"geometry": {"coordinates": [-96.038455591, 41.233690029], "type": "Point"}, "id": "hLbdAdUuv_8IkCt2OGQYPJ--EWM=", "properties": {"@source_uri": "https://tools.usps.com/UspsToolsRestServices/rest/POLocator/findLocations", "@spider": "usps_collection_boxes", "addr:city": "OMAHA", "addr:country": "US", "addr:postcode": "68124", "addr:state": "NE", "addr:street_address": "8031 W CENTER RD", "amenity": "post_box", "collection_times": "Mo-Fr 09:15; Sa 11:30", "nsi_id": "unitedstatespostalservice-a77078", "operator": "United States Postal Service", "operator:short": "USPS", "operator:type": "public", "operator:wikidata": "Q668687", "ref": "6812400013"}, "type": "Feature"}
{"geometry": {"coordinates": [-96.0324525, 41.237873467], "type": "Point"}, "id": "70p31dmj5phdDk7mmhOz5AWjiRc=", "properties": {"@source_uri": "https://tools.usps.com/UspsToolsRestServices/rest/POLocator/findLocations", "@spider": "usps_collection_boxes", "addr:city": "OMAHA", "addr:country": "US", "addr:postcode": "68124", "addr:state": "NE", "addr:street_address": "7710 MERCY RD", "amenity": "post_box", "collection_times": "Mo-Sa 10:30", "nsi_id": "unitedstatespostalservice-a77078", "operator": "United States Postal Service", "operator:short": "USPS", "operator:type": "public", "operator:wikidata": "Q668687", "ref": "6812400014"}, "type": "Feature"}
{"geometry": {"coordinates": [-96.023997993, 41.239206189], "type": "Point"}, "id": "TNj6U9ZjB6n4cbGwnfKAXNboMEg=", "properties": {"@source_uri": "https://tools.usps.com/UspsToolsRestServices/rest/POLocator/findLocations", "@spider": "usps_collection_boxes", "addr:city": "OMAHA", "addr:country": "US", "addr:postcode": "68124", "addr:state": "NE", "addr:street_address": "2120 S 72ND ST", "amenity": "post_box", "collection_times": "Mo-Fr 09:15", "nsi_id": "unitedstatespostalservice-a77078", "operator": "United States Postal Service", "operator:short": "USPS", "operator:type": "public", "operator:wikidata": "Q668687", "ref": "6812400034"}, "type": "Feature"}
{"geometry": {"coordinates": [-96.051403004, 41.234110487], "type": "Point"}, "id": "otvbhTlff8jk7mBQ6ZQsKEA3Uo0=", "properties": {"@source_uri": "https://tools.usps.com/UspsToolsRestServices/rest/POLocator/findLocations", "@spider": "usps_collection_boxes", "addr:city": "OMAHA", "addr:country": "US", "addr:postcode": "68124", "addr:state": "NE", "addr:street_address": "8809 W CENTER RD", "amenity": "post_box", "collection_times": "Mo-Sa 09:00", "nsi_id": "unitedstatespostalservice-a77078", "operator": "United States Postal Service", "operator:short": "USPS", "operator:type": "public", "operator:wikidata": "Q668687", "ref": "6812400040"}, "type": "Feature"}
{"geometry": {"coordinates": [-96.046231508, 41.234134018], "type": "Point"}, "id": "UCozIsicUXYWWDrN2Ie6qdfEPns=", "properties": {"@source_uri": "https://tools.usps.com/UspsToolsRestServices/rest/POLocator/findLocations", "@spider": "usps_collection_boxes", "addr:city": "OMAHA", "addr:country": "US", "addr:postcode": "68124", "addr:state": "NE", "addr:street_address": "8451 W CENTER RD", "amenity": "post_box", "collection_times": "Mo-Fr 17:30; Sa 16:30", "indoor": "yes", "note": "ON 12/24 AND 12/31, THIS BOX MAY BE COLLECTED AS EARLY AS 12 NOON.", "nsi_id": "unitedstatespostalservice-a77078", "operator": "United States Postal Service", "operator:short": "USPS", "operator:type": "public", "operator:wikidata": "Q668687", "ref": "6812400041"}, "type": "Feature"}
{"geometry": {"coordinates": [-96.046231508, 41.234134018], "type": "Point"}, "id": "c25OOz28zoztZjazs8-3d1JfyYk=", "properties": {"@source_uri": "https://tools.usps.com/UspsToolsRestServices/rest/POLocator/findLocations", "@spider": "usps_collection_boxes", "addr:city": "OMAHA", "addr:country": "US", "addr:postcode": "68124", "addr:state": "NE", "addr:street_address": "8451 W CENTER RD", "amenity": "post_box", "collection_times": "Mo-Fr 17:30; Sa 16:30", "indoor": "yes", "note": "ON 12/24 AND 12/31, THIS BOX MAY BE COLLECTED AS EARLY AS 12 NOON.", "nsi_id": "unitedstatespostalservice-a77078", "operator": "United States Postal Service", "operator:short": "USPS", "operator:type": "public", "operator:wikidata": "Q668687", "ref": "6812400042"}, "type": "Feature"}
{"geometry": {"coordinates": [-96.070007011, 41.24763], "type": "Point"}, "id": "I3b2UVVlOJCTwn0UzXYI-UVFtrg=", "properties": {"@source_uri": "https://tools.usps.com/UspsToolsRestServices/rest/POLocator/findLocations", "@spider": "usps_collection_boxes", "addr:city": "OMAHA", "addr:country": "US", "addr:postcode": "68124", "addr:state": "NE", "addr:street_address": "1120 S 101ST ST", "amenity": "post_box", "collection_times": "Mo-Fr 09:45", "nsi_id": "unitedstatespostalservice-a77078", "operator": "United States Postal Service", "operator:short": "USPS", "operator:type": "public", "operator:wikidata": "Q668687", "ref": "6812400047"}, "type": "Feature"}
{"geometry": {"coordinates": [-96.046231508, 41.234134018], "type": "Point"}, "id": "-yoDlzD7_3hhqw5xFwm2Bo5T3V4=", "properties": {"@source_uri": "https://tools.usps.com/UspsToolsRestServices/rest/POLocator/findLocations", "@spider": "usps_collection_boxes", "addr:city": "OMAHA", "addr:country": "US", "addr:postcode": "68124", "addr:state": "NE", "addr:street_address": "8451 W CENTER RD", "amenity": "post_box", "collection_times": "Mo-Fr 17:30; Sa 16:30", "name": "USPS COLLECTION BOX - APC", "note": "ON 12/24 AND 12/31, THIS BOX MAY BE COLLECTED AS EARLY AS 12 NOON.", "nsi_id": "unitedstatespostalservice-a77078", "operator": "United States Postal Service", "operator:short": "USPS", "operator:type": "public", "operator:wikidata": "Q668687", "ref": "6812400049"}, "type": "Feature"}
{"geometry": {"coordinates": [-96.046231508, 41.234134018], "type": "Point"}, "id": "fEbxRIxxIXKgIpD2imkFGYlJ9rI=", "properties": {"@source_uri": "https://tools.usps.com/UspsToolsRestServices/rest/POLocator/findLocations", "@spider": "usps_collection_boxes", "addr:city": "OMAHA", "addr:country": "US", "addr:postcode": "68124", "addr:state": "NE", "addr:street_address": "8451 W CENTER RD", "amenity": "post_box", "collection_times": "Mo-Fr 17:30; Sa 16:30", "note": "ON 12/24 AND 12/31, THIS BOX MAY BE COLLECTED AS EARLY AS 12 NOON.", "nsi_id": "unitedstatespostalservice-a77078", "operator": "United States Postal Service", "operator:short": "USPS", "operator:type": "public", "operator:wikidata": "Q668687", "ref": "6812400058"}, "type": "Feature"}
{"geometry": {"coordinates": [-96.046231508, 41.234134018], "type": "Point"}, "id": "Kx5fwbyzJHWydd5ftXBIb37fEYQ=", "properties": {"@source_uri": "https://tools.usps.com/UspsToolsRestServices/rest/POLocator/findLocations", "@spider": "usps_collection_boxes", "addr:city": "OMAHA", "addr:country": "US", "addr:postcode": "68124", "addr:state": "NE", "addr:street_address": "8451 W CENTER RD", "amenity": "post_box", "collection_times": "Mo-Fr 17:30; Sa 16:00", "indoor": "yes", "note": "ON 12/24 AND 12/31, THIS BOX MAY BE COLLECTED AS EARLY AS 12 NOON.", "nsi_id": "unitedstatespostalservice-a77078", "operator": "United States Postal Service", "operator:short": "USPS", "operator:type": "public", "operator:wikidata": "Q668687", "ref": "6812400062"}, "type": "Feature"}
{"geometry": {"coordinates": [-96.0260987206, 41.2021602571], "type": "Point"}, "id": "hOfVsambgZ45yvQg0I6d3y2O1OI=", "properties": {"@source_uri": "https://tools.usps.com/UspsToolsRestServices/rest/POLocator/findLocations", "@spider": "usps_collection_boxes", "addr:city": "OMAHA", "addr:country": "US", "addr:postcode": "68127", "addr:state": "NE", "addr:street_address": "7300 MAIN ST", "amenity": "post_box", "collection_times": "Mo-Fr 17:15; Sa 16:00", "note": "ON 12/24 AND 12/31, THIS BOX MAY BE COLLECTED AS EARLY AS 12 NOON.", "nsi_id": "unitedstatespostalservice-a77078", "operator": "United States Postal Service", "operator:short": "USPS", "operator:type": "public", "operator:wikidata": "Q668687", "ref": "6812700000"}, "type": "Feature"}
{"geometry": {"coordinates": [-96.035764231, 41.212171585], "type": "Point"}, "id": "LGFgt8VUYIRiiJ7TXb8GjoyfHys=", "properties": {"@source_uri": "https://tools.usps.com/UspsToolsRestServices/rest/POLocator/findLocations", "@spider": "usps_collection_boxes", "addr:city": "OMAHA", "addr:country": "US", "addr:postcode": "68127", "addr:state": "NE", "addr:street_address": "4702 S 78TH AVE", "amenity": "post_box", "collection_times": "Mo-Sa 10:30", "nsi_id": "unitedstatespostalservice-a77078", "operator": "United States Postal Service", "operator:short": "USPS", "operator:type": "public", "operator:wikidata": "Q668687", "ref": "6812700010"}, "type": "Feature"}
{"geometry": {"coordinates": [-96.049022162, 41.21624613], "type": "Point"}, "id": "Fiumj5ove08isOdxuP4Nqy48Rbk=", "properties": {"@source_uri": "https://tools.usps.com/UspsToolsRestServices/rest/POLocator/findLocations", "@spider": "usps_collection_boxes", "addr:city": "OMAHA", "addr:country": "US", "addr:postcode": "68127", "addr:state": "NE", "addr:street_address": "4420 S 89TH ST", "amenity": "post_box", "collection_times": "Mo-Fr 11:00", "nsi_id": "unitedstatespostalservice-a77078", "operator": "United States Postal Service", "operator:short": "USPS", "operator:type": "public", "operator:wikidata": "Q668687", "ref": "6812700015"}, "type": "Feature"}
{"geometry": {"coordinates": [-96.063411963, 41.205312533], "type": "Point"}, "id": "uW8BKgr9p7eOzyLbjDF0CqmOWuI=", "properties": {"@source_uri": "https://tools.usps.com/UspsToolsRestServices/rest/POLocator/findLocations", "@spider": "usps_collection_boxes", "addr:city": "OMAHA", "addr:country": "US", "addr:postcode": "68127", "addr:state": "NE", "addr:street_address": "9707 Q ST", "amenity": "post_box", "collection_times": "Mo-Sa 08:45", "nsi_id": "unitedstatespostalservice-a77078", "operator": "United States Postal Service", "operator:short": "USPS", "operator:type": "public", "operator:wikidata": "Q668687", "ref": "6812700021"}, "type": "Feature"}
{"geometry": {"coordinates": [-96.062176468, 41.20955144], "type": "Point"}, "id": "sCLb61srOgUKK_1LyzvGYP2TnKo=", "properties": {"@source_uri": "https://tools.usps.com/UspsToolsRestServices/rest/POLocator/findLocations", "@spider": "usps_collection_boxes", "addr:city": "OMAHA", "addr:country": "US", "addr:postcode": "68127", "addr:state": "NE", "addr:street_address": "4870 S 96TH ST", "amenity": "post_box", "collection_times": "Mo-Sa 10:00", "nsi_id": "unitedstatespostalservice-a77078", "operator": "United States Postal Service", "operator:short": "USPS", "operator:type": "public", "operator:wikidata": "Q668687", "ref": "6812700022"}, "type": "Feature"}
{"geometry": {"coordinates": [-96.0726565896, 41.2142496884], "type": "Point"}, "id": "BcbIus4bprGvkJMkz-kyUXyTz6M=", "properties": {"@source_uri": "https://tools.usps.com/UspsToolsRestServices/rest/POLocator/findLocations", "@spider": "usps_collection_boxes", "addr:city": "OMAHA", "addr:country": "US", "addr:postcode": "68127", "addr:state": "NE", "addr:street_address": "10202 J ST", "amenity": "post_box", "collection_times": "Mo-Sa 10:15", "nsi_id": "unitedstatespostalservice-a77078", "operator": "United States Postal Service", "operator:short": "USPS", "operator:type": "public", "operator:wikidata": "Q668687", "ref": "6812700024"}, "type": "Feature"}
{"geometry": {"coordinates": [-96.0261954, 41.202169246], "type": "Point"}, "id": "AsiGpqn6r0Kzokerr8uGDyqerws=", "properties": {"@source_uri": "https://tools.usps.com/UspsToolsRestServices/rest/POLocator/findLocations", "@spider": "usps_collection_boxes", "addr:city": "OMAHA", "addr:country": "US", "addr:postcode": "68127", "addr:state": "NE", "addr:street_address": "7300 MAIN ST", "amenity": "post_box", "collection_times": "Mo-Fr 17:00; Sa 16:00", "indoor": "yes", "note": "ON 12/24 AND 12/31, THIS BOX MAY BE COLLECTED AS EARLY AS 12 NOON.", "nsi_id": "unitedstatespostalservice-a77078", "operator": "United States Postal Service", "operator:short": "USPS", "operator:type": "public", "operator:wikidata": "Q668687", "ref": "6812700052"}, "type": "Feature"}
{"geometry": {"coordinates": [-96.0261954, 41.202169246], "type": "Point"}, "id": "aobdtVRWtAzP3KUQ6NkA4iRk1hc=", "properties": {"@source_uri": "https://tools.usps.com/UspsToolsRestServices/rest/POLocator/findLocations", "@spider": "usps_collection_boxes", "addr:city": "OMAHA", "addr:country": "US", "addr:postcode": "68127", "addr:state": "NE", "addr:street_address": "7300 MAIN ST", "amenity": "post_box", "collection_times": "Mo-Fr 17:00; Sa 13:00", "indoor": "yes", "note": "ON 12/24 AND 12/31, THIS BOX MAY BE COLLECTED AS EARLY AS 12 NOON.", "nsi_id": "unitedstatespostalservice-a77078", "operator": "United States Postal Service", "operator:short": "USPS", "operator:type": "public", "operator:wikidata": "Q668687", "ref": "6812700071"}, "type": "Feature"}
{"geometry": {"coordinates": [-96.043168984, 41.178696992], "type": "Point"}, "id": "KY9yLFc3OTQ4ahruwsG0z9TC3UA=", "properties": {"@source_uri": "https://tools.usps.com/UspsToolsRestServices/rest/POLocator/findLocations", "@spider": "usps_collection_boxes", "addr:city": "PAPILLION", "addr:country": "US", "addr:postcode": "68128", "addr:state": "NE", "addr:street_address": "8010 S 84TH ST", "amenity": "post_box", "collection_times": "Mo-Sa 12:00", "nsi_id": "unitedstatespostalservice-a77078", "operator": "United States Postal Service", "operator:short": "USPS", "operator:type": "public", "operator:wikidata": "Q668687", "ref": "6812800009"}, "type": "Feature"}
{"geometry": {"coordinates": [-96.044020921, 41.187586549], "type": "Point"}, "id": "RUN-sfesxL2YgLoUfdozlREzxWc=", "properties": {"@source_uri": "https://tools.usps.com/UspsToolsRestServices/rest/POLocator/findLocations", "@spider": "usps_collection_boxes", "addr:city": "PAPILLION", "addr:country": "US", "addr:postcode": "68128", "addr:state": "NE", "addr:street_address": "8501 PARK VIEW BLVD", "amenity": "post_box", "collection_times": "Mo-Sa 10:30", "nsi_id": "unitedstatespostalservice-a77078", "operator": "United States Postal Service", "operator:short": "USPS", "operator:type": "public", "operator:wikidata": "Q668687", "ref": "6812800011"}, "type": "Feature"}
{"geometry": {"coordinates": [-96.022346958, 41.174487], "type": "Point"}, "id": "eUo8BidnEgYDUqGj0Ob1PsbCCEs=", "properties": {"@source_uri": "https://tools.usps.com/UspsToolsRestServices/rest/POLocator/findLocations", "@spider": "usps_collection_boxes", "addr:city": "PAPILLION", "addr:country": "US", "addr:postcode": "68128", "addr:state": "NE", "addr:street_address": "8525 S 71ST PLZ", "amenity": "post_box", "collection_times": "Mo-Sa 12:00", "nsi_id": "unitedstatespostalservice-a77078", "operator": "United States Postal Service", "operator:short": "USPS", "operator:type": "public", "operator:wikidata": "Q668687", "ref": "6812800016"}, "type": "Feature"}
{"geometry": {"coordinates": [-96.06694751, 41.176772413], "type": "Point"}, "id": "E5oUObt0S65qXxt5YaVpjNOdVV0=", "properties": {"@source_uri": "https://tools.usps.com/UspsToolsRestServices/rest/POLocator/findLocations", "@spider": "usps_collection_boxes", "addr:city": "PAPILLION", "addr:country": "US", "addr:postcode": "68128", "addr:state": "NE", "addr:street_address": "8250 S 99TH ST", "amenity": "post_box", "collection_times": "Mo-Sa 10:45", "nsi_id": "unitedstatespostalservice-a77078", "operator": "United States Postal Service", "operator:short": "USPS", "operator:type": "public", "operator:wikidata": "Q668687", "ref": "6812800018"}, "type": "Feature"}
{"geometry": {"coordinates": [-96.081480195, 41.190244379], "type": "Point"}, "id": "BL5_pT76gH52FsF5K5mpcjIOJIc=", "properties": {"@source_uri": "https://tools.usps.com/UspsToolsRestServices/rest/POLocator/findLocations", "@spider": "usps_collection_boxes", "addr:city": "PAPILLION", "addr:country": "US", "addr:postcode": "68128", "addr:state": "NE", "addr:street_address": "6910 S 108TH ST", "amenity": "post_box", "collection_times": "Mo-Sa 11:30", "nsi_id": "unitedstatespostalservice-a77078", "operator": "United States Postal Service", "operator:short": "USPS", "operator:type": "public", "operator:wikidata": "Q668687", "ref": "6812800019"}, "type": "Feature"}
{"geometry": {"coordinates": [-96.0780060366, 41.174515002], "type": "Point"}, "id": "Wq4vMtr21SHgzVl49D9iquZRYU8=", "properties": {"@source_uri": "https://tools.usps.com/UspsToolsRestServices/rest/POLocator/findLocations", "@spider": "usps_collection_boxes", "addr:city": "PAPILLION", "addr:country": "US", "addr:postcode": "68128", "addr:state": "NE", "addr:street_address": "10717 VIRGINIA PLZ STE 119", "amenity": "post_box", "collection_times": "Mo-Sa 10:45", "nsi_id": "unitedstatespostalservice-a77078", "operator": "United States Postal Service", "operator:short": "USPS", "operator:type": "public", "operator:wikidata": "Q668687", "ref": "6812800024"}, "type": "Feature"}
{"geometry": {"coordinates": [-96.187571013, 41.235621856], "type": "Point"}, "id": "xHsOtCiChZPIMYHGfmfRDGD4ozE=", "properties": {"@source_uri": "https://tools.usps.com/UspsToolsRestServices/rest/POLocator/findLocations", "@spider": "usps_collection_boxes", "addr:city": "OMAHA", "addr:country": "US", "addr:postcode": "68130", "addr:state": "NE", "addr:street_address": "17440 LAKESIDE HILLS PLZ", "amenity": "post_box", "collection_times": "Mo-Sa 09:45", "nsi_id": "unitedstatespostalservice-a77078", "operator": "United States Postal Service", "operator:short": "USPS", "operator:type": "public", "operator:wikidata": "Q668687", "ref": "6813000008"}, "type": "Feature"}
{"geometry": {"coordinates": [-96.199133391, 41.233157518], "type": "Point"}, "id": "0WtHDRle8SwyCm2z7vOz56GLml4=", "properties": {"@source_uri": "https://tools.usps.com/UspsToolsRestServices/rest/POLocator/findLocations", "@spider": "usps_collection_boxes", "addr:city": "OMAHA", "addr:country": "US", "addr:postcode": "68130", "addr:state": "NE", "addr:street_address": "18201 WRIGHT ST", "amenity": "post_box", "collection_times": "Mo-Sa 10:30", "nsi_id": "unitedstatespostalservice-a77078", "operator": "United States Postal Service", "operator:short": "USPS", "operator:type": "public", "operator:wikidata": "Q668687", "ref": "6813000015"}, "type": "Feature"}
{"geometry": {"coordinates": [-96.18118309, 41.239030547], "type": "Point"}, "id": "Mu6416bvABWU-lzEb_A7HVdymi8=", "properties": {"@source_uri": "https://tools.usps.com/UspsToolsRestServices/rest/POLocator/findLocations", "@spider": "usps_collection_boxes", "addr:city": "OMAHA", "addr:country": "US", "addr:postcode": "68130", "addr:state": "NE", "addr:street_address": "16901 LAKESIDE HILLS CT", "amenity": "post_box", "collection_times": "Mo-Sa 10:00", "nsi_id": "unitedstatespostalservice-a77078", "operator": "United States Postal Service", "operator:short": "USPS", "operator:type": "public", "operator:wikidata": "Q668687", "ref": "6813000018"}, "type": "Feature"}
{"geometry": {"coordinates": [-96.1936989699, 41.2484238931], "type": "Point"}, "id": "6GTv3eVmJE39j1hlz6h_ovf0mIE=", "properties": {"@source_uri": "https://tools.usps.com/UspsToolsRestServices/rest/POLocator/findLocations", "@spider": "usps_collection_boxes", "addr:city": "OMAHA", "addr:country": "US", "addr:postcode": "68130", "addr:state": "NE", "addr:street_address": "17819 PACIFIC ST", "amenity": "post_box", "collection_times": "Mo-Sa 09:00", "nsi_id": "unitedstatespostalservice-a77078", "operator": "United States Postal Service", "operator:short": "USPS", "operator:type": "public", "operator:wikidata": "Q668687", "ref": "6813000021"}, "type": "Feature"}
{"geometry": {"coordinates": [-95.950586988, 41.25767802], "type": "Point"}, "id": "ReAKwXh5gWIRF4LRqIZ5gKIHBog=", "properties": {"@source_uri": "https://tools.usps.com/UspsToolsRestServices/rest/POLocator/findLocations", "@spider": "usps_collection_boxes", "addr:city": "OMAHA", "addr:country": "US", "addr:postcode": "68131", "addr:state": "NE", "addr:street_address": "2600 FARNAM ST", "amenity": "post_box", "collection_times": "Mo-Sa 10:00", "nsi_id": "unitedstatespostalservice-a77078", "operator": "United States Postal Service", "operator:short": "USPS", "operator:type": "public", "operator:wikidata": "Q668687", "ref": "6813100006"}, "type": "Feature"}
{"geometry": {"coordinates": [-95.948282886, 41.267969513], "type": "Point"}, "id": "yN0bXLSoDJ_b2xBdg_D8ztmFsOg=", "properties": {"@source_uri": "https://tools.usps.com/UspsToolsRestServices/rest/POLocator/findLocations", "@spider": "usps_collection_boxes", "addr:city": "OMAHA", "addr:country": "US", "addr:postcode": "68131", "addr:state": "NE", "addr:street_address": "2412 CUMING ST", "amenity": "post_box", "collection_times": "Mo-Sa 09:15", "nsi_id": "unitedstatespostalservice-a77078", "operator": "United States Postal Service", "operator:short": "USPS", "operator:type": "public", "operator:wikidata": "Q668687", "ref": "6813100011"}, "type": "Feature"}
{"geometry": {"coordinates": [-95.9568435, 41.259691481], "type": "Point"}, "id": "92g8d5_z8t0zzdMnNbAtFIzliPc=", "properties": {"@source_uri": "https://tools.usps.com/UspsToolsRestServices/rest/POLocator/findLocations", "@spider": "usps_collection_boxes", "addr:city": "OMAHA", "addr:country": "US", "addr:postcode": "68131", "addr:state": "NE", "addr:street_address": "3001 DODGE ST", "amenity": "post_box", "collection_times": "Mo-Fr 11:00", "nsi_id": "unitedstatespostalservice-a77078", "operator": "United States Postal Service", "operator:short": "USPS", "operator:type": "public", "operator:wikidata": "Q668687", "ref": "6813100014"}, "type": "Feature"}
{"geometry": {"coordinates": [-95.9574825, 41.256661472], "type": "Point"}, "id": "fmEKkL1eiF_s_z9to71mdg1slhM=", "properties": {"@source_uri": "https://tools.usps.com/UspsToolsRestServices/rest/POLocator/findLocations", "@spider": "usps_collection_boxes", "addr:city": "OMAHA", "addr:country": "US", "addr:postcode": "68131", "addr:state": "NE", "addr:street_address": "3024 HARNEY ST", "amenity": "post_box", "collection_times": "Mo-Fr 09:15", "nsi_id": "unitedstatespostalservice-a77078", "operator": "United States Postal Service", "operator:short": "USPS", "operator:type": "public", "operator:wikidata": "Q668687", "ref": "6813100016"}, "type": "Feature"}
{"geometry": {"coordinates": [-95.962934181, 41.259699062], "type": "Point"}, "id": "T2z7d3iwFP4m-wJFcP3bTiP8NDk=", "properties": {"@source_uri": "https://tools.usps.com/UspsToolsRestServices/rest/POLocator/findLocations", "@spider": "usps_collection_boxes", "addr:city": "OMAHA", "addr:country": "US", "addr:postcode": "68131", "addr:state": "NE", "addr:street_address": "100 S 34TH ST", "amenity": "post_box", "collection_times": "Mo-Sa 09:00", "nsi_id": "unitedstatespostalservice-a77078", "operator": "United States Postal Service", "operator:short": "USPS", "operator:type": "public", "operator:wikidata": "Q668687", "ref": "6813100022"}, "type": "Feature"}
{"geometry": {"coordinates": [-95.969068866, 41.257108731], "type": "Point"}, "id": "gf3Pr73RleY7p62UmMEpfuhop2c=", "properties": {"@source_uri": "https://tools.usps.com/UspsToolsRestServices/rest/POLocator/findLocations", "@spider": "usps_collection_boxes", "addr:city": "OMAHA", "addr:country": "US", "addr:postcode": "68131", "addr:state": "NE", "addr:street_address": "402 S 38TH ST", "amenity": "post_box", "collection_times": "Mo-Sa 13:00", "note": "ON 12/24 AND 12/31, THIS BOX MAY BE COLLECTED AS EARLY AS 12 NOON.", "nsi_id": "unitedstatespostalservice-a77078", "operator": "United States Postal Service", "operator:short": "USPS", "operator:type": "public", "operator:wikidata": "Q668687", "ref": "6813100031"}, "type": "Feature"}
{"geometry": {"coordinates": [-95.976511673, 41.257772488], "type": "Point"}, "id": "YKH5xoBbBs1KC7jirS0rGgKM3PA=", "properties": {"@source_uri": "https://tools.usps.com/UspsToolsRestServices/rest/POLocator/findLocations", "@spider": "usps_collection_boxes", "addr:city": "OMAHA", "addr:country": "US", "addr:postcode": "68131", "addr:state": "NE", "addr:street_address": "4239 FARNAM ST", "amenity": "post_box", "collection_times": "Mo-Sa 09:15", "nsi_id": "unitedstatespostalservice-a77078", "operator": "United States Postal Service", "operator:short": "USPS", "operator:type": "public", "operator:wikidata": "Q668687", "ref": "6813100039"}, "type": "Feature"}
{"geometry": {"coordinates": [-95.9778006392, 41.2578435193], "type": "Point"}, "id": "X9rq4tSt2DDi2dSf15tXHAeGhrU=", "properties": {"@source_uri": "https://tools.usps.com/UspsToolsRestServices/rest/POLocator/findLocations", "@spider": "usps_collection_boxes", "addr:city": "OMAHA", "addr:country": "US", "addr:postcode": "68131", "addr:state": "NE", "addr:street_address": "4242 FARNAM ST", "amenity": "post_box", "collection_times": "Mo-Fr 09:15", "nsi_id": "unitedstatespostalservice-a77078", "operator": "United States Postal Service", "operator:short": "USPS", "operator:type": "public", "operator:wikidata": "Q668687", "ref": "6813100042"}, "type": "Feature"}
{"geometry": {"coordinates": [-95.9569605, 41.257704497], "type": "Point"}, "id": "-8zr9hVkUOEcAZUO36caewEGEe4=", "properties": {"@source_uri": "https://tools.usps.com/UspsToolsRestServices/rest/POLocator/findLocations", "@spider": "usps_collection_boxes", "addr:city": "OMAHA", "addr:country": "US", "addr:postcode": "68131", "addr:state": "NE", "addr:street_address": "3000 FARNAM ST", "amenity": "post_box", "collection_times": "Mo-Sa 13:00", "note": "ON 12/24 AND 12/31, THIS BOX MAY BE COLLECTED AS EARLY AS 12 NOON.", "nsi_id": "unitedstatespostalservice-a77078", "operator": "United States Postal Service", "operator:short": "USPS", "operator:type": "public", "operator:wikidata": "Q668687", "ref": "6813100066"}, "type": "Feature"}
{"geometry": {"coordinates": [-95.9812969789, 41.265293989], "type": "Point"}, "id": "cwfuhm4vNZO6F0vK4o25lxKTCrk=", "properties": {"@source_uri": "https://tools.usps.com/UspsToolsRestServices/rest/POLocator/findLocations", "@spider": "usps_collection_boxes", "addr:city": "OMAHA", "addr:country": "US", "addr:postcode": "68132", "addr:state": "NE", "addr:street_address": "608 N SADDLE CREEK RD", "amenity": "post_box", "collection_times": "Mo-Fr 17:15; Sa 16:45", "note": "ON 12/24 AND 12/31, THIS BOX MAY BE COLLECTED AS EARLY AS 12 NOON.", "nsi_id": "unitedstatespostalservice-a77078", "operator": "United States Postal Service", "operator:short": "USPS", "operator:type": "public", "operator:wikidata": "Q668687", "ref": "6813200000"}, "type": "Feature"}
{"geometry": {"coordinates": [-95.986143087, 41.262169974], "type": "Point"}, "id": "CHuII0pCts3EnxqbktMhKc9SMuE=", "properties": {"@source_uri": "https://tools.usps.com/UspsToolsRestServices/rest/POLocator/findLocations", "@spider": "usps_collection_boxes", "addr:city": "OMAHA", "addr:country": "US", "addr:postcode": "68132", "addr:state": "NE", "addr:street_address": "4821 CHICAGO ST", "amenity": "post_box", "collection_times": "Mo-Sa 13:00", "note": "ON 12/24 AND 12/31, THIS BOX MAY BE COLLECTED AS EARLY AS 12 NOON.", "nsi_id": "unitedstatespostalservice-a77078", "operator": "United States Postal Service", "operator:short": "USPS", "operator:type": "public", "operator:wikidata": "Q668687", "ref": "6813200011"}, "type": "Feature"}
{"geometry": {"coordinates": [-95.9905305, 41.259705504], "type": "Point"}, "id": "mrcaj5IilOouLjHkb9r60heKKdk=", "properties": {"@source_uri": "https://tools.usps.com/UspsToolsRestServices/rest/POLocator/findLocations", "@spider": "usps_collection_boxes", "addr:city": "OMAHA", "addr:country": "US", "addr:postcode": "68132", "addr:state": "NE", "addr:street_address": "5002 DODGE ST", "amenity": "post_box", "collection_times": "Mo-Sa 09:15", "nsi_id": "unitedstatespostalservice-a77078", "operator": "United States Postal Service", "operator:short": "USPS", "operator:type": "public", "operator:wikidata": "Q668687", "ref": "6813200014"}, "type": "Feature"}
{"geometry": {"coordinates": [-95.987252085, 41.265082443], "type": "Point"}, "id": "qIyuPOlM6tTQlzTImjMqu1q3Hz0=", "properties": {"@source_uri": "https://tools.usps.com/UspsToolsRestServices/rest/POLocator/findLocations", "@spider": "usps_collection_boxes", "addr:city": "OMAHA", "addr:country": "US", "addr:postcode": "68132", "addr:state": "NE", "addr:street_address": "4850 UNDERWOOD AVE", "amenity": "post_box", "collection_times": "Mo-Sa 10:30", "nsi_id": "unitedstatespostalservice-a77078", "operator": "United States Postal Service", "operator:short": "USPS", "operator:type": "public", "operator:wikidata": "Q668687", "ref": "6813200015"}, "type": "Feature"}
{"geometry": {"coordinates": [-96.014287709, 41.270459062], "type": "Point"}, "id": "W1U76UcIXUHiZ0CbtlGNaN9_auA=", "properties": {"@source_uri": "https://tools.usps.com/UspsToolsRestServices/rest/POLocator/findLocations", "@spider": "usps_collection_boxes", "addr:city": "OMAHA", "addr:country": "US", "addr:postcode": "68132", "addr:state": "NE", "addr:street_address": "1199 N 66TH ST", "amenity": "post_box", "collection_times": "Mo-Sa 09:00", "nsi_id": "unitedstatespostalservice-a77078", "operator": "United States Postal Service", "operator:short": "USPS", "operator:type": "public", "operator:wikidata": "Q668687", "ref": "6813200017"}, "type": "Feature"}
{"geometry": {"coordinates": [-95.980778614, 41.264889713], "type": "Point"}, "id": "j4TbnPdP6aT8cuAVlc_uXBQvoxU=", "properties": {"@source_uri": "https://tools.usps.com/UspsToolsRestServices/rest/POLocator/findLocations", "@spider": "usps_collection_boxes", "addr:city": "OMAHA", "addr:country": "US", "addr:postcode": "68132", "addr:state": "NE", "addr:street_address": "608 N SADDLE CREEK RD", "amenity": "post_box", "collection_times": "Mo-Fr 17:15; Sa 16:45", "indoor": "yes", "note": "ON 12/24 AND 12/31, THIS BOX MAY BE COLLECTED AS EARLY AS 12 NOON.", "nsi_id": "unitedstatespostalservice-a77078", "operator": "United States Postal Service", "operator:short": "USPS", "operator:type": "public", "operator:wikidata": "Q668687", "ref": "6813200028"}, "type": "Feature"}
{"geometry": {"coordinates": [-95.980778614, 41.264889713], "type": "Point"}, "id": "TBdYYH5VZe7WpaUAlvQoBj2TCwQ=", "properties": {"@source_uri": "https://tools.usps.com/UspsToolsRestServices/rest/POLocator/findLocations", "@spider": "usps_collection_boxes", "addr:city": "OMAHA", "addr:country": "US", "addr:postcode": "68132", "addr:state": "NE", "addr:street_address": "608 N SADDLE CREEK RD", "amenity": "post_box", "collection_times": "Mo-Fr 17:15; Sa 16:45", "indoor": "yes", "note": "ON 12/24 AND 12/31, THIS BOX MAY BE COLLECTED AS EARLY AS 12 NOON.", "nsi_id": "unitedstatespostalservice-a77078", "operator": "United States Postal Service", "operator:short": "USPS", "operator:type": "public", "operator:wikidata": "Q668687", "ref": "6813200029"}, "type": "Feature"}
{"geometry": {"coordinates": [-95.980778614, 41.264889713], "type": "Point"}, "id": "Wwk4arUK6zkSEddvWZAev1wWzCY=", "properties": {"@source_uri": "https://tools.usps.com/UspsToolsRestServices/rest/POLocator/findLocations", "@spider": "usps_collection_boxes", "addr:city": "OMAHA", "addr:country": "US", "addr:postcode": "68132", "addr:state": "NE", "addr:street_address": "608 N SADDLE CREEK RD", "amenity": "post_box", "collection_times": "Mo-Fr 17:15; Sa 12:00", "indoor": "yes", "note": "ON 12/24 AND 12/31, THIS BOX MAY BE COLLECTED AS EARLY AS 12 NOON.", "nsi_id": "unitedstatespostalservice-a77078", "operator": "United States Postal Service", "operator:short": "USPS", "operator:type": "public", "operator:wikidata": "Q668687", "ref": "6813200033"}, "type": "Feature"}
{"geometry": {"coordinates": [-96.057395, 41.30562], "type": "Point"}, "id": "f3IxBtD5pvdhM62P9QEORIxoJIs=", "properties": {"@source_uri": "https://tools.usps.com/UspsToolsRestServices/rest/POLocator/findLocations", "@spider": "usps_collection_boxes", "addr:city": "OMAHA", "addr:country": "US", "addr:postcode": "68134", "addr:state": "NE", "addr:street_address": "6012 N 102ND ST", "amenity": "post_box", "collection_times": "Mo-Fr 17:30; Sa 12:45", "note": "ON 12/24 AND 12/31, THIS BOX MAY BE COLLECTED AS EARLY AS 12 NOON.", "nsi_id": "unitedstatespostalservice-a77078", "operator": "United States Postal Service", "operator:short": "USPS", "operator:type": "public", "operator:wikidata": "Q668687", "ref": "6813400000"}, "type": "Feature"}
{"geometry": {"coordinates": [-96.037258565, 41.277721956], "type": "Point"}, "id": "ZOlcHWPecHDxNO9l3BTz3X7kwyM=", "properties": {"@source_uri": "https://tools.usps.com/UspsToolsRestServices/rest/POLocator/findLocations", "@spider": "usps_collection_boxes", "addr:city": "OMAHA", "addr:country": "US", "addr:postcode": "68134", "addr:state": "NE", "addr:street_address": "8069 BLONDO ST", "amenity": "post_box", "collection_times": "Mo-Sa 10:00", "nsi_id": "unitedstatespostalservice-a77078", "operator": "United States Postal Service", "operator:short": "USPS", "operator:type": "public", "operator:wikidata": "Q668687", "ref": "6813400009"}, "type": "Feature"}
{"geometry": {"coordinates": [-96.057395, 41.30562], "type": "Point"}, "id": "E5jMEt6fMhi0FZElCyiVD-pCZP0=", "properties": {"@source_uri": "https://tools.usps.com/UspsToolsRestServices/rest/POLocator/findLocations", "@spider": "usps_collection_boxes", "addr:city": "OMAHA", "addr:country": "US", "addr:postcode": "68134", "addr:state": "NE", "addr:street_address": "2650 N 90TH ST", "amenity": "post_box", "collection_times": "Mo-Sa 09:30", "nsi_id": "unitedstatespostalservice-a77078", "operator": "United States Postal Service", "operator:short": "USPS", "operator:type": "public", "operator:wikidata": "Q668687", "ref": "6813400010"}, "type": "Feature"}
{"geometry": {"coordinates": [-96.052729581, 41.286355046], "type": "Point"}, "id": "v-Cynybl2_y5zK71xnpvMZe-qbk=", "properties": {"@source_uri": "https://tools.usps.com/UspsToolsRestServices/rest/POLocator/findLocations", "@spider": "usps_collection_boxes", "addr:city": "OMAHA", "addr:country": "US", "addr:postcode": "68134", "addr:state": "NE", "addr:street_address": "3060 N 90TH ST", "amenity": "post_box", "collection_times": "Mo-Sa 08:30", "nsi_id": "unitedstatespostalservice-a77078", "operator": "United States Postal Service", "operator:short": "USPS", "operator:type": "public", "operator:wikidata": "Q668687", "ref": "6813400014"}, "type": "Feature"}
{"geometry": {"coordinates": [-96.052755781, 41.307814864], "type": "Point"}, "id": "nssZbgjgVqpMAoZWh7ECES32lxc=", "properties": {"@source_uri": "https://tools.usps.com/UspsToolsRestServices/rest/POLocator/findLocations", "@spider": "usps_collection_boxes", "addr:city": "OMAHA", "addr:country": "US", "addr:postcode": "68134", "addr:state": "NE", "addr:street_address": "5400 N 90TH ST", "amenity": "post_box", "collection_times": "Mo-Sa 08:30", "nsi_id": "unitedstatespostalservice-a77078", "operator": "United States Postal Service", "operator:short": "USPS", "operator:type": "public", "operator:wikidata": "Q668687", "ref": "6813400017"}, "type": "Feature"}
{"geometry": {"coordinates": [-96.079572028, 41.289975006], "type": "Point"}, "id": "CIWu44b8lwJub81-sFWrO4eGDzg=", "properties": {"@source_uri": "https://tools.usps.com/UspsToolsRestServices/rest/POLocator/findLocations", "@spider": "usps_collection_boxes", "addr:city": "OMAHA", "addr:country": "US", "addr:postcode": "68134", "addr:state": "NE", "addr:street_address": "3333 N 107TH ST", "amenity": "post_box", "collection_times": "Mo-Sa 10:00", "nsi_id": "unitedstatespostalservice-a77078", "operator": "United States Postal Service", "operator:short": "USPS", "operator:type": "public", "operator:wikidata": "Q668687", "ref": "6813400022"}, "type": "Feature"}
{"geometry": {"coordinates": [-96.072838091, 41.313059696], "type": "Point"}, "id": "jvMQ08RaI_vDPLOgyMt6GN7ueGw=", "properties": {"@source_uri": "https://tools.usps.com/UspsToolsRestServices/rest/POLocator/findLocations", "@spider": "usps_collection_boxes", "addr:city": "OMAHA", "addr:country": "US", "addr:postcode": "68134", "addr:state": "NE", "addr:street_address": "6012 N 102ND ST", "amenity": "post_box", "collection_times": "Mo-Fr 17:30; Sa 17:00", "indoor": "yes", "note": "ON 12/24 AND 12/31, THIS BOX MAY BE COLLECTED AS EARLY AS 12 NOON.", "nsi_id": "unitedstatespostalservice-a77078", "operator": "United States Postal Service", "operator:short": "USPS", "operator:type": "public", "operator:wikidata": "Q668687", "ref": "6813400038"}, "type": "Feature"}
{"geometry": {"coordinates": [-96.072838091, 41.313059696], "type": "Point"}, "id": "-XNxty7aDckmn7Qr_Zffb2twjn0=", "properties": {"@source_uri": "https://tools.usps.com/UspsToolsRestServices/rest/POLocator/findLocations", "@spider": "usps_collection_boxes", "addr:city": "OMAHA", "addr:country": "US", "addr:postcode": "68134", "addr:state": "NE", "addr:street_address": "6012 N 102ND ST", "amenity": "post_box", "collection_times": "Mo-Fr 17:30; Sa 17:00", "indoor": "yes", "note": "ON 12/24 AND 12/31, THIS BOX MAY BE COLLECTED AS EARLY AS 12 NOON.", "nsi_id": "unitedstatespostalservice-a77078", "operator": "United States Postal Service", "operator:short": "USPS", "operator:type": "public", "operator:wikidata": "Q668687", "ref": "6813400039"}, "type": "Feature"}
{"geometry": {"coordinates": [-96.072838091, 41.313059696], "type": "Point"}, "id": "sydEozkdn8nWQOPkR9slLL7T71Y=", "properties": {"@source_uri": "https://tools.usps.com/UspsToolsRestServices/rest/POLocator/findLocations", "@spider": "usps_collection_boxes", "addr:city": "OMAHA", "addr:country": "US", "addr:postcode": "68134", "addr:state": "NE", "addr:street_address": "6012 N 102ND ST", "amenity": "post_box", "collection_times": "Mo-Fr 17:30; Sa 17:00", "indoor": "yes", "note": "ON 12/24 AND 12/31, THIS BOX MAY BE COLLECTED AS EARLY AS 12 NOON.", "nsi_id": "unitedstatespostalservice-a77078", "operator": "United States Postal Service", "operator:short": "USPS", "operator:type": "public", "operator:wikidata": "Q668687", "ref": "6813400040"}, "type": "Feature"}
{"geometry": {"coordinates": [-96.052474135, 41.310277999], "type": "Point"}, "id": "UR_WlScFaxWkwZiaQYlWcsJUubU=", "properties": {"@source_uri": "https://tools.usps.com/UspsToolsRestServices/rest/POLocator/findLocations", "@spider": "usps_collection_boxes", "addr:city": "OMAHA", "addr:country": "US", "addr:postcode": "68134", "addr:state": "NE", "addr:street_address": "5555 N 90TH ST", "amenity": "post_box", "collection_times": "Mo-Sa 08:30", "nsi_id": "unitedstatespostalservice-a77078", "operator": "United States Postal Service", "operator:short": "USPS", "operator:type": "public", "operator:wikidata": "Q668687", "ref": "6813400045"}, "type": "Feature"}
{"geometry": {"coordinates": [-96.072838091, 41.313059696], "type": "Point"}, "id": "1lYlHOJnwAqhY7fqLFbZ07r-qOc=", "properties": {"@source_uri": "https://tools.usps.com/UspsToolsRestServices/rest/POLocator/findLocations", "@spider": "usps_collection_boxes", "addr:city": "OMAHA", "addr:country": "US", "addr:postcode": "68134", "addr:state": "NE", "addr:street_address": "6012 N 102ND ST", "amenity": "post_box", "collection_times": "Mo-Fr 17:30; Sa 17:00", "name": "USPS COLLECTION BOX - APC", "note": "ON 12/24 AND 12/31, THIS BOX MAY BE COLLECTED AS EARLY AS 12 NOON.", "nsi_id": "unitedstatespostalservice-a77078", "operator": "United States Postal Service", "operator:short": "USPS", "operator:type": "public", "operator:wikidata": "Q668687", "ref": "6813400046"}, "type": "Feature"}
{"geometry": {"coordinates": [-96.023735466, 41.298471639], "type": "Point"}, "id": "8JUpUuJwrwYhVByibBqSeE3rIRc=", "properties": {"@source_uri": "https://tools.usps.com/UspsToolsRestServices/rest/POLocator/findLocations", "@spider": "usps_collection_boxes", "addr:city": "OMAHA", "addr:country": "US", "addr:postcode": "68134", "addr:state": "NE", "addr:street_address": "4405 N 72ND ST", "amenity": "post_box", "collection_times": "Mo-Sa 09:00", "nsi_id": "unitedstatespostalservice-a77078", "operator": "United States Postal Service", "operator:short": "USPS", "operator:type": "public", "operator:wikidata": "Q668687", "ref": "6813400050"}, "type": "Feature"}
{"geometry": {"coordinates": [-96.072838091, 41.313059696], "type": "Point"}, "id": "T9J4B3Zr7ypi3wA7toPfHZaxnug=", "properties": {"@source_uri": "https://tools.usps.com/UspsToolsRestServices/rest/POLocator/findLocations", "@spider": "usps_collection_boxes", "addr:city": "OMAHA", "addr:country": "US", "addr:postcode": "68134", "addr:state": "NE", "addr:street_address": "6012 N 102ND ST", "amenity": "post_box", "collection_times": "Mo-Fr 17:30; Sa 13:00", "indoor": "yes", "note": "ON 12/24 AND 12/31, THIS BOX MAY BE COLLECTED AS EARLY AS 12 NOON.", "nsi_id": "unitedstatespostalservice-a77078", "operator": "United States Postal Service", "operator:short": "USPS", "operator:type": "public", "operator:wikidata": "Q668687", "ref": "6813400053"}, "type": "Feature"}
{"geometry": {"coordinates": [-96.175795532, 41.205029902], "type": "Point"}, "id": "jZ6KiFuj1I30yD6PJ9hkGusg6A8=", "properties": {"@source_uri": "https://tools.usps.com/UspsToolsRestServices/rest/POLocator/findLocations", "@spider": "usps_collection_boxes", "addr:city": "OMAHA", "addr:country": "US", "addr:postcode": "68135", "addr:state": "NE", "addr:street_address": "16729 Q ST", "amenity": "post_box", "collection_times": "Mo-Sa 12:30", "note": "ON 12/24 AND 12/31, THIS BOX MAY BE COLLECTED AS EARLY AS 12 NOON.", "nsi_id": "unitedstatespostalservice-a77078", "operator": "United States Postal Service", "operator:short": "USPS", "operator:type": "public", "operator:wikidata": "Q668687", "ref": "6813500000"}, "type": "Feature"}
{"geometry": {"coordinates": [-96.155285907, 41.206326331], "type": "Point"}, "id": "9nJ7Pmu123c85kd2etxHJNtDcXY=", "properties": {"@source_uri": "https://tools.usps.com/UspsToolsRestServices/rest/POLocator/findLocations", "@spider": "usps_collection_boxes", "addr:city": "OMAHA", "addr:country": "US", "addr:postcode": "68135", "addr:state": "NE", "addr:street_address": "15370 WEIR ST", "amenity": "post_box", "collection_times": "Mo-Sa 09:30", "nsi_id": "unitedstatespostalservice-a77078", "operator": "United States Postal Service", "operator:short": "USPS", "operator:type": "public", "operator:wikidata": "Q668687", "ref": "6813500001"}, "type": "Feature"}
{"geometry": {"coordinates": [-96.193792552, 41.205983484], "type": "Point"}, "id": "C_BpurS_vhwhHIaT8qXn0Ze3sic=", "properties": {"@source_uri": "https://tools.usps.com/UspsToolsRestServices/rest/POLocator/findLocations", "@spider": "usps_collection_boxes", "addr:city": "OMAHA", "addr:country": "US", "addr:postcode": "68135", "addr:state": "NE", "addr:street_address": "17810 WELCH PLZ", "amenity": "post_box", "collection_times": "Mo-Sa 10:45", "nsi_id": "unitedstatespostalservice-a77078", "operator": "United States Postal Service", "operator:short": "USPS", "operator:type": "public", "operator:wikidata": "Q668687", "ref": "6813500006"}, "type": "Feature"}
{"geometry": {"coordinates": [-96.159015199, 41.19070278], "type": "Point"}, "id": "8TLLLKjSJD520N_-oSbgYAcSV_M=", "properties": {"@source_uri": "https://tools.usps.com/UspsToolsRestServices/rest/POLocator/findLocations", "@spider": "usps_collection_boxes", "addr:city": "OMAHA", "addr:country": "US", "addr:postcode": "68136", "addr:state": "NE", "addr:street_address": "15615 HARRISON ST", "amenity": "post_box", "collection_times": "Mo-Fr 13:00", "note": "ON 12/24 AND 12/31, THIS BOX MAY BE COLLECTED AS EARLY AS 12 NOON.", "nsi_id": "unitedstatespostalservice-a77078", "operator": "United States Postal Service", "operator:short": "USPS", "operator:type": "public", "operator:wikidata": "Q668687", "ref": "6813600001"}, "type": "Feature"}
{"geometry": {"coordinates": [-96.12576, 41.204525], "type": "Point"}, "id": "vAvw0RVz10gwe5FPdiFedl6LOpQ=", "properties": {"@source_uri": "https://tools.usps.com/UspsToolsRestServices/rest/POLocator/findLocations", "@spider": "usps_collection_boxes", "addr:city": "OMAHA", "addr:country": "US", "addr:postcode": "68137", "addr:state": "NE", "addr:street_address": "4433 S 133RD ST", "amenity": "post_box", "collection_times": "Mo-Fr 17:00; Sa 16:00", "note": "ON 12/24 AND 12/31, THIS BOX MAY BE COLLECTED AS EARLY AS 12 NOON.", "nsi_id": "unitedstatespostalservice-a77078", "operator": "United States Postal Service", "operator:short": "USPS", "operator:type": "public", "operator:wikidata": "Q668687", "ref": "6813700000"}, "type": "Feature"}
{"geometry": {"coordinates": [-96.12576, 41.204525], "type": "Point"}, "id": "4u5OFdrkS_dzP8N2U2TYnMZobE8=", "properties": {"@source_uri": "https://tools.usps.com/UspsToolsRestServices/rest/POLocator/findLocations", "@spider": "usps_collection_boxes", "addr:city": "OMAHA", "addr:country": "US", "addr:postcode": "68137", "addr:state": "NE", "addr:street_address": "4433 S 133RD ST", "amenity": "post_box", "collection_times": "Mo-Fr 17:00; Sa 16:00", "note": "ON 12/24 AND 12/31, THIS BOX MAY BE COLLECTED AS EARLY AS 12 NOON.", "nsi_id": "unitedstatespostalservice-a77078", "operator": "United States Postal Service", "operator:short": "USPS", "operator:type": "public", "operator:wikidata": "Q668687", "ref": "6813700001"}, "type": "Feature"}
{"geometry": {"coordinates": [-96.081472134, 41.215514634], "type": "Point"}, "id": "VIwv5PzokFiSeNr3CBPultA9It4=", "properties": {"@source_uri": "https://tools.usps.com/UspsToolsRestServices/rest/POLocator/findLocations", "@spider": "usps_collection_boxes", "addr:city": "OMAHA", "addr:country": "US", "addr:postcode": "68137", "addr:state": "NE", "addr:street_address": "4411 S 108TH ST", "amenity": "post_box", "collection_times": "Mo-Sa 09:00", "nsi_id": "unitedstatespostalservice-a77078", "operator": "United States Postal Service", "operator:short": "USPS", "operator:type": "public", "operator:wikidata": "Q668687", "ref": "6813700005"}, "type": "Feature"}
{"geometry": {"coordinates": [-96.08152906, 41.206290077], "type": "Point"}, "id": "U9-O0S44OFFMPJa_xA2PmM_tqd4=", "properties": {"@source_uri": "https://tools.usps.com/UspsToolsRestServices/rest/POLocator/findLocations", "@spider": "usps_collection_boxes", "addr:city": "OMAHA", "addr:country": "US", "addr:postcode": "68137", "addr:state": "NE", "addr:street_address": "5110 S 108TH ST", "amenity": "post_box", "collection_times": "Mo-Sa 13:00", "note": "ON 12/24 AND 12/31, THIS BOX MAY BE COLLECTED AS EARLY AS 12 NOON.", "nsi_id": "unitedstatespostalservice-a77078", "operator": "United States Postal Service", "operator:short": "USPS", "operator:type": "public", "operator:wikidata": "Q668687", "ref": "6813700008"}, "type": "Feature"}
{"geometry": {"coordinates": [-96.087516851, 41.209529131], "type": "Point"}, "id": "Gpv6YUtqz8gg8hGypTGQpboD_Ms=", "properties": {"@source_uri": "https://tools.usps.com/UspsToolsRestServices/rest/POLocator/findLocations", "@spider": "usps_collection_boxes", "addr:city": "OMAHA", "addr:country": "US", "addr:postcode": "68137", "addr:state": "NE", "addr:street_address": "11128 JOHN GALT BLVD", "amenity": "post_box", "collection_times": "Mo-Sa 09:00", "nsi_id": "unitedstatespostalservice-a77078", "operator": "United States Postal Service", "operator:short": "USPS", "operator:type": "public", "operator:wikidata": "Q668687", "ref": "6813700011"}, "type": "Feature"}
{"geometry": {"coordinates": [-96.101625381, 41.210560843], "type": "Point"}, "id": "9XNxTiv8Fmwb1ZR_BCa5DStcbLw=", "properties": {"@source_uri": "https://tools.usps.com/UspsToolsRestServices/rest/POLocator/findLocations", "@spider": "usps_collection_boxes", "addr:city": "OMAHA", "addr:country": "US", "addr:postcode": "68137", "addr:state": "NE", "addr:street_address": "4854 S 121ST ST", "amenity": "post_box", "collection_times": "Mo-Fr 13:15; Sa 11:30", "note": "ON 12/24 AND 12/31, THIS BOX MAY BE COLLECTED AS EARLY AS 12 NOON.", "nsi_id": "unitedstatespostalservice-a77078", "operator": "United States Postal Service", "operator:short": "USPS", "operator:type": "public", "operator:wikidata": "Q668687", "ref": "6813700016"}, "type": "Feature"}
{"geometry": {"coordinates": [-96.124991403, 41.203739076], "type": "Point"}, "id": "_NwIU6qD7xhK3H0ycgi6V-Ot9LQ=", "properties": {"@source_uri": "https://tools.usps.com/UspsToolsRestServices/rest/POLocator/findLocations", "@spider": "usps_collection_boxes", "addr:city": "OMAHA", "addr:country": "US", "addr:postcode": "68137", "addr:state": "NE", "addr:street_address": "5310 S 136TH ST", "amenity": "post_box", "collection_times": "Mo-Sa 11:15", "nsi_id": "unitedstatespostalservice-a77078", "operator": "United States Postal Service", "operator:short": "USPS", "operator:type": "public", "operator:wikidata": "Q668687", "ref": "6813700026"}, "type": "Feature"}
{"geometry": {"coordinates": [-96.129229481, 41.203207362], "type": "Point"}, "id": "Le2zdJb27sJ9QJjIfhqhiRoilfk=", "properties": {"@source_uri": "https://tools.usps.com/UspsToolsRestServices/rest/POLocator/findLocations", "@spider": "usps_collection_boxes", "addr:city": "OMAHA", "addr:country": "US", "addr:postcode": "68137", "addr:state": "NE", "addr:street_address": "5332 S 138TH ST", "amenity": "post_box", "collection_times": "Mo-Sa 13:30", "note": "ON 12/24 AND 12/31, THIS BOX MAY BE COLLECTED AS EARLY AS 12 NOON.", "nsi_id": "unitedstatespostalservice-a77078", "operator": "United States Postal Service", "operator:short": "USPS", "operator:type": "public", "operator:wikidata": "Q668687", "ref": "6813700031"}, "type": "Feature"}
{"geometry": {"coordinates": [-96.087810029, 41.207885749], "type": "Point"}, "id": "_fNXaiJyumo84Tify8Iz3hx-r3Q=", "properties": {"@source_uri": "https://tools.usps.com/UspsToolsRestServices/rest/POLocator/findLocations", "@spider": "usps_collection_boxes", "addr:city": "OMAHA", "addr:country": "US", "addr:postcode": "68137", "addr:state": "NE", "addr:street_address": "11218 JOHN GALT BLVD", "amenity": "post_box", "collection_times": "Mo-Sa 09:00", "nsi_id": "unitedstatespostalservice-a77078", "operator": "United States Postal Service", "operator:short": "USPS", "operator:type": "public", "operator:wikidata": "Q668687", "ref": "6813700050"}, "type": "Feature"}
{"geometry": {"coordinates": [-96.135551811, 41.200239288], "type": "Point"}, "id": "TzlmkvDgWMs9074S0M9DCpJ_RTY=", "properties": {"@source_uri": "https://tools.usps.com/UspsToolsRestServices/rest/POLocator/findLocations", "@spider": "usps_collection_boxes", "addr:city": "OMAHA", "addr:country": "US", "addr:postcode": "68137", "addr:state": "NE", "addr:street_address": "5720 S 142ND ST", "amenity": "post_box", "collection_times": "Mo-Fr 17:15; Sa 16:30", "note": "ON 12/24 AND 12/31, THIS BOX MAY BE COLLECTED AS EARLY AS 12 NOON.", "nsi_id": "unitedstatespostalservice-a77078", "operator": "United States Postal Service", "operator:short": "USPS", "operator:type": "public", "operator:wikidata": "Q668687", "ref": "6813700056"}, "type": "Feature"}
{"geometry": {"coordinates": [-96.121384964, 41.215788639], "type": "Point"}, "id": "GJJmA1yJFluXT_xEQS42tUCy_EM=", "properties": {"@source_uri": "https://tools.usps.com/UspsToolsRestServices/rest/POLocator/findLocations", "@spider": "usps_collection_boxes", "addr:city": "OMAHA", "addr:country": "US", "addr:postcode": "68137", "addr:state": "NE", "addr:street_address": "4433 S 133RD ST", "amenity": "post_box", "collection_times": "Mo-Fr 17:00; Sa 16:00", "indoor": "yes", "note": "ON 12/24 AND 12/31, THIS BOX MAY BE COLLECTED AS EARLY AS 12 NOON.", "nsi_id": "unitedstatespostalservice-a77078", "operator": "United States Postal Service", "operator:short": "USPS", "operator:type": "public", "operator:wikidata": "Q668687", "ref": "6813700067"}, "type": "Feature"}
{"geometry": {"coordinates": [-96.121384964, 41.215788639], "type": "Point"}, "id": "mtul4tjMtLpV1Qctu_5JbPOCgIg=", "properties": {"@source_uri": "https://tools.usps.com/UspsToolsRestServices/rest/POLocator/findLocations", "@spider": "usps_collection_boxes", "addr:city": "OMAHA", "addr:country": "US", "addr:postcode": "68137", "addr:state": "NE", "addr:street_address": "4433 S 133RD ST", "amenity": "post_box", "collection_times": "Mo-Fr 17:00; Sa 16:00", "indoor": "yes", "note": "ON 12/24 AND 12/31, THIS BOX MAY BE COLLECTED AS EARLY AS 12 NOON.", "nsi_id": "unitedstatespostalservice-a77078", "operator": "United States Postal Service", "operator:short": "USPS", "operator:type": "public", "operator:wikidata": "Q668687", "ref": "6813700069"}, "type": "Feature"}
{"geometry": {"coordinates": [-96.12472488, 41.203493157], "type": "Point"}, "id": "bMICP1gpC7Rxdsi3642gjjJdWhI=", "properties": {"@source_uri": "https://tools.usps.com/UspsToolsRestServices/rest/POLocator/findLocations", "@spider": "usps_collection_boxes", "addr:city": "OMAHA", "addr:country": "US", "addr:postcode": "68137", "addr:state": "NE", "addr:street_address": "5346 S 136TH ST", "amenity": "post_box", "collection_times": "Mo-Fr 19:00; Sa 17:05", "indoor": "yes", "note": "ON 12/24 AND 12/31, THIS BOX MAY BE COLLECTED AS EARLY AS 12 NOON.", "nsi_id": "unitedstatespostalservice-a77078", "operator": "United States Postal Service", "operator:short": "USPS", "operator:type": "public", "operator:wikidata": "Q668687", "ref": "6813700071"}, "type": "Feature"}
{"geometry": {"coordinates": [-96.12472488, 41.203493157], "type": "Point"}, "id": "ZcKak9pISfpYoW_XKF2XkKXlkeQ=", "properties": {"@source_uri": "https://tools.usps.com/UspsToolsRestServices/rest/POLocator/findLocations", "@spider": "usps_collection_boxes", "addr:city": "OMAHA", "addr:country": "US", "addr:postcode": "68137", "addr:state": "NE", "addr:street_address": "5346 S 136TH ST", "amenity": "post_box", "collection_times": "Mo-Fr 19:00; Sa 17:05", "indoor": "yes", "note": "ON 12/24 AND 12/31, THIS BOX MAY BE COLLECTED AS EARLY AS 12 NOON.", "nsi_id": "unitedstatespostalservice-a77078", "operator": "United States Postal Service", "operator:short": "USPS", "operator:type": "public", "operator:wikidata": "Q668687", "ref": "6813700072"}, "type": "Feature"}
{"geometry": {"coordinates": [-96.121384964, 41.215788639], "type": "Point"}, "id": "4A_5wRf-E0ewBwSqqlX2XA_7kBM=", "properties": {"@source_uri": "https://tools.usps.com/UspsToolsRestServices/rest/POLocator/findLocations", "@spider": "usps_collection_boxes", "addr:city": "OMAHA", "addr:country": "US", "addr:postcode": "68137", "addr:state": "NE", "addr:street_address": "4433 S 133RD ST", "amenity": "post_box", "collection_times": "Mo-Fr 17:00; Sa 16:00", "indoor": "yes", "note": "ON 12/24 AND 12/31, THIS BOX MAY BE COLLECTED AS EARLY AS 12 NOON.", "nsi_id": "unitedstatespostalservice-a77078", "operator": "United States Postal Service", "operator:short": "USPS", "operator:type": "public", "operator:wikidata": "Q668687", "ref": "6813700073"}, "type": "Feature"}
{"geometry": {"coordinates": [-96.121384964, 41.215788639], "type": "Point"}, "id": "PpIVJCZnR-uqdjYNOk5sa21XYTo=", "properties": {"@source_uri": "https://tools.usps.com/UspsToolsRestServices/rest/POLocator/findLocations", "@spider": "usps_collection_boxes", "addr:city": "OMAHA", "addr:country": "US", "addr:postcode": "68137", "addr:state": "NE", "addr:street_address": "4433 S 133RD ST", "amenity": "post_box", "collection_times": "Mo-Fr 17:00; Sa 16:00", "indoor": "yes", "note": "ON 12/24 AND 12/31, THIS BOX MAY BE COLLECTED AS EARLY AS 12 NOON.", "nsi_id": "unitedstatespostalservice-a77078", "operator": "United States Postal Service", "operator:short": "USPS", "operator:type": "public", "operator:wikidata": "Q668687", "ref": "6813700074"}, "type": "Feature"}
{"geometry": {"coordinates": [-96.095629897, 41.1931937], "type": "Point"}, "id": "J_13QSJLwNffSQu3ehGzswusiS4=", "properties": {"@source_uri": "https://tools.usps.com/UspsToolsRestServices/rest/POLocator/findLocations", "@spider": "usps_collection_boxes", "addr:city": "OMAHA", "addr:country": "US", "addr:postcode": "68137", "addr:state": "NE", "addr:street_address": "6541 S 118TH ST", "amenity": "post_box", "collection_times": "Mo-Fr 10:15", "nsi_id": "unitedstatespostalservice-a77078", "operator": "United States Postal Service", "operator:short": "USPS", "operator:type": "public", "operator:wikidata": "Q668687", "ref": "6813700077"}, "type": "Feature"}
{"geometry": {"coordinates": [-96.136509641, 41.216721905], "type": "Point"}, "id": "kBKCk-fGxgyNdZ7wJgcvrO1Cx4s=", "properties": {"@source_uri": "https://tools.usps.com/UspsToolsRestServices/rest/POLocator/findLocations", "@spider": "usps_collection_boxes", "addr:city": "OMAHA", "addr:country": "US", "addr:postcode": "68137", "addr:state": "NE", "addr:street_address": "14217 DAYTON CIR", "amenity": "post_box", "collection_times": "Mo-Fr 11:00", "nsi_id": "unitedstatespostalservice-a77078", "operator": "United States Postal Service", "operator:short": "USPS", "operator:type": "public", "operator:wikidata": "Q668687", "ref": "6813700079"}, "type": "Feature"}
{"geometry": {"coordinates": [-96.1408215, 41.219607454], "type": "Point"}, "id": "3toYZqNSe2vJN4-nfFnEpVZgED0=", "properties": {"@source_uri": "https://tools.usps.com/UspsToolsRestServices/rest/POLocator/findLocations", "@spider": "usps_collection_boxes", "addr:city": "OMAHA", "addr:country": "US", "addr:postcode": "68137", "addr:state": "NE", "addr:street_address": "14510 F ST", "amenity": "post_box", "collection_times": "Mo-Sa 10:30", "nsi_id": "unitedstatespostalservice-a77078", "operator": "United States Postal Service", "operator:short": "USPS", "operator:type": "public", "operator:wikidata": "Q668687", "ref": "6813700090"}, "type": "Feature"}
{"geometry": {"coordinates": [-96.098101173, 41.208469071], "type": "Point"}, "id": "YLgs5wSFLQPfk49nVY2CITCBGYA=", "properties": {"@source_uri": "https://tools.usps.com/UspsToolsRestServices/rest/POLocator/findLocations", "@spider": "usps_collection_boxes", "addr:city": "OMAHA", "addr:country": "US", "addr:postcode": "68137", "addr:state": "NE", "addr:street_address": "4939 S 118TH ST", "amenity": "post_box", "collection_times": "Mo-Sa 15:00", "note": "ON 12/24 AND 12/31, THIS BOX MAY BE COLLECTED AS EARLY AS 12 NOON.", "nsi_id": "unitedstatespostalservice-a77078", "operator": "United States Postal Service", "operator:short": "USPS", "operator:type": "public", "operator:wikidata": "Q668687", "ref": "6813700095"}, "type": "Feature"}
{"geometry": {"coordinates": [-96.141182779, 41.198236529], "type": "Point"}, "id": "VdEmEYJ0QoOp-7IS4VcudIrOmpM=", "properties": {"@source_uri": "https://tools.usps.com/UspsToolsRestServices/rest/POLocator/findLocations", "@spider": "usps_collection_boxes", "addr:city": "OMAHA", "addr:country": "US", "addr:postcode": "68137", "addr:state": "NE", "addr:street_address": "14591 STONEY BROOK BLVD", "amenity": "post_box", "collection_times": "Mo-Sa 10:15", "nsi_id": "unitedstatespostalservice-a77078", "operator": "United States Postal Service", "operator:short": "USPS", "operator:type": "public", "operator:wikidata": "Q668687", "ref": "6813700100"}, "type": "Feature"}
{"geometry": {"coordinates": [-96.121384964, 41.215788639], "type": "Point"}, "id": "QeJaRfnEKSm07r0e7O13k52tAfA=", "properties": {"@source_uri": "https://tools.usps.com/UspsToolsRestServices/rest/POLocator/findLocations", "@spider": "usps_collection_boxes", "addr:city": "OMAHA", "addr:country": "US", "addr:postcode": "68137", "addr:state": "NE", "addr:street_address": "4433 S 133RD ST", "amenity": "post_box", "collection_times": "Mo-Fr 17:00; Sa 13:00", "indoor": "yes", "note": "ON 12/24 AND 12/31, THIS BOX MAY BE COLLECTED AS EARLY AS 12 NOON.", "nsi_id": "unitedstatespostalservice-a77078", "operator": "United States Postal Service", "operator:short": "USPS", "operator:type": "public", "operator:wikidata": "Q668687", "ref": "6813700112"}, "type": "Feature"}
{"geometry": {"coordinates": [-96.142866636, 41.161538496], "type": "Point"}, "id": "WzbYMB7WHIxeloVMWS2o3VtcqoM=", "properties": {"@source_uri": "https://tools.usps.com/UspsToolsRestServices/rest/POLocator/findLocations", "@spider": "usps_collection_boxes", "addr:city": "OMAHA", "addr:country": "US", "addr:postcode": "68138", "addr:state": "NE", "addr:street_address": "9915 SAPP BROTHERS DR", "amenity": "post_box", "collection_times": "Mo-Fr 10:00; Sa 09:00", "nsi_id": "unitedstatespostalservice-a77078", "operator": "United States Postal Service", "operator:short": "USPS", "operator:type": "public", "operator:wikidata": "Q668687", "ref": "6813800000"}, "type": "Feature"}
{"geometry": {"coordinates": [-96.140197624, 41.159125794], "type": "Point"}, "id": "kIFm-WABVVChsLXl9TKbouGniyA=", "properties": {"@source_uri": "https://tools.usps.com/UspsToolsRestServices/rest/POLocator/findLocations", "@spider": "usps_collection_boxes", "addr:city": "OMAHA", "addr:country": "US", "addr:postcode": "68138", "addr:state": "NE", "addr:street_address": "14403 FRONTIER RD", "amenity": "post_box", "collection_times": "Mo-Fr 10:00; Sa 09:00", "nsi_id": "unitedstatespostalservice-a77078", "operator": "United States Postal Service", "operator:short": "USPS", "operator:type": "public", "operator:wikidata": "Q668687", "ref": "6813800001"}, "type": "Feature"}
{"geometry": {"coordinates": [-96.0891709831, 41.2337740097], "type": "Point"}, "id": "NVmxB9d_LL5a0MEkYkDpgsoUScA=", "properties": {"@source_uri": "https://tools.usps.com/UspsToolsRestServices/rest/POLocator/findLocations", "@spider": "usps_collection_boxes", "addr:city": "OMAHA", "addr:country": "US", "addr:postcode": "68144", "addr:state": "NE", "addr:street_address": "11212 WRIGHT CIR", "amenity": "post_box", "collection_times": "Mo-Sa 10:30", "nsi_id": "unitedstatespostalservice-a77078", "operator": "United States Postal Service", "operator:short": "USPS", "operator:type": "public", "operator:wikidata": "Q668687", "ref": "6814400004"}, "type": "Feature"}
{"geometry": {"coordinates": [-96.097603584, 41.234296512], "type": "Point"}, "id": "pfPLAjkSoK47KqS0m4jT9bGG6vk=", "properties": {"@source_uri": "https://tools.usps.com/UspsToolsRestServices/rest/POLocator/findLocations", "@spider": "usps_collection_boxes", "addr:city": "OMAHA", "addr:country": "US", "addr:postcode": "68144", "addr:state": "NE", "addr:street_address": "11808 W CENTER RD", "amenity": "post_box", "collection_times": "Mo-Sa 12:30", "note": "ON 12/24 AND 12/31, THIS BOX MAY BE COLLECTED AS EARLY AS 12 NOON.", "nsi_id": "unitedstatespostalservice-a77078", "operator": "United States Postal Service", "operator:short": "USPS", "operator:type": "public", "operator:wikidata": "Q668687", "ref": "6814400005"}, "type": "Feature"}
{"geometry": {"coordinates": [-96.098819513, 41.247561516], "type": "Point"}, "id": "cLnwSEBAHIHOU0to3iOCCf_nUAM=", "properties": {"@source_uri": "https://tools.usps.com/UspsToolsRestServices/rest/POLocator/findLocations", "@spider": "usps_collection_boxes", "addr:city": "OMAHA", "addr:country": "US", "addr:postcode": "68144", "addr:state": "NE", "addr:street_address": "1218 S 119TH ST", "amenity": "post_box", "collection_times": "Mo-Fr 10:30", "nsi_id": "unitedstatespostalservice-a77078", "operator": "United States Postal Service", "operator:short": "USPS", "operator:type": "public", "operator:wikidata": "Q668687", "ref": "6814400008"}, "type": "Feature"}
{"geometry": {"coordinates": [-96.100727558, 41.23546946], "type": "Point"}, "id": "IS4rbRXUY_S7_qRjQhJfXeL0rWY=", "properties": {"@source_uri": "https://tools.usps.com/UspsToolsRestServices/rest/POLocator/findLocations", "@spider": "usps_collection_boxes", "addr:city": "OMAHA", "addr:country": "US", "addr:postcode": "68144", "addr:state": "NE", "addr:street_address": "2500 S 120TH ST", "amenity": "post_box", "collection_times": "Mo-Sa 11:00", "nsi_id": "unitedstatespostalservice-a77078", "operator": "United States Postal Service", "operator:short": "USPS", "operator:type": "public", "operator:wikidata": "Q668687", "ref": "6814400010"}, "type": "Feature"}
{"geometry": {"coordinates": [-96.1163819936, 41.2366969889], "type": "Point"}, "id": "qpof9KrwMpje7M8dIeKd85jpj9c=", "properties": {"@source_uri": "https://tools.usps.com/UspsToolsRestServices/rest/POLocator/findLocations", "@spider": "usps_collection_boxes", "addr:city": "OMAHA", "addr:country": "US", "addr:postcode": "68144", "addr:state": "NE", "addr:street_address": "13010 ARBOR ST", "amenity": "post_box", "collection_times": "Mo-Sa 10:30", "nsi_id": "unitedstatespostalservice-a77078", "operator": "United States Postal Service", "operator:short": "USPS", "operator:type": "public", "operator:wikidata": "Q668687", "ref": "6814400019"}, "type": "Feature"}
{"geometry": {"coordinates": [-96.121033834, 41.233992483], "type": "Point"}, "id": "96whcQO_Ts5iJ0g4WqlMB4m6ofw=", "properties": {"@source_uri": "https://tools.usps.com/UspsToolsRestServices/rest/POLocator/findLocations", "@spider": "usps_collection_boxes", "addr:city": "OMAHA", "addr:country": "US", "addr:postcode": "68144", "addr:state": "NE", "addr:street_address": "13215 W CENTER RD", "amenity": "post_box", "collection_times": "Mo-Sa 10:30", "nsi_id": "unitedstatespostalservice-a77078", "operator": "United States Postal Service", "operator:short": "USPS", "operator:type": "public", "operator:wikidata": "Q668687", "ref": "6814400021"}, "type": "Feature"}
{"geometry": {"coordinates": [-96.12255447, 41.234130509], "type": "Point"}, "id": "Vn5bgAzwnYW7aC6jxm_zyuqBz2g=", "properties": {"@source_uri": "https://tools.usps.com/UspsToolsRestServices/rest/POLocator/findLocations", "@spider": "usps_collection_boxes", "addr:city": "OMAHA", "addr:country": "US", "addr:postcode": "68144", "addr:state": "NE", "addr:street_address": "13304 W CENTER RD", "amenity": "post_box", "collection_times": "Mo-Sa 11:00", "nsi_id": "unitedstatespostalservice-a77078", "operator": "United States Postal Service", "operator:short": "USPS", "operator:type": "public", "operator:wikidata": "Q668687", "ref": "6814400024"}, "type": "Feature"}
{"geometry": {"coordinates": [-96.133021822, 41.231905633], "type": "Point"}, "id": "l_4BOOaSa4655MG22KQt8dlNy24=", "properties": {"@source_uri": "https://tools.usps.com/UspsToolsRestServices/rest/POLocator/findLocations", "@spider": "usps_collection_boxes", "addr:city": "OMAHA", "addr:country": "US", "addr:postcode": "68144", "addr:state": "NE", "addr:street_address": "3030 OAK VIEW DR", "amenity": "post_box", "collection_times": "Mo-Fr 13:00", "note": "ON 12/24 AND 12/31, THIS BOX MAY BE COLLECTED AS EARLY AS 12 NOON.", "nsi_id": "unitedstatespostalservice-a77078", "operator": "United States Postal Service", "operator:short": "USPS", "operator:type": "public", "operator:wikidata": "Q668687", "ref": "6814400031"}, "type": "Feature"}
{"geometry": {"coordinates": [-96.140956979, 41.235698998], "type": "Point"}, "id": "kASOoXbEgtFiUe5Rnw-xy4cCljw=", "properties": {"@source_uri": "https://tools.usps.com/UspsToolsRestServices/rest/POLocator/findLocations", "@spider": "usps_collection_boxes", "addr:city": "OMAHA", "addr:country": "US", "addr:postcode": "68144", "addr:state": "NE", "addr:street_address": "14506 W CENTER RD", "amenity": "post_box", "collection_times": "Mo-Sa 11:00", "nsi_id": "unitedstatespostalservice-a77078", "operator": "United States Postal Service", "operator:short": "USPS", "operator:type": "public", "operator:wikidata": "Q668687", "ref": "6814400033"}, "type": "Feature"}
{"geometry": {"coordinates": [-96.141251771, 41.233723293], "type": "Point"}, "id": "o6Mib1QAF8kDGGq5ANgla2chnhQ=", "properties": {"@source_uri": "https://tools.usps.com/UspsToolsRestServices/rest/POLocator/findLocations", "@spider": "usps_collection_boxes", "addr:city": "OMAHA", "addr:country": "US", "addr:postcode": "68144", "addr:state": "NE", "addr:street_address": "14471 W CENTER RD", "amenity": "post_box", "collection_times": "Mo-Sa 11:00", "nsi_id": "unitedstatespostalservice-a77078", "operator": "United States Postal Service", "operator:short": "USPS", "operator:type": "public", "operator:wikidata": "Q668687", "ref": "6814400034"}, "type": "Feature"}
{"geometry": {"coordinates": [-96.145667186, 41.227211171], "type": "Point"}, "id": "Xj1p5Uu9p3Fyx1FIkF_g0E72a7g=", "properties": {"@source_uri": "https://tools.usps.com/UspsToolsRestServices/rest/POLocator/findLocations", "@spider": "usps_collection_boxes", "addr:city": "OMAHA", "addr:country": "US", "addr:postcode": "68144", "addr:state": "NE", "addr:street_address": "14675 GROVER ST", "amenity": "post_box", "collection_times": "Mo-Sa 11:00", "nsi_id": "unitedstatespostalservice-a77078", "operator": "United States Postal Service", "operator:short": "USPS", "operator:type": "public", "operator:wikidata": "Q668687", "ref": "6814400035"}, "type": "Feature"}
{"geometry": {"coordinates": [-96.119968478, 41.224239031], "type": "Point"}, "id": "i4qRFZ2qL2S-hrM1IBg7CafeBv0=", "properties": {"@source_uri": "https://tools.usps.com/UspsToolsRestServices/rest/POLocator/findLocations", "@spider": "usps_collection_boxes", "addr:city": "OMAHA", "addr:country": "US", "addr:postcode": "68144", "addr:state": "NE", "addr:street_address": "3616 S 132ND ST", "amenity": "post_box", "collection_times": "Mo-Sa 11:00", "nsi_id": "unitedstatespostalservice-a77078", "operator": "United States Postal Service", "operator:short": "USPS", "operator:type": "public", "operator:wikidata": "Q668687", "ref": "6814400047"}, "type": "Feature"}
{"geometry": {"coordinates": [-96.138406134, 41.230172374], "type": "Point"}, "id": "3L6WX4gqZeaS5TSDgzy-R6xvdzU=", "properties": {"@source_uri": "https://tools.usps.com/UspsToolsRestServices/rest/POLocator/findLocations", "@spider": "usps_collection_boxes", "addr:city": "OMAHA", "addr:country": "US", "addr:postcode": "68144", "addr:state": "NE", "addr:street_address": "2729 S 144TH ST", "amenity": "post_box", "collection_times": "Mo-Sa 11:00", "nsi_id": "unitedstatespostalservice-a77078", "operator": "United States Postal Service", "operator:short": "USPS", "operator:type": "public", "operator:wikidata": "Q668687", "ref": "6814400049"}, "type": "Feature"}
{"geometry": {"coordinates": [-96.081534897, 41.233298776], "type": "Point"}, "id": "Sgyc4mTQvp99qVzvLOAA4M26z9c=", "properties": {"@source_uri": "https://tools.usps.com/UspsToolsRestServices/rest/POLocator/findLocations", "@spider": "usps_collection_boxes", "addr:city": "OMAHA", "addr:country": "US", "addr:postcode": "68144", "addr:state": "NE", "addr:street_address": "2810 S 108TH ST", "amenity": "post_box", "collection_times": "Mo-Sa 13:00", "note": "ON 12/24 AND 12/31, THIS BOX MAY BE COLLECTED AS EARLY AS 12 NOON.", "nsi_id": "unitedstatespostalservice-a77078", "operator": "United States Postal Service", "operator:short": "USPS", "operator:type": "public", "operator:wikidata": "Q668687", "ref": "6814400055"}, "type": "Feature"}
{"geometry": {"coordinates": [-96.104134058, 41.233960481], "type": "Point"}, "id": "NRzps_rwxNXW3Bl_kSULo7OvoKE=", "properties": {"@source_uri": "https://tools.usps.com/UspsToolsRestServices/rest/POLocator/findLocations", "@spider": "usps_collection_boxes", "addr:city": "OMAHA", "addr:country": "US", "addr:postcode": "68144", "addr:state": "NE", "addr:street_address": "12255 W CENTER RD", "amenity": "post_box", "collection_times": "Mo-Sa 09:15", "nsi_id": "unitedstatespostalservice-a77078", "operator": "United States Postal Service", "operator:short": "USPS", "operator:type": "public", "operator:wikidata": "Q668687", "ref": "6814400059"}, "type": "Feature"}
{"geometry": {"coordinates": [-96.0919810161, 41.2345099827], "type": "Point"}, "id": "4hkCe1mrTQXcM06JFKZn96baMkk=", "properties": {"@source_uri": "https://tools.usps.com/UspsToolsRestServices/rest/POLocator/findLocations", "@spider": "usps_collection_boxes", "addr:city": "OMAHA", "addr:country": "US", "addr:postcode": "68144", "addr:state": "NE", "addr:street_address": "11414 W CENTER RD", "amenity": "post_box", "collection_times": "Mo-Fr 10:30", "nsi_id": "unitedstatespostalservice-a77078", "operator": "United States Postal Service", "operator:short": "USPS", "operator:type": "public", "operator:wikidata": "Q668687", "ref": "6814400073"}, "type": "Feature"}
{"geometry": {"coordinates": [-95.967415968, 41.190417], "type": "Point"}, "id": "BxVjl_qi6uBhvDiLwCQXdqEMjlA=", "properties": {"@source_uri": "https://tools.usps.com/UspsToolsRestServices/rest/POLocator/findLocations", "@spider": "usps_collection_boxes", "addr:city": "BELLEVUE", "addr:country": "US", "addr:postcode": "68147", "addr:state": "NE", "addr:street_address": "6905 S 36TH ST", "amenity": "post_box", "collection_times": "Mo-Sa 12:00", "nsi_id": "unitedstatespostalservice-a77078", "operator": "United States Postal Service", "operator:short": "USPS", "operator:type": "public", "operator:wikidata": "Q668687", "ref": "6814700000"}, "type": "Feature"}
{"geometry": {"coordinates": [-96.021067093, 41.320111907], "type": "Point"}, "id": "UeCRUBtXviIK2ir934O446UW0qo=", "properties": {"@source_uri": "https://tools.usps.com/UspsToolsRestServices/rest/POLocator/findLocations", "@spider": "usps_collection_boxes", "addr:city": "OMAHA", "addr:country": "US", "addr:postcode": "68152", "addr:state": "NE", "addr:street_address": "7101 NEWPORT AVE", "amenity": "post_box", "collection_times": "Mo-Sa 10:15", "nsi_id": "unitedstatespostalservice-a77078", "operator": "United States Postal Service", "operator:short": "USPS", "operator:type": "public", "operator:wikidata": "Q668687", "ref": "6815200000"}, "type": "Feature"}
{"geometry": {"coordinates": [-96.013110526, 41.317684519], "type": "Point"}, "id": "eSYJc0mE0YZ2_wutsH2-sAq25Y4=", "properties": {"@source_uri": "https://tools.usps.com/UspsToolsRestServices/rest/POLocator/findLocations", "@spider": "usps_collection_boxes", "addr:city": "OMAHA", "addr:country": "US", "addr:postcode": "68152", "addr:state": "NE", "addr:street_address": "6510 SORENSEN PKWY", "amenity": "post_box", "collection_times": "Mo-Sa 10:00", "nsi_id": "unitedstatespostalservice-a77078", "operator": "United States Postal Service", "operator:short": "USPS", "operator:type": "public", "operator:wikidata": "Q668687", "ref": "6815200002"}, "type": "Feature"}
{"geometry": {"coordinates": [-95.983864722, 41.343460514], "type": "Point"}, "id": "KPrK-5H4GMYtSaNb6wA_X720a8M=", "properties": {"@source_uri": "https://tools.usps.com/UspsToolsRestServices/rest/POLocator/findLocations", "@spider": "usps_collection_boxes", "addr:city": "OMAHA", "addr:country": "US", "addr:postcode": "68152", "addr:state": "NE", "addr:street_address": "9220 MORMON BRIDGE RD", "amenity": "post_box", "collection_times": "Mo-Sa 10:15", "nsi_id": "unitedstatespostalservice-a77078", "operator": "United States Postal Service", "operator:short": "USPS", "operator:type": "public", "operator:wikidata": "Q668687", "ref": "6815200004"}, "type": "Feature"}
{"geometry": {"coordinates": [-96.080904239, 41.260939628], "type": "Point"}, "id": "yF0b4_gYmMs6rQ1IoTVJbWnYreg=", "properties": {"@source_uri": "https://tools.usps.com/UspsToolsRestServices/rest/POLocator/findLocations", "@spider": "usps_collection_boxes", "addr:city": "OMAHA", "addr:country": "US", "addr:postcode": "68154", "addr:state": "NE", "addr:street_address": "10840 OLD MILL RD", "amenity": "post_box", "collection_times": "Mo-Sa 10:00", "nsi_id": "unitedstatespostalservice-a77078", "operator": "United States Postal Service", "operator:short": "USPS", "operator:type": "public", "operator:wikidata": "Q668687", "ref": "6815400003"}, "type": "Feature"}
{"geometry": {"coordinates": [-96.081506939, 41.2581413001], "type": "Point"}, "id": "BJ6tLrZFb7WpbxGQygdMmWa6nBY=", "properties": {"@source_uri": "https://tools.usps.com/UspsToolsRestServices/rest/POLocator/findLocations", "@spider": "usps_collection_boxes", "addr:city": "OMAHA", "addr:country": "US", "addr:postcode": "68154", "addr:state": "NE", "addr:street_address": "330 S 108TH AVE", "amenity": "post_box", "collection_times": "Mo-Sa 10:00", "nsi_id": "unitedstatespostalservice-a77078", "operator": "United States Postal Service", "operator:short": "USPS", "operator:type": "public", "operator:wikidata": "Q668687", "ref": "6815400006"}, "type": "Feature"}
{"geometry": {"coordinates": [-96.084083019, 41.265209608], "type": "Point"}, "id": "oL9tkIgk0_wpMUnnY788gvieE8M=", "properties": {"@source_uri": "https://tools.usps.com/UspsToolsRestServices/rest/POLocator/findLocations", "@spider": "usps_collection_boxes", "addr:city": "OMAHA", "addr:country": "US", "addr:postcode": "68154", "addr:state": "NE", "addr:street_address": "10854 W DODGE RD", "amenity": "post_box", "collection_times": "Mo-Fr 12:19", "note": "ON 12/24 AND 12/31, THIS BOX MAY BE COLLECTED AS EARLY AS 12 NOON.", "nsi_id": "unitedstatespostalservice-a77078", "operator": "United States Postal Service", "operator:short": "USPS", "operator:type": "public", "operator:wikidata": "Q668687", "ref": "6815400007"}, "type": "Feature"}
{"geometry": {"coordinates": [-96.087581266, 41.260992835], "type": "Point"}, "id": "Cb1wCDM0Qr2t1HcuC-Uhc4lyJOU=", "properties": {"@source_uri": "https://tools.usps.com/UspsToolsRestServices/rest/POLocator/findLocations", "@spider": "usps_collection_boxes", "addr:city": "OMAHA", "addr:country": "US", "addr:postcode": "68154", "addr:state": "NE", "addr:street_address": "11213 DAVENPORT ST", "amenity": "post_box", "collection_times": "Mo-Sa 10:00", "nsi_id": "unitedstatespostalservice-a77078", "operator": "United States Postal Service", "operator:short": "USPS", "operator:type": "public", "operator:wikidata": "Q668687", "ref": "6815400011"}, "type": "Feature"}
{"geometry": {"coordinates": [-96.089841335, 41.261620485], "type": "Point"}, "id": "2K5-CH0VRdhQ7yygE0FFBaWQG40=", "properties": {"@source_uri": "https://tools.usps.com/UspsToolsRestServices/rest/POLocator/findLocations", "@spider": "usps_collection_boxes", "addr:city": "OMAHA", "addr:country": "US", "addr:postcode": "68154", "addr:state": "NE", "addr:street_address": "11303 CHICAGO CIR", "amenity": "post_box", "collection_times": "Mo-Sa 10:00", "nsi_id": "unitedstatespostalservice-a77078", "operator": "United States Postal Service", "operator:short": "USPS", "operator:type": "public", "operator:wikidata": "Q668687", "ref": "6815400012"}, "type": "Feature"}
{"geometry": {"coordinates": [-96.093417422, 41.270025378], "type": "Point"}, "id": "umdo9y1izTdRaOhSHMJEDJf-kjs=", "properties": {"@source_uri": "https://tools.usps.com/UspsToolsRestServices/rest/POLocator/findLocations", "@spider": "usps_collection_boxes", "addr:city": "OMAHA", "addr:country": "US", "addr:postcode": "68154", "addr:state": "NE", "addr:street_address": "1044 N 115TH ST", "amenity": "post_box", "collection_times": "Mo-Fr 13:00", "note": "ON 12/24 AND 12/31, THIS BOX MAY BE COLLECTED AS EARLY AS 12 NOON.", "nsi_id": "unitedstatespostalservice-a77078", "operator": "United States Postal Service", "operator:short": "USPS", "operator:type": "public", "operator:wikidata": "Q668687", "ref": "6815400025"}, "type": "Feature"}
{"geometry": {"coordinates": [-96.096138487, 41.266018748], "type": "Point"}, "id": "57sl-DeEpy6zNjB9yd-bO88sTD0=", "properties": {"@source_uri": "https://tools.usps.com/UspsToolsRestServices/rest/POLocator/findLocations", "@spider": "usps_collection_boxes", "addr:city": "OMAHA", "addr:country": "US", "addr:postcode": "68154", "addr:state": "NE", "addr:street_address": "11617 BURT ST", "amenity": "post_box", "collection_times": "Mo-Sa 09:00", "nsi_id": "unitedstatespostalservice-a77078", "operator": "United States Postal Service", "operator:short": "USPS", "operator:type": "public", "operator:wikidata": "Q668687", "ref": "6815400027"}, "type": "Feature"}
{"geometry": {"coordinates": [-96.092380809, 41.267467325], "type": "Point"}, "id": "VUmXTQrluRyLyv4CeqUcxSKfejU=", "properties": {"@source_uri": "https://tools.usps.com/UspsToolsRestServices/rest/POLocator/findLocations", "@spider": "usps_collection_boxes", "addr:city": "OMAHA", "addr:country": "US", "addr:postcode": "68154", "addr:state": "NE", "addr:street_address": "770 N 114TH ST", "amenity": "post_box", "collection_times": "Mo-Fr 13:00", "note": "ON 12/24 AND 12/31, THIS BOX MAY BE COLLECTED AS EARLY AS 12 NOON.", "nsi_id": "unitedstatespostalservice-a77078", "operator": "United States Postal Service", "operator:short": "USPS", "operator:type": "public", "operator:wikidata": "Q668687", "ref": "6815400033"}, "type": "Feature"}
{"geometry": {"coordinates": [-96.102075629, 41.277541957], "type": "Point"}, "id": "WdIZGSKwdrtM73wbfLo1eCyRF3Q=", "properties": {"@source_uri": "https://tools.usps.com/UspsToolsRestServices/rest/POLocator/findLocations", "@spider": "usps_collection_boxes", "addr:city": "OMAHA", "addr:country": "US", "addr:postcode": "68154", "addr:state": "NE", "addr:street_address": "12027 BLONDO ST", "amenity": "post_box", "collection_times": "Mo-Fr 10:30", "nsi_id": "unitedstatespostalservice-a77078", "operator": "United States Postal Service", "operator:short": "USPS", "operator:type": "public", "operator:wikidata": "Q668687", "ref": "6815400035"}, "type": "Feature"}
{"geometry": {"coordinates": [-96.102689365, 41.249485539], "type": "Point"}, "id": "ubW4XzvvLqUC8S6hS3GFwv1nMIE=", "properties": {"@source_uri": "https://tools.usps.com/UspsToolsRestServices/rest/POLocator/findLocations", "@spider": "usps_collection_boxes", "addr:city": "OMAHA", "addr:country": "US", "addr:postcode": "68154", "addr:state": "NE", "addr:street_address": "12120 SHAMROCK PLZ", "amenity": "post_box", "collection_times": "Mo-Sa 10:00", "nsi_id": "unitedstatespostalservice-a77078", "operator": "United States Postal Service", "operator:short": "USPS", "operator:type": "public", "operator:wikidata": "Q668687", "ref": "6815400039"}, "type": "Feature"}
{"geometry": {"coordinates": [-96.102875505, 41.24857999], "type": "Point"}, "id": "7UNkq2yBCTURCZXEoOyUVyUzB9M=", "properties": {"@source_uri": "https://tools.usps.com/UspsToolsRestServices/rest/POLocator/findLocations", "@spider": "usps_collection_boxes", "addr:city": "OMAHA", "addr:country": "US", "addr:postcode": "68154", "addr:state": "NE", "addr:street_address": "12119 PACIFIC ST", "amenity": "post_box", "collection_times": "Mo-Sa 10:00", "nsi_id": "unitedstatespostalservice-a77078", "operator": "United States Postal Service", "operator:short": "USPS", "operator:type": "public", "operator:wikidata": "Q668687", "ref": "6815400040"}, "type": "Feature"}
{"geometry": {"coordinates": [-96.11950702, 41.266455951], "type": "Point"}, "id": "7zTWAOJlCyKo-w_GlZhgqZ-RTxE=", "properties": {"@source_uri": "https://tools.usps.com/UspsToolsRestServices/rest/POLocator/findLocations", "@spider": "usps_collection_boxes", "addr:city": "OMAHA", "addr:country": "US", "addr:postcode": "68154", "addr:state": "NE", "addr:street_address": "747 N 132ND ST", "amenity": "post_box", "collection_times": "Mo-Sa 09:45", "nsi_id": "unitedstatespostalservice-a77078", "operator": "United States Postal Service", "operator:short": "USPS", "operator:type": "public", "operator:wikidata": "Q668687", "ref": "6815400045"}, "type": "Feature"}
{"geometry": {"coordinates": [-96.117453033, 41.256870009], "type": "Point"}, "id": "JX4cQrAMEbyNVtl0mT_AK7LWv_c=", "properties": {"@source_uri": "https://tools.usps.com/UspsToolsRestServices/rest/POLocator/findLocations", "@spider": "usps_collection_boxes", "addr:city": "OMAHA", "addr:country": "US", "addr:postcode": "68154", "addr:state": "NE", "addr:street_address": "333 S 132ND ST", "amenity": "post_box", "collection_times": "Mo-Sa 10:00", "nsi_id": "unitedstatespostalservice-a77078", "operator": "United States Postal Service", "operator:short": "USPS", "operator:type": "public", "operator:wikidata": "Q668687", "ref": "6815400052"}, "type": "Feature"}
{"geometry": {"coordinates": [-96.130378756, 41.266201428], "type": "Point"}, "id": "oz1Y2T81ZPRavwltlZ6cAK7aoiE=", "properties": {"@source_uri": "https://tools.usps.com/UspsToolsRestServices/rest/POLocator/findLocations", "@spider": "usps_collection_boxes", "addr:city": "OMAHA", "addr:country": "US", "addr:postcode": "68154", "addr:state": "NE", "addr:street_address": "13710 FNB PKWY", "amenity": "post_box", "collection_times": "Mo-Fr 09:00", "nsi_id": "unitedstatespostalservice-a77078", "operator": "United States Postal Service", "operator:short": "USPS", "operator:type": "public", "operator:wikidata": "Q668687", "ref": "6815400063"}, "type": "Feature"}
{"geometry": {"coordinates": [-96.091343516, 41.260189977], "type": "Point"}, "id": "s2fHGfNor73rG6hhMDbOy8Uo37I=", "properties": {"@source_uri": "https://tools.usps.com/UspsToolsRestServices/rest/POLocator/findLocations", "@spider": "usps_collection_boxes", "addr:city": "OMAHA", "addr:country": "US", "addr:postcode": "68154", "addr:state": "NE", "addr:street_address": "11421 DAVENPORT ST", "amenity": "post_box", "collection_times": "Mo-Sa 09:45", "nsi_id": "unitedstatespostalservice-a77078", "operator": "United States Postal Service", "operator:short": "USPS", "operator:type": "public", "operator:wikidata": "Q668687", "ref": "6815400074"}, "type": "Feature"}
{"geometry": {"coordinates": [-96.1375815, 41.265446484], "type": "Point"}, "id": "3mrUY3g_v_utrWl4LdU0u2XZ2RI=", "properties": {"@source_uri": "https://tools.usps.com/UspsToolsRestServices/rest/POLocator/findLocations", "@spider": "usps_collection_boxes", "addr:city": "OMAHA", "addr:country": "US", "addr:postcode": "68154", "addr:state": "NE", "addr:street_address": "14301 FNB PKWY", "amenity": "post_box", "collection_times": "Mo-Sa 11:00", "nsi_id": "unitedstatespostalservice-a77078", "operator": "United States Postal Service", "operator:short": "USPS", "operator:type": "public", "operator:wikidata": "Q668687", "ref": "6815400079"}, "type": "Feature"}
{"geometry": {"coordinates": [-96.155835996, 41.263550196], "type": "Point"}, "id": "iEHzJFOg1B9O0U40Wlh1HcFDm9I=", "properties": {"@source_uri": "https://tools.usps.com/UspsToolsRestServices/rest/POLocator/findLocations", "@spider": "usps_collection_boxes", "addr:city": "OMAHA", "addr:country": "US", "addr:postcode": "68154", "addr:state": "NE", "addr:street_address": "505 N 155TH PLZ", "amenity": "post_box", "collection_times": "Mo-Sa 11:00", "nsi_id": "unitedstatespostalservice-a77078", "operator": "United States Postal Service", "operator:short": "USPS", "operator:type": "public", "operator:wikidata": "Q668687", "ref": "6815400085"}, "type": "Feature"}
{"geometry": {"coordinates": [-96.092452692, 41.263486498], "type": "Point"}, "id": "mBJuydkXg-jTJS0RudLe4XAmM0M=", "properties": {"@source_uri": "https://tools.usps.com/UspsToolsRestServices/rest/POLocator/findLocations", "@spider": "usps_collection_boxes", "addr:city": "OMAHA", "addr:country": "US", "addr:postcode": "68154", "addr:state": "NE", "addr:street_address": "11404 W DODGE RD", "amenity": "post_box", "collection_times": "Mo-Fr 14:16", "note": "ON 12/24 AND 12/31, THIS BOX MAY BE COLLECTED AS EARLY AS 12 NOON.", "nsi_id": "unitedstatespostalservice-a77078", "operator": "United States Postal Service", "operator:short": "USPS", "operator:type": "public", "operator:wikidata": "Q668687", "ref": "6815400087"}, "type": "Feature"}
{"geometry": {"coordinates": [-96.138586134, 41.261466874], "type": "Point"}, "id": "PLUIMmPfelJaJ5uRVlXj2NDvpRg=", "properties": {"@source_uri": "https://tools.usps.com/UspsToolsRestServices/rest/POLocator/findLocations", "@spider": "usps_collection_boxes", "addr:city": "OMAHA", "addr:country": "US", "addr:postcode": "68154", "addr:state": "NE", "addr:street_address": "139 S 144TH ST", "amenity": "post_box", "collection_times": "Mo-Fr 17:30; Sa 15:00", "indoor": "yes", "note": "ON 12/24 AND 12/31, THIS BOX MAY BE COLLECTED AS EARLY AS 12 NOON.", "nsi_id": "unitedstatespostalservice-a77078", "operator": "United States Postal Service", "operator:short": "USPS", "operator:type": "public", "operator:wikidata": "Q668687", "ref": "6815400093"}, "type": "Feature"}
{"geometry": {"coordinates": [-95.9859470073, 41.1758750077], "type": "Point"}, "id": "NvkDZPdQtgBcbYOPmkmr-T-awCE=", "properties": {"@source_uri": "https://tools.usps.com/UspsToolsRestServices/rest/POLocator/findLocations", "@spider": "usps_collection_boxes", "addr:city": "OMAHA", "addr:country": "US", "addr:postcode": "68157", "addr:state": "NE", "addr:street_address": "4741 GILES RD", "amenity": "post_box", "collection_times": "Mo-Sa 10:00", "nsi_id": "unitedstatespostalservice-a77078", "operator": "United States Postal Service", "operator:short": "USPS", "operator:type": "public", "operator:wikidata": "Q668687", "ref": "6815700000"}, "type": "Feature"}
{"geometry": {"coordinates": [-95.9950260334, 41.1898180103], "type": "Point"}, "id": "_15JpE0yHf1qbgyeptVv_opw2jE=", "properties": {"@source_uri": "https://tools.usps.com/UspsToolsRestServices/rest/POLocator/findLocations", "@spider": "usps_collection_boxes", "addr:city": "OMAHA", "addr:country": "US", "addr:postcode": "68157", "addr:state": "NE", "addr:street_address": "5101 HARRISON ST", "amenity": "post_box", "collection_times": "Mo-Sa 10:00", "nsi_id": "unitedstatespostalservice-a77078", "operator": "United States Postal Service", "operator:short": "USPS", "operator:type": "public", "operator:wikidata": "Q668687", "ref": "6815700001"}, "type": "Feature"}
{"geometry": {"coordinates": [-96.0813808621, 41.2864693531], "type": "Point"}, "id": "fnQxv6_jI7t07iijrl4OruuT57k=", "properties": {"@source_uri": "https://tools.usps.com/UspsToolsRestServices/rest/POLocator/findLocations", "@spider": "usps_collection_boxes", "addr:city": "OMAHA", "addr:country": "US", "addr:postcode": "68164", "addr:state": "NE", "addr:street_address": "3117 N 108TH ST", "amenity": "post_box", "collection_times": "Mo-Sa 10:30", "nsi_id": "unitedstatespostalservice-a77078", "operator": "United States Postal Service", "operator:short": "USPS", "operator:type": "public", "operator:wikidata": "Q668687", "ref": "6816400000"}, "type": "Feature"}
{"geometry": {"coordinates": [-96.0825375, 41.308236], "type": "Point"}, "id": "4StkKkV7gC8-HYMS1mBaZyKjQHs=", "properties": {"@source_uri": "https://tools.usps.com/UspsToolsRestServices/rest/POLocator/findLocations", "@spider": "usps_collection_boxes", "addr:city": "OMAHA", "addr:country": "US", "addr:postcode": "68164", "addr:state": "NE", "addr:street_address": "10808 FORT ST", "amenity": "post_box", "collection_times": "Mo-Sa 09:30", "nsi_id": "unitedstatespostalservice-a77078", "operator": "United States Postal Service", "operator:short": "USPS", "operator:type": "public", "operator:wikidata": "Q668687", "ref": "6816400007"}, "type": "Feature"}
{"geometry": {"coordinates": [-96.119603952, 41.294214], "type": "Point"}, "id": "WMSXDweRRpa0U6cHHXT1R17H_jQ=", "properties": {"@source_uri": "https://tools.usps.com/UspsToolsRestServices/rest/POLocator/findLocations", "@spider": "usps_collection_boxes", "addr:city": "OMAHA", "addr:country": "US", "addr:postcode": "68164", "addr:state": "NE", "addr:street_address": "4001 N 132ND ST", "amenity": "post_box", "collection_times": "Mo-Sa 10:00", "nsi_id": "unitedstatespostalservice-a77078", "operator": "United States Postal Service", "operator:short": "USPS", "operator:type": "public", "operator:wikidata": "Q668687", "ref": "6816400012"}, "type": "Feature"}
{"geometry": {"coordinates": [-96.09805003, 41.278995261], "type": "Point"}, "id": "g2y7jtJb0WLOJaA3DIBHaQMPics=", "properties": {"@source_uri": "https://tools.usps.com/UspsToolsRestServices/rest/POLocator/findLocations", "@spider": "usps_collection_boxes", "addr:city": "OMAHA", "addr:country": "US", "addr:postcode": "68164", "addr:state": "NE", "addr:street_address": "2125 N 117TH AVE", "amenity": "post_box", "collection_times": "Mo-Fr 12:00", "nsi_id": "unitedstatespostalservice-a77078", "operator": "United States Postal Service", "operator:short": "USPS", "operator:type": "public", "operator:wikidata": "Q668687", "ref": "6816400018"}, "type": "Feature"}
{"geometry": {"coordinates": [-96.102173352, 41.290249393], "type": "Point"}, "id": "Yl10Cgz2zwVOPdzwhJW6SxXtneA=", "properties": {"@source_uri": "https://tools.usps.com/UspsToolsRestServices/rest/POLocator/findLocations", "@spider": "usps_collection_boxes", "addr:city": "OMAHA", "addr:country": "US", "addr:postcode": "68164", "addr:state": "NE", "addr:street_address": "12111 EMMET ST", "amenity": "post_box", "collection_times": "Mo-Sa 10:30", "nsi_id": "unitedstatespostalservice-a77078", "operator": "United States Postal Service", "operator:short": "USPS", "operator:type": "public", "operator:wikidata": "Q668687", "ref": "6816400022"}, "type": "Feature"}
{"geometry": {"coordinates": [-96.12234, 41.292282516], "type": "Point"}, "id": "OxAVZxpLACj4vFKvskW-Xd2BmyI=", "properties": {"@source_uri": "https://tools.usps.com/UspsToolsRestServices/rest/POLocator/findLocations", "@spider": "usps_collection_boxes", "addr:city": "OMAHA", "addr:country": "US", "addr:postcode": "68164", "addr:state": "NE", "addr:street_address": "13310 W MAPLE RD", "amenity": "post_box", "collection_times": "Mo-Sa 10:15", "nsi_id": "unitedstatespostalservice-a77078", "operator": "United States Postal Service", "operator:short": "USPS", "operator:type": "public", "operator:wikidata": "Q668687", "ref": "6816400026"}, "type": "Feature"}
