{"geometry": {"coordinates": [-96.508669982, 40.4598950178], "type": "Point"}, "id": "-L64vR1uAQ9c4z231H5UniXk7rA=", "properties": {"@source_uri": "https://tools.usps.com/UspsToolsRestServices/rest/POLocator/findLocations", "@spider": "usps_collection_boxes", "addr:city": "ADAMS", "addr:country": "US", "addr:postcode": "68301", "addr:state": "NE", "addr:street_address": "615 MAIN ST", "amenity": "post_box", "collection_times": "Mo-Fr 13:15; Sa 09:45", "note": "ON 12/24 AND 12/31, THIS BOX MAY BE COLLECTED AS EARLY AS 12 NOON.", "nsi_id": "unitedstatespostalservice-a77078", "operator": "United States Postal Service", "operator:short": "USPS", "operator:type": "public", "operator:wikidata": "Q668687", "ref": "6830100001"}, "type": "Feature"}
{"geometry": {"coordinates": [-96.508660668, 40.459544515], "type": "Point"}, "id": "kggAtuw8zfIi0FtyscHoIRiO-JU=", "properties": {"@source_uri": "https://tools.usps.com/UspsToolsRestServices/rest/POLocator/findLocations", "@spider": "usps_collection_boxes", "addr:city": "ADAMS", "addr:country": "US", "addr:postcode": "68301", "addr:state": "NE", "addr:street_address": "615 MAIN ST", "amenity": "post_box", "collection_times": "Mo-Fr 13:30; Sa 09:45", "indoor": "yes", "note": "ON 12/24 AND 12/31, THIS BOX MAY BE COLLECTED AS EARLY AS 12 NOON.", "nsi_id": "unitedstatespostalservice-a77078", "operator": "United States Postal Service", "operator:short": "USPS", "operator:type": "public", "operator:wikidata": "Q668687", "ref": "6830100002"}, "type": "Feature"}
{"geometry": {"coordinates": [-96.508660668, 40.459544515], "type": "Point"}, "id": "qoUA5aeCRPOmhUZ42nQWpOGHfdI=", "properties": {"@source_uri": "https://tools.usps.com/UspsToolsRestServices/rest/POLocator/findLocations", "@spider": "usps_collection_boxes", "addr:city": "ADAMS", "addr:country": "US", "addr:postcode": "68301", "addr:state": "NE", "addr:street_address": "615 MAIN ST", "amenity": "post_box", "collection_times": "Mo-Fr 13:30; Sa 09:45", "indoor": "yes", "note": "ON 12/24 AND 12/31, THIS BOX MAY BE COLLECTED AS EARLY AS 12 NOON.", "nsi_id": "unitedstatespostalservice-a77078", "operator": "United States Postal Service", "operator:short": "USPS", "operator:type": "public", "operator:wikidata": "Q668687", "ref": "6830100003"}, "type": "Feature"}
{"geometry": {"coordinates": [-97.389547622, 40.245242642], "type": "Point"}, "id": "UscJ1smbQ6yeouIDPeqtUKATQ2w=", "properties": {"@source_uri": "https://tools.usps.com/UspsToolsRestServices/rest/POLocator/findLocations", "@spider": "usps_collection_boxes", "addr:city": "ALEXANDRIA", "addr:country": "US", "addr:postcode": "68303", "addr:state": "NE", "addr:street_address": "302 HARBINE ST", "amenity": "post_box", "collection_times": "Mo-Fr 14:15; Sa 13:45", "note": "ON 12/24 AND 12/31, THIS BOX MAY BE COLLECTED AS EARLY AS 12 NOON.", "nsi_id": "unitedstatespostalservice-a77078", "operator": "United States Postal Service", "operator:short": "USPS", "operator:type": "public", "operator:wikidata": "Q668687", "ref": "6830300001"}, "type": "Feature"}
{"geometry": {"coordinates": [-97.389547622, 40.245242642], "type": "Point"}, "id": "olK-VbOTso2AKfK8B3rlf86vSC0=", "properties": {"@source_uri": "https://tools.usps.com/UspsToolsRestServices/rest/POLocator/findLocations", "@spider": "usps_collection_boxes", "addr:city": "ALEXANDRIA", "addr:country": "US", "addr:postcode": "68303", "addr:state": "NE", "addr:street_address": "302 HARBINE ST", "amenity": "post_box", "collection_times": "Mo-Sa 13:20", "indoor": "yes", "note": "ON 12/24 AND 12/31, THIS BOX MAY BE COLLECTED AS EARLY AS 12 NOON.", "nsi_id": "unitedstatespostalservice-a77078", "operator": "United States Postal Service", "operator:short": "USPS", "operator:type": "public", "operator:wikidata": "Q668687", "ref": "6830300003"}, "type": "Feature"}
{"geometry": {"coordinates": [-97.389547622, 40.245242642], "type": "Point"}, "id": "Vy6CdK-vxt1n3olUPJuR5rQEaQw=", "properties": {"@source_uri": "https://tools.usps.com/UspsToolsRestServices/rest/POLocator/findLocations", "@spider": "usps_collection_boxes", "addr:city": "ALEXANDRIA", "addr:country": "US", "addr:postcode": "68303", "addr:state": "NE", "addr:street_address": "302 HARBINE ST", "amenity": "post_box", "collection_times": "Mo-Sa 13:20", "indoor": "yes", "note": "ON 12/24 AND 12/31, THIS BOX MAY BE COLLECTED AS EARLY AS 12 NOON.", "nsi_id": "unitedstatespostalservice-a77078", "operator": "United States Postal Service", "operator:short": "USPS", "operator:type": "public", "operator:wikidata": "Q668687", "ref": "6830300004"}, "type": "Feature"}
{"geometry": {"coordinates": [-96.387638309, 40.871663665], "type": "Point"}, "id": "XS-G0NvTvt0gSIU_VgjNJnFlj9U=", "properties": {"@source_uri": "https://tools.usps.com/UspsToolsRestServices/rest/POLocator/findLocations", "@spider": "usps_collection_boxes", "addr:city": "ALVO", "addr:country": "US", "addr:postcode": "68304", "addr:state": "NE", "addr:street_address": "135 MAIN ST", "amenity": "post_box", "collection_times": "Mo-Fr 11:00; Sa 09:45", "nsi_id": "unitedstatespostalservice-a77078", "operator": "United States Postal Service", "operator:short": "USPS", "operator:type": "public", "operator:wikidata": "Q668687", "ref": "6830400001"}, "type": "Feature"}
{"geometry": {"coordinates": [-95.844069577, 40.385754], "type": "Point"}, "id": "YzTIkMJi2_dU6WXsj4U2Tm4ftjU=", "properties": {"@source_uri": "https://tools.usps.com/UspsToolsRestServices/rest/POLocator/findLocations", "@spider": "usps_collection_boxes", "addr:city": "AUBURN", "addr:country": "US", "addr:postcode": "68305", "addr:state": "NE", "addr:street_address": "1824 N ST", "amenity": "post_box", "collection_times": "Mo-Fr 15:00", "note": "ON 12/24 AND 12/31, THIS BOX MAY BE COLLECTED AS EARLY AS 12 NOON.", "nsi_id": "unitedstatespostalservice-a77078", "operator": "United States Postal Service", "operator:short": "USPS", "operator:type": "public", "operator:wikidata": "Q668687", "ref": "6830500001"}, "type": "Feature"}
{"geometry": {"coordinates": [-95.838777, 40.381234849], "type": "Point"}, "id": "5RJtsV5cq6s6_FtDXSD-wRuGZYQ=", "properties": {"@source_uri": "https://tools.usps.com/UspsToolsRestServices/rest/POLocator/findLocations", "@spider": "usps_collection_boxes", "addr:city": "AUBURN", "addr:country": "US", "addr:postcode": "68305", "addr:state": "NE", "addr:street_address": "2301 DAHLKE AVE", "amenity": "post_box", "collection_times": "Mo-Sa 15:00", "note": "ON 12/24 AND 12/31, THIS BOX MAY BE COLLECTED AS EARLY AS 12 NOON.", "nsi_id": "unitedstatespostalservice-a77078", "operator": "United States Postal Service", "operator:short": "USPS", "operator:type": "public", "operator:wikidata": "Q668687", "ref": "6830500002"}, "type": "Feature"}
{"geometry": {"coordinates": [-95.839450421, 40.390942368], "type": "Point"}, "id": "7W4btByQJduCU3l2Dm_nc9DZ4vE=", "properties": {"@source_uri": "https://tools.usps.com/UspsToolsRestServices/rest/POLocator/findLocations", "@spider": "usps_collection_boxes", "addr:city": "AUBURN", "addr:country": "US", "addr:postcode": "68305", "addr:state": "NE", "addr:street_address": "1320 COURTHOUSE AVE", "amenity": "post_box", "collection_times": "Mo-Sa 17:00", "note": "ON 12/24 AND 12/31, THIS BOX MAY BE COLLECTED AS EARLY AS 12 NOON.", "nsi_id": "unitedstatespostalservice-a77078", "operator": "United States Postal Service", "operator:short": "USPS", "operator:type": "public", "operator:wikidata": "Q668687", "ref": "6830500003"}, "type": "Feature"}
{"geometry": {"coordinates": [-95.839450421, 40.390942368], "type": "Point"}, "id": "Wg1fcZquIu4Ffbke8qH_HlqOLaA=", "properties": {"@source_uri": "https://tools.usps.com/UspsToolsRestServices/rest/POLocator/findLocations", "@spider": "usps_collection_boxes", "addr:city": "AUBURN", "addr:country": "US", "addr:postcode": "68305", "addr:state": "NE", "addr:street_address": "1320 COURTHOUSE AVE", "amenity": "post_box", "collection_times": "Mo-Fr 15:15; Sa 10:45", "indoor": "yes", "note": "ON 12/24 AND 12/31, THIS BOX MAY BE COLLECTED AS EARLY AS 12 NOON.", "nsi_id": "unitedstatespostalservice-a77078", "operator": "United States Postal Service", "operator:short": "USPS", "operator:type": "public", "operator:wikidata": "Q668687", "ref": "6830500005"}, "type": "Feature"}
{"geometry": {"coordinates": [-95.839450421, 40.390942368], "type": "Point"}, "id": "7ApLlzwJAJOxhloJToOK_P8hj-s=", "properties": {"@source_uri": "https://tools.usps.com/UspsToolsRestServices/rest/POLocator/findLocations", "@spider": "usps_collection_boxes", "addr:city": "AUBURN", "addr:country": "US", "addr:postcode": "68305", "addr:state": "NE", "addr:street_address": "1320 COURTHOUSE AVE", "amenity": "post_box", "collection_times": "Mo-Fr 15:15; Sa 10:45", "indoor": "yes", "note": "ON 12/24 AND 12/31, THIS BOX MAY BE COLLECTED AS EARLY AS 12 NOON.", "nsi_id": "unitedstatespostalservice-a77078", "operator": "United States Postal Service", "operator:short": "USPS", "operator:type": "public", "operator:wikidata": "Q668687", "ref": "6830500007"}, "type": "Feature"}
{"geometry": {"coordinates": [-95.839450421, 40.390942368], "type": "Point"}, "id": "XFoHFeZHjGEzsaXgFtlaRuY4PGI=", "properties": {"@source_uri": "https://tools.usps.com/UspsToolsRestServices/rest/POLocator/findLocations", "@spider": "usps_collection_boxes", "addr:city": "AUBURN", "addr:country": "US", "addr:postcode": "68305", "addr:state": "NE", "addr:street_address": "1320 COURTHOUSE AVE", "amenity": "post_box", "collection_times": "Mo-Fr 15:15; Sa 10:45", "indoor": "yes", "note": "ON 12/24 AND 12/31, THIS BOX MAY BE COLLECTED AS EARLY AS 12 NOON.", "nsi_id": "unitedstatespostalservice-a77078", "operator": "United States Postal Service", "operator:short": "USPS", "operator:type": "public", "operator:wikidata": "Q668687", "ref": "6830500008"}, "type": "Feature"}
{"geometry": {"coordinates": [-96.118092419, 40.795862503], "type": "Point"}, "id": "T1SXBAVIYDYxjbS6AVigRjKoQ9M=", "properties": {"@source_uri": "https://tools.usps.com/UspsToolsRestServices/rest/POLocator/findLocations", "@spider": "usps_collection_boxes", "addr:city": "AVOCA", "addr:country": "US", "addr:postcode": "68307", "addr:state": "NE", "addr:street_address": "624 HOUSE ST", "amenity": "post_box", "collection_times": "Mo-Fr 10:45; Sa 08:30", "nsi_id": "unitedstatespostalservice-a77078", "operator": "United States Postal Service", "operator:short": "USPS", "operator:type": "public", "operator:wikidata": "Q668687", "ref": "6830700001"}, "type": "Feature"}
{"geometry": {"coordinates": [-96.118092419, 40.795862503], "type": "Point"}, "id": "B92eUQ2o87Ij09lY1XiSvGbzMgk=", "properties": {"@source_uri": "https://tools.usps.com/UspsToolsRestServices/rest/POLocator/findLocations", "@spider": "usps_collection_boxes", "addr:city": "AVOCA", "addr:country": "US", "addr:postcode": "68307", "addr:state": "NE", "addr:street_address": "624 HOUSE ST", "amenity": "post_box", "collection_times": "Mo-Fr 10:45; Sa 08:30", "indoor": "yes", "nsi_id": "unitedstatespostalservice-a77078", "operator": "United States Postal Service", "operator:short": "USPS", "operator:type": "public", "operator:wikidata": "Q668687", "ref": "6830700002"}, "type": "Feature"}
{"geometry": {"coordinates": [-96.118092419, 40.795862503], "type": "Point"}, "id": "sHTD9IWfHdU2d3zKx-f80daSm4U=", "properties": {"@source_uri": "https://tools.usps.com/UspsToolsRestServices/rest/POLocator/findLocations", "@spider": "usps_collection_boxes", "addr:city": "AVOCA", "addr:country": "US", "addr:postcode": "68307", "addr:state": "NE", "addr:street_address": "624 HOUSE ST", "amenity": "post_box", "collection_times": "Mo-Fr 10:45", "indoor": "yes", "nsi_id": "unitedstatespostalservice-a77078", "operator": "United States Postal Service", "operator:short": "USPS", "operator:type": "public", "operator:wikidata": "Q668687", "ref": "6830700003"}, "type": "Feature"}
{"geometry": {"coordinates": [-96.576715122, 40.048285526], "type": "Point"}, "id": "6AAghME84ci5HOdrcWNKNIdvTDQ=", "properties": {"@source_uri": "https://tools.usps.com/UspsToolsRestServices/rest/POLocator/findLocations", "@spider": "usps_collection_boxes", "addr:city": "BARNESTON", "addr:country": "US", "addr:postcode": "68309", "addr:state": "NE", "addr:street_address": "202 1ST ST", "amenity": "post_box", "collection_times": "Mo-Sa 11:00", "nsi_id": "unitedstatespostalservice-a77078", "operator": "United States Postal Service", "operator:short": "USPS", "operator:type": "public", "operator:wikidata": "Q668687", "ref": "6830900001"}, "type": "Feature"}
{"geometry": {"coordinates": [-96.746947876, 40.286338182], "type": "Point"}, "id": "oWjB7MNK1bFgTfRK8xzS1WDsBwQ=", "properties": {"@source_uri": "https://tools.usps.com/UspsToolsRestServices/rest/POLocator/findLocations", "@spider": "usps_collection_boxes", "addr:city": "BEATRICE", "addr:country": "US", "addr:postcode": "68310", "addr:state": "NE", "addr:street_address": "2205 N 6TH ST", "amenity": "post_box", "collection_times": "Mo-Sa 12:00", "nsi_id": "unitedstatespostalservice-a77078", "operator": "United States Postal Service", "operator:short": "USPS", "operator:type": "public", "operator:wikidata": "Q668687", "ref": "6831000001"}, "type": "Feature"}
{"geometry": {"coordinates": [-96.747951777, 40.265834503], "type": "Point"}, "id": "I7TNfMlpQuSWRf6G3ELGzbOkwLI=", "properties": {"@source_uri": "https://tools.usps.com/UspsToolsRestServices/rest/POLocator/findLocations", "@spider": "usps_collection_boxes", "addr:city": "BEATRICE", "addr:country": "US", "addr:postcode": "68310", "addr:state": "NE", "addr:street_address": "501 COURT ST", "amenity": "post_box", "collection_times": "Mo-Sa 15:00", "note": "ON 12/24 AND 12/31, THIS BOX MAY BE COLLECTED AS EARLY AS 12 NOON.", "nsi_id": "unitedstatespostalservice-a77078", "operator": "United States Postal Service", "operator:short": "USPS", "operator:type": "public", "operator:wikidata": "Q668687", "ref": "6831000007"}, "type": "Feature"}
{"geometry": {"coordinates": [-96.746466593, 40.270682904], "type": "Point"}, "id": "RLPrmU-qr4fQcBiN4rd1QXxxxkU=", "properties": {"@source_uri": "https://tools.usps.com/UspsToolsRestServices/rest/POLocator/findLocations", "@spider": "usps_collection_boxes", "addr:city": "BEATRICE", "addr:country": "US", "addr:postcode": "68310", "addr:state": "NE", "addr:street_address": "612 GRANT ST", "amenity": "post_box", "collection_times": "Mo-Sa 15:00", "note": "ON 12/24 AND 12/31, THIS BOX MAY BE COLLECTED AS EARLY AS 12 NOON.", "nsi_id": "unitedstatespostalservice-a77078", "operator": "United States Postal Service", "operator:short": "USPS", "operator:type": "public", "operator:wikidata": "Q668687", "ref": "6831000009"}, "type": "Feature"}
{"geometry": {"coordinates": [-96.748156903, 40.270012402], "type": "Point"}, "id": "_O7A1_5UV8oV2lLO03et7SG20Fo=", "properties": {"@source_uri": "https://tools.usps.com/UspsToolsRestServices/rest/POLocator/findLocations", "@spider": "usps_collection_boxes", "addr:city": "BEATRICE", "addr:country": "US", "addr:postcode": "68310", "addr:state": "NE", "addr:street_address": "425 N 5TH ST", "amenity": "post_box", "collection_times": "Mo-Sa 15:20", "note": "ON 12/24 AND 12/31, THIS BOX MAY BE COLLECTED AS EARLY AS 12 NOON.", "nsi_id": "unitedstatespostalservice-a77078", "operator": "United States Postal Service", "operator:short": "USPS", "operator:type": "public", "operator:wikidata": "Q668687", "ref": "6831000010"}, "type": "Feature"}
{"geometry": {"coordinates": [-96.729109988, 40.265784528], "type": "Point"}, "id": "rh0lzRG1lOcWu_VpvvwcipGqZ24=", "properties": {"@source_uri": "https://tools.usps.com/UspsToolsRestServices/rest/POLocator/findLocations", "@spider": "usps_collection_boxes", "addr:city": "BEATRICE", "addr:country": "US", "addr:postcode": "68310", "addr:state": "NE", "addr:street_address": "1815 COURT ST", "amenity": "post_box", "collection_times": "Mo-Sa 11:30", "nsi_id": "unitedstatespostalservice-a77078", "operator": "United States Postal Service", "operator:short": "USPS", "operator:type": "public", "operator:wikidata": "Q668687", "ref": "6831000011"}, "type": "Feature"}
{"geometry": {"coordinates": [-96.765921084, 40.265879503], "type": "Point"}, "id": "GfOTkRa5Q8w_mLBHpUVEi9HWDxI=", "properties": {"@source_uri": "https://tools.usps.com/UspsToolsRestServices/rest/POLocator/findLocations", "@spider": "usps_collection_boxes", "addr:city": "BEATRICE", "addr:country": "US", "addr:postcode": "68310", "addr:state": "NE", "addr:street_address": "601 COURT ST", "amenity": "post_box", "collection_times": "Mo-Sa 12:30", "note": "ON 12/24 AND 12/31, THIS BOX MAY BE COLLECTED AS EARLY AS 12 NOON.", "nsi_id": "unitedstatespostalservice-a77078", "operator": "United States Postal Service", "operator:short": "USPS", "operator:type": "public", "operator:wikidata": "Q668687", "ref": "6831000015"}, "type": "Feature"}
{"geometry": {"coordinates": [-96.721316475, 40.266297168], "type": "Point"}, "id": "x6Ypny7u3sJvtHV_2SQcSpo7jFE=", "properties": {"@source_uri": "https://tools.usps.com/UspsToolsRestServices/rest/POLocator/findLocations", "@spider": "usps_collection_boxes", "addr:city": "BEATRICE", "addr:country": "US", "addr:postcode": "68310", "addr:state": "NE", "addr:street_address": "123 N 24TH ST", "amenity": "post_box", "collection_times": "Mo-Sa 12:30", "note": "ON 12/24 AND 12/31, THIS BOX MAY BE COLLECTED AS EARLY AS 12 NOON.", "nsi_id": "unitedstatespostalservice-a77078", "operator": "United States Postal Service", "operator:short": "USPS", "operator:type": "public", "operator:wikidata": "Q668687", "ref": "6831000023"}, "type": "Feature"}
{"geometry": {"coordinates": [-96.746778781, 40.269860371], "type": "Point"}, "id": "jzMjOyOHdmSIJ5p_hZvVNEcU9_A=", "properties": {"@source_uri": "https://tools.usps.com/UspsToolsRestServices/rest/POLocator/findLocations", "@spider": "usps_collection_boxes", "addr:city": "BEATRICE", "addr:country": "US", "addr:postcode": "68310", "addr:state": "NE", "addr:street_address": "425 N 6TH ST", "amenity": "post_box", "collection_times": "Mo-Sa 15:20", "indoor": "yes", "note": "ON 12/24 AND 12/31, THIS BOX MAY BE COLLECTED AS EARLY AS 12 NOON.", "nsi_id": "unitedstatespostalservice-a77078", "operator": "United States Postal Service", "operator:short": "USPS", "operator:type": "public", "operator:wikidata": "Q668687", "ref": "6831000024"}, "type": "Feature"}
{"geometry": {"coordinates": [-96.775288399, 40.266002899], "type": "Point"}, "id": "s9TYEw3Jg2CLLwzYycAhOMHxX_o=", "properties": {"@source_uri": "https://tools.usps.com/UspsToolsRestServices/rest/POLocator/findLocations", "@spider": "usps_collection_boxes", "addr:city": "BEATRICE", "addr:country": "US", "addr:postcode": "68310", "addr:state": "NE", "addr:street_address": "900 W COURT ST", "amenity": "post_box", "collection_times": "Mo-Sa 11:15", "nsi_id": "unitedstatespostalservice-a77078", "operator": "United States Postal Service", "operator:short": "USPS", "operator:type": "public", "operator:wikidata": "Q668687", "ref": "6831000026"}, "type": "Feature"}
{"geometry": {"coordinates": [-96.746778781, 40.269860371], "type": "Point"}, "id": "vZWiRcCWSThcD8pRwwCr-SYIZFk=", "properties": {"@source_uri": "https://tools.usps.com/UspsToolsRestServices/rest/POLocator/findLocations", "@spider": "usps_collection_boxes", "addr:city": "BEATRICE", "addr:country": "US", "addr:postcode": "68310", "addr:state": "NE", "addr:street_address": "425 N 6TH ST", "amenity": "post_box", "collection_times": "Mo-Fr 15:20; Sa 11:30", "indoor": "yes", "note": "ON 12/24 AND 12/31, THIS BOX MAY BE COLLECTED AS EARLY AS 12 NOON.", "nsi_id": "unitedstatespostalservice-a77078", "operator": "United States Postal Service", "operator:short": "USPS", "operator:type": "public", "operator:wikidata": "Q668687", "ref": "6831000027"}, "type": "Feature"}
{"geometry": {"coordinates": [-97.280261696, 40.778422514], "type": "Point"}, "id": "l5eZVXooHpZNeQU3Kg_sPYPSSW0=", "properties": {"@source_uri": "https://tools.usps.com/UspsToolsRestServices/rest/POLocator/findLocations", "@spider": "usps_collection_boxes", "addr:city": "BEAVER CROSSING", "addr:country": "US", "addr:postcode": "68313", "addr:state": "NE", "addr:street_address": "823 DIMERY AVE", "amenity": "post_box", "collection_times": "Mo-Fr 13:45; Sa 12:15", "note": "ON 12/24 AND 12/31, THIS BOX MAY BE COLLECTED AS EARLY AS 12 NOON.", "nsi_id": "unitedstatespostalservice-a77078", "operator": "United States Postal Service", "operator:short": "USPS", "operator:type": "public", "operator:wikidata": "Q668687", "ref": "6831300001"}, "type": "Feature"}
{"geometry": {"coordinates": [-97.280261696, 40.778422514], "type": "Point"}, "id": "V0-mF_KjGZUK8zt6sTjFYkGy6iE=", "properties": {"@source_uri": "https://tools.usps.com/UspsToolsRestServices/rest/POLocator/findLocations", "@spider": "usps_collection_boxes", "addr:city": "BEAVER CROSSING", "addr:country": "US", "addr:postcode": "68313", "addr:state": "NE", "addr:street_address": "823 DIMERY AVE", "amenity": "post_box", "collection_times": "Mo-Fr 13:30; Sa 12:30", "indoor": "yes", "note": "ON 12/24 AND 12/31, THIS BOX MAY BE COLLECTED AS EARLY AS 12 NOON.", "nsi_id": "unitedstatespostalservice-a77078", "operator": "United States Postal Service", "operator:short": "USPS", "operator:type": "public", "operator:wikidata": "Q668687", "ref": "6831300002"}, "type": "Feature"}
{"geometry": {"coordinates": [-97.280261696, 40.778422514], "type": "Point"}, "id": "JkK62LeE9r6jnzOaLmU6SxRvz5U=", "properties": {"@source_uri": "https://tools.usps.com/UspsToolsRestServices/rest/POLocator/findLocations", "@spider": "usps_collection_boxes", "addr:city": "BEAVER CROSSING", "addr:country": "US", "addr:postcode": "68313", "addr:state": "NE", "addr:street_address": "823 DIMERY AVE", "amenity": "post_box", "collection_times": "Mo-Fr 13:30; Sa 12:30", "indoor": "yes", "note": "ON 12/24 AND 12/31, THIS BOX MAY BE COLLECTED AS EARLY AS 12 NOON.", "nsi_id": "unitedstatespostalservice-a77078", "operator": "United States Postal Service", "operator:short": "USPS", "operator:type": "public", "operator:wikidata": "Q668687", "ref": "6831300003"}, "type": "Feature"}
{"geometry": {"coordinates": [-97.059113026, 41.006418477], "type": "Point"}, "id": "ZUz-TavdyzwfYTHqoqUEgYWXzW0=", "properties": {"@source_uri": "https://tools.usps.com/UspsToolsRestServices/rest/POLocator/findLocations", "@spider": "usps_collection_boxes", "addr:city": "BEE", "addr:country": "US", "addr:postcode": "68314", "addr:state": "NE", "addr:street_address": "185 ELM ST", "amenity": "post_box", "collection_times": "Mo-Sa 09:45", "nsi_id": "unitedstatespostalservice-a77078", "operator": "United States Postal Service", "operator:short": "USPS", "operator:type": "public", "operator:wikidata": "Q668687", "ref": "6831400001"}, "type": "Feature"}
{"geometry": {"coordinates": [-97.059113026, 41.006418477], "type": "Point"}, "id": "JxRZpb8uryI3DL0pXjZb1UCdTgg=", "properties": {"@source_uri": "https://tools.usps.com/UspsToolsRestServices/rest/POLocator/findLocations", "@spider": "usps_collection_boxes", "addr:city": "BEE", "addr:country": "US", "addr:postcode": "68314", "addr:state": "NE", "addr:street_address": "185 ELM ST", "amenity": "post_box", "collection_times": "Mo-Sa 09:45", "indoor": "yes", "nsi_id": "unitedstatespostalservice-a77078", "operator": "United States Postal Service", "operator:short": "USPS", "operator:type": "public", "operator:wikidata": "Q668687", "ref": "6831400002"}, "type": "Feature"}
{"geometry": {"coordinates": [-97.059113026, 41.006418477], "type": "Point"}, "id": "IbKVHv8rSjX6zdIMJOBat_AdmX4=", "properties": {"@source_uri": "https://tools.usps.com/UspsToolsRestServices/rest/POLocator/findLocations", "@spider": "usps_collection_boxes", "addr:city": "BEE", "addr:country": "US", "addr:postcode": "68314", "addr:state": "NE", "addr:street_address": "185 ELM ST", "amenity": "post_box", "collection_times": "Mo-Sa 09:45", "indoor": "yes", "nsi_id": "unitedstatespostalservice-a77078", "operator": "United States Postal Service", "operator:short": "USPS", "operator:type": "public", "operator:wikidata": "Q668687", "ref": "6831400003"}, "type": "Feature"}
{"geometry": {"coordinates": [-97.605563223, 41.005714493], "type": "Point"}, "id": "RYbWxOzUAmgSaeUDYVscDtl8ctM=", "properties": {"@source_uri": "https://tools.usps.com/UspsToolsRestServices/rest/POLocator/findLocations", "@spider": "usps_collection_boxes", "addr:city": "BENEDICT", "addr:country": "US", "addr:postcode": "68316", "addr:state": "NE", "addr:street_address": "214 SHERMAN ST", "amenity": "post_box", "collection_times": "Mo-Fr 12:45; Sa 10:30", "note": "ON 12/24 AND 12/31, THIS BOX MAY BE COLLECTED AS EARLY AS 12 NOON.", "nsi_id": "unitedstatespostalservice-a77078", "operator": "United States Postal Service", "operator:short": "USPS", "operator:type": "public", "operator:wikidata": "Q668687", "ref": "6831600001"}, "type": "Feature"}
{"geometry": {"coordinates": [-97.605563223, 41.005714493], "type": "Point"}, "id": "aHVkrmlbeH4CdVVoboq-aC8jmrk=", "properties": {"@source_uri": "https://tools.usps.com/UspsToolsRestServices/rest/POLocator/findLocations", "@spider": "usps_collection_boxes", "addr:city": "BENEDICT", "addr:country": "US", "addr:postcode": "68316", "addr:state": "NE", "addr:street_address": "214 SHERMAN ST", "amenity": "post_box", "collection_times": "Mo-Fr 12:45; Sa 10:30", "indoor": "yes", "note": "ON 12/24 AND 12/31, THIS BOX MAY BE COLLECTED AS EARLY AS 12 NOON.", "nsi_id": "unitedstatespostalservice-a77078", "operator": "United States Postal Service", "operator:short": "USPS", "operator:type": "public", "operator:wikidata": "Q668687", "ref": "6831600002"}, "type": "Feature"}
{"geometry": {"coordinates": [-97.605563223, 41.005714493], "type": "Point"}, "id": "kFF2e2RhWegQespHZEsE8FtpFMs=", "properties": {"@source_uri": "https://tools.usps.com/UspsToolsRestServices/rest/POLocator/findLocations", "@spider": "usps_collection_boxes", "addr:city": "BENEDICT", "addr:country": "US", "addr:postcode": "68316", "addr:state": "NE", "addr:street_address": "214 SHERMAN ST", "amenity": "post_box", "collection_times": "Mo-Fr 12:45; Sa 10:30", "indoor": "yes", "note": "ON 12/24 AND 12/31, THIS BOX MAY BE COLLECTED AS EARLY AS 12 NOON.", "nsi_id": "unitedstatespostalservice-a77078", "operator": "United States Postal Service", "operator:short": "USPS", "operator:type": "public", "operator:wikidata": "Q668687", "ref": "6831600003"}, "type": "Feature"}
{"geometry": {"coordinates": [-96.507907218, 40.679774665], "type": "Point"}, "id": "LcI-C0UcQPvKc3XuFOyPOVeCHMU=", "properties": {"@source_uri": "https://tools.usps.com/UspsToolsRestServices/rest/POLocator/findLocations", "@spider": "usps_collection_boxes", "addr:city": "BENNET", "addr:country": "US", "addr:postcode": "68317", "addr:state": "NE", "addr:street_address": "605 MADISON ST", "amenity": "post_box", "collection_times": "Mo-Fr 13:15; Sa 09:00", "note": "ON 12/24 AND 12/31, THIS BOX MAY BE COLLECTED AS EARLY AS 12 NOON.", "nsi_id": "unitedstatespostalservice-a77078", "operator": "United States Postal Service", "operator:short": "USPS", "operator:type": "public", "operator:wikidata": "Q668687", "ref": "6831700001"}, "type": "Feature"}
{"geometry": {"coordinates": [-96.507907218, 40.679774665], "type": "Point"}, "id": "o_LCY1O4avQrdJmACGND6pP0RXI=", "properties": {"@source_uri": "https://tools.usps.com/UspsToolsRestServices/rest/POLocator/findLocations", "@spider": "usps_collection_boxes", "addr:city": "BENNET", "addr:country": "US", "addr:postcode": "68317", "addr:state": "NE", "addr:street_address": "605 MADISON ST", "amenity": "post_box", "collection_times": "Mo-Fr 13:15; Sa 09:00", "indoor": "yes", "note": "ON 12/24 AND 12/31, THIS BOX MAY BE COLLECTED AS EARLY AS 12 NOON.", "nsi_id": "unitedstatespostalservice-a77078", "operator": "United States Postal Service", "operator:short": "USPS", "operator:type": "public", "operator:wikidata": "Q668687", "ref": "6831700002"}, "type": "Feature"}
{"geometry": {"coordinates": [-96.507907218, 40.679774665], "type": "Point"}, "id": "89nQQUQjFimZcOPjl8yiWy-__HI=", "properties": {"@source_uri": "https://tools.usps.com/UspsToolsRestServices/rest/POLocator/findLocations", "@spider": "usps_collection_boxes", "addr:city": "BENNET", "addr:country": "US", "addr:postcode": "68317", "addr:state": "NE", "addr:street_address": "605 MADISON ST", "amenity": "post_box", "collection_times": "Mo-Fr 13:15; Sa 09:00", "indoor": "yes", "note": "ON 12/24 AND 12/31, THIS BOX MAY BE COLLECTED AS EARLY AS 12 NOON.", "nsi_id": "unitedstatespostalservice-a77078", "operator": "United States Postal Service", "operator:short": "USPS", "operator:type": "public", "operator:wikidata": "Q668687", "ref": "6831700003"}, "type": "Feature"}
{"geometry": {"coordinates": [-96.660603, 40.13951646], "type": "Point"}, "id": "nav-aE7Vnhznv12Kb7AIGNJBd8Y=", "properties": {"@source_uri": "https://tools.usps.com/UspsToolsRestServices/rest/POLocator/findLocations", "@spider": "usps_collection_boxes", "addr:city": "BLUE SPRINGS", "addr:country": "US", "addr:postcode": "68318", "addr:state": "NE", "addr:street_address": "204 E BROAD ST", "amenity": "post_box", "collection_times": "Mo-Fr 11:45; Sa 10:45", "nsi_id": "unitedstatespostalservice-a77078", "operator": "United States Postal Service", "operator:short": "USPS", "operator:type": "public", "operator:wikidata": "Q668687", "ref": "6831800001"}, "type": "Feature"}
{"geometry": {"coordinates": [-96.660603, 40.13951646], "type": "Point"}, "id": "k0KxP-G_Ya5Ii3GBoXPONOYvFp4=", "properties": {"@source_uri": "https://tools.usps.com/UspsToolsRestServices/rest/POLocator/findLocations", "@spider": "usps_collection_boxes", "addr:city": "BLUE SPRINGS", "addr:country": "US", "addr:postcode": "68318", "addr:state": "NE", "addr:street_address": "204 E BROAD ST", "amenity": "post_box", "collection_times": "Mo-Fr 11:45; Sa 10:45", "indoor": "yes", "nsi_id": "unitedstatespostalservice-a77078", "operator": "United States Postal Service", "operator:short": "USPS", "operator:type": "public", "operator:wikidata": "Q668687", "ref": "6831800002"}, "type": "Feature"}
{"geometry": {"coordinates": [-96.660603, 40.13951646], "type": "Point"}, "id": "ckjweJCHlKLTNa7UVVcBmHjSyaE=", "properties": {"@source_uri": "https://tools.usps.com/UspsToolsRestServices/rest/POLocator/findLocations", "@spider": "usps_collection_boxes", "addr:city": "BLUE SPRINGS", "addr:country": "US", "addr:postcode": "68318", "addr:state": "NE", "addr:street_address": "204 E BROAD ST", "amenity": "post_box", "collection_times": "Mo-Fr 11:45; Sa 10:45", "indoor": "yes", "nsi_id": "unitedstatespostalservice-a77078", "operator": "United States Postal Service", "operator:short": "USPS", "operator:type": "public", "operator:wikidata": "Q668687", "ref": "6831800003"}, "type": "Feature"}
{"geometry": {"coordinates": [-97.747317353, 40.882527335], "type": "Point"}, "id": "efQTRleIQHEkTZcJan2mZgR0NaE=", "properties": {"@source_uri": "https://tools.usps.com/UspsToolsRestServices/rest/POLocator/findLocations", "@spider": "usps_collection_boxes", "addr:city": "BRADSHAW", "addr:country": "US", "addr:postcode": "68319", "addr:state": "NE", "addr:street_address": "565 LINCOLN ST", "amenity": "post_box", "collection_times": "Mo-Fr 11:45; Sa 09:00", "nsi_id": "unitedstatespostalservice-a77078", "operator": "United States Postal Service", "operator:short": "USPS", "operator:type": "public", "operator:wikidata": "Q668687", "ref": "6831900001"}, "type": "Feature"}
{"geometry": {"coordinates": [-97.747317353, 40.882527335], "type": "Point"}, "id": "KRlWrjz-zesNVIUDuM3Mqv7V3BM=", "properties": {"@source_uri": "https://tools.usps.com/UspsToolsRestServices/rest/POLocator/findLocations", "@spider": "usps_collection_boxes", "addr:city": "BRADSHAW", "addr:country": "US", "addr:postcode": "68319", "addr:state": "NE", "addr:street_address": "565 LINCOLN ST", "amenity": "post_box", "collection_times": "Mo-Fr 11:45; Sa 09:00", "indoor": "yes", "nsi_id": "unitedstatespostalservice-a77078", "operator": "United States Postal Service", "operator:short": "USPS", "operator:type": "public", "operator:wikidata": "Q668687", "ref": "6831900002"}, "type": "Feature"}
{"geometry": {"coordinates": [-97.747317353, 40.882527335], "type": "Point"}, "id": "z3-S_BBoVq5W7xL93U2aokw9Pvo=", "properties": {"@source_uri": "https://tools.usps.com/UspsToolsRestServices/rest/POLocator/findLocations", "@spider": "usps_collection_boxes", "addr:city": "BRADSHAW", "addr:country": "US", "addr:postcode": "68319", "addr:state": "NE", "addr:street_address": "565 LINCOLN ST", "amenity": "post_box", "collection_times": "Mo-Fr 11:45; Sa 09:00", "indoor": "yes", "nsi_id": "unitedstatespostalservice-a77078", "operator": "United States Postal Service", "operator:short": "USPS", "operator:type": "public", "operator:wikidata": "Q668687", "ref": "6831900003"}, "type": "Feature"}
{"geometry": {"coordinates": [-95.959395723, 40.481448815], "type": "Point"}, "id": "wngTgtjiyA5XrRQqrJv-8dA40Oc=", "properties": {"@source_uri": "https://tools.usps.com/UspsToolsRestServices/rest/POLocator/findLocations", "@spider": "usps_collection_boxes", "addr:city": "BROCK", "addr:country": "US", "addr:postcode": "68320", "addr:state": "NE", "addr:street_address": "705 S MAIN ST", "amenity": "post_box", "collection_times": "Mo-Sa 11:00", "nsi_id": "unitedstatespostalservice-a77078", "operator": "United States Postal Service", "operator:short": "USPS", "operator:type": "public", "operator:wikidata": "Q668687", "ref": "6832000001"}, "type": "Feature"}
{"geometry": {"coordinates": [-95.657143732, 40.397400475], "type": "Point"}, "id": "M8uJKFy3Mf8NKLnR7DgAzybGeIU=", "properties": {"@source_uri": "https://tools.usps.com/UspsToolsRestServices/rest/POLocator/findLocations", "@spider": "usps_collection_boxes", "addr:city": "BROWNVILLE", "addr:country": "US", "addr:postcode": "68321", "addr:state": "NE", "addr:street_address": "217 MAIN ST", "amenity": "post_box", "collection_times": "Mo-Sa 14:10", "note": "ON 12/24 AND 12/31, THIS BOX MAY BE COLLECTED AS EARLY AS 12 NOON.", "nsi_id": "unitedstatespostalservice-a77078", "operator": "United States Postal Service", "operator:short": "USPS", "operator:type": "public", "operator:wikidata": "Q668687", "ref": "6832100001"}, "type": "Feature"}
{"geometry": {"coordinates": [-95.657143732, 40.397400475], "type": "Point"}, "id": "SSH1GkQ-dsKR-vBSlxzO6Lx-lPk=", "properties": {"@source_uri": "https://tools.usps.com/UspsToolsRestServices/rest/POLocator/findLocations", "@spider": "usps_collection_boxes", "addr:city": "BROWNVILLE", "addr:country": "US", "addr:postcode": "68321", "addr:state": "NE", "addr:street_address": "217 MAIN ST", "amenity": "post_box", "collection_times": "Mo-Sa 14:00", "indoor": "yes", "note": "ON 12/24 AND 12/31, THIS BOX MAY BE COLLECTED AS EARLY AS 12 NOON.", "nsi_id": "unitedstatespostalservice-a77078", "operator": "United States Postal Service", "operator:short": "USPS", "operator:type": "public", "operator:wikidata": "Q668687", "ref": "6832100002"}, "type": "Feature"}
{"geometry": {"coordinates": [-95.657143732, 40.397400475], "type": "Point"}, "id": "wGipKE35wniKLGmsteEYOqlelLk=", "properties": {"@source_uri": "https://tools.usps.com/UspsToolsRestServices/rest/POLocator/findLocations", "@spider": "usps_collection_boxes", "addr:city": "BROWNVILLE", "addr:country": "US", "addr:postcode": "68321", "addr:state": "NE", "addr:street_address": "217 MAIN ST", "amenity": "post_box", "collection_times": "Mo-Sa 14:00", "indoor": "yes", "note": "ON 12/24 AND 12/31, THIS BOX MAY BE COLLECTED AS EARLY AS 12 NOON.", "nsi_id": "unitedstatespostalservice-a77078", "operator": "United States Postal Service", "operator:short": "USPS", "operator:type": "public", "operator:wikidata": "Q668687", "ref": "6832100003"}, "type": "Feature"}
{"geometry": {"coordinates": [-97.565823168, 40.33625646], "type": "Point"}, "id": "rasamDwqmMFjjB_bXsUvr4MxOfI=", "properties": {"@source_uri": "https://tools.usps.com/UspsToolsRestServices/rest/POLocator/findLocations", "@spider": "usps_collection_boxes", "addr:city": "BRUNING", "addr:country": "US", "addr:postcode": "68322", "addr:state": "NE", "addr:street_address": "144 E MAIN ST", "amenity": "post_box", "collection_times": "Mo-Fr 14:15; Sa 10:00", "note": "ON 12/24 AND 12/31, THIS BOX MAY BE COLLECTED AS EARLY AS 12 NOON.", "nsi_id": "unitedstatespostalservice-a77078", "operator": "United States Postal Service", "operator:short": "USPS", "operator:type": "public", "operator:wikidata": "Q668687", "ref": "6832200001"}, "type": "Feature"}
{"geometry": {"coordinates": [-97.565823168, 40.33625646], "type": "Point"}, "id": "ABK7g4ZjmkK9rqS1e4g10B3QGr8=", "properties": {"@source_uri": "https://tools.usps.com/UspsToolsRestServices/rest/POLocator/findLocations", "@spider": "usps_collection_boxes", "addr:city": "BRUNING", "addr:country": "US", "addr:postcode": "68322", "addr:state": "NE", "addr:street_address": "144 E MAIN ST", "amenity": "post_box", "collection_times": "Mo-Fr 13:50; Sa 10:00", "indoor": "yes", "note": "ON 12/24 AND 12/31, THIS BOX MAY BE COLLECTED AS EARLY AS 12 NOON.", "nsi_id": "unitedstatespostalservice-a77078", "operator": "United States Postal Service", "operator:short": "USPS", "operator:type": "public", "operator:wikidata": "Q668687", "ref": "6832200002"}, "type": "Feature"}
{"geometry": {"coordinates": [-97.565823168, 40.33625646], "type": "Point"}, "id": "dETeEWDLTwuq2ahv_GjDr5YJlPk=", "properties": {"@source_uri": "https://tools.usps.com/UspsToolsRestServices/rest/POLocator/findLocations", "@spider": "usps_collection_boxes", "addr:city": "BRUNING", "addr:country": "US", "addr:postcode": "68322", "addr:state": "NE", "addr:street_address": "144 E MAIN ST", "amenity": "post_box", "collection_times": "Mo-Fr 13:50; Sa 10:00", "indoor": "yes", "note": "ON 12/24 AND 12/31, THIS BOX MAY BE COLLECTED AS EARLY AS 12 NOON.", "nsi_id": "unitedstatespostalservice-a77078", "operator": "United States Postal Service", "operator:short": "USPS", "operator:type": "public", "operator:wikidata": "Q668687", "ref": "6832200004"}, "type": "Feature"}
{"geometry": {"coordinates": [-96.348550668, 40.147420507], "type": "Point"}, "id": "XF2hu5z3oukBfhBiSvWDsRk2-gY=", "properties": {"@source_uri": "https://tools.usps.com/UspsToolsRestServices/rest/POLocator/findLocations", "@spider": "usps_collection_boxes", "addr:city": "BURCHARD", "addr:country": "US", "addr:postcode": "68323", "addr:state": "NE", "addr:street_address": "206 2ND ST", "amenity": "post_box", "collection_times": "Mo-Fr 11:15; Sa 08:45", "nsi_id": "unitedstatespostalservice-a77078", "operator": "United States Postal Service", "operator:short": "USPS", "operator:type": "public", "operator:wikidata": "Q668687", "ref": "6832300001"}, "type": "Feature"}
{"geometry": {"coordinates": [-96.348550668, 40.147420507], "type": "Point"}, "id": "3Hy0lB51eAjdkKAjRH3TV-6ecYk=", "properties": {"@source_uri": "https://tools.usps.com/UspsToolsRestServices/rest/POLocator/findLocations", "@spider": "usps_collection_boxes", "addr:city": "BURCHARD", "addr:country": "US", "addr:postcode": "68323", "addr:state": "NE", "addr:street_address": "206 2ND ST", "amenity": "post_box", "collection_times": "Mo-Fr 11:15; Sa 08:45", "indoor": "yes", "nsi_id": "unitedstatespostalservice-a77078", "operator": "United States Postal Service", "operator:short": "USPS", "operator:type": "public", "operator:wikidata": "Q668687", "ref": "6832300002"}, "type": "Feature"}
{"geometry": {"coordinates": [-96.348550668, 40.147420507], "type": "Point"}, "id": "9ZMfx4k8XtdA31Rxe3jFKh81Dac=", "properties": {"@source_uri": "https://tools.usps.com/UspsToolsRestServices/rest/POLocator/findLocations", "@spider": "usps_collection_boxes", "addr:city": "BURCHARD", "addr:country": "US", "addr:postcode": "68323", "addr:state": "NE", "addr:street_address": "206 2ND ST", "amenity": "post_box", "collection_times": "Mo-Fr 11:15; Sa 08:45", "indoor": "yes", "nsi_id": "unitedstatespostalservice-a77078", "operator": "United States Postal Service", "operator:short": "USPS", "operator:type": "public", "operator:wikidata": "Q668687", "ref": "6832300003"}, "type": "Feature"}
{"geometry": {"coordinates": [-96.299661693, 40.535505547], "type": "Point"}, "id": "vNh_eNGyILPOQQBLuE8ow9nE7cg=", "properties": {"@source_uri": "https://tools.usps.com/UspsToolsRestServices/rest/POLocator/findLocations", "@spider": "usps_collection_boxes", "addr:city": "BURR", "addr:country": "US", "addr:postcode": "68324", "addr:state": "NE", "addr:street_address": "435 MAIN ST", "amenity": "post_box", "collection_times": "Mo-Sa 10:00", "nsi_id": "unitedstatespostalservice-a77078", "operator": "United States Postal Service", "operator:short": "USPS", "operator:type": "public", "operator:wikidata": "Q668687", "ref": "6832400001"}, "type": "Feature"}
{"geometry": {"coordinates": [-96.299661693, 40.535505547], "type": "Point"}, "id": "JcIkOff01O-IWHTy18eS_zrceb4=", "properties": {"@source_uri": "https://tools.usps.com/UspsToolsRestServices/rest/POLocator/findLocations", "@spider": "usps_collection_boxes", "addr:city": "BURR", "addr:country": "US", "addr:postcode": "68324", "addr:state": "NE", "addr:street_address": "435 MAIN ST", "amenity": "post_box", "collection_times": "Mo-Fr 12:50; Sa 10:00", "indoor": "yes", "note": "ON 12/24 AND 12/31, THIS BOX MAY BE COLLECTED AS EARLY AS 12 NOON.", "nsi_id": "unitedstatespostalservice-a77078", "operator": "United States Postal Service", "operator:short": "USPS", "operator:type": "public", "operator:wikidata": "Q668687", "ref": "6832400002"}, "type": "Feature"}
{"geometry": {"coordinates": [-97.768945974, 40.002697674], "type": "Point"}, "id": "32tYJtJV4Gq-POEybbKeHWtC-yM=", "properties": {"@source_uri": "https://tools.usps.com/UspsToolsRestServices/rest/POLocator/findLocations", "@spider": "usps_collection_boxes", "addr:city": "BYRON", "addr:country": "US", "addr:postcode": "68325", "addr:state": "NE", "addr:street_address": "118 KANSAS AVE", "amenity": "post_box", "collection_times": "Mo-Fr 11:30; Sa 09:15", "nsi_id": "unitedstatespostalservice-a77078", "operator": "United States Postal Service", "operator:short": "USPS", "operator:type": "public", "operator:wikidata": "Q668687", "ref": "6832500001"}, "type": "Feature"}
{"geometry": {"coordinates": [-97.768945974, 40.002697674], "type": "Point"}, "id": "uTQUlyw_XCO236UaDXiALMRerA0=", "properties": {"@source_uri": "https://tools.usps.com/UspsToolsRestServices/rest/POLocator/findLocations", "@spider": "usps_collection_boxes", "addr:city": "BYRON", "addr:country": "US", "addr:postcode": "68325", "addr:state": "NE", "addr:street_address": "118 KANSAS AVE", "amenity": "post_box", "collection_times": "Mo-Fr 11:30; Sa 09:15", "indoor": "yes", "nsi_id": "unitedstatespostalservice-a77078", "operator": "United States Postal Service", "operator:short": "USPS", "operator:type": "public", "operator:wikidata": "Q668687", "ref": "6832500002"}, "type": "Feature"}
{"geometry": {"coordinates": [-97.768945974, 40.002697674], "type": "Point"}, "id": "VcTYKHQg7uMYRl88KEeN4eBVm1U=", "properties": {"@source_uri": "https://tools.usps.com/UspsToolsRestServices/rest/POLocator/findLocations", "@spider": "usps_collection_boxes", "addr:city": "BYRON", "addr:country": "US", "addr:postcode": "68325", "addr:state": "NE", "addr:street_address": "118 KANSAS AVE", "amenity": "post_box", "collection_times": "Mo-Fr 11:30; Sa 09:15", "indoor": "yes", "nsi_id": "unitedstatespostalservice-a77078", "operator": "United States Postal Service", "operator:short": "USPS", "operator:type": "public", "operator:wikidata": "Q668687", "ref": "6832500003"}, "type": "Feature"}
{"geometry": {"coordinates": [-97.678578266, 40.299963183], "type": "Point"}, "id": "Z-sVVUKx5_-pLgoxODXvDfpHXIA=", "properties": {"@source_uri": "https://tools.usps.com/UspsToolsRestServices/rest/POLocator/findLocations", "@spider": "usps_collection_boxes", "addr:city": "CARLETON", "addr:country": "US", "addr:postcode": "68326", "addr:state": "NE", "addr:street_address": "320 D ST", "amenity": "post_box", "collection_times": "Mo-Fr 14:45; Sa 11:00", "note": "ON 12/24 AND 12/31, THIS BOX MAY BE COLLECTED AS EARLY AS 12 NOON.", "nsi_id": "unitedstatespostalservice-a77078", "operator": "United States Postal Service", "operator:short": "USPS", "operator:type": "public", "operator:wikidata": "Q668687", "ref": "6832600001"}, "type": "Feature"}
{"geometry": {"coordinates": [-97.678578266, 40.299963183], "type": "Point"}, "id": "K3bUp4VKLSh60q1yUoreQtq7JOo=", "properties": {"@source_uri": "https://tools.usps.com/UspsToolsRestServices/rest/POLocator/findLocations", "@spider": "usps_collection_boxes", "addr:city": "CARLETON", "addr:country": "US", "addr:postcode": "68326", "addr:state": "NE", "addr:street_address": "320 D ST", "amenity": "post_box", "collection_times": "Mo-Fr 14:00; Sa 11:15", "indoor": "yes", "note": "ON 12/24 AND 12/31, THIS BOX MAY BE COLLECTED AS EARLY AS 12 NOON.", "nsi_id": "unitedstatespostalservice-a77078", "operator": "United States Postal Service", "operator:short": "USPS", "operator:type": "public", "operator:wikidata": "Q668687", "ref": "6832600002"}, "type": "Feature"}
{"geometry": {"coordinates": [-97.678578266, 40.299963183], "type": "Point"}, "id": "E62f19rgtKyBTYGN0V0lwzZFHoE=", "properties": {"@source_uri": "https://tools.usps.com/UspsToolsRestServices/rest/POLocator/findLocations", "@spider": "usps_collection_boxes", "addr:city": "CARLETON", "addr:country": "US", "addr:postcode": "68326", "addr:state": "NE", "addr:street_address": "320 D ST", "amenity": "post_box", "collection_times": "Mo-Fr 14:00; Sa 11:15", "indoor": "yes", "note": "ON 12/24 AND 12/31, THIS BOX MAY BE COLLECTED AS EARLY AS 12 NOON.", "nsi_id": "unitedstatespostalservice-a77078", "operator": "United States Postal Service", "operator:short": "USPS", "operator:type": "public", "operator:wikidata": "Q668687", "ref": "6832600003"}, "type": "Feature"}
{"geometry": {"coordinates": [-97.618844441, 40.009347262], "type": "Point"}, "id": "NY8TFLg_hzRcv3e_Rw4I3oUhsL0=", "properties": {"@source_uri": "https://tools.usps.com/UspsToolsRestServices/rest/POLocator/findLocations", "@spider": "usps_collection_boxes", "addr:city": "CHESTER", "addr:country": "US", "addr:postcode": "68327", "addr:state": "NE", "addr:street_address": "511 THAYER AVE", "amenity": "post_box", "collection_times": "Mo-Fr 12:15; Sa 09:15", "note": "ON 12/24 AND 12/31, THIS BOX MAY BE COLLECTED AS EARLY AS 12 NOON.", "nsi_id": "unitedstatespostalservice-a77078", "operator": "United States Postal Service", "operator:short": "USPS", "operator:type": "public", "operator:wikidata": "Q668687", "ref": "6832700001"}, "type": "Feature"}
{"geometry": {"coordinates": [-97.618844441, 40.009347262], "type": "Point"}, "id": "I0u0nCE01H6JzBL5OMOVluB2SCU=", "properties": {"@source_uri": "https://tools.usps.com/UspsToolsRestServices/rest/POLocator/findLocations", "@spider": "usps_collection_boxes", "addr:city": "CHESTER", "addr:country": "US", "addr:postcode": "68327", "addr:state": "NE", "addr:street_address": "511 THAYER AVE", "amenity": "post_box", "collection_times": "Mo-Fr 12:20; Sa 09:20", "indoor": "yes", "note": "ON 12/24 AND 12/31, THIS BOX MAY BE COLLECTED AS EARLY AS 12 NOON.", "nsi_id": "unitedstatespostalservice-a77078", "operator": "United States Postal Service", "operator:short": "USPS", "operator:type": "public", "operator:wikidata": "Q668687", "ref": "6832700002"}, "type": "Feature"}
{"geometry": {"coordinates": [-97.618844441, 40.009347262], "type": "Point"}, "id": "-c2aUKyHvcWRRxR13hRr5oHlmhs=", "properties": {"@source_uri": "https://tools.usps.com/UspsToolsRestServices/rest/POLocator/findLocations", "@spider": "usps_collection_boxes", "addr:city": "CHESTER", "addr:country": "US", "addr:postcode": "68327", "addr:state": "NE", "addr:street_address": "511 THAYER AVE", "amenity": "post_box", "collection_times": "Mo-Fr 12:20; Sa 09:20", "indoor": "yes", "note": "ON 12/24 AND 12/31, THIS BOX MAY BE COLLECTED AS EARLY AS 12 NOON.", "nsi_id": "unitedstatespostalservice-a77078", "operator": "United States Postal Service", "operator:short": "USPS", "operator:type": "public", "operator:wikidata": "Q668687", "ref": "6832700003"}, "type": "Feature"}
{"geometry": {"coordinates": [-96.8493434, 40.46547912], "type": "Point"}, "id": "hYFwhMv1p2izr-U97Nh_mlEHKbk=", "properties": {"@source_uri": "https://tools.usps.com/UspsToolsRestServices/rest/POLocator/findLocations", "@spider": "usps_collection_boxes", "addr:city": "CLATONIA", "addr:country": "US", "addr:postcode": "68328", "addr:state": "NE", "addr:street_address": "140 WASHINGTON ST", "amenity": "post_box", "collection_times": "Mo-Fr 16:30; Sa 14:30", "note": "ON 12/24 AND 12/31, THIS BOX MAY BE COLLECTED AS EARLY AS 12 NOON.", "nsi_id": "unitedstatespostalservice-a77078", "operator": "United States Postal Service", "operator:short": "USPS", "operator:type": "public", "operator:wikidata": "Q668687", "ref": "6832800001"}, "type": "Feature"}
{"geometry": {"coordinates": [-96.8493434, 40.46547912], "type": "Point"}, "id": "6908Y2-qyW1z4apxt0ZtgfzxwRc=", "properties": {"@source_uri": "https://tools.usps.com/UspsToolsRestServices/rest/POLocator/findLocations", "@spider": "usps_collection_boxes", "addr:city": "CLATONIA", "addr:country": "US", "addr:postcode": "68328", "addr:state": "NE", "addr:street_address": "140 WASHINGTON ST", "amenity": "post_box", "collection_times": "Mo-Sa 14:30", "indoor": "yes", "note": "ON 12/24 AND 12/31, THIS BOX MAY BE COLLECTED AS EARLY AS 12 NOON.", "nsi_id": "unitedstatespostalservice-a77078", "operator": "United States Postal Service", "operator:short": "USPS", "operator:type": "public", "operator:wikidata": "Q668687", "ref": "6832800002"}, "type": "Feature"}
{"geometry": {"coordinates": [-96.8493434, 40.46547912], "type": "Point"}, "id": "b0T5uIOD8sFLR6R1TnceOzQaovA=", "properties": {"@source_uri": "https://tools.usps.com/UspsToolsRestServices/rest/POLocator/findLocations", "@spider": "usps_collection_boxes", "addr:city": "CLATONIA", "addr:country": "US", "addr:postcode": "68328", "addr:state": "NE", "addr:street_address": "140 WASHINGTON ST", "amenity": "post_box", "collection_times": "Mo-Sa 14:30", "indoor": "yes", "note": "ON 12/24 AND 12/31, THIS BOX MAY BE COLLECTED AS EARLY AS 12 NOON.", "nsi_id": "unitedstatespostalservice-a77078", "operator": "United States Postal Service", "operator:short": "USPS", "operator:type": "public", "operator:wikidata": "Q668687", "ref": "6832800003"}, "type": "Feature"}
{"geometry": {"coordinates": [-96.16318178, 40.509754514], "type": "Point"}, "id": "BJR4hPbtyppqZJWWjC8ycvLE-IU=", "properties": {"@source_uri": "https://tools.usps.com/UspsToolsRestServices/rest/POLocator/findLocations", "@spider": "usps_collection_boxes", "addr:city": "COOK", "addr:country": "US", "addr:postcode": "68329", "addr:state": "NE", "addr:street_address": "214 W MAIN ST", "amenity": "post_box", "collection_times": "Mo-Fr 11:30; Sa 09:30", "nsi_id": "unitedstatespostalservice-a77078", "operator": "United States Postal Service", "operator:short": "USPS", "operator:type": "public", "operator:wikidata": "Q668687", "ref": "6832900001"}, "type": "Feature"}
{"geometry": {"coordinates": [-96.16318178, 40.509754514], "type": "Point"}, "id": "urqg72vsVv12jPn9ephOt0DmB8A=", "properties": {"@source_uri": "https://tools.usps.com/UspsToolsRestServices/rest/POLocator/findLocations", "@spider": "usps_collection_boxes", "addr:city": "COOK", "addr:country": "US", "addr:postcode": "68329", "addr:state": "NE", "addr:street_address": "214 W MAIN ST", "amenity": "post_box", "collection_times": "Mo-Fr 11:30; Sa 09:30", "indoor": "yes", "nsi_id": "unitedstatespostalservice-a77078", "operator": "United States Postal Service", "operator:short": "USPS", "operator:type": "public", "operator:wikidata": "Q668687", "ref": "6832900002"}, "type": "Feature"}
{"geometry": {"coordinates": [-96.16318178, 40.509754514], "type": "Point"}, "id": "-wNxarphD9xvBEON-ygWwt8heP0=", "properties": {"@source_uri": "https://tools.usps.com/UspsToolsRestServices/rest/POLocator/findLocations", "@spider": "usps_collection_boxes", "addr:city": "COOK", "addr:country": "US", "addr:postcode": "68329", "addr:state": "NE", "addr:street_address": "214 W MAIN ST", "amenity": "post_box", "collection_times": "Mo-Fr 11:30; Sa 09:30", "indoor": "yes", "nsi_id": "unitedstatespostalservice-a77078", "operator": "United States Postal Service", "operator:short": "USPS", "operator:type": "public", "operator:wikidata": "Q668687", "ref": "6832900003"}, "type": "Feature"}
{"geometry": {"coordinates": [-97.3526625, 40.71727146], "type": "Point"}, "id": "r_tqpuiqfsi7TPAvSFUTavdwtXg=", "properties": {"@source_uri": "https://tools.usps.com/UspsToolsRestServices/rest/POLocator/findLocations", "@spider": "usps_collection_boxes", "addr:city": "CORDOVA", "addr:country": "US", "addr:postcode": "68330", "addr:state": "NE", "addr:street_address": "360 HECTOR ST", "amenity": "post_box", "collection_times": "Mo-Fr 11:45; Sa 09:15", "nsi_id": "unitedstatespostalservice-a77078", "operator": "United States Postal Service", "operator:short": "USPS", "operator:type": "public", "operator:wikidata": "Q668687", "ref": "6833000001"}, "type": "Feature"}
{"geometry": {"coordinates": [-97.3526625, 40.71727146], "type": "Point"}, "id": "mGREjqdABQ7CdMA3BKVvExT53qs=", "properties": {"@source_uri": "https://tools.usps.com/UspsToolsRestServices/rest/POLocator/findLocations", "@spider": "usps_collection_boxes", "addr:city": "CORDOVA", "addr:country": "US", "addr:postcode": "68330", "addr:state": "NE", "addr:street_address": "360 HECTOR ST", "amenity": "post_box", "collection_times": "Mo-Fr 11:45; Sa 09:15", "indoor": "yes", "nsi_id": "unitedstatespostalservice-a77078", "operator": "United States Postal Service", "operator:short": "USPS", "operator:type": "public", "operator:wikidata": "Q668687", "ref": "6833000002"}, "type": "Feature"}
{"geometry": {"coordinates": [-97.3526625, 40.71727146], "type": "Point"}, "id": "dbKRBixJHm_r06BlAWI4UttlLxg=", "properties": {"@source_uri": "https://tools.usps.com/UspsToolsRestServices/rest/POLocator/findLocations", "@spider": "usps_collection_boxes", "addr:city": "CORDOVA", "addr:country": "US", "addr:postcode": "68330", "addr:state": "NE", "addr:street_address": "360 HECTOR ST", "amenity": "post_box", "collection_times": "Mo-Fr 11:45; Sa 09:15", "indoor": "yes", "nsi_id": "unitedstatespostalservice-a77078", "operator": "United States Postal Service", "operator:short": "USPS", "operator:type": "public", "operator:wikidata": "Q668687", "ref": "6833000003"}, "type": "Feature"}
{"geometry": {"coordinates": [-96.707529142, 40.505666835], "type": "Point"}, "id": "ryqJmqXsK2YIGcvc9A_aXX-pT90=", "properties": {"@source_uri": "https://tools.usps.com/UspsToolsRestServices/rest/POLocator/findLocations", "@spider": "usps_collection_boxes", "addr:city": "CORTLAND", "addr:country": "US", "addr:postcode": "68331", "addr:state": "NE", "addr:street_address": "335 W 4TH ST", "amenity": "post_box", "collection_times": "Mo-Fr 11:45; Sa 09:15", "nsi_id": "unitedstatespostalservice-a77078", "operator": "United States Postal Service", "operator:short": "USPS", "operator:type": "public", "operator:wikidata": "Q668687", "ref": "6833100001"}, "type": "Feature"}
{"geometry": {"coordinates": [-96.707529142, 40.505666835], "type": "Point"}, "id": "P5_Gl62Z8bJ4GDM_ERhGMHNUMrU=", "properties": {"@source_uri": "https://tools.usps.com/UspsToolsRestServices/rest/POLocator/findLocations", "@spider": "usps_collection_boxes", "addr:city": "CORTLAND", "addr:country": "US", "addr:postcode": "68331", "addr:state": "NE", "addr:street_address": "335 W 4TH ST", "amenity": "post_box", "collection_times": "Mo-Fr 11:45; Sa 09:30", "indoor": "yes", "nsi_id": "unitedstatespostalservice-a77078", "operator": "United States Postal Service", "operator:short": "USPS", "operator:type": "public", "operator:wikidata": "Q668687", "ref": "6833100002"}, "type": "Feature"}
{"geometry": {"coordinates": [-96.707529142, 40.505666835], "type": "Point"}, "id": "GEpm_gm_mdQ0xP6h1xauRKhDfJ4=", "properties": {"@source_uri": "https://tools.usps.com/UspsToolsRestServices/rest/POLocator/findLocations", "@spider": "usps_collection_boxes", "addr:city": "CORTLAND", "addr:country": "US", "addr:postcode": "68331", "addr:state": "NE", "addr:street_address": "335 W 4TH ST", "amenity": "post_box", "collection_times": "Mo-Fr 11:45; Sa 09:30", "indoor": "yes", "nsi_id": "unitedstatespostalservice-a77078", "operator": "United States Postal Service", "operator:short": "USPS", "operator:type": "public", "operator:wikidata": "Q668687", "ref": "6833100003"}, "type": "Feature"}
{"geometry": {"coordinates": [-96.420856993, 40.334914528], "type": "Point"}, "id": "jJ7rQ4vvpnWOQK2zY8rQo7Xrq74=", "properties": {"@source_uri": "https://tools.usps.com/UspsToolsRestServices/rest/POLocator/findLocations", "@spider": "usps_collection_boxes", "addr:city": "CRAB ORCHARD", "addr:country": "US", "addr:postcode": "68332", "addr:state": "NE", "addr:street_address": "60829 725 RD", "amenity": "post_box", "collection_times": "Mo-Sa 10:15", "nsi_id": "unitedstatespostalservice-a77078", "operator": "United States Postal Service", "operator:short": "USPS", "operator:type": "public", "operator:wikidata": "Q668687", "ref": "6833200001"}, "type": "Feature"}
{"geometry": {"coordinates": [-96.420856993, 40.334914528], "type": "Point"}, "id": "524FcqM0dF5bhcSEMfHrPePiBis=", "properties": {"@source_uri": "https://tools.usps.com/UspsToolsRestServices/rest/POLocator/findLocations", "@spider": "usps_collection_boxes", "addr:city": "CRAB ORCHARD", "addr:country": "US", "addr:postcode": "68332", "addr:state": "NE", "addr:street_address": "60829 725 RD", "amenity": "post_box", "collection_times": "Mo-Sa 10:20", "indoor": "yes", "nsi_id": "unitedstatespostalservice-a77078", "operator": "United States Postal Service", "operator:short": "USPS", "operator:type": "public", "operator:wikidata": "Q668687", "ref": "6833200003"}, "type": "Feature"}
{"geometry": {"coordinates": [-96.960244833, 40.624937445], "type": "Point"}, "id": "YPeYjpKkOjnX-h5sluPT5ZsRDh0=", "properties": {"@source_uri": "https://tools.usps.com/UspsToolsRestServices/rest/POLocator/findLocations", "@spider": "usps_collection_boxes", "addr:city": "CRETE", "addr:country": "US", "addr:postcode": "68333", "addr:state": "NE", "addr:street_address": "1242 LINDEN AVE", "amenity": "post_box", "collection_times": "Mo-Fr 17:00; Sa 10:45", "note": "ON 12/24 AND 12/31, THIS BOX MAY BE COLLECTED AS EARLY AS 12 NOON.", "nsi_id": "unitedstatespostalservice-a77078", "operator": "United States Postal Service", "operator:short": "USPS", "operator:type": "public", "operator:wikidata": "Q668687", "ref": "6833300008"}, "type": "Feature"}
{"geometry": {"coordinates": [-96.960244833, 40.624937445], "type": "Point"}, "id": "FzTMMeOv65oaYeht76-qWUATGaQ=", "properties": {"@source_uri": "https://tools.usps.com/UspsToolsRestServices/rest/POLocator/findLocations", "@spider": "usps_collection_boxes", "addr:city": "CRETE", "addr:country": "US", "addr:postcode": "68333", "addr:state": "NE", "addr:street_address": "1242 LINDEN AVE", "amenity": "post_box", "collection_times": "Mo-Fr 16:30; Sa 11:00", "indoor": "yes", "note": "ON 12/24 AND 12/31, THIS BOX MAY BE COLLECTED AS EARLY AS 12 NOON.", "nsi_id": "unitedstatespostalservice-a77078", "operator": "United States Postal Service", "operator:short": "USPS", "operator:type": "public", "operator:wikidata": "Q668687", "ref": "6833300010"}, "type": "Feature"}
{"geometry": {"coordinates": [-96.960244833, 40.624937445], "type": "Point"}, "id": "A5_MotJfQPNRiwOYBIHmVKZflag=", "properties": {"@source_uri": "https://tools.usps.com/UspsToolsRestServices/rest/POLocator/findLocations", "@spider": "usps_collection_boxes", "addr:city": "CRETE", "addr:country": "US", "addr:postcode": "68333", "addr:state": "NE", "addr:street_address": "1242 LINDEN AVE", "amenity": "post_box", "collection_times": "Mo-Fr 16:30; Sa 11:00", "indoor": "yes", "note": "ON 12/24 AND 12/31, THIS BOX MAY BE COLLECTED AS EARLY AS 12 NOON.", "nsi_id": "unitedstatespostalservice-a77078", "operator": "United States Postal Service", "operator:short": "USPS", "operator:type": "public", "operator:wikidata": "Q668687", "ref": "6833300012"}, "type": "Feature"}
{"geometry": {"coordinates": [-97.813281375, 40.312832625], "type": "Point"}, "id": "NzwxicA93UOEUDHyRXj0aH17xOg=", "properties": {"@source_uri": "https://tools.usps.com/UspsToolsRestServices/rest/POLocator/findLocations", "@spider": "usps_collection_boxes", "addr:city": "DAVENPORT", "addr:country": "US", "addr:postcode": "68335", "addr:state": "NE", "addr:street_address": "101 S MAPLE AVE", "amenity": "post_box", "collection_times": "Mo-Fr 11:45; Sa 09:00", "nsi_id": "unitedstatespostalservice-a77078", "operator": "United States Postal Service", "operator:short": "USPS", "operator:type": "public", "operator:wikidata": "Q668687", "ref": "6833500001"}, "type": "Feature"}
{"geometry": {"coordinates": [-97.813281375, 40.312832625], "type": "Point"}, "id": "PDrO9gcL2qCo_mQ4EQLCgKYh6ZQ=", "properties": {"@source_uri": "https://tools.usps.com/UspsToolsRestServices/rest/POLocator/findLocations", "@spider": "usps_collection_boxes", "addr:city": "DAVENPORT", "addr:country": "US", "addr:postcode": "68335", "addr:state": "NE", "addr:street_address": "101 S MAPLE AVE", "amenity": "post_box", "collection_times": "Mo-Fr 11:45; Sa 09:00", "indoor": "yes", "nsi_id": "unitedstatespostalservice-a77078", "operator": "United States Postal Service", "operator:short": "USPS", "operator:type": "public", "operator:wikidata": "Q668687", "ref": "6833500002"}, "type": "Feature"}
{"geometry": {"coordinates": [-97.813281375, 40.312832625], "type": "Point"}, "id": "8VBix-f2DP25ZwwwDK-Cr9YUEiQ=", "properties": {"@source_uri": "https://tools.usps.com/UspsToolsRestServices/rest/POLocator/findLocations", "@spider": "usps_collection_boxes", "addr:city": "DAVENPORT", "addr:country": "US", "addr:postcode": "68335", "addr:state": "NE", "addr:street_address": "101 S MAPLE AVE", "amenity": "post_box", "collection_times": "Mo-Fr 11:45; Sa 09:00", "indoor": "yes", "nsi_id": "unitedstatespostalservice-a77078", "operator": "United States Postal Service", "operator:short": "USPS", "operator:type": "public", "operator:wikidata": "Q668687", "ref": "6833500003"}, "type": "Feature"}
{"geometry": {"coordinates": [-96.668887532, 40.985143391], "type": "Point"}, "id": "nx2OCw1mQkfPjM2oPsdy1NMVtlc=", "properties": {"@source_uri": "https://tools.usps.com/UspsToolsRestServices/rest/POLocator/findLocations", "@spider": "usps_collection_boxes", "addr:city": "DAVEY", "addr:country": "US", "addr:postcode": "68336", "addr:state": "NE", "addr:street_address": "17755 N 2ND ST", "amenity": "post_box", "collection_times": "Mo-Fr 15:45; Sa 12:30", "note": "ON 12/24 AND 12/31, THIS BOX MAY BE COLLECTED AS EARLY AS 12 NOON.", "nsi_id": "unitedstatespostalservice-a77078", "operator": "United States Postal Service", "operator:short": "USPS", "operator:type": "public", "operator:wikidata": "Q668687", "ref": "6833600001"}, "type": "Feature"}
{"geometry": {"coordinates": [-96.668887532, 40.985143391], "type": "Point"}, "id": "jJB-NNDOvyOUDxApqCiIeHA8G34=", "properties": {"@source_uri": "https://tools.usps.com/UspsToolsRestServices/rest/POLocator/findLocations", "@spider": "usps_collection_boxes", "addr:city": "DAVEY", "addr:country": "US", "addr:postcode": "68336", "addr:state": "NE", "addr:street_address": "17755 N 2ND ST", "amenity": "post_box", "collection_times": "Mo-Fr 14:55; Sa 12:30", "indoor": "yes", "note": "ON 12/24 AND 12/31, THIS BOX MAY BE COLLECTED AS EARLY AS 12 NOON.", "nsi_id": "unitedstatespostalservice-a77078", "operator": "United States Postal Service", "operator:short": "USPS", "operator:type": "public", "operator:wikidata": "Q668687", "ref": "6833600002"}, "type": "Feature"}
{"geometry": {"coordinates": [-96.668887532, 40.985143391], "type": "Point"}, "id": "Wmcpth70dRfxZ47WuDGUWBm81Vc=", "properties": {"@source_uri": "https://tools.usps.com/UspsToolsRestServices/rest/POLocator/findLocations", "@spider": "usps_collection_boxes", "addr:city": "DAVEY", "addr:country": "US", "addr:postcode": "68336", "addr:state": "NE", "addr:street_address": "17755 N 2ND ST", "amenity": "post_box", "collection_times": "Mo-Fr 14:55; Sa 12:30", "indoor": "yes", "note": "ON 12/24 AND 12/31, THIS BOX MAY BE COLLECTED AS EARLY AS 12 NOON.", "nsi_id": "unitedstatespostalservice-a77078", "operator": "United States Postal Service", "operator:short": "USPS", "operator:type": "public", "operator:wikidata": "Q668687", "ref": "6833600003"}, "type": "Feature"}
{"geometry": {"coordinates": [-95.830585322, 40.13136034], "type": "Point"}, "id": "l2aWpRu50vlB9OOsAgBPGhttWVE=", "properties": {"@source_uri": "https://tools.usps.com/UspsToolsRestServices/rest/POLocator/findLocations", "@spider": "usps_collection_boxes", "addr:city": "DAWSON", "addr:country": "US", "addr:postcode": "68337", "addr:state": "NE", "addr:street_address": "516 RIDGE ST", "amenity": "post_box", "collection_times": "Mo-Fr 13:45; Sa 13:30", "note": "ON 12/24 AND 12/31, THIS BOX MAY BE COLLECTED AS EARLY AS 12 NOON.", "nsi_id": "unitedstatespostalservice-a77078", "operator": "United States Postal Service", "operator:short": "USPS", "operator:type": "public", "operator:wikidata": "Q668687", "ref": "6833700001"}, "type": "Feature"}
{"geometry": {"coordinates": [-95.830585322, 40.13136034], "type": "Point"}, "id": "dCHxJM3F7AY7fkqqyT903JrCX7Y=", "properties": {"@source_uri": "https://tools.usps.com/UspsToolsRestServices/rest/POLocator/findLocations", "@spider": "usps_collection_boxes", "addr:city": "DAWSON", "addr:country": "US", "addr:postcode": "68337", "addr:state": "NE", "addr:street_address": "516 RIDGE ST", "amenity": "post_box", "collection_times": "Mo-Sa 13:45", "indoor": "yes", "note": "ON 12/24 AND 12/31, THIS BOX MAY BE COLLECTED AS EARLY AS 12 NOON.", "nsi_id": "unitedstatespostalservice-a77078", "operator": "United States Postal Service", "operator:short": "USPS", "operator:type": "public", "operator:wikidata": "Q668687", "ref": "6833700002"}, "type": "Feature"}
{"geometry": {"coordinates": [-95.830585322, 40.13136034], "type": "Point"}, "id": "99volNtIUexJdvPij_Tj6Xpml-Q=", "properties": {"@source_uri": "https://tools.usps.com/UspsToolsRestServices/rest/POLocator/findLocations", "@spider": "usps_collection_boxes", "addr:city": "DAWSON", "addr:country": "US", "addr:postcode": "68337", "addr:state": "NE", "addr:street_address": "516 RIDGE ST", "amenity": "post_box", "collection_times": "Mo-Sa 13:45", "indoor": "yes", "note": "ON 12/24 AND 12/31, THIS BOX MAY BE COLLECTED AS EARLY AS 12 NOON.", "nsi_id": "unitedstatespostalservice-a77078", "operator": "United States Postal Service", "operator:short": "USPS", "operator:type": "public", "operator:wikidata": "Q668687", "ref": "6833700003"}, "type": "Feature"}
{"geometry": {"coordinates": [-97.299311474, 40.322289497], "type": "Point"}, "id": "sdEgRVEhbOPPlU3UaiUiePzdzYs=", "properties": {"@source_uri": "https://tools.usps.com/UspsToolsRestServices/rest/POLocator/findLocations", "@spider": "usps_collection_boxes", "addr:city": "DAYKIN", "addr:country": "US", "addr:postcode": "68338", "addr:state": "NE", "addr:street_address": "312 JEFFERSON ST", "amenity": "post_box", "collection_times": "Mo-Fr 11:15; Sa 09:00", "nsi_id": "unitedstatespostalservice-a77078", "operator": "United States Postal Service", "operator:short": "USPS", "operator:type": "public", "operator:wikidata": "Q668687", "ref": "6833800001"}, "type": "Feature"}
{"geometry": {"coordinates": [-97.299311474, 40.322289497], "type": "Point"}, "id": "mV6HoEYRbCF7rI7CLa6ETPxtzX8=", "properties": {"@source_uri": "https://tools.usps.com/UspsToolsRestServices/rest/POLocator/findLocations", "@spider": "usps_collection_boxes", "addr:city": "DAYKIN", "addr:country": "US", "addr:postcode": "68338", "addr:state": "NE", "addr:street_address": "312 JEFFERSON ST", "amenity": "post_box", "collection_times": "Mo-Fr 11:15; Sa 09:00", "indoor": "yes", "nsi_id": "unitedstatespostalservice-a77078", "operator": "United States Postal Service", "operator:short": "USPS", "operator:type": "public", "operator:wikidata": "Q668687", "ref": "6833800002"}, "type": "Feature"}
{"geometry": {"coordinates": [-97.299311474, 40.322289497], "type": "Point"}, "id": "unuHVIw7snJDN1bkJmqqZ0XNQmM=", "properties": {"@source_uri": "https://tools.usps.com/UspsToolsRestServices/rest/POLocator/findLocations", "@spider": "usps_collection_boxes", "addr:city": "DAYKIN", "addr:country": "US", "addr:postcode": "68338", "addr:state": "NE", "addr:street_address": "312 JEFFERSON ST", "amenity": "post_box", "collection_times": "Mo-Fr 11:15; Sa 09:10", "indoor": "yes", "nsi_id": "unitedstatespostalservice-a77078", "operator": "United States Postal Service", "operator:short": "USPS", "operator:type": "public", "operator:wikidata": "Q668687", "ref": "6833800003"}, "type": "Feature"}
{"geometry": {"coordinates": [-96.847651738, 40.737729257], "type": "Point"}, "id": "zSJ1TJtqmQkB_0KSiIqovtcjc0Q=", "properties": {"@source_uri": "https://tools.usps.com/UspsToolsRestServices/rest/POLocator/findLocations", "@spider": "usps_collection_boxes", "addr:city": "DENTON", "addr:country": "US", "addr:postcode": "68339", "addr:state": "NE", "addr:street_address": "9345 W 3RD ST", "amenity": "post_box", "collection_times": "Mo-Fr 10:45; Sa 08:45", "nsi_id": "unitedstatespostalservice-a77078", "operator": "United States Postal Service", "operator:short": "USPS", "operator:type": "public", "operator:wikidata": "Q668687", "ref": "6833900001"}, "type": "Feature"}
{"geometry": {"coordinates": [-96.847651738, 40.737729257], "type": "Point"}, "id": "u-IMWrP7KHIT6LrbYJ2e6srb66Y=", "properties": {"@source_uri": "https://tools.usps.com/UspsToolsRestServices/rest/POLocator/findLocations", "@spider": "usps_collection_boxes", "addr:city": "DENTON", "addr:country": "US", "addr:postcode": "68339", "addr:state": "NE", "addr:street_address": "9345 W 3RD ST", "amenity": "post_box", "collection_times": "Mo-Fr 10:45; Sa 09:00", "indoor": "yes", "nsi_id": "unitedstatespostalservice-a77078", "operator": "United States Postal Service", "operator:short": "USPS", "operator:type": "public", "operator:wikidata": "Q668687", "ref": "6833900002"}, "type": "Feature"}
{"geometry": {"coordinates": [-96.847651738, 40.737729257], "type": "Point"}, "id": "Gv2cI1ivW7V-Bwy_RhQDBiRxYB8=", "properties": {"@source_uri": "https://tools.usps.com/UspsToolsRestServices/rest/POLocator/findLocations", "@spider": "usps_collection_boxes", "addr:city": "DENTON", "addr:country": "US", "addr:postcode": "68339", "addr:state": "NE", "addr:street_address": "9345 W 3RD ST", "amenity": "post_box", "collection_times": "Mo-Fr 10:45; Sa 09:00", "indoor": "yes", "nsi_id": "unitedstatespostalservice-a77078", "operator": "United States Postal Service", "operator:short": "USPS", "operator:type": "public", "operator:wikidata": "Q668687", "ref": "6833900003"}, "type": "Feature"}
{"geometry": {"coordinates": [-97.722949456, 40.142393665], "type": "Point"}, "id": "rkWgT8t06MT1SaiMntsxnATXmXE=", "properties": {"@source_uri": "https://tools.usps.com/UspsToolsRestServices/rest/POLocator/findLocations", "@spider": "usps_collection_boxes", "addr:city": "DESHLER", "addr:country": "US", "addr:postcode": "68340", "addr:state": "NE", "addr:street_address": "513 4TH ST", "amenity": "post_box", "collection_times": "Mo-Fr 14:45; Sa 09:15", "note": "ON 12/24 AND 12/31, THIS BOX MAY BE COLLECTED AS EARLY AS 12 NOON.", "nsi_id": "unitedstatespostalservice-a77078", "operator": "United States Postal Service", "operator:short": "USPS", "operator:type": "public", "operator:wikidata": "Q668687", "ref": "6834000001"}, "type": "Feature"}
{"geometry": {"coordinates": [-97.722949456, 40.142393665], "type": "Point"}, "id": "S3j2-aYnJYGkCZ07ALSmDPg0KjQ=", "properties": {"@source_uri": "https://tools.usps.com/UspsToolsRestServices/rest/POLocator/findLocations", "@spider": "usps_collection_boxes", "addr:city": "DESHLER", "addr:country": "US", "addr:postcode": "68340", "addr:state": "NE", "addr:street_address": "513 4TH ST", "amenity": "post_box", "collection_times": "Mo-Fr 14:15; Sa 09:15", "indoor": "yes", "note": "ON 12/24 AND 12/31, THIS BOX MAY BE COLLECTED AS EARLY AS 12 NOON.", "nsi_id": "unitedstatespostalservice-a77078", "operator": "United States Postal Service", "operator:short": "USPS", "operator:type": "public", "operator:wikidata": "Q668687", "ref": "6834000002"}, "type": "Feature"}
{"geometry": {"coordinates": [-97.722949456, 40.142393665], "type": "Point"}, "id": "3Q8GGlqHa8XOXPAvfGV72rLcrug=", "properties": {"@source_uri": "https://tools.usps.com/UspsToolsRestServices/rest/POLocator/findLocations", "@spider": "usps_collection_boxes", "addr:city": "DESHLER", "addr:country": "US", "addr:postcode": "68340", "addr:state": "NE", "addr:street_address": "513 4TH ST", "amenity": "post_box", "collection_times": "Mo-Fr 14:15; Sa 09:15", "indoor": "yes", "note": "ON 12/24 AND 12/31, THIS BOX MAY BE COLLECTED AS EARLY AS 12 NOON.", "nsi_id": "unitedstatespostalservice-a77078", "operator": "United States Postal Service", "operator:short": "USPS", "operator:type": "public", "operator:wikidata": "Q668687", "ref": "6834000003"}, "type": "Feature"}
{"geometry": {"coordinates": [-96.920082, 40.394602486], "type": "Point"}, "id": "uz3uyC2qL2m0dahlUYoHMeyxF7o=", "properties": {"@source_uri": "https://tools.usps.com/UspsToolsRestServices/rest/POLocator/findLocations", "@spider": "usps_collection_boxes", "addr:city": "DE WITT", "addr:country": "US", "addr:postcode": "68341", "addr:state": "NE", "addr:street_address": "304 E FILLMORE AVE", "amenity": "post_box", "collection_times": "Mo-Fr 11:00; Sa 08:45", "nsi_id": "unitedstatespostalservice-a77078", "operator": "United States Postal Service", "operator:short": "USPS", "operator:type": "public", "operator:wikidata": "Q668687", "ref": "6834100001"}, "type": "Feature"}
{"geometry": {"coordinates": [-96.920082, 40.394602486], "type": "Point"}, "id": "6Qp98eTMnJeM-_3TGn5E34S5PWk=", "properties": {"@source_uri": "https://tools.usps.com/UspsToolsRestServices/rest/POLocator/findLocations", "@spider": "usps_collection_boxes", "addr:city": "DE WITT", "addr:country": "US", "addr:postcode": "68341", "addr:state": "NE", "addr:street_address": "304 E FILLMORE AVE", "amenity": "post_box", "collection_times": "Mo-Fr 11:00; Sa 08:30", "indoor": "yes", "nsi_id": "unitedstatespostalservice-a77078", "operator": "United States Postal Service", "operator:short": "USPS", "operator:type": "public", "operator:wikidata": "Q668687", "ref": "6834100002"}, "type": "Feature"}
{"geometry": {"coordinates": [-96.920082, 40.394602486], "type": "Point"}, "id": "959O0TPVTMcsU5HsNJ3MdsRS4Ew=", "properties": {"@source_uri": "https://tools.usps.com/UspsToolsRestServices/rest/POLocator/findLocations", "@spider": "usps_collection_boxes", "addr:city": "DE WITT", "addr:country": "US", "addr:postcode": "68341", "addr:state": "NE", "addr:street_address": "304 E FILLMORE AVE", "amenity": "post_box", "collection_times": "Mo-Fr 11:00; Sa 08:30", "indoor": "yes", "nsi_id": "unitedstatespostalservice-a77078", "operator": "United States Postal Service", "operator:short": "USPS", "operator:type": "public", "operator:wikidata": "Q668687", "ref": "6834100003"}, "type": "Feature"}
{"geometry": {"coordinates": [-96.935044566, 40.109004], "type": "Point"}, "id": "oe_qUOJa0upE5ngX30vm7vix4Do=", "properties": {"@source_uri": "https://tools.usps.com/UspsToolsRestServices/rest/POLocator/findLocations", "@spider": "usps_collection_boxes", "addr:city": "DILLER", "addr:country": "US", "addr:postcode": "68342", "addr:state": "NE", "addr:street_address": "408 COMMERCIAL ST", "amenity": "post_box", "collection_times": "Mo-Fr 11:45; Sa 08:45", "nsi_id": "unitedstatespostalservice-a77078", "operator": "United States Postal Service", "operator:short": "USPS", "operator:type": "public", "operator:wikidata": "Q668687", "ref": "6834200001"}, "type": "Feature"}
{"geometry": {"coordinates": [-96.935044566, 40.109004], "type": "Point"}, "id": "gLlPOVPwVUZ9k4jcUoSvqrhgWPE=", "properties": {"@source_uri": "https://tools.usps.com/UspsToolsRestServices/rest/POLocator/findLocations", "@spider": "usps_collection_boxes", "addr:city": "DILLER", "addr:country": "US", "addr:postcode": "68342", "addr:state": "NE", "addr:street_address": "408 COMMERCIAL ST", "amenity": "post_box", "collection_times": "Mo-Fr 11:45; Sa 08:30", "indoor": "yes", "nsi_id": "unitedstatespostalservice-a77078", "operator": "United States Postal Service", "operator:short": "USPS", "operator:type": "public", "operator:wikidata": "Q668687", "ref": "6834200002"}, "type": "Feature"}
{"geometry": {"coordinates": [-96.935044566, 40.109004], "type": "Point"}, "id": "6aB_9WQzcP0zGBg4X_lZT3XmQXM=", "properties": {"@source_uri": "https://tools.usps.com/UspsToolsRestServices/rest/POLocator/findLocations", "@spider": "usps_collection_boxes", "addr:city": "DILLER", "addr:country": "US", "addr:postcode": "68342", "addr:state": "NE", "addr:street_address": "408 COMMERCIAL ST", "amenity": "post_box", "collection_times": "Mo-Fr 11:45; Sa 08:30", "indoor": "yes", "nsi_id": "unitedstatespostalservice-a77078", "operator": "United States Postal Service", "operator:short": "USPS", "operator:type": "public", "operator:wikidata": "Q668687", "ref": "6834200003"}, "type": "Feature"}
{"geometry": {"coordinates": [-97.113464211, 40.6478793353], "type": "Point"}, "id": "wmfKLpveCyUtDxb9UG0ejm8qjFs=", "properties": {"@source_uri": "https://tools.usps.com/UspsToolsRestServices/rest/POLocator/findLocations", "@spider": "usps_collection_boxes", "addr:city": "DORCHESTER", "addr:country": "US", "addr:postcode": "68343", "addr:state": "NE", "addr:street_address": "713 WASHINGTON AVE", "amenity": "post_box", "collection_times": "Mo-Fr 14:45; Sa 10:15", "note": "ON 12/24 AND 12/31, THIS BOX MAY BE COLLECTED AS EARLY AS 12 NOON.", "nsi_id": "unitedstatespostalservice-a77078", "operator": "United States Postal Service", "operator:short": "USPS", "operator:type": "public", "operator:wikidata": "Q668687", "ref": "6834300001"}, "type": "Feature"}
{"geometry": {"coordinates": [-97.113468711, 40.647879335], "type": "Point"}, "id": "-e3GEoi-uCeh3ZfIzbghjUkbiKg=", "properties": {"@source_uri": "https://tools.usps.com/UspsToolsRestServices/rest/POLocator/findLocations", "@spider": "usps_collection_boxes", "addr:city": "DORCHESTER", "addr:country": "US", "addr:postcode": "68343", "addr:state": "NE", "addr:street_address": "713 WASHINGTON AVE", "amenity": "post_box", "collection_times": "Mo-Fr 15:00; Sa 10:30", "indoor": "yes", "note": "ON 12/24 AND 12/31, THIS BOX MAY BE COLLECTED AS EARLY AS 12 NOON.", "nsi_id": "unitedstatespostalservice-a77078", "operator": "United States Postal Service", "operator:short": "USPS", "operator:type": "public", "operator:wikidata": "Q668687", "ref": "6834300002"}, "type": "Feature"}
{"geometry": {"coordinates": [-97.113468711, 40.647879335], "type": "Point"}, "id": "lKExDFNNkdSuy8Nufo8BSLeZuA8=", "properties": {"@source_uri": "https://tools.usps.com/UspsToolsRestServices/rest/POLocator/findLocations", "@spider": "usps_collection_boxes", "addr:city": "DORCHESTER", "addr:country": "US", "addr:postcode": "68343", "addr:state": "NE", "addr:street_address": "713 WASHINGTON AVE", "amenity": "post_box", "collection_times": "Mo-Fr 15:00; Sa 10:30", "indoor": "yes", "note": "ON 12/24 AND 12/31, THIS BOX MAY BE COLLECTED AS EARLY AS 12 NOON.", "nsi_id": "unitedstatespostalservice-a77078", "operator": "United States Postal Service", "operator:short": "USPS", "operator:type": "public", "operator:wikidata": "Q668687", "ref": "6834300004"}, "type": "Feature"}
{"geometry": {"coordinates": [-96.3851687, 40.591205329], "type": "Point"}, "id": "XxLrBiv7YPm4TvBqRAmaMO5E3aE=", "properties": {"@source_uri": "https://tools.usps.com/UspsToolsRestServices/rest/POLocator/findLocations", "@spider": "usps_collection_boxes", "addr:city": "DOUGLAS", "addr:country": "US", "addr:postcode": "68344", "addr:state": "NE", "addr:street_address": "121 MAIN ST", "amenity": "post_box", "collection_times": "Mo-Fr 10:45; Sa 08:45", "nsi_id": "unitedstatespostalservice-a77078", "operator": "United States Postal Service", "operator:short": "USPS", "operator:type": "public", "operator:wikidata": "Q668687", "ref": "6834400000"}, "type": "Feature"}
{"geometry": {"coordinates": [-96.3851687, 40.591205329], "type": "Point"}, "id": "gQtj6IwlesANr6yoyfUcFV17af4=", "properties": {"@source_uri": "https://tools.usps.com/UspsToolsRestServices/rest/POLocator/findLocations", "@spider": "usps_collection_boxes", "addr:city": "DOUGLAS", "addr:country": "US", "addr:postcode": "68344", "addr:state": "NE", "addr:street_address": "121 MAIN ST", "amenity": "post_box", "collection_times": "Mo-Fr 10:45; Sa 08:45", "indoor": "yes", "nsi_id": "unitedstatespostalservice-a77078", "operator": "United States Postal Service", "operator:short": "USPS", "operator:type": "public", "operator:wikidata": "Q668687", "ref": "6834400001"}, "type": "Feature"}
{"geometry": {"coordinates": [-96.3851687, 40.591205329], "type": "Point"}, "id": "wAegRxtjLtNhhgtnqhHbVTtaYTE=", "properties": {"@source_uri": "https://tools.usps.com/UspsToolsRestServices/rest/POLocator/findLocations", "@spider": "usps_collection_boxes", "addr:city": "DOUGLAS", "addr:country": "US", "addr:postcode": "68344", "addr:state": "NE", "addr:street_address": "121 MAIN ST", "amenity": "post_box", "collection_times": "Mo-Fr 10:45; Sa 08:45", "indoor": "yes", "nsi_id": "unitedstatespostalservice-a77078", "operator": "United States Postal Service", "operator:short": "USPS", "operator:type": "public", "operator:wikidata": "Q668687", "ref": "6834400002"}, "type": "Feature"}
{"geometry": {"coordinates": [-96.048136103, 40.034088], "type": "Point"}, "id": "82iqHaMF3jhHa6pkKXHxmX4P6RU=", "properties": {"@source_uri": "https://tools.usps.com/UspsToolsRestServices/rest/POLocator/findLocations", "@spider": "usps_collection_boxes", "addr:city": "DUBOIS", "addr:country": "US", "addr:postcode": "68345", "addr:state": "NE", "addr:street_address": "304 MINER ST", "amenity": "post_box", "collection_times": "Mo-Fr 10:45; Sa 09:45", "nsi_id": "unitedstatespostalservice-a77078", "operator": "United States Postal Service", "operator:short": "USPS", "operator:type": "public", "operator:wikidata": "Q668687", "ref": "6834500001"}, "type": "Feature"}
{"geometry": {"coordinates": [-96.048136103, 40.034088], "type": "Point"}, "id": "xXQ9t-GPH7siKWyNPw8GHFphxEk=", "properties": {"@source_uri": "https://tools.usps.com/UspsToolsRestServices/rest/POLocator/findLocations", "@spider": "usps_collection_boxes", "addr:city": "DUBOIS", "addr:country": "US", "addr:postcode": "68345", "addr:state": "NE", "addr:street_address": "304 MINER ST", "amenity": "post_box", "collection_times": "Mo-Fr 10:45; Sa 09:45", "indoor": "yes", "nsi_id": "unitedstatespostalservice-a77078", "operator": "United States Postal Service", "operator:short": "USPS", "operator:type": "public", "operator:wikidata": "Q668687", "ref": "6834500002"}, "type": "Feature"}
{"geometry": {"coordinates": [-96.048136103, 40.034088], "type": "Point"}, "id": "YWrMij2UClIyJhdVceVrit3CE2c=", "properties": {"@source_uri": "https://tools.usps.com/UspsToolsRestServices/rest/POLocator/findLocations", "@spider": "usps_collection_boxes", "addr:city": "DUBOIS", "addr:country": "US", "addr:postcode": "68345", "addr:state": "NE", "addr:street_address": "304 MINER ST", "amenity": "post_box", "collection_times": "Mo-Fr 10:45; Sa 09:45", "indoor": "yes", "nsi_id": "unitedstatespostalservice-a77078", "operator": "United States Postal Service", "operator:short": "USPS", "operator:type": "public", "operator:wikidata": "Q668687", "ref": "6834500003"}, "type": "Feature"}
{"geometry": {"coordinates": [-96.030003939, 40.668247653], "type": "Point"}, "id": "CqH8szpXppKcqIFJNu_zTFU3bWg=", "properties": {"@source_uri": "https://tools.usps.com/UspsToolsRestServices/rest/POLocator/findLocations", "@spider": "usps_collection_boxes", "addr:city": "DUNBAR", "addr:country": "US", "addr:postcode": "68346", "addr:state": "NE", "addr:street_address": "100 N WILSON ST", "amenity": "post_box", "collection_times": "Mo-Fr 14:45; Sa 12:45", "note": "ON 12/24 AND 12/31, THIS BOX MAY BE COLLECTED AS EARLY AS 12 NOON.", "nsi_id": "unitedstatespostalservice-a77078", "operator": "United States Postal Service", "operator:short": "USPS", "operator:type": "public", "operator:wikidata": "Q668687", "ref": "6834600001"}, "type": "Feature"}
{"geometry": {"coordinates": [-96.029941517, 40.668266437], "type": "Point"}, "id": "DgRmUk8hPYnRNNUPyXdbdeYh8TU=", "properties": {"@source_uri": "https://tools.usps.com/UspsToolsRestServices/rest/POLocator/findLocations", "@spider": "usps_collection_boxes", "addr:city": "DUNBAR", "addr:country": "US", "addr:postcode": "68346", "addr:state": "NE", "addr:street_address": "104 E NEBRASKA ST", "amenity": "post_box", "collection_times": "Mo-Fr 14:25; Sa 12:45", "indoor": "yes", "note": "ON 12/24 AND 12/31, THIS BOX MAY BE COLLECTED AS EARLY AS 12 NOON.", "nsi_id": "unitedstatespostalservice-a77078", "operator": "United States Postal Service", "operator:short": "USPS", "operator:type": "public", "operator:wikidata": "Q668687", "ref": "6834600002"}, "type": "Feature"}
{"geometry": {"coordinates": [-96.029941517, 40.668266437], "type": "Point"}, "id": "SGPLveYFmNDHCNw1gyCfoadOavY=", "properties": {"@source_uri": "https://tools.usps.com/UspsToolsRestServices/rest/POLocator/findLocations", "@spider": "usps_collection_boxes", "addr:city": "DUNBAR", "addr:country": "US", "addr:postcode": "68346", "addr:state": "NE", "addr:street_address": "104 E NEBRASKA ST", "amenity": "post_box", "collection_times": "Mo-Fr 14:25; Sa 12:45", "indoor": "yes", "note": "ON 12/24 AND 12/31, THIS BOX MAY BE COLLECTED AS EARLY AS 12 NOON.", "nsi_id": "unitedstatespostalservice-a77078", "operator": "United States Postal Service", "operator:short": "USPS", "operator:type": "public", "operator:wikidata": "Q668687", "ref": "6834600003"}, "type": "Feature"}
{"geometry": {"coordinates": [-96.430605648, 40.816936979], "type": "Point"}, "id": "uhaEjnb3ZDc5epHNHKSK9xT-vPk=", "properties": {"@source_uri": "https://tools.usps.com/UspsToolsRestServices/rest/POLocator/findLocations", "@spider": "usps_collection_boxes", "addr:city": "EAGLE", "addr:country": "US", "addr:postcode": "68347", "addr:state": "NE", "addr:street_address": "445 S 4TH ST", "amenity": "post_box", "collection_times": "Mo-Fr 15:45; Sa 09:45", "note": "ON 12/24 AND 12/31, THIS BOX MAY BE COLLECTED AS EARLY AS 12 NOON.", "nsi_id": "unitedstatespostalservice-a77078", "operator": "United States Postal Service", "operator:short": "USPS", "operator:type": "public", "operator:wikidata": "Q668687", "ref": "6834700001"}, "type": "Feature"}
{"geometry": {"coordinates": [-96.430583529, 40.817079543], "type": "Point"}, "id": "cVyHYSCWPc4dIiJ5Tyc-u1IuzlI=", "properties": {"@source_uri": "https://tools.usps.com/UspsToolsRestServices/rest/POLocator/findLocations", "@spider": "usps_collection_boxes", "addr:city": "EAGLE", "addr:country": "US", "addr:postcode": "68347", "addr:state": "NE", "addr:street_address": "445 S 4TH ST", "amenity": "post_box", "collection_times": "Mo-Fr 15:45; Sa 09:45", "indoor": "yes", "note": "ON 12/24 AND 12/31, THIS BOX MAY BE COLLECTED AS EARLY AS 12 NOON.", "nsi_id": "unitedstatespostalservice-a77078", "operator": "United States Postal Service", "operator:short": "USPS", "operator:type": "public", "operator:wikidata": "Q668687", "ref": "6834700003"}, "type": "Feature"}
{"geometry": {"coordinates": [-96.430583529, 40.817079543], "type": "Point"}, "id": "NKMJX-q5G9b66gqcYQHg22ImPZU=", "properties": {"@source_uri": "https://tools.usps.com/UspsToolsRestServices/rest/POLocator/findLocations", "@spider": "usps_collection_boxes", "addr:city": "EAGLE", "addr:country": "US", "addr:postcode": "68347", "addr:state": "NE", "addr:street_address": "445 S 4TH ST", "amenity": "post_box", "collection_times": "Mo-Fr 15:45; Sa 09:45", "indoor": "yes", "note": "ON 12/24 AND 12/31, THIS BOX MAY BE COLLECTED AS EARLY AS 12 NOON.", "nsi_id": "unitedstatespostalservice-a77078", "operator": "United States Postal Service", "operator:short": "USPS", "operator:type": "public", "operator:wikidata": "Q668687", "ref": "6834700004"}, "type": "Feature"}
{"geometry": {"coordinates": [-96.128750539, 40.286549335], "type": "Point"}, "id": "Srb1pGl_n21mmSOJNT0P37eWmto=", "properties": {"@source_uri": "https://tools.usps.com/UspsToolsRestServices/rest/POLocator/findLocations", "@spider": "usps_collection_boxes", "addr:city": "ELK CREEK", "addr:country": "US", "addr:postcode": "68348", "addr:state": "NE", "addr:street_address": "369 MAIN ST", "amenity": "post_box", "collection_times": "Mo-Fr 12:45; Sa 11:45", "note": "ON 12/24 AND 12/31, THIS BOX MAY BE COLLECTED AS EARLY AS 12 NOON.", "nsi_id": "unitedstatespostalservice-a77078", "operator": "United States Postal Service", "operator:short": "USPS", "operator:type": "public", "operator:wikidata": "Q668687", "ref": "6834800001"}, "type": "Feature"}
{"geometry": {"coordinates": [-96.128750539, 40.286549335], "type": "Point"}, "id": "7ORGPIDtwnG-gaWXybBXO51myX0=", "properties": {"@source_uri": "https://tools.usps.com/UspsToolsRestServices/rest/POLocator/findLocations", "@spider": "usps_collection_boxes", "addr:city": "ELK CREEK", "addr:country": "US", "addr:postcode": "68348", "addr:state": "NE", "addr:street_address": "369 MAIN ST", "amenity": "post_box", "collection_times": "Mo-Fr 12:45; Sa 11:45", "indoor": "yes", "note": "ON 12/24 AND 12/31, THIS BOX MAY BE COLLECTED AS EARLY AS 12 NOON.", "nsi_id": "unitedstatespostalservice-a77078", "operator": "United States Postal Service", "operator:short": "USPS", "operator:type": "public", "operator:wikidata": "Q668687", "ref": "6834800002"}, "type": "Feature"}
{"geometry": {"coordinates": [-96.128750539, 40.286549335], "type": "Point"}, "id": "q39yJxo7oH4yM-2Slyla7Tav3dE=", "properties": {"@source_uri": "https://tools.usps.com/UspsToolsRestServices/rest/POLocator/findLocations", "@spider": "usps_collection_boxes", "addr:city": "ELK CREEK", "addr:country": "US", "addr:postcode": "68348", "addr:state": "NE", "addr:street_address": "369 MAIN ST", "amenity": "post_box", "collection_times": "Mo-Fr 12:45; Sa 11:45", "indoor": "yes", "note": "ON 12/24 AND 12/31, THIS BOX MAY BE COLLECTED AS EARLY AS 12 NOON.", "nsi_id": "unitedstatespostalservice-a77078", "operator": "United States Postal Service", "operator:short": "USPS", "operator:type": "public", "operator:wikidata": "Q668687", "ref": "6834800003"}, "type": "Feature"}
{"geometry": {"coordinates": [-96.294771, 40.841605486], "type": "Point"}, "id": "dGpIN1KfhqMN5Sww2E0J4xvfIFQ=", "properties": {"@source_uri": "https://tools.usps.com/UspsToolsRestServices/rest/POLocator/findLocations", "@spider": "usps_collection_boxes", "addr:city": "ELMWOOD", "addr:country": "US", "addr:postcode": "68349", "addr:state": "NE", "addr:street_address": "116 W D ST", "amenity": "post_box", "collection_times": "Mo-Fr 11:15; Sa 09:15", "nsi_id": "unitedstatespostalservice-a77078", "operator": "United States Postal Service", "operator:short": "USPS", "operator:type": "public", "operator:wikidata": "Q668687", "ref": "6834900001"}, "type": "Feature"}
{"geometry": {"coordinates": [-96.294771, 40.841605486], "type": "Point"}, "id": "wbW323oYocL5gcrhfhvaQ1nmQfw=", "properties": {"@source_uri": "https://tools.usps.com/UspsToolsRestServices/rest/POLocator/findLocations", "@spider": "usps_collection_boxes", "addr:city": "ELMWOOD", "addr:country": "US", "addr:postcode": "68349", "addr:state": "NE", "addr:street_address": "116 W D ST", "amenity": "post_box", "collection_times": "Mo-Fr 11:15; Sa 09:15", "indoor": "yes", "nsi_id": "unitedstatespostalservice-a77078", "operator": "United States Postal Service", "operator:short": "USPS", "operator:type": "public", "operator:wikidata": "Q668687", "ref": "6834900002"}, "type": "Feature"}
{"geometry": {"coordinates": [-96.294771, 40.841605486], "type": "Point"}, "id": "wg-Xj2ZWxwszeojDujsgstrduiM=", "properties": {"@source_uri": "https://tools.usps.com/UspsToolsRestServices/rest/POLocator/findLocations", "@spider": "usps_collection_boxes", "addr:city": "ELMWOOD", "addr:country": "US", "addr:postcode": "68349", "addr:state": "NE", "addr:street_address": "116 W D ST", "amenity": "post_box", "collection_times": "Mo-Fr 11:15; Sa 09:15", "indoor": "yes", "nsi_id": "unitedstatespostalservice-a77078", "operator": "United States Postal Service", "operator:short": "USPS", "operator:type": "public", "operator:wikidata": "Q668687", "ref": "6834900003"}, "type": "Feature"}
{"geometry": {"coordinates": [-97.09670661, 40.082526367], "type": "Point"}, "id": "nJQswD2cbo9dxEXrI8jc6Js0siE=", "properties": {"@source_uri": "https://tools.usps.com/UspsToolsRestServices/rest/POLocator/findLocations", "@spider": "usps_collection_boxes", "addr:city": "ENDICOTT", "addr:country": "US", "addr:postcode": "68350", "addr:state": "NE", "addr:street_address": "206 N SCRIBNER ST", "amenity": "post_box", "collection_times": "Mo-Fr 15:45; Sa 11:15", "note": "ON 12/24 AND 12/31, THIS BOX MAY BE COLLECTED AS EARLY AS 12 NOON.", "nsi_id": "unitedstatespostalservice-a77078", "operator": "United States Postal Service", "operator:short": "USPS", "operator:type": "public", "operator:wikidata": "Q668687", "ref": "6835000001"}, "type": "Feature"}
{"geometry": {"coordinates": [-97.09670661, 40.082526367], "type": "Point"}, "id": "AOacqRHVy-U4GYG76UqBYiVM55k=", "properties": {"@source_uri": "https://tools.usps.com/UspsToolsRestServices/rest/POLocator/findLocations", "@spider": "usps_collection_boxes", "addr:city": "ENDICOTT", "addr:country": "US", "addr:postcode": "68350", "addr:state": "NE", "addr:street_address": "206 N SCRIBNER ST", "amenity": "post_box", "collection_times": "Mo-Fr 15:00; Sa 11:30", "indoor": "yes", "note": "ON 12/24 AND 12/31, THIS BOX MAY BE COLLECTED AS EARLY AS 12 NOON.", "nsi_id": "unitedstatespostalservice-a77078", "operator": "United States Postal Service", "operator:short": "USPS", "operator:type": "public", "operator:wikidata": "Q668687", "ref": "6835000002"}, "type": "Feature"}
{"geometry": {"coordinates": [-97.09670661, 40.082526367], "type": "Point"}, "id": "u6LglX49RQ5E8VrWwHBzEwOqirQ=", "properties": {"@source_uri": "https://tools.usps.com/UspsToolsRestServices/rest/POLocator/findLocations", "@spider": "usps_collection_boxes", "addr:city": "ENDICOTT", "addr:country": "US", "addr:postcode": "68350", "addr:state": "NE", "addr:street_address": "206 N SCRIBNER ST", "amenity": "post_box", "collection_times": "Mo-Fr 15:00; Sa 11:30", "indoor": "yes", "note": "ON 12/24 AND 12/31, THIS BOX MAY BE COLLECTED AS EARLY AS 12 NOON.", "nsi_id": "unitedstatespostalservice-a77078", "operator": "United States Postal Service", "operator:short": "USPS", "operator:type": "public", "operator:wikidata": "Q668687", "ref": "6835000003"}, "type": "Feature"}
{"geometry": {"coordinates": [-97.449003335, 40.644207533], "type": "Point"}, "id": "QTHtWq790lXs9x0irgArZm0h5mI=", "properties": {"@source_uri": "https://tools.usps.com/UspsToolsRestServices/rest/POLocator/findLocations", "@spider": "usps_collection_boxes", "addr:city": "EXETER", "addr:country": "US", "addr:postcode": "68351", "addr:state": "NE", "addr:street_address": "189 E SENECA ST", "amenity": "post_box", "collection_times": "Mo-Fr 13:15; Sa 09:00", "note": "ON 12/24 AND 12/31, THIS BOX MAY BE COLLECTED AS EARLY AS 12 NOON.", "nsi_id": "unitedstatespostalservice-a77078", "operator": "United States Postal Service", "operator:short": "USPS", "operator:type": "public", "operator:wikidata": "Q668687", "ref": "6835100001"}, "type": "Feature"}
{"geometry": {"coordinates": [-97.449003335, 40.644207533], "type": "Point"}, "id": "yknHCFSbj7789MaTTbQQnon6Ka8=", "properties": {"@source_uri": "https://tools.usps.com/UspsToolsRestServices/rest/POLocator/findLocations", "@spider": "usps_collection_boxes", "addr:city": "EXETER", "addr:country": "US", "addr:postcode": "68351", "addr:state": "NE", "addr:street_address": "189 E SENECA ST", "amenity": "post_box", "collection_times": "Mo-Fr 13:15; Sa 09:00", "indoor": "yes", "note": "ON 12/24 AND 12/31, THIS BOX MAY BE COLLECTED AS EARLY AS 12 NOON.", "nsi_id": "unitedstatespostalservice-a77078", "operator": "United States Postal Service", "operator:short": "USPS", "operator:type": "public", "operator:wikidata": "Q668687", "ref": "6835100002"}, "type": "Feature"}
{"geometry": {"coordinates": [-97.449003335, 40.644207533], "type": "Point"}, "id": "dGvgu-XytAXFHRnRhWk_Wz0IVjM=", "properties": {"@source_uri": "https://tools.usps.com/UspsToolsRestServices/rest/POLocator/findLocations", "@spider": "usps_collection_boxes", "addr:city": "EXETER", "addr:country": "US", "addr:postcode": "68351", "addr:state": "NE", "addr:street_address": "189 E SENECA ST", "amenity": "post_box", "collection_times": "Mo-Fr 13:15; Sa 09:00", "indoor": "yes", "note": "ON 12/24 AND 12/31, THIS BOX MAY BE COLLECTED AS EARLY AS 12 NOON.", "nsi_id": "unitedstatespostalservice-a77078", "operator": "United States Postal Service", "operator:short": "USPS", "operator:type": "public", "operator:wikidata": "Q668687", "ref": "6835100003"}, "type": "Feature"}
{"geometry": {"coordinates": [-97.171217934, 40.147407], "type": "Point"}, "id": "waIto3SD9J0E4gF0HFrNJ5hiiqg=", "properties": {"@source_uri": "https://tools.usps.com/UspsToolsRestServices/rest/POLocator/findLocations", "@spider": "usps_collection_boxes", "addr:city": "FAIRBURY", "addr:country": "US", "addr:postcode": "68352", "addr:state": "NE", "addr:street_address": "1429 K ST", "amenity": "post_box", "collection_times": "Mo-Sa 10:30", "nsi_id": "unitedstatespostalservice-a77078", "operator": "United States Postal Service", "operator:short": "USPS", "operator:type": "public", "operator:wikidata": "Q668687", "ref": "6835200004"}, "type": "Feature"}
{"geometry": {"coordinates": [-97.177195, 40.139905], "type": "Point"}, "id": "M23CSwNDimjbP2BXE6KwFUvobXw=", "properties": {"@source_uri": "https://tools.usps.com/UspsToolsRestServices/rest/POLocator/findLocations", "@spider": "usps_collection_boxes", "addr:city": "FAIRBURY", "addr:country": "US", "addr:postcode": "68352", "addr:state": "NE", "addr:street_address": "501 D ST", "amenity": "post_box", "collection_times": "Mo-Fr 17:00; Sa 10:45", "note": "ON 12/24 AND 12/31, THIS BOX MAY BE COLLECTED AS EARLY AS 12 NOON.", "nsi_id": "unitedstatespostalservice-a77078", "operator": "United States Postal Service", "operator:short": "USPS", "operator:type": "public", "operator:wikidata": "Q668687", "ref": "6835200006"}, "type": "Feature"}
{"geometry": {"coordinates": [-97.181308883, 40.136453969], "type": "Point"}, "id": "Z9eQVLDK0uGy4ab6FrjBWBYPoYk=", "properties": {"@source_uri": "https://tools.usps.com/UspsToolsRestServices/rest/POLocator/findLocations", "@spider": "usps_collection_boxes", "addr:city": "FAIRBURY", "addr:country": "US", "addr:postcode": "68352", "addr:state": "NE", "addr:street_address": "501 D ST", "amenity": "post_box", "collection_times": "Mo-Fr 15:30; Sa 11:00", "indoor": "yes", "note": "ON 12/24 AND 12/31, THIS BOX MAY BE COLLECTED AS EARLY AS 12 NOON.", "nsi_id": "unitedstatespostalservice-a77078", "operator": "United States Postal Service", "operator:short": "USPS", "operator:type": "public", "operator:wikidata": "Q668687", "ref": "6835200007"}, "type": "Feature"}
{"geometry": {"coordinates": [-97.181308883, 40.136453969], "type": "Point"}, "id": "7WiqU6QjaVMomCoDBwveW2r1T6c=", "properties": {"@source_uri": "https://tools.usps.com/UspsToolsRestServices/rest/POLocator/findLocations", "@spider": "usps_collection_boxes", "addr:city": "FAIRBURY", "addr:country": "US", "addr:postcode": "68352", "addr:state": "NE", "addr:street_address": "501 D ST", "amenity": "post_box", "collection_times": "Mo-Fr 15:30; Sa 11:00", "indoor": "yes", "note": "ON 12/24 AND 12/31, THIS BOX MAY BE COLLECTED AS EARLY AS 12 NOON.", "nsi_id": "unitedstatespostalservice-a77078", "operator": "United States Postal Service", "operator:short": "USPS", "operator:type": "public", "operator:wikidata": "Q668687", "ref": "6835200009"}, "type": "Feature"}
{"geometry": {"coordinates": [-97.585349225, 40.636260335], "type": "Point"}, "id": "HRROiGmPUh8INkv5NKpn9EkS8BA=", "properties": {"@source_uri": "https://tools.usps.com/UspsToolsRestServices/rest/POLocator/findLocations", "@spider": "usps_collection_boxes", "addr:city": "FAIRMONT", "addr:country": "US", "addr:postcode": "68354", "addr:state": "NE", "addr:street_address": "455 6TH AVE", "amenity": "post_box", "collection_times": "Mo-Fr 13:45; Sa 09:15", "note": "ON 12/24 AND 12/31, THIS BOX MAY BE COLLECTED AS EARLY AS 12 NOON.", "nsi_id": "unitedstatespostalservice-a77078", "operator": "United States Postal Service", "operator:short": "USPS", "operator:type": "public", "operator:wikidata": "Q668687", "ref": "6835400001"}, "type": "Feature"}
{"geometry": {"coordinates": [-97.585349225, 40.636260335], "type": "Point"}, "id": "aYB_J4h7t5gXQQX0ey6fGm4bvM4=", "properties": {"@source_uri": "https://tools.usps.com/UspsToolsRestServices/rest/POLocator/findLocations", "@spider": "usps_collection_boxes", "addr:city": "FAIRMONT", "addr:country": "US", "addr:postcode": "68354", "addr:state": "NE", "addr:street_address": "455 6TH AVE", "amenity": "post_box", "collection_times": "Mo-Fr 13:45; Sa 09:30", "indoor": "yes", "note": "ON 12/24 AND 12/31, THIS BOX MAY BE COLLECTED AS EARLY AS 12 NOON.", "nsi_id": "unitedstatespostalservice-a77078", "operator": "United States Postal Service", "operator:short": "USPS", "operator:type": "public", "operator:wikidata": "Q668687", "ref": "6835400002"}, "type": "Feature"}
{"geometry": {"coordinates": [-97.585349225, 40.636260335], "type": "Point"}, "id": "kUWlM9UYUrMU4EcMhaQPX3ak15s=", "properties": {"@source_uri": "https://tools.usps.com/UspsToolsRestServices/rest/POLocator/findLocations", "@spider": "usps_collection_boxes", "addr:city": "FAIRMONT", "addr:country": "US", "addr:postcode": "68354", "addr:state": "NE", "addr:street_address": "455 6TH AVE", "amenity": "post_box", "collection_times": "Mo-Fr 13:45; Sa 09:30", "indoor": "yes", "note": "ON 12/24 AND 12/31, THIS BOX MAY BE COLLECTED AS EARLY AS 12 NOON.", "nsi_id": "unitedstatespostalservice-a77078", "operator": "United States Postal Service", "operator:short": "USPS", "operator:type": "public", "operator:wikidata": "Q668687", "ref": "6835400003"}, "type": "Feature"}
{"geometry": {"coordinates": [-95.601718143, 40.059927671], "type": "Point"}, "id": "61Z27HZNjQcpX8a98WFyQNYVgxU=", "properties": {"@source_uri": "https://tools.usps.com/UspsToolsRestServices/rest/POLocator/findLocations", "@spider": "usps_collection_boxes", "addr:city": "FALLS CITY", "addr:country": "US", "addr:postcode": "68355", "addr:state": "NE", "addr:street_address": "1520 HARLAN ST", "amenity": "post_box", "collection_times": "Mo-Fr 17:00; Sa 11:15", "note": "ON 12/24 AND 12/31, THIS BOX MAY BE COLLECTED AS EARLY AS 12 NOON.", "nsi_id": "unitedstatespostalservice-a77078", "operator": "United States Postal Service", "operator:short": "USPS", "operator:type": "public", "operator:wikidata": "Q668687", "ref": "6835500012"}, "type": "Feature"}
{"geometry": {"coordinates": [-95.602990435, 40.06180131], "type": "Point"}, "id": "ZxEV5p-thdvFUyo2OZIBLaNYZXs=", "properties": {"@source_uri": "https://tools.usps.com/UspsToolsRestServices/rest/POLocator/findLocations", "@spider": "usps_collection_boxes", "addr:city": "FALLS CITY", "addr:country": "US", "addr:postcode": "68355", "addr:state": "NE", "addr:street_address": "1701 STONE ST", "amenity": "post_box", "collection_times": "Mo-Sa 10:15", "nsi_id": "unitedstatespostalservice-a77078", "operator": "United States Postal Service", "operator:short": "USPS", "operator:type": "public", "operator:wikidata": "Q668687", "ref": "6835500016"}, "type": "Feature"}
{"geometry": {"coordinates": [-95.601718143, 40.059927671], "type": "Point"}, "id": "3-mBeLXz8AlRCXXak8PG91djNAY=", "properties": {"@source_uri": "https://tools.usps.com/UspsToolsRestServices/rest/POLocator/findLocations", "@spider": "usps_collection_boxes", "addr:city": "FALLS CITY", "addr:country": "US", "addr:postcode": "68355", "addr:state": "NE", "addr:street_address": "1520 HARLAN ST", "amenity": "post_box", "collection_times": "Mo-Fr 17:00; Sa 11:15", "indoor": "yes", "note": "ON 12/24 AND 12/31, THIS BOX MAY BE COLLECTED AS EARLY AS 12 NOON.", "nsi_id": "unitedstatespostalservice-a77078", "operator": "United States Postal Service", "operator:short": "USPS", "operator:type": "public", "operator:wikidata": "Q668687", "ref": "6835500021"}, "type": "Feature"}
{"geometry": {"coordinates": [-95.60287569, 40.061803435], "type": "Point"}, "id": "FGX0KNE36DzF_vhy4V6Kuw6u3hQ=", "properties": {"@source_uri": "https://tools.usps.com/UspsToolsRestServices/rest/POLocator/findLocations", "@spider": "usps_collection_boxes", "addr:city": "FALLS CITY", "addr:country": "US", "addr:postcode": "68355", "addr:state": "NE", "addr:street_address": "1700 STONE ST", "amenity": "post_box", "collection_times": "Mo-Sa 10:00", "nsi_id": "unitedstatespostalservice-a77078", "operator": "United States Postal Service", "operator:short": "USPS", "operator:type": "public", "operator:wikidata": "Q668687", "ref": "6835500022"}, "type": "Feature"}
{"geometry": {"coordinates": [-95.601718143, 40.059927671], "type": "Point"}, "id": "RZw9ZA1mRO171obiGARy2ZGjWjs=", "properties": {"@source_uri": "https://tools.usps.com/UspsToolsRestServices/rest/POLocator/findLocations", "@spider": "usps_collection_boxes", "addr:city": "FALLS CITY", "addr:country": "US", "addr:postcode": "68355", "addr:state": "NE", "addr:street_address": "1520 HARLAN ST", "amenity": "post_box", "collection_times": "Mo-Fr 17:00; Sa 11:15", "indoor": "yes", "note": "ON 12/24 AND 12/31, THIS BOX MAY BE COLLECTED AS EARLY AS 12 NOON.", "nsi_id": "unitedstatespostalservice-a77078", "operator": "United States Postal Service", "operator:short": "USPS", "operator:type": "public", "operator:wikidata": "Q668687", "ref": "6835500023"}, "type": "Feature"}
{"geometry": {"coordinates": [-96.535178008, 40.285529665], "type": "Point"}, "id": "_JA8UTf4bN5FqVom1DMwlQvOk0w=", "properties": {"@source_uri": "https://tools.usps.com/UspsToolsRestServices/rest/POLocator/findLocations", "@spider": "usps_collection_boxes", "addr:city": "FILLEY", "addr:country": "US", "addr:postcode": "68357", "addr:state": "NE", "addr:street_address": "208 LIVINGSTON ST", "amenity": "post_box", "collection_times": "Mo-Fr 15:45; Sa 12:45", "note": "ON 12/24 AND 12/31, THIS BOX MAY BE COLLECTED AS EARLY AS 12 NOON.", "nsi_id": "unitedstatespostalservice-a77078", "operator": "United States Postal Service", "operator:short": "USPS", "operator:type": "public", "operator:wikidata": "Q668687", "ref": "6835700001"}, "type": "Feature"}
{"geometry": {"coordinates": [-96.535178008, 40.285529665], "type": "Point"}, "id": "lwjvQpkXR5eDEB8NhthE83AZuWs=", "properties": {"@source_uri": "https://tools.usps.com/UspsToolsRestServices/rest/POLocator/findLocations", "@spider": "usps_collection_boxes", "addr:city": "FILLEY", "addr:country": "US", "addr:postcode": "68357", "addr:state": "NE", "addr:street_address": "208 LIVINGSTON ST", "amenity": "post_box", "collection_times": "Mo-Fr 13:40; Sa 12:45", "indoor": "yes", "note": "ON 12/24 AND 12/31, THIS BOX MAY BE COLLECTED AS EARLY AS 12 NOON.", "nsi_id": "unitedstatespostalservice-a77078", "operator": "United States Postal Service", "operator:short": "USPS", "operator:type": "public", "operator:wikidata": "Q668687", "ref": "6835700002"}, "type": "Feature"}
{"geometry": {"coordinates": [-96.535178008, 40.285529665], "type": "Point"}, "id": "gQcUwpZLSRl6v-oZ5g0bPe2IxC0=", "properties": {"@source_uri": "https://tools.usps.com/UspsToolsRestServices/rest/POLocator/findLocations", "@spider": "usps_collection_boxes", "addr:city": "FILLEY", "addr:country": "US", "addr:postcode": "68357", "addr:state": "NE", "addr:street_address": "208 LIVINGSTON ST", "amenity": "post_box", "collection_times": "Mo-Fr 13:40; Sa 12:45", "indoor": "yes", "note": "ON 12/24 AND 12/31, THIS BOX MAY BE COLLECTED AS EARLY AS 12 NOON.", "nsi_id": "unitedstatespostalservice-a77078", "operator": "United States Postal Service", "operator:short": "USPS", "operator:type": "public", "operator:wikidata": "Q668687", "ref": "6835700003"}, "type": "Feature"}
{"geometry": {"coordinates": [-96.606651526, 40.532739526], "type": "Point"}, "id": "ubh1Qvy-3F4qnqXd72xCmFCJ_eM=", "properties": {"@source_uri": "https://tools.usps.com/UspsToolsRestServices/rest/POLocator/findLocations", "@spider": "usps_collection_boxes", "addr:city": "FIRTH", "addr:country": "US", "addr:postcode": "68358", "addr:state": "NE", "addr:street_address": "104 W 3RD ST", "amenity": "post_box", "collection_times": "Mo-Fr 12:30; Sa 08:00", "note": "ON 12/24 AND 12/31, THIS BOX MAY BE COLLECTED AS EARLY AS 12 NOON.", "nsi_id": "unitedstatespostalservice-a77078", "operator": "United States Postal Service", "operator:short": "USPS", "operator:type": "public", "operator:wikidata": "Q668687", "ref": "6835800001"}, "type": "Feature"}
{"geometry": {"coordinates": [-96.606651526, 40.532739526], "type": "Point"}, "id": "A7-E6qdBjJpPsqjmvyv8muu5mFU=", "properties": {"@source_uri": "https://tools.usps.com/UspsToolsRestServices/rest/POLocator/findLocations", "@spider": "usps_collection_boxes", "addr:city": "FIRTH", "addr:country": "US", "addr:postcode": "68358", "addr:state": "NE", "addr:street_address": "104 W 3RD ST", "amenity": "post_box", "collection_times": "Mo-Fr 12:30; Sa 08:00", "indoor": "yes", "note": "ON 12/24 AND 12/31, THIS BOX MAY BE COLLECTED AS EARLY AS 12 NOON.", "nsi_id": "unitedstatespostalservice-a77078", "operator": "United States Postal Service", "operator:short": "USPS", "operator:type": "public", "operator:wikidata": "Q668687", "ref": "6835800002"}, "type": "Feature"}
{"geometry": {"coordinates": [-96.606651526, 40.532739526], "type": "Point"}, "id": "ACm2FWAIALHvOcBEh49CvgxXCnU=", "properties": {"@source_uri": "https://tools.usps.com/UspsToolsRestServices/rest/POLocator/findLocations", "@spider": "usps_collection_boxes", "addr:city": "FIRTH", "addr:country": "US", "addr:postcode": "68358", "addr:state": "NE", "addr:street_address": "104 W 3RD ST", "amenity": "post_box", "collection_times": "Mo-Fr 12:30; Sa 08:00", "indoor": "yes", "note": "ON 12/24 AND 12/31, THIS BOX MAY BE COLLECTED AS EARLY AS 12 NOON.", "nsi_id": "unitedstatespostalservice-a77078", "operator": "United States Postal Service", "operator:short": "USPS", "operator:type": "public", "operator:wikidata": "Q668687", "ref": "6835800003"}, "type": "Feature"}
{"geometry": {"coordinates": [-97.284978704, 40.654062251], "type": "Point"}, "id": "GEK1MF4xlUlZ6IGRx_V8e8HeoHw=", "properties": {"@source_uri": "https://tools.usps.com/UspsToolsRestServices/rest/POLocator/findLocations", "@spider": "usps_collection_boxes", "addr:city": "FRIEND", "addr:country": "US", "addr:postcode": "68359", "addr:state": "NE", "addr:street_address": "119 S CHESTNUT ST", "amenity": "post_box", "collection_times": "Mo-Fr 17:00; Sa 09:15", "note": "ON 12/24 AND 12/31, THIS BOX MAY BE COLLECTED AS EARLY AS 12 NOON.", "nsi_id": "unitedstatespostalservice-a77078", "operator": "United States Postal Service", "operator:short": "USPS", "operator:type": "public", "operator:wikidata": "Q668687", "ref": "6835900001"}, "type": "Feature"}
{"geometry": {"coordinates": [-97.284978704, 40.654062251], "type": "Point"}, "id": "UfEDJhOz6GnAkMUNRyav5SsUJpE=", "properties": {"@source_uri": "https://tools.usps.com/UspsToolsRestServices/rest/POLocator/findLocations", "@spider": "usps_collection_boxes", "addr:city": "FRIEND", "addr:country": "US", "addr:postcode": "68359", "addr:state": "NE", "addr:street_address": "119 S CHESTNUT ST", "amenity": "post_box", "collection_times": "Mo-Fr 13:45; Sa 09:15", "indoor": "yes", "note": "ON 12/24 AND 12/31, THIS BOX MAY BE COLLECTED AS EARLY AS 12 NOON.", "nsi_id": "unitedstatespostalservice-a77078", "operator": "United States Postal Service", "operator:short": "USPS", "operator:type": "public", "operator:wikidata": "Q668687", "ref": "6835900004"}, "type": "Feature"}
{"geometry": {"coordinates": [-97.2854300017, 40.6540700191], "type": "Point"}, "id": "gzHinZIIOfeIKYbo0AD-nxKqrIo=", "properties": {"@source_uri": "https://tools.usps.com/UspsToolsRestServices/rest/POLocator/findLocations", "@spider": "usps_collection_boxes", "addr:city": "FRIEND", "addr:country": "US", "addr:postcode": "68359", "addr:state": "NE", "addr:street_address": "119 S CHESTNUT ST", "amenity": "post_box", "collection_times": "Mo-Fr 13:45; Sa 09:15", "indoor": "yes", "note": "ON 12/24 AND 12/31, THIS BOX MAY BE COLLECTED AS EARLY AS 12 NOON.", "nsi_id": "unitedstatespostalservice-a77078", "operator": "United States Postal Service", "operator:short": "USPS", "operator:type": "public", "operator:wikidata": "Q668687", "ref": "6835900005"}, "type": "Feature"}
{"geometry": {"coordinates": [-96.9868947043, 40.9440783725], "type": "Point"}, "id": "4aknirl7AVG4LPp9eJXTegbHrUI=", "properties": {"@source_uri": "https://tools.usps.com/UspsToolsRestServices/rest/POLocator/findLocations", "@spider": "usps_collection_boxes", "addr:city": "GARLAND", "addr:country": "US", "addr:postcode": "68360", "addr:state": "NE", "addr:street_address": "460 FRAZIER ST", "amenity": "post_box", "collection_times": "Mo-Sa 08:45", "nsi_id": "unitedstatespostalservice-a77078", "operator": "United States Postal Service", "operator:short": "USPS", "operator:type": "public", "operator:wikidata": "Q668687", "ref": "6836000001"}, "type": "Feature"}
{"geometry": {"coordinates": [-97.602857667, 40.527423], "type": "Point"}, "id": "FI4bQ_aywKEiKD8QhAZ8Fvy-NkI=", "properties": {"@source_uri": "https://tools.usps.com/UspsToolsRestServices/rest/POLocator/findLocations", "@spider": "usps_collection_boxes", "addr:city": "GENEVA", "addr:country": "US", "addr:postcode": "68361", "addr:state": "NE", "addr:street_address": "212 N 9TH ST", "amenity": "post_box", "collection_times": "Mo-Fr 17:00; Sa 10:15", "note": "ON 12/24 AND 12/31, THIS BOX MAY BE COLLECTED AS EARLY AS 12 NOON.", "nsi_id": "unitedstatespostalservice-a77078", "operator": "United States Postal Service", "operator:short": "USPS", "operator:type": "public", "operator:wikidata": "Q668687", "ref": "6836100002"}, "type": "Feature"}
{"geometry": {"coordinates": [-97.602857667, 40.527423], "type": "Point"}, "id": "fIb7wkain54GLSQckKC2rLqHiXA=", "properties": {"@source_uri": "https://tools.usps.com/UspsToolsRestServices/rest/POLocator/findLocations", "@spider": "usps_collection_boxes", "addr:city": "GENEVA", "addr:country": "US", "addr:postcode": "68361", "addr:state": "NE", "addr:street_address": "212 N 9TH ST", "amenity": "post_box", "collection_times": "Mo-Fr 15:35; Sa 10:30", "indoor": "yes", "note": "ON 12/24 AND 12/31, THIS BOX MAY BE COLLECTED AS EARLY AS 12 NOON.", "nsi_id": "unitedstatespostalservice-a77078", "operator": "United States Postal Service", "operator:short": "USPS", "operator:type": "public", "operator:wikidata": "Q668687", "ref": "6836100003"}, "type": "Feature"}
{"geometry": {"coordinates": [-97.602857667, 40.527423], "type": "Point"}, "id": "4J094CjmzYDE9y1KGNRRVkYmxBI=", "properties": {"@source_uri": "https://tools.usps.com/UspsToolsRestServices/rest/POLocator/findLocations", "@spider": "usps_collection_boxes", "addr:city": "GENEVA", "addr:country": "US", "addr:postcode": "68361", "addr:state": "NE", "addr:street_address": "212 N 9TH ST", "amenity": "post_box", "collection_times": "Mo-Fr 15:35; Sa 10:30", "indoor": "yes", "note": "ON 12/24 AND 12/31, THIS BOX MAY BE COLLECTED AS EARLY AS 12 NOON.", "nsi_id": "unitedstatespostalservice-a77078", "operator": "United States Postal Service", "operator:short": "USPS", "operator:type": "public", "operator:wikidata": "Q668687", "ref": "6836100004"}, "type": "Feature"}
{"geometry": {"coordinates": [-97.602857667, 40.527423], "type": "Point"}, "id": "iXuSx1h3CsCiQBWiQL734nNbcmU=", "properties": {"@source_uri": "https://tools.usps.com/UspsToolsRestServices/rest/POLocator/findLocations", "@spider": "usps_collection_boxes", "addr:city": "GENEVA", "addr:country": "US", "addr:postcode": "68361", "addr:state": "NE", "addr:street_address": "212 N 9TH ST", "amenity": "post_box", "collection_times": "Mo-Fr 15:35; Sa 10:30", "indoor": "yes", "note": "ON 12/24 AND 12/31, THIS BOX MAY BE COLLECTED AS EARLY AS 12 NOON.", "nsi_id": "unitedstatespostalservice-a77078", "operator": "United States Postal Service", "operator:short": "USPS", "operator:type": "public", "operator:wikidata": "Q668687", "ref": "6836100005"}, "type": "Feature"}
{"geometry": {"coordinates": [-97.220854204, 40.832875868], "type": "Point"}, "id": "-LFJZF9Cwjd1Ls6DfSN8lnt9rx8=", "properties": {"@source_uri": "https://tools.usps.com/UspsToolsRestServices/rest/POLocator/findLocations", "@spider": "usps_collection_boxes", "addr:city": "GOEHNER", "addr:country": "US", "addr:postcode": "68364", "addr:state": "NE", "addr:street_address": "1254 MAY ST", "amenity": "post_box", "collection_times": "Mo-Fr 10:45; Sa 09:15", "nsi_id": "unitedstatespostalservice-a77078", "operator": "United States Postal Service", "operator:short": "USPS", "operator:type": "public", "operator:wikidata": "Q668687", "ref": "6836400001"}, "type": "Feature"}
{"geometry": {"coordinates": [-97.220854204, 40.832875868], "type": "Point"}, "id": "qYtXokYUOkiZIf9MRZMj1-rmQag=", "properties": {"@source_uri": "https://tools.usps.com/UspsToolsRestServices/rest/POLocator/findLocations", "@spider": "usps_collection_boxes", "addr:city": "GOEHNER", "addr:country": "US", "addr:postcode": "68364", "addr:state": "NE", "addr:street_address": "1254 MAY ST", "amenity": "post_box", "collection_times": "Mo-Fr 11:00; Sa 09:15", "indoor": "yes", "nsi_id": "unitedstatespostalservice-a77078", "operator": "United States Postal Service", "operator:short": "USPS", "operator:type": "public", "operator:wikidata": "Q668687", "ref": "6836400002"}, "type": "Feature"}
{"geometry": {"coordinates": [-97.220854204, 40.832875868], "type": "Point"}, "id": "0YYE2_NHAC6ClB6m1Ex5O-BA3ak=", "properties": {"@source_uri": "https://tools.usps.com/UspsToolsRestServices/rest/POLocator/findLocations", "@spider": "usps_collection_boxes", "addr:city": "GOEHNER", "addr:country": "US", "addr:postcode": "68364", "addr:state": "NE", "addr:street_address": "1254 MAY ST", "amenity": "post_box", "collection_times": "Mo-Fr 11:00; Sa 09:15", "indoor": "yes", "nsi_id": "unitedstatespostalservice-a77078", "operator": "United States Postal Service", "operator:short": "USPS", "operator:type": "public", "operator:wikidata": "Q668687", "ref": "6836400003"}, "type": "Feature"}
{"geometry": {"coordinates": [-97.714001995, 40.627825106], "type": "Point"}, "id": "l2ZbzuMOOsyxQ7pGEiE4aITFFPY=", "properties": {"@source_uri": "https://tools.usps.com/UspsToolsRestServices/rest/POLocator/findLocations", "@spider": "usps_collection_boxes", "addr:city": "GRAFTON", "addr:country": "US", "addr:postcode": "68365", "addr:state": "NE", "addr:street_address": "275 N WASHINGTON AVE", "amenity": "post_box", "collection_times": "Mo-Fr 11:15; Sa 09:15", "nsi_id": "unitedstatespostalservice-a77078", "operator": "United States Postal Service", "operator:short": "USPS", "operator:type": "public", "operator:wikidata": "Q668687", "ref": "6836500001"}, "type": "Feature"}
{"geometry": {"coordinates": [-97.714001995, 40.627825106], "type": "Point"}, "id": "bfIFHT-Xa2PaToS-lbdcLDyJ7gU=", "properties": {"@source_uri": "https://tools.usps.com/UspsToolsRestServices/rest/POLocator/findLocations", "@spider": "usps_collection_boxes", "addr:city": "GRAFTON", "addr:country": "US", "addr:postcode": "68365", "addr:state": "NE", "addr:street_address": "275 N WASHINGTON AVE", "amenity": "post_box", "collection_times": "Mo-Fr 11:15; Sa 09:15", "indoor": "yes", "nsi_id": "unitedstatespostalservice-a77078", "operator": "United States Postal Service", "operator:short": "USPS", "operator:type": "public", "operator:wikidata": "Q668687", "ref": "6836500002"}, "type": "Feature"}
{"geometry": {"coordinates": [-97.714001995, 40.627825106], "type": "Point"}, "id": "wWAy0zht2mxLMhh_AUQSoBsDGig=", "properties": {"@source_uri": "https://tools.usps.com/UspsToolsRestServices/rest/POLocator/findLocations", "@spider": "usps_collection_boxes", "addr:city": "GRAFTON", "addr:country": "US", "addr:postcode": "68365", "addr:state": "NE", "addr:street_address": "275 N WASHINGTON AVE", "amenity": "post_box", "collection_times": "Mo-Fr 11:15; Sa 09:15", "indoor": "yes", "nsi_id": "unitedstatespostalservice-a77078", "operator": "United States Postal Service", "operator:short": "USPS", "operator:type": "public", "operator:wikidata": "Q668687", "ref": "6836500003"}, "type": "Feature"}
{"geometry": {"coordinates": [-96.440210832, 40.962765519], "type": "Point"}, "id": "3du9CmHGsua7SswuU8XXsQnqjs4=", "properties": {"@source_uri": "https://tools.usps.com/UspsToolsRestServices/rest/POLocator/findLocations", "@spider": "usps_collection_boxes", "addr:city": "GREENWOOD", "addr:country": "US", "addr:postcode": "68366", "addr:state": "NE", "addr:street_address": "614 MAIN ST", "amenity": "post_box", "collection_times": "Mo-Fr 13:45; Sa 12:45", "note": "ON 12/24 AND 12/31, THIS BOX MAY BE COLLECTED AS EARLY AS 12 NOON.", "nsi_id": "unitedstatespostalservice-a77078", "operator": "United States Postal Service", "operator:short": "USPS", "operator:type": "public", "operator:wikidata": "Q668687", "ref": "6836600001"}, "type": "Feature"}
{"geometry": {"coordinates": [-96.440210832, 40.962765519], "type": "Point"}, "id": "1eIr29tB97qx9wNfE6rtRpWjplc=", "properties": {"@source_uri": "https://tools.usps.com/UspsToolsRestServices/rest/POLocator/findLocations", "@spider": "usps_collection_boxes", "addr:city": "GREENWOOD", "addr:country": "US", "addr:postcode": "68366", "addr:state": "NE", "addr:street_address": "614 MAIN ST", "amenity": "post_box", "collection_times": "Mo-Fr 13:45; Sa 12:45", "indoor": "yes", "note": "ON 12/24 AND 12/31, THIS BOX MAY BE COLLECTED AS EARLY AS 12 NOON.", "nsi_id": "unitedstatespostalservice-a77078", "operator": "United States Postal Service", "operator:short": "USPS", "operator:type": "public", "operator:wikidata": "Q668687", "ref": "6836600003"}, "type": "Feature"}
{"geometry": {"coordinates": [-96.440210832, 40.962765519], "type": "Point"}, "id": "CVh1ZcPb0kNN2hQjx5LnNCsUwAA=", "properties": {"@source_uri": "https://tools.usps.com/UspsToolsRestServices/rest/POLocator/findLocations", "@spider": "usps_collection_boxes", "addr:city": "GREENWOOD", "addr:country": "US", "addr:postcode": "68366", "addr:state": "NE", "addr:street_address": "614 MAIN ST", "amenity": "post_box", "collection_times": "Mo-Fr 13:45; Sa 12:45", "indoor": "yes", "note": "ON 12/24 AND 12/31, THIS BOX MAY BE COLLECTED AS EARLY AS 12 NOON.", "nsi_id": "unitedstatespostalservice-a77078", "operator": "United States Postal Service", "operator:short": "USPS", "operator:type": "public", "operator:wikidata": "Q668687", "ref": "6836600004"}, "type": "Feature"}
{"geometry": {"coordinates": [-97.402422777, 41.028371453], "type": "Point"}, "id": "-xdaHJrFGsoGqtG-dR1DJF50R8g=", "properties": {"@source_uri": "https://tools.usps.com/UspsToolsRestServices/rest/POLocator/findLocations", "@spider": "usps_collection_boxes", "addr:city": "GRESHAM", "addr:country": "US", "addr:postcode": "68367", "addr:state": "NE", "addr:street_address": "350 ELM ST", "amenity": "post_box", "collection_times": "Mo-Fr 12:45; Sa 09:45", "note": "ON 12/24 AND 12/31, THIS BOX MAY BE COLLECTED AS EARLY AS 12 NOON.", "nsi_id": "unitedstatespostalservice-a77078", "operator": "United States Postal Service", "operator:short": "USPS", "operator:type": "public", "operator:wikidata": "Q668687", "ref": "6836700001"}, "type": "Feature"}
{"geometry": {"coordinates": [-97.402422777, 41.028371453], "type": "Point"}, "id": "zUu4Xnh76KK3dWlcI9fg1YQL0kM=", "properties": {"@source_uri": "https://tools.usps.com/UspsToolsRestServices/rest/POLocator/findLocations", "@spider": "usps_collection_boxes", "addr:city": "GRESHAM", "addr:country": "US", "addr:postcode": "68367", "addr:state": "NE", "addr:street_address": "350 ELM ST", "amenity": "post_box", "collection_times": "Mo-Fr 12:45; Sa 10:00", "indoor": "yes", "note": "ON 12/24 AND 12/31, THIS BOX MAY BE COLLECTED AS EARLY AS 12 NOON.", "nsi_id": "unitedstatespostalservice-a77078", "operator": "United States Postal Service", "operator:short": "USPS", "operator:type": "public", "operator:wikidata": "Q668687", "ref": "6836700002"}, "type": "Feature"}
{"geometry": {"coordinates": [-97.402422777, 41.028371453], "type": "Point"}, "id": "Oc5FVLObBRTne2SxW8Eo779npzU=", "properties": {"@source_uri": "https://tools.usps.com/UspsToolsRestServices/rest/POLocator/findLocations", "@spider": "usps_collection_boxes", "addr:city": "GRESHAM", "addr:country": "US", "addr:postcode": "68367", "addr:state": "NE", "addr:street_address": "350 ELM ST", "amenity": "post_box", "collection_times": "Mo-Fr 12:45; Sa 09:00", "indoor": "yes", "note": "ON 12/24 AND 12/31, THIS BOX MAY BE COLLECTED AS EARLY AS 12 NOON.", "nsi_id": "unitedstatespostalservice-a77078", "operator": "United States Postal Service", "operator:short": "USPS", "operator:type": "public", "operator:wikidata": "Q668687", "ref": "6836700003"}, "type": "Feature"}
{"geometry": {"coordinates": [-96.788273223, 40.53767449], "type": "Point"}, "id": "vGYr91vsaaZH93q6LOVKHoVVgH8=", "properties": {"@source_uri": "https://tools.usps.com/UspsToolsRestServices/rest/POLocator/findLocations", "@spider": "usps_collection_boxes", "addr:city": "HALLAM", "addr:country": "US", "addr:postcode": "68368", "addr:state": "NE", "addr:street_address": "336 MAIN ST", "amenity": "post_box", "collection_times": "Mo-Fr 11:45; Sa 09:15", "nsi_id": "unitedstatespostalservice-a77078", "operator": "United States Postal Service", "operator:short": "USPS", "operator:type": "public", "operator:wikidata": "Q668687", "ref": "6836800001"}, "type": "Feature"}
{"geometry": {"coordinates": [-96.788273223, 40.53767449], "type": "Point"}, "id": "8no4SX9S3idm3r_pEXhV-uWIais=", "properties": {"@source_uri": "https://tools.usps.com/UspsToolsRestServices/rest/POLocator/findLocations", "@spider": "usps_collection_boxes", "addr:city": "HALLAM", "addr:country": "US", "addr:postcode": "68368", "addr:state": "NE", "addr:street_address": "336 MAIN ST", "amenity": "post_box", "collection_times": "Mo-Fr 11:45; Sa 09:15", "indoor": "yes", "nsi_id": "unitedstatespostalservice-a77078", "operator": "United States Postal Service", "operator:short": "USPS", "operator:type": "public", "operator:wikidata": "Q668687", "ref": "6836800003"}, "type": "Feature"}
{"geometry": {"coordinates": [-96.788273223, 40.53767449], "type": "Point"}, "id": "9HvoNNq1RwVgyXljx-gu0Ds26lk=", "properties": {"@source_uri": "https://tools.usps.com/UspsToolsRestServices/rest/POLocator/findLocations", "@spider": "usps_collection_boxes", "addr:city": "HALLAM", "addr:country": "US", "addr:postcode": "68368", "addr:state": "NE", "addr:street_address": "336 MAIN ST", "amenity": "post_box", "collection_times": "Mo-Fr 11:45; Sa 09:15", "indoor": "yes", "nsi_id": "unitedstatespostalservice-a77078", "operator": "United States Postal Service", "operator:short": "USPS", "operator:type": "public", "operator:wikidata": "Q668687", "ref": "6836800004"}, "type": "Feature"}
{"geometry": {"coordinates": [-97.588942461, 40.167164852], "type": "Point"}, "id": "-nZKe6R_dAc1la9LqLIJz7qY0js=", "properties": {"@source_uri": "https://tools.usps.com/UspsToolsRestServices/rest/POLocator/findLocations", "@spider": "usps_collection_boxes", "addr:city": "HEBRON", "addr:country": "US", "addr:postcode": "68370", "addr:state": "NE", "addr:street_address": "145 N 5TH ST", "amenity": "post_box", "collection_times": "Mo-Fr 17:00; Sa 10:00", "note": "ON 12/24 AND 12/31, THIS BOX MAY BE COLLECTED AS EARLY AS 12 NOON.", "nsi_id": "unitedstatespostalservice-a77078", "operator": "United States Postal Service", "operator:short": "USPS", "operator:type": "public", "operator:wikidata": "Q668687", "ref": "6837000002"}, "type": "Feature"}
{"geometry": {"coordinates": [-97.588942461, 40.167164852], "type": "Point"}, "id": "_wBzMRJEsOCYhDUgwl-HGaD42BM=", "properties": {"@source_uri": "https://tools.usps.com/UspsToolsRestServices/rest/POLocator/findLocations", "@spider": "usps_collection_boxes", "addr:city": "HEBRON", "addr:country": "US", "addr:postcode": "68370", "addr:state": "NE", "addr:street_address": "145 N 5TH ST", "amenity": "post_box", "collection_times": "Mo-Fr 14:30; Sa 10:15", "indoor": "yes", "note": "ON 12/24 AND 12/31, THIS BOX MAY BE COLLECTED AS EARLY AS 12 NOON.", "nsi_id": "unitedstatespostalservice-a77078", "operator": "United States Postal Service", "operator:short": "USPS", "operator:type": "public", "operator:wikidata": "Q668687", "ref": "6837000003"}, "type": "Feature"}
{"geometry": {"coordinates": [-97.414636834, 40.144373401], "type": "Point"}, "id": "IQ65YtLPAbT9GJOcUOkvKwf7Bdc=", "properties": {"@source_uri": "https://tools.usps.com/UspsToolsRestServices/rest/POLocator/findLocations", "@spider": "usps_collection_boxes", "addr:city": "HEBRON", "addr:country": "US", "addr:postcode": "68370", "addr:state": "NE", "addr:street_address": "225 S MAIN ST", "amenity": "post_box", "collection_times": "Mo-Sa 12:00", "nsi_id": "unitedstatespostalservice-a77078", "operator": "United States Postal Service", "operator:short": "USPS", "operator:type": "public", "operator:wikidata": "Q668687", "ref": "6837000004"}, "type": "Feature"}
{"geometry": {"coordinates": [-97.588942461, 40.167164852], "type": "Point"}, "id": "tlXXWxnFhRw8CzGnHEMMkQT9Y8c=", "properties": {"@source_uri": "https://tools.usps.com/UspsToolsRestServices/rest/POLocator/findLocations", "@spider": "usps_collection_boxes", "addr:city": "HEBRON", "addr:country": "US", "addr:postcode": "68370", "addr:state": "NE", "addr:street_address": "145 N 5TH ST", "amenity": "post_box", "collection_times": "Mo-Fr 14:30; Sa 10:15", "indoor": "yes", "note": "ON 12/24 AND 12/31, THIS BOX MAY BE COLLECTED AS EARLY AS 12 NOON.", "nsi_id": "unitedstatespostalservice-a77078", "operator": "United States Postal Service", "operator:short": "USPS", "operator:type": "public", "operator:wikidata": "Q668687", "ref": "6837000005"}, "type": "Feature"}
{"geometry": {"coordinates": [-97.812556258, 40.780556749], "type": "Point"}, "id": "YvcVvEDyhUUabtWxQvV8vOIM55A=", "properties": {"@source_uri": "https://tools.usps.com/UspsToolsRestServices/rest/POLocator/findLocations", "@spider": "usps_collection_boxes", "addr:city": "HENDERSON", "addr:country": "US", "addr:postcode": "68371", "addr:state": "NE", "addr:street_address": "1049 N MAIN ST", "amenity": "post_box", "collection_times": "Mo-Fr 15:45; Sa 09:45", "note": "ON 12/24 AND 12/31, THIS BOX MAY BE COLLECTED AS EARLY AS 12 NOON.", "nsi_id": "unitedstatespostalservice-a77078", "operator": "United States Postal Service", "operator:short": "USPS", "operator:type": "public", "operator:wikidata": "Q668687", "ref": "6837100001"}, "type": "Feature"}
{"geometry": {"coordinates": [-97.812556258, 40.780556749], "type": "Point"}, "id": "Z2CsOTvQFWctTk2JbDNvpqf3nf4=", "properties": {"@source_uri": "https://tools.usps.com/UspsToolsRestServices/rest/POLocator/findLocations", "@spider": "usps_collection_boxes", "addr:city": "HENDERSON", "addr:country": "US", "addr:postcode": "68371", "addr:state": "NE", "addr:street_address": "1049 N MAIN ST", "amenity": "post_box", "collection_times": "Mo-Fr 13:50; Sa 10:00", "indoor": "yes", "note": "ON 12/24 AND 12/31, THIS BOX MAY BE COLLECTED AS EARLY AS 12 NOON.", "nsi_id": "unitedstatespostalservice-a77078", "operator": "United States Postal Service", "operator:short": "USPS", "operator:type": "public", "operator:wikidata": "Q668687", "ref": "6837100002"}, "type": "Feature"}
{"geometry": {"coordinates": [-97.812556258, 40.780556749], "type": "Point"}, "id": "EWa1rBO28ZAo_iAddHNwA6_DbO4=", "properties": {"@source_uri": "https://tools.usps.com/UspsToolsRestServices/rest/POLocator/findLocations", "@spider": "usps_collection_boxes", "addr:city": "HENDERSON", "addr:country": "US", "addr:postcode": "68371", "addr:state": "NE", "addr:street_address": "1049 N MAIN ST", "amenity": "post_box", "collection_times": "Mo-Fr 13:50; Sa 10:00", "indoor": "yes", "note": "ON 12/24 AND 12/31, THIS BOX MAY BE COLLECTED AS EARLY AS 12 NOON.", "nsi_id": "unitedstatespostalservice-a77078", "operator": "United States Postal Service", "operator:short": "USPS", "operator:type": "public", "operator:wikidata": "Q668687", "ref": "6837100003"}, "type": "Feature"}
{"geometry": {"coordinates": [-96.632375807, 40.619808335], "type": "Point"}, "id": "XwdnTWCRaQuRTZbfedRruicAA54=", "properties": {"@source_uri": "https://tools.usps.com/UspsToolsRestServices/rest/POLocator/findLocations", "@spider": "usps_collection_boxes", "addr:city": "HICKMAN", "addr:country": "US", "addr:postcode": "68372", "addr:state": "NE", "addr:street_address": "116 LOCUST ST", "amenity": "post_box", "collection_times": "Mo-Fr 15:45; Sa 09:45", "note": "ON 12/24 AND 12/31, THIS BOX MAY BE COLLECTED AS EARLY AS 12 NOON.", "nsi_id": "unitedstatespostalservice-a77078", "operator": "United States Postal Service", "operator:short": "USPS", "operator:type": "public", "operator:wikidata": "Q668687", "ref": "6837200001"}, "type": "Feature"}
{"geometry": {"coordinates": [-96.592844709, 40.59607121], "type": "Point"}, "id": "p5GohUav3hKsmrAF9C3afHxUD70=", "properties": {"@source_uri": "https://tools.usps.com/UspsToolsRestServices/rest/POLocator/findLocations", "@spider": "usps_collection_boxes", "addr:city": "HICKMAN", "addr:country": "US", "addr:postcode": "68372", "addr:state": "NE", "addr:street_address": "9525 PANAMA RD", "amenity": "post_box", "collection_times": "Mo-Sa 13:00", "note": "ON 12/24 AND 12/31, THIS BOX MAY BE COLLECTED AS EARLY AS 12 NOON.", "nsi_id": "unitedstatespostalservice-a77078", "operator": "United States Postal Service", "operator:short": "USPS", "operator:type": "public", "operator:wikidata": "Q668687", "ref": "6837200002"}, "type": "Feature"}
{"geometry": {"coordinates": [-96.632375807, 40.619808335], "type": "Point"}, "id": "77grKn0oHkG1JieBcXmDaRCg2Mw=", "properties": {"@source_uri": "https://tools.usps.com/UspsToolsRestServices/rest/POLocator/findLocations", "@spider": "usps_collection_boxes", "addr:city": "HICKMAN", "addr:country": "US", "addr:postcode": "68372", "addr:state": "NE", "addr:street_address": "116 LOCUST ST", "amenity": "post_box", "collection_times": "Mo-Fr 16:00; Sa 10:15", "indoor": "yes", "note": "ON 12/24 AND 12/31, THIS BOX MAY BE COLLECTED AS EARLY AS 12 NOON.", "nsi_id": "unitedstatespostalservice-a77078", "operator": "United States Postal Service", "operator:short": "USPS", "operator:type": "public", "operator:wikidata": "Q668687", "ref": "6837200003"}, "type": "Feature"}
{"geometry": {"coordinates": [-96.632375807, 40.619808335], "type": "Point"}, "id": "uBcDujAh6XhdD1kyTiG9VXz8DTc=", "properties": {"@source_uri": "https://tools.usps.com/UspsToolsRestServices/rest/POLocator/findLocations", "@spider": "usps_collection_boxes", "addr:city": "HICKMAN", "addr:country": "US", "addr:postcode": "68372", "addr:state": "NE", "addr:street_address": "116 LOCUST ST", "amenity": "post_box", "collection_times": "Mo-Fr 16:00; Sa 10:15", "indoor": "yes", "note": "ON 12/24 AND 12/31, THIS BOX MAY BE COLLECTED AS EARLY AS 12 NOON.", "nsi_id": "unitedstatespostalservice-a77078", "operator": "United States Postal Service", "operator:short": "USPS", "operator:type": "public", "operator:wikidata": "Q668687", "ref": "6837200005"}, "type": "Feature"}
{"geometry": {"coordinates": [-97.4972499988, 40.007729982], "type": "Point"}, "id": "CckFRA-14Q_wsJlZbGO4e1rDADo=", "properties": {"@source_uri": "https://tools.usps.com/UspsToolsRestServices/rest/POLocator/findLocations", "@spider": "usps_collection_boxes", "addr:city": "HUBBELL", "addr:country": "US", "addr:postcode": "68375", "addr:state": "NE", "addr:street_address": "208 JOHNSON ST", "amenity": "post_box", "collection_times": "Mo-Sa 08:30", "nsi_id": "unitedstatespostalservice-a77078", "operator": "United States Postal Service", "operator:short": "USPS", "operator:type": "public", "operator:wikidata": "Q668687", "ref": "6837500001"}, "type": "Feature"}
{"geometry": {"coordinates": [-95.94777367, 40.163231491], "type": "Point"}, "id": "iz1TOIwIWMIkrmcxXglcGKeSMks=", "properties": {"@source_uri": "https://tools.usps.com/UspsToolsRestServices/rest/POLocator/findLocations", "@spider": "usps_collection_boxes", "addr:city": "HUMBOLDT", "addr:country": "US", "addr:postcode": "68376", "addr:state": "NE", "addr:street_address": "335 W SQUARE ST", "amenity": "post_box", "collection_times": "Mo-Fr 16:15; Sa 09:45", "note": "ON 12/24 AND 12/31, THIS BOX MAY BE COLLECTED AS EARLY AS 12 NOON.", "nsi_id": "unitedstatespostalservice-a77078", "operator": "United States Postal Service", "operator:short": "USPS", "operator:type": "public", "operator:wikidata": "Q668687", "ref": "6837600001"}, "type": "Feature"}
{"geometry": {"coordinates": [-95.94777367, 40.163231491], "type": "Point"}, "id": "WC6k7c2aqWU3MKYM2UEDxZ5MZvQ=", "properties": {"@source_uri": "https://tools.usps.com/UspsToolsRestServices/rest/POLocator/findLocations", "@spider": "usps_collection_boxes", "addr:city": "HUMBOLDT", "addr:country": "US", "addr:postcode": "68376", "addr:state": "NE", "addr:street_address": "335 W SQUARE ST", "amenity": "post_box", "collection_times": "Mo-Fr 14:45; Sa 10:00", "indoor": "yes", "note": "ON 12/24 AND 12/31, THIS BOX MAY BE COLLECTED AS EARLY AS 12 NOON.", "nsi_id": "unitedstatespostalservice-a77078", "operator": "United States Postal Service", "operator:short": "USPS", "operator:type": "public", "operator:wikidata": "Q668687", "ref": "6837600002"}, "type": "Feature"}
{"geometry": {"coordinates": [-95.94777367, 40.163231491], "type": "Point"}, "id": "NRQb3WAqikGTMcCCCGbOc8WzNps=", "properties": {"@source_uri": "https://tools.usps.com/UspsToolsRestServices/rest/POLocator/findLocations", "@spider": "usps_collection_boxes", "addr:city": "HUMBOLDT", "addr:country": "US", "addr:postcode": "68376", "addr:state": "NE", "addr:street_address": "335 W SQUARE ST", "amenity": "post_box", "collection_times": "Mo-Fr 14:45; Sa 10:00", "indoor": "yes", "note": "ON 12/24 AND 12/31, THIS BOX MAY BE COLLECTED AS EARLY AS 12 NOON.", "nsi_id": "unitedstatespostalservice-a77078", "operator": "United States Postal Service", "operator:short": "USPS", "operator:type": "public", "operator:wikidata": "Q668687", "ref": "6837600003"}, "type": "Feature"}
{"geometry": {"coordinates": [-97.083615916, 40.185028341], "type": "Point"}, "id": "IR0aoGOoLuAmYlH_JhVOlJzrqZ4=", "properties": {"@source_uri": "https://tools.usps.com/UspsToolsRestServices/rest/POLocator/findLocations", "@spider": "usps_collection_boxes", "addr:city": "JANSEN", "addr:country": "US", "addr:postcode": "68377", "addr:state": "NE", "addr:street_address": "305 BROAD ST", "amenity": "post_box", "collection_times": "Mo-Fr 11:45; Sa 09:15", "nsi_id": "unitedstatespostalservice-a77078", "operator": "United States Postal Service", "operator:short": "USPS", "operator:type": "public", "operator:wikidata": "Q668687", "ref": "6837700001"}, "type": "Feature"}
{"geometry": {"coordinates": [-97.083615916, 40.185028341], "type": "Point"}, "id": "6zsEYXEcNyTuYRkWb9vBPpoUN_8=", "properties": {"@source_uri": "https://tools.usps.com/UspsToolsRestServices/rest/POLocator/findLocations", "@spider": "usps_collection_boxes", "addr:city": "JANSEN", "addr:country": "US", "addr:postcode": "68377", "addr:state": "NE", "addr:street_address": "305 BROAD ST", "amenity": "post_box", "collection_times": "Mo-Fr 11:45; Sa 09:15", "indoor": "yes", "nsi_id": "unitedstatespostalservice-a77078", "operator": "United States Postal Service", "operator:short": "USPS", "operator:type": "public", "operator:wikidata": "Q668687", "ref": "6837700002"}, "type": "Feature"}
{"geometry": {"coordinates": [-97.083615916, 40.185028341], "type": "Point"}, "id": "CL5MraYR34A7ZQnUmkhImhRBFnI=", "properties": {"@source_uri": "https://tools.usps.com/UspsToolsRestServices/rest/POLocator/findLocations", "@spider": "usps_collection_boxes", "addr:city": "JANSEN", "addr:country": "US", "addr:postcode": "68377", "addr:state": "NE", "addr:street_address": "305 BROAD ST", "amenity": "post_box", "collection_times": "Mo-Fr 11:45; Sa 09:15", "indoor": "yes", "nsi_id": "unitedstatespostalservice-a77078", "operator": "United States Postal Service", "operator:short": "USPS", "operator:type": "public", "operator:wikidata": "Q668687", "ref": "6837700003"}, "type": "Feature"}
{"geometry": {"coordinates": [-95.997960102, 40.410377665], "type": "Point"}, "id": "wTTHFP4FEdtKeA8U-uo2Q0assZw=", "properties": {"@source_uri": "https://tools.usps.com/UspsToolsRestServices/rest/POLocator/findLocations", "@spider": "usps_collection_boxes", "addr:city": "JOHNSON", "addr:country": "US", "addr:postcode": "68378", "addr:state": "NE", "addr:street_address": "123 MAIN ST", "amenity": "post_box", "collection_times": "Mo-Fr 11:45; Sa 09:15", "nsi_id": "unitedstatespostalservice-a77078", "operator": "United States Postal Service", "operator:short": "USPS", "operator:type": "public", "operator:wikidata": "Q668687", "ref": "6837800001"}, "type": "Feature"}
{"geometry": {"coordinates": [-95.997960102, 40.410377665], "type": "Point"}, "id": "OH43kSybzAKWdVuopkGs8prscmo=", "properties": {"@source_uri": "https://tools.usps.com/UspsToolsRestServices/rest/POLocator/findLocations", "@spider": "usps_collection_boxes", "addr:city": "JOHNSON", "addr:country": "US", "addr:postcode": "68378", "addr:state": "NE", "addr:street_address": "123 MAIN ST", "amenity": "post_box", "collection_times": "Mo-Fr 11:30; Sa 09:00", "indoor": "yes", "nsi_id": "unitedstatespostalservice-a77078", "operator": "United States Postal Service", "operator:short": "USPS", "operator:type": "public", "operator:wikidata": "Q668687", "ref": "6837800003"}, "type": "Feature"}
{"geometry": {"coordinates": [-95.997960102, 40.410377665], "type": "Point"}, "id": "ShWCBpzSoP3l7FOxxbjAtMQLgOs=", "properties": {"@source_uri": "https://tools.usps.com/UspsToolsRestServices/rest/POLocator/findLocations", "@spider": "usps_collection_boxes", "addr:city": "JOHNSON", "addr:country": "US", "addr:postcode": "68378", "addr:state": "NE", "addr:street_address": "123 MAIN ST", "amenity": "post_box", "collection_times": "Mo-Fr 11:30; Sa 09:00", "indoor": "yes", "nsi_id": "unitedstatespostalservice-a77078", "operator": "United States Postal Service", "operator:short": "USPS", "operator:type": "public", "operator:wikidata": "Q668687", "ref": "6837800004"}, "type": "Feature"}
{"geometry": {"coordinates": [-96.48277187, 40.085678375], "type": "Point"}, "id": "DHCBcTQ6pJQhVUfmn_RCI2bWC18=", "properties": {"@source_uri": "https://tools.usps.com/UspsToolsRestServices/rest/POLocator/findLocations", "@spider": "usps_collection_boxes", "addr:city": "LIBERTY", "addr:country": "US", "addr:postcode": "68381", "addr:state": "NE", "addr:street_address": "501 WEBSTER ST", "amenity": "post_box", "collection_times": "Mo-Sa 08:45", "nsi_id": "unitedstatespostalservice-a77078", "operator": "United States Postal Service", "operator:short": "USPS", "operator:type": "public", "operator:wikidata": "Q668687", "ref": "6838100000"}, "type": "Feature"}
