{"geometry": {"coordinates": [-97.593461857, 40.74405926], "type": "Point"}, "id": "cOONaoULg77z33REU7uWPie__w4=", "properties": {"@source_uri": "https://tools.usps.com/UspsToolsRestServices/rest/POLocator/findLocations", "@spider": "usps_collection_boxes", "addr:city": "MC COOL JCT", "addr:country": "US", "addr:postcode": "68401", "addr:state": "NE", "addr:street_address": "403 E M ST", "amenity": "post_box", "collection_times": "Mo-Fr 12:45; Sa 10:15", "note": "ON 12/24 AND 12/31, THIS BOX MAY BE COLLECTED AS EARLY AS 12 NOON.", "nsi_id": "unitedstatespostalservice-a77078", "operator": "United States Postal Service", "operator:short": "USPS", "operator:type": "public", "operator:wikidata": "Q668687", "ref": "6840100001"}, "type": "Feature"}
{"geometry": {"coordinates": [-97.593461857, 40.74405926], "type": "Point"}, "id": "3aSMHJqzU-hv-41p9jcByhbAjew=", "properties": {"@source_uri": "https://tools.usps.com/UspsToolsRestServices/rest/POLocator/findLocations", "@spider": "usps_collection_boxes", "addr:city": "MC COOL JCT", "addr:country": "US", "addr:postcode": "68401", "addr:state": "NE", "addr:street_address": "403 E M ST", "amenity": "post_box", "collection_times": "Mo-Fr 13:00; Sa 11:00", "indoor": "yes", "note": "ON 12/24 AND 12/31, THIS BOX MAY BE COLLECTED AS EARLY AS 12 NOON.", "nsi_id": "unitedstatespostalservice-a77078", "operator": "United States Postal Service", "operator:short": "USPS", "operator:type": "public", "operator:wikidata": "Q668687", "ref": "6840100002"}, "type": "Feature"}
{"geometry": {"coordinates": [-97.593461857, 40.74405926], "type": "Point"}, "id": "ejt_RK2XsofAMhhe_vzbSZqAQA0=", "properties": {"@source_uri": "https://tools.usps.com/UspsToolsRestServices/rest/POLocator/findLocations", "@spider": "usps_collection_boxes", "addr:city": "MC COOL JCT", "addr:country": "US", "addr:postcode": "68401", "addr:state": "NE", "addr:street_address": "403 E M ST", "amenity": "post_box", "collection_times": "Mo-Fr 13:00; Sa 11:00", "indoor": "yes", "note": "ON 12/24 AND 12/31, THIS BOX MAY BE COLLECTED AS EARLY AS 12 NOON.", "nsi_id": "unitedstatespostalservice-a77078", "operator": "United States Postal Service", "operator:short": "USPS", "operator:type": "public", "operator:wikidata": "Q668687", "ref": "6840100003"}, "type": "Feature"}
{"geometry": {"coordinates": [-96.865256155, 40.90745809], "type": "Point"}, "id": "39GnMyr6HZpVMsNHiBgA8fpo4NA=", "properties": {"@source_uri": "https://tools.usps.com/UspsToolsRestServices/rest/POLocator/findLocations", "@spider": "usps_collection_boxes", "addr:city": "MALCOLM", "addr:country": "US", "addr:postcode": "68402", "addr:state": "NE", "addr:street_address": "226 S LINCOLN ST", "amenity": "post_box", "collection_times": "Mo-Fr 14:15; Sa 09:30", "note": "ON 12/24 AND 12/31, THIS BOX MAY BE COLLECTED AS EARLY AS 12 NOON.", "nsi_id": "unitedstatespostalservice-a77078", "operator": "United States Postal Service", "operator:short": "USPS", "operator:type": "public", "operator:wikidata": "Q668687", "ref": "6840200001"}, "type": "Feature"}
{"geometry": {"coordinates": [-96.865256155, 40.90745809], "type": "Point"}, "id": "NIdhm-WhJVSHlgB1yy9W-QR9c9M=", "properties": {"@source_uri": "https://tools.usps.com/UspsToolsRestServices/rest/POLocator/findLocations", "@spider": "usps_collection_boxes", "addr:city": "MALCOLM", "addr:country": "US", "addr:postcode": "68402", "addr:state": "NE", "addr:street_address": "226 S LINCOLN ST", "amenity": "post_box", "collection_times": "Mo-Fr 14:15; Sa 09:30", "indoor": "yes", "note": "ON 12/24 AND 12/31, THIS BOX MAY BE COLLECTED AS EARLY AS 12 NOON.", "nsi_id": "unitedstatespostalservice-a77078", "operator": "United States Postal Service", "operator:short": "USPS", "operator:type": "public", "operator:wikidata": "Q668687", "ref": "6840200002"}, "type": "Feature"}
{"geometry": {"coordinates": [-96.865256155, 40.90745809], "type": "Point"}, "id": "6mWM3F4DLPWqzl8sTms4xqHQ-B0=", "properties": {"@source_uri": "https://tools.usps.com/UspsToolsRestServices/rest/POLocator/findLocations", "@spider": "usps_collection_boxes", "addr:city": "MALCOLM", "addr:country": "US", "addr:postcode": "68402", "addr:state": "NE", "addr:street_address": "226 S LINCOLN ST", "amenity": "post_box", "collection_times": "Mo-Fr 14:15; Sa 09:30", "indoor": "yes", "note": "ON 12/24 AND 12/31, THIS BOX MAY BE COLLECTED AS EARLY AS 12 NOON.", "nsi_id": "unitedstatespostalservice-a77078", "operator": "United States Postal Service", "operator:short": "USPS", "operator:type": "public", "operator:wikidata": "Q668687", "ref": "6840200003"}, "type": "Feature"}
{"geometry": {"coordinates": [-96.1646805, 40.919742547], "type": "Point"}, "id": "AsMbkYCM6LhvGKSvLvqdC95Iu_0=", "properties": {"@source_uri": "https://tools.usps.com/UspsToolsRestServices/rest/POLocator/findLocations", "@spider": "usps_collection_boxes", "addr:city": "MANLEY", "addr:country": "US", "addr:postcode": "68403", "addr:state": "NE", "addr:street_address": "107 MAIN ST", "amenity": "post_box", "collection_times": "Mo-Sa 14:30", "note": "ON 12/24 AND 12/31, THIS BOX MAY BE COLLECTED AS EARLY AS 12 NOON.", "nsi_id": "unitedstatespostalservice-a77078", "operator": "United States Postal Service", "operator:short": "USPS", "operator:type": "public", "operator:wikidata": "Q668687", "ref": "6840300001"}, "type": "Feature"}
{"geometry": {"coordinates": [-96.1646805, 40.919742547], "type": "Point"}, "id": "r0NHRpvGibYCeq2EHjv_U0U83iI=", "properties": {"@source_uri": "https://tools.usps.com/UspsToolsRestServices/rest/POLocator/findLocations", "@spider": "usps_collection_boxes", "addr:city": "MANLEY", "addr:country": "US", "addr:postcode": "68403", "addr:state": "NE", "addr:street_address": "107 MAIN ST", "amenity": "post_box", "collection_times": "Mo-Fr 14:30; Sa 11:15", "indoor": "yes", "note": "ON 12/24 AND 12/31, THIS BOX MAY BE COLLECTED AS EARLY AS 12 NOON.", "nsi_id": "unitedstatespostalservice-a77078", "operator": "United States Postal Service", "operator:short": "USPS", "operator:type": "public", "operator:wikidata": "Q668687", "ref": "6840300002"}, "type": "Feature"}
{"geometry": {"coordinates": [-96.1646805, 40.919742547], "type": "Point"}, "id": "ENEPbrCQk7BL6mEqMwMGPeofqzY=", "properties": {"@source_uri": "https://tools.usps.com/UspsToolsRestServices/rest/POLocator/findLocations", "@spider": "usps_collection_boxes", "addr:city": "MANLEY", "addr:country": "US", "addr:postcode": "68403", "addr:state": "NE", "addr:street_address": "107 MAIN ST", "amenity": "post_box", "collection_times": "Mo-Fr 14:30; Sa 11:15", "indoor": "yes", "note": "ON 12/24 AND 12/31, THIS BOX MAY BE COLLECTED AS EARLY AS 12 NOON.", "nsi_id": "unitedstatespostalservice-a77078", "operator": "United States Postal Service", "operator:short": "USPS", "operator:type": "public", "operator:wikidata": "Q668687", "ref": "6840300003"}, "type": "Feature"}
{"geometry": {"coordinates": [-96.75744974, 40.638177754], "type": "Point"}, "id": "Ltg6pboXBhbRqqqc7a_IBMR1lQ8=", "properties": {"@source_uri": "https://tools.usps.com/UspsToolsRestServices/rest/POLocator/findLocations", "@spider": "usps_collection_boxes", "addr:city": "MARTELL", "addr:country": "US", "addr:postcode": "68404", "addr:state": "NE", "addr:street_address": "17615 SW 25TH ST", "amenity": "post_box", "collection_times": "Mo-Fr 11:15; Sa 08:45", "nsi_id": "unitedstatespostalservice-a77078", "operator": "United States Postal Service", "operator:short": "USPS", "operator:type": "public", "operator:wikidata": "Q668687", "ref": "6840400001"}, "type": "Feature"}
{"geometry": {"coordinates": [-96.75744974, 40.638177754], "type": "Point"}, "id": "BX17YfEIsuQ1wt2O_qOJp9mqGjg=", "properties": {"@source_uri": "https://tools.usps.com/UspsToolsRestServices/rest/POLocator/findLocations", "@spider": "usps_collection_boxes", "addr:city": "MARTELL", "addr:country": "US", "addr:postcode": "68404", "addr:state": "NE", "addr:street_address": "17615 SW 25TH ST", "amenity": "post_box", "collection_times": "Mo-Fr 11:30; Sa 09:00", "indoor": "yes", "nsi_id": "unitedstatespostalservice-a77078", "operator": "United States Postal Service", "operator:short": "USPS", "operator:type": "public", "operator:wikidata": "Q668687", "ref": "6840400002"}, "type": "Feature"}
{"geometry": {"coordinates": [-96.75744974, 40.638177754], "type": "Point"}, "id": "pA1C61PY49s2494kopnNMqTvlA0=", "properties": {"@source_uri": "https://tools.usps.com/UspsToolsRestServices/rest/POLocator/findLocations", "@spider": "usps_collection_boxes", "addr:city": "MARTELL", "addr:country": "US", "addr:postcode": "68404", "addr:state": "NE", "addr:street_address": "17615 SW 25TH ST", "amenity": "post_box", "collection_times": "Mo-Fr 11:30; Sa 09:00", "indoor": "yes", "nsi_id": "unitedstatespostalservice-a77078", "operator": "United States Postal Service", "operator:short": "USPS", "operator:type": "public", "operator:wikidata": "Q668687", "ref": "6840400003"}, "type": "Feature"}
{"geometry": {"coordinates": [-97.051867652, 40.774289117], "type": "Point"}, "id": "QOVLTDd26tDdGTCqxDdHDvCc1uM=", "properties": {"@source_uri": "https://tools.usps.com/UspsToolsRestServices/rest/POLocator/findLocations", "@spider": "usps_collection_boxes", "addr:city": "MILFORD", "addr:country": "US", "addr:postcode": "68405", "addr:state": "NE", "addr:street_address": "602 1ST ST", "amenity": "post_box", "collection_times": "Mo-Fr 15:00; Sa 10:30", "indoor": "yes", "note": "ON 12/24 AND 12/31, THIS BOX MAY BE COLLECTED AS EARLY AS 12 NOON.", "nsi_id": "unitedstatespostalservice-a77078", "operator": "United States Postal Service", "operator:short": "USPS", "operator:type": "public", "operator:wikidata": "Q668687", "ref": "6840500002"}, "type": "Feature"}
{"geometry": {"coordinates": [-97.0516709597, 40.7744579952], "type": "Point"}, "id": "F-Ns_Snn71RQ47xaMdP_B3Vk8UQ=", "properties": {"@source_uri": "https://tools.usps.com/UspsToolsRestServices/rest/POLocator/findLocations", "@spider": "usps_collection_boxes", "addr:city": "MILFORD", "addr:country": "US", "addr:postcode": "68405", "addr:state": "NE", "addr:street_address": "602 1ST ST", "amenity": "post_box", "collection_times": "Mo-Sa 15:25", "note": "ON 12/24 AND 12/31, THIS BOX MAY BE COLLECTED AS EARLY AS 12 NOON.", "nsi_id": "unitedstatespostalservice-a77078", "operator": "United States Postal Service", "operator:short": "USPS", "operator:type": "public", "operator:wikidata": "Q668687", "ref": "6840500003"}, "type": "Feature"}
{"geometry": {"coordinates": [-97.051867652, 40.774289117], "type": "Point"}, "id": "7iYqQxAlQYxp6zBeK6tbKG-2ssU=", "properties": {"@source_uri": "https://tools.usps.com/UspsToolsRestServices/rest/POLocator/findLocations", "@spider": "usps_collection_boxes", "addr:city": "MILFORD", "addr:country": "US", "addr:postcode": "68405", "addr:state": "NE", "addr:street_address": "602 1ST ST", "amenity": "post_box", "collection_times": "Mo-Fr 14:15; Sa 10:30", "indoor": "yes", "note": "ON 12/24 AND 12/31, THIS BOX MAY BE COLLECTED AS EARLY AS 12 NOON.", "nsi_id": "unitedstatespostalservice-a77078", "operator": "United States Postal Service", "operator:short": "USPS", "operator:type": "public", "operator:wikidata": "Q668687", "ref": "6840500004"}, "type": "Feature"}
{"geometry": {"coordinates": [-97.388923833, 40.500963671], "type": "Point"}, "id": "qRzLFoi0iwDzPpYsUZ10p7eSmMQ=", "properties": {"@source_uri": "https://tools.usps.com/UspsToolsRestServices/rest/POLocator/findLocations", "@spider": "usps_collection_boxes", "addr:city": "MILLIGAN", "addr:country": "US", "addr:postcode": "68406", "addr:state": "NE", "addr:street_address": "616 MAIN ST", "amenity": "post_box", "collection_times": "Mo-Fr 15:00; Sa 14:40", "note": "ON 12/24 AND 12/31, THIS BOX MAY BE COLLECTED AS EARLY AS 12 NOON.", "nsi_id": "unitedstatespostalservice-a77078", "operator": "United States Postal Service", "operator:short": "USPS", "operator:type": "public", "operator:wikidata": "Q668687", "ref": "6840600001"}, "type": "Feature"}
{"geometry": {"coordinates": [-97.388923833, 40.500963671], "type": "Point"}, "id": "nBxvqF7SKwzHR-Jh0wDecoMpFKY=", "properties": {"@source_uri": "https://tools.usps.com/UspsToolsRestServices/rest/POLocator/findLocations", "@spider": "usps_collection_boxes", "addr:city": "MILLIGAN", "addr:country": "US", "addr:postcode": "68406", "addr:state": "NE", "addr:street_address": "616 MAIN ST", "amenity": "post_box", "collection_times": "Mo-Fr 14:15; Sa 13:00", "indoor": "yes", "note": "ON 12/24 AND 12/31, THIS BOX MAY BE COLLECTED AS EARLY AS 12 NOON.", "nsi_id": "unitedstatespostalservice-a77078", "operator": "United States Postal Service", "operator:short": "USPS", "operator:type": "public", "operator:wikidata": "Q668687", "ref": "6840600002"}, "type": "Feature"}
{"geometry": {"coordinates": [-97.388923833, 40.500963671], "type": "Point"}, "id": "-FLivwTkjVF4u-FQkPotlEisFII=", "properties": {"@source_uri": "https://tools.usps.com/UspsToolsRestServices/rest/POLocator/findLocations", "@spider": "usps_collection_boxes", "addr:city": "MILLIGAN", "addr:country": "US", "addr:postcode": "68406", "addr:state": "NE", "addr:street_address": "616 MAIN ST", "amenity": "post_box", "collection_times": "Mo-Fr 14:15; Sa 13:00", "indoor": "yes", "note": "ON 12/24 AND 12/31, THIS BOX MAY BE COLLECTED AS EARLY AS 12 NOON.", "nsi_id": "unitedstatespostalservice-a77078", "operator": "United States Postal Service", "operator:short": "USPS", "operator:type": "public", "operator:wikidata": "Q668687", "ref": "6840600003"}, "type": "Feature"}
{"geometry": {"coordinates": [-96.279887842, 40.926267], "type": "Point"}, "id": "QEpwALBdW2ySPKaE-AGzNJ2SEHM=", "properties": {"@source_uri": "https://tools.usps.com/UspsToolsRestServices/rest/POLocator/findLocations", "@spider": "usps_collection_boxes", "addr:city": "MURDOCK", "addr:country": "US", "addr:postcode": "68407", "addr:state": "NE", "addr:street_address": "304 NEBRASKA ST", "amenity": "post_box", "collection_times": "Mo-Sa 14:45", "note": "ON 12/24 AND 12/31, THIS BOX MAY BE COLLECTED AS EARLY AS 12 NOON.", "nsi_id": "unitedstatespostalservice-a77078", "operator": "United States Postal Service", "operator:short": "USPS", "operator:type": "public", "operator:wikidata": "Q668687", "ref": "6840700001"}, "type": "Feature"}
{"geometry": {"coordinates": [-96.279887842, 40.926267], "type": "Point"}, "id": "CM4QCTbj73u7TUvnnvrelZxZ-fE=", "properties": {"@source_uri": "https://tools.usps.com/UspsToolsRestServices/rest/POLocator/findLocations", "@spider": "usps_collection_boxes", "addr:city": "MURDOCK", "addr:country": "US", "addr:postcode": "68407", "addr:state": "NE", "addr:street_address": "304 NEBRASKA ST", "amenity": "post_box", "collection_times": "Mo-Fr 11:15; Sa 08:45", "indoor": "yes", "nsi_id": "unitedstatespostalservice-a77078", "operator": "United States Postal Service", "operator:short": "USPS", "operator:type": "public", "operator:wikidata": "Q668687", "ref": "6840700002"}, "type": "Feature"}
{"geometry": {"coordinates": [-96.279887842, 40.926267], "type": "Point"}, "id": "8wkbqPbRZ-bs4a3ynxQgt15U17I=", "properties": {"@source_uri": "https://tools.usps.com/UspsToolsRestServices/rest/POLocator/findLocations", "@spider": "usps_collection_boxes", "addr:city": "MURDOCK", "addr:country": "US", "addr:postcode": "68407", "addr:state": "NE", "addr:street_address": "304 NEBRASKA ST", "amenity": "post_box", "collection_times": "Mo-Fr 11:15; Sa 08:45", "indoor": "yes", "nsi_id": "unitedstatespostalservice-a77078", "operator": "United States Postal Service", "operator:short": "USPS", "operator:type": "public", "operator:wikidata": "Q668687", "ref": "6840700003"}, "type": "Feature"}
{"geometry": {"coordinates": [-95.927426604, 40.915638], "type": "Point"}, "id": "nW30T5Y97Xkk281zYOrxDKcVPw0=", "properties": {"@source_uri": "https://tools.usps.com/UspsToolsRestServices/rest/POLocator/findLocations", "@spider": "usps_collection_boxes", "addr:city": "MURRAY", "addr:country": "US", "addr:postcode": "68409", "addr:state": "NE", "addr:street_address": "105 N LATTA AVE", "amenity": "post_box", "collection_times": "Mo-Sa 13:15", "note": "ON 12/24 AND 12/31, THIS BOX MAY BE COLLECTED AS EARLY AS 12 NOON.", "nsi_id": "unitedstatespostalservice-a77078", "operator": "United States Postal Service", "operator:short": "USPS", "operator:type": "public", "operator:wikidata": "Q668687", "ref": "6840900001"}, "type": "Feature"}
{"geometry": {"coordinates": [-95.927426604, 40.915638], "type": "Point"}, "id": "iBpRpZ6pI76WGW07ityn7B1_bi8=", "properties": {"@source_uri": "https://tools.usps.com/UspsToolsRestServices/rest/POLocator/findLocations", "@spider": "usps_collection_boxes", "addr:city": "MURRAY", "addr:country": "US", "addr:postcode": "68409", "addr:state": "NE", "addr:street_address": "105 N LATTA AVE", "amenity": "post_box", "collection_times": "Mo-Fr 13:15; Sa 09:30", "indoor": "yes", "note": "ON 12/24 AND 12/31, THIS BOX MAY BE COLLECTED AS EARLY AS 12 NOON.", "nsi_id": "unitedstatespostalservice-a77078", "operator": "United States Postal Service", "operator:short": "USPS", "operator:type": "public", "operator:wikidata": "Q668687", "ref": "6840900002"}, "type": "Feature"}
{"geometry": {"coordinates": [-95.927426604, 40.915638], "type": "Point"}, "id": "h-srNsg65lgtFCPbPcjtVwE6y1k=", "properties": {"@source_uri": "https://tools.usps.com/UspsToolsRestServices/rest/POLocator/findLocations", "@spider": "usps_collection_boxes", "addr:city": "MURRAY", "addr:country": "US", "addr:postcode": "68409", "addr:state": "NE", "addr:street_address": "105 N LATTA AVE", "amenity": "post_box", "collection_times": "Mo-Fr 13:15; Sa 09:30", "indoor": "yes", "note": "ON 12/24 AND 12/31, THIS BOX MAY BE COLLECTED AS EARLY AS 12 NOON.", "nsi_id": "unitedstatespostalservice-a77078", "operator": "United States Postal Service", "operator:short": "USPS", "operator:type": "public", "operator:wikidata": "Q668687", "ref": "6840900003"}, "type": "Feature"}
{"geometry": {"coordinates": [-95.855243223, 40.676683493], "type": "Point"}, "id": "zL0i5UKjHh8rh32vCBiSMmoNvuo=", "properties": {"@source_uri": "https://tools.usps.com/UspsToolsRestServices/rest/POLocator/findLocations", "@spider": "usps_collection_boxes", "addr:city": "NEBRASKA CITY", "addr:country": "US", "addr:postcode": "68410", "addr:state": "NE", "addr:street_address": "800 CENTRAL AVE", "amenity": "post_box", "collection_times": "Mo-Fr 14:30; Sa 13:00", "note": "ON 12/24 AND 12/31, THIS BOX MAY BE COLLECTED AS EARLY AS 12 NOON.", "nsi_id": "unitedstatespostalservice-a77078", "operator": "United States Postal Service", "operator:short": "USPS", "operator:type": "public", "operator:wikidata": "Q668687", "ref": "6841000002"}, "type": "Feature"}
{"geometry": {"coordinates": [-95.857803555, 40.676707486], "type": "Point"}, "id": "4HVt0zM0lakYuZVGrsHKSL9xFU8=", "properties": {"@source_uri": "https://tools.usps.com/UspsToolsRestServices/rest/POLocator/findLocations", "@spider": "usps_collection_boxes", "addr:city": "NEBRASKA CITY", "addr:country": "US", "addr:postcode": "68410", "addr:state": "NE", "addr:street_address": "1000 CENTRAL AVE", "amenity": "post_box", "collection_times": "Mo-Fr 14:30; Sa 13:00", "note": "ON 12/24 AND 12/31, THIS BOX MAY BE COLLECTED AS EARLY AS 12 NOON.", "nsi_id": "unitedstatespostalservice-a77078", "operator": "United States Postal Service", "operator:short": "USPS", "operator:type": "public", "operator:wikidata": "Q668687", "ref": "6841000004"}, "type": "Feature"}
{"geometry": {"coordinates": [-95.862820668, 40.676701485], "type": "Point"}, "id": "jUns-NvEanmbjWx4akpxueo1uTg=", "properties": {"@source_uri": "https://tools.usps.com/UspsToolsRestServices/rest/POLocator/findLocations", "@spider": "usps_collection_boxes", "addr:city": "NEBRASKA CITY", "addr:country": "US", "addr:postcode": "68410", "addr:state": "NE", "addr:street_address": "1409 CENTRAL AVE", "amenity": "post_box", "collection_times": "Mo-Fr 14:30; Sa 13:00", "note": "ON 12/24 AND 12/31, THIS BOX MAY BE COLLECTED AS EARLY AS 12 NOON.", "nsi_id": "unitedstatespostalservice-a77078", "operator": "United States Postal Service", "operator:short": "USPS", "operator:type": "public", "operator:wikidata": "Q668687", "ref": "6841000005"}, "type": "Feature"}
{"geometry": {"coordinates": [-95.859006796, 40.675819389], "type": "Point"}, "id": "e6augXC1YVeOABVVz--RLc0jZHY=", "properties": {"@source_uri": "https://tools.usps.com/UspsToolsRestServices/rest/POLocator/findLocations", "@spider": "usps_collection_boxes", "addr:city": "NEBRASKA CITY", "addr:country": "US", "addr:postcode": "68410", "addr:state": "NE", "addr:street_address": "1100 1ST CORSO", "amenity": "post_box", "collection_times": "Mo-Fr 14:30; Sa 13:00", "note": "ON 12/24 AND 12/31, THIS BOX MAY BE COLLECTED AS EARLY AS 12 NOON.", "nsi_id": "unitedstatespostalservice-a77078", "operator": "United States Postal Service", "operator:short": "USPS", "operator:type": "public", "operator:wikidata": "Q668687", "ref": "6841000006"}, "type": "Feature"}
{"geometry": {"coordinates": [-95.851323136, 40.676616471], "type": "Point"}, "id": "LOupb2LSsOFMfTvbqasqZ1V6dFE=", "properties": {"@source_uri": "https://tools.usps.com/UspsToolsRestServices/rest/POLocator/findLocations", "@spider": "usps_collection_boxes", "addr:city": "NEBRASKA CITY", "addr:country": "US", "addr:postcode": "68410", "addr:state": "NE", "addr:street_address": "508 CENTRAL AVE", "amenity": "post_box", "collection_times": "Mo-Fr 16:15; Sa 16:00", "note": "ON 12/24 AND 12/31, THIS BOX MAY BE COLLECTED AS EARLY AS 12 NOON.", "nsi_id": "unitedstatespostalservice-a77078", "operator": "United States Postal Service", "operator:short": "USPS", "operator:type": "public", "operator:wikidata": "Q668687", "ref": "6841000011"}, "type": "Feature"}
{"geometry": {"coordinates": [-95.851323136, 40.676616471], "type": "Point"}, "id": "zV3paF15TcfBqDDDDaAQJjR3DcA=", "properties": {"@source_uri": "https://tools.usps.com/UspsToolsRestServices/rest/POLocator/findLocations", "@spider": "usps_collection_boxes", "addr:city": "NEBRASKA CITY", "addr:country": "US", "addr:postcode": "68410", "addr:state": "NE", "addr:street_address": "508 CENTRAL AVE", "amenity": "post_box", "collection_times": "Mo-Fr 16:00; Sa 11:00", "indoor": "yes", "note": "ON 12/24 AND 12/31, THIS BOX MAY BE COLLECTED AS EARLY AS 12 NOON.", "nsi_id": "unitedstatespostalservice-a77078", "operator": "United States Postal Service", "operator:short": "USPS", "operator:type": "public", "operator:wikidata": "Q668687", "ref": "6841000013"}, "type": "Feature"}
{"geometry": {"coordinates": [-95.851323136, 40.676616471], "type": "Point"}, "id": "g1FnNWBgPEdPs7LXok-E-bMRwgo=", "properties": {"@source_uri": "https://tools.usps.com/UspsToolsRestServices/rest/POLocator/findLocations", "@spider": "usps_collection_boxes", "addr:city": "NEBRASKA CITY", "addr:country": "US", "addr:postcode": "68410", "addr:state": "NE", "addr:street_address": "508 CENTRAL AVE", "amenity": "post_box", "collection_times": "Mo-Fr 16:00; Sa 11:00", "indoor": "yes", "note": "ON 12/24 AND 12/31, THIS BOX MAY BE COLLECTED AS EARLY AS 12 NOON.", "nsi_id": "unitedstatespostalservice-a77078", "operator": "United States Postal Service", "operator:short": "USPS", "operator:type": "public", "operator:wikidata": "Q668687", "ref": "6841000015"}, "type": "Feature"}
{"geometry": {"coordinates": [-95.9904110413, 40.8294550147], "type": "Point"}, "id": "5DRV9WEZYcJf4t7MzgLLBpSg57E=", "properties": {"@source_uri": "https://tools.usps.com/UspsToolsRestServices/rest/POLocator/findLocations", "@spider": "usps_collection_boxes", "addr:city": "NEHAWKA", "addr:country": "US", "addr:postcode": "68413", "addr:state": "NE", "addr:street_address": "418 ELM ST", "amenity": "post_box", "collection_times": "Mo-Sa 13:45", "note": "ON 12/24 AND 12/31, THIS BOX MAY BE COLLECTED AS EARLY AS 12 NOON.", "nsi_id": "unitedstatespostalservice-a77078", "operator": "United States Postal Service", "operator:short": "USPS", "operator:type": "public", "operator:wikidata": "Q668687", "ref": "6841300001"}, "type": "Feature"}
{"geometry": {"coordinates": [-95.990463587, 40.8292455], "type": "Point"}, "id": "tgQJ2sXodB_L_SzlPF6rJegyrDw=", "properties": {"@source_uri": "https://tools.usps.com/UspsToolsRestServices/rest/POLocator/findLocations", "@spider": "usps_collection_boxes", "addr:city": "NEHAWKA", "addr:country": "US", "addr:postcode": "68413", "addr:state": "NE", "addr:street_address": "418 ELM ST", "amenity": "post_box", "collection_times": "Mo-Fr 10:45; Sa 08:45", "indoor": "yes", "nsi_id": "unitedstatespostalservice-a77078", "operator": "United States Postal Service", "operator:short": "USPS", "operator:type": "public", "operator:wikidata": "Q668687", "ref": "6841300002"}, "type": "Feature"}
{"geometry": {"coordinates": [-95.990463587, 40.8292455], "type": "Point"}, "id": "NNlcLwv0qoYzj_EpsaOZI96sU4s=", "properties": {"@source_uri": "https://tools.usps.com/UspsToolsRestServices/rest/POLocator/findLocations", "@spider": "usps_collection_boxes", "addr:city": "NEHAWKA", "addr:country": "US", "addr:postcode": "68413", "addr:state": "NE", "addr:street_address": "418 ELM ST", "amenity": "post_box", "collection_times": "Mo-Fr 10:45; Sa 08:45", "indoor": "yes", "nsi_id": "unitedstatespostalservice-a77078", "operator": "United States Postal Service", "operator:short": "USPS", "operator:type": "public", "operator:wikidata": "Q668687", "ref": "6841300003"}, "type": "Feature"}
{"geometry": {"coordinates": [-95.6731876, 40.338042424], "type": "Point"}, "id": "r5Rf13Ux30PwQ1fPkSVh3xL-xUs=", "properties": {"@source_uri": "https://tools.usps.com/UspsToolsRestServices/rest/POLocator/findLocations", "@spider": "usps_collection_boxes", "addr:city": "NEMAHA", "addr:country": "US", "addr:postcode": "68414", "addr:state": "NE", "addr:street_address": "504 1ST ST", "amenity": "post_box", "collection_times": "Mo-Sa 14:00", "note": "ON 12/24 AND 12/31, THIS BOX MAY BE COLLECTED AS EARLY AS 12 NOON.", "nsi_id": "unitedstatespostalservice-a77078", "operator": "United States Postal Service", "operator:short": "USPS", "operator:type": "public", "operator:wikidata": "Q668687", "ref": "6841400001"}, "type": "Feature"}
{"geometry": {"coordinates": [-95.6731876, 40.338042424], "type": "Point"}, "id": "8nGuyWAJxzH-O9Zsd7aDQiH2ty0=", "properties": {"@source_uri": "https://tools.usps.com/UspsToolsRestServices/rest/POLocator/findLocations", "@spider": "usps_collection_boxes", "addr:city": "NEMAHA", "addr:country": "US", "addr:postcode": "68414", "addr:state": "NE", "addr:street_address": "504 1ST ST", "amenity": "post_box", "collection_times": "Mo-Sa 13:50", "indoor": "yes", "note": "ON 12/24 AND 12/31, THIS BOX MAY BE COLLECTED AS EARLY AS 12 NOON.", "nsi_id": "unitedstatespostalservice-a77078", "operator": "United States Postal Service", "operator:short": "USPS", "operator:type": "public", "operator:wikidata": "Q668687", "ref": "6841400002"}, "type": "Feature"}
{"geometry": {"coordinates": [-95.6731876, 40.338042424], "type": "Point"}, "id": "1On06glefLtamcWHP8YVDPddglw=", "properties": {"@source_uri": "https://tools.usps.com/UspsToolsRestServices/rest/POLocator/findLocations", "@spider": "usps_collection_boxes", "addr:city": "NEMAHA", "addr:country": "US", "addr:postcode": "68414", "addr:state": "NE", "addr:street_address": "504 1ST ST", "amenity": "post_box", "collection_times": "Mo-Sa 13:50", "indoor": "yes", "note": "ON 12/24 AND 12/31, THIS BOX MAY BE COLLECTED AS EARLY AS 12 NOON.", "nsi_id": "unitedstatespostalservice-a77078", "operator": "United States Postal Service", "operator:short": "USPS", "operator:type": "public", "operator:wikidata": "Q668687", "ref": "6841400003"}, "type": "Feature"}
{"geometry": {"coordinates": [-96.801870378, 40.048853674], "type": "Point"}, "id": "e6ySsXodsQZ5tUt_TiI7MtvLRR4=", "properties": {"@source_uri": "https://tools.usps.com/UspsToolsRestServices/rest/POLocator/findLocations", "@spider": "usps_collection_boxes", "addr:city": "ODELL", "addr:country": "US", "addr:postcode": "68415", "addr:state": "NE", "addr:street_address": "205 MAIN ST", "amenity": "post_box", "collection_times": "Mo-Sa 14:15", "note": "ON 12/24 AND 12/31, THIS BOX MAY BE COLLECTED AS EARLY AS 12 NOON.", "nsi_id": "unitedstatespostalservice-a77078", "operator": "United States Postal Service", "operator:short": "USPS", "operator:type": "public", "operator:wikidata": "Q668687", "ref": "6841500001"}, "type": "Feature"}
{"geometry": {"coordinates": [-96.801870378, 40.048853674], "type": "Point"}, "id": "eOEs8hFQn49Ha-fKHjh4lyF3vOA=", "properties": {"@source_uri": "https://tools.usps.com/UspsToolsRestServices/rest/POLocator/findLocations", "@spider": "usps_collection_boxes", "addr:city": "ODELL", "addr:country": "US", "addr:postcode": "68415", "addr:state": "NE", "addr:street_address": "205 MAIN ST", "amenity": "post_box", "collection_times": "Mo-Fr 11:45; Sa 09:45", "indoor": "yes", "nsi_id": "unitedstatespostalservice-a77078", "operator": "United States Postal Service", "operator:short": "USPS", "operator:type": "public", "operator:wikidata": "Q668687", "ref": "6841500002"}, "type": "Feature"}
{"geometry": {"coordinates": [-96.801870378, 40.048853674], "type": "Point"}, "id": "Yb5qgYZW4v5doisJmUldfDjOLvQ=", "properties": {"@source_uri": "https://tools.usps.com/UspsToolsRestServices/rest/POLocator/findLocations", "@spider": "usps_collection_boxes", "addr:city": "ODELL", "addr:country": "US", "addr:postcode": "68415", "addr:state": "NE", "addr:street_address": "205 MAIN ST", "amenity": "post_box", "collection_times": "Mo-Fr 11:45; Sa 09:45", "indoor": "yes", "nsi_id": "unitedstatespostalservice-a77078", "operator": "United States Postal Service", "operator:short": "USPS", "operator:type": "public", "operator:wikidata": "Q668687", "ref": "6841500003"}, "type": "Feature"}
{"geometry": {"coordinates": [-97.453086473, 40.414593752], "type": "Point"}, "id": "F7q0weUkoXc-U79yqmkw0az1hh8=", "properties": {"@source_uri": "https://tools.usps.com/UspsToolsRestServices/rest/POLocator/findLocations", "@spider": "usps_collection_boxes", "addr:city": "OHIOWA", "addr:country": "US", "addr:postcode": "68416", "addr:state": "NE", "addr:street_address": "602 S MAIN ST", "amenity": "post_box", "collection_times": "Mo-Fr 14:25; Sa 14:00", "note": "ON 12/24 AND 12/31, THIS BOX MAY BE COLLECTED AS EARLY AS 12 NOON.", "nsi_id": "unitedstatespostalservice-a77078", "operator": "United States Postal Service", "operator:short": "USPS", "operator:type": "public", "operator:wikidata": "Q668687", "ref": "6841600001"}, "type": "Feature"}
{"geometry": {"coordinates": [-97.453086473, 40.414593752], "type": "Point"}, "id": "uUK30lwJOAuKPne7uaGD6SP4GHA=", "properties": {"@source_uri": "https://tools.usps.com/UspsToolsRestServices/rest/POLocator/findLocations", "@spider": "usps_collection_boxes", "addr:city": "OHIOWA", "addr:country": "US", "addr:postcode": "68416", "addr:state": "NE", "addr:street_address": "602 S MAIN ST", "amenity": "post_box", "collection_times": "Mo-Fr 10:45; Sa 08:45", "indoor": "yes", "nsi_id": "unitedstatespostalservice-a77078", "operator": "United States Postal Service", "operator:short": "USPS", "operator:type": "public", "operator:wikidata": "Q668687", "ref": "6841600002"}, "type": "Feature"}
{"geometry": {"coordinates": [-97.453086473, 40.414593752], "type": "Point"}, "id": "_Ma15D-C3eF3Iu2rlTHNgZ_BLoc=", "properties": {"@source_uri": "https://tools.usps.com/UspsToolsRestServices/rest/POLocator/findLocations", "@spider": "usps_collection_boxes", "addr:city": "OHIOWA", "addr:country": "US", "addr:postcode": "68416", "addr:state": "NE", "addr:street_address": "602 S MAIN ST", "amenity": "post_box", "collection_times": "Mo-Fr 10:45; Sa 08:45", "indoor": "yes", "nsi_id": "unitedstatespostalservice-a77078", "operator": "United States Postal Service", "operator:short": "USPS", "operator:type": "public", "operator:wikidata": "Q668687", "ref": "6841600003"}, "type": "Feature"}
{"geometry": {"coordinates": [-96.119967733, 40.722876], "type": "Point"}, "id": "oqBu1m4ryJ3KsfzC-5vbjz7vX-4=", "properties": {"@source_uri": "https://tools.usps.com/UspsToolsRestServices/rest/POLocator/findLocations", "@spider": "usps_collection_boxes", "addr:city": "OTOE", "addr:country": "US", "addr:postcode": "68417", "addr:state": "NE", "addr:street_address": "422 MAIN ST", "amenity": "post_box", "collection_times": "Mo-Sa 15:00", "note": "ON 12/24 AND 12/31, THIS BOX MAY BE COLLECTED AS EARLY AS 12 NOON.", "nsi_id": "unitedstatespostalservice-a77078", "operator": "United States Postal Service", "operator:short": "USPS", "operator:type": "public", "operator:wikidata": "Q668687", "ref": "6841700001"}, "type": "Feature"}
{"geometry": {"coordinates": [-96.119967733, 40.722876], "type": "Point"}, "id": "5bcvOIbGXBTRW1MPR4hlrYbN0sU=", "properties": {"@source_uri": "https://tools.usps.com/UspsToolsRestServices/rest/POLocator/findLocations", "@spider": "usps_collection_boxes", "addr:city": "OTOE", "addr:country": "US", "addr:postcode": "68417", "addr:state": "NE", "addr:street_address": "422 MAIN ST", "amenity": "post_box", "collection_times": "Mo-Fr 14:45; Sa 11:15", "indoor": "yes", "note": "ON 12/24 AND 12/31, THIS BOX MAY BE COLLECTED AS EARLY AS 12 NOON.", "nsi_id": "unitedstatespostalservice-a77078", "operator": "United States Postal Service", "operator:short": "USPS", "operator:type": "public", "operator:wikidata": "Q668687", "ref": "6841700002"}, "type": "Feature"}
{"geometry": {"coordinates": [-96.119967733, 40.722876], "type": "Point"}, "id": "rqcqBrCllwe98zYI-ViyHUpwAok=", "properties": {"@source_uri": "https://tools.usps.com/UspsToolsRestServices/rest/POLocator/findLocations", "@spider": "usps_collection_boxes", "addr:city": "OTOE", "addr:country": "US", "addr:postcode": "68417", "addr:state": "NE", "addr:street_address": "422 MAIN ST", "amenity": "post_box", "collection_times": "Mo-Fr 14:45; Sa 11:15", "indoor": "yes", "note": "ON 12/24 AND 12/31, THIS BOX MAY BE COLLECTED AS EARLY AS 12 NOON.", "nsi_id": "unitedstatespostalservice-a77078", "operator": "United States Postal Service", "operator:short": "USPS", "operator:type": "public", "operator:wikidata": "Q668687", "ref": "6841700003"}, "type": "Feature"}
{"geometry": {"coordinates": [-96.389888769, 40.70264978], "type": "Point"}, "id": "N8qhM5EFG3P1BgdNWa8dReuNwCU=", "properties": {"@source_uri": "https://tools.usps.com/UspsToolsRestServices/rest/POLocator/findLocations", "@spider": "usps_collection_boxes", "addr:city": "PALMYRA", "addr:country": "US", "addr:postcode": "68418", "addr:state": "NE", "addr:street_address": "320 C ST", "amenity": "post_box", "collection_times": "Mo-Sa 15:55", "note": "ON 12/24 AND 12/31, THIS BOX MAY BE COLLECTED AS EARLY AS 12 NOON.", "nsi_id": "unitedstatespostalservice-a77078", "operator": "United States Postal Service", "operator:short": "USPS", "operator:type": "public", "operator:wikidata": "Q668687", "ref": "6841800001"}, "type": "Feature"}
{"geometry": {"coordinates": [-96.389888769, 40.70264978], "type": "Point"}, "id": "D868Z5hAVCENAhwMqkeeVbBWBmk=", "properties": {"@source_uri": "https://tools.usps.com/UspsToolsRestServices/rest/POLocator/findLocations", "@spider": "usps_collection_boxes", "addr:city": "PALMYRA", "addr:country": "US", "addr:postcode": "68418", "addr:state": "NE", "addr:street_address": "320 C ST", "amenity": "post_box", "collection_times": "Mo-Fr 10:45; Sa 09:15", "indoor": "yes", "nsi_id": "unitedstatespostalservice-a77078", "operator": "United States Postal Service", "operator:short": "USPS", "operator:type": "public", "operator:wikidata": "Q668687", "ref": "6841800002"}, "type": "Feature"}
{"geometry": {"coordinates": [-96.389888769, 40.70264978], "type": "Point"}, "id": "cG3UHu-89MyTHXIn3OaZ7u7hGdM=", "properties": {"@source_uri": "https://tools.usps.com/UspsToolsRestServices/rest/POLocator/findLocations", "@spider": "usps_collection_boxes", "addr:city": "PALMYRA", "addr:country": "US", "addr:postcode": "68418", "addr:state": "NE", "addr:street_address": "320 C ST", "amenity": "post_box", "collection_times": "Mo-Fr 10:45; Sa 09:15", "indoor": "yes", "nsi_id": "unitedstatespostalservice-a77078", "operator": "United States Postal Service", "operator:short": "USPS", "operator:type": "public", "operator:wikidata": "Q668687", "ref": "6841800003"}, "type": "Feature"}
{"geometry": {"coordinates": [-96.5111563, 40.597937361], "type": "Point"}, "id": "F6Kl_fSI3ekJwVgKntAJa1UBDrM=", "properties": {"@source_uri": "https://tools.usps.com/UspsToolsRestServices/rest/POLocator/findLocations", "@spider": "usps_collection_boxes", "addr:city": "PANAMA", "addr:country": "US", "addr:postcode": "68419", "addr:state": "NE", "addr:street_address": "302 LOCUST ST", "amenity": "post_box", "collection_times": "Mo-Sa 15:45", "note": "ON 12/24 AND 12/31, THIS BOX MAY BE COLLECTED AS EARLY AS 12 NOON.", "nsi_id": "unitedstatespostalservice-a77078", "operator": "United States Postal Service", "operator:short": "USPS", "operator:type": "public", "operator:wikidata": "Q668687", "ref": "6841900001"}, "type": "Feature"}
{"geometry": {"coordinates": [-96.5111563, 40.597937361], "type": "Point"}, "id": "iJjp7qM2iAd10E8SyUvje-AXLv4=", "properties": {"@source_uri": "https://tools.usps.com/UspsToolsRestServices/rest/POLocator/findLocations", "@spider": "usps_collection_boxes", "addr:city": "PANAMA", "addr:country": "US", "addr:postcode": "68419", "addr:state": "NE", "addr:street_address": "302 LOCUST ST", "amenity": "post_box", "collection_times": "Mo-Fr 15:45; Sa 11:15", "indoor": "yes", "note": "ON 12/24 AND 12/31, THIS BOX MAY BE COLLECTED AS EARLY AS 12 NOON.", "nsi_id": "unitedstatespostalservice-a77078", "operator": "United States Postal Service", "operator:short": "USPS", "operator:type": "public", "operator:wikidata": "Q668687", "ref": "6841900002"}, "type": "Feature"}
{"geometry": {"coordinates": [-96.5111563, 40.597937361], "type": "Point"}, "id": "AnZQittnHcWzyica9aj1S3g89yc=", "properties": {"@source_uri": "https://tools.usps.com/UspsToolsRestServices/rest/POLocator/findLocations", "@spider": "usps_collection_boxes", "addr:city": "PANAMA", "addr:country": "US", "addr:postcode": "68419", "addr:state": "NE", "addr:street_address": "302 LOCUST ST", "amenity": "post_box", "collection_times": "Mo-Fr 15:45; Sa 11:15", "indoor": "yes", "note": "ON 12/24 AND 12/31, THIS BOX MAY BE COLLECTED AS EARLY AS 12 NOON.", "nsi_id": "unitedstatespostalservice-a77078", "operator": "United States Postal Service", "operator:short": "USPS", "operator:type": "public", "operator:wikidata": "Q668687", "ref": "6841900003"}, "type": "Feature"}
{"geometry": {"coordinates": [-96.153047833, 40.10965002], "type": "Point"}, "id": "4qmiBMz6sYaKG-uDXvJZiZ4V5Tk=", "properties": {"@source_uri": "https://tools.usps.com/UspsToolsRestServices/rest/POLocator/findLocations", "@spider": "usps_collection_boxes", "addr:city": "PAWNEE CITY", "addr:country": "US", "addr:postcode": "68420", "addr:state": "NE", "addr:street_address": "715 G ST", "amenity": "post_box", "collection_times": "Mo-Sa 13:55", "note": "ON 12/24 AND 12/31, THIS BOX MAY BE COLLECTED AS EARLY AS 12 NOON.", "nsi_id": "unitedstatespostalservice-a77078", "operator": "United States Postal Service", "operator:short": "USPS", "operator:type": "public", "operator:wikidata": "Q668687", "ref": "6842000001"}, "type": "Feature"}
{"geometry": {"coordinates": [-96.153047833, 40.10965002], "type": "Point"}, "id": "36QOhKVCs1yQiNCxcC-cuhSa3Fo=", "properties": {"@source_uri": "https://tools.usps.com/UspsToolsRestServices/rest/POLocator/findLocations", "@spider": "usps_collection_boxes", "addr:city": "PAWNEE CITY", "addr:country": "US", "addr:postcode": "68420", "addr:state": "NE", "addr:street_address": "715 G ST", "amenity": "post_box", "collection_times": "Mo-Fr 13:55; Sa 10:30", "indoor": "yes", "note": "ON 12/24 AND 12/31, THIS BOX MAY BE COLLECTED AS EARLY AS 12 NOON.", "nsi_id": "unitedstatespostalservice-a77078", "operator": "United States Postal Service", "operator:short": "USPS", "operator:type": "public", "operator:wikidata": "Q668687", "ref": "6842000003"}, "type": "Feature"}
{"geometry": {"coordinates": [-96.152976563, 40.110102671], "type": "Point"}, "id": "FdGDPE_yjkWfr7hU1rYNDrJ5lJs=", "properties": {"@source_uri": "https://tools.usps.com/UspsToolsRestServices/rest/POLocator/findLocations", "@spider": "usps_collection_boxes", "addr:city": "PAWNEE CITY", "addr:country": "US", "addr:postcode": "68420", "addr:state": "NE", "addr:street_address": "730 G ST", "amenity": "post_box", "collection_times": "Mo-Sa 13:55", "note": "ON 12/24 AND 12/31, THIS BOX MAY BE COLLECTED AS EARLY AS 12 NOON.", "nsi_id": "unitedstatespostalservice-a77078", "operator": "United States Postal Service", "operator:short": "USPS", "operator:type": "public", "operator:wikidata": "Q668687", "ref": "6842000004"}, "type": "Feature"}
{"geometry": {"coordinates": [-96.153047833, 40.10965002], "type": "Point"}, "id": "rTVtI8Nk36f6-nZa1aO98OfTnT4=", "properties": {"@source_uri": "https://tools.usps.com/UspsToolsRestServices/rest/POLocator/findLocations", "@spider": "usps_collection_boxes", "addr:city": "PAWNEE CITY", "addr:country": "US", "addr:postcode": "68420", "addr:state": "NE", "addr:street_address": "715 G ST", "amenity": "post_box", "collection_times": "Mo-Fr 13:55; Sa 10:30", "indoor": "yes", "note": "ON 12/24 AND 12/31, THIS BOX MAY BE COLLECTED AS EARLY AS 12 NOON.", "nsi_id": "unitedstatespostalservice-a77078", "operator": "United States Postal Service", "operator:short": "USPS", "operator:type": "public", "operator:wikidata": "Q668687", "ref": "6842000005"}, "type": "Feature"}
{"geometry": {"coordinates": [-96.153047833, 40.10965002], "type": "Point"}, "id": "ac4sr-IT1Go2oYPOuBR_yr1Kbv8=", "properties": {"@source_uri": "https://tools.usps.com/UspsToolsRestServices/rest/POLocator/findLocations", "@spider": "usps_collection_boxes", "addr:city": "PAWNEE CITY", "addr:country": "US", "addr:postcode": "68420", "addr:state": "NE", "addr:street_address": "715 G ST", "amenity": "post_box", "collection_times": "Mo-Fr 13:55; Sa 10:30", "indoor": "yes", "note": "ON 12/24 AND 12/31, THIS BOX MAY BE COLLECTED AS EARLY AS 12 NOON.", "nsi_id": "unitedstatespostalservice-a77078", "operator": "United States Postal Service", "operator:short": "USPS", "operator:type": "public", "operator:wikidata": "Q668687", "ref": "6842000006"}, "type": "Feature"}
{"geometry": {"coordinates": [-95.730606417, 40.482108754], "type": "Point"}, "id": "iofuIscPl63hTv_YOkpSWwuLRLQ=", "properties": {"@source_uri": "https://tools.usps.com/UspsToolsRestServices/rest/POLocator/findLocations", "@spider": "usps_collection_boxes", "addr:city": "PERU", "addr:country": "US", "addr:postcode": "68421", "addr:state": "NE", "addr:street_address": "609 5TH ST", "amenity": "post_box", "collection_times": "Mo-Sa 14:25", "note": "ON 12/24 AND 12/31, THIS BOX MAY BE COLLECTED AS EARLY AS 12 NOON.", "nsi_id": "unitedstatespostalservice-a77078", "operator": "United States Postal Service", "operator:short": "USPS", "operator:type": "public", "operator:wikidata": "Q668687", "ref": "6842100001"}, "type": "Feature"}
{"geometry": {"coordinates": [-95.730606417, 40.482108754], "type": "Point"}, "id": "EJAhf_utERgF9Mok9EbwlnOTgZE=", "properties": {"@source_uri": "https://tools.usps.com/UspsToolsRestServices/rest/POLocator/findLocations", "@spider": "usps_collection_boxes", "addr:city": "PERU", "addr:country": "US", "addr:postcode": "68421", "addr:state": "NE", "addr:street_address": "609 5TH ST", "amenity": "post_box", "collection_times": "Mo-Fr 11:45; Sa 10:00", "indoor": "yes", "nsi_id": "unitedstatespostalservice-a77078", "operator": "United States Postal Service", "operator:short": "USPS", "operator:type": "public", "operator:wikidata": "Q668687", "ref": "6842100002"}, "type": "Feature"}
{"geometry": {"coordinates": [-95.730606417, 40.482108754], "type": "Point"}, "id": "3UEHsgPki7Bz6-6kM66w-ftVbHs=", "properties": {"@source_uri": "https://tools.usps.com/UspsToolsRestServices/rest/POLocator/findLocations", "@spider": "usps_collection_boxes", "addr:city": "PERU", "addr:country": "US", "addr:postcode": "68421", "addr:state": "NE", "addr:street_address": "609 5TH ST", "amenity": "post_box", "collection_times": "Mo-Fr 11:45; Sa 10:00", "indoor": "yes", "nsi_id": "unitedstatespostalservice-a77078", "operator": "United States Postal Service", "operator:short": "USPS", "operator:type": "public", "operator:wikidata": "Q668687", "ref": "6842100003"}, "type": "Feature"}
{"geometry": {"coordinates": [-96.727320013, 40.378557023], "type": "Point"}, "id": "BpvLx0DhUSIL_B0T0hQpVU3-ysI=", "properties": {"@source_uri": "https://tools.usps.com/UspsToolsRestServices/rest/POLocator/findLocations", "@spider": "usps_collection_boxes", "addr:city": "PICKRELL", "addr:country": "US", "addr:postcode": "68422", "addr:state": "NE", "addr:street_address": "222 AUSTIN ST", "amenity": "post_box", "collection_times": "Mo-Sa 15:45", "note": "ON 12/24 AND 12/31, THIS BOX MAY BE COLLECTED AS EARLY AS 12 NOON.", "nsi_id": "unitedstatespostalservice-a77078", "operator": "United States Postal Service", "operator:short": "USPS", "operator:type": "public", "operator:wikidata": "Q668687", "ref": "6842200001"}, "type": "Feature"}
{"geometry": {"coordinates": [-96.727320013, 40.378557023], "type": "Point"}, "id": "2hAMDjWaUY0_xiXJgrRPT191aLw=", "properties": {"@source_uri": "https://tools.usps.com/UspsToolsRestServices/rest/POLocator/findLocations", "@spider": "usps_collection_boxes", "addr:city": "PICKRELL", "addr:country": "US", "addr:postcode": "68422", "addr:state": "NE", "addr:street_address": "222 AUSTIN ST", "amenity": "post_box", "collection_times": "Mo-Fr 12:00; Sa 09:15", "indoor": "yes", "nsi_id": "unitedstatespostalservice-a77078", "operator": "United States Postal Service", "operator:short": "USPS", "operator:type": "public", "operator:wikidata": "Q668687", "ref": "6842200002"}, "type": "Feature"}
{"geometry": {"coordinates": [-96.727320013, 40.378557023], "type": "Point"}, "id": "P8YhRBTikP9hDZd2686zTKIckFQ=", "properties": {"@source_uri": "https://tools.usps.com/UspsToolsRestServices/rest/POLocator/findLocations", "@spider": "usps_collection_boxes", "addr:city": "PICKRELL", "addr:country": "US", "addr:postcode": "68422", "addr:state": "NE", "addr:street_address": "222 AUSTIN ST", "amenity": "post_box", "collection_times": "Mo-Fr 12:00; Sa 09:15", "indoor": "yes", "nsi_id": "unitedstatespostalservice-a77078", "operator": "United States Postal Service", "operator:short": "USPS", "operator:type": "public", "operator:wikidata": "Q668687", "ref": "6842200003"}, "type": "Feature"}
{"geometry": {"coordinates": [-96.935199243, 40.791042671], "type": "Point"}, "id": "mlQdR6Pc064p-4xUes7bQiVr7fc=", "properties": {"@source_uri": "https://tools.usps.com/UspsToolsRestServices/rest/POLocator/findLocations", "@spider": "usps_collection_boxes", "addr:city": "PLEASANT DALE", "addr:country": "US", "addr:postcode": "68423", "addr:state": "NE", "addr:street_address": "206 ASH ST", "amenity": "post_box", "collection_times": "Mo-Fr 20:15", "note": "ON 12/24 AND 12/31, THIS BOX MAY BE COLLECTED AS EARLY AS 12 NOON.", "nsi_id": "unitedstatespostalservice-a77078", "operator": "United States Postal Service", "operator:short": "USPS", "operator:type": "public", "operator:wikidata": "Q668687", "ref": "6842300001"}, "type": "Feature"}
{"geometry": {"coordinates": [-96.935199243, 40.791042671], "type": "Point"}, "id": "wzDTcuRA4qhYnc2qIciZJp3qTuU=", "properties": {"@source_uri": "https://tools.usps.com/UspsToolsRestServices/rest/POLocator/findLocations", "@spider": "usps_collection_boxes", "addr:city": "PLEASANT DALE", "addr:country": "US", "addr:postcode": "68423", "addr:state": "NE", "addr:street_address": "206 ASH ST", "amenity": "post_box", "collection_times": "Mo-Fr 11:15; Sa 08:30", "indoor": "yes", "nsi_id": "unitedstatespostalservice-a77078", "operator": "United States Postal Service", "operator:short": "USPS", "operator:type": "public", "operator:wikidata": "Q668687", "ref": "6842300002"}, "type": "Feature"}
{"geometry": {"coordinates": [-96.935199243, 40.791042671], "type": "Point"}, "id": "gf5g-UHIDDnFyN7bX8K7f6Fuxpg=", "properties": {"@source_uri": "https://tools.usps.com/UspsToolsRestServices/rest/POLocator/findLocations", "@spider": "usps_collection_boxes", "addr:city": "PLEASANT DALE", "addr:country": "US", "addr:postcode": "68423", "addr:state": "NE", "addr:street_address": "206 ASH ST", "amenity": "post_box", "collection_times": "Mo-Fr 11:15; Sa 08:30", "indoor": "yes", "nsi_id": "unitedstatespostalservice-a77078", "operator": "United States Postal Service", "operator:short": "USPS", "operator:type": "public", "operator:wikidata": "Q668687", "ref": "6842300003"}, "type": "Feature"}
{"geometry": {"coordinates": [-96.987883165, 40.302997536], "type": "Point"}, "id": "LZIX222WzcaMoUA_E8SQuEl1MTM=", "properties": {"@source_uri": "https://tools.usps.com/UspsToolsRestServices/rest/POLocator/findLocations", "@spider": "usps_collection_boxes", "addr:city": "PLYMOUTH", "addr:country": "US", "addr:postcode": "68424", "addr:state": "NE", "addr:street_address": "321 E MAIN ST", "amenity": "post_box", "collection_times": "Mo-Fr 11:45; Sa 09:30", "nsi_id": "unitedstatespostalservice-a77078", "operator": "United States Postal Service", "operator:short": "USPS", "operator:type": "public", "operator:wikidata": "Q668687", "ref": "6842400001"}, "type": "Feature"}
{"geometry": {"coordinates": [-96.987883165, 40.302997536], "type": "Point"}, "id": "UX7OsKrX6nWnwiqkXFOMnQvvXb4=", "properties": {"@source_uri": "https://tools.usps.com/UspsToolsRestServices/rest/POLocator/findLocations", "@spider": "usps_collection_boxes", "addr:city": "PLYMOUTH", "addr:country": "US", "addr:postcode": "68424", "addr:state": "NE", "addr:street_address": "321 E MAIN ST", "amenity": "post_box", "collection_times": "Mo-Fr 11:45", "indoor": "yes", "nsi_id": "unitedstatespostalservice-a77078", "operator": "United States Postal Service", "operator:short": "USPS", "operator:type": "public", "operator:wikidata": "Q668687", "ref": "6842400002"}, "type": "Feature"}
{"geometry": {"coordinates": [-96.987883165, 40.302997536], "type": "Point"}, "id": "fD5CEplBK8ucNUR2FGuDFHLOfeo=", "properties": {"@source_uri": "https://tools.usps.com/UspsToolsRestServices/rest/POLocator/findLocations", "@spider": "usps_collection_boxes", "addr:city": "PLYMOUTH", "addr:country": "US", "addr:postcode": "68424", "addr:state": "NE", "addr:street_address": "321 E MAIN ST", "amenity": "post_box", "collection_times": "Mo-Fr 11:45", "indoor": "yes", "nsi_id": "unitedstatespostalservice-a77078", "operator": "United States Postal Service", "operator:short": "USPS", "operator:type": "public", "operator:wikidata": "Q668687", "ref": "6842400003"}, "type": "Feature"}
{"geometry": {"coordinates": [-96.719574963, 40.95598414], "type": "Point"}, "id": "Rew17y5styulsrzT_1pvBohOk9M=", "properties": {"@source_uri": "https://tools.usps.com/UspsToolsRestServices/rest/POLocator/findLocations", "@spider": "usps_collection_boxes", "addr:city": "RAYMOND", "addr:country": "US", "addr:postcode": "68428", "addr:state": "NE", "addr:street_address": "14700 N 1ST ST", "amenity": "post_box", "collection_times": "Mo-Fr 10:45; Sa 09:15", "nsi_id": "unitedstatespostalservice-a77078", "operator": "United States Postal Service", "operator:short": "USPS", "operator:type": "public", "operator:wikidata": "Q668687", "ref": "6842800001"}, "type": "Feature"}
{"geometry": {"coordinates": [-96.719574963, 40.95598414], "type": "Point"}, "id": "yMCaagDnod-d0auqrvGJz1FbbPo=", "properties": {"@source_uri": "https://tools.usps.com/UspsToolsRestServices/rest/POLocator/findLocations", "@spider": "usps_collection_boxes", "addr:city": "RAYMOND", "addr:country": "US", "addr:postcode": "68428", "addr:state": "NE", "addr:street_address": "14700 N 1ST ST", "amenity": "post_box", "collection_times": "Mo-Fr 10:45; Sa 09:15", "indoor": "yes", "nsi_id": "unitedstatespostalservice-a77078", "operator": "United States Postal Service", "operator:short": "USPS", "operator:type": "public", "operator:wikidata": "Q668687", "ref": "6842800002"}, "type": "Feature"}
{"geometry": {"coordinates": [-96.719574963, 40.95598414], "type": "Point"}, "id": "jk4LTHmO9FJCuBdRIhtrSSJBHG0=", "properties": {"@source_uri": "https://tools.usps.com/UspsToolsRestServices/rest/POLocator/findLocations", "@spider": "usps_collection_boxes", "addr:city": "RAYMOND", "addr:country": "US", "addr:postcode": "68428", "addr:state": "NE", "addr:street_address": "14700 N 1ST ST", "amenity": "post_box", "collection_times": "Mo-Fr 10:45; Sa 09:15", "indoor": "yes", "nsi_id": "unitedstatespostalservice-a77078", "operator": "United States Postal Service", "operator:short": "USPS", "operator:type": "public", "operator:wikidata": "Q668687", "ref": "6842800003"}, "type": "Feature"}
{"geometry": {"coordinates": [-97.335605617, 40.059468], "type": "Point"}, "id": "ksnSID0VPkWMrPCTj3XIHDOvmoY=", "properties": {"@source_uri": "https://tools.usps.com/UspsToolsRestServices/rest/POLocator/findLocations", "@spider": "usps_collection_boxes", "addr:city": "REYNOLDS", "addr:country": "US", "addr:postcode": "68429", "addr:state": "NE", "addr:street_address": "128 COMMERCIAL ST", "amenity": "post_box", "collection_times": "Mo-Sa 14:50", "note": "ON 12/24 AND 12/31, THIS BOX MAY BE COLLECTED AS EARLY AS 12 NOON.", "nsi_id": "unitedstatespostalservice-a77078", "operator": "United States Postal Service", "operator:short": "USPS", "operator:type": "public", "operator:wikidata": "Q668687", "ref": "6842900001"}, "type": "Feature"}
{"geometry": {"coordinates": [-96.6623304446, 40.6575095115], "type": "Point"}, "id": "qHVXYhgtN54LlCLTJSUdIT4SUXY=", "properties": {"@source_uri": "https://tools.usps.com/UspsToolsRestServices/rest/POLocator/findLocations", "@spider": "usps_collection_boxes", "addr:city": "ROCA", "addr:country": "US", "addr:postcode": "68430", "addr:state": "NE", "addr:street_address": "4200 MAIN ST", "amenity": "post_box", "collection_times": "Mo-Fr 10:45; Sa 09:15", "nsi_id": "unitedstatespostalservice-a77078", "operator": "United States Postal Service", "operator:short": "USPS", "operator:type": "public", "operator:wikidata": "Q668687", "ref": "6843000001"}, "type": "Feature"}
{"geometry": {"coordinates": [-96.662330445, 40.657509512], "type": "Point"}, "id": "EUyfKG41JUKzx9qZQCJNQN6DCI8=", "properties": {"@source_uri": "https://tools.usps.com/UspsToolsRestServices/rest/POLocator/findLocations", "@spider": "usps_collection_boxes", "addr:city": "ROCA", "addr:country": "US", "addr:postcode": "68430", "addr:state": "NE", "addr:street_address": "4200 MAIN ST", "amenity": "post_box", "collection_times": "Mo-Fr 11:00; Sa 09:15", "indoor": "yes", "nsi_id": "unitedstatespostalservice-a77078", "operator": "United States Postal Service", "operator:short": "USPS", "operator:type": "public", "operator:wikidata": "Q668687", "ref": "6843000002"}, "type": "Feature"}
{"geometry": {"coordinates": [-96.662330445, 40.657509512], "type": "Point"}, "id": "R28FKJfjsekypAXjpmJyNxUeryc=", "properties": {"@source_uri": "https://tools.usps.com/UspsToolsRestServices/rest/POLocator/findLocations", "@spider": "usps_collection_boxes", "addr:city": "ROCA", "addr:country": "US", "addr:postcode": "68430", "addr:state": "NE", "addr:street_address": "4200 MAIN ST", "amenity": "post_box", "collection_times": "Mo-Fr 11:00; Sa 09:15", "indoor": "yes", "nsi_id": "unitedstatespostalservice-a77078", "operator": "United States Postal Service", "operator:short": "USPS", "operator:type": "public", "operator:wikidata": "Q668687", "ref": "6843000003"}, "type": "Feature"}
{"geometry": {"coordinates": [-95.4284803, 40.046162665], "type": "Point"}, "id": "kybT5A1G12XU_py98BD5IV52iF4=", "properties": {"@source_uri": "https://tools.usps.com/UspsToolsRestServices/rest/POLocator/findLocations", "@spider": "usps_collection_boxes", "addr:city": "RULO", "addr:country": "US", "addr:postcode": "68431", "addr:state": "NE", "addr:street_address": "125 S 1ST ST", "amenity": "post_box", "collection_times": "Mo-Sa 17:00", "note": "ON 12/24 AND 12/31, THIS BOX MAY BE COLLECTED AS EARLY AS 12 NOON.", "nsi_id": "unitedstatespostalservice-a77078", "operator": "United States Postal Service", "operator:short": "USPS", "operator:type": "public", "operator:wikidata": "Q668687", "ref": "6843100001"}, "type": "Feature"}
{"geometry": {"coordinates": [-97.09187419, 40.909796948], "type": "Point"}, "id": "kw2Sgcj719zWIRXBixsjBshzI3U=", "properties": {"@source_uri": "https://tools.usps.com/UspsToolsRestServices/rest/POLocator/findLocations", "@spider": "usps_collection_boxes", "addr:city": "SEWARD", "addr:country": "US", "addr:postcode": "68434", "addr:state": "NE", "addr:street_address": "250 N COLUMBIA AVE", "amenity": "post_box", "collection_times": "Mo-Fr 12:00", "nsi_id": "unitedstatespostalservice-a77078", "operator": "United States Postal Service", "operator:short": "USPS", "operator:type": "public", "operator:wikidata": "Q668687", "ref": "6843400005"}, "type": "Feature"}
{"geometry": {"coordinates": [-97.098191528, 40.906882521], "type": "Point"}, "id": "bx1tjpaxqMxhfoDpSOXRKECjvtI=", "properties": {"@source_uri": "https://tools.usps.com/UspsToolsRestServices/rest/POLocator/findLocations", "@spider": "usps_collection_boxes", "addr:city": "SEWARD", "addr:country": "US", "addr:postcode": "68434", "addr:state": "NE", "addr:street_address": "507 MAIN ST", "amenity": "post_box", "collection_times": "Mo-Sa 17:00", "note": "ON 12/24 AND 12/31, THIS BOX MAY BE COLLECTED AS EARLY AS 12 NOON.", "nsi_id": "unitedstatespostalservice-a77078", "operator": "United States Postal Service", "operator:short": "USPS", "operator:type": "public", "operator:wikidata": "Q668687", "ref": "6843400008"}, "type": "Feature"}
{"geometry": {"coordinates": [-97.098191528, 40.906882521], "type": "Point"}, "id": "LXgjut87SeLjpiQv8V4tndreUyg=", "properties": {"@source_uri": "https://tools.usps.com/UspsToolsRestServices/rest/POLocator/findLocations", "@spider": "usps_collection_boxes", "addr:city": "SEWARD", "addr:country": "US", "addr:postcode": "68434", "addr:state": "NE", "addr:street_address": "507 MAIN ST", "amenity": "post_box", "collection_times": "Mo-Fr 14:55; Sa 11:30", "indoor": "yes", "note": "ON 12/24 AND 12/31, THIS BOX MAY BE COLLECTED AS EARLY AS 12 NOON.", "nsi_id": "unitedstatespostalservice-a77078", "operator": "United States Postal Service", "operator:short": "USPS", "operator:type": "public", "operator:wikidata": "Q668687", "ref": "6843400010"}, "type": "Feature"}
{"geometry": {"coordinates": [-97.098191528, 40.906882521], "type": "Point"}, "id": "TCEZSjfJRqPqAhMOQ5bF6cELfG0=", "properties": {"@source_uri": "https://tools.usps.com/UspsToolsRestServices/rest/POLocator/findLocations", "@spider": "usps_collection_boxes", "addr:city": "SEWARD", "addr:country": "US", "addr:postcode": "68434", "addr:state": "NE", "addr:street_address": "507 MAIN ST", "amenity": "post_box", "collection_times": "Mo-Fr 14:55; Sa 11:30", "indoor": "yes", "note": "ON 12/24 AND 12/31, THIS BOX MAY BE COLLECTED AS EARLY AS 12 NOON.", "nsi_id": "unitedstatespostalservice-a77078", "operator": "United States Postal Service", "operator:short": "USPS", "operator:type": "public", "operator:wikidata": "Q668687", "ref": "6843400011"}, "type": "Feature"}
{"geometry": {"coordinates": [-97.723193975, 40.41644291], "type": "Point"}, "id": "oEwrX0NLLvq5oe7MFTUE9I74Rr4=", "properties": {"@source_uri": "https://tools.usps.com/UspsToolsRestServices/rest/POLocator/findLocations", "@spider": "usps_collection_boxes", "addr:city": "SHICKLEY", "addr:country": "US", "addr:postcode": "68436", "addr:state": "NE", "addr:street_address": "206 N MARKET ST", "amenity": "post_box", "collection_times": "Mo-Fr 14:15; Sa 08:30", "note": "ON 12/24 AND 12/31, THIS BOX MAY BE COLLECTED AS EARLY AS 12 NOON.", "nsi_id": "unitedstatespostalservice-a77078", "operator": "United States Postal Service", "operator:short": "USPS", "operator:type": "public", "operator:wikidata": "Q668687", "ref": "6843600001"}, "type": "Feature"}
{"geometry": {"coordinates": [-97.723193975, 40.41644291], "type": "Point"}, "id": "JRyZvzZ0z17fxIhqRwdkQ8uOnHE=", "properties": {"@source_uri": "https://tools.usps.com/UspsToolsRestServices/rest/POLocator/findLocations", "@spider": "usps_collection_boxes", "addr:city": "SHICKLEY", "addr:country": "US", "addr:postcode": "68436", "addr:state": "NE", "addr:street_address": "206 N MARKET ST", "amenity": "post_box", "collection_times": "Mo-Fr 14:15; Sa 08:45", "indoor": "yes", "note": "ON 12/24 AND 12/31, THIS BOX MAY BE COLLECTED AS EARLY AS 12 NOON.", "nsi_id": "unitedstatespostalservice-a77078", "operator": "United States Postal Service", "operator:short": "USPS", "operator:type": "public", "operator:wikidata": "Q668687", "ref": "6843600002"}, "type": "Feature"}
{"geometry": {"coordinates": [-97.723193975, 40.41644291], "type": "Point"}, "id": "T3nl2IYPUPKBs0TktQFhpXLuraE=", "properties": {"@source_uri": "https://tools.usps.com/UspsToolsRestServices/rest/POLocator/findLocations", "@spider": "usps_collection_boxes", "addr:city": "SHICKLEY", "addr:country": "US", "addr:postcode": "68436", "addr:state": "NE", "addr:street_address": "206 N MARKET ST", "amenity": "post_box", "collection_times": "Mo-Fr 14:15; Sa 08:45", "indoor": "yes", "note": "ON 12/24 AND 12/31, THIS BOX MAY BE COLLECTED AS EARLY AS 12 NOON.", "nsi_id": "unitedstatespostalservice-a77078", "operator": "United States Postal Service", "operator:short": "USPS", "operator:type": "public", "operator:wikidata": "Q668687", "ref": "6843600003"}, "type": "Feature"}
{"geometry": {"coordinates": [-95.682917867, 40.236213883], "type": "Point"}, "id": "rJBE9LL7m2LoOtZLEgjlL6tk6qs=", "properties": {"@source_uri": "https://tools.usps.com/UspsToolsRestServices/rest/POLocator/findLocations", "@spider": "usps_collection_boxes", "addr:city": "SHUBERT", "addr:country": "US", "addr:postcode": "68437", "addr:state": "NE", "addr:street_address": "401 MAIN ST", "amenity": "post_box", "collection_times": "Mo-Sa 13:35", "note": "ON 12/24 AND 12/31, THIS BOX MAY BE COLLECTED AS EARLY AS 12 NOON.", "nsi_id": "unitedstatespostalservice-a77078", "operator": "United States Postal Service", "operator:short": "USPS", "operator:type": "public", "operator:wikidata": "Q668687", "ref": "6843700001"}, "type": "Feature"}
{"geometry": {"coordinates": [-95.682917867, 40.236213883], "type": "Point"}, "id": "qnWLebH3eQucWVOIIUk6M0KEBjM=", "properties": {"@source_uri": "https://tools.usps.com/UspsToolsRestServices/rest/POLocator/findLocations", "@spider": "usps_collection_boxes", "addr:city": "SHUBERT", "addr:country": "US", "addr:postcode": "68437", "addr:state": "NE", "addr:street_address": "401 MAIN ST", "amenity": "post_box", "collection_times": "Mo-Fr 13:35; Sa 12:20", "indoor": "yes", "note": "ON 12/24 AND 12/31, THIS BOX MAY BE COLLECTED AS EARLY AS 12 NOON.", "nsi_id": "unitedstatespostalservice-a77078", "operator": "United States Postal Service", "operator:short": "USPS", "operator:type": "public", "operator:wikidata": "Q668687", "ref": "6843700002"}, "type": "Feature"}
{"geometry": {"coordinates": [-95.682917867, 40.236213883], "type": "Point"}, "id": "k_gdKPU2ted3jAooSzqnL2IHRAM=", "properties": {"@source_uri": "https://tools.usps.com/UspsToolsRestServices/rest/POLocator/findLocations", "@spider": "usps_collection_boxes", "addr:city": "SHUBERT", "addr:country": "US", "addr:postcode": "68437", "addr:state": "NE", "addr:street_address": "401 MAIN ST", "amenity": "post_box", "collection_times": "Mo-Fr 13:35; Sa 12:20", "indoor": "yes", "note": "ON 12/24 AND 12/31, THIS BOX MAY BE COLLECTED AS EARLY AS 12 NOON.", "nsi_id": "unitedstatespostalservice-a77078", "operator": "United States Postal Service", "operator:short": "USPS", "operator:type": "public", "operator:wikidata": "Q668687", "ref": "6843700003"}, "type": "Feature"}
{"geometry": {"coordinates": [-96.74483624, 40.625775335], "type": "Point"}, "id": "JAGWq6xTRBFiz1V3W599qX25E1A=", "properties": {"@source_uri": "https://tools.usps.com/UspsToolsRestServices/rest/POLocator/findLocations", "@spider": "usps_collection_boxes", "addr:city": "SPRAGUE", "addr:country": "US", "addr:postcode": "68438", "addr:state": "NE", "addr:street_address": "18905 MARKET ST", "amenity": "post_box", "collection_times": "Mo-Sa 15:15", "note": "ON 12/24 AND 12/31, THIS BOX MAY BE COLLECTED AS EARLY AS 12 NOON.", "nsi_id": "unitedstatespostalservice-a77078", "operator": "United States Postal Service", "operator:short": "USPS", "operator:type": "public", "operator:wikidata": "Q668687", "ref": "6843800001"}, "type": "Feature"}
{"geometry": {"coordinates": [-96.74483624, 40.625775335], "type": "Point"}, "id": "4S3yRMJPTEhU0rolw9nl22-QT5M=", "properties": {"@source_uri": "https://tools.usps.com/UspsToolsRestServices/rest/POLocator/findLocations", "@spider": "usps_collection_boxes", "addr:city": "SPRAGUE", "addr:country": "US", "addr:postcode": "68438", "addr:state": "NE", "addr:street_address": "18905 MARKET ST", "amenity": "post_box", "collection_times": "Mo-Fr 11:45; Sa 10:00", "indoor": "yes", "nsi_id": "unitedstatespostalservice-a77078", "operator": "United States Postal Service", "operator:short": "USPS", "operator:type": "public", "operator:wikidata": "Q668687", "ref": "6843800002"}, "type": "Feature"}
{"geometry": {"coordinates": [-96.74483624, 40.625775335], "type": "Point"}, "id": "RboZ21_q4EvdKk-P9RMltJXJlXQ=", "properties": {"@source_uri": "https://tools.usps.com/UspsToolsRestServices/rest/POLocator/findLocations", "@spider": "usps_collection_boxes", "addr:city": "SPRAGUE", "addr:country": "US", "addr:postcode": "68438", "addr:state": "NE", "addr:street_address": "18905 MARKET ST", "amenity": "post_box", "collection_times": "Mo-Fr 11:45; Sa 10:00", "indoor": "yes", "nsi_id": "unitedstatespostalservice-a77078", "operator": "United States Postal Service", "operator:short": "USPS", "operator:type": "public", "operator:wikidata": "Q668687", "ref": "6843800003"}, "type": "Feature"}
{"geometry": {"coordinates": [-97.1716498324, 40.9742765188], "type": "Point"}, "id": "HYmtM_IithDo9ovMBPcSsdTPCtM=", "properties": {"@source_uri": "https://tools.usps.com/UspsToolsRestServices/rest/POLocator/findLocations", "@spider": "usps_collection_boxes", "addr:city": "STAPLEHURST", "addr:country": "US", "addr:postcode": "68439", "addr:state": "NE", "addr:street_address": "390 A ST", "amenity": "post_box", "collection_times": "Mo-Sa 13:35", "note": "ON 12/24 AND 12/31, THIS BOX MAY BE COLLECTED AS EARLY AS 12 NOON.", "nsi_id": "unitedstatespostalservice-a77078", "operator": "United States Postal Service", "operator:short": "USPS", "operator:type": "public", "operator:wikidata": "Q668687", "ref": "6843900001"}, "type": "Feature"}
{"geometry": {"coordinates": [-97.1716498324, 40.9742765188], "type": "Point"}, "id": "rl1HY7UM4FYw4n1xpZuuWgUrKew=", "properties": {"@source_uri": "https://tools.usps.com/UspsToolsRestServices/rest/POLocator/findLocations", "@spider": "usps_collection_boxes", "addr:city": "STAPLEHURST", "addr:country": "US", "addr:postcode": "68439", "addr:state": "NE", "addr:street_address": "390 A ST", "amenity": "post_box", "collection_times": "Mo-Fr 13:35; Sa 11:00", "indoor": "yes", "note": "ON 12/24 AND 12/31, THIS BOX MAY BE COLLECTED AS EARLY AS 12 NOON.", "nsi_id": "unitedstatespostalservice-a77078", "operator": "United States Postal Service", "operator:short": "USPS", "operator:type": "public", "operator:wikidata": "Q668687", "ref": "6843900002"}, "type": "Feature"}
{"geometry": {"coordinates": [-97.1716498324, 40.9742765188], "type": "Point"}, "id": "6pQb9-3k96XpuUpSqPBaOjfmDJc=", "properties": {"@source_uri": "https://tools.usps.com/UspsToolsRestServices/rest/POLocator/findLocations", "@spider": "usps_collection_boxes", "addr:city": "STAPLEHURST", "addr:country": "US", "addr:postcode": "68439", "addr:state": "NE", "addr:street_address": "390 A ST", "amenity": "post_box", "collection_times": "Mo-Fr 13:35; Sa 11:00", "indoor": "yes", "note": "ON 12/24 AND 12/31, THIS BOX MAY BE COLLECTED AS EARLY AS 12 NOON.", "nsi_id": "unitedstatespostalservice-a77078", "operator": "United States Postal Service", "operator:short": "USPS", "operator:type": "public", "operator:wikidata": "Q668687", "ref": "6843900003"}, "type": "Feature"}
{"geometry": {"coordinates": [-97.0265205, 40.037692472], "type": "Point"}, "id": "3yk5FsPUW4aGKYUtT2UjpDemC1o=", "properties": {"@source_uri": "https://tools.usps.com/UspsToolsRestServices/rest/POLocator/findLocations", "@spider": "usps_collection_boxes", "addr:city": "STEELE CITY", "addr:country": "US", "addr:postcode": "68440", "addr:state": "NE", "addr:street_address": "201 W MAIN ST", "amenity": "post_box", "collection_times": "Mo-Sa 14:50", "note": "ON 12/24 AND 12/31, THIS BOX MAY BE COLLECTED AS EARLY AS 12 NOON.", "nsi_id": "unitedstatespostalservice-a77078", "operator": "United States Postal Service", "operator:short": "USPS", "operator:type": "public", "operator:wikidata": "Q668687", "ref": "6844000001"}, "type": "Feature"}
{"geometry": {"coordinates": [-97.0265205, 40.037692472], "type": "Point"}, "id": "bWL8-NjxEuWJSL8M3FGz2TYAMHw=", "properties": {"@source_uri": "https://tools.usps.com/UspsToolsRestServices/rest/POLocator/findLocations", "@spider": "usps_collection_boxes", "addr:city": "STEELE CITY", "addr:country": "US", "addr:postcode": "68440", "addr:state": "NE", "addr:street_address": "201 W MAIN ST", "amenity": "post_box", "collection_times": "Mo-Fr 11:45; Sa 08:30", "indoor": "yes", "nsi_id": "unitedstatespostalservice-a77078", "operator": "United States Postal Service", "operator:short": "USPS", "operator:type": "public", "operator:wikidata": "Q668687", "ref": "6844000002"}, "type": "Feature"}
{"geometry": {"coordinates": [-96.23497478, 40.206448478], "type": "Point"}, "id": "y2DkqsIUkSqMVCgyFcaeUUO-Up4=", "properties": {"@source_uri": "https://tools.usps.com/UspsToolsRestServices/rest/POLocator/findLocations", "@spider": "usps_collection_boxes", "addr:city": "STEINAUER", "addr:country": "US", "addr:postcode": "68441", "addr:state": "NE", "addr:street_address": "602 2ND ST", "amenity": "post_box", "collection_times": "Mo-Sa 14:15", "note": "ON 12/24 AND 12/31, THIS BOX MAY BE COLLECTED AS EARLY AS 12 NOON.", "nsi_id": "unitedstatespostalservice-a77078", "operator": "United States Postal Service", "operator:short": "USPS", "operator:type": "public", "operator:wikidata": "Q668687", "ref": "6844100000"}, "type": "Feature"}
{"geometry": {"coordinates": [-95.773501009, 40.22939161], "type": "Point"}, "id": "sy1ABxOuRJYgYaXVeu0FsTaM9LE=", "properties": {"@source_uri": "https://tools.usps.com/UspsToolsRestServices/rest/POLocator/findLocations", "@spider": "usps_collection_boxes", "addr:city": "STELLA", "addr:country": "US", "addr:postcode": "68442", "addr:state": "NE", "addr:street_address": "107 N MAIN ST", "amenity": "post_box", "collection_times": "Mo-Sa 13:20", "note": "ON 12/24 AND 12/31, THIS BOX MAY BE COLLECTED AS EARLY AS 12 NOON.", "nsi_id": "unitedstatespostalservice-a77078", "operator": "United States Postal Service", "operator:short": "USPS", "operator:type": "public", "operator:wikidata": "Q668687", "ref": "6844200001"}, "type": "Feature"}
{"geometry": {"coordinates": [-95.773501009, 40.22939161], "type": "Point"}, "id": "hHoQNOuk4No-IOrv4f4cZtzQGsc=", "properties": {"@source_uri": "https://tools.usps.com/UspsToolsRestServices/rest/POLocator/findLocations", "@spider": "usps_collection_boxes", "addr:city": "STELLA", "addr:country": "US", "addr:postcode": "68442", "addr:state": "NE", "addr:street_address": "107 N MAIN ST", "amenity": "post_box", "collection_times": "Mo-Fr 12:45; Sa 12:20", "indoor": "yes", "note": "ON 12/24 AND 12/31, THIS BOX MAY BE COLLECTED AS EARLY AS 12 NOON.", "nsi_id": "unitedstatespostalservice-a77078", "operator": "United States Postal Service", "operator:short": "USPS", "operator:type": "public", "operator:wikidata": "Q668687", "ref": "6844200002"}, "type": "Feature"}
{"geometry": {"coordinates": [-95.773501009, 40.22939161], "type": "Point"}, "id": "Q9qIbDrhyv1px2Xtti1qQ1WoWIg=", "properties": {"@source_uri": "https://tools.usps.com/UspsToolsRestServices/rest/POLocator/findLocations", "@spider": "usps_collection_boxes", "addr:city": "STELLA", "addr:country": "US", "addr:postcode": "68442", "addr:state": "NE", "addr:street_address": "107 N MAIN ST", "amenity": "post_box", "collection_times": "Mo-Fr 12:45; Sa 12:20", "indoor": "yes", "note": "ON 12/24 AND 12/31, THIS BOX MAY BE COLLECTED AS EARLY AS 12 NOON.", "nsi_id": "unitedstatespostalservice-a77078", "operator": "United States Postal Service", "operator:short": "USPS", "operator:type": "public", "operator:wikidata": "Q668687", "ref": "6844200003"}, "type": "Feature"}
{"geometry": {"coordinates": [-96.376833168, 40.458876477], "type": "Point"}, "id": "pRUR9czB_0T7LpTwUJTBQyJv-fY=", "properties": {"@source_uri": "https://tools.usps.com/UspsToolsRestServices/rest/POLocator/findLocations", "@spider": "usps_collection_boxes", "addr:city": "STERLING", "addr:country": "US", "addr:postcode": "68443", "addr:state": "NE", "addr:street_address": "155 BROADWAY ST", "amenity": "post_box", "collection_times": "Mo-Fr 15:30; Sa 09:15", "note": "ON 12/24 AND 12/31, THIS BOX MAY BE COLLECTED AS EARLY AS 12 NOON.", "nsi_id": "unitedstatespostalservice-a77078", "operator": "United States Postal Service", "operator:short": "USPS", "operator:type": "public", "operator:wikidata": "Q668687", "ref": "6844300001"}, "type": "Feature"}
{"geometry": {"coordinates": [-97.079706558, 40.378959671], "type": "Point"}, "id": "UZCjIJv9IoMTLH2txSfIoW5EirQ=", "properties": {"@source_uri": "https://tools.usps.com/UspsToolsRestServices/rest/POLocator/findLocations", "@spider": "usps_collection_boxes", "addr:city": "SWANTON", "addr:country": "US", "addr:postcode": "68445", "addr:state": "NE", "addr:street_address": "107 MAIN ST", "amenity": "post_box", "collection_times": "Mo-Fr 12:45; Sa 12:25", "note": "ON 12/24 AND 12/31, THIS BOX MAY BE COLLECTED AS EARLY AS 12 NOON.", "nsi_id": "unitedstatespostalservice-a77078", "operator": "United States Postal Service", "operator:short": "USPS", "operator:type": "public", "operator:wikidata": "Q668687", "ref": "6844500001"}, "type": "Feature"}
{"geometry": {"coordinates": [-97.079706558, 40.378959671], "type": "Point"}, "id": "nDhsDiY65uCaJSCFSAZMEQqtVeI=", "properties": {"@source_uri": "https://tools.usps.com/UspsToolsRestServices/rest/POLocator/findLocations", "@spider": "usps_collection_boxes", "addr:city": "SWANTON", "addr:country": "US", "addr:postcode": "68445", "addr:state": "NE", "addr:street_address": "107 MAIN ST", "amenity": "post_box", "collection_times": "Mo-Fr 10:45; Sa 10:15", "indoor": "yes", "nsi_id": "unitedstatespostalservice-a77078", "operator": "United States Postal Service", "operator:short": "USPS", "operator:type": "public", "operator:wikidata": "Q668687", "ref": "6844500002"}, "type": "Feature"}
{"geometry": {"coordinates": [-97.079706558, 40.378959671], "type": "Point"}, "id": "2Pkl7Vy5YAPTLptOzjK-2q5KXTA=", "properties": {"@source_uri": "https://tools.usps.com/UspsToolsRestServices/rest/POLocator/findLocations", "@spider": "usps_collection_boxes", "addr:city": "SWANTON", "addr:country": "US", "addr:postcode": "68445", "addr:state": "NE", "addr:street_address": "107 MAIN ST", "amenity": "post_box", "collection_times": "Mo-Fr 10:45; Sa 10:15", "indoor": "yes", "nsi_id": "unitedstatespostalservice-a77078", "operator": "United States Postal Service", "operator:short": "USPS", "operator:type": "public", "operator:wikidata": "Q668687", "ref": "6844500003"}, "type": "Feature"}
{"geometry": {"coordinates": [-96.183863771, 40.657823246], "type": "Point"}, "id": "jED5BzSqIQLgGChdkd0LhArR76c=", "properties": {"@source_uri": "https://tools.usps.com/UspsToolsRestServices/rest/POLocator/findLocations", "@spider": "usps_collection_boxes", "addr:city": "SYRACUSE", "addr:country": "US", "addr:postcode": "68446", "addr:state": "NE", "addr:street_address": "578 PLUM ST", "amenity": "post_box", "collection_times": "Mo-Sa 15:20", "note": "ON 12/24 AND 12/31, THIS BOX MAY BE COLLECTED AS EARLY AS 12 NOON.", "nsi_id": "unitedstatespostalservice-a77078", "operator": "United States Postal Service", "operator:short": "USPS", "operator:type": "public", "operator:wikidata": "Q668687", "ref": "6844600001"}, "type": "Feature"}
{"geometry": {"coordinates": [-96.183863771, 40.657823246], "type": "Point"}, "id": "eaCLaDa_hxBbmVXsltXRT7m0x5I=", "properties": {"@source_uri": "https://tools.usps.com/UspsToolsRestServices/rest/POLocator/findLocations", "@spider": "usps_collection_boxes", "addr:city": "SYRACUSE", "addr:country": "US", "addr:postcode": "68446", "addr:state": "NE", "addr:street_address": "578 PLUM ST", "amenity": "post_box", "collection_times": "Mo-Fr 15:00; Sa 09:45", "indoor": "yes", "note": "ON 12/24 AND 12/31, THIS BOX MAY BE COLLECTED AS EARLY AS 12 NOON.", "nsi_id": "unitedstatespostalservice-a77078", "operator": "United States Postal Service", "operator:short": "USPS", "operator:type": "public", "operator:wikidata": "Q668687", "ref": "6844600003"}, "type": "Feature"}
{"geometry": {"coordinates": [-96.183863771, 40.657823246], "type": "Point"}, "id": "FUwIodh69c3zVQNUiu7uIBwyIRU=", "properties": {"@source_uri": "https://tools.usps.com/UspsToolsRestServices/rest/POLocator/findLocations", "@spider": "usps_collection_boxes", "addr:city": "SYRACUSE", "addr:country": "US", "addr:postcode": "68446", "addr:state": "NE", "addr:street_address": "578 PLUM ST", "amenity": "post_box", "collection_times": "Mo-Fr 15:00; Sa 09:45", "indoor": "yes", "note": "ON 12/24 AND 12/31, THIS BOX MAY BE COLLECTED AS EARLY AS 12 NOON.", "nsi_id": "unitedstatespostalservice-a77078", "operator": "United States Postal Service", "operator:short": "USPS", "operator:type": "public", "operator:wikidata": "Q668687", "ref": "6844600004"}, "type": "Feature"}
{"geometry": {"coordinates": [-96.0954525, 40.178305543], "type": "Point"}, "id": "zKCBSZXoD0_wfqE2N0rDx1JylME=", "properties": {"@source_uri": "https://tools.usps.com/UspsToolsRestServices/rest/POLocator/findLocations", "@spider": "usps_collection_boxes", "addr:city": "TABLE ROCK", "addr:country": "US", "addr:postcode": "68447", "addr:state": "NE", "addr:street_address": "416 LUZERNE ST", "amenity": "post_box", "collection_times": "Mo-Fr 14:10; Sa 14:00", "note": "ON 12/24 AND 12/31, THIS BOX MAY BE COLLECTED AS EARLY AS 12 NOON.", "nsi_id": "unitedstatespostalservice-a77078", "operator": "United States Postal Service", "operator:short": "USPS", "operator:type": "public", "operator:wikidata": "Q668687", "ref": "6844700001"}, "type": "Feature"}
{"geometry": {"coordinates": [-96.0954525, 40.178305543], "type": "Point"}, "id": "bpPrWMjleRuxB0dC4KC8O7SZA3E=", "properties": {"@source_uri": "https://tools.usps.com/UspsToolsRestServices/rest/POLocator/findLocations", "@spider": "usps_collection_boxes", "addr:city": "TABLE ROCK", "addr:country": "US", "addr:postcode": "68447", "addr:state": "NE", "addr:street_address": "416 LUZERNE ST", "amenity": "post_box", "collection_times": "Mo-Fr 12:45; Sa 11:00", "indoor": "yes", "note": "ON 12/24 AND 12/31, THIS BOX MAY BE COLLECTED AS EARLY AS 12 NOON.", "nsi_id": "unitedstatespostalservice-a77078", "operator": "United States Postal Service", "operator:short": "USPS", "operator:type": "public", "operator:wikidata": "Q668687", "ref": "6844700002"}, "type": "Feature"}
{"geometry": {"coordinates": [-96.0954525, 40.178305543], "type": "Point"}, "id": "nnEeWfu0S_hvfBOvbw8p9h3nf4I=", "properties": {"@source_uri": "https://tools.usps.com/UspsToolsRestServices/rest/POLocator/findLocations", "@spider": "usps_collection_boxes", "addr:city": "TABLE ROCK", "addr:country": "US", "addr:postcode": "68447", "addr:state": "NE", "addr:street_address": "416 LUZERNE ST", "amenity": "post_box", "collection_times": "Mo-Fr 12:45; Sa 11:00", "indoor": "yes", "note": "ON 12/24 AND 12/31, THIS BOX MAY BE COLLECTED AS EARLY AS 12 NOON.", "nsi_id": "unitedstatespostalservice-a77078", "operator": "United States Postal Service", "operator:short": "USPS", "operator:type": "public", "operator:wikidata": "Q668687", "ref": "6844700003"}, "type": "Feature"}
{"geometry": {"coordinates": [-96.022029338, 40.531181807], "type": "Point"}, "id": "5iZaiyx9dJRIvxDJ9STlVFQNTDQ=", "properties": {"@source_uri": "https://tools.usps.com/UspsToolsRestServices/rest/POLocator/findLocations", "@spider": "usps_collection_boxes", "addr:city": "TALMAGE", "addr:country": "US", "addr:postcode": "68448", "addr:state": "NE", "addr:street_address": "303 4TH ST", "amenity": "post_box", "collection_times": "Mo-Sa 14:00", "note": "ON 12/24 AND 12/31, THIS BOX MAY BE COLLECTED AS EARLY AS 12 NOON.", "nsi_id": "unitedstatespostalservice-a77078", "operator": "United States Postal Service", "operator:short": "USPS", "operator:type": "public", "operator:wikidata": "Q668687", "ref": "6844800001"}, "type": "Feature"}
{"geometry": {"coordinates": [-96.022029338, 40.531181807], "type": "Point"}, "id": "Hj_3Y_aNwGVn1rcw1RhpyTfCjQ8=", "properties": {"@source_uri": "https://tools.usps.com/UspsToolsRestServices/rest/POLocator/findLocations", "@spider": "usps_collection_boxes", "addr:city": "TALMAGE", "addr:country": "US", "addr:postcode": "68448", "addr:state": "NE", "addr:street_address": "303 4TH ST", "amenity": "post_box", "collection_times": "Mo-Fr 11:45; Sa 09:00", "indoor": "yes", "nsi_id": "unitedstatespostalservice-a77078", "operator": "United States Postal Service", "operator:short": "USPS", "operator:type": "public", "operator:wikidata": "Q668687", "ref": "6844800003"}, "type": "Feature"}
{"geometry": {"coordinates": [-96.193110693, 40.368169527], "type": "Point"}, "id": "Qt2fVE_SaXD-za_OjtW2YAt2T9g=", "properties": {"@source_uri": "https://tools.usps.com/UspsToolsRestServices/rest/POLocator/findLocations", "@spider": "usps_collection_boxes", "addr:city": "TECUMSEH", "addr:country": "US", "addr:postcode": "68450", "addr:state": "NE", "addr:street_address": "484 BROADWAY ST", "amenity": "post_box", "collection_times": "Mo-Fr 15:10; Sa 15:00", "note": "ON 12/24 AND 12/31, THIS BOX MAY BE COLLECTED AS EARLY AS 12 NOON.", "nsi_id": "unitedstatespostalservice-a77078", "operator": "United States Postal Service", "operator:short": "USPS", "operator:type": "public", "operator:wikidata": "Q668687", "ref": "6845000001"}, "type": "Feature"}
{"geometry": {"coordinates": [-96.193110693, 40.368169527], "type": "Point"}, "id": "LpwYP_SjXXqAg34GRXU1WJhp7kg=", "properties": {"@source_uri": "https://tools.usps.com/UspsToolsRestServices/rest/POLocator/findLocations", "@spider": "usps_collection_boxes", "addr:city": "TECUMSEH", "addr:country": "US", "addr:postcode": "68450", "addr:state": "NE", "addr:street_address": "484 BROADWAY ST", "amenity": "post_box", "collection_times": "Mo-Fr 15:00; Sa 10:30", "indoor": "yes", "note": "ON 12/24 AND 12/31, THIS BOX MAY BE COLLECTED AS EARLY AS 12 NOON.", "nsi_id": "unitedstatespostalservice-a77078", "operator": "United States Postal Service", "operator:short": "USPS", "operator:type": "public", "operator:wikidata": "Q668687", "ref": "6845000004"}, "type": "Feature"}
{"geometry": {"coordinates": [-96.193110693, 40.368169527], "type": "Point"}, "id": "2oMcnlQfJNe1WJesZGFDEvag394=", "properties": {"@source_uri": "https://tools.usps.com/UspsToolsRestServices/rest/POLocator/findLocations", "@spider": "usps_collection_boxes", "addr:city": "TECUMSEH", "addr:country": "US", "addr:postcode": "68450", "addr:state": "NE", "addr:street_address": "484 BROADWAY ST", "amenity": "post_box", "collection_times": "Mo-Fr 15:00; Sa 10:30", "indoor": "yes", "note": "ON 12/24 AND 12/31, THIS BOX MAY BE COLLECTED AS EARLY AS 12 NOON.", "nsi_id": "unitedstatespostalservice-a77078", "operator": "United States Postal Service", "operator:short": "USPS", "operator:type": "public", "operator:wikidata": "Q668687", "ref": "6845000005"}, "type": "Feature"}
{"geometry": {"coordinates": [-97.336176551, 40.417983335], "type": "Point"}, "id": "5rnagpsTXty3KBO0UgXts8Q0RFw=", "properties": {"@source_uri": "https://tools.usps.com/UspsToolsRestServices/rest/POLocator/findLocations", "@spider": "usps_collection_boxes", "addr:city": "TOBIAS", "addr:country": "US", "addr:postcode": "68453", "addr:state": "NE", "addr:street_address": "100 MAIN ST", "amenity": "post_box", "collection_times": "Mo-Fr 14:35; Sa 14:15", "note": "ON 12/24 AND 12/31, THIS BOX MAY BE COLLECTED AS EARLY AS 12 NOON.", "nsi_id": "unitedstatespostalservice-a77078", "operator": "United States Postal Service", "operator:short": "USPS", "operator:type": "public", "operator:wikidata": "Q668687", "ref": "6845300001"}, "type": "Feature"}
{"geometry": {"coordinates": [-97.336176551, 40.417983335], "type": "Point"}, "id": "_mWMfZvvu6v95SvyVgJGC9MezAo=", "properties": {"@source_uri": "https://tools.usps.com/UspsToolsRestServices/rest/POLocator/findLocations", "@spider": "usps_collection_boxes", "addr:city": "TOBIAS", "addr:country": "US", "addr:postcode": "68453", "addr:state": "NE", "addr:street_address": "100 MAIN ST", "amenity": "post_box", "collection_times": "Mo-Fr 12:45; Sa 10:45", "indoor": "yes", "note": "ON 12/24 AND 12/31, THIS BOX MAY BE COLLECTED AS EARLY AS 12 NOON.", "nsi_id": "unitedstatespostalservice-a77078", "operator": "United States Postal Service", "operator:short": "USPS", "operator:type": "public", "operator:wikidata": "Q668687", "ref": "6845300002"}, "type": "Feature"}
{"geometry": {"coordinates": [-97.336176551, 40.417983335], "type": "Point"}, "id": "YMVR2AJbjSpr2iAO22Et5jB8FwI=", "properties": {"@source_uri": "https://tools.usps.com/UspsToolsRestServices/rest/POLocator/findLocations", "@spider": "usps_collection_boxes", "addr:city": "TOBIAS", "addr:country": "US", "addr:postcode": "68453", "addr:state": "NE", "addr:street_address": "100 N MAIN ST", "amenity": "post_box", "collection_times": "Mo-Fr 12:45; Sa 10:45", "indoor": "yes", "note": "ON 12/24 AND 12/31, THIS BOX MAY BE COLLECTED AS EARLY AS 12 NOON.", "nsi_id": "unitedstatespostalservice-a77078", "operator": "United States Postal Service", "operator:short": "USPS", "operator:type": "public", "operator:wikidata": "Q668687", "ref": "6845300003"}, "type": "Feature"}
{"geometry": {"coordinates": [-96.273114797, 40.681759406], "type": "Point"}, "id": "A1Ti2yfAWSMb0KXa44ldq5aQKls=", "properties": {"@source_uri": "https://tools.usps.com/UspsToolsRestServices/rest/POLocator/findLocations", "@spider": "usps_collection_boxes", "addr:city": "UNADILLA", "addr:country": "US", "addr:postcode": "68454", "addr:state": "NE", "addr:street_address": "315 MAIN ST", "amenity": "post_box", "collection_times": "Mo-Sa 15:40", "note": "ON 12/24 AND 12/31, THIS BOX MAY BE COLLECTED AS EARLY AS 12 NOON.", "nsi_id": "unitedstatespostalservice-a77078", "operator": "United States Postal Service", "operator:short": "USPS", "operator:type": "public", "operator:wikidata": "Q668687", "ref": "6845400001"}, "type": "Feature"}
{"geometry": {"coordinates": [-96.273114797, 40.681759406], "type": "Point"}, "id": "afTHAPdsj79gAbyT_faLmLpEJpg=", "properties": {"@source_uri": "https://tools.usps.com/UspsToolsRestServices/rest/POLocator/findLocations", "@spider": "usps_collection_boxes", "addr:city": "UNADILLA", "addr:country": "US", "addr:postcode": "68454", "addr:state": "NE", "addr:street_address": "315 MAIN ST", "amenity": "post_box", "collection_times": "Mo-Fr 11:45; Sa 08:45", "indoor": "yes", "nsi_id": "unitedstatespostalservice-a77078", "operator": "United States Postal Service", "operator:short": "USPS", "operator:type": "public", "operator:wikidata": "Q668687", "ref": "6845400002"}, "type": "Feature"}
{"geometry": {"coordinates": [-96.273114797, 40.681759406], "type": "Point"}, "id": "2nYB3HkqtSOM0mxaD_OmpJLMkuA=", "properties": {"@source_uri": "https://tools.usps.com/UspsToolsRestServices/rest/POLocator/findLocations", "@spider": "usps_collection_boxes", "addr:city": "UNADILLA", "addr:country": "US", "addr:postcode": "68454", "addr:state": "NE", "addr:street_address": "315 MAIN ST", "amenity": "post_box", "collection_times": "Mo-Fr 11:45; Sa 08:45", "indoor": "yes", "nsi_id": "unitedstatespostalservice-a77078", "operator": "United States Postal Service", "operator:short": "USPS", "operator:type": "public", "operator:wikidata": "Q668687", "ref": "6845400003"}, "type": "Feature"}
{"geometry": {"coordinates": [-95.921882277, 40.813228521], "type": "Point"}, "id": "Ni9XlPgRAmCpJuYkHexiXuKIrpc=", "properties": {"@source_uri": "https://tools.usps.com/UspsToolsRestServices/rest/POLocator/findLocations", "@spider": "usps_collection_boxes", "addr:city": "UNION", "addr:country": "US", "addr:postcode": "68455", "addr:state": "NE", "addr:street_address": "129 MAIN ST", "amenity": "post_box", "collection_times": "Mo-Sa 13:30", "note": "ON 12/24 AND 12/31, THIS BOX MAY BE COLLECTED AS EARLY AS 12 NOON.", "nsi_id": "unitedstatespostalservice-a77078", "operator": "United States Postal Service", "operator:short": "USPS", "operator:type": "public", "operator:wikidata": "Q668687", "ref": "6845500001"}, "type": "Feature"}
{"geometry": {"coordinates": [-95.921882277, 40.813228521], "type": "Point"}, "id": "V2vVKlFpPXMiNmfhylgtextHvN4=", "properties": {"@source_uri": "https://tools.usps.com/UspsToolsRestServices/rest/POLocator/findLocations", "@spider": "usps_collection_boxes", "addr:city": "UNION", "addr:country": "US", "addr:postcode": "68455", "addr:state": "NE", "addr:street_address": "129 MAIN ST", "amenity": "post_box", "collection_times": "Mo-Fr 10:45; Sa 08:45", "indoor": "yes", "nsi_id": "unitedstatespostalservice-a77078", "operator": "United States Postal Service", "operator:short": "USPS", "operator:type": "public", "operator:wikidata": "Q668687", "ref": "6845500002"}, "type": "Feature"}
{"geometry": {"coordinates": [-95.921882277, 40.813228521], "type": "Point"}, "id": "xwfSBQi1Z-OQaPHjPowegHxPEUc=", "properties": {"@source_uri": "https://tools.usps.com/UspsToolsRestServices/rest/POLocator/findLocations", "@spider": "usps_collection_boxes", "addr:city": "UNION", "addr:country": "US", "addr:postcode": "68455", "addr:state": "NE", "addr:street_address": "129 MAIN ST", "amenity": "post_box", "collection_times": "Mo-Fr 10:45; Sa 08:45", "indoor": "yes", "nsi_id": "unitedstatespostalservice-a77078", "operator": "United States Postal Service", "operator:short": "USPS", "operator:type": "public", "operator:wikidata": "Q668687", "ref": "6845500003"}, "type": "Feature"}
{"geometry": {"coordinates": [-97.344787125, 40.895496754], "type": "Point"}, "id": "h2h7WrSljzdeG33Wdi4fiM-5nm8=", "properties": {"@source_uri": "https://tools.usps.com/UspsToolsRestServices/rest/POLocator/findLocations", "@spider": "usps_collection_boxes", "addr:city": "UTICA", "addr:country": "US", "addr:postcode": "68456", "addr:state": "NE", "addr:street_address": "740 D ST", "amenity": "post_box", "collection_times": "Mo-Sa 14:30", "note": "ON 12/24 AND 12/31, THIS BOX MAY BE COLLECTED AS EARLY AS 12 NOON.", "nsi_id": "unitedstatespostalservice-a77078", "operator": "United States Postal Service", "operator:short": "USPS", "operator:type": "public", "operator:wikidata": "Q668687", "ref": "6845600000"}, "type": "Feature"}
{"geometry": {"coordinates": [-97.344787125, 40.895496754], "type": "Point"}, "id": "w0yP000d0H0htjj3VS3wB7NxHXc=", "properties": {"@source_uri": "https://tools.usps.com/UspsToolsRestServices/rest/POLocator/findLocations", "@spider": "usps_collection_boxes", "addr:city": "UTICA", "addr:country": "US", "addr:postcode": "68456", "addr:state": "NE", "addr:street_address": "740 D ST", "amenity": "post_box", "collection_times": "Mo-Fr 13:45; Sa 09:00", "indoor": "yes", "note": "ON 12/24 AND 12/31, THIS BOX MAY BE COLLECTED AS EARLY AS 12 NOON.", "nsi_id": "unitedstatespostalservice-a77078", "operator": "United States Postal Service", "operator:short": "USPS", "operator:type": "public", "operator:wikidata": "Q668687", "ref": "6845600002"}, "type": "Feature"}
{"geometry": {"coordinates": [-97.344787125, 40.895496754], "type": "Point"}, "id": "nT9fZKB8gnnPKpSM-indoFHC7HU=", "properties": {"@source_uri": "https://tools.usps.com/UspsToolsRestServices/rest/POLocator/findLocations", "@spider": "usps_collection_boxes", "addr:city": "UTICA", "addr:country": "US", "addr:postcode": "68456", "addr:state": "NE", "addr:street_address": "740 D ST", "amenity": "post_box", "collection_times": "Mo-Fr 13:45; Sa 09:00", "indoor": "yes", "note": "ON 12/24 AND 12/31, THIS BOX MAY BE COLLECTED AS EARLY AS 12 NOON.", "nsi_id": "unitedstatespostalservice-a77078", "operator": "United States Postal Service", "operator:short": "USPS", "operator:type": "public", "operator:wikidata": "Q668687", "ref": "6845600003"}, "type": "Feature"}
{"geometry": {"coordinates": [-95.712797813, 40.148346938], "type": "Point"}, "id": "bSigIxHN1jEiqRSe3UKouY84lio=", "properties": {"@source_uri": "https://tools.usps.com/UspsToolsRestServices/rest/POLocator/findLocations", "@spider": "usps_collection_boxes", "addr:city": "VERDON", "addr:country": "US", "addr:postcode": "68457", "addr:state": "NE", "addr:street_address": "400 MAIN ST", "amenity": "post_box", "collection_times": "Mo-Sa 14:15", "note": "ON 12/24 AND 12/31, THIS BOX MAY BE COLLECTED AS EARLY AS 12 NOON.", "nsi_id": "unitedstatespostalservice-a77078", "operator": "United States Postal Service", "operator:short": "USPS", "operator:type": "public", "operator:wikidata": "Q668687", "ref": "6845700001"}, "type": "Feature"}
{"geometry": {"coordinates": [-95.712797813, 40.148346938], "type": "Point"}, "id": "A-UTMJ0VQQHdfL8Ak0POIr6-rYw=", "properties": {"@source_uri": "https://tools.usps.com/UspsToolsRestServices/rest/POLocator/findLocations", "@spider": "usps_collection_boxes", "addr:city": "VERDON", "addr:country": "US", "addr:postcode": "68457", "addr:state": "NE", "addr:street_address": "400 MAIN ST", "amenity": "post_box", "collection_times": "Mo-Sa 11:15", "indoor": "yes", "nsi_id": "unitedstatespostalservice-a77078", "operator": "United States Postal Service", "operator:short": "USPS", "operator:type": "public", "operator:wikidata": "Q668687", "ref": "6845700002"}, "type": "Feature"}
{"geometry": {"coordinates": [-95.712797813, 40.148346938], "type": "Point"}, "id": "rqyKNyvKvBqBJ3SsPmi2m8UgjTE=", "properties": {"@source_uri": "https://tools.usps.com/UspsToolsRestServices/rest/POLocator/findLocations", "@spider": "usps_collection_boxes", "addr:city": "VERDON", "addr:country": "US", "addr:postcode": "68457", "addr:state": "NE", "addr:street_address": "400 MAIN ST", "amenity": "post_box", "collection_times": "Mo-Sa 11:15", "indoor": "yes", "nsi_id": "unitedstatespostalservice-a77078", "operator": "United States Postal Service", "operator:short": "USPS", "operator:type": "public", "operator:wikidata": "Q668687", "ref": "6845700003"}, "type": "Feature"}
{"geometry": {"coordinates": [-97.46242222, 40.895079504], "type": "Point"}, "id": "VtnpDqwC2s6ru45cwDMtq6sHVsY=", "properties": {"@source_uri": "https://tools.usps.com/UspsToolsRestServices/rest/POLocator/findLocations", "@spider": "usps_collection_boxes", "addr:city": "WACO", "addr:country": "US", "addr:postcode": "68460", "addr:state": "NE", "addr:street_address": "401 MIDLAND ST", "amenity": "post_box", "collection_times": "Mo-Sa 14:10", "note": "ON 12/24 AND 12/31, THIS BOX MAY BE COLLECTED AS EARLY AS 12 NOON.", "nsi_id": "unitedstatespostalservice-a77078", "operator": "United States Postal Service", "operator:short": "USPS", "operator:type": "public", "operator:wikidata": "Q668687", "ref": "6846000001"}, "type": "Feature"}
{"geometry": {"coordinates": [-97.46242222, 40.895079504], "type": "Point"}, "id": "7jHOQAVRs4EO08qmwQAyR1teX90=", "properties": {"@source_uri": "https://tools.usps.com/UspsToolsRestServices/rest/POLocator/findLocations", "@spider": "usps_collection_boxes", "addr:city": "WACO", "addr:country": "US", "addr:postcode": "68460", "addr:state": "NE", "addr:street_address": "401 MIDLAND ST", "amenity": "post_box", "collection_times": "Mo-Fr 12:15; Sa 09:45", "indoor": "yes", "note": "ON 12/24 AND 12/31, THIS BOX MAY BE COLLECTED AS EARLY AS 12 NOON.", "nsi_id": "unitedstatespostalservice-a77078", "operator": "United States Postal Service", "operator:short": "USPS", "operator:type": "public", "operator:wikidata": "Q668687", "ref": "6846000003"}, "type": "Feature"}
{"geometry": {"coordinates": [-97.46242222, 40.895079504], "type": "Point"}, "id": "mpWeCrzTCtMkLGN0lDSQgZ4yGbE=", "properties": {"@source_uri": "https://tools.usps.com/UspsToolsRestServices/rest/POLocator/findLocations", "@spider": "usps_collection_boxes", "addr:city": "WACO", "addr:country": "US", "addr:postcode": "68460", "addr:state": "NE", "addr:street_address": "401 MIDLAND ST", "amenity": "post_box", "collection_times": "Mo-Fr 12:15; Sa 09:45", "indoor": "yes", "note": "ON 12/24 AND 12/31, THIS BOX MAY BE COLLECTED AS EARLY AS 12 NOON.", "nsi_id": "unitedstatespostalservice-a77078", "operator": "United States Postal Service", "operator:short": "USPS", "operator:type": "public", "operator:wikidata": "Q668687", "ref": "6846000004"}, "type": "Feature"}
{"geometry": {"coordinates": [-96.567797179, 40.795272472], "type": "Point"}, "id": "gic4dHWtAJ1SCtk0bWE8MO4CIDE=", "properties": {"@source_uri": "https://tools.usps.com/UspsToolsRestServices/rest/POLocator/findLocations", "@spider": "usps_collection_boxes", "addr:city": "WALTON", "addr:country": "US", "addr:postcode": "68461", "addr:state": "NE", "addr:street_address": "1500 S 112TH ST", "amenity": "post_box", "collection_times": "Mo-Sa 17:00", "note": "ON 12/24 AND 12/31, THIS BOX MAY BE COLLECTED AS EARLY AS 12 NOON.", "nsi_id": "unitedstatespostalservice-a77078", "operator": "United States Postal Service", "operator:short": "USPS", "operator:type": "public", "operator:wikidata": "Q668687", "ref": "6846100001"}, "type": "Feature"}
{"geometry": {"coordinates": [-96.567797179, 40.795272472], "type": "Point"}, "id": "CLTO7RK3IkG6sciWrnFX_pfVfts=", "properties": {"@source_uri": "https://tools.usps.com/UspsToolsRestServices/rest/POLocator/findLocations", "@spider": "usps_collection_boxes", "addr:city": "WALTON", "addr:country": "US", "addr:postcode": "68461", "addr:state": "NE", "addr:street_address": "1500 S 112TH ST", "amenity": "post_box", "collection_times": "Mo-Fr 13:45; Sa 12:30", "indoor": "yes", "note": "ON 12/24 AND 12/31, THIS BOX MAY BE COLLECTED AS EARLY AS 12 NOON.", "nsi_id": "unitedstatespostalservice-a77078", "operator": "United States Postal Service", "operator:short": "USPS", "operator:type": "public", "operator:wikidata": "Q668687", "ref": "6846100002"}, "type": "Feature"}
{"geometry": {"coordinates": [-96.567797179, 40.795272472], "type": "Point"}, "id": "quW2COC6uJjwYvnzM3j7gn-00gI=", "properties": {"@source_uri": "https://tools.usps.com/UspsToolsRestServices/rest/POLocator/findLocations", "@spider": "usps_collection_boxes", "addr:city": "WALTON", "addr:country": "US", "addr:postcode": "68461", "addr:state": "NE", "addr:street_address": "1500 S 112TH ST", "amenity": "post_box", "collection_times": "Mo-Fr 13:45; Sa 12:30", "indoor": "yes", "note": "ON 12/24 AND 12/31, THIS BOX MAY BE COLLECTED AS EARLY AS 12 NOON.", "nsi_id": "unitedstatespostalservice-a77078", "operator": "United States Postal Service", "operator:short": "USPS", "operator:type": "public", "operator:wikidata": "Q668687", "ref": "6846100003"}, "type": "Feature"}
{"geometry": {"coordinates": [-96.528286658, 40.918259923], "type": "Point"}, "id": "8ZrwGBEjKqs7v6riuofl5bCJ0hk=", "properties": {"@source_uri": "https://tools.usps.com/UspsToolsRestServices/rest/POLocator/findLocations", "@spider": "usps_collection_boxes", "addr:city": "WAVERLY", "addr:country": "US", "addr:postcode": "68462", "addr:state": "NE", "addr:street_address": "10850 N 142ND ST", "amenity": "post_box", "collection_times": "Mo-Sa 15:45", "note": "ON 12/24 AND 12/31, THIS BOX MAY BE COLLECTED AS EARLY AS 12 NOON.", "nsi_id": "unitedstatespostalservice-a77078", "operator": "United States Postal Service", "operator:short": "USPS", "operator:type": "public", "operator:wikidata": "Q668687", "ref": "6846200001"}, "type": "Feature"}
{"geometry": {"coordinates": [-96.528286658, 40.918259923], "type": "Point"}, "id": "btZQS4IWAHe2GYU5hT2A9QZr3bs=", "properties": {"@source_uri": "https://tools.usps.com/UspsToolsRestServices/rest/POLocator/findLocations", "@spider": "usps_collection_boxes", "addr:city": "WAVERLY", "addr:country": "US", "addr:postcode": "68462", "addr:state": "NE", "addr:street_address": "10850 N 142ND ST", "amenity": "post_box", "collection_times": "Mo-Fr 15:30; Sa 10:00", "indoor": "yes", "note": "ON 12/24 AND 12/31, THIS BOX MAY BE COLLECTED AS EARLY AS 12 NOON.", "nsi_id": "unitedstatespostalservice-a77078", "operator": "United States Postal Service", "operator:short": "USPS", "operator:type": "public", "operator:wikidata": "Q668687", "ref": "6846200003"}, "type": "Feature"}
{"geometry": {"coordinates": [-96.531821972, 40.9130409876], "type": "Point"}, "id": "XDsCsVW_IK2XWlkfnAmNdNzA-lg=", "properties": {"@source_uri": "https://tools.usps.com/UspsToolsRestServices/rest/POLocator/findLocations", "@spider": "usps_collection_boxes", "addr:city": "WAVERLY", "addr:country": "US", "addr:postcode": "68462", "addr:state": "NE", "addr:street_address": "13901 GUILDFORD ST", "amenity": "post_box", "collection_times": "Mo-Sa 10:45", "nsi_id": "unitedstatespostalservice-a77078", "operator": "United States Postal Service", "operator:short": "USPS", "operator:type": "public", "operator:wikidata": "Q668687", "ref": "6846200004"}, "type": "Feature"}
{"geometry": {"coordinates": [-96.528286658, 40.918259923], "type": "Point"}, "id": "vxJDgFIFRm50g_LKi0VkbBHNDU8=", "properties": {"@source_uri": "https://tools.usps.com/UspsToolsRestServices/rest/POLocator/findLocations", "@spider": "usps_collection_boxes", "addr:city": "WAVERLY", "addr:country": "US", "addr:postcode": "68462", "addr:state": "NE", "addr:street_address": "10850 N 142ND ST", "amenity": "post_box", "collection_times": "Mo-Fr 15:30; Sa 10:00", "indoor": "yes", "note": "ON 12/24 AND 12/31, THIS BOX MAY BE COLLECTED AS EARLY AS 12 NOON.", "nsi_id": "unitedstatespostalservice-a77078", "operator": "United States Postal Service", "operator:short": "USPS", "operator:type": "public", "operator:wikidata": "Q668687", "ref": "6846200005"}, "type": "Feature"}
{"geometry": {"coordinates": [-96.143547647, 40.870619246], "type": "Point"}, "id": "0mFQG69tmxDlmN8-cK2fCVVeoKs=", "properties": {"@source_uri": "https://tools.usps.com/UspsToolsRestServices/rest/POLocator/findLocations", "@spider": "usps_collection_boxes", "addr:city": "WEEPING WATER", "addr:country": "US", "addr:postcode": "68463", "addr:state": "NE", "addr:street_address": "107 N COMMERCIAL ST", "amenity": "post_box", "collection_times": "Mo-Sa 14:20", "note": "ON 12/24 AND 12/31, THIS BOX MAY BE COLLECTED AS EARLY AS 12 NOON.", "nsi_id": "unitedstatespostalservice-a77078", "operator": "United States Postal Service", "operator:short": "USPS", "operator:type": "public", "operator:wikidata": "Q668687", "ref": "6846300001"}, "type": "Feature"}
{"geometry": {"coordinates": [-96.143547647, 40.870619246], "type": "Point"}, "id": "8mZnofPh5JbfU5dJl77QPcIYOJI=", "properties": {"@source_uri": "https://tools.usps.com/UspsToolsRestServices/rest/POLocator/findLocations", "@spider": "usps_collection_boxes", "addr:city": "WEEPING WATER", "addr:country": "US", "addr:postcode": "68463", "addr:state": "NE", "addr:street_address": "107 N COMMERCIAL ST", "amenity": "post_box", "collection_times": "Mo-Fr 14:15; Sa 09:45", "indoor": "yes", "note": "ON 12/24 AND 12/31, THIS BOX MAY BE COLLECTED AS EARLY AS 12 NOON.", "nsi_id": "unitedstatespostalservice-a77078", "operator": "United States Postal Service", "operator:short": "USPS", "operator:type": "public", "operator:wikidata": "Q668687", "ref": "6846300002"}, "type": "Feature"}
{"geometry": {"coordinates": [-96.143547647, 40.870619246], "type": "Point"}, "id": "rMJE-JF7mcoK9VkK1RqX3wNE628=", "properties": {"@source_uri": "https://tools.usps.com/UspsToolsRestServices/rest/POLocator/findLocations", "@spider": "usps_collection_boxes", "addr:city": "WEEPING WATER", "addr:country": "US", "addr:postcode": "68463", "addr:state": "NE", "addr:street_address": "107 N COMMERCIAL ST", "amenity": "post_box", "collection_times": "Mo-Fr 14:15; Sa 09:45", "indoor": "yes", "note": "ON 12/24 AND 12/31, THIS BOX MAY BE COLLECTED AS EARLY AS 12 NOON.", "nsi_id": "unitedstatespostalservice-a77078", "operator": "United States Postal Service", "operator:short": "USPS", "operator:type": "public", "operator:wikidata": "Q668687", "ref": "6846300003"}, "type": "Feature"}
{"geometry": {"coordinates": [-97.197874384, 40.393682665], "type": "Point"}, "id": "1BOV_jr8BgAsd-6EhxjsMehPzpY=", "properties": {"@source_uri": "https://tools.usps.com/UspsToolsRestServices/rest/POLocator/findLocations", "@spider": "usps_collection_boxes", "addr:city": "WESTERN", "addr:country": "US", "addr:postcode": "68464", "addr:state": "NE", "addr:street_address": "100 N WEST AVE", "amenity": "post_box", "collection_times": "Mo-Fr 13:00; Sa 12:40", "note": "ON 12/24 AND 12/31, THIS BOX MAY BE COLLECTED AS EARLY AS 12 NOON.", "nsi_id": "unitedstatespostalservice-a77078", "operator": "United States Postal Service", "operator:short": "USPS", "operator:type": "public", "operator:wikidata": "Q668687", "ref": "6846400001"}, "type": "Feature"}
{"geometry": {"coordinates": [-97.197874384, 40.393682665], "type": "Point"}, "id": "edybyeNCV7KLGlHStCHnYeh38kU=", "properties": {"@source_uri": "https://tools.usps.com/UspsToolsRestServices/rest/POLocator/findLocations", "@spider": "usps_collection_boxes", "addr:city": "WESTERN", "addr:country": "US", "addr:postcode": "68464", "addr:state": "NE", "addr:street_address": "100 N WEST AVE", "amenity": "post_box", "collection_times": "Mo-Fr 11:45; Sa 10:00", "indoor": "yes", "nsi_id": "unitedstatespostalservice-a77078", "operator": "United States Postal Service", "operator:short": "USPS", "operator:type": "public", "operator:wikidata": "Q668687", "ref": "6846400002"}, "type": "Feature"}
{"geometry": {"coordinates": [-97.197874384, 40.393682665], "type": "Point"}, "id": "SvCj1cPEgF7puCIJXesLcjJ6HnE=", "properties": {"@source_uri": "https://tools.usps.com/UspsToolsRestServices/rest/POLocator/findLocations", "@spider": "usps_collection_boxes", "addr:city": "WESTERN", "addr:country": "US", "addr:postcode": "68464", "addr:state": "NE", "addr:street_address": "100 N WEST AVE", "amenity": "post_box", "collection_times": "Mo-Fr 11:45; Sa 10:00", "indoor": "yes", "nsi_id": "unitedstatespostalservice-a77078", "operator": "United States Postal Service", "operator:short": "USPS", "operator:type": "public", "operator:wikidata": "Q668687", "ref": "6846400003"}, "type": "Feature"}
{"geometry": {"coordinates": [-96.962800081, 40.481397512], "type": "Point"}, "id": "sB71fIzerKwB0LQehf2S8o5FSqA=", "properties": {"@source_uri": "https://tools.usps.com/UspsToolsRestServices/rest/POLocator/findLocations", "@spider": "usps_collection_boxes", "addr:city": "WILBER", "addr:country": "US", "addr:postcode": "68465", "addr:state": "NE", "addr:street_address": "224 W 3RD ST", "amenity": "post_box", "collection_times": "Mo-Sa 14:20", "note": "ON 12/24 AND 12/31, THIS BOX MAY BE COLLECTED AS EARLY AS 12 NOON.", "nsi_id": "unitedstatespostalservice-a77078", "operator": "United States Postal Service", "operator:short": "USPS", "operator:type": "public", "operator:wikidata": "Q668687", "ref": "6846500001"}, "type": "Feature"}
{"geometry": {"coordinates": [-96.962800081, 40.481397512], "type": "Point"}, "id": "SBgEQLF8rEZSsVIkMUGdRblwXro=", "properties": {"@source_uri": "https://tools.usps.com/UspsToolsRestServices/rest/POLocator/findLocations", "@spider": "usps_collection_boxes", "addr:city": "WILBER", "addr:country": "US", "addr:postcode": "68465", "addr:state": "NE", "addr:street_address": "224 W 3RD ST", "amenity": "post_box", "collection_times": "Mo-Fr 14:20; Sa 10:30", "indoor": "yes", "note": "ON 12/24 AND 12/31, THIS BOX MAY BE COLLECTED AS EARLY AS 12 NOON.", "nsi_id": "unitedstatespostalservice-a77078", "operator": "United States Postal Service", "operator:short": "USPS", "operator:type": "public", "operator:wikidata": "Q668687", "ref": "6846500002"}, "type": "Feature"}
{"geometry": {"coordinates": [-96.962800081, 40.481397512], "type": "Point"}, "id": "gOXewwn9AfJFOF91AnVAs98EI2Q=", "properties": {"@source_uri": "https://tools.usps.com/UspsToolsRestServices/rest/POLocator/findLocations", "@spider": "usps_collection_boxes", "addr:city": "WILBER", "addr:country": "US", "addr:postcode": "68465", "addr:state": "NE", "addr:street_address": "224 W 3RD ST", "amenity": "post_box", "collection_times": "Mo-Fr 14:20; Sa 10:30", "indoor": "yes", "note": "ON 12/24 AND 12/31, THIS BOX MAY BE COLLECTED AS EARLY AS 12 NOON.", "nsi_id": "unitedstatespostalservice-a77078", "operator": "United States Postal Service", "operator:short": "USPS", "operator:type": "public", "operator:wikidata": "Q668687", "ref": "6846500004"}, "type": "Feature"}
{"geometry": {"coordinates": [-96.663141, 40.121292532], "type": "Point"}, "id": "Ksh-jGby59ha4jaS5vHH7Fv9Px8=", "properties": {"@source_uri": "https://tools.usps.com/UspsToolsRestServices/rest/POLocator/findLocations", "@spider": "usps_collection_boxes", "addr:city": "WYMORE", "addr:country": "US", "addr:postcode": "68466", "addr:state": "NE", "addr:street_address": "119 W F ST", "amenity": "post_box", "collection_times": "Mo-Sa 14:40", "note": "ON 12/24 AND 12/31, THIS BOX MAY BE COLLECTED AS EARLY AS 12 NOON.", "nsi_id": "unitedstatespostalservice-a77078", "operator": "United States Postal Service", "operator:short": "USPS", "operator:type": "public", "operator:wikidata": "Q668687", "ref": "6846600007"}, "type": "Feature"}
{"geometry": {"coordinates": [-96.663141, 40.121292532], "type": "Point"}, "id": "Fwy-2ZFe_QAMOKH4TRdwvYZlz_A=", "properties": {"@source_uri": "https://tools.usps.com/UspsToolsRestServices/rest/POLocator/findLocations", "@spider": "usps_collection_boxes", "addr:city": "WYMORE", "addr:country": "US", "addr:postcode": "68466", "addr:state": "NE", "addr:street_address": "119 W F ST", "amenity": "post_box", "collection_times": "Mo-Fr 14:40; Sa 09:30", "indoor": "yes", "note": "ON 12/24 AND 12/31, THIS BOX MAY BE COLLECTED AS EARLY AS 12 NOON.", "nsi_id": "unitedstatespostalservice-a77078", "operator": "United States Postal Service", "operator:short": "USPS", "operator:type": "public", "operator:wikidata": "Q668687", "ref": "6846600008"}, "type": "Feature"}
{"geometry": {"coordinates": [-96.663141, 40.121292532], "type": "Point"}, "id": "RjFsO1PtfMBnSJcFbJlp232OnH0=", "properties": {"@source_uri": "https://tools.usps.com/UspsToolsRestServices/rest/POLocator/findLocations", "@spider": "usps_collection_boxes", "addr:city": "WYMORE", "addr:country": "US", "addr:postcode": "68466", "addr:state": "NE", "addr:street_address": "119 W F ST", "amenity": "post_box", "collection_times": "Mo-Fr 14:40; Sa 09:30", "indoor": "yes", "note": "ON 12/24 AND 12/31, THIS BOX MAY BE COLLECTED AS EARLY AS 12 NOON.", "nsi_id": "unitedstatespostalservice-a77078", "operator": "United States Postal Service", "operator:short": "USPS", "operator:type": "public", "operator:wikidata": "Q668687", "ref": "6846600009"}, "type": "Feature"}
{"geometry": {"coordinates": [-97.5933180086, 40.8278720085], "type": "Point"}, "id": "GyqHk7Y0H_liggwCp9C1I9Raow8=", "properties": {"@source_uri": "https://tools.usps.com/UspsToolsRestServices/rest/POLocator/findLocations", "@spider": "usps_collection_boxes", "addr:city": "YORK", "addr:country": "US", "addr:postcode": "68467", "addr:state": "NE", "addr:street_address": "101 E DAVID DR", "amenity": "post_box", "collection_times": "Mo-Sa 09:00", "nsi_id": "unitedstatespostalservice-a77078", "operator": "United States Postal Service", "operator:short": "USPS", "operator:type": "public", "operator:wikidata": "Q668687", "ref": "6846700011"}, "type": "Feature"}
{"geometry": {"coordinates": [-97.59303787, 40.86392737], "type": "Point"}, "id": "xhxP_mqYTT2dSgJJ7ngTEicJwzc=", "properties": {"@source_uri": "https://tools.usps.com/UspsToolsRestServices/rest/POLocator/findLocations", "@spider": "usps_collection_boxes", "addr:city": "YORK", "addr:country": "US", "addr:postcode": "68467", "addr:state": "NE", "addr:street_address": "301 N LINCOLN AVE", "amenity": "post_box", "collection_times": "Mo-Sa 10:45", "nsi_id": "unitedstatespostalservice-a77078", "operator": "United States Postal Service", "operator:short": "USPS", "operator:type": "public", "operator:wikidata": "Q668687", "ref": "6846700012"}, "type": "Feature"}
{"geometry": {"coordinates": [-97.593029316, 40.867056639], "type": "Point"}, "id": "w0zq0wP7KvsGNI2GZ07LXWZSFmk=", "properties": {"@source_uri": "https://tools.usps.com/UspsToolsRestServices/rest/POLocator/findLocations", "@spider": "usps_collection_boxes", "addr:city": "YORK", "addr:country": "US", "addr:postcode": "68467", "addr:state": "NE", "addr:street_address": "601 N LINCOLN AVE", "amenity": "post_box", "collection_times": "Mo-Sa 09:45", "nsi_id": "unitedstatespostalservice-a77078", "operator": "United States Postal Service", "operator:short": "USPS", "operator:type": "public", "operator:wikidata": "Q668687", "ref": "6846700013"}, "type": "Feature"}
{"geometry": {"coordinates": [-97.591766184, 40.867677], "type": "Point"}, "id": "APc3ycY2RkbdqQ7aiE3qY9yt9nc=", "properties": {"@source_uri": "https://tools.usps.com/UspsToolsRestServices/rest/POLocator/findLocations", "@spider": "usps_collection_boxes", "addr:city": "YORK", "addr:country": "US", "addr:postcode": "68467", "addr:state": "NE", "addr:street_address": "626 N GRANT AVE", "amenity": "post_box", "collection_times": "Mo-Sa 14:40", "note": "ON 12/24 AND 12/31, THIS BOX MAY BE COLLECTED AS EARLY AS 12 NOON.", "nsi_id": "unitedstatespostalservice-a77078", "operator": "United States Postal Service", "operator:short": "USPS", "operator:type": "public", "operator:wikidata": "Q668687", "ref": "6846700017"}, "type": "Feature"}
{"geometry": {"coordinates": [-97.597796263, 40.817780528], "type": "Point"}, "id": "6qs3QVSOYikmhCG7io1obt50bqI=", "properties": {"@source_uri": "https://tools.usps.com/UspsToolsRestServices/rest/POLocator/findLocations", "@spider": "usps_collection_boxes", "addr:city": "YORK", "addr:country": "US", "addr:postcode": "68467", "addr:state": "NE", "addr:street_address": "4700 S LINCOLN AVE", "amenity": "post_box", "collection_times": "Mo-Sa 09:00", "nsi_id": "unitedstatespostalservice-a77078", "operator": "United States Postal Service", "operator:short": "USPS", "operator:type": "public", "operator:wikidata": "Q668687", "ref": "6846700020"}, "type": "Feature"}
{"geometry": {"coordinates": [-97.591766184, 40.867677], "type": "Point"}, "id": "3Bq68A85dqYiEw-WexM336mywf4=", "properties": {"@source_uri": "https://tools.usps.com/UspsToolsRestServices/rest/POLocator/findLocations", "@spider": "usps_collection_boxes", "addr:city": "YORK", "addr:country": "US", "addr:postcode": "68467", "addr:state": "NE", "addr:street_address": "626 N GRANT AVE", "amenity": "post_box", "collection_times": "Mo-Fr 14:40; Sa 11:30", "indoor": "yes", "note": "ON 12/24 AND 12/31, THIS BOX MAY BE COLLECTED AS EARLY AS 12 NOON.", "nsi_id": "unitedstatespostalservice-a77078", "operator": "United States Postal Service", "operator:short": "USPS", "operator:type": "public", "operator:wikidata": "Q668687", "ref": "6846700021"}, "type": "Feature"}
{"geometry": {"coordinates": [-97.591766184, 40.867677], "type": "Point"}, "id": "9LUMurBs0d6S1W8TLXimHuS-JLI=", "properties": {"@source_uri": "https://tools.usps.com/UspsToolsRestServices/rest/POLocator/findLocations", "@spider": "usps_collection_boxes", "addr:city": "YORK", "addr:country": "US", "addr:postcode": "68467", "addr:state": "NE", "addr:street_address": "626 N GRANT AVE", "amenity": "post_box", "collection_times": "Mo-Fr 14:20; Sa 11:30", "indoor": "yes", "note": "ON 12/24 AND 12/31, THIS BOX MAY BE COLLECTED AS EARLY AS 12 NOON.", "nsi_id": "unitedstatespostalservice-a77078", "operator": "United States Postal Service", "operator:short": "USPS", "operator:type": "public", "operator:wikidata": "Q668687", "ref": "6846700022"}, "type": "Feature"}
