{"geometry": {"coordinates": [-96.710931, 40.8169984741], "type": "Point"}, "id": "iYzgoqCdELGMPRfL3UNIvhn3inw=", "properties": {"@spider": "usps_collection_boxes", "addr:city": "LINCOLN", "addr:country": "US", "addr:full": "700 R ST", "addr:postcode": "68501", "addr:state": "NE", "brand": "USPS", "collection_times": "Mo-Sa 18:00", "name": "USPS COLLECTION BOX - EXPRESS", "note": "ON 12/24 AND 12/31, THIS BOX MAY BE COLLECTED AS EARLY AS 12 NOON.", "ref": "6850100000"}, "type": "Feature"}
{"geometry": {"coordinates": [-96.710931, 40.8169984741], "type": "Point"}, "id": "0dXgZdmPQ7IlBOiIQ511aTkBG_M=", "properties": {"@spider": "usps_collection_boxes", "addr:city": "LINCOLN", "addr:country": "US", "addr:full": "700 R ST", "addr:postcode": "68501", "addr:state": "NE", "brand": "USPS", "collection_times": "Mo-Sa 18:00", "name": "USPS COLLECTION BOX - BLUE BOX", "note": "ON 12/24 AND 12/31, THIS BOX MAY BE COLLECTED AS EARLY AS 12 NOON.", "ref": "6850100001"}, "type": "Feature"}
{"geometry": {"coordinates": [-96.710742, 40.81699247], "type": "Point"}, "id": "gP5NZK6yGzG5JOQM2IU6wq-4H6c=", "properties": {"@spider": "usps_collection_boxes", "addr:city": "LINCOLN", "addr:country": "US", "addr:full": "700 R ST", "addr:postcode": "68501", "addr:state": "NE", "brand": "USPS", "collection_times": "Mo-Sa 18:00", "name": "USPS COLLECTION BOX - PO LOBBY", "note": "ON 12/24 AND 12/31, THIS BOX MAY BE COLLECTED AS EARLY AS 12 NOON.", "ref": "6850100003"}, "type": "Feature"}
{"geometry": {"coordinates": [-96.710742, 40.81699247], "type": "Point"}, "id": "426PuK68VVlJTdJGugI2WY2wzTM=", "properties": {"@spider": "usps_collection_boxes", "addr:city": "LINCOLN", "addr:country": "US", "addr:full": "700 R ST", "addr:postcode": "68501", "addr:state": "NE", "brand": "USPS", "collection_times": "Mo-Sa 18:00", "name": "USPS COLLECTION BOX - EXPRESS", "note": "ON 12/24 AND 12/31, THIS BOX MAY BE COLLECTED AS EARLY AS 12 NOON.", "ref": "6850100004"}, "type": "Feature"}
{"geometry": {"coordinates": [-96.710742, 40.81699247], "type": "Point"}, "id": "jusEOS4U216q22Up1i8JO22iHOA=", "properties": {"@spider": "usps_collection_boxes", "addr:city": "LINCOLN", "addr:country": "US", "addr:full": "700 R ST", "addr:postcode": "68501", "addr:state": "NE", "brand": "USPS", "collection_times": "Mo-Sa 18:00", "name": "USPS COLLECTION BOX - APC", "note": "ON 12/24 AND 12/31, THIS BOX MAY BE COLLECTED AS EARLY AS 12 NOON.", "ref": "6850100005"}, "type": "Feature"}
{"geometry": {"coordinates": [-96.710742, 40.81699247], "type": "Point"}, "id": "sXXV_fsm6RJ2Ujl0LoCnkHGkGsI=", "properties": {"@spider": "usps_collection_boxes", "addr:city": "LINCOLN", "addr:country": "US", "addr:full": "700 R ST", "addr:postcode": "68501", "addr:state": "NE", "brand": "USPS", "collection_times": "Mo-Sa 18:00", "name": "USPS COLLECTION BOX - PO LOBBY", "note": "ON 12/24 AND 12/31, THIS BOX MAY BE COLLECTED AS EARLY AS 12 NOON.", "ref": "6850100006"}, "type": "Feature"}
{"geometry": {"coordinates": [-96.710742, 40.81699247], "type": "Point"}, "id": "xSKqdGQpTIoFbR1gOAgjkLcKNW0=", "properties": {"@spider": "usps_collection_boxes", "addr:city": "LINCOLN", "addr:country": "US", "addr:full": "700 R ST", "addr:postcode": "68501", "addr:state": "NE", "brand": "USPS", "collection_times": "Mo-Fr 18:00; Sa 14:00", "name": "USPS COLLECTION BOX - PO LOBBY", "note": "ON 12/24 AND 12/31, THIS BOX MAY BE COLLECTED AS EARLY AS 12 NOON.", "ref": "6850100008"}, "type": "Feature"}
{"geometry": {"coordinates": [-96.684893285, 40.790054001], "type": "Point"}, "id": "8KD31eZpBhXssMcMk5wCC1xxrzQ=", "properties": {"@spider": "usps_collection_boxes", "addr:city": "LINCOLN", "addr:country": "US", "addr:full": "2241 SHERIDAN BLVD", "addr:postcode": "68502", "addr:state": "NE", "brand": "USPS", "collection_times": "Mo-Sa 10:15", "name": "USPS COLLECTION BOX - BLUE BOX", "ref": "6850200004"}, "type": "Feature"}
{"geometry": {"coordinates": [-96.675609371, 40.791065629], "type": "Point"}, "id": "yyG1a7UcxB2HVSGqMZZDnyQW_7w=", "properties": {"@spider": "usps_collection_boxes", "addr:city": "LINCOLN", "addr:country": "US", "addr:full": "2121 WINTHROP RD", "addr:postcode": "68502", "addr:state": "NE", "brand": "USPS", "collection_times": "Mo-Fr 15:00", "name": "USPS COLLECTION BOX - BLUE BOX", "note": "ON 12/24 AND 12/31, THIS BOX MAY BE COLLECTED AS EARLY AS 12 NOON.", "ref": "6850200007"}, "type": "Feature"}
{"geometry": {"coordinates": [-96.680024193, 40.772209531], "type": "Point"}, "id": "me0ziIi4fPDvvbMO3Nzh9lPo72M=", "properties": {"@spider": "usps_collection_boxes", "addr:city": "LINCOLN", "addr:country": "US", "addr:full": "2800 WOODS BLVD", "addr:postcode": "68502", "addr:state": "NE", "brand": "USPS", "collection_times": "Mo-Sa 10:00", "name": "USPS COLLECTION BOX - BLUE BOX", "ref": "6850200017"}, "type": "Feature"}
{"geometry": {"coordinates": [-96.683855358, 40.775229862], "type": "Point"}, "id": "_y22ZZEZ6W5lJgk9k_YkBgk2NQ0=", "properties": {"@spider": "usps_collection_boxes", "addr:city": "LINCOLN", "addr:country": "US", "addr:full": "2629 STOCKWELL ST", "addr:postcode": "68502", "addr:state": "NE", "brand": "USPS", "collection_times": "Mo-Sa 11:15", "name": "USPS COLLECTION BOX - BLUE BOX", "ref": "6850200019"}, "type": "Feature"}
{"geometry": {"coordinates": [-96.696720291, 40.795669173], "type": "Point"}, "id": "tGJQhUOSMgM8vdmDHHif3WLGVQ8=", "properties": {"@spider": "usps_collection_boxes", "addr:city": "LINCOLN", "addr:country": "US", "addr:full": "1701 S 17TH ST", "addr:postcode": "68502", "addr:state": "NE", "brand": "USPS", "collection_times": "Mo-Fr 15:00; Sa 14:45", "name": "USPS COLLECTION BOX - BLUE BOX", "note": "ON 12/24 AND 12/31, THIS BOX MAY BE COLLECTED AS EARLY AS 12 NOON.", "ref": "6850200023"}, "type": "Feature"}
{"geometry": {"coordinates": [-96.704290243, 40.777271572], "type": "Point"}, "id": "7Rval0xBgj9xT8mbmPRhOKVSXuE=", "properties": {"@spider": "usps_collection_boxes", "addr:city": "LINCOLN", "addr:country": "US", "addr:full": "1201 CALVERT ST", "addr:postcode": "68502", "addr:state": "NE", "brand": "USPS", "collection_times": "Mo-Fr 17:30; Sa 17:00", "name": "USPS COLLECTION BOX - BLUE BOX", "note": "ON 12/24 AND 12/31, THIS BOX MAY BE COLLECTED AS EARLY AS 12 NOON.", "ref": "6850200033"}, "type": "Feature"}
{"geometry": {"coordinates": [-96.704290243, 40.777271572], "type": "Point"}, "id": "c7ezvvi_RhWr1mBamrVihrHwyRU=", "properties": {"@spider": "usps_collection_boxes", "addr:city": "LINCOLN", "addr:country": "US", "addr:full": "1201 CALVERT ST", "addr:postcode": "68502", "addr:state": "NE", "brand": "USPS", "collection_times": "Mo-Fr 17:30; Sa 17:00", "name": "USPS COLLECTION BOX - BLUE BOX", "note": "ON 12/24 AND 12/31, THIS BOX MAY BE COLLECTED AS EARLY AS 12 NOON.", "ref": "6850200034"}, "type": "Feature"}
{"geometry": {"coordinates": [-96.698997644, 40.791601278], "type": "Point"}, "id": "ToyC4OIdQWI-wLmvlLzz2dESzIo=", "properties": {"@spider": "usps_collection_boxes", "addr:city": "LINCOLN", "addr:country": "US", "addr:full": "2222 S 16TH ST", "addr:postcode": "68502", "addr:state": "NE", "brand": "USPS", "collection_times": "Mo-Fr 15:00", "name": "USPS COLLECTION BOX - BLUE BOX", "note": "ON 12/24 AND 12/31, THIS BOX MAY BE COLLECTED AS EARLY AS 12 NOON.", "ref": "6850200035"}, "type": "Feature"}
{"geometry": {"coordinates": [-96.704290243, 40.777271572], "type": "Point"}, "id": "P4YVs0TaDGFdkO4-06rkq-F6gxg=", "properties": {"@spider": "usps_collection_boxes", "addr:city": "LINCOLN", "addr:country": "US", "addr:full": "1201 CALVERT ST", "addr:postcode": "68502", "addr:state": "NE", "brand": "USPS", "collection_times": "Mo-Fr 17:00; Sa 16:00", "name": "USPS COLLECTION BOX - PO LOBBY", "note": "ON 12/24 AND 12/31, THIS BOX MAY BE COLLECTED AS EARLY AS 12 NOON.", "ref": "6850200045"}, "type": "Feature"}
{"geometry": {"coordinates": [-96.704290243, 40.777271572], "type": "Point"}, "id": "ZgbGViovfvgWjiUHMho1kCHeE04=", "properties": {"@spider": "usps_collection_boxes", "addr:city": "LINCOLN", "addr:country": "US", "addr:full": "1201 CALVERT ST", "addr:postcode": "68502", "addr:state": "NE", "brand": "USPS", "collection_times": "Mo-Fr 17:00; Sa 16:00", "name": "USPS COLLECTION BOX - APC", "note": "ON 12/24 AND 12/31, THIS BOX MAY BE COLLECTED AS EARLY AS 12 NOON.", "ref": "6850200046"}, "type": "Feature"}
{"geometry": {"coordinates": [-96.705612, 40.791740514], "type": "Point"}, "id": "2EIv9Dn1Ilpw7IRlyjQcBLujiFU=", "properties": {"@spider": "usps_collection_boxes", "addr:city": "LINCOLN", "addr:country": "US", "addr:full": "1101 SOUTH ST", "addr:postcode": "68502", "addr:state": "NE", "brand": "USPS", "collection_times": "Mo-Sa 09:15", "name": "USPS COLLECTION BOX - BLUE BOX", "ref": "6850200047"}, "type": "Feature"}
{"geometry": {"coordinates": [-96.704290243, 40.777271572], "type": "Point"}, "id": "dIkt7TUBW7gpq6H7wFvA3KE8hxI=", "properties": {"@spider": "usps_collection_boxes", "addr:city": "LINCOLN", "addr:country": "US", "addr:full": "1201 CALVERT ST", "addr:postcode": "68502", "addr:state": "NE", "brand": "USPS", "collection_times": "Mo-Fr 17:00; Sa 16:00", "name": "USPS COLLECTION BOX - PO LOBBY", "note": "ON 12/24 AND 12/31, THIS BOX MAY BE COLLECTED AS EARLY AS 12 NOON.", "ref": "6850200049"}, "type": "Feature"}
{"geometry": {"coordinates": [-96.704290243, 40.777271572], "type": "Point"}, "id": "xQtO7QxzIj7ZyYqR2GocrgXXid0=", "properties": {"@spider": "usps_collection_boxes", "addr:city": "LINCOLN", "addr:country": "US", "addr:full": "1201 CALVERT ST", "addr:postcode": "68502", "addr:state": "NE", "brand": "USPS", "collection_times": "Mo-Fr 17:00; Sa 13:00", "name": "USPS COLLECTION BOX - PO LOBBY", "note": "ON 12/24 AND 12/31, THIS BOX MAY BE COLLECTED AS EARLY AS 12 NOON.", "ref": "6850200053"}, "type": "Feature"}
{"geometry": {"coordinates": [-96.665063467, 40.833104467], "type": "Point"}, "id": "Qp3yEV5xeWN1qexcZ2UPQ6Glw5Y=", "properties": {"@spider": "usps_collection_boxes", "addr:city": "LINCOLN", "addr:country": "US", "addr:full": "3901 E CAMPUS LOOP", "addr:postcode": "68503", "addr:state": "NE", "brand": "USPS", "collection_times": "Mo-Sa 12:00", "name": "USPS COLLECTION BOX - BLUE BOX", "ref": "6850300012"}, "type": "Feature"}
{"geometry": {"coordinates": [-96.66970987, 40.83051037], "type": "Point"}, "id": "CPUWDTUX1P1m5Bz3Lf7pXxbMdts=", "properties": {"@spider": "usps_collection_boxes", "addr:city": "LINCOLN", "addr:country": "US", "addr:full": "1701 N 35TH ST", "addr:postcode": "68503", "addr:state": "NE", "brand": "USPS", "collection_times": "Mo-Sa 12:30", "name": "USPS COLLECTION BOX - BLUE BOX", "note": "ON 12/24 AND 12/31, THIS BOX MAY BE COLLECTED AS EARLY AS 12 NOON.", "ref": "6850300017"}, "type": "Feature"}
{"geometry": {"coordinates": [-96.655671, 40.820725548], "type": "Point"}, "id": "kB3vWCCy8Nl5pKy8VKHOlKTeWkQ=", "properties": {"@spider": "usps_collection_boxes", "addr:city": "LINCOLN", "addr:country": "US", "addr:full": "4615 VINE ST", "addr:postcode": "68503", "addr:state": "NE", "brand": "USPS", "collection_times": "Mo-Sa 10:00", "name": "USPS COLLECTION BOX - BLUE BOX", "ref": "6850300021"}, "type": "Feature"}
{"geometry": {"coordinates": [-96.682350317, 40.821309], "type": "Point"}, "id": "6TKisnevElYVLCEhmhkNmtar_is=", "properties": {"@spider": "usps_collection_boxes", "addr:city": "LINCOLN", "addr:country": "US", "addr:full": "815 N 27TH ST", "addr:postcode": "68503", "addr:state": "NE", "brand": "USPS", "collection_times": "Mo-Sa 11:30", "name": "USPS COLLECTION BOX - BLUE BOX", "ref": "6850300023"}, "type": "Feature"}
{"geometry": {"coordinates": [-96.693483861, 40.824460481], "type": "Point"}, "id": "JBnFo81Gmk1LyauMtTVuRszD_6w=", "properties": {"@spider": "usps_collection_boxes", "addr:city": "LINCOLN", "addr:country": "US", "addr:full": "1901 Y ST", "addr:postcode": "68503", "addr:state": "NE", "brand": "USPS", "collection_times": "Mo-Sa 10:00", "name": "USPS COLLECTION BOX - BLUE BOX", "ref": "6850300024"}, "type": "Feature"}
{"geometry": {"coordinates": [-96.650702916, 40.816520453], "type": "Point"}, "id": "-BzNCGHdN-oNPwrAYHVS2Z3D0wM=", "properties": {"@spider": "usps_collection_boxes", "addr:city": "LINCOLN", "addr:country": "US", "addr:full": "5000 CENTRAL PARK DR", "addr:postcode": "68504", "addr:state": "NE", "brand": "USPS", "collection_times": "Mo-Fr 17:00", "name": "USPS COLLECTION BOX - BLUE BOX", "note": "ON 12/24 AND 12/31, THIS BOX MAY BE COLLECTED AS EARLY AS 12 NOON.", "ref": "6850400010"}, "type": "Feature"}
{"geometry": {"coordinates": [-96.675522496, 40.859303505], "type": "Point"}, "id": "zquf0Z8I_ry3ausavCFT_uSfiF0=", "properties": {"@spider": "usps_collection_boxes", "addr:city": "LINCOLN", "addr:country": "US", "addr:full": "3120 BAIR AVE", "addr:postcode": "68504", "addr:state": "NE", "brand": "USPS", "collection_times": "Mo-Fr 17:00; Sa 16:45", "name": "USPS COLLECTION BOX - BLUE BOX", "note": "ON 12/24 AND 12/31, THIS BOX MAY BE COLLECTED AS EARLY AS 12 NOON.", "ref": "6850400021"}, "type": "Feature"}
{"geometry": {"coordinates": [-96.653774467, 40.836700978], "type": "Point"}, "id": "P6siY7s_o256NagrgLj_cFt4DTE=", "properties": {"@spider": "usps_collection_boxes", "addr:city": "LINCOLN", "addr:country": "US", "addr:full": "2427 N 48TH ST", "addr:postcode": "68504", "addr:state": "NE", "brand": "USPS", "collection_times": "Mo-Fr 16:40", "name": "USPS COLLECTION BOX - PO LOBBY", "note": "ON 12/24 AND 12/31, THIS BOX MAY BE COLLECTED AS EARLY AS 12 NOON.", "ref": "6850400022"}, "type": "Feature"}
{"geometry": {"coordinates": [-96.653466163, 40.857347771], "type": "Point"}, "id": "eIpQxQU9i2qYRo7281MpkK0zym0=", "properties": {"@spider": "usps_collection_boxes", "addr:city": "LINCOLN", "addr:country": "US", "addr:full": "4800 SUPERIOR ST", "addr:postcode": "68504", "addr:state": "NE", "brand": "USPS", "collection_times": "Mo-Fr 15:00", "name": "USPS COLLECTION BOX - BLUE BOX", "note": "ON 12/24 AND 12/31, THIS BOX MAY BE COLLECTED AS EARLY AS 12 NOON.", "ref": "6850400023"}, "type": "Feature"}
{"geometry": {"coordinates": [-96.653774467, 40.836700978], "type": "Point"}, "id": "QrYuF1TY_z0bjkh6Y7Crii0gkpE=", "properties": {"@spider": "usps_collection_boxes", "addr:city": "LINCOLN", "addr:country": "US", "addr:full": "2427 N 48TH ST", "addr:postcode": "68504", "addr:state": "NE", "brand": "USPS", "collection_times": "Mo-Fr 17:00; Sa 16:45", "name": "USPS COLLECTION BOX - BLUE BOX", "note": "ON 12/24 AND 12/31, THIS BOX MAY BE COLLECTED AS EARLY AS 12 NOON.", "ref": "6850400032"}, "type": "Feature"}
{"geometry": {"coordinates": [-96.631740168, 40.816315543], "type": "Point"}, "id": "A2xjvkfHZ1hI8z1GsDzKQTKPf4Y=", "properties": {"@spider": "usps_collection_boxes", "addr:city": "LINCOLN", "addr:country": "US", "addr:full": "6401 Q ST STE 100", "addr:postcode": "68505", "addr:state": "NE", "brand": "USPS", "collection_times": "Mo-Fr 17:00; Sa 16:35", "name": "USPS COLLECTION BOX - BLUE BOX", "note": "ON 12/24 AND 12/31, THIS BOX MAY BE COLLECTED AS EARLY AS 12 NOON.", "ref": "6850500002"}, "type": "Feature"}
{"geometry": {"coordinates": [-96.630558718, 40.827689727], "type": "Point"}, "id": "ZARNXiEOfFZDvOt3dgVh9p-mZaw=", "properties": {"@spider": "usps_collection_boxes", "addr:city": "LINCOLN", "addr:country": "US", "addr:full": "1441 N COTNER BLVD", "addr:postcode": "68505", "addr:state": "NE", "brand": "USPS", "collection_times": "Mo-Sa 09:30", "name": "USPS COLLECTION BOX - BLUE BOX", "ref": "6850500011"}, "type": "Feature"}
{"geometry": {"coordinates": [-96.624910211, 40.822468732], "type": "Point"}, "id": "5CpT2AJuY6cqhd3t3tRFz9VxMtI=", "properties": {"@spider": "usps_collection_boxes", "addr:city": "LINCOLN", "addr:country": "US", "addr:full": "950 N 70TH ST", "addr:postcode": "68505", "addr:state": "NE", "brand": "USPS", "collection_times": "Mo-Fr 16:35; Sa 16:20", "name": "USPS COLLECTION BOX - BLUE BOX", "note": "ON 12/24 AND 12/31, THIS BOX MAY BE COLLECTED AS EARLY AS 12 NOON.", "ref": "6850500014"}, "type": "Feature"}
{"geometry": {"coordinates": [-96.630524717, 40.815333472], "type": "Point"}, "id": "xNRB2SY2FJMXEvYs5sVAGQ_vsJE=", "properties": {"@spider": "usps_collection_boxes", "addr:city": "LINCOLN", "addr:country": "US", "addr:full": "200 N 66TH ST", "addr:postcode": "68505", "addr:state": "NE", "brand": "USPS", "collection_times": "Mo-Sa 10:30", "name": "USPS COLLECTION BOX - BLUE BOX", "ref": "6850500017"}, "type": "Feature"}
{"geometry": {"coordinates": [-96.638955934, 40.818283148], "type": "Point"}, "id": "VkMTm_GrqVAwSQBVBKK1ua4K5cQ=", "properties": {"@spider": "usps_collection_boxes", "addr:city": "LINCOLN", "addr:country": "US", "addr:full": "600 N COTNER BLVD", "addr:postcode": "68505", "addr:state": "NE", "brand": "USPS", "collection_times": "Mo-Sa 09:15", "name": "USPS COLLECTION BOX - BLUE BOX", "ref": "6850500019"}, "type": "Feature"}
{"geometry": {"coordinates": [-96.635257118, 40.8206521], "type": "Point"}, "id": "stsxq4esI7JfKwjNk0FHFTowd0g=", "properties": {"@spider": "usps_collection_boxes", "addr:city": "LINCOLN", "addr:country": "US", "addr:full": "770 N COTNER BLVD", "addr:postcode": "68505", "addr:state": "NE", "brand": "USPS", "collection_times": "Mo-Sa 09:30", "name": "USPS COLLECTION BOX - BLUE BOX", "ref": "6850500025"}, "type": "Feature"}
{"geometry": {"coordinates": [-96.6082905, 40.827028466], "type": "Point"}, "id": "eOWMvUrH0ANtL3oEBmFq0E7ezKc=", "properties": {"@spider": "usps_collection_boxes", "addr:city": "LINCOLN", "addr:country": "US", "addr:full": "8251 NORTHWOODS DR", "addr:postcode": "68505", "addr:state": "NE", "brand": "USPS", "collection_times": "Mo-Fr 17:00; Sa 16:00", "name": "USPS COLLECTION BOX - BLUE BOX", "note": "ON 12/24 AND 12/31, THIS BOX MAY BE COLLECTED AS EARLY AS 12 NOON.", "ref": "6850500033"}, "type": "Feature"}
{"geometry": {"coordinates": [-96.631740168, 40.816315543], "type": "Point"}, "id": "47Pi-9OrC-xYJVIi9J8f0j5rRS8=", "properties": {"@spider": "usps_collection_boxes", "addr:city": "LINCOLN", "addr:country": "US", "addr:full": "6401 Q ST STE 100", "addr:postcode": "68505", "addr:state": "NE", "brand": "USPS", "collection_times": "Mo-Fr 17:30; Sa 17:00", "name": "USPS COLLECTION BOX - APC", "note": "ON 12/24 AND 12/31, THIS BOX MAY BE COLLECTED AS EARLY AS 12 NOON.", "ref": "6850500034"}, "type": "Feature"}
{"geometry": {"coordinates": [-96.631740168, 40.816315543], "type": "Point"}, "id": "7bs7ynIEWi7pyG-Dg16USeNmILE=", "properties": {"@spider": "usps_collection_boxes", "addr:city": "LINCOLN", "addr:country": "US", "addr:full": "6401 Q ST STE 100", "addr:postcode": "68505", "addr:state": "NE", "brand": "USPS", "collection_times": "Mo-Fr 17:30; Sa 17:00", "name": "USPS COLLECTION BOX - PO LOBBY", "note": "ON 12/24 AND 12/31, THIS BOX MAY BE COLLECTED AS EARLY AS 12 NOON.", "ref": "6850500041"}, "type": "Feature"}
{"geometry": {"coordinates": [-96.631740168, 40.816315543], "type": "Point"}, "id": "cFjGxI6nR8jEssLsjx1diErR4D8=", "properties": {"@spider": "usps_collection_boxes", "addr:city": "LINCOLN", "addr:country": "US", "addr:full": "6401 Q ST STE 100", "addr:postcode": "68505", "addr:state": "NE", "brand": "USPS", "collection_times": "Mo-Fr 17:30; Sa 17:00", "name": "USPS COLLECTION BOX - PO LOBBY", "note": "ON 12/24 AND 12/31, THIS BOX MAY BE COLLECTED AS EARLY AS 12 NOON.", "ref": "6850500044"}, "type": "Feature"}
{"geometry": {"coordinates": [-96.650204522, 40.784457478], "type": "Point"}, "id": "8xjVyMquzSznYD_G_IxlmXG5wqk=", "properties": {"@spider": "usps_collection_boxes", "addr:city": "LINCOLN", "addr:country": "US", "addr:full": "5100 VAN DORN ST", "addr:postcode": "68506", "addr:state": "NE", "brand": "USPS", "collection_times": "Mo-Fr 17:30; Sa 17:00", "name": "USPS COLLECTION BOX - BLUE BOX", "note": "ON 12/24 AND 12/31, THIS BOX MAY BE COLLECTED AS EARLY AS 12 NOON.", "ref": "6850600003"}, "type": "Feature"}
{"geometry": {"coordinates": [-96.650204522, 40.784457478], "type": "Point"}, "id": "QmE7TQpBvKWbM8ET4kOLL0q-6X0=", "properties": {"@spider": "usps_collection_boxes", "addr:city": "LINCOLN", "addr:country": "US", "addr:full": "5100 VAN DORN ST", "addr:postcode": "68506", "addr:state": "NE", "brand": "USPS", "collection_times": "Mo-Fr 17:30; Sa 17:00", "name": "USPS COLLECTION BOX - BLUE BOX", "note": "ON 12/24 AND 12/31, THIS BOX MAY BE COLLECTED AS EARLY AS 12 NOON.", "ref": "6850600004"}, "type": "Feature"}
{"geometry": {"coordinates": [-96.653584952, 40.797868813], "type": "Point"}, "id": "T_fteSAt08dCBLV_ni8owwjZpQg=", "properties": {"@spider": "usps_collection_boxes", "addr:city": "LINCOLN", "addr:country": "US", "addr:full": "1500 S 48TH ST", "addr:postcode": "68506", "addr:state": "NE", "brand": "USPS", "collection_times": "Mo-Fr 16:30", "name": "USPS COLLECTION BOX - BLUE BOX", "note": "ON 12/24 AND 12/31, THIS BOX MAY BE COLLECTED AS EARLY AS 12 NOON.", "ref": "6850600005"}, "type": "Feature"}
{"geometry": {"coordinates": [-96.625016715, 40.796637012], "type": "Point"}, "id": "jMAnFHUOkg0uTnMpdKnjHkBp2pQ=", "properties": {"@spider": "usps_collection_boxes", "addr:city": "LINCOLN", "addr:country": "US", "addr:full": "1530 S 70TH ST", "addr:postcode": "68506", "addr:state": "NE", "brand": "USPS", "collection_times": "Mo-Fr 16:30; Sa 16:00", "name": "USPS COLLECTION BOX - BLUE BOX", "note": "ON 12/24 AND 12/31, THIS BOX MAY BE COLLECTED AS EARLY AS 12 NOON.", "ref": "6850600009"}, "type": "Feature"}
{"geometry": {"coordinates": [-96.625781026, 40.784311527], "type": "Point"}, "id": "qQpCRPrLIYp7y89UhbGUmXhvYxM=", "properties": {"@spider": "usps_collection_boxes", "addr:city": "LINCOLN", "addr:country": "US", "addr:full": "6940 VAN DORN ST", "addr:postcode": "68506", "addr:state": "NE", "brand": "USPS", "collection_times": "Mo-Sa 10:00", "name": "USPS COLLECTION BOX - BLUE BOX", "ref": "6850600014"}, "type": "Feature"}
{"geometry": {"coordinates": [-96.626844, 40.784309469], "type": "Point"}, "id": "EQhvSuiHE82L3EWDGpdKH4KaXM8=", "properties": {"@spider": "usps_collection_boxes", "addr:city": "LINCOLN", "addr:country": "US", "addr:full": "6900 VAN DORN ST", "addr:postcode": "68506", "addr:state": "NE", "brand": "USPS", "collection_times": "Mo-Sa 09:00", "name": "USPS COLLECTION BOX - BLUE BOX", "ref": "6850600015"}, "type": "Feature"}
{"geometry": {"coordinates": [-96.654393168, 40.772876481], "type": "Point"}, "id": "895NfiVmfYShbNr6YIL8A3ercfI=", "properties": {"@spider": "usps_collection_boxes", "addr:city": "LINCOLN", "addr:country": "US", "addr:full": "4745 PRESCOTT AVE", "addr:postcode": "68506", "addr:state": "NE", "brand": "USPS", "collection_times": "Mo-Sa 10:00", "name": "USPS COLLECTION BOX - BLUE BOX", "ref": "6850600018"}, "type": "Feature"}
{"geometry": {"coordinates": [-96.647292, 40.791609493], "type": "Point"}, "id": "TzrpuZIJhukpAlaXqJbVyOMnuvI=", "properties": {"@spider": "usps_collection_boxes", "addr:city": "LINCOLN", "addr:country": "US", "addr:full": "5401 SOUTH ST", "addr:postcode": "68506", "addr:state": "NE", "brand": "USPS", "collection_times": "Mo-Sa 09:30", "name": "USPS COLLECTION BOX - BLUE BOX", "ref": "6850600029"}, "type": "Feature"}
{"geometry": {"coordinates": [-96.650204522, 40.784457478], "type": "Point"}, "id": "wyn_AlXNaySQf_aVOU0u2809wq4=", "properties": {"@spider": "usps_collection_boxes", "addr:city": "LINCOLN", "addr:country": "US", "addr:full": "5100 VAN DORN ST", "addr:postcode": "68506", "addr:state": "NE", "brand": "USPS", "collection_times": "Mo-Fr 17:30; Sa 17:00", "name": "USPS COLLECTION BOX - BLUE BOX", "note": "ON 12/24 AND 12/31, THIS BOX MAY BE COLLECTED AS EARLY AS 12 NOON.", "ref": "6850600032"}, "type": "Feature"}
{"geometry": {"coordinates": [-96.663959665, 40.791700464], "type": "Point"}, "id": "kZRftgVsTkolYb6NmWb8_FKQnB0=", "properties": {"@spider": "usps_collection_boxes", "addr:city": "LINCOLN", "addr:country": "US", "addr:full": "3930 SOUTH ST", "addr:postcode": "68506", "addr:state": "NE", "brand": "USPS", "collection_times": "Mo-Sa 09:45", "name": "USPS COLLECTION BOX - BLUE BOX", "ref": "6850600036"}, "type": "Feature"}
{"geometry": {"coordinates": [-96.655090332, 40.777062504], "type": "Point"}, "id": "XyzJWP2zLpok8z4XA7-N9G5ZpYI=", "properties": {"@spider": "usps_collection_boxes", "addr:city": "LINCOLN", "addr:country": "US", "addr:full": "4732 CALVERT ST", "addr:postcode": "68506", "addr:state": "NE", "brand": "USPS", "collection_times": "Mo-Sa 10:00", "name": "USPS COLLECTION BOX - BLUE BOX", "ref": "6850600037"}, "type": "Feature"}
{"geometry": {"coordinates": [-96.626092904, 40.785565512], "type": "Point"}, "id": "m7hQpRisSvAOcQJMdlEt3c9Bys0=", "properties": {"@spider": "usps_collection_boxes", "addr:city": "LINCOLN", "addr:country": "US", "addr:full": "2631 S 70TH ST", "addr:postcode": "68506", "addr:state": "NE", "brand": "USPS", "collection_times": "Mo-Sa 09:45", "name": "USPS COLLECTION BOX - BLUE BOX", "ref": "6850600048"}, "type": "Feature"}
{"geometry": {"coordinates": [-96.650204522, 40.784457478], "type": "Point"}, "id": "JcAKV7Z1OraaaXE43yt_FAWPBJk=", "properties": {"@spider": "usps_collection_boxes", "addr:city": "LINCOLN", "addr:country": "US", "addr:full": "5100 VAN DORN ST", "addr:postcode": "68506", "addr:state": "NE", "brand": "USPS", "collection_times": "Mo-Fr 17:30; Sa 17:00", "name": "USPS COLLECTION BOX - APC", "note": "ON 12/24 AND 12/31, THIS BOX MAY BE COLLECTED AS EARLY AS 12 NOON.", "ref": "6850600054"}, "type": "Feature"}
{"geometry": {"coordinates": [-96.650204522, 40.784457478], "type": "Point"}, "id": "fARI4BfS9k4lqrdu2ot3YgI9lL4=", "properties": {"@spider": "usps_collection_boxes", "addr:city": "LINCOLN", "addr:country": "US", "addr:full": "5100 VAN DORN ST", "addr:postcode": "68506", "addr:state": "NE", "brand": "USPS", "collection_times": "Mo-Fr 17:00; Sa 12:00", "name": "USPS COLLECTION BOX - PO LOBBY", "note": "ON 12/24 AND 12/31, THIS BOX MAY BE COLLECTED AS EARLY AS 12 NOON.", "ref": "6850600064"}, "type": "Feature"}
{"geometry": {"coordinates": [-96.636033555, 40.857067486], "type": "Point"}, "id": "uws_5_CCH1EdMDIz9KRCuxB5lCo=", "properties": {"@spider": "usps_collection_boxes", "addr:city": "LINCOLN", "addr:country": "US", "addr:full": "6140 HAVELOCK AVE", "addr:postcode": "68507", "addr:state": "NE", "brand": "USPS", "collection_times": "Mo-Sa 10:30", "name": "USPS COLLECTION BOX - BLUE BOX", "ref": "6850700004"}, "type": "Feature"}
{"geometry": {"coordinates": [-96.639846142, 40.842454781], "type": "Point"}, "id": "nlIxd-vyvdr1gai9FCbDo2gmMqY=", "properties": {"@spider": "usps_collection_boxes", "addr:city": "LINCOLN", "addr:country": "US", "addr:full": "5901 ADAMS ST", "addr:postcode": "68507", "addr:state": "NE", "brand": "USPS", "collection_times": "Mo-Sa 10:00", "name": "USPS COLLECTION BOX - BLUE BOX", "ref": "6850700008"}, "type": "Feature"}
{"geometry": {"coordinates": [-96.640209809, 40.84985655], "type": "Point"}, "id": "R9b5EoHARx4UxH_DFqM7uxeWZQE=", "properties": {"@spider": "usps_collection_boxes", "addr:city": "LINCOLN", "addr:country": "US", "addr:full": "3701 TOUZALIN AVE", "addr:postcode": "68507", "addr:state": "NE", "brand": "USPS", "collection_times": "Mo-Sa 10:00", "name": "USPS COLLECTION BOX - BLUE BOX", "ref": "6850700010"}, "type": "Feature"}
{"geometry": {"coordinates": [-96.702646219, 40.814315066], "type": "Point"}, "id": "LIU0VVj-hlu9B7DPeS9BT06rZHk=", "properties": {"@spider": "usps_collection_boxes", "addr:city": "LINCOLN", "addr:country": "US", "addr:full": "145 N 13TH ST", "addr:postcode": "68508", "addr:state": "NE", "brand": "USPS", "collection_times": "Mo-Fr 14:30; Sa 13:30", "name": "USPS COLLECTION BOX - BLUE BOX", "note": "ON 12/24 AND 12/31, THIS BOX MAY BE COLLECTED AS EARLY AS 12 NOON.", "ref": "6850800003"}, "type": "Feature"}
{"geometry": {"coordinates": [-96.702627816, 40.81293], "type": "Point"}, "id": "QT1k8lEYs0_vmCuUXY-uO-d1dTg=", "properties": {"@spider": "usps_collection_boxes", "addr:city": "LINCOLN", "addr:country": "US", "addr:full": "121 S 13TH ST", "addr:postcode": "68508", "addr:state": "NE", "brand": "USPS", "collection_times": "Mo-Fr 17:00", "name": "USPS COLLECTION BOX - BLUE BOX", "note": "ON 12/24 AND 12/31, THIS BOX MAY BE COLLECTED AS EARLY AS 12 NOON.", "ref": "6850800006"}, "type": "Feature"}
{"geometry": {"coordinates": [-96.709990273, 40.815107749], "type": "Point"}, "id": "12kYsT1zl04pxDoAhhiITQX-PS0=", "properties": {"@spider": "usps_collection_boxes", "addr:city": "LINCOLN", "addr:country": "US", "addr:full": "201 N 8TH ST", "addr:postcode": "68508", "addr:state": "NE", "brand": "USPS", "collection_times": "Mo-Fr 15:00", "name": "USPS COLLECTION BOX - BLUE BOX", "note": "ON 12/24 AND 12/31, THIS BOX MAY BE COLLECTED AS EARLY AS 12 NOON.", "ref": "6850800007"}, "type": "Feature"}
{"geometry": {"coordinates": [-96.698187809, 40.820185173], "type": "Point"}, "id": "aHsRu60NJUJ9UUlP8mC081V8toc=", "properties": {"@spider": "usps_collection_boxes", "addr:city": "LINCOLN", "addr:country": "US", "addr:full": "715 N 16TH ST", "addr:postcode": "68508", "addr:state": "NE", "brand": "USPS", "collection_times": "Mo-Sa 11:00", "name": "USPS COLLECTION BOX - BLUE BOX", "ref": "6850800013"}, "type": "Feature"}
{"geometry": {"coordinates": [-96.702607827, 40.81104], "type": "Point"}, "id": "D38N7UL0O6slv7LuwCCI8DWjxgc=", "properties": {"@spider": "usps_collection_boxes", "addr:city": "LINCOLN", "addr:country": "US", "addr:full": "333 S 13TH ST", "addr:postcode": "68508", "addr:state": "NE", "brand": "USPS", "collection_times": "Mo-Sa 08:45", "name": "USPS COLLECTION BOX - BLUE BOX", "ref": "6850800014"}, "type": "Feature"}
{"geometry": {"coordinates": [-96.7060935, 40.814701514], "type": "Point"}, "id": "ieNTQP3BHw2KYus0Cr8XWqxNNMI=", "properties": {"@spider": "usps_collection_boxes", "addr:city": "LINCOLN", "addr:country": "US", "addr:full": "1039 P ST", "addr:postcode": "68508", "addr:state": "NE", "brand": "USPS", "collection_times": "Mo-Sa 10:00", "name": "USPS COLLECTION BOX - BLUE BOX", "ref": "6850800018"}, "type": "Feature"}
{"geometry": {"coordinates": [-96.70103584, 40.81252824], "type": "Point"}, "id": "ATRJTY76phJQ050o9ZOgkeYnJAw=", "properties": {"@spider": "usps_collection_boxes", "addr:city": "LINCOLN", "addr:country": "US", "addr:full": "1400 N ST", "addr:postcode": "68508", "addr:state": "NE", "brand": "USPS", "collection_times": "Mo-Fr 15:00", "name": "USPS COLLECTION BOX - BLUE BOX", "note": "ON 12/24 AND 12/31, THIS BOX MAY BE COLLECTED AS EARLY AS 12 NOON.", "ref": "6850800027"}, "type": "Feature"}
{"geometry": {"coordinates": [-96.703287368, 40.812528335], "type": "Point"}, "id": "aoylWB6m6WQjst88SewSWjOom5E=", "properties": {"@spider": "usps_collection_boxes", "addr:city": "LINCOLN", "addr:country": "US", "addr:full": "1250 N ST", "addr:postcode": "68508", "addr:state": "NE", "brand": "USPS", "collection_times": "Mo-Sa 09:30", "name": "USPS COLLECTION BOX - BLUE BOX", "ref": "6850800029"}, "type": "Feature"}
{"geometry": {"coordinates": [-96.706621946, 40.81253751], "type": "Point"}, "id": "YgomfB7zBM53f143VlNXAadb0Vk=", "properties": {"@spider": "usps_collection_boxes", "addr:city": "LINCOLN", "addr:country": "US", "addr:full": "1030 N ST", "addr:postcode": "68508", "addr:state": "NE", "brand": "USPS", "collection_times": "Mo-Sa 09:30", "name": "USPS COLLECTION BOX - BLUE BOX", "ref": "6850800034"}, "type": "Feature"}
{"geometry": {"coordinates": [-96.705546594, 40.811254949], "type": "Point"}, "id": "rl6QpB5ICEctWa12RKk8WWD7Ut0=", "properties": {"@spider": "usps_collection_boxes", "addr:city": "LINCOLN", "addr:country": "US", "addr:full": "303 S 11TH ST", "addr:postcode": "68508", "addr:state": "NE", "brand": "USPS", "collection_times": "Mo-Sa 10:00", "name": "USPS COLLECTION BOX - BLUE BOX", "ref": "6850800037"}, "type": "Feature"}
{"geometry": {"coordinates": [-96.700103749, 40.81690548], "type": "Point"}, "id": "LDttWnMekqCJNfAzpFvH9j2NNVs=", "properties": {"@spider": "usps_collection_boxes", "addr:city": "LINCOLN", "addr:country": "US", "addr:full": "1400 R ST", "addr:postcode": "68508", "addr:state": "NE", "brand": "USPS", "collection_times": "Mo-Sa 10:00", "name": "USPS COLLECTION BOX - BLUE BOX", "ref": "6850800044"}, "type": "Feature"}
{"geometry": {"coordinates": [-96.699686722, 40.817960247], "type": "Point"}, "id": "hTeZS7A-pOZcEOJXcA5V9qnFC-g=", "properties": {"@spider": "usps_collection_boxes", "addr:city": "LINCOLN", "addr:country": "US", "addr:full": "1505 S ST", "addr:postcode": "68508", "addr:state": "NE", "brand": "USPS", "collection_times": "Mo-Sa 11:15", "name": "USPS COLLECTION BOX - BLUE BOX", "ref": "6850800045"}, "type": "Feature"}
{"geometry": {"coordinates": [-96.703506, 40.808349], "type": "Point"}, "id": "akIszkN1aPWmG3GRvztFArktIi4=", "properties": {"@spider": "usps_collection_boxes", "addr:city": "LINCOLN", "addr:country": "US", "addr:full": "1220 LINCOLN MALL", "addr:postcode": "68508", "addr:state": "NE", "brand": "USPS", "collection_times": "Mo-Fr 17:00", "name": "USPS COLLECTION BOX - BLUE BOX", "note": "ON 12/24 AND 12/31, THIS BOX MAY BE COLLECTED AS EARLY AS 12 NOON.", "ref": "6850800050"}, "type": "Feature"}
{"geometry": {"coordinates": [-96.705639207, 40.805595398], "type": "Point"}, "id": "P-hN1WVk8AQ8RCejnhWJALZb9lE=", "properties": {"@spider": "usps_collection_boxes", "addr:city": "LINCOLN", "addr:country": "US", "addr:full": "801 S 11TH ST", "addr:postcode": "68508", "addr:state": "NE", "brand": "USPS", "collection_times": "Mo-Sa 10:00", "name": "USPS COLLECTION BOX - BLUE BOX", "ref": "6850800058"}, "type": "Feature"}
{"geometry": {"coordinates": [-96.702618339, 40.811714749], "type": "Point"}, "id": "czJm8uJX-eah1HFgOqsVPm1kctA=", "properties": {"@spider": "usps_collection_boxes", "addr:city": "LINCOLN", "addr:country": "US", "addr:full": "233 S 13TH ST", "addr:postcode": "68508", "addr:state": "NE", "brand": "USPS", "collection_times": "Mo-Sa 10:00", "name": "USPS COLLECTION BOX - EXPRESS", "ref": "6850800074"}, "type": "Feature"}
{"geometry": {"coordinates": [-96.702648772, 40.814120998], "type": "Point"}, "id": "GAUkq_aXeXc259Zc_YTPcZkOM_E=", "properties": {"@spider": "usps_collection_boxes", "addr:city": "LINCOLN", "addr:country": "US", "addr:full": "115 N 13TH ST", "addr:postcode": "68508", "addr:state": "NE", "brand": "USPS", "collection_times": "Mo-Fr 16:00", "name": "USPS COLLECTION BOX - BLUE BOX", "note": "ON 12/24 AND 12/31, THIS BOX MAY BE COLLECTED AS EARLY AS 12 NOON.", "ref": "6850800075"}, "type": "Feature"}
{"geometry": {"coordinates": [-96.706320349, 40.809137494], "type": "Point"}, "id": "TcREor2pjEsXrpncRkIN6CKA_vk=", "properties": {"@spider": "usps_collection_boxes", "addr:city": "LINCOLN", "addr:country": "US", "addr:full": "1045 K ST", "addr:postcode": "68508", "addr:state": "NE", "brand": "USPS", "collection_times": "Mo-Sa 10:30", "name": "USPS COLLECTION BOX - BLUE BOX", "ref": "6850800095"}, "type": "Feature"}
{"geometry": {"coordinates": [-96.708529762, 40.80996], "type": "Point"}, "id": "mB7paay9fL_jb4VuvxSV9cLtuBA=", "properties": {"@spider": "usps_collection_boxes", "addr:city": "LINCOLN", "addr:country": "US", "addr:full": "421 S 9TH ST", "addr:postcode": "68508", "addr:state": "NE", "brand": "USPS", "collection_times": "Mo-Sa 09:00", "name": "USPS COLLECTION BOX - BLUE BOX", "ref": "6850800096"}, "type": "Feature"}
{"geometry": {"coordinates": [-96.70255723, 40.812137361], "type": "Point"}, "id": "2rltj38JS2WInznxFQ0hSvaJHwQ=", "properties": {"@spider": "usps_collection_boxes", "addr:city": "LINCOLN", "addr:country": "US", "addr:full": "206 S 13TH ST", "addr:postcode": "68508", "addr:state": "NE", "brand": "USPS", "collection_times": "Mo-Sa 09:15", "name": "USPS COLLECTION BOX - BLUE BOX", "ref": "6850800100"}, "type": "Feature"}
{"geometry": {"coordinates": [-96.700113, 40.812165], "type": "Point"}, "id": "bkA6YRdqu-b27AkgY5SSZP1z-c8=", "properties": {"@spider": "usps_collection_boxes", "addr:city": "LINCOLN", "addr:country": "US", "addr:full": "215 CENTENNIAL MALL S", "addr:postcode": "68508", "addr:state": "NE", "brand": "USPS", "collection_times": "Mo-Sa 09:00", "name": "USPS COLLECTION BOX - BLUE BOX", "ref": "6850800108"}, "type": "Feature"}
{"geometry": {"coordinates": [-96.702640258, 40.809951702], "type": "Point"}, "id": "vIwcYBlfvFwa4T84m872a-rOl1w=", "properties": {"@spider": "usps_collection_boxes", "addr:city": "LINCOLN", "addr:country": "US", "addr:full": "411 S 13TH ST", "addr:postcode": "68508", "addr:state": "NE", "brand": "USPS", "collection_times": "Mo-Sa 12:00", "name": "USPS COLLECTION BOX - BLUE BOX", "ref": "6850800114"}, "type": "Feature"}
{"geometry": {"coordinates": [-96.701462026, 40.806908488], "type": "Point"}, "id": "VZS5yr3-wktADdscbdFWIM49YpQ=", "properties": {"@spider": "usps_collection_boxes", "addr:city": "LINCOLN", "addr:country": "US", "addr:full": "1345 H ST", "addr:postcode": "68508", "addr:state": "NE", "brand": "USPS", "collection_times": "Mo-Sa 10:00", "name": "USPS COLLECTION BOX - BLUE BOX", "ref": "6850800124"}, "type": "Feature"}
{"geometry": {"coordinates": [-96.7014765, 40.808358], "type": "Point"}, "id": "HpTNKXhUh0sPki9Kpp6ymJgVvmo=", "properties": {"@spider": "usps_collection_boxes", "addr:city": "LINCOLN", "addr:country": "US", "addr:full": "1340 LINCOLN MALL", "addr:postcode": "68508", "addr:state": "NE", "brand": "USPS", "collection_times": "Mo-Sa 12:30", "name": "USPS COLLECTION BOX - BLUE BOX", "note": "ON 12/24 AND 12/31, THIS BOX MAY BE COLLECTED AS EARLY AS 12 NOON.", "ref": "6850800125"}, "type": "Feature"}
{"geometry": {"coordinates": [-96.625149818, 40.802921413], "type": "Point"}, "id": "oCz6RwzKHUApTBK5HAIDyy23P-A=", "properties": {"@spider": "usps_collection_boxes", "addr:city": "LINCOLN", "addr:country": "US", "addr:full": "1001 S 70TH ST", "addr:postcode": "68510", "addr:state": "NE", "brand": "USPS", "collection_times": "Mo-Sa 10:00", "name": "USPS COLLECTION BOX - BLUE BOX", "ref": "6851000003"}, "type": "Feature"}
{"geometry": {"coordinates": [-96.623724069, 40.813305499], "type": "Point"}, "id": "ylmj_09H2FBMv0TcHdPguzfZVUc=", "properties": {"@spider": "usps_collection_boxes", "addr:city": "LINCOLN", "addr:country": "US", "addr:full": "7045 O ST", "addr:postcode": "68510", "addr:state": "NE", "brand": "USPS", "collection_times": "Mo-Sa 10:30", "name": "USPS COLLECTION BOX - BLUE BOX", "ref": "6851000007"}, "type": "Feature"}
{"geometry": {"coordinates": [-96.643213722, 40.81334855], "type": "Point"}, "id": "s19JSFFFAs0GNeGJruZpgyp31ak=", "properties": {"@spider": "usps_collection_boxes", "addr:city": "LINCOLN", "addr:country": "US", "addr:full": "5625 O ST", "addr:postcode": "68510", "addr:state": "NE", "brand": "USPS", "collection_times": "Mo-Sa 09:30", "name": "USPS COLLECTION BOX - BLUE BOX", "ref": "6851000009"}, "type": "Feature"}
{"geometry": {"coordinates": [-96.616412749, 40.81336151], "type": "Point"}, "id": "Z2MXqwQ67YHqo_tt34iPO4xoEiw=", "properties": {"@spider": "usps_collection_boxes", "addr:city": "LINCOLN", "addr:country": "US", "addr:full": "7501 O ST", "addr:postcode": "68510", "addr:state": "NE", "brand": "USPS", "collection_times": "Mo-Sa 11:00", "name": "USPS COLLECTION BOX - BLUE BOX", "ref": "6851000012"}, "type": "Feature"}
{"geometry": {"coordinates": [-96.62520037, 40.808067842], "type": "Point"}, "id": "OB--_T5Nwa4MBb7e5F8zhfchtU0=", "properties": {"@spider": "usps_collection_boxes", "addr:city": "LINCOLN", "addr:country": "US", "addr:full": "575 S 70TH ST", "addr:postcode": "68510", "addr:state": "NE", "brand": "USPS", "collection_times": "Mo-Fr 16:25", "name": "USPS COLLECTION BOX - BLUE BOX", "note": "ON 12/24 AND 12/31, THIS BOX MAY BE COLLECTED AS EARLY AS 12 NOON.", "ref": "6851000015"}, "type": "Feature"}
{"geometry": {"coordinates": [-96.672196234, 40.799010494], "type": "Point"}, "id": "QbkFdhqlsfobjRiNYDXM9mx6oGU=", "properties": {"@spider": "usps_collection_boxes", "addr:city": "LINCOLN", "addr:country": "US", "addr:full": "3306 A ST", "addr:postcode": "68510", "addr:state": "NE", "brand": "USPS", "collection_times": "Mo-Fr 17:00; Sa 15:30", "name": "USPS COLLECTION BOX - BLUE BOX", "note": "ON 12/24 AND 12/31, THIS BOX MAY BE COLLECTED AS EARLY AS 12 NOON.", "ref": "6851000019"}, "type": "Feature"}
{"geometry": {"coordinates": [-96.682335235, 40.804754027], "type": "Point"}, "id": "R6mzqhO87TTdqUQ1rDWTfSbgjmM=", "properties": {"@spider": "usps_collection_boxes", "addr:city": "LINCOLN", "addr:country": "US", "addr:full": "900 S 27TH ST", "addr:postcode": "68510", "addr:state": "NE", "brand": "USPS", "collection_times": "Mo-Sa 10:00", "name": "USPS COLLECTION BOX - BLUE BOX", "ref": "6851000023"}, "type": "Feature"}
{"geometry": {"coordinates": [-96.693592165, 40.809234519], "type": "Point"}, "id": "i6b9LB5VPQmDsNcvkOW5abc6DVc=", "properties": {"@spider": "usps_collection_boxes", "addr:city": "LINCOLN", "addr:country": "US", "addr:full": "1900 K ST", "addr:postcode": "68510", "addr:state": "NE", "brand": "USPS", "collection_times": "Mo-Sa 10:00", "name": "USPS COLLECTION BOX - BLUE BOX", "ref": "6851000026"}, "type": "Feature"}
{"geometry": {"coordinates": [-96.6843236193, 40.8134752962], "type": "Point"}, "id": "n2GYjjDcjMpbmGYIHYdaRlTlIrw=", "properties": {"@spider": "usps_collection_boxes", "addr:city": "LINCOLN", "addr:country": "US", "addr:full": "2535 O ST", "addr:postcode": "68510", "addr:state": "NE", "brand": "USPS", "collection_times": "Mo-Sa 10:00", "name": "USPS COLLECTION BOX - BLUE BOX", "ref": "6851000029"}, "type": "Feature"}
{"geometry": {"coordinates": [-96.605998274, 40.811849413], "type": "Point"}, "id": "Krc2BxjQ8XPmvpTWxeSJPoRELDE=", "properties": {"@spider": "usps_collection_boxes", "addr:city": "LINCOLN", "addr:country": "US", "addr:full": "245 S 84TH ST", "addr:postcode": "68510", "addr:state": "NE", "brand": "USPS", "collection_times": "Mo-Sa 10:45", "name": "USPS COLLECTION BOX - BLUE BOX", "ref": "6851000036"}, "type": "Feature"}
{"geometry": {"coordinates": [-96.625130306, 40.811858864], "type": "Point"}, "id": "viZke4NaEkj7NZ_zOqRfFeLm-eg=", "properties": {"@spider": "usps_collection_boxes", "addr:city": "LINCOLN", "addr:country": "US", "addr:full": "237 S 70TH ST", "addr:postcode": "68510", "addr:state": "NE", "brand": "USPS", "collection_times": "Mo-Sa 08:45", "name": "USPS COLLECTION BOX - BLUE BOX", "ref": "6851000040"}, "type": "Feature"}
{"geometry": {"coordinates": [-96.62527575, 40.798772288], "type": "Point"}, "id": "c11XqvjEDmCC4WWSt9GhUgwC7Mc=", "properties": {"@spider": "usps_collection_boxes", "addr:city": "LINCOLN", "addr:country": "US", "addr:full": "6981 A ST", "addr:postcode": "68510", "addr:state": "NE", "brand": "USPS", "collection_times": "Mo-Sa 09:30", "name": "USPS COLLECTION BOX - BLUE BOX", "ref": "6851000044"}, "type": "Feature"}
{"geometry": {"coordinates": [-96.625822466, 40.81340719], "type": "Point"}, "id": "iJ9IO2YdoP-pcSRS7EK55AgPS-4=", "properties": {"@spider": "usps_collection_boxes", "addr:city": "LINCOLN", "addr:country": "US", "addr:full": "6940 O ST", "addr:postcode": "68510", "addr:state": "NE", "brand": "USPS", "collection_times": "Mo-Sa 09:00", "name": "USPS COLLECTION BOX - BLUE BOX", "ref": "6851000051"}, "type": "Feature"}
{"geometry": {"coordinates": [-96.672899992, 40.809848253], "type": "Point"}, "id": "itEsnXq0bAR9p1Bnr-CFX4ezCeM=", "properties": {"@spider": "usps_collection_boxes", "addr:city": "LINCOLN", "addr:country": "US", "addr:full": "401 S 33RD ST", "addr:postcode": "68510", "addr:state": "NE", "brand": "USPS", "collection_times": "Mo-Fr 17:00; Sa 15:30", "name": "USPS COLLECTION BOX - BLUE BOX", "note": "ON 12/24 AND 12/31, THIS BOX MAY BE COLLECTED AS EARLY AS 12 NOON.", "ref": "6851000061"}, "type": "Feature"}
{"geometry": {"coordinates": [-96.700401555, 40.766160473], "type": "Point"}, "id": "HeZn6K3UoqCT8v9L1-nTEi2oMzc=", "properties": {"@spider": "usps_collection_boxes", "addr:city": "LINCOLN", "addr:country": "US", "addr:full": "1500 CENTER PARK RD", "addr:postcode": "68512", "addr:state": "NE", "brand": "USPS", "collection_times": "Mo-Sa 10:00", "name": "USPS COLLECTION BOX - BLUE BOX", "ref": "6851200004"}, "type": "Feature"}
{"geometry": {"coordinates": [-96.682610259, 40.757254774], "type": "Point"}, "id": "2XW_vt99PW20OPsCskbVvpurn4E=", "properties": {"@spider": "usps_collection_boxes", "addr:city": "LINCOLN", "addr:country": "US", "addr:full": "5533 S 27TH ST", "addr:postcode": "68512", "addr:state": "NE", "brand": "USPS", "collection_times": "Mo-Fr 17:15; Sa 16:00", "name": "USPS COLLECTION BOX - BLUE BOX", "note": "ON 12/24 AND 12/31, THIS BOX MAY BE COLLECTED AS EARLY AS 12 NOON.", "ref": "6851200007"}, "type": "Feature"}
{"geometry": {"coordinates": [-96.70239842, 40.732155969], "type": "Point"}, "id": "heECZNIEF3iNR8pMlBp_H_oBRmg=", "properties": {"@spider": "usps_collection_boxes", "addr:city": "LINCOLN", "addr:country": "US", "addr:full": "1233 INFINITY CT", "addr:postcode": "68512", "addr:state": "NE", "brand": "USPS", "collection_times": "Mo-Fr 16:25", "name": "USPS COLLECTION BOX - BLUE BOX", "note": "ON 12/24 AND 12/31, THIS BOX MAY BE COLLECTED AS EARLY AS 12 NOON.", "ref": "6851200010"}, "type": "Feature"}
{"geometry": {"coordinates": [-96.64126526, 40.751487366], "type": "Point"}, "id": "vxrDP86_7Pq_FKAomXiOy-rsAxk=", "properties": {"@spider": "usps_collection_boxes", "addr:city": "LINCOLN", "addr:country": "US", "addr:full": "5930 S 58TH ST", "addr:postcode": "68516", "addr:state": "NE", "brand": "USPS", "collection_times": "Mo-Fr 17:05; Sa 16:20", "name": "USPS COLLECTION BOX - BLUE BOX", "note": "ON 12/24 AND 12/31, THIS BOX MAY BE COLLECTED AS EARLY AS 12 NOON.", "ref": "6851600001"}, "type": "Feature"}
{"geometry": {"coordinates": [-96.64126526, 40.751487366], "type": "Point"}, "id": "5l2LKbQjBZF3ma_-2q8H-yUasys=", "properties": {"@spider": "usps_collection_boxes", "addr:city": "LINCOLN", "addr:country": "US", "addr:full": "5930 S 58TH ST", "addr:postcode": "68516", "addr:state": "NE", "brand": "USPS", "collection_times": "Mo-Fr 17:05; Sa 16:20", "name": "USPS COLLECTION BOX - BLUE BOX", "note": "ON 12/24 AND 12/31, THIS BOX MAY BE COLLECTED AS EARLY AS 12 NOON.", "ref": "6851600002"}, "type": "Feature"}
{"geometry": {"coordinates": [-96.644223751, 40.757614963], "type": "Point"}, "id": "anFR-VC91MfcobMNwoOVh3GQuv4=", "properties": {"@spider": "usps_collection_boxes", "addr:city": "LINCOLN", "addr:country": "US", "addr:full": "5500 S 56TH ST", "addr:postcode": "68516", "addr:state": "NE", "brand": "USPS", "collection_times": "Mo-Fr 16:00", "name": "USPS COLLECTION BOX - BLUE BOX", "note": "ON 12/24 AND 12/31, THIS BOX MAY BE COLLECTED AS EARLY AS 12 NOON.", "ref": "6851600003"}, "type": "Feature"}
{"geometry": {"coordinates": [-96.664626252, 40.751235168], "type": "Point"}, "id": "_Mwb-0zDK_aVt3U7RwPupSyHa6c=", "properties": {"@spider": "usps_collection_boxes", "addr:city": "LINCOLN", "addr:country": "US", "addr:full": "6040 VILLAGE DR", "addr:postcode": "68516", "addr:state": "NE", "brand": "USPS", "collection_times": "Mo-Fr 16:35; Sa 16:30", "name": "USPS COLLECTION BOX - BLUE BOX", "note": "ON 12/24 AND 12/31, THIS BOX MAY BE COLLECTED AS EARLY AS 12 NOON.", "ref": "6851600007"}, "type": "Feature"}
{"geometry": {"coordinates": [-96.653847371, 40.758102], "type": "Point"}, "id": "obNNVmLVTezXnsGe78dEt-c4c5o=", "properties": {"@spider": "usps_collection_boxes", "addr:city": "LINCOLN", "addr:country": "US", "addr:full": "5551 S 48TH ST", "addr:postcode": "68516", "addr:state": "NE", "brand": "USPS", "collection_times": "Mo-Fr 17:00; Sa 16:00", "name": "USPS COLLECTION BOX - BLUE BOX", "note": "ON 12/24 AND 12/31, THIS BOX MAY BE COLLECTED AS EARLY AS 12 NOON.", "ref": "6851600010"}, "type": "Feature"}
{"geometry": {"coordinates": [-96.625387778, 40.767498], "type": "Point"}, "id": "uiU45lTJc4HPwmt7hkTiqlt_sDY=", "properties": {"@spider": "usps_collection_boxes", "addr:city": "LINCOLN", "addr:country": "US", "addr:full": "4501 S 70TH ST", "addr:postcode": "68516", "addr:state": "NE", "brand": "USPS", "collection_times": "Mo-Fr 17:00; Sa 16:00", "name": "USPS COLLECTION BOX - BLUE BOX", "note": "ON 12/24 AND 12/31, THIS BOX MAY BE COLLECTED AS EARLY AS 12 NOON.", "ref": "6851600021"}, "type": "Feature"}
{"geometry": {"coordinates": [-96.67805246, 40.738875388], "type": "Point"}, "id": "WNEGKyDPpTTgcgTwiA4dC4ppTac=", "properties": {"@spider": "usps_collection_boxes", "addr:city": "LINCOLN", "addr:country": "US", "addr:full": "7120 S 29TH ST", "addr:postcode": "68516", "addr:state": "NE", "brand": "USPS", "collection_times": "Mo-Fr 16:30; Sa 16:05", "name": "USPS COLLECTION BOX - BLUE BOX", "note": "ON 12/24 AND 12/31, THIS BOX MAY BE COLLECTED AS EARLY AS 12 NOON.", "ref": "6851600023"}, "type": "Feature"}
{"geometry": {"coordinates": [-96.646396946, 40.738371211], "type": "Point"}, "id": "kCJKjAANxbCjyFZADn_KGDdEdsI=", "properties": {"@spider": "usps_collection_boxes", "addr:city": "LINCOLN", "addr:country": "US", "addr:full": "5301 RED ROCK LN", "addr:postcode": "68516", "addr:state": "NE", "brand": "USPS", "collection_times": "Mo-Fr 17:00; Sa 16:45", "name": "USPS COLLECTION BOX - BLUE BOX", "note": "ON 12/24 AND 12/31, THIS BOX MAY BE COLLECTED AS EARLY AS 12 NOON.", "ref": "6851600024"}, "type": "Feature"}
{"geometry": {"coordinates": [-96.672812629, 40.7688615], "type": "Point"}, "id": "hl5p46pz1BSDCxe9yUcOIJlaQI8=", "properties": {"@spider": "usps_collection_boxes", "addr:city": "LINCOLN", "addr:country": "US", "addr:full": "4400 S 33RD STREET CT", "addr:postcode": "68516", "addr:state": "NE", "brand": "USPS", "collection_times": "Mo-Fr 14:35; Sa 15:00", "name": "USPS COLLECTION BOX - BLUE BOX", "note": "ON 12/24 AND 12/31, THIS BOX MAY BE COLLECTED AS EARLY AS 12 NOON.", "ref": "6851600030"}, "type": "Feature"}
{"geometry": {"coordinates": [-96.677452008, 40.739272987], "type": "Point"}, "id": "-pQiKt2duMr3JiYnBBOQD5lT2JQ=", "properties": {"@spider": "usps_collection_boxes", "addr:city": "LINCOLN", "addr:country": "US", "addr:full": "7120 S 29TH ST", "addr:postcode": "68516", "addr:state": "NE", "brand": "USPS", "collection_times": "Mo-Fr 16:30; Sa 16:05", "name": "USPS COLLECTION BOX - BLUE BOX", "note": "ON 12/24 AND 12/31, THIS BOX MAY BE COLLECTED AS EARLY AS 12 NOON.", "ref": "6851600045"}, "type": "Feature"}
{"geometry": {"coordinates": [-96.739876824, 40.841395973], "type": "Point"}, "id": "IE0B3-iQEEGmod8x_Sf2tjoTrWM=", "properties": {"@spider": "usps_collection_boxes", "addr:city": "LINCOLN", "addr:country": "US", "addr:full": "2925 NW 12TH ST", "addr:postcode": "68521", "addr:state": "NE", "brand": "USPS", "collection_times": "Mo-Fr 17:00", "name": "USPS COLLECTION BOX - BLUE BOX", "note": "ON 12/24 AND 12/31, THIS BOX MAY BE COLLECTED AS EARLY AS 12 NOON.", "ref": "6852100005"}, "type": "Feature"}
{"geometry": {"coordinates": [-96.68331, 40.842680503], "type": "Point"}, "id": "FlUojNcuF_xP8cvF4qIr--6cL_M=", "properties": {"@spider": "usps_collection_boxes", "addr:city": "LINCOLN", "addr:country": "US", "addr:full": "2662 CORNHUSKER HWY", "addr:postcode": "68521", "addr:state": "NE", "brand": "USPS", "collection_times": "Mo-Sa 10:00", "name": "USPS COLLECTION BOX - BLUE BOX", "ref": "6852100011"}, "type": "Feature"}
{"geometry": {"coordinates": [-96.705967305, 40.839335445], "type": "Point"}, "id": "iArCpo6p2totLqN_G9VnKt6E094=", "properties": {"@spider": "usps_collection_boxes", "addr:city": "LINCOLN", "addr:country": "US", "addr:full": "2601 N 11TH ST", "addr:postcode": "68521", "addr:state": "NE", "brand": "USPS", "collection_times": "Mo-Fr 17:25; Sa 15:10", "name": "USPS COLLECTION BOX - BLUE BOX", "note": "ON 12/24 AND 12/31, THIS BOX MAY BE COLLECTED AS EARLY AS 12 NOON.", "ref": "6852100013"}, "type": "Feature"}
{"geometry": {"coordinates": [-96.699914218, 40.857374501], "type": "Point"}, "id": "CytEYA1LyGcm-rnkgyDZcMKdlGI=", "properties": {"@spider": "usps_collection_boxes", "addr:city": "LINCOLN", "addr:country": "US", "addr:full": "1401 SUPERIOR ST", "addr:postcode": "68521", "addr:state": "NE", "brand": "USPS", "collection_times": "Mo-Fr 17:00; Sa 15:15", "name": "USPS COLLECTION BOX - BLUE BOX", "note": "ON 12/24 AND 12/31, THIS BOX MAY BE COLLECTED AS EARLY AS 12 NOON.", "ref": "6852100023"}, "type": "Feature"}
{"geometry": {"coordinates": [-96.68360731, 40.860009052], "type": "Point"}, "id": "TzSvrlGDiO2hb3PJfu8PORbGzow=", "properties": {"@spider": "usps_collection_boxes", "addr:city": "LINCOLN", "addr:country": "US", "addr:full": "4911 N 26TH ST", "addr:postcode": "68521", "addr:state": "NE", "brand": "USPS", "collection_times": "Mo-Sa 10:00", "name": "USPS COLLECTION BOX - BLUE BOX", "ref": "6852100025"}, "type": "Feature"}
{"geometry": {"coordinates": [-96.690774292, 40.842501759], "type": "Point"}, "id": "umovKs3INoLDE3dacJVUji3zQmI=", "properties": {"@spider": "usps_collection_boxes", "addr:city": "LINCOLN", "addr:country": "US", "addr:full": "2135 CORNHUSKER HWY", "addr:postcode": "68521", "addr:state": "NE", "brand": "USPS", "collection_times": "Mo-Fr 17:00", "name": "USPS COLLECTION BOX - BLUE BOX", "note": "ON 12/24 AND 12/31, THIS BOX MAY BE COLLECTED AS EARLY AS 12 NOON.", "ref": "6852100026"}, "type": "Feature"}
{"geometry": {"coordinates": [-96.730755089, 40.877584322], "type": "Point"}, "id": "oXRcTFVdv3ksgl0-Wmdvzo4CN5c=", "properties": {"@spider": "usps_collection_boxes", "addr:city": "LINCOLN", "addr:country": "US", "addr:full": "755 FALLBROOK BLVD", "addr:postcode": "68521", "addr:state": "NE", "brand": "USPS", "collection_times": "Mo-Sa 10:00", "name": "USPS COLLECTION BOX - BLUE BOX", "ref": "6852100027"}, "type": "Feature"}
{"geometry": {"coordinates": [-96.682029346, 40.880717361], "type": "Point"}, "id": "ulSz3rsDoYrhxc4MNvU2qNElnK4=", "properties": {"@spider": "usps_collection_boxes", "addr:city": "LINCOLN", "addr:country": "US", "addr:full": "6835 N 27TH ST", "addr:postcode": "68521", "addr:state": "NE", "brand": "USPS", "collection_times": "Mo-Sa 10:30", "name": "USPS COLLECTION BOX - BLUE BOX", "ref": "6852100032"}, "type": "Feature"}
{"geometry": {"coordinates": [-96.727049916, 40.79908751], "type": "Point"}, "id": "9I9QDQ_41RpAMxsnxgZBKpxWK8g=", "properties": {"@spider": "usps_collection_boxes", "addr:city": "LINCOLN", "addr:country": "US", "addr:full": "501 W A ST", "addr:postcode": "68522", "addr:state": "NE", "brand": "USPS", "collection_times": "Mo-Sa 10:00", "name": "USPS COLLECTION BOX - BLUE BOX", "ref": "6852200002"}, "type": "Feature"}
{"geometry": {"coordinates": [-96.747615, 40.797927], "type": "Point"}, "id": "IzB5oZf5Lif1jtKsdCUu474pLhs=", "properties": {"@spider": "usps_collection_boxes", "addr:city": "LINCOLN", "addr:country": "US", "addr:full": "1550 S CODDINGTON AVE", "addr:postcode": "68522", "addr:state": "NE", "brand": "USPS", "collection_times": "Mo-Sa 10:00", "name": "USPS COLLECTION BOX - BLUE BOX", "ref": "6852200004"}, "type": "Feature"}
{"geometry": {"coordinates": [-96.787443789, 40.84155545], "type": "Point"}, "id": "IaY75pkzL3VkBowxCHZ5tfYJWJE=", "properties": {"@spider": "usps_collection_boxes", "addr:city": "LINCOLN", "addr:country": "US", "addr:full": "2805 NW 48TH ST", "addr:postcode": "68524", "addr:state": "NE", "brand": "USPS", "collection_times": "Mo-Sa 14:00", "name": "USPS COLLECTION BOX - BLUE BOX", "note": "ON 12/24 AND 12/31, THIS BOX MAY BE COLLECTED AS EARLY AS 12 NOON.", "ref": "6852400001"}, "type": "Feature"}
{"geometry": {"coordinates": [-96.745100319, 40.845783331], "type": "Point"}, "id": "XKHqs5zvdH2kBH-KWXQwcKyTxIs=", "properties": {"@spider": "usps_collection_boxes", "addr:city": "LINCOLN", "addr:country": "US", "addr:full": "3431 AVIATION RD", "addr:postcode": "68524", "addr:state": "NE", "brand": "USPS", "collection_times": "Mo-Fr 17:00", "name": "USPS COLLECTION BOX - BLUE BOX", "note": "ON 12/24 AND 12/31, THIS BOX MAY BE COLLECTED AS EARLY AS 12 NOON.", "ref": "6852400002"}, "type": "Feature"}
{"geometry": {"coordinates": [-96.754738723, 40.846239138], "type": "Point"}, "id": "SLJ7dq_MVcavQqFDfbwNc3eq7uk=", "properties": {"@spider": "usps_collection_boxes", "addr:city": "LINCOLN", "addr:country": "US", "addr:full": "2400 W ADAMS ST", "addr:postcode": "68524", "addr:state": "NE", "brand": "USPS", "collection_times": "Mo-Fr 17:00", "name": "USPS COLLECTION BOX - BLUE BOX", "note": "ON 12/24 AND 12/31, THIS BOX MAY BE COLLECTED AS EARLY AS 12 NOON.", "ref": "6852400008"}, "type": "Feature"}
{"geometry": {"coordinates": [-96.599825867, 40.734043961], "type": "Point"}, "id": "stoc2QboO9_Cy3O0DB5q7C5i5rY=", "properties": {"@spider": "usps_collection_boxes", "addr:city": "LINCOLN", "addr:country": "US", "addr:full": "8700 ANDERMATT DR", "addr:postcode": "68526", "addr:state": "NE", "brand": "USPS", "collection_times": "Mo-Fr 17:05; Sa 16:30", "name": "USPS COLLECTION BOX - BLUE BOX", "note": "ON 12/24 AND 12/31, THIS BOX MAY BE COLLECTED AS EARLY AS 12 NOON.", "ref": "6852600001"}, "type": "Feature"}
{"geometry": {"coordinates": [-96.603594474, 40.768631487], "type": "Point"}, "id": "zyvvOMf2PXLG-YyUqTJvsiOWHOs=", "properties": {"@spider": "usps_collection_boxes", "addr:city": "LINCOLN", "addr:country": "US", "addr:full": "4400 S 86TH ST", "addr:postcode": "68526", "addr:state": "NE", "brand": "USPS", "collection_times": "Mo-Fr 17:10", "name": "USPS COLLECTION BOX - BLUE BOX", "note": "ON 12/24 AND 12/31, THIS BOX MAY BE COLLECTED AS EARLY AS 12 NOON.", "ref": "6852600002"}, "type": "Feature"}
{"geometry": {"coordinates": [-96.599825867, 40.734043961], "type": "Point"}, "id": "tabHW0VYwnAZdZ141Wh2foSogog=", "properties": {"@spider": "usps_collection_boxes", "addr:city": "LINCOLN", "addr:country": "US", "addr:full": "8700 ANDERMATT DR", "addr:postcode": "68526", "addr:state": "NE", "brand": "USPS", "collection_times": "Mo-Fr 17:05; Sa 16:30", "name": "USPS COLLECTION BOX - BLUE BOX", "note": "ON 12/24 AND 12/31, THIS BOX MAY BE COLLECTED AS EARLY AS 12 NOON.", "ref": "6852600004"}, "type": "Feature"}
{"geometry": {"coordinates": [-96.740972026, 40.813816531], "type": "Point"}, "id": "JD4jS4jzcB2R3CjUflAb2JsvFRY=", "properties": {"@spider": "usps_collection_boxes", "addr:city": "LINCOLN", "addr:country": "US", "addr:full": "1240 W O ST", "addr:postcode": "68528", "addr:state": "NE", "brand": "USPS", "collection_times": "Mo-Fr 16:30; Sa 15:05", "name": "USPS COLLECTION BOX - BLUE BOX", "note": "ON 12/24 AND 12/31, THIS BOX MAY BE COLLECTED AS EARLY AS 12 NOON.", "ref": "6852800002"}, "type": "Feature"}
{"geometry": {"coordinates": [-96.724255061, 40.81970435], "type": "Point"}, "id": "QF4oHHSlzo2HMNtfIYalRa_R2-4=", "properties": {"@spider": "usps_collection_boxes", "addr:city": "LINCOLN", "addr:country": "US", "addr:full": "621 WESTGATE BLVD", "addr:postcode": "68528", "addr:state": "NE", "brand": "USPS", "collection_times": "Mo-Fr 15:00", "name": "USPS COLLECTION BOX - BLUE BOX", "note": "ON 12/24 AND 12/31, THIS BOX MAY BE COLLECTED AS EARLY AS 12 NOON.", "ref": "6852800010"}, "type": "Feature"}
{"geometry": {"coordinates": [-96.635264315, 40.858212562], "type": "Point"}, "id": "5tW9ew1j6Or69T2KgDh6L2cvziI=", "properties": {"@spider": "usps_collection_boxes", "addr:city": "LINCOLN", "addr:country": "US", "addr:full": "6240 PLATTE AVE", "addr:postcode": "68529", "addr:state": "NE", "brand": "USPS", "collection_times": "Mo-Fr 17:10; Sa 15:55", "name": "USPS COLLECTION BOX - BLUE BOX", "note": "ON 12/24 AND 12/31, THIS BOX MAY BE COLLECTED AS EARLY AS 12 NOON.", "ref": "6852900001"}, "type": "Feature"}
{"geometry": {"coordinates": [-96.635264315, 40.858212562], "type": "Point"}, "id": "5R-JaWLZH8PlZlRVaWcvWsmdg-g=", "properties": {"@spider": "usps_collection_boxes", "addr:city": "LINCOLN", "addr:country": "US", "addr:full": "6240 PLATTE AVE", "addr:postcode": "68529", "addr:state": "NE", "brand": "USPS", "collection_times": "Mo-Fr 16:35", "name": "USPS COLLECTION BOX - PO LOBBY", "note": "ON 12/24 AND 12/31, THIS BOX MAY BE COLLECTED AS EARLY AS 12 NOON.", "ref": "6852900003"}, "type": "Feature"}
