{"dataset_attributes": {"@spider": "usps_collection_boxes", "spider:collection_time": "2023-10-22T08:22:45.367372"}, "geometry": {"coordinates": [-97.357994445, 41.429245507], "type": "Point"}, "id": "MkpUDW0F8Rk2ElTqIGRncIp8CPE=", "properties": {"@spider": "usps_collection_boxes", "addr:city": "COLUMBUS", "addr:country": "US", "addr:full": "2423 13TH ST", "addr:postcode": "68601", "addr:state": "NE", "amenity": "post_box", "brand": "United States Postal Service", "brand:wikidata": "Q668687", "collection_times": "Mo-Sa 14:00", "name": "USPS COLLECTION BOX - BLUE BOX", "note": "ON 12/24 AND 12/31, THIS BOX MAY BE COLLECTED AS EARLY AS 12 NOON.", "nsi_id": "unitedstatespostalservice-a77078", "operator": "United States Postal Service", "operator:short": "USPS", "operator:type": "public", "operator:wikidata": "Q668687", "ref": "6860100006"}, "type": "Feature"}
{"dataset_attributes": {"@spider": "usps_collection_boxes", "spider:collection_time": "2023-10-22T08:22:45.367372"}, "geometry": {"coordinates": [-97.362312645, 41.42926908], "type": "Point"}, "id": "RQj2D-EX3UKdiCcKNYl1KJUrUoM=", "properties": {"@spider": "usps_collection_boxes", "addr:city": "COLUMBUS", "addr:country": "US", "addr:full": "2827 13TH ST", "addr:postcode": "68601", "addr:state": "NE", "amenity": "post_box", "brand": "United States Postal Service", "brand:wikidata": "Q668687", "collection_times": "Mo-Sa 14:00", "name": "USPS COLLECTION BOX - BLUE BOX", "note": "ON 12/24 AND 12/31, THIS BOX MAY BE COLLECTED AS EARLY AS 12 NOON.", "nsi_id": "unitedstatespostalservice-a77078", "operator": "United States Postal Service", "operator:short": "USPS", "operator:type": "public", "operator:wikidata": "Q668687", "ref": "6860100009"}, "type": "Feature"}
{"dataset_attributes": {"@spider": "usps_collection_boxes", "spider:collection_time": "2023-10-22T08:22:45.367372"}, "geometry": {"coordinates": [-97.329311026, 41.43851149], "type": "Point"}, "id": "R8ndBnUGyWXcqeMedCkEwz0O2Tk=", "properties": {"@spider": "usps_collection_boxes", "addr:city": "COLUMBUS", "addr:country": "US", "addr:full": "220 23RD ST", "addr:postcode": "68601", "addr:state": "NE", "amenity": "post_box", "brand": "United States Postal Service", "brand:wikidata": "Q668687", "collection_times": "Mo-Fr 14:00; Sa 12:00", "name": "USPS COLLECTION BOX - BLUE BOX", "note": "ON 12/24 AND 12/31, THIS BOX MAY BE COLLECTED AS EARLY AS 12 NOON.", "nsi_id": "unitedstatespostalservice-a77078", "operator": "United States Postal Service", "operator:short": "USPS", "operator:type": "public", "operator:wikidata": "Q668687", "ref": "6860100020"}, "type": "Feature"}
{"dataset_attributes": {"@spider": "usps_collection_boxes", "spider:collection_time": "2023-10-22T08:22:45.367372"}, "geometry": {"coordinates": [-97.35901, 41.43058], "type": "Point"}, "id": "AApVXyxx5x5LBwnBvJqwYh3MhLQ=", "properties": {"@spider": "usps_collection_boxes", "addr:city": "COLUMBUS", "addr:country": "US", "addr:full": "100 MAIN ST", "addr:postcode": "68601", "addr:state": "NE", "amenity": "post_box", "brand": "United States Postal Service", "brand:wikidata": "Q668687", "collection_times": "Mo-Sa 14:00", "name": "USPS COLLECTION BOX - BLUE BOX", "note": "ON 12/24 AND 12/31, THIS BOX MAY BE COLLECTED AS EARLY AS 12 NOON.", "nsi_id": "unitedstatespostalservice-a77078", "operator": "United States Postal Service", "operator:short": "USPS", "operator:type": "public", "operator:wikidata": "Q668687", "ref": "6860100021"}, "type": "Feature"}
{"dataset_attributes": {"@spider": "usps_collection_boxes", "spider:collection_time": "2023-10-22T08:22:45.367372"}, "geometry": {"coordinates": [-97.370267636, 41.436742771], "type": "Point"}, "id": "UhYPOpZATdTCpZWWe3X1CD4Ebh0=", "properties": {"@spider": "usps_collection_boxes", "addr:city": "COLUMBUS", "addr:country": "US", "addr:full": "3423 21ST ST", "addr:postcode": "68601", "addr:state": "NE", "amenity": "post_box", "brand": "United States Postal Service", "brand:wikidata": "Q668687", "collection_times": "Mo-Sa 14:00", "name": "USPS COLLECTION BOX - BLUE BOX", "note": "ON 12/24 AND 12/31, THIS BOX MAY BE COLLECTED AS EARLY AS 12 NOON.", "nsi_id": "unitedstatespostalservice-a77078", "operator": "United States Postal Service", "operator:short": "USPS", "operator:type": "public", "operator:wikidata": "Q668687", "ref": "6860100026"}, "type": "Feature"}
{"dataset_attributes": {"@spider": "usps_collection_boxes", "spider:collection_time": "2023-10-22T08:22:45.367372"}, "geometry": {"coordinates": [-97.349546422, 41.438579966], "type": "Point"}, "id": "qUufHv4r3sWxMXgfhSaCfwXj6-k=", "properties": {"@spider": "usps_collection_boxes", "addr:city": "COLUMBUS", "addr:country": "US", "addr:full": "1810 23RD ST", "addr:postcode": "68601", "addr:state": "NE", "amenity": "post_box", "brand": "United States Postal Service", "brand:wikidata": "Q668687", "collection_times": "Mo-Sa 14:00", "name": "USPS COLLECTION BOX - BLUE BOX", "note": "ON 12/24 AND 12/31, THIS BOX MAY BE COLLECTED AS EARLY AS 12 NOON.", "nsi_id": "unitedstatespostalservice-a77078", "operator": "United States Postal Service", "operator:short": "USPS", "operator:type": "public", "operator:wikidata": "Q668687", "ref": "6860100027"}, "type": "Feature"}
{"dataset_attributes": {"@spider": "usps_collection_boxes", "spider:collection_time": "2023-10-22T08:22:45.367372"}, "geometry": {"coordinates": [-97.356794348, 41.431463665], "type": "Point"}, "id": "DWg1vJyXuBTM4ksLW2qLKgweGdg=", "properties": {"@spider": "usps_collection_boxes", "addr:city": "COLUMBUS", "addr:country": "US", "addr:full": "1555 24TH AVE", "addr:postcode": "68601", "addr:state": "NE", "amenity": "post_box", "brand": "United States Postal Service", "brand:wikidata": "Q668687", "collection_times": "Mo-Fr 17:30; Sa 16:00", "name": "USPS COLLECTION BOX - BLUE BOX", "note": "ON 12/24 AND 12/31, THIS BOX MAY BE COLLECTED AS EARLY AS 12 NOON.", "nsi_id": "unitedstatespostalservice-a77078", "operator": "United States Postal Service", "operator:short": "USPS", "operator:type": "public", "operator:wikidata": "Q668687", "ref": "6860100028"}, "type": "Feature"}
{"dataset_attributes": {"@spider": "usps_collection_boxes", "spider:collection_time": "2023-10-22T08:22:45.367372"}, "geometry": {"coordinates": [-97.341050066, 41.423941459], "type": "Point"}, "id": "EUI2AWsAbzdfKddqNSErT8qfWSc=", "properties": {"@spider": "usps_collection_boxes", "addr:city": "COLUMBUS", "addr:country": "US", "addr:full": "1118 8TH ST", "addr:postcode": "68601", "addr:state": "NE", "amenity": "post_box", "brand": "United States Postal Service", "brand:wikidata": "Q668687", "collection_times": "Mo-Sa 14:00", "name": "USPS COLLECTION BOX - BLUE BOX", "note": "ON 12/24 AND 12/31, THIS BOX MAY BE COLLECTED AS EARLY AS 12 NOON.", "nsi_id": "unitedstatespostalservice-a77078", "operator": "United States Postal Service", "operator:short": "USPS", "operator:type": "public", "operator:wikidata": "Q668687", "ref": "6860100035"}, "type": "Feature"}
{"dataset_attributes": {"@spider": "usps_collection_boxes", "spider:collection_time": "2023-10-22T08:22:45.367372"}, "geometry": {"coordinates": [-97.380075686, 41.43887209], "type": "Point"}, "id": "fci3J_WN4AYc-eKkRk_uurBEwzg=", "properties": {"@spider": "usps_collection_boxes", "addr:city": "COLUMBUS", "addr:country": "US", "addr:full": "4320 23RD ST", "addr:postcode": "68601", "addr:state": "NE", "amenity": "post_box", "brand": "United States Postal Service", "brand:wikidata": "Q668687", "collection_times": "Mo-Sa 14:00", "name": "USPS COLLECTION BOX - BLUE BOX", "note": "ON 12/24 AND 12/31, THIS BOX MAY BE COLLECTED AS EARLY AS 12 NOON.", "nsi_id": "unitedstatespostalservice-a77078", "operator": "United States Postal Service", "operator:short": "USPS", "operator:type": "public", "operator:wikidata": "Q668687", "ref": "6860100039"}, "type": "Feature"}
{"dataset_attributes": {"@spider": "usps_collection_boxes", "spider:collection_time": "2023-10-22T08:22:45.367372"}, "geometry": {"coordinates": [-97.356794348, 41.431463665], "type": "Point"}, "id": "9u-ljb3NDEDLmlISPKQPP8nvg4I=", "properties": {"@spider": "usps_collection_boxes", "addr:city": "COLUMBUS", "addr:country": "US", "addr:full": "1555 24TH AVE", "addr:postcode": "68601", "addr:state": "NE", "amenity": "post_box", "brand": "United States Postal Service", "brand:wikidata": "Q668687", "collection_times": "Mo-Fr 17:30; Sa 16:00", "name": "USPS COLLECTION BOX - PO LOBBY", "note": "ON 12/24 AND 12/31, THIS BOX MAY BE COLLECTED AS EARLY AS 12 NOON.", "nsi_id": "unitedstatespostalservice-a77078", "operator": "United States Postal Service", "operator:short": "USPS", "operator:type": "public", "operator:wikidata": "Q668687", "ref": "6860100040"}, "type": "Feature"}
{"dataset_attributes": {"@spider": "usps_collection_boxes", "spider:collection_time": "2023-10-22T08:22:45.367372"}, "geometry": {"coordinates": [-97.367291522, 41.438694513], "type": "Point"}, "id": "S7ObJyppIoS6LUely8m_k2XrsQ8=", "properties": {"@spider": "usps_collection_boxes", "addr:city": "COLUMBUS", "addr:country": "US", "addr:full": "3225 23RD ST", "addr:postcode": "68601", "addr:state": "NE", "amenity": "post_box", "brand": "United States Postal Service", "brand:wikidata": "Q668687", "collection_times": "Mo-Sa 14:00", "name": "USPS COLLECTION BOX - BLUE BOX", "note": "ON 12/24 AND 12/31, THIS BOX MAY BE COLLECTED AS EARLY AS 12 NOON.", "nsi_id": "unitedstatespostalservice-a77078", "operator": "United States Postal Service", "operator:short": "USPS", "operator:type": "public", "operator:wikidata": "Q668687", "ref": "6860100042"}, "type": "Feature"}
{"dataset_attributes": {"@spider": "usps_collection_boxes", "spider:collection_time": "2023-10-22T08:22:45.367372"}, "geometry": {"coordinates": [-97.360033332, 41.430347453], "type": "Point"}, "id": "TaLzu0JU3HVurQSfDG_Y3wq2nhg=", "properties": {"@spider": "usps_collection_boxes", "addr:city": "COLUMBUS", "addr:country": "US", "addr:full": "2610 14TH ST", "addr:postcode": "68601", "addr:state": "NE", "amenity": "post_box", "brand": "United States Postal Service", "brand:wikidata": "Q668687", "collection_times": "Mo-Fr 14:00", "name": "USPS COLLECTION BOX - BLUE BOX", "note": "ON 12/24 AND 12/31, THIS BOX MAY BE COLLECTED AS EARLY AS 12 NOON.", "nsi_id": "unitedstatespostalservice-a77078", "operator": "United States Postal Service", "operator:short": "USPS", "operator:type": "public", "operator:wikidata": "Q668687", "ref": "6860100044"}, "type": "Feature"}
{"dataset_attributes": {"@spider": "usps_collection_boxes", "spider:collection_time": "2023-10-22T08:22:45.367372"}, "geometry": {"coordinates": [-97.360410777, 41.429299528], "type": "Point"}, "id": "cZkWmmuGj_brbsl0Jz7QtdGIY_w=", "properties": {"@spider": "usps_collection_boxes", "addr:city": "COLUMBUS", "addr:country": "US", "addr:full": "2623 13TH ST", "addr:postcode": "68601", "addr:state": "NE", "amenity": "post_box", "brand": "United States Postal Service", "brand:wikidata": "Q668687", "collection_times": "Mo-Sa 14:00", "name": "USPS COLLECTION BOX - BLUE BOX", "note": "ON 12/24 AND 12/31, THIS BOX MAY BE COLLECTED AS EARLY AS 12 NOON.", "nsi_id": "unitedstatespostalservice-a77078", "operator": "United States Postal Service", "operator:short": "USPS", "operator:type": "public", "operator:wikidata": "Q668687", "ref": "6860100045"}, "type": "Feature"}
{"dataset_attributes": {"@spider": "usps_collection_boxes", "spider:collection_time": "2023-10-22T08:22:45.367372"}, "geometry": {"coordinates": [-97.317431267, 41.438571469], "type": "Point"}, "id": "yGoSBL2GafMErfAwIf0yWake3JE=", "properties": {"@spider": "usps_collection_boxes", "addr:city": "COLUMBUS", "addr:country": "US", "addr:full": "818 E 23RD ST", "addr:postcode": "68601", "addr:state": "NE", "amenity": "post_box", "brand": "United States Postal Service", "brand:wikidata": "Q668687", "collection_times": "Mo-Sa 14:00", "name": "USPS COLLECTION BOX - BLUE BOX", "note": "ON 12/24 AND 12/31, THIS BOX MAY BE COLLECTED AS EARLY AS 12 NOON.", "nsi_id": "unitedstatespostalservice-a77078", "operator": "United States Postal Service", "operator:short": "USPS", "operator:type": "public", "operator:wikidata": "Q668687", "ref": "6860100048"}, "type": "Feature"}
{"dataset_attributes": {"@spider": "usps_collection_boxes", "spider:collection_time": "2023-10-22T08:22:45.367372"}, "geometry": {"coordinates": [-97.321402949, 41.438424513], "type": "Point"}, "id": "X2GIfDcb7qQdTa3m7iI7UAIS97U=", "properties": {"@spider": "usps_collection_boxes", "addr:city": "COLUMBUS", "addr:country": "US", "addr:full": "517 E 23RD ST", "addr:postcode": "68601", "addr:state": "NE", "amenity": "post_box", "brand": "United States Postal Service", "brand:wikidata": "Q668687", "collection_times": "Mo-Sa 10:00", "name": "USPS COLLECTION BOX - BLUE BOX", "nsi_id": "unitedstatespostalservice-a77078", "operator": "United States Postal Service", "operator:short": "USPS", "operator:type": "public", "operator:wikidata": "Q668687", "ref": "6860100049"}, "type": "Feature"}
{"dataset_attributes": {"@spider": "usps_collection_boxes", "spider:collection_time": "2023-10-22T08:22:45.367372"}, "geometry": {"coordinates": [-97.364061639, 41.438713488], "type": "Point"}, "id": "YM5totu7yuXXweYJ1-xFuPs7iXg=", "properties": {"@spider": "usps_collection_boxes", "addr:city": "COLUMBUS", "addr:country": "US", "addr:full": "3010 23RD ST", "addr:postcode": "68601", "addr:state": "NE", "amenity": "post_box", "brand": "United States Postal Service", "brand:wikidata": "Q668687", "collection_times": "Mo-Sa 14:00", "name": "USPS COLLECTION BOX - PO LOBBY", "note": "ON 12/24 AND 12/31, THIS BOX MAY BE COLLECTED AS EARLY AS 12 NOON.", "nsi_id": "unitedstatespostalservice-a77078", "operator": "United States Postal Service", "operator:short": "USPS", "operator:type": "public", "operator:wikidata": "Q668687", "ref": "6860100050"}, "type": "Feature"}
{"dataset_attributes": {"@spider": "usps_collection_boxes", "spider:collection_time": "2023-10-22T08:22:45.367372"}, "geometry": {"coordinates": [-97.356794348, 41.431463665], "type": "Point"}, "id": "ETac5RN5Zhk1c4d_8aqTVEkMCTg=", "properties": {"@spider": "usps_collection_boxes", "addr:city": "COLUMBUS", "addr:country": "US", "addr:full": "1555 24TH AVE", "addr:postcode": "68601", "addr:state": "NE", "amenity": "post_box", "brand": "United States Postal Service", "brand:wikidata": "Q668687", "collection_times": "Mo-Fr 17:30; Sa 10:00", "name": "USPS COLLECTION BOX - PO LOBBY", "note": "ON 12/24 AND 12/31, THIS BOX MAY BE COLLECTED AS EARLY AS 12 NOON.", "nsi_id": "unitedstatespostalservice-a77078", "operator": "United States Postal Service", "operator:short": "USPS", "operator:type": "public", "operator:wikidata": "Q668687", "ref": "6860100053"}, "type": "Feature"}
{"dataset_attributes": {"@spider": "usps_collection_boxes", "spider:collection_time": "2023-10-22T08:22:45.367372"}, "geometry": {"coordinates": [-97.9999865, 41.691961879], "type": "Point"}, "id": "8xOKboIF2GBUTSriSYJ9XM55nIo=", "properties": {"@spider": "usps_collection_boxes", "addr:city": "ALBION", "addr:country": "US", "addr:full": "310 W CHURCH ST", "addr:postcode": "68620", "addr:state": "NE", "amenity": "post_box", "brand": "United States Postal Service", "brand:wikidata": "Q668687", "collection_times": "Mo-Sa 14:20", "name": "USPS COLLECTION BOX - BLUE BOX", "note": "ON 12/24 AND 12/31, THIS BOX MAY BE COLLECTED AS EARLY AS 12 NOON.", "nsi_id": "unitedstatespostalservice-a77078", "operator": "United States Postal Service", "operator:short": "USPS", "operator:type": "public", "operator:wikidata": "Q668687", "ref": "6862000002"}, "type": "Feature"}
{"dataset_attributes": {"@spider": "usps_collection_boxes", "spider:collection_time": "2023-10-22T08:22:45.367372"}, "geometry": {"coordinates": [-97.9999865, 41.691961879], "type": "Point"}, "id": "ZGYFY4zXadlk1SuwOLaCEtpr8IY=", "properties": {"@spider": "usps_collection_boxes", "addr:city": "ALBION", "addr:country": "US", "addr:full": "310 W CHURCH ST", "addr:postcode": "68620", "addr:state": "NE", "amenity": "post_box", "brand": "United States Postal Service", "brand:wikidata": "Q668687", "collection_times": "Mo-Fr 14:20; Sa 09:45", "name": "USPS COLLECTION BOX - PO LOBBY", "note": "ON 12/24 AND 12/31, THIS BOX MAY BE COLLECTED AS EARLY AS 12 NOON.", "nsi_id": "unitedstatespostalservice-a77078", "operator": "United States Postal Service", "operator:short": "USPS", "operator:type": "public", "operator:wikidata": "Q668687", "ref": "6862000003"}, "type": "Feature"}
{"dataset_attributes": {"@spider": "usps_collection_boxes", "spider:collection_time": "2023-10-22T08:22:45.367372"}, "geometry": {"coordinates": [-97.9999865, 41.691961879], "type": "Point"}, "id": "hqVteT6mzIgl-tXgF_sv-R-el1o=", "properties": {"@spider": "usps_collection_boxes", "addr:city": "ALBION", "addr:country": "US", "addr:full": "310 W CHURCH ST", "addr:postcode": "68620", "addr:state": "NE", "amenity": "post_box", "brand": "United States Postal Service", "brand:wikidata": "Q668687", "collection_times": "Mo-Fr 14:20; Sa 09:45", "name": "USPS COLLECTION BOX - PO LOBBY", "note": "ON 12/24 AND 12/31, THIS BOX MAY BE COLLECTED AS EARLY AS 12 NOON.", "nsi_id": "unitedstatespostalservice-a77078", "operator": "United States Postal Service", "operator:short": "USPS", "operator:type": "public", "operator:wikidata": "Q668687", "ref": "6862000004"}, "type": "Feature"}
{"dataset_attributes": {"@spider": "usps_collection_boxes", "spider:collection_time": "2023-10-22T08:22:45.367372"}, "geometry": {"coordinates": [-96.6262561223, 41.4525787019], "type": "Point"}, "id": "jD2meRd0reg1nVlGI3kmV-Knkys=", "properties": {"@spider": "usps_collection_boxes", "addr:city": "AMES", "addr:country": "US", "addr:full": "210 N MAIN ST", "addr:postcode": "68621", "addr:state": "NE", "amenity": "post_box", "brand": "United States Postal Service", "brand:wikidata": "Q668687", "collection_times": "Mo-Fr 12:15; Sa 10:45", "name": "USPS COLLECTION BOX - BLUE BOX", "note": "ON 12/24 AND 12/31, THIS BOX MAY BE COLLECTED AS EARLY AS 12 NOON.", "nsi_id": "unitedstatespostalservice-a77078", "operator": "United States Postal Service", "operator:short": "USPS", "operator:type": "public", "operator:wikidata": "Q668687", "ref": "6862100000"}, "type": "Feature"}
{"dataset_attributes": {"@spider": "usps_collection_boxes", "spider:collection_time": "2023-10-22T08:22:45.367372"}, "geometry": {"coordinates": [-96.6262561223, 41.4525787019], "type": "Point"}, "id": "V5quXqs6Z5IxvTQPKZ2r5sp-4OA=", "properties": {"@spider": "usps_collection_boxes", "addr:city": "AMES", "addr:country": "US", "addr:full": "210 N MAIN ST", "addr:postcode": "68621", "addr:state": "NE", "amenity": "post_box", "brand": "United States Postal Service", "brand:wikidata": "Q668687", "collection_times": "Mo-Fr 12:15; Sa 10:45", "name": "USPS COLLECTION BOX - PO LOBBY", "note": "ON 12/24 AND 12/31, THIS BOX MAY BE COLLECTED AS EARLY AS 12 NOON.", "nsi_id": "unitedstatespostalservice-a77078", "operator": "United States Postal Service", "operator:short": "USPS", "operator:type": "public", "operator:wikidata": "Q668687", "ref": "6862100001"}, "type": "Feature"}
{"dataset_attributes": {"@spider": "usps_collection_boxes", "spider:collection_time": "2023-10-22T08:22:45.367372"}, "geometry": {"coordinates": [-98.55294242, 41.884377204], "type": "Point"}, "id": "CMU7x6Wa5Lil52jWKyqaMIheTk4=", "properties": {"@spider": "usps_collection_boxes", "addr:city": "BARTLETT", "addr:country": "US", "addr:full": "300 3RD ST", "addr:postcode": "68622", "addr:state": "NE", "amenity": "post_box", "brand": "United States Postal Service", "brand:wikidata": "Q668687", "collection_times": "Mo-Sa 12:45", "name": "USPS COLLECTION BOX - BLUE BOX", "note": "ON 12/24 AND 12/31, THIS BOX MAY BE COLLECTED AS EARLY AS 12 NOON.", "nsi_id": "unitedstatespostalservice-a77078", "operator": "United States Postal Service", "operator:short": "USPS", "operator:type": "public", "operator:wikidata": "Q668687", "ref": "6862200001"}, "type": "Feature"}
{"dataset_attributes": {"@spider": "usps_collection_boxes", "spider:collection_time": "2023-10-22T08:22:45.367372"}, "geometry": {"coordinates": [-98.55294242, 41.884377204], "type": "Point"}, "id": "BoeMAEavrSp2Gi6VCyZFYA7uzqE=", "properties": {"@spider": "usps_collection_boxes", "addr:city": "BARTLETT", "addr:country": "US", "addr:full": "300 3RD ST", "addr:postcode": "68622", "addr:state": "NE", "amenity": "post_box", "brand": "United States Postal Service", "brand:wikidata": "Q668687", "collection_times": "Mo-Fr 12:45; Sa 11:00", "name": "USPS COLLECTION BOX - PO LOBBY", "note": "ON 12/24 AND 12/31, THIS BOX MAY BE COLLECTED AS EARLY AS 12 NOON.", "nsi_id": "unitedstatespostalservice-a77078", "operator": "United States Postal Service", "operator:short": "USPS", "operator:type": "public", "operator:wikidata": "Q668687", "ref": "6862200002"}, "type": "Feature"}
{"dataset_attributes": {"@spider": "usps_collection_boxes", "spider:collection_time": "2023-10-22T08:22:45.367372"}, "geometry": {"coordinates": [-98.55294242, 41.884377204], "type": "Point"}, "id": "g4qXi3Wcs2Z_-ZjVkRGvdSpUrps=", "properties": {"@spider": "usps_collection_boxes", "addr:city": "BARTLETT", "addr:country": "US", "addr:full": "300 3RD ST", "addr:postcode": "68622", "addr:state": "NE", "amenity": "post_box", "brand": "United States Postal Service", "brand:wikidata": "Q668687", "collection_times": "Mo-Fr 12:45; Sa 11:00", "name": "USPS COLLECTION BOX - PO LOBBY", "note": "ON 12/24 AND 12/31, THIS BOX MAY BE COLLECTED AS EARLY AS 12 NOON.", "nsi_id": "unitedstatespostalservice-a77078", "operator": "United States Postal Service", "operator:short": "USPS", "operator:type": "public", "operator:wikidata": "Q668687", "ref": "6862200003"}, "type": "Feature"}
{"dataset_attributes": {"@spider": "usps_collection_boxes", "spider:collection_time": "2023-10-22T08:22:45.367372"}, "geometry": {"coordinates": [-97.238749813, 41.341790294], "type": "Point"}, "id": "mLfvfut7BQriIqRfD1itng8GMmA=", "properties": {"@spider": "usps_collection_boxes", "addr:city": "BELLWOOD", "addr:country": "US", "addr:full": "502 ESPLANADE ST", "addr:postcode": "68624", "addr:state": "NE", "amenity": "post_box", "brand": "United States Postal Service", "brand:wikidata": "Q668687", "collection_times": "Mo-Sa 15:00", "name": "USPS COLLECTION BOX - BLUE BOX", "note": "ON 12/24 AND 12/31, THIS BOX MAY BE COLLECTED AS EARLY AS 12 NOON.", "nsi_id": "unitedstatespostalservice-a77078", "operator": "United States Postal Service", "operator:short": "USPS", "operator:type": "public", "operator:wikidata": "Q668687", "ref": "6862400001"}, "type": "Feature"}
{"dataset_attributes": {"@spider": "usps_collection_boxes", "spider:collection_time": "2023-10-22T08:22:45.367372"}, "geometry": {"coordinates": [-97.238749813, 41.341790294], "type": "Point"}, "id": "ZP_g05n51KrqNWjqKl-5X-8KuqQ=", "properties": {"@spider": "usps_collection_boxes", "addr:city": "BELLWOOD", "addr:country": "US", "addr:full": "502 ESPLANADE ST", "addr:postcode": "68624", "addr:state": "NE", "amenity": "post_box", "brand": "United States Postal Service", "brand:wikidata": "Q668687", "collection_times": "Mo-Fr 11:45; Sa 08:45", "name": "USPS COLLECTION BOX - PO LOBBY", "nsi_id": "unitedstatespostalservice-a77078", "operator": "United States Postal Service", "operator:short": "USPS", "operator:type": "public", "operator:wikidata": "Q668687", "ref": "6862400002"}, "type": "Feature"}
{"dataset_attributes": {"@spider": "usps_collection_boxes", "spider:collection_time": "2023-10-22T08:22:45.367372"}, "geometry": {"coordinates": [-97.2387498125, 41.3417902945], "type": "Point"}, "id": "P1VHX8uKZ6hlUm56Ldv2KP44WVw=", "properties": {"@spider": "usps_collection_boxes", "addr:city": "BELLWOOD", "addr:country": "US", "addr:full": "502 ESPLANADE ST", "addr:postcode": "68624", "addr:state": "NE", "amenity": "post_box", "brand": "United States Postal Service", "brand:wikidata": "Q668687", "collection_times": "Mo-Fr 11:45; Sa 08:45", "name": "USPS COLLECTION BOX - PO LOBBY", "nsi_id": "unitedstatespostalservice-a77078", "operator": "United States Postal Service", "operator:short": "USPS", "operator:type": "public", "operator:wikidata": "Q668687", "ref": "6862400003"}, "type": "Feature"}
{"dataset_attributes": {"@spider": "usps_collection_boxes", "spider:collection_time": "2023-10-22T08:22:45.367372"}, "geometry": {"coordinates": [-97.002123058, 41.183174574], "type": "Point"}, "id": "BrIcNOx3VBrafAYG6U46uShrCAE=", "properties": {"@spider": "usps_collection_boxes", "addr:city": "BRAINARD", "addr:country": "US", "addr:full": "101 W HAMILTON ST", "addr:postcode": "68626", "addr:state": "NE", "amenity": "post_box", "brand": "United States Postal Service", "brand:wikidata": "Q668687", "collection_times": "Mo-Sa 14:10", "name": "USPS COLLECTION BOX - BLUE BOX", "note": "ON 12/24 AND 12/31, THIS BOX MAY BE COLLECTED AS EARLY AS 12 NOON.", "nsi_id": "unitedstatespostalservice-a77078", "operator": "United States Postal Service", "operator:short": "USPS", "operator:type": "public", "operator:wikidata": "Q668687", "ref": "6862600000"}, "type": "Feature"}
{"dataset_attributes": {"@spider": "usps_collection_boxes", "spider:collection_time": "2023-10-22T08:22:45.367372"}, "geometry": {"coordinates": [-97.002136721, 41.183299747], "type": "Point"}, "id": "ylI99E0xVGSqmfSW7O0hNuilKpo=", "properties": {"@spider": "usps_collection_boxes", "addr:city": "BRAINARD", "addr:country": "US", "addr:full": "100 N MADISON ST", "addr:postcode": "68626", "addr:state": "NE", "amenity": "post_box", "brand": "United States Postal Service", "brand:wikidata": "Q668687", "collection_times": "Mo-Fr 14:10; Sa 10:45", "name": "USPS COLLECTION BOX - PO LOBBY", "note": "ON 12/24 AND 12/31, THIS BOX MAY BE COLLECTED AS EARLY AS 12 NOON.", "nsi_id": "unitedstatespostalservice-a77078", "operator": "United States Postal Service", "operator:short": "USPS", "operator:type": "public", "operator:wikidata": "Q668687", "ref": "6862600001"}, "type": "Feature"}
{"dataset_attributes": {"@spider": "usps_collection_boxes", "spider:collection_time": "2023-10-22T08:22:45.367372"}, "geometry": {"coordinates": [-97.002136721, 41.183299747], "type": "Point"}, "id": "N5eSCgInjIVSBws7XRvzr24l8WY=", "properties": {"@spider": "usps_collection_boxes", "addr:city": "BRAINARD", "addr:country": "US", "addr:full": "100 N MADISON ST", "addr:postcode": "68626", "addr:state": "NE", "amenity": "post_box", "brand": "United States Postal Service", "brand:wikidata": "Q668687", "collection_times": "Mo-Fr 14:10; Sa 10:45", "name": "USPS COLLECTION BOX - PO LOBBY", "note": "ON 12/24 AND 12/31, THIS BOX MAY BE COLLECTED AS EARLY AS 12 NOON.", "nsi_id": "unitedstatespostalservice-a77078", "operator": "United States Postal Service", "operator:short": "USPS", "operator:type": "public", "operator:wikidata": "Q668687", "ref": "6862600002"}, "type": "Feature"}
{"dataset_attributes": {"@spider": "usps_collection_boxes", "spider:collection_time": "2023-10-22T08:22:45.367372"}, "geometry": {"coordinates": [-98.144501186, 41.560075237], "type": "Point"}, "id": "mVHQTFQv_qwikzHDthfkqXGRAtM=", "properties": {"@spider": "usps_collection_boxes", "addr:city": "CEDAR RAPIDS", "addr:country": "US", "addr:full": "214 W MAIN ST", "addr:postcode": "68627", "addr:state": "NE", "amenity": "post_box", "brand": "United States Postal Service", "brand:wikidata": "Q668687", "collection_times": "Mo-Fr 13:50; Sa 13:45", "name": "USPS COLLECTION BOX - BLUE BOX", "note": "ON 12/24 AND 12/31, THIS BOX MAY BE COLLECTED AS EARLY AS 12 NOON.", "nsi_id": "unitedstatespostalservice-a77078", "operator": "United States Postal Service", "operator:short": "USPS", "operator:type": "public", "operator:wikidata": "Q668687", "ref": "6862700001"}, "type": "Feature"}
{"dataset_attributes": {"@spider": "usps_collection_boxes", "spider:collection_time": "2023-10-22T08:22:45.367372"}, "geometry": {"coordinates": [-98.144501186, 41.560075237], "type": "Point"}, "id": "Ajcx2uF57Zf68fvENpQGgMl9NiI=", "properties": {"@spider": "usps_collection_boxes", "addr:city": "CEDAR RAPIDS", "addr:country": "US", "addr:full": "214 W MAIN ST", "addr:postcode": "68627", "addr:state": "NE", "amenity": "post_box", "brand": "United States Postal Service", "brand:wikidata": "Q668687", "collection_times": "Mo-Fr 13:50; Sa 09:30", "name": "USPS COLLECTION BOX - PO LOBBY", "note": "ON 12/24 AND 12/31, THIS BOX MAY BE COLLECTED AS EARLY AS 12 NOON.", "nsi_id": "unitedstatespostalservice-a77078", "operator": "United States Postal Service", "operator:short": "USPS", "operator:type": "public", "operator:wikidata": "Q668687", "ref": "6862700002"}, "type": "Feature"}
{"dataset_attributes": {"@spider": "usps_collection_boxes", "spider:collection_time": "2023-10-22T08:22:45.367372"}, "geometry": {"coordinates": [-98.144501186, 41.560075237], "type": "Point"}, "id": "O7mxK5XomSR6tLex_f_QCjQOnzQ=", "properties": {"@spider": "usps_collection_boxes", "addr:city": "CEDAR RAPIDS", "addr:country": "US", "addr:full": "214 W MAIN ST", "addr:postcode": "68627", "addr:state": "NE", "amenity": "post_box", "brand": "United States Postal Service", "brand:wikidata": "Q668687", "collection_times": "Mo-Fr 13:50; Sa 09:30", "name": "USPS COLLECTION BOX - PO LOBBY", "note": "ON 12/24 AND 12/31, THIS BOX MAY BE COLLECTED AS EARLY AS 12 NOON.", "nsi_id": "unitedstatespostalservice-a77078", "operator": "United States Postal Service", "operator:short": "USPS", "operator:type": "public", "operator:wikidata": "Q668687", "ref": "6862700003"}, "type": "Feature"}
{"dataset_attributes": {"@spider": "usps_collection_boxes", "spider:collection_time": "2023-10-22T08:22:45.367372"}, "geometry": {"coordinates": [-97.837730384, 41.216776208], "type": "Point"}, "id": "RJV3RldB2LQrOjZQ9ouIfqeQdyg=", "properties": {"@spider": "usps_collection_boxes", "addr:city": "CLARKS", "addr:country": "US", "addr:full": "303 N GREEN ST", "addr:postcode": "68628", "addr:state": "NE", "amenity": "post_box", "brand": "United States Postal Service", "brand:wikidata": "Q668687", "collection_times": "Mo-Sa 13:45", "name": "USPS COLLECTION BOX - BLUE BOX", "note": "ON 12/24 AND 12/31, THIS BOX MAY BE COLLECTED AS EARLY AS 12 NOON.", "nsi_id": "unitedstatespostalservice-a77078", "operator": "United States Postal Service", "operator:short": "USPS", "operator:type": "public", "operator:wikidata": "Q668687", "ref": "6862800001"}, "type": "Feature"}
{"dataset_attributes": {"@spider": "usps_collection_boxes", "spider:collection_time": "2023-10-22T08:22:45.367372"}, "geometry": {"coordinates": [-97.837730384, 41.216776208], "type": "Point"}, "id": "xOY6_xgTwSb0E5rkrF8UAso34xU=", "properties": {"@spider": "usps_collection_boxes", "addr:city": "CLARKS", "addr:country": "US", "addr:full": "303 N GREEN ST", "addr:postcode": "68628", "addr:state": "NE", "amenity": "post_box", "brand": "United States Postal Service", "brand:wikidata": "Q668687", "collection_times": "Mo-Fr 12:15; Sa 09:45", "name": "USPS COLLECTION BOX - PO LOBBY", "note": "ON 12/24 AND 12/31, THIS BOX MAY BE COLLECTED AS EARLY AS 12 NOON.", "nsi_id": "unitedstatespostalservice-a77078", "operator": "United States Postal Service", "operator:short": "USPS", "operator:type": "public", "operator:wikidata": "Q668687", "ref": "6862800002"}, "type": "Feature"}
{"dataset_attributes": {"@spider": "usps_collection_boxes", "spider:collection_time": "2023-10-22T08:22:45.367372"}, "geometry": {"coordinates": [-97.834899016, 41.214018256], "type": "Point"}, "id": "o91zXZ1eyyp7cEBBssheEvOhgEo=", "properties": {"@spider": "usps_collection_boxes", "addr:city": "CLARKS", "addr:country": "US", "addr:full": "303 GREEN ST", "addr:postcode": "68628", "addr:state": "NE", "amenity": "post_box", "brand": "United States Postal Service", "brand:wikidata": "Q668687", "collection_times": "Mo-Fr 12:15; Sa 09:45", "name": "USPS COLLECTION BOX - PO LOBBY", "note": "ON 12/24 AND 12/31, THIS BOX MAY BE COLLECTED AS EARLY AS 12 NOON.", "nsi_id": "unitedstatespostalservice-a77078", "operator": "United States Postal Service", "operator:short": "USPS", "operator:type": "public", "operator:wikidata": "Q668687", "ref": "6862800003"}, "type": "Feature"}
{"dataset_attributes": {"@spider": "usps_collection_boxes", "spider:collection_time": "2023-10-22T08:22:45.367372"}, "geometry": {"coordinates": [-97.122297199, 41.724937491], "type": "Point"}, "id": "ryL7TocXjzQHatKsqaEKrRTp2fY=", "properties": {"@spider": "usps_collection_boxes", "addr:city": "CLARKSON", "addr:country": "US", "addr:full": "321 PINE ST", "addr:postcode": "68629", "addr:state": "NE", "amenity": "post_box", "brand": "United States Postal Service", "brand:wikidata": "Q668687", "collection_times": "Mo-Fr 13:50; Sa 13:45", "name": "USPS COLLECTION BOX - BLUE BOX", "note": "ON 12/24 AND 12/31, THIS BOX MAY BE COLLECTED AS EARLY AS 12 NOON.", "nsi_id": "unitedstatespostalservice-a77078", "operator": "United States Postal Service", "operator:short": "USPS", "operator:type": "public", "operator:wikidata": "Q668687", "ref": "6862900001"}, "type": "Feature"}
{"dataset_attributes": {"@spider": "usps_collection_boxes", "spider:collection_time": "2023-10-22T08:22:45.367372"}, "geometry": {"coordinates": [-97.122297199, 41.724937491], "type": "Point"}, "id": "nLtPPsTxMe_HiS_JcQv_3UgMsvQ=", "properties": {"@spider": "usps_collection_boxes", "addr:city": "CLARKSON", "addr:country": "US", "addr:full": "321 PINE ST", "addr:postcode": "68629", "addr:state": "NE", "amenity": "post_box", "brand": "United States Postal Service", "brand:wikidata": "Q668687", "collection_times": "Mo-Fr 13:45; Sa 09:45", "name": "USPS COLLECTION BOX - PO LOBBY", "note": "ON 12/24 AND 12/31, THIS BOX MAY BE COLLECTED AS EARLY AS 12 NOON.", "nsi_id": "unitedstatespostalservice-a77078", "operator": "United States Postal Service", "operator:short": "USPS", "operator:type": "public", "operator:wikidata": "Q668687", "ref": "6862900002"}, "type": "Feature"}
{"dataset_attributes": {"@spider": "usps_collection_boxes", "spider:collection_time": "2023-10-22T08:22:45.367372"}, "geometry": {"coordinates": [-97.122297199, 41.724937491], "type": "Point"}, "id": "GIgRzJsot9THT2ahL3tNVhqBwNk=", "properties": {"@spider": "usps_collection_boxes", "addr:city": "CLARKSON", "addr:country": "US", "addr:full": "321 PINE ST", "addr:postcode": "68629", "addr:state": "NE", "amenity": "post_box", "brand": "United States Postal Service", "brand:wikidata": "Q668687", "collection_times": "Mo-Fr 13:45; Sa 09:45", "name": "USPS COLLECTION BOX - PO LOBBY", "note": "ON 12/24 AND 12/31, THIS BOX MAY BE COLLECTED AS EARLY AS 12 NOON.", "nsi_id": "unitedstatespostalservice-a77078", "operator": "United States Postal Service", "operator:short": "USPS", "operator:type": "public", "operator:wikidata": "Q668687", "ref": "6862900003"}, "type": "Feature"}
{"dataset_attributes": {"@spider": "usps_collection_boxes", "spider:collection_time": "2023-10-22T08:22:45.367372"}, "geometry": {"coordinates": [-97.3636605, 41.706627477], "type": "Point"}, "id": "MvCuR_pEt7_Sw6IOqx9lp7XUnog=", "properties": {"@spider": "usps_collection_boxes", "addr:city": "CRESTON", "addr:country": "US", "addr:full": "215 PINE ST", "addr:postcode": "68631", "addr:state": "NE", "amenity": "post_box", "brand": "United States Postal Service", "brand:wikidata": "Q668687", "collection_times": "Mo-Sa 14:30", "name": "USPS COLLECTION BOX - BLUE BOX", "note": "ON 12/24 AND 12/31, THIS BOX MAY BE COLLECTED AS EARLY AS 12 NOON.", "nsi_id": "unitedstatespostalservice-a77078", "operator": "United States Postal Service", "operator:short": "USPS", "operator:type": "public", "operator:wikidata": "Q668687", "ref": "6863100001"}, "type": "Feature"}
{"dataset_attributes": {"@spider": "usps_collection_boxes", "spider:collection_time": "2023-10-22T08:22:45.367372"}, "geometry": {"coordinates": [-97.3636605, 41.706627477], "type": "Point"}, "id": "xqvnuk8XV3rgKjN2au9NM-XLaSo=", "properties": {"@spider": "usps_collection_boxes", "addr:city": "CRESTON", "addr:country": "US", "addr:full": "215 PINE ST", "addr:postcode": "68631", "addr:state": "NE", "amenity": "post_box", "brand": "United States Postal Service", "brand:wikidata": "Q668687", "collection_times": "Mo-Fr 11:45; Sa 09:00", "name": "USPS COLLECTION BOX - PO LOBBY", "nsi_id": "unitedstatespostalservice-a77078", "operator": "United States Postal Service", "operator:short": "USPS", "operator:type": "public", "operator:wikidata": "Q668687", "ref": "6863100002"}, "type": "Feature"}
{"dataset_attributes": {"@spider": "usps_collection_boxes", "spider:collection_time": "2023-10-22T08:22:45.367372"}, "geometry": {"coordinates": [-97.3636605, 41.706627477], "type": "Point"}, "id": "kRd2Dh_xV98rPAbId4f2inxPwpU=", "properties": {"@spider": "usps_collection_boxes", "addr:city": "CRESTON", "addr:country": "US", "addr:full": "215 PINE ST", "addr:postcode": "68631", "addr:state": "NE", "amenity": "post_box", "brand": "United States Postal Service", "brand:wikidata": "Q668687", "collection_times": "Mo-Fr 11:45; Sa 09:00", "name": "USPS COLLECTION BOX - PO LOBBY", "nsi_id": "unitedstatespostalservice-a77078", "operator": "United States Postal Service", "operator:short": "USPS", "operator:type": "public", "operator:wikidata": "Q668687", "ref": "6863100003"}, "type": "Feature"}
{"dataset_attributes": {"@spider": "usps_collection_boxes", "spider:collection_time": "2023-10-22T08:22:45.367372"}, "geometry": {"coordinates": [-97.130227046, 41.253093251], "type": "Point"}, "id": "UsJKCjetqW1t39kcj-q1M-CE1lE=", "properties": {"@spider": "usps_collection_boxes", "addr:city": "DAVID CITY", "addr:country": "US", "addr:full": "411 N 4TH ST", "addr:postcode": "68632", "addr:state": "NE", "amenity": "post_box", "brand": "United States Postal Service", "brand:wikidata": "Q668687", "collection_times": "Mo-Sa 14:30", "name": "USPS COLLECTION BOX - BLUE BOX", "note": "ON 12/24 AND 12/31, THIS BOX MAY BE COLLECTED AS EARLY AS 12 NOON.", "nsi_id": "unitedstatespostalservice-a77078", "operator": "United States Postal Service", "operator:short": "USPS", "operator:type": "public", "operator:wikidata": "Q668687", "ref": "6863200002"}, "type": "Feature"}
{"dataset_attributes": {"@spider": "usps_collection_boxes", "spider:collection_time": "2023-10-22T08:22:45.367372"}, "geometry": {"coordinates": [-96.885121481, 41.72097441], "type": "Point"}, "id": "sKIjxJkNhMw_WsGpnK6nnfRo3DE=", "properties": {"@spider": "usps_collection_boxes", "addr:city": "DODGE", "addr:country": "US", "addr:full": "246 2ND ST", "addr:postcode": "68633", "addr:state": "NE", "amenity": "post_box", "brand": "United States Postal Service", "brand:wikidata": "Q668687", "collection_times": "Mo-Fr 12:45; Sa 10:00", "name": "USPS COLLECTION BOX - BLUE BOX", "note": "ON 12/24 AND 12/31, THIS BOX MAY BE COLLECTED AS EARLY AS 12 NOON.", "nsi_id": "unitedstatespostalservice-a77078", "operator": "United States Postal Service", "operator:short": "USPS", "operator:type": "public", "operator:wikidata": "Q668687", "ref": "6863300001"}, "type": "Feature"}
{"dataset_attributes": {"@spider": "usps_collection_boxes", "spider:collection_time": "2023-10-22T08:22:45.367372"}, "geometry": {"coordinates": [-96.885121481, 41.72097441], "type": "Point"}, "id": "RDZX0HyYtXAWGs9G-3DvJRwlu78=", "properties": {"@spider": "usps_collection_boxes", "addr:city": "DODGE", "addr:country": "US", "addr:full": "246 2ND ST", "addr:postcode": "68633", "addr:state": "NE", "amenity": "post_box", "brand": "United States Postal Service", "brand:wikidata": "Q668687", "collection_times": "Mo-Fr 12:45; Sa 10:00", "name": "USPS COLLECTION BOX - PO LOBBY", "note": "ON 12/24 AND 12/31, THIS BOX MAY BE COLLECTED AS EARLY AS 12 NOON.", "nsi_id": "unitedstatespostalservice-a77078", "operator": "United States Postal Service", "operator:short": "USPS", "operator:type": "public", "operator:wikidata": "Q668687", "ref": "6863300002"}, "type": "Feature"}
{"dataset_attributes": {"@spider": "usps_collection_boxes", "spider:collection_time": "2023-10-22T08:22:45.367372"}, "geometry": {"coordinates": [-96.885121481, 41.72097441], "type": "Point"}, "id": "gbTUXHSKkP84OqFyCqjIQ0xrleU=", "properties": {"@spider": "usps_collection_boxes", "addr:city": "DODGE", "addr:country": "US", "addr:full": "246 2ND ST", "addr:postcode": "68633", "addr:state": "NE", "amenity": "post_box", "brand": "United States Postal Service", "brand:wikidata": "Q668687", "collection_times": "Mo-Fr 12:45; Sa 10:00", "name": "USPS COLLECTION BOX - PO LOBBY", "note": "ON 12/24 AND 12/31, THIS BOX MAY BE COLLECTED AS EARLY AS 12 NOON.", "nsi_id": "unitedstatespostalservice-a77078", "operator": "United States Postal Service", "operator:short": "USPS", "operator:type": "public", "operator:wikidata": "Q668687", "ref": "6863300003"}, "type": "Feature"}
{"dataset_attributes": {"@spider": "usps_collection_boxes", "spider:collection_time": "2023-10-22T08:22:45.367372"}, "geometry": {"coordinates": [-97.493407474, 41.389634833], "type": "Point"}, "id": "vaO-fypqwTzwLrzy-1iO4Ins4q4=", "properties": {"@spider": "usps_collection_boxes", "addr:city": "DUNCAN", "addr:country": "US", "addr:full": "902 8TH ST", "addr:postcode": "68634", "addr:state": "NE", "amenity": "post_box", "brand": "United States Postal Service", "brand:wikidata": "Q668687", "collection_times": "Mo-Fr 13:05; Sa 13:00", "name": "USPS COLLECTION BOX - BLUE BOX", "note": "ON 12/24 AND 12/31, THIS BOX MAY BE COLLECTED AS EARLY AS 12 NOON.", "nsi_id": "unitedstatespostalservice-a77078", "operator": "United States Postal Service", "operator:short": "USPS", "operator:type": "public", "operator:wikidata": "Q668687", "ref": "6863400001"}, "type": "Feature"}
{"dataset_attributes": {"@spider": "usps_collection_boxes", "spider:collection_time": "2023-10-22T08:22:45.367372"}, "geometry": {"coordinates": [-97.493407474, 41.389634833], "type": "Point"}, "id": "0zTiq-rajEsdHu7yVEpUhYrxVac=", "properties": {"@spider": "usps_collection_boxes", "addr:city": "DUNCAN", "addr:country": "US", "addr:full": "902 8TH ST", "addr:postcode": "68634", "addr:state": "NE", "amenity": "post_box", "brand": "United States Postal Service", "brand:wikidata": "Q668687", "collection_times": "Mo-Fr 12:45; Sa 09:45", "name": "USPS COLLECTION BOX - PO LOBBY", "note": "ON 12/24 AND 12/31, THIS BOX MAY BE COLLECTED AS EARLY AS 12 NOON.", "nsi_id": "unitedstatespostalservice-a77078", "operator": "United States Postal Service", "operator:short": "USPS", "operator:type": "public", "operator:wikidata": "Q668687", "ref": "6863400002"}, "type": "Feature"}
{"dataset_attributes": {"@spider": "usps_collection_boxes", "spider:collection_time": "2023-10-22T08:22:45.367372"}, "geometry": {"coordinates": [-97.493407474, 41.389634833], "type": "Point"}, "id": "jCF6c0VOjJq9i0El0KaiGlQI-mg=", "properties": {"@spider": "usps_collection_boxes", "addr:city": "DUNCAN", "addr:country": "US", "addr:full": "902 8TH ST", "addr:postcode": "68634", "addr:state": "NE", "amenity": "post_box", "brand": "United States Postal Service", "brand:wikidata": "Q668687", "collection_times": "Mo-Fr 12:45; Sa 09:45", "name": "USPS COLLECTION BOX - PO LOBBY", "note": "ON 12/24 AND 12/31, THIS BOX MAY BE COLLECTED AS EARLY AS 12 NOON.", "nsi_id": "unitedstatespostalservice-a77078", "operator": "United States Postal Service", "operator:short": "USPS", "operator:type": "public", "operator:wikidata": "Q668687", "ref": "6863400003"}, "type": "Feature"}
{"dataset_attributes": {"@spider": "usps_collection_boxes", "spider:collection_time": "2023-10-22T08:22:45.367372"}, "geometry": {"coordinates": [-97.020199951, 41.082939], "type": "Point"}, "id": "0bjvZFUSCSLADDuTf-P-haozlmY=", "properties": {"@spider": "usps_collection_boxes", "addr:city": "DWIGHT", "addr:country": "US", "addr:full": "147 N 2ND ST", "addr:postcode": "68635", "addr:state": "NE", "amenity": "post_box", "brand": "United States Postal Service", "brand:wikidata": "Q668687", "collection_times": "Mo-Sa 13:50", "name": "USPS COLLECTION BOX - BLUE BOX", "note": "ON 12/24 AND 12/31, THIS BOX MAY BE COLLECTED AS EARLY AS 12 NOON.", "nsi_id": "unitedstatespostalservice-a77078", "operator": "United States Postal Service", "operator:short": "USPS", "operator:type": "public", "operator:wikidata": "Q668687", "ref": "6863500001"}, "type": "Feature"}
{"dataset_attributes": {"@spider": "usps_collection_boxes", "spider:collection_time": "2023-10-22T08:22:45.367372"}, "geometry": {"coordinates": [-97.020199951, 41.082939], "type": "Point"}, "id": "ftgZ3T9PPmNsFbwKi-ZrIsszvlM=", "properties": {"@spider": "usps_collection_boxes", "addr:city": "DWIGHT", "addr:country": "US", "addr:full": "147 N 2ND ST", "addr:postcode": "68635", "addr:state": "NE", "amenity": "post_box", "brand": "United States Postal Service", "brand:wikidata": "Q668687", "collection_times": "Mo-Fr 11:45; Sa 09:30", "name": "USPS COLLECTION BOX - PO LOBBY", "nsi_id": "unitedstatespostalservice-a77078", "operator": "United States Postal Service", "operator:short": "USPS", "operator:type": "public", "operator:wikidata": "Q668687", "ref": "6863500002"}, "type": "Feature"}
{"dataset_attributes": {"@spider": "usps_collection_boxes", "spider:collection_time": "2023-10-22T08:22:45.367372"}, "geometry": {"coordinates": [-97.020199951, 41.082939], "type": "Point"}, "id": "xayZmFndxX2URhaojT5hMtppxtY=", "properties": {"@spider": "usps_collection_boxes", "addr:city": "DWIGHT", "addr:country": "US", "addr:full": "147 N 2ND ST", "addr:postcode": "68635", "addr:state": "NE", "amenity": "post_box", "brand": "United States Postal Service", "brand:wikidata": "Q668687", "collection_times": "Mo-Fr 11:45; Sa 09:30", "name": "USPS COLLECTION BOX - PO LOBBY", "nsi_id": "unitedstatespostalservice-a77078", "operator": "United States Postal Service", "operator:short": "USPS", "operator:type": "public", "operator:wikidata": "Q668687", "ref": "6863500003"}, "type": "Feature"}
{"dataset_attributes": {"@spider": "usps_collection_boxes", "spider:collection_time": "2023-10-22T08:22:45.367372"}, "geometry": {"coordinates": [-98.085271249, 41.983184496], "type": "Point"}, "id": "wJOMJDdZ9Nk56nKOOWVEm1RDn3o=", "properties": {"@spider": "usps_collection_boxes", "addr:city": "ELGIN", "addr:country": "US", "addr:full": "103 PINE ST", "addr:postcode": "68636", "addr:state": "NE", "amenity": "post_box", "brand": "United States Postal Service", "brand:wikidata": "Q668687", "collection_times": "Mo-Sa 13:15", "name": "USPS COLLECTION BOX - BLUE BOX", "note": "ON 12/24 AND 12/31, THIS BOX MAY BE COLLECTED AS EARLY AS 12 NOON.", "nsi_id": "unitedstatespostalservice-a77078", "operator": "United States Postal Service", "operator:short": "USPS", "operator:type": "public", "operator:wikidata": "Q668687", "ref": "6863600001"}, "type": "Feature"}
{"dataset_attributes": {"@spider": "usps_collection_boxes", "spider:collection_time": "2023-10-22T08:22:45.367372"}, "geometry": {"coordinates": [-98.085271249, 41.983184496], "type": "Point"}, "id": "2B_GbVbBWRy6Hsqn4_EAcjv7BKQ=", "properties": {"@spider": "usps_collection_boxes", "addr:city": "ELGIN", "addr:country": "US", "addr:full": "103 PINE ST", "addr:postcode": "68636", "addr:state": "NE", "amenity": "post_box", "brand": "United States Postal Service", "brand:wikidata": "Q668687", "collection_times": "Mo-Fr 13:15; Sa 08:45", "name": "USPS COLLECTION BOX - PO LOBBY", "note": "ON 12/24 AND 12/31, THIS BOX MAY BE COLLECTED AS EARLY AS 12 NOON.", "nsi_id": "unitedstatespostalservice-a77078", "operator": "United States Postal Service", "operator:short": "USPS", "operator:type": "public", "operator:wikidata": "Q668687", "ref": "6863600002"}, "type": "Feature"}
{"dataset_attributes": {"@spider": "usps_collection_boxes", "spider:collection_time": "2023-10-22T08:22:45.367372"}, "geometry": {"coordinates": [-98.085271249, 41.983184496], "type": "Point"}, "id": "f6AEWTiOoCCDshakDRP6SOkvbjU=", "properties": {"@spider": "usps_collection_boxes", "addr:city": "ELGIN", "addr:country": "US", "addr:full": "103 PINE ST", "addr:postcode": "68636", "addr:state": "NE", "amenity": "post_box", "brand": "United States Postal Service", "brand:wikidata": "Q668687", "collection_times": "Mo-Fr 13:15; Sa 08:45", "name": "USPS COLLECTION BOX - PO LOBBY", "note": "ON 12/24 AND 12/31, THIS BOX MAY BE COLLECTED AS EARLY AS 12 NOON.", "nsi_id": "unitedstatespostalservice-a77078", "operator": "United States Postal Service", "operator:short": "USPS", "operator:type": "public", "operator:wikidata": "Q668687", "ref": "6863600003"}, "type": "Feature"}
{"dataset_attributes": {"@spider": "usps_collection_boxes", "spider:collection_time": "2023-10-22T08:22:45.367372"}, "geometry": {"coordinates": [-98.677196785, 41.779948634], "type": "Point"}, "id": "QYs_Mltu6ut6ALN3glGgg6UnuMM=", "properties": {"@spider": "usps_collection_boxes", "addr:city": "ERICSON", "addr:country": "US", "addr:full": "605 CENTRAL AVE", "addr:postcode": "68637", "addr:state": "NE", "amenity": "post_box", "brand": "United States Postal Service", "brand:wikidata": "Q668687", "collection_times": "Mo-Sa 12:45", "name": "USPS COLLECTION BOX - BLUE BOX", "note": "ON 12/24 AND 12/31, THIS BOX MAY BE COLLECTED AS EARLY AS 12 NOON.", "nsi_id": "unitedstatespostalservice-a77078", "operator": "United States Postal Service", "operator:short": "USPS", "operator:type": "public", "operator:wikidata": "Q668687", "ref": "6863700001"}, "type": "Feature"}
{"dataset_attributes": {"@spider": "usps_collection_boxes", "spider:collection_time": "2023-10-22T08:22:45.367372"}, "geometry": {"coordinates": [-98.677196785, 41.779948634], "type": "Point"}, "id": "DaZsG3seK2ZcOjPw2nnYr0BiKO8=", "properties": {"@spider": "usps_collection_boxes", "addr:city": "ERICSON", "addr:country": "US", "addr:full": "605 CENTRAL AVE", "addr:postcode": "68637", "addr:state": "NE", "amenity": "post_box", "brand": "United States Postal Service", "brand:wikidata": "Q668687", "collection_times": "Mo-Fr 12:45; Sa 11:00", "name": "USPS COLLECTION BOX - PO LOBBY", "note": "ON 12/24 AND 12/31, THIS BOX MAY BE COLLECTED AS EARLY AS 12 NOON.", "nsi_id": "unitedstatespostalservice-a77078", "operator": "United States Postal Service", "operator:short": "USPS", "operator:type": "public", "operator:wikidata": "Q668687", "ref": "6863700002"}, "type": "Feature"}
{"dataset_attributes": {"@spider": "usps_collection_boxes", "spider:collection_time": "2023-10-22T08:22:45.367372"}, "geometry": {"coordinates": [-98.677193397, 41.779956855], "type": "Point"}, "id": "u8xw38nI8u13te1etIgvoAQb25I=", "properties": {"@spider": "usps_collection_boxes", "addr:city": "ERICSON", "addr:country": "US", "addr:full": "605 CENTRAL AVE", "addr:postcode": "68637", "addr:state": "NE", "amenity": "post_box", "brand": "United States Postal Service", "brand:wikidata": "Q668687", "collection_times": "Mo-Fr 12:45; Sa 11:00", "name": "USPS COLLECTION BOX - PO LOBBY", "note": "ON 12/24 AND 12/31, THIS BOX MAY BE COLLECTED AS EARLY AS 12 NOON.", "nsi_id": "unitedstatespostalservice-a77078", "operator": "United States Postal Service", "operator:short": "USPS", "operator:type": "public", "operator:wikidata": "Q668687", "ref": "6863700003"}, "type": "Feature"}
{"dataset_attributes": {"@spider": "usps_collection_boxes", "spider:collection_time": "2023-10-22T08:22:45.367372"}, "geometry": {"coordinates": [-97.968787572, 41.361533078], "type": "Point"}, "id": "VHTSkjHrYjSc_M09LoD0GSH40Ro=", "properties": {"@spider": "usps_collection_boxes", "addr:city": "FULLERTON", "addr:country": "US", "addr:full": "420 BROADWAY ST", "addr:postcode": "68638", "addr:state": "NE", "amenity": "post_box", "brand": "United States Postal Service", "brand:wikidata": "Q668687", "collection_times": "Mo-Fr 14:40; Sa 14:30", "name": "USPS COLLECTION BOX - BLUE BOX", "note": "ON 12/24 AND 12/31, THIS BOX MAY BE COLLECTED AS EARLY AS 12 NOON.", "nsi_id": "unitedstatespostalservice-a77078", "operator": "United States Postal Service", "operator:short": "USPS", "operator:type": "public", "operator:wikidata": "Q668687", "ref": "6863800001"}, "type": "Feature"}
{"dataset_attributes": {"@spider": "usps_collection_boxes", "spider:collection_time": "2023-10-22T08:22:45.367372"}, "geometry": {"coordinates": [-97.968787572, 41.361533078], "type": "Point"}, "id": "GktPMFcNWOv1aUt8MJe71Vuy1Cw=", "properties": {"@spider": "usps_collection_boxes", "addr:city": "FULLERTON", "addr:country": "US", "addr:full": "420 BROADWAY ST", "addr:postcode": "68638", "addr:state": "NE", "amenity": "post_box", "brand": "United States Postal Service", "brand:wikidata": "Q668687", "collection_times": "Mo-Fr 14:30; Sa 09:45", "name": "USPS COLLECTION BOX - PO LOBBY", "note": "ON 12/24 AND 12/31, THIS BOX MAY BE COLLECTED AS EARLY AS 12 NOON.", "nsi_id": "unitedstatespostalservice-a77078", "operator": "United States Postal Service", "operator:short": "USPS", "operator:type": "public", "operator:wikidata": "Q668687", "ref": "6863800002"}, "type": "Feature"}
{"dataset_attributes": {"@spider": "usps_collection_boxes", "spider:collection_time": "2023-10-22T08:22:45.367372"}, "geometry": {"coordinates": [-97.968787572, 41.361533078], "type": "Point"}, "id": "oGyKTVrUEFks4OIw-nQ-BgslfSA=", "properties": {"@spider": "usps_collection_boxes", "addr:city": "FULLERTON", "addr:country": "US", "addr:full": "420 BROADWAY ST", "addr:postcode": "68638", "addr:state": "NE", "amenity": "post_box", "brand": "United States Postal Service", "brand:wikidata": "Q668687", "collection_times": "Mo-Fr 14:30; Sa 09:45", "name": "USPS COLLECTION BOX - PO LOBBY", "note": "ON 12/24 AND 12/31, THIS BOX MAY BE COLLECTED AS EARLY AS 12 NOON.", "nsi_id": "unitedstatespostalservice-a77078", "operator": "United States Postal Service", "operator:short": "USPS", "operator:type": "public", "operator:wikidata": "Q668687", "ref": "6863800003"}, "type": "Feature"}
{"dataset_attributes": {"@spider": "usps_collection_boxes", "spider:collection_time": "2023-10-22T08:22:45.367372"}, "geometry": {"coordinates": [-97.731072, 41.448535536], "type": "Point"}, "id": "EFcEAfHzD07OZhrFzx7b-Flt-Cg=", "properties": {"@spider": "usps_collection_boxes", "addr:city": "GENOA", "addr:country": "US", "addr:full": "509 WILLARD AVE", "addr:postcode": "68640", "addr:state": "NE", "amenity": "post_box", "brand": "United States Postal Service", "brand:wikidata": "Q668687", "collection_times": "Mo-Sa 15:10", "name": "USPS COLLECTION BOX - BLUE BOX", "note": "ON 12/24 AND 12/31, THIS BOX MAY BE COLLECTED AS EARLY AS 12 NOON.", "nsi_id": "unitedstatespostalservice-a77078", "operator": "United States Postal Service", "operator:short": "USPS", "operator:type": "public", "operator:wikidata": "Q668687", "ref": "6864000001"}, "type": "Feature"}
{"dataset_attributes": {"@spider": "usps_collection_boxes", "spider:collection_time": "2023-10-22T08:22:45.367372"}, "geometry": {"coordinates": [-97.731072, 41.448535536], "type": "Point"}, "id": "a6XH9QOaDVQc3zWBry3M_7Q9afk=", "properties": {"@spider": "usps_collection_boxes", "addr:city": "GENOA", "addr:country": "US", "addr:full": "509 WILLARD AVE", "addr:postcode": "68640", "addr:state": "NE", "amenity": "post_box", "brand": "United States Postal Service", "brand:wikidata": "Q668687", "collection_times": "Mo-Fr 15:10; Sa 09:45", "name": "USPS COLLECTION BOX - PO LOBBY", "note": "ON 12/24 AND 12/31, THIS BOX MAY BE COLLECTED AS EARLY AS 12 NOON.", "nsi_id": "unitedstatespostalservice-a77078", "operator": "United States Postal Service", "operator:short": "USPS", "operator:type": "public", "operator:wikidata": "Q668687", "ref": "6864000002"}, "type": "Feature"}
{"dataset_attributes": {"@spider": "usps_collection_boxes", "spider:collection_time": "2023-10-22T08:22:45.367372"}, "geometry": {"coordinates": [-97.731072, 41.448535536], "type": "Point"}, "id": "3-JUKMbYZjLCoCThOo2f9elRNWY=", "properties": {"@spider": "usps_collection_boxes", "addr:city": "GENOA", "addr:country": "US", "addr:full": "509 WILLARD AVE", "addr:postcode": "68640", "addr:state": "NE", "amenity": "post_box", "brand": "United States Postal Service", "brand:wikidata": "Q668687", "collection_times": "Mo-Fr 15:10; Sa 09:45", "name": "USPS COLLECTION BOX - PO LOBBY", "note": "ON 12/24 AND 12/31, THIS BOX MAY BE COLLECTED AS EARLY AS 12 NOON.", "nsi_id": "unitedstatespostalservice-a77078", "operator": "United States Postal Service", "operator:short": "USPS", "operator:type": "public", "operator:wikidata": "Q668687", "ref": "6864000003"}, "type": "Feature"}
{"dataset_attributes": {"@spider": "usps_collection_boxes", "spider:collection_time": "2023-10-22T08:22:45.367372"}, "geometry": {"coordinates": [-97.002930361, 41.725229295], "type": "Point"}, "id": "o-8Iy_t5PtrLdFiOmtk25JEKojQ=", "properties": {"@spider": "usps_collection_boxes", "addr:city": "HOWELLS", "addr:country": "US", "addr:full": "120 N 3RD ST", "addr:postcode": "68641", "addr:state": "NE", "amenity": "post_box", "brand": "United States Postal Service", "brand:wikidata": "Q668687", "collection_times": "Mo-Sa 13:30", "name": "USPS COLLECTION BOX - BLUE BOX", "note": "ON 12/24 AND 12/31, THIS BOX MAY BE COLLECTED AS EARLY AS 12 NOON.", "nsi_id": "unitedstatespostalservice-a77078", "operator": "United States Postal Service", "operator:short": "USPS", "operator:type": "public", "operator:wikidata": "Q668687", "ref": "6864100001"}, "type": "Feature"}
{"dataset_attributes": {"@spider": "usps_collection_boxes", "spider:collection_time": "2023-10-22T08:22:45.367372"}, "geometry": {"coordinates": [-97.002930361, 41.725229295], "type": "Point"}, "id": "eC0-g_YgEptrwYyOXhBWAGviF2g=", "properties": {"@spider": "usps_collection_boxes", "addr:city": "HOWELLS", "addr:country": "US", "addr:full": "120 N 3RD ST", "addr:postcode": "68641", "addr:state": "NE", "amenity": "post_box", "brand": "United States Postal Service", "brand:wikidata": "Q668687", "collection_times": "Mo-Fr 13:30; Sa 10:15", "name": "USPS COLLECTION BOX - PO LOBBY", "note": "ON 12/24 AND 12/31, THIS BOX MAY BE COLLECTED AS EARLY AS 12 NOON.", "nsi_id": "unitedstatespostalservice-a77078", "operator": "United States Postal Service", "operator:short": "USPS", "operator:type": "public", "operator:wikidata": "Q668687", "ref": "6864100002"}, "type": "Feature"}
{"dataset_attributes": {"@spider": "usps_collection_boxes", "spider:collection_time": "2023-10-22T08:22:45.367372"}, "geometry": {"coordinates": [-97.002930361, 41.725229295], "type": "Point"}, "id": "uEQ6CeoGjaZOzwhBxjnph6NA9mM=", "properties": {"@spider": "usps_collection_boxes", "addr:city": "HOWELLS", "addr:country": "US", "addr:full": "120 N 3RD ST", "addr:postcode": "68641", "addr:state": "NE", "amenity": "post_box", "brand": "United States Postal Service", "brand:wikidata": "Q668687", "collection_times": "Mo-Fr 13:30; Sa 10:15", "name": "USPS COLLECTION BOX - PO LOBBY", "note": "ON 12/24 AND 12/31, THIS BOX MAY BE COLLECTED AS EARLY AS 12 NOON.", "nsi_id": "unitedstatespostalservice-a77078", "operator": "United States Postal Service", "operator:short": "USPS", "operator:type": "public", "operator:wikidata": "Q668687", "ref": "6864100003"}, "type": "Feature"}
{"dataset_attributes": {"@spider": "usps_collection_boxes", "spider:collection_time": "2023-10-22T08:22:45.367372"}, "geometry": {"coordinates": [-97.485353277, 41.69178553], "type": "Point"}, "id": "7CzZJsfjLKOfqDjStA5bRpsrxJk=", "properties": {"@spider": "usps_collection_boxes", "addr:city": "HUMPHREY", "addr:country": "US", "addr:full": "312 MAIN ST", "addr:postcode": "68642", "addr:state": "NE", "amenity": "post_box", "brand": "United States Postal Service", "brand:wikidata": "Q668687", "collection_times": "Mo-Sa 14:45", "name": "USPS COLLECTION BOX - BLUE BOX", "note": "ON 12/24 AND 12/31, THIS BOX MAY BE COLLECTED AS EARLY AS 12 NOON.", "nsi_id": "unitedstatespostalservice-a77078", "operator": "United States Postal Service", "operator:short": "USPS", "operator:type": "public", "operator:wikidata": "Q668687", "ref": "6864200001"}, "type": "Feature"}
{"dataset_attributes": {"@spider": "usps_collection_boxes", "spider:collection_time": "2023-10-22T08:22:45.367372"}, "geometry": {"coordinates": [-97.485353277, 41.69178553], "type": "Point"}, "id": "k-O4oYIMxvIx8l3XpPGk0VZ5IPk=", "properties": {"@spider": "usps_collection_boxes", "addr:city": "HUMPHREY", "addr:country": "US", "addr:full": "312 MAIN ST", "addr:postcode": "68642", "addr:state": "NE", "amenity": "post_box", "brand": "United States Postal Service", "brand:wikidata": "Q668687", "collection_times": "Mo-Fr 14:45; Sa 09:15", "name": "USPS COLLECTION BOX - PO LOBBY", "note": "ON 12/24 AND 12/31, THIS BOX MAY BE COLLECTED AS EARLY AS 12 NOON.", "nsi_id": "unitedstatespostalservice-a77078", "operator": "United States Postal Service", "operator:short": "USPS", "operator:type": "public", "operator:wikidata": "Q668687", "ref": "6864200002"}, "type": "Feature"}
{"dataset_attributes": {"@spider": "usps_collection_boxes", "spider:collection_time": "2023-10-22T08:22:45.367372"}, "geometry": {"coordinates": [-97.485353277, 41.69178553], "type": "Point"}, "id": "GIHcQdOvFPWyFLbUHyFVKCZ_TPc=", "properties": {"@spider": "usps_collection_boxes", "addr:city": "HUMPHREY", "addr:country": "US", "addr:full": "312 MAIN ST", "addr:postcode": "68642", "addr:state": "NE", "amenity": "post_box", "brand": "United States Postal Service", "brand:wikidata": "Q668687", "collection_times": "Mo-Fr 14:45; Sa 09:15", "name": "USPS COLLECTION BOX - PO LOBBY", "note": "ON 12/24 AND 12/31, THIS BOX MAY BE COLLECTED AS EARLY AS 12 NOON.", "nsi_id": "unitedstatespostalservice-a77078", "operator": "United States Postal Service", "operator:short": "USPS", "operator:type": "public", "operator:wikidata": "Q668687", "ref": "6864200003"}, "type": "Feature"}
{"dataset_attributes": {"@spider": "usps_collection_boxes", "spider:collection_time": "2023-10-22T08:22:45.367372"}, "geometry": {"coordinates": [-97.238197312, 41.705055503], "type": "Point"}, "id": "_fDq8prKiR6taZMXsJ5gzBYTcaI=", "properties": {"@spider": "usps_collection_boxes", "addr:city": "LEIGH", "addr:country": "US", "addr:full": "167 N MAIN ST", "addr:postcode": "68643", "addr:state": "NE", "amenity": "post_box", "brand": "United States Postal Service", "brand:wikidata": "Q668687", "collection_times": "Mo-Sa 14:10", "name": "USPS COLLECTION BOX - BLUE BOX", "note": "ON 12/24 AND 12/31, THIS BOX MAY BE COLLECTED AS EARLY AS 12 NOON.", "nsi_id": "unitedstatespostalservice-a77078", "operator": "United States Postal Service", "operator:short": "USPS", "operator:type": "public", "operator:wikidata": "Q668687", "ref": "6864300001"}, "type": "Feature"}
{"dataset_attributes": {"@spider": "usps_collection_boxes", "spider:collection_time": "2023-10-22T08:22:45.367372"}, "geometry": {"coordinates": [-97.238197312, 41.705055503], "type": "Point"}, "id": "5Xa19VMvCjjcjUpWHrjCWZcL0kY=", "properties": {"@spider": "usps_collection_boxes", "addr:city": "LEIGH", "addr:country": "US", "addr:full": "167 N MAIN ST", "addr:postcode": "68643", "addr:state": "NE", "amenity": "post_box", "brand": "United States Postal Service", "brand:wikidata": "Q668687", "collection_times": "Mo-Fr 14:00; Sa 10:00", "name": "USPS COLLECTION BOX - PO LOBBY", "note": "ON 12/24 AND 12/31, THIS BOX MAY BE COLLECTED AS EARLY AS 12 NOON.", "nsi_id": "unitedstatespostalservice-a77078", "operator": "United States Postal Service", "operator:short": "USPS", "operator:type": "public", "operator:wikidata": "Q668687", "ref": "6864300002"}, "type": "Feature"}
{"dataset_attributes": {"@spider": "usps_collection_boxes", "spider:collection_time": "2023-10-22T08:22:45.367372"}, "geometry": {"coordinates": [-97.238197312, 41.705055503], "type": "Point"}, "id": "CtuV0iO2vw0mW0rh-jm29noKa38=", "properties": {"@spider": "usps_collection_boxes", "addr:city": "LEIGH", "addr:country": "US", "addr:full": "167 N MAIN ST", "addr:postcode": "68643", "addr:state": "NE", "amenity": "post_box", "brand": "United States Postal Service", "brand:wikidata": "Q668687", "collection_times": "Mo-Fr 14:00; Sa 10:00", "name": "USPS COLLECTION BOX - PO LOBBY", "note": "ON 12/24 AND 12/31, THIS BOX MAY BE COLLECTED AS EARLY AS 12 NOON.", "nsi_id": "unitedstatespostalservice-a77078", "operator": "United States Postal Service", "operator:short": "USPS", "operator:type": "public", "operator:wikidata": "Q668687", "ref": "6864300003"}, "type": "Feature"}
{"dataset_attributes": {"@spider": "usps_collection_boxes", "spider:collection_time": "2023-10-22T08:22:45.367372"}, "geometry": {"coordinates": [-97.693867247, 41.698686443], "type": "Point"}, "id": "ALwaw6kNrSDl7i5XLi7OIGk7yUE=", "properties": {"@spider": "usps_collection_boxes", "addr:city": "LINDSAY", "addr:country": "US", "addr:full": "105 PINE ST", "addr:postcode": "68644", "addr:state": "NE", "amenity": "post_box", "brand": "United States Postal Service", "brand:wikidata": "Q668687", "collection_times": "Mo-Sa 15:25", "name": "USPS COLLECTION BOX - BLUE BOX", "note": "ON 12/24 AND 12/31, THIS BOX MAY BE COLLECTED AS EARLY AS 12 NOON.", "nsi_id": "unitedstatespostalservice-a77078", "operator": "United States Postal Service", "operator:short": "USPS", "operator:type": "public", "operator:wikidata": "Q668687", "ref": "6864400001"}, "type": "Feature"}
{"dataset_attributes": {"@spider": "usps_collection_boxes", "spider:collection_time": "2023-10-22T08:22:45.367372"}, "geometry": {"coordinates": [-97.693867247, 41.698686443], "type": "Point"}, "id": "SgFp94322HsyfAFiD9qvc8lzUU4=", "properties": {"@spider": "usps_collection_boxes", "addr:city": "LINDSAY", "addr:country": "US", "addr:full": "105 PINE ST", "addr:postcode": "68644", "addr:state": "NE", "amenity": "post_box", "brand": "United States Postal Service", "brand:wikidata": "Q668687", "collection_times": "Mo-Fr 13:45; Sa 08:45", "name": "USPS COLLECTION BOX - PO LOBBY", "note": "ON 12/24 AND 12/31, THIS BOX MAY BE COLLECTED AS EARLY AS 12 NOON.", "nsi_id": "unitedstatespostalservice-a77078", "operator": "United States Postal Service", "operator:short": "USPS", "operator:type": "public", "operator:wikidata": "Q668687", "ref": "6864400002"}, "type": "Feature"}
{"dataset_attributes": {"@spider": "usps_collection_boxes", "spider:collection_time": "2023-10-22T08:22:45.367372"}, "geometry": {"coordinates": [-97.693867247, 41.698686443], "type": "Point"}, "id": "QL9SqBOQKqNFKZ3xbQfXjk_4tPg=", "properties": {"@spider": "usps_collection_boxes", "addr:city": "LINDSAY", "addr:country": "US", "addr:full": "105 PINE ST", "addr:postcode": "68644", "addr:state": "NE", "amenity": "post_box", "brand": "United States Postal Service", "brand:wikidata": "Q668687", "collection_times": "Mo-Fr 13:45; Sa 08:45", "name": "USPS COLLECTION BOX - PO LOBBY", "note": "ON 12/24 AND 12/31, THIS BOX MAY BE COLLECTED AS EARLY AS 12 NOON.", "nsi_id": "unitedstatespostalservice-a77078", "operator": "United States Postal Service", "operator:short": "USPS", "operator:type": "public", "operator:wikidata": "Q668687", "ref": "6864400003"}, "type": "Feature"}
{"dataset_attributes": {"@spider": "usps_collection_boxes", "spider:collection_time": "2023-10-22T08:22:45.367372"}, "geometry": {"coordinates": [-97.599581277, 41.474164472], "type": "Point"}, "id": "hHDFe4TqyB62FkzMLVpES2bSvak=", "properties": {"@spider": "usps_collection_boxes", "addr:city": "MONROE", "addr:country": "US", "addr:full": "406 GERRARD AVE", "addr:postcode": "68647", "addr:state": "NE", "amenity": "post_box", "brand": "United States Postal Service", "brand:wikidata": "Q668687", "collection_times": "Mo-Sa 15:30", "name": "USPS COLLECTION BOX - BLUE BOX", "note": "ON 12/24 AND 12/31, THIS BOX MAY BE COLLECTED AS EARLY AS 12 NOON.", "nsi_id": "unitedstatespostalservice-a77078", "operator": "United States Postal Service", "operator:short": "USPS", "operator:type": "public", "operator:wikidata": "Q668687", "ref": "6864700001"}, "type": "Feature"}
{"dataset_attributes": {"@spider": "usps_collection_boxes", "spider:collection_time": "2023-10-22T08:22:45.367372"}, "geometry": {"coordinates": [-97.599581277, 41.474164472], "type": "Point"}, "id": "Ji6jYkYc9pToOK64N9tgR5vWK0c=", "properties": {"@spider": "usps_collection_boxes", "addr:city": "MONROE", "addr:country": "US", "addr:full": "406 GERRARD AVE", "addr:postcode": "68647", "addr:state": "NE", "amenity": "post_box", "brand": "United States Postal Service", "brand:wikidata": "Q668687", "collection_times": "Mo-Fr 11:45; Sa 11:15", "name": "USPS COLLECTION BOX - PO LOBBY", "nsi_id": "unitedstatespostalservice-a77078", "operator": "United States Postal Service", "operator:short": "USPS", "operator:type": "public", "operator:wikidata": "Q668687", "ref": "6864700002"}, "type": "Feature"}
{"dataset_attributes": {"@spider": "usps_collection_boxes", "spider:collection_time": "2023-10-22T08:22:45.367372"}, "geometry": {"coordinates": [-97.599581277, 41.474164472], "type": "Point"}, "id": "fkFdpnYtc4pFuAzWnypelvQAP8I=", "properties": {"@spider": "usps_collection_boxes", "addr:city": "MONROE", "addr:country": "US", "addr:full": "406 GERRARD AVE", "addr:postcode": "68647", "addr:state": "NE", "amenity": "post_box", "brand": "United States Postal Service", "brand:wikidata": "Q668687", "collection_times": "Mo-Fr 11:45; Sa 11:15", "name": "USPS COLLECTION BOX - PO LOBBY", "nsi_id": "unitedstatespostalservice-a77078", "operator": "United States Postal Service", "operator:short": "USPS", "operator:type": "public", "operator:wikidata": "Q668687", "ref": "6864700003"}, "type": "Feature"}
{"dataset_attributes": {"@spider": "usps_collection_boxes", "spider:collection_time": "2023-10-22T08:22:45.367372"}, "geometry": {"coordinates": [-96.768373835, 41.431953519], "type": "Point"}, "id": "b-yBHCJhnjgHms1F-6ecd57wjN4=", "properties": {"@spider": "usps_collection_boxes", "addr:city": "MORSE BLUFF", "addr:country": "US", "addr:full": "251 2ND ST", "addr:postcode": "68648", "addr:state": "NE", "amenity": "post_box", "brand": "United States Postal Service", "brand:wikidata": "Q668687", "collection_times": "Mo-Fr 15:00; Sa 14:55", "name": "USPS COLLECTION BOX - BLUE BOX", "note": "ON 12/24 AND 12/31, THIS BOX MAY BE COLLECTED AS EARLY AS 12 NOON.", "nsi_id": "unitedstatespostalservice-a77078", "operator": "United States Postal Service", "operator:short": "USPS", "operator:type": "public", "operator:wikidata": "Q668687", "ref": "6864800001"}, "type": "Feature"}
{"dataset_attributes": {"@spider": "usps_collection_boxes", "spider:collection_time": "2023-10-22T08:22:45.367372"}, "geometry": {"coordinates": [-96.768373835, 41.431953519], "type": "Point"}, "id": "6uke4F2y6zKv_KlFUGHgHzfwD6A=", "properties": {"@spider": "usps_collection_boxes", "addr:city": "MORSE BLUFF", "addr:country": "US", "addr:full": "251 2ND ST", "addr:postcode": "68648", "addr:state": "NE", "amenity": "post_box", "brand": "United States Postal Service", "brand:wikidata": "Q668687", "collection_times": "Mo-Fr 12:45; Sa 11:00", "name": "USPS COLLECTION BOX - PO LOBBY", "note": "ON 12/24 AND 12/31, THIS BOX MAY BE COLLECTED AS EARLY AS 12 NOON.", "nsi_id": "unitedstatespostalservice-a77078", "operator": "United States Postal Service", "operator:short": "USPS", "operator:type": "public", "operator:wikidata": "Q668687", "ref": "6864800002"}, "type": "Feature"}
{"dataset_attributes": {"@spider": "usps_collection_boxes", "spider:collection_time": "2023-10-22T08:22:45.367372"}, "geometry": {"coordinates": [-96.768373835, 41.431953519], "type": "Point"}, "id": "t_ta8YjmIJRO0DzkWYOiKACi1I8=", "properties": {"@spider": "usps_collection_boxes", "addr:city": "MORSE BLUFF", "addr:country": "US", "addr:full": "251 2ND ST", "addr:postcode": "68648", "addr:state": "NE", "amenity": "post_box", "brand": "United States Postal Service", "brand:wikidata": "Q668687", "collection_times": "Mo-Fr 12:45; Sa 11:00", "name": "USPS COLLECTION BOX - PO LOBBY", "note": "ON 12/24 AND 12/31, THIS BOX MAY BE COLLECTED AS EARLY AS 12 NOON.", "nsi_id": "unitedstatespostalservice-a77078", "operator": "United States Postal Service", "operator:short": "USPS", "operator:type": "public", "operator:wikidata": "Q668687", "ref": "6864800003"}, "type": "Feature"}
{"dataset_attributes": {"@spider": "usps_collection_boxes", "spider:collection_time": "2023-10-22T08:22:45.367372"}, "geometry": {"coordinates": [-96.7809915, 41.4627595226], "type": "Point"}, "id": "hAU_INs_pgOjvfSUVxQb1_Acs_o=", "properties": {"@spider": "usps_collection_boxes", "addr:city": "NORTH BEND", "addr:country": "US", "addr:full": "134 W 7TH ST", "addr:postcode": "68649", "addr:state": "NE", "amenity": "post_box", "brand": "United States Postal Service", "brand:wikidata": "Q668687", "collection_times": "Mo-Fr 14:45; Sa 15:00", "name": "USPS COLLECTION BOX - BLUE BOX", "note": "ON 12/24 AND 12/31, THIS BOX MAY BE COLLECTED AS EARLY AS 12 NOON.", "nsi_id": "unitedstatespostalservice-a77078", "operator": "United States Postal Service", "operator:short": "USPS", "operator:type": "public", "operator:wikidata": "Q668687", "ref": "6864900000"}, "type": "Feature"}
{"dataset_attributes": {"@spider": "usps_collection_boxes", "spider:collection_time": "2023-10-22T08:22:45.367372"}, "geometry": {"coordinates": [-96.7809915, 41.4627595226], "type": "Point"}, "id": "OiRkIlA0aunHy2102TPBRtS9MmE=", "properties": {"@spider": "usps_collection_boxes", "addr:city": "NORTH BEND", "addr:country": "US", "addr:full": "134 W 7TH ST", "addr:postcode": "68649", "addr:state": "NE", "amenity": "post_box", "brand": "United States Postal Service", "brand:wikidata": "Q668687", "collection_times": "Mo-Fr 14:45; Sa 09:45", "name": "USPS COLLECTION BOX - PO LOBBY", "note": "ON 12/24 AND 12/31, THIS BOX MAY BE COLLECTED AS EARLY AS 12 NOON.", "nsi_id": "unitedstatespostalservice-a77078", "operator": "United States Postal Service", "operator:short": "USPS", "operator:type": "public", "operator:wikidata": "Q668687", "ref": "6864900001"}, "type": "Feature"}
{"dataset_attributes": {"@spider": "usps_collection_boxes", "spider:collection_time": "2023-10-22T08:22:45.367372"}, "geometry": {"coordinates": [-96.7809915, 41.4627595226], "type": "Point"}, "id": "Km-t6WTv6vc6OFOfUyQ3QJYRZLQ=", "properties": {"@spider": "usps_collection_boxes", "addr:city": "NORTH BEND", "addr:country": "US", "addr:full": "134 W 7TH ST", "addr:postcode": "68649", "addr:state": "NE", "amenity": "post_box", "brand": "United States Postal Service", "brand:wikidata": "Q668687", "collection_times": "Mo-Fr 14:45; Sa 09:45", "name": "USPS COLLECTION BOX - PO LOBBY", "note": "ON 12/24 AND 12/31, THIS BOX MAY BE COLLECTED AS EARLY AS 12 NOON.", "nsi_id": "unitedstatespostalservice-a77078", "operator": "United States Postal Service", "operator:short": "USPS", "operator:type": "public", "operator:wikidata": "Q668687", "ref": "6864900002"}, "type": "Feature"}
{"dataset_attributes": {"@spider": "usps_collection_boxes", "spider:collection_time": "2023-10-22T08:22:45.367372"}, "geometry": {"coordinates": [-97.546885505, 41.17932], "type": "Point"}, "id": "IkhjkgC-OLcmZhdArEfK1YZMz6k=", "properties": {"@spider": "usps_collection_boxes", "addr:city": "OSCEOLA", "addr:country": "US", "addr:full": "241 N MAIN ST", "addr:postcode": "68651", "addr:state": "NE", "amenity": "post_box", "brand": "United States Postal Service", "brand:wikidata": "Q668687", "collection_times": "Mo-Sa 14:45", "name": "USPS COLLECTION BOX - BLUE BOX", "note": "ON 12/24 AND 12/31, THIS BOX MAY BE COLLECTED AS EARLY AS 12 NOON.", "nsi_id": "unitedstatespostalservice-a77078", "operator": "United States Postal Service", "operator:short": "USPS", "operator:type": "public", "operator:wikidata": "Q668687", "ref": "6865100001"}, "type": "Feature"}
{"dataset_attributes": {"@spider": "usps_collection_boxes", "spider:collection_time": "2023-10-22T08:22:45.367372"}, "geometry": {"coordinates": [-97.546885505, 41.17932], "type": "Point"}, "id": "5KOWteP3K8n_1rDunsuABoFwiQU=", "properties": {"@spider": "usps_collection_boxes", "addr:city": "OSCEOLA", "addr:country": "US", "addr:full": "241 N MAIN ST", "addr:postcode": "68651", "addr:state": "NE", "amenity": "post_box", "brand": "United States Postal Service", "brand:wikidata": "Q668687", "collection_times": "Mo-Fr 14:45; Sa 10:15", "name": "USPS COLLECTION BOX - PO LOBBY", "note": "ON 12/24 AND 12/31, THIS BOX MAY BE COLLECTED AS EARLY AS 12 NOON.", "nsi_id": "unitedstatespostalservice-a77078", "operator": "United States Postal Service", "operator:short": "USPS", "operator:type": "public", "operator:wikidata": "Q668687", "ref": "6865100002"}, "type": "Feature"}
{"dataset_attributes": {"@spider": "usps_collection_boxes", "spider:collection_time": "2023-10-22T08:22:45.367372"}, "geometry": {"coordinates": [-97.546885505, 41.17932], "type": "Point"}, "id": "Lq5smZZ4Q9AhaTsGqqXXX7-xi8U=", "properties": {"@spider": "usps_collection_boxes", "addr:city": "OSCEOLA", "addr:country": "US", "addr:full": "241 N MAIN ST", "addr:postcode": "68651", "addr:state": "NE", "amenity": "post_box", "brand": "United States Postal Service", "brand:wikidata": "Q668687", "collection_times": "Mo-Fr 14:45; Sa 10:15", "name": "USPS COLLECTION BOX - PO LOBBY", "note": "ON 12/24 AND 12/31, THIS BOX MAY BE COLLECTED AS EARLY AS 12 NOON.", "nsi_id": "unitedstatespostalservice-a77078", "operator": "United States Postal Service", "operator:short": "USPS", "operator:type": "public", "operator:wikidata": "Q668687", "ref": "6865100003"}, "type": "Feature"}
{"dataset_attributes": {"@spider": "usps_collection_boxes", "spider:collection_time": "2023-10-22T08:22:45.367372"}, "geometry": {"coordinates": [-98.081428356, 41.853568722], "type": "Point"}, "id": "NPNcJ3o7XQ5sM08tqGBR4xeomX4=", "properties": {"@spider": "usps_collection_boxes", "addr:city": "PETERSBURG", "addr:country": "US", "addr:full": "120 MAIN ST", "addr:postcode": "68652", "addr:state": "NE", "amenity": "post_box", "brand": "United States Postal Service", "brand:wikidata": "Q668687", "collection_times": "Mo-Sa 13:20", "name": "USPS COLLECTION BOX - BLUE BOX", "note": "ON 12/24 AND 12/31, THIS BOX MAY BE COLLECTED AS EARLY AS 12 NOON.", "nsi_id": "unitedstatespostalservice-a77078", "operator": "United States Postal Service", "operator:short": "USPS", "operator:type": "public", "operator:wikidata": "Q668687", "ref": "6865200001"}, "type": "Feature"}
{"dataset_attributes": {"@spider": "usps_collection_boxes", "spider:collection_time": "2023-10-22T08:22:45.367372"}, "geometry": {"coordinates": [-98.081428356, 41.853568722], "type": "Point"}, "id": "W9WxaeXFgHIb2PAY5MALvSyAHZE=", "properties": {"@spider": "usps_collection_boxes", "addr:city": "PETERSBURG", "addr:country": "US", "addr:full": "120 MAIN ST", "addr:postcode": "68652", "addr:state": "NE", "amenity": "post_box", "brand": "United States Postal Service", "brand:wikidata": "Q668687", "collection_times": "Mo-Fr 12:45; Sa 09:45", "name": "USPS COLLECTION BOX - PO LOBBY", "note": "ON 12/24 AND 12/31, THIS BOX MAY BE COLLECTED AS EARLY AS 12 NOON.", "nsi_id": "unitedstatespostalservice-a77078", "operator": "United States Postal Service", "operator:short": "USPS", "operator:type": "public", "operator:wikidata": "Q668687", "ref": "6865200002"}, "type": "Feature"}
{"dataset_attributes": {"@spider": "usps_collection_boxes", "spider:collection_time": "2023-10-22T08:22:45.367372"}, "geometry": {"coordinates": [-98.081428356, 41.853568722], "type": "Point"}, "id": "JRjNj0f1mrh-C0-hj1_IhclwEFc=", "properties": {"@spider": "usps_collection_boxes", "addr:city": "PETERSBURG", "addr:country": "US", "addr:full": "120 MAIN ST", "addr:postcode": "68652", "addr:state": "NE", "amenity": "post_box", "brand": "United States Postal Service", "brand:wikidata": "Q668687", "collection_times": "Mo-Fr 12:45; Sa 09:45", "name": "USPS COLLECTION BOX - PO LOBBY", "note": "ON 12/24 AND 12/31, THIS BOX MAY BE COLLECTED AS EARLY AS 12 NOON.", "nsi_id": "unitedstatespostalservice-a77078", "operator": "United States Postal Service", "operator:short": "USPS", "operator:type": "public", "operator:wikidata": "Q668687", "ref": "6865200003"}, "type": "Feature"}
{"dataset_attributes": {"@spider": "usps_collection_boxes", "spider:collection_time": "2023-10-22T08:22:45.367372"}, "geometry": {"coordinates": [-97.486550277, 41.538560481], "type": "Point"}, "id": "oTJb52FuA6UXyU9c2urGsUGzAPI=", "properties": {"@spider": "usps_collection_boxes", "addr:city": "PLATTE CENTER", "addr:country": "US", "addr:full": "221 3RD ST", "addr:postcode": "68653", "addr:state": "NE", "amenity": "post_box", "brand": "United States Postal Service", "brand:wikidata": "Q668687", "collection_times": "Mo-Sa 15:50", "name": "USPS COLLECTION BOX - BLUE BOX", "note": "ON 12/24 AND 12/31, THIS BOX MAY BE COLLECTED AS EARLY AS 12 NOON.", "nsi_id": "unitedstatespostalservice-a77078", "operator": "United States Postal Service", "operator:short": "USPS", "operator:type": "public", "operator:wikidata": "Q668687", "ref": "6865300001"}, "type": "Feature"}
{"dataset_attributes": {"@spider": "usps_collection_boxes", "spider:collection_time": "2023-10-22T08:22:45.367372"}, "geometry": {"coordinates": [-97.486550277, 41.538560481], "type": "Point"}, "id": "MN0HEkZzbU8qaMI-BWcUqxFcfyM=", "properties": {"@spider": "usps_collection_boxes", "addr:city": "PLATTE CENTER", "addr:country": "US", "addr:full": "221 3RD ST", "addr:postcode": "68653", "addr:state": "NE", "amenity": "post_box", "brand": "United States Postal Service", "brand:wikidata": "Q668687", "collection_times": "Mo-Fr 13:45; Sa 10:45", "name": "USPS COLLECTION BOX - PO LOBBY", "note": "ON 12/24 AND 12/31, THIS BOX MAY BE COLLECTED AS EARLY AS 12 NOON.", "nsi_id": "unitedstatespostalservice-a77078", "operator": "United States Postal Service", "operator:short": "USPS", "operator:type": "public", "operator:wikidata": "Q668687", "ref": "6865300002"}, "type": "Feature"}
{"dataset_attributes": {"@spider": "usps_collection_boxes", "spider:collection_time": "2023-10-22T08:22:45.367372"}, "geometry": {"coordinates": [-97.486550277, 41.538560481], "type": "Point"}, "id": "LQ11Oa17UaJxCJolExCL3ZxOWro=", "properties": {"@spider": "usps_collection_boxes", "addr:city": "PLATTE CENTER", "addr:country": "US", "addr:full": "221 3RD ST", "addr:postcode": "68653", "addr:state": "NE", "amenity": "post_box", "brand": "United States Postal Service", "brand:wikidata": "Q668687", "collection_times": "Mo-Fr 13:45; Sa 10:45", "name": "USPS COLLECTION BOX - PO LOBBY", "note": "ON 12/24 AND 12/31, THIS BOX MAY BE COLLECTED AS EARLY AS 12 NOON.", "nsi_id": "unitedstatespostalservice-a77078", "operator": "United States Postal Service", "operator:short": "USPS", "operator:type": "public", "operator:wikidata": "Q668687", "ref": "6865300003"}, "type": "Feature"}
{"dataset_attributes": {"@spider": "usps_collection_boxes", "spider:collection_time": "2023-10-22T08:22:45.367372"}, "geometry": {"coordinates": [-97.783970477, 41.077008], "type": "Point"}, "id": "DCcdjzOmjO7ituMo3qyusIUtTlE=", "properties": {"@spider": "usps_collection_boxes", "addr:city": "POLK", "addr:country": "US", "addr:full": "210 N MAIN ST", "addr:postcode": "68654", "addr:state": "NE", "amenity": "post_box", "brand": "United States Postal Service", "brand:wikidata": "Q668687", "collection_times": "Mo-Sa 14:00", "name": "USPS COLLECTION BOX - BLUE BOX", "note": "ON 12/24 AND 12/31, THIS BOX MAY BE COLLECTED AS EARLY AS 12 NOON.", "nsi_id": "unitedstatespostalservice-a77078", "operator": "United States Postal Service", "operator:short": "USPS", "operator:type": "public", "operator:wikidata": "Q668687", "ref": "6865400001"}, "type": "Feature"}
{"dataset_attributes": {"@spider": "usps_collection_boxes", "spider:collection_time": "2023-10-22T08:22:45.367372"}, "geometry": {"coordinates": [-97.783970477, 41.077008], "type": "Point"}, "id": "7ZGYOnNVae3Dv3uDPxdrt0ugouk=", "properties": {"@spider": "usps_collection_boxes", "addr:city": "POLK", "addr:country": "US", "addr:full": "210 N MAIN ST", "addr:postcode": "68654", "addr:state": "NE", "amenity": "post_box", "brand": "United States Postal Service", "brand:wikidata": "Q668687", "collection_times": "Mo-Fr 12:45; Sa 12:30", "name": "USPS COLLECTION BOX - PO LOBBY", "note": "ON 12/24 AND 12/31, THIS BOX MAY BE COLLECTED AS EARLY AS 12 NOON.", "nsi_id": "unitedstatespostalservice-a77078", "operator": "United States Postal Service", "operator:short": "USPS", "operator:type": "public", "operator:wikidata": "Q668687", "ref": "6865400002"}, "type": "Feature"}
{"dataset_attributes": {"@spider": "usps_collection_boxes", "spider:collection_time": "2023-10-22T08:22:45.367372"}, "geometry": {"coordinates": [-97.783970477, 41.077008], "type": "Point"}, "id": "_E391W2Z_59WXqJGSqXmh26IMGo=", "properties": {"@spider": "usps_collection_boxes", "addr:city": "POLK", "addr:country": "US", "addr:full": "210 N MAIN ST", "addr:postcode": "68654", "addr:state": "NE", "amenity": "post_box", "brand": "United States Postal Service", "brand:wikidata": "Q668687", "collection_times": "Mo-Fr 12:45; Sa 12:30", "name": "USPS COLLECTION BOX - PO LOBBY", "note": "ON 12/24 AND 12/31, THIS BOX MAY BE COLLECTED AS EARLY AS 12 NOON.", "nsi_id": "unitedstatespostalservice-a77078", "operator": "United States Postal Service", "operator:short": "USPS", "operator:type": "public", "operator:wikidata": "Q668687", "ref": "6865400003"}, "type": "Feature"}
{"dataset_attributes": {"@spider": "usps_collection_boxes", "spider:collection_time": "2023-10-22T08:22:45.367372"}, "geometry": {"coordinates": [-97.296391214, 41.199762317], "type": "Point"}, "id": "rOdvrkv-P0PUqHVv-TfgHph9A2E=", "properties": {"@spider": "usps_collection_boxes", "addr:city": "RISING CITY", "addr:country": "US", "addr:full": "750 MAIN ST", "addr:postcode": "68658", "addr:state": "NE", "amenity": "post_box", "brand": "United States Postal Service", "brand:wikidata": "Q668687", "collection_times": "Mo-Sa 15:20", "name": "USPS COLLECTION BOX - BLUE BOX", "note": "ON 12/24 AND 12/31, THIS BOX MAY BE COLLECTED AS EARLY AS 12 NOON.", "nsi_id": "unitedstatespostalservice-a77078", "operator": "United States Postal Service", "operator:short": "USPS", "operator:type": "public", "operator:wikidata": "Q668687", "ref": "6865800001"}, "type": "Feature"}
{"dataset_attributes": {"@spider": "usps_collection_boxes", "spider:collection_time": "2023-10-22T08:22:45.367372"}, "geometry": {"coordinates": [-97.296391214, 41.199762317], "type": "Point"}, "id": "Wl-oYNoiLQg1LDdXpu5zJU0Fkwc=", "properties": {"@spider": "usps_collection_boxes", "addr:city": "RISING CITY", "addr:country": "US", "addr:full": "750 MAIN ST", "addr:postcode": "68658", "addr:state": "NE", "amenity": "post_box", "brand": "United States Postal Service", "brand:wikidata": "Q668687", "collection_times": "Mo-Fr 11:45; Sa 08:45", "name": "USPS COLLECTION BOX - PO LOBBY", "nsi_id": "unitedstatespostalservice-a77078", "operator": "United States Postal Service", "operator:short": "USPS", "operator:type": "public", "operator:wikidata": "Q668687", "ref": "6865800002"}, "type": "Feature"}
{"dataset_attributes": {"@spider": "usps_collection_boxes", "spider:collection_time": "2023-10-22T08:22:45.367372"}, "geometry": {"coordinates": [-97.296391214, 41.199762317], "type": "Point"}, "id": "0Vj5HGHD8Dv95F5embWsiUF0u_I=", "properties": {"@spider": "usps_collection_boxes", "addr:city": "RISING CITY", "addr:country": "US", "addr:full": "750 MAIN ST", "addr:postcode": "68658", "addr:state": "NE", "amenity": "post_box", "brand": "United States Postal Service", "brand:wikidata": "Q668687", "collection_times": "Mo-Fr 11:45; Sa 08:45", "name": "USPS COLLECTION BOX - PO LOBBY", "nsi_id": "unitedstatespostalservice-a77078", "operator": "United States Postal Service", "operator:short": "USPS", "operator:type": "public", "operator:wikidata": "Q668687", "ref": "6865800003"}, "type": "Feature"}
{"dataset_attributes": {"@spider": "usps_collection_boxes", "spider:collection_time": "2023-10-22T08:22:45.367372"}, "geometry": {"coordinates": [-97.866869151, 41.569979413], "type": "Point"}, "id": "dHJq_d9RO3Skn3LWhNASngkxHUw=", "properties": {"@spider": "usps_collection_boxes", "addr:city": "SAINT EDWARD", "addr:country": "US", "addr:full": "207 BEAVER ST", "addr:postcode": "68660", "addr:state": "NE", "amenity": "post_box", "brand": "United States Postal Service", "brand:wikidata": "Q668687", "collection_times": "Mo-Sa 14:00", "name": "USPS COLLECTION BOX - BLUE BOX", "note": "ON 12/24 AND 12/31, THIS BOX MAY BE COLLECTED AS EARLY AS 12 NOON.", "nsi_id": "unitedstatespostalservice-a77078", "operator": "United States Postal Service", "operator:short": "USPS", "operator:type": "public", "operator:wikidata": "Q668687", "ref": "6866000001"}, "type": "Feature"}
{"dataset_attributes": {"@spider": "usps_collection_boxes", "spider:collection_time": "2023-10-22T08:22:45.367372"}, "geometry": {"coordinates": [-97.8668691514, 41.5699794131], "type": "Point"}, "id": "EpZ7DMQuJDDdTLLe-kxd9jL3qHA=", "properties": {"@spider": "usps_collection_boxes", "addr:city": "SAINT EDWARD", "addr:country": "US", "addr:full": "207 BEAVER ST", "addr:postcode": "68660", "addr:state": "NE", "amenity": "post_box", "brand": "United States Postal Service", "brand:wikidata": "Q668687", "collection_times": "Mo-Fr 14:00; Sa 09:15", "name": "USPS COLLECTION BOX - PO LOBBY", "note": "ON 12/24 AND 12/31, THIS BOX MAY BE COLLECTED AS EARLY AS 12 NOON.", "nsi_id": "unitedstatespostalservice-a77078", "operator": "United States Postal Service", "operator:short": "USPS", "operator:type": "public", "operator:wikidata": "Q668687", "ref": "6866000002"}, "type": "Feature"}
{"dataset_attributes": {"@spider": "usps_collection_boxes", "spider:collection_time": "2023-10-22T08:22:45.367372"}, "geometry": {"coordinates": [-97.8668691514, 41.5699794131], "type": "Point"}, "id": "2vBqlrM6m4MdbxrWviTcRUlmM5c=", "properties": {"@spider": "usps_collection_boxes", "addr:city": "SAINT EDWARD", "addr:country": "US", "addr:full": "207 BEAVER ST", "addr:postcode": "68660", "addr:state": "NE", "amenity": "post_box", "brand": "United States Postal Service", "brand:wikidata": "Q668687", "collection_times": "Mo-Fr 14:00; Sa 09:15", "name": "USPS COLLECTION BOX - PO LOBBY", "note": "ON 12/24 AND 12/31, THIS BOX MAY BE COLLECTED AS EARLY AS 12 NOON.", "nsi_id": "unitedstatespostalservice-a77078", "operator": "United States Postal Service", "operator:short": "USPS", "operator:type": "public", "operator:wikidata": "Q668687", "ref": "6866000003"}, "type": "Feature"}
{"dataset_attributes": {"@spider": "usps_collection_boxes", "spider:collection_time": "2023-10-22T08:22:45.367372"}, "geometry": {"coordinates": [-97.060481026, 41.452651486], "type": "Point"}, "id": "Le8V3cxFJ9yHF3NSwqF0Zlg8yQI=", "properties": {"@spider": "usps_collection_boxes", "addr:city": "SCHUYLER", "addr:country": "US", "addr:full": "122 W 16TH ST", "addr:postcode": "68661", "addr:state": "NE", "amenity": "post_box", "brand": "United States Postal Service", "brand:wikidata": "Q668687", "collection_times": "Mo-Sa 13:00", "name": "USPS COLLECTION BOX - BLUE BOX", "note": "ON 12/24 AND 12/31, THIS BOX MAY BE COLLECTED AS EARLY AS 12 NOON.", "nsi_id": "unitedstatespostalservice-a77078", "operator": "United States Postal Service", "operator:short": "USPS", "operator:type": "public", "operator:wikidata": "Q668687", "ref": "6866100001"}, "type": "Feature"}
{"dataset_attributes": {"@spider": "usps_collection_boxes", "spider:collection_time": "2023-10-22T08:22:45.367372"}, "geometry": {"coordinates": [-97.05943697, 41.447272759], "type": "Point"}, "id": "nec4DAzhnMq1XDymNRh1faVYURs=", "properties": {"@spider": "usps_collection_boxes", "addr:city": "SCHUYLER", "addr:country": "US", "addr:full": "119 E 11TH ST", "addr:postcode": "68661", "addr:state": "NE", "amenity": "post_box", "brand": "United States Postal Service", "brand:wikidata": "Q668687", "collection_times": "Mo-Fr 15:45; Sa 15:37", "name": "USPS COLLECTION BOX - BLUE BOX", "note": "ON 12/24 AND 12/31, THIS BOX MAY BE COLLECTED AS EARLY AS 12 NOON.", "nsi_id": "unitedstatespostalservice-a77078", "operator": "United States Postal Service", "operator:short": "USPS", "operator:type": "public", "operator:wikidata": "Q668687", "ref": "6866100002"}, "type": "Feature"}
{"dataset_attributes": {"@spider": "usps_collection_boxes", "spider:collection_time": "2023-10-22T08:22:45.367372"}, "geometry": {"coordinates": [-97.05943697, 41.447272759], "type": "Point"}, "id": "vtrGfExU_-WHOfk4Bw-vF8doUIM=", "properties": {"@spider": "usps_collection_boxes", "addr:city": "SCHUYLER", "addr:country": "US", "addr:full": "119 E 11TH ST", "addr:postcode": "68661", "addr:state": "NE", "amenity": "post_box", "brand": "United States Postal Service", "brand:wikidata": "Q668687", "collection_times": "Mo-Fr 15:45; Sa 09:15", "name": "USPS COLLECTION BOX - PO LOBBY", "note": "ON 12/24 AND 12/31, THIS BOX MAY BE COLLECTED AS EARLY AS 12 NOON.", "nsi_id": "unitedstatespostalservice-a77078", "operator": "United States Postal Service", "operator:short": "USPS", "operator:type": "public", "operator:wikidata": "Q668687", "ref": "6866100006"}, "type": "Feature"}
{"dataset_attributes": {"@spider": "usps_collection_boxes", "spider:collection_time": "2023-10-22T08:22:45.367372"}, "geometry": {"coordinates": [-97.05943697, 41.447272759], "type": "Point"}, "id": "StDpd_6qQBEICyksd0CXl6KDdkM=", "properties": {"@spider": "usps_collection_boxes", "addr:city": "SCHUYLER", "addr:country": "US", "addr:full": "119 E 11TH ST", "addr:postcode": "68661", "addr:state": "NE", "amenity": "post_box", "brand": "United States Postal Service", "brand:wikidata": "Q668687", "collection_times": "Mo-Fr 15:45; Sa 09:15", "name": "USPS COLLECTION BOX - PO LOBBY", "note": "ON 12/24 AND 12/31, THIS BOX MAY BE COLLECTED AS EARLY AS 12 NOON.", "nsi_id": "unitedstatespostalservice-a77078", "operator": "United States Postal Service", "operator:short": "USPS", "operator:type": "public", "operator:wikidata": "Q668687", "ref": "6866100007"}, "type": "Feature"}
{"dataset_attributes": {"@spider": "usps_collection_boxes", "spider:collection_time": "2023-10-22T08:22:45.367372"}, "geometry": {"coordinates": [-97.42593353, 41.194025885], "type": "Point"}, "id": "3B4YVWH1HzL88QI3dPsw9gXMi68=", "properties": {"@spider": "usps_collection_boxes", "addr:city": "SHELBY", "addr:country": "US", "addr:full": "210 N WALNUT ST", "addr:postcode": "68662", "addr:state": "NE", "amenity": "post_box", "brand": "United States Postal Service", "brand:wikidata": "Q668687", "collection_times": "Mo-Sa 15:00", "name": "USPS COLLECTION BOX - BLUE BOX", "note": "ON 12/24 AND 12/31, THIS BOX MAY BE COLLECTED AS EARLY AS 12 NOON.", "nsi_id": "unitedstatespostalservice-a77078", "operator": "United States Postal Service", "operator:short": "USPS", "operator:type": "public", "operator:wikidata": "Q668687", "ref": "6866200001"}, "type": "Feature"}
{"dataset_attributes": {"@spider": "usps_collection_boxes", "spider:collection_time": "2023-10-22T08:22:45.367372"}, "geometry": {"coordinates": [-97.42593353, 41.194025885], "type": "Point"}, "id": "QpLx1cMtEKOJnUxRHgXWkgV7bRg=", "properties": {"@spider": "usps_collection_boxes", "addr:city": "SHELBY", "addr:country": "US", "addr:full": "210 N WALNUT ST", "addr:postcode": "68662", "addr:state": "NE", "amenity": "post_box", "brand": "United States Postal Service", "brand:wikidata": "Q668687", "collection_times": "Mo-Fr 15:00; Sa 11:45", "name": "USPS COLLECTION BOX - PO LOBBY", "note": "ON 12/24 AND 12/31, THIS BOX MAY BE COLLECTED AS EARLY AS 12 NOON.", "nsi_id": "unitedstatespostalservice-a77078", "operator": "United States Postal Service", "operator:short": "USPS", "operator:type": "public", "operator:wikidata": "Q668687", "ref": "6866200002"}, "type": "Feature"}
{"dataset_attributes": {"@spider": "usps_collection_boxes", "spider:collection_time": "2023-10-22T08:22:45.367372"}, "geometry": {"coordinates": [-97.42593353, 41.194025885], "type": "Point"}, "id": "Xa3z7fmJ6wrgz6f8ShxR-kd9KzU=", "properties": {"@spider": "usps_collection_boxes", "addr:city": "SHELBY", "addr:country": "US", "addr:full": "210 N WALNUT ST", "addr:postcode": "68662", "addr:state": "NE", "amenity": "post_box", "brand": "United States Postal Service", "brand:wikidata": "Q668687", "collection_times": "Mo-Fr 15:00; Sa 11:45", "name": "USPS COLLECTION BOX - PO LOBBY", "note": "ON 12/24 AND 12/31, THIS BOX MAY BE COLLECTED AS EARLY AS 12 NOON.", "nsi_id": "unitedstatespostalservice-a77078", "operator": "United States Postal Service", "operator:short": "USPS", "operator:type": "public", "operator:wikidata": "Q668687", "ref": "6866200003"}, "type": "Feature"}
{"dataset_attributes": {"@spider": "usps_collection_boxes", "spider:collection_time": "2023-10-22T08:22:45.367372"}, "geometry": {"coordinates": [-97.663364734, 41.315113508], "type": "Point"}, "id": "Tg77Z8LRePeQdYA59hCy3mJkhjE=", "properties": {"@spider": "usps_collection_boxes", "addr:city": "SILVER CREEK", "addr:country": "US", "addr:full": "215 VINE ST", "addr:postcode": "68663", "addr:state": "NE", "amenity": "post_box", "brand": "United States Postal Service", "brand:wikidata": "Q668687", "collection_times": "Mo-Sa 13:30", "name": "USPS COLLECTION BOX - BLUE BOX", "note": "ON 12/24 AND 12/31, THIS BOX MAY BE COLLECTED AS EARLY AS 12 NOON.", "nsi_id": "unitedstatespostalservice-a77078", "operator": "United States Postal Service", "operator:short": "USPS", "operator:type": "public", "operator:wikidata": "Q668687", "ref": "6866300001"}, "type": "Feature"}
{"dataset_attributes": {"@spider": "usps_collection_boxes", "spider:collection_time": "2023-10-22T08:22:45.367372"}, "geometry": {"coordinates": [-97.663364734, 41.315113508], "type": "Point"}, "id": "ucz0nHoNG4cthtmLouu0YPixArA=", "properties": {"@spider": "usps_collection_boxes", "addr:city": "SILVER CREEK", "addr:country": "US", "addr:full": "215 VINE ST", "addr:postcode": "68663", "addr:state": "NE", "amenity": "post_box", "brand": "United States Postal Service", "brand:wikidata": "Q668687", "collection_times": "Mo-Fr 12:15; Sa 10:00", "name": "USPS COLLECTION BOX - PO LOBBY", "note": "ON 12/24 AND 12/31, THIS BOX MAY BE COLLECTED AS EARLY AS 12 NOON.", "nsi_id": "unitedstatespostalservice-a77078", "operator": "United States Postal Service", "operator:short": "USPS", "operator:type": "public", "operator:wikidata": "Q668687", "ref": "6866300002"}, "type": "Feature"}
{"dataset_attributes": {"@spider": "usps_collection_boxes", "spider:collection_time": "2023-10-22T08:22:45.367372"}, "geometry": {"coordinates": [-97.663364734, 41.315113508], "type": "Point"}, "id": "T2nNkB9_hUc0bvWiOxEeYiuRKuA=", "properties": {"@spider": "usps_collection_boxes", "addr:city": "SILVER CREEK", "addr:country": "US", "addr:full": "215 VINE ST", "addr:postcode": "68663", "addr:state": "NE", "amenity": "post_box", "brand": "United States Postal Service", "brand:wikidata": "Q668687", "collection_times": "Mo-Fr 12:15; Sa 10:00", "name": "USPS COLLECTION BOX - PO LOBBY", "note": "ON 12/24 AND 12/31, THIS BOX MAY BE COLLECTED AS EARLY AS 12 NOON.", "nsi_id": "unitedstatespostalservice-a77078", "operator": "United States Postal Service", "operator:short": "USPS", "operator:type": "public", "operator:wikidata": "Q668687", "ref": "6866300003"}, "type": "Feature"}
{"dataset_attributes": {"@spider": "usps_collection_boxes", "spider:collection_time": "2023-10-22T08:22:45.367372"}, "geometry": {"coordinates": [-96.788659777, 41.702983077], "type": "Point"}, "id": "moFkPSrlDWKCPKaisbVWRenO9iQ=", "properties": {"@spider": "usps_collection_boxes", "addr:city": "SNYDER", "addr:country": "US", "addr:full": "119 ASH ST", "addr:postcode": "68664", "addr:state": "NE", "amenity": "post_box", "brand": "United States Postal Service", "brand:wikidata": "Q668687", "collection_times": "Mo-Fr 12:45; Sa 13:00", "name": "USPS COLLECTION BOX - BLUE BOX", "note": "ON 12/24 AND 12/31, THIS BOX MAY BE COLLECTED AS EARLY AS 12 NOON.", "nsi_id": "unitedstatespostalservice-a77078", "operator": "United States Postal Service", "operator:short": "USPS", "operator:type": "public", "operator:wikidata": "Q668687", "ref": "6866400001"}, "type": "Feature"}
{"dataset_attributes": {"@spider": "usps_collection_boxes", "spider:collection_time": "2023-10-22T08:22:45.367372"}, "geometry": {"coordinates": [-96.7886782184, 41.7029919221], "type": "Point"}, "id": "fD9oLHiyCaJChN1yVvONYm2boNA=", "properties": {"@spider": "usps_collection_boxes", "addr:city": "SNYDER", "addr:country": "US", "addr:full": "119 ASH ST", "addr:postcode": "68664", "addr:state": "NE", "amenity": "post_box", "brand": "United States Postal Service", "brand:wikidata": "Q668687", "collection_times": "Mo-Fr 12:45; Sa 10:45", "name": "USPS COLLECTION BOX - PO LOBBY", "note": "ON 12/24 AND 12/31, THIS BOX MAY BE COLLECTED AS EARLY AS 12 NOON.", "nsi_id": "unitedstatespostalservice-a77078", "operator": "United States Postal Service", "operator:short": "USPS", "operator:type": "public", "operator:wikidata": "Q668687", "ref": "6866400004"}, "type": "Feature"}
{"dataset_attributes": {"@spider": "usps_collection_boxes", "spider:collection_time": "2023-10-22T08:22:45.367372"}, "geometry": {"coordinates": [-96.7886782184, 41.7029919221], "type": "Point"}, "id": "vFxPBYcAw5-A2Buc-l98kBOgbpo=", "properties": {"@spider": "usps_collection_boxes", "addr:city": "SNYDER", "addr:country": "US", "addr:full": "119 ASH ST", "addr:postcode": "68664", "addr:state": "NE", "amenity": "post_box", "brand": "United States Postal Service", "brand:wikidata": "Q668687", "collection_times": "Mo-Fr 13:00; Sa 11:00", "name": "USPS COLLECTION BOX - PO LOBBY", "note": "ON 12/24 AND 12/31, THIS BOX MAY BE COLLECTED AS EARLY AS 12 NOON.", "nsi_id": "unitedstatespostalservice-a77078", "operator": "United States Postal Service", "operator:short": "USPS", "operator:type": "public", "operator:wikidata": "Q668687", "ref": "6866400005"}, "type": "Feature"}
{"dataset_attributes": {"@spider": "usps_collection_boxes", "spider:collection_time": "2023-10-22T08:22:45.367372"}, "geometry": {"coordinates": [-98.361598305, 41.688829795], "type": "Point"}, "id": "MFlLOdCBiPWCIcv2ES2C_mkA1h4=", "properties": {"@spider": "usps_collection_boxes", "addr:city": "SPALDING", "addr:country": "US", "addr:full": "210 E ST JOSEPH ST", "addr:postcode": "68665", "addr:state": "NE", "amenity": "post_box", "brand": "United States Postal Service", "brand:wikidata": "Q668687", "collection_times": "Mo-Sa 13:30", "name": "USPS COLLECTION BOX - BLUE BOX", "note": "ON 12/24 AND 12/31, THIS BOX MAY BE COLLECTED AS EARLY AS 12 NOON.", "nsi_id": "unitedstatespostalservice-a77078", "operator": "United States Postal Service", "operator:short": "USPS", "operator:type": "public", "operator:wikidata": "Q668687", "ref": "6866500001"}, "type": "Feature"}
{"dataset_attributes": {"@spider": "usps_collection_boxes", "spider:collection_time": "2023-10-22T08:22:45.367372"}, "geometry": {"coordinates": [-98.361598305, 41.688829795], "type": "Point"}, "id": "fjncEd6w2J-npdf0c_5WpkXG2uI=", "properties": {"@spider": "usps_collection_boxes", "addr:city": "SPALDING", "addr:country": "US", "addr:full": "210 E ST JOSEPH ST", "addr:postcode": "68665", "addr:state": "NE", "amenity": "post_box", "brand": "United States Postal Service", "brand:wikidata": "Q668687", "collection_times": "Mo-Fr 13:30; Sa 10:15", "name": "USPS COLLECTION BOX - PO LOBBY", "note": "ON 12/24 AND 12/31, THIS BOX MAY BE COLLECTED AS EARLY AS 12 NOON.", "nsi_id": "unitedstatespostalservice-a77078", "operator": "United States Postal Service", "operator:short": "USPS", "operator:type": "public", "operator:wikidata": "Q668687", "ref": "6866500002"}, "type": "Feature"}
{"dataset_attributes": {"@spider": "usps_collection_boxes", "spider:collection_time": "2023-10-22T08:22:45.367372"}, "geometry": {"coordinates": [-98.361598305, 41.688829795], "type": "Point"}, "id": "1XoLjJs5LB3UVyMGo8m_gOdlEeY=", "properties": {"@spider": "usps_collection_boxes", "addr:city": "SPALDING", "addr:country": "US", "addr:full": "210 E ST JOSEPH ST", "addr:postcode": "68665", "addr:state": "NE", "amenity": "post_box", "brand": "United States Postal Service", "brand:wikidata": "Q668687", "collection_times": "Mo-Fr 13:30; Sa 10:15", "name": "USPS COLLECTION BOX - PO LOBBY", "note": "ON 12/24 AND 12/31, THIS BOX MAY BE COLLECTED AS EARLY AS 12 NOON.", "nsi_id": "unitedstatespostalservice-a77078", "operator": "United States Postal Service", "operator:short": "USPS", "operator:type": "public", "operator:wikidata": "Q668687", "ref": "6866500003"}, "type": "Feature"}
{"dataset_attributes": {"@spider": "usps_collection_boxes", "spider:collection_time": "2023-10-22T08:22:45.367372"}, "geometry": {"coordinates": [-97.5978315, 41.114117523], "type": "Point"}, "id": "K_KlQ1mVRfHGTcUq8SWLon5cAe4=", "properties": {"@spider": "usps_collection_boxes", "addr:city": "STROMSBURG", "addr:country": "US", "addr:full": "109 E 4TH ST", "addr:postcode": "68666", "addr:state": "NE", "amenity": "post_box", "brand": "United States Postal Service", "brand:wikidata": "Q668687", "collection_times": "Mo-Sa 14:30", "name": "USPS COLLECTION BOX - BLUE BOX", "note": "ON 12/24 AND 12/31, THIS BOX MAY BE COLLECTED AS EARLY AS 12 NOON.", "nsi_id": "unitedstatespostalservice-a77078", "operator": "United States Postal Service", "operator:short": "USPS", "operator:type": "public", "operator:wikidata": "Q668687", "ref": "6866600001"}, "type": "Feature"}
{"dataset_attributes": {"@spider": "usps_collection_boxes", "spider:collection_time": "2023-10-22T08:22:45.367372"}, "geometry": {"coordinates": [-97.5978315, 41.114117523], "type": "Point"}, "id": "x52xnwpEP8d4A75dMoU28bC22mY=", "properties": {"@spider": "usps_collection_boxes", "addr:city": "STROMSBURG", "addr:country": "US", "addr:full": "109 E 4TH ST", "addr:postcode": "68666", "addr:state": "NE", "amenity": "post_box", "brand": "United States Postal Service", "brand:wikidata": "Q668687", "collection_times": "Mo-Fr 14:30; Sa 10:15", "name": "USPS COLLECTION BOX - PO LOBBY", "note": "ON 12/24 AND 12/31, THIS BOX MAY BE COLLECTED AS EARLY AS 12 NOON.", "nsi_id": "unitedstatespostalservice-a77078", "operator": "United States Postal Service", "operator:short": "USPS", "operator:type": "public", "operator:wikidata": "Q668687", "ref": "6866600002"}, "type": "Feature"}
{"dataset_attributes": {"@spider": "usps_collection_boxes", "spider:collection_time": "2023-10-22T08:22:45.367372"}, "geometry": {"coordinates": [-97.5978315, 41.114117523], "type": "Point"}, "id": "nKfLewW0gohISSNQDtdPJzZ1Pnw=", "properties": {"@spider": "usps_collection_boxes", "addr:city": "STROMSBURG", "addr:country": "US", "addr:full": "109 E 4TH ST", "addr:postcode": "68666", "addr:state": "NE", "amenity": "post_box", "brand": "United States Postal Service", "brand:wikidata": "Q668687", "collection_times": "Mo-Fr 14:30; Sa 10:15", "name": "USPS COLLECTION BOX - PO LOBBY", "note": "ON 12/24 AND 12/31, THIS BOX MAY BE COLLECTED AS EARLY AS 12 NOON.", "nsi_id": "unitedstatespostalservice-a77078", "operator": "United States Postal Service", "operator:short": "USPS", "operator:type": "public", "operator:wikidata": "Q668687", "ref": "6866600003"}, "type": "Feature"}
{"dataset_attributes": {"@spider": "usps_collection_boxes", "spider:collection_time": "2023-10-22T08:22:45.367372"}, "geometry": {"coordinates": [-97.201995053, 41.073084], "type": "Point"}, "id": "wkZAy9yosVCNA35VKWkpD4F5rZM=", "properties": {"@spider": "usps_collection_boxes", "addr:city": "ULYSSES", "addr:country": "US", "addr:full": "210 N 4TH ST", "addr:postcode": "68669", "addr:state": "NE", "amenity": "post_box", "brand": "United States Postal Service", "brand:wikidata": "Q668687", "collection_times": "Mo-Sa 13:30", "name": "USPS COLLECTION BOX - BLUE BOX", "note": "ON 12/24 AND 12/31, THIS BOX MAY BE COLLECTED AS EARLY AS 12 NOON.", "nsi_id": "unitedstatespostalservice-a77078", "operator": "United States Postal Service", "operator:short": "USPS", "operator:type": "public", "operator:wikidata": "Q668687", "ref": "6866900001"}, "type": "Feature"}
{"dataset_attributes": {"@spider": "usps_collection_boxes", "spider:collection_time": "2023-10-22T08:22:45.367372"}, "geometry": {"coordinates": [-97.201995053, 41.073084], "type": "Point"}, "id": "iBDH-7qmCs6L3Vo1UVVhayYOMIE=", "properties": {"@spider": "usps_collection_boxes", "addr:city": "ULYSSES", "addr:country": "US", "addr:full": "210 N 4TH ST", "addr:postcode": "68669", "addr:state": "NE", "amenity": "post_box", "brand": "United States Postal Service", "brand:wikidata": "Q668687", "collection_times": "Mo-Fr 12:45; Sa 11:00", "name": "USPS COLLECTION BOX - PO LOBBY", "note": "ON 12/24 AND 12/31, THIS BOX MAY BE COLLECTED AS EARLY AS 12 NOON.", "nsi_id": "unitedstatespostalservice-a77078", "operator": "United States Postal Service", "operator:short": "USPS", "operator:type": "public", "operator:wikidata": "Q668687", "ref": "6866900002"}, "type": "Feature"}
{"dataset_attributes": {"@spider": "usps_collection_boxes", "spider:collection_time": "2023-10-22T08:22:45.367372"}, "geometry": {"coordinates": [-97.310142974, 41.103840532], "type": "Point"}, "id": "Il-1PjU5NxdIpWOSAG2MLCZQKKk=", "properties": {"@spider": "usps_collection_boxes", "addr:city": "ULYSSES", "addr:country": "US", "addr:full": "345 CENTER ST", "addr:postcode": "68669", "addr:state": "NE", "amenity": "post_box", "brand": "United States Postal Service", "brand:wikidata": "Q668687", "collection_times": "Mo-Sa 10:00", "name": "USPS COLLECTION BOX - BLUE BOX", "nsi_id": "unitedstatespostalservice-a77078", "operator": "United States Postal Service", "operator:short": "USPS", "operator:type": "public", "operator:wikidata": "Q668687", "ref": "6866900003"}, "type": "Feature"}
{"dataset_attributes": {"@spider": "usps_collection_boxes", "spider:collection_time": "2023-10-22T08:22:45.367372"}, "geometry": {"coordinates": [-97.201995053, 41.073084], "type": "Point"}, "id": "8dNZ2nHuZRFItQVXMAuX9hElAZs=", "properties": {"@spider": "usps_collection_boxes", "addr:city": "ULYSSES", "addr:country": "US", "addr:full": "210 N 4TH ST", "addr:postcode": "68669", "addr:state": "NE", "amenity": "post_box", "brand": "United States Postal Service", "brand:wikidata": "Q668687", "collection_times": "Mo-Fr 12:45; Sa 11:00", "name": "USPS COLLECTION BOX - PO LOBBY", "note": "ON 12/24 AND 12/31, THIS BOX MAY BE COLLECTED AS EARLY AS 12 NOON.", "nsi_id": "unitedstatespostalservice-a77078", "operator": "United States Postal Service", "operator:short": "USPS", "operator:type": "public", "operator:wikidata": "Q668687", "ref": "6866900004"}, "type": "Feature"}
