{"dataset_attributes": {"@spider": "usps_collection_boxes"}, "geometry": {"coordinates": [-97.3953405, 42.032856473], "type": "Point"}, "id": "bqH8bzL-X3Uv7vrFYy0SQz8l2UY=", "properties": {"@spider": "usps_collection_boxes", "addr:city": "NORFOLK", "addr:country": "US", "addr:full": "720 E NORFOLK AVE", "addr:postcode": "68701", "addr:state": "NE", "amenity": "post_box", "brand": "United States Postal Service", "brand:wikidata": "Q668687", "collection_times": "Mo-Sa 14:30", "name": "USPS COLLECTION BOX - BLUE BOX", "note": "ON 12/24 AND 12/31, THIS BOX MAY BE COLLECTED AS EARLY AS 12 NOON.", "nsi_id": "unitedstatespostalservice-a77078", "operator": "United States Postal Service", "operator:short": "USPS", "operator:type": "public", "operator:wikidata": "Q668687", "ref": "6870100000"}, "type": "Feature"}
{"dataset_attributes": {"@spider": "usps_collection_boxes"}, "geometry": {"coordinates": [-97.404982088, 42.03277249], "type": "Point"}, "id": "WTsxUNUQw6Igqj6dJfdkyKJ7i3A=", "properties": {"@spider": "usps_collection_boxes", "addr:city": "NORFOLK", "addr:country": "US", "addr:full": "120 E NORFOLK AVE", "addr:postcode": "68701", "addr:state": "NE", "amenity": "post_box", "brand": "United States Postal Service", "brand:wikidata": "Q668687", "collection_times": "Mo-Sa 14:00", "name": "USPS COLLECTION BOX - BLUE BOX", "note": "ON 12/24 AND 12/31, THIS BOX MAY BE COLLECTED AS EARLY AS 12 NOON.", "nsi_id": "unitedstatespostalservice-a77078", "operator": "United States Postal Service", "operator:short": "USPS", "operator:type": "public", "operator:wikidata": "Q668687", "ref": "6870100008"}, "type": "Feature"}
{"dataset_attributes": {"@spider": "usps_collection_boxes"}, "geometry": {"coordinates": [-97.440298889, 42.02682972], "type": "Point"}, "id": "ufUaoKVmIqYe3JQkBJFB2oop2ak=", "properties": {"@spider": "usps_collection_boxes", "addr:city": "NORFOLK", "addr:country": "US", "addr:full": "2107 TAYLOR AVE", "addr:postcode": "68701", "addr:state": "NE", "amenity": "post_box", "brand": "United States Postal Service", "brand:wikidata": "Q668687", "collection_times": "Mo-Sa 14:00", "name": "USPS COLLECTION BOX - BLUE BOX", "note": "ON 12/24 AND 12/31, THIS BOX MAY BE COLLECTED AS EARLY AS 12 NOON.", "nsi_id": "unitedstatespostalservice-a77078", "operator": "United States Postal Service", "operator:short": "USPS", "operator:type": "public", "operator:wikidata": "Q668687", "ref": "6870100018"}, "type": "Feature"}
{"dataset_attributes": {"@spider": "usps_collection_boxes"}, "geometry": {"coordinates": [-97.411031277, 42.0364734766], "type": "Point"}, "id": "hW1pTyU0f1K9mFPVaikjQicpiUs=", "properties": {"@spider": "usps_collection_boxes", "addr:city": "NORFOLK", "addr:country": "US", "addr:full": "308 W PROSPECT AVE", "addr:postcode": "68701", "addr:state": "NE", "amenity": "post_box", "brand": "United States Postal Service", "brand:wikidata": "Q668687", "collection_times": "Mo-Sa 14:00", "name": "USPS COLLECTION BOX - BLUE BOX", "note": "ON 12/24 AND 12/31, THIS BOX MAY BE COLLECTED AS EARLY AS 12 NOON.", "nsi_id": "unitedstatespostalservice-a77078", "operator": "United States Postal Service", "operator:short": "USPS", "operator:type": "public", "operator:wikidata": "Q668687", "ref": "6870100019"}, "type": "Feature"}
{"dataset_attributes": {"@spider": "usps_collection_boxes"}, "geometry": {"coordinates": [-97.4317566218, 42.0187418442], "type": "Point"}, "id": "uaocKv5Ryy76YCbwWdD2z9j258g=", "properties": {"@spider": "usps_collection_boxes", "addr:city": "NORFOLK", "addr:country": "US", "addr:full": "1700 MARKET LN", "addr:postcode": "68701", "addr:state": "NE", "amenity": "post_box", "brand": "United States Postal Service", "brand:wikidata": "Q668687", "collection_times": "Mo-Sa 14:00", "name": "USPS COLLECTION BOX - BLUE BOX", "note": "ON 12/24 AND 12/31, THIS BOX MAY BE COLLECTED AS EARLY AS 12 NOON.", "nsi_id": "unitedstatespostalservice-a77078", "operator": "United States Postal Service", "operator:short": "USPS", "operator:type": "public", "operator:wikidata": "Q668687", "ref": "6870100020"}, "type": "Feature"}
{"dataset_attributes": {"@spider": "usps_collection_boxes"}, "geometry": {"coordinates": [-97.426609963, 42.022501492], "type": "Point"}, "id": "t1aX5w8r_fuTcVpTkHpeCLHxDjk=", "properties": {"@spider": "usps_collection_boxes", "addr:city": "NORFOLK", "addr:country": "US", "addr:full": "1303 CENTER DR", "addr:postcode": "68701", "addr:state": "NE", "amenity": "post_box", "brand": "United States Postal Service", "brand:wikidata": "Q668687", "collection_times": "Mo-Sa 14:00", "name": "USPS COLLECTION BOX - BLUE BOX", "note": "ON 12/24 AND 12/31, THIS BOX MAY BE COLLECTED AS EARLY AS 12 NOON.", "nsi_id": "unitedstatespostalservice-a77078", "operator": "United States Postal Service", "operator:short": "USPS", "operator:type": "public", "operator:wikidata": "Q668687", "ref": "6870100021"}, "type": "Feature"}
{"dataset_attributes": {"@spider": "usps_collection_boxes"}, "geometry": {"coordinates": [-97.42545003, 42.019139981], "type": "Point"}, "id": "X_4BoIHUi9GUw8i4QuMzAj1BIX4=", "properties": {"@spider": "usps_collection_boxes", "addr:city": "NORFOLK", "addr:country": "US", "addr:full": "1201 S 13TH ST", "addr:postcode": "68701", "addr:state": "NE", "amenity": "post_box", "brand": "United States Postal Service", "brand:wikidata": "Q668687", "collection_times": "Mo-Sa 14:30", "name": "USPS COLLECTION BOX - BLUE BOX", "note": "ON 12/24 AND 12/31, THIS BOX MAY BE COLLECTED AS EARLY AS 12 NOON.", "nsi_id": "unitedstatespostalservice-a77078", "operator": "United States Postal Service", "operator:short": "USPS", "operator:type": "public", "operator:wikidata": "Q668687", "ref": "6870100023"}, "type": "Feature"}
{"dataset_attributes": {"@spider": "usps_collection_boxes"}, "geometry": {"coordinates": [-97.415580777, 42.047252515], "type": "Point"}, "id": "MBij86E-PdI7oVanRDfVG5KgPgc=", "properties": {"@spider": "usps_collection_boxes", "addr:city": "NORFOLK", "addr:country": "US", "addr:full": "710 W BENJAMIN AVE", "addr:postcode": "68701", "addr:state": "NE", "amenity": "post_box", "brand": "United States Postal Service", "brand:wikidata": "Q668687", "collection_times": "Mo-Sa 14:30", "name": "USPS COLLECTION BOX - BLUE BOX", "note": "ON 12/24 AND 12/31, THIS BOX MAY BE COLLECTED AS EARLY AS 12 NOON.", "nsi_id": "unitedstatespostalservice-a77078", "operator": "United States Postal Service", "operator:short": "USPS", "operator:type": "public", "operator:wikidata": "Q668687", "ref": "6870100030"}, "type": "Feature"}
{"dataset_attributes": {"@spider": "usps_collection_boxes"}, "geometry": {"coordinates": [-97.41001058, 42.032679477], "type": "Point"}, "id": "tRCV_b60DgrsrzC3RBbTN0WI-fg=", "properties": {"@spider": "usps_collection_boxes", "addr:city": "NORFOLK", "addr:country": "US", "addr:full": "227 W NORFOLK AVE", "addr:postcode": "68701", "addr:state": "NE", "amenity": "post_box", "brand": "United States Postal Service", "brand:wikidata": "Q668687", "collection_times": "Mo-Sa 14:30", "name": "USPS COLLECTION BOX - BLUE BOX", "note": "ON 12/24 AND 12/31, THIS BOX MAY BE COLLECTED AS EARLY AS 12 NOON.", "nsi_id": "unitedstatespostalservice-a77078", "operator": "United States Postal Service", "operator:short": "USPS", "operator:type": "public", "operator:wikidata": "Q668687", "ref": "6870100033"}, "type": "Feature"}
{"dataset_attributes": {"@spider": "usps_collection_boxes"}, "geometry": {"coordinates": [-97.430877527, 42.033618], "type": "Point"}, "id": "YUG6ag-Y5zpdU6u2kkIS2IXGC98=", "properties": {"@spider": "usps_collection_boxes", "addr:city": "NORFOLK", "addr:country": "US", "addr:full": "109 N 15TH ST", "addr:postcode": "68701", "addr:state": "NE", "amenity": "post_box", "brand": "United States Postal Service", "brand:wikidata": "Q668687", "collection_times": "Mo-Sa 14:00", "name": "USPS COLLECTION BOX - BLUE BOX", "note": "ON 12/24 AND 12/31, THIS BOX MAY BE COLLECTED AS EARLY AS 12 NOON.", "nsi_id": "unitedstatespostalservice-a77078", "operator": "United States Postal Service", "operator:short": "USPS", "operator:type": "public", "operator:wikidata": "Q668687", "ref": "6870100039"}, "type": "Feature"}
{"dataset_attributes": {"@spider": "usps_collection_boxes"}, "geometry": {"coordinates": [-97.444014994, 42.022812091], "type": "Point"}, "id": "7brUAwC9mBZg2Z_CWWxi2v1PnY4=", "properties": {"@spider": "usps_collection_boxes", "addr:city": "NORFOLK", "addr:country": "US", "addr:full": "2400 W PASEWALK AVE", "addr:postcode": "68701", "addr:state": "NE", "amenity": "post_box", "brand": "United States Postal Service", "brand:wikidata": "Q668687", "collection_times": "Mo-Sa 14:00", "name": "USPS COLLECTION BOX - BLUE BOX", "note": "ON 12/24 AND 12/31, THIS BOX MAY BE COLLECTED AS EARLY AS 12 NOON.", "nsi_id": "unitedstatespostalservice-a77078", "operator": "United States Postal Service", "operator:short": "USPS", "operator:type": "public", "operator:wikidata": "Q668687", "ref": "6870100042"}, "type": "Feature"}
{"dataset_attributes": {"@spider": "usps_collection_boxes"}, "geometry": {"coordinates": [-97.423923982, 42.047197519], "type": "Point"}, "id": "880T1UwMjlB1WnrX3J2fgJ4Xoq4=", "properties": {"@spider": "usps_collection_boxes", "addr:city": "NORFOLK", "addr:country": "US", "addr:full": "1106 BENJAMIN AVE", "addr:postcode": "68701", "addr:state": "NE", "amenity": "post_box", "brand": "United States Postal Service", "brand:wikidata": "Q668687", "collection_times": "Mo-Sa 14:30", "name": "USPS COLLECTION BOX - BLUE BOX", "note": "ON 12/24 AND 12/31, THIS BOX MAY BE COLLECTED AS EARLY AS 12 NOON.", "nsi_id": "unitedstatespostalservice-a77078", "operator": "United States Postal Service", "operator:short": "USPS", "operator:type": "public", "operator:wikidata": "Q668687", "ref": "6870100050"}, "type": "Feature"}
{"dataset_attributes": {"@spider": "usps_collection_boxes"}, "geometry": {"coordinates": [-97.400963127, 42.019669352], "type": "Point"}, "id": "_qhDZ1upW7v6PGHTyxagzzs9mC8=", "properties": {"@spider": "usps_collection_boxes", "addr:city": "NORFOLK", "addr:country": "US", "addr:full": "1100 S PINE ST", "addr:postcode": "68701", "addr:state": "NE", "amenity": "post_box", "brand": "United States Postal Service", "brand:wikidata": "Q668687", "collection_times": "Mo-Fr 16:15; Sa 12:00", "name": "USPS COLLECTION BOX - PO LOBBY", "note": "ON 12/24 AND 12/31, THIS BOX MAY BE COLLECTED AS EARLY AS 12 NOON.", "nsi_id": "unitedstatespostalservice-a77078", "operator": "United States Postal Service", "operator:short": "USPS", "operator:type": "public", "operator:wikidata": "Q668687", "ref": "6870100053"}, "type": "Feature"}
{"dataset_attributes": {"@spider": "usps_collection_boxes"}, "geometry": {"coordinates": [-97.398137599, 42.047455954], "type": "Point"}, "id": "p5foBifTFLSfIJ2vMA3QWbX9G9I=", "properties": {"@spider": "usps_collection_boxes", "addr:city": "NORFOLK", "addr:country": "US", "addr:full": "601 E BENJAMIN AVE", "addr:postcode": "68701", "addr:state": "NE", "amenity": "post_box", "brand": "United States Postal Service", "brand:wikidata": "Q668687", "collection_times": "Mo-Fr 14:00", "name": "USPS COLLECTION BOX - BLUE BOX", "note": "ON 12/24 AND 12/31, THIS BOX MAY BE COLLECTED AS EARLY AS 12 NOON.", "nsi_id": "unitedstatespostalservice-a77078", "operator": "United States Postal Service", "operator:short": "USPS", "operator:type": "public", "operator:wikidata": "Q668687", "ref": "6870100054"}, "type": "Feature"}
{"dataset_attributes": {"@spider": "usps_collection_boxes"}, "geometry": {"coordinates": [-97.404982088, 42.03277249], "type": "Point"}, "id": "d6h7X79s9SlAzvtuFB9842QIG7g=", "properties": {"@spider": "usps_collection_boxes", "addr:city": "NORFOLK", "addr:country": "US", "addr:full": "120 E NORFOLK AVE", "addr:postcode": "68701", "addr:state": "NE", "amenity": "post_box", "brand": "United States Postal Service", "brand:wikidata": "Q668687", "collection_times": "Mo-Sa 14:00", "name": "USPS COLLECTION BOX - PO LOBBY", "note": "ON 12/24 AND 12/31, THIS BOX MAY BE COLLECTED AS EARLY AS 12 NOON.", "nsi_id": "unitedstatespostalservice-a77078", "operator": "United States Postal Service", "operator:short": "USPS", "operator:type": "public", "operator:wikidata": "Q668687", "ref": "6870100057"}, "type": "Feature"}
{"dataset_attributes": {"@spider": "usps_collection_boxes"}, "geometry": {"coordinates": [-97.400963127, 42.019669352], "type": "Point"}, "id": "0vDo_kLcpnORFZecl2ViBVGfbto=", "properties": {"@spider": "usps_collection_boxes", "addr:city": "NORFOLK", "addr:country": "US", "addr:full": "1100 S PINE ST", "addr:postcode": "68701", "addr:state": "NE", "amenity": "post_box", "brand": "United States Postal Service", "brand:wikidata": "Q668687", "collection_times": "Mo-Fr 16:25; Sa 16:15", "name": "USPS COLLECTION BOX - BLUE BOX", "note": "ON 12/24 AND 12/31, THIS BOX MAY BE COLLECTED AS EARLY AS 12 NOON.", "nsi_id": "unitedstatespostalservice-a77078", "operator": "United States Postal Service", "operator:short": "USPS", "operator:type": "public", "operator:wikidata": "Q668687", "ref": "6870100058"}, "type": "Feature"}
{"dataset_attributes": {"@spider": "usps_collection_boxes"}, "geometry": {"coordinates": [-97.355042023, 42.057249548], "type": "Point"}, "id": "Cd-U_zkH83h4COdQ2ZHSVkVuqFM=", "properties": {"@spider": "usps_collection_boxes", "addr:city": "NORFOLK", "addr:country": "US", "addr:full": "99 WOODLAND DR", "addr:postcode": "68701", "addr:state": "NE", "amenity": "post_box", "brand": "United States Postal Service", "brand:wikidata": "Q668687", "collection_times": "Mo-Sa 12:00", "name": "USPS COLLECTION BOX - BLUE BOX", "nsi_id": "unitedstatespostalservice-a77078", "operator": "United States Postal Service", "operator:short": "USPS", "operator:type": "public", "operator:wikidata": "Q668687", "ref": "6870100061"}, "type": "Feature"}
{"dataset_attributes": {"@spider": "usps_collection_boxes"}, "geometry": {"coordinates": [-97.449306977, 42.105189976], "type": "Point"}, "id": "2Ca2yR0LKRf40xf_KHXxa6V7wVE=", "properties": {"@spider": "usps_collection_boxes", "addr:city": "NORFOLK", "addr:country": "US", "addr:full": "210 E MAIN ST", "addr:postcode": "68701", "addr:state": "NE", "amenity": "post_box", "brand": "United States Postal Service", "brand:wikidata": "Q668687", "collection_times": "Mo-Sa 14:00", "name": "USPS COLLECTION BOX - BLUE BOX", "note": "ON 12/24 AND 12/31, THIS BOX MAY BE COLLECTED AS EARLY AS 12 NOON.", "nsi_id": "unitedstatespostalservice-a77078", "operator": "United States Postal Service", "operator:short": "USPS", "operator:type": "public", "operator:wikidata": "Q668687", "ref": "6870100063"}, "type": "Feature"}
{"dataset_attributes": {"@spider": "usps_collection_boxes"}, "geometry": {"coordinates": [-97.400963127, 42.019669352], "type": "Point"}, "id": "GC_Z0G0tae0Nj0P6rFZzcubPR3o=", "properties": {"@spider": "usps_collection_boxes", "addr:city": "NORFOLK", "addr:country": "US", "addr:full": "1100 S PINE ST", "addr:postcode": "68701", "addr:state": "NE", "amenity": "post_box", "brand": "United States Postal Service", "brand:wikidata": "Q668687", "collection_times": "Mo-Fr 16:25; Sa 16:15", "name": "USPS COLLECTION BOX - BLUE BOX", "note": "ON 12/24 AND 12/31, THIS BOX MAY BE COLLECTED AS EARLY AS 12 NOON.", "nsi_id": "unitedstatespostalservice-a77078", "operator": "United States Postal Service", "operator:short": "USPS", "operator:type": "public", "operator:wikidata": "Q668687", "ref": "6870100066"}, "type": "Feature"}
{"dataset_attributes": {"@spider": "usps_collection_boxes"}, "geometry": {"coordinates": [-97.400963127, 42.019669352], "type": "Point"}, "id": "_6_ybWHBknImFUBnQyfpt1Du7aE=", "properties": {"@spider": "usps_collection_boxes", "addr:city": "NORFOLK", "addr:country": "US", "addr:full": "1100 S PINE INDUSTRIAL RD", "addr:postcode": "68701", "addr:state": "NE", "amenity": "post_box", "brand": "United States Postal Service", "brand:wikidata": "Q668687", "collection_times": "Mo-Fr 16:15; Sa 12:00", "name": "USPS COLLECTION BOX - PO LOBBY", "note": "ON 12/24 AND 12/31, THIS BOX MAY BE COLLECTED AS EARLY AS 12 NOON.", "nsi_id": "unitedstatespostalservice-a77078", "operator": "United States Postal Service", "operator:short": "USPS", "operator:type": "public", "operator:wikidata": "Q668687", "ref": "6870100067"}, "type": "Feature"}
{"dataset_attributes": {"@spider": "usps_collection_boxes"}, "geometry": {"coordinates": [-96.845031, 42.416096481], "type": "Point"}, "id": "OMlpxqZJjnm3ZkHAciX8c2tlXYo=", "properties": {"@spider": "usps_collection_boxes", "addr:city": "ALLEN", "addr:country": "US", "addr:full": "104 E 2ND ST", "addr:postcode": "68710", "addr:state": "NE", "amenity": "post_box", "brand": "United States Postal Service", "brand:wikidata": "Q668687", "collection_times": "Mo-Sa 12:45", "name": "USPS COLLECTION BOX - BLUE BOX", "note": "ON 12/24 AND 12/31, THIS BOX MAY BE COLLECTED AS EARLY AS 12 NOON.", "nsi_id": "unitedstatespostalservice-a77078", "operator": "United States Postal Service", "operator:short": "USPS", "operator:type": "public", "operator:wikidata": "Q668687", "ref": "6871000001"}, "type": "Feature"}
{"dataset_attributes": {"@spider": "usps_collection_boxes"}, "geometry": {"coordinates": [-96.845031, 42.416096481], "type": "Point"}, "id": "r7OSNwI6I4LgJcG13yMt4wfsaME=", "properties": {"@spider": "usps_collection_boxes", "addr:city": "ALLEN", "addr:country": "US", "addr:full": "104 E 2ND ST", "addr:postcode": "68710", "addr:state": "NE", "amenity": "post_box", "brand": "United States Postal Service", "brand:wikidata": "Q668687", "collection_times": "Mo-Fr 11:30; Sa 10:15", "name": "USPS COLLECTION BOX - PO LOBBY", "nsi_id": "unitedstatespostalservice-a77078", "operator": "United States Postal Service", "operator:short": "USPS", "operator:type": "public", "operator:wikidata": "Q668687", "ref": "6871000002"}, "type": "Feature"}
{"dataset_attributes": {"@spider": "usps_collection_boxes"}, "geometry": {"coordinates": [-96.845031, 42.416096481], "type": "Point"}, "id": "Hw5VhLXKac2UC5DxD6RmYizptAI=", "properties": {"@spider": "usps_collection_boxes", "addr:city": "ALLEN", "addr:country": "US", "addr:full": "104 E 2ND ST", "addr:postcode": "68710", "addr:state": "NE", "amenity": "post_box", "brand": "United States Postal Service", "brand:wikidata": "Q668687", "collection_times": "Mo-Fr 11:30; Sa 10:15", "name": "USPS COLLECTION BOX - PO LOBBY", "nsi_id": "unitedstatespostalservice-a77078", "operator": "United States Postal Service", "operator:short": "USPS", "operator:type": "public", "operator:wikidata": "Q668687", "ref": "6871000003"}, "type": "Feature"}
{"dataset_attributes": {"@spider": "usps_collection_boxes"}, "geometry": {"coordinates": [-98.978310467, 42.532260997], "type": "Point"}, "id": "GRBhfEMw4mIchScZz7IR7X4OsLw=", "properties": {"@spider": "usps_collection_boxes", "addr:city": "ATKINSON", "addr:country": "US", "addr:full": "202 N MAIN ST", "addr:postcode": "68713", "addr:state": "NE", "amenity": "post_box", "brand": "United States Postal Service", "brand:wikidata": "Q668687", "collection_times": "Mo-Sa 13:25", "name": "USPS COLLECTION BOX - BLUE BOX", "note": "ON 12/24 AND 12/31, THIS BOX MAY BE COLLECTED AS EARLY AS 12 NOON.", "nsi_id": "unitedstatespostalservice-a77078", "operator": "United States Postal Service", "operator:short": "USPS", "operator:type": "public", "operator:wikidata": "Q668687", "ref": "6871300001"}, "type": "Feature"}
{"dataset_attributes": {"@spider": "usps_collection_boxes"}, "geometry": {"coordinates": [-98.978310467, 42.532260997], "type": "Point"}, "id": "9WqMedDPeIlYUW0pDWjrMKovWzU=", "properties": {"@spider": "usps_collection_boxes", "addr:city": "ATKINSON", "addr:country": "US", "addr:full": "202 N MAIN ST", "addr:postcode": "68713", "addr:state": "NE", "amenity": "post_box", "brand": "United States Postal Service", "brand:wikidata": "Q668687", "collection_times": "Mo-Fr 13:25; Sa 10:15", "name": "USPS COLLECTION BOX - PO LOBBY", "note": "ON 12/24 AND 12/31, THIS BOX MAY BE COLLECTED AS EARLY AS 12 NOON.", "nsi_id": "unitedstatespostalservice-a77078", "operator": "United States Postal Service", "operator:short": "USPS", "operator:type": "public", "operator:wikidata": "Q668687", "ref": "6871300003"}, "type": "Feature"}
{"dataset_attributes": {"@spider": "usps_collection_boxes"}, "geometry": {"coordinates": [-98.978310467, 42.532260997], "type": "Point"}, "id": "iAssr5SeGTJ--gyt4y4DyBOqyFs=", "properties": {"@spider": "usps_collection_boxes", "addr:city": "ATKINSON", "addr:country": "US", "addr:full": "202 N MAIN ST", "addr:postcode": "68713", "addr:state": "NE", "amenity": "post_box", "brand": "United States Postal Service", "brand:wikidata": "Q668687", "collection_times": "Mo-Fr 13:25; Sa 10:15", "name": "USPS COLLECTION BOX - PO LOBBY", "note": "ON 12/24 AND 12/31, THIS BOX MAY BE COLLECTED AS EARLY AS 12 NOON.", "nsi_id": "unitedstatespostalservice-a77078", "operator": "United States Postal Service", "operator:short": "USPS", "operator:type": "public", "operator:wikidata": "Q668687", "ref": "6871300004"}, "type": "Feature"}
{"dataset_attributes": {"@spider": "usps_collection_boxes"}, "geometry": {"coordinates": [-99.537828315, 42.585362696], "type": "Point"}, "id": "47QlVjc6J6XhPRy6p_xaUKuzEuM=", "properties": {"@spider": "usps_collection_boxes", "addr:city": "BASSETT", "addr:country": "US", "addr:full": "201 CLARK ST", "addr:postcode": "68714", "addr:state": "NE", "amenity": "post_box", "brand": "United States Postal Service", "brand:wikidata": "Q668687", "collection_times": "Mo-Fr 12:25; Sa 12:10", "name": "USPS COLLECTION BOX - BLUE BOX", "note": "ON 12/24 AND 12/31, THIS BOX MAY BE COLLECTED AS EARLY AS 12 NOON.", "nsi_id": "unitedstatespostalservice-a77078", "operator": "United States Postal Service", "operator:short": "USPS", "operator:type": "public", "operator:wikidata": "Q668687", "ref": "6871400001"}, "type": "Feature"}
{"dataset_attributes": {"@spider": "usps_collection_boxes"}, "geometry": {"coordinates": [-99.537828315, 42.585362696], "type": "Point"}, "id": "P0CVKe3dZxY9xsZtYRf2ViWTnvI=", "properties": {"@spider": "usps_collection_boxes", "addr:city": "BASSETT", "addr:country": "US", "addr:full": "201 CLARK ST", "addr:postcode": "68714", "addr:state": "NE", "amenity": "post_box", "brand": "United States Postal Service", "brand:wikidata": "Q668687", "collection_times": "Mo-Fr 12:25; Sa 09:45", "name": "USPS COLLECTION BOX - PO LOBBY", "note": "ON 12/24 AND 12/31, THIS BOX MAY BE COLLECTED AS EARLY AS 12 NOON.", "nsi_id": "unitedstatespostalservice-a77078", "operator": "United States Postal Service", "operator:short": "USPS", "operator:type": "public", "operator:wikidata": "Q668687", "ref": "6871400002"}, "type": "Feature"}
{"dataset_attributes": {"@spider": "usps_collection_boxes"}, "geometry": {"coordinates": [-99.537828315, 42.585362696], "type": "Point"}, "id": "3gECM3fnpbHDCq3hikpzKrHxSCc=", "properties": {"@spider": "usps_collection_boxes", "addr:city": "BASSETT", "addr:country": "US", "addr:full": "201 CLARK ST", "addr:postcode": "68714", "addr:state": "NE", "amenity": "post_box", "brand": "United States Postal Service", "brand:wikidata": "Q668687", "collection_times": "Mo-Fr 12:25; Sa 09:45", "name": "USPS COLLECTION BOX - PO LOBBY", "note": "ON 12/24 AND 12/31, THIS BOX MAY BE COLLECTED AS EARLY AS 12 NOON.", "nsi_id": "unitedstatespostalservice-a77078", "operator": "United States Postal Service", "operator:short": "USPS", "operator:type": "public", "operator:wikidata": "Q668687", "ref": "6871400003"}, "type": "Feature"}
{"dataset_attributes": {"@spider": "usps_collection_boxes"}, "geometry": {"coordinates": [-97.59819748, 41.998805665], "type": "Point"}, "id": "Zz5Er4mDNaI06_4nfbVy1XKJFl8=", "properties": {"@spider": "usps_collection_boxes", "addr:city": "BATTLE CREEK", "addr:country": "US", "addr:full": "106 S 2ND ST", "addr:postcode": "68715", "addr:state": "NE", "amenity": "post_box", "brand": "United States Postal Service", "brand:wikidata": "Q668687", "collection_times": "Mo-Sa 15:30", "name": "USPS COLLECTION BOX - BLUE BOX", "note": "ON 12/24 AND 12/31, THIS BOX MAY BE COLLECTED AS EARLY AS 12 NOON.", "nsi_id": "unitedstatespostalservice-a77078", "operator": "United States Postal Service", "operator:short": "USPS", "operator:type": "public", "operator:wikidata": "Q668687", "ref": "6871500001"}, "type": "Feature"}
{"dataset_attributes": {"@spider": "usps_collection_boxes"}, "geometry": {"coordinates": [-97.59819748, 41.998805665], "type": "Point"}, "id": "JQXvqv2AcWYd968Fsf2Xxp-C6QE=", "properties": {"@spider": "usps_collection_boxes", "addr:city": "BATTLE CREEK", "addr:country": "US", "addr:full": "106 S 2ND ST", "addr:postcode": "68715", "addr:state": "NE", "amenity": "post_box", "brand": "United States Postal Service", "brand:wikidata": "Q668687", "collection_times": "Mo-Fr 15:30; Sa 08:45", "name": "USPS COLLECTION BOX - PO LOBBY", "note": "ON 12/24 AND 12/31, THIS BOX MAY BE COLLECTED AS EARLY AS 12 NOON.", "nsi_id": "unitedstatespostalservice-a77078", "operator": "United States Postal Service", "operator:short": "USPS", "operator:type": "public", "operator:wikidata": "Q668687", "ref": "6871500002"}, "type": "Feature"}
{"dataset_attributes": {"@spider": "usps_collection_boxes"}, "geometry": {"coordinates": [-97.59819748, 41.998805665], "type": "Point"}, "id": "40RRwwpA1jc8Dlpf9q7O3yUNtZM=", "properties": {"@spider": "usps_collection_boxes", "addr:city": "BATTLE CREEK", "addr:country": "US", "addr:full": "106 S 2ND ST", "addr:postcode": "68715", "addr:state": "NE", "amenity": "post_box", "brand": "United States Postal Service", "brand:wikidata": "Q668687", "collection_times": "Mo-Fr 15:30; Sa 08:45", "name": "USPS COLLECTION BOX - PO LOBBY", "note": "ON 12/24 AND 12/31, THIS BOX MAY BE COLLECTED AS EARLY AS 12 NOON.", "nsi_id": "unitedstatespostalservice-a77078", "operator": "United States Postal Service", "operator:short": "USPS", "operator:type": "public", "operator:wikidata": "Q668687", "ref": "6871500003"}, "type": "Feature"}
{"dataset_attributes": {"@spider": "usps_collection_boxes"}, "geometry": {"coordinates": [-96.811812126, 41.930257651], "type": "Point"}, "id": "4G-ztVYZGw59FxcrvyIyKGF1sOU=", "properties": {"@spider": "usps_collection_boxes", "addr:city": "BEEMER", "addr:country": "US", "addr:full": "314 MAIN ST", "addr:postcode": "68716", "addr:state": "NE", "amenity": "post_box", "brand": "United States Postal Service", "brand:wikidata": "Q668687", "collection_times": "Mo-Sa 14:30", "name": "USPS COLLECTION BOX - BLUE BOX", "note": "ON 12/24 AND 12/31, THIS BOX MAY BE COLLECTED AS EARLY AS 12 NOON.", "nsi_id": "unitedstatespostalservice-a77078", "operator": "United States Postal Service", "operator:short": "USPS", "operator:type": "public", "operator:wikidata": "Q668687", "ref": "6871600001"}, "type": "Feature"}
{"dataset_attributes": {"@spider": "usps_collection_boxes"}, "geometry": {"coordinates": [-96.811812126, 41.930257651], "type": "Point"}, "id": "yTi_r5HPzZIQTnOaLzp-8PFQC_4=", "properties": {"@spider": "usps_collection_boxes", "addr:city": "BEEMER", "addr:country": "US", "addr:full": "314 MAIN ST", "addr:postcode": "68716", "addr:state": "NE", "amenity": "post_box", "brand": "United States Postal Service", "brand:wikidata": "Q668687", "collection_times": "Mo-Fr 14:30; Sa 12:45", "name": "USPS COLLECTION BOX - PO LOBBY", "note": "ON 12/24 AND 12/31, THIS BOX MAY BE COLLECTED AS EARLY AS 12 NOON.", "nsi_id": "unitedstatespostalservice-a77078", "operator": "United States Postal Service", "operator:short": "USPS", "operator:type": "public", "operator:wikidata": "Q668687", "ref": "6871600002"}, "type": "Feature"}
{"dataset_attributes": {"@spider": "usps_collection_boxes"}, "geometry": {"coordinates": [-96.811812126, 41.930257651], "type": "Point"}, "id": "gsMaAWHaHycOUn-egN6uLcMy0PU=", "properties": {"@spider": "usps_collection_boxes", "addr:city": "BEEMER", "addr:country": "US", "addr:full": "314 MAIN ST", "addr:postcode": "68716", "addr:state": "NE", "amenity": "post_box", "brand": "United States Postal Service", "brand:wikidata": "Q668687", "collection_times": "Mo-Fr 14:30; Sa 12:45", "name": "USPS COLLECTION BOX - PO LOBBY", "note": "ON 12/24 AND 12/31, THIS BOX MAY BE COLLECTED AS EARLY AS 12 NOON.", "nsi_id": "unitedstatespostalservice-a77078", "operator": "United States Postal Service", "operator:short": "USPS", "operator:type": "public", "operator:wikidata": "Q668687", "ref": "6871600004"}, "type": "Feature"}
{"dataset_attributes": {"@spider": "usps_collection_boxes"}, "geometry": {"coordinates": [-97.207108543, 42.4130652], "type": "Point"}, "id": "-DENSpE8TjjBSVt5oQVV_mH-who=", "properties": {"@spider": "usps_collection_boxes", "addr:city": "BELDEN", "addr:country": "US", "addr:full": "205 NEBRASKA ST", "addr:postcode": "68717", "addr:state": "NE", "amenity": "post_box", "brand": "United States Postal Service", "brand:wikidata": "Q668687", "collection_times": "Mo-Sa 14:05", "name": "USPS COLLECTION BOX - BLUE BOX", "note": "ON 12/24 AND 12/31, THIS BOX MAY BE COLLECTED AS EARLY AS 12 NOON.", "nsi_id": "unitedstatespostalservice-a77078", "operator": "United States Postal Service", "operator:short": "USPS", "operator:type": "public", "operator:wikidata": "Q668687", "ref": "6871700001"}, "type": "Feature"}
{"dataset_attributes": {"@spider": "usps_collection_boxes"}, "geometry": {"coordinates": [-97.207108543, 42.4130652], "type": "Point"}, "id": "f6TOFwXVM9OoXGmg2TgZ_RRy9ps=", "properties": {"@spider": "usps_collection_boxes", "addr:city": "BELDEN", "addr:country": "US", "addr:full": "205 NEBRASKA ST", "addr:postcode": "68717", "addr:state": "NE", "amenity": "post_box", "brand": "United States Postal Service", "brand:wikidata": "Q668687", "collection_times": "Mo-Fr 10:15; Sa 10:00", "name": "USPS COLLECTION BOX - PO LOBBY", "nsi_id": "unitedstatespostalservice-a77078", "operator": "United States Postal Service", "operator:short": "USPS", "operator:type": "public", "operator:wikidata": "Q668687", "ref": "6871700002"}, "type": "Feature"}
{"dataset_attributes": {"@spider": "usps_collection_boxes"}, "geometry": {"coordinates": [-97.207108543, 42.4130652], "type": "Point"}, "id": "DRxZ6iSsxQTNW6_tI1bvNB6Te00=", "properties": {"@spider": "usps_collection_boxes", "addr:city": "BELDEN", "addr:country": "US", "addr:full": "205 NEBRASKA ST", "addr:postcode": "68717", "addr:state": "NE", "amenity": "post_box", "brand": "United States Postal Service", "brand:wikidata": "Q668687", "collection_times": "Mo-Fr 10:15; Sa 10:00", "name": "USPS COLLECTION BOX - PO LOBBY", "nsi_id": "unitedstatespostalservice-a77078", "operator": "United States Postal Service", "operator:short": "USPS", "operator:type": "public", "operator:wikidata": "Q668687", "ref": "6871700003"}, "type": "Feature"}
{"dataset_attributes": {"@spider": "usps_collection_boxes"}, "geometry": {"coordinates": [-97.645728958, 42.598829526], "type": "Point"}, "id": "4dks1VHE6WVWoJSQiuatZXiL46A=", "properties": {"@spider": "usps_collection_boxes", "addr:city": "BLOOMFIELD", "addr:country": "US", "addr:full": "105 W MAIN ST", "addr:postcode": "68718", "addr:state": "NE", "amenity": "post_box", "brand": "United States Postal Service", "brand:wikidata": "Q668687", "collection_times": "Mo-Fr 13:40; Sa 13:35", "name": "USPS COLLECTION BOX - BLUE BOX", "note": "ON 12/24 AND 12/31, THIS BOX MAY BE COLLECTED AS EARLY AS 12 NOON.", "nsi_id": "unitedstatespostalservice-a77078", "operator": "United States Postal Service", "operator:short": "USPS", "operator:type": "public", "operator:wikidata": "Q668687", "ref": "6871800001"}, "type": "Feature"}
{"dataset_attributes": {"@spider": "usps_collection_boxes"}, "geometry": {"coordinates": [-97.645728958, 42.598829526], "type": "Point"}, "id": "lzoFa24oVjPTgxdemY8AKWBVowc=", "properties": {"@spider": "usps_collection_boxes", "addr:city": "BLOOMFIELD", "addr:country": "US", "addr:full": "105 W MAIN ST", "addr:postcode": "68718", "addr:state": "NE", "amenity": "post_box", "brand": "United States Postal Service", "brand:wikidata": "Q668687", "collection_times": "Mo-Fr 13:40; Sa 10:00", "name": "USPS COLLECTION BOX - PO LOBBY", "note": "ON 12/24 AND 12/31, THIS BOX MAY BE COLLECTED AS EARLY AS 12 NOON.", "nsi_id": "unitedstatespostalservice-a77078", "operator": "United States Postal Service", "operator:short": "USPS", "operator:type": "public", "operator:wikidata": "Q668687", "ref": "6871800002"}, "type": "Feature"}
{"dataset_attributes": {"@spider": "usps_collection_boxes"}, "geometry": {"coordinates": [-97.645728958, 42.598829526], "type": "Point"}, "id": "oPhqtpKZrzxDcfhOTkflkxJ32_w=", "properties": {"@spider": "usps_collection_boxes", "addr:city": "BLOOMFIELD", "addr:country": "US", "addr:full": "105 W MAIN ST", "addr:postcode": "68718", "addr:state": "NE", "amenity": "post_box", "brand": "United States Postal Service", "brand:wikidata": "Q668687", "collection_times": "Mo-Fr 13:40; Sa 10:00", "name": "USPS COLLECTION BOX - PO LOBBY", "note": "ON 12/24 AND 12/31, THIS BOX MAY BE COLLECTED AS EARLY AS 12 NOON.", "nsi_id": "unitedstatespostalservice-a77078", "operator": "United States Postal Service", "operator:short": "USPS", "operator:type": "public", "operator:wikidata": "Q668687", "ref": "6871800003"}, "type": "Feature"}
{"dataset_attributes": {"@spider": "usps_collection_boxes"}, "geometry": {"coordinates": [-98.584859512, 42.83974953], "type": "Point"}, "id": "czfwa99LawcQjDOJN1Vj_I-lohE=", "properties": {"@spider": "usps_collection_boxes", "addr:city": "BRISTOW", "addr:country": "US", "addr:full": "100 PRAIRIE ST", "addr:postcode": "68719", "addr:state": "NE", "amenity": "post_box", "brand": "United States Postal Service", "brand:wikidata": "Q668687", "collection_times": "Mo-Sa 13:05", "name": "USPS COLLECTION BOX - BLUE BOX", "note": "ON 12/24 AND 12/31, THIS BOX MAY BE COLLECTED AS EARLY AS 12 NOON.", "nsi_id": "unitedstatespostalservice-a77078", "operator": "United States Postal Service", "operator:short": "USPS", "operator:type": "public", "operator:wikidata": "Q668687", "ref": "6871900001"}, "type": "Feature"}
{"dataset_attributes": {"@spider": "usps_collection_boxes"}, "geometry": {"coordinates": [-98.584859512, 42.83974953], "type": "Point"}, "id": "U8HNVWqhv-EFvWUnX2ATxhsDN_0=", "properties": {"@spider": "usps_collection_boxes", "addr:city": "BRISTOW", "addr:country": "US", "addr:full": "100 PRAIRIE ST", "addr:postcode": "68719", "addr:state": "NE", "amenity": "post_box", "brand": "United States Postal Service", "brand:wikidata": "Q668687", "collection_times": "Mo-Fr 13:05; Sa 10:30", "name": "USPS COLLECTION BOX - PO LOBBY", "note": "ON 12/24 AND 12/31, THIS BOX MAY BE COLLECTED AS EARLY AS 12 NOON.", "nsi_id": "unitedstatespostalservice-a77078", "operator": "United States Postal Service", "operator:short": "USPS", "operator:type": "public", "operator:wikidata": "Q668687", "ref": "6871900002"}, "type": "Feature"}
{"dataset_attributes": {"@spider": "usps_collection_boxes"}, "geometry": {"coordinates": [-98.584859512, 42.83974953], "type": "Point"}, "id": "-i5reLIYw_7EESzuHKksIsNtzV0=", "properties": {"@spider": "usps_collection_boxes", "addr:city": "BRISTOW", "addr:country": "US", "addr:full": "100 PRAIRIE ST", "addr:postcode": "68719", "addr:state": "NE", "amenity": "post_box", "brand": "United States Postal Service", "brand:wikidata": "Q668687", "collection_times": "Mo-Fr 13:05; Sa 10:30", "name": "USPS COLLECTION BOX - PO LOBBY", "note": "ON 12/24 AND 12/31, THIS BOX MAY BE COLLECTED AS EARLY AS 12 NOON.", "nsi_id": "unitedstatespostalservice-a77078", "operator": "United States Postal Service", "operator:short": "USPS", "operator:type": "public", "operator:wikidata": "Q668687", "ref": "6871900003"}, "type": "Feature"}
{"dataset_attributes": {"@spider": "usps_collection_boxes"}, "geometry": {"coordinates": [-97.9710110081, 42.337804014], "type": "Point"}, "id": "W_lvroWlHaLB-BzNuVKt1GVM8l4=", "properties": {"@spider": "usps_collection_boxes", "addr:city": "BRUNSWICK", "addr:country": "US", "addr:full": "222 2ND ST", "addr:postcode": "68720", "addr:state": "NE", "amenity": "post_box", "brand": "United States Postal Service", "brand:wikidata": "Q668687", "collection_times": "Mo-Sa 13:50", "name": "USPS COLLECTION BOX - BLUE BOX", "note": "ON 12/24 AND 12/31, THIS BOX MAY BE COLLECTED AS EARLY AS 12 NOON.", "nsi_id": "unitedstatespostalservice-a77078", "operator": "United States Postal Service", "operator:short": "USPS", "operator:type": "public", "operator:wikidata": "Q668687", "ref": "6872000001"}, "type": "Feature"}
{"dataset_attributes": {"@spider": "usps_collection_boxes"}, "geometry": {"coordinates": [-97.971686122, 42.337546591], "type": "Point"}, "id": "r1QUBVrOorBBgRstp31JZr7kvok=", "properties": {"@spider": "usps_collection_boxes", "addr:city": "BRUNSWICK", "addr:country": "US", "addr:full": "222 2ND ST", "addr:postcode": "68720", "addr:state": "NE", "amenity": "post_box", "brand": "United States Postal Service", "brand:wikidata": "Q668687", "collection_times": "Mo-Fr 12:45; Sa 09:45", "name": "USPS COLLECTION BOX - PO LOBBY", "note": "ON 12/24 AND 12/31, THIS BOX MAY BE COLLECTED AS EARLY AS 12 NOON.", "nsi_id": "unitedstatespostalservice-a77078", "operator": "United States Postal Service", "operator:short": "USPS", "operator:type": "public", "operator:wikidata": "Q668687", "ref": "6872000002"}, "type": "Feature"}
{"dataset_attributes": {"@spider": "usps_collection_boxes"}, "geometry": {"coordinates": [-97.971686122, 42.337546591], "type": "Point"}, "id": "3YyyMbor4Z5LWaKs7bCLd02X7zc=", "properties": {"@spider": "usps_collection_boxes", "addr:city": "BRUNSWICK", "addr:country": "US", "addr:full": "222 2ND ST", "addr:postcode": "68720", "addr:state": "NE", "amenity": "post_box", "brand": "United States Postal Service", "brand:wikidata": "Q668687", "collection_times": "Mo-Fr 12:45; Sa 09:45", "name": "USPS COLLECTION BOX - PO LOBBY", "note": "ON 12/24 AND 12/31, THIS BOX MAY BE COLLECTED AS EARLY AS 12 NOON.", "nsi_id": "unitedstatespostalservice-a77078", "operator": "United States Postal Service", "operator:short": "USPS", "operator:type": "public", "operator:wikidata": "Q668687", "ref": "6872000003"}, "type": "Feature"}
{"dataset_attributes": {"@spider": "usps_collection_boxes"}, "geometry": {"coordinates": [-98.849111508, 42.912800361], "type": "Point"}, "id": "HGoe6fY3TGOCEVqv8qcmc7jjDDM=", "properties": {"@spider": "usps_collection_boxes", "addr:city": "BUTTE", "addr:country": "US", "addr:full": "518 THAYER ST", "addr:postcode": "68722", "addr:state": "NE", "amenity": "post_box", "brand": "United States Postal Service", "brand:wikidata": "Q668687", "collection_times": "Mo-Fr 11:50; Sa 12:10", "name": "USPS COLLECTION BOX - BLUE BOX", "note": "ON 12/24 AND 12/31, THIS BOX MAY BE COLLECTED AS EARLY AS 12 NOON.", "nsi_id": "unitedstatespostalservice-a77078", "operator": "United States Postal Service", "operator:short": "USPS", "operator:type": "public", "operator:wikidata": "Q668687", "ref": "6872200001"}, "type": "Feature"}
{"dataset_attributes": {"@spider": "usps_collection_boxes"}, "geometry": {"coordinates": [-98.849111508, 42.912800361], "type": "Point"}, "id": "SWR8-RPoAAyYMnvsGMJW7WXwxxk=", "properties": {"@spider": "usps_collection_boxes", "addr:city": "BUTTE", "addr:country": "US", "addr:full": "518 THAYER ST", "addr:postcode": "68722", "addr:state": "NE", "amenity": "post_box", "brand": "United States Postal Service", "brand:wikidata": "Q668687", "collection_times": "Mo-Fr 11:50; Sa 11:45", "name": "USPS COLLECTION BOX - PO LOBBY", "nsi_id": "unitedstatespostalservice-a77078", "operator": "United States Postal Service", "operator:short": "USPS", "operator:type": "public", "operator:wikidata": "Q668687", "ref": "6872200002"}, "type": "Feature"}
{"dataset_attributes": {"@spider": "usps_collection_boxes"}, "geometry": {"coordinates": [-98.849111508, 42.912800361], "type": "Point"}, "id": "QNIuUYg0JVArjXkHToacbqZl8c0=", "properties": {"@spider": "usps_collection_boxes", "addr:city": "BUTTE", "addr:country": "US", "addr:full": "518 THAYER ST", "addr:postcode": "68722", "addr:state": "NE", "amenity": "post_box", "brand": "United States Postal Service", "brand:wikidata": "Q668687", "collection_times": "Mo-Fr 11:50; Sa 11:45", "name": "USPS COLLECTION BOX - PO LOBBY", "nsi_id": "unitedstatespostalservice-a77078", "operator": "United States Postal Service", "operator:short": "USPS", "operator:type": "public", "operator:wikidata": "Q668687", "ref": "6872200003"}, "type": "Feature"}
{"dataset_attributes": {"@spider": "usps_collection_boxes"}, "geometry": {"coordinates": [-97.189225777, 42.276080668], "type": "Point"}, "id": "kK_iUYrXvKzgtwrWY1t52wHOTzU=", "properties": {"@spider": "usps_collection_boxes", "addr:city": "CARROLL", "addr:country": "US", "addr:full": "520 MAIN ST", "addr:postcode": "68723", "addr:state": "NE", "amenity": "post_box", "brand": "United States Postal Service", "brand:wikidata": "Q668687", "collection_times": "Mo-Sa 14:30", "name": "USPS COLLECTION BOX - BLUE BOX", "note": "ON 12/24 AND 12/31, THIS BOX MAY BE COLLECTED AS EARLY AS 12 NOON.", "nsi_id": "unitedstatespostalservice-a77078", "operator": "United States Postal Service", "operator:short": "USPS", "operator:type": "public", "operator:wikidata": "Q668687", "ref": "6872300001"}, "type": "Feature"}
{"dataset_attributes": {"@spider": "usps_collection_boxes"}, "geometry": {"coordinates": [-97.189225777, 42.276080668], "type": "Point"}, "id": "kOO9YE0TzBziyVzd1ekdrVNJ-Yc=", "properties": {"@spider": "usps_collection_boxes", "addr:city": "CARROLL", "addr:country": "US", "addr:full": "520 MAIN ST", "addr:postcode": "68723", "addr:state": "NE", "amenity": "post_box", "brand": "United States Postal Service", "brand:wikidata": "Q668687", "collection_times": "Mo-Fr 11:15; Sa 08:15", "name": "USPS COLLECTION BOX - PO LOBBY", "nsi_id": "unitedstatespostalservice-a77078", "operator": "United States Postal Service", "operator:short": "USPS", "operator:type": "public", "operator:wikidata": "Q668687", "ref": "6872300002"}, "type": "Feature"}
{"dataset_attributes": {"@spider": "usps_collection_boxes"}, "geometry": {"coordinates": [-97.189225777, 42.276080668], "type": "Point"}, "id": "Ai-FhVdHJyw_ppJjwt-HVu6Asws=", "properties": {"@spider": "usps_collection_boxes", "addr:city": "CARROLL", "addr:country": "US", "addr:full": "520 MAIN ST", "addr:postcode": "68723", "addr:state": "NE", "amenity": "post_box", "brand": "United States Postal Service", "brand:wikidata": "Q668687", "collection_times": "Mo-Fr 11:15; Sa 08:15", "name": "USPS COLLECTION BOX - PO LOBBY", "nsi_id": "unitedstatespostalservice-a77078", "operator": "United States Postal Service", "operator:short": "USPS", "operator:type": "public", "operator:wikidata": "Q668687", "ref": "6872300003"}, "type": "Feature"}
{"dataset_attributes": {"@spider": "usps_collection_boxes"}, "geometry": {"coordinates": [-97.876746604, 42.608519747], "type": "Point"}, "id": "ShigkYn7KJ01dSHAdgB7JvYTrHo=", "properties": {"@spider": "usps_collection_boxes", "addr:city": "CENTER", "addr:country": "US", "addr:full": "211 MAIN ST", "addr:postcode": "68724", "addr:state": "NE", "amenity": "post_box", "brand": "United States Postal Service", "brand:wikidata": "Q668687", "collection_times": "Mo-Sa 13:15", "name": "USPS COLLECTION BOX - BLUE BOX", "note": "ON 12/24 AND 12/31, THIS BOX MAY BE COLLECTED AS EARLY AS 12 NOON.", "nsi_id": "unitedstatespostalservice-a77078", "operator": "United States Postal Service", "operator:short": "USPS", "operator:type": "public", "operator:wikidata": "Q668687", "ref": "6872400001"}, "type": "Feature"}
{"dataset_attributes": {"@spider": "usps_collection_boxes"}, "geometry": {"coordinates": [-97.876746604, 42.608519747], "type": "Point"}, "id": "AScoTQYG9U0oYsO-ZM4UOojfn9s=", "properties": {"@spider": "usps_collection_boxes", "addr:city": "CENTER", "addr:country": "US", "addr:full": "211 MAIN ST", "addr:postcode": "68724", "addr:state": "NE", "amenity": "post_box", "brand": "United States Postal Service", "brand:wikidata": "Q668687", "collection_times": "Mo-Fr 12:45; Sa 09:45", "name": "USPS COLLECTION BOX - PO LOBBY", "note": "ON 12/24 AND 12/31, THIS BOX MAY BE COLLECTED AS EARLY AS 12 NOON.", "nsi_id": "unitedstatespostalservice-a77078", "operator": "United States Postal Service", "operator:short": "USPS", "operator:type": "public", "operator:wikidata": "Q668687", "ref": "6872400002"}, "type": "Feature"}
{"dataset_attributes": {"@spider": "usps_collection_boxes"}, "geometry": {"coordinates": [-97.876746604, 42.608519747], "type": "Point"}, "id": "1S7IzvUFbRsa7Y1Rr5-Derd6iXw=", "properties": {"@spider": "usps_collection_boxes", "addr:city": "CENTER", "addr:country": "US", "addr:full": "211 MAIN ST", "addr:postcode": "68724", "addr:state": "NE", "amenity": "post_box", "brand": "United States Postal Service", "brand:wikidata": "Q668687", "collection_times": "Mo-Fr 12:45; Sa 09:45", "name": "USPS COLLECTION BOX - PO LOBBY", "note": "ON 12/24 AND 12/31, THIS BOX MAY BE COLLECTED AS EARLY AS 12 NOON.", "nsi_id": "unitedstatespostalservice-a77078", "operator": "United States Postal Service", "operator:short": "USPS", "operator:type": "public", "operator:wikidata": "Q668687", "ref": "6872400003"}, "type": "Feature"}
{"dataset_attributes": {"@spider": "usps_collection_boxes"}, "geometry": {"coordinates": [-98.748413832, 42.204816512], "type": "Point"}, "id": "yBcCo-Pv6y6it_xVU1x7-GjPTM0=", "properties": {"@spider": "usps_collection_boxes", "addr:city": "CHAMBERS", "addr:country": "US", "addr:full": "102 E MAIN ST", "addr:postcode": "68725", "addr:state": "NE", "amenity": "post_box", "brand": "United States Postal Service", "brand:wikidata": "Q668687", "collection_times": "Mo-Fr 12:45; Sa 12:15", "name": "USPS COLLECTION BOX - BLUE BOX", "note": "ON 12/24 AND 12/31, THIS BOX MAY BE COLLECTED AS EARLY AS 12 NOON.", "nsi_id": "unitedstatespostalservice-a77078", "operator": "United States Postal Service", "operator:short": "USPS", "operator:type": "public", "operator:wikidata": "Q668687", "ref": "6872500001"}, "type": "Feature"}
{"dataset_attributes": {"@spider": "usps_collection_boxes"}, "geometry": {"coordinates": [-98.748413832, 42.204816512], "type": "Point"}, "id": "W3uLdSBGzTkzdvHdmGoL31pmI0o=", "properties": {"@spider": "usps_collection_boxes", "addr:city": "CHAMBERS", "addr:country": "US", "addr:full": "102 E MAIN ST", "addr:postcode": "68725", "addr:state": "NE", "amenity": "post_box", "brand": "United States Postal Service", "brand:wikidata": "Q668687", "collection_times": "Mo-Fr 12:45; Sa 12:15", "name": "USPS COLLECTION BOX - PO LOBBY", "note": "ON 12/24 AND 12/31, THIS BOX MAY BE COLLECTED AS EARLY AS 12 NOON.", "nsi_id": "unitedstatespostalservice-a77078", "operator": "United States Postal Service", "operator:short": "USPS", "operator:type": "public", "operator:wikidata": "Q668687", "ref": "6872500002"}, "type": "Feature"}
{"dataset_attributes": {"@spider": "usps_collection_boxes"}, "geometry": {"coordinates": [-98.748413832, 42.204816512], "type": "Point"}, "id": "__z78hj7Yd_v_7usLJYflw8b1fA=", "properties": {"@spider": "usps_collection_boxes", "addr:city": "CHAMBERS", "addr:country": "US", "addr:full": "102 E MAIN ST", "addr:postcode": "68725", "addr:state": "NE", "amenity": "post_box", "brand": "United States Postal Service", "brand:wikidata": "Q668687", "collection_times": "Mo-Fr 12:45; Sa 12:15", "name": "USPS COLLECTION BOX - PO LOBBY", "note": "ON 12/24 AND 12/31, THIS BOX MAY BE COLLECTED AS EARLY AS 12 NOON.", "nsi_id": "unitedstatespostalservice-a77078", "operator": "United States Postal Service", "operator:short": "USPS", "operator:type": "public", "operator:wikidata": "Q668687", "ref": "6872500003"}, "type": "Feature"}
{"dataset_attributes": {"@spider": "usps_collection_boxes"}, "geometry": {"coordinates": [-98.188418104, 42.170246665], "type": "Point"}, "id": "64U4_2NPPAKfw2XN0df48FMKqiA=", "properties": {"@spider": "usps_collection_boxes", "addr:city": "CLEARWATER", "addr:country": "US", "addr:full": "517 MAIN ST", "addr:postcode": "68726", "addr:state": "NE", "amenity": "post_box", "brand": "United States Postal Service", "brand:wikidata": "Q668687", "collection_times": "Mo-Sa 14:00", "name": "USPS COLLECTION BOX - BLUE BOX", "note": "ON 12/24 AND 12/31, THIS BOX MAY BE COLLECTED AS EARLY AS 12 NOON.", "nsi_id": "unitedstatespostalservice-a77078", "operator": "United States Postal Service", "operator:short": "USPS", "operator:type": "public", "operator:wikidata": "Q668687", "ref": "6872600001"}, "type": "Feature"}
{"dataset_attributes": {"@spider": "usps_collection_boxes"}, "geometry": {"coordinates": [-98.188418104, 42.170246665], "type": "Point"}, "id": "osDOjc4iB7-iXRmN1dxpAay13KU=", "properties": {"@spider": "usps_collection_boxes", "addr:city": "CLEARWATER", "addr:country": "US", "addr:full": "517 MAIN ST", "addr:postcode": "68726", "addr:state": "NE", "amenity": "post_box", "brand": "United States Postal Service", "brand:wikidata": "Q668687", "collection_times": "Mo-Fr 12:45; Sa 10:15", "name": "USPS COLLECTION BOX - PO LOBBY", "note": "ON 12/24 AND 12/31, THIS BOX MAY BE COLLECTED AS EARLY AS 12 NOON.", "nsi_id": "unitedstatespostalservice-a77078", "operator": "United States Postal Service", "operator:short": "USPS", "operator:type": "public", "operator:wikidata": "Q668687", "ref": "6872600002"}, "type": "Feature"}
{"dataset_attributes": {"@spider": "usps_collection_boxes"}, "geometry": {"coordinates": [-98.188418104, 42.170246665], "type": "Point"}, "id": "RcVhtmXiaOTA8OHYQWX0CjU28JM=", "properties": {"@spider": "usps_collection_boxes", "addr:city": "CLEARWATER", "addr:country": "US", "addr:full": "517 MAIN ST", "addr:postcode": "68726", "addr:state": "NE", "amenity": "post_box", "brand": "United States Postal Service", "brand:wikidata": "Q668687", "collection_times": "Mo-Fr 12:45; Sa 10:15", "name": "USPS COLLECTION BOX - PO LOBBY", "note": "ON 12/24 AND 12/31, THIS BOX MAY BE COLLECTED AS EARLY AS 12 NOON.", "nsi_id": "unitedstatespostalservice-a77078", "operator": "United States Postal Service", "operator:short": "USPS", "operator:type": "public", "operator:wikidata": "Q668687", "ref": "6872600003"}, "type": "Feature"}
{"dataset_attributes": {"@spider": "usps_collection_boxes"}, "geometry": {"coordinates": [-97.203418632, 42.506175485], "type": "Point"}, "id": "0_OSxXm9WrWAvDpZH34kzVD_290=", "properties": {"@spider": "usps_collection_boxes", "addr:city": "COLERIDGE", "addr:country": "US", "addr:full": "114 E BROADWAY ST", "addr:postcode": "68727", "addr:state": "NE", "amenity": "post_box", "brand": "United States Postal Service", "brand:wikidata": "Q668687", "collection_times": "Mo-Sa 13:50", "name": "USPS COLLECTION BOX - BLUE BOX", "note": "ON 12/24 AND 12/31, THIS BOX MAY BE COLLECTED AS EARLY AS 12 NOON.", "nsi_id": "unitedstatespostalservice-a77078", "operator": "United States Postal Service", "operator:short": "USPS", "operator:type": "public", "operator:wikidata": "Q668687", "ref": "6872700001"}, "type": "Feature"}
{"dataset_attributes": {"@spider": "usps_collection_boxes"}, "geometry": {"coordinates": [-97.203418632, 42.506175485], "type": "Point"}, "id": "8J-NBNFsm243uaONl0hFMdp1NWg=", "properties": {"@spider": "usps_collection_boxes", "addr:city": "COLERIDGE", "addr:country": "US", "addr:full": "114 E BROADWAY ST", "addr:postcode": "68727", "addr:state": "NE", "amenity": "post_box", "brand": "United States Postal Service", "brand:wikidata": "Q668687", "collection_times": "Mo-Fr 11:45; Sa 09:15", "name": "USPS COLLECTION BOX - PO LOBBY", "nsi_id": "unitedstatespostalservice-a77078", "operator": "United States Postal Service", "operator:short": "USPS", "operator:type": "public", "operator:wikidata": "Q668687", "ref": "6872700002"}, "type": "Feature"}
{"dataset_attributes": {"@spider": "usps_collection_boxes"}, "geometry": {"coordinates": [-97.203418632, 42.506175485], "type": "Point"}, "id": "GKBBUQ8JKS6Evfl_mjjz_Snj4cA=", "properties": {"@spider": "usps_collection_boxes", "addr:city": "COLERIDGE", "addr:country": "US", "addr:full": "114 E BROADWAY ST", "addr:postcode": "68727", "addr:state": "NE", "amenity": "post_box", "brand": "United States Postal Service", "brand:wikidata": "Q668687", "collection_times": "Mo-Fr 11:45; Sa 09:15", "name": "USPS COLLECTION BOX - PO LOBBY", "nsi_id": "unitedstatespostalservice-a77078", "operator": "United States Postal Service", "operator:short": "USPS", "operator:type": "public", "operator:wikidata": "Q668687", "ref": "6872700003"}, "type": "Feature"}
{"dataset_attributes": {"@spider": "usps_collection_boxes"}, "geometry": {"coordinates": [-96.98831018, 42.383016115], "type": "Point"}, "id": "m02arlgE2sAf_O2wEZ8uDM7AILU=", "properties": {"@spider": "usps_collection_boxes", "addr:city": "CONCORD", "addr:country": "US", "addr:full": "207 LINCOLN ST", "addr:postcode": "68728", "addr:state": "NE", "amenity": "post_box", "brand": "United States Postal Service", "brand:wikidata": "Q668687", "collection_times": "Mo-Sa 13:00", "name": "USPS COLLECTION BOX - BLUE BOX", "note": "ON 12/24 AND 12/31, THIS BOX MAY BE COLLECTED AS EARLY AS 12 NOON.", "nsi_id": "unitedstatespostalservice-a77078", "operator": "United States Postal Service", "operator:short": "USPS", "operator:type": "public", "operator:wikidata": "Q668687", "ref": "6872800001"}, "type": "Feature"}
{"dataset_attributes": {"@spider": "usps_collection_boxes"}, "geometry": {"coordinates": [-96.98831018, 42.383016115], "type": "Point"}, "id": "ALW8kFjbrsX3GSQN6zWZvJyY5-4=", "properties": {"@spider": "usps_collection_boxes", "addr:city": "CONCORD", "addr:country": "US", "addr:full": "207 LINCOLN ST", "addr:postcode": "68728", "addr:state": "NE", "amenity": "post_box", "brand": "United States Postal Service", "brand:wikidata": "Q668687", "collection_times": "Mo-Fr 11:45; Sa 10:15", "name": "USPS COLLECTION BOX - PO LOBBY", "nsi_id": "unitedstatespostalservice-a77078", "operator": "United States Postal Service", "operator:short": "USPS", "operator:type": "public", "operator:wikidata": "Q668687", "ref": "6872800002"}, "type": "Feature"}
{"dataset_attributes": {"@spider": "usps_collection_boxes"}, "geometry": {"coordinates": [-96.98831018, 42.383016115], "type": "Point"}, "id": "UFTHRF1SlFkoPBKpIBfb0513ny8=", "properties": {"@spider": "usps_collection_boxes", "addr:city": "CONCORD", "addr:country": "US", "addr:full": "207 LINCOLN ST", "addr:postcode": "68728", "addr:state": "NE", "amenity": "post_box", "brand": "United States Postal Service", "brand:wikidata": "Q668687", "collection_times": "Mo-Fr 11:45; Sa 10:15", "name": "USPS COLLECTION BOX - PO LOBBY", "nsi_id": "unitedstatespostalservice-a77078", "operator": "United States Postal Service", "operator:short": "USPS", "operator:type": "public", "operator:wikidata": "Q668687", "ref": "6872800003"}, "type": "Feature"}
{"dataset_attributes": {"@spider": "usps_collection_boxes"}, "geometry": {"coordinates": [-97.900476277, 42.466467534], "type": "Point"}, "id": "3bxBZc9ArlaSj48vL9V4vp-t718=", "properties": {"@spider": "usps_collection_boxes", "addr:city": "CREIGHTON", "addr:country": "US", "addr:full": "819 MAIN ST", "addr:postcode": "68729", "addr:state": "NE", "amenity": "post_box", "brand": "United States Postal Service", "brand:wikidata": "Q668687", "collection_times": "Mo-Sa 14:00", "name": "USPS COLLECTION BOX - BLUE BOX", "note": "ON 12/24 AND 12/31, THIS BOX MAY BE COLLECTED AS EARLY AS 12 NOON.", "nsi_id": "unitedstatespostalservice-a77078", "operator": "United States Postal Service", "operator:short": "USPS", "operator:type": "public", "operator:wikidata": "Q668687", "ref": "6872900001"}, "type": "Feature"}
{"dataset_attributes": {"@spider": "usps_collection_boxes"}, "geometry": {"coordinates": [-97.900476277, 42.466467534], "type": "Point"}, "id": "0_EXW6mWr0j0xCVm7ZtD1kzndyo=", "properties": {"@spider": "usps_collection_boxes", "addr:city": "CREIGHTON", "addr:country": "US", "addr:full": "819 MAIN ST", "addr:postcode": "68729", "addr:state": "NE", "amenity": "post_box", "brand": "United States Postal Service", "brand:wikidata": "Q668687", "collection_times": "Mo-Fr 14:00; Sa 08:45", "name": "USPS COLLECTION BOX - PO LOBBY", "note": "ON 12/24 AND 12/31, THIS BOX MAY BE COLLECTED AS EARLY AS 12 NOON.", "nsi_id": "unitedstatespostalservice-a77078", "operator": "United States Postal Service", "operator:short": "USPS", "operator:type": "public", "operator:wikidata": "Q668687", "ref": "6872900002"}, "type": "Feature"}
{"dataset_attributes": {"@spider": "usps_collection_boxes"}, "geometry": {"coordinates": [-97.900476277, 42.466467534], "type": "Point"}, "id": "HZ5Jm8TPOwFqSdy2K_89wbPkWVM=", "properties": {"@spider": "usps_collection_boxes", "addr:city": "CREIGHTON", "addr:country": "US", "addr:full": "819 MAIN ST", "addr:postcode": "68729", "addr:state": "NE", "amenity": "post_box", "brand": "United States Postal Service", "brand:wikidata": "Q668687", "collection_times": "Mo-Fr 14:00; Sa 08:45", "name": "USPS COLLECTION BOX - PO LOBBY", "note": "ON 12/24 AND 12/31, THIS BOX MAY BE COLLECTED AS EARLY AS 12 NOON.", "nsi_id": "unitedstatespostalservice-a77078", "operator": "United States Postal Service", "operator:short": "USPS", "operator:type": "public", "operator:wikidata": "Q668687", "ref": "6872900003"}, "type": "Feature"}
{"dataset_attributes": {"@spider": "usps_collection_boxes"}, "geometry": {"coordinates": [-97.496025064, 42.731052641], "type": "Point"}, "id": "1cNeKHFYYVnkyoIAOqZ8oS0Vu4M=", "properties": {"@spider": "usps_collection_boxes", "addr:city": "CROFTON", "addr:country": "US", "addr:full": "1116 W 2ND ST", "addr:postcode": "68730", "addr:state": "NE", "amenity": "post_box", "brand": "United States Postal Service", "brand:wikidata": "Q668687", "collection_times": "Mo-Sa 12:45", "name": "USPS COLLECTION BOX - BLUE BOX", "note": "ON 12/24 AND 12/31, THIS BOX MAY BE COLLECTED AS EARLY AS 12 NOON.", "nsi_id": "unitedstatespostalservice-a77078", "operator": "United States Postal Service", "operator:short": "USPS", "operator:type": "public", "operator:wikidata": "Q668687", "ref": "6873000001"}, "type": "Feature"}
{"dataset_attributes": {"@spider": "usps_collection_boxes"}, "geometry": {"coordinates": [-97.496025064, 42.731052641], "type": "Point"}, "id": "dZ53yHZcXLkQtDEI01y-8TCj-_c=", "properties": {"@spider": "usps_collection_boxes", "addr:city": "CROFTON", "addr:country": "US", "addr:full": "1116 W 2ND ST", "addr:postcode": "68730", "addr:state": "NE", "amenity": "post_box", "brand": "United States Postal Service", "brand:wikidata": "Q668687", "collection_times": "Mo-Fr 12:45; Sa 09:45", "name": "USPS COLLECTION BOX - PO LOBBY", "note": "ON 12/24 AND 12/31, THIS BOX MAY BE COLLECTED AS EARLY AS 12 NOON.", "nsi_id": "unitedstatespostalservice-a77078", "operator": "United States Postal Service", "operator:short": "USPS", "operator:type": "public", "operator:wikidata": "Q668687", "ref": "6873000002"}, "type": "Feature"}
{"dataset_attributes": {"@spider": "usps_collection_boxes"}, "geometry": {"coordinates": [-97.496025064, 42.731052641], "type": "Point"}, "id": "XvDM0XP_rEURWNnUpPdNY0Zs97I=", "properties": {"@spider": "usps_collection_boxes", "addr:city": "CROFTON", "addr:country": "US", "addr:full": "1116 W 2ND ST", "addr:postcode": "68730", "addr:state": "NE", "amenity": "post_box", "brand": "United States Postal Service", "brand:wikidata": "Q668687", "collection_times": "Mo-Fr 12:45; Sa 09:45", "name": "USPS COLLECTION BOX - PO LOBBY", "note": "ON 12/24 AND 12/31, THIS BOX MAY BE COLLECTED AS EARLY AS 12 NOON.", "nsi_id": "unitedstatespostalservice-a77078", "operator": "United States Postal Service", "operator:short": "USPS", "operator:type": "public", "operator:wikidata": "Q668687", "ref": "6873000003"}, "type": "Feature"}
{"dataset_attributes": {"@spider": "usps_collection_boxes"}, "geometry": {"coordinates": [-96.418632033, 42.415487114], "type": "Point"}, "id": "vIkYsPoWV6exmQXrYgZ1wAC4Iqo=", "properties": {"@spider": "usps_collection_boxes", "addr:city": "DAKOTA CITY", "addr:country": "US", "addr:full": "110 N 16TH ST", "addr:postcode": "68731", "addr:state": "NE", "amenity": "post_box", "brand": "United States Postal Service", "brand:wikidata": "Q668687", "collection_times": "Mo-Sa 13:30", "name": "USPS COLLECTION BOX - BLUE BOX", "note": "ON 12/24 AND 12/31, THIS BOX MAY BE COLLECTED AS EARLY AS 12 NOON.", "nsi_id": "unitedstatespostalservice-a77078", "operator": "United States Postal Service", "operator:short": "USPS", "operator:type": "public", "operator:wikidata": "Q668687", "ref": "6873100001"}, "type": "Feature"}
{"dataset_attributes": {"@spider": "usps_collection_boxes"}, "geometry": {"coordinates": [-96.418632033, 42.415487114], "type": "Point"}, "id": "13TZYIwjirSVkzGGDt730tbq_gU=", "properties": {"@spider": "usps_collection_boxes", "addr:city": "DAKOTA CITY", "addr:country": "US", "addr:full": "110 N 16TH ST", "addr:postcode": "68731", "addr:state": "NE", "amenity": "post_box", "brand": "United States Postal Service", "brand:wikidata": "Q668687", "collection_times": "Mo-Fr 13:30; Sa 09:45", "name": "USPS COLLECTION BOX - PO LOBBY", "note": "ON 12/24 AND 12/31, THIS BOX MAY BE COLLECTED AS EARLY AS 12 NOON.", "nsi_id": "unitedstatespostalservice-a77078", "operator": "United States Postal Service", "operator:short": "USPS", "operator:type": "public", "operator:wikidata": "Q668687", "ref": "6873100002"}, "type": "Feature"}
{"dataset_attributes": {"@spider": "usps_collection_boxes"}, "geometry": {"coordinates": [-96.418632033, 42.415487114], "type": "Point"}, "id": "aCxf62IsxgFCk_SLgdipqVH6kHo=", "properties": {"@spider": "usps_collection_boxes", "addr:city": "DAKOTA CITY", "addr:country": "US", "addr:full": "110 N 16TH ST", "addr:postcode": "68731", "addr:state": "NE", "amenity": "post_box", "brand": "United States Postal Service", "brand:wikidata": "Q668687", "collection_times": "Mo-Fr 13:30; Sa 09:45", "name": "USPS COLLECTION BOX - PO LOBBY", "note": "ON 12/24 AND 12/31, THIS BOX MAY BE COLLECTED AS EARLY AS 12 NOON.", "nsi_id": "unitedstatespostalservice-a77078", "operator": "United States Postal Service", "operator:short": "USPS", "operator:type": "public", "operator:wikidata": "Q668687", "ref": "6873100003"}, "type": "Feature"}
{"dataset_attributes": {"@spider": "usps_collection_boxes"}, "geometry": {"coordinates": [-96.995387893, 42.415987231], "type": "Point"}, "id": "c1IXOVElY3fbPwpMr3kCXxoibB8=", "properties": {"@spider": "usps_collection_boxes", "addr:city": "DIXON", "addr:country": "US", "addr:full": "302 2ND ST", "addr:postcode": "68732", "addr:state": "NE", "amenity": "post_box", "brand": "United States Postal Service", "brand:wikidata": "Q668687", "collection_times": "Mo-Fr 13:10; Sa 13:00", "name": "USPS COLLECTION BOX - BLUE BOX", "note": "ON 12/24 AND 12/31, THIS BOX MAY BE COLLECTED AS EARLY AS 12 NOON.", "nsi_id": "unitedstatespostalservice-a77078", "operator": "United States Postal Service", "operator:short": "USPS", "operator:type": "public", "operator:wikidata": "Q668687", "ref": "6873200001"}, "type": "Feature"}
{"dataset_attributes": {"@spider": "usps_collection_boxes"}, "geometry": {"coordinates": [-96.995387893, 42.415987231], "type": "Point"}, "id": "8nRi9fbFzioNDMAVUDL_LWvi1HU=", "properties": {"@spider": "usps_collection_boxes", "addr:city": "DIXON", "addr:country": "US", "addr:full": "302 2ND ST", "addr:postcode": "68732", "addr:state": "NE", "amenity": "post_box", "brand": "United States Postal Service", "brand:wikidata": "Q668687", "collection_times": "Mo-Fr 12:45; Sa 11:00", "name": "USPS COLLECTION BOX - PO LOBBY", "note": "ON 12/24 AND 12/31, THIS BOX MAY BE COLLECTED AS EARLY AS 12 NOON.", "nsi_id": "unitedstatespostalservice-a77078", "operator": "United States Postal Service", "operator:short": "USPS", "operator:type": "public", "operator:wikidata": "Q668687", "ref": "6873200002"}, "type": "Feature"}
{"dataset_attributes": {"@spider": "usps_collection_boxes"}, "geometry": {"coordinates": [-96.995387893, 42.415987231], "type": "Point"}, "id": "dOPBOoEETt52HQr2aJU7Gl719l8=", "properties": {"@spider": "usps_collection_boxes", "addr:city": "DIXON", "addr:country": "US", "addr:full": "302 2ND ST", "addr:postcode": "68732", "addr:state": "NE", "amenity": "post_box", "brand": "United States Postal Service", "brand:wikidata": "Q668687", "collection_times": "Mo-Fr 12:45; Sa 11:00", "name": "USPS COLLECTION BOX - PO LOBBY", "note": "ON 12/24 AND 12/31, THIS BOX MAY BE COLLECTED AS EARLY AS 12 NOON.", "nsi_id": "unitedstatespostalservice-a77078", "operator": "United States Postal Service", "operator:short": "USPS", "operator:type": "public", "operator:wikidata": "Q668687", "ref": "6873200003"}, "type": "Feature"}
{"dataset_attributes": {"@spider": "usps_collection_boxes"}, "geometry": {"coordinates": [-96.726564471, 42.278493073], "type": "Point"}, "id": "sFA-pHQ1caIsTo_K5dj8yekK0FE=", "properties": {"@spider": "usps_collection_boxes", "addr:city": "EMERSON", "addr:country": "US", "addr:full": "103 N MAIN ST", "addr:postcode": "68733", "addr:state": "NE", "amenity": "post_box", "brand": "United States Postal Service", "brand:wikidata": "Q668687", "collection_times": "Mo-Sa 14:10", "name": "USPS COLLECTION BOX - BLUE BOX", "note": "ON 12/24 AND 12/31, THIS BOX MAY BE COLLECTED AS EARLY AS 12 NOON.", "nsi_id": "unitedstatespostalservice-a77078", "operator": "United States Postal Service", "operator:short": "USPS", "operator:type": "public", "operator:wikidata": "Q668687", "ref": "6873300001"}, "type": "Feature"}
{"dataset_attributes": {"@spider": "usps_collection_boxes"}, "geometry": {"coordinates": [-96.726564471, 42.278493073], "type": "Point"}, "id": "zV2WrVz0F-Xe2BwYxV1BhUsv93s=", "properties": {"@spider": "usps_collection_boxes", "addr:city": "EMERSON", "addr:country": "US", "addr:full": "103 N MAIN ST", "addr:postcode": "68733", "addr:state": "NE", "amenity": "post_box", "brand": "United States Postal Service", "brand:wikidata": "Q668687", "collection_times": "Mo-Fr 14:10; Sa 09:15", "name": "USPS COLLECTION BOX - PO LOBBY", "note": "ON 12/24 AND 12/31, THIS BOX MAY BE COLLECTED AS EARLY AS 12 NOON.", "nsi_id": "unitedstatespostalservice-a77078", "operator": "United States Postal Service", "operator:short": "USPS", "operator:type": "public", "operator:wikidata": "Q668687", "ref": "6873300002"}, "type": "Feature"}
{"dataset_attributes": {"@spider": "usps_collection_boxes"}, "geometry": {"coordinates": [-96.726564471, 42.278493073], "type": "Point"}, "id": "Cy8jBQqf2pAVXQKy8s969P0qIgc=", "properties": {"@spider": "usps_collection_boxes", "addr:city": "EMERSON", "addr:country": "US", "addr:full": "103 N MAIN ST", "addr:postcode": "68733", "addr:state": "NE", "amenity": "post_box", "brand": "United States Postal Service", "brand:wikidata": "Q668687", "collection_times": "Mo-Fr 14:10; Sa 09:15", "name": "USPS COLLECTION BOX - PO LOBBY", "note": "ON 12/24 AND 12/31, THIS BOX MAY BE COLLECTED AS EARLY AS 12 NOON.", "nsi_id": "unitedstatespostalservice-a77078", "operator": "United States Postal Service", "operator:short": "USPS", "operator:type": "public", "operator:wikidata": "Q668687", "ref": "6873300003"}, "type": "Feature"}
{"dataset_attributes": {"@spider": "usps_collection_boxes"}, "geometry": {"coordinates": [-98.3453899707, 42.2580600121], "type": "Point"}, "id": "-SVwZ-DTJRHFAzG1jpQdSbi5k00=", "properties": {"@spider": "usps_collection_boxes", "addr:city": "EWING", "addr:country": "US", "addr:full": "120 E NEBRASKA ST", "addr:postcode": "68735", "addr:state": "NE", "amenity": "post_box", "brand": "United States Postal Service", "brand:wikidata": "Q668687", "collection_times": "Mo-Sa 13:30", "name": "USPS COLLECTION BOX - BLUE BOX", "note": "ON 12/24 AND 12/31, THIS BOX MAY BE COLLECTED AS EARLY AS 12 NOON.", "nsi_id": "unitedstatespostalservice-a77078", "operator": "United States Postal Service", "operator:short": "USPS", "operator:type": "public", "operator:wikidata": "Q668687", "ref": "6873500001"}, "type": "Feature"}
{"dataset_attributes": {"@spider": "usps_collection_boxes"}, "geometry": {"coordinates": [-98.3453899707, 42.2580600121], "type": "Point"}, "id": "rhOt6-dpiCAEpHxVcc3iyP2shDI=", "properties": {"@spider": "usps_collection_boxes", "addr:city": "EWING", "addr:country": "US", "addr:full": "120 E NEBRASKA ST", "addr:postcode": "68735", "addr:state": "NE", "amenity": "post_box", "brand": "United States Postal Service", "brand:wikidata": "Q668687", "collection_times": "Mo-Fr 13:30; Sa 09:45", "name": "USPS COLLECTION BOX - PO LOBBY", "note": "ON 12/24 AND 12/31, THIS BOX MAY BE COLLECTED AS EARLY AS 12 NOON.", "nsi_id": "unitedstatespostalservice-a77078", "operator": "United States Postal Service", "operator:short": "USPS", "operator:type": "public", "operator:wikidata": "Q668687", "ref": "6873500002"}, "type": "Feature"}
{"dataset_attributes": {"@spider": "usps_collection_boxes"}, "geometry": {"coordinates": [-98.3453899707, 42.2580600121], "type": "Point"}, "id": "JKLT2KaaLfLAc1tIm4M0gCh2xmI=", "properties": {"@spider": "usps_collection_boxes", "addr:city": "EWING", "addr:country": "US", "addr:full": "120 E NEBRASKA ST", "addr:postcode": "68735", "addr:state": "NE", "amenity": "post_box", "brand": "United States Postal Service", "brand:wikidata": "Q668687", "collection_times": "Mo-Fr 13:30; Sa 09:45", "name": "USPS COLLECTION BOX - PO LOBBY", "note": "ON 12/24 AND 12/31, THIS BOX MAY BE COLLECTED AS EARLY AS 12 NOON.", "nsi_id": "unitedstatespostalservice-a77078", "operator": "United States Postal Service", "operator:short": "USPS", "operator:type": "public", "operator:wikidata": "Q668687", "ref": "6873500003"}, "type": "Feature"}
{"dataset_attributes": {"@spider": "usps_collection_boxes"}, "geometry": {"coordinates": [-97.362331352, 42.69896978], "type": "Point"}, "id": "uzPuTbIaAyuEXtT-Gqq-eEKcMEo=", "properties": {"@spider": "usps_collection_boxes", "addr:city": "FORDYCE", "addr:country": "US", "addr:full": "119 MAIN ST", "addr:postcode": "68736", "addr:state": "NE", "amenity": "post_box", "brand": "United States Postal Service", "brand:wikidata": "Q668687", "collection_times": "Mo-Sa 13:05", "name": "USPS COLLECTION BOX - BLUE BOX", "note": "ON 12/24 AND 12/31, THIS BOX MAY BE COLLECTED AS EARLY AS 12 NOON.", "nsi_id": "unitedstatespostalservice-a77078", "operator": "United States Postal Service", "operator:short": "USPS", "operator:type": "public", "operator:wikidata": "Q668687", "ref": "6873600002"}, "type": "Feature"}
{"dataset_attributes": {"@spider": "usps_collection_boxes"}, "geometry": {"coordinates": [-97.362331352, 42.69896978], "type": "Point"}, "id": "HdrC9I4FUCeiS6Oda9Zqma8N2wQ=", "properties": {"@spider": "usps_collection_boxes", "addr:city": "FORDYCE", "addr:country": "US", "addr:full": "119 MAIN ST", "addr:postcode": "68736", "addr:state": "NE", "amenity": "post_box", "brand": "United States Postal Service", "brand:wikidata": "Q668687", "collection_times": "Mo-Fr 11:45; Sa 08:45", "name": "USPS COLLECTION BOX - PO LOBBY", "nsi_id": "unitedstatespostalservice-a77078", "operator": "United States Postal Service", "operator:short": "USPS", "operator:type": "public", "operator:wikidata": "Q668687", "ref": "6873600003"}, "type": "Feature"}
{"dataset_attributes": {"@spider": "usps_collection_boxes"}, "geometry": {"coordinates": [-97.362331352, 42.69896978], "type": "Point"}, "id": "qlrWpEIRTO63eFQuKq1-L5lqkns=", "properties": {"@spider": "usps_collection_boxes", "addr:city": "FORDYCE", "addr:country": "US", "addr:full": "119 MAIN ST", "addr:postcode": "68736", "addr:state": "NE", "amenity": "post_box", "brand": "United States Postal Service", "brand:wikidata": "Q668687", "collection_times": "Mo-Fr 11:45; Sa 08:45", "name": "USPS COLLECTION BOX - PO LOBBY", "nsi_id": "unitedstatespostalservice-a77078", "operator": "United States Postal Service", "operator:short": "USPS", "operator:type": "public", "operator:wikidata": "Q668687", "ref": "6873600004"}, "type": "Feature"}
{"dataset_attributes": {"@spider": "usps_collection_boxes"}, "geometry": {"coordinates": [-97.2654287078, 42.6215227558], "type": "Point"}, "id": "I-oBzSYU4H1c1GPTTZMruzwM6uE=", "properties": {"@spider": "usps_collection_boxes", "addr:city": "HARTINGTON", "addr:country": "US", "addr:full": "105 W STATE ST", "addr:postcode": "68739", "addr:state": "NE", "amenity": "post_box", "brand": "United States Postal Service", "brand:wikidata": "Q668687", "collection_times": "Mo-Sa 13:30", "name": "USPS COLLECTION BOX - BLUE BOX", "note": "ON 12/24 AND 12/31, THIS BOX MAY BE COLLECTED AS EARLY AS 12 NOON.", "nsi_id": "unitedstatespostalservice-a77078", "operator": "United States Postal Service", "operator:short": "USPS", "operator:type": "public", "operator:wikidata": "Q668687", "ref": "6873900001"}, "type": "Feature"}
{"dataset_attributes": {"@spider": "usps_collection_boxes"}, "geometry": {"coordinates": [-97.264740302, 42.621493168], "type": "Point"}, "id": "EScUMEFvSAr6SoJr-0nGdwFzlWc=", "properties": {"@spider": "usps_collection_boxes", "addr:city": "HARTINGTON", "addr:country": "US", "addr:full": "105 W STATE ST", "addr:postcode": "68739", "addr:state": "NE", "amenity": "post_box", "brand": "United States Postal Service", "brand:wikidata": "Q668687", "collection_times": "Mo-Fr 13:30; Sa 10:45", "name": "USPS COLLECTION BOX - PO LOBBY", "note": "ON 12/24 AND 12/31, THIS BOX MAY BE COLLECTED AS EARLY AS 12 NOON.", "nsi_id": "unitedstatespostalservice-a77078", "operator": "United States Postal Service", "operator:short": "USPS", "operator:type": "public", "operator:wikidata": "Q668687", "ref": "6873900002"}, "type": "Feature"}
{"dataset_attributes": {"@spider": "usps_collection_boxes"}, "geometry": {"coordinates": [-97.264740302, 42.621493168], "type": "Point"}, "id": "JKqWTBJglYPERKJhtL1RdAusl1s=", "properties": {"@spider": "usps_collection_boxes", "addr:city": "HARTINGTON", "addr:country": "US", "addr:full": "105 W STATE ST", "addr:postcode": "68739", "addr:state": "NE", "amenity": "post_box", "brand": "United States Postal Service", "brand:wikidata": "Q668687", "collection_times": "Mo-Fr 13:30; Sa 10:45", "name": "USPS COLLECTION BOX - PO LOBBY", "note": "ON 12/24 AND 12/31, THIS BOX MAY BE COLLECTED AS EARLY AS 12 NOON.", "nsi_id": "unitedstatespostalservice-a77078", "operator": "United States Postal Service", "operator:short": "USPS", "operator:type": "public", "operator:wikidata": "Q668687", "ref": "6873900003"}, "type": "Feature"}
{"dataset_attributes": {"@spider": "usps_collection_boxes"}, "geometry": {"coordinates": [-97.306288252, 42.113359423], "type": "Point"}, "id": "hFsgSI_Br8XmlSbD_qiM5qdTdS0=", "properties": {"@spider": "usps_collection_boxes", "addr:city": "HOSKINS", "addr:country": "US", "addr:full": "107 S MAIN ST", "addr:postcode": "68740", "addr:state": "NE", "amenity": "post_box", "brand": "United States Postal Service", "brand:wikidata": "Q668687", "collection_times": "Mo-Sa 15:00", "name": "USPS COLLECTION BOX - BLUE BOX", "note": "ON 12/24 AND 12/31, THIS BOX MAY BE COLLECTED AS EARLY AS 12 NOON.", "nsi_id": "unitedstatespostalservice-a77078", "operator": "United States Postal Service", "operator:short": "USPS", "operator:type": "public", "operator:wikidata": "Q668687", "ref": "6874000001"}, "type": "Feature"}
{"dataset_attributes": {"@spider": "usps_collection_boxes"}, "geometry": {"coordinates": [-97.306288252, 42.113359423], "type": "Point"}, "id": "0kbDSPGEq9ltBadrGvN5q3FGOvM=", "properties": {"@spider": "usps_collection_boxes", "addr:city": "HOSKINS", "addr:country": "US", "addr:full": "107 S MAIN ST", "addr:postcode": "68740", "addr:state": "NE", "amenity": "post_box", "brand": "United States Postal Service", "brand:wikidata": "Q668687", "collection_times": "Mo-Fr 11:45; Sa 09:30", "name": "USPS COLLECTION BOX - PO LOBBY", "nsi_id": "unitedstatespostalservice-a77078", "operator": "United States Postal Service", "operator:short": "USPS", "operator:type": "public", "operator:wikidata": "Q668687", "ref": "6874000002"}, "type": "Feature"}
{"dataset_attributes": {"@spider": "usps_collection_boxes"}, "geometry": {"coordinates": [-97.306288252, 42.113359423], "type": "Point"}, "id": "oWFmrNrMwGwH73imi8PB3ud5m1g=", "properties": {"@spider": "usps_collection_boxes", "addr:city": "HOSKINS", "addr:country": "US", "addr:full": "107 S MAIN ST", "addr:postcode": "68740", "addr:state": "NE", "amenity": "post_box", "brand": "United States Postal Service", "brand:wikidata": "Q668687", "collection_times": "Mo-Fr 11:45; Sa 09:30", "name": "USPS COLLECTION BOX - PO LOBBY", "nsi_id": "unitedstatespostalservice-a77078", "operator": "United States Postal Service", "operator:short": "USPS", "operator:type": "public", "operator:wikidata": "Q668687", "ref": "6874000003"}, "type": "Feature"}
{"dataset_attributes": {"@spider": "usps_collection_boxes"}, "geometry": {"coordinates": [-96.59029139, 42.385734125], "type": "Point"}, "id": "m_UUdQblY7MF5THXriKuXf5dkgQ=", "properties": {"@spider": "usps_collection_boxes", "addr:city": "HUBBARD", "addr:country": "US", "addr:full": "211 CHERRY ST", "addr:postcode": "68741", "addr:state": "NE", "amenity": "post_box", "brand": "United States Postal Service", "brand:wikidata": "Q668687", "collection_times": "Mo-Sa 13:45", "name": "USPS COLLECTION BOX - BLUE BOX", "note": "ON 12/24 AND 12/31, THIS BOX MAY BE COLLECTED AS EARLY AS 12 NOON.", "nsi_id": "unitedstatespostalservice-a77078", "operator": "United States Postal Service", "operator:short": "USPS", "operator:type": "public", "operator:wikidata": "Q668687", "ref": "6874100001"}, "type": "Feature"}
{"dataset_attributes": {"@spider": "usps_collection_boxes"}, "geometry": {"coordinates": [-96.59029139, 42.385734125], "type": "Point"}, "id": "meNKdnNUFNSiI2lbWyQQ7Ox4w1w=", "properties": {"@spider": "usps_collection_boxes", "addr:city": "HUBBARD", "addr:country": "US", "addr:full": "211 CHERRY ST", "addr:postcode": "68741", "addr:state": "NE", "amenity": "post_box", "brand": "United States Postal Service", "brand:wikidata": "Q668687", "collection_times": "Mo-Fr 11:15; Sa 09:00", "name": "USPS COLLECTION BOX - PO LOBBY", "nsi_id": "unitedstatespostalservice-a77078", "operator": "United States Postal Service", "operator:short": "USPS", "operator:type": "public", "operator:wikidata": "Q668687", "ref": "6874100002"}, "type": "Feature"}
{"dataset_attributes": {"@spider": "usps_collection_boxes"}, "geometry": {"coordinates": [-96.59029139, 42.385734125], "type": "Point"}, "id": "hqPapYvFCOF3Flqn-Dr4isLkOD4=", "properties": {"@spider": "usps_collection_boxes", "addr:city": "HUBBARD", "addr:country": "US", "addr:full": "211 CHERRY ST", "addr:postcode": "68741", "addr:state": "NE", "amenity": "post_box", "brand": "United States Postal Service", "brand:wikidata": "Q668687", "collection_times": "Mo-Fr 11:15; Sa 09:00", "name": "USPS COLLECTION BOX - PO LOBBY", "nsi_id": "unitedstatespostalservice-a77078", "operator": "United States Postal Service", "operator:short": "USPS", "operator:type": "public", "operator:wikidata": "Q668687", "ref": "6874100003"}, "type": "Feature"}
{"dataset_attributes": {"@spider": "usps_collection_boxes"}, "geometry": {"coordinates": [-98.52856446, 42.381856659], "type": "Point"}, "id": "z0wtIBO6TrTZ4fZQB2d6jt_WWYo=", "properties": {"@spider": "usps_collection_boxes", "addr:city": "INMAN", "addr:country": "US", "addr:full": "190 MAIN ST", "addr:postcode": "68742", "addr:state": "NE", "amenity": "post_box", "brand": "United States Postal Service", "brand:wikidata": "Q668687", "collection_times": "Mo-Sa 13:10", "name": "USPS COLLECTION BOX - BLUE BOX", "note": "ON 12/24 AND 12/31, THIS BOX MAY BE COLLECTED AS EARLY AS 12 NOON.", "nsi_id": "unitedstatespostalservice-a77078", "operator": "United States Postal Service", "operator:short": "USPS", "operator:type": "public", "operator:wikidata": "Q668687", "ref": "6874200001"}, "type": "Feature"}
{"dataset_attributes": {"@spider": "usps_collection_boxes"}, "geometry": {"coordinates": [-98.52856446, 42.381856659], "type": "Point"}, "id": "rEeCf37ZmX21q3HEXy0rzJF2s44=", "properties": {"@spider": "usps_collection_boxes", "addr:city": "INMAN", "addr:country": "US", "addr:full": "190 MAIN ST", "addr:postcode": "68742", "addr:state": "NE", "amenity": "post_box", "brand": "United States Postal Service", "brand:wikidata": "Q668687", "collection_times": "Mo-Fr 12:45; Sa 09:45", "name": "USPS COLLECTION BOX - PO LOBBY", "note": "ON 12/24 AND 12/31, THIS BOX MAY BE COLLECTED AS EARLY AS 12 NOON.", "nsi_id": "unitedstatespostalservice-a77078", "operator": "United States Postal Service", "operator:short": "USPS", "operator:type": "public", "operator:wikidata": "Q668687", "ref": "6874200002"}, "type": "Feature"}
{"dataset_attributes": {"@spider": "usps_collection_boxes"}, "geometry": {"coordinates": [-98.52856446, 42.381856659], "type": "Point"}, "id": "UUBcgKRW71NoGNUbR5FVgInD664=", "properties": {"@spider": "usps_collection_boxes", "addr:city": "INMAN", "addr:country": "US", "addr:full": "190 MAIN ST", "addr:postcode": "68742", "addr:state": "NE", "amenity": "post_box", "brand": "United States Postal Service", "brand:wikidata": "Q668687", "collection_times": "Mo-Fr 12:45; Sa 09:45", "name": "USPS COLLECTION BOX - PO LOBBY", "note": "ON 12/24 AND 12/31, THIS BOX MAY BE COLLECTED AS EARLY AS 12 NOON.", "nsi_id": "unitedstatespostalservice-a77078", "operator": "United States Postal Service", "operator:short": "USPS", "operator:type": "public", "operator:wikidata": "Q668687", "ref": "6874200003"}, "type": "Feature"}
{"dataset_attributes": {"@spider": "usps_collection_boxes"}, "geometry": {"coordinates": [-96.565765311, 42.448278557], "type": "Point"}, "id": "hMwhJK12vZWbsSLDP62VhLDajG4=", "properties": {"@spider": "usps_collection_boxes", "addr:city": "JACKSON", "addr:country": "US", "addr:full": "112 W ELK ST", "addr:postcode": "68743", "addr:state": "NE", "amenity": "post_box", "brand": "United States Postal Service", "brand:wikidata": "Q668687", "collection_times": "Mo-Sa 13:45", "name": "USPS COLLECTION BOX - BLUE BOX", "note": "ON 12/24 AND 12/31, THIS BOX MAY BE COLLECTED AS EARLY AS 12 NOON.", "nsi_id": "unitedstatespostalservice-a77078", "operator": "United States Postal Service", "operator:short": "USPS", "operator:type": "public", "operator:wikidata": "Q668687", "ref": "6874300001"}, "type": "Feature"}
{"dataset_attributes": {"@spider": "usps_collection_boxes"}, "geometry": {"coordinates": [-96.565765311, 42.448278557], "type": "Point"}, "id": "9E-EsxDMzgkutWRMn2XqmrT38NI=", "properties": {"@spider": "usps_collection_boxes", "addr:city": "JACKSON", "addr:country": "US", "addr:full": "112 W ELK ST", "addr:postcode": "68743", "addr:state": "NE", "amenity": "post_box", "brand": "United States Postal Service", "brand:wikidata": "Q668687", "collection_times": "Mo-Fr 13:45; Sa 12:45", "name": "USPS COLLECTION BOX - PO LOBBY", "note": "ON 12/24 AND 12/31, THIS BOX MAY BE COLLECTED AS EARLY AS 12 NOON.", "nsi_id": "unitedstatespostalservice-a77078", "operator": "United States Postal Service", "operator:short": "USPS", "operator:type": "public", "operator:wikidata": "Q668687", "ref": "6874300002"}, "type": "Feature"}
{"dataset_attributes": {"@spider": "usps_collection_boxes"}, "geometry": {"coordinates": [-96.565765311, 42.448278557], "type": "Point"}, "id": "rPeNzN-vVLONooVWuTsjXVSxo5s=", "properties": {"@spider": "usps_collection_boxes", "addr:city": "JACKSON", "addr:country": "US", "addr:full": "112 W ELK ST", "addr:postcode": "68743", "addr:state": "NE", "amenity": "post_box", "brand": "United States Postal Service", "brand:wikidata": "Q668687", "collection_times": "Mo-Fr 13:45; Sa 12:45", "name": "USPS COLLECTION BOX - PO LOBBY", "note": "ON 12/24 AND 12/31, THIS BOX MAY BE COLLECTED AS EARLY AS 12 NOON.", "nsi_id": "unitedstatespostalservice-a77078", "operator": "United States Postal Service", "operator:short": "USPS", "operator:type": "public", "operator:wikidata": "Q668687", "ref": "6874300003"}, "type": "Feature"}
{"dataset_attributes": {"@spider": "usps_collection_boxes"}, "geometry": {"coordinates": [-97.089611611, 42.429584771], "type": "Point"}, "id": "NuKISLu6vcK6kTPULTaRLihnFQc=", "properties": {"@spider": "usps_collection_boxes", "addr:city": "LAUREL", "addr:country": "US", "addr:full": "205 E 2ND ST", "addr:postcode": "68745", "addr:state": "NE", "amenity": "post_box", "brand": "United States Postal Service", "brand:wikidata": "Q668687", "collection_times": "Mo-Sa 13:30", "name": "USPS COLLECTION BOX - BLUE BOX", "note": "ON 12/24 AND 12/31, THIS BOX MAY BE COLLECTED AS EARLY AS 12 NOON.", "nsi_id": "unitedstatespostalservice-a77078", "operator": "United States Postal Service", "operator:short": "USPS", "operator:type": "public", "operator:wikidata": "Q668687", "ref": "6874500001"}, "type": "Feature"}
{"dataset_attributes": {"@spider": "usps_collection_boxes"}, "geometry": {"coordinates": [-97.089611611, 42.429584771], "type": "Point"}, "id": "uOS2iNyq3TsLL_3HsPE8l8glSDk=", "properties": {"@spider": "usps_collection_boxes", "addr:city": "LAUREL", "addr:country": "US", "addr:full": "205 E 2ND ST", "addr:postcode": "68745", "addr:state": "NE", "amenity": "post_box", "brand": "United States Postal Service", "brand:wikidata": "Q668687", "collection_times": "Mo-Fr 13:30; Sa 09:45", "name": "USPS COLLECTION BOX - PO LOBBY", "note": "ON 12/24 AND 12/31, THIS BOX MAY BE COLLECTED AS EARLY AS 12 NOON.", "nsi_id": "unitedstatespostalservice-a77078", "operator": "United States Postal Service", "operator:short": "USPS", "operator:type": "public", "operator:wikidata": "Q668687", "ref": "6874500002"}, "type": "Feature"}
{"dataset_attributes": {"@spider": "usps_collection_boxes"}, "geometry": {"coordinates": [-97.089611611, 42.429584771], "type": "Point"}, "id": "LnWPeOuDHCxJn-kxNDpdePnLv9w=", "properties": {"@spider": "usps_collection_boxes", "addr:city": "LAUREL", "addr:country": "US", "addr:full": "205 E 2ND ST", "addr:postcode": "68745", "addr:state": "NE", "amenity": "post_box", "brand": "United States Postal Service", "brand:wikidata": "Q668687", "collection_times": "Mo-Fr 13:30; Sa 09:45", "name": "USPS COLLECTION BOX - PO LOBBY", "note": "ON 12/24 AND 12/31, THIS BOX MAY BE COLLECTED AS EARLY AS 12 NOON.", "nsi_id": "unitedstatespostalservice-a77078", "operator": "United States Postal Service", "operator:short": "USPS", "operator:type": "public", "operator:wikidata": "Q668687", "ref": "6874500003"}, "type": "Feature"}
{"dataset_attributes": {"@spider": "usps_collection_boxes"}, "geometry": {"coordinates": [-98.466230501, 42.830504361], "type": "Point"}, "id": "CIWcbN6UpL3aJMdQwBdzvud7_9M=", "properties": {"@spider": "usps_collection_boxes", "addr:city": "LYNCH", "addr:country": "US", "addr:full": "203 N 4TH ST", "addr:postcode": "68746", "addr:state": "NE", "amenity": "post_box", "brand": "United States Postal Service", "brand:wikidata": "Q668687", "collection_times": "Mo-Sa 13:00", "name": "USPS COLLECTION BOX - BLUE BOX", "note": "ON 12/24 AND 12/31, THIS BOX MAY BE COLLECTED AS EARLY AS 12 NOON.", "nsi_id": "unitedstatespostalservice-a77078", "operator": "United States Postal Service", "operator:short": "USPS", "operator:type": "public", "operator:wikidata": "Q668687", "ref": "6874600001"}, "type": "Feature"}
{"dataset_attributes": {"@spider": "usps_collection_boxes"}, "geometry": {"coordinates": [-98.466230501, 42.830504361], "type": "Point"}, "id": "4COd41_MEBT-5ABnOSEOo4jFnkU=", "properties": {"@spider": "usps_collection_boxes", "addr:city": "LYNCH", "addr:country": "US", "addr:full": "203 N 4TH ST", "addr:postcode": "68746", "addr:state": "NE", "amenity": "post_box", "brand": "United States Postal Service", "brand:wikidata": "Q668687", "collection_times": "Mo-Fr 13:00; Sa 11:10", "name": "USPS COLLECTION BOX - PO LOBBY", "note": "ON 12/24 AND 12/31, THIS BOX MAY BE COLLECTED AS EARLY AS 12 NOON.", "nsi_id": "unitedstatespostalservice-a77078", "operator": "United States Postal Service", "operator:short": "USPS", "operator:type": "public", "operator:wikidata": "Q668687", "ref": "6874600002"}, "type": "Feature"}
{"dataset_attributes": {"@spider": "usps_collection_boxes"}, "geometry": {"coordinates": [-98.466230501, 42.830504361], "type": "Point"}, "id": "VlVemkRsajri02OzKfORQmlXoN4=", "properties": {"@spider": "usps_collection_boxes", "addr:city": "LYNCH", "addr:country": "US", "addr:full": "203 N 4TH ST", "addr:postcode": "68746", "addr:state": "NE", "amenity": "post_box", "brand": "United States Postal Service", "brand:wikidata": "Q668687", "collection_times": "Mo-Fr 13:00; Sa 11:10", "name": "USPS COLLECTION BOX - PO LOBBY", "note": "ON 12/24 AND 12/31, THIS BOX MAY BE COLLECTED AS EARLY AS 12 NOON.", "nsi_id": "unitedstatespostalservice-a77078", "operator": "United States Postal Service", "operator:short": "USPS", "operator:type": "public", "operator:wikidata": "Q668687", "ref": "6874600003"}, "type": "Feature"}
{"dataset_attributes": {"@spider": "usps_collection_boxes"}, "geometry": {"coordinates": [-97.455136636, 41.836818232], "type": "Point"}, "id": "NSzLEvVgbFmENBYiz-EceGcpI7Y=", "properties": {"@spider": "usps_collection_boxes", "addr:city": "MADISON", "addr:country": "US", "addr:full": "103 W 6TH ST N", "addr:postcode": "68748", "addr:state": "NE", "amenity": "post_box", "brand": "United States Postal Service", "brand:wikidata": "Q668687", "collection_times": "Mo-Sa 15:10", "name": "USPS COLLECTION BOX - BLUE BOX", "note": "ON 12/24 AND 12/31, THIS BOX MAY BE COLLECTED AS EARLY AS 12 NOON.", "nsi_id": "unitedstatespostalservice-a77078", "operator": "United States Postal Service", "operator:short": "USPS", "operator:type": "public", "operator:wikidata": "Q668687", "ref": "6874800001"}, "type": "Feature"}
{"dataset_attributes": {"@spider": "usps_collection_boxes"}, "geometry": {"coordinates": [-97.455136636, 41.836818232], "type": "Point"}, "id": "p5kPRd7rs6vu1eon0XOcucyIXug=", "properties": {"@spider": "usps_collection_boxes", "addr:city": "MADISON", "addr:country": "US", "addr:full": "103 W 6TH ST N", "addr:postcode": "68748", "addr:state": "NE", "amenity": "post_box", "brand": "United States Postal Service", "brand:wikidata": "Q668687", "collection_times": "Mo-Fr 15:10; Sa 10:00", "name": "USPS COLLECTION BOX - PO LOBBY", "note": "ON 12/24 AND 12/31, THIS BOX MAY BE COLLECTED AS EARLY AS 12 NOON.", "nsi_id": "unitedstatespostalservice-a77078", "operator": "United States Postal Service", "operator:short": "USPS", "operator:type": "public", "operator:wikidata": "Q668687", "ref": "6874800002"}, "type": "Feature"}
{"dataset_attributes": {"@spider": "usps_collection_boxes"}, "geometry": {"coordinates": [-97.455136636, 41.836818232], "type": "Point"}, "id": "WJkG_mBKbUZ2gOE0MEgIIeICkcE=", "properties": {"@spider": "usps_collection_boxes", "addr:city": "MADISON", "addr:country": "US", "addr:full": "103 W 6TH ST N", "addr:postcode": "68748", "addr:state": "NE", "amenity": "post_box", "brand": "United States Postal Service", "brand:wikidata": "Q668687", "collection_times": "Mo-Fr 15:10; Sa 10:00", "name": "USPS COLLECTION BOX - PO LOBBY", "note": "ON 12/24 AND 12/31, THIS BOX MAY BE COLLECTED AS EARLY AS 12 NOON.", "nsi_id": "unitedstatespostalservice-a77078", "operator": "United States Postal Service", "operator:short": "USPS", "operator:type": "public", "operator:wikidata": "Q668687", "ref": "6874800004"}, "type": "Feature"}
{"dataset_attributes": {"@spider": "usps_collection_boxes"}, "geometry": {"coordinates": [-97.471541002, 42.454939374], "type": "Point"}, "id": "_TWjzh6IWajegTs8HEuLL6qyFGs=", "properties": {"@spider": "usps_collection_boxes", "addr:city": "MAGNET", "addr:country": "US", "addr:full": "209 MAIN ST", "addr:postcode": "68749", "addr:state": "NE", "amenity": "post_box", "brand": "United States Postal Service", "brand:wikidata": "Q668687", "collection_times": "Mo-Fr 12:45; Sa 14:00", "name": "USPS COLLECTION BOX - BLUE BOX", "note": "ON 12/24 AND 12/31, THIS BOX MAY BE COLLECTED AS EARLY AS 12 NOON.", "nsi_id": "unitedstatespostalservice-a77078", "operator": "United States Postal Service", "operator:short": "USPS", "operator:type": "public", "operator:wikidata": "Q668687", "ref": "6874900000"}, "type": "Feature"}
{"dataset_attributes": {"@spider": "usps_collection_boxes"}, "geometry": {"coordinates": [-97.471541002, 42.454939374], "type": "Point"}, "id": "5_WWsPMT2gdPVEdpY3hpEtDU0yw=", "properties": {"@spider": "usps_collection_boxes", "addr:city": "MAGNET", "addr:country": "US", "addr:full": "209 MAIN ST", "addr:postcode": "68749", "addr:state": "NE", "amenity": "post_box", "brand": "United States Postal Service", "brand:wikidata": "Q668687", "collection_times": "Mo-Fr 11:45; Sa 11:15", "name": "USPS COLLECTION BOX - PO LOBBY", "nsi_id": "unitedstatespostalservice-a77078", "operator": "United States Postal Service", "operator:short": "USPS", "operator:type": "public", "operator:wikidata": "Q668687", "ref": "6874900001"}, "type": "Feature"}
{"dataset_attributes": {"@spider": "usps_collection_boxes"}, "geometry": {"coordinates": [-97.471541002, 42.454939374], "type": "Point"}, "id": "bh3pjZgWDNvjwDHIH_4ssQnDJwU=", "properties": {"@spider": "usps_collection_boxes", "addr:city": "MAGNET", "addr:country": "US", "addr:full": "209 MAIN ST", "addr:postcode": "68749", "addr:state": "NE", "amenity": "post_box", "brand": "United States Postal Service", "brand:wikidata": "Q668687", "collection_times": "Mo-Fr 11:45; Sa 11:15", "name": "USPS COLLECTION BOX - PO LOBBY", "nsi_id": "unitedstatespostalservice-a77078", "operator": "United States Postal Service", "operator:short": "USPS", "operator:type": "public", "operator:wikidata": "Q668687", "ref": "6874900002"}, "type": "Feature"}
{"dataset_attributes": {"@spider": "usps_collection_boxes"}, "geometry": {"coordinates": [-97.735311, 42.028829453], "type": "Point"}, "id": "b02B508FjZDJ8XunoiFgrxzjZR4=", "properties": {"@spider": "usps_collection_boxes", "addr:city": "MEADOW GROVE", "addr:country": "US", "addr:full": "214 MAIN ST", "addr:postcode": "68752", "addr:state": "NE", "amenity": "post_box", "brand": "United States Postal Service", "brand:wikidata": "Q668687", "collection_times": "Mo-Fr 14:50; Sa 14:45", "name": "USPS COLLECTION BOX - BLUE BOX", "note": "ON 12/24 AND 12/31, THIS BOX MAY BE COLLECTED AS EARLY AS 12 NOON.", "nsi_id": "unitedstatespostalservice-a77078", "operator": "United States Postal Service", "operator:short": "USPS", "operator:type": "public", "operator:wikidata": "Q668687", "ref": "6875200001"}, "type": "Feature"}
{"dataset_attributes": {"@spider": "usps_collection_boxes"}, "geometry": {"coordinates": [-97.735311, 42.028829453], "type": "Point"}, "id": "5kgfXMBBAmPyuh3FhMZQ-j0sTyw=", "properties": {"@spider": "usps_collection_boxes", "addr:city": "MEADOW GROVE", "addr:country": "US", "addr:full": "214 MAIN ST", "addr:postcode": "68752", "addr:state": "NE", "amenity": "post_box", "brand": "United States Postal Service", "brand:wikidata": "Q668687", "collection_times": "Mo-Fr 11:15; Sa 08:45", "name": "USPS COLLECTION BOX - PO LOBBY", "nsi_id": "unitedstatespostalservice-a77078", "operator": "United States Postal Service", "operator:short": "USPS", "operator:type": "public", "operator:wikidata": "Q668687", "ref": "6875200002"}, "type": "Feature"}
{"dataset_attributes": {"@spider": "usps_collection_boxes"}, "geometry": {"coordinates": [-97.735311, 42.028829453], "type": "Point"}, "id": "_u5W0Y7yCcRaDJrlQCjCgdb1aC0=", "properties": {"@spider": "usps_collection_boxes", "addr:city": "MEADOW GROVE", "addr:country": "US", "addr:full": "214 MAIN ST", "addr:postcode": "68752", "addr:state": "NE", "amenity": "post_box", "brand": "United States Postal Service", "brand:wikidata": "Q668687", "collection_times": "Mo-Fr 11:15; Sa 08:45", "name": "USPS COLLECTION BOX - PO LOBBY", "nsi_id": "unitedstatespostalservice-a77078", "operator": "United States Postal Service", "operator:short": "USPS", "operator:type": "public", "operator:wikidata": "Q668687", "ref": "6875200003"}, "type": "Feature"}
{"dataset_attributes": {"@spider": "usps_collection_boxes"}, "geometry": {"coordinates": [-99.096889078, 42.963732], "type": "Point"}, "id": "zpprwWgrPK9RDH06g-0mtVkS-tQ=", "properties": {"@spider": "usps_collection_boxes", "addr:city": "NAPER", "addr:country": "US", "addr:full": "201 MAIN ST", "addr:postcode": "68755", "addr:state": "NE", "amenity": "post_box", "brand": "United States Postal Service", "brand:wikidata": "Q668687", "collection_times": "Mo-Fr 11:45; Sa 12:00", "name": "USPS COLLECTION BOX - BLUE BOX", "nsi_id": "unitedstatespostalservice-a77078", "operator": "United States Postal Service", "operator:short": "USPS", "operator:type": "public", "operator:wikidata": "Q668687", "ref": "6875500001"}, "type": "Feature"}
{"dataset_attributes": {"@spider": "usps_collection_boxes"}, "geometry": {"coordinates": [-99.096889078, 42.963732], "type": "Point"}, "id": "ylRK4AG2jmPYUGC6BWYNod4maGk=", "properties": {"@spider": "usps_collection_boxes", "addr:city": "NAPER", "addr:country": "US", "addr:full": "201 MAIN ST", "addr:postcode": "68755", "addr:state": "NE", "amenity": "post_box", "brand": "United States Postal Service", "brand:wikidata": "Q668687", "collection_times": "Mo-Fr 11:45; Sa 11:15", "name": "USPS COLLECTION BOX - PO LOBBY", "nsi_id": "unitedstatespostalservice-a77078", "operator": "United States Postal Service", "operator:short": "USPS", "operator:type": "public", "operator:wikidata": "Q668687", "ref": "6875500002"}, "type": "Feature"}
{"dataset_attributes": {"@spider": "usps_collection_boxes"}, "geometry": {"coordinates": [-99.096889078, 42.963732], "type": "Point"}, "id": "ChAjRxmq4aWK1jTlgabb6_1EN38=", "properties": {"@spider": "usps_collection_boxes", "addr:city": "NAPER", "addr:country": "US", "addr:full": "201 MAIN ST", "addr:postcode": "68755", "addr:state": "NE", "amenity": "post_box", "brand": "United States Postal Service", "brand:wikidata": "Q668687", "collection_times": "Mo-Fr 11:45; Sa 11:15", "name": "USPS COLLECTION BOX - PO LOBBY", "nsi_id": "unitedstatespostalservice-a77078", "operator": "United States Postal Service", "operator:short": "USPS", "operator:type": "public", "operator:wikidata": "Q668687", "ref": "6875500003"}, "type": "Feature"}
{"dataset_attributes": {"@spider": "usps_collection_boxes"}, "geometry": {"coordinates": [-98.0308935, 42.127595453], "type": "Point"}, "id": "Cm-n7yLzONKXSkYSkXCO9-BGkEU=", "properties": {"@spider": "usps_collection_boxes", "addr:city": "NELIGH", "addr:country": "US", "addr:full": "116 W 3RD ST", "addr:postcode": "68756", "addr:state": "NE", "amenity": "post_box", "brand": "United States Postal Service", "brand:wikidata": "Q668687", "collection_times": "Mo-Sa 14:35", "name": "USPS COLLECTION BOX - BLUE BOX", "note": "ON 12/24 AND 12/31, THIS BOX MAY BE COLLECTED AS EARLY AS 12 NOON.", "nsi_id": "unitedstatespostalservice-a77078", "operator": "United States Postal Service", "operator:short": "USPS", "operator:type": "public", "operator:wikidata": "Q668687", "ref": "6875600005"}, "type": "Feature"}
{"dataset_attributes": {"@spider": "usps_collection_boxes"}, "geometry": {"coordinates": [-98.0308935, 42.127595453], "type": "Point"}, "id": "1nZJ6JhbcdLbsB7dUL3cwridGOs=", "properties": {"@spider": "usps_collection_boxes", "addr:city": "NELIGH", "addr:country": "US", "addr:full": "116 W 3RD ST", "addr:postcode": "68756", "addr:state": "NE", "amenity": "post_box", "brand": "United States Postal Service", "brand:wikidata": "Q668687", "collection_times": "Mo-Fr 14:35; Sa 10:15", "name": "USPS COLLECTION BOX - PO LOBBY", "note": "ON 12/24 AND 12/31, THIS BOX MAY BE COLLECTED AS EARLY AS 12 NOON.", "nsi_id": "unitedstatespostalservice-a77078", "operator": "United States Postal Service", "operator:short": "USPS", "operator:type": "public", "operator:wikidata": "Q668687", "ref": "6875600007"}, "type": "Feature"}
{"dataset_attributes": {"@spider": "usps_collection_boxes"}, "geometry": {"coordinates": [-98.0308935, 42.127595453], "type": "Point"}, "id": "uB8Sj_hwZVmPVGlOcCdaQQ0510E=", "properties": {"@spider": "usps_collection_boxes", "addr:city": "NELIGH", "addr:country": "US", "addr:full": "116 W 3RD ST", "addr:postcode": "68756", "addr:state": "NE", "amenity": "post_box", "brand": "United States Postal Service", "brand:wikidata": "Q668687", "collection_times": "Mo-Fr 14:35; Sa 10:15", "name": "USPS COLLECTION BOX - PO LOBBY", "note": "ON 12/24 AND 12/31, THIS BOX MAY BE COLLECTED AS EARLY AS 12 NOON.", "nsi_id": "unitedstatespostalservice-a77078", "operator": "United States Postal Service", "operator:short": "USPS", "operator:type": "public", "operator:wikidata": "Q668687", "ref": "6875600008"}, "type": "Feature"}
{"dataset_attributes": {"@spider": "usps_collection_boxes"}, "geometry": {"coordinates": [-96.873141693, 42.65125547], "type": "Point"}, "id": "y1gB6mHbCV3_kh5dDm4uQkrlqAk=", "properties": {"@spider": "usps_collection_boxes", "addr:city": "NEWCASTLE", "addr:country": "US", "addr:full": "308 MAIN ST", "addr:postcode": "68757", "addr:state": "NE", "amenity": "post_box", "brand": "United States Postal Service", "brand:wikidata": "Q668687", "collection_times": "Mo-Sa 13:00", "name": "USPS COLLECTION BOX - BLUE BOX", "note": "ON 12/24 AND 12/31, THIS BOX MAY BE COLLECTED AS EARLY AS 12 NOON.", "nsi_id": "unitedstatespostalservice-a77078", "operator": "United States Postal Service", "operator:short": "USPS", "operator:type": "public", "operator:wikidata": "Q668687", "ref": "6875700001"}, "type": "Feature"}
{"dataset_attributes": {"@spider": "usps_collection_boxes"}, "geometry": {"coordinates": [-96.873141693, 42.65125547], "type": "Point"}, "id": "TW-h5098-k2JDbNhm7JN61g2MMQ=", "properties": {"@spider": "usps_collection_boxes", "addr:city": "NEWCASTLE", "addr:country": "US", "addr:full": "308 MAIN ST", "addr:postcode": "68757", "addr:state": "NE", "amenity": "post_box", "brand": "United States Postal Service", "brand:wikidata": "Q668687", "collection_times": "Mo-Fr 12:45; Sa 10:15", "name": "USPS COLLECTION BOX - PO LOBBY", "note": "ON 12/24 AND 12/31, THIS BOX MAY BE COLLECTED AS EARLY AS 12 NOON.", "nsi_id": "unitedstatespostalservice-a77078", "operator": "United States Postal Service", "operator:short": "USPS", "operator:type": "public", "operator:wikidata": "Q668687", "ref": "6875700002"}, "type": "Feature"}
{"dataset_attributes": {"@spider": "usps_collection_boxes"}, "geometry": {"coordinates": [-96.873141693, 42.65125547], "type": "Point"}, "id": "y2MCAD1J5LHBCeF-IrSO44hVPwc=", "properties": {"@spider": "usps_collection_boxes", "addr:city": "NEWCASTLE", "addr:country": "US", "addr:full": "308 MAIN ST", "addr:postcode": "68757", "addr:state": "NE", "amenity": "post_box", "brand": "United States Postal Service", "brand:wikidata": "Q668687", "collection_times": "Mo-Fr 12:45; Sa 10:15", "name": "USPS COLLECTION BOX - PO LOBBY", "note": "ON 12/24 AND 12/31, THIS BOX MAY BE COLLECTED AS EARLY AS 12 NOON.", "nsi_id": "unitedstatespostalservice-a77078", "operator": "United States Postal Service", "operator:short": "USPS", "operator:type": "public", "operator:wikidata": "Q668687", "ref": "6875700003"}, "type": "Feature"}
{"dataset_attributes": {"@spider": "usps_collection_boxes"}, "geometry": {"coordinates": [-97.77627, 41.74667346], "type": "Point"}, "id": "Czo83W3OMHz8jyKybzCc_yv2768=", "properties": {"@spider": "usps_collection_boxes", "addr:city": "NEWMAN GROVE", "addr:country": "US", "addr:full": "602 HALE AVE", "addr:postcode": "68758", "addr:state": "NE", "amenity": "post_box", "brand": "United States Postal Service", "brand:wikidata": "Q668687", "collection_times": "Mo-Sa 14:50", "name": "USPS COLLECTION BOX - BLUE BOX", "note": "ON 12/24 AND 12/31, THIS BOX MAY BE COLLECTED AS EARLY AS 12 NOON.", "nsi_id": "unitedstatespostalservice-a77078", "operator": "United States Postal Service", "operator:short": "USPS", "operator:type": "public", "operator:wikidata": "Q668687", "ref": "6875800001"}, "type": "Feature"}
{"dataset_attributes": {"@spider": "usps_collection_boxes"}, "geometry": {"coordinates": [-97.776287998, 41.746879002], "type": "Point"}, "id": "eJ-BCMglq5QQvnEzNDYOrh8y1m0=", "properties": {"@spider": "usps_collection_boxes", "addr:city": "NEWMAN GROVE", "addr:country": "US", "addr:full": "602 HALE AVE", "addr:postcode": "68758", "addr:state": "NE", "amenity": "post_box", "brand": "United States Postal Service", "brand:wikidata": "Q668687", "collection_times": "Mo-Fr 13:45; Sa 09:15", "name": "USPS COLLECTION BOX - PO LOBBY", "note": "ON 12/24 AND 12/31, THIS BOX MAY BE COLLECTED AS EARLY AS 12 NOON.", "nsi_id": "unitedstatespostalservice-a77078", "operator": "United States Postal Service", "operator:short": "USPS", "operator:type": "public", "operator:wikidata": "Q668687", "ref": "6875800002"}, "type": "Feature"}
{"dataset_attributes": {"@spider": "usps_collection_boxes"}, "geometry": {"coordinates": [-97.776287998, 41.746879002], "type": "Point"}, "id": "MpHk-UYsoyos4eOBpTdOW9wZ0iA=", "properties": {"@spider": "usps_collection_boxes", "addr:city": "NEWMAN GROVE", "addr:country": "US", "addr:full": "602 HALE AVE", "addr:postcode": "68758", "addr:state": "NE", "amenity": "post_box", "brand": "United States Postal Service", "brand:wikidata": "Q668687", "collection_times": "Mo-Fr 13:45; Sa 09:15", "name": "USPS COLLECTION BOX - PO LOBBY", "note": "ON 12/24 AND 12/31, THIS BOX MAY BE COLLECTED AS EARLY AS 12 NOON.", "nsi_id": "unitedstatespostalservice-a77078", "operator": "United States Postal Service", "operator:short": "USPS", "operator:type": "public", "operator:wikidata": "Q668687", "ref": "6875800003"}, "type": "Feature"}
{"dataset_attributes": {"@spider": "usps_collection_boxes"}, "geometry": {"coordinates": [-99.323870941, 42.601325322], "type": "Point"}, "id": "zjFzM3blRBK2SPGSV9XIGpr3aLw=", "properties": {"@spider": "usps_collection_boxes", "addr:city": "NEWPORT", "addr:country": "US", "addr:full": "100 W MAIN ST", "addr:postcode": "68759", "addr:state": "NE", "amenity": "post_box", "brand": "United States Postal Service", "brand:wikidata": "Q668687", "collection_times": "Mo-Sa 13:00", "name": "USPS COLLECTION BOX - BLUE BOX", "note": "ON 12/24 AND 12/31, THIS BOX MAY BE COLLECTED AS EARLY AS 12 NOON.", "nsi_id": "unitedstatespostalservice-a77078", "operator": "United States Postal Service", "operator:short": "USPS", "operator:type": "public", "operator:wikidata": "Q668687", "ref": "6875900001"}, "type": "Feature"}
{"dataset_attributes": {"@spider": "usps_collection_boxes"}, "geometry": {"coordinates": [-98.03342925, 42.749883], "type": "Point"}, "id": "eVD2fhZhak3XnvhcyvOt7lIc0tU=", "properties": {"@spider": "usps_collection_boxes", "addr:city": "NIOBRARA", "addr:country": "US", "addr:full": "25410 PARK AVE APT F", "addr:postcode": "68760", "addr:state": "NE", "amenity": "post_box", "brand": "United States Postal Service", "brand:wikidata": "Q668687", "collection_times": "Mo-Fr 12:35; Sa 12:30", "name": "USPS COLLECTION BOX - BLUE BOX", "note": "ON 12/24 AND 12/31, THIS BOX MAY BE COLLECTED AS EARLY AS 12 NOON.", "nsi_id": "unitedstatespostalservice-a77078", "operator": "United States Postal Service", "operator:short": "USPS", "operator:type": "public", "operator:wikidata": "Q668687", "ref": "6876000001"}, "type": "Feature"}
{"dataset_attributes": {"@spider": "usps_collection_boxes"}, "geometry": {"coordinates": [-98.1931005, 42.810954504], "type": "Point"}, "id": "Lx44AK1-GOV7CwkYFFv4xS5_wGw=", "properties": {"@spider": "usps_collection_boxes", "addr:city": "NIOBRARA", "addr:country": "US", "addr:full": "105 E VERDEL MAIN ST", "addr:postcode": "68760", "addr:state": "NE", "amenity": "post_box", "brand": "United States Postal Service", "brand:wikidata": "Q668687", "collection_times": "Mo-Sa 11:25", "name": "USPS COLLECTION BOX - BLUE BOX", "nsi_id": "unitedstatespostalservice-a77078", "operator": "United States Postal Service", "operator:short": "USPS", "operator:type": "public", "operator:wikidata": "Q668687", "ref": "6876000002"}, "type": "Feature"}
{"dataset_attributes": {"@spider": "usps_collection_boxes"}, "geometry": {"coordinates": [-98.03342925, 42.749883], "type": "Point"}, "id": "-ATGXdOH02HayV2ZDQCW_FN5680=", "properties": {"@spider": "usps_collection_boxes", "addr:city": "NIOBRARA", "addr:country": "US", "addr:full": "25410 PARK AVE APT F", "addr:postcode": "68760", "addr:state": "NE", "amenity": "post_box", "brand": "United States Postal Service", "brand:wikidata": "Q668687", "collection_times": "Mo-Fr 12:30; Sa 09:45", "name": "USPS COLLECTION BOX - PO LOBBY", "note": "ON 12/24 AND 12/31, THIS BOX MAY BE COLLECTED AS EARLY AS 12 NOON.", "nsi_id": "unitedstatespostalservice-a77078", "operator": "United States Postal Service", "operator:short": "USPS", "operator:type": "public", "operator:wikidata": "Q668687", "ref": "6876000004"}, "type": "Feature"}
{"dataset_attributes": {"@spider": "usps_collection_boxes"}, "geometry": {"coordinates": [-98.03342925, 42.749883], "type": "Point"}, "id": "SAcuO2PpybqggKcfGJqm5JWPKjY=", "properties": {"@spider": "usps_collection_boxes", "addr:city": "NIOBRARA", "addr:country": "US", "addr:full": "25410 PARK AVE APT F", "addr:postcode": "68760", "addr:state": "NE", "amenity": "post_box", "brand": "United States Postal Service", "brand:wikidata": "Q668687", "collection_times": "Mo-Fr 12:30; Sa 09:45", "name": "USPS COLLECTION BOX - PO LOBBY", "note": "ON 12/24 AND 12/31, THIS BOX MAY BE COLLECTED AS EARLY AS 12 NOON.", "nsi_id": "unitedstatespostalservice-a77078", "operator": "United States Postal Service", "operator:short": "USPS", "operator:type": "public", "operator:wikidata": "Q668687", "ref": "6876000005"}, "type": "Feature"}
{"dataset_attributes": {"@spider": "usps_collection_boxes"}, "geometry": {"coordinates": [-97.969317001, 42.069366335], "type": "Point"}, "id": "LR8bCTrjqwbhZSqOZ3N6LO8NtW0=", "properties": {"@spider": "usps_collection_boxes", "addr:city": "OAKDALE", "addr:country": "US", "addr:full": "500 HOHMAN ST", "addr:postcode": "68761", "addr:state": "NE", "amenity": "post_box", "brand": "United States Postal Service", "brand:wikidata": "Q668687", "collection_times": "Mo-Sa 14:30", "name": "USPS COLLECTION BOX - BLUE BOX", "note": "ON 12/24 AND 12/31, THIS BOX MAY BE COLLECTED AS EARLY AS 12 NOON.", "nsi_id": "unitedstatespostalservice-a77078", "operator": "United States Postal Service", "operator:short": "USPS", "operator:type": "public", "operator:wikidata": "Q668687", "ref": "6876100001"}, "type": "Feature"}
{"dataset_attributes": {"@spider": "usps_collection_boxes"}, "geometry": {"coordinates": [-97.969317001, 42.069366335], "type": "Point"}, "id": "2AvIZGldIm0dyhxKpi8dHtv9C80=", "properties": {"@spider": "usps_collection_boxes", "addr:city": "OAKDALE", "addr:country": "US", "addr:full": "500 HOHMAN ST", "addr:postcode": "68761", "addr:state": "NE", "amenity": "post_box", "brand": "United States Postal Service", "brand:wikidata": "Q668687", "collection_times": "Mo-Fr 11:45; Sa 10:15", "name": "USPS COLLECTION BOX - PO LOBBY", "nsi_id": "unitedstatespostalservice-a77078", "operator": "United States Postal Service", "operator:short": "USPS", "operator:type": "public", "operator:wikidata": "Q668687", "ref": "6876100002"}, "type": "Feature"}
{"dataset_attributes": {"@spider": "usps_collection_boxes"}, "geometry": {"coordinates": [-97.969317001, 42.069366335], "type": "Point"}, "id": "meEKoFEV1pDfaDRF-xe7ADRJOPw=", "properties": {"@spider": "usps_collection_boxes", "addr:city": "OAKDALE", "addr:country": "US", "addr:full": "500 HOHMAN ST", "addr:postcode": "68761", "addr:state": "NE", "amenity": "post_box", "brand": "United States Postal Service", "brand:wikidata": "Q668687", "collection_times": "Mo-Fr 11:45; Sa 10:15", "name": "USPS COLLECTION BOX - PO LOBBY", "nsi_id": "unitedstatespostalservice-a77078", "operator": "United States Postal Service", "operator:short": "USPS", "operator:type": "public", "operator:wikidata": "Q668687", "ref": "6876100003"}, "type": "Feature"}
{"dataset_attributes": {"@spider": "usps_collection_boxes"}, "geometry": {"coordinates": [-98.647919706, 42.458915494], "type": "Point"}, "id": "SLsPAOqPUGPI0pWum_uInO5Fj_s=", "properties": {"@spider": "usps_collection_boxes", "addr:city": "O' NEILL", "addr:country": "US", "addr:full": "201 N 4TH ST", "addr:postcode": "68763", "addr:state": "NE", "amenity": "post_box", "brand": "United States Postal Service", "brand:wikidata": "Q668687", "collection_times": "Mo-Sa 14:00", "name": "USPS COLLECTION BOX - BLUE BOX", "note": "ON 12/24 AND 12/31, THIS BOX MAY BE COLLECTED AS EARLY AS 12 NOON.", "nsi_id": "unitedstatespostalservice-a77078", "operator": "United States Postal Service", "operator:short": "USPS", "operator:type": "public", "operator:wikidata": "Q668687", "ref": "6876300004"}, "type": "Feature"}
{"dataset_attributes": {"@spider": "usps_collection_boxes"}, "geometry": {"coordinates": [-98.647919706, 42.458915494], "type": "Point"}, "id": "sZt_AG70DZLQb_BsWqaInoy2IU4=", "properties": {"@spider": "usps_collection_boxes", "addr:city": "O' NEILL", "addr:country": "US", "addr:full": "201 N 4TH ST", "addr:postcode": "68763", "addr:state": "NE", "amenity": "post_box", "brand": "United States Postal Service", "brand:wikidata": "Q668687", "collection_times": "Mo-Sa 14:00", "name": "USPS COLLECTION BOX - BLUE BOX", "note": "ON 12/24 AND 12/31, THIS BOX MAY BE COLLECTED AS EARLY AS 12 NOON.", "nsi_id": "unitedstatespostalservice-a77078", "operator": "United States Postal Service", "operator:short": "USPS", "operator:type": "public", "operator:wikidata": "Q668687", "ref": "6876300005"}, "type": "Feature"}
{"dataset_attributes": {"@spider": "usps_collection_boxes"}, "geometry": {"coordinates": [-98.647919706, 42.458915494], "type": "Point"}, "id": "BMrC8_NmQjFYDlRLES6H8TXcJ7k=", "properties": {"@spider": "usps_collection_boxes", "addr:city": "O' NEILL", "addr:country": "US", "addr:full": "201 N 4TH ST", "addr:postcode": "68763", "addr:state": "NE", "amenity": "post_box", "brand": "United States Postal Service", "brand:wikidata": "Q668687", "collection_times": "Mo-Fr 14:00; Sa 10:45", "name": "USPS COLLECTION BOX - PO LOBBY", "note": "ON 12/24 AND 12/31, THIS BOX MAY BE COLLECTED AS EARLY AS 12 NOON.", "nsi_id": "unitedstatespostalservice-a77078", "operator": "United States Postal Service", "operator:short": "USPS", "operator:type": "public", "operator:wikidata": "Q668687", "ref": "6876300007"}, "type": "Feature"}
{"dataset_attributes": {"@spider": "usps_collection_boxes"}, "geometry": {"coordinates": [-98.647919706, 42.458915494], "type": "Point"}, "id": "l8fZqd8P99F9Vp62PDukDr6xya4=", "properties": {"@spider": "usps_collection_boxes", "addr:city": "O' NEILL", "addr:country": "US", "addr:full": "201 N 4TH ST", "addr:postcode": "68763", "addr:state": "NE", "amenity": "post_box", "brand": "United States Postal Service", "brand:wikidata": "Q668687", "collection_times": "Mo-Fr 14:00; Sa 10:45", "name": "USPS COLLECTION BOX - PO LOBBY", "note": "ON 12/24 AND 12/31, THIS BOX MAY BE COLLECTED AS EARLY AS 12 NOON.", "nsi_id": "unitedstatespostalservice-a77078", "operator": "United States Postal Service", "operator:short": "USPS", "operator:type": "public", "operator:wikidata": "Q668687", "ref": "6876300008"}, "type": "Feature"}
{"dataset_attributes": {"@spider": "usps_collection_boxes"}, "geometry": {"coordinates": [-98.243107678, 42.335366304], "type": "Point"}, "id": "PUZrwfj61HGnyxTcQRzwdx-nEe4=", "properties": {"@spider": "usps_collection_boxes", "addr:city": "ORCHARD", "addr:country": "US", "addr:full": "141 E 2ND ST", "addr:postcode": "68764", "addr:state": "NE", "amenity": "post_box", "brand": "United States Postal Service", "brand:wikidata": "Q668687", "collection_times": "Mo-Sa 13:15", "name": "USPS COLLECTION BOX - BLUE BOX", "note": "ON 12/24 AND 12/31, THIS BOX MAY BE COLLECTED AS EARLY AS 12 NOON.", "nsi_id": "unitedstatespostalservice-a77078", "operator": "United States Postal Service", "operator:short": "USPS", "operator:type": "public", "operator:wikidata": "Q668687", "ref": "6876400001"}, "type": "Feature"}
{"dataset_attributes": {"@spider": "usps_collection_boxes"}, "geometry": {"coordinates": [-98.243107678, 42.335366304], "type": "Point"}, "id": "gX5gq_loRnS7yASk2rxNB1iPskA=", "properties": {"@spider": "usps_collection_boxes", "addr:city": "ORCHARD", "addr:country": "US", "addr:full": "141 E 2ND ST", "addr:postcode": "68764", "addr:state": "NE", "amenity": "post_box", "brand": "United States Postal Service", "brand:wikidata": "Q668687", "collection_times": "Mo-Fr 13:00; Sa 09:45", "name": "USPS COLLECTION BOX - PO LOBBY", "note": "ON 12/24 AND 12/31, THIS BOX MAY BE COLLECTED AS EARLY AS 12 NOON.", "nsi_id": "unitedstatespostalservice-a77078", "operator": "United States Postal Service", "operator:short": "USPS", "operator:type": "public", "operator:wikidata": "Q668687", "ref": "6876400002"}, "type": "Feature"}
{"dataset_attributes": {"@spider": "usps_collection_boxes"}, "geometry": {"coordinates": [-98.243107678, 42.335366304], "type": "Point"}, "id": "p9JkR-VBnBXahiW30cK-U3FWkuk=", "properties": {"@spider": "usps_collection_boxes", "addr:city": "ORCHARD", "addr:country": "US", "addr:full": "141 E 2ND ST", "addr:postcode": "68764", "addr:state": "NE", "amenity": "post_box", "brand": "United States Postal Service", "brand:wikidata": "Q668687", "collection_times": "Mo-Fr 13:00; Sa 09:45", "name": "USPS COLLECTION BOX - PO LOBBY", "note": "ON 12/24 AND 12/31, THIS BOX MAY BE COLLECTED AS EARLY AS 12 NOON.", "nsi_id": "unitedstatespostalservice-a77078", "operator": "United States Postal Service", "operator:short": "USPS", "operator:type": "public", "operator:wikidata": "Q668687", "ref": "6876400003"}, "type": "Feature"}
{"dataset_attributes": {"@spider": "usps_collection_boxes"}, "geometry": {"coordinates": [-97.596876309, 42.358527], "type": "Point"}, "id": "9Md6B9LLrKGsl3LYIkfhlUIsNR8=", "properties": {"@spider": "usps_collection_boxes", "addr:city": "OSMOND", "addr:country": "US", "addr:full": "209 N STATE ST", "addr:postcode": "68765", "addr:state": "NE", "amenity": "post_box", "brand": "United States Postal Service", "brand:wikidata": "Q668687", "collection_times": "Mo-Sa 14:45", "name": "USPS COLLECTION BOX - BLUE BOX", "note": "ON 12/24 AND 12/31, THIS BOX MAY BE COLLECTED AS EARLY AS 12 NOON.", "nsi_id": "unitedstatespostalservice-a77078", "operator": "United States Postal Service", "operator:short": "USPS", "operator:type": "public", "operator:wikidata": "Q668687", "ref": "6876500001"}, "type": "Feature"}
{"dataset_attributes": {"@spider": "usps_collection_boxes"}, "geometry": {"coordinates": [-97.596876309, 42.358527], "type": "Point"}, "id": "og0MXHPR5AZ5A-fqHXUevdnw2Jw=", "properties": {"@spider": "usps_collection_boxes", "addr:city": "OSMOND", "addr:country": "US", "addr:full": "209 N STATE ST", "addr:postcode": "68765", "addr:state": "NE", "amenity": "post_box", "brand": "United States Postal Service", "brand:wikidata": "Q668687", "collection_times": "Mo-Fr 14:45; Sa 09:15", "name": "USPS COLLECTION BOX - PO LOBBY", "note": "ON 12/24 AND 12/31, THIS BOX MAY BE COLLECTED AS EARLY AS 12 NOON.", "nsi_id": "unitedstatespostalservice-a77078", "operator": "United States Postal Service", "operator:short": "USPS", "operator:type": "public", "operator:wikidata": "Q668687", "ref": "6876500002"}, "type": "Feature"}
{"dataset_attributes": {"@spider": "usps_collection_boxes"}, "geometry": {"coordinates": [-97.5968763087, 42.358527], "type": "Point"}, "id": "KCnj4cQRvzF5PwkpCpgfi3DIMM0=", "properties": {"@spider": "usps_collection_boxes", "addr:city": "OSMOND", "addr:country": "US", "addr:full": "209 N STATE ST", "addr:postcode": "68765", "addr:state": "NE", "amenity": "post_box", "brand": "United States Postal Service", "brand:wikidata": "Q668687", "collection_times": "Mo-Fr 14:45; Sa 09:15", "name": "USPS COLLECTION BOX - PO LOBBY", "note": "ON 12/24 AND 12/31, THIS BOX MAY BE COLLECTED AS EARLY AS 12 NOON.", "nsi_id": "unitedstatespostalservice-a77078", "operator": "United States Postal Service", "operator:short": "USPS", "operator:type": "public", "operator:wikidata": "Q668687", "ref": "6876500003"}, "type": "Feature"}
{"dataset_attributes": {"@spider": "usps_collection_boxes"}, "geometry": {"coordinates": [-98.41751, 42.40079], "type": "Point"}, "id": "ODK-FTmeouTg_HHvlUu59DHB3p4=", "properties": {"@spider": "usps_collection_boxes", "addr:city": "PAGE", "addr:country": "US", "addr:full": "107 N 5TH ST", "addr:postcode": "68766", "addr:state": "NE", "amenity": "post_box", "brand": "United States Postal Service", "brand:wikidata": "Q668687", "collection_times": "Mo-Sa 12:50", "name": "USPS COLLECTION BOX - BLUE BOX", "note": "ON 12/24 AND 12/31, THIS BOX MAY BE COLLECTED AS EARLY AS 12 NOON.", "nsi_id": "unitedstatespostalservice-a77078", "operator": "United States Postal Service", "operator:short": "USPS", "operator:type": "public", "operator:wikidata": "Q668687", "ref": "6876600001"}, "type": "Feature"}
{"dataset_attributes": {"@spider": "usps_collection_boxes"}, "geometry": {"coordinates": [-98.417348907, 42.400886859], "type": "Point"}, "id": "9WLwWMiQpEikZVCbop_HxRKNPyU=", "properties": {"@spider": "usps_collection_boxes", "addr:city": "PAGE", "addr:country": "US", "addr:full": "107 N 5TH ST", "addr:postcode": "68766", "addr:state": "NE", "amenity": "post_box", "brand": "United States Postal Service", "brand:wikidata": "Q668687", "collection_times": "Mo-Fr 12:45; Sa 10:30", "name": "USPS COLLECTION BOX - PO LOBBY", "note": "ON 12/24 AND 12/31, THIS BOX MAY BE COLLECTED AS EARLY AS 12 NOON.", "nsi_id": "unitedstatespostalservice-a77078", "operator": "United States Postal Service", "operator:short": "USPS", "operator:type": "public", "operator:wikidata": "Q668687", "ref": "6876600002"}, "type": "Feature"}
{"dataset_attributes": {"@spider": "usps_collection_boxes"}, "geometry": {"coordinates": [-98.417348907, 42.400886859], "type": "Point"}, "id": "mb3dxs_LjVclWAFzObVw-XhmR3A=", "properties": {"@spider": "usps_collection_boxes", "addr:city": "PAGE", "addr:country": "US", "addr:full": "107 N 5TH ST", "addr:postcode": "68766", "addr:state": "NE", "amenity": "post_box", "brand": "United States Postal Service", "brand:wikidata": "Q668687", "collection_times": "Mo-Fr 12:45; Sa 10:30", "name": "USPS COLLECTION BOX - PO LOBBY", "note": "ON 12/24 AND 12/31, THIS BOX MAY BE COLLECTED AS EARLY AS 12 NOON.", "nsi_id": "unitedstatespostalservice-a77078", "operator": "United States Postal Service", "operator:short": "USPS", "operator:type": "public", "operator:wikidata": "Q668687", "ref": "6876600003"}, "type": "Feature"}
{"dataset_attributes": {"@spider": "usps_collection_boxes"}, "geometry": {"coordinates": [-97.528566433, 42.199712445], "type": "Point"}, "id": "EfvM9SZqRWSCD-VYxMgTuW52zTc=", "properties": {"@spider": "usps_collection_boxes", "addr:city": "PIERCE", "addr:country": "US", "addr:full": "122 N LUCAS ST", "addr:postcode": "68767", "addr:state": "NE", "amenity": "post_box", "brand": "United States Postal Service", "brand:wikidata": "Q668687", "collection_times": "Mo-Sa 14:55", "name": "USPS COLLECTION BOX - BLUE BOX", "note": "ON 12/24 AND 12/31, THIS BOX MAY BE COLLECTED AS EARLY AS 12 NOON.", "nsi_id": "unitedstatespostalservice-a77078", "operator": "United States Postal Service", "operator:short": "USPS", "operator:type": "public", "operator:wikidata": "Q668687", "ref": "6876700002"}, "type": "Feature"}
{"dataset_attributes": {"@spider": "usps_collection_boxes"}, "geometry": {"coordinates": [-97.528566433, 42.199712445], "type": "Point"}, "id": "JmelZS-DCwCR0v56QALUaw9Xx8w=", "properties": {"@spider": "usps_collection_boxes", "addr:city": "PIERCE", "addr:country": "US", "addr:full": "122 N LUCAS ST", "addr:postcode": "68767", "addr:state": "NE", "amenity": "post_box", "brand": "United States Postal Service", "brand:wikidata": "Q668687", "collection_times": "Mo-Fr 14:55; Sa 08:45", "name": "USPS COLLECTION BOX - PO LOBBY", "note": "ON 12/24 AND 12/31, THIS BOX MAY BE COLLECTED AS EARLY AS 12 NOON.", "nsi_id": "unitedstatespostalservice-a77078", "operator": "United States Postal Service", "operator:short": "USPS", "operator:type": "public", "operator:wikidata": "Q668687", "ref": "6876700003"}, "type": "Feature"}
{"dataset_attributes": {"@spider": "usps_collection_boxes"}, "geometry": {"coordinates": [-97.528566433, 42.199712445], "type": "Point"}, "id": "-BwuLvlWrWS7KZNTlPzypoO-tL8=", "properties": {"@spider": "usps_collection_boxes", "addr:city": "PIERCE", "addr:country": "US", "addr:full": "122 N LUCAS ST", "addr:postcode": "68767", "addr:state": "NE", "amenity": "post_box", "brand": "United States Postal Service", "brand:wikidata": "Q668687", "collection_times": "Mo-Fr 14:55; Sa 08:45", "name": "USPS COLLECTION BOX - PO LOBBY", "note": "ON 12/24 AND 12/31, THIS BOX MAY BE COLLECTED AS EARLY AS 12 NOON.", "nsi_id": "unitedstatespostalservice-a77078", "operator": "United States Postal Service", "operator:short": "USPS", "operator:type": "public", "operator:wikidata": "Q668687", "ref": "6876700004"}, "type": "Feature"}
{"dataset_attributes": {"@spider": "usps_collection_boxes"}, "geometry": {"coordinates": [-97.790936624, 42.349684026], "type": "Point"}, "id": "ohUM2erYUBXQ-NbdnthJhAytL1o=", "properties": {"@spider": "usps_collection_boxes", "addr:city": "PLAINVIEW", "addr:country": "US", "addr:full": "311 W LOCUST AVE", "addr:postcode": "68769", "addr:state": "NE", "amenity": "post_box", "brand": "United States Postal Service", "brand:wikidata": "Q668687", "collection_times": "Mo-Sa 14:30", "name": "USPS COLLECTION BOX - BLUE BOX", "note": "ON 12/24 AND 12/31, THIS BOX MAY BE COLLECTED AS EARLY AS 12 NOON.", "nsi_id": "unitedstatespostalservice-a77078", "operator": "United States Postal Service", "operator:short": "USPS", "operator:type": "public", "operator:wikidata": "Q668687", "ref": "6876900001"}, "type": "Feature"}
{"dataset_attributes": {"@spider": "usps_collection_boxes"}, "geometry": {"coordinates": [-97.790936624, 42.349684026], "type": "Point"}, "id": "s4PTGqttq0CUBJmN9uNqjs6Ykn4=", "properties": {"@spider": "usps_collection_boxes", "addr:city": "PLAINVIEW", "addr:country": "US", "addr:full": "311 W LOCUST AVE", "addr:postcode": "68769", "addr:state": "NE", "amenity": "post_box", "brand": "United States Postal Service", "brand:wikidata": "Q668687", "collection_times": "Mo-Fr 14:30; Sa 10:15", "name": "USPS COLLECTION BOX - PO LOBBY", "note": "ON 12/24 AND 12/31, THIS BOX MAY BE COLLECTED AS EARLY AS 12 NOON.", "nsi_id": "unitedstatespostalservice-a77078", "operator": "United States Postal Service", "operator:short": "USPS", "operator:type": "public", "operator:wikidata": "Q668687", "ref": "6876900002"}, "type": "Feature"}
{"dataset_attributes": {"@spider": "usps_collection_boxes"}, "geometry": {"coordinates": [-97.790936624, 42.349684026], "type": "Point"}, "id": "Vjyq1O-5za664X4zpORNHNNz3v8=", "properties": {"@spider": "usps_collection_boxes", "addr:city": "PLAINVIEW", "addr:country": "US", "addr:full": "311 W LOCUST AVE", "addr:postcode": "68769", "addr:state": "NE", "amenity": "post_box", "brand": "United States Postal Service", "brand:wikidata": "Q668687", "collection_times": "Mo-Fr 14:30; Sa 10:15", "name": "USPS COLLECTION BOX - PO LOBBY", "note": "ON 12/24 AND 12/31, THIS BOX MAY BE COLLECTED AS EARLY AS 12 NOON.", "nsi_id": "unitedstatespostalservice-a77078", "operator": "United States Postal Service", "operator:short": "USPS", "operator:type": "public", "operator:wikidata": "Q668687", "ref": "6876900003"}, "type": "Feature"}
{"dataset_attributes": {"@spider": "usps_collection_boxes"}, "geometry": {"coordinates": [-96.705869996, 42.562446949], "type": "Point"}, "id": "SL11OjdiX4mEDofnFI77-BzFhEE=", "properties": {"@spider": "usps_collection_boxes", "addr:city": "PONCA", "addr:country": "US", "addr:full": "112 W 3RD ST", "addr:postcode": "68770", "addr:state": "NE", "amenity": "post_box", "brand": "United States Postal Service", "brand:wikidata": "Q668687", "collection_times": "Mo-Sa 13:30", "name": "USPS COLLECTION BOX - BLUE BOX", "note": "ON 12/24 AND 12/31, THIS BOX MAY BE COLLECTED AS EARLY AS 12 NOON.", "nsi_id": "unitedstatespostalservice-a77078", "operator": "United States Postal Service", "operator:short": "USPS", "operator:type": "public", "operator:wikidata": "Q668687", "ref": "6877000002"}, "type": "Feature"}
{"dataset_attributes": {"@spider": "usps_collection_boxes"}, "geometry": {"coordinates": [-96.705869996, 42.562446949], "type": "Point"}, "id": "a11MEWa1-ScKkvZMMuwM5vXNYUk=", "properties": {"@spider": "usps_collection_boxes", "addr:city": "PONCA", "addr:country": "US", "addr:full": "112 W 3RD ST", "addr:postcode": "68770", "addr:state": "NE", "amenity": "post_box", "brand": "United States Postal Service", "brand:wikidata": "Q668687", "collection_times": "Mo-Fr 13:30; Sa 10:15", "name": "USPS COLLECTION BOX - PO LOBBY", "note": "ON 12/24 AND 12/31, THIS BOX MAY BE COLLECTED AS EARLY AS 12 NOON.", "nsi_id": "unitedstatespostalservice-a77078", "operator": "United States Postal Service", "operator:short": "USPS", "operator:type": "public", "operator:wikidata": "Q668687", "ref": "6877000003"}, "type": "Feature"}
{"dataset_attributes": {"@spider": "usps_collection_boxes"}, "geometry": {"coordinates": [-96.705869996, 42.562446949], "type": "Point"}, "id": "Z1w4iclaucCFJoNsqtGQxZKoTns=", "properties": {"@spider": "usps_collection_boxes", "addr:city": "PONCA", "addr:country": "US", "addr:full": "112 W 3RD ST", "addr:postcode": "68770", "addr:state": "NE", "amenity": "post_box", "brand": "United States Postal Service", "brand:wikidata": "Q668687", "collection_times": "Mo-Fr 13:30; Sa 10:15", "name": "USPS COLLECTION BOX - PO LOBBY", "note": "ON 12/24 AND 12/31, THIS BOX MAY BE COLLECTED AS EARLY AS 12 NOON.", "nsi_id": "unitedstatespostalservice-a77078", "operator": "United States Postal Service", "operator:short": "USPS", "operator:type": "public", "operator:wikidata": "Q668687", "ref": "6877000004"}, "type": "Feature"}
{"dataset_attributes": {"@spider": "usps_collection_boxes"}, "geometry": {"coordinates": [-97.357026581, 42.378967336], "type": "Point"}, "id": "xWxDFjAOEn8ppoOrcucGUitvcmA=", "properties": {"@spider": "usps_collection_boxes", "addr:city": "RANDOLPH", "addr:country": "US", "addr:full": "120 N MAIN ST", "addr:postcode": "68771", "addr:state": "NE", "amenity": "post_box", "brand": "United States Postal Service", "brand:wikidata": "Q668687", "collection_times": "Mo-Sa 14:20", "name": "USPS COLLECTION BOX - BLUE BOX", "note": "ON 12/24 AND 12/31, THIS BOX MAY BE COLLECTED AS EARLY AS 12 NOON.", "nsi_id": "unitedstatespostalservice-a77078", "operator": "United States Postal Service", "operator:short": "USPS", "operator:type": "public", "operator:wikidata": "Q668687", "ref": "6877100003"}, "type": "Feature"}
{"dataset_attributes": {"@spider": "usps_collection_boxes"}, "geometry": {"coordinates": [-97.357026581, 42.378967336], "type": "Point"}, "id": "iShQQDdpw1Mwyo94Av-mBKVojVo=", "properties": {"@spider": "usps_collection_boxes", "addr:city": "RANDOLPH", "addr:country": "US", "addr:full": "120 N MAIN ST", "addr:postcode": "68771", "addr:state": "NE", "amenity": "post_box", "brand": "United States Postal Service", "brand:wikidata": "Q668687", "collection_times": "Mo-Fr 14:20; Sa 09:45", "name": "USPS COLLECTION BOX - PO LOBBY", "note": "ON 12/24 AND 12/31, THIS BOX MAY BE COLLECTED AS EARLY AS 12 NOON.", "nsi_id": "unitedstatespostalservice-a77078", "operator": "United States Postal Service", "operator:short": "USPS", "operator:type": "public", "operator:wikidata": "Q668687", "ref": "6877100005"}, "type": "Feature"}
{"dataset_attributes": {"@spider": "usps_collection_boxes"}, "geometry": {"coordinates": [-97.357026581, 42.378967336], "type": "Point"}, "id": "5IaGshb7JLSa54Z1fPi79ny2DVI=", "properties": {"@spider": "usps_collection_boxes", "addr:city": "RANDOLPH", "addr:country": "US", "addr:full": "120 N MAIN ST", "addr:postcode": "68771", "addr:state": "NE", "amenity": "post_box", "brand": "United States Postal Service", "brand:wikidata": "Q668687", "collection_times": "Mo-Fr 14:20; Sa 09:45", "name": "USPS COLLECTION BOX - PO LOBBY", "note": "ON 12/24 AND 12/31, THIS BOX MAY BE COLLECTED AS EARLY AS 12 NOON.", "nsi_id": "unitedstatespostalservice-a77078", "operator": "United States Postal Service", "operator:short": "USPS", "operator:type": "public", "operator:wikidata": "Q668687", "ref": "6877100006"}, "type": "Feature"}
{"dataset_attributes": {"@spider": "usps_collection_boxes"}, "geometry": {"coordinates": [-98.106620203, 42.335244], "type": "Point"}, "id": "XSbvKk1hOh_NHiGcUMccbyFOdEc=", "properties": {"@spider": "usps_collection_boxes", "addr:city": "ROYAL", "addr:country": "US", "addr:full": "1000 W HIGHWAY 20", "addr:postcode": "68773", "addr:state": "NE", "amenity": "post_box", "brand": "United States Postal Service", "brand:wikidata": "Q668687", "collection_times": "Mo-Sa 13:30", "name": "USPS COLLECTION BOX - BLUE BOX", "note": "ON 12/24 AND 12/31, THIS BOX MAY BE COLLECTED AS EARLY AS 12 NOON.", "nsi_id": "unitedstatespostalservice-a77078", "operator": "United States Postal Service", "operator:short": "USPS", "operator:type": "public", "operator:wikidata": "Q668687", "ref": "6877300001"}, "type": "Feature"}
{"dataset_attributes": {"@spider": "usps_collection_boxes"}, "geometry": {"coordinates": [-97.247489956, 42.809486858], "type": "Point"}, "id": "AuT1mC_I5daARLRMLmT8nn5xTJk=", "properties": {"@spider": "usps_collection_boxes", "addr:city": "SAINT HELENA", "addr:country": "US", "addr:full": "110 W 9TH ST", "addr:postcode": "68774", "addr:state": "NE", "amenity": "post_box", "brand": "United States Postal Service", "brand:wikidata": "Q668687", "collection_times": "Mo-Sa 10:45", "name": "USPS COLLECTION BOX - BLUE BOX", "nsi_id": "unitedstatespostalservice-a77078", "operator": "United States Postal Service", "operator:short": "USPS", "operator:type": "public", "operator:wikidata": "Q668687", "ref": "6877400000"}, "type": "Feature"}
{"dataset_attributes": {"@spider": "usps_collection_boxes"}, "geometry": {"coordinates": [-97.247489956, 42.809486858], "type": "Point"}, "id": "inURdOIq27HEhEGAURYaN2tNkow=", "properties": {"@spider": "usps_collection_boxes", "addr:city": "SAINT HELENA", "addr:country": "US", "addr:full": "110 W 9TH ST", "addr:postcode": "68774", "addr:state": "NE", "amenity": "post_box", "brand": "United States Postal Service", "brand:wikidata": "Q668687", "collection_times": "Mo-Sa 10:45", "name": "USPS COLLECTION BOX - PO LOBBY", "nsi_id": "unitedstatespostalservice-a77078", "operator": "United States Postal Service", "operator:short": "USPS", "operator:type": "public", "operator:wikidata": "Q668687", "ref": "6877400001"}, "type": "Feature"}
{"dataset_attributes": {"@spider": "usps_collection_boxes"}, "geometry": {"coordinates": [-97.247489956, 42.809486858], "type": "Point"}, "id": "CSTyJe89Fb_f0DyNc7shmmLoUg0=", "properties": {"@spider": "usps_collection_boxes", "addr:city": "SAINT HELENA", "addr:country": "US", "addr:full": "110 W 9TH ST", "addr:postcode": "68774", "addr:state": "NE", "amenity": "post_box", "brand": "United States Postal Service", "brand:wikidata": "Q668687", "collection_times": "Mo-Sa 10:45", "name": "USPS COLLECTION BOX - PO LOBBY", "nsi_id": "unitedstatespostalservice-a77078", "operator": "United States Postal Service", "operator:short": "USPS", "operator:type": "public", "operator:wikidata": "Q668687", "ref": "6877400002"}, "type": "Feature"}
{"dataset_attributes": {"@spider": "usps_collection_boxes"}, "geometry": {"coordinates": [-96.422543831, 42.462640291], "type": "Point"}, "id": "IxX7AvFcCdQB_xkgOnPravxK-tY=", "properties": {"@spider": "usps_collection_boxes", "addr:city": "S SIOUX CITY", "addr:country": "US", "addr:full": "801 W 29TH ST", "addr:postcode": "68776", "addr:state": "NE", "amenity": "post_box", "brand": "United States Postal Service", "brand:wikidata": "Q668687", "collection_times": "Mo-Sa 14:15", "name": "USPS COLLECTION BOX - BLUE BOX", "note": "ON 12/24 AND 12/31, THIS BOX MAY BE COLLECTED AS EARLY AS 12 NOON.", "nsi_id": "unitedstatespostalservice-a77078", "operator": "United States Postal Service", "operator:short": "USPS", "operator:type": "public", "operator:wikidata": "Q668687", "ref": "6877600005"}, "type": "Feature"}
{"dataset_attributes": {"@spider": "usps_collection_boxes"}, "geometry": {"coordinates": [-96.413972336, 42.474460061], "type": "Point"}, "id": "BQvXU6dHLuX23bFDOBcEKuvyyNE=", "properties": {"@spider": "usps_collection_boxes", "addr:city": "S SIOUX CITY", "addr:country": "US", "addr:full": "1615 1ST AVE", "addr:postcode": "68776", "addr:state": "NE", "amenity": "post_box", "brand": "United States Postal Service", "brand:wikidata": "Q668687", "collection_times": "Mo-Sa 14:00", "name": "USPS COLLECTION BOX - BLUE BOX", "note": "ON 12/24 AND 12/31, THIS BOX MAY BE COLLECTED AS EARLY AS 12 NOON.", "nsi_id": "unitedstatespostalservice-a77078", "operator": "United States Postal Service", "operator:short": "USPS", "operator:type": "public", "operator:wikidata": "Q668687", "ref": "6877600015"}, "type": "Feature"}
{"dataset_attributes": {"@spider": "usps_collection_boxes"}, "geometry": {"coordinates": [-96.422543831, 42.462640291], "type": "Point"}, "id": "fOTbUnGs4PfXSjK4W1N4U39ZdUw=", "properties": {"@spider": "usps_collection_boxes", "addr:city": "S SIOUX CITY", "addr:country": "US", "addr:full": "801 W 29TH ST", "addr:postcode": "68776", "addr:state": "NE", "amenity": "post_box", "brand": "United States Postal Service", "brand:wikidata": "Q668687", "collection_times": "Mo-Sa 14:15", "name": "USPS COLLECTION BOX - PO LOBBY", "note": "ON 12/24 AND 12/31, THIS BOX MAY BE COLLECTED AS EARLY AS 12 NOON.", "nsi_id": "unitedstatespostalservice-a77078", "operator": "United States Postal Service", "operator:short": "USPS", "operator:type": "public", "operator:wikidata": "Q668687", "ref": "6877600020"}, "type": "Feature"}
{"dataset_attributes": {"@spider": "usps_collection_boxes"}, "geometry": {"coordinates": [-96.413935739, 42.470352136], "type": "Point"}, "id": "t5LWHWZfFQzrJHRk4QBlx2M5Qlc=", "properties": {"@spider": "usps_collection_boxes", "addr:city": "S SIOUX CITY", "addr:country": "US", "addr:full": "2024 DAKOTA AVE", "addr:postcode": "68776", "addr:state": "NE", "amenity": "post_box", "brand": "United States Postal Service", "brand:wikidata": "Q668687", "collection_times": "Mo-Sa 14:00", "name": "USPS COLLECTION BOX - BLUE BOX", "note": "ON 12/24 AND 12/31, THIS BOX MAY BE COLLECTED AS EARLY AS 12 NOON.", "nsi_id": "unitedstatespostalservice-a77078", "operator": "United States Postal Service", "operator:short": "USPS", "operator:type": "public", "operator:wikidata": "Q668687", "ref": "6877600022"}, "type": "Feature"}
{"dataset_attributes": {"@spider": "usps_collection_boxes"}, "geometry": {"coordinates": [-96.422543831, 42.462640291], "type": "Point"}, "id": "PFhDiB4wOkUBoedkjsNsmX6jIis=", "properties": {"@spider": "usps_collection_boxes", "addr:city": "S SIOUX CITY", "addr:country": "US", "addr:full": "801 W 29TH ST", "addr:postcode": "68776", "addr:state": "NE", "amenity": "post_box", "brand": "United States Postal Service", "brand:wikidata": "Q668687", "collection_times": "Mo-Fr 14:15; Sa 11:30", "name": "USPS COLLECTION BOX - PO LOBBY", "note": "ON 12/24 AND 12/31, THIS BOX MAY BE COLLECTED AS EARLY AS 12 NOON.", "nsi_id": "unitedstatespostalservice-a77078", "operator": "United States Postal Service", "operator:short": "USPS", "operator:type": "public", "operator:wikidata": "Q668687", "ref": "6877600024"}, "type": "Feature"}
{"dataset_attributes": {"@spider": "usps_collection_boxes"}, "geometry": {"coordinates": [-98.70126415, 42.87332365], "type": "Point"}, "id": "-oCgK5d7EWsqKkGoaJN9G1W8Exk=", "properties": {"@spider": "usps_collection_boxes", "addr:city": "SPENCER", "addr:country": "US", "addr:full": "110 S THAYER ST", "addr:postcode": "68777", "addr:state": "NE", "amenity": "post_box", "brand": "United States Postal Service", "brand:wikidata": "Q668687", "collection_times": "Mo-Fr 11:30; Sa 12:30", "name": "USPS COLLECTION BOX - BLUE BOX", "note": "ON 12/24 AND 12/31, THIS BOX MAY BE COLLECTED AS EARLY AS 12 NOON.", "nsi_id": "unitedstatespostalservice-a77078", "operator": "United States Postal Service", "operator:short": "USPS", "operator:type": "public", "operator:wikidata": "Q668687", "ref": "6877700001"}, "type": "Feature"}
{"dataset_attributes": {"@spider": "usps_collection_boxes"}, "geometry": {"coordinates": [-98.70126415, 42.87332365], "type": "Point"}, "id": "hrykCcY1JUV7pHDXVDW9N6je76Q=", "properties": {"@spider": "usps_collection_boxes", "addr:city": "SPENCER", "addr:country": "US", "addr:full": "110 S THAYER ST", "addr:postcode": "68777", "addr:state": "NE", "amenity": "post_box", "brand": "United States Postal Service", "brand:wikidata": "Q668687", "collection_times": "Mo-Fr 11:30; Sa 10:15", "name": "USPS COLLECTION BOX - PO LOBBY", "nsi_id": "unitedstatespostalservice-a77078", "operator": "United States Postal Service", "operator:short": "USPS", "operator:type": "public", "operator:wikidata": "Q668687", "ref": "6877700002"}, "type": "Feature"}
{"dataset_attributes": {"@spider": "usps_collection_boxes"}, "geometry": {"coordinates": [-98.70126415, 42.87332365], "type": "Point"}, "id": "X1VhBru0l2bNXSdyCOzdyZcmsCs=", "properties": {"@spider": "usps_collection_boxes", "addr:city": "SPENCER", "addr:country": "US", "addr:full": "110 S THAYER ST", "addr:postcode": "68777", "addr:state": "NE", "amenity": "post_box", "brand": "United States Postal Service", "brand:wikidata": "Q668687", "collection_times": "Mo-Fr 11:30; Sa 10:15", "name": "USPS COLLECTION BOX - PO LOBBY", "nsi_id": "unitedstatespostalservice-a77078", "operator": "United States Postal Service", "operator:short": "USPS", "operator:type": "public", "operator:wikidata": "Q668687", "ref": "6877700003"}, "type": "Feature"}
{"dataset_attributes": {"@spider": "usps_collection_boxes"}, "geometry": {"coordinates": [-99.748810983, 42.823412832], "type": "Point"}, "id": "ZfUpjVy5gCxz4owaCyCi9bf3ZQk=", "properties": {"@spider": "usps_collection_boxes", "addr:city": "SPRINGVIEW", "addr:country": "US", "addr:full": "130 MAIN ST", "addr:postcode": "68778", "addr:state": "NE", "amenity": "post_box", "brand": "United States Postal Service", "brand:wikidata": "Q668687", "collection_times": "Mo-Fr 11:20; Sa 11:45", "name": "USPS COLLECTION BOX - BLUE BOX", "nsi_id": "unitedstatespostalservice-a77078", "operator": "United States Postal Service", "operator:short": "USPS", "operator:type": "public", "operator:wikidata": "Q668687", "ref": "6877800001"}, "type": "Feature"}
{"dataset_attributes": {"@spider": "usps_collection_boxes"}, "geometry": {"coordinates": [-99.748810983, 42.823412832], "type": "Point"}, "id": "2_REC9mJBH8W5moZ2AY94ze49Hc=", "properties": {"@spider": "usps_collection_boxes", "addr:city": "SPRINGVIEW", "addr:country": "US", "addr:full": "130 MAIN ST", "addr:postcode": "68778", "addr:state": "NE", "amenity": "post_box", "brand": "United States Postal Service", "brand:wikidata": "Q668687", "collection_times": "Mo-Fr 11:20; Sa 10:00", "name": "USPS COLLECTION BOX - PO LOBBY", "nsi_id": "unitedstatespostalservice-a77078", "operator": "United States Postal Service", "operator:short": "USPS", "operator:type": "public", "operator:wikidata": "Q668687", "ref": "6877800002"}, "type": "Feature"}
{"dataset_attributes": {"@spider": "usps_collection_boxes"}, "geometry": {"coordinates": [-99.748810983, 42.823412832], "type": "Point"}, "id": "8qADP9rs-rLRAfC2USxIZmbHpBM=", "properties": {"@spider": "usps_collection_boxes", "addr:city": "SPRINGVIEW", "addr:country": "US", "addr:full": "130 MAIN ST", "addr:postcode": "68778", "addr:state": "NE", "amenity": "post_box", "brand": "United States Postal Service", "brand:wikidata": "Q668687", "collection_times": "Mo-Fr 11:20; Sa 10:00", "name": "USPS COLLECTION BOX - PO LOBBY", "nsi_id": "unitedstatespostalservice-a77078", "operator": "United States Postal Service", "operator:short": "USPS", "operator:type": "public", "operator:wikidata": "Q668687", "ref": "6877800003"}, "type": "Feature"}
{"dataset_attributes": {"@spider": "usps_collection_boxes"}, "geometry": {"coordinates": [-97.224921, 41.9504365299], "type": "Point"}, "id": "bS31Cc6k-su01nTUkxMwLAmKDUo=", "properties": {"@spider": "usps_collection_boxes", "addr:city": "STANTON", "addr:country": "US", "addr:full": "1018 IVY ST", "addr:postcode": "68779", "addr:state": "NE", "amenity": "post_box", "brand": "United States Postal Service", "brand:wikidata": "Q668687", "collection_times": "Mo-Sa 15:30", "name": "USPS COLLECTION BOX - BLUE BOX", "note": "ON 12/24 AND 12/31, THIS BOX MAY BE COLLECTED AS EARLY AS 12 NOON.", "nsi_id": "unitedstatespostalservice-a77078", "operator": "United States Postal Service", "operator:short": "USPS", "operator:type": "public", "operator:wikidata": "Q668687", "ref": "6877900001"}, "type": "Feature"}
{"dataset_attributes": {"@spider": "usps_collection_boxes"}, "geometry": {"coordinates": [-97.224921, 41.95043653], "type": "Point"}, "id": "v1wP98NS1D3heFd4kPrG0rhvhiM=", "properties": {"@spider": "usps_collection_boxes", "addr:city": "STANTON", "addr:country": "US", "addr:full": "1018 IVY ST", "addr:postcode": "68779", "addr:state": "NE", "amenity": "post_box", "brand": "United States Postal Service", "brand:wikidata": "Q668687", "collection_times": "Mo-Fr 15:30; Sa 09:15", "name": "USPS COLLECTION BOX - PO LOBBY", "note": "ON 12/24 AND 12/31, THIS BOX MAY BE COLLECTED AS EARLY AS 12 NOON.", "nsi_id": "unitedstatespostalservice-a77078", "operator": "United States Postal Service", "operator:short": "USPS", "operator:type": "public", "operator:wikidata": "Q668687", "ref": "6877900002"}, "type": "Feature"}
{"dataset_attributes": {"@spider": "usps_collection_boxes"}, "geometry": {"coordinates": [-97.224921, 41.95043653], "type": "Point"}, "id": "ST6J02FE3dh06hyE8FYrTu9wrLE=", "properties": {"@spider": "usps_collection_boxes", "addr:city": "STANTON", "addr:country": "US", "addr:full": "1018 IVY ST", "addr:postcode": "68779", "addr:state": "NE", "amenity": "post_box", "brand": "United States Postal Service", "brand:wikidata": "Q668687", "collection_times": "Mo-Fr 15:30; Sa 09:15", "name": "USPS COLLECTION BOX - PO LOBBY", "note": "ON 12/24 AND 12/31, THIS BOX MAY BE COLLECTED AS EARLY AS 12 NOON.", "nsi_id": "unitedstatespostalservice-a77078", "operator": "United States Postal Service", "operator:short": "USPS", "operator:type": "public", "operator:wikidata": "Q668687", "ref": "6877900003"}, "type": "Feature"}
{"dataset_attributes": {"@spider": "usps_collection_boxes"}, "geometry": {"coordinates": [-99.142504923, 42.598646504], "type": "Point"}, "id": "2UqOxxAKbNrV7DykTyJIEn_mOlk=", "properties": {"@spider": "usps_collection_boxes", "addr:city": "STUART", "addr:country": "US", "addr:full": "121 N MAIN ST", "addr:postcode": "68780", "addr:state": "NE", "amenity": "post_box", "brand": "United States Postal Service", "brand:wikidata": "Q668687", "collection_times": "Mo-Sa 13:00", "name": "USPS COLLECTION BOX - BLUE BOX", "note": "ON 12/24 AND 12/31, THIS BOX MAY BE COLLECTED AS EARLY AS 12 NOON.", "nsi_id": "unitedstatespostalservice-a77078", "operator": "United States Postal Service", "operator:short": "USPS", "operator:type": "public", "operator:wikidata": "Q668687", "ref": "6878000001"}, "type": "Feature"}
{"dataset_attributes": {"@spider": "usps_collection_boxes"}, "geometry": {"coordinates": [-99.14252768, 42.598638155], "type": "Point"}, "id": "WjHyeoplqE7oHBkpeLYLNGz2F7U=", "properties": {"@spider": "usps_collection_boxes", "addr:city": "STUART", "addr:country": "US", "addr:full": "121 N MAIN ST", "addr:postcode": "68780", "addr:state": "NE", "amenity": "post_box", "brand": "United States Postal Service", "brand:wikidata": "Q668687", "collection_times": "Mo-Fr 13:00; Sa 09:15", "name": "USPS COLLECTION BOX - PO LOBBY", "note": "ON 12/24 AND 12/31, THIS BOX MAY BE COLLECTED AS EARLY AS 12 NOON.", "nsi_id": "unitedstatespostalservice-a77078", "operator": "United States Postal Service", "operator:short": "USPS", "operator:type": "public", "operator:wikidata": "Q668687", "ref": "6878000002"}, "type": "Feature"}
{"dataset_attributes": {"@spider": "usps_collection_boxes"}, "geometry": {"coordinates": [-99.14252768, 42.598638155], "type": "Point"}, "id": "RrPpeQgkdW6f0PYfDACza1i919s=", "properties": {"@spider": "usps_collection_boxes", "addr:city": "STUART", "addr:country": "US", "addr:full": "121 N MAIN ST", "addr:postcode": "68780", "addr:state": "NE", "amenity": "post_box", "brand": "United States Postal Service", "brand:wikidata": "Q668687", "collection_times": "Mo-Fr 13:00; Sa 09:15", "name": "USPS COLLECTION BOX - PO LOBBY", "note": "ON 12/24 AND 12/31, THIS BOX MAY BE COLLECTED AS EARLY AS 12 NOON.", "nsi_id": "unitedstatespostalservice-a77078", "operator": "United States Postal Service", "operator:short": "USPS", "operator:type": "public", "operator:wikidata": "Q668687", "ref": "6878000003"}, "type": "Feature"}
{"dataset_attributes": {"@spider": "usps_collection_boxes"}, "geometry": {"coordinates": [-97.83280598, 42.047612078], "type": "Point"}, "id": "AkwyAHtKqc_vDTVijotR02J0YH8=", "properties": {"@spider": "usps_collection_boxes", "addr:city": "TILDEN", "addr:country": "US", "addr:full": "101 S MADISON ST", "addr:postcode": "68781", "addr:state": "NE", "amenity": "post_box", "brand": "United States Postal Service", "brand:wikidata": "Q668687", "collection_times": "Mo-Sa 14:40", "name": "USPS COLLECTION BOX - BLUE BOX", "note": "ON 12/24 AND 12/31, THIS BOX MAY BE COLLECTED AS EARLY AS 12 NOON.", "nsi_id": "unitedstatespostalservice-a77078", "operator": "United States Postal Service", "operator:short": "USPS", "operator:type": "public", "operator:wikidata": "Q668687", "ref": "6878100001"}, "type": "Feature"}
{"dataset_attributes": {"@spider": "usps_collection_boxes"}, "geometry": {"coordinates": [-97.83280598, 42.047612078], "type": "Point"}, "id": "A3Yem_50ybuZQ50miUrS7ccWQzY=", "properties": {"@spider": "usps_collection_boxes", "addr:city": "TILDEN", "addr:country": "US", "addr:full": "101 S MADISON ST", "addr:postcode": "68781", "addr:state": "NE", "amenity": "post_box", "brand": "United States Postal Service", "brand:wikidata": "Q668687", "collection_times": "Mo-Fr 14:30; Sa 09:15", "name": "USPS COLLECTION BOX - PO LOBBY", "note": "ON 12/24 AND 12/31, THIS BOX MAY BE COLLECTED AS EARLY AS 12 NOON.", "nsi_id": "unitedstatespostalservice-a77078", "operator": "United States Postal Service", "operator:short": "USPS", "operator:type": "public", "operator:wikidata": "Q668687", "ref": "6878100002"}, "type": "Feature"}
{"dataset_attributes": {"@spider": "usps_collection_boxes"}, "geometry": {"coordinates": [-97.83280598, 42.047612078], "type": "Point"}, "id": "s8XCyhrmFddKnuG_tWK0K5gbc8E=", "properties": {"@spider": "usps_collection_boxes", "addr:city": "TILDEN", "addr:country": "US", "addr:full": "101 S MADISON ST", "addr:postcode": "68781", "addr:state": "NE", "amenity": "post_box", "brand": "United States Postal Service", "brand:wikidata": "Q668687", "collection_times": "Mo-Fr 14:30; Sa 09:15", "name": "USPS COLLECTION BOX - PO LOBBY", "note": "ON 12/24 AND 12/31, THIS BOX MAY BE COLLECTED AS EARLY AS 12 NOON.", "nsi_id": "unitedstatespostalservice-a77078", "operator": "United States Postal Service", "operator:short": "USPS", "operator:type": "public", "operator:wikidata": "Q668687", "ref": "6878100003"}, "type": "Feature"}
{"dataset_attributes": {"@spider": "usps_collection_boxes"}, "geometry": {"coordinates": [-98.033537991, 42.596721958], "type": "Point"}, "id": "3PBUAiHfN1qwCEaDLsXrqCym4lo=", "properties": {"@spider": "usps_collection_boxes", "addr:city": "VERDIGRE", "addr:country": "US", "addr:full": "408 S MAIN ST", "addr:postcode": "68783", "addr:state": "NE", "amenity": "post_box", "brand": "United States Postal Service", "brand:wikidata": "Q668687", "collection_times": "Mo-Sa 13:00", "name": "USPS COLLECTION BOX - BLUE BOX", "note": "ON 12/24 AND 12/31, THIS BOX MAY BE COLLECTED AS EARLY AS 12 NOON.", "nsi_id": "unitedstatespostalservice-a77078", "operator": "United States Postal Service", "operator:short": "USPS", "operator:type": "public", "operator:wikidata": "Q668687", "ref": "6878300001"}, "type": "Feature"}
{"dataset_attributes": {"@spider": "usps_collection_boxes"}, "geometry": {"coordinates": [-98.0335379908, 42.5967219579], "type": "Point"}, "id": "WctlynyRgIbymB61SHhSRejieg8=", "properties": {"@spider": "usps_collection_boxes", "addr:city": "VERDIGRE", "addr:country": "US", "addr:full": "408 S MAIN ST", "addr:postcode": "68783", "addr:state": "NE", "amenity": "post_box", "brand": "United States Postal Service", "brand:wikidata": "Q668687", "collection_times": "Mo-Fr 13:00; Sa 11:45", "name": "USPS COLLECTION BOX - PO LOBBY", "note": "ON 12/24 AND 12/31, THIS BOX MAY BE COLLECTED AS EARLY AS 12 NOON.", "nsi_id": "unitedstatespostalservice-a77078", "operator": "United States Postal Service", "operator:short": "USPS", "operator:type": "public", "operator:wikidata": "Q668687", "ref": "6878300002"}, "type": "Feature"}
{"dataset_attributes": {"@spider": "usps_collection_boxes"}, "geometry": {"coordinates": [-98.0335379908, 42.5967219579], "type": "Point"}, "id": "vYw2uxcsVrkwnK6BlW1a9EONAPg=", "properties": {"@spider": "usps_collection_boxes", "addr:city": "VERDIGRE", "addr:country": "US", "addr:full": "408 S MAIN ST", "addr:postcode": "68783", "addr:state": "NE", "amenity": "post_box", "brand": "United States Postal Service", "brand:wikidata": "Q668687", "collection_times": "Mo-Fr 13:00; Sa 11:45", "name": "USPS COLLECTION BOX - PO LOBBY", "note": "ON 12/24 AND 12/31, THIS BOX MAY BE COLLECTED AS EARLY AS 12 NOON.", "nsi_id": "unitedstatespostalservice-a77078", "operator": "United States Postal Service", "operator:short": "USPS", "operator:type": "public", "operator:wikidata": "Q668687", "ref": "6878300003"}, "type": "Feature"}
{"dataset_attributes": {"@spider": "usps_collection_boxes"}, "geometry": {"coordinates": [-96.865062834, 42.268355665], "type": "Point"}, "id": "vuP97bVr3JVEI17X-vEE06czigo=", "properties": {"@spider": "usps_collection_boxes", "addr:city": "WAKEFIELD", "addr:country": "US", "addr:full": "319 MAIN ST", "addr:postcode": "68784", "addr:state": "NE", "amenity": "post_box", "brand": "United States Postal Service", "brand:wikidata": "Q668687", "collection_times": "Mo-Sa 14:30", "name": "USPS COLLECTION BOX - BLUE BOX", "note": "ON 12/24 AND 12/31, THIS BOX MAY BE COLLECTED AS EARLY AS 12 NOON.", "nsi_id": "unitedstatespostalservice-a77078", "operator": "United States Postal Service", "operator:short": "USPS", "operator:type": "public", "operator:wikidata": "Q668687", "ref": "6878400001"}, "type": "Feature"}
{"dataset_attributes": {"@spider": "usps_collection_boxes"}, "geometry": {"coordinates": [-96.865062834, 42.268355665], "type": "Point"}, "id": "YLmcJBmuNPqz8xF5jaX-Um3CSvk=", "properties": {"@spider": "usps_collection_boxes", "addr:city": "WAKEFIELD", "addr:country": "US", "addr:full": "319 MAIN ST", "addr:postcode": "68784", "addr:state": "NE", "amenity": "post_box", "brand": "United States Postal Service", "brand:wikidata": "Q668687", "collection_times": "Mo-Fr 14:30; Sa 09:45", "name": "USPS COLLECTION BOX - PO LOBBY", "note": "ON 12/24 AND 12/31, THIS BOX MAY BE COLLECTED AS EARLY AS 12 NOON.", "nsi_id": "unitedstatespostalservice-a77078", "operator": "United States Postal Service", "operator:short": "USPS", "operator:type": "public", "operator:wikidata": "Q668687", "ref": "6878400002"}, "type": "Feature"}
{"dataset_attributes": {"@spider": "usps_collection_boxes"}, "geometry": {"coordinates": [-96.865062834, 42.268355665], "type": "Point"}, "id": "02CxGE0dQsULB1nhO3vwlaFyrno=", "properties": {"@spider": "usps_collection_boxes", "addr:city": "WAKEFIELD", "addr:country": "US", "addr:full": "319 MAIN ST", "addr:postcode": "68784", "addr:state": "NE", "amenity": "post_box", "brand": "United States Postal Service", "brand:wikidata": "Q668687", "collection_times": "Mo-Fr 14:30; Sa 09:45", "name": "USPS COLLECTION BOX - PO LOBBY", "note": "ON 12/24 AND 12/31, THIS BOX MAY BE COLLECTED AS EARLY AS 12 NOON.", "nsi_id": "unitedstatespostalservice-a77078", "operator": "United States Postal Service", "operator:short": "USPS", "operator:type": "public", "operator:wikidata": "Q668687", "ref": "6878400003"}, "type": "Feature"}
{"dataset_attributes": {"@spider": "usps_collection_boxes"}, "geometry": {"coordinates": [-96.7388144649, 42.4577871287], "type": "Point"}, "id": "MlPpFn0FWsvCrsQ2Nn8CwBTYRVY=", "properties": {"@spider": "usps_collection_boxes", "addr:city": "PONCA", "addr:country": "US", "addr:full": "304 GARRETT ST", "addr:postcode": "68785", "addr:state": "NE", "amenity": "post_box", "brand": "United States Postal Service", "brand:wikidata": "Q668687", "collection_times": "Mo-Sa 11:30", "name": "USPS COLLECTION BOX - BLUE BOX", "nsi_id": "unitedstatespostalservice-a77078", "operator": "United States Postal Service", "operator:short": "USPS", "operator:type": "public", "operator:wikidata": "Q668687", "ref": "6878500001"}, "type": "Feature"}
{"dataset_attributes": {"@spider": "usps_collection_boxes"}, "geometry": {"coordinates": [-97.540960664, 42.499137494], "type": "Point"}, "id": "_HeF80jq3160kL1E41pbcWOePgw=", "properties": {"@spider": "usps_collection_boxes", "addr:city": "WAUSA", "addr:country": "US", "addr:full": "612 E BROADWAY ST", "addr:postcode": "68786", "addr:state": "NE", "amenity": "post_box", "brand": "United States Postal Service", "brand:wikidata": "Q668687", "collection_times": "Mo-Fr 13:55; Sa 13:50", "name": "USPS COLLECTION BOX - BLUE BOX", "note": "ON 12/24 AND 12/31, THIS BOX MAY BE COLLECTED AS EARLY AS 12 NOON.", "nsi_id": "unitedstatespostalservice-a77078", "operator": "United States Postal Service", "operator:short": "USPS", "operator:type": "public", "operator:wikidata": "Q668687", "ref": "6878600001"}, "type": "Feature"}
{"dataset_attributes": {"@spider": "usps_collection_boxes"}, "geometry": {"coordinates": [-97.540960664, 42.499137494], "type": "Point"}, "id": "5tkQpGutfQExBQCDtdbM4LpvZw8=", "properties": {"@spider": "usps_collection_boxes", "addr:city": "WAUSA", "addr:country": "US", "addr:full": "612 E BROADWAY ST", "addr:postcode": "68786", "addr:state": "NE", "amenity": "post_box", "brand": "United States Postal Service", "brand:wikidata": "Q668687", "collection_times": "Mo-Fr 13:55; Sa 09:45", "name": "USPS COLLECTION BOX - PO LOBBY", "note": "ON 12/24 AND 12/31, THIS BOX MAY BE COLLECTED AS EARLY AS 12 NOON.", "nsi_id": "unitedstatespostalservice-a77078", "operator": "United States Postal Service", "operator:short": "USPS", "operator:type": "public", "operator:wikidata": "Q668687", "ref": "6878600002"}, "type": "Feature"}
{"dataset_attributes": {"@spider": "usps_collection_boxes"}, "geometry": {"coordinates": [-97.540960664, 42.499137494], "type": "Point"}, "id": "5EaIqU4f1IbaAp5r0Z8ZbbIHwig=", "properties": {"@spider": "usps_collection_boxes", "addr:city": "WAUSA", "addr:country": "US", "addr:full": "612 E BROADWAY ST", "addr:postcode": "68786", "addr:state": "NE", "amenity": "post_box", "brand": "United States Postal Service", "brand:wikidata": "Q668687", "collection_times": "Mo-Fr 13:55; Sa 09:45", "name": "USPS COLLECTION BOX - PO LOBBY", "note": "ON 12/24 AND 12/31, THIS BOX MAY BE COLLECTED AS EARLY AS 12 NOON.", "nsi_id": "unitedstatespostalservice-a77078", "operator": "United States Postal Service", "operator:short": "USPS", "operator:type": "public", "operator:wikidata": "Q668687", "ref": "6878600003"}, "type": "Feature"}
{"dataset_attributes": {"@spider": "usps_collection_boxes"}, "geometry": {"coordinates": [-97.017772316, 42.240243072], "type": "Point"}, "id": "aNoc_8WDtBFWG_0J4IvfULT0Yrs=", "properties": {"@spider": "usps_collection_boxes", "addr:city": "WAYNE", "addr:country": "US", "addr:full": "1111 MAIN ST", "addr:postcode": "68787", "addr:state": "NE", "amenity": "post_box", "brand": "United States Postal Service", "brand:wikidata": "Q668687", "collection_times": "Mo-Sa 08:30", "name": "USPS COLLECTION BOX - BLUE BOX", "nsi_id": "unitedstatespostalservice-a77078", "operator": "United States Postal Service", "operator:short": "USPS", "operator:type": "public", "operator:wikidata": "Q668687", "ref": "6878700004"}, "type": "Feature"}
{"dataset_attributes": {"@spider": "usps_collection_boxes"}, "geometry": {"coordinates": [-97.009875863, 42.235056555], "type": "Point"}, "id": "T1AmC5Ncdd0YdZ4xygaIBkUwjfA=", "properties": {"@spider": "usps_collection_boxes", "addr:city": "WAYNE", "addr:country": "US", "addr:full": "615 DEARBORN ST", "addr:postcode": "68787", "addr:state": "NE", "amenity": "post_box", "brand": "United States Postal Service", "brand:wikidata": "Q668687", "collection_times": "Mo-Sa 12:00", "name": "USPS COLLECTION BOX - BLUE BOX", "nsi_id": "unitedstatespostalservice-a77078", "operator": "United States Postal Service", "operator:short": "USPS", "operator:type": "public", "operator:wikidata": "Q668687", "ref": "6878700006"}, "type": "Feature"}
{"dataset_attributes": {"@spider": "usps_collection_boxes"}, "geometry": {"coordinates": [-97.019311115, 42.230016335], "type": "Point"}, "id": "b-OWUfErAPBxqDS5_YolPg8Du48=", "properties": {"@spider": "usps_collection_boxes", "addr:city": "WAYNE", "addr:country": "US", "addr:full": "120 N PEARL ST", "addr:postcode": "68787", "addr:state": "NE", "amenity": "post_box", "brand": "United States Postal Service", "brand:wikidata": "Q668687", "collection_times": "Mo-Fr 14:10; Sa 14:00", "name": "USPS COLLECTION BOX - BLUE BOX", "note": "ON 12/24 AND 12/31, THIS BOX MAY BE COLLECTED AS EARLY AS 12 NOON.", "nsi_id": "unitedstatespostalservice-a77078", "operator": "United States Postal Service", "operator:short": "USPS", "operator:type": "public", "operator:wikidata": "Q668687", "ref": "6878700007"}, "type": "Feature"}
{"dataset_attributes": {"@spider": "usps_collection_boxes"}, "geometry": {"coordinates": [-97.019311115, 42.230016335], "type": "Point"}, "id": "y1qHkkboKHtXucupf0O_oPo0HCo=", "properties": {"@spider": "usps_collection_boxes", "addr:city": "WAYNE", "addr:country": "US", "addr:full": "120 N PEARL ST", "addr:postcode": "68787", "addr:state": "NE", "amenity": "post_box", "brand": "United States Postal Service", "brand:wikidata": "Q668687", "collection_times": "Mo-Fr 14:10; Sa 14:00", "name": "USPS COLLECTION BOX - BLUE BOX", "note": "ON 12/24 AND 12/31, THIS BOX MAY BE COLLECTED AS EARLY AS 12 NOON.", "nsi_id": "unitedstatespostalservice-a77078", "operator": "United States Postal Service", "operator:short": "USPS", "operator:type": "public", "operator:wikidata": "Q668687", "ref": "6878700008"}, "type": "Feature"}
{"dataset_attributes": {"@spider": "usps_collection_boxes"}, "geometry": {"coordinates": [-97.019311115, 42.230016335], "type": "Point"}, "id": "fUl51NPxwRnhgEa-WGlG9HCd2OQ=", "properties": {"@spider": "usps_collection_boxes", "addr:city": "WAYNE", "addr:country": "US", "addr:full": "120 N PEARL ST", "addr:postcode": "68787", "addr:state": "NE", "amenity": "post_box", "brand": "United States Postal Service", "brand:wikidata": "Q668687", "collection_times": "Mo-Fr 14:00; Sa 10:30", "name": "USPS COLLECTION BOX - PO LOBBY", "note": "ON 12/24 AND 12/31, THIS BOX MAY BE COLLECTED AS EARLY AS 12 NOON.", "nsi_id": "unitedstatespostalservice-a77078", "operator": "United States Postal Service", "operator:short": "USPS", "operator:type": "public", "operator:wikidata": "Q668687", "ref": "6878700010"}, "type": "Feature"}
{"dataset_attributes": {"@spider": "usps_collection_boxes"}, "geometry": {"coordinates": [-97.019311115, 42.230016335], "type": "Point"}, "id": "u9WF2D4DYlqCKwUVn6MYIlqJTFU=", "properties": {"@spider": "usps_collection_boxes", "addr:city": "WAYNE", "addr:country": "US", "addr:full": "120 N PEARL ST", "addr:postcode": "68787", "addr:state": "NE", "amenity": "post_box", "brand": "United States Postal Service", "brand:wikidata": "Q668687", "collection_times": "Mo-Fr 14:00; Sa 10:30", "name": "USPS COLLECTION BOX - PO LOBBY", "note": "ON 12/24 AND 12/31, THIS BOX MAY BE COLLECTED AS EARLY AS 12 NOON.", "nsi_id": "unitedstatespostalservice-a77078", "operator": "United States Postal Service", "operator:short": "USPS", "operator:type": "public", "operator:wikidata": "Q668687", "ref": "6878700013"}, "type": "Feature"}
{"dataset_attributes": {"@spider": "usps_collection_boxes"}, "geometry": {"coordinates": [-96.71079714, 41.83920564], "type": "Point"}, "id": "eZVeHXbYflEa6K1XPdcKfGRgoV0=", "properties": {"@spider": "usps_collection_boxes", "addr:city": "WEST POINT", "addr:country": "US", "addr:full": "200 S LINCOLN ST", "addr:postcode": "68788", "addr:state": "NE", "amenity": "post_box", "brand": "United States Postal Service", "brand:wikidata": "Q668687", "collection_times": "Mo-Sa 12:00", "name": "USPS COLLECTION BOX - BLUE BOX", "nsi_id": "unitedstatespostalservice-a77078", "operator": "United States Postal Service", "operator:short": "USPS", "operator:type": "public", "operator:wikidata": "Q668687", "ref": "6878800002"}, "type": "Feature"}
{"dataset_attributes": {"@spider": "usps_collection_boxes"}, "geometry": {"coordinates": [-96.711705546, 41.841022293], "type": "Point"}, "id": "ena6ExiXwU7ddFy3mr97pzro-2g=", "properties": {"@spider": "usps_collection_boxes", "addr:city": "WEST POINT", "addr:country": "US", "addr:full": "127 E BRIDGE ST", "addr:postcode": "68788", "addr:state": "NE", "amenity": "post_box", "brand": "United States Postal Service", "brand:wikidata": "Q668687", "collection_times": "Mo-Fr 14:15; Sa 11:00", "name": "USPS COLLECTION BOX - PO LOBBY", "note": "ON 12/24 AND 12/31, THIS BOX MAY BE COLLECTED AS EARLY AS 12 NOON.", "nsi_id": "unitedstatespostalservice-a77078", "operator": "United States Postal Service", "operator:short": "USPS", "operator:type": "public", "operator:wikidata": "Q668687", "ref": "6878800005"}, "type": "Feature"}
{"dataset_attributes": {"@spider": "usps_collection_boxes"}, "geometry": {"coordinates": [-96.711705546, 41.841022293], "type": "Point"}, "id": "FyU26TswI0rIuJTRTIR8w81owxQ=", "properties": {"@spider": "usps_collection_boxes", "addr:city": "WEST POINT", "addr:country": "US", "addr:full": "127 E BRIDGE ST", "addr:postcode": "68788", "addr:state": "NE", "amenity": "post_box", "brand": "United States Postal Service", "brand:wikidata": "Q668687", "collection_times": "Mo-Sa 14:15", "name": "USPS COLLECTION BOX - BLUE BOX", "note": "ON 12/24 AND 12/31, THIS BOX MAY BE COLLECTED AS EARLY AS 12 NOON.", "nsi_id": "unitedstatespostalservice-a77078", "operator": "United States Postal Service", "operator:short": "USPS", "operator:type": "public", "operator:wikidata": "Q668687", "ref": "6878800006"}, "type": "Feature"}
{"dataset_attributes": {"@spider": "usps_collection_boxes"}, "geometry": {"coordinates": [-96.711705546, 41.841022293], "type": "Point"}, "id": "RQ07G-9W6U-jSIgDNcLhtiX7wDQ=", "properties": {"@spider": "usps_collection_boxes", "addr:city": "WEST POINT", "addr:country": "US", "addr:full": "127 E BRIDGE ST", "addr:postcode": "68788", "addr:state": "NE", "amenity": "post_box", "brand": "United States Postal Service", "brand:wikidata": "Q668687", "collection_times": "Mo-Fr 14:15; Sa 11:00", "name": "USPS COLLECTION BOX - PO LOBBY", "note": "ON 12/24 AND 12/31, THIS BOX MAY BE COLLECTED AS EARLY AS 12 NOON.", "nsi_id": "unitedstatespostalservice-a77078", "operator": "United States Postal Service", "operator:short": "USPS", "operator:type": "public", "operator:wikidata": "Q668687", "ref": "6878800009"}, "type": "Feature"}
{"dataset_attributes": {"@spider": "usps_collection_boxes"}, "geometry": {"coordinates": [-97.960996922, 42.512688211], "type": "Point"}, "id": "q_yyffvJTqsLhmmtPeegXqAiTOU=", "properties": {"@spider": "usps_collection_boxes", "addr:city": "WINNETOON", "addr:country": "US", "addr:full": "312 MAIN AVE", "addr:postcode": "68789", "addr:state": "NE", "amenity": "post_box", "brand": "United States Postal Service", "brand:wikidata": "Q668687", "collection_times": "Mo-Fr 13:00; Sa 10:45", "name": "USPS COLLECTION BOX - PO LOBBY", "note": "ON 12/24 AND 12/31, THIS BOX MAY BE COLLECTED AS EARLY AS 12 NOON.", "nsi_id": "unitedstatespostalservice-a77078", "operator": "United States Postal Service", "operator:short": "USPS", "operator:type": "public", "operator:wikidata": "Q668687", "ref": "6878900001"}, "type": "Feature"}
{"dataset_attributes": {"@spider": "usps_collection_boxes"}, "geometry": {"coordinates": [-97.176123, 42.175784496], "type": "Point"}, "id": "jgW5Li6cGA3UO3-KRKMVRosPg_c=", "properties": {"@spider": "usps_collection_boxes", "addr:city": "WINSIDE", "addr:country": "US", "addr:full": "410 MAIN ST", "addr:postcode": "68790", "addr:state": "NE", "amenity": "post_box", "brand": "United States Postal Service", "brand:wikidata": "Q668687", "collection_times": "Mo-Sa 14:45", "name": "USPS COLLECTION BOX - BLUE BOX", "note": "ON 12/24 AND 12/31, THIS BOX MAY BE COLLECTED AS EARLY AS 12 NOON.", "nsi_id": "unitedstatespostalservice-a77078", "operator": "United States Postal Service", "operator:short": "USPS", "operator:type": "public", "operator:wikidata": "Q668687", "ref": "6879000001"}, "type": "Feature"}
{"dataset_attributes": {"@spider": "usps_collection_boxes"}, "geometry": {"coordinates": [-97.176123, 42.175784496], "type": "Point"}, "id": "mgPMyQ0pC_9pJ9uLNFv0Za-sqlc=", "properties": {"@spider": "usps_collection_boxes", "addr:city": "WINSIDE", "addr:country": "US", "addr:full": "410 MAIN ST", "addr:postcode": "68790", "addr:state": "NE", "amenity": "post_box", "brand": "United States Postal Service", "brand:wikidata": "Q668687", "collection_times": "Mo-Fr 12:15; Sa 10:15", "name": "USPS COLLECTION BOX - PO LOBBY", "note": "ON 12/24 AND 12/31, THIS BOX MAY BE COLLECTED AS EARLY AS 12 NOON.", "nsi_id": "unitedstatespostalservice-a77078", "operator": "United States Postal Service", "operator:short": "USPS", "operator:type": "public", "operator:wikidata": "Q668687", "ref": "6879000002"}, "type": "Feature"}
{"dataset_attributes": {"@spider": "usps_collection_boxes"}, "geometry": {"coordinates": [-97.176123, 42.175784496], "type": "Point"}, "id": "LKzCeEv2J1xQeBvWYwTZgMAEE5w=", "properties": {"@spider": "usps_collection_boxes", "addr:city": "WINSIDE", "addr:country": "US", "addr:full": "410 MAIN ST", "addr:postcode": "68790", "addr:state": "NE", "amenity": "post_box", "brand": "United States Postal Service", "brand:wikidata": "Q668687", "collection_times": "Mo-Fr 12:15; Sa 10:15", "name": "USPS COLLECTION BOX - PO LOBBY", "note": "ON 12/24 AND 12/31, THIS BOX MAY BE COLLECTED AS EARLY AS 12 NOON.", "nsi_id": "unitedstatespostalservice-a77078", "operator": "United States Postal Service", "operator:short": "USPS", "operator:type": "public", "operator:wikidata": "Q668687", "ref": "6879000003"}, "type": "Feature"}
{"dataset_attributes": {"@spider": "usps_collection_boxes"}, "geometry": {"coordinates": [-96.915733833, 41.988060638], "type": "Point"}, "id": "yugO3iIC-tV5BDMbubQdwQpwAvQ=", "properties": {"@spider": "usps_collection_boxes", "addr:city": "WISNER", "addr:country": "US", "addr:full": "1120 AVENUE E", "addr:postcode": "68791", "addr:state": "NE", "amenity": "post_box", "brand": "United States Postal Service", "brand:wikidata": "Q668687", "collection_times": "Mo-Sa 14:45", "name": "USPS COLLECTION BOX - BLUE BOX", "note": "ON 12/24 AND 12/31, THIS BOX MAY BE COLLECTED AS EARLY AS 12 NOON.", "nsi_id": "unitedstatespostalservice-a77078", "operator": "United States Postal Service", "operator:short": "USPS", "operator:type": "public", "operator:wikidata": "Q668687", "ref": "6879100001"}, "type": "Feature"}
{"dataset_attributes": {"@spider": "usps_collection_boxes"}, "geometry": {"coordinates": [-96.915733833, 41.988060638], "type": "Point"}, "id": "ta51poz7eZYaBEeX_NZs7Ix1VZ0=", "properties": {"@spider": "usps_collection_boxes", "addr:city": "WISNER", "addr:country": "US", "addr:full": "1120 AVENUE E", "addr:postcode": "68791", "addr:state": "NE", "amenity": "post_box", "brand": "United States Postal Service", "brand:wikidata": "Q668687", "collection_times": "Mo-Fr 14:45; Sa 09:45", "name": "USPS COLLECTION BOX - PO LOBBY", "note": "ON 12/24 AND 12/31, THIS BOX MAY BE COLLECTED AS EARLY AS 12 NOON.", "nsi_id": "unitedstatespostalservice-a77078", "operator": "United States Postal Service", "operator:short": "USPS", "operator:type": "public", "operator:wikidata": "Q668687", "ref": "6879100002"}, "type": "Feature"}
{"dataset_attributes": {"@spider": "usps_collection_boxes"}, "geometry": {"coordinates": [-96.915733833, 41.988060638], "type": "Point"}, "id": "g94D_qfBUe13fm-m10urYkaVLsU=", "properties": {"@spider": "usps_collection_boxes", "addr:city": "WISNER", "addr:country": "US", "addr:full": "1120 AVENUE E", "addr:postcode": "68791", "addr:state": "NE", "amenity": "post_box", "brand": "United States Postal Service", "brand:wikidata": "Q668687", "collection_times": "Mo-Fr 14:45; Sa 09:45", "name": "USPS COLLECTION BOX - PO LOBBY", "note": "ON 12/24 AND 12/31, THIS BOX MAY BE COLLECTED AS EARLY AS 12 NOON.", "nsi_id": "unitedstatespostalservice-a77078", "operator": "United States Postal Service", "operator:short": "USPS", "operator:type": "public", "operator:wikidata": "Q668687", "ref": "6879100003"}, "type": "Feature"}
{"dataset_attributes": {"@spider": "usps_collection_boxes"}, "geometry": {"coordinates": [-97.169258591, 42.739395955], "type": "Point"}, "id": "qBP9zG2b3H-MgTolHJlhpH32NtY=", "properties": {"@spider": "usps_collection_boxes", "addr:city": "WYNOT", "addr:country": "US", "addr:full": "418 SAINT JAMES AVE", "addr:postcode": "68792", "addr:state": "NE", "amenity": "post_box", "brand": "United States Postal Service", "brand:wikidata": "Q668687", "collection_times": "Mo-Sa 12:45", "name": "USPS COLLECTION BOX - BLUE BOX", "note": "ON 12/24 AND 12/31, THIS BOX MAY BE COLLECTED AS EARLY AS 12 NOON.", "nsi_id": "unitedstatespostalservice-a77078", "operator": "United States Postal Service", "operator:short": "USPS", "operator:type": "public", "operator:wikidata": "Q668687", "ref": "6879200001"}, "type": "Feature"}
{"dataset_attributes": {"@spider": "usps_collection_boxes"}, "geometry": {"coordinates": [-97.169258591, 42.739395955], "type": "Point"}, "id": "KPkV3OvDalCZ9_6TCWvzDXMpVJQ=", "properties": {"@spider": "usps_collection_boxes", "addr:city": "WYNOT", "addr:country": "US", "addr:full": "418 SAINT JAMES AVE", "addr:postcode": "68792", "addr:state": "NE", "amenity": "post_box", "brand": "United States Postal Service", "brand:wikidata": "Q668687", "collection_times": "Mo-Fr 12:45; Sa 10:45", "name": "USPS COLLECTION BOX - PO LOBBY", "note": "ON 12/24 AND 12/31, THIS BOX MAY BE COLLECTED AS EARLY AS 12 NOON.", "nsi_id": "unitedstatespostalservice-a77078", "operator": "United States Postal Service", "operator:short": "USPS", "operator:type": "public", "operator:wikidata": "Q668687", "ref": "6879200002"}, "type": "Feature"}
{"dataset_attributes": {"@spider": "usps_collection_boxes"}, "geometry": {"coordinates": [-97.169258591, 42.739395955], "type": "Point"}, "id": "IHD_UV5fxqK6kFkY6BMQJNBOKwY=", "properties": {"@spider": "usps_collection_boxes", "addr:city": "WYNOT", "addr:country": "US", "addr:full": "418 SAINT JAMES AVE", "addr:postcode": "68792", "addr:state": "NE", "amenity": "post_box", "brand": "United States Postal Service", "brand:wikidata": "Q668687", "collection_times": "Mo-Fr 12:45; Sa 10:45", "name": "USPS COLLECTION BOX - PO LOBBY", "note": "ON 12/24 AND 12/31, THIS BOX MAY BE COLLECTED AS EARLY AS 12 NOON.", "nsi_id": "unitedstatespostalservice-a77078", "operator": "United States Postal Service", "operator:short": "USPS", "operator:type": "public", "operator:wikidata": "Q668687", "ref": "6879200003"}, "type": "Feature"}
