{"geometry": {"coordinates": [-98.358834129, 40.940649052], "type": "Point"}, "id": "XJ-z7ZYLq6IPiKwEFCuyXyGHTXc=", "properties": {"@source_uri": "https://tools.usps.com/UspsToolsRestServices/rest/POLocator/findLocations", "@spider": "usps_collection_boxes", "addr:city": "GRAND ISLAND", "addr:country": "US", "addr:postcode": "68801", "addr:state": "NE", "addr:street_address": "2015 N BROADWELL AVE", "amenity": "post_box", "collection_times": "Mo-Fr 14:25; Sa 14:50", "note": "ON 12/24 AND 12/31, THIS BOX MAY BE COLLECTED AS EARLY AS 12 NOON.", "nsi_id": "unitedstatespostalservice-a77078", "operator": "United States Postal Service", "operator:short": "USPS", "operator:type": "public", "operator:wikidata": "Q668687", "ref": "6880100045"}, "type": "Feature"}
{"geometry": {"coordinates": [-98.3376750156, 40.9054189878], "type": "Point"}, "id": "m1s47Z-WwsASTxnONt16kQ07-xE=", "properties": {"@source_uri": "https://tools.usps.com/UspsToolsRestServices/rest/POLocator/findLocations", "@spider": "usps_collection_boxes", "addr:city": "GRAND ISLAND", "addr:country": "US", "addr:postcode": "68801", "addr:state": "NE", "addr:street_address": "1607 S LOCUST ST", "amenity": "post_box", "collection_times": "Mo-Fr 13:45; Sa 13:10", "note": "ON 12/24 AND 12/31, THIS BOX MAY BE COLLECTED AS EARLY AS 12 NOON.", "nsi_id": "unitedstatespostalservice-a77078", "operator": "United States Postal Service", "operator:short": "USPS", "operator:type": "public", "operator:wikidata": "Q668687", "ref": "6880100048"}, "type": "Feature"}
{"geometry": {"coordinates": [-98.341994765, 40.926119269], "type": "Point"}, "id": "G62kOHifVF9bhkfzO64OavXwHqo=", "properties": {"@source_uri": "https://tools.usps.com/UspsToolsRestServices/rest/POLocator/findLocations", "@spider": "usps_collection_boxes", "addr:city": "GRAND ISLAND", "addr:country": "US", "addr:postcode": "68801", "addr:state": "NE", "addr:street_address": "204 W SOUTH FRONT ST", "amenity": "post_box", "collection_times": "Mo-Fr 15:35; Sa 15:25", "note": "ON 12/24 AND 12/31, THIS BOX MAY BE COLLECTED AS EARLY AS 12 NOON.", "nsi_id": "unitedstatespostalservice-a77078", "operator": "United States Postal Service", "operator:short": "USPS", "operator:type": "public", "operator:wikidata": "Q668687", "ref": "6880100069"}, "type": "Feature"}
{"geometry": {"coordinates": [-98.363670753, 40.924179509], "type": "Point"}, "id": "xEceyTy6NpV32KxbW2BmxKpadvY=", "properties": {"@source_uri": "https://tools.usps.com/UspsToolsRestServices/rest/POLocator/findLocations", "@spider": "usps_collection_boxes", "addr:city": "GRAND ISLAND", "addr:country": "US", "addr:postcode": "68801", "addr:state": "NE", "addr:street_address": "2116 W FAIDLEY AVE", "amenity": "post_box", "collection_times": "Mo-Fr 12:35; Sa 12:30", "note": "ON 12/24 AND 12/31, THIS BOX MAY BE COLLECTED AS EARLY AS 12 NOON.", "nsi_id": "unitedstatespostalservice-a77078", "operator": "United States Postal Service", "operator:short": "USPS", "operator:type": "public", "operator:wikidata": "Q668687", "ref": "6880100076"}, "type": "Feature"}
{"geometry": {"coordinates": [-98.358209152, 40.917200994], "type": "Point"}, "id": "5wMklMfe4WxmO6hCJh72lZsgzsA=", "properties": {"@source_uri": "https://tools.usps.com/UspsToolsRestServices/rest/POLocator/findLocations", "@spider": "usps_collection_boxes", "addr:city": "GRAND ISLAND", "addr:country": "US", "addr:postcode": "68803", "addr:state": "NE", "addr:street_address": "1811 W 2ND ST", "amenity": "post_box", "collection_times": "Mo-Sa 14:00", "note": "ON 12/24 AND 12/31, THIS BOX MAY BE COLLECTED AS EARLY AS 12 NOON.", "nsi_id": "unitedstatespostalservice-a77078", "operator": "United States Postal Service", "operator:short": "USPS", "operator:type": "public", "operator:wikidata": "Q668687", "ref": "6880300001"}, "type": "Feature"}
{"geometry": {"coordinates": [-98.367723, 40.924236454], "type": "Point"}, "id": "_aar7ZKE8TdOvP_-DDDC_0ds0XM=", "properties": {"@source_uri": "https://tools.usps.com/UspsToolsRestServices/rest/POLocator/findLocations", "@spider": "usps_collection_boxes", "addr:city": "GRAND ISLAND", "addr:country": "US", "addr:postcode": "68803", "addr:state": "NE", "addr:street_address": "2444 W FAIDLEY AVE", "amenity": "post_box", "collection_times": "Mo-Fr 09:30", "nsi_id": "unitedstatespostalservice-a77078", "operator": "United States Postal Service", "operator:short": "USPS", "operator:type": "public", "operator:wikidata": "Q668687", "ref": "6880300012"}, "type": "Feature"}
{"geometry": {"coordinates": [-98.370684, 40.924270508], "type": "Point"}, "id": "EjUACxgEmCzBjv9AxE3ZB929988=", "properties": {"@source_uri": "https://tools.usps.com/UspsToolsRestServices/rest/POLocator/findLocations", "@spider": "usps_collection_boxes", "addr:city": "GRAND ISLAND", "addr:country": "US", "addr:postcode": "68803", "addr:state": "NE", "addr:street_address": "2620 W FAIDLEY AVE", "amenity": "post_box", "collection_times": "Mo-Sa 13:45", "note": "ON 12/24 AND 12/31, THIS BOX MAY BE COLLECTED AS EARLY AS 12 NOON.", "nsi_id": "unitedstatespostalservice-a77078", "operator": "United States Postal Service", "operator:short": "USPS", "operator:type": "public", "operator:wikidata": "Q668687", "ref": "6880300013"}, "type": "Feature"}
{"geometry": {"coordinates": [-98.378394636, 40.913487], "type": "Point"}, "id": "5GyDUE0CzRbobi5BRvKKPzoL3hs=", "properties": {"@source_uri": "https://tools.usps.com/UspsToolsRestServices/rest/POLocator/findLocations", "@spider": "usps_collection_boxes", "addr:city": "GRAND ISLAND", "addr:country": "US", "addr:postcode": "68803", "addr:state": "NE", "addr:street_address": "515 S WEBB RD", "amenity": "post_box", "collection_times": "Mo-Sa 09:45", "nsi_id": "unitedstatespostalservice-a77078", "operator": "United States Postal Service", "operator:short": "USPS", "operator:type": "public", "operator:wikidata": "Q668687", "ref": "6880300024"}, "type": "Feature"}
{"geometry": {"coordinates": [-98.392041, 40.917024525], "type": "Point"}, "id": "VP97umEEyaNJ4nFjrKvttBB7B_k=", "properties": {"@source_uri": "https://tools.usps.com/UspsToolsRestServices/rest/POLocator/findLocations", "@spider": "usps_collection_boxes", "addr:city": "GRAND ISLAND", "addr:country": "US", "addr:postcode": "68803", "addr:state": "NE", "addr:street_address": "3835 W OLD POTASH HWY", "amenity": "post_box", "collection_times": "Mo-Sa 16:15", "note": "ON 12/24 AND 12/31, THIS BOX MAY BE COLLECTED AS EARLY AS 12 NOON.", "nsi_id": "unitedstatespostalservice-a77078", "operator": "United States Postal Service", "operator:short": "USPS", "operator:type": "public", "operator:wikidata": "Q668687", "ref": "6880300027"}, "type": "Feature"}
{"geometry": {"coordinates": [-98.38389986, 40.934033246], "type": "Point"}, "id": "_CkHginPiES2HTMyHHW0sUo6n6U=", "properties": {"@source_uri": "https://tools.usps.com/UspsToolsRestServices/rest/POLocator/findLocations", "@spider": "usps_collection_boxes", "addr:city": "GRAND ISLAND", "addr:country": "US", "addr:postcode": "68803", "addr:state": "NE", "addr:street_address": "1510 N DIERS AVE", "amenity": "post_box", "collection_times": "Mo-Sa 11:30", "nsi_id": "unitedstatespostalservice-a77078", "operator": "United States Postal Service", "operator:short": "USPS", "operator:type": "public", "operator:wikidata": "Q668687", "ref": "6880300034"}, "type": "Feature"}
{"geometry": {"coordinates": [-98.392041, 40.917024525], "type": "Point"}, "id": "5Vi1Y3MHSJTh3OJH9Iav_SHw9SI=", "properties": {"@source_uri": "https://tools.usps.com/UspsToolsRestServices/rest/POLocator/findLocations", "@spider": "usps_collection_boxes", "addr:city": "GRAND ISLAND", "addr:country": "US", "addr:postcode": "68803", "addr:state": "NE", "addr:street_address": "3835 W OLD POTASH HWY", "amenity": "post_box", "collection_times": "Mo-Sa 16:15", "indoor": "yes", "note": "ON 12/24 AND 12/31, THIS BOX MAY BE COLLECTED AS EARLY AS 12 NOON.", "nsi_id": "unitedstatespostalservice-a77078", "operator": "United States Postal Service", "operator:short": "USPS", "operator:type": "public", "operator:wikidata": "Q668687", "ref": "6880300041"}, "type": "Feature"}
{"geometry": {"coordinates": [-98.392041, 40.917024525], "type": "Point"}, "id": "QJTnrh_LAUidAJDGFTWyi6CJ-Dg=", "properties": {"@source_uri": "https://tools.usps.com/UspsToolsRestServices/rest/POLocator/findLocations", "@spider": "usps_collection_boxes", "addr:city": "GRAND ISLAND", "addr:country": "US", "addr:postcode": "68803", "addr:state": "NE", "addr:street_address": "3835 W OLD POTASH HWY", "amenity": "post_box", "collection_times": "Mo-Sa 16:15", "indoor": "yes", "note": "ON 12/24 AND 12/31, THIS BOX MAY BE COLLECTED AS EARLY AS 12 NOON.", "nsi_id": "unitedstatespostalservice-a77078", "operator": "United States Postal Service", "operator:short": "USPS", "operator:type": "public", "operator:wikidata": "Q668687", "ref": "6880300042"}, "type": "Feature"}
{"geometry": {"coordinates": [-98.467253622, 40.870261036], "type": "Point"}, "id": "d3rrk015SQvJ5giAxiUp6S5km2w=", "properties": {"@source_uri": "https://tools.usps.com/UspsToolsRestServices/rest/POLocator/findLocations", "@spider": "usps_collection_boxes", "addr:city": "ALDA", "addr:country": "US", "addr:postcode": "68810", "addr:state": "NE", "addr:street_address": "102 E FRONT ST", "amenity": "post_box", "collection_times": "Mo-Sa 15:15", "note": "ON 12/24 AND 12/31, THIS BOX MAY BE COLLECTED AS EARLY AS 12 NOON.", "nsi_id": "unitedstatespostalservice-a77078", "operator": "United States Postal Service", "operator:short": "USPS", "operator:type": "public", "operator:wikidata": "Q668687", "ref": "6881000001"}, "type": "Feature"}
{"geometry": {"coordinates": [-98.467253622, 40.870261036], "type": "Point"}, "id": "TBYbXeMVQOuQ-3L2_n_cdJse9MM=", "properties": {"@source_uri": "https://tools.usps.com/UspsToolsRestServices/rest/POLocator/findLocations", "@spider": "usps_collection_boxes", "addr:city": "ALDA", "addr:country": "US", "addr:postcode": "68810", "addr:state": "NE", "addr:street_address": "102 E FRONT ST", "amenity": "post_box", "collection_times": "Mo-Fr 11:45; Sa 08:45", "indoor": "yes", "nsi_id": "unitedstatespostalservice-a77078", "operator": "United States Postal Service", "operator:short": "USPS", "operator:type": "public", "operator:wikidata": "Q668687", "ref": "6881000002"}, "type": "Feature"}
{"geometry": {"coordinates": [-98.467253622, 40.870261036], "type": "Point"}, "id": "I1PaukIvF5_9L3W2bRIGUPf4EZ4=", "properties": {"@source_uri": "https://tools.usps.com/UspsToolsRestServices/rest/POLocator/findLocations", "@spider": "usps_collection_boxes", "addr:city": "ALDA", "addr:country": "US", "addr:postcode": "68810", "addr:state": "NE", "addr:street_address": "102 E FRONT ST", "amenity": "post_box", "collection_times": "Mo-Fr 11:45; Sa 08:45", "indoor": "yes", "nsi_id": "unitedstatespostalservice-a77078", "operator": "United States Postal Service", "operator:short": "USPS", "operator:type": "public", "operator:wikidata": "Q668687", "ref": "6881000003"}, "type": "Feature"}
{"geometry": {"coordinates": [-99.270143136, 40.838538978], "type": "Point"}, "id": "t3UmrYEe8Pxahb1VhvKaFgU8Qw4=", "properties": {"@source_uri": "https://tools.usps.com/UspsToolsRestServices/rest/POLocator/findLocations", "@spider": "usps_collection_boxes", "addr:city": "AMHERST", "addr:country": "US", "addr:postcode": "68812", "addr:state": "NE", "addr:street_address": "119 N MAIN ST", "amenity": "post_box", "collection_times": "Mo-Fr 13:45; Sa 08:45", "note": "ON 12/24 AND 12/31, THIS BOX MAY BE COLLECTED AS EARLY AS 12 NOON.", "nsi_id": "unitedstatespostalservice-a77078", "operator": "United States Postal Service", "operator:short": "USPS", "operator:type": "public", "operator:wikidata": "Q668687", "ref": "6881200001"}, "type": "Feature"}
{"geometry": {"coordinates": [-99.270143136, 40.838538978], "type": "Point"}, "id": "4WsgweToZAhS4gztz3ap0Opr_d8=", "properties": {"@source_uri": "https://tools.usps.com/UspsToolsRestServices/rest/POLocator/findLocations", "@spider": "usps_collection_boxes", "addr:city": "AMHERST", "addr:country": "US", "addr:postcode": "68812", "addr:state": "NE", "addr:street_address": "119 N MAIN ST", "amenity": "post_box", "collection_times": "Mo-Fr 13:20; Sa 08:45", "indoor": "yes", "note": "ON 12/24 AND 12/31, THIS BOX MAY BE COLLECTED AS EARLY AS 12 NOON.", "nsi_id": "unitedstatespostalservice-a77078", "operator": "United States Postal Service", "operator:short": "USPS", "operator:type": "public", "operator:wikidata": "Q668687", "ref": "6881200002"}, "type": "Feature"}
{"geometry": {"coordinates": [-99.270143136, 40.838538978], "type": "Point"}, "id": "F3whUnt1jgzntIh36Z3ySaNZzpY=", "properties": {"@source_uri": "https://tools.usps.com/UspsToolsRestServices/rest/POLocator/findLocations", "@spider": "usps_collection_boxes", "addr:city": "AMHERST", "addr:country": "US", "addr:postcode": "68812", "addr:state": "NE", "addr:street_address": "119 N MAIN ST", "amenity": "post_box", "collection_times": "Mo-Fr 13:20; Sa 08:45", "indoor": "yes", "note": "ON 12/24 AND 12/31, THIS BOX MAY BE COLLECTED AS EARLY AS 12 NOON.", "nsi_id": "unitedstatespostalservice-a77078", "operator": "United States Postal Service", "operator:short": "USPS", "operator:type": "public", "operator:wikidata": "Q668687", "ref": "6881200003"}, "type": "Feature"}
{"geometry": {"coordinates": [-99.864523359, 41.618641442], "type": "Point"}, "id": "F6QVWHz_ZEk9nRu44YxvA3A0EMU=", "properties": {"@source_uri": "https://tools.usps.com/UspsToolsRestServices/rest/POLocator/findLocations", "@spider": "usps_collection_boxes", "addr:city": "ANSELMO", "addr:country": "US", "addr:postcode": "68813", "addr:state": "NE", "addr:street_address": "114 E SMITH AVE", "amenity": "post_box", "collection_times": "Mo-Fr 12:45; Sa 09:45", "note": "ON 12/24 AND 12/31, THIS BOX MAY BE COLLECTED AS EARLY AS 12 NOON.", "nsi_id": "unitedstatespostalservice-a77078", "operator": "United States Postal Service", "operator:short": "USPS", "operator:type": "public", "operator:wikidata": "Q668687", "ref": "6881300000"}, "type": "Feature"}
{"geometry": {"coordinates": [-99.864523359, 41.618641442], "type": "Point"}, "id": "Po6k-Cu34b_1IpJLSlvcr7AH4gg=", "properties": {"@source_uri": "https://tools.usps.com/UspsToolsRestServices/rest/POLocator/findLocations", "@spider": "usps_collection_boxes", "addr:city": "ANSELMO", "addr:country": "US", "addr:postcode": "68813", "addr:state": "NE", "addr:street_address": "114 E SMITH AVE", "amenity": "post_box", "collection_times": "Mo-Fr 11:50; Sa 10:50", "indoor": "yes", "nsi_id": "unitedstatespostalservice-a77078", "operator": "United States Postal Service", "operator:short": "USPS", "operator:type": "public", "operator:wikidata": "Q668687", "ref": "6881300001"}, "type": "Feature"}
{"geometry": {"coordinates": [-99.864523359, 41.618641442], "type": "Point"}, "id": "fIj1x8IPDVbMklcUGbDc1lNaZis=", "properties": {"@source_uri": "https://tools.usps.com/UspsToolsRestServices/rest/POLocator/findLocations", "@spider": "usps_collection_boxes", "addr:city": "ANSELMO", "addr:country": "US", "addr:postcode": "68813", "addr:state": "NE", "addr:street_address": "114 E SMITH AVE", "amenity": "post_box", "collection_times": "Mo-Fr 11:50; Sa 10:50", "indoor": "yes", "nsi_id": "unitedstatespostalservice-a77078", "operator": "United States Postal Service", "operator:short": "USPS", "operator:type": "public", "operator:wikidata": "Q668687", "ref": "6881300002"}, "type": "Feature"}
{"geometry": {"coordinates": [-99.38343128, 41.28795949], "type": "Point"}, "id": "3HtrCVYr0qpFbPqmALDbLVzQ6lk=", "properties": {"@source_uri": "https://tools.usps.com/UspsToolsRestServices/rest/POLocator/findLocations", "@spider": "usps_collection_boxes", "addr:city": "ANSLEY", "addr:country": "US", "addr:postcode": "68814", "addr:state": "NE", "addr:street_address": "806 MAIN ST", "amenity": "post_box", "collection_times": "Mo-Fr 14:45; Sa 09:30", "note": "ON 12/24 AND 12/31, THIS BOX MAY BE COLLECTED AS EARLY AS 12 NOON.", "nsi_id": "unitedstatespostalservice-a77078", "operator": "United States Postal Service", "operator:short": "USPS", "operator:type": "public", "operator:wikidata": "Q668687", "ref": "6881400001"}, "type": "Feature"}
{"geometry": {"coordinates": [-99.38343128, 41.28795949], "type": "Point"}, "id": "F_DQNAelDXysati346UiWxX50Ts=", "properties": {"@source_uri": "https://tools.usps.com/UspsToolsRestServices/rest/POLocator/findLocations", "@spider": "usps_collection_boxes", "addr:city": "ANSLEY", "addr:country": "US", "addr:postcode": "68814", "addr:state": "NE", "addr:street_address": "806 MAIN ST", "amenity": "post_box", "collection_times": "Mo-Fr 13:00; Sa 08:30", "indoor": "yes", "note": "ON 12/24 AND 12/31, THIS BOX MAY BE COLLECTED AS EARLY AS 12 NOON.", "nsi_id": "unitedstatespostalservice-a77078", "operator": "United States Postal Service", "operator:short": "USPS", "operator:type": "public", "operator:wikidata": "Q668687", "ref": "6881400002"}, "type": "Feature"}
{"geometry": {"coordinates": [-99.38343128, 41.28795949], "type": "Point"}, "id": "M_fF-z5lmppXyAb8uOGarBFmzos=", "properties": {"@source_uri": "https://tools.usps.com/UspsToolsRestServices/rest/POLocator/findLocations", "@spider": "usps_collection_boxes", "addr:city": "ANSLEY", "addr:country": "US", "addr:postcode": "68814", "addr:state": "NE", "addr:street_address": "806 MAIN ST", "amenity": "post_box", "collection_times": "Mo-Fr 13:00; Sa 08:30", "indoor": "yes", "note": "ON 12/24 AND 12/31, THIS BOX MAY BE COLLECTED AS EARLY AS 12 NOON.", "nsi_id": "unitedstatespostalservice-a77078", "operator": "United States Postal Service", "operator:short": "USPS", "operator:type": "public", "operator:wikidata": "Q668687", "ref": "6881400003"}, "type": "Feature"}
{"geometry": {"coordinates": [-99.125705014, 41.423222284], "type": "Point"}, "id": "XZjq0WmWkJ7twok0KGitBlCp7bs=", "properties": {"@source_uri": "https://tools.usps.com/UspsToolsRestServices/rest/POLocator/findLocations", "@spider": "usps_collection_boxes", "addr:city": "ARCADIA", "addr:country": "US", "addr:postcode": "68815", "addr:state": "NE", "addr:street_address": "125 W BRIDGE ST", "amenity": "post_box", "collection_times": "Mo-Fr 14:15; Sa 08:45", "note": "ON 12/24 AND 12/31, THIS BOX MAY BE COLLECTED AS EARLY AS 12 NOON.", "nsi_id": "unitedstatespostalservice-a77078", "operator": "United States Postal Service", "operator:short": "USPS", "operator:type": "public", "operator:wikidata": "Q668687", "ref": "6881500001"}, "type": "Feature"}
{"geometry": {"coordinates": [-99.125705014, 41.423222284], "type": "Point"}, "id": "h91oK8LT7SDalTUKV540bEfT4_0=", "properties": {"@source_uri": "https://tools.usps.com/UspsToolsRestServices/rest/POLocator/findLocations", "@spider": "usps_collection_boxes", "addr:city": "ARCADIA", "addr:country": "US", "addr:postcode": "68815", "addr:state": "NE", "addr:street_address": "125 W BRIDGE ST", "amenity": "post_box", "collection_times": "Mo-Fr 13:25; Sa 08:45", "indoor": "yes", "note": "ON 12/24 AND 12/31, THIS BOX MAY BE COLLECTED AS EARLY AS 12 NOON.", "nsi_id": "unitedstatespostalservice-a77078", "operator": "United States Postal Service", "operator:short": "USPS", "operator:type": "public", "operator:wikidata": "Q668687", "ref": "6881500002"}, "type": "Feature"}
{"geometry": {"coordinates": [-99.125705014, 41.423222284], "type": "Point"}, "id": "S9diNcEDDMMpS3QXeAP1Lu67OqQ=", "properties": {"@source_uri": "https://tools.usps.com/UspsToolsRestServices/rest/POLocator/findLocations", "@spider": "usps_collection_boxes", "addr:city": "ARCADIA", "addr:country": "US", "addr:postcode": "68815", "addr:state": "NE", "addr:street_address": "125 W BRIDGE ST", "amenity": "post_box", "collection_times": "Mo-Fr 13:25; Sa 08:45", "indoor": "yes", "note": "ON 12/24 AND 12/31, THIS BOX MAY BE COLLECTED AS EARLY AS 12 NOON.", "nsi_id": "unitedstatespostalservice-a77078", "operator": "United States Postal Service", "operator:short": "USPS", "operator:type": "public", "operator:wikidata": "Q668687", "ref": "6881500003"}, "type": "Feature"}
{"geometry": {"coordinates": [-98.135870114, 41.162806223], "type": "Point"}, "id": "ikULXmdf--F8O_HXO_N_kaJAoa0=", "properties": {"@source_uri": "https://tools.usps.com/UspsToolsRestServices/rest/POLocator/findLocations", "@spider": "usps_collection_boxes", "addr:city": "ARCHER", "addr:country": "US", "addr:postcode": "68816", "addr:state": "NE", "addr:street_address": "2121 ARCHER RD", "amenity": "post_box", "collection_times": "Mo-Sa 14:05", "note": "ON 12/24 AND 12/31, THIS BOX MAY BE COLLECTED AS EARLY AS 12 NOON.", "nsi_id": "unitedstatespostalservice-a77078", "operator": "United States Postal Service", "operator:short": "USPS", "operator:type": "public", "operator:wikidata": "Q668687", "ref": "6881600000"}, "type": "Feature"}
{"geometry": {"coordinates": [-98.793994404, 41.247915682], "type": "Point"}, "id": "BUspC0u72n6WYyvSFGwdowboY7U=", "properties": {"@source_uri": "https://tools.usps.com/UspsToolsRestServices/rest/POLocator/findLocations", "@spider": "usps_collection_boxes", "addr:city": "ASHTON", "addr:country": "US", "addr:postcode": "68817", "addr:state": "NE", "addr:street_address": "301 CENTER AVE", "amenity": "post_box", "collection_times": "Mo-Fr 12:45; Sa 08:30", "note": "ON 12/24 AND 12/31, THIS BOX MAY BE COLLECTED AS EARLY AS 12 NOON.", "nsi_id": "unitedstatespostalservice-a77078", "operator": "United States Postal Service", "operator:short": "USPS", "operator:type": "public", "operator:wikidata": "Q668687", "ref": "6881700001"}, "type": "Feature"}
{"geometry": {"coordinates": [-98.793994404, 41.247915682], "type": "Point"}, "id": "5NK4zIDBJyznDZywEYa7ldqKr5w=", "properties": {"@source_uri": "https://tools.usps.com/UspsToolsRestServices/rest/POLocator/findLocations", "@spider": "usps_collection_boxes", "addr:city": "ASHTON", "addr:country": "US", "addr:postcode": "68817", "addr:state": "NE", "addr:street_address": "301 CENTER AVE", "amenity": "post_box", "collection_times": "Mo-Fr 12:45; Sa 08:30", "indoor": "yes", "note": "ON 12/24 AND 12/31, THIS BOX MAY BE COLLECTED AS EARLY AS 12 NOON.", "nsi_id": "unitedstatespostalservice-a77078", "operator": "United States Postal Service", "operator:short": "USPS", "operator:type": "public", "operator:wikidata": "Q668687", "ref": "6881700002"}, "type": "Feature"}
{"geometry": {"coordinates": [-98.793994404, 41.247915682], "type": "Point"}, "id": "2U9XcCaHAaH3fZd8u-ao3VLoG2A=", "properties": {"@source_uri": "https://tools.usps.com/UspsToolsRestServices/rest/POLocator/findLocations", "@spider": "usps_collection_boxes", "addr:city": "ASHTON", "addr:country": "US", "addr:postcode": "68817", "addr:state": "NE", "addr:street_address": "301 CENTER AVE", "amenity": "post_box", "collection_times": "Mo-Fr 12:45; Sa 08:30", "indoor": "yes", "note": "ON 12/24 AND 12/31, THIS BOX MAY BE COLLECTED AS EARLY AS 12 NOON.", "nsi_id": "unitedstatespostalservice-a77078", "operator": "United States Postal Service", "operator:short": "USPS", "operator:type": "public", "operator:wikidata": "Q668687", "ref": "6881700003"}, "type": "Feature"}
{"geometry": {"coordinates": [-97.997666227, 40.87018845], "type": "Point"}, "id": "FxiBBBWjtA2vMwIM2qFsjd_R6ho=", "properties": {"@source_uri": "https://tools.usps.com/UspsToolsRestServices/rest/POLocator/findLocations", "@spider": "usps_collection_boxes", "addr:city": "AURORA", "addr:country": "US", "addr:postcode": "68818", "addr:state": "NE", "addr:street_address": "1320 16TH ST", "amenity": "post_box", "collection_times": "Mo-Sa 10:29", "nsi_id": "unitedstatespostalservice-a77078", "operator": "United States Postal Service", "operator:short": "USPS", "operator:type": "public", "operator:wikidata": "Q668687", "ref": "6881800004"}, "type": "Feature"}
{"geometry": {"coordinates": [-98.003909978, 40.867509987], "type": "Point"}, "id": "F7v6fjkH6YcXSpwvMkqJx0VRxUI=", "properties": {"@source_uri": "https://tools.usps.com/UspsToolsRestServices/rest/POLocator/findLocations", "@spider": "usps_collection_boxes", "addr:city": "AURORA", "addr:country": "US", "addr:postcode": "68818", "addr:state": "NE", "addr:street_address": "1105 L ST", "amenity": "post_box", "collection_times": "Mo-Fr 13:55; Sa 09:45", "indoor": "yes", "note": "ON 12/24 AND 12/31, THIS BOX MAY BE COLLECTED AS EARLY AS 12 NOON.", "nsi_id": "unitedstatespostalservice-a77078", "operator": "United States Postal Service", "operator:short": "USPS", "operator:type": "public", "operator:wikidata": "Q668687", "ref": "6881800008"}, "type": "Feature"}
{"geometry": {"coordinates": [-98.003909978, 40.867509987], "type": "Point"}, "id": "TWCNNLtZJjrtGwxFEtIVkO2-Jlw=", "properties": {"@source_uri": "https://tools.usps.com/UspsToolsRestServices/rest/POLocator/findLocations", "@spider": "usps_collection_boxes", "addr:city": "AURORA", "addr:country": "US", "addr:postcode": "68818", "addr:state": "NE", "addr:street_address": "1105 L ST", "amenity": "post_box", "collection_times": "Mo-Fr 13:55; Sa 09:45", "indoor": "yes", "note": "ON 12/24 AND 12/31, THIS BOX MAY BE COLLECTED AS EARLY AS 12 NOON.", "nsi_id": "unitedstatespostalservice-a77078", "operator": "United States Postal Service", "operator:short": "USPS", "operator:type": "public", "operator:wikidata": "Q668687", "ref": "6881800010"}, "type": "Feature"}
{"geometry": {"coordinates": [-98.715334507, 41.072511363], "type": "Point"}, "id": "ZW_2Ji_XwL8tbJU2xLSgMdDP3_U=", "properties": {"@source_uri": "https://tools.usps.com/UspsToolsRestServices/rest/POLocator/findLocations", "@spider": "usps_collection_boxes", "addr:city": "BOELUS", "addr:country": "US", "addr:postcode": "68820", "addr:state": "NE", "addr:street_address": "520 DELAWARE ST", "amenity": "post_box", "collection_times": "Mo-Fr 14:55; Sa 14:30", "note": "ON 12/24 AND 12/31, THIS BOX MAY BE COLLECTED AS EARLY AS 12 NOON.", "nsi_id": "unitedstatespostalservice-a77078", "operator": "United States Postal Service", "operator:short": "USPS", "operator:type": "public", "operator:wikidata": "Q668687", "ref": "6882000001"}, "type": "Feature"}
{"geometry": {"coordinates": [-98.715334507, 41.072511363], "type": "Point"}, "id": "P388O6UXh_YaSRFPrh8VJl0qJhk=", "properties": {"@source_uri": "https://tools.usps.com/UspsToolsRestServices/rest/POLocator/findLocations", "@spider": "usps_collection_boxes", "addr:city": "BOELUS", "addr:country": "US", "addr:postcode": "68820", "addr:state": "NE", "addr:street_address": "520 DELAWARE ST", "amenity": "post_box", "collection_times": "Mo-Fr 11:50; Sa 10:35", "indoor": "yes", "nsi_id": "unitedstatespostalservice-a77078", "operator": "United States Postal Service", "operator:short": "USPS", "operator:type": "public", "operator:wikidata": "Q668687", "ref": "6882000002"}, "type": "Feature"}
{"geometry": {"coordinates": [-98.715334507, 41.072511363], "type": "Point"}, "id": "ujdGLpkX8l90TydpUVksuoMIg4U=", "properties": {"@source_uri": "https://tools.usps.com/UspsToolsRestServices/rest/POLocator/findLocations", "@spider": "usps_collection_boxes", "addr:city": "BOELUS", "addr:country": "US", "addr:postcode": "68820", "addr:state": "NE", "addr:street_address": "520 DELAWARE ST", "amenity": "post_box", "collection_times": "Mo-Fr 11:50; Sa 10:35", "indoor": "yes", "nsi_id": "unitedstatespostalservice-a77078", "operator": "United States Postal Service", "operator:short": "USPS", "operator:type": "public", "operator:wikidata": "Q668687", "ref": "6882000003"}, "type": "Feature"}
{"geometry": {"coordinates": [-99.639049972, 41.402686472], "type": "Point"}, "id": "pDB4lRhfEAwwcpt-GVjzJnFBK7s=", "properties": {"@source_uri": "https://tools.usps.com/UspsToolsRestServices/rest/POLocator/findLocations", "@spider": "usps_collection_boxes", "addr:city": "BROKEN BOW", "addr:country": "US", "addr:postcode": "68822", "addr:state": "NE", "addr:street_address": "741 S D ST", "amenity": "post_box", "collection_times": "Mo-Fr 12:30; Sa 11:15", "note": "ON 12/24 AND 12/31, THIS BOX MAY BE COLLECTED AS EARLY AS 12 NOON.", "nsi_id": "unitedstatespostalservice-a77078", "operator": "United States Postal Service", "operator:short": "USPS", "operator:type": "public", "operator:wikidata": "Q668687", "ref": "6882200001"}, "type": "Feature"}
{"geometry": {"coordinates": [-99.641304, 41.402692486], "type": "Point"}, "id": "6_b5PPNO3lwsizQ_CVyKRA_-XO8=", "properties": {"@source_uri": "https://tools.usps.com/UspsToolsRestServices/rest/POLocator/findLocations", "@spider": "usps_collection_boxes", "addr:city": "BROKEN BOW", "addr:country": "US", "addr:postcode": "68822", "addr:state": "NE", "addr:street_address": "931 S D ST", "amenity": "post_box", "collection_times": "Mo-Sa 10:00", "nsi_id": "unitedstatespostalservice-a77078", "operator": "United States Postal Service", "operator:short": "USPS", "operator:type": "public", "operator:wikidata": "Q668687", "ref": "6882200003"}, "type": "Feature"}
{"geometry": {"coordinates": [-99.640637688, 41.401687812], "type": "Point"}, "id": "A4ZO7sLTJrlTcqvuQR3V6k2hLNo=", "properties": {"@source_uri": "https://tools.usps.com/UspsToolsRestServices/rest/POLocator/findLocations", "@spider": "usps_collection_boxes", "addr:city": "BROKEN BOW", "addr:country": "US", "addr:postcode": "68822", "addr:state": "NE", "addr:street_address": "900 S E ST", "amenity": "post_box", "collection_times": "Mo-Sa 10:00", "nsi_id": "unitedstatespostalservice-a77078", "operator": "United States Postal Service", "operator:short": "USPS", "operator:type": "public", "operator:wikidata": "Q668687", "ref": "6882200004"}, "type": "Feature"}
{"geometry": {"coordinates": [-99.641767627, 41.402223335], "type": "Point"}, "id": "nV71SZFkjzkOsyZR3zk32QPlGRU=", "properties": {"@source_uri": "https://tools.usps.com/UspsToolsRestServices/rest/POLocator/findLocations", "@spider": "usps_collection_boxes", "addr:city": "BROKEN BOW", "addr:country": "US", "addr:postcode": "68822", "addr:state": "NE", "addr:street_address": "431 S 10TH AVE", "amenity": "post_box", "collection_times": "Mo-Fr 10:00", "nsi_id": "unitedstatespostalservice-a77078", "operator": "United States Postal Service", "operator:short": "USPS", "operator:type": "public", "operator:wikidata": "Q668687", "ref": "6882200005"}, "type": "Feature"}
{"geometry": {"coordinates": [-99.639049972, 41.402686472], "type": "Point"}, "id": "9LnUWiALQ4u5ViULdiqWdG6XdnA=", "properties": {"@source_uri": "https://tools.usps.com/UspsToolsRestServices/rest/POLocator/findLocations", "@spider": "usps_collection_boxes", "addr:city": "BROKEN BOW", "addr:country": "US", "addr:postcode": "68822", "addr:state": "NE", "addr:street_address": "741 S D ST", "amenity": "post_box", "collection_times": "Mo-Fr 12:30; Sa 11:15", "indoor": "yes", "note": "ON 12/24 AND 12/31, THIS BOX MAY BE COLLECTED AS EARLY AS 12 NOON.", "nsi_id": "unitedstatespostalservice-a77078", "operator": "United States Postal Service", "operator:short": "USPS", "operator:type": "public", "operator:wikidata": "Q668687", "ref": "6882200013"}, "type": "Feature"}
{"geometry": {"coordinates": [-99.639049972, 41.402686472], "type": "Point"}, "id": "cqKp1IWx6EvyHh89kmRS1I5Qr-I=", "properties": {"@source_uri": "https://tools.usps.com/UspsToolsRestServices/rest/POLocator/findLocations", "@spider": "usps_collection_boxes", "addr:city": "BROKEN BOW", "addr:country": "US", "addr:postcode": "68822", "addr:state": "NE", "addr:street_address": "741 S D ST", "amenity": "post_box", "collection_times": "Mo-Fr 12:30; Sa 11:15", "indoor": "yes", "note": "ON 12/24 AND 12/31, THIS BOX MAY BE COLLECTED AS EARLY AS 12 NOON.", "nsi_id": "unitedstatespostalservice-a77078", "operator": "United States Postal Service", "operator:short": "USPS", "operator:type": "public", "operator:wikidata": "Q668687", "ref": "6882200014"}, "type": "Feature"}
{"geometry": {"coordinates": [-99.135317494, 41.780761628], "type": "Point"}, "id": "sLbQglz6CaVULTy39UWYX3DrEWE=", "properties": {"@source_uri": "https://tools.usps.com/UspsToolsRestServices/rest/POLocator/findLocations", "@spider": "usps_collection_boxes", "addr:city": "BURWELL", "addr:country": "US", "addr:postcode": "68823", "addr:state": "NE", "addr:street_address": "188 S 8TH AVE", "amenity": "post_box", "collection_times": "Mo-Fr 15:15; Sa 11:45", "note": "ON 12/24 AND 12/31, THIS BOX MAY BE COLLECTED AS EARLY AS 12 NOON.", "nsi_id": "unitedstatespostalservice-a77078", "operator": "United States Postal Service", "operator:short": "USPS", "operator:type": "public", "operator:wikidata": "Q668687", "ref": "6882300001"}, "type": "Feature"}
{"geometry": {"coordinates": [-99.006200473, 41.67954395], "type": "Point"}, "id": "dzi3JYOWRm3E9Iy4JW7Hx54eK_s=", "properties": {"@source_uri": "https://tools.usps.com/UspsToolsRestServices/rest/POLocator/findLocations", "@spider": "usps_collection_boxes", "addr:city": "BURWELL", "addr:country": "US", "addr:postcode": "68823", "addr:state": "NE", "addr:street_address": "300 VALLEY AVE", "amenity": "post_box", "collection_times": "Mo-Sa 13:00", "note": "ON 12/24 AND 12/31, THIS BOX MAY BE COLLECTED AS EARLY AS 12 NOON.", "nsi_id": "unitedstatespostalservice-a77078", "operator": "United States Postal Service", "operator:short": "USPS", "operator:type": "public", "operator:wikidata": "Q668687", "ref": "6882300004"}, "type": "Feature"}
{"geometry": {"coordinates": [-99.135317494, 41.780761628], "type": "Point"}, "id": "9yrArRbxPQo_gNoH0KcHYV9wYhg=", "properties": {"@source_uri": "https://tools.usps.com/UspsToolsRestServices/rest/POLocator/findLocations", "@spider": "usps_collection_boxes", "addr:city": "BURWELL", "addr:country": "US", "addr:postcode": "68823", "addr:state": "NE", "addr:street_address": "188 S 8TH AVE", "amenity": "post_box", "collection_times": "Mo-Fr 12:50; Sa 12:00", "indoor": "yes", "note": "ON 12/24 AND 12/31, THIS BOX MAY BE COLLECTED AS EARLY AS 12 NOON.", "nsi_id": "unitedstatespostalservice-a77078", "operator": "United States Postal Service", "operator:short": "USPS", "operator:type": "public", "operator:wikidata": "Q668687", "ref": "6882300006"}, "type": "Feature"}
{"geometry": {"coordinates": [-98.606411665, 41.000967533], "type": "Point"}, "id": "Vpr0pmzugZqcl4rxqxGcSp1OJeM=", "properties": {"@source_uri": "https://tools.usps.com/UspsToolsRestServices/rest/POLocator/findLocations", "@spider": "usps_collection_boxes", "addr:city": "CAIRO", "addr:country": "US", "addr:postcode": "68824", "addr:state": "NE", "addr:street_address": "108 E MEDINA ST", "amenity": "post_box", "collection_times": "Mo-Fr 14:15; Sa 09:45", "note": "ON 12/24 AND 12/31, THIS BOX MAY BE COLLECTED AS EARLY AS 12 NOON.", "nsi_id": "unitedstatespostalservice-a77078", "operator": "United States Postal Service", "operator:short": "USPS", "operator:type": "public", "operator:wikidata": "Q668687", "ref": "6882400001"}, "type": "Feature"}
{"geometry": {"coordinates": [-98.606411665, 41.000967533], "type": "Point"}, "id": "6Ex9OzlBZHUTbbM80DRsbXxE8C4=", "properties": {"@source_uri": "https://tools.usps.com/UspsToolsRestServices/rest/POLocator/findLocations", "@spider": "usps_collection_boxes", "addr:city": "CAIRO", "addr:country": "US", "addr:postcode": "68824", "addr:state": "NE", "addr:street_address": "108 E MEDINA ST", "amenity": "post_box", "collection_times": "Mo-Fr 14:15; Sa 09:45", "indoor": "yes", "note": "ON 12/24 AND 12/31, THIS BOX MAY BE COLLECTED AS EARLY AS 12 NOON.", "nsi_id": "unitedstatespostalservice-a77078", "operator": "United States Postal Service", "operator:short": "USPS", "operator:type": "public", "operator:wikidata": "Q668687", "ref": "6882400002"}, "type": "Feature"}
{"geometry": {"coordinates": [-98.606411665, 41.000967533], "type": "Point"}, "id": "GLbqWpCVzV1PahMgxix-2FWfJls=", "properties": {"@source_uri": "https://tools.usps.com/UspsToolsRestServices/rest/POLocator/findLocations", "@spider": "usps_collection_boxes", "addr:city": "CAIRO", "addr:country": "US", "addr:postcode": "68824", "addr:state": "NE", "addr:street_address": "108 E MEDINA ST", "amenity": "post_box", "collection_times": "Mo-Fr 14:15; Sa 09:45", "indoor": "yes", "note": "ON 12/24 AND 12/31, THIS BOX MAY BE COLLECTED AS EARLY AS 12 NOON.", "nsi_id": "unitedstatespostalservice-a77078", "operator": "United States Postal Service", "operator:short": "USPS", "operator:type": "public", "operator:wikidata": "Q668687", "ref": "6882400003"}, "type": "Feature"}
{"geometry": {"coordinates": [-99.925450866, 41.290950091], "type": "Point"}, "id": "jLjLz_-auPaW1SlMaZVs4oiMBS4=", "properties": {"@source_uri": "https://tools.usps.com/UspsToolsRestServices/rest/POLocator/findLocations", "@spider": "usps_collection_boxes", "addr:city": "CALLAWAY", "addr:country": "US", "addr:postcode": "68825", "addr:state": "NE", "addr:street_address": "104 N GRAND AVE", "amenity": "post_box", "collection_times": "Mo-Fr 14:45; Sa 10:00", "note": "ON 12/24 AND 12/31, THIS BOX MAY BE COLLECTED AS EARLY AS 12 NOON.", "nsi_id": "unitedstatespostalservice-a77078", "operator": "United States Postal Service", "operator:short": "USPS", "operator:type": "public", "operator:wikidata": "Q668687", "ref": "6882500001"}, "type": "Feature"}
{"geometry": {"coordinates": [-99.925450866, 41.290950091], "type": "Point"}, "id": "XOA-2rphwvUw15a3z14m10iN8Eo=", "properties": {"@source_uri": "https://tools.usps.com/UspsToolsRestServices/rest/POLocator/findLocations", "@spider": "usps_collection_boxes", "addr:city": "CALLAWAY", "addr:country": "US", "addr:postcode": "68825", "addr:state": "NE", "addr:street_address": "104 N GRAND AVE", "amenity": "post_box", "collection_times": "Mo-Fr 12:30; Sa 10:15", "indoor": "yes", "note": "ON 12/24 AND 12/31, THIS BOX MAY BE COLLECTED AS EARLY AS 12 NOON.", "nsi_id": "unitedstatespostalservice-a77078", "operator": "United States Postal Service", "operator:short": "USPS", "operator:type": "public", "operator:wikidata": "Q668687", "ref": "6882500002"}, "type": "Feature"}
{"geometry": {"coordinates": [-99.925450866, 41.290950091], "type": "Point"}, "id": "dyksj_h5r7d90fXgwT2e77Zch14=", "properties": {"@source_uri": "https://tools.usps.com/UspsToolsRestServices/rest/POLocator/findLocations", "@spider": "usps_collection_boxes", "addr:city": "CALLAWAY", "addr:country": "US", "addr:postcode": "68825", "addr:state": "NE", "addr:street_address": "104 N GRAND AVE", "amenity": "post_box", "collection_times": "Mo-Fr 12:30; Sa 10:15", "indoor": "yes", "note": "ON 12/24 AND 12/31, THIS BOX MAY BE COLLECTED AS EARLY AS 12 NOON.", "nsi_id": "unitedstatespostalservice-a77078", "operator": "United States Postal Service", "operator:short": "USPS", "operator:type": "public", "operator:wikidata": "Q668687", "ref": "6882500003"}, "type": "Feature"}
{"geometry": {"coordinates": [-97.997749563, 41.116019143], "type": "Point"}, "id": "PHVXYNyarNWUpWG2Xbkb_oSGWdM=", "properties": {"@source_uri": "https://tools.usps.com/UspsToolsRestServices/rest/POLocator/findLocations", "@spider": "usps_collection_boxes", "addr:city": "CENTRAL CITY", "addr:country": "US", "addr:postcode": "68826", "addr:state": "NE", "addr:street_address": "1414 16TH ST", "amenity": "post_box", "collection_times": "Mo-Sa 14:30", "note": "ON 12/24 AND 12/31, THIS BOX MAY BE COLLECTED AS EARLY AS 12 NOON.", "nsi_id": "unitedstatespostalservice-a77078", "operator": "United States Postal Service", "operator:short": "USPS", "operator:type": "public", "operator:wikidata": "Q668687", "ref": "6882600001"}, "type": "Feature"}
{"geometry": {"coordinates": [-97.999105145, 41.11604062], "type": "Point"}, "id": "yEJurKGj_8I3Fr1iVxiod9KsoFc=", "properties": {"@source_uri": "https://tools.usps.com/UspsToolsRestServices/rest/POLocator/findLocations", "@spider": "usps_collection_boxes", "addr:city": "CENTRAL CITY", "addr:country": "US", "addr:postcode": "68826", "addr:state": "NE", "addr:street_address": "1512 16TH ST", "amenity": "post_box", "collection_times": "Mo-Fr 17:00; Sa 09:45", "note": "ON 12/24 AND 12/31, THIS BOX MAY BE COLLECTED AS EARLY AS 12 NOON.", "nsi_id": "unitedstatespostalservice-a77078", "operator": "United States Postal Service", "operator:short": "USPS", "operator:type": "public", "operator:wikidata": "Q668687", "ref": "6882600003"}, "type": "Feature"}
{"geometry": {"coordinates": [-97.999105145, 41.11604062], "type": "Point"}, "id": "lZSqbphgMaU3s0HnKSYx6kQyMD8=", "properties": {"@source_uri": "https://tools.usps.com/UspsToolsRestServices/rest/POLocator/findLocations", "@spider": "usps_collection_boxes", "addr:city": "CENTRAL CITY", "addr:country": "US", "addr:postcode": "68826", "addr:state": "NE", "addr:street_address": "1512 16TH ST", "amenity": "post_box", "collection_times": "Mo-Sa 14:30", "indoor": "yes", "note": "ON 12/24 AND 12/31, THIS BOX MAY BE COLLECTED AS EARLY AS 12 NOON.", "nsi_id": "unitedstatespostalservice-a77078", "operator": "United States Postal Service", "operator:short": "USPS", "operator:type": "public", "operator:wikidata": "Q668687", "ref": "6882600004"}, "type": "Feature"}
{"geometry": {"coordinates": [-97.999105145, 41.11604062], "type": "Point"}, "id": "ISDdi9UxmjML_Zi4ix-aIFH2Inc=", "properties": {"@source_uri": "https://tools.usps.com/UspsToolsRestServices/rest/POLocator/findLocations", "@spider": "usps_collection_boxes", "addr:city": "CENTRAL CITY", "addr:country": "US", "addr:postcode": "68826", "addr:state": "NE", "addr:street_address": "1512 16TH ST", "amenity": "post_box", "collection_times": "Mo-Sa 14:30", "indoor": "yes", "note": "ON 12/24 AND 12/31, THIS BOX MAY BE COLLECTED AS EARLY AS 12 NOON.", "nsi_id": "unitedstatespostalservice-a77078", "operator": "United States Postal Service", "operator:short": "USPS", "operator:type": "public", "operator:wikidata": "Q668687", "ref": "6882600005"}, "type": "Feature"}
{"geometry": {"coordinates": [-97.999105145, 41.11604062], "type": "Point"}, "id": "fFvAdsw8ypCRB7ydRY9HWnkRe4o=", "properties": {"@source_uri": "https://tools.usps.com/UspsToolsRestServices/rest/POLocator/findLocations", "@spider": "usps_collection_boxes", "addr:city": "CENTRAL CITY", "addr:country": "US", "addr:postcode": "68826", "addr:state": "NE", "addr:street_address": "1512 16TH ST", "amenity": "post_box", "collection_times": "Mo-Fr 14:30; Sa 10:00", "indoor": "yes", "note": "ON 12/24 AND 12/31, THIS BOX MAY BE COLLECTED AS EARLY AS 12 NOON.", "nsi_id": "unitedstatespostalservice-a77078", "operator": "United States Postal Service", "operator:short": "USPS", "operator:type": "public", "operator:wikidata": "Q668687", "ref": "6882600006"}, "type": "Feature"}
{"geometry": {"coordinates": [-98.158097523, 41.024082605], "type": "Point"}, "id": "EEn3nXzjv7yiuwsN-2zORXgCi1w=", "properties": {"@source_uri": "https://tools.usps.com/UspsToolsRestServices/rest/POLocator/findLocations", "@spider": "usps_collection_boxes", "addr:city": "CHAPMAN", "addr:country": "US", "addr:postcode": "68827", "addr:state": "NE", "addr:street_address": "204 9TH ST", "amenity": "post_box", "collection_times": "Mo-Fr 11:45; Sa 08:45", "nsi_id": "unitedstatespostalservice-a77078", "operator": "United States Postal Service", "operator:short": "USPS", "operator:type": "public", "operator:wikidata": "Q668687", "ref": "6882700001"}, "type": "Feature"}
{"geometry": {"coordinates": [-98.158097523, 41.024082605], "type": "Point"}, "id": "zzFzi2JHPwQ6Hbgfuu3d7O1mC6U=", "properties": {"@source_uri": "https://tools.usps.com/UspsToolsRestServices/rest/POLocator/findLocations", "@spider": "usps_collection_boxes", "addr:city": "CHAPMAN", "addr:country": "US", "addr:postcode": "68827", "addr:state": "NE", "addr:street_address": "204 9TH ST", "amenity": "post_box", "collection_times": "Mo-Fr 11:45; Sa 08:45", "indoor": "yes", "nsi_id": "unitedstatespostalservice-a77078", "operator": "United States Postal Service", "operator:short": "USPS", "operator:type": "public", "operator:wikidata": "Q668687", "ref": "6882700002"}, "type": "Feature"}
{"geometry": {"coordinates": [-98.158097523, 41.024082605], "type": "Point"}, "id": "L7x_RjZ_-pEcCP3Hc7QK1_wl5AU=", "properties": {"@source_uri": "https://tools.usps.com/UspsToolsRestServices/rest/POLocator/findLocations", "@spider": "usps_collection_boxes", "addr:city": "CHAPMAN", "addr:country": "US", "addr:postcode": "68827", "addr:state": "NE", "addr:street_address": "204 9TH ST", "amenity": "post_box", "collection_times": "Mo-Fr 11:45; Sa 08:45", "indoor": "yes", "nsi_id": "unitedstatespostalservice-a77078", "operator": "United States Postal Service", "operator:short": "USPS", "operator:type": "public", "operator:wikidata": "Q668687", "ref": "6882700003"}, "type": "Feature"}
{"geometry": {"coordinates": [-99.2406003929, 41.5565244975], "type": "Point"}, "id": "FOH2ji-AWqlFanLDk6UtMzCki8o=", "properties": {"@source_uri": "https://tools.usps.com/UspsToolsRestServices/rest/POLocator/findLocations", "@spider": "usps_collection_boxes", "addr:city": "COMSTOCK", "addr:country": "US", "addr:postcode": "68828", "addr:state": "NE", "addr:street_address": "101 E MAIN", "amenity": "post_box", "collection_times": "Mo-Fr 11:15; Sa 08:45", "nsi_id": "unitedstatespostalservice-a77078", "operator": "United States Postal Service", "operator:short": "USPS", "operator:type": "public", "operator:wikidata": "Q668687", "ref": "6882800001"}, "type": "Feature"}
{"geometry": {"coordinates": [-99.240605094, 41.556524693], "type": "Point"}, "id": "FEruFAqZuqBy1JNB92Fqf340LiU=", "properties": {"@source_uri": "https://tools.usps.com/UspsToolsRestServices/rest/POLocator/findLocations", "@spider": "usps_collection_boxes", "addr:city": "COMSTOCK", "addr:country": "US", "addr:postcode": "68828", "addr:state": "NE", "addr:street_address": "101 E MAIN", "amenity": "post_box", "collection_times": "Mo-Fr 11:15; Sa 08:45", "indoor": "yes", "nsi_id": "unitedstatespostalservice-a77078", "operator": "United States Postal Service", "operator:short": "USPS", "operator:type": "public", "operator:wikidata": "Q668687", "ref": "6882800002"}, "type": "Feature"}
{"geometry": {"coordinates": [-99.240605094, 41.556524693], "type": "Point"}, "id": "YFLYtR4TKOrjViwZo9c7cXUDz44=", "properties": {"@source_uri": "https://tools.usps.com/UspsToolsRestServices/rest/POLocator/findLocations", "@spider": "usps_collection_boxes", "addr:city": "COMSTOCK", "addr:country": "US", "addr:postcode": "68828", "addr:state": "NE", "addr:street_address": "101 E MAIN", "amenity": "post_box", "collection_times": "Mo-Fr 11:15; Sa 08:45", "indoor": "yes", "nsi_id": "unitedstatespostalservice-a77078", "operator": "United States Postal Service", "operator:short": "USPS", "operator:type": "public", "operator:wikidata": "Q668687", "ref": "6882800003"}, "type": "Feature"}
{"geometry": {"coordinates": [-98.5476400138, 41.1184580071], "type": "Point"}, "id": "oIZV8Q5lXUnkEHR67v9NZgFfBac=", "properties": {"@source_uri": "https://tools.usps.com/UspsToolsRestServices/rest/POLocator/findLocations", "@spider": "usps_collection_boxes", "addr:city": "DANNEBROG", "addr:country": "US", "addr:postcode": "68831", "addr:state": "NE", "addr:street_address": "118 MILL ST S", "amenity": "post_box", "collection_times": "Mo-Fr 10:45; Sa 08:45", "nsi_id": "unitedstatespostalservice-a77078", "operator": "United States Postal Service", "operator:short": "USPS", "operator:type": "public", "operator:wikidata": "Q668687", "ref": "6883100001"}, "type": "Feature"}
{"geometry": {"coordinates": [-98.5474269985, 41.118453], "type": "Point"}, "id": "WeQ9y2Kkcdxs3wifP3O6KbP6hpA=", "properties": {"@source_uri": "https://tools.usps.com/UspsToolsRestServices/rest/POLocator/findLocations", "@spider": "usps_collection_boxes", "addr:city": "DANNEBROG", "addr:country": "US", "addr:postcode": "68831", "addr:state": "NE", "addr:street_address": "118 MILL ST S", "amenity": "post_box", "collection_times": "Mo-Fr 10:50; Sa 09:05", "indoor": "yes", "nsi_id": "unitedstatespostalservice-a77078", "operator": "United States Postal Service", "operator:short": "USPS", "operator:type": "public", "operator:wikidata": "Q668687", "ref": "6883100002"}, "type": "Feature"}
{"geometry": {"coordinates": [-98.5474269985, 41.118453], "type": "Point"}, "id": "wvo5PNekfHIaEeRkHNFgv-ITgOQ=", "properties": {"@source_uri": "https://tools.usps.com/UspsToolsRestServices/rest/POLocator/findLocations", "@spider": "usps_collection_boxes", "addr:city": "DANNEBROG", "addr:country": "US", "addr:postcode": "68831", "addr:state": "NE", "addr:street_address": "118 MILL ST S", "amenity": "post_box", "collection_times": "Mo-Fr 10:50; Sa 09:05", "indoor": "yes", "nsi_id": "unitedstatespostalservice-a77078", "operator": "United States Postal Service", "operator:short": "USPS", "operator:type": "public", "operator:wikidata": "Q668687", "ref": "6883100003"}, "type": "Feature"}
{"geometry": {"coordinates": [-98.3696632463, 40.7714289277], "type": "Point"}, "id": "QLNuqKEcK4-9JxY9QoBjwZF6jAE=", "properties": {"@source_uri": "https://tools.usps.com/UspsToolsRestServices/rest/POLocator/findLocations", "@spider": "usps_collection_boxes", "addr:city": "DONIPHAN", "addr:country": "US", "addr:postcode": "68832", "addr:state": "NE", "addr:street_address": "108 S 1ST ST", "amenity": "post_box", "collection_times": "Mo-Fr 15:30; Sa 09:45", "note": "ON 12/24 AND 12/31, THIS BOX MAY BE COLLECTED AS EARLY AS 12 NOON.", "nsi_id": "unitedstatespostalservice-a77078", "operator": "United States Postal Service", "operator:short": "USPS", "operator:type": "public", "operator:wikidata": "Q668687", "ref": "6883200001"}, "type": "Feature"}
{"geometry": {"coordinates": [-98.369627247, 40.77130522], "type": "Point"}, "id": "mDfAHN_YBlu5vMUYTGPkFbP_c3U=", "properties": {"@source_uri": "https://tools.usps.com/UspsToolsRestServices/rest/POLocator/findLocations", "@spider": "usps_collection_boxes", "addr:city": "DONIPHAN", "addr:country": "US", "addr:postcode": "68832", "addr:state": "NE", "addr:street_address": "108 S 1ST ST", "amenity": "post_box", "collection_times": "Mo-Fr 15:30; Sa 09:45", "indoor": "yes", "note": "ON 12/24 AND 12/31, THIS BOX MAY BE COLLECTED AS EARLY AS 12 NOON.", "nsi_id": "unitedstatespostalservice-a77078", "operator": "United States Postal Service", "operator:short": "USPS", "operator:type": "public", "operator:wikidata": "Q668687", "ref": "6883200002"}, "type": "Feature"}
{"geometry": {"coordinates": [-98.369627247, 40.7713052201], "type": "Point"}, "id": "RHRYC3U1rEdu97whviMh8kwfhWU=", "properties": {"@source_uri": "https://tools.usps.com/UspsToolsRestServices/rest/POLocator/findLocations", "@spider": "usps_collection_boxes", "addr:city": "DONIPHAN", "addr:country": "US", "addr:postcode": "68832", "addr:state": "NE", "addr:street_address": "108 S 1ST ST", "amenity": "post_box", "collection_times": "Mo-Fr 15:30; Sa 09:45", "indoor": "yes", "note": "ON 12/24 AND 12/31, THIS BOX MAY BE COLLECTED AS EARLY AS 12 NOON.", "nsi_id": "unitedstatespostalservice-a77078", "operator": "United States Postal Service", "operator:short": "USPS", "operator:type": "public", "operator:wikidata": "Q668687", "ref": "6883200003"}, "type": "Feature"}
{"geometry": {"coordinates": [-100.104732601, 41.828249956], "type": "Point"}, "id": "ZLJIcZKpfYOTuwY1TG7JceM0GV4=", "properties": {"@source_uri": "https://tools.usps.com/UspsToolsRestServices/rest/POLocator/findLocations", "@spider": "usps_collection_boxes", "addr:city": "DUNNING", "addr:country": "US", "addr:postcode": "68833", "addr:state": "NE", "addr:street_address": "403 JEWETT AVE", "amenity": "post_box", "collection_times": "Mo-Fr 14:15; Sa 09:30", "note": "ON 12/24 AND 12/31, THIS BOX MAY BE COLLECTED AS EARLY AS 12 NOON.", "nsi_id": "unitedstatespostalservice-a77078", "operator": "United States Postal Service", "operator:short": "USPS", "operator:type": "public", "operator:wikidata": "Q668687", "ref": "6883300001"}, "type": "Feature"}
{"geometry": {"coordinates": [-100.1047326013, 41.8282499565], "type": "Point"}, "id": "JUyalzsndgp0FvXfj8Gq_Cd83dE=", "properties": {"@source_uri": "https://tools.usps.com/UspsToolsRestServices/rest/POLocator/findLocations", "@spider": "usps_collection_boxes", "addr:city": "DUNNING", "addr:country": "US", "addr:postcode": "68833", "addr:state": "NE", "addr:street_address": "403 JEWETT AVE", "amenity": "post_box", "collection_times": "Mo-Fr 11:20; Sa 09:30", "indoor": "yes", "nsi_id": "unitedstatespostalservice-a77078", "operator": "United States Postal Service", "operator:short": "USPS", "operator:type": "public", "operator:wikidata": "Q668687", "ref": "6883300002"}, "type": "Feature"}
{"geometry": {"coordinates": [-100.10466, 41.829135], "type": "Point"}, "id": "zKka4H_TyoXlSOX-_4ME9xn5i0w=", "properties": {"@source_uri": "https://tools.usps.com/UspsToolsRestServices/rest/POLocator/findLocations", "@spider": "usps_collection_boxes", "addr:city": "DUNNING", "addr:country": "US", "addr:postcode": "68833", "addr:state": "NE", "addr:street_address": "145 LINCOLN AVE", "amenity": "post_box", "collection_times": "Mo-Fr 11:10; Sa 10:40", "nsi_id": "unitedstatespostalservice-a77078", "operator": "United States Postal Service", "operator:short": "USPS", "operator:type": "public", "operator:wikidata": "Q668687", "ref": "6883300003"}, "type": "Feature"}
{"geometry": {"coordinates": [-100.1047326013, 41.8282499565], "type": "Point"}, "id": "sy5gXFlQIMSoDa1dM89hNAIJhnQ=", "properties": {"@source_uri": "https://tools.usps.com/UspsToolsRestServices/rest/POLocator/findLocations", "@spider": "usps_collection_boxes", "addr:city": "DUNNING", "addr:country": "US", "addr:postcode": "68833", "addr:state": "NE", "addr:street_address": "403 JEWETT AVE", "amenity": "post_box", "collection_times": "Mo-Fr 11:20; Sa 09:30", "indoor": "yes", "nsi_id": "unitedstatespostalservice-a77078", "operator": "United States Postal Service", "operator:short": "USPS", "operator:type": "public", "operator:wikidata": "Q668687", "ref": "6883300005"}, "type": "Feature"}
{"geometry": {"coordinates": [-99.6242484, 41.01175755], "type": "Point"}, "id": "Lp-dHp-PHR8BnnjO-0CWQ1v9_9s=", "properties": {"@source_uri": "https://tools.usps.com/UspsToolsRestServices/rest/POLocator/findLocations", "@spider": "usps_collection_boxes", "addr:city": "EDDYVILLE", "addr:country": "US", "addr:postcode": "68834", "addr:state": "NE", "addr:street_address": "505 CENTRAL AVE", "amenity": "post_box", "collection_times": "Mo-Fr 12:05; Sa 13:05", "note": "ON 12/24 AND 12/31, THIS BOX MAY BE COLLECTED AS EARLY AS 12 NOON.", "nsi_id": "unitedstatespostalservice-a77078", "operator": "United States Postal Service", "operator:short": "USPS", "operator:type": "public", "operator:wikidata": "Q668687", "ref": "6883400000"}, "type": "Feature"}
{"geometry": {"coordinates": [-98.5672463721, 41.2860057474], "type": "Point"}, "id": "cwvpe3Cdmsbl6M0hK9fPZFsXMuY=", "properties": {"@source_uri": "https://tools.usps.com/UspsToolsRestServices/rest/POLocator/findLocations", "@spider": "usps_collection_boxes", "addr:city": "ELBA", "addr:country": "US", "addr:postcode": "68835", "addr:state": "NE", "addr:street_address": "608 PEARL ST", "amenity": "post_box", "collection_times": "Mo-Fr 11:45; Sa 08:45", "nsi_id": "unitedstatespostalservice-a77078", "operator": "United States Postal Service", "operator:short": "USPS", "operator:type": "public", "operator:wikidata": "Q668687", "ref": "6883500001"}, "type": "Feature"}
{"geometry": {"coordinates": [-98.567246372, 41.286005747], "type": "Point"}, "id": "yqlicA0AKLFvEvLuADBEmUudfMc=", "properties": {"@source_uri": "https://tools.usps.com/UspsToolsRestServices/rest/POLocator/findLocations", "@spider": "usps_collection_boxes", "addr:city": "ELBA", "addr:country": "US", "addr:postcode": "68835", "addr:state": "NE", "addr:street_address": "608 PEARL ST", "amenity": "post_box", "collection_times": "Mo-Fr 11:55; Sa 08:55", "indoor": "yes", "nsi_id": "unitedstatespostalservice-a77078", "operator": "United States Postal Service", "operator:short": "USPS", "operator:type": "public", "operator:wikidata": "Q668687", "ref": "6883500003"}, "type": "Feature"}
{"geometry": {"coordinates": [-98.567246372, 41.286005747], "type": "Point"}, "id": "snaR2Xg-XNsdhVfJucpX-VV0360=", "properties": {"@source_uri": "https://tools.usps.com/UspsToolsRestServices/rest/POLocator/findLocations", "@spider": "usps_collection_boxes", "addr:city": "ELBA", "addr:country": "US", "addr:postcode": "68835", "addr:state": "NE", "addr:street_address": "608 PEARL ST", "amenity": "post_box", "collection_times": "Mo-Fr 11:55; Sa 08:55", "indoor": "yes", "nsi_id": "unitedstatespostalservice-a77078", "operator": "United States Postal Service", "operator:short": "USPS", "operator:type": "public", "operator:wikidata": "Q668687", "ref": "6883500004"}, "type": "Feature"}
{"geometry": {"coordinates": [-99.373155868, 40.717442978], "type": "Point"}, "id": "hQ4anYINPGF7B6JikR9oh7Z5x24=", "properties": {"@source_uri": "https://tools.usps.com/UspsToolsRestServices/rest/POLocator/findLocations", "@spider": "usps_collection_boxes", "addr:city": "ELM CREEK", "addr:country": "US", "addr:postcode": "68836", "addr:state": "NE", "addr:street_address": "100 E FRONT ST", "amenity": "post_box", "collection_times": "Mo-Fr 15:45; Sa 09:45", "note": "ON 12/24 AND 12/31, THIS BOX MAY BE COLLECTED AS EARLY AS 12 NOON.", "nsi_id": "unitedstatespostalservice-a77078", "operator": "United States Postal Service", "operator:short": "USPS", "operator:type": "public", "operator:wikidata": "Q668687", "ref": "6883600001"}, "type": "Feature"}
{"geometry": {"coordinates": [-99.373155868, 40.717442978], "type": "Point"}, "id": "HYO2JdeqYAjUn3bs-yUSef_0PRE=", "properties": {"@source_uri": "https://tools.usps.com/UspsToolsRestServices/rest/POLocator/findLocations", "@spider": "usps_collection_boxes", "addr:city": "ELM CREEK", "addr:country": "US", "addr:postcode": "68836", "addr:state": "NE", "addr:street_address": "100 E FRONT ST", "amenity": "post_box", "collection_times": "Mo-Fr 14:05; Sa 09:45", "indoor": "yes", "note": "ON 12/24 AND 12/31, THIS BOX MAY BE COLLECTED AS EARLY AS 12 NOON.", "nsi_id": "unitedstatespostalservice-a77078", "operator": "United States Postal Service", "operator:short": "USPS", "operator:type": "public", "operator:wikidata": "Q668687", "ref": "6883600004"}, "type": "Feature"}
{"geometry": {"coordinates": [-99.373155868, 40.717442978], "type": "Point"}, "id": "kes0hIdvdf_GisbhHCcezbCi4cY=", "properties": {"@source_uri": "https://tools.usps.com/UspsToolsRestServices/rest/POLocator/findLocations", "@spider": "usps_collection_boxes", "addr:city": "ELM CREEK", "addr:country": "US", "addr:postcode": "68836", "addr:state": "NE", "addr:street_address": "100 E FRONT ST", "amenity": "post_box", "collection_times": "Mo-Fr 14:05; Sa 09:45", "indoor": "yes", "note": "ON 12/24 AND 12/31, THIS BOX MAY BE COLLECTED AS EARLY AS 12 NOON.", "nsi_id": "unitedstatespostalservice-a77078", "operator": "United States Postal Service", "operator:short": "USPS", "operator:type": "public", "operator:wikidata": "Q668687", "ref": "6883600006"}, "type": "Feature"}
{"geometry": {"coordinates": [-98.628354957, 41.215543649], "type": "Point"}, "id": "J5RLZrBVeHYaNMsb1T2mIkARMfM=", "properties": {"@source_uri": "https://tools.usps.com/UspsToolsRestServices/rest/POLocator/findLocations", "@spider": "usps_collection_boxes", "addr:city": "FARWELL", "addr:country": "US", "addr:postcode": "68838", "addr:state": "NE", "addr:street_address": "302 LANDER AVE", "amenity": "post_box", "collection_times": "Mo-Fr 11:45; Sa 09:45", "indoor": "yes", "nsi_id": "unitedstatespostalservice-a77078", "operator": "United States Postal Service", "operator:short": "USPS", "operator:type": "public", "operator:wikidata": "Q668687", "ref": "6883800002"}, "type": "Feature"}
{"geometry": {"coordinates": [-98.6283549567, 41.2155436486], "type": "Point"}, "id": "Jj6G5deeCtub8cCwHYcKL9UWS7M=", "properties": {"@source_uri": "https://tools.usps.com/UspsToolsRestServices/rest/POLocator/findLocations", "@spider": "usps_collection_boxes", "addr:city": "FARWELL", "addr:country": "US", "addr:postcode": "68838", "addr:state": "NE", "addr:street_address": "302 LANDER AVE", "amenity": "post_box", "collection_times": "Mo-Fr 11:45; Sa 09:45", "nsi_id": "unitedstatespostalservice-a77078", "operator": "United States Postal Service", "operator:short": "USPS", "operator:type": "public", "operator:wikidata": "Q668687", "ref": "6883800003"}, "type": "Feature"}
{"geometry": {"coordinates": [-98.628354957, 41.215543649], "type": "Point"}, "id": "7mCXXAnn8A0eHLVJKMHXSJUpQIo=", "properties": {"@source_uri": "https://tools.usps.com/UspsToolsRestServices/rest/POLocator/findLocations", "@spider": "usps_collection_boxes", "addr:city": "FARWELL", "addr:country": "US", "addr:postcode": "68838", "addr:state": "NE", "addr:street_address": "302 LANDER AVE", "amenity": "post_box", "collection_times": "Mo-Fr 11:45; Sa 09:45", "indoor": "yes", "nsi_id": "unitedstatespostalservice-a77078", "operator": "United States Postal Service", "operator:short": "USPS", "operator:type": "public", "operator:wikidata": "Q668687", "ref": "6883800004"}, "type": "Feature"}
{"geometry": {"coordinates": [-98.84523257, 40.748372402], "type": "Point"}, "id": "-Wn4wCg9g6Zk7CTnKrhFT5gX4uY=", "properties": {"@source_uri": "https://tools.usps.com/UspsToolsRestServices/rest/POLocator/findLocations", "@spider": "usps_collection_boxes", "addr:city": "GIBBON", "addr:country": "US", "addr:postcode": "68840", "addr:state": "NE", "addr:street_address": "29 LABARRE ST", "amenity": "post_box", "collection_times": "Mo-Sa 14:15", "note": "ON 12/24 AND 12/31, THIS BOX MAY BE COLLECTED AS EARLY AS 12 NOON.", "nsi_id": "unitedstatespostalservice-a77078", "operator": "United States Postal Service", "operator:short": "USPS", "operator:type": "public", "operator:wikidata": "Q668687", "ref": "6884000001"}, "type": "Feature"}
{"geometry": {"coordinates": [-98.84523257, 40.748372402], "type": "Point"}, "id": "3dKwE0Icy1dnRhEclQxfCC3gB9A=", "properties": {"@source_uri": "https://tools.usps.com/UspsToolsRestServices/rest/POLocator/findLocations", "@spider": "usps_collection_boxes", "addr:city": "GIBBON", "addr:country": "US", "addr:postcode": "68840", "addr:state": "NE", "addr:street_address": "29 LABARRE ST", "amenity": "post_box", "collection_times": "Mo-Fr 14:15; Sa 11:15", "indoor": "yes", "note": "ON 12/24 AND 12/31, THIS BOX MAY BE COLLECTED AS EARLY AS 12 NOON.", "nsi_id": "unitedstatespostalservice-a77078", "operator": "United States Postal Service", "operator:short": "USPS", "operator:type": "public", "operator:wikidata": "Q668687", "ref": "6884000002"}, "type": "Feature"}
{"geometry": {"coordinates": [-98.84523257, 40.748372402], "type": "Point"}, "id": "jVmvgm18-Wpy-tMG7IjgAtrwYlg=", "properties": {"@source_uri": "https://tools.usps.com/UspsToolsRestServices/rest/POLocator/findLocations", "@spider": "usps_collection_boxes", "addr:city": "GIBBON", "addr:country": "US", "addr:postcode": "68840", "addr:state": "NE", "addr:street_address": "29 LABARRE ST", "amenity": "post_box", "collection_times": "Mo-Fr 14:15; Sa 11:15", "indoor": "yes", "note": "ON 12/24 AND 12/31, THIS BOX MAY BE COLLECTED AS EARLY AS 12 NOON.", "nsi_id": "unitedstatespostalservice-a77078", "operator": "United States Postal Service", "operator:short": "USPS", "operator:type": "public", "operator:wikidata": "Q668687", "ref": "6884000003"}, "type": "Feature"}
{"geometry": {"coordinates": [-98.153636744, 40.773689528], "type": "Point"}, "id": "6HrARWeuG2g_hlbNhHsqJtKRYXk=", "properties": {"@source_uri": "https://tools.usps.com/UspsToolsRestServices/rest/POLocator/findLocations", "@spider": "usps_collection_boxes", "addr:city": "GILTNER", "addr:country": "US", "addr:postcode": "68841", "addr:state": "NE", "addr:street_address": "3013 N COMMERCIAL AVE", "amenity": "post_box", "collection_times": "Mo-Fr 15:45; Sa 11:45", "note": "ON 12/24 AND 12/31, THIS BOX MAY BE COLLECTED AS EARLY AS 12 NOON.", "nsi_id": "unitedstatespostalservice-a77078", "operator": "United States Postal Service", "operator:short": "USPS", "operator:type": "public", "operator:wikidata": "Q668687", "ref": "6884100001"}, "type": "Feature"}
{"geometry": {"coordinates": [-98.153636744, 40.773689528], "type": "Point"}, "id": "sBtyP2fsrRB_Yv69biI5aXqpv4w=", "properties": {"@source_uri": "https://tools.usps.com/UspsToolsRestServices/rest/POLocator/findLocations", "@spider": "usps_collection_boxes", "addr:city": "GILTNER", "addr:country": "US", "addr:postcode": "68841", "addr:state": "NE", "addr:street_address": "3013 N COMMERCIAL AVE", "amenity": "post_box", "collection_times": "Mo-Fr 14:20; Sa 11:45", "indoor": "yes", "note": "ON 12/24 AND 12/31, THIS BOX MAY BE COLLECTED AS EARLY AS 12 NOON.", "nsi_id": "unitedstatespostalservice-a77078", "operator": "United States Postal Service", "operator:short": "USPS", "operator:type": "public", "operator:wikidata": "Q668687", "ref": "6884100002"}, "type": "Feature"}
{"geometry": {"coordinates": [-98.153636744, 40.773689528], "type": "Point"}, "id": "1dlrN6MatHbBgbt3qIN1kb9yzig=", "properties": {"@source_uri": "https://tools.usps.com/UspsToolsRestServices/rest/POLocator/findLocations", "@spider": "usps_collection_boxes", "addr:city": "GILTNER", "addr:country": "US", "addr:postcode": "68841", "addr:state": "NE", "addr:street_address": "3013 N COMMERCIAL AVE", "amenity": "post_box", "collection_times": "Mo-Fr 14:20; Sa 11:45", "indoor": "yes", "note": "ON 12/24 AND 12/31, THIS BOX MAY BE COLLECTED AS EARLY AS 12 NOON.", "nsi_id": "unitedstatespostalservice-a77078", "operator": "United States Postal Service", "operator:short": "USPS", "operator:type": "public", "operator:wikidata": "Q668687", "ref": "6884100003"}, "type": "Feature"}
{"geometry": {"coordinates": [-98.532359332, 41.54872936], "type": "Point"}, "id": "6bKi5dKQv-77UOPZVUmygBmksJ8=", "properties": {"@source_uri": "https://tools.usps.com/UspsToolsRestServices/rest/POLocator/findLocations", "@spider": "usps_collection_boxes", "addr:city": "GREELEY", "addr:country": "US", "addr:postcode": "68842", "addr:state": "NE", "addr:street_address": "208 W ONEILL AVE", "amenity": "post_box", "collection_times": "Mo-Fr 12:15; Sa 10:30", "note": "ON 12/24 AND 12/31, THIS BOX MAY BE COLLECTED AS EARLY AS 12 NOON.", "nsi_id": "unitedstatespostalservice-a77078", "operator": "United States Postal Service", "operator:short": "USPS", "operator:type": "public", "operator:wikidata": "Q668687", "ref": "6884200001"}, "type": "Feature"}
{"geometry": {"coordinates": [-98.5323593319, 41.5487293601], "type": "Point"}, "id": "TL3scu2sxdvRcH_FJRzvJm-JYp4=", "properties": {"@source_uri": "https://tools.usps.com/UspsToolsRestServices/rest/POLocator/findLocations", "@spider": "usps_collection_boxes", "addr:city": "GREELEY", "addr:country": "US", "addr:postcode": "68842", "addr:state": "NE", "addr:street_address": "208 W ONEILL AVE", "amenity": "post_box", "collection_times": "Mo-Fr 12:20; Sa 10:35", "indoor": "yes", "note": "ON 12/24 AND 12/31, THIS BOX MAY BE COLLECTED AS EARLY AS 12 NOON.", "nsi_id": "unitedstatespostalservice-a77078", "operator": "United States Postal Service", "operator:short": "USPS", "operator:type": "public", "operator:wikidata": "Q668687", "ref": "6884200002"}, "type": "Feature"}
{"geometry": {"coordinates": [-98.532359332, 41.54872936], "type": "Point"}, "id": "6ICWUL_mhG_FbO4qfa1-hpp9K_o=", "properties": {"@source_uri": "https://tools.usps.com/UspsToolsRestServices/rest/POLocator/findLocations", "@spider": "usps_collection_boxes", "addr:city": "GREELEY", "addr:country": "US", "addr:postcode": "68842", "addr:state": "NE", "addr:street_address": "208 W ONEILL AVE", "amenity": "post_box", "collection_times": "Mo-Fr 12:20; Sa 10:35", "indoor": "yes", "note": "ON 12/24 AND 12/31, THIS BOX MAY BE COLLECTED AS EARLY AS 12 NOON.", "nsi_id": "unitedstatespostalservice-a77078", "operator": "United States Postal Service", "operator:short": "USPS", "operator:type": "public", "operator:wikidata": "Q668687", "ref": "6884200003"}, "type": "Feature"}
{"geometry": {"coordinates": [-97.885844625, 40.878818612], "type": "Point"}, "id": "qBiy5P8YmMyp3nNX5cyUcUf_hMs=", "properties": {"@source_uri": "https://tools.usps.com/UspsToolsRestServices/rest/POLocator/findLocations", "@spider": "usps_collection_boxes", "addr:city": "HAMPTON", "addr:country": "US", "addr:postcode": "68843", "addr:state": "NE", "addr:street_address": "107 N 3RD ST", "amenity": "post_box", "collection_times": "Mo-Fr 14:15; Sa 09:15", "note": "ON 12/24 AND 12/31, THIS BOX MAY BE COLLECTED AS EARLY AS 12 NOON.", "nsi_id": "unitedstatespostalservice-a77078", "operator": "United States Postal Service", "operator:short": "USPS", "operator:type": "public", "operator:wikidata": "Q668687", "ref": "6884300001"}, "type": "Feature"}
{"geometry": {"coordinates": [-97.885844625, 40.878818612], "type": "Point"}, "id": "oee0m5nk16JX02kPCnNgf46FD4c=", "properties": {"@source_uri": "https://tools.usps.com/UspsToolsRestServices/rest/POLocator/findLocations", "@spider": "usps_collection_boxes", "addr:city": "HAMPTON", "addr:country": "US", "addr:postcode": "68843", "addr:state": "NE", "addr:street_address": "107 N 3RD ST", "amenity": "post_box", "collection_times": "Mo-Fr 13:40; Sa 09:35", "indoor": "yes", "note": "ON 12/24 AND 12/31, THIS BOX MAY BE COLLECTED AS EARLY AS 12 NOON.", "nsi_id": "unitedstatespostalservice-a77078", "operator": "United States Postal Service", "operator:short": "USPS", "operator:type": "public", "operator:wikidata": "Q668687", "ref": "6884300003"}, "type": "Feature"}
{"geometry": {"coordinates": [-97.885844625, 40.878818612], "type": "Point"}, "id": "5wfH9VgR50vzUO9r188y9sd2YxE=", "properties": {"@source_uri": "https://tools.usps.com/UspsToolsRestServices/rest/POLocator/findLocations", "@spider": "usps_collection_boxes", "addr:city": "HAMPTON", "addr:country": "US", "addr:postcode": "68843", "addr:state": "NE", "addr:street_address": "107 N 3RD ST", "amenity": "post_box", "collection_times": "Mo-Fr 13:40; Sa 09:35", "indoor": "yes", "note": "ON 12/24 AND 12/31, THIS BOX MAY BE COLLECTED AS EARLY AS 12 NOON.", "nsi_id": "unitedstatespostalservice-a77078", "operator": "United States Postal Service", "operator:short": "USPS", "operator:type": "public", "operator:wikidata": "Q668687", "ref": "6884300004"}, "type": "Feature"}
{"geometry": {"coordinates": [-99.089527605, 40.714775324], "type": "Point"}, "id": "kAY9Of-_6eEZGVMp_nSJzsmWhWE=", "properties": {"@source_uri": "https://tools.usps.com/UspsToolsRestServices/rest/POLocator/findLocations", "@spider": "usps_collection_boxes", "addr:city": "KEARNEY", "addr:country": "US", "addr:postcode": "68845", "addr:state": "NE", "addr:street_address": "4006 6TH AVE", "amenity": "post_box", "collection_times": "Mo-Sa 11:00", "nsi_id": "unitedstatespostalservice-a77078", "operator": "United States Postal Service", "operator:short": "USPS", "operator:type": "public", "operator:wikidata": "Q668687", "ref": "6884500000"}, "type": "Feature"}
{"geometry": {"coordinates": [-99.103823361, 40.713975468], "type": "Point"}, "id": "VUxppiuROq64kyHLY-9uR9ZZ1Lg=", "properties": {"@source_uri": "https://tools.usps.com/UspsToolsRestServices/rest/POLocator/findLocations", "@spider": "usps_collection_boxes", "addr:city": "KEARNEY", "addr:country": "US", "addr:postcode": "68845", "addr:state": "NE", "addr:street_address": "1709 W 39TH ST", "amenity": "post_box", "collection_times": "Mo-Sa 13:30", "note": "ON 12/24 AND 12/31, THIS BOX MAY BE COLLECTED AS EARLY AS 12 NOON.", "nsi_id": "unitedstatespostalservice-a77078", "operator": "United States Postal Service", "operator:short": "USPS", "operator:type": "public", "operator:wikidata": "Q668687", "ref": "6884500006"}, "type": "Feature"}
{"geometry": {"coordinates": [-97.888588868, 41.078531543], "type": "Point"}, "id": "VhnS58FmQtz1UEwfIhpVFrymxnw=", "properties": {"@source_uri": "https://tools.usps.com/UspsToolsRestServices/rest/POLocator/findLocations", "@spider": "usps_collection_boxes", "addr:city": "HORDVILLE", "addr:country": "US", "addr:postcode": "68846", "addr:state": "NE", "addr:street_address": "112 1/2 MAIN ST", "amenity": "post_box", "collection_times": "Mo-Fr 11:45; Sa 10:45", "nsi_id": "unitedstatespostalservice-a77078", "operator": "United States Postal Service", "operator:short": "USPS", "operator:type": "public", "operator:wikidata": "Q668687", "ref": "6884600001"}, "type": "Feature"}
{"geometry": {"coordinates": [-97.888588868, 41.078531543], "type": "Point"}, "id": "Ce_f1g0S2B2889WNTTbHYIuxFZY=", "properties": {"@source_uri": "https://tools.usps.com/UspsToolsRestServices/rest/POLocator/findLocations", "@spider": "usps_collection_boxes", "addr:city": "HORDVILLE", "addr:country": "US", "addr:postcode": "68846", "addr:state": "NE", "addr:street_address": "112 1/2 MAIN ST", "amenity": "post_box", "collection_times": "Mo-Fr 11:45; Sa 10:45", "indoor": "yes", "nsi_id": "unitedstatespostalservice-a77078", "operator": "United States Postal Service", "operator:short": "USPS", "operator:type": "public", "operator:wikidata": "Q668687", "ref": "6884600002"}, "type": "Feature"}
{"geometry": {"coordinates": [-97.8885888677, 41.078531543], "type": "Point"}, "id": "5GwAnmkWKH8RyX4S_35G6rtriRo=", "properties": {"@source_uri": "https://tools.usps.com/UspsToolsRestServices/rest/POLocator/findLocations", "@spider": "usps_collection_boxes", "addr:city": "HORDVILLE", "addr:country": "US", "addr:postcode": "68846", "addr:state": "NE", "addr:street_address": "112 1/2 MAIN ST", "amenity": "post_box", "collection_times": "Mo-Fr 11:45; Sa 10:45", "indoor": "yes", "nsi_id": "unitedstatespostalservice-a77078", "operator": "United States Postal Service", "operator:short": "USPS", "operator:type": "public", "operator:wikidata": "Q668687", "ref": "6884600003"}, "type": "Feature"}
{"geometry": {"coordinates": [-99.07473113, 40.699270851], "type": "Point"}, "id": "XlyWV0ZoSCgjuFQSP2bR5jo3DNM=", "properties": {"@source_uri": "https://tools.usps.com/UspsToolsRestServices/rest/POLocator/findLocations", "@spider": "usps_collection_boxes", "addr:city": "KEARNEY", "addr:country": "US", "addr:postcode": "68847", "addr:state": "NE", "addr:street_address": "2401 E AVE", "amenity": "post_box", "collection_times": "Mo-Sa 14:40", "note": "ON 12/24 AND 12/31, THIS BOX MAY BE COLLECTED AS EARLY AS 12 NOON.", "nsi_id": "unitedstatespostalservice-a77078", "operator": "United States Postal Service", "operator:short": "USPS", "operator:type": "public", "operator:wikidata": "Q668687", "ref": "6884700002"}, "type": "Feature"}
{"geometry": {"coordinates": [-99.081586633, 40.700282127], "type": "Point"}, "id": "o640y2lnxVNX6-zs0eFp4l7RoOU=", "properties": {"@source_uri": "https://tools.usps.com/UspsToolsRestServices/rest/POLocator/findLocations", "@spider": "usps_collection_boxes", "addr:city": "KEARNEY", "addr:country": "US", "addr:postcode": "68847", "addr:state": "NE", "addr:street_address": "2501 CENTRAL AVE", "amenity": "post_box", "collection_times": "Mo-Sa 10:17", "nsi_id": "unitedstatespostalservice-a77078", "operator": "United States Postal Service", "operator:short": "USPS", "operator:type": "public", "operator:wikidata": "Q668687", "ref": "6884700008"}, "type": "Feature"}
{"geometry": {"coordinates": [-99.081627782, 40.69884491], "type": "Point"}, "id": "4Xt-jmVS_22BTcoPzIpJ_UFklvc=", "properties": {"@source_uri": "https://tools.usps.com/UspsToolsRestServices/rest/POLocator/findLocations", "@spider": "usps_collection_boxes", "addr:city": "KEARNEY", "addr:country": "US", "addr:postcode": "68847", "addr:state": "NE", "addr:street_address": "2301 CENTRAL AVE", "amenity": "post_box", "collection_times": "Mo-Sa 11:45", "nsi_id": "unitedstatespostalservice-a77078", "operator": "United States Postal Service", "operator:short": "USPS", "operator:type": "public", "operator:wikidata": "Q668687", "ref": "6884700009"}, "type": "Feature"}
{"geometry": {"coordinates": [-99.081685307, 40.697026994], "type": "Point"}, "id": "cvuWI2gR15JogyVKrEH3E70sHS0=", "properties": {"@source_uri": "https://tools.usps.com/UspsToolsRestServices/rest/POLocator/findLocations", "@spider": "usps_collection_boxes", "addr:city": "KEARNEY", "addr:country": "US", "addr:postcode": "68847", "addr:state": "NE", "addr:street_address": "2101 CENTRAL AVE", "amenity": "post_box", "collection_times": "Mo-Sa 11:45", "nsi_id": "unitedstatespostalservice-a77078", "operator": "United States Postal Service", "operator:short": "USPS", "operator:type": "public", "operator:wikidata": "Q668687", "ref": "6884700011"}, "type": "Feature"}
{"geometry": {"coordinates": [-99.084565288, 40.69074555], "type": "Point"}, "id": "FTe092inNX0g3rv9pVOgyPEctXM=", "properties": {"@source_uri": "https://tools.usps.com/UspsToolsRestServices/rest/POLocator/findLocations", "@spider": "usps_collection_boxes", "addr:city": "KEARNEY", "addr:country": "US", "addr:postcode": "68847", "addr:state": "NE", "addr:street_address": "1615 2ND AVE", "amenity": "post_box", "collection_times": "Mo-Sa 09:45", "nsi_id": "unitedstatespostalservice-a77078", "operator": "United States Postal Service", "operator:short": "USPS", "operator:type": "public", "operator:wikidata": "Q668687", "ref": "6884700014"}, "type": "Feature"}
{"geometry": {"coordinates": [-99.084018776, 40.713066], "type": "Point"}, "id": "lFTsgTEGWjnC5B1KXpNQNDcbRa4=", "properties": {"@source_uri": "https://tools.usps.com/UspsToolsRestServices/rest/POLocator/findLocations", "@spider": "usps_collection_boxes", "addr:city": "KEARNEY", "addr:country": "US", "addr:postcode": "68847", "addr:state": "NE", "addr:street_address": "3822 2ND AVE", "amenity": "post_box", "collection_times": "Mo-Sa 10:17", "nsi_id": "unitedstatespostalservice-a77078", "operator": "United States Postal Service", "operator:short": "USPS", "operator:type": "public", "operator:wikidata": "Q668687", "ref": "6884700017"}, "type": "Feature"}
{"geometry": {"coordinates": [-99.0838082616, 40.7223003117], "type": "Point"}, "id": "NSMgbrNMQz69JzLjUgAHrjpzak0=", "properties": {"@source_uri": "https://tools.usps.com/UspsToolsRestServices/rest/POLocator/findLocations", "@spider": "usps_collection_boxes", "addr:city": "KEARNEY", "addr:country": "US", "addr:postcode": "68847", "addr:state": "NE", "addr:street_address": "4917 2ND AVE", "amenity": "post_box", "collection_times": "Mo-Sa 09:00", "nsi_id": "unitedstatespostalservice-a77078", "operator": "United States Postal Service", "operator:short": "USPS", "operator:type": "public", "operator:wikidata": "Q668687", "ref": "6884700021"}, "type": "Feature"}
{"geometry": {"coordinates": [-99.080167729, 40.713192], "type": "Point"}, "id": "XzmEx2fzG_YcUvAH5FMo11I9ieg=", "properties": {"@source_uri": "https://tools.usps.com/UspsToolsRestServices/rest/POLocator/findLocations", "@spider": "usps_collection_boxes", "addr:city": "KEARNEY", "addr:country": "US", "addr:postcode": "68847", "addr:state": "NE", "addr:street_address": "3800 A AVE", "amenity": "post_box", "collection_times": "Mo-Sa 12:50", "note": "ON 12/24 AND 12/31, THIS BOX MAY BE COLLECTED AS EARLY AS 12 NOON.", "nsi_id": "unitedstatespostalservice-a77078", "operator": "United States Postal Service", "operator:short": "USPS", "operator:type": "public", "operator:wikidata": "Q668687", "ref": "6884700024"}, "type": "Feature"}
{"geometry": {"coordinates": [-99.0819362288, 40.7140135077], "type": "Point"}, "id": "XlrC4mpwspu-xvahHv9_1Hn8IH4=", "properties": {"@source_uri": "https://tools.usps.com/UspsToolsRestServices/rest/POLocator/findLocations", "@spider": "usps_collection_boxes", "addr:city": "KEARNEY", "addr:country": "US", "addr:postcode": "68847", "addr:state": "NE", "addr:street_address": "9 W 39TH ST", "amenity": "post_box", "collection_times": "Mo-Sa 09:15", "nsi_id": "unitedstatespostalservice-a77078", "operator": "United States Postal Service", "operator:short": "USPS", "operator:type": "public", "operator:wikidata": "Q668687", "ref": "6884700026"}, "type": "Feature"}
{"geometry": {"coordinates": [-99.0813911647, 40.7064754638], "type": "Point"}, "id": "V5H7zKItFcKPTTzEAUjiF2WGbXg=", "properties": {"@source_uri": "https://tools.usps.com/UspsToolsRestServices/rest/POLocator/findLocations", "@spider": "usps_collection_boxes", "addr:city": "KEARNEY", "addr:country": "US", "addr:postcode": "68847", "addr:state": "NE", "addr:street_address": "10 E 31ST ST", "amenity": "post_box", "collection_times": "Mo-Sa 09:50", "nsi_id": "unitedstatespostalservice-a77078", "operator": "United States Postal Service", "operator:short": "USPS", "operator:type": "public", "operator:wikidata": "Q668687", "ref": "6884700028"}, "type": "Feature"}
{"geometry": {"coordinates": [-99.061029246, 40.702160058], "type": "Point"}, "id": "dgAaR0Uwl-6lljmWq-S3qlL5l7Q=", "properties": {"@source_uri": "https://tools.usps.com/UspsToolsRestServices/rest/POLocator/findLocations", "@spider": "usps_collection_boxes", "addr:city": "KEARNEY", "addr:country": "US", "addr:postcode": "68847", "addr:state": "NE", "addr:street_address": "2701 GRAND AVE", "amenity": "post_box", "collection_times": "Mo-Sa 09:30", "nsi_id": "unitedstatespostalservice-a77078", "operator": "United States Postal Service", "operator:short": "USPS", "operator:type": "public", "operator:wikidata": "Q668687", "ref": "6884700030"}, "type": "Feature"}
{"geometry": {"coordinates": [-99.0844220606, 40.6841210971], "type": "Point"}, "id": "oGBvFZaMSu45Vhlv3ZDqAz0mHzg=", "properties": {"@source_uri": "https://tools.usps.com/UspsToolsRestServices/rest/POLocator/findLocations", "@spider": "usps_collection_boxes", "addr:city": "KEARNEY", "addr:country": "US", "addr:postcode": "68847", "addr:state": "NE", "addr:street_address": "1015 2ND AVE", "amenity": "post_box", "collection_times": "Mo-Sa 09:45", "nsi_id": "unitedstatespostalservice-a77078", "operator": "United States Postal Service", "operator:short": "USPS", "operator:type": "public", "operator:wikidata": "Q668687", "ref": "6884700040"}, "type": "Feature"}
{"geometry": {"coordinates": [-99.083813737, 40.726386388], "type": "Point"}, "id": "wQb8lVj_ct-A4Mj7cvnycKziC6M=", "properties": {"@source_uri": "https://tools.usps.com/UspsToolsRestServices/rest/POLocator/findLocations", "@spider": "usps_collection_boxes", "addr:city": "KEARNEY", "addr:country": "US", "addr:postcode": "68847", "addr:state": "NE", "addr:street_address": "5411 2ND AVE", "amenity": "post_box", "collection_times": "Mo-Sa 13:15", "note": "ON 12/24 AND 12/31, THIS BOX MAY BE COLLECTED AS EARLY AS 12 NOON.", "nsi_id": "unitedstatespostalservice-a77078", "operator": "United States Postal Service", "operator:short": "USPS", "operator:type": "public", "operator:wikidata": "Q668687", "ref": "6884700043"}, "type": "Feature"}
{"geometry": {"coordinates": [-99.081908742, 40.687408561], "type": "Point"}, "id": "bVPcSPw6x0q3EB1NNvjMy4ZE4Jo=", "properties": {"@source_uri": "https://tools.usps.com/UspsToolsRestServices/rest/POLocator/findLocations", "@spider": "usps_collection_boxes", "addr:city": "KEARNEY", "addr:country": "US", "addr:postcode": "68847", "addr:state": "NE", "addr:street_address": "1319 CENTRAL AVE", "amenity": "post_box", "collection_times": "Mo-Fr 09:45", "nsi_id": "unitedstatespostalservice-a77078", "operator": "United States Postal Service", "operator:short": "USPS", "operator:type": "public", "operator:wikidata": "Q668687", "ref": "6884700047"}, "type": "Feature"}
{"geometry": {"coordinates": [-99.0747311305, 40.6992708506], "type": "Point"}, "id": "JN26wOPfwqwDPsOPaAGD-e-1dcY=", "properties": {"@source_uri": "https://tools.usps.com/UspsToolsRestServices/rest/POLocator/findLocations", "@spider": "usps_collection_boxes", "addr:city": "KEARNEY", "addr:country": "US", "addr:postcode": "68847", "addr:state": "NE", "addr:street_address": "2401 E AVE", "amenity": "post_box", "collection_times": "Mo-Sa 14:40", "indoor": "yes", "note": "ON 12/24 AND 12/31, THIS BOX MAY BE COLLECTED AS EARLY AS 12 NOON.", "nsi_id": "unitedstatespostalservice-a77078", "operator": "United States Postal Service", "operator:short": "USPS", "operator:type": "public", "operator:wikidata": "Q668687", "ref": "6884700049"}, "type": "Feature"}
{"geometry": {"coordinates": [-99.0822215258, 40.6800785807], "type": "Point"}, "id": "ngmxcxvSuIr2Jk_MRxeNZT9KG6s=", "properties": {"@source_uri": "https://tools.usps.com/UspsToolsRestServices/rest/POLocator/findLocations", "@spider": "usps_collection_boxes", "addr:city": "KEARNEY", "addr:country": "US", "addr:postcode": "68847", "addr:state": "NE", "addr:street_address": "610 CENTRAL AVE", "amenity": "post_box", "collection_times": "Mo-Sa 11:00", "nsi_id": "unitedstatespostalservice-a77078", "operator": "United States Postal Service", "operator:short": "USPS", "operator:type": "public", "operator:wikidata": "Q668687", "ref": "6884700054"}, "type": "Feature"}
{"geometry": {"coordinates": [-99.0747311305, 40.6992708506], "type": "Point"}, "id": "dcWKAGxMGufJ_HKWKIypqwZQJsc=", "properties": {"@source_uri": "https://tools.usps.com/UspsToolsRestServices/rest/POLocator/findLocations", "@spider": "usps_collection_boxes", "addr:city": "KEARNEY", "addr:country": "US", "addr:postcode": "68847", "addr:state": "NE", "addr:street_address": "2401 E AVE", "amenity": "post_box", "collection_times": "Mo-Sa 14:40", "name": "USPS COLLECTION BOX - APC", "note": "ON 12/24 AND 12/31, THIS BOX MAY BE COLLECTED AS EARLY AS 12 NOON.", "nsi_id": "unitedstatespostalservice-a77078", "operator": "United States Postal Service", "operator:short": "USPS", "operator:type": "public", "operator:wikidata": "Q668687", "ref": "6884700059"}, "type": "Feature"}
{"geometry": {"coordinates": [-99.07473113, 40.699270851], "type": "Point"}, "id": "RXNpdoLaw1pS_P3TDfnhvbjaldY=", "properties": {"@source_uri": "https://tools.usps.com/UspsToolsRestServices/rest/POLocator/findLocations", "@spider": "usps_collection_boxes", "addr:city": "KEARNEY", "addr:country": "US", "addr:postcode": "68847", "addr:state": "NE", "addr:street_address": "2401 E AVE", "amenity": "post_box", "collection_times": "Mo-Fr 14:40; Sa 11:30", "indoor": "yes", "note": "ON 12/24 AND 12/31, THIS BOX MAY BE COLLECTED AS EARLY AS 12 NOON.", "nsi_id": "unitedstatespostalservice-a77078", "operator": "United States Postal Service", "operator:short": "USPS", "operator:type": "public", "operator:wikidata": "Q668687", "ref": "6884700061"}, "type": "Feature"}
{"geometry": {"coordinates": [-99.741503673, 40.779863665], "type": "Point"}, "id": "zN1Ca3P-6lIxiIMFqt-cNni6NSY=", "properties": {"@source_uri": "https://tools.usps.com/UspsToolsRestServices/rest/POLocator/findLocations", "@spider": "usps_collection_boxes", "addr:city": "LEXINGTON", "addr:country": "US", "addr:postcode": "68850", "addr:state": "NE", "addr:street_address": "700 N WASHINGTON ST", "amenity": "post_box", "collection_times": "Mo-Fr 14:45", "note": "ON 12/24 AND 12/31, THIS BOX MAY BE COLLECTED AS EARLY AS 12 NOON.", "nsi_id": "unitedstatespostalservice-a77078", "operator": "United States Postal Service", "operator:short": "USPS", "operator:type": "public", "operator:wikidata": "Q668687", "ref": "6885000003"}, "type": "Feature"}
{"geometry": {"coordinates": [-99.741952586, 40.746822532], "type": "Point"}, "id": "G0olS78K_RmCLjrw5AxkcQuO_t4=", "properties": {"@source_uri": "https://tools.usps.com/UspsToolsRestServices/rest/POLocator/findLocations", "@spider": "usps_collection_boxes", "addr:city": "LEXINGTON", "addr:country": "US", "addr:postcode": "68850", "addr:state": "NE", "addr:street_address": "200 FRONTIER ST", "amenity": "post_box", "collection_times": "Mo-Sa 12:00", "nsi_id": "unitedstatespostalservice-a77078", "operator": "United States Postal Service", "operator:short": "USPS", "operator:type": "public", "operator:wikidata": "Q668687", "ref": "6885000013"}, "type": "Feature"}
{"geometry": {"coordinates": [-99.7401103324, 40.7788134821], "type": "Point"}, "id": "AlKQKNNh-RFvUEZ2CrKmBG7Ha4M=", "properties": {"@source_uri": "https://tools.usps.com/UspsToolsRestServices/rest/POLocator/findLocations", "@spider": "usps_collection_boxes", "addr:city": "LEXINGTON", "addr:country": "US", "addr:postcode": "68850", "addr:state": "NE", "addr:street_address": "203 E 6TH ST", "amenity": "post_box", "collection_times": "Mo-Sa 14:45", "indoor": "yes", "note": "ON 12/24 AND 12/31, THIS BOX MAY BE COLLECTED AS EARLY AS 12 NOON.", "nsi_id": "unitedstatespostalservice-a77078", "operator": "United States Postal Service", "operator:short": "USPS", "operator:type": "public", "operator:wikidata": "Q668687", "ref": "6885000019"}, "type": "Feature"}
{"geometry": {"coordinates": [-99.740102629, 40.778841371], "type": "Point"}, "id": "ngjnL_nJtkRuM5LLZzyUacnxNME=", "properties": {"@source_uri": "https://tools.usps.com/UspsToolsRestServices/rest/POLocator/findLocations", "@spider": "usps_collection_boxes", "addr:city": "LEXINGTON", "addr:country": "US", "addr:postcode": "68850", "addr:state": "NE", "addr:street_address": "600 N GRANT ST", "amenity": "post_box", "collection_times": "Mo-Sa 14:45", "note": "ON 12/24 AND 12/31, THIS BOX MAY BE COLLECTED AS EARLY AS 12 NOON.", "nsi_id": "unitedstatespostalservice-a77078", "operator": "United States Postal Service", "operator:short": "USPS", "operator:type": "public", "operator:wikidata": "Q668687", "ref": "6885000020"}, "type": "Feature"}
{"geometry": {"coordinates": [-99.740110332, 40.778813482], "type": "Point"}, "id": "ykCs0BSpBoPL5ISpc2Ol-6wilMc=", "properties": {"@source_uri": "https://tools.usps.com/UspsToolsRestServices/rest/POLocator/findLocations", "@spider": "usps_collection_boxes", "addr:city": "LEXINGTON", "addr:country": "US", "addr:postcode": "68850", "addr:state": "NE", "addr:street_address": "203 E 6TH ST", "amenity": "post_box", "collection_times": "Mo-Fr 14:45; Sa 11:00", "indoor": "yes", "note": "ON 12/24 AND 12/31, THIS BOX MAY BE COLLECTED AS EARLY AS 12 NOON.", "nsi_id": "unitedstatespostalservice-a77078", "operator": "United States Postal Service", "operator:short": "USPS", "operator:type": "public", "operator:wikidata": "Q668687", "ref": "6885000021"}, "type": "Feature"}
{"geometry": {"coordinates": [-99.155676821, 41.156632901], "type": "Point"}, "id": "ovbkT5IsWZsQo8YaS5jRbVZQex4=", "properties": {"@source_uri": "https://tools.usps.com/UspsToolsRestServices/rest/POLocator/findLocations", "@spider": "usps_collection_boxes", "addr:city": "LITCHFIELD", "addr:country": "US", "addr:postcode": "68852", "addr:state": "NE", "addr:street_address": "211 N MAIN ST", "amenity": "post_box", "collection_times": "Mo-Fr 11:45; Sa 08:45", "nsi_id": "unitedstatespostalservice-a77078", "operator": "United States Postal Service", "operator:short": "USPS", "operator:type": "public", "operator:wikidata": "Q668687", "ref": "6885200001"}, "type": "Feature"}
{"geometry": {"coordinates": [-99.155676821, 41.156632901], "type": "Point"}, "id": "mkeG0aubCgfMbdXi4QWnBlJhPJ4=", "properties": {"@source_uri": "https://tools.usps.com/UspsToolsRestServices/rest/POLocator/findLocations", "@spider": "usps_collection_boxes", "addr:city": "LITCHFIELD", "addr:country": "US", "addr:postcode": "68852", "addr:state": "NE", "addr:street_address": "211 N MAIN ST", "amenity": "post_box", "collection_times": "Mo-Fr 11:45; Sa 08:45", "indoor": "yes", "nsi_id": "unitedstatespostalservice-a77078", "operator": "United States Postal Service", "operator:short": "USPS", "operator:type": "public", "operator:wikidata": "Q668687", "ref": "6885200002"}, "type": "Feature"}
{"geometry": {"coordinates": [-99.1556768208, 41.1566329009], "type": "Point"}, "id": "vmh0P1DysUinq_-qZAiJnTPiWfM=", "properties": {"@source_uri": "https://tools.usps.com/UspsToolsRestServices/rest/POLocator/findLocations", "@spider": "usps_collection_boxes", "addr:city": "LITCHFIELD", "addr:country": "US", "addr:postcode": "68852", "addr:state": "NE", "addr:street_address": "211 N MAIN ST", "amenity": "post_box", "collection_times": "Mo-Fr 11:45; Sa 08:45", "indoor": "yes", "nsi_id": "unitedstatespostalservice-a77078", "operator": "United States Postal Service", "operator:short": "USPS", "operator:type": "public", "operator:wikidata": "Q668687", "ref": "6885200003"}, "type": "Feature"}
{"geometry": {"coordinates": [-98.967404303, 41.274325076], "type": "Point"}, "id": "HvvlgpJHYJGz2D-AWdT0ABNhWwc=", "properties": {"@source_uri": "https://tools.usps.com/UspsToolsRestServices/rest/POLocator/findLocations", "@spider": "usps_collection_boxes", "addr:city": "LOUP CITY", "addr:country": "US", "addr:postcode": "68853", "addr:state": "NE", "addr:street_address": "137 S 7TH ST", "amenity": "post_box", "collection_times": "Mo-Fr 16:00; Sa 10:15", "note": "ON 12/24 AND 12/31, THIS BOX MAY BE COLLECTED AS EARLY AS 12 NOON.", "nsi_id": "unitedstatespostalservice-a77078", "operator": "United States Postal Service", "operator:short": "USPS", "operator:type": "public", "operator:wikidata": "Q668687", "ref": "6885300001"}, "type": "Feature"}
{"geometry": {"coordinates": [-98.967404303, 41.274325076], "type": "Point"}, "id": "muDVTulQ4a0A8Mbn7sJ4rirgaRk=", "properties": {"@source_uri": "https://tools.usps.com/UspsToolsRestServices/rest/POLocator/findLocations", "@spider": "usps_collection_boxes", "addr:city": "LOUP CITY", "addr:country": "US", "addr:postcode": "68853", "addr:state": "NE", "addr:street_address": "137 S 7TH ST", "amenity": "post_box", "collection_times": "Mo-Fr 13:55; Sa 10:15", "indoor": "yes", "note": "ON 12/24 AND 12/31, THIS BOX MAY BE COLLECTED AS EARLY AS 12 NOON.", "nsi_id": "unitedstatespostalservice-a77078", "operator": "United States Postal Service", "operator:short": "USPS", "operator:type": "public", "operator:wikidata": "Q668687", "ref": "6885300002"}, "type": "Feature"}
{"geometry": {"coordinates": [-98.967404303, 41.2743250756], "type": "Point"}, "id": "OE2UdmXDe7Gz1zwQpDSR7zdTAyY=", "properties": {"@source_uri": "https://tools.usps.com/UspsToolsRestServices/rest/POLocator/findLocations", "@spider": "usps_collection_boxes", "addr:city": "LOUP CITY", "addr:country": "US", "addr:postcode": "68853", "addr:state": "NE", "addr:street_address": "137 S 7TH ST", "amenity": "post_box", "collection_times": "Mo-Fr 13:55; Sa 10:15", "indoor": "yes", "note": "ON 12/24 AND 12/31, THIS BOX MAY BE COLLECTED AS EARLY AS 12 NOON.", "nsi_id": "unitedstatespostalservice-a77078", "operator": "United States Postal Service", "operator:short": "USPS", "operator:type": "public", "operator:wikidata": "Q668687", "ref": "6885300003"}, "type": "Feature"}
{"geometry": {"coordinates": [-98.010226267, 41.006984549], "type": "Point"}, "id": "kkqXYiiOeGgAZZ-CITMEjaOj87s=", "properties": {"@source_uri": "https://tools.usps.com/UspsToolsRestServices/rest/POLocator/findLocations", "@spider": "usps_collection_boxes", "addr:city": "MARQUETTE", "addr:country": "US", "addr:postcode": "68854", "addr:state": "NE", "addr:street_address": "404 RAILROAD ST", "amenity": "post_box", "collection_times": "Mo-Fr 11:45; Sa 08:45", "nsi_id": "unitedstatespostalservice-a77078", "operator": "United States Postal Service", "operator:short": "USPS", "operator:type": "public", "operator:wikidata": "Q668687", "ref": "6885400001"}, "type": "Feature"}
{"geometry": {"coordinates": [-98.010226267, 41.006984549], "type": "Point"}, "id": "Adq4y9Yu7zirI6nkuYahfIUdhzQ=", "properties": {"@source_uri": "https://tools.usps.com/UspsToolsRestServices/rest/POLocator/findLocations", "@spider": "usps_collection_boxes", "addr:city": "MARQUETTE", "addr:country": "US", "addr:postcode": "68854", "addr:state": "NE", "addr:street_address": "404 RAILROAD ST", "amenity": "post_box", "collection_times": "Mo-Fr 11:50; Sa 08:50", "indoor": "yes", "nsi_id": "unitedstatespostalservice-a77078", "operator": "United States Postal Service", "operator:short": "USPS", "operator:type": "public", "operator:wikidata": "Q668687", "ref": "6885400003"}, "type": "Feature"}
{"geometry": {"coordinates": [-98.0102262672, 41.0069845492], "type": "Point"}, "id": "8RFwA_bzSOJba87tbExp3E44KTg=", "properties": {"@source_uri": "https://tools.usps.com/UspsToolsRestServices/rest/POLocator/findLocations", "@spider": "usps_collection_boxes", "addr:city": "MARQUETTE", "addr:country": "US", "addr:postcode": "68854", "addr:state": "NE", "addr:street_address": "404 RAILROAD ST", "amenity": "post_box", "collection_times": "Mo-Fr 11:50; Sa 08:50", "indoor": "yes", "nsi_id": "unitedstatespostalservice-a77078", "operator": "United States Postal Service", "operator:short": "USPS", "operator:type": "public", "operator:wikidata": "Q668687", "ref": "6885400004"}, "type": "Feature"}
{"geometry": {"coordinates": [-99.300275913, 41.227152692], "type": "Point"}, "id": "OdsYKV5NRcDIcB4mY4j0S8cpcAk=", "properties": {"@source_uri": "https://tools.usps.com/UspsToolsRestServices/rest/POLocator/findLocations", "@spider": "usps_collection_boxes", "addr:city": "MASON CITY", "addr:country": "US", "addr:postcode": "68855", "addr:state": "NE", "addr:street_address": "100 MAIN ST", "amenity": "post_box", "collection_times": "Mo-Fr 11:45; Sa 09:45", "nsi_id": "unitedstatespostalservice-a77078", "operator": "United States Postal Service", "operator:short": "USPS", "operator:type": "public", "operator:wikidata": "Q668687", "ref": "6885500001"}, "type": "Feature"}
{"geometry": {"coordinates": [-99.3002493385, 41.2232026573], "type": "Point"}, "id": "rzpYyyEDZ-u46YuOXV49tWSA4FM=", "properties": {"@source_uri": "https://tools.usps.com/UspsToolsRestServices/rest/POLocator/findLocations", "@spider": "usps_collection_boxes", "addr:city": "MASON CITY", "addr:country": "US", "addr:postcode": "68855", "addr:state": "NE", "addr:street_address": "479 MAIN ST", "amenity": "post_box", "collection_times": "Mo-Fr 11:45; Sa 09:45", "indoor": "yes", "nsi_id": "unitedstatespostalservice-a77078", "operator": "United States Postal Service", "operator:short": "USPS", "operator:type": "public", "operator:wikidata": "Q668687", "ref": "6885500004"}, "type": "Feature"}
{"geometry": {"coordinates": [-99.762970284, 41.484091284], "type": "Point"}, "id": "oaT0Tz4p1AwSzBVOMAsCNb4o1os=", "properties": {"@source_uri": "https://tools.usps.com/UspsToolsRestServices/rest/POLocator/findLocations", "@spider": "usps_collection_boxes", "addr:city": "MERNA", "addr:country": "US", "addr:postcode": "68856", "addr:state": "NE", "addr:street_address": "100 CENTER AVE", "amenity": "post_box", "collection_times": "Mo-Fr 13:45; Sa 12:15", "note": "ON 12/24 AND 12/31, THIS BOX MAY BE COLLECTED AS EARLY AS 12 NOON.", "nsi_id": "unitedstatespostalservice-a77078", "operator": "United States Postal Service", "operator:short": "USPS", "operator:type": "public", "operator:wikidata": "Q668687", "ref": "6885600001"}, "type": "Feature"}
{"geometry": {"coordinates": [-99.7629702841, 41.4840912841], "type": "Point"}, "id": "eaDTHqUt--GVCGwtICGpojbuEx4=", "properties": {"@source_uri": "https://tools.usps.com/UspsToolsRestServices/rest/POLocator/findLocations", "@spider": "usps_collection_boxes", "addr:city": "MERNA", "addr:country": "US", "addr:postcode": "68856", "addr:state": "NE", "addr:street_address": "100 CENTER AVE", "amenity": "post_box", "collection_times": "Mo-Sa 12:05", "indoor": "yes", "note": "ON 12/24 AND 12/31, THIS BOX MAY BE COLLECTED AS EARLY AS 12 NOON.", "nsi_id": "unitedstatespostalservice-a77078", "operator": "United States Postal Service", "operator:short": "USPS", "operator:type": "public", "operator:wikidata": "Q668687", "ref": "6885600002"}, "type": "Feature"}
{"geometry": {"coordinates": [-99.7629702841, 41.4840912841], "type": "Point"}, "id": "xQcOv3N2C2lpJ0xFe3lIloxKvSU=", "properties": {"@source_uri": "https://tools.usps.com/UspsToolsRestServices/rest/POLocator/findLocations", "@spider": "usps_collection_boxes", "addr:city": "MERNA", "addr:country": "US", "addr:postcode": "68856", "addr:state": "NE", "addr:street_address": "100 CENTER AVE", "amenity": "post_box", "collection_times": "Mo-Sa 12:05", "indoor": "yes", "note": "ON 12/24 AND 12/31, THIS BOX MAY BE COLLECTED AS EARLY AS 12 NOON.", "nsi_id": "unitedstatespostalservice-a77078", "operator": "United States Postal Service", "operator:short": "USPS", "operator:type": "public", "operator:wikidata": "Q668687", "ref": "6885600003"}, "type": "Feature"}
{"geometry": {"coordinates": [-99.3917421407, 40.9275773593], "type": "Point"}, "id": "z8e0Va7W2wr0iR9qPlgaxPuHZ8s=", "properties": {"@source_uri": "https://tools.usps.com/UspsToolsRestServices/rest/POLocator/findLocations", "@spider": "usps_collection_boxes", "addr:city": "MILLER", "addr:country": "US", "addr:postcode": "68858", "addr:state": "NE", "addr:street_address": "301 W CUMMINGS AVE", "amenity": "post_box", "collection_times": "Mo-Sa 11:45", "nsi_id": "unitedstatespostalservice-a77078", "operator": "United States Postal Service", "operator:short": "USPS", "operator:type": "public", "operator:wikidata": "Q668687", "ref": "6885800001"}, "type": "Feature"}
{"geometry": {"coordinates": [-99.391742141, 40.927577359], "type": "Point"}, "id": "mDiUwdUgQQ0A28I08Dc3XkykuFk=", "properties": {"@source_uri": "https://tools.usps.com/UspsToolsRestServices/rest/POLocator/findLocations", "@spider": "usps_collection_boxes", "addr:city": "MILLER", "addr:country": "US", "addr:postcode": "68858", "addr:state": "NE", "addr:street_address": "301 W CUMMINGS AVE", "amenity": "post_box", "collection_times": "Mo-Sa 11:50", "indoor": "yes", "nsi_id": "unitedstatespostalservice-a77078", "operator": "United States Postal Service", "operator:short": "USPS", "operator:type": "public", "operator:wikidata": "Q668687", "ref": "6885800002"}, "type": "Feature"}
{"geometry": {"coordinates": [-99.391742141, 40.927577359], "type": "Point"}, "id": "RxAOtFv-_yyWvM66XrUl6dlWmfM=", "properties": {"@source_uri": "https://tools.usps.com/UspsToolsRestServices/rest/POLocator/findLocations", "@spider": "usps_collection_boxes", "addr:city": "MILLER", "addr:country": "US", "addr:postcode": "68858", "addr:state": "NE", "addr:street_address": "301 W CUMMINGS AVE", "amenity": "post_box", "collection_times": "Mo-Sa 11:50", "indoor": "yes", "nsi_id": "unitedstatespostalservice-a77078", "operator": "United States Postal Service", "operator:short": "USPS", "operator:type": "public", "operator:wikidata": "Q668687", "ref": "6885800003"}, "type": "Feature"}
{"geometry": {"coordinates": [-98.7716427485, 41.4953244677], "type": "Point"}, "id": "zbjs2NQMuaIjyG7nnpCDGERTOSI=", "properties": {"@source_uri": "https://tools.usps.com/UspsToolsRestServices/rest/POLocator/findLocations", "@spider": "usps_collection_boxes", "addr:city": "NORTH LOUP", "addr:country": "US", "addr:postcode": "68859", "addr:state": "NE", "addr:street_address": "211 W 1ST ST", "amenity": "post_box", "collection_times": "Mo-Fr 11:15; Sa 08:45", "nsi_id": "unitedstatespostalservice-a77078", "operator": "United States Postal Service", "operator:short": "USPS", "operator:type": "public", "operator:wikidata": "Q668687", "ref": "6885900000"}, "type": "Feature"}
{"geometry": {"coordinates": [-98.771642749, 41.495324468], "type": "Point"}, "id": "ALIQf7CdEKipRRrERKCgs7dTvwU=", "properties": {"@source_uri": "https://tools.usps.com/UspsToolsRestServices/rest/POLocator/findLocations", "@spider": "usps_collection_boxes", "addr:city": "NORTH LOUP", "addr:country": "US", "addr:postcode": "68859", "addr:state": "NE", "addr:street_address": "211 W 1ST ST", "amenity": "post_box", "collection_times": "Mo-Fr 11:20; Sa 09:25", "indoor": "yes", "nsi_id": "unitedstatespostalservice-a77078", "operator": "United States Postal Service", "operator:short": "USPS", "operator:type": "public", "operator:wikidata": "Q668687", "ref": "6885900001"}, "type": "Feature"}
{"geometry": {"coordinates": [-98.771642749, 41.495324468], "type": "Point"}, "id": "nxO0d8npIxtyi0rBIOmKTwigMsQ=", "properties": {"@source_uri": "https://tools.usps.com/UspsToolsRestServices/rest/POLocator/findLocations", "@spider": "usps_collection_boxes", "addr:city": "NORTH LOUP", "addr:country": "US", "addr:postcode": "68859", "addr:state": "NE", "addr:street_address": "211 W 1ST ST", "amenity": "post_box", "collection_times": "Mo-Fr 11:20; Sa 09:25", "indoor": "yes", "nsi_id": "unitedstatespostalservice-a77078", "operator": "United States Postal Service", "operator:short": "USPS", "operator:type": "public", "operator:wikidata": "Q668687", "ref": "6885900002"}, "type": "Feature"}
{"geometry": {"coordinates": [-99.763392005, 41.141288134], "type": "Point"}, "id": "-FfDa5-rMaHL7vhXtBW_STnslB0=", "properties": {"@source_uri": "https://tools.usps.com/UspsToolsRestServices/rest/POLocator/findLocations", "@spider": "usps_collection_boxes", "addr:city": "OCONTO", "addr:country": "US", "addr:postcode": "68860", "addr:state": "NE", "addr:street_address": "103 GRAND", "amenity": "post_box", "collection_times": "Mo-Fr 11:45; Sa 10:00", "nsi_id": "unitedstatespostalservice-a77078", "operator": "United States Postal Service", "operator:short": "USPS", "operator:type": "public", "operator:wikidata": "Q668687", "ref": "6886000001"}, "type": "Feature"}
{"geometry": {"coordinates": [-99.763392005, 41.141288134], "type": "Point"}, "id": "YbGRL0g4trbHgiuGl2zhCd94oiI=", "properties": {"@source_uri": "https://tools.usps.com/UspsToolsRestServices/rest/POLocator/findLocations", "@spider": "usps_collection_boxes", "addr:city": "OCONTO", "addr:country": "US", "addr:postcode": "68860", "addr:state": "NE", "addr:street_address": "103 GRAND", "amenity": "post_box", "collection_times": "Mo-Fr 11:50; Sa 10:20", "indoor": "yes", "nsi_id": "unitedstatespostalservice-a77078", "operator": "United States Postal Service", "operator:short": "USPS", "operator:type": "public", "operator:wikidata": "Q668687", "ref": "6886000002"}, "type": "Feature"}
{"geometry": {"coordinates": [-99.763392005, 41.141288134], "type": "Point"}, "id": "7S3kdjk14Snw5w0Teqn5ALDZZec=", "properties": {"@source_uri": "https://tools.usps.com/UspsToolsRestServices/rest/POLocator/findLocations", "@spider": "usps_collection_boxes", "addr:city": "OCONTO", "addr:country": "US", "addr:postcode": "68860", "addr:state": "NE", "addr:street_address": "103 GRAND", "amenity": "post_box", "collection_times": "Mo-Fr 11:50; Sa 10:20", "indoor": "yes", "nsi_id": "unitedstatespostalservice-a77078", "operator": "United States Postal Service", "operator:short": "USPS", "operator:type": "public", "operator:wikidata": "Q668687", "ref": "6886000003"}, "type": "Feature"}
{"geometry": {"coordinates": [-98.9302629972, 41.6032830028], "type": "Point"}, "id": "8MNbMQKsNg-ge1WGvb_Sof1PvFg=", "properties": {"@source_uri": "https://tools.usps.com/UspsToolsRestServices/rest/POLocator/findLocations", "@spider": "usps_collection_boxes", "addr:city": "ORD", "addr:country": "US", "addr:postcode": "68862", "addr:state": "NE", "addr:street_address": "1630 L ST", "amenity": "post_box", "collection_times": "Mo-Sa 13:10", "note": "ON 12/24 AND 12/31, THIS BOX MAY BE COLLECTED AS EARLY AS 12 NOON.", "nsi_id": "unitedstatespostalservice-a77078", "operator": "United States Postal Service", "operator:short": "USPS", "operator:type": "public", "operator:wikidata": "Q668687", "ref": "6886200001"}, "type": "Feature"}
{"geometry": {"coordinates": [-98.929151528, 41.602082481], "type": "Point"}, "id": "8-o7DxFdomG_GeLQp7xbfVFN6ww=", "properties": {"@source_uri": "https://tools.usps.com/UspsToolsRestServices/rest/POLocator/findLocations", "@spider": "usps_collection_boxes", "addr:city": "ORD", "addr:country": "US", "addr:postcode": "68862", "addr:state": "NE", "addr:street_address": "1545 M ST", "amenity": "post_box", "collection_times": "Mo-Sa 13:10", "note": "ON 12/24 AND 12/31, THIS BOX MAY BE COLLECTED AS EARLY AS 12 NOON.", "nsi_id": "unitedstatespostalservice-a77078", "operator": "United States Postal Service", "operator:short": "USPS", "operator:type": "public", "operator:wikidata": "Q668687", "ref": "6886200002"}, "type": "Feature"}
{"geometry": {"coordinates": [-98.930192055, 41.603056457], "type": "Point"}, "id": "8EysHaA4G5HfnxYLTQPejkvJ-kM=", "properties": {"@source_uri": "https://tools.usps.com/UspsToolsRestServices/rest/POLocator/findLocations", "@spider": "usps_collection_boxes", "addr:city": "ORD", "addr:country": "US", "addr:postcode": "68862", "addr:state": "NE", "addr:street_address": "1630 L ST", "amenity": "post_box", "collection_times": "Mo-Sa 13:10", "indoor": "yes", "note": "ON 12/24 AND 12/31, THIS BOX MAY BE COLLECTED AS EARLY AS 12 NOON.", "nsi_id": "unitedstatespostalservice-a77078", "operator": "United States Postal Service", "operator:short": "USPS", "operator:type": "public", "operator:wikidata": "Q668687", "ref": "6886200003"}, "type": "Feature"}
{"geometry": {"coordinates": [-98.930192055, 41.603056457], "type": "Point"}, "id": "D2fa48mImv_wH5MUswdldByy2t4=", "properties": {"@source_uri": "https://tools.usps.com/UspsToolsRestServices/rest/POLocator/findLocations", "@spider": "usps_collection_boxes", "addr:city": "ORD", "addr:country": "US", "addr:postcode": "68862", "addr:state": "NE", "addr:street_address": "1630 L ST", "amenity": "post_box", "collection_times": "Mo-Fr 13:10; Sa 10:30", "indoor": "yes", "note": "ON 12/24 AND 12/31, THIS BOX MAY BE COLLECTED AS EARLY AS 12 NOON.", "nsi_id": "unitedstatespostalservice-a77078", "operator": "United States Postal Service", "operator:short": "USPS", "operator:type": "public", "operator:wikidata": "Q668687", "ref": "6886200004"}, "type": "Feature"}
{"geometry": {"coordinates": [-99.537789236, 40.739526419], "type": "Point"}, "id": "la4BgBM3FYOEHgtzPyHB2w3jGvk=", "properties": {"@source_uri": "https://tools.usps.com/UspsToolsRestServices/rest/POLocator/findLocations", "@spider": "usps_collection_boxes", "addr:city": "OVERTON", "addr:country": "US", "addr:postcode": "68863", "addr:state": "NE", "addr:street_address": "519 C ST", "amenity": "post_box", "collection_times": "Mo-Fr 14:15; Sa 09:45", "note": "ON 12/24 AND 12/31, THIS BOX MAY BE COLLECTED AS EARLY AS 12 NOON.", "nsi_id": "unitedstatespostalservice-a77078", "operator": "United States Postal Service", "operator:short": "USPS", "operator:type": "public", "operator:wikidata": "Q668687", "ref": "6886300001"}, "type": "Feature"}
{"geometry": {"coordinates": [-99.537789236, 40.739526419], "type": "Point"}, "id": "THcn5BiQFI8Y_z1TuZ4Uo_Tp8iw=", "properties": {"@source_uri": "https://tools.usps.com/UspsToolsRestServices/rest/POLocator/findLocations", "@spider": "usps_collection_boxes", "addr:city": "OVERTON", "addr:country": "US", "addr:postcode": "68863", "addr:state": "NE", "addr:street_address": "519 C ST", "amenity": "post_box", "collection_times": "Mo-Fr 13:50; Sa 10:05", "indoor": "yes", "note": "ON 12/24 AND 12/31, THIS BOX MAY BE COLLECTED AS EARLY AS 12 NOON.", "nsi_id": "unitedstatespostalservice-a77078", "operator": "United States Postal Service", "operator:short": "USPS", "operator:type": "public", "operator:wikidata": "Q668687", "ref": "6886300002"}, "type": "Feature"}
{"geometry": {"coordinates": [-99.537789236, 40.739526419], "type": "Point"}, "id": "p9x0GK8OwZEizBiTIRl9bpW6nLo=", "properties": {"@source_uri": "https://tools.usps.com/UspsToolsRestServices/rest/POLocator/findLocations", "@spider": "usps_collection_boxes", "addr:city": "OVERTON", "addr:country": "US", "addr:postcode": "68863", "addr:state": "NE", "addr:street_address": "519 C ST", "amenity": "post_box", "collection_times": "Mo-Fr 13:50; Sa 10:05", "indoor": "yes", "note": "ON 12/24 AND 12/31, THIS BOX MAY BE COLLECTED AS EARLY AS 12 NOON.", "nsi_id": "unitedstatespostalservice-a77078", "operator": "United States Postal Service", "operator:short": "USPS", "operator:type": "public", "operator:wikidata": "Q668687", "ref": "6886300003"}, "type": "Feature"}
{"geometry": {"coordinates": [-98.257841832, 41.22208751], "type": "Point"}, "id": "zGwCSgMhBAkq4xNWi68MWySpW6I=", "properties": {"@source_uri": "https://tools.usps.com/UspsToolsRestServices/rest/POLocator/findLocations", "@spider": "usps_collection_boxes", "addr:city": "PALMER", "addr:country": "US", "addr:postcode": "68864", "addr:state": "NE", "addr:street_address": "907 COMMERCIAL ST", "amenity": "post_box", "collection_times": "Mo-Fr 14:15; Sa 09:15", "note": "ON 12/24 AND 12/31, THIS BOX MAY BE COLLECTED AS EARLY AS 12 NOON.", "nsi_id": "unitedstatespostalservice-a77078", "operator": "United States Postal Service", "operator:short": "USPS", "operator:type": "public", "operator:wikidata": "Q668687", "ref": "6886400001"}, "type": "Feature"}
{"geometry": {"coordinates": [-98.2578418324, 41.2220875101], "type": "Point"}, "id": "S2n2ooKMbE-4I5XKSQhPAc8DHfw=", "properties": {"@source_uri": "https://tools.usps.com/UspsToolsRestServices/rest/POLocator/findLocations", "@spider": "usps_collection_boxes", "addr:city": "PALMER", "addr:country": "US", "addr:postcode": "68864", "addr:state": "NE", "addr:street_address": "907 COMMERCIAL ST", "amenity": "post_box", "collection_times": "Mo-Fr 13:50; Sa 09:35", "indoor": "yes", "note": "ON 12/24 AND 12/31, THIS BOX MAY BE COLLECTED AS EARLY AS 12 NOON.", "nsi_id": "unitedstatespostalservice-a77078", "operator": "United States Postal Service", "operator:short": "USPS", "operator:type": "public", "operator:wikidata": "Q668687", "ref": "6886400002"}, "type": "Feature"}
{"geometry": {"coordinates": [-98.2578418324, 41.2220875101], "type": "Point"}, "id": "3HAJS2Nf1shv3gUYWH_vq2ny-H8=", "properties": {"@source_uri": "https://tools.usps.com/UspsToolsRestServices/rest/POLocator/findLocations", "@spider": "usps_collection_boxes", "addr:city": "PALMER", "addr:country": "US", "addr:postcode": "68864", "addr:state": "NE", "addr:street_address": "907 COMMERCIAL ST", "amenity": "post_box", "collection_times": "Mo-Fr 13:50; Sa 09:35", "indoor": "yes", "note": "ON 12/24 AND 12/31, THIS BOX MAY BE COLLECTED AS EARLY AS 12 NOON.", "nsi_id": "unitedstatespostalservice-a77078", "operator": "United States Postal Service", "operator:short": "USPS", "operator:type": "public", "operator:wikidata": "Q668687", "ref": "6886400003"}, "type": "Feature"}
{"geometry": {"coordinates": [-98.21461837, 40.897330879], "type": "Point"}, "id": "SD-Lrj4cOFeOeIZP32pa4UtD0xc=", "properties": {"@source_uri": "https://tools.usps.com/UspsToolsRestServices/rest/POLocator/findLocations", "@spider": "usps_collection_boxes", "addr:city": "PHILLIPS", "addr:country": "US", "addr:postcode": "68865", "addr:state": "NE", "addr:street_address": "515 WEST ST", "amenity": "post_box", "collection_times": "Mo-Fr 11:45; Sa 10:00", "nsi_id": "unitedstatespostalservice-a77078", "operator": "United States Postal Service", "operator:short": "USPS", "operator:type": "public", "operator:wikidata": "Q668687", "ref": "6886500001"}, "type": "Feature"}
{"geometry": {"coordinates": [-98.21461837, 40.897330879], "type": "Point"}, "id": "tA8byVzTUlEt2mCyKrfwcrUSkLA=", "properties": {"@source_uri": "https://tools.usps.com/UspsToolsRestServices/rest/POLocator/findLocations", "@spider": "usps_collection_boxes", "addr:city": "PHILLIPS", "addr:country": "US", "addr:postcode": "68865", "addr:state": "NE", "addr:street_address": "515 WEST ST", "amenity": "post_box", "collection_times": "Mo-Fr 11:50; Sa 09:45", "indoor": "yes", "nsi_id": "unitedstatespostalservice-a77078", "operator": "United States Postal Service", "operator:short": "USPS", "operator:type": "public", "operator:wikidata": "Q668687", "ref": "6886500002"}, "type": "Feature"}
{"geometry": {"coordinates": [-98.21461837, 40.897330879], "type": "Point"}, "id": "EmvSb5ygCzAdzG5J9OqodtjOrTI=", "properties": {"@source_uri": "https://tools.usps.com/UspsToolsRestServices/rest/POLocator/findLocations", "@spider": "usps_collection_boxes", "addr:city": "PHILLIPS", "addr:country": "US", "addr:postcode": "68865", "addr:state": "NE", "addr:street_address": "515 WEST ST", "amenity": "post_box", "collection_times": "Mo-Fr 11:50", "indoor": "yes", "nsi_id": "unitedstatespostalservice-a77078", "operator": "United States Postal Service", "operator:short": "USPS", "operator:type": "public", "operator:wikidata": "Q668687", "ref": "6886500003"}, "type": "Feature"}
{"geometry": {"coordinates": [-99.085111126, 40.966488327], "type": "Point"}, "id": "0HEN18k6wp6hCru6pj0pSju2G9w=", "properties": {"@source_uri": "https://tools.usps.com/UspsToolsRestServices/rest/POLocator/findLocations", "@spider": "usps_collection_boxes", "addr:city": "PLEASANTON", "addr:country": "US", "addr:postcode": "68866", "addr:state": "NE", "addr:street_address": "109 W ELM ST", "amenity": "post_box", "collection_times": "Mo-Fr 11:45; Sa 09:30", "nsi_id": "unitedstatespostalservice-a77078", "operator": "United States Postal Service", "operator:short": "USPS", "operator:type": "public", "operator:wikidata": "Q668687", "ref": "6886600001"}, "type": "Feature"}
{"geometry": {"coordinates": [-99.0851111257, 40.9664883266], "type": "Point"}, "id": "GR5bSKbWfOTG4F19OAKOU2luzlU=", "properties": {"@source_uri": "https://tools.usps.com/UspsToolsRestServices/rest/POLocator/findLocations", "@spider": "usps_collection_boxes", "addr:city": "PLEASANTON", "addr:country": "US", "addr:postcode": "68866", "addr:state": "NE", "addr:street_address": "109 W ELM ST", "amenity": "post_box", "collection_times": "Mo-Fr 11:50; Sa 09:50", "indoor": "yes", "nsi_id": "unitedstatespostalservice-a77078", "operator": "United States Postal Service", "operator:short": "USPS", "operator:type": "public", "operator:wikidata": "Q668687", "ref": "6886600003"}, "type": "Feature"}
{"geometry": {"coordinates": [-99.0851111257, 40.9664883266], "type": "Point"}, "id": "Q463jhHGFzNXfO0p8zseYGPGWVI=", "properties": {"@source_uri": "https://tools.usps.com/UspsToolsRestServices/rest/POLocator/findLocations", "@spider": "usps_collection_boxes", "addr:city": "PLEASANTON", "addr:country": "US", "addr:postcode": "68866", "addr:state": "NE", "addr:street_address": "109 W ELM ST", "amenity": "post_box", "collection_times": "Mo-Fr 11:50; Sa 09:50", "indoor": "yes", "nsi_id": "unitedstatespostalservice-a77078", "operator": "United States Postal Service", "operator:short": "USPS", "operator:type": "public", "operator:wikidata": "Q668687", "ref": "6886600004"}, "type": "Feature"}
{"geometry": {"coordinates": [-98.911265556, 41.026463665], "type": "Point"}, "id": "R7B9FJRtDl-eMwR4P3yUcOtLj2s=", "properties": {"@source_uri": "https://tools.usps.com/UspsToolsRestServices/rest/POLocator/findLocations", "@spider": "usps_collection_boxes", "addr:city": "RAVENNA", "addr:country": "US", "addr:postcode": "68869", "addr:state": "NE", "addr:street_address": "401 MILAN AVE", "amenity": "post_box", "collection_times": "Mo-Fr 17:00; Sa 09:45", "note": "ON 12/24 AND 12/31, THIS BOX MAY BE COLLECTED AS EARLY AS 12 NOON.", "nsi_id": "unitedstatespostalservice-a77078", "operator": "United States Postal Service", "operator:short": "USPS", "operator:type": "public", "operator:wikidata": "Q668687", "ref": "6886900002"}, "type": "Feature"}
{"geometry": {"coordinates": [-98.912663563, 41.026995555], "type": "Point"}, "id": "IpAu4iaeeNQQAPBq0TkPSydYK0Q=", "properties": {"@source_uri": "https://tools.usps.com/UspsToolsRestServices/rest/POLocator/findLocations", "@spider": "usps_collection_boxes", "addr:city": "RAVENNA", "addr:country": "US", "addr:postcode": "68869", "addr:state": "NE", "addr:street_address": "423 GRAND AVE", "amenity": "post_box", "collection_times": "Mo-Sa 13:00", "note": "ON 12/24 AND 12/31, THIS BOX MAY BE COLLECTED AS EARLY AS 12 NOON.", "nsi_id": "unitedstatespostalservice-a77078", "operator": "United States Postal Service", "operator:short": "USPS", "operator:type": "public", "operator:wikidata": "Q668687", "ref": "6886900004"}, "type": "Feature"}
{"geometry": {"coordinates": [-98.911265556, 41.026463665], "type": "Point"}, "id": "nqAUyHT_fQwiBjYHb0G_JYh2C7M=", "properties": {"@source_uri": "https://tools.usps.com/UspsToolsRestServices/rest/POLocator/findLocations", "@spider": "usps_collection_boxes", "addr:city": "RAVENNA", "addr:country": "US", "addr:postcode": "68869", "addr:state": "NE", "addr:street_address": "401 MILAN AVE", "amenity": "post_box", "collection_times": "Mo-Fr 14:05; Sa 09:45", "indoor": "yes", "note": "ON 12/24 AND 12/31, THIS BOX MAY BE COLLECTED AS EARLY AS 12 NOON.", "nsi_id": "unitedstatespostalservice-a77078", "operator": "United States Postal Service", "operator:short": "USPS", "operator:type": "public", "operator:wikidata": "Q668687", "ref": "6886900005"}, "type": "Feature"}
{"geometry": {"coordinates": [-98.9112655559, 41.0264636647], "type": "Point"}, "id": "KBNMrqhsQ5trCyq7immPcafgrWQ=", "properties": {"@source_uri": "https://tools.usps.com/UspsToolsRestServices/rest/POLocator/findLocations", "@spider": "usps_collection_boxes", "addr:city": "RAVENNA", "addr:country": "US", "addr:postcode": "68869", "addr:state": "NE", "addr:street_address": "401 MILAN AVE", "amenity": "post_box", "collection_times": "Mo-Fr 14:05; Sa 09:45", "indoor": "yes", "note": "ON 12/24 AND 12/31, THIS BOX MAY BE COLLECTED AS EARLY AS 12 NOON.", "nsi_id": "unitedstatespostalservice-a77078", "operator": "United States Postal Service", "operator:short": "USPS", "operator:type": "public", "operator:wikidata": "Q668687", "ref": "6886900006"}, "type": "Feature"}
{"geometry": {"coordinates": [-99.1624961, 40.783515212], "type": "Point"}, "id": "4jboWDnQwuxaiXhSnOsx-dYV9j4=", "properties": {"@source_uri": "https://tools.usps.com/UspsToolsRestServices/rest/POLocator/findLocations", "@spider": "usps_collection_boxes", "addr:city": "RIVERDALE", "addr:country": "US", "addr:postcode": "68870", "addr:state": "NE", "addr:street_address": "216 3RD AVE", "amenity": "post_box", "collection_times": "Mo-Fr 13:15; Sa 10:15", "note": "ON 12/24 AND 12/31, THIS BOX MAY BE COLLECTED AS EARLY AS 12 NOON.", "nsi_id": "unitedstatespostalservice-a77078", "operator": "United States Postal Service", "operator:short": "USPS", "operator:type": "public", "operator:wikidata": "Q668687", "ref": "6887000001"}, "type": "Feature"}
{"geometry": {"coordinates": [-99.1624960996, 40.7835152121], "type": "Point"}, "id": "0TYYIsdp-2j1axewUh7I8gj0h8I=", "properties": {"@source_uri": "https://tools.usps.com/UspsToolsRestServices/rest/POLocator/findLocations", "@spider": "usps_collection_boxes", "addr:city": "RIVERDALE", "addr:country": "US", "addr:postcode": "68870", "addr:state": "NE", "addr:street_address": "216 3RD AVE", "amenity": "post_box", "collection_times": "Mo-Fr 13:15; Sa 09:30", "indoor": "yes", "note": "ON 12/24 AND 12/31, THIS BOX MAY BE COLLECTED AS EARLY AS 12 NOON.", "nsi_id": "unitedstatespostalservice-a77078", "operator": "United States Postal Service", "operator:short": "USPS", "operator:type": "public", "operator:wikidata": "Q668687", "ref": "6887000002"}, "type": "Feature"}
{"geometry": {"coordinates": [-99.1624961, 40.783515212], "type": "Point"}, "id": "NNr5i46mdmFFlDrTWNkeoJWPeoQ=", "properties": {"@source_uri": "https://tools.usps.com/UspsToolsRestServices/rest/POLocator/findLocations", "@spider": "usps_collection_boxes", "addr:city": "RIVERDALE", "addr:country": "US", "addr:postcode": "68870", "addr:state": "NE", "addr:street_address": "216 3RD AVE", "amenity": "post_box", "collection_times": "Mo-Fr 13:15; Sa 09:30", "indoor": "yes", "note": "ON 12/24 AND 12/31, THIS BOX MAY BE COLLECTED AS EARLY AS 12 NOON.", "nsi_id": "unitedstatespostalservice-a77078", "operator": "United States Postal Service", "operator:short": "USPS", "operator:type": "public", "operator:wikidata": "Q668687", "ref": "6887000003"}, "type": "Feature"}
{"geometry": {"coordinates": [-98.832113933, 41.117656301], "type": "Point"}, "id": "nMadS2iGoWqQW5sK5V8Xg5_FJB0=", "properties": {"@source_uri": "https://tools.usps.com/UspsToolsRestServices/rest/POLocator/findLocations", "@spider": "usps_collection_boxes", "addr:city": "ROCKVILLE", "addr:country": "US", "addr:postcode": "68871", "addr:state": "NE", "addr:street_address": "229 N LEY ST", "amenity": "post_box", "collection_times": "Mo-Fr 10:45; Sa 09:30", "nsi_id": "unitedstatespostalservice-a77078", "operator": "United States Postal Service", "operator:short": "USPS", "operator:type": "public", "operator:wikidata": "Q668687", "ref": "6887100001"}, "type": "Feature"}
{"geometry": {"coordinates": [-98.832113933, 41.117656301], "type": "Point"}, "id": "8E0GIbFckf5BdcZvKvI040xabt8=", "properties": {"@source_uri": "https://tools.usps.com/UspsToolsRestServices/rest/POLocator/findLocations", "@spider": "usps_collection_boxes", "addr:city": "ROCKVILLE", "addr:country": "US", "addr:postcode": "68871", "addr:state": "NE", "addr:street_address": "229 N LEY ST", "amenity": "post_box", "collection_times": "Mo-Fr 10:50; Sa 09:35", "indoor": "yes", "nsi_id": "unitedstatespostalservice-a77078", "operator": "United States Postal Service", "operator:short": "USPS", "operator:type": "public", "operator:wikidata": "Q668687", "ref": "6887100002"}, "type": "Feature"}
{"geometry": {"coordinates": [-98.832113933, 41.117656301], "type": "Point"}, "id": "CI7LJd__7yu9zItY7DAqzLFAhCM=", "properties": {"@source_uri": "https://tools.usps.com/UspsToolsRestServices/rest/POLocator/findLocations", "@spider": "usps_collection_boxes", "addr:city": "ROCKVILLE", "addr:country": "US", "addr:postcode": "68871", "addr:state": "NE", "addr:street_address": "229 N LEY ST", "amenity": "post_box", "collection_times": "Mo-Fr 10:50; Sa 09:35", "indoor": "yes", "nsi_id": "unitedstatespostalservice-a77078", "operator": "United States Postal Service", "operator:short": "USPS", "operator:type": "public", "operator:wikidata": "Q668687", "ref": "6887100003"}, "type": "Feature"}
{"geometry": {"coordinates": [-98.3551327522, 41.0811698351], "type": "Point"}, "id": "Ep6nSbi7djkAegPikdcsPfplysY=", "properties": {"@source_uri": "https://tools.usps.com/UspsToolsRestServices/rest/POLocator/findLocations", "@spider": "usps_collection_boxes", "addr:city": "SAINT LIBORY", "addr:country": "US", "addr:postcode": "68872", "addr:state": "NE", "addr:street_address": "303 SPRUCE ST", "amenity": "post_box", "collection_times": "Mo-Fr 11:45; Sa 09:45", "nsi_id": "unitedstatespostalservice-a77078", "operator": "United States Postal Service", "operator:short": "USPS", "operator:type": "public", "operator:wikidata": "Q668687", "ref": "6887200001"}, "type": "Feature"}
{"geometry": {"coordinates": [-98.355132752, 41.081169835], "type": "Point"}, "id": "qv8gvqK_DsEei5RmThP8GXfI5SQ=", "properties": {"@source_uri": "https://tools.usps.com/UspsToolsRestServices/rest/POLocator/findLocations", "@spider": "usps_collection_boxes", "addr:city": "SAINT LIBORY", "addr:country": "US", "addr:postcode": "68872", "addr:state": "NE", "addr:street_address": "303 SPRUCE ST", "amenity": "post_box", "collection_times": "Mo-Fr 11:50; Sa 09:30", "indoor": "yes", "nsi_id": "unitedstatespostalservice-a77078", "operator": "United States Postal Service", "operator:short": "USPS", "operator:type": "public", "operator:wikidata": "Q668687", "ref": "6887200002"}, "type": "Feature"}
{"geometry": {"coordinates": [-98.355132752, 41.081169835], "type": "Point"}, "id": "DqBTUdKME04rDBSqXhg2XKibK8w=", "properties": {"@source_uri": "https://tools.usps.com/UspsToolsRestServices/rest/POLocator/findLocations", "@spider": "usps_collection_boxes", "addr:city": "SAINT LIBORY", "addr:country": "US", "addr:postcode": "68872", "addr:state": "NE", "addr:street_address": "303 SPRUCE ST", "amenity": "post_box", "collection_times": "Mo-Fr 11:50; Sa 09:30", "indoor": "yes", "nsi_id": "unitedstatespostalservice-a77078", "operator": "United States Postal Service", "operator:short": "USPS", "operator:type": "public", "operator:wikidata": "Q668687", "ref": "6887200003"}, "type": "Feature"}
{"geometry": {"coordinates": [-98.458146542, 41.214545665], "type": "Point"}, "id": "f5E1fm78vMPmRi0ge46hi0Ez4mI=", "properties": {"@source_uri": "https://tools.usps.com/UspsToolsRestServices/rest/POLocator/findLocations", "@spider": "usps_collection_boxes", "addr:city": "SAINT PAUL", "addr:country": "US", "addr:postcode": "68873", "addr:state": "NE", "addr:street_address": "901 7TH ST", "amenity": "post_box", "collection_times": "Mo-Fr 17:00; Sa 11:15", "note": "ON 12/24 AND 12/31, THIS BOX MAY BE COLLECTED AS EARLY AS 12 NOON.", "nsi_id": "unitedstatespostalservice-a77078", "operator": "United States Postal Service", "operator:short": "USPS", "operator:type": "public", "operator:wikidata": "Q668687", "ref": "6887300001"}, "type": "Feature"}
{"geometry": {"coordinates": [-98.458146542, 41.214545665], "type": "Point"}, "id": "yEB6ISKNVD6urcXQtEXB-Gk4RC4=", "properties": {"@source_uri": "https://tools.usps.com/UspsToolsRestServices/rest/POLocator/findLocations", "@spider": "usps_collection_boxes", "addr:city": "SAINT PAUL", "addr:country": "US", "addr:postcode": "68873", "addr:state": "NE", "addr:street_address": "901 7TH ST", "amenity": "post_box", "collection_times": "Mo-Fr 13:25; Sa 11:15", "indoor": "yes", "note": "ON 12/24 AND 12/31, THIS BOX MAY BE COLLECTED AS EARLY AS 12 NOON.", "nsi_id": "unitedstatespostalservice-a77078", "operator": "United States Postal Service", "operator:short": "USPS", "operator:type": "public", "operator:wikidata": "Q668687", "ref": "6887300007"}, "type": "Feature"}
{"geometry": {"coordinates": [-98.458146542, 41.214545665], "type": "Point"}, "id": "-aABJhko3fL9l_VSH1ZLKk5x_8I=", "properties": {"@source_uri": "https://tools.usps.com/UspsToolsRestServices/rest/POLocator/findLocations", "@spider": "usps_collection_boxes", "addr:city": "SAINT PAUL", "addr:country": "US", "addr:postcode": "68873", "addr:state": "NE", "addr:street_address": "901 7TH ST", "amenity": "post_box", "collection_times": "Mo-Fr 13:25; Sa 11:15", "indoor": "yes", "note": "ON 12/24 AND 12/31, THIS BOX MAY BE COLLECTED AS EARLY AS 12 NOON.", "nsi_id": "unitedstatespostalservice-a77078", "operator": "United States Postal Service", "operator:short": "USPS", "operator:type": "public", "operator:wikidata": "Q668687", "ref": "6887300008"}, "type": "Feature"}
{"geometry": {"coordinates": [-99.372804447, 41.640420871], "type": "Point"}, "id": "FFewBVCe1jJ93BrQB6d7X5n6GC4=", "properties": {"@source_uri": "https://tools.usps.com/UspsToolsRestServices/rest/POLocator/findLocations", "@spider": "usps_collection_boxes", "addr:city": "SARGENT", "addr:country": "US", "addr:postcode": "68874", "addr:state": "NE", "addr:street_address": "602 W MAIN ST", "amenity": "post_box", "collection_times": "Mo-Fr 14:15; Sa 10:15", "note": "ON 12/24 AND 12/31, THIS BOX MAY BE COLLECTED AS EARLY AS 12 NOON.", "nsi_id": "unitedstatespostalservice-a77078", "operator": "United States Postal Service", "operator:short": "USPS", "operator:type": "public", "operator:wikidata": "Q668687", "ref": "6887400001"}, "type": "Feature"}
{"geometry": {"coordinates": [-99.372804447, 41.640420871], "type": "Point"}, "id": "uMW40HPCY1QosQpY0pNH82-HQxQ=", "properties": {"@source_uri": "https://tools.usps.com/UspsToolsRestServices/rest/POLocator/findLocations", "@spider": "usps_collection_boxes", "addr:city": "SARGENT", "addr:country": "US", "addr:postcode": "68874", "addr:state": "NE", "addr:street_address": "602 W MAIN ST", "amenity": "post_box", "collection_times": "Mo-Fr 12:20; Sa 10:15", "indoor": "yes", "note": "ON 12/24 AND 12/31, THIS BOX MAY BE COLLECTED AS EARLY AS 12 NOON.", "nsi_id": "unitedstatespostalservice-a77078", "operator": "United States Postal Service", "operator:short": "USPS", "operator:type": "public", "operator:wikidata": "Q668687", "ref": "6887400002"}, "type": "Feature"}
{"geometry": {"coordinates": [-99.372804447, 41.640420871], "type": "Point"}, "id": "0-bqi073v-PxNclkfInDLaAR1hs=", "properties": {"@source_uri": "https://tools.usps.com/UspsToolsRestServices/rest/POLocator/findLocations", "@spider": "usps_collection_boxes", "addr:city": "SARGENT", "addr:country": "US", "addr:postcode": "68874", "addr:state": "NE", "addr:street_address": "602 W MAIN ST", "amenity": "post_box", "collection_times": "Mo-Fr 12:20; Sa 10:15", "indoor": "yes", "note": "ON 12/24 AND 12/31, THIS BOX MAY BE COLLECTED AS EARLY AS 12 NOON.", "nsi_id": "unitedstatespostalservice-a77078", "operator": "United States Postal Service", "operator:short": "USPS", "operator:type": "public", "operator:wikidata": "Q668687", "ref": "6887400003"}, "type": "Feature"}
{"geometry": {"coordinates": [-98.703097139, 41.465436682], "type": "Point"}, "id": "XvjnsKnbJuQMlDTq-KsDs9YSQkI=", "properties": {"@source_uri": "https://tools.usps.com/UspsToolsRestServices/rest/POLocator/findLocations", "@spider": "usps_collection_boxes", "addr:city": "SCOTIA", "addr:country": "US", "addr:postcode": "68875", "addr:state": "NE", "addr:street_address": "202 S MAIN ST", "amenity": "post_box", "collection_times": "Mo-Fr 12:15; Sa 09:15", "note": "ON 12/24 AND 12/31, THIS BOX MAY BE COLLECTED AS EARLY AS 12 NOON.", "nsi_id": "unitedstatespostalservice-a77078", "operator": "United States Postal Service", "operator:short": "USPS", "operator:type": "public", "operator:wikidata": "Q668687", "ref": "6887500001"}, "type": "Feature"}
{"geometry": {"coordinates": [-98.7030971392, 41.4654366819], "type": "Point"}, "id": "vUF7NXzsZXbkkS1t4iIPqmp77L4=", "properties": {"@source_uri": "https://tools.usps.com/UspsToolsRestServices/rest/POLocator/findLocations", "@spider": "usps_collection_boxes", "addr:city": "SCOTIA", "addr:country": "US", "addr:postcode": "68875", "addr:state": "NE", "addr:street_address": "202 S MAIN ST", "amenity": "post_box", "collection_times": "Mo-Fr 12:20; Sa 09:35", "indoor": "yes", "note": "ON 12/24 AND 12/31, THIS BOX MAY BE COLLECTED AS EARLY AS 12 NOON.", "nsi_id": "unitedstatespostalservice-a77078", "operator": "United States Postal Service", "operator:short": "USPS", "operator:type": "public", "operator:wikidata": "Q668687", "ref": "6887500002"}, "type": "Feature"}
{"geometry": {"coordinates": [-98.7030971392, 41.4654366819], "type": "Point"}, "id": "8uJfjRyDQjbwQfJVQkIdmu7VCSw=", "properties": {"@source_uri": "https://tools.usps.com/UspsToolsRestServices/rest/POLocator/findLocations", "@spider": "usps_collection_boxes", "addr:city": "SCOTIA", "addr:country": "US", "addr:postcode": "68875", "addr:state": "NE", "addr:street_address": "202 S MAIN ST", "amenity": "post_box", "collection_times": "Mo-Fr 12:20; Sa 09:35", "indoor": "yes", "note": "ON 12/24 AND 12/31, THIS BOX MAY BE COLLECTED AS EARLY AS 12 NOON.", "nsi_id": "unitedstatespostalservice-a77078", "operator": "United States Postal Service", "operator:short": "USPS", "operator:type": "public", "operator:wikidata": "Q668687", "ref": "6887500003"}, "type": "Feature"}
{"geometry": {"coordinates": [-98.7336679728, 40.778817004], "type": "Point"}, "id": "PnIYdkv5_yNGEEAbJdfwelzQTYs=", "properties": {"@source_uri": "https://tools.usps.com/UspsToolsRestServices/rest/POLocator/findLocations", "@spider": "usps_collection_boxes", "addr:city": "SHELTON", "addr:country": "US", "addr:postcode": "68876", "addr:state": "NE", "addr:street_address": "201 C ST", "amenity": "post_box", "collection_times": "Mo-Fr 15:15; Sa 09:45", "note": "ON 12/24 AND 12/31, THIS BOX MAY BE COLLECTED AS EARLY AS 12 NOON.", "nsi_id": "unitedstatespostalservice-a77078", "operator": "United States Postal Service", "operator:short": "USPS", "operator:type": "public", "operator:wikidata": "Q668687", "ref": "6887600001"}, "type": "Feature"}
{"geometry": {"coordinates": [-98.7336679728, 40.778817004], "type": "Point"}, "id": "UUgnUCqpvwebCR0jsbiQeMpA1dA=", "properties": {"@source_uri": "https://tools.usps.com/UspsToolsRestServices/rest/POLocator/findLocations", "@spider": "usps_collection_boxes", "addr:city": "SHELTON", "addr:country": "US", "addr:postcode": "68876", "addr:state": "NE", "addr:street_address": "201 C ST", "amenity": "post_box", "collection_times": "Mo-Fr 14:38; Sa 09:45", "indoor": "yes", "note": "ON 12/24 AND 12/31, THIS BOX MAY BE COLLECTED AS EARLY AS 12 NOON.", "nsi_id": "unitedstatespostalservice-a77078", "operator": "United States Postal Service", "operator:short": "USPS", "operator:type": "public", "operator:wikidata": "Q668687", "ref": "6887600002"}, "type": "Feature"}
{"geometry": {"coordinates": [-98.7336679728, 40.778817004], "type": "Point"}, "id": "agRAJormKN3LSzWlBHos_wqr3qg=", "properties": {"@source_uri": "https://tools.usps.com/UspsToolsRestServices/rest/POLocator/findLocations", "@spider": "usps_collection_boxes", "addr:city": "SHELTON", "addr:country": "US", "addr:postcode": "68876", "addr:state": "NE", "addr:street_address": "201 C ST", "amenity": "post_box", "collection_times": "Mo-Fr 14:38; Sa 09:45", "indoor": "yes", "note": "ON 12/24 AND 12/31, THIS BOX MAY BE COLLECTED AS EARLY AS 12 NOON.", "nsi_id": "unitedstatespostalservice-a77078", "operator": "United States Postal Service", "operator:short": "USPS", "operator:type": "public", "operator:wikidata": "Q668687", "ref": "6887600003"}, "type": "Feature"}
{"geometry": {"coordinates": [-99.5080566331, 40.9499196706], "type": "Point"}, "id": "q-3-nR0S1Yohv1rKd0oOgEsbUZc=", "properties": {"@source_uri": "https://tools.usps.com/UspsToolsRestServices/rest/POLocator/findLocations", "@spider": "usps_collection_boxes", "addr:city": "SUMNER", "addr:country": "US", "addr:postcode": "68878", "addr:state": "NE", "addr:street_address": "504 MAIN ST", "amenity": "post_box", "collection_times": "Mo-Fr 11:45; Sa 09:15", "nsi_id": "unitedstatespostalservice-a77078", "operator": "United States Postal Service", "operator:short": "USPS", "operator:type": "public", "operator:wikidata": "Q668687", "ref": "6887800000"}, "type": "Feature"}
{"geometry": {"coordinates": [-99.5080566331, 40.9499196706], "type": "Point"}, "id": "Cqjn6dNCqaFUQL_j_fii5B39vpY=", "properties": {"@source_uri": "https://tools.usps.com/UspsToolsRestServices/rest/POLocator/findLocations", "@spider": "usps_collection_boxes", "addr:city": "SUMNER", "addr:country": "US", "addr:postcode": "68878", "addr:state": "NE", "addr:street_address": "504 MAIN ST", "amenity": "post_box", "collection_times": "Mo-Fr 11:50; Sa 09:15", "indoor": "yes", "nsi_id": "unitedstatespostalservice-a77078", "operator": "United States Postal Service", "operator:short": "USPS", "operator:type": "public", "operator:wikidata": "Q668687", "ref": "6887800001"}, "type": "Feature"}
{"geometry": {"coordinates": [-99.5080566331, 40.9499196706], "type": "Point"}, "id": "OEKHJKMYHw7ATgJzFKNLRYjyC8g=", "properties": {"@source_uri": "https://tools.usps.com/UspsToolsRestServices/rest/POLocator/findLocations", "@spider": "usps_collection_boxes", "addr:city": "SUMNER", "addr:country": "US", "addr:postcode": "68878", "addr:state": "NE", "addr:street_address": "504 MAIN ST", "amenity": "post_box", "collection_times": "Mo-Fr 11:50; Sa 09:15", "indoor": "yes", "nsi_id": "unitedstatespostalservice-a77078", "operator": "United States Postal Service", "operator:short": "USPS", "operator:type": "public", "operator:wikidata": "Q668687", "ref": "6887800002"}, "type": "Feature"}
{"geometry": {"coordinates": [-99.3811033245, 41.7703904361], "type": "Point"}, "id": "dIYGzcEIXIiaeJT9YC3fO10nayY=", "properties": {"@source_uri": "https://tools.usps.com/UspsToolsRestServices/rest/POLocator/findLocations", "@spider": "usps_collection_boxes", "addr:city": "TAYLOR", "addr:country": "US", "addr:postcode": "68879", "addr:state": "NE", "addr:street_address": "406 4TH ST", "amenity": "post_box", "collection_times": "Mo-Sa 12:05", "note": "ON 12/24 AND 12/31, THIS BOX MAY BE COLLECTED AS EARLY AS 12 NOON.", "nsi_id": "unitedstatespostalservice-a77078", "operator": "United States Postal Service", "operator:short": "USPS", "operator:type": "public", "operator:wikidata": "Q668687", "ref": "6887900001"}, "type": "Feature"}
{"geometry": {"coordinates": [-99.3817733367, 41.3963195088], "type": "Point"}, "id": "pYhdv2QzCBmcfaYT-2IEVc4KW5k=", "properties": {"@source_uri": "https://tools.usps.com/UspsToolsRestServices/rest/POLocator/findLocations", "@spider": "usps_collection_boxes", "addr:city": "WESTERVILLE", "addr:country": "US", "addr:postcode": "68881", "addr:state": "NE", "addr:street_address": "45327 2ND ST", "amenity": "post_box", "collection_times": "Mo-Fr 13:10; Sa 13:05", "note": "ON 12/24 AND 12/31, THIS BOX MAY BE COLLECTED AS EARLY AS 12 NOON.", "nsi_id": "unitedstatespostalservice-a77078", "operator": "United States Postal Service", "operator:short": "USPS", "operator:type": "public", "operator:wikidata": "Q668687", "ref": "6888100003"}, "type": "Feature"}
{"geometry": {"coordinates": [-98.39600532, 41.397061182], "type": "Point"}, "id": "JWq3wG2E4zF6LTluRz-lxYrlRKY=", "properties": {"@source_uri": "https://tools.usps.com/UspsToolsRestServices/rest/POLocator/findLocations", "@spider": "usps_collection_boxes", "addr:city": "WOLBACH", "addr:country": "US", "addr:postcode": "68882", "addr:state": "NE", "addr:street_address": "306 CENTER AVE", "amenity": "post_box", "collection_times": "Mo-Fr 11:50; Sa 09:20", "indoor": "yes", "nsi_id": "unitedstatespostalservice-a77078", "operator": "United States Postal Service", "operator:short": "USPS", "operator:type": "public", "operator:wikidata": "Q668687", "ref": "6888200002"}, "type": "Feature"}
{"geometry": {"coordinates": [-98.3960053196, 41.3970611823], "type": "Point"}, "id": "HFv7f0muO603KhCaXelwlygEBqU=", "properties": {"@source_uri": "https://tools.usps.com/UspsToolsRestServices/rest/POLocator/findLocations", "@spider": "usps_collection_boxes", "addr:city": "WOLBACH", "addr:country": "US", "addr:postcode": "68882", "addr:state": "NE", "addr:street_address": "306 CENTER AVE", "amenity": "post_box", "collection_times": "Mo-Fr 11:45; Sa 09:15", "nsi_id": "unitedstatespostalservice-a77078", "operator": "United States Postal Service", "operator:short": "USPS", "operator:type": "public", "operator:wikidata": "Q668687", "ref": "6888200003"}, "type": "Feature"}
{"geometry": {"coordinates": [-98.39600532, 41.397061182], "type": "Point"}, "id": "_nxD3lJ_y85hmYFaZ8PJ_zWrz7k=", "properties": {"@source_uri": "https://tools.usps.com/UspsToolsRestServices/rest/POLocator/findLocations", "@spider": "usps_collection_boxes", "addr:city": "WOLBACH", "addr:country": "US", "addr:postcode": "68882", "addr:state": "NE", "addr:street_address": "306 CENTER AVE", "amenity": "post_box", "collection_times": "Mo-Fr 11:50; Sa 09:20", "indoor": "yes", "nsi_id": "unitedstatespostalservice-a77078", "operator": "United States Postal Service", "operator:short": "USPS", "operator:type": "public", "operator:wikidata": "Q668687", "ref": "6888200004"}, "type": "Feature"}
{"geometry": {"coordinates": [-98.6019062, 40.820511519], "type": "Point"}, "id": "wn_remZiREyzcx9_p3dBoR60wzE=", "properties": {"@source_uri": "https://tools.usps.com/UspsToolsRestServices/rest/POLocator/findLocations", "@spider": "usps_collection_boxes", "addr:city": "WOOD RIVER", "addr:country": "US", "addr:postcode": "68883", "addr:state": "NE", "addr:street_address": "119 W 9TH ST", "amenity": "post_box", "collection_times": "Mo-Fr 15:45; Sa 22:15", "note": "ON 12/24 AND 12/31, THIS BOX MAY BE COLLECTED AS EARLY AS 12 NOON.", "nsi_id": "unitedstatespostalservice-a77078", "operator": "United States Postal Service", "operator:short": "USPS", "operator:type": "public", "operator:wikidata": "Q668687", "ref": "6888300001"}, "type": "Feature"}
{"geometry": {"coordinates": [-98.6019062003, 40.8205115185], "type": "Point"}, "id": "k9UHycwt_jIsExjOmKwZ92COa_I=", "properties": {"@source_uri": "https://tools.usps.com/UspsToolsRestServices/rest/POLocator/findLocations", "@spider": "usps_collection_boxes", "addr:city": "WOOD RIVER", "addr:country": "US", "addr:postcode": "68883", "addr:state": "NE", "addr:street_address": "119 W 9TH ST", "amenity": "post_box", "collection_times": "Mo-Fr 14:50; Sa 10:15", "indoor": "yes", "note": "ON 12/24 AND 12/31, THIS BOX MAY BE COLLECTED AS EARLY AS 12 NOON.", "nsi_id": "unitedstatespostalservice-a77078", "operator": "United States Postal Service", "operator:short": "USPS", "operator:type": "public", "operator:wikidata": "Q668687", "ref": "6888300002"}, "type": "Feature"}
{"geometry": {"coordinates": [-98.6019062, 40.820511519], "type": "Point"}, "id": "bSc3zsfb3YkHGQKuMUEG112u1dE=", "properties": {"@source_uri": "https://tools.usps.com/UspsToolsRestServices/rest/POLocator/findLocations", "@spider": "usps_collection_boxes", "addr:city": "WOOD RIVER", "addr:country": "US", "addr:postcode": "68883", "addr:state": "NE", "addr:street_address": "119 W 9TH ST", "amenity": "post_box", "collection_times": "Mo-Fr 14:50; Sa 10:15", "indoor": "yes", "note": "ON 12/24 AND 12/31, THIS BOX MAY BE COLLECTED AS EARLY AS 12 NOON.", "nsi_id": "unitedstatespostalservice-a77078", "operator": "United States Postal Service", "operator:short": "USPS", "operator:type": "public", "operator:wikidata": "Q668687", "ref": "6888300003"}, "type": "Feature"}
