{"dataset_attributes": {"@spider": "usps_collection_boxes", "spider:collection_time": "2023-12-19T08:25:25.283853"}, "geometry": {"coordinates": [-98.386174, 40.586159], "type": "Point"}, "id": "RnCCc1KK8SyY0pfhWQZNlU3TmMQ=", "properties": {"@spider": "usps_collection_boxes", "addr:city": "HASTINGS", "addr:country": "US", "addr:full": "300 N KANSAS AVE", "addr:postcode": "68901", "addr:state": "NE", "amenity": "post_box", "brand": "United States Postal Service", "brand:wikidata": "Q668687", "collection_times": "Mo-Fr 15:00; Sa 14:25", "name": "USPS COLLECTION BOX - BLUE BOX", "note": "ON 12/24 AND 12/31, THIS BOX MAY BE COLLECTED AS EARLY AS 12 NOON.", "nsi_id": "unitedstatespostalservice-a77078", "operator": "United States Postal Service", "operator:short": "USPS", "operator:type": "public", "operator:wikidata": "Q668687", "ref": "6890100002"}, "type": "Feature"}
{"dataset_attributes": {"@spider": "usps_collection_boxes", "spider:collection_time": "2023-12-19T08:25:25.283853"}, "geometry": {"coordinates": [-98.386174, 40.586159], "type": "Point"}, "id": "O_HW37nO_WLomxq6JDMfzvm6AYc=", "properties": {"@spider": "usps_collection_boxes", "addr:city": "HASTINGS", "addr:country": "US", "addr:full": "300 N KANSAS AVE", "addr:postcode": "68901", "addr:state": "NE", "amenity": "post_box", "brand": "United States Postal Service", "brand:wikidata": "Q668687", "collection_times": "Mo-Fr 15:00; Sa 14:25", "name": "USPS COLLECTION BOX - BLUE BOX", "note": "ON 12/24 AND 12/31, THIS BOX MAY BE COLLECTED AS EARLY AS 12 NOON.", "nsi_id": "unitedstatespostalservice-a77078", "operator": "United States Postal Service", "operator:short": "USPS", "operator:type": "public", "operator:wikidata": "Q668687", "ref": "6890100004"}, "type": "Feature"}
{"dataset_attributes": {"@spider": "usps_collection_boxes", "spider:collection_time": "2023-12-19T08:25:25.283853"}, "geometry": {"coordinates": [-98.3700579, 40.582393], "type": "Point"}, "id": "xtVGGD-2uKV-wIYciuoVZqq8UL0=", "properties": {"@spider": "usps_collection_boxes", "addr:city": "HASTINGS", "addr:country": "US", "addr:full": "910 E SOUTH ST", "addr:postcode": "68901", "addr:state": "NE", "amenity": "post_box", "brand": "United States Postal Service", "brand:wikidata": "Q668687", "collection_times": "Mo-Sa 10:30", "name": "USPS COLLECTION BOX - BLUE BOX", "nsi_id": "unitedstatespostalservice-a77078", "operator": "United States Postal Service", "operator:short": "USPS", "operator:type": "public", "operator:wikidata": "Q668687", "ref": "6890100006"}, "type": "Feature"}
{"dataset_attributes": {"@spider": "usps_collection_boxes", "spider:collection_time": "2023-12-19T08:25:25.283853"}, "geometry": {"coordinates": [-98.3897564, 40.58785], "type": "Point"}, "id": "jWezGbziAwnuB6Q8xJWw9PYmcVU=", "properties": {"@spider": "usps_collection_boxes", "addr:city": "HASTINGS", "addr:country": "US", "addr:full": "422 N HASTINGS AVE", "addr:postcode": "68901", "addr:state": "NE", "amenity": "post_box", "brand": "United States Postal Service", "brand:wikidata": "Q668687", "collection_times": "Mo-Sa 09:00", "name": "USPS COLLECTION BOX - BLUE BOX", "nsi_id": "unitedstatespostalservice-a77078", "operator": "United States Postal Service", "operator:short": "USPS", "operator:type": "public", "operator:wikidata": "Q668687", "ref": "6890100008"}, "type": "Feature"}
{"dataset_attributes": {"@spider": "usps_collection_boxes", "spider:collection_time": "2023-12-19T08:25:25.283853"}, "geometry": {"coordinates": [-98.3875516, 40.590529], "type": "Point"}, "id": "Au5NgGPGcMnVdhTfe3aZWvCWtu4=", "properties": {"@spider": "usps_collection_boxes", "addr:city": "HASTINGS", "addr:country": "US", "addr:full": "715 N SAINT JOSEPH AVE", "addr:postcode": "68901", "addr:state": "NE", "amenity": "post_box", "brand": "United States Postal Service", "brand:wikidata": "Q668687", "collection_times": "Mo-Sa 09:00", "name": "USPS COLLECTION BOX - BLUE BOX", "nsi_id": "unitedstatespostalservice-a77078", "operator": "United States Postal Service", "operator:short": "USPS", "operator:type": "public", "operator:wikidata": "Q668687", "ref": "6890100009"}, "type": "Feature"}
{"dataset_attributes": {"@spider": "usps_collection_boxes", "spider:collection_time": "2023-12-19T08:25:25.283853"}, "geometry": {"coordinates": [-98.3917431, 40.601305], "type": "Point"}, "id": "8wOTMiZDaXqK6-g2NxjNBVW7eO4=", "properties": {"@spider": "usps_collection_boxes", "addr:city": "HASTINGS", "addr:country": "US", "addr:full": "1414 N BURLINGTON AVE", "addr:postcode": "68901", "addr:state": "NE", "amenity": "post_box", "brand": "United States Postal Service", "brand:wikidata": "Q668687", "collection_times": "Mo-Sa 10:00", "name": "USPS COLLECTION BOX - BLUE BOX", "nsi_id": "unitedstatespostalservice-a77078", "operator": "United States Postal Service", "operator:short": "USPS", "operator:type": "public", "operator:wikidata": "Q668687", "ref": "6890100012"}, "type": "Feature"}
{"dataset_attributes": {"@spider": "usps_collection_boxes", "spider:collection_time": "2023-12-19T08:25:25.283853"}, "geometry": {"coordinates": [-98.4192826, 40.585204], "type": "Point"}, "id": "_5MFqRODsbRM9x4bF6ZFO5dfaOo=", "properties": {"@spider": "usps_collection_boxes", "addr:city": "HASTINGS", "addr:country": "US", "addr:full": "2727 W 2ND ST", "addr:postcode": "68901", "addr:state": "NE", "amenity": "post_box", "brand": "United States Postal Service", "brand:wikidata": "Q668687", "collection_times": "Mo-Sa 09:30", "name": "USPS COLLECTION BOX - BLUE BOX", "nsi_id": "unitedstatespostalservice-a77078", "operator": "United States Postal Service", "operator:short": "USPS", "operator:type": "public", "operator:wikidata": "Q668687", "ref": "6890100016"}, "type": "Feature"}
{"dataset_attributes": {"@spider": "usps_collection_boxes", "spider:collection_time": "2023-12-19T08:25:25.283853"}, "geometry": {"coordinates": [-98.4192874, 40.585205], "type": "Point"}, "id": "PTW0mHAUseLBKG6VAqo-3x6howo=", "properties": {"@spider": "usps_collection_boxes", "addr:city": "HASTINGS", "addr:country": "US", "addr:full": "2727 W 2ND ST", "addr:postcode": "68901", "addr:state": "NE", "amenity": "post_box", "brand": "United States Postal Service", "brand:wikidata": "Q668687", "collection_times": "Mo-Sa 09:30", "name": "USPS COLLECTION BOX - BLUE BOX", "nsi_id": "unitedstatespostalservice-a77078", "operator": "United States Postal Service", "operator:short": "USPS", "operator:type": "public", "operator:wikidata": "Q668687", "ref": "6890100017"}, "type": "Feature"}
{"dataset_attributes": {"@spider": "usps_collection_boxes", "spider:collection_time": "2023-12-19T08:25:25.283853"}, "geometry": {"coordinates": [-98.386174, 40.586159], "type": "Point"}, "id": "rd8XBFtDSQ5SQUgV5hdrCBQjeLU=", "properties": {"@spider": "usps_collection_boxes", "addr:city": "HASTINGS", "addr:country": "US", "addr:full": "300 N KANSAS AVE", "addr:postcode": "68901", "addr:state": "NE", "amenity": "post_box", "brand": "United States Postal Service", "brand:wikidata": "Q668687", "collection_times": "Mo-Fr 15:00; Sa 14:25", "name": "USPS COLLECTION BOX - PO LOBBY", "note": "ON 12/24 AND 12/31, THIS BOX MAY BE COLLECTED AS EARLY AS 12 NOON.", "nsi_id": "unitedstatespostalservice-a77078", "operator": "United States Postal Service", "operator:short": "USPS", "operator:type": "public", "operator:wikidata": "Q668687", "ref": "6890100040"}, "type": "Feature"}
{"dataset_attributes": {"@spider": "usps_collection_boxes", "spider:collection_time": "2023-12-19T08:25:25.283853"}, "geometry": {"coordinates": [-98.393313, 40.590766], "type": "Point"}, "id": "iGsygKq5t7BDwqkjf0NM2aSuod8=", "properties": {"@spider": "usps_collection_boxes", "addr:city": "HASTINGS", "addr:country": "US", "addr:full": "747 N BURLINGTON AVE", "addr:postcode": "68901", "addr:state": "NE", "amenity": "post_box", "brand": "United States Postal Service", "brand:wikidata": "Q668687", "collection_times": "Mo-Sa 09:00", "name": "USPS COLLECTION BOX - BLUE BOX", "nsi_id": "unitedstatespostalservice-a77078", "operator": "United States Postal Service", "operator:short": "USPS", "operator:type": "public", "operator:wikidata": "Q668687", "ref": "6890100041"}, "type": "Feature"}
{"dataset_attributes": {"@spider": "usps_collection_boxes", "spider:collection_time": "2023-12-19T08:25:25.283853"}, "geometry": {"coordinates": [-98.3864394, 40.607898], "type": "Point"}, "id": "UzaKxe-twsbSwHr_LfELi39yHeo=", "properties": {"@spider": "usps_collection_boxes", "addr:city": "HASTINGS", "addr:country": "US", "addr:full": "2211 N KANSAS AVE", "addr:postcode": "68901", "addr:state": "NE", "amenity": "post_box", "brand": "United States Postal Service", "brand:wikidata": "Q668687", "collection_times": "Mo-Sa 11:30", "name": "USPS COLLECTION BOX - BLUE BOX", "nsi_id": "unitedstatespostalservice-a77078", "operator": "United States Postal Service", "operator:short": "USPS", "operator:type": "public", "operator:wikidata": "Q668687", "ref": "6890100043"}, "type": "Feature"}
{"dataset_attributes": {"@spider": "usps_collection_boxes", "spider:collection_time": "2023-12-19T08:25:25.283853"}, "geometry": {"coordinates": [-98.3932388, 40.573], "type": "Point"}, "id": "UulrsLip-gIZI-jDTskShQPYYwA=", "properties": {"@spider": "usps_collection_boxes", "addr:city": "HASTINGS", "addr:country": "US", "addr:full": "920 S BURLINGTON AVE", "addr:postcode": "68901", "addr:state": "NE", "amenity": "post_box", "brand": "United States Postal Service", "brand:wikidata": "Q668687", "collection_times": "Mo-Sa 11:00", "name": "USPS COLLECTION BOX - BLUE BOX", "nsi_id": "unitedstatespostalservice-a77078", "operator": "United States Postal Service", "operator:short": "USPS", "operator:type": "public", "operator:wikidata": "Q668687", "ref": "6890100045"}, "type": "Feature"}
{"dataset_attributes": {"@spider": "usps_collection_boxes", "spider:collection_time": "2023-12-19T08:25:25.283853"}, "geometry": {"coordinates": [-98.3837893, 40.614743], "type": "Point"}, "id": "hL_eThoqAfRg644udXD-SW3xXGg=", "properties": {"@spider": "usps_collection_boxes", "addr:city": "HASTINGS", "addr:country": "US", "addr:full": "2815 OSBORNE DR W", "addr:postcode": "68901", "addr:state": "NE", "amenity": "post_box", "brand": "United States Postal Service", "brand:wikidata": "Q668687", "collection_times": "Mo-Sa 10:00", "name": "USPS COLLECTION BOX - BLUE BOX", "nsi_id": "unitedstatespostalservice-a77078", "operator": "United States Postal Service", "operator:short": "USPS", "operator:type": "public", "operator:wikidata": "Q668687", "ref": "6890100047"}, "type": "Feature"}
{"dataset_attributes": {"@spider": "usps_collection_boxes", "spider:collection_time": "2023-12-19T08:25:25.283853"}, "geometry": {"coordinates": [-98.3774446, 40.600821], "type": "Point"}, "id": "3i_xD0cRNd3kZFUqOrFI69cJlg4=", "properties": {"@spider": "usps_collection_boxes", "addr:city": "HASTINGS", "addr:country": "US", "addr:full": "223 E 14TH ST", "addr:postcode": "68901", "addr:state": "NE", "amenity": "post_box", "brand": "United States Postal Service", "brand:wikidata": "Q668687", "collection_times": "Mo-Sa 08:30", "name": "USPS COLLECTION BOX - BLUE BOX", "nsi_id": "unitedstatespostalservice-a77078", "operator": "United States Postal Service", "operator:short": "USPS", "operator:type": "public", "operator:wikidata": "Q668687", "ref": "6890100048"}, "type": "Feature"}
{"dataset_attributes": {"@spider": "usps_collection_boxes", "spider:collection_time": "2023-12-19T08:25:25.283853"}, "geometry": {"coordinates": [-98.3974813, 40.585185], "type": "Point"}, "id": "dAelaOCb-Y7SF9Sj7ObkJpX9JEc=", "properties": {"@spider": "usps_collection_boxes", "addr:city": "HASTINGS", "addr:country": "US", "addr:full": "1115 W 2ND ST", "addr:postcode": "68901", "addr:state": "NE", "amenity": "post_box", "brand": "United States Postal Service", "brand:wikidata": "Q668687", "collection_times": "Mo-Sa 12:00", "name": "USPS COLLECTION BOX - BLUE BOX", "nsi_id": "unitedstatespostalservice-a77078", "operator": "United States Postal Service", "operator:short": "USPS", "operator:type": "public", "operator:wikidata": "Q668687", "ref": "6890100049"}, "type": "Feature"}
{"dataset_attributes": {"@spider": "usps_collection_boxes", "spider:collection_time": "2023-12-19T08:25:25.283853"}, "geometry": {"coordinates": [-98.3933055, 40.590777], "type": "Point"}, "id": "zaXVDBFbJdE-sNO7bnQ8RhN3JwU=", "properties": {"@spider": "usps_collection_boxes", "addr:city": "HASTINGS", "addr:country": "US", "addr:full": "747 N BURLINGTON AVE", "addr:postcode": "68901", "addr:state": "NE", "amenity": "post_box", "brand": "United States Postal Service", "brand:wikidata": "Q668687", "collection_times": "Mo-Sa 09:00", "name": "USPS COLLECTION BOX - BLUE BOX", "nsi_id": "unitedstatespostalservice-a77078", "operator": "United States Postal Service", "operator:short": "USPS", "operator:type": "public", "operator:wikidata": "Q668687", "ref": "6890100051"}, "type": "Feature"}
{"dataset_attributes": {"@spider": "usps_collection_boxes", "spider:collection_time": "2023-12-19T08:25:25.283853"}, "geometry": {"coordinates": [-98.386163815, 40.586525717], "type": "Point"}, "id": "F7D-Yi3unyAOYjIA8-HA6hwyuBM=", "properties": {"@spider": "usps_collection_boxes", "addr:city": "HASTINGS", "addr:country": "US", "addr:full": "300 N KANSAS AVE", "addr:postcode": "68901", "addr:state": "NE", "amenity": "post_box", "brand": "United States Postal Service", "brand:wikidata": "Q668687", "collection_times": "Mo-Fr 15:00; Sa 11:00", "name": "USPS COLLECTION BOX - PO LOBBY", "note": "ON 12/24 AND 12/31, THIS BOX MAY BE COLLECTED AS EARLY AS 12 NOON.", "nsi_id": "unitedstatespostalservice-a77078", "operator": "United States Postal Service", "operator:short": "USPS", "operator:type": "public", "operator:wikidata": "Q668687", "ref": "6890100055"}, "type": "Feature"}
{"dataset_attributes": {"@spider": "usps_collection_boxes", "spider:collection_time": "2023-12-19T08:25:25.283853"}, "geometry": {"coordinates": [-99.362397, 40.098354], "type": "Point"}, "id": "NV8PFiaSYBnfm73zxX-PfbPFH48=", "properties": {"@spider": "usps_collection_boxes", "addr:city": "ALMA", "addr:country": "US", "addr:full": "711 1ST ST", "addr:postcode": "68920", "addr:state": "NE", "amenity": "post_box", "brand": "United States Postal Service", "brand:wikidata": "Q668687", "collection_times": "Mo-Fr 13:13; Sa 12:24", "name": "USPS COLLECTION BOX - BLUE BOX", "note": "ON 12/24 AND 12/31, THIS BOX MAY BE COLLECTED AS EARLY AS 12 NOON.", "nsi_id": "unitedstatespostalservice-a77078", "operator": "United States Postal Service", "operator:short": "USPS", "operator:type": "public", "operator:wikidata": "Q668687", "ref": "6892000001"}, "type": "Feature"}
{"dataset_attributes": {"@spider": "usps_collection_boxes", "spider:collection_time": "2023-12-19T08:25:25.283853"}, "geometry": {"coordinates": [-99.362397, 40.098354], "type": "Point"}, "id": "hBgBKmZ2jppLgFUdL-BAmwMjMkM=", "properties": {"@spider": "usps_collection_boxes", "addr:city": "ALMA", "addr:country": "US", "addr:full": "711 1ST ST", "addr:postcode": "68920", "addr:state": "NE", "amenity": "post_box", "brand": "United States Postal Service", "brand:wikidata": "Q668687", "collection_times": "Mo-Fr 13:13; Sa 10:00", "name": "USPS COLLECTION BOX - PO LOBBY", "note": "ON 12/24 AND 12/31, THIS BOX MAY BE COLLECTED AS EARLY AS 12 NOON.", "nsi_id": "unitedstatespostalservice-a77078", "operator": "United States Postal Service", "operator:short": "USPS", "operator:type": "public", "operator:wikidata": "Q668687", "ref": "6892000002"}, "type": "Feature"}
{"dataset_attributes": {"@spider": "usps_collection_boxes", "spider:collection_time": "2023-12-19T08:25:25.283853"}, "geometry": {"coordinates": [-99.362368839, 40.09829897], "type": "Point"}, "id": "JKcCKuqIZaoXwxNvoBhEL2AF8Bk=", "properties": {"@spider": "usps_collection_boxes", "addr:city": "ALMA", "addr:country": "US", "addr:full": "711 1ST ST", "addr:postcode": "68920", "addr:state": "NE", "amenity": "post_box", "brand": "United States Postal Service", "brand:wikidata": "Q668687", "collection_times": "Mo-Fr 13:13; Sa 10:00", "name": "USPS COLLECTION BOX - PO LOBBY", "note": "ON 12/24 AND 12/31, THIS BOX MAY BE COLLECTED AS EARLY AS 12 NOON.", "nsi_id": "unitedstatespostalservice-a77078", "operator": "United States Postal Service", "operator:short": "USPS", "operator:type": "public", "operator:wikidata": "Q668687", "ref": "6892000003"}, "type": "Feature"}
{"dataset_attributes": {"@spider": "usps_collection_boxes", "spider:collection_time": "2023-12-19T08:25:25.283853"}, "geometry": {"coordinates": [-99.897638, 40.302506], "type": "Point"}, "id": "_NzYS9NtujnqsoI-cqYHNZi3VGs=", "properties": {"@spider": "usps_collection_boxes", "addr:city": "ARAPAHOE", "addr:country": "US", "addr:full": "416 NEBRASKA AVE", "addr:postcode": "68922", "addr:state": "NE", "amenity": "post_box", "brand": "United States Postal Service", "brand:wikidata": "Q668687", "collection_times": "Mo-Fr 12:40; Sa 12:20", "name": "USPS COLLECTION BOX - BLUE BOX", "note": "ON 12/24 AND 12/31, THIS BOX MAY BE COLLECTED AS EARLY AS 12 NOON.", "nsi_id": "unitedstatespostalservice-a77078", "operator": "United States Postal Service", "operator:short": "USPS", "operator:type": "public", "operator:wikidata": "Q668687", "ref": "6892200001"}, "type": "Feature"}
{"dataset_attributes": {"@spider": "usps_collection_boxes", "spider:collection_time": "2023-12-19T08:25:25.283853"}, "geometry": {"coordinates": [-99.897638, 40.302506], "type": "Point"}, "id": "r24aKsb3Gsy0vPvM5bbvugZsI18=", "properties": {"@spider": "usps_collection_boxes", "addr:city": "ARAPAHOE", "addr:country": "US", "addr:full": "416 NEBRASKA AVE", "addr:postcode": "68922", "addr:state": "NE", "amenity": "post_box", "brand": "United States Postal Service", "brand:wikidata": "Q668687", "collection_times": "Mo-Fr 12:40; Sa 10:15", "name": "USPS COLLECTION BOX - PO LOBBY", "note": "ON 12/24 AND 12/31, THIS BOX MAY BE COLLECTED AS EARLY AS 12 NOON.", "nsi_id": "unitedstatespostalservice-a77078", "operator": "United States Postal Service", "operator:short": "USPS", "operator:type": "public", "operator:wikidata": "Q668687", "ref": "6892200002"}, "type": "Feature"}
{"dataset_attributes": {"@spider": "usps_collection_boxes", "spider:collection_time": "2023-12-19T08:25:25.283853"}, "geometry": {"coordinates": [-99.897619691, 40.302473767], "type": "Point"}, "id": "Hg1cWtKCpk2-NTjPm7qKzatkfoA=", "properties": {"@spider": "usps_collection_boxes", "addr:city": "ARAPAHOE", "addr:country": "US", "addr:full": "416 NEBRASKA AVE", "addr:postcode": "68922", "addr:state": "NE", "amenity": "post_box", "brand": "United States Postal Service", "brand:wikidata": "Q668687", "collection_times": "Mo-Fr 12:40; Sa 10:15", "name": "USPS COLLECTION BOX - PO LOBBY", "note": "ON 12/24 AND 12/31, THIS BOX MAY BE COLLECTED AS EARLY AS 12 NOON.", "nsi_id": "unitedstatespostalservice-a77078", "operator": "United States Postal Service", "operator:short": "USPS", "operator:type": "public", "operator:wikidata": "Q668687", "ref": "6892200003"}, "type": "Feature"}
{"dataset_attributes": {"@spider": "usps_collection_boxes", "spider:collection_time": "2023-12-19T08:25:25.283853"}, "geometry": {"coordinates": [-99.126688083, 40.479613994], "type": "Point"}, "id": "MdjDJduz0GNhzrxbVIMFO46Kgek=", "properties": {"@spider": "usps_collection_boxes", "addr:city": "AXTELL", "addr:country": "US", "addr:full": "405 MAIN ST", "addr:postcode": "68924", "addr:state": "NE", "amenity": "post_box", "brand": "United States Postal Service", "brand:wikidata": "Q668687", "collection_times": "Mo-Sa 13:15", "name": "USPS COLLECTION BOX - BLUE BOX", "note": "ON 12/24 AND 12/31, THIS BOX MAY BE COLLECTED AS EARLY AS 12 NOON.", "nsi_id": "unitedstatespostalservice-a77078", "operator": "United States Postal Service", "operator:short": "USPS", "operator:type": "public", "operator:wikidata": "Q668687", "ref": "6892400001"}, "type": "Feature"}
{"dataset_attributes": {"@spider": "usps_collection_boxes", "spider:collection_time": "2023-12-19T08:25:25.283853"}, "geometry": {"coordinates": [-99.126688083, 40.479613994], "type": "Point"}, "id": "20VEGOpiDqwyWRSq1sZJrFGr1OQ=", "properties": {"@spider": "usps_collection_boxes", "addr:city": "AXTELL", "addr:country": "US", "addr:full": "405 MAIN ST", "addr:postcode": "68924", "addr:state": "NE", "amenity": "post_box", "brand": "United States Postal Service", "brand:wikidata": "Q668687", "collection_times": "Mo-Fr 13:15", "name": "USPS COLLECTION BOX - PO LOBBY", "note": "ON 12/24 AND 12/31, THIS BOX MAY BE COLLECTED AS EARLY AS 12 NOON.", "nsi_id": "unitedstatespostalservice-a77078", "operator": "United States Postal Service", "operator:short": "USPS", "operator:type": "public", "operator:wikidata": "Q668687", "ref": "6892400002"}, "type": "Feature"}
{"dataset_attributes": {"@spider": "usps_collection_boxes", "spider:collection_time": "2023-12-19T08:25:25.283853"}, "geometry": {"coordinates": [-99.126688083, 40.479613994], "type": "Point"}, "id": "oz_U4YujklyxVrpaPaQ2t8isyqQ=", "properties": {"@spider": "usps_collection_boxes", "addr:city": "AXTELL", "addr:country": "US", "addr:full": "405 MAIN ST", "addr:postcode": "68924", "addr:state": "NE", "amenity": "post_box", "brand": "United States Postal Service", "brand:wikidata": "Q668687", "collection_times": "Mo-Fr 13:15", "name": "USPS COLLECTION BOX - PO LOBBY", "note": "ON 12/24 AND 12/31, THIS BOX MAY BE COLLECTED AS EARLY AS 12 NOON.", "nsi_id": "unitedstatespostalservice-a77078", "operator": "United States Postal Service", "operator:short": "USPS", "operator:type": "public", "operator:wikidata": "Q668687", "ref": "6892400003"}, "type": "Feature"}
{"dataset_attributes": {"@spider": "usps_collection_boxes", "spider:collection_time": "2023-12-19T08:25:25.283853"}, "geometry": {"coordinates": [-98.438287, 40.437364], "type": "Point"}, "id": "anzEzepMYAOO3meSoINVX5oph2I=", "properties": {"@spider": "usps_collection_boxes", "addr:city": "AYR", "addr:country": "US", "addr:full": "4075 W LINCOLN ST", "addr:postcode": "68925", "addr:state": "NE", "amenity": "post_box", "brand": "United States Postal Service", "brand:wikidata": "Q668687", "collection_times": "Mo-Sa 13:00", "name": "USPS COLLECTION BOX - BLUE BOX", "note": "ON 12/24 AND 12/31, THIS BOX MAY BE COLLECTED AS EARLY AS 12 NOON.", "nsi_id": "unitedstatespostalservice-a77078", "operator": "United States Postal Service", "operator:short": "USPS", "operator:type": "public", "operator:wikidata": "Q668687", "ref": "6892500001"}, "type": "Feature"}
{"dataset_attributes": {"@spider": "usps_collection_boxes", "spider:collection_time": "2023-12-19T08:25:25.283853"}, "geometry": {"coordinates": [-98.438336, 40.437391], "type": "Point"}, "id": "GDkYZ2VSafk3qm2kKWj8c8D5sE4=", "properties": {"@spider": "usps_collection_boxes", "addr:city": "AYR", "addr:country": "US", "addr:full": "4075 W LINCOLN ST", "addr:postcode": "68925", "addr:state": "NE", "amenity": "post_box", "brand": "United States Postal Service", "brand:wikidata": "Q668687", "collection_times": "Mo-Fr 13:00; Sa 11:15", "name": "USPS COLLECTION BOX - PO LOBBY", "note": "ON 12/24 AND 12/31, THIS BOX MAY BE COLLECTED AS EARLY AS 12 NOON.", "nsi_id": "unitedstatespostalservice-a77078", "operator": "United States Postal Service", "operator:short": "USPS", "operator:type": "public", "operator:wikidata": "Q668687", "ref": "6892500002"}, "type": "Feature"}
{"dataset_attributes": {"@spider": "usps_collection_boxes", "spider:collection_time": "2023-12-19T08:25:25.283853"}, "geometry": {"coordinates": [-98.438306651, 40.437311911], "type": "Point"}, "id": "InKUzAt3zsR_kuX2V5XkOOBxpeU=", "properties": {"@spider": "usps_collection_boxes", "addr:city": "AYR", "addr:country": "US", "addr:full": "4075 W LINCOLN ST", "addr:postcode": "68925", "addr:state": "NE", "amenity": "post_box", "brand": "United States Postal Service", "brand:wikidata": "Q668687", "collection_times": "Mo-Fr 13:00; Sa 11:15", "name": "USPS COLLECTION BOX - PO LOBBY", "note": "ON 12/24 AND 12/31, THIS BOX MAY BE COLLECTED AS EARLY AS 12 NOON.", "nsi_id": "unitedstatespostalservice-a77078", "operator": "United States Postal Service", "operator:short": "USPS", "operator:type": "public", "operator:wikidata": "Q668687", "ref": "6892500003"}, "type": "Feature"}
{"dataset_attributes": {"@spider": "usps_collection_boxes", "spider:collection_time": "2023-12-19T08:25:25.283853"}, "geometry": {"coordinates": [-99.828564976, 40.135551481], "type": "Point"}, "id": "17GTG8A6ipRusIxV3PBIBedhnX0=", "properties": {"@spider": "usps_collection_boxes", "addr:city": "BEAVER CITY", "addr:country": "US", "addr:full": "417 9TH ST", "addr:postcode": "68926", "addr:state": "NE", "amenity": "post_box", "brand": "United States Postal Service", "brand:wikidata": "Q668687", "collection_times": "Mo-Fr 12:25; Sa 11:50", "name": "USPS COLLECTION BOX - BLUE BOX", "note": "ON 12/24 AND 12/31, THIS BOX MAY BE COLLECTED AS EARLY AS 12 NOON.", "nsi_id": "unitedstatespostalservice-a77078", "operator": "United States Postal Service", "operator:short": "USPS", "operator:type": "public", "operator:wikidata": "Q668687", "ref": "6892600001"}, "type": "Feature"}
{"dataset_attributes": {"@spider": "usps_collection_boxes", "spider:collection_time": "2023-12-19T08:25:25.283853"}, "geometry": {"coordinates": [-99.828564976, 40.135551481], "type": "Point"}, "id": "mElJDpf8kOIOahcd76LGCiY537A=", "properties": {"@spider": "usps_collection_boxes", "addr:city": "BEAVER CITY", "addr:country": "US", "addr:full": "417 9TH ST", "addr:postcode": "68926", "addr:state": "NE", "amenity": "post_box", "brand": "United States Postal Service", "brand:wikidata": "Q668687", "collection_times": "Mo-Fr 12:25; Sa 10:15", "name": "USPS COLLECTION BOX - PO LOBBY", "note": "ON 12/24 AND 12/31, THIS BOX MAY BE COLLECTED AS EARLY AS 12 NOON.", "nsi_id": "unitedstatespostalservice-a77078", "operator": "United States Postal Service", "operator:short": "USPS", "operator:type": "public", "operator:wikidata": "Q668687", "ref": "6892600003"}, "type": "Feature"}
{"dataset_attributes": {"@spider": "usps_collection_boxes", "spider:collection_time": "2023-12-19T08:25:25.283853"}, "geometry": {"coordinates": [-99.828564976, 40.135551481], "type": "Point"}, "id": "zH-QYe0jVM4Ea1n4UfCo2YSKxAk=", "properties": {"@spider": "usps_collection_boxes", "addr:city": "BEAVER CITY", "addr:country": "US", "addr:full": "417 9TH ST", "addr:postcode": "68926", "addr:state": "NE", "amenity": "post_box", "brand": "United States Postal Service", "brand:wikidata": "Q668687", "collection_times": "Mo-Fr 12:25; Sa 10:15", "name": "USPS COLLECTION BOX - PO LOBBY", "note": "ON 12/24 AND 12/31, THIS BOX MAY BE COLLECTED AS EARLY AS 12 NOON.", "nsi_id": "unitedstatespostalservice-a77078", "operator": "United States Postal Service", "operator:short": "USPS", "operator:type": "public", "operator:wikidata": "Q668687", "ref": "6892600004"}, "type": "Feature"}
{"dataset_attributes": {"@spider": "usps_collection_boxes", "spider:collection_time": "2023-12-19T08:25:25.283853"}, "geometry": {"coordinates": [-99.634686, 40.52765], "type": "Point"}, "id": "ZGVqAgVJPiXnxM3owOxC7Oab8ZI=", "properties": {"@spider": "usps_collection_boxes", "addr:city": "BERTRAND", "addr:country": "US", "addr:full": "700 KANE ST", "addr:postcode": "68927", "addr:state": "NE", "amenity": "post_box", "brand": "United States Postal Service", "brand:wikidata": "Q668687", "collection_times": "Mo-Fr 13:13; Sa 12:57", "name": "USPS COLLECTION BOX - BLUE BOX", "note": "ON 12/24 AND 12/31, THIS BOX MAY BE COLLECTED AS EARLY AS 12 NOON.", "nsi_id": "unitedstatespostalservice-a77078", "operator": "United States Postal Service", "operator:short": "USPS", "operator:type": "public", "operator:wikidata": "Q668687", "ref": "6892700001"}, "type": "Feature"}
{"dataset_attributes": {"@spider": "usps_collection_boxes", "spider:collection_time": "2023-12-19T08:25:25.283853"}, "geometry": {"coordinates": [-99.633936109, 40.527782696], "type": "Point"}, "id": "6M02h6sSXAoGPV4w5ifq_IfF9lk=", "properties": {"@spider": "usps_collection_boxes", "addr:city": "BERTRAND", "addr:country": "US", "addr:full": "701 MINOR AVE", "addr:postcode": "68927", "addr:state": "NE", "amenity": "post_box", "brand": "United States Postal Service", "brand:wikidata": "Q668687", "collection_times": "Mo-Fr 09:50; Sa 08:45", "name": "USPS COLLECTION BOX - PO LOBBY", "nsi_id": "unitedstatespostalservice-a77078", "operator": "United States Postal Service", "operator:short": "USPS", "operator:type": "public", "operator:wikidata": "Q668687", "ref": "6892700003"}, "type": "Feature"}
{"dataset_attributes": {"@spider": "usps_collection_boxes", "spider:collection_time": "2023-12-19T08:25:25.283853"}, "geometry": {"coordinates": [-99.633936109, 40.527782696], "type": "Point"}, "id": "Z_Wwg9EZAkuYgp9kePSZSGjQ7tk=", "properties": {"@spider": "usps_collection_boxes", "addr:city": "BERTRAND", "addr:country": "US", "addr:full": "701 MINOR AVE", "addr:postcode": "68927", "addr:state": "NE", "amenity": "post_box", "brand": "United States Postal Service", "brand:wikidata": "Q668687", "collection_times": "Mo-Fr 09:50; Sa 08:45", "name": "USPS COLLECTION BOX - PO LOBBY", "nsi_id": "unitedstatespostalservice-a77078", "operator": "United States Postal Service", "operator:short": "USPS", "operator:type": "public", "operator:wikidata": "Q668687", "ref": "6892700004"}, "type": "Feature"}
{"dataset_attributes": {"@spider": "usps_collection_boxes", "spider:collection_time": "2023-12-19T08:25:25.283853"}, "geometry": {"coordinates": [-98.594714, 40.322192], "type": "Point"}, "id": "O0LY5FyTByxTepuuH1CARYYZzn4=", "properties": {"@spider": "usps_collection_boxes", "addr:city": "BLADEN", "addr:country": "US", "addr:full": "300 N MAIN ST", "addr:postcode": "68928", "addr:state": "NE", "amenity": "post_box", "brand": "United States Postal Service", "brand:wikidata": "Q668687", "collection_times": "Mo-Fr 11:40; Sa 11:20", "name": "USPS COLLECTION BOX - BLUE BOX", "nsi_id": "unitedstatespostalservice-a77078", "operator": "United States Postal Service", "operator:short": "USPS", "operator:type": "public", "operator:wikidata": "Q668687", "ref": "6892800001"}, "type": "Feature"}
{"dataset_attributes": {"@spider": "usps_collection_boxes", "spider:collection_time": "2023-12-19T08:25:25.283853"}, "geometry": {"coordinates": [-98.594714, 40.322192], "type": "Point"}, "id": "bKlDObz6wZvDuCfaN4BHB3gwcPw=", "properties": {"@spider": "usps_collection_boxes", "addr:city": "BLADEN", "addr:country": "US", "addr:full": "300 N MAIN ST", "addr:postcode": "68928", "addr:state": "NE", "amenity": "post_box", "brand": "United States Postal Service", "brand:wikidata": "Q668687", "collection_times": "Mo-Fr 11:30; Sa 09:20", "name": "USPS COLLECTION BOX - PO LOBBY", "nsi_id": "unitedstatespostalservice-a77078", "operator": "United States Postal Service", "operator:short": "USPS", "operator:type": "public", "operator:wikidata": "Q668687", "ref": "6892800002"}, "type": "Feature"}
{"dataset_attributes": {"@spider": "usps_collection_boxes", "spider:collection_time": "2023-12-19T08:25:25.283853"}, "geometry": {"coordinates": [-98.594716979, 40.322222361], "type": "Point"}, "id": "IjVxSPljERKMaGlJJyIiIIvZMxs=", "properties": {"@spider": "usps_collection_boxes", "addr:city": "BLADEN", "addr:country": "US", "addr:full": "300 N MAIN ST", "addr:postcode": "68928", "addr:state": "NE", "amenity": "post_box", "brand": "United States Postal Service", "brand:wikidata": "Q668687", "collection_times": "Mo-Fr 11:30; Sa 09:20", "name": "USPS COLLECTION BOX - PO LOBBY", "nsi_id": "unitedstatespostalservice-a77078", "operator": "United States Postal Service", "operator:short": "USPS", "operator:type": "public", "operator:wikidata": "Q668687", "ref": "6892800003"}, "type": "Feature"}
{"dataset_attributes": {"@spider": "usps_collection_boxes", "spider:collection_time": "2023-12-19T08:25:25.283853"}, "geometry": {"coordinates": [-99.037413, 40.095359], "type": "Point"}, "id": "4Xvk79Np7U_S06NqXEwYBKSOffQ=", "properties": {"@spider": "usps_collection_boxes", "addr:city": "BLOOMINGTON", "addr:country": "US", "addr:full": "607 CENTRAL AVE", "addr:postcode": "68929", "addr:state": "NE", "amenity": "post_box", "brand": "United States Postal Service", "brand:wikidata": "Q668687", "collection_times": "Mo-Sa 12:50", "name": "USPS COLLECTION BOX - BLUE BOX", "note": "ON 12/24 AND 12/31, THIS BOX MAY BE COLLECTED AS EARLY AS 12 NOON.", "nsi_id": "unitedstatespostalservice-a77078", "operator": "United States Postal Service", "operator:short": "USPS", "operator:type": "public", "operator:wikidata": "Q668687", "ref": "6892900001"}, "type": "Feature"}
{"dataset_attributes": {"@spider": "usps_collection_boxes", "spider:collection_time": "2023-12-19T08:25:25.283853"}, "geometry": {"coordinates": [-99.037413, 40.095359], "type": "Point"}, "id": "fByPLOBD8VUzSwNMgJiYEo06dwg=", "properties": {"@spider": "usps_collection_boxes", "addr:city": "BLOOMINGTON", "addr:country": "US", "addr:full": "607 CENTRAL AVE", "addr:postcode": "68929", "addr:state": "NE", "amenity": "post_box", "brand": "United States Postal Service", "brand:wikidata": "Q668687", "collection_times": "Mo-Fr 10:45; Sa 09:50", "name": "USPS COLLECTION BOX - PO LOBBY", "nsi_id": "unitedstatespostalservice-a77078", "operator": "United States Postal Service", "operator:short": "USPS", "operator:type": "public", "operator:wikidata": "Q668687", "ref": "6892900002"}, "type": "Feature"}
{"dataset_attributes": {"@spider": "usps_collection_boxes", "spider:collection_time": "2023-12-19T08:25:25.283853"}, "geometry": {"coordinates": [-99.0373961225, 40.0953195365], "type": "Point"}, "id": "bry5ohdgzurP-chUGqpxb90lO2g=", "properties": {"@spider": "usps_collection_boxes", "addr:city": "BLOOMINGTON", "addr:country": "US", "addr:full": "607 CENTRAL AVE", "addr:postcode": "68929", "addr:state": "NE", "amenity": "post_box", "brand": "United States Postal Service", "brand:wikidata": "Q668687", "collection_times": "Mo-Fr 10:45; Sa 09:50", "name": "USPS COLLECTION BOX - PO LOBBY", "nsi_id": "unitedstatespostalservice-a77078", "operator": "United States Postal Service", "operator:short": "USPS", "operator:type": "public", "operator:wikidata": "Q668687", "ref": "6892900003"}, "type": "Feature"}
{"dataset_attributes": {"@spider": "usps_collection_boxes", "spider:collection_time": "2023-12-19T08:25:25.283853"}, "geometry": {"coordinates": [-98.448354168, 40.332547521], "type": "Point"}, "id": "vt0TB5bMi_jTRf9fQnFUPk6SBoE=", "properties": {"@spider": "usps_collection_boxes", "addr:city": "BLUE HILL", "addr:country": "US", "addr:full": "437 W GAGE ST", "addr:postcode": "68930", "addr:state": "NE", "amenity": "post_box", "brand": "United States Postal Service", "brand:wikidata": "Q668687", "collection_times": "Mo-Sa 14:45", "name": "USPS COLLECTION BOX - BLUE BOX", "note": "ON 12/24 AND 12/31, THIS BOX MAY BE COLLECTED AS EARLY AS 12 NOON.", "nsi_id": "unitedstatespostalservice-a77078", "operator": "United States Postal Service", "operator:short": "USPS", "operator:type": "public", "operator:wikidata": "Q668687", "ref": "6893000001"}, "type": "Feature"}
{"dataset_attributes": {"@spider": "usps_collection_boxes", "spider:collection_time": "2023-12-19T08:25:25.283853"}, "geometry": {"coordinates": [-98.448354168, 40.332547521], "type": "Point"}, "id": "0r-AF4vkSBBvjjrBuGS6UVVyMJY=", "properties": {"@spider": "usps_collection_boxes", "addr:city": "BLUE HILL", "addr:country": "US", "addr:full": "437 W GAGE ST", "addr:postcode": "68930", "addr:state": "NE", "amenity": "post_box", "brand": "United States Postal Service", "brand:wikidata": "Q668687", "collection_times": "Mo-Fr 14:15; Sa 09:45", "name": "USPS COLLECTION BOX - PO LOBBY", "note": "ON 12/24 AND 12/31, THIS BOX MAY BE COLLECTED AS EARLY AS 12 NOON.", "nsi_id": "unitedstatespostalservice-a77078", "operator": "United States Postal Service", "operator:short": "USPS", "operator:type": "public", "operator:wikidata": "Q668687", "ref": "6893000002"}, "type": "Feature"}
{"dataset_attributes": {"@spider": "usps_collection_boxes", "spider:collection_time": "2023-12-19T08:25:25.283853"}, "geometry": {"coordinates": [-98.448354168, 40.332547521], "type": "Point"}, "id": "qfusIEPrne-fR3bzAEczOKz7rtk=", "properties": {"@spider": "usps_collection_boxes", "addr:city": "BLUE HILL", "addr:country": "US", "addr:full": "437 W GAGE ST", "addr:postcode": "68930", "addr:state": "NE", "amenity": "post_box", "brand": "United States Postal Service", "brand:wikidata": "Q668687", "collection_times": "Mo-Fr 14:15; Sa 09:45", "name": "USPS COLLECTION BOX - PO LOBBY", "note": "ON 12/24 AND 12/31, THIS BOX MAY BE COLLECTED AS EARLY AS 12 NOON.", "nsi_id": "unitedstatespostalservice-a77078", "operator": "United States Postal Service", "operator:short": "USPS", "operator:type": "public", "operator:wikidata": "Q668687", "ref": "6893000003"}, "type": "Feature"}
{"dataset_attributes": {"@spider": "usps_collection_boxes", "spider:collection_time": "2023-12-19T08:25:25.283853"}, "geometry": {"coordinates": [-98.731822, 40.298301], "type": "Point"}, "id": "2M6WrjYS_qqZ12-ao0gQoxceWx0=", "properties": {"@spider": "usps_collection_boxes", "addr:city": "CAMPBELL", "addr:country": "US", "addr:full": "700 BROAD ST", "addr:postcode": "68932", "addr:state": "NE", "amenity": "post_box", "brand": "United States Postal Service", "brand:wikidata": "Q668687", "collection_times": "Mo-Sa 11:55", "name": "USPS COLLECTION BOX - BLUE BOX", "nsi_id": "unitedstatespostalservice-a77078", "operator": "United States Postal Service", "operator:short": "USPS", "operator:type": "public", "operator:wikidata": "Q668687", "ref": "6893200001"}, "type": "Feature"}
{"dataset_attributes": {"@spider": "usps_collection_boxes", "spider:collection_time": "2023-12-19T08:25:25.283853"}, "geometry": {"coordinates": [-98.731822, 40.298301], "type": "Point"}, "id": "oaocTuEfuwcpVKZOLdIbenc5VXk=", "properties": {"@spider": "usps_collection_boxes", "addr:city": "CAMPBELL", "addr:country": "US", "addr:full": "700 BROAD ST", "addr:postcode": "68932", "addr:state": "NE", "amenity": "post_box", "brand": "United States Postal Service", "brand:wikidata": "Q668687", "collection_times": "Mo-Fr 11:50; Sa 09:00", "name": "USPS COLLECTION BOX - PO LOBBY", "nsi_id": "unitedstatespostalservice-a77078", "operator": "United States Postal Service", "operator:short": "USPS", "operator:type": "public", "operator:wikidata": "Q668687", "ref": "6893200002"}, "type": "Feature"}
{"dataset_attributes": {"@spider": "usps_collection_boxes", "spider:collection_time": "2023-12-19T08:25:25.283853"}, "geometry": {"coordinates": [-98.731805624, 40.298259376], "type": "Point"}, "id": "sV1nhvtfkH9-G4VlO-5fi7YIoMM=", "properties": {"@spider": "usps_collection_boxes", "addr:city": "CAMPBELL", "addr:country": "US", "addr:full": "700 BROAD ST", "addr:postcode": "68932", "addr:state": "NE", "amenity": "post_box", "brand": "United States Postal Service", "brand:wikidata": "Q668687", "collection_times": "Mo-Fr 11:50; Sa 09:00", "name": "USPS COLLECTION BOX - PO LOBBY", "nsi_id": "unitedstatespostalservice-a77078", "operator": "United States Postal Service", "operator:short": "USPS", "operator:type": "public", "operator:wikidata": "Q668687", "ref": "6893200003"}, "type": "Feature"}
{"dataset_attributes": {"@spider": "usps_collection_boxes", "spider:collection_time": "2023-12-19T08:25:25.283853"}, "geometry": {"coordinates": [-98.055833, 40.521535], "type": "Point"}, "id": "pjgUo6Qj61LCV5_IqP87SH-1Hhk=", "properties": {"@spider": "usps_collection_boxes", "addr:city": "CLAY CENTER", "addr:country": "US", "addr:full": "120 S ALEXANDER AVE", "addr:postcode": "68933", "addr:state": "NE", "amenity": "post_box", "brand": "United States Postal Service", "brand:wikidata": "Q668687", "collection_times": "Mo-Fr 14:10; Sa 14:05", "name": "USPS COLLECTION BOX - BLUE BOX", "note": "ON 12/24 AND 12/31, THIS BOX MAY BE COLLECTED AS EARLY AS 12 NOON.", "nsi_id": "unitedstatespostalservice-a77078", "operator": "United States Postal Service", "operator:short": "USPS", "operator:type": "public", "operator:wikidata": "Q668687", "ref": "6893300003"}, "type": "Feature"}
{"dataset_attributes": {"@spider": "usps_collection_boxes", "spider:collection_time": "2023-12-19T08:25:25.283853"}, "geometry": {"coordinates": [-98.055833, 40.521535], "type": "Point"}, "id": "nrItRNYUPFh_Ow1kvw0N-DN0nKg=", "properties": {"@spider": "usps_collection_boxes", "addr:city": "CLAY CENTER", "addr:country": "US", "addr:full": "120 S ALEXANDER AVE", "addr:postcode": "68933", "addr:state": "NE", "amenity": "post_box", "brand": "United States Postal Service", "brand:wikidata": "Q668687", "collection_times": "Mo-Fr 13:45; Sa 09:45", "name": "USPS COLLECTION BOX - PO LOBBY", "note": "ON 12/24 AND 12/31, THIS BOX MAY BE COLLECTED AS EARLY AS 12 NOON.", "nsi_id": "unitedstatespostalservice-a77078", "operator": "United States Postal Service", "operator:short": "USPS", "operator:type": "public", "operator:wikidata": "Q668687", "ref": "6893300004"}, "type": "Feature"}
{"dataset_attributes": {"@spider": "usps_collection_boxes", "spider:collection_time": "2023-12-19T08:25:25.283853"}, "geometry": {"coordinates": [-98.0558361704, 40.520943], "type": "Point"}, "id": "4cRI7tZAR9u9KACRzuL2ablHJvk=", "properties": {"@spider": "usps_collection_boxes", "addr:city": "CLAY CENTER", "addr:country": "US", "addr:full": "120 S ALEXANDER AVE", "addr:postcode": "68933", "addr:state": "NE", "amenity": "post_box", "brand": "United States Postal Service", "brand:wikidata": "Q668687", "collection_times": "Mo-Fr 13:45; Sa 09:45", "name": "USPS COLLECTION BOX - PO LOBBY", "note": "ON 12/24 AND 12/31, THIS BOX MAY BE COLLECTED AS EARLY AS 12 NOON.", "nsi_id": "unitedstatespostalservice-a77078", "operator": "United States Postal Service", "operator:short": "USPS", "operator:type": "public", "operator:wikidata": "Q668687", "ref": "6893300005"}, "type": "Feature"}
{"dataset_attributes": {"@spider": "usps_collection_boxes", "spider:collection_time": "2023-12-19T08:25:25.283853"}, "geometry": {"coordinates": [-98.138827, 40.355544], "type": "Point"}, "id": "TDqAGUNghY2nwdHigHIMNLwflF4=", "properties": {"@spider": "usps_collection_boxes", "addr:city": "DEWEESE", "addr:country": "US", "addr:full": "303 S DEWEESE AVE", "addr:postcode": "68934", "addr:state": "NE", "amenity": "post_box", "brand": "United States Postal Service", "brand:wikidata": "Q668687", "collection_times": "Mo-Sa 13:20", "name": "USPS COLLECTION BOX - BLUE BOX", "note": "ON 12/24 AND 12/31, THIS BOX MAY BE COLLECTED AS EARLY AS 12 NOON.", "nsi_id": "unitedstatespostalservice-a77078", "operator": "United States Postal Service", "operator:short": "USPS", "operator:type": "public", "operator:wikidata": "Q668687", "ref": "6893400001"}, "type": "Feature"}
{"dataset_attributes": {"@spider": "usps_collection_boxes", "spider:collection_time": "2023-12-19T08:25:25.283853"}, "geometry": {"coordinates": [-98.1388375067, 40.3552792456], "type": "Point"}, "id": "s_bjC_rNvus1_2Wva2GM-suUoug=", "properties": {"@spider": "usps_collection_boxes", "addr:city": "DEWEESE", "addr:country": "US", "addr:full": "303 S DEWEESE AVE", "addr:postcode": "68934", "addr:state": "NE", "amenity": "post_box", "brand": "United States Postal Service", "brand:wikidata": "Q668687", "collection_times": "Mo-Fr 11:05; Sa 10:35", "name": "USPS COLLECTION BOX - PO LOBBY", "nsi_id": "unitedstatespostalservice-a77078", "operator": "United States Postal Service", "operator:short": "USPS", "operator:type": "public", "operator:wikidata": "Q668687", "ref": "6893400002"}, "type": "Feature"}
{"dataset_attributes": {"@spider": "usps_collection_boxes", "spider:collection_time": "2023-12-19T08:25:25.283853"}, "geometry": {"coordinates": [-98.1388375067, 40.3552792456], "type": "Point"}, "id": "C3pZUZYJhKm20K3ckVb2rTwyYaw=", "properties": {"@spider": "usps_collection_boxes", "addr:city": "DEWEESE", "addr:country": "US", "addr:full": "303 S DEWEESE AVE", "addr:postcode": "68934", "addr:state": "NE", "amenity": "post_box", "brand": "United States Postal Service", "brand:wikidata": "Q668687", "collection_times": "Mo-Fr 11:05; Sa 10:35", "name": "USPS COLLECTION BOX - PO LOBBY", "nsi_id": "unitedstatespostalservice-a77078", "operator": "United States Postal Service", "operator:short": "USPS", "operator:type": "public", "operator:wikidata": "Q668687", "ref": "6893400003"}, "type": "Feature"}
{"dataset_attributes": {"@spider": "usps_collection_boxes", "spider:collection_time": "2023-12-19T08:25:25.283853"}, "geometry": {"coordinates": [-97.970005, 40.370441], "type": "Point"}, "id": "PFJpIYB6JNgoj4ed_0trffX6YtA=", "properties": {"@spider": "usps_collection_boxes", "addr:city": "EDGAR", "addr:country": "US", "addr:full": "312 N C ST", "addr:postcode": "68935", "addr:state": "NE", "amenity": "post_box", "brand": "United States Postal Service", "brand:wikidata": "Q668687", "collection_times": "Mo-Sa 13:50", "name": "USPS COLLECTION BOX - BLUE BOX", "note": "ON 12/24 AND 12/31, THIS BOX MAY BE COLLECTED AS EARLY AS 12 NOON.", "nsi_id": "unitedstatespostalservice-a77078", "operator": "United States Postal Service", "operator:short": "USPS", "operator:type": "public", "operator:wikidata": "Q668687", "ref": "6893500001"}, "type": "Feature"}
{"dataset_attributes": {"@spider": "usps_collection_boxes", "spider:collection_time": "2023-12-19T08:25:25.283853"}, "geometry": {"coordinates": [-97.970005, 40.370441], "type": "Point"}, "id": "h0As1ug2pc8o4lIjuRkeu5tKaoo=", "properties": {"@spider": "usps_collection_boxes", "addr:city": "EDGAR", "addr:country": "US", "addr:full": "312 N C ST", "addr:postcode": "68935", "addr:state": "NE", "amenity": "post_box", "brand": "United States Postal Service", "brand:wikidata": "Q668687", "collection_times": "Mo-Fr 11:50; Sa 09:05", "name": "USPS COLLECTION BOX - PO LOBBY", "nsi_id": "unitedstatespostalservice-a77078", "operator": "United States Postal Service", "operator:short": "USPS", "operator:type": "public", "operator:wikidata": "Q668687", "ref": "6893500002"}, "type": "Feature"}
{"dataset_attributes": {"@spider": "usps_collection_boxes", "spider:collection_time": "2023-12-19T08:25:25.283853"}, "geometry": {"coordinates": [-97.9700079422, 40.370787], "type": "Point"}, "id": "qh2B9PM8W6D0xO54Q1-uVk-SZXs=", "properties": {"@spider": "usps_collection_boxes", "addr:city": "EDGAR", "addr:country": "US", "addr:full": "312 N C ST", "addr:postcode": "68935", "addr:state": "NE", "amenity": "post_box", "brand": "United States Postal Service", "brand:wikidata": "Q668687", "collection_times": "Mo-Fr 11:50; Sa 09:05", "name": "USPS COLLECTION BOX - PO LOBBY", "nsi_id": "unitedstatespostalservice-a77078", "operator": "United States Postal Service", "operator:short": "USPS", "operator:type": "public", "operator:wikidata": "Q668687", "ref": "6893500003"}, "type": "Feature"}
{"dataset_attributes": {"@spider": "usps_collection_boxes", "spider:collection_time": "2023-12-19T08:25:25.283853"}, "geometry": {"coordinates": [-99.77533, 40.275364], "type": "Point"}, "id": "ZBSeEtT_MAs6wmQb5NCagAQLqeU=", "properties": {"@spider": "usps_collection_boxes", "addr:city": "EDISON", "addr:country": "US", "addr:full": "310 OXFORD ST", "addr:postcode": "68936", "addr:state": "NE", "amenity": "post_box", "brand": "United States Postal Service", "brand:wikidata": "Q668687", "collection_times": "Mo-Sa 12:33", "name": "USPS COLLECTION BOX - BLUE BOX", "note": "ON 12/24 AND 12/31, THIS BOX MAY BE COLLECTED AS EARLY AS 12 NOON.", "nsi_id": "unitedstatespostalservice-a77078", "operator": "United States Postal Service", "operator:short": "USPS", "operator:type": "public", "operator:wikidata": "Q668687", "ref": "6893600001"}, "type": "Feature"}
{"dataset_attributes": {"@spider": "usps_collection_boxes", "spider:collection_time": "2023-12-19T08:25:25.283853"}, "geometry": {"coordinates": [-99.77533, 40.275364], "type": "Point"}, "id": "nQ3BW61SfHYhlVAKXtcSNYTA6KY=", "properties": {"@spider": "usps_collection_boxes", "addr:city": "EDISON", "addr:country": "US", "addr:full": "310 OXFORD ST", "addr:postcode": "68936", "addr:state": "NE", "amenity": "post_box", "brand": "United States Postal Service", "brand:wikidata": "Q668687", "collection_times": "Mo-Fr 11:50; Sa 11:05", "name": "USPS COLLECTION BOX - PO LOBBY", "nsi_id": "unitedstatespostalservice-a77078", "operator": "United States Postal Service", "operator:short": "USPS", "operator:type": "public", "operator:wikidata": "Q668687", "ref": "6893600002"}, "type": "Feature"}
{"dataset_attributes": {"@spider": "usps_collection_boxes", "spider:collection_time": "2023-12-19T08:25:25.283853"}, "geometry": {"coordinates": [-99.775346624, 40.277279687], "type": "Point"}, "id": "JOIzMCShEUXlOmnMv0px2oJq2pU=", "properties": {"@spider": "usps_collection_boxes", "addr:city": "EDISON", "addr:country": "US", "addr:full": "310 OXFORD ST", "addr:postcode": "68936", "addr:state": "NE", "amenity": "post_box", "brand": "United States Postal Service", "brand:wikidata": "Q668687", "collection_times": "Mo-Fr 11:50; Sa 11:05", "name": "USPS COLLECTION BOX - PO LOBBY", "nsi_id": "unitedstatespostalservice-a77078", "operator": "United States Postal Service", "operator:short": "USPS", "operator:type": "public", "operator:wikidata": "Q668687", "ref": "6893600003"}, "type": "Feature"}
{"dataset_attributes": {"@spider": "usps_collection_boxes", "spider:collection_time": "2023-12-19T08:25:25.283853"}, "geometry": {"coordinates": [-99.861363757, 40.595166682], "type": "Point"}, "id": "MgDuDH3rdfosN5QFJvRCEwsALUQ=", "properties": {"@spider": "usps_collection_boxes", "addr:city": "ELWOOD", "addr:country": "US", "addr:full": "203 SMITH AVE", "addr:postcode": "68937", "addr:state": "NE", "amenity": "post_box", "brand": "United States Postal Service", "brand:wikidata": "Q668687", "collection_times": "Mo-Fr 13:00; Sa 12:15", "name": "USPS COLLECTION BOX - BLUE BOX", "note": "ON 12/24 AND 12/31, THIS BOX MAY BE COLLECTED AS EARLY AS 12 NOON.", "nsi_id": "unitedstatespostalservice-a77078", "operator": "United States Postal Service", "operator:short": "USPS", "operator:type": "public", "operator:wikidata": "Q668687", "ref": "6893700001"}, "type": "Feature"}
{"dataset_attributes": {"@spider": "usps_collection_boxes", "spider:collection_time": "2023-12-19T08:25:25.283853"}, "geometry": {"coordinates": [-99.861363757, 40.595166682], "type": "Point"}, "id": "tusJrcPPwya-GoqCM1XfcY0JF4s=", "properties": {"@spider": "usps_collection_boxes", "addr:city": "ELWOOD", "addr:country": "US", "addr:full": "203 SMITH AVE", "addr:postcode": "68937", "addr:state": "NE", "amenity": "post_box", "brand": "United States Postal Service", "brand:wikidata": "Q668687", "collection_times": "Mo-Fr 13:00; Sa 09:15", "name": "USPS COLLECTION BOX - PO LOBBY", "note": "ON 12/24 AND 12/31, THIS BOX MAY BE COLLECTED AS EARLY AS 12 NOON.", "nsi_id": "unitedstatespostalservice-a77078", "operator": "United States Postal Service", "operator:short": "USPS", "operator:type": "public", "operator:wikidata": "Q668687", "ref": "6893700002"}, "type": "Feature"}
{"dataset_attributes": {"@spider": "usps_collection_boxes", "spider:collection_time": "2023-12-19T08:25:25.283853"}, "geometry": {"coordinates": [-99.861363757, 40.595166682], "type": "Point"}, "id": "oJwT6EjqLFq_4Pc6nQB8MnC5Msk=", "properties": {"@spider": "usps_collection_boxes", "addr:city": "ELWOOD", "addr:country": "US", "addr:full": "203 SMITH AVE", "addr:postcode": "68937", "addr:state": "NE", "amenity": "post_box", "brand": "United States Postal Service", "brand:wikidata": "Q668687", "collection_times": "Mo-Fr 13:00; Sa 09:15", "name": "USPS COLLECTION BOX - PO LOBBY", "note": "ON 12/24 AND 12/31, THIS BOX MAY BE COLLECTED AS EARLY AS 12 NOON.", "nsi_id": "unitedstatespostalservice-a77078", "operator": "United States Postal Service", "operator:short": "USPS", "operator:type": "public", "operator:wikidata": "Q668687", "ref": "6893700003"}, "type": "Feature"}
{"dataset_attributes": {"@spider": "usps_collection_boxes", "spider:collection_time": "2023-12-19T08:25:25.283853"}, "geometry": {"coordinates": [-98.105766, 40.430489], "type": "Point"}, "id": "GrY8AR6fPbp2QNVzK1FDxrSogB0=", "properties": {"@spider": "usps_collection_boxes", "addr:city": "FAIRFIELD", "addr:country": "US", "addr:full": "410 N D ST", "addr:postcode": "68938", "addr:state": "NE", "amenity": "post_box", "brand": "United States Postal Service", "brand:wikidata": "Q668687", "collection_times": "Mo-Sa 14:45", "name": "USPS COLLECTION BOX - BLUE BOX", "note": "ON 12/24 AND 12/31, THIS BOX MAY BE COLLECTED AS EARLY AS 12 NOON.", "nsi_id": "unitedstatespostalservice-a77078", "operator": "United States Postal Service", "operator:short": "USPS", "operator:type": "public", "operator:wikidata": "Q668687", "ref": "6893800001"}, "type": "Feature"}
{"dataset_attributes": {"@spider": "usps_collection_boxes", "spider:collection_time": "2023-12-19T08:25:25.283853"}, "geometry": {"coordinates": [-98.105766, 40.430489], "type": "Point"}, "id": "Dk7JL_lDoVnoxBqnUVUzENTATO4=", "properties": {"@spider": "usps_collection_boxes", "addr:city": "FAIRFIELD", "addr:country": "US", "addr:full": "410 N D ST", "addr:postcode": "68938", "addr:state": "NE", "amenity": "post_box", "brand": "United States Postal Service", "brand:wikidata": "Q668687", "collection_times": "Mo-Fr 11:15; Sa 09:00", "name": "USPS COLLECTION BOX - PO LOBBY", "nsi_id": "unitedstatespostalservice-a77078", "operator": "United States Postal Service", "operator:short": "USPS", "operator:type": "public", "operator:wikidata": "Q668687", "ref": "6893800002"}, "type": "Feature"}
{"dataset_attributes": {"@spider": "usps_collection_boxes", "spider:collection_time": "2023-12-19T08:25:25.283853"}, "geometry": {"coordinates": [-98.105737461, 40.431086633], "type": "Point"}, "id": "Y9eibGPJ7c8p4Ga19ACQB9lLkHw=", "properties": {"@spider": "usps_collection_boxes", "addr:city": "FAIRFIELD", "addr:country": "US", "addr:full": "410 N D ST", "addr:postcode": "68938", "addr:state": "NE", "amenity": "post_box", "brand": "United States Postal Service", "brand:wikidata": "Q668687", "collection_times": "Mo-Fr 11:15; Sa 09:00", "name": "USPS COLLECTION BOX - PO LOBBY", "nsi_id": "unitedstatespostalservice-a77078", "operator": "United States Postal Service", "operator:short": "USPS", "operator:type": "public", "operator:wikidata": "Q668687", "ref": "6893800003"}, "type": "Feature"}
{"dataset_attributes": {"@spider": "usps_collection_boxes", "spider:collection_time": "2023-12-19T08:25:25.283853"}, "geometry": {"coordinates": [-98.954661, 40.094597], "type": "Point"}, "id": "-l_DjT0s9jM7TYaZ9PndP5jySLo=", "properties": {"@spider": "usps_collection_boxes", "addr:city": "FRANKLIN", "addr:country": "US", "addr:full": "1402 L ST", "addr:postcode": "68939", "addr:state": "NE", "amenity": "post_box", "brand": "United States Postal Service", "brand:wikidata": "Q668687", "collection_times": "Mo-Sa 13:00", "name": "USPS COLLECTION BOX - BLUE BOX", "note": "ON 12/24 AND 12/31, THIS BOX MAY BE COLLECTED AS EARLY AS 12 NOON.", "nsi_id": "unitedstatespostalservice-a77078", "operator": "United States Postal Service", "operator:short": "USPS", "operator:type": "public", "operator:wikidata": "Q668687", "ref": "6893900001"}, "type": "Feature"}
{"dataset_attributes": {"@spider": "usps_collection_boxes", "spider:collection_time": "2023-12-19T08:25:25.283853"}, "geometry": {"coordinates": [-98.954661, 40.094597], "type": "Point"}, "id": "3tvTaXIAhY9xu-koCY7wd0WPo9g=", "properties": {"@spider": "usps_collection_boxes", "addr:city": "FRANKLIN", "addr:country": "US", "addr:full": "1402 L ST", "addr:postcode": "68939", "addr:state": "NE", "amenity": "post_box", "brand": "United States Postal Service", "brand:wikidata": "Q668687", "collection_times": "Mo-Fr 13:00; Sa 10:00", "name": "USPS COLLECTION BOX - PO LOBBY", "note": "ON 12/24 AND 12/31, THIS BOX MAY BE COLLECTED AS EARLY AS 12 NOON.", "nsi_id": "unitedstatespostalservice-a77078", "operator": "United States Postal Service", "operator:short": "USPS", "operator:type": "public", "operator:wikidata": "Q668687", "ref": "6893900002"}, "type": "Feature"}
{"dataset_attributes": {"@spider": "usps_collection_boxes", "spider:collection_time": "2023-12-19T08:25:25.283853"}, "geometry": {"coordinates": [-98.9546625, 40.0945944749], "type": "Point"}, "id": "XgfCWTZQK5EJXUCLPuDEtUMBWRQ=", "properties": {"@spider": "usps_collection_boxes", "addr:city": "FRANKLIN", "addr:country": "US", "addr:full": "1402 L ST", "addr:postcode": "68939", "addr:state": "NE", "amenity": "post_box", "brand": "United States Postal Service", "brand:wikidata": "Q668687", "collection_times": "Mo-Fr 13:00; Sa 10:00", "name": "USPS COLLECTION BOX - PO LOBBY", "note": "ON 12/24 AND 12/31, THIS BOX MAY BE COLLECTED AS EARLY AS 12 NOON.", "nsi_id": "unitedstatespostalservice-a77078", "operator": "United States Postal Service", "operator:short": "USPS", "operator:type": "public", "operator:wikidata": "Q668687", "ref": "6893900003"}, "type": "Feature"}
{"dataset_attributes": {"@spider": "usps_collection_boxes", "spider:collection_time": "2023-12-19T08:25:25.283853"}, "geometry": {"coordinates": [-99.250471, 40.460899], "type": "Point"}, "id": "nIF2XmU1txj9dXj1r_c0yntwZPA=", "properties": {"@spider": "usps_collection_boxes", "addr:city": "FUNK", "addr:country": "US", "addr:full": "121 MAIN ST", "addr:postcode": "68940", "addr:state": "NE", "amenity": "post_box", "brand": "United States Postal Service", "brand:wikidata": "Q668687", "collection_times": "Mo-Fr 13:30; Sa 13:15", "name": "USPS COLLECTION BOX - BLUE BOX", "note": "ON 12/24 AND 12/31, THIS BOX MAY BE COLLECTED AS EARLY AS 12 NOON.", "nsi_id": "unitedstatespostalservice-a77078", "operator": "United States Postal Service", "operator:short": "USPS", "operator:type": "public", "operator:wikidata": "Q668687", "ref": "6894000001"}, "type": "Feature"}
{"dataset_attributes": {"@spider": "usps_collection_boxes", "spider:collection_time": "2023-12-19T08:25:25.283853"}, "geometry": {"coordinates": [-99.2502360322, 40.461176988], "type": "Point"}, "id": "1psBs_67JGAy2j3FDMnLBX24lCk=", "properties": {"@spider": "usps_collection_boxes", "addr:city": "FUNK", "addr:country": "US", "addr:full": "121 MAIN ST", "addr:postcode": "68940", "addr:state": "NE", "amenity": "post_box", "brand": "United States Postal Service", "brand:wikidata": "Q668687", "collection_times": "Mo-Fr 13:30; Sa 10:05", "name": "USPS COLLECTION BOX - PO LOBBY", "note": "ON 12/24 AND 12/31, THIS BOX MAY BE COLLECTED AS EARLY AS 12 NOON.", "nsi_id": "unitedstatespostalservice-a77078", "operator": "United States Postal Service", "operator:short": "USPS", "operator:type": "public", "operator:wikidata": "Q668687", "ref": "6894000002"}, "type": "Feature"}
{"dataset_attributes": {"@spider": "usps_collection_boxes", "spider:collection_time": "2023-12-19T08:25:25.283853"}, "geometry": {"coordinates": [-99.2502360322, 40.461176988], "type": "Point"}, "id": "Cv0aBtnlYxSxtXnkZfQP2o4f7OI=", "properties": {"@spider": "usps_collection_boxes", "addr:city": "FUNK", "addr:country": "US", "addr:full": "121 MAIN ST", "addr:postcode": "68940", "addr:state": "NE", "amenity": "post_box", "brand": "United States Postal Service", "brand:wikidata": "Q668687", "collection_times": "Mo-Fr 13:30; Sa 10:05", "name": "USPS COLLECTION BOX - PO LOBBY", "note": "ON 12/24 AND 12/31, THIS BOX MAY BE COLLECTED AS EARLY AS 12 NOON.", "nsi_id": "unitedstatespostalservice-a77078", "operator": "United States Postal Service", "operator:short": "USPS", "operator:type": "public", "operator:wikidata": "Q668687", "ref": "6894000003"}, "type": "Feature"}
{"dataset_attributes": {"@spider": "usps_collection_boxes", "spider:collection_time": "2023-12-19T08:25:25.283853"}, "geometry": {"coordinates": [-98.251883, 40.504162], "type": "Point"}, "id": "d5JjzVwkF8fPYxQuuY132lm-1Bk=", "properties": {"@spider": "usps_collection_boxes", "addr:city": "GLENVIL", "addr:country": "US", "addr:full": "204 WINTERS AVE", "addr:postcode": "68941", "addr:state": "NE", "amenity": "post_box", "brand": "United States Postal Service", "brand:wikidata": "Q668687", "collection_times": "Mo-Sa 14:00", "name": "USPS COLLECTION BOX - BLUE BOX", "note": "ON 12/24 AND 12/31, THIS BOX MAY BE COLLECTED AS EARLY AS 12 NOON.", "nsi_id": "unitedstatespostalservice-a77078", "operator": "United States Postal Service", "operator:short": "USPS", "operator:type": "public", "operator:wikidata": "Q668687", "ref": "6894100001"}, "type": "Feature"}
{"dataset_attributes": {"@spider": "usps_collection_boxes", "spider:collection_time": "2023-12-19T08:25:25.283853"}, "geometry": {"coordinates": [-98.251883, 40.504162], "type": "Point"}, "id": "1u-xT8V5QPhdpzeb2D15ICx-ZRo=", "properties": {"@spider": "usps_collection_boxes", "addr:city": "GLENVIL", "addr:country": "US", "addr:full": "204 WINTERS AVE", "addr:postcode": "68941", "addr:state": "NE", "amenity": "post_box", "brand": "United States Postal Service", "brand:wikidata": "Q668687", "collection_times": "Mo-Fr 11:50; Sa 09:35", "name": "USPS COLLECTION BOX - PO LOBBY", "nsi_id": "unitedstatespostalservice-a77078", "operator": "United States Postal Service", "operator:short": "USPS", "operator:type": "public", "operator:wikidata": "Q668687", "ref": "6894100002"}, "type": "Feature"}
{"dataset_attributes": {"@spider": "usps_collection_boxes", "spider:collection_time": "2023-12-19T08:25:25.283853"}, "geometry": {"coordinates": [-98.251845996, 40.504109015], "type": "Point"}, "id": "OuhgPdP5Hr-6L0y3d0PxrkpSNvU=", "properties": {"@spider": "usps_collection_boxes", "addr:city": "GLENVIL", "addr:country": "US", "addr:full": "204 WINTERS AVE", "addr:postcode": "68941", "addr:state": "NE", "amenity": "post_box", "brand": "United States Postal Service", "brand:wikidata": "Q668687", "collection_times": "Mo-Fr 11:50; Sa 09:35", "name": "USPS COLLECTION BOX - PO LOBBY", "nsi_id": "unitedstatespostalservice-a77078", "operator": "United States Postal Service", "operator:short": "USPS", "operator:type": "public", "operator:wikidata": "Q668687", "ref": "6894100003"}, "type": "Feature"}
{"dataset_attributes": {"@spider": "usps_collection_boxes", "spider:collection_time": "2023-12-19T08:25:25.283853"}, "geometry": {"coordinates": [-98.330292, 40.073701], "type": "Point"}, "id": "_55wuJ2H4DuMupLg3tlDRimHtSs=", "properties": {"@spider": "usps_collection_boxes", "addr:city": "GUIDE ROCK", "addr:country": "US", "addr:full": "400 UNIVERSITY AVE", "addr:postcode": "68942", "addr:state": "NE", "amenity": "post_box", "brand": "United States Postal Service", "brand:wikidata": "Q668687", "collection_times": "Mo-Sa 13:55", "name": "USPS COLLECTION BOX - BLUE BOX", "note": "ON 12/24 AND 12/31, THIS BOX MAY BE COLLECTED AS EARLY AS 12 NOON.", "nsi_id": "unitedstatespostalservice-a77078", "operator": "United States Postal Service", "operator:short": "USPS", "operator:type": "public", "operator:wikidata": "Q668687", "ref": "6894200001"}, "type": "Feature"}
{"dataset_attributes": {"@spider": "usps_collection_boxes", "spider:collection_time": "2023-12-19T08:25:25.283853"}, "geometry": {"coordinates": [-98.330292, 40.073701], "type": "Point"}, "id": "tDZksDeWGJDAyV9KldXz6tJjhp4=", "properties": {"@spider": "usps_collection_boxes", "addr:city": "GUIDE ROCK", "addr:country": "US", "addr:full": "400 UNIVERSITY AVE", "addr:postcode": "68942", "addr:state": "NE", "amenity": "post_box", "brand": "United States Postal Service", "brand:wikidata": "Q668687", "collection_times": "Mo-Fr 11:50; Sa 10:20", "name": "USPS COLLECTION BOX - PO LOBBY", "nsi_id": "unitedstatespostalservice-a77078", "operator": "United States Postal Service", "operator:short": "USPS", "operator:type": "public", "operator:wikidata": "Q668687", "ref": "6894200002"}, "type": "Feature"}
{"dataset_attributes": {"@spider": "usps_collection_boxes", "spider:collection_time": "2023-12-19T08:25:25.283853"}, "geometry": {"coordinates": [-98.330275122, 40.073664378], "type": "Point"}, "id": "3ZSdP9eOlnXNudUSyr9bxg5f_uI=", "properties": {"@spider": "usps_collection_boxes", "addr:city": "GUIDE ROCK", "addr:country": "US", "addr:full": "400 UNIVERSITY AVE", "addr:postcode": "68942", "addr:state": "NE", "amenity": "post_box", "brand": "United States Postal Service", "brand:wikidata": "Q668687", "collection_times": "Mo-Fr 11:50; Sa 10:20", "name": "USPS COLLECTION BOX - PO LOBBY", "nsi_id": "unitedstatespostalservice-a77078", "operator": "United States Postal Service", "operator:short": "USPS", "operator:type": "public", "operator:wikidata": "Q668687", "ref": "6894200003"}, "type": "Feature"}
{"dataset_attributes": {"@spider": "usps_collection_boxes", "spider:collection_time": "2023-12-19T08:25:25.283853"}, "geometry": {"coordinates": [-97.927092, 40.009234], "type": "Point"}, "id": "XY_KoFSd2A0SkNu4D7rP5_tENjA=", "properties": {"@spider": "usps_collection_boxes", "addr:city": "HARDY", "addr:country": "US", "addr:full": "307 MAIN ST", "addr:postcode": "68943", "addr:state": "NE", "amenity": "post_box", "brand": "United States Postal Service", "brand:wikidata": "Q668687", "collection_times": "Mo-Sa 12:15", "name": "USPS COLLECTION BOX - BLUE BOX", "note": "ON 12/24 AND 12/31, THIS BOX MAY BE COLLECTED AS EARLY AS 12 NOON.", "nsi_id": "unitedstatespostalservice-a77078", "operator": "United States Postal Service", "operator:short": "USPS", "operator:type": "public", "operator:wikidata": "Q668687", "ref": "6894300001"}, "type": "Feature"}
{"dataset_attributes": {"@spider": "usps_collection_boxes", "spider:collection_time": "2023-12-19T08:25:25.283853"}, "geometry": {"coordinates": [-97.927092, 40.009234], "type": "Point"}, "id": "_yT-qIyS4Etk8TjKXdxlWOC4Lsw=", "properties": {"@spider": "usps_collection_boxes", "addr:city": "HARDY", "addr:country": "US", "addr:full": "307 MAIN ST", "addr:postcode": "68943", "addr:state": "NE", "amenity": "post_box", "brand": "United States Postal Service", "brand:wikidata": "Q668687", "collection_times": "Mo-Sa 12:15", "name": "USPS COLLECTION BOX - PO LOBBY", "note": "ON 12/24 AND 12/31, THIS BOX MAY BE COLLECTED AS EARLY AS 12 NOON.", "nsi_id": "unitedstatespostalservice-a77078", "operator": "United States Postal Service", "operator:short": "USPS", "operator:type": "public", "operator:wikidata": "Q668687", "ref": "6894300002"}, "type": "Feature"}
{"dataset_attributes": {"@spider": "usps_collection_boxes", "spider:collection_time": "2023-12-19T08:25:25.283853"}, "geometry": {"coordinates": [-97.927116884, 40.009199671], "type": "Point"}, "id": "Jc_sjD7W3sL-60-ZXLjFHLlFsAU=", "properties": {"@spider": "usps_collection_boxes", "addr:city": "HARDY", "addr:country": "US", "addr:full": "307 MAIN ST", "addr:postcode": "68943", "addr:state": "NE", "amenity": "post_box", "brand": "United States Postal Service", "brand:wikidata": "Q668687", "collection_times": "Mo-Sa 12:00", "name": "USPS COLLECTION BOX - PO LOBBY", "nsi_id": "unitedstatespostalservice-a77078", "operator": "United States Postal Service", "operator:short": "USPS", "operator:type": "public", "operator:wikidata": "Q668687", "ref": "6894300004"}, "type": "Feature"}
{"dataset_attributes": {"@spider": "usps_collection_boxes", "spider:collection_time": "2023-12-19T08:25:25.283853"}, "geometry": {"coordinates": [-98.097217, 40.619481], "type": "Point"}, "id": "m-sHVLv6VkNvLYJwTdK_yeV3jls=", "properties": {"@spider": "usps_collection_boxes", "addr:city": "HARVARD", "addr:country": "US", "addr:full": "315 N CLAY AVE", "addr:postcode": "68944", "addr:state": "NE", "amenity": "post_box", "brand": "United States Postal Service", "brand:wikidata": "Q668687", "collection_times": "Mo-Sa 14:25", "name": "USPS COLLECTION BOX - BLUE BOX", "note": "ON 12/24 AND 12/31, THIS BOX MAY BE COLLECTED AS EARLY AS 12 NOON.", "nsi_id": "unitedstatespostalservice-a77078", "operator": "United States Postal Service", "operator:short": "USPS", "operator:type": "public", "operator:wikidata": "Q668687", "ref": "6894400001"}, "type": "Feature"}
{"dataset_attributes": {"@spider": "usps_collection_boxes", "spider:collection_time": "2023-12-19T08:25:25.283853"}, "geometry": {"coordinates": [-98.097217, 40.619481], "type": "Point"}, "id": "-Dg6Ccq1YkVRG_fQ2_QNy4DDeTc=", "properties": {"@spider": "usps_collection_boxes", "addr:city": "HARVARD", "addr:country": "US", "addr:full": "315 N CLAY AVE", "addr:postcode": "68944", "addr:state": "NE", "amenity": "post_box", "brand": "United States Postal Service", "brand:wikidata": "Q668687", "collection_times": "Mo-Fr 14:20; Sa 10:20", "name": "USPS COLLECTION BOX - PO LOBBY", "note": "ON 12/24 AND 12/31, THIS BOX MAY BE COLLECTED AS EARLY AS 12 NOON.", "nsi_id": "unitedstatespostalservice-a77078", "operator": "United States Postal Service", "operator:short": "USPS", "operator:type": "public", "operator:wikidata": "Q668687", "ref": "6894400002"}, "type": "Feature"}
{"dataset_attributes": {"@spider": "usps_collection_boxes", "spider:collection_time": "2023-12-19T08:25:25.283853"}, "geometry": {"coordinates": [-98.0972161999, 40.619475], "type": "Point"}, "id": "CZIn8tolHY7sgRrzS6r9nwFTQyQ=", "properties": {"@spider": "usps_collection_boxes", "addr:city": "HARVARD", "addr:country": "US", "addr:full": "315 N CLAY AVE", "addr:postcode": "68944", "addr:state": "NE", "amenity": "post_box", "brand": "United States Postal Service", "brand:wikidata": "Q668687", "collection_times": "Mo-Fr 14:20; Sa 10:20", "name": "USPS COLLECTION BOX - PO LOBBY", "note": "ON 12/24 AND 12/31, THIS BOX MAY BE COLLECTED AS EARLY AS 12 NOON.", "nsi_id": "unitedstatespostalservice-a77078", "operator": "United States Postal Service", "operator:short": "USPS", "operator:type": "public", "operator:wikidata": "Q668687", "ref": "6894400003"}, "type": "Feature"}
{"dataset_attributes": {"@spider": "usps_collection_boxes", "spider:collection_time": "2023-12-19T08:25:25.283853"}, "geometry": {"coordinates": [-98.788005, 40.570019], "type": "Point"}, "id": "QVOXsW_orVVL2SxAezNgizXzMTI=", "properties": {"@spider": "usps_collection_boxes", "addr:city": "HEARTWELL", "addr:country": "US", "addr:full": "209 MAIN ST", "addr:postcode": "68945", "addr:state": "NE", "amenity": "post_box", "brand": "United States Postal Service", "brand:wikidata": "Q668687", "collection_times": "Mo-Sa 14:15", "name": "USPS COLLECTION BOX - BLUE BOX", "note": "ON 12/24 AND 12/31, THIS BOX MAY BE COLLECTED AS EARLY AS 12 NOON.", "nsi_id": "unitedstatespostalservice-a77078", "operator": "United States Postal Service", "operator:short": "USPS", "operator:type": "public", "operator:wikidata": "Q668687", "ref": "6894500001"}, "type": "Feature"}
{"dataset_attributes": {"@spider": "usps_collection_boxes", "spider:collection_time": "2023-12-19T08:25:25.283853"}, "geometry": {"coordinates": [-98.788005, 40.570019], "type": "Point"}, "id": "EouD88HDOZtVLrcF9DM3J1O-eqs=", "properties": {"@spider": "usps_collection_boxes", "addr:city": "HEARTWELL", "addr:country": "US", "addr:full": "209 MAIN ST", "addr:postcode": "68945", "addr:state": "NE", "amenity": "post_box", "brand": "United States Postal Service", "brand:wikidata": "Q668687", "collection_times": "Mo-Fr 11:50; Sa 09:35", "name": "USPS COLLECTION BOX - PO LOBBY", "nsi_id": "unitedstatespostalservice-a77078", "operator": "United States Postal Service", "operator:short": "USPS", "operator:type": "public", "operator:wikidata": "Q668687", "ref": "6894500002"}, "type": "Feature"}
{"dataset_attributes": {"@spider": "usps_collection_boxes", "spider:collection_time": "2023-12-19T08:25:25.283853"}, "geometry": {"coordinates": [-98.788034255, 40.570011988], "type": "Point"}, "id": "zV9FIAYTht3AAySxYriDE6U6WSc=", "properties": {"@spider": "usps_collection_boxes", "addr:city": "HEARTWELL", "addr:country": "US", "addr:full": "209 MAIN ST", "addr:postcode": "68945", "addr:state": "NE", "amenity": "post_box", "brand": "United States Postal Service", "brand:wikidata": "Q668687", "collection_times": "Mo-Fr 11:50; Sa 09:35", "name": "USPS COLLECTION BOX - PO LOBBY", "nsi_id": "unitedstatespostalservice-a77078", "operator": "United States Postal Service", "operator:short": "USPS", "operator:type": "public", "operator:wikidata": "Q668687", "ref": "6894500003"}, "type": "Feature"}
{"dataset_attributes": {"@spider": "usps_collection_boxes", "spider:collection_time": "2023-12-19T08:25:25.283853"}, "geometry": {"coordinates": [-99.043588, 40.33766], "type": "Point"}, "id": "3ishFn0KeiAJkEc4EWVcv8T1f6g=", "properties": {"@spider": "usps_collection_boxes", "addr:city": "HILDRETH", "addr:country": "US", "addr:full": "209 COMMERCIAL AVE", "addr:postcode": "68947", "addr:state": "NE", "amenity": "post_box", "brand": "United States Postal Service", "brand:wikidata": "Q668687", "collection_times": "Mo-Sa 12:45", "name": "USPS COLLECTION BOX - BLUE BOX", "note": "ON 12/24 AND 12/31, THIS BOX MAY BE COLLECTED AS EARLY AS 12 NOON.", "nsi_id": "unitedstatespostalservice-a77078", "operator": "United States Postal Service", "operator:short": "USPS", "operator:type": "public", "operator:wikidata": "Q668687", "ref": "6894700001"}, "type": "Feature"}
{"dataset_attributes": {"@spider": "usps_collection_boxes", "spider:collection_time": "2023-12-19T08:25:25.283853"}, "geometry": {"coordinates": [-99.043588, 40.33766], "type": "Point"}, "id": "B2IzB68s9jERwS1jHab5VV0St4U=", "properties": {"@spider": "usps_collection_boxes", "addr:city": "HILDRETH", "addr:country": "US", "addr:full": "209 COMMERCIAL AVE", "addr:postcode": "68947", "addr:state": "NE", "amenity": "post_box", "brand": "United States Postal Service", "brand:wikidata": "Q668687", "collection_times": "Mo-Fr 12:20; Sa 11:00", "name": "USPS COLLECTION BOX - PO LOBBY", "note": "ON 12/24 AND 12/31, THIS BOX MAY BE COLLECTED AS EARLY AS 12 NOON.", "nsi_id": "unitedstatespostalservice-a77078", "operator": "United States Postal Service", "operator:short": "USPS", "operator:type": "public", "operator:wikidata": "Q668687", "ref": "6894700002"}, "type": "Feature"}
{"dataset_attributes": {"@spider": "usps_collection_boxes", "spider:collection_time": "2023-12-19T08:25:25.283853"}, "geometry": {"coordinates": [-99.043590025, 40.337656386], "type": "Point"}, "id": "MmAOMv1_Y8YvfvX_3xan4bKbIhY=", "properties": {"@spider": "usps_collection_boxes", "addr:city": "HILDRETH", "addr:country": "US", "addr:full": "209 COMMERCIAL AVE", "addr:postcode": "68947", "addr:state": "NE", "amenity": "post_box", "brand": "United States Postal Service", "brand:wikidata": "Q668687", "collection_times": "Mo-Fr 12:20; Sa 11:00", "name": "USPS COLLECTION BOX - PO LOBBY", "note": "ON 12/24 AND 12/31, THIS BOX MAY BE COLLECTED AS EARLY AS 12 NOON.", "nsi_id": "unitedstatespostalservice-a77078", "operator": "United States Postal Service", "operator:short": "USPS", "operator:type": "public", "operator:wikidata": "Q668687", "ref": "6894700003"}, "type": "Feature"}
{"dataset_attributes": {"@spider": "usps_collection_boxes", "spider:collection_time": "2023-12-19T08:25:25.283853"}, "geometry": {"coordinates": [-100.009999, 40.304066], "type": "Point"}, "id": "Kck9KXszikJNL3G4wh-yAXyX7RM=", "properties": {"@spider": "usps_collection_boxes", "addr:city": "HOLBROOK", "addr:country": "US", "addr:full": "220 CENTER ST", "addr:postcode": "68948", "addr:state": "NE", "amenity": "post_box", "brand": "United States Postal Service", "brand:wikidata": "Q668687", "collection_times": "Mo-Sa 12:30", "name": "USPS COLLECTION BOX - BLUE BOX", "note": "ON 12/24 AND 12/31, THIS BOX MAY BE COLLECTED AS EARLY AS 12 NOON.", "nsi_id": "unitedstatespostalservice-a77078", "operator": "United States Postal Service", "operator:short": "USPS", "operator:type": "public", "operator:wikidata": "Q668687", "ref": "6894800001"}, "type": "Feature"}
{"dataset_attributes": {"@spider": "usps_collection_boxes", "spider:collection_time": "2023-12-19T08:25:25.283853"}, "geometry": {"coordinates": [-100.00985, 40.301501], "type": "Point"}, "id": "q5hcudHfWGfP0BGDhVSySaVc8yE=", "properties": {"@spider": "usps_collection_boxes", "addr:city": "HOLBROOK", "addr:country": "US", "addr:full": "220 CENTER ST", "addr:postcode": "68948", "addr:state": "NE", "amenity": "post_box", "brand": "United States Postal Service", "brand:wikidata": "Q668687", "collection_times": "Mo-Sa 11:50", "name": "USPS COLLECTION BOX - PO LOBBY", "nsi_id": "unitedstatespostalservice-a77078", "operator": "United States Postal Service", "operator:short": "USPS", "operator:type": "public", "operator:wikidata": "Q668687", "ref": "6894800002"}, "type": "Feature"}
{"dataset_attributes": {"@spider": "usps_collection_boxes", "spider:collection_time": "2023-12-19T08:25:25.283853"}, "geometry": {"coordinates": [-100.010093625, 40.303688488], "type": "Point"}, "id": "p9d-toW69n1M6V6B04K4NJgvKvs=", "properties": {"@spider": "usps_collection_boxes", "addr:city": "HOLBROOK", "addr:country": "US", "addr:full": "220 CENTER ST", "addr:postcode": "68948", "addr:state": "NE", "amenity": "post_box", "brand": "United States Postal Service", "brand:wikidata": "Q668687", "collection_times": "Mo-Sa 11:50", "name": "USPS COLLECTION BOX - PO LOBBY", "nsi_id": "unitedstatespostalservice-a77078", "operator": "United States Postal Service", "operator:short": "USPS", "operator:type": "public", "operator:wikidata": "Q668687", "ref": "6894800003"}, "type": "Feature"}
{"dataset_attributes": {"@spider": "usps_collection_boxes", "spider:collection_time": "2023-12-19T08:25:25.283853"}, "geometry": {"coordinates": [-99.3711429, 40.438885], "type": "Point"}, "id": "qW75CCXTzZLsVCPQyBzQCzNCduU=", "properties": {"@spider": "usps_collection_boxes", "addr:city": "HOLDREGE", "addr:country": "US", "addr:full": "424 WEST AVE", "addr:postcode": "68949", "addr:state": "NE", "amenity": "post_box", "brand": "United States Postal Service", "brand:wikidata": "Q668687", "collection_times": "Mo-Fr 13:40; Sa 13:30", "name": "USPS COLLECTION BOX - BLUE BOX", "note": "ON 12/24 AND 12/31, THIS BOX MAY BE COLLECTED AS EARLY AS 12 NOON.", "nsi_id": "unitedstatespostalservice-a77078", "operator": "United States Postal Service", "operator:short": "USPS", "operator:type": "public", "operator:wikidata": "Q668687", "ref": "6894900003"}, "type": "Feature"}
{"dataset_attributes": {"@spider": "usps_collection_boxes", "spider:collection_time": "2023-12-19T08:25:25.283853"}, "geometry": {"coordinates": [-99.3800887, 40.449594], "type": "Point"}, "id": "_K5stf5nnDLRmKneFB_LCB3XiKA=", "properties": {"@spider": "usps_collection_boxes", "addr:city": "HOLDREGE", "addr:country": "US", "addr:full": "1515 BURLINGTON ST", "addr:postcode": "68949", "addr:state": "NE", "amenity": "post_box", "brand": "United States Postal Service", "brand:wikidata": "Q668687", "collection_times": "Mo-Fr 12:58; Sa 12:28", "name": "USPS COLLECTION BOX - BLUE BOX", "note": "ON 12/24 AND 12/31, THIS BOX MAY BE COLLECTED AS EARLY AS 12 NOON.", "nsi_id": "unitedstatespostalservice-a77078", "operator": "United States Postal Service", "operator:short": "USPS", "operator:type": "public", "operator:wikidata": "Q668687", "ref": "6894900006"}, "type": "Feature"}
{"dataset_attributes": {"@spider": "usps_collection_boxes", "spider:collection_time": "2023-12-19T08:25:25.283853"}, "geometry": {"coordinates": [-99.3697828, 40.438694], "type": "Point"}, "id": "KPnLXaxnxOg9uU5LUngremi4QgM=", "properties": {"@spider": "usps_collection_boxes", "addr:city": "HOLDREGE", "addr:country": "US", "addr:full": "420 EAST AVE", "addr:postcode": "68949", "addr:state": "NE", "amenity": "post_box", "brand": "United States Postal Service", "brand:wikidata": "Q668687", "collection_times": "Mo-Fr 13:40; Sa 13:30", "name": "USPS COLLECTION BOX - BLUE BOX", "note": "ON 12/24 AND 12/31, THIS BOX MAY BE COLLECTED AS EARLY AS 12 NOON.", "nsi_id": "unitedstatespostalservice-a77078", "operator": "United States Postal Service", "operator:short": "USPS", "operator:type": "public", "operator:wikidata": "Q668687", "ref": "6894900009"}, "type": "Feature"}
{"dataset_attributes": {"@spider": "usps_collection_boxes", "spider:collection_time": "2023-12-19T08:25:25.283853"}, "geometry": {"coordinates": [-99.3694703, 40.43875], "type": "Point"}, "id": "ZGgyMGZiFfZ0cPwsdyclAUXtE_4=", "properties": {"@spider": "usps_collection_boxes", "addr:city": "HOLDREGE", "addr:country": "US", "addr:full": "420 EAST AVE", "addr:postcode": "68949", "addr:state": "NE", "amenity": "post_box", "brand": "United States Postal Service", "brand:wikidata": "Q668687", "collection_times": "Mo-Fr 13:40; Sa 13:30", "name": "USPS COLLECTION BOX - PO LOBBY", "note": "ON 12/24 AND 12/31, THIS BOX MAY BE COLLECTED AS EARLY AS 12 NOON.", "nsi_id": "unitedstatespostalservice-a77078", "operator": "United States Postal Service", "operator:short": "USPS", "operator:type": "public", "operator:wikidata": "Q668687", "ref": "6894900012"}, "type": "Feature"}
{"dataset_attributes": {"@spider": "usps_collection_boxes", "spider:collection_time": "2023-12-19T08:25:25.283853"}, "geometry": {"coordinates": [-99.3692176, 40.438962], "type": "Point"}, "id": "G_zH9f-D393GSXryf1mSxbAMvaw=", "properties": {"@spider": "usps_collection_boxes", "addr:city": "HOLDREGE", "addr:country": "US", "addr:full": "420 EAST AVE", "addr:postcode": "68949", "addr:state": "NE", "amenity": "post_box", "brand": "United States Postal Service", "brand:wikidata": "Q668687", "collection_times": "Mo-Fr 13:40; Sa 13:30", "name": "USPS COLLECTION BOX - BLUE BOX", "note": "ON 12/24 AND 12/31, THIS BOX MAY BE COLLECTED AS EARLY AS 12 NOON.", "nsi_id": "unitedstatespostalservice-a77078", "operator": "United States Postal Service", "operator:short": "USPS", "operator:type": "public", "operator:wikidata": "Q668687", "ref": "6894900013"}, "type": "Feature"}
{"dataset_attributes": {"@spider": "usps_collection_boxes", "spider:collection_time": "2023-12-19T08:25:25.283853"}, "geometry": {"coordinates": [-99.369849074, 40.438209554], "type": "Point"}, "id": "XgWGacwOXgX69ZaqJT78y1jy75A=", "properties": {"@spider": "usps_collection_boxes", "addr:city": "HOLDREGE", "addr:country": "US", "addr:full": "420 EAST AVE", "addr:postcode": "68949", "addr:state": "NE", "amenity": "post_box", "brand": "United States Postal Service", "brand:wikidata": "Q668687", "collection_times": "Mo-Fr 13:40; Sa 10:30", "name": "USPS COLLECTION BOX - PO LOBBY", "note": "ON 12/24 AND 12/31, THIS BOX MAY BE COLLECTED AS EARLY AS 12 NOON.", "nsi_id": "unitedstatespostalservice-a77078", "operator": "United States Postal Service", "operator:short": "USPS", "operator:type": "public", "operator:wikidata": "Q668687", "ref": "6894900014"}, "type": "Feature"}
{"dataset_attributes": {"@spider": "usps_collection_boxes", "spider:collection_time": "2023-12-19T08:25:25.283853"}, "geometry": {"coordinates": [-98.652063, 40.465102], "type": "Point"}, "id": "kp6yF-z8I5alg6nrnX8j6AYvxDY=", "properties": {"@spider": "usps_collection_boxes", "addr:city": "HOLSTEIN", "addr:country": "US", "addr:full": "9710 S MAIN AVE", "addr:postcode": "68950", "addr:state": "NE", "amenity": "post_box", "brand": "United States Postal Service", "brand:wikidata": "Q668687", "collection_times": "Mo-Sa 13:25", "name": "USPS COLLECTION BOX - BLUE BOX", "note": "ON 12/24 AND 12/31, THIS BOX MAY BE COLLECTED AS EARLY AS 12 NOON.", "nsi_id": "unitedstatespostalservice-a77078", "operator": "United States Postal Service", "operator:short": "USPS", "operator:type": "public", "operator:wikidata": "Q668687", "ref": "6895000001"}, "type": "Feature"}
{"dataset_attributes": {"@spider": "usps_collection_boxes", "spider:collection_time": "2023-12-19T08:25:25.283853"}, "geometry": {"coordinates": [-98.652063, 40.465102], "type": "Point"}, "id": "Zw9l813xfEVt7KwA_tabcyDF76g=", "properties": {"@spider": "usps_collection_boxes", "addr:city": "HOLSTEIN", "addr:country": "US", "addr:full": "9710 S MAIN AVE", "addr:postcode": "68950", "addr:state": "NE", "amenity": "post_box", "brand": "United States Postal Service", "brand:wikidata": "Q668687", "collection_times": "Mo-Fr 11:45; Sa 09:45", "name": "USPS COLLECTION BOX - PO LOBBY", "nsi_id": "unitedstatespostalservice-a77078", "operator": "United States Postal Service", "operator:short": "USPS", "operator:type": "public", "operator:wikidata": "Q668687", "ref": "6895000002"}, "type": "Feature"}
{"dataset_attributes": {"@spider": "usps_collection_boxes", "spider:collection_time": "2023-12-19T08:25:25.283853"}, "geometry": {"coordinates": [-98.652089023, 40.465116448], "type": "Point"}, "id": "Q5bbLTYMF5nfrTdXCN98LptLAgU=", "properties": {"@spider": "usps_collection_boxes", "addr:city": "HOLSTEIN", "addr:country": "US", "addr:full": "9710 S MAIN AVE", "addr:postcode": "68950", "addr:state": "NE", "amenity": "post_box", "brand": "United States Postal Service", "brand:wikidata": "Q668687", "collection_times": "Mo-Fr 11:45; Sa 09:45", "name": "USPS COLLECTION BOX - PO LOBBY", "nsi_id": "unitedstatespostalservice-a77078", "operator": "United States Postal Service", "operator:short": "USPS", "operator:type": "public", "operator:wikidata": "Q668687", "ref": "6895000003"}, "type": "Feature"}
{"dataset_attributes": {"@spider": "usps_collection_boxes", "spider:collection_time": "2023-12-19T08:25:25.283853"}, "geometry": {"coordinates": [-98.222494, 40.592379], "type": "Point"}, "id": "fWo3UhpwSXnLU9pZ9cX1Bc4hq-o=", "properties": {"@spider": "usps_collection_boxes", "addr:country": "US", "addr:full": "31773 ROAD D", "addr:postcode": "68954", "addr:state": "NE", "amenity": "post_box", "brand": "United States Postal Service", "brand:wikidata": "Q668687", "collection_times": "Mo-Sa 09:30", "name": "USPS COLLECTION BOX - BLUE BOX", "nsi_id": "unitedstatespostalservice-a77078", "operator": "United States Postal Service", "operator:short": "USPS", "operator:type": "public", "operator:wikidata": "Q668687", "ref": "6895400000"}, "type": "Feature"}
{"dataset_attributes": {"@spider": "usps_collection_boxes", "spider:collection_time": "2023-12-19T08:25:25.283853"}, "geometry": {"coordinates": [-98.506566052, 40.602188056], "type": "Point"}, "id": "afdoiREP0kw_IyXY2W5X6Dc4Ulg=", "properties": {"@spider": "usps_collection_boxes", "addr:city": "JUNIATA", "addr:country": "US", "addr:full": "1002 N JUNIATA AVE", "addr:postcode": "68955", "addr:state": "NE", "amenity": "post_box", "brand": "United States Postal Service", "brand:wikidata": "Q668687", "collection_times": "Mo-Sa 14:45", "name": "USPS COLLECTION BOX - BLUE BOX", "note": "ON 12/24 AND 12/31, THIS BOX MAY BE COLLECTED AS EARLY AS 12 NOON.", "nsi_id": "unitedstatespostalservice-a77078", "operator": "United States Postal Service", "operator:short": "USPS", "operator:type": "public", "operator:wikidata": "Q668687", "ref": "6895500001"}, "type": "Feature"}
{"dataset_attributes": {"@spider": "usps_collection_boxes", "spider:collection_time": "2023-12-19T08:25:25.283853"}, "geometry": {"coordinates": [-98.506566052, 40.602188056], "type": "Point"}, "id": "AR9-6IRycudQA-TY1HAEbySICG0=", "properties": {"@spider": "usps_collection_boxes", "addr:city": "JUNIATA", "addr:country": "US", "addr:full": "1002 N JUNIATA AVE", "addr:postcode": "68955", "addr:state": "NE", "amenity": "post_box", "brand": "United States Postal Service", "brand:wikidata": "Q668687", "collection_times": "Mo-Fr 14:44; Sa 10:45", "name": "USPS COLLECTION BOX - PO LOBBY", "note": "ON 12/24 AND 12/31, THIS BOX MAY BE COLLECTED AS EARLY AS 12 NOON.", "nsi_id": "unitedstatespostalservice-a77078", "operator": "United States Postal Service", "operator:short": "USPS", "operator:type": "public", "operator:wikidata": "Q668687", "ref": "6895500002"}, "type": "Feature"}
{"dataset_attributes": {"@spider": "usps_collection_boxes", "spider:collection_time": "2023-12-19T08:25:25.283853"}, "geometry": {"coordinates": [-98.506566052, 40.602188056], "type": "Point"}, "id": "4kNWvtMYBwEZ6fyG-mDrfU8fCig=", "properties": {"@spider": "usps_collection_boxes", "addr:city": "JUNIATA", "addr:country": "US", "addr:full": "1002 N JUNIATA AVE", "addr:postcode": "68955", "addr:state": "NE", "amenity": "post_box", "brand": "United States Postal Service", "brand:wikidata": "Q668687", "collection_times": "Mo-Fr 14:44; Sa 10:45", "name": "USPS COLLECTION BOX - PO LOBBY", "note": "ON 12/24 AND 12/31, THIS BOX MAY BE COLLECTED AS EARLY AS 12 NOON.", "nsi_id": "unitedstatespostalservice-a77078", "operator": "United States Postal Service", "operator:short": "USPS", "operator:type": "public", "operator:wikidata": "Q668687", "ref": "6895500003"}, "type": "Feature"}
{"dataset_attributes": {"@spider": "usps_collection_boxes", "spider:collection_time": "2023-12-19T08:25:25.283853"}, "geometry": {"coordinates": [-98.657707, 40.621501], "type": "Point"}, "id": "BQfJm-NfNgB9wT6VH4px0hQyWCo=", "properties": {"@spider": "usps_collection_boxes", "addr:city": "KENESAW", "addr:country": "US", "addr:full": "205 N SMITH AVE", "addr:postcode": "68956", "addr:state": "NE", "amenity": "post_box", "brand": "United States Postal Service", "brand:wikidata": "Q668687", "collection_times": "Mo-Sa 14:30", "name": "USPS COLLECTION BOX - BLUE BOX", "note": "ON 12/24 AND 12/31, THIS BOX MAY BE COLLECTED AS EARLY AS 12 NOON.", "nsi_id": "unitedstatespostalservice-a77078", "operator": "United States Postal Service", "operator:short": "USPS", "operator:type": "public", "operator:wikidata": "Q668687", "ref": "6895600001"}, "type": "Feature"}
{"dataset_attributes": {"@spider": "usps_collection_boxes", "spider:collection_time": "2023-12-19T08:25:25.283853"}, "geometry": {"coordinates": [-98.657707, 40.621501], "type": "Point"}, "id": "Eev1MmTvCpxePDPqS4g5IBcLV3M=", "properties": {"@spider": "usps_collection_boxes", "addr:city": "KENESAW", "addr:country": "US", "addr:full": "205 N SMITH AVE", "addr:postcode": "68956", "addr:state": "NE", "amenity": "post_box", "brand": "United States Postal Service", "brand:wikidata": "Q668687", "collection_times": "Mo-Fr 14:30; Sa 09:15", "name": "USPS COLLECTION BOX - PO LOBBY", "note": "ON 12/24 AND 12/31, THIS BOX MAY BE COLLECTED AS EARLY AS 12 NOON.", "nsi_id": "unitedstatespostalservice-a77078", "operator": "United States Postal Service", "operator:short": "USPS", "operator:type": "public", "operator:wikidata": "Q668687", "ref": "6895600002"}, "type": "Feature"}
{"dataset_attributes": {"@spider": "usps_collection_boxes", "spider:collection_time": "2023-12-19T08:25:25.283853"}, "geometry": {"coordinates": [-98.6577091999, 40.621563], "type": "Point"}, "id": "2vTO2B0AvReOKV35fdwbHQMK-8k=", "properties": {"@spider": "usps_collection_boxes", "addr:city": "KENESAW", "addr:country": "US", "addr:full": "205 N SMITH AVE", "addr:postcode": "68956", "addr:state": "NE", "amenity": "post_box", "brand": "United States Postal Service", "brand:wikidata": "Q668687", "collection_times": "Mo-Fr 14:30; Sa 09:15", "name": "USPS COLLECTION BOX - PO LOBBY", "note": "ON 12/24 AND 12/31, THIS BOX MAY BE COLLECTED AS EARLY AS 12 NOON.", "nsi_id": "unitedstatespostalservice-a77078", "operator": "United States Postal Service", "operator:short": "USPS", "operator:type": "public", "operator:wikidata": "Q668687", "ref": "6895600003"}, "type": "Feature"}
{"dataset_attributes": {"@spider": "usps_collection_boxes", "spider:collection_time": "2023-12-19T08:25:25.283853"}, "geometry": {"coordinates": [-98.259854, 40.291497], "type": "Point"}, "id": "En-5_8f4b4wSiKNcwB8KTN4Cc04=", "properties": {"@spider": "usps_collection_boxes", "addr:city": "LAWRENCE", "addr:country": "US", "addr:full": "140 N CALVERT ST", "addr:postcode": "68957", "addr:state": "NE", "amenity": "post_box", "brand": "United States Postal Service", "brand:wikidata": "Q668687", "collection_times": "Mo-Sa 14:25", "name": "USPS COLLECTION BOX - BLUE BOX", "note": "ON 12/24 AND 12/31, THIS BOX MAY BE COLLECTED AS EARLY AS 12 NOON.", "nsi_id": "unitedstatespostalservice-a77078", "operator": "United States Postal Service", "operator:short": "USPS", "operator:type": "public", "operator:wikidata": "Q668687", "ref": "6895700001"}, "type": "Feature"}
{"dataset_attributes": {"@spider": "usps_collection_boxes", "spider:collection_time": "2023-12-19T08:25:25.283853"}, "geometry": {"coordinates": [-98.259854, 40.291497], "type": "Point"}, "id": "Rz7eApXasQffyBSSjE6xa-u7ouQ=", "properties": {"@spider": "usps_collection_boxes", "addr:city": "LAWRENCE", "addr:country": "US", "addr:full": "140 N CALVERT ST", "addr:postcode": "68957", "addr:state": "NE", "amenity": "post_box", "brand": "United States Postal Service", "brand:wikidata": "Q668687", "collection_times": "Mo-Fr 11:45; Sa 09:45", "name": "USPS COLLECTION BOX - PO LOBBY", "nsi_id": "unitedstatespostalservice-a77078", "operator": "United States Postal Service", "operator:short": "USPS", "operator:type": "public", "operator:wikidata": "Q668687", "ref": "6895700002"}, "type": "Feature"}
{"dataset_attributes": {"@spider": "usps_collection_boxes", "spider:collection_time": "2023-12-19T08:25:25.283853"}, "geometry": {"coordinates": [-98.2598366244, 40.2914812731], "type": "Point"}, "id": "n_RC7H5aGi-vBPejzydYApZjVuI=", "properties": {"@spider": "usps_collection_boxes", "addr:city": "LAWRENCE", "addr:country": "US", "addr:full": "140 N CALVERT ST", "addr:postcode": "68957", "addr:state": "NE", "amenity": "post_box", "brand": "United States Postal Service", "brand:wikidata": "Q668687", "collection_times": "Mo-Fr 11:45; Sa 09:45", "name": "USPS COLLECTION BOX - PO LOBBY", "nsi_id": "unitedstatespostalservice-a77078", "operator": "United States Postal Service", "operator:short": "USPS", "operator:type": "public", "operator:wikidata": "Q668687", "ref": "6895700003"}, "type": "Feature"}
{"dataset_attributes": {"@spider": "usps_collection_boxes", "spider:collection_time": "2023-12-19T08:25:25.283853"}, "geometry": {"coordinates": [-99.50711, 40.47746], "type": "Point"}, "id": "1wUii_O1Z99eIe0Imj4HICpeFNI=", "properties": {"@spider": "usps_collection_boxes", "addr:city": "LOOMIS", "addr:country": "US", "addr:full": "306 COMMERCIAL ST", "addr:postcode": "68958", "addr:state": "NE", "amenity": "post_box", "brand": "United States Postal Service", "brand:wikidata": "Q668687", "collection_times": "Mo-Fr 13:13; Sa 13:08", "name": "USPS COLLECTION BOX - BLUE BOX", "note": "ON 12/24 AND 12/31, THIS BOX MAY BE COLLECTED AS EARLY AS 12 NOON.", "nsi_id": "unitedstatespostalservice-a77078", "operator": "United States Postal Service", "operator:short": "USPS", "operator:type": "public", "operator:wikidata": "Q668687", "ref": "6895800001"}, "type": "Feature"}
{"dataset_attributes": {"@spider": "usps_collection_boxes", "spider:collection_time": "2023-12-19T08:25:25.283853"}, "geometry": {"coordinates": [-99.50711, 40.47746], "type": "Point"}, "id": "oELi3dRObiH1RE191atXkTBInNM=", "properties": {"@spider": "usps_collection_boxes", "addr:city": "LOOMIS", "addr:country": "US", "addr:full": "306 COMMERCIAL ST", "addr:postcode": "68958", "addr:state": "NE", "amenity": "post_box", "brand": "United States Postal Service", "brand:wikidata": "Q668687", "collection_times": "Mo-Fr 12:45; Sa 09:00", "name": "USPS COLLECTION BOX - PO LOBBY", "note": "ON 12/24 AND 12/31, THIS BOX MAY BE COLLECTED AS EARLY AS 12 NOON.", "nsi_id": "unitedstatespostalservice-a77078", "operator": "United States Postal Service", "operator:short": "USPS", "operator:type": "public", "operator:wikidata": "Q668687", "ref": "6895800002"}, "type": "Feature"}
{"dataset_attributes": {"@spider": "usps_collection_boxes", "spider:collection_time": "2023-12-19T08:25:25.283853"}, "geometry": {"coordinates": [-99.507090598, 40.477428791], "type": "Point"}, "id": "-Su5ZjHkR2d4JZUNwbjeZW2nodo=", "properties": {"@spider": "usps_collection_boxes", "addr:city": "LOOMIS", "addr:country": "US", "addr:full": "306 COMMERCIAL ST", "addr:postcode": "68958", "addr:state": "NE", "amenity": "post_box", "brand": "United States Postal Service", "brand:wikidata": "Q668687", "collection_times": "Mo-Fr 12:45; Sa 09:00", "name": "USPS COLLECTION BOX - PO LOBBY", "note": "ON 12/24 AND 12/31, THIS BOX MAY BE COLLECTED AS EARLY AS 12 NOON.", "nsi_id": "unitedstatespostalservice-a77078", "operator": "United States Postal Service", "operator:short": "USPS", "operator:type": "public", "operator:wikidata": "Q668687", "ref": "6895800003"}, "type": "Feature"}
{"dataset_attributes": {"@spider": "usps_collection_boxes", "spider:collection_time": "2023-12-19T08:25:25.283853"}, "geometry": {"coordinates": [-98.947747, 40.498688], "type": "Point"}, "id": "8-Aw1UHn-lHORlAVpnJREVOyMQY=", "properties": {"@spider": "usps_collection_boxes", "addr:city": "MINDEN", "addr:country": "US", "addr:full": "410 N MINDEN AVE", "addr:postcode": "68959", "addr:state": "NE", "amenity": "post_box", "brand": "United States Postal Service", "brand:wikidata": "Q668687", "collection_times": "Mo-Sa 13:50", "name": "USPS COLLECTION BOX - BLUE BOX", "note": "ON 12/24 AND 12/31, THIS BOX MAY BE COLLECTED AS EARLY AS 12 NOON.", "nsi_id": "unitedstatespostalservice-a77078", "operator": "United States Postal Service", "operator:short": "USPS", "operator:type": "public", "operator:wikidata": "Q668687", "ref": "6895900004"}, "type": "Feature"}
{"dataset_attributes": {"@spider": "usps_collection_boxes", "spider:collection_time": "2023-12-19T08:25:25.283853"}, "geometry": {"coordinates": [-98.947747, 40.498688], "type": "Point"}, "id": "M0gHHMXCSkLej7RrcXnUcUInYBg=", "properties": {"@spider": "usps_collection_boxes", "addr:city": "MINDEN", "addr:country": "US", "addr:full": "410 N MINDEN AVE", "addr:postcode": "68959", "addr:state": "NE", "amenity": "post_box", "brand": "United States Postal Service", "brand:wikidata": "Q668687", "collection_times": "Mo-Fr 13:50; Sa 09:45", "name": "USPS COLLECTION BOX - PO LOBBY", "note": "ON 12/24 AND 12/31, THIS BOX MAY BE COLLECTED AS EARLY AS 12 NOON.", "nsi_id": "unitedstatespostalservice-a77078", "operator": "United States Postal Service", "operator:short": "USPS", "operator:type": "public", "operator:wikidata": "Q668687", "ref": "6895900005"}, "type": "Feature"}
{"dataset_attributes": {"@spider": "usps_collection_boxes", "spider:collection_time": "2023-12-19T08:25:25.283853"}, "geometry": {"coordinates": [-98.947727356, 40.498656365], "type": "Point"}, "id": "_u3miqKQDrP2fZVd4mxAlc2C-vw=", "properties": {"@spider": "usps_collection_boxes", "addr:city": "MINDEN", "addr:country": "US", "addr:full": "410 N MINDEN AVE", "addr:postcode": "68959", "addr:state": "NE", "amenity": "post_box", "brand": "United States Postal Service", "brand:wikidata": "Q668687", "collection_times": "Mo-Fr 13:50; Sa 09:45", "name": "USPS COLLECTION BOX - PO LOBBY", "note": "ON 12/24 AND 12/31, THIS BOX MAY BE COLLECTED AS EARLY AS 12 NOON.", "nsi_id": "unitedstatespostalservice-a77078", "operator": "United States Postal Service", "operator:short": "USPS", "operator:type": "public", "operator:wikidata": "Q668687", "ref": "6895900006"}, "type": "Feature"}
{"dataset_attributes": {"@spider": "usps_collection_boxes", "spider:collection_time": "2023-12-19T08:25:25.283853"}, "geometry": {"coordinates": [-99.140492, 40.075789], "type": "Point"}, "id": "NRuG-4InKXSj1QFlZleSskqbpTM=", "properties": {"@spider": "usps_collection_boxes", "addr:city": "NAPONEE", "addr:country": "US", "addr:full": "609 FENNIMORE ST", "addr:postcode": "68960", "addr:state": "NE", "amenity": "post_box", "brand": "United States Postal Service", "brand:wikidata": "Q668687", "collection_times": "Mo-Sa 12:35", "name": "USPS COLLECTION BOX - BLUE BOX", "note": "ON 12/24 AND 12/31, THIS BOX MAY BE COLLECTED AS EARLY AS 12 NOON.", "nsi_id": "unitedstatespostalservice-a77078", "operator": "United States Postal Service", "operator:short": "USPS", "operator:type": "public", "operator:wikidata": "Q668687", "ref": "6896000001"}, "type": "Feature"}
{"dataset_attributes": {"@spider": "usps_collection_boxes", "spider:collection_time": "2023-12-19T08:25:25.283853"}, "geometry": {"coordinates": [-98.067355552, 40.20183878], "type": "Point"}, "id": "50LLD8jvk_9gnyUZjR3o5kesImc=", "properties": {"@spider": "usps_collection_boxes", "addr:city": "NELSON", "addr:country": "US", "addr:full": "363 S MAIN ST", "addr:postcode": "68961", "addr:state": "NE", "amenity": "post_box", "brand": "United States Postal Service", "brand:wikidata": "Q668687", "collection_times": "Mo-Sa 12:30", "name": "USPS COLLECTION BOX - BLUE BOX", "note": "ON 12/24 AND 12/31, THIS BOX MAY BE COLLECTED AS EARLY AS 12 NOON.", "nsi_id": "unitedstatespostalservice-a77078", "operator": "United States Postal Service", "operator:short": "USPS", "operator:type": "public", "operator:wikidata": "Q668687", "ref": "6896100001"}, "type": "Feature"}
{"dataset_attributes": {"@spider": "usps_collection_boxes", "spider:collection_time": "2023-12-19T08:25:25.283853"}, "geometry": {"coordinates": [-98.067355552, 40.20183878], "type": "Point"}, "id": "x2LYwUjUx92RScajt3qmRjIxz-g=", "properties": {"@spider": "usps_collection_boxes", "addr:city": "NELSON", "addr:country": "US", "addr:full": "363 S MAIN ST", "addr:postcode": "68961", "addr:state": "NE", "amenity": "post_box", "brand": "United States Postal Service", "brand:wikidata": "Q668687", "collection_times": "Mo-Fr 12:30; Sa 10:15", "name": "USPS COLLECTION BOX - PO LOBBY", "note": "ON 12/24 AND 12/31, THIS BOX MAY BE COLLECTED AS EARLY AS 12 NOON.", "nsi_id": "unitedstatespostalservice-a77078", "operator": "United States Postal Service", "operator:short": "USPS", "operator:type": "public", "operator:wikidata": "Q668687", "ref": "6896100002"}, "type": "Feature"}
{"dataset_attributes": {"@spider": "usps_collection_boxes", "spider:collection_time": "2023-12-19T08:25:25.283853"}, "geometry": {"coordinates": [-98.067355552, 40.20183878], "type": "Point"}, "id": "2bL1Sb3nGMvSVRhESoSOn8-vIQA=", "properties": {"@spider": "usps_collection_boxes", "addr:city": "NELSON", "addr:country": "US", "addr:full": "363 S MAIN ST", "addr:postcode": "68961", "addr:state": "NE", "amenity": "post_box", "brand": "United States Postal Service", "brand:wikidata": "Q668687", "collection_times": "Mo-Fr 12:30; Sa 10:15", "name": "USPS COLLECTION BOX - PO LOBBY", "note": "ON 12/24 AND 12/31, THIS BOX MAY BE COLLECTED AS EARLY AS 12 NOON.", "nsi_id": "unitedstatespostalservice-a77078", "operator": "United States Postal Service", "operator:short": "USPS", "operator:type": "public", "operator:wikidata": "Q668687", "ref": "6896100003"}, "type": "Feature"}
{"dataset_attributes": {"@spider": "usps_collection_boxes", "spider:collection_time": "2023-12-19T08:25:25.283853"}, "geometry": {"coordinates": [-99.4454, 40.128934], "type": "Point"}, "id": "zeDbTleTthmFKjZdTHHvKeziZ3w=", "properties": {"@spider": "usps_collection_boxes", "addr:city": "ORLEANS", "addr:country": "US", "addr:full": "109 E MAPLE ST", "addr:postcode": "68966", "addr:state": "NE", "amenity": "post_box", "brand": "United States Postal Service", "brand:wikidata": "Q668687", "collection_times": "Mo-Fr 13:00; Sa 12:30", "name": "USPS COLLECTION BOX - BLUE BOX", "note": "ON 12/24 AND 12/31, THIS BOX MAY BE COLLECTED AS EARLY AS 12 NOON.", "nsi_id": "unitedstatespostalservice-a77078", "operator": "United States Postal Service", "operator:short": "USPS", "operator:type": "public", "operator:wikidata": "Q668687", "ref": "6896600001"}, "type": "Feature"}
{"dataset_attributes": {"@spider": "usps_collection_boxes", "spider:collection_time": "2023-12-19T08:25:25.283853"}, "geometry": {"coordinates": [-99.4454, 40.128934], "type": "Point"}, "id": "6O3hKT9hx2YhEXJvZlRx7sKXfSw=", "properties": {"@spider": "usps_collection_boxes", "addr:city": "ORLEANS", "addr:country": "US", "addr:full": "109 E MAPLE ST", "addr:postcode": "68966", "addr:state": "NE", "amenity": "post_box", "brand": "United States Postal Service", "brand:wikidata": "Q668687", "collection_times": "Mo-Fr 11:20; Sa 09:35", "name": "USPS COLLECTION BOX - PO LOBBY", "nsi_id": "unitedstatespostalservice-a77078", "operator": "United States Postal Service", "operator:short": "USPS", "operator:type": "public", "operator:wikidata": "Q668687", "ref": "6896600002"}, "type": "Feature"}
{"dataset_attributes": {"@spider": "usps_collection_boxes", "spider:collection_time": "2023-12-19T08:25:25.283853"}, "geometry": {"coordinates": [-99.454934258, 40.129029464], "type": "Point"}, "id": "2ZLHgtjBItZ1LVpFuXpCbj3OnOg=", "properties": {"@spider": "usps_collection_boxes", "addr:city": "ORLEANS", "addr:country": "US", "addr:full": "109 E MAPLE ST", "addr:postcode": "68966", "addr:state": "NE", "amenity": "post_box", "brand": "United States Postal Service", "brand:wikidata": "Q668687", "collection_times": "Mo-Fr 11:20; Sa 09:35", "name": "USPS COLLECTION BOX - PO LOBBY", "nsi_id": "unitedstatespostalservice-a77078", "operator": "United States Postal Service", "operator:short": "USPS", "operator:type": "public", "operator:wikidata": "Q668687", "ref": "6896600003"}, "type": "Feature"}
{"dataset_attributes": {"@spider": "usps_collection_boxes", "spider:collection_time": "2023-12-19T08:25:25.283853"}, "geometry": {"coordinates": [-99.633447081, 40.249455497], "type": "Point"}, "id": "HUpraSBjq2gnkyRVdI8gH9hjWKo=", "properties": {"@spider": "usps_collection_boxes", "addr:city": "OXFORD", "addr:country": "US", "addr:full": "112 E SOUTH RAILWAY", "addr:postcode": "68967", "addr:state": "NE", "amenity": "post_box", "brand": "United States Postal Service", "brand:wikidata": "Q668687", "collection_times": "Mo-Fr 13:10; Sa 12:50", "name": "USPS COLLECTION BOX - BLUE BOX", "note": "ON 12/24 AND 12/31, THIS BOX MAY BE COLLECTED AS EARLY AS 12 NOON.", "nsi_id": "unitedstatespostalservice-a77078", "operator": "United States Postal Service", "operator:short": "USPS", "operator:type": "public", "operator:wikidata": "Q668687", "ref": "6896700001"}, "type": "Feature"}
{"dataset_attributes": {"@spider": "usps_collection_boxes", "spider:collection_time": "2023-12-19T08:25:25.283853"}, "geometry": {"coordinates": [-99.6327979954, 40.2492010036], "type": "Point"}, "id": "ALmcPHBeunGRPIgFwJRZbh4euoE=", "properties": {"@spider": "usps_collection_boxes", "addr:city": "OXFORD", "addr:country": "US", "addr:full": "112 E SOUTH RAILWAY", "addr:postcode": "68967", "addr:state": "NE", "amenity": "post_box", "brand": "United States Postal Service", "brand:wikidata": "Q668687", "collection_times": "Mo-Fr 13:00; Sa 10:15", "name": "USPS COLLECTION BOX - PO LOBBY", "note": "ON 12/24 AND 12/31, THIS BOX MAY BE COLLECTED AS EARLY AS 12 NOON.", "nsi_id": "unitedstatespostalservice-a77078", "operator": "United States Postal Service", "operator:short": "USPS", "operator:type": "public", "operator:wikidata": "Q668687", "ref": "6896700004"}, "type": "Feature"}
{"dataset_attributes": {"@spider": "usps_collection_boxes", "spider:collection_time": "2023-12-19T08:25:25.283853"}, "geometry": {"coordinates": [-99.6327979954, 40.2492010036], "type": "Point"}, "id": "ptJTKBQFG4C9ywiVnkF-4lsQ0LE=", "properties": {"@spider": "usps_collection_boxes", "addr:city": "OXFORD", "addr:country": "US", "addr:full": "112 E SOUTH RAILWAY", "addr:postcode": "68967", "addr:state": "NE", "amenity": "post_box", "brand": "United States Postal Service", "brand:wikidata": "Q668687", "collection_times": "Mo-Fr 13:00; Sa 10:15", "name": "USPS COLLECTION BOX - PO LOBBY", "note": "ON 12/24 AND 12/31, THIS BOX MAY BE COLLECTED AS EARLY AS 12 NOON.", "nsi_id": "unitedstatespostalservice-a77078", "operator": "United States Postal Service", "operator:short": "USPS", "operator:type": "public", "operator:wikidata": "Q668687", "ref": "6896700005"}, "type": "Feature"}
{"dataset_attributes": {"@spider": "usps_collection_boxes", "spider:collection_time": "2023-12-19T08:25:25.283853"}, "geometry": {"coordinates": [-98.519268, 40.087958], "type": "Point"}, "id": "ZO5lBcmB7iaaG9w5aq1tTvd1Aho=", "properties": {"@spider": "usps_collection_boxes", "addr:city": "RED CLOUD", "addr:country": "US", "addr:full": "310 N WEBSTER ST", "addr:postcode": "68970", "addr:state": "NE", "amenity": "post_box", "brand": "United States Postal Service", "brand:wikidata": "Q668687", "collection_times": "Mo-Sa 13:35", "name": "USPS COLLECTION BOX - BLUE BOX", "note": "ON 12/24 AND 12/31, THIS BOX MAY BE COLLECTED AS EARLY AS 12 NOON.", "nsi_id": "unitedstatespostalservice-a77078", "operator": "United States Postal Service", "operator:short": "USPS", "operator:type": "public", "operator:wikidata": "Q668687", "ref": "6897000001"}, "type": "Feature"}
{"dataset_attributes": {"@spider": "usps_collection_boxes", "spider:collection_time": "2023-12-19T08:25:25.283853"}, "geometry": {"coordinates": [-98.519268, 40.087958], "type": "Point"}, "id": "bswZ3Djdrf3cNVTG5jJUbcIdev4=", "properties": {"@spider": "usps_collection_boxes", "addr:city": "RED CLOUD", "addr:country": "US", "addr:full": "310 N WEBSTER ST", "addr:postcode": "68970", "addr:state": "NE", "amenity": "post_box", "brand": "United States Postal Service", "brand:wikidata": "Q668687", "collection_times": "Mo-Fr 13:35; Sa 09:15", "name": "USPS COLLECTION BOX - PO LOBBY", "note": "ON 12/24 AND 12/31, THIS BOX MAY BE COLLECTED AS EARLY AS 12 NOON.", "nsi_id": "unitedstatespostalservice-a77078", "operator": "United States Postal Service", "operator:short": "USPS", "operator:type": "public", "operator:wikidata": "Q668687", "ref": "6897000002"}, "type": "Feature"}
{"dataset_attributes": {"@spider": "usps_collection_boxes", "spider:collection_time": "2023-12-19T08:25:25.283853"}, "geometry": {"coordinates": [-98.5192775699, 40.0880514133], "type": "Point"}, "id": "UHihz2xQRVfEMkh0HXhwJ14CeUg=", "properties": {"@spider": "usps_collection_boxes", "addr:city": "RED CLOUD", "addr:country": "US", "addr:full": "310 N WEBSTER ST", "addr:postcode": "68970", "addr:state": "NE", "amenity": "post_box", "brand": "United States Postal Service", "brand:wikidata": "Q668687", "collection_times": "Mo-Fr 13:35; Sa 09:15", "name": "USPS COLLECTION BOX - PO LOBBY", "note": "ON 12/24 AND 12/31, THIS BOX MAY BE COLLECTED AS EARLY AS 12 NOON.", "nsi_id": "unitedstatespostalservice-a77078", "operator": "United States Postal Service", "operator:short": "USPS", "operator:type": "public", "operator:wikidata": "Q668687", "ref": "6897000003"}, "type": "Feature"}
{"dataset_attributes": {"@spider": "usps_collection_boxes", "spider:collection_time": "2023-12-19T08:25:25.283853"}, "geometry": {"coordinates": [-99.221853, 40.102572], "type": "Point"}, "id": "OLTGxbFz1j9mSsGS4s0WfTOSDaQ=", "properties": {"@spider": "usps_collection_boxes", "addr:city": "REPUBLICAN CITY", "addr:country": "US", "addr:full": "2 CIRCLE DR", "addr:postcode": "68971", "addr:state": "NE", "amenity": "post_box", "brand": "United States Postal Service", "brand:wikidata": "Q668687", "collection_times": "Mo-Sa 12:30", "name": "USPS COLLECTION BOX - BLUE BOX", "note": "ON 12/24 AND 12/31, THIS BOX MAY BE COLLECTED AS EARLY AS 12 NOON.", "nsi_id": "unitedstatespostalservice-a77078", "operator": "United States Postal Service", "operator:short": "USPS", "operator:type": "public", "operator:wikidata": "Q668687", "ref": "6897100001"}, "type": "Feature"}
{"dataset_attributes": {"@spider": "usps_collection_boxes", "spider:collection_time": "2023-12-19T08:25:25.283853"}, "geometry": {"coordinates": [-99.221853, 40.102572], "type": "Point"}, "id": "SCxvllskVrQxN0KDhwVD1xjADMg=", "properties": {"@spider": "usps_collection_boxes", "addr:city": "REPUBLICAN CITY", "addr:country": "US", "addr:full": "2 CIRCLE DR", "addr:postcode": "68971", "addr:state": "NE", "amenity": "post_box", "brand": "United States Postal Service", "brand:wikidata": "Q668687", "collection_times": "Mo-Fr 11:50; Sa 09:45", "name": "USPS COLLECTION BOX - PO LOBBY", "nsi_id": "unitedstatespostalservice-a77078", "operator": "United States Postal Service", "operator:short": "USPS", "operator:type": "public", "operator:wikidata": "Q668687", "ref": "6897100002"}, "type": "Feature"}
{"dataset_attributes": {"@spider": "usps_collection_boxes", "spider:collection_time": "2023-12-19T08:25:25.283853"}, "geometry": {"coordinates": [-99.221818503, 40.10266886], "type": "Point"}, "id": "iECaEVUCYQ0nK5l2R7t0gr72PT8=", "properties": {"@spider": "usps_collection_boxes", "addr:city": "REPUBLICAN CITY", "addr:country": "US", "addr:full": "2 CIRCLE DR", "addr:postcode": "68971", "addr:state": "NE", "amenity": "post_box", "brand": "United States Postal Service", "brand:wikidata": "Q668687", "collection_times": "Mo-Fr 11:50; Sa 09:45", "name": "USPS COLLECTION BOX - PO LOBBY", "nsi_id": "unitedstatespostalservice-a77078", "operator": "United States Postal Service", "operator:short": "USPS", "operator:type": "public", "operator:wikidata": "Q668687", "ref": "6897100003"}, "type": "Feature"}
{"dataset_attributes": {"@spider": "usps_collection_boxes", "spider:collection_time": "2023-12-19T08:25:25.283853"}, "geometry": {"coordinates": [-98.758942, 40.090221], "type": "Point"}, "id": "6AduklBN8BRF7Kb2KHBNqlB9tDc=", "properties": {"@spider": "usps_collection_boxes", "addr:city": "RIVERTON", "addr:country": "US", "addr:full": "714 GOLD ST", "addr:postcode": "68972", "addr:state": "NE", "amenity": "post_box", "brand": "United States Postal Service", "brand:wikidata": "Q668687", "collection_times": "Mo-Sa 13:20", "name": "USPS COLLECTION BOX - BLUE BOX", "note": "ON 12/24 AND 12/31, THIS BOX MAY BE COLLECTED AS EARLY AS 12 NOON.", "nsi_id": "unitedstatespostalservice-a77078", "operator": "United States Postal Service", "operator:short": "USPS", "operator:type": "public", "operator:wikidata": "Q668687", "ref": "6897200001"}, "type": "Feature"}
{"dataset_attributes": {"@spider": "usps_collection_boxes", "spider:collection_time": "2023-12-19T08:25:25.283853"}, "geometry": {"coordinates": [-98.758942, 40.090221], "type": "Point"}, "id": "o6jviIAIrGdhqlJqNCyheSoLNH0=", "properties": {"@spider": "usps_collection_boxes", "addr:city": "RIVERTON", "addr:country": "US", "addr:full": "714 GOLD ST", "addr:postcode": "68972", "addr:state": "NE", "amenity": "post_box", "brand": "United States Postal Service", "brand:wikidata": "Q668687", "collection_times": "Mo-Fr 11:50; Sa 09:20", "name": "USPS COLLECTION BOX - PO LOBBY", "nsi_id": "unitedstatespostalservice-a77078", "operator": "United States Postal Service", "operator:short": "USPS", "operator:type": "public", "operator:wikidata": "Q668687", "ref": "6897200002"}, "type": "Feature"}
{"dataset_attributes": {"@spider": "usps_collection_boxes", "spider:collection_time": "2023-12-19T08:25:25.283853"}, "geometry": {"coordinates": [-98.7590013776, 40.0946368672], "type": "Point"}, "id": "BoSNYE532ga-X8m9-h9LS9vpXek=", "properties": {"@spider": "usps_collection_boxes", "addr:city": "RIVERTON", "addr:country": "US", "addr:full": "714 GOLD ST", "addr:postcode": "68972", "addr:state": "NE", "amenity": "post_box", "brand": "United States Postal Service", "brand:wikidata": "Q668687", "collection_times": "Mo-Fr 11:50; Sa 09:20", "name": "USPS COLLECTION BOX - PO LOBBY", "nsi_id": "unitedstatespostalservice-a77078", "operator": "United States Postal Service", "operator:short": "USPS", "operator:type": "public", "operator:wikidata": "Q668687", "ref": "6897200003"}, "type": "Feature"}
{"dataset_attributes": {"@spider": "usps_collection_boxes", "spider:collection_time": "2023-12-19T08:25:25.283853"}, "geometry": {"coordinates": [-98.559011, 40.470959], "type": "Point"}, "id": "3jlod8IxV7sjRX0busDAaUP6mHM=", "properties": {"@spider": "usps_collection_boxes", "addr:city": "ROSELAND", "addr:country": "US", "addr:full": "9230 S LINCOLN AVE", "addr:postcode": "68973", "addr:state": "NE", "amenity": "post_box", "brand": "United States Postal Service", "brand:wikidata": "Q668687", "collection_times": "Mo-Sa 13:10", "name": "USPS COLLECTION BOX - BLUE BOX", "note": "ON 12/24 AND 12/31, THIS BOX MAY BE COLLECTED AS EARLY AS 12 NOON.", "nsi_id": "unitedstatespostalservice-a77078", "operator": "United States Postal Service", "operator:short": "USPS", "operator:type": "public", "operator:wikidata": "Q668687", "ref": "6897300001"}, "type": "Feature"}
{"dataset_attributes": {"@spider": "usps_collection_boxes", "spider:collection_time": "2023-12-19T08:25:25.283853"}, "geometry": {"coordinates": [-98.559011, 40.470959], "type": "Point"}, "id": "R2_uUe-XqBgKoRUldgKFQvCqG5A=", "properties": {"@spider": "usps_collection_boxes", "addr:city": "ROSELAND", "addr:country": "US", "addr:full": "9230 S LINCOLN AVE", "addr:postcode": "68973", "addr:state": "NE", "amenity": "post_box", "brand": "United States Postal Service", "brand:wikidata": "Q668687", "collection_times": "Mo-Fr 11:45; Sa 09:00", "name": "USPS COLLECTION BOX - PO LOBBY", "nsi_id": "unitedstatespostalservice-a77078", "operator": "United States Postal Service", "operator:short": "USPS", "operator:type": "public", "operator:wikidata": "Q668687", "ref": "6897300002"}, "type": "Feature"}
{"dataset_attributes": {"@spider": "usps_collection_boxes", "spider:collection_time": "2023-12-19T08:25:25.283853"}, "geometry": {"coordinates": [-98.5590364093, 40.4709634215], "type": "Point"}, "id": "pgjB6-q8uyscpW4rwDwPYWH25hI=", "properties": {"@spider": "usps_collection_boxes", "addr:city": "ROSELAND", "addr:country": "US", "addr:full": "9230 S LINCOLN AVE", "addr:postcode": "68973", "addr:state": "NE", "amenity": "post_box", "brand": "United States Postal Service", "brand:wikidata": "Q668687", "collection_times": "Mo-Fr 11:45; Sa 09:00", "name": "USPS COLLECTION BOX - PO LOBBY", "nsi_id": "unitedstatespostalservice-a77078", "operator": "United States Postal Service", "operator:short": "USPS", "operator:type": "public", "operator:wikidata": "Q668687", "ref": "6897300003"}, "type": "Feature"}
{"dataset_attributes": {"@spider": "usps_collection_boxes", "spider:collection_time": "2023-12-19T08:25:25.283853"}, "geometry": {"coordinates": [-97.870043, 40.143929], "type": "Point"}, "id": "Hq3gcD38fQ8SRWgmYkTdcUhbNtY=", "properties": {"@spider": "usps_collection_boxes", "addr:city": "RUSKIN", "addr:country": "US", "addr:full": "940 MAIN ST", "addr:postcode": "68974", "addr:state": "NE", "amenity": "post_box", "brand": "United States Postal Service", "brand:wikidata": "Q668687", "collection_times": "Mo-Sa 11:50", "name": "USPS COLLECTION BOX - BLUE BOX", "nsi_id": "unitedstatespostalservice-a77078", "operator": "United States Postal Service", "operator:short": "USPS", "operator:type": "public", "operator:wikidata": "Q668687", "ref": "6897400001"}, "type": "Feature"}
{"dataset_attributes": {"@spider": "usps_collection_boxes", "spider:collection_time": "2023-12-19T08:25:25.283853"}, "geometry": {"coordinates": [-97.870043, 40.143929], "type": "Point"}, "id": "ve0nRkaV6uLhR3XA61v8Grv79FI=", "properties": {"@spider": "usps_collection_boxes", "addr:city": "RUSKIN", "addr:country": "US", "addr:full": "940 MAIN ST", "addr:postcode": "68974", "addr:state": "NE", "amenity": "post_box", "brand": "United States Postal Service", "brand:wikidata": "Q668687", "collection_times": "Mo-Sa 11:50", "name": "USPS COLLECTION BOX - PO LOBBY", "nsi_id": "unitedstatespostalservice-a77078", "operator": "United States Postal Service", "operator:short": "USPS", "operator:type": "public", "operator:wikidata": "Q668687", "ref": "6897400002"}, "type": "Feature"}
{"dataset_attributes": {"@spider": "usps_collection_boxes", "spider:collection_time": "2023-12-19T08:25:25.283853"}, "geometry": {"coordinates": [-97.8700407731, 40.1439717644], "type": "Point"}, "id": "TAvaoExecOV0bNERaGfONDWXsBg=", "properties": {"@spider": "usps_collection_boxes", "addr:city": "RUSKIN", "addr:country": "US", "addr:full": "940 MAIN ST", "addr:postcode": "68974", "addr:state": "NE", "amenity": "post_box", "brand": "United States Postal Service", "brand:wikidata": "Q668687", "collection_times": "Mo-Sa 11:50", "name": "USPS COLLECTION BOX - PO LOBBY", "nsi_id": "unitedstatespostalservice-a77078", "operator": "United States Postal Service", "operator:short": "USPS", "operator:type": "public", "operator:wikidata": "Q668687", "ref": "6897400003"}, "type": "Feature"}
{"dataset_attributes": {"@spider": "usps_collection_boxes", "spider:collection_time": "2023-12-19T08:25:25.283853"}, "geometry": {"coordinates": [-99.592822, 40.132187], "type": "Point"}, "id": "weP5OXWliGKcyWiBR6Mo4JDzw2Y=", "properties": {"@spider": "usps_collection_boxes", "addr:city": "STAMFORD", "addr:country": "US", "addr:full": "213 N MAIN AVE", "addr:postcode": "68977", "addr:state": "NE", "amenity": "post_box", "brand": "United States Postal Service", "brand:wikidata": "Q668687", "collection_times": "Mo-Sa 12:12", "name": "USPS COLLECTION BOX - BLUE BOX", "note": "ON 12/24 AND 12/31, THIS BOX MAY BE COLLECTED AS EARLY AS 12 NOON.", "nsi_id": "unitedstatespostalservice-a77078", "operator": "United States Postal Service", "operator:short": "USPS", "operator:type": "public", "operator:wikidata": "Q668687", "ref": "6897700001"}, "type": "Feature"}
{"dataset_attributes": {"@spider": "usps_collection_boxes", "spider:collection_time": "2023-12-19T08:25:25.283853"}, "geometry": {"coordinates": [-99.592822, 40.132187], "type": "Point"}, "id": "qJprh00-Bq0hWdS9MliOIL3libU=", "properties": {"@spider": "usps_collection_boxes", "addr:city": "STAMFORD", "addr:country": "US", "addr:full": "213 N MAIN AVE", "addr:postcode": "68977", "addr:state": "NE", "amenity": "post_box", "brand": "United States Postal Service", "brand:wikidata": "Q668687", "collection_times": "Mo-Fr 11:50; Sa 09:20", "name": "USPS COLLECTION BOX - PO LOBBY", "nsi_id": "unitedstatespostalservice-a77078", "operator": "United States Postal Service", "operator:short": "USPS", "operator:type": "public", "operator:wikidata": "Q668687", "ref": "6897700002"}, "type": "Feature"}
{"dataset_attributes": {"@spider": "usps_collection_boxes", "spider:collection_time": "2023-12-19T08:25:25.283853"}, "geometry": {"coordinates": [-99.5928294157, 40.1322683608], "type": "Point"}, "id": "SBW530gFFbVt7Fri1oLo82sfxNU=", "properties": {"@spider": "usps_collection_boxes", "addr:city": "STAMFORD", "addr:country": "US", "addr:full": "213 N MAIN AVE", "addr:postcode": "68977", "addr:state": "NE", "amenity": "post_box", "brand": "United States Postal Service", "brand:wikidata": "Q668687", "collection_times": "Mo-Fr 11:50; Sa 09:20", "name": "USPS COLLECTION BOX - PO LOBBY", "nsi_id": "unitedstatespostalservice-a77078", "operator": "United States Postal Service", "operator:short": "USPS", "operator:type": "public", "operator:wikidata": "Q668687", "ref": "6897700003"}, "type": "Feature"}
{"dataset_attributes": {"@spider": "usps_collection_boxes", "spider:collection_time": "2023-12-19T08:25:25.283853"}, "geometry": {"coordinates": [-98.069745, 40.019939], "type": "Point"}, "id": "u_Pkeonlyyr7LhBB36-8Xau087M=", "properties": {"@spider": "usps_collection_boxes", "addr:city": "SUPERIOR", "addr:country": "US", "addr:full": "214 E 4TH ST", "addr:postcode": "68978", "addr:state": "NE", "amenity": "post_box", "brand": "United States Postal Service", "brand:wikidata": "Q668687", "collection_times": "Mo-Sa 12:15", "name": "USPS COLLECTION BOX - BLUE BOX", "note": "ON 12/24 AND 12/31, THIS BOX MAY BE COLLECTED AS EARLY AS 12 NOON.", "nsi_id": "unitedstatespostalservice-a77078", "operator": "United States Postal Service", "operator:short": "USPS", "operator:type": "public", "operator:wikidata": "Q668687", "ref": "6897800001"}, "type": "Feature"}
{"dataset_attributes": {"@spider": "usps_collection_boxes", "spider:collection_time": "2023-12-19T08:25:25.283853"}, "geometry": {"coordinates": [-98.069745, 40.019939], "type": "Point"}, "id": "XDJDL8URmxh1YA9HCz2zfqjmqGA=", "properties": {"@spider": "usps_collection_boxes", "addr:city": "SUPERIOR", "addr:country": "US", "addr:full": "214 E 4TH ST", "addr:postcode": "68978", "addr:state": "NE", "amenity": "post_box", "brand": "United States Postal Service", "brand:wikidata": "Q668687", "collection_times": "Mo-Sa 12:15", "name": "USPS COLLECTION BOX - BLUE BOX", "note": "ON 12/24 AND 12/31, THIS BOX MAY BE COLLECTED AS EARLY AS 12 NOON.", "nsi_id": "unitedstatespostalservice-a77078", "operator": "United States Postal Service", "operator:short": "USPS", "operator:type": "public", "operator:wikidata": "Q668687", "ref": "6897800002"}, "type": "Feature"}
{"dataset_attributes": {"@spider": "usps_collection_boxes", "spider:collection_time": "2023-12-19T08:25:25.283853"}, "geometry": {"coordinates": [-98.069745, 40.019939], "type": "Point"}, "id": "2Au9HMLwbP6sXMkvh4nbzVZieVM=", "properties": {"@spider": "usps_collection_boxes", "addr:city": "SUPERIOR", "addr:country": "US", "addr:full": "214 E 4TH ST", "addr:postcode": "68978", "addr:state": "NE", "amenity": "post_box", "brand": "United States Postal Service", "brand:wikidata": "Q668687", "collection_times": "Mo-Fr 12:15; Sa 10:30", "name": "USPS COLLECTION BOX - PO LOBBY", "note": "ON 12/24 AND 12/31, THIS BOX MAY BE COLLECTED AS EARLY AS 12 NOON.", "nsi_id": "unitedstatespostalservice-a77078", "operator": "United States Postal Service", "operator:short": "USPS", "operator:type": "public", "operator:wikidata": "Q668687", "ref": "6897800003"}, "type": "Feature"}
{"dataset_attributes": {"@spider": "usps_collection_boxes", "spider:collection_time": "2023-12-19T08:25:25.283853"}, "geometry": {"coordinates": [-98.069780622, 40.019978629], "type": "Point"}, "id": "y6JxbniDt4_cTWRvSdAlTGxm-Ds=", "properties": {"@spider": "usps_collection_boxes", "addr:city": "SUPERIOR", "addr:country": "US", "addr:full": "214 E 4TH ST", "addr:postcode": "68978", "addr:state": "NE", "amenity": "post_box", "brand": "United States Postal Service", "brand:wikidata": "Q668687", "collection_times": "Mo-Fr 12:15; Sa 10:30", "name": "USPS COLLECTION BOX - PO LOBBY", "note": "ON 12/24 AND 12/31, THIS BOX MAY BE COLLECTED AS EARLY AS 12 NOON.", "nsi_id": "unitedstatespostalservice-a77078", "operator": "United States Postal Service", "operator:short": "USPS", "operator:type": "public", "operator:wikidata": "Q668687", "ref": "6897800004"}, "type": "Feature"}
{"dataset_attributes": {"@spider": "usps_collection_boxes", "spider:collection_time": "2023-12-19T08:25:25.283853"}, "geometry": {"coordinates": [-97.859381, 40.606502], "type": "Point"}, "id": "v5VmKW7A7WD4zC0AWukNWeiPwNQ=", "properties": {"@spider": "usps_collection_boxes", "addr:city": "SUTTON", "addr:country": "US", "addr:full": "108 E FORREST ST", "addr:postcode": "68979", "addr:state": "NE", "amenity": "post_box", "brand": "United States Postal Service", "brand:wikidata": "Q668687", "collection_times": "Mo-Sa 13:35", "name": "USPS COLLECTION BOX - BLUE BOX", "note": "ON 12/24 AND 12/31, THIS BOX MAY BE COLLECTED AS EARLY AS 12 NOON.", "nsi_id": "unitedstatespostalservice-a77078", "operator": "United States Postal Service", "operator:short": "USPS", "operator:type": "public", "operator:wikidata": "Q668687", "ref": "6897900001"}, "type": "Feature"}
{"dataset_attributes": {"@spider": "usps_collection_boxes", "spider:collection_time": "2023-12-19T08:25:25.283853"}, "geometry": {"coordinates": [-97.859381, 40.606502], "type": "Point"}, "id": "IOvNiA4b2TwrKqJEvzWsLpkq-V8=", "properties": {"@spider": "usps_collection_boxes", "addr:city": "SUTTON", "addr:country": "US", "addr:full": "108 E FORREST ST", "addr:postcode": "68979", "addr:state": "NE", "amenity": "post_box", "brand": "United States Postal Service", "brand:wikidata": "Q668687", "collection_times": "Mo-Fr 13:35; Sa 11:15", "name": "USPS COLLECTION BOX - PO LOBBY", "note": "ON 12/24 AND 12/31, THIS BOX MAY BE COLLECTED AS EARLY AS 12 NOON.", "nsi_id": "unitedstatespostalservice-a77078", "operator": "United States Postal Service", "operator:short": "USPS", "operator:type": "public", "operator:wikidata": "Q668687", "ref": "6897900002"}, "type": "Feature"}
{"dataset_attributes": {"@spider": "usps_collection_boxes", "spider:collection_time": "2023-12-19T08:25:25.283853"}, "geometry": {"coordinates": [-97.859380332, 40.606501485], "type": "Point"}, "id": "7LTOeDzhkRlNKD3PV63SnGF--nQ=", "properties": {"@spider": "usps_collection_boxes", "addr:city": "SUTTON", "addr:country": "US", "addr:full": "108 E FORREST ST", "addr:postcode": "68979", "addr:state": "NE", "amenity": "post_box", "brand": "United States Postal Service", "brand:wikidata": "Q668687", "collection_times": "Mo-Fr 13:55; Sa 11:15", "name": "USPS COLLECTION BOX - PO LOBBY", "note": "ON 12/24 AND 12/31, THIS BOX MAY BE COLLECTED AS EARLY AS 12 NOON.", "nsi_id": "unitedstatespostalservice-a77078", "operator": "United States Postal Service", "operator:short": "USPS", "operator:type": "public", "operator:wikidata": "Q668687", "ref": "6897900003"}, "type": "Feature"}
{"dataset_attributes": {"@spider": "usps_collection_boxes", "spider:collection_time": "2023-12-19T08:25:25.283853"}, "geometry": {"coordinates": [-98.272497, 40.67955], "type": "Point"}, "id": "UHfBavSoNZkmKRBkRD5-fRTKsPE=", "properties": {"@spider": "usps_collection_boxes", "addr:city": "TRUMBULL", "addr:country": "US", "addr:full": "125 MAIN ST", "addr:postcode": "68980", "addr:state": "NE", "amenity": "post_box", "brand": "United States Postal Service", "brand:wikidata": "Q668687", "collection_times": "Mo-Fr 15:05; Sa 14:55", "name": "USPS COLLECTION BOX - BLUE BOX", "note": "ON 12/24 AND 12/31, THIS BOX MAY BE COLLECTED AS EARLY AS 12 NOON.", "nsi_id": "unitedstatespostalservice-a77078", "operator": "United States Postal Service", "operator:short": "USPS", "operator:type": "public", "operator:wikidata": "Q668687", "ref": "6898000001"}, "type": "Feature"}
{"dataset_attributes": {"@spider": "usps_collection_boxes", "spider:collection_time": "2023-12-19T08:25:25.283853"}, "geometry": {"coordinates": [-98.272497, 40.67955], "type": "Point"}, "id": "un6O3lLoPvDZTRfJDbyFJ2R18lE=", "properties": {"@spider": "usps_collection_boxes", "addr:city": "TRUMBULL", "addr:country": "US", "addr:full": "125 MAIN ST", "addr:postcode": "68980", "addr:state": "NE", "amenity": "post_box", "brand": "United States Postal Service", "brand:wikidata": "Q668687", "collection_times": "Mo-Fr 14:55; Sa 12:45", "name": "USPS COLLECTION BOX - PO LOBBY", "note": "ON 12/24 AND 12/31, THIS BOX MAY BE COLLECTED AS EARLY AS 12 NOON.", "nsi_id": "unitedstatespostalservice-a77078", "operator": "United States Postal Service", "operator:short": "USPS", "operator:type": "public", "operator:wikidata": "Q668687", "ref": "6898000003"}, "type": "Feature"}
{"dataset_attributes": {"@spider": "usps_collection_boxes", "spider:collection_time": "2023-12-19T08:25:25.283853"}, "geometry": {"coordinates": [-98.272497733, 40.67937], "type": "Point"}, "id": "pHGwtDg0LbwBkQ6T1qnnbjA7t58=", "properties": {"@spider": "usps_collection_boxes", "addr:city": "TRUMBULL", "addr:country": "US", "addr:full": "125 MAIN ST", "addr:postcode": "68980", "addr:state": "NE", "amenity": "post_box", "brand": "United States Postal Service", "brand:wikidata": "Q668687", "collection_times": "Mo-Fr 14:55; Sa 12:45", "name": "USPS COLLECTION BOX - PO LOBBY", "note": "ON 12/24 AND 12/31, THIS BOX MAY BE COLLECTED AS EARLY AS 12 NOON.", "nsi_id": "unitedstatespostalservice-a77078", "operator": "United States Postal Service", "operator:short": "USPS", "operator:type": "public", "operator:wikidata": "Q668687", "ref": "6898000004"}, "type": "Feature"}
{"dataset_attributes": {"@spider": "usps_collection_boxes", "spider:collection_time": "2023-12-19T08:25:25.283853"}, "geometry": {"coordinates": [-98.901209, 40.313861], "type": "Point"}, "id": "LNmYDsoXjbbfKrd6PVcjxExW-m0=", "properties": {"@spider": "usps_collection_boxes", "addr:city": "UPLAND", "addr:country": "US", "addr:full": "100 PRARIE AVE", "addr:postcode": "68981", "addr:state": "NE", "amenity": "post_box", "brand": "United States Postal Service", "brand:wikidata": "Q668687", "collection_times": "Mo-Fr 12:25; Sa 12:15", "name": "USPS COLLECTION BOX - BLUE BOX", "note": "ON 12/24 AND 12/31, THIS BOX MAY BE COLLECTED AS EARLY AS 12 NOON.", "nsi_id": "unitedstatespostalservice-a77078", "operator": "United States Postal Service", "operator:short": "USPS", "operator:type": "public", "operator:wikidata": "Q668687", "ref": "6898100001"}, "type": "Feature"}
{"dataset_attributes": {"@spider": "usps_collection_boxes", "spider:collection_time": "2023-12-19T08:25:25.283853"}, "geometry": {"coordinates": [-98.901103, 40.31977], "type": "Point"}, "id": "pCC3PDG2zoKgJW1vAvCV3F0ZhVQ=", "properties": {"@spider": "usps_collection_boxes", "addr:city": "UPLAND", "addr:country": "US", "addr:full": "100 PRARIE AVE", "addr:postcode": "68981", "addr:state": "NE", "amenity": "post_box", "brand": "United States Postal Service", "brand:wikidata": "Q668687", "collection_times": "Mo-Fr 11:50; Sa 09:35", "name": "USPS COLLECTION BOX - PO LOBBY", "nsi_id": "unitedstatespostalservice-a77078", "operator": "United States Postal Service", "operator:short": "USPS", "operator:type": "public", "operator:wikidata": "Q668687", "ref": "6898100002"}, "type": "Feature"}
{"dataset_attributes": {"@spider": "usps_collection_boxes", "spider:collection_time": "2023-12-19T08:25:25.283853"}, "geometry": {"coordinates": [-98.901086625, 40.319733375], "type": "Point"}, "id": "DooQK3m6U-bv4Pq6DnyaP_akcfo=", "properties": {"@spider": "usps_collection_boxes", "addr:city": "UPLAND", "addr:country": "US", "addr:full": "100 PRARIE AVE", "addr:postcode": "68981", "addr:state": "NE", "amenity": "post_box", "brand": "United States Postal Service", "brand:wikidata": "Q668687", "collection_times": "Mo-Fr 11:50; Sa 09:35", "name": "USPS COLLECTION BOX - PO LOBBY", "nsi_id": "unitedstatespostalservice-a77078", "operator": "United States Postal Service", "operator:short": "USPS", "operator:type": "public", "operator:wikidata": "Q668687", "ref": "6898100003"}, "type": "Feature"}
{"dataset_attributes": {"@spider": "usps_collection_boxes", "spider:collection_time": "2023-12-19T08:25:25.283853"}, "geometry": {"coordinates": [-99.16995, 40.364868], "type": "Point"}, "id": "ipBb-Ay25fbeUpp6x1DCG4PLDas=", "properties": {"@spider": "usps_collection_boxes", "addr:city": "WILCOX", "addr:country": "US", "addr:full": "108 S MAIN ST", "addr:postcode": "68982", "addr:state": "NE", "amenity": "post_box", "brand": "United States Postal Service", "brand:wikidata": "Q668687", "collection_times": "Mo-Fr 12:55; Sa 12:50", "name": "USPS COLLECTION BOX - BLUE BOX", "note": "ON 12/24 AND 12/31, THIS BOX MAY BE COLLECTED AS EARLY AS 12 NOON.", "nsi_id": "unitedstatespostalservice-a77078", "operator": "United States Postal Service", "operator:short": "USPS", "operator:type": "public", "operator:wikidata": "Q668687", "ref": "6898200001"}, "type": "Feature"}
{"dataset_attributes": {"@spider": "usps_collection_boxes", "spider:collection_time": "2023-12-19T08:25:25.283853"}, "geometry": {"coordinates": [-99.16995, 40.364868], "type": "Point"}, "id": "LXEoe9by7Yt9qtrI8gU3-5SMHCY=", "properties": {"@spider": "usps_collection_boxes", "addr:city": "WILCOX", "addr:country": "US", "addr:full": "108 S MAIN ST", "addr:postcode": "68982", "addr:state": "NE", "amenity": "post_box", "brand": "United States Postal Service", "brand:wikidata": "Q668687", "collection_times": "Mo-Fr 11:20; Sa 09:35", "name": "USPS COLLECTION BOX - PO LOBBY", "nsi_id": "unitedstatespostalservice-a77078", "operator": "United States Postal Service", "operator:short": "USPS", "operator:type": "public", "operator:wikidata": "Q668687", "ref": "6898200002"}, "type": "Feature"}
{"dataset_attributes": {"@spider": "usps_collection_boxes", "spider:collection_time": "2023-12-19T08:25:25.283853"}, "geometry": {"coordinates": [-99.169934899, 40.364880971], "type": "Point"}, "id": "0VhjPerxi07P7VBGsyr5p2VjVbI=", "properties": {"@spider": "usps_collection_boxes", "addr:city": "WILCOX", "addr:country": "US", "addr:full": "108 S MAIN ST", "addr:postcode": "68982", "addr:state": "NE", "amenity": "post_box", "brand": "United States Postal Service", "brand:wikidata": "Q668687", "collection_times": "Mo-Fr 11:20; Sa 09:35", "name": "USPS COLLECTION BOX - PO LOBBY", "nsi_id": "unitedstatespostalservice-a77078", "operator": "United States Postal Service", "operator:short": "USPS", "operator:type": "public", "operator:wikidata": "Q668687", "ref": "6898200003"}, "type": "Feature"}
