{"geometry": {"coordinates": [-100.625968, 40.201741], "type": "Point"}, "id": "X63NWU7owUze3hZtqc220eVnY7A=", "properties": {"@source_uri": "https://tools.usps.com/UspsToolsRestServices/rest/POLocator/findLocations", "@spider": "usps_collection_boxes", "addr:city": "MCCOOK", "addr:country": "US", "addr:postcode": "69001", "addr:state": "NE", "addr:street_address": "502 NORRIS AVE", "amenity": "post_box", "collection_times": "Mo-Fr 17:00; Sa 14:30", "note": "ON 12/24 AND 12/31, THIS BOX MAY BE COLLECTED AS EARLY AS 12 NOON.", "nsi_id": "unitedstatespostalservice-a77078", "operator": "United States Postal Service", "operator:short": "USPS", "operator:type": "public", "operator:wikidata": "Q668687", "ref": "6900100001"}, "type": "Feature"}
{"geometry": {"coordinates": [-100.625992, 40.199527], "type": "Point"}, "id": "9NnTGE7Tt-KmJtjongHYNJJg6KA=", "properties": {"@source_uri": "https://tools.usps.com/UspsToolsRestServices/rest/POLocator/findLocations", "@spider": "usps_collection_boxes", "addr:city": "MCCOOK", "addr:country": "US", "addr:postcode": "69001", "addr:state": "NE", "addr:street_address": "224 NORRIS AVE", "amenity": "post_box", "collection_times": "Mo-Fr 17:00; Sa 14:30", "note": "ON 12/24 AND 12/31, THIS BOX MAY BE COLLECTED AS EARLY AS 12 NOON.", "nsi_id": "unitedstatespostalservice-a77078", "operator": "United States Postal Service", "operator:short": "USPS", "operator:type": "public", "operator:wikidata": "Q668687", "ref": "6900100003"}, "type": "Feature"}
{"geometry": {"coordinates": [-100.645989, 40.201552], "type": "Point"}, "id": "0wa6bKAm_I9rMaWXONQn7847QsM=", "properties": {"@source_uri": "https://tools.usps.com/UspsToolsRestServices/rest/POLocator/findLocations", "@spider": "usps_collection_boxes", "addr:city": "MCCOOK", "addr:country": "US", "addr:postcode": "69001", "addr:state": "NE", "addr:street_address": "206 WESTVIEW PLZ", "amenity": "post_box", "collection_times": "Mo-Fr 17:00; Sa 14:30", "note": "ON 12/24 AND 12/31, THIS BOX MAY BE COLLECTED AS EARLY AS 12 NOON.", "nsi_id": "unitedstatespostalservice-a77078", "operator": "United States Postal Service", "operator:short": "USPS", "operator:type": "public", "operator:wikidata": "Q668687", "ref": "6900100004"}, "type": "Feature"}
{"geometry": {"coordinates": [-100.629946081, 40.201361047], "type": "Point"}, "id": "im-B6wIDMfb2MBbAhdyQivcjI4o=", "properties": {"@source_uri": "https://tools.usps.com/UspsToolsRestServices/rest/POLocator/findLocations", "@spider": "usps_collection_boxes", "addr:city": "MCCOOK", "addr:country": "US", "addr:postcode": "69001", "addr:state": "NE", "addr:street_address": "411 W 3RD ST", "amenity": "post_box", "collection_times": "Mo-Fr 17:45; Sa 17:00", "note": "ON 12/24 AND 12/31, THIS BOX MAY BE COLLECTED AS EARLY AS 12 NOON.", "nsi_id": "unitedstatespostalservice-a77078", "operator": "United States Postal Service", "operator:short": "USPS", "operator:type": "public", "operator:wikidata": "Q668687", "ref": "6900100006"}, "type": "Feature"}
{"geometry": {"coordinates": [-100.629946081, 40.201361047], "type": "Point"}, "id": "JvGYmWgmvhernIqhn8lBNP-MkIY=", "properties": {"@source_uri": "https://tools.usps.com/UspsToolsRestServices/rest/POLocator/findLocations", "@spider": "usps_collection_boxes", "addr:city": "MCCOOK", "addr:country": "US", "addr:postcode": "69001", "addr:state": "NE", "addr:street_address": "411 W 3RD ST", "amenity": "post_box", "collection_times": "Mo-Fr 17:45; Sa 17:00", "note": "ON 12/24 AND 12/31, THIS BOX MAY BE COLLECTED AS EARLY AS 12 NOON.", "nsi_id": "unitedstatespostalservice-a77078", "operator": "United States Postal Service", "operator:short": "USPS", "operator:type": "public", "operator:wikidata": "Q668687", "ref": "6900100007"}, "type": "Feature"}
{"geometry": {"coordinates": [-100.629946081, 40.201361047], "type": "Point"}, "id": "_9i7k1PB8oZn-KWmajqyY8eNDY8=", "properties": {"@source_uri": "https://tools.usps.com/UspsToolsRestServices/rest/POLocator/findLocations", "@spider": "usps_collection_boxes", "addr:city": "MCCOOK", "addr:country": "US", "addr:postcode": "69001", "addr:state": "NE", "addr:street_address": "411 W 3RD ST", "amenity": "post_box", "collection_times": "Mo-Fr 17:45; Sa 17:00", "indoor": "yes", "note": "ON 12/24 AND 12/31, THIS BOX MAY BE COLLECTED AS EARLY AS 12 NOON.", "nsi_id": "unitedstatespostalservice-a77078", "operator": "United States Postal Service", "operator:short": "USPS", "operator:type": "public", "operator:wikidata": "Q668687", "ref": "6900100009"}, "type": "Feature"}
{"geometry": {"coordinates": [-100.620542, 40.209217], "type": "Point"}, "id": "q3bObjQsHLEioBqx0ZwaxrLImPA=", "properties": {"@source_uri": "https://tools.usps.com/UspsToolsRestServices/rest/POLocator/findLocations", "@spider": "usps_collection_boxes", "addr:city": "MCCOOK", "addr:country": "US", "addr:postcode": "69001", "addr:state": "NE", "addr:street_address": "1205 E 3RD ST", "amenity": "post_box", "collection_times": "Mo-Fr 14:45", "note": "ON 12/24 AND 12/31, THIS BOX MAY BE COLLECTED AS EARLY AS 12 NOON.", "nsi_id": "unitedstatespostalservice-a77078", "operator": "United States Postal Service", "operator:short": "USPS", "operator:type": "public", "operator:wikidata": "Q668687", "ref": "6900100010"}, "type": "Feature"}
{"geometry": {"coordinates": [-100.651483, 40.1985], "type": "Point"}, "id": "hM4CubQ0ame7TwoOoEMWWB6DoLs=", "properties": {"@source_uri": "https://tools.usps.com/UspsToolsRestServices/rest/POLocator/findLocations", "@spider": "usps_collection_boxes", "addr:city": "MCCOOK", "addr:country": "US", "addr:postcode": "69001", "addr:state": "NE", "addr:street_address": "1902 W B ST", "amenity": "post_box", "collection_times": "Mo-Fr 17:00; Sa 09:30", "note": "ON 12/24 AND 12/31, THIS BOX MAY BE COLLECTED AS EARLY AS 12 NOON.", "nsi_id": "unitedstatespostalservice-a77078", "operator": "United States Postal Service", "operator:short": "USPS", "operator:type": "public", "operator:wikidata": "Q668687", "ref": "6900100011"}, "type": "Feature"}
{"geometry": {"coordinates": [-100.629946081, 40.201361047], "type": "Point"}, "id": "nah7wZonqIpQCT2DoRODnZpJabM=", "properties": {"@source_uri": "https://tools.usps.com/UspsToolsRestServices/rest/POLocator/findLocations", "@spider": "usps_collection_boxes", "addr:city": "MCCOOK", "addr:country": "US", "addr:postcode": "69001", "addr:state": "NE", "addr:street_address": "411 W 3RD ST", "amenity": "post_box", "collection_times": "Mo-Fr 17:45; Sa 12:00", "indoor": "yes", "note": "ON 12/24 AND 12/31, THIS BOX MAY BE COLLECTED AS EARLY AS 12 NOON.", "nsi_id": "unitedstatespostalservice-a77078", "operator": "United States Postal Service", "operator:short": "USPS", "operator:type": "public", "operator:wikidata": "Q668687", "ref": "6900100014"}, "type": "Feature"}
{"geometry": {"coordinates": [-100.305836, 40.252172], "type": "Point"}, "id": "ve_pkMFqG_AD92VTmux20TRC2uA=", "properties": {"@source_uri": "https://tools.usps.com/UspsToolsRestServices/rest/POLocator/findLocations", "@spider": "usps_collection_boxes", "addr:city": "BARTLEY", "addr:country": "US", "addr:postcode": "69020", "addr:state": "NE", "addr:street_address": "401 COMMERCIAL ST", "amenity": "post_box", "collection_times": "Mo-Fr 11:45; Sa 09:15", "indoor": "yes", "nsi_id": "unitedstatespostalservice-a77078", "operator": "United States Postal Service", "operator:short": "USPS", "operator:type": "public", "operator:wikidata": "Q668687", "ref": "6902000002"}, "type": "Feature"}
{"geometry": {"coordinates": [-100.3058462747, 40.2521464119], "type": "Point"}, "id": "eI9PPZQvl6SSs8fMys6sd4mlyzk=", "properties": {"@source_uri": "https://tools.usps.com/UspsToolsRestServices/rest/POLocator/findLocations", "@spider": "usps_collection_boxes", "addr:city": "BARTLEY", "addr:country": "US", "addr:postcode": "69020", "addr:state": "NE", "addr:street_address": "401 COMMERCIAL ST", "amenity": "post_box", "collection_times": "Mo-Fr 11:45; Sa 09:15", "indoor": "yes", "nsi_id": "unitedstatespostalservice-a77078", "operator": "United States Postal Service", "operator:short": "USPS", "operator:type": "public", "operator:wikidata": "Q668687", "ref": "6902000004"}, "type": "Feature"}
{"geometry": {"coordinates": [-100.3075079, 40.2535945], "type": "Point"}, "id": "X2CbWSHCuBX846d0YcqWIsf8Z0g=", "properties": {"@source_uri": "https://tools.usps.com/UspsToolsRestServices/rest/POLocator/findLocations", "@spider": "usps_collection_boxes", "addr:city": "BARTLEY", "addr:country": "US", "addr:postcode": "69020", "addr:state": "NE", "addr:street_address": "401 COMMERCIAL ST", "amenity": "post_box", "collection_times": "Mo-Fr 11:45; Sa 09:15", "nsi_id": "unitedstatespostalservice-a77078", "operator": "United States Postal Service", "operator:short": "USPS", "operator:type": "public", "operator:wikidata": "Q668687", "ref": "6902000005"}, "type": "Feature"}
{"geometry": {"coordinates": [-101.53285, 40.048237], "type": "Point"}, "id": "7Bxun_B0JqQlgp2s7kdJtP9do9o=", "properties": {"@source_uri": "https://tools.usps.com/UspsToolsRestServices/rest/POLocator/findLocations", "@spider": "usps_collection_boxes", "addr:city": "BENKELMAN", "addr:country": "US", "addr:postcode": "69021", "addr:state": "NE", "addr:street_address": "505 CHIEF ST", "amenity": "post_box", "collection_times": "Mo-Fr 15:45; Sa 09:45", "note": "ON 12/24 AND 12/31, THIS BOX MAY BE COLLECTED AS EARLY AS 12 NOON.", "nsi_id": "unitedstatespostalservice-a77078", "operator": "United States Postal Service", "operator:short": "USPS", "operator:type": "public", "operator:wikidata": "Q668687", "ref": "6902100001"}, "type": "Feature"}
{"geometry": {"coordinates": [-101.53285, 40.048237], "type": "Point"}, "id": "kq3Wta0VwohJTOMb79A8y8jw_iU=", "properties": {"@source_uri": "https://tools.usps.com/UspsToolsRestServices/rest/POLocator/findLocations", "@spider": "usps_collection_boxes", "addr:city": "BENKELMAN", "addr:country": "US", "addr:postcode": "69021", "addr:state": "NE", "addr:street_address": "505 CHIEF ST", "amenity": "post_box", "collection_times": "Mo-Fr 14:50; Sa 09:45", "indoor": "yes", "note": "ON 12/24 AND 12/31, THIS BOX MAY BE COLLECTED AS EARLY AS 12 NOON.", "nsi_id": "unitedstatespostalservice-a77078", "operator": "United States Postal Service", "operator:short": "USPS", "operator:type": "public", "operator:wikidata": "Q668687", "ref": "6902100002"}, "type": "Feature"}
{"geometry": {"coordinates": [-101.532872128, 40.048203695], "type": "Point"}, "id": "PcCnFgIB6HC14JiDY7xyLF4MNsk=", "properties": {"@source_uri": "https://tools.usps.com/UspsToolsRestServices/rest/POLocator/findLocations", "@spider": "usps_collection_boxes", "addr:city": "BENKELMAN", "addr:country": "US", "addr:postcode": "69021", "addr:state": "NE", "addr:street_address": "505 CHIEF ST", "amenity": "post_box", "collection_times": "Mo-Fr 14:50; Sa 09:45", "indoor": "yes", "note": "ON 12/24 AND 12/31, THIS BOX MAY BE COLLECTED AS EARLY AS 12 NOON.", "nsi_id": "unitedstatespostalservice-a77078", "operator": "United States Postal Service", "operator:short": "USPS", "operator:type": "public", "operator:wikidata": "Q668687", "ref": "6902100004"}, "type": "Feature"}
{"geometry": {"coordinates": [-100.166168, 40.283206], "type": "Point"}, "id": "ua8w021SvemhksuO7X1VidvF5_8=", "properties": {"@source_uri": "https://tools.usps.com/UspsToolsRestServices/rest/POLocator/findLocations", "@spider": "usps_collection_boxes", "addr:city": "CAMBRIDGE", "addr:country": "US", "addr:postcode": "69022", "addr:state": "NE", "addr:street_address": "710 PATTERSON ST", "amenity": "post_box", "collection_times": "Mo-Fr 16:00; Sa 10:15", "note": "ON 12/24 AND 12/31, THIS BOX MAY BE COLLECTED AS EARLY AS 12 NOON.", "nsi_id": "unitedstatespostalservice-a77078", "operator": "United States Postal Service", "operator:short": "USPS", "operator:type": "public", "operator:wikidata": "Q668687", "ref": "6902200001"}, "type": "Feature"}
{"geometry": {"coordinates": [-100.166168, 40.283206], "type": "Point"}, "id": "MGsEaurCL5x5DXPnnNsC8H0gqUc=", "properties": {"@source_uri": "https://tools.usps.com/UspsToolsRestServices/rest/POLocator/findLocations", "@spider": "usps_collection_boxes", "addr:city": "CAMBRIDGE", "addr:country": "US", "addr:postcode": "69022", "addr:state": "NE", "addr:street_address": "710 PATTERSON ST", "amenity": "post_box", "collection_times": "Mo-Fr 16:00; Sa 10:15", "indoor": "yes", "note": "ON 12/24 AND 12/31, THIS BOX MAY BE COLLECTED AS EARLY AS 12 NOON.", "nsi_id": "unitedstatespostalservice-a77078", "operator": "United States Postal Service", "operator:short": "USPS", "operator:type": "public", "operator:wikidata": "Q668687", "ref": "6902200002"}, "type": "Feature"}
{"geometry": {"coordinates": [-100.1661899947, 40.2832062038], "type": "Point"}, "id": "uZiPUVc9wPPcBAnANT0zkSqXfvY=", "properties": {"@source_uri": "https://tools.usps.com/UspsToolsRestServices/rest/POLocator/findLocations", "@spider": "usps_collection_boxes", "addr:city": "CAMBRIDGE", "addr:country": "US", "addr:postcode": "69022", "addr:state": "NE", "addr:street_address": "710 PATTERSON ST", "amenity": "post_box", "collection_times": "Mo-Fr 16:00; Sa 10:15", "indoor": "yes", "note": "ON 12/24 AND 12/31, THIS BOX MAY BE COLLECTED AS EARLY AS 12 NOON.", "nsi_id": "unitedstatespostalservice-a77078", "operator": "United States Postal Service", "operator:short": "USPS", "operator:type": "public", "operator:wikidata": "Q668687", "ref": "6902200004"}, "type": "Feature"}
{"geometry": {"coordinates": [-101.747166, 40.469833], "type": "Point"}, "id": "kjDEx3NMnZ0l3-9_eYIyQxolO-U=", "properties": {"@source_uri": "https://tools.usps.com/UspsToolsRestServices/rest/POLocator/findLocations", "@spider": "usps_collection_boxes", "addr:city": "CHAMPION", "addr:country": "US", "addr:postcode": "69023", "addr:state": "NE", "addr:street_address": "380 MAIN ST", "amenity": "post_box", "collection_times": "Mo-Fr 11:45; Sa 09:15", "nsi_id": "unitedstatespostalservice-a77078", "operator": "United States Postal Service", "operator:short": "USPS", "operator:type": "public", "operator:wikidata": "Q668687", "ref": "6902300001"}, "type": "Feature"}
{"geometry": {"coordinates": [-101.74713, 40.469889], "type": "Point"}, "id": "vqr6Nwf8mafeBbPD9B8lLYmNDw4=", "properties": {"@source_uri": "https://tools.usps.com/UspsToolsRestServices/rest/POLocator/findLocations", "@spider": "usps_collection_boxes", "addr:city": "CHAMPION", "addr:country": "US", "addr:postcode": "69023", "addr:state": "NE", "addr:street_address": "380 MAIN ST", "amenity": "post_box", "collection_times": "Mo-Fr 11:45; Sa 09:15", "indoor": "yes", "nsi_id": "unitedstatespostalservice-a77078", "operator": "United States Postal Service", "operator:short": "USPS", "operator:type": "public", "operator:wikidata": "Q668687", "ref": "6902300003"}, "type": "Feature"}
{"geometry": {"coordinates": [-101.747167153, 40.469913335], "type": "Point"}, "id": "90wwl3GhetrqY8qxC4GmnrrwE3w=", "properties": {"@source_uri": "https://tools.usps.com/UspsToolsRestServices/rest/POLocator/findLocations", "@spider": "usps_collection_boxes", "addr:city": "CHAMPION", "addr:country": "US", "addr:postcode": "69023", "addr:state": "NE", "addr:street_address": "380 MAIN ST", "amenity": "post_box", "collection_times": "Mo-Fr 11:45; Sa 09:15", "indoor": "yes", "nsi_id": "unitedstatespostalservice-a77078", "operator": "United States Postal Service", "operator:short": "USPS", "operator:type": "public", "operator:wikidata": "Q668687", "ref": "6902300005"}, "type": "Feature"}
{"geometry": {"coordinates": [-100.839760359, 40.229538141], "type": "Point"}, "id": "BgzVSp6-e2bKn1wcf8CvAJDd0_w=", "properties": {"@source_uri": "https://tools.usps.com/UspsToolsRestServices/rest/POLocator/findLocations", "@spider": "usps_collection_boxes", "addr:city": "CULBERTSON", "addr:country": "US", "addr:postcode": "69024", "addr:state": "NE", "addr:street_address": "407 WYOMING ST", "amenity": "post_box", "collection_times": "Mo-Fr 14:15; Sa 09:15", "note": "ON 12/24 AND 12/31, THIS BOX MAY BE COLLECTED AS EARLY AS 12 NOON.", "nsi_id": "unitedstatespostalservice-a77078", "operator": "United States Postal Service", "operator:short": "USPS", "operator:type": "public", "operator:wikidata": "Q668687", "ref": "6902400001"}, "type": "Feature"}
{"geometry": {"coordinates": [-100.839760359, 40.229538141], "type": "Point"}, "id": "Bd2MvCx-NJXXKcNEjb28OS7C-iM=", "properties": {"@source_uri": "https://tools.usps.com/UspsToolsRestServices/rest/POLocator/findLocations", "@spider": "usps_collection_boxes", "addr:city": "CULBERTSON", "addr:country": "US", "addr:postcode": "69024", "addr:state": "NE", "addr:street_address": "407 WYOMING ST", "amenity": "post_box", "collection_times": "Mo-Fr 14:15; Sa 09:15", "indoor": "yes", "note": "ON 12/24 AND 12/31, THIS BOX MAY BE COLLECTED AS EARLY AS 12 NOON.", "nsi_id": "unitedstatespostalservice-a77078", "operator": "United States Postal Service", "operator:short": "USPS", "operator:type": "public", "operator:wikidata": "Q668687", "ref": "6902400002"}, "type": "Feature"}
{"geometry": {"coordinates": [-100.839760359, 40.229538141], "type": "Point"}, "id": "QujXubC8CA0HVeGEljrehvEy_GY=", "properties": {"@source_uri": "https://tools.usps.com/UspsToolsRestServices/rest/POLocator/findLocations", "@spider": "usps_collection_boxes", "addr:city": "CULBERTSON", "addr:country": "US", "addr:postcode": "69024", "addr:state": "NE", "addr:street_address": "407 WYOMING ST", "amenity": "post_box", "collection_times": "Mo-Fr 14:15; Sa 09:15", "indoor": "yes", "note": "ON 12/24 AND 12/31, THIS BOX MAY BE COLLECTED AS EARLY AS 12 NOON.", "nsi_id": "unitedstatespostalservice-a77078", "operator": "United States Postal Service", "operator:short": "USPS", "operator:type": "public", "operator:wikidata": "Q668687", "ref": "6902400004"}, "type": "Feature"}
{"geometry": {"coordinates": [-100.515405, 40.6312], "type": "Point"}, "id": "AKE2IDKuE_KQ2yJy0X-q3xJdnMM=", "properties": {"@source_uri": "https://tools.usps.com/UspsToolsRestServices/rest/POLocator/findLocations", "@spider": "usps_collection_boxes", "addr:city": "CURTIS", "addr:country": "US", "addr:postcode": "69025", "addr:state": "NE", "addr:street_address": "302 CENTER AVE", "amenity": "post_box", "collection_times": "Mo-Fr 16:00; Sa 10:00", "note": "ON 12/24 AND 12/31, THIS BOX MAY BE COLLECTED AS EARLY AS 12 NOON.", "nsi_id": "unitedstatespostalservice-a77078", "operator": "United States Postal Service", "operator:short": "USPS", "operator:type": "public", "operator:wikidata": "Q668687", "ref": "6902500001"}, "type": "Feature"}
{"geometry": {"coordinates": [-100.515405, 40.6312], "type": "Point"}, "id": "AgIY_GwBbdLNOcJCDTu2TkC6jHE=", "properties": {"@source_uri": "https://tools.usps.com/UspsToolsRestServices/rest/POLocator/findLocations", "@spider": "usps_collection_boxes", "addr:city": "CURTIS", "addr:country": "US", "addr:postcode": "69025", "addr:state": "NE", "addr:street_address": "302 CENTER AVE", "amenity": "post_box", "collection_times": "Mo-Fr 16:00; Sa 10:00", "indoor": "yes", "note": "ON 12/24 AND 12/31, THIS BOX MAY BE COLLECTED AS EARLY AS 12 NOON.", "nsi_id": "unitedstatespostalservice-a77078", "operator": "United States Postal Service", "operator:short": "USPS", "operator:type": "public", "operator:wikidata": "Q668687", "ref": "6902500002"}, "type": "Feature"}
{"geometry": {"coordinates": [-100.5154057746, 40.6311943097], "type": "Point"}, "id": "RHUU1wTcyrga4mnU9U_h4G34qFw=", "properties": {"@source_uri": "https://tools.usps.com/UspsToolsRestServices/rest/POLocator/findLocations", "@spider": "usps_collection_boxes", "addr:city": "CURTIS", "addr:country": "US", "addr:postcode": "69025", "addr:state": "NE", "addr:street_address": "302 CENTER AVE", "amenity": "post_box", "collection_times": "Mo-Fr 16:00; Sa 10:00", "indoor": "yes", "note": "ON 12/24 AND 12/31, THIS BOX MAY BE COLLECTED AS EARLY AS 12 NOON.", "nsi_id": "unitedstatespostalservice-a77078", "operator": "United States Postal Service", "operator:short": "USPS", "operator:type": "public", "operator:wikidata": "Q668687", "ref": "6902500004"}, "type": "Feature"}
{"geometry": {"coordinates": [-100.405495, 40.040073], "type": "Point"}, "id": "MGsw6mcFpc9mkhsF7wVVv0OioBY=", "properties": {"@source_uri": "https://tools.usps.com/UspsToolsRestServices/rest/POLocator/findLocations", "@spider": "usps_collection_boxes", "addr:city": "DANBURY", "addr:country": "US", "addr:postcode": "69026", "addr:state": "NE", "addr:street_address": "205 GRANDVILLE AVE", "amenity": "post_box", "collection_times": "Mo-Fr 10:15; Sa 09:45", "nsi_id": "unitedstatespostalservice-a77078", "operator": "United States Postal Service", "operator:short": "USPS", "operator:type": "public", "operator:wikidata": "Q668687", "ref": "6902600001"}, "type": "Feature"}
{"geometry": {"coordinates": [-100.40553, 40.040156], "type": "Point"}, "id": "BtgUn9ahXhdwKfbYAnnjgpDRZiI=", "properties": {"@source_uri": "https://tools.usps.com/UspsToolsRestServices/rest/POLocator/findLocations", "@spider": "usps_collection_boxes", "addr:city": "DANBURY", "addr:country": "US", "addr:postcode": "69026", "addr:state": "NE", "addr:street_address": "205 GRANDVILLE AVE", "amenity": "post_box", "collection_times": "Mo-Fr 10:15; Sa 09:45", "indoor": "yes", "nsi_id": "unitedstatespostalservice-a77078", "operator": "United States Postal Service", "operator:short": "USPS", "operator:type": "public", "operator:wikidata": "Q668687", "ref": "6902600002"}, "type": "Feature"}
{"geometry": {"coordinates": [-100.405478007, 40.040090275], "type": "Point"}, "id": "MP9K-a9fSFIHDjOjYaudfzsSjMU=", "properties": {"@source_uri": "https://tools.usps.com/UspsToolsRestServices/rest/POLocator/findLocations", "@spider": "usps_collection_boxes", "addr:city": "DANBURY", "addr:country": "US", "addr:postcode": "69026", "addr:state": "NE", "addr:street_address": "205 GRANDVILLE AVE", "amenity": "post_box", "collection_times": "Mo-Fr 10:15; Sa 09:45", "indoor": "yes", "nsi_id": "unitedstatespostalservice-a77078", "operator": "United States Postal Service", "operator:short": "USPS", "operator:type": "public", "operator:wikidata": "Q668687", "ref": "6902600004"}, "type": "Feature"}
{"geometry": {"coordinates": [-101.533826, 40.456293], "type": "Point"}, "id": "UdNRMOt2b1iRxACM9Z_OeZw-8X4=", "properties": {"@source_uri": "https://tools.usps.com/UspsToolsRestServices/rest/POLocator/findLocations", "@spider": "usps_collection_boxes", "addr:city": "ENDERS", "addr:country": "US", "addr:postcode": "69027", "addr:state": "NE", "addr:street_address": "580 PIONEER ST", "amenity": "post_box", "collection_times": "Mo-Fr 11:15; Sa 11:45", "nsi_id": "unitedstatespostalservice-a77078", "operator": "United States Postal Service", "operator:short": "USPS", "operator:type": "public", "operator:wikidata": "Q668687", "ref": "6902700001"}, "type": "Feature"}
{"geometry": {"coordinates": [-101.533754, 40.456293], "type": "Point"}, "id": "pebc1_3A4pKMpO8Ub8qccATiqn4=", "properties": {"@source_uri": "https://tools.usps.com/UspsToolsRestServices/rest/POLocator/findLocations", "@spider": "usps_collection_boxes", "addr:city": "ENDERS", "addr:country": "US", "addr:postcode": "69027", "addr:state": "NE", "addr:street_address": "580 PIONEER ST", "amenity": "post_box", "collection_times": "Mo-Fr 11:15; Sa 11:45", "indoor": "yes", "nsi_id": "unitedstatespostalservice-a77078", "operator": "United States Postal Service", "operator:short": "USPS", "operator:type": "public", "operator:wikidata": "Q668687", "ref": "6902700002"}, "type": "Feature"}
{"geometry": {"coordinates": [-101.533928411, 40.456172085], "type": "Point"}, "id": "Xiby2GgDH0lZXGQpnT81o90vMuQ=", "properties": {"@source_uri": "https://tools.usps.com/UspsToolsRestServices/rest/POLocator/findLocations", "@spider": "usps_collection_boxes", "addr:city": "ENDERS", "addr:country": "US", "addr:postcode": "69027", "addr:state": "NE", "addr:street_address": "580 PIONEER ST", "amenity": "post_box", "collection_times": "Mo-Fr 11:15; Sa 11:45", "indoor": "yes", "nsi_id": "unitedstatespostalservice-a77078", "operator": "United States Postal Service", "operator:short": "USPS", "operator:type": "public", "operator:wikidata": "Q668687", "ref": "6902700004"}, "type": "Feature"}
{"geometry": {"coordinates": [-100.029077218, 40.662464011], "type": "Point"}, "id": "oYVOy6Qc-wwmupYwp4SYgYTKuUo=", "properties": {"@source_uri": "https://tools.usps.com/UspsToolsRestServices/rest/POLocator/findLocations", "@spider": "usps_collection_boxes", "addr:city": "EUSTIS", "addr:country": "US", "addr:postcode": "69028", "addr:state": "NE", "addr:street_address": "106 N MAIN ST", "amenity": "post_box", "collection_times": "Mo-Fr 15:15; Sa 10:15", "note": "ON 12/24 AND 12/31, THIS BOX MAY BE COLLECTED AS EARLY AS 12 NOON.", "nsi_id": "unitedstatespostalservice-a77078", "operator": "United States Postal Service", "operator:short": "USPS", "operator:type": "public", "operator:wikidata": "Q668687", "ref": "6902800001"}, "type": "Feature"}
{"geometry": {"coordinates": [-100.029077218, 40.662464011], "type": "Point"}, "id": "nZ9V-PGhUcsj3Mc4S9BY49LZoCQ=", "properties": {"@source_uri": "https://tools.usps.com/UspsToolsRestServices/rest/POLocator/findLocations", "@spider": "usps_collection_boxes", "addr:city": "EUSTIS", "addr:country": "US", "addr:postcode": "69028", "addr:state": "NE", "addr:street_address": "106 N MAIN ST", "amenity": "post_box", "collection_times": "Mo-Fr 15:15; Sa 10:15", "indoor": "yes", "note": "ON 12/24 AND 12/31, THIS BOX MAY BE COLLECTED AS EARLY AS 12 NOON.", "nsi_id": "unitedstatespostalservice-a77078", "operator": "United States Postal Service", "operator:short": "USPS", "operator:type": "public", "operator:wikidata": "Q668687", "ref": "6902800002"}, "type": "Feature"}
{"geometry": {"coordinates": [-100.029077218, 40.662464011], "type": "Point"}, "id": "iEbhJPPlFe5IH93ulwIJHA8lNG4=", "properties": {"@source_uri": "https://tools.usps.com/UspsToolsRestServices/rest/POLocator/findLocations", "@spider": "usps_collection_boxes", "addr:city": "EUSTIS", "addr:country": "US", "addr:postcode": "69028", "addr:state": "NE", "addr:street_address": "106 N MAIN ST", "amenity": "post_box", "collection_times": "Mo-Fr 15:15; Sa 10:15", "indoor": "yes", "note": "ON 12/24 AND 12/31, THIS BOX MAY BE COLLECTED AS EARLY AS 12 NOON.", "nsi_id": "unitedstatespostalservice-a77078", "operator": "United States Postal Service", "operator:short": "USPS", "operator:type": "public", "operator:wikidata": "Q668687", "ref": "6902800004"}, "type": "Feature"}
{"geometry": {"coordinates": [-100.214671, 40.704994], "type": "Point"}, "id": "dzm-sj1gPu6V1JhXLGCXHlfn88A=", "properties": {"@source_uri": "https://tools.usps.com/UspsToolsRestServices/rest/POLocator/findLocations", "@spider": "usps_collection_boxes", "addr:city": "FARNAM", "addr:country": "US", "addr:postcode": "69029", "addr:state": "NE", "addr:street_address": "221 MAIN ST", "amenity": "post_box", "collection_times": "Mo-Fr 12:15; Sa 09:15", "note": "ON 12/24 AND 12/31, THIS BOX MAY BE COLLECTED AS EARLY AS 12 NOON.", "nsi_id": "unitedstatespostalservice-a77078", "operator": "United States Postal Service", "operator:short": "USPS", "operator:type": "public", "operator:wikidata": "Q668687", "ref": "6902900001"}, "type": "Feature"}
{"geometry": {"coordinates": [-100.214650256, 40.704975413], "type": "Point"}, "id": "6APZKs91a0udjSAKrzghGB1bGD4=", "properties": {"@source_uri": "https://tools.usps.com/UspsToolsRestServices/rest/POLocator/findLocations", "@spider": "usps_collection_boxes", "addr:city": "FARNAM", "addr:country": "US", "addr:postcode": "69029", "addr:state": "NE", "addr:street_address": "221 MAIN ST", "amenity": "post_box", "collection_times": "Mo-Fr 12:15; Sa 09:15", "indoor": "yes", "note": "ON 12/24 AND 12/31, THIS BOX MAY BE COLLECTED AS EARLY AS 12 NOON.", "nsi_id": "unitedstatespostalservice-a77078", "operator": "United States Postal Service", "operator:short": "USPS", "operator:type": "public", "operator:wikidata": "Q668687", "ref": "6902900005"}, "type": "Feature"}
{"geometry": {"coordinates": [-100.214650256, 40.704975413], "type": "Point"}, "id": "3Jr4nka6PWCdWwzD4xUHGDss6yk=", "properties": {"@source_uri": "https://tools.usps.com/UspsToolsRestServices/rest/POLocator/findLocations", "@spider": "usps_collection_boxes", "addr:city": "FARNAM", "addr:country": "US", "addr:postcode": "69029", "addr:state": "NE", "addr:street_address": "221 MAIN ST", "amenity": "post_box", "collection_times": "Mo-Fr 12:15; Sa 09:15", "indoor": "yes", "note": "ON 12/24 AND 12/31, THIS BOX MAY BE COLLECTED AS EARLY AS 12 NOON.", "nsi_id": "unitedstatespostalservice-a77078", "operator": "United States Postal Service", "operator:short": "USPS", "operator:type": "public", "operator:wikidata": "Q668687", "ref": "6902900006"}, "type": "Feature"}
{"geometry": {"coordinates": [-101.939566, 40.014001], "type": "Point"}, "id": "fbJ8DgW-MCPqh9_x1y6V2kmX2ik=", "properties": {"@source_uri": "https://tools.usps.com/UspsToolsRestServices/rest/POLocator/findLocations", "@spider": "usps_collection_boxes", "addr:city": "HAIGLER", "addr:country": "US", "addr:postcode": "69030", "addr:state": "NE", "addr:street_address": "100 W PORTER AVE", "amenity": "post_box", "collection_times": "Mo-Fr 11:45; Sa 09:15", "nsi_id": "unitedstatespostalservice-a77078", "operator": "United States Postal Service", "operator:short": "USPS", "operator:type": "public", "operator:wikidata": "Q668687", "ref": "6903000001"}, "type": "Feature"}
{"geometry": {"coordinates": [-101.939566, 40.014001], "type": "Point"}, "id": "CYSkIBzJcDWf-WomaHIRGV45LfY=", "properties": {"@source_uri": "https://tools.usps.com/UspsToolsRestServices/rest/POLocator/findLocations", "@spider": "usps_collection_boxes", "addr:city": "HAIGLER", "addr:country": "US", "addr:postcode": "69030", "addr:state": "NE", "addr:street_address": "100 W PORTER AVE", "amenity": "post_box", "collection_times": "Mo-Fr 11:45; Sa 09:15", "indoor": "yes", "nsi_id": "unitedstatespostalservice-a77078", "operator": "United States Postal Service", "operator:short": "USPS", "operator:type": "public", "operator:wikidata": "Q668687", "ref": "6903000002"}, "type": "Feature"}
{"geometry": {"coordinates": [-101.939545127, 40.013281025], "type": "Point"}, "id": "PBNXqQGcTkDKfIPJZxzkfm_lqDA=", "properties": {"@source_uri": "https://tools.usps.com/UspsToolsRestServices/rest/POLocator/findLocations", "@spider": "usps_collection_boxes", "addr:city": "HAIGLER", "addr:country": "US", "addr:postcode": "69030", "addr:state": "NE", "addr:street_address": "100 W PORTER AVE", "amenity": "post_box", "collection_times": "Mo-Fr 11:45; Sa 09:15", "indoor": "yes", "nsi_id": "unitedstatespostalservice-a77078", "operator": "United States Postal Service", "operator:short": "USPS", "operator:type": "public", "operator:wikidata": "Q668687", "ref": "6903000004"}, "type": "Feature"}
{"geometry": {"coordinates": [-101.019741142, 40.513022145], "type": "Point"}, "id": "p88y1G9BnxUTFRnuvQifoN3G2jg=", "properties": {"@source_uri": "https://tools.usps.com/UspsToolsRestServices/rest/POLocator/findLocations", "@spider": "usps_collection_boxes", "addr:city": "HAYES CENTER", "addr:country": "US", "addr:postcode": "69032", "addr:state": "NE", "addr:street_address": "600 TATE AVE", "amenity": "post_box", "collection_times": "Mo-Fr 14:45; Sa 09:15", "note": "ON 12/24 AND 12/31, THIS BOX MAY BE COLLECTED AS EARLY AS 12 NOON.", "nsi_id": "unitedstatespostalservice-a77078", "operator": "United States Postal Service", "operator:short": "USPS", "operator:type": "public", "operator:wikidata": "Q668687", "ref": "6903200001"}, "type": "Feature"}
{"geometry": {"coordinates": [-101.019741142, 40.513022145], "type": "Point"}, "id": "rci6AB2QiV4GO-wLBTQUVfzgRUA=", "properties": {"@source_uri": "https://tools.usps.com/UspsToolsRestServices/rest/POLocator/findLocations", "@spider": "usps_collection_boxes", "addr:city": "HAYES CENTER", "addr:country": "US", "addr:postcode": "69032", "addr:state": "NE", "addr:street_address": "600 TATE AVE", "amenity": "post_box", "collection_times": "Mo-Fr 14:45; Sa 09:15", "indoor": "yes", "note": "ON 12/24 AND 12/31, THIS BOX MAY BE COLLECTED AS EARLY AS 12 NOON.", "nsi_id": "unitedstatespostalservice-a77078", "operator": "United States Postal Service", "operator:short": "USPS", "operator:type": "public", "operator:wikidata": "Q668687", "ref": "6903200002"}, "type": "Feature"}
{"geometry": {"coordinates": [-101.019741142, 40.513022145], "type": "Point"}, "id": "srT4iuqESRI9hV6awUm-K0CSDGA=", "properties": {"@source_uri": "https://tools.usps.com/UspsToolsRestServices/rest/POLocator/findLocations", "@spider": "usps_collection_boxes", "addr:city": "HAYES CENTER", "addr:country": "US", "addr:postcode": "69032", "addr:state": "NE", "addr:street_address": "600 TATE AVE", "amenity": "post_box", "collection_times": "Mo-Fr 14:45; Sa 09:15", "indoor": "yes", "note": "ON 12/24 AND 12/31, THIS BOX MAY BE COLLECTED AS EARLY AS 12 NOON.", "nsi_id": "unitedstatespostalservice-a77078", "operator": "United States Postal Service", "operator:short": "USPS", "operator:type": "public", "operator:wikidata": "Q668687", "ref": "6903200003"}, "type": "Feature"}
{"geometry": {"coordinates": [-101.641662, 40.516216], "type": "Point"}, "id": "24LghyQ8JLL4iJK5uzlkJd5dINo=", "properties": {"@source_uri": "https://tools.usps.com/UspsToolsRestServices/rest/POLocator/findLocations", "@spider": "usps_collection_boxes", "addr:city": "IMPERIAL", "addr:country": "US", "addr:postcode": "69033", "addr:state": "NE", "addr:street_address": "523 WELLINGTON ST", "amenity": "post_box", "collection_times": "Mo-Fr 15:45; Sa 10:45", "note": "ON 12/24 AND 12/31, THIS BOX MAY BE COLLECTED AS EARLY AS 12 NOON.", "nsi_id": "unitedstatespostalservice-a77078", "operator": "United States Postal Service", "operator:short": "USPS", "operator:type": "public", "operator:wikidata": "Q668687", "ref": "6903300001"}, "type": "Feature"}
{"geometry": {"coordinates": [-101.641662, 40.516216], "type": "Point"}, "id": "g7MbmxBXhHN_FjthDm4NDxKE6zM=", "properties": {"@source_uri": "https://tools.usps.com/UspsToolsRestServices/rest/POLocator/findLocations", "@spider": "usps_collection_boxes", "addr:city": "IMPERIAL", "addr:country": "US", "addr:postcode": "69033", "addr:state": "NE", "addr:street_address": "523 WELLINGTON ST", "amenity": "post_box", "collection_times": "Mo-Fr 14:30; Sa 10:45", "indoor": "yes", "note": "ON 12/24 AND 12/31, THIS BOX MAY BE COLLECTED AS EARLY AS 12 NOON.", "nsi_id": "unitedstatespostalservice-a77078", "operator": "United States Postal Service", "operator:short": "USPS", "operator:type": "public", "operator:wikidata": "Q668687", "ref": "6903300002"}, "type": "Feature"}
{"geometry": {"coordinates": [-101.6416855768, 40.516194459], "type": "Point"}, "id": "H6RQYkw-7QgK1-fKAwpy-pcP8ps=", "properties": {"@source_uri": "https://tools.usps.com/UspsToolsRestServices/rest/POLocator/findLocations", "@spider": "usps_collection_boxes", "addr:city": "IMPERIAL", "addr:country": "US", "addr:postcode": "69033", "addr:state": "NE", "addr:street_address": "523 WELLINGTON ST", "amenity": "post_box", "collection_times": "Mo-Fr 14:30; Sa 10:45", "indoor": "yes", "note": "ON 12/24 AND 12/31, THIS BOX MAY BE COLLECTED AS EARLY AS 12 NOON.", "nsi_id": "unitedstatespostalservice-a77078", "operator": "United States Postal Service", "operator:short": "USPS", "operator:type": "public", "operator:wikidata": "Q668687", "ref": "6903300004"}, "type": "Feature"}
{"geometry": {"coordinates": [-100.41731, 40.235391], "type": "Point"}, "id": "eY6HikIksbNY6V8CE4I88r7R8Fw=", "properties": {"@source_uri": "https://tools.usps.com/UspsToolsRestServices/rest/POLocator/findLocations", "@spider": "usps_collection_boxes", "addr:city": "INDIANOLA", "addr:country": "US", "addr:postcode": "69034", "addr:state": "NE", "addr:street_address": "202 N 4TH ST", "amenity": "post_box", "collection_times": "Mo-Fr 14:15; Sa 09:45", "note": "ON 12/24 AND 12/31, THIS BOX MAY BE COLLECTED AS EARLY AS 12 NOON.", "nsi_id": "unitedstatespostalservice-a77078", "operator": "United States Postal Service", "operator:short": "USPS", "operator:type": "public", "operator:wikidata": "Q668687", "ref": "6903400001"}, "type": "Feature"}
{"geometry": {"coordinates": [-100.41731, 40.235391], "type": "Point"}, "id": "YkVhZ4m-t4N3rk7KhEKcVBcTLPk=", "properties": {"@source_uri": "https://tools.usps.com/UspsToolsRestServices/rest/POLocator/findLocations", "@spider": "usps_collection_boxes", "addr:city": "INDIANOLA", "addr:country": "US", "addr:postcode": "69034", "addr:state": "NE", "addr:street_address": "202 N 4TH ST", "amenity": "post_box", "collection_times": "Mo-Fr 14:15; Sa 09:45", "indoor": "yes", "note": "ON 12/24 AND 12/31, THIS BOX MAY BE COLLECTED AS EARLY AS 12 NOON.", "nsi_id": "unitedstatespostalservice-a77078", "operator": "United States Postal Service", "operator:short": "USPS", "operator:type": "public", "operator:wikidata": "Q668687", "ref": "6903400002"}, "type": "Feature"}
{"geometry": {"coordinates": [-100.4172847075, 40.2353611322], "type": "Point"}, "id": "BeAJM8mWuh4xaf8VBdu8lEg6Wc0=", "properties": {"@source_uri": "https://tools.usps.com/UspsToolsRestServices/rest/POLocator/findLocations", "@spider": "usps_collection_boxes", "addr:city": "INDIANOLA", "addr:country": "US", "addr:postcode": "69034", "addr:state": "NE", "addr:street_address": "202 N 4TH ST", "amenity": "post_box", "collection_times": "Mo-Fr 14:15; Sa 10:00", "indoor": "yes", "note": "ON 12/24 AND 12/31, THIS BOX MAY BE COLLECTED AS EARLY AS 12 NOON.", "nsi_id": "unitedstatespostalservice-a77078", "operator": "United States Postal Service", "operator:short": "USPS", "operator:type": "public", "operator:wikidata": "Q668687", "ref": "6903400004"}, "type": "Feature"}
{"geometry": {"coordinates": [-101.4044859346, 40.1119456003], "type": "Point"}, "id": "EWnXNj0_BBCg3SxCDvRoBWjj4eU=", "properties": {"@source_uri": "https://tools.usps.com/UspsToolsRestServices/rest/POLocator/findLocations", "@spider": "usps_collection_boxes", "addr:city": "MAX", "addr:country": "US", "addr:postcode": "69037", "addr:state": "NE", "addr:street_address": "110 4TH ST", "amenity": "post_box", "collection_times": "Mo-Sa 10:30", "nsi_id": "unitedstatespostalservice-a77078", "operator": "United States Postal Service", "operator:short": "USPS", "operator:type": "public", "operator:wikidata": "Q668687", "ref": "6903700001"}, "type": "Feature"}
{"geometry": {"coordinates": [-100.622187, 40.65711], "type": "Point"}, "id": "o42U468rk9hxWaFEj-ZMftpLzDM=", "properties": {"@source_uri": "https://tools.usps.com/UspsToolsRestServices/rest/POLocator/findLocations", "@spider": "usps_collection_boxes", "addr:city": "MAYWOOD", "addr:country": "US", "addr:postcode": "69038", "addr:state": "NE", "addr:street_address": "113 S COMMERCIAL ST", "amenity": "post_box", "collection_times": "Mo-Fr 11:45; Sa 08:30", "nsi_id": "unitedstatespostalservice-a77078", "operator": "United States Postal Service", "operator:short": "USPS", "operator:type": "public", "operator:wikidata": "Q668687", "ref": "6903800001"}, "type": "Feature"}
{"geometry": {"coordinates": [-100.622187, 40.65711], "type": "Point"}, "id": "-ACxs2biGyoz4_VexvR9EcHWRL8=", "properties": {"@source_uri": "https://tools.usps.com/UspsToolsRestServices/rest/POLocator/findLocations", "@spider": "usps_collection_boxes", "addr:city": "MAYWOOD", "addr:country": "US", "addr:postcode": "69038", "addr:state": "NE", "addr:street_address": "113 S COMMERCIAL ST", "amenity": "post_box", "collection_times": "Mo-Fr 11:45; Sa 08:30", "indoor": "yes", "nsi_id": "unitedstatespostalservice-a77078", "operator": "United States Postal Service", "operator:short": "USPS", "operator:type": "public", "operator:wikidata": "Q668687", "ref": "6903800002"}, "type": "Feature"}
{"geometry": {"coordinates": [-100.622187207, 40.657103885], "type": "Point"}, "id": "iGn4YmIsKwV7v6smTWM3qD58y4w=", "properties": {"@source_uri": "https://tools.usps.com/UspsToolsRestServices/rest/POLocator/findLocations", "@spider": "usps_collection_boxes", "addr:city": "MAYWOOD", "addr:country": "US", "addr:postcode": "69038", "addr:state": "NE", "addr:street_address": "113 S COMMERCIAL ST", "amenity": "post_box", "collection_times": "Mo-Fr 11:45; Sa 08:30", "indoor": "yes", "nsi_id": "unitedstatespostalservice-a77078", "operator": "United States Postal Service", "operator:short": "USPS", "operator:type": "public", "operator:wikidata": "Q668687", "ref": "6903800004"}, "type": "Feature"}
{"geometry": {"coordinates": [-100.3995876769, 40.6900935908], "type": "Point"}, "id": "7CWMIr0u1I675FBNI2u0oFHNQeE=", "properties": {"@source_uri": "https://tools.usps.com/UspsToolsRestServices/rest/POLocator/findLocations", "@spider": "usps_collection_boxes", "addr:city": "MOOREFIELD", "addr:country": "US", "addr:postcode": "69039", "addr:state": "NE", "addr:street_address": "100 N ASH ST", "amenity": "post_box", "collection_times": "Mo-Sa 10:45", "nsi_id": "unitedstatespostalservice-a77078", "operator": "United States Postal Service", "operator:short": "USPS", "operator:type": "public", "operator:wikidata": "Q668687", "ref": "6903900001"}, "type": "Feature"}
{"geometry": {"coordinates": [-100.399728, 40.685454], "type": "Point"}, "id": "X5xPLc-8WTrkTKLD9bAaawTxWR4=", "properties": {"@source_uri": "https://tools.usps.com/UspsToolsRestServices/rest/POLocator/findLocations", "@spider": "usps_collection_boxes", "addr:city": "MOOREFIELD", "addr:country": "US", "addr:postcode": "69039", "addr:state": "NE", "addr:street_address": "100 ASH ST", "amenity": "post_box", "collection_times": "Mo-Sa 10:45", "indoor": "yes", "nsi_id": "unitedstatespostalservice-a77078", "operator": "United States Postal Service", "operator:short": "USPS", "operator:type": "public", "operator:wikidata": "Q668687", "ref": "6903900002"}, "type": "Feature"}
{"geometry": {"coordinates": [-100.399587677, 40.690093591], "type": "Point"}, "id": "wF2KvyQQZ2bzjFKjlLLSt7eDX3g=", "properties": {"@source_uri": "https://tools.usps.com/UspsToolsRestServices/rest/POLocator/findLocations", "@spider": "usps_collection_boxes", "addr:city": "MOOREFIELD", "addr:country": "US", "addr:postcode": "69039", "addr:state": "NE", "addr:street_address": "100 N ASH ST", "amenity": "post_box", "collection_times": "Mo-Sa 10:45", "indoor": "yes", "nsi_id": "unitedstatespostalservice-a77078", "operator": "United States Postal Service", "operator:short": "USPS", "operator:type": "public", "operator:wikidata": "Q668687", "ref": "6903900004"}, "type": "Feature"}
{"geometry": {"coordinates": [-101.107682, 40.350962], "type": "Point"}, "id": "EWln70BtLkzURy9EvMgE27kq2Xw=", "properties": {"@source_uri": "https://tools.usps.com/UspsToolsRestServices/rest/POLocator/findLocations", "@spider": "usps_collection_boxes", "addr:city": "PALISADE", "addr:country": "US", "addr:postcode": "69040", "addr:state": "NE", "addr:street_address": "105 N MAIN ST", "amenity": "post_box", "collection_times": "Mo-Fr 11:45; Sa 09:00", "nsi_id": "unitedstatespostalservice-a77078", "operator": "United States Postal Service", "operator:short": "USPS", "operator:type": "public", "operator:wikidata": "Q668687", "ref": "6904000001"}, "type": "Feature"}
{"geometry": {"coordinates": [-101.107682, 40.350962], "type": "Point"}, "id": "b0Oji8MFdjVOQHBwYq4AspWiM2w=", "properties": {"@source_uri": "https://tools.usps.com/UspsToolsRestServices/rest/POLocator/findLocations", "@spider": "usps_collection_boxes", "addr:city": "PALISADE", "addr:country": "US", "addr:postcode": "69040", "addr:state": "NE", "addr:street_address": "105 N MAIN ST", "amenity": "post_box", "collection_times": "Mo-Fr 11:45; Sa 09:00", "indoor": "yes", "nsi_id": "unitedstatespostalservice-a77078", "operator": "United States Postal Service", "operator:short": "USPS", "operator:type": "public", "operator:wikidata": "Q668687", "ref": "6904000002"}, "type": "Feature"}
{"geometry": {"coordinates": [-101.234547, 40.385841], "type": "Point"}, "id": "F80eqSWM36SBpQBtPEdljHVzG0o=", "properties": {"@source_uri": "https://tools.usps.com/UspsToolsRestServices/rest/POLocator/findLocations", "@spider": "usps_collection_boxes", "addr:city": "PALISADE", "addr:country": "US", "addr:postcode": "69040", "addr:state": "NE", "addr:street_address": "100 MAIN ST", "amenity": "post_box", "collection_times": "Mo-Sa 11:00", "nsi_id": "unitedstatespostalservice-a77078", "operator": "United States Postal Service", "operator:short": "USPS", "operator:type": "public", "operator:wikidata": "Q668687", "ref": "6904000003"}, "type": "Feature"}
{"geometry": {"coordinates": [-101.107684475, 40.34916], "type": "Point"}, "id": "a8XUKGFz6qACnrZcwrsZ8IfOfws=", "properties": {"@source_uri": "https://tools.usps.com/UspsToolsRestServices/rest/POLocator/findLocations", "@spider": "usps_collection_boxes", "addr:city": "PALISADE", "addr:country": "US", "addr:postcode": "69040", "addr:state": "NE", "addr:street_address": "105 N MAIN ST", "amenity": "post_box", "collection_times": "Mo-Fr 11:45; Sa 09:00", "indoor": "yes", "nsi_id": "unitedstatespostalservice-a77078", "operator": "United States Postal Service", "operator:short": "USPS", "operator:type": "public", "operator:wikidata": "Q668687", "ref": "6904000005"}, "type": "Feature"}
{"geometry": {"coordinates": [-100.383835, 40.533218], "type": "Point"}, "id": "TbjC7HylNiXdxoX37C9aluMRroY=", "properties": {"@source_uri": "https://tools.usps.com/UspsToolsRestServices/rest/POLocator/findLocations", "@spider": "usps_collection_boxes", "addr:city": "STOCKVILLE", "addr:country": "US", "addr:postcode": "69042", "addr:state": "NE", "addr:street_address": "203 WELLINGTON ST", "amenity": "post_box", "collection_times": "Mo-Fr 12:15; Sa 11:00", "note": "ON 12/24 AND 12/31, THIS BOX MAY BE COLLECTED AS EARLY AS 12 NOON.", "nsi_id": "unitedstatespostalservice-a77078", "operator": "United States Postal Service", "operator:short": "USPS", "operator:type": "public", "operator:wikidata": "Q668687", "ref": "6904200001"}, "type": "Feature"}
{"geometry": {"coordinates": [-100.383799, 40.533215], "type": "Point"}, "id": "Js3ErSxNKLlupVRA4YCFpjYu4iE=", "properties": {"@source_uri": "https://tools.usps.com/UspsToolsRestServices/rest/POLocator/findLocations", "@spider": "usps_collection_boxes", "addr:city": "STOCKVILLE", "addr:country": "US", "addr:postcode": "69042", "addr:state": "NE", "addr:street_address": "203 WELLINGTON ST", "amenity": "post_box", "collection_times": "Mo-Fr 12:15; Sa 11:00", "indoor": "yes", "note": "ON 12/24 AND 12/31, THIS BOX MAY BE COLLECTED AS EARLY AS 12 NOON.", "nsi_id": "unitedstatespostalservice-a77078", "operator": "United States Postal Service", "operator:short": "USPS", "operator:type": "public", "operator:wikidata": "Q668687", "ref": "6904200002"}, "type": "Feature"}
{"geometry": {"coordinates": [-100.383861613, 40.533214043], "type": "Point"}, "id": "aKsIDi3i76W5nyBdEFBmJ8AI9MI=", "properties": {"@source_uri": "https://tools.usps.com/UspsToolsRestServices/rest/POLocator/findLocations", "@spider": "usps_collection_boxes", "addr:city": "STOCKVILLE", "addr:country": "US", "addr:postcode": "69042", "addr:state": "NE", "addr:street_address": "203 WELLINGTON ST", "amenity": "post_box", "collection_times": "Mo-Fr 12:15; Sa 11:00", "indoor": "yes", "note": "ON 12/24 AND 12/31, THIS BOX MAY BE COLLECTED AS EARLY AS 12 NOON.", "nsi_id": "unitedstatespostalservice-a77078", "operator": "United States Postal Service", "operator:short": "USPS", "operator:type": "public", "operator:wikidata": "Q668687", "ref": "6904200003"}, "type": "Feature"}
{"geometry": {"coordinates": [-101.226867, 40.147962], "type": "Point"}, "id": "gWzfO-V-YhGQ0XtLxdHoh4wk5bY=", "properties": {"@source_uri": "https://tools.usps.com/UspsToolsRestServices/rest/POLocator/findLocations", "@spider": "usps_collection_boxes", "addr:city": "STRATTON", "addr:country": "US", "addr:postcode": "69043", "addr:state": "NE", "addr:street_address": "310 BAILEY ST", "amenity": "post_box", "collection_times": "Mo-Fr 12:45; Sa 09:30", "note": "ON 12/24 AND 12/31, THIS BOX MAY BE COLLECTED AS EARLY AS 12 NOON.", "nsi_id": "unitedstatespostalservice-a77078", "operator": "United States Postal Service", "operator:short": "USPS", "operator:type": "public", "operator:wikidata": "Q668687", "ref": "6904300001"}, "type": "Feature"}
{"geometry": {"coordinates": [-101.226867, 40.147962], "type": "Point"}, "id": "rwrEEKX6alFkzHrLskIXlkQhgvI=", "properties": {"@source_uri": "https://tools.usps.com/UspsToolsRestServices/rest/POLocator/findLocations", "@spider": "usps_collection_boxes", "addr:city": "STRATTON", "addr:country": "US", "addr:postcode": "69043", "addr:state": "NE", "addr:street_address": "310 BAILEY ST", "amenity": "post_box", "collection_times": "Mo-Fr 12:45; Sa 09:30", "indoor": "yes", "note": "ON 12/24 AND 12/31, THIS BOX MAY BE COLLECTED AS EARLY AS 12 NOON.", "nsi_id": "unitedstatespostalservice-a77078", "operator": "United States Postal Service", "operator:short": "USPS", "operator:type": "public", "operator:wikidata": "Q668687", "ref": "6904300002"}, "type": "Feature"}
{"geometry": {"coordinates": [-101.2268673829, 40.1479571735], "type": "Point"}, "id": "47Pr_uXgt5u4d2CDUfb5pDthJ0o=", "properties": {"@source_uri": "https://tools.usps.com/UspsToolsRestServices/rest/POLocator/findLocations", "@spider": "usps_collection_boxes", "addr:city": "STRATTON", "addr:country": "US", "addr:postcode": "69043", "addr:state": "NE", "addr:street_address": "310 BAILEY ST", "amenity": "post_box", "collection_times": "Mo-Fr 12:45; Sa 09:30", "indoor": "yes", "note": "ON 12/24 AND 12/31, THIS BOX MAY BE COLLECTED AS EARLY AS 12 NOON.", "nsi_id": "unitedstatespostalservice-a77078", "operator": "United States Postal Service", "operator:short": "USPS", "operator:type": "public", "operator:wikidata": "Q668687", "ref": "6904300004"}, "type": "Feature"}
{"geometry": {"coordinates": [-101.013013791, 40.1757884757], "type": "Point"}, "id": "D_8rkFYK6-OpulK77O-B2Lev3i0=", "properties": {"@source_uri": "https://tools.usps.com/UspsToolsRestServices/rest/POLocator/findLocations", "@spider": "usps_collection_boxes", "addr:city": "TRENTON", "addr:country": "US", "addr:postcode": "69044", "addr:state": "NE", "addr:street_address": "402 MAIN ST", "amenity": "post_box", "collection_times": "Mo-Fr 15:45; Sa 09:45", "note": "ON 12/24 AND 12/31, THIS BOX MAY BE COLLECTED AS EARLY AS 12 NOON.", "nsi_id": "unitedstatespostalservice-a77078", "operator": "United States Postal Service", "operator:short": "USPS", "operator:type": "public", "operator:wikidata": "Q668687", "ref": "6904400001"}, "type": "Feature"}
{"geometry": {"coordinates": [-101.013013791, 40.1757884757], "type": "Point"}, "id": "GS9Y60lW9ZxXQHJeHqA5WSvfz4w=", "properties": {"@source_uri": "https://tools.usps.com/UspsToolsRestServices/rest/POLocator/findLocations", "@spider": "usps_collection_boxes", "addr:city": "TRENTON", "addr:country": "US", "addr:postcode": "69044", "addr:state": "NE", "addr:street_address": "402 MAIN ST", "amenity": "post_box", "collection_times": "Mo-Fr 15:45; Sa 09:45", "indoor": "yes", "note": "ON 12/24 AND 12/31, THIS BOX MAY BE COLLECTED AS EARLY AS 12 NOON.", "nsi_id": "unitedstatespostalservice-a77078", "operator": "United States Postal Service", "operator:short": "USPS", "operator:type": "public", "operator:wikidata": "Q668687", "ref": "6904400002"}, "type": "Feature"}
{"geometry": {"coordinates": [-101.013013791, 40.1757884757], "type": "Point"}, "id": "we7jEbjVsUkvmBJ-BwK4VIlAs0I=", "properties": {"@source_uri": "https://tools.usps.com/UspsToolsRestServices/rest/POLocator/findLocations", "@spider": "usps_collection_boxes", "addr:city": "TRENTON", "addr:country": "US", "addr:postcode": "69044", "addr:state": "NE", "addr:street_address": "402 MAIN ST", "amenity": "post_box", "collection_times": "Mo-Fr 15:45; Sa 09:45", "indoor": "yes", "note": "ON 12/24 AND 12/31, THIS BOX MAY BE COLLECTED AS EARLY AS 12 NOON.", "nsi_id": "unitedstatespostalservice-a77078", "operator": "United States Postal Service", "operator:short": "USPS", "operator:type": "public", "operator:wikidata": "Q668687", "ref": "6904400004"}, "type": "Feature"}
{"geometry": {"coordinates": [-101.371298, 40.418519], "type": "Point"}, "id": "n7QH3ae4eM-ujCf-OSrf4xLSEIs=", "properties": {"@source_uri": "https://tools.usps.com/UspsToolsRestServices/rest/POLocator/findLocations", "@spider": "usps_collection_boxes", "addr:city": "WAUNETA", "addr:country": "US", "addr:postcode": "69045", "addr:state": "NE", "addr:street_address": "215 N TECUMSEH", "amenity": "post_box", "collection_times": "Mo-Fr 15:15; Sa 09:45", "note": "ON 12/24 AND 12/31, THIS BOX MAY BE COLLECTED AS EARLY AS 12 NOON.", "nsi_id": "unitedstatespostalservice-a77078", "operator": "United States Postal Service", "operator:short": "USPS", "operator:type": "public", "operator:wikidata": "Q668687", "ref": "6904500001"}, "type": "Feature"}
{"geometry": {"coordinates": [-101.371298, 40.418519], "type": "Point"}, "id": "l5_sw4-WF5fEtFQ_GQpspjaFQXc=", "properties": {"@source_uri": "https://tools.usps.com/UspsToolsRestServices/rest/POLocator/findLocations", "@spider": "usps_collection_boxes", "addr:city": "WAUNETA", "addr:country": "US", "addr:postcode": "69045", "addr:state": "NE", "addr:street_address": "215 N TECUMSEH", "amenity": "post_box", "collection_times": "Mo-Fr 15:00; Sa 09:45", "indoor": "yes", "note": "ON 12/24 AND 12/31, THIS BOX MAY BE COLLECTED AS EARLY AS 12 NOON.", "nsi_id": "unitedstatespostalservice-a77078", "operator": "United States Postal Service", "operator:short": "USPS", "operator:type": "public", "operator:wikidata": "Q668687", "ref": "6904500002"}, "type": "Feature"}
{"geometry": {"coordinates": [-101.3713165405, 40.4186766495], "type": "Point"}, "id": "B1_iWKHng9MXrdYX5FWMVKkBvdM=", "properties": {"@source_uri": "https://tools.usps.com/UspsToolsRestServices/rest/POLocator/findLocations", "@spider": "usps_collection_boxes", "addr:city": "WAUNETA", "addr:country": "US", "addr:postcode": "69045", "addr:state": "NE", "addr:street_address": "215 N TECUMSEH", "amenity": "post_box", "collection_times": "Mo-Fr 15:00; Sa 09:45", "indoor": "yes", "note": "ON 12/24 AND 12/31, THIS BOX MAY BE COLLECTED AS EARLY AS 12 NOON.", "nsi_id": "unitedstatespostalservice-a77078", "operator": "United States Postal Service", "operator:short": "USPS", "operator:type": "public", "operator:wikidata": "Q668687", "ref": "6904500004"}, "type": "Feature"}
{"geometry": {"coordinates": [-100.10689, 40.10731], "type": "Point"}, "id": "pHyXDBm2KbTUFwO5c903QZmMVyM=", "properties": {"@source_uri": "https://tools.usps.com/UspsToolsRestServices/rest/POLocator/findLocations", "@spider": "usps_collection_boxes", "addr:city": "WILSONVILLE", "addr:country": "US", "addr:postcode": "69046", "addr:state": "NE", "addr:street_address": "706 MAIN ST", "amenity": "post_box", "collection_times": "Mo-Fr 11:45; Sa 09:00", "nsi_id": "unitedstatespostalservice-a77078", "operator": "United States Postal Service", "operator:short": "USPS", "operator:type": "public", "operator:wikidata": "Q668687", "ref": "6904600001"}, "type": "Feature"}
{"geometry": {"coordinates": [-100.10689, 40.10731], "type": "Point"}, "id": "exFDXdIkMvRbq1lLsP71zFJspcM=", "properties": {"@source_uri": "https://tools.usps.com/UspsToolsRestServices/rest/POLocator/findLocations", "@spider": "usps_collection_boxes", "addr:city": "WILSONVILLE", "addr:country": "US", "addr:postcode": "69046", "addr:state": "NE", "addr:street_address": "706 MAIN ST", "amenity": "post_box", "collection_times": "Mo-Fr 11:40; Sa 09:00", "indoor": "yes", "nsi_id": "unitedstatespostalservice-a77078", "operator": "United States Postal Service", "operator:short": "USPS", "operator:type": "public", "operator:wikidata": "Q668687", "ref": "6904600002"}, "type": "Feature"}
{"geometry": {"coordinates": [-100.10692565, 40.1138923], "type": "Point"}, "id": "rrg4y-BSG6ypBTCPhOQT9MIArbs=", "properties": {"@source_uri": "https://tools.usps.com/UspsToolsRestServices/rest/POLocator/findLocations", "@spider": "usps_collection_boxes", "addr:city": "WILSONVILLE", "addr:country": "US", "addr:postcode": "69046", "addr:state": "NE", "addr:street_address": "706 MAIN ST", "amenity": "post_box", "collection_times": "Mo-Fr 11:40; Sa 09:00", "indoor": "yes", "nsi_id": "unitedstatespostalservice-a77078", "operator": "United States Postal Service", "operator:short": "USPS", "operator:type": "public", "operator:wikidata": "Q668687", "ref": "6904600004"}, "type": "Feature"}
