{"geometry": {"coordinates": [-100.758518, 41.1206], "type": "Point"}, "id": "l39wOZYZN0uf-WmVizbEoO1SwUA=", "properties": {"@source_uri": "https://tools.usps.com/UspsToolsRestServices/rest/POLocator/findLocations", "@spider": "usps_collection_boxes", "addr:city": "NORTH PLATTE", "addr:country": "US", "addr:postcode": "69101", "addr:state": "NE", "addr:street_address": "1401 S DEWEY ST", "amenity": "post_box", "collection_times": "Mo-Sa 11:00", "nsi_id": "unitedstatespostalservice-a77078", "operator": "United States Postal Service", "operator:short": "USPS", "operator:type": "public", "operator:wikidata": "Q668687", "ref": "6910100001"}, "type": "Feature"}
{"geometry": {"coordinates": [-100.785462, 41.133711], "type": "Point"}, "id": "6llULSLxDw8-sq76tsBHMqa_ivU=", "properties": {"@source_uri": "https://tools.usps.com/UspsToolsRestServices/rest/POLocator/findLocations", "@spider": "usps_collection_boxes", "addr:city": "NORTH PLATTE", "addr:country": "US", "addr:postcode": "69101", "addr:state": "NE", "addr:street_address": "1801 W A ST", "amenity": "post_box", "collection_times": "Mo-Sa 10:45", "nsi_id": "unitedstatespostalservice-a77078", "operator": "United States Postal Service", "operator:short": "USPS", "operator:type": "public", "operator:wikidata": "Q668687", "ref": "6910100007"}, "type": "Feature"}
{"geometry": {"coordinates": [-100.760394, 41.138428], "type": "Point"}, "id": "NZbmRO7oBMGW_uHp6cDiEL6wo6k=", "properties": {"@source_uri": "https://tools.usps.com/UspsToolsRestServices/rest/POLocator/findLocations", "@spider": "usps_collection_boxes", "addr:city": "NORTH PLATTE", "addr:country": "US", "addr:postcode": "69101", "addr:state": "NE", "addr:street_address": "200 E 6TH ST", "amenity": "post_box", "collection_times": "Mo-Sa 10:45", "nsi_id": "unitedstatespostalservice-a77078", "operator": "United States Postal Service", "operator:short": "USPS", "operator:type": "public", "operator:wikidata": "Q668687", "ref": "6910100009"}, "type": "Feature"}
{"geometry": {"coordinates": [-100.764615, 41.13255], "type": "Point"}, "id": "ZSTmMQMeq4ceNGriAPcRLOLpaA4=", "properties": {"@source_uri": "https://tools.usps.com/UspsToolsRestServices/rest/POLocator/findLocations", "@spider": "usps_collection_boxes", "addr:city": "NORTH PLATTE", "addr:country": "US", "addr:postcode": "69101", "addr:state": "NE", "addr:street_address": "410 RODEO RD", "amenity": "post_box", "collection_times": "Mo-Sa 10:45", "nsi_id": "unitedstatespostalservice-a77078", "operator": "United States Postal Service", "operator:short": "USPS", "operator:type": "public", "operator:wikidata": "Q668687", "ref": "6910100013"}, "type": "Feature"}
{"geometry": {"coordinates": [-100.764491, 41.108039], "type": "Point"}, "id": "2KOVh3w42IrM4ZrFc5MX-F88Hlw=", "properties": {"@source_uri": "https://tools.usps.com/UspsToolsRestServices/rest/POLocator/findLocations", "@spider": "usps_collection_boxes", "addr:city": "NORTH PLATTE", "addr:country": "US", "addr:postcode": "69101", "addr:state": "NE", "addr:street_address": "301 W EUGENE AVE", "amenity": "post_box", "collection_times": "Mo-Sa 10:45", "nsi_id": "unitedstatespostalservice-a77078", "operator": "United States Postal Service", "operator:short": "USPS", "operator:type": "public", "operator:wikidata": "Q668687", "ref": "6910100014"}, "type": "Feature"}
{"geometry": {"coordinates": [-100.766609, 41.129386], "type": "Point"}, "id": "oA2EIGRiTKFMywvBANXvWj0ySl4=", "properties": {"@source_uri": "https://tools.usps.com/UspsToolsRestServices/rest/POLocator/findLocations", "@spider": "usps_collection_boxes", "addr:city": "NORTH PLATTE", "addr:country": "US", "addr:postcode": "69101", "addr:state": "NE", "addr:street_address": "301 W F ST", "amenity": "post_box", "collection_times": "Mo-Sa 10:45", "nsi_id": "unitedstatespostalservice-a77078", "operator": "United States Postal Service", "operator:short": "USPS", "operator:type": "public", "operator:wikidata": "Q668687", "ref": "6910100017"}, "type": "Feature"}
{"geometry": {"coordinates": [-100.766765, 41.12094], "type": "Point"}, "id": "dCFkq6hr2-tkha-SkW3SZIGYFUw=", "properties": {"@source_uri": "https://tools.usps.com/UspsToolsRestServices/rest/POLocator/findLocations", "@spider": "usps_collection_boxes", "addr:city": "NORTH PLATTE", "addr:country": "US", "addr:postcode": "69101", "addr:state": "NE", "addr:street_address": "211 W LEOTA ST", "amenity": "post_box", "collection_times": "Mo-Sa 10:45", "nsi_id": "unitedstatespostalservice-a77078", "operator": "United States Postal Service", "operator:short": "USPS", "operator:type": "public", "operator:wikidata": "Q668687", "ref": "6910100020"}, "type": "Feature"}
{"geometry": {"coordinates": [-100.764879, 41.135834], "type": "Point"}, "id": "OYUFGxCnE6SkNag8zk5ME7qpDnI=", "properties": {"@source_uri": "https://tools.usps.com/UspsToolsRestServices/rest/POLocator/findLocations", "@spider": "usps_collection_boxes", "addr:city": "NORTH PLATTE", "addr:country": "US", "addr:postcode": "69101", "addr:state": "NE", "addr:street_address": "201 W 3RD ST", "amenity": "post_box", "collection_times": "Mo-Sa 10:45", "nsi_id": "unitedstatespostalservice-a77078", "operator": "United States Postal Service", "operator:short": "USPS", "operator:type": "public", "operator:wikidata": "Q668687", "ref": "6910100021"}, "type": "Feature"}
{"geometry": {"coordinates": [-100.760344, 41.135062], "type": "Point"}, "id": "zX0E-bkHuwM31vyYQUS0TeBo7cg=", "properties": {"@source_uri": "https://tools.usps.com/UspsToolsRestServices/rest/POLocator/findLocations", "@spider": "usps_collection_boxes", "addr:city": "NORTH PLATTE", "addr:country": "US", "addr:postcode": "69101", "addr:state": "NE", "addr:street_address": "300 E 3RD ST", "amenity": "post_box", "collection_times": "Mo-Sa 13:00", "note": "ON 12/24 AND 12/31, THIS BOX MAY BE COLLECTED AS EARLY AS 12 NOON.", "nsi_id": "unitedstatespostalservice-a77078", "operator": "United States Postal Service", "operator:short": "USPS", "operator:type": "public", "operator:wikidata": "Q668687", "ref": "6910100028"}, "type": "Feature"}
{"geometry": {"coordinates": [-100.739199, 41.121366], "type": "Point"}, "id": "QyNbv6bEkEK7-vRnhCsrWPEV5_0=", "properties": {"@source_uri": "https://tools.usps.com/UspsToolsRestServices/rest/POLocator/findLocations", "@spider": "usps_collection_boxes", "addr:city": "NORTH PLATTE", "addr:country": "US", "addr:postcode": "69101", "addr:state": "NE", "addr:street_address": "1302 INDUSTRIAL AVE", "amenity": "post_box", "collection_times": "Mo-Sa 18:30", "note": "ON 12/24 AND 12/31, THIS BOX MAY BE COLLECTED AS EARLY AS 12 NOON.", "nsi_id": "unitedstatespostalservice-a77078", "operator": "United States Postal Service", "operator:short": "USPS", "operator:type": "public", "operator:wikidata": "Q668687", "ref": "6910100029"}, "type": "Feature"}
{"geometry": {"coordinates": [-100.757754, 41.123693], "type": "Point"}, "id": "-vfCMMdi6AbbrkhX8ogBfihpNMM=", "properties": {"@source_uri": "https://tools.usps.com/UspsToolsRestServices/rest/POLocator/findLocations", "@spider": "usps_collection_boxes", "addr:city": "NORTH PLATTE", "addr:country": "US", "addr:postcode": "69101", "addr:state": "NE", "addr:street_address": "601 E FRANCIS ST", "amenity": "post_box", "collection_times": "Mo-Sa 10:45", "nsi_id": "unitedstatespostalservice-a77078", "operator": "United States Postal Service", "operator:short": "USPS", "operator:type": "public", "operator:wikidata": "Q668687", "ref": "6910100032"}, "type": "Feature"}
{"geometry": {"coordinates": [-100.739672, 41.121198], "type": "Point"}, "id": "tFzcMzTA7eg1GZzmf3eSY40U0oY=", "properties": {"@source_uri": "https://tools.usps.com/UspsToolsRestServices/rest/POLocator/findLocations", "@spider": "usps_collection_boxes", "addr:city": "NORTH PLATTE", "addr:country": "US", "addr:postcode": "69101", "addr:state": "NE", "addr:street_address": "1302 INDUSTRIAL AVE", "amenity": "post_box", "collection_times": "Mo-Fr 16:45; Sa 11:45", "indoor": "yes", "note": "ON 12/24 AND 12/31, THIS BOX MAY BE COLLECTED AS EARLY AS 12 NOON.", "nsi_id": "unitedstatespostalservice-a77078", "operator": "United States Postal Service", "operator:short": "USPS", "operator:type": "public", "operator:wikidata": "Q668687", "ref": "6910100038"}, "type": "Feature"}
{"geometry": {"coordinates": [-100.726636, 41.101283], "type": "Point"}, "id": "LZfpp8Punh5zaTIgjxRzYKfldZk=", "properties": {"@source_uri": "https://tools.usps.com/UspsToolsRestServices/rest/POLocator/findLocations", "@spider": "usps_collection_boxes", "addr:city": "NORTH PLATTE", "addr:country": "US", "addr:postcode": "69101", "addr:state": "NE", "addr:street_address": "3400 NEWBERRY RD", "amenity": "post_box", "collection_times": "Mo-Sa 10:45", "nsi_id": "unitedstatespostalservice-a77078", "operator": "United States Postal Service", "operator:short": "USPS", "operator:type": "public", "operator:wikidata": "Q668687", "ref": "6910100039"}, "type": "Feature"}
{"geometry": {"coordinates": [-100.761134, 41.145161], "type": "Point"}, "id": "Q9yuPTnkfe4JNuMpjpGqcogwAwc=", "properties": {"@source_uri": "https://tools.usps.com/UspsToolsRestServices/rest/POLocator/findLocations", "@spider": "usps_collection_boxes", "addr:city": "NORTH PLATTE", "addr:country": "US", "addr:postcode": "69101", "addr:state": "NE", "addr:street_address": "1021 N JEFFERS ST", "amenity": "post_box", "collection_times": "Mo-Fr 11:00; Sa 10:45", "nsi_id": "unitedstatespostalservice-a77078", "operator": "United States Postal Service", "operator:short": "USPS", "operator:type": "public", "operator:wikidata": "Q668687", "ref": "6910100040"}, "type": "Feature"}
{"geometry": {"coordinates": [-100.7389666834, 41.121987404], "type": "Point"}, "id": "Glsf7gGDMfL4i_TUUKBNUptdzAc=", "properties": {"@source_uri": "https://tools.usps.com/UspsToolsRestServices/rest/POLocator/findLocations", "@spider": "usps_collection_boxes", "addr:city": "NORTH PLATTE", "addr:country": "US", "addr:postcode": "69101", "addr:state": "NE", "addr:street_address": "1302 INDUSTRIAL AVE", "amenity": "post_box", "collection_times": "Mo-Fr 16:45; Sa 11:45", "indoor": "yes", "note": "ON 12/24 AND 12/31, THIS BOX MAY BE COLLECTED AS EARLY AS 12 NOON.", "nsi_id": "unitedstatespostalservice-a77078", "operator": "United States Postal Service", "operator:short": "USPS", "operator:type": "public", "operator:wikidata": "Q668687", "ref": "6910100044"}, "type": "Feature"}
{"geometry": {"coordinates": [-100.194824107, 41.421570415], "type": "Point"}, "id": "qwXVMBjNGI4JveLLbDt_IfTr8vE=", "properties": {"@source_uri": "https://tools.usps.com/UspsToolsRestServices/rest/POLocator/findLocations", "@spider": "usps_collection_boxes", "addr:city": "ARNOLD", "addr:country": "US", "addr:postcode": "69120", "addr:state": "NE", "addr:street_address": "214 S WALNUT ST", "amenity": "post_box", "collection_times": "Mo-Sa 16:30", "note": "ON 12/24 AND 12/31, THIS BOX MAY BE COLLECTED AS EARLY AS 12 NOON.", "nsi_id": "unitedstatespostalservice-a77078", "operator": "United States Postal Service", "operator:short": "USPS", "operator:type": "public", "operator:wikidata": "Q668687", "ref": "6912000001"}, "type": "Feature"}
{"geometry": {"coordinates": [-100.194824107, 41.421570415], "type": "Point"}, "id": "FMEV7nT2ZdRdV9P0-pxibgwDNKc=", "properties": {"@source_uri": "https://tools.usps.com/UspsToolsRestServices/rest/POLocator/findLocations", "@spider": "usps_collection_boxes", "addr:city": "ARNOLD", "addr:country": "US", "addr:postcode": "69120", "addr:state": "NE", "addr:street_address": "214 S WALNUT ST", "amenity": "post_box", "collection_times": "Mo-Fr 14:45; Sa 09:15", "indoor": "yes", "note": "ON 12/24 AND 12/31, THIS BOX MAY BE COLLECTED AS EARLY AS 12 NOON.", "nsi_id": "unitedstatespostalservice-a77078", "operator": "United States Postal Service", "operator:short": "USPS", "operator:type": "public", "operator:wikidata": "Q668687", "ref": "6912000002"}, "type": "Feature"}
{"geometry": {"coordinates": [-100.194824107, 41.421570415], "type": "Point"}, "id": "fU254tIwA4b4Xo1geg-dq3CwEnc=", "properties": {"@source_uri": "https://tools.usps.com/UspsToolsRestServices/rest/POLocator/findLocations", "@spider": "usps_collection_boxes", "addr:city": "ARNOLD", "addr:country": "US", "addr:postcode": "69120", "addr:state": "NE", "addr:street_address": "214 S WALNUT ST", "amenity": "post_box", "collection_times": "Mo-Fr 14:45; Sa 09:15", "indoor": "yes", "note": "ON 12/24 AND 12/31, THIS BOX MAY BE COLLECTED AS EARLY AS 12 NOON.", "nsi_id": "unitedstatespostalservice-a77078", "operator": "United States Postal Service", "operator:short": "USPS", "operator:type": "public", "operator:wikidata": "Q668687", "ref": "6912000003"}, "type": "Feature"}
{"geometry": {"coordinates": [-101.691648, 41.569131], "type": "Point"}, "id": "TtxUfAJP6ooZPPGbvTOY7BgTFfk=", "properties": {"@source_uri": "https://tools.usps.com/UspsToolsRestServices/rest/POLocator/findLocations", "@spider": "usps_collection_boxes", "addr:city": "ARTHUR", "addr:country": "US", "addr:postcode": "69121", "addr:state": "NE", "addr:street_address": "309 FIR ST", "amenity": "post_box", "collection_times": "Mo-Fr 10:05; Sa 09:45", "nsi_id": "unitedstatespostalservice-a77078", "operator": "United States Postal Service", "operator:short": "USPS", "operator:type": "public", "operator:wikidata": "Q668687", "ref": "6912100001"}, "type": "Feature"}
{"geometry": {"coordinates": [-101.691648, 41.569131], "type": "Point"}, "id": "XNDxUtSRN3-Xv0rwaU6qYVShcOM=", "properties": {"@source_uri": "https://tools.usps.com/UspsToolsRestServices/rest/POLocator/findLocations", "@spider": "usps_collection_boxes", "addr:city": "ARTHUR", "addr:country": "US", "addr:postcode": "69121", "addr:state": "NE", "addr:street_address": "309 FIR ST", "amenity": "post_box", "collection_times": "Mo-Fr 10:05; Sa 09:45", "indoor": "yes", "nsi_id": "unitedstatespostalservice-a77078", "operator": "United States Postal Service", "operator:short": "USPS", "operator:type": "public", "operator:wikidata": "Q668687", "ref": "6912100002"}, "type": "Feature"}
{"geometry": {"coordinates": [-101.69149729, 41.570781985], "type": "Point"}, "id": "qqBPgPbuqKh89_5rjLZug1Vn4qM=", "properties": {"@source_uri": "https://tools.usps.com/UspsToolsRestServices/rest/POLocator/findLocations", "@spider": "usps_collection_boxes", "addr:city": "ARTHUR", "addr:country": "US", "addr:postcode": "69121", "addr:state": "NE", "addr:street_address": "309 FIR ST", "amenity": "post_box", "collection_times": "Mo-Fr 10:05; Sa 09:45", "indoor": "yes", "nsi_id": "unitedstatespostalservice-a77078", "operator": "United States Postal Service", "operator:short": "USPS", "operator:type": "public", "operator:wikidata": "Q668687", "ref": "6912100003"}, "type": "Feature"}
{"geometry": {"coordinates": [-102.074574585, 41.062824], "type": "Point"}, "id": "efpkqiqCr2lQJpWsR3HwP_4se6U=", "properties": {"@source_uri": "https://tools.usps.com/UspsToolsRestServices/rest/POLocator/findLocations", "@spider": "usps_collection_boxes", "addr:city": "BIG SPRINGS", "addr:country": "US", "addr:postcode": "69122", "addr:state": "NE", "addr:street_address": "307 PINE ST", "amenity": "post_box", "collection_times": "Mo-Fr 14:15; Sa 08:45", "note": "ON 12/24 AND 12/31, THIS BOX MAY BE COLLECTED AS EARLY AS 12 NOON.", "nsi_id": "unitedstatespostalservice-a77078", "operator": "United States Postal Service", "operator:short": "USPS", "operator:type": "public", "operator:wikidata": "Q668687", "ref": "6912200001"}, "type": "Feature"}
{"geometry": {"coordinates": [-102.074574585, 41.062824], "type": "Point"}, "id": "NsoJfQwHybei67R9mPE8Am3ZmnU=", "properties": {"@source_uri": "https://tools.usps.com/UspsToolsRestServices/rest/POLocator/findLocations", "@spider": "usps_collection_boxes", "addr:city": "BIG SPRINGS", "addr:country": "US", "addr:postcode": "69122", "addr:state": "NE", "addr:street_address": "307 PINE ST", "amenity": "post_box", "collection_times": "Mo-Fr 14:15; Sa 08:45", "indoor": "yes", "note": "ON 12/24 AND 12/31, THIS BOX MAY BE COLLECTED AS EARLY AS 12 NOON.", "nsi_id": "unitedstatespostalservice-a77078", "operator": "United States Postal Service", "operator:short": "USPS", "operator:type": "public", "operator:wikidata": "Q668687", "ref": "6912200002"}, "type": "Feature"}
{"geometry": {"coordinates": [-102.074574585, 41.062824], "type": "Point"}, "id": "r5b5MsdiYqHZsAtU0yTJvSazF34=", "properties": {"@source_uri": "https://tools.usps.com/UspsToolsRestServices/rest/POLocator/findLocations", "@spider": "usps_collection_boxes", "addr:city": "BIG SPRINGS", "addr:country": "US", "addr:postcode": "69122", "addr:state": "NE", "addr:street_address": "307 PINE ST", "amenity": "post_box", "collection_times": "Mo-Fr 14:15; Sa 08:45", "indoor": "yes", "note": "ON 12/24 AND 12/31, THIS BOX MAY BE COLLECTED AS EARLY AS 12 NOON.", "nsi_id": "unitedstatespostalservice-a77078", "operator": "United States Postal Service", "operator:short": "USPS", "operator:type": "public", "operator:wikidata": "Q668687", "ref": "6912200004"}, "type": "Feature"}
{"geometry": {"coordinates": [-100.366733, 41.022751], "type": "Point"}, "id": "GeGhtucsKMiZGxiC6mHjp-XEMe4=", "properties": {"@source_uri": "https://tools.usps.com/UspsToolsRestServices/rest/POLocator/findLocations", "@spider": "usps_collection_boxes", "addr:city": "BRADY", "addr:country": "US", "addr:postcode": "69123", "addr:state": "NE", "addr:street_address": "103 E COMMERCIAL ST", "amenity": "post_box", "collection_times": "Mo-Sa 18:10", "note": "ON 12/24 AND 12/31, THIS BOX MAY BE COLLECTED AS EARLY AS 12 NOON.", "nsi_id": "unitedstatespostalservice-a77078", "operator": "United States Postal Service", "operator:short": "USPS", "operator:type": "public", "operator:wikidata": "Q668687", "ref": "6912300001"}, "type": "Feature"}
{"geometry": {"coordinates": [-100.366733, 41.022751], "type": "Point"}, "id": "0Binn2TJ9zXh6gOIKuJecJy7j7g=", "properties": {"@source_uri": "https://tools.usps.com/UspsToolsRestServices/rest/POLocator/findLocations", "@spider": "usps_collection_boxes", "addr:city": "BRADY", "addr:country": "US", "addr:postcode": "69123", "addr:state": "NE", "addr:street_address": "103 E COMMERCIAL ST", "amenity": "post_box", "collection_times": "Mo-Fr 11:45; Sa 09:15", "indoor": "yes", "nsi_id": "unitedstatespostalservice-a77078", "operator": "United States Postal Service", "operator:short": "USPS", "operator:type": "public", "operator:wikidata": "Q668687", "ref": "6912300002"}, "type": "Feature"}
{"geometry": {"coordinates": [-100.3666820374, 41.0228163851], "type": "Point"}, "id": "4v_6TBmVv2ap2MUnVnLiOj6jEAE=", "properties": {"@source_uri": "https://tools.usps.com/UspsToolsRestServices/rest/POLocator/findLocations", "@spider": "usps_collection_boxes", "addr:city": "BRADY", "addr:country": "US", "addr:postcode": "69123", "addr:state": "NE", "addr:street_address": "103 E COMMERCIAL ST", "amenity": "post_box", "collection_times": "Mo-Fr 11:45; Sa 09:15", "indoor": "yes", "nsi_id": "unitedstatespostalservice-a77078", "operator": "United States Postal Service", "operator:short": "USPS", "operator:type": "public", "operator:wikidata": "Q668687", "ref": "6912300004"}, "type": "Feature"}
{"geometry": {"coordinates": [-102.853699, 41.596968], "type": "Point"}, "id": "QmRs61tKMrGxA2l0ShEsfr_f4e4=", "properties": {"@source_uri": "https://tools.usps.com/UspsToolsRestServices/rest/POLocator/findLocations", "@spider": "usps_collection_boxes", "addr:city": "BROADWATER", "addr:country": "US", "addr:postcode": "69125", "addr:state": "NE", "addr:street_address": "197 MAIN ST", "amenity": "post_box", "collection_times": "Mo-Sa 15:00", "note": "ON 12/24 AND 12/31, THIS BOX MAY BE COLLECTED AS EARLY AS 12 NOON.", "nsi_id": "unitedstatespostalservice-a77078", "operator": "United States Postal Service", "operator:short": "USPS", "operator:type": "public", "operator:wikidata": "Q668687", "ref": "6912500001"}, "type": "Feature"}
{"geometry": {"coordinates": [-102.853725, 41.595568], "type": "Point"}, "id": "VlRFYPzaYslYrvru4yXGHBopfjc=", "properties": {"@source_uri": "https://tools.usps.com/UspsToolsRestServices/rest/POLocator/findLocations", "@spider": "usps_collection_boxes", "addr:city": "BROADWATER", "addr:country": "US", "addr:postcode": "69125", "addr:state": "NE", "addr:street_address": "197 MAIN ST", "amenity": "post_box", "collection_times": "Mo-Fr 11:45; Sa 09:45", "indoor": "yes", "nsi_id": "unitedstatespostalservice-a77078", "operator": "United States Postal Service", "operator:short": "USPS", "operator:type": "public", "operator:wikidata": "Q668687", "ref": "6912500002"}, "type": "Feature"}
{"geometry": {"coordinates": [-102.853687789, 41.595561699], "type": "Point"}, "id": "h7dj9wqVyPOtRH1M9eRjLikAUaE=", "properties": {"@source_uri": "https://tools.usps.com/UspsToolsRestServices/rest/POLocator/findLocations", "@spider": "usps_collection_boxes", "addr:city": "BROADWATER", "addr:country": "US", "addr:postcode": "69125", "addr:state": "NE", "addr:street_address": "197 MAIN ST", "amenity": "post_box", "collection_times": "Mo-Fr 11:45; Sa 09:45", "indoor": "yes", "nsi_id": "unitedstatespostalservice-a77078", "operator": "United States Postal Service", "operator:short": "USPS", "operator:type": "public", "operator:wikidata": "Q668687", "ref": "6912500004"}, "type": "Feature"}
{"geometry": {"coordinates": [-101.888116, 41.092376], "type": "Point"}, "id": "xVriOGvDfbA1TwiIPcs2bKFY9fs=", "properties": {"@source_uri": "https://tools.usps.com/UspsToolsRestServices/rest/POLocator/findLocations", "@spider": "usps_collection_boxes", "addr:city": "BRULE", "addr:country": "US", "addr:postcode": "69127", "addr:state": "NE", "addr:street_address": "118 STATE ST", "amenity": "post_box", "collection_times": "Mo-Sa 17:10", "note": "ON 12/24 AND 12/31, THIS BOX MAY BE COLLECTED AS EARLY AS 12 NOON.", "nsi_id": "unitedstatespostalservice-a77078", "operator": "United States Postal Service", "operator:short": "USPS", "operator:type": "public", "operator:wikidata": "Q668687", "ref": "6912700001"}, "type": "Feature"}
{"geometry": {"coordinates": [-101.888116, 41.092376], "type": "Point"}, "id": "4Cn6YrDpgyyH0AwdLFxRW4_2cO4=", "properties": {"@source_uri": "https://tools.usps.com/UspsToolsRestServices/rest/POLocator/findLocations", "@spider": "usps_collection_boxes", "addr:city": "BRULE", "addr:country": "US", "addr:postcode": "69127", "addr:state": "NE", "addr:street_address": "118 STATE ST", "amenity": "post_box", "collection_times": "Mo-Fr 15:00; Sa 09:45", "indoor": "yes", "note": "ON 12/24 AND 12/31, THIS BOX MAY BE COLLECTED AS EARLY AS 12 NOON.", "nsi_id": "unitedstatespostalservice-a77078", "operator": "United States Postal Service", "operator:short": "USPS", "operator:type": "public", "operator:wikidata": "Q668687", "ref": "6912700002"}, "type": "Feature"}
{"geometry": {"coordinates": [-101.888139368, 41.092346498], "type": "Point"}, "id": "qF40_jT1uAnrBUr3apGC-ekWJZI=", "properties": {"@source_uri": "https://tools.usps.com/UspsToolsRestServices/rest/POLocator/findLocations", "@spider": "usps_collection_boxes", "addr:city": "BRULE", "addr:country": "US", "addr:postcode": "69127", "addr:state": "NE", "addr:street_address": "118 STATE ST", "amenity": "post_box", "collection_times": "Mo-Fr 15:00; Sa 09:45", "indoor": "yes", "note": "ON 12/24 AND 12/31, THIS BOX MAY BE COLLECTED AS EARLY AS 12 NOON.", "nsi_id": "unitedstatespostalservice-a77078", "operator": "United States Postal Service", "operator:short": "USPS", "operator:type": "public", "operator:wikidata": "Q668687", "ref": "6912700004"}, "type": "Feature"}
{"geometry": {"coordinates": [-103.891512, 41.231406], "type": "Point"}, "id": "MYZsTvDD_gugTwEzL9fYfIu1sRo=", "properties": {"@source_uri": "https://tools.usps.com/UspsToolsRestServices/rest/POLocator/findLocations", "@spider": "usps_collection_boxes", "addr:city": "BUSHNELL", "addr:country": "US", "addr:postcode": "69128", "addr:state": "NE", "addr:street_address": "116 ELM ST", "amenity": "post_box", "collection_times": "Mo-Fr 12:45; Sa 10:45", "note": "ON 12/24 AND 12/31, THIS BOX MAY BE COLLECTED AS EARLY AS 12 NOON.", "nsi_id": "unitedstatespostalservice-a77078", "operator": "United States Postal Service", "operator:short": "USPS", "operator:type": "public", "operator:wikidata": "Q668687", "ref": "6912800001"}, "type": "Feature"}
{"geometry": {"coordinates": [-103.891445, 41.231362], "type": "Point"}, "id": "EiOzTNOaFI-cIXmeX6DkLCL9OTo=", "properties": {"@source_uri": "https://tools.usps.com/UspsToolsRestServices/rest/POLocator/findLocations", "@spider": "usps_collection_boxes", "addr:city": "BUSHNELL", "addr:country": "US", "addr:postcode": "69128", "addr:state": "NE", "addr:street_address": "116 ELM ST", "amenity": "post_box", "collection_times": "Mo-Fr 12:45; Sa 10:00", "indoor": "yes", "note": "ON 12/24 AND 12/31, THIS BOX MAY BE COLLECTED AS EARLY AS 12 NOON.", "nsi_id": "unitedstatespostalservice-a77078", "operator": "United States Postal Service", "operator:short": "USPS", "operator:type": "public", "operator:wikidata": "Q668687", "ref": "6912800002"}, "type": "Feature"}
{"geometry": {"coordinates": [-103.891802015, 41.231862357], "type": "Point"}, "id": "LWQnGuwMIjjLjm31AZWhKuvSbcw=", "properties": {"@source_uri": "https://tools.usps.com/UspsToolsRestServices/rest/POLocator/findLocations", "@spider": "usps_collection_boxes", "addr:city": "BUSHNELL", "addr:country": "US", "addr:postcode": "69128", "addr:state": "NE", "addr:street_address": "116 ELM ST", "amenity": "post_box", "collection_times": "Mo-Fr 12:45; Sa 10:00", "indoor": "yes", "note": "ON 12/24 AND 12/31, THIS BOX MAY BE COLLECTED AS EARLY AS 12 NOON.", "nsi_id": "unitedstatespostalservice-a77078", "operator": "United States Postal Service", "operator:short": "USPS", "operator:type": "public", "operator:wikidata": "Q668687", "ref": "6912800004"}, "type": "Feature"}
{"geometry": {"coordinates": [-102.472285, 41.092311], "type": "Point"}, "id": "A2zyzahcmwy9ESFOmG2OD-nmcYI=", "properties": {"@source_uri": "https://tools.usps.com/UspsToolsRestServices/rest/POLocator/findLocations", "@spider": "usps_collection_boxes", "addr:city": "CHAPPELL", "addr:country": "US", "addr:postcode": "69129", "addr:state": "NE", "addr:street_address": "190 VINCENT AVE", "amenity": "post_box", "collection_times": "Mo-Sa 16:00", "note": "ON 12/24 AND 12/31, THIS BOX MAY BE COLLECTED AS EARLY AS 12 NOON.", "nsi_id": "unitedstatespostalservice-a77078", "operator": "United States Postal Service", "operator:short": "USPS", "operator:type": "public", "operator:wikidata": "Q668687", "ref": "6912900001"}, "type": "Feature"}
{"geometry": {"coordinates": [-102.472285, 41.092311], "type": "Point"}, "id": "hnoX3v0Q1H_8OL3QX0LX5ujTJ6M=", "properties": {"@source_uri": "https://tools.usps.com/UspsToolsRestServices/rest/POLocator/findLocations", "@spider": "usps_collection_boxes", "addr:city": "CHAPPELL", "addr:country": "US", "addr:postcode": "69129", "addr:state": "NE", "addr:street_address": "190 VINCENT AVE", "amenity": "post_box", "collection_times": "Mo-Fr 16:00; Sa 09:45", "indoor": "yes", "note": "ON 12/24 AND 12/31, THIS BOX MAY BE COLLECTED AS EARLY AS 12 NOON.", "nsi_id": "unitedstatespostalservice-a77078", "operator": "United States Postal Service", "operator:short": "USPS", "operator:type": "public", "operator:wikidata": "Q668687", "ref": "6912900002"}, "type": "Feature"}
{"geometry": {"coordinates": [-102.472283527, 41.0923084191], "type": "Point"}, "id": "Tz3F0iiNF6GQCZAqbNDBqWmw0Hk=", "properties": {"@source_uri": "https://tools.usps.com/UspsToolsRestServices/rest/POLocator/findLocations", "@spider": "usps_collection_boxes", "addr:city": "CHAPPELL", "addr:country": "US", "addr:postcode": "69129", "addr:state": "NE", "addr:street_address": "190 VINCENT AVE", "amenity": "post_box", "collection_times": "Mo-Fr 16:00; Sa 09:45", "indoor": "yes", "note": "ON 12/24 AND 12/31, THIS BOX MAY BE COLLECTED AS EARLY AS 12 NOON.", "nsi_id": "unitedstatespostalservice-a77078", "operator": "United States Postal Service", "operator:short": "USPS", "operator:type": "public", "operator:wikidata": "Q668687", "ref": "6912900004"}, "type": "Feature"}
{"geometry": {"coordinates": [-99.98589, 40.860598], "type": "Point"}, "id": "1pZVBSenz2PzhSuPDsCs1BAT7Sg=", "properties": {"@source_uri": "https://tools.usps.com/UspsToolsRestServices/rest/POLocator/findLocations", "@spider": "usps_collection_boxes", "addr:city": "COZAD", "addr:country": "US", "addr:postcode": "69130", "addr:state": "NE", "addr:street_address": "102 E 9TH ST", "amenity": "post_box", "collection_times": "Mo-Sa 17:25", "note": "ON 12/24 AND 12/31, THIS BOX MAY BE COLLECTED AS EARLY AS 12 NOON.", "nsi_id": "unitedstatespostalservice-a77078", "operator": "United States Postal Service", "operator:short": "USPS", "operator:type": "public", "operator:wikidata": "Q668687", "ref": "6913000002"}, "type": "Feature"}
{"geometry": {"coordinates": [-99.98589, 40.860598], "type": "Point"}, "id": "NkR748UoJ3GMcLiNu_TybolKUSQ=", "properties": {"@source_uri": "https://tools.usps.com/UspsToolsRestServices/rest/POLocator/findLocations", "@spider": "usps_collection_boxes", "addr:city": "COZAD", "addr:country": "US", "addr:postcode": "69130", "addr:state": "NE", "addr:street_address": "102 E 9TH ST", "amenity": "post_box", "collection_times": "Mo-Fr 16:15; Sa 10:45", "indoor": "yes", "note": "ON 12/24 AND 12/31, THIS BOX MAY BE COLLECTED AS EARLY AS 12 NOON.", "nsi_id": "unitedstatespostalservice-a77078", "operator": "United States Postal Service", "operator:short": "USPS", "operator:type": "public", "operator:wikidata": "Q668687", "ref": "6913000003"}, "type": "Feature"}
{"geometry": {"coordinates": [-99.9855135, 40.860594512], "type": "Point"}, "id": "zIVxvFX0HQV2xjeYvGis3ZzQgiU=", "properties": {"@source_uri": "https://tools.usps.com/UspsToolsRestServices/rest/POLocator/findLocations", "@spider": "usps_collection_boxes", "addr:city": "COZAD", "addr:country": "US", "addr:postcode": "69130", "addr:state": "NE", "addr:street_address": "102 E 9TH ST", "amenity": "post_box", "collection_times": "Mo-Fr 16:15; Sa 10:45", "indoor": "yes", "note": "ON 12/24 AND 12/31, THIS BOX MAY BE COLLECTED AS EARLY AS 12 NOON.", "nsi_id": "unitedstatespostalservice-a77078", "operator": "United States Postal Service", "operator:short": "USPS", "operator:type": "public", "operator:wikidata": "Q668687", "ref": "6913000005"}, "type": "Feature"}
{"geometry": {"coordinates": [-102.973423332, 41.407162479], "type": "Point"}, "id": "kksqwtftvsOPEFFLzfjA66xIVvw=", "properties": {"@source_uri": "https://tools.usps.com/UspsToolsRestServices/rest/POLocator/findLocations", "@spider": "usps_collection_boxes", "addr:city": "DALTON", "addr:country": "US", "addr:postcode": "69131", "addr:state": "NE", "addr:street_address": "314 MAIN ST", "amenity": "post_box", "collection_times": "Mo-Fr 15:00; Sa 11:00", "note": "ON 12/24 AND 12/31, THIS BOX MAY BE COLLECTED AS EARLY AS 12 NOON.", "nsi_id": "unitedstatespostalservice-a77078", "operator": "United States Postal Service", "operator:short": "USPS", "operator:type": "public", "operator:wikidata": "Q668687", "ref": "6913100001"}, "type": "Feature"}
{"geometry": {"coordinates": [-102.973423332, 41.407162479], "type": "Point"}, "id": "Ttgxsdz4aGWPzcLlgN35xjj3-c0=", "properties": {"@source_uri": "https://tools.usps.com/UspsToolsRestServices/rest/POLocator/findLocations", "@spider": "usps_collection_boxes", "addr:city": "DALTON", "addr:country": "US", "addr:postcode": "69131", "addr:state": "NE", "addr:street_address": "314 MAIN ST", "amenity": "post_box", "collection_times": "Mo-Fr 14:45; Sa 10:00", "indoor": "yes", "note": "ON 12/24 AND 12/31, THIS BOX MAY BE COLLECTED AS EARLY AS 12 NOON.", "nsi_id": "unitedstatespostalservice-a77078", "operator": "United States Postal Service", "operator:short": "USPS", "operator:type": "public", "operator:wikidata": "Q668687", "ref": "6913100002"}, "type": "Feature"}
{"geometry": {"coordinates": [-102.973423332, 41.407162479], "type": "Point"}, "id": "geg6BqekhUgm8AmmnaK7u2GD1Nc=", "properties": {"@source_uri": "https://tools.usps.com/UspsToolsRestServices/rest/POLocator/findLocations", "@spider": "usps_collection_boxes", "addr:city": "DALTON", "addr:country": "US", "addr:postcode": "69131", "addr:state": "NE", "addr:street_address": "314 MAIN ST", "amenity": "post_box", "collection_times": "Mo-Fr 14:45; Sa 10:00", "indoor": "yes", "note": "ON 12/24 AND 12/31, THIS BOX MAY BE COLLECTED AS EARLY AS 12 NOON.", "nsi_id": "unitedstatespostalservice-a77078", "operator": "United States Postal Service", "operator:short": "USPS", "operator:type": "public", "operator:wikidata": "Q668687", "ref": "6913100003"}, "type": "Feature"}
{"geometry": {"coordinates": [-100.996469, 40.827498], "type": "Point"}, "id": "agfclSuhrvifwv6YaOF6lVLCvj0=", "properties": {"@source_uri": "https://tools.usps.com/UspsToolsRestServices/rest/POLocator/findLocations", "@spider": "usps_collection_boxes", "addr:city": "DICKENS", "addr:country": "US", "addr:postcode": "69132", "addr:state": "NE", "addr:street_address": "33994 ADRIAN AVE", "amenity": "post_box", "collection_times": "Mo-Sa 17:45", "note": "ON 12/24 AND 12/31, THIS BOX MAY BE COLLECTED AS EARLY AS 12 NOON.", "nsi_id": "unitedstatespostalservice-a77078", "operator": "United States Postal Service", "operator:short": "USPS", "operator:type": "public", "operator:wikidata": "Q668687", "ref": "6913200001"}, "type": "Feature"}
{"geometry": {"coordinates": [-103.4874566639, 41.2349999409], "type": "Point"}, "id": "Zxarvekl2PfhNx1K8dM4JV9I6G0=", "properties": {"@source_uri": "https://tools.usps.com/UspsToolsRestServices/rest/POLocator/findLocations", "@spider": "usps_collection_boxes", "addr:city": "DIX", "addr:country": "US", "addr:postcode": "69133", "addr:state": "NE", "addr:street_address": "115 MYRTLE ST", "amenity": "post_box", "collection_times": "Mo-Fr 11:45; Sa 08:45", "nsi_id": "unitedstatespostalservice-a77078", "operator": "United States Postal Service", "operator:short": "USPS", "operator:type": "public", "operator:wikidata": "Q668687", "ref": "6913300001"}, "type": "Feature"}
{"geometry": {"coordinates": [-103.4874566639, 41.2349999409], "type": "Point"}, "id": "KcbOQDlfrB0zTg7Wfx5sXiGmMyQ=", "properties": {"@source_uri": "https://tools.usps.com/UspsToolsRestServices/rest/POLocator/findLocations", "@spider": "usps_collection_boxes", "addr:city": "DIX", "addr:country": "US", "addr:postcode": "69133", "addr:state": "NE", "addr:street_address": "115 MYRTLE ST", "amenity": "post_box", "collection_times": "Mo-Fr 11:45; Sa 08:45", "indoor": "yes", "nsi_id": "unitedstatespostalservice-a77078", "operator": "United States Postal Service", "operator:short": "USPS", "operator:type": "public", "operator:wikidata": "Q668687", "ref": "6913300004"}, "type": "Feature"}
{"geometry": {"coordinates": [-103.4874566639, 41.2349999409], "type": "Point"}, "id": "sNiBVZxyFi0EXwVqxHaLBq0W-oE=", "properties": {"@source_uri": "https://tools.usps.com/UspsToolsRestServices/rest/POLocator/findLocations", "@spider": "usps_collection_boxes", "addr:city": "DIX", "addr:country": "US", "addr:postcode": "69133", "addr:state": "NE", "addr:street_address": "115 MYRTLE ST", "amenity": "post_box", "collection_times": "Mo-Fr 11:45; Sa 08:45", "indoor": "yes", "nsi_id": "unitedstatespostalservice-a77078", "operator": "United States Postal Service", "operator:short": "USPS", "operator:type": "public", "operator:wikidata": "Q668687", "ref": "6913300006"}, "type": "Feature"}
{"geometry": {"coordinates": [-101.388768, 40.846811], "type": "Point"}, "id": "tQAD9yLxUI059Nx-6obXh8dWCXE=", "properties": {"@source_uri": "https://tools.usps.com/UspsToolsRestServices/rest/POLocator/findLocations", "@spider": "usps_collection_boxes", "addr:city": "ELSIE", "addr:country": "US", "addr:postcode": "69134", "addr:state": "NE", "addr:street_address": "105 PERKINS AVE", "amenity": "post_box", "collection_times": "Mo-Fr 11:45; Sa 09:15", "nsi_id": "unitedstatespostalservice-a77078", "operator": "United States Postal Service", "operator:short": "USPS", "operator:type": "public", "operator:wikidata": "Q668687", "ref": "6913400001"}, "type": "Feature"}
{"geometry": {"coordinates": [-101.388768, 40.846811], "type": "Point"}, "id": "6tFtAtj_k6MaAn6zhbAZ6iS74jA=", "properties": {"@source_uri": "https://tools.usps.com/UspsToolsRestServices/rest/POLocator/findLocations", "@spider": "usps_collection_boxes", "addr:city": "ELSIE", "addr:country": "US", "addr:postcode": "69134", "addr:state": "NE", "addr:street_address": "105 PERKINS AVE", "amenity": "post_box", "collection_times": "Mo-Fr 11:45; Sa 09:15", "indoor": "yes", "nsi_id": "unitedstatespostalservice-a77078", "operator": "United States Postal Service", "operator:short": "USPS", "operator:type": "public", "operator:wikidata": "Q668687", "ref": "6913400002"}, "type": "Feature"}
{"geometry": {"coordinates": [-101.388766853, 40.846806335], "type": "Point"}, "id": "CMoneiEVggRwJAhhe6_hUHTNqSQ=", "properties": {"@source_uri": "https://tools.usps.com/UspsToolsRestServices/rest/POLocator/findLocations", "@spider": "usps_collection_boxes", "addr:city": "ELSIE", "addr:country": "US", "addr:postcode": "69134", "addr:state": "NE", "addr:street_address": "105 PERKINS AVE", "amenity": "post_box", "collection_times": "Mo-Fr 11:45; Sa 09:15", "indoor": "yes", "nsi_id": "unitedstatespostalservice-a77078", "operator": "United States Postal Service", "operator:short": "USPS", "operator:type": "public", "operator:wikidata": "Q668687", "ref": "6913400004"}, "type": "Feature"}
{"geometry": {"coordinates": [-100.161070041, 40.928729983], "type": "Point"}, "id": "3TNB8syMhxyixfClL5Xu9piyhg8=", "properties": {"@source_uri": "https://tools.usps.com/UspsToolsRestServices/rest/POLocator/findLocations", "@spider": "usps_collection_boxes", "addr:city": "GOTHENBURG", "addr:country": "US", "addr:postcode": "69138", "addr:state": "NE", "addr:street_address": "1021 LAKE AVE", "amenity": "post_box", "collection_times": "Mo-Sa 17:50", "note": "ON 12/24 AND 12/31, THIS BOX MAY BE COLLECTED AS EARLY AS 12 NOON.", "nsi_id": "unitedstatespostalservice-a77078", "operator": "United States Postal Service", "operator:short": "USPS", "operator:type": "public", "operator:wikidata": "Q668687", "ref": "6913800003"}, "type": "Feature"}
{"geometry": {"coordinates": [-100.161216, 40.928781], "type": "Point"}, "id": "a0vdd-R9dHGnLxuiT-CepLkE6hQ=", "properties": {"@source_uri": "https://tools.usps.com/UspsToolsRestServices/rest/POLocator/findLocations", "@spider": "usps_collection_boxes", "addr:city": "GOTHENBURG", "addr:country": "US", "addr:postcode": "69138", "addr:state": "NE", "addr:street_address": "1021 LAKE AVE", "amenity": "post_box", "collection_times": "Mo-Fr 16:15; Sa 09:45", "indoor": "yes", "note": "ON 12/24 AND 12/31, THIS BOX MAY BE COLLECTED AS EARLY AS 12 NOON.", "nsi_id": "unitedstatespostalservice-a77078", "operator": "United States Postal Service", "operator:short": "USPS", "operator:type": "public", "operator:wikidata": "Q668687", "ref": "6913800004"}, "type": "Feature"}
{"geometry": {"coordinates": [-100.161216253, 40.928774543], "type": "Point"}, "id": "DDNqx7t_3FGWPZJqYZt3E3X_6jw=", "properties": {"@source_uri": "https://tools.usps.com/UspsToolsRestServices/rest/POLocator/findLocations", "@spider": "usps_collection_boxes", "addr:city": "GOTHENBURG", "addr:country": "US", "addr:postcode": "69138", "addr:state": "NE", "addr:street_address": "1021 LAKE AVE", "amenity": "post_box", "collection_times": "Mo-Fr 16:15; Sa 09:45", "indoor": "yes", "note": "ON 12/24 AND 12/31, THIS BOX MAY BE COLLECTED AS EARLY AS 12 NOON.", "nsi_id": "unitedstatespostalservice-a77078", "operator": "United States Postal Service", "operator:short": "USPS", "operator:type": "public", "operator:wikidata": "Q668687", "ref": "6913800006"}, "type": "Feature"}
{"geometry": {"coordinates": [-101.7250917968, 40.8430501583], "type": "Point"}, "id": "uFI288BygtTbwMRcboR0HrfQYN8=", "properties": {"@source_uri": "https://tools.usps.com/UspsToolsRestServices/rest/POLocator/findLocations", "@spider": "usps_collection_boxes", "addr:city": "GRANT", "addr:country": "US", "addr:postcode": "69140", "addr:state": "NE", "addr:street_address": "409 CENTRAL AVE", "amenity": "post_box", "collection_times": "Mo-Sa 15:45", "note": "ON 12/24 AND 12/31, THIS BOX MAY BE COLLECTED AS EARLY AS 12 NOON.", "nsi_id": "unitedstatespostalservice-a77078", "operator": "United States Postal Service", "operator:short": "USPS", "operator:type": "public", "operator:wikidata": "Q668687", "ref": "6914000001"}, "type": "Feature"}
{"geometry": {"coordinates": [-101.91244, 40.802994], "type": "Point"}, "id": "G8UT5NldSi2aBz9_0qMPFw8443g=", "properties": {"@source_uri": "https://tools.usps.com/UspsToolsRestServices/rest/POLocator/findLocations", "@spider": "usps_collection_boxes", "addr:city": "GRANT", "addr:country": "US", "addr:postcode": "69140", "addr:state": "NE", "addr:street_address": "100 MAIN AVE", "amenity": "post_box", "collection_times": "Mo-Sa 15:25", "note": "ON 12/24 AND 12/31, THIS BOX MAY BE COLLECTED AS EARLY AS 12 NOON.", "nsi_id": "unitedstatespostalservice-a77078", "operator": "United States Postal Service", "operator:short": "USPS", "operator:type": "public", "operator:wikidata": "Q668687", "ref": "6914000002"}, "type": "Feature"}
{"geometry": {"coordinates": [-101.7250917968, 40.8430501583], "type": "Point"}, "id": "m7UJF4tKOsQU_d7ZoNEiD6cu_3M=", "properties": {"@source_uri": "https://tools.usps.com/UspsToolsRestServices/rest/POLocator/findLocations", "@spider": "usps_collection_boxes", "addr:city": "GRANT", "addr:country": "US", "addr:postcode": "69140", "addr:state": "NE", "addr:street_address": "409 CENTRAL AVE", "amenity": "post_box", "collection_times": "Mo-Fr 15:45; Sa 11:15", "indoor": "yes", "note": "ON 12/24 AND 12/31, THIS BOX MAY BE COLLECTED AS EARLY AS 12 NOON.", "nsi_id": "unitedstatespostalservice-a77078", "operator": "United States Postal Service", "operator:short": "USPS", "operator:type": "public", "operator:wikidata": "Q668687", "ref": "6914000003"}, "type": "Feature"}
{"geometry": {"coordinates": [-101.7250917968, 40.8430501583], "type": "Point"}, "id": "Wd1cm7R-gtIOIGc7amcWmoHCkfw=", "properties": {"@source_uri": "https://tools.usps.com/UspsToolsRestServices/rest/POLocator/findLocations", "@spider": "usps_collection_boxes", "addr:city": "GRANT", "addr:country": "US", "addr:postcode": "69140", "addr:state": "NE", "addr:street_address": "409 CENTRAL AVE", "amenity": "post_box", "collection_times": "Mo-Fr 15:45; Sa 11:15", "indoor": "yes", "note": "ON 12/24 AND 12/31, THIS BOX MAY BE COLLECTED AS EARLY AS 12 NOON.", "nsi_id": "unitedstatespostalservice-a77078", "operator": "United States Postal Service", "operator:short": "USPS", "operator:type": "public", "operator:wikidata": "Q668687", "ref": "6914000005"}, "type": "Feature"}
{"geometry": {"coordinates": [-102.974628, 41.320972], "type": "Point"}, "id": "tsPi_TkUfdkPYZz0Ms9Y773SK6Q=", "properties": {"@source_uri": "https://tools.usps.com/UspsToolsRestServices/rest/POLocator/findLocations", "@spider": "usps_collection_boxes", "addr:city": "GURLEY", "addr:country": "US", "addr:postcode": "69141", "addr:state": "NE", "addr:street_address": "743 3RD ST", "amenity": "post_box", "collection_times": "Mo-Fr 14:30; Sa 11:00", "note": "ON 12/24 AND 12/31, THIS BOX MAY BE COLLECTED AS EARLY AS 12 NOON.", "nsi_id": "unitedstatespostalservice-a77078", "operator": "United States Postal Service", "operator:short": "USPS", "operator:type": "public", "operator:wikidata": "Q668687", "ref": "6914100001"}, "type": "Feature"}
{"geometry": {"coordinates": [-102.974628, 41.320972], "type": "Point"}, "id": "TYSDobkxB61dS21cgZMtYkeezJM=", "properties": {"@source_uri": "https://tools.usps.com/UspsToolsRestServices/rest/POLocator/findLocations", "@spider": "usps_collection_boxes", "addr:city": "GURLEY", "addr:country": "US", "addr:postcode": "69141", "addr:state": "NE", "addr:street_address": "743 3RD ST", "amenity": "post_box", "collection_times": "Mo-Fr 11:45; Sa 09:15", "indoor": "yes", "nsi_id": "unitedstatespostalservice-a77078", "operator": "United States Postal Service", "operator:short": "USPS", "operator:type": "public", "operator:wikidata": "Q668687", "ref": "6914100002"}, "type": "Feature"}
{"geometry": {"coordinates": [-102.977851712, 41.320939906], "type": "Point"}, "id": "yaNu0o-ceUalJCZDAYvuU_GSvDI=", "properties": {"@source_uri": "https://tools.usps.com/UspsToolsRestServices/rest/POLocator/findLocations", "@spider": "usps_collection_boxes", "addr:city": "GURLEY", "addr:country": "US", "addr:postcode": "69141", "addr:state": "NE", "addr:street_address": "743 3RD ST", "amenity": "post_box", "collection_times": "Mo-Fr 11:45; Sa 09:15", "indoor": "yes", "nsi_id": "unitedstatespostalservice-a77078", "operator": "United States Postal Service", "operator:short": "USPS", "operator:type": "public", "operator:wikidata": "Q668687", "ref": "6914100003"}, "type": "Feature"}
{"geometry": {"coordinates": [-100.269111, 41.903167], "type": "Point"}, "id": "DEgj4Q2XWsbuqS_eNKdn5Y3qNDo=", "properties": {"@source_uri": "https://tools.usps.com/UspsToolsRestServices/rest/POLocator/findLocations", "@spider": "usps_collection_boxes", "addr:city": "HALSEY", "addr:country": "US", "addr:postcode": "69142", "addr:state": "NE", "addr:street_address": "508 HIGHWAY 2", "amenity": "post_box", "collection_times": "Mo-Fr 13:45; Sa 12:00", "note": "ON 12/24 AND 12/31, THIS BOX MAY BE COLLECTED AS EARLY AS 12 NOON.", "nsi_id": "unitedstatespostalservice-a77078", "operator": "United States Postal Service", "operator:short": "USPS", "operator:type": "public", "operator:wikidata": "Q668687", "ref": "6914200001"}, "type": "Feature"}
{"geometry": {"coordinates": [-100.26901, 41.90314], "type": "Point"}, "id": "IDrBXukpYSw694wb2TxqPLxJQF4=", "properties": {"@source_uri": "https://tools.usps.com/UspsToolsRestServices/rest/POLocator/findLocations", "@spider": "usps_collection_boxes", "addr:city": "HALSEY", "addr:country": "US", "addr:postcode": "69142", "addr:state": "NE", "addr:street_address": "508 HIGHWAY 2", "amenity": "post_box", "collection_times": "Mo-Fr 13:45; Sa 08:45", "indoor": "yes", "note": "ON 12/24 AND 12/31, THIS BOX MAY BE COLLECTED AS EARLY AS 12 NOON.", "nsi_id": "unitedstatespostalservice-a77078", "operator": "United States Postal Service", "operator:short": "USPS", "operator:type": "public", "operator:wikidata": "Q668687", "ref": "6914200002"}, "type": "Feature"}
{"geometry": {"coordinates": [-100.269075449, 41.903212781], "type": "Point"}, "id": "9CmmROmRZBuG6VTIxDoERF7j9Ac=", "properties": {"@source_uri": "https://tools.usps.com/UspsToolsRestServices/rest/POLocator/findLocations", "@spider": "usps_collection_boxes", "addr:city": "HALSEY", "addr:country": "US", "addr:postcode": "69142", "addr:state": "NE", "addr:street_address": "508 HIGHWAY 2", "amenity": "post_box", "collection_times": "Mo-Fr 13:45; Sa 08:45", "indoor": "yes", "note": "ON 12/24 AND 12/31, THIS BOX MAY BE COLLECTED AS EARLY AS 12 NOON.", "nsi_id": "unitedstatespostalservice-a77078", "operator": "United States Postal Service", "operator:short": "USPS", "operator:type": "public", "operator:wikidata": "Q668687", "ref": "6914200003"}, "type": "Feature"}
{"geometry": {"coordinates": [-101.002583, 41.157784], "type": "Point"}, "id": "2T0Ku4ycLau-zBOJjCksyO6EJ6U=", "properties": {"@source_uri": "https://tools.usps.com/UspsToolsRestServices/rest/POLocator/findLocations", "@spider": "usps_collection_boxes", "addr:city": "HERSHEY", "addr:country": "US", "addr:postcode": "69143", "addr:state": "NE", "addr:street_address": "122 S LINCOLN AVE", "amenity": "post_box", "collection_times": "Mo-Fr 14:15; Sa 09:45", "note": "ON 12/24 AND 12/31, THIS BOX MAY BE COLLECTED AS EARLY AS 12 NOON.", "nsi_id": "unitedstatespostalservice-a77078", "operator": "United States Postal Service", "operator:short": "USPS", "operator:type": "public", "operator:wikidata": "Q668687", "ref": "6914300001"}, "type": "Feature"}
{"geometry": {"coordinates": [-101.002445, 41.158327], "type": "Point"}, "id": "L9TspW0cYzKif6o2N27TMDy6YA4=", "properties": {"@source_uri": "https://tools.usps.com/UspsToolsRestServices/rest/POLocator/findLocations", "@spider": "usps_collection_boxes", "addr:city": "HERSHEY", "addr:country": "US", "addr:postcode": "69143", "addr:state": "NE", "addr:street_address": "122 S LINCOLN AVE", "amenity": "post_box", "collection_times": "Mo-Fr 14:15; Sa 09:45", "indoor": "yes", "note": "ON 12/24 AND 12/31, THIS BOX MAY BE COLLECTED AS EARLY AS 12 NOON.", "nsi_id": "unitedstatespostalservice-a77078", "operator": "United States Postal Service", "operator:short": "USPS", "operator:type": "public", "operator:wikidata": "Q668687", "ref": "6914300004"}, "type": "Feature"}
{"geometry": {"coordinates": [-101.002467367, 41.1583270223], "type": "Point"}, "id": "pGPk-FJ8Nyw_xOANYWMG0P8PplM=", "properties": {"@source_uri": "https://tools.usps.com/UspsToolsRestServices/rest/POLocator/findLocations", "@spider": "usps_collection_boxes", "addr:city": "HERSHEY", "addr:country": "US", "addr:postcode": "69143", "addr:state": "NE", "addr:street_address": "122 S LINCOLN AVE", "amenity": "post_box", "collection_times": "Mo-Fr 14:15; Sa 09:45", "indoor": "yes", "note": "ON 12/24 AND 12/31, THIS BOX MAY BE COLLECTED AS EARLY AS 12 NOON.", "nsi_id": "unitedstatespostalservice-a77078", "operator": "United States Postal Service", "operator:short": "USPS", "operator:type": "public", "operator:wikidata": "Q668687", "ref": "6914300006"}, "type": "Feature"}
{"geometry": {"coordinates": [-101.583297, 41.216214], "type": "Point"}, "id": "8tLToO_hqM7CTEFuFPRMsa10RrM=", "properties": {"@source_uri": "https://tools.usps.com/UspsToolsRestServices/rest/POLocator/findLocations", "@spider": "usps_collection_boxes", "addr:city": "KEYSTONE", "addr:country": "US", "addr:postcode": "69144", "addr:state": "NE", "addr:street_address": "325 FENWICK ST", "amenity": "post_box", "collection_times": "Mo-Fr 16:45; Sa 17:04", "note": "ON 12/24 AND 12/31, THIS BOX MAY BE COLLECTED AS EARLY AS 12 NOON.", "nsi_id": "unitedstatespostalservice-a77078", "operator": "United States Postal Service", "operator:short": "USPS", "operator:type": "public", "operator:wikidata": "Q668687", "ref": "6914400001"}, "type": "Feature"}
{"geometry": {"coordinates": [-101.583177, 41.216191], "type": "Point"}, "id": "Z5RtALzvqbSZWFvpTKLTPF8b7jg=", "properties": {"@source_uri": "https://tools.usps.com/UspsToolsRestServices/rest/POLocator/findLocations", "@spider": "usps_collection_boxes", "addr:city": "KEYSTONE", "addr:country": "US", "addr:postcode": "69144", "addr:state": "NE", "addr:street_address": "325 FENWICK ST", "amenity": "post_box", "collection_times": "Mo-Fr 11:15; Sa 08:15", "indoor": "yes", "nsi_id": "unitedstatespostalservice-a77078", "operator": "United States Postal Service", "operator:short": "USPS", "operator:type": "public", "operator:wikidata": "Q668687", "ref": "6914400002"}, "type": "Feature"}
{"geometry": {"coordinates": [-101.583155728, 41.216000028], "type": "Point"}, "id": "QVsasitDKvP59k7nPaKwbX06ETE=", "properties": {"@source_uri": "https://tools.usps.com/UspsToolsRestServices/rest/POLocator/findLocations", "@spider": "usps_collection_boxes", "addr:city": "KEYSTONE", "addr:country": "US", "addr:postcode": "69144", "addr:state": "NE", "addr:street_address": "325 FENWICK ST", "amenity": "post_box", "collection_times": "Mo-Fr 11:15; Sa 08:15", "indoor": "yes", "nsi_id": "unitedstatespostalservice-a77078", "operator": "United States Postal Service", "operator:short": "USPS", "operator:type": "public", "operator:wikidata": "Q668687", "ref": "6914400004"}, "type": "Feature"}
{"geometry": {"coordinates": [-103.664878, 41.23725], "type": "Point"}, "id": "SKre6e6Fb3-rS9II9Xwtv4aVQMY=", "properties": {"@source_uri": "https://tools.usps.com/UspsToolsRestServices/rest/POLocator/findLocations", "@spider": "usps_collection_boxes", "addr:city": "KIMBALL", "addr:country": "US", "addr:postcode": "69145", "addr:state": "NE", "addr:street_address": "201 W 2ND ST", "amenity": "post_box", "collection_times": "Mo-Sa 15:15", "note": "ON 12/24 AND 12/31, THIS BOX MAY BE COLLECTED AS EARLY AS 12 NOON.", "nsi_id": "unitedstatespostalservice-a77078", "operator": "United States Postal Service", "operator:short": "USPS", "operator:type": "public", "operator:wikidata": "Q668687", "ref": "6914500001"}, "type": "Feature"}
{"geometry": {"coordinates": [-103.664682, 41.237127], "type": "Point"}, "id": "8C2rGJC73s3du1cDvvDhWSuMrNQ=", "properties": {"@source_uri": "https://tools.usps.com/UspsToolsRestServices/rest/POLocator/findLocations", "@spider": "usps_collection_boxes", "addr:city": "KIMBALL", "addr:country": "US", "addr:postcode": "69145", "addr:state": "NE", "addr:street_address": "201 W 2ND ST", "amenity": "post_box", "collection_times": "Mo-Fr 15:15; Sa 11:00", "indoor": "yes", "note": "ON 12/24 AND 12/31, THIS BOX MAY BE COLLECTED AS EARLY AS 12 NOON.", "nsi_id": "unitedstatespostalservice-a77078", "operator": "United States Postal Service", "operator:short": "USPS", "operator:type": "public", "operator:wikidata": "Q668687", "ref": "6914500007"}, "type": "Feature"}
{"geometry": {"coordinates": [-103.664682168, 41.237122472], "type": "Point"}, "id": "jlJiwhGB-smW5A3mFnjv-Uv73Lk=", "properties": {"@source_uri": "https://tools.usps.com/UspsToolsRestServices/rest/POLocator/findLocations", "@spider": "usps_collection_boxes", "addr:city": "KIMBALL", "addr:country": "US", "addr:postcode": "69145", "addr:state": "NE", "addr:street_address": "201 W 2ND ST", "amenity": "post_box", "collection_times": "Mo-Fr 15:15; Sa 11:00", "indoor": "yes", "note": "ON 12/24 AND 12/31, THIS BOX MAY BE COLLECTED AS EARLY AS 12 NOON.", "nsi_id": "unitedstatespostalservice-a77078", "operator": "United States Postal Service", "operator:short": "USPS", "operator:type": "public", "operator:wikidata": "Q668687", "ref": "6914500010"}, "type": "Feature"}
{"geometry": {"coordinates": [-101.812017, 41.282346], "type": "Point"}, "id": "rGX4Izkz8A5s4Ce-_AoSjhIpVCs=", "properties": {"@source_uri": "https://tools.usps.com/UspsToolsRestServices/rest/POLocator/findLocations", "@spider": "usps_collection_boxes", "addr:city": "LEMOYNE", "addr:country": "US", "addr:postcode": "69146", "addr:state": "NE", "addr:street_address": "721 HIGHWAY 92 W", "amenity": "post_box", "collection_times": "Mo-Fr 16:30; Sa 16:40", "note": "ON 12/24 AND 12/31, THIS BOX MAY BE COLLECTED AS EARLY AS 12 NOON.", "nsi_id": "unitedstatespostalservice-a77078", "operator": "United States Postal Service", "operator:short": "USPS", "operator:type": "public", "operator:wikidata": "Q668687", "ref": "6914600001"}, "type": "Feature"}
{"geometry": {"coordinates": [-101.811947, 41.282068], "type": "Point"}, "id": "ed8Lr_rwbuZdnV_LsOyoNJGVt60=", "properties": {"@source_uri": "https://tools.usps.com/UspsToolsRestServices/rest/POLocator/findLocations", "@spider": "usps_collection_boxes", "addr:city": "LEMOYNE", "addr:country": "US", "addr:postcode": "69146", "addr:state": "NE", "addr:street_address": "721 HIGHWAY 92 W", "amenity": "post_box", "collection_times": "Mo-Fr 11:45; Sa 08:45", "indoor": "yes", "nsi_id": "unitedstatespostalservice-a77078", "operator": "United States Postal Service", "operator:short": "USPS", "operator:type": "public", "operator:wikidata": "Q668687", "ref": "6914600002"}, "type": "Feature"}
{"geometry": {"coordinates": [-101.8119169289, 41.2820593228], "type": "Point"}, "id": "rEfrvnMIeSj7SoSyxJr2QEfBHf0=", "properties": {"@source_uri": "https://tools.usps.com/UspsToolsRestServices/rest/POLocator/findLocations", "@spider": "usps_collection_boxes", "addr:city": "LEMOYNE", "addr:country": "US", "addr:postcode": "69146", "addr:state": "NE", "addr:street_address": "721 HIGHWAY 92 W", "amenity": "post_box", "collection_times": "Mo-Fr 11:45; Sa 08:45", "indoor": "yes", "nsi_id": "unitedstatespostalservice-a77078", "operator": "United States Postal Service", "operator:short": "USPS", "operator:type": "public", "operator:wikidata": "Q668687", "ref": "6914600004"}, "type": "Feature"}
{"geometry": {"coordinates": [-102.144364, 41.331074], "type": "Point"}, "id": "baKfcPC7qtOE8kewURwsDXguqj4=", "properties": {"@source_uri": "https://tools.usps.com/UspsToolsRestServices/rest/POLocator/findLocations", "@spider": "usps_collection_boxes", "addr:city": "LEWELLEN", "addr:country": "US", "addr:postcode": "69147", "addr:state": "NE", "addr:street_address": "311 MAIN ST", "amenity": "post_box", "collection_times": "Mo-Sa 16:11", "note": "ON 12/24 AND 12/31, THIS BOX MAY BE COLLECTED AS EARLY AS 12 NOON.", "nsi_id": "unitedstatespostalservice-a77078", "operator": "United States Postal Service", "operator:short": "USPS", "operator:type": "public", "operator:wikidata": "Q668687", "ref": "6914700001"}, "type": "Feature"}
{"geometry": {"coordinates": [-102.144364, 41.331074], "type": "Point"}, "id": "P7vq4iRORZiQSngNkBvDFgQuL3c=", "properties": {"@source_uri": "https://tools.usps.com/UspsToolsRestServices/rest/POLocator/findLocations", "@spider": "usps_collection_boxes", "addr:city": "LEWELLEN", "addr:country": "US", "addr:postcode": "69147", "addr:state": "NE", "addr:street_address": "311 MAIN ST", "amenity": "post_box", "collection_times": "Mo-Fr 11:45; Sa 09:45", "indoor": "yes", "nsi_id": "unitedstatespostalservice-a77078", "operator": "United States Postal Service", "operator:short": "USPS", "operator:type": "public", "operator:wikidata": "Q668687", "ref": "6914700002"}, "type": "Feature"}
{"geometry": {"coordinates": [-102.1454571289, 41.3294891035], "type": "Point"}, "id": "lYtbGSEfvcX75KBkpw2Eo8g3Q50=", "properties": {"@source_uri": "https://tools.usps.com/UspsToolsRestServices/rest/POLocator/findLocations", "@spider": "usps_collection_boxes", "addr:city": "LEWELLEN", "addr:country": "US", "addr:postcode": "69147", "addr:state": "NE", "addr:street_address": "311 MAIN ST", "amenity": "post_box", "collection_times": "Mo-Fr 11:45; Sa 09:45", "indoor": "yes", "nsi_id": "unitedstatespostalservice-a77078", "operator": "United States Postal Service", "operator:short": "USPS", "operator:type": "public", "operator:wikidata": "Q668687", "ref": "6914700004"}, "type": "Feature"}
{"geometry": {"coordinates": [-102.620217, 41.497416], "type": "Point"}, "id": "BHJlCno87tDCl2LynR-uZON6iTw=", "properties": {"@source_uri": "https://tools.usps.com/UspsToolsRestServices/rest/POLocator/findLocations", "@spider": "usps_collection_boxes", "addr:city": "LISCO", "addr:country": "US", "addr:postcode": "69148", "addr:state": "NE", "addr:street_address": "119 COLDWATER ST", "amenity": "post_box", "collection_times": "Mo-Fr 15:15; Sa 15:22", "note": "ON 12/24 AND 12/31, THIS BOX MAY BE COLLECTED AS EARLY AS 12 NOON.", "nsi_id": "unitedstatespostalservice-a77078", "operator": "United States Postal Service", "operator:short": "USPS", "operator:type": "public", "operator:wikidata": "Q668687", "ref": "6914800001"}, "type": "Feature"}
{"geometry": {"coordinates": [-102.620273, 41.497472], "type": "Point"}, "id": "mm1r-2Sq5nRk6aamam3WyFw_AuQ=", "properties": {"@source_uri": "https://tools.usps.com/UspsToolsRestServices/rest/POLocator/findLocations", "@spider": "usps_collection_boxes", "addr:city": "LISCO", "addr:country": "US", "addr:postcode": "69148", "addr:state": "NE", "addr:street_address": "119 COLDWATER ST", "amenity": "post_box", "collection_times": "Mo-Fr 12:15; Sa 09:45", "indoor": "yes", "note": "ON 12/24 AND 12/31, THIS BOX MAY BE COLLECTED AS EARLY AS 12 NOON.", "nsi_id": "unitedstatespostalservice-a77078", "operator": "United States Postal Service", "operator:short": "USPS", "operator:type": "public", "operator:wikidata": "Q668687", "ref": "6914800002"}, "type": "Feature"}
{"geometry": {"coordinates": [-102.620274195, 41.497472955], "type": "Point"}, "id": "cS1y-dPKMhYd0E-DMJgsK6YJmGw=", "properties": {"@source_uri": "https://tools.usps.com/UspsToolsRestServices/rest/POLocator/findLocations", "@spider": "usps_collection_boxes", "addr:city": "LISCO", "addr:country": "US", "addr:postcode": "69148", "addr:state": "NE", "addr:street_address": "119 COLDWATER ST", "amenity": "post_box", "collection_times": "Mo-Fr 12:15; Sa 09:45", "indoor": "yes", "note": "ON 12/24 AND 12/31, THIS BOX MAY BE COLLECTED AS EARLY AS 12 NOON.", "nsi_id": "unitedstatespostalservice-a77078", "operator": "United States Postal Service", "operator:short": "USPS", "operator:type": "public", "operator:wikidata": "Q668687", "ref": "6914800004"}, "type": "Feature"}
{"geometry": {"coordinates": [-102.637271, 41.148982], "type": "Point"}, "id": "hchxEyXen0EpEaokw4M8D9cDvf0=", "properties": {"@source_uri": "https://tools.usps.com/UspsToolsRestServices/rest/POLocator/findLocations", "@spider": "usps_collection_boxes", "addr:city": "LODGEPOLE", "addr:country": "US", "addr:postcode": "69149", "addr:state": "NE", "addr:street_address": "724 SHELDON ST", "amenity": "post_box", "collection_times": "Mo-Fr 11:45; Sa 09:15", "nsi_id": "unitedstatespostalservice-a77078", "operator": "United States Postal Service", "operator:short": "USPS", "operator:type": "public", "operator:wikidata": "Q668687", "ref": "6914900001"}, "type": "Feature"}
{"geometry": {"coordinates": [-102.637876, 41.149119], "type": "Point"}, "id": "tzVN0EFeW33ELG35DSikebRxGRs=", "properties": {"@source_uri": "https://tools.usps.com/UspsToolsRestServices/rest/POLocator/findLocations", "@spider": "usps_collection_boxes", "addr:city": "LODGEPOLE", "addr:country": "US", "addr:postcode": "69149", "addr:state": "NE", "addr:street_address": "724 SHELDON ST", "amenity": "post_box", "collection_times": "Mo-Fr 11:45; Sa 09:15", "indoor": "yes", "nsi_id": "unitedstatespostalservice-a77078", "operator": "United States Postal Service", "operator:short": "USPS", "operator:type": "public", "operator:wikidata": "Q668687", "ref": "6914900003"}, "type": "Feature"}
{"geometry": {"coordinates": [-102.637302927, 41.148926422], "type": "Point"}, "id": "s2xRKTBdQFukcWpMNFm7d7Gznhg=", "properties": {"@source_uri": "https://tools.usps.com/UspsToolsRestServices/rest/POLocator/findLocations", "@spider": "usps_collection_boxes", "addr:city": "LODGEPOLE", "addr:country": "US", "addr:postcode": "69149", "addr:state": "NE", "addr:street_address": "724 SHELDON ST", "amenity": "post_box", "collection_times": "Mo-Fr 11:45; Sa 09:15", "indoor": "yes", "nsi_id": "unitedstatespostalservice-a77078", "operator": "United States Postal Service", "operator:short": "USPS", "operator:type": "public", "operator:wikidata": "Q668687", "ref": "6914900005"}, "type": "Feature"}
{"geometry": {"coordinates": [-101.543696, 40.849719], "type": "Point"}, "id": "JmnUxkU01-qD1hzuplJZmMqdiGE=", "properties": {"@source_uri": "https://tools.usps.com/UspsToolsRestServices/rest/POLocator/findLocations", "@spider": "usps_collection_boxes", "addr:city": "MADRID", "addr:country": "US", "addr:postcode": "69150", "addr:state": "NE", "addr:street_address": "119 S PERKINS AVE", "amenity": "post_box", "collection_times": "Mo-Fr 11:45; Sa 08:45", "nsi_id": "unitedstatespostalservice-a77078", "operator": "United States Postal Service", "operator:short": "USPS", "operator:type": "public", "operator:wikidata": "Q668687", "ref": "6915000001"}, "type": "Feature"}
{"geometry": {"coordinates": [-101.543696, 40.849719], "type": "Point"}, "id": "5QDqpmfBM64j2h9dSmtioXMOg2s=", "properties": {"@source_uri": "https://tools.usps.com/UspsToolsRestServices/rest/POLocator/findLocations", "@spider": "usps_collection_boxes", "addr:city": "MADRID", "addr:country": "US", "addr:postcode": "69150", "addr:state": "NE", "addr:street_address": "119 S PERKINS AVE", "amenity": "post_box", "collection_times": "Mo-Fr 11:45; Sa 08:45", "indoor": "yes", "nsi_id": "unitedstatespostalservice-a77078", "operator": "United States Postal Service", "operator:short": "USPS", "operator:type": "public", "operator:wikidata": "Q668687", "ref": "6915000002"}, "type": "Feature"}
{"geometry": {"coordinates": [-101.543706705, 40.849595885], "type": "Point"}, "id": "yj6gLQAwWsiCrBuTG13wgG6SLBU=", "properties": {"@source_uri": "https://tools.usps.com/UspsToolsRestServices/rest/POLocator/findLocations", "@spider": "usps_collection_boxes", "addr:city": "MADRID", "addr:country": "US", "addr:postcode": "69150", "addr:state": "NE", "addr:street_address": "119 S PERKINS AVE", "amenity": "post_box", "collection_times": "Mo-Fr 11:45; Sa 08:45", "indoor": "yes", "nsi_id": "unitedstatespostalservice-a77078", "operator": "United States Postal Service", "operator:short": "USPS", "operator:type": "public", "operator:wikidata": "Q668687", "ref": "6915000004"}, "type": "Feature"}
{"geometry": {"coordinates": [-100.5226259, 41.077407], "type": "Point"}, "id": "De0wABtTPqyncpakY11Lig1hk3k=", "properties": {"@source_uri": "https://tools.usps.com/UspsToolsRestServices/rest/POLocator/findLocations", "@spider": "usps_collection_boxes", "addr:city": "MAXWELL", "addr:country": "US", "addr:postcode": "69151", "addr:state": "NE", "addr:street_address": "201 S PINE ST", "amenity": "post_box", "collection_times": "Mo-Sa 18:30", "note": "ON 12/24 AND 12/31, THIS BOX MAY BE COLLECTED AS EARLY AS 12 NOON.", "nsi_id": "unitedstatespostalservice-a77078", "operator": "United States Postal Service", "operator:short": "USPS", "operator:type": "public", "operator:wikidata": "Q668687", "ref": "6915100001"}, "type": "Feature"}
{"geometry": {"coordinates": [-100.525551, 41.077007], "type": "Point"}, "id": "MtrVd4wauN4xYAHu5CY9Efl3sxQ=", "properties": {"@source_uri": "https://tools.usps.com/UspsToolsRestServices/rest/POLocator/findLocations", "@spider": "usps_collection_boxes", "addr:city": "MAXWELL", "addr:country": "US", "addr:postcode": "69151", "addr:state": "NE", "addr:street_address": "201 S PINE ST", "amenity": "post_box", "collection_times": "Mo-Fr 11:45; Sa 09:15", "indoor": "yes", "nsi_id": "unitedstatespostalservice-a77078", "operator": "United States Postal Service", "operator:short": "USPS", "operator:type": "public", "operator:wikidata": "Q668687", "ref": "6915100002"}, "type": "Feature"}
{"geometry": {"coordinates": [-100.525693672, 41.077215516], "type": "Point"}, "id": "egiLaKNBHl9Ca0-dXSxKtAdIs-U=", "properties": {"@source_uri": "https://tools.usps.com/UspsToolsRestServices/rest/POLocator/findLocations", "@spider": "usps_collection_boxes", "addr:city": "MAXWELL", "addr:country": "US", "addr:postcode": "69151", "addr:state": "NE", "addr:street_address": "201 S PINE ST", "amenity": "post_box", "collection_times": "Mo-Fr 11:45; Sa 09:15", "indoor": "yes", "nsi_id": "unitedstatespostalservice-a77078", "operator": "United States Postal Service", "operator:short": "USPS", "operator:type": "public", "operator:wikidata": "Q668687", "ref": "6915100004"}, "type": "Feature"}
{"geometry": {"coordinates": [-101.0391978089, 42.0430833526], "type": "Point"}, "id": "e7qPoroQ-8Rsn7yFY9H7XGw4mMM=", "properties": {"@source_uri": "https://tools.usps.com/UspsToolsRestServices/rest/POLocator/findLocations", "@spider": "usps_collection_boxes", "addr:city": "MULLEN", "addr:country": "US", "addr:postcode": "69152", "addr:state": "NE", "addr:street_address": "106 NE 1ST ST", "amenity": "post_box", "collection_times": "Mo-Fr 15:45; Sa 09:45", "note": "ON 12/24 AND 12/31, THIS BOX MAY BE COLLECTED AS EARLY AS 12 NOON.", "nsi_id": "unitedstatespostalservice-a77078", "operator": "United States Postal Service", "operator:short": "USPS", "operator:type": "public", "operator:wikidata": "Q668687", "ref": "6915200001"}, "type": "Feature"}
{"geometry": {"coordinates": [-101.0391978089, 42.0430833526], "type": "Point"}, "id": "HFRIf6D7Ft7EOflH4XjANFgIT_Y=", "properties": {"@source_uri": "https://tools.usps.com/UspsToolsRestServices/rest/POLocator/findLocations", "@spider": "usps_collection_boxes", "addr:city": "MULLEN", "addr:country": "US", "addr:postcode": "69152", "addr:state": "NE", "addr:street_address": "106 NE 1ST ST", "amenity": "post_box", "collection_times": "Mo-Fr 15:45; Sa 09:45", "indoor": "yes", "note": "ON 12/24 AND 12/31, THIS BOX MAY BE COLLECTED AS EARLY AS 12 NOON.", "nsi_id": "unitedstatespostalservice-a77078", "operator": "United States Postal Service", "operator:short": "USPS", "operator:type": "public", "operator:wikidata": "Q668687", "ref": "6915200002"}, "type": "Feature"}
{"geometry": {"coordinates": [-101.0391978089, 42.0430833526], "type": "Point"}, "id": "yEc0pPxPmQpeqll0RzaqqYfw_CE=", "properties": {"@source_uri": "https://tools.usps.com/UspsToolsRestServices/rest/POLocator/findLocations", "@spider": "usps_collection_boxes", "addr:city": "MULLEN", "addr:country": "US", "addr:postcode": "69152", "addr:state": "NE", "addr:street_address": "106 NE 1ST ST", "amenity": "post_box", "collection_times": "Mo-Fr 15:45; Sa 09:45", "indoor": "yes", "note": "ON 12/24 AND 12/31, THIS BOX MAY BE COLLECTED AS EARLY AS 12 NOON.", "nsi_id": "unitedstatespostalservice-a77078", "operator": "United States Postal Service", "operator:short": "USPS", "operator:type": "public", "operator:wikidata": "Q668687", "ref": "6915200004"}, "type": "Feature"}
{"geometry": {"coordinates": [-101.719436, 41.126807], "type": "Point"}, "id": "NlYgu04marlWIAfLXsKKTDcdsoU=", "properties": {"@source_uri": "https://tools.usps.com/UspsToolsRestServices/rest/POLocator/findLocations", "@spider": "usps_collection_boxes", "addr:city": "OGALLALA", "addr:country": "US", "addr:postcode": "69153", "addr:state": "NE", "addr:street_address": "301 N SPRUCE ST", "amenity": "post_box", "collection_times": "Mo-Sa 17:35", "note": "ON 12/24 AND 12/31, THIS BOX MAY BE COLLECTED AS EARLY AS 12 NOON.", "nsi_id": "unitedstatespostalservice-a77078", "operator": "United States Postal Service", "operator:short": "USPS", "operator:type": "public", "operator:wikidata": "Q668687", "ref": "6915300001"}, "type": "Feature"}
{"geometry": {"coordinates": [-101.718282, 41.126738], "type": "Point"}, "id": "6jY_hAP2TPEffU1Y3Q-2ViDBRK0=", "properties": {"@source_uri": "https://tools.usps.com/UspsToolsRestServices/rest/POLocator/findLocations", "@spider": "usps_collection_boxes", "addr:city": "OGALLALA", "addr:country": "US", "addr:postcode": "69153", "addr:state": "NE", "addr:street_address": "300 E A ST", "amenity": "post_box", "collection_times": "Mo-Fr 16:15; Sa 10:45", "note": "ON 12/24 AND 12/31, THIS BOX MAY BE COLLECTED AS EARLY AS 12 NOON.", "nsi_id": "unitedstatespostalservice-a77078", "operator": "United States Postal Service", "operator:short": "USPS", "operator:type": "public", "operator:wikidata": "Q668687", "ref": "6915300006"}, "type": "Feature"}
{"geometry": {"coordinates": [-101.719436, 41.126807], "type": "Point"}, "id": "qGsHNqa5dZX4JdH_loxN2ZfjYLQ=", "properties": {"@source_uri": "https://tools.usps.com/UspsToolsRestServices/rest/POLocator/findLocations", "@spider": "usps_collection_boxes", "addr:city": "OGALLALA", "addr:country": "US", "addr:postcode": "69153", "addr:state": "NE", "addr:street_address": "301 N SPRUCE ST", "amenity": "post_box", "collection_times": "Mo-Fr 16:15; Sa 10:45", "indoor": "yes", "note": "ON 12/24 AND 12/31, THIS BOX MAY BE COLLECTED AS EARLY AS 12 NOON.", "nsi_id": "unitedstatespostalservice-a77078", "operator": "United States Postal Service", "operator:short": "USPS", "operator:type": "public", "operator:wikidata": "Q668687", "ref": "6915300011"}, "type": "Feature"}
{"geometry": {"coordinates": [-101.719435408, 41.12680742], "type": "Point"}, "id": "rK2_iAZmEW8buOWq7EEOWRUmkPw=", "properties": {"@source_uri": "https://tools.usps.com/UspsToolsRestServices/rest/POLocator/findLocations", "@spider": "usps_collection_boxes", "addr:city": "OGALLALA", "addr:country": "US", "addr:postcode": "69153", "addr:state": "NE", "addr:street_address": "301 N SPRUCE ST", "amenity": "post_box", "collection_times": "Mo-Fr 16:15; Sa 10:45", "indoor": "yes", "note": "ON 12/24 AND 12/31, THIS BOX MAY BE COLLECTED AS EARLY AS 12 NOON.", "nsi_id": "unitedstatespostalservice-a77078", "operator": "United States Postal Service", "operator:short": "USPS", "operator:type": "public", "operator:wikidata": "Q668687", "ref": "6915300014"}, "type": "Feature"}
{"geometry": {"coordinates": [-102.345693, 41.403882], "type": "Point"}, "id": "BkTPd-NmkI48eR3aIlGwHpbPa6E=", "properties": {"@source_uri": "https://tools.usps.com/UspsToolsRestServices/rest/POLocator/findLocations", "@spider": "usps_collection_boxes", "addr:city": "OSHKOSH", "addr:country": "US", "addr:postcode": "69154", "addr:state": "NE", "addr:street_address": "201 W 1ST ST", "amenity": "post_box", "collection_times": "Mo-Fr 15:45; Sa 15:51", "note": "ON 12/24 AND 12/31, THIS BOX MAY BE COLLECTED AS EARLY AS 12 NOON.", "nsi_id": "unitedstatespostalservice-a77078", "operator": "United States Postal Service", "operator:short": "USPS", "operator:type": "public", "operator:wikidata": "Q668687", "ref": "6915400001"}, "type": "Feature"}
{"geometry": {"coordinates": [-102.34573, 41.403792], "type": "Point"}, "id": "6QUEbvHGyA19HhnDM14G8Ta2V4k=", "properties": {"@source_uri": "https://tools.usps.com/UspsToolsRestServices/rest/POLocator/findLocations", "@spider": "usps_collection_boxes", "addr:city": "OSHKOSH", "addr:country": "US", "addr:postcode": "69154", "addr:state": "NE", "addr:street_address": "201 W 1ST ST", "amenity": "post_box", "collection_times": "Mo-Fr 15:45; Sa 10:45", "indoor": "yes", "note": "ON 12/24 AND 12/31, THIS BOX MAY BE COLLECTED AS EARLY AS 12 NOON.", "nsi_id": "unitedstatespostalservice-a77078", "operator": "United States Postal Service", "operator:short": "USPS", "operator:type": "public", "operator:wikidata": "Q668687", "ref": "6915400002"}, "type": "Feature"}
{"geometry": {"coordinates": [-102.3456933627, 41.4039866647], "type": "Point"}, "id": "sHPKYXXW9F4lYVtEw4mBwefCHzs=", "properties": {"@source_uri": "https://tools.usps.com/UspsToolsRestServices/rest/POLocator/findLocations", "@spider": "usps_collection_boxes", "addr:city": "OSHKOSH", "addr:country": "US", "addr:postcode": "69154", "addr:state": "NE", "addr:street_address": "201 W 1ST ST", "amenity": "post_box", "collection_times": "Mo-Fr 15:45; Sa 10:45", "indoor": "yes", "note": "ON 12/24 AND 12/31, THIS BOX MAY BE COLLECTED AS EARLY AS 12 NOON.", "nsi_id": "unitedstatespostalservice-a77078", "operator": "United States Postal Service", "operator:short": "USPS", "operator:type": "public", "operator:wikidata": "Q668687", "ref": "6915400004"}, "type": "Feature"}
{"geometry": {"coordinates": [-101.356155023, 41.123477745], "type": "Point"}, "id": "uKfn8aaOjt7SEXkk-f4hc0259b8=", "properties": {"@source_uri": "https://tools.usps.com/UspsToolsRestServices/rest/POLocator/findLocations", "@spider": "usps_collection_boxes", "addr:city": "PAXTON", "addr:country": "US", "addr:postcode": "69155", "addr:state": "NE", "addr:street_address": "107 N OAK ST", "amenity": "post_box", "collection_times": "Mo-Fr 14:15; Sa 10:15", "note": "ON 12/24 AND 12/31, THIS BOX MAY BE COLLECTED AS EARLY AS 12 NOON.", "nsi_id": "unitedstatespostalservice-a77078", "operator": "United States Postal Service", "operator:short": "USPS", "operator:type": "public", "operator:wikidata": "Q668687", "ref": "6915500001"}, "type": "Feature"}
{"geometry": {"coordinates": [-101.356155023, 41.123477745], "type": "Point"}, "id": "q3wJbc-p3gtXfXc0TpwEbI60q0M=", "properties": {"@source_uri": "https://tools.usps.com/UspsToolsRestServices/rest/POLocator/findLocations", "@spider": "usps_collection_boxes", "addr:city": "PAXTON", "addr:country": "US", "addr:postcode": "69155", "addr:state": "NE", "addr:street_address": "107 N OAK ST", "amenity": "post_box", "collection_times": "Mo-Fr 14:15; Sa 10:15", "indoor": "yes", "note": "ON 12/24 AND 12/31, THIS BOX MAY BE COLLECTED AS EARLY AS 12 NOON.", "nsi_id": "unitedstatespostalservice-a77078", "operator": "United States Postal Service", "operator:short": "USPS", "operator:type": "public", "operator:wikidata": "Q668687", "ref": "6915500002"}, "type": "Feature"}
{"geometry": {"coordinates": [-101.356155023, 41.123477745], "type": "Point"}, "id": "QoJvpFUsedqc_ZiH_a0O41K--Mk=", "properties": {"@source_uri": "https://tools.usps.com/UspsToolsRestServices/rest/POLocator/findLocations", "@spider": "usps_collection_boxes", "addr:city": "PAXTON", "addr:country": "US", "addr:postcode": "69155", "addr:state": "NE", "addr:street_address": "107 N OAK ST", "amenity": "post_box", "collection_times": "Mo-Fr 14:15; Sa 10:15", "indoor": "yes", "note": "ON 12/24 AND 12/31, THIS BOX MAY BE COLLECTED AS EARLY AS 12 NOON.", "nsi_id": "unitedstatespostalservice-a77078", "operator": "United States Postal Service", "operator:short": "USPS", "operator:type": "public", "operator:wikidata": "Q668687", "ref": "6915500004"}, "type": "Feature"}
{"geometry": {"coordinates": [-103.315234, 41.217287], "type": "Point"}, "id": "kyeTJCPmpTR_vshZFF-IfIt37aE=", "properties": {"@source_uri": "https://tools.usps.com/UspsToolsRestServices/rest/POLocator/findLocations", "@spider": "usps_collection_boxes", "addr:city": "POTTER", "addr:country": "US", "addr:postcode": "69156", "addr:state": "NE", "addr:street_address": "1017 SHERMAN ST", "amenity": "post_box", "collection_times": "Mo-Fr 13:45; Sa 09:15", "note": "ON 12/24 AND 12/31, THIS BOX MAY BE COLLECTED AS EARLY AS 12 NOON.", "nsi_id": "unitedstatespostalservice-a77078", "operator": "United States Postal Service", "operator:short": "USPS", "operator:type": "public", "operator:wikidata": "Q668687", "ref": "6915600001"}, "type": "Feature"}
{"geometry": {"coordinates": [-103.315315, 41.217313], "type": "Point"}, "id": "xIvEv71KZk7BBAKRnucAdxaqDKg=", "properties": {"@source_uri": "https://tools.usps.com/UspsToolsRestServices/rest/POLocator/findLocations", "@spider": "usps_collection_boxes", "addr:city": "POTTER", "addr:country": "US", "addr:postcode": "69156", "addr:state": "NE", "addr:street_address": "1017 SHERMAN ST", "amenity": "post_box", "collection_times": "Mo-Fr 13:45; Sa 09:15", "indoor": "yes", "note": "ON 12/24 AND 12/31, THIS BOX MAY BE COLLECTED AS EARLY AS 12 NOON.", "nsi_id": "unitedstatespostalservice-a77078", "operator": "United States Postal Service", "operator:short": "USPS", "operator:type": "public", "operator:wikidata": "Q668687", "ref": "6915600002"}, "type": "Feature"}
{"geometry": {"coordinates": [-103.314991332, 41.217282547], "type": "Point"}, "id": "dPvNDgIVxmYs_ZV-LLTjVCWnoHI=", "properties": {"@source_uri": "https://tools.usps.com/UspsToolsRestServices/rest/POLocator/findLocations", "@spider": "usps_collection_boxes", "addr:city": "POTTER", "addr:country": "US", "addr:postcode": "69156", "addr:state": "NE", "addr:street_address": "1017 SHERMAN ST", "amenity": "post_box", "collection_times": "Mo-Fr 13:45; Sa 09:15", "indoor": "yes", "note": "ON 12/24 AND 12/31, THIS BOX MAY BE COLLECTED AS EARLY AS 12 NOON.", "nsi_id": "unitedstatespostalservice-a77078", "operator": "United States Postal Service", "operator:short": "USPS", "operator:type": "public", "operator:wikidata": "Q668687", "ref": "6915600004"}, "type": "Feature"}
{"geometry": {"coordinates": [-100.209161, 42.051101], "type": "Point"}, "id": "Vq83053aOnbIf6s1qRXVeNer4A8=", "properties": {"@source_uri": "https://tools.usps.com/UspsToolsRestServices/rest/POLocator/findLocations", "@spider": "usps_collection_boxes", "addr:city": "PURDUM", "addr:country": "US", "addr:postcode": "69157", "addr:state": "NE", "addr:street_address": "84451 PURDUM AVE 69157", "amenity": "post_box", "collection_times": "Mo-Sa 11:30", "nsi_id": "unitedstatespostalservice-a77078", "operator": "United States Postal Service", "operator:short": "USPS", "operator:type": "public", "operator:wikidata": "Q668687", "ref": "6915700001"}, "type": "Feature"}
{"geometry": {"coordinates": [-100.1048299847, 41.9604195297], "type": "Point"}, "id": "3GUz_4C4QjEZ7GhfBHkBqd4ynTs=", "properties": {"@source_uri": "https://tools.usps.com/UspsToolsRestServices/rest/POLocator/findLocations", "@spider": "usps_collection_boxes", "addr:city": "PURDUM", "addr:country": "US", "addr:postcode": "69157", "addr:state": "NE", "addr:street_address": "100 MAIN ST", "amenity": "post_box", "collection_times": "Mo-Sa 11:30", "indoor": "yes", "nsi_id": "unitedstatespostalservice-a77078", "operator": "United States Postal Service", "operator:short": "USPS", "operator:type": "public", "operator:wikidata": "Q668687", "ref": "6915700002"}, "type": "Feature"}
{"geometry": {"coordinates": [-100.2689416695, 41.9024000326], "type": "Point"}, "id": "x7whgGGea7k9U8LW4I2lDbNdN8w=", "properties": {"@source_uri": "https://tools.usps.com/UspsToolsRestServices/rest/POLocator/findLocations", "@spider": "usps_collection_boxes", "addr:city": "PURDUM", "addr:country": "US", "addr:postcode": "69157", "addr:state": "NE", "addr:street_address": "100 MAIN ST", "amenity": "post_box", "collection_times": "Mo-Sa 11:30", "indoor": "yes", "nsi_id": "unitedstatespostalservice-a77078", "operator": "United States Postal Service", "operator:short": "USPS", "operator:type": "public", "operator:wikidata": "Q668687", "ref": "6915700003"}, "type": "Feature"}
{"geometry": {"coordinates": [-100.832509, 42.042222], "type": "Point"}, "id": "8sq9o65rDOapW4ZSWpgODEQ-hHg=", "properties": {"@source_uri": "https://tools.usps.com/UspsToolsRestServices/rest/POLocator/findLocations", "@spider": "usps_collection_boxes", "addr:city": "SENECA", "addr:country": "US", "addr:postcode": "69161", "addr:state": "NE", "addr:street_address": "109 WEST ST", "amenity": "post_box", "collection_times": "Mo-Fr 11:45; Sa 10:45", "nsi_id": "unitedstatespostalservice-a77078", "operator": "United States Postal Service", "operator:short": "USPS", "operator:type": "public", "operator:wikidata": "Q668687", "ref": "6916100001"}, "type": "Feature"}
{"geometry": {"coordinates": [-100.832699, 42.042144], "type": "Point"}, "id": "ZUpzn-GZ60MRbG9rDF-eTDBer-U=", "properties": {"@source_uri": "https://tools.usps.com/UspsToolsRestServices/rest/POLocator/findLocations", "@spider": "usps_collection_boxes", "addr:city": "SENECA", "addr:country": "US", "addr:postcode": "69161", "addr:state": "NE", "addr:street_address": "109 WEST ST", "amenity": "post_box", "collection_times": "Mo-Fr 11:40; Sa 10:45", "indoor": "yes", "nsi_id": "unitedstatespostalservice-a77078", "operator": "United States Postal Service", "operator:short": "USPS", "operator:type": "public", "operator:wikidata": "Q668687", "ref": "6916100002"}, "type": "Feature"}
{"geometry": {"coordinates": [-100.8326655347, 42.0422306961], "type": "Point"}, "id": "tQqTmQLqEU1VKbtTf0TbFQ55JH8=", "properties": {"@source_uri": "https://tools.usps.com/UspsToolsRestServices/rest/POLocator/findLocations", "@spider": "usps_collection_boxes", "addr:city": "SENECA", "addr:country": "US", "addr:postcode": "69161", "addr:state": "NE", "addr:street_address": "109 WEST ST", "amenity": "post_box", "collection_times": "Mo-Fr 11:40; Sa 10:45", "indoor": "yes", "nsi_id": "unitedstatespostalservice-a77078", "operator": "United States Postal Service", "operator:short": "USPS", "operator:type": "public", "operator:wikidata": "Q668687", "ref": "6916100004"}, "type": "Feature"}
{"geometry": {"coordinates": [-102.974847, 41.144928], "type": "Point"}, "id": "MB4cypWxtZ13PccWB-j0UA2ItNY=", "properties": {"@source_uri": "https://tools.usps.com/UspsToolsRestServices/rest/POLocator/findLocations", "@spider": "usps_collection_boxes", "addr:city": "SIDNEY", "addr:country": "US", "addr:postcode": "69162", "addr:state": "NE", "addr:street_address": "844 ILLINOIS ST", "amenity": "post_box", "collection_times": "Mo-Fr 16:20; Sa 16:00", "note": "ON 12/24 AND 12/31, THIS BOX MAY BE COLLECTED AS EARLY AS 12 NOON.", "nsi_id": "unitedstatespostalservice-a77078", "operator": "United States Postal Service", "operator:short": "USPS", "operator:type": "public", "operator:wikidata": "Q668687", "ref": "6916200006"}, "type": "Feature"}
{"geometry": {"coordinates": [-102.974847, 41.144928], "type": "Point"}, "id": "M6Ko3t3JwSBvOO_W68nG1eVcpcE=", "properties": {"@source_uri": "https://tools.usps.com/UspsToolsRestServices/rest/POLocator/findLocations", "@spider": "usps_collection_boxes", "addr:city": "SIDNEY", "addr:country": "US", "addr:postcode": "69162", "addr:state": "NE", "addr:street_address": "844 ILLINOIS ST", "amenity": "post_box", "collection_times": "Mo-Fr 16:15; Sa 10:45", "indoor": "yes", "note": "ON 12/24 AND 12/31, THIS BOX MAY BE COLLECTED AS EARLY AS 12 NOON.", "nsi_id": "unitedstatespostalservice-a77078", "operator": "United States Postal Service", "operator:short": "USPS", "operator:type": "public", "operator:wikidata": "Q668687", "ref": "6916200008"}, "type": "Feature"}
{"geometry": {"coordinates": [-102.97768, 41.142941], "type": "Point"}, "id": "NtO7dQaD5vB_XHqxblSiWxc_2HI=", "properties": {"@source_uri": "https://tools.usps.com/UspsToolsRestServices/rest/POLocator/findLocations", "@spider": "usps_collection_boxes", "addr:city": "SIDNEY", "addr:country": "US", "addr:postcode": "69162", "addr:state": "NE", "addr:street_address": "1000 10TH AVE", "amenity": "post_box", "collection_times": "Mo-Fr 14:30; Sa 12:00", "note": "ON 12/24 AND 12/31, THIS BOX MAY BE COLLECTED AS EARLY AS 12 NOON.", "nsi_id": "unitedstatespostalservice-a77078", "operator": "United States Postal Service", "operator:short": "USPS", "operator:type": "public", "operator:wikidata": "Q668687", "ref": "6916200009"}, "type": "Feature"}
{"geometry": {"coordinates": [-102.974848556, 41.144972445], "type": "Point"}, "id": "zmKBjIcouQrGKUzVJNFaSlWL2O0=", "properties": {"@source_uri": "https://tools.usps.com/UspsToolsRestServices/rest/POLocator/findLocations", "@spider": "usps_collection_boxes", "addr:city": "SIDNEY", "addr:country": "US", "addr:postcode": "69162", "addr:state": "NE", "addr:street_address": "844 ILLINOIS ST", "amenity": "post_box", "collection_times": "Mo-Fr 16:15; Sa 10:45", "indoor": "yes", "note": "ON 12/24 AND 12/31, THIS BOX MAY BE COLLECTED AS EARLY AS 12 NOON.", "nsi_id": "unitedstatespostalservice-a77078", "operator": "United States Postal Service", "operator:short": "USPS", "operator:type": "public", "operator:wikidata": "Q668687", "ref": "6916200011"}, "type": "Feature"}
{"geometry": {"coordinates": [-100.5131373637, 41.4787263637], "type": "Point"}, "id": "fJAvzxXiN7FxJtJGrWIZh9n8T4k=", "properties": {"@source_uri": "https://tools.usps.com/UspsToolsRestServices/rest/POLocator/findLocations", "@spider": "usps_collection_boxes", "addr:city": "STAPLETON", "addr:country": "US", "addr:postcode": "69163", "addr:state": "NE", "addr:street_address": "302 MAIN ST", "amenity": "post_box", "collection_times": "Mo-Sa 19:00", "note": "ON 12/24 AND 12/31, THIS BOX MAY BE COLLECTED AS EARLY AS 12 NOON.", "nsi_id": "unitedstatespostalservice-a77078", "operator": "United States Postal Service", "operator:short": "USPS", "operator:type": "public", "operator:wikidata": "Q668687", "ref": "6916300001"}, "type": "Feature"}
{"geometry": {"coordinates": [-100.5131373637, 41.4787263637], "type": "Point"}, "id": "2shqrq8xsdUukiChuHtO6oBoaTE=", "properties": {"@source_uri": "https://tools.usps.com/UspsToolsRestServices/rest/POLocator/findLocations", "@spider": "usps_collection_boxes", "addr:city": "STAPLETON", "addr:country": "US", "addr:postcode": "69163", "addr:state": "NE", "addr:street_address": "302 MAIN ST", "amenity": "post_box", "collection_times": "Mo-Fr 15:45; Sa 09:15", "indoor": "yes", "note": "ON 12/24 AND 12/31, THIS BOX MAY BE COLLECTED AS EARLY AS 12 NOON.", "nsi_id": "unitedstatespostalservice-a77078", "operator": "United States Postal Service", "operator:short": "USPS", "operator:type": "public", "operator:wikidata": "Q668687", "ref": "6916300002"}, "type": "Feature"}
{"geometry": {"coordinates": [-100.5131373637, 41.4787263637], "type": "Point"}, "id": "CwQHLWb1kxE87SjXOR3BjN-NBFM=", "properties": {"@source_uri": "https://tools.usps.com/UspsToolsRestServices/rest/POLocator/findLocations", "@spider": "usps_collection_boxes", "addr:city": "STAPLETON", "addr:country": "US", "addr:postcode": "69163", "addr:state": "NE", "addr:street_address": "302 MAIN ST", "amenity": "post_box", "collection_times": "Mo-Fr 15:45; Sa 09:15", "indoor": "yes", "note": "ON 12/24 AND 12/31, THIS BOX MAY BE COLLECTED AS EARLY AS 12 NOON.", "nsi_id": "unitedstatespostalservice-a77078", "operator": "United States Postal Service", "operator:short": "USPS", "operator:type": "public", "operator:wikidata": "Q668687", "ref": "6916300004"}, "type": "Feature"}
{"geometry": {"coordinates": [-101.126298068, 41.157446616], "type": "Point"}, "id": "BFY4p3L7erR2MbjFJSiaZdkH0CQ=", "properties": {"@source_uri": "https://tools.usps.com/UspsToolsRestServices/rest/POLocator/findLocations", "@spider": "usps_collection_boxes", "addr:city": "SUTHERLAND", "addr:country": "US", "addr:postcode": "69165", "addr:state": "NE", "addr:street_address": "110 WALNUT ST", "amenity": "post_box", "collection_times": "Mo-Fr 16:00; Sa 10:45", "note": "ON 12/24 AND 12/31, THIS BOX MAY BE COLLECTED AS EARLY AS 12 NOON.", "nsi_id": "unitedstatespostalservice-a77078", "operator": "United States Postal Service", "operator:short": "USPS", "operator:type": "public", "operator:wikidata": "Q668687", "ref": "6916500001"}, "type": "Feature"}
{"geometry": {"coordinates": [-101.126338, 41.157446], "type": "Point"}, "id": "J3uUARIsdxCDpeFMbLd7-sCTmVM=", "properties": {"@source_uri": "https://tools.usps.com/UspsToolsRestServices/rest/POLocator/findLocations", "@spider": "usps_collection_boxes", "addr:city": "SUTHERLAND", "addr:country": "US", "addr:postcode": "69165", "addr:state": "NE", "addr:street_address": "110 WALNUT ST", "amenity": "post_box", "collection_times": "Mo-Fr 16:00; Sa 10:45", "indoor": "yes", "note": "ON 12/24 AND 12/31, THIS BOX MAY BE COLLECTED AS EARLY AS 12 NOON.", "nsi_id": "unitedstatespostalservice-a77078", "operator": "United States Postal Service", "operator:short": "USPS", "operator:type": "public", "operator:wikidata": "Q668687", "ref": "6916500002"}, "type": "Feature"}
{"geometry": {"coordinates": [-101.1262980683, 41.1574376159], "type": "Point"}, "id": "ElygQN2BLsR2ICOpAokN0G0V3M8=", "properties": {"@source_uri": "https://tools.usps.com/UspsToolsRestServices/rest/POLocator/findLocations", "@spider": "usps_collection_boxes", "addr:city": "SUTHERLAND", "addr:country": "US", "addr:postcode": "69165", "addr:state": "NE", "addr:street_address": "110 WALNUT ST", "amenity": "post_box", "collection_times": "Mo-Fr 16:00; Sa 10:45", "indoor": "yes", "note": "ON 12/24 AND 12/31, THIS BOX MAY BE COLLECTED AS EARLY AS 12 NOON.", "nsi_id": "unitedstatespostalservice-a77078", "operator": "United States Postal Service", "operator:short": "USPS", "operator:type": "public", "operator:wikidata": "Q668687", "ref": "6916500004"}, "type": "Feature"}
{"geometry": {"coordinates": [-100.574316961, 41.977835717], "type": "Point"}, "id": "d_7CQXxm1lbe5rePTY0ZlXWO08E=", "properties": {"@source_uri": "https://tools.usps.com/UspsToolsRestServices/rest/POLocator/findLocations", "@spider": "usps_collection_boxes", "addr:city": "THEDFORD", "addr:country": "US", "addr:postcode": "69166", "addr:state": "NE", "addr:street_address": "507 WALNUT ST", "amenity": "post_box", "collection_times": "Mo-Sa 18:00", "note": "ON 12/24 AND 12/31, THIS BOX MAY BE COLLECTED AS EARLY AS 12 NOON.", "nsi_id": "unitedstatespostalservice-a77078", "operator": "United States Postal Service", "operator:short": "USPS", "operator:type": "public", "operator:wikidata": "Q668687", "ref": "6916600001"}, "type": "Feature"}
{"geometry": {"coordinates": [-100.625465, 42.286968], "type": "Point"}, "id": "VZaxcr0Rl8i5VltMqKxMJw9308Y=", "properties": {"@source_uri": "https://tools.usps.com/UspsToolsRestServices/rest/POLocator/findLocations", "@spider": "usps_collection_boxes", "addr:city": "THEDFORD", "addr:country": "US", "addr:postcode": "69166", "addr:state": "NE", "addr:street_address": "85952 SENECA RD", "amenity": "post_box", "collection_times": "Mo-Sa 11:45", "nsi_id": "unitedstatespostalservice-a77078", "operator": "United States Postal Service", "operator:short": "USPS", "operator:type": "public", "operator:wikidata": "Q668687", "ref": "6916600002"}, "type": "Feature"}
{"geometry": {"coordinates": [-100.574316961, 41.977835717], "type": "Point"}, "id": "fVPUbRO2odPXA6ma9BMBbyrt1Bo=", "properties": {"@source_uri": "https://tools.usps.com/UspsToolsRestServices/rest/POLocator/findLocations", "@spider": "usps_collection_boxes", "addr:city": "THEDFORD", "addr:country": "US", "addr:postcode": "69166", "addr:state": "NE", "addr:street_address": "507 WALNUT ST", "amenity": "post_box", "collection_times": "Mo-Fr 13:45; Sa 09:45", "indoor": "yes", "note": "ON 12/24 AND 12/31, THIS BOX MAY BE COLLECTED AS EARLY AS 12 NOON.", "nsi_id": "unitedstatespostalservice-a77078", "operator": "United States Postal Service", "operator:short": "USPS", "operator:type": "public", "operator:wikidata": "Q668687", "ref": "6916600003"}, "type": "Feature"}
{"geometry": {"coordinates": [-100.574316961, 41.977835717], "type": "Point"}, "id": "TpMKS2baI7Rl6HgZsOuXo9HABsU=", "properties": {"@source_uri": "https://tools.usps.com/UspsToolsRestServices/rest/POLocator/findLocations", "@spider": "usps_collection_boxes", "addr:city": "THEDFORD", "addr:country": "US", "addr:postcode": "69166", "addr:state": "NE", "addr:street_address": "507 WALNUT ST", "amenity": "post_box", "collection_times": "Mo-Fr 13:45; Sa 09:45", "indoor": "yes", "note": "ON 12/24 AND 12/31, THIS BOX MAY BE COLLECTED AS EARLY AS 12 NOON.", "nsi_id": "unitedstatespostalservice-a77078", "operator": "United States Postal Service", "operator:short": "USPS", "operator:type": "public", "operator:wikidata": "Q668687", "ref": "6916600005"}, "type": "Feature"}
{"geometry": {"coordinates": [-100.957673, 41.554124], "type": "Point"}, "id": "VFEqyObWEIj0qFaNzmOIBGUO2U8=", "properties": {"@source_uri": "https://tools.usps.com/UspsToolsRestServices/rest/POLocator/findLocations", "@spider": "usps_collection_boxes", "addr:city": "TRYON", "addr:country": "US", "addr:postcode": "69167", "addr:state": "NE", "addr:street_address": "488 ANDERSON ST", "amenity": "post_box", "collection_times": "Mo-Sa 17:00", "note": "ON 12/24 AND 12/31, THIS BOX MAY BE COLLECTED AS EARLY AS 12 NOON.", "nsi_id": "unitedstatespostalservice-a77078", "operator": "United States Postal Service", "operator:short": "USPS", "operator:type": "public", "operator:wikidata": "Q668687", "ref": "6916700001"}, "type": "Feature"}
{"geometry": {"coordinates": [-100.957673, 41.554124], "type": "Point"}, "id": "PeJC_0T_SAh4JtPZOsjqvLagWOo=", "properties": {"@source_uri": "https://tools.usps.com/UspsToolsRestServices/rest/POLocator/findLocations", "@spider": "usps_collection_boxes", "addr:city": "TRYON", "addr:country": "US", "addr:postcode": "69167", "addr:state": "NE", "addr:street_address": "488 ANDERSON ST", "amenity": "post_box", "collection_times": "Mo-Fr 14:15; Sa 09:15", "indoor": "yes", "note": "ON 12/24 AND 12/31, THIS BOX MAY BE COLLECTED AS EARLY AS 12 NOON.", "nsi_id": "unitedstatespostalservice-a77078", "operator": "United States Postal Service", "operator:short": "USPS", "operator:type": "public", "operator:wikidata": "Q668687", "ref": "6916700002"}, "type": "Feature"}
{"geometry": {"coordinates": [-100.958454613, 41.544321777], "type": "Point"}, "id": "4lWtb4uQFQA9o0KdRfBtMoG8adI=", "properties": {"@source_uri": "https://tools.usps.com/UspsToolsRestServices/rest/POLocator/findLocations", "@spider": "usps_collection_boxes", "addr:city": "TRYON", "addr:country": "US", "addr:postcode": "69167", "addr:state": "NE", "addr:street_address": "488 ANDERSON ST", "amenity": "post_box", "collection_times": "Mo-Fr 14:15; Sa 09:15", "indoor": "yes", "note": "ON 12/24 AND 12/31, THIS BOX MAY BE COLLECTED AS EARLY AS 12 NOON.", "nsi_id": "unitedstatespostalservice-a77078", "operator": "United States Postal Service", "operator:short": "USPS", "operator:type": "public", "operator:wikidata": "Q668687", "ref": "6916700003"}, "type": "Feature"}
{"geometry": {"coordinates": [-102.040627, 40.763379], "type": "Point"}, "id": "Xgl393RVp6prn1tOtEnZy4k5vuA=", "properties": {"@source_uri": "https://tools.usps.com/UspsToolsRestServices/rest/POLocator/findLocations", "@spider": "usps_collection_boxes", "addr:city": "VENANGO", "addr:country": "US", "addr:postcode": "69168", "addr:state": "NE", "addr:street_address": "112 N PENNSYLVANIA AVE", "amenity": "post_box", "collection_times": "Mo-Fr 12:45; Sa 11:30", "note": "ON 12/24 AND 12/31, THIS BOX MAY BE COLLECTED AS EARLY AS 12 NOON.", "nsi_id": "unitedstatespostalservice-a77078", "operator": "United States Postal Service", "operator:short": "USPS", "operator:type": "public", "operator:wikidata": "Q668687", "ref": "6916800001"}, "type": "Feature"}
{"geometry": {"coordinates": [-102.040591, 40.763312], "type": "Point"}, "id": "wDtMX-2JN9pYCWfeKT-G2O86Ngc=", "properties": {"@source_uri": "https://tools.usps.com/UspsToolsRestServices/rest/POLocator/findLocations", "@spider": "usps_collection_boxes", "addr:city": "VENANGO", "addr:country": "US", "addr:postcode": "69168", "addr:state": "NE", "addr:street_address": "112 N PENNSYLVANIA AVE", "amenity": "post_box", "collection_times": "Mo-Fr 12:45; Sa 11:30", "indoor": "yes", "note": "ON 12/24 AND 12/31, THIS BOX MAY BE COLLECTED AS EARLY AS 12 NOON.", "nsi_id": "unitedstatespostalservice-a77078", "operator": "United States Postal Service", "operator:short": "USPS", "operator:type": "public", "operator:wikidata": "Q668687", "ref": "6916800002"}, "type": "Feature"}
{"geometry": {"coordinates": [-102.04062978, 40.763637555], "type": "Point"}, "id": "xWFRBVIXP-M_M9HWFrym0QLH7Vs=", "properties": {"@source_uri": "https://tools.usps.com/UspsToolsRestServices/rest/POLocator/findLocations", "@spider": "usps_collection_boxes", "addr:city": "VENANGO", "addr:country": "US", "addr:postcode": "69168", "addr:state": "NE", "addr:street_address": "112 N PENNSYLVANIA AVE", "amenity": "post_box", "collection_times": "Mo-Fr 12:45; Sa 11:30", "indoor": "yes", "note": "ON 12/24 AND 12/31, THIS BOX MAY BE COLLECTED AS EARLY AS 12 NOON.", "nsi_id": "unitedstatespostalservice-a77078", "operator": "United States Postal Service", "operator:short": "USPS", "operator:type": "public", "operator:wikidata": "Q668687", "ref": "6916800004"}, "type": "Feature"}
{"geometry": {"coordinates": [-101.165185, 40.837564], "type": "Point"}, "id": "1T0X22yakoA6twspWNoS1IBR45g=", "properties": {"@source_uri": "https://tools.usps.com/UspsToolsRestServices/rest/POLocator/findLocations", "@spider": "usps_collection_boxes", "addr:city": "WALLACE", "addr:country": "US", "addr:postcode": "69169", "addr:state": "NE", "addr:street_address": "233 S COMMERCIAL AVE", "amenity": "post_box", "collection_times": "Mo-Sa 17:30", "note": "ON 12/24 AND 12/31, THIS BOX MAY BE COLLECTED AS EARLY AS 12 NOON.", "nsi_id": "unitedstatespostalservice-a77078", "operator": "United States Postal Service", "operator:short": "USPS", "operator:type": "public", "operator:wikidata": "Q668687", "ref": "6916900001"}, "type": "Feature"}
{"geometry": {"coordinates": [-101.165122, 40.837873], "type": "Point"}, "id": "SdD9Y-fEvupm1qrTxJ_1HEkAkCI=", "properties": {"@source_uri": "https://tools.usps.com/UspsToolsRestServices/rest/POLocator/findLocations", "@spider": "usps_collection_boxes", "addr:city": "WALLACE", "addr:country": "US", "addr:postcode": "69169", "addr:state": "NE", "addr:street_address": "233 S COMMERCIAL AVE", "amenity": "post_box", "collection_times": "Mo-Fr 11:45; Sa 09:15", "indoor": "yes", "nsi_id": "unitedstatespostalservice-a77078", "operator": "United States Postal Service", "operator:short": "USPS", "operator:type": "public", "operator:wikidata": "Q668687", "ref": "6916900002"}, "type": "Feature"}
{"geometry": {"coordinates": [-101.16516896, 40.837904736], "type": "Point"}, "id": "43xoWnU4d661yHEAW6ozO-o-JhI=", "properties": {"@source_uri": "https://tools.usps.com/UspsToolsRestServices/rest/POLocator/findLocations", "@spider": "usps_collection_boxes", "addr:city": "WALLACE", "addr:country": "US", "addr:postcode": "69169", "addr:state": "NE", "addr:street_address": "233 S COMMERCIAL AVE", "amenity": "post_box", "collection_times": "Mo-Fr 11:45; Sa 09:15", "indoor": "yes", "nsi_id": "unitedstatespostalservice-a77078", "operator": "United States Postal Service", "operator:short": "USPS", "operator:type": "public", "operator:wikidata": "Q668687", "ref": "6916900005"}, "type": "Feature"}
{"geometry": {"coordinates": [-100.730144, 40.754936], "type": "Point"}, "id": "vuazd4AJZ__kxwgFqV6yzeXHl3g=", "properties": {"@source_uri": "https://tools.usps.com/UspsToolsRestServices/rest/POLocator/findLocations", "@spider": "usps_collection_boxes", "addr:city": "WELLFLEET", "addr:country": "US", "addr:postcode": "69170", "addr:state": "NE", "addr:street_address": "301 NILE AVE", "amenity": "post_box", "collection_times": "Mo-Sa 18:15", "note": "ON 12/24 AND 12/31, THIS BOX MAY BE COLLECTED AS EARLY AS 12 NOON.", "nsi_id": "unitedstatespostalservice-a77078", "operator": "United States Postal Service", "operator:short": "USPS", "operator:type": "public", "operator:wikidata": "Q668687", "ref": "6917000001"}, "type": "Feature"}
{"geometry": {"coordinates": [-100.730144, 40.754936], "type": "Point"}, "id": "GGHcktcOA1mv3UQvRd0n3XJExdg=", "properties": {"@source_uri": "https://tools.usps.com/UspsToolsRestServices/rest/POLocator/findLocations", "@spider": "usps_collection_boxes", "addr:city": "WELLFLEET", "addr:country": "US", "addr:postcode": "69170", "addr:state": "NE", "addr:street_address": "301 NILE ST", "amenity": "post_box", "collection_times": "Mo-Fr 14:30; Sa 08:45", "indoor": "yes", "note": "ON 12/24 AND 12/31, THIS BOX MAY BE COLLECTED AS EARLY AS 12 NOON.", "nsi_id": "unitedstatespostalservice-a77078", "operator": "United States Postal Service", "operator:short": "USPS", "operator:type": "public", "operator:wikidata": "Q668687", "ref": "6917000002"}, "type": "Feature"}
{"geometry": {"coordinates": [-100.7301331532, 40.7550756145], "type": "Point"}, "id": "bZpe0KWG-0DjmUYMX7w1_i74S_Y=", "properties": {"@source_uri": "https://tools.usps.com/UspsToolsRestServices/rest/POLocator/findLocations", "@spider": "usps_collection_boxes", "addr:city": "WELLFLEET", "addr:country": "US", "addr:postcode": "69170", "addr:state": "NE", "addr:street_address": "301 NILE AVE", "amenity": "post_box", "collection_times": "Mo-Fr 14:30; Sa 08:45", "indoor": "yes", "note": "ON 12/24 AND 12/31, THIS BOX MAY BE COLLECTED AS EARLY AS 12 NOON.", "nsi_id": "unitedstatespostalservice-a77078", "operator": "United States Postal Service", "operator:short": "USPS", "operator:type": "public", "operator:wikidata": "Q668687", "ref": "6917000004"}, "type": "Feature"}
