{"geometry": {"coordinates": [-100.5494740235, 42.8742780038], "type": "Point"}, "id": "tGHPOfMzR7cX4jnceeltu0q_CyY=", "properties": {"@spider": "usps_collection_boxes", "addr:city": "VALENTINE", "addr:country": "US", "addr:full": "239 N HALL ST", "addr:postcode": "69201", "addr:state": "NE", "amenity": "post_box", "brand": "United States Postal Service", "brand:wikidata": "Q668687", "collection_times": "Mo-Sa 17:00", "name": "USPS COLLECTION BOX - BLUE BOX", "note": "ON 12/24 AND 12/31, THIS BOX MAY BE COLLECTED AS EARLY AS 12 NOON.", "nsi_id": "unitedstatespostalservice-a77078", "operator": "United States Postal Service", "operator:short": "USPS", "operator:type": "public", "operator:wikidata": "Q668687", "ref": "6920100004"}, "type": "Feature"}
{"geometry": {"coordinates": [-100.549128, 42.874187], "type": "Point"}, "id": "Qy_qnxQarNq5TdpJPwNnLnpsDU0=", "properties": {"@spider": "usps_collection_boxes", "addr:city": "VALENTINE", "addr:country": "US", "addr:full": "239 N HALL ST", "addr:postcode": "69201", "addr:state": "NE", "amenity": "post_box", "brand": "United States Postal Service", "brand:wikidata": "Q668687", "collection_times": "Mo-Fr 17:00", "name": "USPS COLLECTION BOX - PO LOBBY", "note": "ON 12/24 AND 12/31, THIS BOX MAY BE COLLECTED AS EARLY AS 12 NOON.", "nsi_id": "unitedstatespostalservice-a77078", "operator": "United States Postal Service", "operator:short": "USPS", "operator:type": "public", "operator:wikidata": "Q668687", "ref": "6920100005"}, "type": "Feature"}
{"geometry": {"coordinates": [-100.5491299683, 42.8741716589], "type": "Point"}, "id": "Ht4kyX4tMwaIyzeaQ5ZiJhRs8Xw=", "properties": {"@spider": "usps_collection_boxes", "addr:city": "VALENTINE", "addr:country": "US", "addr:full": "239 N HALL ST", "addr:postcode": "69201", "addr:state": "NE", "amenity": "post_box", "brand": "United States Postal Service", "brand:wikidata": "Q668687", "collection_times": "Mo-Fr 17:00", "name": "USPS COLLECTION BOX - PO LOBBY", "note": "ON 12/24 AND 12/31, THIS BOX MAY BE COLLECTED AS EARLY AS 12 NOON.", "nsi_id": "unitedstatespostalservice-a77078", "operator": "United States Postal Service", "operator:short": "USPS", "operator:type": "public", "operator:wikidata": "Q668687", "ref": "6920100009"}, "type": "Feature"}
{"geometry": {"coordinates": [-99.8628769628, 42.5493409962], "type": "Point"}, "id": "DvcOtwwdGvUtHacs4POALg2LTm4=", "properties": {"@spider": "usps_collection_boxes", "addr:city": "AINSWORTH", "addr:country": "US", "addr:full": "375 N MAIN ST", "addr:postcode": "69210", "addr:state": "NE", "amenity": "post_box", "brand": "United States Postal Service", "brand:wikidata": "Q668687", "collection_times": "Mo-Sa 15:50", "name": "USPS COLLECTION BOX - BLUE BOX", "note": "ON 12/24 AND 12/31, THIS BOX MAY BE COLLECTED AS EARLY AS 12 NOON.", "nsi_id": "unitedstatespostalservice-a77078", "operator": "United States Postal Service", "operator:short": "USPS", "operator:type": "public", "operator:wikidata": "Q668687", "ref": "6921000001"}, "type": "Feature"}
{"geometry": {"coordinates": [-99.862561297, 42.549353329], "type": "Point"}, "id": "bsOi1PO3wSvVV-OMDua5I-HOYrI=", "properties": {"@spider": "usps_collection_boxes", "addr:city": "AINSWORTH", "addr:country": "US", "addr:full": "375 N MAIN ST", "addr:postcode": "69210", "addr:state": "NE", "amenity": "post_box", "brand": "United States Postal Service", "brand:wikidata": "Q668687", "collection_times": "Mo-Fr 15:50; Sa 11:45", "name": "USPS COLLECTION BOX - PO LOBBY", "note": "ON 12/24 AND 12/31, THIS BOX MAY BE COLLECTED AS EARLY AS 12 NOON.", "nsi_id": "unitedstatespostalservice-a77078", "operator": "United States Postal Service", "operator:short": "USPS", "operator:type": "public", "operator:wikidata": "Q668687", "ref": "6921000005"}, "type": "Feature"}
{"geometry": {"coordinates": [-99.862561297, 42.549353329], "type": "Point"}, "id": "Q4RYQ9Ec7pcyIFxIQCajDG7ptYI=", "properties": {"@spider": "usps_collection_boxes", "addr:city": "AINSWORTH", "addr:country": "US", "addr:full": "375 N MAIN ST", "addr:postcode": "69210", "addr:state": "NE", "amenity": "post_box", "brand": "United States Postal Service", "brand:wikidata": "Q668687", "collection_times": "Mo-Fr 15:50; Sa 11:45", "name": "USPS COLLECTION BOX - PO LOBBY", "note": "ON 12/24 AND 12/31, THIS BOX MAY BE COLLECTED AS EARLY AS 12 NOON.", "nsi_id": "unitedstatespostalservice-a77078", "operator": "United States Postal Service", "operator:short": "USPS", "operator:type": "public", "operator:wikidata": "Q668687", "ref": "6921000007"}, "type": "Feature"}
{"geometry": {"coordinates": [-101.2436469836, 42.9354739855], "type": "Point"}, "id": "QnxsEDtROtot8_sR1DeBUso5tLk=", "properties": {"@spider": "usps_collection_boxes", "addr:city": "CODY", "addr:country": "US", "addr:full": "111 E NEBRASKA AVE", "addr:postcode": "69211", "addr:state": "NE", "amenity": "post_box", "brand": "United States Postal Service", "brand:wikidata": "Q668687", "collection_times": "Mo-Fr 14:55; Sa 13:45", "name": "USPS COLLECTION BOX - BLUE BOX", "note": "ON 12/24 AND 12/31, THIS BOX MAY BE COLLECTED AS EARLY AS 12 NOON.", "nsi_id": "unitedstatespostalservice-a77078", "operator": "United States Postal Service", "operator:short": "USPS", "operator:type": "public", "operator:wikidata": "Q668687", "ref": "6921100001"}, "type": "Feature"}
{"geometry": {"coordinates": [-101.243641, 42.935552], "type": "Point"}, "id": "BYK1F170ooqARRVRVjaKPOKWwLI=", "properties": {"@spider": "usps_collection_boxes", "addr:city": "CODY", "addr:country": "US", "addr:full": "111 E NEBRASKA AVE", "addr:postcode": "69211", "addr:state": "NE", "amenity": "post_box", "brand": "United States Postal Service", "brand:wikidata": "Q668687", "collection_times": "Mo-Fr 14:55; Sa 09:45", "name": "USPS COLLECTION BOX - PO LOBBY", "note": "ON 12/24 AND 12/31, THIS BOX MAY BE COLLECTED AS EARLY AS 12 NOON.", "nsi_id": "unitedstatespostalservice-a77078", "operator": "United States Postal Service", "operator:short": "USPS", "operator:type": "public", "operator:wikidata": "Q668687", "ref": "6921100002"}, "type": "Feature"}
{"geometry": {"coordinates": [-101.243640913, 42.935588551], "type": "Point"}, "id": "K9Pk3Rwh3KFQiC6XS8rqapjkXjM=", "properties": {"@spider": "usps_collection_boxes", "addr:city": "CODY", "addr:country": "US", "addr:full": "111 E NEBRASKA AVE", "addr:postcode": "69211", "addr:state": "NE", "amenity": "post_box", "brand": "United States Postal Service", "brand:wikidata": "Q668687", "collection_times": "Mo-Fr 14:55; Sa 09:45", "name": "USPS COLLECTION BOX - PO LOBBY", "note": "ON 12/24 AND 12/31, THIS BOX MAY BE COLLECTED AS EARLY AS 12 NOON.", "nsi_id": "unitedstatespostalservice-a77078", "operator": "United States Postal Service", "operator:short": "USPS", "operator:type": "public", "operator:wikidata": "Q668687", "ref": "6921100004"}, "type": "Feature"}
{"geometry": {"coordinates": [-100.749188, 42.927903], "type": "Point"}, "id": "N9oXiOBlH8X3fxq2VJQM4nnzd3s=", "properties": {"@spider": "usps_collection_boxes", "addr:city": "CROOKSTON", "addr:country": "US", "addr:full": "100 E 2ND ST", "addr:postcode": "69212", "addr:state": "NE", "amenity": "post_box", "brand": "United States Postal Service", "brand:wikidata": "Q668687", "collection_times": "Mo-Fr 15:45; Sa 15:25", "name": "USPS COLLECTION BOX - BLUE BOX", "note": "ON 12/24 AND 12/31, THIS BOX MAY BE COLLECTED AS EARLY AS 12 NOON.", "nsi_id": "unitedstatespostalservice-a77078", "operator": "United States Postal Service", "operator:short": "USPS", "operator:type": "public", "operator:wikidata": "Q668687", "ref": "6921200001"}, "type": "Feature"}
{"geometry": {"coordinates": [-100.752326, 42.927984], "type": "Point"}, "id": "w8IqaLOJUvgABMEBVgmqroMgiCg=", "properties": {"@spider": "usps_collection_boxes", "addr:city": "CROOKSTON", "addr:country": "US", "addr:full": "100 E 2ND ST", "addr:postcode": "69212", "addr:state": "NE", "amenity": "post_box", "brand": "United States Postal Service", "brand:wikidata": "Q668687", "collection_times": "Mo-Fr 11:45; Sa 09:45", "name": "USPS COLLECTION BOX - PO LOBBY", "nsi_id": "unitedstatespostalservice-a77078", "operator": "United States Postal Service", "operator:short": "USPS", "operator:type": "public", "operator:wikidata": "Q668687", "ref": "6921200002"}, "type": "Feature"}
{"geometry": {"coordinates": [-100.7523328345, 42.9279302667], "type": "Point"}, "id": "92oFVpU4YODDqzi4sGMKw1IwxWY=", "properties": {"@spider": "usps_collection_boxes", "addr:city": "CROOKSTON", "addr:country": "US", "addr:full": "100 E 2ND ST", "addr:postcode": "69212", "addr:state": "NE", "amenity": "post_box", "brand": "United States Postal Service", "brand:wikidata": "Q668687", "collection_times": "Mo-Fr 11:45; Sa 09:45", "name": "USPS COLLECTION BOX - PO LOBBY", "nsi_id": "unitedstatespostalservice-a77078", "operator": "United States Postal Service", "operator:short": "USPS", "operator:type": "public", "operator:wikidata": "Q668687", "ref": "6921200004"}, "type": "Feature"}
{"geometry": {"coordinates": [-100.057, 42.567221], "type": "Point"}, "id": "Y62UqTyPE7_CjzyfXNPYexQOFM0=", "properties": {"@spider": "usps_collection_boxes", "addr:city": "JOHNSTOWN", "addr:country": "US", "addr:full": "200 N MAIN ST", "addr:postcode": "69214", "addr:state": "NE", "amenity": "post_box", "brand": "United States Postal Service", "brand:wikidata": "Q668687", "collection_times": "Mo-Sa 16:05", "name": "USPS COLLECTION BOX - BLUE BOX", "note": "ON 12/24 AND 12/31, THIS BOX MAY BE COLLECTED AS EARLY AS 12 NOON.", "nsi_id": "unitedstatespostalservice-a77078", "operator": "United States Postal Service", "operator:short": "USPS", "operator:type": "public", "operator:wikidata": "Q668687", "ref": "6921400001"}, "type": "Feature"}
{"geometry": {"coordinates": [-100.0768319952, 42.4385094241], "type": "Point"}, "id": "8nVt1op37R9lXj8E3tr58zz5p1A=", "properties": {"@spider": "usps_collection_boxes", "addr:city": "JOHNSTOWN", "addr:country": "US", "addr:full": "200 N MAIN ST", "addr:postcode": "69214", "addr:state": "NE", "amenity": "post_box", "brand": "United States Postal Service", "brand:wikidata": "Q668687", "collection_times": "Mo-Fr 11:45; Sa 09:15", "name": "USPS COLLECTION BOX - PO LOBBY", "nsi_id": "unitedstatespostalservice-a77078", "operator": "United States Postal Service", "operator:short": "USPS", "operator:type": "public", "operator:wikidata": "Q668687", "ref": "6921400002"}, "type": "Feature"}
{"geometry": {"coordinates": [-100.057859829, 42.572081368], "type": "Point"}, "id": "lyIlx3o04Qh_FjSCuRRFgJwp1tM=", "properties": {"@spider": "usps_collection_boxes", "addr:city": "JOHNSTOWN", "addr:country": "US", "addr:full": "200 N MAIN ST", "addr:postcode": "69214", "addr:state": "NE", "amenity": "post_box", "brand": "United States Postal Service", "brand:wikidata": "Q668687", "collection_times": "Mo-Fr 11:45; Sa 09:15", "name": "USPS COLLECTION BOX - PO LOBBY", "nsi_id": "unitedstatespostalservice-a77078", "operator": "United States Postal Service", "operator:short": "USPS", "operator:type": "public", "operator:wikidata": "Q668687", "ref": "6921400004"}, "type": "Feature"}
{"geometry": {"coordinates": [-100.955485, 42.937466], "type": "Point"}, "id": "oObXYP5wqKPSGmgUgnieKh5Mz1c=", "properties": {"@spider": "usps_collection_boxes", "addr:city": "KILGORE", "addr:country": "US", "addr:full": "210 MAIN ST", "addr:postcode": "69216", "addr:state": "NE", "amenity": "post_box", "brand": "United States Postal Service", "brand:wikidata": "Q668687", "collection_times": "Mo-Fr 15:15; Sa 14:10", "name": "USPS COLLECTION BOX - BLUE BOX", "note": "ON 12/24 AND 12/31, THIS BOX MAY BE COLLECTED AS EARLY AS 12 NOON.", "nsi_id": "unitedstatespostalservice-a77078", "operator": "United States Postal Service", "operator:short": "USPS", "operator:type": "public", "operator:wikidata": "Q668687", "ref": "6921600001"}, "type": "Feature"}
{"geometry": {"coordinates": [-99.700793, 42.527974], "type": "Point"}, "id": "gR9DabBbSz_vKfeG-CnqIOsF4QI=", "properties": {"@spider": "usps_collection_boxes", "addr:city": "LONG PINE", "addr:country": "US", "addr:full": "421 N MAIN ST", "addr:postcode": "69217", "addr:state": "NE", "amenity": "post_box", "brand": "United States Postal Service", "brand:wikidata": "Q668687", "collection_times": "Mo-Sa 15:25", "name": "USPS COLLECTION BOX - BLUE BOX", "note": "ON 12/24 AND 12/31, THIS BOX MAY BE COLLECTED AS EARLY AS 12 NOON.", "nsi_id": "unitedstatespostalservice-a77078", "operator": "United States Postal Service", "operator:short": "USPS", "operator:type": "public", "operator:wikidata": "Q668687", "ref": "6921700001"}, "type": "Feature"}
{"geometry": {"coordinates": [-99.700828, 42.535669], "type": "Point"}, "id": "l8pHjXt1oEF1YoTRdDJIIu4WeZA=", "properties": {"@spider": "usps_collection_boxes", "addr:city": "LONG PINE", "addr:country": "US", "addr:full": "421 N MAIN ST", "addr:postcode": "69217", "addr:state": "NE", "amenity": "post_box", "brand": "United States Postal Service", "brand:wikidata": "Q668687", "collection_times": "Mo-Fr 14:15; Sa 09:15", "name": "USPS COLLECTION BOX - PO LOBBY", "note": "ON 12/24 AND 12/31, THIS BOX MAY BE COLLECTED AS EARLY AS 12 NOON.", "nsi_id": "unitedstatespostalservice-a77078", "operator": "United States Postal Service", "operator:short": "USPS", "operator:type": "public", "operator:wikidata": "Q668687", "ref": "6921700002"}, "type": "Feature"}
{"geometry": {"coordinates": [-99.700875838, 42.535697449], "type": "Point"}, "id": "ujR1sfujaxaBfXyztkpPGkhIRLY=", "properties": {"@spider": "usps_collection_boxes", "addr:city": "LONG PINE", "addr:country": "US", "addr:full": "421 N MAIN ST", "addr:postcode": "69217", "addr:state": "NE", "amenity": "post_box", "brand": "United States Postal Service", "brand:wikidata": "Q668687", "collection_times": "Mo-Fr 14:15; Sa 09:15", "name": "USPS COLLECTION BOX - PO LOBBY", "note": "ON 12/24 AND 12/31, THIS BOX MAY BE COLLECTED AS EARLY AS 12 NOON.", "nsi_id": "unitedstatespostalservice-a77078", "operator": "United States Postal Service", "operator:short": "USPS", "operator:type": "public", "operator:wikidata": "Q668687", "ref": "6921700004"}, "type": "Feature"}
{"geometry": {"coordinates": [-101.700677, 42.917719], "type": "Point"}, "id": "fjBUG94301IfYujusi4gdngMP_E=", "properties": {"@spider": "usps_collection_boxes", "addr:city": "MERRIMAN", "addr:country": "US", "addr:full": "110 N MILLS ST", "addr:postcode": "69218", "addr:state": "NE", "amenity": "post_box", "brand": "United States Postal Service", "brand:wikidata": "Q668687", "collection_times": "Mo-Fr 14:15; Sa 13:05", "name": "USPS COLLECTION BOX - BLUE BOX", "note": "ON 12/24 AND 12/31, THIS BOX MAY BE COLLECTED AS EARLY AS 12 NOON.", "nsi_id": "unitedstatespostalservice-a77078", "operator": "United States Postal Service", "operator:short": "USPS", "operator:type": "public", "operator:wikidata": "Q668687", "ref": "6921800001"}, "type": "Feature"}
{"geometry": {"coordinates": [-101.700643, 42.917647], "type": "Point"}, "id": "KvKBIKxsk40hzizv4WWdT7RJoP0=", "properties": {"@spider": "usps_collection_boxes", "addr:city": "MERRIMAN", "addr:country": "US", "addr:full": "110 N MILLS ST", "addr:postcode": "69218", "addr:state": "NE", "amenity": "post_box", "brand": "United States Postal Service", "brand:wikidata": "Q668687", "collection_times": "Mo-Fr 12:45; Sa 10:45", "name": "USPS COLLECTION BOX - PO LOBBY", "note": "ON 12/24 AND 12/31, THIS BOX MAY BE COLLECTED AS EARLY AS 12 NOON.", "nsi_id": "unitedstatespostalservice-a77078", "operator": "United States Postal Service", "operator:short": "USPS", "operator:type": "public", "operator:wikidata": "Q668687", "ref": "6921800002"}, "type": "Feature"}
{"geometry": {"coordinates": [-101.7006415226, 42.9192995029], "type": "Point"}, "id": "s_05LIUvzc-d_fR7hSkW9Le0vfw=", "properties": {"@spider": "usps_collection_boxes", "addr:city": "MERRIMAN", "addr:country": "US", "addr:full": "110 N MILLS ST", "addr:postcode": "69218", "addr:state": "NE", "amenity": "post_box", "brand": "United States Postal Service", "brand:wikidata": "Q668687", "collection_times": "Mo-Fr 12:45; Sa 10:45", "name": "USPS COLLECTION BOX - PO LOBBY", "note": "ON 12/24 AND 12/31, THIS BOX MAY BE COLLECTED AS EARLY AS 12 NOON.", "nsi_id": "unitedstatespostalservice-a77078", "operator": "United States Postal Service", "operator:short": "USPS", "operator:type": "public", "operator:wikidata": "Q668687", "ref": "6921800004"}, "type": "Feature"}
{"geometry": {"coordinates": [-100.238268, 42.632071], "type": "Point"}, "id": "_oz3oBq7UbIzou7QYsu_jvVv-Eo=", "properties": {"@spider": "usps_collection_boxes", "addr:city": "WOOD LAKE", "addr:country": "US", "addr:full": "100 N MAIN ST", "addr:postcode": "69221", "addr:state": "NE", "amenity": "post_box", "brand": "United States Postal Service", "brand:wikidata": "Q668687", "collection_times": "Mo-Fr 16:15; Sa 16:20", "name": "USPS COLLECTION BOX - BLUE BOX", "note": "ON 12/24 AND 12/31, THIS BOX MAY BE COLLECTED AS EARLY AS 12 NOON.", "nsi_id": "unitedstatespostalservice-a77078", "operator": "United States Postal Service", "operator:short": "USPS", "operator:type": "public", "operator:wikidata": "Q668687", "ref": "6922100001"}, "type": "Feature"}
{"geometry": {"coordinates": [-100.2378126041, 42.6350573191], "type": "Point"}, "id": "ZwsduFYzG1OO9N0Ah0D4k7ZXTME=", "properties": {"@spider": "usps_collection_boxes", "addr:city": "WOOD LAKE", "addr:country": "US", "addr:full": "100 N MAIN ST", "addr:postcode": "69221", "addr:state": "NE", "amenity": "post_box", "brand": "United States Postal Service", "brand:wikidata": "Q668687", "collection_times": "Mo-Fr 11:45; Sa 09:15", "name": "USPS COLLECTION BOX - PO LOBBY", "nsi_id": "unitedstatespostalservice-a77078", "operator": "United States Postal Service", "operator:short": "USPS", "operator:type": "public", "operator:wikidata": "Q668687", "ref": "6922100005"}, "type": "Feature"}
{"geometry": {"coordinates": [-100.2378126041, 42.6350573191], "type": "Point"}, "id": "ZvysnySTKjfl3Skjq4DsTwCcB68=", "properties": {"@spider": "usps_collection_boxes", "addr:city": "WOOD LAKE", "addr:country": "US", "addr:full": "100 N MAIN ST", "addr:postcode": "69221", "addr:state": "NE", "amenity": "post_box", "brand": "United States Postal Service", "brand:wikidata": "Q668687", "collection_times": "Mo-Fr 11:45; Sa 09:15", "name": "USPS COLLECTION BOX - PO LOBBY", "nsi_id": "unitedstatespostalservice-a77078", "operator": "United States Postal Service", "operator:short": "USPS", "operator:type": "public", "operator:wikidata": "Q668687", "ref": "6922100006"}, "type": "Feature"}
