{"dataset_attributes": {"@spider": "usps_collection_boxes", "spider:collection_time": "2024-01-01T08:25:44.650502"}, "geometry": {"coordinates": [-102.870617, 42.098211], "type": "Point"}, "id": "20a3xZhRxruDM7ITmfXC3I-hrY8=", "properties": {"@spider": "usps_collection_boxes", "addr:city": "ALLIANCE", "addr:country": "US", "addr:full": "100 E 4TH ST", "addr:postcode": "69301", "addr:state": "NE", "amenity": "post_box", "brand": "United States Postal Service", "brand:wikidata": "Q668687", "collection_times": "Mo-Sa 15:20", "name": "USPS COLLECTION BOX - BLUE BOX", "note": "ON 12/24 AND 12/31, THIS BOX MAY BE COLLECTED AS EARLY AS 12 NOON.", "nsi_id": "unitedstatespostalservice-a77078", "operator": "United States Postal Service", "operator:short": "USPS", "operator:type": "public", "operator:wikidata": "Q668687", "ref": "6930100001"}, "type": "Feature"}
{"dataset_attributes": {"@spider": "usps_collection_boxes", "spider:collection_time": "2024-01-01T08:25:44.650502"}, "geometry": {"coordinates": [-102.870617, 42.098211], "type": "Point"}, "id": "Fu40S92NbS0RyXFs-pbKJANN1UQ=", "properties": {"@spider": "usps_collection_boxes", "addr:city": "ALLIANCE", "addr:country": "US", "addr:full": "100 E 4TH ST", "addr:postcode": "69301", "addr:state": "NE", "amenity": "post_box", "brand": "United States Postal Service", "brand:wikidata": "Q668687", "collection_times": "Mo-Sa 15:20", "name": "USPS COLLECTION BOX - BLUE BOX", "note": "ON 12/24 AND 12/31, THIS BOX MAY BE COLLECTED AS EARLY AS 12 NOON.", "nsi_id": "unitedstatespostalservice-a77078", "operator": "United States Postal Service", "operator:short": "USPS", "operator:type": "public", "operator:wikidata": "Q668687", "ref": "6930100004"}, "type": "Feature"}
{"dataset_attributes": {"@spider": "usps_collection_boxes", "spider:collection_time": "2024-01-01T08:25:44.650502"}, "geometry": {"coordinates": [-102.870617, 42.098211], "type": "Point"}, "id": "mfP6x4Us6T4B0FIQ9xxPRv_fnH8=", "properties": {"@spider": "usps_collection_boxes", "addr:city": "ALLIANCE", "addr:country": "US", "addr:full": "100 E 4TH ST", "addr:postcode": "69301", "addr:state": "NE", "amenity": "post_box", "brand": "United States Postal Service", "brand:wikidata": "Q668687", "collection_times": "Mo-Sa 15:20", "name": "USPS COLLECTION BOX - EXPRESS", "note": "ON 12/24 AND 12/31, THIS BOX MAY BE COLLECTED AS EARLY AS 12 NOON.", "nsi_id": "unitedstatespostalservice-a77078", "operator": "United States Postal Service", "operator:short": "USPS", "operator:type": "public", "operator:wikidata": "Q668687", "ref": "6930100005"}, "type": "Feature"}
{"dataset_attributes": {"@spider": "usps_collection_boxes", "spider:collection_time": "2024-01-01T08:25:44.650502"}, "geometry": {"coordinates": [-102.870617, 42.098211], "type": "Point"}, "id": "kDhVSgzceQTomMFAqLEYSVuRgGQ=", "properties": {"@spider": "usps_collection_boxes", "addr:city": "ALLIANCE", "addr:country": "US", "addr:full": "100 E 4TH ST", "addr:postcode": "69301", "addr:state": "NE", "amenity": "post_box", "brand": "United States Postal Service", "brand:wikidata": "Q668687", "collection_times": "Mo-Sa 15:20", "name": "USPS COLLECTION BOX - PO LOBBY", "note": "ON 12/24 AND 12/31, THIS BOX MAY BE COLLECTED AS EARLY AS 12 NOON.", "nsi_id": "unitedstatespostalservice-a77078", "operator": "United States Postal Service", "operator:short": "USPS", "operator:type": "public", "operator:wikidata": "Q668687", "ref": "6930100006"}, "type": "Feature"}
{"dataset_attributes": {"@spider": "usps_collection_boxes", "spider:collection_time": "2024-01-01T08:25:44.650502"}, "geometry": {"coordinates": [-102.8707064697, 42.098184199], "type": "Point"}, "id": "gyy3nuSNMnhuMureU9hD8H6n-i8=", "properties": {"@spider": "usps_collection_boxes", "addr:city": "ALLIANCE", "addr:country": "US", "addr:full": "401 BOX BUTTE AVE", "addr:postcode": "69301", "addr:state": "NE", "amenity": "post_box", "brand": "United States Postal Service", "brand:wikidata": "Q668687", "collection_times": "Mo-Fr 15:20; Sa 10:30", "name": "USPS COLLECTION BOX - PO LOBBY", "note": "ON 12/24 AND 12/31, THIS BOX MAY BE COLLECTED AS EARLY AS 12 NOON.", "nsi_id": "unitedstatespostalservice-a77078", "operator": "United States Postal Service", "operator:short": "USPS", "operator:type": "public", "operator:wikidata": "Q668687", "ref": "6930100007"}, "type": "Feature"}
{"dataset_attributes": {"@spider": "usps_collection_boxes", "spider:collection_time": "2024-01-01T08:25:44.650502"}, "geometry": {"coordinates": [-103.035565, 41.844047], "type": "Point"}, "id": "yk51_9hVZXxXYtFA-bIqZ1t1kzw=", "properties": {"@spider": "usps_collection_boxes", "addr:city": "ANGORA", "addr:country": "US", "addr:full": "100 ROAD 118", "addr:postcode": "69331", "addr:state": "NE", "amenity": "post_box", "brand": "United States Postal Service", "brand:wikidata": "Q668687", "collection_times": "Mo-Fr 12:55; Sa 12:35", "name": "USPS COLLECTION BOX - BLUE BOX", "note": "ON 12/24 AND 12/31, THIS BOX MAY BE COLLECTED AS EARLY AS 12 NOON.", "nsi_id": "unitedstatespostalservice-a77078", "operator": "United States Postal Service", "operator:short": "USPS", "operator:type": "public", "operator:wikidata": "Q668687", "ref": "6933100001"}, "type": "Feature"}
{"dataset_attributes": {"@spider": "usps_collection_boxes", "spider:collection_time": "2024-01-01T08:25:44.650502"}, "geometry": {"coordinates": [-103.035687, 41.844021], "type": "Point"}, "id": "lIJOaHCBgNtSaiQaaLVITTkoSjU=", "properties": {"@spider": "usps_collection_boxes", "addr:city": "ANGORA", "addr:country": "US", "addr:full": "100 ROAD 118", "addr:postcode": "69331", "addr:state": "NE", "amenity": "post_box", "brand": "United States Postal Service", "brand:wikidata": "Q668687", "collection_times": "Mo-Sa 10:15", "name": "USPS COLLECTION BOX - PO LOBBY", "nsi_id": "unitedstatespostalservice-a77078", "operator": "United States Postal Service", "operator:short": "USPS", "operator:type": "public", "operator:wikidata": "Q668687", "ref": "6933100002"}, "type": "Feature"}
{"dataset_attributes": {"@spider": "usps_collection_boxes", "spider:collection_time": "2024-01-01T08:25:44.650502"}, "geometry": {"coordinates": [-103.035612439, 41.844090842], "type": "Point"}, "id": "vO_UwjO-J3yqcYVPlss2106_I9E=", "properties": {"@spider": "usps_collection_boxes", "addr:city": "ANGORA", "addr:country": "US", "addr:full": "100 ROAD 118", "addr:postcode": "69331", "addr:state": "NE", "amenity": "post_box", "brand": "United States Postal Service", "brand:wikidata": "Q668687", "collection_times": "Mo-Sa 10:15", "name": "USPS COLLECTION BOX - PO LOBBY", "nsi_id": "unitedstatespostalservice-a77078", "operator": "United States Postal Service", "operator:short": "USPS", "operator:type": "public", "operator:wikidata": "Q668687", "ref": "6933100004"}, "type": "Feature"}
{"dataset_attributes": {"@spider": "usps_collection_boxes", "spider:collection_time": "2024-01-01T08:25:44.650502"}, "geometry": {"coordinates": [-101.927313, 42.022408], "type": "Point"}, "id": "Xn1He8DkNBcYtrtZWD-3ecsmgcE=", "properties": {"@spider": "usps_collection_boxes", "addr:city": "ASHBY", "addr:country": "US", "addr:full": "100 MAIN ST", "addr:postcode": "69333", "addr:state": "NE", "amenity": "post_box", "brand": "United States Postal Service", "brand:wikidata": "Q668687", "collection_times": "Mo-Sa 13:30", "name": "USPS COLLECTION BOX - BLUE BOX", "note": "ON 12/24 AND 12/31, THIS BOX MAY BE COLLECTED AS EARLY AS 12 NOON.", "nsi_id": "unitedstatespostalservice-a77078", "operator": "United States Postal Service", "operator:short": "USPS", "operator:type": "public", "operator:wikidata": "Q668687", "ref": "6933300001"}, "type": "Feature"}
{"dataset_attributes": {"@spider": "usps_collection_boxes", "spider:collection_time": "2024-01-01T08:25:44.650502"}, "geometry": {"coordinates": [-101.927313, 42.022408], "type": "Point"}, "id": "Ug46ujFRFvM2Qi8nSeCohV5FMR8=", "properties": {"@spider": "usps_collection_boxes", "addr:city": "ASHBY", "addr:country": "US", "addr:full": "100 MAIN ST", "addr:postcode": "69333", "addr:state": "NE", "amenity": "post_box", "brand": "United States Postal Service", "brand:wikidata": "Q668687", "collection_times": "Mo-Fr 13:30; Sa 09:45", "name": "USPS COLLECTION BOX - PO LOBBY", "note": "ON 12/24 AND 12/31, THIS BOX MAY BE COLLECTED AS EARLY AS 12 NOON.", "nsi_id": "unitedstatespostalservice-a77078", "operator": "United States Postal Service", "operator:short": "USPS", "operator:type": "public", "operator:wikidata": "Q668687", "ref": "6933300002"}, "type": "Feature"}
{"dataset_attributes": {"@spider": "usps_collection_boxes", "spider:collection_time": "2024-01-01T08:25:44.650502"}, "geometry": {"coordinates": [-101.9270778583, 42.0237573583], "type": "Point"}, "id": "I2AuoSoDwT2nHbaTHhbTsxnsYVI=", "properties": {"@spider": "usps_collection_boxes", "addr:city": "ASHBY", "addr:country": "US", "addr:full": "100 MAIN ST", "addr:postcode": "69333", "addr:state": "NE", "amenity": "post_box", "brand": "United States Postal Service", "brand:wikidata": "Q668687", "collection_times": "Mo-Fr 13:30; Sa 09:45", "name": "USPS COLLECTION BOX - PO LOBBY", "note": "ON 12/24 AND 12/31, THIS BOX MAY BE COLLECTED AS EARLY AS 12 NOON.", "nsi_id": "unitedstatespostalservice-a77078", "operator": "United States Postal Service", "operator:short": "USPS", "operator:type": "public", "operator:wikidata": "Q668687", "ref": "6933300004"}, "type": "Feature"}
{"dataset_attributes": {"@spider": "usps_collection_boxes", "spider:collection_time": "2024-01-01T08:25:44.650502"}, "geometry": {"coordinates": [-103.324288, 41.75587], "type": "Point"}, "id": "58cdKgsuOvXJhUUIKrsFP4khJzY=", "properties": {"@spider": "usps_collection_boxes", "addr:city": "BAYARD", "addr:country": "US", "addr:full": "517 MAIN ST", "addr:postcode": "69334", "addr:state": "NE", "amenity": "post_box", "brand": "United States Postal Service", "brand:wikidata": "Q668687", "collection_times": "Mo-Fr 13:55; Sa 13:35", "name": "USPS COLLECTION BOX - BLUE BOX", "note": "ON 12/24 AND 12/31, THIS BOX MAY BE COLLECTED AS EARLY AS 12 NOON.", "nsi_id": "unitedstatespostalservice-a77078", "operator": "United States Postal Service", "operator:short": "USPS", "operator:type": "public", "operator:wikidata": "Q668687", "ref": "6933400001"}, "type": "Feature"}
{"dataset_attributes": {"@spider": "usps_collection_boxes", "spider:collection_time": "2024-01-01T08:25:44.650502"}, "geometry": {"coordinates": [-103.324288, 41.75587], "type": "Point"}, "id": "tV1rEGVW3XHJfVAq4lsbhZHZtok=", "properties": {"@spider": "usps_collection_boxes", "addr:city": "BAYARD", "addr:country": "US", "addr:full": "517 MAIN ST", "addr:postcode": "69334", "addr:state": "NE", "amenity": "post_box", "brand": "United States Postal Service", "brand:wikidata": "Q668687", "collection_times": "Mo-Fr 13:55; Sa 10:15", "name": "USPS COLLECTION BOX - PO LOBBY", "note": "ON 12/24 AND 12/31, THIS BOX MAY BE COLLECTED AS EARLY AS 12 NOON.", "nsi_id": "unitedstatespostalservice-a77078", "operator": "United States Postal Service", "operator:short": "USPS", "operator:type": "public", "operator:wikidata": "Q668687", "ref": "6933400002"}, "type": "Feature"}
{"dataset_attributes": {"@spider": "usps_collection_boxes", "spider:collection_time": "2024-01-01T08:25:44.650502"}, "geometry": {"coordinates": [-103.32429087, 41.755868665], "type": "Point"}, "id": "8evIiGbU6vqJiuqFBdTQCyDW7dc=", "properties": {"@spider": "usps_collection_boxes", "addr:city": "BAYARD", "addr:country": "US", "addr:full": "517 MAIN ST", "addr:postcode": "69334", "addr:state": "NE", "amenity": "post_box", "brand": "United States Postal Service", "brand:wikidata": "Q668687", "collection_times": "Mo-Fr 13:55; Sa 10:15", "name": "USPS COLLECTION BOX - PO LOBBY", "note": "ON 12/24 AND 12/31, THIS BOX MAY BE COLLECTED AS EARLY AS 12 NOON.", "nsi_id": "unitedstatespostalservice-a77078", "operator": "United States Postal Service", "operator:short": "USPS", "operator:type": "public", "operator:wikidata": "Q668687", "ref": "6933400004"}, "type": "Feature"}
{"dataset_attributes": {"@spider": "usps_collection_boxes", "spider:collection_time": "2024-01-01T08:25:44.650502"}, "geometry": {"coordinates": [-103.100542, 41.665208], "type": "Point"}, "id": "39eAnDEoMhNBynKRAwph9TtNBPo=", "properties": {"@spider": "usps_collection_boxes", "addr:city": "BRIDGEPORT", "addr:country": "US", "addr:full": "114 W 10TH ST", "addr:postcode": "69336", "addr:state": "NE", "amenity": "post_box", "brand": "United States Postal Service", "brand:wikidata": "Q668687", "collection_times": "Mo-Fr 13:55; Sa 13:25", "name": "USPS COLLECTION BOX - BLUE BOX", "note": "ON 12/24 AND 12/31, THIS BOX MAY BE COLLECTED AS EARLY AS 12 NOON.", "nsi_id": "unitedstatespostalservice-a77078", "operator": "United States Postal Service", "operator:short": "USPS", "operator:type": "public", "operator:wikidata": "Q668687", "ref": "6933600001"}, "type": "Feature"}
{"dataset_attributes": {"@spider": "usps_collection_boxes", "spider:collection_time": "2024-01-01T08:25:44.650502"}, "geometry": {"coordinates": [-103.100542, 41.665208], "type": "Point"}, "id": "AmMDJzDxAWQDawdGR5EeuHWHBaY=", "properties": {"@spider": "usps_collection_boxes", "addr:city": "BRIDGEPORT", "addr:country": "US", "addr:full": "114 W 10TH ST", "addr:postcode": "69336", "addr:state": "NE", "amenity": "post_box", "brand": "United States Postal Service", "brand:wikidata": "Q668687", "collection_times": "Mo-Fr 13:55; Sa 09:45", "name": "USPS COLLECTION BOX - PO LOBBY", "note": "ON 12/24 AND 12/31, THIS BOX MAY BE COLLECTED AS EARLY AS 12 NOON.", "nsi_id": "unitedstatespostalservice-a77078", "operator": "United States Postal Service", "operator:short": "USPS", "operator:type": "public", "operator:wikidata": "Q668687", "ref": "6933600002"}, "type": "Feature"}
{"dataset_attributes": {"@spider": "usps_collection_boxes", "spider:collection_time": "2024-01-01T08:25:44.650502"}, "geometry": {"coordinates": [-103.100540223, 41.665204486], "type": "Point"}, "id": "0OFhCGbfpa2NnnEwkvRUsaSmbyU=", "properties": {"@spider": "usps_collection_boxes", "addr:city": "BRIDGEPORT", "addr:country": "US", "addr:full": "114 W 10TH ST", "addr:postcode": "69336", "addr:state": "NE", "amenity": "post_box", "brand": "United States Postal Service", "brand:wikidata": "Q668687", "collection_times": "Mo-Fr 13:55; Sa 09:45", "name": "USPS COLLECTION BOX - PO LOBBY", "note": "ON 12/24 AND 12/31, THIS BOX MAY BE COLLECTED AS EARLY AS 12 NOON.", "nsi_id": "unitedstatespostalservice-a77078", "operator": "United States Postal Service", "operator:short": "USPS", "operator:type": "public", "operator:wikidata": "Q668687", "ref": "6933600004"}, "type": "Feature"}
{"dataset_attributes": {"@spider": "usps_collection_boxes", "spider:collection_time": "2024-01-01T08:25:44.650502"}, "geometry": {"coordinates": [-103.0004927211, 42.8296995306], "type": "Point"}, "id": "Ss25HGWAv6Hu3GD6iT_px93nUyA=", "properties": {"@spider": "usps_collection_boxes", "addr:city": "CHADRON", "addr:country": "US", "addr:full": "278 MAIN ST", "addr:postcode": "69337", "addr:state": "NE", "amenity": "post_box", "brand": "United States Postal Service", "brand:wikidata": "Q668687", "collection_times": "Mo-Fr 13:45; Sa 11:45", "name": "USPS COLLECTION BOX - BLUE BOX", "note": "ON 12/24 AND 12/31, THIS BOX MAY BE COLLECTED AS EARLY AS 12 NOON.", "nsi_id": "unitedstatespostalservice-a77078", "operator": "United States Postal Service", "operator:short": "USPS", "operator:type": "public", "operator:wikidata": "Q668687", "ref": "6933700001"}, "type": "Feature"}
{"dataset_attributes": {"@spider": "usps_collection_boxes", "spider:collection_time": "2024-01-01T08:25:44.650502"}, "geometry": {"coordinates": [-103.0004927211, 42.8296995306], "type": "Point"}, "id": "n6Wpm6KJind3hhp77J9Gf4918XE=", "properties": {"@spider": "usps_collection_boxes", "addr:city": "CHADRON", "addr:country": "US", "addr:full": "278 MAIN ST", "addr:postcode": "69337", "addr:state": "NE", "amenity": "post_box", "brand": "United States Postal Service", "brand:wikidata": "Q668687", "collection_times": "Mo-Fr 13:45; Sa 11:45", "name": "USPS COLLECTION BOX - BLUE BOX", "note": "ON 12/24 AND 12/31, THIS BOX MAY BE COLLECTED AS EARLY AS 12 NOON.", "nsi_id": "unitedstatespostalservice-a77078", "operator": "United States Postal Service", "operator:short": "USPS", "operator:type": "public", "operator:wikidata": "Q668687", "ref": "6933700002"}, "type": "Feature"}
{"dataset_attributes": {"@spider": "usps_collection_boxes", "spider:collection_time": "2024-01-01T08:25:44.650502"}, "geometry": {"coordinates": [-103.0004927211, 42.8296995306], "type": "Point"}, "id": "U368wBzsBgCAuIw1sKgpGV1FrRk=", "properties": {"@spider": "usps_collection_boxes", "addr:city": "CHADRON", "addr:country": "US", "addr:full": "278 MAIN ST", "addr:postcode": "69337", "addr:state": "NE", "amenity": "post_box", "brand": "United States Postal Service", "brand:wikidata": "Q668687", "collection_times": "Mo-Fr 13:45; Sa 11:45", "name": "USPS COLLECTION BOX - PO LOBBY", "note": "ON 12/24 AND 12/31, THIS BOX MAY BE COLLECTED AS EARLY AS 12 NOON.", "nsi_id": "unitedstatespostalservice-a77078", "operator": "United States Postal Service", "operator:short": "USPS", "operator:type": "public", "operator:wikidata": "Q668687", "ref": "6933700009"}, "type": "Feature"}
{"dataset_attributes": {"@spider": "usps_collection_boxes", "spider:collection_time": "2024-01-01T08:25:44.650502"}, "geometry": {"coordinates": [-103.0004927211, 42.8296995306], "type": "Point"}, "id": "-FM2pKkup6if_I6WpNn7NX-md20=", "properties": {"@spider": "usps_collection_boxes", "addr:city": "CHADRON", "addr:country": "US", "addr:full": "278 MAIN ST", "addr:postcode": "69337", "addr:state": "NE", "amenity": "post_box", "brand": "United States Postal Service", "brand:wikidata": "Q668687", "collection_times": "Mo-Fr 13:45; Sa 11:45", "name": "USPS COLLECTION BOX - PO LOBBY", "note": "ON 12/24 AND 12/31, THIS BOX MAY BE COLLECTED AS EARLY AS 12 NOON.", "nsi_id": "unitedstatespostalservice-a77078", "operator": "United States Postal Service", "operator:short": "USPS", "operator:type": "public", "operator:wikidata": "Q668687", "ref": "6933700013"}, "type": "Feature"}
{"dataset_attributes": {"@spider": "usps_collection_boxes", "spider:collection_time": "2024-01-01T08:25:44.650502"}, "geometry": {"coordinates": [-103.414542, 42.686677], "type": "Point"}, "id": "DwKuEgJneb1xi0ICjtw41kz1U_E=", "properties": {"@spider": "usps_collection_boxes", "addr:city": "CRAWFORD", "addr:country": "US", "addr:full": "144 MAIN ST", "addr:postcode": "69339", "addr:state": "NE", "amenity": "post_box", "brand": "United States Postal Service", "brand:wikidata": "Q668687", "collection_times": "Mo-Sa 13:35", "name": "USPS COLLECTION BOX - BLUE BOX", "note": "ON 12/24 AND 12/31, THIS BOX MAY BE COLLECTED AS EARLY AS 12 NOON.", "nsi_id": "unitedstatespostalservice-a77078", "operator": "United States Postal Service", "operator:short": "USPS", "operator:type": "public", "operator:wikidata": "Q668687", "ref": "6933900001"}, "type": "Feature"}
{"dataset_attributes": {"@spider": "usps_collection_boxes", "spider:collection_time": "2024-01-01T08:25:44.650502"}, "geometry": {"coordinates": [-103.414542, 42.686677], "type": "Point"}, "id": "fcq7ndeN788adJl3qJxiJWD3yig=", "properties": {"@spider": "usps_collection_boxes", "addr:city": "CRAWFORD", "addr:country": "US", "addr:full": "144 MAIN ST", "addr:postcode": "69339", "addr:state": "NE", "amenity": "post_box", "brand": "United States Postal Service", "brand:wikidata": "Q668687", "collection_times": "Mo-Fr 13:35", "name": "USPS COLLECTION BOX - PO LOBBY", "note": "ON 12/24 AND 12/31, THIS BOX MAY BE COLLECTED AS EARLY AS 12 NOON.", "nsi_id": "unitedstatespostalservice-a77078", "operator": "United States Postal Service", "operator:short": "USPS", "operator:type": "public", "operator:wikidata": "Q668687", "ref": "6933900002"}, "type": "Feature"}
{"dataset_attributes": {"@spider": "usps_collection_boxes", "spider:collection_time": "2024-01-01T08:25:44.650502"}, "geometry": {"coordinates": [-103.414542, 42.686677], "type": "Point"}, "id": "xaoK0phuH1pDmy1uCbX8iXpNNDA=", "properties": {"@spider": "usps_collection_boxes", "addr:city": "CRAWFORD", "addr:country": "US", "addr:full": "144 MAIN ST", "addr:postcode": "69339", "addr:state": "NE", "amenity": "post_box", "brand": "United States Postal Service", "brand:wikidata": "Q668687", "collection_times": "Mo-Fr 13:35", "name": "USPS COLLECTION BOX - PO LOBBY", "note": "ON 12/24 AND 12/31, THIS BOX MAY BE COLLECTED AS EARLY AS 12 NOON.", "nsi_id": "unitedstatespostalservice-a77078", "operator": "United States Postal Service", "operator:short": "USPS", "operator:type": "public", "operator:wikidata": "Q668687", "ref": "6933900003"}, "type": "Feature"}
{"dataset_attributes": {"@spider": "usps_collection_boxes", "spider:collection_time": "2024-01-01T08:25:44.650502"}, "geometry": {"coordinates": [-103.4145511923, 42.686723548], "type": "Point"}, "id": "zPdP3RNPLhyHRIbinqQzMtZ7n24=", "properties": {"@spider": "usps_collection_boxes", "addr:city": "CRAWFORD", "addr:country": "US", "addr:full": "144 MAIN ST", "addr:postcode": "69339", "addr:state": "NE", "amenity": "post_box", "brand": "United States Postal Service", "brand:wikidata": "Q668687", "collection_times": "Mo-Fr 13:35", "name": "USPS COLLECTION BOX - PO LOBBY", "note": "ON 12/24 AND 12/31, THIS BOX MAY BE COLLECTED AS EARLY AS 12 NOON.", "nsi_id": "unitedstatespostalservice-a77078", "operator": "United States Postal Service", "operator:short": "USPS", "operator:type": "public", "operator:wikidata": "Q668687", "ref": "6933900005"}, "type": "Feature"}
{"dataset_attributes": {"@spider": "usps_collection_boxes", "spider:collection_time": "2024-01-01T08:25:44.650502"}, "geometry": {"coordinates": [-102.22918, 42.146278594], "type": "Point"}, "id": "eHr7gmASss0-P6dqvqzg8nZiCwI=", "properties": {"@spider": "usps_collection_boxes", "addr:city": "ELLSWORTH", "addr:country": "US", "addr:full": "100 MAIN ST", "addr:postcode": "69340", "addr:state": "NE", "amenity": "post_box", "brand": "United States Postal Service", "brand:wikidata": "Q668687", "collection_times": "Mo-Sa 13:55", "name": "USPS COLLECTION BOX - BLUE BOX", "note": "ON 12/24 AND 12/31, THIS BOX MAY BE COLLECTED AS EARLY AS 12 NOON.", "nsi_id": "unitedstatespostalservice-a77078", "operator": "United States Postal Service", "operator:short": "USPS", "operator:type": "public", "operator:wikidata": "Q668687", "ref": "6934000000"}, "type": "Feature"}
{"dataset_attributes": {"@spider": "usps_collection_boxes", "spider:collection_time": "2024-01-01T08:25:44.650502"}, "geometry": {"coordinates": [-102.584121, 42.068979], "type": "Point"}, "id": "976UL139wHVzQ9y85068fO8BV40=", "properties": {"@spider": "usps_collection_boxes", "addr:city": "ELLSWORTH", "addr:country": "US", "addr:full": "4083 STATE HIGHWAY 2", "addr:postcode": "69340", "addr:state": "NE", "amenity": "post_box", "brand": "United States Postal Service", "brand:wikidata": "Q668687", "collection_times": "Mo-Sa 14:40", "name": "USPS COLLECTION BOX - BLUE BOX", "note": "ON 12/24 AND 12/31, THIS BOX MAY BE COLLECTED AS EARLY AS 12 NOON.", "nsi_id": "unitedstatespostalservice-a77078", "operator": "United States Postal Service", "operator:short": "USPS", "operator:type": "public", "operator:wikidata": "Q668687", "ref": "6934000001"}, "type": "Feature"}
{"dataset_attributes": {"@spider": "usps_collection_boxes", "spider:collection_time": "2024-01-01T08:25:44.650502"}, "geometry": {"coordinates": [-102.22918, 42.146278594], "type": "Point"}, "id": "vdv07_21QAFeEXMsAxa0Pxdffr4=", "properties": {"@spider": "usps_collection_boxes", "addr:city": "ELLSWORTH", "addr:country": "US", "addr:full": "100 MAIN ST", "addr:postcode": "69340", "addr:state": "NE", "amenity": "post_box", "brand": "United States Postal Service", "brand:wikidata": "Q668687", "collection_times": "Mo-Fr 13:25; Sa 09:00", "name": "USPS COLLECTION BOX - PO LOBBY", "note": "ON 12/24 AND 12/31, THIS BOX MAY BE COLLECTED AS EARLY AS 12 NOON.", "nsi_id": "unitedstatespostalservice-a77078", "operator": "United States Postal Service", "operator:short": "USPS", "operator:type": "public", "operator:wikidata": "Q668687", "ref": "6934000002"}, "type": "Feature"}
{"dataset_attributes": {"@spider": "usps_collection_boxes", "spider:collection_time": "2024-01-01T08:25:44.650502"}, "geometry": {"coordinates": [-102.22918, 42.146278594], "type": "Point"}, "id": "rTpzZmyfuWhmFd2eIe-eFRSJqvw=", "properties": {"@spider": "usps_collection_boxes", "addr:city": "ELLSWORTH", "addr:country": "US", "addr:full": "100 MAIN ST", "addr:postcode": "69340", "addr:state": "NE", "amenity": "post_box", "brand": "United States Postal Service", "brand:wikidata": "Q668687", "collection_times": "Mo-Fr 13:25; Sa 09:00", "name": "USPS COLLECTION BOX - PO LOBBY", "note": "ON 12/24 AND 12/31, THIS BOX MAY BE COLLECTED AS EARLY AS 12 NOON.", "nsi_id": "unitedstatespostalservice-a77078", "operator": "United States Postal Service", "operator:short": "USPS", "operator:type": "public", "operator:wikidata": "Q668687", "ref": "6934000004"}, "type": "Feature"}
{"dataset_attributes": {"@spider": "usps_collection_boxes", "spider:collection_time": "2024-01-01T08:25:44.650502"}, "geometry": {"coordinates": [-103.661061, 41.824738], "type": "Point"}, "id": "uDQM0qjsiF3XW6Kd0r3VZmKlZ0A=", "properties": {"@spider": "usps_collection_boxes", "addr:city": "GERING", "addr:country": "US", "addr:full": "1050 P ST", "addr:postcode": "69341", "addr:state": "NE", "amenity": "post_box", "brand": "United States Postal Service", "brand:wikidata": "Q668687", "collection_times": "Mo-Sa 14:30", "name": "USPS COLLECTION BOX - BLUE BOX", "note": "ON 12/24 AND 12/31, THIS BOX MAY BE COLLECTED AS EARLY AS 12 NOON.", "nsi_id": "unitedstatespostalservice-a77078", "operator": "United States Postal Service", "operator:short": "USPS", "operator:type": "public", "operator:wikidata": "Q668687", "ref": "6934100001"}, "type": "Feature"}
{"dataset_attributes": {"@spider": "usps_collection_boxes", "spider:collection_time": "2024-01-01T08:25:44.650502"}, "geometry": {"coordinates": [-103.660927, 41.826663], "type": "Point"}, "id": "W-ltVxEP2NyeL9VFEZMDyYJXpw4=", "properties": {"@spider": "usps_collection_boxes", "addr:city": "GERING", "addr:country": "US", "addr:full": "1825 10TH ST", "addr:postcode": "69341", "addr:state": "NE", "amenity": "post_box", "brand": "United States Postal Service", "brand:wikidata": "Q668687", "collection_times": "Mo-Sa 12:00", "name": "USPS COLLECTION BOX - BLUE BOX", "nsi_id": "unitedstatespostalservice-a77078", "operator": "United States Postal Service", "operator:short": "USPS", "operator:type": "public", "operator:wikidata": "Q668687", "ref": "6934100004"}, "type": "Feature"}
{"dataset_attributes": {"@spider": "usps_collection_boxes", "spider:collection_time": "2024-01-01T08:25:44.650502"}, "geometry": {"coordinates": [-103.661061, 41.824738], "type": "Point"}, "id": "CxkvmfGDY4qz06NEUPEuGJKO3ng=", "properties": {"@spider": "usps_collection_boxes", "addr:city": "GERING", "addr:country": "US", "addr:full": "1050 P ST", "addr:postcode": "69341", "addr:state": "NE", "amenity": "post_box", "brand": "United States Postal Service", "brand:wikidata": "Q668687", "collection_times": "Mo-Fr 14:30; Sa 10:45", "name": "USPS COLLECTION BOX - PO LOBBY", "note": "ON 12/24 AND 12/31, THIS BOX MAY BE COLLECTED AS EARLY AS 12 NOON.", "nsi_id": "unitedstatespostalservice-a77078", "operator": "United States Postal Service", "operator:short": "USPS", "operator:type": "public", "operator:wikidata": "Q668687", "ref": "6934100009"}, "type": "Feature"}
{"dataset_attributes": {"@spider": "usps_collection_boxes", "spider:collection_time": "2024-01-01T08:25:44.650502"}, "geometry": {"coordinates": [-103.6615003324, 41.8247365154], "type": "Point"}, "id": "-H5J_UQyY2S8XQguqeBU-cQKPj0=", "properties": {"@spider": "usps_collection_boxes", "addr:city": "GERING", "addr:country": "US", "addr:full": "1050 P ST", "addr:postcode": "69341", "addr:state": "NE", "amenity": "post_box", "brand": "United States Postal Service", "brand:wikidata": "Q668687", "collection_times": "Mo-Fr 14:30; Sa 10:45", "name": "USPS COLLECTION BOX - PO LOBBY", "note": "ON 12/24 AND 12/31, THIS BOX MAY BE COLLECTED AS EARLY AS 12 NOON.", "nsi_id": "unitedstatespostalservice-a77078", "operator": "United States Postal Service", "operator:short": "USPS", "operator:type": "public", "operator:wikidata": "Q668687", "ref": "6934100013"}, "type": "Feature"}
{"dataset_attributes": {"@spider": "usps_collection_boxes", "spider:collection_time": "2024-01-01T08:25:44.650502"}, "geometry": {"coordinates": [-102.202994, 42.80633], "type": "Point"}, "id": "NDoOxzr9P5a7F5z-Mn0OBxHexvA=", "properties": {"@spider": "usps_collection_boxes", "addr:city": "GORDON", "addr:country": "US", "addr:full": "112 E 3RD ST", "addr:postcode": "69343", "addr:state": "NE", "amenity": "post_box", "brand": "United States Postal Service", "brand:wikidata": "Q668687", "collection_times": "Mo-Sa 12:50", "name": "USPS COLLECTION BOX - BLUE BOX", "note": "ON 12/24 AND 12/31, THIS BOX MAY BE COLLECTED AS EARLY AS 12 NOON.", "nsi_id": "unitedstatespostalservice-a77078", "operator": "United States Postal Service", "operator:short": "USPS", "operator:type": "public", "operator:wikidata": "Q668687", "ref": "6934300001"}, "type": "Feature"}
{"dataset_attributes": {"@spider": "usps_collection_boxes", "spider:collection_time": "2024-01-01T08:25:44.650502"}, "geometry": {"coordinates": [-102.202994, 42.80633], "type": "Point"}, "id": "Rxqv3Qn5UddcKsXfpfKe-ZOxUcA=", "properties": {"@spider": "usps_collection_boxes", "addr:city": "GORDON", "addr:country": "US", "addr:full": "112 E 3RD ST", "addr:postcode": "69343", "addr:state": "NE", "amenity": "post_box", "brand": "United States Postal Service", "brand:wikidata": "Q668687", "collection_times": "Mo-Fr 12:50; Sa 10:45", "name": "USPS COLLECTION BOX - PO LOBBY", "note": "ON 12/24 AND 12/31, THIS BOX MAY BE COLLECTED AS EARLY AS 12 NOON.", "nsi_id": "unitedstatespostalservice-a77078", "operator": "United States Postal Service", "operator:short": "USPS", "operator:type": "public", "operator:wikidata": "Q668687", "ref": "6934300005"}, "type": "Feature"}
{"dataset_attributes": {"@spider": "usps_collection_boxes", "spider:collection_time": "2024-01-01T08:25:44.650502"}, "geometry": {"coordinates": [-102.2030316354, 42.8063728883], "type": "Point"}, "id": "sjhgrGSHIQCIVJ-09Iawch3smB8=", "properties": {"@spider": "usps_collection_boxes", "addr:city": "GORDON", "addr:country": "US", "addr:full": "112 E 3RD ST", "addr:postcode": "69343", "addr:state": "NE", "amenity": "post_box", "brand": "United States Postal Service", "brand:wikidata": "Q668687", "collection_times": "Mo-Fr 12:50; Sa 10:45", "name": "USPS COLLECTION BOX - PO LOBBY", "note": "ON 12/24 AND 12/31, THIS BOX MAY BE COLLECTED AS EARLY AS 12 NOON.", "nsi_id": "unitedstatespostalservice-a77078", "operator": "United States Postal Service", "operator:short": "USPS", "operator:type": "public", "operator:wikidata": "Q668687", "ref": "6934300007"}, "type": "Feature"}
{"dataset_attributes": {"@spider": "usps_collection_boxes", "spider:collection_time": "2024-01-01T08:25:44.650502"}, "geometry": {"coordinates": [-103.742983, 41.555573], "type": "Point"}, "id": "6uUfmcqmUXFgijBfvo6NDrzehK8=", "properties": {"@spider": "usps_collection_boxes", "addr:city": "HARRISBURG", "addr:country": "US", "addr:full": "306 STATE ST", "addr:postcode": "69345", "addr:state": "NE", "amenity": "post_box", "brand": "United States Postal Service", "brand:wikidata": "Q668687", "collection_times": "Mo-Sa 13:55", "name": "USPS COLLECTION BOX - BLUE BOX", "note": "ON 12/24 AND 12/31, THIS BOX MAY BE COLLECTED AS EARLY AS 12 NOON.", "nsi_id": "unitedstatespostalservice-a77078", "operator": "United States Postal Service", "operator:short": "USPS", "operator:type": "public", "operator:wikidata": "Q668687", "ref": "6934500001"}, "type": "Feature"}
{"dataset_attributes": {"@spider": "usps_collection_boxes", "spider:collection_time": "2024-01-01T08:25:44.650502"}, "geometry": {"coordinates": [-103.742983, 41.555573], "type": "Point"}, "id": "JSt1V81Mt2Y0b7wi3b1Lg-A4WQg=", "properties": {"@spider": "usps_collection_boxes", "addr:city": "HARRISBURG", "addr:country": "US", "addr:full": "306 STATE ST", "addr:postcode": "69345", "addr:state": "NE", "amenity": "post_box", "brand": "United States Postal Service", "brand:wikidata": "Q668687", "collection_times": "Mo-Fr 13:55; Sa 11:45", "name": "USPS COLLECTION BOX - PO LOBBY", "note": "ON 12/24 AND 12/31, THIS BOX MAY BE COLLECTED AS EARLY AS 12 NOON.", "nsi_id": "unitedstatespostalservice-a77078", "operator": "United States Postal Service", "operator:short": "USPS", "operator:type": "public", "operator:wikidata": "Q668687", "ref": "6934500003"}, "type": "Feature"}
{"dataset_attributes": {"@spider": "usps_collection_boxes", "spider:collection_time": "2024-01-01T08:25:44.650502"}, "geometry": {"coordinates": [-103.742989357, 41.555612246], "type": "Point"}, "id": "ycasCvltxcOHdum-fdspJeQS6bc=", "properties": {"@spider": "usps_collection_boxes", "addr:city": "HARRISBURG", "addr:country": "US", "addr:full": "306 STATE ST", "addr:postcode": "69345", "addr:state": "NE", "amenity": "post_box", "brand": "United States Postal Service", "brand:wikidata": "Q668687", "collection_times": "Mo-Fr 13:55; Sa 11:45", "name": "USPS COLLECTION BOX - PO LOBBY", "note": "ON 12/24 AND 12/31, THIS BOX MAY BE COLLECTED AS EARLY AS 12 NOON.", "nsi_id": "unitedstatespostalservice-a77078", "operator": "United States Postal Service", "operator:short": "USPS", "operator:type": "public", "operator:wikidata": "Q668687", "ref": "6934500004"}, "type": "Feature"}
{"dataset_attributes": {"@spider": "usps_collection_boxes", "spider:collection_time": "2024-01-01T08:25:44.650502"}, "geometry": {"coordinates": [-103.883088, 42.691564], "type": "Point"}, "id": "gR06pS5qN0dM3RKRQZdbTtdE5dU=", "properties": {"@spider": "usps_collection_boxes", "addr:city": "HARRISON", "addr:country": "US", "addr:full": "267 MAIN ST", "addr:postcode": "69346", "addr:state": "NE", "amenity": "post_box", "brand": "United States Postal Service", "brand:wikidata": "Q668687", "collection_times": "Mo-Sa 12:55", "name": "USPS COLLECTION BOX - BLUE BOX", "note": "ON 12/24 AND 12/31, THIS BOX MAY BE COLLECTED AS EARLY AS 12 NOON.", "nsi_id": "unitedstatespostalservice-a77078", "operator": "United States Postal Service", "operator:short": "USPS", "operator:type": "public", "operator:wikidata": "Q668687", "ref": "6934600001"}, "type": "Feature"}
{"dataset_attributes": {"@spider": "usps_collection_boxes", "spider:collection_time": "2024-01-01T08:25:44.650502"}, "geometry": {"coordinates": [-103.883088, 42.691564], "type": "Point"}, "id": "mo8SP6g4zpxAXyz7MHGIs-F8ZY0=", "properties": {"@spider": "usps_collection_boxes", "addr:city": "HARRISON", "addr:country": "US", "addr:full": "267 MAIN ST", "addr:postcode": "69346", "addr:state": "NE", "amenity": "post_box", "brand": "United States Postal Service", "brand:wikidata": "Q668687", "collection_times": "Mo-Fr 12:55; Sa 09:30", "name": "USPS COLLECTION BOX - PO LOBBY", "note": "ON 12/24 AND 12/31, THIS BOX MAY BE COLLECTED AS EARLY AS 12 NOON.", "nsi_id": "unitedstatespostalservice-a77078", "operator": "United States Postal Service", "operator:short": "USPS", "operator:type": "public", "operator:wikidata": "Q668687", "ref": "6934600002"}, "type": "Feature"}
{"dataset_attributes": {"@spider": "usps_collection_boxes", "spider:collection_time": "2024-01-01T08:25:44.650502"}, "geometry": {"coordinates": [-103.88311069, 42.691551144], "type": "Point"}, "id": "moaxOr5l-g_n-wZmh6onqnuuXKE=", "properties": {"@spider": "usps_collection_boxes", "addr:city": "HARRISON", "addr:country": "US", "addr:full": "267 MAIN ST", "addr:postcode": "69346", "addr:state": "NE", "amenity": "post_box", "brand": "United States Postal Service", "brand:wikidata": "Q668687", "collection_times": "Mo-Fr 12:55; Sa 09:30", "name": "USPS COLLECTION BOX - PO LOBBY", "note": "ON 12/24 AND 12/31, THIS BOX MAY BE COLLECTED AS EARLY AS 12 NOON.", "nsi_id": "unitedstatespostalservice-a77078", "operator": "United States Postal Service", "operator:short": "USPS", "operator:type": "public", "operator:wikidata": "Q668687", "ref": "6934600004"}, "type": "Feature"}
{"dataset_attributes": {"@spider": "usps_collection_boxes", "spider:collection_time": "2024-01-01T08:25:44.650502"}, "geometry": {"coordinates": [-102.6899479205, 42.6846154191], "type": "Point"}, "id": "ulgcLIqmOE-dODBdghadlc1eKvM=", "properties": {"@spider": "usps_collection_boxes", "addr:city": "HAY SPRINGS", "addr:country": "US", "addr:full": "240 N MAIN ST", "addr:postcode": "69347", "addr:state": "NE", "amenity": "post_box", "brand": "United States Postal Service", "brand:wikidata": "Q668687", "collection_times": "Mo-Sa 13:40", "name": "USPS COLLECTION BOX - BLUE BOX", "note": "ON 12/24 AND 12/31, THIS BOX MAY BE COLLECTED AS EARLY AS 12 NOON.", "nsi_id": "unitedstatespostalservice-a77078", "operator": "United States Postal Service", "operator:short": "USPS", "operator:type": "public", "operator:wikidata": "Q668687", "ref": "6934700001"}, "type": "Feature"}
{"dataset_attributes": {"@spider": "usps_collection_boxes", "spider:collection_time": "2024-01-01T08:25:44.650502"}, "geometry": {"coordinates": [-102.6899479205, 42.6846154191], "type": "Point"}, "id": "AvezdBjZdEE9-yNicv83Kq0_P6w=", "properties": {"@spider": "usps_collection_boxes", "addr:city": "HAY SPRINGS", "addr:country": "US", "addr:full": "240 N MAIN ST", "addr:postcode": "69347", "addr:state": "NE", "amenity": "post_box", "brand": "United States Postal Service", "brand:wikidata": "Q668687", "collection_times": "Mo-Fr 13:40; Sa 09:45", "name": "USPS COLLECTION BOX - PO LOBBY", "note": "ON 12/24 AND 12/31, THIS BOX MAY BE COLLECTED AS EARLY AS 12 NOON.", "nsi_id": "unitedstatespostalservice-a77078", "operator": "United States Postal Service", "operator:short": "USPS", "operator:type": "public", "operator:wikidata": "Q668687", "ref": "6934700002"}, "type": "Feature"}
{"dataset_attributes": {"@spider": "usps_collection_boxes", "spider:collection_time": "2024-01-01T08:25:44.650502"}, "geometry": {"coordinates": [-102.6899479205, 42.6846154191], "type": "Point"}, "id": "k6dRyNUvmi1BkVPLEx20nuBxkjM=", "properties": {"@spider": "usps_collection_boxes", "addr:city": "HAY SPRINGS", "addr:country": "US", "addr:full": "240 N MAIN ST", "addr:postcode": "69347", "addr:state": "NE", "amenity": "post_box", "brand": "United States Postal Service", "brand:wikidata": "Q668687", "collection_times": "Mo-Fr 13:45; Sa 10:05", "name": "USPS COLLECTION BOX - PO LOBBY", "note": "ON 12/24 AND 12/31, THIS BOX MAY BE COLLECTED AS EARLY AS 12 NOON.", "nsi_id": "unitedstatespostalservice-a77078", "operator": "United States Postal Service", "operator:short": "USPS", "operator:type": "public", "operator:wikidata": "Q668687", "ref": "6934700004"}, "type": "Feature"}
{"dataset_attributes": {"@spider": "usps_collection_boxes", "spider:collection_time": "2024-01-01T08:25:44.650502"}, "geometry": {"coordinates": [-103.0728368676, 42.3216], "type": "Point"}, "id": "9BCOtHf5yzakdF7KlQu7udO082g=", "properties": {"@spider": "usps_collection_boxes", "addr:city": "HEMINGFORD", "addr:country": "US", "addr:full": "805 BOX BUTTE AVE", "addr:postcode": "69348", "addr:state": "NE", "amenity": "post_box", "brand": "United States Postal Service", "brand:wikidata": "Q668687", "collection_times": "Mo-Sa 14:35", "name": "USPS COLLECTION BOX - BLUE BOX", "note": "ON 12/24 AND 12/31, THIS BOX MAY BE COLLECTED AS EARLY AS 12 NOON.", "nsi_id": "unitedstatespostalservice-a77078", "operator": "United States Postal Service", "operator:short": "USPS", "operator:type": "public", "operator:wikidata": "Q668687", "ref": "6934800001"}, "type": "Feature"}
{"dataset_attributes": {"@spider": "usps_collection_boxes", "spider:collection_time": "2024-01-01T08:25:44.650502"}, "geometry": {"coordinates": [-103.0728368676, 42.3216], "type": "Point"}, "id": "tg1QjLq00fqmayG9TnIJHvhCXOY=", "properties": {"@spider": "usps_collection_boxes", "addr:city": "HEMINGFORD", "addr:country": "US", "addr:full": "805 BOX BUTTE AVE", "addr:postcode": "69348", "addr:state": "NE", "amenity": "post_box", "brand": "United States Postal Service", "brand:wikidata": "Q668687", "collection_times": "Mo-Fr 14:35; Sa 10:15", "name": "USPS COLLECTION BOX - PO LOBBY", "note": "ON 12/24 AND 12/31, THIS BOX MAY BE COLLECTED AS EARLY AS 12 NOON.", "nsi_id": "unitedstatespostalservice-a77078", "operator": "United States Postal Service", "operator:short": "USPS", "operator:type": "public", "operator:wikidata": "Q668687", "ref": "6934800002"}, "type": "Feature"}
{"dataset_attributes": {"@spider": "usps_collection_boxes", "spider:collection_time": "2024-01-01T08:25:44.650502"}, "geometry": {"coordinates": [-103.0728368676, 42.3216], "type": "Point"}, "id": "2t7hkNU110L5dpidj0DgINggS9k=", "properties": {"@spider": "usps_collection_boxes", "addr:city": "HEMINGFORD", "addr:country": "US", "addr:full": "805 BOX BUTTE AVE", "addr:postcode": "69348", "addr:state": "NE", "amenity": "post_box", "brand": "United States Postal Service", "brand:wikidata": "Q668687", "collection_times": "Mo-Fr 14:35; Sa 10:15", "name": "USPS COLLECTION BOX - PO LOBBY", "note": "ON 12/24 AND 12/31, THIS BOX MAY BE COLLECTED AS EARLY AS 12 NOON.", "nsi_id": "unitedstatespostalservice-a77078", "operator": "United States Postal Service", "operator:short": "USPS", "operator:type": "public", "operator:wikidata": "Q668687", "ref": "6934800004"}, "type": "Feature"}
{"dataset_attributes": {"@spider": "usps_collection_boxes", "spider:collection_time": "2024-01-01T08:25:44.650502"}, "geometry": {"coordinates": [-101.7617134784, 41.9999760298], "type": "Point"}, "id": "hAk-wahYq5gzcvanSCebuobSRQw=", "properties": {"@spider": "usps_collection_boxes", "addr:city": "HYANNIS", "addr:country": "US", "addr:full": "116 S MAIN AVE", "addr:postcode": "69350", "addr:state": "NE", "amenity": "post_box", "brand": "United States Postal Service", "brand:wikidata": "Q668687", "collection_times": "Mo-Sa 13:15", "name": "USPS COLLECTION BOX - BLUE BOX", "note": "ON 12/24 AND 12/31, THIS BOX MAY BE COLLECTED AS EARLY AS 12 NOON.", "nsi_id": "unitedstatespostalservice-a77078", "operator": "United States Postal Service", "operator:short": "USPS", "operator:type": "public", "operator:wikidata": "Q668687", "ref": "6935000001"}, "type": "Feature"}
{"dataset_attributes": {"@spider": "usps_collection_boxes", "spider:collection_time": "2024-01-01T08:25:44.650502"}, "geometry": {"coordinates": [-101.7617134784, 41.9999760298], "type": "Point"}, "id": "H3Efw-U9nzqnPthWwwvRHJbH1sY=", "properties": {"@spider": "usps_collection_boxes", "addr:city": "HYANNIS", "addr:country": "US", "addr:full": "116 S MAIN AVE", "addr:postcode": "69350", "addr:state": "NE", "amenity": "post_box", "brand": "United States Postal Service", "brand:wikidata": "Q668687", "collection_times": "Mo-Fr 13:15; Sa 09:30", "name": "USPS COLLECTION BOX - PO LOBBY", "note": "ON 12/24 AND 12/31, THIS BOX MAY BE COLLECTED AS EARLY AS 12 NOON.", "nsi_id": "unitedstatespostalservice-a77078", "operator": "United States Postal Service", "operator:short": "USPS", "operator:type": "public", "operator:wikidata": "Q668687", "ref": "6935000002"}, "type": "Feature"}
{"dataset_attributes": {"@spider": "usps_collection_boxes", "spider:collection_time": "2024-01-01T08:25:44.650502"}, "geometry": {"coordinates": [-101.7617134784, 41.9999760298], "type": "Point"}, "id": "oWYs0tMopqykDWLCPxTTl_4QRmw=", "properties": {"@spider": "usps_collection_boxes", "addr:city": "HYANNIS", "addr:country": "US", "addr:full": "116 S MAIN AVE", "addr:postcode": "69350", "addr:state": "NE", "amenity": "post_box", "brand": "United States Postal Service", "brand:wikidata": "Q668687", "collection_times": "Mo-Fr 13:15; Sa 09:30", "name": "USPS COLLECTION BOX - PO LOBBY", "note": "ON 12/24 AND 12/31, THIS BOX MAY BE COLLECTED AS EARLY AS 12 NOON.", "nsi_id": "unitedstatespostalservice-a77078", "operator": "United States Postal Service", "operator:short": "USPS", "operator:type": "public", "operator:wikidata": "Q668687", "ref": "6935000004"}, "type": "Feature"}
{"dataset_attributes": {"@spider": "usps_collection_boxes", "spider:collection_time": "2024-01-01T08:25:44.650502"}, "geometry": {"coordinates": [-102.3017353, 42.3616428], "type": "Point"}, "id": "lIrUXwV3vtkbDHFLVjjrpoe4Ur0=", "properties": {"@spider": "usps_collection_boxes", "addr:city": "LAKESIDE", "addr:country": "US", "addr:full": "1000 MAIN ST", "addr:postcode": "69351", "addr:state": "NE", "amenity": "post_box", "brand": "United States Postal Service", "brand:wikidata": "Q668687", "collection_times": "Mo-Sa 14:10", "name": "USPS COLLECTION BOX - BLUE BOX", "note": "ON 12/24 AND 12/31, THIS BOX MAY BE COLLECTED AS EARLY AS 12 NOON.", "nsi_id": "unitedstatespostalservice-a77078", "operator": "United States Postal Service", "operator:short": "USPS", "operator:type": "public", "operator:wikidata": "Q668687", "ref": "6935100001"}, "type": "Feature"}
{"dataset_attributes": {"@spider": "usps_collection_boxes", "spider:collection_time": "2024-01-01T08:25:44.650502"}, "geometry": {"coordinates": [-102.3017353, 42.3616428], "type": "Point"}, "id": "bTabgeOmnTJHdkMRRyyvWXtCfvc=", "properties": {"@spider": "usps_collection_boxes", "addr:city": "LAKESIDE", "addr:country": "US", "addr:full": "1000 MAIN ST", "addr:postcode": "69351", "addr:state": "NE", "amenity": "post_box", "brand": "United States Postal Service", "brand:wikidata": "Q668687", "collection_times": "Mo-Fr 11:45; Sa 09:45", "name": "USPS COLLECTION BOX - PO LOBBY", "nsi_id": "unitedstatespostalservice-a77078", "operator": "United States Postal Service", "operator:short": "USPS", "operator:type": "public", "operator:wikidata": "Q668687", "ref": "6935100002"}, "type": "Feature"}
{"dataset_attributes": {"@spider": "usps_collection_boxes", "spider:collection_time": "2024-01-01T08:25:44.650502"}, "geometry": {"coordinates": [-102.3017353, 42.3616428], "type": "Point"}, "id": "7BueaZs0i5x-B2xAvOgokLgHhAs=", "properties": {"@spider": "usps_collection_boxes", "addr:city": "LAKESIDE", "addr:country": "US", "addr:full": "1000 MAIN ST", "addr:postcode": "69351", "addr:state": "NE", "amenity": "post_box", "brand": "United States Postal Service", "brand:wikidata": "Q668687", "collection_times": "Mo-Fr 11:45; Sa 09:45", "name": "USPS COLLECTION BOX - PO LOBBY", "nsi_id": "unitedstatespostalservice-a77078", "operator": "United States Postal Service", "operator:short": "USPS", "operator:type": "public", "operator:wikidata": "Q668687", "ref": "6935100004"}, "type": "Feature"}
{"dataset_attributes": {"@spider": "usps_collection_boxes", "spider:collection_time": "2024-01-01T08:25:44.650502"}, "geometry": {"coordinates": [-104.039137, 41.9165], "type": "Point"}, "id": "JpifvkjZX_xW18XR2f6woQh87GA=", "properties": {"@spider": "usps_collection_boxes", "addr:city": "LYMAN", "addr:country": "US", "addr:full": "314 JEFFERS AVE", "addr:postcode": "69352", "addr:state": "NE", "amenity": "post_box", "brand": "United States Postal Service", "brand:wikidata": "Q668687", "collection_times": "Mo-Sa 13:05", "name": "USPS COLLECTION BOX - BLUE BOX", "note": "ON 12/24 AND 12/31, THIS BOX MAY BE COLLECTED AS EARLY AS 12 NOON.", "nsi_id": "unitedstatespostalservice-a77078", "operator": "United States Postal Service", "operator:short": "USPS", "operator:type": "public", "operator:wikidata": "Q668687", "ref": "6935200001"}, "type": "Feature"}
{"dataset_attributes": {"@spider": "usps_collection_boxes", "spider:collection_time": "2024-01-01T08:25:44.650502"}, "geometry": {"coordinates": [-104.039098, 41.916437], "type": "Point"}, "id": "9Yt6Rb9ojaGUY9iBCkkw7hhYiZQ=", "properties": {"@spider": "usps_collection_boxes", "addr:city": "LYMAN", "addr:country": "US", "addr:full": "314 JEFFERS AVE", "addr:postcode": "69352", "addr:state": "NE", "amenity": "post_box", "brand": "United States Postal Service", "brand:wikidata": "Q668687", "collection_times": "Mo-Fr 11:45; Sa 09:45", "name": "USPS COLLECTION BOX - PO LOBBY", "nsi_id": "unitedstatespostalservice-a77078", "operator": "United States Postal Service", "operator:short": "USPS", "operator:type": "public", "operator:wikidata": "Q668687", "ref": "6935200002"}, "type": "Feature"}
{"dataset_attributes": {"@spider": "usps_collection_boxes", "spider:collection_time": "2024-01-01T08:25:44.650502"}, "geometry": {"coordinates": [-104.0391574029, 41.9164671286], "type": "Point"}, "id": "-PjeByhoE6EvLdaBgOZNoZbvFkY=", "properties": {"@spider": "usps_collection_boxes", "addr:city": "LYMAN", "addr:country": "US", "addr:full": "314 JEFFERS AVE", "addr:postcode": "69352", "addr:state": "NE", "amenity": "post_box", "brand": "United States Postal Service", "brand:wikidata": "Q668687", "collection_times": "Mo-Fr 11:45; Sa 09:45", "name": "USPS COLLECTION BOX - PO LOBBY", "nsi_id": "unitedstatespostalservice-a77078", "operator": "United States Postal Service", "operator:short": "USPS", "operator:type": "public", "operator:wikidata": "Q668687", "ref": "6935200004"}, "type": "Feature"}
{"dataset_attributes": {"@spider": "usps_collection_boxes", "spider:collection_time": "2024-01-01T08:25:44.650502"}, "geometry": {"coordinates": [-103.418327, 41.747098], "type": "Point"}, "id": "F3I1AM56eIzGk6_hzfDtR0m16-0=", "properties": {"@spider": "usps_collection_boxes", "addr:city": "BAYARD", "addr:country": "US", "addr:full": "350 MAIN ST", "addr:postcode": "69353", "addr:state": "NE", "amenity": "post_box", "brand": "United States Postal Service", "brand:wikidata": "Q668687", "collection_times": "Mo-Fr 14:10; Sa 13:50", "name": "USPS COLLECTION BOX - BLUE BOX", "note": "ON 12/24 AND 12/31, THIS BOX MAY BE COLLECTED AS EARLY AS 12 NOON.", "nsi_id": "unitedstatespostalservice-a77078", "operator": "United States Postal Service", "operator:short": "USPS", "operator:type": "public", "operator:wikidata": "Q668687", "ref": "6935300000"}, "type": "Feature"}
{"dataset_attributes": {"@spider": "usps_collection_boxes", "spider:collection_time": "2024-01-01T08:25:44.650502"}, "geometry": {"coordinates": [-103.519029, 41.783409], "type": "Point"}, "id": "_KW0_ikPvg4h8VHhfQeQyAj98d0=", "properties": {"@spider": "usps_collection_boxes", "addr:city": "MELBETA", "addr:country": "US", "addr:full": "101 2ND ST", "addr:postcode": "69355", "addr:state": "NE", "amenity": "post_box", "brand": "United States Postal Service", "brand:wikidata": "Q668687", "collection_times": "Mo-Fr 14:25; Sa 14:05", "name": "USPS COLLECTION BOX - BLUE BOX", "note": "ON 12/24 AND 12/31, THIS BOX MAY BE COLLECTED AS EARLY AS 12 NOON.", "nsi_id": "unitedstatespostalservice-a77078", "operator": "United States Postal Service", "operator:short": "USPS", "operator:type": "public", "operator:wikidata": "Q668687", "ref": "6935500001"}, "type": "Feature"}
{"dataset_attributes": {"@spider": "usps_collection_boxes", "spider:collection_time": "2024-01-01T08:25:44.650502"}, "geometry": {"coordinates": [-103.519074822, 41.783449091], "type": "Point"}, "id": "oLaeTNtayp-VyLdE8L0c8dkAD7g=", "properties": {"@spider": "usps_collection_boxes", "addr:city": "MELBETA", "addr:country": "US", "addr:full": "101 2ND ST", "addr:postcode": "69355", "addr:state": "NE", "amenity": "post_box", "brand": "United States Postal Service", "brand:wikidata": "Q668687", "collection_times": "Mo-Sa 09:20", "name": "USPS COLLECTION BOX - PO LOBBY", "nsi_id": "unitedstatespostalservice-a77078", "operator": "United States Postal Service", "operator:short": "USPS", "operator:type": "public", "operator:wikidata": "Q668687", "ref": "6935500003"}, "type": "Feature"}
{"dataset_attributes": {"@spider": "usps_collection_boxes", "spider:collection_time": "2024-01-01T08:25:44.650502"}, "geometry": {"coordinates": [-103.503294, 41.808691], "type": "Point"}, "id": "VMTfqYJcG_0URb5l0RO_ekPdOc4=", "properties": {"@spider": "usps_collection_boxes", "addr:city": "MINATARE", "addr:country": "US", "addr:full": "320 MAIN ST", "addr:postcode": "69356", "addr:state": "NE", "amenity": "post_box", "brand": "United States Postal Service", "brand:wikidata": "Q668687", "collection_times": "Mo-Fr 14:35; Sa 14:15", "name": "USPS COLLECTION BOX - BLUE BOX", "note": "ON 12/24 AND 12/31, THIS BOX MAY BE COLLECTED AS EARLY AS 12 NOON.", "nsi_id": "unitedstatespostalservice-a77078", "operator": "United States Postal Service", "operator:short": "USPS", "operator:type": "public", "operator:wikidata": "Q668687", "ref": "6935600001"}, "type": "Feature"}
{"dataset_attributes": {"@spider": "usps_collection_boxes", "spider:collection_time": "2024-01-01T08:25:44.650502"}, "geometry": {"coordinates": [-103.503294, 41.808691], "type": "Point"}, "id": "uUXlt8bnSamP1-6wKPdDMu3-RbM=", "properties": {"@spider": "usps_collection_boxes", "addr:city": "MINATARE", "addr:country": "US", "addr:full": "320 MAIN ST", "addr:postcode": "69356", "addr:state": "NE", "amenity": "post_box", "brand": "United States Postal Service", "brand:wikidata": "Q668687", "collection_times": "Mo-Fr 14:15; Sa 10:15", "name": "USPS COLLECTION BOX - PO LOBBY", "note": "ON 12/24 AND 12/31, THIS BOX MAY BE COLLECTED AS EARLY AS 12 NOON.", "nsi_id": "unitedstatespostalservice-a77078", "operator": "United States Postal Service", "operator:short": "USPS", "operator:type": "public", "operator:wikidata": "Q668687", "ref": "6935600002"}, "type": "Feature"}
{"dataset_attributes": {"@spider": "usps_collection_boxes", "spider:collection_time": "2024-01-01T08:25:44.650502"}, "geometry": {"coordinates": [-103.5032966046, 41.80869], "type": "Point"}, "id": "TXFKmOK1iNUODH38Kcp4XAk5yxI=", "properties": {"@spider": "usps_collection_boxes", "addr:city": "MINATARE", "addr:country": "US", "addr:full": "320 MAIN ST", "addr:postcode": "69356", "addr:state": "NE", "amenity": "post_box", "brand": "United States Postal Service", "brand:wikidata": "Q668687", "collection_times": "Mo-Fr 14:15; Sa 10:15", "name": "USPS COLLECTION BOX - PO LOBBY", "note": "ON 12/24 AND 12/31, THIS BOX MAY BE COLLECTED AS EARLY AS 12 NOON.", "nsi_id": "unitedstatespostalservice-a77078", "operator": "United States Postal Service", "operator:short": "USPS", "operator:type": "public", "operator:wikidata": "Q668687", "ref": "6935600004"}, "type": "Feature"}
{"dataset_attributes": {"@spider": "usps_collection_boxes", "spider:collection_time": "2024-01-01T08:25:44.650502"}, "geometry": {"coordinates": [-103.80839, 41.942805], "type": "Point"}, "id": "9e54o5pngejWTX_58c8x8MseYi4=", "properties": {"@spider": "usps_collection_boxes", "addr:city": "MITCHELL", "addr:country": "US", "addr:full": "1425 CENTER AVE", "addr:postcode": "69357", "addr:state": "NE", "amenity": "post_box", "brand": "United States Postal Service", "brand:wikidata": "Q668687", "collection_times": "Mo-Sa 14:00", "name": "USPS COLLECTION BOX - BLUE BOX", "note": "ON 12/24 AND 12/31, THIS BOX MAY BE COLLECTED AS EARLY AS 12 NOON.", "nsi_id": "unitedstatespostalservice-a77078", "operator": "United States Postal Service", "operator:short": "USPS", "operator:type": "public", "operator:wikidata": "Q668687", "ref": "6935700002"}, "type": "Feature"}
{"dataset_attributes": {"@spider": "usps_collection_boxes", "spider:collection_time": "2024-01-01T08:25:44.650502"}, "geometry": {"coordinates": [-103.8086860785, 41.9421345087], "type": "Point"}, "id": "TUQCZbbDDo6GYs31GfkU6rVAFqU=", "properties": {"@spider": "usps_collection_boxes", "addr:city": "MITCHELL", "addr:country": "US", "addr:full": "1441 CENTER AVE", "addr:postcode": "69357", "addr:state": "NE", "amenity": "post_box", "brand": "United States Postal Service", "brand:wikidata": "Q668687", "collection_times": "Mo-Fr 14:00; Sa 10:45", "name": "USPS COLLECTION BOX - PO LOBBY", "note": "ON 12/24 AND 12/31, THIS BOX MAY BE COLLECTED AS EARLY AS 12 NOON.", "nsi_id": "unitedstatespostalservice-a77078", "operator": "United States Postal Service", "operator:short": "USPS", "operator:type": "public", "operator:wikidata": "Q668687", "ref": "6935700003"}, "type": "Feature"}
{"dataset_attributes": {"@spider": "usps_collection_boxes", "spider:collection_time": "2024-01-01T08:25:44.650502"}, "geometry": {"coordinates": [-103.8086860785, 41.9421345087], "type": "Point"}, "id": "Oj9zhw7vMLBUzASl-nteFREogq8=", "properties": {"@spider": "usps_collection_boxes", "addr:city": "MITCHELL", "addr:country": "US", "addr:full": "1441 CENTER AVE", "addr:postcode": "69357", "addr:state": "NE", "amenity": "post_box", "brand": "United States Postal Service", "brand:wikidata": "Q668687", "collection_times": "Mo-Fr 14:00; Sa 10:45", "name": "USPS COLLECTION BOX - PO LOBBY", "note": "ON 12/24 AND 12/31, THIS BOX MAY BE COLLECTED AS EARLY AS 12 NOON.", "nsi_id": "unitedstatespostalservice-a77078", "operator": "United States Postal Service", "operator:short": "USPS", "operator:type": "public", "operator:wikidata": "Q668687", "ref": "6935700005"}, "type": "Feature"}
{"dataset_attributes": {"@spider": "usps_collection_boxes", "spider:collection_time": "2024-01-01T08:25:44.650502"}, "geometry": {"coordinates": [-103.926195, 41.962541], "type": "Point"}, "id": "Onw0Xwd4dUAqXCiTgTA7UfINbfU=", "properties": {"@spider": "usps_collection_boxes", "addr:city": "MORRILL", "addr:country": "US", "addr:full": "125 CENTER AVE", "addr:postcode": "69358", "addr:state": "NE", "amenity": "post_box", "brand": "United States Postal Service", "brand:wikidata": "Q668687", "collection_times": "Mo-Sa 13:40", "name": "USPS COLLECTION BOX - BLUE BOX", "note": "ON 12/24 AND 12/31, THIS BOX MAY BE COLLECTED AS EARLY AS 12 NOON.", "nsi_id": "unitedstatespostalservice-a77078", "operator": "United States Postal Service", "operator:short": "USPS", "operator:type": "public", "operator:wikidata": "Q668687", "ref": "6935800001"}, "type": "Feature"}
{"dataset_attributes": {"@spider": "usps_collection_boxes", "spider:collection_time": "2024-01-01T08:25:44.650502"}, "geometry": {"coordinates": [-103.926195, 41.962541], "type": "Point"}, "id": "iUPgvYMyLwI39C2T879A2sIC_SY=", "properties": {"@spider": "usps_collection_boxes", "addr:city": "MORRILL", "addr:country": "US", "addr:full": "125 CENTER AVE", "addr:postcode": "69358", "addr:state": "NE", "amenity": "post_box", "brand": "United States Postal Service", "brand:wikidata": "Q668687", "collection_times": "Mo-Fr 13:40; Sa 09:45", "name": "USPS COLLECTION BOX - PO LOBBY", "note": "ON 12/24 AND 12/31, THIS BOX MAY BE COLLECTED AS EARLY AS 12 NOON.", "nsi_id": "unitedstatespostalservice-a77078", "operator": "United States Postal Service", "operator:short": "USPS", "operator:type": "public", "operator:wikidata": "Q668687", "ref": "6935800003"}, "type": "Feature"}
{"dataset_attributes": {"@spider": "usps_collection_boxes", "spider:collection_time": "2024-01-01T08:25:44.650502"}, "geometry": {"coordinates": [-103.9262070202, 41.9631662515], "type": "Point"}, "id": "bEkwtbU5MQTOCofaxQFBfADfJgQ=", "properties": {"@spider": "usps_collection_boxes", "addr:city": "MORRILL", "addr:country": "US", "addr:full": "125 CENTER AVE", "addr:postcode": "69358", "addr:state": "NE", "amenity": "post_box", "brand": "United States Postal Service", "brand:wikidata": "Q668687", "collection_times": "Mo-Fr 13:40; Sa 09:45", "name": "USPS COLLECTION BOX - PO LOBBY", "note": "ON 12/24 AND 12/31, THIS BOX MAY BE COLLECTED AS EARLY AS 12 NOON.", "nsi_id": "unitedstatespostalservice-a77078", "operator": "United States Postal Service", "operator:short": "USPS", "operator:type": "public", "operator:wikidata": "Q668687", "ref": "6935800006"}, "type": "Feature"}
{"dataset_attributes": {"@spider": "usps_collection_boxes", "spider:collection_time": "2024-01-01T08:25:44.650502"}, "geometry": {"coordinates": [-102.46293, 42.7181214885], "type": "Point"}, "id": "yqFImU0u5NW3AlkObU2_iGrw5VY=", "properties": {"@spider": "usps_collection_boxes", "addr:city": "RUSHVILLE", "addr:country": "US", "addr:full": "111 E 2ND ST", "addr:postcode": "69360", "addr:state": "NE", "amenity": "post_box", "brand": "United States Postal Service", "brand:wikidata": "Q668687", "collection_times": "Mo-Sa 13:15", "name": "USPS COLLECTION BOX - BLUE BOX", "note": "ON 12/24 AND 12/31, THIS BOX MAY BE COLLECTED AS EARLY AS 12 NOON.", "nsi_id": "unitedstatespostalservice-a77078", "operator": "United States Postal Service", "operator:short": "USPS", "operator:type": "public", "operator:wikidata": "Q668687", "ref": "6936000001"}, "type": "Feature"}
{"dataset_attributes": {"@spider": "usps_collection_boxes", "spider:collection_time": "2024-01-01T08:25:44.650502"}, "geometry": {"coordinates": [-102.46293, 42.7181214885], "type": "Point"}, "id": "RyyWJLl44dS6NqUFU6uek8O9UOA=", "properties": {"@spider": "usps_collection_boxes", "addr:city": "RUSHVILLE", "addr:country": "US", "addr:full": "111 E 2ND ST", "addr:postcode": "69360", "addr:state": "NE", "amenity": "post_box", "brand": "United States Postal Service", "brand:wikidata": "Q668687", "collection_times": "Mo-Fr 13:15; Sa 09:15", "name": "USPS COLLECTION BOX - PO LOBBY", "note": "ON 12/24 AND 12/31, THIS BOX MAY BE COLLECTED AS EARLY AS 12 NOON.", "nsi_id": "unitedstatespostalservice-a77078", "operator": "United States Postal Service", "operator:short": "USPS", "operator:type": "public", "operator:wikidata": "Q668687", "ref": "6936000002"}, "type": "Feature"}
{"dataset_attributes": {"@spider": "usps_collection_boxes", "spider:collection_time": "2024-01-01T08:25:44.650502"}, "geometry": {"coordinates": [-102.46293, 42.7181214885], "type": "Point"}, "id": "BA1k-aPQoc0OH9wi-qtsF_c5IRs=", "properties": {"@spider": "usps_collection_boxes", "addr:city": "RUSHVILLE", "addr:country": "US", "addr:full": "111 E 2ND ST", "addr:postcode": "69360", "addr:state": "NE", "amenity": "post_box", "brand": "United States Postal Service", "brand:wikidata": "Q668687", "collection_times": "Mo-Fr 13:15; Sa 09:15", "name": "USPS COLLECTION BOX - PO LOBBY", "note": "ON 12/24 AND 12/31, THIS BOX MAY BE COLLECTED AS EARLY AS 12 NOON.", "nsi_id": "unitedstatespostalservice-a77078", "operator": "United States Postal Service", "operator:short": "USPS", "operator:type": "public", "operator:wikidata": "Q668687", "ref": "6936000004"}, "type": "Feature"}
{"dataset_attributes": {"@spider": "usps_collection_boxes", "spider:collection_time": "2024-01-01T08:25:44.650502"}, "geometry": {"coordinates": [-103.642937, 41.875023], "type": "Point"}, "id": "7xMz6GGFhlaD3CL8sxRE7DhJtaI=", "properties": {"@spider": "usps_collection_boxes", "addr:city": "SCOTTSBLUFF", "addr:country": "US", "addr:full": "1601 E 27TH ST", "addr:postcode": "69361", "addr:state": "NE", "amenity": "post_box", "brand": "United States Postal Service", "brand:wikidata": "Q668687", "collection_times": "Mo-Fr 12:55", "name": "USPS COLLECTION BOX - BLUE BOX", "note": "ON 12/24 AND 12/31, THIS BOX MAY BE COLLECTED AS EARLY AS 12 NOON.", "nsi_id": "unitedstatespostalservice-a77078", "operator": "United States Postal Service", "operator:short": "USPS", "operator:type": "public", "operator:wikidata": "Q668687", "ref": "6936100026"}, "type": "Feature"}
{"dataset_attributes": {"@spider": "usps_collection_boxes", "spider:collection_time": "2024-01-01T08:25:44.650502"}, "geometry": {"coordinates": [-103.665001, 41.866543], "type": "Point"}, "id": "LtelCPAf_DGeiHS43eynyNM4HxE=", "properties": {"@spider": "usps_collection_boxes", "addr:city": "SCOTTSBLUFF", "addr:country": "US", "addr:full": "112 W 20TH ST", "addr:postcode": "69361", "addr:state": "NE", "amenity": "post_box", "brand": "United States Postal Service", "brand:wikidata": "Q668687", "collection_times": "Mo-Sa 15:20", "name": "USPS COLLECTION BOX - BLUE BOX", "note": "ON 12/24 AND 12/31, THIS BOX MAY BE COLLECTED AS EARLY AS 12 NOON.", "nsi_id": "unitedstatespostalservice-a77078", "operator": "United States Postal Service", "operator:short": "USPS", "operator:type": "public", "operator:wikidata": "Q668687", "ref": "6936100031"}, "type": "Feature"}
{"dataset_attributes": {"@spider": "usps_collection_boxes", "spider:collection_time": "2024-01-01T08:25:44.650502"}, "geometry": {"coordinates": [-103.665001, 41.866543], "type": "Point"}, "id": "DWs0NaJYH5yI6HhMkWCOTM4XiBc=", "properties": {"@spider": "usps_collection_boxes", "addr:city": "SCOTTSBLUFF", "addr:country": "US", "addr:full": "112 W 20TH ST", "addr:postcode": "69361", "addr:state": "NE", "amenity": "post_box", "brand": "United States Postal Service", "brand:wikidata": "Q668687", "collection_times": "Mo-Sa 15:20", "name": "USPS COLLECTION BOX - BLUE BOX", "note": "ON 12/24 AND 12/31, THIS BOX MAY BE COLLECTED AS EARLY AS 12 NOON.", "nsi_id": "unitedstatespostalservice-a77078", "operator": "United States Postal Service", "operator:short": "USPS", "operator:type": "public", "operator:wikidata": "Q668687", "ref": "6936100032"}, "type": "Feature"}
{"dataset_attributes": {"@spider": "usps_collection_boxes", "spider:collection_time": "2024-01-01T08:25:44.650502"}, "geometry": {"coordinates": [-103.665001, 41.866543], "type": "Point"}, "id": "bsUjwNmTF4AURFfJ0DAK6JiG9Yw=", "properties": {"@spider": "usps_collection_boxes", "addr:city": "SCOTTSBLUFF", "addr:country": "US", "addr:full": "112 W 20TH ST", "addr:postcode": "69361", "addr:state": "NE", "amenity": "post_box", "brand": "United States Postal Service", "brand:wikidata": "Q668687", "collection_times": "Mo-Sa 15:20", "name": "USPS COLLECTION BOX - PO LOBBY", "note": "ON 12/24 AND 12/31, THIS BOX MAY BE COLLECTED AS EARLY AS 12 NOON.", "nsi_id": "unitedstatespostalservice-a77078", "operator": "United States Postal Service", "operator:short": "USPS", "operator:type": "public", "operator:wikidata": "Q668687", "ref": "6936100035"}, "type": "Feature"}
{"dataset_attributes": {"@spider": "usps_collection_boxes", "spider:collection_time": "2024-01-01T08:25:44.650502"}, "geometry": {"coordinates": [-103.665001, 41.866543], "type": "Point"}, "id": "aRpXLsf4dq64GGhMApVQt2ImQHc=", "properties": {"@spider": "usps_collection_boxes", "addr:city": "SCOTTSBLUFF", "addr:country": "US", "addr:full": "112 W 20TH ST", "addr:postcode": "69361", "addr:state": "NE", "amenity": "post_box", "brand": "United States Postal Service", "brand:wikidata": "Q668687", "collection_times": "Mo-Sa 15:20", "name": "USPS COLLECTION BOX - PO LOBBY", "note": "ON 12/24 AND 12/31, THIS BOX MAY BE COLLECTED AS EARLY AS 12 NOON.", "nsi_id": "unitedstatespostalservice-a77078", "operator": "United States Postal Service", "operator:short": "USPS", "operator:type": "public", "operator:wikidata": "Q668687", "ref": "6936100036"}, "type": "Feature"}
{"dataset_attributes": {"@spider": "usps_collection_boxes", "spider:collection_time": "2024-01-01T08:25:44.650502"}, "geometry": {"coordinates": [-103.664999085, 41.86653751], "type": "Point"}, "id": "0hZr5fhXZvkyS6RNBbMzQyzH1pw=", "properties": {"@spider": "usps_collection_boxes", "addr:city": "SCOTTSBLUFF", "addr:country": "US", "addr:full": "112 W 20TH ST", "addr:postcode": "69361", "addr:state": "NE", "amenity": "post_box", "brand": "United States Postal Service", "brand:wikidata": "Q668687", "collection_times": "Mo-Fr 15:20; Sa 11:00", "name": "USPS COLLECTION BOX - PO LOBBY", "note": "ON 12/24 AND 12/31, THIS BOX MAY BE COLLECTED AS EARLY AS 12 NOON.", "nsi_id": "unitedstatespostalservice-a77078", "operator": "United States Postal Service", "operator:short": "USPS", "operator:type": "public", "operator:wikidata": "Q668687", "ref": "6936100038"}, "type": "Feature"}
{"dataset_attributes": {"@spider": "usps_collection_boxes", "spider:collection_time": "2024-01-01T08:25:44.650502"}, "geometry": {"coordinates": [-102.554509, 42.997451], "type": "Point"}, "id": "ZvQr3MiyLU55nL2L-1pYjx_nAjs=", "properties": {"@spider": "usps_collection_boxes", "addr:city": "WHITE CLAY", "addr:country": "US", "addr:full": "7883 W HIGHWAY 87", "addr:postcode": "69365", "addr:state": "NE", "amenity": "post_box", "brand": "United States Postal Service", "brand:wikidata": "Q668687", "collection_times": "Mo-Sa 10:30", "name": "USPS COLLECTION BOX - BLUE BOX", "nsi_id": "unitedstatespostalservice-a77078", "operator": "United States Postal Service", "operator:short": "USPS", "operator:type": "public", "operator:wikidata": "Q668687", "ref": "6936500001"}, "type": "Feature"}
{"dataset_attributes": {"@spider": "usps_collection_boxes", "spider:collection_time": "2024-01-01T08:25:44.650502"}, "geometry": {"coordinates": [-102.5545070692, 42.9975182515], "type": "Point"}, "id": "lJEjQmRGOOhPzqvbviyWOr92gMY=", "properties": {"@spider": "usps_collection_boxes", "addr:city": "WHITE CLAY", "addr:country": "US", "addr:full": "7883 W HIGHWAY 87", "addr:postcode": "69365", "addr:state": "NE", "amenity": "post_box", "brand": "United States Postal Service", "brand:wikidata": "Q668687", "collection_times": "Mo-Sa 10:30", "name": "USPS COLLECTION BOX - PO LOBBY", "nsi_id": "unitedstatespostalservice-a77078", "operator": "United States Postal Service", "operator:short": "USPS", "operator:type": "public", "operator:wikidata": "Q668687", "ref": "6936500002"}, "type": "Feature"}
{"dataset_attributes": {"@spider": "usps_collection_boxes", "spider:collection_time": "2024-01-01T08:25:44.650502"}, "geometry": {"coordinates": [-101.523049, 42.041585], "type": "Point"}, "id": "EHZ70t8ZLTGSGdakXLPxGWPUz7o=", "properties": {"@spider": "usps_collection_boxes", "addr:city": "WHITMAN", "addr:country": "US", "addr:full": "100 CORROTHER ST", "addr:postcode": "69366", "addr:state": "NE", "amenity": "post_box", "brand": "United States Postal Service", "brand:wikidata": "Q668687", "collection_times": "Mo-Sa 12:55", "name": "USPS COLLECTION BOX - BLUE BOX", "note": "ON 12/24 AND 12/31, THIS BOX MAY BE COLLECTED AS EARLY AS 12 NOON.", "nsi_id": "unitedstatespostalservice-a77078", "operator": "United States Postal Service", "operator:short": "USPS", "operator:type": "public", "operator:wikidata": "Q668687", "ref": "6936600001"}, "type": "Feature"}
{"dataset_attributes": {"@spider": "usps_collection_boxes", "spider:collection_time": "2024-01-01T08:25:44.650502"}, "geometry": {"coordinates": [-101.523246, 42.041331], "type": "Point"}, "id": "Z0o4SGyOxP6j5shl9uW1DgHcP3U=", "properties": {"@spider": "usps_collection_boxes", "addr:city": "WHITMAN", "addr:country": "US", "addr:full": "100 CORROTHER ST", "addr:postcode": "69366", "addr:state": "NE", "amenity": "post_box", "brand": "United States Postal Service", "brand:wikidata": "Q668687", "collection_times": "Mo-Fr 11:45; Sa 08:45", "name": "USPS COLLECTION BOX - PO LOBBY", "nsi_id": "unitedstatespostalservice-a77078", "operator": "United States Postal Service", "operator:short": "USPS", "operator:type": "public", "operator:wikidata": "Q668687", "ref": "6936600002"}, "type": "Feature"}
{"dataset_attributes": {"@spider": "usps_collection_boxes", "spider:collection_time": "2024-01-01T08:25:44.650502"}, "geometry": {"coordinates": [-101.52322971, 42.041352614], "type": "Point"}, "id": "uMGIgzCOVflthwaSZvTQklBI0nk=", "properties": {"@spider": "usps_collection_boxes", "addr:city": "WHITMAN", "addr:country": "US", "addr:full": "100 CORROTHER ST", "addr:postcode": "69366", "addr:state": "NE", "amenity": "post_box", "brand": "United States Postal Service", "brand:wikidata": "Q668687", "collection_times": "Mo-Fr 11:45; Sa 08:45", "name": "USPS COLLECTION BOX - PO LOBBY", "nsi_id": "unitedstatespostalservice-a77078", "operator": "United States Postal Service", "operator:short": "USPS", "operator:type": "public", "operator:wikidata": "Q668687", "ref": "6936600004"}, "type": "Feature"}
