{"geometry": {"coordinates": [-90.161430816, 29.975917377], "type": "Point"}, "id": "ZMU5qzXZ3EUqPc_EOZ0v9xjR2pc=", "properties": {"@spider": "usps_collection_boxes", "addr:city": "METAIRIE", "addr:country": "US", "addr:full": "3517 JOHNSON ST", "addr:postcode": "70001", "addr:state": "LA", "brand": "USPS", "collection_times": "Mo-Fr 17:00; Sa 14:45", "name": "USPS COLLECTION BOX - PO LOBBY", "note": "ON 12/24 AND 12/31, THIS BOX MAY BE COLLECTED AS EARLY AS 12 NOON.", "ref": "7000100000"}, "type": "Feature"}
{"geometry": {"coordinates": [-90.161430816, 29.975917377], "type": "Point"}, "id": "qEyeUi9JrV5mMqyEr6AwN7im3L4=", "properties": {"@spider": "usps_collection_boxes", "addr:city": "METAIRIE", "addr:country": "US", "addr:full": "3517 JOHNSON ST", "addr:postcode": "70001", "addr:state": "LA", "brand": "USPS", "collection_times": "Mo-Fr 17:00; Sa 14:45", "name": "USPS COLLECTION BOX - BLUE BOX", "note": "ON 12/24 AND 12/31, THIS BOX MAY BE COLLECTED AS EARLY AS 12 NOON.", "ref": "7000100004"}, "type": "Feature"}
{"geometry": {"coordinates": [-90.161430816, 29.975917377], "type": "Point"}, "id": "5u2bnS1e0co5mWPr5ktIVpZ2P_I=", "properties": {"@spider": "usps_collection_boxes", "addr:city": "METAIRIE", "addr:country": "US", "addr:full": "3517 JOHNSON ST", "addr:postcode": "70001", "addr:state": "LA", "brand": "USPS", "collection_times": "Mo-Fr 17:00; Sa 14:45", "name": "USPS COLLECTION BOX - BLUE BOX", "note": "ON 12/24 AND 12/31, THIS BOX MAY BE COLLECTED AS EARLY AS 12 NOON.", "ref": "7000100005"}, "type": "Feature"}
{"geometry": {"coordinates": [-90.161430816, 29.975917377], "type": "Point"}, "id": "zCkQ-66hdeo6vmWh7pL77WgBcm8=", "properties": {"@spider": "usps_collection_boxes", "addr:city": "METAIRIE", "addr:country": "US", "addr:full": "3517 JOHNSON ST", "addr:postcode": "70001", "addr:state": "LA", "brand": "USPS", "collection_times": "Mo-Fr 17:00; Sa 14:45", "name": "USPS COLLECTION BOX - BLUE BOX", "note": "ON 12/24 AND 12/31, THIS BOX MAY BE COLLECTED AS EARLY AS 12 NOON.", "ref": "7000100007"}, "type": "Feature"}
{"geometry": {"coordinates": [-90.161430816, 29.975917377], "type": "Point"}, "id": "je3tLU5TlAiW1KHqdhkqvQKBKv0=", "properties": {"@spider": "usps_collection_boxes", "addr:city": "METAIRIE", "addr:country": "US", "addr:full": "3517 JOHNSON ST", "addr:postcode": "70001", "addr:state": "LA", "brand": "USPS", "collection_times": "Mo-Fr 17:00; Sa 14:45", "name": "USPS COLLECTION BOX - BLUE BOX", "note": "ON 12/24 AND 12/31, THIS BOX MAY BE COLLECTED AS EARLY AS 12 NOON.", "ref": "7000100008"}, "type": "Feature"}
{"geometry": {"coordinates": [-90.149891246, 29.983209758], "type": "Point"}, "id": "TkcWmf5VwIg1a4kXq4TMB2TI6tA=", "properties": {"@spider": "usps_collection_boxes", "addr:city": "METAIRIE", "addr:country": "US", "addr:full": "2341 METAIRIE RD", "addr:postcode": "70001", "addr:state": "LA", "brand": "USPS", "collection_times": "Mo-Fr 12:45; Sa 11:45", "name": "USPS COLLECTION BOX - BLUE BOX", "note": "ON 12/24 AND 12/31, THIS BOX MAY BE COLLECTED AS EARLY AS 12 NOON.", "ref": "7000100012"}, "type": "Feature"}
{"geometry": {"coordinates": [-90.155812491, 29.982579538], "type": "Point"}, "id": "IvnXsRUz2oFXGVpdqI49A8-nmiE=", "properties": {"@spider": "usps_collection_boxes", "addr:city": "METAIRIE", "addr:country": "US", "addr:full": "1013 N CAUSEWAY BLVD", "addr:postcode": "70001", "addr:state": "LA", "brand": "USPS", "collection_times": "Mo-Fr 12:45; Sa 11:45", "name": "USPS COLLECTION BOX - BLUE BOX", "note": "ON 12/24 AND 12/31, THIS BOX MAY BE COLLECTED AS EARLY AS 12 NOON.", "ref": "7000100015"}, "type": "Feature"}
{"geometry": {"coordinates": [-90.1537965, 29.993805], "type": "Point"}, "id": "e8uXt18tCA9hWmf4wq-OWWtlVWM=", "properties": {"@spider": "usps_collection_boxes", "addr:city": "METAIRIE", "addr:country": "US", "addr:full": "2121 RIDGELAKE DR", "addr:postcode": "70001", "addr:state": "LA", "brand": "USPS", "collection_times": "Mo-Fr 12:00; Sa 11:00", "name": "USPS COLLECTION BOX - BLUE BOX", "ref": "7000100021"}, "type": "Feature"}
{"geometry": {"coordinates": [-90.1489365, 29.974536], "type": "Point"}, "id": "kOaQp4bDXZxlWuHJdKkjOC0NHTY=", "properties": {"@spider": "usps_collection_boxes", "addr:city": "METAIRIE", "addr:country": "US", "addr:full": "2121 AIRLINE DR", "addr:postcode": "70001", "addr:state": "LA", "brand": "USPS", "collection_times": "Mo-Fr 12:15; Sa 11:15", "name": "USPS COLLECTION BOX - BLUE BOX", "note": "ON 12/24 AND 12/31, THIS BOX MAY BE COLLECTED AS EARLY AS 12 NOON.", "ref": "7000100025"}, "type": "Feature"}
{"geometry": {"coordinates": [-90.150671811, 29.996039162], "type": "Point"}, "id": "LLUpL4aXhf5tQbuQG1nFvFhdBds=", "properties": {"@spider": "usps_collection_boxes", "addr:city": "METAIRIE", "addr:country": "US", "addr:full": "108 N GATEHOUSE DR", "addr:postcode": "70001", "addr:state": "LA", "brand": "USPS", "collection_times": "Mo-Sa 12:00", "name": "USPS COLLECTION BOX - BLUE BOX", "ref": "7000100028"}, "type": "Feature"}
{"geometry": {"coordinates": [-90.182888712, 29.994135493], "type": "Point"}, "id": "jk9SGHIxyZLRl_-jwg4xBjN6h0w=", "properties": {"@spider": "usps_collection_boxes", "addr:city": "METAIRIE", "addr:country": "US", "addr:full": "4621 W NAPOLEON AVE", "addr:postcode": "70001", "addr:state": "LA", "brand": "USPS", "collection_times": "Mo-Fr 11:30; Sa 10:30", "name": "USPS COLLECTION BOX - BLUE BOX", "ref": "7000100042"}, "type": "Feature"}
{"geometry": {"coordinates": [-90.1550295, 29.991834], "type": "Point"}, "id": "V5-Yat9f27SffFuqpG8wH9eHp_g=", "properties": {"@spider": "usps_collection_boxes", "addr:city": "METAIRIE", "addr:country": "US", "addr:full": "2121 N CAUSEWAY BLVD", "addr:postcode": "70001", "addr:state": "LA", "brand": "USPS", "collection_times": "Mo-Fr 13:00; Sa 12:00", "name": "USPS COLLECTION BOX - BLUE BOX", "note": "ON 12/24 AND 12/31, THIS BOX MAY BE COLLECTED AS EARLY AS 12 NOON.", "ref": "7000100044"}, "type": "Feature"}
{"geometry": {"coordinates": [-90.1633185, 29.996739], "type": "Point"}, "id": "aJzCpc2B29BYn0Wc-Iubqy-JneI=", "properties": {"@spider": "usps_collection_boxes", "addr:city": "METAIRIE", "addr:country": "US", "addr:full": "3616 S I 10 SERVICE RD W", "addr:postcode": "70001", "addr:state": "LA", "brand": "USPS", "collection_times": "Mo-Fr 11:45; Sa 10:45", "name": "USPS COLLECTION BOX - BLUE BOX", "ref": "7000100050"}, "type": "Feature"}
{"geometry": {"coordinates": [-90.160542, 29.996649], "type": "Point"}, "id": "lGRLq-RXhR9QVrFarmpUO4KBNoM=", "properties": {"@spider": "usps_collection_boxes", "addr:city": "METAIRIE", "addr:country": "US", "addr:full": "2450 SEVERN AVE", "addr:postcode": "70001", "addr:state": "LA", "brand": "USPS", "collection_times": "Mo-Fr 11:45; Sa 10:45", "name": "USPS COLLECTION BOX - BLUE BOX", "ref": "7000100056"}, "type": "Feature"}
{"geometry": {"coordinates": [-90.182888712, 29.994135493], "type": "Point"}, "id": "vKFBeLZ96NTcAjPnSDpY5gK4ziU=", "properties": {"@spider": "usps_collection_boxes", "addr:city": "METAIRIE", "addr:country": "US", "addr:full": "4621 W NAPOLEON AVE", "addr:postcode": "70001", "addr:state": "LA", "brand": "USPS", "collection_times": "Mo-Fr 11:30; Sa 10:30", "name": "USPS COLLECTION BOX - BLUE BOX", "ref": "7000100070"}, "type": "Feature"}
{"geometry": {"coordinates": [-90.161430816, 29.975917377], "type": "Point"}, "id": "SP5EMejK38BnMDc_tjyX_7Txua4=", "properties": {"@spider": "usps_collection_boxes", "addr:city": "METAIRIE", "addr:country": "US", "addr:full": "3517 JOHNSON ST", "addr:postcode": "70001", "addr:state": "LA", "brand": "USPS", "collection_times": "Mo-Fr 17:00; Sa 12:00", "name": "USPS COLLECTION BOX - PO LOBBY", "note": "ON 12/24 AND 12/31, THIS BOX MAY BE COLLECTED AS EARLY AS 12 NOON.", "ref": "7000100073"}, "type": "Feature"}
{"geometry": {"coordinates": [-90.1473435, 30.003228], "type": "Point"}, "id": "dqLB2zLB3AKnqLJzJsDwbG_MEC0=", "properties": {"@spider": "usps_collection_boxes", "addr:city": "METAIRIE", "addr:country": "US", "addr:full": "2201 VETERANS MEMORIAL BLVD", "addr:postcode": "70002", "addr:state": "LA", "brand": "USPS", "collection_times": "Mo-Fr 13:00; Sa 12:00", "name": "USPS COLLECTION BOX - BLUE BOX", "note": "ON 12/24 AND 12/31, THIS BOX MAY BE COLLECTED AS EARLY AS 12 NOON.", "ref": "7000200001"}, "type": "Feature"}
{"geometry": {"coordinates": [-90.1540575, 30.004722], "type": "Point"}, "id": "kLwLYWHDC7CMA9ZPdQpZClF9SW0=", "properties": {"@spider": "usps_collection_boxes", "addr:city": "METAIRIE", "addr:country": "US", "addr:full": "2900 RIDGELAKE DR", "addr:postcode": "70002", "addr:state": "LA", "brand": "USPS", "collection_times": "Mo-Fr 13:00; Sa 12:00", "name": "USPS COLLECTION BOX - BLUE BOX", "note": "ON 12/24 AND 12/31, THIS BOX MAY BE COLLECTED AS EARLY AS 12 NOON.", "ref": "7000200004"}, "type": "Feature"}
{"geometry": {"coordinates": [-90.149599315, 29.999853628], "type": "Point"}, "id": "I_hF-jMLTIijq10aH5r9T2dMDyQ=", "properties": {"@spider": "usps_collection_boxes", "addr:city": "METAIRIE", "addr:country": "US", "addr:full": "2716 WHITNEY PL", "addr:postcode": "70002", "addr:state": "LA", "brand": "USPS", "collection_times": "Mo-Sa 13:15", "name": "USPS COLLECTION BOX - BLUE BOX", "note": "ON 12/24 AND 12/31, THIS BOX MAY BE COLLECTED AS EARLY AS 12 NOON.", "ref": "7000200007"}, "type": "Feature"}
{"geometry": {"coordinates": [-90.150066, 30.00222], "type": "Point"}, "id": "IdaRVkYpG06hV0fo2A0FXqHTH8E=", "properties": {"@spider": "usps_collection_boxes", "addr:city": "METAIRIE", "addr:country": "US", "addr:full": "2800 VETERANS MEMORIAL BLVD", "addr:postcode": "70002", "addr:state": "LA", "brand": "USPS", "collection_times": "Mo-Fr 16:15; Sa 15:15", "name": "USPS COLLECTION BOX - BLUE BOX", "note": "ON 12/24 AND 12/31, THIS BOX MAY BE COLLECTED AS EARLY AS 12 NOON.", "ref": "7000200011"}, "type": "Feature"}
{"geometry": {"coordinates": [-90.1533281247, 29.9989031899], "type": "Point"}, "id": "zWKc3bWH80Tr5svWYyQEpRe-IzQ=", "properties": {"@spider": "usps_collection_boxes", "addr:city": "METAIRIE", "addr:country": "US", "addr:full": "3131 N I 10 SERVICE RD E", "addr:postcode": "70002", "addr:state": "LA", "brand": "USPS", "collection_times": "Mo-Sa 11:00", "name": "USPS COLLECTION BOX - BLUE BOX", "ref": "7000200013"}, "type": "Feature"}
{"geometry": {"coordinates": [-90.1729125, 29.999286], "type": "Point"}, "id": "pnFE-GzMZjL5exawvLmTssOo69U=", "properties": {"@spider": "usps_collection_boxes", "addr:city": "METAIRIE", "addr:country": "US", "addr:full": "3925 N I 10 SERVICE RD W", "addr:postcode": "70002", "addr:state": "LA", "brand": "USPS", "collection_times": "Mo-Fr 13:30; Sa 12:30", "name": "USPS COLLECTION BOX - BLUE BOX", "note": "ON 12/24 AND 12/31, THIS BOX MAY BE COLLECTED AS EARLY AS 12 NOON.", "ref": "7000200022"}, "type": "Feature"}
{"geometry": {"coordinates": [-90.159732664, 29.999150864], "type": "Point"}, "id": "I6aGChuje1BMJVNaUoV4fpFUgOU=", "properties": {"@spider": "usps_collection_boxes", "addr:city": "METAIRIE", "addr:country": "US", "addr:full": "2540 SEVERN AVE", "addr:postcode": "70002", "addr:state": "LA", "brand": "USPS", "collection_times": "Mo-Fr 13:45; Sa 12:15", "name": "USPS COLLECTION BOX - BLUE BOX", "note": "ON 12/24 AND 12/31, THIS BOX MAY BE COLLECTED AS EARLY AS 12 NOON.", "ref": "7000200050"}, "type": "Feature"}
{"geometry": {"coordinates": [-90.177786, 30.005424], "type": "Point"}, "id": "soFDL023qDgZZbhHh-OU6V6DRDA=", "properties": {"@spider": "usps_collection_boxes", "addr:city": "METAIRIE", "addr:country": "US", "addr:full": "4141 VETERANS MEMORIAL BLVD", "addr:postcode": "70002", "addr:state": "LA", "brand": "USPS", "collection_times": "Mo-Fr 13:15; Sa 12:45", "name": "USPS COLLECTION BOX - BLUE BOX", "note": "ON 12/24 AND 12/31, THIS BOX MAY BE COLLECTED AS EARLY AS 12 NOON.", "ref": "7000200054"}, "type": "Feature"}
{"geometry": {"coordinates": [-90.157059, 30.009843], "type": "Point"}, "id": "cqWLgvAxzvOH4QbOMMldzB0hxEA=", "properties": {"@spider": "usps_collection_boxes", "addr:city": "METAIRIE", "addr:country": "US", "addr:full": "3301 17TH ST", "addr:postcode": "70002", "addr:state": "LA", "brand": "USPS", "collection_times": "Mo-Fr 17:00; Sa 16:15", "name": "USPS COLLECTION BOX - BLUE BOX", "note": "ON 12/24 AND 12/31, THIS BOX MAY BE COLLECTED AS EARLY AS 12 NOON.", "ref": "7000200064"}, "type": "Feature"}
{"geometry": {"coordinates": [-90.157059, 30.009843], "type": "Point"}, "id": "DNsln1BbVHJhwnK06y929cm515A=", "properties": {"@spider": "usps_collection_boxes", "addr:city": "METAIRIE", "addr:country": "US", "addr:full": "3301 17TH ST", "addr:postcode": "70002", "addr:state": "LA", "brand": "USPS", "collection_times": "Mo-Fr 17:00; Sa 16:15", "name": "USPS COLLECTION BOX - BLUE BOX", "note": "ON 12/24 AND 12/31, THIS BOX MAY BE COLLECTED AS EARLY AS 12 NOON.", "ref": "7000200065"}, "type": "Feature"}
{"geometry": {"coordinates": [-90.157059, 30.009843], "type": "Point"}, "id": "mu05yrpXVQMwdbdJQym70xuRWbw=", "properties": {"@spider": "usps_collection_boxes", "addr:city": "METAIRIE", "addr:country": "US", "addr:full": "3301 17TH ST", "addr:postcode": "70002", "addr:state": "LA", "brand": "USPS", "collection_times": "Mo-Fr 17:00; Sa 16:15", "name": "USPS COLLECTION BOX - BLUE BOX", "note": "ON 12/24 AND 12/31, THIS BOX MAY BE COLLECTED AS EARLY AS 12 NOON.", "ref": "7000200066"}, "type": "Feature"}
{"geometry": {"coordinates": [-90.157059, 30.009843], "type": "Point"}, "id": "JRL6pcRTqjT6fqJgJ1OIY3gDtJQ=", "properties": {"@spider": "usps_collection_boxes", "addr:city": "METAIRIE", "addr:country": "US", "addr:full": "3301 17TH ST", "addr:postcode": "70002", "addr:state": "LA", "brand": "USPS", "collection_times": "Mo-Fr 17:00; Sa 16:15", "name": "USPS COLLECTION BOX - BLUE BOX", "note": "ON 12/24 AND 12/31, THIS BOX MAY BE COLLECTED AS EARLY AS 12 NOON.", "ref": "7000200067"}, "type": "Feature"}
{"geometry": {"coordinates": [-90.157059, 30.009843], "type": "Point"}, "id": "VPoP9cIZ6aDQhZTweAhndX2A-gc=", "properties": {"@spider": "usps_collection_boxes", "addr:city": "METAIRIE", "addr:country": "US", "addr:full": "3301 17TH ST", "addr:postcode": "70002", "addr:state": "LA", "brand": "USPS", "collection_times": "Mo-Fr 17:00; Sa 16:15", "name": "USPS COLLECTION BOX - BLUE BOX", "note": "ON 12/24 AND 12/31, THIS BOX MAY BE COLLECTED AS EARLY AS 12 NOON.", "ref": "7000200068"}, "type": "Feature"}
{"geometry": {"coordinates": [-90.157059, 30.009843], "type": "Point"}, "id": "McaFdzX38HIBDhztuhEoXdwg_2U=", "properties": {"@spider": "usps_collection_boxes", "addr:city": "METAIRIE", "addr:country": "US", "addr:full": "3301 17TH ST", "addr:postcode": "70002", "addr:state": "LA", "brand": "USPS", "collection_times": "Mo-Fr 17:00; Sa 16:15", "name": "USPS COLLECTION BOX - PO LOBBY", "note": "ON 12/24 AND 12/31, THIS BOX MAY BE COLLECTED AS EARLY AS 12 NOON.", "ref": "7000200070"}, "type": "Feature"}
{"geometry": {"coordinates": [-90.153945, 30.007881], "type": "Point"}, "id": "PUrwVk7Cpm7MBBIHDP6gCepLhRU=", "properties": {"@spider": "usps_collection_boxes", "addr:city": "METAIRIE", "addr:country": "US", "addr:full": "3200 RIDGELAKE DR", "addr:postcode": "70002", "addr:state": "LA", "brand": "USPS", "collection_times": "Mo-Fr 13:00; Sa 12:00", "name": "USPS COLLECTION BOX - BLUE BOX", "note": "ON 12/24 AND 12/31, THIS BOX MAY BE COLLECTED AS EARLY AS 12 NOON.", "ref": "7000200076"}, "type": "Feature"}
{"geometry": {"coordinates": [-90.162278856, 29.999490171], "type": "Point"}, "id": "s22FgjjnmdI1IrHgTYYlSOFGReM=", "properties": {"@spider": "usps_collection_boxes", "addr:city": "METAIRIE", "addr:country": "US", "addr:full": "2617 EDENBORN AVE", "addr:postcode": "70002", "addr:state": "LA", "brand": "USPS", "collection_times": "Mo-Sa 12:45", "name": "USPS COLLECTION BOX - BLUE BOX", "note": "ON 12/24 AND 12/31, THIS BOX MAY BE COLLECTED AS EARLY AS 12 NOON.", "ref": "7000200078"}, "type": "Feature"}
{"geometry": {"coordinates": [-90.1575675, 29.999799], "type": "Point"}, "id": "mJs63ffpvE5-tA_T5vg_BWsPA-U=", "properties": {"@spider": "usps_collection_boxes", "addr:city": "METAIRIE", "addr:country": "US", "addr:full": "2700 ATHANIA PKWY", "addr:postcode": "70002", "addr:state": "LA", "brand": "USPS", "collection_times": "Mo-Fr 13:30; Sa 12:15", "name": "USPS COLLECTION BOX - BLUE BOX", "note": "ON 12/24 AND 12/31, THIS BOX MAY BE COLLECTED AS EARLY AS 12 NOON.", "ref": "7000200079"}, "type": "Feature"}
{"geometry": {"coordinates": [-90.157059, 30.009843], "type": "Point"}, "id": "gIao4oi0MgsXjDOX2N4Y_hctyqc=", "properties": {"@spider": "usps_collection_boxes", "addr:city": "METAIRIE", "addr:country": "US", "addr:full": "3301 17TH ST", "addr:postcode": "70002", "addr:state": "LA", "brand": "USPS", "collection_times": "Mo-Fr 17:00; Sa 16:15", "name": "USPS COLLECTION BOX - PO LOBBY", "note": "ON 12/24 AND 12/31, THIS BOX MAY BE COLLECTED AS EARLY AS 12 NOON.", "ref": "7000200082"}, "type": "Feature"}
{"geometry": {"coordinates": [-90.16192829, 30.008175454], "type": "Point"}, "id": "-o5rYSObLwfXKFIIT16V6tFmGjE=", "properties": {"@spider": "usps_collection_boxes", "addr:city": "METAIRIE", "addr:country": "US", "addr:full": "3201 EDENBORN AVE", "addr:postcode": "70002", "addr:state": "LA", "brand": "USPS", "collection_times": "Mo-Sa 13:00", "name": "USPS COLLECTION BOX - BLUE BOX", "note": "ON 12/24 AND 12/31, THIS BOX MAY BE COLLECTED AS EARLY AS 12 NOON.", "ref": "7000200087"}, "type": "Feature"}
{"geometry": {"coordinates": [-90.170478, 30.003633], "type": "Point"}, "id": "WPEuxnH39zmmjoMm-ItI8GmscdQ=", "properties": {"@spider": "usps_collection_boxes", "addr:city": "METAIRIE", "addr:country": "US", "addr:full": "3848 VETERANS MEMORIAL BLVD", "addr:postcode": "70002", "addr:state": "LA", "brand": "USPS", "collection_times": "Mo-Sa 13:00", "name": "USPS COLLECTION BOX - BLUE BOX", "note": "ON 12/24 AND 12/31, THIS BOX MAY BE COLLECTED AS EARLY AS 12 NOON.", "ref": "7000200089"}, "type": "Feature"}
{"geometry": {"coordinates": [-90.148086, 30.003336], "type": "Point"}, "id": "G8rnbhDlmLE4QQPiJYb2WrMbb0Q=", "properties": {"@spider": "usps_collection_boxes", "addr:city": "METAIRIE", "addr:country": "US", "addr:full": "2301 VETERANS MEMORIAL BLVD", "addr:postcode": "70002", "addr:state": "LA", "brand": "USPS", "collection_times": "Mo-Sa 09:30", "name": "USPS COLLECTION BOX - BLUE BOX", "ref": "7000200090"}, "type": "Feature"}
{"geometry": {"coordinates": [-90.150066, 30.00222], "type": "Point"}, "id": "ToUpN_qxHN_MFeynlVUHSGqrrWo=", "properties": {"@spider": "usps_collection_boxes", "addr:city": "METAIRIE", "addr:country": "US", "addr:full": "2800 VETERANS MEMORIAL BLVD", "addr:postcode": "70002", "addr:state": "LA", "brand": "USPS", "collection_times": "Mo-Fr 16:15; Sa 15:15", "name": "USPS COLLECTION BOX - BLUE BOX", "note": "ON 12/24 AND 12/31, THIS BOX MAY BE COLLECTED AS EARLY AS 12 NOON.", "ref": "7000200091"}, "type": "Feature"}
{"geometry": {"coordinates": [-90.157059, 30.009843], "type": "Point"}, "id": "MH8tEBIYTluqd8le_5-VOfwcA3E=", "properties": {"@spider": "usps_collection_boxes", "addr:city": "METAIRIE", "addr:country": "US", "addr:full": "3301 17TH ST", "addr:postcode": "70002", "addr:state": "LA", "brand": "USPS", "collection_times": "Mo-Fr 17:00; Sa 16:15", "name": "USPS COLLECTION BOX - APC", "note": "ON 12/24 AND 12/31, THIS BOX MAY BE COLLECTED AS EARLY AS 12 NOON.", "ref": "7000200092"}, "type": "Feature"}
{"geometry": {"coordinates": [-90.1541295, 30.01185], "type": "Point"}, "id": "BS5PwERX9zbX9Wr_Xb5gSyKsQw0=", "properties": {"@spider": "usps_collection_boxes", "addr:city": "METAIRIE", "addr:country": "US", "addr:full": "3445 N CAUSEWAY BLVD", "addr:postcode": "70002", "addr:state": "LA", "brand": "USPS", "collection_times": "Mo-Sa 09:00", "name": "USPS COLLECTION BOX - BLUE BOX", "ref": "7000200094"}, "type": "Feature"}
{"geometry": {"coordinates": [-90.157059, 30.009843], "type": "Point"}, "id": "OQJCrd0Zznn1G6Ydip1aBMJU-g0=", "properties": {"@spider": "usps_collection_boxes", "addr:city": "METAIRIE", "addr:country": "US", "addr:full": "3301 17TH ST", "addr:postcode": "70002", "addr:state": "LA", "brand": "USPS", "collection_times": "Mo-Fr 17:00; Sa 13:00", "name": "USPS COLLECTION BOX - PO LOBBY", "note": "ON 12/24 AND 12/31, THIS BOX MAY BE COLLECTED AS EARLY AS 12 NOON.", "ref": "7000200102"}, "type": "Feature"}
{"geometry": {"coordinates": [-90.212195833, 30.003631944], "type": "Point"}, "id": "E1TFDu6otB_yCR49zyRbY71-px8=", "properties": {"@spider": "usps_collection_boxes", "addr:city": "METAIRIE", "addr:country": "US", "addr:full": "6550 PARK MANOR DR", "addr:postcode": "70003", "addr:state": "LA", "brand": "USPS", "collection_times": "Mo-Fr 17:00; Sa 13:15", "name": "USPS COLLECTION BOX - BLUE BOX", "note": "ON 12/24 AND 12/31, THIS BOX MAY BE COLLECTED AS EARLY AS 12 NOON.", "ref": "7000300000"}, "type": "Feature"}
{"geometry": {"coordinates": [-90.2196225, 30.008808], "type": "Point"}, "id": "oo04H5Sj3_6WrUEgB4E6AdeKSEg=", "properties": {"@spider": "usps_collection_boxes", "addr:city": "METAIRIE", "addr:country": "US", "addr:full": "6660 RIVERSIDE DR", "addr:postcode": "70003", "addr:state": "LA", "brand": "USPS", "collection_times": "Mo-Fr 15:15; Sa 14:15", "name": "USPS COLLECTION BOX - BLUE BOX", "note": "ON 12/24 AND 12/31, THIS BOX MAY BE COLLECTED AS EARLY AS 12 NOON.", "ref": "7000300006"}, "type": "Feature"}
{"geometry": {"coordinates": [-90.218710739, 30.005082514], "type": "Point"}, "id": "-cCdaQkB4ECluwAIUdo2aFrppNk=", "properties": {"@spider": "usps_collection_boxes", "addr:city": "METAIRIE", "addr:country": "US", "addr:full": "7044 VETERANS MEMORIAL BLVD", "addr:postcode": "70003", "addr:state": "LA", "brand": "USPS", "collection_times": "Mo-Fr 17:00; Sa 12:00", "name": "USPS COLLECTION BOX - PO LOBBY", "note": "ON 12/24 AND 12/31, THIS BOX MAY BE COLLECTED AS EARLY AS 12 NOON.", "ref": "7000300015"}, "type": "Feature"}
{"geometry": {"coordinates": [-90.218710739, 30.005082514], "type": "Point"}, "id": "3EyGzt9V_QUko4upp2SK7auF6TM=", "properties": {"@spider": "usps_collection_boxes", "addr:city": "METAIRIE", "addr:country": "US", "addr:full": "7044 VETERANS MEMORIAL BLVD", "addr:postcode": "70003", "addr:state": "LA", "brand": "USPS", "collection_times": "Mo-Fr 17:00; Sa 12:00", "name": "USPS COLLECTION BOX - BLUE BOX", "note": "ON 12/24 AND 12/31, THIS BOX MAY BE COLLECTED AS EARLY AS 12 NOON.", "ref": "7000300016"}, "type": "Feature"}
{"geometry": {"coordinates": [-90.218710739, 30.005082514], "type": "Point"}, "id": "YbVGubd0qSDRCmuXxF6NgUr4-dk=", "properties": {"@spider": "usps_collection_boxes", "addr:city": "METAIRIE", "addr:country": "US", "addr:full": "7044 VETERANS MEMORIAL BLVD", "addr:postcode": "70003", "addr:state": "LA", "brand": "USPS", "collection_times": "Mo-Fr 17:00; Sa 12:00", "name": "USPS COLLECTION BOX - BLUE BOX", "note": "ON 12/24 AND 12/31, THIS BOX MAY BE COLLECTED AS EARLY AS 12 NOON.", "ref": "7000300017"}, "type": "Feature"}
{"geometry": {"coordinates": [-90.218710739, 30.005082514], "type": "Point"}, "id": "_QpDcnY1tS3303TGbSvmIvh3y04=", "properties": {"@spider": "usps_collection_boxes", "addr:city": "METAIRIE", "addr:country": "US", "addr:full": "7044 VETERANS MEMORIAL BLVD", "addr:postcode": "70003", "addr:state": "LA", "brand": "USPS", "collection_times": "Mo-Fr 17:00; Sa 12:00", "name": "USPS COLLECTION BOX - BLUE BOX", "note": "ON 12/24 AND 12/31, THIS BOX MAY BE COLLECTED AS EARLY AS 12 NOON.", "ref": "7000300021"}, "type": "Feature"}
{"geometry": {"coordinates": [-90.220878, 29.979288], "type": "Point"}, "id": "uZPO5dAUAnkGf-M9QKmhC2YlCiw=", "properties": {"@spider": "usps_collection_boxes", "addr:city": "METAIRIE", "addr:country": "US", "addr:full": "7807 AIRLINE DR", "addr:postcode": "70003", "addr:state": "LA", "brand": "USPS", "collection_times": "Mo-Fr 11:45; Sa 10:45", "name": "USPS COLLECTION BOX - BLUE BOX", "ref": "7000300027"}, "type": "Feature"}
{"geometry": {"coordinates": [-90.213235185, 29.984351941], "type": "Point"}, "id": "gdiHEPSNq_IHVZPs-QasnHfifAA=", "properties": {"@spider": "usps_collection_boxes", "addr:city": "METAIRIE", "addr:country": "US", "addr:full": "924 DAVID DR", "addr:postcode": "70003", "addr:state": "LA", "brand": "USPS", "collection_times": "Mo-Fr 11:30; Sa 10:30", "name": "USPS COLLECTION BOX - BLUE BOX", "ref": "7000300030"}, "type": "Feature"}
{"geometry": {"coordinates": [-90.218710739, 30.005082514], "type": "Point"}, "id": "khYdRLIZduPFRJpqigUik0c9jPA=", "properties": {"@spider": "usps_collection_boxes", "addr:city": "METAIRIE", "addr:country": "US", "addr:full": "7044 VETERANS MEMORIAL BLVD", "addr:postcode": "70003", "addr:state": "LA", "brand": "USPS", "collection_times": "Mo-Fr 17:00; Sa 12:00", "name": "USPS COLLECTION BOX - PO LOBBY", "note": "ON 12/24 AND 12/31, THIS BOX MAY BE COLLECTED AS EARLY AS 12 NOON.", "ref": "7000300036"}, "type": "Feature"}
{"geometry": {"coordinates": [-90.21912432, 30.009650262], "type": "Point"}, "id": "gX_gap-V1vs4mZuOrR67_MJACxk=", "properties": {"@spider": "usps_collection_boxes", "addr:city": "METAIRIE", "addr:country": "US", "addr:full": "6620 RIVERSIDE DR", "addr:postcode": "70003", "addr:state": "LA", "brand": "USPS", "collection_times": "Mo-Fr 15:15; Sa 14:15", "name": "USPS COLLECTION BOX - BLUE BOX", "note": "ON 12/24 AND 12/31, THIS BOX MAY BE COLLECTED AS EARLY AS 12 NOON.", "ref": "7000300041"}, "type": "Feature"}
{"geometry": {"coordinates": [-90.2020995, 30.005604], "type": "Point"}, "id": "Pf2kxXei53LUIjUsXz_ep4ESW_g=", "properties": {"@spider": "usps_collection_boxes", "addr:city": "METAIRIE", "addr:country": "US", "addr:full": "5500 VETERANS MEMORIAL BLVD", "addr:postcode": "70003", "addr:state": "LA", "brand": "USPS", "collection_times": "Mo-Fr 16:00; Sa 15:00", "name": "USPS COLLECTION BOX - BLUE BOX", "note": "ON 12/24 AND 12/31, THIS BOX MAY BE COLLECTED AS EARLY AS 12 NOON.", "ref": "7000300042"}, "type": "Feature"}
{"geometry": {"coordinates": [-90.21912432, 30.009650262], "type": "Point"}, "id": "io8UT_Rn3BBTHpjph13mV2gmAr4=", "properties": {"@spider": "usps_collection_boxes", "addr:city": "METAIRIE", "addr:country": "US", "addr:full": "6620 RIVERSIDE DR", "addr:postcode": "70003", "addr:state": "LA", "brand": "USPS", "collection_times": "Mo-Fr 15:15; Sa 14:15", "name": "USPS COLLECTION BOX - BLUE BOX", "note": "ON 12/24 AND 12/31, THIS BOX MAY BE COLLECTED AS EARLY AS 12 NOON.", "ref": "7000300043"}, "type": "Feature"}
{"geometry": {"coordinates": [-90.2196225, 30.008808], "type": "Point"}, "id": "PPw122buLcSuT04ZTU7GXSzcyV0=", "properties": {"@spider": "usps_collection_boxes", "addr:city": "METAIRIE", "addr:country": "US", "addr:full": "6660 RIVERSIDE DR", "addr:postcode": "70003", "addr:state": "LA", "brand": "USPS", "collection_times": "Mo-Fr 15:15; Sa 14:15", "name": "USPS COLLECTION BOX - BLUE BOX", "note": "ON 12/24 AND 12/31, THIS BOX MAY BE COLLECTED AS EARLY AS 12 NOON.", "ref": "7000300044"}, "type": "Feature"}
{"geometry": {"coordinates": [-90.218710739, 30.005082514], "type": "Point"}, "id": "iLb3_BroAhaunT8Qmu6Dyz-76Yg=", "properties": {"@spider": "usps_collection_boxes", "addr:city": "METAIRIE", "addr:country": "US", "addr:full": "7044 VETERANS MEMORIAL BLVD", "addr:postcode": "70003", "addr:state": "LA", "brand": "USPS", "collection_times": "Mo-Fr 17:00; Sa 12:00", "name": "USPS COLLECTION BOX - BLUE BOX", "note": "ON 12/24 AND 12/31, THIS BOX MAY BE COLLECTED AS EARLY AS 12 NOON.", "ref": "7000300046"}, "type": "Feature"}
{"geometry": {"coordinates": [-90.218710739, 30.005082514], "type": "Point"}, "id": "NrSwdbZdsk34-Lp1dZv4sTTuj2g=", "properties": {"@spider": "usps_collection_boxes", "addr:city": "METAIRIE", "addr:country": "US", "addr:full": "7044 VETERANS MEMORIAL BLVD", "addr:postcode": "70003", "addr:state": "LA", "brand": "USPS", "collection_times": "Mo-Fr 17:00; Sa 12:00", "name": "USPS COLLECTION BOX - PO LOBBY", "note": "ON 12/24 AND 12/31, THIS BOX MAY BE COLLECTED AS EARLY AS 12 NOON.", "ref": "7000300051"}, "type": "Feature"}
{"geometry": {"coordinates": [-90.1299285, 30.000573], "type": "Point"}, "id": "o1llYF_SIRVpcKGKD6brChfhzfw=", "properties": {"@spider": "usps_collection_boxes", "addr:city": "METAIRIE", "addr:country": "US", "addr:full": "710 VETERANS MEMORIAL BLVD", "addr:postcode": "70005", "addr:state": "LA", "brand": "USPS", "collection_times": "Mo-Fr 12:30; Sa 11:30", "name": "USPS COLLECTION BOX - BLUE BOX", "note": "ON 12/24 AND 12/31, THIS BOX MAY BE COLLECTED AS EARLY AS 12 NOON.", "ref": "7000500010"}, "type": "Feature"}
{"geometry": {"coordinates": [-90.130257, 30.003813], "type": "Point"}, "id": "2VcYDuKzf9k0g5IZlwUfQINla1c=", "properties": {"@spider": "usps_collection_boxes", "addr:city": "METAIRIE", "addr:country": "US", "addr:full": "725 VETERANS MEMORIAL BLVD", "addr:postcode": "70005", "addr:state": "LA", "brand": "USPS", "collection_times": "Mo-Fr 13:00; Sa 11:45", "name": "USPS COLLECTION BOX - BLUE BOX", "note": "ON 12/24 AND 12/31, THIS BOX MAY BE COLLECTED AS EARLY AS 12 NOON.", "ref": "7000500012"}, "type": "Feature"}
{"geometry": {"coordinates": [-90.1239615, 30.00132], "type": "Point"}, "id": "FoA9vLn-2JbhAjxRvJAt7RcQZoU=", "properties": {"@spider": "usps_collection_boxes", "addr:city": "METAIRIE", "addr:country": "US", "addr:full": "111 VETERANS MEMORIAL BLVD", "addr:postcode": "70005", "addr:state": "LA", "brand": "USPS", "collection_times": "Mo-Fr 15:00; Sa 11:30", "name": "USPS COLLECTION BOX - BLUE BOX", "note": "ON 12/24 AND 12/31, THIS BOX MAY BE COLLECTED AS EARLY AS 12 NOON.", "ref": "7000500013"}, "type": "Feature"}
{"geometry": {"coordinates": [-90.1239615, 30.00132], "type": "Point"}, "id": "nj3YlOLIx6bNN_K0KALDSrl6MHM=", "properties": {"@spider": "usps_collection_boxes", "addr:city": "METAIRIE", "addr:country": "US", "addr:full": "111 VETERANS MEMORIAL BLVD", "addr:postcode": "70005", "addr:state": "LA", "brand": "USPS", "collection_times": "Mo-Fr 15:00; Sa 11:30", "name": "USPS COLLECTION BOX - BLUE BOX", "note": "ON 12/24 AND 12/31, THIS BOX MAY BE COLLECTED AS EARLY AS 12 NOON.", "ref": "7000500014"}, "type": "Feature"}
{"geometry": {"coordinates": [-90.1255725, 29.999862], "type": "Point"}, "id": "YPRrWtxgkCQSA9hT871aYa0X4q4=", "properties": {"@spider": "usps_collection_boxes", "addr:city": "METAIRIE", "addr:country": "US", "addr:full": "212 VETERANS MEMORIAL BLVD", "addr:postcode": "70005", "addr:state": "LA", "brand": "USPS", "collection_times": "Mo-Fr 12:30; Sa 11:30", "name": "USPS COLLECTION BOX - BLUE BOX", "note": "ON 12/24 AND 12/31, THIS BOX MAY BE COLLECTED AS EARLY AS 12 NOON.", "ref": "7000500021"}, "type": "Feature"}
{"geometry": {"coordinates": [-90.1304865, 29.988441], "type": "Point"}, "id": "IUYCr0fsXMPG6gYpJJh0argkJA8=", "properties": {"@spider": "usps_collection_boxes", "addr:city": "METAIRIE", "addr:country": "US", "addr:full": "701 METAIRIE RD STE 1B102", "addr:postcode": "70005", "addr:state": "LA", "brand": "USPS", "collection_times": "Mo-Fr 15:30; Sa 10:45", "name": "USPS COLLECTION BOX - BLUE BOX", "note": "ON 12/24 AND 12/31, THIS BOX MAY BE COLLECTED AS EARLY AS 12 NOON.", "ref": "7000500032"}, "type": "Feature"}
{"geometry": {"coordinates": [-90.1304865, 29.988441], "type": "Point"}, "id": "lY-pWrsog8WPrp6CJusArF7zt5k=", "properties": {"@spider": "usps_collection_boxes", "addr:city": "METAIRIE", "addr:country": "US", "addr:full": "701 METAIRIE RD STE 1B102", "addr:postcode": "70005", "addr:state": "LA", "brand": "USPS", "collection_times": "Mo-Fr 15:30; Sa 10:45", "name": "USPS COLLECTION BOX - BLUE BOX", "note": "ON 12/24 AND 12/31, THIS BOX MAY BE COLLECTED AS EARLY AS 12 NOON.", "ref": "7000500033"}, "type": "Feature"}
{"geometry": {"coordinates": [-90.1304865, 29.988441], "type": "Point"}, "id": "mZ8wWZVxbkn_fJX1r3FNm3XQifo=", "properties": {"@spider": "usps_collection_boxes", "addr:city": "METAIRIE", "addr:country": "US", "addr:full": "701 METAIRIE RD STE 1B102", "addr:postcode": "70005", "addr:state": "LA", "brand": "USPS", "collection_times": "Mo-Fr 16:30; Sa 12:00", "name": "USPS COLLECTION BOX - PO LOBBY", "note": "ON 12/24 AND 12/31, THIS BOX MAY BE COLLECTED AS EARLY AS 12 NOON.", "ref": "7000500034"}, "type": "Feature"}
{"geometry": {"coordinates": [-90.1304865, 29.988441], "type": "Point"}, "id": "YNHED1Amp7Uf_ZuFfEbFOk_JBWU=", "properties": {"@spider": "usps_collection_boxes", "addr:city": "METAIRIE", "addr:country": "US", "addr:full": "701 METAIRIE RD STE 1B102", "addr:postcode": "70005", "addr:state": "LA", "brand": "USPS", "collection_times": "Mo-Fr 16:30; Sa 12:00", "name": "USPS COLLECTION BOX - PO LOBBY", "note": "ON 12/24 AND 12/31, THIS BOX MAY BE COLLECTED AS EARLY AS 12 NOON.", "ref": "7000500036"}, "type": "Feature"}
{"geometry": {"coordinates": [-90.143260527, 29.988252521], "type": "Point"}, "id": "LSS1Ui3MmaBUaoVaPF7CTB39ygM=", "properties": {"@spider": "usps_collection_boxes", "addr:city": "METAIRIE", "addr:country": "US", "addr:full": "201 BONNABEL BLVD", "addr:postcode": "70005", "addr:state": "LA", "brand": "USPS", "collection_times": "Mo-Fr 11:45; Sa 10:45", "name": "USPS COLLECTION BOX - BLUE BOX", "ref": "7000500039"}, "type": "Feature"}
{"geometry": {"coordinates": [-90.132183, 29.976813], "type": "Point"}, "id": "Jy49TQZxucP1arnslDpYVRwgmiM=", "properties": {"@spider": "usps_collection_boxes", "addr:city": "METAIRIE", "addr:country": "US", "addr:full": "601 NORTHLINE ST", "addr:postcode": "70005", "addr:state": "LA", "brand": "USPS", "collection_times": "Mo-Sa 12:00", "name": "USPS COLLECTION BOX - BLUE BOX", "ref": "7000500040"}, "type": "Feature"}
{"geometry": {"coordinates": [-90.1406745, 29.98746], "type": "Point"}, "id": "fJ6zWgMcVhomLiYAsXTvy61wqL4=", "properties": {"@spider": "usps_collection_boxes", "addr:city": "METAIRIE", "addr:country": "US", "addr:full": "1521 METAIRIE RD", "addr:postcode": "70005", "addr:state": "LA", "brand": "USPS", "collection_times": "Mo-Fr 11:45; Sa 10:45", "name": "USPS COLLECTION BOX - BLUE BOX", "ref": "7000500041"}, "type": "Feature"}
{"geometry": {"coordinates": [-90.129190255, 29.990584561], "type": "Point"}, "id": "60Gzky0VOJW7S3SxOW2igm5FSvE=", "properties": {"@spider": "usps_collection_boxes", "addr:city": "METAIRIE", "addr:country": "US", "addr:full": "301 ARIS AVE", "addr:postcode": "70005", "addr:state": "LA", "brand": "USPS", "collection_times": "Mo-Fr 11:45; Sa 10:45", "name": "USPS COLLECTION BOX - BLUE BOX", "ref": "7000500042"}, "type": "Feature"}
{"geometry": {"coordinates": [-90.1277055, 29.982033], "type": "Point"}, "id": "IhRylLi_QNHSdSFy1yIWX2Def88=", "properties": {"@spider": "usps_collection_boxes", "addr:city": "METAIRIE", "addr:country": "US", "addr:full": "315 METAIRIE RD", "addr:postcode": "70005", "addr:state": "LA", "brand": "USPS", "collection_times": "Mo-Fr 11:30; Sa 10:30", "name": "USPS COLLECTION BOX - BLUE BOX", "ref": "7000500043"}, "type": "Feature"}
{"geometry": {"coordinates": [-90.1239615, 30.00132], "type": "Point"}, "id": "o9EPQwqHDVlgSDhism19ehfVdAw=", "properties": {"@spider": "usps_collection_boxes", "addr:city": "METAIRIE", "addr:country": "US", "addr:full": "111 VETERANS MEMORIAL BLVD", "addr:postcode": "70005", "addr:state": "LA", "brand": "USPS", "collection_times": "Mo-Fr 15:00; Sa 11:30", "name": "USPS COLLECTION BOX - BLUE BOX", "note": "ON 12/24 AND 12/31, THIS BOX MAY BE COLLECTED AS EARLY AS 12 NOON.", "ref": "7000500046"}, "type": "Feature"}
{"geometry": {"coordinates": [-90.1304865, 29.988441], "type": "Point"}, "id": "r-pNEAVz2sPgNFx9-cBe5iasbok=", "properties": {"@spider": "usps_collection_boxes", "addr:city": "METAIRIE", "addr:country": "US", "addr:full": "701 METAIRIE RD STE 1B102", "addr:postcode": "70005", "addr:state": "LA", "brand": "USPS", "collection_times": "Mo-Fr 16:30; Sa 12:00", "name": "USPS COLLECTION BOX - PO LOBBY", "note": "ON 12/24 AND 12/31, THIS BOX MAY BE COLLECTED AS EARLY AS 12 NOON.", "ref": "7000500050"}, "type": "Feature"}
{"geometry": {"coordinates": [-90.1798515, 30.012426], "type": "Point"}, "id": "fPemk80AeM7dKRolZjrflcdlX04=", "properties": {"@spider": "usps_collection_boxes", "addr:city": "METAIRIE", "addr:country": "US", "addr:full": "4200 HOUMA BLVD", "addr:postcode": "70006", "addr:state": "LA", "brand": "USPS", "collection_times": "Mo-Fr 13:30; Sa 13:15", "name": "USPS COLLECTION BOX - BLUE BOX", "note": "ON 12/24 AND 12/31, THIS BOX MAY BE COLLECTED AS EARLY AS 12 NOON.", "ref": "7000600003"}, "type": "Feature"}
{"geometry": {"coordinates": [-90.200358, 30.017862], "type": "Point"}, "id": "ibXH2rYoN--4OOMvVuQ-Upvt0n0=", "properties": {"@spider": "usps_collection_boxes", "addr:city": "METAIRIE", "addr:country": "US", "addr:full": "5101 W ESPLANADE AVE", "addr:postcode": "70006", "addr:state": "LA", "brand": "USPS", "collection_times": "Mo-Fr 15:30; Sa 14:30", "name": "USPS COLLECTION BOX - BLUE BOX", "note": "ON 12/24 AND 12/31, THIS BOX MAY BE COLLECTED AS EARLY AS 12 NOON.", "ref": "7000600015"}, "type": "Feature"}
{"geometry": {"coordinates": [-90.180239797, 30.008027126], "type": "Point"}, "id": "xsn3ygrn1eU4Tfha8gzH5tDSDzM=", "properties": {"@spider": "usps_collection_boxes", "addr:city": "METAIRIE", "addr:country": "US", "addr:full": "3601 HOUMA BLVD", "addr:postcode": "70006", "addr:state": "LA", "brand": "USPS", "collection_times": "Mo-Fr 13:15; Sa 13:00", "name": "USPS COLLECTION BOX - BLUE BOX", "note": "ON 12/24 AND 12/31, THIS BOX MAY BE COLLECTED AS EARLY AS 12 NOON.", "ref": "7000600016"}, "type": "Feature"}
{"geometry": {"coordinates": [-90.19890417, 30.016889163], "type": "Point"}, "id": "fT_acWEMM1hV74SVAsbOfJwji_w=", "properties": {"@spider": "usps_collection_boxes", "addr:city": "METAIRIE", "addr:country": "US", "addr:full": "5000 W ESPLANADE AVE", "addr:postcode": "70006", "addr:state": "LA", "brand": "USPS", "collection_times": "Mo-Fr 15:45; Sa 14:45", "name": "USPS COLLECTION BOX - BLUE BOX", "note": "ON 12/24 AND 12/31, THIS BOX MAY BE COLLECTED AS EARLY AS 12 NOON.", "ref": "7000600017"}, "type": "Feature"}
{"geometry": {"coordinates": [-90.183591, 30.005595], "type": "Point"}, "id": "upWJ3sQ_I_U9MtDcd2xFpeM-iwU=", "properties": {"@spider": "usps_collection_boxes", "addr:city": "METAIRIE", "addr:country": "US", "addr:full": "4501 VETERANS MEMORIAL BLVD", "addr:postcode": "70006", "addr:state": "LA", "brand": "USPS", "collection_times": "Mo-Fr 13:45; Sa 13:00", "name": "USPS COLLECTION BOX - BLUE BOX", "note": "ON 12/24 AND 12/31, THIS BOX MAY BE COLLECTED AS EARLY AS 12 NOON.", "ref": "7000600021"}, "type": "Feature"}
{"geometry": {"coordinates": [-90.189207, 30.002688], "type": "Point"}, "id": "s4TZA8Lj27Ar1-TGPCNjtrt5li4=", "properties": {"@spider": "usps_collection_boxes", "addr:city": "METAIRIE", "addr:country": "US", "addr:full": "3005 HARVARD AVE", "addr:postcode": "70006", "addr:state": "LA", "brand": "USPS", "collection_times": "Mo-Fr 16:00; Sa 15:00", "name": "USPS COLLECTION BOX - BLUE BOX", "note": "ON 12/24 AND 12/31, THIS BOX MAY BE COLLECTED AS EARLY AS 12 NOON.", "ref": "7000600022"}, "type": "Feature"}
{"geometry": {"coordinates": [-90.19890417, 30.016889163], "type": "Point"}, "id": "hEOnmKJ4VN0AnCTEM5RNdRdJc1k=", "properties": {"@spider": "usps_collection_boxes", "addr:city": "METAIRIE", "addr:country": "US", "addr:full": "5000 W ESPLANADE AVE", "addr:postcode": "70006", "addr:state": "LA", "brand": "USPS", "collection_times": "Mo-Fr 15:45; Sa 14:45", "name": "USPS COLLECTION BOX - BLUE BOX", "note": "ON 12/24 AND 12/31, THIS BOX MAY BE COLLECTED AS EARLY AS 12 NOON.", "ref": "7000600023"}, "type": "Feature"}
{"geometry": {"coordinates": [-90.183204, 30.002886], "type": "Point"}, "id": "KEhWwkiRkgMwlXzAwHAnrhJk5YM=", "properties": {"@spider": "usps_collection_boxes", "addr:city": "METAIRIE", "addr:country": "US", "addr:full": "4400 VETERANS MEMORIAL BLVD", "addr:postcode": "70006", "addr:state": "LA", "brand": "USPS", "collection_times": "Mo-Fr 13:00; Sa 12:30", "name": "USPS COLLECTION BOX - BLUE BOX", "note": "ON 12/24 AND 12/31, THIS BOX MAY BE COLLECTED AS EARLY AS 12 NOON.", "ref": "7000600024"}, "type": "Feature"}
{"geometry": {"coordinates": [-90.467472588, 29.823981835], "type": "Point"}, "id": "NbOEw1wwKX9voxy1UaJ_Hj2g96E=", "properties": {"@spider": "usps_collection_boxes", "addr:city": "DES ALLEMANDS", "addr:country": "US", "addr:full": "17242 HIGHWAY 90", "addr:postcode": "70030", "addr:state": "LA", "brand": "USPS", "collection_times": "Mo-Fr 16:00; Sa 10:00", "name": "USPS COLLECTION BOX - BLUE BOX", "note": "ON 12/24 AND 12/31, THIS BOX MAY BE COLLECTED AS EARLY AS 12 NOON.", "ref": "7003000002"}, "type": "Feature"}
{"geometry": {"coordinates": [-90.467472588, 29.823981835], "type": "Point"}, "id": "QYe5ji4hCb2UpvM4kkUqljTTM6k=", "properties": {"@spider": "usps_collection_boxes", "addr:city": "DES ALLEMANDS", "addr:country": "US", "addr:full": "17242 HIGHWAY 90", "addr:postcode": "70030", "addr:state": "LA", "brand": "USPS", "collection_times": "Mo-Fr 16:00; Sa 10:00", "name": "USPS COLLECTION BOX - PO LOBBY", "note": "ON 12/24 AND 12/31, THIS BOX MAY BE COLLECTED AS EARLY AS 12 NOON.", "ref": "7003000006"}, "type": "Feature"}
{"geometry": {"coordinates": [-90.467472588, 29.823981835], "type": "Point"}, "id": "52IgwOfz3FgBSBXUZPdo7WhNWZI=", "properties": {"@spider": "usps_collection_boxes", "addr:city": "DES ALLEMANDS", "addr:country": "US", "addr:full": "17242 HIGHWAY 90", "addr:postcode": "70030", "addr:state": "LA", "brand": "USPS", "collection_times": "Mo-Fr 16:00; Sa 10:00", "name": "USPS COLLECTION BOX - PO LOBBY", "note": "ON 12/24 AND 12/31, THIS BOX MAY BE COLLECTED AS EARLY AS 12 NOON.", "ref": "7003000007"}, "type": "Feature"}
{"geometry": {"coordinates": [-90.30134465, 29.947391143], "type": "Point"}, "id": "lMVfZMe467euuBVs9q5fgl9fBl0=", "properties": {"@spider": "usps_collection_boxes", "addr:city": "AMA", "addr:country": "US", "addr:full": "10833 RIVER RD", "addr:postcode": "70031", "addr:state": "LA", "brand": "USPS", "collection_times": "Mo-Fr 15:00; Sa 09:00", "name": "USPS COLLECTION BOX - BLUE BOX", "note": "ON 12/24 AND 12/31, THIS BOX MAY BE COLLECTED AS EARLY AS 12 NOON.", "ref": "7003100001"}, "type": "Feature"}
{"geometry": {"coordinates": [-90.30134465, 29.947391143], "type": "Point"}, "id": "eb00Tec5b86pKTdFbVhTT5Tj5PE=", "properties": {"@spider": "usps_collection_boxes", "addr:city": "AMA", "addr:country": "US", "addr:full": "10833 RIVER RD", "addr:postcode": "70031", "addr:state": "LA", "brand": "USPS", "collection_times": "Mo-Fr 16:00; Sa 09:00", "name": "USPS COLLECTION BOX - PO LOBBY", "note": "ON 12/24 AND 12/31, THIS BOX MAY BE COLLECTED AS EARLY AS 12 NOON.", "ref": "7003100002"}, "type": "Feature"}
{"geometry": {"coordinates": [-90.30134465, 29.947391143], "type": "Point"}, "id": "0GgafMCxWGRQaUo88g6W_ab68UA=", "properties": {"@spider": "usps_collection_boxes", "addr:city": "AMA", "addr:country": "US", "addr:full": "10833 RIVER RD", "addr:postcode": "70031", "addr:state": "LA", "brand": "USPS", "collection_times": "Mo-Fr 16:00", "name": "USPS COLLECTION BOX - PO LOBBY", "note": "ON 12/24 AND 12/31, THIS BOX MAY BE COLLECTED AS EARLY AS 12 NOON.", "ref": "7003100006"}, "type": "Feature"}
{"geometry": {"coordinates": [-90.006491874, 29.954118484], "type": "Point"}, "id": "9YIdqHfoWUfMtPPZ9W97A7is1HI=", "properties": {"@spider": "usps_collection_boxes", "addr:city": "ARABI", "addr:country": "US", "addr:full": "748 MEHLE ST", "addr:postcode": "70032", "addr:state": "LA", "brand": "USPS", "collection_times": "Mo-Fr 15:30", "name": "USPS COLLECTION BOX - BLUE BOX", "note": "ON 12/24 AND 12/31, THIS BOX MAY BE COLLECTED AS EARLY AS 12 NOON.", "ref": "7003200025"}, "type": "Feature"}
{"geometry": {"coordinates": [-90.006491874, 29.954118484], "type": "Point"}, "id": "5RiZb8nLE16v0NR5M72aKmuLnLw=", "properties": {"@spider": "usps_collection_boxes", "addr:city": "ARABI", "addr:country": "US", "addr:full": "748 MEHLE ST", "addr:postcode": "70032", "addr:state": "LA", "brand": "USPS", "collection_times": "Mo-Fr 15:15", "name": "USPS COLLECTION BOX - PO LOBBY", "note": "ON 12/24 AND 12/31, THIS BOX MAY BE COLLECTED AS EARLY AS 12 NOON.", "ref": "7003200026"}, "type": "Feature"}
{"geometry": {"coordinates": [-90.006491874, 29.954118484], "type": "Point"}, "id": "KSs9MsnIEUW_giRbdQ-FcZ8oO-w=", "properties": {"@spider": "usps_collection_boxes", "addr:city": "ARABI", "addr:country": "US", "addr:full": "748 MEHLE ST", "addr:postcode": "70032", "addr:state": "LA", "brand": "USPS", "collection_times": "Mo-Fr 15:30", "name": "USPS COLLECTION BOX - PO LOBBY", "note": "ON 12/24 AND 12/31, THIS BOX MAY BE COLLECTED AS EARLY AS 12 NOON.", "ref": "7003200027"}, "type": "Feature"}
{"geometry": {"coordinates": [-89.992241563, 29.847135309], "type": "Point"}, "id": "yGAs93W9Wnurrc6jUoNu1Ni0K60=", "properties": {"@spider": "usps_collection_boxes", "addr:city": "BELLE CHASSE", "addr:country": "US", "addr:full": "8710 HIGHWAY 23", "addr:postcode": "70037", "addr:state": "LA", "brand": "USPS", "collection_times": "Mo-Fr 17:00; Sa 15:00", "name": "USPS COLLECTION BOX - BLUE BOX", "note": "ON 12/24 AND 12/31, THIS BOX MAY BE COLLECTED AS EARLY AS 12 NOON.", "ref": "7003700002"}, "type": "Feature"}
{"geometry": {"coordinates": [-89.992241563, 29.847135309], "type": "Point"}, "id": "mAq-QbLKIojiNfqr2tFF0nHNkP4=", "properties": {"@spider": "usps_collection_boxes", "addr:city": "BELLE CHASSE", "addr:country": "US", "addr:full": "8710 HIGHWAY 23", "addr:postcode": "70037", "addr:state": "LA", "brand": "USPS", "collection_times": "Mo-Fr 17:00; Sa 15:00", "name": "USPS COLLECTION BOX - BLUE BOX", "note": "ON 12/24 AND 12/31, THIS BOX MAY BE COLLECTED AS EARLY AS 12 NOON.", "ref": "7003700003"}, "type": "Feature"}
{"geometry": {"coordinates": [-89.992241563, 29.847135309], "type": "Point"}, "id": "4fAD16EFhRDOFNkXAuNsF8ctq5o=", "properties": {"@spider": "usps_collection_boxes", "addr:city": "BELLE CHASSE", "addr:country": "US", "addr:full": "8710 HIGHWAY 23", "addr:postcode": "70037", "addr:state": "LA", "brand": "USPS", "collection_times": "Mo-Fr 17:00; Sa 15:00", "name": "USPS COLLECTION BOX - PO LOBBY", "note": "ON 12/24 AND 12/31, THIS BOX MAY BE COLLECTED AS EARLY AS 12 NOON.", "ref": "7003700004"}, "type": "Feature"}
{"geometry": {"coordinates": [-89.992241563, 29.847135309], "type": "Point"}, "id": "VVQtcskzho8zfa_uqv1fgs-V39g=", "properties": {"@spider": "usps_collection_boxes", "addr:city": "BELLE CHASSE", "addr:country": "US", "addr:full": "8710 HIGHWAY 23", "addr:postcode": "70037", "addr:state": "LA", "brand": "USPS", "collection_times": "Mo-Fr 17:00; Sa 15:00", "name": "USPS COLLECTION BOX - PO LOBBY", "note": "ON 12/24 AND 12/31, THIS BOX MAY BE COLLECTED AS EARLY AS 12 NOON.", "ref": "7003700009"}, "type": "Feature"}
{"geometry": {"coordinates": [-89.992241563, 29.847135309], "type": "Point"}, "id": "A3vAVJC2xD3_g4I89dvFGHrZlZA=", "properties": {"@spider": "usps_collection_boxes", "addr:city": "BELLE CHASSE", "addr:country": "US", "addr:full": "8710 HIGHWAY 23", "addr:postcode": "70037", "addr:state": "LA", "brand": "USPS", "collection_times": "Mo-Fr 16:30; Sa 12:00", "name": "USPS COLLECTION BOX - PO LOBBY", "note": "ON 12/24 AND 12/31, THIS BOX MAY BE COLLECTED AS EARLY AS 12 NOON.", "ref": "7003700015"}, "type": "Feature"}
{"geometry": {"coordinates": [-90.018708141, 29.824878769], "type": "Point"}, "id": "fpFOUantNfky1nhGU_vWxE4dJl0=", "properties": {"@spider": "usps_collection_boxes", "addr:city": "BELLE CHASSE", "addr:country": "US", "addr:full": "400 RUSSELL AVE BLDG 46", "addr:postcode": "70037", "addr:state": "LA", "brand": "USPS", "collection_times": "Mo-Sa 13:30", "name": "USPS COLLECTION BOX - BLUE BOX", "note": "ON 12/24 AND 12/31, THIS BOX MAY BE COLLECTED AS EARLY AS 12 NOON.", "ref": "7003700016"}, "type": "Feature"}
{"geometry": {"coordinates": [-90.381408421, 29.903265269], "type": "Point"}, "id": "mw1KD5JP_tjquQpMOSvkHkVbL9g=", "properties": {"@spider": "usps_collection_boxes", "addr:city": "BOUTTE", "addr:country": "US", "addr:full": "13322 HIGHWAY 90", "addr:postcode": "70039", "addr:state": "LA", "brand": "USPS", "collection_times": "Mo-Fr 16:00; Sa 10:00", "name": "USPS COLLECTION BOX - BLUE BOX", "note": "ON 12/24 AND 12/31, THIS BOX MAY BE COLLECTED AS EARLY AS 12 NOON.", "ref": "7003900001"}, "type": "Feature"}
{"geometry": {"coordinates": [-90.381408421, 29.903265269], "type": "Point"}, "id": "lTanJIzkV8icgfQEsApU4fcLsWo=", "properties": {"@spider": "usps_collection_boxes", "addr:city": "BOUTTE", "addr:country": "US", "addr:full": "13322 HIGHWAY 90", "addr:postcode": "70039", "addr:state": "LA", "brand": "USPS", "collection_times": "Mo-Fr 15:45", "name": "USPS COLLECTION BOX - PO LOBBY", "note": "ON 12/24 AND 12/31, THIS BOX MAY BE COLLECTED AS EARLY AS 12 NOON.", "ref": "7003900003"}, "type": "Feature"}
{"geometry": {"coordinates": [-90.381408421, 29.903265269], "type": "Point"}, "id": "zA1apgJXQajTLyMyPVjbwQNTuJU=", "properties": {"@spider": "usps_collection_boxes", "addr:city": "BOUTTE", "addr:country": "US", "addr:full": "13322 HIGHWAY 90", "addr:postcode": "70039", "addr:state": "LA", "brand": "USPS", "collection_times": "Mo-Fr 16:00", "name": "USPS COLLECTION BOX - PO LOBBY", "note": "ON 12/24 AND 12/31, THIS BOX MAY BE COLLECTED AS EARLY AS 12 NOON.", "ref": "7003900007"}, "type": "Feature"}
{"geometry": {"coordinates": [-89.956569535, 29.875332176], "type": "Point"}, "id": "QVyq4MEgjZw56FzycfNKtdcVyp8=", "properties": {"@spider": "usps_collection_boxes", "addr:city": "BRAITHWAITE", "addr:country": "US", "addr:full": "2729 ENGLISH TURN RD", "addr:postcode": "70040", "addr:state": "LA", "brand": "USPS", "collection_times": "Mo-Fr 15:45; Sa 09:45", "name": "USPS COLLECTION BOX - PO LOBBY", "note": "ON 12/24 AND 12/31, THIS BOX MAY BE COLLECTED AS EARLY AS 12 NOON.", "ref": "7004000009"}, "type": "Feature"}
{"geometry": {"coordinates": [-89.956569535, 29.875332176], "type": "Point"}, "id": "Kr-V05fgrDiZGKpOF1P5ll0RT_U=", "properties": {"@spider": "usps_collection_boxes", "addr:city": "BRAITHWAITE", "addr:country": "US", "addr:full": "2729 ENGLISH TURN RD", "addr:postcode": "70040", "addr:state": "LA", "brand": "USPS", "collection_times": "Mo-Fr 15:45; Sa 09:45", "name": "USPS COLLECTION BOX - BLUE BOX", "note": "ON 12/24 AND 12/31, THIS BOX MAY BE COLLECTED AS EARLY AS 12 NOON.", "ref": "7004000010"}, "type": "Feature"}
{"geometry": {"coordinates": [-89.956569535, 29.875332176], "type": "Point"}, "id": "TPNVkQSD-jUokapiX53cVXjx9qY=", "properties": {"@spider": "usps_collection_boxes", "addr:city": "BRAITHWAITE", "addr:country": "US", "addr:full": "2729 ENGLISH TURN RD", "addr:postcode": "70040", "addr:state": "LA", "brand": "USPS", "collection_times": "Mo-Fr 16:00; Sa 10:00", "name": "USPS COLLECTION BOX - PO LOBBY", "note": "ON 12/24 AND 12/31, THIS BOX MAY BE COLLECTED AS EARLY AS 12 NOON.", "ref": "7004000011"}, "type": "Feature"}
{"geometry": {"coordinates": [-89.466486417, 29.342602006], "type": "Point"}, "id": "8-fEItm8Tram0hOcERp1tKotZfI=", "properties": {"@spider": "usps_collection_boxes", "addr:city": "BURAS", "addr:country": "US", "addr:full": "37823 HIGHWAY 23", "addr:postcode": "70041", "addr:state": "LA", "brand": "USPS", "collection_times": "Mo-Fr 16:00; Sa 11:45", "name": "USPS COLLECTION BOX - BLUE BOX", "note": "ON 12/24 AND 12/31, THIS BOX MAY BE COLLECTED AS EARLY AS 12 NOON.", "ref": "7004100007"}, "type": "Feature"}
{"geometry": {"coordinates": [-89.466486417, 29.342602006], "type": "Point"}, "id": "kr4j3YMH23JR13AbWZiMVqX7ybc=", "properties": {"@spider": "usps_collection_boxes", "addr:city": "BURAS", "addr:country": "US", "addr:full": "37823 HIGHWAY 23", "addr:postcode": "70041", "addr:state": "LA", "brand": "USPS", "collection_times": "Mo-Fr 15:45; Sa 11:30", "name": "USPS COLLECTION BOX - PO LOBBY", "note": "ON 12/24 AND 12/31, THIS BOX MAY BE COLLECTED AS EARLY AS 12 NOON.", "ref": "7004100008"}, "type": "Feature"}
{"geometry": {"coordinates": [-89.466486417, 29.342602006], "type": "Point"}, "id": "TaJal4bleoWF43GYbGPyH_LC3VI=", "properties": {"@spider": "usps_collection_boxes", "addr:city": "BURAS", "addr:country": "US", "addr:full": "37823 HIGHWAY 23", "addr:postcode": "70041", "addr:state": "LA", "brand": "USPS", "collection_times": "Mo-Fr 16:30; Sa 11:45", "name": "USPS COLLECTION BOX - PO LOBBY", "note": "ON 12/24 AND 12/31, THIS BOX MAY BE COLLECTED AS EARLY AS 12 NOON.", "ref": "7004100009"}, "type": "Feature"}
{"geometry": {"coordinates": [-89.960112584, 29.950016683], "type": "Point"}, "id": "uf7gp7A914OdWHudWRNF24ZV4yg=", "properties": {"@spider": "usps_collection_boxes", "addr:city": "CHALMETTE", "addr:country": "US", "addr:full": "3340 PARIS RD", "addr:postcode": "70043", "addr:state": "LA", "brand": "USPS", "collection_times": "Mo-Fr 17:00; Sa 13:15", "name": "USPS COLLECTION BOX - BLUE BOX", "note": "ON 12/24 AND 12/31, THIS BOX MAY BE COLLECTED AS EARLY AS 12 NOON.", "ref": "7004300025"}, "type": "Feature"}
{"geometry": {"coordinates": [-89.960112584, 29.950016683], "type": "Point"}, "id": "jSspS9O9P1MHP6VASSQTv-byNeg=", "properties": {"@spider": "usps_collection_boxes", "addr:city": "CHALMETTE", "addr:country": "US", "addr:full": "3340 PARIS RD", "addr:postcode": "70043", "addr:state": "LA", "brand": "USPS", "collection_times": "Mo-Fr 17:00; Sa 13:15", "name": "USPS COLLECTION BOX - BLUE BOX", "note": "ON 12/24 AND 12/31, THIS BOX MAY BE COLLECTED AS EARLY AS 12 NOON.", "ref": "7004300026"}, "type": "Feature"}
{"geometry": {"coordinates": [-89.960112584, 29.950016683], "type": "Point"}, "id": "mhxQ1W7dcM36Nb_L-b8_PlRHUdw=", "properties": {"@spider": "usps_collection_boxes", "addr:city": "CHALMETTE", "addr:country": "US", "addr:full": "3340 PARIS RD", "addr:postcode": "70043", "addr:state": "LA", "brand": "USPS", "collection_times": "Mo-Fr 17:00; Sa 13:15", "name": "USPS COLLECTION BOX - BLUE BOX", "note": "ON 12/24 AND 12/31, THIS BOX MAY BE COLLECTED AS EARLY AS 12 NOON.", "ref": "7004300040"}, "type": "Feature"}
{"geometry": {"coordinates": [-89.960112584, 29.950016683], "type": "Point"}, "id": "0fmivGrdSmJz1q3W20sUTPchdbM=", "properties": {"@spider": "usps_collection_boxes", "addr:city": "CHALMETTE", "addr:country": "US", "addr:full": "3340 PARIS RD", "addr:postcode": "70043", "addr:state": "LA", "brand": "USPS", "collection_times": "Mo-Fr 15:15; Sa 13:00", "name": "USPS COLLECTION BOX - PO LOBBY", "note": "ON 12/24 AND 12/31, THIS BOX MAY BE COLLECTED AS EARLY AS 12 NOON.", "ref": "7004300042"}, "type": "Feature"}
{"geometry": {"coordinates": [-89.960112584, 29.950016683], "type": "Point"}, "id": "WQCIbEuYEe8MPhwCv6h8pHeCDME=", "properties": {"@spider": "usps_collection_boxes", "addr:city": "CHALMETTE", "addr:country": "US", "addr:full": "3340 PARIS RD", "addr:postcode": "70043", "addr:state": "LA", "brand": "USPS", "collection_times": "Mo-Fr 15:15; Sa 13:00", "name": "USPS COLLECTION BOX - PO LOBBY", "note": "ON 12/24 AND 12/31, THIS BOX MAY BE COLLECTED AS EARLY AS 12 NOON.", "ref": "7004300043"}, "type": "Feature"}
{"geometry": {"coordinates": [-89.960112584, 29.950016683], "type": "Point"}, "id": "dbCLB9uu4r8z1Ms9sl4D1tvztpc=", "properties": {"@spider": "usps_collection_boxes", "addr:city": "CHALMETTE", "addr:country": "US", "addr:full": "3340 PARIS RD", "addr:postcode": "70043", "addr:state": "LA", "brand": "USPS", "collection_times": "Mo-Fr 15:15; Sa 13:00", "name": "USPS COLLECTION BOX - PO LOBBY", "note": "ON 12/24 AND 12/31, THIS BOX MAY BE COLLECTED AS EARLY AS 12 NOON.", "ref": "7004300044"}, "type": "Feature"}
{"geometry": {"coordinates": [-89.960112584, 29.950016683], "type": "Point"}, "id": "ATwJ4YG3najUcKINk88xQ97dsRE=", "properties": {"@spider": "usps_collection_boxes", "addr:city": "CHALMETTE", "addr:country": "US", "addr:full": "3340 PARIS RD", "addr:postcode": "70043", "addr:state": "LA", "brand": "USPS", "collection_times": "Mo-Fr 16:00; Sa 14:00", "name": "USPS COLLECTION BOX - PO LOBBY", "note": "ON 12/24 AND 12/31, THIS BOX MAY BE COLLECTED AS EARLY AS 12 NOON.", "ref": "7004300046"}, "type": "Feature"}
{"geometry": {"coordinates": [-90.375671449, 29.968604102], "type": "Point"}, "id": "ef9lMZb_Z2zI-cYcq6mek_9W_DE=", "properties": {"@spider": "usps_collection_boxes", "addr:city": "DESTREHAN", "addr:country": "US", "addr:full": "13 PLANTATION RD", "addr:postcode": "70047", "addr:state": "LA", "brand": "USPS", "collection_times": "Mo-Fr 16:00; Sa 12:00", "name": "USPS COLLECTION BOX - BLUE BOX", "note": "ON 12/24 AND 12/31, THIS BOX MAY BE COLLECTED AS EARLY AS 12 NOON.", "ref": "7004700001"}, "type": "Feature"}
{"geometry": {"coordinates": [-90.375671449, 29.968604102], "type": "Point"}, "id": "ttF5SsMYQFN1S30Y3I3oryv7P4s=", "properties": {"@spider": "usps_collection_boxes", "addr:city": "DESTREHAN", "addr:country": "US", "addr:full": "13 PLANTATION RD", "addr:postcode": "70047", "addr:state": "LA", "brand": "USPS", "collection_times": "Mo-Fr 16:00; Sa 12:00", "name": "USPS COLLECTION BOX - BLUE BOX", "note": "ON 12/24 AND 12/31, THIS BOX MAY BE COLLECTED AS EARLY AS 12 NOON.", "ref": "7004700002"}, "type": "Feature"}
{"geometry": {"coordinates": [-90.375671449, 29.968604102], "type": "Point"}, "id": "2lQc8pS_mAZSSFFR38xZf2IR6o0=", "properties": {"@spider": "usps_collection_boxes", "addr:city": "DESTREHAN", "addr:country": "US", "addr:full": "13 PLANTATION RD", "addr:postcode": "70047", "addr:state": "LA", "brand": "USPS", "collection_times": "Mo-Fr 16:00; Sa 12:00", "name": "USPS COLLECTION BOX - PO LOBBY", "note": "ON 12/24 AND 12/31, THIS BOX MAY BE COLLECTED AS EARLY AS 12 NOON.", "ref": "7004700004"}, "type": "Feature"}
{"geometry": {"coordinates": [-90.375671449, 29.968604102], "type": "Point"}, "id": "yIc-0aMj-N4vvDOV7aS--n6ocQA=", "properties": {"@spider": "usps_collection_boxes", "addr:city": "DESTREHAN", "addr:country": "US", "addr:full": "13 PLANTATION RD", "addr:postcode": "70047", "addr:state": "LA", "brand": "USPS", "collection_times": "Mo-Fr 16:00; Sa 12:00", "name": "USPS COLLECTION BOX - PO LOBBY", "note": "ON 12/24 AND 12/31, THIS BOX MAY BE COLLECTED AS EARLY AS 12 NOON.", "ref": "7004700006"}, "type": "Feature"}
{"geometry": {"coordinates": [-90.375671449, 29.968604102], "type": "Point"}, "id": "HCLvDWGvSfuGD3dHrQ9Oc8zMMtk=", "properties": {"@spider": "usps_collection_boxes", "addr:city": "DESTREHAN", "addr:country": "US", "addr:full": "13 PLANTATION RD", "addr:postcode": "70047", "addr:state": "LA", "brand": "USPS", "collection_times": "Mo-Fr 16:00; Sa 12:00", "name": "USPS COLLECTION BOX - PO LOBBY", "note": "ON 12/24 AND 12/31, THIS BOX MAY BE COLLECTED AS EARLY AS 12 NOON.", "ref": "7004700009"}, "type": "Feature"}
{"geometry": {"coordinates": [-90.5615044, 30.046390682], "type": "Point"}, "id": "MMlXBiJuaZuQuwGpWrDNIAyQdkc=", "properties": {"@spider": "usps_collection_boxes", "addr:city": "EDGARD", "addr:country": "US", "addr:full": "2447 HIGHWAY 18", "addr:postcode": "70049", "addr:state": "LA", "brand": "USPS", "collection_times": "Mo-Fr 15:00; Sa 10:30", "name": "USPS COLLECTION BOX - BLUE BOX", "note": "ON 12/24 AND 12/31, THIS BOX MAY BE COLLECTED AS EARLY AS 12 NOON.", "ref": "7004900001"}, "type": "Feature"}
{"geometry": {"coordinates": [-90.5615044, 30.046390682], "type": "Point"}, "id": "kF2GMHMiwl6PEe-JooUb93ArK_w=", "properties": {"@spider": "usps_collection_boxes", "addr:city": "EDGARD", "addr:country": "US", "addr:full": "2447 HIGHWAY 18", "addr:postcode": "70049", "addr:state": "LA", "brand": "USPS", "collection_times": "Mo-Fr 15:00; Sa 10:30", "name": "USPS COLLECTION BOX - PO LOBBY", "note": "ON 12/24 AND 12/31, THIS BOX MAY BE COLLECTED AS EARLY AS 12 NOON.", "ref": "7004900003"}, "type": "Feature"}
{"geometry": {"coordinates": [-90.5615044, 30.046390682], "type": "Point"}, "id": "_zIb6KRSxFNJ2f4226rmxTPphBQ=", "properties": {"@spider": "usps_collection_boxes", "addr:city": "EDGARD", "addr:country": "US", "addr:full": "2447 HIGHWAY 18", "addr:postcode": "70049", "addr:state": "LA", "brand": "USPS", "collection_times": "Mo-Fr 15:00; Sa 09:30", "name": "USPS COLLECTION BOX - PO LOBBY", "note": "ON 12/24 AND 12/31, THIS BOX MAY BE COLLECTED AS EARLY AS 12 NOON.", "ref": "7004900007"}, "type": "Feature"}
{"geometry": {"coordinates": [-90.617805358, 30.056886508], "type": "Point"}, "id": "pClF31a3ENrpHOHSuMp8WJ0BpQI=", "properties": {"@spider": "usps_collection_boxes", "addr:city": "GARYVILLE", "addr:country": "US", "addr:full": "495 HISTORIC MAIN ST", "addr:postcode": "70051", "addr:state": "LA", "brand": "USPS", "collection_times": "Mo-Fr 16:00; Sa 12:00", "name": "USPS COLLECTION BOX - PO LOBBY", "note": "ON 12/24 AND 12/31, THIS BOX MAY BE COLLECTED AS EARLY AS 12 NOON.", "ref": "7005100008"}, "type": "Feature"}
{"geometry": {"coordinates": [-90.617805358, 30.056886508], "type": "Point"}, "id": "ckshwddS5agRgoEA0i7vr5496KA=", "properties": {"@spider": "usps_collection_boxes", "addr:city": "GARYVILLE", "addr:country": "US", "addr:full": "495 HISTORIC MAIN ST", "addr:postcode": "70051", "addr:state": "LA", "brand": "USPS", "collection_times": "Mo-Fr 16:00; Sa 12:00", "name": "USPS COLLECTION BOX - PO LOBBY", "note": "ON 12/24 AND 12/31, THIS BOX MAY BE COLLECTED AS EARLY AS 12 NOON.", "ref": "7005100009"}, "type": "Feature"}
{"geometry": {"coordinates": [-90.687405221, 30.048660816], "type": "Point"}, "id": "KZ9reUYHXlccmRXio1Qr5OycpGA=", "properties": {"@spider": "usps_collection_boxes", "addr:city": "GRAMERCY", "addr:country": "US", "addr:full": "417 E MAIN ST", "addr:postcode": "70052", "addr:state": "LA", "brand": "USPS", "collection_times": "Mo-Fr 15:30; Sa 09:30", "name": "USPS COLLECTION BOX - BLUE BOX", "note": "ON 12/24 AND 12/31, THIS BOX MAY BE COLLECTED AS EARLY AS 12 NOON.", "ref": "7005200001"}, "type": "Feature"}
{"geometry": {"coordinates": [-90.687405221, 30.048660816], "type": "Point"}, "id": "WCvs0IraJOHSJEXWxNh93dYuOWQ=", "properties": {"@spider": "usps_collection_boxes", "addr:city": "GRAMERCY", "addr:country": "US", "addr:full": "417 E MAIN ST", "addr:postcode": "70052", "addr:state": "LA", "brand": "USPS", "collection_times": "Mo-Fr 15:30; Sa 09:30", "name": "USPS COLLECTION BOX - PO LOBBY", "note": "ON 12/24 AND 12/31, THIS BOX MAY BE COLLECTED AS EARLY AS 12 NOON.", "ref": "7005200005"}, "type": "Feature"}
{"geometry": {"coordinates": [-90.687405221, 30.048660816], "type": "Point"}, "id": "scJZE06QdlWSVJTpOy6gzNeq9Vk=", "properties": {"@spider": "usps_collection_boxes", "addr:city": "GRAMERCY", "addr:country": "US", "addr:full": "417 E MAIN ST", "addr:postcode": "70052", "addr:state": "LA", "brand": "USPS", "collection_times": "Mo-Fr 16:00", "name": "USPS COLLECTION BOX - PO LOBBY", "note": "ON 12/24 AND 12/31, THIS BOX MAY BE COLLECTED AS EARLY AS 12 NOON.", "ref": "7005200006"}, "type": "Feature"}
{"geometry": {"coordinates": [-90.045770747, 29.900457619], "type": "Point"}, "id": "qs-lU95EiIHP_PI-pjbyvDiVpBE=", "properties": {"@spider": "usps_collection_boxes", "addr:city": "GRETNA", "addr:country": "US", "addr:full": "406 GRETNA BLVD", "addr:postcode": "70053", "addr:state": "LA", "brand": "USPS", "collection_times": "Mo-Fr 17:00; Sa 15:00", "name": "USPS COLLECTION BOX - PO LOBBY", "note": "ON 12/24 AND 12/31, THIS BOX MAY BE COLLECTED AS EARLY AS 12 NOON.", "ref": "7005300001"}, "type": "Feature"}
{"geometry": {"coordinates": [-90.045770747, 29.900457619], "type": "Point"}, "id": "g-dHq6QTmpv4TTRrvdFR_UJvaoU=", "properties": {"@spider": "usps_collection_boxes", "addr:city": "GRETNA", "addr:country": "US", "addr:full": "406 GRETNA BLVD", "addr:postcode": "70053", "addr:state": "LA", "brand": "USPS", "collection_times": "Mo-Fr 17:00; Sa 15:00", "name": "USPS COLLECTION BOX - PO LOBBY", "note": "ON 12/24 AND 12/31, THIS BOX MAY BE COLLECTED AS EARLY AS 12 NOON.", "ref": "7005300002"}, "type": "Feature"}
{"geometry": {"coordinates": [-90.045770747, 29.900457619], "type": "Point"}, "id": "iX3mPtjWA1K6b-PaQJqyhe-wwV4=", "properties": {"@spider": "usps_collection_boxes", "addr:city": "GRETNA", "addr:country": "US", "addr:full": "406 GRETNA BLVD", "addr:postcode": "70053", "addr:state": "LA", "brand": "USPS", "collection_times": "Mo-Fr 17:00; Sa 15:00", "name": "USPS COLLECTION BOX - BLUE BOX", "note": "ON 12/24 AND 12/31, THIS BOX MAY BE COLLECTED AS EARLY AS 12 NOON.", "ref": "7005300004"}, "type": "Feature"}
{"geometry": {"coordinates": [-90.045770747, 29.900457619], "type": "Point"}, "id": "1jVxBju7tVHmpSrkNzgLJYipXs4=", "properties": {"@spider": "usps_collection_boxes", "addr:city": "GRETNA", "addr:country": "US", "addr:full": "406 GRETNA BLVD", "addr:postcode": "70053", "addr:state": "LA", "brand": "USPS", "collection_times": "Mo-Fr 17:00; Sa 15:00", "name": "USPS COLLECTION BOX - BLUE BOX", "note": "ON 12/24 AND 12/31, THIS BOX MAY BE COLLECTED AS EARLY AS 12 NOON.", "ref": "7005300006"}, "type": "Feature"}
{"geometry": {"coordinates": [-90.047805309, 29.915368025], "type": "Point"}, "id": "C1PZHGE4HwM1f13aYZKQG0BX4gM=", "properties": {"@spider": "usps_collection_boxes", "addr:city": "GRETNA", "addr:country": "US", "addr:full": "91 WESTBANK EXPY STE 480", "addr:postcode": "70053", "addr:state": "LA", "brand": "USPS", "collection_times": "Mo-Sa 11:15", "name": "USPS COLLECTION BOX - BLUE BOX", "ref": "7005300013"}, "type": "Feature"}
{"geometry": {"coordinates": [-90.064116942, 29.915970704], "type": "Point"}, "id": "ZCaUGhGGPIy53plDJgVCORhRooU=", "properties": {"@spider": "usps_collection_boxes", "addr:city": "GRETNA", "addr:country": "US", "addr:full": "719 4TH ST", "addr:postcode": "70053", "addr:state": "LA", "brand": "USPS", "collection_times": "Mo-Fr 13:30; Sa 12:15", "name": "USPS COLLECTION BOX - BLUE BOX", "note": "ON 12/24 AND 12/31, THIS BOX MAY BE COLLECTED AS EARLY AS 12 NOON.", "ref": "7005300019"}, "type": "Feature"}
{"geometry": {"coordinates": [-90.064116942, 29.915970704], "type": "Point"}, "id": "RerRUrEEbI0lO1XebANJHHaAPfU=", "properties": {"@spider": "usps_collection_boxes", "addr:city": "GRETNA", "addr:country": "US", "addr:full": "719 4TH ST", "addr:postcode": "70053", "addr:state": "LA", "brand": "USPS", "collection_times": "Mo-Fr 13:30; Sa 12:15", "name": "USPS COLLECTION BOX - BLUE BOX", "note": "ON 12/24 AND 12/31, THIS BOX MAY BE COLLECTED AS EARLY AS 12 NOON.", "ref": "7005300020"}, "type": "Feature"}
{"geometry": {"coordinates": [-90.064116942, 29.915970704], "type": "Point"}, "id": "IR1ZS6soG-43F9EFCe2Lb3Esh_w=", "properties": {"@spider": "usps_collection_boxes", "addr:city": "GRETNA", "addr:country": "US", "addr:full": "719 4TH ST", "addr:postcode": "70053", "addr:state": "LA", "brand": "USPS", "collection_times": "Mo-Fr 13:30; Sa 12:15", "name": "USPS COLLECTION BOX - BLUE BOX", "note": "ON 12/24 AND 12/31, THIS BOX MAY BE COLLECTED AS EARLY AS 12 NOON.", "ref": "7005300022"}, "type": "Feature"}
{"geometry": {"coordinates": [-90.0649439521, 29.9165959689], "type": "Point"}, "id": "JWJ5BoN9LX2sF__ahbDTqFeH4N0=", "properties": {"@spider": "usps_collection_boxes", "addr:city": "GRETNA", "addr:country": "US", "addr:full": "739 3RD ST", "addr:postcode": "70053", "addr:state": "LA", "brand": "USPS", "collection_times": "Mo-Fr 14:15", "name": "USPS COLLECTION BOX - BLUE BOX", "note": "ON 12/24 AND 12/31, THIS BOX MAY BE COLLECTED AS EARLY AS 12 NOON.", "ref": "7005300025"}, "type": "Feature"}
{"geometry": {"coordinates": [-90.0676035, 29.915505], "type": "Point"}, "id": "AEbk47StqztF5hYi4dXERoHd23I=", "properties": {"@spider": "usps_collection_boxes", "addr:city": "GRETNA", "addr:country": "US", "addr:full": "200 DERBIGNY ST", "addr:postcode": "70053", "addr:state": "LA", "brand": "USPS", "collection_times": "Mo-Fr 14:00", "name": "USPS COLLECTION BOX - BLUE BOX", "note": "ON 12/24 AND 12/31, THIS BOX MAY BE COLLECTED AS EARLY AS 12 NOON.", "ref": "7005300027"}, "type": "Feature"}
{"geometry": {"coordinates": [-90.0676035, 29.915505], "type": "Point"}, "id": "oQ5NcOOCH9LN-qt76L-BOJkmHpI=", "properties": {"@spider": "usps_collection_boxes", "addr:city": "GRETNA", "addr:country": "US", "addr:full": "200 DERBIGNY ST", "addr:postcode": "70053", "addr:state": "LA", "brand": "USPS", "collection_times": "Mo-Fr 14:00", "name": "USPS COLLECTION BOX - BLUE BOX", "note": "ON 12/24 AND 12/31, THIS BOX MAY BE COLLECTED AS EARLY AS 12 NOON.", "ref": "7005300035"}, "type": "Feature"}
{"geometry": {"coordinates": [-90.0650912955, 29.9165372072], "type": "Point"}, "id": "TT4YhAMQuL_sP_ueP92pgxpeIjc=", "properties": {"@spider": "usps_collection_boxes", "addr:city": "GRETNA", "addr:country": "US", "addr:full": "739B 3RD ST", "addr:postcode": "70053", "addr:state": "LA", "brand": "USPS", "collection_times": "Mo-Fr 15:00", "name": "USPS COLLECTION BOX - PO LOBBY", "note": "ON 12/24 AND 12/31, THIS BOX MAY BE COLLECTED AS EARLY AS 12 NOON.", "ref": "7005300040"}, "type": "Feature"}
{"geometry": {"coordinates": [-90.0649439521, 29.9165959689], "type": "Point"}, "id": "z5cXdYS_rRfnb2qPRvuhD-sA4jI=", "properties": {"@spider": "usps_collection_boxes", "addr:city": "GRETNA", "addr:country": "US", "addr:full": "739 3RD ST", "addr:postcode": "70053", "addr:state": "LA", "brand": "USPS", "collection_times": "Mo-Fr 16:30", "name": "USPS COLLECTION BOX - PO LOBBY", "note": "ON 12/24 AND 12/31, THIS BOX MAY BE COLLECTED AS EARLY AS 12 NOON.", "ref": "7005300042"}, "type": "Feature"}
{"geometry": {"coordinates": [-90.045770747, 29.900457619], "type": "Point"}, "id": "_gIdBSXnzy0HkSunQCryR7sLBzI=", "properties": {"@spider": "usps_collection_boxes", "addr:city": "GRETNA", "addr:country": "US", "addr:full": "406 GRETNA BLVD", "addr:postcode": "70053", "addr:state": "LA", "brand": "USPS", "collection_times": "Mo-Fr 16:30; Sa 12:00", "name": "USPS COLLECTION BOX - PO LOBBY", "note": "ON 12/24 AND 12/31, THIS BOX MAY BE COLLECTED AS EARLY AS 12 NOON.", "ref": "7005300043"}, "type": "Feature"}
{"geometry": {"coordinates": [-90.0417285, 29.919348], "type": "Point"}, "id": "sAQTzYl-2WQuwkwOZvyPpT7NyhI=", "properties": {"@spider": "usps_collection_boxes", "addr:city": "TERRYTOWN", "addr:country": "US", "addr:full": "401 WHITNEY AVE", "addr:postcode": "70056", "addr:state": "LA", "brand": "USPS", "collection_times": "Mo-Sa 14:00", "name": "USPS COLLECTION BOX - BLUE BOX", "note": "ON 12/24 AND 12/31, THIS BOX MAY BE COLLECTED AS EARLY AS 12 NOON.", "ref": "7005600003"}, "type": "Feature"}
{"geometry": {"coordinates": [-90.0362835, 29.912067], "type": "Point"}, "id": "9oLcAbBTDVmmgkokc8nKEGvfwS4=", "properties": {"@spider": "usps_collection_boxes", "addr:city": "TERRYTOWN", "addr:country": "US", "addr:full": "1799 STUMPF BLVD", "addr:postcode": "70056", "addr:state": "LA", "brand": "USPS", "collection_times": "Mo-Sa 14:00", "name": "USPS COLLECTION BOX - BLUE BOX", "note": "ON 12/24 AND 12/31, THIS BOX MAY BE COLLECTED AS EARLY AS 12 NOON.", "ref": "7005600005"}, "type": "Feature"}
{"geometry": {"coordinates": [-90.033336, 29.875869], "type": "Point"}, "id": "QHkq9aHB0ZiuZXaYSBRba30FGYU=", "properties": {"@spider": "usps_collection_boxes", "addr:city": "TERRYTOWN", "addr:country": "US", "addr:full": "500 WALL BLVD", "addr:postcode": "70056", "addr:state": "LA", "brand": "USPS", "collection_times": "Mo-Sa 14:30", "name": "USPS COLLECTION BOX - BLUE BOX", "note": "ON 12/24 AND 12/31, THIS BOX MAY BE COLLECTED AS EARLY AS 12 NOON.", "ref": "7005600013"}, "type": "Feature"}
{"geometry": {"coordinates": [-90.036974778, 29.891201836], "type": "Point"}, "id": "N5YrmjGGIPuIs5qLJTR12R6rXkk=", "properties": {"@spider": "usps_collection_boxes", "addr:city": "TERRYTOWN", "addr:country": "US", "addr:full": "121 BELLEMEADE BLVD", "addr:postcode": "70056", "addr:state": "LA", "brand": "USPS", "collection_times": "Mo-Sa 14:00", "name": "USPS COLLECTION BOX - BLUE BOX", "note": "ON 12/24 AND 12/31, THIS BOX MAY BE COLLECTED AS EARLY AS 12 NOON.", "ref": "7005600016"}, "type": "Feature"}
{"geometry": {"coordinates": [-90.0269325, 29.884068], "type": "Point"}, "id": "TtBuh1oHDUBjUWj_5Zvdg406BDk=", "properties": {"@spider": "usps_collection_boxes", "addr:city": "TERRYTOWN", "addr:country": "US", "addr:full": "120 OCHSNER BLVD", "addr:postcode": "70056", "addr:state": "LA", "brand": "USPS", "collection_times": "Mo-Fr 11:00", "name": "USPS COLLECTION BOX - BLUE BOX", "ref": "7005600017"}, "type": "Feature"}
{"geometry": {"coordinates": [-90.028092721, 29.879958939], "type": "Point"}, "id": "u665C0yPxW3tfr3AO8BasY0Szk8=", "properties": {"@spider": "usps_collection_boxes", "addr:city": "TERRYTOWN", "addr:country": "US", "addr:full": "201 BANNERWOOD DR", "addr:postcode": "70056", "addr:state": "LA", "brand": "USPS", "collection_times": "Mo-Sa 14:00", "name": "USPS COLLECTION BOX - BLUE BOX", "note": "ON 12/24 AND 12/31, THIS BOX MAY BE COLLECTED AS EARLY AS 12 NOON.", "ref": "7005600021"}, "type": "Feature"}
{"geometry": {"coordinates": [-90.02979, 29.899512], "type": "Point"}, "id": "hDiCWwTR5JbIO4AudLlNQRrfNzE=", "properties": {"@spider": "usps_collection_boxes", "addr:city": "TERRYTOWN", "addr:country": "US", "addr:full": "721 TERRY PKWY", "addr:postcode": "70056", "addr:state": "LA", "brand": "USPS", "collection_times": "Mo-Sa 14:00", "name": "USPS COLLECTION BOX - BLUE BOX", "note": "ON 12/24 AND 12/31, THIS BOX MAY BE COLLECTED AS EARLY AS 12 NOON.", "ref": "7005600022"}, "type": "Feature"}
{"geometry": {"coordinates": [-90.033318, 29.861235], "type": "Point"}, "id": "CFLfFfCH2jH0Hhm7_4ZD1R0_Dmw=", "properties": {"@spider": "usps_collection_boxes", "addr:city": "TERRYTOWN", "addr:country": "US", "addr:full": "1333 LAKE FRANCES DR", "addr:postcode": "70056", "addr:state": "LA", "brand": "USPS", "collection_times": "Mo-Sa 14:00", "name": "USPS COLLECTION BOX - BLUE BOX", "note": "ON 12/24 AND 12/31, THIS BOX MAY BE COLLECTED AS EARLY AS 12 NOON.", "ref": "7005600023"}, "type": "Feature"}
{"geometry": {"coordinates": [-90.405359945, 29.966489937], "type": "Point"}, "id": "9CEM2HYVzYIq7hvnBlh06dtqAc4=", "properties": {"@spider": "usps_collection_boxes", "addr:city": "HAHNVILLE", "addr:country": "US", "addr:full": "15141 RIVER RD", "addr:postcode": "70057", "addr:state": "LA", "brand": "USPS", "collection_times": "Mo-Fr 15:00; Sa 09:00", "name": "USPS COLLECTION BOX - BLUE BOX", "note": "ON 12/24 AND 12/31, THIS BOX MAY BE COLLECTED AS EARLY AS 12 NOON.", "ref": "7005700001"}, "type": "Feature"}
{"geometry": {"coordinates": [-90.405359945, 29.966489937], "type": "Point"}, "id": "LvKj4htViGl3xFdcAi5QqaVTWPA=", "properties": {"@spider": "usps_collection_boxes", "addr:city": "HAHNVILLE", "addr:country": "US", "addr:full": "15141 RIVER RD", "addr:postcode": "70057", "addr:state": "LA", "brand": "USPS", "collection_times": "Mo-Fr 15:00; Sa 09:00", "name": "USPS COLLECTION BOX - PO LOBBY", "note": "ON 12/24 AND 12/31, THIS BOX MAY BE COLLECTED AS EARLY AS 12 NOON.", "ref": "7005700004"}, "type": "Feature"}
{"geometry": {"coordinates": [-90.405359945, 29.966489937], "type": "Point"}, "id": "CgdONEi-dseztzlvGq-wOJMkZNc=", "properties": {"@spider": "usps_collection_boxes", "addr:city": "HAHNVILLE", "addr:country": "US", "addr:full": "15141 RIVER RD", "addr:postcode": "70057", "addr:state": "LA", "brand": "USPS", "collection_times": "Mo-Fr 15:30", "name": "USPS COLLECTION BOX - PO LOBBY", "note": "ON 12/24 AND 12/31, THIS BOX MAY BE COLLECTED AS EARLY AS 12 NOON.", "ref": "7005700009"}, "type": "Feature"}
{"geometry": {"coordinates": [-90.056822944, 29.892296971], "type": "Point"}, "id": "wpy1cvEI6pslgSBrLkyvszy3tfo=", "properties": {"@spider": "usps_collection_boxes", "addr:city": "HARVEY", "addr:country": "US", "addr:full": "1546 GRETNA BLVD", "addr:postcode": "70058", "addr:state": "LA", "brand": "USPS", "collection_times": "Mo-Fr 15:00; Sa 14:00", "name": "USPS COLLECTION BOX - BLUE BOX", "note": "ON 12/24 AND 12/31, THIS BOX MAY BE COLLECTED AS EARLY AS 12 NOON.", "ref": "7005800006"}, "type": "Feature"}
{"geometry": {"coordinates": [-90.076853358, 29.903356877], "type": "Point"}, "id": "EVQcoMXnQQ194YlI8IyXTGc8V4E=", "properties": {"@spider": "usps_collection_boxes", "addr:city": "HARVEY", "addr:country": "US", "addr:full": "2502 8TH ST", "addr:postcode": "70058", "addr:state": "LA", "brand": "USPS", "collection_times": "Mo-Fr 15:00; Sa 14:00", "name": "USPS COLLECTION BOX - BLUE BOX", "note": "ON 12/24 AND 12/31, THIS BOX MAY BE COLLECTED AS EARLY AS 12 NOON.", "ref": "7005800014"}, "type": "Feature"}
{"geometry": {"coordinates": [-90.0707985, 29.899251], "type": "Point"}, "id": "LYzjPzBHZC4OYNk255iMKNuqJKM=", "properties": {"@spider": "usps_collection_boxes", "addr:city": "HARVEY", "addr:country": "US", "addr:full": "2150 WESTBANK EXPY", "addr:postcode": "70058", "addr:state": "LA", "brand": "USPS", "collection_times": "Mo-Fr 15:30; Sa 14:30", "name": "USPS COLLECTION BOX - BLUE BOX", "note": "ON 12/24 AND 12/31, THIS BOX MAY BE COLLECTED AS EARLY AS 12 NOON.", "ref": "7005800017"}, "type": "Feature"}
{"geometry": {"coordinates": [-90.0472095, 29.870271], "type": "Point"}, "id": "dOk2T7zfm47xXTJzLpNgOd607C4=", "properties": {"@spider": "usps_collection_boxes", "addr:city": "HARVEY", "addr:country": "US", "addr:full": "2801 MANHATTAN BLVD", "addr:postcode": "70058", "addr:state": "LA", "brand": "USPS", "collection_times": "Mo-Fr 17:00; Sa 16:00", "name": "USPS COLLECTION BOX - BLUE BOX", "note": "ON 12/24 AND 12/31, THIS BOX MAY BE COLLECTED AS EARLY AS 12 NOON.", "ref": "7005800027"}, "type": "Feature"}
{"geometry": {"coordinates": [-90.0472095, 29.870271], "type": "Point"}, "id": "88qPa_mvXr8duDW5DpC-NvRJ9u4=", "properties": {"@spider": "usps_collection_boxes", "addr:city": "HARVEY", "addr:country": "US", "addr:full": "2801 MANHATTAN BLVD", "addr:postcode": "70058", "addr:state": "LA", "brand": "USPS", "collection_times": "Mo-Fr 17:00; Sa 16:00", "name": "USPS COLLECTION BOX - BLUE BOX", "note": "ON 12/24 AND 12/31, THIS BOX MAY BE COLLECTED AS EARLY AS 12 NOON.", "ref": "7005800028"}, "type": "Feature"}
{"geometry": {"coordinates": [-90.0472095, 29.870271], "type": "Point"}, "id": "nWDFBKRLbhHx-K4fpxAwIL4G9QY=", "properties": {"@spider": "usps_collection_boxes", "addr:city": "HARVEY", "addr:country": "US", "addr:full": "2801 MANHATTAN BLVD", "addr:postcode": "70058", "addr:state": "LA", "brand": "USPS", "collection_times": "Mo-Fr 17:00; Sa 16:00", "name": "USPS COLLECTION BOX - PO LOBBY", "note": "ON 12/24 AND 12/31, THIS BOX MAY BE COLLECTED AS EARLY AS 12 NOON.", "ref": "7005800031"}, "type": "Feature"}
{"geometry": {"coordinates": [-90.0472095, 29.870271], "type": "Point"}, "id": "XImduKJodkaC25lEslrBaFBsDMA=", "properties": {"@spider": "usps_collection_boxes", "addr:city": "HARVEY", "addr:country": "US", "addr:full": "2801 MANHATTAN BLVD", "addr:postcode": "70058", "addr:state": "LA", "brand": "USPS", "collection_times": "Mo-Fr 17:00; Sa 16:00", "name": "USPS COLLECTION BOX - PO LOBBY", "note": "ON 12/24 AND 12/31, THIS BOX MAY BE COLLECTED AS EARLY AS 12 NOON.", "ref": "7005800035"}, "type": "Feature"}
{"geometry": {"coordinates": [-90.0707985, 29.899251], "type": "Point"}, "id": "ULiCepHxhwTkczui9zAVtYb3asU=", "properties": {"@spider": "usps_collection_boxes", "addr:city": "HARVEY", "addr:country": "US", "addr:full": "2150 WESTBANK EXPY", "addr:postcode": "70058", "addr:state": "LA", "brand": "USPS", "collection_times": "Mo-Fr 15:30; Sa 14:30", "name": "USPS COLLECTION BOX - BLUE BOX", "note": "ON 12/24 AND 12/31, THIS BOX MAY BE COLLECTED AS EARLY AS 12 NOON.", "ref": "7005800037"}, "type": "Feature"}
{"geometry": {"coordinates": [-90.0472095, 29.870271], "type": "Point"}, "id": "ZXMBDDlQvMlfqVn_4wpsYK-Z6sQ=", "properties": {"@spider": "usps_collection_boxes", "addr:city": "HARVEY", "addr:country": "US", "addr:full": "2801 MANHATTAN BLVD", "addr:postcode": "70058", "addr:state": "LA", "brand": "USPS", "collection_times": "Mo-Fr 17:00; Sa 16:00", "name": "USPS COLLECTION BOX - APC", "note": "ON 12/24 AND 12/31, THIS BOX MAY BE COLLECTED AS EARLY AS 12 NOON.", "ref": "7005800038"}, "type": "Feature"}
{"geometry": {"coordinates": [-90.0472095, 29.870271], "type": "Point"}, "id": "htqLhOq8NhmVbKzFhOcwMSY1RN4=", "properties": {"@spider": "usps_collection_boxes", "addr:city": "HARVEY", "addr:country": "US", "addr:full": "2801 MANHATTAN BLVD", "addr:postcode": "70058", "addr:state": "LA", "brand": "USPS", "collection_times": "Mo-Fr 16:00; Sa 11:00", "name": "USPS COLLECTION BOX - PO LOBBY", "note": "ON 12/24 AND 12/31, THIS BOX MAY BE COLLECTED AS EARLY AS 12 NOON.", "ref": "7005800042"}, "type": "Feature"}
{"geometry": {"coordinates": [-90.2405745, 29.998395], "type": "Point"}, "id": "vjormw1g-wbXy3FcDrZl4bgJzTg=", "properties": {"@spider": "usps_collection_boxes", "addr:city": "KENNER", "addr:country": "US", "addr:full": "2300 WILLIAMS BLVD", "addr:postcode": "70062", "addr:state": "LA", "brand": "USPS", "collection_times": "Mo-Fr 17:00; Sa 14:45", "name": "USPS COLLECTION BOX - BLUE BOX", "note": "ON 12/24 AND 12/31, THIS BOX MAY BE COLLECTED AS EARLY AS 12 NOON.", "ref": "7006200001"}, "type": "Feature"}
{"geometry": {"coordinates": [-90.2405745, 29.998395], "type": "Point"}, "id": "Co_OS08V1TCuNQCqp3iyk-LSWHg=", "properties": {"@spider": "usps_collection_boxes", "addr:city": "KENNER", "addr:country": "US", "addr:full": "2300 WILLIAMS BLVD", "addr:postcode": "70062", "addr:state": "LA", "brand": "USPS", "collection_times": "Mo-Fr 17:00; Sa 14:45", "name": "USPS COLLECTION BOX - BLUE BOX", "note": "ON 12/24 AND 12/31, THIS BOX MAY BE COLLECTED AS EARLY AS 12 NOON.", "ref": "7006200004"}, "type": "Feature"}
{"geometry": {"coordinates": [-90.270657, 29.987163], "type": "Point"}, "id": "vnWGacT7GAZvB7crN30gdzQ-ReQ=", "properties": {"@spider": "usps_collection_boxes", "addr:city": "KENNER", "addr:country": "US", "addr:full": "200 CROFTON RD", "addr:postcode": "70062", "addr:state": "LA", "brand": "USPS", "collection_times": "Mo-Fr 12:00; Sa 10:45", "name": "USPS COLLECTION BOX - BLUE BOX", "ref": "7006200008"}, "type": "Feature"}
{"geometry": {"coordinates": [-90.241709533, 29.991625319], "type": "Point"}, "id": "RoqxsF0Zl9BPsvBWtkjiEtwLzxY=", "properties": {"@spider": "usps_collection_boxes", "addr:city": "KENNER", "addr:country": "US", "addr:full": "1930 WILLIAMS BLVD", "addr:postcode": "70062", "addr:state": "LA", "brand": "USPS", "collection_times": "Mo-Fr 12:15; Sa 11:15", "name": "USPS COLLECTION BOX - BLUE BOX", "note": "ON 12/24 AND 12/31, THIS BOX MAY BE COLLECTED AS EARLY AS 12 NOON.", "ref": "7006200014"}, "type": "Feature"}
{"geometry": {"coordinates": [-90.240819229, 30.002147102], "type": "Point"}, "id": "iFOXB2uzR5mlxNt-VtDzMzLvNik=", "properties": {"@spider": "usps_collection_boxes", "addr:city": "KENNER", "addr:country": "US", "addr:full": "2538 WILLIAMS BLVD", "addr:postcode": "70062", "addr:state": "LA", "brand": "USPS", "collection_times": "Mo-Fr 12:15; Sa 11:15", "name": "USPS COLLECTION BOX - BLUE BOX", "note": "ON 12/24 AND 12/31, THIS BOX MAY BE COLLECTED AS EARLY AS 12 NOON.", "ref": "7006200017"}, "type": "Feature"}
{"geometry": {"coordinates": [-90.2350035, 30.007125], "type": "Point"}, "id": "6PCd79nTXSfk7C2mc9rFiaPu6KE=", "properties": {"@spider": "usps_collection_boxes", "addr:city": "KENNER", "addr:country": "US", "addr:full": "2400 VETERANS MEMORIAL BLVD", "addr:postcode": "70062", "addr:state": "LA", "brand": "USPS", "collection_times": "Mo-Fr 12:15; Sa 11:15", "name": "USPS COLLECTION BOX - BLUE BOX", "note": "ON 12/24 AND 12/31, THIS BOX MAY BE COLLECTED AS EARLY AS 12 NOON.", "ref": "7006200019"}, "type": "Feature"}
{"geometry": {"coordinates": [-90.2350035, 30.007125], "type": "Point"}, "id": "8J7VJzoYgbnJmPBlY7wC0EtIJJw=", "properties": {"@spider": "usps_collection_boxes", "addr:city": "KENNER", "addr:country": "US", "addr:full": "2400 VETERANS MEMORIAL BLVD", "addr:postcode": "70062", "addr:state": "LA", "brand": "USPS", "collection_times": "Mo-Fr 12:15; Sa 11:15", "name": "USPS COLLECTION BOX - BLUE BOX", "note": "ON 12/24 AND 12/31, THIS BOX MAY BE COLLECTED AS EARLY AS 12 NOON.", "ref": "7006200021"}, "type": "Feature"}
{"geometry": {"coordinates": [-90.238467512, 30.00661936], "type": "Point"}, "id": "vgZnyrlVQb_cnoVZc_20DI1RI7s=", "properties": {"@spider": "usps_collection_boxes", "addr:city": "KENNER", "addr:country": "US", "addr:full": "2200 VETERANS MEMORIAL BLVD", "addr:postcode": "70062", "addr:state": "LA", "brand": "USPS", "collection_times": "Mo-Fr 12:30; Sa 11:30", "name": "USPS COLLECTION BOX - BLUE BOX", "note": "ON 12/24 AND 12/31, THIS BOX MAY BE COLLECTED AS EARLY AS 12 NOON.", "ref": "7006200025"}, "type": "Feature"}
{"geometry": {"coordinates": [-90.2509695, 30.006099], "type": "Point"}, "id": "itJKYEHaqN7PM-j_jcZvXJaBuRk=", "properties": {"@spider": "usps_collection_boxes", "addr:city": "KENNER", "addr:country": "US", "addr:full": "1301 VETERANS MEMORIAL BLVD", "addr:postcode": "70062", "addr:state": "LA", "brand": "USPS", "collection_times": "Mo-Fr 14:00; Sa 13:00", "name": "USPS COLLECTION BOX - BLUE BOX", "note": "ON 12/24 AND 12/31, THIS BOX MAY BE COLLECTED AS EARLY AS 12 NOON.", "ref": "7006200030"}, "type": "Feature"}
{"geometry": {"coordinates": [-90.2405745, 29.998395], "type": "Point"}, "id": "hy6ROPvweCd1obR2PqaVWiS6bJw=", "properties": {"@spider": "usps_collection_boxes", "addr:city": "KENNER", "addr:country": "US", "addr:full": "2300 WILLIAMS BLVD", "addr:postcode": "70062", "addr:state": "LA", "brand": "USPS", "collection_times": "Mo-Fr 17:00; Sa 14:45", "name": "USPS COLLECTION BOX - PO LOBBY", "note": "ON 12/24 AND 12/31, THIS BOX MAY BE COLLECTED AS EARLY AS 12 NOON.", "ref": "7006200032"}, "type": "Feature"}
{"geometry": {"coordinates": [-90.2405745, 29.998395], "type": "Point"}, "id": "AUoetTc5PZIDSH-xs71ZQVWyrKo=", "properties": {"@spider": "usps_collection_boxes", "addr:city": "KENNER", "addr:country": "US", "addr:full": "2300 WILLIAMS BLVD", "addr:postcode": "70062", "addr:state": "LA", "brand": "USPS", "collection_times": "Mo-Fr 17:00; Sa 14:45", "name": "USPS COLLECTION BOX - PO LOBBY", "note": "ON 12/24 AND 12/31, THIS BOX MAY BE COLLECTED AS EARLY AS 12 NOON.", "ref": "7006200033"}, "type": "Feature"}
{"geometry": {"coordinates": [-90.2405745, 29.998395], "type": "Point"}, "id": "gevX1KRtLxBGqsLizolQ-MHJZFg=", "properties": {"@spider": "usps_collection_boxes", "addr:city": "KENNER", "addr:country": "US", "addr:full": "2300 WILLIAMS BLVD", "addr:postcode": "70062", "addr:state": "LA", "brand": "USPS", "collection_times": "Mo-Fr 17:00; Sa 14:45", "name": "USPS COLLECTION BOX - PO LOBBY", "note": "ON 12/24 AND 12/31, THIS BOX MAY BE COLLECTED AS EARLY AS 12 NOON.", "ref": "7006200034"}, "type": "Feature"}
{"geometry": {"coordinates": [-90.2405745, 29.998395], "type": "Point"}, "id": "XU_Do-OJ707D52WwcnJQV7dRoPA=", "properties": {"@spider": "usps_collection_boxes", "addr:city": "KENNER", "addr:country": "US", "addr:full": "2300 WILLIAMS BLVD", "addr:postcode": "70062", "addr:state": "LA", "brand": "USPS", "collection_times": "Mo-Fr 16:30; Sa 12:00", "name": "USPS COLLECTION BOX - PO LOBBY", "note": "ON 12/24 AND 12/31, THIS BOX MAY BE COLLECTED AS EARLY AS 12 NOON.", "ref": "7006200040"}, "type": "Feature"}
{"geometry": {"coordinates": [-90.266346, 30.02364], "type": "Point"}, "id": "y3jAcDNqJ8OTTDwwy6SIMJy_TRE=", "properties": {"@spider": "usps_collection_boxes", "addr:city": "KENNER", "addr:country": "US", "addr:full": "390 W ESPLANADE AVE", "addr:postcode": "70065", "addr:state": "LA", "brand": "USPS", "collection_times": "Mo-Fr 17:00; Sa 15:30", "name": "USPS COLLECTION BOX - PO LOBBY", "note": "ON 12/24 AND 12/31, THIS BOX MAY BE COLLECTED AS EARLY AS 12 NOON.", "ref": "7006500001"}, "type": "Feature"}
{"geometry": {"coordinates": [-90.266346, 30.02364], "type": "Point"}, "id": "U2VpDS8D424IrHsjzM2br25JdJ8=", "properties": {"@spider": "usps_collection_boxes", "addr:city": "KENNER", "addr:country": "US", "addr:full": "390 W ESPLANADE AVE", "addr:postcode": "70065", "addr:state": "LA", "brand": "USPS", "collection_times": "Mo-Fr 17:00; Sa 15:30", "name": "USPS COLLECTION BOX - BLUE BOX", "note": "ON 12/24 AND 12/31, THIS BOX MAY BE COLLECTED AS EARLY AS 12 NOON.", "ref": "7006500002"}, "type": "Feature"}
{"geometry": {"coordinates": [-90.266346, 30.02364], "type": "Point"}, "id": "pM2XhUqnMxCp6BRPDtreymXgQNU=", "properties": {"@spider": "usps_collection_boxes", "addr:city": "KENNER", "addr:country": "US", "addr:full": "390 W ESPLANADE AVE", "addr:postcode": "70065", "addr:state": "LA", "brand": "USPS", "collection_times": "Mo-Fr 17:00; Sa 15:30", "name": "USPS COLLECTION BOX - BLUE BOX", "note": "ON 12/24 AND 12/31, THIS BOX MAY BE COLLECTED AS EARLY AS 12 NOON.", "ref": "7006500003"}, "type": "Feature"}
{"geometry": {"coordinates": [-90.266346, 30.02364], "type": "Point"}, "id": "CKd6CdAvgWA1qCaZof3gAbr8MYg=", "properties": {"@spider": "usps_collection_boxes", "addr:city": "KENNER", "addr:country": "US", "addr:full": "390 W ESPLANADE AVE", "addr:postcode": "70065", "addr:state": "LA", "brand": "USPS", "collection_times": "Mo-Fr 17:00; Sa 15:30", "name": "USPS COLLECTION BOX - BLUE BOX", "note": "ON 12/24 AND 12/31, THIS BOX MAY BE COLLECTED AS EARLY AS 12 NOON.", "ref": "7006500004"}, "type": "Feature"}
{"geometry": {"coordinates": [-90.252890691, 30.020292334], "type": "Point"}, "id": "UJ_AVOXp9JEdENA6M2_a6XEqrN4=", "properties": {"@spider": "usps_collection_boxes", "addr:city": "KENNER", "addr:country": "US", "addr:full": "1201 W ESPLANADE AVE", "addr:postcode": "70065", "addr:state": "LA", "brand": "USPS", "collection_times": "Mo-Fr 13:45; Sa 12:45", "name": "USPS COLLECTION BOX - BLUE BOX", "note": "ON 12/24 AND 12/31, THIS BOX MAY BE COLLECTED AS EARLY AS 12 NOON.", "ref": "7006500012"}, "type": "Feature"}
{"geometry": {"coordinates": [-90.2402505, 30.015837], "type": "Point"}, "id": "ju-5U86AflAE9yBBGjA4T8gBYsg=", "properties": {"@spider": "usps_collection_boxes", "addr:city": "KENNER", "addr:country": "US", "addr:full": "3243 WILLIAMS BLVD", "addr:postcode": "70065", "addr:state": "LA", "brand": "USPS", "collection_times": "Mo-Fr 13:45; Sa 12:45", "name": "USPS COLLECTION BOX - BLUE BOX", "note": "ON 12/24 AND 12/31, THIS BOX MAY BE COLLECTED AS EARLY AS 12 NOON.", "ref": "7006500016"}, "type": "Feature"}
{"geometry": {"coordinates": [-90.257286154, 30.040691657], "type": "Point"}, "id": "Kkj-yFoXzv2KWokTS5AcjlAyuyw=", "properties": {"@spider": "usps_collection_boxes", "addr:city": "KENNER", "addr:country": "US", "addr:full": "810 JOE YENNI BLVD", "addr:postcode": "70065", "addr:state": "LA", "brand": "USPS", "collection_times": "Mo-Fr 13:00; Sa 11:45", "name": "USPS COLLECTION BOX - BLUE BOX", "note": "ON 12/24 AND 12/31, THIS BOX MAY BE COLLECTED AS EARLY AS 12 NOON.", "ref": "7006500024"}, "type": "Feature"}
{"geometry": {"coordinates": [-90.2400975, 30.030102], "type": "Point"}, "id": "34ZvN5AVavRHWf2ghomlFtXMNEQ=", "properties": {"@spider": "usps_collection_boxes", "addr:city": "KENNER", "addr:country": "US", "addr:full": "4041 WILLIAMS BLVD", "addr:postcode": "70065", "addr:state": "LA", "brand": "USPS", "collection_times": "Mo-Fr 13:00; Sa 12:00", "name": "USPS COLLECTION BOX - BLUE BOX", "note": "ON 12/24 AND 12/31, THIS BOX MAY BE COLLECTED AS EARLY AS 12 NOON.", "ref": "7006500026"}, "type": "Feature"}
{"geometry": {"coordinates": [-90.2396925, 30.02373], "type": "Point"}, "id": "qN3cL6hJN_bbx1NW_XbTdqVWII8=", "properties": {"@spider": "usps_collection_boxes", "addr:city": "KENNER", "addr:country": "US", "addr:full": "3701 WILLIAMS BLVD", "addr:postcode": "70065", "addr:state": "LA", "brand": "USPS", "collection_times": "Mo-Fr 13:00; Sa 12:00", "name": "USPS COLLECTION BOX - BLUE BOX", "note": "ON 12/24 AND 12/31, THIS BOX MAY BE COLLECTED AS EARLY AS 12 NOON.", "ref": "7006500027"}, "type": "Feature"}
{"geometry": {"coordinates": [-90.249564657, 30.020562586], "type": "Point"}, "id": "MxfMLGv9yJjQenDeuPEl3n4VHaE=", "properties": {"@spider": "usps_collection_boxes", "addr:city": "KENNER", "addr:country": "US", "addr:full": "1400 W ESPLANADE AVE", "addr:postcode": "70065", "addr:state": "LA", "brand": "USPS", "collection_times": "Mo-Fr 13:00; Sa 12:00", "name": "USPS COLLECTION BOX - BLUE BOX", "note": "ON 12/24 AND 12/31, THIS BOX MAY BE COLLECTED AS EARLY AS 12 NOON.", "ref": "7006500028"}, "type": "Feature"}
{"geometry": {"coordinates": [-90.271238881, 30.023161292], "type": "Point"}, "id": "oAlT0hIXO8SNJjsppiVaFgResf8=", "properties": {"@spider": "usps_collection_boxes", "addr:city": "KENNER", "addr:country": "US", "addr:full": "200 W ESPLANADE AVE", "addr:postcode": "70065", "addr:state": "LA", "brand": "USPS", "collection_times": "Mo-Fr 13:30; Sa 12:30", "name": "USPS COLLECTION BOX - BLUE BOX", "note": "ON 12/24 AND 12/31, THIS BOX MAY BE COLLECTED AS EARLY AS 12 NOON.", "ref": "7006500029"}, "type": "Feature"}
{"geometry": {"coordinates": [-90.266346, 30.02364], "type": "Point"}, "id": "9bSAlt6YixYZDJRh_XFOioL6XYQ=", "properties": {"@spider": "usps_collection_boxes", "addr:city": "KENNER", "addr:country": "US", "addr:full": "390 W ESPLANADE AVE", "addr:postcode": "70065", "addr:state": "LA", "brand": "USPS", "collection_times": "Mo-Fr 17:00; Sa 15:30", "name": "USPS COLLECTION BOX - PO LOBBY", "note": "ON 12/24 AND 12/31, THIS BOX MAY BE COLLECTED AS EARLY AS 12 NOON.", "ref": "7006500031"}, "type": "Feature"}
{"geometry": {"coordinates": [-90.271238881, 30.023161292], "type": "Point"}, "id": "_ikwy0rHei7NbD3YztWC8Y0i0PM=", "properties": {"@spider": "usps_collection_boxes", "addr:city": "KENNER", "addr:country": "US", "addr:full": "200 W ESPLANADE AVE", "addr:postcode": "70065", "addr:state": "LA", "brand": "USPS", "collection_times": "Mo-Fr 13:30; Sa 12:30", "name": "USPS COLLECTION BOX - BLUE BOX", "note": "ON 12/24 AND 12/31, THIS BOX MAY BE COLLECTED AS EARLY AS 12 NOON.", "ref": "7006500033"}, "type": "Feature"}
{"geometry": {"coordinates": [-90.229861436, 30.022055098], "type": "Point"}, "id": "BN-ZTXirjp9TJ82S4_pI_UvOXls=", "properties": {"@spider": "usps_collection_boxes", "addr:city": "KENNER", "addr:country": "US", "addr:full": "34 DRIFTWOOD BLVD", "addr:postcode": "70065", "addr:state": "LA", "brand": "USPS", "collection_times": "Mo-Fr 12:45; Sa 11:45", "name": "USPS COLLECTION BOX - BLUE BOX", "note": "ON 12/24 AND 12/31, THIS BOX MAY BE COLLECTED AS EARLY AS 12 NOON.", "ref": "7006500034"}, "type": "Feature"}
{"geometry": {"coordinates": [-90.271238881, 30.023161292], "type": "Point"}, "id": "nnnKU4bPBKAZjbvo6Ob8r6bLFr4=", "properties": {"@spider": "usps_collection_boxes", "addr:city": "KENNER", "addr:country": "US", "addr:full": "200 W ESPLANADE AVE", "addr:postcode": "70065", "addr:state": "LA", "brand": "USPS", "collection_times": "Mo-Fr 13:30; Sa 12:30", "name": "USPS COLLECTION BOX - BLUE BOX", "note": "ON 12/24 AND 12/31, THIS BOX MAY BE COLLECTED AS EARLY AS 12 NOON.", "ref": "7006500035"}, "type": "Feature"}
{"geometry": {"coordinates": [-90.266346, 30.02364], "type": "Point"}, "id": "5QcnObNDbwYb8NDt3bqP2yyvsAc=", "properties": {"@spider": "usps_collection_boxes", "addr:city": "KENNER", "addr:country": "US", "addr:full": "390 W ESPLANADE AVE", "addr:postcode": "70065", "addr:state": "LA", "brand": "USPS", "collection_times": "Mo-Fr 17:00; Sa 15:30", "name": "USPS COLLECTION BOX - APC", "note": "ON 12/24 AND 12/31, THIS BOX MAY BE COLLECTED AS EARLY AS 12 NOON.", "ref": "7006500036"}, "type": "Feature"}
{"geometry": {"coordinates": [-90.266346, 30.02364], "type": "Point"}, "id": "HCGetDCrm4--28t0h9HgfAQiG_8=", "properties": {"@spider": "usps_collection_boxes", "addr:city": "KENNER", "addr:country": "US", "addr:full": "390 W ESPLANADE AVE", "addr:postcode": "70065", "addr:state": "LA", "brand": "USPS", "collection_times": "Mo-Fr 17:00; Sa 12:00", "name": "USPS COLLECTION BOX - PO LOBBY", "note": "ON 12/24 AND 12/31, THIS BOX MAY BE COLLECTED AS EARLY AS 12 NOON.", "ref": "7006500040"}, "type": "Feature"}
{"geometry": {"coordinates": [-90.126167764, 29.735332665], "type": "Point"}, "id": "ww97AcdmzM8YKaT8O8UKyN-cKWo=", "properties": {"@spider": "usps_collection_boxes", "addr:city": "LAFITTE", "addr:country": "US", "addr:full": "2630 JEAN LAFITTE BLVD", "addr:postcode": "70067", "addr:state": "LA", "brand": "USPS", "collection_times": "Mo-Fr 15:15; Sa 09:45", "name": "USPS COLLECTION BOX - BLUE BOX", "note": "ON 12/24 AND 12/31, THIS BOX MAY BE COLLECTED AS EARLY AS 12 NOON.", "ref": "7006700007"}, "type": "Feature"}
{"geometry": {"coordinates": [-90.126167764, 29.735332665], "type": "Point"}, "id": "qaD2onRvVBQxfhhK5y6w_Mc0eZ4=", "properties": {"@spider": "usps_collection_boxes", "addr:city": "LAFITTE", "addr:country": "US", "addr:full": "2630 JEAN LAFITTE BLVD", "addr:postcode": "70067", "addr:state": "LA", "brand": "USPS", "collection_times": "Mo-Fr 15:30; Sa 09:45", "name": "USPS COLLECTION BOX - PO LOBBY", "note": "ON 12/24 AND 12/31, THIS BOX MAY BE COLLECTED AS EARLY AS 12 NOON.", "ref": "7006700008"}, "type": "Feature"}
{"geometry": {"coordinates": [-90.126167764, 29.735332665], "type": "Point"}, "id": "P7herTFF9ntoDhhXbKfxJxoL5bU=", "properties": {"@spider": "usps_collection_boxes", "addr:city": "LAFITTE", "addr:country": "US", "addr:full": "2630 JEAN LAFITTE BLVD", "addr:postcode": "70067", "addr:state": "LA", "brand": "USPS", "collection_times": "Mo-Fr 16:00; Sa 10:00", "name": "USPS COLLECTION BOX - PO LOBBY", "note": "ON 12/24 AND 12/31, THIS BOX MAY BE COLLECTED AS EARLY AS 12 NOON.", "ref": "7006700009"}, "type": "Feature"}
{"geometry": {"coordinates": [-90.501276466, 30.076631863], "type": "Point"}, "id": "rWcZxpthBbiPQvCFr9Wd4YIwVzc=", "properties": {"@spider": "usps_collection_boxes", "addr:city": "LAPLACE", "addr:country": "US", "addr:full": "190 BELLE TERRE BLVD", "addr:postcode": "70068", "addr:state": "LA", "brand": "USPS", "collection_times": "Mo-Fr 16:45; Sa 16:15", "name": "USPS COLLECTION BOX - BLUE BOX", "note": "ON 12/24 AND 12/31, THIS BOX MAY BE COLLECTED AS EARLY AS 12 NOON.", "ref": "7006800001"}, "type": "Feature"}
{"geometry": {"coordinates": [-90.501276466, 30.076631863], "type": "Point"}, "id": "DPj98edmQ9BvS2wC7yD8299eCXU=", "properties": {"@spider": "usps_collection_boxes", "addr:city": "LAPLACE", "addr:country": "US", "addr:full": "190 BELLE TERRE BLVD", "addr:postcode": "70068", "addr:state": "LA", "brand": "USPS", "collection_times": "Mo-Fr 16:45; Sa 16:15", "name": "USPS COLLECTION BOX - BLUE BOX", "note": "ON 12/24 AND 12/31, THIS BOX MAY BE COLLECTED AS EARLY AS 12 NOON.", "ref": "7006800002"}, "type": "Feature"}
{"geometry": {"coordinates": [-90.501276466, 30.076631863], "type": "Point"}, "id": "lMDc18rSr02jqH3yM1di5BsMc4Y=", "properties": {"@spider": "usps_collection_boxes", "addr:city": "LAPLACE", "addr:country": "US", "addr:full": "190 BELLE TERRE BLVD", "addr:postcode": "70068", "addr:state": "LA", "brand": "USPS", "collection_times": "Mo-Fr 16:45; Sa 16:15", "name": "USPS COLLECTION BOX - BLUE BOX", "note": "ON 12/24 AND 12/31, THIS BOX MAY BE COLLECTED AS EARLY AS 12 NOON.", "ref": "7006800003"}, "type": "Feature"}
{"geometry": {"coordinates": [-90.501276466, 30.076631863], "type": "Point"}, "id": "tjfK1fscBlK6AjTHWoJ3M8k5PhA=", "properties": {"@spider": "usps_collection_boxes", "addr:city": "LAPLACE", "addr:country": "US", "addr:full": "190 BELLE TERRE BLVD", "addr:postcode": "70068", "addr:state": "LA", "brand": "USPS", "collection_times": "Mo-Fr 16:45; Sa 16:15", "name": "USPS COLLECTION BOX - PO LOBBY", "note": "ON 12/24 AND 12/31, THIS BOX MAY BE COLLECTED AS EARLY AS 12 NOON.", "ref": "7006800005"}, "type": "Feature"}
{"geometry": {"coordinates": [-90.501276466, 30.076631863], "type": "Point"}, "id": "Gg6Lp8AwpB2Gh5e7KDnqlaeYMA8=", "properties": {"@spider": "usps_collection_boxes", "addr:city": "LAPLACE", "addr:country": "US", "addr:full": "190 BELLE TERRE BLVD", "addr:postcode": "70068", "addr:state": "LA", "brand": "USPS", "collection_times": "Mo-Fr 16:45; Sa 16:15", "name": "USPS COLLECTION BOX - PO LOBBY", "note": "ON 12/24 AND 12/31, THIS BOX MAY BE COLLECTED AS EARLY AS 12 NOON.", "ref": "7006800006"}, "type": "Feature"}
{"geometry": {"coordinates": [-90.501276466, 30.076631863], "type": "Point"}, "id": "5xkPG-LRVl8QKbpgbhMZTrbtuHE=", "properties": {"@spider": "usps_collection_boxes", "addr:city": "LAPLACE", "addr:country": "US", "addr:full": "190 BELLE TERRE BLVD", "addr:postcode": "70068", "addr:state": "LA", "brand": "USPS", "collection_times": "Mo-Fr 16:30; Sa 12:00", "name": "USPS COLLECTION BOX - PO LOBBY", "note": "ON 12/24 AND 12/31, THIS BOX MAY BE COLLECTED AS EARLY AS 12 NOON.", "ref": "7006800025"}, "type": "Feature"}
{"geometry": {"coordinates": [-90.37608508, 29.918673978], "type": "Point"}, "id": "QdY1QVdXGAWFIrIWg75Zd0Af-Io=", "properties": {"@spider": "usps_collection_boxes", "addr:city": "LULING", "addr:country": "US", "addr:full": "1363 PAUL MAILLARD RD", "addr:postcode": "70070", "addr:state": "LA", "brand": "USPS", "collection_times": "Mo-Fr 16:00; Sa 09:30", "name": "USPS COLLECTION BOX - BLUE BOX", "note": "ON 12/24 AND 12/31, THIS BOX MAY BE COLLECTED AS EARLY AS 12 NOON.", "ref": "7007000001"}, "type": "Feature"}
{"geometry": {"coordinates": [-90.37608508, 29.918673978], "type": "Point"}, "id": "kajLPfJzjLAQ7bcr--uEXPuBxHU=", "properties": {"@spider": "usps_collection_boxes", "addr:city": "LULING", "addr:country": "US", "addr:full": "1363 PAUL MAILLARD RD", "addr:postcode": "70070", "addr:state": "LA", "brand": "USPS", "collection_times": "Mo-Fr 16:00; Sa 09:30", "name": "USPS COLLECTION BOX - PO LOBBY", "note": "ON 12/24 AND 12/31, THIS BOX MAY BE COLLECTED AS EARLY AS 12 NOON.", "ref": "7007000007"}, "type": "Feature"}
{"geometry": {"coordinates": [-90.37608508, 29.918673978], "type": "Point"}, "id": "sF9foTaeFy0SJ_2-0MfW115ZHqk=", "properties": {"@spider": "usps_collection_boxes", "addr:city": "LULING", "addr:country": "US", "addr:full": "1363 PAUL MAILLARD RD", "addr:postcode": "70070", "addr:state": "LA", "brand": "USPS", "collection_times": "Mo-Fr 16:30", "name": "USPS COLLECTION BOX - PO LOBBY", "note": "ON 12/24 AND 12/31, THIS BOX MAY BE COLLECTED AS EARLY AS 12 NOON.", "ref": "7007000009"}, "type": "Feature"}
{"geometry": {"coordinates": [-90.698996293, 30.042271698], "type": "Point"}, "id": "2tYGdYVLHgAl-pmV9R-N-No-4fo=", "properties": {"@spider": "usps_collection_boxes", "addr:city": "LUTCHER", "addr:country": "US", "addr:full": "2317 TEXAS ST", "addr:postcode": "70071", "addr:state": "LA", "brand": "USPS", "collection_times": "Mo-Fr 15:30; Sa 10:30", "name": "USPS COLLECTION BOX - BLUE BOX", "note": "ON 12/24 AND 12/31, THIS BOX MAY BE COLLECTED AS EARLY AS 12 NOON.", "ref": "7007100001"}, "type": "Feature"}
{"geometry": {"coordinates": [-90.698996293, 30.042271698], "type": "Point"}, "id": "HIFGKDCBqr3v_eeekXeTCUEhXF8=", "properties": {"@spider": "usps_collection_boxes", "addr:city": "LUTCHER", "addr:country": "US", "addr:full": "2317 TEXAS ST", "addr:postcode": "70071", "addr:state": "LA", "brand": "USPS", "collection_times": "Mo-Fr 15:30; Sa 10:30", "name": "USPS COLLECTION BOX - PO LOBBY", "note": "ON 12/24 AND 12/31, THIS BOX MAY BE COLLECTED AS EARLY AS 12 NOON.", "ref": "7007100003"}, "type": "Feature"}
{"geometry": {"coordinates": [-90.698996293, 30.042271698], "type": "Point"}, "id": "TyWYr05peFeRFNV2JTtLQWxmCpE=", "properties": {"@spider": "usps_collection_boxes", "addr:city": "LUTCHER", "addr:country": "US", "addr:full": "2317 TEXAS ST", "addr:postcode": "70071", "addr:state": "LA", "brand": "USPS", "collection_times": "Mo-Fr 16:00", "name": "USPS COLLECTION BOX - PO LOBBY", "note": "ON 12/24 AND 12/31, THIS BOX MAY BE COLLECTED AS EARLY AS 12 NOON.", "ref": "7007100005"}, "type": "Feature"}
{"geometry": {"coordinates": [-90.106062528, 29.875075867], "type": "Point"}, "id": "e-aVMzYKTRJLQhUGERrqfCgKhhs=", "properties": {"@spider": "usps_collection_boxes", "addr:city": "MARRERO", "addr:country": "US", "addr:full": "5351 LAPALCO BLVD", "addr:postcode": "70072", "addr:state": "LA", "brand": "USPS", "collection_times": "Mo-Fr 17:00; Sa 16:15", "name": "USPS COLLECTION BOX - PO LOBBY", "note": "ON 12/24 AND 12/31, THIS BOX MAY BE COLLECTED AS EARLY AS 12 NOON.", "ref": "7007200001"}, "type": "Feature"}
{"geometry": {"coordinates": [-90.106062528, 29.875075867], "type": "Point"}, "id": "tL6tmQoPPi925xf9Kq78nxWaHWI=", "properties": {"@spider": "usps_collection_boxes", "addr:city": "MARRERO", "addr:country": "US", "addr:full": "5351 LAPALCO BLVD", "addr:postcode": "70072", "addr:state": "LA", "brand": "USPS", "collection_times": "Mo-Fr 17:00; Sa 16:15", "name": "USPS COLLECTION BOX - PO LOBBY", "note": "ON 12/24 AND 12/31, THIS BOX MAY BE COLLECTED AS EARLY AS 12 NOON.", "ref": "7007200002"}, "type": "Feature"}
{"geometry": {"coordinates": [-90.106062528, 29.875075867], "type": "Point"}, "id": "eqLWq9Obw_2lva20VVXgBcerAIU=", "properties": {"@spider": "usps_collection_boxes", "addr:city": "MARRERO", "addr:country": "US", "addr:full": "5351 LAPALCO BLVD", "addr:postcode": "70072", "addr:state": "LA", "brand": "USPS", "collection_times": "Mo-Fr 17:00; Sa 16:15", "name": "USPS COLLECTION BOX - PO LOBBY", "note": "ON 12/24 AND 12/31, THIS BOX MAY BE COLLECTED AS EARLY AS 12 NOON.", "ref": "7007200003"}, "type": "Feature"}
{"geometry": {"coordinates": [-90.106062528, 29.875075867], "type": "Point"}, "id": "GTIDjfELm--u2Pq6ycKMFR41Ntg=", "properties": {"@spider": "usps_collection_boxes", "addr:city": "MARRERO", "addr:country": "US", "addr:full": "5351 LAPALCO BLVD", "addr:postcode": "70072", "addr:state": "LA", "brand": "USPS", "collection_times": "Mo-Fr 17:00; Sa 16:15", "name": "USPS COLLECTION BOX - BLUE BOX", "note": "ON 12/24 AND 12/31, THIS BOX MAY BE COLLECTED AS EARLY AS 12 NOON.", "ref": "7007200005"}, "type": "Feature"}
{"geometry": {"coordinates": [-90.095535, 29.893896], "type": "Point"}, "id": "QdumWQOF1w8Ejeby2B7VduQ2Emo=", "properties": {"@spider": "usps_collection_boxes", "addr:city": "MARRERO", "addr:country": "US", "addr:full": "4535 WESTBANK EXPY", "addr:postcode": "70072", "addr:state": "LA", "brand": "USPS", "collection_times": "Mo-Sa 12:00", "name": "USPS COLLECTION BOX - BLUE BOX", "ref": "7007200022"}, "type": "Feature"}
{"geometry": {"coordinates": [-90.106062528, 29.875075867], "type": "Point"}, "id": "8_GwHvXRmokXGhXjWcPaYdKLuaU=", "properties": {"@spider": "usps_collection_boxes", "addr:city": "MARRERO", "addr:country": "US", "addr:full": "5351 LAPALCO BLVD", "addr:postcode": "70072", "addr:state": "LA", "brand": "USPS", "collection_times": "Mo-Fr 17:00; Sa 16:15", "name": "USPS COLLECTION BOX - PO LOBBY", "note": "ON 12/24 AND 12/31, THIS BOX MAY BE COLLECTED AS EARLY AS 12 NOON.", "ref": "7007200025"}, "type": "Feature"}
{"geometry": {"coordinates": [-90.106062528, 29.875075867], "type": "Point"}, "id": "ej7BzZLajhvbP3BbgwT0mY40MZ4=", "properties": {"@spider": "usps_collection_boxes", "addr:city": "MARRERO", "addr:country": "US", "addr:full": "5351 LAPALCO BLVD", "addr:postcode": "70072", "addr:state": "LA", "brand": "USPS", "collection_times": "Mo-Fr 17:00; Sa 16:15", "name": "USPS COLLECTION BOX - BLUE BOX", "note": "ON 12/24 AND 12/31, THIS BOX MAY BE COLLECTED AS EARLY AS 12 NOON.", "ref": "7007200026"}, "type": "Feature"}
{"geometry": {"coordinates": [-90.106062528, 29.875075867], "type": "Point"}, "id": "z3OAhnZovmUT2fOF21roZiYJMXU=", "properties": {"@spider": "usps_collection_boxes", "addr:city": "MARRERO", "addr:country": "US", "addr:full": "5351 LAPALCO BLVD", "addr:postcode": "70072", "addr:state": "LA", "brand": "USPS", "collection_times": "Mo-Fr 17:00; Sa 16:15", "name": "USPS COLLECTION BOX - BLUE BOX", "note": "ON 12/24 AND 12/31, THIS BOX MAY BE COLLECTED AS EARLY AS 12 NOON.", "ref": "7007200027"}, "type": "Feature"}
{"geometry": {"coordinates": [-90.106062528, 29.875075867], "type": "Point"}, "id": "LygRTLOO1Y-OtBE51z6vNqedcMs=", "properties": {"@spider": "usps_collection_boxes", "addr:city": "MARRERO", "addr:country": "US", "addr:full": "5351 LAPALCO BLVD", "addr:postcode": "70072", "addr:state": "LA", "brand": "USPS", "collection_times": "Mo-Fr 17:00; Sa 16:15", "name": "USPS COLLECTION BOX - BLUE BOX", "note": "ON 12/24 AND 12/31, THIS BOX MAY BE COLLECTED AS EARLY AS 12 NOON.", "ref": "7007200028"}, "type": "Feature"}
{"geometry": {"coordinates": [-90.0977265, 29.895426], "type": "Point"}, "id": "_BH7XCINmKjMDzPsFdfESOKZVjo=", "properties": {"@spider": "usps_collection_boxes", "addr:city": "MARRERO", "addr:country": "US", "addr:full": "4701 WESTBANK EXPY", "addr:postcode": "70072", "addr:state": "LA", "brand": "USPS", "collection_times": "Mo-Sa 14:00", "name": "USPS COLLECTION BOX - BLUE BOX", "note": "ON 12/24 AND 12/31, THIS BOX MAY BE COLLECTED AS EARLY AS 12 NOON.", "ref": "7007200029"}, "type": "Feature"}
{"geometry": {"coordinates": [-90.0973845, 29.892159], "type": "Point"}, "id": "Fuy0SZOJqMTXCcq7OZzESvTQpHQ=", "properties": {"@spider": "usps_collection_boxes", "addr:city": "MARRERO", "addr:country": "US", "addr:full": "4606 10TH ST", "addr:postcode": "70072", "addr:state": "LA", "brand": "USPS", "collection_times": "Mo-Sa 14:30", "name": "USPS COLLECTION BOX - BLUE BOX", "note": "ON 12/24 AND 12/31, THIS BOX MAY BE COLLECTED AS EARLY AS 12 NOON.", "ref": "7007200030"}, "type": "Feature"}
{"geometry": {"coordinates": [-90.101016, 29.893428], "type": "Point"}, "id": "SQp2xojyAjVHNji99qHk2plHHBQ=", "properties": {"@spider": "usps_collection_boxes", "addr:city": "MARRERO", "addr:country": "US", "addr:full": "5001 WESTBANK EXPY", "addr:postcode": "70072", "addr:state": "LA", "brand": "USPS", "collection_times": "Mo-Fr 12:30; Sa 11:30", "name": "USPS COLLECTION BOX - BLUE BOX", "note": "ON 12/24 AND 12/31, THIS BOX MAY BE COLLECTED AS EARLY AS 12 NOON.", "ref": "7007200031"}, "type": "Feature"}
{"geometry": {"coordinates": [-90.106062528, 29.875075867], "type": "Point"}, "id": "POiMkU94NUoek5OLkgyqFnaHm2E=", "properties": {"@spider": "usps_collection_boxes", "addr:city": "MARRERO", "addr:country": "US", "addr:full": "5351 LAPALCO BLVD", "addr:postcode": "70072", "addr:state": "LA", "brand": "USPS", "collection_times": "Mo-Fr 16:30; Sa 12:00", "name": "USPS COLLECTION BOX - PO LOBBY", "note": "ON 12/24 AND 12/31, THIS BOX MAY BE COLLECTED AS EARLY AS 12 NOON.", "ref": "7007200035"}, "type": "Feature"}
{"geometry": {"coordinates": [-89.921632797, 29.935204554], "type": "Point"}, "id": "Rp-4ROQ4YoEnpUPJJLWwUoAiEHo=", "properties": {"@spider": "usps_collection_boxes", "addr:city": "MERAUX", "addr:country": "US", "addr:full": "4217 E JUDGE PEREZ DR", "addr:postcode": "70075", "addr:state": "LA", "brand": "USPS", "collection_times": "Mo-Fr 15:30", "name": "USPS COLLECTION BOX - PO LOBBY", "note": "ON 12/24 AND 12/31, THIS BOX MAY BE COLLECTED AS EARLY AS 12 NOON.", "ref": "7007500010"}, "type": "Feature"}
{"geometry": {"coordinates": [-89.921632797, 29.935204554], "type": "Point"}, "id": "6JerljmpBdtyUVjZB7GFnP3QTzM=", "properties": {"@spider": "usps_collection_boxes", "addr:city": "MERAUX", "addr:country": "US", "addr:full": "4217 E JUDGE PEREZ DR", "addr:postcode": "70075", "addr:state": "LA", "brand": "USPS", "collection_times": "Mo-Fr 15:30", "name": "USPS COLLECTION BOX - PO LOBBY", "note": "ON 12/24 AND 12/31, THIS BOX MAY BE COLLECTED AS EARLY AS 12 NOON.", "ref": "7007500011"}, "type": "Feature"}
{"geometry": {"coordinates": [-89.921632797, 29.935204554], "type": "Point"}, "id": "rtGIZSSDIfoiP-gm7VSGMcOwFQM=", "properties": {"@spider": "usps_collection_boxes", "addr:city": "MERAUX", "addr:country": "US", "addr:full": "4217 E JUDGE PEREZ DR", "addr:postcode": "70075", "addr:state": "LA", "brand": "USPS", "collection_times": "Mo-Fr 16:00", "name": "USPS COLLECTION BOX - PO LOBBY", "note": "ON 12/24 AND 12/31, THIS BOX MAY BE COLLECTED AS EARLY AS 12 NOON.", "ref": "7007500012"}, "type": "Feature"}
{"geometry": {"coordinates": [-90.390473013, 29.971100986], "type": "Point"}, "id": "ZxuXVZDytltct1KrtxUF7txXn1Q=", "properties": {"@spider": "usps_collection_boxes", "addr:city": "NEW SARPY", "addr:country": "US", "addr:full": "14394 RIVER RD", "addr:postcode": "70078", "addr:state": "LA", "brand": "USPS", "collection_times": "Mo-Fr 15:00; Sa 07:30", "name": "USPS COLLECTION BOX - BLUE BOX", "note": "ON 12/24 AND 12/31, THIS BOX MAY BE COLLECTED AS EARLY AS 12 NOON.", "ref": "7007800001"}, "type": "Feature"}
{"geometry": {"coordinates": [-90.390473013, 29.971100986], "type": "Point"}, "id": "oPKjynMzvjn1ZAVBDZU5btbW1EE=", "properties": {"@spider": "usps_collection_boxes", "addr:city": "NEW SARPY", "addr:country": "US", "addr:full": "14394 RIVER RD", "addr:postcode": "70078", "addr:state": "LA", "brand": "USPS", "collection_times": "Mo-Fr 15:00; Sa 07:30", "name": "USPS COLLECTION BOX - PO LOBBY", "note": "ON 12/24 AND 12/31, THIS BOX MAY BE COLLECTED AS EARLY AS 12 NOON.", "ref": "7007800002"}, "type": "Feature"}
{"geometry": {"coordinates": [-90.390473013, 29.971100986], "type": "Point"}, "id": "csOq5-Jizi1PoRaRRohLVUReduI=", "properties": {"@spider": "usps_collection_boxes", "addr:city": "NEW SARPY", "addr:country": "US", "addr:full": "14394 RIVER RD", "addr:postcode": "70078", "addr:state": "LA", "brand": "USPS", "collection_times": "Mo-Fr 15:00", "name": "USPS COLLECTION BOX - PO LOBBY", "note": "ON 12/24 AND 12/31, THIS BOX MAY BE COLLECTED AS EARLY AS 12 NOON.", "ref": "7007800005"}, "type": "Feature"}
{"geometry": {"coordinates": [-90.409189506, 30.009170756], "type": "Point"}, "id": "DRDx9semK9oFRY3rwW2TwTOzDvM=", "properties": {"@spider": "usps_collection_boxes", "addr:city": "NORCO", "addr:country": "US", "addr:full": "558 APPLE ST", "addr:postcode": "70079", "addr:state": "LA", "brand": "USPS", "collection_times": "Mo-Fr 16:15", "name": "USPS COLLECTION BOX - BLUE BOX", "note": "ON 12/24 AND 12/31, THIS BOX MAY BE COLLECTED AS EARLY AS 12 NOON.", "ref": "7007900001"}, "type": "Feature"}
{"geometry": {"coordinates": [-90.409189506, 30.009170756], "type": "Point"}, "id": "b0tjnk98xX4rDQiaaluOBtCu01A=", "properties": {"@spider": "usps_collection_boxes", "addr:city": "NORCO", "addr:country": "US", "addr:full": "558 APPLE ST", "addr:postcode": "70079", "addr:state": "LA", "brand": "USPS", "collection_times": "Mo-Fr 16:30", "name": "USPS COLLECTION BOX - PO LOBBY", "note": "ON 12/24 AND 12/31, THIS BOX MAY BE COLLECTED AS EARLY AS 12 NOON.", "ref": "7007900005"}, "type": "Feature"}
{"geometry": {"coordinates": [-90.409189506, 30.009170756], "type": "Point"}, "id": "3o5mWtV7dvDbU7fd4DEXRMIVLg4=", "properties": {"@spider": "usps_collection_boxes", "addr:city": "NORCO", "addr:country": "US", "addr:full": "558 APPLE ST", "addr:postcode": "70079", "addr:state": "LA", "brand": "USPS", "collection_times": "Mo-Fr 16:30", "name": "USPS COLLECTION BOX - PO LOBBY", "note": "ON 12/24 AND 12/31, THIS BOX MAY BE COLLECTED AS EARLY AS 12 NOON.", "ref": "7007900007"}, "type": "Feature"}
{"geometry": {"coordinates": [-90.437052992, 29.878853805], "type": "Point"}, "id": "sV1uw9sPD7y1hwZD5OH-5Se0Rhw=", "properties": {"@spider": "usps_collection_boxes", "addr:city": "PARADIS", "addr:country": "US", "addr:full": "508 FONDA ST", "addr:postcode": "70080", "addr:state": "LA", "brand": "USPS", "collection_times": "Mo-Fr 15:30; Sa 09:00", "name": "USPS COLLECTION BOX - PO LOBBY", "note": "ON 12/24 AND 12/31, THIS BOX MAY BE COLLECTED AS EARLY AS 12 NOON.", "ref": "7008000001"}, "type": "Feature"}
{"geometry": {"coordinates": [-90.437052992, 29.878853805], "type": "Point"}, "id": "7m7Aqhhl1uITh52j9Bfis1aM7C0=", "properties": {"@spider": "usps_collection_boxes", "addr:city": "PARADIS", "addr:country": "US", "addr:full": "508 FONDA ST", "addr:postcode": "70080", "addr:state": "LA", "brand": "USPS", "collection_times": "Mo-Fr 15:30; Sa 09:00", "name": "USPS COLLECTION BOX - BLUE BOX", "note": "ON 12/24 AND 12/31, THIS BOX MAY BE COLLECTED AS EARLY AS 12 NOON.", "ref": "7008000002"}, "type": "Feature"}
{"geometry": {"coordinates": [-90.437052992, 29.878853805], "type": "Point"}, "id": "6noFmmiXP86b1TqeOfewHTWi3v0=", "properties": {"@spider": "usps_collection_boxes", "addr:city": "PARADIS", "addr:country": "US", "addr:full": "508 FONDA ST", "addr:postcode": "70080", "addr:state": "LA", "brand": "USPS", "collection_times": "Mo-Fr 15:30", "name": "USPS COLLECTION BOX - PO LOBBY", "note": "ON 12/24 AND 12/31, THIS BOX MAY BE COLLECTED AS EARLY AS 12 NOON.", "ref": "7008000004"}, "type": "Feature"}
{"geometry": {"coordinates": [-89.79584353, 29.577869998], "type": "Point"}, "id": "S0tlUUN8SwJvvMUXf1AmHUNULEY=", "properties": {"@spider": "usps_collection_boxes", "addr:city": "POINTE A LA HACH", "addr:country": "US", "addr:full": "18039 HIGHWAY 15", "addr:postcode": "70082", "addr:state": "LA", "brand": "USPS", "collection_times": "Mo-Fr 15:15", "name": "USPS COLLECTION BOX - PO LOBBY", "note": "ON 12/24 AND 12/31, THIS BOX MAY BE COLLECTED AS EARLY AS 12 NOON.", "ref": "7008200008"}, "type": "Feature"}
{"geometry": {"coordinates": [-89.79584353, 29.577869998], "type": "Point"}, "id": "xxEILnRaGj8bQ9IOjxJaL2b0mR0=", "properties": {"@spider": "usps_collection_boxes", "addr:city": "POINTE A LA HACH", "addr:country": "US", "addr:full": "18039 HIGHWAY 15", "addr:postcode": "70082", "addr:state": "LA", "brand": "USPS", "collection_times": "Mo-Fr 15:15", "name": "USPS COLLECTION BOX - BLUE BOX", "note": "ON 12/24 AND 12/31, THIS BOX MAY BE COLLECTED AS EARLY AS 12 NOON.", "ref": "7008200009"}, "type": "Feature"}
{"geometry": {"coordinates": [-89.79584353, 29.577869998], "type": "Point"}, "id": "5K_8ZZNY2kSlLwva4B3pbFrtvOw=", "properties": {"@spider": "usps_collection_boxes", "addr:city": "POINTE A LA HACH", "addr:country": "US", "addr:full": "18039 HIGHWAY 15", "addr:postcode": "70082", "addr:state": "LA", "brand": "USPS", "collection_times": "Mo-Fr 15:15", "name": "USPS COLLECTION BOX - PO LOBBY", "note": "ON 12/24 AND 12/31, THIS BOX MAY BE COLLECTED AS EARLY AS 12 NOON.", "ref": "7008200010"}, "type": "Feature"}
{"geometry": {"coordinates": [-89.717100441, 29.501677784], "type": "Point"}, "id": "kOLWdRYgOo6dUY72XdIdT8GrWhw=", "properties": {"@spider": "usps_collection_boxes", "addr:city": "PORT SULPHUR", "addr:country": "US", "addr:full": "26852 HIGHWAY 23", "addr:postcode": "70083", "addr:state": "LA", "brand": "USPS", "collection_times": "Mo-Fr 15:45; Sa 10:30", "name": "USPS COLLECTION BOX - BLUE BOX", "note": "ON 12/24 AND 12/31, THIS BOX MAY BE COLLECTED AS EARLY AS 12 NOON.", "ref": "7008300006"}, "type": "Feature"}
{"geometry": {"coordinates": [-89.717100441, 29.501677784], "type": "Point"}, "id": "zHOx3XK54HMz0hz1TGTqjQufnrw=", "properties": {"@spider": "usps_collection_boxes", "addr:city": "PORT SULPHUR", "addr:country": "US", "addr:full": "26852 HIGHWAY 23", "addr:postcode": "70083", "addr:state": "LA", "brand": "USPS", "collection_times": "Mo-Fr 15:45; Sa 10:30", "name": "USPS COLLECTION BOX - PO LOBBY", "note": "ON 12/24 AND 12/31, THIS BOX MAY BE COLLECTED AS EARLY AS 12 NOON.", "ref": "7008300007"}, "type": "Feature"}
{"geometry": {"coordinates": [-89.717100441, 29.501677784], "type": "Point"}, "id": "33drTX76gmoH9PKppFrmlPf6-cs=", "properties": {"@spider": "usps_collection_boxes", "addr:city": "PORT SULPHUR", "addr:country": "US", "addr:full": "26852 HIGHWAY 23 STE A", "addr:postcode": "70083", "addr:state": "LA", "brand": "USPS", "collection_times": "Mo-Fr 16:00; Sa 11:00", "name": "USPS COLLECTION BOX - PO LOBBY", "note": "ON 12/24 AND 12/31, THIS BOX MAY BE COLLECTED AS EARLY AS 12 NOON.", "ref": "7008300008"}, "type": "Feature"}
{"geometry": {"coordinates": [-90.551642221, 30.054716078], "type": "Point"}, "id": "9-EvpGROL05uRUi4YTAvq5gw1mU=", "properties": {"@spider": "usps_collection_boxes", "addr:city": "RESERVE", "addr:country": "US", "addr:full": "129 CENTRAL AVE", "addr:postcode": "70084", "addr:state": "LA", "brand": "USPS", "collection_times": "Mo-Fr 16:00; Sa 09:00", "name": "USPS COLLECTION BOX - PO LOBBY", "note": "ON 12/24 AND 12/31, THIS BOX MAY BE COLLECTED AS EARLY AS 12 NOON.", "ref": "7008400001"}, "type": "Feature"}
{"geometry": {"coordinates": [-90.551642221, 30.054716078], "type": "Point"}, "id": "hf4gqIq8SrDi_hNGwDv7ZgriarA=", "properties": {"@spider": "usps_collection_boxes", "addr:city": "RESERVE", "addr:country": "US", "addr:full": "129 CENTRAL AVE", "addr:postcode": "70084", "addr:state": "LA", "brand": "USPS", "collection_times": "Mo-Fr 16:00", "name": "USPS COLLECTION BOX - PO LOBBY", "note": "ON 12/24 AND 12/31, THIS BOX MAY BE COLLECTED AS EARLY AS 12 NOON.", "ref": "7008400006"}, "type": "Feature"}
{"geometry": {"coordinates": [-89.864467851, 29.867566922], "type": "Point"}, "id": "DqkbdA_HcxgsV7BqU-Ch6fbfXdY=", "properties": {"@spider": "usps_collection_boxes", "addr:city": "SAINT BERNARD", "addr:country": "US", "addr:full": "1201 BAYOU RD", "addr:postcode": "70085", "addr:state": "LA", "brand": "USPS", "collection_times": "Mo-Fr 15:15; Sa 10:15", "name": "USPS COLLECTION BOX - PO LOBBY", "note": "ON 12/24 AND 12/31, THIS BOX MAY BE COLLECTED AS EARLY AS 12 NOON.", "ref": "7008500008"}, "type": "Feature"}
{"geometry": {"coordinates": [-89.864467851, 29.867566922], "type": "Point"}, "id": "LZxsOF_TOeK2d8g07E9WcYQJYrs=", "properties": {"@spider": "usps_collection_boxes", "addr:city": "SAINT BERNARD", "addr:country": "US", "addr:full": "1201 BAYOU RD", "addr:postcode": "70085", "addr:state": "LA", "brand": "USPS", "collection_times": "Mo-Fr 15:15; Sa 12:00", "name": "USPS COLLECTION BOX - PO LOBBY", "note": "ON 12/24 AND 12/31, THIS BOX MAY BE COLLECTED AS EARLY AS 12 NOON.", "ref": "7008500009"}, "type": "Feature"}
{"geometry": {"coordinates": [-90.28509029, 29.978711581], "type": "Point"}, "id": "QA4DVyi9l43nOmjRvOVSGainwp8=", "properties": {"@spider": "usps_collection_boxes", "addr:city": "SAINT ROSE", "addr:country": "US", "addr:full": "100 JAMES DR W", "addr:postcode": "70087", "addr:state": "LA", "brand": "USPS", "collection_times": "Mo-Fr 11:00; Sa 10:00", "name": "USPS COLLECTION BOX - BLUE BOX", "ref": "7008700007"}, "type": "Feature"}
{"geometry": {"coordinates": [-90.28509029, 29.978711581], "type": "Point"}, "id": "Ju2giIp497EGrgxwB0zXPhsGt6M=", "properties": {"@spider": "usps_collection_boxes", "addr:city": "SAINT ROSE", "addr:country": "US", "addr:full": "100 JAMES DR W", "addr:postcode": "70087", "addr:state": "LA", "brand": "USPS", "collection_times": "Mo-Fr 11:00; Sa 10:00", "name": "USPS COLLECTION BOX - BLUE BOX", "ref": "7008700008"}, "type": "Feature"}
{"geometry": {"coordinates": [-90.28509029, 29.978711581], "type": "Point"}, "id": "cbP5naFVy2k-okQqQpyhCBOt_qs=", "properties": {"@spider": "usps_collection_boxes", "addr:city": "SAINT ROSE", "addr:country": "US", "addr:full": "100 JAMES DR W", "addr:postcode": "70087", "addr:state": "LA", "brand": "USPS", "collection_times": "Mo-Fr 11:00; Sa 10:00", "name": "USPS COLLECTION BOX - BLUE BOX", "ref": "7008700009"}, "type": "Feature"}
{"geometry": {"coordinates": [-90.28509029, 29.978711581], "type": "Point"}, "id": "ZR0KGjuSkjZdPBLrAdhK8jv92yw=", "properties": {"@spider": "usps_collection_boxes", "addr:city": "SAINT ROSE", "addr:country": "US", "addr:full": "100 JAMES DR W", "addr:postcode": "70087", "addr:state": "LA", "brand": "USPS", "collection_times": "Mo-Fr 11:00; Sa 10:00", "name": "USPS COLLECTION BOX - BLUE BOX", "ref": "7008700010"}, "type": "Feature"}
{"geometry": {"coordinates": [-90.320633595, 29.943063166], "type": "Point"}, "id": "4oCBrg0s5P5XgOQ7_U7BwliUTiY=", "properties": {"@spider": "usps_collection_boxes", "addr:city": "SAINT ROSE", "addr:country": "US", "addr:full": "11724 RIVER RD", "addr:postcode": "70087", "addr:state": "LA", "brand": "USPS", "collection_times": "Mo-Fr 15:15; Sa 12:30", "name": "USPS COLLECTION BOX - BLUE BOX", "note": "ON 12/24 AND 12/31, THIS BOX MAY BE COLLECTED AS EARLY AS 12 NOON.", "ref": "7008700013"}, "type": "Feature"}
{"geometry": {"coordinates": [-90.320633595, 29.943063166], "type": "Point"}, "id": "372BtrSIurjzxjHoazALqAY18TU=", "properties": {"@spider": "usps_collection_boxes", "addr:city": "SAINT ROSE", "addr:country": "US", "addr:full": "11724 RIVER RD", "addr:postcode": "70087", "addr:state": "LA", "brand": "USPS", "collection_times": "Mo-Fr 15:15; Sa 12:30", "name": "USPS COLLECTION BOX - PO LOBBY", "note": "ON 12/24 AND 12/31, THIS BOX MAY BE COLLECTED AS EARLY AS 12 NOON.", "ref": "7008700015"}, "type": "Feature"}
{"geometry": {"coordinates": [-90.320633595, 29.943063166], "type": "Point"}, "id": "AFuCI-OZUG86QD2x0uUhbhWcZiw=", "properties": {"@spider": "usps_collection_boxes", "addr:city": "SAINT ROSE", "addr:country": "US", "addr:full": "11724 RIVER RD", "addr:postcode": "70087", "addr:state": "LA", "brand": "USPS", "collection_times": "Mo-Fr 16:00; Sa 12:00", "name": "USPS COLLECTION BOX - PO LOBBY", "note": "ON 12/24 AND 12/31, THIS BOX MAY BE COLLECTED AS EARLY AS 12 NOON.", "ref": "7008700017"}, "type": "Feature"}
{"geometry": {"coordinates": [-90.7231995, 29.990547], "type": "Point"}, "id": "mnwn7UZtUnMmoiMuZU1b2YPfQm8=", "properties": {"@spider": "usps_collection_boxes", "addr:city": "VACHERIE", "addr:country": "US", "addr:full": "2747 HIGHWAY 20", "addr:postcode": "70090", "addr:state": "LA", "brand": "USPS", "collection_times": "Mo-Fr 15:45; Sa 10:00", "name": "USPS COLLECTION BOX - BLUE BOX", "note": "ON 12/24 AND 12/31, THIS BOX MAY BE COLLECTED AS EARLY AS 12 NOON.", "ref": "7009000001"}, "type": "Feature"}
{"geometry": {"coordinates": [-90.7231995, 29.990547], "type": "Point"}, "id": "yZMdHTnFejXfonj4Lg9JU4lZCIY=", "properties": {"@spider": "usps_collection_boxes", "addr:city": "VACHERIE", "addr:country": "US", "addr:full": "2747 HIGHWAY 20", "addr:postcode": "70090", "addr:state": "LA", "brand": "USPS", "collection_times": "Mo-Fr 15:45; Sa 10:00", "name": "USPS COLLECTION BOX - PO LOBBY", "note": "ON 12/24 AND 12/31, THIS BOX MAY BE COLLECTED AS EARLY AS 12 NOON.", "ref": "7009000005"}, "type": "Feature"}
{"geometry": {"coordinates": [-90.7231995, 29.990547], "type": "Point"}, "id": "Ajz79OMkYzei13fnJTMPjSztnUM=", "properties": {"@spider": "usps_collection_boxes", "addr:city": "VACHERIE", "addr:country": "US", "addr:full": "2747 HIGHWAY 20", "addr:postcode": "70090", "addr:state": "LA", "brand": "USPS", "collection_times": "Mo-Fr 15:45; Sa 10:00", "name": "USPS COLLECTION BOX - PO LOBBY", "note": "ON 12/24 AND 12/31, THIS BOX MAY BE COLLECTED AS EARLY AS 12 NOON.", "ref": "7009000006"}, "type": "Feature"}
{"geometry": {"coordinates": [-90.7231995, 29.990547], "type": "Point"}, "id": "trvIVIufn_v_ORebvSE3p8dvZ6c=", "properties": {"@spider": "usps_collection_boxes", "addr:city": "VACHERIE", "addr:country": "US", "addr:full": "2747 HIGHWAY 20", "addr:postcode": "70090", "addr:state": "LA", "brand": "USPS", "collection_times": "Mo-Fr 16:00; Sa 10:00", "name": "USPS COLLECTION BOX - PO LOBBY", "note": "ON 12/24 AND 12/31, THIS BOX MAY BE COLLECTED AS EARLY AS 12 NOON.", "ref": "7009000009"}, "type": "Feature"}
{"geometry": {"coordinates": [-90.157607596, 29.905454651], "type": "Point"}, "id": "LEm7_DztJLVaPG_DGYxkhi8D9Vw=", "properties": {"@spider": "usps_collection_boxes", "addr:city": "WESTWEGO", "addr:country": "US", "addr:full": "1335 WESTBANK EXPY", "addr:postcode": "70094", "addr:state": "LA", "brand": "USPS", "collection_times": "Mo-Fr 17:00; Sa 16:00", "name": "USPS COLLECTION BOX - BLUE BOX", "note": "ON 12/24 AND 12/31, THIS BOX MAY BE COLLECTED AS EARLY AS 12 NOON.", "ref": "7009400002"}, "type": "Feature"}
{"geometry": {"coordinates": [-90.157607596, 29.905454651], "type": "Point"}, "id": "yWlHArVT3wyKlkh76PHl-CLfzbs=", "properties": {"@spider": "usps_collection_boxes", "addr:city": "WESTWEGO", "addr:country": "US", "addr:full": "1335 WESTBANK EXPY", "addr:postcode": "70094", "addr:state": "LA", "brand": "USPS", "collection_times": "Mo-Fr 17:00; Sa 16:00", "name": "USPS COLLECTION BOX - PO LOBBY", "note": "ON 12/24 AND 12/31, THIS BOX MAY BE COLLECTED AS EARLY AS 12 NOON.", "ref": "7009400014"}, "type": "Feature"}
{"geometry": {"coordinates": [-90.169459853, 29.929977181], "type": "Point"}, "id": "VqDTM4cTlQOlNaDZxSHQZQ4v_eA=", "properties": {"@spider": "usps_collection_boxes", "addr:city": "WESTWEGO", "addr:country": "US", "addr:full": "1507 BRIDGE CITY AVE", "addr:postcode": "70094", "addr:state": "LA", "brand": "USPS", "collection_times": "Mo-Fr 15:45; Sa 13:00", "name": "USPS COLLECTION BOX - BLUE BOX", "note": "ON 12/24 AND 12/31, THIS BOX MAY BE COLLECTED AS EARLY AS 12 NOON.", "ref": "7009400019"}, "type": "Feature"}
{"geometry": {"coordinates": [-90.169459853, 29.929977181], "type": "Point"}, "id": "3F6Eg0lnZ_XhRDjBt2Qs0T5T2BM=", "properties": {"@spider": "usps_collection_boxes", "addr:city": "WESTWEGO", "addr:country": "US", "addr:full": "1507 BRIDGE CITY AVE", "addr:postcode": "70094", "addr:state": "LA", "brand": "USPS", "collection_times": "Mo-Fr 15:45", "name": "USPS COLLECTION BOX - PO LOBBY", "note": "ON 12/24 AND 12/31, THIS BOX MAY BE COLLECTED AS EARLY AS 12 NOON.", "ref": "7009400021"}, "type": "Feature"}
{"geometry": {"coordinates": [-90.157607596, 29.905454651], "type": "Point"}, "id": "I-LizWkPkSE2g3R4lyxMwkwlm7U=", "properties": {"@spider": "usps_collection_boxes", "addr:city": "WESTWEGO", "addr:country": "US", "addr:full": "1335 WESTBANK EXPY", "addr:postcode": "70094", "addr:state": "LA", "brand": "USPS", "collection_times": "Mo-Fr 17:00; Sa 16:00", "name": "USPS COLLECTION BOX - BLUE BOX", "note": "ON 12/24 AND 12/31, THIS BOX MAY BE COLLECTED AS EARLY AS 12 NOON.", "ref": "7009400024"}, "type": "Feature"}
{"geometry": {"coordinates": [-90.136915095, 29.904729531], "type": "Point"}, "id": "kvT34DXc7BQHll4_juWGYi5BBPk=", "properties": {"@spider": "usps_collection_boxes", "addr:city": "WESTWEGO", "addr:country": "US", "addr:full": "1100 FOURTH ST", "addr:postcode": "70094", "addr:state": "LA", "brand": "USPS", "collection_times": "Mo-Sa 15:30", "name": "USPS COLLECTION BOX - BLUE BOX", "note": "ON 12/24 AND 12/31, THIS BOX MAY BE COLLECTED AS EARLY AS 12 NOON.", "ref": "7009400025"}, "type": "Feature"}
{"geometry": {"coordinates": [-90.169459853, 29.929977181], "type": "Point"}, "id": "7ojcDr15wEVaIsvSybgDIkCI83w=", "properties": {"@spider": "usps_collection_boxes", "addr:city": "WESTWEGO", "addr:country": "US", "addr:full": "1507 BRIDGE CITY AVE", "addr:postcode": "70094", "addr:state": "LA", "brand": "USPS", "collection_times": "Mo-Fr 15:45", "name": "USPS COLLECTION BOX - PO LOBBY", "note": "ON 12/24 AND 12/31, THIS BOX MAY BE COLLECTED AS EARLY AS 12 NOON.", "ref": "7009400028"}, "type": "Feature"}
{"geometry": {"coordinates": [-90.157607596, 29.905454651], "type": "Point"}, "id": "Db1lAfxqSLhf_MzZrU53oPAyic8=", "properties": {"@spider": "usps_collection_boxes", "addr:city": "WESTWEGO", "addr:country": "US", "addr:full": "1335 WESTBANK EXPY", "addr:postcode": "70094", "addr:state": "LA", "brand": "USPS", "collection_times": "Mo-Fr 16:30; Sa 12:00", "name": "USPS COLLECTION BOX - PO LOBBY", "note": "ON 12/24 AND 12/31, THIS BOX MAY BE COLLECTED AS EARLY AS 12 NOON.", "ref": "7009400029"}, "type": "Feature"}
