{"dataset_attributes": {"@spider": "usps_collection_boxes"}, "geometry": {"coordinates": [-90.078346026, 29.947785004], "type": "Point"}, "id": "Bb4wNqxkfqwAmuSTmd_ToiEugjs=", "properties": {"@spider": "usps_collection_boxes", "addr:city": "NEW ORLEANS", "addr:country": "US", "addr:full": "701 LOYOLA AVE", "addr:postcode": "70113", "addr:state": "LA", "amenity": "post_box", "brand": "United States Postal Service", "brand:wikidata": "Q668687", "collection_times": "Mo-Fr 19:00; Sa 18:00", "name": "USPS COLLECTION BOX - BLUE BOX", "note": "ON 12/24 AND 12/31, THIS BOX MAY BE COLLECTED AS EARLY AS 12 NOON.", "nsi_id": "unitedstatespostalservice-a77078", "operator": "United States Postal Service", "operator:short": "USPS", "operator:type": "public", "operator:wikidata": "Q668687", "ref": "7011300026"}, "type": "Feature"}
{"dataset_attributes": {"@spider": "usps_collection_boxes"}, "geometry": {"coordinates": [-90.078346026, 29.947785004], "type": "Point"}, "id": "8wRIJnyOeKKQPuh0frLFxcQsqrw=", "properties": {"@spider": "usps_collection_boxes", "addr:city": "NEW ORLEANS", "addr:country": "US", "addr:full": "701 LOYOLA AVE", "addr:postcode": "70113", "addr:state": "LA", "amenity": "post_box", "brand": "United States Postal Service", "brand:wikidata": "Q668687", "collection_times": "Mo-Fr 19:00; Sa 18:00", "name": "USPS COLLECTION BOX - BLUE BOX", "note": "ON 12/24 AND 12/31, THIS BOX MAY BE COLLECTED AS EARLY AS 12 NOON.", "nsi_id": "unitedstatespostalservice-a77078", "operator": "United States Postal Service", "operator:short": "USPS", "operator:type": "public", "operator:wikidata": "Q668687", "ref": "7011300033"}, "type": "Feature"}
{"dataset_attributes": {"@spider": "usps_collection_boxes"}, "geometry": {"coordinates": [-90.078346026, 29.947785004], "type": "Point"}, "id": "R9thCO6mcTdjXAZfji33fQH99zY=", "properties": {"@spider": "usps_collection_boxes", "addr:city": "NEW ORLEANS", "addr:country": "US", "addr:full": "701 LOYOLA AVE", "addr:postcode": "70113", "addr:state": "LA", "amenity": "post_box", "brand": "United States Postal Service", "brand:wikidata": "Q668687", "collection_times": "Mo-Fr 19:00; Sa 18:00", "name": "USPS COLLECTION BOX - BLUE BOX", "note": "ON 12/24 AND 12/31, THIS BOX MAY BE COLLECTED AS EARLY AS 12 NOON.", "nsi_id": "unitedstatespostalservice-a77078", "operator": "United States Postal Service", "operator:short": "USPS", "operator:type": "public", "operator:wikidata": "Q668687", "ref": "7011300087"}, "type": "Feature"}
{"dataset_attributes": {"@spider": "usps_collection_boxes"}, "geometry": {"coordinates": [-90.078346026, 29.947785004], "type": "Point"}, "id": "rYuWjccKJrRnqTT9Z4jVElRPMWc=", "properties": {"@spider": "usps_collection_boxes", "addr:city": "NEW ORLEANS", "addr:country": "US", "addr:full": "701 LOYOLA AVE", "addr:postcode": "70113", "addr:state": "LA", "amenity": "post_box", "brand": "United States Postal Service", "brand:wikidata": "Q668687", "collection_times": "Mo-Fr 19:00; Sa 18:00", "name": "USPS COLLECTION BOX - PO LOBBY", "note": "ON 12/24 AND 12/31, THIS BOX MAY BE COLLECTED AS EARLY AS 12 NOON.", "nsi_id": "unitedstatespostalservice-a77078", "operator": "United States Postal Service", "operator:short": "USPS", "operator:type": "public", "operator:wikidata": "Q668687", "ref": "7011300108"}, "type": "Feature"}
{"dataset_attributes": {"@spider": "usps_collection_boxes"}, "geometry": {"coordinates": [-90.078346026, 29.947785004], "type": "Point"}, "id": "hClt4Qf6KbqG8UDsnndDZmzjEB8=", "properties": {"@spider": "usps_collection_boxes", "addr:city": "NEW ORLEANS", "addr:country": "US", "addr:full": "701 LOYOLA AVE", "addr:postcode": "70113", "addr:state": "LA", "amenity": "post_box", "brand": "United States Postal Service", "brand:wikidata": "Q668687", "collection_times": "Mo-Fr 19:00; Sa 18:00", "name": "USPS COLLECTION BOX - PO LOBBY", "note": "ON 12/24 AND 12/31, THIS BOX MAY BE COLLECTED AS EARLY AS 12 NOON.", "nsi_id": "unitedstatespostalservice-a77078", "operator": "United States Postal Service", "operator:short": "USPS", "operator:type": "public", "operator:wikidata": "Q668687", "ref": "7011300109"}, "type": "Feature"}
{"dataset_attributes": {"@spider": "usps_collection_boxes"}, "geometry": {"coordinates": [-90.078346026, 29.947785004], "type": "Point"}, "id": "hb9I5KXviVQbEqA9g2wgp6ZHHdU=", "properties": {"@spider": "usps_collection_boxes", "addr:city": "NEW ORLEANS", "addr:country": "US", "addr:full": "701 LOYOLA AVE", "addr:postcode": "70113", "addr:state": "LA", "amenity": "post_box", "brand": "United States Postal Service", "brand:wikidata": "Q668687", "collection_times": "Mo-Fr 19:00; Sa 18:00", "name": "USPS COLLECTION BOX - PO LOBBY", "note": "ON 12/24 AND 12/31, THIS BOX MAY BE COLLECTED AS EARLY AS 12 NOON.", "nsi_id": "unitedstatespostalservice-a77078", "operator": "United States Postal Service", "operator:short": "USPS", "operator:type": "public", "operator:wikidata": "Q668687", "ref": "7011300110"}, "type": "Feature"}
{"dataset_attributes": {"@spider": "usps_collection_boxes"}, "geometry": {"coordinates": [-90.078346026, 29.947785004], "type": "Point"}, "id": "7UEWc1IUvbxXdWX3kvy5isO_5DM=", "properties": {"@spider": "usps_collection_boxes", "addr:city": "NEW ORLEANS", "addr:country": "US", "addr:full": "701 LOYOLA AVE", "addr:postcode": "70113", "addr:state": "LA", "amenity": "post_box", "brand": "United States Postal Service", "brand:wikidata": "Q668687", "collection_times": "Mo-Fr 19:00; Sa 18:00", "name": "USPS COLLECTION BOX - PO LOBBY", "note": "ON 12/24 AND 12/31, THIS BOX MAY BE COLLECTED AS EARLY AS 12 NOON.", "nsi_id": "unitedstatespostalservice-a77078", "operator": "United States Postal Service", "operator:short": "USPS", "operator:type": "public", "operator:wikidata": "Q668687", "ref": "7011300111"}, "type": "Feature"}
{"dataset_attributes": {"@spider": "usps_collection_boxes"}, "geometry": {"coordinates": [-90.078346026, 29.947785004], "type": "Point"}, "id": "tZHsAjG-A3qiv7OFIuF1OGkgr5Q=", "properties": {"@spider": "usps_collection_boxes", "addr:city": "NEW ORLEANS", "addr:country": "US", "addr:full": "701 LOYOLA AVE", "addr:postcode": "70113", "addr:state": "LA", "amenity": "post_box", "brand": "United States Postal Service", "brand:wikidata": "Q668687", "collection_times": "Mo-Fr 19:00; Sa 18:00", "name": "USPS COLLECTION BOX - APC", "note": "ON 12/24 AND 12/31, THIS BOX MAY BE COLLECTED AS EARLY AS 12 NOON.", "nsi_id": "unitedstatespostalservice-a77078", "operator": "United States Postal Service", "operator:short": "USPS", "operator:type": "public", "operator:wikidata": "Q668687", "ref": "7011300113"}, "type": "Feature"}
{"dataset_attributes": {"@spider": "usps_collection_boxes"}, "geometry": {"coordinates": [-90.0159170246, 29.9239399982], "type": "Point"}, "id": "Uhq2IUvfcgbIXhxjUKwjxawgvhU=", "properties": {"@spider": "usps_collection_boxes", "addr:city": "NEW ORLEANS", "addr:country": "US", "addr:full": "3901 MACARTHUR BLVD", "addr:postcode": "70114", "addr:state": "LA", "amenity": "post_box", "brand": "United States Postal Service", "brand:wikidata": "Q668687", "collection_times": "Mo-Fr 17:00; Sa 15:15", "name": "USPS COLLECTION BOX - BLUE BOX", "note": "ON 12/24 AND 12/31, THIS BOX MAY BE COLLECTED AS EARLY AS 12 NOON.", "nsi_id": "unitedstatespostalservice-a77078", "operator": "United States Postal Service", "operator:short": "USPS", "operator:type": "public", "operator:wikidata": "Q668687", "ref": "7011400033"}, "type": "Feature"}
{"dataset_attributes": {"@spider": "usps_collection_boxes"}, "geometry": {"coordinates": [-90.0159170246, 29.9239399982], "type": "Point"}, "id": "P6L8Qf07RAddYrb81_02P9ami7c=", "properties": {"@spider": "usps_collection_boxes", "addr:city": "NEW ORLEANS", "addr:country": "US", "addr:full": "3901 MACARTHUR BLVD", "addr:postcode": "70114", "addr:state": "LA", "amenity": "post_box", "brand": "United States Postal Service", "brand:wikidata": "Q668687", "collection_times": "Mo-Fr 17:00; Sa 15:15", "name": "USPS COLLECTION BOX - BLUE BOX", "note": "ON 12/24 AND 12/31, THIS BOX MAY BE COLLECTED AS EARLY AS 12 NOON.", "nsi_id": "unitedstatespostalservice-a77078", "operator": "United States Postal Service", "operator:short": "USPS", "operator:type": "public", "operator:wikidata": "Q668687", "ref": "7011400034"}, "type": "Feature"}
{"dataset_attributes": {"@spider": "usps_collection_boxes"}, "geometry": {"coordinates": [-90.0159170246, 29.9239399982], "type": "Point"}, "id": "ptgAH6ooO0re6roK1XMOoJXQmgQ=", "properties": {"@spider": "usps_collection_boxes", "addr:city": "NEW ORLEANS", "addr:country": "US", "addr:full": "3901 MACARTHUR BLVD", "addr:postcode": "70114", "addr:state": "LA", "amenity": "post_box", "brand": "United States Postal Service", "brand:wikidata": "Q668687", "collection_times": "Mo-Fr 17:00; Sa 15:15", "name": "USPS COLLECTION BOX - PO LOBBY", "note": "ON 12/24 AND 12/31, THIS BOX MAY BE COLLECTED AS EARLY AS 12 NOON.", "nsi_id": "unitedstatespostalservice-a77078", "operator": "United States Postal Service", "operator:short": "USPS", "operator:type": "public", "operator:wikidata": "Q668687", "ref": "7011400037"}, "type": "Feature"}
{"dataset_attributes": {"@spider": "usps_collection_boxes"}, "geometry": {"coordinates": [-90.0159170246, 29.9239399982], "type": "Point"}, "id": "vXobiflk1bEKZwu5OnobOvmgE0k=", "properties": {"@spider": "usps_collection_boxes", "addr:city": "NEW ORLEANS", "addr:country": "US", "addr:full": "3901 MACARTHUR BLVD", "addr:postcode": "70114", "addr:state": "LA", "amenity": "post_box", "brand": "United States Postal Service", "brand:wikidata": "Q668687", "collection_times": "Mo-Fr 17:00; Sa 15:15", "name": "USPS COLLECTION BOX - PO LOBBY", "note": "ON 12/24 AND 12/31, THIS BOX MAY BE COLLECTED AS EARLY AS 12 NOON.", "nsi_id": "unitedstatespostalservice-a77078", "operator": "United States Postal Service", "operator:short": "USPS", "operator:type": "public", "operator:wikidata": "Q668687", "ref": "7011400038"}, "type": "Feature"}
{"dataset_attributes": {"@spider": "usps_collection_boxes"}, "geometry": {"coordinates": [-90.015917025, 29.923939998], "type": "Point"}, "id": "nIobBSV4-1Lb5CYotu_y5LSmLAI=", "properties": {"@spider": "usps_collection_boxes", "addr:city": "NEW ORLEANS", "addr:country": "US", "addr:full": "3901 MACARTHUR BLVD", "addr:postcode": "70114", "addr:state": "LA", "amenity": "post_box", "brand": "United States Postal Service", "brand:wikidata": "Q668687", "collection_times": "Mo-Fr 17:00; Sa 15:15", "name": "USPS COLLECTION BOX - BLUE BOX", "note": "ON 12/24 AND 12/31, THIS BOX MAY BE COLLECTED AS EARLY AS 12 NOON.", "nsi_id": "unitedstatespostalservice-a77078", "operator": "United States Postal Service", "operator:short": "USPS", "operator:type": "public", "operator:wikidata": "Q668687", "ref": "7011400041"}, "type": "Feature"}
{"dataset_attributes": {"@spider": "usps_collection_boxes"}, "geometry": {"coordinates": [-90.015917025, 29.923939998], "type": "Point"}, "id": "XVfQT0fE_Ie0rEpzloIK7mn0A9A=", "properties": {"@spider": "usps_collection_boxes", "addr:city": "NEW ORLEANS", "addr:country": "US", "addr:full": "3901 MACARTHUR BLVD", "addr:postcode": "70114", "addr:state": "LA", "amenity": "post_box", "brand": "United States Postal Service", "brand:wikidata": "Q668687", "collection_times": "Mo-Fr 17:00; Sa 15:15", "name": "USPS COLLECTION BOX - BLUE BOX", "note": "ON 12/24 AND 12/31, THIS BOX MAY BE COLLECTED AS EARLY AS 12 NOON.", "nsi_id": "unitedstatespostalservice-a77078", "operator": "United States Postal Service", "operator:short": "USPS", "operator:type": "public", "operator:wikidata": "Q668687", "ref": "7011400042"}, "type": "Feature"}
{"dataset_attributes": {"@spider": "usps_collection_boxes"}, "geometry": {"coordinates": [-90.015917025, 29.923939998], "type": "Point"}, "id": "N1MqEMfcPt4iCKlWrpbi4YCETlo=", "properties": {"@spider": "usps_collection_boxes", "addr:city": "NEW ORLEANS", "addr:country": "US", "addr:full": "3901 MACARTHUR BLVD", "addr:postcode": "70114", "addr:state": "LA", "amenity": "post_box", "brand": "United States Postal Service", "brand:wikidata": "Q668687", "collection_times": "Mo-Fr 17:00; Sa 12:00", "name": "USPS COLLECTION BOX - PO LOBBY", "note": "ON 12/24 AND 12/31, THIS BOX MAY BE COLLECTED AS EARLY AS 12 NOON.", "nsi_id": "unitedstatespostalservice-a77078", "operator": "United States Postal Service", "operator:short": "USPS", "operator:type": "public", "operator:wikidata": "Q668687", "ref": "7011400049"}, "type": "Feature"}
