{"geometry": {"coordinates": [-90.82128712, 29.791302726], "type": "Point"}, "id": "7GkWFATO-n7145HkNEOlP1lM6l8=", "properties": {"@spider": "usps_collection_boxes", "addr:city": "THIBODAUX", "addr:country": "US", "addr:full": "910 CANAL BLVD", "addr:postcode": "70301", "addr:state": "LA", "brand": "USPS", "collection_times": "Mo-Fr 17:00; Sa 16:00", "name": "USPS COLLECTION BOX - BLUE BOX", "note": "ON 12/24 AND 12/31, THIS BOX MAY BE COLLECTED AS EARLY AS 12 NOON.", "ref": "7030100002"}, "type": "Feature"}
{"geometry": {"coordinates": [-90.819525075, 29.79812657], "type": "Point"}, "id": "NLVspBvRWhCLL59i8fj5qu2A5pY=", "properties": {"@spider": "usps_collection_boxes", "addr:city": "THIBODAUX", "addr:country": "US", "addr:full": "310 W 2ND ST", "addr:postcode": "70301", "addr:state": "LA", "brand": "USPS", "collection_times": "Mo-Fr 14:00", "name": "USPS COLLECTION BOX - BLUE BOX", "note": "ON 12/24 AND 12/31, THIS BOX MAY BE COLLECTED AS EARLY AS 12 NOON.", "ref": "7030100011"}, "type": "Feature"}
{"geometry": {"coordinates": [-90.82128712, 29.791302726], "type": "Point"}, "id": "pDMBM5Y97jEth7ZfuD0Df4jR81E=", "properties": {"@spider": "usps_collection_boxes", "addr:city": "THIBODAUX", "addr:country": "US", "addr:full": "910 CANAL BLVD", "addr:postcode": "70301", "addr:state": "LA", "brand": "USPS", "collection_times": "Mo-Fr 17:00; Sa 16:00", "name": "USPS COLLECTION BOX - PO LOBBY", "note": "ON 12/24 AND 12/31, THIS BOX MAY BE COLLECTED AS EARLY AS 12 NOON.", "ref": "7030100028"}, "type": "Feature"}
{"geometry": {"coordinates": [-90.82128712, 29.791302726], "type": "Point"}, "id": "eqen09GFnY4FRb9v_6WP2J_wF-w=", "properties": {"@spider": "usps_collection_boxes", "addr:city": "THIBODAUX", "addr:country": "US", "addr:full": "910 CANAL BLVD", "addr:postcode": "70301", "addr:state": "LA", "brand": "USPS", "collection_times": "Mo-Fr 17:00; Sa 16:00", "name": "USPS COLLECTION BOX - PO LOBBY", "note": "ON 12/24 AND 12/31, THIS BOX MAY BE COLLECTED AS EARLY AS 12 NOON.", "ref": "7030100029"}, "type": "Feature"}
{"geometry": {"coordinates": [-90.82128712, 29.791302726], "type": "Point"}, "id": "OGdMo2ZGCRli3K0fY3QKklsClDA=", "properties": {"@spider": "usps_collection_boxes", "addr:city": "THIBODAUX", "addr:country": "US", "addr:full": "910 CANAL BLVD", "addr:postcode": "70301", "addr:state": "LA", "brand": "USPS", "collection_times": "Mo-Fr 17:00; Sa 16:00", "name": "USPS COLLECTION BOX - BLUE BOX", "note": "ON 12/24 AND 12/31, THIS BOX MAY BE COLLECTED AS EARLY AS 12 NOON.", "ref": "7030100036"}, "type": "Feature"}
{"geometry": {"coordinates": [-90.82128712, 29.791302726], "type": "Point"}, "id": "2UXxu6MepBIUz8UGN1DVbcoS7uI=", "properties": {"@spider": "usps_collection_boxes", "addr:city": "THIBODAUX", "addr:country": "US", "addr:full": "910 CANAL BLVD", "addr:postcode": "70301", "addr:state": "LA", "brand": "USPS", "collection_times": "Mo-Fr 17:00; Sa 16:00", "name": "USPS COLLECTION BOX - BLUE BOX", "note": "ON 12/24 AND 12/31, THIS BOX MAY BE COLLECTED AS EARLY AS 12 NOON.", "ref": "7030100037"}, "type": "Feature"}
{"geometry": {"coordinates": [-90.82128712, 29.791302726], "type": "Point"}, "id": "0aYgknbnJUxDc4xGKSI527xw-Sw=", "properties": {"@spider": "usps_collection_boxes", "addr:city": "THIBODAUX", "addr:country": "US", "addr:full": "910 CANAL BLVD", "addr:postcode": "70301", "addr:state": "LA", "brand": "USPS", "collection_times": "Mo-Fr 17:00; Sa 16:00", "name": "USPS COLLECTION BOX - BLUE BOX", "note": "ON 12/24 AND 12/31, THIS BOX MAY BE COLLECTED AS EARLY AS 12 NOON.", "ref": "7030100038"}, "type": "Feature"}
{"geometry": {"coordinates": [-90.82128712, 29.791302726], "type": "Point"}, "id": "QT4VpPTjH4v5mv-8_2I6TsNwNF8=", "properties": {"@spider": "usps_collection_boxes", "addr:city": "THIBODAUX", "addr:country": "US", "addr:full": "910 CANAL BLVD", "addr:postcode": "70301", "addr:state": "LA", "brand": "USPS", "collection_times": "Mo-Fr 16:30; Sa 12:00", "name": "USPS COLLECTION BOX - PO LOBBY", "note": "ON 12/24 AND 12/31, THIS BOX MAY BE COLLECTED AS EARLY AS 12 NOON.", "ref": "7030100041"}, "type": "Feature"}
{"geometry": {"coordinates": [-91.212846746, 29.954106251], "type": "Point"}, "id": "1HPtaA4Gs0HMr_yEtDjHnoTL01o=", "properties": {"@spider": "usps_collection_boxes", "addr:city": "PIERRE PART", "addr:country": "US", "addr:full": "3511 HIGHWAY 70 S", "addr:postcode": "70339", "addr:state": "LA", "brand": "USPS", "collection_times": "Mo-Fr 15:30; Sa 09:30", "name": "USPS COLLECTION BOX - BLUE BOX", "note": "ON 12/24 AND 12/31, THIS BOX MAY BE COLLECTED AS EARLY AS 12 NOON.", "ref": "7033900002"}, "type": "Feature"}
{"geometry": {"coordinates": [-91.212846746, 29.954106251], "type": "Point"}, "id": "0RGuOF3hbxW_FrB1ZlYRIU44VdQ=", "properties": {"@spider": "usps_collection_boxes", "addr:city": "PIERRE PART", "addr:country": "US", "addr:full": "3511 HIGHWAY 70 S", "addr:postcode": "70339", "addr:state": "LA", "brand": "USPS", "collection_times": "Mo-Fr 15:30; Sa 09:30", "name": "USPS COLLECTION BOX - PO LOBBY", "note": "ON 12/24 AND 12/31, THIS BOX MAY BE COLLECTED AS EARLY AS 12 NOON.", "ref": "7033900005"}, "type": "Feature"}
{"geometry": {"coordinates": [-91.212846746, 29.954106251], "type": "Point"}, "id": "FRe-d-fLbb-87J5gbOQk6UTb8xQ=", "properties": {"@spider": "usps_collection_boxes", "addr:city": "PIERRE PART", "addr:country": "US", "addr:full": "3511 HIGHWAY 70 S", "addr:postcode": "70339", "addr:state": "LA", "brand": "USPS", "collection_times": "Mo-Fr 16:00", "name": "USPS COLLECTION BOX - PO LOBBY", "note": "ON 12/24 AND 12/31, THIS BOX MAY BE COLLECTED AS EARLY AS 12 NOON.", "ref": "7033900006"}, "type": "Feature"}
{"geometry": {"coordinates": [-91.10531738, 29.662841896], "type": "Point"}, "id": "pIDZQUVMI_ZgD6xzmP5Dkvyh_lI=", "properties": {"@spider": "usps_collection_boxes", "addr:city": "AMELIA", "addr:country": "US", "addr:full": "119 FRANCIS ST", "addr:postcode": "70340", "addr:state": "LA", "brand": "USPS", "collection_times": "Mo-Fr 15:30; Sa 09:45", "name": "USPS COLLECTION BOX - BLUE BOX", "note": "ON 12/24 AND 12/31, THIS BOX MAY BE COLLECTED AS EARLY AS 12 NOON.", "ref": "7034000001"}, "type": "Feature"}
{"geometry": {"coordinates": [-91.10531738, 29.662841896], "type": "Point"}, "id": "1QwFChjynfLb4N_TKiSlnMksXVo=", "properties": {"@spider": "usps_collection_boxes", "addr:city": "AMELIA", "addr:country": "US", "addr:full": "119 FRANCIS ST", "addr:postcode": "70340", "addr:state": "LA", "brand": "USPS", "collection_times": "Mo-Fr 16:00; Sa 09:45", "name": "USPS COLLECTION BOX - PO LOBBY", "note": "ON 12/24 AND 12/31, THIS BOX MAY BE COLLECTED AS EARLY AS 12 NOON.", "ref": "7034000002"}, "type": "Feature"}
{"geometry": {"coordinates": [-91.10531738, 29.662841896], "type": "Point"}, "id": "uX3mkBH-I3FGN_jEVYLVN884p1M=", "properties": {"@spider": "usps_collection_boxes", "addr:city": "AMELIA", "addr:country": "US", "addr:full": "119 FRANCIS ST", "addr:postcode": "70340", "addr:state": "LA", "brand": "USPS", "collection_times": "Mo-Fr 16:00", "name": "USPS COLLECTION BOX - PO LOBBY", "note": "ON 12/24 AND 12/31, THIS BOX MAY BE COLLECTED AS EARLY AS 12 NOON.", "ref": "7034000004"}, "type": "Feature"}
{"geometry": {"coordinates": [-91.041377517, 30.050484073], "type": "Point"}, "id": "oFKGv1wJq3PvzjfdKiPebOGORMU=", "properties": {"@spider": "usps_collection_boxes", "addr:city": "BELLE ROSE", "addr:country": "US", "addr:full": "7101 HIGHWAY 1", "addr:postcode": "70341", "addr:state": "LA", "brand": "USPS", "collection_times": "Mo-Fr 15:30; Sa 09:00", "name": "USPS COLLECTION BOX - BLUE BOX", "note": "ON 12/24 AND 12/31, THIS BOX MAY BE COLLECTED AS EARLY AS 12 NOON.", "ref": "7034100001"}, "type": "Feature"}
{"geometry": {"coordinates": [-91.041377517, 30.050484073], "type": "Point"}, "id": "DKINarK4cPZ-pq5RE8BEDVueqJo=", "properties": {"@spider": "usps_collection_boxes", "addr:city": "BELLE ROSE", "addr:country": "US", "addr:full": "7101 HIGHWAY 1", "addr:postcode": "70341", "addr:state": "LA", "brand": "USPS", "collection_times": "Mo-Fr 15:30; Sa 09:00", "name": "USPS COLLECTION BOX - PO LOBBY", "note": "ON 12/24 AND 12/31, THIS BOX MAY BE COLLECTED AS EARLY AS 12 NOON.", "ref": "7034100003"}, "type": "Feature"}
{"geometry": {"coordinates": [-91.041377517, 30.050484073], "type": "Point"}, "id": "QG2GzrwUQ997vPB-ZPNPuTRoLWU=", "properties": {"@spider": "usps_collection_boxes", "addr:city": "BELLE ROSE", "addr:country": "US", "addr:full": "7101 HIGHWAY 1", "addr:postcode": "70341", "addr:state": "LA", "brand": "USPS", "collection_times": "Mo-Fr 16:00", "name": "USPS COLLECTION BOX - PO LOBBY", "note": "ON 12/24 AND 12/31, THIS BOX MAY BE COLLECTED AS EARLY AS 12 NOON.", "ref": "7034100004"}, "type": "Feature"}
{"geometry": {"coordinates": [-91.229423333, 29.700015317], "type": "Point"}, "id": "OVrc06pK35_o0XgfeQ5fbYNQ3VI=", "properties": {"@spider": "usps_collection_boxes", "addr:city": "BERWICK", "addr:country": "US", "addr:full": "101 GILMORE DR", "addr:postcode": "70342", "addr:state": "LA", "brand": "USPS", "collection_times": "Mo-Fr 16:00; Sa 12:00", "name": "USPS COLLECTION BOX - BLUE BOX", "note": "ON 12/24 AND 12/31, THIS BOX MAY BE COLLECTED AS EARLY AS 12 NOON.", "ref": "7034200001"}, "type": "Feature"}
{"geometry": {"coordinates": [-91.229423333, 29.700015317], "type": "Point"}, "id": "6Nc3-fOoCF9ai3u4NhHjSdrIvaY=", "properties": {"@spider": "usps_collection_boxes", "addr:city": "BERWICK", "addr:country": "US", "addr:full": "101 GILMORE DR", "addr:postcode": "70342", "addr:state": "LA", "brand": "USPS", "collection_times": "Mo-Fr 16:00; Sa 12:00", "name": "USPS COLLECTION BOX - PO LOBBY", "note": "ON 12/24 AND 12/31, THIS BOX MAY BE COLLECTED AS EARLY AS 12 NOON.", "ref": "7034200003"}, "type": "Feature"}
{"geometry": {"coordinates": [-91.229423333, 29.700015317], "type": "Point"}, "id": "-2uwefDhLHHxYcTu_HorcwmG-5I=", "properties": {"@spider": "usps_collection_boxes", "addr:city": "BERWICK", "addr:country": "US", "addr:full": "101 GILMORE DR", "addr:postcode": "70342", "addr:state": "LA", "brand": "USPS", "collection_times": "Mo-Fr 16:00; Sa 12:00", "name": "USPS COLLECTION BOX - PO LOBBY", "note": "ON 12/24 AND 12/31, THIS BOX MAY BE COLLECTED AS EARLY AS 12 NOON.", "ref": "7034200007"}, "type": "Feature"}
{"geometry": {"coordinates": [-90.646097033, 29.56388111], "type": "Point"}, "id": "7Q2Xsf-ptA86S9Ld8B4Q_EZehvQ=", "properties": {"@spider": "usps_collection_boxes", "addr:city": "BOURG", "addr:country": "US", "addr:full": "3806 COUNTRY DR", "addr:postcode": "70343", "addr:state": "LA", "brand": "USPS", "collection_times": "Mo-Fr 15:45; Sa 11:45", "name": "USPS COLLECTION BOX - BLUE BOX", "note": "ON 12/24 AND 12/31, THIS BOX MAY BE COLLECTED AS EARLY AS 12 NOON.", "ref": "7034300001"}, "type": "Feature"}
{"geometry": {"coordinates": [-90.646097033, 29.56388111], "type": "Point"}, "id": "PXj7-9nVwLjFcqbDR_f9kqkTGks=", "properties": {"@spider": "usps_collection_boxes", "addr:city": "BOURG", "addr:country": "US", "addr:full": "3806 COUNTRY DR", "addr:postcode": "70343", "addr:state": "LA", "brand": "USPS", "collection_times": "Mo-Fr 16:00; Sa 11:45", "name": "USPS COLLECTION BOX - PO LOBBY", "note": "ON 12/24 AND 12/31, THIS BOX MAY BE COLLECTED AS EARLY AS 12 NOON.", "ref": "7034300002"}, "type": "Feature"}
{"geometry": {"coordinates": [-90.646097033, 29.56388111], "type": "Point"}, "id": "tpHlu_3lMreaRWgGmmqsF7C8_Sc=", "properties": {"@spider": "usps_collection_boxes", "addr:city": "BOURG", "addr:country": "US", "addr:full": "3806 COUNTRY DR", "addr:postcode": "70343", "addr:state": "LA", "brand": "USPS", "collection_times": "Mo-Fr 16:00; Sa 12:00", "name": "USPS COLLECTION BOX - PO LOBBY", "note": "ON 12/24 AND 12/31, THIS BOX MAY BE COLLECTED AS EARLY AS 12 NOON.", "ref": "7034300004"}, "type": "Feature"}
{"geometry": {"coordinates": [-90.5877405, 29.473461], "type": "Point"}, "id": "Y9g14dEWgbj2Jcz2RDOckpWySPA=", "properties": {"@spider": "usps_collection_boxes", "addr:city": "CHAUVIN", "addr:country": "US", "addr:full": "5106 HIGHWAY 56", "addr:postcode": "70344", "addr:state": "LA", "brand": "USPS", "collection_times": "Mo-Fr 16:00; Sa 12:00", "name": "USPS COLLECTION BOX - BLUE BOX", "note": "ON 12/24 AND 12/31, THIS BOX MAY BE COLLECTED AS EARLY AS 12 NOON.", "ref": "7034400001"}, "type": "Feature"}
{"geometry": {"coordinates": [-90.5877405, 29.473461], "type": "Point"}, "id": "ymA7BtI6-yF07kr57gC_0tCHQOk=", "properties": {"@spider": "usps_collection_boxes", "addr:city": "CHAUVIN", "addr:country": "US", "addr:full": "5106 HIGHWAY 56", "addr:postcode": "70344", "addr:state": "LA", "brand": "USPS", "collection_times": "Mo-Fr 16:00; Sa 12:00", "name": "USPS COLLECTION BOX - BLUE BOX", "note": "ON 12/24 AND 12/31, THIS BOX MAY BE COLLECTED AS EARLY AS 12 NOON.", "ref": "7034400005"}, "type": "Feature"}
{"geometry": {"coordinates": [-90.5877405, 29.473461], "type": "Point"}, "id": "pwmL36EsOpVf2eMIcdUKns4LdiY=", "properties": {"@spider": "usps_collection_boxes", "addr:city": "CHAUVIN", "addr:country": "US", "addr:full": "5106 HIGHWAY 56", "addr:postcode": "70344", "addr:state": "LA", "brand": "USPS", "collection_times": "Mo-Fr 16:00; Sa 12:00", "name": "USPS COLLECTION BOX - PO LOBBY", "note": "ON 12/24 AND 12/31, THIS BOX MAY BE COLLECTED AS EARLY AS 12 NOON.", "ref": "7034400006"}, "type": "Feature"}
{"geometry": {"coordinates": [-90.988240071, 30.105441994], "type": "Point"}, "id": "8nNlE211ChMS2bXCD_yIRXZkJps=", "properties": {"@spider": "usps_collection_boxes", "addr:city": "DONALDSONVILLE", "addr:country": "US", "addr:full": "301 IBERVILLE ST", "addr:postcode": "70346", "addr:state": "LA", "brand": "USPS", "collection_times": "Mo-Fr 15:30; Sa 15:15", "name": "USPS COLLECTION BOX - PO LOBBY", "note": "ON 12/24 AND 12/31, THIS BOX MAY BE COLLECTED AS EARLY AS 12 NOON.", "ref": "7034600004"}, "type": "Feature"}
{"geometry": {"coordinates": [-90.988240071, 30.105441994], "type": "Point"}, "id": "M1hbkhhdecJLvdjZxQ_AFpK0ZGc=", "properties": {"@spider": "usps_collection_boxes", "addr:city": "DONALDSONVILLE", "addr:country": "US", "addr:full": "301 IBERVILLE ST", "addr:postcode": "70346", "addr:state": "LA", "brand": "USPS", "collection_times": "Mo-Fr 15:30; Sa 15:15", "name": "USPS COLLECTION BOX - BLUE BOX", "note": "ON 12/24 AND 12/31, THIS BOX MAY BE COLLECTED AS EARLY AS 12 NOON.", "ref": "7034600005"}, "type": "Feature"}
{"geometry": {"coordinates": [-90.988240071, 30.105441994], "type": "Point"}, "id": "X6nnR4IqSMIVNSt2kYncAvgHfdw=", "properties": {"@spider": "usps_collection_boxes", "addr:city": "DONALDSONVILLE", "addr:country": "US", "addr:full": "301 IBERVILLE ST", "addr:postcode": "70346", "addr:state": "LA", "brand": "USPS", "collection_times": "Mo-Fr 16:00; Sa 11:00", "name": "USPS COLLECTION BOX - PO LOBBY", "note": "ON 12/24 AND 12/31, THIS BOX MAY BE COLLECTED AS EARLY AS 12 NOON.", "ref": "7034600007"}, "type": "Feature"}
{"geometry": {"coordinates": [-90.714037262, 29.387951351], "type": "Point"}, "id": "yyQ-aVuvXhPhSzm8d91BZtq3s1I=", "properties": {"@spider": "usps_collection_boxes", "addr:city": "DULAC", "addr:country": "US", "addr:full": "7661 GRAND CAILLOU RD", "addr:postcode": "70353", "addr:state": "LA", "brand": "USPS", "collection_times": "Mo-Fr 15:00; Sa 10:30", "name": "USPS COLLECTION BOX - PO LOBBY", "note": "ON 12/24 AND 12/31, THIS BOX MAY BE COLLECTED AS EARLY AS 12 NOON.", "ref": "7035300003"}, "type": "Feature"}
{"geometry": {"coordinates": [-90.714037262, 29.387951351], "type": "Point"}, "id": "cQV1FaE0li1Sh1aawVEBK-kM5So=", "properties": {"@spider": "usps_collection_boxes", "addr:city": "DULAC", "addr:country": "US", "addr:full": "7661 GRAND CAILLOU RD", "addr:postcode": "70353", "addr:state": "LA", "brand": "USPS", "collection_times": "Mo-Fr 15:00; Sa 10:30", "name": "USPS COLLECTION BOX - PO LOBBY", "note": "ON 12/24 AND 12/31, THIS BOX MAY BE COLLECTED AS EARLY AS 12 NOON.", "ref": "7035300004"}, "type": "Feature"}
{"geometry": {"coordinates": [-90.991352006, 29.68678071], "type": "Point"}, "id": "i4tcawA9vstDPZwosvjQkDz6lYM=", "properties": {"@spider": "usps_collection_boxes", "addr:city": "GIBSON", "addr:country": "US", "addr:full": "6353 S BAYOU BLACK DR", "addr:postcode": "70356", "addr:state": "LA", "brand": "USPS", "collection_times": "Mo-Fr 15:30; Sa 10:00", "name": "USPS COLLECTION BOX - BLUE BOX", "note": "ON 12/24 AND 12/31, THIS BOX MAY BE COLLECTED AS EARLY AS 12 NOON.", "ref": "7035600001"}, "type": "Feature"}
{"geometry": {"coordinates": [-90.991352006, 29.68678071], "type": "Point"}, "id": "hPTpt9YP8XfWbG6j4u4lshlKmdo=", "properties": {"@spider": "usps_collection_boxes", "addr:city": "GIBSON", "addr:country": "US", "addr:full": "6353 S BAYOU BLACK DR", "addr:postcode": "70356", "addr:state": "LA", "brand": "USPS", "collection_times": "Mo-Fr 15:30; Sa 10:00", "name": "USPS COLLECTION BOX - PO LOBBY", "note": "ON 12/24 AND 12/31, THIS BOX MAY BE COLLECTED AS EARLY AS 12 NOON.", "ref": "7035600003"}, "type": "Feature"}
{"geometry": {"coordinates": [-90.991352006, 29.68678071], "type": "Point"}, "id": "cqJbTjYb4NiTcGMKiURgo9oaNwM=", "properties": {"@spider": "usps_collection_boxes", "addr:city": "GIBSON", "addr:country": "US", "addr:full": "6353 S BAYOU BLACK DR", "addr:postcode": "70356", "addr:state": "LA", "brand": "USPS", "collection_times": "Mo-Fr 15:30; Sa 10:30", "name": "USPS COLLECTION BOX - PO LOBBY", "note": "ON 12/24 AND 12/31, THIS BOX MAY BE COLLECTED AS EARLY AS 12 NOON.", "ref": "7035600004"}, "type": "Feature"}
{"geometry": {"coordinates": [-89.990250779, 29.234786247], "type": "Point"}, "id": "iTkOw3uOrYPXCmP0qu7PG0Fghws=", "properties": {"@spider": "usps_collection_boxes", "addr:city": "GRAND ISLE", "addr:country": "US", "addr:full": "3393 HIGHWAY 1", "addr:postcode": "70358", "addr:state": "LA", "brand": "USPS", "collection_times": "Mo-Fr 15:00; Sa 10:00", "name": "USPS COLLECTION BOX - BLUE BOX", "note": "ON 12/24 AND 12/31, THIS BOX MAY BE COLLECTED AS EARLY AS 12 NOON.", "ref": "7035800003"}, "type": "Feature"}
{"geometry": {"coordinates": [-89.990250779, 29.234786247], "type": "Point"}, "id": "F7uyjssLx7jLAjV66QlYjl5sF_I=", "properties": {"@spider": "usps_collection_boxes", "addr:city": "GRAND ISLE", "addr:country": "US", "addr:full": "3393 HIGHWAY 1", "addr:postcode": "70358", "addr:state": "LA", "brand": "USPS", "collection_times": "Mo-Fr 15:00; Sa 10:00", "name": "USPS COLLECTION BOX - PO LOBBY", "note": "ON 12/24 AND 12/31, THIS BOX MAY BE COLLECTED AS EARLY AS 12 NOON.", "ref": "7035800005"}, "type": "Feature"}
{"geometry": {"coordinates": [-89.990250779, 29.234786247], "type": "Point"}, "id": "gaqKkWcv1hdJSC5ViByP-jlVZXo=", "properties": {"@spider": "usps_collection_boxes", "addr:city": "GRAND ISLE", "addr:country": "US", "addr:full": "3393 HIGHWAY 1", "addr:postcode": "70358", "addr:state": "LA", "brand": "USPS", "collection_times": "Mo-Fr 15:30", "name": "USPS COLLECTION BOX - PO LOBBY", "note": "ON 12/24 AND 12/31, THIS BOX MAY BE COLLECTED AS EARLY AS 12 NOON.", "ref": "7035800008"}, "type": "Feature"}
{"geometry": {"coordinates": [-90.776313, 29.670309], "type": "Point"}, "id": "tZVwtVEY05Igy6cWO1JjGDstqHo=", "properties": {"@spider": "usps_collection_boxes", "addr:city": "GRAY", "addr:country": "US", "addr:full": "4442 W MAIN ST", "addr:postcode": "70359", "addr:state": "LA", "brand": "USPS", "collection_times": "Mo-Fr 16:30; Sa 11:00", "name": "USPS COLLECTION BOX - BLUE BOX", "note": "ON 12/24 AND 12/31, THIS BOX MAY BE COLLECTED AS EARLY AS 12 NOON.", "ref": "7035900002"}, "type": "Feature"}
{"geometry": {"coordinates": [-90.776313, 29.670309], "type": "Point"}, "id": "gtjv6LhHuBiqyz8d03t6a84Cb8g=", "properties": {"@spider": "usps_collection_boxes", "addr:city": "GRAY", "addr:country": "US", "addr:full": "4442 W MAIN ST", "addr:postcode": "70359", "addr:state": "LA", "brand": "USPS", "collection_times": "Mo-Fr 16:30; Sa 11:00", "name": "USPS COLLECTION BOX - PO LOBBY", "note": "ON 12/24 AND 12/31, THIS BOX MAY BE COLLECTED AS EARLY AS 12 NOON.", "ref": "7035900004"}, "type": "Feature"}
{"geometry": {"coordinates": [-90.776313, 29.670309], "type": "Point"}, "id": "cQ-ttrHFL08Ou3wfYwghDLdR8pE=", "properties": {"@spider": "usps_collection_boxes", "addr:city": "GRAY", "addr:country": "US", "addr:full": "4442 W MAIN ST", "addr:postcode": "70359", "addr:state": "LA", "brand": "USPS", "collection_times": "Mo-Fr 16:30; Sa 11:00", "name": "USPS COLLECTION BOX - PO LOBBY", "note": "ON 12/24 AND 12/31, THIS BOX MAY BE COLLECTED AS EARLY AS 12 NOON.", "ref": "7035900007"}, "type": "Feature"}
{"geometry": {"coordinates": [-90.7219843, 29.597280878], "type": "Point"}, "id": "YK3_iJvwYZvFsFbwRvkXrWQc3JM=", "properties": {"@spider": "usps_collection_boxes", "addr:city": "HOUMA", "addr:country": "US", "addr:full": "7856 MAIN ST", "addr:postcode": "70360", "addr:state": "LA", "brand": "USPS", "collection_times": "Mo-Fr 15:30", "name": "USPS COLLECTION BOX - BLUE BOX", "note": "ON 12/24 AND 12/31, THIS BOX MAY BE COLLECTED AS EARLY AS 12 NOON.", "ref": "7036000003"}, "type": "Feature"}
{"geometry": {"coordinates": [-90.7182315, 29.598003], "type": "Point"}, "id": "bSlQ-hT7fwp8CVR1yazZmRs2yVI=", "properties": {"@spider": "usps_collection_boxes", "addr:city": "HOUMA", "addr:country": "US", "addr:full": "8026 MAIN ST", "addr:postcode": "70360", "addr:state": "LA", "brand": "USPS", "collection_times": "Mo-Fr 15:15; Sa 09:00", "name": "USPS COLLECTION BOX - BLUE BOX", "note": "ON 12/24 AND 12/31, THIS BOX MAY BE COLLECTED AS EARLY AS 12 NOON.", "ref": "7036000008"}, "type": "Feature"}
{"geometry": {"coordinates": [-90.7206795, 29.597454], "type": "Point"}, "id": "T7UgjBMgGxigndvS52e6XsQfwEk=", "properties": {"@spider": "usps_collection_boxes", "addr:city": "HOUMA", "addr:country": "US", "addr:full": "7910 MAIN ST", "addr:postcode": "70360", "addr:state": "LA", "brand": "USPS", "collection_times": "Mo-Fr 15:30; Sa 11:00", "name": "USPS COLLECTION BOX - BLUE BOX", "note": "ON 12/24 AND 12/31, THIS BOX MAY BE COLLECTED AS EARLY AS 12 NOON.", "ref": "7036000010"}, "type": "Feature"}
{"geometry": {"coordinates": [-90.745000878, 29.598074757], "type": "Point"}, "id": "6rQylpCaTrV8uiDGmJcTqtj8hsA=", "properties": {"@spider": "usps_collection_boxes", "addr:city": "HOUMA", "addr:country": "US", "addr:full": "1340 W TUNNEL BLVD", "addr:postcode": "70360", "addr:state": "LA", "brand": "USPS", "collection_times": "Mo-Sa 11:30", "name": "USPS COLLECTION BOX - BLUE BOX", "ref": "7036000017"}, "type": "Feature"}
{"geometry": {"coordinates": [-90.736617016, 29.5929085], "type": "Point"}, "id": "IzVDinqilKNvSXg_xwft09J0NGo=", "properties": {"@spider": "usps_collection_boxes", "addr:city": "HOUMA", "addr:country": "US", "addr:full": "1047 W TUNNEL BLVD", "addr:postcode": "70360", "addr:state": "LA", "brand": "USPS", "collection_times": "Mo-Fr 15:00; Sa 11:00", "name": "USPS COLLECTION BOX - BLUE BOX", "note": "ON 12/24 AND 12/31, THIS BOX MAY BE COLLECTED AS EARLY AS 12 NOON.", "ref": "7036000022"}, "type": "Feature"}
{"geometry": {"coordinates": [-90.762453, 29.635137], "type": "Point"}, "id": "zGeE7vjB-w0u2fTfOpGFeoIeTpI=", "properties": {"@spider": "usps_collection_boxes", "addr:city": "HOUMA", "addr:country": "US", "addr:full": "5818 W MAIN ST", "addr:postcode": "70360", "addr:state": "LA", "brand": "USPS", "collection_times": "Mo-Sa 12:00", "name": "USPS COLLECTION BOX - BLUE BOX", "ref": "7036000032"}, "type": "Feature"}
{"geometry": {"coordinates": [-90.719577, 29.592216], "type": "Point"}, "id": "2cOHOWWh58M9BNHHp2hDaCLSwKM=", "properties": {"@spider": "usps_collection_boxes", "addr:city": "HOUMA", "addr:country": "US", "addr:full": "801 BARROW ST", "addr:postcode": "70360", "addr:state": "LA", "brand": "USPS", "collection_times": "Mo-Fr 15:15; Sa 11:00", "name": "USPS COLLECTION BOX - BLUE BOX", "note": "ON 12/24 AND 12/31, THIS BOX MAY BE COLLECTED AS EARLY AS 12 NOON.", "ref": "7036000035"}, "type": "Feature"}
{"geometry": {"coordinates": [-90.7182315, 29.598003], "type": "Point"}, "id": "TRVEeTL8nZ_CVLuEJ0Lz2LL9DM8=", "properties": {"@spider": "usps_collection_boxes", "addr:city": "HOUMA", "addr:country": "US", "addr:full": "8026 MAIN ST", "addr:postcode": "70360", "addr:state": "LA", "brand": "USPS", "collection_times": "Mo-Fr 15:15; Sa 09:00", "name": "USPS COLLECTION BOX - BLUE BOX", "note": "ON 12/24 AND 12/31, THIS BOX MAY BE COLLECTED AS EARLY AS 12 NOON.", "ref": "7036000039"}, "type": "Feature"}
{"geometry": {"coordinates": [-90.724131, 29.594772], "type": "Point"}, "id": "-PJmJr-IZN9YhsxTOaBDX1C_bhM=", "properties": {"@spider": "usps_collection_boxes", "addr:city": "HOUMA", "addr:country": "US", "addr:full": "425 LAFAYETTE ST", "addr:postcode": "70360", "addr:state": "LA", "brand": "USPS", "collection_times": "Mo-Fr 17:00; Sa 12:00", "name": "USPS COLLECTION BOX - PO LOBBY", "note": "ON 12/24 AND 12/31, THIS BOX MAY BE COLLECTED AS EARLY AS 12 NOON.", "ref": "7036000041"}, "type": "Feature"}
{"geometry": {"coordinates": [-90.747531, 29.584683], "type": "Point"}, "id": "xly36qy4lcXiHH_-sWj6lIwVAYk=", "properties": {"@spider": "usps_collection_boxes", "addr:city": "HOUMA", "addr:country": "US", "addr:full": "1410 SAINT CHARLES ST", "addr:postcode": "70360", "addr:state": "LA", "brand": "USPS", "collection_times": "Mo-Fr 14:00; Sa 11:30", "name": "USPS COLLECTION BOX - BLUE BOX", "note": "ON 12/24 AND 12/31, THIS BOX MAY BE COLLECTED AS EARLY AS 12 NOON.", "ref": "7036000045"}, "type": "Feature"}
{"geometry": {"coordinates": [-90.723729919, 29.594689353], "type": "Point"}, "id": "bmNPx3YTYXUfuU0QAFm-YY-JY6U=", "properties": {"@spider": "usps_collection_boxes", "addr:city": "HOUMA", "addr:country": "US", "addr:full": "500 GRINAGE ST", "addr:postcode": "70361", "addr:state": "LA", "brand": "USPS", "collection_times": "Mo-Fr 15:45; Sa 16:00", "name": "USPS COLLECTION BOX - BLUE BOX", "note": "ON 12/24 AND 12/31, THIS BOX MAY BE COLLECTED AS EARLY AS 12 NOON.", "ref": "7036100001"}, "type": "Feature"}
{"geometry": {"coordinates": [-90.723729919, 29.594689353], "type": "Point"}, "id": "t3Zt1GjxT2lUk4bWVF1YFKPEbrk=", "properties": {"@spider": "usps_collection_boxes", "addr:city": "HOUMA", "addr:country": "US", "addr:full": "500 GRINAGE ST", "addr:postcode": "70361", "addr:state": "LA", "brand": "USPS", "collection_times": "Mo-Fr 15:45; Sa 16:00", "name": "USPS COLLECTION BOX - BLUE BOX", "note": "ON 12/24 AND 12/31, THIS BOX MAY BE COLLECTED AS EARLY AS 12 NOON.", "ref": "7036100002"}, "type": "Feature"}
{"geometry": {"coordinates": [-90.723729919, 29.594689353], "type": "Point"}, "id": "2j22ja-rsLe0YY1pA4ME5GasYCI=", "properties": {"@spider": "usps_collection_boxes", "addr:city": "HOUMA", "addr:country": "US", "addr:full": "500 GRINAGE ST", "addr:postcode": "70361", "addr:state": "LA", "brand": "USPS", "collection_times": "Mo-Fr 15:45; Sa 16:00", "name": "USPS COLLECTION BOX - BLUE BOX", "note": "ON 12/24 AND 12/31, THIS BOX MAY BE COLLECTED AS EARLY AS 12 NOON.", "ref": "7036100003"}, "type": "Feature"}
{"geometry": {"coordinates": [-90.724131, 29.594772], "type": "Point"}, "id": "P7R0LBiUfGkkpyJSvYLx7BB8o6k=", "properties": {"@spider": "usps_collection_boxes", "addr:city": "HOUMA", "addr:country": "US", "addr:full": "425 LAFAYETTE ST", "addr:postcode": "70361", "addr:state": "LA", "brand": "USPS", "collection_times": "Mo-Fr 17:00; Sa 16:00", "name": "USPS COLLECTION BOX - PO LOBBY", "note": "ON 12/24 AND 12/31, THIS BOX MAY BE COLLECTED AS EARLY AS 12 NOON.", "ref": "7036100005"}, "type": "Feature"}
{"geometry": {"coordinates": [-90.724131, 29.594772], "type": "Point"}, "id": "8M5bvknf-PT4feG1n6srjb_2XAw=", "properties": {"@spider": "usps_collection_boxes", "addr:city": "HOUMA", "addr:country": "US", "addr:full": "425 LAFAYETTE ST", "addr:postcode": "70361", "addr:state": "LA", "brand": "USPS", "collection_times": "Mo-Fr 17:00; Sa 16:00", "name": "USPS COLLECTION BOX - PO LOBBY", "note": "ON 12/24 AND 12/31, THIS BOX MAY BE COLLECTED AS EARLY AS 12 NOON.", "ref": "7036100006"}, "type": "Feature"}
{"geometry": {"coordinates": [-90.688186879, 29.579273009], "type": "Point"}, "id": "VUtb5xvILkOfZCmR4QuTctUr7cM=", "properties": {"@spider": "usps_collection_boxes", "addr:city": "HOUMA", "addr:country": "US", "addr:full": "1977 PROSPECT BLVD", "addr:postcode": "70363", "addr:state": "LA", "brand": "USPS", "collection_times": "Mo-Sa 12:00", "name": "USPS COLLECTION BOX - BLUE BOX", "ref": "7036300005"}, "type": "Feature"}
{"geometry": {"coordinates": [-90.688303, 29.569531209], "type": "Point"}, "id": "8ZsYiDsmC3LqCvRxbUz6zRKnWcs=", "properties": {"@spider": "usps_collection_boxes", "addr:city": "HOUMA", "addr:country": "US", "addr:full": "1978 INDUSTRIAL BLVD", "addr:postcode": "70363", "addr:state": "LA", "brand": "USPS", "collection_times": "Mo-Fr 14:00; Sa 11:30", "name": "USPS COLLECTION BOX - BLUE BOX", "note": "ON 12/24 AND 12/31, THIS BOX MAY BE COLLECTED AS EARLY AS 12 NOON.", "ref": "7036300009"}, "type": "Feature"}
{"geometry": {"coordinates": [-90.755442, 29.629998], "type": "Point"}, "id": "mOA1aQCVAe-ZoMO4WsQzVh2EUNQ=", "properties": {"@spider": "usps_collection_boxes", "addr:city": "HOUMA", "addr:country": "US", "addr:full": "6084 W PARK AVE", "addr:postcode": "70364", "addr:state": "LA", "brand": "USPS", "collection_times": "Mo-Sa 11:30", "name": "USPS COLLECTION BOX - BLUE BOX", "ref": "7036400019"}, "type": "Feature"}
{"geometry": {"coordinates": [-90.952138832, 29.837512382], "type": "Point"}, "id": "DuaQscgTBhGFzQh0NYz2QymNRy4=", "properties": {"@spider": "usps_collection_boxes", "addr:city": "LABADIEVILLE", "addr:country": "US", "addr:full": "2643 HIGHWAY 1", "addr:postcode": "70372", "addr:state": "LA", "brand": "USPS", "collection_times": "Mo-Fr 15:00; Sa 07:00", "name": "USPS COLLECTION BOX - PO LOBBY", "note": "ON 12/24 AND 12/31, THIS BOX MAY BE COLLECTED AS EARLY AS 12 NOON.", "ref": "7037200003"}, "type": "Feature"}
{"geometry": {"coordinates": [-90.952138832, 29.837512382], "type": "Point"}, "id": "AsNiiZeiBlRGfIp1p_qcC0idLIg=", "properties": {"@spider": "usps_collection_boxes", "addr:city": "LABADIEVILLE", "addr:country": "US", "addr:full": "2643 HIGHWAY 1", "addr:postcode": "70372", "addr:state": "LA", "brand": "USPS", "collection_times": "Mo-Fr 15:00; Sa 07:00", "name": "USPS COLLECTION BOX - BLUE BOX", "note": "ON 12/24 AND 12/31, THIS BOX MAY BE COLLECTED AS EARLY AS 12 NOON.", "ref": "7037200004"}, "type": "Feature"}
{"geometry": {"coordinates": [-90.952138832, 29.837512382], "type": "Point"}, "id": "iIWB63NhAQ2UTSE8tVpCSHmcadI=", "properties": {"@spider": "usps_collection_boxes", "addr:city": "LABADIEVILLE", "addr:country": "US", "addr:full": "2643 HIGHWAY 1", "addr:postcode": "70372", "addr:state": "LA", "brand": "USPS", "collection_times": "Mo-Fr 16:00", "name": "USPS COLLECTION BOX - PO LOBBY", "note": "ON 12/24 AND 12/31, THIS BOX MAY BE COLLECTED AS EARLY AS 12 NOON.", "ref": "7037200005"}, "type": "Feature"}
{"geometry": {"coordinates": [-90.37309461, 29.566631201], "type": "Point"}, "id": "6ZUyrWsE3O90KSI9sjF8JazDljU=", "properties": {"@spider": "usps_collection_boxes", "addr:city": "LAROSE", "addr:country": "US", "addr:full": "123 W 17TH ST", "addr:postcode": "70373", "addr:state": "LA", "brand": "USPS", "collection_times": "Mo-Fr 16:00; Sa 08:00", "name": "USPS COLLECTION BOX - BLUE BOX", "note": "ON 12/24 AND 12/31, THIS BOX MAY BE COLLECTED AS EARLY AS 12 NOON.", "ref": "7037300001"}, "type": "Feature"}
{"geometry": {"coordinates": [-90.37309461, 29.566631201], "type": "Point"}, "id": "YZKlK4wggHCNYSJXbro5cpO0QkI=", "properties": {"@spider": "usps_collection_boxes", "addr:city": "LAROSE", "addr:country": "US", "addr:full": "123 W 17TH ST", "addr:postcode": "70373", "addr:state": "LA", "brand": "USPS", "collection_times": "Mo-Fr 16:00; Sa 08:00", "name": "USPS COLLECTION BOX - PO LOBBY", "note": "ON 12/24 AND 12/31, THIS BOX MAY BE COLLECTED AS EARLY AS 12 NOON.", "ref": "7037300004"}, "type": "Feature"}
{"geometry": {"coordinates": [-90.37309461, 29.566631201], "type": "Point"}, "id": "SYhSepWN2w8yrnRzLbawLIHOBX0=", "properties": {"@spider": "usps_collection_boxes", "addr:city": "LAROSE", "addr:country": "US", "addr:full": "123 W 17TH ST", "addr:postcode": "70373", "addr:state": "LA", "brand": "USPS", "collection_times": "Mo-Fr 16:30", "name": "USPS COLLECTION BOX - PO LOBBY", "note": "ON 12/24 AND 12/31, THIS BOX MAY BE COLLECTED AS EARLY AS 12 NOON.", "ref": "7037300005"}, "type": "Feature"}
{"geometry": {"coordinates": [-90.541653397, 29.640775707], "type": "Point"}, "id": "rNF2wm9bp1RJQ_6z6N94TpkMsxM=", "properties": {"@spider": "usps_collection_boxes", "addr:city": "LOCKPORT", "addr:country": "US", "addr:full": "706 CRESCENT AVE", "addr:postcode": "70374", "addr:state": "LA", "brand": "USPS", "collection_times": "Mo-Fr 16:30; Sa 15:00", "name": "USPS COLLECTION BOX - BLUE BOX", "note": "ON 12/24 AND 12/31, THIS BOX MAY BE COLLECTED AS EARLY AS 12 NOON.", "ref": "7037400002"}, "type": "Feature"}
{"geometry": {"coordinates": [-90.541653397, 29.640775707], "type": "Point"}, "id": "9YotJxZp6W8FD0JBde51wgNgFUA=", "properties": {"@spider": "usps_collection_boxes", "addr:city": "LOCKPORT", "addr:country": "US", "addr:full": "706 CRESCENT AVE", "addr:postcode": "70374", "addr:state": "LA", "brand": "USPS", "collection_times": "Mo-Fr 16:30; Sa 15:00", "name": "USPS COLLECTION BOX - PO LOBBY", "note": "ON 12/24 AND 12/31, THIS BOX MAY BE COLLECTED AS EARLY AS 12 NOON.", "ref": "7037400011"}, "type": "Feature"}
{"geometry": {"coordinates": [-90.541653397, 29.640775707], "type": "Point"}, "id": "T9sUDRMy4Pnzyw7DLVGzWnWxbOo=", "properties": {"@spider": "usps_collection_boxes", "addr:city": "LOCKPORT", "addr:country": "US", "addr:full": "706 CRESCENT AVE", "addr:postcode": "70374", "addr:state": "LA", "brand": "USPS", "collection_times": "Mo-Fr 16:30; Sa 15:00", "name": "USPS COLLECTION BOX - PO LOBBY", "note": "ON 12/24 AND 12/31, THIS BOX MAY BE COLLECTED AS EARLY AS 12 NOON.", "ref": "7037400012"}, "type": "Feature"}
{"geometry": {"coordinates": [-90.541653397, 29.640775707], "type": "Point"}, "id": "Vv2XeSi7doDgkgQXiy880gSJeng=", "properties": {"@spider": "usps_collection_boxes", "addr:city": "LOCKPORT", "addr:country": "US", "addr:full": "706 CRESCENT AVE", "addr:postcode": "70374", "addr:state": "LA", "brand": "USPS", "collection_times": "Mo-Fr 16:30; Sa 10:30", "name": "USPS COLLECTION BOX - PO LOBBY", "note": "ON 12/24 AND 12/31, THIS BOX MAY BE COLLECTED AS EARLY AS 12 NOON.", "ref": "7037400013"}, "type": "Feature"}
{"geometry": {"coordinates": [-90.550387583, 29.691819045], "type": "Point"}, "id": "aCmkw4i6_06hQ4LYCG9y_yvNiyM=", "properties": {"@spider": "usps_collection_boxes", "addr:city": "MATHEWS", "addr:country": "US", "addr:full": "4884 HIGHWAY 1 STE 4", "addr:postcode": "70375", "addr:state": "LA", "brand": "USPS", "collection_times": "Mo-Fr 15:30; Sa 10:00", "name": "USPS COLLECTION BOX - BLUE BOX", "note": "ON 12/24 AND 12/31, THIS BOX MAY BE COLLECTED AS EARLY AS 12 NOON.", "ref": "7037500001"}, "type": "Feature"}
{"geometry": {"coordinates": [-90.550387583, 29.691819045], "type": "Point"}, "id": "iOdP-FkghdUgAJiLCP4UDeyErjo=", "properties": {"@spider": "usps_collection_boxes", "addr:city": "MATHEWS", "addr:country": "US", "addr:full": "4884 HIGHWAY 1 STE 4", "addr:postcode": "70375", "addr:state": "LA", "brand": "USPS", "collection_times": "Mo-Fr 15:30; Sa 10:00", "name": "USPS COLLECTION BOX - PO LOBBY", "note": "ON 12/24 AND 12/31, THIS BOX MAY BE COLLECTED AS EARLY AS 12 NOON.", "ref": "7037500002"}, "type": "Feature"}
{"geometry": {"coordinates": [-90.550387583, 29.691819045], "type": "Point"}, "id": "N3HEaPTGqoxgVU7tQHaQEc-CpqQ=", "properties": {"@spider": "usps_collection_boxes", "addr:city": "MATHEWS", "addr:country": "US", "addr:full": "4884 HIGHWAY 1 STE 4", "addr:postcode": "70375", "addr:state": "LA", "brand": "USPS", "collection_times": "Mo-Fr 15:30; Sa 10:00", "name": "USPS COLLECTION BOX - PO LOBBY", "note": "ON 12/24 AND 12/31, THIS BOX MAY BE COLLECTED AS EARLY AS 12 NOON.", "ref": "7037500004"}, "type": "Feature"}
{"geometry": {"coordinates": [-90.558522, 29.469861], "type": "Point"}, "id": "Ka7A8iZIPIR5woMfEv4s5JzB_IQ=", "properties": {"@spider": "usps_collection_boxes", "addr:city": "MONTEGUT", "addr:country": "US", "addr:full": "1225 HIGHWAY 55", "addr:postcode": "70377", "addr:state": "LA", "brand": "USPS", "collection_times": "Mo-Fr 15:30; Sa 11:00", "name": "USPS COLLECTION BOX - BLUE BOX", "note": "ON 12/24 AND 12/31, THIS BOX MAY BE COLLECTED AS EARLY AS 12 NOON.", "ref": "7037700001"}, "type": "Feature"}
{"geometry": {"coordinates": [-90.558522, 29.469861], "type": "Point"}, "id": "17eOs5lVpEtTTc-6c03vQeM7cUs=", "properties": {"@spider": "usps_collection_boxes", "addr:city": "MONTEGUT", "addr:country": "US", "addr:full": "1225 HIGHWAY 55", "addr:postcode": "70377", "addr:state": "LA", "brand": "USPS", "collection_times": "Mo-Fr 15:30; Sa 11:00", "name": "USPS COLLECTION BOX - PO LOBBY", "note": "ON 12/24 AND 12/31, THIS BOX MAY BE COLLECTED AS EARLY AS 12 NOON.", "ref": "7037700005"}, "type": "Feature"}
{"geometry": {"coordinates": [-90.558522, 29.469861], "type": "Point"}, "id": "awXVFrUwId8qYXScqhgmIr7Py5A=", "properties": {"@spider": "usps_collection_boxes", "addr:city": "MONTEGUT", "addr:country": "US", "addr:full": "1225 HIGHWAY 55", "addr:postcode": "70377", "addr:state": "LA", "brand": "USPS", "collection_times": "Mo-Fr 16:00; Sa 11:00", "name": "USPS COLLECTION BOX - PO LOBBY", "note": "ON 12/24 AND 12/31, THIS BOX MAY BE COLLECTED AS EARLY AS 12 NOON.", "ref": "7037700006"}, "type": "Feature"}
{"geometry": {"coordinates": [-91.198388793, 29.702913236], "type": "Point"}, "id": "N9BT64kIoTTmI0xa1rQZ9OFT4yI=", "properties": {"@spider": "usps_collection_boxes", "addr:city": "MORGAN CITY", "addr:country": "US", "addr:full": "1112 BRASHEAR AVE", "addr:postcode": "70380", "addr:state": "LA", "brand": "USPS", "collection_times": "Mo-Fr 16:45; Sa 14:00", "name": "USPS COLLECTION BOX - PO LOBBY", "note": "ON 12/24 AND 12/31, THIS BOX MAY BE COLLECTED AS EARLY AS 12 NOON.", "ref": "7038000001"}, "type": "Feature"}
{"geometry": {"coordinates": [-91.198388793, 29.702913236], "type": "Point"}, "id": "AvXQRzdZ6Lp1YUKoUe_CfGTx2sI=", "properties": {"@spider": "usps_collection_boxes", "addr:city": "MORGAN CITY", "addr:country": "US", "addr:full": "1112 BRASHEAR AVE", "addr:postcode": "70380", "addr:state": "LA", "brand": "USPS", "collection_times": "Mo-Fr 16:45; Sa 14:00", "name": "USPS COLLECTION BOX - PO LOBBY", "note": "ON 12/24 AND 12/31, THIS BOX MAY BE COLLECTED AS EARLY AS 12 NOON.", "ref": "7038000002"}, "type": "Feature"}
{"geometry": {"coordinates": [-91.198388793, 29.702913236], "type": "Point"}, "id": "2qE1ZbDrY7TU-CNllhbCPwI7vBs=", "properties": {"@spider": "usps_collection_boxes", "addr:city": "MORGAN CITY", "addr:country": "US", "addr:full": "1112 BRASHEAR AVE", "addr:postcode": "70380", "addr:state": "LA", "brand": "USPS", "collection_times": "Mo-Fr 16:45; Sa 14:00", "name": "USPS COLLECTION BOX - BLUE BOX", "note": "ON 12/24 AND 12/31, THIS BOX MAY BE COLLECTED AS EARLY AS 12 NOON.", "ref": "7038000005"}, "type": "Feature"}
{"geometry": {"coordinates": [-91.198388793, 29.702913236], "type": "Point"}, "id": "ws3BSBnBWCXljeXldG6VmzHrOMM=", "properties": {"@spider": "usps_collection_boxes", "addr:city": "MORGAN CITY", "addr:country": "US", "addr:full": "1112 BRASHEAR AVE", "addr:postcode": "70380", "addr:state": "LA", "brand": "USPS", "collection_times": "Mo-Fr 16:45; Sa 14:00", "name": "USPS COLLECTION BOX - BLUE BOX", "note": "ON 12/24 AND 12/31, THIS BOX MAY BE COLLECTED AS EARLY AS 12 NOON.", "ref": "7038000006"}, "type": "Feature"}
{"geometry": {"coordinates": [-91.208934622, 29.694587334], "type": "Point"}, "id": "mB21EQcnd6IkznZTCX6_qOWwMRc=", "properties": {"@spider": "usps_collection_boxes", "addr:city": "MORGAN CITY", "addr:country": "US", "addr:full": "511 1ST ST", "addr:postcode": "70380", "addr:state": "LA", "brand": "USPS", "collection_times": "Mo-Fr 15:30", "name": "USPS COLLECTION BOX - PO LOBBY", "note": "ON 12/24 AND 12/31, THIS BOX MAY BE COLLECTED AS EARLY AS 12 NOON.", "ref": "7038000013"}, "type": "Feature"}
{"geometry": {"coordinates": [-91.208934622, 29.694587334], "type": "Point"}, "id": "81RkU_cQ0MfbXtWbmcVr48mCmko=", "properties": {"@spider": "usps_collection_boxes", "addr:city": "MORGAN CITY", "addr:country": "US", "addr:full": "511 1ST ST", "addr:postcode": "70380", "addr:state": "LA", "brand": "USPS", "collection_times": "Mo-Fr 15:30", "name": "USPS COLLECTION BOX - BLUE BOX", "note": "ON 12/24 AND 12/31, THIS BOX MAY BE COLLECTED AS EARLY AS 12 NOON.", "ref": "7038000014"}, "type": "Feature"}
{"geometry": {"coordinates": [-91.208934622, 29.694587334], "type": "Point"}, "id": "PgZuPFDDJmX92_TSYBS10FBeKho=", "properties": {"@spider": "usps_collection_boxes", "addr:city": "MORGAN CITY", "addr:country": "US", "addr:full": "511 1ST ST", "addr:postcode": "70380", "addr:state": "LA", "brand": "USPS", "collection_times": "Mo-Fr 15:30", "name": "USPS COLLECTION BOX - PO LOBBY", "note": "ON 12/24 AND 12/31, THIS BOX MAY BE COLLECTED AS EARLY AS 12 NOON.", "ref": "7038000026"}, "type": "Feature"}
{"geometry": {"coordinates": [-91.198388793, 29.702913236], "type": "Point"}, "id": "qJEl6RlN8gou5y5SANKcHo7Ue5Q=", "properties": {"@spider": "usps_collection_boxes", "addr:city": "MORGAN CITY", "addr:country": "US", "addr:full": "1112 BRASHEAR AVE", "addr:postcode": "70380", "addr:state": "LA", "brand": "USPS", "collection_times": "Mo-Fr 16:30; Sa 12:00", "name": "USPS COLLECTION BOX - PO LOBBY", "note": "ON 12/24 AND 12/31, THIS BOX MAY BE COLLECTED AS EARLY AS 12 NOON.", "ref": "7038000027"}, "type": "Feature"}
{"geometry": {"coordinates": [-91.025394453, 29.93525372], "type": "Point"}, "id": "e9-Ay3e5Zk5_Z-7GbBnaz1gSnT0=", "properties": {"@spider": "usps_collection_boxes", "addr:city": "NAPOLEONVILLE", "addr:country": "US", "addr:full": "181 HIGHWAY 401", "addr:postcode": "70390", "addr:state": "LA", "brand": "USPS", "collection_times": "Mo-Fr 16:00; Sa 11:00", "name": "USPS COLLECTION BOX - PO LOBBY", "note": "ON 12/24 AND 12/31, THIS BOX MAY BE COLLECTED AS EARLY AS 12 NOON.", "ref": "7039000004"}, "type": "Feature"}
{"geometry": {"coordinates": [-91.025394453, 29.93525372], "type": "Point"}, "id": "j8Gp0CujWlF3mcQRExQkaqcs1c0=", "properties": {"@spider": "usps_collection_boxes", "addr:city": "NAPOLEONVILLE", "addr:country": "US", "addr:full": "181 HIGHWAY 401", "addr:postcode": "70390", "addr:state": "LA", "brand": "USPS", "collection_times": "Mo-Fr 16:00; Sa 11:00", "name": "USPS COLLECTION BOX - BLUE BOX", "note": "ON 12/24 AND 12/31, THIS BOX MAY BE COLLECTED AS EARLY AS 12 NOON.", "ref": "7039000007"}, "type": "Feature"}
{"geometry": {"coordinates": [-91.025394453, 29.93525372], "type": "Point"}, "id": "Fl84Ta4alL-4K_HcMg_ZW2jReTM=", "properties": {"@spider": "usps_collection_boxes", "addr:city": "NAPOLEONVILLE", "addr:country": "US", "addr:full": "181 HIGHWAY 401", "addr:postcode": "70390", "addr:state": "LA", "brand": "USPS", "collection_times": "Mo-Fr 16:30; Sa 10:30", "name": "USPS COLLECTION BOX - PO LOBBY", "note": "ON 12/24 AND 12/31, THIS BOX MAY BE COLLECTED AS EARLY AS 12 NOON.", "ref": "7039000009"}, "type": "Feature"}
{"geometry": {"coordinates": [-91.054687685, 29.993123193], "type": "Point"}, "id": "miGaSkBhZH5bNP2BoXSDbOHRNVY=", "properties": {"@spider": "usps_collection_boxes", "addr:city": "PAINCOURTVILLE", "addr:country": "US", "addr:full": "6075 HIGHWAY 1", "addr:postcode": "70391", "addr:state": "LA", "brand": "USPS", "collection_times": "Mo-Fr 15:30; Sa 08:00", "name": "USPS COLLECTION BOX - BLUE BOX", "note": "ON 12/24 AND 12/31, THIS BOX MAY BE COLLECTED AS EARLY AS 12 NOON.", "ref": "7039100001"}, "type": "Feature"}
{"geometry": {"coordinates": [-91.054687685, 29.993123193], "type": "Point"}, "id": "ygrGUZuSG_yoQ3cFhTip_xdJQ-U=", "properties": {"@spider": "usps_collection_boxes", "addr:city": "PAINCOURTVILLE", "addr:country": "US", "addr:full": "6075 HIGHWAY 1", "addr:postcode": "70391", "addr:state": "LA", "brand": "USPS", "collection_times": "Mo-Fr 15:30", "name": "USPS COLLECTION BOX - PO LOBBY", "note": "ON 12/24 AND 12/31, THIS BOX MAY BE COLLECTED AS EARLY AS 12 NOON.", "ref": "7039100002"}, "type": "Feature"}
{"geometry": {"coordinates": [-91.054687685, 29.993123193], "type": "Point"}, "id": "x6_IguFpwiGYEjIQH9jp5ZhAU5c=", "properties": {"@spider": "usps_collection_boxes", "addr:city": "PAINCOURTVILLE", "addr:country": "US", "addr:full": "6075 HIGHWAY 1", "addr:postcode": "70391", "addr:state": "LA", "brand": "USPS", "collection_times": "Mo-Fr 16:00", "name": "USPS COLLECTION BOX - PO LOBBY", "note": "ON 12/24 AND 12/31, THIS BOX MAY BE COLLECTED AS EARLY AS 12 NOON.", "ref": "7039100003"}, "type": "Feature"}
{"geometry": {"coordinates": [-91.3100985, 29.6928], "type": "Point"}, "id": "34e4GUBqgSSH-jKsdvKJepey9rg=", "properties": {"@spider": "usps_collection_boxes", "addr:city": "PATTERSON", "addr:country": "US", "addr:full": "600 CATHERINE ST", "addr:postcode": "70392", "addr:state": "LA", "brand": "USPS", "collection_times": "Mo-Fr 15:30; Sa 11:30", "name": "USPS COLLECTION BOX - BLUE BOX", "note": "ON 12/24 AND 12/31, THIS BOX MAY BE COLLECTED AS EARLY AS 12 NOON.", "ref": "7039200005"}, "type": "Feature"}
{"geometry": {"coordinates": [-91.3100985, 29.6928], "type": "Point"}, "id": "ubjAJWgCJjO0WxqkzBgkXdJoTB8=", "properties": {"@spider": "usps_collection_boxes", "addr:city": "PATTERSON", "addr:country": "US", "addr:full": "600 CATHERINE ST", "addr:postcode": "70392", "addr:state": "LA", "brand": "USPS", "collection_times": "Mo-Fr 15:30; Sa 11:30", "name": "USPS COLLECTION BOX - PO LOBBY", "note": "ON 12/24 AND 12/31, THIS BOX MAY BE COLLECTED AS EARLY AS 12 NOON.", "ref": "7039200007"}, "type": "Feature"}
{"geometry": {"coordinates": [-91.3100985, 29.6928], "type": "Point"}, "id": "Popf5TbvtHQvwsQp8mKREO20jSQ=", "properties": {"@spider": "usps_collection_boxes", "addr:city": "PATTERSON", "addr:country": "US", "addr:full": "600 CATHERINE ST", "addr:postcode": "70392", "addr:state": "LA", "brand": "USPS", "collection_times": "Mo-Fr 16:00; Sa 12:30", "name": "USPS COLLECTION BOX - PO LOBBY", "note": "ON 12/24 AND 12/31, THIS BOX MAY BE COLLECTED AS EARLY AS 12 NOON.", "ref": "7039200009"}, "type": "Feature"}
{"geometry": {"coordinates": [-91.026616013, 29.997951144], "type": "Point"}, "id": "N8DBDUNXd-O2voSPYTubpdiW0vw=", "properties": {"@spider": "usps_collection_boxes", "addr:city": "PLATTENVILLE", "addr:country": "US", "addr:full": "220 HIGHWAY 70 SPUR", "addr:postcode": "70393", "addr:state": "LA", "brand": "USPS", "collection_times": "Mo-Fr 15:30; Sa 08:45", "name": "USPS COLLECTION BOX - BLUE BOX", "note": "ON 12/24 AND 12/31, THIS BOX MAY BE COLLECTED AS EARLY AS 12 NOON.", "ref": "7039300001"}, "type": "Feature"}
{"geometry": {"coordinates": [-91.026616013, 29.997951144], "type": "Point"}, "id": "6WUQe_W11oQ16O5cQSsZcdB0u18=", "properties": {"@spider": "usps_collection_boxes", "addr:city": "PLATTENVILLE", "addr:country": "US", "addr:full": "220 HIGHWAY 70 SPUR", "addr:postcode": "70393", "addr:state": "LA", "brand": "USPS", "collection_times": "Mo-Fr 15:30; Sa 08:45", "name": "USPS COLLECTION BOX - PO LOBBY", "note": "ON 12/24 AND 12/31, THIS BOX MAY BE COLLECTED AS EARLY AS 12 NOON.", "ref": "7039300003"}, "type": "Feature"}
{"geometry": {"coordinates": [-91.026616013, 29.997951144], "type": "Point"}, "id": "0prHKobBI0riqJYW9m5h5c9Yiek=", "properties": {"@spider": "usps_collection_boxes", "addr:city": "PLATTENVILLE", "addr:country": "US", "addr:full": "220 HIGHWAY 70 SPUR", "addr:postcode": "70393", "addr:state": "LA", "brand": "USPS", "collection_times": "Mo-Fr 15:30; Sa 09:30", "name": "USPS COLLECTION BOX - PO LOBBY", "note": "ON 12/24 AND 12/31, THIS BOX MAY BE COLLECTED AS EARLY AS 12 NOON.", "ref": "7039300005"}, "type": "Feature"}
{"geometry": {"coordinates": [-90.59889878, 29.729812504], "type": "Point"}, "id": "f1gtGW5DwLKJJS20UqbTEPJGZYY=", "properties": {"@spider": "usps_collection_boxes", "addr:city": "RACELAND", "addr:country": "US", "addr:full": "109 RACELAND ST", "addr:postcode": "70394", "addr:state": "LA", "brand": "USPS", "collection_times": "Mo-Fr 16:00; Sa 13:00", "name": "USPS COLLECTION BOX - BLUE BOX", "note": "ON 12/24 AND 12/31, THIS BOX MAY BE COLLECTED AS EARLY AS 12 NOON.", "ref": "7039400004"}, "type": "Feature"}
{"geometry": {"coordinates": [-90.59889878, 29.729812504], "type": "Point"}, "id": "Rr1rrpYBIYtseHIj884lg4bS1NI=", "properties": {"@spider": "usps_collection_boxes", "addr:city": "RACELAND", "addr:country": "US", "addr:full": "109 RACELAND ST", "addr:postcode": "70394", "addr:state": "LA", "brand": "USPS", "collection_times": "Mo-Fr 16:00; Sa 13:00", "name": "USPS COLLECTION BOX - PO LOBBY", "note": "ON 12/24 AND 12/31, THIS BOX MAY BE COLLECTED AS EARLY AS 12 NOON.", "ref": "7039400006"}, "type": "Feature"}
{"geometry": {"coordinates": [-90.59889878, 29.729812504], "type": "Point"}, "id": "n8Yj8xvvGYfhEbDyan_oqKbbWho=", "properties": {"@spider": "usps_collection_boxes", "addr:city": "RACELAND", "addr:country": "US", "addr:full": "109 RACELAND ST", "addr:postcode": "70394", "addr:state": "LA", "brand": "USPS", "collection_times": "Mo-Fr 16:30; Sa 12:00", "name": "USPS COLLECTION BOX - PO LOBBY", "note": "ON 12/24 AND 12/31, THIS BOX MAY BE COLLECTED AS EARLY AS 12 NOON.", "ref": "7039400010"}, "type": "Feature"}
{"geometry": {"coordinates": [-90.8094015, 29.74518], "type": "Point"}, "id": "dMbzihC_HFzpndsw1NkjV1S8Oa0=", "properties": {"@spider": "usps_collection_boxes", "addr:city": "SCHRIEVER", "addr:country": "US", "addr:full": "201 OLD HIGHWAY 659", "addr:postcode": "70395", "addr:state": "LA", "brand": "USPS", "collection_times": "Mo-Fr 15:30; Sa 10:00", "name": "USPS COLLECTION BOX - BLUE BOX", "note": "ON 12/24 AND 12/31, THIS BOX MAY BE COLLECTED AS EARLY AS 12 NOON.", "ref": "7039500001"}, "type": "Feature"}
{"geometry": {"coordinates": [-90.809838176, 29.744974601], "type": "Point"}, "id": "fxt9yskdxsLsuqDRfqs1ejMUyR0=", "properties": {"@spider": "usps_collection_boxes", "addr:city": "SCHRIEVER", "addr:country": "US", "addr:full": "201 OLD HIGHWAY 659", "addr:postcode": "70395", "addr:state": "LA", "brand": "USPS", "collection_times": "Mo-Fr 15:30; Sa 10:00", "name": "USPS COLLECTION BOX - PO LOBBY", "note": "ON 12/24 AND 12/31, THIS BOX MAY BE COLLECTED AS EARLY AS 12 NOON.", "ref": "7039500004"}, "type": "Feature"}
{"geometry": {"coordinates": [-90.809838176, 29.744974601], "type": "Point"}, "id": "8_aX8sfrYX8qbeXNczTOpNS-J6I=", "properties": {"@spider": "usps_collection_boxes", "addr:city": "SCHRIEVER", "addr:country": "US", "addr:full": "201 OLD HIGHWAY 659", "addr:postcode": "70395", "addr:state": "LA", "brand": "USPS", "collection_times": "Mo-Fr 16:00; Sa 10:00", "name": "USPS COLLECTION BOX - PO LOBBY", "note": "ON 12/24 AND 12/31, THIS BOX MAY BE COLLECTED AS EARLY AS 12 NOON.", "ref": "7039500005"}, "type": "Feature"}
