{"geometry": {"coordinates": [-90.46609, 30.50828], "type": "Point"}, "id": "WLLDlbsLrXZXD0SvDJpWjBV4PN0=", "properties": {"@source_uri": "https://tools.usps.com/UspsToolsRestServices/rest/POLocator/findLocations", "@spider": "usps_collection_boxes", "addr:city": "HAMMOND", "addr:country": "US", "addr:postcode": "70401", "addr:state": "LA", "addr:street_address": "105 NW RAILROAD AVE", "amenity": "post_box", "collection_times": "Mo-Fr 17:00; Sa 15:45", "note": "ON 12/24 AND 12/31, THIS BOX MAY BE COLLECTED AS EARLY AS 12 NOON.", "nsi_id": "unitedstatespostalservice-a77078", "operator": "United States Postal Service", "operator:short": "USPS", "operator:type": "public", "operator:wikidata": "Q668687", "ref": "7040100003"}, "type": "Feature"}
{"geometry": {"coordinates": [-90.461840979, 30.504481006], "type": "Point"}, "id": "1KwRxp19lUczhtXsO8Lj6Ir0CAI=", "properties": {"@source_uri": "https://tools.usps.com/UspsToolsRestServices/rest/POLocator/findLocations", "@spider": "usps_collection_boxes", "addr:city": "HAMMOND", "addr:country": "US", "addr:postcode": "70401", "addr:state": "LA", "addr:street_address": "105 NW RAILROAD AVE", "amenity": "post_box", "collection_times": "Mo-Fr 17:00; Sa 15:45", "note": "ON 12/24 AND 12/31, THIS BOX MAY BE COLLECTED AS EARLY AS 12 NOON.", "nsi_id": "unitedstatespostalservice-a77078", "operator": "United States Postal Service", "operator:short": "USPS", "operator:type": "public", "operator:wikidata": "Q668687", "ref": "7040100004"}, "type": "Feature"}
{"geometry": {"coordinates": [-90.461840979, 30.504481006], "type": "Point"}, "id": "1-AYjVTq4XspKfqWkG1-kc39X8M=", "properties": {"@source_uri": "https://tools.usps.com/UspsToolsRestServices/rest/POLocator/findLocations", "@spider": "usps_collection_boxes", "addr:city": "HAMMOND", "addr:country": "US", "addr:postcode": "70401", "addr:state": "LA", "addr:street_address": "105 NW RAILROAD AVE", "amenity": "post_box", "collection_times": "Mo-Fr 17:00; Sa 15:45", "indoor": "yes", "note": "ON 12/24 AND 12/31, THIS BOX MAY BE COLLECTED AS EARLY AS 12 NOON.", "nsi_id": "unitedstatespostalservice-a77078", "operator": "United States Postal Service", "operator:short": "USPS", "operator:type": "public", "operator:wikidata": "Q668687", "ref": "7040100024"}, "type": "Feature"}
{"geometry": {"coordinates": [-90.461840979, 30.504481006], "type": "Point"}, "id": "awDscCktMaoDNJgpK39oXzRLltQ=", "properties": {"@source_uri": "https://tools.usps.com/UspsToolsRestServices/rest/POLocator/findLocations", "@spider": "usps_collection_boxes", "addr:city": "HAMMOND", "addr:country": "US", "addr:postcode": "70401", "addr:state": "LA", "addr:street_address": "105 NW RAILROAD AVE", "amenity": "post_box", "collection_times": "Mo-Fr 17:00; Sa 12:00", "indoor": "yes", "note": "ON 12/24 AND 12/31, THIS BOX MAY BE COLLECTED AS EARLY AS 12 NOON.", "nsi_id": "unitedstatespostalservice-a77078", "operator": "United States Postal Service", "operator:short": "USPS", "operator:type": "public", "operator:wikidata": "Q668687", "ref": "7040100038"}, "type": "Feature"}
{"geometry": {"coordinates": [-90.45628604, 30.484949998], "type": "Point"}, "id": "gaRlfpjUvcOf60c3yPkQ6VUbSe8=", "properties": {"@source_uri": "https://tools.usps.com/UspsToolsRestServices/rest/POLocator/findLocations", "@spider": "usps_collection_boxes", "addr:city": "HAMMOND", "addr:country": "US", "addr:postcode": "70403", "addr:state": "LA", "addr:street_address": "1745 SW RAILROAD AVE", "amenity": "post_box", "collection_times": "Mo-Fr 16:45", "note": "ON 12/24 AND 12/31, THIS BOX MAY BE COLLECTED AS EARLY AS 12 NOON.", "nsi_id": "unitedstatespostalservice-a77078", "operator": "United States Postal Service", "operator:short": "USPS", "operator:type": "public", "operator:wikidata": "Q668687", "ref": "7040300005"}, "type": "Feature"}
{"geometry": {"coordinates": [-90.028365995, 30.479807994], "type": "Point"}, "id": "ci6XS3GY0Qp0_zJPTKPRMjwtMhY=", "properties": {"@source_uri": "https://tools.usps.com/UspsToolsRestServices/rest/POLocator/findLocations", "@spider": "usps_collection_boxes", "addr:city": "ABITA SPRINGS", "addr:country": "US", "addr:postcode": "70420", "addr:state": "LA", "addr:street_address": "22444 HIGHWAY 435", "amenity": "post_box", "collection_times": "Mo-Fr 16:15; Sa 10:45", "indoor": "yes", "note": "ON 12/24 AND 12/31, THIS BOX MAY BE COLLECTED AS EARLY AS 12 NOON.", "nsi_id": "unitedstatespostalservice-a77078", "operator": "United States Postal Service", "operator:short": "USPS", "operator:type": "public", "operator:wikidata": "Q668687", "ref": "7042000005"}, "type": "Feature"}
{"geometry": {"coordinates": [-90.028365995, 30.479807994], "type": "Point"}, "id": "WOLxwWrss6ibyTBN-_DEOnqDhUQ=", "properties": {"@source_uri": "https://tools.usps.com/UspsToolsRestServices/rest/POLocator/findLocations", "@spider": "usps_collection_boxes", "addr:city": "ABITA SPRINGS", "addr:country": "US", "addr:postcode": "70420", "addr:state": "LA", "addr:street_address": "22444 HIGHWAY 435", "amenity": "post_box", "collection_times": "Mo-Fr 16:15; Sa 10:45", "indoor": "yes", "note": "ON 12/24 AND 12/31, THIS BOX MAY BE COLLECTED AS EARLY AS 12 NOON.", "nsi_id": "unitedstatespostalservice-a77078", "operator": "United States Postal Service", "operator:short": "USPS", "operator:type": "public", "operator:wikidata": "Q668687", "ref": "7042000006"}, "type": "Feature"}
{"geometry": {"coordinates": [-90.028365995, 30.479807994], "type": "Point"}, "id": "njIhT7jZiRSvFQb2jDZ3si5kGbs=", "properties": {"@source_uri": "https://tools.usps.com/UspsToolsRestServices/rest/POLocator/findLocations", "@spider": "usps_collection_boxes", "addr:city": "ABITA SPRINGS", "addr:country": "US", "addr:postcode": "70420", "addr:state": "LA", "addr:street_address": "22444 HIGHWAY 435", "amenity": "post_box", "collection_times": "Mo-Fr 16:30; Sa 11:00", "indoor": "yes", "note": "ON 12/24 AND 12/31, THIS BOX MAY BE COLLECTED AS EARLY AS 12 NOON.", "nsi_id": "unitedstatespostalservice-a77078", "operator": "United States Postal Service", "operator:short": "USPS", "operator:type": "public", "operator:wikidata": "Q668687", "ref": "7042000007"}, "type": "Feature"}
{"geometry": {"coordinates": [-90.508106248, 30.728101981], "type": "Point"}, "id": "nxU4w-QjP-kcd55YBupUE8Cpq7E=", "properties": {"@source_uri": "https://tools.usps.com/UspsToolsRestServices/rest/POLocator/findLocations", "@spider": "usps_collection_boxes", "addr:city": "AMITE", "addr:country": "US", "addr:postcode": "70422", "addr:state": "LA", "addr:street_address": "113 E MULBERRY ST", "amenity": "post_box", "collection_times": "Mo-Fr 16:00; Sa 11:00", "note": "ON 12/24 AND 12/31, THIS BOX MAY BE COLLECTED AS EARLY AS 12 NOON.", "nsi_id": "unitedstatespostalservice-a77078", "operator": "United States Postal Service", "operator:short": "USPS", "operator:type": "public", "operator:wikidata": "Q668687", "ref": "7042200002"}, "type": "Feature"}
{"geometry": {"coordinates": [-90.508106248, 30.728101981], "type": "Point"}, "id": "J3TSBVlLxfZwxyISROoJ4yxsoDc=", "properties": {"@source_uri": "https://tools.usps.com/UspsToolsRestServices/rest/POLocator/findLocations", "@spider": "usps_collection_boxes", "addr:city": "AMITE", "addr:country": "US", "addr:postcode": "70422", "addr:state": "LA", "addr:street_address": "113 E MULBERRY ST", "amenity": "post_box", "collection_times": "Mo-Fr 16:00; Sa 11:00", "indoor": "yes", "note": "ON 12/24 AND 12/31, THIS BOX MAY BE COLLECTED AS EARLY AS 12 NOON.", "nsi_id": "unitedstatespostalservice-a77078", "operator": "United States Postal Service", "operator:short": "USPS", "operator:type": "public", "operator:wikidata": "Q668687", "ref": "7042200010"}, "type": "Feature"}
{"geometry": {"coordinates": [-90.505235963, 30.726904128], "type": "Point"}, "id": "pOf3s0P41pWDx_h4DvELsnXEBSg=", "properties": {"@source_uri": "https://tools.usps.com/UspsToolsRestServices/rest/POLocator/findLocations", "@spider": "usps_collection_boxes", "addr:city": "AMITE", "addr:country": "US", "addr:postcode": "70422", "addr:state": "LA", "addr:street_address": "110 N BAY ST", "amenity": "post_box", "collection_times": "Mo-Fr 14:00; Sa 11:30", "note": "ON 12/24 AND 12/31, THIS BOX MAY BE COLLECTED AS EARLY AS 12 NOON.", "nsi_id": "unitedstatespostalservice-a77078", "operator": "United States Postal Service", "operator:short": "USPS", "operator:type": "public", "operator:wikidata": "Q668687", "ref": "7042200011"}, "type": "Feature"}
{"geometry": {"coordinates": [-90.508106248, 30.728101981], "type": "Point"}, "id": "8C40xUUQccrO5JKXNQ9BqkTD-MY=", "properties": {"@source_uri": "https://tools.usps.com/UspsToolsRestServices/rest/POLocator/findLocations", "@spider": "usps_collection_boxes", "addr:city": "AMITE", "addr:country": "US", "addr:postcode": "70422", "addr:state": "LA", "addr:street_address": "113 E MULBERRY ST", "amenity": "post_box", "collection_times": "Mo-Fr 16:00; Sa 10:30", "indoor": "yes", "note": "ON 12/24 AND 12/31, THIS BOX MAY BE COLLECTED AS EARLY AS 12 NOON.", "nsi_id": "unitedstatespostalservice-a77078", "operator": "United States Postal Service", "operator:short": "USPS", "operator:type": "public", "operator:wikidata": "Q668687", "ref": "7042200016"}, "type": "Feature"}
{"geometry": {"coordinates": [-89.813158032, 30.957628987], "type": "Point"}, "id": "c91bi3b6fJGaYO26eV590ozzsWU=", "properties": {"@source_uri": "https://tools.usps.com/UspsToolsRestServices/rest/POLocator/findLocations", "@spider": "usps_collection_boxes", "addr:city": "ANGIE", "addr:country": "US", "addr:postcode": "70426", "addr:state": "LA", "addr:street_address": "29891 HIGHWAY 21", "amenity": "post_box", "collection_times": "Mo-Fr 16:00; Sa 10:00", "indoor": "yes", "note": "ON 12/24 AND 12/31, THIS BOX MAY BE COLLECTED AS EARLY AS 12 NOON.", "nsi_id": "unitedstatespostalservice-a77078", "operator": "United States Postal Service", "operator:short": "USPS", "operator:type": "public", "operator:wikidata": "Q668687", "ref": "7042600002"}, "type": "Feature"}
{"geometry": {"coordinates": [-89.813158032, 30.957628987], "type": "Point"}, "id": "WI0qaGDfygI5RFvmv2ACLSRAdnE=", "properties": {"@source_uri": "https://tools.usps.com/UspsToolsRestServices/rest/POLocator/findLocations", "@spider": "usps_collection_boxes", "addr:city": "ANGIE", "addr:country": "US", "addr:postcode": "70426", "addr:state": "LA", "addr:street_address": "29891 HIGHWAY 21", "amenity": "post_box", "collection_times": "Mo-Fr 16:00; Sa 10:00", "note": "ON 12/24 AND 12/31, THIS BOX MAY BE COLLECTED AS EARLY AS 12 NOON.", "nsi_id": "unitedstatespostalservice-a77078", "operator": "United States Postal Service", "operator:short": "USPS", "operator:type": "public", "operator:wikidata": "Q668687", "ref": "7042600005"}, "type": "Feature"}
{"geometry": {"coordinates": [-89.813158032, 30.957628987], "type": "Point"}, "id": "B1Xs-zy8sJijSqxEmZyzAsDtehc=", "properties": {"@source_uri": "https://tools.usps.com/UspsToolsRestServices/rest/POLocator/findLocations", "@spider": "usps_collection_boxes", "addr:city": "ANGIE", "addr:country": "US", "addr:postcode": "70426", "addr:state": "LA", "addr:street_address": "29891 HIGHWAY 21", "amenity": "post_box", "collection_times": "Mo-Fr 16:00; Sa 10:00", "indoor": "yes", "note": "ON 12/24 AND 12/31, THIS BOX MAY BE COLLECTED AS EARLY AS 12 NOON.", "nsi_id": "unitedstatespostalservice-a77078", "operator": "United States Postal Service", "operator:short": "USPS", "operator:type": "public", "operator:wikidata": "Q668687", "ref": "7042600006"}, "type": "Feature"}
{"geometry": {"coordinates": [-89.866020987, 30.779518668], "type": "Point"}, "id": "rP5-a9_BciUGvTDPxMPe4XIGA7k=", "properties": {"@source_uri": "https://tools.usps.com/UspsToolsRestServices/rest/POLocator/findLocations", "@spider": "usps_collection_boxes", "addr:city": "BOGALUSA", "addr:country": "US", "addr:postcode": "70427", "addr:state": "LA", "addr:street_address": "100 M J ISRAEL DR", "amenity": "post_box", "collection_times": "Mo-Fr 16:30; Sa 15:30", "note": "ON 12/24 AND 12/31, THIS BOX MAY BE COLLECTED AS EARLY AS 12 NOON.", "nsi_id": "unitedstatespostalservice-a77078", "operator": "United States Postal Service", "operator:short": "USPS", "operator:type": "public", "operator:wikidata": "Q668687", "ref": "7042700003"}, "type": "Feature"}
{"geometry": {"coordinates": [-89.854335804, 30.774684023], "type": "Point"}, "id": "PUPigcVdheKYNp1YTb1uHiacETA=", "properties": {"@source_uri": "https://tools.usps.com/UspsToolsRestServices/rest/POLocator/findLocations", "@spider": "usps_collection_boxes", "addr:city": "BOGALUSA", "addr:country": "US", "addr:postcode": "70427", "addr:state": "LA", "addr:street_address": "500 COLUMBIA ST", "amenity": "post_box", "collection_times": "Mo-Fr 10:00", "nsi_id": "unitedstatespostalservice-a77078", "operator": "United States Postal Service", "operator:short": "USPS", "operator:type": "public", "operator:wikidata": "Q668687", "ref": "7042700012"}, "type": "Feature"}
{"geometry": {"coordinates": [-89.857970034, 30.786296013], "type": "Point"}, "id": "fijAyOD8_MVSzNP0C_ySqLAbmpg=", "properties": {"@source_uri": "https://tools.usps.com/UspsToolsRestServices/rest/POLocator/findLocations", "@spider": "usps_collection_boxes", "addr:city": "BOGALUSA", "addr:country": "US", "addr:postcode": "70427", "addr:state": "LA", "addr:street_address": "400 GEORGIA AVE", "amenity": "post_box", "collection_times": "Mo-Fr 09:30", "nsi_id": "unitedstatespostalservice-a77078", "operator": "United States Postal Service", "operator:short": "USPS", "operator:type": "public", "operator:wikidata": "Q668687", "ref": "7042700014"}, "type": "Feature"}
{"geometry": {"coordinates": [-89.860786582, 30.790942725], "type": "Point"}, "id": "bY670dUZsWnBBHpeWEUo7wk4Ndw=", "properties": {"@source_uri": "https://tools.usps.com/UspsToolsRestServices/rest/POLocator/findLocations", "@spider": "usps_collection_boxes", "addr:city": "BOGALUSA", "addr:country": "US", "addr:postcode": "70427", "addr:state": "LA", "addr:street_address": "200 SUPERIOR AVE", "amenity": "post_box", "collection_times": "Mo-Fr 10:00", "nsi_id": "unitedstatespostalservice-a77078", "operator": "United States Postal Service", "operator:short": "USPS", "operator:type": "public", "operator:wikidata": "Q668687", "ref": "7042700016"}, "type": "Feature"}
{"geometry": {"coordinates": [-89.866146999, 30.779457009], "type": "Point"}, "id": "yL8rL0CNogxJh7CufSpsrkLfLJI=", "properties": {"@source_uri": "https://tools.usps.com/UspsToolsRestServices/rest/POLocator/findLocations", "@spider": "usps_collection_boxes", "addr:city": "BOGALUSA", "addr:country": "US", "addr:postcode": "70427", "addr:state": "LA", "addr:street_address": "305 AVENUE B", "amenity": "post_box", "collection_times": "Mo-Fr 16:30; Sa 15:30", "indoor": "yes", "note": "ON 12/24 AND 12/31, THIS BOX MAY BE COLLECTED AS EARLY AS 12 NOON.", "nsi_id": "unitedstatespostalservice-a77078", "operator": "United States Postal Service", "operator:short": "USPS", "operator:type": "public", "operator:wikidata": "Q668687", "ref": "7042700025"}, "type": "Feature"}
{"geometry": {"coordinates": [-89.866146999, 30.779457009], "type": "Point"}, "id": "R2PGIDinXTj1bZJ1JizeCdcD5So=", "properties": {"@source_uri": "https://tools.usps.com/UspsToolsRestServices/rest/POLocator/findLocations", "@spider": "usps_collection_boxes", "addr:city": "BOGALUSA", "addr:country": "US", "addr:postcode": "70427", "addr:state": "LA", "addr:street_address": "305 AVENUE B", "amenity": "post_box", "collection_times": "Mo-Fr 16:30; Sa 12:00", "indoor": "yes", "note": "ON 12/24 AND 12/31, THIS BOX MAY BE COLLECTED AS EARLY AS 12 NOON.", "nsi_id": "unitedstatespostalservice-a77078", "operator": "United States Postal Service", "operator:short": "USPS", "operator:type": "public", "operator:wikidata": "Q668687", "ref": "7042700029"}, "type": "Feature"}
{"geometry": {"coordinates": [-89.898307021, 30.613457985], "type": "Point"}, "id": "zwhfHJrVp9SrfA-EvVCcxpire74=", "properties": {"@source_uri": "https://tools.usps.com/UspsToolsRestServices/rest/POLocator/findLocations", "@spider": "usps_collection_boxes", "addr:city": "BUSH", "addr:country": "US", "addr:postcode": "70431", "addr:state": "LA", "addr:street_address": "81880 HIGHWAY 41", "amenity": "post_box", "collection_times": "Mo-Fr 15:30; Sa 11:00", "note": "ON 12/24 AND 12/31, THIS BOX MAY BE COLLECTED AS EARLY AS 12 NOON.", "nsi_id": "unitedstatespostalservice-a77078", "operator": "United States Postal Service", "operator:short": "USPS", "operator:type": "public", "operator:wikidata": "Q668687", "ref": "7043100001"}, "type": "Feature"}
{"geometry": {"coordinates": [-89.898307021, 30.613457985], "type": "Point"}, "id": "XtjWn0pCG1iFRcsxMjfDOSbOr3w=", "properties": {"@source_uri": "https://tools.usps.com/UspsToolsRestServices/rest/POLocator/findLocations", "@spider": "usps_collection_boxes", "addr:city": "BUSH", "addr:country": "US", "addr:postcode": "70431", "addr:state": "LA", "addr:street_address": "81880 HIGHWAY 41", "amenity": "post_box", "collection_times": "Mo-Fr 15:30; Sa 11:00", "indoor": "yes", "note": "ON 12/24 AND 12/31, THIS BOX MAY BE COLLECTED AS EARLY AS 12 NOON.", "nsi_id": "unitedstatespostalservice-a77078", "operator": "United States Postal Service", "operator:short": "USPS", "operator:type": "public", "operator:wikidata": "Q668687", "ref": "7043100002"}, "type": "Feature"}
{"geometry": {"coordinates": [-89.898307021, 30.613457985], "type": "Point"}, "id": "gRv-yE-mGKFoY1ZP0BQLKZdyvRg=", "properties": {"@source_uri": "https://tools.usps.com/UspsToolsRestServices/rest/POLocator/findLocations", "@spider": "usps_collection_boxes", "addr:city": "BUSH", "addr:country": "US", "addr:postcode": "70431", "addr:state": "LA", "addr:street_address": "81880 HIGHWAY 41", "amenity": "post_box", "collection_times": "Mo-Fr 15:30; Sa 11:00", "indoor": "yes", "note": "ON 12/24 AND 12/31, THIS BOX MAY BE COLLECTED AS EARLY AS 12 NOON.", "nsi_id": "unitedstatespostalservice-a77078", "operator": "United States Postal Service", "operator:short": "USPS", "operator:type": "public", "operator:wikidata": "Q668687", "ref": "7043100004"}, "type": "Feature"}
{"geometry": {"coordinates": [-90.090502971, 30.479825009], "type": "Point"}, "id": "r8Xojq8Vn1zLYU4NodP-WrSZPSc=", "properties": {"@source_uri": "https://tools.usps.com/UspsToolsRestServices/rest/POLocator/findLocations", "@spider": "usps_collection_boxes", "addr:city": "COVINGTON", "addr:country": "US", "addr:postcode": "70433", "addr:state": "LA", "addr:street_address": "800 COVINGTON CENTRE", "amenity": "post_box", "collection_times": "Mo-Fr 10:00", "nsi_id": "unitedstatespostalservice-a77078", "operator": "United States Postal Service", "operator:short": "USPS", "operator:type": "public", "operator:wikidata": "Q668687", "ref": "7043300005"}, "type": "Feature"}
{"geometry": {"coordinates": [-90.137633993, 30.453796014], "type": "Point"}, "id": "dPAZf4jkfYG__STC35ePuKneOcM=", "properties": {"@source_uri": "https://tools.usps.com/UspsToolsRestServices/rest/POLocator/findLocations", "@spider": "usps_collection_boxes", "addr:city": "COVINGTON", "addr:country": "US", "addr:postcode": "70433", "addr:state": "LA", "addr:street_address": "70431 HIGHWAY 21", "amenity": "post_box", "collection_times": "Mo-Fr 10:45", "nsi_id": "unitedstatespostalservice-a77078", "operator": "United States Postal Service", "operator:short": "USPS", "operator:type": "public", "operator:wikidata": "Q668687", "ref": "7043300009"}, "type": "Feature"}
{"geometry": {"coordinates": [-90.08170499, 30.437599998], "type": "Point"}, "id": "w90SXHxiCJK6wANsfrxswK-pjys=", "properties": {"@source_uri": "https://tools.usps.com/UspsToolsRestServices/rest/POLocator/findLocations", "@spider": "usps_collection_boxes", "addr:city": "COVINGTON", "addr:country": "US", "addr:postcode": "70433", "addr:state": "LA", "addr:street_address": "600 N HIGHWAY 190", "amenity": "post_box", "collection_times": "Mo-Fr 13:00", "note": "ON 12/24 AND 12/31, THIS BOX MAY BE COLLECTED AS EARLY AS 12 NOON.", "nsi_id": "unitedstatespostalservice-a77078", "operator": "United States Postal Service", "operator:short": "USPS", "operator:type": "public", "operator:wikidata": "Q668687", "ref": "7043300011"}, "type": "Feature"}
{"geometry": {"coordinates": [-90.100232014, 30.474606981], "type": "Point"}, "id": "h2MHGaln2Gax7sukQjj5Qmc_-po=", "properties": {"@source_uri": "https://tools.usps.com/UspsToolsRestServices/rest/POLocator/findLocations", "@spider": "usps_collection_boxes", "addr:city": "COVINGTON", "addr:country": "US", "addr:postcode": "70433", "addr:state": "LA", "addr:street_address": "125 E 21ST AVE", "amenity": "post_box", "collection_times": "Mo-Fr 10:45", "nsi_id": "unitedstatespostalservice-a77078", "operator": "United States Postal Service", "operator:short": "USPS", "operator:type": "public", "operator:wikidata": "Q668687", "ref": "7043300016"}, "type": "Feature"}
{"geometry": {"coordinates": [-90.080396994, 30.441739988], "type": "Point"}, "id": "zaUSuwu4TxFk3pjPw61pIuLonuM=", "properties": {"@source_uri": "https://tools.usps.com/UspsToolsRestServices/rest/POLocator/findLocations", "@spider": "usps_collection_boxes", "addr:city": "COVINGTON", "addr:country": "US", "addr:postcode": "70433", "addr:state": "LA", "addr:street_address": "50 PARK PLACE DR", "amenity": "post_box", "collection_times": "Mo-Fr 09:30", "nsi_id": "unitedstatespostalservice-a77078", "operator": "United States Postal Service", "operator:short": "USPS", "operator:type": "public", "operator:wikidata": "Q668687", "ref": "7043300023"}, "type": "Feature"}
{"geometry": {"coordinates": [-90.080937304, 30.409792923], "type": "Point"}, "id": "mtAkORU_7yeXh3NKc4bL7BM4X2U=", "properties": {"@source_uri": "https://tools.usps.com/UspsToolsRestServices/rest/POLocator/findLocations", "@spider": "usps_collection_boxes", "addr:city": "COVINGTON", "addr:country": "US", "addr:postcode": "70433", "addr:state": "LA", "addr:street_address": "101 FAIRWAY DR", "amenity": "post_box", "collection_times": "Mo-Fr 10:45", "nsi_id": "unitedstatespostalservice-a77078", "operator": "United States Postal Service", "operator:short": "USPS", "operator:type": "public", "operator:wikidata": "Q668687", "ref": "7043300024"}, "type": "Feature"}
{"geometry": {"coordinates": [-90.078790016, 30.443289005], "type": "Point"}, "id": "xXFHCZPvx2Fvv1EqwNbB4li0v-E=", "properties": {"@source_uri": "https://tools.usps.com/UspsToolsRestServices/rest/POLocator/findLocations", "@spider": "usps_collection_boxes", "addr:city": "COVINGTON", "addr:country": "US", "addr:postcode": "70433", "addr:state": "LA", "addr:street_address": "880 N HIGHWAY 190", "amenity": "post_box", "collection_times": "Mo-Fr 10:15", "nsi_id": "unitedstatespostalservice-a77078", "operator": "United States Postal Service", "operator:short": "USPS", "operator:type": "public", "operator:wikidata": "Q668687", "ref": "7043300025"}, "type": "Feature"}
{"geometry": {"coordinates": [-90.133704517, 30.458587244], "type": "Point"}, "id": "XzwesjGFh43oWwWeIWQr7mGJy2o=", "properties": {"@source_uri": "https://tools.usps.com/UspsToolsRestServices/rest/POLocator/findLocations", "@spider": "usps_collection_boxes", "addr:city": "COVINGTON", "addr:country": "US", "addr:postcode": "70433", "addr:state": "LA", "addr:street_address": "203 HIGHLAND PARK PLZ", "amenity": "post_box", "collection_times": "Mo-Fr 09:30", "nsi_id": "unitedstatespostalservice-a77078", "operator": "United States Postal Service", "operator:short": "USPS", "operator:type": "public", "operator:wikidata": "Q668687", "ref": "7043300034"}, "type": "Feature"}
{"geometry": {"coordinates": [-90.105854007, 30.496257018], "type": "Point"}, "id": "mDiQuHqA1t58SWzpDYwfouIAeeA=", "properties": {"@source_uri": "https://tools.usps.com/UspsToolsRestServices/rest/POLocator/findLocations", "@spider": "usps_collection_boxes", "addr:city": "COVINGTON", "addr:country": "US", "addr:postcode": "70433", "addr:state": "LA", "addr:street_address": "1775 N COLUMBIA ST", "amenity": "post_box", "collection_times": "Mo-Fr 17:00; Sa 15:00", "indoor": "yes", "note": "ON 12/24 AND 12/31, THIS BOX MAY BE COLLECTED AS EARLY AS 12 NOON.", "nsi_id": "unitedstatespostalservice-a77078", "operator": "United States Postal Service", "operator:short": "USPS", "operator:type": "public", "operator:wikidata": "Q668687", "ref": "7043300036"}, "type": "Feature"}
{"geometry": {"coordinates": [-90.096339961, 30.480172984], "type": "Point"}, "id": "j8IbWq9lBYtotu5tTdRO3rZ2JJg=", "properties": {"@source_uri": "https://tools.usps.com/UspsToolsRestServices/rest/POLocator/findLocations", "@spider": "usps_collection_boxes", "addr:city": "COVINGTON", "addr:country": "US", "addr:postcode": "70433", "addr:state": "LA", "addr:street_address": "701 N COLUMBIA ST", "amenity": "post_box", "collection_times": "Mo-Fr 14:45", "note": "ON 12/24 AND 12/31, THIS BOX MAY BE COLLECTED AS EARLY AS 12 NOON.", "nsi_id": "unitedstatespostalservice-a77078", "operator": "United States Postal Service", "operator:short": "USPS", "operator:type": "public", "operator:wikidata": "Q668687", "ref": "7043300038"}, "type": "Feature"}
{"geometry": {"coordinates": [-90.113314991, 30.468014991], "type": "Point"}, "id": "jKrZIkfML4tfb4YYXuGdvkpJNKo=", "properties": {"@source_uri": "https://tools.usps.com/UspsToolsRestServices/rest/POLocator/findLocations", "@spider": "usps_collection_boxes", "addr:city": "COVINGTON", "addr:country": "US", "addr:postcode": "70433", "addr:state": "LA", "addr:street_address": "1202 S TYLER ST", "amenity": "post_box", "collection_times": "Mo-Fr 11:30", "nsi_id": "unitedstatespostalservice-a77078", "operator": "United States Postal Service", "operator:short": "USPS", "operator:type": "public", "operator:wikidata": "Q668687", "ref": "7043300039"}, "type": "Feature"}
{"geometry": {"coordinates": [-90.143884965, 30.441645021], "type": "Point"}, "id": "nCDCwStDKKDSnSiGVPlyUQnHbeg=", "properties": {"@source_uri": "https://tools.usps.com/UspsToolsRestServices/rest/POLocator/findLocations", "@spider": "usps_collection_boxes", "addr:city": "COVINGTON", "addr:country": "US", "addr:postcode": "70433", "addr:state": "LA", "addr:street_address": "69284 HIGHWAY 21", "amenity": "post_box", "collection_times": "Mo-Fr 12:15", "note": "ON 12/24 AND 12/31, THIS BOX MAY BE COLLECTED AS EARLY AS 12 NOON.", "nsi_id": "unitedstatespostalservice-a77078", "operator": "United States Postal Service", "operator:short": "USPS", "operator:type": "public", "operator:wikidata": "Q668687", "ref": "7043300040"}, "type": "Feature"}
{"geometry": {"coordinates": [-90.105854007, 30.496257018], "type": "Point"}, "id": "ANEC48e7-Y7MBwsnEoO7wCkvJEI=", "properties": {"@source_uri": "https://tools.usps.com/UspsToolsRestServices/rest/POLocator/findLocations", "@spider": "usps_collection_boxes", "addr:city": "COVINGTON", "addr:country": "US", "addr:postcode": "70433", "addr:state": "LA", "addr:street_address": "1775 N COLUMBIA ST", "amenity": "post_box", "collection_times": "Mo-Fr 16:30; Sa 12:00", "indoor": "yes", "note": "ON 12/24 AND 12/31, THIS BOX MAY BE COLLECTED AS EARLY AS 12 NOON.", "nsi_id": "unitedstatespostalservice-a77078", "operator": "United States Postal Service", "operator:short": "USPS", "operator:type": "public", "operator:wikidata": "Q668687", "ref": "7043300047"}, "type": "Feature"}
{"geometry": {"coordinates": [-90.511088351, 30.824132858], "type": "Point"}, "id": "Oy38ZyitYOlzzXh_dHA6swV_o80=", "properties": {"@source_uri": "https://tools.usps.com/UspsToolsRestServices/rest/POLocator/findLocations", "@spider": "usps_collection_boxes", "addr:city": "FLUKER", "addr:country": "US", "addr:postcode": "70436", "addr:state": "LA", "addr:street_address": "67013 HIGHWAY 51", "amenity": "post_box", "collection_times": "Mo-Fr 15:00; Sa 09:30", "note": "ON 12/24 AND 12/31, THIS BOX MAY BE COLLECTED AS EARLY AS 12 NOON.", "nsi_id": "unitedstatespostalservice-a77078", "operator": "United States Postal Service", "operator:short": "USPS", "operator:type": "public", "operator:wikidata": "Q668687", "ref": "7043600004"}, "type": "Feature"}
{"geometry": {"coordinates": [-90.511088351, 30.824132858], "type": "Point"}, "id": "Pr3jqHTFaTjj_4s14bKh_jUDgUE=", "properties": {"@source_uri": "https://tools.usps.com/UspsToolsRestServices/rest/POLocator/findLocations", "@spider": "usps_collection_boxes", "addr:city": "FLUKER", "addr:country": "US", "addr:postcode": "70436", "addr:state": "LA", "addr:street_address": "67013 HIGHWAY 51", "amenity": "post_box", "collection_times": "Mo-Fr 15:00; Sa 09:30", "indoor": "yes", "note": "ON 12/24 AND 12/31, THIS BOX MAY BE COLLECTED AS EARLY AS 12 NOON.", "nsi_id": "unitedstatespostalservice-a77078", "operator": "United States Postal Service", "operator:short": "USPS", "operator:type": "public", "operator:wikidata": "Q668687", "ref": "7043600005"}, "type": "Feature"}
{"geometry": {"coordinates": [-90.511088351, 30.824132858], "type": "Point"}, "id": "vi8eip1-Mdoe5cSdQ27S9kuz1P0=", "properties": {"@source_uri": "https://tools.usps.com/UspsToolsRestServices/rest/POLocator/findLocations", "@spider": "usps_collection_boxes", "addr:city": "FLUKER", "addr:country": "US", "addr:postcode": "70436", "addr:state": "LA", "addr:street_address": "67013 HIGHWAY 51", "amenity": "post_box", "collection_times": "Mo-Fr 15:30; Sa 09:30", "indoor": "yes", "note": "ON 12/24 AND 12/31, THIS BOX MAY BE COLLECTED AS EARLY AS 12 NOON.", "nsi_id": "unitedstatespostalservice-a77078", "operator": "United States Postal Service", "operator:short": "USPS", "operator:type": "public", "operator:wikidata": "Q668687", "ref": "7043600006"}, "type": "Feature"}
{"geometry": {"coordinates": [-90.187904039, 30.632590014], "type": "Point"}, "id": "HHUuWEVmcKlYNrjGfsOSi9TKc9E=", "properties": {"@source_uri": "https://tools.usps.com/UspsToolsRestServices/rest/POLocator/findLocations", "@spider": "usps_collection_boxes", "addr:city": "FOLSOM", "addr:country": "US", "addr:postcode": "70437", "addr:state": "LA", "addr:street_address": "82424 HIGHWAY 25", "amenity": "post_box", "collection_times": "Mo-Fr 16:00; Sa 11:00", "note": "ON 12/24 AND 12/31, THIS BOX MAY BE COLLECTED AS EARLY AS 12 NOON.", "nsi_id": "unitedstatespostalservice-a77078", "operator": "United States Postal Service", "operator:short": "USPS", "operator:type": "public", "operator:wikidata": "Q668687", "ref": "7043700001"}, "type": "Feature"}
{"geometry": {"coordinates": [-90.187904039, 30.632590014], "type": "Point"}, "id": "cWoECw8r6arYGr6A8kfbEMuWDYI=", "properties": {"@source_uri": "https://tools.usps.com/UspsToolsRestServices/rest/POLocator/findLocations", "@spider": "usps_collection_boxes", "addr:city": "FOLSOM", "addr:country": "US", "addr:postcode": "70437", "addr:state": "LA", "addr:street_address": "82424 HIGHWAY 25", "amenity": "post_box", "collection_times": "Mo-Fr 16:00; Sa 11:00", "indoor": "yes", "note": "ON 12/24 AND 12/31, THIS BOX MAY BE COLLECTED AS EARLY AS 12 NOON.", "nsi_id": "unitedstatespostalservice-a77078", "operator": "United States Postal Service", "operator:short": "USPS", "operator:type": "public", "operator:wikidata": "Q668687", "ref": "7043700002"}, "type": "Feature"}
{"geometry": {"coordinates": [-90.187904039, 30.632590014], "type": "Point"}, "id": "0Qy2V6kLQ2QOCpuWhPAMz67EFzg=", "properties": {"@source_uri": "https://tools.usps.com/UspsToolsRestServices/rest/POLocator/findLocations", "@spider": "usps_collection_boxes", "addr:city": "FOLSOM", "addr:country": "US", "addr:postcode": "70437", "addr:state": "LA", "addr:street_address": "82424 HIGHWAY 25", "amenity": "post_box", "collection_times": "Mo-Fr 16:30; Sa 11:00", "indoor": "yes", "note": "ON 12/24 AND 12/31, THIS BOX MAY BE COLLECTED AS EARLY AS 12 NOON.", "nsi_id": "unitedstatespostalservice-a77078", "operator": "United States Postal Service", "operator:short": "USPS", "operator:type": "public", "operator:wikidata": "Q668687", "ref": "7043700004"}, "type": "Feature"}
{"geometry": {"coordinates": [-90.155106146, 30.843907865], "type": "Point"}, "id": "F535YAmKTDq0gNhr6vV8EB1uVlQ=", "properties": {"@source_uri": "https://tools.usps.com/UspsToolsRestServices/rest/POLocator/findLocations", "@spider": "usps_collection_boxes", "addr:city": "FRANKLINTON", "addr:country": "US", "addr:postcode": "70438", "addr:state": "LA", "addr:street_address": "905 PEARL ST", "amenity": "post_box", "collection_times": "Mo-Fr 14:00", "note": "ON 12/24 AND 12/31, THIS BOX MAY BE COLLECTED AS EARLY AS 12 NOON.", "nsi_id": "unitedstatespostalservice-a77078", "operator": "United States Postal Service", "operator:short": "USPS", "operator:type": "public", "operator:wikidata": "Q668687", "ref": "7043800008"}, "type": "Feature"}
{"geometry": {"coordinates": [-90.1550960122, 30.8464150042], "type": "Point"}, "id": "-hzOX0fBqJ52gANZ7bNW3tEyiqg=", "properties": {"@source_uri": "https://tools.usps.com/UspsToolsRestServices/rest/POLocator/findLocations", "@spider": "usps_collection_boxes", "addr:city": "FRANKLINTON", "addr:country": "US", "addr:postcode": "70438", "addr:state": "LA", "addr:street_address": "805 LEE ST", "amenity": "post_box", "collection_times": "Mo-Fr 15:30; Sa 11:30", "note": "ON 12/24 AND 12/31, THIS BOX MAY BE COLLECTED AS EARLY AS 12 NOON.", "nsi_id": "unitedstatespostalservice-a77078", "operator": "United States Postal Service", "operator:short": "USPS", "operator:type": "public", "operator:wikidata": "Q668687", "ref": "7043800009"}, "type": "Feature"}
{"geometry": {"coordinates": [-90.155096012, 30.846415004], "type": "Point"}, "id": "TyZO6eH_PCGR0chgat_1E6TqIgA=", "properties": {"@source_uri": "https://tools.usps.com/UspsToolsRestServices/rest/POLocator/findLocations", "@spider": "usps_collection_boxes", "addr:city": "FRANKLINTON", "addr:country": "US", "addr:postcode": "70438", "addr:state": "LA", "addr:street_address": "805 LEE ST", "amenity": "post_box", "collection_times": "Mo-Fr 15:30; Sa 11:30", "indoor": "yes", "note": "ON 12/24 AND 12/31, THIS BOX MAY BE COLLECTED AS EARLY AS 12 NOON.", "nsi_id": "unitedstatespostalservice-a77078", "operator": "United States Postal Service", "operator:short": "USPS", "operator:type": "public", "operator:wikidata": "Q668687", "ref": "7043800011"}, "type": "Feature"}
{"geometry": {"coordinates": [-90.155096012, 30.846415004], "type": "Point"}, "id": "Jj7y_IoJGnhmvyXwaLRQ43BQLXA=", "properties": {"@source_uri": "https://tools.usps.com/UspsToolsRestServices/rest/POLocator/findLocations", "@spider": "usps_collection_boxes", "addr:city": "FRANKLINTON", "addr:country": "US", "addr:postcode": "70438", "addr:state": "LA", "addr:street_address": "805 LEE ST", "amenity": "post_box", "collection_times": "Mo-Fr 15:30; Sa 11:30", "indoor": "yes", "note": "ON 12/24 AND 12/31, THIS BOX MAY BE COLLECTED AS EARLY AS 12 NOON.", "nsi_id": "unitedstatespostalservice-a77078", "operator": "United States Postal Service", "operator:short": "USPS", "operator:type": "public", "operator:wikidata": "Q668687", "ref": "7043800012"}, "type": "Feature"}
{"geometry": {"coordinates": [-90.155096012, 30.846415004], "type": "Point"}, "id": "Z6wBDBLi15QTUBmi85V8ablanjE=", "properties": {"@source_uri": "https://tools.usps.com/UspsToolsRestServices/rest/POLocator/findLocations", "@spider": "usps_collection_boxes", "addr:city": "FRANKLINTON", "addr:country": "US", "addr:postcode": "70438", "addr:state": "LA", "addr:street_address": "805 LEE ST", "amenity": "post_box", "collection_times": "Mo-Fr 16:30; Sa 11:30", "indoor": "yes", "note": "ON 12/24 AND 12/31, THIS BOX MAY BE COLLECTED AS EARLY AS 12 NOON.", "nsi_id": "unitedstatespostalservice-a77078", "operator": "United States Postal Service", "operator:short": "USPS", "operator:type": "public", "operator:wikidata": "Q668687", "ref": "7043800014"}, "type": "Feature"}
{"geometry": {"coordinates": [-90.66979, 30.82814], "type": "Point"}, "id": "wXUZJL3wyqSLCQyLklLX8Xnteao=", "properties": {"@source_uri": "https://tools.usps.com/UspsToolsRestServices/rest/POLocator/findLocations", "@spider": "usps_collection_boxes", "addr:city": "GREENSBURG", "addr:country": "US", "addr:postcode": "70441", "addr:state": "LA", "addr:street_address": "6638 HIGHWAY 10", "amenity": "post_box", "collection_times": "Mo-Fr 15:45; Sa 10:45", "indoor": "yes", "note": "ON 12/24 AND 12/31, THIS BOX MAY BE COLLECTED AS EARLY AS 12 NOON.", "nsi_id": "unitedstatespostalservice-a77078", "operator": "United States Postal Service", "operator:short": "USPS", "operator:type": "public", "operator:wikidata": "Q668687", "ref": "7044100002"}, "type": "Feature"}
{"geometry": {"coordinates": [-90.66979, 30.82814], "type": "Point"}, "id": "yGPdJ6drPhy5fMDBoRbQvN6ks6w=", "properties": {"@source_uri": "https://tools.usps.com/UspsToolsRestServices/rest/POLocator/findLocations", "@spider": "usps_collection_boxes", "addr:city": "GREENSBURG", "addr:country": "US", "addr:postcode": "70441", "addr:state": "LA", "addr:street_address": "369 SITMAN ST", "amenity": "post_box", "collection_times": "Mo-Fr 15:45", "note": "ON 12/24 AND 12/31, THIS BOX MAY BE COLLECTED AS EARLY AS 12 NOON.", "nsi_id": "unitedstatespostalservice-a77078", "operator": "United States Postal Service", "operator:short": "USPS", "operator:type": "public", "operator:wikidata": "Q668687", "ref": "7044100003"}, "type": "Feature"}
{"geometry": {"coordinates": [-90.6567171496, 30.8264307734], "type": "Point"}, "id": "heBNjDg-RXuyYvD5TzUGJ1DgwUM=", "properties": {"@source_uri": "https://tools.usps.com/UspsToolsRestServices/rest/POLocator/findLocations", "@spider": "usps_collection_boxes", "addr:city": "GREENSBURG", "addr:country": "US", "addr:postcode": "70441", "addr:state": "LA", "addr:street_address": "6638 HIGHWAY 10", "amenity": "post_box", "collection_times": "Mo-Fr 15:45; Sa 10:45", "note": "ON 12/24 AND 12/31, THIS BOX MAY BE COLLECTED AS EARLY AS 12 NOON.", "nsi_id": "unitedstatespostalservice-a77078", "operator": "United States Postal Service", "operator:short": "USPS", "operator:type": "public", "operator:wikidata": "Q668687", "ref": "7044100008"}, "type": "Feature"}
{"geometry": {"coordinates": [-90.66979, 30.82814], "type": "Point"}, "id": "KwXD9I1aX5jfGOVHc3rZSoHQLoA=", "properties": {"@source_uri": "https://tools.usps.com/UspsToolsRestServices/rest/POLocator/findLocations", "@spider": "usps_collection_boxes", "addr:city": "GREENSBURG", "addr:country": "US", "addr:postcode": "70441", "addr:state": "LA", "addr:street_address": "6638 HIGHWAY 10", "amenity": "post_box", "collection_times": "Mo-Fr 16:00; Sa 11:00", "indoor": "yes", "note": "ON 12/24 AND 12/31, THIS BOX MAY BE COLLECTED AS EARLY AS 12 NOON.", "nsi_id": "unitedstatespostalservice-a77078", "operator": "United States Postal Service", "operator:short": "USPS", "operator:type": "public", "operator:wikidata": "Q668687", "ref": "7044100010"}, "type": "Feature"}
{"geometry": {"coordinates": [-90.336965039, 30.67857699], "type": "Point"}, "id": "WF4CHu4JN-l7ikvfS2YNwi7JKII=", "properties": {"@source_uri": "https://tools.usps.com/UspsToolsRestServices/rest/POLocator/findLocations", "@spider": "usps_collection_boxes", "addr:city": "HUSSER", "addr:country": "US", "addr:postcode": "70442", "addr:state": "LA", "addr:street_address": "56594 HIGHWAY 445", "amenity": "post_box", "collection_times": "Mo-Fr 14:00; Sa 12:00", "note": "ON 12/24 AND 12/31, THIS BOX MAY BE COLLECTED AS EARLY AS 12 NOON.", "nsi_id": "unitedstatespostalservice-a77078", "operator": "United States Postal Service", "operator:short": "USPS", "operator:type": "public", "operator:wikidata": "Q668687", "ref": "7044200001"}, "type": "Feature"}
{"geometry": {"coordinates": [-90.336965039, 30.67857699], "type": "Point"}, "id": "evhzaatTZpAn2jkkwpAVX_Dv_O8=", "properties": {"@source_uri": "https://tools.usps.com/UspsToolsRestServices/rest/POLocator/findLocations", "@spider": "usps_collection_boxes", "addr:city": "HUSSER", "addr:country": "US", "addr:postcode": "70442", "addr:state": "LA", "addr:street_address": "56594 HIGHWAY 445", "amenity": "post_box", "collection_times": "Mo-Fr 14:00; Sa 12:00", "indoor": "yes", "note": "ON 12/24 AND 12/31, THIS BOX MAY BE COLLECTED AS EARLY AS 12 NOON.", "nsi_id": "unitedstatespostalservice-a77078", "operator": "United States Postal Service", "operator:short": "USPS", "operator:type": "public", "operator:wikidata": "Q668687", "ref": "7044200003"}, "type": "Feature"}
{"geometry": {"coordinates": [-90.336965039, 30.67857699], "type": "Point"}, "id": "GeAhVIgYfMvoSSq5pua3UE1xNaY=", "properties": {"@source_uri": "https://tools.usps.com/UspsToolsRestServices/rest/POLocator/findLocations", "@spider": "usps_collection_boxes", "addr:city": "HUSSER", "addr:country": "US", "addr:postcode": "70442", "addr:state": "LA", "addr:street_address": "56594 HIGHWAY 445", "amenity": "post_box", "collection_times": "Mo-Fr 14:00; Sa 12:00", "indoor": "yes", "note": "ON 12/24 AND 12/31, THIS BOX MAY BE COLLECTED AS EARLY AS 12 NOON.", "nsi_id": "unitedstatespostalservice-a77078", "operator": "United States Postal Service", "operator:short": "USPS", "operator:type": "public", "operator:wikidata": "Q668687", "ref": "7044200004"}, "type": "Feature"}
{"geometry": {"coordinates": [-90.502761152, 30.637201669], "type": "Point"}, "id": "7pQqSTsUjG8ID6DJKgmsSJfxdaM=", "properties": {"@source_uri": "https://tools.usps.com/UspsToolsRestServices/rest/POLocator/findLocations", "@spider": "usps_collection_boxes", "addr:city": "INDEPENDENCE", "addr:country": "US", "addr:postcode": "70443", "addr:state": "LA", "addr:street_address": "637 3RD ST", "amenity": "post_box", "collection_times": "Mo-Fr 16:15; Sa 10:00", "note": "ON 12/24 AND 12/31, THIS BOX MAY BE COLLECTED AS EARLY AS 12 NOON.", "nsi_id": "unitedstatespostalservice-a77078", "operator": "United States Postal Service", "operator:short": "USPS", "operator:type": "public", "operator:wikidata": "Q668687", "ref": "7044300002"}, "type": "Feature"}
{"geometry": {"coordinates": [-90.502761152, 30.637201669], "type": "Point"}, "id": "7ZLk_-RSro0Ezkk9JKuNripVXQg=", "properties": {"@source_uri": "https://tools.usps.com/UspsToolsRestServices/rest/POLocator/findLocations", "@spider": "usps_collection_boxes", "addr:city": "INDEPENDENCE", "addr:country": "US", "addr:postcode": "70443", "addr:state": "LA", "addr:street_address": "637 3RD ST", "amenity": "post_box", "collection_times": "Mo-Fr 16:15; Sa 10:00", "indoor": "yes", "note": "ON 12/24 AND 12/31, THIS BOX MAY BE COLLECTED AS EARLY AS 12 NOON.", "nsi_id": "unitedstatespostalservice-a77078", "operator": "United States Postal Service", "operator:short": "USPS", "operator:type": "public", "operator:wikidata": "Q668687", "ref": "7044300004"}, "type": "Feature"}
{"geometry": {"coordinates": [-90.502761152, 30.637201669], "type": "Point"}, "id": "sI7oKhI4B09F5dQzk9eTCt3-WqA=", "properties": {"@source_uri": "https://tools.usps.com/UspsToolsRestServices/rest/POLocator/findLocations", "@spider": "usps_collection_boxes", "addr:city": "INDEPENDENCE", "addr:country": "US", "addr:postcode": "70443", "addr:state": "LA", "addr:street_address": "637 3RD ST", "amenity": "post_box", "collection_times": "Mo-Fr 16:15; Sa 10:00", "indoor": "yes", "note": "ON 12/24 AND 12/31, THIS BOX MAY BE COLLECTED AS EARLY AS 12 NOON.", "nsi_id": "unitedstatespostalservice-a77078", "operator": "United States Postal Service", "operator:short": "USPS", "operator:type": "public", "operator:wikidata": "Q668687", "ref": "7044300005"}, "type": "Feature"}
{"geometry": {"coordinates": [-90.514886021, 30.939833997], "type": "Point"}, "id": "GrHi-otMjVSWzGVTx-x9h_qfA0U=", "properties": {"@source_uri": "https://tools.usps.com/UspsToolsRestServices/rest/POLocator/findLocations", "@spider": "usps_collection_boxes", "addr:city": "KENTWOOD", "addr:country": "US", "addr:postcode": "70444", "addr:state": "LA", "addr:street_address": "601 AVENUE E", "amenity": "post_box", "collection_times": "Mo-Fr 14:30; Sa 14:00", "note": "ON 12/24 AND 12/31, THIS BOX MAY BE COLLECTED AS EARLY AS 12 NOON.", "nsi_id": "unitedstatespostalservice-a77078", "operator": "United States Postal Service", "operator:short": "USPS", "operator:type": "public", "operator:wikidata": "Q668687", "ref": "7044400007"}, "type": "Feature"}
{"geometry": {"coordinates": [-90.514886021, 30.939833997], "type": "Point"}, "id": "kI78zvhFzrxZb98cD46X3yPlFos=", "properties": {"@source_uri": "https://tools.usps.com/UspsToolsRestServices/rest/POLocator/findLocations", "@spider": "usps_collection_boxes", "addr:city": "KENTWOOD", "addr:country": "US", "addr:postcode": "70444", "addr:state": "LA", "addr:street_address": "601 AVENUE E", "amenity": "post_box", "collection_times": "Mo-Fr 14:30; Sa 14:00", "indoor": "yes", "note": "ON 12/24 AND 12/31, THIS BOX MAY BE COLLECTED AS EARLY AS 12 NOON.", "nsi_id": "unitedstatespostalservice-a77078", "operator": "United States Postal Service", "operator:short": "USPS", "operator:type": "public", "operator:wikidata": "Q668687", "ref": "7044400008"}, "type": "Feature"}
{"geometry": {"coordinates": [-90.514886021, 30.939833997], "type": "Point"}, "id": "7qXOZB2IQX8ywnwmk7oYjk1kVG8=", "properties": {"@source_uri": "https://tools.usps.com/UspsToolsRestServices/rest/POLocator/findLocations", "@spider": "usps_collection_boxes", "addr:city": "KENTWOOD", "addr:country": "US", "addr:postcode": "70444", "addr:state": "LA", "addr:street_address": "601 AVENUE E", "amenity": "post_box", "collection_times": "Mo-Fr 16:30; Sa 12:00", "indoor": "yes", "note": "ON 12/24 AND 12/31, THIS BOX MAY BE COLLECTED AS EARLY AS 12 NOON.", "nsi_id": "unitedstatespostalservice-a77078", "operator": "United States Postal Service", "operator:short": "USPS", "operator:type": "public", "operator:wikidata": "Q668687", "ref": "7044400010"}, "type": "Feature"}
{"geometry": {"coordinates": [-89.948414038, 30.316219018], "type": "Point"}, "id": "IkF5_iSjUKgwfuLAeblACB3zdXw=", "properties": {"@source_uri": "https://tools.usps.com/UspsToolsRestServices/rest/POLocator/findLocations", "@spider": "usps_collection_boxes", "addr:city": "LACOMBE", "addr:country": "US", "addr:postcode": "70445", "addr:state": "LA", "addr:street_address": "27367 HIGHWAY 190", "amenity": "post_box", "collection_times": "Mo-Fr 16:00; Sa 10:30", "indoor": "yes", "note": "ON 12/24 AND 12/31, THIS BOX MAY BE COLLECTED AS EARLY AS 12 NOON.", "nsi_id": "unitedstatespostalservice-a77078", "operator": "United States Postal Service", "operator:short": "USPS", "operator:type": "public", "operator:wikidata": "Q668687", "ref": "7044500002"}, "type": "Feature"}
{"geometry": {"coordinates": [-89.948414038, 30.316219018], "type": "Point"}, "id": "mjtFlAOAdWUsacFjAyDhCuonSvg=", "properties": {"@source_uri": "https://tools.usps.com/UspsToolsRestServices/rest/POLocator/findLocations", "@spider": "usps_collection_boxes", "addr:city": "LACOMBE", "addr:country": "US", "addr:postcode": "70445", "addr:state": "LA", "addr:street_address": "27367 HIGHWAY 190", "amenity": "post_box", "collection_times": "Mo-Fr 16:30; Sa 11:00", "indoor": "yes", "note": "ON 12/24 AND 12/31, THIS BOX MAY BE COLLECTED AS EARLY AS 12 NOON.", "nsi_id": "unitedstatespostalservice-a77078", "operator": "United States Postal Service", "operator:short": "USPS", "operator:type": "public", "operator:wikidata": "Q668687", "ref": "7044500005"}, "type": "Feature"}
{"geometry": {"coordinates": [-90.401783972, 30.635139998], "type": "Point"}, "id": "Mwpl-ACsEGwxJTUMrZKlTwJkbKY=", "properties": {"@source_uri": "https://tools.usps.com/UspsToolsRestServices/rest/POLocator/findLocations", "@spider": "usps_collection_boxes", "addr:city": "LORANGER", "addr:country": "US", "addr:postcode": "70446", "addr:state": "LA", "addr:street_address": "19438 HIGHWAY 40", "amenity": "post_box", "collection_times": "Mo-Fr 16:00; Sa 10:00", "note": "ON 12/24 AND 12/31, THIS BOX MAY BE COLLECTED AS EARLY AS 12 NOON.", "nsi_id": "unitedstatespostalservice-a77078", "operator": "United States Postal Service", "operator:short": "USPS", "operator:type": "public", "operator:wikidata": "Q668687", "ref": "7044600003"}, "type": "Feature"}
{"geometry": {"coordinates": [-90.401783972, 30.635139998], "type": "Point"}, "id": "AxJh5vgkPVhKZTvFUrSmmvnbiRE=", "properties": {"@source_uri": "https://tools.usps.com/UspsToolsRestServices/rest/POLocator/findLocations", "@spider": "usps_collection_boxes", "addr:city": "LORANGER", "addr:country": "US", "addr:postcode": "70446", "addr:state": "LA", "addr:street_address": "19438 HIGHWAY 40", "amenity": "post_box", "collection_times": "Mo-Fr 16:00; Sa 10:00", "indoor": "yes", "note": "ON 12/24 AND 12/31, THIS BOX MAY BE COLLECTED AS EARLY AS 12 NOON.", "nsi_id": "unitedstatespostalservice-a77078", "operator": "United States Postal Service", "operator:short": "USPS", "operator:type": "public", "operator:wikidata": "Q668687", "ref": "7044600005"}, "type": "Feature"}
{"geometry": {"coordinates": [-90.401783972, 30.635139998], "type": "Point"}, "id": "lDuknw25W_n_v-k2k27QewDHix8=", "properties": {"@source_uri": "https://tools.usps.com/UspsToolsRestServices/rest/POLocator/findLocations", "@spider": "usps_collection_boxes", "addr:city": "LORANGER", "addr:country": "US", "addr:postcode": "70446", "addr:state": "LA", "addr:street_address": "19438 HIGHWAY 40", "amenity": "post_box", "collection_times": "Mo-Fr 16:00; Sa 09:30", "indoor": "yes", "note": "ON 12/24 AND 12/31, THIS BOX MAY BE COLLECTED AS EARLY AS 12 NOON.", "nsi_id": "unitedstatespostalservice-a77078", "operator": "United States Postal Service", "operator:short": "USPS", "operator:type": "public", "operator:wikidata": "Q668687", "ref": "7044600007"}, "type": "Feature"}
{"geometry": {"coordinates": [-90.1614479861, 30.4114109932], "type": "Point"}, "id": "IjnzQMbN3bt5IFlpKjzfcz_CksM=", "properties": {"@source_uri": "https://tools.usps.com/UspsToolsRestServices/rest/POLocator/findLocations", "@spider": "usps_collection_boxes", "addr:city": "MADISONVILLE", "addr:country": "US", "addr:postcode": "70447", "addr:state": "LA", "addr:street_address": "100 COVINGTON ST", "amenity": "post_box", "collection_times": "Mo-Fr 16:30; Sa 10:45", "indoor": "yes", "note": "ON 12/24 AND 12/31, THIS BOX MAY BE COLLECTED AS EARLY AS 12 NOON.", "nsi_id": "unitedstatespostalservice-a77078", "operator": "United States Postal Service", "operator:short": "USPS", "operator:type": "public", "operator:wikidata": "Q668687", "ref": "7044700004"}, "type": "Feature"}
{"geometry": {"coordinates": [-90.1614479861, 30.4114109932], "type": "Point"}, "id": "w1lEnt9EVK4uXBeUwcaVsMOwxWk=", "properties": {"@source_uri": "https://tools.usps.com/UspsToolsRestServices/rest/POLocator/findLocations", "@spider": "usps_collection_boxes", "addr:city": "MADISONVILLE", "addr:country": "US", "addr:postcode": "70447", "addr:state": "LA", "addr:street_address": "100 COVINGTON ST", "amenity": "post_box", "collection_times": "Mo-Fr 16:30; Sa 11:00", "indoor": "yes", "note": "ON 12/24 AND 12/31, THIS BOX MAY BE COLLECTED AS EARLY AS 12 NOON.", "nsi_id": "unitedstatespostalservice-a77078", "operator": "United States Postal Service", "operator:short": "USPS", "operator:type": "public", "operator:wikidata": "Q668687", "ref": "7044700005"}, "type": "Feature"}
{"geometry": {"coordinates": [-90.09200199, 30.37060001], "type": "Point"}, "id": "Kv1NoscZaZQK_x2TjBdS3UCdvGM=", "properties": {"@source_uri": "https://tools.usps.com/UspsToolsRestServices/rest/POLocator/findLocations", "@spider": "usps_collection_boxes", "addr:city": "MANDEVILLE", "addr:country": "US", "addr:postcode": "70448", "addr:state": "LA", "addr:street_address": "500 MARINERS PLAZA DR", "amenity": "post_box", "collection_times": "Mo-Fr 10:30", "nsi_id": "unitedstatespostalservice-a77078", "operator": "United States Postal Service", "operator:short": "USPS", "operator:type": "public", "operator:wikidata": "Q668687", "ref": "7044800021"}, "type": "Feature"}
{"geometry": {"coordinates": [-90.091870733, 30.374266211], "type": "Point"}, "id": "0TDsKXz0wsC7TxtHBnbzuS3QlaE=", "properties": {"@source_uri": "https://tools.usps.com/UspsToolsRestServices/rest/POLocator/findLocations", "@spider": "usps_collection_boxes", "addr:city": "MANDEVILLE", "addr:country": "US", "addr:postcode": "70448", "addr:state": "LA", "addr:street_address": "615 N CAUSEWAY BLVD", "amenity": "post_box", "collection_times": "Mo-Fr 10:30", "nsi_id": "unitedstatespostalservice-a77078", "operator": "United States Postal Service", "operator:short": "USPS", "operator:type": "public", "operator:wikidata": "Q668687", "ref": "7044800023"}, "type": "Feature"}
{"geometry": {"coordinates": [-90.078387014, 30.373032983], "type": "Point"}, "id": "1A0lqFJgF34kjngQrEqHCDMHt_o=", "properties": {"@source_uri": "https://tools.usps.com/UspsToolsRestServices/rest/POLocator/findLocations", "@spider": "usps_collection_boxes", "addr:city": "MANDEVILLE", "addr:country": "US", "addr:postcode": "70448", "addr:state": "LA", "addr:street_address": "3101 E CAUSEWAY APPROACH", "amenity": "post_box", "collection_times": "Mo-Fr 10:00", "nsi_id": "unitedstatespostalservice-a77078", "operator": "United States Postal Service", "operator:short": "USPS", "operator:type": "public", "operator:wikidata": "Q668687", "ref": "7044800031"}, "type": "Feature"}
{"geometry": {"coordinates": [-90.090744034, 30.377766998], "type": "Point"}, "id": "WTJVVPDMe9PVK27lASFWfgsy2MU=", "properties": {"@source_uri": "https://tools.usps.com/UspsToolsRestServices/rest/POLocator/findLocations", "@spider": "usps_collection_boxes", "addr:city": "MANDEVILLE", "addr:country": "US", "addr:postcode": "70448", "addr:state": "LA", "addr:street_address": "735 N CAUSEWAY BLVD", "amenity": "post_box", "collection_times": "Mo-Fr 10:00", "nsi_id": "unitedstatespostalservice-a77078", "operator": "United States Postal Service", "operator:short": "USPS", "operator:type": "public", "operator:wikidata": "Q668687", "ref": "7044800033"}, "type": "Feature"}
{"geometry": {"coordinates": [-90.6682780342, 30.2977259831], "type": "Point"}, "id": "VA6AJaVaMroHEMf1zKRtkWAjdfg=", "properties": {"@source_uri": "https://tools.usps.com/UspsToolsRestServices/rest/POLocator/findLocations", "@spider": "usps_collection_boxes", "addr:city": "MAUREPAS", "addr:country": "US", "addr:postcode": "70449", "addr:state": "LA", "addr:street_address": "23839 HIGHWAY 22", "amenity": "post_box", "collection_times": "Mo-Fr 15:45; Sa 11:45", "note": "ON 12/24 AND 12/31, THIS BOX MAY BE COLLECTED AS EARLY AS 12 NOON.", "nsi_id": "unitedstatespostalservice-a77078", "operator": "United States Postal Service", "operator:short": "USPS", "operator:type": "public", "operator:wikidata": "Q668687", "ref": "7044900001"}, "type": "Feature"}
{"geometry": {"coordinates": [-90.6682780342, 30.2977259831], "type": "Point"}, "id": "nUhtDHiFAi66H4rn08OlZFwAUso=", "properties": {"@source_uri": "https://tools.usps.com/UspsToolsRestServices/rest/POLocator/findLocations", "@spider": "usps_collection_boxes", "addr:city": "MAUREPAS", "addr:country": "US", "addr:postcode": "70449", "addr:state": "LA", "addr:street_address": "23839 HIGHWAY 22", "amenity": "post_box", "collection_times": "Mo-Fr 15:45; Sa 11:45", "indoor": "yes", "note": "ON 12/24 AND 12/31, THIS BOX MAY BE COLLECTED AS EARLY AS 12 NOON.", "nsi_id": "unitedstatespostalservice-a77078", "operator": "United States Postal Service", "operator:short": "USPS", "operator:type": "public", "operator:wikidata": "Q668687", "ref": "7044900002"}, "type": "Feature"}
{"geometry": {"coordinates": [-90.6682780342, 30.2977259831], "type": "Point"}, "id": "Bh5-gO1psdlEIrUi5HUS7Koibuc=", "properties": {"@source_uri": "https://tools.usps.com/UspsToolsRestServices/rest/POLocator/findLocations", "@spider": "usps_collection_boxes", "addr:city": "MAUREPAS", "addr:country": "US", "addr:postcode": "70449", "addr:state": "LA", "addr:street_address": "23839 HIGHWAY 22", "amenity": "post_box", "collection_times": "Mo-Fr 15:45; Sa 12:00", "indoor": "yes", "note": "ON 12/24 AND 12/31, THIS BOX MAY BE COLLECTED AS EARLY AS 12 NOON.", "nsi_id": "unitedstatespostalservice-a77078", "operator": "United States Postal Service", "operator:short": "USPS", "operator:type": "public", "operator:wikidata": "Q668687", "ref": "7044900003"}, "type": "Feature"}
{"geometry": {"coordinates": [-90.295340005, 30.96131099], "type": "Point"}, "id": "K-Sm5UihoHCowGFruUZjiPK-hIU=", "properties": {"@source_uri": "https://tools.usps.com/UspsToolsRestServices/rest/POLocator/findLocations", "@spider": "usps_collection_boxes", "addr:city": "MOUNT HERMON", "addr:country": "US", "addr:postcode": "70450", "addr:state": "LA", "addr:street_address": "36043 HIGHWAY 438", "amenity": "post_box", "collection_times": "Mo-Fr 15:15; Sa 08:00", "note": "ON 12/24 AND 12/31, THIS BOX MAY BE COLLECTED AS EARLY AS 12 NOON.", "nsi_id": "unitedstatespostalservice-a77078", "operator": "United States Postal Service", "operator:short": "USPS", "operator:type": "public", "operator:wikidata": "Q668687", "ref": "7045000001"}, "type": "Feature"}
{"geometry": {"coordinates": [-90.295340005, 30.96131099], "type": "Point"}, "id": "utRMVKoU30gVjKXWwqFGZL9U8oE=", "properties": {"@source_uri": "https://tools.usps.com/UspsToolsRestServices/rest/POLocator/findLocations", "@spider": "usps_collection_boxes", "addr:city": "MOUNT HERMON", "addr:country": "US", "addr:postcode": "70450", "addr:state": "LA", "addr:street_address": "36043 HIGHWAY 438", "amenity": "post_box", "collection_times": "Mo-Fr 15:15; Sa 08:00", "indoor": "yes", "note": "ON 12/24 AND 12/31, THIS BOX MAY BE COLLECTED AS EARLY AS 12 NOON.", "nsi_id": "unitedstatespostalservice-a77078", "operator": "United States Postal Service", "operator:short": "USPS", "operator:type": "public", "operator:wikidata": "Q668687", "ref": "7045000002"}, "type": "Feature"}
{"geometry": {"coordinates": [-90.295340005, 30.96131099], "type": "Point"}, "id": "peeiPbPZN-TCBvAdCkAmDV90LY4=", "properties": {"@source_uri": "https://tools.usps.com/UspsToolsRestServices/rest/POLocator/findLocations", "@spider": "usps_collection_boxes", "addr:city": "MOUNT HERMON", "addr:country": "US", "addr:postcode": "70450", "addr:state": "LA", "addr:street_address": "36043 HIGHWAY 438", "amenity": "post_box", "collection_times": "Mo-Fr 15:30", "indoor": "yes", "note": "ON 12/24 AND 12/31, THIS BOX MAY BE COLLECTED AS EARLY AS 12 NOON.", "nsi_id": "unitedstatespostalservice-a77078", "operator": "United States Postal Service", "operator:short": "USPS", "operator:type": "public", "operator:wikidata": "Q668687", "ref": "7045000003"}, "type": "Feature"}
{"geometry": {"coordinates": [-90.481547018, 30.545702739], "type": "Point"}, "id": "eKPFFBAdJLHi9KDdTOSZOLx_A7c=", "properties": {"@source_uri": "https://tools.usps.com/UspsToolsRestServices/rest/POLocator/findLocations", "@spider": "usps_collection_boxes", "addr:city": "NATALBANY", "addr:country": "US", "addr:postcode": "70451", "addr:state": "LA", "addr:street_address": "15036 HIGHWAY 1064", "amenity": "post_box", "collection_times": "Mo-Fr 16:00; Sa 10:30", "indoor": "yes", "note": "ON 12/24 AND 12/31, THIS BOX MAY BE COLLECTED AS EARLY AS 12 NOON.", "nsi_id": "unitedstatespostalservice-a77078", "operator": "United States Postal Service", "operator:short": "USPS", "operator:type": "public", "operator:wikidata": "Q668687", "ref": "7045100001"}, "type": "Feature"}
{"geometry": {"coordinates": [-90.481547018, 30.545702739], "type": "Point"}, "id": "CLCcxFDvVfrfguZF2rUZksZlmRw=", "properties": {"@source_uri": "https://tools.usps.com/UspsToolsRestServices/rest/POLocator/findLocations", "@spider": "usps_collection_boxes", "addr:city": "NATALBANY", "addr:country": "US", "addr:postcode": "70451", "addr:state": "LA", "addr:street_address": "15036 HIGHWAY 1064", "amenity": "post_box", "collection_times": "Mo-Fr 16:30; Sa 11:00", "indoor": "yes", "note": "ON 12/24 AND 12/31, THIS BOX MAY BE COLLECTED AS EARLY AS 12 NOON.", "nsi_id": "unitedstatespostalservice-a77078", "operator": "United States Postal Service", "operator:short": "USPS", "operator:type": "public", "operator:wikidata": "Q668687", "ref": "7045100005"}, "type": "Feature"}
{"geometry": {"coordinates": [-89.752954007, 30.360822017], "type": "Point"}, "id": "Xtul7Hrf3Vjq7Y78du0o6hlDuvA=", "properties": {"@source_uri": "https://tools.usps.com/UspsToolsRestServices/rest/POLocator/findLocations", "@spider": "usps_collection_boxes", "addr:city": "PEARL RIVER", "addr:country": "US", "addr:postcode": "70452", "addr:state": "LA", "addr:street_address": "64119 HIGHWAY 41", "amenity": "post_box", "collection_times": "Mo-Fr 16:00; Sa 11:30", "indoor": "yes", "note": "ON 12/24 AND 12/31, THIS BOX MAY BE COLLECTED AS EARLY AS 12 NOON.", "nsi_id": "unitedstatespostalservice-a77078", "operator": "United States Postal Service", "operator:short": "USPS", "operator:type": "public", "operator:wikidata": "Q668687", "ref": "7045200002"}, "type": "Feature"}
{"geometry": {"coordinates": [-89.752954007, 30.360822017], "type": "Point"}, "id": "4L6Khp71nW4V3VIP4oMF80mVY_s=", "properties": {"@source_uri": "https://tools.usps.com/UspsToolsRestServices/rest/POLocator/findLocations", "@spider": "usps_collection_boxes", "addr:city": "PEARL RIVER", "addr:country": "US", "addr:postcode": "70452", "addr:state": "LA", "addr:street_address": "64119 HIGHWAY 41", "amenity": "post_box", "collection_times": "Mo-Fr 16:00; Sa 12:00", "indoor": "yes", "note": "ON 12/24 AND 12/31, THIS BOX MAY BE COLLECTED AS EARLY AS 12 NOON.", "nsi_id": "unitedstatespostalservice-a77078", "operator": "United States Postal Service", "operator:short": "USPS", "operator:type": "public", "operator:wikidata": "Q668687", "ref": "7045200003"}, "type": "Feature"}
{"geometry": {"coordinates": [-90.6904114213, 30.706183862], "type": "Point"}, "id": "vhxSLY83EtwyLQ91Mg5pL0nlUoo=", "properties": {"@source_uri": "https://tools.usps.com/UspsToolsRestServices/rest/POLocator/findLocations", "@spider": "usps_collection_boxes", "addr:city": "PINE GROVE", "addr:country": "US", "addr:postcode": "70453", "addr:state": "LA", "addr:street_address": "7185 SHILOH BAPTIST CHURCH RD", "amenity": "post_box", "collection_times": "Mo-Fr 14:30; Sa 09:30", "note": "ON 12/24 AND 12/31, THIS BOX MAY BE COLLECTED AS EARLY AS 12 NOON.", "nsi_id": "unitedstatespostalservice-a77078", "operator": "United States Postal Service", "operator:short": "USPS", "operator:type": "public", "operator:wikidata": "Q668687", "ref": "7045300001"}, "type": "Feature"}
{"geometry": {"coordinates": [-90.6904114213, 30.706183862], "type": "Point"}, "id": "Y5nghOOHWFsUMxNC-O9zMGhrQmU=", "properties": {"@source_uri": "https://tools.usps.com/UspsToolsRestServices/rest/POLocator/findLocations", "@spider": "usps_collection_boxes", "addr:city": "PINE GROVE", "addr:country": "US", "addr:postcode": "70453", "addr:state": "LA", "addr:street_address": "7185 SHILOH BAPTIST CHURCH RD", "amenity": "post_box", "collection_times": "Mo-Fr 14:30; Sa 09:30", "indoor": "yes", "note": "ON 12/24 AND 12/31, THIS BOX MAY BE COLLECTED AS EARLY AS 12 NOON.", "nsi_id": "unitedstatespostalservice-a77078", "operator": "United States Postal Service", "operator:short": "USPS", "operator:type": "public", "operator:wikidata": "Q668687", "ref": "7045300002"}, "type": "Feature"}
{"geometry": {"coordinates": [-90.6904114213, 30.706183862], "type": "Point"}, "id": "-oFm90-iF1s9ChHkdKz6qxl_Rp4=", "properties": {"@source_uri": "https://tools.usps.com/UspsToolsRestServices/rest/POLocator/findLocations", "@spider": "usps_collection_boxes", "addr:city": "PINE GROVE", "addr:country": "US", "addr:postcode": "70453", "addr:state": "LA", "addr:street_address": "7185 SHILOH BAPTIST CHURCH RD", "amenity": "post_box", "collection_times": "Mo-Fr 15:30; Sa 11:00", "indoor": "yes", "note": "ON 12/24 AND 12/31, THIS BOX MAY BE COLLECTED AS EARLY AS 12 NOON.", "nsi_id": "unitedstatespostalservice-a77078", "operator": "United States Postal Service", "operator:short": "USPS", "operator:type": "public", "operator:wikidata": "Q668687", "ref": "7045300004"}, "type": "Feature"}
{"geometry": {"coordinates": [-90.4406960357, 30.4412260095], "type": "Point"}, "id": "cnBKI3fj56rAnIvRdEn81edEmf4=", "properties": {"@source_uri": "https://tools.usps.com/UspsToolsRestServices/rest/POLocator/findLocations", "@spider": "usps_collection_boxes", "addr:city": "PONCHATOULA", "addr:country": "US", "addr:postcode": "70454", "addr:state": "LA", "addr:street_address": "275 N 5TH ST", "amenity": "post_box", "collection_times": "Mo-Fr 16:00; Sa 12:00", "note": "ON 12/24 AND 12/31, THIS BOX MAY BE COLLECTED AS EARLY AS 12 NOON.", "nsi_id": "unitedstatespostalservice-a77078", "operator": "United States Postal Service", "operator:short": "USPS", "operator:type": "public", "operator:wikidata": "Q668687", "ref": "7045400001"}, "type": "Feature"}
{"geometry": {"coordinates": [-90.4406960357, 30.4412260095], "type": "Point"}, "id": "gO8JYMJfKV1uxPdv45QWvNa8_q4=", "properties": {"@source_uri": "https://tools.usps.com/UspsToolsRestServices/rest/POLocator/findLocations", "@spider": "usps_collection_boxes", "addr:city": "PONCHATOULA", "addr:country": "US", "addr:postcode": "70454", "addr:state": "LA", "addr:street_address": "275 N 5TH ST", "amenity": "post_box", "collection_times": "Mo-Fr 16:00; Sa 12:00", "indoor": "yes", "note": "ON 12/24 AND 12/31, THIS BOX MAY BE COLLECTED AS EARLY AS 12 NOON.", "nsi_id": "unitedstatespostalservice-a77078", "operator": "United States Postal Service", "operator:short": "USPS", "operator:type": "public", "operator:wikidata": "Q668687", "ref": "7045400006"}, "type": "Feature"}
{"geometry": {"coordinates": [-90.4406960357, 30.4412260095], "type": "Point"}, "id": "37ROkbUNzNAdAzvji5xDdGDfd0Y=", "properties": {"@source_uri": "https://tools.usps.com/UspsToolsRestServices/rest/POLocator/findLocations", "@spider": "usps_collection_boxes", "addr:city": "PONCHATOULA", "addr:country": "US", "addr:postcode": "70454", "addr:state": "LA", "addr:street_address": "275 N 5TH ST", "amenity": "post_box", "collection_times": "Mo-Fr 16:00; Sa 12:00", "indoor": "yes", "note": "ON 12/24 AND 12/31, THIS BOX MAY BE COLLECTED AS EARLY AS 12 NOON.", "nsi_id": "unitedstatespostalservice-a77078", "operator": "United States Postal Service", "operator:short": "USPS", "operator:type": "public", "operator:wikidata": "Q668687", "ref": "7045400010"}, "type": "Feature"}
{"geometry": {"coordinates": [-90.34460003, 30.501180003], "type": "Point"}, "id": "SXiAb2o83bduvMexD8k7MpBxkyY=", "properties": {"@source_uri": "https://tools.usps.com/UspsToolsRestServices/rest/POLocator/findLocations", "@spider": "usps_collection_boxes", "addr:city": "ROBERT", "addr:country": "US", "addr:postcode": "70455", "addr:state": "LA", "addr:street_address": "44225 HIGHWAY 445", "amenity": "post_box", "collection_times": "Mo-Fr 16:30; Sa 10:30", "note": "ON 12/24 AND 12/31, THIS BOX MAY BE COLLECTED AS EARLY AS 12 NOON.", "nsi_id": "unitedstatespostalservice-a77078", "operator": "United States Postal Service", "operator:short": "USPS", "operator:type": "public", "operator:wikidata": "Q668687", "ref": "7045500001"}, "type": "Feature"}
{"geometry": {"coordinates": [-90.34460003, 30.501180003], "type": "Point"}, "id": "1-v8TYo_P0_kWWLic6BX71wLKTY=", "properties": {"@source_uri": "https://tools.usps.com/UspsToolsRestServices/rest/POLocator/findLocations", "@spider": "usps_collection_boxes", "addr:city": "ROBERT", "addr:country": "US", "addr:postcode": "70455", "addr:state": "LA", "addr:street_address": "44225 HIGHWAY 445", "amenity": "post_box", "collection_times": "Mo-Fr 16:30; Sa 10:30", "indoor": "yes", "note": "ON 12/24 AND 12/31, THIS BOX MAY BE COLLECTED AS EARLY AS 12 NOON.", "nsi_id": "unitedstatespostalservice-a77078", "operator": "United States Postal Service", "operator:short": "USPS", "operator:type": "public", "operator:wikidata": "Q668687", "ref": "7045500002"}, "type": "Feature"}
{"geometry": {"coordinates": [-90.34460003, 30.501180003], "type": "Point"}, "id": "Jp1IINGcnIOAtQ6pe4WN29fQKn8=", "properties": {"@source_uri": "https://tools.usps.com/UspsToolsRestServices/rest/POLocator/findLocations", "@spider": "usps_collection_boxes", "addr:city": "ROBERT", "addr:country": "US", "addr:postcode": "70455", "addr:state": "LA", "addr:street_address": "44225 HIGHWAY 445", "amenity": "post_box", "collection_times": "Mo-Fr 16:30; Sa 10:30", "indoor": "yes", "note": "ON 12/24 AND 12/31, THIS BOX MAY BE COLLECTED AS EARLY AS 12 NOON.", "nsi_id": "unitedstatespostalservice-a77078", "operator": "United States Postal Service", "operator:short": "USPS", "operator:type": "public", "operator:wikidata": "Q668687", "ref": "7045500005"}, "type": "Feature"}
{"geometry": {"coordinates": [-90.511223967, 30.762597984], "type": "Point"}, "id": "UJnMDUrbVlfNt0V2LzG5xdup6os=", "properties": {"@source_uri": "https://tools.usps.com/UspsToolsRestServices/rest/POLocator/findLocations", "@spider": "usps_collection_boxes", "addr:city": "ROSELAND", "addr:country": "US", "addr:postcode": "70456", "addr:state": "LA", "addr:street_address": "62430 COMMERCIAL ST", "amenity": "post_box", "collection_times": "Mo-Fr 16:00; Sa 09:45", "indoor": "yes", "note": "ON 12/24 AND 12/31, THIS BOX MAY BE COLLECTED AS EARLY AS 12 NOON.", "nsi_id": "unitedstatespostalservice-a77078", "operator": "United States Postal Service", "operator:short": "USPS", "operator:type": "public", "operator:wikidata": "Q668687", "ref": "7045600003"}, "type": "Feature"}
{"geometry": {"coordinates": [-90.511223967, 30.762597984], "type": "Point"}, "id": "-y_Uyv7NZlMjcP9TF59THyEjRpM=", "properties": {"@source_uri": "https://tools.usps.com/UspsToolsRestServices/rest/POLocator/findLocations", "@spider": "usps_collection_boxes", "addr:city": "ROSELAND", "addr:country": "US", "addr:postcode": "70456", "addr:state": "LA", "addr:street_address": "62430 COMMERCIAL ST", "amenity": "post_box", "collection_times": "Mo-Fr 16:00; Sa 09:45", "note": "ON 12/24 AND 12/31, THIS BOX MAY BE COLLECTED AS EARLY AS 12 NOON.", "nsi_id": "unitedstatespostalservice-a77078", "operator": "United States Postal Service", "operator:short": "USPS", "operator:type": "public", "operator:wikidata": "Q668687", "ref": "7045600004"}, "type": "Feature"}
{"geometry": {"coordinates": [-90.511223967, 30.762597984], "type": "Point"}, "id": "NIGVSD4ctTJjjz1iEo2ZYt-Rfvo=", "properties": {"@source_uri": "https://tools.usps.com/UspsToolsRestServices/rest/POLocator/findLocations", "@spider": "usps_collection_boxes", "addr:city": "ROSELAND", "addr:country": "US", "addr:postcode": "70456", "addr:state": "LA", "addr:street_address": "62430 COMMERCIAL ST", "amenity": "post_box", "collection_times": "Mo-Fr 16:00; Sa 10:00", "indoor": "yes", "note": "ON 12/24 AND 12/31, THIS BOX MAY BE COLLECTED AS EARLY AS 12 NOON.", "nsi_id": "unitedstatespostalservice-a77078", "operator": "United States Postal Service", "operator:short": "USPS", "operator:type": "public", "operator:wikidata": "Q668687", "ref": "7045600005"}, "type": "Feature"}
{"geometry": {"coordinates": [-90.113335024, 30.526853018], "type": "Point"}, "id": "J0w7reqbm0dh0dybE1ElsNhkOm0=", "properties": {"@source_uri": "https://tools.usps.com/UspsToolsRestServices/rest/POLocator/findLocations", "@spider": "usps_collection_boxes", "addr:city": "ST BENEDICT", "addr:country": "US", "addr:postcode": "70457", "addr:state": "LA", "addr:street_address": "75376 RIVER RD", "amenity": "post_box", "collection_times": "Mo-Fr 15:00", "note": "ON 12/24 AND 12/31, THIS BOX MAY BE COLLECTED AS EARLY AS 12 NOON.", "nsi_id": "unitedstatespostalservice-a77078", "operator": "United States Postal Service", "operator:short": "USPS", "operator:type": "public", "operator:wikidata": "Q668687", "ref": "7045700001"}, "type": "Feature"}
{"geometry": {"coordinates": [-90.113335024, 30.526853018], "type": "Point"}, "id": "ECN5UxbRLDmBceBarK_a-sW9Foo=", "properties": {"@source_uri": "https://tools.usps.com/UspsToolsRestServices/rest/POLocator/findLocations", "@spider": "usps_collection_boxes", "addr:city": "ST BENEDICT", "addr:country": "US", "addr:postcode": "70457", "addr:state": "LA", "addr:street_address": "75376 RIVER RD", "amenity": "post_box", "collection_times": "Mo-Fr 16:00", "indoor": "yes", "note": "ON 12/24 AND 12/31, THIS BOX MAY BE COLLECTED AS EARLY AS 12 NOON.", "nsi_id": "unitedstatespostalservice-a77078", "operator": "United States Postal Service", "operator:short": "USPS", "operator:type": "public", "operator:wikidata": "Q668687", "ref": "7045700002"}, "type": "Feature"}
{"geometry": {"coordinates": [-89.781002034, 30.276881992], "type": "Point"}, "id": "wfkTCY6ODdtEJR40My619CBGqWE=", "properties": {"@source_uri": "https://tools.usps.com/UspsToolsRestServices/rest/POLocator/findLocations", "@spider": "usps_collection_boxes", "addr:city": "SLIDELL", "addr:country": "US", "addr:postcode": "70458", "addr:state": "LA", "addr:street_address": "1950 2ND ST", "amenity": "post_box", "collection_times": "Mo-Fr 17:00; Sa 16:30", "name": "USPS COLLECTION BOX - APC", "note": "ON 12/24 AND 12/31, THIS BOX MAY BE COLLECTED AS EARLY AS 12 NOON.", "nsi_id": "unitedstatespostalservice-a77078", "operator": "United States Postal Service", "operator:short": "USPS", "operator:type": "public", "operator:wikidata": "Q668687", "ref": "7045800033"}, "type": "Feature"}
{"geometry": {"coordinates": [-89.781002034, 30.276881992], "type": "Point"}, "id": "5YmjQ7TR1Ou1lQJtlkZ7dzr_Hnk=", "properties": {"@source_uri": "https://tools.usps.com/UspsToolsRestServices/rest/POLocator/findLocations", "@spider": "usps_collection_boxes", "addr:city": "SLIDELL", "addr:country": "US", "addr:postcode": "70458", "addr:state": "LA", "addr:street_address": "1950 2ND ST", "amenity": "post_box", "collection_times": "Mo-Fr 17:00; Sa 12:00", "indoor": "yes", "note": "ON 12/24 AND 12/31, THIS BOX MAY BE COLLECTED AS EARLY AS 12 NOON.", "nsi_id": "unitedstatespostalservice-a77078", "operator": "United States Postal Service", "operator:short": "USPS", "operator:type": "public", "operator:wikidata": "Q668687", "ref": "7045800040"}, "type": "Feature"}
{"geometry": {"coordinates": [-89.806555021, 30.295682014], "type": "Point"}, "id": "xd_wKSCm7szP1oxtRvVyLqXU9EE=", "properties": {"@source_uri": "https://tools.usps.com/UspsToolsRestServices/rest/POLocator/findLocations", "@spider": "usps_collection_boxes", "addr:city": "SLIDELL", "addr:country": "US", "addr:postcode": "70460", "addr:state": "LA", "addr:street_address": "1897 GAUSE BLVD W", "amenity": "post_box", "collection_times": "Mo-Fr 17:00; Sa 14:00", "indoor": "yes", "note": "ON 12/24 AND 12/31, THIS BOX MAY BE COLLECTED AS EARLY AS 12 NOON.", "nsi_id": "unitedstatespostalservice-a77078", "operator": "United States Postal Service", "operator:short": "USPS", "operator:type": "public", "operator:wikidata": "Q668687", "ref": "7046000005"}, "type": "Feature"}
{"geometry": {"coordinates": [-89.806555021, 30.295682014], "type": "Point"}, "id": "xPXO9wgqLsbMxffi1TkFuVSc0Ec=", "properties": {"@source_uri": "https://tools.usps.com/UspsToolsRestServices/rest/POLocator/findLocations", "@spider": "usps_collection_boxes", "addr:city": "SLIDELL", "addr:country": "US", "addr:postcode": "70460", "addr:state": "LA", "addr:street_address": "1897 GAUSE BLVD W", "amenity": "post_box", "collection_times": "Mo-Fr 17:00; Sa 14:00", "indoor": "yes", "note": "ON 12/24 AND 12/31, THIS BOX MAY BE COLLECTED AS EARLY AS 12 NOON.", "nsi_id": "unitedstatespostalservice-a77078", "operator": "United States Postal Service", "operator:short": "USPS", "operator:type": "public", "operator:wikidata": "Q668687", "ref": "7046000006"}, "type": "Feature"}
{"geometry": {"coordinates": [-89.806555021, 30.295682014], "type": "Point"}, "id": "ZnxdcCek3GxKjShRdhyxjn5L6kg=", "properties": {"@source_uri": "https://tools.usps.com/UspsToolsRestServices/rest/POLocator/findLocations", "@spider": "usps_collection_boxes", "addr:city": "SLIDELL", "addr:country": "US", "addr:postcode": "70460", "addr:state": "LA", "addr:street_address": "1897 GAUSE BLVD W", "amenity": "post_box", "collection_times": "Mo-Fr 17:00; Sa 12:00", "indoor": "yes", "note": "ON 12/24 AND 12/31, THIS BOX MAY BE COLLECTED AS EARLY AS 12 NOON.", "nsi_id": "unitedstatespostalservice-a77078", "operator": "United States Postal Service", "operator:short": "USPS", "operator:type": "public", "operator:wikidata": "Q668687", "ref": "7046000010"}, "type": "Feature"}
{"geometry": {"coordinates": [-89.742320976, 30.285931011], "type": "Point"}, "id": "cv5CF7seoBnDW8JnqCvFgdY2e0I=", "properties": {"@source_uri": "https://tools.usps.com/UspsToolsRestServices/rest/POLocator/findLocations", "@spider": "usps_collection_boxes", "addr:city": "SLIDELL", "addr:country": "US", "addr:postcode": "70461", "addr:state": "LA", "addr:street_address": "1850 GAUSE BLVD E", "amenity": "post_box", "collection_times": "Mo-Fr 15:15; Sa 12:00", "note": "ON 12/24 AND 12/31, THIS BOX MAY BE COLLECTED AS EARLY AS 12 NOON.", "nsi_id": "unitedstatespostalservice-a77078", "operator": "United States Postal Service", "operator:short": "USPS", "operator:type": "public", "operator:wikidata": "Q668687", "ref": "7046100000"}, "type": "Feature"}
{"geometry": {"coordinates": [-90.5474119962, 30.4290059909], "type": "Point"}, "id": "SHHQH_mUskLvyHwsLaYoS3ttdAU=", "properties": {"@source_uri": "https://tools.usps.com/UspsToolsRestServices/rest/POLocator/findLocations", "@spider": "usps_collection_boxes", "addr:city": "SPRINGFIELD", "addr:country": "US", "addr:postcode": "70462", "addr:state": "LA", "addr:street_address": "32170 2ND ST", "amenity": "post_box", "collection_times": "Mo-Fr 16:00; Sa 10:30", "note": "ON 12/24 AND 12/31, THIS BOX MAY BE COLLECTED AS EARLY AS 12 NOON.", "nsi_id": "unitedstatespostalservice-a77078", "operator": "United States Postal Service", "operator:short": "USPS", "operator:type": "public", "operator:wikidata": "Q668687", "ref": "7046200001"}, "type": "Feature"}
{"geometry": {"coordinates": [-90.547411996, 30.429005991], "type": "Point"}, "id": "NN4gEhUOUxbE1BaIAyJgH3HkCQ4=", "properties": {"@source_uri": "https://tools.usps.com/UspsToolsRestServices/rest/POLocator/findLocations", "@spider": "usps_collection_boxes", "addr:city": "SPRINGFIELD", "addr:country": "US", "addr:postcode": "70462", "addr:state": "LA", "addr:street_address": "32170 2ND ST", "amenity": "post_box", "collection_times": "Mo-Fr 16:00; Sa 10:30", "indoor": "yes", "note": "ON 12/24 AND 12/31, THIS BOX MAY BE COLLECTED AS EARLY AS 12 NOON.", "nsi_id": "unitedstatespostalservice-a77078", "operator": "United States Postal Service", "operator:short": "USPS", "operator:type": "public", "operator:wikidata": "Q668687", "ref": "7046200003"}, "type": "Feature"}
{"geometry": {"coordinates": [-90.547411996, 30.429005991], "type": "Point"}, "id": "ANCo-cx7PKp11_fHWhHFU-g6hLg=", "properties": {"@source_uri": "https://tools.usps.com/UspsToolsRestServices/rest/POLocator/findLocations", "@spider": "usps_collection_boxes", "addr:city": "SPRINGFIELD", "addr:country": "US", "addr:postcode": "70462", "addr:state": "LA", "addr:street_address": "32170 2ND ST", "amenity": "post_box", "collection_times": "Mo-Fr 16:00; Sa 10:00", "indoor": "yes", "note": "ON 12/24 AND 12/31, THIS BOX MAY BE COLLECTED AS EARLY AS 12 NOON.", "nsi_id": "unitedstatespostalservice-a77078", "operator": "United States Postal Service", "operator:short": "USPS", "operator:type": "public", "operator:wikidata": "Q668687", "ref": "7046200005"}, "type": "Feature"}
{"geometry": {"coordinates": [-89.897698997, 30.648847008], "type": "Point"}, "id": "DJE4fgiUpyM4nSA8GTuz4hfN8js=", "properties": {"@source_uri": "https://tools.usps.com/UspsToolsRestServices/rest/POLocator/findLocations", "@spider": "usps_collection_boxes", "addr:city": "SUN", "addr:country": "US", "addr:postcode": "70463", "addr:state": "LA", "addr:street_address": "30034 HIGHWAY 16", "amenity": "post_box", "collection_times": "Mo-Fr 16:15; Sa 10:00", "note": "ON 12/24 AND 12/31, THIS BOX MAY BE COLLECTED AS EARLY AS 12 NOON.", "nsi_id": "unitedstatespostalservice-a77078", "operator": "United States Postal Service", "operator:short": "USPS", "operator:type": "public", "operator:wikidata": "Q668687", "ref": "7046300001"}, "type": "Feature"}
{"geometry": {"coordinates": [-89.897698997, 30.648847008], "type": "Point"}, "id": "lVWMHQfCiOq6e_1entWnYt_wKns=", "properties": {"@source_uri": "https://tools.usps.com/UspsToolsRestServices/rest/POLocator/findLocations", "@spider": "usps_collection_boxes", "addr:city": "SUN", "addr:country": "US", "addr:postcode": "70463", "addr:state": "LA", "addr:street_address": "30034 HIGHWAY 16", "amenity": "post_box", "collection_times": "Mo-Fr 16:15; Sa 10:00", "indoor": "yes", "note": "ON 12/24 AND 12/31, THIS BOX MAY BE COLLECTED AS EARLY AS 12 NOON.", "nsi_id": "unitedstatespostalservice-a77078", "operator": "United States Postal Service", "operator:short": "USPS", "operator:type": "public", "operator:wikidata": "Q668687", "ref": "7046300002"}, "type": "Feature"}
{"geometry": {"coordinates": [-89.897698997, 30.648847008], "type": "Point"}, "id": "cUS1qob68oHGCtBVAEX1Su8FFvo=", "properties": {"@source_uri": "https://tools.usps.com/UspsToolsRestServices/rest/POLocator/findLocations", "@spider": "usps_collection_boxes", "addr:city": "SUN", "addr:country": "US", "addr:postcode": "70463", "addr:state": "LA", "addr:street_address": "30034 HIGHWAY 16", "amenity": "post_box", "collection_times": "Mo-Fr 16:30; Sa 10:00", "indoor": "yes", "note": "ON 12/24 AND 12/31, THIS BOX MAY BE COLLECTED AS EARLY AS 12 NOON.", "nsi_id": "unitedstatespostalservice-a77078", "operator": "United States Postal Service", "operator:short": "USPS", "operator:type": "public", "operator:wikidata": "Q668687", "ref": "7046300003"}, "type": "Feature"}
{"geometry": {"coordinates": [-89.87265362, 30.532675835], "type": "Point"}, "id": "GYAWFPEMw_tdOuv2mIjjWXe5FOg=", "properties": {"@source_uri": "https://tools.usps.com/UspsToolsRestServices/rest/POLocator/findLocations", "@spider": "usps_collection_boxes", "addr:city": "TALISHEEK", "addr:country": "US", "addr:postcode": "70464", "addr:state": "LA", "addr:street_address": "32035 HIGHWAY 435", "amenity": "post_box", "collection_times": "Mo-Fr 15:45; Sa 10:15", "indoor": "yes", "note": "ON 12/24 AND 12/31, THIS BOX MAY BE COLLECTED AS EARLY AS 12 NOON.", "nsi_id": "unitedstatespostalservice-a77078", "operator": "United States Postal Service", "operator:short": "USPS", "operator:type": "public", "operator:wikidata": "Q668687", "ref": "7046400001"}, "type": "Feature"}
{"geometry": {"coordinates": [-89.87265362, 30.532675835], "type": "Point"}, "id": "UM-SPLcHDWCA9RXgykbTWoV4Oys=", "properties": {"@source_uri": "https://tools.usps.com/UspsToolsRestServices/rest/POLocator/findLocations", "@spider": "usps_collection_boxes", "addr:city": "TALISHEEK", "addr:country": "US", "addr:postcode": "70464", "addr:state": "LA", "addr:street_address": "32035 HIGHWAY 435", "amenity": "post_box", "collection_times": "Mo-Fr 15:45; Sa 10:15", "note": "ON 12/24 AND 12/31, THIS BOX MAY BE COLLECTED AS EARLY AS 12 NOON.", "nsi_id": "unitedstatespostalservice-a77078", "operator": "United States Postal Service", "operator:short": "USPS", "operator:type": "public", "operator:wikidata": "Q668687", "ref": "7046400002"}, "type": "Feature"}
{"geometry": {"coordinates": [-89.87265362, 30.532675835], "type": "Point"}, "id": "lM7BQIdi9eZIBrrz0mfo0zdqhXc=", "properties": {"@source_uri": "https://tools.usps.com/UspsToolsRestServices/rest/POLocator/findLocations", "@spider": "usps_collection_boxes", "addr:city": "TALISHEEK", "addr:country": "US", "addr:postcode": "70464", "addr:state": "LA", "addr:street_address": "32035 HIGHWAY 435", "amenity": "post_box", "collection_times": "Mo-Fr 15:45; Sa 10:15", "indoor": "yes", "note": "ON 12/24 AND 12/31, THIS BOX MAY BE COLLECTED AS EARLY AS 12 NOON.", "nsi_id": "unitedstatespostalservice-a77078", "operator": "United States Postal Service", "operator:short": "USPS", "operator:type": "public", "operator:wikidata": "Q668687", "ref": "7046400003"}, "type": "Feature"}
{"geometry": {"coordinates": [-90.5107590233, 30.8737130188], "type": "Point"}, "id": "aSv4KZmseQGl6oD6GSg0WvpHesw=", "properties": {"@source_uri": "https://tools.usps.com/UspsToolsRestServices/rest/POLocator/findLocations", "@spider": "usps_collection_boxes", "addr:city": "TANGIPAHOA", "addr:country": "US", "addr:postcode": "70465", "addr:state": "LA", "addr:street_address": "70136 E RAILROAD AVE", "amenity": "post_box", "collection_times": "Mo-Fr 15:00; Sa 09:00", "indoor": "yes", "note": "ON 12/24 AND 12/31, THIS BOX MAY BE COLLECTED AS EARLY AS 12 NOON.", "nsi_id": "unitedstatespostalservice-a77078", "operator": "United States Postal Service", "operator:short": "USPS", "operator:type": "public", "operator:wikidata": "Q668687", "ref": "7046500001"}, "type": "Feature"}
{"geometry": {"coordinates": [-90.5107590233, 30.8737130188], "type": "Point"}, "id": "P_JTskyhijw3zP8G8xARkwhmDZQ=", "properties": {"@source_uri": "https://tools.usps.com/UspsToolsRestServices/rest/POLocator/findLocations", "@spider": "usps_collection_boxes", "addr:city": "TANGIPAHOA", "addr:country": "US", "addr:postcode": "70465", "addr:state": "LA", "addr:street_address": "70136 E RAILROAD AVE", "amenity": "post_box", "collection_times": "Mo-Fr 15:00; Sa 09:00", "indoor": "yes", "note": "ON 12/24 AND 12/31, THIS BOX MAY BE COLLECTED AS EARLY AS 12 NOON.", "nsi_id": "unitedstatespostalservice-a77078", "operator": "United States Postal Service", "operator:short": "USPS", "operator:type": "public", "operator:wikidata": "Q668687", "ref": "7046500003"}, "type": "Feature"}
{"geometry": {"coordinates": [-90.484768713, 30.578176456], "type": "Point"}, "id": "YdID0LaVdc8LtSGICU7MgL8isRg=", "properties": {"@source_uri": "https://tools.usps.com/UspsToolsRestServices/rest/POLocator/findLocations", "@spider": "usps_collection_boxes", "addr:city": "TICKFAW", "addr:country": "US", "addr:postcode": "70466", "addr:state": "LA", "addr:street_address": "14494 SECOND ST", "amenity": "post_box", "collection_times": "Mo-Fr 16:00; Sa 10:30", "note": "ON 12/24 AND 12/31, THIS BOX MAY BE COLLECTED AS EARLY AS 12 NOON.", "nsi_id": "unitedstatespostalservice-a77078", "operator": "United States Postal Service", "operator:short": "USPS", "operator:type": "public", "operator:wikidata": "Q668687", "ref": "7046600001"}, "type": "Feature"}
{"geometry": {"coordinates": [-90.484768713, 30.578176456], "type": "Point"}, "id": "YNwS_Lde3fQSs2VdNlgbDqqSWcE=", "properties": {"@source_uri": "https://tools.usps.com/UspsToolsRestServices/rest/POLocator/findLocations", "@spider": "usps_collection_boxes", "addr:city": "TICKFAW", "addr:country": "US", "addr:postcode": "70466", "addr:state": "LA", "addr:street_address": "14494 SECOND ST", "amenity": "post_box", "collection_times": "Mo-Fr 16:00; Sa 10:30", "indoor": "yes", "note": "ON 12/24 AND 12/31, THIS BOX MAY BE COLLECTED AS EARLY AS 12 NOON.", "nsi_id": "unitedstatespostalservice-a77078", "operator": "United States Postal Service", "operator:short": "USPS", "operator:type": "public", "operator:wikidata": "Q668687", "ref": "7046600002"}, "type": "Feature"}
{"geometry": {"coordinates": [-90.484768713, 30.578176456], "type": "Point"}, "id": "0-edwa2X5MezGZLGDBOkriTu0eU=", "properties": {"@source_uri": "https://tools.usps.com/UspsToolsRestServices/rest/POLocator/findLocations", "@spider": "usps_collection_boxes", "addr:city": "TICKFAW", "addr:country": "US", "addr:postcode": "70466", "addr:state": "LA", "addr:street_address": "14494 SECOND ST", "amenity": "post_box", "collection_times": "Mo-Fr 16:15; Sa 10:30", "indoor": "yes", "note": "ON 12/24 AND 12/31, THIS BOX MAY BE COLLECTED AS EARLY AS 12 NOON.", "nsi_id": "unitedstatespostalservice-a77078", "operator": "United States Postal Service", "operator:short": "USPS", "operator:type": "public", "operator:wikidata": "Q668687", "ref": "7046600003"}, "type": "Feature"}
{"geometry": {"coordinates": [-90.103246984, 30.393114011], "type": "Point"}, "id": "X-CsU3fJuS9FzYRrBvl78iBNBxI=", "properties": {"@source_uri": "https://tools.usps.com/UspsToolsRestServices/rest/POLocator/findLocations", "@spider": "usps_collection_boxes", "addr:city": "MANDEVILLE", "addr:country": "US", "addr:postcode": "70471", "addr:state": "LA", "addr:street_address": "2 SANCTUARY BLVD", "amenity": "post_box", "collection_times": "Mo-Fr 12:00", "nsi_id": "unitedstatespostalservice-a77078", "operator": "United States Postal Service", "operator:short": "USPS", "operator:type": "public", "operator:wikidata": "Q668687", "ref": "7047100001"}, "type": "Feature"}
{"geometry": {"coordinates": [-90.084527009, 30.404978008], "type": "Point"}, "id": "uKa9R3ZWxcv6FSGsAt13sbimCvA=", "properties": {"@source_uri": "https://tools.usps.com/UspsToolsRestServices/rest/POLocator/findLocations", "@spider": "usps_collection_boxes", "addr:city": "MANDEVILLE", "addr:country": "US", "addr:postcode": "70471", "addr:state": "LA", "addr:street_address": "2681 N CAUSEWAY BLVD", "amenity": "post_box", "collection_times": "Mo-Fr 12:00", "nsi_id": "unitedstatespostalservice-a77078", "operator": "United States Postal Service", "operator:short": "USPS", "operator:type": "public", "operator:wikidata": "Q668687", "ref": "7047100017"}, "type": "Feature"}
{"geometry": {"coordinates": [-90.100140986, 30.396012012], "type": "Point"}, "id": "bKYQYtIAcD5sWoCwGkSr-YSki10=", "properties": {"@source_uri": "https://tools.usps.com/UspsToolsRestServices/rest/POLocator/findLocations", "@spider": "usps_collection_boxes", "addr:city": "MANDEVILLE", "addr:country": "US", "addr:postcode": "70471", "addr:state": "LA", "addr:street_address": "4350 HIGHWAY 22", "amenity": "post_box", "collection_times": "Mo-Fr 13:00", "note": "ON 12/24 AND 12/31, THIS BOX MAY BE COLLECTED AS EARLY AS 12 NOON.", "nsi_id": "unitedstatespostalservice-a77078", "operator": "United States Postal Service", "operator:short": "USPS", "operator:type": "public", "operator:wikidata": "Q668687", "ref": "7047100018"}, "type": "Feature"}
{"geometry": {"coordinates": [-90.112504964, 30.401082016], "type": "Point"}, "id": "90txqr1cWP_hoeU62LXtGzBuZlE=", "properties": {"@source_uri": "https://tools.usps.com/UspsToolsRestServices/rest/POLocator/findLocations", "@spider": "usps_collection_boxes", "addr:city": "MANDEVILLE", "addr:country": "US", "addr:postcode": "70471", "addr:state": "LA", "addr:street_address": "4700 HIGHWAY 22", "amenity": "post_box", "collection_times": "Mo-Fr 12:00", "nsi_id": "unitedstatespostalservice-a77078", "operator": "United States Postal Service", "operator:short": "USPS", "operator:type": "public", "operator:wikidata": "Q668687", "ref": "7047100019"}, "type": "Feature"}
{"geometry": {"coordinates": [-90.043352, 30.417270991], "type": "Point"}, "id": "0JNloQUOEXS8NmPPQRhafVcAR-8=", "properties": {"@source_uri": "https://tools.usps.com/UspsToolsRestServices/rest/POLocator/findLocations", "@spider": "usps_collection_boxes", "addr:city": "MANDEVILLE", "addr:country": "US", "addr:postcode": "70471", "addr:state": "LA", "addr:street_address": "21454 KOOP DR", "amenity": "post_box", "collection_times": "Mo-Fr 15:15", "note": "ON 12/24 AND 12/31, THIS BOX MAY BE COLLECTED AS EARLY AS 12 NOON.", "nsi_id": "unitedstatespostalservice-a77078", "operator": "United States Postal Service", "operator:short": "USPS", "operator:type": "public", "operator:wikidata": "Q668687", "ref": "7047100023"}, "type": "Feature"}
{"geometry": {"coordinates": [-90.040972964, 30.407259981], "type": "Point"}, "id": "BIHggTEsJYGSOaOVmTIjgiwnIoE=", "properties": {"@source_uri": "https://tools.usps.com/UspsToolsRestServices/rest/POLocator/findLocations", "@spider": "usps_collection_boxes", "addr:city": "MANDEVILLE", "addr:country": "US", "addr:postcode": "70471", "addr:state": "LA", "addr:street_address": "4005 HIGHWAY 59", "amenity": "post_box", "collection_times": "Mo-Fr 15:30", "note": "ON 12/24 AND 12/31, THIS BOX MAY BE COLLECTED AS EARLY AS 12 NOON.", "nsi_id": "unitedstatespostalservice-a77078", "operator": "United States Postal Service", "operator:short": "USPS", "operator:type": "public", "operator:wikidata": "Q668687", "ref": "7047100025"}, "type": "Feature"}
{"geometry": {"coordinates": [-90.081929038, 30.388448015], "type": "Point"}, "id": "BHvgzdmrJiMHwIS1UgaXQs4h4lw=", "properties": {"@source_uri": "https://tools.usps.com/UspsToolsRestServices/rest/POLocator/findLocations", "@spider": "usps_collection_boxes", "addr:city": "MANDEVILLE", "addr:country": "US", "addr:postcode": "70471", "addr:state": "LA", "addr:street_address": "1 SAINT ANN DR", "amenity": "post_box", "collection_times": "Mo-Fr 16:45; Sa 16:00", "name": "USPS COLLECTION BOX - APC", "note": "ON 12/24 AND 12/31, THIS BOX MAY BE COLLECTED AS EARLY AS 12 NOON.", "nsi_id": "unitedstatespostalservice-a77078", "operator": "United States Postal Service", "operator:short": "USPS", "operator:type": "public", "operator:wikidata": "Q668687", "ref": "7047100030"}, "type": "Feature"}
{"geometry": {"coordinates": [-90.081929038, 30.388448015], "type": "Point"}, "id": "QMoM5dC1rfXYduH60FdFTJBxsKY=", "properties": {"@source_uri": "https://tools.usps.com/UspsToolsRestServices/rest/POLocator/findLocations", "@spider": "usps_collection_boxes", "addr:city": "MANDEVILLE", "addr:country": "US", "addr:postcode": "70471", "addr:state": "LA", "addr:street_address": "1 SAINT ANN DR", "amenity": "post_box", "collection_times": "Mo-Fr 16:45; Sa 16:00", "indoor": "yes", "note": "ON 12/24 AND 12/31, THIS BOX MAY BE COLLECTED AS EARLY AS 12 NOON.", "nsi_id": "unitedstatespostalservice-a77078", "operator": "United States Postal Service", "operator:short": "USPS", "operator:type": "public", "operator:wikidata": "Q668687", "ref": "7047100034"}, "type": "Feature"}
{"geometry": {"coordinates": [-90.081929038, 30.388448015], "type": "Point"}, "id": "zDynI5vwmcf-j_DuDqmPmlEaiuI=", "properties": {"@source_uri": "https://tools.usps.com/UspsToolsRestServices/rest/POLocator/findLocations", "@spider": "usps_collection_boxes", "addr:city": "MANDEVILLE", "addr:country": "US", "addr:postcode": "70471", "addr:state": "LA", "addr:street_address": "1 SAINT ANN DR", "amenity": "post_box", "collection_times": "Mo-Fr 16:45; Sa 16:00", "indoor": "yes", "note": "ON 12/24 AND 12/31, THIS BOX MAY BE COLLECTED AS EARLY AS 12 NOON.", "nsi_id": "unitedstatespostalservice-a77078", "operator": "United States Postal Service", "operator:short": "USPS", "operator:type": "public", "operator:wikidata": "Q668687", "ref": "7047100035"}, "type": "Feature"}
{"geometry": {"coordinates": [-90.081929038, 30.388448015], "type": "Point"}, "id": "3hnGXaTjctF3IMi74D0ZZ9XF4EE=", "properties": {"@source_uri": "https://tools.usps.com/UspsToolsRestServices/rest/POLocator/findLocations", "@spider": "usps_collection_boxes", "addr:city": "MANDEVILLE", "addr:country": "US", "addr:postcode": "70471", "addr:state": "LA", "addr:street_address": "1 SAINT ANN DR", "amenity": "post_box", "collection_times": "Mo-Fr 17:45; Sa 13:00", "indoor": "yes", "note": "ON 12/24 AND 12/31, THIS BOX MAY BE COLLECTED AS EARLY AS 12 NOON.", "nsi_id": "unitedstatespostalservice-a77078", "operator": "United States Postal Service", "operator:short": "USPS", "operator:type": "public", "operator:wikidata": "Q668687", "ref": "7047100041"}, "type": "Feature"}
