{"dataset_attributes": {"@spider": "usps_collection_boxes", "spider:collection_time": "2023-12-04T08:26:34.193579"}, "geometry": {"coordinates": [-93.322141968, 29.797836989], "type": "Point"}, "id": "DUYHPKyULrpNZ7zAMwE6VZBWEzE=", "properties": {"@spider": "usps_collection_boxes", "addr:city": "CAMERON", "addr:country": "US", "addr:full": "144 ADAM ROUX ST", "addr:postcode": "70631", "addr:state": "LA", "amenity": "post_box", "brand": "United States Postal Service", "brand:wikidata": "Q668687", "collection_times": "Mo-Fr 15:00; Sa 11:00", "name": "USPS COLLECTION BOX - BLUE BOX", "note": "ON 12/24 AND 12/31, THIS BOX MAY BE COLLECTED AS EARLY AS 12 NOON.", "nsi_id": "unitedstatespostalservice-a77078", "operator": "United States Postal Service", "operator:short": "USPS", "operator:type": "public", "operator:wikidata": "Q668687", "ref": "7063100009"}, "type": "Feature"}
{"dataset_attributes": {"@spider": "usps_collection_boxes", "spider:collection_time": "2023-12-04T08:26:34.193579"}, "geometry": {"coordinates": [-93.322141968, 29.797836989], "type": "Point"}, "id": "TP8lUzkd6kUsUJ1OY0KDRh0B3x8=", "properties": {"@spider": "usps_collection_boxes", "addr:city": "CAMERON", "addr:country": "US", "addr:full": "144 ADAM ROUX ST", "addr:postcode": "70631", "addr:state": "LA", "amenity": "post_box", "brand": "United States Postal Service", "brand:wikidata": "Q668687", "collection_times": "Mo-Fr 15:00; Sa 11:00", "name": "USPS COLLECTION BOX - PO LOBBY", "note": "ON 12/24 AND 12/31, THIS BOX MAY BE COLLECTED AS EARLY AS 12 NOON.", "nsi_id": "unitedstatespostalservice-a77078", "operator": "United States Postal Service", "operator:short": "USPS", "operator:type": "public", "operator:wikidata": "Q668687", "ref": "7063100011"}, "type": "Feature"}
{"dataset_attributes": {"@spider": "usps_collection_boxes", "spider:collection_time": "2023-12-04T08:26:34.193579"}, "geometry": {"coordinates": [-93.322141968, 29.797836989], "type": "Point"}, "id": "nFpZRUrweT4pF1ePa54frGEO6sE=", "properties": {"@spider": "usps_collection_boxes", "addr:city": "CAMERON", "addr:country": "US", "addr:full": "144 ADAM ROUX ST", "addr:postcode": "70631", "addr:state": "LA", "amenity": "post_box", "brand": "United States Postal Service", "brand:wikidata": "Q668687", "collection_times": "Mo-Fr 16:00; Sa 12:00", "name": "USPS COLLECTION BOX - PO LOBBY", "note": "ON 12/24 AND 12/31, THIS BOX MAY BE COLLECTED AS EARLY AS 12 NOON.", "nsi_id": "unitedstatespostalservice-a77078", "operator": "United States Postal Service", "operator:short": "USPS", "operator:type": "public", "operator:wikidata": "Q668687", "ref": "7063100012"}, "type": "Feature"}
{"dataset_attributes": {"@spider": "usps_collection_boxes", "spider:collection_time": "2023-12-04T08:26:34.193579"}, "geometry": {"coordinates": [-93.1327538855, 29.8138835374], "type": "Point"}, "id": "9gly3CvN6fEnbhyVwOGKzhBgZao=", "properties": {"@spider": "usps_collection_boxes", "addr:city": "CREOLE", "addr:country": "US", "addr:full": "4459 W CREOLE HWY", "addr:postcode": "70632", "addr:state": "LA", "amenity": "post_box", "brand": "United States Postal Service", "brand:wikidata": "Q668687", "collection_times": "Mo-Sa 11:00", "name": "USPS COLLECTION BOX - BLUE BOX", "nsi_id": "unitedstatespostalservice-a77078", "operator": "United States Postal Service", "operator:short": "USPS", "operator:type": "public", "operator:wikidata": "Q668687", "ref": "7063200004"}, "type": "Feature"}
