{"dataset_attributes": {"@spider": "usps_collection_boxes", "spider:collection_time": "2023-09-16T08:22:24.198600"}, "geometry": {"coordinates": [-91.264379337, 30.353144215], "type": "Point"}, "id": "DYBmehXmdAnlFegaRstzduo9-KE=", "properties": {"@spider": "usps_collection_boxes", "addr:city": "ADDIS", "addr:country": "US", "addr:full": "4260 FORET ST", "addr:postcode": "70710", "addr:state": "LA", "amenity": "post_box", "brand": "United States Postal Service", "brand:wikidata": "Q668687", "collection_times": "Mo-Fr 16:00; Sa 10:30", "name": "USPS COLLECTION BOX - PO LOBBY", "note": "ON 12/24 AND 12/31, THIS BOX MAY BE COLLECTED AS EARLY AS 12 NOON.", "nsi_id": "unitedstatespostalservice-a77078", "operator": "United States Postal Service", "operator:short": "USPS", "operator:type": "public", "operator:wikidata": "Q668687", "ref": "7071000001"}, "type": "Feature"}
{"dataset_attributes": {"@spider": "usps_collection_boxes", "spider:collection_time": "2023-09-16T08:22:24.198600"}, "geometry": {"coordinates": [-91.264379337, 30.353144215], "type": "Point"}, "id": "0yPKX9gFXRQLBQfy9JewxLKHxfg=", "properties": {"@spider": "usps_collection_boxes", "addr:city": "ADDIS", "addr:country": "US", "addr:full": "4260 FORET ST", "addr:postcode": "70710", "addr:state": "LA", "amenity": "post_box", "brand": "United States Postal Service", "brand:wikidata": "Q668687", "collection_times": "Mo-Fr 16:00; Sa 10:30", "name": "USPS COLLECTION BOX - BLUE BOX", "note": "ON 12/24 AND 12/31, THIS BOX MAY BE COLLECTED AS EARLY AS 12 NOON.", "nsi_id": "unitedstatespostalservice-a77078", "operator": "United States Postal Service", "operator:short": "USPS", "operator:type": "public", "operator:wikidata": "Q668687", "ref": "7071000002"}, "type": "Feature"}
{"dataset_attributes": {"@spider": "usps_collection_boxes", "spider:collection_time": "2023-09-16T08:22:24.198600"}, "geometry": {"coordinates": [-91.264379337, 30.353144215], "type": "Point"}, "id": "RwViMaRgD_GCLHR1RwXNecE0RxM=", "properties": {"@spider": "usps_collection_boxes", "addr:city": "ADDIS", "addr:country": "US", "addr:full": "4260 FORET ST", "addr:postcode": "70710", "addr:state": "LA", "amenity": "post_box", "brand": "United States Postal Service", "brand:wikidata": "Q668687", "collection_times": "Mo-Fr 16:00; Sa 10:30", "name": "USPS COLLECTION BOX - PO LOBBY", "note": "ON 12/24 AND 12/31, THIS BOX MAY BE COLLECTED AS EARLY AS 12 NOON.", "nsi_id": "unitedstatespostalservice-a77078", "operator": "United States Postal Service", "operator:short": "USPS", "operator:type": "public", "operator:wikidata": "Q668687", "ref": "7071000004"}, "type": "Feature"}
{"dataset_attributes": {"@spider": "usps_collection_boxes", "spider:collection_time": "2023-09-16T08:22:24.198600"}, "geometry": {"coordinates": [-90.583237005, 30.498906998], "type": "Point"}, "id": "AVEHO8SaShTut06Svp5bKuJwpIQ=", "properties": {"@spider": "usps_collection_boxes", "addr:city": "ALBANY", "addr:country": "US", "addr:full": "29683 S MONTPELIER RD", "addr:postcode": "70711", "addr:state": "LA", "amenity": "post_box", "brand": "United States Postal Service", "brand:wikidata": "Q668687", "collection_times": "Mo-Fr 15:45; Sa 10:30", "name": "USPS COLLECTION BOX - PO LOBBY", "note": "ON 12/24 AND 12/31, THIS BOX MAY BE COLLECTED AS EARLY AS 12 NOON.", "nsi_id": "unitedstatespostalservice-a77078", "operator": "United States Postal Service", "operator:short": "USPS", "operator:type": "public", "operator:wikidata": "Q668687", "ref": "7071100001"}, "type": "Feature"}
{"dataset_attributes": {"@spider": "usps_collection_boxes", "spider:collection_time": "2023-09-16T08:22:24.198600"}, "geometry": {"coordinates": [-90.583237005, 30.498906998], "type": "Point"}, "id": "TEovjT53CqFlTNeTS80T9_PKETQ=", "properties": {"@spider": "usps_collection_boxes", "addr:city": "ALBANY", "addr:country": "US", "addr:full": "29683 S MONTPELIER RD", "addr:postcode": "70711", "addr:state": "LA", "amenity": "post_box", "brand": "United States Postal Service", "brand:wikidata": "Q668687", "collection_times": "Mo-Fr 15:45; Sa 10:30", "name": "USPS COLLECTION BOX - BLUE BOX", "note": "ON 12/24 AND 12/31, THIS BOX MAY BE COLLECTED AS EARLY AS 12 NOON.", "nsi_id": "unitedstatespostalservice-a77078", "operator": "United States Postal Service", "operator:short": "USPS", "operator:type": "public", "operator:wikidata": "Q668687", "ref": "7071100002"}, "type": "Feature"}
{"dataset_attributes": {"@spider": "usps_collection_boxes", "spider:collection_time": "2023-09-16T08:22:24.198600"}, "geometry": {"coordinates": [-90.583237005, 30.498906998], "type": "Point"}, "id": "TXEwCTbo6hyfv-BHm2n1PpnUL2s=", "properties": {"@spider": "usps_collection_boxes", "addr:city": "ALBANY", "addr:country": "US", "addr:full": "29683 S MONTPELIER RD", "addr:postcode": "70711", "addr:state": "LA", "amenity": "post_box", "brand": "United States Postal Service", "brand:wikidata": "Q668687", "collection_times": "Mo-Fr 16:00; Sa 10:30", "name": "USPS COLLECTION BOX - PO LOBBY", "note": "ON 12/24 AND 12/31, THIS BOX MAY BE COLLECTED AS EARLY AS 12 NOON.", "nsi_id": "unitedstatespostalservice-a77078", "operator": "United States Postal Service", "operator:short": "USPS", "operator:type": "public", "operator:wikidata": "Q668687", "ref": "7071100004"}, "type": "Feature"}
{"dataset_attributes": {"@spider": "usps_collection_boxes", "spider:collection_time": "2023-09-16T08:22:24.198600"}, "geometry": {"coordinates": [-91.569400016, 30.94865901], "type": "Point"}, "id": "xe472nY4Y47vo01fYfd_euKB89g=", "properties": {"@spider": "usps_collection_boxes", "addr:city": "ANGOLA", "addr:country": "US", "addr:full": "11200 MAIN ST", "addr:postcode": "70712", "addr:state": "LA", "amenity": "post_box", "brand": "United States Postal Service", "brand:wikidata": "Q668687", "collection_times": "Mo-Fr 15:30; Sa 09:00", "name": "USPS COLLECTION BOX - PO LOBBY", "note": "ON 12/24 AND 12/31, THIS BOX MAY BE COLLECTED AS EARLY AS 12 NOON.", "nsi_id": "unitedstatespostalservice-a77078", "operator": "United States Postal Service", "operator:short": "USPS", "operator:type": "public", "operator:wikidata": "Q668687", "ref": "7071200001"}, "type": "Feature"}
{"dataset_attributes": {"@spider": "usps_collection_boxes", "spider:collection_time": "2023-09-16T08:22:24.198600"}, "geometry": {"coordinates": [-91.569400016, 30.94865901], "type": "Point"}, "id": "6mdMaTHNvE6QbfZSSngok50KC4M=", "properties": {"@spider": "usps_collection_boxes", "addr:city": "ANGOLA", "addr:country": "US", "addr:full": "11200 MAIN ST", "addr:postcode": "70712", "addr:state": "LA", "amenity": "post_box", "brand": "United States Postal Service", "brand:wikidata": "Q668687", "collection_times": "Mo-Fr 15:30; Sa 09:00", "name": "USPS COLLECTION BOX - BLUE BOX", "note": "ON 12/24 AND 12/31, THIS BOX MAY BE COLLECTED AS EARLY AS 12 NOON.", "nsi_id": "unitedstatespostalservice-a77078", "operator": "United States Postal Service", "operator:short": "USPS", "operator:type": "public", "operator:wikidata": "Q668687", "ref": "7071200002"}, "type": "Feature"}
{"dataset_attributes": {"@spider": "usps_collection_boxes", "spider:collection_time": "2023-09-16T08:22:24.198600"}, "geometry": {"coordinates": [-91.569400016, 30.94865901], "type": "Point"}, "id": "o7mx_ZMyDdk0Rn1C3YBlTl6-U_M=", "properties": {"@spider": "usps_collection_boxes", "addr:city": "ANGOLA", "addr:country": "US", "addr:full": "11200 MAIN ST", "addr:postcode": "70712", "addr:state": "LA", "amenity": "post_box", "brand": "United States Postal Service", "brand:wikidata": "Q668687", "collection_times": "Mo-Fr 16:00", "name": "USPS COLLECTION BOX - PO LOBBY", "note": "ON 12/24 AND 12/31, THIS BOX MAY BE COLLECTED AS EARLY AS 12 NOON.", "nsi_id": "unitedstatespostalservice-a77078", "operator": "United States Postal Service", "operator:short": "USPS", "operator:type": "public", "operator:wikidata": "Q668687", "ref": "7071200003"}, "type": "Feature"}
{"dataset_attributes": {"@spider": "usps_collection_boxes", "spider:collection_time": "2023-09-16T08:22:24.198600"}, "geometry": {"coordinates": [-91.169750621, 30.58663053], "type": "Point"}, "id": "gFf-CcMdm-cbPWuC2UguF9AmMxg=", "properties": {"@spider": "usps_collection_boxes", "addr:city": "BAKER", "addr:country": "US", "addr:full": "3009 RAY WEILAND DR", "addr:postcode": "70714", "addr:state": "LA", "amenity": "post_box", "brand": "United States Postal Service", "brand:wikidata": "Q668687", "collection_times": "Mo-Fr 17:00; Sa 14:00", "name": "USPS COLLECTION BOX - PO LOBBY", "note": "ON 12/24 AND 12/31, THIS BOX MAY BE COLLECTED AS EARLY AS 12 NOON.", "nsi_id": "unitedstatespostalservice-a77078", "operator": "United States Postal Service", "operator:short": "USPS", "operator:type": "public", "operator:wikidata": "Q668687", "ref": "7071400001"}, "type": "Feature"}
{"dataset_attributes": {"@spider": "usps_collection_boxes", "spider:collection_time": "2023-09-16T08:22:24.198600"}, "geometry": {"coordinates": [-91.169750621, 30.58663053], "type": "Point"}, "id": "nGpwCrgUb28I3j8GClCtDwHE7K8=", "properties": {"@spider": "usps_collection_boxes", "addr:city": "BAKER", "addr:country": "US", "addr:full": "3009 RAY WEILAND DR", "addr:postcode": "70714", "addr:state": "LA", "amenity": "post_box", "brand": "United States Postal Service", "brand:wikidata": "Q668687", "collection_times": "Mo-Fr 17:00; Sa 14:00", "name": "USPS COLLECTION BOX - PO LOBBY", "note": "ON 12/24 AND 12/31, THIS BOX MAY BE COLLECTED AS EARLY AS 12 NOON.", "nsi_id": "unitedstatespostalservice-a77078", "operator": "United States Postal Service", "operator:short": "USPS", "operator:type": "public", "operator:wikidata": "Q668687", "ref": "7071400002"}, "type": "Feature"}
{"dataset_attributes": {"@spider": "usps_collection_boxes", "spider:collection_time": "2023-09-16T08:22:24.198600"}, "geometry": {"coordinates": [-91.169750621, 30.58663053], "type": "Point"}, "id": "-FtWCTYSbGEBQQGVVsLNKOpeigI=", "properties": {"@spider": "usps_collection_boxes", "addr:city": "BAKER", "addr:country": "US", "addr:full": "3009 RAY WEILAND DR", "addr:postcode": "70714", "addr:state": "LA", "amenity": "post_box", "brand": "United States Postal Service", "brand:wikidata": "Q668687", "collection_times": "Mo-Fr 17:00; Sa 14:00", "name": "USPS COLLECTION BOX - BLUE BOX", "note": "ON 12/24 AND 12/31, THIS BOX MAY BE COLLECTED AS EARLY AS 12 NOON.", "nsi_id": "unitedstatespostalservice-a77078", "operator": "United States Postal Service", "operator:short": "USPS", "operator:type": "public", "operator:wikidata": "Q668687", "ref": "7071400006"}, "type": "Feature"}
{"dataset_attributes": {"@spider": "usps_collection_boxes", "spider:collection_time": "2023-09-16T08:22:24.198600"}, "geometry": {"coordinates": [-91.165442837, 30.588926501], "type": "Point"}, "id": "A4MIuEwDY8i16batWjDCTMbdoQw=", "properties": {"@spider": "usps_collection_boxes", "addr:city": "BAKER", "addr:country": "US", "addr:full": "1300 ALABAMA ST", "addr:postcode": "70714", "addr:state": "LA", "amenity": "post_box", "brand": "United States Postal Service", "brand:wikidata": "Q668687", "collection_times": "Mo-Fr 14:00; Sa 13:00", "name": "USPS COLLECTION BOX - BLUE BOX", "note": "ON 12/24 AND 12/31, THIS BOX MAY BE COLLECTED AS EARLY AS 12 NOON.", "nsi_id": "unitedstatespostalservice-a77078", "operator": "United States Postal Service", "operator:short": "USPS", "operator:type": "public", "operator:wikidata": "Q668687", "ref": "7071400017"}, "type": "Feature"}
{"dataset_attributes": {"@spider": "usps_collection_boxes", "spider:collection_time": "2023-09-16T08:22:24.198600"}, "geometry": {"coordinates": [-91.169750621, 30.58663053], "type": "Point"}, "id": "VQbPFmWXx1gcUBbyoa5tXCkN8tQ=", "properties": {"@spider": "usps_collection_boxes", "addr:city": "BAKER", "addr:country": "US", "addr:full": "3009 RAY WEILAND DR", "addr:postcode": "70714", "addr:state": "LA", "amenity": "post_box", "brand": "United States Postal Service", "brand:wikidata": "Q668687", "collection_times": "Mo-Fr 16:30; Sa 11:30", "name": "USPS COLLECTION BOX - PO LOBBY", "note": "ON 12/24 AND 12/31, THIS BOX MAY BE COLLECTED AS EARLY AS 12 NOON.", "nsi_id": "unitedstatespostalservice-a77078", "operator": "United States Postal Service", "operator:short": "USPS", "operator:type": "public", "operator:wikidata": "Q668687", "ref": "7071400019"}, "type": "Feature"}
{"dataset_attributes": {"@spider": "usps_collection_boxes", "spider:collection_time": "2023-09-16T08:22:24.198600"}, "geometry": {"coordinates": [-91.66070349, 30.840497847], "type": "Point"}, "id": "UlkDMqccBv4foHywnrocIcdPFm4=", "properties": {"@spider": "usps_collection_boxes", "addr:city": "BATCHELOR", "addr:country": "US", "addr:full": "4992 LA HIGHWAY 1", "addr:postcode": "70715", "addr:state": "LA", "amenity": "post_box", "brand": "United States Postal Service", "brand:wikidata": "Q668687", "collection_times": "Mo-Fr 13:00; Sa 10:00", "name": "USPS COLLECTION BOX - PO LOBBY", "note": "ON 12/24 AND 12/31, THIS BOX MAY BE COLLECTED AS EARLY AS 12 NOON.", "nsi_id": "unitedstatespostalservice-a77078", "operator": "United States Postal Service", "operator:short": "USPS", "operator:type": "public", "operator:wikidata": "Q668687", "ref": "7071500001"}, "type": "Feature"}
{"dataset_attributes": {"@spider": "usps_collection_boxes", "spider:collection_time": "2023-09-16T08:22:24.198600"}, "geometry": {"coordinates": [-91.66070349, 30.840497847], "type": "Point"}, "id": "LRXEG7W3YfDnXCjtTNQqlhTsw40=", "properties": {"@spider": "usps_collection_boxes", "addr:city": "BATCHELOR", "addr:country": "US", "addr:full": "4992 LA HIGHWAY 1", "addr:postcode": "70715", "addr:state": "LA", "amenity": "post_box", "brand": "United States Postal Service", "brand:wikidata": "Q668687", "collection_times": "Mo-Fr 13:00; Sa 10:00", "name": "USPS COLLECTION BOX - BLUE BOX", "note": "ON 12/24 AND 12/31, THIS BOX MAY BE COLLECTED AS EARLY AS 12 NOON.", "nsi_id": "unitedstatespostalservice-a77078", "operator": "United States Postal Service", "operator:short": "USPS", "operator:type": "public", "operator:wikidata": "Q668687", "ref": "7071500002"}, "type": "Feature"}
{"dataset_attributes": {"@spider": "usps_collection_boxes", "spider:collection_time": "2023-09-16T08:22:24.198600"}, "geometry": {"coordinates": [-91.66070349, 30.840497847], "type": "Point"}, "id": "zcKmoZcSxGUB4DzoowryWNyGa9U=", "properties": {"@spider": "usps_collection_boxes", "addr:city": "BATCHELOR", "addr:country": "US", "addr:full": "4992 LA HIGHWAY 1", "addr:postcode": "70715", "addr:state": "LA", "amenity": "post_box", "brand": "United States Postal Service", "brand:wikidata": "Q668687", "collection_times": "Mo-Fr 13:00; Sa 10:00", "name": "USPS COLLECTION BOX - PO LOBBY", "note": "ON 12/24 AND 12/31, THIS BOX MAY BE COLLECTED AS EARLY AS 12 NOON.", "nsi_id": "unitedstatespostalservice-a77078", "operator": "United States Postal Service", "operator:short": "USPS", "operator:type": "public", "operator:wikidata": "Q668687", "ref": "7071500003"}, "type": "Feature"}
{"dataset_attributes": {"@spider": "usps_collection_boxes", "spider:collection_time": "2023-09-16T08:22:24.198600"}, "geometry": {"coordinates": [-90.899789802, 30.211278177], "type": "Point"}, "id": "36kyJsn3TMVD3UVnozVsnGq7JTY=", "properties": {"@spider": "usps_collection_boxes", "addr:city": "BRITTANY", "addr:country": "US", "addr:full": "1830 E HIGHWAY 30", "addr:postcode": "70718", "addr:state": "LA", "amenity": "post_box", "brand": "United States Postal Service", "brand:wikidata": "Q668687", "collection_times": "Mo-Fr 16:00; Sa 11:00", "name": "USPS COLLECTION BOX - PO LOBBY", "note": "ON 12/24 AND 12/31, THIS BOX MAY BE COLLECTED AS EARLY AS 12 NOON.", "nsi_id": "unitedstatespostalservice-a77078", "operator": "United States Postal Service", "operator:short": "USPS", "operator:type": "public", "operator:wikidata": "Q668687", "ref": "7071800001"}, "type": "Feature"}
{"dataset_attributes": {"@spider": "usps_collection_boxes", "spider:collection_time": "2023-09-16T08:22:24.198600"}, "geometry": {"coordinates": [-90.899789802, 30.211278177], "type": "Point"}, "id": "f9DPdgi0rL4-6BIUy97EyrQMxD8=", "properties": {"@spider": "usps_collection_boxes", "addr:city": "BRITTANY", "addr:country": "US", "addr:full": "1830 E HIGHWAY 30", "addr:postcode": "70718", "addr:state": "LA", "amenity": "post_box", "brand": "United States Postal Service", "brand:wikidata": "Q668687", "collection_times": "Mo-Fr 16:00; Sa 11:00", "name": "USPS COLLECTION BOX - BLUE BOX", "note": "ON 12/24 AND 12/31, THIS BOX MAY BE COLLECTED AS EARLY AS 12 NOON.", "nsi_id": "unitedstatespostalservice-a77078", "operator": "United States Postal Service", "operator:short": "USPS", "operator:type": "public", "operator:wikidata": "Q668687", "ref": "7071800002"}, "type": "Feature"}
{"dataset_attributes": {"@spider": "usps_collection_boxes", "spider:collection_time": "2023-09-16T08:22:24.198600"}, "geometry": {"coordinates": [-90.899789802, 30.211278177], "type": "Point"}, "id": "wHiAnIdS9buIdRSIe2ns7dK9QUM=", "properties": {"@spider": "usps_collection_boxes", "addr:city": "BRITTANY", "addr:country": "US", "addr:full": "1830 E HIGHWAY 30", "addr:postcode": "70718", "addr:state": "LA", "amenity": "post_box", "brand": "United States Postal Service", "brand:wikidata": "Q668687", "collection_times": "Mo-Fr 16:00; Sa 11:00", "name": "USPS COLLECTION BOX - PO LOBBY", "note": "ON 12/24 AND 12/31, THIS BOX MAY BE COLLECTED AS EARLY AS 12 NOON.", "nsi_id": "unitedstatespostalservice-a77078", "operator": "United States Postal Service", "operator:short": "USPS", "operator:type": "public", "operator:wikidata": "Q668687", "ref": "7071800003"}, "type": "Feature"}
{"dataset_attributes": {"@spider": "usps_collection_boxes", "spider:collection_time": "2023-09-16T08:22:24.198600"}, "geometry": {"coordinates": [-91.239824002, 30.389237004], "type": "Point"}, "id": "HP_4rcR42f9W_cOJGatACI_7RbM=", "properties": {"@spider": "usps_collection_boxes", "addr:city": "BRUSLY", "addr:country": "US", "addr:full": "315 E MAIN ST", "addr:postcode": "70719", "addr:state": "LA", "amenity": "post_box", "brand": "United States Postal Service", "brand:wikidata": "Q668687", "collection_times": "Mo-Fr 16:30; Sa 11:00", "name": "USPS COLLECTION BOX - PO LOBBY", "note": "ON 12/24 AND 12/31, THIS BOX MAY BE COLLECTED AS EARLY AS 12 NOON.", "nsi_id": "unitedstatespostalservice-a77078", "operator": "United States Postal Service", "operator:short": "USPS", "operator:type": "public", "operator:wikidata": "Q668687", "ref": "7071900001"}, "type": "Feature"}
{"dataset_attributes": {"@spider": "usps_collection_boxes", "spider:collection_time": "2023-09-16T08:22:24.198600"}, "geometry": {"coordinates": [-91.239824002, 30.389237004], "type": "Point"}, "id": "c5QWu9fNNJxLJWGR4zZYuE7HjUg=", "properties": {"@spider": "usps_collection_boxes", "addr:city": "BRUSLY", "addr:country": "US", "addr:full": "315 E MAIN ST", "addr:postcode": "70719", "addr:state": "LA", "amenity": "post_box", "brand": "United States Postal Service", "brand:wikidata": "Q668687", "collection_times": "Mo-Fr 16:30; Sa 11:00", "name": "USPS COLLECTION BOX - BLUE BOX", "note": "ON 12/24 AND 12/31, THIS BOX MAY BE COLLECTED AS EARLY AS 12 NOON.", "nsi_id": "unitedstatespostalservice-a77078", "operator": "United States Postal Service", "operator:short": "USPS", "operator:type": "public", "operator:wikidata": "Q668687", "ref": "7071900002"}, "type": "Feature"}
{"dataset_attributes": {"@spider": "usps_collection_boxes", "spider:collection_time": "2023-09-16T08:22:24.198600"}, "geometry": {"coordinates": [-91.244202038, 30.385735003], "type": "Point"}, "id": "NDaHBhrSwhwa9HDa6DryFRGcTIs=", "properties": {"@spider": "usps_collection_boxes", "addr:city": "BRUSLY", "addr:country": "US", "addr:full": "150 E ST FRANCIS ST", "addr:postcode": "70719", "addr:state": "LA", "amenity": "post_box", "brand": "United States Postal Service", "brand:wikidata": "Q668687", "collection_times": "Mo-Fr 12:30; Sa 11:00", "name": "USPS COLLECTION BOX - BLUE BOX", "note": "ON 12/24 AND 12/31, THIS BOX MAY BE COLLECTED AS EARLY AS 12 NOON.", "nsi_id": "unitedstatespostalservice-a77078", "operator": "United States Postal Service", "operator:short": "USPS", "operator:type": "public", "operator:wikidata": "Q668687", "ref": "7071900003"}, "type": "Feature"}
{"dataset_attributes": {"@spider": "usps_collection_boxes", "spider:collection_time": "2023-09-16T08:22:24.198600"}, "geometry": {"coordinates": [-91.239824002, 30.389237004], "type": "Point"}, "id": "gqaw92vozY6giX2DzzHx2eSNEkw=", "properties": {"@spider": "usps_collection_boxes", "addr:city": "BRUSLY", "addr:country": "US", "addr:full": "315 E MAIN ST", "addr:postcode": "70719", "addr:state": "LA", "amenity": "post_box", "brand": "United States Postal Service", "brand:wikidata": "Q668687", "collection_times": "Mo-Fr 16:30; Sa 11:00", "name": "USPS COLLECTION BOX - PO LOBBY", "note": "ON 12/24 AND 12/31, THIS BOX MAY BE COLLECTED AS EARLY AS 12 NOON.", "nsi_id": "unitedstatespostalservice-a77078", "operator": "United States Postal Service", "operator:short": "USPS", "operator:type": "public", "operator:wikidata": "Q668687", "ref": "7071900006"}, "type": "Feature"}
{"dataset_attributes": {"@spider": "usps_collection_boxes", "spider:collection_time": "2023-09-16T08:22:24.198600"}, "geometry": {"coordinates": [-91.095476439, 30.214263312], "type": "Point"}, "id": "RKvqeIpyYx5IDBx-CWDcw-Gyr78=", "properties": {"@spider": "usps_collection_boxes", "addr:city": "CARVILLE", "addr:country": "US", "addr:full": "5715 HIGHWAY 75", "addr:postcode": "70721", "addr:state": "LA", "amenity": "post_box", "brand": "United States Postal Service", "brand:wikidata": "Q668687", "collection_times": "Mo-Fr 15:45; Sa 10:45", "name": "USPS COLLECTION BOX - PO LOBBY", "note": "ON 12/24 AND 12/31, THIS BOX MAY BE COLLECTED AS EARLY AS 12 NOON.", "nsi_id": "unitedstatespostalservice-a77078", "operator": "United States Postal Service", "operator:short": "USPS", "operator:type": "public", "operator:wikidata": "Q668687", "ref": "7072100001"}, "type": "Feature"}
{"dataset_attributes": {"@spider": "usps_collection_boxes", "spider:collection_time": "2023-09-16T08:22:24.198600"}, "geometry": {"coordinates": [-91.0954764385, 30.2142633119], "type": "Point"}, "id": "C3k4bbFZHSQcJfYMRgz6wXr3EZI=", "properties": {"@spider": "usps_collection_boxes", "addr:city": "CARVILLE", "addr:country": "US", "addr:full": "5715 HIGHWAY 75", "addr:postcode": "70721", "addr:state": "LA", "amenity": "post_box", "brand": "United States Postal Service", "brand:wikidata": "Q668687", "collection_times": "Mo-Fr 16:00; Sa 11:00", "name": "USPS COLLECTION BOX - BLUE BOX", "note": "ON 12/24 AND 12/31, THIS BOX MAY BE COLLECTED AS EARLY AS 12 NOON.", "nsi_id": "unitedstatespostalservice-a77078", "operator": "United States Postal Service", "operator:short": "USPS", "operator:type": "public", "operator:wikidata": "Q668687", "ref": "7072100002"}, "type": "Feature"}
{"dataset_attributes": {"@spider": "usps_collection_boxes", "spider:collection_time": "2023-09-16T08:22:24.198600"}, "geometry": {"coordinates": [-91.095476439, 30.214263312], "type": "Point"}, "id": "t_1HReehs6NKL5lqn7CXk1ySgfo=", "properties": {"@spider": "usps_collection_boxes", "addr:city": "CARVILLE", "addr:country": "US", "addr:full": "5715 HIGHWAY 75", "addr:postcode": "70721", "addr:state": "LA", "amenity": "post_box", "brand": "United States Postal Service", "brand:wikidata": "Q668687", "collection_times": "Mo-Fr 16:00; Sa 11:00", "name": "USPS COLLECTION BOX - PO LOBBY", "note": "ON 12/24 AND 12/31, THIS BOX MAY BE COLLECTED AS EARLY AS 12 NOON.", "nsi_id": "unitedstatespostalservice-a77078", "operator": "United States Postal Service", "operator:short": "USPS", "operator:type": "public", "operator:wikidata": "Q668687", "ref": "7072100005"}, "type": "Feature"}
{"dataset_attributes": {"@spider": "usps_collection_boxes", "spider:collection_time": "2023-09-16T08:22:24.198600"}, "geometry": {"coordinates": [-91.010229006, 30.857641013], "type": "Point"}, "id": "7XzD8RqQXX9rC5yFU0Amj6MZ9zg=", "properties": {"@spider": "usps_collection_boxes", "addr:city": "CLINTON", "addr:country": "US", "addr:full": "10497 PLANK RD", "addr:postcode": "70722", "addr:state": "LA", "amenity": "post_box", "brand": "United States Postal Service", "brand:wikidata": "Q668687", "collection_times": "Mo-Fr 15:45; Sa 11:15", "name": "USPS COLLECTION BOX - PO LOBBY", "note": "ON 12/24 AND 12/31, THIS BOX MAY BE COLLECTED AS EARLY AS 12 NOON.", "nsi_id": "unitedstatespostalservice-a77078", "operator": "United States Postal Service", "operator:short": "USPS", "operator:type": "public", "operator:wikidata": "Q668687", "ref": "7072200001"}, "type": "Feature"}
{"dataset_attributes": {"@spider": "usps_collection_boxes", "spider:collection_time": "2023-09-16T08:22:24.198600"}, "geometry": {"coordinates": [-91.010229006, 30.857641013], "type": "Point"}, "id": "1gn1Ry_5ISPwl_6Inh-Ww-uA1ak=", "properties": {"@spider": "usps_collection_boxes", "addr:city": "CLINTON", "addr:country": "US", "addr:full": "10497 PLANK RD", "addr:postcode": "70722", "addr:state": "LA", "amenity": "post_box", "brand": "United States Postal Service", "brand:wikidata": "Q668687", "collection_times": "Mo-Fr 15:45; Sa 11:15", "name": "USPS COLLECTION BOX - BLUE BOX", "note": "ON 12/24 AND 12/31, THIS BOX MAY BE COLLECTED AS EARLY AS 12 NOON.", "nsi_id": "unitedstatespostalservice-a77078", "operator": "United States Postal Service", "operator:short": "USPS", "operator:type": "public", "operator:wikidata": "Q668687", "ref": "7072200002"}, "type": "Feature"}
{"dataset_attributes": {"@spider": "usps_collection_boxes", "spider:collection_time": "2023-09-16T08:22:24.198600"}, "geometry": {"coordinates": [-91.010229006, 30.857641013], "type": "Point"}, "id": "agAwjIo4wroVaEnI9NK7z7zU75U=", "properties": {"@spider": "usps_collection_boxes", "addr:city": "CLINTON", "addr:country": "US", "addr:full": "10497 PLANK RD", "addr:postcode": "70722", "addr:state": "LA", "amenity": "post_box", "brand": "United States Postal Service", "brand:wikidata": "Q668687", "collection_times": "Mo-Fr 15:45; Sa 11:15", "name": "USPS COLLECTION BOX - BLUE BOX", "note": "ON 12/24 AND 12/31, THIS BOX MAY BE COLLECTED AS EARLY AS 12 NOON.", "nsi_id": "unitedstatespostalservice-a77078", "operator": "United States Postal Service", "operator:short": "USPS", "operator:type": "public", "operator:wikidata": "Q668687", "ref": "7072200003"}, "type": "Feature"}
{"dataset_attributes": {"@spider": "usps_collection_boxes", "spider:collection_time": "2023-09-16T08:22:24.198600"}, "geometry": {"coordinates": [-91.010229006, 30.857641013], "type": "Point"}, "id": "yHIvTZkJ-tk-5sUe3FRVxi29cH0=", "properties": {"@spider": "usps_collection_boxes", "addr:city": "CLINTON", "addr:country": "US", "addr:full": "10497 PLANK RD", "addr:postcode": "70722", "addr:state": "LA", "amenity": "post_box", "brand": "United States Postal Service", "brand:wikidata": "Q668687", "collection_times": "Mo-Fr 16:00; Sa 11:30", "name": "USPS COLLECTION BOX - PO LOBBY", "note": "ON 12/24 AND 12/31, THIS BOX MAY BE COLLECTED AS EARLY AS 12 NOON.", "nsi_id": "unitedstatespostalservice-a77078", "operator": "United States Postal Service", "operator:short": "USPS", "operator:type": "public", "operator:wikidata": "Q668687", "ref": "7072200007"}, "type": "Feature"}
{"dataset_attributes": {"@spider": "usps_collection_boxes", "spider:collection_time": "2023-09-16T08:22:24.198600"}, "geometry": {"coordinates": [-90.8278500246, 30.0129779801], "type": "Point"}, "id": "6NAN73t0vhqMF_UVPq9xMc35rNk=", "properties": {"@spider": "usps_collection_boxes", "addr:city": "CONVENT", "addr:country": "US", "addr:full": "6574 LA 44", "addr:postcode": "70723", "addr:state": "LA", "amenity": "post_box", "brand": "United States Postal Service", "brand:wikidata": "Q668687", "collection_times": "Mo-Fr 16:00; Sa 10:00", "name": "USPS COLLECTION BOX - PO LOBBY", "note": "ON 12/24 AND 12/31, THIS BOX MAY BE COLLECTED AS EARLY AS 12 NOON.", "nsi_id": "unitedstatespostalservice-a77078", "operator": "United States Postal Service", "operator:short": "USPS", "operator:type": "public", "operator:wikidata": "Q668687", "ref": "7072300001"}, "type": "Feature"}
{"dataset_attributes": {"@spider": "usps_collection_boxes", "spider:collection_time": "2023-09-16T08:22:24.198600"}, "geometry": {"coordinates": [-90.8278500246, 30.0129779801], "type": "Point"}, "id": "EDg4KAlkAfli6dqJftlpn-G6AMY=", "properties": {"@spider": "usps_collection_boxes", "addr:city": "CONVENT", "addr:country": "US", "addr:full": "6574 LA 44", "addr:postcode": "70723", "addr:state": "LA", "amenity": "post_box", "brand": "United States Postal Service", "brand:wikidata": "Q668687", "collection_times": "Mo-Fr 16:00; Sa 10:00", "name": "USPS COLLECTION BOX - BLUE BOX", "note": "ON 12/24 AND 12/31, THIS BOX MAY BE COLLECTED AS EARLY AS 12 NOON.", "nsi_id": "unitedstatespostalservice-a77078", "operator": "United States Postal Service", "operator:short": "USPS", "operator:type": "public", "operator:wikidata": "Q668687", "ref": "7072300002"}, "type": "Feature"}
{"dataset_attributes": {"@spider": "usps_collection_boxes", "spider:collection_time": "2023-09-16T08:22:24.198600"}, "geometry": {"coordinates": [-90.8278500246, 30.0129779801], "type": "Point"}, "id": "DYANzfZwXwIvIStysj_fjnqvqLY=", "properties": {"@spider": "usps_collection_boxes", "addr:city": "CONVENT", "addr:country": "US", "addr:full": "6574 LA 44", "addr:postcode": "70723", "addr:state": "LA", "amenity": "post_box", "brand": "United States Postal Service", "brand:wikidata": "Q668687", "collection_times": "Mo-Fr 16:00; Sa 10:00", "name": "USPS COLLECTION BOX - PO LOBBY", "note": "ON 12/24 AND 12/31, THIS BOX MAY BE COLLECTED AS EARLY AS 12 NOON.", "nsi_id": "unitedstatespostalservice-a77078", "operator": "United States Postal Service", "operator:short": "USPS", "operator:type": "public", "operator:wikidata": "Q668687", "ref": "7072300003"}, "type": "Feature"}
{"dataset_attributes": {"@spider": "usps_collection_boxes", "spider:collection_time": "2023-09-16T08:22:24.198600"}, "geometry": {"coordinates": [-90.984906019, 30.119002014], "type": "Point"}, "id": "rwgo4QI7UnbrdTeuKVAfeylQ6b8=", "properties": {"@spider": "usps_collection_boxes", "addr:city": "DARROW", "addr:country": "US", "addr:full": "37142 HIGHWAY 22", "addr:postcode": "70725", "addr:state": "LA", "amenity": "post_box", "brand": "United States Postal Service", "brand:wikidata": "Q668687", "collection_times": "Mo-Fr 13:00; Sa 11:00", "name": "USPS COLLECTION BOX - PO LOBBY", "note": "ON 12/24 AND 12/31, THIS BOX MAY BE COLLECTED AS EARLY AS 12 NOON.", "nsi_id": "unitedstatespostalservice-a77078", "operator": "United States Postal Service", "operator:short": "USPS", "operator:type": "public", "operator:wikidata": "Q668687", "ref": "7072500001"}, "type": "Feature"}
{"dataset_attributes": {"@spider": "usps_collection_boxes", "spider:collection_time": "2023-09-16T08:22:24.198600"}, "geometry": {"coordinates": [-90.984906019, 30.119002014], "type": "Point"}, "id": "Dn9SZ5VE3XjZk6asdv5phTDoK7I=", "properties": {"@spider": "usps_collection_boxes", "addr:city": "DARROW", "addr:country": "US", "addr:full": "37142 HIGHWAY 22", "addr:postcode": "70725", "addr:state": "LA", "amenity": "post_box", "brand": "United States Postal Service", "brand:wikidata": "Q668687", "collection_times": "Mo-Fr 13:00; Sa 11:00", "name": "USPS COLLECTION BOX - PO LOBBY", "note": "ON 12/24 AND 12/31, THIS BOX MAY BE COLLECTED AS EARLY AS 12 NOON.", "nsi_id": "unitedstatespostalservice-a77078", "operator": "United States Postal Service", "operator:short": "USPS", "operator:type": "public", "operator:wikidata": "Q668687", "ref": "7072500003"}, "type": "Feature"}
{"dataset_attributes": {"@spider": "usps_collection_boxes", "spider:collection_time": "2023-09-16T08:22:24.198600"}, "geometry": {"coordinates": [-90.955263411, 30.469862734], "type": "Point"}, "id": "uMf_zMB4_m3xdotDQ-PwYc8QBHU=", "properties": {"@spider": "usps_collection_boxes", "addr:city": "DENHAM SPRINGS", "addr:country": "US", "addr:full": "140 DEL ORLEANS", "addr:postcode": "70726", "addr:state": "LA", "amenity": "post_box", "brand": "United States Postal Service", "brand:wikidata": "Q668687", "collection_times": "Mo-Fr 17:00; Sa 12:00", "name": "USPS COLLECTION BOX - PO LOBBY", "note": "ON 12/24 AND 12/31, THIS BOX MAY BE COLLECTED AS EARLY AS 12 NOON.", "nsi_id": "unitedstatespostalservice-a77078", "operator": "United States Postal Service", "operator:short": "USPS", "operator:type": "public", "operator:wikidata": "Q668687", "ref": "7072600002"}, "type": "Feature"}
{"dataset_attributes": {"@spider": "usps_collection_boxes", "spider:collection_time": "2023-09-16T08:22:24.198600"}, "geometry": {"coordinates": [-90.955263411, 30.469862734], "type": "Point"}, "id": "2T8G4puA4J3Nu60TeRfuhLxzGxc=", "properties": {"@spider": "usps_collection_boxes", "addr:city": "DENHAM SPRINGS", "addr:country": "US", "addr:full": "140 DEL ORLEANS", "addr:postcode": "70726", "addr:state": "LA", "amenity": "post_box", "brand": "United States Postal Service", "brand:wikidata": "Q668687", "collection_times": "Mo-Fr 17:00; Sa 12:00", "name": "USPS COLLECTION BOX - PO LOBBY", "note": "ON 12/24 AND 12/31, THIS BOX MAY BE COLLECTED AS EARLY AS 12 NOON.", "nsi_id": "unitedstatespostalservice-a77078", "operator": "United States Postal Service", "operator:short": "USPS", "operator:type": "public", "operator:wikidata": "Q668687", "ref": "7072600003"}, "type": "Feature"}
{"dataset_attributes": {"@spider": "usps_collection_boxes", "spider:collection_time": "2023-09-16T08:22:24.198600"}, "geometry": {"coordinates": [-90.955263411, 30.469862734], "type": "Point"}, "id": "sASArcyB20vTNUpRgkkqbQaxL00=", "properties": {"@spider": "usps_collection_boxes", "addr:city": "DENHAM SPRINGS", "addr:country": "US", "addr:full": "140 DEL ORLEANS", "addr:postcode": "70726", "addr:state": "LA", "amenity": "post_box", "brand": "United States Postal Service", "brand:wikidata": "Q668687", "collection_times": "Mo-Fr 17:00; Sa 12:00", "name": "USPS COLLECTION BOX - BLUE BOX", "note": "ON 12/24 AND 12/31, THIS BOX MAY BE COLLECTED AS EARLY AS 12 NOON.", "nsi_id": "unitedstatespostalservice-a77078", "operator": "United States Postal Service", "operator:short": "USPS", "operator:type": "public", "operator:wikidata": "Q668687", "ref": "7072600004"}, "type": "Feature"}
{"dataset_attributes": {"@spider": "usps_collection_boxes", "spider:collection_time": "2023-09-16T08:22:24.198600"}, "geometry": {"coordinates": [-90.9552634107, 30.4698627344], "type": "Point"}, "id": "XcHj7jRHgJEz3V94hMN45Qlc5yc=", "properties": {"@spider": "usps_collection_boxes", "addr:city": "DENHAM SPRINGS", "addr:country": "US", "addr:full": "140 DEL ORLEANS", "addr:postcode": "70726", "addr:state": "LA", "amenity": "post_box", "brand": "United States Postal Service", "brand:wikidata": "Q668687", "collection_times": "Mo-Fr 17:00; Sa 12:00", "name": "USPS COLLECTION BOX - BLUE BOX", "note": "ON 12/24 AND 12/31, THIS BOX MAY BE COLLECTED AS EARLY AS 12 NOON.", "nsi_id": "unitedstatespostalservice-a77078", "operator": "United States Postal Service", "operator:short": "USPS", "operator:type": "public", "operator:wikidata": "Q668687", "ref": "7072600007"}, "type": "Feature"}
{"dataset_attributes": {"@spider": "usps_collection_boxes", "spider:collection_time": "2023-09-16T08:22:24.198600"}, "geometry": {"coordinates": [-90.955263411, 30.469862734], "type": "Point"}, "id": "ew5kWEOp_66v-G6jK9bpvJ6UHeY=", "properties": {"@spider": "usps_collection_boxes", "addr:city": "DENHAM SPRINGS", "addr:country": "US", "addr:full": "140 DEL ORLEANS", "addr:postcode": "70726", "addr:state": "LA", "amenity": "post_box", "brand": "United States Postal Service", "brand:wikidata": "Q668687", "collection_times": "Mo-Fr 16:30; Sa 12:00", "name": "USPS COLLECTION BOX - PO LOBBY", "note": "ON 12/24 AND 12/31, THIS BOX MAY BE COLLECTED AS EARLY AS 12 NOON.", "nsi_id": "unitedstatespostalservice-a77078", "operator": "United States Postal Service", "operator:short": "USPS", "operator:type": "public", "operator:wikidata": "Q668687", "ref": "7072600021"}, "type": "Feature"}
{"dataset_attributes": {"@spider": "usps_collection_boxes", "spider:collection_time": "2023-09-16T08:22:24.198600"}, "geometry": {"coordinates": [-91.407167889, 30.534998055], "type": "Point"}, "id": "bhKEn6EsQ0mMZ5QJkeqtn4QaU64=", "properties": {"@spider": "usps_collection_boxes", "addr:city": "ERWINVILLE", "addr:country": "US", "addr:full": "4710 POYDRAS BAYOU DR", "addr:postcode": "70729", "addr:state": "LA", "amenity": "post_box", "brand": "United States Postal Service", "brand:wikidata": "Q668687", "collection_times": "Mo-Fr 15:50; Sa 10:50", "name": "USPS COLLECTION BOX - PO LOBBY", "note": "ON 12/24 AND 12/31, THIS BOX MAY BE COLLECTED AS EARLY AS 12 NOON.", "nsi_id": "unitedstatespostalservice-a77078", "operator": "United States Postal Service", "operator:short": "USPS", "operator:type": "public", "operator:wikidata": "Q668687", "ref": "7072900001"}, "type": "Feature"}
{"dataset_attributes": {"@spider": "usps_collection_boxes", "spider:collection_time": "2023-09-16T08:22:24.198600"}, "geometry": {"coordinates": [-91.407167889, 30.534998055], "type": "Point"}, "id": "Px2DYyYa0lcQrR2v7xH_uIGuwaA=", "properties": {"@spider": "usps_collection_boxes", "addr:city": "ERWINVILLE", "addr:country": "US", "addr:full": "4710 POYDRAS BAYOU DR", "addr:postcode": "70729", "addr:state": "LA", "amenity": "post_box", "brand": "United States Postal Service", "brand:wikidata": "Q668687", "collection_times": "Mo-Fr 16:00; Sa 11:00", "name": "USPS COLLECTION BOX - BLUE BOX", "note": "ON 12/24 AND 12/31, THIS BOX MAY BE COLLECTED AS EARLY AS 12 NOON.", "nsi_id": "unitedstatespostalservice-a77078", "operator": "United States Postal Service", "operator:short": "USPS", "operator:type": "public", "operator:wikidata": "Q668687", "ref": "7072900002"}, "type": "Feature"}
{"dataset_attributes": {"@spider": "usps_collection_boxes", "spider:collection_time": "2023-09-16T08:22:24.198600"}, "geometry": {"coordinates": [-91.407167889, 30.534998055], "type": "Point"}, "id": "I8q19foXF0XR4LZ773UnEqXPDvo=", "properties": {"@spider": "usps_collection_boxes", "addr:city": "ERWINVILLE", "addr:country": "US", "addr:full": "4710 POYDRAS BAYOU DR", "addr:postcode": "70729", "addr:state": "LA", "amenity": "post_box", "brand": "United States Postal Service", "brand:wikidata": "Q668687", "collection_times": "Mo-Fr 16:00; Sa 11:00", "name": "USPS COLLECTION BOX - PO LOBBY", "note": "ON 12/24 AND 12/31, THIS BOX MAY BE COLLECTED AS EARLY AS 12 NOON.", "nsi_id": "unitedstatespostalservice-a77078", "operator": "United States Postal Service", "operator:short": "USPS", "operator:type": "public", "operator:wikidata": "Q668687", "ref": "7072900003"}, "type": "Feature"}
{"dataset_attributes": {"@spider": "usps_collection_boxes", "spider:collection_time": "2023-09-16T08:22:24.198600"}, "geometry": {"coordinates": [-91.130789021, 30.782787013], "type": "Point"}, "id": "6q6wrFGJa9-g7mK8K_6aeyizwuA=", "properties": {"@spider": "usps_collection_boxes", "addr:city": "ETHEL", "addr:country": "US", "addr:full": "3457 HIGHWAY 19", "addr:postcode": "70730", "addr:state": "LA", "amenity": "post_box", "brand": "United States Postal Service", "brand:wikidata": "Q668687", "collection_times": "Mo-Fr 16:00; Sa 10:30", "name": "USPS COLLECTION BOX - PO LOBBY", "note": "ON 12/24 AND 12/31, THIS BOX MAY BE COLLECTED AS EARLY AS 12 NOON.", "nsi_id": "unitedstatespostalservice-a77078", "operator": "United States Postal Service", "operator:short": "USPS", "operator:type": "public", "operator:wikidata": "Q668687", "ref": "7073000001"}, "type": "Feature"}
{"dataset_attributes": {"@spider": "usps_collection_boxes", "spider:collection_time": "2023-09-16T08:22:24.198600"}, "geometry": {"coordinates": [-91.130789021, 30.782787013], "type": "Point"}, "id": "HRwU-qOu2Huevfka5xY4tYcr9b4=", "properties": {"@spider": "usps_collection_boxes", "addr:city": "ETHEL", "addr:country": "US", "addr:full": "3457 HIGHWAY 19", "addr:postcode": "70730", "addr:state": "LA", "amenity": "post_box", "brand": "United States Postal Service", "brand:wikidata": "Q668687", "collection_times": "Mo-Fr 16:00; Sa 10:30", "name": "USPS COLLECTION BOX - BLUE BOX", "note": "ON 12/24 AND 12/31, THIS BOX MAY BE COLLECTED AS EARLY AS 12 NOON.", "nsi_id": "unitedstatespostalservice-a77078", "operator": "United States Postal Service", "operator:short": "USPS", "operator:type": "public", "operator:wikidata": "Q668687", "ref": "7073000002"}, "type": "Feature"}
{"dataset_attributes": {"@spider": "usps_collection_boxes", "spider:collection_time": "2023-09-16T08:22:24.198600"}, "geometry": {"coordinates": [-91.130789021, 30.782787013], "type": "Point"}, "id": "g_hpIjm-gdtmCNBMqTHpcJLpsV8=", "properties": {"@spider": "usps_collection_boxes", "addr:city": "ETHEL", "addr:country": "US", "addr:full": "3457 HIGHWAY 19", "addr:postcode": "70730", "addr:state": "LA", "amenity": "post_box", "brand": "United States Postal Service", "brand:wikidata": "Q668687", "collection_times": "Mo-Fr 16:00; Sa 10:30", "name": "USPS COLLECTION BOX - PO LOBBY", "note": "ON 12/24 AND 12/31, THIS BOX MAY BE COLLECTED AS EARLY AS 12 NOON.", "nsi_id": "unitedstatespostalservice-a77078", "operator": "United States Postal Service", "operator:short": "USPS", "operator:type": "public", "operator:wikidata": "Q668687", "ref": "7073000003"}, "type": "Feature"}
{"dataset_attributes": {"@spider": "usps_collection_boxes", "spider:collection_time": "2023-09-16T08:22:24.198600"}, "geometry": {"coordinates": [-91.602758985, 30.589104994], "type": "Point"}, "id": "tEXYZxjJsnsydbk5My6TZriBHZw=", "properties": {"@spider": "usps_collection_boxes", "addr:city": "FORDOCHE", "addr:country": "US", "addr:full": "5246 FORDOCHE RD", "addr:postcode": "70732", "addr:state": "LA", "amenity": "post_box", "brand": "United States Postal Service", "brand:wikidata": "Q668687", "collection_times": "Mo-Fr 16:00; Sa 11:00", "name": "USPS COLLECTION BOX - PO LOBBY", "note": "ON 12/24 AND 12/31, THIS BOX MAY BE COLLECTED AS EARLY AS 12 NOON.", "nsi_id": "unitedstatespostalservice-a77078", "operator": "United States Postal Service", "operator:short": "USPS", "operator:type": "public", "operator:wikidata": "Q668687", "ref": "7073200001"}, "type": "Feature"}
{"dataset_attributes": {"@spider": "usps_collection_boxes", "spider:collection_time": "2023-09-16T08:22:24.198600"}, "geometry": {"coordinates": [-91.602758985, 30.589104994], "type": "Point"}, "id": "BUWH2YqjjLcPCAIg3GGAa3GBKoY=", "properties": {"@spider": "usps_collection_boxes", "addr:city": "FORDOCHE", "addr:country": "US", "addr:full": "5246 FORDOCHE RD", "addr:postcode": "70732", "addr:state": "LA", "amenity": "post_box", "brand": "United States Postal Service", "brand:wikidata": "Q668687", "collection_times": "Mo-Fr 15:30; Sa 10:30", "name": "USPS COLLECTION BOX - BLUE BOX", "note": "ON 12/24 AND 12/31, THIS BOX MAY BE COLLECTED AS EARLY AS 12 NOON.", "nsi_id": "unitedstatespostalservice-a77078", "operator": "United States Postal Service", "operator:short": "USPS", "operator:type": "public", "operator:wikidata": "Q668687", "ref": "7073200002"}, "type": "Feature"}
{"dataset_attributes": {"@spider": "usps_collection_boxes", "spider:collection_time": "2023-09-16T08:22:24.198600"}, "geometry": {"coordinates": [-91.602758985, 30.589104994], "type": "Point"}, "id": "0kJER6Iw_2UW21j3MtKzUIsBw-o=", "properties": {"@spider": "usps_collection_boxes", "addr:city": "FORDOCHE", "addr:country": "US", "addr:full": "5246 FORDOCHE RD", "addr:postcode": "70732", "addr:state": "LA", "amenity": "post_box", "brand": "United States Postal Service", "brand:wikidata": "Q668687", "collection_times": "Mo-Fr 16:00; Sa 11:00", "name": "USPS COLLECTION BOX - PO LOBBY", "note": "ON 12/24 AND 12/31, THIS BOX MAY BE COLLECTED AS EARLY AS 12 NOON.", "nsi_id": "unitedstatespostalservice-a77078", "operator": "United States Postal Service", "operator:short": "USPS", "operator:type": "public", "operator:wikidata": "Q668687", "ref": "7073200003"}, "type": "Feature"}
{"dataset_attributes": {"@spider": "usps_collection_boxes", "spider:collection_time": "2023-09-16T08:22:24.198600"}, "geometry": {"coordinates": [-90.8002869742, 30.3023299949], "type": "Point"}, "id": "PZy-BCGxv4A8wDgpHqmrMoUNj80=", "properties": {"@spider": "usps_collection_boxes", "addr:city": "FRENCH SETTLEMEN", "addr:country": "US", "addr:full": "16169 LA HIGHWAY 16", "addr:postcode": "70733", "addr:state": "LA", "amenity": "post_box", "brand": "United States Postal Service", "brand:wikidata": "Q668687", "collection_times": "Mo-Fr 16:00; Sa 11:30", "name": "USPS COLLECTION BOX - PO LOBBY", "note": "ON 12/24 AND 12/31, THIS BOX MAY BE COLLECTED AS EARLY AS 12 NOON.", "nsi_id": "unitedstatespostalservice-a77078", "operator": "United States Postal Service", "operator:short": "USPS", "operator:type": "public", "operator:wikidata": "Q668687", "ref": "7073300001"}, "type": "Feature"}
{"dataset_attributes": {"@spider": "usps_collection_boxes", "spider:collection_time": "2023-09-16T08:22:24.198600"}, "geometry": {"coordinates": [-90.8002869742, 30.3023299949], "type": "Point"}, "id": "8RQ6rCCGAuS7-xL7RyMwbENr3Ow=", "properties": {"@spider": "usps_collection_boxes", "addr:city": "FRENCH SETTLEMEN", "addr:country": "US", "addr:full": "16169 LA HIGHWAY 16", "addr:postcode": "70733", "addr:state": "LA", "amenity": "post_box", "brand": "United States Postal Service", "brand:wikidata": "Q668687", "collection_times": "Mo-Fr 16:00; Sa 11:30", "name": "USPS COLLECTION BOX - BLUE BOX", "note": "ON 12/24 AND 12/31, THIS BOX MAY BE COLLECTED AS EARLY AS 12 NOON.", "nsi_id": "unitedstatespostalservice-a77078", "operator": "United States Postal Service", "operator:short": "USPS", "operator:type": "public", "operator:wikidata": "Q668687", "ref": "7073300002"}, "type": "Feature"}
{"dataset_attributes": {"@spider": "usps_collection_boxes", "spider:collection_time": "2023-09-16T08:22:24.198600"}, "geometry": {"coordinates": [-90.8002869742, 30.3023299949], "type": "Point"}, "id": "_eZF3ZwElfNDIfKf54IOujlb1cM=", "properties": {"@spider": "usps_collection_boxes", "addr:city": "FRENCH SETTLEMEN", "addr:country": "US", "addr:full": "16169 LA HIGHWAY 16", "addr:postcode": "70733", "addr:state": "LA", "amenity": "post_box", "brand": "United States Postal Service", "brand:wikidata": "Q668687", "collection_times": "Mo-Fr 16:00; Sa 11:30", "name": "USPS COLLECTION BOX - PO LOBBY", "note": "ON 12/24 AND 12/31, THIS BOX MAY BE COLLECTED AS EARLY AS 12 NOON.", "nsi_id": "unitedstatespostalservice-a77078", "operator": "United States Postal Service", "operator:short": "USPS", "operator:type": "public", "operator:wikidata": "Q668687", "ref": "7073300003"}, "type": "Feature"}
{"dataset_attributes": {"@spider": "usps_collection_boxes", "spider:collection_time": "2023-09-16T08:22:24.198600"}, "geometry": {"coordinates": [-91.002280028, 30.224352018], "type": "Point"}, "id": "bbmg9jvbaTVMUbUGJQ619-SvSxI=", "properties": {"@spider": "usps_collection_boxes", "addr:city": "GEISMAR", "addr:country": "US", "addr:full": "6223 HIGHWAY 73", "addr:postcode": "70734", "addr:state": "LA", "amenity": "post_box", "brand": "United States Postal Service", "brand:wikidata": "Q668687", "collection_times": "Mo-Fr 15:30; Sa 10:00", "name": "USPS COLLECTION BOX - PO LOBBY", "note": "ON 12/24 AND 12/31, THIS BOX MAY BE COLLECTED AS EARLY AS 12 NOON.", "nsi_id": "unitedstatespostalservice-a77078", "operator": "United States Postal Service", "operator:short": "USPS", "operator:type": "public", "operator:wikidata": "Q668687", "ref": "7073400001"}, "type": "Feature"}
{"dataset_attributes": {"@spider": "usps_collection_boxes", "spider:collection_time": "2023-09-16T08:22:24.198600"}, "geometry": {"coordinates": [-91.002280028, 30.224352018], "type": "Point"}, "id": "uaFlV5xsUWJDXRxj_cSNRUv1xo0=", "properties": {"@spider": "usps_collection_boxes", "addr:city": "GEISMAR", "addr:country": "US", "addr:full": "6223 HIGHWAY 73", "addr:postcode": "70734", "addr:state": "LA", "amenity": "post_box", "brand": "United States Postal Service", "brand:wikidata": "Q668687", "collection_times": "Mo-Fr 15:30; Sa 10:00", "name": "USPS COLLECTION BOX - BLUE BOX", "note": "ON 12/24 AND 12/31, THIS BOX MAY BE COLLECTED AS EARLY AS 12 NOON.", "nsi_id": "unitedstatespostalservice-a77078", "operator": "United States Postal Service", "operator:short": "USPS", "operator:type": "public", "operator:wikidata": "Q668687", "ref": "7073400003"}, "type": "Feature"}
{"dataset_attributes": {"@spider": "usps_collection_boxes", "spider:collection_time": "2023-09-16T08:22:24.198600"}, "geometry": {"coordinates": [-91.0022800281, 30.2243520181], "type": "Point"}, "id": "e56LId0SKvzgE-Iam0J76-P8-aY=", "properties": {"@spider": "usps_collection_boxes", "addr:city": "GEISMAR", "addr:country": "US", "addr:full": "6223 HIGHWAY 73", "addr:postcode": "70734", "addr:state": "LA", "amenity": "post_box", "brand": "United States Postal Service", "brand:wikidata": "Q668687", "collection_times": "Mo-Fr 15:30; Sa 10:00", "name": "USPS COLLECTION BOX - BLUE BOX", "note": "ON 12/24 AND 12/31, THIS BOX MAY BE COLLECTED AS EARLY AS 12 NOON.", "nsi_id": "unitedstatespostalservice-a77078", "operator": "United States Postal Service", "operator:short": "USPS", "operator:type": "public", "operator:wikidata": "Q668687", "ref": "7073400004"}, "type": "Feature"}
{"dataset_attributes": {"@spider": "usps_collection_boxes", "spider:collection_time": "2023-09-16T08:22:24.198600"}, "geometry": {"coordinates": [-91.002280028, 30.224352018], "type": "Point"}, "id": "3draS_GblpTXjQ3WJXPK4qmp7w4=", "properties": {"@spider": "usps_collection_boxes", "addr:city": "GEISMAR", "addr:country": "US", "addr:full": "6223 HIGHWAY 73", "addr:postcode": "70734", "addr:state": "LA", "amenity": "post_box", "brand": "United States Postal Service", "brand:wikidata": "Q668687", "collection_times": "Mo-Fr 15:30; Sa 10:00", "name": "USPS COLLECTION BOX - PO LOBBY", "note": "ON 12/24 AND 12/31, THIS BOX MAY BE COLLECTED AS EARLY AS 12 NOON.", "nsi_id": "unitedstatespostalservice-a77078", "operator": "United States Postal Service", "operator:short": "USPS", "operator:type": "public", "operator:wikidata": "Q668687", "ref": "7073400005"}, "type": "Feature"}
{"dataset_attributes": {"@spider": "usps_collection_boxes", "spider:collection_time": "2023-09-16T08:22:24.198600"}, "geometry": {"coordinates": [-91.002280028, 30.224352018], "type": "Point"}, "id": "mMWbZr3l6A9GKJc3_ubNelHuttU=", "properties": {"@spider": "usps_collection_boxes", "addr:city": "GEISMAR", "addr:country": "US", "addr:full": "6223 HIGHWAY 73", "addr:postcode": "70734", "addr:state": "LA", "amenity": "post_box", "brand": "United States Postal Service", "brand:wikidata": "Q668687", "collection_times": "Mo-Fr 16:00; Sa 10:00", "name": "USPS COLLECTION BOX - PO LOBBY", "note": "ON 12/24 AND 12/31, THIS BOX MAY BE COLLECTED AS EARLY AS 12 NOON.", "nsi_id": "unitedstatespostalservice-a77078", "operator": "United States Postal Service", "operator:short": "USPS", "operator:type": "public", "operator:wikidata": "Q668687", "ref": "7073400006"}, "type": "Feature"}
{"dataset_attributes": {"@spider": "usps_collection_boxes", "spider:collection_time": "2023-09-16T08:22:24.198600"}, "geometry": {"coordinates": [-91.355091013, 30.626804992], "type": "Point"}, "id": "8RG314Bat2KQ-lyPRNtEZf5PTlE=", "properties": {"@spider": "usps_collection_boxes", "addr:city": "GLYNN", "addr:country": "US", "addr:full": "14140 LA HIGHWAY 416", "addr:postcode": "70736", "addr:state": "LA", "amenity": "post_box", "brand": "United States Postal Service", "brand:wikidata": "Q668687", "collection_times": "Mo-Fr 15:15; Sa 09:15", "name": "USPS COLLECTION BOX - BLUE BOX", "note": "ON 12/24 AND 12/31, THIS BOX MAY BE COLLECTED AS EARLY AS 12 NOON.", "nsi_id": "unitedstatespostalservice-a77078", "operator": "United States Postal Service", "operator:short": "USPS", "operator:type": "public", "operator:wikidata": "Q668687", "ref": "7073600001"}, "type": "Feature"}
{"dataset_attributes": {"@spider": "usps_collection_boxes", "spider:collection_time": "2023-09-16T08:22:24.198600"}, "geometry": {"coordinates": [-91.355091013, 30.626804992], "type": "Point"}, "id": "UAse_LUEQXHcKFQPIfJfe-3CnVc=", "properties": {"@spider": "usps_collection_boxes", "addr:city": "GLYNN", "addr:country": "US", "addr:full": "14140 LA HIGHWAY 416", "addr:postcode": "70736", "addr:state": "LA", "amenity": "post_box", "brand": "United States Postal Service", "brand:wikidata": "Q668687", "collection_times": "Mo-Fr 15:15; Sa 09:15", "name": "USPS COLLECTION BOX - PO LOBBY", "note": "ON 12/24 AND 12/31, THIS BOX MAY BE COLLECTED AS EARLY AS 12 NOON.", "nsi_id": "unitedstatespostalservice-a77078", "operator": "United States Postal Service", "operator:short": "USPS", "operator:type": "public", "operator:wikidata": "Q668687", "ref": "7073600002"}, "type": "Feature"}
{"dataset_attributes": {"@spider": "usps_collection_boxes", "spider:collection_time": "2023-09-16T08:22:24.198600"}, "geometry": {"coordinates": [-91.355091013, 30.626804992], "type": "Point"}, "id": "MQ0z0KRUWK9hf3dzBc6W-jOWO8U=", "properties": {"@spider": "usps_collection_boxes", "addr:city": "GLYNN", "addr:country": "US", "addr:full": "14140 LA HIGHWAY 416", "addr:postcode": "70736", "addr:state": "LA", "amenity": "post_box", "brand": "United States Postal Service", "brand:wikidata": "Q668687", "collection_times": "Mo-Fr 15:30; Sa 11:00", "name": "USPS COLLECTION BOX - PO LOBBY", "note": "ON 12/24 AND 12/31, THIS BOX MAY BE COLLECTED AS EARLY AS 12 NOON.", "nsi_id": "unitedstatespostalservice-a77078", "operator": "United States Postal Service", "operator:short": "USPS", "operator:type": "public", "operator:wikidata": "Q668687", "ref": "7073600003"}, "type": "Feature"}
{"dataset_attributes": {"@spider": "usps_collection_boxes", "spider:collection_time": "2023-09-16T08:22:24.198600"}, "geometry": {"coordinates": [-90.919921962, 30.219796999], "type": "Point"}, "id": "1fgAsw0ua9GqKJr5_vc5RWv1aiI=", "properties": {"@spider": "usps_collection_boxes", "addr:city": "GONZALES", "addr:country": "US", "addr:full": "1706 S BURNSIDE AVE", "addr:postcode": "70737", "addr:state": "LA", "amenity": "post_box", "brand": "United States Postal Service", "brand:wikidata": "Q668687", "collection_times": "Mo-Fr 16:30; Sa 15:30", "name": "USPS COLLECTION BOX - PO LOBBY", "note": "ON 12/24 AND 12/31, THIS BOX MAY BE COLLECTED AS EARLY AS 12 NOON.", "nsi_id": "unitedstatespostalservice-a77078", "operator": "United States Postal Service", "operator:short": "USPS", "operator:type": "public", "operator:wikidata": "Q668687", "ref": "7073700001"}, "type": "Feature"}
{"dataset_attributes": {"@spider": "usps_collection_boxes", "spider:collection_time": "2023-09-16T08:22:24.198600"}, "geometry": {"coordinates": [-90.9127519982, 30.2265769943], "type": "Point"}, "id": "IJFSwdeOTbpI4kn1l1pgd61RkAk=", "properties": {"@spider": "usps_collection_boxes", "addr:city": "GONZALES", "addr:country": "US", "addr:full": "828 S IRMA BLVD", "addr:postcode": "70737", "addr:state": "LA", "amenity": "post_box", "brand": "United States Postal Service", "brand:wikidata": "Q668687", "collection_times": "Mo-Fr 12:30; Sa 12:00", "name": "USPS COLLECTION BOX - BLUE BOX", "note": "ON 12/24 AND 12/31, THIS BOX MAY BE COLLECTED AS EARLY AS 12 NOON.", "nsi_id": "unitedstatespostalservice-a77078", "operator": "United States Postal Service", "operator:short": "USPS", "operator:type": "public", "operator:wikidata": "Q668687", "ref": "7073700003"}, "type": "Feature"}
{"dataset_attributes": {"@spider": "usps_collection_boxes", "spider:collection_time": "2023-09-16T08:22:24.198600"}, "geometry": {"coordinates": [-90.918012984, 30.245652991], "type": "Point"}, "id": "6A4ClelJ6-gElMx9FhaAWcaFrv4=", "properties": {"@spider": "usps_collection_boxes", "addr:city": "GONZALES", "addr:country": "US", "addr:full": "1448 N AIRLINE HWY", "addr:postcode": "70737", "addr:state": "LA", "amenity": "post_box", "brand": "United States Postal Service", "brand:wikidata": "Q668687", "collection_times": "Mo-Sa 12:00", "name": "USPS COLLECTION BOX - BLUE BOX", "nsi_id": "unitedstatespostalservice-a77078", "operator": "United States Postal Service", "operator:short": "USPS", "operator:type": "public", "operator:wikidata": "Q668687", "ref": "7073700005"}, "type": "Feature"}
{"dataset_attributes": {"@spider": "usps_collection_boxes", "spider:collection_time": "2023-09-16T08:22:24.198600"}, "geometry": {"coordinates": [-90.919921962, 30.2197969985], "type": "Point"}, "id": "ijnvJRtfGNv3IOoxlgHrQqCaMYg=", "properties": {"@spider": "usps_collection_boxes", "addr:city": "GONZALES", "addr:country": "US", "addr:full": "1706 S BURNSIDE AVE", "addr:postcode": "70737", "addr:state": "LA", "amenity": "post_box", "brand": "United States Postal Service", "brand:wikidata": "Q668687", "collection_times": "Mo-Fr 17:00; Sa 15:30", "name": "USPS COLLECTION BOX - BLUE BOX", "note": "ON 12/24 AND 12/31, THIS BOX MAY BE COLLECTED AS EARLY AS 12 NOON.", "nsi_id": "unitedstatespostalservice-a77078", "operator": "United States Postal Service", "operator:short": "USPS", "operator:type": "public", "operator:wikidata": "Q668687", "ref": "7073700008"}, "type": "Feature"}
{"dataset_attributes": {"@spider": "usps_collection_boxes", "spider:collection_time": "2023-09-16T08:22:24.198600"}, "geometry": {"coordinates": [-90.919921962, 30.219796999], "type": "Point"}, "id": "Oj_ATqrvDneuOz-eWdYhs3XCW_Q=", "properties": {"@spider": "usps_collection_boxes", "addr:city": "GONZALES", "addr:country": "US", "addr:full": "1706 S BURNSIDE AVE", "addr:postcode": "70737", "addr:state": "LA", "amenity": "post_box", "brand": "United States Postal Service", "brand:wikidata": "Q668687", "collection_times": "Mo-Fr 16:30; Sa 15:30", "name": "USPS COLLECTION BOX - PO LOBBY", "note": "ON 12/24 AND 12/31, THIS BOX MAY BE COLLECTED AS EARLY AS 12 NOON.", "nsi_id": "unitedstatespostalservice-a77078", "operator": "United States Postal Service", "operator:short": "USPS", "operator:type": "public", "operator:wikidata": "Q668687", "ref": "7073700013"}, "type": "Feature"}
{"dataset_attributes": {"@spider": "usps_collection_boxes", "spider:collection_time": "2023-09-16T08:22:24.198600"}, "geometry": {"coordinates": [-90.919921962, 30.219796999], "type": "Point"}, "id": "wD9FgPG-nk9INL7lyjSivygTdgw=", "properties": {"@spider": "usps_collection_boxes", "addr:city": "GONZALES", "addr:country": "US", "addr:full": "1706 S BURNSIDE AVE", "addr:postcode": "70737", "addr:state": "LA", "amenity": "post_box", "brand": "United States Postal Service", "brand:wikidata": "Q668687", "collection_times": "Mo-Fr 16:30; Sa 15:30", "name": "USPS COLLECTION BOX - PO LOBBY", "note": "ON 12/24 AND 12/31, THIS BOX MAY BE COLLECTED AS EARLY AS 12 NOON.", "nsi_id": "unitedstatespostalservice-a77078", "operator": "United States Postal Service", "operator:short": "USPS", "operator:type": "public", "operator:wikidata": "Q668687", "ref": "7073700014"}, "type": "Feature"}
{"dataset_attributes": {"@spider": "usps_collection_boxes", "spider:collection_time": "2023-09-16T08:22:24.198600"}, "geometry": {"coordinates": [-90.919921962, 30.219796999], "type": "Point"}, "id": "dLgxHOzRCb568gWEyX0FvdCa2Sc=", "properties": {"@spider": "usps_collection_boxes", "addr:city": "GONZALES", "addr:country": "US", "addr:full": "1706 S BURNSIDE AVE", "addr:postcode": "70737", "addr:state": "LA", "amenity": "post_box", "brand": "United States Postal Service", "brand:wikidata": "Q668687", "collection_times": "Mo-Fr 16:30; Sa 11:30", "name": "USPS COLLECTION BOX - PO LOBBY", "note": "ON 12/24 AND 12/31, THIS BOX MAY BE COLLECTED AS EARLY AS 12 NOON.", "nsi_id": "unitedstatespostalservice-a77078", "operator": "United States Postal Service", "operator:short": "USPS", "operator:type": "public", "operator:wikidata": "Q668687", "ref": "7073700019"}, "type": "Feature"}
{"dataset_attributes": {"@spider": "usps_collection_boxes", "spider:collection_time": "2023-09-16T08:22:24.198600"}, "geometry": {"coordinates": [-90.9933814644, 30.5729750686], "type": "Point"}, "id": "7rrNZPsL3HGt0m74j8_a9VbbXXQ=", "properties": {"@spider": "usps_collection_boxes", "addr:city": "GREENWEL SPGS", "addr:country": "US", "addr:full": "22801 GREENWELL SPRINGS RD", "addr:postcode": "70739", "addr:state": "LA", "amenity": "post_box", "brand": "United States Postal Service", "brand:wikidata": "Q668687", "collection_times": "Mo-Fr 16:15; Sa 11:15", "name": "USPS COLLECTION BOX - BLUE BOX", "note": "ON 12/24 AND 12/31, THIS BOX MAY BE COLLECTED AS EARLY AS 12 NOON.", "nsi_id": "unitedstatespostalservice-a77078", "operator": "United States Postal Service", "operator:short": "USPS", "operator:type": "public", "operator:wikidata": "Q668687", "ref": "7073900001"}, "type": "Feature"}
{"dataset_attributes": {"@spider": "usps_collection_boxes", "spider:collection_time": "2023-09-16T08:22:24.198600"}, "geometry": {"coordinates": [-90.993381464, 30.572975069], "type": "Point"}, "id": "N-UjJWcynbPRCV3EI9zoRyKJzvc=", "properties": {"@spider": "usps_collection_boxes", "addr:city": "GREENWEL SPGS", "addr:country": "US", "addr:full": "22801 GREENWELL SPRINGS RD", "addr:postcode": "70739", "addr:state": "LA", "amenity": "post_box", "brand": "United States Postal Service", "brand:wikidata": "Q668687", "collection_times": "Mo-Fr 16:00; Sa 11:15", "name": "USPS COLLECTION BOX - PO LOBBY", "note": "ON 12/24 AND 12/31, THIS BOX MAY BE COLLECTED AS EARLY AS 12 NOON.", "nsi_id": "unitedstatespostalservice-a77078", "operator": "United States Postal Service", "operator:short": "USPS", "operator:type": "public", "operator:wikidata": "Q668687", "ref": "7073900003"}, "type": "Feature"}
{"dataset_attributes": {"@spider": "usps_collection_boxes", "spider:collection_time": "2023-09-16T08:22:24.198600"}, "geometry": {"coordinates": [-91.029183926, 30.514429403], "type": "Point"}, "id": "R1dySQqzVjE679JS0MSD8UHU39g=", "properties": {"@spider": "usps_collection_boxes", "addr:city": "GREENWEL SPGS", "addr:country": "US", "addr:full": "14415 GREENWELL SPRINGS RD", "addr:postcode": "70739", "addr:state": "LA", "amenity": "post_box", "brand": "United States Postal Service", "brand:wikidata": "Q668687", "collection_times": "Mo-Sa 11:00", "name": "USPS COLLECTION BOX - BLUE BOX", "nsi_id": "unitedstatespostalservice-a77078", "operator": "United States Postal Service", "operator:short": "USPS", "operator:type": "public", "operator:wikidata": "Q668687", "ref": "7073900005"}, "type": "Feature"}
{"dataset_attributes": {"@spider": "usps_collection_boxes", "spider:collection_time": "2023-09-16T08:22:24.198600"}, "geometry": {"coordinates": [-90.993381464, 30.572975069], "type": "Point"}, "id": "Y4GP5YRo3xBAi0yHsnN39AouxSE=", "properties": {"@spider": "usps_collection_boxes", "addr:city": "GREENWEL SPGS", "addr:country": "US", "addr:full": "22801 GREENWELL SPRINGS RD", "addr:postcode": "70739", "addr:state": "LA", "amenity": "post_box", "brand": "United States Postal Service", "brand:wikidata": "Q668687", "collection_times": "Mo-Fr 16:30; Sa 11:00", "name": "USPS COLLECTION BOX - PO LOBBY", "note": "ON 12/24 AND 12/31, THIS BOX MAY BE COLLECTED AS EARLY AS 12 NOON.", "nsi_id": "unitedstatespostalservice-a77078", "operator": "United States Postal Service", "operator:short": "USPS", "operator:type": "public", "operator:wikidata": "Q668687", "ref": "7073900006"}, "type": "Feature"}
{"dataset_attributes": {"@spider": "usps_collection_boxes", "spider:collection_time": "2023-09-16T08:22:24.198600"}, "geometry": {"coordinates": [-91.432999108, 30.413566426], "type": "Point"}, "id": "dkAJFAWUSFUlbfPGfI7JzDDwvSs=", "properties": {"@spider": "usps_collection_boxes", "addr:city": "GROSSE TETE", "addr:country": "US", "addr:full": "76760 CEDAR ST", "addr:postcode": "70740", "addr:state": "LA", "amenity": "post_box", "brand": "United States Postal Service", "brand:wikidata": "Q668687", "collection_times": "Mo-Fr 15:00; Sa 11:00", "name": "USPS COLLECTION BOX - BLUE BOX", "note": "ON 12/24 AND 12/31, THIS BOX MAY BE COLLECTED AS EARLY AS 12 NOON.", "nsi_id": "unitedstatespostalservice-a77078", "operator": "United States Postal Service", "operator:short": "USPS", "operator:type": "public", "operator:wikidata": "Q668687", "ref": "7074000001"}, "type": "Feature"}
{"dataset_attributes": {"@spider": "usps_collection_boxes", "spider:collection_time": "2023-09-16T08:22:24.198600"}, "geometry": {"coordinates": [-91.432999108, 30.413566426], "type": "Point"}, "id": "4nO3sU_Q3GLBb3c1eqdP-ooI8Fk=", "properties": {"@spider": "usps_collection_boxes", "addr:city": "GROSSE TETE", "addr:country": "US", "addr:full": "76760 CEDAR ST", "addr:postcode": "70740", "addr:state": "LA", "amenity": "post_box", "brand": "United States Postal Service", "brand:wikidata": "Q668687", "collection_times": "Mo-Fr 15:00; Sa 11:00", "name": "USPS COLLECTION BOX - PO LOBBY", "note": "ON 12/24 AND 12/31, THIS BOX MAY BE COLLECTED AS EARLY AS 12 NOON.", "nsi_id": "unitedstatespostalservice-a77078", "operator": "United States Postal Service", "operator:short": "USPS", "operator:type": "public", "operator:wikidata": "Q668687", "ref": "7074000003"}, "type": "Feature"}
{"dataset_attributes": {"@spider": "usps_collection_boxes", "spider:collection_time": "2023-09-16T08:22:24.198600"}, "geometry": {"coordinates": [-91.432999108, 30.413566426], "type": "Point"}, "id": "OcLu-1Ku-fdLu_UEA18GK7T0SUA=", "properties": {"@spider": "usps_collection_boxes", "addr:city": "GROSSE TETE", "addr:country": "US", "addr:full": "76760 CEDAR ST", "addr:postcode": "70740", "addr:state": "LA", "amenity": "post_box", "brand": "United States Postal Service", "brand:wikidata": "Q668687", "collection_times": "Mo-Fr 15:00; Sa 11:00", "name": "USPS COLLECTION BOX - PO LOBBY", "note": "ON 12/24 AND 12/31, THIS BOX MAY BE COLLECTED AS EARLY AS 12 NOON.", "nsi_id": "unitedstatespostalservice-a77078", "operator": "United States Postal Service", "operator:short": "USPS", "operator:type": "public", "operator:wikidata": "Q668687", "ref": "7074000004"}, "type": "Feature"}
{"dataset_attributes": {"@spider": "usps_collection_boxes", "spider:collection_time": "2023-09-16T08:22:24.198600"}, "geometry": {"coordinates": [-90.779881985, 30.018587988], "type": "Point"}, "id": "bIDS0WFlFculIno9vRszbvny6wA=", "properties": {"@spider": "usps_collection_boxes", "addr:city": "HESTER", "addr:country": "US", "addr:full": "4163 KAHN ST", "addr:postcode": "70743", "addr:state": "LA", "amenity": "post_box", "brand": "United States Postal Service", "brand:wikidata": "Q668687", "collection_times": "Mo-Fr 16:00; Sa 10:00", "name": "USPS COLLECTION BOX - PO LOBBY", "note": "ON 12/24 AND 12/31, THIS BOX MAY BE COLLECTED AS EARLY AS 12 NOON.", "nsi_id": "unitedstatespostalservice-a77078", "operator": "United States Postal Service", "operator:short": "USPS", "operator:type": "public", "operator:wikidata": "Q668687", "ref": "7074300001"}, "type": "Feature"}
{"dataset_attributes": {"@spider": "usps_collection_boxes", "spider:collection_time": "2023-09-16T08:22:24.198600"}, "geometry": {"coordinates": [-90.779881985, 30.018587988], "type": "Point"}, "id": "sG9kCgseBeGJAhfB0Je5vEjt5OE=", "properties": {"@spider": "usps_collection_boxes", "addr:city": "HESTER", "addr:country": "US", "addr:full": "4163 KAHN ST", "addr:postcode": "70743", "addr:state": "LA", "amenity": "post_box", "brand": "United States Postal Service", "brand:wikidata": "Q668687", "collection_times": "Mo-Fr 16:00; Sa 10:00", "name": "USPS COLLECTION BOX - BLUE BOX", "note": "ON 12/24 AND 12/31, THIS BOX MAY BE COLLECTED AS EARLY AS 12 NOON.", "nsi_id": "unitedstatespostalservice-a77078", "operator": "United States Postal Service", "operator:short": "USPS", "operator:type": "public", "operator:wikidata": "Q668687", "ref": "7074300002"}, "type": "Feature"}
{"dataset_attributes": {"@spider": "usps_collection_boxes", "spider:collection_time": "2023-09-16T08:22:24.198600"}, "geometry": {"coordinates": [-90.7798819853, 30.0185879879], "type": "Point"}, "id": "K9ZKMVxaQbYr9XL0wpnuG3Gtkn4=", "properties": {"@spider": "usps_collection_boxes", "addr:city": "HESTER", "addr:country": "US", "addr:full": "4163 KAHN ST", "addr:postcode": "70743", "addr:state": "LA", "amenity": "post_box", "brand": "United States Postal Service", "brand:wikidata": "Q668687", "collection_times": "Mo-Fr 16:00; Sa 10:00", "name": "USPS COLLECTION BOX - PO LOBBY", "note": "ON 12/24 AND 12/31, THIS BOX MAY BE COLLECTED AS EARLY AS 12 NOON.", "nsi_id": "unitedstatespostalservice-a77078", "operator": "United States Postal Service", "operator:short": "USPS", "operator:type": "public", "operator:wikidata": "Q668687", "ref": "7074300003"}, "type": "Feature"}
{"dataset_attributes": {"@spider": "usps_collection_boxes", "spider:collection_time": "2023-09-16T08:22:24.198600"}, "geometry": {"coordinates": [-90.669415513, 30.503911948], "type": "Point"}, "id": "3srQo7It2EZBRsGKYGLxoyI-r_o=", "properties": {"@spider": "usps_collection_boxes", "addr:city": "HOLDEN", "addr:country": "US", "addr:full": "30165 LA HIGHWAY 441", "addr:postcode": "70744", "addr:state": "LA", "amenity": "post_box", "brand": "United States Postal Service", "brand:wikidata": "Q668687", "collection_times": "Mo-Fr 15:30; Sa 10:30", "name": "USPS COLLECTION BOX - PO LOBBY", "note": "ON 12/24 AND 12/31, THIS BOX MAY BE COLLECTED AS EARLY AS 12 NOON.", "nsi_id": "unitedstatespostalservice-a77078", "operator": "United States Postal Service", "operator:short": "USPS", "operator:type": "public", "operator:wikidata": "Q668687", "ref": "7074400001"}, "type": "Feature"}
{"dataset_attributes": {"@spider": "usps_collection_boxes", "spider:collection_time": "2023-09-16T08:22:24.198600"}, "geometry": {"coordinates": [-90.669415513, 30.503911948], "type": "Point"}, "id": "tETxzrV3CEQg1SkG5M96CZB58FE=", "properties": {"@spider": "usps_collection_boxes", "addr:city": "HOLDEN", "addr:country": "US", "addr:full": "30165 LA HIGHWAY 441", "addr:postcode": "70744", "addr:state": "LA", "amenity": "post_box", "brand": "United States Postal Service", "brand:wikidata": "Q668687", "collection_times": "Mo-Fr 15:30; Sa 10:30", "name": "USPS COLLECTION BOX - BLUE BOX", "note": "ON 12/24 AND 12/31, THIS BOX MAY BE COLLECTED AS EARLY AS 12 NOON.", "nsi_id": "unitedstatespostalservice-a77078", "operator": "United States Postal Service", "operator:short": "USPS", "operator:type": "public", "operator:wikidata": "Q668687", "ref": "7074400002"}, "type": "Feature"}
{"dataset_attributes": {"@spider": "usps_collection_boxes", "spider:collection_time": "2023-09-16T08:22:24.198600"}, "geometry": {"coordinates": [-90.6694155129, 30.5039119476], "type": "Point"}, "id": "joJUD6xloxelMqQqKi31S-Nz7vQ=", "properties": {"@spider": "usps_collection_boxes", "addr:city": "HOLDEN", "addr:country": "US", "addr:full": "30165 LA HIGHWAY 441", "addr:postcode": "70744", "addr:state": "LA", "amenity": "post_box", "brand": "United States Postal Service", "brand:wikidata": "Q668687", "collection_times": "Mo-Fr 16:00; Sa 10:30", "name": "USPS COLLECTION BOX - PO LOBBY", "note": "ON 12/24 AND 12/31, THIS BOX MAY BE COLLECTED AS EARLY AS 12 NOON.", "nsi_id": "unitedstatespostalservice-a77078", "operator": "United States Postal Service", "operator:short": "USPS", "operator:type": "public", "operator:wikidata": "Q668687", "ref": "7074400004"}, "type": "Feature"}
{"dataset_attributes": {"@spider": "usps_collection_boxes", "spider:collection_time": "2023-09-16T08:22:24.198600"}, "geometry": {"coordinates": [-91.681307228, 30.878322672], "type": "Point"}, "id": "KtUVn_QejVyTm8CC2yDsoEaFG4A=", "properties": {"@spider": "usps_collection_boxes", "addr:city": "INNIS", "addr:country": "US", "addr:full": "6535 LA HIGHWAY 1", "addr:postcode": "70747", "addr:state": "LA", "amenity": "post_box", "brand": "United States Postal Service", "brand:wikidata": "Q668687", "collection_times": "Mo-Fr 16:00; Sa 11:00", "name": "USPS COLLECTION BOX - PO LOBBY", "note": "ON 12/24 AND 12/31, THIS BOX MAY BE COLLECTED AS EARLY AS 12 NOON.", "nsi_id": "unitedstatespostalservice-a77078", "operator": "United States Postal Service", "operator:short": "USPS", "operator:type": "public", "operator:wikidata": "Q668687", "ref": "7074700001"}, "type": "Feature"}
{"dataset_attributes": {"@spider": "usps_collection_boxes", "spider:collection_time": "2023-09-16T08:22:24.198600"}, "geometry": {"coordinates": [-91.681307228, 30.878322672], "type": "Point"}, "id": "e7CIHs52lRy5Z47O6w82mmrocDo=", "properties": {"@spider": "usps_collection_boxes", "addr:city": "INNIS", "addr:country": "US", "addr:full": "6535 LA HIGHWAY 1", "addr:postcode": "70747", "addr:state": "LA", "amenity": "post_box", "brand": "United States Postal Service", "brand:wikidata": "Q668687", "collection_times": "Mo-Fr 16:00; Sa 11:00", "name": "USPS COLLECTION BOX - BLUE BOX", "note": "ON 12/24 AND 12/31, THIS BOX MAY BE COLLECTED AS EARLY AS 12 NOON.", "nsi_id": "unitedstatespostalservice-a77078", "operator": "United States Postal Service", "operator:short": "USPS", "operator:type": "public", "operator:wikidata": "Q668687", "ref": "7074700002"}, "type": "Feature"}
{"dataset_attributes": {"@spider": "usps_collection_boxes", "spider:collection_time": "2023-09-16T08:22:24.198600"}, "geometry": {"coordinates": [-91.681307228, 30.878322672], "type": "Point"}, "id": "tni4iNeuXGDaLpkePvVx4iTNay0=", "properties": {"@spider": "usps_collection_boxes", "addr:city": "INNIS", "addr:country": "US", "addr:full": "6535 LA HIGHWAY 1", "addr:postcode": "70747", "addr:state": "LA", "amenity": "post_box", "brand": "United States Postal Service", "brand:wikidata": "Q668687", "collection_times": "Mo-Fr 16:00; Sa 11:00", "name": "USPS COLLECTION BOX - PO LOBBY", "note": "ON 12/24 AND 12/31, THIS BOX MAY BE COLLECTED AS EARLY AS 12 NOON.", "nsi_id": "unitedstatespostalservice-a77078", "operator": "United States Postal Service", "operator:short": "USPS", "operator:type": "public", "operator:wikidata": "Q668687", "ref": "7074700003"}, "type": "Feature"}
{"dataset_attributes": {"@spider": "usps_collection_boxes", "spider:collection_time": "2023-09-16T08:22:24.198600"}, "geometry": {"coordinates": [-91.214870993, 30.836305004], "type": "Point"}, "id": "WRVX0KmboDuu0VwOSsAwmCWO-zU=", "properties": {"@spider": "usps_collection_boxes", "addr:city": "JACKSON", "addr:country": "US", "addr:full": "3016 BANK ST", "addr:postcode": "70748", "addr:state": "LA", "amenity": "post_box", "brand": "United States Postal Service", "brand:wikidata": "Q668687", "collection_times": "Mo-Fr 15:45; Sa 10:45", "name": "USPS COLLECTION BOX - BLUE BOX", "note": "ON 12/24 AND 12/31, THIS BOX MAY BE COLLECTED AS EARLY AS 12 NOON.", "nsi_id": "unitedstatespostalservice-a77078", "operator": "United States Postal Service", "operator:short": "USPS", "operator:type": "public", "operator:wikidata": "Q668687", "ref": "7074800002"}, "type": "Feature"}
{"dataset_attributes": {"@spider": "usps_collection_boxes", "spider:collection_time": "2023-09-16T08:22:24.198600"}, "geometry": {"coordinates": [-91.214870993, 30.836305004], "type": "Point"}, "id": "ST61b3rqXrNrSDzGBBcRG_Lsa_A=", "properties": {"@spider": "usps_collection_boxes", "addr:city": "JACKSON", "addr:country": "US", "addr:full": "3016 BANK ST", "addr:postcode": "70748", "addr:state": "LA", "amenity": "post_box", "brand": "United States Postal Service", "brand:wikidata": "Q668687", "collection_times": "Mo-Fr 15:45; Sa 10:45", "name": "USPS COLLECTION BOX - PO LOBBY", "note": "ON 12/24 AND 12/31, THIS BOX MAY BE COLLECTED AS EARLY AS 12 NOON.", "nsi_id": "unitedstatespostalservice-a77078", "operator": "United States Postal Service", "operator:short": "USPS", "operator:type": "public", "operator:wikidata": "Q668687", "ref": "7074800005"}, "type": "Feature"}
{"dataset_attributes": {"@spider": "usps_collection_boxes", "spider:collection_time": "2023-09-16T08:22:24.198600"}, "geometry": {"coordinates": [-91.214870993, 30.836305004], "type": "Point"}, "id": "BG18E_fRXp08au1X-xuHBGltB98=", "properties": {"@spider": "usps_collection_boxes", "addr:city": "JACKSON", "addr:country": "US", "addr:full": "3016 BANK ST", "addr:postcode": "70748", "addr:state": "LA", "amenity": "post_box", "brand": "United States Postal Service", "brand:wikidata": "Q668687", "collection_times": "Mo-Fr 16:00; Sa 11:00", "name": "USPS COLLECTION BOX - PO LOBBY", "note": "ON 12/24 AND 12/31, THIS BOX MAY BE COLLECTED AS EARLY AS 12 NOON.", "nsi_id": "unitedstatespostalservice-a77078", "operator": "United States Postal Service", "operator:short": "USPS", "operator:type": "public", "operator:wikidata": "Q668687", "ref": "7074800006"}, "type": "Feature"}
{"dataset_attributes": {"@spider": "usps_collection_boxes", "spider:collection_time": "2023-09-16T08:22:24.198600"}, "geometry": {"coordinates": [-91.436762014, 30.619763984], "type": "Point"}, "id": "18kZ6c3i5UNkn3NjVmgYkbsBynE=", "properties": {"@spider": "usps_collection_boxes", "addr:city": "JARREAU", "addr:country": "US", "addr:full": "5341 BOULEVARD D ISLE", "addr:postcode": "70749", "addr:state": "LA", "amenity": "post_box", "brand": "United States Postal Service", "brand:wikidata": "Q668687", "collection_times": "Mo-Fr 16:00; Sa 09:00", "name": "USPS COLLECTION BOX - PO LOBBY", "note": "ON 12/24 AND 12/31, THIS BOX MAY BE COLLECTED AS EARLY AS 12 NOON.", "nsi_id": "unitedstatespostalservice-a77078", "operator": "United States Postal Service", "operator:short": "USPS", "operator:type": "public", "operator:wikidata": "Q668687", "ref": "7074900001"}, "type": "Feature"}
{"dataset_attributes": {"@spider": "usps_collection_boxes", "spider:collection_time": "2023-09-16T08:22:24.198600"}, "geometry": {"coordinates": [-91.436762014, 30.619763984], "type": "Point"}, "id": "iXpmEG14073eKo6ui5w1jF92T6Q=", "properties": {"@spider": "usps_collection_boxes", "addr:city": "JARREAU", "addr:country": "US", "addr:full": "5341 BOULEVARD D ISLE", "addr:postcode": "70749", "addr:state": "LA", "amenity": "post_box", "brand": "United States Postal Service", "brand:wikidata": "Q668687", "collection_times": "Mo-Fr 16:00; Sa 09:00", "name": "USPS COLLECTION BOX - BLUE BOX", "note": "ON 12/24 AND 12/31, THIS BOX MAY BE COLLECTED AS EARLY AS 12 NOON.", "nsi_id": "unitedstatespostalservice-a77078", "operator": "United States Postal Service", "operator:short": "USPS", "operator:type": "public", "operator:wikidata": "Q668687", "ref": "7074900002"}, "type": "Feature"}
{"dataset_attributes": {"@spider": "usps_collection_boxes", "spider:collection_time": "2023-09-16T08:22:24.198600"}, "geometry": {"coordinates": [-91.436762014, 30.619763984], "type": "Point"}, "id": "5X8hDMUVRfKbCti0WTjNHs4H3vM=", "properties": {"@spider": "usps_collection_boxes", "addr:city": "JARREAU", "addr:country": "US", "addr:full": "5341 BOULEVARD D ISLE", "addr:postcode": "70749", "addr:state": "LA", "amenity": "post_box", "brand": "United States Postal Service", "brand:wikidata": "Q668687", "collection_times": "Mo-Fr 16:30; Sa 11:30", "name": "USPS COLLECTION BOX - PO LOBBY", "note": "ON 12/24 AND 12/31, THIS BOX MAY BE COLLECTED AS EARLY AS 12 NOON.", "nsi_id": "unitedstatespostalservice-a77078", "operator": "United States Postal Service", "operator:short": "USPS", "operator:type": "public", "operator:wikidata": "Q668687", "ref": "7074900003"}, "type": "Feature"}
{"dataset_attributes": {"@spider": "usps_collection_boxes", "spider:collection_time": "2023-09-16T08:22:24.198600"}, "geometry": {"coordinates": [-91.756073968, 30.541783995], "type": "Point"}, "id": "tSIk-qbGO8dyt1P2X7Z1dQpEd0s=", "properties": {"@spider": "usps_collection_boxes", "addr:city": "KROTZ SPRINGS", "addr:country": "US", "addr:full": "427 FLORIDA ST", "addr:postcode": "70750", "addr:state": "LA", "amenity": "post_box", "brand": "United States Postal Service", "brand:wikidata": "Q668687", "collection_times": "Mo-Fr 16:30; Sa 11:30", "name": "USPS COLLECTION BOX - PO LOBBY", "note": "ON 12/24 AND 12/31, THIS BOX MAY BE COLLECTED AS EARLY AS 12 NOON.", "nsi_id": "unitedstatespostalservice-a77078", "operator": "United States Postal Service", "operator:short": "USPS", "operator:type": "public", "operator:wikidata": "Q668687", "ref": "7075000001"}, "type": "Feature"}
{"dataset_attributes": {"@spider": "usps_collection_boxes", "spider:collection_time": "2023-09-16T08:22:24.198600"}, "geometry": {"coordinates": [-91.756073968, 30.541783995], "type": "Point"}, "id": "3PTS_DKfh5FoWdU_GR3Iiq85yiU=", "properties": {"@spider": "usps_collection_boxes", "addr:city": "KROTZ SPRINGS", "addr:country": "US", "addr:full": "427 FLORIDA ST", "addr:postcode": "70750", "addr:state": "LA", "amenity": "post_box", "brand": "United States Postal Service", "brand:wikidata": "Q668687", "collection_times": "Mo-Fr 16:30; Sa 11:30", "name": "USPS COLLECTION BOX - PO LOBBY", "note": "ON 12/24 AND 12/31, THIS BOX MAY BE COLLECTED AS EARLY AS 12 NOON.", "nsi_id": "unitedstatespostalservice-a77078", "operator": "United States Postal Service", "operator:short": "USPS", "operator:type": "public", "operator:wikidata": "Q668687", "ref": "7075000003"}, "type": "Feature"}
{"dataset_attributes": {"@spider": "usps_collection_boxes", "spider:collection_time": "2023-09-16T08:22:24.198600"}, "geometry": {"coordinates": [-91.404736019, 30.600593984], "type": "Point"}, "id": "pIRTEG6i55GwFshfyaQy7ruvsRk=", "properties": {"@spider": "usps_collection_boxes", "addr:city": "LAKELAND", "addr:country": "US", "addr:full": "12158 LA HIGHWAY 416", "addr:postcode": "70752", "addr:state": "LA", "amenity": "post_box", "brand": "United States Postal Service", "brand:wikidata": "Q668687", "collection_times": "Mo-Fr 16:00; Sa 11:00", "name": "USPS COLLECTION BOX - BLUE BOX", "note": "ON 12/24 AND 12/31, THIS BOX MAY BE COLLECTED AS EARLY AS 12 NOON.", "nsi_id": "unitedstatespostalservice-a77078", "operator": "United States Postal Service", "operator:short": "USPS", "operator:type": "public", "operator:wikidata": "Q668687", "ref": "7075200001"}, "type": "Feature"}
{"dataset_attributes": {"@spider": "usps_collection_boxes", "spider:collection_time": "2023-09-16T08:22:24.198600"}, "geometry": {"coordinates": [-91.404736019, 30.600593984], "type": "Point"}, "id": "CPMj6JthnyhWPXvX4qr6-7TLcFk=", "properties": {"@spider": "usps_collection_boxes", "addr:city": "LAKELAND", "addr:country": "US", "addr:full": "12158 LA HIGHWAY 416", "addr:postcode": "70752", "addr:state": "LA", "amenity": "post_box", "brand": "United States Postal Service", "brand:wikidata": "Q668687", "collection_times": "Mo-Fr 16:00; Sa 11:00", "name": "USPS COLLECTION BOX - PO LOBBY", "note": "ON 12/24 AND 12/31, THIS BOX MAY BE COLLECTED AS EARLY AS 12 NOON.", "nsi_id": "unitedstatespostalservice-a77078", "operator": "United States Postal Service", "operator:short": "USPS", "operator:type": "public", "operator:wikidata": "Q668687", "ref": "7075200002"}, "type": "Feature"}
{"dataset_attributes": {"@spider": "usps_collection_boxes", "spider:collection_time": "2023-09-16T08:22:24.198600"}, "geometry": {"coordinates": [-91.404736019, 30.600593984], "type": "Point"}, "id": "DKINThpg-hoBz1GaXYRRAKltDNM=", "properties": {"@spider": "usps_collection_boxes", "addr:city": "LAKELAND", "addr:country": "US", "addr:full": "12158 LA HIGHWAY 416", "addr:postcode": "70752", "addr:state": "LA", "amenity": "post_box", "brand": "United States Postal Service", "brand:wikidata": "Q668687", "collection_times": "Mo-Fr 16:00; Sa 11:00", "name": "USPS COLLECTION BOX - PO LOBBY", "note": "ON 12/24 AND 12/31, THIS BOX MAY BE COLLECTED AS EARLY AS 12 NOON.", "nsi_id": "unitedstatespostalservice-a77078", "operator": "United States Postal Service", "operator:short": "USPS", "operator:type": "public", "operator:wikidata": "Q668687", "ref": "7075200004"}, "type": "Feature"}
{"dataset_attributes": {"@spider": "usps_collection_boxes", "spider:collection_time": "2023-09-16T08:22:24.198600"}, "geometry": {"coordinates": [-91.735722037, 30.946352017], "type": "Point"}, "id": "bimPbFpFwpWLfHOv7gXrmJiyG_s=", "properties": {"@spider": "usps_collection_boxes", "addr:city": "LETTSWORTH", "addr:country": "US", "addr:full": "9863 LA HIGHWAY 1", "addr:postcode": "70753", "addr:state": "LA", "amenity": "post_box", "brand": "United States Postal Service", "brand:wikidata": "Q668687", "collection_times": "Mo-Fr 13:00; Sa 09:00", "name": "USPS COLLECTION BOX - PO LOBBY", "note": "ON 12/24 AND 12/31, THIS BOX MAY BE COLLECTED AS EARLY AS 12 NOON.", "nsi_id": "unitedstatespostalservice-a77078", "operator": "United States Postal Service", "operator:short": "USPS", "operator:type": "public", "operator:wikidata": "Q668687", "ref": "7075300001"}, "type": "Feature"}
{"dataset_attributes": {"@spider": "usps_collection_boxes", "spider:collection_time": "2023-09-16T08:22:24.198600"}, "geometry": {"coordinates": [-91.735722037, 30.946352017], "type": "Point"}, "id": "Gg_5SDnw8PHI4M9KOLQyY3fomp8=", "properties": {"@spider": "usps_collection_boxes", "addr:city": "LETTSWORTH", "addr:country": "US", "addr:full": "9863 LA HIGHWAY 1", "addr:postcode": "70753", "addr:state": "LA", "amenity": "post_box", "brand": "United States Postal Service", "brand:wikidata": "Q668687", "collection_times": "Mo-Fr 13:00; Sa 09:00", "name": "USPS COLLECTION BOX - BLUE BOX", "note": "ON 12/24 AND 12/31, THIS BOX MAY BE COLLECTED AS EARLY AS 12 NOON.", "nsi_id": "unitedstatespostalservice-a77078", "operator": "United States Postal Service", "operator:short": "USPS", "operator:type": "public", "operator:wikidata": "Q668687", "ref": "7075300002"}, "type": "Feature"}
{"dataset_attributes": {"@spider": "usps_collection_boxes", "spider:collection_time": "2023-09-16T08:22:24.198600"}, "geometry": {"coordinates": [-91.735722037, 30.946352017], "type": "Point"}, "id": "8638neHimMal8En_YICXazFF2KQ=", "properties": {"@spider": "usps_collection_boxes", "addr:city": "LETTSWORTH", "addr:country": "US", "addr:full": "9863 LA HIGHWAY 1", "addr:postcode": "70753", "addr:state": "LA", "amenity": "post_box", "brand": "United States Postal Service", "brand:wikidata": "Q668687", "collection_times": "Mo-Fr 13:00; Sa 10:30", "name": "USPS COLLECTION BOX - PO LOBBY", "note": "ON 12/24 AND 12/31, THIS BOX MAY BE COLLECTED AS EARLY AS 12 NOON.", "nsi_id": "unitedstatespostalservice-a77078", "operator": "United States Postal Service", "operator:short": "USPS", "operator:type": "public", "operator:wikidata": "Q668687", "ref": "7075300003"}, "type": "Feature"}
{"dataset_attributes": {"@spider": "usps_collection_boxes", "spider:collection_time": "2023-09-16T08:22:24.198600"}, "geometry": {"coordinates": [-90.747509986, 30.495784991], "type": "Point"}, "id": "PeYISNgjJWDHa4hU0ntMcaK-qxw=", "properties": {"@spider": "usps_collection_boxes", "addr:city": "LIVINGSTON", "addr:country": "US", "addr:full": "29728 S FROST RD", "addr:postcode": "70754", "addr:state": "LA", "amenity": "post_box", "brand": "United States Postal Service", "brand:wikidata": "Q668687", "collection_times": "Mo-Fr 16:00; Sa 11:00", "name": "USPS COLLECTION BOX - PO LOBBY", "note": "ON 12/24 AND 12/31, THIS BOX MAY BE COLLECTED AS EARLY AS 12 NOON.", "nsi_id": "unitedstatespostalservice-a77078", "operator": "United States Postal Service", "operator:short": "USPS", "operator:type": "public", "operator:wikidata": "Q668687", "ref": "7075400001"}, "type": "Feature"}
{"dataset_attributes": {"@spider": "usps_collection_boxes", "spider:collection_time": "2023-09-16T08:22:24.198600"}, "geometry": {"coordinates": [-90.747509986, 30.495784991], "type": "Point"}, "id": "0LvY2YW6KZ8BieGkp0mIw_QKT7E=", "properties": {"@spider": "usps_collection_boxes", "addr:city": "LIVINGSTON", "addr:country": "US", "addr:full": "29728 S FROST RD", "addr:postcode": "70754", "addr:state": "LA", "amenity": "post_box", "brand": "United States Postal Service", "brand:wikidata": "Q668687", "collection_times": "Mo-Fr 16:30; Sa 11:00", "name": "USPS COLLECTION BOX - PO LOBBY", "note": "ON 12/24 AND 12/31, THIS BOX MAY BE COLLECTED AS EARLY AS 12 NOON.", "nsi_id": "unitedstatespostalservice-a77078", "operator": "United States Postal Service", "operator:short": "USPS", "operator:type": "public", "operator:wikidata": "Q668687", "ref": "7075400009"}, "type": "Feature"}
{"dataset_attributes": {"@spider": "usps_collection_boxes", "spider:collection_time": "2023-09-16T08:22:24.198600"}, "geometry": {"coordinates": [-91.555997018, 30.557296006], "type": "Point"}, "id": "pIGXgQuDRLC0UaIwDI38Ux9Fu5o=", "properties": {"@spider": "usps_collection_boxes", "addr:city": "LIVONIA", "addr:country": "US", "addr:full": "3050 LA HIGHWAY 78", "addr:postcode": "70755", "addr:state": "LA", "amenity": "post_box", "brand": "United States Postal Service", "brand:wikidata": "Q668687", "collection_times": "Mo-Fr 16:00; Sa 12:00", "name": "USPS COLLECTION BOX - PO LOBBY", "note": "ON 12/24 AND 12/31, THIS BOX MAY BE COLLECTED AS EARLY AS 12 NOON.", "nsi_id": "unitedstatespostalservice-a77078", "operator": "United States Postal Service", "operator:short": "USPS", "operator:type": "public", "operator:wikidata": "Q668687", "ref": "7075500001"}, "type": "Feature"}
{"dataset_attributes": {"@spider": "usps_collection_boxes", "spider:collection_time": "2023-09-16T08:22:24.198600"}, "geometry": {"coordinates": [-91.555997018, 30.557296006], "type": "Point"}, "id": "jKcCfdGW1cTF3Up2L_WDSDSjHig=", "properties": {"@spider": "usps_collection_boxes", "addr:city": "LIVONIA", "addr:country": "US", "addr:full": "3050 LA HIGHWAY 78", "addr:postcode": "70755", "addr:state": "LA", "amenity": "post_box", "brand": "United States Postal Service", "brand:wikidata": "Q668687", "collection_times": "Mo-Fr 16:00; Sa 12:00", "name": "USPS COLLECTION BOX - BLUE BOX", "note": "ON 12/24 AND 12/31, THIS BOX MAY BE COLLECTED AS EARLY AS 12 NOON.", "nsi_id": "unitedstatespostalservice-a77078", "operator": "United States Postal Service", "operator:short": "USPS", "operator:type": "public", "operator:wikidata": "Q668687", "ref": "7075500002"}, "type": "Feature"}
{"dataset_attributes": {"@spider": "usps_collection_boxes", "spider:collection_time": "2023-09-16T08:22:24.198600"}, "geometry": {"coordinates": [-91.555997018, 30.557296006], "type": "Point"}, "id": "8Bi2SYwwtn-I7WojW9JAegZCfcY=", "properties": {"@spider": "usps_collection_boxes", "addr:city": "LIVONIA", "addr:country": "US", "addr:full": "3050 LA HIGHWAY 78", "addr:postcode": "70755", "addr:state": "LA", "amenity": "post_box", "brand": "United States Postal Service", "brand:wikidata": "Q668687", "collection_times": "Mo-Fr 16:00; Sa 12:00", "name": "USPS COLLECTION BOX - PO LOBBY", "note": "ON 12/24 AND 12/31, THIS BOX MAY BE COLLECTED AS EARLY AS 12 NOON.", "nsi_id": "unitedstatespostalservice-a77078", "operator": "United States Postal Service", "operator:short": "USPS", "operator:type": "public", "operator:wikidata": "Q668687", "ref": "7075500003"}, "type": "Feature"}
{"dataset_attributes": {"@spider": "usps_collection_boxes", "spider:collection_time": "2023-09-16T08:22:24.198600"}, "geometry": {"coordinates": [-91.555997018, 30.557296006], "type": "Point"}, "id": "vTAWqd1F3lmrl_WLSfZ34wz_ldo=", "properties": {"@spider": "usps_collection_boxes", "addr:city": "LIVONIA", "addr:country": "US", "addr:full": "3050 LA HIGHWAY 78", "addr:postcode": "70755", "addr:state": "LA", "amenity": "post_box", "brand": "United States Postal Service", "brand:wikidata": "Q668687", "collection_times": "Mo-Fr 16:00; Sa 12:00", "name": "USPS COLLECTION BOX - PO LOBBY", "note": "ON 12/24 AND 12/31, THIS BOX MAY BE COLLECTED AS EARLY AS 12 NOON.", "nsi_id": "unitedstatespostalservice-a77078", "operator": "United States Postal Service", "operator:short": "USPS", "operator:type": "public", "operator:wikidata": "Q668687", "ref": "7075500004"}, "type": "Feature"}
{"dataset_attributes": {"@spider": "usps_collection_boxes", "spider:collection_time": "2023-09-16T08:22:24.198600"}, "geometry": {"coordinates": [-91.641794011, 30.555255013], "type": "Point"}, "id": "GhP9Mqk7StAFW6a0K1Toq7h4AY0=", "properties": {"@spider": "usps_collection_boxes", "addr:city": "LOTTIE", "addr:country": "US", "addr:full": "5422 LA 81 E", "addr:postcode": "70756", "addr:state": "LA", "amenity": "post_box", "brand": "United States Postal Service", "brand:wikidata": "Q668687", "collection_times": "Mo-Fr 15:30; Sa 10:30", "name": "USPS COLLECTION BOX - PO LOBBY", "note": "ON 12/24 AND 12/31, THIS BOX MAY BE COLLECTED AS EARLY AS 12 NOON.", "nsi_id": "unitedstatespostalservice-a77078", "operator": "United States Postal Service", "operator:short": "USPS", "operator:type": "public", "operator:wikidata": "Q668687", "ref": "7075600001"}, "type": "Feature"}
{"dataset_attributes": {"@spider": "usps_collection_boxes", "spider:collection_time": "2023-09-16T08:22:24.198600"}, "geometry": {"coordinates": [-91.641794011, 30.555255013], "type": "Point"}, "id": "-BN14ZOXfHcI7ln7xxHHaBI5VpE=", "properties": {"@spider": "usps_collection_boxes", "addr:city": "LOTTIE", "addr:country": "US", "addr:full": "5422 LA 81 E", "addr:postcode": "70756", "addr:state": "LA", "amenity": "post_box", "brand": "United States Postal Service", "brand:wikidata": "Q668687", "collection_times": "Mo-Fr 15:30; Sa 10:30", "name": "USPS COLLECTION BOX - BLUE BOX", "note": "ON 12/24 AND 12/31, THIS BOX MAY BE COLLECTED AS EARLY AS 12 NOON.", "nsi_id": "unitedstatespostalservice-a77078", "operator": "United States Postal Service", "operator:short": "USPS", "operator:type": "public", "operator:wikidata": "Q668687", "ref": "7075600002"}, "type": "Feature"}
{"dataset_attributes": {"@spider": "usps_collection_boxes", "spider:collection_time": "2023-09-16T08:22:24.198600"}, "geometry": {"coordinates": [-91.641794011, 30.555255013], "type": "Point"}, "id": "eEpxsJ_EimB3MYJIDQpRFgJZEPI=", "properties": {"@spider": "usps_collection_boxes", "addr:city": "LOTTIE", "addr:country": "US", "addr:full": "5422 LA 81 E", "addr:postcode": "70756", "addr:state": "LA", "amenity": "post_box", "brand": "United States Postal Service", "brand:wikidata": "Q668687", "collection_times": "Mo-Fr 16:00; Sa 11:30", "name": "USPS COLLECTION BOX - PO LOBBY", "note": "ON 12/24 AND 12/31, THIS BOX MAY BE COLLECTED AS EARLY AS 12 NOON.", "nsi_id": "unitedstatespostalservice-a77078", "operator": "United States Postal Service", "operator:short": "USPS", "operator:type": "public", "operator:wikidata": "Q668687", "ref": "7075600003"}, "type": "Feature"}
{"dataset_attributes": {"@spider": "usps_collection_boxes", "spider:collection_time": "2023-09-16T08:22:24.198600"}, "geometry": {"coordinates": [-91.518479032, 30.492523005], "type": "Point"}, "id": "ok5BB1Aa6kXe5L7RFYjSyCgJ8ks=", "properties": {"@spider": "usps_collection_boxes", "addr:city": "MARINGOUIN", "addr:country": "US", "addr:full": "77330 LANDRY DR", "addr:postcode": "70757", "addr:state": "LA", "amenity": "post_box", "brand": "United States Postal Service", "brand:wikidata": "Q668687", "collection_times": "Mo-Fr 15:15; Sa 10:15", "name": "USPS COLLECTION BOX - PO LOBBY", "note": "ON 12/24 AND 12/31, THIS BOX MAY BE COLLECTED AS EARLY AS 12 NOON.", "nsi_id": "unitedstatespostalservice-a77078", "operator": "United States Postal Service", "operator:short": "USPS", "operator:type": "public", "operator:wikidata": "Q668687", "ref": "7075700001"}, "type": "Feature"}
{"dataset_attributes": {"@spider": "usps_collection_boxes", "spider:collection_time": "2023-09-16T08:22:24.198600"}, "geometry": {"coordinates": [-91.518479032, 30.492523005], "type": "Point"}, "id": "lMRruA4Er4ppxDYP64K-uVTaakE=", "properties": {"@spider": "usps_collection_boxes", "addr:city": "MARINGOUIN", "addr:country": "US", "addr:full": "77330 LANDRY DR", "addr:postcode": "70757", "addr:state": "LA", "amenity": "post_box", "brand": "United States Postal Service", "brand:wikidata": "Q668687", "collection_times": "Mo-Fr 15:15; Sa 10:15", "name": "USPS COLLECTION BOX - BLUE BOX", "note": "ON 12/24 AND 12/31, THIS BOX MAY BE COLLECTED AS EARLY AS 12 NOON.", "nsi_id": "unitedstatespostalservice-a77078", "operator": "United States Postal Service", "operator:short": "USPS", "operator:type": "public", "operator:wikidata": "Q668687", "ref": "7075700002"}, "type": "Feature"}
{"dataset_attributes": {"@spider": "usps_collection_boxes", "spider:collection_time": "2023-09-16T08:22:24.198600"}, "geometry": {"coordinates": [-91.518479032, 30.492523005], "type": "Point"}, "id": "aMtsWNPMGbDo7c4Zmo55b_dh5oA=", "properties": {"@spider": "usps_collection_boxes", "addr:city": "MARINGOUIN", "addr:country": "US", "addr:full": "77330 LANDRY DR", "addr:postcode": "70757", "addr:state": "LA", "amenity": "post_box", "brand": "United States Postal Service", "brand:wikidata": "Q668687", "collection_times": "Mo-Fr 16:00; Sa 11:00", "name": "USPS COLLECTION BOX - PO LOBBY", "note": "ON 12/24 AND 12/31, THIS BOX MAY BE COLLECTED AS EARLY AS 12 NOON.", "nsi_id": "unitedstatespostalservice-a77078", "operator": "United States Postal Service", "operator:short": "USPS", "operator:type": "public", "operator:wikidata": "Q668687", "ref": "7075700003"}, "type": "Feature"}
{"dataset_attributes": {"@spider": "usps_collection_boxes", "spider:collection_time": "2023-09-16T08:22:24.198600"}, "geometry": {"coordinates": [-91.587185995, 30.729191993], "type": "Point"}, "id": "IFhBp_fbkXAIytQf7ZnTVMzd1Dc=", "properties": {"@spider": "usps_collection_boxes", "addr:city": "MORGANZA", "addr:country": "US", "addr:full": "1081 S LA 1", "addr:postcode": "70759", "addr:state": "LA", "amenity": "post_box", "brand": "United States Postal Service", "brand:wikidata": "Q668687", "collection_times": "Mo-Fr 16:00; Sa 11:00", "name": "USPS COLLECTION BOX - BLUE BOX", "note": "ON 12/24 AND 12/31, THIS BOX MAY BE COLLECTED AS EARLY AS 12 NOON.", "nsi_id": "unitedstatespostalservice-a77078", "operator": "United States Postal Service", "operator:short": "USPS", "operator:type": "public", "operator:wikidata": "Q668687", "ref": "7075900002"}, "type": "Feature"}
{"dataset_attributes": {"@spider": "usps_collection_boxes", "spider:collection_time": "2023-09-16T08:22:24.198600"}, "geometry": {"coordinates": [-91.587185995, 30.729191993], "type": "Point"}, "id": "Vg3W3nEGuM05pUquNvhsuVjGPn4=", "properties": {"@spider": "usps_collection_boxes", "addr:city": "MORGANZA", "addr:country": "US", "addr:full": "1081 S LA 1", "addr:postcode": "70759", "addr:state": "LA", "amenity": "post_box", "brand": "United States Postal Service", "brand:wikidata": "Q668687", "collection_times": "Mo-Fr 16:00; Sa 11:00", "name": "USPS COLLECTION BOX - PO LOBBY", "note": "ON 12/24 AND 12/31, THIS BOX MAY BE COLLECTED AS EARLY AS 12 NOON.", "nsi_id": "unitedstatespostalservice-a77078", "operator": "United States Postal Service", "operator:short": "USPS", "operator:type": "public", "operator:wikidata": "Q668687", "ref": "7075900004"}, "type": "Feature"}
{"dataset_attributes": {"@spider": "usps_collection_boxes", "spider:collection_time": "2023-09-16T08:22:24.198600"}, "geometry": {"coordinates": [-91.587185995, 30.729191993], "type": "Point"}, "id": "_rWSxK_D3HfXe0VjHYkSIdMnGYA=", "properties": {"@spider": "usps_collection_boxes", "addr:city": "MORGANZA", "addr:country": "US", "addr:full": "1081 S LA 1", "addr:postcode": "70759", "addr:state": "LA", "amenity": "post_box", "brand": "United States Postal Service", "brand:wikidata": "Q668687", "collection_times": "Mo-Fr 16:00; Sa 11:00", "name": "USPS COLLECTION BOX - PO LOBBY", "note": "ON 12/24 AND 12/31, THIS BOX MAY BE COLLECTED AS EARLY AS 12 NOON.", "nsi_id": "unitedstatespostalservice-a77078", "operator": "United States Postal Service", "operator:short": "USPS", "operator:type": "public", "operator:wikidata": "Q668687", "ref": "7075900005"}, "type": "Feature"}
{"dataset_attributes": {"@spider": "usps_collection_boxes", "spider:collection_time": "2023-09-16T08:22:24.198600"}, "geometry": {"coordinates": [-91.4338929725, 30.6943389916], "type": "Point"}, "id": "t1ZQrl_jshg_rJ368U1n0JHMKdc=", "properties": {"@spider": "usps_collection_boxes", "addr:city": "NEW ROADS", "addr:country": "US", "addr:full": "148 NEW ROADS ST", "addr:postcode": "70760", "addr:state": "LA", "amenity": "post_box", "brand": "United States Postal Service", "brand:wikidata": "Q668687", "collection_times": "Mo-Fr 16:45; Sa 11:30", "name": "USPS COLLECTION BOX - PO LOBBY", "note": "ON 12/24 AND 12/31, THIS BOX MAY BE COLLECTED AS EARLY AS 12 NOON.", "nsi_id": "unitedstatespostalservice-a77078", "operator": "United States Postal Service", "operator:short": "USPS", "operator:type": "public", "operator:wikidata": "Q668687", "ref": "7076000001"}, "type": "Feature"}
{"dataset_attributes": {"@spider": "usps_collection_boxes", "spider:collection_time": "2023-09-16T08:22:24.198600"}, "geometry": {"coordinates": [-91.4338929725, 30.6943389916], "type": "Point"}, "id": "9B_PMSdr2JuLoi8ya2CMjPFF2cA=", "properties": {"@spider": "usps_collection_boxes", "addr:city": "NEW ROADS", "addr:country": "US", "addr:full": "148 NEW ROADS ST", "addr:postcode": "70760", "addr:state": "LA", "amenity": "post_box", "brand": "United States Postal Service", "brand:wikidata": "Q668687", "collection_times": "Mo-Fr 16:45; Sa 11:30", "name": "USPS COLLECTION BOX - PO LOBBY", "note": "ON 12/24 AND 12/31, THIS BOX MAY BE COLLECTED AS EARLY AS 12 NOON.", "nsi_id": "unitedstatespostalservice-a77078", "operator": "United States Postal Service", "operator:short": "USPS", "operator:type": "public", "operator:wikidata": "Q668687", "ref": "7076000002"}, "type": "Feature"}
{"dataset_attributes": {"@spider": "usps_collection_boxes", "spider:collection_time": "2023-09-16T08:22:24.198600"}, "geometry": {"coordinates": [-91.4338929725, 30.6943389916], "type": "Point"}, "id": "B8idQ7mJ6zh-Kh8gwZ4CL_OVW1c=", "properties": {"@spider": "usps_collection_boxes", "addr:city": "NEW ROADS", "addr:country": "US", "addr:full": "148 NEW ROADS ST", "addr:postcode": "70760", "addr:state": "LA", "amenity": "post_box", "brand": "United States Postal Service", "brand:wikidata": "Q668687", "collection_times": "Mo-Fr 16:45; Sa 11:30", "name": "USPS COLLECTION BOX - BLUE BOX", "note": "ON 12/24 AND 12/31, THIS BOX MAY BE COLLECTED AS EARLY AS 12 NOON.", "nsi_id": "unitedstatespostalservice-a77078", "operator": "United States Postal Service", "operator:short": "USPS", "operator:type": "public", "operator:wikidata": "Q668687", "ref": "7076000003"}, "type": "Feature"}
{"dataset_attributes": {"@spider": "usps_collection_boxes", "spider:collection_time": "2023-09-16T08:22:24.198600"}, "geometry": {"coordinates": [-91.4338929725, 30.6943389916], "type": "Point"}, "id": "5B84OEsxIBg6g8Ujxcol44d21h0=", "properties": {"@spider": "usps_collection_boxes", "addr:city": "NEW ROADS", "addr:country": "US", "addr:full": "148 NEW ROADS ST", "addr:postcode": "70760", "addr:state": "LA", "amenity": "post_box", "brand": "United States Postal Service", "brand:wikidata": "Q668687", "collection_times": "Mo-Fr 16:45; Sa 11:30", "name": "USPS COLLECTION BOX - BLUE BOX", "note": "ON 12/24 AND 12/31, THIS BOX MAY BE COLLECTED AS EARLY AS 12 NOON.", "nsi_id": "unitedstatespostalservice-a77078", "operator": "United States Postal Service", "operator:short": "USPS", "operator:type": "public", "operator:wikidata": "Q668687", "ref": "7076000004"}, "type": "Feature"}
{"dataset_attributes": {"@spider": "usps_collection_boxes", "spider:collection_time": "2023-09-16T08:22:24.198600"}, "geometry": {"coordinates": [-91.4628790186, 30.6825399961], "type": "Point"}, "id": "oV6gzUQtUsmfmkk6Phb3eN0GeaM=", "properties": {"@spider": "usps_collection_boxes", "addr:city": "NEW ROADS", "addr:country": "US", "addr:full": "300 HOSPITAL RD", "addr:postcode": "70760", "addr:state": "LA", "amenity": "post_box", "brand": "United States Postal Service", "brand:wikidata": "Q668687", "collection_times": "Mo-Sa 10:00", "name": "USPS COLLECTION BOX - BLUE BOX", "nsi_id": "unitedstatespostalservice-a77078", "operator": "United States Postal Service", "operator:short": "USPS", "operator:type": "public", "operator:wikidata": "Q668687", "ref": "7076000007"}, "type": "Feature"}
{"dataset_attributes": {"@spider": "usps_collection_boxes", "spider:collection_time": "2023-09-16T08:22:24.198600"}, "geometry": {"coordinates": [-91.4338929725, 30.6943389916], "type": "Point"}, "id": "yPMIVdSetZB3adVQgeoIXnAcO-0=", "properties": {"@spider": "usps_collection_boxes", "addr:city": "NEW ROADS", "addr:country": "US", "addr:full": "148 NEW ROADS ST", "addr:postcode": "70760", "addr:state": "LA", "amenity": "post_box", "brand": "United States Postal Service", "brand:wikidata": "Q668687", "collection_times": "Mo-Fr 16:30; Sa 11:00", "name": "USPS COLLECTION BOX - PO LOBBY", "note": "ON 12/24 AND 12/31, THIS BOX MAY BE COLLECTED AS EARLY AS 12 NOON.", "nsi_id": "unitedstatespostalservice-a77078", "operator": "United States Postal Service", "operator:short": "USPS", "operator:type": "public", "operator:wikidata": "Q668687", "ref": "7076000010"}, "type": "Feature"}
{"dataset_attributes": {"@spider": "usps_collection_boxes", "spider:collection_time": "2023-09-16T08:22:24.198600"}, "geometry": {"coordinates": [-91.103603994, 30.965587018], "type": "Point"}, "id": "uifOYNgaqkaNd8r5jligDtU-obM=", "properties": {"@spider": "usps_collection_boxes", "addr:city": "NORWOOD", "addr:country": "US", "addr:full": "3822 CAMELLIA ST", "addr:postcode": "70761", "addr:state": "LA", "amenity": "post_box", "brand": "United States Postal Service", "brand:wikidata": "Q668687", "collection_times": "Mo-Fr 15:30; Sa 11:15", "name": "USPS COLLECTION BOX - PO LOBBY", "note": "ON 12/24 AND 12/31, THIS BOX MAY BE COLLECTED AS EARLY AS 12 NOON.", "nsi_id": "unitedstatespostalservice-a77078", "operator": "United States Postal Service", "operator:short": "USPS", "operator:type": "public", "operator:wikidata": "Q668687", "ref": "7076100001"}, "type": "Feature"}
{"dataset_attributes": {"@spider": "usps_collection_boxes", "spider:collection_time": "2023-09-16T08:22:24.198600"}, "geometry": {"coordinates": [-91.103603994, 30.965587018], "type": "Point"}, "id": "X_XAqJnKum93CDRotgmh8ekWITs=", "properties": {"@spider": "usps_collection_boxes", "addr:city": "NORWOOD", "addr:country": "US", "addr:full": "3822 CAMELLIA ST", "addr:postcode": "70761", "addr:state": "LA", "amenity": "post_box", "brand": "United States Postal Service", "brand:wikidata": "Q668687", "collection_times": "Mo-Fr 15:30; Sa 11:15", "name": "USPS COLLECTION BOX - BLUE BOX", "note": "ON 12/24 AND 12/31, THIS BOX MAY BE COLLECTED AS EARLY AS 12 NOON.", "nsi_id": "unitedstatespostalservice-a77078", "operator": "United States Postal Service", "operator:short": "USPS", "operator:type": "public", "operator:wikidata": "Q668687", "ref": "7076100002"}, "type": "Feature"}
{"dataset_attributes": {"@spider": "usps_collection_boxes", "spider:collection_time": "2023-09-16T08:22:24.198600"}, "geometry": {"coordinates": [-91.103603994, 30.965587018], "type": "Point"}, "id": "2Vq4ZvFvcXMzdzVwVOh3QrVDtMk=", "properties": {"@spider": "usps_collection_boxes", "addr:city": "NORWOOD", "addr:country": "US", "addr:full": "3822 CAMELLIA ST", "addr:postcode": "70761", "addr:state": "LA", "amenity": "post_box", "brand": "United States Postal Service", "brand:wikidata": "Q668687", "collection_times": "Mo-Fr 16:00; Sa 11:00", "name": "USPS COLLECTION BOX - PO LOBBY", "note": "ON 12/24 AND 12/31, THIS BOX MAY BE COLLECTED AS EARLY AS 12 NOON.", "nsi_id": "unitedstatespostalservice-a77078", "operator": "United States Postal Service", "operator:short": "USPS", "operator:type": "public", "operator:wikidata": "Q668687", "ref": "7076100003"}, "type": "Feature"}
{"dataset_attributes": {"@spider": "usps_collection_boxes", "spider:collection_time": "2023-09-16T08:22:24.198600"}, "geometry": {"coordinates": [-91.485011015, 30.628371989], "type": "Point"}, "id": "SuemPrWUsuQV6GapPmfWaGI6Yy8=", "properties": {"@spider": "usps_collection_boxes", "addr:city": "OSCAR", "addr:country": "US", "addr:full": "8105 FALSE RIVER RD", "addr:postcode": "70762", "addr:state": "LA", "amenity": "post_box", "brand": "United States Postal Service", "brand:wikidata": "Q668687", "collection_times": "Mo-Fr 15:45; Sa 10:45", "name": "USPS COLLECTION BOX - BLUE BOX", "note": "ON 12/24 AND 12/31, THIS BOX MAY BE COLLECTED AS EARLY AS 12 NOON.", "nsi_id": "unitedstatespostalservice-a77078", "operator": "United States Postal Service", "operator:short": "USPS", "operator:type": "public", "operator:wikidata": "Q668687", "ref": "7076200001"}, "type": "Feature"}
{"dataset_attributes": {"@spider": "usps_collection_boxes", "spider:collection_time": "2023-09-16T08:22:24.198600"}, "geometry": {"coordinates": [-91.4850110148, 30.6283719887], "type": "Point"}, "id": "l8C5KIzjJw6OAqThXvpIS6on48U=", "properties": {"@spider": "usps_collection_boxes", "addr:city": "OSCAR", "addr:country": "US", "addr:full": "8105 FALSE RIVER RD", "addr:postcode": "70762", "addr:state": "LA", "amenity": "post_box", "brand": "United States Postal Service", "brand:wikidata": "Q668687", "collection_times": "Mo-Fr 15:45; Sa 10:45", "name": "USPS COLLECTION BOX - PO LOBBY", "note": "ON 12/24 AND 12/31, THIS BOX MAY BE COLLECTED AS EARLY AS 12 NOON.", "nsi_id": "unitedstatespostalservice-a77078", "operator": "United States Postal Service", "operator:short": "USPS", "operator:type": "public", "operator:wikidata": "Q668687", "ref": "7076200002"}, "type": "Feature"}
{"dataset_attributes": {"@spider": "usps_collection_boxes", "spider:collection_time": "2023-09-16T08:22:24.198600"}, "geometry": {"coordinates": [-91.485011015, 30.628371989], "type": "Point"}, "id": "C-j_RlS-DUGJYpQ1EnRjYKScsLk=", "properties": {"@spider": "usps_collection_boxes", "addr:city": "OSCAR", "addr:country": "US", "addr:full": "8105 FALSE RIVER RD", "addr:postcode": "70762", "addr:state": "LA", "amenity": "post_box", "brand": "United States Postal Service", "brand:wikidata": "Q668687", "collection_times": "Mo-Fr 16:00; Sa 11:00", "name": "USPS COLLECTION BOX - PO LOBBY", "note": "ON 12/24 AND 12/31, THIS BOX MAY BE COLLECTED AS EARLY AS 12 NOON.", "nsi_id": "unitedstatespostalservice-a77078", "operator": "United States Postal Service", "operator:short": "USPS", "operator:type": "public", "operator:wikidata": "Q668687", "ref": "7076200003"}, "type": "Feature"}
{"dataset_attributes": {"@spider": "usps_collection_boxes", "spider:collection_time": "2023-09-16T08:22:24.198600"}, "geometry": {"coordinates": [-90.705958964, 30.030990019], "type": "Point"}, "id": "WWdwh6MBz82wV_wqos26ElCSMII=", "properties": {"@spider": "usps_collection_boxes", "addr:city": "PAULINA", "addr:country": "US", "addr:full": "2388 LA HIGHWAY 44", "addr:postcode": "70763", "addr:state": "LA", "amenity": "post_box", "brand": "United States Postal Service", "brand:wikidata": "Q668687", "collection_times": "Mo-Fr 15:45; Sa 12:00", "name": "USPS COLLECTION BOX - PO LOBBY", "note": "ON 12/24 AND 12/31, THIS BOX MAY BE COLLECTED AS EARLY AS 12 NOON.", "nsi_id": "unitedstatespostalservice-a77078", "operator": "United States Postal Service", "operator:short": "USPS", "operator:type": "public", "operator:wikidata": "Q668687", "ref": "7076300001"}, "type": "Feature"}
{"dataset_attributes": {"@spider": "usps_collection_boxes", "spider:collection_time": "2023-09-16T08:22:24.198600"}, "geometry": {"coordinates": [-90.705958964, 30.030990019], "type": "Point"}, "id": "cWCweUsXDQ9DxYJ8P--GD6qUPW4=", "properties": {"@spider": "usps_collection_boxes", "addr:city": "PAULINA", "addr:country": "US", "addr:full": "2388 LA HIGHWAY 44", "addr:postcode": "70763", "addr:state": "LA", "amenity": "post_box", "brand": "United States Postal Service", "brand:wikidata": "Q668687", "collection_times": "Mo-Fr 15:45; Sa 12:00", "name": "USPS COLLECTION BOX - BLUE BOX", "note": "ON 12/24 AND 12/31, THIS BOX MAY BE COLLECTED AS EARLY AS 12 NOON.", "nsi_id": "unitedstatespostalservice-a77078", "operator": "United States Postal Service", "operator:short": "USPS", "operator:type": "public", "operator:wikidata": "Q668687", "ref": "7076300002"}, "type": "Feature"}
{"dataset_attributes": {"@spider": "usps_collection_boxes", "spider:collection_time": "2023-09-16T08:22:24.198600"}, "geometry": {"coordinates": [-90.7059589637, 30.0309900195], "type": "Point"}, "id": "mQ4QyP0kBeE1AAlrYtswnraEhlk=", "properties": {"@spider": "usps_collection_boxes", "addr:city": "PAULINA", "addr:country": "US", "addr:full": "2388 LA 44", "addr:postcode": "70763", "addr:state": "LA", "amenity": "post_box", "brand": "United States Postal Service", "brand:wikidata": "Q668687", "collection_times": "Mo-Fr 15:45; Sa 12:00", "name": "USPS COLLECTION BOX - PO LOBBY", "note": "ON 12/24 AND 12/31, THIS BOX MAY BE COLLECTED AS EARLY AS 12 NOON.", "nsi_id": "unitedstatespostalservice-a77078", "operator": "United States Postal Service", "operator:short": "USPS", "operator:type": "public", "operator:wikidata": "Q668687", "ref": "7076300003"}, "type": "Feature"}
{"dataset_attributes": {"@spider": "usps_collection_boxes", "spider:collection_time": "2023-09-16T08:22:24.198600"}, "geometry": {"coordinates": [-91.231294417, 30.281286303], "type": "Point"}, "id": "13yZsubfdGCcvCTdKHn_bnDvnj4=", "properties": {"@spider": "usps_collection_boxes", "addr:city": "PLAQUEMINE", "addr:country": "US", "addr:full": "58015 CANAL ST", "addr:postcode": "70764", "addr:state": "LA", "amenity": "post_box", "brand": "United States Postal Service", "brand:wikidata": "Q668687", "collection_times": "Mo-Fr 17:00; Sa 15:30", "name": "USPS COLLECTION BOX - PO LOBBY", "note": "ON 12/24 AND 12/31, THIS BOX MAY BE COLLECTED AS EARLY AS 12 NOON.", "nsi_id": "unitedstatespostalservice-a77078", "operator": "United States Postal Service", "operator:short": "USPS", "operator:type": "public", "operator:wikidata": "Q668687", "ref": "7076400001"}, "type": "Feature"}
{"dataset_attributes": {"@spider": "usps_collection_boxes", "spider:collection_time": "2023-09-16T08:22:24.198600"}, "geometry": {"coordinates": [-91.2312944168, 30.2812863033], "type": "Point"}, "id": "q8JaTGRyLk6P6ryzqv4NM1LZ2yk=", "properties": {"@spider": "usps_collection_boxes", "addr:city": "PLAQUEMINE", "addr:country": "US", "addr:full": "58015 CANAL ST", "addr:postcode": "70764", "addr:state": "LA", "amenity": "post_box", "brand": "United States Postal Service", "brand:wikidata": "Q668687", "collection_times": "Mo-Fr 17:00; Sa 15:30", "name": "USPS COLLECTION BOX - BLUE BOX", "note": "ON 12/24 AND 12/31, THIS BOX MAY BE COLLECTED AS EARLY AS 12 NOON.", "nsi_id": "unitedstatespostalservice-a77078", "operator": "United States Postal Service", "operator:short": "USPS", "operator:type": "public", "operator:wikidata": "Q668687", "ref": "7076400003"}, "type": "Feature"}
{"dataset_attributes": {"@spider": "usps_collection_boxes", "spider:collection_time": "2023-09-16T08:22:24.198600"}, "geometry": {"coordinates": [-91.231294417, 30.281286303], "type": "Point"}, "id": "bGLijNSqctKT07jyNQxTMLgItrk=", "properties": {"@spider": "usps_collection_boxes", "addr:city": "PLAQUEMINE", "addr:country": "US", "addr:full": "58015 CANAL ST", "addr:postcode": "70764", "addr:state": "LA", "amenity": "post_box", "brand": "United States Postal Service", "brand:wikidata": "Q668687", "collection_times": "Mo-Fr 17:00; Sa 15:30", "name": "USPS COLLECTION BOX - BLUE BOX", "note": "ON 12/24 AND 12/31, THIS BOX MAY BE COLLECTED AS EARLY AS 12 NOON.", "nsi_id": "unitedstatespostalservice-a77078", "operator": "United States Postal Service", "operator:short": "USPS", "operator:type": "public", "operator:wikidata": "Q668687", "ref": "7076400004"}, "type": "Feature"}
{"dataset_attributes": {"@spider": "usps_collection_boxes", "spider:collection_time": "2023-09-16T08:22:24.198600"}, "geometry": {"coordinates": [-91.231294417, 30.281286303], "type": "Point"}, "id": "oGUZo6ACN3uzUegeBVKsJrSjsC4=", "properties": {"@spider": "usps_collection_boxes", "addr:city": "PLAQUEMINE", "addr:country": "US", "addr:full": "58015 CANAL ST", "addr:postcode": "70764", "addr:state": "LA", "amenity": "post_box", "brand": "United States Postal Service", "brand:wikidata": "Q668687", "collection_times": "Mo-Fr 16:30; Sa 11:30", "name": "USPS COLLECTION BOX - PO LOBBY", "note": "ON 12/24 AND 12/31, THIS BOX MAY BE COLLECTED AS EARLY AS 12 NOON.", "nsi_id": "unitedstatespostalservice-a77078", "operator": "United States Postal Service", "operator:short": "USPS", "operator:type": "public", "operator:wikidata": "Q668687", "ref": "7076400034"}, "type": "Feature"}
{"dataset_attributes": {"@spider": "usps_collection_boxes", "spider:collection_time": "2023-09-16T08:22:24.198600"}, "geometry": {"coordinates": [-91.207155032, 30.452667014], "type": "Point"}, "id": "XKbHUawrsPEf-i7LtB0HKuwlCKA=", "properties": {"@spider": "usps_collection_boxes", "addr:city": "PORT ALLEN", "addr:country": "US", "addr:full": "600 COURT ST", "addr:postcode": "70767", "addr:state": "LA", "amenity": "post_box", "brand": "United States Postal Service", "brand:wikidata": "Q668687", "collection_times": "Mo-Fr 17:00; Sa 15:00", "name": "USPS COLLECTION BOX - BLUE BOX", "note": "ON 12/24 AND 12/31, THIS BOX MAY BE COLLECTED AS EARLY AS 12 NOON.", "nsi_id": "unitedstatespostalservice-a77078", "operator": "United States Postal Service", "operator:short": "USPS", "operator:type": "public", "operator:wikidata": "Q668687", "ref": "7076700002"}, "type": "Feature"}
{"dataset_attributes": {"@spider": "usps_collection_boxes", "spider:collection_time": "2023-09-16T08:22:24.198600"}, "geometry": {"coordinates": [-91.207155032, 30.452667014], "type": "Point"}, "id": "q4WVoNg5eelWWeddYkLyAH5Ad9I=", "properties": {"@spider": "usps_collection_boxes", "addr:city": "PORT ALLEN", "addr:country": "US", "addr:full": "600 COURT ST", "addr:postcode": "70767", "addr:state": "LA", "amenity": "post_box", "brand": "United States Postal Service", "brand:wikidata": "Q668687", "collection_times": "Mo-Fr 17:00; Sa 15:00", "name": "USPS COLLECTION BOX - BLUE BOX", "note": "ON 12/24 AND 12/31, THIS BOX MAY BE COLLECTED AS EARLY AS 12 NOON.", "nsi_id": "unitedstatespostalservice-a77078", "operator": "United States Postal Service", "operator:short": "USPS", "operator:type": "public", "operator:wikidata": "Q668687", "ref": "7076700003"}, "type": "Feature"}
{"dataset_attributes": {"@spider": "usps_collection_boxes", "spider:collection_time": "2023-09-16T08:22:24.198600"}, "geometry": {"coordinates": [-91.218609992, 30.500840997], "type": "Point"}, "id": "VjY4IJIAEFejo03_HFexWh1kC1E=", "properties": {"@spider": "usps_collection_boxes", "addr:city": "PORT ALLEN", "addr:country": "US", "addr:full": "1150 NORTHWEST DR", "addr:postcode": "70767", "addr:state": "LA", "amenity": "post_box", "brand": "United States Postal Service", "brand:wikidata": "Q668687", "collection_times": "Mo-Fr 12:30; Sa 11:30", "name": "USPS COLLECTION BOX - BLUE BOX", "note": "ON 12/24 AND 12/31, THIS BOX MAY BE COLLECTED AS EARLY AS 12 NOON.", "nsi_id": "unitedstatespostalservice-a77078", "operator": "United States Postal Service", "operator:short": "USPS", "operator:type": "public", "operator:wikidata": "Q668687", "ref": "7076700013"}, "type": "Feature"}
{"dataset_attributes": {"@spider": "usps_collection_boxes", "spider:collection_time": "2023-09-16T08:22:24.198600"}, "geometry": {"coordinates": [-91.207155032, 30.452667014], "type": "Point"}, "id": "bSjQ1yiRD-KdUmUnx4yKvMF0I-U=", "properties": {"@spider": "usps_collection_boxes", "addr:city": "PORT ALLEN", "addr:country": "US", "addr:full": "600 COURT ST", "addr:postcode": "70767", "addr:state": "LA", "amenity": "post_box", "brand": "United States Postal Service", "brand:wikidata": "Q668687", "collection_times": "Mo-Fr 17:00; Sa 15:00", "name": "USPS COLLECTION BOX - PO LOBBY", "note": "ON 12/24 AND 12/31, THIS BOX MAY BE COLLECTED AS EARLY AS 12 NOON.", "nsi_id": "unitedstatespostalservice-a77078", "operator": "United States Postal Service", "operator:short": "USPS", "operator:type": "public", "operator:wikidata": "Q668687", "ref": "7076700016"}, "type": "Feature"}
{"dataset_attributes": {"@spider": "usps_collection_boxes", "spider:collection_time": "2023-09-16T08:22:24.198600"}, "geometry": {"coordinates": [-91.2071550317, 30.452667014], "type": "Point"}, "id": "45F1CHqKihbYJsQudSMJYi_uO6w=", "properties": {"@spider": "usps_collection_boxes", "addr:city": "PORT ALLEN", "addr:country": "US", "addr:full": "600 COURT ST", "addr:postcode": "70767", "addr:state": "LA", "amenity": "post_box", "brand": "United States Postal Service", "brand:wikidata": "Q668687", "collection_times": "Mo-Fr 16:30; Sa 12:00", "name": "USPS COLLECTION BOX - PO LOBBY", "note": "ON 12/24 AND 12/31, THIS BOX MAY BE COLLECTED AS EARLY AS 12 NOON.", "nsi_id": "unitedstatespostalservice-a77078", "operator": "United States Postal Service", "operator:short": "USPS", "operator:type": "public", "operator:wikidata": "Q668687", "ref": "7076700018"}, "type": "Feature"}
{"dataset_attributes": {"@spider": "usps_collection_boxes", "spider:collection_time": "2023-09-16T08:22:24.198600"}, "geometry": {"coordinates": [-90.968674967, 30.297873002], "type": "Point"}, "id": "XLuA7OXEfG158uG3z4IG5Rxq4-0=", "properties": {"@spider": "usps_collection_boxes", "addr:city": "PRAIRIEVILLE", "addr:country": "US", "addr:full": "15655 AIRLINE HWY", "addr:postcode": "70769", "addr:state": "LA", "amenity": "post_box", "brand": "United States Postal Service", "brand:wikidata": "Q668687", "collection_times": "Mo-Fr 15:30; Sa 12:30", "name": "USPS COLLECTION BOX - PO LOBBY", "note": "ON 12/24 AND 12/31, THIS BOX MAY BE COLLECTED AS EARLY AS 12 NOON.", "nsi_id": "unitedstatespostalservice-a77078", "operator": "United States Postal Service", "operator:short": "USPS", "operator:type": "public", "operator:wikidata": "Q668687", "ref": "7076900001"}, "type": "Feature"}
{"dataset_attributes": {"@spider": "usps_collection_boxes", "spider:collection_time": "2023-09-16T08:22:24.198600"}, "geometry": {"coordinates": [-90.968674967, 30.297873002], "type": "Point"}, "id": "gayN0j4t-NQaqB9YUkp-SKG-xjU=", "properties": {"@spider": "usps_collection_boxes", "addr:city": "PRAIRIEVILLE", "addr:country": "US", "addr:full": "15655 AIRLINE HWY", "addr:postcode": "70769", "addr:state": "LA", "amenity": "post_box", "brand": "United States Postal Service", "brand:wikidata": "Q668687", "collection_times": "Mo-Fr 15:30; Sa 12:30", "name": "USPS COLLECTION BOX - BLUE BOX", "note": "ON 12/24 AND 12/31, THIS BOX MAY BE COLLECTED AS EARLY AS 12 NOON.", "nsi_id": "unitedstatespostalservice-a77078", "operator": "United States Postal Service", "operator:short": "USPS", "operator:type": "public", "operator:wikidata": "Q668687", "ref": "7076900008"}, "type": "Feature"}
{"dataset_attributes": {"@spider": "usps_collection_boxes", "spider:collection_time": "2023-09-16T08:22:24.198600"}, "geometry": {"coordinates": [-90.9686749666, 30.2978730017], "type": "Point"}, "id": "EIDrlAp6K3AaXVlVkUQw-XvXkFg=", "properties": {"@spider": "usps_collection_boxes", "addr:city": "PRAIRIEVILLE", "addr:country": "US", "addr:full": "15655 AIRLINE HWY", "addr:postcode": "70769", "addr:state": "LA", "amenity": "post_box", "brand": "United States Postal Service", "brand:wikidata": "Q668687", "collection_times": "Mo-Fr 17:00; Sa 12:00", "name": "USPS COLLECTION BOX - PO LOBBY", "note": "ON 12/24 AND 12/31, THIS BOX MAY BE COLLECTED AS EARLY AS 12 NOON.", "nsi_id": "unitedstatespostalservice-a77078", "operator": "United States Postal Service", "operator:short": "USPS", "operator:type": "public", "operator:wikidata": "Q668687", "ref": "7076900010"}, "type": "Feature"}
{"dataset_attributes": {"@spider": "usps_collection_boxes", "spider:collection_time": "2023-09-16T08:22:24.198600"}, "geometry": {"coordinates": [-90.968674967, 30.297873002], "type": "Point"}, "id": "R4lDfBkYpAMFZAmw25W852bwZ8Q=", "properties": {"@spider": "usps_collection_boxes", "addr:city": "PRAIRIEVILLE", "addr:country": "US", "addr:full": "15655 AIRLINE HWY", "addr:postcode": "70769", "addr:state": "LA", "amenity": "post_box", "brand": "United States Postal Service", "brand:wikidata": "Q668687", "collection_times": "Mo-Fr 15:30; Sa 12:30", "name": "USPS COLLECTION BOX - PO LOBBY", "note": "ON 12/24 AND 12/31, THIS BOX MAY BE COLLECTED AS EARLY AS 12 NOON.", "nsi_id": "unitedstatespostalservice-a77078", "operator": "United States Postal Service", "operator:short": "USPS", "operator:type": "public", "operator:wikidata": "Q668687", "ref": "7076900011"}, "type": "Feature"}
{"dataset_attributes": {"@spider": "usps_collection_boxes", "spider:collection_time": "2023-09-16T08:22:24.198600"}, "geometry": {"coordinates": [-90.980174208, 30.693452342], "type": "Point"}, "id": "8r7eunCpVGzYW7lc476NQdyBMyY=", "properties": {"@spider": "usps_collection_boxes", "addr:city": "PRIDE", "addr:country": "US", "addr:full": "16524 PRIDE PORT HUDSON RD", "addr:postcode": "70770", "addr:state": "LA", "amenity": "post_box", "brand": "United States Postal Service", "brand:wikidata": "Q668687", "collection_times": "Mo-Fr 15:30; Sa 10:00", "name": "USPS COLLECTION BOX - PO LOBBY", "note": "ON 12/24 AND 12/31, THIS BOX MAY BE COLLECTED AS EARLY AS 12 NOON.", "nsi_id": "unitedstatespostalservice-a77078", "operator": "United States Postal Service", "operator:short": "USPS", "operator:type": "public", "operator:wikidata": "Q668687", "ref": "7077000001"}, "type": "Feature"}
{"dataset_attributes": {"@spider": "usps_collection_boxes", "spider:collection_time": "2023-09-16T08:22:24.198600"}, "geometry": {"coordinates": [-90.980174208, 30.693452342], "type": "Point"}, "id": "KoQN0BmWRwaL3Oz98LcwsmQUtU4=", "properties": {"@spider": "usps_collection_boxes", "addr:city": "PRIDE", "addr:country": "US", "addr:full": "16524 PRIDE PORT HUDSON RD", "addr:postcode": "70770", "addr:state": "LA", "amenity": "post_box", "brand": "United States Postal Service", "brand:wikidata": "Q668687", "collection_times": "Mo-Fr 15:30; Sa 10:00", "name": "USPS COLLECTION BOX - BLUE BOX", "note": "ON 12/24 AND 12/31, THIS BOX MAY BE COLLECTED AS EARLY AS 12 NOON.", "nsi_id": "unitedstatespostalservice-a77078", "operator": "United States Postal Service", "operator:short": "USPS", "operator:type": "public", "operator:wikidata": "Q668687", "ref": "7077000002"}, "type": "Feature"}
{"dataset_attributes": {"@spider": "usps_collection_boxes", "spider:collection_time": "2023-09-16T08:22:24.198600"}, "geometry": {"coordinates": [-90.980174208, 30.693452342], "type": "Point"}, "id": "157-oej56Ui709ZQA3NEhYhspDI=", "properties": {"@spider": "usps_collection_boxes", "addr:city": "PRIDE", "addr:country": "US", "addr:full": "16524 PRIDE PORT HUDSON RD", "addr:postcode": "70770", "addr:state": "LA", "amenity": "post_box", "brand": "United States Postal Service", "brand:wikidata": "Q668687", "collection_times": "Mo-Fr 16:00; Sa 10:30", "name": "USPS COLLECTION BOX - PO LOBBY", "note": "ON 12/24 AND 12/31, THIS BOX MAY BE COLLECTED AS EARLY AS 12 NOON.", "nsi_id": "unitedstatespostalservice-a77078", "operator": "United States Postal Service", "operator:short": "USPS", "operator:type": "public", "operator:wikidata": "Q668687", "ref": "7077000003"}, "type": "Feature"}
{"dataset_attributes": {"@spider": "usps_collection_boxes", "spider:collection_time": "2023-09-16T08:22:24.198600"}, "geometry": {"coordinates": [-91.453755736, 30.442381725], "type": "Point"}, "id": "t1lQLPznlSBRmv5XOEM8wN0NoJ4=", "properties": {"@spider": "usps_collection_boxes", "addr:city": "ROSEDALE", "addr:country": "US", "addr:full": "15600 HIGHWAY 77", "addr:postcode": "70772", "addr:state": "LA", "amenity": "post_box", "brand": "United States Postal Service", "brand:wikidata": "Q668687", "collection_times": "Mo-Fr 15:30; Sa 10:30", "name": "USPS COLLECTION BOX - PO LOBBY", "note": "ON 12/24 AND 12/31, THIS BOX MAY BE COLLECTED AS EARLY AS 12 NOON.", "nsi_id": "unitedstatespostalservice-a77078", "operator": "United States Postal Service", "operator:short": "USPS", "operator:type": "public", "operator:wikidata": "Q668687", "ref": "7077200001"}, "type": "Feature"}
{"dataset_attributes": {"@spider": "usps_collection_boxes", "spider:collection_time": "2023-09-16T08:22:24.198600"}, "geometry": {"coordinates": [-91.453755736, 30.442381725], "type": "Point"}, "id": "fbkOeiY40U0m3GGWtBQiOLCWOWw=", "properties": {"@spider": "usps_collection_boxes", "addr:city": "ROSEDALE", "addr:country": "US", "addr:full": "15600 HIGHWAY 77", "addr:postcode": "70772", "addr:state": "LA", "amenity": "post_box", "brand": "United States Postal Service", "brand:wikidata": "Q668687", "collection_times": "Mo-Fr 15:30; Sa 10:30", "name": "USPS COLLECTION BOX - BLUE BOX", "note": "ON 12/24 AND 12/31, THIS BOX MAY BE COLLECTED AS EARLY AS 12 NOON.", "nsi_id": "unitedstatespostalservice-a77078", "operator": "United States Postal Service", "operator:short": "USPS", "operator:type": "public", "operator:wikidata": "Q668687", "ref": "7077200002"}, "type": "Feature"}
{"dataset_attributes": {"@spider": "usps_collection_boxes", "spider:collection_time": "2023-09-16T08:22:24.198600"}, "geometry": {"coordinates": [-91.4537557357, 30.4423817252], "type": "Point"}, "id": "WQKburnrewAJOc0iV5bIQq7h_dQ=", "properties": {"@spider": "usps_collection_boxes", "addr:city": "ROSEDALE", "addr:country": "US", "addr:full": "15600 HIGHWAY 77", "addr:postcode": "70772", "addr:state": "LA", "amenity": "post_box", "brand": "United States Postal Service", "brand:wikidata": "Q668687", "collection_times": "Mo-Fr 15:30; Sa 11:30", "name": "USPS COLLECTION BOX - PO LOBBY", "note": "ON 12/24 AND 12/31, THIS BOX MAY BE COLLECTED AS EARLY AS 12 NOON.", "nsi_id": "unitedstatespostalservice-a77078", "operator": "United States Postal Service", "operator:short": "USPS", "operator:type": "public", "operator:wikidata": "Q668687", "ref": "7077200003"}, "type": "Feature"}
{"dataset_attributes": {"@spider": "usps_collection_boxes", "spider:collection_time": "2023-09-16T08:22:24.198600"}, "geometry": {"coordinates": [-91.373392982, 30.608198005], "type": "Point"}, "id": "bFnm0gPz0H56zD7nf6K0giuzJaw=", "properties": {"@spider": "usps_collection_boxes", "addr:city": "ROUGON", "addr:country": "US", "addr:full": "13236 LA HIGHWAY 416", "addr:postcode": "70773", "addr:state": "LA", "amenity": "post_box", "brand": "United States Postal Service", "brand:wikidata": "Q668687", "collection_times": "Mo-Fr 16:15; Sa 11:15", "name": "USPS COLLECTION BOX - PO LOBBY", "note": "ON 12/24 AND 12/31, THIS BOX MAY BE COLLECTED AS EARLY AS 12 NOON.", "nsi_id": "unitedstatespostalservice-a77078", "operator": "United States Postal Service", "operator:short": "USPS", "operator:type": "public", "operator:wikidata": "Q668687", "ref": "7077300001"}, "type": "Feature"}
{"dataset_attributes": {"@spider": "usps_collection_boxes", "spider:collection_time": "2023-09-16T08:22:24.198600"}, "geometry": {"coordinates": [-91.3733929821, 30.6081980051], "type": "Point"}, "id": "9sluOBycrwg6r1GoIUID3-zT6Vo=", "properties": {"@spider": "usps_collection_boxes", "addr:city": "ROUGON", "addr:country": "US", "addr:full": "13236 LA HIGHWAY 416", "addr:postcode": "70773", "addr:state": "LA", "amenity": "post_box", "brand": "United States Postal Service", "brand:wikidata": "Q668687", "collection_times": "Mo-Fr 16:00; Sa 11:15", "name": "USPS COLLECTION BOX - BLUE BOX", "note": "ON 12/24 AND 12/31, THIS BOX MAY BE COLLECTED AS EARLY AS 12 NOON.", "nsi_id": "unitedstatespostalservice-a77078", "operator": "United States Postal Service", "operator:short": "USPS", "operator:type": "public", "operator:wikidata": "Q668687", "ref": "7077300002"}, "type": "Feature"}
{"dataset_attributes": {"@spider": "usps_collection_boxes", "spider:collection_time": "2023-09-16T08:22:24.198600"}, "geometry": {"coordinates": [-91.3733929821, 30.6081980051], "type": "Point"}, "id": "6H0qETuLc6AaX8Zkb02bIYUM4KI=", "properties": {"@spider": "usps_collection_boxes", "addr:city": "ROUGON", "addr:country": "US", "addr:full": "13236 LA HIGHWAY 416", "addr:postcode": "70773", "addr:state": "LA", "amenity": "post_box", "brand": "United States Postal Service", "brand:wikidata": "Q668687", "collection_times": "Mo-Fr 16:30; Sa 11:30", "name": "USPS COLLECTION BOX - PO LOBBY", "note": "ON 12/24 AND 12/31, THIS BOX MAY BE COLLECTED AS EARLY AS 12 NOON.", "nsi_id": "unitedstatespostalservice-a77078", "operator": "United States Postal Service", "operator:short": "USPS", "operator:type": "public", "operator:wikidata": "Q668687", "ref": "7077300003"}, "type": "Feature"}
{"dataset_attributes": {"@spider": "usps_collection_boxes", "spider:collection_time": "2023-09-16T08:22:24.198600"}, "geometry": {"coordinates": [-90.8550130068, 30.2241249942], "type": "Point"}, "id": "NYExdMM8_j5wrvUWvdVDPPLQc3M=", "properties": {"@spider": "usps_collection_boxes", "addr:city": "ST AMANT", "addr:country": "US", "addr:full": "44473 HIGHWAY 429", "addr:postcode": "70774", "addr:state": "LA", "amenity": "post_box", "brand": "United States Postal Service", "brand:wikidata": "Q668687", "collection_times": "Mo-Fr 16:00; Sa 11:00", "name": "USPS COLLECTION BOX - PO LOBBY", "note": "ON 12/24 AND 12/31, THIS BOX MAY BE COLLECTED AS EARLY AS 12 NOON.", "nsi_id": "unitedstatespostalservice-a77078", "operator": "United States Postal Service", "operator:short": "USPS", "operator:type": "public", "operator:wikidata": "Q668687", "ref": "7077400001"}, "type": "Feature"}
{"dataset_attributes": {"@spider": "usps_collection_boxes", "spider:collection_time": "2023-09-16T08:22:24.198600"}, "geometry": {"coordinates": [-90.8550130068, 30.2241249942], "type": "Point"}, "id": "beHlnh0dkxfqqtcehMScot_U9Qo=", "properties": {"@spider": "usps_collection_boxes", "addr:city": "ST AMANT", "addr:country": "US", "addr:full": "44473 HIGHWAY 429", "addr:postcode": "70774", "addr:state": "LA", "amenity": "post_box", "brand": "United States Postal Service", "brand:wikidata": "Q668687", "collection_times": "Mo-Fr 16:00; Sa 11:00", "name": "USPS COLLECTION BOX - BLUE BOX", "note": "ON 12/24 AND 12/31, THIS BOX MAY BE COLLECTED AS EARLY AS 12 NOON.", "nsi_id": "unitedstatespostalservice-a77078", "operator": "United States Postal Service", "operator:short": "USPS", "operator:type": "public", "operator:wikidata": "Q668687", "ref": "7077400002"}, "type": "Feature"}
{"dataset_attributes": {"@spider": "usps_collection_boxes", "spider:collection_time": "2023-09-16T08:22:24.198600"}, "geometry": {"coordinates": [-90.8550130068, 30.2241249942], "type": "Point"}, "id": "Xb0PYS7Uu4SB85WC5od7M8zGGqA=", "properties": {"@spider": "usps_collection_boxes", "addr:city": "ST AMANT", "addr:country": "US", "addr:full": "44473 HIGHWAY 429", "addr:postcode": "70774", "addr:state": "LA", "amenity": "post_box", "brand": "United States Postal Service", "brand:wikidata": "Q668687", "collection_times": "Mo-Fr 16:30; Sa 11:00", "name": "USPS COLLECTION BOX - PO LOBBY", "note": "ON 12/24 AND 12/31, THIS BOX MAY BE COLLECTED AS EARLY AS 12 NOON.", "nsi_id": "unitedstatespostalservice-a77078", "operator": "United States Postal Service", "operator:short": "USPS", "operator:type": "public", "operator:wikidata": "Q668687", "ref": "7077400003"}, "type": "Feature"}
{"dataset_attributes": {"@spider": "usps_collection_boxes", "spider:collection_time": "2023-09-16T08:22:24.198600"}, "geometry": {"coordinates": [-91.373331962, 30.779051995], "type": "Point"}, "id": "0jwS_TKDFy49iVikpGWi8o7XGzs=", "properties": {"@spider": "usps_collection_boxes", "addr:city": "ST FRANCISVILLE", "addr:country": "US", "addr:full": "5613 COMMERCE ST", "addr:postcode": "70775", "addr:state": "LA", "amenity": "post_box", "brand": "United States Postal Service", "brand:wikidata": "Q668687", "collection_times": "Mo-Fr 16:00; Sa 11:00", "name": "USPS COLLECTION BOX - PO LOBBY", "note": "ON 12/24 AND 12/31, THIS BOX MAY BE COLLECTED AS EARLY AS 12 NOON.", "nsi_id": "unitedstatespostalservice-a77078", "operator": "United States Postal Service", "operator:short": "USPS", "operator:type": "public", "operator:wikidata": "Q668687", "ref": "7077500001"}, "type": "Feature"}
{"dataset_attributes": {"@spider": "usps_collection_boxes", "spider:collection_time": "2023-09-16T08:22:24.198600"}, "geometry": {"coordinates": [-91.3733319619, 30.7790519953], "type": "Point"}, "id": "EN_iFW5J0dCVH_nMS7CHlMo-DRM=", "properties": {"@spider": "usps_collection_boxes", "addr:city": "ST FRANCISVILLE", "addr:country": "US", "addr:full": "5613 COMMERCE ST", "addr:postcode": "70775", "addr:state": "LA", "amenity": "post_box", "brand": "United States Postal Service", "brand:wikidata": "Q668687", "collection_times": "Mo-Fr 16:00; Sa 11:00", "name": "USPS COLLECTION BOX - BLUE BOX", "note": "ON 12/24 AND 12/31, THIS BOX MAY BE COLLECTED AS EARLY AS 12 NOON.", "nsi_id": "unitedstatespostalservice-a77078", "operator": "United States Postal Service", "operator:short": "USPS", "operator:type": "public", "operator:wikidata": "Q668687", "ref": "7077500003"}, "type": "Feature"}
{"dataset_attributes": {"@spider": "usps_collection_boxes", "spider:collection_time": "2023-09-16T08:22:24.198600"}, "geometry": {"coordinates": [-91.388141025, 30.807338991], "type": "Point"}, "id": "fTzvolrGPOWNx6sEBUpgMxdcynY=", "properties": {"@spider": "usps_collection_boxes", "addr:city": "ST FRANCISVILLE", "addr:country": "US", "addr:full": "7911 US HIGHWAY 61", "addr:postcode": "70775", "addr:state": "LA", "amenity": "post_box", "brand": "United States Postal Service", "brand:wikidata": "Q668687", "collection_times": "Mo-Sa 11:00", "name": "USPS COLLECTION BOX - BLUE BOX", "nsi_id": "unitedstatespostalservice-a77078", "operator": "United States Postal Service", "operator:short": "USPS", "operator:type": "public", "operator:wikidata": "Q668687", "ref": "7077500004"}, "type": "Feature"}
{"dataset_attributes": {"@spider": "usps_collection_boxes", "spider:collection_time": "2023-09-16T08:22:24.198600"}, "geometry": {"coordinates": [-91.378288014, 30.787793985], "type": "Point"}, "id": "-jlUDpiW4oX_uw7JOXfrod2pteo=", "properties": {"@spider": "usps_collection_boxes", "addr:city": "ST FRANCISVILLE", "addr:country": "US", "addr:full": "7135 US HIGHWAY 61", "addr:postcode": "70775", "addr:state": "LA", "amenity": "post_box", "brand": "United States Postal Service", "brand:wikidata": "Q668687", "collection_times": "Mo-Sa 11:00", "name": "USPS COLLECTION BOX - BLUE BOX", "nsi_id": "unitedstatespostalservice-a77078", "operator": "United States Postal Service", "operator:short": "USPS", "operator:type": "public", "operator:wikidata": "Q668687", "ref": "7077500005"}, "type": "Feature"}
{"dataset_attributes": {"@spider": "usps_collection_boxes", "spider:collection_time": "2023-09-16T08:22:24.198600"}, "geometry": {"coordinates": [-91.3733319619, 30.7790519953], "type": "Point"}, "id": "MV5xhvykztwAFQIL18y97-XsVWk=", "properties": {"@spider": "usps_collection_boxes", "addr:city": "ST FRANCISVILLE", "addr:country": "US", "addr:full": "5613 COMMERCE ST", "addr:postcode": "70775", "addr:state": "LA", "amenity": "post_box", "brand": "United States Postal Service", "brand:wikidata": "Q668687", "collection_times": "Mo-Fr 16:00; Sa 11:00", "name": "USPS COLLECTION BOX - PO LOBBY", "note": "ON 12/24 AND 12/31, THIS BOX MAY BE COLLECTED AS EARLY AS 12 NOON.", "nsi_id": "unitedstatespostalservice-a77078", "operator": "United States Postal Service", "operator:short": "USPS", "operator:type": "public", "operator:wikidata": "Q668687", "ref": "7077500006"}, "type": "Feature"}
{"dataset_attributes": {"@spider": "usps_collection_boxes", "spider:collection_time": "2023-09-16T08:22:24.198600"}, "geometry": {"coordinates": [-91.373331962, 30.779051995], "type": "Point"}, "id": "yB6gRbBiGI5RXCVTfC2Uw1NQxAU=", "properties": {"@spider": "usps_collection_boxes", "addr:city": "ST FRANCISVILLE", "addr:country": "US", "addr:full": "5613 COMMERCE ST", "addr:postcode": "70775", "addr:state": "LA", "amenity": "post_box", "brand": "United States Postal Service", "brand:wikidata": "Q668687", "collection_times": "Mo-Fr 16:00; Sa 11:00", "name": "USPS COLLECTION BOX - PO LOBBY", "note": "ON 12/24 AND 12/31, THIS BOX MAY BE COLLECTED AS EARLY AS 12 NOON.", "nsi_id": "unitedstatespostalservice-a77078", "operator": "United States Postal Service", "operator:short": "USPS", "operator:type": "public", "operator:wikidata": "Q668687", "ref": "7077500007"}, "type": "Feature"}
{"dataset_attributes": {"@spider": "usps_collection_boxes", "spider:collection_time": "2023-09-16T08:22:24.198600"}, "geometry": {"coordinates": [-91.373331962, 30.779051995], "type": "Point"}, "id": "Jtflcya1zRAzMUJLSjxxGRGkgzQ=", "properties": {"@spider": "usps_collection_boxes", "addr:city": "ST FRANCISVILLE", "addr:country": "US", "addr:full": "5613 COMMERCE ST", "addr:postcode": "70775", "addr:state": "LA", "amenity": "post_box", "brand": "United States Postal Service", "brand:wikidata": "Q668687", "collection_times": "Mo-Fr 16:00; Sa 11:00", "name": "USPS COLLECTION BOX - BLUE BOX", "note": "ON 12/24 AND 12/31, THIS BOX MAY BE COLLECTED AS EARLY AS 12 NOON.", "nsi_id": "unitedstatespostalservice-a77078", "operator": "United States Postal Service", "operator:short": "USPS", "operator:type": "public", "operator:wikidata": "Q668687", "ref": "7077500008"}, "type": "Feature"}
{"dataset_attributes": {"@spider": "usps_collection_boxes", "spider:collection_time": "2023-09-16T08:22:24.198600"}, "geometry": {"coordinates": [-91.3733319619, 30.7790519953], "type": "Point"}, "id": "j6wLVi0rJUAuKEF4_YkwJi_UbnA=", "properties": {"@spider": "usps_collection_boxes", "addr:city": "ST FRANCISVILLE", "addr:country": "US", "addr:full": "5613 COMMERCE ST", "addr:postcode": "70775", "addr:state": "LA", "amenity": "post_box", "brand": "United States Postal Service", "brand:wikidata": "Q668687", "collection_times": "Mo-Fr 16:30; Sa 11:00", "name": "USPS COLLECTION BOX - PO LOBBY", "note": "ON 12/24 AND 12/31, THIS BOX MAY BE COLLECTED AS EARLY AS 12 NOON.", "nsi_id": "unitedstatespostalservice-a77078", "operator": "United States Postal Service", "operator:short": "USPS", "operator:type": "public", "operator:wikidata": "Q668687", "ref": "7077500009"}, "type": "Feature"}
{"dataset_attributes": {"@spider": "usps_collection_boxes", "spider:collection_time": "2023-09-16T08:22:24.198600"}, "geometry": {"coordinates": [-91.0953319776, 30.2576000105], "type": "Point"}, "id": "LDt_fW4HRv4QAmfPKrF4zAQ3i0k=", "properties": {"@spider": "usps_collection_boxes", "addr:city": "SAINT GABRIEL", "addr:country": "US", "addr:full": "6080 HIGHWAY 74", "addr:postcode": "70776", "addr:state": "LA", "amenity": "post_box", "brand": "United States Postal Service", "brand:wikidata": "Q668687", "collection_times": "Mo-Fr 16:00; Sa 11:00", "name": "USPS COLLECTION BOX - PO LOBBY", "note": "ON 12/24 AND 12/31, THIS BOX MAY BE COLLECTED AS EARLY AS 12 NOON.", "nsi_id": "unitedstatespostalservice-a77078", "operator": "United States Postal Service", "operator:short": "USPS", "operator:type": "public", "operator:wikidata": "Q668687", "ref": "7077600001"}, "type": "Feature"}
{"dataset_attributes": {"@spider": "usps_collection_boxes", "spider:collection_time": "2023-09-16T08:22:24.198600"}, "geometry": {"coordinates": [-91.0953319776, 30.2576000105], "type": "Point"}, "id": "rv69xMvdTKyPAGpC_RnwrQrIPnc=", "properties": {"@spider": "usps_collection_boxes", "addr:city": "SAINT GABRIEL", "addr:country": "US", "addr:full": "6080 HIGHWAY 74", "addr:postcode": "70776", "addr:state": "LA", "amenity": "post_box", "brand": "United States Postal Service", "brand:wikidata": "Q668687", "collection_times": "Mo-Fr 15:30; Sa 10:30", "name": "USPS COLLECTION BOX - BLUE BOX", "note": "ON 12/24 AND 12/31, THIS BOX MAY BE COLLECTED AS EARLY AS 12 NOON.", "nsi_id": "unitedstatespostalservice-a77078", "operator": "United States Postal Service", "operator:short": "USPS", "operator:type": "public", "operator:wikidata": "Q668687", "ref": "7077600002"}, "type": "Feature"}
{"dataset_attributes": {"@spider": "usps_collection_boxes", "spider:collection_time": "2023-09-16T08:22:24.198600"}, "geometry": {"coordinates": [-91.0953319776, 30.2576000105], "type": "Point"}, "id": "iIrLxmnriIn-OBy2KQr3NQ41pfM=", "properties": {"@spider": "usps_collection_boxes", "addr:city": "SAINT GABRIEL", "addr:country": "US", "addr:full": "6080 HIGHWAY 74", "addr:postcode": "70776", "addr:state": "LA", "amenity": "post_box", "brand": "United States Postal Service", "brand:wikidata": "Q668687", "collection_times": "Mo-Fr 16:00; Sa 11:00", "name": "USPS COLLECTION BOX - PO LOBBY", "note": "ON 12/24 AND 12/31, THIS BOX MAY BE COLLECTED AS EARLY AS 12 NOON.", "nsi_id": "unitedstatespostalservice-a77078", "operator": "United States Postal Service", "operator:short": "USPS", "operator:type": "public", "operator:wikidata": "Q668687", "ref": "7077600004"}, "type": "Feature"}
{"dataset_attributes": {"@spider": "usps_collection_boxes", "spider:collection_time": "2023-09-16T08:22:24.198600"}, "geometry": {"coordinates": [-91.095331978, 30.25760001], "type": "Point"}, "id": "rPxHdSmimGNf07CjP4RNDFfkbDE=", "properties": {"@spider": "usps_collection_boxes", "addr:city": "SAINT GABRIEL", "addr:country": "US", "addr:full": "6080 HIGHWAY 74", "addr:postcode": "70776", "addr:state": "LA", "amenity": "post_box", "brand": "United States Postal Service", "brand:wikidata": "Q668687", "collection_times": "Mo-Fr 16:30; Sa 11:00", "name": "USPS COLLECTION BOX - PO LOBBY", "note": "ON 12/24 AND 12/31, THIS BOX MAY BE COLLECTED AS EARLY AS 12 NOON.", "nsi_id": "unitedstatespostalservice-a77078", "operator": "United States Postal Service", "operator:short": "USPS", "operator:type": "public", "operator:wikidata": "Q668687", "ref": "7077600006"}, "type": "Feature"}
{"dataset_attributes": {"@spider": "usps_collection_boxes", "spider:collection_time": "2023-09-16T08:22:24.198600"}, "geometry": {"coordinates": [-91.1481300048, 30.7177379964], "type": "Point"}, "id": "Jo0MruNDCOAL0fvcV7kr-mMzfL8=", "properties": {"@spider": "usps_collection_boxes", "addr:city": "SLAUGHTER", "addr:country": "US", "addr:full": "3147 CHURCH ST", "addr:postcode": "70777", "addr:state": "LA", "amenity": "post_box", "brand": "United States Postal Service", "brand:wikidata": "Q668687", "collection_times": "Mo-Fr 15:30; Sa 09:30", "name": "USPS COLLECTION BOX - BLUE BOX", "note": "ON 12/24 AND 12/31, THIS BOX MAY BE COLLECTED AS EARLY AS 12 NOON.", "nsi_id": "unitedstatespostalservice-a77078", "operator": "United States Postal Service", "operator:short": "USPS", "operator:type": "public", "operator:wikidata": "Q668687", "ref": "7077700003"}, "type": "Feature"}
{"dataset_attributes": {"@spider": "usps_collection_boxes", "spider:collection_time": "2023-09-16T08:22:24.198600"}, "geometry": {"coordinates": [-91.1481300048, 30.7177379964], "type": "Point"}, "id": "ZUxGqRGB_oSEIG3LSadwi1WEaFM=", "properties": {"@spider": "usps_collection_boxes", "addr:city": "SLAUGHTER", "addr:country": "US", "addr:full": "3147 CHURCH ST", "addr:postcode": "70777", "addr:state": "LA", "amenity": "post_box", "brand": "United States Postal Service", "brand:wikidata": "Q668687", "collection_times": "Mo-Fr 15:30; Sa 09:30", "name": "USPS COLLECTION BOX - PO LOBBY", "note": "ON 12/24 AND 12/31, THIS BOX MAY BE COLLECTED AS EARLY AS 12 NOON.", "nsi_id": "unitedstatespostalservice-a77078", "operator": "United States Postal Service", "operator:short": "USPS", "operator:type": "public", "operator:wikidata": "Q668687", "ref": "7077700004"}, "type": "Feature"}
{"dataset_attributes": {"@spider": "usps_collection_boxes", "spider:collection_time": "2023-09-16T08:22:24.198600"}, "geometry": {"coordinates": [-91.1481300048, 30.7177379964], "type": "Point"}, "id": "sf3U8kv5WW9o-YCWjYgdG0DCAD8=", "properties": {"@spider": "usps_collection_boxes", "addr:city": "SLAUGHTER", "addr:country": "US", "addr:full": "3147 CHURCH ST", "addr:postcode": "70777", "addr:state": "LA", "amenity": "post_box", "brand": "United States Postal Service", "brand:wikidata": "Q668687", "collection_times": "Mo-Fr 15:30; Sa 10:30", "name": "USPS COLLECTION BOX - PO LOBBY", "note": "ON 12/24 AND 12/31, THIS BOX MAY BE COLLECTED AS EARLY AS 12 NOON.", "nsi_id": "unitedstatespostalservice-a77078", "operator": "United States Postal Service", "operator:short": "USPS", "operator:type": "public", "operator:wikidata": "Q668687", "ref": "7077700005"}, "type": "Feature"}
{"dataset_attributes": {"@spider": "usps_collection_boxes", "spider:collection_time": "2023-09-16T08:22:24.198600"}, "geometry": {"coordinates": [-90.8586110225, 30.187970996], "type": "Point"}, "id": "byX9M4Gcjk92tCdP_kQdrUCuAOY=", "properties": {"@spider": "usps_collection_boxes", "addr:city": "SORRENTO", "addr:country": "US", "addr:full": "8213 JOHN LEBLANC BLVD", "addr:postcode": "70778", "addr:state": "LA", "amenity": "post_box", "brand": "United States Postal Service", "brand:wikidata": "Q668687", "collection_times": "Mo-Fr 16:00; Sa 10:45", "name": "USPS COLLECTION BOX - PO LOBBY", "note": "ON 12/24 AND 12/31, THIS BOX MAY BE COLLECTED AS EARLY AS 12 NOON.", "nsi_id": "unitedstatespostalservice-a77078", "operator": "United States Postal Service", "operator:short": "USPS", "operator:type": "public", "operator:wikidata": "Q668687", "ref": "7077800001"}, "type": "Feature"}
{"dataset_attributes": {"@spider": "usps_collection_boxes", "spider:collection_time": "2023-09-16T08:22:24.198600"}, "geometry": {"coordinates": [-90.858611023, 30.187970996], "type": "Point"}, "id": "eHcnkZbeLu-bm63rVompXccEku4=", "properties": {"@spider": "usps_collection_boxes", "addr:city": "SORRENTO", "addr:country": "US", "addr:full": "8213 JOHN LEBLANC BLVD", "addr:postcode": "70778", "addr:state": "LA", "amenity": "post_box", "brand": "United States Postal Service", "brand:wikidata": "Q668687", "collection_times": "Mo-Fr 16:00; Sa 10:45", "name": "USPS COLLECTION BOX - BLUE BOX", "note": "ON 12/24 AND 12/31, THIS BOX MAY BE COLLECTED AS EARLY AS 12 NOON.", "nsi_id": "unitedstatespostalservice-a77078", "operator": "United States Postal Service", "operator:short": "USPS", "operator:type": "public", "operator:wikidata": "Q668687", "ref": "7077800002"}, "type": "Feature"}
{"dataset_attributes": {"@spider": "usps_collection_boxes", "spider:collection_time": "2023-09-16T08:22:24.198600"}, "geometry": {"coordinates": [-90.8586110225, 30.187970996], "type": "Point"}, "id": "Kw77vx1uwdX0OtSL9NiM4lo1kbI=", "properties": {"@spider": "usps_collection_boxes", "addr:city": "SORRENTO", "addr:country": "US", "addr:full": "8213 JOHN LEBLANC BLVD", "addr:postcode": "70778", "addr:state": "LA", "amenity": "post_box", "brand": "United States Postal Service", "brand:wikidata": "Q668687", "collection_times": "Mo-Fr 16:00; Sa 11:00", "name": "USPS COLLECTION BOX - PO LOBBY", "note": "ON 12/24 AND 12/31, THIS BOX MAY BE COLLECTED AS EARLY AS 12 NOON.", "nsi_id": "unitedstatespostalservice-a77078", "operator": "United States Postal Service", "operator:short": "USPS", "operator:type": "public", "operator:wikidata": "Q668687", "ref": "7077800003"}, "type": "Feature"}
{"dataset_attributes": {"@spider": "usps_collection_boxes", "spider:collection_time": "2023-09-16T08:22:24.198600"}, "geometry": {"coordinates": [-91.128596353, 30.279358008], "type": "Point"}, "id": "T8QSuGnkD6s96zfwsw0pgHZhiSs=", "properties": {"@spider": "usps_collection_boxes", "addr:city": "SUNSHINE", "addr:country": "US", "addr:full": "2135 BESSON LN", "addr:postcode": "70780", "addr:state": "LA", "amenity": "post_box", "brand": "United States Postal Service", "brand:wikidata": "Q668687", "collection_times": "Mo-Fr 12:00; Sa 11:00", "name": "USPS COLLECTION BOX - PO LOBBY", "nsi_id": "unitedstatespostalservice-a77078", "operator": "United States Postal Service", "operator:short": "USPS", "operator:type": "public", "operator:wikidata": "Q668687", "ref": "7078000001"}, "type": "Feature"}
{"dataset_attributes": {"@spider": "usps_collection_boxes", "spider:collection_time": "2023-09-16T08:22:24.198600"}, "geometry": {"coordinates": [-91.1285963532, 30.2793580082], "type": "Point"}, "id": "VvnKliw343XY26ESIlkgnEEwH4I=", "properties": {"@spider": "usps_collection_boxes", "addr:city": "SUNSHINE", "addr:country": "US", "addr:full": "2135 BESSON LN", "addr:postcode": "70780", "addr:state": "LA", "amenity": "post_box", "brand": "United States Postal Service", "brand:wikidata": "Q668687", "collection_times": "Mo-Fr 12:00; Sa 11:00", "name": "USPS COLLECTION BOX - BLUE BOX", "nsi_id": "unitedstatespostalservice-a77078", "operator": "United States Postal Service", "operator:short": "USPS", "operator:type": "public", "operator:wikidata": "Q668687", "ref": "7078000002"}, "type": "Feature"}
{"dataset_attributes": {"@spider": "usps_collection_boxes", "spider:collection_time": "2023-09-16T08:22:24.198600"}, "geometry": {"coordinates": [-91.128596353, 30.279358008], "type": "Point"}, "id": "s2xuQ7v21QF1a0bL_SwBMwzA1FI=", "properties": {"@spider": "usps_collection_boxes", "addr:city": "SUNSHINE", "addr:country": "US", "addr:full": "2135 BESSON LN", "addr:postcode": "70780", "addr:state": "LA", "amenity": "post_box", "brand": "United States Postal Service", "brand:wikidata": "Q668687", "collection_times": "Mo-Fr 12:00; Sa 11:30", "name": "USPS COLLECTION BOX - PO LOBBY", "nsi_id": "unitedstatespostalservice-a77078", "operator": "United States Postal Service", "operator:short": "USPS", "operator:type": "public", "operator:wikidata": "Q668687", "ref": "7078000003"}, "type": "Feature"}
{"dataset_attributes": {"@spider": "usps_collection_boxes", "spider:collection_time": "2023-09-16T08:22:24.198600"}, "geometry": {"coordinates": [-91.544978, 30.9318799902], "type": "Point"}, "id": "pHLnmnTzZ6pVoargMQgfwgRQUFA=", "properties": {"@spider": "usps_collection_boxes", "addr:city": "TUNICA", "addr:country": "US", "addr:full": "16630 TUNICA TRCE", "addr:postcode": "70782", "addr:state": "LA", "amenity": "post_box", "brand": "United States Postal Service", "brand:wikidata": "Q668687", "collection_times": "Mo-Fr 16:00; Sa 11:00", "name": "USPS COLLECTION BOX - BLUE BOX", "note": "ON 12/24 AND 12/31, THIS BOX MAY BE COLLECTED AS EARLY AS 12 NOON.", "nsi_id": "unitedstatespostalservice-a77078", "operator": "United States Postal Service", "operator:short": "USPS", "operator:type": "public", "operator:wikidata": "Q668687", "ref": "7078200002"}, "type": "Feature"}
{"dataset_attributes": {"@spider": "usps_collection_boxes", "spider:collection_time": "2023-09-16T08:22:24.198600"}, "geometry": {"coordinates": [-91.544978, 30.9318799902], "type": "Point"}, "id": "yvyL4km3mGCCY9E2kuoEE56moHA=", "properties": {"@spider": "usps_collection_boxes", "addr:city": "TUNICA", "addr:country": "US", "addr:full": "16630 TUNICA TRCE", "addr:postcode": "70782", "addr:state": "LA", "amenity": "post_box", "brand": "United States Postal Service", "brand:wikidata": "Q668687", "collection_times": "Mo-Fr 16:00; Sa 11:30", "name": "USPS COLLECTION BOX - PO LOBBY", "note": "ON 12/24 AND 12/31, THIS BOX MAY BE COLLECTED AS EARLY AS 12 NOON.", "nsi_id": "unitedstatespostalservice-a77078", "operator": "United States Postal Service", "operator:short": "USPS", "operator:type": "public", "operator:wikidata": "Q668687", "ref": "7078200003"}, "type": "Feature"}
{"dataset_attributes": {"@spider": "usps_collection_boxes", "spider:collection_time": "2023-09-16T08:22:24.198600"}, "geometry": {"coordinates": [-91.544978, 30.93187999], "type": "Point"}, "id": "l1eaBm9iL-auBabC9eRie8inOqY=", "properties": {"@spider": "usps_collection_boxes", "addr:city": "TUNICA", "addr:country": "US", "addr:full": "16630 TUNICA TRCE", "addr:postcode": "70782", "addr:state": "LA", "amenity": "post_box", "brand": "United States Postal Service", "brand:wikidata": "Q668687", "collection_times": "Mo-Fr 16:00; Sa 11:00", "name": "USPS COLLECTION BOX - PO LOBBY", "note": "ON 12/24 AND 12/31, THIS BOX MAY BE COLLECTED AS EARLY AS 12 NOON.", "nsi_id": "unitedstatespostalservice-a77078", "operator": "United States Postal Service", "operator:short": "USPS", "operator:type": "public", "operator:wikidata": "Q668687", "ref": "7078200004"}, "type": "Feature"}
{"dataset_attributes": {"@spider": "usps_collection_boxes", "spider:collection_time": "2023-09-16T08:22:24.198600"}, "geometry": {"coordinates": [-91.406936018, 30.685489001], "type": "Point"}, "id": "emCCh--h_YIqBeQifXOUXKo4r8g=", "properties": {"@spider": "usps_collection_boxes", "addr:city": "VENTRESS", "addr:country": "US", "addr:full": "7741 LEGION RD", "addr:postcode": "70783", "addr:state": "LA", "amenity": "post_box", "brand": "United States Postal Service", "brand:wikidata": "Q668687", "collection_times": "Mo-Fr 15:30; Sa 11:30", "name": "USPS COLLECTION BOX - BLUE BOX", "note": "ON 12/24 AND 12/31, THIS BOX MAY BE COLLECTED AS EARLY AS 12 NOON.", "nsi_id": "unitedstatespostalservice-a77078", "operator": "United States Postal Service", "operator:short": "USPS", "operator:type": "public", "operator:wikidata": "Q668687", "ref": "7078300002"}, "type": "Feature"}
{"dataset_attributes": {"@spider": "usps_collection_boxes", "spider:collection_time": "2023-09-16T08:22:24.198600"}, "geometry": {"coordinates": [-91.406936018, 30.685489001], "type": "Point"}, "id": "zCa-cAuKtW5M4_St51ZrGXCLzXw=", "properties": {"@spider": "usps_collection_boxes", "addr:city": "VENTRESS", "addr:country": "US", "addr:full": "7741 LEGION RD", "addr:postcode": "70783", "addr:state": "LA", "amenity": "post_box", "brand": "United States Postal Service", "brand:wikidata": "Q668687", "collection_times": "Mo-Fr 15:30; Sa 11:30", "name": "USPS COLLECTION BOX - PO LOBBY", "note": "ON 12/24 AND 12/31, THIS BOX MAY BE COLLECTED AS EARLY AS 12 NOON.", "nsi_id": "unitedstatespostalservice-a77078", "operator": "United States Postal Service", "operator:short": "USPS", "operator:type": "public", "operator:wikidata": "Q668687", "ref": "7078300003"}, "type": "Feature"}
{"dataset_attributes": {"@spider": "usps_collection_boxes", "spider:collection_time": "2023-09-16T08:22:24.198600"}, "geometry": {"coordinates": [-91.351938071, 30.887675642], "type": "Point"}, "id": "Z6fpjZ9-IQJxtL3MqGsH99nA9R4=", "properties": {"@spider": "usps_collection_boxes", "addr:city": "WAKEFIELD", "addr:country": "US", "addr:full": "11206 U S HIGHWAY 61", "addr:postcode": "70784", "addr:state": "LA", "amenity": "post_box", "brand": "United States Postal Service", "brand:wikidata": "Q668687", "collection_times": "Mo-Fr 16:45; Sa 10:45", "name": "USPS COLLECTION BOX - BLUE BOX", "note": "ON 12/24 AND 12/31, THIS BOX MAY BE COLLECTED AS EARLY AS 12 NOON.", "nsi_id": "unitedstatespostalservice-a77078", "operator": "United States Postal Service", "operator:short": "USPS", "operator:type": "public", "operator:wikidata": "Q668687", "ref": "7078400001"}, "type": "Feature"}
{"dataset_attributes": {"@spider": "usps_collection_boxes", "spider:collection_time": "2023-09-16T08:22:24.198600"}, "geometry": {"coordinates": [-91.3519380712, 30.8876756422], "type": "Point"}, "id": "VZ60DBBmenU3W-OTCHl3a-tgXA4=", "properties": {"@spider": "usps_collection_boxes", "addr:city": "WAKEFIELD", "addr:country": "US", "addr:full": "11206 U S HIGHWAY 61", "addr:postcode": "70784", "addr:state": "LA", "amenity": "post_box", "brand": "United States Postal Service", "brand:wikidata": "Q668687", "collection_times": "Mo-Fr 16:45; Sa 10:45", "name": "USPS COLLECTION BOX - PO LOBBY", "note": "ON 12/24 AND 12/31, THIS BOX MAY BE COLLECTED AS EARLY AS 12 NOON.", "nsi_id": "unitedstatespostalservice-a77078", "operator": "United States Postal Service", "operator:short": "USPS", "operator:type": "public", "operator:wikidata": "Q668687", "ref": "7078400002"}, "type": "Feature"}
{"dataset_attributes": {"@spider": "usps_collection_boxes", "spider:collection_time": "2023-09-16T08:22:24.198600"}, "geometry": {"coordinates": [-91.3519380712, 30.8876756422], "type": "Point"}, "id": "0KzQBz03FBn6m5yrY5v1WCHKIyg=", "properties": {"@spider": "usps_collection_boxes", "addr:city": "WAKEFIELD", "addr:country": "US", "addr:full": "11206 U S HIGHWAY 61", "addr:postcode": "70784", "addr:state": "LA", "amenity": "post_box", "brand": "United States Postal Service", "brand:wikidata": "Q668687", "collection_times": "Mo-Fr 16:45; Sa 12:00", "name": "USPS COLLECTION BOX - PO LOBBY", "note": "ON 12/24 AND 12/31, THIS BOX MAY BE COLLECTED AS EARLY AS 12 NOON.", "nsi_id": "unitedstatespostalservice-a77078", "operator": "United States Postal Service", "operator:short": "USPS", "operator:type": "public", "operator:wikidata": "Q668687", "ref": "7078400003"}, "type": "Feature"}
{"dataset_attributes": {"@spider": "usps_collection_boxes", "spider:collection_time": "2023-09-16T08:22:24.198600"}, "geometry": {"coordinates": [-90.866110982, 30.48826701], "type": "Point"}, "id": "BrYv3eCKdjk5Y9PPWu3Yc3DjdPM=", "properties": {"@spider": "usps_collection_boxes", "addr:city": "WALKER", "addr:country": "US", "addr:full": "10053 FLORIDA BLVD", "addr:postcode": "70785", "addr:state": "LA", "amenity": "post_box", "brand": "United States Postal Service", "brand:wikidata": "Q668687", "collection_times": "Mo-Fr 16:30; Sa 12:00", "name": "USPS COLLECTION BOX - PO LOBBY", "note": "ON 12/24 AND 12/31, THIS BOX MAY BE COLLECTED AS EARLY AS 12 NOON.", "nsi_id": "unitedstatespostalservice-a77078", "operator": "United States Postal Service", "operator:short": "USPS", "operator:type": "public", "operator:wikidata": "Q668687", "ref": "7078500001"}, "type": "Feature"}
{"dataset_attributes": {"@spider": "usps_collection_boxes", "spider:collection_time": "2023-09-16T08:22:24.198600"}, "geometry": {"coordinates": [-90.8661109818, 30.4882670103], "type": "Point"}, "id": "ART0_v49H54g8R0CsYW54A0g50M=", "properties": {"@spider": "usps_collection_boxes", "addr:city": "WALKER", "addr:country": "US", "addr:full": "10053 FLORIDA BLVD", "addr:postcode": "70785", "addr:state": "LA", "amenity": "post_box", "brand": "United States Postal Service", "brand:wikidata": "Q668687", "collection_times": "Mo-Fr 16:30; Sa 12:00", "name": "USPS COLLECTION BOX - BLUE BOX", "note": "ON 12/24 AND 12/31, THIS BOX MAY BE COLLECTED AS EARLY AS 12 NOON.", "nsi_id": "unitedstatespostalservice-a77078", "operator": "United States Postal Service", "operator:short": "USPS", "operator:type": "public", "operator:wikidata": "Q668687", "ref": "7078500004"}, "type": "Feature"}
{"dataset_attributes": {"@spider": "usps_collection_boxes", "spider:collection_time": "2023-09-16T08:22:24.198600"}, "geometry": {"coordinates": [-90.866110982, 30.48826701], "type": "Point"}, "id": "u50C21JZYDjJHxdgfA0YtoAAA0I=", "properties": {"@spider": "usps_collection_boxes", "addr:city": "WALKER", "addr:country": "US", "addr:full": "10053 FLORIDA BLVD", "addr:postcode": "70785", "addr:state": "LA", "amenity": "post_box", "brand": "United States Postal Service", "brand:wikidata": "Q668687", "collection_times": "Mo-Fr 16:30; Sa 12:00", "name": "USPS COLLECTION BOX - BLUE BOX", "note": "ON 12/24 AND 12/31, THIS BOX MAY BE COLLECTED AS EARLY AS 12 NOON.", "nsi_id": "unitedstatespostalservice-a77078", "operator": "United States Postal Service", "operator:short": "USPS", "operator:type": "public", "operator:wikidata": "Q668687", "ref": "7078500005"}, "type": "Feature"}
{"dataset_attributes": {"@spider": "usps_collection_boxes", "spider:collection_time": "2023-09-16T08:22:24.198600"}, "geometry": {"coordinates": [-90.866110982, 30.48826701], "type": "Point"}, "id": "yD-LH7hYGlywCEa--2r9Z3WLd4Y=", "properties": {"@spider": "usps_collection_boxes", "addr:city": "WALKER", "addr:country": "US", "addr:full": "10053 FLORIDA BLVD", "addr:postcode": "70785", "addr:state": "LA", "amenity": "post_box", "brand": "United States Postal Service", "brand:wikidata": "Q668687", "collection_times": "Mo-Fr 16:30; Sa 12:00", "name": "USPS COLLECTION BOX - PO LOBBY", "note": "ON 12/24 AND 12/31, THIS BOX MAY BE COLLECTED AS EARLY AS 12 NOON.", "nsi_id": "unitedstatespostalservice-a77078", "operator": "United States Postal Service", "operator:short": "USPS", "operator:type": "public", "operator:wikidata": "Q668687", "ref": "7078500007"}, "type": "Feature"}
{"dataset_attributes": {"@spider": "usps_collection_boxes", "spider:collection_time": "2023-09-16T08:22:24.198600"}, "geometry": {"coordinates": [-90.8661109818, 30.4882670103], "type": "Point"}, "id": "v1gNyWDC2Ghteixjm-7wlCFru-c=", "properties": {"@spider": "usps_collection_boxes", "addr:city": "WALKER", "addr:country": "US", "addr:full": "10053 FLORIDA BLVD", "addr:postcode": "70785", "addr:state": "LA", "amenity": "post_box", "brand": "United States Postal Service", "brand:wikidata": "Q668687", "collection_times": "Mo-Fr 16:30; Sa 12:00", "name": "USPS COLLECTION BOX - PO LOBBY", "note": "ON 12/24 AND 12/31, THIS BOX MAY BE COLLECTED AS EARLY AS 12 NOON.", "nsi_id": "unitedstatespostalservice-a77078", "operator": "United States Postal Service", "operator:short": "USPS", "operator:type": "public", "operator:wikidata": "Q668687", "ref": "7078500009"}, "type": "Feature"}
{"dataset_attributes": {"@spider": "usps_collection_boxes", "spider:collection_time": "2023-09-16T08:22:24.198600"}, "geometry": {"coordinates": [-90.954643996, 30.572171998], "type": "Point"}, "id": "N6MyBw192VBKeH4Gk-pHyjiPXxY=", "properties": {"@spider": "usps_collection_boxes", "addr:city": "WATSON", "addr:country": "US", "addr:full": "8040 WATSON CIR", "addr:postcode": "70786", "addr:state": "LA", "amenity": "post_box", "brand": "United States Postal Service", "brand:wikidata": "Q668687", "collection_times": "Mo-Fr 16:15; Sa 10:30", "name": "USPS COLLECTION BOX - PO LOBBY", "note": "ON 12/24 AND 12/31, THIS BOX MAY BE COLLECTED AS EARLY AS 12 NOON.", "nsi_id": "unitedstatespostalservice-a77078", "operator": "United States Postal Service", "operator:short": "USPS", "operator:type": "public", "operator:wikidata": "Q668687", "ref": "7078600001"}, "type": "Feature"}
{"dataset_attributes": {"@spider": "usps_collection_boxes", "spider:collection_time": "2023-09-16T08:22:24.198600"}, "geometry": {"coordinates": [-90.9546439959, 30.5721719985], "type": "Point"}, "id": "xtRR9gogZaMck-9VT8_xpi3HPGI=", "properties": {"@spider": "usps_collection_boxes", "addr:city": "WATSON", "addr:country": "US", "addr:full": "8040 WATSON CIR", "addr:postcode": "70786", "addr:state": "LA", "amenity": "post_box", "brand": "United States Postal Service", "brand:wikidata": "Q668687", "collection_times": "Mo-Fr 16:15; Sa 10:30", "name": "USPS COLLECTION BOX - BLUE BOX", "note": "ON 12/24 AND 12/31, THIS BOX MAY BE COLLECTED AS EARLY AS 12 NOON.", "nsi_id": "unitedstatespostalservice-a77078", "operator": "United States Postal Service", "operator:short": "USPS", "operator:type": "public", "operator:wikidata": "Q668687", "ref": "7078600002"}, "type": "Feature"}
{"dataset_attributes": {"@spider": "usps_collection_boxes", "spider:collection_time": "2023-09-16T08:22:24.198600"}, "geometry": {"coordinates": [-90.954643996, 30.572171998], "type": "Point"}, "id": "ZebiOlvJ6PR4VIaGUjeZaoCZZok=", "properties": {"@spider": "usps_collection_boxes", "addr:city": "WATSON", "addr:country": "US", "addr:full": "8040 WATSON CIR", "addr:postcode": "70786", "addr:state": "LA", "amenity": "post_box", "brand": "United States Postal Service", "brand:wikidata": "Q668687", "collection_times": "Mo-Fr 16:15; Sa 10:30", "name": "USPS COLLECTION BOX - BLUE BOX", "note": "ON 12/24 AND 12/31, THIS BOX MAY BE COLLECTED AS EARLY AS 12 NOON.", "nsi_id": "unitedstatespostalservice-a77078", "operator": "United States Postal Service", "operator:short": "USPS", "operator:type": "public", "operator:wikidata": "Q668687", "ref": "7078600003"}, "type": "Feature"}
{"dataset_attributes": {"@spider": "usps_collection_boxes", "spider:collection_time": "2023-09-16T08:22:24.198600"}, "geometry": {"coordinates": [-90.954643996, 30.572171998], "type": "Point"}, "id": "eAXwad0ZdJvClhoaiVFT9U5IvM4=", "properties": {"@spider": "usps_collection_boxes", "addr:city": "WATSON", "addr:country": "US", "addr:full": "8040 WATSON CIR", "addr:postcode": "70786", "addr:state": "LA", "amenity": "post_box", "brand": "United States Postal Service", "brand:wikidata": "Q668687", "collection_times": "Mo-Fr 16:15; Sa 10:30", "name": "USPS COLLECTION BOX - PO LOBBY", "note": "ON 12/24 AND 12/31, THIS BOX MAY BE COLLECTED AS EARLY AS 12 NOON.", "nsi_id": "unitedstatespostalservice-a77078", "operator": "United States Postal Service", "operator:short": "USPS", "operator:type": "public", "operator:wikidata": "Q668687", "ref": "7078600004"}, "type": "Feature"}
{"dataset_attributes": {"@spider": "usps_collection_boxes", "spider:collection_time": "2023-09-16T08:22:24.198600"}, "geometry": {"coordinates": [-91.4674339963, 30.9600930153], "type": "Point"}, "id": "gF8BQ18MrNsO_q5hNqkDijnyVxE=", "properties": {"@spider": "usps_collection_boxes", "addr:city": "WEYANOKE", "addr:country": "US", "addr:full": "6220 OUIDA IRONDALE RD", "addr:postcode": "70787", "addr:state": "LA", "amenity": "post_box", "brand": "United States Postal Service", "brand:wikidata": "Q668687", "collection_times": "Mo-Fr 16:45; Sa 11:30", "name": "USPS COLLECTION BOX - BLUE BOX", "note": "ON 12/24 AND 12/31, THIS BOX MAY BE COLLECTED AS EARLY AS 12 NOON.", "nsi_id": "unitedstatespostalservice-a77078", "operator": "United States Postal Service", "operator:short": "USPS", "operator:type": "public", "operator:wikidata": "Q668687", "ref": "7078700002"}, "type": "Feature"}
{"dataset_attributes": {"@spider": "usps_collection_boxes", "spider:collection_time": "2023-09-16T08:22:24.198600"}, "geometry": {"coordinates": [-91.467433996, 30.960093015], "type": "Point"}, "id": "xhSl37LAtal1XW03WoV7vSUOYz0=", "properties": {"@spider": "usps_collection_boxes", "addr:city": "WEYANOKE", "addr:country": "US", "addr:full": "6220 OUIDA IRONDALE RD", "addr:postcode": "70787", "addr:state": "LA", "amenity": "post_box", "brand": "United States Postal Service", "brand:wikidata": "Q668687", "collection_times": "Mo-Fr 17:00; Sa 12:00", "name": "USPS COLLECTION BOX - PO LOBBY", "note": "ON 12/24 AND 12/31, THIS BOX MAY BE COLLECTED AS EARLY AS 12 NOON.", "nsi_id": "unitedstatespostalservice-a77078", "operator": "United States Postal Service", "operator:short": "USPS", "operator:type": "public", "operator:wikidata": "Q668687", "ref": "7078700003"}, "type": "Feature"}
{"dataset_attributes": {"@spider": "usps_collection_boxes", "spider:collection_time": "2023-09-16T08:22:24.198600"}, "geometry": {"coordinates": [-91.148198988, 30.170838009], "type": "Point"}, "id": "H5jTNRzf_frXcZBYDUmyfPkquqw=", "properties": {"@spider": "usps_collection_boxes", "addr:city": "WHITE CASTLE", "addr:country": "US", "addr:full": "32495 LEONA AVE", "addr:postcode": "70788", "addr:state": "LA", "amenity": "post_box", "brand": "United States Postal Service", "brand:wikidata": "Q668687", "collection_times": "Mo-Fr 16:00; Sa 10:30", "name": "USPS COLLECTION BOX - PO LOBBY", "note": "ON 12/24 AND 12/31, THIS BOX MAY BE COLLECTED AS EARLY AS 12 NOON.", "nsi_id": "unitedstatespostalservice-a77078", "operator": "United States Postal Service", "operator:short": "USPS", "operator:type": "public", "operator:wikidata": "Q668687", "ref": "7078800001"}, "type": "Feature"}
{"dataset_attributes": {"@spider": "usps_collection_boxes", "spider:collection_time": "2023-09-16T08:22:24.198600"}, "geometry": {"coordinates": [-91.148198988, 30.170838009], "type": "Point"}, "id": "TQAuUuvNyN-g7HaIoHzeacAzfIE=", "properties": {"@spider": "usps_collection_boxes", "addr:city": "WHITE CASTLE", "addr:country": "US", "addr:full": "32495 LEONA AVE", "addr:postcode": "70788", "addr:state": "LA", "amenity": "post_box", "brand": "United States Postal Service", "brand:wikidata": "Q668687", "collection_times": "Mo-Fr 15:45; Sa 10:30", "name": "USPS COLLECTION BOX - BLUE BOX", "note": "ON 12/24 AND 12/31, THIS BOX MAY BE COLLECTED AS EARLY AS 12 NOON.", "nsi_id": "unitedstatespostalservice-a77078", "operator": "United States Postal Service", "operator:short": "USPS", "operator:type": "public", "operator:wikidata": "Q668687", "ref": "7078800002"}, "type": "Feature"}
{"dataset_attributes": {"@spider": "usps_collection_boxes", "spider:collection_time": "2023-09-16T08:22:24.198600"}, "geometry": {"coordinates": [-91.148198988, 30.170838009], "type": "Point"}, "id": "_0vbYFxoNF485_aRXAWaBKC6LOU=", "properties": {"@spider": "usps_collection_boxes", "addr:city": "WHITE CASTLE", "addr:country": "US", "addr:full": "32495 LEONA AVE", "addr:postcode": "70788", "addr:state": "LA", "amenity": "post_box", "brand": "United States Postal Service", "brand:wikidata": "Q668687", "collection_times": "Mo-Fr 16:00; Sa 10:30", "name": "USPS COLLECTION BOX - PO LOBBY", "note": "ON 12/24 AND 12/31, THIS BOX MAY BE COLLECTED AS EARLY AS 12 NOON.", "nsi_id": "unitedstatespostalservice-a77078", "operator": "United States Postal Service", "operator:short": "USPS", "operator:type": "public", "operator:wikidata": "Q668687", "ref": "7078800007"}, "type": "Feature"}
{"dataset_attributes": {"@spider": "usps_collection_boxes", "spider:collection_time": "2023-09-16T08:22:24.198600"}, "geometry": {"coordinates": [-91.114887042, 30.91803602], "type": "Point"}, "id": "N6t8jUtIuVvTao64C0ZAV_2PWWE=", "properties": {"@spider": "usps_collection_boxes", "addr:city": "WILSON", "addr:country": "US", "addr:full": "10029 HIGHWAY 19", "addr:postcode": "70789", "addr:state": "LA", "amenity": "post_box", "brand": "United States Postal Service", "brand:wikidata": "Q668687", "collection_times": "Mo-Fr 15:30; Sa 10:30", "name": "USPS COLLECTION BOX - PO LOBBY", "note": "ON 12/24 AND 12/31, THIS BOX MAY BE COLLECTED AS EARLY AS 12 NOON.", "nsi_id": "unitedstatespostalservice-a77078", "operator": "United States Postal Service", "operator:short": "USPS", "operator:type": "public", "operator:wikidata": "Q668687", "ref": "7078900001"}, "type": "Feature"}
{"dataset_attributes": {"@spider": "usps_collection_boxes", "spider:collection_time": "2023-09-16T08:22:24.198600"}, "geometry": {"coordinates": [-91.1148870416, 30.9180360199], "type": "Point"}, "id": "ddY2kqRNLCjPnrhNlAf-QpE-PhQ=", "properties": {"@spider": "usps_collection_boxes", "addr:city": "WILSON", "addr:country": "US", "addr:full": "10029 HIGHWAY 19", "addr:postcode": "70789", "addr:state": "LA", "amenity": "post_box", "brand": "United States Postal Service", "brand:wikidata": "Q668687", "collection_times": "Mo-Fr 15:30; Sa 10:30", "name": "USPS COLLECTION BOX - BLUE BOX", "note": "ON 12/24 AND 12/31, THIS BOX MAY BE COLLECTED AS EARLY AS 12 NOON.", "nsi_id": "unitedstatespostalservice-a77078", "operator": "United States Postal Service", "operator:short": "USPS", "operator:type": "public", "operator:wikidata": "Q668687", "ref": "7078900002"}, "type": "Feature"}
{"dataset_attributes": {"@spider": "usps_collection_boxes", "spider:collection_time": "2023-09-16T08:22:24.198600"}, "geometry": {"coordinates": [-91.1148870416, 30.9180360199], "type": "Point"}, "id": "Gaf7A3HncFHbQEs-WdNHg6WewOc=", "properties": {"@spider": "usps_collection_boxes", "addr:city": "WILSON", "addr:country": "US", "addr:full": "10029 HIGHWAY 19", "addr:postcode": "70789", "addr:state": "LA", "amenity": "post_box", "brand": "United States Postal Service", "brand:wikidata": "Q668687", "collection_times": "Mo-Fr 16:00; Sa 11:00", "name": "USPS COLLECTION BOX - PO LOBBY", "note": "ON 12/24 AND 12/31, THIS BOX MAY BE COLLECTED AS EARLY AS 12 NOON.", "nsi_id": "unitedstatespostalservice-a77078", "operator": "United States Postal Service", "operator:short": "USPS", "operator:type": "public", "operator:wikidata": "Q668687", "ref": "7078900003"}, "type": "Feature"}
{"dataset_attributes": {"@spider": "usps_collection_boxes", "spider:collection_time": "2023-09-16T08:22:24.198600"}, "geometry": {"coordinates": [-91.158491294, 30.648588762], "type": "Point"}, "id": "NOdqDl59Q37QrvRUPQHyYay9ups=", "properties": {"@spider": "usps_collection_boxes", "addr:city": "ZACHARY", "addr:country": "US", "addr:full": "4336 MAIN ST", "addr:postcode": "70791", "addr:state": "LA", "amenity": "post_box", "brand": "United States Postal Service", "brand:wikidata": "Q668687", "collection_times": "Mo-Sa 14:00", "name": "USPS COLLECTION BOX - BLUE BOX", "note": "ON 12/24 AND 12/31, THIS BOX MAY BE COLLECTED AS EARLY AS 12 NOON.", "nsi_id": "unitedstatespostalservice-a77078", "operator": "United States Postal Service", "operator:short": "USPS", "operator:type": "public", "operator:wikidata": "Q668687", "ref": "7079100007"}, "type": "Feature"}
{"dataset_attributes": {"@spider": "usps_collection_boxes", "spider:collection_time": "2023-09-16T08:22:24.198600"}, "geometry": {"coordinates": [-91.185743156, 30.653635408], "type": "Point"}, "id": "-HjBHA_tfMoA-7tOfKTsSuOyyTs=", "properties": {"@spider": "usps_collection_boxes", "addr:city": "ZACHARY", "addr:country": "US", "addr:full": "1700 CHURCH ST", "addr:postcode": "70791", "addr:state": "LA", "amenity": "post_box", "brand": "United States Postal Service", "brand:wikidata": "Q668687", "collection_times": "Mo-Sa 13:00", "name": "USPS COLLECTION BOX - BLUE BOX", "note": "ON 12/24 AND 12/31, THIS BOX MAY BE COLLECTED AS EARLY AS 12 NOON.", "nsi_id": "unitedstatespostalservice-a77078", "operator": "United States Postal Service", "operator:short": "USPS", "operator:type": "public", "operator:wikidata": "Q668687", "ref": "7079100009"}, "type": "Feature"}
{"dataset_attributes": {"@spider": "usps_collection_boxes", "spider:collection_time": "2023-09-16T08:22:24.198600"}, "geometry": {"coordinates": [-91.140338942, 30.650408054], "type": "Point"}, "id": "JV7McGZst8OXuy6f7ZJyjNhpaPE=", "properties": {"@spider": "usps_collection_boxes", "addr:city": "ZACHARY", "addr:country": "US", "addr:full": "6001 MAIN ST", "addr:postcode": "70791", "addr:state": "LA", "amenity": "post_box", "brand": "United States Postal Service", "brand:wikidata": "Q668687", "collection_times": "Mo-Fr 16:30; Sa 15:00", "name": "USPS COLLECTION BOX - PO LOBBY", "note": "ON 12/24 AND 12/31, THIS BOX MAY BE COLLECTED AS EARLY AS 12 NOON.", "nsi_id": "unitedstatespostalservice-a77078", "operator": "United States Postal Service", "operator:short": "USPS", "operator:type": "public", "operator:wikidata": "Q668687", "ref": "7079100010"}, "type": "Feature"}
{"dataset_attributes": {"@spider": "usps_collection_boxes", "spider:collection_time": "2023-09-16T08:22:24.198600"}, "geometry": {"coordinates": [-91.140338942, 30.6504080541], "type": "Point"}, "id": "db1MfIiSN24apA7usKyL0KqSii0=", "properties": {"@spider": "usps_collection_boxes", "addr:city": "ZACHARY", "addr:country": "US", "addr:full": "6001 MAIN ST", "addr:postcode": "70791", "addr:state": "LA", "amenity": "post_box", "brand": "United States Postal Service", "brand:wikidata": "Q668687", "collection_times": "Mo-Fr 16:30; Sa 15:00", "name": "USPS COLLECTION BOX - PO LOBBY", "note": "ON 12/24 AND 12/31, THIS BOX MAY BE COLLECTED AS EARLY AS 12 NOON.", "nsi_id": "unitedstatespostalservice-a77078", "operator": "United States Postal Service", "operator:short": "USPS", "operator:type": "public", "operator:wikidata": "Q668687", "ref": "7079100011"}, "type": "Feature"}
{"dataset_attributes": {"@spider": "usps_collection_boxes", "spider:collection_time": "2023-09-16T08:22:24.198600"}, "geometry": {"coordinates": [-91.140338942, 30.6504080541], "type": "Point"}, "id": "KXCP0suTytg560M9UKE43Tl5M9I=", "properties": {"@spider": "usps_collection_boxes", "addr:city": "ZACHARY", "addr:country": "US", "addr:full": "6001 MAIN ST", "addr:postcode": "70791", "addr:state": "LA", "amenity": "post_box", "brand": "United States Postal Service", "brand:wikidata": "Q668687", "collection_times": "Mo-Fr 16:30; Sa 11:00", "name": "USPS COLLECTION BOX - PO LOBBY", "note": "ON 12/24 AND 12/31, THIS BOX MAY BE COLLECTED AS EARLY AS 12 NOON.", "nsi_id": "unitedstatespostalservice-a77078", "operator": "United States Postal Service", "operator:short": "USPS", "operator:type": "public", "operator:wikidata": "Q668687", "ref": "7079100014"}, "type": "Feature"}
