{"geometry": {"coordinates": [-91.1822265, 30.450042], "type": "Point"}, "id": "daTc4L8X7PAD22AASGSGV-yaYyU=", "properties": {"@spider": "usps_collection_boxes", "addr:city": "BATON ROUGE", "addr:country": "US", "addr:full": "777 FLORIDA ST", "addr:postcode": "70801", "addr:state": "LA", "brand": "USPS", "collection_times": "Mo-Fr 12:00", "name": "USPS COLLECTION BOX - BLUE BOX", "ref": "7080100012"}, "type": "Feature"}
{"geometry": {"coordinates": [-91.1825325, 30.449304], "type": "Point"}, "id": "oIqOrVDRq4wAl9MZPTitiiFS2Js=", "properties": {"@spider": "usps_collection_boxes", "addr:city": "BATON ROUGE", "addr:country": "US", "addr:full": "750 FLORIDA ST", "addr:postcode": "70801", "addr:state": "LA", "brand": "USPS", "collection_times": "Mo-Fr 17:00; Sa 12:30", "name": "USPS COLLECTION BOX - PO LOBBY", "note": "ON 12/24 AND 12/31, THIS BOX MAY BE COLLECTED AS EARLY AS 12 NOON.", "ref": "7080100013"}, "type": "Feature"}
{"geometry": {"coordinates": [-91.1825325, 30.449304], "type": "Point"}, "id": "uaikzc_sYel9K424vLOc2V66M4I=", "properties": {"@spider": "usps_collection_boxes", "addr:city": "BATON ROUGE", "addr:country": "US", "addr:full": "750 FLORIDA ST", "addr:postcode": "70802", "addr:state": "LA", "brand": "USPS", "collection_times": "Mo-Fr 17:00; Sa 12:30", "name": "USPS COLLECTION BOX - BLUE BOX", "note": "ON 12/24 AND 12/31, THIS BOX MAY BE COLLECTED AS EARLY AS 12 NOON.", "ref": "7080200003"}, "type": "Feature"}
{"geometry": {"coordinates": [-91.1825325, 30.449304], "type": "Point"}, "id": "B6KUlNle-9K9dwB7Gqcf9NiHSMg=", "properties": {"@spider": "usps_collection_boxes", "addr:city": "BATON ROUGE", "addr:country": "US", "addr:full": "750 FLORIDA ST", "addr:postcode": "70802", "addr:state": "LA", "brand": "USPS", "collection_times": "Mo-Fr 17:00; Sa 12:30", "name": "USPS COLLECTION BOX - BLUE BOX", "note": "ON 12/24 AND 12/31, THIS BOX MAY BE COLLECTED AS EARLY AS 12 NOON.", "ref": "7080200006"}, "type": "Feature"}
{"geometry": {"coordinates": [-91.1825325, 30.449304], "type": "Point"}, "id": "84mxo8Rird7ND40EldCV38pcinE=", "properties": {"@spider": "usps_collection_boxes", "addr:city": "BATON ROUGE", "addr:country": "US", "addr:full": "750 FLORIDA ST", "addr:postcode": "70802", "addr:state": "LA", "brand": "USPS", "collection_times": "Mo-Fr 17:00; Sa 12:30", "name": "USPS COLLECTION BOX - BLUE BOX", "note": "ON 12/24 AND 12/31, THIS BOX MAY BE COLLECTED AS EARLY AS 12 NOON.", "ref": "7080200007"}, "type": "Feature"}
{"geometry": {"coordinates": [-91.183338, 30.451689], "type": "Point"}, "id": "m04zxSO32UYSVqdMorfeyz5gvi0=", "properties": {"@spider": "usps_collection_boxes", "addr:city": "BATON ROUGE", "addr:country": "US", "addr:full": "701 MAIN ST", "addr:postcode": "70802", "addr:state": "LA", "brand": "USPS", "collection_times": "Mo-Fr 12:00", "name": "USPS COLLECTION BOX - BLUE BOX", "ref": "7080200045"}, "type": "Feature"}
{"geometry": {"coordinates": [-91.182460538, 30.442884567], "type": "Point"}, "id": "b1gUMIhRaAPqYfAYJfhTWa7Q1S4=", "properties": {"@spider": "usps_collection_boxes", "addr:city": "BATON ROUGE", "addr:country": "US", "addr:full": "800 FRANCE ST", "addr:postcode": "70802", "addr:state": "LA", "brand": "USPS", "collection_times": "Mo-Fr 14:00", "name": "USPS COLLECTION BOX - BLUE BOX", "note": "ON 12/24 AND 12/31, THIS BOX MAY BE COLLECTED AS EARLY AS 12 NOON.", "ref": "7080200050"}, "type": "Feature"}
{"geometry": {"coordinates": [-91.184085, 30.446838], "type": "Point"}, "id": "8-XAEMWmDYqx0Dpb9PrMcJu2ba4=", "properties": {"@spider": "usps_collection_boxes", "addr:city": "BATON ROUGE", "addr:country": "US", "addr:full": "628 NORTH BLVD", "addr:postcode": "70802", "addr:state": "LA", "brand": "USPS", "collection_times": "Mo-Fr 12:00", "name": "USPS COLLECTION BOX - BLUE BOX", "ref": "7080200054"}, "type": "Feature"}
{"geometry": {"coordinates": [-91.1881125, 30.433221], "type": "Point"}, "id": "NLvBP1eHTR1Ypw2ltP0IE63tAM4=", "properties": {"@spider": "usps_collection_boxes", "addr:city": "BATON ROUGE", "addr:country": "US", "addr:full": "1564 NICHOLSON DR", "addr:postcode": "70802", "addr:state": "LA", "brand": "USPS", "collection_times": "Mo-Fr 15:00", "name": "USPS COLLECTION BOX - BLUE BOX", "note": "ON 12/24 AND 12/31, THIS BOX MAY BE COLLECTED AS EARLY AS 12 NOON.", "ref": "7080200060"}, "type": "Feature"}
{"geometry": {"coordinates": [-91.1884095, 30.450267], "type": "Point"}, "id": "HJb7CScYb3zAqncjDlb4cRI5Op8=", "properties": {"@spider": "usps_collection_boxes", "addr:city": "BATON ROUGE", "addr:country": "US", "addr:full": "359 3RD ST", "addr:postcode": "70802", "addr:state": "LA", "brand": "USPS", "collection_times": "Mo-Fr 11:30", "name": "USPS COLLECTION BOX - BLUE BOX", "ref": "7080200068"}, "type": "Feature"}
{"geometry": {"coordinates": [-91.180026, 30.426138], "type": "Point"}, "id": "VnKrb1kjVG9kGT4tUPmNYWAKowk=", "properties": {"@spider": "usps_collection_boxes", "addr:city": "BATON ROUGE", "addr:country": "US", "addr:full": "2265 HIGHLAND RD", "addr:postcode": "70802", "addr:state": "LA", "brand": "USPS", "collection_times": "Mo-Fr 12:00", "name": "USPS COLLECTION BOX - BLUE BOX", "ref": "7080200075"}, "type": "Feature"}
{"geometry": {"coordinates": [-91.1825325, 30.449304], "type": "Point"}, "id": "buq_cpMIDmSdFG9Zt2zb7XwZmDY=", "properties": {"@spider": "usps_collection_boxes", "addr:city": "BATON ROUGE", "addr:country": "US", "addr:full": "750 FLORIDA ST", "addr:postcode": "70802", "addr:state": "LA", "brand": "USPS", "collection_times": "Mo-Fr 17:00; Sa 12:30", "name": "USPS COLLECTION BOX - PO LOBBY", "note": "ON 12/24 AND 12/31, THIS BOX MAY BE COLLECTED AS EARLY AS 12 NOON.", "ref": "7080200108"}, "type": "Feature"}
{"geometry": {"coordinates": [-91.1825325, 30.449304], "type": "Point"}, "id": "3KChunSY6YftTWSsG3GehOgDtkM=", "properties": {"@spider": "usps_collection_boxes", "addr:city": "BATON ROUGE", "addr:country": "US", "addr:full": "750 FLORIDA ST", "addr:postcode": "70802", "addr:state": "LA", "brand": "USPS", "collection_times": "Mo-Fr 17:00; Sa 12:30", "name": "USPS COLLECTION BOX - PO LOBBY", "note": "ON 12/24 AND 12/31, THIS BOX MAY BE COLLECTED AS EARLY AS 12 NOON.", "ref": "7080200109"}, "type": "Feature"}
{"geometry": {"coordinates": [-91.1825325, 30.449304], "type": "Point"}, "id": "I_3gcmW3e-GbiOTaBaoQ44fVEj8=", "properties": {"@spider": "usps_collection_boxes", "addr:city": "BATON ROUGE", "addr:country": "US", "addr:full": "750 FLORIDA ST", "addr:postcode": "70802", "addr:state": "LA", "brand": "USPS", "collection_times": "Mo-Fr 17:00; Sa 12:30", "name": "USPS COLLECTION BOX - PO LOBBY", "note": "ON 12/24 AND 12/31, THIS BOX MAY BE COLLECTED AS EARLY AS 12 NOON.", "ref": "7080200110"}, "type": "Feature"}
{"geometry": {"coordinates": [-91.1876985, 30.446037], "type": "Point"}, "id": "L3iy1sV3rD05mBp3eNprp6YPCak=", "properties": {"@spider": "usps_collection_boxes", "addr:city": "BATON ROUGE", "addr:country": "US", "addr:full": "222 SAINT LOUIS ST", "addr:postcode": "70802", "addr:state": "LA", "brand": "USPS", "collection_times": "Mo-Fr 11:00", "name": "USPS COLLECTION BOX - BLUE BOX", "ref": "7080200115"}, "type": "Feature"}
{"geometry": {"coordinates": [-91.1874915, 30.45195], "type": "Point"}, "id": "2awyluugtY7giyBnpM5WdDZXtfs=", "properties": {"@spider": "usps_collection_boxes", "addr:city": "BATON ROUGE", "addr:country": "US", "addr:full": "301 MAIN ST", "addr:postcode": "70802", "addr:state": "LA", "brand": "USPS", "collection_times": "Mo-Fr 11:00", "name": "USPS COLLECTION BOX - BLUE BOX", "ref": "7080200116"}, "type": "Feature"}
{"geometry": {"coordinates": [-91.183464, 30.454983], "type": "Point"}, "id": "wYfsONkuHZn0CxZ9orUSrAnid80=", "properties": {"@spider": "usps_collection_boxes", "addr:city": "BATON ROUGE", "addr:country": "US", "addr:full": "701 SPANISH TOWN RD", "addr:postcode": "70802", "addr:state": "LA", "brand": "USPS", "collection_times": "Mo-Fr 14:00", "name": "USPS COLLECTION BOX - BLUE BOX", "note": "ON 12/24 AND 12/31, THIS BOX MAY BE COLLECTED AS EARLY AS 12 NOON.", "ref": "7080200119"}, "type": "Feature"}
{"geometry": {"coordinates": [-91.1873623408, 30.4569482805], "type": "Point"}, "id": "wb3ynyTRDK91-uveBl208HbYPg0=", "properties": {"@spider": "usps_collection_boxes", "addr:city": "BATON ROUGE", "addr:country": "US", "addr:full": "900 N 3RD ST", "addr:postcode": "70802", "addr:state": "LA", "brand": "USPS", "collection_times": "Mo-Fr 16:30", "name": "USPS COLLECTION BOX - PO LOBBY", "note": "ON 12/24 AND 12/31, THIS BOX MAY BE COLLECTED AS EARLY AS 12 NOON.", "ref": "7080200121"}, "type": "Feature"}
{"geometry": {"coordinates": [-91.197202638, 30.551948614], "type": "Point"}, "id": "_UQMOgkf3JsQFzAGWhyDgElTE1U=", "properties": {"@spider": "usps_collection_boxes", "addr:city": "BATON ROUGE", "addr:country": "US", "addr:full": "112 THOMAS BOYD", "addr:postcode": "70803", "addr:state": "LA", "brand": "USPS", "collection_times": "Mo-Fr 12:15", "name": "USPS COLLECTION BOX - BLUE BOX", "note": "ON 12/24 AND 12/31, THIS BOX MAY BE COLLECTED AS EARLY AS 12 NOON.", "ref": "7080300009"}, "type": "Feature"}
{"geometry": {"coordinates": [-91.156671, 30.498156], "type": "Point"}, "id": "PcQla9JUxofe_1mGINiw9vur-7c=", "properties": {"@spider": "usps_collection_boxes", "addr:city": "BATON ROUGE", "addr:country": "US", "addr:full": "5200 LONGFELLOW DR", "addr:postcode": "70805", "addr:state": "LA", "brand": "USPS", "collection_times": "Mo-Fr 17:00; Sa 15:30", "name": "USPS COLLECTION BOX - PO LOBBY", "note": "ON 12/24 AND 12/31, THIS BOX MAY BE COLLECTED AS EARLY AS 12 NOON.", "ref": "7080500001"}, "type": "Feature"}
{"geometry": {"coordinates": [-91.156671, 30.498156], "type": "Point"}, "id": "dVDbsEZ8xSg7OZ6KMhYITadhQrY=", "properties": {"@spider": "usps_collection_boxes", "addr:city": "BATON ROUGE", "addr:country": "US", "addr:full": "5200 LONGFELLOW DR", "addr:postcode": "70805", "addr:state": "LA", "brand": "USPS", "collection_times": "Mo-Fr 17:00; Sa 15:30", "name": "USPS COLLECTION BOX - BLUE BOX", "note": "ON 12/24 AND 12/31, THIS BOX MAY BE COLLECTED AS EARLY AS 12 NOON.", "ref": "7080500004"}, "type": "Feature"}
{"geometry": {"coordinates": [-91.156671, 30.498156], "type": "Point"}, "id": "Q2mYsPEmCSB3GrX7GuxeSMwL_5I=", "properties": {"@spider": "usps_collection_boxes", "addr:city": "BATON ROUGE", "addr:country": "US", "addr:full": "5200 LONGFELLOW DR", "addr:postcode": "70805", "addr:state": "LA", "brand": "USPS", "collection_times": "Mo-Fr 17:00; Sa 15:30", "name": "USPS COLLECTION BOX - BLUE BOX", "note": "ON 12/24 AND 12/31, THIS BOX MAY BE COLLECTED AS EARLY AS 12 NOON.", "ref": "7080500007"}, "type": "Feature"}
{"geometry": {"coordinates": [-91.156671, 30.498156], "type": "Point"}, "id": "yMqAuu2YkyaWO9d3wk3MIiHrlGw=", "properties": {"@spider": "usps_collection_boxes", "addr:city": "BATON ROUGE", "addr:country": "US", "addr:full": "5200 LONGFELLOW DR", "addr:postcode": "70805", "addr:state": "LA", "brand": "USPS", "collection_times": "Mo-Fr 17:00; Sa 15:30", "name": "USPS COLLECTION BOX - BLUE BOX", "note": "ON 12/24 AND 12/31, THIS BOX MAY BE COLLECTED AS EARLY AS 12 NOON.", "ref": "7080500008"}, "type": "Feature"}
{"geometry": {"coordinates": [-91.156671, 30.498156], "type": "Point"}, "id": "wWzA9dQU27X1ClTs9ouOR7TZ4BA=", "properties": {"@spider": "usps_collection_boxes", "addr:city": "BATON ROUGE", "addr:country": "US", "addr:full": "5200 LONGFELLOW DR", "addr:postcode": "70805", "addr:state": "LA", "brand": "USPS", "collection_times": "Mo-Fr 17:00; Sa 15:30", "name": "USPS COLLECTION BOX - BLUE BOX", "note": "ON 12/24 AND 12/31, THIS BOX MAY BE COLLECTED AS EARLY AS 12 NOON.", "ref": "7080500009"}, "type": "Feature"}
{"geometry": {"coordinates": [-91.117125, 30.480282], "type": "Point"}, "id": "CVt6Rd455Zyfc3rneg_QdCMF1rs=", "properties": {"@spider": "usps_collection_boxes", "addr:city": "BATON ROUGE", "addr:country": "US", "addr:full": "7201 WINBOURNE AVE", "addr:postcode": "70805", "addr:state": "LA", "brand": "USPS", "collection_times": "Mo-Fr 10:00", "name": "USPS COLLECTION BOX - BLUE BOX", "ref": "7080500013"}, "type": "Feature"}
{"geometry": {"coordinates": [-91.133163, 30.500901], "type": "Point"}, "id": "7n3c-iu1kEaYxlX9779D-of6xtM=", "properties": {"@spider": "usps_collection_boxes", "addr:city": "BATON ROUGE", "addr:country": "US", "addr:full": "5932 AIRLINE HWY", "addr:postcode": "70805", "addr:state": "LA", "brand": "USPS", "collection_times": "Mo-Fr 10:00", "name": "USPS COLLECTION BOX - BLUE BOX", "ref": "7080500015"}, "type": "Feature"}
{"geometry": {"coordinates": [-91.162944, 30.470409], "type": "Point"}, "id": "FaBeX7rE7S6MKFyUZQ9x0-cwUgI=", "properties": {"@spider": "usps_collection_boxes", "addr:city": "BATON ROUGE", "addr:country": "US", "addr:full": "2520 PLANK RD", "addr:postcode": "70805", "addr:state": "LA", "brand": "USPS", "collection_times": "Mo-Fr 09:30", "name": "USPS COLLECTION BOX - BLUE BOX", "ref": "7080500019"}, "type": "Feature"}
{"geometry": {"coordinates": [-91.1462625, 30.478941], "type": "Point"}, "id": "9GlXJ7kXFFuyQ-rJpVB8jQ9JVhA=", "properties": {"@spider": "usps_collection_boxes", "addr:city": "BATON ROUGE", "addr:country": "US", "addr:full": "4365 WINBOURNE AVE", "addr:postcode": "70805", "addr:state": "LA", "brand": "USPS", "collection_times": "Mo-Fr 12:45", "name": "USPS COLLECTION BOX - BLUE BOX", "note": "ON 12/24 AND 12/31, THIS BOX MAY BE COLLECTED AS EARLY AS 12 NOON.", "ref": "7080500029"}, "type": "Feature"}
{"geometry": {"coordinates": [-91.156671, 30.498156], "type": "Point"}, "id": "gV_FP1gXTLzKzLsLSx2a9nmR7Q8=", "properties": {"@spider": "usps_collection_boxes", "addr:city": "BATON ROUGE", "addr:country": "US", "addr:full": "5200 LONGFELLOW DR", "addr:postcode": "70805", "addr:state": "LA", "brand": "USPS", "collection_times": "Mo-Fr 17:00; Sa 15:30", "name": "USPS COLLECTION BOX - PO LOBBY", "note": "ON 12/24 AND 12/31, THIS BOX MAY BE COLLECTED AS EARLY AS 12 NOON.", "ref": "7080500036"}, "type": "Feature"}
{"geometry": {"coordinates": [-91.126021104, 30.502379874], "type": "Point"}, "id": "AY62cYQIEG5EK-rV80yOI5r7-sI=", "properties": {"@spider": "usps_collection_boxes", "addr:city": "BATON ROUGE", "addr:country": "US", "addr:full": "6500 GREENWELL ST", "addr:postcode": "70805", "addr:state": "LA", "brand": "USPS", "collection_times": "Mo-Fr 11:00", "name": "USPS COLLECTION BOX - BLUE BOX", "ref": "7080500037"}, "type": "Feature"}
{"geometry": {"coordinates": [-91.156671, 30.498156], "type": "Point"}, "id": "2BBEzvfsKMamCkp3FjEypmOqWaY=", "properties": {"@spider": "usps_collection_boxes", "addr:city": "BATON ROUGE", "addr:country": "US", "addr:full": "5200 LONGFELLOW DR", "addr:postcode": "70805", "addr:state": "LA", "brand": "USPS", "collection_times": "Mo-Fr 16:30; Sa 12:00", "name": "USPS COLLECTION BOX - PO LOBBY", "note": "ON 12/24 AND 12/31, THIS BOX MAY BE COLLECTED AS EARLY AS 12 NOON.", "ref": "7080500042"}, "type": "Feature"}
{"geometry": {"coordinates": [-91.143855, 30.444084], "type": "Point"}, "id": "AtT05THJPSyFHUmGCeyTBAxfqAY=", "properties": {"@spider": "usps_collection_boxes", "addr:city": "BATON ROUGE", "addr:country": "US", "addr:full": "4500 GOVERNMENT ST", "addr:postcode": "70806", "addr:state": "LA", "brand": "USPS", "collection_times": "Mo-Fr 17:00; Sa 15:15", "name": "USPS COLLECTION BOX - BLUE BOX", "note": "ON 12/24 AND 12/31, THIS BOX MAY BE COLLECTED AS EARLY AS 12 NOON.", "ref": "7080600003"}, "type": "Feature"}
{"geometry": {"coordinates": [-91.143855, 30.444084], "type": "Point"}, "id": "G6gLpqKzfh9QtW_3bfeayz44k-A=", "properties": {"@spider": "usps_collection_boxes", "addr:city": "BATON ROUGE", "addr:country": "US", "addr:full": "4500 GOVERNMENT ST", "addr:postcode": "70806", "addr:state": "LA", "brand": "USPS", "collection_times": "Mo-Fr 17:00; Sa 15:15", "name": "USPS COLLECTION BOX - BLUE BOX", "note": "ON 12/24 AND 12/31, THIS BOX MAY BE COLLECTED AS EARLY AS 12 NOON.", "ref": "7080600004"}, "type": "Feature"}
{"geometry": {"coordinates": [-91.143855, 30.444084], "type": "Point"}, "id": "VDv1REk404Qhbz6KIcVPtf0dMy0=", "properties": {"@spider": "usps_collection_boxes", "addr:city": "BATON ROUGE", "addr:country": "US", "addr:full": "4500 GOVERNMENT ST", "addr:postcode": "70806", "addr:state": "LA", "brand": "USPS", "collection_times": "Mo-Fr 17:00; Sa 15:15", "name": "USPS COLLECTION BOX - BLUE BOX", "note": "ON 12/24 AND 12/31, THIS BOX MAY BE COLLECTED AS EARLY AS 12 NOON.", "ref": "7080600005"}, "type": "Feature"}
{"geometry": {"coordinates": [-91.143855, 30.444084], "type": "Point"}, "id": "6V3VkZnDWyPzPhPm4PvMD_y5GVA=", "properties": {"@spider": "usps_collection_boxes", "addr:city": "BATON ROUGE", "addr:country": "US", "addr:full": "4500 GOVERNMENT ST", "addr:postcode": "70806", "addr:state": "LA", "brand": "USPS", "collection_times": "Mo-Fr 17:00; Sa 15:15", "name": "USPS COLLECTION BOX - BLUE BOX", "note": "ON 12/24 AND 12/31, THIS BOX MAY BE COLLECTED AS EARLY AS 12 NOON.", "ref": "7080600006"}, "type": "Feature"}
{"geometry": {"coordinates": [-91.143855, 30.444084], "type": "Point"}, "id": "YtJAa9DgBo64_6Hm600JqLRwBzY=", "properties": {"@spider": "usps_collection_boxes", "addr:city": "BATON ROUGE", "addr:country": "US", "addr:full": "4500 GOVERNMENT ST", "addr:postcode": "70806", "addr:state": "LA", "brand": "USPS", "collection_times": "Mo-Fr 17:00; Sa 15:15", "name": "USPS COLLECTION BOX - PO LOBBY", "note": "ON 12/24 AND 12/31, THIS BOX MAY BE COLLECTED AS EARLY AS 12 NOON.", "ref": "7080600008"}, "type": "Feature"}
{"geometry": {"coordinates": [-91.143855, 30.444084], "type": "Point"}, "id": "z4wo82tD2_6bT_xP2Q2zSgCGFMo=", "properties": {"@spider": "usps_collection_boxes", "addr:city": "BATON ROUGE", "addr:country": "US", "addr:full": "4500 GOVERNMENT ST", "addr:postcode": "70806", "addr:state": "LA", "brand": "USPS", "collection_times": "Mo-Fr 17:00; Sa 15:15", "name": "USPS COLLECTION BOX - PO LOBBY", "note": "ON 12/24 AND 12/31, THIS BOX MAY BE COLLECTED AS EARLY AS 12 NOON.", "ref": "7080600009"}, "type": "Feature"}
{"geometry": {"coordinates": [-91.099089, 30.445065], "type": "Point"}, "id": "sJ7_BReGeWznPBp_fskZaEMlz0E=", "properties": {"@spider": "usps_collection_boxes", "addr:city": "BATON ROUGE", "addr:country": "US", "addr:full": "606 COLONIAL DR", "addr:postcode": "70806", "addr:state": "LA", "brand": "USPS", "collection_times": "Mo-Fr 11:00", "name": "USPS COLLECTION BOX - BLUE BOX", "ref": "7080600013"}, "type": "Feature"}
{"geometry": {"coordinates": [-91.1393685, 30.450132], "type": "Point"}, "id": "_GggCCLSjw2J3rINCaa41bdX8hc=", "properties": {"@spider": "usps_collection_boxes", "addr:city": "BATON ROUGE", "addr:country": "US", "addr:full": "4962 FLORIDA BLVD", "addr:postcode": "70806", "addr:state": "LA", "brand": "USPS", "collection_times": "Mo-Fr 10:30", "name": "USPS COLLECTION BOX - BLUE BOX", "ref": "7080600017"}, "type": "Feature"}
{"geometry": {"coordinates": [-91.13184, 30.450438], "type": "Point"}, "id": "wda5Pj8Ba32dx8GsH8Jn6BBqA3g=", "properties": {"@spider": "usps_collection_boxes", "addr:city": "BATON ROUGE", "addr:country": "US", "addr:full": "5700 FLORIDA BLVD", "addr:postcode": "70806", "addr:state": "LA", "brand": "USPS", "collection_times": "Mo-Fr 09:30", "name": "USPS COLLECTION BOX - BLUE BOX", "ref": "7080600021"}, "type": "Feature"}
{"geometry": {"coordinates": [-91.126053, 30.450843], "type": "Point"}, "id": "8LONpUl7Pn-7BivF4ki0SqCADuk=", "properties": {"@spider": "usps_collection_boxes", "addr:city": "BATON ROUGE", "addr:country": "US", "addr:full": "6208 FLORIDA BLVD", "addr:postcode": "70806", "addr:state": "LA", "brand": "USPS", "collection_times": "Mo-Fr 11:30", "name": "USPS COLLECTION BOX - BLUE BOX", "ref": "7080600024"}, "type": "Feature"}
{"geometry": {"coordinates": [-91.1067165, 30.443832], "type": "Point"}, "id": "OoWmoZwyzamATPh5zpCDgYQN5UQ=", "properties": {"@spider": "usps_collection_boxes", "addr:city": "BATON ROUGE", "addr:country": "US", "addr:full": "7711 GOODWOOD BLVD", "addr:postcode": "70806", "addr:state": "LA", "brand": "USPS", "collection_times": "Mo-Fr 12:00", "name": "USPS COLLECTION BOX - BLUE BOX", "ref": "7080600036"}, "type": "Feature"}
{"geometry": {"coordinates": [-91.114992, 30.465036], "type": "Point"}, "id": "-gePKwA6MDV49t97er1c8twQK3A=", "properties": {"@spider": "usps_collection_boxes", "addr:city": "BATON ROUGE", "addr:country": "US", "addr:full": "1885 WOODDALE BLVD", "addr:postcode": "70806", "addr:state": "LA", "brand": "USPS", "collection_times": "Mo-Fr 13:00", "name": "USPS COLLECTION BOX - BLUE BOX", "note": "ON 12/24 AND 12/31, THIS BOX MAY BE COLLECTED AS EARLY AS 12 NOON.", "ref": "7080600037"}, "type": "Feature"}
{"geometry": {"coordinates": [-91.1425005, 30.447081], "type": "Point"}, "id": "4sgvyQ0UXoe8AyCBjINb1wuni2E=", "properties": {"@spider": "usps_collection_boxes", "addr:city": "BATON ROUGE", "addr:country": "US", "addr:full": "4550 NORTH BLVD", "addr:postcode": "70806", "addr:state": "LA", "brand": "USPS", "collection_times": "Mo-Fr 14:30", "name": "USPS COLLECTION BOX - BLUE BOX", "note": "ON 12/24 AND 12/31, THIS BOX MAY BE COLLECTED AS EARLY AS 12 NOON.", "ref": "7080600053"}, "type": "Feature"}
{"geometry": {"coordinates": [-91.1424357941, 30.4486393528], "type": "Point"}, "id": "tIMkxKeMg0LE4uIUf3QzBkdXr-o=", "properties": {"@spider": "usps_collection_boxes", "addr:city": "BATON ROUGE", "addr:country": "US", "addr:full": "4601 NORTH BLVD", "addr:postcode": "70806", "addr:state": "LA", "brand": "USPS", "collection_times": "Mo-Fr 10:00", "name": "USPS COLLECTION BOX - BLUE BOX", "ref": "7080600054"}, "type": "Feature"}
{"geometry": {"coordinates": [-91.1133, 30.468339], "type": "Point"}, "id": "3mXimQOixjZem_IITzCTEM9SroQ=", "properties": {"@spider": "usps_collection_boxes", "addr:city": "BATON ROUGE", "addr:country": "US", "addr:full": "2036 WOODDALE BLVD", "addr:postcode": "70806", "addr:state": "LA", "brand": "USPS", "collection_times": "Mo-Fr 10:30", "name": "USPS COLLECTION BOX - BLUE BOX", "ref": "7080600069"}, "type": "Feature"}
{"geometry": {"coordinates": [-91.102797, 30.45267], "type": "Point"}, "id": "FPbpcZRoXAK1BVOHg4XQ_6mHe98=", "properties": {"@spider": "usps_collection_boxes", "addr:city": "BATON ROUGE", "addr:country": "US", "addr:full": "8149 FLORIDA BLVD", "addr:postcode": "70806", "addr:state": "LA", "brand": "USPS", "collection_times": "Mo-Fr 10:45", "name": "USPS COLLECTION BOX - BLUE BOX", "ref": "7080600087"}, "type": "Feature"}
{"geometry": {"coordinates": [-91.143855, 30.444084], "type": "Point"}, "id": "QkahjODZ4s519KcFwnOLlsoKWRQ=", "properties": {"@spider": "usps_collection_boxes", "addr:city": "BATON ROUGE", "addr:country": "US", "addr:full": "4500 GOVERNMENT ST", "addr:postcode": "70806", "addr:state": "LA", "brand": "USPS", "collection_times": "Mo-Fr 17:00; Sa 15:15", "name": "USPS COLLECTION BOX - APC", "note": "ON 12/24 AND 12/31, THIS BOX MAY BE COLLECTED AS EARLY AS 12 NOON.", "ref": "7080600090"}, "type": "Feature"}
{"geometry": {"coordinates": [-91.143855, 30.444084], "type": "Point"}, "id": "YJ6Yhqnwn6ZgWA0Jy0M0xP9uQzE=", "properties": {"@spider": "usps_collection_boxes", "addr:city": "BATON ROUGE", "addr:country": "US", "addr:full": "4500 GOVERNMENT ST", "addr:postcode": "70806", "addr:state": "LA", "brand": "USPS", "collection_times": "Mo-Fr 16:30; Sa 12:30", "name": "USPS COLLECTION BOX - PO LOBBY", "note": "ON 12/24 AND 12/31, THIS BOX MAY BE COLLECTED AS EARLY AS 12 NOON.", "ref": "7080600094"}, "type": "Feature"}
{"geometry": {"coordinates": [-91.1441115, 30.521178], "type": "Point"}, "id": "Fa6Jnlg16s5f4_K4wKMWWOOWFrU=", "properties": {"@spider": "usps_collection_boxes", "addr:city": "BATON ROUGE", "addr:country": "US", "addr:full": "7980 PLANK RD", "addr:postcode": "70807", "addr:state": "LA", "brand": "USPS", "collection_times": "Mo-Fr 17:00; Sa 15:45", "name": "USPS COLLECTION BOX - BLUE BOX", "note": "ON 12/24 AND 12/31, THIS BOX MAY BE COLLECTED AS EARLY AS 12 NOON.", "ref": "7080700008"}, "type": "Feature"}
{"geometry": {"coordinates": [-91.1441115, 30.521178], "type": "Point"}, "id": "memM0yPejwxhUdAoFwx3ongpyjE=", "properties": {"@spider": "usps_collection_boxes", "addr:city": "BATON ROUGE", "addr:country": "US", "addr:full": "7980 PLANK RD", "addr:postcode": "70807", "addr:state": "LA", "brand": "USPS", "collection_times": "Mo-Fr 17:00; Sa 15:45", "name": "USPS COLLECTION BOX - PO LOBBY", "note": "ON 12/24 AND 12/31, THIS BOX MAY BE COLLECTED AS EARLY AS 12 NOON.", "ref": "7080700012"}, "type": "Feature"}
{"geometry": {"coordinates": [-91.1441115, 30.521178], "type": "Point"}, "id": "k4MRFsbXpixUtL6IaHAkux3xnLc=", "properties": {"@spider": "usps_collection_boxes", "addr:city": "BATON ROUGE", "addr:country": "US", "addr:full": "7980 PLANK RD", "addr:postcode": "70807", "addr:state": "LA", "brand": "USPS", "collection_times": "Mo-Fr 17:00; Sa 15:45", "name": "USPS COLLECTION BOX - PO LOBBY", "note": "ON 12/24 AND 12/31, THIS BOX MAY BE COLLECTED AS EARLY AS 12 NOON.", "ref": "7080700013"}, "type": "Feature"}
{"geometry": {"coordinates": [-91.1396385, 30.421044], "type": "Point"}, "id": "69mxTcUMv5bMStTLiyMuvrm8ODE=", "properties": {"@spider": "usps_collection_boxes", "addr:city": "BATON ROUGE", "addr:country": "US", "addr:full": "4535 BENNINGTON AVE", "addr:postcode": "70808", "addr:state": "LA", "brand": "USPS", "collection_times": "Mo-Fr 17:00; Sa 16:00", "name": "USPS COLLECTION BOX - BLUE BOX", "note": "ON 12/24 AND 12/31, THIS BOX MAY BE COLLECTED AS EARLY AS 12 NOON.", "ref": "7080800002"}, "type": "Feature"}
{"geometry": {"coordinates": [-91.1396385, 30.421044], "type": "Point"}, "id": "GTNgK3V-yTKz2Bh3TO_l3P1Ekl8=", "properties": {"@spider": "usps_collection_boxes", "addr:city": "BATON ROUGE", "addr:country": "US", "addr:full": "4535 BENNINGTON AVE", "addr:postcode": "70808", "addr:state": "LA", "brand": "USPS", "collection_times": "Mo-Fr 17:00; Sa 16:00", "name": "USPS COLLECTION BOX - BLUE BOX", "note": "ON 12/24 AND 12/31, THIS BOX MAY BE COLLECTED AS EARLY AS 12 NOON.", "ref": "7080800007"}, "type": "Feature"}
{"geometry": {"coordinates": [-91.1396385, 30.421044], "type": "Point"}, "id": "iWYPp74gSeiZTE6a5CiHKW9yMKk=", "properties": {"@spider": "usps_collection_boxes", "addr:city": "BATON ROUGE", "addr:country": "US", "addr:full": "4535 BENNINGTON AVE", "addr:postcode": "70808", "addr:state": "LA", "brand": "USPS", "collection_times": "Mo-Fr 17:00; Sa 16:00", "name": "USPS COLLECTION BOX - BLUE BOX", "note": "ON 12/24 AND 12/31, THIS BOX MAY BE COLLECTED AS EARLY AS 12 NOON.", "ref": "7080800009"}, "type": "Feature"}
{"geometry": {"coordinates": [-91.1396385, 30.421044], "type": "Point"}, "id": "xMvO4cFT3hyGwpc03Ylixa36Xa0=", "properties": {"@spider": "usps_collection_boxes", "addr:city": "BATON ROUGE", "addr:country": "US", "addr:full": "4535 BENNINGTON AVE", "addr:postcode": "70808", "addr:state": "LA", "brand": "USPS", "collection_times": "Mo-Fr 17:00; Sa 16:00", "name": "USPS COLLECTION BOX - PO LOBBY", "note": "ON 12/24 AND 12/31, THIS BOX MAY BE COLLECTED AS EARLY AS 12 NOON.", "ref": "7080800010"}, "type": "Feature"}
{"geometry": {"coordinates": [-91.1396385, 30.421044], "type": "Point"}, "id": "33pcN3M6SwHkYu0gljPO1n68Ruc=", "properties": {"@spider": "usps_collection_boxes", "addr:city": "BATON ROUGE", "addr:country": "US", "addr:full": "4535 BENNINGTON AVE", "addr:postcode": "70808", "addr:state": "LA", "brand": "USPS", "collection_times": "Mo-Fr 17:00; Sa 16:00", "name": "USPS COLLECTION BOX - PO LOBBY", "note": "ON 12/24 AND 12/31, THIS BOX MAY BE COLLECTED AS EARLY AS 12 NOON.", "ref": "7080800012"}, "type": "Feature"}
{"geometry": {"coordinates": [-91.133885767, 30.425883097], "type": "Point"}, "id": "07VdUugIQ22HgoI_LaFe45j0W-M=", "properties": {"@spider": "usps_collection_boxes", "addr:city": "BATON ROUGE", "addr:country": "US", "addr:full": "2400 PARK PLAZA DR", "addr:postcode": "70808", "addr:state": "LA", "brand": "USPS", "collection_times": "Mo-Fr 12:00", "name": "USPS COLLECTION BOX - BLUE BOX", "ref": "7080800038"}, "type": "Feature"}
{"geometry": {"coordinates": [-91.162148512, 30.431996074], "type": "Point"}, "id": "zIf5rL7z1oOeEavKMNLJzHfh2YM=", "properties": {"@spider": "usps_collection_boxes", "addr:city": "BATON ROUGE", "addr:country": "US", "addr:full": "1900 PERKINS RD", "addr:postcode": "70808", "addr:state": "LA", "brand": "USPS", "collection_times": "Mo-Fr 12:00", "name": "USPS COLLECTION BOX - BLUE BOX", "ref": "7080800041"}, "type": "Feature"}
{"geometry": {"coordinates": [-91.127871887, 30.422269682], "type": "Point"}, "id": "m4n0OLhwE4AnoZ6GAVRocsgumzM=", "properties": {"@spider": "usps_collection_boxes", "addr:city": "BATON ROUGE", "addr:country": "US", "addr:full": "2600 CITIPLACE CT", "addr:postcode": "70808", "addr:state": "LA", "brand": "USPS", "collection_times": "Mo-Fr 12:00", "name": "USPS COLLECTION BOX - BLUE BOX", "ref": "7080800054"}, "type": "Feature"}
{"geometry": {"coordinates": [-91.138266, 30.379446], "type": "Point"}, "id": "h3bMbwNRieem8ohGqV8uuI1xI5M=", "properties": {"@spider": "usps_collection_boxes", "addr:city": "BATON ROUGE", "addr:country": "US", "addr:full": "7353 HIGHLAND RD", "addr:postcode": "70808", "addr:state": "LA", "brand": "USPS", "collection_times": "Mo-Fr 10:00", "name": "USPS COLLECTION BOX - BLUE BOX", "ref": "7080800063"}, "type": "Feature"}
{"geometry": {"coordinates": [-91.150848, 30.422565], "type": "Point"}, "id": "hgabo-TJJlkg_N0eE5uuXH-b8MU=", "properties": {"@spider": "usps_collection_boxes", "addr:city": "BATON ROUGE", "addr:country": "US", "addr:full": "2431 S ACADIAN TWY", "addr:postcode": "70808", "addr:state": "LA", "brand": "USPS", "collection_times": "Mo-Fr 09:30", "name": "USPS COLLECTION BOX - BLUE BOX", "ref": "7080800069"}, "type": "Feature"}
{"geometry": {"coordinates": [-91.1396385, 30.421044], "type": "Point"}, "id": "nKtefCNS4weNEQ1KDkCi45qAZWM=", "properties": {"@spider": "usps_collection_boxes", "addr:city": "BATON ROUGE", "addr:country": "US", "addr:full": "4535 BENNINGTON AVE", "addr:postcode": "70808", "addr:state": "LA", "brand": "USPS", "collection_times": "Mo-Fr 17:00; Sa 16:00", "name": "USPS COLLECTION BOX - APC", "note": "ON 12/24 AND 12/31, THIS BOX MAY BE COLLECTED AS EARLY AS 12 NOON.", "ref": "7080800082"}, "type": "Feature"}
{"geometry": {"coordinates": [-91.1396385, 30.421044], "type": "Point"}, "id": "0L32EmCdXlzrOp5YJiVUbbH00Hc=", "properties": {"@spider": "usps_collection_boxes", "addr:city": "BATON ROUGE", "addr:country": "US", "addr:full": "4535 BENNINGTON AVE", "addr:postcode": "70808", "addr:state": "LA", "brand": "USPS", "collection_times": "Mo-Fr 16:30; Sa 12:30", "name": "USPS COLLECTION BOX - PO LOBBY", "note": "ON 12/24 AND 12/31, THIS BOX MAY BE COLLECTED AS EARLY AS 12 NOON.", "ref": "7080800087"}, "type": "Feature"}
{"geometry": {"coordinates": [-91.086633, 30.39705], "type": "Point"}, "id": "yZz9PrrvoThjeZPhGJkUO0eBuX0=", "properties": {"@spider": "usps_collection_boxes", "addr:city": "BATON ROUGE", "addr:country": "US", "addr:full": "9100 BLUEBONNET CENTRE BLVD", "addr:postcode": "70809", "addr:state": "LA", "brand": "USPS", "collection_times": "Mo-Fr 12:00", "name": "USPS COLLECTION BOX - BLUE BOX", "ref": "7080900005"}, "type": "Feature"}
{"geometry": {"coordinates": [-91.0494045, 30.384342], "type": "Point"}, "id": "ruS86soRAMFNk2nD_6REKNfRlos=", "properties": {"@spider": "usps_collection_boxes", "addr:city": "BATON ROUGE", "addr:country": "US", "addr:full": "11920 INDUSTRIPLEX BLVD", "addr:postcode": "70809", "addr:state": "LA", "brand": "USPS", "collection_times": "Mo-Fr 15:15", "name": "USPS COLLECTION BOX - BLUE BOX", "note": "ON 12/24 AND 12/31, THIS BOX MAY BE COLLECTED AS EARLY AS 12 NOON.", "ref": "7080900019"}, "type": "Feature"}
{"geometry": {"coordinates": [-91.056924, 30.388599], "type": "Point"}, "id": "HIyacB2mQLbzRDg-to-NphSzHGc=", "properties": {"@spider": "usps_collection_boxes", "addr:city": "BATON ROUGE", "addr:country": "US", "addr:full": "11211 INDUSTRIPLEX BLVD", "addr:postcode": "70809", "addr:state": "LA", "brand": "USPS", "collection_times": "Mo-Fr 15:15", "name": "USPS COLLECTION BOX - BLUE BOX", "note": "ON 12/24 AND 12/31, THIS BOX MAY BE COLLECTED AS EARLY AS 12 NOON.", "ref": "7080900022"}, "type": "Feature"}
{"geometry": {"coordinates": [-91.1011995, 30.42333], "type": "Point"}, "id": "iu0e6s612vCY1Ckr53lO1BmZrU4=", "properties": {"@spider": "usps_collection_boxes", "addr:city": "BATON ROUGE", "addr:country": "US", "addr:full": "7913 WRENWOOD BLVD", "addr:postcode": "70809", "addr:state": "LA", "brand": "USPS", "collection_times": "Mo-Fr 12:00", "name": "USPS COLLECTION BOX - BLUE BOX", "ref": "7080900032"}, "type": "Feature"}
{"geometry": {"coordinates": [-91.1011995, 30.42333], "type": "Point"}, "id": "KHle0IyIEI2PT_muxBHyQygW-RE=", "properties": {"@spider": "usps_collection_boxes", "addr:city": "BATON ROUGE", "addr:country": "US", "addr:full": "7913 WRENWOOD BLVD", "addr:postcode": "70809", "addr:state": "LA", "brand": "USPS", "collection_times": "Mo-Fr 12:00", "name": "USPS COLLECTION BOX - BLUE BOX", "ref": "7080900033"}, "type": "Feature"}
{"geometry": {"coordinates": [-91.102203, 30.419451], "type": "Point"}, "id": "FzI9ZNjvmzT9vkaaOZdc3glZx3o=", "properties": {"@spider": "usps_collection_boxes", "addr:city": "BATON ROUGE", "addr:country": "US", "addr:full": "7814 OFFICE PARK BLVD", "addr:postcode": "70809", "addr:state": "LA", "brand": "USPS", "collection_times": "Mo-Fr 12:00", "name": "USPS COLLECTION BOX - BLUE BOX", "ref": "7080900040"}, "type": "Feature"}
{"geometry": {"coordinates": [-91.094049, 30.376809], "type": "Point"}, "id": "bny0PM2jahT_qWhZUtxNDlzFQso=", "properties": {"@spider": "usps_collection_boxes", "addr:city": "BATON ROUGE", "addr:country": "US", "addr:full": "10380 PERKINS RD", "addr:postcode": "70810", "addr:state": "LA", "brand": "USPS", "collection_times": "Mo-Fr 17:00; Sa 16:15", "name": "USPS COLLECTION BOX - BLUE BOX", "note": "ON 12/24 AND 12/31, THIS BOX MAY BE COLLECTED AS EARLY AS 12 NOON.", "ref": "7081000002"}, "type": "Feature"}
{"geometry": {"coordinates": [-91.094049, 30.376809], "type": "Point"}, "id": "xM7sHqiVKpP8B4XWtd1k5DZmQOs=", "properties": {"@spider": "usps_collection_boxes", "addr:city": "BATON ROUGE", "addr:country": "US", "addr:full": "10380 PERKINS RD", "addr:postcode": "70810", "addr:state": "LA", "brand": "USPS", "collection_times": "Mo-Fr 17:00; Sa 16:15", "name": "USPS COLLECTION BOX - BLUE BOX", "note": "ON 12/24 AND 12/31, THIS BOX MAY BE COLLECTED AS EARLY AS 12 NOON.", "ref": "7081000003"}, "type": "Feature"}
{"geometry": {"coordinates": [-91.094049, 30.376809], "type": "Point"}, "id": "lDGxvxaRz8kW4lJWzq4Pvr1qyVo=", "properties": {"@spider": "usps_collection_boxes", "addr:city": "BATON ROUGE", "addr:country": "US", "addr:full": "10380 PERKINS RD", "addr:postcode": "70810", "addr:state": "LA", "brand": "USPS", "collection_times": "Mo-Fr 17:00; Sa 16:15", "name": "USPS COLLECTION BOX - BLUE BOX", "note": "ON 12/24 AND 12/31, THIS BOX MAY BE COLLECTED AS EARLY AS 12 NOON.", "ref": "7081000004"}, "type": "Feature"}
{"geometry": {"coordinates": [-91.094049, 30.376809], "type": "Point"}, "id": "0Za5IMSQN3BiWTGbvKU--f2qC5A=", "properties": {"@spider": "usps_collection_boxes", "addr:city": "BATON ROUGE", "addr:country": "US", "addr:full": "10380 PERKINS RD", "addr:postcode": "70810", "addr:state": "LA", "brand": "USPS", "collection_times": "Mo-Fr 15:45; Sa 16:15", "name": "USPS COLLECTION BOX - PO LOBBY", "note": "ON 12/24 AND 12/31, THIS BOX MAY BE COLLECTED AS EARLY AS 12 NOON.", "ref": "7081000006"}, "type": "Feature"}
{"geometry": {"coordinates": [-91.0763235, 30.368268], "type": "Point"}, "id": "AiKRppYBcPsZ5RHxFZviEbHNpRQ=", "properties": {"@spider": "usps_collection_boxes", "addr:city": "BATON ROUGE", "addr:country": "US", "addr:full": "12646 PERKINS RD", "addr:postcode": "70810", "addr:state": "LA", "brand": "USPS", "collection_times": "Mo-Fr 15:30", "name": "USPS COLLECTION BOX - BLUE BOX", "note": "ON 12/24 AND 12/31, THIS BOX MAY BE COLLECTED AS EARLY AS 12 NOON.", "ref": "7081000011"}, "type": "Feature"}
{"geometry": {"coordinates": [-91.1109918662, 30.3919339271], "type": "Point"}, "id": "Q1vy1iSCnD5hMj5MtSictoeMd3I=", "properties": {"@spider": "usps_collection_boxes", "addr:city": "BATON ROUGE", "addr:country": "US", "addr:full": "1900 STARING LN", "addr:postcode": "70810", "addr:state": "LA", "brand": "USPS", "collection_times": "Mo-Fr 12:30", "name": "USPS COLLECTION BOX - BLUE BOX", "note": "ON 12/24 AND 12/31, THIS BOX MAY BE COLLECTED AS EARLY AS 12 NOON.", "ref": "7081000017"}, "type": "Feature"}
{"geometry": {"coordinates": [-91.094049, 30.376809], "type": "Point"}, "id": "B0Rp1KkeLYNENXtOxya194aRBV4=", "properties": {"@spider": "usps_collection_boxes", "addr:city": "BATON ROUGE", "addr:country": "US", "addr:full": "10380 PERKINS RD", "addr:postcode": "70810", "addr:state": "LA", "brand": "USPS", "collection_times": "Mo-Fr 15:45; Sa 16:15", "name": "USPS COLLECTION BOX - PO LOBBY", "note": "ON 12/24 AND 12/31, THIS BOX MAY BE COLLECTED AS EARLY AS 12 NOON.", "ref": "7081000030"}, "type": "Feature"}
{"geometry": {"coordinates": [-91.094049, 30.376809], "type": "Point"}, "id": "Ga2wG5K84ANAy_RVjRSKf1jsPQc=", "properties": {"@spider": "usps_collection_boxes", "addr:city": "BATON ROUGE", "addr:country": "US", "addr:full": "10380 PERKINS RD", "addr:postcode": "70810", "addr:state": "LA", "brand": "USPS", "collection_times": "Mo-Fr 15:45; Sa 16:15", "name": "USPS COLLECTION BOX - APC", "note": "ON 12/24 AND 12/31, THIS BOX MAY BE COLLECTED AS EARLY AS 12 NOON.", "ref": "7081000042"}, "type": "Feature"}
{"geometry": {"coordinates": [-91.094049, 30.376809], "type": "Point"}, "id": "B6A7Zb_n_nuUfRJi2IciqLK6Bds=", "properties": {"@spider": "usps_collection_boxes", "addr:city": "BATON ROUGE", "addr:country": "US", "addr:full": "10380 PERKINS RD", "addr:postcode": "70810", "addr:state": "LA", "brand": "USPS", "collection_times": "Mo-Fr 18:00; Sa 12:30", "name": "USPS COLLECTION BOX - PO LOBBY", "note": "ON 12/24 AND 12/31, THIS BOX MAY BE COLLECTED AS EARLY AS 12 NOON.", "ref": "7081000052"}, "type": "Feature"}
{"geometry": {"coordinates": [-91.1441115, 30.521178], "type": "Point"}, "id": "AqMAVFxRi30eDvrPvE8wqPm-97M=", "properties": {"@spider": "usps_collection_boxes", "addr:city": "BATON ROUGE", "addr:country": "US", "addr:full": "7980 PLANK RD", "addr:postcode": "70811", "addr:state": "LA", "brand": "USPS", "collection_times": "Mo-Fr 16:30; Sa 12:30", "name": "USPS COLLECTION BOX - PO LOBBY", "note": "ON 12/24 AND 12/31, THIS BOX MAY BE COLLECTED AS EARLY AS 12 NOON.", "ref": "7081100001"}, "type": "Feature"}
{"geometry": {"coordinates": [-91.0764405, 30.454326], "type": "Point"}, "id": "z6E6NCiPQZsEIQzfScVqbZlP5wo=", "properties": {"@spider": "usps_collection_boxes", "addr:city": "BATON ROUGE", "addr:country": "US", "addr:full": "235 MARILYN DR", "addr:postcode": "70814", "addr:state": "LA", "brand": "USPS", "collection_times": "Mo-Fr 16:30; Sa 12:30", "name": "USPS COLLECTION BOX - BLUE BOX", "note": "ON 12/24 AND 12/31, THIS BOX MAY BE COLLECTED AS EARLY AS 12 NOON.", "ref": "7081400006"}, "type": "Feature"}
{"geometry": {"coordinates": [-91.0764405, 30.454326], "type": "Point"}, "id": "PqRmHzKUcUBDiYMZSvF_zjRkoVI=", "properties": {"@spider": "usps_collection_boxes", "addr:city": "BATON ROUGE", "addr:country": "US", "addr:full": "235 MARILYN DR", "addr:postcode": "70814", "addr:state": "LA", "brand": "USPS", "collection_times": "Mo-Fr 16:30; Sa 12:30", "name": "USPS COLLECTION BOX - PO LOBBY", "note": "ON 12/24 AND 12/31, THIS BOX MAY BE COLLECTED AS EARLY AS 12 NOON.", "ref": "7081400009"}, "type": "Feature"}
{"geometry": {"coordinates": [-91.0764405, 30.454326], "type": "Point"}, "id": "Xpv64VMWYFha8_oZXXKNI-ZATU4=", "properties": {"@spider": "usps_collection_boxes", "addr:city": "BATON ROUGE", "addr:country": "US", "addr:full": "235 MARILYN DR", "addr:postcode": "70814", "addr:state": "LA", "brand": "USPS", "collection_times": "Mo-Fr 16:30; Sa 12:30", "name": "USPS COLLECTION BOX - PO LOBBY", "note": "ON 12/24 AND 12/31, THIS BOX MAY BE COLLECTED AS EARLY AS 12 NOON.", "ref": "7081400010"}, "type": "Feature"}
{"geometry": {"coordinates": [-91.0764405, 30.454326], "type": "Point"}, "id": "TRA_FgTjzS66KQw5CWqDNme2Bf4=", "properties": {"@spider": "usps_collection_boxes", "addr:city": "BATON ROUGE", "addr:country": "US", "addr:full": "235 MARILYN DR", "addr:postcode": "70814", "addr:state": "LA", "brand": "USPS", "collection_times": "Mo-Fr 16:30; Sa 12:30", "name": "USPS COLLECTION BOX - BLUE BOX", "note": "ON 12/24 AND 12/31, THIS BOX MAY BE COLLECTED AS EARLY AS 12 NOON.", "ref": "7081400020"}, "type": "Feature"}
{"geometry": {"coordinates": [-91.0764405, 30.454326], "type": "Point"}, "id": "Z-bVmsc62iAfn-1VqCklaMeXK-o=", "properties": {"@spider": "usps_collection_boxes", "addr:city": "BATON ROUGE", "addr:country": "US", "addr:full": "235 MARILYN DR", "addr:postcode": "70814", "addr:state": "LA", "brand": "USPS", "collection_times": "Mo-Fr 16:30; Sa 12:30", "name": "USPS COLLECTION BOX - APC", "note": "ON 12/24 AND 12/31, THIS BOX MAY BE COLLECTED AS EARLY AS 12 NOON.", "ref": "7081400021"}, "type": "Feature"}
{"geometry": {"coordinates": [-91.0764405, 30.454326], "type": "Point"}, "id": "iQ2Q2QvutcCxBZfHzlnBgqZWLOw=", "properties": {"@spider": "usps_collection_boxes", "addr:city": "BATON ROUGE", "addr:country": "US", "addr:full": "235 MARILYN DR", "addr:postcode": "70814", "addr:state": "LA", "brand": "USPS", "collection_times": "Mo-Fr 16:30; Sa 12:30", "name": "USPS COLLECTION BOX - PO LOBBY", "note": "ON 12/24 AND 12/31, THIS BOX MAY BE COLLECTED AS EARLY AS 12 NOON.", "ref": "7081400024"}, "type": "Feature"}
{"geometry": {"coordinates": [-91.050606, 30.459096], "type": "Point"}, "id": "NfQ28a1D614V62K4zFrxinrrfXY=", "properties": {"@spider": "usps_collection_boxes", "addr:city": "BATON ROUGE", "addr:country": "US", "addr:full": "11920 FLORIDA BLVD", "addr:postcode": "70815", "addr:state": "LA", "brand": "USPS", "collection_times": "Mo-Fr 09:30", "name": "USPS COLLECTION BOX - BLUE BOX", "ref": "7081500026"}, "type": "Feature"}
{"geometry": {"coordinates": [-91.0907775, 30.444228], "type": "Point"}, "id": "6uR3-jjzVSKMmCHJybhxD00SLT0=", "properties": {"@spider": "usps_collection_boxes", "addr:city": "BATON ROUGE", "addr:country": "US", "addr:full": "9050 AIRLINE HWY", "addr:postcode": "70815", "addr:state": "LA", "brand": "USPS", "collection_times": "Mo-Fr 10:30", "name": "USPS COLLECTION BOX - BLUE BOX", "ref": "7081500034"}, "type": "Feature"}
{"geometry": {"coordinates": [-91.0914075, 30.445506], "type": "Point"}, "id": "v0EEc2pgZwwTnJvvYQOLH0qC1h0=", "properties": {"@spider": "usps_collection_boxes", "addr:city": "BATON ROUGE", "addr:country": "US", "addr:full": "9000 AIRLINE HWY", "addr:postcode": "70815", "addr:state": "LA", "brand": "USPS", "collection_times": "Mo-Fr 10:30", "name": "USPS COLLECTION BOX - BLUE BOX", "ref": "7081500036"}, "type": "Feature"}
{"geometry": {"coordinates": [-91.063161, 30.434778], "type": "Point"}, "id": "fStfnTp7bF0_DiO5zHiO-a4z0qI=", "properties": {"@spider": "usps_collection_boxes", "addr:city": "BATON ROUGE", "addr:country": "US", "addr:full": "10936 OLD HAMMOND HWY", "addr:postcode": "70815", "addr:state": "LA", "brand": "USPS", "collection_times": "Mo-Fr 17:00; Sa 12:30", "name": "USPS COLLECTION BOX - BLUE BOX", "note": "ON 12/24 AND 12/31, THIS BOX MAY BE COLLECTED AS EARLY AS 12 NOON.", "ref": "7081500043"}, "type": "Feature"}
{"geometry": {"coordinates": [-91.063161, 30.434778], "type": "Point"}, "id": "wXWvrHBOAixBBo15TVtYZZQgXpg=", "properties": {"@spider": "usps_collection_boxes", "addr:city": "BATON ROUGE", "addr:country": "US", "addr:full": "10936 OLD HAMMOND HWY", "addr:postcode": "70815", "addr:state": "LA", "brand": "USPS", "collection_times": "Mo-Fr 17:00; Sa 12:30", "name": "USPS COLLECTION BOX - BLUE BOX", "note": "ON 12/24 AND 12/31, THIS BOX MAY BE COLLECTED AS EARLY AS 12 NOON.", "ref": "7081500044"}, "type": "Feature"}
{"geometry": {"coordinates": [-91.063161, 30.434778], "type": "Point"}, "id": "Qke1upJgMX0r1dTXAcGsqgQdQHY=", "properties": {"@spider": "usps_collection_boxes", "addr:city": "BATON ROUGE", "addr:country": "US", "addr:full": "10936 OLD HAMMOND HWY", "addr:postcode": "70815", "addr:state": "LA", "brand": "USPS", "collection_times": "Mo-Fr 17:00; Sa 12:30", "name": "USPS COLLECTION BOX - PO LOBBY", "note": "ON 12/24 AND 12/31, THIS BOX MAY BE COLLECTED AS EARLY AS 12 NOON.", "ref": "7081500045"}, "type": "Feature"}
{"geometry": {"coordinates": [-91.063161, 30.434778], "type": "Point"}, "id": "i87vtCPw2aCc3SUc40LBs-oTaIY=", "properties": {"@spider": "usps_collection_boxes", "addr:city": "BATON ROUGE", "addr:country": "US", "addr:full": "10936 OLD HAMMOND HWY", "addr:postcode": "70815", "addr:state": "LA", "brand": "USPS", "collection_times": "Mo-Fr 17:00; Sa 12:30", "name": "USPS COLLECTION BOX - PO LOBBY", "note": "ON 12/24 AND 12/31, THIS BOX MAY BE COLLECTED AS EARLY AS 12 NOON.", "ref": "7081500046"}, "type": "Feature"}
{"geometry": {"coordinates": [-91.063161, 30.434778], "type": "Point"}, "id": "PUsS76m-OU3wZsbPigbB8wo5jMY=", "properties": {"@spider": "usps_collection_boxes", "addr:city": "BATON ROUGE", "addr:country": "US", "addr:full": "10936 OLD HAMMOND HWY", "addr:postcode": "70815", "addr:state": "LA", "brand": "USPS", "collection_times": "Mo-Fr 16:30; Sa 12:30", "name": "USPS COLLECTION BOX - PO LOBBY", "note": "ON 12/24 AND 12/31, THIS BOX MAY BE COLLECTED AS EARLY AS 12 NOON.", "ref": "7081500051"}, "type": "Feature"}
{"geometry": {"coordinates": [-91.057626, 30.427164], "type": "Point"}, "id": "8zwFfqt1PQk9hlz9uvetVUO5Eag=", "properties": {"@spider": "usps_collection_boxes", "addr:city": "BATON ROUGE", "addr:country": "US", "addr:full": "2644 S SHERWOOD FOREST BLVD", "addr:postcode": "70816", "addr:state": "LA", "brand": "USPS", "collection_times": "Mo-Fr 10:00", "name": "USPS COLLECTION BOX - BLUE BOX", "ref": "7081600015"}, "type": "Feature"}
{"geometry": {"coordinates": [-91.0000035, 30.442653], "type": "Point"}, "id": "Kl6ABvaJh5qxe1jshWFVvsz742A=", "properties": {"@spider": "usps_collection_boxes", "addr:city": "BATON ROUGE", "addr:country": "US", "addr:full": "17000 MEDICAL CENTER DR", "addr:postcode": "70816", "addr:state": "LA", "brand": "USPS", "collection_times": "Mo-Fr 11:30", "name": "USPS COLLECTION BOX - BLUE BOX", "ref": "7081600028"}, "type": "Feature"}
{"geometry": {"coordinates": [-91.007461204, 30.437409296], "type": "Point"}, "id": "pra1bOgn2V2ekCYmhrEzEBaiRkc=", "properties": {"@spider": "usps_collection_boxes", "addr:city": "BATON ROUGE", "addr:country": "US", "addr:full": "2171 ONEAL LN", "addr:postcode": "70816", "addr:state": "LA", "brand": "USPS", "collection_times": "Mo-Fr 11:00", "name": "USPS COLLECTION BOX - BLUE BOX", "ref": "7081600032"}, "type": "Feature"}
{"geometry": {"coordinates": [-91.033254, 30.408372], "type": "Point"}, "id": "JmNf11GC1w_BQxpN0Rl2XK8z_x0=", "properties": {"@spider": "usps_collection_boxes", "addr:city": "BATON ROUGE", "addr:country": "US", "addr:full": "4700 MILLWOOD DR", "addr:postcode": "70817", "addr:state": "LA", "brand": "USPS", "collection_times": "Mo-Fr 17:00; Sa 15:00", "name": "USPS COLLECTION BOX - BLUE BOX", "note": "ON 12/24 AND 12/31, THIS BOX MAY BE COLLECTED AS EARLY AS 12 NOON.", "ref": "7081700003"}, "type": "Feature"}
{"geometry": {"coordinates": [-91.020141, 30.391092], "type": "Point"}, "id": "pAEVThBO7YEO7Q3CRBzMPzh2frA=", "properties": {"@spider": "usps_collection_boxes", "addr:city": "BATON ROUGE", "addr:country": "US", "addr:full": "14744 TIGER BEND", "addr:postcode": "70817", "addr:state": "LA", "brand": "USPS", "collection_times": "Mo-Sa 12:00", "name": "USPS COLLECTION BOX - BLUE BOX", "ref": "7081700014"}, "type": "Feature"}
{"geometry": {"coordinates": [-91.033254, 30.408372], "type": "Point"}, "id": "3Wn0jLIoHNtO5ZwrGP5OmVaVe8w=", "properties": {"@spider": "usps_collection_boxes", "addr:city": "BATON ROUGE", "addr:country": "US", "addr:full": "4700 MILLWOOD DR", "addr:postcode": "70817", "addr:state": "LA", "brand": "USPS", "collection_times": "Mo-Fr 17:00; Sa 15:00", "name": "USPS COLLECTION BOX - PO LOBBY", "note": "ON 12/24 AND 12/31, THIS BOX MAY BE COLLECTED AS EARLY AS 12 NOON.", "ref": "7081700015"}, "type": "Feature"}
{"geometry": {"coordinates": [-91.033254, 30.408372], "type": "Point"}, "id": "pJ4Oz7ZQkePW-7GMJrG3Uy2Ip60=", "properties": {"@spider": "usps_collection_boxes", "addr:city": "BATON ROUGE", "addr:country": "US", "addr:full": "4700 MILLWOOD DR", "addr:postcode": "70817", "addr:state": "LA", "brand": "USPS", "collection_times": "Mo-Fr 17:00; Sa 15:00", "name": "USPS COLLECTION BOX - PO LOBBY", "note": "ON 12/24 AND 12/31, THIS BOX MAY BE COLLECTED AS EARLY AS 12 NOON.", "ref": "7081700016"}, "type": "Feature"}
{"geometry": {"coordinates": [-91.033254, 30.408372], "type": "Point"}, "id": "vXtD1u1Pc3dg_MJ7hnG_EgwEyIA=", "properties": {"@spider": "usps_collection_boxes", "addr:city": "BATON ROUGE", "addr:country": "US", "addr:full": "4700 MILLWOOD DR", "addr:postcode": "70817", "addr:state": "LA", "brand": "USPS", "collection_times": "Mo-Fr 17:00; Sa 15:00", "name": "USPS COLLECTION BOX - APC", "note": "ON 12/24 AND 12/31, THIS BOX MAY BE COLLECTED AS EARLY AS 12 NOON.", "ref": "7081700019"}, "type": "Feature"}
{"geometry": {"coordinates": [-91.033254, 30.408372], "type": "Point"}, "id": "6wvrOBfK7RXDmKLQbAjGNb2p1UI=", "properties": {"@spider": "usps_collection_boxes", "addr:city": "BATON ROUGE", "addr:country": "US", "addr:full": "4700 MILLWOOD DR", "addr:postcode": "70817", "addr:state": "LA", "brand": "USPS", "collection_times": "Mo-Fr 17:00; Sa 15:00", "name": "USPS COLLECTION BOX - BLUE BOX", "note": "ON 12/24 AND 12/31, THIS BOX MAY BE COLLECTED AS EARLY AS 12 NOON.", "ref": "7081700020"}, "type": "Feature"}
{"geometry": {"coordinates": [-91.036784532, 30.383917649], "type": "Point"}, "id": "g4bx1N9_ZIBsQFJaH27dP9Vd-ZA=", "properties": {"@spider": "usps_collection_boxes", "addr:city": "BATON ROUGE", "addr:country": "US", "addr:full": "500 RUE DE LA VIE ST", "addr:postcode": "70817", "addr:state": "LA", "brand": "USPS", "collection_times": "Mo-Fr 15:30", "name": "USPS COLLECTION BOX - BLUE BOX", "note": "ON 12/24 AND 12/31, THIS BOX MAY BE COLLECTED AS EARLY AS 12 NOON.", "ref": "7081700021"}, "type": "Feature"}
{"geometry": {"coordinates": [-91.033254, 30.408372], "type": "Point"}, "id": "gOgtrX7mZGMptuD3oBPPsU1b5A4=", "properties": {"@spider": "usps_collection_boxes", "addr:city": "BATON ROUGE", "addr:country": "US", "addr:full": "4700 MILLWOOD DR", "addr:postcode": "70817", "addr:state": "LA", "brand": "USPS", "collection_times": "Mo-Fr 17:45; Sa 12:30", "name": "USPS COLLECTION BOX - PO LOBBY", "note": "ON 12/24 AND 12/31, THIS BOX MAY BE COLLECTED AS EARLY AS 12 NOON.", "ref": "7081700025"}, "type": "Feature"}
{"geometry": {"coordinates": [-91.037472602, 30.5541141416], "type": "Point"}, "id": "9UkaZuW-A_sKxMHzdf5DGrVscVM=", "properties": {"@spider": "usps_collection_boxes", "addr:city": "BATON ROUGE", "addr:country": "US", "addr:full": "13515 HOOPER RD", "addr:postcode": "70818", "addr:state": "LA", "brand": "USPS", "collection_times": "Mo-Fr 15:30; Sa 12:30", "name": "USPS COLLECTION BOX - BLUE BOX", "note": "ON 12/24 AND 12/31, THIS BOX MAY BE COLLECTED AS EARLY AS 12 NOON.", "ref": "7081800002"}, "type": "Feature"}
{"geometry": {"coordinates": [-91.037472602, 30.554114142], "type": "Point"}, "id": "8eXvTkEOMLqdF3rWQCeNhgzWv5A=", "properties": {"@spider": "usps_collection_boxes", "addr:city": "BATON ROUGE", "addr:country": "US", "addr:full": "13515 HOOPER RD", "addr:postcode": "70818", "addr:state": "LA", "brand": "USPS", "collection_times": "Mo-Fr 15:30; Sa 12:30", "name": "USPS COLLECTION BOX - PO LOBBY", "note": "ON 12/24 AND 12/31, THIS BOX MAY BE COLLECTED AS EARLY AS 12 NOON.", "ref": "7081800003"}, "type": "Feature"}
{"geometry": {"coordinates": [-91.037472602, 30.554114142], "type": "Point"}, "id": "h5-I6KvB7eqwJJVE8vT949NWgJA=", "properties": {"@spider": "usps_collection_boxes", "addr:city": "BATON ROUGE", "addr:country": "US", "addr:full": "13515 HOOPER RD", "addr:postcode": "70818", "addr:state": "LA", "brand": "USPS", "collection_times": "Mo-Fr 15:30; Sa 12:30", "name": "USPS COLLECTION BOX - PO LOBBY", "note": "ON 12/24 AND 12/31, THIS BOX MAY BE COLLECTED AS EARLY AS 12 NOON.", "ref": "7081800005"}, "type": "Feature"}
{"geometry": {"coordinates": [-91.037472602, 30.5541141416], "type": "Point"}, "id": "rIMIYvyKxTRABU1YY-LPn3aiMs4=", "properties": {"@spider": "usps_collection_boxes", "addr:city": "BATON ROUGE", "addr:country": "US", "addr:full": "13515 HOOPER RD", "addr:postcode": "70818", "addr:state": "LA", "brand": "USPS", "collection_times": "Mo-Fr 16:30; Sa 12:30", "name": "USPS COLLECTION BOX - PO LOBBY", "note": "ON 12/24 AND 12/31, THIS BOX MAY BE COLLECTED AS EARLY AS 12 NOON.", "ref": "7081800008"}, "type": "Feature"}
{"geometry": {"coordinates": [-91.097595, 30.37608], "type": "Point"}, "id": "BD-LiD9G7d-da2GaPs0zK81JfBA=", "properties": {"@spider": "usps_collection_boxes", "addr:city": "BATON ROUGE", "addr:country": "US", "addr:full": "8101 BLUEBONNET BLVD", "addr:postcode": "70826", "addr:state": "LA", "brand": "USPS", "collection_times": "Mo-Sa 18:30", "name": "USPS COLLECTION BOX - BLUE BOX", "note": "ON 12/24 AND 12/31, THIS BOX MAY BE COLLECTED AS EARLY AS 12 NOON.", "ref": "7082600003"}, "type": "Feature"}
{"geometry": {"coordinates": [-91.097595, 30.37608], "type": "Point"}, "id": "xK1rub61VQ4309JIsUx-VoHBVu0=", "properties": {"@spider": "usps_collection_boxes", "addr:city": "BATON ROUGE", "addr:country": "US", "addr:full": "8101 BLUEBONNET BLVD", "addr:postcode": "70826", "addr:state": "LA", "brand": "USPS", "collection_times": "Mo-Sa 18:30", "name": "USPS COLLECTION BOX - BLUE BOX", "note": "ON 12/24 AND 12/31, THIS BOX MAY BE COLLECTED AS EARLY AS 12 NOON.", "ref": "7082600004"}, "type": "Feature"}
{"geometry": {"coordinates": [-91.097595, 30.37608], "type": "Point"}, "id": "WPOL8fD5fmPqYChAw-S5MajvF0c=", "properties": {"@spider": "usps_collection_boxes", "addr:city": "BATON ROUGE", "addr:country": "US", "addr:full": "8101 BLUEBONNET BLVD", "addr:postcode": "70826", "addr:state": "LA", "brand": "USPS", "collection_times": "Mo-Sa 18:30", "name": "USPS COLLECTION BOX - BLUE BOX", "note": "ON 12/24 AND 12/31, THIS BOX MAY BE COLLECTED AS EARLY AS 12 NOON.", "ref": "7082600005"}, "type": "Feature"}
