{"geometry": {"coordinates": [-92.922687034, 32.549032002], "type": "Point"}, "id": "CPV-eIftlaYXbZaGzmi6Vlwe89U=", "properties": {"@source_uri": "https://tools.usps.com/UspsToolsRestServices/rest/POLocator/findLocations", "@spider": "usps_collection_boxes", "addr:city": "ARCADIA", "addr:country": "US", "addr:postcode": "71001", "addr:state": "LA", "addr:street_address": "1979 RAILROAD AVE", "amenity": "post_box", "collection_times": "Mo-Fr 15:15", "note": "ON 12/24 AND 12/31, THIS BOX MAY BE COLLECTED AS EARLY AS 12 NOON.", "nsi_id": "unitedstatespostalservice-a77078", "operator": "United States Postal Service", "operator:short": "USPS", "operator:type": "public", "operator:wikidata": "Q668687", "ref": "7100100004"}, "type": "Feature"}
{"geometry": {"coordinates": [-92.922687034, 32.549032002], "type": "Point"}, "id": "XVyZmkF-7yHxL7_9LWg8Cu3dof8=", "properties": {"@source_uri": "https://tools.usps.com/UspsToolsRestServices/rest/POLocator/findLocations", "@spider": "usps_collection_boxes", "addr:city": "ARCADIA", "addr:country": "US", "addr:postcode": "71001", "addr:state": "LA", "addr:street_address": "1979 RAILROAD AVE", "amenity": "post_box", "collection_times": "Mo-Fr 15:15", "indoor": "yes", "note": "ON 12/24 AND 12/31, THIS BOX MAY BE COLLECTED AS EARLY AS 12 NOON.", "nsi_id": "unitedstatespostalservice-a77078", "operator": "United States Postal Service", "operator:short": "USPS", "operator:type": "public", "operator:wikidata": "Q668687", "ref": "7100100006"}, "type": "Feature"}
{"geometry": {"coordinates": [-92.922687034, 32.549032002], "type": "Point"}, "id": "Lsx9Cr0g3DmRyvmRtSt77keDo2k=", "properties": {"@source_uri": "https://tools.usps.com/UspsToolsRestServices/rest/POLocator/findLocations", "@spider": "usps_collection_boxes", "addr:city": "ARCADIA", "addr:country": "US", "addr:postcode": "71001", "addr:state": "LA", "addr:street_address": "1979 RAILROAD AVE", "amenity": "post_box", "collection_times": "Mo-Fr 15:15", "indoor": "yes", "note": "ON 12/24 AND 12/31, THIS BOX MAY BE COLLECTED AS EARLY AS 12 NOON.", "nsi_id": "unitedstatespostalservice-a77078", "operator": "United States Postal Service", "operator:short": "USPS", "operator:type": "public", "operator:wikidata": "Q668687", "ref": "7100100007"}, "type": "Feature"}
{"geometry": {"coordinates": [-92.922687034, 32.549032002], "type": "Point"}, "id": "T4obKhmPOyCJgwxw_G43dyISyEM=", "properties": {"@source_uri": "https://tools.usps.com/UspsToolsRestServices/rest/POLocator/findLocations", "@spider": "usps_collection_boxes", "addr:city": "ARCADIA", "addr:country": "US", "addr:postcode": "71001", "addr:state": "LA", "addr:street_address": "1979 RAILROAD AVE", "amenity": "post_box", "collection_times": "Mo-Fr 15:30", "indoor": "yes", "note": "ON 12/24 AND 12/31, THIS BOX MAY BE COLLECTED AS EARLY AS 12 NOON.", "nsi_id": "unitedstatespostalservice-a77078", "operator": "United States Postal Service", "operator:short": "USPS", "operator:type": "public", "operator:wikidata": "Q668687", "ref": "7100100010"}, "type": "Feature"}
{"geometry": {"coordinates": [-93.0984269, 32.1381125], "type": "Point"}, "id": "8sdSu23RmH2PPEFHDcb4PabS5iE=", "properties": {"@source_uri": "https://tools.usps.com/UspsToolsRestServices/rest/POLocator/findLocations", "@spider": "usps_collection_boxes", "addr:city": "ASHLAND", "addr:country": "US", "addr:postcode": "71002", "addr:state": "LA", "addr:street_address": "521 HIGHWAY 153", "amenity": "post_box", "collection_times": "Mo-Fr 15:15; Sa 08:00", "note": "ON 12/24 AND 12/31, THIS BOX MAY BE COLLECTED AS EARLY AS 12 NOON.", "nsi_id": "unitedstatespostalservice-a77078", "operator": "United States Postal Service", "operator:short": "USPS", "operator:type": "public", "operator:wikidata": "Q668687", "ref": "7100200001"}, "type": "Feature"}
{"geometry": {"coordinates": [-93.0984269, 32.1381125], "type": "Point"}, "id": "AJHOeM2iSV-jSi-J2AKafG2Axtk=", "properties": {"@source_uri": "https://tools.usps.com/UspsToolsRestServices/rest/POLocator/findLocations", "@spider": "usps_collection_boxes", "addr:city": "ASHLAND", "addr:country": "US", "addr:postcode": "71002", "addr:state": "LA", "addr:street_address": "521 HIGHWAY 153", "amenity": "post_box", "collection_times": "Mo-Fr 15:15", "indoor": "yes", "note": "ON 12/24 AND 12/31, THIS BOX MAY BE COLLECTED AS EARLY AS 12 NOON.", "nsi_id": "unitedstatespostalservice-a77078", "operator": "United States Postal Service", "operator:short": "USPS", "operator:type": "public", "operator:wikidata": "Q668687", "ref": "7100200002"}, "type": "Feature"}
{"geometry": {"coordinates": [-93.0984269, 32.1381125], "type": "Point"}, "id": "OBNGRYczeuz5XxbJXo-4pWbq2tE=", "properties": {"@source_uri": "https://tools.usps.com/UspsToolsRestServices/rest/POLocator/findLocations", "@spider": "usps_collection_boxes", "addr:city": "ASHLAND", "addr:country": "US", "addr:postcode": "71002", "addr:state": "LA", "addr:street_address": "521 HIGHWAY 153", "amenity": "post_box", "collection_times": "Mo-Fr 15:30", "indoor": "yes", "note": "ON 12/24 AND 12/31, THIS BOX MAY BE COLLECTED AS EARLY AS 12 NOON.", "nsi_id": "unitedstatespostalservice-a77078", "operator": "United States Postal Service", "operator:short": "USPS", "operator:type": "public", "operator:wikidata": "Q668687", "ref": "7100200003"}, "type": "Feature"}
{"geometry": {"coordinates": [-93.024920017, 32.656310011], "type": "Point"}, "id": "XmA0q-9c6klAbT2yYvx-BVI81CU=", "properties": {"@source_uri": "https://tools.usps.com/UspsToolsRestServices/rest/POLocator/findLocations", "@spider": "usps_collection_boxes", "addr:city": "ATHENS", "addr:country": "US", "addr:postcode": "71003", "addr:state": "LA", "addr:street_address": "258 HIGHWAY 805", "amenity": "post_box", "collection_times": "Mo-Fr 12:00", "nsi_id": "unitedstatespostalservice-a77078", "operator": "United States Postal Service", "operator:short": "USPS", "operator:type": "public", "operator:wikidata": "Q668687", "ref": "7100300001"}, "type": "Feature"}
{"geometry": {"coordinates": [-93.024920017, 32.656310011], "type": "Point"}, "id": "QJ2j8DXMs6J5cV4VmyUjEepkqO0=", "properties": {"@source_uri": "https://tools.usps.com/UspsToolsRestServices/rest/POLocator/findLocations", "@spider": "usps_collection_boxes", "addr:city": "ATHENS", "addr:country": "US", "addr:postcode": "71003", "addr:state": "LA", "addr:street_address": "258 HIGHWAY 805", "amenity": "post_box", "collection_times": "Mo-Fr 12:00", "indoor": "yes", "nsi_id": "unitedstatespostalservice-a77078", "operator": "United States Postal Service", "operator:short": "USPS", "operator:type": "public", "operator:wikidata": "Q668687", "ref": "7100300002"}, "type": "Feature"}
{"geometry": {"coordinates": [-93.024920017, 32.656310011], "type": "Point"}, "id": "GLyDyksOPsfD3GkeezfUiSHb6ro=", "properties": {"@source_uri": "https://tools.usps.com/UspsToolsRestServices/rest/POLocator/findLocations", "@spider": "usps_collection_boxes", "addr:city": "ATHENS", "addr:country": "US", "addr:postcode": "71003", "addr:state": "LA", "addr:street_address": "258 HIGHWAY 805", "amenity": "post_box", "collection_times": "Mo-Fr 12:00", "indoor": "yes", "nsi_id": "unitedstatespostalservice-a77078", "operator": "United States Postal Service", "operator:short": "USPS", "operator:type": "public", "operator:wikidata": "Q668687", "ref": "7100300003"}, "type": "Feature"}
{"geometry": {"coordinates": [-93.8351328, 32.7502397], "type": "Point"}, "id": "lmf3BUcAdCflX3-H7aX_ufX82nw=", "properties": {"@source_uri": "https://tools.usps.com/UspsToolsRestServices/rest/POLocator/findLocations", "@spider": "usps_collection_boxes", "addr:city": "BELCHER", "addr:country": "US", "addr:postcode": "71004", "addr:state": "LA", "addr:street_address": "714 RAILROAD ST", "amenity": "post_box", "collection_times": "Mo-Fr 11:45; Sa 07:45", "nsi_id": "unitedstatespostalservice-a77078", "operator": "United States Postal Service", "operator:short": "USPS", "operator:type": "public", "operator:wikidata": "Q668687", "ref": "7100400001"}, "type": "Feature"}
{"geometry": {"coordinates": [-93.8351328, 32.7502397], "type": "Point"}, "id": "RL6whoOxFiNeyXfF3NJUzlfBubU=", "properties": {"@source_uri": "https://tools.usps.com/UspsToolsRestServices/rest/POLocator/findLocations", "@spider": "usps_collection_boxes", "addr:city": "BELCHER", "addr:country": "US", "addr:postcode": "71004", "addr:state": "LA", "addr:street_address": "714 RAILROAD ST", "amenity": "post_box", "collection_times": "Mo-Fr 11:45; Sa 07:45", "indoor": "yes", "nsi_id": "unitedstatespostalservice-a77078", "operator": "United States Postal Service", "operator:short": "USPS", "operator:type": "public", "operator:wikidata": "Q668687", "ref": "7100400003"}, "type": "Feature"}
{"geometry": {"coordinates": [-93.8351328, 32.7502397], "type": "Point"}, "id": "aFkJax1lJLsBIKmm-dSynL-b-uE=", "properties": {"@source_uri": "https://tools.usps.com/UspsToolsRestServices/rest/POLocator/findLocations", "@spider": "usps_collection_boxes", "addr:city": "BELCHER", "addr:country": "US", "addr:postcode": "71004", "addr:state": "LA", "addr:street_address": "714 RAILROAD ST", "amenity": "post_box", "collection_times": "Mo-Fr 12:00", "indoor": "yes", "nsi_id": "unitedstatespostalservice-a77078", "operator": "United States Postal Service", "operator:short": "USPS", "operator:type": "public", "operator:wikidata": "Q668687", "ref": "7100400004"}, "type": "Feature"}
{"geometry": {"coordinates": [-93.739019024, 32.679852011], "type": "Point"}, "id": "nxcYSRs-hX7l5ntc3SC_L8-Bco8=", "properties": {"@source_uri": "https://tools.usps.com/UspsToolsRestServices/rest/POLocator/findLocations", "@spider": "usps_collection_boxes", "addr:city": "BENTON", "addr:country": "US", "addr:postcode": "71006", "addr:state": "LA", "addr:street_address": "180 BURT BLVD", "amenity": "post_box", "collection_times": "Mo-Fr 16:15; Sa 08:30", "note": "ON 12/24 AND 12/31, THIS BOX MAY BE COLLECTED AS EARLY AS 12 NOON.", "nsi_id": "unitedstatespostalservice-a77078", "operator": "United States Postal Service", "operator:short": "USPS", "operator:type": "public", "operator:wikidata": "Q668687", "ref": "7100600001"}, "type": "Feature"}
{"geometry": {"coordinates": [-93.739019024, 32.679852011], "type": "Point"}, "id": "o22nJOgQQHze4V1dCHefYLDy0JI=", "properties": {"@source_uri": "https://tools.usps.com/UspsToolsRestServices/rest/POLocator/findLocations", "@spider": "usps_collection_boxes", "addr:city": "BENTON", "addr:country": "US", "addr:postcode": "71006", "addr:state": "LA", "addr:street_address": "180 BURT BLVD", "amenity": "post_box", "collection_times": "Mo-Fr 16:15; Sa 08:30", "indoor": "yes", "note": "ON 12/24 AND 12/31, THIS BOX MAY BE COLLECTED AS EARLY AS 12 NOON.", "nsi_id": "unitedstatespostalservice-a77078", "operator": "United States Postal Service", "operator:short": "USPS", "operator:type": "public", "operator:wikidata": "Q668687", "ref": "7100600003"}, "type": "Feature"}
{"geometry": {"coordinates": [-93.739019024, 32.679852011], "type": "Point"}, "id": "SqrNltJFNc5fb9S07XhVrLFxB2I=", "properties": {"@source_uri": "https://tools.usps.com/UspsToolsRestServices/rest/POLocator/findLocations", "@spider": "usps_collection_boxes", "addr:city": "BENTON", "addr:country": "US", "addr:postcode": "71006", "addr:state": "LA", "addr:street_address": "180 BURT BLVD", "amenity": "post_box", "collection_times": "Mo-Fr 16:00", "indoor": "yes", "note": "ON 12/24 AND 12/31, THIS BOX MAY BE COLLECTED AS EARLY AS 12 NOON.", "nsi_id": "unitedstatespostalservice-a77078", "operator": "United States Postal Service", "operator:short": "USPS", "operator:type": "public", "operator:wikidata": "Q668687", "ref": "7100600006"}, "type": "Feature"}
{"geometry": {"coordinates": [-94.042158012, 32.372988985], "type": "Point"}, "id": "WuepRJcF3TWLx88D4dAw16oPlLo=", "properties": {"@source_uri": "https://tools.usps.com/UspsToolsRestServices/rest/POLocator/findLocations", "@spider": "usps_collection_boxes", "addr:city": "BETHANY", "addr:country": "US", "addr:postcode": "71007", "addr:state": "LA", "addr:street_address": "10085 HIGHWAY 79", "amenity": "post_box", "collection_times": "Mo-Fr 15:30; Sa 07:30", "note": "ON 12/24 AND 12/31, THIS BOX MAY BE COLLECTED AS EARLY AS 12 NOON.", "nsi_id": "unitedstatespostalservice-a77078", "operator": "United States Postal Service", "operator:short": "USPS", "operator:type": "public", "operator:wikidata": "Q668687", "ref": "7100700001"}, "type": "Feature"}
{"geometry": {"coordinates": [-94.042158012, 32.372988985], "type": "Point"}, "id": "jyPujbyWGKC7aljWbIfrmI4wkyw=", "properties": {"@source_uri": "https://tools.usps.com/UspsToolsRestServices/rest/POLocator/findLocations", "@spider": "usps_collection_boxes", "addr:city": "BETHANY", "addr:country": "US", "addr:postcode": "71007", "addr:state": "LA", "addr:street_address": "10085 HIGHWAY 79", "amenity": "post_box", "collection_times": "Mo-Fr 15:30; Sa 07:30", "indoor": "yes", "note": "ON 12/24 AND 12/31, THIS BOX MAY BE COLLECTED AS EARLY AS 12 NOON.", "nsi_id": "unitedstatespostalservice-a77078", "operator": "United States Postal Service", "operator:short": "USPS", "operator:type": "public", "operator:wikidata": "Q668687", "ref": "7100700003"}, "type": "Feature"}
{"geometry": {"coordinates": [-94.042158012, 32.372988985], "type": "Point"}, "id": "EYBUd4zl91mCm7bTvxpIHYQYO5A=", "properties": {"@source_uri": "https://tools.usps.com/UspsToolsRestServices/rest/POLocator/findLocations", "@spider": "usps_collection_boxes", "addr:city": "BETHANY", "addr:country": "US", "addr:postcode": "71007", "addr:state": "LA", "addr:street_address": "10085 HIGHWAY 79", "amenity": "post_box", "collection_times": "Mo-Fr 16:00", "indoor": "yes", "note": "ON 12/24 AND 12/31, THIS BOX MAY BE COLLECTED AS EARLY AS 12 NOON.", "nsi_id": "unitedstatespostalservice-a77078", "operator": "United States Postal Service", "operator:short": "USPS", "operator:type": "public", "operator:wikidata": "Q668687", "ref": "7100700004"}, "type": "Feature"}
{"geometry": {"coordinates": [-92.979921015, 32.354483], "type": "Point"}, "id": "Rw2a_gElBUutSI-izjyp7t4vCUE=", "properties": {"@source_uri": "https://tools.usps.com/UspsToolsRestServices/rest/POLocator/findLocations", "@spider": "usps_collection_boxes", "addr:city": "BIENVILLE", "addr:country": "US", "addr:postcode": "71008", "addr:state": "LA", "addr:street_address": "25549 HIGHWAY 9", "amenity": "post_box", "collection_times": "Mo-Fr 11:00; Sa 08:00", "nsi_id": "unitedstatespostalservice-a77078", "operator": "United States Postal Service", "operator:short": "USPS", "operator:type": "public", "operator:wikidata": "Q668687", "ref": "7100800001"}, "type": "Feature"}
{"geometry": {"coordinates": [-92.979921015, 32.354483], "type": "Point"}, "id": "tm6tkex2QSak1EUBfE5H6P6ue_I=", "properties": {"@source_uri": "https://tools.usps.com/UspsToolsRestServices/rest/POLocator/findLocations", "@spider": "usps_collection_boxes", "addr:city": "BIENVILLE", "addr:country": "US", "addr:postcode": "71008", "addr:state": "LA", "addr:street_address": "25549 HIGHWAY 9", "amenity": "post_box", "collection_times": "Mo-Fr 11:00; Sa 08:00", "indoor": "yes", "nsi_id": "unitedstatespostalservice-a77078", "operator": "United States Postal Service", "operator:short": "USPS", "operator:type": "public", "operator:wikidata": "Q668687", "ref": "7100800003"}, "type": "Feature"}
{"geometry": {"coordinates": [-92.979921015, 32.354483], "type": "Point"}, "id": "AZYnoAv6eayVSvqfDl6fI_oAtzw=", "properties": {"@source_uri": "https://tools.usps.com/UspsToolsRestServices/rest/POLocator/findLocations", "@spider": "usps_collection_boxes", "addr:city": "BIENVILLE", "addr:country": "US", "addr:postcode": "71008", "addr:state": "LA", "addr:street_address": "25549 HIGHWAY 9", "amenity": "post_box", "collection_times": "Mo-Fr 11:00", "indoor": "yes", "nsi_id": "unitedstatespostalservice-a77078", "operator": "United States Postal Service", "operator:short": "USPS", "operator:type": "public", "operator:wikidata": "Q668687", "ref": "7100800004"}, "type": "Feature"}
{"geometry": {"coordinates": [-93.891515, 32.58071], "type": "Point"}, "id": "vUZHY_QeCRhpG-hb4dr0YFUlpeI=", "properties": {"@source_uri": "https://tools.usps.com/UspsToolsRestServices/rest/POLocator/findLocations", "@spider": "usps_collection_boxes", "addr:city": "BLANCHARD", "addr:country": "US", "addr:postcode": "71009", "addr:state": "LA", "addr:street_address": "130 MAIN ST", "amenity": "post_box", "collection_times": "Mo-Fr 15:30; Sa 07:00", "note": "ON 12/24 AND 12/31, THIS BOX MAY BE COLLECTED AS EARLY AS 12 NOON.", "nsi_id": "unitedstatespostalservice-a77078", "operator": "United States Postal Service", "operator:short": "USPS", "operator:type": "public", "operator:wikidata": "Q668687", "ref": "7100900002"}, "type": "Feature"}
{"geometry": {"coordinates": [-93.891515, 32.58071], "type": "Point"}, "id": "FMW8GQwr5y1-39dSI6v82DDUTaU=", "properties": {"@source_uri": "https://tools.usps.com/UspsToolsRestServices/rest/POLocator/findLocations", "@spider": "usps_collection_boxes", "addr:city": "BLANCHARD", "addr:country": "US", "addr:postcode": "71009", "addr:state": "LA", "addr:street_address": "130 MAIN ST", "amenity": "post_box", "collection_times": "Mo-Fr 15:30; Sa 07:00", "indoor": "yes", "note": "ON 12/24 AND 12/31, THIS BOX MAY BE COLLECTED AS EARLY AS 12 NOON.", "nsi_id": "unitedstatespostalservice-a77078", "operator": "United States Postal Service", "operator:short": "USPS", "operator:type": "public", "operator:wikidata": "Q668687", "ref": "7100900005"}, "type": "Feature"}
{"geometry": {"coordinates": [-93.891515, 32.58071], "type": "Point"}, "id": "QngE4zx7HjJE3dBtr1tsM4dYfos=", "properties": {"@source_uri": "https://tools.usps.com/UspsToolsRestServices/rest/POLocator/findLocations", "@spider": "usps_collection_boxes", "addr:city": "BLANCHARD", "addr:country": "US", "addr:postcode": "71009", "addr:state": "LA", "addr:street_address": "130 MAIN ST", "amenity": "post_box", "collection_times": "Mo-Fr 16:00", "indoor": "yes", "note": "ON 12/24 AND 12/31, THIS BOX MAY BE COLLECTED AS EARLY AS 12 NOON.", "nsi_id": "unitedstatespostalservice-a77078", "operator": "United States Postal Service", "operator:short": "USPS", "operator:type": "public", "operator:wikidata": "Q668687", "ref": "7100900006"}, "type": "Feature"}
{"geometry": {"coordinates": [-93.166827985, 32.253158992], "type": "Point"}, "id": "BF5iRGxc6k8ZXM4mBiDg0oj7Qyw=", "properties": {"@source_uri": "https://tools.usps.com/UspsToolsRestServices/rest/POLocator/findLocations", "@spider": "usps_collection_boxes", "addr:city": "CASTOR", "addr:country": "US", "addr:postcode": "71016", "addr:state": "LA", "addr:street_address": "8992 HIGHWAY 4", "amenity": "post_box", "collection_times": "Mo-Fr 13:45; Sa 07:00", "note": "ON 12/24 AND 12/31, THIS BOX MAY BE COLLECTED AS EARLY AS 12 NOON.", "nsi_id": "unitedstatespostalservice-a77078", "operator": "United States Postal Service", "operator:short": "USPS", "operator:type": "public", "operator:wikidata": "Q668687", "ref": "7101600001"}, "type": "Feature"}
{"geometry": {"coordinates": [-93.166827985, 32.253158992], "type": "Point"}, "id": "pgPtc0A3_181Mc0U3yMn3UokIio=", "properties": {"@source_uri": "https://tools.usps.com/UspsToolsRestServices/rest/POLocator/findLocations", "@spider": "usps_collection_boxes", "addr:city": "CASTOR", "addr:country": "US", "addr:postcode": "71016", "addr:state": "LA", "addr:street_address": "8992 HIGHWAY 4", "amenity": "post_box", "collection_times": "Mo-Fr 13:45", "indoor": "yes", "note": "ON 12/24 AND 12/31, THIS BOX MAY BE COLLECTED AS EARLY AS 12 NOON.", "nsi_id": "unitedstatespostalservice-a77078", "operator": "United States Postal Service", "operator:short": "USPS", "operator:type": "public", "operator:wikidata": "Q668687", "ref": "7101600003"}, "type": "Feature"}
{"geometry": {"coordinates": [-93.166827985, 32.253158992], "type": "Point"}, "id": "7Vmy9VhQXWACsp9zYSmDz3pR4VA=", "properties": {"@source_uri": "https://tools.usps.com/UspsToolsRestServices/rest/POLocator/findLocations", "@spider": "usps_collection_boxes", "addr:city": "CASTOR", "addr:country": "US", "addr:postcode": "71016", "addr:state": "LA", "addr:street_address": "8992 HIGHWAY 4", "amenity": "post_box", "collection_times": "Mo-Fr 13:45", "indoor": "yes", "note": "ON 12/24 AND 12/31, THIS BOX MAY BE COLLECTED AS EARLY AS 12 NOON.", "nsi_id": "unitedstatespostalservice-a77078", "operator": "United States Postal Service", "operator:short": "USPS", "operator:type": "public", "operator:wikidata": "Q668687", "ref": "7101600004"}, "type": "Feature"}
{"geometry": {"coordinates": [-93.417406992, 32.817236014], "type": "Point"}, "id": "FYY9buUW6tUTATmprxfAuy35qJk=", "properties": {"@source_uri": "https://tools.usps.com/UspsToolsRestServices/rest/POLocator/findLocations", "@spider": "usps_collection_boxes", "addr:city": "COTTON VALLEY", "addr:country": "US", "addr:postcode": "71018", "addr:state": "LA", "addr:street_address": "439 RESIDENT ST", "amenity": "post_box", "collection_times": "Mo-Fr 15:00", "note": "ON 12/24 AND 12/31, THIS BOX MAY BE COLLECTED AS EARLY AS 12 NOON.", "nsi_id": "unitedstatespostalservice-a77078", "operator": "United States Postal Service", "operator:short": "USPS", "operator:type": "public", "operator:wikidata": "Q668687", "ref": "7101800002"}, "type": "Feature"}
{"geometry": {"coordinates": [-93.417406992, 32.817236014], "type": "Point"}, "id": "zBoL4iyWDhPq1tPp8Y27Z_094JM=", "properties": {"@source_uri": "https://tools.usps.com/UspsToolsRestServices/rest/POLocator/findLocations", "@spider": "usps_collection_boxes", "addr:city": "COTTON VALLEY", "addr:country": "US", "addr:postcode": "71018", "addr:state": "LA", "addr:street_address": "439 RESIDENT ST", "amenity": "post_box", "collection_times": "Mo-Fr 15:00", "indoor": "yes", "note": "ON 12/24 AND 12/31, THIS BOX MAY BE COLLECTED AS EARLY AS 12 NOON.", "nsi_id": "unitedstatespostalservice-a77078", "operator": "United States Postal Service", "operator:short": "USPS", "operator:type": "public", "operator:wikidata": "Q668687", "ref": "7101800004"}, "type": "Feature"}
{"geometry": {"coordinates": [-93.417406992, 32.817236014], "type": "Point"}, "id": "ypQzMTI0muMcs9e-uNXb2Dn3m5Q=", "properties": {"@source_uri": "https://tools.usps.com/UspsToolsRestServices/rest/POLocator/findLocations", "@spider": "usps_collection_boxes", "addr:city": "COTTON VALLEY", "addr:country": "US", "addr:postcode": "71018", "addr:state": "LA", "addr:street_address": "439 RESIDENT ST", "amenity": "post_box", "collection_times": "Mo-Fr 15:00", "indoor": "yes", "note": "ON 12/24 AND 12/31, THIS BOX MAY BE COLLECTED AS EARLY AS 12 NOON.", "nsi_id": "unitedstatespostalservice-a77078", "operator": "United States Postal Service", "operator:short": "USPS", "operator:type": "public", "operator:wikidata": "Q668687", "ref": "7101800005"}, "type": "Feature"}
{"geometry": {"coordinates": [-93.338517022, 32.021627986], "type": "Point"}, "id": "RWYBmEjJzqi2QQSnjeRIcqlPDrQ=", "properties": {"@source_uri": "https://tools.usps.com/UspsToolsRestServices/rest/POLocator/findLocations", "@spider": "usps_collection_boxes", "addr:city": "COUSHATTA", "addr:country": "US", "addr:postcode": "71019", "addr:state": "LA", "addr:street_address": "5036 CUT OFF RD", "amenity": "post_box", "collection_times": "Mo-Fr 16:00; Sa 11:00", "indoor": "yes", "note": "ON 12/24 AND 12/31, THIS BOX MAY BE COLLECTED AS EARLY AS 12 NOON.", "nsi_id": "unitedstatespostalservice-a77078", "operator": "United States Postal Service", "operator:short": "USPS", "operator:type": "public", "operator:wikidata": "Q668687", "ref": "7101900007"}, "type": "Feature"}
{"geometry": {"coordinates": [-93.338517022, 32.021627986], "type": "Point"}, "id": "UkKpQrPhzblMaoNICrX5j2h0Zok=", "properties": {"@source_uri": "https://tools.usps.com/UspsToolsRestServices/rest/POLocator/findLocations", "@spider": "usps_collection_boxes", "addr:city": "COUSHATTA", "addr:country": "US", "addr:postcode": "71019", "addr:state": "LA", "addr:street_address": "5036 CUT OFF RD", "amenity": "post_box", "collection_times": "Mo-Fr 16:00; Sa 11:00", "note": "ON 12/24 AND 12/31, THIS BOX MAY BE COLLECTED AS EARLY AS 12 NOON.", "nsi_id": "unitedstatespostalservice-a77078", "operator": "United States Postal Service", "operator:short": "USPS", "operator:type": "public", "operator:wikidata": "Q668687", "ref": "7101900009"}, "type": "Feature"}
{"geometry": {"coordinates": [-93.338517022, 32.021627986], "type": "Point"}, "id": "9NcL162sPIamZ8IFts70U-LGZxg=", "properties": {"@source_uri": "https://tools.usps.com/UspsToolsRestServices/rest/POLocator/findLocations", "@spider": "usps_collection_boxes", "addr:city": "COUSHATTA", "addr:country": "US", "addr:postcode": "71019", "addr:state": "LA", "addr:street_address": "5036 CUT OFF RD", "amenity": "post_box", "collection_times": "Mo-Fr 16:00", "indoor": "yes", "note": "ON 12/24 AND 12/31, THIS BOX MAY BE COLLECTED AS EARLY AS 12 NOON.", "nsi_id": "unitedstatespostalservice-a77078", "operator": "United States Postal Service", "operator:short": "USPS", "operator:type": "public", "operator:wikidata": "Q668687", "ref": "7101900010"}, "type": "Feature"}
{"geometry": {"coordinates": [-93.455079037, 32.96990798], "type": "Point"}, "id": "V722GXaJgX7FXgMY_OuOcP62wVI=", "properties": {"@source_uri": "https://tools.usps.com/UspsToolsRestServices/rest/POLocator/findLocations", "@spider": "usps_collection_boxes", "addr:city": "CULLEN", "addr:country": "US", "addr:postcode": "71021", "addr:state": "LA", "addr:street_address": "511 COYLE AVE", "amenity": "post_box", "collection_times": "Mo-Fr 15:45; Sa 07:30", "note": "ON 12/24 AND 12/31, THIS BOX MAY BE COLLECTED AS EARLY AS 12 NOON.", "nsi_id": "unitedstatespostalservice-a77078", "operator": "United States Postal Service", "operator:short": "USPS", "operator:type": "public", "operator:wikidata": "Q668687", "ref": "7102100001"}, "type": "Feature"}
{"geometry": {"coordinates": [-93.455079037, 32.96990798], "type": "Point"}, "id": "PTXZjbvfj_Lw6kWALz38nwbfiD0=", "properties": {"@source_uri": "https://tools.usps.com/UspsToolsRestServices/rest/POLocator/findLocations", "@spider": "usps_collection_boxes", "addr:city": "CULLEN", "addr:country": "US", "addr:postcode": "71021", "addr:state": "LA", "addr:street_address": "511 COYLE AVE", "amenity": "post_box", "collection_times": "Mo-Fr 15:45; Sa 07:30", "indoor": "yes", "note": "ON 12/24 AND 12/31, THIS BOX MAY BE COLLECTED AS EARLY AS 12 NOON.", "nsi_id": "unitedstatespostalservice-a77078", "operator": "United States Postal Service", "operator:short": "USPS", "operator:type": "public", "operator:wikidata": "Q668687", "ref": "7102100005"}, "type": "Feature"}
{"geometry": {"coordinates": [-93.455079037, 32.96990798], "type": "Point"}, "id": "HENPItIirucAvFZQ_kYpa-tBY0I=", "properties": {"@source_uri": "https://tools.usps.com/UspsToolsRestServices/rest/POLocator/findLocations", "@spider": "usps_collection_boxes", "addr:city": "CULLEN", "addr:country": "US", "addr:postcode": "71021", "addr:state": "LA", "addr:street_address": "511 COYLE AVE", "amenity": "post_box", "collection_times": "Mo-Fr 16:00", "indoor": "yes", "note": "ON 12/24 AND 12/31, THIS BOX MAY BE COLLECTED AS EARLY AS 12 NOON.", "nsi_id": "unitedstatespostalservice-a77078", "operator": "United States Postal Service", "operator:short": "USPS", "operator:type": "public", "operator:wikidata": "Q668687", "ref": "7102100006"}, "type": "Feature"}
{"geometry": {"coordinates": [-93.408598031, 32.530318984], "type": "Point"}, "id": "x5Vyj21DrOxChTC375zisX8fUDE=", "properties": {"@source_uri": "https://tools.usps.com/UspsToolsRestServices/rest/POLocator/findLocations", "@spider": "usps_collection_boxes", "addr:city": "DOYLINE", "addr:country": "US", "addr:postcode": "71023", "addr:state": "LA", "addr:street_address": "125 PILGRIM REST RD", "amenity": "post_box", "collection_times": "Mo-Fr 16:00; Sa 09:30", "note": "ON 12/24 AND 12/31, THIS BOX MAY BE COLLECTED AS EARLY AS 12 NOON.", "nsi_id": "unitedstatespostalservice-a77078", "operator": "United States Postal Service", "operator:short": "USPS", "operator:type": "public", "operator:wikidata": "Q668687", "ref": "7102300001"}, "type": "Feature"}
{"geometry": {"coordinates": [-93.408598031, 32.530318984], "type": "Point"}, "id": "s216Q2EfhNeoOwIun08tloBDx0E=", "properties": {"@source_uri": "https://tools.usps.com/UspsToolsRestServices/rest/POLocator/findLocations", "@spider": "usps_collection_boxes", "addr:city": "DOYLINE", "addr:country": "US", "addr:postcode": "71023", "addr:state": "LA", "addr:street_address": "125 PILGRIM REST RD", "amenity": "post_box", "collection_times": "Mo-Fr 16:00; Sa 09:30", "indoor": "yes", "note": "ON 12/24 AND 12/31, THIS BOX MAY BE COLLECTED AS EARLY AS 12 NOON.", "nsi_id": "unitedstatespostalservice-a77078", "operator": "United States Postal Service", "operator:short": "USPS", "operator:type": "public", "operator:wikidata": "Q668687", "ref": "7102300002"}, "type": "Feature"}
{"geometry": {"coordinates": [-93.408598031, 32.530318984], "type": "Point"}, "id": "AmO8hLAocuZolLBuMDw5BgKrjIs=", "properties": {"@source_uri": "https://tools.usps.com/UspsToolsRestServices/rest/POLocator/findLocations", "@spider": "usps_collection_boxes", "addr:city": "DOYLINE", "addr:country": "US", "addr:postcode": "71023", "addr:state": "LA", "addr:street_address": "125 PILGRIM REST RD", "amenity": "post_box", "collection_times": "Mo-Fr 16:00", "indoor": "yes", "note": "ON 12/24 AND 12/31, THIS BOX MAY BE COLLECTED AS EARLY AS 12 NOON.", "nsi_id": "unitedstatespostalservice-a77078", "operator": "United States Postal Service", "operator:short": "USPS", "operator:type": "public", "operator:wikidata": "Q668687", "ref": "7102300003"}, "type": "Feature"}
{"geometry": {"coordinates": [-93.241826991, 32.544437001], "type": "Point"}, "id": "5oAsz2vXyD8O2qIpRZFniQld1qY=", "properties": {"@source_uri": "https://tools.usps.com/UspsToolsRestServices/rest/POLocator/findLocations", "@spider": "usps_collection_boxes", "addr:city": "DUBBERLY", "addr:country": "US", "addr:postcode": "71024", "addr:state": "LA", "addr:street_address": "3193 HIGHWAY 531", "amenity": "post_box", "collection_times": "Mo-Fr 11:30; Sa 08:30", "nsi_id": "unitedstatespostalservice-a77078", "operator": "United States Postal Service", "operator:short": "USPS", "operator:type": "public", "operator:wikidata": "Q668687", "ref": "7102400001"}, "type": "Feature"}
{"geometry": {"coordinates": [-93.241826991, 32.544437001], "type": "Point"}, "id": "9X8eFukGAYRov_fIHL-XE7ZN6jc=", "properties": {"@source_uri": "https://tools.usps.com/UspsToolsRestServices/rest/POLocator/findLocations", "@spider": "usps_collection_boxes", "addr:city": "DUBBERLY", "addr:country": "US", "addr:postcode": "71024", "addr:state": "LA", "addr:street_address": "3193 HIGHWAY 531", "amenity": "post_box", "collection_times": "Mo-Fr 11:30; Sa 08:30", "indoor": "yes", "nsi_id": "unitedstatespostalservice-a77078", "operator": "United States Postal Service", "operator:short": "USPS", "operator:type": "public", "operator:wikidata": "Q668687", "ref": "7102400002"}, "type": "Feature"}
{"geometry": {"coordinates": [-93.241826991, 32.544437001], "type": "Point"}, "id": "V9P2Iy0U2b8QvtmGl8ULM4-JxpE=", "properties": {"@source_uri": "https://tools.usps.com/UspsToolsRestServices/rest/POLocator/findLocations", "@spider": "usps_collection_boxes", "addr:city": "DUBBERLY", "addr:country": "US", "addr:postcode": "71024", "addr:state": "LA", "addr:street_address": "3193 HIGHWAY 531", "amenity": "post_box", "collection_times": "Mo-Fr 11:30", "indoor": "yes", "nsi_id": "unitedstatespostalservice-a77078", "operator": "United States Postal Service", "operator:short": "USPS", "operator:type": "public", "operator:wikidata": "Q668687", "ref": "7102400003"}, "type": "Feature"}
{"geometry": {"coordinates": [-93.6907, 32.24767], "type": "Point"}, "id": "32TYV91Gvt_B0NfKxwcbtUwS2Js=", "properties": {"@source_uri": "https://tools.usps.com/UspsToolsRestServices/rest/POLocator/findLocations", "@spider": "usps_collection_boxes", "addr:city": "FRIERSON", "addr:country": "US", "addr:postcode": "71027", "addr:state": "LA", "addr:street_address": "5400 HIGHWAY 175", "amenity": "post_box", "collection_times": "Mo-Fr 11:15; Sa 08:00", "nsi_id": "unitedstatespostalservice-a77078", "operator": "United States Postal Service", "operator:short": "USPS", "operator:type": "public", "operator:wikidata": "Q668687", "ref": "7102700001"}, "type": "Feature"}
{"geometry": {"coordinates": [-93.6907, 32.24767], "type": "Point"}, "id": "z88RbDrgorSCH0e13oPap4PqfwM=", "properties": {"@source_uri": "https://tools.usps.com/UspsToolsRestServices/rest/POLocator/findLocations", "@spider": "usps_collection_boxes", "addr:city": "FRIERSON", "addr:country": "US", "addr:postcode": "71027", "addr:state": "LA", "addr:street_address": "5400 HIGHWAY 175", "amenity": "post_box", "collection_times": "Mo-Fr 11:30", "indoor": "yes", "nsi_id": "unitedstatespostalservice-a77078", "operator": "United States Postal Service", "operator:short": "USPS", "operator:type": "public", "operator:wikidata": "Q668687", "ref": "7102700002"}, "type": "Feature"}
{"geometry": {"coordinates": [-93.6907, 32.24767], "type": "Point"}, "id": "cDFh-vSMVxWcp-CHFkML9eR80rA=", "properties": {"@source_uri": "https://tools.usps.com/UspsToolsRestServices/rest/POLocator/findLocations", "@spider": "usps_collection_boxes", "addr:city": "FRIERSON", "addr:country": "US", "addr:postcode": "71027", "addr:state": "LA", "addr:street_address": "5400 HIGHWAY 175", "amenity": "post_box", "collection_times": "Mo-Fr 11:30", "indoor": "yes", "nsi_id": "unitedstatespostalservice-a77078", "operator": "United States Postal Service", "operator:short": "USPS", "operator:type": "public", "operator:wikidata": "Q668687", "ref": "7102700003"}, "type": "Feature"}
{"geometry": {"coordinates": [-93.052506034, 32.544241996], "type": "Point"}, "id": "gQD7ezSW9NelhsXbg18oX-zy0nE=", "properties": {"@source_uri": "https://tools.usps.com/UspsToolsRestServices/rest/POLocator/findLocations", "@spider": "usps_collection_boxes", "addr:city": "GIBSLAND", "addr:country": "US", "addr:postcode": "71028", "addr:state": "LA", "addr:street_address": "1259 S 3RD ST", "amenity": "post_box", "collection_times": "Mo-Fr 15:30; Sa 09:00", "note": "ON 12/24 AND 12/31, THIS BOX MAY BE COLLECTED AS EARLY AS 12 NOON.", "nsi_id": "unitedstatespostalservice-a77078", "operator": "United States Postal Service", "operator:short": "USPS", "operator:type": "public", "operator:wikidata": "Q668687", "ref": "7102800001"}, "type": "Feature"}
{"geometry": {"coordinates": [-93.052506034, 32.544241996], "type": "Point"}, "id": "Azm8W6bla4Gr3_TcP-x-2TRJITc=", "properties": {"@source_uri": "https://tools.usps.com/UspsToolsRestServices/rest/POLocator/findLocations", "@spider": "usps_collection_boxes", "addr:city": "GIBSLAND", "addr:country": "US", "addr:postcode": "71028", "addr:state": "LA", "addr:street_address": "1259 S 3RD ST", "amenity": "post_box", "collection_times": "Mo-Fr 15:30; Sa 09:00", "indoor": "yes", "note": "ON 12/24 AND 12/31, THIS BOX MAY BE COLLECTED AS EARLY AS 12 NOON.", "nsi_id": "unitedstatespostalservice-a77078", "operator": "United States Postal Service", "operator:short": "USPS", "operator:type": "public", "operator:wikidata": "Q668687", "ref": "7102800003"}, "type": "Feature"}
{"geometry": {"coordinates": [-93.052506034, 32.544241996], "type": "Point"}, "id": "e8eFg6zSsH3x_gSdwdudz0o7IUk=", "properties": {"@source_uri": "https://tools.usps.com/UspsToolsRestServices/rest/POLocator/findLocations", "@spider": "usps_collection_boxes", "addr:city": "GIBSLAND", "addr:country": "US", "addr:postcode": "71028", "addr:state": "LA", "addr:street_address": "1259 S 3RD ST", "amenity": "post_box", "collection_times": "Mo-Fr 16:00", "indoor": "yes", "note": "ON 12/24 AND 12/31, THIS BOX MAY BE COLLECTED AS EARLY AS 12 NOON.", "nsi_id": "unitedstatespostalservice-a77078", "operator": "United States Postal Service", "operator:short": "USPS", "operator:type": "public", "operator:wikidata": "Q668687", "ref": "7102800004"}, "type": "Feature"}
{"geometry": {"coordinates": [-93.8479693, 32.8270467], "type": "Point"}, "id": "JotQ7SCFwaT7lOpaKisbuX06EgU=", "properties": {"@source_uri": "https://tools.usps.com/UspsToolsRestServices/rest/POLocator/findLocations", "@spider": "usps_collection_boxes", "addr:city": "GILLIAM", "addr:country": "US", "addr:postcode": "71029", "addr:state": "LA", "addr:street_address": "5517 1ST ST", "amenity": "post_box", "collection_times": "Mo-Fr 11:45; Sa 08:00", "nsi_id": "unitedstatespostalservice-a77078", "operator": "United States Postal Service", "operator:short": "USPS", "operator:type": "public", "operator:wikidata": "Q668687", "ref": "7102900001"}, "type": "Feature"}
{"geometry": {"coordinates": [-93.8479693, 32.8270467], "type": "Point"}, "id": "h66U_akTIldVVjBc6TSAk9HygsU=", "properties": {"@source_uri": "https://tools.usps.com/UspsToolsRestServices/rest/POLocator/findLocations", "@spider": "usps_collection_boxes", "addr:city": "GILLIAM", "addr:country": "US", "addr:postcode": "71029", "addr:state": "LA", "addr:street_address": "5517 1ST ST", "amenity": "post_box", "collection_times": "Mo-Fr 11:45; Sa 08:00", "indoor": "yes", "nsi_id": "unitedstatespostalservice-a77078", "operator": "United States Postal Service", "operator:short": "USPS", "operator:type": "public", "operator:wikidata": "Q668687", "ref": "7102900002"}, "type": "Feature"}
{"geometry": {"coordinates": [-93.8479693, 32.8270467], "type": "Point"}, "id": "SNGu17hYzCN4qv_Thzr4cIGkDu0=", "properties": {"@source_uri": "https://tools.usps.com/UspsToolsRestServices/rest/POLocator/findLocations", "@spider": "usps_collection_boxes", "addr:city": "GILLIAM", "addr:country": "US", "addr:postcode": "71029", "addr:state": "LA", "addr:street_address": "5517 1ST ST", "amenity": "post_box", "collection_times": "Mo-Fr 12:00", "indoor": "yes", "nsi_id": "unitedstatespostalservice-a77078", "operator": "United States Postal Service", "operator:short": "USPS", "operator:type": "public", "operator:wikidata": "Q668687", "ref": "7102900003"}, "type": "Feature"}
{"geometry": {"coordinates": [-93.8388307, 32.1885854], "type": "Point"}, "id": "x5VPTWSQ620zJH76MqilVhd4QAc=", "properties": {"@source_uri": "https://tools.usps.com/UspsToolsRestServices/rest/POLocator/findLocations", "@spider": "usps_collection_boxes", "addr:city": "GLOSTER", "addr:country": "US", "addr:postcode": "71030", "addr:state": "LA", "addr:street_address": "125 MAIN ST", "amenity": "post_box", "collection_times": "Mo-Fr 15:45; Sa 11:45", "note": "ON 12/24 AND 12/31, THIS BOX MAY BE COLLECTED AS EARLY AS 12 NOON.", "nsi_id": "unitedstatespostalservice-a77078", "operator": "United States Postal Service", "operator:short": "USPS", "operator:type": "public", "operator:wikidata": "Q668687", "ref": "7103000001"}, "type": "Feature"}
{"geometry": {"coordinates": [-93.8388307, 32.1885854], "type": "Point"}, "id": "fpHu00T2xC8QFNGnclpMdDkKE28=", "properties": {"@source_uri": "https://tools.usps.com/UspsToolsRestServices/rest/POLocator/findLocations", "@spider": "usps_collection_boxes", "addr:city": "GLOSTER", "addr:country": "US", "addr:postcode": "71030", "addr:state": "LA", "addr:street_address": "125 MAIN ST", "amenity": "post_box", "collection_times": "Mo-Fr 15:45; Sa 11:45", "indoor": "yes", "note": "ON 12/24 AND 12/31, THIS BOX MAY BE COLLECTED AS EARLY AS 12 NOON.", "nsi_id": "unitedstatespostalservice-a77078", "operator": "United States Postal Service", "operator:short": "USPS", "operator:type": "public", "operator:wikidata": "Q668687", "ref": "7103000002"}, "type": "Feature"}
{"geometry": {"coordinates": [-93.8388307, 32.1885854], "type": "Point"}, "id": "Fz0mHlHyhpLUmpKkLHvVe0gLoMA=", "properties": {"@source_uri": "https://tools.usps.com/UspsToolsRestServices/rest/POLocator/findLocations", "@spider": "usps_collection_boxes", "addr:city": "GLOSTER", "addr:country": "US", "addr:postcode": "71030", "addr:state": "LA", "addr:street_address": "125 MAIN ST", "amenity": "post_box", "collection_times": "Mo-Fr 16:00", "indoor": "yes", "note": "ON 12/24 AND 12/31, THIS BOX MAY BE COLLECTED AS EARLY AS 12 NOON.", "nsi_id": "unitedstatespostalservice-a77078", "operator": "United States Postal Service", "operator:short": "USPS", "operator:type": "public", "operator:wikidata": "Q668687", "ref": "7103000003"}, "type": "Feature"}
{"geometry": {"coordinates": [-92.907428187, 32.016697599], "type": "Point"}, "id": "Hs9fyqtoqM1bWbbL3g6bSoPAsNA=", "properties": {"@source_uri": "https://tools.usps.com/UspsToolsRestServices/rest/POLocator/findLocations", "@spider": "usps_collection_boxes", "addr:city": "GOLDONNA", "addr:country": "US", "addr:postcode": "71031", "addr:state": "LA", "addr:street_address": "3153 MAIN ST", "amenity": "post_box", "collection_times": "Mo-Fr 11:30; Sa 09:00", "nsi_id": "unitedstatespostalservice-a77078", "operator": "United States Postal Service", "operator:short": "USPS", "operator:type": "public", "operator:wikidata": "Q668687", "ref": "7103100001"}, "type": "Feature"}
{"geometry": {"coordinates": [-92.907428187, 32.016697599], "type": "Point"}, "id": "jSfDTytHcMSx94nVp6AuO_V5XMQ=", "properties": {"@source_uri": "https://tools.usps.com/UspsToolsRestServices/rest/POLocator/findLocations", "@spider": "usps_collection_boxes", "addr:city": "GOLDONNA", "addr:country": "US", "addr:postcode": "71031", "addr:state": "LA", "addr:street_address": "3153 MAIN ST", "amenity": "post_box", "collection_times": "Mo-Fr 11:30; Sa 09:00", "indoor": "yes", "nsi_id": "unitedstatespostalservice-a77078", "operator": "United States Postal Service", "operator:short": "USPS", "operator:type": "public", "operator:wikidata": "Q668687", "ref": "7103100002"}, "type": "Feature"}
{"geometry": {"coordinates": [-92.907428187, 32.016697599], "type": "Point"}, "id": "ADRSyaWaDCVvJBSgwUJIYzFcRDo=", "properties": {"@source_uri": "https://tools.usps.com/UspsToolsRestServices/rest/POLocator/findLocations", "@spider": "usps_collection_boxes", "addr:city": "GOLDONNA", "addr:country": "US", "addr:postcode": "71031", "addr:state": "LA", "addr:street_address": "3153 MAIN ST", "amenity": "post_box", "collection_times": "Mo-Fr 11:30", "indoor": "yes", "nsi_id": "unitedstatespostalservice-a77078", "operator": "United States Postal Service", "operator:short": "USPS", "operator:type": "public", "operator:wikidata": "Q668687", "ref": "7103100003"}, "type": "Feature"}
{"geometry": {"coordinates": [-93.80670125, 32.079802469], "type": "Point"}, "id": "LMenCRk3sjbfmd0J2ZuWCkgdrwY=", "properties": {"@source_uri": "https://tools.usps.com/UspsToolsRestServices/rest/POLocator/findLocations", "@spider": "usps_collection_boxes", "addr:city": "GRAND CANE", "addr:country": "US", "addr:postcode": "71032", "addr:state": "LA", "addr:street_address": "719 MAIN ST", "amenity": "post_box", "collection_times": "Mo-Fr 14:15; Sa 08:00", "note": "ON 12/24 AND 12/31, THIS BOX MAY BE COLLECTED AS EARLY AS 12 NOON.", "nsi_id": "unitedstatespostalservice-a77078", "operator": "United States Postal Service", "operator:short": "USPS", "operator:type": "public", "operator:wikidata": "Q668687", "ref": "7103200001"}, "type": "Feature"}
{"geometry": {"coordinates": [-93.80670125, 32.079802469], "type": "Point"}, "id": "1VxyLbaw9bZUniaJTQCTsli57a4=", "properties": {"@source_uri": "https://tools.usps.com/UspsToolsRestServices/rest/POLocator/findLocations", "@spider": "usps_collection_boxes", "addr:city": "GRAND CANE", "addr:country": "US", "addr:postcode": "71032", "addr:state": "LA", "addr:street_address": "719 MAIN ST", "amenity": "post_box", "collection_times": "Mo-Fr 14:15; Sa 08:00", "indoor": "yes", "note": "ON 12/24 AND 12/31, THIS BOX MAY BE COLLECTED AS EARLY AS 12 NOON.", "nsi_id": "unitedstatespostalservice-a77078", "operator": "United States Postal Service", "operator:short": "USPS", "operator:type": "public", "operator:wikidata": "Q668687", "ref": "7103200002"}, "type": "Feature"}
{"geometry": {"coordinates": [-93.80670125, 32.079802469], "type": "Point"}, "id": "51_L_WtwZn_8i3Kg-5JS5BtaI9Y=", "properties": {"@source_uri": "https://tools.usps.com/UspsToolsRestServices/rest/POLocator/findLocations", "@spider": "usps_collection_boxes", "addr:city": "GRAND CANE", "addr:country": "US", "addr:postcode": "71032", "addr:state": "LA", "addr:street_address": "719 MAIN ST", "amenity": "post_box", "collection_times": "Mo-Fr 14:15", "indoor": "yes", "note": "ON 12/24 AND 12/31, THIS BOX MAY BE COLLECTED AS EARLY AS 12 NOON.", "nsi_id": "unitedstatespostalservice-a77078", "operator": "United States Postal Service", "operator:short": "USPS", "operator:type": "public", "operator:wikidata": "Q668687", "ref": "7103200003"}, "type": "Feature"}
{"geometry": {"coordinates": [-93.944208014, 32.44060299], "type": "Point"}, "id": "RIF0ohZ7Ykgwwl5slXW_vmLPs1E=", "properties": {"@source_uri": "https://tools.usps.com/UspsToolsRestServices/rest/POLocator/findLocations", "@spider": "usps_collection_boxes", "addr:city": "GREENWOOD", "addr:country": "US", "addr:postcode": "71033", "addr:state": "LA", "addr:street_address": "7070 ADAMS LN", "amenity": "post_box", "collection_times": "Mo-Fr 15:30; Sa 08:30", "note": "ON 12/24 AND 12/31, THIS BOX MAY BE COLLECTED AS EARLY AS 12 NOON.", "nsi_id": "unitedstatespostalservice-a77078", "operator": "United States Postal Service", "operator:short": "USPS", "operator:type": "public", "operator:wikidata": "Q668687", "ref": "7103300001"}, "type": "Feature"}
{"geometry": {"coordinates": [-93.944208014, 32.44060299], "type": "Point"}, "id": "8qSQHzddTI_AH_NLARfwF4fUSIk=", "properties": {"@source_uri": "https://tools.usps.com/UspsToolsRestServices/rest/POLocator/findLocations", "@spider": "usps_collection_boxes", "addr:city": "GREENWOOD", "addr:country": "US", "addr:postcode": "71033", "addr:state": "LA", "addr:street_address": "7070 ADAMS LN", "amenity": "post_box", "collection_times": "Mo-Fr 15:30; Sa 08:30", "indoor": "yes", "note": "ON 12/24 AND 12/31, THIS BOX MAY BE COLLECTED AS EARLY AS 12 NOON.", "nsi_id": "unitedstatespostalservice-a77078", "operator": "United States Postal Service", "operator:short": "USPS", "operator:type": "public", "operator:wikidata": "Q668687", "ref": "7103300005"}, "type": "Feature"}
{"geometry": {"coordinates": [-93.944208014, 32.44060299], "type": "Point"}, "id": "DATOd4bqDT6DrzJfqkWHwotSvxQ=", "properties": {"@source_uri": "https://tools.usps.com/UspsToolsRestServices/rest/POLocator/findLocations", "@spider": "usps_collection_boxes", "addr:city": "GREENWOOD", "addr:country": "US", "addr:postcode": "71033", "addr:state": "LA", "addr:street_address": "7070 ADAMS LN", "amenity": "post_box", "collection_times": "Mo-Fr 16:00", "indoor": "yes", "note": "ON 12/24 AND 12/31, THIS BOX MAY BE COLLECTED AS EARLY AS 12 NOON.", "nsi_id": "unitedstatespostalservice-a77078", "operator": "United States Postal Service", "operator:short": "USPS", "operator:type": "public", "operator:wikidata": "Q668687", "ref": "7103300006"}, "type": "Feature"}
{"geometry": {"coordinates": [-93.302522028, 32.175162994], "type": "Point"}, "id": "3NV79wWVwOOSMU7tI35P5mdVAi4=", "properties": {"@source_uri": "https://tools.usps.com/UspsToolsRestServices/rest/POLocator/findLocations", "@spider": "usps_collection_boxes", "addr:city": "HALL SUMMIT", "addr:country": "US", "addr:postcode": "71034", "addr:state": "LA", "addr:street_address": "7101 CARTER AVE", "amenity": "post_box", "collection_times": "Mo-Fr 15:45; Sa 07:00", "note": "ON 12/24 AND 12/31, THIS BOX MAY BE COLLECTED AS EARLY AS 12 NOON.", "nsi_id": "unitedstatespostalservice-a77078", "operator": "United States Postal Service", "operator:short": "USPS", "operator:type": "public", "operator:wikidata": "Q668687", "ref": "7103400001"}, "type": "Feature"}
{"geometry": {"coordinates": [-93.302522028, 32.175162994], "type": "Point"}, "id": "qr45FFHFdOryCVr4ry8UpeJsIJs=", "properties": {"@source_uri": "https://tools.usps.com/UspsToolsRestServices/rest/POLocator/findLocations", "@spider": "usps_collection_boxes", "addr:city": "HALL SUMMIT", "addr:country": "US", "addr:postcode": "71034", "addr:state": "LA", "addr:street_address": "7101 CARTER AVE", "amenity": "post_box", "collection_times": "Mo-Fr 15:45", "indoor": "yes", "note": "ON 12/24 AND 12/31, THIS BOX MAY BE COLLECTED AS EARLY AS 12 NOON.", "nsi_id": "unitedstatespostalservice-a77078", "operator": "United States Postal Service", "operator:short": "USPS", "operator:type": "public", "operator:wikidata": "Q668687", "ref": "7103400002"}, "type": "Feature"}
{"geometry": {"coordinates": [-93.302522028, 32.175162994], "type": "Point"}, "id": "LaFTVNj2q1oHrAt15wtvJwcMQ5c=", "properties": {"@source_uri": "https://tools.usps.com/UspsToolsRestServices/rest/POLocator/findLocations", "@spider": "usps_collection_boxes", "addr:city": "HALL SUMMIT", "addr:country": "US", "addr:postcode": "71034", "addr:state": "LA", "addr:street_address": "7101 CARTER AVE", "amenity": "post_box", "collection_times": "Mo-Fr 16:00", "indoor": "yes", "note": "ON 12/24 AND 12/31, THIS BOX MAY BE COLLECTED AS EARLY AS 12 NOON.", "nsi_id": "unitedstatespostalservice-a77078", "operator": "United States Postal Service", "operator:short": "USPS", "operator:type": "public", "operator:wikidata": "Q668687", "ref": "7103400003"}, "type": "Feature"}
{"geometry": {"coordinates": [-93.514669004, 32.53268201], "type": "Point"}, "id": "w8Nmj-_FQ3llOM6M-Am7MZuke9E=", "properties": {"@source_uri": "https://tools.usps.com/UspsToolsRestServices/rest/POLocator/findLocations", "@spider": "usps_collection_boxes", "addr:city": "HAUGHTON", "addr:country": "US", "addr:postcode": "71037", "addr:state": "LA", "addr:street_address": "399 W MCKINLEY AVE", "amenity": "post_box", "collection_times": "Mo-Fr 14:00; Sa 13:00", "note": "ON 12/24 AND 12/31, THIS BOX MAY BE COLLECTED AS EARLY AS 12 NOON.", "nsi_id": "unitedstatespostalservice-a77078", "operator": "United States Postal Service", "operator:short": "USPS", "operator:type": "public", "operator:wikidata": "Q668687", "ref": "7103700002"}, "type": "Feature"}
{"geometry": {"coordinates": [-93.514669004, 32.53268201], "type": "Point"}, "id": "WBlgWupGDSJRNnhE9Q4g9KuoAqA=", "properties": {"@source_uri": "https://tools.usps.com/UspsToolsRestServices/rest/POLocator/findLocations", "@spider": "usps_collection_boxes", "addr:city": "HAUGHTON", "addr:country": "US", "addr:postcode": "71037", "addr:state": "LA", "addr:street_address": "399 W MCKINLEY AVE", "amenity": "post_box", "collection_times": "Mo-Fr 14:00; Sa 13:00", "indoor": "yes", "note": "ON 12/24 AND 12/31, THIS BOX MAY BE COLLECTED AS EARLY AS 12 NOON.", "nsi_id": "unitedstatespostalservice-a77078", "operator": "United States Postal Service", "operator:short": "USPS", "operator:type": "public", "operator:wikidata": "Q668687", "ref": "7103700004"}, "type": "Feature"}
{"geometry": {"coordinates": [-93.611745021, 32.556947997], "type": "Point"}, "id": "FYjqxghczGcWxmKnzGzDLpA4AfQ=", "properties": {"@source_uri": "https://tools.usps.com/UspsToolsRestServices/rest/POLocator/findLocations", "@spider": "usps_collection_boxes", "addr:city": "HAUGHTON", "addr:country": "US", "addr:postcode": "71037", "addr:state": "LA", "addr:street_address": "1075 HIGHWAY 80", "amenity": "post_box", "collection_times": "Mo-Sa 08:45", "nsi_id": "unitedstatespostalservice-a77078", "operator": "United States Postal Service", "operator:short": "USPS", "operator:type": "public", "operator:wikidata": "Q668687", "ref": "7103700007"}, "type": "Feature"}
{"geometry": {"coordinates": [-93.514669004, 32.53268201], "type": "Point"}, "id": "2UpZs6R5rAxKlEeGZiWJQQ9rhPE=", "properties": {"@source_uri": "https://tools.usps.com/UspsToolsRestServices/rest/POLocator/findLocations", "@spider": "usps_collection_boxes", "addr:city": "HAUGHTON", "addr:country": "US", "addr:postcode": "71037", "addr:state": "LA", "addr:street_address": "399 W MCKINLEY AVE", "amenity": "post_box", "collection_times": "Mo-Fr 16:00", "indoor": "yes", "note": "ON 12/24 AND 12/31, THIS BOX MAY BE COLLECTED AS EARLY AS 12 NOON.", "nsi_id": "unitedstatespostalservice-a77078", "operator": "United States Postal Service", "operator:short": "USPS", "operator:type": "public", "operator:wikidata": "Q668687", "ref": "7103700010"}, "type": "Feature"}
{"geometry": {"coordinates": [-93.138723552, 32.960934655], "type": "Point"}, "id": "sXE0SDesboGyc2_MLR55iGDx9O8=", "properties": {"@source_uri": "https://tools.usps.com/UspsToolsRestServices/rest/POLocator/findLocations", "@spider": "usps_collection_boxes", "addr:city": "HAYNESVILLE", "addr:country": "US", "addr:postcode": "71038", "addr:state": "LA", "addr:street_address": "10007 HIGHWAY 79", "amenity": "post_box", "collection_times": "Mo-Fr 15:00; Sa 09:30", "note": "ON 12/24 AND 12/31, THIS BOX MAY BE COLLECTED AS EARLY AS 12 NOON.", "nsi_id": "unitedstatespostalservice-a77078", "operator": "United States Postal Service", "operator:short": "USPS", "operator:type": "public", "operator:wikidata": "Q668687", "ref": "7103800005"}, "type": "Feature"}
{"geometry": {"coordinates": [-93.138723552, 32.960934655], "type": "Point"}, "id": "59eG_pJ8BF-9LwEOW6P0yMgx2qg=", "properties": {"@source_uri": "https://tools.usps.com/UspsToolsRestServices/rest/POLocator/findLocations", "@spider": "usps_collection_boxes", "addr:city": "HAYNESVILLE", "addr:country": "US", "addr:postcode": "71038", "addr:state": "LA", "addr:street_address": "10007 HIGHWAY 79", "amenity": "post_box", "collection_times": "Mo-Fr 15:00; Sa 09:30", "indoor": "yes", "note": "ON 12/24 AND 12/31, THIS BOX MAY BE COLLECTED AS EARLY AS 12 NOON.", "nsi_id": "unitedstatespostalservice-a77078", "operator": "United States Postal Service", "operator:short": "USPS", "operator:type": "public", "operator:wikidata": "Q668687", "ref": "7103800011"}, "type": "Feature"}
{"geometry": {"coordinates": [-93.138723552, 32.960934655], "type": "Point"}, "id": "l_Qe0PakxKhtUsqT-9lV0eeFJ1M=", "properties": {"@source_uri": "https://tools.usps.com/UspsToolsRestServices/rest/POLocator/findLocations", "@spider": "usps_collection_boxes", "addr:city": "HAYNESVILLE", "addr:country": "US", "addr:postcode": "71038", "addr:state": "LA", "addr:street_address": "10007 HIGHWAY 79", "amenity": "post_box", "collection_times": "Mo-Fr 16:00", "indoor": "yes", "note": "ON 12/24 AND 12/31, THIS BOX MAY BE COLLECTED AS EARLY AS 12 NOON.", "nsi_id": "unitedstatespostalservice-a77078", "operator": "United States Postal Service", "operator:short": "USPS", "operator:type": "public", "operator:wikidata": "Q668687", "ref": "7103800012"}, "type": "Feature"}
{"geometry": {"coordinates": [-93.264319996, 32.456267007], "type": "Point"}, "id": "dpb94z2ryEsuxSgBT0YYPakN-t0=", "properties": {"@source_uri": "https://tools.usps.com/UspsToolsRestServices/rest/POLocator/findLocations", "@spider": "usps_collection_boxes", "addr:city": "HEFLIN", "addr:country": "US", "addr:postcode": "71039", "addr:state": "LA", "addr:street_address": "106 N MAIN ST", "amenity": "post_box", "collection_times": "Mo-Fr 11:30; Sa 08:45", "nsi_id": "unitedstatespostalservice-a77078", "operator": "United States Postal Service", "operator:short": "USPS", "operator:type": "public", "operator:wikidata": "Q668687", "ref": "7103900001"}, "type": "Feature"}
{"geometry": {"coordinates": [-93.2684452, 32.4580258], "type": "Point"}, "id": "QKfn2wKqR-5yLN0HPrCok-IqTv0=", "properties": {"@source_uri": "https://tools.usps.com/UspsToolsRestServices/rest/POLocator/findLocations", "@spider": "usps_collection_boxes", "addr:city": "HEFLIN", "addr:country": "US", "addr:postcode": "71039", "addr:state": "LA", "addr:street_address": "106 N MAIN ST", "amenity": "post_box", "collection_times": "Mo-Fr 11:30", "indoor": "yes", "nsi_id": "unitedstatespostalservice-a77078", "operator": "United States Postal Service", "operator:short": "USPS", "operator:type": "public", "operator:wikidata": "Q668687", "ref": "7103900002"}, "type": "Feature"}
{"geometry": {"coordinates": [-93.2684452, 32.4580258], "type": "Point"}, "id": "EwF7Jlp8oRTmwvTVvO543Cd08wc=", "properties": {"@source_uri": "https://tools.usps.com/UspsToolsRestServices/rest/POLocator/findLocations", "@spider": "usps_collection_boxes", "addr:city": "HEFLIN", "addr:country": "US", "addr:postcode": "71039", "addr:state": "LA", "addr:street_address": "106 N MAIN ST", "amenity": "post_box", "collection_times": "Mo-Fr 11:30", "indoor": "yes", "nsi_id": "unitedstatespostalservice-a77078", "operator": "United States Postal Service", "operator:short": "USPS", "operator:type": "public", "operator:wikidata": "Q668687", "ref": "7103900003"}, "type": "Feature"}
{"geometry": {"coordinates": [-93.0561759663, 32.7921639815], "type": "Point"}, "id": "WlNLzZCKIh2VYLerx1scVeE6u0I=", "properties": {"@source_uri": "https://tools.usps.com/UspsToolsRestServices/rest/POLocator/findLocations", "@spider": "usps_collection_boxes", "addr:city": "HOMER", "addr:country": "US", "addr:postcode": "71040", "addr:state": "LA", "addr:street_address": "612 N MAIN ST", "amenity": "post_box", "collection_times": "Mo-Fr 17:00; Sa 15:45", "note": "ON 12/24 AND 12/31, THIS BOX MAY BE COLLECTED AS EARLY AS 12 NOON.", "nsi_id": "unitedstatespostalservice-a77078", "operator": "United States Postal Service", "operator:short": "USPS", "operator:type": "public", "operator:wikidata": "Q668687", "ref": "7104000002"}, "type": "Feature"}
{"geometry": {"coordinates": [-93.056194014, 32.792038181], "type": "Point"}, "id": "qI5Gj5vppIjwHRUsrPNoPty0DY4=", "properties": {"@source_uri": "https://tools.usps.com/UspsToolsRestServices/rest/POLocator/findLocations", "@spider": "usps_collection_boxes", "addr:city": "HOMER", "addr:country": "US", "addr:postcode": "71040", "addr:state": "LA", "addr:street_address": "612 N MAIN ST", "amenity": "post_box", "collection_times": "Mo-Fr 17:00; Sa 15:45", "indoor": "yes", "note": "ON 12/24 AND 12/31, THIS BOX MAY BE COLLECTED AS EARLY AS 12 NOON.", "nsi_id": "unitedstatespostalservice-a77078", "operator": "United States Postal Service", "operator:short": "USPS", "operator:type": "public", "operator:wikidata": "Q668687", "ref": "7104000013"}, "type": "Feature"}
{"geometry": {"coordinates": [-93.056194014, 32.792038181], "type": "Point"}, "id": "vzXd4tB3Vf0Gkkaoek2_DK-XFT0=", "properties": {"@source_uri": "https://tools.usps.com/UspsToolsRestServices/rest/POLocator/findLocations", "@spider": "usps_collection_boxes", "addr:city": "HOMER", "addr:country": "US", "addr:postcode": "71040", "addr:state": "LA", "addr:street_address": "612 N MAIN ST", "amenity": "post_box", "collection_times": "Mo-Fr 16:00", "indoor": "yes", "note": "ON 12/24 AND 12/31, THIS BOX MAY BE COLLECTED AS EARLY AS 12 NOON.", "nsi_id": "unitedstatespostalservice-a77078", "operator": "United States Postal Service", "operator:short": "USPS", "operator:type": "public", "operator:wikidata": "Q668687", "ref": "7104000014"}, "type": "Feature"}
{"geometry": {"coordinates": [-93.8759629772, 32.8867480172], "type": "Point"}, "id": "4SB8B8c0Cbf0wBb4k9i5rglVuro=", "properties": {"@source_uri": "https://tools.usps.com/UspsToolsRestServices/rest/POLocator/findLocations", "@spider": "usps_collection_boxes", "addr:city": "HOSSTON", "addr:country": "US", "addr:postcode": "71043", "addr:state": "LA", "addr:street_address": "14836 PARKWAY DR", "amenity": "post_box", "collection_times": "Mo-Fr 15:45; Sa 13:00", "note": "ON 12/24 AND 12/31, THIS BOX MAY BE COLLECTED AS EARLY AS 12 NOON.", "nsi_id": "unitedstatespostalservice-a77078", "operator": "United States Postal Service", "operator:short": "USPS", "operator:type": "public", "operator:wikidata": "Q668687", "ref": "7104300001"}, "type": "Feature"}
{"geometry": {"coordinates": [-93.875994996, 32.886712981], "type": "Point"}, "id": "3NZNXsuKmMOmLc1gLJEkNs2xcyk=", "properties": {"@source_uri": "https://tools.usps.com/UspsToolsRestServices/rest/POLocator/findLocations", "@spider": "usps_collection_boxes", "addr:city": "HOSSTON", "addr:country": "US", "addr:postcode": "71043", "addr:state": "LA", "addr:street_address": "14836 PARKWAY DR", "amenity": "post_box", "collection_times": "Mo-Fr 15:45", "indoor": "yes", "note": "ON 12/24 AND 12/31, THIS BOX MAY BE COLLECTED AS EARLY AS 12 NOON.", "nsi_id": "unitedstatespostalservice-a77078", "operator": "United States Postal Service", "operator:short": "USPS", "operator:type": "public", "operator:wikidata": "Q668687", "ref": "7104300003"}, "type": "Feature"}
{"geometry": {"coordinates": [-93.875994996, 32.886712981], "type": "Point"}, "id": "uxbcUPS0HKn3cEIkwlsyGeLL28I=", "properties": {"@source_uri": "https://tools.usps.com/UspsToolsRestServices/rest/POLocator/findLocations", "@spider": "usps_collection_boxes", "addr:city": "HOSSTON", "addr:country": "US", "addr:postcode": "71043", "addr:state": "LA", "addr:street_address": "14836 PARKWAY DR", "amenity": "post_box", "collection_times": "Mo-Fr 16:00", "indoor": "yes", "note": "ON 12/24 AND 12/31, THIS BOX MAY BE COLLECTED AS EARLY AS 12 NOON.", "nsi_id": "unitedstatespostalservice-a77078", "operator": "United States Postal Service", "operator:short": "USPS", "operator:type": "public", "operator:wikidata": "Q668687", "ref": "7104300004"}, "type": "Feature"}
{"geometry": {"coordinates": [-93.893572015, 33.004171985], "type": "Point"}, "id": "UG4ExVm7HVPhcipaWgq9X5NXVn8=", "properties": {"@source_uri": "https://tools.usps.com/UspsToolsRestServices/rest/POLocator/findLocations", "@spider": "usps_collection_boxes", "addr:city": "IDA", "addr:country": "US", "addr:postcode": "71044", "addr:state": "LA", "addr:street_address": "6994 E MAGNOLIA LN", "amenity": "post_box", "collection_times": "Mo-Fr 11:00; Sa 08:30", "nsi_id": "unitedstatespostalservice-a77078", "operator": "United States Postal Service", "operator:short": "USPS", "operator:type": "public", "operator:wikidata": "Q668687", "ref": "7104400001"}, "type": "Feature"}
{"geometry": {"coordinates": [-93.893572015, 33.004171985], "type": "Point"}, "id": "gwbeunLsjBrLQd4DZw8zwqIFEw8=", "properties": {"@source_uri": "https://tools.usps.com/UspsToolsRestServices/rest/POLocator/findLocations", "@spider": "usps_collection_boxes", "addr:city": "IDA", "addr:country": "US", "addr:postcode": "71044", "addr:state": "LA", "addr:street_address": "6994 E MAGNOLIA LN", "amenity": "post_box", "collection_times": "Mo-Fr 11:00; Sa 08:30", "indoor": "yes", "nsi_id": "unitedstatespostalservice-a77078", "operator": "United States Postal Service", "operator:short": "USPS", "operator:type": "public", "operator:wikidata": "Q668687", "ref": "7104400002"}, "type": "Feature"}
{"geometry": {"coordinates": [-93.893572015, 33.004171985], "type": "Point"}, "id": "JT17HQqNDT3i1MsiGuChqloSST8=", "properties": {"@source_uri": "https://tools.usps.com/UspsToolsRestServices/rest/POLocator/findLocations", "@spider": "usps_collection_boxes", "addr:city": "IDA", "addr:country": "US", "addr:postcode": "71044", "addr:state": "LA", "addr:street_address": "6994 E MAGNOLIA LN", "amenity": "post_box", "collection_times": "Mo-Fr 11:00", "indoor": "yes", "nsi_id": "unitedstatespostalservice-a77078", "operator": "United States Postal Service", "operator:short": "USPS", "operator:type": "public", "operator:wikidata": "Q668687", "ref": "7104400004"}, "type": "Feature"}
{"geometry": {"coordinates": [-93.21182598, 32.344370988], "type": "Point"}, "id": "4QH1vDVgSB3cUpgaEeZ12YVnq-4=", "properties": {"@source_uri": "https://tools.usps.com/UspsToolsRestServices/rest/POLocator/findLocations", "@spider": "usps_collection_boxes", "addr:city": "JAMESTOWN", "addr:country": "US", "addr:postcode": "71045", "addr:state": "LA", "addr:street_address": "4143 E FRONT ST", "amenity": "post_box", "collection_times": "Mo-Fr 15:00; Sa 08:30", "note": "ON 12/24 AND 12/31, THIS BOX MAY BE COLLECTED AS EARLY AS 12 NOON.", "nsi_id": "unitedstatespostalservice-a77078", "operator": "United States Postal Service", "operator:short": "USPS", "operator:type": "public", "operator:wikidata": "Q668687", "ref": "7104500001"}, "type": "Feature"}
{"geometry": {"coordinates": [-93.21182598, 32.344370988], "type": "Point"}, "id": "nm5-v6Y9mUrexEJ7wYf9QtfzmmQ=", "properties": {"@source_uri": "https://tools.usps.com/UspsToolsRestServices/rest/POLocator/findLocations", "@spider": "usps_collection_boxes", "addr:city": "JAMESTOWN", "addr:country": "US", "addr:postcode": "71045", "addr:state": "LA", "addr:street_address": "4143 E FRONT ST", "amenity": "post_box", "collection_times": "Mo-Fr 15:00", "indoor": "yes", "note": "ON 12/24 AND 12/31, THIS BOX MAY BE COLLECTED AS EARLY AS 12 NOON.", "nsi_id": "unitedstatespostalservice-a77078", "operator": "United States Postal Service", "operator:short": "USPS", "operator:type": "public", "operator:wikidata": "Q668687", "ref": "7104500003"}, "type": "Feature"}
{"geometry": {"coordinates": [-93.21182598, 32.344370988], "type": "Point"}, "id": "wE8dfUp-SNoD7znM83e9w2_BDiA=", "properties": {"@source_uri": "https://tools.usps.com/UspsToolsRestServices/rest/POLocator/findLocations", "@spider": "usps_collection_boxes", "addr:city": "JAMESTOWN", "addr:country": "US", "addr:postcode": "71045", "addr:state": "LA", "addr:street_address": "4143 E FRONT ST", "amenity": "post_box", "collection_times": "Mo-Fr 15:00", "indoor": "yes", "note": "ON 12/24 AND 12/31, THIS BOX MAY BE COLLECTED AS EARLY AS 12 NOON.", "nsi_id": "unitedstatespostalservice-a77078", "operator": "United States Postal Service", "operator:short": "USPS", "operator:type": "public", "operator:wikidata": "Q668687", "ref": "7104500004"}, "type": "Feature"}
{"geometry": {"coordinates": [-93.9048648, 32.189096], "type": "Point"}, "id": "k-zwk-IKXqZl4s-1bO7mt2pUTwQ=", "properties": {"@source_uri": "https://tools.usps.com/UspsToolsRestServices/rest/POLocator/findLocations", "@spider": "usps_collection_boxes", "addr:city": "KEATCHIE", "addr:country": "US", "addr:postcode": "71046", "addr:state": "LA", "addr:street_address": "9892 HIGHWAY 5", "amenity": "post_box", "collection_times": "Mo-Fr 11:30; Sa 09:00", "nsi_id": "unitedstatespostalservice-a77078", "operator": "United States Postal Service", "operator:short": "USPS", "operator:type": "public", "operator:wikidata": "Q668687", "ref": "7104600001"}, "type": "Feature"}
{"geometry": {"coordinates": [-93.9048648, 32.189096], "type": "Point"}, "id": "yyIcid3nL5dP_b129B5jo6Cyid8=", "properties": {"@source_uri": "https://tools.usps.com/UspsToolsRestServices/rest/POLocator/findLocations", "@spider": "usps_collection_boxes", "addr:city": "KEATCHIE", "addr:country": "US", "addr:postcode": "71046", "addr:state": "LA", "addr:street_address": "9892 HIGHWAY 5", "amenity": "post_box", "collection_times": "Mo-Fr 11:30; Sa 09:00", "indoor": "yes", "nsi_id": "unitedstatespostalservice-a77078", "operator": "United States Postal Service", "operator:short": "USPS", "operator:type": "public", "operator:wikidata": "Q668687", "ref": "7104600004"}, "type": "Feature"}
{"geometry": {"coordinates": [-93.9048648, 32.189096], "type": "Point"}, "id": "Jx8WsWYcwhPh5z2DjbJ5UaCqYM8=", "properties": {"@source_uri": "https://tools.usps.com/UspsToolsRestServices/rest/POLocator/findLocations", "@spider": "usps_collection_boxes", "addr:city": "KEATCHIE", "addr:country": "US", "addr:postcode": "71046", "addr:state": "LA", "addr:street_address": "9892 HIGHWAY 5", "amenity": "post_box", "collection_times": "Mo-Fr 11:30", "indoor": "yes", "nsi_id": "unitedstatespostalservice-a77078", "operator": "United States Postal Service", "operator:short": "USPS", "operator:type": "public", "operator:wikidata": "Q668687", "ref": "7104600005"}, "type": "Feature"}
{"geometry": {"coordinates": [-93.828680997, 32.33372199], "type": "Point"}, "id": "cu36zySVyNAFWWvo7L0Div1oero=", "properties": {"@source_uri": "https://tools.usps.com/UspsToolsRestServices/rest/POLocator/findLocations", "@spider": "usps_collection_boxes", "addr:city": "KEITHVILLE", "addr:country": "US", "addr:postcode": "71047", "addr:state": "LA", "addr:street_address": "12395 MANSFIELD RD", "amenity": "post_box", "collection_times": "Mo-Fr 15:30", "indoor": "yes", "note": "ON 12/24 AND 12/31, THIS BOX MAY BE COLLECTED AS EARLY AS 12 NOON.", "nsi_id": "unitedstatespostalservice-a77078", "operator": "United States Postal Service", "operator:short": "USPS", "operator:type": "public", "operator:wikidata": "Q668687", "ref": "7104700002"}, "type": "Feature"}
{"geometry": {"coordinates": [-93.828680997, 32.33372199], "type": "Point"}, "id": "apzPUZeXaJHbaVhfkirRK4Js2do=", "properties": {"@source_uri": "https://tools.usps.com/UspsToolsRestServices/rest/POLocator/findLocations", "@spider": "usps_collection_boxes", "addr:city": "KEITHVILLE", "addr:country": "US", "addr:postcode": "71047", "addr:state": "LA", "addr:street_address": "12395 MANSFIELD RD", "amenity": "post_box", "collection_times": "Mo-Fr 16:00", "indoor": "yes", "note": "ON 12/24 AND 12/31, THIS BOX MAY BE COLLECTED AS EARLY AS 12 NOON.", "nsi_id": "unitedstatespostalservice-a77078", "operator": "United States Postal Service", "operator:short": "USPS", "operator:type": "public", "operator:wikidata": "Q668687", "ref": "7104700004"}, "type": "Feature"}
{"geometry": {"coordinates": [-92.865960185, 32.795906799], "type": "Point"}, "id": "mZz4RHWC7C0Dd5I2R_66gngzrKQ=", "properties": {"@source_uri": "https://tools.usps.com/UspsToolsRestServices/rest/POLocator/findLocations", "@spider": "usps_collection_boxes", "addr:city": "LISBON", "addr:country": "US", "addr:postcode": "71048", "addr:state": "LA", "addr:street_address": "20018 HIGHWAY 2", "amenity": "post_box", "collection_times": "Mo-Fr 15:30; Sa 11:30", "note": "ON 12/24 AND 12/31, THIS BOX MAY BE COLLECTED AS EARLY AS 12 NOON.", "nsi_id": "unitedstatespostalservice-a77078", "operator": "United States Postal Service", "operator:short": "USPS", "operator:type": "public", "operator:wikidata": "Q668687", "ref": "7104800001"}, "type": "Feature"}
{"geometry": {"coordinates": [-92.865960185, 32.795906799], "type": "Point"}, "id": "Ua5RJ5u_QP9bDqwvjUg_C2yJBLY=", "properties": {"@source_uri": "https://tools.usps.com/UspsToolsRestServices/rest/POLocator/findLocations", "@spider": "usps_collection_boxes", "addr:city": "LISBON", "addr:country": "US", "addr:postcode": "71048", "addr:state": "LA", "addr:street_address": "20018 HIGHWAY 2", "amenity": "post_box", "collection_times": "Mo-Fr 15:30; Sa 11:30", "indoor": "yes", "note": "ON 12/24 AND 12/31, THIS BOX MAY BE COLLECTED AS EARLY AS 12 NOON.", "nsi_id": "unitedstatespostalservice-a77078", "operator": "United States Postal Service", "operator:short": "USPS", "operator:type": "public", "operator:wikidata": "Q668687", "ref": "7104800002"}, "type": "Feature"}
{"geometry": {"coordinates": [-92.865960185, 32.795906799], "type": "Point"}, "id": "XYuPutIvez44VzlJVqa0RB_osKE=", "properties": {"@source_uri": "https://tools.usps.com/UspsToolsRestServices/rest/POLocator/findLocations", "@spider": "usps_collection_boxes", "addr:city": "LISBON", "addr:country": "US", "addr:postcode": "71048", "addr:state": "LA", "addr:street_address": "20018 HIGHWAY 2", "amenity": "post_box", "collection_times": "Mo-Fr 15:30", "indoor": "yes", "note": "ON 12/24 AND 12/31, THIS BOX MAY BE COLLECTED AS EARLY AS 12 NOON.", "nsi_id": "unitedstatespostalservice-a77078", "operator": "United States Postal Service", "operator:short": "USPS", "operator:type": "public", "operator:wikidata": "Q668687", "ref": "7104800004"}, "type": "Feature"}
{"geometry": {"coordinates": [-94.00294669, 31.973608097], "type": "Point"}, "id": "SeaNNOEqYq5psA2ZRHfbDQBUmm0=", "properties": {"@source_uri": "https://tools.usps.com/UspsToolsRestServices/rest/POLocator/findLocations", "@spider": "usps_collection_boxes", "addr:city": "LOGANSPORT", "addr:country": "US", "addr:postcode": "71049", "addr:state": "LA", "addr:street_address": "108 N 4TH ST", "amenity": "post_box", "collection_times": "Mo-Fr 15:30; Sa 07:00", "note": "ON 12/24 AND 12/31, THIS BOX MAY BE COLLECTED AS EARLY AS 12 NOON.", "nsi_id": "unitedstatespostalservice-a77078", "operator": "United States Postal Service", "operator:short": "USPS", "operator:type": "public", "operator:wikidata": "Q668687", "ref": "7104900003"}, "type": "Feature"}
{"geometry": {"coordinates": [-94.00294669, 31.973608097], "type": "Point"}, "id": "lr_6aOpK-QTpAi1Q0ERrtiMhNGg=", "properties": {"@source_uri": "https://tools.usps.com/UspsToolsRestServices/rest/POLocator/findLocations", "@spider": "usps_collection_boxes", "addr:city": "LOGANSPORT", "addr:country": "US", "addr:postcode": "71049", "addr:state": "LA", "addr:street_address": "108 N 4TH ST", "amenity": "post_box", "collection_times": "Mo-Fr 15:30; Sa 07:00", "indoor": "yes", "note": "ON 12/24 AND 12/31, THIS BOX MAY BE COLLECTED AS EARLY AS 12 NOON.", "nsi_id": "unitedstatespostalservice-a77078", "operator": "United States Postal Service", "operator:short": "USPS", "operator:type": "public", "operator:wikidata": "Q668687", "ref": "7104900005"}, "type": "Feature"}
{"geometry": {"coordinates": [-94.00294669, 31.973608097], "type": "Point"}, "id": "prMD0RV_MP8GzXG7xpy0bdHyxaA=", "properties": {"@source_uri": "https://tools.usps.com/UspsToolsRestServices/rest/POLocator/findLocations", "@spider": "usps_collection_boxes", "addr:city": "LOGANSPORT", "addr:country": "US", "addr:postcode": "71049", "addr:state": "LA", "addr:street_address": "108 N 4TH ST", "amenity": "post_box", "collection_times": "Mo-Fr 15:30", "indoor": "yes", "note": "ON 12/24 AND 12/31, THIS BOX MAY BE COLLECTED AS EARLY AS 12 NOON.", "nsi_id": "unitedstatespostalservice-a77078", "operator": "United States Postal Service", "operator:short": "USPS", "operator:type": "public", "operator:wikidata": "Q668687", "ref": "7104900006"}, "type": "Feature"}
{"geometry": {"coordinates": [-93.5480361, 32.4065883], "type": "Point"}, "id": "e2ggwBvB_nzuzdpEyRUI4ExsqIk=", "properties": {"@source_uri": "https://tools.usps.com/UspsToolsRestServices/rest/POLocator/findLocations", "@spider": "usps_collection_boxes", "addr:city": "ELM GROVE", "addr:country": "US", "addr:postcode": "71051", "addr:state": "LA", "addr:street_address": "10718 HIGHWAY 71", "amenity": "post_box", "collection_times": "Mo-Fr 15:45; Sa 08:45", "note": "ON 12/24 AND 12/31, THIS BOX MAY BE COLLECTED AS EARLY AS 12 NOON.", "nsi_id": "unitedstatespostalservice-a77078", "operator": "United States Postal Service", "operator:short": "USPS", "operator:type": "public", "operator:wikidata": "Q668687", "ref": "7105100001"}, "type": "Feature"}
{"geometry": {"coordinates": [-93.5480361, 32.4065883], "type": "Point"}, "id": "1RMsaIJdlpUHaKZsFlVc-dsHyek=", "properties": {"@source_uri": "https://tools.usps.com/UspsToolsRestServices/rest/POLocator/findLocations", "@spider": "usps_collection_boxes", "addr:city": "ELM GROVE", "addr:country": "US", "addr:postcode": "71051", "addr:state": "LA", "addr:street_address": "10718 HIGHWAY 71", "amenity": "post_box", "collection_times": "Mo-Fr 15:45; Sa 08:45", "indoor": "yes", "note": "ON 12/24 AND 12/31, THIS BOX MAY BE COLLECTED AS EARLY AS 12 NOON.", "nsi_id": "unitedstatespostalservice-a77078", "operator": "United States Postal Service", "operator:short": "USPS", "operator:type": "public", "operator:wikidata": "Q668687", "ref": "7105100002"}, "type": "Feature"}
{"geometry": {"coordinates": [-93.5480361, 32.4065883], "type": "Point"}, "id": "Dth3Prh9cwtjl3MOho_sqR4zQsw=", "properties": {"@source_uri": "https://tools.usps.com/UspsToolsRestServices/rest/POLocator/findLocations", "@spider": "usps_collection_boxes", "addr:city": "ELM GROVE", "addr:country": "US", "addr:postcode": "71051", "addr:state": "LA", "addr:street_address": "10718 HIGHWAY 71", "amenity": "post_box", "collection_times": "Mo-Fr 15:30", "indoor": "yes", "note": "ON 12/24 AND 12/31, THIS BOX MAY BE COLLECTED AS EARLY AS 12 NOON.", "nsi_id": "unitedstatespostalservice-a77078", "operator": "United States Postal Service", "operator:short": "USPS", "operator:type": "public", "operator:wikidata": "Q668687", "ref": "7105100003"}, "type": "Feature"}
{"geometry": {"coordinates": [-93.704619077, 32.037604651], "type": "Point"}, "id": "UJHxbErbxL_a-PywO2JbZW_Atqo=", "properties": {"@source_uri": "https://tools.usps.com/UspsToolsRestServices/rest/POLocator/findLocations", "@spider": "usps_collection_boxes", "addr:city": "MANSFIELD", "addr:country": "US", "addr:postcode": "71052", "addr:state": "LA", "addr:street_address": "100 CROSBY ST", "amenity": "post_box", "collection_times": "Mo-Fr 16:30; Sa 15:15", "note": "ON 12/24 AND 12/31, THIS BOX MAY BE COLLECTED AS EARLY AS 12 NOON.", "nsi_id": "unitedstatespostalservice-a77078", "operator": "United States Postal Service", "operator:short": "USPS", "operator:type": "public", "operator:wikidata": "Q668687", "ref": "7105200001"}, "type": "Feature"}
{"geometry": {"coordinates": [-93.704619077, 32.037604651], "type": "Point"}, "id": "ADKW7JNDTLKZ6CHGEsgUfgCLZOQ=", "properties": {"@source_uri": "https://tools.usps.com/UspsToolsRestServices/rest/POLocator/findLocations", "@spider": "usps_collection_boxes", "addr:city": "MANSFIELD", "addr:country": "US", "addr:postcode": "71052", "addr:state": "LA", "addr:street_address": "100 CROSBY ST", "amenity": "post_box", "collection_times": "Mo-Fr 16:30; Sa 15:15", "indoor": "yes", "note": "ON 12/24 AND 12/31, THIS BOX MAY BE COLLECTED AS EARLY AS 12 NOON.", "nsi_id": "unitedstatespostalservice-a77078", "operator": "United States Postal Service", "operator:short": "USPS", "operator:type": "public", "operator:wikidata": "Q668687", "ref": "7105200013"}, "type": "Feature"}
{"geometry": {"coordinates": [-93.704619077, 32.037604651], "type": "Point"}, "id": "ODnwpcGV4KYHNRvLJxPaKXJt5tE=", "properties": {"@source_uri": "https://tools.usps.com/UspsToolsRestServices/rest/POLocator/findLocations", "@spider": "usps_collection_boxes", "addr:city": "MANSFIELD", "addr:country": "US", "addr:postcode": "71052", "addr:state": "LA", "addr:street_address": "100 CROSBY ST", "amenity": "post_box", "collection_times": "Mo-Fr 16:15", "indoor": "yes", "note": "ON 12/24 AND 12/31, THIS BOX MAY BE COLLECTED AS EARLY AS 12 NOON.", "nsi_id": "unitedstatespostalservice-a77078", "operator": "United States Postal Service", "operator:short": "USPS", "operator:type": "public", "operator:wikidata": "Q668687", "ref": "7105200015"}, "type": "Feature"}
{"geometry": {"coordinates": [-93.2885029601, 32.6163479884], "type": "Point"}, "id": "bNZqej6vzsUKYcSNCsIoi5p8i6I=", "properties": {"@source_uri": "https://tools.usps.com/UspsToolsRestServices/rest/POLocator/findLocations", "@spider": "usps_collection_boxes", "addr:city": "MINDEN", "addr:country": "US", "addr:postcode": "71055", "addr:state": "LA", "addr:street_address": "111 S MONROE ST", "amenity": "post_box", "collection_times": "Mo-Fr 16:45; Sa 12:15", "note": "ON 12/24 AND 12/31, THIS BOX MAY BE COLLECTED AS EARLY AS 12 NOON.", "nsi_id": "unitedstatespostalservice-a77078", "operator": "United States Postal Service", "operator:short": "USPS", "operator:type": "public", "operator:wikidata": "Q668687", "ref": "7105500002"}, "type": "Feature"}
{"geometry": {"coordinates": [-93.287439967, 32.615047997], "type": "Point"}, "id": "u615IY0V-HWdLfsLdZfzOG0_4gU=", "properties": {"@source_uri": "https://tools.usps.com/UspsToolsRestServices/rest/POLocator/findLocations", "@spider": "usps_collection_boxes", "addr:city": "MINDEN", "addr:country": "US", "addr:postcode": "71055", "addr:state": "LA", "addr:street_address": "519 MAIN ST", "amenity": "post_box", "collection_times": "Mo-Fr 15:30; Sa 14:00", "note": "ON 12/24 AND 12/31, THIS BOX MAY BE COLLECTED AS EARLY AS 12 NOON.", "nsi_id": "unitedstatespostalservice-a77078", "operator": "United States Postal Service", "operator:short": "USPS", "operator:type": "public", "operator:wikidata": "Q668687", "ref": "7105500011"}, "type": "Feature"}
{"geometry": {"coordinates": [-93.288490974, 32.616352012], "type": "Point"}, "id": "kek6rQl25M6UtRkEOqXseV43HQM=", "properties": {"@source_uri": "https://tools.usps.com/UspsToolsRestServices/rest/POLocator/findLocations", "@spider": "usps_collection_boxes", "addr:city": "MINDEN", "addr:country": "US", "addr:postcode": "71055", "addr:state": "LA", "addr:street_address": "111 S MONROE ST", "amenity": "post_box", "collection_times": "Mo-Fr 16:45; Sa 12:15", "indoor": "yes", "note": "ON 12/24 AND 12/31, THIS BOX MAY BE COLLECTED AS EARLY AS 12 NOON.", "nsi_id": "unitedstatespostalservice-a77078", "operator": "United States Postal Service", "operator:short": "USPS", "operator:type": "public", "operator:wikidata": "Q668687", "ref": "7105500019"}, "type": "Feature"}
{"geometry": {"coordinates": [-93.288490974, 32.616352012], "type": "Point"}, "id": "fXNNKDWGIGTv4iCn2R1gKEFjOy0=", "properties": {"@source_uri": "https://tools.usps.com/UspsToolsRestServices/rest/POLocator/findLocations", "@spider": "usps_collection_boxes", "addr:city": "MINDEN", "addr:country": "US", "addr:postcode": "71055", "addr:state": "LA", "addr:street_address": "111 S MONROE ST", "amenity": "post_box", "collection_times": "Mo-Fr 16:45; Sa 12:15", "indoor": "yes", "note": "ON 12/24 AND 12/31, THIS BOX MAY BE COLLECTED AS EARLY AS 12 NOON.", "nsi_id": "unitedstatespostalservice-a77078", "operator": "United States Postal Service", "operator:short": "USPS", "operator:type": "public", "operator:wikidata": "Q668687", "ref": "7105500022"}, "type": "Feature"}
{"geometry": {"coordinates": [-93.417188448, 32.573732032], "type": "Point"}, "id": "7VuxwINYQFcF5Ypo_IaeYkHQu74=", "properties": {"@source_uri": "https://tools.usps.com/UspsToolsRestServices/rest/POLocator/findLocations", "@spider": "usps_collection_boxes", "addr:city": "MINDEN", "addr:country": "US", "addr:postcode": "71055", "addr:state": "LA", "addr:street_address": "201 LOUISIANA BLVD", "amenity": "post_box", "collection_times": "Mo-Sa 13:30", "note": "ON 12/24 AND 12/31, THIS BOX MAY BE COLLECTED AS EARLY AS 12 NOON.", "nsi_id": "unitedstatespostalservice-a77078", "operator": "United States Postal Service", "operator:short": "USPS", "operator:type": "public", "operator:wikidata": "Q668687", "ref": "7105500025"}, "type": "Feature"}
{"geometry": {"coordinates": [-93.288490974, 32.616352012], "type": "Point"}, "id": "Wqi59EGArS0X9t-4V6e4Pqdhd3w=", "properties": {"@source_uri": "https://tools.usps.com/UspsToolsRestServices/rest/POLocator/findLocations", "@spider": "usps_collection_boxes", "addr:city": "MINDEN", "addr:country": "US", "addr:postcode": "71055", "addr:state": "LA", "addr:street_address": "111 S MONROE ST", "amenity": "post_box", "collection_times": "Mo-Fr 16:30; Sa 12:00", "indoor": "yes", "note": "ON 12/24 AND 12/31, THIS BOX MAY BE COLLECTED AS EARLY AS 12 NOON.", "nsi_id": "unitedstatespostalservice-a77078", "operator": "United States Postal Service", "operator:short": "USPS", "operator:type": "public", "operator:wikidata": "Q668687", "ref": "7105500027"}, "type": "Feature"}
{"geometry": {"coordinates": [-93.959384958, 32.692191011], "type": "Point"}, "id": "8r6KGBBR6mYjtshvvC345z7XI7U=", "properties": {"@source_uri": "https://tools.usps.com/UspsToolsRestServices/rest/POLocator/findLocations", "@spider": "usps_collection_boxes", "addr:city": "MOORINGSPORT", "addr:country": "US", "addr:postcode": "71060", "addr:state": "LA", "addr:street_address": "117 CROOM ST", "amenity": "post_box", "collection_times": "Mo-Fr 15:15; Sa 08:15", "note": "ON 12/24 AND 12/31, THIS BOX MAY BE COLLECTED AS EARLY AS 12 NOON.", "nsi_id": "unitedstatespostalservice-a77078", "operator": "United States Postal Service", "operator:short": "USPS", "operator:type": "public", "operator:wikidata": "Q668687", "ref": "7106000002"}, "type": "Feature"}
{"geometry": {"coordinates": [-93.959384958, 32.692191011], "type": "Point"}, "id": "1PD64nacKDGjcZtD7m1haGqmTZc=", "properties": {"@source_uri": "https://tools.usps.com/UspsToolsRestServices/rest/POLocator/findLocations", "@spider": "usps_collection_boxes", "addr:city": "MOORINGSPORT", "addr:country": "US", "addr:postcode": "71060", "addr:state": "LA", "addr:street_address": "117 CROOM ST", "amenity": "post_box", "collection_times": "Mo-Fr 15:15; Sa 08:15", "indoor": "yes", "note": "ON 12/24 AND 12/31, THIS BOX MAY BE COLLECTED AS EARLY AS 12 NOON.", "nsi_id": "unitedstatespostalservice-a77078", "operator": "United States Postal Service", "operator:short": "USPS", "operator:type": "public", "operator:wikidata": "Q668687", "ref": "7106000004"}, "type": "Feature"}
{"geometry": {"coordinates": [-93.959384958, 32.692191011], "type": "Point"}, "id": "U_d6LJPeyyiT27WZRrbhm0gUOvQ=", "properties": {"@source_uri": "https://tools.usps.com/UspsToolsRestServices/rest/POLocator/findLocations", "@spider": "usps_collection_boxes", "addr:city": "MOORINGSPORT", "addr:country": "US", "addr:postcode": "71060", "addr:state": "LA", "addr:street_address": "117 CROOM ST", "amenity": "post_box", "collection_times": "Mo-Fr 15:30", "indoor": "yes", "note": "ON 12/24 AND 12/31, THIS BOX MAY BE COLLECTED AS EARLY AS 12 NOON.", "nsi_id": "unitedstatespostalservice-a77078", "operator": "United States Postal Service", "operator:short": "USPS", "operator:type": "public", "operator:wikidata": "Q668687", "ref": "7106000005"}, "type": "Feature"}
{"geometry": {"coordinates": [-93.97679, 32.741785], "type": "Point"}, "id": "4K7qDUxjWKSWnUWYk9UhizKIJNQ=", "properties": {"@source_uri": "https://tools.usps.com/UspsToolsRestServices/rest/POLocator/findLocations", "@spider": "usps_collection_boxes", "addr:city": "OIL CITY", "addr:country": "US", "addr:postcode": "71061", "addr:state": "LA", "addr:street_address": "200 FURMAN ST", "amenity": "post_box", "collection_times": "Mo-Fr 15:15; Sa 07:00", "note": "ON 12/24 AND 12/31, THIS BOX MAY BE COLLECTED AS EARLY AS 12 NOON.", "nsi_id": "unitedstatespostalservice-a77078", "operator": "United States Postal Service", "operator:short": "USPS", "operator:type": "public", "operator:wikidata": "Q668687", "ref": "7106100001"}, "type": "Feature"}
{"geometry": {"coordinates": [-93.97679, 32.741785], "type": "Point"}, "id": "0xQhPUv4TPKnw2drTOeuduN7Gdk=", "properties": {"@source_uri": "https://tools.usps.com/UspsToolsRestServices/rest/POLocator/findLocations", "@spider": "usps_collection_boxes", "addr:city": "OIL CITY", "addr:country": "US", "addr:postcode": "71061", "addr:state": "LA", "addr:street_address": "200 FURMAN ST", "amenity": "post_box", "collection_times": "Mo-Fr 15:15", "indoor": "yes", "note": "ON 12/24 AND 12/31, THIS BOX MAY BE COLLECTED AS EARLY AS 12 NOON.", "nsi_id": "unitedstatespostalservice-a77078", "operator": "United States Postal Service", "operator:short": "USPS", "operator:type": "public", "operator:wikidata": "Q668687", "ref": "7106100003"}, "type": "Feature"}
{"geometry": {"coordinates": [-93.97679, 32.741785], "type": "Point"}, "id": "XCumfsS3oWhtstmSgmRTrirPBb0=", "properties": {"@source_uri": "https://tools.usps.com/UspsToolsRestServices/rest/POLocator/findLocations", "@spider": "usps_collection_boxes", "addr:city": "OIL CITY", "addr:country": "US", "addr:postcode": "71061", "addr:state": "LA", "addr:street_address": "200 FURMAN ST", "amenity": "post_box", "collection_times": "Mo-Fr 16:00", "indoor": "yes", "note": "ON 12/24 AND 12/31, THIS BOX MAY BE COLLECTED AS EARLY AS 12 NOON.", "nsi_id": "unitedstatespostalservice-a77078", "operator": "United States Postal Service", "operator:short": "USPS", "operator:type": "public", "operator:wikidata": "Q668687", "ref": "7106100006"}, "type": "Feature"}
{"geometry": {"coordinates": [-93.590330991, 31.879109162], "type": "Point"}, "id": "y46MoN2OiDovxjZFOo68xlZDfEo=", "properties": {"@source_uri": "https://tools.usps.com/UspsToolsRestServices/rest/POLocator/findLocations", "@spider": "usps_collection_boxes", "addr:city": "PELICAN", "addr:country": "US", "addr:postcode": "71063", "addr:state": "LA", "addr:street_address": "151 JACKSON ST", "amenity": "post_box", "collection_times": "Mo-Fr 12:00; Sa 07:30", "indoor": "yes", "nsi_id": "unitedstatespostalservice-a77078", "operator": "United States Postal Service", "operator:short": "USPS", "operator:type": "public", "operator:wikidata": "Q668687", "ref": "7106300003"}, "type": "Feature"}
{"geometry": {"coordinates": [-93.590330991, 31.879109162], "type": "Point"}, "id": "nOuPn6ZFG9MUiyEfd-9OAxbZ4JU=", "properties": {"@source_uri": "https://tools.usps.com/UspsToolsRestServices/rest/POLocator/findLocations", "@spider": "usps_collection_boxes", "addr:city": "PELICAN", "addr:country": "US", "addr:postcode": "71063", "addr:state": "LA", "addr:street_address": "151 JACKSON ST", "amenity": "post_box", "collection_times": "Mo-Fr 12:00", "indoor": "yes", "nsi_id": "unitedstatespostalservice-a77078", "operator": "United States Postal Service", "operator:short": "USPS", "operator:type": "public", "operator:wikidata": "Q668687", "ref": "7106300004"}, "type": "Feature"}
{"geometry": {"coordinates": [-93.703006009, 32.90622601], "type": "Point"}, "id": "i3oli_I3M1gjfRplMV0yjq1M19g=", "properties": {"@source_uri": "https://tools.usps.com/UspsToolsRestServices/rest/POLocator/findLocations", "@spider": "usps_collection_boxes", "addr:city": "PLAIN DEALING", "addr:country": "US", "addr:postcode": "71064", "addr:state": "LA", "addr:street_address": "301 W MARY LEE ST", "amenity": "post_box", "collection_times": "Mo-Fr 16:00; Sa 08:00", "note": "ON 12/24 AND 12/31, THIS BOX MAY BE COLLECTED AS EARLY AS 12 NOON.", "nsi_id": "unitedstatespostalservice-a77078", "operator": "United States Postal Service", "operator:short": "USPS", "operator:type": "public", "operator:wikidata": "Q668687", "ref": "7106400001"}, "type": "Feature"}
{"geometry": {"coordinates": [-93.703006009, 32.90622601], "type": "Point"}, "id": "GW7KUZoaBmW7gbhSDJK0AIWDNfE=", "properties": {"@source_uri": "https://tools.usps.com/UspsToolsRestServices/rest/POLocator/findLocations", "@spider": "usps_collection_boxes", "addr:city": "PLAIN DEALING", "addr:country": "US", "addr:postcode": "71064", "addr:state": "LA", "addr:street_address": "301 W MARY LEE ST", "amenity": "post_box", "collection_times": "Mo-Fr 16:00; Sa 08:00", "indoor": "yes", "note": "ON 12/24 AND 12/31, THIS BOX MAY BE COLLECTED AS EARLY AS 12 NOON.", "nsi_id": "unitedstatespostalservice-a77078", "operator": "United States Postal Service", "operator:short": "USPS", "operator:type": "public", "operator:wikidata": "Q668687", "ref": "7106400002"}, "type": "Feature"}
{"geometry": {"coordinates": [-93.703006009, 32.90622601], "type": "Point"}, "id": "dfkEh4ptCgnO0ZOt9DFYVX9nPX8=", "properties": {"@source_uri": "https://tools.usps.com/UspsToolsRestServices/rest/POLocator/findLocations", "@spider": "usps_collection_boxes", "addr:city": "PLAIN DEALING", "addr:country": "US", "addr:postcode": "71064", "addr:state": "LA", "addr:street_address": "301 W MARY LEE ST", "amenity": "post_box", "collection_times": "Mo-Fr 16:00", "indoor": "yes", "note": "ON 12/24 AND 12/31, THIS BOX MAY BE COLLECTED AS EARLY AS 12 NOON.", "nsi_id": "unitedstatespostalservice-a77078", "operator": "United States Postal Service", "operator:short": "USPS", "operator:type": "public", "operator:wikidata": "Q668687", "ref": "7106400003"}, "type": "Feature"}
{"geometry": {"coordinates": [-93.514839994, 31.819870002], "type": "Point"}, "id": "IeeQbR3R59dhFitMOU_QgKrkN4Y=", "properties": {"@source_uri": "https://tools.usps.com/UspsToolsRestServices/rest/POLocator/findLocations", "@spider": "usps_collection_boxes", "addr:city": "PLEASANT HILL", "addr:country": "US", "addr:postcode": "71065", "addr:state": "LA", "addr:street_address": "2212 W MAIN ST", "amenity": "post_box", "collection_times": "Mo-Fr 12:00; Sa 07:30", "nsi_id": "unitedstatespostalservice-a77078", "operator": "United States Postal Service", "operator:short": "USPS", "operator:type": "public", "operator:wikidata": "Q668687", "ref": "7106500001"}, "type": "Feature"}
{"geometry": {"coordinates": [-93.514839994, 31.819870002], "type": "Point"}, "id": "yrw4z6PQbwHOOmwwP3l830W-9U0=", "properties": {"@source_uri": "https://tools.usps.com/UspsToolsRestServices/rest/POLocator/findLocations", "@spider": "usps_collection_boxes", "addr:city": "PLEASANT HILL", "addr:country": "US", "addr:postcode": "71065", "addr:state": "LA", "addr:street_address": "2212 W MAIN ST", "amenity": "post_box", "collection_times": "Mo-Fr 12:00; Sa 07:30", "indoor": "yes", "nsi_id": "unitedstatespostalservice-a77078", "operator": "United States Postal Service", "operator:short": "USPS", "operator:type": "public", "operator:wikidata": "Q668687", "ref": "7106500003"}, "type": "Feature"}
{"geometry": {"coordinates": [-93.514839994, 31.819870002], "type": "Point"}, "id": "NgRZssUlWYyfg0hbIW4o1eQjSZw=", "properties": {"@source_uri": "https://tools.usps.com/UspsToolsRestServices/rest/POLocator/findLocations", "@spider": "usps_collection_boxes", "addr:city": "PLEASANT HILL", "addr:country": "US", "addr:postcode": "71065", "addr:state": "LA", "addr:street_address": "2212 W MAIN ST", "amenity": "post_box", "collection_times": "Mo-Fr 12:00", "indoor": "yes", "nsi_id": "unitedstatespostalservice-a77078", "operator": "United States Postal Service", "operator:short": "USPS", "operator:type": "public", "operator:wikidata": "Q668687", "ref": "7106500004"}, "type": "Feature"}
{"geometry": {"coordinates": [-93.20101703, 31.87291217], "type": "Point"}, "id": "Z6yUFZowfJJluVy25ImMHQc8iA8=", "properties": {"@source_uri": "https://tools.usps.com/UspsToolsRestServices/rest/POLocator/findLocations", "@spider": "usps_collection_boxes", "addr:city": "POWHATAN", "addr:country": "US", "addr:postcode": "71066", "addr:state": "LA", "addr:street_address": "1812 HIGHWAY 1 N", "amenity": "post_box", "collection_times": "Mo-Fr 10:45", "indoor": "yes", "nsi_id": "unitedstatespostalservice-a77078", "operator": "United States Postal Service", "operator:short": "USPS", "operator:type": "public", "operator:wikidata": "Q668687", "ref": "7106600003"}, "type": "Feature"}
{"geometry": {"coordinates": [-93.20101703, 31.87291217], "type": "Point"}, "id": "RT4MO_pasKQ_HzhekiJIozBeAKE=", "properties": {"@source_uri": "https://tools.usps.com/UspsToolsRestServices/rest/POLocator/findLocations", "@spider": "usps_collection_boxes", "addr:city": "POWHATAN", "addr:country": "US", "addr:postcode": "71066", "addr:state": "LA", "addr:street_address": "1812 HIGHWAY 1 N", "amenity": "post_box", "collection_times": "Mo-Fr 10:45", "nsi_id": "unitedstatespostalservice-a77078", "operator": "United States Postal Service", "operator:short": "USPS", "operator:type": "public", "operator:wikidata": "Q668687", "ref": "7106600004"}, "type": "Feature"}
{"geometry": {"coordinates": [-93.20101703, 31.87291217], "type": "Point"}, "id": "PPJJVLqYTYuh4PgNcehqpsD6jxg=", "properties": {"@source_uri": "https://tools.usps.com/UspsToolsRestServices/rest/POLocator/findLocations", "@spider": "usps_collection_boxes", "addr:city": "POWHATAN", "addr:country": "US", "addr:postcode": "71066", "addr:state": "LA", "addr:street_address": "1812 HIGHWAY 1 N", "amenity": "post_box", "collection_times": "Mo-Fr 11:00", "indoor": "yes", "nsi_id": "unitedstatespostalservice-a77078", "operator": "United States Postal Service", "operator:short": "USPS", "operator:type": "public", "operator:wikidata": "Q668687", "ref": "7106600005"}, "type": "Feature"}
{"geometry": {"coordinates": [-93.546304988, 32.558922983], "type": "Point"}, "id": "YA_7vlE8jSWmyOZD2NQeaemNQ7s=", "properties": {"@source_uri": "https://tools.usps.com/UspsToolsRestServices/rest/POLocator/findLocations", "@spider": "usps_collection_boxes", "addr:city": "PRINCETON", "addr:country": "US", "addr:postcode": "71067", "addr:state": "LA", "addr:street_address": "5491 HIGHWAY 80", "amenity": "post_box", "collection_times": "Mo-Fr 16:00; Sa 10:00", "indoor": "yes", "note": "ON 12/24 AND 12/31, THIS BOX MAY BE COLLECTED AS EARLY AS 12 NOON.", "nsi_id": "unitedstatespostalservice-a77078", "operator": "United States Postal Service", "operator:short": "USPS", "operator:type": "public", "operator:wikidata": "Q668687", "ref": "7106700006"}, "type": "Feature"}
{"geometry": {"coordinates": [-93.542225, 32.559385], "type": "Point"}, "id": "aL6uf7hx6UCrccOLQs0iQaxEF58=", "properties": {"@source_uri": "https://tools.usps.com/UspsToolsRestServices/rest/POLocator/findLocations", "@spider": "usps_collection_boxes", "addr:city": "PRINCETON", "addr:country": "US", "addr:postcode": "71067", "addr:state": "LA", "addr:street_address": "5491 HIGHWAY 80", "amenity": "post_box", "collection_times": "Mo-Fr 16:00; Sa 10:00", "note": "ON 12/24 AND 12/31, THIS BOX MAY BE COLLECTED AS EARLY AS 12 NOON.", "nsi_id": "unitedstatespostalservice-a77078", "operator": "United States Postal Service", "operator:short": "USPS", "operator:type": "public", "operator:wikidata": "Q668687", "ref": "7106700007"}, "type": "Feature"}
{"geometry": {"coordinates": [-93.546304988, 32.558922983], "type": "Point"}, "id": "UMnb-ncq6I8gz7unPTGKmx9F9i4=", "properties": {"@source_uri": "https://tools.usps.com/UspsToolsRestServices/rest/POLocator/findLocations", "@spider": "usps_collection_boxes", "addr:city": "PRINCETON", "addr:country": "US", "addr:postcode": "71067", "addr:state": "LA", "addr:street_address": "5491 HIGHWAY 80", "amenity": "post_box", "collection_times": "Mo-Fr 16:00", "indoor": "yes", "note": "ON 12/24 AND 12/31, THIS BOX MAY BE COLLECTED AS EARLY AS 12 NOON.", "nsi_id": "unitedstatespostalservice-a77078", "operator": "United States Postal Service", "operator:short": "USPS", "operator:type": "public", "operator:wikidata": "Q668687", "ref": "7106700008"}, "type": "Feature"}
{"geometry": {"coordinates": [-93.2850360373, 32.3292639909], "type": "Point"}, "id": "sjE8g8BUCz9FwqqwLy_eJwXCR9E=", "properties": {"@source_uri": "https://tools.usps.com/UspsToolsRestServices/rest/POLocator/findLocations", "@spider": "usps_collection_boxes", "addr:city": "RINGGOLD", "addr:country": "US", "addr:postcode": "71068", "addr:state": "LA", "addr:street_address": "2325 MILL ST", "amenity": "post_box", "collection_times": "Mo-Fr 16:00; Sa 11:30", "note": "ON 12/24 AND 12/31, THIS BOX MAY BE COLLECTED AS EARLY AS 12 NOON.", "nsi_id": "unitedstatespostalservice-a77078", "operator": "United States Postal Service", "operator:short": "USPS", "operator:type": "public", "operator:wikidata": "Q668687", "ref": "7106800001"}, "type": "Feature"}
{"geometry": {"coordinates": [-93.285028997, 32.329266003], "type": "Point"}, "id": "yY7sX7LfLJDOQVJs5pq3MI5WDeo=", "properties": {"@source_uri": "https://tools.usps.com/UspsToolsRestServices/rest/POLocator/findLocations", "@spider": "usps_collection_boxes", "addr:city": "RINGGOLD", "addr:country": "US", "addr:postcode": "71068", "addr:state": "LA", "addr:street_address": "2325 MILL ST", "amenity": "post_box", "collection_times": "Mo-Fr 16:00; Sa 11:30", "indoor": "yes", "note": "ON 12/24 AND 12/31, THIS BOX MAY BE COLLECTED AS EARLY AS 12 NOON.", "nsi_id": "unitedstatespostalservice-a77078", "operator": "United States Postal Service", "operator:short": "USPS", "operator:type": "public", "operator:wikidata": "Q668687", "ref": "7106800004"}, "type": "Feature"}
{"geometry": {"coordinates": [-93.285028997, 32.329266003], "type": "Point"}, "id": "5cpf-YN2Tz6txVHui38e_wGoqZU=", "properties": {"@source_uri": "https://tools.usps.com/UspsToolsRestServices/rest/POLocator/findLocations", "@spider": "usps_collection_boxes", "addr:city": "RINGGOLD", "addr:country": "US", "addr:postcode": "71068", "addr:state": "LA", "addr:street_address": "2325 MILL ST", "amenity": "post_box", "collection_times": "Mo-Fr 15:45; Sa 11:30", "indoor": "yes", "note": "ON 12/24 AND 12/31, THIS BOX MAY BE COLLECTED AS EARLY AS 12 NOON.", "nsi_id": "unitedstatespostalservice-a77078", "operator": "United States Postal Service", "operator:short": "USPS", "operator:type": "public", "operator:wikidata": "Q668687", "ref": "7106800005"}, "type": "Feature"}
{"geometry": {"coordinates": [-93.9954762167, 32.9716298746], "type": "Point"}, "id": "YI6Nm9txudAxPvvM6lymKqjfm2s=", "properties": {"@source_uri": "https://tools.usps.com/UspsToolsRestServices/rest/POLocator/findLocations", "@spider": "usps_collection_boxes", "addr:city": "RODESSA", "addr:country": "US", "addr:postcode": "71069", "addr:state": "LA", "addr:street_address": "20065 W FRONT ST", "amenity": "post_box", "collection_times": "Mo-Fr 11:45; Sa 08:30", "nsi_id": "unitedstatespostalservice-a77078", "operator": "United States Postal Service", "operator:short": "USPS", "operator:type": "public", "operator:wikidata": "Q668687", "ref": "7106900001"}, "type": "Feature"}
{"geometry": {"coordinates": [-93.995959983, 32.972730469], "type": "Point"}, "id": "wOkEkS7-8NbqKq9t4Fc7Cqc4sNU=", "properties": {"@source_uri": "https://tools.usps.com/UspsToolsRestServices/rest/POLocator/findLocations", "@spider": "usps_collection_boxes", "addr:city": "RODESSA", "addr:country": "US", "addr:postcode": "71069", "addr:state": "LA", "addr:street_address": "20065 W FRONT ST", "amenity": "post_box", "collection_times": "Mo-Fr 11:45", "indoor": "yes", "nsi_id": "unitedstatespostalservice-a77078", "operator": "United States Postal Service", "operator:short": "USPS", "operator:type": "public", "operator:wikidata": "Q668687", "ref": "7106900003"}, "type": "Feature"}
{"geometry": {"coordinates": [-93.995959983, 32.972730469], "type": "Point"}, "id": "61muToErGO9veyFr01NMkRFitFM=", "properties": {"@source_uri": "https://tools.usps.com/UspsToolsRestServices/rest/POLocator/findLocations", "@spider": "usps_collection_boxes", "addr:city": "RODESSA", "addr:country": "US", "addr:postcode": "71069", "addr:state": "LA", "addr:street_address": "20065 W FRONT ST", "amenity": "post_box", "collection_times": "Mo-Fr 11:45", "indoor": "yes", "nsi_id": "unitedstatespostalservice-a77078", "operator": "United States Postal Service", "operator:short": "USPS", "operator:type": "public", "operator:wikidata": "Q668687", "ref": "7106900004"}, "type": "Feature"}
{"geometry": {"coordinates": [-92.974743011, 32.163224985], "type": "Point"}, "id": "klF9WjAeL8XT-1LvPLhpbUhaeY0=", "properties": {"@source_uri": "https://tools.usps.com/UspsToolsRestServices/rest/POLocator/findLocations", "@spider": "usps_collection_boxes", "addr:city": "SALINE", "addr:country": "US", "addr:postcode": "71070", "addr:state": "LA", "addr:street_address": "1032 COOPER ST", "amenity": "post_box", "collection_times": "Mo-Fr 13:15; Sa 08:30", "note": "ON 12/24 AND 12/31, THIS BOX MAY BE COLLECTED AS EARLY AS 12 NOON.", "nsi_id": "unitedstatespostalservice-a77078", "operator": "United States Postal Service", "operator:short": "USPS", "operator:type": "public", "operator:wikidata": "Q668687", "ref": "7107000001"}, "type": "Feature"}
{"geometry": {"coordinates": [-92.974743011, 32.163224985], "type": "Point"}, "id": "U6JAGICbB9oy1VBY3AyEGpD6AXU=", "properties": {"@source_uri": "https://tools.usps.com/UspsToolsRestServices/rest/POLocator/findLocations", "@spider": "usps_collection_boxes", "addr:city": "SALINE", "addr:country": "US", "addr:postcode": "71070", "addr:state": "LA", "addr:street_address": "1032 COOPER ST", "amenity": "post_box", "collection_times": "Mo-Fr 13:15; Sa 08:30", "indoor": "yes", "note": "ON 12/24 AND 12/31, THIS BOX MAY BE COLLECTED AS EARLY AS 12 NOON.", "nsi_id": "unitedstatespostalservice-a77078", "operator": "United States Postal Service", "operator:short": "USPS", "operator:type": "public", "operator:wikidata": "Q668687", "ref": "7107000003"}, "type": "Feature"}
{"geometry": {"coordinates": [-92.974743011, 32.163224985], "type": "Point"}, "id": "CskVQSdtuG7iQmRz4q3r9g3CjgM=", "properties": {"@source_uri": "https://tools.usps.com/UspsToolsRestServices/rest/POLocator/findLocations", "@spider": "usps_collection_boxes", "addr:city": "SALINE", "addr:country": "US", "addr:postcode": "71070", "addr:state": "LA", "addr:street_address": "1032 COOPER ST", "amenity": "post_box", "collection_times": "Mo-Fr 13:30", "indoor": "yes", "note": "ON 12/24 AND 12/31, THIS BOX MAY BE COLLECTED AS EARLY AS 12 NOON.", "nsi_id": "unitedstatespostalservice-a77078", "operator": "United States Postal Service", "operator:short": "USPS", "operator:type": "public", "operator:wikidata": "Q668687", "ref": "7107000004"}, "type": "Feature"}
{"geometry": {"coordinates": [-93.450278972, 32.894149992], "type": "Point"}, "id": "d5Vq8G-Q61MMRPKljiryMuBJ1uM=", "properties": {"@source_uri": "https://tools.usps.com/UspsToolsRestServices/rest/POLocator/findLocations", "@spider": "usps_collection_boxes", "addr:city": "SAREPTA", "addr:country": "US", "addr:postcode": "71071", "addr:state": "LA", "addr:street_address": "24468 HIGHWAY 371", "amenity": "post_box", "collection_times": "Mo-Fr 15:00; Sa 08:30", "note": "ON 12/24 AND 12/31, THIS BOX MAY BE COLLECTED AS EARLY AS 12 NOON.", "nsi_id": "unitedstatespostalservice-a77078", "operator": "United States Postal Service", "operator:short": "USPS", "operator:type": "public", "operator:wikidata": "Q668687", "ref": "7107100001"}, "type": "Feature"}
{"geometry": {"coordinates": [-93.450278972, 32.894149992], "type": "Point"}, "id": "IKoWIQPJwqqouMVOkrMQl6t84kg=", "properties": {"@source_uri": "https://tools.usps.com/UspsToolsRestServices/rest/POLocator/findLocations", "@spider": "usps_collection_boxes", "addr:city": "SAREPTA", "addr:country": "US", "addr:postcode": "71071", "addr:state": "LA", "addr:street_address": "24468 HIGHWAY 371", "amenity": "post_box", "collection_times": "Mo-Fr 15:00; Sa 08:30", "indoor": "yes", "note": "ON 12/24 AND 12/31, THIS BOX MAY BE COLLECTED AS EARLY AS 12 NOON.", "nsi_id": "unitedstatespostalservice-a77078", "operator": "United States Postal Service", "operator:short": "USPS", "operator:type": "public", "operator:wikidata": "Q668687", "ref": "7107100003"}, "type": "Feature"}
{"geometry": {"coordinates": [-93.450278972, 32.894149992], "type": "Point"}, "id": "3nEeilgKpTd74TVweEXuf8P-llQ=", "properties": {"@source_uri": "https://tools.usps.com/UspsToolsRestServices/rest/POLocator/findLocations", "@spider": "usps_collection_boxes", "addr:city": "SAREPTA", "addr:country": "US", "addr:postcode": "71071", "addr:state": "LA", "addr:street_address": "24468 HIGHWAY 371", "amenity": "post_box", "collection_times": "Mo-Fr 15:00", "indoor": "yes", "note": "ON 12/24 AND 12/31, THIS BOX MAY BE COLLECTED AS EARLY AS 12 NOON.", "nsi_id": "unitedstatespostalservice-a77078", "operator": "United States Postal Service", "operator:short": "USPS", "operator:type": "public", "operator:wikidata": "Q668687", "ref": "7107100004"}, "type": "Feature"}
{"geometry": {"coordinates": [-93.295680971, 32.540705], "type": "Point"}, "id": "Xkoxi34n3o83OMH-PMlYK2Tv7H8=", "properties": {"@source_uri": "https://tools.usps.com/UspsToolsRestServices/rest/POLocator/findLocations", "@spider": "usps_collection_boxes", "addr:city": "SIBLEY", "addr:country": "US", "addr:postcode": "71073", "addr:state": "LA", "addr:street_address": "219 N MAIN ST", "amenity": "post_box", "collection_times": "Mo-Fr 15:00; Sa 09:00", "note": "ON 12/24 AND 12/31, THIS BOX MAY BE COLLECTED AS EARLY AS 12 NOON.", "nsi_id": "unitedstatespostalservice-a77078", "operator": "United States Postal Service", "operator:short": "USPS", "operator:type": "public", "operator:wikidata": "Q668687", "ref": "7107300003"}, "type": "Feature"}
{"geometry": {"coordinates": [-93.295680971, 32.540705], "type": "Point"}, "id": "0ro_ImhBHriu-t3HTnBBzNVTrek=", "properties": {"@source_uri": "https://tools.usps.com/UspsToolsRestServices/rest/POLocator/findLocations", "@spider": "usps_collection_boxes", "addr:city": "SIBLEY", "addr:country": "US", "addr:postcode": "71073", "addr:state": "LA", "addr:street_address": "219 N MAIN ST", "amenity": "post_box", "collection_times": "Mo-Fr 15:00", "indoor": "yes", "note": "ON 12/24 AND 12/31, THIS BOX MAY BE COLLECTED AS EARLY AS 12 NOON.", "nsi_id": "unitedstatespostalservice-a77078", "operator": "United States Postal Service", "operator:short": "USPS", "operator:type": "public", "operator:wikidata": "Q668687", "ref": "7107300004"}, "type": "Feature"}
{"geometry": {"coordinates": [-93.295680971, 32.540705], "type": "Point"}, "id": "rEK4YN8Ep8KiRYY3wIatuv_rXEM=", "properties": {"@source_uri": "https://tools.usps.com/UspsToolsRestServices/rest/POLocator/findLocations", "@spider": "usps_collection_boxes", "addr:city": "SIBLEY", "addr:country": "US", "addr:postcode": "71073", "addr:state": "LA", "addr:street_address": "219 N MAIN ST", "amenity": "post_box", "collection_times": "Mo-Fr 15:00; Sa 09:00", "indoor": "yes", "note": "ON 12/24 AND 12/31, THIS BOX MAY BE COLLECTED AS EARLY AS 12 NOON.", "nsi_id": "unitedstatespostalservice-a77078", "operator": "United States Postal Service", "operator:short": "USPS", "operator:type": "public", "operator:wikidata": "Q668687", "ref": "7107300005"}, "type": "Feature"}
{"geometry": {"coordinates": [-93.461491025, 33.00708302], "type": "Point"}, "id": "XXo6Nc98kEz_dh7Ww0giaEAgyi0=", "properties": {"@source_uri": "https://tools.usps.com/UspsToolsRestServices/rest/POLocator/findLocations", "@spider": "usps_collection_boxes", "addr:city": "SPRINGHILL", "addr:country": "US", "addr:postcode": "71075", "addr:state": "LA", "addr:street_address": "501 N GILES ST", "amenity": "post_box", "collection_times": "Mo-Sa 14:30", "indoor": "yes", "note": "ON 12/24 AND 12/31, THIS BOX MAY BE COLLECTED AS EARLY AS 12 NOON.", "nsi_id": "unitedstatespostalservice-a77078", "operator": "United States Postal Service", "operator:short": "USPS", "operator:type": "public", "operator:wikidata": "Q668687", "ref": "7107500009"}, "type": "Feature"}
{"geometry": {"coordinates": [-93.461491025, 33.00708302], "type": "Point"}, "id": "bBMMMXeynkrFMbSIzuOn7lnfnP8=", "properties": {"@source_uri": "https://tools.usps.com/UspsToolsRestServices/rest/POLocator/findLocations", "@spider": "usps_collection_boxes", "addr:city": "SPRINGHILL", "addr:country": "US", "addr:postcode": "71075", "addr:state": "LA", "addr:street_address": "501 N GILES ST", "amenity": "post_box", "collection_times": "Mo-Sa 14:30", "note": "ON 12/24 AND 12/31, THIS BOX MAY BE COLLECTED AS EARLY AS 12 NOON.", "nsi_id": "unitedstatespostalservice-a77078", "operator": "United States Postal Service", "operator:short": "USPS", "operator:type": "public", "operator:wikidata": "Q668687", "ref": "7107500011"}, "type": "Feature"}
{"geometry": {"coordinates": [-93.461491025, 33.00708302], "type": "Point"}, "id": "3BgjRjsm7kwe7g4NgqVECQC5eSs=", "properties": {"@source_uri": "https://tools.usps.com/UspsToolsRestServices/rest/POLocator/findLocations", "@spider": "usps_collection_boxes", "addr:city": "SPRINGHILL", "addr:country": "US", "addr:postcode": "71075", "addr:state": "LA", "addr:street_address": "501 N GILES ST", "amenity": "post_box", "collection_times": "Mo-Fr 16:30", "indoor": "yes", "note": "ON 12/24 AND 12/31, THIS BOX MAY BE COLLECTED AS EARLY AS 12 NOON.", "nsi_id": "unitedstatespostalservice-a77078", "operator": "United States Postal Service", "operator:short": "USPS", "operator:type": "public", "operator:wikidata": "Q668687", "ref": "7107500012"}, "type": "Feature"}
{"geometry": {"coordinates": [-93.8172776, 32.2801707], "type": "Point"}, "id": "v5nfm0k483-90dujSsilNwB4Plw=", "properties": {"@source_uri": "https://tools.usps.com/UspsToolsRestServices/rest/POLocator/findLocations", "@spider": "usps_collection_boxes", "addr:city": "STONEWALL", "addr:country": "US", "addr:postcode": "71078", "addr:state": "LA", "addr:street_address": "986 HIGHWAY 171", "amenity": "post_box", "collection_times": "Mo-Fr 15:30; Sa 08:00", "note": "ON 12/24 AND 12/31, THIS BOX MAY BE COLLECTED AS EARLY AS 12 NOON.", "nsi_id": "unitedstatespostalservice-a77078", "operator": "United States Postal Service", "operator:short": "USPS", "operator:type": "public", "operator:wikidata": "Q668687", "ref": "7107800001"}, "type": "Feature"}
{"geometry": {"coordinates": [-93.8172776, 32.2801707], "type": "Point"}, "id": "UsGqQIfN2eYuf0OLZuuAHdNwUOc=", "properties": {"@source_uri": "https://tools.usps.com/UspsToolsRestServices/rest/POLocator/findLocations", "@spider": "usps_collection_boxes", "addr:city": "STONEWALL", "addr:country": "US", "addr:postcode": "71078", "addr:state": "LA", "addr:street_address": "986 HIGHWAY 171", "amenity": "post_box", "collection_times": "Mo-Fr 15:30", "indoor": "yes", "note": "ON 12/24 AND 12/31, THIS BOX MAY BE COLLECTED AS EARLY AS 12 NOON.", "nsi_id": "unitedstatespostalservice-a77078", "operator": "United States Postal Service", "operator:short": "USPS", "operator:type": "public", "operator:wikidata": "Q668687", "ref": "7107800003"}, "type": "Feature"}
{"geometry": {"coordinates": [-93.8172776, 32.2801707], "type": "Point"}, "id": "J3EAGlmmFV50yLZF12KXAc_D0bw=", "properties": {"@source_uri": "https://tools.usps.com/UspsToolsRestServices/rest/POLocator/findLocations", "@spider": "usps_collection_boxes", "addr:city": "STONEWALL", "addr:country": "US", "addr:postcode": "71078", "addr:state": "LA", "addr:street_address": "986 HIGHWAY 171", "amenity": "post_box", "collection_times": "Mo-Fr 16:00", "indoor": "yes", "note": "ON 12/24 AND 12/31, THIS BOX MAY BE COLLECTED AS EARLY AS 12 NOON.", "nsi_id": "unitedstatespostalservice-a77078", "operator": "United States Postal Service", "operator:short": "USPS", "operator:type": "public", "operator:wikidata": "Q668687", "ref": "7107800005"}, "type": "Feature"}
{"geometry": {"coordinates": [-92.832048972, 32.911507758], "type": "Point"}, "id": "Ik7gH_Pc2ek5dYuWf2b7PiCUNdA=", "properties": {"@source_uri": "https://tools.usps.com/UspsToolsRestServices/rest/POLocator/findLocations", "@spider": "usps_collection_boxes", "addr:city": "SUMMERFIELD", "addr:country": "US", "addr:postcode": "71079", "addr:state": "LA", "addr:street_address": "4306 HIGHWAY 9", "amenity": "post_box", "collection_times": "Mo-Fr 15:00; Sa 12:00", "note": "ON 12/24 AND 12/31, THIS BOX MAY BE COLLECTED AS EARLY AS 12 NOON.", "nsi_id": "unitedstatespostalservice-a77078", "operator": "United States Postal Service", "operator:short": "USPS", "operator:type": "public", "operator:wikidata": "Q668687", "ref": "7107900001"}, "type": "Feature"}
{"geometry": {"coordinates": [-92.832048972, 32.911507758], "type": "Point"}, "id": "8kJcNBuIKG78LNwqNwR7-CBwV30=", "properties": {"@source_uri": "https://tools.usps.com/UspsToolsRestServices/rest/POLocator/findLocations", "@spider": "usps_collection_boxes", "addr:city": "SUMMERFIELD", "addr:country": "US", "addr:postcode": "71079", "addr:state": "LA", "addr:street_address": "4306 HIGHWAY 9", "amenity": "post_box", "collection_times": "Mo-Fr 15:00; Sa 12:00", "indoor": "yes", "note": "ON 12/24 AND 12/31, THIS BOX MAY BE COLLECTED AS EARLY AS 12 NOON.", "nsi_id": "unitedstatespostalservice-a77078", "operator": "United States Postal Service", "operator:short": "USPS", "operator:type": "public", "operator:wikidata": "Q668687", "ref": "7107900003"}, "type": "Feature"}
{"geometry": {"coordinates": [-92.832048972, 32.911507758], "type": "Point"}, "id": "KrtWH1UKMWCLCjuiYViHso2kX0o=", "properties": {"@source_uri": "https://tools.usps.com/UspsToolsRestServices/rest/POLocator/findLocations", "@spider": "usps_collection_boxes", "addr:city": "SUMMERFIELD", "addr:country": "US", "addr:postcode": "71079", "addr:state": "LA", "addr:street_address": "4306 HIGHWAY 9", "amenity": "post_box", "collection_times": "Mo-Fr 15:30", "indoor": "yes", "note": "ON 12/24 AND 12/31, THIS BOX MAY BE COLLECTED AS EARLY AS 12 NOON.", "nsi_id": "unitedstatespostalservice-a77078", "operator": "United States Postal Service", "operator:short": "USPS", "operator:type": "public", "operator:wikidata": "Q668687", "ref": "7107900004"}, "type": "Feature"}
{"geometry": {"coordinates": [-93.143277016, 32.547033002], "type": "Point"}, "id": "N1RRJXz4YhGMjoPr50H9HG2RCn4=", "properties": {"@source_uri": "https://tools.usps.com/UspsToolsRestServices/rest/POLocator/findLocations", "@spider": "usps_collection_boxes", "addr:city": "TAYLOR", "addr:country": "US", "addr:postcode": "71080", "addr:state": "LA", "addr:street_address": "107 SHORT ST", "amenity": "post_box", "collection_times": "Mo-Fr 16:00", "note": "ON 12/24 AND 12/31, THIS BOX MAY BE COLLECTED AS EARLY AS 12 NOON.", "nsi_id": "unitedstatespostalservice-a77078", "operator": "United States Postal Service", "operator:short": "USPS", "operator:type": "public", "operator:wikidata": "Q668687", "ref": "7108000001"}, "type": "Feature"}
{"geometry": {"coordinates": [-93.143277016, 32.547033002], "type": "Point"}, "id": "qVFOLcjlqP3ojwpeFHIUuGOZQtQ=", "properties": {"@source_uri": "https://tools.usps.com/UspsToolsRestServices/rest/POLocator/findLocations", "@spider": "usps_collection_boxes", "addr:city": "TAYLOR", "addr:country": "US", "addr:postcode": "71080", "addr:state": "LA", "addr:street_address": "107 SHORT ST", "amenity": "post_box", "collection_times": "Mo-Fr 16:00", "indoor": "yes", "note": "ON 12/24 AND 12/31, THIS BOX MAY BE COLLECTED AS EARLY AS 12 NOON.", "nsi_id": "unitedstatespostalservice-a77078", "operator": "United States Postal Service", "operator:short": "USPS", "operator:type": "public", "operator:wikidata": "Q668687", "ref": "7108000002"}, "type": "Feature"}
{"geometry": {"coordinates": [-93.143277016, 32.547033002], "type": "Point"}, "id": "TVncDdlY6sc2RE4OUb6d0nQw6Q4=", "properties": {"@source_uri": "https://tools.usps.com/UspsToolsRestServices/rest/POLocator/findLocations", "@spider": "usps_collection_boxes", "addr:city": "TAYLOR", "addr:country": "US", "addr:postcode": "71080", "addr:state": "LA", "addr:street_address": "107 SHORT ST", "amenity": "post_box", "collection_times": "Mo-Fr 16:00", "indoor": "yes", "note": "ON 12/24 AND 12/31, THIS BOX MAY BE COLLECTED AS EARLY AS 12 NOON.", "nsi_id": "unitedstatespostalservice-a77078", "operator": "United States Postal Service", "operator:short": "USPS", "operator:type": "public", "operator:wikidata": "Q668687", "ref": "7108000003"}, "type": "Feature"}
{"geometry": {"coordinates": [-93.98774472, 32.872887048], "type": "Point"}, "id": "ykowo5UNpqSFQ6_2OaUc9s-Xc5E=", "properties": {"@source_uri": "https://tools.usps.com/UspsToolsRestServices/rest/POLocator/findLocations", "@spider": "usps_collection_boxes", "addr:city": "VIVIAN", "addr:country": "US", "addr:postcode": "71082", "addr:state": "LA", "addr:street_address": "203 W LOUISIANA AVE", "amenity": "post_box", "collection_times": "Mo-Fr 16:00; Sa 15:30", "note": "ON 12/24 AND 12/31, THIS BOX MAY BE COLLECTED AS EARLY AS 12 NOON.", "nsi_id": "unitedstatespostalservice-a77078", "operator": "United States Postal Service", "operator:short": "USPS", "operator:type": "public", "operator:wikidata": "Q668687", "ref": "7108200002"}, "type": "Feature"}
{"geometry": {"coordinates": [-93.98774472, 32.872887048], "type": "Point"}, "id": "sg999F0S0JBdvDT6NBl4_8ALerM=", "properties": {"@source_uri": "https://tools.usps.com/UspsToolsRestServices/rest/POLocator/findLocations", "@spider": "usps_collection_boxes", "addr:city": "VIVIAN", "addr:country": "US", "addr:postcode": "71082", "addr:state": "LA", "addr:street_address": "203 W LOUISIANA AVE", "amenity": "post_box", "collection_times": "Mo-Fr 16:00", "indoor": "yes", "note": "ON 12/24 AND 12/31, THIS BOX MAY BE COLLECTED AS EARLY AS 12 NOON.", "nsi_id": "unitedstatespostalservice-a77078", "operator": "United States Postal Service", "operator:short": "USPS", "operator:type": "public", "operator:wikidata": "Q668687", "ref": "7108200009"}, "type": "Feature"}
{"geometry": {"coordinates": [-93.98774472, 32.872887048], "type": "Point"}, "id": "vMXyACYmzMKseYJZbSHAjsVkNOQ=", "properties": {"@source_uri": "https://tools.usps.com/UspsToolsRestServices/rest/POLocator/findLocations", "@spider": "usps_collection_boxes", "addr:city": "VIVIAN", "addr:country": "US", "addr:postcode": "71082", "addr:state": "LA", "addr:street_address": "203 W LOUISIANA AVE", "amenity": "post_box", "collection_times": "Mo-Fr 16:00", "indoor": "yes", "note": "ON 12/24 AND 12/31, THIS BOX MAY BE COLLECTED AS EARLY AS 12 NOON.", "nsi_id": "unitedstatespostalservice-a77078", "operator": "United States Postal Service", "operator:short": "USPS", "operator:type": "public", "operator:wikidata": "Q668687", "ref": "7108200010"}, "type": "Feature"}
