{"geometry": {"coordinates": [-93.748830042, 32.513909984], "type": "Point"}, "id": "v8BqeTH-QoyG5bJcUGzNT0R_W2g=", "properties": {"@source_uri": "https://tools.usps.com/UspsToolsRestServices/rest/POLocator/findLocations", "@spider": "usps_collection_boxes", "addr:city": "SHREVEPORT", "addr:country": "US", "addr:postcode": "71101", "addr:state": "LA", "addr:street_address": "425 EDWARDS ST", "amenity": "post_box", "collection_times": "Mo-Fr 15:30; Sa 15:00", "note": "ON 12/24 AND 12/31, THIS BOX MAY BE COLLECTED AS EARLY AS 12 NOON.", "nsi_id": "unitedstatespostalservice-a77078", "operator": "United States Postal Service", "operator:short": "USPS", "operator:type": "public", "operator:wikidata": "Q668687", "ref": "7110100006"}, "type": "Feature"}
{"geometry": {"coordinates": [-93.745922738, 32.514012959], "type": "Point"}, "id": "ctqSStKge7gV3-BkLE0CgQPcgbQ=", "properties": {"@source_uri": "https://tools.usps.com/UspsToolsRestServices/rest/POLocator/findLocations", "@spider": "usps_collection_boxes", "addr:city": "SHREVEPORT", "addr:country": "US", "addr:postcode": "71101", "addr:state": "LA", "addr:street_address": "600 SPRING ST", "amenity": "post_box", "collection_times": "Mo-Fr 15:30; Sa 14:30", "note": "ON 12/24 AND 12/31, THIS BOX MAY BE COLLECTED AS EARLY AS 12 NOON.", "nsi_id": "unitedstatespostalservice-a77078", "operator": "United States Postal Service", "operator:short": "USPS", "operator:type": "public", "operator:wikidata": "Q668687", "ref": "7110100008"}, "type": "Feature"}
{"geometry": {"coordinates": [-93.746089998, 32.513099998], "type": "Point"}, "id": "F603WCJsbJFOLXfWqhJgQdthM_Q=", "properties": {"@source_uri": "https://tools.usps.com/UspsToolsRestServices/rest/POLocator/findLocations", "@spider": "usps_collection_boxes", "addr:city": "SHREVEPORT", "addr:country": "US", "addr:postcode": "71101", "addr:state": "LA", "addr:street_address": "619 MARKET ST", "amenity": "post_box", "collection_times": "Mo-Fr 15:45; Sa 14:30", "note": "ON 12/24 AND 12/31, THIS BOX MAY BE COLLECTED AS EARLY AS 12 NOON.", "nsi_id": "unitedstatespostalservice-a77078", "operator": "United States Postal Service", "operator:short": "USPS", "operator:type": "public", "operator:wikidata": "Q668687", "ref": "7110100009"}, "type": "Feature"}
{"geometry": {"coordinates": [-93.750618691, 32.513731354], "type": "Point"}, "id": "q0j86u6fuXzI4OqDWHB1xONs3fw=", "properties": {"@source_uri": "https://tools.usps.com/UspsToolsRestServices/rest/POLocator/findLocations", "@spider": "usps_collection_boxes", "addr:city": "SHREVEPORT", "addr:country": "US", "addr:postcode": "71101", "addr:state": "LA", "addr:street_address": "500 TRAVIS ST", "amenity": "post_box", "collection_times": "Mo-Fr 15:30; Sa 15:00", "note": "ON 12/24 AND 12/31, THIS BOX MAY BE COLLECTED AS EARLY AS 12 NOON.", "nsi_id": "unitedstatespostalservice-a77078", "operator": "United States Postal Service", "operator:short": "USPS", "operator:type": "public", "operator:wikidata": "Q668687", "ref": "7110100016"}, "type": "Feature"}
{"geometry": {"coordinates": [-93.745920013, 32.513709991], "type": "Point"}, "id": "ULTFVr5PoelHumc40s7jcj_N9-g=", "properties": {"@source_uri": "https://tools.usps.com/UspsToolsRestServices/rest/POLocator/findLocations", "@spider": "usps_collection_boxes", "addr:city": "SHREVEPORT", "addr:country": "US", "addr:postcode": "71101", "addr:state": "LA", "addr:street_address": "201 MILAM ST", "amenity": "post_box", "collection_times": "Mo-Fr 15:30; Sa 14:30", "note": "ON 12/24 AND 12/31, THIS BOX MAY BE COLLECTED AS EARLY AS 12 NOON.", "nsi_id": "unitedstatespostalservice-a77078", "operator": "United States Postal Service", "operator:short": "USPS", "operator:type": "public", "operator:wikidata": "Q668687", "ref": "7110100029"}, "type": "Feature"}
{"geometry": {"coordinates": [-93.748789976, 32.511650013], "type": "Point"}, "id": "mOyjaYvmshu1Oqml5VsgFnFabJ4=", "properties": {"@source_uri": "https://tools.usps.com/UspsToolsRestServices/rest/POLocator/findLocations", "@spider": "usps_collection_boxes", "addr:city": "SHREVEPORT", "addr:country": "US", "addr:postcode": "71101", "addr:state": "LA", "addr:street_address": "610 MARSHALL ST", "amenity": "post_box", "collection_times": "Mo-Fr 15:30; Sa 14:15", "note": "ON 12/24 AND 12/31, THIS BOX MAY BE COLLECTED AS EARLY AS 12 NOON.", "nsi_id": "unitedstatespostalservice-a77078", "operator": "United States Postal Service", "operator:short": "USPS", "operator:type": "public", "operator:wikidata": "Q668687", "ref": "7110100031"}, "type": "Feature"}
{"geometry": {"coordinates": [-93.749884538, 32.512906635], "type": "Point"}, "id": "Sy09U-0VLrIsfNz76BxbB6ybaRI=", "properties": {"@source_uri": "https://tools.usps.com/UspsToolsRestServices/rest/POLocator/findLocations", "@spider": "usps_collection_boxes", "addr:city": "SHREVEPORT", "addr:country": "US", "addr:postcode": "71101", "addr:state": "LA", "addr:street_address": "502 TEXAS ST", "amenity": "post_box", "collection_times": "Mo-Fr 15:45; Sa 15:15", "note": "ON 12/24 AND 12/31, THIS BOX MAY BE COLLECTED AS EARLY AS 12 NOON.", "nsi_id": "unitedstatespostalservice-a77078", "operator": "United States Postal Service", "operator:short": "USPS", "operator:type": "public", "operator:wikidata": "Q668687", "ref": "7110100035"}, "type": "Feature"}
{"geometry": {"coordinates": [-93.750747028, 32.510541211], "type": "Point"}, "id": "rJzxpigChLaeLTgkqzJb1bxpvUw=", "properties": {"@source_uri": "https://tools.usps.com/UspsToolsRestServices/rest/POLocator/findLocations", "@spider": "usps_collection_boxes", "addr:city": "SHREVEPORT", "addr:country": "US", "addr:postcode": "71101", "addr:state": "LA", "addr:street_address": "701 MILAM ST", "amenity": "post_box", "collection_times": "Mo-Fr 15:15; Sa 14:15", "note": "ON 12/24 AND 12/31, THIS BOX MAY BE COLLECTED AS EARLY AS 12 NOON.", "nsi_id": "unitedstatespostalservice-a77078", "operator": "United States Postal Service", "operator:short": "USPS", "operator:type": "public", "operator:wikidata": "Q668687", "ref": "7110100039"}, "type": "Feature"}
{"geometry": {"coordinates": [-93.749760014, 32.510340005], "type": "Point"}, "id": "bh5WV9eBf_E4pU3IHK5c8etyYkw=", "properties": {"@source_uri": "https://tools.usps.com/UspsToolsRestServices/rest/POLocator/findLocations", "@spider": "usps_collection_boxes", "addr:city": "SHREVEPORT", "addr:country": "US", "addr:postcode": "71101", "addr:state": "LA", "addr:street_address": "620 CROCKETT ST", "amenity": "post_box", "collection_times": "Mo-Fr 15:15; Sa 14:00", "note": "ON 12/24 AND 12/31, THIS BOX MAY BE COLLECTED AS EARLY AS 12 NOON.", "nsi_id": "unitedstatespostalservice-a77078", "operator": "United States Postal Service", "operator:short": "USPS", "operator:type": "public", "operator:wikidata": "Q668687", "ref": "7110100041"}, "type": "Feature"}
{"geometry": {"coordinates": [-93.743940039, 32.51177], "type": "Point"}, "id": "MlCUFMUg3daSRYQ8vJwfxII05qk=", "properties": {"@source_uri": "https://tools.usps.com/UspsToolsRestServices/rest/POLocator/findLocations", "@spider": "usps_collection_boxes", "addr:city": "SHREVEPORT", "addr:country": "US", "addr:postcode": "71101", "addr:state": "LA", "addr:street_address": "800 SPRING ST", "amenity": "post_box", "collection_times": "Mo-Fr 15:30; Sa 14:15", "note": "ON 12/24 AND 12/31, THIS BOX MAY BE COLLECTED AS EARLY AS 12 NOON.", "nsi_id": "unitedstatespostalservice-a77078", "operator": "United States Postal Service", "operator:short": "USPS", "operator:type": "public", "operator:wikidata": "Q668687", "ref": "7110100044"}, "type": "Feature"}
{"geometry": {"coordinates": [-93.77002997, 32.514080011], "type": "Point"}, "id": "4h1KTPbkTRVSxf4oXn0YTX_E9hc=", "properties": {"@source_uri": "https://tools.usps.com/UspsToolsRestServices/rest/POLocator/findLocations", "@spider": "usps_collection_boxes", "addr:city": "SHREVEPORT", "addr:country": "US", "addr:postcode": "71101", "addr:state": "LA", "addr:street_address": "400 N DALE AVE", "amenity": "post_box", "collection_times": "Mo-Fr 14:45; Sa 14:30", "note": "ON 12/24 AND 12/31, THIS BOX MAY BE COLLECTED AS EARLY AS 12 NOON.", "nsi_id": "unitedstatespostalservice-a77078", "operator": "United States Postal Service", "operator:short": "USPS", "operator:type": "public", "operator:wikidata": "Q668687", "ref": "7110100059"}, "type": "Feature"}
{"geometry": {"coordinates": [-93.74756999, 32.499050001], "type": "Point"}, "id": "CnuXi5Xk4p_F-YUJsi3FE7d_lFE=", "properties": {"@source_uri": "https://tools.usps.com/UspsToolsRestServices/rest/POLocator/findLocations", "@spider": "usps_collection_boxes", "addr:city": "SHREVEPORT", "addr:country": "US", "addr:postcode": "71101", "addr:state": "LA", "addr:street_address": "820 JORDAN ST", "amenity": "post_box", "collection_times": "Mo-Sa 10:00", "nsi_id": "unitedstatespostalservice-a77078", "operator": "United States Postal Service", "operator:short": "USPS", "operator:type": "public", "operator:wikidata": "Q668687", "ref": "7110100066"}, "type": "Feature"}
{"geometry": {"coordinates": [-93.739018715, 32.502651281], "type": "Point"}, "id": "QACDAcBEZH9wLCpJR8wEN5EF4Vc=", "properties": {"@source_uri": "https://tools.usps.com/UspsToolsRestServices/rest/POLocator/findLocations", "@spider": "usps_collection_boxes", "addr:city": "SHREVEPORT", "addr:country": "US", "addr:postcode": "71101", "addr:state": "LA", "addr:street_address": "1000 HIGHLAND AVE", "amenity": "post_box", "collection_times": "Mo-Sa 14:00", "note": "ON 12/24 AND 12/31, THIS BOX MAY BE COLLECTED AS EARLY AS 12 NOON.", "nsi_id": "unitedstatespostalservice-a77078", "operator": "United States Postal Service", "operator:short": "USPS", "operator:type": "public", "operator:wikidata": "Q668687", "ref": "7110100086"}, "type": "Feature"}
{"geometry": {"coordinates": [-93.7418279235, 32.4981227056], "type": "Point"}, "id": "6_t8BzYNnmCC488aOEE-3qd7jOc=", "properties": {"@source_uri": "https://tools.usps.com/UspsToolsRestServices/rest/POLocator/findLocations", "@spider": "usps_collection_boxes", "addr:city": "SHREVEPORT", "addr:country": "US", "addr:postcode": "71101", "addr:state": "LA", "addr:street_address": "1500 CRESWELL AVE", "amenity": "post_box", "collection_times": "Mo-Sa 11:00", "nsi_id": "unitedstatespostalservice-a77078", "operator": "United States Postal Service", "operator:short": "USPS", "operator:type": "public", "operator:wikidata": "Q668687", "ref": "7110100093"}, "type": "Feature"}
{"geometry": {"coordinates": [-93.747538389, 32.51283401], "type": "Point"}, "id": "yCi95_s1GUP5yclYhBSpzK_iaI4=", "properties": {"@source_uri": "https://tools.usps.com/UspsToolsRestServices/rest/POLocator/findLocations", "@spider": "usps_collection_boxes", "addr:city": "SHREVEPORT", "addr:country": "US", "addr:postcode": "71101", "addr:state": "LA", "addr:street_address": "333 MILAM ST", "amenity": "post_box", "collection_times": "Mo-Fr 17:00", "indoor": "yes", "note": "ON 12/24 AND 12/31, THIS BOX MAY BE COLLECTED AS EARLY AS 12 NOON.", "nsi_id": "unitedstatespostalservice-a77078", "operator": "United States Postal Service", "operator:short": "USPS", "operator:type": "public", "operator:wikidata": "Q668687", "ref": "7110100097"}, "type": "Feature"}
{"geometry": {"coordinates": [-93.747538389, 32.51283401], "type": "Point"}, "id": "QW9CbTMBLaMHTqb-dDYeZbDdv00=", "properties": {"@source_uri": "https://tools.usps.com/UspsToolsRestServices/rest/POLocator/findLocations", "@spider": "usps_collection_boxes", "addr:city": "SHREVEPORT", "addr:country": "US", "addr:postcode": "71101", "addr:state": "LA", "addr:street_address": "333 MILAM ST", "amenity": "post_box", "collection_times": "Mo-Fr 17:00", "indoor": "yes", "note": "ON 12/24 AND 12/31, THIS BOX MAY BE COLLECTED AS EARLY AS 12 NOON.", "nsi_id": "unitedstatespostalservice-a77078", "operator": "United States Postal Service", "operator:short": "USPS", "operator:type": "public", "operator:wikidata": "Q668687", "ref": "7110100098"}, "type": "Feature"}
{"geometry": {"coordinates": [-93.747538389, 32.51283401], "type": "Point"}, "id": "Rv4DlcJtKXfx7M6ur72lWoqv5gA=", "properties": {"@source_uri": "https://tools.usps.com/UspsToolsRestServices/rest/POLocator/findLocations", "@spider": "usps_collection_boxes", "addr:city": "SHREVEPORT", "addr:country": "US", "addr:postcode": "71101", "addr:state": "LA", "addr:street_address": "333 MILAM ST", "amenity": "post_box", "collection_times": "Mo-Sa 17:00", "note": "ON 12/24 AND 12/31, THIS BOX MAY BE COLLECTED AS EARLY AS 12 NOON.", "nsi_id": "unitedstatespostalservice-a77078", "operator": "United States Postal Service", "operator:short": "USPS", "operator:type": "public", "operator:wikidata": "Q668687", "ref": "7110100101"}, "type": "Feature"}
{"geometry": {"coordinates": [-93.74676091, 32.514872604], "type": "Point"}, "id": "mcQMzIwbD6kozDqorohkUoMAS38=", "properties": {"@source_uri": "https://tools.usps.com/UspsToolsRestServices/rest/POLocator/findLocations", "@spider": "usps_collection_boxes", "addr:city": "SHREVEPORT", "addr:country": "US", "addr:postcode": "71101", "addr:state": "LA", "addr:street_address": "500 SPRING ST", "amenity": "post_box", "collection_times": "Mo-Fr 15:30; Sa 14:30", "note": "ON 12/24 AND 12/31, THIS BOX MAY BE COLLECTED AS EARLY AS 12 NOON.", "nsi_id": "unitedstatespostalservice-a77078", "operator": "United States Postal Service", "operator:short": "USPS", "operator:type": "public", "operator:wikidata": "Q668687", "ref": "7110100112"}, "type": "Feature"}
{"geometry": {"coordinates": [-93.741150039, 32.502080017], "type": "Point"}, "id": "Wo9BXhsmBFj27K2FKwAgEJeGbZs=", "properties": {"@source_uri": "https://tools.usps.com/UspsToolsRestServices/rest/POLocator/findLocations", "@spider": "usps_collection_boxes", "addr:city": "SHREVEPORT", "addr:country": "US", "addr:postcode": "71101", "addr:state": "LA", "addr:street_address": "1035 CRESWELL AVE", "amenity": "post_box", "collection_times": "Mo-Sa 13:00", "note": "ON 12/24 AND 12/31, THIS BOX MAY BE COLLECTED AS EARLY AS 12 NOON.", "nsi_id": "unitedstatespostalservice-a77078", "operator": "United States Postal Service", "operator:short": "USPS", "operator:type": "public", "operator:wikidata": "Q668687", "ref": "7110100113"}, "type": "Feature"}
{"geometry": {"coordinates": [-93.747190039, 32.514019996], "type": "Point"}, "id": "Vvih8PjVVX1fDzp6X-CHezjnjj0=", "properties": {"@source_uri": "https://tools.usps.com/UspsToolsRestServices/rest/POLocator/findLocations", "@spider": "usps_collection_boxes", "addr:city": "SHREVEPORT", "addr:country": "US", "addr:postcode": "71101", "addr:state": "LA", "addr:street_address": "509 MARKET ST", "amenity": "post_box", "collection_times": "Mo-Fr 15:45; Sa 14:30", "note": "ON 12/24 AND 12/31, THIS BOX MAY BE COLLECTED AS EARLY AS 12 NOON.", "nsi_id": "unitedstatespostalservice-a77078", "operator": "United States Postal Service", "operator:short": "USPS", "operator:type": "public", "operator:wikidata": "Q668687", "ref": "7110100115"}, "type": "Feature"}
{"geometry": {"coordinates": [-93.754718623, 32.500646054], "type": "Point"}, "id": "ymC4xGo8tyO0mSsCRNJ-vrKcHrQ=", "properties": {"@source_uri": "https://tools.usps.com/UspsToolsRestServices/rest/POLocator/findLocations", "@spider": "usps_collection_boxes", "addr:city": "SHREVEPORT", "addr:country": "US", "addr:postcode": "71101", "addr:state": "LA", "addr:street_address": "1230 TEXAS AVE", "amenity": "post_box", "collection_times": "Mo-Fr 16:00; Sa 15:00", "note": "ON 12/24 AND 12/31, THIS BOX MAY BE COLLECTED AS EARLY AS 12 NOON.", "nsi_id": "unitedstatespostalservice-a77078", "operator": "United States Postal Service", "operator:short": "USPS", "operator:type": "public", "operator:wikidata": "Q668687", "ref": "7110100121"}, "type": "Feature"}
{"geometry": {"coordinates": [-93.752429985, 32.512720005], "type": "Point"}, "id": "kujrqz7ewnOEOwT35ZDNOohCDrM=", "properties": {"@source_uri": "https://tools.usps.com/UspsToolsRestServices/rest/POLocator/findLocations", "@spider": "usps_collection_boxes", "addr:city": "SHREVEPORT", "addr:country": "US", "addr:postcode": "71101", "addr:state": "LA", "addr:street_address": "666 TRAVIS ST", "amenity": "post_box", "collection_times": "Mo-Fr 15:30; Sa 15:00", "note": "ON 12/24 AND 12/31, THIS BOX MAY BE COLLECTED AS EARLY AS 12 NOON.", "nsi_id": "unitedstatespostalservice-a77078", "operator": "United States Postal Service", "operator:short": "USPS", "operator:type": "public", "operator:wikidata": "Q668687", "ref": "7110100122"}, "type": "Feature"}
{"geometry": {"coordinates": [-93.755440011, 32.500609999], "type": "Point"}, "id": "Gv_Xpyu8ySumlEFHTEmQiAKcCvI=", "properties": {"@source_uri": "https://tools.usps.com/UspsToolsRestServices/rest/POLocator/findLocations", "@spider": "usps_collection_boxes", "addr:city": "SHREVEPORT", "addr:country": "US", "addr:postcode": "71101", "addr:state": "LA", "addr:street_address": "1234 TEXAS AVE", "amenity": "post_box", "collection_times": "Mo-Fr 16:00; Sa 15:00", "note": "ON 12/24 AND 12/31, THIS BOX MAY BE COLLECTED AS EARLY AS 12 NOON.", "nsi_id": "unitedstatespostalservice-a77078", "operator": "United States Postal Service", "operator:short": "USPS", "operator:type": "public", "operator:wikidata": "Q668687", "ref": "7110100125"}, "type": "Feature"}
{"geometry": {"coordinates": [-93.754060014, 32.495029998], "type": "Point"}, "id": "9inuPSXYOE-WEbJ40e01Gu3JEpY=", "properties": {"@source_uri": "https://tools.usps.com/UspsToolsRestServices/rest/POLocator/findLocations", "@spider": "usps_collection_boxes", "addr:city": "SHREVEPORT", "addr:country": "US", "addr:postcode": "71101", "addr:state": "LA", "addr:street_address": "1700 BUCKNER ST", "amenity": "post_box", "collection_times": "Mo-Sa 13:00", "note": "ON 12/24 AND 12/31, THIS BOX MAY BE COLLECTED AS EARLY AS 12 NOON.", "nsi_id": "unitedstatespostalservice-a77078", "operator": "United States Postal Service", "operator:short": "USPS", "operator:type": "public", "operator:wikidata": "Q668687", "ref": "7110100137"}, "type": "Feature"}
{"geometry": {"coordinates": [-93.754746481, 32.500518955], "type": "Point"}, "id": "3TnxDvM97WcaBdZzZzjzYdG7vUc=", "properties": {"@source_uri": "https://tools.usps.com/UspsToolsRestServices/rest/POLocator/findLocations", "@spider": "usps_collection_boxes", "addr:city": "SHREVEPORT", "addr:country": "US", "addr:postcode": "71101", "addr:state": "LA", "addr:street_address": "1244 TEXAS AVE", "amenity": "post_box", "collection_times": "Mo-Fr 16:00; Sa 15:00", "note": "ON 12/24 AND 12/31, THIS BOX MAY BE COLLECTED AS EARLY AS 12 NOON.", "nsi_id": "unitedstatespostalservice-a77078", "operator": "United States Postal Service", "operator:short": "USPS", "operator:type": "public", "operator:wikidata": "Q668687", "ref": "7110100138"}, "type": "Feature"}
{"geometry": {"coordinates": [-93.752347539, 32.494421033], "type": "Point"}, "id": "ghc-LTYF3RHFHcLdz7vYDUcyCs4=", "properties": {"@source_uri": "https://tools.usps.com/UspsToolsRestServices/rest/POLocator/findLocations", "@spider": "usps_collection_boxes", "addr:city": "SHREVEPORT", "addr:country": "US", "addr:postcode": "71101", "addr:state": "LA", "addr:street_address": "1801 FAIRFIELD AVE", "amenity": "post_box", "collection_times": "Mo-Sa 13:00", "note": "ON 12/24 AND 12/31, THIS BOX MAY BE COLLECTED AS EARLY AS 12 NOON.", "nsi_id": "unitedstatespostalservice-a77078", "operator": "United States Postal Service", "operator:short": "USPS", "operator:type": "public", "operator:wikidata": "Q668687", "ref": "7110100139"}, "type": "Feature"}
{"geometry": {"coordinates": [-93.738070025, 32.410889982], "type": "Point"}, "id": "tdV7ASUL6-1pMmyxIHC4eH4RMaM=", "properties": {"@source_uri": "https://tools.usps.com/UspsToolsRestServices/rest/POLocator/findLocations", "@spider": "usps_collection_boxes", "addr:city": "SHREVEPORT", "addr:country": "US", "addr:postcode": "71101", "addr:state": "LA", "addr:street_address": "9091 ELLERBE RD", "amenity": "post_box", "collection_times": "Mo-Fr 14:45; Sa 14:00", "note": "ON 12/24 AND 12/31, THIS BOX MAY BE COLLECTED AS EARLY AS 12 NOON.", "nsi_id": "unitedstatespostalservice-a77078", "operator": "United States Postal Service", "operator:short": "USPS", "operator:type": "public", "operator:wikidata": "Q668687", "ref": "7110100142"}, "type": "Feature"}
{"geometry": {"coordinates": [-93.747538389, 32.51283401], "type": "Point"}, "id": "5yflXTLRscjTowotkD1lDBP0484=", "properties": {"@source_uri": "https://tools.usps.com/UspsToolsRestServices/rest/POLocator/findLocations", "@spider": "usps_collection_boxes", "addr:city": "SHREVEPORT", "addr:country": "US", "addr:postcode": "71101", "addr:state": "LA", "addr:street_address": "333 MILAM ST", "amenity": "post_box", "collection_times": "Mo-Fr 16:30", "indoor": "yes", "note": "ON 12/24 AND 12/31, THIS BOX MAY BE COLLECTED AS EARLY AS 12 NOON.", "nsi_id": "unitedstatespostalservice-a77078", "operator": "United States Postal Service", "operator:short": "USPS", "operator:type": "public", "operator:wikidata": "Q668687", "ref": "7110100143"}, "type": "Feature"}
{"geometry": {"coordinates": [-93.767968599, 32.488249203], "type": "Point"}, "id": "qhioUJdlKRrSsDdZxCqzxJmC5t4=", "properties": {"@source_uri": "https://tools.usps.com/UspsToolsRestServices/rest/POLocator/findLocations", "@spider": "usps_collection_boxes", "addr:city": "SHREVEPORT", "addr:country": "US", "addr:postcode": "71103", "addr:state": "LA", "addr:street_address": "2400 TEXAS AVE", "amenity": "post_box", "collection_times": "Mo-Sa 18:00", "note": "ON 12/24 AND 12/31, THIS BOX MAY BE COLLECTED AS EARLY AS 12 NOON.", "nsi_id": "unitedstatespostalservice-a77078", "operator": "United States Postal Service", "operator:short": "USPS", "operator:type": "public", "operator:wikidata": "Q668687", "ref": "7110300020"}, "type": "Feature"}
{"geometry": {"coordinates": [-93.767968599, 32.488249203], "type": "Point"}, "id": "kgSauZ-o4ROGKGpLSkJ2NaV62Co=", "properties": {"@source_uri": "https://tools.usps.com/UspsToolsRestServices/rest/POLocator/findLocations", "@spider": "usps_collection_boxes", "addr:city": "SHREVEPORT", "addr:country": "US", "addr:postcode": "71103", "addr:state": "LA", "addr:street_address": "2400 TEXAS AVE", "amenity": "post_box", "collection_times": "Mo-Sa 18:00", "indoor": "yes", "note": "ON 12/24 AND 12/31, THIS BOX MAY BE COLLECTED AS EARLY AS 12 NOON.", "nsi_id": "unitedstatespostalservice-a77078", "operator": "United States Postal Service", "operator:short": "USPS", "operator:type": "public", "operator:wikidata": "Q668687", "ref": "7110300027"}, "type": "Feature"}
{"geometry": {"coordinates": [-93.767968599, 32.488249203], "type": "Point"}, "id": "EOkYg4mv_Xs5Dq7RYOzNuvZciTU=", "properties": {"@source_uri": "https://tools.usps.com/UspsToolsRestServices/rest/POLocator/findLocations", "@spider": "usps_collection_boxes", "addr:city": "SHREVEPORT", "addr:country": "US", "addr:postcode": "71103", "addr:state": "LA", "addr:street_address": "2400 TEXAS AVE", "amenity": "post_box", "collection_times": "Mo-Sa 18:00", "indoor": "yes", "note": "ON 12/24 AND 12/31, THIS BOX MAY BE COLLECTED AS EARLY AS 12 NOON.", "nsi_id": "unitedstatespostalservice-a77078", "operator": "United States Postal Service", "operator:short": "USPS", "operator:type": "public", "operator:wikidata": "Q668687", "ref": "7110300028"}, "type": "Feature"}
{"geometry": {"coordinates": [-93.767968599, 32.488249203], "type": "Point"}, "id": "PV8ud99eX7M1jXNBUf8hjK-wj4o=", "properties": {"@source_uri": "https://tools.usps.com/UspsToolsRestServices/rest/POLocator/findLocations", "@spider": "usps_collection_boxes", "addr:city": "SHREVEPORT", "addr:country": "US", "addr:postcode": "71103", "addr:state": "LA", "addr:street_address": "2400 TEXAS AVE", "amenity": "post_box", "collection_times": "Mo-Sa 18:00", "note": "ON 12/24 AND 12/31, THIS BOX MAY BE COLLECTED AS EARLY AS 12 NOON.", "nsi_id": "unitedstatespostalservice-a77078", "operator": "United States Postal Service", "operator:short": "USPS", "operator:type": "public", "operator:wikidata": "Q668687", "ref": "7110300032"}, "type": "Feature"}
{"geometry": {"coordinates": [-93.778744377, 32.485608311], "type": "Point"}, "id": "hRs-73scOZADWIGLlHWHnEJs_pQ=", "properties": {"@source_uri": "https://tools.usps.com/UspsToolsRestServices/rest/POLocator/findLocations", "@spider": "usps_collection_boxes", "addr:city": "SHREVEPORT", "addr:country": "US", "addr:postcode": "71103", "addr:state": "LA", "addr:street_address": "2748 ALBERT L BICKNELL DR", "amenity": "post_box", "collection_times": "Mo-Sa 09:00", "nsi_id": "unitedstatespostalservice-a77078", "operator": "United States Postal Service", "operator:short": "USPS", "operator:type": "public", "operator:wikidata": "Q668687", "ref": "7110300033"}, "type": "Feature"}
{"geometry": {"coordinates": [-93.767968599, 32.488249203], "type": "Point"}, "id": "UqFFabgrV1XVcFn3V6mYKa4CtC0=", "properties": {"@source_uri": "https://tools.usps.com/UspsToolsRestServices/rest/POLocator/findLocations", "@spider": "usps_collection_boxes", "addr:city": "SHREVEPORT", "addr:country": "US", "addr:postcode": "71103", "addr:state": "LA", "addr:street_address": "2400 TEXAS AVE", "amenity": "post_box", "collection_times": "Mo-Fr 18:00", "indoor": "yes", "note": "ON 12/24 AND 12/31, THIS BOX MAY BE COLLECTED AS EARLY AS 12 NOON.", "nsi_id": "unitedstatespostalservice-a77078", "operator": "United States Postal Service", "operator:short": "USPS", "operator:type": "public", "operator:wikidata": "Q668687", "ref": "7110300042"}, "type": "Feature"}
{"geometry": {"coordinates": [-93.726599977, 32.482299983], "type": "Point"}, "id": "EWm4FASmsxFx_FG34j5Gnb2zCpU=", "properties": {"@source_uri": "https://tools.usps.com/UspsToolsRestServices/rest/POLocator/findLocations", "@spider": "usps_collection_boxes", "addr:city": "SHREVEPORT", "addr:country": "US", "addr:postcode": "71104", "addr:state": "LA", "addr:street_address": "312 E KINGS HWY", "amenity": "post_box", "collection_times": "Mo-Fr 13:30; Sa 12:30", "note": "ON 12/24 AND 12/31, THIS BOX MAY BE COLLECTED AS EARLY AS 12 NOON.", "nsi_id": "unitedstatespostalservice-a77078", "operator": "United States Postal Service", "operator:short": "USPS", "operator:type": "public", "operator:wikidata": "Q668687", "ref": "7110400003"}, "type": "Feature"}
{"geometry": {"coordinates": [-93.7503798732, 32.4714244868], "type": "Point"}, "id": "A0UtgQ-JOWTA1K32GEjpd_hr7Lk=", "properties": {"@source_uri": "https://tools.usps.com/UspsToolsRestServices/rest/POLocator/findLocations", "@spider": "usps_collection_boxes", "addr:city": "SHREVEPORT", "addr:country": "US", "addr:postcode": "71104", "addr:state": "LA", "addr:street_address": "3820 FAIRFIELD AVE", "amenity": "post_box", "collection_times": "Mo-Sa 13:30", "note": "ON 12/24 AND 12/31, THIS BOX MAY BE COLLECTED AS EARLY AS 12 NOON.", "nsi_id": "unitedstatespostalservice-a77078", "operator": "United States Postal Service", "operator:short": "USPS", "operator:type": "public", "operator:wikidata": "Q668687", "ref": "7110400011"}, "type": "Feature"}
{"geometry": {"coordinates": [-93.737277698, 32.471888191], "type": "Point"}, "id": "qZEm-9-PdwQG28L5YdUbXMGzuTs=", "properties": {"@source_uri": "https://tools.usps.com/UspsToolsRestServices/rest/POLocator/findLocations", "@spider": "usps_collection_boxes", "addr:city": "SHREVEPORT", "addr:country": "US", "addr:postcode": "71104", "addr:state": "LA", "addr:street_address": "3825 GILBERT DR", "amenity": "post_box", "collection_times": "Mo-Sa 13:30", "note": "ON 12/24 AND 12/31, THIS BOX MAY BE COLLECTED AS EARLY AS 12 NOON.", "nsi_id": "unitedstatespostalservice-a77078", "operator": "United States Postal Service", "operator:short": "USPS", "operator:type": "public", "operator:wikidata": "Q668687", "ref": "7110400014"}, "type": "Feature"}
{"geometry": {"coordinates": [-93.736969984, 32.4820989848], "type": "Point"}, "id": "ulbPWJJQqoHzMYeegcKIMnwe5oU=", "properties": {"@source_uri": "https://tools.usps.com/UspsToolsRestServices/rest/POLocator/findLocations", "@spider": "usps_collection_boxes", "addr:city": "SHREVEPORT", "addr:country": "US", "addr:postcode": "71104", "addr:state": "LA", "addr:street_address": "326 KINGS HWY", "amenity": "post_box", "collection_times": "Mo-Sa 16:30", "note": "ON 12/24 AND 12/31, THIS BOX MAY BE COLLECTED AS EARLY AS 12 NOON.", "nsi_id": "unitedstatespostalservice-a77078", "operator": "United States Postal Service", "operator:short": "USPS", "operator:type": "public", "operator:wikidata": "Q668687", "ref": "7110400021"}, "type": "Feature"}
{"geometry": {"coordinates": [-93.7256600306, 32.4850720039], "type": "Point"}, "id": "IpEZvKnQ-M1eaKTcZp0S-RoF880=", "properties": {"@source_uri": "https://tools.usps.com/UspsToolsRestServices/rest/POLocator/findLocations", "@spider": "usps_collection_boxes", "addr:city": "SHREVEPORT", "addr:country": "US", "addr:postcode": "71104", "addr:state": "LA", "addr:street_address": "400 E WASHINGTON ST", "amenity": "post_box", "collection_times": "Mo-Fr 13:15; Sa 12:30", "note": "ON 12/24 AND 12/31, THIS BOX MAY BE COLLECTED AS EARLY AS 12 NOON.", "nsi_id": "unitedstatespostalservice-a77078", "operator": "United States Postal Service", "operator:short": "USPS", "operator:type": "public", "operator:wikidata": "Q668687", "ref": "7110400032"}, "type": "Feature"}
{"geometry": {"coordinates": [-93.705965489, 32.4898917952], "type": "Point"}, "id": "RxFAK9EHq2Mo-IXKr4SNd5VJ5_M=", "properties": {"@source_uri": "https://tools.usps.com/UspsToolsRestServices/rest/POLocator/findLocations", "@spider": "usps_collection_boxes", "addr:city": "SHREVEPORT", "addr:country": "US", "addr:postcode": "71104", "addr:state": "LA", "addr:street_address": "2900 DEE ST", "amenity": "post_box", "collection_times": "Mo-Sa 13:30", "note": "ON 12/24 AND 12/31, THIS BOX MAY BE COLLECTED AS EARLY AS 12 NOON.", "nsi_id": "unitedstatespostalservice-a77078", "operator": "United States Postal Service", "operator:short": "USPS", "operator:type": "public", "operator:wikidata": "Q668687", "ref": "7110400038"}, "type": "Feature"}
{"geometry": {"coordinates": [-93.723319971, 32.487529997], "type": "Point"}, "id": "jDkrGIHj9b6cfixNNtG1vH5_6dQ=", "properties": {"@source_uri": "https://tools.usps.com/UspsToolsRestServices/rest/POLocator/findLocations", "@spider": "usps_collection_boxes", "addr:city": "SHREVEPORT", "addr:country": "US", "addr:postcode": "71104", "addr:state": "LA", "addr:street_address": "2525 YOUREE DR", "amenity": "post_box", "collection_times": "Mo-Fr 13:15; Sa 12:30", "note": "ON 12/24 AND 12/31, THIS BOX MAY BE COLLECTED AS EARLY AS 12 NOON.", "nsi_id": "unitedstatespostalservice-a77078", "operator": "United States Postal Service", "operator:short": "USPS", "operator:type": "public", "operator:wikidata": "Q668687", "ref": "7110400042"}, "type": "Feature"}
{"geometry": {"coordinates": [-93.736950035, 32.482090016], "type": "Point"}, "id": "gSVppii3kriQx7THbM--gmN-XUQ=", "properties": {"@source_uri": "https://tools.usps.com/UspsToolsRestServices/rest/POLocator/findLocations", "@spider": "usps_collection_boxes", "addr:city": "SHREVEPORT", "addr:country": "US", "addr:postcode": "71104", "addr:state": "LA", "addr:street_address": "326 KINGS HWY", "amenity": "post_box", "collection_times": "Mo-Fr 16:30", "indoor": "yes", "note": "ON 12/24 AND 12/31, THIS BOX MAY BE COLLECTED AS EARLY AS 12 NOON.", "nsi_id": "unitedstatespostalservice-a77078", "operator": "United States Postal Service", "operator:short": "USPS", "operator:type": "public", "operator:wikidata": "Q668687", "ref": "7110400044"}, "type": "Feature"}
{"geometry": {"coordinates": [-93.706601236, 32.486420323], "type": "Point"}, "id": "OGVGnXnRXqV2LT_HLHnr5VvNZjw=", "properties": {"@source_uri": "https://tools.usps.com/UspsToolsRestServices/rest/POLocator/findLocations", "@spider": "usps_collection_boxes", "addr:city": "SHREVEPORT", "addr:country": "US", "addr:postcode": "71105", "addr:state": "LA", "addr:street_address": "1201 SHREVEPORT BARKSDALE HWY", "amenity": "post_box", "collection_times": "Mo-Sa 14:30", "note": "ON 12/24 AND 12/31, THIS BOX MAY BE COLLECTED AS EARLY AS 12 NOON.", "nsi_id": "unitedstatespostalservice-a77078", "operator": "United States Postal Service", "operator:short": "USPS", "operator:type": "public", "operator:wikidata": "Q668687", "ref": "7110500003"}, "type": "Feature"}
{"geometry": {"coordinates": [-93.708860014, 32.456509998], "type": "Point"}, "id": "nVoSzsrNSv9yoQYjDfhTo-aCNoU=", "properties": {"@source_uri": "https://tools.usps.com/UspsToolsRestServices/rest/POLocator/findLocations", "@spider": "usps_collection_boxes", "addr:city": "SHREVEPORT", "addr:country": "US", "addr:postcode": "71105", "addr:state": "LA", "addr:street_address": "105 SOUTHFIELD RD", "amenity": "post_box", "collection_times": "Mo-Fr 16:30; Sa 15:30", "note": "ON 12/24 AND 12/31, THIS BOX MAY BE COLLECTED AS EARLY AS 12 NOON.", "nsi_id": "unitedstatespostalservice-a77078", "operator": "United States Postal Service", "operator:short": "USPS", "operator:type": "public", "operator:wikidata": "Q668687", "ref": "7110500011"}, "type": "Feature"}
{"geometry": {"coordinates": [-93.704249968, 32.481800002], "type": "Point"}, "id": "2YkHU9gr0pgmatxwl0SdLUjXlls=", "properties": {"@source_uri": "https://tools.usps.com/UspsToolsRestServices/rest/POLocator/findLocations", "@spider": "usps_collection_boxes", "addr:city": "SHREVEPORT", "addr:country": "US", "addr:postcode": "71105", "addr:state": "LA", "addr:street_address": "3007 KNIGHT ST", "amenity": "post_box", "collection_times": "Mo-Sa 14:45", "note": "ON 12/24 AND 12/31, THIS BOX MAY BE COLLECTED AS EARLY AS 12 NOON.", "nsi_id": "unitedstatespostalservice-a77078", "operator": "United States Postal Service", "operator:short": "USPS", "operator:type": "public", "operator:wikidata": "Q668687", "ref": "7110500016"}, "type": "Feature"}
{"geometry": {"coordinates": [-93.7029760022, 32.4788199842], "type": "Point"}, "id": "FwU5gjprM-DRVnUrkDqiw5KT68g=", "properties": {"@source_uri": "https://tools.usps.com/UspsToolsRestServices/rest/POLocator/findLocations", "@spider": "usps_collection_boxes", "addr:city": "SHREVEPORT", "addr:country": "US", "addr:postcode": "71105", "addr:state": "LA", "addr:street_address": "3200 EASTWOOD DR", "amenity": "post_box", "collection_times": "Mo-Sa 14:45", "note": "ON 12/24 AND 12/31, THIS BOX MAY BE COLLECTED AS EARLY AS 12 NOON.", "nsi_id": "unitedstatespostalservice-a77078", "operator": "United States Postal Service", "operator:short": "USPS", "operator:type": "public", "operator:wikidata": "Q668687", "ref": "7110500017"}, "type": "Feature"}
{"geometry": {"coordinates": [-93.710057345, 32.486104321], "type": "Point"}, "id": "Q9LCqteYbUJrkVZEUTHUlZcWq9Y=", "properties": {"@source_uri": "https://tools.usps.com/UspsToolsRestServices/rest/POLocator/findLocations", "@spider": "usps_collection_boxes", "addr:city": "SHREVEPORT", "addr:country": "US", "addr:postcode": "71105", "addr:state": "LA", "addr:street_address": "2924 KNIGHT ST", "amenity": "post_box", "collection_times": "Mo-Sa 14:45", "note": "ON 12/24 AND 12/31, THIS BOX MAY BE COLLECTED AS EARLY AS 12 NOON.", "nsi_id": "unitedstatespostalservice-a77078", "operator": "United States Postal Service", "operator:short": "USPS", "operator:type": "public", "operator:wikidata": "Q668687", "ref": "7110500021"}, "type": "Feature"}
{"geometry": {"coordinates": [-93.705800033, 32.479910009], "type": "Point"}, "id": "BeU4rcU0O2BIuHjXpRdRHt77GcE=", "properties": {"@source_uri": "https://tools.usps.com/UspsToolsRestServices/rest/POLocator/findLocations", "@spider": "usps_collection_boxes", "addr:city": "SHREVEPORT", "addr:country": "US", "addr:postcode": "71105", "addr:state": "LA", "addr:street_address": "3020 KNIGHT ST", "amenity": "post_box", "collection_times": "Mo-Sa 14:45", "note": "ON 12/24 AND 12/31, THIS BOX MAY BE COLLECTED AS EARLY AS 12 NOON.", "nsi_id": "unitedstatespostalservice-a77078", "operator": "United States Postal Service", "operator:short": "USPS", "operator:type": "public", "operator:wikidata": "Q668687", "ref": "7110500022"}, "type": "Feature"}
{"geometry": {"coordinates": [-93.70483997, 32.482529982], "type": "Point"}, "id": "SphBZauYzu2EZ-awheeKNv73N1w=", "properties": {"@source_uri": "https://tools.usps.com/UspsToolsRestServices/rest/POLocator/findLocations", "@spider": "usps_collection_boxes", "addr:city": "SHREVEPORT", "addr:country": "US", "addr:postcode": "71105", "addr:state": "LA", "addr:street_address": "3003 KNIGHT ST", "amenity": "post_box", "collection_times": "Mo-Sa 15:00", "note": "ON 12/24 AND 12/31, THIS BOX MAY BE COLLECTED AS EARLY AS 12 NOON.", "nsi_id": "unitedstatespostalservice-a77078", "operator": "United States Postal Service", "operator:short": "USPS", "operator:type": "public", "operator:wikidata": "Q668687", "ref": "7110500024"}, "type": "Feature"}
{"geometry": {"coordinates": [-93.709980004, 32.442700017], "type": "Point"}, "id": "xh8peKsGEIqKIgyejvjM3T9Yqps=", "properties": {"@source_uri": "https://tools.usps.com/UspsToolsRestServices/rest/POLocator/findLocations", "@spider": "usps_collection_boxes", "addr:city": "SHREVEPORT", "addr:country": "US", "addr:postcode": "71105", "addr:state": "LA", "addr:street_address": "1925 E 70TH ST", "amenity": "post_box", "collection_times": "Mo-Fr 17:00; Sa 16:30", "indoor": "yes", "note": "ON 12/24 AND 12/31, THIS BOX MAY BE COLLECTED AS EARLY AS 12 NOON.", "nsi_id": "unitedstatespostalservice-a77078", "operator": "United States Postal Service", "operator:short": "USPS", "operator:type": "public", "operator:wikidata": "Q668687", "ref": "7110500025"}, "type": "Feature"}
{"geometry": {"coordinates": [-93.712924675, 32.433259957], "type": "Point"}, "id": "D_ArYov_YPnM2UFgXyy6f9sTzA8=", "properties": {"@source_uri": "https://tools.usps.com/UspsToolsRestServices/rest/POLocator/findLocations", "@spider": "usps_collection_boxes", "addr:city": "SHREVEPORT", "addr:country": "US", "addr:postcode": "71105", "addr:state": "LA", "addr:street_address": "7800 YOUREE DR", "amenity": "post_box", "collection_times": "Mo-Fr 14:45; Sa 14:15", "note": "ON 12/24 AND 12/31, THIS BOX MAY BE COLLECTED AS EARLY AS 12 NOON.", "nsi_id": "unitedstatespostalservice-a77078", "operator": "United States Postal Service", "operator:short": "USPS", "operator:type": "public", "operator:wikidata": "Q668687", "ref": "7110500028"}, "type": "Feature"}
{"geometry": {"coordinates": [-93.709980004, 32.442700017], "type": "Point"}, "id": "_z3MsPUbg_6Tj-S62Rk9KyDtWVw=", "properties": {"@source_uri": "https://tools.usps.com/UspsToolsRestServices/rest/POLocator/findLocations", "@spider": "usps_collection_boxes", "addr:city": "SHREVEPORT", "addr:country": "US", "addr:postcode": "71105", "addr:state": "LA", "addr:street_address": "1925 E 70TH ST", "amenity": "post_box", "collection_times": "Mo-Fr 17:00; Sa 16:30", "indoor": "yes", "note": "ON 12/24 AND 12/31, THIS BOX MAY BE COLLECTED AS EARLY AS 12 NOON.", "nsi_id": "unitedstatespostalservice-a77078", "operator": "United States Postal Service", "operator:short": "USPS", "operator:type": "public", "operator:wikidata": "Q668687", "ref": "7110500031"}, "type": "Feature"}
{"geometry": {"coordinates": [-93.712488391, 32.433256152], "type": "Point"}, "id": "-PzYzPra5kRXRhhD4eJR72n33Wo=", "properties": {"@source_uri": "https://tools.usps.com/UspsToolsRestServices/rest/POLocator/findLocations", "@spider": "usps_collection_boxes", "addr:city": "SHREVEPORT", "addr:country": "US", "addr:postcode": "71105", "addr:state": "LA", "addr:street_address": "7829 YOUREE DR", "amenity": "post_box", "collection_times": "Mo-Fr 13:15; Sa 12:15", "note": "ON 12/24 AND 12/31, THIS BOX MAY BE COLLECTED AS EARLY AS 12 NOON.", "nsi_id": "unitedstatespostalservice-a77078", "operator": "United States Postal Service", "operator:short": "USPS", "operator:type": "public", "operator:wikidata": "Q668687", "ref": "7110500038"}, "type": "Feature"}
{"geometry": {"coordinates": [-93.702669979, 32.48321998], "type": "Point"}, "id": "kQf3YPU9uSXUXiTYsbsNaBGxqLo=", "properties": {"@source_uri": "https://tools.usps.com/UspsToolsRestServices/rest/POLocator/findLocations", "@spider": "usps_collection_boxes", "addr:city": "SHREVEPORT", "addr:country": "US", "addr:postcode": "71105", "addr:state": "LA", "addr:street_address": "1120 S POINTE PKWY", "amenity": "post_box", "collection_times": "Mo-Fr 15:00; Sa 15:15", "note": "ON 12/24 AND 12/31, THIS BOX MAY BE COLLECTED AS EARLY AS 12 NOON.", "nsi_id": "unitedstatespostalservice-a77078", "operator": "United States Postal Service", "operator:short": "USPS", "operator:type": "public", "operator:wikidata": "Q668687", "ref": "7110500046"}, "type": "Feature"}
{"geometry": {"coordinates": [-93.718110031, 32.443889995], "type": "Point"}, "id": "ED5SwAHu-mpsChyzUUniEXY5vRE=", "properties": {"@source_uri": "https://tools.usps.com/UspsToolsRestServices/rest/POLocator/findLocations", "@spider": "usps_collection_boxes", "addr:city": "SHREVEPORT", "addr:country": "US", "addr:postcode": "71105", "addr:state": "LA", "addr:street_address": "1700 E 70TH ST", "amenity": "post_box", "collection_times": "Mo-Fr 16:00; Sa 15:15", "note": "ON 12/24 AND 12/31, THIS BOX MAY BE COLLECTED AS EARLY AS 12 NOON.", "nsi_id": "unitedstatespostalservice-a77078", "operator": "United States Postal Service", "operator:short": "USPS", "operator:type": "public", "operator:wikidata": "Q668687", "ref": "7110500049"}, "type": "Feature"}
{"geometry": {"coordinates": [-93.702290027, 32.487840002], "type": "Point"}, "id": "F0p6xfu297NyzRTIX83o97DbiL4=", "properties": {"@source_uri": "https://tools.usps.com/UspsToolsRestServices/rest/POLocator/findLocations", "@spider": "usps_collection_boxes", "addr:city": "SHREVEPORT", "addr:country": "US", "addr:postcode": "71105", "addr:state": "LA", "addr:street_address": "3115 DEE ST", "amenity": "post_box", "collection_times": "Mo-Fr 15:00; Sa 15:15", "note": "ON 12/24 AND 12/31, THIS BOX MAY BE COLLECTED AS EARLY AS 12 NOON.", "nsi_id": "unitedstatespostalservice-a77078", "operator": "United States Postal Service", "operator:short": "USPS", "operator:type": "public", "operator:wikidata": "Q668687", "ref": "7110500050"}, "type": "Feature"}
{"geometry": {"coordinates": [-93.705210031, 32.480559984], "type": "Point"}, "id": "XkgAGeruVEv29b6dQVmruRXX0mU=", "properties": {"@source_uri": "https://tools.usps.com/UspsToolsRestServices/rest/POLocator/findLocations", "@spider": "usps_collection_boxes", "addr:city": "SHREVEPORT", "addr:country": "US", "addr:postcode": "71105", "addr:state": "LA", "addr:street_address": "3010 KNIGHT ST", "amenity": "post_box", "collection_times": "Mo-Sa 14:45", "note": "ON 12/24 AND 12/31, THIS BOX MAY BE COLLECTED AS EARLY AS 12 NOON.", "nsi_id": "unitedstatespostalservice-a77078", "operator": "United States Postal Service", "operator:short": "USPS", "operator:type": "public", "operator:wikidata": "Q668687", "ref": "7110500054"}, "type": "Feature"}
{"geometry": {"coordinates": [-93.722569958, 32.455080004], "type": "Point"}, "id": "oi6C6pHJ8Zd06o7Yc8SNAH0ptT4=", "properties": {"@source_uri": "https://tools.usps.com/UspsToolsRestServices/rest/POLocator/findLocations", "@spider": "usps_collection_boxes", "addr:city": "SHREVEPORT", "addr:country": "US", "addr:postcode": "71105", "addr:state": "LA", "addr:street_address": "5750 YOUREE DR", "amenity": "post_box", "collection_times": "Mo-Sa 11:00", "nsi_id": "unitedstatespostalservice-a77078", "operator": "United States Postal Service", "operator:short": "USPS", "operator:type": "public", "operator:wikidata": "Q668687", "ref": "7110500062"}, "type": "Feature"}
{"geometry": {"coordinates": [-93.721479975, 32.478550003], "type": "Point"}, "id": "sfZvcPo4tfDMgsaUZxEaJp1k4PA=", "properties": {"@source_uri": "https://tools.usps.com/UspsToolsRestServices/rest/POLocator/findLocations", "@spider": "usps_collection_boxes", "addr:city": "SHREVEPORT", "addr:country": "US", "addr:postcode": "71105", "addr:state": "LA", "addr:street_address": "3321 YOUREE DR", "amenity": "post_box", "collection_times": "Mo-Fr 16:30; Sa 15:45", "note": "ON 12/24 AND 12/31, THIS BOX MAY BE COLLECTED AS EARLY AS 12 NOON.", "nsi_id": "unitedstatespostalservice-a77078", "operator": "United States Postal Service", "operator:short": "USPS", "operator:type": "public", "operator:wikidata": "Q668687", "ref": "7110500064"}, "type": "Feature"}
{"geometry": {"coordinates": [-93.709980004, 32.442700017], "type": "Point"}, "id": "V2qxtMWVyEkPt3hU6xXte-Dh0QU=", "properties": {"@source_uri": "https://tools.usps.com/UspsToolsRestServices/rest/POLocator/findLocations", "@spider": "usps_collection_boxes", "addr:city": "SHREVEPORT", "addr:country": "US", "addr:postcode": "71105", "addr:state": "LA", "addr:street_address": "1925 E 70TH ST", "amenity": "post_box", "collection_times": "Mo-Fr 17:00; Sa 16:30", "name": "USPS COLLECTION BOX - APC", "note": "ON 12/24 AND 12/31, THIS BOX MAY BE COLLECTED AS EARLY AS 12 NOON.", "nsi_id": "unitedstatespostalservice-a77078", "operator": "United States Postal Service", "operator:short": "USPS", "operator:type": "public", "operator:wikidata": "Q668687", "ref": "7110500065"}, "type": "Feature"}
{"geometry": {"coordinates": [-93.726260774, 32.433109149], "type": "Point"}, "id": "ErbfKXtPzaIJ3RPOn35w58ilvm0=", "properties": {"@source_uri": "https://tools.usps.com/UspsToolsRestServices/rest/POLocator/findLocations", "@spider": "usps_collection_boxes", "addr:city": "SHREVEPORT", "addr:country": "US", "addr:postcode": "71105", "addr:state": "LA", "addr:street_address": "7600 FERN AVE", "amenity": "post_box", "collection_times": "Mo-Fr 14:30; Sa 14:00", "note": "ON 12/24 AND 12/31, THIS BOX MAY BE COLLECTED AS EARLY AS 12 NOON.", "nsi_id": "unitedstatespostalservice-a77078", "operator": "United States Postal Service", "operator:short": "USPS", "operator:type": "public", "operator:wikidata": "Q668687", "ref": "7110500070"}, "type": "Feature"}
{"geometry": {"coordinates": [-93.709980004, 32.442700017], "type": "Point"}, "id": "Uxet-8rQKBAbes3_pNg0SwzERew=", "properties": {"@source_uri": "https://tools.usps.com/UspsToolsRestServices/rest/POLocator/findLocations", "@spider": "usps_collection_boxes", "addr:city": "SHREVEPORT", "addr:country": "US", "addr:postcode": "71105", "addr:state": "LA", "addr:street_address": "1925 E 70TH ST", "amenity": "post_box", "collection_times": "Mo-Fr 17:15", "indoor": "yes", "note": "ON 12/24 AND 12/31, THIS BOX MAY BE COLLECTED AS EARLY AS 12 NOON.", "nsi_id": "unitedstatespostalservice-a77078", "operator": "United States Postal Service", "operator:short": "USPS", "operator:type": "public", "operator:wikidata": "Q668687", "ref": "7110500076"}, "type": "Feature"}
{"geometry": {"coordinates": [-93.7604829826, 32.421877986], "type": "Point"}, "id": "4WPVkHBjZ1rsxUcjBvdNHVVgCKU=", "properties": {"@source_uri": "https://tools.usps.com/UspsToolsRestServices/rest/POLocator/findLocations", "@spider": "usps_collection_boxes", "addr:city": "SHREVEPORT", "addr:country": "US", "addr:postcode": "71106", "addr:state": "LA", "addr:street_address": "241 LYNBROOK BLVD", "amenity": "post_box", "collection_times": "Mo-Fr 17:00; Sa 16:30", "note": "ON 12/24 AND 12/31, THIS BOX MAY BE COLLECTED AS EARLY AS 12 NOON.", "nsi_id": "unitedstatespostalservice-a77078", "operator": "United States Postal Service", "operator:short": "USPS", "operator:type": "public", "operator:wikidata": "Q668687", "ref": "7110600008"}, "type": "Feature"}
{"geometry": {"coordinates": [-93.748022263, 32.454777927], "type": "Point"}, "id": "deUYH0_H3S_Zt65nodEBO0mNJa4=", "properties": {"@source_uri": "https://tools.usps.com/UspsToolsRestServices/rest/POLocator/findLocations", "@spider": "usps_collection_boxes", "addr:city": "SHREVEPORT", "addr:country": "US", "addr:postcode": "71106", "addr:state": "LA", "addr:street_address": "910 PIERREMONT RD", "amenity": "post_box", "collection_times": "Mo-Fr 15:30; Sa 15:00", "note": "ON 12/24 AND 12/31, THIS BOX MAY BE COLLECTED AS EARLY AS 12 NOON.", "nsi_id": "unitedstatespostalservice-a77078", "operator": "United States Postal Service", "operator:short": "USPS", "operator:type": "public", "operator:wikidata": "Q668687", "ref": "7110600015"}, "type": "Feature"}
{"geometry": {"coordinates": [-93.746107228, 32.455487569], "type": "Point"}, "id": "L8YAayaWCA4ZIipxnKVcYa7ikCg=", "properties": {"@source_uri": "https://tools.usps.com/UspsToolsRestServices/rest/POLocator/findLocations", "@spider": "usps_collection_boxes", "addr:city": "SHREVEPORT", "addr:country": "US", "addr:postcode": "71106", "addr:state": "LA", "addr:street_address": "5828 LINE AVE", "amenity": "post_box", "collection_times": "Mo-Fr 15:15; Sa 15:00", "note": "ON 12/24 AND 12/31, THIS BOX MAY BE COLLECTED AS EARLY AS 12 NOON.", "nsi_id": "unitedstatespostalservice-a77078", "operator": "United States Postal Service", "operator:short": "USPS", "operator:type": "public", "operator:wikidata": "Q668687", "ref": "7110600018"}, "type": "Feature"}
{"geometry": {"coordinates": [-93.747797818, 32.454777927], "type": "Point"}, "id": "RwLlqwjW4ROlgNIsm0FijYRMxL4=", "properties": {"@source_uri": "https://tools.usps.com/UspsToolsRestServices/rest/POLocator/findLocations", "@spider": "usps_collection_boxes", "addr:city": "SHREVEPORT", "addr:country": "US", "addr:postcode": "71106", "addr:state": "LA", "addr:street_address": "900 PIERREMONT RD", "amenity": "post_box", "collection_times": "Mo-Fr 15:30; Sa 15:00", "note": "ON 12/24 AND 12/31, THIS BOX MAY BE COLLECTED AS EARLY AS 12 NOON.", "nsi_id": "unitedstatespostalservice-a77078", "operator": "United States Postal Service", "operator:short": "USPS", "operator:type": "public", "operator:wikidata": "Q668687", "ref": "7110600026"}, "type": "Feature"}
{"geometry": {"coordinates": [-93.749019976, 32.45526998], "type": "Point"}, "id": "Gf98yQ1gxhimSKEz6rtIcBY17SQ=", "properties": {"@source_uri": "https://tools.usps.com/UspsToolsRestServices/rest/POLocator/findLocations", "@spider": "usps_collection_boxes", "addr:city": "SHREVEPORT", "addr:country": "US", "addr:postcode": "71106", "addr:state": "LA", "addr:street_address": "920 PIERREMONT RD", "amenity": "post_box", "collection_times": "Mo-Fr 15:30; Sa 15:00", "note": "ON 12/24 AND 12/31, THIS BOX MAY BE COLLECTED AS EARLY AS 12 NOON.", "nsi_id": "unitedstatespostalservice-a77078", "operator": "United States Postal Service", "operator:short": "USPS", "operator:type": "public", "operator:wikidata": "Q668687", "ref": "7110600028"}, "type": "Feature"}
{"geometry": {"coordinates": [-93.760378342, 32.422345765], "type": "Point"}, "id": "wCFQRinFHVn8Veva4nfTh_BRgzY=", "properties": {"@source_uri": "https://tools.usps.com/UspsToolsRestServices/rest/POLocator/findLocations", "@spider": "usps_collection_boxes", "addr:city": "SHREVEPORT", "addr:country": "US", "addr:postcode": "71106", "addr:state": "LA", "addr:street_address": "241 LYNBROOK BLVD", "amenity": "post_box", "collection_times": "Mo-Fr 17:00; Sa 16:30", "indoor": "yes", "note": "ON 12/24 AND 12/31, THIS BOX MAY BE COLLECTED AS EARLY AS 12 NOON.", "nsi_id": "unitedstatespostalservice-a77078", "operator": "United States Postal Service", "operator:short": "USPS", "operator:type": "public", "operator:wikidata": "Q668687", "ref": "7110600030"}, "type": "Feature"}
{"geometry": {"coordinates": [-93.735129989, 32.417059984], "type": "Point"}, "id": "itbwievEJe7LqgTG_HnvRJ83NN4=", "properties": {"@source_uri": "https://tools.usps.com/UspsToolsRestServices/rest/POLocator/findLocations", "@spider": "usps_collection_boxes", "addr:city": "SHREVEPORT", "addr:country": "US", "addr:postcode": "71106", "addr:state": "LA", "addr:street_address": "411 ASHLEY RIDGE BLVD", "amenity": "post_box", "collection_times": "Mo-Sa 15:00", "note": "ON 12/24 AND 12/31, THIS BOX MAY BE COLLECTED AS EARLY AS 12 NOON.", "nsi_id": "unitedstatespostalservice-a77078", "operator": "United States Postal Service", "operator:short": "USPS", "operator:type": "public", "operator:wikidata": "Q668687", "ref": "7110600036"}, "type": "Feature"}
{"geometry": {"coordinates": [-93.760378342, 32.422345765], "type": "Point"}, "id": "D0jttoqIcZ-SZFtufhpKMUhCd1Q=", "properties": {"@source_uri": "https://tools.usps.com/UspsToolsRestServices/rest/POLocator/findLocations", "@spider": "usps_collection_boxes", "addr:city": "SHREVEPORT", "addr:country": "US", "addr:postcode": "71106", "addr:state": "LA", "addr:street_address": "241 LYNBROOK BLVD", "amenity": "post_box", "collection_times": "Mo-Fr 16:30", "indoor": "yes", "note": "ON 12/24 AND 12/31, THIS BOX MAY BE COLLECTED AS EARLY AS 12 NOON.", "nsi_id": "unitedstatespostalservice-a77078", "operator": "United States Postal Service", "operator:short": "USPS", "operator:type": "public", "operator:wikidata": "Q668687", "ref": "7110600041"}, "type": "Feature"}
{"geometry": {"coordinates": [-93.833219965, 32.543709996], "type": "Point"}, "id": "kEOi4PVUOthRuLlSUQWUHuk3Smc=", "properties": {"@source_uri": "https://tools.usps.com/UspsToolsRestServices/rest/POLocator/findLocations", "@spider": "usps_collection_boxes", "addr:city": "SHREVEPORT", "addr:country": "US", "addr:postcode": "71107", "addr:state": "LA", "addr:street_address": "3050 DR MARTIN LUTHER KING DR", "amenity": "post_box", "collection_times": "Mo-Fr 15:15; Sa 14:00", "note": "ON 12/24 AND 12/31, THIS BOX MAY BE COLLECTED AS EARLY AS 12 NOON.", "nsi_id": "unitedstatespostalservice-a77078", "operator": "United States Postal Service", "operator:short": "USPS", "operator:type": "public", "operator:wikidata": "Q668687", "ref": "7110700016"}, "type": "Feature"}
{"geometry": {"coordinates": [-93.765771173, 32.537912455], "type": "Point"}, "id": "THTUyjMJcspe4rzOe1m1pZYqpdQ=", "properties": {"@source_uri": "https://tools.usps.com/UspsToolsRestServices/rest/POLocator/findLocations", "@spider": "usps_collection_boxes", "addr:city": "SHREVEPORT", "addr:country": "US", "addr:postcode": "71107", "addr:state": "LA", "addr:street_address": "1446 HAWN AVE", "amenity": "post_box", "collection_times": "Mo-Fr 17:00; Sa 16:45", "note": "ON 12/24 AND 12/31, THIS BOX MAY BE COLLECTED AS EARLY AS 12 NOON.", "nsi_id": "unitedstatespostalservice-a77078", "operator": "United States Postal Service", "operator:short": "USPS", "operator:type": "public", "operator:wikidata": "Q668687", "ref": "7110700017"}, "type": "Feature"}
{"geometry": {"coordinates": [-93.78193001, 32.558349996], "type": "Point"}, "id": "ERnWeEjh2BNquqsESJo_1IIFlIA=", "properties": {"@source_uri": "https://tools.usps.com/UspsToolsRestServices/rest/POLocator/findLocations", "@spider": "usps_collection_boxes", "addr:city": "SHREVEPORT", "addr:country": "US", "addr:postcode": "71107", "addr:state": "LA", "addr:street_address": "3000 N MARKET ST", "amenity": "post_box", "collection_times": "Mo-Fr 12:00; Sa 11:15", "nsi_id": "unitedstatespostalservice-a77078", "operator": "United States Postal Service", "operator:short": "USPS", "operator:type": "public", "operator:wikidata": "Q668687", "ref": "7110700018"}, "type": "Feature"}
{"geometry": {"coordinates": [-93.766430027, 32.540470014], "type": "Point"}, "id": "CzlSb-6wrwgNlrNdtQ1rNBzEo0c=", "properties": {"@source_uri": "https://tools.usps.com/UspsToolsRestServices/rest/POLocator/findLocations", "@spider": "usps_collection_boxes", "addr:city": "SHREVEPORT", "addr:country": "US", "addr:postcode": "71107", "addr:state": "LA", "addr:street_address": "1324 N HEARNE AVE", "amenity": "post_box", "collection_times": "Mo-Fr 15:00; Sa 14:45", "note": "ON 12/24 AND 12/31, THIS BOX MAY BE COLLECTED AS EARLY AS 12 NOON.", "nsi_id": "unitedstatespostalservice-a77078", "operator": "United States Postal Service", "operator:short": "USPS", "operator:type": "public", "operator:wikidata": "Q668687", "ref": "7110700035"}, "type": "Feature"}
{"geometry": {"coordinates": [-93.765771173, 32.537912455], "type": "Point"}, "id": "s0ZaeXPAQ-i_SBdyDMlUZ3sLvWM=", "properties": {"@source_uri": "https://tools.usps.com/UspsToolsRestServices/rest/POLocator/findLocations", "@spider": "usps_collection_boxes", "addr:city": "SHREVEPORT", "addr:country": "US", "addr:postcode": "71107", "addr:state": "LA", "addr:street_address": "1446 HAWN AVE", "amenity": "post_box", "collection_times": "Mo-Fr 17:00; Sa 16:45", "indoor": "yes", "note": "ON 12/24 AND 12/31, THIS BOX MAY BE COLLECTED AS EARLY AS 12 NOON.", "nsi_id": "unitedstatespostalservice-a77078", "operator": "United States Postal Service", "operator:short": "USPS", "operator:type": "public", "operator:wikidata": "Q668687", "ref": "7110700037"}, "type": "Feature"}
{"geometry": {"coordinates": [-93.765771173, 32.537912455], "type": "Point"}, "id": "g_cRkpbhUMo7Js5kHy2o7mEwK-k=", "properties": {"@source_uri": "https://tools.usps.com/UspsToolsRestServices/rest/POLocator/findLocations", "@spider": "usps_collection_boxes", "addr:city": "SHREVEPORT", "addr:country": "US", "addr:postcode": "71107", "addr:state": "LA", "addr:street_address": "1446 HAWN AVE", "amenity": "post_box", "collection_times": "Mo-Fr 17:00; Sa 16:45", "indoor": "yes", "note": "ON 12/24 AND 12/31, THIS BOX MAY BE COLLECTED AS EARLY AS 12 NOON.", "nsi_id": "unitedstatespostalservice-a77078", "operator": "United States Postal Service", "operator:short": "USPS", "operator:type": "public", "operator:wikidata": "Q668687", "ref": "7110700038"}, "type": "Feature"}
{"geometry": {"coordinates": [-93.765771173, 32.537912455], "type": "Point"}, "id": "M4tVhjLVYk8sB86kphhKqM00HOw=", "properties": {"@source_uri": "https://tools.usps.com/UspsToolsRestServices/rest/POLocator/findLocations", "@spider": "usps_collection_boxes", "addr:city": "SHREVEPORT", "addr:country": "US", "addr:postcode": "71107", "addr:state": "LA", "addr:street_address": "1446 HAWN AVE", "amenity": "post_box", "collection_times": "Mo-Fr 16:30", "indoor": "yes", "note": "ON 12/24 AND 12/31, THIS BOX MAY BE COLLECTED AS EARLY AS 12 NOON.", "nsi_id": "unitedstatespostalservice-a77078", "operator": "United States Postal Service", "operator:short": "USPS", "operator:type": "public", "operator:wikidata": "Q668687", "ref": "7110700040"}, "type": "Feature"}
{"geometry": {"coordinates": [-93.7888330099, 32.4207139911], "type": "Point"}, "id": "1DAsWuz9mZDLsCR3XM6npUkayCw=", "properties": {"@source_uri": "https://tools.usps.com/UspsToolsRestServices/rest/POLocator/findLocations", "@spider": "usps_collection_boxes", "addr:city": "SHREVEPORT", "addr:country": "US", "addr:postcode": "71108", "addr:state": "LA", "addr:street_address": "8340 MANSFIELD RD", "amenity": "post_box", "collection_times": "Mo-Fr 17:00; Sa 16:30", "note": "ON 12/24 AND 12/31, THIS BOX MAY BE COLLECTED AS EARLY AS 12 NOON.", "nsi_id": "unitedstatespostalservice-a77078", "operator": "United States Postal Service", "operator:short": "USPS", "operator:type": "public", "operator:wikidata": "Q668687", "ref": "7110800002"}, "type": "Feature"}
{"geometry": {"coordinates": [-93.783289974, 32.44093001], "type": "Point"}, "id": "KIuQs12kZSV6oJsgDVaDJZsh058=", "properties": {"@source_uri": "https://tools.usps.com/UspsToolsRestServices/rest/POLocator/findLocations", "@spider": "usps_collection_boxes", "addr:city": "SHREVEPORT", "addr:country": "US", "addr:postcode": "71108", "addr:state": "LA", "addr:street_address": "2705 W 70TH ST", "amenity": "post_box", "collection_times": "Mo-Sa 11:00", "nsi_id": "unitedstatespostalservice-a77078", "operator": "United States Postal Service", "operator:short": "USPS", "operator:type": "public", "operator:wikidata": "Q668687", "ref": "7110800016"}, "type": "Feature"}
{"geometry": {"coordinates": [-93.78846999, 32.420719984], "type": "Point"}, "id": "PdxrhsnI3Uhxj-gj4sJMGFVWkcs=", "properties": {"@source_uri": "https://tools.usps.com/UspsToolsRestServices/rest/POLocator/findLocations", "@spider": "usps_collection_boxes", "addr:city": "SHREVEPORT", "addr:country": "US", "addr:postcode": "71108", "addr:state": "LA", "addr:street_address": "8340 MANSFIELD RD", "amenity": "post_box", "collection_times": "Mo-Fr 17:00; Sa 16:30", "indoor": "yes", "note": "ON 12/24 AND 12/31, THIS BOX MAY BE COLLECTED AS EARLY AS 12 NOON.", "nsi_id": "unitedstatespostalservice-a77078", "operator": "United States Postal Service", "operator:short": "USPS", "operator:type": "public", "operator:wikidata": "Q668687", "ref": "7110800018"}, "type": "Feature"}
{"geometry": {"coordinates": [-93.78846999, 32.420719984], "type": "Point"}, "id": "xHCmT0dXIxYBNSDG9i7em2Lz16U=", "properties": {"@source_uri": "https://tools.usps.com/UspsToolsRestServices/rest/POLocator/findLocations", "@spider": "usps_collection_boxes", "addr:city": "SHREVEPORT", "addr:country": "US", "addr:postcode": "71108", "addr:state": "LA", "addr:street_address": "8340 MANSFIELD RD", "amenity": "post_box", "collection_times": "Mo-Fr 17:00; Sa 16:30", "indoor": "yes", "note": "ON 12/24 AND 12/31, THIS BOX MAY BE COLLECTED AS EARLY AS 12 NOON.", "nsi_id": "unitedstatespostalservice-a77078", "operator": "United States Postal Service", "operator:short": "USPS", "operator:type": "public", "operator:wikidata": "Q668687", "ref": "7110800019"}, "type": "Feature"}
{"geometry": {"coordinates": [-93.78846999, 32.420719984], "type": "Point"}, "id": "JbC-gQ449CVBq8SHOxUaeHAywqA=", "properties": {"@source_uri": "https://tools.usps.com/UspsToolsRestServices/rest/POLocator/findLocations", "@spider": "usps_collection_boxes", "addr:city": "SHREVEPORT", "addr:country": "US", "addr:postcode": "71108", "addr:state": "LA", "addr:street_address": "8340 MANSFIELD RD", "amenity": "post_box", "collection_times": "Mo-Fr 17:00; Sa 16:30", "indoor": "yes", "note": "ON 12/24 AND 12/31, THIS BOX MAY BE COLLECTED AS EARLY AS 12 NOON.", "nsi_id": "unitedstatespostalservice-a77078", "operator": "United States Postal Service", "operator:short": "USPS", "operator:type": "public", "operator:wikidata": "Q668687", "ref": "7110800020"}, "type": "Feature"}
{"geometry": {"coordinates": [-93.77763001, 32.455240014], "type": "Point"}, "id": "0vrhabZdXZtqIsPCU0OSrBNpUsc=", "properties": {"@source_uri": "https://tools.usps.com/UspsToolsRestServices/rest/POLocator/findLocations", "@spider": "usps_collection_boxes", "addr:city": "SHREVEPORT", "addr:country": "US", "addr:postcode": "71108", "addr:state": "LA", "addr:street_address": "5836 MANSFIELD RD", "amenity": "post_box", "collection_times": "Mo-Sa 11:00", "nsi_id": "unitedstatespostalservice-a77078", "operator": "United States Postal Service", "operator:short": "USPS", "operator:type": "public", "operator:wikidata": "Q668687", "ref": "7110800022"}, "type": "Feature"}
{"geometry": {"coordinates": [-93.78846999, 32.420719984], "type": "Point"}, "id": "1aSlk_8o4lYu4oK9P--JY0nKzb8=", "properties": {"@source_uri": "https://tools.usps.com/UspsToolsRestServices/rest/POLocator/findLocations", "@spider": "usps_collection_boxes", "addr:city": "SHREVEPORT", "addr:country": "US", "addr:postcode": "71108", "addr:state": "LA", "addr:street_address": "8340 MANSFIELD RD", "amenity": "post_box", "collection_times": "Mo-Fr 17:30", "indoor": "yes", "note": "ON 12/24 AND 12/31, THIS BOX MAY BE COLLECTED AS EARLY AS 12 NOON.", "nsi_id": "unitedstatespostalservice-a77078", "operator": "United States Postal Service", "operator:short": "USPS", "operator:type": "public", "operator:wikidata": "Q668687", "ref": "7110800027"}, "type": "Feature"}
{"geometry": {"coordinates": [-93.797182469, 32.476911889], "type": "Point"}, "id": "QjwVTGhbIdxsnFQ4WImeTYAUzd4=", "properties": {"@source_uri": "https://tools.usps.com/UspsToolsRestServices/rest/POLocator/findLocations", "@spider": "usps_collection_boxes", "addr:city": "SHREVEPORT", "addr:country": "US", "addr:postcode": "71109", "addr:state": "LA", "addr:street_address": "3749 JEWELLA AVE", "amenity": "post_box", "collection_times": "Mo-Sa 10:00", "nsi_id": "unitedstatespostalservice-a77078", "operator": "United States Postal Service", "operator:short": "USPS", "operator:type": "public", "operator:wikidata": "Q668687", "ref": "7110900006"}, "type": "Feature"}
{"geometry": {"coordinates": [-93.798800015, 32.493149979], "type": "Point"}, "id": "p3MFxhIggmFhI0dVhT90YXHj6VQ=", "properties": {"@source_uri": "https://tools.usps.com/UspsToolsRestServices/rest/POLocator/findLocations", "@spider": "usps_collection_boxes", "addr:city": "SHREVEPORT", "addr:country": "US", "addr:postcode": "71109", "addr:state": "LA", "addr:street_address": "3730 LAKESHORE DR", "amenity": "post_box", "collection_times": "Mo-Sa 10:30", "nsi_id": "unitedstatespostalservice-a77078", "operator": "United States Postal Service", "operator:short": "USPS", "operator:type": "public", "operator:wikidata": "Q668687", "ref": "7110900011"}, "type": "Feature"}
{"geometry": {"coordinates": [-93.806320007, 32.456269982], "type": "Point"}, "id": "JZCQ0sDY_h_5oN6O0V-GPCP7sGo=", "properties": {"@source_uri": "https://tools.usps.com/UspsToolsRestServices/rest/POLocator/findLocations", "@spider": "usps_collection_boxes", "addr:city": "SHREVEPORT", "addr:country": "US", "addr:postcode": "71109", "addr:state": "LA", "addr:street_address": "4101 HOLLYWOOD AVE", "amenity": "post_box", "collection_times": "Mo-Sa 09:00", "nsi_id": "unitedstatespostalservice-a77078", "operator": "United States Postal Service", "operator:short": "USPS", "operator:type": "public", "operator:wikidata": "Q668687", "ref": "7110900014"}, "type": "Feature"}
{"geometry": {"coordinates": [-93.6798038, 32.5026706], "type": "Point"}, "id": "zoNbTOMJtq17JwAZPu4MKmTSk2M=", "properties": {"@source_uri": "https://tools.usps.com/UspsToolsRestServices/rest/POLocator/findLocations", "@spider": "usps_collection_boxes", "addr:city": "SHREVEPORT", "addr:country": "US", "addr:postcode": "71110", "addr:state": "LA", "addr:street_address": "245 DAVIS AVE E", "amenity": "post_box", "collection_times": "Mo-Sa 12:00", "nsi_id": "unitedstatespostalservice-a77078", "operator": "United States Postal Service", "operator:short": "USPS", "operator:type": "public", "operator:wikidata": "Q668687", "ref": "7111000001"}, "type": "Feature"}
{"geometry": {"coordinates": [-93.6798038, 32.5026706], "type": "Point"}, "id": "HZFhE0uds3g5Qz-f93PeTS4ETWw=", "properties": {"@source_uri": "https://tools.usps.com/UspsToolsRestServices/rest/POLocator/findLocations", "@spider": "usps_collection_boxes", "addr:city": "SHREVEPORT", "addr:country": "US", "addr:postcode": "71110", "addr:state": "LA", "addr:street_address": "1265 TWINING DR", "amenity": "post_box", "collection_times": "Mo-Sa 12:00", "nsi_id": "unitedstatespostalservice-a77078", "operator": "United States Postal Service", "operator:short": "USPS", "operator:type": "public", "operator:wikidata": "Q668687", "ref": "7111000004"}, "type": "Feature"}
{"geometry": {"coordinates": [-93.6798038, 32.5026706], "type": "Point"}, "id": "kLPT59VKLQRK6sHdcfXWbQ9O8F4=", "properties": {"@source_uri": "https://tools.usps.com/UspsToolsRestServices/rest/POLocator/findLocations", "@spider": "usps_collection_boxes", "addr:city": "SHREVEPORT", "addr:country": "US", "addr:postcode": "71110", "addr:state": "LA", "addr:street_address": "800 KENNEY AVE", "amenity": "post_box", "collection_times": "Mo-Sa 12:15", "note": "ON 12/24 AND 12/31, THIS BOX MAY BE COLLECTED AS EARLY AS 12 NOON.", "nsi_id": "unitedstatespostalservice-a77078", "operator": "United States Postal Service", "operator:short": "USPS", "operator:type": "public", "operator:wikidata": "Q668687", "ref": "7111000012"}, "type": "Feature"}
{"geometry": {"coordinates": [-93.6798038, 32.5026706], "type": "Point"}, "id": "yQoEdYs4A3kA1o3nHaf-8U0kksU=", "properties": {"@source_uri": "https://tools.usps.com/UspsToolsRestServices/rest/POLocator/findLocations", "@spider": "usps_collection_boxes", "addr:city": "SHREVEPORT", "addr:country": "US", "addr:postcode": "71110", "addr:state": "LA", "addr:street_address": "455 CURTISS RD", "amenity": "post_box", "collection_times": "Mo-Sa 12:00", "nsi_id": "unitedstatespostalservice-a77078", "operator": "United States Postal Service", "operator:short": "USPS", "operator:type": "public", "operator:wikidata": "Q668687", "ref": "7111000015"}, "type": "Feature"}
{"geometry": {"coordinates": [-93.6798038, 32.5026706], "type": "Point"}, "id": "FL1OEBnMi1HsCvhzC4B9I2iXPnY=", "properties": {"@source_uri": "https://tools.usps.com/UspsToolsRestServices/rest/POLocator/findLocations", "@spider": "usps_collection_boxes", "addr:city": "SHREVEPORT", "addr:country": "US", "addr:postcode": "71110", "addr:state": "LA", "addr:street_address": "450 CURTISS RD", "amenity": "post_box", "collection_times": "Mo-Fr 16:00", "indoor": "yes", "note": "ON 12/24 AND 12/31, THIS BOX MAY BE COLLECTED AS EARLY AS 12 NOON.", "nsi_id": "unitedstatespostalservice-a77078", "operator": "United States Postal Service", "operator:short": "USPS", "operator:type": "public", "operator:wikidata": "Q668687", "ref": "7111000016"}, "type": "Feature"}
{"geometry": {"coordinates": [-93.7216639583, 32.5377029798], "type": "Point"}, "id": "Gq_kZdUqqOZ79OBgYZUETxbg2Sg=", "properties": {"@source_uri": "https://tools.usps.com/UspsToolsRestServices/rest/POLocator/findLocations", "@spider": "usps_collection_boxes", "addr:city": "BOSSIER CITY", "addr:country": "US", "addr:postcode": "71111", "addr:state": "LA", "addr:street_address": "1911 BENTON RD", "amenity": "post_box", "collection_times": "Mo-Sa 10:00", "nsi_id": "unitedstatespostalservice-a77078", "operator": "United States Postal Service", "operator:short": "USPS", "operator:type": "public", "operator:wikidata": "Q668687", "ref": "7111100008"}, "type": "Feature"}
{"geometry": {"coordinates": [-93.708778574, 32.544236893], "type": "Point"}, "id": "nJOI8EPLZ7sUodl5clqnMRyVODI=", "properties": {"@source_uri": "https://tools.usps.com/UspsToolsRestServices/rest/POLocator/findLocations", "@spider": "usps_collection_boxes", "addr:city": "BOSSIER CITY", "addr:country": "US", "addr:postcode": "71111", "addr:state": "LA", "addr:street_address": "2341 AIRLINE DR", "amenity": "post_box", "collection_times": "Mo-Sa 10:00", "nsi_id": "unitedstatespostalservice-a77078", "operator": "United States Postal Service", "operator:short": "USPS", "operator:type": "public", "operator:wikidata": "Q668687", "ref": "7111100018"}, "type": "Feature"}
{"geometry": {"coordinates": [-93.709115998, 32.539501988], "type": "Point"}, "id": "GlEQsxOQaWpsJYWMFhZ-E1tGJzs=", "properties": {"@source_uri": "https://tools.usps.com/UspsToolsRestServices/rest/POLocator/findLocations", "@spider": "usps_collection_boxes", "addr:city": "BOSSIER CITY", "addr:country": "US", "addr:postcode": "71111", "addr:state": "LA", "addr:street_address": "2801 NORTHSIDE DR", "amenity": "post_box", "collection_times": "Mo-Fr 13:00; Sa 11:30", "note": "ON 12/24 AND 12/31, THIS BOX MAY BE COLLECTED AS EARLY AS 12 NOON.", "nsi_id": "unitedstatespostalservice-a77078", "operator": "United States Postal Service", "operator:short": "USPS", "operator:type": "public", "operator:wikidata": "Q668687", "ref": "7111100019"}, "type": "Feature"}
{"geometry": {"coordinates": [-93.673242039, 32.543809993], "type": "Point"}, "id": "IM2RA8cj6IRSR6W8hF3gRNgL_FY=", "properties": {"@source_uri": "https://tools.usps.com/UspsToolsRestServices/rest/POLocator/findLocations", "@spider": "usps_collection_boxes", "addr:city": "BOSSIER CITY", "addr:country": "US", "addr:postcode": "71111", "addr:state": "LA", "addr:street_address": "4609 SHED RD", "amenity": "post_box", "collection_times": "Mo-Sa 10:00", "nsi_id": "unitedstatespostalservice-a77078", "operator": "United States Postal Service", "operator:short": "USPS", "operator:type": "public", "operator:wikidata": "Q668687", "ref": "7111100026"}, "type": "Feature"}
{"geometry": {"coordinates": [-93.706114019, 32.526137001], "type": "Point"}, "id": "zm8J6PPMvhYqr-_964-7IgtNGeo=", "properties": {"@source_uri": "https://tools.usps.com/UspsToolsRestServices/rest/POLocator/findLocations", "@spider": "usps_collection_boxes", "addr:city": "BOSSIER CITY", "addr:country": "US", "addr:postcode": "71111", "addr:state": "LA", "addr:street_address": "2950 E TEXAS ST", "amenity": "post_box", "collection_times": "Mo-Sa 08:15", "nsi_id": "unitedstatespostalservice-a77078", "operator": "United States Postal Service", "operator:short": "USPS", "operator:type": "public", "operator:wikidata": "Q668687", "ref": "7111100033"}, "type": "Feature"}
{"geometry": {"coordinates": [-93.717325102, 32.525404628], "type": "Point"}, "id": "_bM9rKvZpe_TFdz7Jmup-aIdLCE=", "properties": {"@source_uri": "https://tools.usps.com/UspsToolsRestServices/rest/POLocator/findLocations", "@spider": "usps_collection_boxes", "addr:city": "BOSSIER CITY", "addr:country": "US", "addr:postcode": "71111", "addr:state": "LA", "addr:street_address": "718 BENTON RD", "amenity": "post_box", "collection_times": "Mo-Sa 10:30", "nsi_id": "unitedstatespostalservice-a77078", "operator": "United States Postal Service", "operator:short": "USPS", "operator:type": "public", "operator:wikidata": "Q668687", "ref": "7111100038"}, "type": "Feature"}
{"geometry": {"coordinates": [-93.734665, 32.52165], "type": "Point"}, "id": "NJA5xe0V3mgkN0BvlVzPX5FXk1s=", "properties": {"@source_uri": "https://tools.usps.com/UspsToolsRestServices/rest/POLocator/findLocations", "@spider": "usps_collection_boxes", "addr:city": "BOSSIER CITY", "addr:country": "US", "addr:postcode": "71111", "addr:state": "LA", "addr:street_address": "150 BENTON RD", "amenity": "post_box", "collection_times": "Mo-Fr 17:00; Sa 16:00", "note": "ON 12/24 AND 12/31, THIS BOX MAY BE COLLECTED AS EARLY AS 12 NOON.", "nsi_id": "unitedstatespostalservice-a77078", "operator": "United States Postal Service", "operator:short": "USPS", "operator:type": "public", "operator:wikidata": "Q668687", "ref": "7111100041"}, "type": "Feature"}
{"geometry": {"coordinates": [-93.716298031, 32.517279006], "type": "Point"}, "id": "nN_vd9o4BOjuDC2-dmn_kf_zqpI=", "properties": {"@source_uri": "https://tools.usps.com/UspsToolsRestServices/rest/POLocator/findLocations", "@spider": "usps_collection_boxes", "addr:city": "BOSSIER CITY", "addr:country": "US", "addr:postcode": "71111", "addr:state": "LA", "addr:street_address": "150 BENTON RD", "amenity": "post_box", "collection_times": "Mo-Fr 17:00; Sa 16:00", "indoor": "yes", "note": "ON 12/24 AND 12/31, THIS BOX MAY BE COLLECTED AS EARLY AS 12 NOON.", "nsi_id": "unitedstatespostalservice-a77078", "operator": "United States Postal Service", "operator:short": "USPS", "operator:type": "public", "operator:wikidata": "Q668687", "ref": "7111100045"}, "type": "Feature"}
{"geometry": {"coordinates": [-93.716298031, 32.517279006], "type": "Point"}, "id": "khq5N-UB-xj9VXzXvEFKyGZaMCs=", "properties": {"@source_uri": "https://tools.usps.com/UspsToolsRestServices/rest/POLocator/findLocations", "@spider": "usps_collection_boxes", "addr:city": "BOSSIER CITY", "addr:country": "US", "addr:postcode": "71111", "addr:state": "LA", "addr:street_address": "150 BENTON RD", "amenity": "post_box", "collection_times": "Mo-Fr 17:00; Sa 16:00", "indoor": "yes", "note": "ON 12/24 AND 12/31, THIS BOX MAY BE COLLECTED AS EARLY AS 12 NOON.", "nsi_id": "unitedstatespostalservice-a77078", "operator": "United States Postal Service", "operator:short": "USPS", "operator:type": "public", "operator:wikidata": "Q668687", "ref": "7111100046"}, "type": "Feature"}
{"geometry": {"coordinates": [-93.716298031, 32.517279006], "type": "Point"}, "id": "zS1oIJSEOXiuTxtrZSIiInKpu-s=", "properties": {"@source_uri": "https://tools.usps.com/UspsToolsRestServices/rest/POLocator/findLocations", "@spider": "usps_collection_boxes", "addr:city": "BOSSIER CITY", "addr:country": "US", "addr:postcode": "71111", "addr:state": "LA", "addr:street_address": "150 BENTON RD", "amenity": "post_box", "collection_times": "Mo-Fr 17:00; Sa 16:00", "note": "ON 12/24 AND 12/31, THIS BOX MAY BE COLLECTED AS EARLY AS 12 NOON.", "nsi_id": "unitedstatespostalservice-a77078", "operator": "United States Postal Service", "operator:short": "USPS", "operator:type": "public", "operator:wikidata": "Q668687", "ref": "7111100048"}, "type": "Feature"}
{"geometry": {"coordinates": [-93.640650014, 32.564392007], "type": "Point"}, "id": "JuTh0o79EP5wZCaCJqKMSUsZAWg=", "properties": {"@source_uri": "https://tools.usps.com/UspsToolsRestServices/rest/POLocator/findLocations", "@spider": "usps_collection_boxes", "addr:city": "BOSSIER CITY", "addr:country": "US", "addr:postcode": "71111", "addr:state": "LA", "addr:street_address": "2220 MIDDLE CREEK BLVD", "amenity": "post_box", "collection_times": "Mo-Sa 13:00", "note": "ON 12/24 AND 12/31, THIS BOX MAY BE COLLECTED AS EARLY AS 12 NOON.", "nsi_id": "unitedstatespostalservice-a77078", "operator": "United States Postal Service", "operator:short": "USPS", "operator:type": "public", "operator:wikidata": "Q668687", "ref": "7111100049"}, "type": "Feature"}
{"geometry": {"coordinates": [-93.721507971, 32.558496009], "type": "Point"}, "id": "XYmJMPrMbViW6bqlXFNP0hpMpI8=", "properties": {"@source_uri": "https://tools.usps.com/UspsToolsRestServices/rest/POLocator/findLocations", "@spider": "usps_collection_boxes", "addr:city": "BOSSIER CITY", "addr:country": "US", "addr:postcode": "71111", "addr:state": "LA", "addr:street_address": "2300 HOSPITAL DR", "amenity": "post_box", "collection_times": "Mo-Sa 10:00", "nsi_id": "unitedstatespostalservice-a77078", "operator": "United States Postal Service", "operator:short": "USPS", "operator:type": "public", "operator:wikidata": "Q668687", "ref": "7111100053"}, "type": "Feature"}
{"geometry": {"coordinates": [-93.734665, 32.52165], "type": "Point"}, "id": "9UGwFiC45aFpRmFRSqqtEo9ZlYk=", "properties": {"@source_uri": "https://tools.usps.com/UspsToolsRestServices/rest/POLocator/findLocations", "@spider": "usps_collection_boxes", "addr:city": "BOSSIER CITY", "addr:country": "US", "addr:postcode": "71111", "addr:state": "LA", "addr:street_address": "2285 BENTON RD", "amenity": "post_box", "collection_times": "Mo-Sa 10:00", "nsi_id": "unitedstatespostalservice-a77078", "operator": "United States Postal Service", "operator:short": "USPS", "operator:type": "public", "operator:wikidata": "Q668687", "ref": "7111100056"}, "type": "Feature"}
{"geometry": {"coordinates": [-93.715074022, 32.555930015], "type": "Point"}, "id": "IlVhW4_T5Agfrem3SBYfLqfD3V8=", "properties": {"@source_uri": "https://tools.usps.com/UspsToolsRestServices/rest/POLocator/findLocations", "@spider": "usps_collection_boxes", "addr:city": "BOSSIER CITY", "addr:country": "US", "addr:postcode": "71111", "addr:state": "LA", "addr:street_address": "2539 VIKING DR", "amenity": "post_box", "collection_times": "Mo-Sa 10:00", "nsi_id": "unitedstatespostalservice-a77078", "operator": "United States Postal Service", "operator:short": "USPS", "operator:type": "public", "operator:wikidata": "Q668687", "ref": "7111100057"}, "type": "Feature"}
{"geometry": {"coordinates": [-93.625307024, 32.546563993], "type": "Point"}, "id": "eiOVnXA_CK7aYRtbVr0csnlwCI0=", "properties": {"@source_uri": "https://tools.usps.com/UspsToolsRestServices/rest/POLocator/findLocations", "@spider": "usps_collection_boxes", "addr:city": "BOSSIER CITY", "addr:country": "US", "addr:postcode": "71111", "addr:state": "LA", "addr:street_address": "8000 E TEXAS ST", "amenity": "post_box", "collection_times": "Mo-Fr 10:00", "nsi_id": "unitedstatespostalservice-a77078", "operator": "United States Postal Service", "operator:short": "USPS", "operator:type": "public", "operator:wikidata": "Q668687", "ref": "7111100058"}, "type": "Feature"}
{"geometry": {"coordinates": [-93.720482026, 32.537187996], "type": "Point"}, "id": "4rKO2HUMz05iFFdjEWXVMYjgYHE=", "properties": {"@source_uri": "https://tools.usps.com/UspsToolsRestServices/rest/POLocator/findLocations", "@spider": "usps_collection_boxes", "addr:city": "BOSSIER CITY", "addr:country": "US", "addr:postcode": "71111", "addr:state": "LA", "addr:street_address": "1824 BENTON RD", "amenity": "post_box", "collection_times": "Mo-Sa 10:00", "nsi_id": "unitedstatespostalservice-a77078", "operator": "United States Postal Service", "operator:short": "USPS", "operator:type": "public", "operator:wikidata": "Q668687", "ref": "7111100060"}, "type": "Feature"}
{"geometry": {"coordinates": [-93.716298031, 32.517279006], "type": "Point"}, "id": "b6c8q7-Pd_eUGMvGRhkFdt_jo_M=", "properties": {"@source_uri": "https://tools.usps.com/UspsToolsRestServices/rest/POLocator/findLocations", "@spider": "usps_collection_boxes", "addr:city": "BOSSIER CITY", "addr:country": "US", "addr:postcode": "71111", "addr:state": "LA", "addr:street_address": "150 BENTON RD", "amenity": "post_box", "collection_times": "Mo-Fr 17:15", "indoor": "yes", "note": "ON 12/24 AND 12/31, THIS BOX MAY BE COLLECTED AS EARLY AS 12 NOON.", "nsi_id": "unitedstatespostalservice-a77078", "operator": "United States Postal Service", "operator:short": "USPS", "operator:type": "public", "operator:wikidata": "Q668687", "ref": "7111100067"}, "type": "Feature"}
{"geometry": {"coordinates": [-93.704331021, 32.514996991], "type": "Point"}, "id": "EebEzUvSP7rFaxCE7jOwYjGc5EM=", "properties": {"@source_uri": "https://tools.usps.com/UspsToolsRestServices/rest/POLocator/findLocations", "@spider": "usps_collection_boxes", "addr:city": "BOSSIER CITY", "addr:country": "US", "addr:postcode": "71112", "addr:state": "LA", "addr:street_address": "79 GRACE LN", "amenity": "post_box", "collection_times": "Mo-Sa 12:00", "nsi_id": "unitedstatespostalservice-a77078", "operator": "United States Postal Service", "operator:short": "USPS", "operator:type": "public", "operator:wikidata": "Q668687", "ref": "7111200010"}, "type": "Feature"}
{"geometry": {"coordinates": [-93.6758029618, 32.4800250085], "type": "Point"}, "id": "M3qLrW4LXt5PnzrmjG3LXdRQYVc=", "properties": {"@source_uri": "https://tools.usps.com/UspsToolsRestServices/rest/POLocator/findLocations", "@spider": "usps_collection_boxes", "addr:city": "BOSSIER CITY", "addr:country": "US", "addr:postcode": "71112", "addr:state": "LA", "addr:street_address": "1201 SHADY GROVE DR", "amenity": "post_box", "collection_times": "Mo-Sa 08:15", "nsi_id": "unitedstatespostalservice-a77078", "operator": "United States Postal Service", "operator:short": "USPS", "operator:type": "public", "operator:wikidata": "Q668687", "ref": "7111200013"}, "type": "Feature"}
{"geometry": {"coordinates": [-93.694724019, 32.519638009], "type": "Point"}, "id": "jfqnA2uBPD6eVYaGlOpMlgwBm-Y=", "properties": {"@source_uri": "https://tools.usps.com/UspsToolsRestServices/rest/POLocator/findLocations", "@spider": "usps_collection_boxes", "addr:city": "BOSSIER CITY", "addr:country": "US", "addr:postcode": "71112", "addr:state": "LA", "addr:street_address": "1870 AIRLINE DR", "amenity": "post_box", "collection_times": "Mo-Sa 08:15", "nsi_id": "unitedstatespostalservice-a77078", "operator": "United States Postal Service", "operator:short": "USPS", "operator:type": "public", "operator:wikidata": "Q668687", "ref": "7111200015"}, "type": "Feature"}
{"geometry": {"coordinates": [-93.693485006, 32.513437999], "type": "Point"}, "id": "rP-OAnp0faxBeXfOji0nsPktoJk=", "properties": {"@source_uri": "https://tools.usps.com/UspsToolsRestServices/rest/POLocator/findLocations", "@spider": "usps_collection_boxes", "addr:city": "BOSSIER CITY", "addr:country": "US", "addr:postcode": "71112", "addr:state": "LA", "addr:street_address": "1450 AIRLINE DR", "amenity": "post_box", "collection_times": "Mo-Fr 08:15; Sa 08:14", "nsi_id": "unitedstatespostalservice-a77078", "operator": "United States Postal Service", "operator:short": "USPS", "operator:type": "public", "operator:wikidata": "Q668687", "ref": "7111200020"}, "type": "Feature"}
{"geometry": {"coordinates": [-93.6923849, 32.5096415], "type": "Point"}, "id": "X5zviUIxbVUgUbiC7W5cwerhIuE=", "properties": {"@source_uri": "https://tools.usps.com/UspsToolsRestServices/rest/POLocator/findLocations", "@spider": "usps_collection_boxes", "addr:city": "BOSSIER CITY", "addr:country": "US", "addr:postcode": "71112", "addr:state": "LA", "addr:street_address": "4310 BARKSDALE BLVD", "amenity": "post_box", "collection_times": "Mo-Fr 16:30; Sa 16:00", "indoor": "yes", "note": "ON 12/24 AND 12/31, THIS BOX MAY BE COLLECTED AS EARLY AS 12 NOON.", "nsi_id": "unitedstatespostalservice-a77078", "operator": "United States Postal Service", "operator:short": "USPS", "operator:type": "public", "operator:wikidata": "Q668687", "ref": "7111200027"}, "type": "Feature"}
{"geometry": {"coordinates": [-93.6923849, 32.5096415], "type": "Point"}, "id": "10Ceu7AHg3TIAJeT8X7KOC9dYRs=", "properties": {"@source_uri": "https://tools.usps.com/UspsToolsRestServices/rest/POLocator/findLocations", "@spider": "usps_collection_boxes", "addr:city": "BOSSIER CITY", "addr:country": "US", "addr:postcode": "71112", "addr:state": "LA", "addr:street_address": "4310 BARKSDALE BLVD", "amenity": "post_box", "collection_times": "Mo-Fr 16:30; Sa 16:00", "indoor": "yes", "note": "ON 12/24 AND 12/31, THIS BOX MAY BE COLLECTED AS EARLY AS 12 NOON.", "nsi_id": "unitedstatespostalservice-a77078", "operator": "United States Postal Service", "operator:short": "USPS", "operator:type": "public", "operator:wikidata": "Q668687", "ref": "7111200028"}, "type": "Feature"}
{"geometry": {"coordinates": [-93.692458977, 32.521679002], "type": "Point"}, "id": "w8vSoQaiZIniN5gWqUdIOg2MoQ0=", "properties": {"@source_uri": "https://tools.usps.com/UspsToolsRestServices/rest/POLocator/findLocations", "@spider": "usps_collection_boxes", "addr:city": "BOSSIER CITY", "addr:country": "US", "addr:postcode": "71112", "addr:state": "LA", "addr:street_address": "3022 OLD MINDEN RD", "amenity": "post_box", "collection_times": "Mo-Sa 09:45", "nsi_id": "unitedstatespostalservice-a77078", "operator": "United States Postal Service", "operator:short": "USPS", "operator:type": "public", "operator:wikidata": "Q668687", "ref": "7111200033"}, "type": "Feature"}
{"geometry": {"coordinates": [-93.701850983, 32.523631986], "type": "Point"}, "id": "ajPLlfVBfEAREYnVwjBsa_Mx84w=", "properties": {"@source_uri": "https://tools.usps.com/UspsToolsRestServices/rest/POLocator/findLocations", "@spider": "usps_collection_boxes", "addr:city": "BOSSIER CITY", "addr:country": "US", "addr:postcode": "71112", "addr:state": "LA", "addr:street_address": "2701 VILLAGE LN", "amenity": "post_box", "collection_times": "Mo-Sa 09:15", "nsi_id": "unitedstatespostalservice-a77078", "operator": "United States Postal Service", "operator:short": "USPS", "operator:type": "public", "operator:wikidata": "Q668687", "ref": "7111200034"}, "type": "Feature"}
{"geometry": {"coordinates": [-93.6923849, 32.5096415], "type": "Point"}, "id": "3WKGkV0mdiC5Lu6TqOZ--C3m2NM=", "properties": {"@source_uri": "https://tools.usps.com/UspsToolsRestServices/rest/POLocator/findLocations", "@spider": "usps_collection_boxes", "addr:city": "BOSSIER CITY", "addr:country": "US", "addr:postcode": "71112", "addr:state": "LA", "addr:street_address": "4310 BARKSDALE BLVD", "amenity": "post_box", "collection_times": "Mo-Fr 16:30", "indoor": "yes", "note": "ON 12/24 AND 12/31, THIS BOX MAY BE COLLECTED AS EARLY AS 12 NOON.", "nsi_id": "unitedstatespostalservice-a77078", "operator": "United States Postal Service", "operator:short": "USPS", "operator:type": "public", "operator:wikidata": "Q668687", "ref": "7111200036"}, "type": "Feature"}
{"geometry": {"coordinates": [-93.704469993, 32.404549994], "type": "Point"}, "id": "n1SZLoWSc--DuUlutwPTd_jUaxo=", "properties": {"@source_uri": "https://tools.usps.com/UspsToolsRestServices/rest/POLocator/findLocations", "@spider": "usps_collection_boxes", "addr:city": "SHREVEPORT", "addr:country": "US", "addr:postcode": "71115", "addr:state": "LA", "addr:street_address": "600 E FLOURNOY LUCAS RD", "amenity": "post_box", "collection_times": "Mo-Fr 12:30; Sa 11:00", "note": "ON 12/24 AND 12/31, THIS BOX MAY BE COLLECTED AS EARLY AS 12 NOON.", "nsi_id": "unitedstatespostalservice-a77078", "operator": "United States Postal Service", "operator:short": "USPS", "operator:type": "public", "operator:wikidata": "Q668687", "ref": "7111500008"}, "type": "Feature"}
{"geometry": {"coordinates": [-93.7185319763, 32.4196939973], "type": "Point"}, "id": "w-K7GfCiZdiDSOe2ajgpWtFcxFY=", "properties": {"@source_uri": "https://tools.usps.com/UspsToolsRestServices/rest/POLocator/findLocations", "@spider": "usps_collection_boxes", "addr:city": "SHREVEPORT", "addr:country": "US", "addr:postcode": "71115", "addr:state": "LA", "addr:street_address": "1205 MERCEDEZ BENZ DR", "amenity": "post_box", "collection_times": "Mo-Sa 09:30", "nsi_id": "unitedstatespostalservice-a77078", "operator": "United States Postal Service", "operator:short": "USPS", "operator:type": "public", "operator:wikidata": "Q668687", "ref": "7111500013"}, "type": "Feature"}
{"geometry": {"coordinates": [-93.80616624, 32.400375162], "type": "Point"}, "id": "2lu9nV5QNLrQqk_7qlDPDuPlq5c=", "properties": {"@source_uri": "https://tools.usps.com/UspsToolsRestServices/rest/POLocator/findLocations", "@spider": "usps_collection_boxes", "addr:city": "SHREVEPORT", "addr:country": "US", "addr:postcode": "71118", "addr:state": "LA", "addr:street_address": "9250 MANSFIELD RD", "amenity": "post_box", "collection_times": "Mo-Sa 12:00", "nsi_id": "unitedstatespostalservice-a77078", "operator": "United States Postal Service", "operator:short": "USPS", "operator:type": "public", "operator:wikidata": "Q668687", "ref": "7111800001"}, "type": "Feature"}
{"geometry": {"coordinates": [-93.806859969, 32.40065002], "type": "Point"}, "id": "KRShhzvSVqw06xplwYIY_FrWA_4=", "properties": {"@source_uri": "https://tools.usps.com/UspsToolsRestServices/rest/POLocator/findLocations", "@spider": "usps_collection_boxes", "addr:city": "SHREVEPORT", "addr:country": "US", "addr:postcode": "71118", "addr:state": "LA", "addr:street_address": "9300 MANSFIELD RD", "amenity": "post_box", "collection_times": "Mo-Sa 12:00", "nsi_id": "unitedstatespostalservice-a77078", "operator": "United States Postal Service", "operator:short": "USPS", "operator:type": "public", "operator:wikidata": "Q668687", "ref": "7111800004"}, "type": "Feature"}
{"geometry": {"coordinates": [-93.801980025, 32.415100002], "type": "Point"}, "id": "5Cw2Dcq7s78WO_pblPrYmCexvyA=", "properties": {"@source_uri": "https://tools.usps.com/UspsToolsRestServices/rest/POLocator/findLocations", "@spider": "usps_collection_boxes", "addr:city": "SHREVEPORT", "addr:country": "US", "addr:postcode": "71118", "addr:state": "LA", "addr:street_address": "8924 JEWELLA AVE", "amenity": "post_box", "collection_times": "Mo-Sa 09:00", "nsi_id": "unitedstatespostalservice-a77078", "operator": "United States Postal Service", "operator:short": "USPS", "operator:type": "public", "operator:wikidata": "Q668687", "ref": "7111800005"}, "type": "Feature"}
{"geometry": {"coordinates": [-93.780468272, 32.407924483], "type": "Point"}, "id": "SxM7tdnDp4mUne-8TTKme97a5ew=", "properties": {"@source_uri": "https://tools.usps.com/UspsToolsRestServices/rest/POLocator/findLocations", "@spider": "usps_collection_boxes", "addr:city": "SHREVEPORT", "addr:country": "US", "addr:postcode": "71118", "addr:state": "LA", "addr:street_address": "8936 KINGSTON RD", "amenity": "post_box", "collection_times": "Mo-Sa 10:00", "nsi_id": "unitedstatespostalservice-a77078", "operator": "United States Postal Service", "operator:short": "USPS", "operator:type": "public", "operator:wikidata": "Q668687", "ref": "7111800012"}, "type": "Feature"}
{"geometry": {"coordinates": [-93.832299967, 32.401759993], "type": "Point"}, "id": "Wl8DYiKI3-6n1nIds3nVdWyKJaw=", "properties": {"@source_uri": "https://tools.usps.com/UspsToolsRestServices/rest/POLocator/findLocations", "@spider": "usps_collection_boxes", "addr:city": "SHREVEPORT", "addr:country": "US", "addr:postcode": "71118", "addr:state": "LA", "addr:street_address": "3301 BERT KOUNS INDUSTRIAL LOOP", "amenity": "post_box", "collection_times": "Mo-Fr 12:30; Sa 12:00", "note": "ON 12/24 AND 12/31, THIS BOX MAY BE COLLECTED AS EARLY AS 12 NOON.", "nsi_id": "unitedstatespostalservice-a77078", "operator": "United States Postal Service", "operator:short": "USPS", "operator:type": "public", "operator:wikidata": "Q668687", "ref": "7111800024"}, "type": "Feature"}
{"geometry": {"coordinates": [-93.797905262, 32.408922284], "type": "Point"}, "id": "c5gOBw9KRQvF9EPVyi89j2EOMjA=", "properties": {"@source_uri": "https://tools.usps.com/UspsToolsRestServices/rest/POLocator/findLocations", "@spider": "usps_collection_boxes", "addr:city": "SHREVEPORT", "addr:country": "US", "addr:postcode": "71118", "addr:state": "LA", "addr:street_address": "9060 MANSFIELD RD", "amenity": "post_box", "collection_times": "Mo-Sa 09:00", "nsi_id": "unitedstatespostalservice-a77078", "operator": "United States Postal Service", "operator:short": "USPS", "operator:type": "public", "operator:wikidata": "Q668687", "ref": "7111800029"}, "type": "Feature"}
{"geometry": {"coordinates": [-93.806710017, 32.394960007], "type": "Point"}, "id": "esQWaRLVp0mawU97Yd0D7EH0fKY=", "properties": {"@source_uri": "https://tools.usps.com/UspsToolsRestServices/rest/POLocator/findLocations", "@spider": "usps_collection_boxes", "addr:city": "SHREVEPORT", "addr:country": "US", "addr:postcode": "71118", "addr:state": "LA", "addr:street_address": "9333 NORMANDIE DR", "amenity": "post_box", "collection_times": "Mo-Fr 12:45; Sa 12:30", "note": "ON 12/24 AND 12/31, THIS BOX MAY BE COLLECTED AS EARLY AS 12 NOON.", "nsi_id": "unitedstatespostalservice-a77078", "operator": "United States Postal Service", "operator:short": "USPS", "operator:type": "public", "operator:wikidata": "Q668687", "ref": "7111800032"}, "type": "Feature"}
{"geometry": {"coordinates": [-93.799720012, 32.401510003], "type": "Point"}, "id": "jRBg5cdlNJlq5ys3R1hrPYqVcfY=", "properties": {"@source_uri": "https://tools.usps.com/UspsToolsRestServices/rest/POLocator/findLocations", "@spider": "usps_collection_boxes", "addr:city": "SHREVEPORT", "addr:country": "US", "addr:postcode": "71118", "addr:state": "LA", "addr:street_address": "2533 BERT KOUNS INDUSTRIAL LOOP", "amenity": "post_box", "collection_times": "Mo-Sa 11:30", "nsi_id": "unitedstatespostalservice-a77078", "operator": "United States Postal Service", "operator:short": "USPS", "operator:type": "public", "operator:wikidata": "Q668687", "ref": "7111800033"}, "type": "Feature"}
{"geometry": {"coordinates": [-93.797109972, 32.402729989], "type": "Point"}, "id": "r5IlvyFUsZkcHWzVQnNj1Smn0OA=", "properties": {"@source_uri": "https://tools.usps.com/UspsToolsRestServices/rest/POLocator/findLocations", "@spider": "usps_collection_boxes", "addr:city": "SHREVEPORT", "addr:country": "US", "addr:postcode": "71118", "addr:state": "LA", "addr:street_address": "2520 BERT KOUNS INDUSTRIAL LOOP", "amenity": "post_box", "collection_times": "Mo-Sa 09:00", "nsi_id": "unitedstatespostalservice-a77078", "operator": "United States Postal Service", "operator:short": "USPS", "operator:type": "public", "operator:wikidata": "Q668687", "ref": "7111800041"}, "type": "Feature"}
{"geometry": {"coordinates": [-93.870799976, 32.449250013], "type": "Point"}, "id": "Y29gIYu8o755-rZzld6PO9ubXEQ=", "properties": {"@source_uri": "https://tools.usps.com/UspsToolsRestServices/rest/POLocator/findLocations", "@spider": "usps_collection_boxes", "addr:city": "SHREVEPORT", "addr:country": "US", "addr:postcode": "71119", "addr:state": "LA", "addr:street_address": "6301 WESTPORT AVE", "amenity": "post_box", "collection_times": "Mo-Sa 10:00", "nsi_id": "unitedstatespostalservice-a77078", "operator": "United States Postal Service", "operator:short": "USPS", "operator:type": "public", "operator:wikidata": "Q668687", "ref": "7111900006"}, "type": "Feature"}
{"geometry": {"coordinates": [-93.866770041, 32.478799993], "type": "Point"}, "id": "iVqu6r6WZABPNSV-HCFkE4M24h8=", "properties": {"@source_uri": "https://tools.usps.com/UspsToolsRestServices/rest/POLocator/findLocations", "@spider": "usps_collection_boxes", "addr:city": "SHREVEPORT", "addr:country": "US", "addr:postcode": "71119", "addr:state": "LA", "addr:street_address": "3620 PINES RD", "amenity": "post_box", "collection_times": "Mo-Fr 14:30; Sa 11:15", "note": "ON 12/24 AND 12/31, THIS BOX MAY BE COLLECTED AS EARLY AS 12 NOON.", "nsi_id": "unitedstatespostalservice-a77078", "operator": "United States Postal Service", "operator:short": "USPS", "operator:type": "public", "operator:wikidata": "Q668687", "ref": "7111900007"}, "type": "Feature"}
{"geometry": {"coordinates": [-93.873325356, 32.405871695], "type": "Point"}, "id": "9bgyAvKe6MCJvweqW3zBv0CGxM0=", "properties": {"@source_uri": "https://tools.usps.com/UspsToolsRestServices/rest/POLocator/findLocations", "@spider": "usps_collection_boxes", "addr:city": "SHREVEPORT", "addr:country": "US", "addr:postcode": "71129", "addr:state": "LA", "addr:street_address": "6201 BERT KOUNS INDUSTRIAL LOOP", "amenity": "post_box", "collection_times": "Mo-Sa 10:00", "nsi_id": "unitedstatespostalservice-a77078", "operator": "United States Postal Service", "operator:short": "USPS", "operator:type": "public", "operator:wikidata": "Q668687", "ref": "7112900008"}, "type": "Feature"}
{"geometry": {"coordinates": [-93.862619993, 32.448040001], "type": "Point"}, "id": "OogG_ToJIYg6KDpwO3hwUDMCRgw=", "properties": {"@source_uri": "https://tools.usps.com/UspsToolsRestServices/rest/POLocator/findLocations", "@spider": "usps_collection_boxes", "addr:city": "SHREVEPORT", "addr:country": "US", "addr:postcode": "71129", "addr:state": "LA", "addr:street_address": "6719 PINES RD", "amenity": "post_box", "collection_times": "Mo-Fr 17:00; Sa 16:30", "note": "ON 12/24 AND 12/31, THIS BOX MAY BE COLLECTED AS EARLY AS 12 NOON.", "nsi_id": "unitedstatespostalservice-a77078", "operator": "United States Postal Service", "operator:short": "USPS", "operator:type": "public", "operator:wikidata": "Q668687", "ref": "7112900023"}, "type": "Feature"}
{"geometry": {"coordinates": [-93.861536775, 32.433956703], "type": "Point"}, "id": "E5NKMIzpkElqcksCf9iYwEeKOBU=", "properties": {"@source_uri": "https://tools.usps.com/UspsToolsRestServices/rest/POLocator/findLocations", "@spider": "usps_collection_boxes", "addr:city": "SHREVEPORT", "addr:country": "US", "addr:postcode": "71129", "addr:state": "LA", "addr:street_address": "7621 PINES RD", "amenity": "post_box", "collection_times": "Mo-Sa 09:35", "nsi_id": "unitedstatespostalservice-a77078", "operator": "United States Postal Service", "operator:short": "USPS", "operator:type": "public", "operator:wikidata": "Q668687", "ref": "7112900027"}, "type": "Feature"}
{"geometry": {"coordinates": [-93.862619993, 32.448040001], "type": "Point"}, "id": "cV-I-y2V_OtiAus8YdMKSDI48U4=", "properties": {"@source_uri": "https://tools.usps.com/UspsToolsRestServices/rest/POLocator/findLocations", "@spider": "usps_collection_boxes", "addr:city": "SHREVEPORT", "addr:country": "US", "addr:postcode": "71129", "addr:state": "LA", "addr:street_address": "6719 PINES RD", "amenity": "post_box", "collection_times": "Mo-Fr 17:00; Sa 16:30", "indoor": "yes", "note": "ON 12/24 AND 12/31, THIS BOX MAY BE COLLECTED AS EARLY AS 12 NOON.", "nsi_id": "unitedstatespostalservice-a77078", "operator": "United States Postal Service", "operator:short": "USPS", "operator:type": "public", "operator:wikidata": "Q668687", "ref": "7112900029"}, "type": "Feature"}
{"geometry": {"coordinates": [-93.862619993, 32.448040001], "type": "Point"}, "id": "kxkOCSIRrP2PvQWc1SOJcGBa2do=", "properties": {"@source_uri": "https://tools.usps.com/UspsToolsRestServices/rest/POLocator/findLocations", "@spider": "usps_collection_boxes", "addr:city": "SHREVEPORT", "addr:country": "US", "addr:postcode": "71129", "addr:state": "LA", "addr:street_address": "6719 PINES RD", "amenity": "post_box", "collection_times": "Mo-Fr 17:15", "indoor": "yes", "note": "ON 12/24 AND 12/31, THIS BOX MAY BE COLLECTED AS EARLY AS 12 NOON.", "nsi_id": "unitedstatespostalservice-a77078", "operator": "United States Postal Service", "operator:short": "USPS", "operator:type": "public", "operator:wikidata": "Q668687", "ref": "7112900034"}, "type": "Feature"}
