{"geometry": {"coordinates": [-91.7465539393, 32.2568233553], "type": "Point"}, "id": "wb1ZYeZUQeOB7lvH_YQdyA-zqNo=", "properties": {"@spider": "usps_collection_boxes", "addr:city": "BASKIN", "addr:country": "US", "addr:full": "1179 HIGHWAY 15", "addr:postcode": "71219", "addr:state": "LA", "brand": "USPS", "collection_times": "Mo-Fr 11:00; Sa 08:00", "name": "USPS COLLECTION BOX - BLUE BOX", "ref": "7121900001"}, "type": "Feature"}
{"geometry": {"coordinates": [-91.1702599894, 32.8027799971], "type": "Point"}, "id": "y94TJ0KTeG-ByaLHp5Hs5zJ8ASM=", "properties": {"@spider": "usps_collection_boxes", "addr:city": "LAKE PROVIDENCE", "addr:country": "US", "addr:full": "202 SPARROW ST", "addr:postcode": "71254", "addr:state": "LA", "brand": "USPS", "collection_times": "Mo-Sa 14:45", "name": "USPS COLLECTION BOX - PO LOBBY", "note": "ON 12/24 AND 12/31, THIS BOX MAY BE COLLECTED AS EARLY AS 12 NOON.", "ref": "7125400016"}, "type": "Feature"}
{"geometry": {"coordinates": [-91.7594254327, 32.477402388], "type": "Point"}, "id": "EE4CkPYDBjsd1-VEOZyY_j57BZ4=", "properties": {"@spider": "usps_collection_boxes", "addr:city": "RAYVILLE", "addr:country": "US", "addr:full": "103 BENEDETTE ST", "addr:postcode": "71269", "addr:state": "LA", "brand": "USPS", "collection_times": "Mo-Fr 15:45; Sa 08:30", "name": "USPS COLLECTION BOX - BLUE BOX", "note": "ON 12/24 AND 12/31, THIS BOX MAY BE COLLECTED AS EARLY AS 12 NOON.", "ref": "7126900003"}, "type": "Feature"}
{"geometry": {"coordinates": [-91.7594254327, 32.477402388], "type": "Point"}, "id": "5Q7f0VlT0JEdJxP-CrxWWuwedHc=", "properties": {"@spider": "usps_collection_boxes", "addr:city": "RAYVILLE", "addr:country": "US", "addr:full": "103 BENEDETTE ST", "addr:postcode": "71269", "addr:state": "LA", "brand": "USPS", "collection_times": "Mo-Fr 15:45; Sa 08:30", "name": "USPS COLLECTION BOX - BLUE BOX", "note": "ON 12/24 AND 12/31, THIS BOX MAY BE COLLECTED AS EARLY AS 12 NOON.", "ref": "7126900004"}, "type": "Feature"}
{"geometry": {"coordinates": [-92.6283799729, 32.5312199968], "type": "Point"}, "id": "A870brnuxpoyZQsOXMz9ICP-d3A=", "properties": {"@spider": "usps_collection_boxes", "addr:city": "RUSTON", "addr:country": "US", "addr:full": "700 E GEORGIA AVE", "addr:postcode": "71270", "addr:state": "LA", "brand": "USPS", "collection_times": "Mo-Fr 17:00; Sa 15:00", "name": "USPS COLLECTION BOX - PO LOBBY", "note": "ON 12/24 AND 12/31, THIS BOX MAY BE COLLECTED AS EARLY AS 12 NOON.", "ref": "7127000038"}, "type": "Feature"}
{"geometry": {"coordinates": [-92.6283799729, 32.5312199968], "type": "Point"}, "id": "pA-J5qj1ZCqg124bEHwN8a5uIOk=", "properties": {"@spider": "usps_collection_boxes", "addr:city": "RUSTON", "addr:country": "US", "addr:full": "700 E GEORGIA AVE", "addr:postcode": "71270", "addr:state": "LA", "brand": "USPS", "collection_times": "Mo-Fr 17:00; Sa 15:00", "name": "USPS COLLECTION BOX - PO LOBBY", "note": "ON 12/24 AND 12/31, THIS BOX MAY BE COLLECTED AS EARLY AS 12 NOON.", "ref": "7127000039"}, "type": "Feature"}
{"geometry": {"coordinates": [-92.6283799729, 32.5312199968], "type": "Point"}, "id": "A0vISS9tGuggcWKb8wQEcfx52pQ=", "properties": {"@spider": "usps_collection_boxes", "addr:city": "RUSTON", "addr:country": "US", "addr:full": "700 E GEORGIA AVE", "addr:postcode": "71270", "addr:state": "LA", "brand": "USPS", "collection_times": "Mo-Fr 17:00; Sa 15:00", "name": "USPS COLLECTION BOX - PO LOBBY", "note": "ON 12/24 AND 12/31, THIS BOX MAY BE COLLECTED AS EARLY AS 12 NOON.", "ref": "7127000047"}, "type": "Feature"}
{"geometry": {"coordinates": [-92.6283799729, 32.5312199968], "type": "Point"}, "id": "ltEQk8A2JQsBsUPMxMrT_ck6auI=", "properties": {"@spider": "usps_collection_boxes", "addr:city": "RUSTON", "addr:country": "US", "addr:full": "700 E GEORGIA AVE", "addr:postcode": "71270", "addr:state": "LA", "brand": "USPS", "collection_times": "Mo-Fr 16:30", "name": "USPS COLLECTION BOX - PO LOBBY", "note": "ON 12/24 AND 12/31, THIS BOX MAY BE COLLECTED AS EARLY AS 12 NOON.", "ref": "7127000051"}, "type": "Feature"}
