{"geometry": {"coordinates": [-93.340919, 31.249914], "type": "Point"}, "id": "XD7xJ1ls0_ztilIYv0RR-PopSnk=", "properties": {"@spider": "usps_collection_boxes", "addr:city": "ANACOCO", "addr:country": "US", "addr:full": "4658 MAIN ST", "addr:postcode": "71403", "addr:state": "LA", "brand": "USPS", "collection_times": "Mo-Fr 15:00; Sa 09:00", "name": "USPS COLLECTION BOX - BLUE BOX", "note": "ON 12/24 AND 12/31, THIS BOX MAY BE COLLECTED AS EARLY AS 12 NOON.", "ref": "7140300001"}, "type": "Feature"}
{"geometry": {"coordinates": [-93.340919, 31.249914], "type": "Point"}, "id": "7gDnlwyl5QoVM44blMzPURUjmfg=", "properties": {"@spider": "usps_collection_boxes", "addr:city": "ANACOCO", "addr:country": "US", "addr:full": "4658 MAIN ST", "addr:postcode": "71403", "addr:state": "LA", "brand": "USPS", "collection_times": "Mo-Fr 15:00", "name": "USPS COLLECTION BOX - PO LOBBY", "note": "ON 12/24 AND 12/31, THIS BOX MAY BE COLLECTED AS EARLY AS 12 NOON.", "ref": "7140300003"}, "type": "Feature"}
{"geometry": {"coordinates": [-93.340936936, 31.249871824], "type": "Point"}, "id": "AOIbShzxTfwINyW66gDmbSpmxUk=", "properties": {"@spider": "usps_collection_boxes", "addr:city": "ANACOCO", "addr:country": "US", "addr:full": "4658 MAIN ST", "addr:postcode": "71403", "addr:state": "LA", "brand": "USPS", "collection_times": "Mo-Fr 15:30; Sa 09:00", "name": "USPS COLLECTION BOX - PO LOBBY", "note": "ON 12/24 AND 12/31, THIS BOX MAY BE COLLECTED AS EARLY AS 12 NOON.", "ref": "7140300004"}, "type": "Feature"}
{"geometry": {"coordinates": [-92.737195, 31.805837], "type": "Point"}, "id": "Hm8Ld3cRuxtU4CP7Qpr-UAV62mI=", "properties": {"@spider": "usps_collection_boxes", "addr:city": "ATLANTA", "addr:country": "US", "addr:full": "12288 MAIN ST", "addr:postcode": "71404", "addr:state": "LA", "brand": "USPS", "collection_times": "Mo-Fr 14:00; Sa 08:30", "name": "USPS COLLECTION BOX - BLUE BOX", "note": "ON 12/24 AND 12/31, THIS BOX MAY BE COLLECTED AS EARLY AS 12 NOON.", "ref": "7140400001"}, "type": "Feature"}
{"geometry": {"coordinates": [-92.737195, 31.805837], "type": "Point"}, "id": "lTNraYFznijOTNwuLuTY4rCfFgk=", "properties": {"@spider": "usps_collection_boxes", "addr:city": "ATLANTA", "addr:country": "US", "addr:full": "12288 MAIN ST", "addr:postcode": "71404", "addr:state": "LA", "brand": "USPS", "collection_times": "Mo-Fr 14:00; Sa 08:30", "name": "USPS COLLECTION BOX - PO LOBBY", "note": "ON 12/24 AND 12/31, THIS BOX MAY BE COLLECTED AS EARLY AS 12 NOON.", "ref": "7140400003"}, "type": "Feature"}
{"geometry": {"coordinates": [-92.737251641, 31.805847221], "type": "Point"}, "id": "JpY2fpd85LSQVtny1JT8dvd7NdE=", "properties": {"@spider": "usps_collection_boxes", "addr:city": "ATLANTA", "addr:country": "US", "addr:full": "12288 MAIN ST", "addr:postcode": "71404", "addr:state": "LA", "brand": "USPS", "collection_times": "Mo-Fr 14:00", "name": "USPS COLLECTION BOX - PO LOBBY", "note": "ON 12/24 AND 12/31, THIS BOX MAY BE COLLECTED AS EARLY AS 12 NOON.", "ref": "7140400004"}, "type": "Feature"}
{"geometry": {"coordinates": [-92.41162, 31.40857], "type": "Point"}, "id": "SByMxy3zsRioJE6YXXEXlPqnTZw=", "properties": {"@spider": "usps_collection_boxes", "addr:city": "BALL", "addr:country": "US", "addr:full": "5912 MONROE HWY", "addr:postcode": "71405", "addr:state": "LA", "brand": "USPS", "collection_times": "Mo-Fr 15:00; Sa 07:00", "name": "USPS COLLECTION BOX - BLUE BOX", "note": "ON 12/24 AND 12/31, THIS BOX MAY BE COLLECTED AS EARLY AS 12 NOON.", "ref": "7140500000"}, "type": "Feature"}
{"geometry": {"coordinates": [-92.41162, 31.40857], "type": "Point"}, "id": "wbQ2eVcn_yXEQJB38Qa9aWy5jts=", "properties": {"@spider": "usps_collection_boxes", "addr:city": "BALL", "addr:country": "US", "addr:full": "5912 MONROE HWY", "addr:postcode": "71405", "addr:state": "LA", "brand": "USPS", "collection_times": "Mo-Fr 15:00; Sa 07:00", "name": "USPS COLLECTION BOX - BLUE BOX", "note": "ON 12/24 AND 12/31, THIS BOX MAY BE COLLECTED AS EARLY AS 12 NOON.", "ref": "7140500001"}, "type": "Feature"}
{"geometry": {"coordinates": [-92.41162, 31.40857], "type": "Point"}, "id": "xFy1WtJTXICsHkQGcYfttlANfj8=", "properties": {"@spider": "usps_collection_boxes", "addr:city": "BALL", "addr:country": "US", "addr:full": "5912 MONROE HWY", "addr:postcode": "71405", "addr:state": "LA", "brand": "USPS", "collection_times": "Mo-Fr 15:00", "name": "USPS COLLECTION BOX - PO LOBBY", "note": "ON 12/24 AND 12/31, THIS BOX MAY BE COLLECTED AS EARLY AS 12 NOON.", "ref": "7140500002"}, "type": "Feature"}
{"geometry": {"coordinates": [-92.411900531, 31.408514769], "type": "Point"}, "id": "QWmZepCfJVJqNghWv0brMjazOP4=", "properties": {"@spider": "usps_collection_boxes", "addr:city": "BALL", "addr:country": "US", "addr:full": "5912 MONROE HWY", "addr:postcode": "71405", "addr:state": "LA", "brand": "USPS", "collection_times": "Mo-Fr 16:00", "name": "USPS COLLECTION BOX - PO LOBBY", "note": "ON 12/24 AND 12/31, THIS BOX MAY BE COLLECTED AS EARLY AS 12 NOON.", "ref": "7140500003"}, "type": "Feature"}
{"geometry": {"coordinates": [-93.512851, 31.723127], "type": "Point"}, "id": "3aEs8StYl01LNI8PTpYMB9swJoE=", "properties": {"@spider": "usps_collection_boxes", "addr:city": "BELMONT", "addr:country": "US", "addr:full": "9160 HIGHWAY 175", "addr:postcode": "71406", "addr:state": "LA", "brand": "USPS", "collection_times": "Mo-Fr 15:00; Sa 10:15", "name": "USPS COLLECTION BOX - BLUE BOX", "note": "ON 12/24 AND 12/31, THIS BOX MAY BE COLLECTED AS EARLY AS 12 NOON.", "ref": "7140600001"}, "type": "Feature"}
{"geometry": {"coordinates": [-93.512851, 31.723127], "type": "Point"}, "id": "HqXQTfnT_3sZBr7c7q_ax2CUKMQ=", "properties": {"@spider": "usps_collection_boxes", "addr:city": "BELMONT", "addr:country": "US", "addr:full": "9160 HIGHWAY 175", "addr:postcode": "71406", "addr:state": "LA", "brand": "USPS", "collection_times": "Mo-Fr 15:00", "name": "USPS COLLECTION BOX - PO LOBBY", "note": "ON 12/24 AND 12/31, THIS BOX MAY BE COLLECTED AS EARLY AS 12 NOON.", "ref": "7140600002"}, "type": "Feature"}
{"geometry": {"coordinates": [-93.512878957, 31.723098131], "type": "Point"}, "id": "RADquTcIqPp9c3sLPQPTTPQtflU=", "properties": {"@spider": "usps_collection_boxes", "addr:city": "BELMONT", "addr:country": "US", "addr:full": "9160 HIGHWAY 175", "addr:postcode": "71406", "addr:state": "LA", "brand": "USPS", "collection_times": "Mo-Fr 15:00", "name": "USPS COLLECTION BOX - PO LOBBY", "note": "ON 12/24 AND 12/31, THIS BOX MAY BE COLLECTED AS EARLY AS 12 NOON.", "ref": "7140600003"}, "type": "Feature"}
{"geometry": {"coordinates": [-92.491115, 31.500663], "type": "Point"}, "id": "EnGZR9YMHfVcsryeBUAzlHVBzPQ=", "properties": {"@spider": "usps_collection_boxes", "addr:city": "BENTLEY", "addr:country": "US", "addr:full": "19497 HIGHWAY 167", "addr:postcode": "71407", "addr:state": "LA", "brand": "USPS", "collection_times": "Mo-Fr 14:00; Sa 08:00", "name": "USPS COLLECTION BOX - BLUE BOX", "note": "ON 12/24 AND 12/31, THIS BOX MAY BE COLLECTED AS EARLY AS 12 NOON.", "ref": "7140700001"}, "type": "Feature"}
{"geometry": {"coordinates": [-92.491115, 31.500663], "type": "Point"}, "id": "EMAZIFNTu5VAq3f-WhcPECM6SiI=", "properties": {"@spider": "usps_collection_boxes", "addr:city": "BENTLEY", "addr:country": "US", "addr:full": "19497 HIGHWAY 167", "addr:postcode": "71407", "addr:state": "LA", "brand": "USPS", "collection_times": "Mo-Fr 14:00; Sa 08:00", "name": "USPS COLLECTION BOX - PO LOBBY", "note": "ON 12/24 AND 12/31, THIS BOX MAY BE COLLECTED AS EARLY AS 12 NOON.", "ref": "7140700002"}, "type": "Feature"}
{"geometry": {"coordinates": [-92.492200191, 31.503139177], "type": "Point"}, "id": "6HQ-k8ZunpjDkqmtLsnBW4OFXJk=", "properties": {"@spider": "usps_collection_boxes", "addr:city": "BENTLEY", "addr:country": "US", "addr:full": "19497 HIGHWAY 167", "addr:postcode": "71407", "addr:state": "LA", "brand": "USPS", "collection_times": "Mo-Fr 14:15", "name": "USPS COLLECTION BOX - PO LOBBY", "note": "ON 12/24 AND 12/31, THIS BOX MAY BE COLLECTED AS EARLY AS 12 NOON.", "ref": "7140700004"}, "type": "Feature"}
{"geometry": {"coordinates": [-92.6654239, 31.384486], "type": "Point"}, "id": "vD_qkOnt_ha2bFODjSTUgL2NaxA=", "properties": {"@spider": "usps_collection_boxes", "addr:city": "BOYCE", "addr:country": "US", "addr:full": "95 PACIFIC AVE", "addr:postcode": "71409", "addr:state": "LA", "brand": "USPS", "collection_times": "Mo-Fr 16:00; Sa 11:00", "name": "USPS COLLECTION BOX - PO LOBBY", "note": "ON 12/24 AND 12/31, THIS BOX MAY BE COLLECTED AS EARLY AS 12 NOON.", "ref": "7140900004"}, "type": "Feature"}
{"geometry": {"coordinates": [-92.6653618, 31.384787], "type": "Point"}, "id": "foV_heUp8E2Cvh8-qqFocaLKFF0=", "properties": {"@spider": "usps_collection_boxes", "addr:city": "BOYCE", "addr:country": "US", "addr:full": "95 PACIFIC AVE", "addr:postcode": "71409", "addr:state": "LA", "brand": "USPS", "collection_times": "Mo-Fr 16:00; Sa 11:00", "name": "USPS COLLECTION BOX - BLUE BOX", "note": "ON 12/24 AND 12/31, THIS BOX MAY BE COLLECTED AS EARLY AS 12 NOON.", "ref": "7140900005"}, "type": "Feature"}
{"geometry": {"coordinates": [-92.665530512, 31.385142767], "type": "Point"}, "id": "jKqmqiJ0SDdKAvTJnzPEvGqg-H8=", "properties": {"@spider": "usps_collection_boxes", "addr:city": "BOYCE", "addr:country": "US", "addr:full": "95 PACIFIC AVE", "addr:postcode": "71409", "addr:state": "LA", "brand": "USPS", "collection_times": "Mo-Fr 16:00; Sa 10:30", "name": "USPS COLLECTION BOX - PO LOBBY", "note": "ON 12/24 AND 12/31, THIS BOX MAY BE COLLECTED AS EARLY AS 12 NOON.", "ref": "7140900007"}, "type": "Feature"}
{"geometry": {"coordinates": [-92.77741, 31.964972], "type": "Point"}, "id": "KvuDC3r0ZKc9XwMiTrdqVdDepGo=", "properties": {"@spider": "usps_collection_boxes", "addr:city": "CALVIN", "addr:country": "US", "addr:full": "279 3RD ST", "addr:postcode": "71410", "addr:state": "LA", "brand": "USPS", "collection_times": "Mo-Fr 14:00; Sa 09:00", "name": "USPS COLLECTION BOX - PO LOBBY", "note": "ON 12/24 AND 12/31, THIS BOX MAY BE COLLECTED AS EARLY AS 12 NOON.", "ref": "7141000000"}, "type": "Feature"}
{"geometry": {"coordinates": [-92.77741, 31.964972], "type": "Point"}, "id": "uo9VDKAQuIcxkBjFELOZmF4oLIU=", "properties": {"@spider": "usps_collection_boxes", "addr:city": "CALVIN", "addr:country": "US", "addr:full": "279 3RD ST", "addr:postcode": "71410", "addr:state": "LA", "brand": "USPS", "collection_times": "Mo-Fr 14:00; Sa 09:00", "name": "USPS COLLECTION BOX - BLUE BOX", "note": "ON 12/24 AND 12/31, THIS BOX MAY BE COLLECTED AS EARLY AS 12 NOON.", "ref": "7141000001"}, "type": "Feature"}
{"geometry": {"coordinates": [-92.777357805, 31.965187557], "type": "Point"}, "id": "2r6c63Jhhvw_VMLnlUsCbu8H_Wg=", "properties": {"@spider": "usps_collection_boxes", "addr:city": "CALVIN", "addr:country": "US", "addr:full": "279 3RD ST", "addr:postcode": "71410", "addr:state": "LA", "brand": "USPS", "collection_times": "Mo-Fr 14:00; Sa 09:30", "name": "USPS COLLECTION BOX - PO LOBBY", "note": "ON 12/24 AND 12/31, THIS BOX MAY BE COLLECTED AS EARLY AS 12 NOON.", "ref": "7141000002"}, "type": "Feature"}
{"geometry": {"coordinates": [-93.11292, 31.895363], "type": "Point"}, "id": "pEg7fA5QEoXb7CrNfOILDSnTOWY=", "properties": {"@spider": "usps_collection_boxes", "addr:city": "CAMPTI", "addr:country": "US", "addr:full": "3070 HIGHWAY 71", "addr:postcode": "71411", "addr:state": "LA", "brand": "USPS", "collection_times": "Mo-Fr 15:15", "name": "USPS COLLECTION BOX - BLUE BOX", "note": "ON 12/24 AND 12/31, THIS BOX MAY BE COLLECTED AS EARLY AS 12 NOON.", "ref": "7141100002"}, "type": "Feature"}
{"geometry": {"coordinates": [-93.11292, 31.895363], "type": "Point"}, "id": "EvXQZH6Me8wf9Jb9Z5d-5ostNBY=", "properties": {"@spider": "usps_collection_boxes", "addr:city": "CAMPTI", "addr:country": "US", "addr:full": "3070 HIGHWAY 71", "addr:postcode": "71411", "addr:state": "LA", "brand": "USPS", "collection_times": "Mo-Fr 15:15", "name": "USPS COLLECTION BOX - PO LOBBY", "note": "ON 12/24 AND 12/31, THIS BOX MAY BE COLLECTED AS EARLY AS 12 NOON.", "ref": "7141100004"}, "type": "Feature"}
{"geometry": {"coordinates": [-93.112956964, 31.895368675], "type": "Point"}, "id": "khF5waYxFvkjvQwFlxAG09mcF34=", "properties": {"@spider": "usps_collection_boxes", "addr:city": "CAMPTI", "addr:country": "US", "addr:full": "3070 HIGHWAY 71", "addr:postcode": "71411", "addr:state": "LA", "brand": "USPS", "collection_times": "Mo-Fr 15:30", "name": "USPS COLLECTION BOX - PO LOBBY", "note": "ON 12/24 AND 12/31, THIS BOX MAY BE COLLECTED AS EARLY AS 12 NOON.", "ref": "7141100005"}, "type": "Feature"}
{"geometry": {"coordinates": [-93.02999, 31.821566], "type": "Point"}, "id": "9--MAryYt4a48HJcA7NI_Zf0NGI=", "properties": {"@spider": "usps_collection_boxes", "addr:city": "CLARENCE", "addr:country": "US", "addr:full": "5978 HIGHWAY 71", "addr:postcode": "71414", "addr:state": "LA", "brand": "USPS", "collection_times": "Mo-Fr 11:30; Sa 07:00", "name": "USPS COLLECTION BOX - BLUE BOX", "ref": "7141400001"}, "type": "Feature"}
{"geometry": {"coordinates": [-93.029913, 31.821544], "type": "Point"}, "id": "kCLhEV5ODAwDBece0xKGNT28Zeg=", "properties": {"@spider": "usps_collection_boxes", "addr:city": "CLARENCE", "addr:country": "US", "addr:full": "5978 HIGHWAY 71", "addr:postcode": "71414", "addr:state": "LA", "brand": "USPS", "collection_times": "Mo-Fr 11:30; Sa 07:00", "name": "USPS COLLECTION BOX - PO LOBBY", "ref": "7141400002"}, "type": "Feature"}
{"geometry": {"coordinates": [-93.0299902336, 31.8215067883], "type": "Point"}, "id": "rcaUr6sT179jrUAsKQUQAQCexTI=", "properties": {"@spider": "usps_collection_boxes", "addr:city": "CLARENCE", "addr:country": "US", "addr:full": "5978 HIGHWAY 71", "addr:postcode": "71414", "addr:state": "LA", "brand": "USPS", "collection_times": "Mo-Fr 12:00", "name": "USPS COLLECTION BOX - PO LOBBY", "ref": "7141400003"}, "type": "Feature"}
{"geometry": {"coordinates": [-92.13843, 32.036203], "type": "Point"}, "id": "6oXuVa7VOcUk-faw-4EngGyZ82g=", "properties": {"@spider": "usps_collection_boxes", "addr:city": "CLARKS", "addr:country": "US", "addr:full": "1710 HIGHWAY 845", "addr:postcode": "71415", "addr:state": "LA", "brand": "USPS", "collection_times": "Mo-Fr 14:00; Sa 07:45", "name": "USPS COLLECTION BOX - BLUE BOX", "note": "ON 12/24 AND 12/31, THIS BOX MAY BE COLLECTED AS EARLY AS 12 NOON.", "ref": "7141500001"}, "type": "Feature"}
{"geometry": {"coordinates": [-92.13843, 32.036203], "type": "Point"}, "id": "nb3S-K6dPsWcbD531jRVD2VEIRU=", "properties": {"@spider": "usps_collection_boxes", "addr:city": "CLARKS", "addr:country": "US", "addr:full": "1710 HIGHWAY 845", "addr:postcode": "71415", "addr:state": "LA", "brand": "USPS", "collection_times": "Mo-Fr 14:00", "name": "USPS COLLECTION BOX - PO LOBBY", "note": "ON 12/24 AND 12/31, THIS BOX MAY BE COLLECTED AS EARLY AS 12 NOON.", "ref": "7141500002"}, "type": "Feature"}
{"geometry": {"coordinates": [-92.139199955, 32.026694545], "type": "Point"}, "id": "Nq84g3nUcAg9cHMx2-aX7dBCV6c=", "properties": {"@spider": "usps_collection_boxes", "addr:city": "CLARKS", "addr:country": "US", "addr:full": "1710 HIGHWAY 845", "addr:postcode": "71415", "addr:state": "LA", "brand": "USPS", "collection_times": "Mo-Fr 14:00", "name": "USPS COLLECTION BOX - PO LOBBY", "note": "ON 12/24 AND 12/31, THIS BOX MAY BE COLLECTED AS EARLY AS 12 NOON.", "ref": "7141500003"}, "type": "Feature"}
{"geometry": {"coordinates": [-92.917314, 31.534973], "type": "Point"}, "id": "sndRQQZrPSPGBdOJHuYNSo-ZuxI=", "properties": {"@spider": "usps_collection_boxes", "addr:city": "CLOUTIERVILLE", "addr:country": "US", "addr:full": "14904 HIGHWAY 1", "addr:postcode": "71416", "addr:state": "LA", "brand": "USPS", "collection_times": "Mo-Fr 10:45; Sa 08:00", "name": "USPS COLLECTION BOX - BLUE BOX", "ref": "7141600001"}, "type": "Feature"}
{"geometry": {"coordinates": [-92.9173739, 31.534652], "type": "Point"}, "id": "5ZL8pS3XYS8kfQAyxvU1om44OEo=", "properties": {"@spider": "usps_collection_boxes", "addr:city": "CLOUTIERVILLE", "addr:country": "US", "addr:full": "14904 HIGHWAY 1", "addr:postcode": "71416", "addr:state": "LA", "brand": "USPS", "collection_times": "Mo-Fr 10:45", "name": "USPS COLLECTION BOX - PO LOBBY", "ref": "7141600002"}, "type": "Feature"}
{"geometry": {"coordinates": [-92.917312952, 31.534964594], "type": "Point"}, "id": "7F045Wm5zR8y6lWYO-8ix5A5HMo=", "properties": {"@spider": "usps_collection_boxes", "addr:city": "CLOUTIERVILLE", "addr:country": "US", "addr:full": "14904 HIGHWAY 1", "addr:postcode": "71416", "addr:state": "LA", "brand": "USPS", "collection_times": "Mo-Fr 11:00", "name": "USPS COLLECTION BOX - PO LOBBY", "ref": "7141600003"}, "type": "Feature"}
{"geometry": {"coordinates": [-92.709284239, 31.522325266], "type": "Point"}, "id": "fAx34RbKBpcDyLYUgqXUaBWqUHg=", "properties": {"@spider": "usps_collection_boxes", "addr:city": "COLFAX", "addr:country": "US", "addr:full": "707 8TH ST", "addr:postcode": "71417", "addr:state": "LA", "brand": "USPS", "collection_times": "Mo-Fr 14:30; Sa 10:00", "name": "USPS COLLECTION BOX - BLUE BOX", "note": "ON 12/24 AND 12/31, THIS BOX MAY BE COLLECTED AS EARLY AS 12 NOON.", "ref": "7141700003"}, "type": "Feature"}
{"geometry": {"coordinates": [-92.709284239, 31.522325266], "type": "Point"}, "id": "3Ela2DUOde73lZqaMyBy7_JGFFk=", "properties": {"@spider": "usps_collection_boxes", "addr:city": "COLFAX", "addr:country": "US", "addr:full": "707 8TH ST", "addr:postcode": "71417", "addr:state": "LA", "brand": "USPS", "collection_times": "Mo-Fr 14:30; Sa 10:00", "name": "USPS COLLECTION BOX - PO LOBBY", "note": "ON 12/24 AND 12/31, THIS BOX MAY BE COLLECTED AS EARLY AS 12 NOON.", "ref": "7141700006"}, "type": "Feature"}
{"geometry": {"coordinates": [-92.709284239, 31.522325266], "type": "Point"}, "id": "8wiNDumP7dVNZ3FXoRXjDM8WWEY=", "properties": {"@spider": "usps_collection_boxes", "addr:city": "COLFAX", "addr:country": "US", "addr:full": "707 8TH ST", "addr:postcode": "71417", "addr:state": "LA", "brand": "USPS", "collection_times": "Mo-Fr 16:00", "name": "USPS COLLECTION BOX - PO LOBBY", "note": "ON 12/24 AND 12/31, THIS BOX MAY BE COLLECTED AS EARLY AS 12 NOON.", "ref": "7141700007"}, "type": "Feature"}
{"geometry": {"coordinates": [-92.072787, 32.103653], "type": "Point"}, "id": "oo41sp0Q-LvXxj8fJ1sD2XenOts=", "properties": {"@spider": "usps_collection_boxes", "addr:city": "COLUMBIA", "addr:country": "US", "addr:full": "305 WALL ST", "addr:postcode": "71418", "addr:state": "LA", "brand": "USPS", "collection_times": "Mo-Fr 14:00; Sa 08:00", "name": "USPS COLLECTION BOX - BLUE BOX", "note": "ON 12/24 AND 12/31, THIS BOX MAY BE COLLECTED AS EARLY AS 12 NOON.", "ref": "7141800001"}, "type": "Feature"}
{"geometry": {"coordinates": [-92.074485, 32.104596], "type": "Point"}, "id": "rC-kDN1DS2hy9s-kDFN13jYH3xA=", "properties": {"@spider": "usps_collection_boxes", "addr:city": "COLUMBIA", "addr:country": "US", "addr:full": "305 WALL ST", "addr:postcode": "71418", "addr:state": "LA", "brand": "USPS", "collection_times": "Mo-Fr 14:00; Sa 08:00", "name": "USPS COLLECTION BOX - BLUE BOX", "note": "ON 12/24 AND 12/31, THIS BOX MAY BE COLLECTED AS EARLY AS 12 NOON.", "ref": "7141800002"}, "type": "Feature"}
{"geometry": {"coordinates": [-92.074485, 32.104596], "type": "Point"}, "id": "z4rsNoEvYc183POC_EbFqWFTxbw=", "properties": {"@spider": "usps_collection_boxes", "addr:city": "COLUMBIA", "addr:country": "US", "addr:full": "305 WALL ST", "addr:postcode": "71418", "addr:state": "LA", "brand": "USPS", "collection_times": "Mo-Fr 14:00", "name": "USPS COLLECTION BOX - PO LOBBY", "note": "ON 12/24 AND 12/31, THIS BOX MAY BE COLLECTED AS EARLY AS 12 NOON.", "ref": "7141800005"}, "type": "Feature"}
{"geometry": {"coordinates": [-92.074496393, 32.104539661], "type": "Point"}, "id": "UyEMzYMf4KQf-IrWdaDqcLtB_Ko=", "properties": {"@spider": "usps_collection_boxes", "addr:city": "COLUMBIA", "addr:country": "US", "addr:full": "305 WALL ST", "addr:postcode": "71418", "addr:state": "LA", "brand": "USPS", "collection_times": "Mo-Fr 16:00", "name": "USPS COLLECTION BOX - PO LOBBY", "note": "ON 12/24 AND 12/31, THIS BOX MAY BE COLLECTED AS EARLY AS 12 NOON.", "ref": "7141800006"}, "type": "Feature"}
{"geometry": {"coordinates": [-93.696687, 31.782117], "type": "Point"}, "id": "vygKQTgW2Afxxz7LyfnUsYontIk=", "properties": {"@spider": "usps_collection_boxes", "addr:city": "CONVERSE", "addr:country": "US", "addr:full": "308 W PORT ARTHUR AVE", "addr:postcode": "71419", "addr:state": "LA", "brand": "USPS", "collection_times": "Mo-Fr 15:00; Sa 08:30", "name": "USPS COLLECTION BOX - BLUE BOX", "note": "ON 12/24 AND 12/31, THIS BOX MAY BE COLLECTED AS EARLY AS 12 NOON.", "ref": "7141900001"}, "type": "Feature"}
{"geometry": {"coordinates": [-93.696687, 31.782117], "type": "Point"}, "id": "W_2UZsOLE3D36Zz3hkLSabu7eus=", "properties": {"@spider": "usps_collection_boxes", "addr:city": "CONVERSE", "addr:country": "US", "addr:full": "308 W PORT ARTHUR AVE", "addr:postcode": "71419", "addr:state": "LA", "brand": "USPS", "collection_times": "Mo-Fr 15:00; Sa 08:30", "name": "USPS COLLECTION BOX - PO LOBBY", "note": "ON 12/24 AND 12/31, THIS BOX MAY BE COLLECTED AS EARLY AS 12 NOON.", "ref": "7141900003"}, "type": "Feature"}
{"geometry": {"coordinates": [-93.696653455, 31.782151076], "type": "Point"}, "id": "fijyD04BxHgPrpws-tozyEWwkgQ=", "properties": {"@spider": "usps_collection_boxes", "addr:city": "CONVERSE", "addr:country": "US", "addr:full": "308 W PORT ARTHUR AVE", "addr:postcode": "71419", "addr:state": "LA", "brand": "USPS", "collection_times": "Mo-Fr 14:45", "name": "USPS COLLECTION BOX - PO LOBBY", "note": "ON 12/24 AND 12/31, THIS BOX MAY BE COLLECTED AS EARLY AS 12 NOON.", "ref": "7141900004"}, "type": "Feature"}
{"geometry": {"coordinates": [-92.659468, 32.078715], "type": "Point"}, "id": "ToQ_09cktqjBxzXqEazIir77UIU=", "properties": {"@spider": "usps_collection_boxes", "addr:city": "DODSON", "addr:country": "US", "addr:full": "104 GANSVILLE RD", "addr:postcode": "71422", "addr:state": "LA", "brand": "USPS", "collection_times": "Mo-Fr 13:00; Sa 09:00", "name": "USPS COLLECTION BOX - BLUE BOX", "note": "ON 12/24 AND 12/31, THIS BOX MAY BE COLLECTED AS EARLY AS 12 NOON.", "ref": "7142200001"}, "type": "Feature"}
{"geometry": {"coordinates": [-92.659468, 32.078715], "type": "Point"}, "id": "qyUxIYOhCkE4s2YWwtB6sdfXzz8=", "properties": {"@spider": "usps_collection_boxes", "addr:city": "DODSON", "addr:country": "US", "addr:full": "104 GANSVILLE RD", "addr:postcode": "71422", "addr:state": "LA", "brand": "USPS", "collection_times": "Mo-Fr 13:00", "name": "USPS COLLECTION BOX - PO LOBBY", "note": "ON 12/24 AND 12/31, THIS BOX MAY BE COLLECTED AS EARLY AS 12 NOON.", "ref": "7142200002"}, "type": "Feature"}
{"geometry": {"coordinates": [-92.659439216, 32.078747858], "type": "Point"}, "id": "PJ5pqTjNNrziwEJx7zxWsSCDpag=", "properties": {"@spider": "usps_collection_boxes", "addr:city": "DODSON", "addr:country": "US", "addr:full": "104 GANSVILLE RD", "addr:postcode": "71422", "addr:state": "LA", "brand": "USPS", "collection_times": "Mo-Fr 13:30", "name": "USPS COLLECTION BOX - PO LOBBY", "note": "ON 12/24 AND 12/31, THIS BOX MAY BE COLLECTED AS EARLY AS 12 NOON.", "ref": "7142200003"}, "type": "Feature"}
{"geometry": {"coordinates": [-92.529149, 31.578033], "type": "Point"}, "id": "GWvVqgKyOWfDBkUDwwnkluY5VzA=", "properties": {"@spider": "usps_collection_boxes", "addr:city": "DRY PRONG", "addr:country": "US", "addr:full": "605 FIRST ST", "addr:postcode": "71423", "addr:state": "LA", "brand": "USPS", "collection_times": "Mo-Fr 14:00; Sa 07:30", "name": "USPS COLLECTION BOX - BLUE BOX", "note": "ON 12/24 AND 12/31, THIS BOX MAY BE COLLECTED AS EARLY AS 12 NOON.", "ref": "7142300001"}, "type": "Feature"}
{"geometry": {"coordinates": [-92.529149, 31.578033], "type": "Point"}, "id": "KEu_5gy-YDD-ujtIuPPrio9er7Q=", "properties": {"@spider": "usps_collection_boxes", "addr:city": "DRY PRONG", "addr:country": "US", "addr:full": "605 FIRST ST", "addr:postcode": "71423", "addr:state": "LA", "brand": "USPS", "collection_times": "Mo-Fr 14:00; Sa 07:30", "name": "USPS COLLECTION BOX - PO LOBBY", "note": "ON 12/24 AND 12/31, THIS BOX MAY BE COLLECTED AS EARLY AS 12 NOON.", "ref": "7142300002"}, "type": "Feature"}
{"geometry": {"coordinates": [-92.529086767, 31.577960709], "type": "Point"}, "id": "NUZcNR_pxGspkNzyROrj4pVVmp4=", "properties": {"@spider": "usps_collection_boxes", "addr:city": "DRY PRONG", "addr:country": "US", "addr:full": "605 FIRST ST", "addr:postcode": "71423", "addr:state": "LA", "brand": "USPS", "collection_times": "Mo-Fr 15:30", "name": "USPS COLLECTION BOX - PO LOBBY", "note": "ON 12/24 AND 12/31, THIS BOX MAY BE COLLECTED AS EARLY AS 12 NOON.", "ref": "7142300005"}, "type": "Feature"}
{"geometry": {"coordinates": [-92.681254, 31.132563], "type": "Point"}, "id": "VK-MWr3JPmqqes8Oaop8-74br30=", "properties": {"@spider": "usps_collection_boxes", "addr:city": "ELMER", "addr:country": "US", "addr:full": "6677 HIGHWAY 112", "addr:postcode": "71424", "addr:state": "LA", "brand": "USPS", "collection_times": "Mo-Fr 13:15; Sa 09:00", "name": "USPS COLLECTION BOX - BLUE BOX", "note": "ON 12/24 AND 12/31, THIS BOX MAY BE COLLECTED AS EARLY AS 12 NOON.", "ref": "7142400001"}, "type": "Feature"}
{"geometry": {"coordinates": [-92.681254, 31.132563], "type": "Point"}, "id": "53c-S_4F9loq8BQRr1gDVsu4zYQ=", "properties": {"@spider": "usps_collection_boxes", "addr:city": "ELMER", "addr:country": "US", "addr:full": "6677 HIGHWAY 112", "addr:postcode": "71424", "addr:state": "LA", "brand": "USPS", "collection_times": "Mo-Fr 13:15; Sa 09:00", "name": "USPS COLLECTION BOX - PO LOBBY", "note": "ON 12/24 AND 12/31, THIS BOX MAY BE COLLECTED AS EARLY AS 12 NOON.", "ref": "7142400002"}, "type": "Feature"}
{"geometry": {"coordinates": [-92.681289959, 31.13252168], "type": "Point"}, "id": "KY65GKrnfqdJ3PvjagRnNXFUdD8=", "properties": {"@spider": "usps_collection_boxes", "addr:city": "ELMER", "addr:country": "US", "addr:full": "6677 HIGHWAY 112", "addr:postcode": "71424", "addr:state": "LA", "brand": "USPS", "collection_times": "Mo-Fr 13:30; Sa 09:30", "name": "USPS COLLECTION BOX - PO LOBBY", "note": "ON 12/24 AND 12/31, THIS BOX MAY BE COLLECTED AS EARLY AS 12 NOON.", "ref": "7142400003"}, "type": "Feature"}
{"geometry": {"coordinates": [-93.466689, 31.493824], "type": "Point"}, "id": "ePioUMUtp4gZEm_gKMNJZyXGUBc=", "properties": {"@spider": "usps_collection_boxes", "addr:city": "FISHER", "addr:country": "US", "addr:full": "737 FOUR L DR", "addr:postcode": "71426", "addr:state": "LA", "brand": "USPS", "collection_times": "Mo-Fr 09:45; Sa 07:30", "name": "USPS COLLECTION BOX - BLUE BOX", "ref": "7142600001"}, "type": "Feature"}
{"geometry": {"coordinates": [-93.466689, 31.493824], "type": "Point"}, "id": "Nrm9-i-h7JwY7ego2AQPGeAbTi4=", "properties": {"@spider": "usps_collection_boxes", "addr:city": "FISHER", "addr:country": "US", "addr:full": "737 FOUR L DR", "addr:postcode": "71426", "addr:state": "LA", "brand": "USPS", "collection_times": "Mo-Fr 09:45; Sa 07:30", "name": "USPS COLLECTION BOX - PO LOBBY", "ref": "7142600002"}, "type": "Feature"}
{"geometry": {"coordinates": [-93.464523564, 31.493793521], "type": "Point"}, "id": "uAxRjNg2H0EQ27HyIrSXvZ1gLXE=", "properties": {"@spider": "usps_collection_boxes", "addr:city": "FISHER", "addr:country": "US", "addr:full": "737 FOUR L DR", "addr:postcode": "71426", "addr:state": "LA", "brand": "USPS", "collection_times": "Mo-Fr 10:00", "name": "USPS COLLECTION BOX - PO LOBBY", "ref": "7142600003"}, "type": "Feature"}
{"geometry": {"coordinates": [-93.097555, 31.612223], "type": "Point"}, "id": "eRZV3bFgXBl_bnLbidXlxroELDg=", "properties": {"@spider": "usps_collection_boxes", "addr:city": "FLORA", "addr:country": "US", "addr:full": "1689 HIGHWAY 120", "addr:postcode": "71428", "addr:state": "LA", "brand": "USPS", "collection_times": "Mo-Fr 09:15; Sa 10:45", "name": "USPS COLLECTION BOX - BLUE BOX", "ref": "7142800001"}, "type": "Feature"}
{"geometry": {"coordinates": [-93.097489, 31.612235], "type": "Point"}, "id": "KH7ugrUFijm2rLw_0Es3UAb6fwA=", "properties": {"@spider": "usps_collection_boxes", "addr:city": "FLORA", "addr:country": "US", "addr:full": "1689 HIGHWAY 120", "addr:postcode": "71428", "addr:state": "LA", "brand": "USPS", "collection_times": "Mo-Fr 09:15", "name": "USPS COLLECTION BOX - PO LOBBY", "ref": "7142800002"}, "type": "Feature"}
{"geometry": {"coordinates": [-93.098432219, 31.612463287], "type": "Point"}, "id": "RHS6C9gqswWYggmxI-TTMcK2q5s=", "properties": {"@spider": "usps_collection_boxes", "addr:city": "FLORA", "addr:country": "US", "addr:full": "1689 HIGHWAY 120", "addr:postcode": "71428", "addr:state": "LA", "brand": "USPS", "collection_times": "Mo-Fr 09:30; Sa 11:00", "name": "USPS COLLECTION BOX - PO LOBBY", "ref": "7142800003"}, "type": "Feature"}
{"geometry": {"coordinates": [-93.45663, 31.460822], "type": "Point"}, "id": "J5axPX41SWEXanj0_BHi8oQOYcQ=", "properties": {"@spider": "usps_collection_boxes", "addr:city": "FLORIEN", "addr:country": "US", "addr:full": "1284 N NOLAN TRCE", "addr:postcode": "71429", "addr:state": "LA", "brand": "USPS", "collection_times": "Mo-Fr 15:30; Sa 08:15", "name": "USPS COLLECTION BOX - BLUE BOX", "note": "ON 12/24 AND 12/31, THIS BOX MAY BE COLLECTED AS EARLY AS 12 NOON.", "ref": "7142900001"}, "type": "Feature"}
{"geometry": {"coordinates": [-93.45663, 31.460822], "type": "Point"}, "id": "HVGL8A3aKaMQkJRhmfroQZ3ICKo=", "properties": {"@spider": "usps_collection_boxes", "addr:city": "FLORIEN", "addr:country": "US", "addr:full": "1284 N NOLAN TRCE", "addr:postcode": "71429", "addr:state": "LA", "brand": "USPS", "collection_times": "Mo-Fr 15:30", "name": "USPS COLLECTION BOX - PO LOBBY", "note": "ON 12/24 AND 12/31, THIS BOX MAY BE COLLECTED AS EARLY AS 12 NOON.", "ref": "7142900003"}, "type": "Feature"}
{"geometry": {"coordinates": [-93.456628301, 31.460813864], "type": "Point"}, "id": "Aq6ruJNssA4D1dYujKETdZKbFqw=", "properties": {"@spider": "usps_collection_boxes", "addr:city": "FLORIEN", "addr:country": "US", "addr:full": "1284 N NOLAN TRCE", "addr:postcode": "71429", "addr:state": "LA", "brand": "USPS", "collection_times": "Mo-Fr 15:30", "name": "USPS COLLECTION BOX - PO LOBBY", "note": "ON 12/24 AND 12/31, THIS BOX MAY BE COLLECTED AS EARLY AS 12 NOON.", "ref": "7142900005"}, "type": "Feature"}
{"geometry": {"coordinates": [-92.53058, 31.04577], "type": "Point"}, "id": "PJZCXLCSGt07vzp9SRwEM5VH9uc=", "properties": {"@spider": "usps_collection_boxes", "addr:city": "FOREST HILL", "addr:country": "US", "addr:full": "11038 HIGHWAY 165 S", "addr:postcode": "71430", "addr:state": "LA", "brand": "USPS", "collection_times": "Mo-Fr 14:30; Sa 08:00", "name": "USPS COLLECTION BOX - BLUE BOX", "note": "ON 12/24 AND 12/31, THIS BOX MAY BE COLLECTED AS EARLY AS 12 NOON.", "ref": "7143000001"}, "type": "Feature"}
{"geometry": {"coordinates": [-92.53058, 31.04577], "type": "Point"}, "id": "UY7J68MuTptNSd6sSFnprBolPQ8=", "properties": {"@spider": "usps_collection_boxes", "addr:city": "FOREST HILL", "addr:country": "US", "addr:full": "11038 HIGHWAY 165 S", "addr:postcode": "71430", "addr:state": "LA", "brand": "USPS", "collection_times": "Mo-Fr 14:30; Sa 08:00", "name": "USPS COLLECTION BOX - PO LOBBY", "note": "ON 12/24 AND 12/31, THIS BOX MAY BE COLLECTED AS EARLY AS 12 NOON.", "ref": "7143000003"}, "type": "Feature"}
{"geometry": {"coordinates": [-92.530582542, 31.045770649], "type": "Point"}, "id": "4RKEL44lkSq4QaxUgPTujexoktc=", "properties": {"@spider": "usps_collection_boxes", "addr:city": "FOREST HILL", "addr:country": "US", "addr:full": "11038 HIGHWAY 165 S", "addr:postcode": "71430", "addr:state": "LA", "brand": "USPS", "collection_times": "Mo-Fr 15:00", "name": "USPS COLLECTION BOX - PO LOBBY", "note": "ON 12/24 AND 12/31, THIS BOX MAY BE COLLECTED AS EARLY AS 12 NOON.", "ref": "7143000004"}, "type": "Feature"}
{"geometry": {"coordinates": [-92.385328, 31.760055], "type": "Point"}, "id": "bzCxaCs6g7EVn_ZY5c72-iNi2ZY=", "properties": {"@spider": "usps_collection_boxes", "addr:city": "GEORGETOWN", "addr:country": "US", "addr:full": "4474 HIGHWAY 500", "addr:postcode": "71432", "addr:state": "LA", "brand": "USPS", "collection_times": "Mo-Fr 14:00; Sa 08:00", "name": "USPS COLLECTION BOX - BLUE BOX", "note": "ON 12/24 AND 12/31, THIS BOX MAY BE COLLECTED AS EARLY AS 12 NOON.", "ref": "7143200001"}, "type": "Feature"}
{"geometry": {"coordinates": [-92.385328, 31.760055], "type": "Point"}, "id": "bdvwLpRIZcWz6TQclFkicuVpYqQ=", "properties": {"@spider": "usps_collection_boxes", "addr:city": "GEORGETOWN", "addr:country": "US", "addr:full": "4474 HIGHWAY 500", "addr:postcode": "71432", "addr:state": "LA", "brand": "USPS", "collection_times": "Mo-Fr 14:00", "name": "USPS COLLECTION BOX - PO LOBBY", "note": "ON 12/24 AND 12/31, THIS BOX MAY BE COLLECTED AS EARLY AS 12 NOON.", "ref": "7143200002"}, "type": "Feature"}
{"geometry": {"coordinates": [-92.385329543, 31.760005752], "type": "Point"}, "id": "xkDaILJyQmaqv3B7V9OcDiPEJbI=", "properties": {"@spider": "usps_collection_boxes", "addr:city": "GEORGETOWN", "addr:country": "US", "addr:full": "4474 HIGHWAY 500", "addr:postcode": "71432", "addr:state": "LA", "brand": "USPS", "collection_times": "Mo-Fr 14:00", "name": "USPS COLLECTION BOX - PO LOBBY", "note": "ON 12/24 AND 12/31, THIS BOX MAY BE COLLECTED AS EARLY AS 12 NOON.", "ref": "7143200004"}, "type": "Feature"}
{"geometry": {"coordinates": [-92.585282, 30.968081], "type": "Point"}, "id": "zXbOmGKdEKMijno4JH4rf94N0x4=", "properties": {"@spider": "usps_collection_boxes", "addr:city": "GLENMORA", "addr:country": "US", "addr:full": "1201 7TH AVE", "addr:postcode": "71433", "addr:state": "LA", "brand": "USPS", "collection_times": "Mo-Fr 14:45; Sa 08:00", "name": "USPS COLLECTION BOX - BLUE BOX", "note": "ON 12/24 AND 12/31, THIS BOX MAY BE COLLECTED AS EARLY AS 12 NOON.", "ref": "7143300001"}, "type": "Feature"}
{"geometry": {"coordinates": [-92.581971, 30.976458], "type": "Point"}, "id": "RLAt13vYwILdgl_zNfKF8FnhHq4=", "properties": {"@spider": "usps_collection_boxes", "addr:city": "GLENMORA", "addr:country": "US", "addr:full": "1201 7TH AVE", "addr:postcode": "71433", "addr:state": "LA", "brand": "USPS", "collection_times": "Mo-Fr 14:45", "name": "USPS COLLECTION BOX - PO LOBBY", "note": "ON 12/24 AND 12/31, THIS BOX MAY BE COLLECTED AS EARLY AS 12 NOON.", "ref": "7143300002"}, "type": "Feature"}
{"geometry": {"coordinates": [-92.581731, 30.976456453], "type": "Point"}, "id": "vqV-KOoaGyLCFsjasc_dUef9LDQ=", "properties": {"@spider": "usps_collection_boxes", "addr:city": "GLENMORA", "addr:country": "US", "addr:full": "1201 7TH AVE", "addr:postcode": "71433", "addr:state": "LA", "brand": "USPS", "collection_times": "Mo-Fr 15:30", "name": "USPS COLLECTION BOX - PO LOBBY", "note": "ON 12/24 AND 12/31, THIS BOX MAY BE COLLECTED AS EARLY AS 12 NOON.", "ref": "7143300003"}, "type": "Feature"}
{"geometry": {"coordinates": [-92.941093, 31.432893], "type": "Point"}, "id": "02teQT5yeEvNoh3CzYSv7En-mNk=", "properties": {"@spider": "usps_collection_boxes", "addr:city": "GORUM", "addr:country": "US", "addr:full": "9327 HIGHWAY 119", "addr:postcode": "71434", "addr:state": "LA", "brand": "USPS", "collection_times": "Mo-Sa 11:30", "name": "USPS COLLECTION BOX - PO LOBBY", "ref": "7143400000"}, "type": "Feature"}
{"geometry": {"coordinates": [-92.941103377, 31.432925228], "type": "Point"}, "id": "b5ZQkBN2ysRKE69IW8-NGRX2WS4=", "properties": {"@spider": "usps_collection_boxes", "addr:city": "GORUM", "addr:country": "US", "addr:full": "9327 HIGHWAY 119", "addr:postcode": "71434", "addr:state": "LA", "brand": "USPS", "collection_times": "Mo-Sa 11:30", "name": "USPS COLLECTION BOX - PO LOBBY", "ref": "7143400001"}, "type": "Feature"}
{"geometry": {"coordinates": [-92.109071, 32.05227], "type": "Point"}, "id": "2AfxEdroIXUUt1GTGP7-ZBAZv7M=", "properties": {"@spider": "usps_collection_boxes", "addr:city": "GRAYSON", "addr:country": "US", "addr:full": "954 HIGHWAY 850", "addr:postcode": "71435", "addr:state": "LA", "brand": "USPS", "collection_times": "Mo-Fr 14:00", "name": "USPS COLLECTION BOX - PO LOBBY", "note": "ON 12/24 AND 12/31, THIS BOX MAY BE COLLECTED AS EARLY AS 12 NOON.", "ref": "7143500002"}, "type": "Feature"}
{"geometry": {"coordinates": [-92.109071, 32.05227], "type": "Point"}, "id": "nMizDdyftHSUQv6_G8Q1u_ksfl8=", "properties": {"@spider": "usps_collection_boxes", "addr:city": "GRAYSON", "addr:country": "US", "addr:full": "954 HIGHWAY 850", "addr:postcode": "71435", "addr:state": "LA", "brand": "USPS", "collection_times": "Mo-Fr 14:00; Sa 09:30", "name": "USPS COLLECTION BOX - BLUE BOX", "note": "ON 12/24 AND 12/31, THIS BOX MAY BE COLLECTED AS EARLY AS 12 NOON.", "ref": "7143500003"}, "type": "Feature"}
{"geometry": {"coordinates": [-92.109228014, 32.052149102], "type": "Point"}, "id": "7Btndxe2PRz01j7p4-4R7Rq7zdc=", "properties": {"@spider": "usps_collection_boxes", "addr:city": "GRAYSON", "addr:country": "US", "addr:full": "954 HIGHWAY 850", "addr:postcode": "71435", "addr:state": "LA", "brand": "USPS", "collection_times": "Mo-Fr 15:30", "name": "USPS COLLECTION BOX - PO LOBBY", "note": "ON 12/24 AND 12/31, THIS BOX MAY BE COLLECTED AS EARLY AS 12 NOON.", "ref": "7143500005"}, "type": "Feature"}
{"geometry": {"coordinates": [-92.758833, 31.144991], "type": "Point"}, "id": "ATn7QDHCusS1qsvb1FBr9XvmfHI=", "properties": {"@spider": "usps_collection_boxes", "addr:city": "HINESTON", "addr:country": "US", "addr:full": "1923 HIGHWAY 121", "addr:postcode": "71438", "addr:state": "LA", "brand": "USPS", "collection_times": "Mo-Fr 14:30; Sa 09:30", "name": "USPS COLLECTION BOX - PO LOBBY", "note": "ON 12/24 AND 12/31, THIS BOX MAY BE COLLECTED AS EARLY AS 12 NOON.", "ref": "7143800001"}, "type": "Feature"}
{"geometry": {"coordinates": [-92.758833, 31.144991], "type": "Point"}, "id": "bx52kyqSHvMjHoYW1Dql6I4BMhE=", "properties": {"@spider": "usps_collection_boxes", "addr:city": "HINESTON", "addr:country": "US", "addr:full": "1923 HIGHWAY 121", "addr:postcode": "71438", "addr:state": "LA", "brand": "USPS", "collection_times": "Mo-Fr 14:30; Sa 09:30", "name": "USPS COLLECTION BOX - BLUE BOX", "note": "ON 12/24 AND 12/31, THIS BOX MAY BE COLLECTED AS EARLY AS 12 NOON.", "ref": "7143800002"}, "type": "Feature"}
{"geometry": {"coordinates": [-92.758823107, 31.144986199], "type": "Point"}, "id": "jojHwYhEC7Xf9reKQV5lIhMdJ2k=", "properties": {"@spider": "usps_collection_boxes", "addr:city": "HINESTON", "addr:country": "US", "addr:full": "1923 HIGHWAY 121", "addr:postcode": "71438", "addr:state": "LA", "brand": "USPS", "collection_times": "Mo-Fr 14:30", "name": "USPS COLLECTION BOX - PO LOBBY", "note": "ON 12/24 AND 12/31, THIS BOX MAY BE COLLECTED AS EARLY AS 12 NOON.", "ref": "7143800003"}, "type": "Feature"}
{"geometry": {"coordinates": [-93.398339, 31.324394], "type": "Point"}, "id": "DDmbwZl0oZcqRYEDlsD1vvOkutg=", "properties": {"@spider": "usps_collection_boxes", "addr:city": "HORNBECK", "addr:country": "US", "addr:full": "1127 HAMMOND ST", "addr:postcode": "71439", "addr:state": "LA", "brand": "USPS", "collection_times": "Mo-Fr 13:30; Sa 08:15", "name": "USPS COLLECTION BOX - BLUE BOX", "note": "ON 12/24 AND 12/31, THIS BOX MAY BE COLLECTED AS EARLY AS 12 NOON.", "ref": "7143900001"}, "type": "Feature"}
{"geometry": {"coordinates": [-93.398339, 31.324394], "type": "Point"}, "id": "FYBl-Ug8yYVTKwvDfhDZcEJqoxc=", "properties": {"@spider": "usps_collection_boxes", "addr:city": "HORNBECK", "addr:country": "US", "addr:full": "1127 HAMMOND ST", "addr:postcode": "71439", "addr:state": "LA", "brand": "USPS", "collection_times": "Mo-Fr 13:30", "name": "USPS COLLECTION BOX - PO LOBBY", "note": "ON 12/24 AND 12/31, THIS BOX MAY BE COLLECTED AS EARLY AS 12 NOON.", "ref": "7143900002"}, "type": "Feature"}
{"geometry": {"coordinates": [-93.398321125, 31.324413626], "type": "Point"}, "id": "BFfQlq7OUw47-KSAZsHgAoLueCs=", "properties": {"@spider": "usps_collection_boxes", "addr:city": "HORNBECK", "addr:country": "US", "addr:full": "1127 HAMMOND ST", "addr:postcode": "71439", "addr:state": "LA", "brand": "USPS", "collection_times": "Mo-Fr 13:30", "name": "USPS COLLECTION BOX - PO LOBBY", "note": "ON 12/24 AND 12/31, THIS BOX MAY BE COLLECTED AS EARLY AS 12 NOON.", "ref": "7143900003"}, "type": "Feature"}
{"geometry": {"coordinates": [-92.5958234864, 31.9410294137], "type": "Point"}, "id": "HiUaUri0dI9o39BDhvXiYQVFuTA=", "properties": {"@spider": "usps_collection_boxes", "addr:city": "JOYCE", "addr:country": "US", "addr:full": "7018 HIGHWAY 84 E", "addr:postcode": "71440", "addr:state": "LA", "brand": "USPS", "collection_times": "Mo-Fr 15:00; Sa 08:00", "name": "USPS COLLECTION BOX - BLUE BOX", "note": "ON 12/24 AND 12/31, THIS BOX MAY BE COLLECTED AS EARLY AS 12 NOON.", "ref": "7144000001"}, "type": "Feature"}
{"geometry": {"coordinates": [-92.5958234864, 31.9410294137], "type": "Point"}, "id": "8LQ5zkOQhwUZIDla5cTV5RDB1q4=", "properties": {"@spider": "usps_collection_boxes", "addr:city": "JOYCE", "addr:country": "US", "addr:full": "7018 HIGHWAY 84 E", "addr:postcode": "71440", "addr:state": "LA", "brand": "USPS", "collection_times": "Mo-Fr 15:00; Sa 08:00", "name": "USPS COLLECTION BOX - PO LOBBY", "note": "ON 12/24 AND 12/31, THIS BOX MAY BE COLLECTED AS EARLY AS 12 NOON.", "ref": "7144000002"}, "type": "Feature"}
{"geometry": {"coordinates": [-92.595997202, 31.940992361], "type": "Point"}, "id": "yldnlf5pZM8Dp4_L1wcdK8krCAY=", "properties": {"@spider": "usps_collection_boxes", "addr:city": "JOYCE", "addr:country": "US", "addr:full": "7018 HIGHWAY 84 E", "addr:postcode": "71440", "addr:state": "LA", "brand": "USPS", "collection_times": "Mo-Fr 15:00", "name": "USPS COLLECTION BOX - PO LOBBY", "note": "ON 12/24 AND 12/31, THIS BOX MAY BE COLLECTED AS EARLY AS 12 NOON.", "ref": "7144000003"}, "type": "Feature"}
{"geometry": {"coordinates": [-92.17367, 31.980906], "type": "Point"}, "id": "KrHcevAP65sx0BLN0_6rtffoEAM=", "properties": {"@spider": "usps_collection_boxes", "addr:city": "KELLY", "addr:country": "US", "addr:full": "3401 HIGHWAY 506 W", "addr:postcode": "71441", "addr:state": "LA", "brand": "USPS", "collection_times": "Mo-Fr 11:45; Sa 10:00", "name": "USPS COLLECTION BOX - BLUE BOX", "ref": "7144100001"}, "type": "Feature"}
{"geometry": {"coordinates": [-92.17367, 31.980906], "type": "Point"}, "id": "qwzkcfaeY8NBeZhfRtlLwASDCW8=", "properties": {"@spider": "usps_collection_boxes", "addr:city": "KELLY", "addr:country": "US", "addr:full": "3401 HIGHWAY 506 W", "addr:postcode": "71441", "addr:state": "LA", "brand": "USPS", "collection_times": "Mo-Fr 11:45; Sa 10:00", "name": "USPS COLLECTION BOX - PO LOBBY", "ref": "7144100002"}, "type": "Feature"}
{"geometry": {"coordinates": [-92.173480537, 31.980768452], "type": "Point"}, "id": "i0YJqkuJtAbTjMj15g4PBdxH5pA=", "properties": {"@spider": "usps_collection_boxes", "addr:city": "KELLY", "addr:country": "US", "addr:full": "3401 HIGHWAY 506 W", "addr:postcode": "71441", "addr:state": "LA", "brand": "USPS", "collection_times": "Mo-Fr 12:00", "name": "USPS COLLECTION BOX - PO LOBBY", "ref": "7144100003"}, "type": "Feature"}
{"geometry": {"coordinates": [-93.26041, 31.141882], "type": "Point"}, "id": "PgQmG95yVLhli4YSFE90bZZa9Tw=", "properties": {"@spider": "usps_collection_boxes", "addr:city": "LEESVILLE", "addr:country": "US", "addr:full": "303 S 2ND ST", "addr:postcode": "71446", "addr:state": "LA", "brand": "USPS", "collection_times": "Mo-Sa 15:30", "name": "USPS COLLECTION BOX - BLUE BOX", "note": "ON 12/24 AND 12/31, THIS BOX MAY BE COLLECTED AS EARLY AS 12 NOON.", "ref": "7144600002"}, "type": "Feature"}
{"geometry": {"coordinates": [-93.26041, 31.141882], "type": "Point"}, "id": "-TCEtZAj--Bi2YmjmvTduXn3QPA=", "properties": {"@spider": "usps_collection_boxes", "addr:city": "LEESVILLE", "addr:country": "US", "addr:full": "303 S 2ND ST", "addr:postcode": "71446", "addr:state": "LA", "brand": "USPS", "collection_times": "Mo-Sa 15:30", "name": "USPS COLLECTION BOX - BLUE BOX", "note": "ON 12/24 AND 12/31, THIS BOX MAY BE COLLECTED AS EARLY AS 12 NOON.", "ref": "7144600003"}, "type": "Feature"}
{"geometry": {"coordinates": [-93.2690969, 31.138333], "type": "Point"}, "id": "vmqVoOt1p5D-mjK_uVWWqmFDoKw=", "properties": {"@spider": "usps_collection_boxes", "addr:city": "LEESVILLE", "addr:country": "US", "addr:full": "1020 W FERTITTA BLVD", "addr:postcode": "71446", "addr:state": "LA", "brand": "USPS", "collection_times": "Mo-Fr 09:00", "name": "USPS COLLECTION BOX - BLUE BOX", "ref": "7144600020"}, "type": "Feature"}
{"geometry": {"coordinates": [-93.261207, 31.141881], "type": "Point"}, "id": "rWlTAkDwdpGJzG5uyr8_hpcK7Fk=", "properties": {"@spider": "usps_collection_boxes", "addr:city": "LEESVILLE", "addr:country": "US", "addr:full": "303 S 3RD ST", "addr:postcode": "71446", "addr:state": "LA", "brand": "USPS", "collection_times": "Mo-Sa 15:30", "name": "USPS COLLECTION BOX - PO LOBBY", "note": "ON 12/24 AND 12/31, THIS BOX MAY BE COLLECTED AS EARLY AS 12 NOON.", "ref": "7144600024"}, "type": "Feature"}
{"geometry": {"coordinates": [-93.2644204, 31.143898], "type": "Point"}, "id": "TOcU70N2t22gZphg0W8LY85ROAc=", "properties": {"@spider": "usps_collection_boxes", "addr:city": "LEESVILLE", "addr:country": "US", "addr:full": "101 W LEE ST", "addr:postcode": "71446", "addr:state": "LA", "brand": "USPS", "collection_times": "Mo-Fr 11:30", "name": "USPS COLLECTION BOX - BLUE BOX", "ref": "7144600026"}, "type": "Feature"}
{"geometry": {"coordinates": [-93.273944, 31.118382], "type": "Point"}, "id": "ra8JgkzvWCMIG0GLN_3wCp0Ctew=", "properties": {"@spider": "usps_collection_boxes", "addr:city": "LEESVILLE", "addr:country": "US", "addr:full": "2204 S 5TH ST", "addr:postcode": "71446", "addr:state": "LA", "brand": "USPS", "collection_times": "Mo-Fr 10:30", "name": "USPS COLLECTION BOX - BLUE BOX", "ref": "7144600027"}, "type": "Feature"}
{"geometry": {"coordinates": [-93.26123715, 31.141900261], "type": "Point"}, "id": "quqzda6KcZsAokiEj0p3JG1hmEg=", "properties": {"@spider": "usps_collection_boxes", "addr:city": "LEESVILLE", "addr:country": "US", "addr:full": "303 S 3RD ST", "addr:postcode": "71446", "addr:state": "LA", "brand": "USPS", "collection_times": "Mo-Fr 16:00; Sa 12:00", "name": "USPS COLLECTION BOX - PO LOBBY", "note": "ON 12/24 AND 12/31, THIS BOX MAY BE COLLECTED AS EARLY AS 12 NOON.", "ref": "7144600029"}, "type": "Feature"}
{"geometry": {"coordinates": [-92.7718083, 31.457561], "type": "Point"}, "id": "C5y6htr4dtjAFNF8lz14abxvRB8=", "properties": {"@spider": "usps_collection_boxes", "addr:city": "LENA", "addr:country": "US", "addr:full": "57 LENA FLATWOODS RD", "addr:postcode": "71447", "addr:state": "LA", "brand": "USPS", "collection_times": "Mo-Fr 10:45; Sa 07:30", "name": "USPS COLLECTION BOX - BLUE BOX", "ref": "7144700001"}, "type": "Feature"}
{"geometry": {"coordinates": [-92.7717499, 31.457581], "type": "Point"}, "id": "PYQE_ameNSlWG6qfeuXy8ZVtd6w=", "properties": {"@spider": "usps_collection_boxes", "addr:city": "LENA", "addr:country": "US", "addr:full": "57 LENA FLATWOODS RD", "addr:postcode": "71447", "addr:state": "LA", "brand": "USPS", "collection_times": "Mo-Fr 10:45", "name": "USPS COLLECTION BOX - PO LOBBY", "ref": "7144700003"}, "type": "Feature"}
{"geometry": {"coordinates": [-92.772228346, 31.457853327], "type": "Point"}, "id": "v9k7MAF1wNrp6y0WVi_XMddjwzY=", "properties": {"@spider": "usps_collection_boxes", "addr:city": "LENA", "addr:country": "US", "addr:full": "57 LENA FLATWOODS RD", "addr:postcode": "71447", "addr:state": "LA", "brand": "USPS", "collection_times": "Mo-Fr 13:30", "name": "USPS COLLECTION BOX - PO LOBBY", "note": "ON 12/24 AND 12/31, THIS BOX MAY BE COLLECTED AS EARLY AS 12 NOON.", "ref": "7144700004"}, "type": "Feature"}
{"geometry": {"coordinates": [-92.559898, 31.005903], "type": "Point"}, "id": "YpNNP9gV0Q2oOhFReh46EKaeNlw=", "properties": {"@spider": "usps_collection_boxes", "addr:city": "LONGLEAF", "addr:country": "US", "addr:full": "76 LONG LEAF RD", "addr:postcode": "71448", "addr:state": "LA", "brand": "USPS", "collection_times": "Mo-Fr 12:15", "name": "USPS COLLECTION BOX - PO LOBBY", "note": "ON 12/24 AND 12/31, THIS BOX MAY BE COLLECTED AS EARLY AS 12 NOON.", "ref": "7144800000"}, "type": "Feature"}
{"geometry": {"coordinates": [-92.559851099, 31.005749559], "type": "Point"}, "id": "k-2e0dW_sfhFobUNAc95N2eP4QQ=", "properties": {"@spider": "usps_collection_boxes", "addr:city": "LONGLEAF", "addr:country": "US", "addr:full": "76 LONG LEAF RD", "addr:postcode": "71448", "addr:state": "LA", "brand": "USPS", "collection_times": "Mo-Fr 12:30", "name": "USPS COLLECTION BOX - PO LOBBY", "note": "ON 12/24 AND 12/31, THIS BOX MAY BE COLLECTED AS EARLY AS 12 NOON.", "ref": "7144800002"}, "type": "Feature"}
{"geometry": {"coordinates": [-93.479009, 31.566825], "type": "Point"}, "id": "-6mB65be5ZZLF7xvl0Izdbrg6VQ=", "properties": {"@spider": "usps_collection_boxes", "addr:city": "MANY", "addr:country": "US", "addr:full": "490 CHURCH ST", "addr:postcode": "71449", "addr:state": "LA", "brand": "USPS", "collection_times": "Mo-Fr 14:45; Sa 11:45", "name": "USPS COLLECTION BOX - BLUE BOX", "note": "ON 12/24 AND 12/31, THIS BOX MAY BE COLLECTED AS EARLY AS 12 NOON.", "ref": "7144900001"}, "type": "Feature"}
{"geometry": {"coordinates": [-93.479009, 31.566825], "type": "Point"}, "id": "MAIgaGDtoMR2lyBxSoxFq-SZ1oM=", "properties": {"@spider": "usps_collection_boxes", "addr:city": "MANY", "addr:country": "US", "addr:full": "490 CHURCH ST", "addr:postcode": "71449", "addr:state": "LA", "brand": "USPS", "collection_times": "Mo-Fr 14:45; Sa 11:45", "name": "USPS COLLECTION BOX - BLUE BOX", "note": "ON 12/24 AND 12/31, THIS BOX MAY BE COLLECTED AS EARLY AS 12 NOON.", "ref": "7144900002"}, "type": "Feature"}
{"geometry": {"coordinates": [-93.479009, 31.566825], "type": "Point"}, "id": "Q0JHj0I3eB9Y6mRKjfpGPwOI6mI=", "properties": {"@spider": "usps_collection_boxes", "addr:city": "MANY", "addr:country": "US", "addr:full": "490 CHURCH ST", "addr:postcode": "71449", "addr:state": "LA", "brand": "USPS", "collection_times": "Mo-Fr 14:45; Sa 11:45", "name": "USPS COLLECTION BOX - PO LOBBY", "note": "ON 12/24 AND 12/31, THIS BOX MAY BE COLLECTED AS EARLY AS 12 NOON.", "ref": "7144900012"}, "type": "Feature"}
{"geometry": {"coordinates": [-93.478987229, 31.566839046], "type": "Point"}, "id": "aEwYk12jGsVzfRCYlangX5ZKa3o=", "properties": {"@spider": "usps_collection_boxes", "addr:city": "MANY", "addr:country": "US", "addr:full": "490 CHURCH ST", "addr:postcode": "71449", "addr:state": "LA", "brand": "USPS", "collection_times": "Mo-Fr 16:00; Sa 11:30", "name": "USPS COLLECTION BOX - PO LOBBY", "note": "ON 12/24 AND 12/31, THIS BOX MAY BE COLLECTED AS EARLY AS 12 NOON.", "ref": "7144900015"}, "type": "Feature"}
{"geometry": {"coordinates": [-93.396617, 31.739409], "type": "Point"}, "id": "vV7iz1QgBMhyxqy7mKxlyRvJCnw=", "properties": {"@spider": "usps_collection_boxes", "addr:city": "MARTHAVILLE", "addr:country": "US", "addr:full": "10644 HIGHWAY 120", "addr:postcode": "71450", "addr:state": "LA", "brand": "USPS", "collection_times": "Mo-Fr 15:15; Sa 09:15", "name": "USPS COLLECTION BOX - BLUE BOX", "note": "ON 12/24 AND 12/31, THIS BOX MAY BE COLLECTED AS EARLY AS 12 NOON.", "ref": "7145000001"}, "type": "Feature"}
{"geometry": {"coordinates": [-93.396617, 31.739409], "type": "Point"}, "id": "S2OuxRIR_6S5GAzo68Aliy7ul2A=", "properties": {"@spider": "usps_collection_boxes", "addr:city": "MARTHAVILLE", "addr:country": "US", "addr:full": "10644 HIGHWAY 120", "addr:postcode": "71450", "addr:state": "LA", "brand": "USPS", "collection_times": "Mo-Fr 15:15; Sa 09:15", "name": "USPS COLLECTION BOX - PO LOBBY", "note": "ON 12/24 AND 12/31, THIS BOX MAY BE COLLECTED AS EARLY AS 12 NOON.", "ref": "7145000002"}, "type": "Feature"}
{"geometry": {"coordinates": [-93.393849394, 31.739136737], "type": "Point"}, "id": "xq7KM7lC2lMxmBSbG_UVmxpJJZ0=", "properties": {"@spider": "usps_collection_boxes", "addr:city": "MARTHAVILLE", "addr:country": "US", "addr:full": "10644 HIGHWAY 120", "addr:postcode": "71450", "addr:state": "LA", "brand": "USPS", "collection_times": "Mo-Fr 15:30", "name": "USPS COLLECTION BOX - PO LOBBY", "note": "ON 12/24 AND 12/31, THIS BOX MAY BE COLLECTED AS EARLY AS 12 NOON.", "ref": "7145000004"}, "type": "Feature"}
{"geometry": {"coordinates": [-92.891751, 31.667], "type": "Point"}, "id": "zZdXYd98YgcExjElEKJwBGjGHOw=", "properties": {"@spider": "usps_collection_boxes", "addr:city": "MONTGOMERY", "addr:country": "US", "addr:full": "509 WOODLAND ST", "addr:postcode": "71454", "addr:state": "LA", "brand": "USPS", "collection_times": "Mo-Fr 13:30; Sa 08:30", "name": "USPS COLLECTION BOX - BLUE BOX", "note": "ON 12/24 AND 12/31, THIS BOX MAY BE COLLECTED AS EARLY AS 12 NOON.", "ref": "7145400002"}, "type": "Feature"}
{"geometry": {"coordinates": [-92.891751, 31.667], "type": "Point"}, "id": "qS0S1jp1RNIWbOnbBVpsrPtj09o=", "properties": {"@spider": "usps_collection_boxes", "addr:city": "MONTGOMERY", "addr:country": "US", "addr:full": "509 WOODLAND ST", "addr:postcode": "71454", "addr:state": "LA", "brand": "USPS", "collection_times": "Mo-Fr 13:30; Sa 08:30", "name": "USPS COLLECTION BOX - PO LOBBY", "note": "ON 12/24 AND 12/31, THIS BOX MAY BE COLLECTED AS EARLY AS 12 NOON.", "ref": "7145400003"}, "type": "Feature"}
{"geometry": {"coordinates": [-92.891767537, 31.6670427658], "type": "Point"}, "id": "aTNUQDKCuplXZB3Ca1ZHRI-MexM=", "properties": {"@spider": "usps_collection_boxes", "addr:city": "MONTGOMERY", "addr:country": "US", "addr:full": "509 WOODLAND ST", "addr:postcode": "71454", "addr:state": "LA", "brand": "USPS", "collection_times": "Mo-Fr 15:00", "name": "USPS COLLECTION BOX - PO LOBBY", "note": "ON 12/24 AND 12/31, THIS BOX MAY BE COLLECTED AS EARLY AS 12 NOON.", "ref": "7145400004"}, "type": "Feature"}
{"geometry": {"coordinates": [-93.044777, 31.675619], "type": "Point"}, "id": "5ERN040UfCoxIx7-MtkYf5Xf6yM=", "properties": {"@spider": "usps_collection_boxes", "addr:city": "NATCHEZ", "addr:country": "US", "addr:full": "9465 HIGHWAY 1", "addr:postcode": "71456", "addr:state": "LA", "brand": "USPS", "collection_times": "Mo-Fr 15:30; Sa 08:00", "name": "USPS COLLECTION BOX - BLUE BOX", "note": "ON 12/24 AND 12/31, THIS BOX MAY BE COLLECTED AS EARLY AS 12 NOON.", "ref": "7145600001"}, "type": "Feature"}
{"geometry": {"coordinates": [-93.044777, 31.675619], "type": "Point"}, "id": "B7ExLK4QbctaGBiLxsBkLCBKfX0=", "properties": {"@spider": "usps_collection_boxes", "addr:city": "NATCHEZ", "addr:country": "US", "addr:full": "9465 HIGHWAY 1", "addr:postcode": "71456", "addr:state": "LA", "brand": "USPS", "collection_times": "Mo-Fr 15:30; Sa 08:00", "name": "USPS COLLECTION BOX - PO LOBBY", "note": "ON 12/24 AND 12/31, THIS BOX MAY BE COLLECTED AS EARLY AS 12 NOON.", "ref": "7145600002"}, "type": "Feature"}
{"geometry": {"coordinates": [-93.044751323, 31.675602402], "type": "Point"}, "id": "e02MFVa41-S47Pz9pjWLXR4uy-Y=", "properties": {"@spider": "usps_collection_boxes", "addr:city": "NATCHEZ", "addr:country": "US", "addr:full": "9465 HIGHWAY 1", "addr:postcode": "71456", "addr:state": "LA", "brand": "USPS", "collection_times": "Mo-Fr 15:30", "name": "USPS COLLECTION BOX - PO LOBBY", "note": "ON 12/24 AND 12/31, THIS BOX MAY BE COLLECTED AS EARLY AS 12 NOON.", "ref": "7145600003"}, "type": "Feature"}
{"geometry": {"coordinates": [-93.0802346138, 31.7481446083], "type": "Point"}, "id": "ZqZt_ZXekoUqNrr0TqbDrBgsT9s=", "properties": {"@spider": "usps_collection_boxes", "addr:city": "NATCHITOCHES", "addr:country": "US", "addr:full": "315 ROYAL ST", "addr:postcode": "71457", "addr:state": "LA", "brand": "USPS", "collection_times": "Mo-Fr 11:15", "name": "USPS COLLECTION BOX - BLUE BOX", "ref": "7145700012"}, "type": "Feature"}
{"geometry": {"coordinates": [-93.0792248696, 31.7534685617], "type": "Point"}, "id": "9RHB_YIDZk8OHdhQ8xevvEJUnww=", "properties": {"@spider": "usps_collection_boxes", "addr:city": "NATCHITOCHES", "addr:country": "US", "addr:full": "501 KEYSER AVE", "addr:postcode": "71457", "addr:state": "LA", "brand": "USPS", "collection_times": "Mo-Fr 08:45", "name": "USPS COLLECTION BOX - BLUE BOX", "ref": "7145700013"}, "type": "Feature"}
{"geometry": {"coordinates": [-93.0729038623, 31.7530505828], "type": "Point"}, "id": "_jxxqKGcVGKC6Pfqo-MSIi73DYo=", "properties": {"@spider": "usps_collection_boxes", "addr:city": "NATCHITOCHES", "addr:country": "US", "addr:full": "727 KEYSER AVE", "addr:postcode": "71457", "addr:state": "LA", "brand": "USPS", "collection_times": "Mo-Fr 15:45; Sa 14:00", "name": "USPS COLLECTION BOX - BLUE BOX", "note": "ON 12/24 AND 12/31, THIS BOX MAY BE COLLECTED AS EARLY AS 12 NOON.", "ref": "7145700014"}, "type": "Feature"}
{"geometry": {"coordinates": [-93.0729038623, 31.7530505828], "type": "Point"}, "id": "U4dFYeaYQf6uhTs3qvN8XJVDIjc=", "properties": {"@spider": "usps_collection_boxes", "addr:city": "NATCHITOCHES", "addr:country": "US", "addr:full": "727 KEYSER AVE", "addr:postcode": "71457", "addr:state": "LA", "brand": "USPS", "collection_times": "Mo-Fr 15:45; Sa 14:00", "name": "USPS COLLECTION BOX - BLUE BOX", "note": "ON 12/24 AND 12/31, THIS BOX MAY BE COLLECTED AS EARLY AS 12 NOON.", "ref": "7145700017"}, "type": "Feature"}
{"geometry": {"coordinates": [-93.0882956383, 31.7618501874], "type": "Point"}, "id": "3V-adXZ4RMZHY4cwQWf5SIcgAI8=", "properties": {"@spider": "usps_collection_boxes", "addr:city": "NATCHITOCHES", "addr:country": "US", "addr:full": "240 SAINT DENIS ST", "addr:postcode": "71457", "addr:state": "LA", "brand": "USPS", "collection_times": "Mo-Fr 15:45; Sa 14:00", "name": "USPS COLLECTION BOX - BLUE BOX", "note": "ON 12/24 AND 12/31, THIS BOX MAY BE COLLECTED AS EARLY AS 12 NOON.", "ref": "7145700020"}, "type": "Feature"}
{"geometry": {"coordinates": [-93.0882956383, 31.7618501874], "type": "Point"}, "id": "I1qwK_b9exjRfoUXF5QoNWXiEEk=", "properties": {"@spider": "usps_collection_boxes", "addr:city": "NATCHITOCHES", "addr:country": "US", "addr:full": "240 SAINT DENIS ST", "addr:postcode": "71457", "addr:state": "LA", "brand": "USPS", "collection_times": "Mo-Fr 15:45; Sa 14:00", "name": "USPS COLLECTION BOX - BLUE BOX", "note": "ON 12/24 AND 12/31, THIS BOX MAY BE COLLECTED AS EARLY AS 12 NOON.", "ref": "7145700022"}, "type": "Feature"}
{"geometry": {"coordinates": [-93.0729038623, 31.7530505828], "type": "Point"}, "id": "8uNgC7Bctx1dilEklovo709YW10=", "properties": {"@spider": "usps_collection_boxes", "addr:city": "NATCHITOCHES", "addr:country": "US", "addr:full": "727 KEYSER AVE", "addr:postcode": "71457", "addr:state": "LA", "brand": "USPS", "collection_times": "Mo-Sa 14:00", "name": "USPS COLLECTION BOX - PO LOBBY", "note": "ON 12/24 AND 12/31, THIS BOX MAY BE COLLECTED AS EARLY AS 12 NOON.", "ref": "7145700028"}, "type": "Feature"}
{"geometry": {"coordinates": [-93.0882956383, 31.7618501874], "type": "Point"}, "id": "XETOiqeNi7pwJPaW613NSXPmSrU=", "properties": {"@spider": "usps_collection_boxes", "addr:city": "NATCHITOCHES", "addr:country": "US", "addr:full": "240 SAINT DENIS ST", "addr:postcode": "71457", "addr:state": "LA", "brand": "USPS", "collection_times": "Mo-Sa 14:00", "name": "USPS COLLECTION BOX - PO LOBBY", "note": "ON 12/24 AND 12/31, THIS BOX MAY BE COLLECTED AS EARLY AS 12 NOON.", "ref": "7145700029"}, "type": "Feature"}
{"geometry": {"coordinates": [-93.1076408476, 31.7743132128], "type": "Point"}, "id": "2q5NXgD-kwTMVRvwTDmOuw0RQAQ=", "properties": {"@spider": "usps_collection_boxes", "addr:city": "NATCHITOCHES", "addr:country": "US", "addr:full": "5696 HIGHWAY 1 BYP", "addr:postcode": "71457", "addr:state": "LA", "brand": "USPS", "collection_times": "Mo-Fr 09:15", "name": "USPS COLLECTION BOX - BLUE BOX", "ref": "7145700032"}, "type": "Feature"}
{"geometry": {"coordinates": [-93.0729038623, 31.7530505828], "type": "Point"}, "id": "C0wevG1AvimlIkrqrbusjejbq58=", "properties": {"@spider": "usps_collection_boxes", "addr:city": "NATCHITOCHES", "addr:country": "US", "addr:full": "727 KEYSER AVE", "addr:postcode": "71457", "addr:state": "LA", "brand": "USPS", "collection_times": "Mo-Fr 16:15; Sa 12:00", "name": "USPS COLLECTION BOX - PO LOBBY", "note": "ON 12/24 AND 12/31, THIS BOX MAY BE COLLECTED AS EARLY AS 12 NOON.", "ref": "7145700033"}, "type": "Feature"}
{"geometry": {"coordinates": [-93.0882956383, 31.7618501874], "type": "Point"}, "id": "xahcInEcv-TRZRwkLXHHrR8L6GQ=", "properties": {"@spider": "usps_collection_boxes", "addr:city": "NATCHITOCHES", "addr:country": "US", "addr:full": "240 SAINT DENIS ST", "addr:postcode": "71457", "addr:state": "LA", "brand": "USPS", "collection_times": "Mo-Fr 16:00; Sa 11:00", "name": "USPS COLLECTION BOX - PO LOBBY", "note": "ON 12/24 AND 12/31, THIS BOX MAY BE COLLECTED AS EARLY AS 12 NOON.", "ref": "7145700034"}, "type": "Feature"}
{"geometry": {"coordinates": [-93.2200784, 31.047622], "type": "Point"}, "id": "sa-dF4I8finQfqJkIhpKZlXQrhs=", "properties": {"@spider": "usps_collection_boxes", "addr:city": "FORT POLK", "addr:country": "US", "addr:full": "7445 LA HIGHWAY 467", "addr:postcode": "71459", "addr:state": "LA", "brand": "USPS", "collection_times": "Mo-Sa 13:00", "name": "USPS COLLECTION BOX - BLUE BOX", "note": "ON 12/24 AND 12/31, THIS BOX MAY BE COLLECTED AS EARLY AS 12 NOON.", "ref": "7145900010"}, "type": "Feature"}
{"geometry": {"coordinates": [-93.2199404179, 31.0733032878], "type": "Point"}, "id": "nBF90IbYZIEcy8TwHajJtvLCquo=", "properties": {"@spider": "usps_collection_boxes", "addr:city": "FORT POLK", "addr:country": "US", "addr:full": "6180 UNIVERSITY PKWY", "addr:postcode": "71459", "addr:state": "LA", "brand": "USPS", "collection_times": "Mo-Sa 15:00", "name": "USPS COLLECTION BOX - BLUE BOX", "note": "ON 12/24 AND 12/31, THIS BOX MAY BE COLLECTED AS EARLY AS 12 NOON.", "ref": "7145900022"}, "type": "Feature"}
{"geometry": {"coordinates": [-93.219926, 31.073347], "type": "Point"}, "id": "phpOlgggVxaXKCdL3LcTaoQytxI=", "properties": {"@spider": "usps_collection_boxes", "addr:city": "FORT POLK", "addr:country": "US", "addr:full": "6180 UNIVERSITY PKWY", "addr:postcode": "71459", "addr:state": "LA", "brand": "USPS", "collection_times": "Mo-Fr 15:30; Sa 15:00", "name": "USPS COLLECTION BOX - PO LOBBY", "note": "ON 12/24 AND 12/31, THIS BOX MAY BE COLLECTED AS EARLY AS 12 NOON.", "ref": "7145900023"}, "type": "Feature"}
{"geometry": {"coordinates": [-93.219926, 31.073347], "type": "Point"}, "id": "66rcLri8ZLrkIWP6c2_Tnx7ArYM=", "properties": {"@spider": "usps_collection_boxes", "addr:city": "FORT POLK", "addr:country": "US", "addr:full": "6180 UNIVERSITY PKWY", "addr:postcode": "71459", "addr:state": "LA", "brand": "USPS", "collection_times": "Mo-Fr 15:30; Sa 15:00", "name": "USPS COLLECTION BOX - PO LOBBY", "note": "ON 12/24 AND 12/31, THIS BOX MAY BE COLLECTED AS EARLY AS 12 NOON.", "ref": "7145900026"}, "type": "Feature"}
{"geometry": {"coordinates": [-93.219946906, 31.073302965], "type": "Point"}, "id": "pFlcskNCbP7xaeZHR75_CeoKmoY=", "properties": {"@spider": "usps_collection_boxes", "addr:city": "FORT POLK", "addr:country": "US", "addr:full": "6180 UNIVERSITY PKWY", "addr:postcode": "71459", "addr:state": "LA", "brand": "USPS", "collection_times": "Mo-Fr 15:30; Sa 11:30", "name": "USPS COLLECTION BOX - PO LOBBY", "note": "ON 12/24 AND 12/31, THIS BOX MAY BE COLLECTED AS EARLY AS 12 NOON.", "ref": "7145900029"}, "type": "Feature"}
{"geometry": {"coordinates": [-93.5762162933, 31.4629920884], "type": "Point"}, "id": "tUbYETE_Wsq_8AG_Fjr_jrQdL6k=", "properties": {"@spider": "usps_collection_boxes", "addr:city": "NEGREET", "addr:country": "US", "addr:full": "4226 HIGHWAY 476", "addr:postcode": "71460", "addr:state": "LA", "brand": "USPS", "collection_times": "Mo-Fr 13:00; Sa 10:45", "name": "USPS COLLECTION BOX - BLUE BOX", "note": "ON 12/24 AND 12/31, THIS BOX MAY BE COLLECTED AS EARLY AS 12 NOON.", "ref": "7146000001"}, "type": "Feature"}
{"geometry": {"coordinates": [-93.5762162933, 31.4629920884], "type": "Point"}, "id": "7-_qK0RwOb_gxUU0g9l4-wNtg9I=", "properties": {"@spider": "usps_collection_boxes", "addr:city": "NEGREET", "addr:country": "US", "addr:full": "4226 HIGHWAY 476", "addr:postcode": "71460", "addr:state": "LA", "brand": "USPS", "collection_times": "Mo-Fr 12:45", "name": "USPS COLLECTION BOX - PO LOBBY", "note": "ON 12/24 AND 12/31, THIS BOX MAY BE COLLECTED AS EARLY AS 12 NOON.", "ref": "7146000002"}, "type": "Feature"}
{"geometry": {"coordinates": [-93.575050763, 31.46957634], "type": "Point"}, "id": "qxm-sXO7xCfaFXsY4GQGmq67V2E=", "properties": {"@spider": "usps_collection_boxes", "addr:city": "NEGREET", "addr:country": "US", "addr:full": "4226 HIGHWAY 476", "addr:postcode": "71460", "addr:state": "LA", "brand": "USPS", "collection_times": "Mo-Fr 13:00; Sa 11:30", "name": "USPS COLLECTION BOX - PO LOBBY", "note": "ON 12/24 AND 12/31, THIS BOX MAY BE COLLECTED AS EARLY AS 12 NOON.", "ref": "7146000003"}, "type": "Feature"}
{"geometry": {"coordinates": [-93.27261, 31.112909], "type": "Point"}, "id": "sOTuxGo_64KevibHveBTCwZ70yk=", "properties": {"@spider": "usps_collection_boxes", "addr:city": "NEW LLANO", "addr:country": "US", "addr:full": "330 VERNON ST", "addr:postcode": "71461", "addr:state": "LA", "brand": "USPS", "collection_times": "Mo-Fr 14:00; Sa 08:00", "name": "USPS COLLECTION BOX - BLUE BOX", "note": "ON 12/24 AND 12/31, THIS BOX MAY BE COLLECTED AS EARLY AS 12 NOON.", "ref": "7146100001"}, "type": "Feature"}
{"geometry": {"coordinates": [-93.27261, 31.112909], "type": "Point"}, "id": "ACrp9mH_CmSWHjhHEqcMG4jEetk=", "properties": {"@spider": "usps_collection_boxes", "addr:city": "NEW LLANO", "addr:country": "US", "addr:full": "330 VERNON ST", "addr:postcode": "71461", "addr:state": "LA", "brand": "USPS", "collection_times": "Mo-Fr 14:00; Sa 08:00", "name": "USPS COLLECTION BOX - PO LOBBY", "note": "ON 12/24 AND 12/31, THIS BOX MAY BE COLLECTED AS EARLY AS 12 NOON.", "ref": "7146100002"}, "type": "Feature"}
{"geometry": {"coordinates": [-93.27311725, 31.112932805], "type": "Point"}, "id": "2NCBXw41EwVN5PBpoO1q5poW3vI=", "properties": {"@spider": "usps_collection_boxes", "addr:city": "NEW LLANO", "addr:country": "US", "addr:full": "330 VERNON ST", "addr:postcode": "71461", "addr:state": "LA", "brand": "USPS", "collection_times": "Mo-Fr 15:30; Sa 09:00", "name": "USPS COLLECTION BOX - PO LOBBY", "note": "ON 12/24 AND 12/31, THIS BOX MAY BE COLLECTED AS EARLY AS 12 NOON.", "ref": "7146100004"}, "type": "Feature"}
{"geometry": {"coordinates": [-93.686751, 31.690137], "type": "Point"}, "id": "iz67gKfRDktluVpJmp6jcPQWRKE=", "properties": {"@spider": "usps_collection_boxes", "addr:city": "NOBLE", "addr:country": "US", "addr:full": "820 HIGHWAY 1218", "addr:postcode": "71462", "addr:state": "LA", "brand": "USPS", "collection_times": "Mo-Fr 11:00; Sa 08:45", "name": "USPS COLLECTION BOX - BLUE BOX", "ref": "7146200001"}, "type": "Feature"}
{"geometry": {"coordinates": [-93.686751, 31.690137], "type": "Point"}, "id": "cUfqsX-h3ivzKw99CpG68yMFQQw=", "properties": {"@spider": "usps_collection_boxes", "addr:city": "NOBLE", "addr:country": "US", "addr:full": "820 HIGHWAY 1218", "addr:postcode": "71462", "addr:state": "LA", "brand": "USPS", "collection_times": "Mo-Fr 11:00; Sa 08:45", "name": "USPS COLLECTION BOX - PO LOBBY", "ref": "7146200002"}, "type": "Feature"}
{"geometry": {"coordinates": [-93.686694245, 31.690169312], "type": "Point"}, "id": "PQBLjM0i-Q8_Q6gZ8i_1ztFG-f8=", "properties": {"@spider": "usps_collection_boxes", "addr:city": "NOBLE", "addr:country": "US", "addr:full": "820 HIGHWAY 1218", "addr:postcode": "71462", "addr:state": "LA", "brand": "USPS", "collection_times": "Mo-Fr 11:30", "name": "USPS COLLECTION BOX - PO LOBBY", "ref": "7146200003"}, "type": "Feature"}
{"geometry": {"coordinates": [-92.660796, 30.817191], "type": "Point"}, "id": "0B_O-fnE6YFm8z4AETYp-3c4pKA=", "properties": {"@spider": "usps_collection_boxes", "addr:city": "OAKDALE", "addr:country": "US", "addr:full": "100 N 11TH ST", "addr:postcode": "71463", "addr:state": "LA", "brand": "USPS", "collection_times": "Mo-Fr 15:00; Sa 13:00", "name": "USPS COLLECTION BOX - BLUE BOX", "note": "ON 12/24 AND 12/31, THIS BOX MAY BE COLLECTED AS EARLY AS 12 NOON.", "ref": "7146300007"}, "type": "Feature"}
{"geometry": {"coordinates": [-92.660796, 30.817192], "type": "Point"}, "id": "uZXwvGIpFVefVfKRDSjuhCU3Too=", "properties": {"@spider": "usps_collection_boxes", "addr:city": "OAKDALE", "addr:country": "US", "addr:full": "100 N 11TH ST", "addr:postcode": "71463", "addr:state": "LA", "brand": "USPS", "collection_times": "Mo-Fr 15:00; Sa 13:00", "name": "USPS COLLECTION BOX - BLUE BOX", "note": "ON 12/24 AND 12/31, THIS BOX MAY BE COLLECTED AS EARLY AS 12 NOON.", "ref": "7146300008"}, "type": "Feature"}
{"geometry": {"coordinates": [-92.661623, 30.81579], "type": "Point"}, "id": "GU0dXqTH6XRgWwEJtXh8oIHc4lo=", "properties": {"@spider": "usps_collection_boxes", "addr:city": "OAKDALE", "addr:country": "US", "addr:full": "240 E 6TH AVE", "addr:postcode": "71463", "addr:state": "LA", "brand": "USPS", "collection_times": "Mo-Fr 15:00; Sa 13:00", "name": "USPS COLLECTION BOX - PO LOBBY", "note": "ON 12/24 AND 12/31, THIS BOX MAY BE COLLECTED AS EARLY AS 12 NOON.", "ref": "7146300010"}, "type": "Feature"}
{"geometry": {"coordinates": [-92.661623, 30.81579], "type": "Point"}, "id": "zFnNqxgZO9ecvBpgjkisHOVvGcE=", "properties": {"@spider": "usps_collection_boxes", "addr:city": "OAKDALE", "addr:country": "US", "addr:full": "240 E 6TH AVE", "addr:postcode": "71463", "addr:state": "LA", "brand": "USPS", "collection_times": "Mo-Fr 15:00; Sa 13:00", "name": "USPS COLLECTION BOX - BLUE BOX", "note": "ON 12/24 AND 12/31, THIS BOX MAY BE COLLECTED AS EARLY AS 12 NOON.", "ref": "7146300012"}, "type": "Feature"}
{"geometry": {"coordinates": [-92.661648368, 30.815839934], "type": "Point"}, "id": "iHziOEBtydfsZoJOb4H4p3Q5Zds=", "properties": {"@spider": "usps_collection_boxes", "addr:city": "OAKDALE", "addr:country": "US", "addr:full": "240 E 6TH AVE", "addr:postcode": "71463", "addr:state": "LA", "brand": "USPS", "collection_times": "Mo-Fr 16:00; Sa 12:00", "name": "USPS COLLECTION BOX - PO LOBBY", "note": "ON 12/24 AND 12/31, THIS BOX MAY BE COLLECTED AS EARLY AS 12 NOON.", "ref": "7146300020"}, "type": "Feature"}
{"geometry": {"coordinates": [-92.2353973, 31.9020084], "type": "Point"}, "id": "-ofnmQ0HyHdA3o-nwM5sv1YY2NI=", "properties": {"@spider": "usps_collection_boxes", "addr:city": "OLLA", "addr:country": "US", "addr:full": "3470 MAIN STREET 165", "addr:postcode": "71465", "addr:state": "LA", "brand": "USPS", "collection_times": "Mo-Fr 14:00; Sa 09:00", "name": "USPS COLLECTION BOX - BLUE BOX", "note": "ON 12/24 AND 12/31, THIS BOX MAY BE COLLECTED AS EARLY AS 12 NOON.", "ref": "7146500001"}, "type": "Feature"}
{"geometry": {"coordinates": [-92.2353973, 31.9020084], "type": "Point"}, "id": "gE9qqllPqU8ZA9RwdULeSD9EHEY=", "properties": {"@spider": "usps_collection_boxes", "addr:city": "OLLA", "addr:country": "US", "addr:full": "3470 MAIN STREET 165", "addr:postcode": "71465", "addr:state": "LA", "brand": "USPS", "collection_times": "Mo-Fr 14:00; Sa 09:00", "name": "USPS COLLECTION BOX - PO LOBBY", "note": "ON 12/24 AND 12/31, THIS BOX MAY BE COLLECTED AS EARLY AS 12 NOON.", "ref": "7146500004"}, "type": "Feature"}
{"geometry": {"coordinates": [-92.2353973, 31.9020084], "type": "Point"}, "id": "WuQWT_JWThQwOHS_wGKLJ_zYP78=", "properties": {"@spider": "usps_collection_boxes", "addr:city": "OLLA", "addr:country": "US", "addr:full": "3470 MAIN STREET 165", "addr:postcode": "71465", "addr:state": "LA", "brand": "USPS", "collection_times": "Mo-Fr 15:30", "name": "USPS COLLECTION BOX - PO LOBBY", "note": "ON 12/24 AND 12/31, THIS BOX MAY BE COLLECTED AS EARLY AS 12 NOON.", "ref": "7146500006"}, "type": "Feature"}
{"geometry": {"coordinates": [-92.727939, 31.215285], "type": "Point"}, "id": "aqBHrgX7wwN61PTFA7So_9Gu_cA=", "properties": {"@spider": "usps_collection_boxes", "addr:city": "OTIS", "addr:country": "US", "addr:full": "2951 HIGHWAY 121", "addr:postcode": "71466", "addr:state": "LA", "brand": "USPS", "collection_times": "Mo-Fr 10:30; Sa 08:00", "name": "USPS COLLECTION BOX - BLUE BOX", "ref": "7146600001"}, "type": "Feature"}
{"geometry": {"coordinates": [-92.727939, 31.215285], "type": "Point"}, "id": "OcFhCNJL7xBdVExEJt08U3nhx1E=", "properties": {"@spider": "usps_collection_boxes", "addr:city": "OTIS", "addr:country": "US", "addr:full": "2951 HIGHWAY 121", "addr:postcode": "71466", "addr:state": "LA", "brand": "USPS", "collection_times": "Mo-Fr 10:30; Sa 08:00", "name": "USPS COLLECTION BOX - PO LOBBY", "ref": "7146600002"}, "type": "Feature"}
{"geometry": {"coordinates": [-92.727940409, 31.215278472], "type": "Point"}, "id": "JrnmolFChhZeqXS8OM7TtOg3Yog=", "properties": {"@spider": "usps_collection_boxes", "addr:city": "OTIS", "addr:country": "US", "addr:full": "2951 HIGHWAY 121", "addr:postcode": "71466", "addr:state": "LA", "brand": "USPS", "collection_times": "Mo-Fr 11:00", "name": "USPS COLLECTION BOX - PO LOBBY", "ref": "7146600003"}, "type": "Feature"}
{"geometry": {"coordinates": [-92.407593, 31.525611], "type": "Point"}, "id": "f6jkNwXlc18QQgpK_RjkkfdtD7c=", "properties": {"@spider": "usps_collection_boxes", "addr:city": "POLLOCK", "addr:country": "US", "addr:full": "7968 RIDGE ST", "addr:postcode": "71467", "addr:state": "LA", "brand": "USPS", "collection_times": "Mo-Fr 16:00; Sa 09:00", "name": "USPS COLLECTION BOX - BLUE BOX", "note": "ON 12/24 AND 12/31, THIS BOX MAY BE COLLECTED AS EARLY AS 12 NOON.", "ref": "7146700001"}, "type": "Feature"}
{"geometry": {"coordinates": [-92.407593, 31.525611], "type": "Point"}, "id": "zgc1DxIH2mrZkEZCY-Tfz-gsJVQ=", "properties": {"@spider": "usps_collection_boxes", "addr:city": "POLLOCK", "addr:country": "US", "addr:full": "7968 RIDGE ST", "addr:postcode": "71467", "addr:state": "LA", "brand": "USPS", "collection_times": "Mo-Fr 16:00; Sa 09:00", "name": "USPS COLLECTION BOX - PO LOBBY", "note": "ON 12/24 AND 12/31, THIS BOX MAY BE COLLECTED AS EARLY AS 12 NOON.", "ref": "7146700002"}, "type": "Feature"}
{"geometry": {"coordinates": [-92.407623373, 31.525614614], "type": "Point"}, "id": "Mtf1-lreNhsTNVlQ2y6bZ_nasxs=", "properties": {"@spider": "usps_collection_boxes", "addr:city": "POLLOCK", "addr:country": "US", "addr:full": "7968 RIDGE ST", "addr:postcode": "71467", "addr:state": "LA", "brand": "USPS", "collection_times": "Mo-Fr 16:00; Sa 09:00", "name": "USPS COLLECTION BOX - PO LOBBY", "note": "ON 12/24 AND 12/31, THIS BOX MAY BE COLLECTED AS EARLY AS 12 NOON.", "ref": "7146700003"}, "type": "Feature"}
{"geometry": {"coordinates": [-93.204854, 31.653687], "type": "Point"}, "id": "8F7ISZJoxnbe_92p18ACNMSB9Dw=", "properties": {"@spider": "usps_collection_boxes", "addr:city": "PROVENCAL", "addr:country": "US", "addr:full": "101 ROBELINE PROVENCAL RD", "addr:postcode": "71468", "addr:state": "LA", "brand": "USPS", "collection_times": "Mo-Fr 15:00; Sa 08:00", "name": "USPS COLLECTION BOX - BLUE BOX", "note": "ON 12/24 AND 12/31, THIS BOX MAY BE COLLECTED AS EARLY AS 12 NOON.", "ref": "7146800001"}, "type": "Feature"}
{"geometry": {"coordinates": [-93.204854, 31.653687], "type": "Point"}, "id": "zWShMaESlzRFmCA_1NeOjdEvbVU=", "properties": {"@spider": "usps_collection_boxes", "addr:city": "PROVENCAL", "addr:country": "US", "addr:full": "101 ROBELINE PROVENCAL RD", "addr:postcode": "71468", "addr:state": "LA", "brand": "USPS", "collection_times": "Mo-Fr 15:00", "name": "USPS COLLECTION BOX - PO LOBBY", "note": "ON 12/24 AND 12/31, THIS BOX MAY BE COLLECTED AS EARLY AS 12 NOON.", "ref": "7146800002"}, "type": "Feature"}
{"geometry": {"coordinates": [-93.204838608, 31.653628664], "type": "Point"}, "id": "UWTvkwTLWRTtAGKRrl6J4S3VgbU=", "properties": {"@spider": "usps_collection_boxes", "addr:city": "PROVENCAL", "addr:country": "US", "addr:full": "101 ROBELINE PROVENCAL RD", "addr:postcode": "71468", "addr:state": "LA", "brand": "USPS", "collection_times": "Mo-Fr 15:00", "name": "USPS COLLECTION BOX - PO LOBBY", "note": "ON 12/24 AND 12/31, THIS BOX MAY BE COLLECTED AS EARLY AS 12 NOON.", "ref": "7146800003"}, "type": "Feature"}
{"geometry": {"coordinates": [-93.302792, 31.69367], "type": "Point"}, "id": "wnPd8dZLkOx3qhxacaNiaz1v2QA=", "properties": {"@spider": "usps_collection_boxes", "addr:city": "ROBELINE", "addr:country": "US", "addr:full": "175 CHAPLIN LOOP", "addr:postcode": "71469", "addr:state": "LA", "brand": "USPS", "collection_times": "Mo-Fr 13:00; Sa 08:00", "name": "USPS COLLECTION BOX - BLUE BOX", "note": "ON 12/24 AND 12/31, THIS BOX MAY BE COLLECTED AS EARLY AS 12 NOON.", "ref": "7146900001"}, "type": "Feature"}
{"geometry": {"coordinates": [-93.302792, 31.69367], "type": "Point"}, "id": "XFx4W4kqM5X3rN7ICwr32ySvU-I=", "properties": {"@spider": "usps_collection_boxes", "addr:city": "ROBELINE", "addr:country": "US", "addr:full": "175 CHAPLIN LOOP", "addr:postcode": "71469", "addr:state": "LA", "brand": "USPS", "collection_times": "Mo-Fr 13:00; Sa 08:00", "name": "USPS COLLECTION BOX - PO LOBBY", "note": "ON 12/24 AND 12/31, THIS BOX MAY BE COLLECTED AS EARLY AS 12 NOON.", "ref": "7146900002"}, "type": "Feature"}
{"geometry": {"coordinates": [-93.302810109, 31.693631304], "type": "Point"}, "id": "CUS1xpPxs25hlkqlgXX-oUqvy4E=", "properties": {"@spider": "usps_collection_boxes", "addr:city": "ROBELINE", "addr:country": "US", "addr:full": "175 CHAPLIN LOOP", "addr:postcode": "71469", "addr:state": "LA", "brand": "USPS", "collection_times": "Mo-Fr 15:00", "name": "USPS COLLECTION BOX - PO LOBBY", "note": "ON 12/24 AND 12/31, THIS BOX MAY BE COLLECTED AS EARLY AS 12 NOON.", "ref": "7146900004"}, "type": "Feature"}
{"geometry": {"coordinates": [-92.486635, 32.080443], "type": "Point"}, "id": "FESNwx6togpQvWQHPp3rO8ZASgk=", "properties": {"@spider": "usps_collection_boxes", "addr:city": "SIKES", "addr:country": "US", "addr:full": "4697 HIGHWAY 126", "addr:postcode": "71473", "addr:state": "LA", "brand": "USPS", "collection_times": "Mo-Fr 11:30; Sa 07:45", "name": "USPS COLLECTION BOX - BLUE BOX", "ref": "7147300001"}, "type": "Feature"}
{"geometry": {"coordinates": [-92.486635, 32.080443], "type": "Point"}, "id": "ib3ux_gOf5gVMXoRgr_b3dY6SUI=", "properties": {"@spider": "usps_collection_boxes", "addr:city": "SIKES", "addr:country": "US", "addr:full": "4697 HIGHWAY 126", "addr:postcode": "71473", "addr:state": "LA", "brand": "USPS", "collection_times": "Mo-Fr 11:30", "name": "USPS COLLECTION BOX - PO LOBBY", "ref": "7147300002"}, "type": "Feature"}
{"geometry": {"coordinates": [-92.486650648, 32.080397021], "type": "Point"}, "id": "eRXo9_AGUs4kNFMcZig7wA9Irww=", "properties": {"@spider": "usps_collection_boxes", "addr:city": "SIKES", "addr:country": "US", "addr:full": "4697 HIGHWAY 126", "addr:postcode": "71473", "addr:state": "LA", "brand": "USPS", "collection_times": "Mo-Fr 11:30", "name": "USPS COLLECTION BOX - PO LOBBY", "ref": "7147300003"}, "type": "Feature"}
{"geometry": {"coordinates": [-93.010563, 31.261431], "type": "Point"}, "id": "eYV7mjLEf2BWw94Mq338-jPiRmA=", "properties": {"@spider": "usps_collection_boxes", "addr:city": "SIMPSON", "addr:country": "US", "addr:full": "4259 HIGHWAY 8", "addr:postcode": "71474", "addr:state": "LA", "brand": "USPS", "collection_times": "Mo-Fr 15:30; Sa 09:30", "name": "USPS COLLECTION BOX - BLUE BOX", "note": "ON 12/24 AND 12/31, THIS BOX MAY BE COLLECTED AS EARLY AS 12 NOON.", "ref": "7147400000"}, "type": "Feature"}
{"geometry": {"coordinates": [-93.010512, 31.261451], "type": "Point"}, "id": "Z85qmkpr9Y79nZS7M09FbRbc5jc=", "properties": {"@spider": "usps_collection_boxes", "addr:city": "SIMPSON", "addr:country": "US", "addr:full": "4259 HIGHWAY 8", "addr:postcode": "71474", "addr:state": "LA", "brand": "USPS", "collection_times": "Mo-Fr 15:30; Sa 09:30", "name": "USPS COLLECTION BOX - PO LOBBY", "note": "ON 12/24 AND 12/31, THIS BOX MAY BE COLLECTED AS EARLY AS 12 NOON.", "ref": "7147400001"}, "type": "Feature"}
{"geometry": {"coordinates": [-93.0101016534, 31.2613074443], "type": "Point"}, "id": "wikuF98s1q4r1CQOeb-7NLTTGr8=", "properties": {"@spider": "usps_collection_boxes", "addr:city": "SIMPSON", "addr:country": "US", "addr:full": "4259 HIGHWAY 8", "addr:postcode": "71474", "addr:state": "LA", "brand": "USPS", "collection_times": "Mo-Fr 15:30; Sa 09:30", "name": "USPS COLLECTION BOX - PO LOBBY", "note": "ON 12/24 AND 12/31, THIS BOX MAY BE COLLECTED AS EARLY AS 12 NOON.", "ref": "7147400002"}, "type": "Feature"}
{"geometry": {"coordinates": [-93.1358340332, 31.1990130746], "type": "Point"}, "id": "vAVP6pDE3ETJUb140Qec05w7ny8=", "properties": {"@spider": "usps_collection_boxes", "addr:city": "SLAGLE", "addr:country": "US", "addr:full": "8787 HIGHWAY 8", "addr:postcode": "71475", "addr:state": "LA", "brand": "USPS", "collection_times": "Mo-Fr 15:00; Sa 11:30", "name": "USPS COLLECTION BOX - BLUE BOX", "note": "ON 12/24 AND 12/31, THIS BOX MAY BE COLLECTED AS EARLY AS 12 NOON.", "ref": "7147500002"}, "type": "Feature"}
{"geometry": {"coordinates": [-93.1358340332, 31.1990130746], "type": "Point"}, "id": "aNL7Cfhdn7EUTePcCw9QYwc585Q=", "properties": {"@spider": "usps_collection_boxes", "addr:city": "SLAGLE", "addr:country": "US", "addr:full": "8787 HIGHWAY 8", "addr:postcode": "71475", "addr:state": "LA", "brand": "USPS", "collection_times": "Mo-Fr 15:00; Sa 11:30", "name": "USPS COLLECTION BOX - PO LOBBY", "note": "ON 12/24 AND 12/31, THIS BOX MAY BE COLLECTED AS EARLY AS 12 NOON.", "ref": "7147500003"}, "type": "Feature"}
{"geometry": {"coordinates": [-93.127256817, 31.202221103], "type": "Point"}, "id": "0ky0lBWbSfWimyuvmlLDQ7vsbpc=", "properties": {"@spider": "usps_collection_boxes", "addr:city": "SLAGLE", "addr:country": "US", "addr:full": "8787 HIGHWAY 8", "addr:postcode": "71475", "addr:state": "LA", "brand": "USPS", "collection_times": "Mo-Fr 15:00; Sa 11:30", "name": "USPS COLLECTION BOX - PO LOBBY", "note": "ON 12/24 AND 12/31, THIS BOX MAY BE COLLECTED AS EARLY AS 12 NOON.", "ref": "7147500004"}, "type": "Feature"}
{"geometry": {"coordinates": [-92.4358999254, 31.3881678665], "type": "Point"}, "id": "2oLwongxlzYPxrrpJ2hGIlc45mQ=", "properties": {"@spider": "usps_collection_boxes", "addr:city": "TIOGA", "addr:country": "US", "addr:full": "5019 SHREVEPORT HWY", "addr:postcode": "71477", "addr:state": "LA", "brand": "USPS", "collection_times": "Mo-Fr 16:00; Sa 07:30", "name": "USPS COLLECTION BOX - BLUE BOX", "note": "ON 12/24 AND 12/31, THIS BOX MAY BE COLLECTED AS EARLY AS 12 NOON.", "ref": "7147700001"}, "type": "Feature"}
{"geometry": {"coordinates": [-92.4358999254, 31.3881678665], "type": "Point"}, "id": "X7kloDpPjcMi5RMAfrmO5K8AHjs=", "properties": {"@spider": "usps_collection_boxes", "addr:city": "TIOGA", "addr:country": "US", "addr:full": "5019 SHREVEPORT HWY", "addr:postcode": "71477", "addr:state": "LA", "brand": "USPS", "collection_times": "Mo-Fr 16:00; Sa 07:30", "name": "USPS COLLECTION BOX - BLUE BOX", "note": "ON 12/24 AND 12/31, THIS BOX MAY BE COLLECTED AS EARLY AS 12 NOON.", "ref": "7147700002"}, "type": "Feature"}
{"geometry": {"coordinates": [-92.4358999254, 31.3881678665], "type": "Point"}, "id": "PRhY4q_HXTWfI84heOR46muOohM=", "properties": {"@spider": "usps_collection_boxes", "addr:city": "TIOGA", "addr:country": "US", "addr:full": "5019 SHREVEPORT HWY", "addr:postcode": "71477", "addr:state": "LA", "brand": "USPS", "collection_times": "Mo-Fr 16:00; Sa 07:30", "name": "USPS COLLECTION BOX - PO LOBBY", "note": "ON 12/24 AND 12/31, THIS BOX MAY BE COLLECTED AS EARLY AS 12 NOON.", "ref": "7147700004"}, "type": "Feature"}
{"geometry": {"coordinates": [-92.436333015, 31.389167253], "type": "Point"}, "id": "pP0VzjOrOQuSjGCSbnXiZ5LJ0BY=", "properties": {"@spider": "usps_collection_boxes", "addr:city": "TIOGA", "addr:country": "US", "addr:full": "5019 SHREVEPORT HWY", "addr:postcode": "71477", "addr:state": "LA", "brand": "USPS", "collection_times": "Mo-Fr 16:00", "name": "USPS COLLECTION BOX - PO LOBBY", "note": "ON 12/24 AND 12/31, THIS BOX MAY BE COLLECTED AS EARLY AS 12 NOON.", "ref": "7147700006"}, "type": "Feature"}
{"geometry": {"coordinates": [-92.330517, 31.818313], "type": "Point"}, "id": "1AWE-5a0-6xfYGB8TjbJZwtHv2w=", "properties": {"@spider": "usps_collection_boxes", "addr:city": "TULLOS", "addr:country": "US", "addr:full": "10175 S MAIN ST", "addr:postcode": "71479", "addr:state": "LA", "brand": "USPS", "collection_times": "Mo-Fr 14:00; Sa 07:15", "name": "USPS COLLECTION BOX - BLUE BOX", "note": "ON 12/24 AND 12/31, THIS BOX MAY BE COLLECTED AS EARLY AS 12 NOON.", "ref": "7147900001"}, "type": "Feature"}
{"geometry": {"coordinates": [-92.330517, 31.818313], "type": "Point"}, "id": "Cfb5zM0x9ZFZV07Dn0QvmuXd1Dg=", "properties": {"@spider": "usps_collection_boxes", "addr:city": "TULLOS", "addr:country": "US", "addr:full": "10175 S MAIN ST", "addr:postcode": "71479", "addr:state": "LA", "brand": "USPS", "collection_times": "Mo-Fr 14:00", "name": "USPS COLLECTION BOX - PO LOBBY", "note": "ON 12/24 AND 12/31, THIS BOX MAY BE COLLECTED AS EARLY AS 12 NOON.", "ref": "7147900002"}, "type": "Feature"}
{"geometry": {"coordinates": [-92.330578479, 31.818225144], "type": "Point"}, "id": "8kCCge680IABqoxgFN6ViH44Adc=", "properties": {"@spider": "usps_collection_boxes", "addr:city": "TULLOS", "addr:country": "US", "addr:full": "10175 S MAIN ST", "addr:postcode": "71479", "addr:state": "LA", "brand": "USPS", "collection_times": "Mo-Fr 14:30", "name": "USPS COLLECTION BOX - PO LOBBY", "note": "ON 12/24 AND 12/31, THIS BOX MAY BE COLLECTED AS EARLY AS 12 NOON.", "ref": "7147900003"}, "type": "Feature"}
{"geometry": {"coordinates": [-92.294345, 31.86323], "type": "Point"}, "id": "b8fT-WuMSlOTcHGXOABXsk_hJBY=", "properties": {"@spider": "usps_collection_boxes", "addr:city": "URANIA", "addr:country": "US", "addr:full": "2150 E HARDTNER DR", "addr:postcode": "71480", "addr:state": "LA", "brand": "USPS", "collection_times": "Mo-Fr 14:00; Sa 07:00", "name": "USPS COLLECTION BOX - BLUE BOX", "note": "ON 12/24 AND 12/31, THIS BOX MAY BE COLLECTED AS EARLY AS 12 NOON.", "ref": "7148000001"}, "type": "Feature"}
{"geometry": {"coordinates": [-92.294305, 31.86324], "type": "Point"}, "id": "hYBz2m159OYRvR3-h2c1WlzwLvw=", "properties": {"@spider": "usps_collection_boxes", "addr:city": "URANIA", "addr:country": "US", "addr:full": "2150 E HARDTNER DR", "addr:postcode": "71480", "addr:state": "LA", "brand": "USPS", "collection_times": "Mo-Fr 14:00", "name": "USPS COLLECTION BOX - PO LOBBY", "note": "ON 12/24 AND 12/31, THIS BOX MAY BE COLLECTED AS EARLY AS 12 NOON.", "ref": "7148000002"}, "type": "Feature"}
{"geometry": {"coordinates": [-92.295088742, 31.863647484], "type": "Point"}, "id": "R97H6PLJjIX3J14uUYANMDX2raI=", "properties": {"@spider": "usps_collection_boxes", "addr:city": "URANIA", "addr:country": "US", "addr:full": "2150 E HARDTNER DR", "addr:postcode": "71480", "addr:state": "LA", "brand": "USPS", "collection_times": "Mo-Fr 14:30", "name": "USPS COLLECTION BOX - PO LOBBY", "note": "ON 12/24 AND 12/31, THIS BOX MAY BE COLLECTED AS EARLY AS 12 NOON.", "ref": "7148000003"}, "type": "Feature"}
{"geometry": {"coordinates": [-92.637538, 31.925761], "type": "Point"}, "id": "3TlI3ormnQQgh3IhN8YIglffMJk=", "properties": {"@spider": "usps_collection_boxes", "addr:city": "WINNFIELD", "addr:country": "US", "addr:full": "201 S BEVILL ST", "addr:postcode": "71483", "addr:state": "LA", "brand": "USPS", "collection_times": "Mo-Fr 15:00; Sa 14:00", "name": "USPS COLLECTION BOX - BLUE BOX", "note": "ON 12/24 AND 12/31, THIS BOX MAY BE COLLECTED AS EARLY AS 12 NOON.", "ref": "7148300002"}, "type": "Feature"}
{"geometry": {"coordinates": [-92.637538, 31.925761], "type": "Point"}, "id": "mTV8waJTgMqlmoy08wVj4Vu_tGw=", "properties": {"@spider": "usps_collection_boxes", "addr:city": "WINNFIELD", "addr:country": "US", "addr:full": "201 S BEVILL ST", "addr:postcode": "71483", "addr:state": "LA", "brand": "USPS", "collection_times": "Mo-Fr 15:00; Sa 14:00", "name": "USPS COLLECTION BOX - PO LOBBY", "note": "ON 12/24 AND 12/31, THIS BOX MAY BE COLLECTED AS EARLY AS 12 NOON.", "ref": "7148300014"}, "type": "Feature"}
{"geometry": {"coordinates": [-92.637538, 31.925761], "type": "Point"}, "id": "eanEg0iWPBLdQo_h-yWMuYy9SNA=", "properties": {"@spider": "usps_collection_boxes", "addr:city": "WINNFIELD", "addr:country": "US", "addr:full": "201 S BEVILL ST", "addr:postcode": "71483", "addr:state": "LA", "brand": "USPS", "collection_times": "Mo-Fr 15:00; Sa 14:00", "name": "USPS COLLECTION BOX - PO LOBBY", "note": "ON 12/24 AND 12/31, THIS BOX MAY BE COLLECTED AS EARLY AS 12 NOON.", "ref": "7148300015"}, "type": "Feature"}
{"geometry": {"coordinates": [-92.637538, 31.925761], "type": "Point"}, "id": "ylWObXMEM3h7WGIIMM4Rhg84EBY=", "properties": {"@spider": "usps_collection_boxes", "addr:city": "WINNFIELD", "addr:country": "US", "addr:full": "201 S BEVILL ST", "addr:postcode": "71483", "addr:state": "LA", "brand": "USPS", "collection_times": "Mo-Fr 15:00; Sa 14:00", "name": "USPS COLLECTION BOX - BLUE BOX", "note": "ON 12/24 AND 12/31, THIS BOX MAY BE COLLECTED AS EARLY AS 12 NOON.", "ref": "7148300018"}, "type": "Feature"}
{"geometry": {"coordinates": [-92.637514044, 31.925786544], "type": "Point"}, "id": "kPNkWTSXPsd1bk-9FaTGLdHsKr8=", "properties": {"@spider": "usps_collection_boxes", "addr:city": "WINNFIELD", "addr:country": "US", "addr:full": "201 S BEVILL ST", "addr:postcode": "71483", "addr:state": "LA", "brand": "USPS", "collection_times": "Mo-Fr 16:00; Sa 10:00", "name": "USPS COLLECTION BOX - PO LOBBY", "note": "ON 12/24 AND 12/31, THIS BOX MAY BE COLLECTED AS EARLY AS 12 NOON.", "ref": "7148300019"}, "type": "Feature"}
{"geometry": {"coordinates": [-92.498895, 31.147597], "type": "Point"}, "id": "5ptByrQ4ieMRJiLFYY4hEouSfLo=", "properties": {"@spider": "usps_collection_boxes", "addr:city": "WOODWORTH", "addr:country": "US", "addr:full": "20 CASTOR PLUNGE RD", "addr:postcode": "71485", "addr:state": "LA", "brand": "USPS", "collection_times": "Mo-Fr 13:00; Sa 08:00", "name": "USPS COLLECTION BOX - BLUE BOX", "note": "ON 12/24 AND 12/31, THIS BOX MAY BE COLLECTED AS EARLY AS 12 NOON.", "ref": "7148500001"}, "type": "Feature"}
{"geometry": {"coordinates": [-92.498895, 31.147597], "type": "Point"}, "id": "9UZoUFmgvAJ0tgwB2NNIFcK7va8=", "properties": {"@spider": "usps_collection_boxes", "addr:city": "WOODWORTH", "addr:country": "US", "addr:full": "20 CASTOR PLUNGE RD", "addr:postcode": "71485", "addr:state": "LA", "brand": "USPS", "collection_times": "Mo-Fr 13:00; Sa 08:00", "name": "USPS COLLECTION BOX - PO LOBBY", "note": "ON 12/24 AND 12/31, THIS BOX MAY BE COLLECTED AS EARLY AS 12 NOON.", "ref": "7148500002"}, "type": "Feature"}
{"geometry": {"coordinates": [-92.498893806, 31.147591797], "type": "Point"}, "id": "Ou27jo2IFg3isDMS5O_2KvSS_LM=", "properties": {"@spider": "usps_collection_boxes", "addr:city": "WOODWORTH", "addr:country": "US", "addr:full": "20 CASTOR PLUNGE RD", "addr:postcode": "71485", "addr:state": "LA", "brand": "USPS", "collection_times": "Mo-Fr 13:30", "name": "USPS COLLECTION BOX - PO LOBBY", "note": "ON 12/24 AND 12/31, THIS BOX MAY BE COLLECTED AS EARLY AS 12 NOON.", "ref": "7148500003"}, "type": "Feature"}
{"geometry": {"coordinates": [-93.639607, 31.631138], "type": "Point"}, "id": "6rjExDAdOh3Fdaa5rbuq7JaA0RA=", "properties": {"@spider": "usps_collection_boxes", "addr:city": "ZWOLLE", "addr:country": "US", "addr:full": "1237 N MAIN ST", "addr:postcode": "71486", "addr:state": "LA", "brand": "USPS", "collection_times": "Mo-Fr 15:00; Sa 10:15", "name": "USPS COLLECTION BOX - BLUE BOX", "note": "ON 12/24 AND 12/31, THIS BOX MAY BE COLLECTED AS EARLY AS 12 NOON.", "ref": "7148600001"}, "type": "Feature"}
{"geometry": {"coordinates": [-93.639607, 31.631138], "type": "Point"}, "id": "qUHA0wrrY8KhlN3vscTpCGBWTpA=", "properties": {"@spider": "usps_collection_boxes", "addr:city": "ZWOLLE", "addr:country": "US", "addr:full": "1237 N MAIN ST", "addr:postcode": "71486", "addr:state": "LA", "brand": "USPS", "collection_times": "Mo-Fr 15:00; Sa 10:15", "name": "USPS COLLECTION BOX - PO LOBBY", "note": "ON 12/24 AND 12/31, THIS BOX MAY BE COLLECTED AS EARLY AS 12 NOON.", "ref": "7148600003"}, "type": "Feature"}
{"geometry": {"coordinates": [-93.639610299, 31.631137373], "type": "Point"}, "id": "KjnhSzpgO-9u21ru-fo2xNuQ9Bc=", "properties": {"@spider": "usps_collection_boxes", "addr:city": "ZWOLLE", "addr:country": "US", "addr:full": "1237 N MAIN ST", "addr:postcode": "71486", "addr:state": "LA", "brand": "USPS", "collection_times": "Mo-Fr 15:30; Sa 10:00", "name": "USPS COLLECTION BOX - PO LOBBY", "note": "ON 12/24 AND 12/31, THIS BOX MAY BE COLLECTED AS EARLY AS 12 NOON.", "ref": "7148600005"}, "type": "Feature"}
