{"geometry": {"coordinates": [-91.4838462, 33.88428], "type": "Point"}, "id": "Ok-VZZMaVjHQmI1hFpRfcRwlPYg=", "properties": {"@spider": "usps_collection_boxes", "addr:city": "DUMAS", "addr:country": "US", "addr:full": "358 HIGHWAY 65 S", "addr:postcode": "71639", "addr:state": "AR", "brand": "USPS", "collection_times": "Mo-Sa 14:00", "name": "USPS COLLECTION BOX - BLUE BOX", "note": "ON 12/24 AND 12/31, THIS BOX MAY BE COLLECTED AS EARLY AS 12 NOON.", "ref": "7163900009"}, "type": "Feature"}
{"geometry": {"coordinates": [-91.493341, 33.890656], "type": "Point"}, "id": "86pejSHpU5TTR6AYQ2ZoFHWZNjU=", "properties": {"@spider": "usps_collection_boxes", "addr:city": "DUMAS", "addr:country": "US", "addr:full": "320 N MAIN ST", "addr:postcode": "71639", "addr:state": "AR", "brand": "USPS", "collection_times": "Mo-Fr 16:30; Sa 11:30", "name": "USPS COLLECTION BOX - PO LOBBY", "note": "ON 12/24 AND 12/31, THIS BOX MAY BE COLLECTED AS EARLY AS 12 NOON.", "ref": "7163900013"}, "type": "Feature"}
{"geometry": {"coordinates": [-91.493341, 33.890656], "type": "Point"}, "id": "lskG8vt_UlhYoNndse4uLHUUPMM=", "properties": {"@spider": "usps_collection_boxes", "addr:city": "DUMAS", "addr:country": "US", "addr:full": "320 N MAIN ST", "addr:postcode": "71639", "addr:state": "AR", "brand": "USPS", "collection_times": "Mo-Fr 16:30; Sa 11:30", "name": "USPS COLLECTION BOX - BLUE BOX", "note": "ON 12/24 AND 12/31, THIS BOX MAY BE COLLECTED AS EARLY AS 12 NOON.", "ref": "7163900015"}, "type": "Feature"}
{"geometry": {"coordinates": [-91.493341, 33.890656], "type": "Point"}, "id": "HAV_-KIm1YYPwHFZhLJILofFuXA=", "properties": {"@spider": "usps_collection_boxes", "addr:city": "DUMAS", "addr:country": "US", "addr:full": "320 N MAIN ST", "addr:postcode": "71639", "addr:state": "AR", "brand": "USPS", "collection_times": "Mo-Fr 16:30; Sa 11:30", "name": "USPS COLLECTION BOX - PO LOBBY", "note": "ON 12/24 AND 12/31, THIS BOX MAY BE COLLECTED AS EARLY AS 12 NOON.", "ref": "7163900020"}, "type": "Feature"}
{"geometry": {"coordinates": [-91.493341, 33.890656], "type": "Point"}, "id": "6EBEuGqLckjX_1n-Uxp1DlBHyf8=", "properties": {"@spider": "usps_collection_boxes", "addr:city": "DUMAS", "addr:country": "US", "addr:full": "320 N MAIN ST", "addr:postcode": "71639", "addr:state": "AR", "brand": "USPS", "collection_times": "Mo-Fr 16:30; Sa 11:30", "name": "USPS COLLECTION BOX - PO LOBBY", "note": "ON 12/24 AND 12/31, THIS BOX MAY BE COLLECTED AS EARLY AS 12 NOON.", "ref": "7163900021"}, "type": "Feature"}
{"geometry": {"coordinates": [-91.493322797, 33.890682986], "type": "Point"}, "id": "NdGfQ-S6McmYzO9flIZUJEe9iBM=", "properties": {"@spider": "usps_collection_boxes", "addr:city": "DUMAS", "addr:country": "US", "addr:full": "320 N MAIN ST", "addr:postcode": "71639", "addr:state": "AR", "brand": "USPS", "collection_times": "Mo-Fr 16:30", "name": "USPS COLLECTION BOX - PO LOBBY", "note": "ON 12/24 AND 12/31, THIS BOX MAY BE COLLECTED AS EARLY AS 12 NOON.", "ref": "7163900022"}, "type": "Feature"}
{"geometry": {"coordinates": [-91.284154, 33.330814], "type": "Point"}, "id": "ubUZ6bQhXK5DTcu3xsKjms72d8A=", "properties": {"@spider": "usps_collection_boxes", "addr:city": "LAKE VILLAGE", "addr:country": "US", "addr:full": "205 S CHICOT ST", "addr:postcode": "71653", "addr:state": "AR", "brand": "USPS", "collection_times": "Mo-Fr 16:15; Sa 10:30", "name": "USPS COLLECTION BOX - BLUE BOX", "note": "ON 12/24 AND 12/31, THIS BOX MAY BE COLLECTED AS EARLY AS 12 NOON.", "ref": "7165300001"}, "type": "Feature"}
{"geometry": {"coordinates": [-91.283456, 33.330509], "type": "Point"}, "id": "RY0nNY7AtVAj_-GqPfvocZQNOdE=", "properties": {"@spider": "usps_collection_boxes", "addr:city": "LAKE VILLAGE", "addr:country": "US", "addr:full": "206 S COKLEY ST", "addr:postcode": "71653", "addr:state": "AR", "brand": "USPS", "collection_times": "Mo-Fr 16:15; Sa 10:30", "name": "USPS COLLECTION BOX - PO LOBBY", "note": "ON 12/24 AND 12/31, THIS BOX MAY BE COLLECTED AS EARLY AS 12 NOON.", "ref": "7165300009"}, "type": "Feature"}
{"geometry": {"coordinates": [-91.283456, 33.330509], "type": "Point"}, "id": "1AYR8M3HIr2aC139ln7wsCMQQR4=", "properties": {"@spider": "usps_collection_boxes", "addr:city": "LAKE VILLAGE", "addr:country": "US", "addr:full": "206 S COKLEY ST", "addr:postcode": "71653", "addr:state": "AR", "brand": "USPS", "collection_times": "Mo-Fr 16:15; Sa 10:30", "name": "USPS COLLECTION BOX - PO LOBBY", "note": "ON 12/24 AND 12/31, THIS BOX MAY BE COLLECTED AS EARLY AS 12 NOON.", "ref": "7165300010"}, "type": "Feature"}
{"geometry": {"coordinates": [-91.283456, 33.330509], "type": "Point"}, "id": "EfuFTqLyCCfSVES1vwh1QQioJrA=", "properties": {"@spider": "usps_collection_boxes", "addr:city": "LAKE VILLAGE", "addr:country": "US", "addr:full": "206 S COKLEY ST", "addr:postcode": "71653", "addr:state": "AR", "brand": "USPS", "collection_times": "Mo-Fr 16:15; Sa 10:30", "name": "USPS COLLECTION BOX - PO LOBBY", "note": "ON 12/24 AND 12/31, THIS BOX MAY BE COLLECTED AS EARLY AS 12 NOON.", "ref": "7165300011"}, "type": "Feature"}
{"geometry": {"coordinates": [-91.283483623, 33.330423845], "type": "Point"}, "id": "2Uougr8vo-2wBE_xlpaT9uOJG2I=", "properties": {"@spider": "usps_collection_boxes", "addr:city": "LAKE VILLAGE", "addr:country": "US", "addr:full": "206 S COKLEY ST", "addr:postcode": "71653", "addr:state": "AR", "brand": "USPS", "collection_times": "Mo-Fr 16:30", "name": "USPS COLLECTION BOX - PO LOBBY", "note": "ON 12/24 AND 12/31, THIS BOX MAY BE COLLECTED AS EARLY AS 12 NOON.", "ref": "7165300016"}, "type": "Feature"}
{"geometry": {"coordinates": [-91.493493, 33.297392], "type": "Point"}, "id": "b1VDGuO5Gl4NPV59Yxu4op2h2OU=", "properties": {"@spider": "usps_collection_boxes", "addr:city": "MONTROSE", "addr:country": "US", "addr:full": "1400 HIGHWAY 165 N", "addr:postcode": "71658", "addr:state": "AR", "brand": "USPS", "collection_times": "Mo-Fr 14:30; Sa 14:00", "name": "USPS COLLECTION BOX - BLUE BOX", "note": "ON 12/24 AND 12/31, THIS BOX MAY BE COLLECTED AS EARLY AS 12 NOON.", "ref": "7165800000"}, "type": "Feature"}
{"geometry": {"coordinates": [-91.493493, 33.297392], "type": "Point"}, "id": "zfgq1iwL14XirLtH94yaf44dxoM=", "properties": {"@spider": "usps_collection_boxes", "addr:city": "MONTROSE", "addr:country": "US", "addr:full": "1400 HIGHWAY 165 N", "addr:postcode": "71658", "addr:state": "AR", "brand": "USPS", "collection_times": "Mo-Fr 14:30; Sa 14:00", "name": "USPS COLLECTION BOX - PO LOBBY", "note": "ON 12/24 AND 12/31, THIS BOX MAY BE COLLECTED AS EARLY AS 12 NOON.", "ref": "7165800001"}, "type": "Feature"}
{"geometry": {"coordinates": [-91.493493, 33.297392], "type": "Point"}, "id": "lo9xSeRZU8OmYaN9ASvnAAed5_U=", "properties": {"@spider": "usps_collection_boxes", "addr:city": "MONTROSE", "addr:country": "US", "addr:full": "1400 HIGHWAY 165 N", "addr:postcode": "71658", "addr:state": "AR", "brand": "USPS", "collection_times": "Mo-Fr 14:30; Sa 14:00", "name": "USPS COLLECTION BOX - PO LOBBY", "note": "ON 12/24 AND 12/31, THIS BOX MAY BE COLLECTED AS EARLY AS 12 NOON.", "ref": "7165800003"}, "type": "Feature"}
{"geometry": {"coordinates": [-91.493473926, 33.297356513], "type": "Point"}, "id": "0mKebDR8RKamZEVRjUJiXVETSVU=", "properties": {"@spider": "usps_collection_boxes", "addr:city": "MONTROSE", "addr:country": "US", "addr:full": "1400 HIGHWAY 165 N", "addr:postcode": "71658", "addr:state": "AR", "brand": "USPS", "collection_times": "Mo-Fr 15:00; Sa 14:30", "name": "USPS COLLECTION BOX - PO LOBBY", "note": "ON 12/24 AND 12/31, THIS BOX MAY BE COLLECTED AS EARLY AS 12 NOON.", "ref": "7165800005"}, "type": "Feature"}
{"geometry": {"coordinates": [-91.481267, 33.838709], "type": "Point"}, "id": "TzkyBaIIWeoR2LyUdlm0GC_qr0A=", "properties": {"@spider": "usps_collection_boxes", "addr:city": "PICKENS", "addr:country": "US", "addr:full": "126 PICKENS RD", "addr:postcode": "71662", "addr:state": "AR", "brand": "USPS", "collection_times": "Mo-Fr 13:45; Sa 10:30", "name": "USPS COLLECTION BOX - BLUE BOX", "note": "ON 12/24 AND 12/31, THIS BOX MAY BE COLLECTED AS EARLY AS 12 NOON.", "ref": "7166200001"}, "type": "Feature"}
{"geometry": {"coordinates": [-91.481267, 33.838709], "type": "Point"}, "id": "IBu-2Ctl1g8VNCFvY3dULZSe9_E=", "properties": {"@spider": "usps_collection_boxes", "addr:city": "PICKENS", "addr:country": "US", "addr:full": "126 PICKENS RD", "addr:postcode": "71662", "addr:state": "AR", "brand": "USPS", "collection_times": "Mo-Fr 13:45; Sa 10:30", "name": "USPS COLLECTION BOX - PO LOBBY", "note": "ON 12/24 AND 12/31, THIS BOX MAY BE COLLECTED AS EARLY AS 12 NOON.", "ref": "7166200002"}, "type": "Feature"}
{"geometry": {"coordinates": [-91.480231726, 33.844405465], "type": "Point"}, "id": "4-GHDU9yMrAHioF8Gip6EUN0ZjI=", "properties": {"@spider": "usps_collection_boxes", "addr:city": "PICKENS", "addr:country": "US", "addr:full": "126 RAILROAD ST", "addr:postcode": "71662", "addr:state": "AR", "brand": "USPS", "collection_times": "Mo-Fr 14:30; Sa 11:00", "name": "USPS COLLECTION BOX - PO LOBBY", "note": "ON 12/24 AND 12/31, THIS BOX MAY BE COLLECTED AS EARLY AS 12 NOON.", "ref": "7166200004"}, "type": "Feature"}
{"geometry": {"coordinates": [-91.511792, 33.237611], "type": "Point"}, "id": "393wI6jX8j1rS1U_gaz9j7Uz6_w=", "properties": {"@spider": "usps_collection_boxes", "addr:city": "PORTLAND", "addr:country": "US", "addr:full": "145 N MAIN ST", "addr:postcode": "71663", "addr:state": "AR", "brand": "USPS", "collection_times": "Mo-Fr 11:00; Sa 11:30", "name": "USPS COLLECTION BOX - BLUE BOX", "ref": "7166300001"}, "type": "Feature"}
{"geometry": {"coordinates": [-91.511792, 33.237611], "type": "Point"}, "id": "WYCRQN0v9V9BjqC1GglKKCkxvZ0=", "properties": {"@spider": "usps_collection_boxes", "addr:city": "PORTLAND", "addr:country": "US", "addr:full": "145 N MAIN ST", "addr:postcode": "71663", "addr:state": "AR", "brand": "USPS", "collection_times": "Mo-Fr 11:00; Sa 11:30", "name": "USPS COLLECTION BOX - PO LOBBY", "ref": "7166300002"}, "type": "Feature"}
{"geometry": {"coordinates": [-91.511790325, 33.237603565], "type": "Point"}, "id": "iFf5fmPPS12m83IzSQySoGR8HdU=", "properties": {"@spider": "usps_collection_boxes", "addr:city": "PORTLAND", "addr:country": "US", "addr:full": "145 N MAIN ST", "addr:postcode": "71663", "addr:state": "AR", "brand": "USPS", "collection_times": "Mo-Fr 11:30; Sa 12:00", "name": "USPS COLLECTION BOX - PO LOBBY", "ref": "7166300005"}, "type": "Feature"}
{"geometry": {"coordinates": [-91.256933, 33.89783], "type": "Point"}, "id": "qhbvLZAlUVU7Cfm44mYGZ66vxtI=", "properties": {"@spider": "usps_collection_boxes", "addr:city": "WATSON", "addr:country": "US", "addr:full": "4121 HIGHWAY 1 N", "addr:postcode": "71674", "addr:state": "AR", "brand": "USPS", "collection_times": "Mo-Fr 11:30; Sa 10:15", "name": "USPS COLLECTION BOX - BLUE BOX", "ref": "7167400001"}, "type": "Feature"}
{"geometry": {"coordinates": [-91.256933, 33.89783], "type": "Point"}, "id": "Woy6zF3dQ2mTrsnBJFfe8aUXChM=", "properties": {"@spider": "usps_collection_boxes", "addr:city": "WATSON", "addr:country": "US", "addr:full": "4121 HIGHWAY 1 N", "addr:postcode": "71674", "addr:state": "AR", "brand": "USPS", "collection_times": "Mo-Fr 11:30; Sa 10:15", "name": "USPS COLLECTION BOX - PO LOBBY", "ref": "7167400003"}, "type": "Feature"}
{"geometry": {"coordinates": [-91.256933, 33.89783], "type": "Point"}, "id": "IB2dGqrOrtJOkbxYEN5hzAnjuj8=", "properties": {"@spider": "usps_collection_boxes", "addr:city": "WATSON", "addr:country": "US", "addr:full": "4121 HIGHWAY 1 N", "addr:postcode": "71674", "addr:state": "AR", "brand": "USPS", "collection_times": "Mo-Fr 11:30; Sa 10:15", "name": "USPS COLLECTION BOX - PO LOBBY", "ref": "7167400004"}, "type": "Feature"}
{"geometry": {"coordinates": [-91.256873079, 33.890622266], "type": "Point"}, "id": "srkPL-DaN6nvD_cUFfRGrqicLJY=", "properties": {"@spider": "usps_collection_boxes", "addr:city": "WATSON", "addr:country": "US", "addr:full": "4121 HIGHWAY 1 N", "addr:postcode": "71674", "addr:state": "AR", "brand": "USPS", "collection_times": "Mo-Fr 12:00; Sa 10:00", "name": "USPS COLLECTION BOX - PO LOBBY", "ref": "7167400007"}, "type": "Feature"}
{"geometry": {"coordinates": [-91.473648, 33.774613], "type": "Point"}, "id": "9A4DS9DCIBoCSLOnh5V3vD3S7uE=", "properties": {"@spider": "usps_collection_boxes", "addr:city": "WINCHESTER", "addr:country": "US", "addr:full": "5260 HIGHWAY 138", "addr:postcode": "71677", "addr:state": "AR", "brand": "USPS", "collection_times": "Mo-Sa 14:30", "name": "USPS COLLECTION BOX - BLUE BOX", "note": "ON 12/24 AND 12/31, THIS BOX MAY BE COLLECTED AS EARLY AS 12 NOON.", "ref": "7167700001"}, "type": "Feature"}
{"geometry": {"coordinates": [-91.47375, 33.774623], "type": "Point"}, "id": "hoebwaXbymtwrUd3ENvZ7W-HTsY=", "properties": {"@spider": "usps_collection_boxes", "addr:city": "WINCHESTER", "addr:country": "US", "addr:full": "5260 HIGHWAY 138", "addr:postcode": "71677", "addr:state": "AR", "brand": "USPS", "collection_times": "Mo-Sa 14:30", "name": "USPS COLLECTION BOX - PO LOBBY", "note": "ON 12/24 AND 12/31, THIS BOX MAY BE COLLECTED AS EARLY AS 12 NOON.", "ref": "7167700002"}, "type": "Feature"}
{"geometry": {"coordinates": [-91.47375, 33.774623], "type": "Point"}, "id": "KQPpxdcKYneMsH7h5XRcyWpkgtQ=", "properties": {"@spider": "usps_collection_boxes", "addr:city": "WINCHESTER", "addr:country": "US", "addr:full": "5260 HIGHWAY 138", "addr:postcode": "71677", "addr:state": "AR", "brand": "USPS", "collection_times": "Mo-Sa 14:30", "name": "USPS COLLECTION BOX - PO LOBBY", "note": "ON 12/24 AND 12/31, THIS BOX MAY BE COLLECTED AS EARLY AS 12 NOON.", "ref": "7167700003"}, "type": "Feature"}
{"geometry": {"coordinates": [-91.47259834, 33.774852162], "type": "Point"}, "id": "t0AeTi3TMeECH0YRvUsTlR-i_XY=", "properties": {"@spider": "usps_collection_boxes", "addr:city": "WINCHESTER", "addr:country": "US", "addr:full": "5260 HIGHWAY 138", "addr:postcode": "71677", "addr:state": "AR", "brand": "USPS", "collection_times": "Mo-Sa 15:00", "name": "USPS COLLECTION BOX - PO LOBBY", "note": "ON 12/24 AND 12/31, THIS BOX MAY BE COLLECTED AS EARLY AS 12 NOON.", "ref": "7167700006"}, "type": "Feature"}
