{"geometry": {"coordinates": [-92.833777002, 33.584159996], "type": "Point"}, "id": "5StVI1cp9s5Xyp8P7LeFxIk9wQo=", "properties": {"@spider": "usps_collection_boxes", "addr:city": "CAMDEN", "addr:country": "US", "addr:full": "351 W WASHINGTON ST STE 100", "addr:postcode": "71701", "addr:state": "AR", "brand": "USPS", "collection_times": "Mo-Fr 16:30; Sa 12:00", "name": "USPS COLLECTION BOX - PO LOBBY", "note": "ON 12/24 AND 12/31, THIS BOX MAY BE COLLECTED AS EARLY AS 12 NOON.", "ref": "7170100047"}, "type": "Feature"}
{"geometry": {"coordinates": [-92.6167491263, 33.7243430957], "type": "Point"}, "id": "gEUbQaqZqc7RNlAF9AGvdV6hs6Y=", "properties": {"@spider": "usps_collection_boxes", "addr:city": "BEARDEN", "addr:country": "US", "addr:full": "160 N PLUM ST", "addr:postcode": "71720", "addr:state": "AR", "brand": "USPS", "collection_times": "Mo-Fr 16:00; Sa 11:00", "name": "USPS COLLECTION BOX - PO LOBBY", "note": "ON 12/24 AND 12/31, THIS BOX MAY BE COLLECTED AS EARLY AS 12 NOON.", "ref": "7172000001"}, "type": "Feature"}
{"geometry": {"coordinates": [-92.6167491263, 33.7243430957], "type": "Point"}, "id": "WCBjOibWubRz94oE9uc9tMcVQ-Y=", "properties": {"@spider": "usps_collection_boxes", "addr:city": "BEARDEN", "addr:country": "US", "addr:full": "160 N PLUM ST", "addr:postcode": "71720", "addr:state": "AR", "brand": "USPS", "collection_times": "Mo-Fr 16:00; Sa 11:00", "name": "USPS COLLECTION BOX - BLUE BOX", "note": "ON 12/24 AND 12/31, THIS BOX MAY BE COLLECTED AS EARLY AS 12 NOON.", "ref": "7172000005"}, "type": "Feature"}
{"geometry": {"coordinates": [-92.616888716, 33.724625886], "type": "Point"}, "id": "E1dy4OgAM7ym6QtaE41GEuBbWhU=", "properties": {"@spider": "usps_collection_boxes", "addr:city": "BEARDEN", "addr:country": "US", "addr:full": "160 N PLUM ST", "addr:postcode": "71720", "addr:state": "AR", "brand": "USPS", "collection_times": "Mo-Fr 16:00; Sa 11:00", "name": "USPS COLLECTION BOX - PO LOBBY", "note": "ON 12/24 AND 12/31, THIS BOX MAY BE COLLECTED AS EARLY AS 12 NOON.", "ref": "7172000007"}, "type": "Feature"}
{"geometry": {"coordinates": [-93.204381415, 33.886463867], "type": "Point"}, "id": "-LLZgHHShd02GouEGjMPJiqo2lk=", "properties": {"@spider": "usps_collection_boxes", "addr:city": "BEIRNE", "addr:country": "US", "addr:full": "16462 HIGHWAY 51 S", "addr:postcode": "71721", "addr:state": "AR", "brand": "USPS", "collection_times": "Mo-Fr 15:30; Sa 13:30", "name": "USPS COLLECTION BOX - PO LOBBY", "note": "ON 12/24 AND 12/31, THIS BOX MAY BE COLLECTED AS EARLY AS 12 NOON.", "ref": "7172100003"}, "type": "Feature"}
{"geometry": {"coordinates": [-93.204381415, 33.886463867], "type": "Point"}, "id": "YdKs4y1RjW25DZZdetUTwDi2QEM=", "properties": {"@spider": "usps_collection_boxes", "addr:city": "BEIRNE", "addr:country": "US", "addr:full": "16462 HIGHWAY 51 S", "addr:postcode": "71721", "addr:state": "AR", "brand": "USPS", "collection_times": "Mo-Fr 15:45; Sa 14:00", "name": "USPS COLLECTION BOX - PO LOBBY", "note": "ON 12/24 AND 12/31, THIS BOX MAY BE COLLECTED AS EARLY AS 12 NOON.", "ref": "7172100004"}, "type": "Feature"}
{"geometry": {"coordinates": [-93.115190013, 33.998340007], "type": "Point"}, "id": "pfoQyJVC2d4eZ83mo8eHC5ic5d8=", "properties": {"@spider": "usps_collection_boxes", "addr:city": "CURTIS", "addr:country": "US", "addr:full": "14 CURTIS RD", "addr:postcode": "71728", "addr:state": "AR", "brand": "USPS", "collection_times": "Mo-Sa 10:30", "name": "USPS COLLECTION BOX - PO LOBBY", "ref": "7172800002"}, "type": "Feature"}
{"geometry": {"coordinates": [-93.115190013, 33.998340007], "type": "Point"}, "id": "HJ4BRACtq1LUb4rjciOCN39DQm0=", "properties": {"@spider": "usps_collection_boxes", "addr:city": "CURTIS", "addr:country": "US", "addr:full": "14 CURTIS RD", "addr:postcode": "71728", "addr:state": "AR", "brand": "USPS", "collection_times": "Mo-Sa 10:30", "name": "USPS COLLECTION BOX - PO LOBBY", "ref": "7172800003"}, "type": "Feature"}
{"geometry": {"coordinates": [-93.115190013, 33.998340007], "type": "Point"}, "id": "y-bOseNk7cBCKLFsvKVvt5V8HnI=", "properties": {"@spider": "usps_collection_boxes", "addr:city": "CURTIS", "addr:country": "US", "addr:full": "14 CURTIS RD", "addr:postcode": "71728", "addr:state": "AR", "brand": "USPS", "collection_times": "Mo-Fr 12:15; Sa 13:15", "name": "USPS COLLECTION BOX - PO LOBBY", "note": "ON 12/24 AND 12/31, THIS BOX MAY BE COLLECTED AS EARLY AS 12 NOON.", "ref": "7172800004"}, "type": "Feature"}
{"geometry": {"coordinates": [-92.687150022, 33.206700014], "type": "Point"}, "id": "cZdbrXU5LR5qwLv6aKmiY4EPp24=", "properties": {"@spider": "usps_collection_boxes", "addr:city": "EL DORADO", "addr:country": "US", "addr:full": "550 S TIMBERLANE DR", "addr:postcode": "71730", "addr:state": "AR", "brand": "USPS", "collection_times": "Mo-Fr 17:00; Sa 16:15", "name": "USPS COLLECTION BOX - BLUE BOX", "note": "ON 12/24 AND 12/31, THIS BOX MAY BE COLLECTED AS EARLY AS 12 NOON.", "ref": "7173000066"}, "type": "Feature"}
{"geometry": {"coordinates": [-92.687150022, 33.206700014], "type": "Point"}, "id": "Uin8nGvfFYl9FaCZ_cMV6Ewju4E=", "properties": {"@spider": "usps_collection_boxes", "addr:city": "EL DORADO", "addr:country": "US", "addr:full": "550 S TIMBERLANE DR", "addr:postcode": "71730", "addr:state": "AR", "brand": "USPS", "collection_times": "Mo-Fr 17:00; Sa 16:15", "name": "USPS COLLECTION BOX - BLUE BOX", "note": "ON 12/24 AND 12/31, THIS BOX MAY BE COLLECTED AS EARLY AS 12 NOON.", "ref": "7173000067"}, "type": "Feature"}
{"geometry": {"coordinates": [-92.687150022, 33.206700014], "type": "Point"}, "id": "DGdNijVE8zcNK6OpmbRHk97ExwI=", "properties": {"@spider": "usps_collection_boxes", "addr:city": "EL DORADO", "addr:country": "US", "addr:full": "550 S TIMBERLANE DR", "addr:postcode": "71730", "addr:state": "AR", "brand": "USPS", "collection_times": "Mo-Fr 17:00; Sa 16:15", "name": "USPS COLLECTION BOX - PO LOBBY", "note": "ON 12/24 AND 12/31, THIS BOX MAY BE COLLECTED AS EARLY AS 12 NOON.", "ref": "7173000068"}, "type": "Feature"}
{"geometry": {"coordinates": [-92.687150022, 33.206700014], "type": "Point"}, "id": "zpUAE92TogFiKC9SCy7IWlRBshk=", "properties": {"@spider": "usps_collection_boxes", "addr:city": "EL DORADO", "addr:country": "US", "addr:full": "550 S TIMBERLANE DR", "addr:postcode": "71730", "addr:state": "AR", "brand": "USPS", "collection_times": "Mo-Fr 17:00; Sa 16:15", "name": "USPS COLLECTION BOX - PO LOBBY", "note": "ON 12/24 AND 12/31, THIS BOX MAY BE COLLECTED AS EARLY AS 12 NOON.", "ref": "7173000069"}, "type": "Feature"}
{"geometry": {"coordinates": [-92.687150022, 33.206700014], "type": "Point"}, "id": "CvUZxr2Cq-nH-CjGCBe6OZe-D-M=", "properties": {"@spider": "usps_collection_boxes", "addr:city": "EL DORADO", "addr:country": "US", "addr:full": "550 S TIMBERLANE DR", "addr:postcode": "71730", "addr:state": "AR", "brand": "USPS", "collection_times": "Mo-Fr 16:30; Sa 12:00", "name": "USPS COLLECTION BOX - PO LOBBY", "note": "ON 12/24 AND 12/31, THIS BOX MAY BE COLLECTED AS EARLY AS 12 NOON.", "ref": "7173000077"}, "type": "Feature"}
{"geometry": {"coordinates": [-92.424047027, 33.808772999], "type": "Point"}, "id": "QSNKmmipLqXs1pmrPxPqUgby37A=", "properties": {"@spider": "usps_collection_boxes", "addr:city": "FORDYCE", "addr:country": "US", "addr:full": "1101 ABERNATHY ST", "addr:postcode": "71742", "addr:state": "AR", "brand": "USPS", "collection_times": "Mo-Sa 14:00", "name": "USPS COLLECTION BOX - BLUE BOX", "note": "ON 12/24 AND 12/31, THIS BOX MAY BE COLLECTED AS EARLY AS 12 NOON.", "ref": "7174200003"}, "type": "Feature"}
{"geometry": {"coordinates": [-92.40708231, 33.82203156], "type": "Point"}, "id": "JaF2DSwAZG7Q_bK4nvxWtBADoXA=", "properties": {"@spider": "usps_collection_boxes", "addr:city": "FORDYCE", "addr:country": "US", "addr:full": "100 LEISURE OAKS DR", "addr:postcode": "71742", "addr:state": "AR", "brand": "USPS", "collection_times": "Mo-Sa 10:30", "name": "USPS COLLECTION BOX - BLUE BOX", "ref": "7174200004"}, "type": "Feature"}
{"geometry": {"coordinates": [-92.412532846, 33.812951343], "type": "Point"}, "id": "i7LAF1G8Ga3_MLeiitQyoWBm2Gk=", "properties": {"@spider": "usps_collection_boxes", "addr:city": "FORDYCE", "addr:country": "US", "addr:full": "313 N MAIN ST", "addr:postcode": "71742", "addr:state": "AR", "brand": "USPS", "collection_times": "Mo-Sa 11:00", "name": "USPS COLLECTION BOX - BLUE BOX", "ref": "7174200008"}, "type": "Feature"}
{"geometry": {"coordinates": [-92.425294003, 33.81153098], "type": "Point"}, "id": "ekTBCmqll3pXO9cQtHEvpBAk0_Q=", "properties": {"@spider": "usps_collection_boxes", "addr:city": "FORDYCE", "addr:country": "US", "addr:full": "201 N CLIFTON ST", "addr:postcode": "71742", "addr:state": "AR", "brand": "USPS", "collection_times": "Mo-Sa 09:00", "name": "USPS COLLECTION BOX - BLUE BOX", "ref": "7174200009"}, "type": "Feature"}
{"geometry": {"coordinates": [-92.421283011, 33.812092987], "type": "Point"}, "id": "-Zo3Yw_KP_5gZTyIqY2nkcQ4AkM=", "properties": {"@spider": "usps_collection_boxes", "addr:city": "FORDYCE", "addr:country": "US", "addr:full": "801 W 4TH ST", "addr:postcode": "71742", "addr:state": "AR", "brand": "USPS", "collection_times": "Mo-Fr 16:15; Sa 11:00", "name": "USPS COLLECTION BOX - PO LOBBY", "note": "ON 12/24 AND 12/31, THIS BOX MAY BE COLLECTED AS EARLY AS 12 NOON.", "ref": "7174200012"}, "type": "Feature"}
{"geometry": {"coordinates": [-92.421283011, 33.812092987], "type": "Point"}, "id": "CZ5Q6byLb-9KQczWoIetZk0ICcg=", "properties": {"@spider": "usps_collection_boxes", "addr:city": "FORDYCE", "addr:country": "US", "addr:full": "801 W 4TH ST", "addr:postcode": "71742", "addr:state": "AR", "brand": "USPS", "collection_times": "Mo-Fr 16:15; Sa 11:00", "name": "USPS COLLECTION BOX - BLUE BOX", "note": "ON 12/24 AND 12/31, THIS BOX MAY BE COLLECTED AS EARLY AS 12 NOON.", "ref": "7174200013"}, "type": "Feature"}
{"geometry": {"coordinates": [-92.421283011, 33.812092987], "type": "Point"}, "id": "wcl-xSh76rjOS9sSQf4-ksGnmDE=", "properties": {"@spider": "usps_collection_boxes", "addr:city": "FORDYCE", "addr:country": "US", "addr:full": "801 W 4TH ST", "addr:postcode": "71742", "addr:state": "AR", "brand": "USPS", "collection_times": "Mo-Fr 16:15; Sa 11:00", "name": "USPS COLLECTION BOX - PO LOBBY", "note": "ON 12/24 AND 12/31, THIS BOX MAY BE COLLECTED AS EARLY AS 12 NOON.", "ref": "7174200015"}, "type": "Feature"}
{"geometry": {"coordinates": [-92.421283011, 33.812092987], "type": "Point"}, "id": "fIxj7HXWOnx2ptUjPCza0bBCOvQ=", "properties": {"@spider": "usps_collection_boxes", "addr:city": "FORDYCE", "addr:country": "US", "addr:full": "801 W 4TH ST", "addr:postcode": "71742", "addr:state": "AR", "brand": "USPS", "collection_times": "Mo-Fr 16:15; Sa 11:45", "name": "USPS COLLECTION BOX - PO LOBBY", "note": "ON 12/24 AND 12/31, THIS BOX MAY BE COLLECTED AS EARLY AS 12 NOON.", "ref": "7174200016"}, "type": "Feature"}
{"geometry": {"coordinates": [-93.147056555, 33.920981407], "type": "Point"}, "id": "j2BPm51dNVR0sr6aXLlcHz9GWNI=", "properties": {"@spider": "usps_collection_boxes", "addr:city": "GURDON", "addr:country": "US", "addr:full": "699 E BEECH ST", "addr:postcode": "71743", "addr:state": "AR", "brand": "USPS", "collection_times": "Mo-Sa 14:00", "name": "USPS COLLECTION BOX - BLUE BOX", "note": "ON 12/24 AND 12/31, THIS BOX MAY BE COLLECTED AS EARLY AS 12 NOON.", "ref": "7174300002"}, "type": "Feature"}
{"geometry": {"coordinates": [-93.152669682, 33.920068471], "type": "Point"}, "id": "Ymk0DW58RImgxN0jHvUkbgFmhoc=", "properties": {"@spider": "usps_collection_boxes", "addr:city": "GURDON", "addr:country": "US", "addr:full": "114 N 1ST ST", "addr:postcode": "71743", "addr:state": "AR", "brand": "USPS", "collection_times": "Mo-Sa 14:15", "name": "USPS COLLECTION BOX - BLUE BOX", "note": "ON 12/24 AND 12/31, THIS BOX MAY BE COLLECTED AS EARLY AS 12 NOON.", "ref": "7174300003"}, "type": "Feature"}
{"geometry": {"coordinates": [-93.14711565, 33.919092153], "type": "Point"}, "id": "ditMp9SE5nNfIIZpy5qo3iAOZz8=", "properties": {"@spider": "usps_collection_boxes", "addr:city": "GURDON", "addr:country": "US", "addr:full": "699 E WALNUT ST", "addr:postcode": "71743", "addr:state": "AR", "brand": "USPS", "collection_times": "Mo-Sa 13:00", "name": "USPS COLLECTION BOX - BLUE BOX", "note": "ON 12/24 AND 12/31, THIS BOX MAY BE COLLECTED AS EARLY AS 12 NOON.", "ref": "7174300004"}, "type": "Feature"}
{"geometry": {"coordinates": [-93.152949984, 33.91833998], "type": "Point"}, "id": "R4ASfc3FRhvZ2dFzstnLAx4Dsic=", "properties": {"@spider": "usps_collection_boxes", "addr:city": "GURDON", "addr:country": "US", "addr:full": "110 E JOSLYN ST", "addr:postcode": "71743", "addr:state": "AR", "brand": "USPS", "collection_times": "Mo-Fr 15:45; Sa 15:00", "name": "USPS COLLECTION BOX - PO LOBBY", "note": "ON 12/24 AND 12/31, THIS BOX MAY BE COLLECTED AS EARLY AS 12 NOON.", "ref": "7174300005"}, "type": "Feature"}
{"geometry": {"coordinates": [-93.152949984, 33.91833998], "type": "Point"}, "id": "f2Rc2_oNCHp48JTyawa6N6SQ8Nk=", "properties": {"@spider": "usps_collection_boxes", "addr:city": "GURDON", "addr:country": "US", "addr:full": "110 E JOSLYN ST", "addr:postcode": "71743", "addr:state": "AR", "brand": "USPS", "collection_times": "Mo-Fr 15:45; Sa 15:00", "name": "USPS COLLECTION BOX - BLUE BOX", "note": "ON 12/24 AND 12/31, THIS BOX MAY BE COLLECTED AS EARLY AS 12 NOON.", "ref": "7174300006"}, "type": "Feature"}
{"geometry": {"coordinates": [-93.152949984, 33.91833998], "type": "Point"}, "id": "nSfx9ZqZPuyCjcqU1p7BlW2FvVk=", "properties": {"@spider": "usps_collection_boxes", "addr:city": "GURDON", "addr:country": "US", "addr:full": "110 E JOSLYN ST", "addr:postcode": "71743", "addr:state": "AR", "brand": "USPS", "collection_times": "Mo-Fr 15:45; Sa 15:00", "name": "USPS COLLECTION BOX - PO LOBBY", "note": "ON 12/24 AND 12/31, THIS BOX MAY BE COLLECTED AS EARLY AS 12 NOON.", "ref": "7174300007"}, "type": "Feature"}
{"geometry": {"coordinates": [-93.152949984, 33.91833998], "type": "Point"}, "id": "fw4GOvQWlbsyAQWnpy4iHyr34Vw=", "properties": {"@spider": "usps_collection_boxes", "addr:city": "GURDON", "addr:country": "US", "addr:full": "110 E JOSLYN ST", "addr:postcode": "71743", "addr:state": "AR", "brand": "USPS", "collection_times": "Mo-Fr 16:00; Sa 10:00", "name": "USPS COLLECTION BOX - PO LOBBY", "note": "ON 12/24 AND 12/31, THIS BOX MAY BE COLLECTED AS EARLY AS 12 NOON.", "ref": "7174300008"}, "type": "Feature"}
{"geometry": {"coordinates": [-92.470832, 33.539163], "type": "Point"}, "id": "TX-9ze8gDt7yPm6xhMhl8aMQH7E=", "properties": {"@spider": "usps_collection_boxes", "addr:city": "HAMPTON", "addr:country": "US", "addr:full": "213 W DUNN AVE", "addr:postcode": "71744", "addr:state": "AR", "brand": "USPS", "collection_times": "Mo-Fr 14:45; Sa 08:30", "name": "USPS COLLECTION BOX - BLUE BOX", "note": "ON 12/24 AND 12/31, THIS BOX MAY BE COLLECTED AS EARLY AS 12 NOON.", "ref": "7174400003"}, "type": "Feature"}
{"geometry": {"coordinates": [-92.470832, 33.539163], "type": "Point"}, "id": "oSJMYk-G9yF49dBxzXiy8pyGMuI=", "properties": {"@spider": "usps_collection_boxes", "addr:city": "HAMPTON", "addr:country": "US", "addr:full": "213 W DUNN AVE", "addr:postcode": "71744", "addr:state": "AR", "brand": "USPS", "collection_times": "Mo-Fr 14:45; Sa 08:30", "name": "USPS COLLECTION BOX - PO LOBBY", "note": "ON 12/24 AND 12/31, THIS BOX MAY BE COLLECTED AS EARLY AS 12 NOON.", "ref": "7174400005"}, "type": "Feature"}
{"geometry": {"coordinates": [-92.470832, 33.539163], "type": "Point"}, "id": "VI326Mv-oq7kmQEMbcj7_GtoC5k=", "properties": {"@spider": "usps_collection_boxes", "addr:city": "HAMPTON", "addr:country": "US", "addr:full": "213 W DUNN AVE", "addr:postcode": "71744", "addr:state": "AR", "brand": "USPS", "collection_times": "Mo-Fr 14:45; Sa 08:30", "name": "USPS COLLECTION BOX - PO LOBBY", "note": "ON 12/24 AND 12/31, THIS BOX MAY BE COLLECTED AS EARLY AS 12 NOON.", "ref": "7174400006"}, "type": "Feature"}
{"geometry": {"coordinates": [-92.470832864, 33.539162525], "type": "Point"}, "id": "F8qd01z6JD3xYbDZiN366GgLD5M=", "properties": {"@spider": "usps_collection_boxes", "addr:city": "HAMPTON", "addr:country": "US", "addr:full": "213 W DUNN AVE", "addr:postcode": "71744", "addr:state": "AR", "brand": "USPS", "collection_times": "Mo-Fr 15:00", "name": "USPS COLLECTION BOX - PO LOBBY", "note": "ON 12/24 AND 12/31, THIS BOX MAY BE COLLECTED AS EARLY AS 12 NOON.", "ref": "7174400007"}, "type": "Feature"}
{"geometry": {"coordinates": [-92.399798, 33.510969], "type": "Point"}, "id": "2Q2s9V2j5FLlGyNpdvMd45cDBEU=", "properties": {"@spider": "usps_collection_boxes", "addr:city": "HARRELL", "addr:country": "US", "addr:full": "118 E CENTRAL ST", "addr:postcode": "71745", "addr:state": "AR", "brand": "USPS", "collection_times": "Mo-Fr 11:30; Sa 10:00", "name": "USPS COLLECTION BOX - PO LOBBY", "ref": "7174500002"}, "type": "Feature"}
{"geometry": {"coordinates": [-92.399657696, 33.510883629], "type": "Point"}, "id": "Dlziw27v6WvG3Gc291kp9Hdieew=", "properties": {"@spider": "usps_collection_boxes", "addr:city": "HARRELL", "addr:country": "US", "addr:full": "118 E CENTRAL ST", "addr:postcode": "71745", "addr:state": "AR", "brand": "USPS", "collection_times": "Mo-Fr 12:00; Sa 10:00", "name": "USPS COLLECTION BOX - PO LOBBY", "ref": "7174500004"}, "type": "Feature"}
{"geometry": {"coordinates": [-92.183102364, 33.039969601], "type": "Point"}, "id": "pjOgCwl2NB3B9kJUPII1t5zo31k=", "properties": {"@spider": "usps_collection_boxes", "addr:city": "HUTTIG", "addr:country": "US", "addr:full": "601 OLIN AVE", "addr:postcode": "71747", "addr:state": "AR", "brand": "USPS", "collection_times": "Mo-Fr 13:30; Sa 12:30", "name": "USPS COLLECTION BOX - PO LOBBY", "note": "ON 12/24 AND 12/31, THIS BOX MAY BE COLLECTED AS EARLY AS 12 NOON.", "ref": "7174700001"}, "type": "Feature"}
{"geometry": {"coordinates": [-92.183102364, 33.039969601], "type": "Point"}, "id": "nLEGhAyV_OZUDpI1ViHDPPqoiJ8=", "properties": {"@spider": "usps_collection_boxes", "addr:city": "HUTTIG", "addr:country": "US", "addr:full": "601 OLIN AVE", "addr:postcode": "71747", "addr:state": "AR", "brand": "USPS", "collection_times": "Mo-Fr 13:30; Sa 12:30", "name": "USPS COLLECTION BOX - PO LOBBY", "note": "ON 12/24 AND 12/31, THIS BOX MAY BE COLLECTED AS EARLY AS 12 NOON.", "ref": "7174700003"}, "type": "Feature"}
{"geometry": {"coordinates": [-92.183102364, 33.039969601], "type": "Point"}, "id": "2DVCzs9Ju24QqBIk9LLJ2ITjS6I=", "properties": {"@spider": "usps_collection_boxes", "addr:city": "HUTTIG", "addr:country": "US", "addr:full": "601 OLIN AVE", "addr:postcode": "71747", "addr:state": "AR", "brand": "USPS", "collection_times": "Mo-Fr 14:00; Sa 13:00", "name": "USPS COLLECTION BOX - PO LOBBY", "note": "ON 12/24 AND 12/31, THIS BOX MAY BE COLLECTED AS EARLY AS 12 NOON.", "ref": "7174700005"}, "type": "Feature"}
{"geometry": {"coordinates": [-92.421245053, 33.913499544], "type": "Point"}, "id": "D06DlEsN9mDXnLBJgKejlOPJNAA=", "properties": {"@spider": "usps_collection_boxes", "addr:city": "IVAN", "addr:country": "US", "addr:full": "16 DALLAS 126", "addr:postcode": "71748", "addr:state": "AR", "brand": "USPS", "collection_times": "Mo-Fr 14:30; Sa 10:00", "name": "USPS COLLECTION BOX - PO LOBBY", "note": "ON 12/24 AND 12/31, THIS BOX MAY BE COLLECTED AS EARLY AS 12 NOON.", "ref": "7174800000"}, "type": "Feature"}
{"geometry": {"coordinates": [-92.421245053, 33.913499544], "type": "Point"}, "id": "9onFT3HOOTGWxRu0tgspE-0kN98=", "properties": {"@spider": "usps_collection_boxes", "addr:city": "IVAN", "addr:country": "US", "addr:full": "16 DALLAS 126", "addr:postcode": "71748", "addr:state": "AR", "brand": "USPS", "collection_times": "Mo-Fr 15:00; Sa 10:30", "name": "USPS COLLECTION BOX - PO LOBBY", "note": "ON 12/24 AND 12/31, THIS BOX MAY BE COLLECTED AS EARLY AS 12 NOON.", "ref": "7174800001"}, "type": "Feature"}
{"geometry": {"coordinates": [-92.72471, 33.018416], "type": "Point"}, "id": "gObdHPcBq1MS8Lik5VdKXrPX3I8=", "properties": {"@spider": "usps_collection_boxes", "addr:city": "JUNCTION CITY", "addr:country": "US", "addr:full": "100 E CENTER ST", "addr:postcode": "71749", "addr:state": "AR", "brand": "USPS", "collection_times": "Mo-Fr 15:15; Sa 08:30", "name": "USPS COLLECTION BOX - BLUE BOX", "note": "ON 12/24 AND 12/31, THIS BOX MAY BE COLLECTED AS EARLY AS 12 NOON.", "ref": "7174900003"}, "type": "Feature"}
{"geometry": {"coordinates": [-92.72471, 33.018416], "type": "Point"}, "id": "68YoGIsoqNkMOleSwcWJRJsS7qw=", "properties": {"@spider": "usps_collection_boxes", "addr:city": "JUNCTION CITY", "addr:country": "US", "addr:full": "100 E CENTER ST", "addr:postcode": "71749", "addr:state": "AR", "brand": "USPS", "collection_times": "Mo-Fr 15:15; Sa 08:30", "name": "USPS COLLECTION BOX - PO LOBBY", "note": "ON 12/24 AND 12/31, THIS BOX MAY BE COLLECTED AS EARLY AS 12 NOON.", "ref": "7174900004"}, "type": "Feature"}
{"geometry": {"coordinates": [-92.724752041, 33.018447348], "type": "Point"}, "id": "3lWPbGWiHTMgpkblkKqng-2p3hk=", "properties": {"@spider": "usps_collection_boxes", "addr:city": "JUNCTION CITY", "addr:country": "US", "addr:full": "100 E CENTER ST", "addr:postcode": "71749", "addr:state": "AR", "brand": "USPS", "collection_times": "Mo-Fr 15:00", "name": "USPS COLLECTION BOX - PO LOBBY", "note": "ON 12/24 AND 12/31, THIS BOX MAY BE COLLECTED AS EARLY AS 12 NOON.", "ref": "7174900009"}, "type": "Feature"}
{"geometry": {"coordinates": [-93.226176972, 33.267145019], "type": "Point"}, "id": "JqtaqYIJ-kudCQG72Y_537JFHEA=", "properties": {"@spider": "usps_collection_boxes", "addr:city": "MAGNOLIA", "addr:country": "US", "addr:full": "1114 E MAIN ST", "addr:postcode": "71753", "addr:state": "AR", "brand": "USPS", "collection_times": "Mo-Sa 10:30", "name": "USPS COLLECTION BOX - BLUE BOX", "ref": "7175300002"}, "type": "Feature"}
{"geometry": {"coordinates": [-93.236048004, 33.289588989], "type": "Point"}, "id": "pffUTNfUHEkM2tiBn6tZYmucrYA=", "properties": {"@spider": "usps_collection_boxes", "addr:city": "MAGNOLIA", "addr:country": "US", "addr:full": "100 E UNIVERSITY", "addr:postcode": "71753", "addr:state": "AR", "brand": "USPS", "collection_times": "Mo-Sa 14:00", "name": "USPS COLLECTION BOX - BLUE BOX", "note": "ON 12/24 AND 12/31, THIS BOX MAY BE COLLECTED AS EARLY AS 12 NOON.", "ref": "7175300003"}, "type": "Feature"}
{"geometry": {"coordinates": [-93.239230026, 33.266160019], "type": "Point"}, "id": "CKj_8plCtPL5ENwpeRLUL10Oebc=", "properties": {"@spider": "usps_collection_boxes", "addr:city": "MAGNOLIA", "addr:country": "US", "addr:full": "126 S JACKSON", "addr:postcode": "71753", "addr:state": "AR", "brand": "USPS", "collection_times": "Mo-Sa 11:30", "name": "USPS COLLECTION BOX - BLUE BOX", "ref": "7175300010"}, "type": "Feature"}
{"geometry": {"coordinates": [-93.217812, 33.262764007], "type": "Point"}, "id": "D5f5z9J-WIaKfGv2wzS77QKrGG0=", "properties": {"@spider": "usps_collection_boxes", "addr:city": "MAGNOLIA", "addr:country": "US", "addr:full": "1629 E MAIN ST", "addr:postcode": "71753", "addr:state": "AR", "brand": "USPS", "collection_times": "Mo-Sa 09:30", "name": "USPS COLLECTION BOX - BLUE BOX", "ref": "7175300012"}, "type": "Feature"}
{"geometry": {"coordinates": [-93.222650035, 33.279330001], "type": "Point"}, "id": "O_1dQRPkuUNJori3MP_x7yyfx1s=", "properties": {"@spider": "usps_collection_boxes", "addr:city": "MAGNOLIA", "addr:country": "US", "addr:full": "1400 HIGH SCHOOL DR", "addr:postcode": "71753", "addr:state": "AR", "brand": "USPS", "collection_times": "Mo-Sa 14:00", "name": "USPS COLLECTION BOX - BLUE BOX", "note": "ON 12/24 AND 12/31, THIS BOX MAY BE COLLECTED AS EARLY AS 12 NOON.", "ref": "7175300013"}, "type": "Feature"}
{"geometry": {"coordinates": [-93.237987996, 33.267870011], "type": "Point"}, "id": "Bx7T1TQb1N59Kvulk067uK-6hx8=", "properties": {"@spider": "usps_collection_boxes", "addr:city": "MAGNOLIA", "addr:country": "US", "addr:full": "120 N PINE", "addr:postcode": "71753", "addr:state": "AR", "brand": "USPS", "collection_times": "Mo-Fr 16:15; Sa 15:30", "name": "USPS COLLECTION BOX - BLUE BOX", "note": "ON 12/24 AND 12/31, THIS BOX MAY BE COLLECTED AS EARLY AS 12 NOON.", "ref": "7175300017"}, "type": "Feature"}
{"geometry": {"coordinates": [-93.237987996, 33.267870011], "type": "Point"}, "id": "AV4L5GIkuf6BvcC9i6O9fjDM38w=", "properties": {"@spider": "usps_collection_boxes", "addr:city": "MAGNOLIA", "addr:country": "US", "addr:full": "120 N PINE", "addr:postcode": "71753", "addr:state": "AR", "brand": "USPS", "collection_times": "Mo-Fr 16:15; Sa 15:30", "name": "USPS COLLECTION BOX - PO LOBBY", "note": "ON 12/24 AND 12/31, THIS BOX MAY BE COLLECTED AS EARLY AS 12 NOON.", "ref": "7175300027"}, "type": "Feature"}
{"geometry": {"coordinates": [-93.237987996, 33.267870011], "type": "Point"}, "id": "NOVlEedTlHcVcL9876dFTpeINg4=", "properties": {"@spider": "usps_collection_boxes", "addr:city": "MAGNOLIA", "addr:country": "US", "addr:full": "120 N PINE", "addr:postcode": "71753", "addr:state": "AR", "brand": "USPS", "collection_times": "Mo-Fr 16:15; Sa 15:30", "name": "USPS COLLECTION BOX - PO LOBBY", "note": "ON 12/24 AND 12/31, THIS BOX MAY BE COLLECTED AS EARLY AS 12 NOON.", "ref": "7175300028"}, "type": "Feature"}
{"geometry": {"coordinates": [-93.240942915, 33.266808572], "type": "Point"}, "id": "55lk_2B1y4V5Hv75t9X-FVdz2Sk=", "properties": {"@spider": "usps_collection_boxes", "addr:city": "MAGNOLIA", "addr:country": "US", "addr:full": "110 S COURT SQ", "addr:postcode": "71753", "addr:state": "AR", "brand": "USPS", "collection_times": "Mo-Sa 12:00", "name": "USPS COLLECTION BOX - BLUE BOX", "ref": "7175300029"}, "type": "Feature"}
{"geometry": {"coordinates": [-93.237987996, 33.267870011], "type": "Point"}, "id": "pAPeFEztBmd2E-Ybk-c8Uk6_sU4=", "properties": {"@spider": "usps_collection_boxes", "addr:city": "MAGNOLIA", "addr:country": "US", "addr:full": "120 N PINE", "addr:postcode": "71753", "addr:state": "AR", "brand": "USPS", "collection_times": "Mo-Fr 16:00; Sa 11:00", "name": "USPS COLLECTION BOX - PO LOBBY", "note": "ON 12/24 AND 12/31, THIS BOX MAY BE COLLECTED AS EARLY AS 12 NOON.", "ref": "7175300034"}, "type": "Feature"}
{"geometry": {"coordinates": [-92.66282004, 33.315010002], "type": "Point"}, "id": "t9oKTS0Aaf_Bqb0-sP27jXRqrLc=", "properties": {"@spider": "usps_collection_boxes", "addr:city": "NORPHLET", "addr:country": "US", "addr:full": "101 S VINEYARD ST", "addr:postcode": "71759", "addr:state": "AR", "brand": "USPS", "collection_times": "Mo-Fr 14:45; Sa 10:00", "name": "USPS COLLECTION BOX - BLUE BOX", "note": "ON 12/24 AND 12/31, THIS BOX MAY BE COLLECTED AS EARLY AS 12 NOON.", "ref": "7175900001"}, "type": "Feature"}
{"geometry": {"coordinates": [-92.66282004, 33.315010002], "type": "Point"}, "id": "JLcy92x_pnT6yhoLumzqhWgSunk=", "properties": {"@spider": "usps_collection_boxes", "addr:city": "NORPHLET", "addr:country": "US", "addr:full": "101 S VINEYARD ST", "addr:postcode": "71759", "addr:state": "AR", "brand": "USPS", "collection_times": "Mo-Fr 14:45; Sa 10:00", "name": "USPS COLLECTION BOX - PO LOBBY", "note": "ON 12/24 AND 12/31, THIS BOX MAY BE COLLECTED AS EARLY AS 12 NOON.", "ref": "7175900002"}, "type": "Feature"}
{"geometry": {"coordinates": [-92.66282004, 33.315010002], "type": "Point"}, "id": "REyi0xbA8qRGGG8DjptsqNXQRt0=", "properties": {"@spider": "usps_collection_boxes", "addr:city": "NORPHLET", "addr:country": "US", "addr:full": "101 S VINEYARD ST", "addr:postcode": "71759", "addr:state": "AR", "brand": "USPS", "collection_times": "Mo-Fr 15:00; Sa 10:00", "name": "USPS COLLECTION BOX - PO LOBBY", "note": "ON 12/24 AND 12/31, THIS BOX MAY BE COLLECTED AS EARLY AS 12 NOON.", "ref": "7175900004"}, "type": "Feature"}
{"geometry": {"coordinates": [-92.726169961, 33.36431001], "type": "Point"}, "id": "qvzZ2estLpPd5QltVpe3zOsqqm8=", "properties": {"@spider": "usps_collection_boxes", "addr:city": "SMACKOVER", "addr:country": "US", "addr:full": "102 W 8TH ST", "addr:postcode": "71762", "addr:state": "AR", "brand": "USPS", "collection_times": "Mo-Fr 16:00; Sa 15:30", "name": "USPS COLLECTION BOX - BLUE BOX", "note": "ON 12/24 AND 12/31, THIS BOX MAY BE COLLECTED AS EARLY AS 12 NOON.", "ref": "7176200005"}, "type": "Feature"}
{"geometry": {"coordinates": [-92.726169961, 33.36431001], "type": "Point"}, "id": "DLKWqr5pmKKj38Yp8pVT8bh_uA8=", "properties": {"@spider": "usps_collection_boxes", "addr:city": "SMACKOVER", "addr:country": "US", "addr:full": "102 W 8TH ST", "addr:postcode": "71762", "addr:state": "AR", "brand": "USPS", "collection_times": "Mo-Fr 16:00; Sa 15:30", "name": "USPS COLLECTION BOX - PO LOBBY", "note": "ON 12/24 AND 12/31, THIS BOX MAY BE COLLECTED AS EARLY AS 12 NOON.", "ref": "7176200009"}, "type": "Feature"}
{"geometry": {"coordinates": [-92.726169961, 33.36431001], "type": "Point"}, "id": "PThCFJ3d9CP0SUf7QJDaHLlnSd4=", "properties": {"@spider": "usps_collection_boxes", "addr:city": "SMACKOVER", "addr:country": "US", "addr:full": "102 W 8TH ST", "addr:postcode": "71762", "addr:state": "AR", "brand": "USPS", "collection_times": "Mo-Fr 16:00; Sa 15:30", "name": "USPS COLLECTION BOX - PO LOBBY", "note": "ON 12/24 AND 12/31, THIS BOX MAY BE COLLECTED AS EARLY AS 12 NOON.", "ref": "7176200010"}, "type": "Feature"}
{"geometry": {"coordinates": [-92.726169961, 33.36431001], "type": "Point"}, "id": "eqr_xdeq2jYeGPyQ9qLBqu15-jY=", "properties": {"@spider": "usps_collection_boxes", "addr:city": "SMACKOVER", "addr:country": "US", "addr:full": "102 W 8TH ST", "addr:postcode": "71762", "addr:state": "AR", "brand": "USPS", "collection_times": "Mo-Fr 16:00", "name": "USPS COLLECTION BOX - PO LOBBY", "note": "ON 12/24 AND 12/31, THIS BOX MAY BE COLLECTED AS EARLY AS 12 NOON.", "ref": "7176200012"}, "type": "Feature"}
{"geometry": {"coordinates": [-92.847902, 33.917768], "type": "Point"}, "id": "VEtTv7Nlpgu7_5DBfoCWkah1Xbc=", "properties": {"@spider": "usps_collection_boxes", "addr:city": "SPARKMAN", "addr:country": "US", "addr:full": "204 N COMMERCE AVE", "addr:postcode": "71763", "addr:state": "AR", "brand": "USPS", "collection_times": "Mo-Fr 10:30; Sa 11:30", "name": "USPS COLLECTION BOX - BLUE BOX", "ref": "7176300001"}, "type": "Feature"}
{"geometry": {"coordinates": [-92.847902, 33.917768], "type": "Point"}, "id": "gWazGKjPiy3sF6ZB4QGLzCfS1ik=", "properties": {"@spider": "usps_collection_boxes", "addr:city": "SPARKMAN", "addr:country": "US", "addr:full": "204 N COMMERCE AVE", "addr:postcode": "71763", "addr:state": "AR", "brand": "USPS", "collection_times": "Mo-Fr 10:30; Sa 11:30", "name": "USPS COLLECTION BOX - PO LOBBY", "ref": "7176300002"}, "type": "Feature"}
{"geometry": {"coordinates": [-92.847902, 33.917768], "type": "Point"}, "id": "HzhMbsro-x6zdtfBSGFVe4J8vZc=", "properties": {"@spider": "usps_collection_boxes", "addr:city": "SPARKMAN", "addr:country": "US", "addr:full": "204 N COMMERCE AVE", "addr:postcode": "71763", "addr:state": "AR", "brand": "USPS", "collection_times": "Mo-Fr 10:30; Sa 11:30", "name": "USPS COLLECTION BOX - PO LOBBY", "ref": "7176300003"}, "type": "Feature"}
{"geometry": {"coordinates": [-92.847923573, 33.917849948], "type": "Point"}, "id": "5bqAxrMDAu4gmIiyA45WnbHf_FI=", "properties": {"@spider": "usps_collection_boxes", "addr:city": "SPARKMAN", "addr:country": "US", "addr:full": "204 N COMMERCE AVE", "addr:postcode": "71763", "addr:state": "AR", "brand": "USPS", "collection_times": "Mo-Fr 11:00; Sa 11:30", "name": "USPS COLLECTION BOX - PO LOBBY", "ref": "7176300004"}, "type": "Feature"}
{"geometry": {"coordinates": [-93.07108997, 33.411850991], "type": "Point"}, "id": "RK4lINx7sYmAYAmSi67OBcs3oII=", "properties": {"@spider": "usps_collection_boxes", "addr:city": "STEPHENS", "addr:country": "US", "addr:full": "202 W RUBY ST", "addr:postcode": "71764", "addr:state": "AR", "brand": "USPS", "collection_times": "Mo-Fr 14:45; Sa 08:15", "name": "USPS COLLECTION BOX - BLUE BOX", "note": "ON 12/24 AND 12/31, THIS BOX MAY BE COLLECTED AS EARLY AS 12 NOON.", "ref": "7176400001"}, "type": "Feature"}
{"geometry": {"coordinates": [-93.07108997, 33.411850991], "type": "Point"}, "id": "M16E9QCdI-JKoQXXaV459qy3jVE=", "properties": {"@spider": "usps_collection_boxes", "addr:city": "STEPHENS", "addr:country": "US", "addr:full": "202 W RUBY ST", "addr:postcode": "71764", "addr:state": "AR", "brand": "USPS", "collection_times": "Mo-Fr 14:45; Sa 08:15", "name": "USPS COLLECTION BOX - PO LOBBY", "note": "ON 12/24 AND 12/31, THIS BOX MAY BE COLLECTED AS EARLY AS 12 NOON.", "ref": "7176400002"}, "type": "Feature"}
{"geometry": {"coordinates": [-93.07108997, 33.411850991], "type": "Point"}, "id": "jNnZU2MubpbWuVdjygpbHrhu1X4=", "properties": {"@spider": "usps_collection_boxes", "addr:city": "STEPHENS", "addr:country": "US", "addr:full": "202 W RUBY ST", "addr:postcode": "71764", "addr:state": "AR", "brand": "USPS", "collection_times": "Mo-Fr 15:00", "name": "USPS COLLECTION BOX - PO LOBBY", "note": "ON 12/24 AND 12/31, THIS BOX MAY BE COLLECTED AS EARLY AS 12 NOON.", "ref": "7176400006"}, "type": "Feature"}
{"geometry": {"coordinates": [-92.36226997, 33.111399996], "type": "Point"}, "id": "nZ1ZWG7yHFTmmhSezhfAvCldvNA=", "properties": {"@spider": "usps_collection_boxes", "addr:city": "STRONG", "addr:country": "US", "addr:full": "9559 STRONG HWY", "addr:postcode": "71765", "addr:state": "AR", "brand": "USPS", "collection_times": "Mo-Fr 15:00; Sa 07:30", "name": "USPS COLLECTION BOX - BLUE BOX", "note": "ON 12/24 AND 12/31, THIS BOX MAY BE COLLECTED AS EARLY AS 12 NOON.", "ref": "7176500001"}, "type": "Feature"}
{"geometry": {"coordinates": [-92.36226997, 33.111399996], "type": "Point"}, "id": "AudzxKVT4zDriyqWMXBgaRgYlx0=", "properties": {"@spider": "usps_collection_boxes", "addr:city": "STRONG", "addr:country": "US", "addr:full": "9559 STRONG HWY", "addr:postcode": "71765", "addr:state": "AR", "brand": "USPS", "collection_times": "Mo-Fr 15:00; Sa 07:30", "name": "USPS COLLECTION BOX - PO LOBBY", "note": "ON 12/24 AND 12/31, THIS BOX MAY BE COLLECTED AS EARLY AS 12 NOON.", "ref": "7176500002"}, "type": "Feature"}
{"geometry": {"coordinates": [-92.36226997, 33.111399996], "type": "Point"}, "id": "8ZHOks8FDVigqAqcA5DSvfjPo3s=", "properties": {"@spider": "usps_collection_boxes", "addr:city": "STRONG", "addr:country": "US", "addr:full": "9559 STRONG HWY", "addr:postcode": "71765", "addr:state": "AR", "brand": "USPS", "collection_times": "Mo-Fr 15:00; Sa 07:30", "name": "USPS COLLECTION BOX - PO LOBBY", "note": "ON 12/24 AND 12/31, THIS BOX MAY BE COLLECTED AS EARLY AS 12 NOON.", "ref": "7176500003"}, "type": "Feature"}
{"geometry": {"coordinates": [-92.36226997, 33.111399996], "type": "Point"}, "id": "EDIJ1DIfn-mn8Fk6s484dsmkrQk=", "properties": {"@spider": "usps_collection_boxes", "addr:city": "STRONG", "addr:country": "US", "addr:full": "9559 STRONG HWY", "addr:postcode": "71765", "addr:state": "AR", "brand": "USPS", "collection_times": "Mo-Fr 15:00", "name": "USPS COLLECTION BOX - PO LOBBY", "note": "ON 12/24 AND 12/31, THIS BOX MAY BE COLLECTED AS EARLY AS 12 NOON.", "ref": "7176500004"}, "type": "Feature"}
{"geometry": {"coordinates": [-92.49112304, 33.777009986], "type": "Point"}, "id": "pATYtmnjdFrDKAHYMyUAu3bbp0A=", "properties": {"@spider": "usps_collection_boxes", "addr:city": "THORNTON", "addr:country": "US", "addr:full": "917 S 1ST ST", "addr:postcode": "71766", "addr:state": "AR", "brand": "USPS", "collection_times": "Mo-Fr 13:45; Sa 11:30", "name": "USPS COLLECTION BOX - BLUE BOX", "note": "ON 12/24 AND 12/31, THIS BOX MAY BE COLLECTED AS EARLY AS 12 NOON.", "ref": "7176600001"}, "type": "Feature"}
{"geometry": {"coordinates": [-92.49112304, 33.777009986], "type": "Point"}, "id": "_-icYzHQg5Kr8rb49SsbdlGBwG8=", "properties": {"@spider": "usps_collection_boxes", "addr:city": "THORNTON", "addr:country": "US", "addr:full": "917 S 1ST ST", "addr:postcode": "71766", "addr:state": "AR", "brand": "USPS", "collection_times": "Mo-Fr 13:45; Sa 11:30", "name": "USPS COLLECTION BOX - PO LOBBY", "note": "ON 12/24 AND 12/31, THIS BOX MAY BE COLLECTED AS EARLY AS 12 NOON.", "ref": "7176600002"}, "type": "Feature"}
{"geometry": {"coordinates": [-92.49112304, 33.777009986], "type": "Point"}, "id": "PwPIctx8Nn1q84p3gFC_H6OOLgE=", "properties": {"@spider": "usps_collection_boxes", "addr:city": "THORNTON", "addr:country": "US", "addr:full": "917 S 1ST ST", "addr:postcode": "71766", "addr:state": "AR", "brand": "USPS", "collection_times": "Mo-Fr 13:45; Sa 11:30", "name": "USPS COLLECTION BOX - PO LOBBY", "note": "ON 12/24 AND 12/31, THIS BOX MAY BE COLLECTED AS EARLY AS 12 NOON.", "ref": "7176600003"}, "type": "Feature"}
{"geometry": {"coordinates": [-92.49112304, 33.777009986], "type": "Point"}, "id": "l9B-6VPFp-os2NUVvuHEozCIa3I=", "properties": {"@spider": "usps_collection_boxes", "addr:city": "THORNTON", "addr:country": "US", "addr:full": "917 S 1ST ST", "addr:postcode": "71766", "addr:state": "AR", "brand": "USPS", "collection_times": "Mo-Fr 13:45; Sa 11:30", "name": "USPS COLLECTION BOX - PO LOBBY", "note": "ON 12/24 AND 12/31, THIS BOX MAY BE COLLECTED AS EARLY AS 12 NOON.", "ref": "7176600004"}, "type": "Feature"}
{"geometry": {"coordinates": [-92.49112304, 33.777009986], "type": "Point"}, "id": "y_mx-q8jeyJnnQ-TtABZtu4LETo=", "properties": {"@spider": "usps_collection_boxes", "addr:city": "THORNTON", "addr:country": "US", "addr:full": "917 S 1ST ST", "addr:postcode": "71766", "addr:state": "AR", "brand": "USPS", "collection_times": "Mo-Fr 14:00; Sa 11:30", "name": "USPS COLLECTION BOX - PO LOBBY", "note": "ON 12/24 AND 12/31, THIS BOX MAY BE COLLECTED AS EARLY AS 12 NOON.", "ref": "7176600005"}, "type": "Feature"}
{"geometry": {"coordinates": [-93.126343692, 33.831120497], "type": "Point"}, "id": "u7-P9wh8Ac8RD8kSPIJGrSYrl3Y=", "properties": {"@spider": "usps_collection_boxes", "addr:city": "WHELEN SPRINGS", "addr:country": "US", "addr:full": "306 E MAIN ST", "addr:postcode": "71772", "addr:state": "AR", "brand": "USPS", "collection_times": "Mo-Fr 10:30; Sa 11:30", "name": "USPS COLLECTION BOX - BLUE BOX", "ref": "7177200000"}, "type": "Feature"}
{"geometry": {"coordinates": [-93.126434, 33.831035], "type": "Point"}, "id": "l0ZnuyptHqID50K75TCJ3pGLDHk=", "properties": {"@spider": "usps_collection_boxes", "addr:city": "WHELEN SPRINGS", "addr:country": "US", "addr:full": "306 E MAIN ST", "addr:postcode": "71772", "addr:state": "AR", "brand": "USPS", "collection_times": "Mo-Fr 09:30; Sa 11:30", "name": "USPS COLLECTION BOX - PO LOBBY", "ref": "7177200001"}, "type": "Feature"}
{"geometry": {"coordinates": [-93.1263428562, 33.8311154939], "type": "Point"}, "id": "2X53AymiYEYvjiVqpN9h9HJXYhk=", "properties": {"@spider": "usps_collection_boxes", "addr:city": "WHELEN SPRINGS", "addr:country": "US", "addr:full": "306 E MAIN ST", "addr:postcode": "71772", "addr:state": "AR", "brand": "USPS", "collection_times": "Mo-Fr 10:00; Sa 12:00", "name": "USPS COLLECTION BOX - PO LOBBY", "ref": "7177200003"}, "type": "Feature"}
