{"geometry": {"coordinates": [-94.3415271602, 34.036992], "type": "Point"}, "id": "owjzwCxXt9UmkdTwTSe346WEY70=", "properties": {"@spider": "usps_collection_boxes", "addr:city": "DEQUEEN", "addr:country": "US", "addr:full": "105 N 4TH ST", "addr:postcode": "71832", "addr:state": "AR", "brand": "USPS", "collection_times": "Mo-Fr 16:00; Sa 15:00", "name": "USPS COLLECTION BOX - BLUE BOX", "note": "ON 12/24 AND 12/31, THIS BOX MAY BE COLLECTED AS EARLY AS 12 NOON.", "ref": "7183200001"}, "type": "Feature"}
{"geometry": {"coordinates": [-94.3415271602, 34.036992], "type": "Point"}, "id": "crAiprkA9AaiR2HkRalmVVmn86Q=", "properties": {"@spider": "usps_collection_boxes", "addr:city": "DEQUEEN", "addr:country": "US", "addr:full": "105 N 4TH ST", "addr:postcode": "71832", "addr:state": "AR", "brand": "USPS", "collection_times": "Mo-Fr 16:00; Sa 15:00", "name": "USPS COLLECTION BOX - PO LOBBY", "note": "ON 12/24 AND 12/31, THIS BOX MAY BE COLLECTED AS EARLY AS 12 NOON.", "ref": "7183200006"}, "type": "Feature"}
{"geometry": {"coordinates": [-94.3415271602, 34.036992], "type": "Point"}, "id": "Kzji0D5EX6EQ611irrIWVZmZT5s=", "properties": {"@spider": "usps_collection_boxes", "addr:city": "DEQUEEN", "addr:country": "US", "addr:full": "105 N 4TH ST", "addr:postcode": "71832", "addr:state": "AR", "brand": "USPS", "collection_times": "Mo-Fr 16:00; Sa 15:00", "name": "USPS COLLECTION BOX - BLUE BOX", "note": "ON 12/24 AND 12/31, THIS BOX MAY BE COLLECTED AS EARLY AS 12 NOON.", "ref": "7183200007"}, "type": "Feature"}
{"geometry": {"coordinates": [-94.3415271602, 34.036992], "type": "Point"}, "id": "NK7tn3K-kHE87REZVQBpv31jLYE=", "properties": {"@spider": "usps_collection_boxes", "addr:city": "DEQUEEN", "addr:country": "US", "addr:full": "105 N 4TH ST", "addr:postcode": "71832", "addr:state": "AR", "brand": "USPS", "collection_times": "Mo-Fr 16:00; Sa 15:00", "name": "USPS COLLECTION BOX - PO LOBBY", "note": "ON 12/24 AND 12/31, THIS BOX MAY BE COLLECTED AS EARLY AS 12 NOON.", "ref": "7183200009"}, "type": "Feature"}
{"geometry": {"coordinates": [-94.3415271602, 34.036992], "type": "Point"}, "id": "092exDYuG4lOmiKqypFXZ9nFsTI=", "properties": {"@spider": "usps_collection_boxes", "addr:city": "DEQUEEN", "addr:country": "US", "addr:full": "105 N 4TH ST", "addr:postcode": "71832", "addr:state": "AR", "brand": "USPS", "collection_times": "Mo-Fr 16:00; Sa 15:00", "name": "USPS COLLECTION BOX - PO LOBBY", "note": "ON 12/24 AND 12/31, THIS BOX MAY BE COLLECTED AS EARLY AS 12 NOON.", "ref": "7183200010"}, "type": "Feature"}
{"geometry": {"coordinates": [-94.3415271602, 34.036992], "type": "Point"}, "id": "bRV5pLkWI3vvmI6zWYu2QYg62Nw=", "properties": {"@spider": "usps_collection_boxes", "addr:city": "DEQUEEN", "addr:country": "US", "addr:full": "105 N 4TH ST", "addr:postcode": "71832", "addr:state": "AR", "brand": "USPS", "collection_times": "Mo-Fr 16:00; Sa 15:00", "name": "USPS COLLECTION BOX - PO LOBBY", "note": "ON 12/24 AND 12/31, THIS BOX MAY BE COLLECTED AS EARLY AS 12 NOON.", "ref": "7183200011"}, "type": "Feature"}
{"geometry": {"coordinates": [-94.3415271602, 34.036992], "type": "Point"}, "id": "BDbFGHhVYg7gv5VsIvHR3rUpQN0=", "properties": {"@spider": "usps_collection_boxes", "addr:city": "DEQUEEN", "addr:country": "US", "addr:full": "105 N 4TH ST", "addr:postcode": "71832", "addr:state": "AR", "brand": "USPS", "collection_times": "Mo-Fr 16:30; Sa 11:00", "name": "USPS COLLECTION BOX - PO LOBBY", "note": "ON 12/24 AND 12/31, THIS BOX MAY BE COLLECTED AS EARLY AS 12 NOON.", "ref": "7183200013"}, "type": "Feature"}
{"geometry": {"coordinates": [-94.030136717, 33.460835121], "type": "Point"}, "id": "yJxp0NGz9aOcmTzlhYdUqVbTBXM=", "properties": {"@spider": "usps_collection_boxes", "addr:city": "TEXARKANA", "addr:country": "US", "addr:full": "1103 ARKANSAS BLVD", "addr:postcode": "71854", "addr:state": "AR", "brand": "USPS", "collection_times": "Mo-Sa 10:00", "name": "USPS COLLECTION BOX - BLUE BOX", "ref": "7185400001"}, "type": "Feature"}
{"geometry": {"coordinates": [-94.0171261, 33.461272], "type": "Point"}, "id": "L8lONQdaGdlwnFfNiwmbQILcQec=", "properties": {"@spider": "usps_collection_boxes", "addr:city": "TEXARKANA", "addr:country": "US", "addr:full": "2301 ARKANSAS BLVD", "addr:postcode": "71854", "addr:state": "AR", "brand": "USPS", "collection_times": "Mo-Sa 12:30", "name": "USPS COLLECTION BOX - BLUE BOX", "note": "ON 12/24 AND 12/31, THIS BOX MAY BE COLLECTED AS EARLY AS 12 NOON.", "ref": "7185400002"}, "type": "Feature"}
{"geometry": {"coordinates": [-94.0299442, 33.419427], "type": "Point"}, "id": "u6Jix-9ImWXUoOgs0FxScooMSFc=", "properties": {"@spider": "usps_collection_boxes", "addr:city": "TEXARKANA", "addr:country": "US", "addr:full": "1 COLLEGE HILL CTR", "addr:postcode": "71854", "addr:state": "AR", "brand": "USPS", "collection_times": "Mo-Sa 10:00", "name": "USPS COLLECTION BOX - BLUE BOX", "ref": "7185400003"}, "type": "Feature"}
{"geometry": {"coordinates": [-94.0261139, 33.411985], "type": "Point"}, "id": "HG9LwFf5Q-IsK-EBXlt-Z7hybxU=", "properties": {"@spider": "usps_collection_boxes", "addr:city": "TEXARKANA", "addr:country": "US", "addr:full": "911 FERGUSON ST", "addr:postcode": "71854", "addr:state": "AR", "brand": "USPS", "collection_times": "Mo-Sa 12:00", "name": "USPS COLLECTION BOX - BLUE BOX", "ref": "7185400004"}, "type": "Feature"}
{"geometry": {"coordinates": [-94.0387057, 33.426348], "type": "Point"}, "id": "H8BVc4qaKzY5fUOWJVv3m0tJixI=", "properties": {"@spider": "usps_collection_boxes", "addr:city": "TEXARKANA", "addr:country": "US", "addr:full": "400 LAUREL ST", "addr:postcode": "71854", "addr:state": "AR", "brand": "USPS", "collection_times": "Mo-Sa 11:30", "name": "USPS COLLECTION BOX - BLUE BOX", "ref": "7185400005"}, "type": "Feature"}
{"geometry": {"coordinates": [-94.0116718, 33.459815], "type": "Point"}, "id": "aclLDB6Pe3grvO5tCyndndOh19o=", "properties": {"@spider": "usps_collection_boxes", "addr:city": "TEXARKANA", "addr:country": "US", "addr:full": "3902 SANDERSON LN", "addr:postcode": "71854", "addr:state": "AR", "brand": "USPS", "collection_times": "Mo-Sa 10:00", "name": "USPS COLLECTION BOX - BLUE BOX", "ref": "7185400007"}, "type": "Feature"}
{"geometry": {"coordinates": [-94.0434146, 33.425726], "type": "Point"}, "id": "TtKRRYe2AZMPcEV48yEGE-DONGo=", "properties": {"@spider": "usps_collection_boxes", "addr:city": "TEXARKANA", "addr:country": "US", "addr:full": "500 N STATE LINE AVE", "addr:postcode": "71854", "addr:state": "AR", "brand": "USPS", "collection_times": "Mo-Fr 17:00; Sa 15:00", "name": "USPS COLLECTION BOX - BLUE BOX", "note": "ON 12/24 AND 12/31, THIS BOX MAY BE COLLECTED AS EARLY AS 12 NOON.", "ref": "7185400008"}, "type": "Feature"}
{"geometry": {"coordinates": [-94.0428104, 33.425759], "type": "Point"}, "id": "wc722bIFdfjbxktV7H2qYXvJOMo=", "properties": {"@spider": "usps_collection_boxes", "addr:city": "TEXARKANA", "addr:country": "US", "addr:full": "500 N STATE LINE AVE", "addr:postcode": "71854", "addr:state": "AR", "brand": "USPS", "collection_times": "Mo-Fr 17:00; Sa 15:00", "name": "USPS COLLECTION BOX - BLUE BOX", "note": "ON 12/24 AND 12/31, THIS BOX MAY BE COLLECTED AS EARLY AS 12 NOON.", "ref": "7185400009"}, "type": "Feature"}
{"geometry": {"coordinates": [-94.0429552, 33.459285], "type": "Point"}, "id": "FgObHmWh_JUHXg577EgZ62Tph4s=", "properties": {"@spider": "usps_collection_boxes", "addr:city": "TEXARKANA", "addr:country": "US", "addr:full": "3710 N STATE LINE AVE", "addr:postcode": "71854", "addr:state": "AR", "brand": "USPS", "collection_times": "Mo-Sa 09:30", "name": "USPS COLLECTION BOX - BLUE BOX", "ref": "7185400011"}, "type": "Feature"}
{"geometry": {"coordinates": [-94.0129416, 33.430871], "type": "Point"}, "id": "Vg2sCadZAN3idk0jkIEDHVl55i8=", "properties": {"@spider": "usps_collection_boxes", "addr:city": "TEXARKANA", "addr:country": "US", "addr:full": "2904 E 9TH ST", "addr:postcode": "71854", "addr:state": "AR", "brand": "USPS", "collection_times": "Mo-Sa 12:00", "name": "USPS COLLECTION BOX - BLUE BOX", "ref": "7185400015"}, "type": "Feature"}
{"geometry": {"coordinates": [-94.030059, 33.456569], "type": "Point"}, "id": "kywgf_wBpvQtDyOQK3v6A9c1C1Y=", "properties": {"@spider": "usps_collection_boxes", "addr:city": "TEXARKANA", "addr:country": "US", "addr:full": "1201 E 35TH ST", "addr:postcode": "71854", "addr:state": "AR", "brand": "USPS", "collection_times": "Mo-Sa 11:00", "name": "USPS COLLECTION BOX - BLUE BOX", "ref": "7185400016"}, "type": "Feature"}
{"geometry": {"coordinates": [-94.043002916, 33.424830947], "type": "Point"}, "id": "tK31qydiTYOrfDGsVdCZA743Q74=", "properties": {"@spider": "usps_collection_boxes", "addr:city": "TEXARKANA", "addr:country": "US", "addr:full": "500 N STATE LINE AVE", "addr:postcode": "71854", "addr:state": "AR", "brand": "USPS", "collection_times": "Mo-Fr 16:45", "name": "USPS COLLECTION BOX - PO LOBBY", "note": "ON 12/24 AND 12/31, THIS BOX MAY BE COLLECTED AS EARLY AS 12 NOON.", "ref": "7185400017"}, "type": "Feature"}
{"geometry": {"coordinates": [-94.043002916, 33.424830947], "type": "Point"}, "id": "ZhgS6qaOhI-aoeGSFs9TBvZ9nqQ=", "properties": {"@spider": "usps_collection_boxes", "addr:city": "TEXARKANA", "addr:country": "US", "addr:full": "500 N STATE LINE AVE", "addr:postcode": "71854", "addr:state": "AR", "brand": "USPS", "collection_times": "Mo-Fr 16:45", "name": "USPS COLLECTION BOX - PO LOBBY", "note": "ON 12/24 AND 12/31, THIS BOX MAY BE COLLECTED AS EARLY AS 12 NOON.", "ref": "7185400018"}, "type": "Feature"}
{"geometry": {"coordinates": [-94.0393976, 33.472113], "type": "Point"}, "id": "_UadxTUpE9zvBXTxng9_H6sXvvo=", "properties": {"@spider": "usps_collection_boxes", "addr:city": "TEXARKANA", "addr:country": "US", "addr:full": "333 LINKS DR", "addr:postcode": "71854", "addr:state": "AR", "brand": "USPS", "collection_times": "Mo-Sa 09:00", "name": "USPS COLLECTION BOX - BLUE BOX", "ref": "7185400019"}, "type": "Feature"}
{"geometry": {"coordinates": [-94.043002916, 33.424830947], "type": "Point"}, "id": "vw5H1KpmZg9922H7xnDidPWgKfg=", "properties": {"@spider": "usps_collection_boxes", "addr:city": "TEXARKANA", "addr:country": "US", "addr:full": "500 N STATE LINE AVE STE 101", "addr:postcode": "71854", "addr:state": "AR", "brand": "USPS", "collection_times": "Mo-Fr 16:30", "name": "USPS COLLECTION BOX - PO LOBBY", "note": "ON 12/24 AND 12/31, THIS BOX MAY BE COLLECTED AS EARLY AS 12 NOON.", "ref": "7185400024"}, "type": "Feature"}
