{"geometry": {"coordinates": [-93.071369665, 34.4650841198], "type": "Point"}, "id": "Pj-HwlqXt3IZy6Qsjl7y-fucXyQ=", "properties": {"@spider": "usps_collection_boxes", "addr:city": "HOT SPRINGS", "addr:country": "US", "addr:full": "335 SECTION LINE RD", "addr:postcode": "71901", "addr:state": "AR", "brand": "USPS", "collection_times": "Mo-Sa 17:30", "name": "USPS COLLECTION BOX - BLUE BOX", "note": "ON 12/24 AND 12/31, THIS BOX MAY BE COLLECTED AS EARLY AS 12 NOON.", "ref": "7190100088"}, "type": "Feature"}
{"geometry": {"coordinates": [-93.071369665, 34.46508412], "type": "Point"}, "id": "_Xj2-OEPbMdQJya4YlsaT5_Qna0=", "properties": {"@spider": "usps_collection_boxes", "addr:city": "HOT SPRINGS", "addr:country": "US", "addr:full": "335 SECTION LINE RD", "addr:postcode": "71901", "addr:state": "AR", "brand": "USPS", "collection_times": "Mo-Sa 17:30", "name": "USPS COLLECTION BOX - BLUE BOX", "note": "ON 12/24 AND 12/31, THIS BOX MAY BE COLLECTED AS EARLY AS 12 NOON.", "ref": "7190100089"}, "type": "Feature"}
{"geometry": {"coordinates": [-93.071369665, 34.4650841198], "type": "Point"}, "id": "TDXrvlv8Fxz-H9Y6Thft3dqHjPY=", "properties": {"@spider": "usps_collection_boxes", "addr:city": "HOT SPRINGS", "addr:country": "US", "addr:full": "335 SECTION LINE RD", "addr:postcode": "71901", "addr:state": "AR", "brand": "USPS", "collection_times": "Mo-Fr 17:35; Sa 15:15", "name": "USPS COLLECTION BOX - PO LOBBY", "note": "ON 12/24 AND 12/31, THIS BOX MAY BE COLLECTED AS EARLY AS 12 NOON.", "ref": "7190100090"}, "type": "Feature"}
{"geometry": {"coordinates": [-93.071369665, 34.46508412], "type": "Point"}, "id": "I76J1Cm4cyXcNwD-m-wdOBZfylQ=", "properties": {"@spider": "usps_collection_boxes", "addr:city": "HOT SPRINGS", "addr:country": "US", "addr:full": "335 SECTION LINE RD", "addr:postcode": "71901", "addr:state": "AR", "brand": "USPS", "collection_times": "Mo-Fr 17:35; Sa 15:15", "name": "USPS COLLECTION BOX - PO LOBBY", "note": "ON 12/24 AND 12/31, THIS BOX MAY BE COLLECTED AS EARLY AS 12 NOON.", "ref": "7190100097"}, "type": "Feature"}
{"geometry": {"coordinates": [-93.071369665, 34.46508412], "type": "Point"}, "id": "MKEoEtkLXF03GCyOpOOb2xc2dQs=", "properties": {"@spider": "usps_collection_boxes", "addr:city": "HOT SPRINGS", "addr:country": "US", "addr:full": "335 SECTION LINE RD", "addr:postcode": "71901", "addr:state": "AR", "brand": "USPS", "collection_times": "Mo-Fr 17:35; Sa 15:15", "name": "USPS COLLECTION BOX - PO LOBBY", "note": "ON 12/24 AND 12/31, THIS BOX MAY BE COLLECTED AS EARLY AS 12 NOON.", "ref": "7190100101"}, "type": "Feature"}
{"geometry": {"coordinates": [-93.054055324, 34.511066382], "type": "Point"}, "id": "ixlJxaoo5acrZVGC5oKxTXG9GAg=", "properties": {"@spider": "usps_collection_boxes", "addr:city": "HOT SPRINGS", "addr:country": "US", "addr:full": "620 CENTRAL AVE STE 1A", "addr:postcode": "71901", "addr:state": "AR", "brand": "USPS", "collection_times": "Mo-Fr 16:30; Sa 11:30", "name": "USPS COLLECTION BOX - PO LOBBY", "note": "ON 12/24 AND 12/31, THIS BOX MAY BE COLLECTED AS EARLY AS 12 NOON.", "ref": "7190100106"}, "type": "Feature"}
{"geometry": {"coordinates": [-93.054055324, 34.511066382], "type": "Point"}, "id": "ubRSIU5XkCKIqXXwW3ox9Y3nADk=", "properties": {"@spider": "usps_collection_boxes", "addr:city": "HOT SPRINGS", "addr:country": "US", "addr:full": "620 CENTRAL AVE STE 1A", "addr:postcode": "71901", "addr:state": "AR", "brand": "USPS", "collection_times": "Mo-Fr 16:30; Sa 11:30", "name": "USPS COLLECTION BOX - PO LOBBY", "note": "ON 12/24 AND 12/31, THIS BOX MAY BE COLLECTED AS EARLY AS 12 NOON.", "ref": "7190100107"}, "type": "Feature"}
{"geometry": {"coordinates": [-93.071369665, 34.4650841198], "type": "Point"}, "id": "o9YbRHMCqEijaWHnJs0g6AJ84Dc=", "properties": {"@spider": "usps_collection_boxes", "addr:city": "HOT SPRINGS", "addr:country": "US", "addr:full": "335 SECTION LINE RD", "addr:postcode": "71901", "addr:state": "AR", "brand": "USPS", "collection_times": "Mo-Fr 17:35; Sa 15:15", "name": "USPS COLLECTION BOX - APC", "note": "ON 12/24 AND 12/31, THIS BOX MAY BE COLLECTED AS EARLY AS 12 NOON.", "ref": "7190100111"}, "type": "Feature"}
{"geometry": {"coordinates": [-93.054055324, 34.511066382], "type": "Point"}, "id": "8VOw2t0Qmc-44wQQKvBGWNJQAuc=", "properties": {"@spider": "usps_collection_boxes", "addr:city": "HOT SPRINGS", "addr:country": "US", "addr:full": "620 CENTRAL AVE STE 1A", "addr:postcode": "71901", "addr:state": "AR", "brand": "USPS", "collection_times": "Mo-Fr 16:30; Sa 12:00", "name": "USPS COLLECTION BOX - PO LOBBY", "note": "ON 12/24 AND 12/31, THIS BOX MAY BE COLLECTED AS EARLY AS 12 NOON.", "ref": "7190100120"}, "type": "Feature"}
{"geometry": {"coordinates": [-93.059064, 34.65668], "type": "Point"}, "id": "3KhTbcsLoLYkM_Jej3qgp4eUoNc=", "properties": {"@spider": "usps_collection_boxes", "addr:city": "HOT SPRINGS", "addr:country": "US", "addr:full": "4656 N HIGHWAY 7 STE P", "addr:postcode": "71909", "addr:state": "AR", "brand": "USPS", "collection_times": "Mo-Fr 16:30; Sa 15:30", "name": "USPS COLLECTION BOX - BLUE BOX", "note": "ON 12/24 AND 12/31, THIS BOX MAY BE COLLECTED AS EARLY AS 12 NOON.", "ref": "7190900018"}, "type": "Feature"}
{"geometry": {"coordinates": [-93.059064, 34.65668], "type": "Point"}, "id": "CG0uIKNAsdcRSk2LtG7nw5CaYBg=", "properties": {"@spider": "usps_collection_boxes", "addr:city": "HOT SPRINGS", "addr:country": "US", "addr:full": "4656 N HIGHWAY 7 STE P", "addr:postcode": "71909", "addr:state": "AR", "brand": "USPS", "collection_times": "Mo-Fr 16:30; Sa 15:30", "name": "USPS COLLECTION BOX - BLUE BOX", "note": "ON 12/24 AND 12/31, THIS BOX MAY BE COLLECTED AS EARLY AS 12 NOON.", "ref": "7190900019"}, "type": "Feature"}
{"geometry": {"coordinates": [-93.059064, 34.65668], "type": "Point"}, "id": "zgBaymBObD51RbcNwzbBsny0dQk=", "properties": {"@spider": "usps_collection_boxes", "addr:city": "HOT SPRINGS", "addr:country": "US", "addr:full": "4656 N HIGHWAY 7 STE P", "addr:postcode": "71909", "addr:state": "AR", "brand": "USPS", "collection_times": "Mo-Fr 16:30; Sa 15:30", "name": "USPS COLLECTION BOX - PO LOBBY", "note": "ON 12/24 AND 12/31, THIS BOX MAY BE COLLECTED AS EARLY AS 12 NOON.", "ref": "7190900020"}, "type": "Feature"}
{"geometry": {"coordinates": [-93.059064, 34.65668], "type": "Point"}, "id": "5HzXoQAqVxO0ybO28_0CpZOGe8M=", "properties": {"@spider": "usps_collection_boxes", "addr:city": "HOT SPRINGS", "addr:country": "US", "addr:full": "4656 N HIGHWAY 7 STE P", "addr:postcode": "71909", "addr:state": "AR", "brand": "USPS", "collection_times": "Mo-Fr 16:30; Sa 15:30", "name": "USPS COLLECTION BOX - PO LOBBY", "note": "ON 12/24 AND 12/31, THIS BOX MAY BE COLLECTED AS EARLY AS 12 NOON.", "ref": "7190900021"}, "type": "Feature"}
{"geometry": {"coordinates": [-93.059073925, 34.656711501], "type": "Point"}, "id": "1R76Wn2A9vjhRY6oB6q0mW1i8Po=", "properties": {"@spider": "usps_collection_boxes", "addr:city": "HOT SPRINGS", "addr:country": "US", "addr:full": "4656 N HIGHWAY 7 STE P", "addr:postcode": "71909", "addr:state": "AR", "brand": "USPS", "collection_times": "Mo-Fr 16:30; Sa 12:00", "name": "USPS COLLECTION BOX - PO LOBBY", "note": "ON 12/24 AND 12/31, THIS BOX MAY BE COLLECTED AS EARLY AS 12 NOON.", "ref": "7190900023"}, "type": "Feature"}
{"geometry": {"coordinates": [-93.093147, 34.493834], "type": "Point"}, "id": "tKzIXOw4ZQrnV5G2gVuowcvz8S8=", "properties": {"@spider": "usps_collection_boxes", "addr:city": "HOT SPRINGS", "addr:country": "US", "addr:full": "101 HAMMOND DR", "addr:postcode": "71913", "addr:state": "AR", "brand": "USPS", "collection_times": "Mo-Sa 17:00", "name": "USPS COLLECTION BOX - BLUE BOX", "note": "ON 12/24 AND 12/31, THIS BOX MAY BE COLLECTED AS EARLY AS 12 NOON.", "ref": "7191300006"}, "type": "Feature"}
{"geometry": {"coordinates": [-93.093147, 34.493834], "type": "Point"}, "id": "7jQBANnZOehmrGpZzS3dDmOIo5U=", "properties": {"@spider": "usps_collection_boxes", "addr:city": "HOT SPRINGS", "addr:country": "US", "addr:full": "101 HAMMOND DR", "addr:postcode": "71913", "addr:state": "AR", "brand": "USPS", "collection_times": "Mo-Sa 17:00", "name": "USPS COLLECTION BOX - BLUE BOX", "note": "ON 12/24 AND 12/31, THIS BOX MAY BE COLLECTED AS EARLY AS 12 NOON.", "ref": "7191300057"}, "type": "Feature"}
{"geometry": {"coordinates": [-93.093147, 34.493834], "type": "Point"}, "id": "kP903UCPHZwZl_d681s-ntO4NSg=", "properties": {"@spider": "usps_collection_boxes", "addr:city": "HOT SPRINGS", "addr:country": "US", "addr:full": "101 HAMMOND DR", "addr:postcode": "71913", "addr:state": "AR", "brand": "USPS", "collection_times": "Mo-Sa 17:00", "name": "USPS COLLECTION BOX - PO LOBBY", "note": "ON 12/24 AND 12/31, THIS BOX MAY BE COLLECTED AS EARLY AS 12 NOON.", "ref": "7191300058"}, "type": "Feature"}
{"geometry": {"coordinates": [-93.093168204, 34.493454356], "type": "Point"}, "id": "ORVA7Qh_B5y5HgqSFItQiKtjWGE=", "properties": {"@spider": "usps_collection_boxes", "addr:city": "HOT SPRINGS", "addr:country": "US", "addr:full": "101 HAMMOND DR", "addr:postcode": "71913", "addr:state": "AR", "brand": "USPS", "collection_times": "Mo-Fr 17:00; Sa 12:00", "name": "USPS COLLECTION BOX - PO LOBBY", "note": "ON 12/24 AND 12/31, THIS BOX MAY BE COLLECTED AS EARLY AS 12 NOON.", "ref": "7191300104"}, "type": "Feature"}
{"geometry": {"coordinates": [-93.071369665, 34.465094094], "type": "Point"}, "id": "5VdxuaI7VIkLzZgnVQPRsJow6wc=", "properties": {"@spider": "usps_collection_boxes", "addr:city": "HOT SPRINGS", "addr:country": "US", "addr:full": "335 SECTION LINE RD", "addr:postcode": "71913", "addr:state": "AR", "brand": "USPS", "collection_times": "Mo-Fr 17:00; Sa 12:00", "name": "USPS COLLECTION BOX - PO LOBBY", "note": "ON 12/24 AND 12/31, THIS BOX MAY BE COLLECTED AS EARLY AS 12 NOON.", "ref": "7191300105"}, "type": "Feature"}
{"geometry": {"coordinates": [-93.422251, 34.034977], "type": "Point"}, "id": "Qr-z3VrJ9uocvohL9qqpbV8cBFI=", "properties": {"@spider": "usps_collection_boxes", "addr:city": "ANTOINE", "addr:country": "US", "addr:full": "40 E MAIN ST", "addr:postcode": "71922", "addr:state": "AR", "brand": "USPS", "collection_times": "Mo-Fr 11:30; Sa 09:45", "name": "USPS COLLECTION BOX - BLUE BOX", "ref": "7192200001"}, "type": "Feature"}
{"geometry": {"coordinates": [-93.422282, 34.034917], "type": "Point"}, "id": "GfqTcGN9WpSjS-lxHH4QUW5NmUY=", "properties": {"@spider": "usps_collection_boxes", "addr:city": "ANTOINE", "addr:country": "US", "addr:full": "40 E MAIN ST", "addr:postcode": "71922", "addr:state": "AR", "brand": "USPS", "collection_times": "Mo-Fr 11:30; Sa 09:45", "name": "USPS COLLECTION BOX - PO LOBBY", "ref": "7192200002"}, "type": "Feature"}
{"geometry": {"coordinates": [-93.419999852, 34.036509112], "type": "Point"}, "id": "7hf0ZkpKy3M9fq95h9eVZ_FrokY=", "properties": {"@spider": "usps_collection_boxes", "addr:city": "ANTOINE", "addr:country": "US", "addr:full": "40 E MAIN ST", "addr:postcode": "71922", "addr:state": "AR", "brand": "USPS", "collection_times": "Mo-Fr 12:00; Sa 09:30", "name": "USPS COLLECTION BOX - PO LOBBY", "ref": "7192200004"}, "type": "Feature"}
{"geometry": {"coordinates": [-94.1030064356, 34.5369030865], "type": "Point"}, "id": "G_UJNlJTHyipbTexp1KUg8t-3uE=", "properties": {"@spider": "usps_collection_boxes", "addr:city": "BOARD CAMP", "addr:country": "US", "addr:full": "4199 HIGHWAY 8 E", "addr:postcode": "71932", "addr:state": "AR", "brand": "USPS", "collection_times": "Mo-Fr 11:30; Sa 13:30", "name": "USPS COLLECTION BOX - BLUE BOX", "note": "ON 12/24 AND 12/31, THIS BOX MAY BE COLLECTED AS EARLY AS 12 NOON.", "ref": "7193200000"}, "type": "Feature"}
{"geometry": {"coordinates": [-94.1030064356, 34.5369030865], "type": "Point"}, "id": "wmToUBLUpjfGAP1oeYR5p4QJWZw=", "properties": {"@spider": "usps_collection_boxes", "addr:city": "BOARD CAMP", "addr:country": "US", "addr:full": "4199 HIGHWAY 8 E", "addr:postcode": "71932", "addr:state": "AR", "brand": "USPS", "collection_times": "Mo-Fr 11:30; Sa 13:30", "name": "USPS COLLECTION BOX - PO LOBBY", "note": "ON 12/24 AND 12/31, THIS BOX MAY BE COLLECTED AS EARLY AS 12 NOON.", "ref": "7193200001"}, "type": "Feature"}
{"geometry": {"coordinates": [-94.089241415, 34.537139453], "type": "Point"}, "id": "UNef0Lr-a86EOv6L8KB2Azjn47M=", "properties": {"@spider": "usps_collection_boxes", "addr:city": "BOARD CAMP", "addr:country": "US", "addr:full": "4199 HIGHWAY 8 E", "addr:postcode": "71932", "addr:state": "AR", "brand": "USPS", "collection_times": "Mo-Fr 12:00; Sa 14:00", "name": "USPS COLLECTION BOX - PO LOBBY", "note": "ON 12/24 AND 12/31, THIS BOX MAY BE COLLECTED AS EARLY AS 12 NOON.", "ref": "7193200003"}, "type": "Feature"}
{"geometry": {"coordinates": [-93.378484, 34.385931], "type": "Point"}, "id": "hfqPyvwOdGYRvn7utzEhDjyOKAA=", "properties": {"@spider": "usps_collection_boxes", "addr:city": "BONNERDALE", "addr:country": "US", "addr:full": "1980 HIGHWAY 70", "addr:postcode": "71933", "addr:state": "AR", "brand": "USPS", "collection_times": "Mo-Fr 11:30; Sa 10:00", "name": "USPS COLLECTION BOX - PO LOBBY", "ref": "7193300002"}, "type": "Feature"}
{"geometry": {"coordinates": [-93.378484, 34.385931], "type": "Point"}, "id": "Hh1pbTVHvo3wDfbH0EFbk4vWzbQ=", "properties": {"@spider": "usps_collection_boxes", "addr:city": "BONNERDALE", "addr:country": "US", "addr:full": "1980 HIGHWAY 70", "addr:postcode": "71933", "addr:state": "AR", "brand": "USPS", "collection_times": "Mo-Fr 11:30; Sa 10:00", "name": "USPS COLLECTION BOX - PO LOBBY", "ref": "7193300003"}, "type": "Feature"}
{"geometry": {"coordinates": [-93.378484, 34.385931], "type": "Point"}, "id": "IH5B09b8zHHKdp2QHRq82XUB3mk=", "properties": {"@spider": "usps_collection_boxes", "addr:city": "BONNERDALE", "addr:country": "US", "addr:full": "1980 HIGHWAY 70", "addr:postcode": "71933", "addr:state": "AR", "brand": "USPS", "collection_times": "Mo-Fr 11:30; Sa 10:00", "name": "USPS COLLECTION BOX - BLUE BOX", "ref": "7193300004"}, "type": "Feature"}
{"geometry": {"coordinates": [-93.379571957, 34.385518265], "type": "Point"}, "id": "WyEJMvC0aIYfi3I8kP726_9G344=", "properties": {"@spider": "usps_collection_boxes", "addr:city": "BONNERDALE", "addr:country": "US", "addr:full": "1980 HIGHWAY 70", "addr:postcode": "71933", "addr:state": "AR", "brand": "USPS", "collection_times": "Mo-Fr 12:00; Sa 10:15", "name": "USPS COLLECTION BOX - PO LOBBY", "ref": "7193300006"}, "type": "Feature"}
{"geometry": {"coordinates": [-93.619444, 34.401572], "type": "Point"}, "id": "z89XZtHCXXp8nUkUW2_Cd_3hqvc=", "properties": {"@spider": "usps_collection_boxes", "addr:city": "CADDO GAP", "addr:country": "US", "addr:full": "57 6TH ST", "addr:postcode": "71935", "addr:state": "AR", "brand": "USPS", "collection_times": "Mo-Fr 11:30; Sa 09:40", "name": "USPS COLLECTION BOX - BLUE BOX", "ref": "7193500001"}, "type": "Feature"}
{"geometry": {"coordinates": [-93.619444, 34.401572], "type": "Point"}, "id": "gG9f7577Z0FVIq4VRwMglbzrZCI=", "properties": {"@spider": "usps_collection_boxes", "addr:city": "CADDO GAP", "addr:country": "US", "addr:full": "57 6TH ST", "addr:postcode": "71935", "addr:state": "AR", "brand": "USPS", "collection_times": "Mo-Fr 11:30; Sa 09:40", "name": "USPS COLLECTION BOX - PO LOBBY", "ref": "7193500002"}, "type": "Feature"}
{"geometry": {"coordinates": [-93.619444, 34.401572], "type": "Point"}, "id": "U0v95IqT_wapwp7WwyCsfoNojQA=", "properties": {"@spider": "usps_collection_boxes", "addr:city": "CADDO GAP", "addr:country": "US", "addr:full": "57 6TH ST", "addr:postcode": "71935", "addr:state": "AR", "brand": "USPS", "collection_times": "Mo-Fr 11:30; Sa 09:40", "name": "USPS COLLECTION BOX - PO LOBBY", "ref": "7193500003"}, "type": "Feature"}
{"geometry": {"coordinates": [-93.619416431, 34.401529835], "type": "Point"}, "id": "0B7QZ3YZqlDpL2d0tDcTZQsNb_E=", "properties": {"@spider": "usps_collection_boxes", "addr:city": "CADDO GAP", "addr:country": "US", "addr:full": "57 6TH ST", "addr:postcode": "71935", "addr:state": "AR", "brand": "USPS", "collection_times": "Mo-Fr 12:00; Sa 10:00", "name": "USPS COLLECTION BOX - PO LOBBY", "ref": "7193500004"}, "type": "Feature"}
{"geometry": {"coordinates": [-94.409642, 34.435502], "type": "Point"}, "id": "5Ep_y4l22U9MYfQ8jpzi_aUJYuM=", "properties": {"@spider": "usps_collection_boxes", "addr:city": "COVE", "addr:country": "US", "addr:full": "120 E BARTON AVE", "addr:postcode": "71937", "addr:state": "AR", "brand": "USPS", "collection_times": "Mo-Fr 14:45; Sa 10:00", "name": "USPS COLLECTION BOX - BLUE BOX", "note": "ON 12/24 AND 12/31, THIS BOX MAY BE COLLECTED AS EARLY AS 12 NOON.", "ref": "7193700001"}, "type": "Feature"}
{"geometry": {"coordinates": [-94.409642, 34.435502], "type": "Point"}, "id": "VAMlKTSqFQa9P0LbeqA7wsIxBvQ=", "properties": {"@spider": "usps_collection_boxes", "addr:city": "COVE", "addr:country": "US", "addr:full": "120 E BARTON AVE", "addr:postcode": "71937", "addr:state": "AR", "brand": "USPS", "collection_times": "Mo-Fr 14:45; Sa 10:00", "name": "USPS COLLECTION BOX - PO LOBBY", "note": "ON 12/24 AND 12/31, THIS BOX MAY BE COLLECTED AS EARLY AS 12 NOON.", "ref": "7193700002"}, "type": "Feature"}
{"geometry": {"coordinates": [-94.409642, 34.435502], "type": "Point"}, "id": "tKJpb4B9uw-1wRoGSPmKEiKFPko=", "properties": {"@spider": "usps_collection_boxes", "addr:city": "COVE", "addr:country": "US", "addr:full": "120 E BARTON AVE", "addr:postcode": "71937", "addr:state": "AR", "brand": "USPS", "collection_times": "Mo-Fr 14:45; Sa 10:00", "name": "USPS COLLECTION BOX - PO LOBBY", "note": "ON 12/24 AND 12/31, THIS BOX MAY BE COLLECTED AS EARLY AS 12 NOON.", "ref": "7193700003"}, "type": "Feature"}
{"geometry": {"coordinates": [-94.409581028, 34.435496474], "type": "Point"}, "id": "tkjmtcdX5Smuwm5RP7m4jZwXwF4=", "properties": {"@spider": "usps_collection_boxes", "addr:city": "COVE", "addr:country": "US", "addr:full": "120 E BARTON AVE", "addr:postcode": "71937", "addr:state": "AR", "brand": "USPS", "collection_times": "Mo-Fr 14:45; Sa 11:30", "name": "USPS COLLECTION BOX - PO LOBBY", "note": "ON 12/24 AND 12/31, THIS BOX MAY BE COLLECTED AS EARLY AS 12 NOON.", "ref": "7193700004"}, "type": "Feature"}
{"geometry": {"coordinates": [-93.550703979, 34.327050002], "type": "Point"}, "id": "e_phxr9pb0PYsC_LAy7Y7JGRU-M=", "properties": {"@spider": "usps_collection_boxes", "addr:city": "GLENWOOD", "addr:country": "US", "addr:full": "201 LAKE ST", "addr:postcode": "71943", "addr:state": "AR", "brand": "USPS", "collection_times": "Mo-Sa 13:00", "name": "USPS COLLECTION BOX - BLUE BOX", "note": "ON 12/24 AND 12/31, THIS BOX MAY BE COLLECTED AS EARLY AS 12 NOON.", "ref": "7194300001"}, "type": "Feature"}
{"geometry": {"coordinates": [-93.5376029804, 34.3261549828], "type": "Point"}, "id": "mRpeX68sUbn12Z1J3bm2tMdXUYQ=", "properties": {"@spider": "usps_collection_boxes", "addr:city": "GLENWOOD", "addr:country": "US", "addr:full": "200 HIGHWAY 70 E", "addr:postcode": "71943", "addr:state": "AR", "brand": "USPS", "collection_times": "Mo-Sa 13:00", "name": "USPS COLLECTION BOX - BLUE BOX", "note": "ON 12/24 AND 12/31, THIS BOX MAY BE COLLECTED AS EARLY AS 12 NOON.", "ref": "7194300003"}, "type": "Feature"}
{"geometry": {"coordinates": [-93.551320971, 34.325183017], "type": "Point"}, "id": "l9vgR1_j1b1iQ1X2wyQ4wGlkQaY=", "properties": {"@spider": "usps_collection_boxes", "addr:city": "GLENWOOD", "addr:country": "US", "addr:full": "102 W BROADWAY", "addr:postcode": "71943", "addr:state": "AR", "brand": "USPS", "collection_times": "Mo-Sa 13:00", "name": "USPS COLLECTION BOX - BLUE BOX", "note": "ON 12/24 AND 12/31, THIS BOX MAY BE COLLECTED AS EARLY AS 12 NOON.", "ref": "7194300004"}, "type": "Feature"}
{"geometry": {"coordinates": [-94.333819, 34.238835], "type": "Point"}, "id": "aZNFL_1SC3OfIypjsqnJlDCt-lw=", "properties": {"@spider": "usps_collection_boxes", "addr:city": "GRANNIS", "addr:country": "US", "addr:full": "8580 HIGHWAY 71 S", "addr:postcode": "71944", "addr:state": "AR", "brand": "USPS", "collection_times": "Mo-Sa 14:30", "name": "USPS COLLECTION BOX - BLUE BOX", "note": "ON 12/24 AND 12/31, THIS BOX MAY BE COLLECTED AS EARLY AS 12 NOON.", "ref": "7194400001"}, "type": "Feature"}
{"geometry": {"coordinates": [-94.333819, 34.238835], "type": "Point"}, "id": "eEJFiIrewWfv1GJL67FfFKDsLhw=", "properties": {"@spider": "usps_collection_boxes", "addr:city": "GRANNIS", "addr:country": "US", "addr:full": "8580 HIGHWAY 71 S", "addr:postcode": "71944", "addr:state": "AR", "brand": "USPS", "collection_times": "Mo-Sa 14:30", "name": "USPS COLLECTION BOX - PO LOBBY", "note": "ON 12/24 AND 12/31, THIS BOX MAY BE COLLECTED AS EARLY AS 12 NOON.", "ref": "7194400002"}, "type": "Feature"}
{"geometry": {"coordinates": [-94.333819, 34.238835], "type": "Point"}, "id": "EWRclBwFRLgOzNPa4OBgvAdVOuY=", "properties": {"@spider": "usps_collection_boxes", "addr:city": "GRANNIS", "addr:country": "US", "addr:full": "8580 HIGHWAY 71 S", "addr:postcode": "71944", "addr:state": "AR", "brand": "USPS", "collection_times": "Mo-Sa 14:30", "name": "USPS COLLECTION BOX - PO LOBBY", "note": "ON 12/24 AND 12/31, THIS BOX MAY BE COLLECTED AS EARLY AS 12 NOON.", "ref": "7194400003"}, "type": "Feature"}
{"geometry": {"coordinates": [-94.333821923, 34.238832025], "type": "Point"}, "id": "DwfcyHv8YKISvv7AqyPMh_QVk2A=", "properties": {"@spider": "usps_collection_boxes", "addr:city": "GRANNIS", "addr:country": "US", "addr:full": "8580 HIGHWAY 71 S", "addr:postcode": "71944", "addr:state": "AR", "brand": "USPS", "collection_times": "Mo-Sa 15:00", "name": "USPS COLLECTION BOX - PO LOBBY", "note": "ON 12/24 AND 12/31, THIS BOX MAY BE COLLECTED AS EARLY AS 12 NOON.", "ref": "7194400004"}, "type": "Feature"}
{"geometry": {"coordinates": [-94.37809, 34.484943], "type": "Point"}, "id": "EsFgUIDDEq6CSPW9Fjhz0Q_fYEw=", "properties": {"@spider": "usps_collection_boxes", "addr:city": "HATFIELD", "addr:country": "US", "addr:full": "100 E HORNBECK RD", "addr:postcode": "71945", "addr:state": "AR", "brand": "USPS", "collection_times": "Mo-Fr 14:15; Sa 10:00", "name": "USPS COLLECTION BOX - BLUE BOX", "note": "ON 12/24 AND 12/31, THIS BOX MAY BE COLLECTED AS EARLY AS 12 NOON.", "ref": "7194500001"}, "type": "Feature"}
{"geometry": {"coordinates": [-94.37809, 34.484943], "type": "Point"}, "id": "4l8H8BnmoNR80Eycq2EcqcJ9CjI=", "properties": {"@spider": "usps_collection_boxes", "addr:city": "HATFIELD", "addr:country": "US", "addr:full": "100 E HORNBECK RD", "addr:postcode": "71945", "addr:state": "AR", "brand": "USPS", "collection_times": "Mo-Fr 14:15; Sa 10:00", "name": "USPS COLLECTION BOX - PO LOBBY", "note": "ON 12/24 AND 12/31, THIS BOX MAY BE COLLECTED AS EARLY AS 12 NOON.", "ref": "7194500002"}, "type": "Feature"}
{"geometry": {"coordinates": [-94.37809, 34.484943], "type": "Point"}, "id": "vkRyxdRuZwx8VJ2k7nOMih9IMFg=", "properties": {"@spider": "usps_collection_boxes", "addr:city": "HATFIELD", "addr:country": "US", "addr:full": "100 E HORNBECK RD", "addr:postcode": "71945", "addr:state": "AR", "brand": "USPS", "collection_times": "Mo-Fr 14:15; Sa 10:00", "name": "USPS COLLECTION BOX - PO LOBBY", "note": "ON 12/24 AND 12/31, THIS BOX MAY BE COLLECTED AS EARLY AS 12 NOON.", "ref": "7194500004"}, "type": "Feature"}
{"geometry": {"coordinates": [-94.378000311, 34.484896699], "type": "Point"}, "id": "zfa6ulE9ZwJgEjO3KmrlU5fj6Og=", "properties": {"@spider": "usps_collection_boxes", "addr:city": "HATFIELD", "addr:country": "US", "addr:full": "100 E HORNBECK RD", "addr:postcode": "71945", "addr:state": "AR", "brand": "USPS", "collection_times": "Mo-Fr 14:30; Sa 10:00", "name": "USPS COLLECTION BOX - PO LOBBY", "note": "ON 12/24 AND 12/31, THIS BOX MAY BE COLLECTED AS EARLY AS 12 NOON.", "ref": "7194500005"}, "type": "Feature"}
{"geometry": {"coordinates": [-93.062918, 34.700605], "type": "Point"}, "id": "cXKW_3ODVjT8f37J4_Tzto7anaE=", "properties": {"@spider": "usps_collection_boxes", "addr:city": "JESSIEVILLE", "addr:country": "US", "addr:full": "7919 N HIGHWAY 7", "addr:postcode": "71949", "addr:state": "AR", "brand": "USPS", "collection_times": "Mo-Fr 13:00; Sa 10:00", "name": "USPS COLLECTION BOX - PO LOBBY", "note": "ON 12/24 AND 12/31, THIS BOX MAY BE COLLECTED AS EARLY AS 12 NOON.", "ref": "7194900002"}, "type": "Feature"}
{"geometry": {"coordinates": [-93.062918234, 34.700600599], "type": "Point"}, "id": "9yM9blnNP0VOB9ff5Yv8L4COUN4=", "properties": {"@spider": "usps_collection_boxes", "addr:city": "JESSIEVILLE", "addr:country": "US", "addr:full": "7919 N HIGHWAY 7", "addr:postcode": "71949", "addr:state": "AR", "brand": "USPS", "collection_times": "Mo-Fr 13:30; Sa 11:30", "name": "USPS COLLECTION BOX - PO LOBBY", "note": "ON 12/24 AND 12/31, THIS BOX MAY BE COLLECTED AS EARLY AS 12 NOON.", "ref": "7194900003"}, "type": "Feature"}
{"geometry": {"coordinates": [-93.644707, 34.212333], "type": "Point"}, "id": "UEi5X08tr26r3O-wi-NiZdKX53M=", "properties": {"@spider": "usps_collection_boxes", "addr:city": "KIRBY", "addr:country": "US", "addr:full": "2633 HIGHWAY 27 N", "addr:postcode": "71950", "addr:state": "AR", "brand": "USPS", "collection_times": "Mo-Fr 11:30; Sa 09:30", "name": "USPS COLLECTION BOX - PO LOBBY", "ref": "7195000002"}, "type": "Feature"}
{"geometry": {"coordinates": [-93.64200527, 34.248644696], "type": "Point"}, "id": "CFjp8MGTSccbbySMgIGs_ta2pFg=", "properties": {"@spider": "usps_collection_boxes", "addr:city": "KIRBY", "addr:country": "US", "addr:full": "2633 HIGHWAY 27 N", "addr:postcode": "71950", "addr:state": "AR", "brand": "USPS", "collection_times": "Mo-Fr 11:30; Sa 09:45", "name": "USPS COLLECTION BOX - PO LOBBY", "ref": "7195000003"}, "type": "Feature"}
{"geometry": {"coordinates": [-94.2346994, 34.582369], "type": "Point"}, "id": "RCAev17za3-NSNDRlSgmYgCFiss=", "properties": {"@spider": "usps_collection_boxes", "addr:city": "MENA", "addr:country": "US", "addr:full": "822 MENA ST", "addr:postcode": "71953", "addr:state": "AR", "brand": "USPS", "collection_times": "Mo-Sa 15:30", "name": "USPS COLLECTION BOX - BLUE BOX", "note": "ON 12/24 AND 12/31, THIS BOX MAY BE COLLECTED AS EARLY AS 12 NOON.", "ref": "7195300002"}, "type": "Feature"}
{"geometry": {"coordinates": [-94.2392776, 34.586248], "type": "Point"}, "id": "bRXJgcoT6BHV5jUm5_Zl91-_mHo=", "properties": {"@spider": "usps_collection_boxes", "addr:city": "MENA", "addr:country": "US", "addr:full": "507 CHURCH AVE", "addr:postcode": "71953", "addr:state": "AR", "brand": "USPS", "collection_times": "Mo-Sa 15:30", "name": "USPS COLLECTION BOX - BLUE BOX", "note": "ON 12/24 AND 12/31, THIS BOX MAY BE COLLECTED AS EARLY AS 12 NOON.", "ref": "7195300003"}, "type": "Feature"}
{"geometry": {"coordinates": [-94.2266447, 34.586875], "type": "Point"}, "id": "fgOJwCkrvYpDdPVsJagLUPHMY-k=", "properties": {"@spider": "usps_collection_boxes", "addr:city": "MENA", "addr:country": "US", "addr:full": "600 HIGHWAY 71 N", "addr:postcode": "71953", "addr:state": "AR", "brand": "USPS", "collection_times": "Mo-Sa 15:30", "name": "USPS COLLECTION BOX - BLUE BOX", "note": "ON 12/24 AND 12/31, THIS BOX MAY BE COLLECTED AS EARLY AS 12 NOON.", "ref": "7195300004"}, "type": "Feature"}
{"geometry": {"coordinates": [-94.2196593, 34.58668], "type": "Point"}, "id": "04zCfqEVifmimrIjfEdTtrGYBHc=", "properties": {"@spider": "usps_collection_boxes", "addr:city": "MENA", "addr:country": "US", "addr:full": "1200 HIGHWAY 71 N", "addr:postcode": "71953", "addr:state": "AR", "brand": "USPS", "collection_times": "Mo-Sa 15:30", "name": "USPS COLLECTION BOX - BLUE BOX", "note": "ON 12/24 AND 12/31, THIS BOX MAY BE COLLECTED AS EARLY AS 12 NOON.", "ref": "7195300008"}, "type": "Feature"}
{"geometry": {"coordinates": [-94.2263366, 34.585746], "type": "Point"}, "id": "c7b9YO2zOJB7Rqmm8JcJhAP-ySk=", "properties": {"@spider": "usps_collection_boxes", "addr:city": "MENA", "addr:country": "US", "addr:full": "601 HIGHWAY 71 N", "addr:postcode": "71953", "addr:state": "AR", "brand": "USPS", "collection_times": "Mo-Sa 15:30", "name": "USPS COLLECTION BOX - BLUE BOX", "note": "ON 12/24 AND 12/31, THIS BOX MAY BE COLLECTED AS EARLY AS 12 NOON.", "ref": "7195300010"}, "type": "Feature"}
{"geometry": {"coordinates": [-94.2226679889, 34.5785054353], "type": "Point"}, "id": "q7j75m6pojbFEuTs2D-5wzPSJWk=", "properties": {"@spider": "usps_collection_boxes", "addr:city": "MENA", "addr:country": "US", "addr:full": "400 MORROW ST S", "addr:postcode": "71953", "addr:state": "AR", "brand": "USPS", "collection_times": "Mo-Fr 16:30; Sa 15:00", "name": "USPS COLLECTION BOX - BLUE BOX", "note": "ON 12/24 AND 12/31, THIS BOX MAY BE COLLECTED AS EARLY AS 12 NOON.", "ref": "7195300011"}, "type": "Feature"}
{"geometry": {"coordinates": [-94.2226679889, 34.5785054353], "type": "Point"}, "id": "9WB8wE-h5_ZioKwjvzGy1MGpJyw=", "properties": {"@spider": "usps_collection_boxes", "addr:city": "MENA", "addr:country": "US", "addr:full": "400 MORROW ST S", "addr:postcode": "71953", "addr:state": "AR", "brand": "USPS", "collection_times": "Mo-Fr 16:30; Sa 15:00", "name": "USPS COLLECTION BOX - PO LOBBY", "note": "ON 12/24 AND 12/31, THIS BOX MAY BE COLLECTED AS EARLY AS 12 NOON.", "ref": "7195300012"}, "type": "Feature"}
{"geometry": {"coordinates": [-94.2226679889, 34.5785054353], "type": "Point"}, "id": "wgg58os_bw8pAEPlVjo5fvXQX0U=", "properties": {"@spider": "usps_collection_boxes", "addr:city": "MENA", "addr:country": "US", "addr:full": "400 MORROW ST S", "addr:postcode": "71953", "addr:state": "AR", "brand": "USPS", "collection_times": "Mo-Fr 16:30; Sa 15:00", "name": "USPS COLLECTION BOX - PO LOBBY", "note": "ON 12/24 AND 12/31, THIS BOX MAY BE COLLECTED AS EARLY AS 12 NOON.", "ref": "7195300013"}, "type": "Feature"}
{"geometry": {"coordinates": [-94.2226679889, 34.5785054353], "type": "Point"}, "id": "Ptzxg1K3Kx4f-m0sp8Yb8RGeNsI=", "properties": {"@spider": "usps_collection_boxes", "addr:city": "MENA", "addr:country": "US", "addr:full": "400 MORROW ST S", "addr:postcode": "71953", "addr:state": "AR", "brand": "USPS", "collection_times": "Mo-Fr 16:30; Sa 15:00", "name": "USPS COLLECTION BOX - PO LOBBY", "note": "ON 12/24 AND 12/31, THIS BOX MAY BE COLLECTED AS EARLY AS 12 NOON.", "ref": "7195300014"}, "type": "Feature"}
{"geometry": {"coordinates": [-94.2226679889, 34.5785054353], "type": "Point"}, "id": "08nq97SnJEtO1kL94Gu7UKmW_AM=", "properties": {"@spider": "usps_collection_boxes", "addr:city": "MENA", "addr:country": "US", "addr:full": "400 MORROW ST S", "addr:postcode": "71953", "addr:state": "AR", "brand": "USPS", "collection_times": "Mo-Fr 16:30; Sa 15:00", "name": "USPS COLLECTION BOX - PO LOBBY", "note": "ON 12/24 AND 12/31, THIS BOX MAY BE COLLECTED AS EARLY AS 12 NOON.", "ref": "7195300015"}, "type": "Feature"}
{"geometry": {"coordinates": [-94.2226679889, 34.5785054353], "type": "Point"}, "id": "YSX2mPtgtmwoLQgxs2VTFoMzqAo=", "properties": {"@spider": "usps_collection_boxes", "addr:city": "MENA", "addr:country": "US", "addr:full": "400 MORROW ST S", "addr:postcode": "71953", "addr:state": "AR", "brand": "USPS", "collection_times": "Mo-Fr 16:30; Sa 15:00", "name": "USPS COLLECTION BOX - BLUE BOX", "note": "ON 12/24 AND 12/31, THIS BOX MAY BE COLLECTED AS EARLY AS 12 NOON.", "ref": "7195300016"}, "type": "Feature"}
{"geometry": {"coordinates": [-94.222667989, 34.578505435], "type": "Point"}, "id": "8Q2IZQsViT5evkywt5nSK2xXn5c=", "properties": {"@spider": "usps_collection_boxes", "addr:city": "MENA", "addr:country": "US", "addr:full": "400 MORROW ST S", "addr:postcode": "71953", "addr:state": "AR", "brand": "USPS", "collection_times": "Mo-Fr 16:15; Sa 12:00", "name": "USPS COLLECTION BOX - PO LOBBY", "note": "ON 12/24 AND 12/31, THIS BOX MAY BE COLLECTED AS EARLY AS 12 NOON.", "ref": "7195300020"}, "type": "Feature"}
{"geometry": {"coordinates": [-93.634029, 34.559085], "type": "Point"}, "id": "SQrth2dC3xks6mPXa3MNVriEOLw=", "properties": {"@spider": "usps_collection_boxes", "addr:city": "MOUNT IDA", "addr:country": "US", "addr:full": "140 HIGHWAY 270 W", "addr:postcode": "71957", "addr:state": "AR", "brand": "USPS", "collection_times": "Mo-Fr 16:10; Sa 11:30", "name": "USPS COLLECTION BOX - BLUE BOX", "note": "ON 12/24 AND 12/31, THIS BOX MAY BE COLLECTED AS EARLY AS 12 NOON.", "ref": "7195700001"}, "type": "Feature"}
{"geometry": {"coordinates": [-93.634029, 34.559085], "type": "Point"}, "id": "pCFEiO1nGNFP2WnPBOjYXSXAbL4=", "properties": {"@spider": "usps_collection_boxes", "addr:city": "MOUNT IDA", "addr:country": "US", "addr:full": "140 HIGHWAY 270 W", "addr:postcode": "71957", "addr:state": "AR", "brand": "USPS", "collection_times": "Mo-Fr 16:15; Sa 11:30", "name": "USPS COLLECTION BOX - PO LOBBY", "note": "ON 12/24 AND 12/31, THIS BOX MAY BE COLLECTED AS EARLY AS 12 NOON.", "ref": "7195700008"}, "type": "Feature"}
{"geometry": {"coordinates": [-93.634029, 34.559085], "type": "Point"}, "id": "WOj3nstbA-q9mGSdMC9J2N_02k8=", "properties": {"@spider": "usps_collection_boxes", "addr:city": "MOUNT IDA", "addr:country": "US", "addr:full": "140 HIGHWAY 270 W", "addr:postcode": "71957", "addr:state": "AR", "brand": "USPS", "collection_times": "Mo-Fr 16:15; Sa 11:30", "name": "USPS COLLECTION BOX - PO LOBBY", "note": "ON 12/24 AND 12/31, THIS BOX MAY BE COLLECTED AS EARLY AS 12 NOON.", "ref": "7195700009"}, "type": "Feature"}
{"geometry": {"coordinates": [-93.634399035, 34.559294812], "type": "Point"}, "id": "3m1AyQ30f31g0SDf8bmd8VFfM-Y=", "properties": {"@spider": "usps_collection_boxes", "addr:city": "MOUNT IDA", "addr:country": "US", "addr:full": "140 HIGHWAY 270 W", "addr:postcode": "71957", "addr:state": "AR", "brand": "USPS", "collection_times": "Mo-Fr 16:00; Sa 11:00", "name": "USPS COLLECTION BOX - PO LOBBY", "note": "ON 12/24 AND 12/31, THIS BOX MAY BE COLLECTED AS EARLY AS 12 NOON.", "ref": "7195700010"}, "type": "Feature"}
{"geometry": {"coordinates": [-93.691383, 34.062258], "type": "Point"}, "id": "W-vqvAlJ2t1sgt06ULIi-A_3CIE=", "properties": {"@spider": "usps_collection_boxes", "addr:city": "MURFREESBORO", "addr:country": "US", "addr:full": "201 E MAIN", "addr:postcode": "71958", "addr:state": "AR", "brand": "USPS", "collection_times": "Mo-Fr 16:15; Sa 07:00", "name": "USPS COLLECTION BOX - PO LOBBY", "note": "ON 12/24 AND 12/31, THIS BOX MAY BE COLLECTED AS EARLY AS 12 NOON.", "ref": "7195800002"}, "type": "Feature"}
{"geometry": {"coordinates": [-93.691383, 34.062259], "type": "Point"}, "id": "XccPnhyKixbKynQwwe5mKj9mqYQ=", "properties": {"@spider": "usps_collection_boxes", "addr:city": "MURFREESBORO", "addr:country": "US", "addr:full": "201 E MAIN", "addr:postcode": "71958", "addr:state": "AR", "brand": "USPS", "collection_times": "Mo-Fr 16:15; Sa 07:00", "name": "USPS COLLECTION BOX - BLUE BOX", "note": "ON 12/24 AND 12/31, THIS BOX MAY BE COLLECTED AS EARLY AS 12 NOON.", "ref": "7195800003"}, "type": "Feature"}
{"geometry": {"coordinates": [-93.688982497, 34.06221246], "type": "Point"}, "id": "DrD-fZajPi2QXHxt0XGrchzOyN0=", "properties": {"@spider": "usps_collection_boxes", "addr:city": "MURFREESBORO", "addr:country": "US", "addr:full": "201 E MAIN", "addr:postcode": "71958", "addr:state": "AR", "brand": "USPS", "collection_times": "Mo-Fr 16:00", "name": "USPS COLLECTION BOX - PO LOBBY", "note": "ON 12/24 AND 12/31, THIS BOX MAY BE COLLECTED AS EARLY AS 12 NOON.", "ref": "7195800005"}, "type": "Feature"}
{"geometry": {"coordinates": [-93.8842690969, 34.2299175093], "type": "Point"}, "id": "-vJjDuStMuWw2lkDKwm3p5yFZu4=", "properties": {"@spider": "usps_collection_boxes", "addr:city": "NEWHOPE", "addr:country": "US", "addr:full": "5638 HIGHWAY 70 W", "addr:postcode": "71959", "addr:state": "AR", "brand": "USPS", "collection_times": "Mo-Fr 11:00; Sa 09:45", "name": "USPS COLLECTION BOX - BLUE BOX", "ref": "7195900001"}, "type": "Feature"}
{"geometry": {"coordinates": [-93.8842690969, 34.2299175093], "type": "Point"}, "id": "xqgiQEkNnEWhvM3LMvGUkIon8v8=", "properties": {"@spider": "usps_collection_boxes", "addr:city": "NEWHOPE", "addr:country": "US", "addr:full": "5638 HIGHWAY 70 W", "addr:postcode": "71959", "addr:state": "AR", "brand": "USPS", "collection_times": "Mo-Fr 11:00; Sa 09:45", "name": "USPS COLLECTION BOX - PO LOBBY", "ref": "7195900002"}, "type": "Feature"}
{"geometry": {"coordinates": [-93.884269097, 34.229917509], "type": "Point"}, "id": "IcmMQxg4fpvlTHgw0EVvbfPaYtk=", "properties": {"@spider": "usps_collection_boxes", "addr:city": "NEWHOPE", "addr:country": "US", "addr:full": "5638 HIGHWAY 70 W", "addr:postcode": "71959", "addr:state": "AR", "brand": "USPS", "collection_times": "Mo-Fr 11:00; Sa 09:45", "name": "USPS COLLECTION BOX - PO LOBBY", "ref": "7195900003"}, "type": "Feature"}
{"geometry": {"coordinates": [-93.8842690969, 34.2299175093], "type": "Point"}, "id": "31_-SM1Nim59bmd0rYN3Cb2VRCw=", "properties": {"@spider": "usps_collection_boxes", "addr:city": "NEWHOPE", "addr:country": "US", "addr:full": "5638 HIGHWAY 70 W", "addr:postcode": "71959", "addr:state": "AR", "brand": "USPS", "collection_times": "Mo-Fr 11:00; Sa 10:00", "name": "USPS COLLECTION BOX - PO LOBBY", "ref": "7195900004"}, "type": "Feature"}
{"geometry": {"coordinates": [-93.679247, 34.453997], "type": "Point"}, "id": "yfIONjTAPwAn1JB79t3Y3Y5Vnr8=", "properties": {"@spider": "usps_collection_boxes", "addr:city": "NORMAN", "addr:country": "US", "addr:full": "340 E MAIN ST", "addr:postcode": "71960", "addr:state": "AR", "brand": "USPS", "collection_times": "Mo-Fr 14:30; Sa 10:45", "name": "USPS COLLECTION BOX - BLUE BOX", "note": "ON 12/24 AND 12/31, THIS BOX MAY BE COLLECTED AS EARLY AS 12 NOON.", "ref": "7196000001"}, "type": "Feature"}
{"geometry": {"coordinates": [-93.679247, 34.453997], "type": "Point"}, "id": "Y-NzvZtv1wBcheNvY8HmQm77rC0=", "properties": {"@spider": "usps_collection_boxes", "addr:city": "NORMAN", "addr:country": "US", "addr:full": "340 E MAIN ST", "addr:postcode": "71960", "addr:state": "AR", "brand": "USPS", "collection_times": "Mo-Fr 14:30; Sa 10:45", "name": "USPS COLLECTION BOX - PO LOBBY", "note": "ON 12/24 AND 12/31, THIS BOX MAY BE COLLECTED AS EARLY AS 12 NOON.", "ref": "7196000002"}, "type": "Feature"}
{"geometry": {"coordinates": [-93.679247, 34.453997], "type": "Point"}, "id": "jj4z_FBATCLmlC-AVRVUMzia_EA=", "properties": {"@spider": "usps_collection_boxes", "addr:city": "NORMAN", "addr:country": "US", "addr:full": "340 E MAIN ST", "addr:postcode": "71960", "addr:state": "AR", "brand": "USPS", "collection_times": "Mo-Fr 14:30; Sa 10:45", "name": "USPS COLLECTION BOX - PO LOBBY", "note": "ON 12/24 AND 12/31, THIS BOX MAY BE COLLECTED AS EARLY AS 12 NOON.", "ref": "7196000004"}, "type": "Feature"}
{"geometry": {"coordinates": [-93.679278456, 34.454044675], "type": "Point"}, "id": "RnTYQWKiPU3qhgCfP8m9JbShcsM=", "properties": {"@spider": "usps_collection_boxes", "addr:city": "NORMAN", "addr:country": "US", "addr:full": "340 E MAIN ST", "addr:postcode": "71960", "addr:state": "AR", "brand": "USPS", "collection_times": "Mo-Fr 14:30; Sa 11:00", "name": "USPS COLLECTION BOX - PO LOBBY", "note": "ON 12/24 AND 12/31, THIS BOX MAY BE COLLECTED AS EARLY AS 12 NOON.", "ref": "7196000006"}, "type": "Feature"}
{"geometry": {"coordinates": [-93.780707, 34.619669], "type": "Point"}, "id": "YYh1UeAVAW2ItYQE9wJujcKoLI0=", "properties": {"@spider": "usps_collection_boxes", "addr:city": "ODEN", "addr:country": "US", "addr:full": "1093 W HIGHWAY 88", "addr:postcode": "71961", "addr:state": "AR", "brand": "USPS", "collection_times": "Mo-Fr 11:30; Sa 11:45", "name": "USPS COLLECTION BOX - BLUE BOX", "ref": "7196100007"}, "type": "Feature"}
{"geometry": {"coordinates": [-93.780707, 34.619669], "type": "Point"}, "id": "-0ks30XR9sct7Y7FpWrWOTSdHdk=", "properties": {"@spider": "usps_collection_boxes", "addr:city": "ODEN", "addr:country": "US", "addr:full": "1093 W HIGHWAY 88", "addr:postcode": "71961", "addr:state": "AR", "brand": "USPS", "collection_times": "Mo-Fr 11:30; Sa 11:45", "name": "USPS COLLECTION BOX - PO LOBBY", "ref": "7196100008"}, "type": "Feature"}
{"geometry": {"coordinates": [-93.780707, 34.619669], "type": "Point"}, "id": "vr-ZfyXMQcAs1-bkkK8ZfZX9bxo=", "properties": {"@spider": "usps_collection_boxes", "addr:city": "ODEN", "addr:country": "US", "addr:full": "1093 W HIGHWAY 88", "addr:postcode": "71961", "addr:state": "AR", "brand": "USPS", "collection_times": "Mo-Fr 11:30; Sa 11:45", "name": "USPS COLLECTION BOX - PO LOBBY", "ref": "7196100009"}, "type": "Feature"}
{"geometry": {"coordinates": [-93.77750428, 34.619024287], "type": "Point"}, "id": "GSw1neH9lFh0D4ZbKiU9CS8BQ9I=", "properties": {"@spider": "usps_collection_boxes", "addr:city": "ODEN", "addr:country": "US", "addr:full": "1093 W HIGHWAY 88", "addr:postcode": "71961", "addr:state": "AR", "brand": "USPS", "collection_times": "Mo-Fr 12:00; Sa 11:30", "name": "USPS COLLECTION BOX - PO LOBBY", "ref": "7196100010"}, "type": "Feature"}
{"geometry": {"coordinates": [-93.266047, 34.433526], "type": "Point"}, "id": "ZyZkW0OSw8zv_Jtjk8DNVl8Bi-M=", "properties": {"@spider": "usps_collection_boxes", "addr:city": "PEARCY", "addr:country": "US", "addr:full": "5106 AIRPORT RD", "addr:postcode": "71964", "addr:state": "AR", "brand": "USPS", "collection_times": "Mo-Fr 13:00; Sa 10:00", "name": "USPS COLLECTION BOX - BLUE BOX", "note": "ON 12/24 AND 12/31, THIS BOX MAY BE COLLECTED AS EARLY AS 12 NOON.", "ref": "7196400001"}, "type": "Feature"}
{"geometry": {"coordinates": [-93.266047, 34.433526], "type": "Point"}, "id": "U6vFmyvWNfH7azUJ05u95gHVIQo=", "properties": {"@spider": "usps_collection_boxes", "addr:city": "PEARCY", "addr:country": "US", "addr:full": "5106 AIRPORT RD", "addr:postcode": "71964", "addr:state": "AR", "brand": "USPS", "collection_times": "Mo-Fr 13:00; Sa 10:00", "name": "USPS COLLECTION BOX - PO LOBBY", "note": "ON 12/24 AND 12/31, THIS BOX MAY BE COLLECTED AS EARLY AS 12 NOON.", "ref": "7196400002"}, "type": "Feature"}
{"geometry": {"coordinates": [-93.266047, 34.433526], "type": "Point"}, "id": "5Hs0gG3_4IlljTXxtPrqiyhK6AI=", "properties": {"@spider": "usps_collection_boxes", "addr:city": "PEARCY", "addr:country": "US", "addr:full": "5106 AIRPORT RD", "addr:postcode": "71964", "addr:state": "AR", "brand": "USPS", "collection_times": "Mo-Fr 13:00; Sa 10:00", "name": "USPS COLLECTION BOX - PO LOBBY", "note": "ON 12/24 AND 12/31, THIS BOX MAY BE COLLECTED AS EARLY AS 12 NOON.", "ref": "7196400003"}, "type": "Feature"}
{"geometry": {"coordinates": [-93.265879064, 34.433559071], "type": "Point"}, "id": "TxYIIJx6UbEpN_gTJTQDup2oHPQ=", "properties": {"@spider": "usps_collection_boxes", "addr:city": "PEARCY", "addr:country": "US", "addr:full": "5106 AIRPORT RD", "addr:postcode": "71964", "addr:state": "AR", "brand": "USPS", "collection_times": "Mo-Fr 13:30; Sa 10:00", "name": "USPS COLLECTION BOX - PO LOBBY", "note": "ON 12/24 AND 12/31, THIS BOX MAY BE COLLECTED AS EARLY AS 12 NOON.", "ref": "7196400007"}, "type": "Feature"}
{"geometry": {"coordinates": [-93.733272, 34.629489], "type": "Point"}, "id": "rJa_gwwkQa09PqLxCitPN4PJZ_o=", "properties": {"@spider": "usps_collection_boxes", "addr:city": "PENCIL BLUFF", "addr:country": "US", "addr:full": "3672 W HIGHWAY 270", "addr:postcode": "71965", "addr:state": "AR", "brand": "USPS", "collection_times": "Mo-Fr 11:30; Sa 11:00", "name": "USPS COLLECTION BOX - BLUE BOX", "ref": "7196500000"}, "type": "Feature"}
{"geometry": {"coordinates": [-93.733317, 34.629112], "type": "Point"}, "id": "HUXnYtpm7uPO2hgnZJh_0n3DcB0=", "properties": {"@spider": "usps_collection_boxes", "addr:city": "PENCIL BLUFF", "addr:country": "US", "addr:full": "3672 W HIGHWAY 270", "addr:postcode": "71965", "addr:state": "AR", "brand": "USPS", "collection_times": "Mo-Fr 11:30; Sa 11:00", "name": "USPS COLLECTION BOX - PO LOBBY", "ref": "7196500001"}, "type": "Feature"}
{"geometry": {"coordinates": [-93.733317, 34.629112], "type": "Point"}, "id": "KqgtU94xAbFKDLF_dBEVEx8ysU0=", "properties": {"@spider": "usps_collection_boxes", "addr:city": "PENCIL BLUFF", "addr:country": "US", "addr:full": "3672 W HIGHWAY 270", "addr:postcode": "71965", "addr:state": "AR", "brand": "USPS", "collection_times": "Mo-Fr 11:30; Sa 11:00", "name": "USPS COLLECTION BOX - PO LOBBY", "ref": "7196500002"}, "type": "Feature"}
{"geometry": {"coordinates": [-93.733530016, 34.629365126], "type": "Point"}, "id": "fEdBMCM6gVuYzr45MQ18nLcdtr0=", "properties": {"@spider": "usps_collection_boxes", "addr:city": "PENCIL BLUFF", "addr:country": "US", "addr:full": "3672 W HIGHWAY 270", "addr:postcode": "71965", "addr:state": "AR", "brand": "USPS", "collection_times": "Mo-Fr 12:00; Sa 11:15", "name": "USPS COLLECTION BOX - PO LOBBY", "ref": "7196500003"}, "type": "Feature"}
{"geometry": {"coordinates": [-93.244568, 34.511417], "type": "Point"}, "id": "W6I1kWZ0yv4au0flK06R0gBbSC8=", "properties": {"@spider": "usps_collection_boxes", "addr:city": "ROYAL", "addr:country": "US", "addr:full": "6951 ALBERT PIKE RD", "addr:postcode": "71968", "addr:state": "AR", "brand": "USPS", "collection_times": "Mo-Fr 15:30; Sa 09:30", "name": "USPS COLLECTION BOX - PO LOBBY", "note": "ON 12/24 AND 12/31, THIS BOX MAY BE COLLECTED AS EARLY AS 12 NOON.", "ref": "7196800001"}, "type": "Feature"}
{"geometry": {"coordinates": [-93.244568, 34.511417], "type": "Point"}, "id": "wycDn-AYpGE2yQLYhA9Jx2kEUOI=", "properties": {"@spider": "usps_collection_boxes", "addr:city": "ROYAL", "addr:country": "US", "addr:full": "6951 ALBERT PIKE RD", "addr:postcode": "71968", "addr:state": "AR", "brand": "USPS", "collection_times": "Mo-Fr 15:30; Sa 09:30", "name": "USPS COLLECTION BOX - BLUE BOX", "note": "ON 12/24 AND 12/31, THIS BOX MAY BE COLLECTED AS EARLY AS 12 NOON.", "ref": "7196800002"}, "type": "Feature"}
{"geometry": {"coordinates": [-93.244584268, 34.511370581], "type": "Point"}, "id": "5PCkYelnpcDIMI2rMlKDQjM-Kw8=", "properties": {"@spider": "usps_collection_boxes", "addr:city": "ROYAL", "addr:country": "US", "addr:full": "6951 ALBERT PIKE RD", "addr:postcode": "71968", "addr:state": "AR", "brand": "USPS", "collection_times": "Mo-Fr 16:00; Sa 10:00", "name": "USPS COLLECTION BOX - PO LOBBY", "note": "ON 12/24 AND 12/31, THIS BOX MAY BE COLLECTED AS EARLY AS 12 NOON.", "ref": "7196800003"}, "type": "Feature"}
{"geometry": {"coordinates": [-93.690714, 34.655265], "type": "Point"}, "id": "fmTxKA4yU_XGwP4zswCuMfvQ1u0=", "properties": {"@spider": "usps_collection_boxes", "addr:city": "SIMS", "addr:country": "US", "addr:full": "1465 HIGHWAY 298 W", "addr:postcode": "71969", "addr:state": "AR", "brand": "USPS", "collection_times": "Mo-Fr 15:00; Sa 11:00", "name": "USPS COLLECTION BOX - BLUE BOX", "note": "ON 12/24 AND 12/31, THIS BOX MAY BE COLLECTED AS EARLY AS 12 NOON.", "ref": "7196900001"}, "type": "Feature"}
{"geometry": {"coordinates": [-93.690714, 34.655265], "type": "Point"}, "id": "cnpDTv3tinjQ0ygAo9HDqFoZ7sk=", "properties": {"@spider": "usps_collection_boxes", "addr:city": "SIMS", "addr:country": "US", "addr:full": "1465 HIGHWAY 298 W", "addr:postcode": "71969", "addr:state": "AR", "brand": "USPS", "collection_times": "Mo-Fr 15:00; Sa 11:00", "name": "USPS COLLECTION BOX - PO LOBBY", "note": "ON 12/24 AND 12/31, THIS BOX MAY BE COLLECTED AS EARLY AS 12 NOON.", "ref": "7196900002"}, "type": "Feature"}
{"geometry": {"coordinates": [-93.690805715, 34.65577838], "type": "Point"}, "id": "KfDSUZqwjkhj-k_3k2X8A0GcNvg=", "properties": {"@spider": "usps_collection_boxes", "addr:city": "SIMS", "addr:country": "US", "addr:full": "1465 HIGHWAY 298 W", "addr:postcode": "71969", "addr:state": "AR", "brand": "USPS", "collection_times": "Mo-Fr 15:15; Sa 11:30", "name": "USPS COLLECTION BOX - PO LOBBY", "note": "ON 12/24 AND 12/31, THIS BOX MAY BE COLLECTED AS EARLY AS 12 NOON.", "ref": "7196900003"}, "type": "Feature"}
{"geometry": {"coordinates": [-93.517737, 34.693536], "type": "Point"}, "id": "zf4jjwfV2y_5Dx1vdP0x7xL-LCc=", "properties": {"@spider": "usps_collection_boxes", "addr:city": "STORY", "addr:country": "US", "addr:full": "5311 HIGHWAY 27 N", "addr:postcode": "71970", "addr:state": "AR", "brand": "USPS", "collection_times": "Mo-Fr 11:30; Sa 12:00", "name": "USPS COLLECTION BOX - BLUE BOX", "ref": "7197000000"}, "type": "Feature"}
{"geometry": {"coordinates": [-93.517737, 34.693536], "type": "Point"}, "id": "P0sDPM3Ggtgk8kypgBl0EO585Po=", "properties": {"@spider": "usps_collection_boxes", "addr:city": "STORY", "addr:country": "US", "addr:full": "5311 HIGHWAY 27 N", "addr:postcode": "71970", "addr:state": "AR", "brand": "USPS", "collection_times": "Mo-Fr 11:30; Sa 12:00", "name": "USPS COLLECTION BOX - PO LOBBY", "ref": "7197000001"}, "type": "Feature"}
{"geometry": {"coordinates": [-93.517737, 34.693536], "type": "Point"}, "id": "Cu8ziZ6E3D0tWiSDe29R9hX1O_Q=", "properties": {"@spider": "usps_collection_boxes", "addr:city": "STORY", "addr:country": "US", "addr:full": "5311 HIGHWAY 27 N", "addr:postcode": "71970", "addr:state": "AR", "brand": "USPS", "collection_times": "Mo-Fr 11:30; Sa 12:00", "name": "USPS COLLECTION BOX - PO LOBBY", "ref": "7197000002"}, "type": "Feature"}
{"geometry": {"coordinates": [-93.517710327, 34.693586968], "type": "Point"}, "id": "M3ixNOuD_Qf8mRZwPb18CRmxLDw=", "properties": {"@spider": "usps_collection_boxes", "addr:city": "STORY", "addr:country": "US", "addr:full": "5311 HIGHWAY 27 N", "addr:postcode": "71970", "addr:state": "AR", "brand": "USPS", "collection_times": "Mo-Fr 12:00; Sa 12:30", "name": "USPS COLLECTION BOX - PO LOBBY", "note": "ON 12/24 AND 12/31, THIS BOX MAY BE COLLECTED AS EARLY AS 12 NOON.", "ref": "7197000003"}, "type": "Feature"}
{"geometry": {"coordinates": [-94.047599789, 34.280857793], "type": "Point"}, "id": "QsnDOhjqnvWAYWvcsSqZcMpbiqY=", "properties": {"@spider": "usps_collection_boxes", "addr:city": "UMPIRE", "addr:country": "US", "addr:full": "142 HIGHWAY 84 E", "addr:postcode": "71971", "addr:state": "AR", "brand": "USPS", "collection_times": "Mo-Sa 13:30", "name": "USPS COLLECTION BOX - PO LOBBY", "note": "ON 12/24 AND 12/31, THIS BOX MAY BE COLLECTED AS EARLY AS 12 NOON.", "ref": "7197100001"}, "type": "Feature"}
{"geometry": {"coordinates": [-94.047599789, 34.280857793], "type": "Point"}, "id": "p0nbFbjXwv6FU-uZyJGlHrdNWsA=", "properties": {"@spider": "usps_collection_boxes", "addr:city": "UMPIRE", "addr:country": "US", "addr:full": "142 HIGHWAY 84 E", "addr:postcode": "71971", "addr:state": "AR", "brand": "USPS", "collection_times": "Mo-Sa 13:30", "name": "USPS COLLECTION BOX - BLUE BOX", "note": "ON 12/24 AND 12/31, THIS BOX MAY BE COLLECTED AS EARLY AS 12 NOON.", "ref": "7197100002"}, "type": "Feature"}
{"geometry": {"coordinates": [-94.047599789, 34.280857793], "type": "Point"}, "id": "lmmvtcKSdddymY4nuykV6UTX9-E=", "properties": {"@spider": "usps_collection_boxes", "addr:city": "UMPIRE", "addr:country": "US", "addr:full": "142 HIGHWAY 84 E", "addr:postcode": "71971", "addr:state": "AR", "brand": "USPS", "collection_times": "Mo-Fr 14:00; Sa 13:30", "name": "USPS COLLECTION BOX - PO LOBBY", "note": "ON 12/24 AND 12/31, THIS BOX MAY BE COLLECTED AS EARLY AS 12 NOON.", "ref": "7197100003"}, "type": "Feature"}
{"geometry": {"coordinates": [-94.364592, 34.381351], "type": "Point"}, "id": "iBSsWJ_QMVMHttgSzt2wN0XP8AE=", "properties": {"@spider": "usps_collection_boxes", "addr:city": "VANDERVOORT", "addr:country": "US", "addr:full": "107 N HORNBECK AVE", "addr:postcode": "71972", "addr:state": "AR", "brand": "USPS", "collection_times": "Mo-Fr 11:30; Sa 10:45", "name": "USPS COLLECTION BOX - PO LOBBY", "ref": "7197200002"}, "type": "Feature"}
{"geometry": {"coordinates": [-94.364592, 34.381351], "type": "Point"}, "id": "ini2mbUUTIySLzcRN-eEPNewaxQ=", "properties": {"@spider": "usps_collection_boxes", "addr:city": "VANDERVOORT", "addr:country": "US", "addr:full": "107 N HORNBECK AVE", "addr:postcode": "71972", "addr:state": "AR", "brand": "USPS", "collection_times": "Mo-Fr 11:30; Sa 10:45", "name": "USPS COLLECTION BOX - PO LOBBY", "ref": "7197200003"}, "type": "Feature"}
{"geometry": {"coordinates": [-94.364591897, 34.381345473], "type": "Point"}, "id": "Anq-syKJpaEDbwHGg1qes5HkAFg=", "properties": {"@spider": "usps_collection_boxes", "addr:city": "VANDERVOORT", "addr:country": "US", "addr:full": "107 N HORNBECK AVE", "addr:postcode": "71972", "addr:state": "AR", "brand": "USPS", "collection_times": "Mo-Fr 12:00; Sa 11:00", "name": "USPS COLLECTION BOX - PO LOBBY", "ref": "7197200004"}, "type": "Feature"}
{"geometry": {"coordinates": [-94.340727, 34.305739], "type": "Point"}, "id": "U-ywCpM85Kxo170nnDCUYXcb2IM=", "properties": {"@spider": "usps_collection_boxes", "addr:city": "WICKES", "addr:country": "US", "addr:full": "7631 HIGHWAY 71 S", "addr:postcode": "71973", "addr:state": "AR", "brand": "USPS", "collection_times": "Mo-Fr 14:30; Sa 11:30", "name": "USPS COLLECTION BOX - BLUE BOX", "note": "ON 12/24 AND 12/31, THIS BOX MAY BE COLLECTED AS EARLY AS 12 NOON.", "ref": "7197300001"}, "type": "Feature"}
{"geometry": {"coordinates": [-94.3407275814, 34.3057406306], "type": "Point"}, "id": "ZEeHf5ary94rANa_6sRWRKmVyII=", "properties": {"@spider": "usps_collection_boxes", "addr:city": "WICKES", "addr:country": "US", "addr:full": "7631 HIGHWAY 71 S", "addr:postcode": "71973", "addr:state": "AR", "brand": "USPS", "collection_times": "Mo-Fr 14:30; Sa 11:30", "name": "USPS COLLECTION BOX - PO LOBBY", "note": "ON 12/24 AND 12/31, THIS BOX MAY BE COLLECTED AS EARLY AS 12 NOON.", "ref": "7197300002"}, "type": "Feature"}
{"geometry": {"coordinates": [-94.340727, 34.305739], "type": "Point"}, "id": "cm0cqi0AMDm6u8eeIcPRXMR1srM=", "properties": {"@spider": "usps_collection_boxes", "addr:city": "WICKES", "addr:country": "US", "addr:full": "7631 HIGHWAY 71 S", "addr:postcode": "71973", "addr:state": "AR", "brand": "USPS", "collection_times": "Mo-Fr 14:30; Sa 11:30", "name": "USPS COLLECTION BOX - PO LOBBY", "note": "ON 12/24 AND 12/31, THIS BOX MAY BE COLLECTED AS EARLY AS 12 NOON.", "ref": "7197300003"}, "type": "Feature"}
{"geometry": {"coordinates": [-94.340717607, 34.305731714], "type": "Point"}, "id": "kxjF9zY642fCdjVI07weJEX1TW4=", "properties": {"@spider": "usps_collection_boxes", "addr:city": "WICKES", "addr:country": "US", "addr:full": "7631 HIGHWAY 71 S", "addr:postcode": "71973", "addr:state": "AR", "brand": "USPS", "collection_times": "Mo-Fr 14:30; Sa 11:00", "name": "USPS COLLECTION BOX - PO LOBBY", "note": "ON 12/24 AND 12/31, THIS BOX MAY BE COLLECTED AS EARLY AS 12 NOON.", "ref": "7197300005"}, "type": "Feature"}
