{"geometry": {"coordinates": [-91.199858, 35.257478], "type": "Point"}, "id": "9nfJNIAEL3Hjjum1mrcBqJgdj4I=", "properties": {"@spider": "usps_collection_boxes", "addr:city": "MCCRORY", "addr:country": "US", "addr:full": "203 N EDMONDS AVE", "addr:postcode": "72101", "addr:state": "AR", "brand": "USPS", "brand:wikidata": "Q668687", "collection_times": "Mo-Fr 16:30; Sa 12:30", "name": "USPS COLLECTION BOX - BLUE BOX", "note": "ON 12/24 AND 12/31, THIS BOX MAY BE COLLECTED AS EARLY AS 12 NOON.", "ref": "7210100001"}, "type": "Feature"}
{"geometry": {"coordinates": [-91.199858, 35.257478], "type": "Point"}, "id": "ONUCErzv9ZSSfqwM3Tl4PlDgr1M=", "properties": {"@spider": "usps_collection_boxes", "addr:city": "MCCRORY", "addr:country": "US", "addr:full": "203 N EDMONDS AVE", "addr:postcode": "72101", "addr:state": "AR", "brand": "USPS", "brand:wikidata": "Q668687", "collection_times": "Mo-Fr 16:30; Sa 12:30", "name": "USPS COLLECTION BOX - PO LOBBY", "note": "ON 12/24 AND 12/31, THIS BOX MAY BE COLLECTED AS EARLY AS 12 NOON.", "ref": "7210100002"}, "type": "Feature"}
{"geometry": {"coordinates": [-91.199858, 35.257478], "type": "Point"}, "id": "Ma88ixEKFTpkgyBssgjpIb01ol0=", "properties": {"@spider": "usps_collection_boxes", "addr:city": "MCCRORY", "addr:country": "US", "addr:full": "203 N EDMONDS AVE", "addr:postcode": "72101", "addr:state": "AR", "brand": "USPS", "brand:wikidata": "Q668687", "collection_times": "Mo-Fr 16:30; Sa 12:30", "name": "USPS COLLECTION BOX - PO LOBBY", "note": "ON 12/24 AND 12/31, THIS BOX MAY BE COLLECTED AS EARLY AS 12 NOON.", "ref": "7210100003"}, "type": "Feature"}
{"geometry": {"coordinates": [-91.199858, 35.257478], "type": "Point"}, "id": "sp7cyNu7qIjaV7fi15A4ILqSE3E=", "properties": {"@spider": "usps_collection_boxes", "addr:city": "MCCRORY", "addr:country": "US", "addr:full": "203 N EDMONDS AVE", "addr:postcode": "72101", "addr:state": "AR", "brand": "USPS", "brand:wikidata": "Q668687", "collection_times": "Mo-Fr 16:30; Sa 12:30", "name": "USPS COLLECTION BOX - PO LOBBY", "note": "ON 12/24 AND 12/31, THIS BOX MAY BE COLLECTED AS EARLY AS 12 NOON.", "ref": "7210100004"}, "type": "Feature"}
{"geometry": {"coordinates": [-91.199858, 35.257478], "type": "Point"}, "id": "jYZUFsyqBM9qiwrzPCW6ThmuX7c=", "properties": {"@spider": "usps_collection_boxes", "addr:city": "MCCRORY", "addr:country": "US", "addr:full": "203 N EDMONDS AVE", "addr:postcode": "72101", "addr:state": "AR", "brand": "USPS", "brand:wikidata": "Q668687", "collection_times": "Mo-Fr 16:30; Sa 12:30", "name": "USPS COLLECTION BOX - PO LOBBY", "note": "ON 12/24 AND 12/31, THIS BOX MAY BE COLLECTED AS EARLY AS 12 NOON.", "ref": "7210100005"}, "type": "Feature"}
{"geometry": {"coordinates": [-91.199847903, 35.257472078], "type": "Point"}, "id": "AYgsSg8RFLfEVdSpIcoOJdjampg=", "properties": {"@spider": "usps_collection_boxes", "addr:city": "MCCRORY", "addr:country": "US", "addr:full": "203 N EDMONDS AVE", "addr:postcode": "72101", "addr:state": "AR", "brand": "USPS", "brand:wikidata": "Q668687", "collection_times": "Mo-Fr 16:30; Sa 12:00", "name": "USPS COLLECTION BOX - PO LOBBY", "note": "ON 12/24 AND 12/31, THIS BOX MAY BE COLLECTED AS EARLY AS 12 NOON.", "ref": "7210100006"}, "type": "Feature"}
{"geometry": {"coordinates": [-91.82046, 35.114337], "type": "Point"}, "id": "K3_RsTcD5zK5gsrW-933zMj12G4=", "properties": {"@spider": "usps_collection_boxes", "addr:city": "MCRAE", "addr:country": "US", "addr:full": "105 1ST ST", "addr:postcode": "72102", "addr:state": "AR", "brand": "USPS", "brand:wikidata": "Q668687", "collection_times": "Mo-Fr 15:00; Sa 09:00", "name": "USPS COLLECTION BOX - BLUE BOX", "note": "ON 12/24 AND 12/31, THIS BOX MAY BE COLLECTED AS EARLY AS 12 NOON.", "ref": "7210200002"}, "type": "Feature"}
{"geometry": {"coordinates": [-91.82046, 35.114337], "type": "Point"}, "id": "fXe5YkPFGxbiRkI_evUNZV4y8mI=", "properties": {"@spider": "usps_collection_boxes", "addr:city": "MCRAE", "addr:country": "US", "addr:full": "105 1ST ST", "addr:postcode": "72102", "addr:state": "AR", "brand": "USPS", "brand:wikidata": "Q668687", "collection_times": "Mo-Fr 15:00; Sa 09:00", "name": "USPS COLLECTION BOX - PO LOBBY", "note": "ON 12/24 AND 12/31, THIS BOX MAY BE COLLECTED AS EARLY AS 12 NOON.", "ref": "7210200003"}, "type": "Feature"}
{"geometry": {"coordinates": [-91.82046, 35.114337], "type": "Point"}, "id": "jdLvcn0XEQfYbqXUdrg-gjllae4=", "properties": {"@spider": "usps_collection_boxes", "addr:city": "MCRAE", "addr:country": "US", "addr:full": "105 1ST ST", "addr:postcode": "72102", "addr:state": "AR", "brand": "USPS", "brand:wikidata": "Q668687", "collection_times": "Mo-Fr 15:00; Sa 09:00", "name": "USPS COLLECTION BOX - PO LOBBY", "note": "ON 12/24 AND 12/31, THIS BOX MAY BE COLLECTED AS EARLY AS 12 NOON.", "ref": "7210200004"}, "type": "Feature"}
{"geometry": {"coordinates": [-91.820421763, 35.114334012], "type": "Point"}, "id": "0LYgRLMQ-h-k6XNH7Ngbkj-RIRg=", "properties": {"@spider": "usps_collection_boxes", "addr:city": "MCRAE", "addr:country": "US", "addr:full": "105 1ST ST", "addr:postcode": "72102", "addr:state": "AR", "brand": "USPS", "brand:wikidata": "Q668687", "collection_times": "Mo-Fr 15:00; Sa 10:30", "name": "USPS COLLECTION BOX - PO LOBBY", "note": "ON 12/24 AND 12/31, THIS BOX MAY BE COLLECTED AS EARLY AS 12 NOON.", "ref": "7210200008"}, "type": "Feature"}
{"geometry": {"coordinates": [-92.397135, 34.655197], "type": "Point"}, "id": "mSYo5W1euRca_Af6GUGw9aXYz1g=", "properties": {"@spider": "usps_collection_boxes", "addr:city": "MABELVALE", "addr:country": "US", "addr:full": "10715 MABELVALE WEST RD", "addr:postcode": "72103", "addr:state": "AR", "brand": "USPS", "brand:wikidata": "Q668687", "collection_times": "Mo-Fr 16:30; Sa 15:00", "name": "USPS COLLECTION BOX - PO LOBBY", "note": "ON 12/24 AND 12/31, THIS BOX MAY BE COLLECTED AS EARLY AS 12 NOON.", "ref": "7210300001"}, "type": "Feature"}
{"geometry": {"coordinates": [-92.397135, 34.655197], "type": "Point"}, "id": "EdL4BYn5FDbmTffRjZb-oPEJkWM=", "properties": {"@spider": "usps_collection_boxes", "addr:city": "MABELVALE", "addr:country": "US", "addr:full": "10715 MABELVALE WEST RD", "addr:postcode": "72103", "addr:state": "AR", "brand": "USPS", "brand:wikidata": "Q668687", "collection_times": "Mo-Fr 16:30; Sa 15:00", "name": "USPS COLLECTION BOX - PO LOBBY", "note": "ON 12/24 AND 12/31, THIS BOX MAY BE COLLECTED AS EARLY AS 12 NOON.", "ref": "7210300005"}, "type": "Feature"}
{"geometry": {"coordinates": [-92.397112554, 34.6555465173], "type": "Point"}, "id": "erOgB4OS8Sg0JVc16fdZ3jvr0fE=", "properties": {"@spider": "usps_collection_boxes", "addr:city": "MABELVALE", "addr:country": "US", "addr:full": "10715 MABELVALE WEST RD", "addr:postcode": "72103", "addr:state": "AR", "brand": "USPS", "brand:wikidata": "Q668687", "collection_times": "Mo-Fr 16:30; Sa 15:00", "name": "USPS COLLECTION BOX - BLUE BOX", "note": "ON 12/24 AND 12/31, THIS BOX MAY BE COLLECTED AS EARLY AS 12 NOON.", "ref": "7210300006"}, "type": "Feature"}
{"geometry": {"coordinates": [-92.397122277, 34.655546517], "type": "Point"}, "id": "VDcoE0xDH7MCRtSTfABAkDw6O5I=", "properties": {"@spider": "usps_collection_boxes", "addr:city": "MABELVALE", "addr:country": "US", "addr:full": "10715 MABELVALE WEST RD", "addr:postcode": "72103", "addr:state": "AR", "brand": "USPS", "brand:wikidata": "Q668687", "collection_times": "Mo-Fr 16:30; Sa 12:00", "name": "USPS COLLECTION BOX - PO LOBBY", "note": "ON 12/24 AND 12/31, THIS BOX MAY BE COLLECTED AS EARLY AS 12 NOON.", "ref": "7210300007"}, "type": "Feature"}
{"geometry": {"coordinates": [-92.8144619, 34.36238], "type": "Point"}, "id": "REqjwTwjtaXYP1J07eYy37petWA=", "properties": {"@spider": "usps_collection_boxes", "addr:city": "MALVERN", "addr:country": "US", "addr:full": "213 W 3RD ST", "addr:postcode": "72104", "addr:state": "AR", "brand": "USPS", "brand:wikidata": "Q668687", "collection_times": "Mo-Sa 11:00", "name": "USPS COLLECTION BOX - BLUE BOX", "ref": "7210400004"}, "type": "Feature"}
{"geometry": {"coordinates": [-92.7863113, 34.358886], "type": "Point"}, "id": "LdcMnR39y2q3UY6oXP1OKq0q_vI=", "properties": {"@spider": "usps_collection_boxes", "addr:city": "MALVERN", "addr:country": "US", "addr:full": "1001 SCHNEIDER DR", "addr:postcode": "72104", "addr:state": "AR", "brand": "USPS", "brand:wikidata": "Q668687", "collection_times": "Mo-Sa 11:30", "name": "USPS COLLECTION BOX - BLUE BOX", "ref": "7210400005"}, "type": "Feature"}
{"geometry": {"coordinates": [-92.825378, 34.374744], "type": "Point"}, "id": "R1HbARMYDDRtV7r0z7-ONvoApSU=", "properties": {"@spider": "usps_collection_boxes", "addr:city": "MALVERN", "addr:country": "US", "addr:full": "715 MARTIN LUTHER KING BLVD", "addr:postcode": "72104", "addr:state": "AR", "brand": "USPS", "brand:wikidata": "Q668687", "collection_times": "Mo-Sa 16:45", "name": "USPS COLLECTION BOX - PO LOBBY", "note": "ON 12/24 AND 12/31, THIS BOX MAY BE COLLECTED AS EARLY AS 12 NOON.", "ref": "7210400023"}, "type": "Feature"}
{"geometry": {"coordinates": [-92.825378, 34.374744], "type": "Point"}, "id": "73FHeHDEy0jnoeRcz284iyap38Q=", "properties": {"@spider": "usps_collection_boxes", "addr:city": "MALVERN", "addr:country": "US", "addr:full": "715 MARTIN LUTHER KING BLVD", "addr:postcode": "72104", "addr:state": "AR", "brand": "USPS", "brand:wikidata": "Q668687", "collection_times": "Mo-Sa 16:45", "name": "USPS COLLECTION BOX - BLUE BOX", "note": "ON 12/24 AND 12/31, THIS BOX MAY BE COLLECTED AS EARLY AS 12 NOON.", "ref": "7210400024"}, "type": "Feature"}
{"geometry": {"coordinates": [-92.825378, 34.374744], "type": "Point"}, "id": "I44f8K87HvgGNVUZOPbusKjHPHc=", "properties": {"@spider": "usps_collection_boxes", "addr:city": "MALVERN", "addr:country": "US", "addr:full": "715 MARTIN LUTHER KING BLVD", "addr:postcode": "72104", "addr:state": "AR", "brand": "USPS", "brand:wikidata": "Q668687", "collection_times": "Mo-Sa 16:45", "name": "USPS COLLECTION BOX - PO LOBBY", "note": "ON 12/24 AND 12/31, THIS BOX MAY BE COLLECTED AS EARLY AS 12 NOON.", "ref": "7210400027"}, "type": "Feature"}
{"geometry": {"coordinates": [-92.825378, 34.374744], "type": "Point"}, "id": "k-LtjA9B_0nBOVTibUq0ksBuL2o=", "properties": {"@spider": "usps_collection_boxes", "addr:city": "MALVERN", "addr:country": "US", "addr:full": "715 MARTIN LUTHER KING BLVD", "addr:postcode": "72104", "addr:state": "AR", "brand": "USPS", "brand:wikidata": "Q668687", "collection_times": "Mo-Sa 16:45", "name": "USPS COLLECTION BOX - PO LOBBY", "note": "ON 12/24 AND 12/31, THIS BOX MAY BE COLLECTED AS EARLY AS 12 NOON.", "ref": "7210400028"}, "type": "Feature"}
{"geometry": {"coordinates": [-92.825378, 34.374744], "type": "Point"}, "id": "5lwFYDVjCyXEprDFKB37XaMj4bw=", "properties": {"@spider": "usps_collection_boxes", "addr:city": "MALVERN", "addr:country": "US", "addr:full": "715 MARTIN LUTHER KING BLVD", "addr:postcode": "72104", "addr:state": "AR", "brand": "USPS", "brand:wikidata": "Q668687", "collection_times": "Mo-Sa 16:45", "name": "USPS COLLECTION BOX - BLUE BOX", "note": "ON 12/24 AND 12/31, THIS BOX MAY BE COLLECTED AS EARLY AS 12 NOON.", "ref": "7210400030"}, "type": "Feature"}
{"geometry": {"coordinates": [-92.825237324, 34.374503532], "type": "Point"}, "id": "fw4fbXbwUd_oFs-lmrjSfJ1Br9E=", "properties": {"@spider": "usps_collection_boxes", "addr:city": "MALVERN", "addr:country": "US", "addr:full": "715 MARTIN LUTHER KING BLVD", "addr:postcode": "72104", "addr:state": "AR", "brand": "USPS", "brand:wikidata": "Q668687", "collection_times": "Mo-Fr 16:00; Sa 11:00", "name": "USPS COLLECTION BOX - PO LOBBY", "note": "ON 12/24 AND 12/31, THIS BOX MAY BE COLLECTED AS EARLY AS 12 NOON.", "ref": "7210400031"}, "type": "Feature"}
{"geometry": {"coordinates": [-92.424549, 34.95886], "type": "Point"}, "id": "1VodtA1LSBe6wfBhpyr9FKJvpeQ=", "properties": {"@spider": "usps_collection_boxes", "addr:city": "MAYFLOWER", "addr:country": "US", "addr:full": "8 ASHMORE DR", "addr:postcode": "72106", "addr:state": "AR", "brand": "USPS", "brand:wikidata": "Q668687", "collection_times": "Mo-Fr 16:00; Sa 11:00", "name": "USPS COLLECTION BOX - BLUE BOX", "note": "ON 12/24 AND 12/31, THIS BOX MAY BE COLLECTED AS EARLY AS 12 NOON.", "ref": "7210600001"}, "type": "Feature"}
{"geometry": {"coordinates": [-92.424549, 34.95886], "type": "Point"}, "id": "llI2KDfgftQPo9iIlaMTQ3_qhD0=", "properties": {"@spider": "usps_collection_boxes", "addr:city": "MAYFLOWER", "addr:country": "US", "addr:full": "8 ASHMORE DR", "addr:postcode": "72106", "addr:state": "AR", "brand": "USPS", "brand:wikidata": "Q668687", "collection_times": "Mo-Fr 16:00; Sa 11:00", "name": "USPS COLLECTION BOX - PO LOBBY", "note": "ON 12/24 AND 12/31, THIS BOX MAY BE COLLECTED AS EARLY AS 12 NOON.", "ref": "7210600005"}, "type": "Feature"}
{"geometry": {"coordinates": [-92.424549, 34.95886], "type": "Point"}, "id": "43b6c5KE8NVj7WJEGaVRImS-hKM=", "properties": {"@spider": "usps_collection_boxes", "addr:city": "MAYFLOWER", "addr:country": "US", "addr:full": "8 ASHMORE DR", "addr:postcode": "72106", "addr:state": "AR", "brand": "USPS", "brand:wikidata": "Q668687", "collection_times": "Mo-Fr 16:00; Sa 11:00", "name": "USPS COLLECTION BOX - PO LOBBY", "note": "ON 12/24 AND 12/31, THIS BOX MAY BE COLLECTED AS EARLY AS 12 NOON.", "ref": "7210600006"}, "type": "Feature"}
{"geometry": {"coordinates": [-92.42453001, 34.958819861], "type": "Point"}, "id": "fTg7-1wUzgY2t3TG4xBelxDrGPE=", "properties": {"@spider": "usps_collection_boxes", "addr:city": "MAYFLOWER", "addr:country": "US", "addr:full": "8 ASHMORE DR", "addr:postcode": "72106", "addr:state": "AR", "brand": "USPS", "brand:wikidata": "Q668687", "collection_times": "Mo-Fr 16:00; Sa 11:00", "name": "USPS COLLECTION BOX - PO LOBBY", "note": "ON 12/24 AND 12/31, THIS BOX MAY BE COLLECTED AS EARLY AS 12 NOON.", "ref": "7210600007"}, "type": "Feature"}
{"geometry": {"coordinates": [-92.5506018086, 35.1468347513], "type": "Point"}, "id": "cdneAjAEfTg08FoF8-TjjSm5Tkk=", "properties": {"@spider": "usps_collection_boxes", "addr:city": "MENIFEE", "addr:country": "US", "addr:full": "3919 HIGHWAY 64", "addr:postcode": "72107", "addr:state": "AR", "brand": "USPS", "brand:wikidata": "Q668687", "collection_times": "Mo-Fr 16:30; Sa 10:00", "name": "USPS COLLECTION BOX - BLUE BOX", "note": "ON 12/24 AND 12/31, THIS BOX MAY BE COLLECTED AS EARLY AS 12 NOON.", "ref": "7210700001"}, "type": "Feature"}
{"geometry": {"coordinates": [-92.550264, 35.14666], "type": "Point"}, "id": "CQjztIGrZZkEww-QZ1eeh-WCo9I=", "properties": {"@spider": "usps_collection_boxes", "addr:city": "MENIFEE", "addr:country": "US", "addr:full": "3919 HIGHWAY 64", "addr:postcode": "72107", "addr:state": "AR", "brand": "USPS", "brand:wikidata": "Q668687", "collection_times": "Mo-Fr 16:30; Sa 10:00", "name": "USPS COLLECTION BOX - PO LOBBY", "note": "ON 12/24 AND 12/31, THIS BOX MAY BE COLLECTED AS EARLY AS 12 NOON.", "ref": "7210700002"}, "type": "Feature"}
{"geometry": {"coordinates": [-92.550264, 35.14666], "type": "Point"}, "id": "kj7UJKRW9Fizgge5LCdQpxktosY=", "properties": {"@spider": "usps_collection_boxes", "addr:city": "MENIFEE", "addr:country": "US", "addr:full": "3919 HIGHWAY 64", "addr:postcode": "72107", "addr:state": "AR", "brand": "USPS", "brand:wikidata": "Q668687", "collection_times": "Mo-Fr 16:30; Sa 10:00", "name": "USPS COLLECTION BOX - PO LOBBY", "note": "ON 12/24 AND 12/31, THIS BOX MAY BE COLLECTED AS EARLY AS 12 NOON.", "ref": "7210700003"}, "type": "Feature"}
{"geometry": {"coordinates": [-92.550601809, 35.146834751], "type": "Point"}, "id": "ueB3p3I8szo2ievLLxv4Z4_9jV0=", "properties": {"@spider": "usps_collection_boxes", "addr:city": "MENIFEE", "addr:country": "US", "addr:full": "3919 HIGHWAY 64", "addr:postcode": "72107", "addr:state": "AR", "brand": "USPS", "brand:wikidata": "Q668687", "collection_times": "Mo-Fr 17:00; Sa 10:30", "name": "USPS COLLECTION BOX - PO LOBBY", "note": "ON 12/24 AND 12/31, THIS BOX MAY BE COLLECTED AS EARLY AS 12 NOON.", "ref": "7210700004"}, "type": "Feature"}
{"geometry": {"coordinates": [-91.1077589873, 34.7345609938], "type": "Point"}, "id": "lMJbl8hRo3RHBdTjYeveqU6n4Qk=", "properties": {"@spider": "usps_collection_boxes", "addr:city": "MONROE", "addr:country": "US", "addr:full": "18439 HIGHWAY 39 S", "addr:postcode": "72108", "addr:state": "AR", "brand": "USPS", "brand:wikidata": "Q668687", "collection_times": "Mo-Fr 13:30; Sa 12:00", "name": "USPS COLLECTION BOX - PO LOBBY", "note": "ON 12/24 AND 12/31, THIS BOX MAY BE COLLECTED AS EARLY AS 12 NOON.", "ref": "7210800004"}, "type": "Feature"}
{"geometry": {"coordinates": [-91.1077589873, 34.7345609938], "type": "Point"}, "id": "6wCisgm4X9Fl2zfBrMRzqdPCuQE=", "properties": {"@spider": "usps_collection_boxes", "addr:city": "MONROE", "addr:country": "US", "addr:full": "18439 HIGHWAY 39 S", "addr:postcode": "72108", "addr:state": "AR", "brand": "USPS", "brand:wikidata": "Q668687", "collection_times": "Mo-Fr 13:30; Sa 12:00", "name": "USPS COLLECTION BOX - PO LOBBY", "note": "ON 12/24 AND 12/31, THIS BOX MAY BE COLLECTED AS EARLY AS 12 NOON.", "ref": "7210800005"}, "type": "Feature"}
{"geometry": {"coordinates": [-92.7439721, 35.151123], "type": "Point"}, "id": "B4An6Aph47WDgA2EqDQEsgJCEW8=", "properties": {"@spider": "usps_collection_boxes", "addr:city": "MORRILTON", "addr:country": "US", "addr:full": "117 S MOOSE ST", "addr:postcode": "72110", "addr:state": "AR", "brand": "USPS", "brand:wikidata": "Q668687", "collection_times": "Mo-Sa 14:45", "name": "USPS COLLECTION BOX - BLUE BOX", "note": "ON 12/24 AND 12/31, THIS BOX MAY BE COLLECTED AS EARLY AS 12 NOON.", "ref": "7211000003"}, "type": "Feature"}
{"geometry": {"coordinates": [-92.7248221, 35.168497], "type": "Point"}, "id": "SR9jHZz503o5UFPd0Lz6eUWmliw=", "properties": {"@spider": "usps_collection_boxes", "addr:city": "MORRILTON", "addr:country": "US", "addr:full": "1621 E HARDING ST", "addr:postcode": "72110", "addr:state": "AR", "brand": "USPS", "brand:wikidata": "Q668687", "collection_times": "Mo-Sa 11:30", "name": "USPS COLLECTION BOX - BLUE BOX", "ref": "7211000026"}, "type": "Feature"}
{"geometry": {"coordinates": [-92.742769, 35.157314], "type": "Point"}, "id": "oJ-S9BhVx3Xrhv2qqp6_5XSxge0=", "properties": {"@spider": "usps_collection_boxes", "addr:city": "MORRILTON", "addr:country": "US", "addr:full": "500 N MOOSE ST", "addr:postcode": "72110", "addr:state": "AR", "brand": "USPS", "brand:wikidata": "Q668687", "collection_times": "Mo-Fr 17:00; Sa 15:00", "name": "USPS COLLECTION BOX - PO LOBBY", "note": "ON 12/24 AND 12/31, THIS BOX MAY BE COLLECTED AS EARLY AS 12 NOON.", "ref": "7211000027"}, "type": "Feature"}
{"geometry": {"coordinates": [-92.742769, 35.157314], "type": "Point"}, "id": "oJfXslD1G0uJHSFnlT6oGjoCBxU=", "properties": {"@spider": "usps_collection_boxes", "addr:city": "MORRILTON", "addr:country": "US", "addr:full": "500 N MOOSE ST", "addr:postcode": "72110", "addr:state": "AR", "brand": "USPS", "brand:wikidata": "Q668687", "collection_times": "Mo-Fr 17:00; Sa 15:00", "name": "USPS COLLECTION BOX - PO LOBBY", "note": "ON 12/24 AND 12/31, THIS BOX MAY BE COLLECTED AS EARLY AS 12 NOON.", "ref": "7211000028"}, "type": "Feature"}
{"geometry": {"coordinates": [-92.742769, 35.157314], "type": "Point"}, "id": "I-fCSqGmIe-PF0itZL6h6KTLFCk=", "properties": {"@spider": "usps_collection_boxes", "addr:city": "MORRILTON", "addr:country": "US", "addr:full": "500 N MOOSE ST", "addr:postcode": "72110", "addr:state": "AR", "brand": "USPS", "brand:wikidata": "Q668687", "collection_times": "Mo-Fr 17:00; Sa 15:00", "name": "USPS COLLECTION BOX - BLUE BOX", "note": "ON 12/24 AND 12/31, THIS BOX MAY BE COLLECTED AS EARLY AS 12 NOON.", "ref": "7211000030"}, "type": "Feature"}
{"geometry": {"coordinates": [-92.742769386, 35.157311309], "type": "Point"}, "id": "YgPleI2VSaeGP6a9gZMcEKBx4bU=", "properties": {"@spider": "usps_collection_boxes", "addr:city": "MORRILTON", "addr:country": "US", "addr:full": "500 N MOOSE ST", "addr:postcode": "72110", "addr:state": "AR", "brand": "USPS", "brand:wikidata": "Q668687", "collection_times": "Mo-Fr 17:00; Sa 12:00", "name": "USPS COLLECTION BOX - PO LOBBY", "note": "ON 12/24 AND 12/31, THIS BOX MAY BE COLLECTED AS EARLY AS 12 NOON.", "ref": "7211000033"}, "type": "Feature"}
{"geometry": {"coordinates": [-92.1240681, 35.22556], "type": "Point"}, "id": "YFByasAbf7dW7qYIlNlBy9v5lHw=", "properties": {"@spider": "usps_collection_boxes", "addr:city": "MOUNT VERNON", "addr:country": "US", "addr:full": "1375 HIGHWAY 36", "addr:postcode": "72111", "addr:state": "AR", "brand": "USPS", "brand:wikidata": "Q668687", "collection_times": "Mo-Fr 11:30; Sa 09:45", "name": "USPS COLLECTION BOX - BLUE BOX", "ref": "7211100001"}, "type": "Feature"}
{"geometry": {"coordinates": [-92.1243205, 35.225562], "type": "Point"}, "id": "CLM5GChohTd9rX8bEJZTbD4MUUM=", "properties": {"@spider": "usps_collection_boxes", "addr:city": "MOUNT VERNON", "addr:country": "US", "addr:full": "1375 HIGHWAY 36", "addr:postcode": "72111", "addr:state": "AR", "brand": "USPS", "brand:wikidata": "Q668687", "collection_times": "Mo-Fr 11:30; Sa 09:45", "name": "USPS COLLECTION BOX - PO LOBBY", "ref": "7211100002"}, "type": "Feature"}
{"geometry": {"coordinates": [-92.123976145, 35.225576528], "type": "Point"}, "id": "Cf9vDNseX1789_lIph-p996eGc8=", "properties": {"@spider": "usps_collection_boxes", "addr:city": "MOUNT VERNON", "addr:country": "US", "addr:full": "1375 HIGHWAY 36", "addr:postcode": "72111", "addr:state": "AR", "brand": "USPS", "brand:wikidata": "Q668687", "collection_times": "Mo-Fr 12:00; Sa 10:00", "name": "USPS COLLECTION BOX - PO LOBBY", "ref": "7211100006"}, "type": "Feature"}
{"geometry": {"coordinates": [-91.2554869112, 35.6056325768], "type": "Point"}, "id": "uE7gk1dM2s1VX0Da6hwK--xafYg=", "properties": {"@spider": "usps_collection_boxes", "addr:city": "NEWPORT", "addr:country": "US", "addr:full": "2105 MALCOLM AVE", "addr:postcode": "72112", "addr:state": "AR", "brand": "USPS", "brand:wikidata": "Q668687", "collection_times": "Mo-Sa 13:30", "name": "USPS COLLECTION BOX - BLUE BOX", "note": "ON 12/24 AND 12/31, THIS BOX MAY BE COLLECTED AS EARLY AS 12 NOON.", "ref": "7211200003"}, "type": "Feature"}
{"geometry": {"coordinates": [-91.252353774, 35.6076705296], "type": "Point"}, "id": "LkNDYP0jHLHo_CxjBIreeZn6jwQ=", "properties": {"@spider": "usps_collection_boxes", "addr:city": "NEWPORT", "addr:country": "US", "addr:full": "2525 MALCOLM AVE", "addr:postcode": "72112", "addr:state": "AR", "brand": "USPS", "brand:wikidata": "Q668687", "collection_times": "Mo-Sa 13:30", "name": "USPS COLLECTION BOX - BLUE BOX", "note": "ON 12/24 AND 12/31, THIS BOX MAY BE COLLECTED AS EARLY AS 12 NOON.", "ref": "7211200004"}, "type": "Feature"}
{"geometry": {"coordinates": [-91.283173, 35.60431], "type": "Point"}, "id": "QHUkWj4eubaXUoJQaYUoQQW4ex8=", "properties": {"@spider": "usps_collection_boxes", "addr:city": "NEWPORT", "addr:country": "US", "addr:full": "200 MAIN ST", "addr:postcode": "72112", "addr:state": "AR", "brand": "USPS", "brand:wikidata": "Q668687", "collection_times": "Mo-Sa 12:00", "name": "USPS COLLECTION BOX - BLUE BOX", "ref": "7211200006"}, "type": "Feature"}
{"geometry": {"coordinates": [-91.2640899, 35.60793], "type": "Point"}, "id": "bwMICCGLNf33WLIlVJfCJz2gab8=", "properties": {"@spider": "usps_collection_boxes", "addr:city": "NEWPORT", "addr:country": "US", "addr:full": "1300 MCLAIN ST", "addr:postcode": "72112", "addr:state": "AR", "brand": "USPS", "brand:wikidata": "Q668687", "collection_times": "Mo-Sa 12:00", "name": "USPS COLLECTION BOX - BLUE BOX", "ref": "7211200010"}, "type": "Feature"}
{"geometry": {"coordinates": [-91.280500037, 35.607272012], "type": "Point"}, "id": "E2hn4j4nYdzpbcwdaRHcUCtmWY0=", "properties": {"@spider": "usps_collection_boxes", "addr:city": "NEWPORT", "addr:country": "US", "addr:full": "110 LAUREL ST", "addr:postcode": "72112", "addr:state": "AR", "brand": "USPS", "brand:wikidata": "Q668687", "collection_times": "Mo-Fr 17:00; Sa 15:15", "name": "USPS COLLECTION BOX - BLUE BOX", "note": "ON 12/24 AND 12/31, THIS BOX MAY BE COLLECTED AS EARLY AS 12 NOON.", "ref": "7211200016"}, "type": "Feature"}
{"geometry": {"coordinates": [-91.2813270441, 35.6073076451], "type": "Point"}, "id": "7b1fIiKV2EyYv570BID6zATRBTQ=", "properties": {"@spider": "usps_collection_boxes", "addr:city": "NEWPORT", "addr:country": "US", "addr:full": "110 LAUREL ST", "addr:postcode": "72112", "addr:state": "AR", "brand": "USPS", "brand:wikidata": "Q668687", "collection_times": "Mo-Fr 17:00; Sa 15:15", "name": "USPS COLLECTION BOX - PO LOBBY", "note": "ON 12/24 AND 12/31, THIS BOX MAY BE COLLECTED AS EARLY AS 12 NOON.", "ref": "7211200018"}, "type": "Feature"}
{"geometry": {"coordinates": [-91.2813270441, 35.6073076451], "type": "Point"}, "id": "Qeh6AerUiBlsHMQ7bvSX6E2Cyhk=", "properties": {"@spider": "usps_collection_boxes", "addr:city": "NEWPORT", "addr:country": "US", "addr:full": "110 LAUREL ST", "addr:postcode": "72112", "addr:state": "AR", "brand": "USPS", "brand:wikidata": "Q668687", "collection_times": "Mo-Fr 17:00; Sa 15:15", "name": "USPS COLLECTION BOX - PO LOBBY", "note": "ON 12/24 AND 12/31, THIS BOX MAY BE COLLECTED AS EARLY AS 12 NOON.", "ref": "7211200024"}, "type": "Feature"}
{"geometry": {"coordinates": [-91.281318044, 35.607361645], "type": "Point"}, "id": "8AAxoLkwuMDd1kDx3k11sqJkxB4=", "properties": {"@spider": "usps_collection_boxes", "addr:city": "NEWPORT", "addr:country": "US", "addr:full": "110 LAUREL ST", "addr:postcode": "72112", "addr:state": "AR", "brand": "USPS", "brand:wikidata": "Q668687", "collection_times": "Mo-Fr 16:30; Sa 11:00", "name": "USPS COLLECTION BOX - PO LOBBY", "note": "ON 12/24 AND 12/31, THIS BOX MAY BE COLLECTED AS EARLY AS 12 NOON.", "ref": "7211200028"}, "type": "Feature"}
{"geometry": {"coordinates": [-92.4070316, 34.847753], "type": "Point"}, "id": "CkvJGJMtmrLu9Zl-5WNbMcWCRsM=", "properties": {"@spider": "usps_collection_boxes", "addr:city": "N LITTLE ROCK", "addr:country": "US", "addr:full": "101 COMMONS DR", "addr:postcode": "72113", "addr:state": "AR", "brand": "USPS", "brand:wikidata": "Q668687", "collection_times": "Mo-Sa 12:00", "name": "USPS COLLECTION BOX - BLUE BOX", "ref": "7211300000"}, "type": "Feature"}
{"geometry": {"coordinates": [-92.397791, 34.85751], "type": "Point"}, "id": "O_0gYL95ZzKcz9gJJ5EY8KYOeCo=", "properties": {"@spider": "usps_collection_boxes", "addr:city": "N LITTLE ROCK", "addr:country": "US", "addr:full": "501 COMMERCE DR", "addr:postcode": "72113", "addr:state": "AR", "brand": "USPS", "brand:wikidata": "Q668687", "collection_times": "Mo-Fr 17:00; Sa 13:30", "name": "USPS COLLECTION BOX - PO LOBBY", "note": "ON 12/24 AND 12/31, THIS BOX MAY BE COLLECTED AS EARLY AS 12 NOON.", "ref": "7211300004"}, "type": "Feature"}
{"geometry": {"coordinates": [-92.391634311, 34.88356454], "type": "Point"}, "id": "OvDypQ1pgzua9ZIvmh6YV8LzjJI=", "properties": {"@spider": "usps_collection_boxes", "addr:city": "N LITTLE ROCK", "addr:country": "US", "addr:full": "21510 HIGHWAY 365 N", "addr:postcode": "72113", "addr:state": "AR", "brand": "USPS", "brand:wikidata": "Q668687", "collection_times": "Mo-Sa 12:00", "name": "USPS COLLECTION BOX - BLUE BOX", "ref": "7211300007"}, "type": "Feature"}
{"geometry": {"coordinates": [-92.405939299, 34.864119513], "type": "Point"}, "id": "awMBHCalpwwNUqAOYcbdm0slp7w=", "properties": {"@spider": "usps_collection_boxes", "addr:city": "N LITTLE ROCK", "addr:country": "US", "addr:full": "760 EDGEWOOD DR", "addr:postcode": "72113", "addr:state": "AR", "brand": "USPS", "brand:wikidata": "Q668687", "collection_times": "Mo-Sa 10:30", "name": "USPS COLLECTION BOX - BLUE BOX", "ref": "7211300008"}, "type": "Feature"}
{"geometry": {"coordinates": [-92.3608994, 34.812836], "type": "Point"}, "id": "43eZp6tquOvzlWPnjR7hi_-L9a0=", "properties": {"@spider": "usps_collection_boxes", "addr:city": "N LITTLE ROCK", "addr:country": "US", "addr:full": "8801 MAUMELLE BLVD", "addr:postcode": "72113", "addr:state": "AR", "brand": "USPS", "brand:wikidata": "Q668687", "collection_times": "Mo-Sa 12:00", "name": "USPS COLLECTION BOX - BLUE BOX", "ref": "7211300009"}, "type": "Feature"}
{"geometry": {"coordinates": [-92.39779, 34.857483], "type": "Point"}, "id": "3x3EdJ9Ct2eh49o4C5UfqzEqPC8=", "properties": {"@spider": "usps_collection_boxes", "addr:city": "N LITTLE ROCK", "addr:country": "US", "addr:full": "501 COMMERCE DR", "addr:postcode": "72113", "addr:state": "AR", "brand": "USPS", "brand:wikidata": "Q668687", "collection_times": "Mo-Fr 17:00; Sa 13:30", "name": "USPS COLLECTION BOX - PO LOBBY", "note": "ON 12/24 AND 12/31, THIS BOX MAY BE COLLECTED AS EARLY AS 12 NOON.", "ref": "7211300010"}, "type": "Feature"}
{"geometry": {"coordinates": [-92.39779, 34.857483], "type": "Point"}, "id": "FEAomBaxHPiIp0KAqL5msm161Rg=", "properties": {"@spider": "usps_collection_boxes", "addr:city": "N LITTLE ROCK", "addr:country": "US", "addr:full": "501 COMMERCE DR", "addr:postcode": "72113", "addr:state": "AR", "brand": "USPS", "brand:wikidata": "Q668687", "collection_times": "Mo-Fr 17:00; Sa 13:30", "name": "USPS COLLECTION BOX - BLUE BOX", "note": "ON 12/24 AND 12/31, THIS BOX MAY BE COLLECTED AS EARLY AS 12 NOON.", "ref": "7211300011"}, "type": "Feature"}
{"geometry": {"coordinates": [-92.39682122, 34.857219486], "type": "Point"}, "id": "TZcA5O3DMTdA9KqicJ0h6viMcOU=", "properties": {"@spider": "usps_collection_boxes", "addr:city": "N LITTLE ROCK", "addr:country": "US", "addr:full": "501 COMMERCE DR", "addr:postcode": "72113", "addr:state": "AR", "brand": "USPS", "brand:wikidata": "Q668687", "collection_times": "Mo-Fr 16:30; Sa 12:00", "name": "USPS COLLECTION BOX - PO LOBBY", "note": "ON 12/24 AND 12/31, THIS BOX MAY BE COLLECTED AS EARLY AS 12 NOON.", "ref": "7211300013"}, "type": "Feature"}
{"geometry": {"coordinates": [-92.2700520196, 34.7787868068], "type": "Point"}, "id": "QhWm6PkSHrHeprKRpyxBZX4xLDo=", "properties": {"@spider": "usps_collection_boxes", "addr:city": "LITTLE ROCK", "addr:country": "US", "addr:full": "300 W PERSHING BLVD", "addr:postcode": "72114", "addr:state": "AR", "brand": "USPS", "brand:wikidata": "Q668687", "collection_times": "Mo-Fr 17:15; Sa 15:30", "name": "USPS COLLECTION BOX - PO LOBBY", "note": "ON 12/24 AND 12/31, THIS BOX MAY BE COLLECTED AS EARLY AS 12 NOON.", "ref": "7211400004"}, "type": "Feature"}
{"geometry": {"coordinates": [-92.314949674, 34.734805295], "type": "Point"}, "id": "FCO1zOE8IpQ4MZnpYKDWdVNLqAk=", "properties": {"@spider": "usps_collection_boxes", "addr:city": "LITTLE ROCK", "addr:country": "US", "addr:full": "1800 S MAPLE ST", "addr:postcode": "72114", "addr:state": "AR", "brand": "USPS", "brand:wikidata": "Q668687", "collection_times": "Mo-Sa 12:00", "name": "USPS COLLECTION BOX - BLUE BOX", "ref": "7211400021"}, "type": "Feature"}
{"geometry": {"coordinates": [-92.268419979, 34.75503199], "type": "Point"}, "id": "UU1N_6liWrBSKWotMxBy0Q2OEVo=", "properties": {"@spider": "usps_collection_boxes", "addr:city": "LITTLE ROCK", "addr:country": "US", "addr:full": "1 RIVERFRONT PL", "addr:postcode": "72114", "addr:state": "AR", "brand": "USPS", "brand:wikidata": "Q668687", "collection_times": "Mo-Sa 16:00", "name": "USPS COLLECTION BOX - BLUE BOX", "note": "ON 12/24 AND 12/31, THIS BOX MAY BE COLLECTED AS EARLY AS 12 NOON.", "ref": "7211400028"}, "type": "Feature"}
{"geometry": {"coordinates": [-92.2700520196, 34.7787868068], "type": "Point"}, "id": "0jnVYH_ffLD7HIsqrwYq4oh9Buk=", "properties": {"@spider": "usps_collection_boxes", "addr:city": "LITTLE ROCK", "addr:country": "US", "addr:full": "300 W PERSHING BLVD", "addr:postcode": "72114", "addr:state": "AR", "brand": "USPS", "brand:wikidata": "Q668687", "collection_times": "Mo-Fr 17:15; Sa 15:30", "name": "USPS COLLECTION BOX - PO LOBBY", "note": "ON 12/24 AND 12/31, THIS BOX MAY BE COLLECTED AS EARLY AS 12 NOON.", "ref": "7211400033"}, "type": "Feature"}
{"geometry": {"coordinates": [-92.2700520196, 34.7787868068], "type": "Point"}, "id": "xUN2s9ifc6tdnoQby_DgI8fiz5k=", "properties": {"@spider": "usps_collection_boxes", "addr:city": "LITTLE ROCK", "addr:country": "US", "addr:full": "300 W PERSHING BLVD", "addr:postcode": "72114", "addr:state": "AR", "brand": "USPS", "brand:wikidata": "Q668687", "collection_times": "Mo-Fr 17:15; Sa 15:30", "name": "USPS COLLECTION BOX - BLUE BOX", "note": "ON 12/24 AND 12/31, THIS BOX MAY BE COLLECTED AS EARLY AS 12 NOON.", "ref": "7211400044"}, "type": "Feature"}
{"geometry": {"coordinates": [-92.270376532, 34.747930671], "type": "Point"}, "id": "RcdVafv5b63hIqu9grYz6k-wgh8=", "properties": {"@spider": "usps_collection_boxes", "addr:city": "LITTLE ROCK", "addr:country": "US", "addr:full": "120 MAIN ST", "addr:postcode": "72114", "addr:state": "AR", "brand": "USPS", "brand:wikidata": "Q668687", "collection_times": "Mo-Sa 16:00", "name": "USPS COLLECTION BOX - BLUE BOX", "note": "ON 12/24 AND 12/31, THIS BOX MAY BE COLLECTED AS EARLY AS 12 NOON.", "ref": "7211400050"}, "type": "Feature"}
{"geometry": {"coordinates": [-92.2700520196, 34.7787868068], "type": "Point"}, "id": "GNJOZ7rJUK9xbE8G6ZMAdHKjUn4=", "properties": {"@spider": "usps_collection_boxes", "addr:city": "LITTLE ROCK", "addr:country": "US", "addr:full": "300 W PERSHING BLVD", "addr:postcode": "72114", "addr:state": "AR", "brand": "USPS", "brand:wikidata": "Q668687", "collection_times": "Mo-Fr 17:00; Sa 12:00", "name": "USPS COLLECTION BOX - PO LOBBY", "note": "ON 12/24 AND 12/31, THIS BOX MAY BE COLLECTED AS EARLY AS 12 NOON.", "ref": "7211400059"}, "type": "Feature"}
{"geometry": {"coordinates": [-92.2566431, 34.796596], "type": "Point"}, "id": "Tof44NuTGnunZ051sgn9ZK3aqc4=", "properties": {"@spider": "usps_collection_boxes", "addr:city": "N LITTLE ROCK", "addr:country": "US", "addr:full": "4601 JOHN F KENNEDY BLVD", "addr:postcode": "72116", "addr:state": "AR", "brand": "USPS", "brand:wikidata": "Q668687", "collection_times": "Mo-Fr 17:00; Sa 16:00", "name": "USPS COLLECTION BOX - BLUE BOX", "note": "ON 12/24 AND 12/31, THIS BOX MAY BE COLLECTED AS EARLY AS 12 NOON.", "ref": "7211600001"}, "type": "Feature"}
{"geometry": {"coordinates": [-92.2568982, 34.796979], "type": "Point"}, "id": "un0BS0mm4ZXwcoJO788Gkf3yHUk=", "properties": {"@spider": "usps_collection_boxes", "addr:city": "N LITTLE ROCK", "addr:country": "US", "addr:full": "4601 JOHN F KENNEDY BLVD", "addr:postcode": "72116", "addr:state": "AR", "brand": "USPS", "brand:wikidata": "Q668687", "collection_times": "Mo-Fr 17:00; Sa 16:00", "name": "USPS COLLECTION BOX - PO LOBBY", "note": "ON 12/24 AND 12/31, THIS BOX MAY BE COLLECTED AS EARLY AS 12 NOON.", "ref": "7211600002"}, "type": "Feature"}
{"geometry": {"coordinates": [-92.257365003, 34.793925991], "type": "Point"}, "id": "H4TL-RqUzdBeUuPF5nMVbleCy8o=", "properties": {"@spider": "usps_collection_boxes", "addr:city": "N LITTLE ROCK", "addr:country": "US", "addr:full": "4140 JOHN F KENNEDY BLVD", "addr:postcode": "72116", "addr:state": "AR", "brand": "USPS", "brand:wikidata": "Q668687", "collection_times": "Mo-Sa 14:30", "name": "USPS COLLECTION BOX - BLUE BOX", "note": "ON 12/24 AND 12/31, THIS BOX MAY BE COLLECTED AS EARLY AS 12 NOON.", "ref": "7211600004"}, "type": "Feature"}
{"geometry": {"coordinates": [-92.2518104838, 34.8067174455], "type": "Point"}, "id": "yXgpRNM0jTjn7qTnFt1NPZPzwjk=", "properties": {"@spider": "usps_collection_boxes", "addr:city": "N LITTLE ROCK", "addr:country": "US", "addr:full": "5519 JOHN F KENNEDY BLVD", "addr:postcode": "72116", "addr:state": "AR", "brand": "USPS", "brand:wikidata": "Q668687", "collection_times": "Mo-Sa 10:00", "name": "USPS COLLECTION BOX - BLUE BOX", "ref": "7211600011"}, "type": "Feature"}
{"geometry": {"coordinates": [-92.229907984, 34.7938341251], "type": "Point"}, "id": "KBZ2dtng4ZoFYdLBQbVgNYYX7d8=", "properties": {"@spider": "usps_collection_boxes", "addr:city": "N LITTLE ROCK", "addr:country": "US", "addr:full": "3629 MCCAIN BLVD", "addr:postcode": "72116", "addr:state": "AR", "brand": "USPS", "brand:wikidata": "Q668687", "collection_times": "Mo-Sa 12:00", "name": "USPS COLLECTION BOX - BLUE BOX", "ref": "7211600014"}, "type": "Feature"}
{"geometry": {"coordinates": [-92.23623498, 34.800280018], "type": "Point"}, "id": "NiH7IcQ1uHaBccQVwO_2pk882Pg=", "properties": {"@spider": "usps_collection_boxes", "addr:city": "N LITTLE ROCK", "addr:country": "US", "addr:full": "2501 CRESTWOOD RD", "addr:postcode": "72116", "addr:state": "AR", "brand": "USPS", "brand:wikidata": "Q668687", "collection_times": "Mo-Sa 10:30", "name": "USPS COLLECTION BOX - BLUE BOX", "ref": "7211600042"}, "type": "Feature"}
{"geometry": {"coordinates": [-92.228814984, 34.788070016], "type": "Point"}, "id": "8qU4PUmPMUEAmBY-ykLmf4krw_U=", "properties": {"@spider": "usps_collection_boxes", "addr:city": "N LITTLE ROCK", "addr:country": "US", "addr:full": "4000 MCCAIN BLVD", "addr:postcode": "72116", "addr:state": "AR", "brand": "USPS", "brand:wikidata": "Q668687", "collection_times": "Mo-Sa 13:00", "name": "USPS COLLECTION BOX - BLUE BOX", "note": "ON 12/24 AND 12/31, THIS BOX MAY BE COLLECTED AS EARLY AS 12 NOON.", "ref": "7211600046"}, "type": "Feature"}
{"geometry": {"coordinates": [-92.2303682343, 34.796093048], "type": "Point"}, "id": "0SyPGMOVGVL9g8EwfyLD0jFDRhA=", "properties": {"@spider": "usps_collection_boxes", "addr:city": "N LITTLE ROCK", "addr:country": "US", "addr:full": "2907 LAKEWOOD VILLAGE DR", "addr:postcode": "72116", "addr:state": "AR", "brand": "USPS", "brand:wikidata": "Q668687", "collection_times": "Mo-Sa 13:30", "name": "USPS COLLECTION BOX - BLUE BOX", "note": "ON 12/24 AND 12/31, THIS BOX MAY BE COLLECTED AS EARLY AS 12 NOON.", "ref": "7211600047"}, "type": "Feature"}
{"geometry": {"coordinates": [-92.2568583, 34.797023], "type": "Point"}, "id": "6BYwn9ih9_kjpafPuWV7acn8xBc=", "properties": {"@spider": "usps_collection_boxes", "addr:city": "N LITTLE ROCK", "addr:country": "US", "addr:full": "4601 JOHN F KENNEDY BLVD", "addr:postcode": "72116", "addr:state": "AR", "brand": "USPS", "brand:wikidata": "Q668687", "collection_times": "Mo-Fr 17:00; Sa 16:00", "name": "USPS COLLECTION BOX - PO LOBBY", "note": "ON 12/24 AND 12/31, THIS BOX MAY BE COLLECTED AS EARLY AS 12 NOON.", "ref": "7211600059"}, "type": "Feature"}
{"geometry": {"coordinates": [-92.256666958, 34.797836987], "type": "Point"}, "id": "7IXFwMs81MOKG81fqVhiWm4E9n0=", "properties": {"@spider": "usps_collection_boxes", "addr:city": "N LITTLE ROCK", "addr:country": "US", "addr:full": "4601 JOHN F KENNEDY BLVD", "addr:postcode": "72116", "addr:state": "AR", "brand": "USPS", "brand:wikidata": "Q668687", "collection_times": "Mo-Fr 17:00; Sa 16:00", "name": "USPS COLLECTION BOX - APC", "note": "ON 12/24 AND 12/31, THIS BOX MAY BE COLLECTED AS EARLY AS 12 NOON.", "ref": "7211600060"}, "type": "Feature"}
{"geometry": {"coordinates": [-92.256666958, 34.797836987], "type": "Point"}, "id": "svhYmmCfcYvXBJvtMi56HvrVrZE=", "properties": {"@spider": "usps_collection_boxes", "addr:city": "N LITTLE ROCK", "addr:country": "US", "addr:full": "4601 JOHN F KENNEDY BLVD", "addr:postcode": "72116", "addr:state": "AR", "brand": "USPS", "brand:wikidata": "Q668687", "collection_times": "Mo-Fr 17:00; Sa 12:00", "name": "USPS COLLECTION BOX - PO LOBBY", "note": "ON 12/24 AND 12/31, THIS BOX MAY BE COLLECTED AS EARLY AS 12 NOON.", "ref": "7211600065"}, "type": "Feature"}
{"geometry": {"coordinates": [-92.207971, 34.762461], "type": "Point"}, "id": "t_kGNoC-1TZjd-TVLfEcMqPS8lc=", "properties": {"@spider": "usps_collection_boxes", "addr:city": "N LITTLE ROCK", "addr:country": "US", "addr:full": "4903 E BROADWAY ST", "addr:postcode": "72117", "addr:state": "AR", "brand": "USPS", "brand:wikidata": "Q668687", "collection_times": "Mo-Fr 17:00; Sa 15:00", "name": "USPS COLLECTION BOX - PO LOBBY", "note": "ON 12/24 AND 12/31, THIS BOX MAY BE COLLECTED AS EARLY AS 12 NOON.", "ref": "7211700007"}, "type": "Feature"}
{"geometry": {"coordinates": [-92.219631016, 34.756274021], "type": "Point"}, "id": "uNvkOROTY9TqI7VE7MzX0jgPJZA=", "properties": {"@spider": "usps_collection_boxes", "addr:city": "N LITTLE ROCK", "addr:country": "US", "addr:full": "4201 E BROADWAY ST", "addr:postcode": "72117", "addr:state": "AR", "brand": "USPS", "brand:wikidata": "Q668687", "collection_times": "Mo-Sa 10:00", "name": "USPS COLLECTION BOX - BLUE BOX", "ref": "7211700008"}, "type": "Feature"}
{"geometry": {"coordinates": [-92.207971, 34.762461], "type": "Point"}, "id": "wK-8G8BXr_slvm8xlv7wKwp_Vjk=", "properties": {"@spider": "usps_collection_boxes", "addr:city": "N LITTLE ROCK", "addr:country": "US", "addr:full": "4903 E BROADWAY ST", "addr:postcode": "72117", "addr:state": "AR", "brand": "USPS", "brand:wikidata": "Q668687", "collection_times": "Mo-Fr 17:00; Sa 15:00", "name": "USPS COLLECTION BOX - PO LOBBY", "note": "ON 12/24 AND 12/31, THIS BOX MAY BE COLLECTED AS EARLY AS 12 NOON.", "ref": "7211700023"}, "type": "Feature"}
{"geometry": {"coordinates": [-92.207971, 34.762461], "type": "Point"}, "id": "_0NjBGm1F1bD4P7-IcfJV8lcWM8=", "properties": {"@spider": "usps_collection_boxes", "addr:city": "N LITTLE ROCK", "addr:country": "US", "addr:full": "4903 E BROADWAY ST", "addr:postcode": "72117", "addr:state": "AR", "brand": "USPS", "brand:wikidata": "Q668687", "collection_times": "Mo-Fr 17:00; Sa 15:00", "name": "USPS COLLECTION BOX - BLUE BOX", "note": "ON 12/24 AND 12/31, THIS BOX MAY BE COLLECTED AS EARLY AS 12 NOON.", "ref": "7211700025"}, "type": "Feature"}
{"geometry": {"coordinates": [-92.207852505, 34.762513471], "type": "Point"}, "id": "XEWbViHJpRSdLK-xr_9Vns8slDQ=", "properties": {"@spider": "usps_collection_boxes", "addr:city": "N LITTLE ROCK", "addr:country": "US", "addr:full": "4903 E BROADWAY ST", "addr:postcode": "72117", "addr:state": "AR", "brand": "USPS", "brand:wikidata": "Q668687", "collection_times": "Mo-Fr 17:00; Sa 12:00", "name": "USPS COLLECTION BOX - PO LOBBY", "note": "ON 12/24 AND 12/31, THIS BOX MAY BE COLLECTED AS EARLY AS 12 NOON.", "ref": "7211700029"}, "type": "Feature"}
{"geometry": {"coordinates": [-92.2924911288, 34.8058726335], "type": "Point"}, "id": "XQy2RDCnhFVqhS8hIA8RGvT-EDs=", "properties": {"@spider": "usps_collection_boxes", "addr:city": "N LITTLE ROCK", "addr:country": "US", "addr:full": "5501 MAC ARTHUR DR", "addr:postcode": "72118", "addr:state": "AR", "brand": "USPS", "brand:wikidata": "Q668687", "collection_times": "Mo-Sa 14:30", "name": "USPS COLLECTION BOX - BLUE BOX", "note": "ON 12/24 AND 12/31, THIS BOX MAY BE COLLECTED AS EARLY AS 12 NOON.", "ref": "7211800006"}, "type": "Feature"}
{"geometry": {"coordinates": [-92.28652204, 34.791975019], "type": "Point"}, "id": "3zgbDqwhqL9v_9wT-jGueH0jUCI=", "properties": {"@spider": "usps_collection_boxes", "addr:city": "N LITTLE ROCK", "addr:country": "US", "addr:full": "3815 MAC ARTHUR DR", "addr:postcode": "72118", "addr:state": "AR", "brand": "USPS", "brand:wikidata": "Q668687", "collection_times": "Mo-Sa 12:00", "name": "USPS COLLECTION BOX - BLUE BOX", "ref": "7211800012"}, "type": "Feature"}
{"geometry": {"coordinates": [-92.2812799, 34.822736], "type": "Point"}, "id": "Uqw-mSjHnEzMAjIx1eEpa2yXOEk=", "properties": {"@spider": "usps_collection_boxes", "addr:city": "N LITTLE ROCK", "addr:country": "US", "addr:full": "5302 3RD ST", "addr:postcode": "72118", "addr:state": "AR", "brand": "USPS", "brand:wikidata": "Q668687", "collection_times": "Mo-Fr 14:15", "name": "USPS COLLECTION BOX - BLUE BOX", "note": "ON 12/24 AND 12/31, THIS BOX MAY BE COLLECTED AS EARLY AS 12 NOON.", "ref": "7211800018"}, "type": "Feature"}
{"geometry": {"coordinates": [-92.2085359749, 34.8333470034], "type": "Point"}, "id": "-TdfJo-pypmkd7tmcMPLuxW02m4=", "properties": {"@spider": "usps_collection_boxes", "addr:city": "N LITTLE ROCK", "addr:country": "US", "addr:full": "2201 E KIEHL AVE", "addr:postcode": "72120", "addr:state": "AR", "brand": "USPS", "brand:wikidata": "Q668687", "collection_times": "Mo-Sa 14:00", "name": "USPS COLLECTION BOX - BLUE BOX", "note": "ON 12/24 AND 12/31, THIS BOX MAY BE COLLECTED AS EARLY AS 12 NOON.", "ref": "7212000002"}, "type": "Feature"}
{"geometry": {"coordinates": [-92.18363904, 34.830195995], "type": "Point"}, "id": "ehBYT_pM2j7f9m6iV5qg2kZtiy8=", "properties": {"@spider": "usps_collection_boxes", "addr:city": "N LITTLE ROCK", "addr:country": "US", "addr:full": "4200 E KIEHL AVE", "addr:postcode": "72120", "addr:state": "AR", "brand": "USPS", "brand:wikidata": "Q668687", "collection_times": "Mo-Sa 11:00", "name": "USPS COLLECTION BOX - BLUE BOX", "ref": "7212000007"}, "type": "Feature"}
{"geometry": {"coordinates": [-92.206757, 34.814831002], "type": "Point"}, "id": "ueYGuqsHtepwiLMFJN1I7oE9IGY=", "properties": {"@spider": "usps_collection_boxes", "addr:city": "N LITTLE ROCK", "addr:country": "US", "addr:full": "2300 WILDWOOD AVE", "addr:postcode": "72120", "addr:state": "AR", "brand": "USPS", "brand:wikidata": "Q668687", "collection_times": "Mo-Fr 17:00; Sa 16:30", "name": "USPS COLLECTION BOX - PO LOBBY", "note": "ON 12/24 AND 12/31, THIS BOX MAY BE COLLECTED AS EARLY AS 12 NOON.", "ref": "7212000016"}, "type": "Feature"}
{"geometry": {"coordinates": [-92.232997051, 34.818458143], "type": "Point"}, "id": "XatB2tU964a1f1wA4WlyiNMrdTk=", "properties": {"@spider": "usps_collection_boxes", "addr:city": "N LITTLE ROCK", "addr:country": "US", "addr:full": "119 COUNTRY CLUB RD", "addr:postcode": "72120", "addr:state": "AR", "brand": "USPS", "brand:wikidata": "Q668687", "collection_times": "Mo-Sa 15:00", "name": "USPS COLLECTION BOX - BLUE BOX", "note": "ON 12/24 AND 12/31, THIS BOX MAY BE COLLECTED AS EARLY AS 12 NOON.", "ref": "7212000027"}, "type": "Feature"}
{"geometry": {"coordinates": [-92.206757, 34.814831002], "type": "Point"}, "id": "yGp5EdER8tAja5eEIobSYOSTMQM=", "properties": {"@spider": "usps_collection_boxes", "addr:city": "N LITTLE ROCK", "addr:country": "US", "addr:full": "2300 WILDWOOD AVE", "addr:postcode": "72120", "addr:state": "AR", "brand": "USPS", "brand:wikidata": "Q668687", "collection_times": "Mo-Fr 17:00; Sa 16:30", "name": "USPS COLLECTION BOX - PO LOBBY", "note": "ON 12/24 AND 12/31, THIS BOX MAY BE COLLECTED AS EARLY AS 12 NOON.", "ref": "7212000035"}, "type": "Feature"}
{"geometry": {"coordinates": [-92.206757, 34.814831002], "type": "Point"}, "id": "k4q-msKTmsqm56P6xx-ukTjJDqs=", "properties": {"@spider": "usps_collection_boxes", "addr:city": "N LITTLE ROCK", "addr:country": "US", "addr:full": "2300 WILDWOOD AVE", "addr:postcode": "72120", "addr:state": "AR", "brand": "USPS", "brand:wikidata": "Q668687", "collection_times": "Mo-Fr 17:00; Sa 16:30", "name": "USPS COLLECTION BOX - BLUE BOX", "note": "ON 12/24 AND 12/31, THIS BOX MAY BE COLLECTED AS EARLY AS 12 NOON.", "ref": "7212000036"}, "type": "Feature"}
{"geometry": {"coordinates": [-92.206757, 34.814831002], "type": "Point"}, "id": "c25bMT_hqocZ6A9fAEKstJwFqzU=", "properties": {"@spider": "usps_collection_boxes", "addr:city": "N LITTLE ROCK", "addr:country": "US", "addr:full": "2300 WILDWOOD AVE", "addr:postcode": "72120", "addr:state": "AR", "brand": "USPS", "brand:wikidata": "Q668687", "collection_times": "Mo-Fr 17:00; Sa 13:00", "name": "USPS COLLECTION BOX - PO LOBBY", "note": "ON 12/24 AND 12/31, THIS BOX MAY BE COLLECTED AS EARLY AS 12 NOON.", "ref": "7212000038"}, "type": "Feature"}
{"geometry": {"coordinates": [-91.840777, 35.424714], "type": "Point"}, "id": "izu5ny7GEXnRxix65EG0R39bhXQ=", "properties": {"@spider": "usps_collection_boxes", "addr:city": "PANGBURN", "addr:country": "US", "addr:full": "608 MAIN ST", "addr:postcode": "72121", "addr:state": "AR", "brand": "USPS", "brand:wikidata": "Q668687", "collection_times": "Mo-Fr 15:00; Sa 10:00", "name": "USPS COLLECTION BOX - BLUE BOX", "note": "ON 12/24 AND 12/31, THIS BOX MAY BE COLLECTED AS EARLY AS 12 NOON.", "ref": "7212100001"}, "type": "Feature"}
{"geometry": {"coordinates": [-91.840777, 35.424714], "type": "Point"}, "id": "dHDev5vRZooKmOgXR1vm-G5w8Mk=", "properties": {"@spider": "usps_collection_boxes", "addr:city": "PANGBURN", "addr:country": "US", "addr:full": "608 MAIN ST", "addr:postcode": "72121", "addr:state": "AR", "brand": "USPS", "brand:wikidata": "Q668687", "collection_times": "Mo-Fr 15:00; Sa 10:00", "name": "USPS COLLECTION BOX - PO LOBBY", "note": "ON 12/24 AND 12/31, THIS BOX MAY BE COLLECTED AS EARLY AS 12 NOON.", "ref": "7212100002"}, "type": "Feature"}
{"geometry": {"coordinates": [-91.840777, 35.424714], "type": "Point"}, "id": "OVRvARmHzKS55twkKctvrhjb6i4=", "properties": {"@spider": "usps_collection_boxes", "addr:city": "PANGBURN", "addr:country": "US", "addr:full": "608 MAIN ST", "addr:postcode": "72121", "addr:state": "AR", "brand": "USPS", "brand:wikidata": "Q668687", "collection_times": "Mo-Fr 15:00; Sa 10:00", "name": "USPS COLLECTION BOX - PO LOBBY", "note": "ON 12/24 AND 12/31, THIS BOX MAY BE COLLECTED AS EARLY AS 12 NOON.", "ref": "7212100003"}, "type": "Feature"}
{"geometry": {"coordinates": [-91.839972118, 35.425057088], "type": "Point"}, "id": "ktbkJR8RItN1v2VpoqxVQBpWg7k=", "properties": {"@spider": "usps_collection_boxes", "addr:city": "PANGBURN", "addr:country": "US", "addr:full": "608 MAIN ST", "addr:postcode": "72121", "addr:state": "AR", "brand": "USPS", "brand:wikidata": "Q668687", "collection_times": "Mo-Fr 15:00; Sa 11:00", "name": "USPS COLLECTION BOX - PO LOBBY", "note": "ON 12/24 AND 12/31, THIS BOX MAY BE COLLECTED AS EARLY AS 12 NOON.", "ref": "7212100006"}, "type": "Feature"}
{"geometry": {"coordinates": [-92.757968, 34.776311], "type": "Point"}, "id": "0hJaowYCwtNuvEBEk97Jq2pcLHI=", "properties": {"@spider": "usps_collection_boxes", "addr:city": "PARON", "addr:country": "US", "addr:full": "22560 HIGHWAY 9", "addr:postcode": "72122", "addr:state": "AR", "brand": "USPS", "brand:wikidata": "Q668687", "collection_times": "Mo-Fr 11:30; Sa 10:15", "name": "USPS COLLECTION BOX - BLUE BOX", "ref": "7212200001"}, "type": "Feature"}
{"geometry": {"coordinates": [-92.757968, 34.776311], "type": "Point"}, "id": "pMcy2HEAsc5tUnfe4e_LiFeE7do=", "properties": {"@spider": "usps_collection_boxes", "addr:city": "PARON", "addr:country": "US", "addr:full": "22560 HIGHWAY 9", "addr:postcode": "72122", "addr:state": "AR", "brand": "USPS", "brand:wikidata": "Q668687", "collection_times": "Mo-Fr 11:30; Sa 10:15", "name": "USPS COLLECTION BOX - PO LOBBY", "ref": "7212200002"}, "type": "Feature"}
{"geometry": {"coordinates": [-92.757970668, 34.77630623], "type": "Point"}, "id": "KuADjRKI60E-07sohRv1ZQROa-c=", "properties": {"@spider": "usps_collection_boxes", "addr:city": "PARON", "addr:country": "US", "addr:full": "22560 HIGHWAY 9", "addr:postcode": "72122", "addr:state": "AR", "brand": "USPS", "brand:wikidata": "Q668687", "collection_times": "Mo-Fr 12:00; Sa 10:15", "name": "USPS COLLECTION BOX - PO LOBBY", "ref": "7212200006"}, "type": "Feature"}
{"geometry": {"coordinates": [-91.2351233, 35.257685], "type": "Point"}, "id": "5g4kW1NeSjooxHcdIN3k0OpSaSA=", "properties": {"@spider": "usps_collection_boxes", "addr:city": "PATTERSON", "addr:country": "US", "addr:full": "111 S MAIN ST", "addr:postcode": "72123", "addr:state": "AR", "brand": "USPS", "brand:wikidata": "Q668687", "collection_times": "Mo-Sa 11:30", "name": "USPS COLLECTION BOX - BLUE BOX", "ref": "7212300001"}, "type": "Feature"}
{"geometry": {"coordinates": [-91.23478, 35.257884], "type": "Point"}, "id": "lw1arD4aRZq-PkAKbLPzadzBQeU=", "properties": {"@spider": "usps_collection_boxes", "addr:city": "PATTERSON", "addr:country": "US", "addr:full": "111 S MAIN ST", "addr:postcode": "72123", "addr:state": "AR", "brand": "USPS", "brand:wikidata": "Q668687", "collection_times": "Mo-Sa 11:30", "name": "USPS COLLECTION BOX - PO LOBBY", "ref": "7212300002"}, "type": "Feature"}
{"geometry": {"coordinates": [-91.234834416, 35.257671429], "type": "Point"}, "id": "J2mkfcuebrBh5Sax-0LidhGjrgM=", "properties": {"@spider": "usps_collection_boxes", "addr:city": "PATTERSON", "addr:country": "US", "addr:full": "111 S MAIN ST", "addr:postcode": "72123", "addr:state": "AR", "brand": "USPS", "brand:wikidata": "Q668687", "collection_times": "Mo-Fr 12:00; Sa 11:45", "name": "USPS COLLECTION BOX - PO LOBBY", "ref": "7212300003"}, "type": "Feature"}
{"geometry": {"coordinates": [-92.793045853, 35.0477948352], "type": "Point"}, "id": "OpIdbBjPnQHohmbbRtLxVJlHSWY=", "properties": {"@spider": "usps_collection_boxes", "addr:city": "PERRY", "addr:country": "US", "addr:full": "100 E 2ND AVE", "addr:postcode": "72125", "addr:state": "AR", "brand": "USPS", "brand:wikidata": "Q668687", "collection_times": "Mo-Fr 11:15; Sa 10:45", "name": "USPS COLLECTION BOX - BLUE BOX", "ref": "7212500003"}, "type": "Feature"}
{"geometry": {"coordinates": [-92.7930768778, 35.0474603626], "type": "Point"}, "id": "6jHrLjIksY1o-FRxx03Cea1kteg=", "properties": {"@spider": "usps_collection_boxes", "addr:city": "PERRY", "addr:country": "US", "addr:full": "3376 MAIN ST", "addr:postcode": "72125", "addr:state": "AR", "brand": "USPS", "brand:wikidata": "Q668687", "collection_times": "Mo-Fr 11:15; Sa 10:45", "name": "USPS COLLECTION BOX - PO LOBBY", "ref": "7212500005"}, "type": "Feature"}
{"geometry": {"coordinates": [-92.7930768778, 35.0474603626], "type": "Point"}, "id": "NqVoE4u4eBxOKrMzA5B8Ocv_SdU=", "properties": {"@spider": "usps_collection_boxes", "addr:city": "PERRY", "addr:country": "US", "addr:full": "3376 MAIN ST", "addr:postcode": "72125", "addr:state": "AR", "brand": "USPS", "brand:wikidata": "Q668687", "collection_times": "Mo-Fr 11:30; Sa 11:00", "name": "USPS COLLECTION BOX - PO LOBBY", "ref": "7212500008"}, "type": "Feature"}
{"geometry": {"coordinates": [-92.801912, 35.003404], "type": "Point"}, "id": "17hhcI14CAwL7MZzMK_5fdvGt6A=", "properties": {"@spider": "usps_collection_boxes", "addr:city": "PERRYVILLE", "addr:country": "US", "addr:full": "201 B ST", "addr:postcode": "72126", "addr:state": "AR", "brand": "USPS", "brand:wikidata": "Q668687", "collection_times": "Mo-Fr 16:30; Sa 11:00", "name": "USPS COLLECTION BOX - BLUE BOX", "note": "ON 12/24 AND 12/31, THIS BOX MAY BE COLLECTED AS EARLY AS 12 NOON.", "ref": "7212600004"}, "type": "Feature"}
{"geometry": {"coordinates": [-92.801912, 35.003404], "type": "Point"}, "id": "JE7ewK8YDhLv09SGiOQk2GUn2QY=", "properties": {"@spider": "usps_collection_boxes", "addr:city": "PERRYVILLE", "addr:country": "US", "addr:full": "201 B ST", "addr:postcode": "72126", "addr:state": "AR", "brand": "USPS", "brand:wikidata": "Q668687", "collection_times": "Mo-Fr 16:30; Sa 11:00", "name": "USPS COLLECTION BOX - PO LOBBY", "note": "ON 12/24 AND 12/31, THIS BOX MAY BE COLLECTED AS EARLY AS 12 NOON.", "ref": "7212600006"}, "type": "Feature"}
{"geometry": {"coordinates": [-92.801985108, 35.003401495], "type": "Point"}, "id": "SM7gAkvOYeV41SMnkrBiQzvwtdI=", "properties": {"@spider": "usps_collection_boxes", "addr:city": "PERRYVILLE", "addr:country": "US", "addr:full": "201 B ST", "addr:postcode": "72126", "addr:state": "AR", "brand": "USPS", "brand:wikidata": "Q668687", "collection_times": "Mo-Fr 16:00; Sa 11:00", "name": "USPS COLLECTION BOX - PO LOBBY", "note": "ON 12/24 AND 12/31, THIS BOX MAY BE COLLECTED AS EARLY AS 12 NOON.", "ref": "7212600008"}, "type": "Feature"}
{"geometry": {"coordinates": [-92.641259, 35.161794], "type": "Point"}, "id": "oI7CTYu_gPLtnfEW0aRrYQ3jVW4=", "properties": {"@spider": "usps_collection_boxes", "addr:city": "PLUMERVILLE", "addr:country": "US", "addr:full": "300 N SPRINGFIELD ST", "addr:postcode": "72127", "addr:state": "AR", "brand": "USPS", "brand:wikidata": "Q668687", "collection_times": "Mo-Fr 15:00; Sa 09:30", "name": "USPS COLLECTION BOX - BLUE BOX", "note": "ON 12/24 AND 12/31, THIS BOX MAY BE COLLECTED AS EARLY AS 12 NOON.", "ref": "7212700001"}, "type": "Feature"}
{"geometry": {"coordinates": [-92.641259, 35.161794], "type": "Point"}, "id": "QyndQGE7MPlJKRGqJFQQHjXmR2I=", "properties": {"@spider": "usps_collection_boxes", "addr:city": "PLUMERVILLE", "addr:country": "US", "addr:full": "300 N SPRINGFIELD ST", "addr:postcode": "72127", "addr:state": "AR", "brand": "USPS", "brand:wikidata": "Q668687", "collection_times": "Mo-Fr 15:00; Sa 09:30", "name": "USPS COLLECTION BOX - PO LOBBY", "note": "ON 12/24 AND 12/31, THIS BOX MAY BE COLLECTED AS EARLY AS 12 NOON.", "ref": "7212700002"}, "type": "Feature"}
{"geometry": {"coordinates": [-92.641259, 35.161794], "type": "Point"}, "id": "cWcz1AokfL4jqkorxdLob8dI63s=", "properties": {"@spider": "usps_collection_boxes", "addr:city": "PLUMERVILLE", "addr:country": "US", "addr:full": "300 N SPRINGFIELD ST", "addr:postcode": "72127", "addr:state": "AR", "brand": "USPS", "brand:wikidata": "Q668687", "collection_times": "Mo-Fr 15:00; Sa 09:30", "name": "USPS COLLECTION BOX - PO LOBBY", "note": "ON 12/24 AND 12/31, THIS BOX MAY BE COLLECTED AS EARLY AS 12 NOON.", "ref": "7212700003"}, "type": "Feature"}
{"geometry": {"coordinates": [-92.641259106, 35.161791255], "type": "Point"}, "id": "Q941K6YFdPwzak4Msowq-MF--m8=", "properties": {"@spider": "usps_collection_boxes", "addr:city": "PLUMERVILLE", "addr:country": "US", "addr:full": "300 N SPRINGFIELD ST", "addr:postcode": "72127", "addr:state": "AR", "brand": "USPS", "brand:wikidata": "Q668687", "collection_times": "Mo-Fr 15:00; Sa 09:30", "name": "USPS COLLECTION BOX - PO LOBBY", "note": "ON 12/24 AND 12/31, THIS BOX MAY BE COLLECTED AS EARLY AS 12 NOON.", "ref": "7212700006"}, "type": "Feature"}
{"geometry": {"coordinates": [-92.638389977, 34.322860015], "type": "Point"}, "id": "N4g2ADFRAQPBnbu4KdOs_KBui5M=", "properties": {"@spider": "usps_collection_boxes", "addr:city": "POYEN", "addr:country": "US", "addr:full": "210 E FOURTH ST", "addr:postcode": "72128", "addr:state": "AR", "brand": "USPS", "brand:wikidata": "Q668687", "collection_times": "Mo-Fr 11:30; Sa 10:30", "name": "USPS COLLECTION BOX - BLUE BOX", "ref": "7212800001"}, "type": "Feature"}
{"geometry": {"coordinates": [-92.638389977, 34.322860015], "type": "Point"}, "id": "w1rdXVUiQK3oVINn70JUUSAvQMs=", "properties": {"@spider": "usps_collection_boxes", "addr:city": "POYEN", "addr:country": "US", "addr:full": "210 E FOURTH ST", "addr:postcode": "72128", "addr:state": "AR", "brand": "USPS", "brand:wikidata": "Q668687", "collection_times": "Mo-Fr 11:30; Sa 10:30", "name": "USPS COLLECTION BOX - PO LOBBY", "ref": "7212800002"}, "type": "Feature"}
{"geometry": {"coordinates": [-92.638389977, 34.322860015], "type": "Point"}, "id": "U7rGDb84PZ0g8ZVWnYlRzgXtGoU=", "properties": {"@spider": "usps_collection_boxes", "addr:city": "POYEN", "addr:country": "US", "addr:full": "210 E FOURTH ST", "addr:postcode": "72128", "addr:state": "AR", "brand": "USPS", "brand:wikidata": "Q668687", "collection_times": "Mo-Fr 12:00; Sa 10:30", "name": "USPS COLLECTION BOX - PO LOBBY", "ref": "7212800004"}, "type": "Feature"}
{"geometry": {"coordinates": [-92.552708, 34.314703], "type": "Point"}, "id": "d56No8cKBEucCFPGs_bTSTbkea0=", "properties": {"@spider": "usps_collection_boxes", "addr:city": "PRATTSVILLE", "addr:country": "US", "addr:full": "9113 HIGHWAY 270 W", "addr:postcode": "72129", "addr:state": "AR", "brand": "USPS", "brand:wikidata": "Q668687", "collection_times": "Mo-Fr 11:15; Sa 09:30", "name": "USPS COLLECTION BOX - BLUE BOX", "ref": "7212900001"}, "type": "Feature"}
{"geometry": {"coordinates": [-92.552708, 34.314703], "type": "Point"}, "id": "HsWK29ROWbyn8fkUaoFlurx1RtU=", "properties": {"@spider": "usps_collection_boxes", "addr:city": "PRATTSVILLE", "addr:country": "US", "addr:full": "9113 HIGHWAY 270 W", "addr:postcode": "72129", "addr:state": "AR", "brand": "USPS", "brand:wikidata": "Q668687", "collection_times": "Mo-Fr 11:15; Sa 09:30", "name": "USPS COLLECTION BOX - PO LOBBY", "ref": "7212900002"}, "type": "Feature"}
{"geometry": {"coordinates": [-92.552708, 34.314703], "type": "Point"}, "id": "27eIu9scEwXirR4VdbFOSRjg86A=", "properties": {"@spider": "usps_collection_boxes", "addr:city": "PRATTSVILLE", "addr:country": "US", "addr:full": "9113 HIGHWAY 270 W", "addr:postcode": "72129", "addr:state": "AR", "brand": "USPS", "brand:wikidata": "Q668687", "collection_times": "Mo-Fr 11:15; Sa 09:30", "name": "USPS COLLECTION BOX - PO LOBBY", "ref": "7212900003"}, "type": "Feature"}
{"geometry": {"coordinates": [-92.552730051, 34.314691612], "type": "Point"}, "id": "gLYHkJ40JUEYm3QeWlDuO7dmCpI=", "properties": {"@spider": "usps_collection_boxes", "addr:city": "PRATTSVILLE", "addr:country": "US", "addr:full": "9113 HIGHWAY 270 W", "addr:postcode": "72129", "addr:state": "AR", "brand": "USPS", "brand:wikidata": "Q668687", "collection_times": "Mo-Fr 11:30; Sa 09:45", "name": "USPS COLLECTION BOX - PO LOBBY", "ref": "7212900007"}, "type": "Feature"}
{"geometry": {"coordinates": [-92.108169, 35.692729], "type": "Point"}, "id": "AFKFRMVLtVYMjGYUb-9fUhUn7yA=", "properties": {"@spider": "usps_collection_boxes", "addr:city": "PRIM", "addr:country": "US", "addr:full": "4224 PRIM RD", "addr:postcode": "72130", "addr:state": "AR", "brand": "USPS", "brand:wikidata": "Q668687", "collection_times": "Mo-Fr 15:00; Sa 14:10", "name": "USPS COLLECTION BOX - PO LOBBY", "note": "ON 12/24 AND 12/31, THIS BOX MAY BE COLLECTED AS EARLY AS 12 NOON.", "ref": "7213000001"}, "type": "Feature"}
{"geometry": {"coordinates": [-92.108842197, 35.694473393], "type": "Point"}, "id": "ZX22tSSpLPswNGSlhJlyvUDCeIw=", "properties": {"@spider": "usps_collection_boxes", "addr:city": "PRIM", "addr:country": "US", "addr:full": "4224 PRIM RD", "addr:postcode": "72130", "addr:state": "AR", "brand": "USPS", "brand:wikidata": "Q668687", "collection_times": "Mo-Fr 15:00; Sa 14:15", "name": "USPS COLLECTION BOX - PO LOBBY", "note": "ON 12/24 AND 12/31, THIS BOX MAY BE COLLECTED AS EARLY AS 12 NOON.", "ref": "7213000003"}, "type": "Feature"}
{"geometry": {"coordinates": [-92.205324, 35.387621], "type": "Point"}, "id": "KDoz1GqcjJxnmvm36b6N4AFyfDk=", "properties": {"@spider": "usps_collection_boxes", "addr:city": "QUITMAN", "addr:country": "US", "addr:full": "5770 HEBER SPRINGS RD W", "addr:postcode": "72131", "addr:state": "AR", "brand": "USPS", "brand:wikidata": "Q668687", "collection_times": "Mo-Fr 15:45; Sa 10:00", "name": "USPS COLLECTION BOX - PO LOBBY", "note": "ON 12/24 AND 12/31, THIS BOX MAY BE COLLECTED AS EARLY AS 12 NOON.", "ref": "7213100001"}, "type": "Feature"}
{"geometry": {"coordinates": [-92.205324, 35.387621], "type": "Point"}, "id": "e5nXqiSxrQ8qwbRWeFx8wZHJT90=", "properties": {"@spider": "usps_collection_boxes", "addr:city": "QUITMAN", "addr:country": "US", "addr:full": "5770 HEBER SPRINGS RD W", "addr:postcode": "72131", "addr:state": "AR", "brand": "USPS", "brand:wikidata": "Q668687", "collection_times": "Mo-Fr 15:45; Sa 10:00", "name": "USPS COLLECTION BOX - PO LOBBY", "note": "ON 12/24 AND 12/31, THIS BOX MAY BE COLLECTED AS EARLY AS 12 NOON.", "ref": "7213100002"}, "type": "Feature"}
{"geometry": {"coordinates": [-92.205324, 35.387621], "type": "Point"}, "id": "B65n9twXNGWKvWh9z09qa7eBV2I=", "properties": {"@spider": "usps_collection_boxes", "addr:city": "QUITMAN", "addr:country": "US", "addr:full": "5770 HEBER SPRINGS RD W", "addr:postcode": "72131", "addr:state": "AR", "brand": "USPS", "brand:wikidata": "Q668687", "collection_times": "Mo-Fr 15:45; Sa 10:00", "name": "USPS COLLECTION BOX - BLUE BOX", "note": "ON 12/24 AND 12/31, THIS BOX MAY BE COLLECTED AS EARLY AS 12 NOON.", "ref": "7213100003"}, "type": "Feature"}
{"geometry": {"coordinates": [-92.211275697, 35.384270586], "type": "Point"}, "id": "vuGt9vqoEqUyZ-i0gjrojvtNi_s=", "properties": {"@spider": "usps_collection_boxes", "addr:city": "QUITMAN", "addr:country": "US", "addr:full": "5770 HEBER SPRINGS RD W", "addr:postcode": "72131", "addr:state": "AR", "brand": "USPS", "brand:wikidata": "Q668687", "collection_times": "Mo-Fr 16:00; Sa 10:00", "name": "USPS COLLECTION BOX - PO LOBBY", "note": "ON 12/24 AND 12/31, THIS BOX MAY BE COLLECTED AS EARLY AS 12 NOON.", "ref": "7213100006"}, "type": "Feature"}
{"geometry": {"coordinates": [-92.184349993, 34.446339991], "type": "Point"}, "id": "jMXrMlsxe8TaU8Zrjnlix3DYzvU=", "properties": {"@spider": "usps_collection_boxes", "addr:city": "REDFIELD", "addr:country": "US", "addr:full": "201 NE RAILROAD ST", "addr:postcode": "72132", "addr:state": "AR", "brand": "USPS", "brand:wikidata": "Q668687", "collection_times": "Mo-Fr 15:45; Sa 11:00", "name": "USPS COLLECTION BOX - BLUE BOX", "note": "ON 12/24 AND 12/31, THIS BOX MAY BE COLLECTED AS EARLY AS 12 NOON.", "ref": "7213200001"}, "type": "Feature"}
{"geometry": {"coordinates": [-92.184349993, 34.446339991], "type": "Point"}, "id": "0DZUXIPkiHmq9XQ_l0CyBzDH6a0=", "properties": {"@spider": "usps_collection_boxes", "addr:city": "REDFIELD", "addr:country": "US", "addr:full": "201 NE RAILROAD ST", "addr:postcode": "72132", "addr:state": "AR", "brand": "USPS", "brand:wikidata": "Q668687", "collection_times": "Mo-Fr 15:45; Sa 11:00", "name": "USPS COLLECTION BOX - PO LOBBY", "note": "ON 12/24 AND 12/31, THIS BOX MAY BE COLLECTED AS EARLY AS 12 NOON.", "ref": "7213200002"}, "type": "Feature"}
{"geometry": {"coordinates": [-92.184349993, 34.446339991], "type": "Point"}, "id": "x5ZJWiI4zpwnDNLfrYT7CbQDfXM=", "properties": {"@spider": "usps_collection_boxes", "addr:city": "REDFIELD", "addr:country": "US", "addr:full": "201 NE RAILROAD ST", "addr:postcode": "72132", "addr:state": "AR", "brand": "USPS", "brand:wikidata": "Q668687", "collection_times": "Mo-Fr 15:45; Sa 11:00", "name": "USPS COLLECTION BOX - PO LOBBY", "note": "ON 12/24 AND 12/31, THIS BOX MAY BE COLLECTED AS EARLY AS 12 NOON.", "ref": "7213200004"}, "type": "Feature"}
{"geometry": {"coordinates": [-91.5654239764, 34.1563859881], "type": "Point"}, "id": "wlrhXYdenDA7HCvPrDykngH1GRM=", "properties": {"@spider": "usps_collection_boxes", "addr:city": "REYDELL", "addr:country": "US", "addr:full": "21900 S HIGHWAY 88", "addr:postcode": "72133", "addr:state": "AR", "brand": "USPS", "brand:wikidata": "Q668687", "collection_times": "Mo-Sa 10:30", "name": "USPS COLLECTION BOX - BLUE BOX", "ref": "7213300001"}, "type": "Feature"}
{"geometry": {"coordinates": [-91.5654239764, 34.1563859881], "type": "Point"}, "id": "HErgbPJibMO5EQs6kiom65HKIDM=", "properties": {"@spider": "usps_collection_boxes", "addr:city": "REYDELL", "addr:country": "US", "addr:full": "21900 S HIGHWAY 88", "addr:postcode": "72133", "addr:state": "AR", "brand": "USPS", "brand:wikidata": "Q668687", "collection_times": "Mo-Sa 10:30", "name": "USPS COLLECTION BOX - PO LOBBY", "ref": "7213300003"}, "type": "Feature"}
{"geometry": {"coordinates": [-91.5654239764, 34.1563859881], "type": "Point"}, "id": "C0WmccY65j8gEmwri2nJPyMc6uI=", "properties": {"@spider": "usps_collection_boxes", "addr:city": "REYDELL", "addr:country": "US", "addr:full": "21900 S HIGHWAY 88", "addr:postcode": "72133", "addr:state": "AR", "brand": "USPS", "brand:wikidata": "Q668687", "collection_times": "Mo-Fr 12:30; Sa 12:45", "name": "USPS COLLECTION BOX - PO LOBBY", "note": "ON 12/24 AND 12/31, THIS BOX MAY BE COLLECTED AS EARLY AS 12 NOON.", "ref": "7213300005"}, "type": "Feature"}
{"geometry": {"coordinates": [-91.386199021, 34.630812981], "type": "Point"}, "id": "ssuMGc_rblO56Thku5Wjo4LC0vo=", "properties": {"@spider": "usps_collection_boxes", "addr:city": "ROE", "addr:country": "US", "addr:full": "180 MAIN ST", "addr:postcode": "72134", "addr:state": "AR", "brand": "USPS", "brand:wikidata": "Q668687", "collection_times": "Mo-Fr 11:00; Sa 10:30", "name": "USPS COLLECTION BOX - PO LOBBY", "ref": "7213400003"}, "type": "Feature"}
{"geometry": {"coordinates": [-91.386199021, 34.630812981], "type": "Point"}, "id": "ZeNaTno4da3Pt2jHzgphKJ8jkcE=", "properties": {"@spider": "usps_collection_boxes", "addr:city": "ROE", "addr:country": "US", "addr:full": "180 MAIN ST", "addr:postcode": "72134", "addr:state": "AR", "brand": "USPS", "brand:wikidata": "Q668687", "collection_times": "Mo-Fr 11:30; Sa 10:45", "name": "USPS COLLECTION BOX - PO LOBBY", "ref": "7213400006"}, "type": "Feature"}
{"geometry": {"coordinates": [-92.5007130314, 34.9015805323], "type": "Point"}, "id": "_kVL5Xm_GdVd0kJl6H7wigfeM8o=", "properties": {"@spider": "usps_collection_boxes", "addr:city": "ROLAND", "addr:country": "US", "addr:full": "21111 CRIBBS ST", "addr:postcode": "72135", "addr:state": "AR", "brand": "USPS", "brand:wikidata": "Q668687", "collection_times": "Mo-Fr 14:30; Sa 11:30", "name": "USPS COLLECTION BOX - PO LOBBY", "note": "ON 12/24 AND 12/31, THIS BOX MAY BE COLLECTED AS EARLY AS 12 NOON.", "ref": "7213500002"}, "type": "Feature"}
{"geometry": {"coordinates": [-92.5007130314, 34.9015805323], "type": "Point"}, "id": "sP_3M4V9bTEpLkJcLoPKX_Q0GlY=", "properties": {"@spider": "usps_collection_boxes", "addr:city": "ROLAND", "addr:country": "US", "addr:full": "21111 CRIBBS ST", "addr:postcode": "72135", "addr:state": "AR", "brand": "USPS", "brand:wikidata": "Q668687", "collection_times": "Mo-Fr 14:30; Sa 11:30", "name": "USPS COLLECTION BOX - PO LOBBY", "note": "ON 12/24 AND 12/31, THIS BOX MAY BE COLLECTED AS EARLY AS 12 NOON.", "ref": "7213500004"}, "type": "Feature"}
{"geometry": {"coordinates": [-92.050093, 35.239753], "type": "Point"}, "id": "SSpUb7qKaelCrwH9fA92LLrKges=", "properties": {"@spider": "usps_collection_boxes", "addr:city": "ROMANCE", "addr:country": "US", "addr:full": "292 HIGHWAY 31", "addr:postcode": "72136", "addr:state": "AR", "brand": "USPS", "brand:wikidata": "Q668687", "collection_times": "Mo-Fr 11:30; Sa 10:00", "name": "USPS COLLECTION BOX - BLUE BOX", "ref": "7213600001"}, "type": "Feature"}
{"geometry": {"coordinates": [-92.050093, 35.239753], "type": "Point"}, "id": "0MrekPz8-wiipVxLENNHAUF01g4=", "properties": {"@spider": "usps_collection_boxes", "addr:city": "ROMANCE", "addr:country": "US", "addr:full": "292 HIGHWAY 31", "addr:postcode": "72136", "addr:state": "AR", "brand": "USPS", "brand:wikidata": "Q668687", "collection_times": "Mo-Fr 11:30; Sa 10:00", "name": "USPS COLLECTION BOX - PO LOBBY", "ref": "7213600003"}, "type": "Feature"}
{"geometry": {"coordinates": [-92.05009245, 35.23975151], "type": "Point"}, "id": "TE_vnr7vAOPwIfoavbSILKk6ueI=", "properties": {"@spider": "usps_collection_boxes", "addr:city": "ROMANCE", "addr:country": "US", "addr:full": "292 HIGHWAY 31", "addr:postcode": "72136", "addr:state": "AR", "brand": "USPS", "brand:wikidata": "Q668687", "collection_times": "Mo-Fr 12:00; Sa 10:00", "name": "USPS COLLECTION BOX - PO LOBBY", "ref": "7213600004"}, "type": "Feature"}
{"geometry": {"coordinates": [-92.08817, 35.332324], "type": "Point"}, "id": "3NiNpHnsGSic75eAF6imaJ-I55o=", "properties": {"@spider": "usps_collection_boxes", "addr:city": "ROSE BUD", "addr:country": "US", "addr:full": "6083 HIGHWAY 36 W", "addr:postcode": "72137", "addr:state": "AR", "brand": "USPS", "brand:wikidata": "Q668687", "collection_times": "Mo-Fr 15:45; Sa 10:15", "name": "USPS COLLECTION BOX - BLUE BOX", "note": "ON 12/24 AND 12/31, THIS BOX MAY BE COLLECTED AS EARLY AS 12 NOON.", "ref": "7213700004"}, "type": "Feature"}
{"geometry": {"coordinates": [-92.08817, 35.332324], "type": "Point"}, "id": "Tg_UW3_DBYth4oFsnErAMCdw4RI=", "properties": {"@spider": "usps_collection_boxes", "addr:city": "ROSE BUD", "addr:country": "US", "addr:full": "6083 HIGHWAY 36 W", "addr:postcode": "72137", "addr:state": "AR", "brand": "USPS", "brand:wikidata": "Q668687", "collection_times": "Mo-Fr 15:45; Sa 10:15", "name": "USPS COLLECTION BOX - PO LOBBY", "note": "ON 12/24 AND 12/31, THIS BOX MAY BE COLLECTED AS EARLY AS 12 NOON.", "ref": "7213700005"}, "type": "Feature"}
{"geometry": {"coordinates": [-92.0883162, 35.331887], "type": "Point"}, "id": "Tu_EOiKF2kPlk5PKk3iTcs7D7es=", "properties": {"@spider": "usps_collection_boxes", "addr:city": "ROSE BUD", "addr:country": "US", "addr:full": "6083 HIGHWAY 36 W", "addr:postcode": "72137", "addr:state": "AR", "brand": "USPS", "brand:wikidata": "Q668687", "collection_times": "Mo-Fr 15:45; Sa 10:15", "name": "USPS COLLECTION BOX - PO LOBBY", "note": "ON 12/24 AND 12/31, THIS BOX MAY BE COLLECTED AS EARLY AS 12 NOON.", "ref": "7213700006"}, "type": "Feature"}
{"geometry": {"coordinates": [-92.088088343, 35.332296322], "type": "Point"}, "id": "unR7nd30JycArDRaeAlUKJWkL_E=", "properties": {"@spider": "usps_collection_boxes", "addr:city": "ROSE BUD", "addr:country": "US", "addr:full": "6083 HIGHWAY 36 W", "addr:postcode": "72137", "addr:state": "AR", "brand": "USPS", "brand:wikidata": "Q668687", "collection_times": "Mo-Fr 16:00; Sa 11:30", "name": "USPS COLLECTION BOX - PO LOBBY", "note": "ON 12/24 AND 12/31, THIS BOX MAY BE COLLECTED AS EARLY AS 12 NOON.", "ref": "7213700007"}, "type": "Feature"}
{"geometry": {"coordinates": [-91.5088050267, 35.363018532], "type": "Point"}, "id": "6y0rb5y2BJHoMLQRvcLbPdsCvYY=", "properties": {"@spider": "usps_collection_boxes", "addr:city": "RUSSELL", "addr:country": "US", "addr:full": "4409 HIGHWAY AVE", "addr:postcode": "72139", "addr:state": "AR", "brand": "USPS", "brand:wikidata": "Q668687", "collection_times": "Mo-Fr 11:30; Sa 10:15", "name": "USPS COLLECTION BOX - BLUE BOX", "ref": "7213900001"}, "type": "Feature"}
{"geometry": {"coordinates": [-91.5088050267, 35.363018532], "type": "Point"}, "id": "yXBnxmtENHsqfuJYQaY2mtR_mIg=", "properties": {"@spider": "usps_collection_boxes", "addr:city": "RUSSELL", "addr:country": "US", "addr:full": "4409 HIGHWAY AVE", "addr:postcode": "72139", "addr:state": "AR", "brand": "USPS", "brand:wikidata": "Q668687", "collection_times": "Mo-Fr 11:30; Sa 10:15", "name": "USPS COLLECTION BOX - PO LOBBY", "ref": "7213900002"}, "type": "Feature"}
{"geometry": {"coordinates": [-91.509034503, 35.362551833], "type": "Point"}, "id": "zRDV7ZVmFbEeusEgu5Asr9QAp8s=", "properties": {"@spider": "usps_collection_boxes", "addr:city": "RUSSELL", "addr:country": "US", "addr:full": "4409 HIGHWAY AVE", "addr:postcode": "72139", "addr:state": "AR", "brand": "USPS", "brand:wikidata": "Q668687", "collection_times": "Mo-Fr 12:00; Sa 11:00", "name": "USPS COLLECTION BOX - PO LOBBY", "ref": "7213900003"}, "type": "Feature"}
{"geometry": {"coordinates": [-91.132460037, 34.377689983], "type": "Point"}, "id": "ifaJLUMh1tEd9odGl7c3ti8ZNOU=", "properties": {"@spider": "usps_collection_boxes", "addr:city": "ST CHARLES", "addr:country": "US", "addr:full": "212 BROADWAY AVE", "addr:postcode": "72140", "addr:state": "AR", "brand": "USPS", "brand:wikidata": "Q668687", "collection_times": "Mo-Sa 11:30", "name": "USPS COLLECTION BOX - PO LOBBY", "ref": "7214000002"}, "type": "Feature"}
{"geometry": {"coordinates": [-91.132460037, 34.377689983], "type": "Point"}, "id": "V6-jkLRavmeNHaIsblKzhjayzIc=", "properties": {"@spider": "usps_collection_boxes", "addr:city": "ST CHARLES", "addr:country": "US", "addr:full": "212 BROADWAY AVE", "addr:postcode": "72140", "addr:state": "AR", "brand": "USPS", "brand:wikidata": "Q668687", "collection_times": "Mo-Sa 11:30", "name": "USPS COLLECTION BOX - PO LOBBY", "ref": "7214000003"}, "type": "Feature"}
{"geometry": {"coordinates": [-91.132460037, 34.377689983], "type": "Point"}, "id": "qMjU1tsHNaVcR6jXskCLLzhLcTA=", "properties": {"@spider": "usps_collection_boxes", "addr:city": "ST CHARLES", "addr:country": "US", "addr:full": "212 BROADWAY AVE", "addr:postcode": "72140", "addr:state": "AR", "brand": "USPS", "brand:wikidata": "Q668687", "collection_times": "Mo-Fr 12:00; Sa 11:45", "name": "USPS COLLECTION BOX - PO LOBBY", "ref": "7214000004"}, "type": "Feature"}
{"geometry": {"coordinates": [-92.611834, 35.52778], "type": "Point"}, "id": "1Zxu42uRDKUjtToDRVolOqi_O-Q=", "properties": {"@spider": "usps_collection_boxes", "addr:city": "SCOTLAND", "addr:country": "US", "addr:full": "11420 HIGHWAY 95 W", "addr:postcode": "72141", "addr:state": "AR", "brand": "USPS", "brand:wikidata": "Q668687", "collection_times": "Mo-Sa 13:15", "name": "USPS COLLECTION BOX - BLUE BOX", "note": "ON 12/24 AND 12/31, THIS BOX MAY BE COLLECTED AS EARLY AS 12 NOON.", "ref": "7214100000"}, "type": "Feature"}
{"geometry": {"coordinates": [-92.611834, 35.52778], "type": "Point"}, "id": "04i_Jr8E8dSavHMdsrmQIgED-4s=", "properties": {"@spider": "usps_collection_boxes", "addr:city": "SCOTLAND", "addr:country": "US", "addr:full": "11420 HIGHWAY 95 W", "addr:postcode": "72141", "addr:state": "AR", "brand": "USPS", "brand:wikidata": "Q668687", "collection_times": "Mo-Sa 13:15", "name": "USPS COLLECTION BOX - PO LOBBY", "note": "ON 12/24 AND 12/31, THIS BOX MAY BE COLLECTED AS EARLY AS 12 NOON.", "ref": "7214100001"}, "type": "Feature"}
{"geometry": {"coordinates": [-92.611803073, 35.527812474], "type": "Point"}, "id": "YU0gQGYRz-ga_edaP6ExQtj9qK4=", "properties": {"@spider": "usps_collection_boxes", "addr:city": "SCOTLAND", "addr:country": "US", "addr:full": "11420 HIGHWAY 95 W", "addr:postcode": "72141", "addr:state": "AR", "brand": "USPS", "brand:wikidata": "Q668687", "collection_times": "Mo-Sa 13:15", "name": "USPS COLLECTION BOX - PO LOBBY", "note": "ON 12/24 AND 12/31, THIS BOX MAY BE COLLECTED AS EARLY AS 12 NOON.", "ref": "7214100003"}, "type": "Feature"}
{"geometry": {"coordinates": [-92.1012492907, 34.70179538], "type": "Point"}, "id": "8-5D_0vCeTN0sbkiNFJPN78msQc=", "properties": {"@spider": "usps_collection_boxes", "addr:city": "SCOTT", "addr:country": "US", "addr:full": "14918 ALEXANDER RD", "addr:postcode": "72142", "addr:state": "AR", "brand": "USPS", "brand:wikidata": "Q668687", "collection_times": "Mo-Fr 14:15; Sa 10:30", "name": "USPS COLLECTION BOX - BLUE BOX", "note": "ON 12/24 AND 12/31, THIS BOX MAY BE COLLECTED AS EARLY AS 12 NOON.", "ref": "7214200001"}, "type": "Feature"}
{"geometry": {"coordinates": [-92.101243004, 34.70178901], "type": "Point"}, "id": "10wMH9PwqauGPqsItmL-gcF548I=", "properties": {"@spider": "usps_collection_boxes", "addr:city": "SCOTT", "addr:country": "US", "addr:full": "14918 ALEXANDER RD", "addr:postcode": "72142", "addr:state": "AR", "brand": "USPS", "brand:wikidata": "Q668687", "collection_times": "Mo-Fr 14:15; Sa 10:30", "name": "USPS COLLECTION BOX - PO LOBBY", "note": "ON 12/24 AND 12/31, THIS BOX MAY BE COLLECTED AS EARLY AS 12 NOON.", "ref": "7214200002"}, "type": "Feature"}
{"geometry": {"coordinates": [-92.101243004, 34.70178901], "type": "Point"}, "id": "C-lvSQAv-kHoYZRBC9NOVe-Nx9E=", "properties": {"@spider": "usps_collection_boxes", "addr:city": "SCOTT", "addr:country": "US", "addr:full": "14918 ALEXANDER RD", "addr:postcode": "72142", "addr:state": "AR", "brand": "USPS", "brand:wikidata": "Q668687", "collection_times": "Mo-Fr 14:15; Sa 10:30", "name": "USPS COLLECTION BOX - PO LOBBY", "note": "ON 12/24 AND 12/31, THIS BOX MAY BE COLLECTED AS EARLY AS 12 NOON.", "ref": "7214200003"}, "type": "Feature"}
{"geometry": {"coordinates": [-92.101243004, 34.70178901], "type": "Point"}, "id": "UDrKUyixhikBxTkcUPzAxMlqs_c=", "properties": {"@spider": "usps_collection_boxes", "addr:city": "SCOTT", "addr:country": "US", "addr:full": "14918 ALEXANDER RD", "addr:postcode": "72142", "addr:state": "AR", "brand": "USPS", "brand:wikidata": "Q668687", "collection_times": "Mo-Fr 14:30; Sa 10:30", "name": "USPS COLLECTION BOX - PO LOBBY", "note": "ON 12/24 AND 12/31, THIS BOX MAY BE COLLECTED AS EARLY AS 12 NOON.", "ref": "7214200006"}, "type": "Feature"}
{"geometry": {"coordinates": [-91.742979167, 35.252621115], "type": "Point"}, "id": "IGAiiO6Q-gm3m0uvOqz5ev--K-4=", "properties": {"@spider": "usps_collection_boxes", "addr:city": "SEARCY", "addr:country": "US", "addr:full": "600 W ACADEMY AVE", "addr:postcode": "72143", "addr:state": "AR", "brand": "USPS", "brand:wikidata": "Q668687", "collection_times": "Mo-Fr 17:00; Sa 12:00", "name": "USPS COLLECTION BOX - BLUE BOX", "note": "ON 12/24 AND 12/31, THIS BOX MAY BE COLLECTED AS EARLY AS 12 NOON.", "ref": "7214300001"}, "type": "Feature"}
{"geometry": {"coordinates": [-91.7385931, 35.251215], "type": "Point"}, "id": "Lf7aXT9n6Zh2-wra1_8RftXh7fM=", "properties": {"@spider": "usps_collection_boxes", "addr:city": "SEARCY", "addr:country": "US", "addr:full": "411 N SPRUCE ST", "addr:postcode": "72143", "addr:state": "AR", "brand": "USPS", "brand:wikidata": "Q668687", "collection_times": "Mo-Sa 11:00", "name": "USPS COLLECTION BOX - BLUE BOX", "ref": "7214300002"}, "type": "Feature"}
{"geometry": {"coordinates": [-91.7326757, 35.23583], "type": "Point"}, "id": "zb8NekHYJ8C6kMSzOUwZ7bonPyk=", "properties": {"@spider": "usps_collection_boxes", "addr:city": "SEARCY", "addr:country": "US", "addr:full": "1118 S MAIN ST", "addr:postcode": "72143", "addr:state": "AR", "brand": "USPS", "brand:wikidata": "Q668687", "collection_times": "Mo-Sa 11:00", "name": "USPS COLLECTION BOX - BLUE BOX", "ref": "7214300003"}, "type": "Feature"}
{"geometry": {"coordinates": [-91.7603685, 35.246974], "type": "Point"}, "id": "gYFNBfU__t0Lro_odLrAq1JCHEs=", "properties": {"@spider": "usps_collection_boxes", "addr:city": "SEARCY", "addr:country": "US", "addr:full": "2005 W BEEBE CAPPS EXPY", "addr:postcode": "72143", "addr:state": "AR", "brand": "USPS", "brand:wikidata": "Q668687", "collection_times": "Mo-Sa 13:00", "name": "USPS COLLECTION BOX - BLUE BOX", "note": "ON 12/24 AND 12/31, THIS BOX MAY BE COLLECTED AS EARLY AS 12 NOON.", "ref": "7214300005"}, "type": "Feature"}
{"geometry": {"coordinates": [-91.7384571, 35.250469], "type": "Point"}, "id": "uBvIOYvCjO7AzJuxnGl8WXuzKas=", "properties": {"@spider": "usps_collection_boxes", "addr:city": "SEARCY", "addr:country": "US", "addr:full": "300 N SPRUCE ST", "addr:postcode": "72143", "addr:state": "AR", "brand": "USPS", "brand:wikidata": "Q668687", "collection_times": "Mo-Fr 11:00; Sa 10:30", "name": "USPS COLLECTION BOX - BLUE BOX", "ref": "7214300010"}, "type": "Feature"}
{"geometry": {"coordinates": [-91.768401, 35.246772], "type": "Point"}, "id": "yFMfN6L3_mh3BS7EbmvV7nnsREI=", "properties": {"@spider": "usps_collection_boxes", "addr:city": "SEARCY", "addr:country": "US", "addr:full": "2307 W BEEBE CAPPS EXPY", "addr:postcode": "72143", "addr:state": "AR", "brand": "USPS", "brand:wikidata": "Q668687", "collection_times": "Mo-Sa 13:00", "name": "USPS COLLECTION BOX - BLUE BOX", "note": "ON 12/24 AND 12/31, THIS BOX MAY BE COLLECTED AS EARLY AS 12 NOON.", "ref": "7214300014"}, "type": "Feature"}
{"geometry": {"coordinates": [-91.7043364, 35.25171], "type": "Point"}, "id": "9LXiHluyQicfcIBEi4Z1EnyI0Og=", "properties": {"@spider": "usps_collection_boxes", "addr:city": "SEARCY", "addr:country": "US", "addr:full": "2900 HAWKINS DR", "addr:postcode": "72143", "addr:state": "AR", "brand": "USPS", "brand:wikidata": "Q668687", "collection_times": "Mo-Sa 11:00", "name": "USPS COLLECTION BOX - BLUE BOX", "ref": "7214300015"}, "type": "Feature"}
{"geometry": {"coordinates": [-91.742979167, 35.252621115], "type": "Point"}, "id": "fXev6UMS3TAAlxOO7KFa2E4USqA=", "properties": {"@spider": "usps_collection_boxes", "addr:city": "SEARCY", "addr:country": "US", "addr:full": "600 W ACADEMY AVE", "addr:postcode": "72143", "addr:state": "AR", "brand": "USPS", "brand:wikidata": "Q668687", "collection_times": "Mo-Fr 17:00; Sa 12:00", "name": "USPS COLLECTION BOX - BLUE BOX", "note": "ON 12/24 AND 12/31, THIS BOX MAY BE COLLECTED AS EARLY AS 12 NOON.", "ref": "7214300031"}, "type": "Feature"}
{"geometry": {"coordinates": [-91.7208704, 35.250279], "type": "Point"}, "id": "nZf8qlX5dg-wCcbq3UEZjf-GkfQ=", "properties": {"@spider": "usps_collection_boxes", "addr:city": "SEARCY", "addr:country": "US", "addr:full": "1501 E RACE AVE", "addr:postcode": "72143", "addr:state": "AR", "brand": "USPS", "brand:wikidata": "Q668687", "collection_times": "Mo-Sa 11:00", "name": "USPS COLLECTION BOX - BLUE BOX", "ref": "7214300033"}, "type": "Feature"}
{"geometry": {"coordinates": [-91.742979167, 35.252621115], "type": "Point"}, "id": "8FMZLc-F4OVSE-_Oj5skbgZzzus=", "properties": {"@spider": "usps_collection_boxes", "addr:city": "SEARCY", "addr:country": "US", "addr:full": "600 W ACADEMY AVE", "addr:postcode": "72143", "addr:state": "AR", "brand": "USPS", "brand:wikidata": "Q668687", "collection_times": "Mo-Fr 17:00; Sa 12:00", "name": "USPS COLLECTION BOX - PO LOBBY", "note": "ON 12/24 AND 12/31, THIS BOX MAY BE COLLECTED AS EARLY AS 12 NOON.", "ref": "7214300037"}, "type": "Feature"}
{"geometry": {"coordinates": [-91.706441, 35.250492], "type": "Point"}, "id": "dwMpoORiCIkVV7kCPCTYd82u1tE=", "properties": {"@spider": "usps_collection_boxes", "addr:city": "SEARCY", "addr:country": "US", "addr:full": "2701 E RACE AVE", "addr:postcode": "72143", "addr:state": "AR", "brand": "USPS", "brand:wikidata": "Q668687", "collection_times": "Mo-Sa 16:30", "name": "USPS COLLECTION BOX - BLUE BOX", "note": "ON 12/24 AND 12/31, THIS BOX MAY BE COLLECTED AS EARLY AS 12 NOON.", "ref": "7214300041"}, "type": "Feature"}
{"geometry": {"coordinates": [-91.742979167, 35.252621115], "type": "Point"}, "id": "kkKAXDaTfC7zAFXa4KaDbQNwTMI=", "properties": {"@spider": "usps_collection_boxes", "addr:city": "SEARCY", "addr:country": "US", "addr:full": "600 W ACADEMY AVE", "addr:postcode": "72143", "addr:state": "AR", "brand": "USPS", "brand:wikidata": "Q668687", "collection_times": "Mo-Fr 17:00; Sa 12:00", "name": "USPS COLLECTION BOX - PO LOBBY", "note": "ON 12/24 AND 12/31, THIS BOX MAY BE COLLECTED AS EARLY AS 12 NOON.", "ref": "7214300045"}, "type": "Feature"}
{"geometry": {"coordinates": [-92.401960042, 34.304209987], "type": "Point"}, "id": "v4YxCLRMtTpfLhIofWrS7YYrKoE=", "properties": {"@spider": "usps_collection_boxes", "addr:city": "SHERIDAN", "addr:country": "US", "addr:full": "313 S OAK ST", "addr:postcode": "72150", "addr:state": "AR", "brand": "USPS", "brand:wikidata": "Q668687", "collection_times": "Mo-Fr 16:45; Sa 15:30", "name": "USPS COLLECTION BOX - BLUE BOX", "note": "ON 12/24 AND 12/31, THIS BOX MAY BE COLLECTED AS EARLY AS 12 NOON.", "ref": "7215000001"}, "type": "Feature"}
{"geometry": {"coordinates": [-92.401960042, 34.304209987], "type": "Point"}, "id": "qhBbePSXPEqLmNS-z659cBvbAX8=", "properties": {"@spider": "usps_collection_boxes", "addr:city": "SHERIDAN", "addr:country": "US", "addr:full": "313 S OAK ST", "addr:postcode": "72150", "addr:state": "AR", "brand": "USPS", "brand:wikidata": "Q668687", "collection_times": "Mo-Fr 16:45; Sa 15:30", "name": "USPS COLLECTION BOX - PO LOBBY", "note": "ON 12/24 AND 12/31, THIS BOX MAY BE COLLECTED AS EARLY AS 12 NOON.", "ref": "7215000002"}, "type": "Feature"}
{"geometry": {"coordinates": [-92.401960042, 34.304209987], "type": "Point"}, "id": "cSE1NkUXq4f-vKh1kss44X0lWuM=", "properties": {"@spider": "usps_collection_boxes", "addr:city": "SHERIDAN", "addr:country": "US", "addr:full": "313 S OAK ST", "addr:postcode": "72150", "addr:state": "AR", "brand": "USPS", "brand:wikidata": "Q668687", "collection_times": "Mo-Fr 16:45; Sa 15:30", "name": "USPS COLLECTION BOX - BLUE BOX", "note": "ON 12/24 AND 12/31, THIS BOX MAY BE COLLECTED AS EARLY AS 12 NOON.", "ref": "7215000003"}, "type": "Feature"}
{"geometry": {"coordinates": [-92.401960042, 34.304209987], "type": "Point"}, "id": "6ctjRPDwZKpc6vRkWla7M1FfJMg=", "properties": {"@spider": "usps_collection_boxes", "addr:city": "SHERIDAN", "addr:country": "US", "addr:full": "313 S OAK ST", "addr:postcode": "72150", "addr:state": "AR", "brand": "USPS", "brand:wikidata": "Q668687", "collection_times": "Mo-Fr 16:45; Sa 15:30", "name": "USPS COLLECTION BOX - PO LOBBY", "note": "ON 12/24 AND 12/31, THIS BOX MAY BE COLLECTED AS EARLY AS 12 NOON.", "ref": "7215000004"}, "type": "Feature"}
{"geometry": {"coordinates": [-92.401960042, 34.304209987], "type": "Point"}, "id": "2kZK50Ubl-8wT5M1iCPf7rYOhr4=", "properties": {"@spider": "usps_collection_boxes", "addr:city": "SHERIDAN", "addr:country": "US", "addr:full": "313 S OAK ST", "addr:postcode": "72150", "addr:state": "AR", "brand": "USPS", "brand:wikidata": "Q668687", "collection_times": "Mo-Fr 16:45", "name": "USPS COLLECTION BOX - PO LOBBY", "note": "ON 12/24 AND 12/31, THIS BOX MAY BE COLLECTED AS EARLY AS 12 NOON.", "ref": "7215000007"}, "type": "Feature"}
{"geometry": {"coordinates": [-91.951403302, 34.384685809], "type": "Point"}, "id": "8pdgg5y8Ci52JYD40Q4s3cxXeDo=", "properties": {"@spider": "usps_collection_boxes", "addr:city": "SHERRILL", "addr:country": "US", "addr:full": "114 E MAIN ST", "addr:postcode": "72152", "addr:state": "AR", "brand": "USPS", "brand:wikidata": "Q668687", "collection_times": "Mo-Fr 11:30; Sa 09:30", "name": "USPS COLLECTION BOX - BLUE BOX", "ref": "7215200001"}, "type": "Feature"}
{"geometry": {"coordinates": [-91.951403302, 34.384685809], "type": "Point"}, "id": "vFk5wYQhRErq0BrZP0D7BvXCpKc=", "properties": {"@spider": "usps_collection_boxes", "addr:city": "SHERRILL", "addr:country": "US", "addr:full": "114 E MAIN ST", "addr:postcode": "72152", "addr:state": "AR", "brand": "USPS", "brand:wikidata": "Q668687", "collection_times": "Mo-Fr 11:30; Sa 09:30", "name": "USPS COLLECTION BOX - PO LOBBY", "ref": "7215200002"}, "type": "Feature"}
{"geometry": {"coordinates": [-91.951403302, 34.384685809], "type": "Point"}, "id": "GOcvKIVALiVIfvCXdt6xbja-OOs=", "properties": {"@spider": "usps_collection_boxes", "addr:city": "SHERRILL", "addr:country": "US", "addr:full": "114 E MAIN ST", "addr:postcode": "72152", "addr:state": "AR", "brand": "USPS", "brand:wikidata": "Q668687", "collection_times": "Mo-Fr 11:30; Sa 09:30", "name": "USPS COLLECTION BOX - PO LOBBY", "ref": "7215200003"}, "type": "Feature"}
{"geometry": {"coordinates": [-91.951403302, 34.384685809], "type": "Point"}, "id": "J0JpGfv_vPWIeiI_HAPjgT4ZRsk=", "properties": {"@spider": "usps_collection_boxes", "addr:city": "SHERRILL", "addr:country": "US", "addr:full": "114 E MAIN ST", "addr:postcode": "72152", "addr:state": "AR", "brand": "USPS", "brand:wikidata": "Q668687", "collection_times": "Mo-Fr 12:00; Sa 09:45", "name": "USPS COLLECTION BOX - PO LOBBY", "ref": "7215200004"}, "type": "Feature"}
{"geometry": {"coordinates": [-92.3196087, 35.65796], "type": "Point"}, "id": "-6uBorXL3iBeF-R9C-i4vLBAzrI=", "properties": {"@spider": "usps_collection_boxes", "addr:city": "SHIRLEY", "addr:country": "US", "addr:full": "239 SAM ST", "addr:postcode": "72153", "addr:state": "AR", "brand": "USPS", "brand:wikidata": "Q668687", "collection_times": "Mo-Fr 15:45; Sa 10:15", "name": "USPS COLLECTION BOX - PO LOBBY", "note": "ON 12/24 AND 12/31, THIS BOX MAY BE COLLECTED AS EARLY AS 12 NOON.", "ref": "7215300001"}, "type": "Feature"}
{"geometry": {"coordinates": [-92.3196143, 35.657948], "type": "Point"}, "id": "BBZCus8ZbuNgpTUp5jwN8ZfNSb4=", "properties": {"@spider": "usps_collection_boxes", "addr:city": "SHIRLEY", "addr:country": "US", "addr:full": "239 SAM ST", "addr:postcode": "72153", "addr:state": "AR", "brand": "USPS", "brand:wikidata": "Q668687", "collection_times": "Mo-Fr 15:45; Sa 10:15", "name": "USPS COLLECTION BOX - PO LOBBY", "note": "ON 12/24 AND 12/31, THIS BOX MAY BE COLLECTED AS EARLY AS 12 NOON.", "ref": "7215300009"}, "type": "Feature"}
{"geometry": {"coordinates": [-92.3193735, 35.657949], "type": "Point"}, "id": "jywC3D97X12LCmhU9CgFQbFfucE=", "properties": {"@spider": "usps_collection_boxes", "addr:city": "SHIRLEY", "addr:country": "US", "addr:full": "239 SAM ST", "addr:postcode": "72153", "addr:state": "AR", "brand": "USPS", "brand:wikidata": "Q668687", "collection_times": "Mo-Fr 15:45; Sa 10:15", "name": "USPS COLLECTION BOX - BLUE BOX", "note": "ON 12/24 AND 12/31, THIS BOX MAY BE COLLECTED AS EARLY AS 12 NOON.", "ref": "7215300010"}, "type": "Feature"}
{"geometry": {"coordinates": [-92.2618311014, 35.6124228679], "type": "Point"}, "id": "Vh_WXD-aRYvWoTTItvlW-ciNogA=", "properties": {"@spider": "usps_collection_boxes", "addr:city": "SHIRLEY", "addr:country": "US", "addr:full": "107 VILLAGE PL", "addr:postcode": "72153", "addr:state": "AR", "brand": "USPS", "brand:wikidata": "Q668687", "collection_times": "Mo-Fr 13:00; Sa 09:30", "name": "USPS COLLECTION BOX - BLUE BOX", "note": "ON 12/24 AND 12/31, THIS BOX MAY BE COLLECTED AS EARLY AS 12 NOON.", "ref": "7215300011"}, "type": "Feature"}
{"geometry": {"coordinates": [-92.31929786, 35.657937335], "type": "Point"}, "id": "kHvDh4QDsBxavwXaVhMgrMies2s=", "properties": {"@spider": "usps_collection_boxes", "addr:city": "SHIRLEY", "addr:country": "US", "addr:full": "239 SAM ST", "addr:postcode": "72153", "addr:state": "AR", "brand": "USPS", "brand:wikidata": "Q668687", "collection_times": "Mo-Fr 16:00", "name": "USPS COLLECTION BOX - PO LOBBY", "note": "ON 12/24 AND 12/31, THIS BOX MAY BE COLLECTED AS EARLY AS 12 NOON.", "ref": "7215300012"}, "type": "Feature"}
{"geometry": {"coordinates": [-92.677239, 35.250962], "type": "Point"}, "id": "K0D2td091nISeZVrRPPSQUSUMlo=", "properties": {"@spider": "usps_collection_boxes", "addr:city": "SOLGOHACHIA", "addr:country": "US", "addr:full": "3142 HIGHWAY 9", "addr:postcode": "72156", "addr:state": "AR", "brand": "USPS", "brand:wikidata": "Q668687", "collection_times": "Mo-Fr 11:30; Sa 11:45", "name": "USPS COLLECTION BOX - BLUE BOX", "ref": "7215600001"}, "type": "Feature"}
{"geometry": {"coordinates": [-92.677239, 35.250962], "type": "Point"}, "id": "aH04SpxySkbkqoUPNyTc4lSULA4=", "properties": {"@spider": "usps_collection_boxes", "addr:city": "SOLGOHACHIA", "addr:country": "US", "addr:full": "3142 HIGHWAY 9", "addr:postcode": "72156", "addr:state": "AR", "brand": "USPS", "brand:wikidata": "Q668687", "collection_times": "Mo-Fr 11:30; Sa 11:45", "name": "USPS COLLECTION BOX - PO LOBBY", "ref": "7215600002"}, "type": "Feature"}
{"geometry": {"coordinates": [-92.677239, 35.250962], "type": "Point"}, "id": "3IKOMljUq7XcADvycO8Lp2bYLBA=", "properties": {"@spider": "usps_collection_boxes", "addr:city": "SOLGOHACHIA", "addr:country": "US", "addr:full": "3142 HIGHWAY 9", "addr:postcode": "72156", "addr:state": "AR", "brand": "USPS", "brand:wikidata": "Q668687", "collection_times": "Mo-Fr 11:30; Sa 11:45", "name": "USPS COLLECTION BOX - PO LOBBY", "ref": "7215600003"}, "type": "Feature"}
{"geometry": {"coordinates": [-92.676157511, 35.25613672], "type": "Point"}, "id": "sDMZWpgrWC-lZoDn01863RtSUNE=", "properties": {"@spider": "usps_collection_boxes", "addr:city": "SOLGOHACHIA", "addr:country": "US", "addr:full": "3142 HIGHWAY 9", "addr:postcode": "72156", "addr:state": "AR", "brand": "USPS", "brand:wikidata": "Q668687", "collection_times": "Mo-Sa 12:00", "name": "USPS COLLECTION BOX - PO LOBBY", "ref": "7215600004"}, "type": "Feature"}
{"geometry": {"coordinates": [-92.5599241, 35.267805], "type": "Point"}, "id": "X_s7encGFpfe-wKFj6BrtgNsIiw=", "properties": {"@spider": "usps_collection_boxes", "addr:city": "SPRINGFIELD", "addr:country": "US", "addr:full": "765 STAGECOACH RD", "addr:postcode": "72157", "addr:state": "AR", "brand": "USPS", "brand:wikidata": "Q668687", "collection_times": "Mo-Fr 11:00; Sa 10:00", "name": "USPS COLLECTION BOX - BLUE BOX", "ref": "7215700001"}, "type": "Feature"}
{"geometry": {"coordinates": [-92.560295, 35.267536], "type": "Point"}, "id": "ABVkBT8UzwE3p_2EwcEdtzW0RJc=", "properties": {"@spider": "usps_collection_boxes", "addr:city": "SPRINGFIELD", "addr:country": "US", "addr:full": "765 STAGECOACH RD", "addr:postcode": "72157", "addr:state": "AR", "brand": "USPS", "brand:wikidata": "Q668687", "collection_times": "Mo-Fr 11:00; Sa 10:00", "name": "USPS COLLECTION BOX - PO LOBBY", "ref": "7215700002"}, "type": "Feature"}
{"geometry": {"coordinates": [-92.560295, 35.267536], "type": "Point"}, "id": "8fkgeTOXOT7C2UXDbgMJxQEh4Tk=", "properties": {"@spider": "usps_collection_boxes", "addr:city": "SPRINGFIELD", "addr:country": "US", "addr:full": "765 STAGECOACH RD", "addr:postcode": "72157", "addr:state": "AR", "brand": "USPS", "brand:wikidata": "Q668687", "collection_times": "Mo-Fr 11:00; Sa 10:00", "name": "USPS COLLECTION BOX - PO LOBBY", "ref": "7215700003"}, "type": "Feature"}
{"geometry": {"coordinates": [-92.560295347, 35.267535092], "type": "Point"}, "id": "g-ovM2hDURIESjNzzEq16gD6pxQ=", "properties": {"@spider": "usps_collection_boxes", "addr:city": "SPRINGFIELD", "addr:country": "US", "addr:full": "765 STAGECOACH RD", "addr:postcode": "72157", "addr:state": "AR", "brand": "USPS", "brand:wikidata": "Q668687", "collection_times": "Mo-Fr 11:30; Sa 10:00", "name": "USPS COLLECTION BOX - PO LOBBY", "ref": "7215700006"}, "type": "Feature"}
{"geometry": {"coordinates": [-91.558479763, 34.481035425], "type": "Point"}, "id": "csIyMBq1BlxkuQLtIWP6DipaDVI=", "properties": {"@spider": "usps_collection_boxes", "addr:city": "STUTTGART", "addr:country": "US", "addr:full": "2100 S BUERKLE ST", "addr:postcode": "72160", "addr:state": "AR", "brand": "USPS", "brand:wikidata": "Q668687", "collection_times": "Mo-Sa 12:30", "name": "USPS COLLECTION BOX - BLUE BOX", "note": "ON 12/24 AND 12/31, THIS BOX MAY BE COLLECTED AS EARLY AS 12 NOON.", "ref": "7216000002"}, "type": "Feature"}
{"geometry": {"coordinates": [-91.554969983, 34.510030008], "type": "Point"}, "id": "8pZZKprpKD15Q7S4pC5agpnG3eg=", "properties": {"@spider": "usps_collection_boxes", "addr:city": "STUTTGART", "addr:country": "US", "addr:full": "304 W MICHIGAN ST", "addr:postcode": "72160", "addr:state": "AR", "brand": "USPS", "brand:wikidata": "Q668687", "collection_times": "Mo-Fr 17:00; Sa 16:30", "name": "USPS COLLECTION BOX - BLUE BOX", "note": "ON 12/24 AND 12/31, THIS BOX MAY BE COLLECTED AS EARLY AS 12 NOON.", "ref": "7216000014"}, "type": "Feature"}
{"geometry": {"coordinates": [-91.554969983, 34.510030008], "type": "Point"}, "id": "_LVYcfftYdX9TZubANmXj60SZCw=", "properties": {"@spider": "usps_collection_boxes", "addr:city": "STUTTGART", "addr:country": "US", "addr:full": "304 W MICHIGAN ST", "addr:postcode": "72160", "addr:state": "AR", "brand": "USPS", "brand:wikidata": "Q668687", "collection_times": "Mo-Fr 17:00; Sa 16:30", "name": "USPS COLLECTION BOX - BLUE BOX", "note": "ON 12/24 AND 12/31, THIS BOX MAY BE COLLECTED AS EARLY AS 12 NOON.", "ref": "7216000015"}, "type": "Feature"}
{"geometry": {"coordinates": [-91.554969983, 34.510030008], "type": "Point"}, "id": "fd-N9FjMRFt40orngeD--ML1fUg=", "properties": {"@spider": "usps_collection_boxes", "addr:city": "STUTTGART", "addr:country": "US", "addr:full": "304 W MICHIGAN ST", "addr:postcode": "72160", "addr:state": "AR", "brand": "USPS", "brand:wikidata": "Q668687", "collection_times": "Mo-Fr 17:00; Sa 16:30", "name": "USPS COLLECTION BOX - PO LOBBY", "note": "ON 12/24 AND 12/31, THIS BOX MAY BE COLLECTED AS EARLY AS 12 NOON.", "ref": "7216000017"}, "type": "Feature"}
{"geometry": {"coordinates": [-91.554969983, 34.510030008], "type": "Point"}, "id": "vsoZ0LDeJclCZVhSYHB3avgV4zU=", "properties": {"@spider": "usps_collection_boxes", "addr:city": "STUTTGART", "addr:country": "US", "addr:full": "304 W MICHIGAN ST", "addr:postcode": "72160", "addr:state": "AR", "brand": "USPS", "brand:wikidata": "Q668687", "collection_times": "Mo-Fr 17:00; Sa 16:30", "name": "USPS COLLECTION BOX - PO LOBBY", "note": "ON 12/24 AND 12/31, THIS BOX MAY BE COLLECTED AS EARLY AS 12 NOON.", "ref": "7216000018"}, "type": "Feature"}
{"geometry": {"coordinates": [-91.554969983, 34.510030008], "type": "Point"}, "id": "gP-uCrdJ9NHMvTCo8JLrobXA2_k=", "properties": {"@spider": "usps_collection_boxes", "addr:city": "STUTTGART", "addr:country": "US", "addr:full": "304 W MICHIGAN ST", "addr:postcode": "72160", "addr:state": "AR", "brand": "USPS", "brand:wikidata": "Q668687", "collection_times": "Mo-Fr 17:00; Sa 16:30", "name": "USPS COLLECTION BOX - PO LOBBY", "note": "ON 12/24 AND 12/31, THIS BOX MAY BE COLLECTED AS EARLY AS 12 NOON.", "ref": "7216000019"}, "type": "Feature"}
{"geometry": {"coordinates": [-91.5538610594, 34.5001510764], "type": "Point"}, "id": "8ZIupokkaD-AoMvCn6mzfltoBS0=", "properties": {"@spider": "usps_collection_boxes", "addr:city": "STUTTGART", "addr:country": "US", "addr:full": "304 S MAPLE ST", "addr:postcode": "72160", "addr:state": "AR", "brand": "USPS", "brand:wikidata": "Q668687", "collection_times": "Mo-Sa 10:00", "name": "USPS COLLECTION BOX - BLUE BOX", "ref": "7216000023"}, "type": "Feature"}
{"geometry": {"coordinates": [-91.554969983, 34.510030008], "type": "Point"}, "id": "NExL-tdRaBbxQSpPoT69uceIeaA=", "properties": {"@spider": "usps_collection_boxes", "addr:city": "STUTTGART", "addr:country": "US", "addr:full": "304 W MICHIGAN ST", "addr:postcode": "72160", "addr:state": "AR", "brand": "USPS", "brand:wikidata": "Q668687", "collection_times": "Mo-Fr 17:00; Sa 12:00", "name": "USPS COLLECTION BOX - PO LOBBY", "note": "ON 12/24 AND 12/31, THIS BOX MAY BE COLLECTED AS EARLY AS 12 NOON.", "ref": "7216000025"}, "type": "Feature"}
{"geometry": {"coordinates": [-92.23787096, 34.685799021], "type": "Point"}, "id": "bBPZYjvCKSQIlisdX6zBn4Z9gBE=", "properties": {"@spider": "usps_collection_boxes", "addr:city": "SWEET HOME", "addr:country": "US", "addr:full": "7010 HIGHWAY 365 S", "addr:postcode": "72164", "addr:state": "AR", "brand": "USPS", "brand:wikidata": "Q668687", "collection_times": "Mo-Fr 16:00; Sa 11:15", "name": "USPS COLLECTION BOX - PO LOBBY", "note": "ON 12/24 AND 12/31, THIS BOX MAY BE COLLECTED AS EARLY AS 12 NOON.", "ref": "7216400002"}, "type": "Feature"}
{"geometry": {"coordinates": [-92.23787096, 34.685799021], "type": "Point"}, "id": "6xVrwZ2-m7WMMinIHueuiQl2cdY=", "properties": {"@spider": "usps_collection_boxes", "addr:city": "SWEET HOME", "addr:country": "US", "addr:full": "7010 HIGHWAY 365 S", "addr:postcode": "72164", "addr:state": "AR", "brand": "USPS", "brand:wikidata": "Q668687", "collection_times": "Mo-Fr 16:00; Sa 11:15", "name": "USPS COLLECTION BOX - PO LOBBY", "note": "ON 12/24 AND 12/31, THIS BOX MAY BE COLLECTED AS EARLY AS 12 NOON.", "ref": "7216400004"}, "type": "Feature"}
{"geometry": {"coordinates": [-92.23787096, 34.685799021], "type": "Point"}, "id": "XXojTV6s84Y8dvlnbS0WAgDhmy4=", "properties": {"@spider": "usps_collection_boxes", "addr:city": "SWEET HOME", "addr:country": "US", "addr:full": "7010 HIGHWAY 365 S", "addr:postcode": "72164", "addr:state": "AR", "brand": "USPS", "brand:wikidata": "Q668687", "collection_times": "Mo-Fr 16:15; Sa 11:00", "name": "USPS COLLECTION BOX - PO LOBBY", "note": "ON 12/24 AND 12/31, THIS BOX MAY BE COLLECTED AS EARLY AS 12 NOON.", "ref": "7216400007"}, "type": "Feature"}
{"geometry": {"coordinates": [-91.4785582827, 35.571447898], "type": "Point"}, "id": "ESQWpEukW-VzDTiDQ9JpiqPdSN8=", "properties": {"@spider": "usps_collection_boxes", "addr:city": "THIDA", "addr:country": "US", "addr:full": "999 THIDA RD", "addr:postcode": "72165", "addr:state": "AR", "brand": "USPS", "brand:wikidata": "Q668687", "collection_times": "Mo-Sa 11:00", "name": "USPS COLLECTION BOX - PO LOBBY", "ref": "7216500001"}, "type": "Feature"}
{"geometry": {"coordinates": [-91.478558283, 35.571447898], "type": "Point"}, "id": "r5fu1h6lXRHawou2H-ZpzfSdQ0Y=", "properties": {"@spider": "usps_collection_boxes", "addr:city": "THIDA", "addr:country": "US", "addr:full": "999 THIDA RD", "addr:postcode": "72165", "addr:state": "AR", "brand": "USPS", "brand:wikidata": "Q668687", "collection_times": "Mo-Sa 11:00", "name": "USPS COLLECTION BOX - PO LOBBY", "ref": "7216500003"}, "type": "Feature"}
{"geometry": {"coordinates": [-91.266721934, 34.137879755], "type": "Point"}, "id": "w4Hry_IE4haQOnFgKqmMyUMm0_s=", "properties": {"@spider": "usps_collection_boxes", "addr:city": "TICHNOR", "addr:country": "US", "addr:full": "1002 HIGHWAY 44", "addr:postcode": "72166", "addr:state": "AR", "brand": "USPS", "brand:wikidata": "Q668687", "collection_times": "Mo-Fr 14:15; Sa 12:30", "name": "USPS COLLECTION BOX - BLUE BOX", "note": "ON 12/24 AND 12/31, THIS BOX MAY BE COLLECTED AS EARLY AS 12 NOON.", "ref": "7216600001"}, "type": "Feature"}
{"geometry": {"coordinates": [-91.266721934, 34.137879755], "type": "Point"}, "id": "xd35hsuduQJiCoP_MH7R_H0JBMQ=", "properties": {"@spider": "usps_collection_boxes", "addr:city": "TICHNOR", "addr:country": "US", "addr:full": "1002 HIGHWAY 44", "addr:postcode": "72166", "addr:state": "AR", "brand": "USPS", "brand:wikidata": "Q668687", "collection_times": "Mo-Fr 14:15; Sa 12:30", "name": "USPS COLLECTION BOX - PO LOBBY", "note": "ON 12/24 AND 12/31, THIS BOX MAY BE COLLECTED AS EARLY AS 12 NOON.", "ref": "7216600002"}, "type": "Feature"}
{"geometry": {"coordinates": [-91.266721934, 34.137879755], "type": "Point"}, "id": "Y1m97mrC4vTjPASneVUy0TuAREc=", "properties": {"@spider": "usps_collection_boxes", "addr:city": "TICHNOR", "addr:country": "US", "addr:full": "1002 HIGHWAY 44", "addr:postcode": "72166", "addr:state": "AR", "brand": "USPS", "brand:wikidata": "Q668687", "collection_times": "Mo-Fr 14:30; Sa 12:45", "name": "USPS COLLECTION BOX - PO LOBBY", "note": "ON 12/24 AND 12/31, THIS BOX MAY BE COLLECTED AS EARLY AS 12 NOON.", "ref": "7216600004"}, "type": "Feature"}
{"geometry": {"coordinates": [-92.65086996, 34.464517992], "type": "Point"}, "id": "Krng9WVSindbZIFS79M4JG-uJT4=", "properties": {"@spider": "usps_collection_boxes", "addr:city": "TRASKWOOD", "addr:country": "US", "addr:full": "8108 HIGHWAY 229", "addr:postcode": "72167", "addr:state": "AR", "brand": "USPS", "brand:wikidata": "Q668687", "collection_times": "Mo-Fr 11:30; Sa 10:00", "name": "USPS COLLECTION BOX - BLUE BOX", "ref": "7216700001"}, "type": "Feature"}
{"geometry": {"coordinates": [-92.65086996, 34.464517992], "type": "Point"}, "id": "eOjNrfezMhLa1ecwMfksvFryZnU=", "properties": {"@spider": "usps_collection_boxes", "addr:city": "TRASKWOOD", "addr:country": "US", "addr:full": "8108 HIGHWAY 229", "addr:postcode": "72167", "addr:state": "AR", "brand": "USPS", "brand:wikidata": "Q668687", "collection_times": "Mo-Fr 11:30; Sa 10:00", "name": "USPS COLLECTION BOX - PO LOBBY", "ref": "7216700002"}, "type": "Feature"}
{"geometry": {"coordinates": [-92.65086996, 34.464517992], "type": "Point"}, "id": "xJ3ClbfF9qnKldBj7R6_nvmSVTE=", "properties": {"@spider": "usps_collection_boxes", "addr:city": "TRASKWOOD", "addr:country": "US", "addr:full": "8108 HIGHWAY 229", "addr:postcode": "72167", "addr:state": "AR", "brand": "USPS", "brand:wikidata": "Q668687", "collection_times": "Mo-Fr 11:30; Sa 10:00", "name": "USPS COLLECTION BOX - PO LOBBY", "ref": "7216700004"}, "type": "Feature"}
{"geometry": {"coordinates": [-91.955711959, 34.444197996], "type": "Point"}, "id": "hZAelVcmlMzhqjv0hoR8xeqhmKg=", "properties": {"@spider": "usps_collection_boxes", "addr:city": "TUCKER", "addr:country": "US", "addr:full": "100 JOE T HENSLEE RD", "addr:postcode": "72168", "addr:state": "AR", "brand": "USPS", "brand:wikidata": "Q668687", "collection_times": "Mo-Fr 15:30; Sa 10:30", "name": "USPS COLLECTION BOX - BLUE BOX", "note": "ON 12/24 AND 12/31, THIS BOX MAY BE COLLECTED AS EARLY AS 12 NOON.", "ref": "7216800001"}, "type": "Feature"}
{"geometry": {"coordinates": [-91.955711959, 34.444197996], "type": "Point"}, "id": "VL876eXJ_-HauUt4DL8CXgJWpnM=", "properties": {"@spider": "usps_collection_boxes", "addr:city": "TUCKER", "addr:country": "US", "addr:full": "100 JOE T HENSLEE RD", "addr:postcode": "72168", "addr:state": "AR", "brand": "USPS", "brand:wikidata": "Q668687", "collection_times": "Mo-Fr 15:30; Sa 10:30", "name": "USPS COLLECTION BOX - PO LOBBY", "note": "ON 12/24 AND 12/31, THIS BOX MAY BE COLLECTED AS EARLY AS 12 NOON.", "ref": "7216800002"}, "type": "Feature"}
{"geometry": {"coordinates": [-91.955711959, 34.444197996], "type": "Point"}, "id": "E4fdymCHudDPrFgRScn4FItvFyI=", "properties": {"@spider": "usps_collection_boxes", "addr:city": "TUCKER", "addr:country": "US", "addr:full": "100 JOE T HENSLEE RD", "addr:postcode": "72168", "addr:state": "AR", "brand": "USPS", "brand:wikidata": "Q668687", "collection_times": "Mo-Fr 15:30; Sa 10:30", "name": "USPS COLLECTION BOX - PO LOBBY", "note": "ON 12/24 AND 12/31, THIS BOX MAY BE COLLECTED AS EARLY AS 12 NOON.", "ref": "7216800003"}, "type": "Feature"}
{"geometry": {"coordinates": [-91.955711959, 34.444197996], "type": "Point"}, "id": "cKEo9hsG7GhnXjsmAJYpDsfhnKs=", "properties": {"@spider": "usps_collection_boxes", "addr:city": "TUCKER", "addr:country": "US", "addr:full": "100 JOE T HENSLEE RD", "addr:postcode": "72168", "addr:state": "AR", "brand": "USPS", "brand:wikidata": "Q668687", "collection_times": "Mo-Fr 15:30; Sa 10:30", "name": "USPS COLLECTION BOX - PO LOBBY", "note": "ON 12/24 AND 12/31, THIS BOX MAY BE COLLECTED AS EARLY AS 12 NOON.", "ref": "7216800004"}, "type": "Feature"}
{"geometry": {"coordinates": [-91.2303823125, 35.3911131349], "type": "Point"}, "id": "Rqrao5vP3ymVYey44S4hIJm-BrQ=", "properties": {"@spider": "usps_collection_boxes", "addr:city": "TUPELO", "addr:country": "US", "addr:full": "11220 HIGHWAY 17", "addr:postcode": "72169", "addr:state": "AR", "brand": "USPS", "brand:wikidata": "Q668687", "collection_times": "Mo-Fr 12:00; Sa 11:45", "name": "USPS COLLECTION BOX - BLUE BOX", "ref": "7216900001"}, "type": "Feature"}
{"geometry": {"coordinates": [-91.2303823125, 35.3911131349], "type": "Point"}, "id": "H7FQhdJ1W7vSE6Y9yZFk75cK19w=", "properties": {"@spider": "usps_collection_boxes", "addr:city": "TUPELO", "addr:country": "US", "addr:full": "11220 HIGHWAY 17", "addr:postcode": "72169", "addr:state": "AR", "brand": "USPS", "brand:wikidata": "Q668687", "collection_times": "Mo-Fr 12:00; Sa 11:45", "name": "USPS COLLECTION BOX - PO LOBBY", "ref": "7216900002"}, "type": "Feature"}
{"geometry": {"coordinates": [-91.230453334, 35.394891326], "type": "Point"}, "id": "aUjukmUtpjKhbfEPF6YlOk5bo1Q=", "properties": {"@spider": "usps_collection_boxes", "addr:city": "TUPELO", "addr:country": "US", "addr:full": "11220 HIGHWAY 17", "addr:postcode": "72169", "addr:state": "AR", "brand": "USPS", "brand:wikidata": "Q668687", "collection_times": "Mo-Sa 12:00", "name": "USPS COLLECTION BOX - PO LOBBY", "ref": "7216900003"}, "type": "Feature"}
{"geometry": {"coordinates": [-91.4612261911, 34.5749765563], "type": "Point"}, "id": "h5VLO0Dxf1AMt_Y6Dgs5m6JXp7g=", "properties": {"@spider": "usps_collection_boxes", "addr:city": "ULM", "addr:country": "US", "addr:full": "127 W 2ND ST", "addr:postcode": "72170", "addr:state": "AR", "brand": "USPS", "brand:wikidata": "Q668687", "collection_times": "Mo-Sa 15:30", "name": "USPS COLLECTION BOX - BLUE BOX", "note": "ON 12/24 AND 12/31, THIS BOX MAY BE COLLECTED AS EARLY AS 12 NOON.", "ref": "7217000001"}, "type": "Feature"}
{"geometry": {"coordinates": [-91.4612261911, 34.5749765563], "type": "Point"}, "id": "hYIR_lfeFJl-olVuSCDb2ILb-9A=", "properties": {"@spider": "usps_collection_boxes", "addr:city": "ULM", "addr:country": "US", "addr:full": "127 W 2ND ST", "addr:postcode": "72170", "addr:state": "AR", "brand": "USPS", "brand:wikidata": "Q668687", "collection_times": "Mo-Sa 15:30", "name": "USPS COLLECTION BOX - PO LOBBY", "note": "ON 12/24 AND 12/31, THIS BOX MAY BE COLLECTED AS EARLY AS 12 NOON.", "ref": "7217000002"}, "type": "Feature"}
{"geometry": {"coordinates": [-91.4612261911, 34.5749765563], "type": "Point"}, "id": "1ISTO4v-jCAF6EOv7Y4UtNQeh6A=", "properties": {"@spider": "usps_collection_boxes", "addr:city": "ULM", "addr:country": "US", "addr:full": "127 W 2ND ST", "addr:postcode": "72170", "addr:state": "AR", "brand": "USPS", "brand:wikidata": "Q668687", "collection_times": "Mo-Sa 15:30", "name": "USPS COLLECTION BOX - PO LOBBY", "note": "ON 12/24 AND 12/31, THIS BOX MAY BE COLLECTED AS EARLY AS 12 NOON.", "ref": "7217000003"}, "type": "Feature"}
{"geometry": {"coordinates": [-91.4612261911, 34.5749765563], "type": "Point"}, "id": "4rLk2Qp5cH4FqOsoeduI5rzaqjo=", "properties": {"@spider": "usps_collection_boxes", "addr:city": "ULM", "addr:country": "US", "addr:full": "127 W 2ND ST", "addr:postcode": "72170", "addr:state": "AR", "brand": "USPS", "brand:wikidata": "Q668687", "collection_times": "Mo-Sa 16:00", "name": "USPS COLLECTION BOX - PO LOBBY", "note": "ON 12/24 AND 12/31, THIS BOX MAY BE COLLECTED AS EARLY AS 12 NOON.", "ref": "7217000004"}, "type": "Feature"}
{"geometry": {"coordinates": [-92.2080313844, 35.0826043939], "type": "Point"}, "id": "JRXY95uqJtyjVL_9YKG5PlMV-Vk=", "properties": {"@spider": "usps_collection_boxes", "addr:city": "VILONIA", "addr:country": "US", "addr:full": "8 S CHURCH ST", "addr:postcode": "72173", "addr:state": "AR", "brand": "USPS", "brand:wikidata": "Q668687", "collection_times": "Mo-Fr 16:00; Sa 11:00", "name": "USPS COLLECTION BOX - PO LOBBY", "note": "ON 12/24 AND 12/31, THIS BOX MAY BE COLLECTED AS EARLY AS 12 NOON.", "ref": "7217300001"}, "type": "Feature"}
{"geometry": {"coordinates": [-92.207385, 35.082611], "type": "Point"}, "id": "I0wTsfx0DOcbyDh-tYns1vOaiog=", "properties": {"@spider": "usps_collection_boxes", "addr:city": "VILONIA", "addr:country": "US", "addr:full": "8 S CHURCH ST", "addr:postcode": "72173", "addr:state": "AR", "brand": "USPS", "brand:wikidata": "Q668687", "collection_times": "Mo-Fr 16:00; Sa 11:00", "name": "USPS COLLECTION BOX - BLUE BOX", "note": "ON 12/24 AND 12/31, THIS BOX MAY BE COLLECTED AS EARLY AS 12 NOON.", "ref": "7217300002"}, "type": "Feature"}
{"geometry": {"coordinates": [-92.2080313844, 35.0826043939], "type": "Point"}, "id": "THQ3ZP1i08uT86GYT0-llxnEfxQ=", "properties": {"@spider": "usps_collection_boxes", "addr:city": "VILONIA", "addr:country": "US", "addr:full": "8 S CHURCH ST", "addr:postcode": "72173", "addr:state": "AR", "brand": "USPS", "brand:wikidata": "Q668687", "collection_times": "Mo-Fr 16:00; Sa 11:00", "name": "USPS COLLECTION BOX - PO LOBBY", "note": "ON 12/24 AND 12/31, THIS BOX MAY BE COLLECTED AS EARLY AS 12 NOON.", "ref": "7217300004"}, "type": "Feature"}
{"geometry": {"coordinates": [-92.207384577, 35.082611308], "type": "Point"}, "id": "y_A5A7Xq5aESSyVP5LeYPlr374U=", "properties": {"@spider": "usps_collection_boxes", "addr:city": "VILONIA", "addr:country": "US", "addr:full": "8 S CHURCH ST", "addr:postcode": "72173", "addr:state": "AR", "brand": "USPS", "brand:wikidata": "Q668687", "collection_times": "Mo-Fr 16:00; Sa 11:00", "name": "USPS COLLECTION BOX - PO LOBBY", "note": "ON 12/24 AND 12/31, THIS BOX MAY BE COLLECTED AS EARLY AS 12 NOON.", "ref": "7217300005"}, "type": "Feature"}
{"geometry": {"coordinates": [-91.7948028099, 34.3614087426], "type": "Point"}, "id": "G_Do0B5rnesGc6pRQPaEMgQIvsI=", "properties": {"@spider": "usps_collection_boxes", "addr:city": "WABBASEKA", "addr:country": "US", "addr:full": "210 S 1ST ST", "addr:postcode": "72175", "addr:state": "AR", "brand": "USPS", "brand:wikidata": "Q668687", "collection_times": "Mo-Fr 15:30; Sa 13:00", "name": "USPS COLLECTION BOX - BLUE BOX", "note": "ON 12/24 AND 12/31, THIS BOX MAY BE COLLECTED AS EARLY AS 12 NOON.", "ref": "7217500000"}, "type": "Feature"}
{"geometry": {"coordinates": [-91.7948028099, 34.3614087426], "type": "Point"}, "id": "2MGe5QeNFeCKkHyXqnwNgpuPxUk=", "properties": {"@spider": "usps_collection_boxes", "addr:city": "WABBASEKA", "addr:country": "US", "addr:full": "210 S 1ST ST", "addr:postcode": "72175", "addr:state": "AR", "brand": "USPS", "brand:wikidata": "Q668687", "collection_times": "Mo-Fr 15:30; Sa 13:00", "name": "USPS COLLECTION BOX - PO LOBBY", "note": "ON 12/24 AND 12/31, THIS BOX MAY BE COLLECTED AS EARLY AS 12 NOON.", "ref": "7217500001"}, "type": "Feature"}
{"geometry": {"coordinates": [-91.7948028099, 34.3614087426], "type": "Point"}, "id": "mtQwZQXGp1pJkmr9UEZDh0lPpdQ=", "properties": {"@spider": "usps_collection_boxes", "addr:city": "WABBASEKA", "addr:country": "US", "addr:full": "210 S 1ST ST", "addr:postcode": "72175", "addr:state": "AR", "brand": "USPS", "brand:wikidata": "Q668687", "collection_times": "Mo-Fr 16:15; Sa 14:15", "name": "USPS COLLECTION BOX - PO LOBBY", "note": "ON 12/24 AND 12/31, THIS BOX MAY BE COLLECTED AS EARLY AS 12 NOON.", "ref": "7217500002"}, "type": "Feature"}
{"geometry": {"coordinates": [-91.9546, 35.033371], "type": "Point"}, "id": "qjyrhm_55kOlAX1fdpW8l_x3b9w=", "properties": {"@spider": "usps_collection_boxes", "addr:city": "WARD", "addr:country": "US", "addr:full": "106 BALDING RD", "addr:postcode": "72176", "addr:state": "AR", "brand": "USPS", "brand:wikidata": "Q668687", "collection_times": "Mo-Fr 16:15; Sa 10:45", "name": "USPS COLLECTION BOX - PO LOBBY", "note": "ON 12/24 AND 12/31, THIS BOX MAY BE COLLECTED AS EARLY AS 12 NOON.", "ref": "7217600002"}, "type": "Feature"}
{"geometry": {"coordinates": [-91.9546, 35.033371], "type": "Point"}, "id": "SbAM9G1a6yvIPw1CJ6gcM6DBoOo=", "properties": {"@spider": "usps_collection_boxes", "addr:city": "WARD", "addr:country": "US", "addr:full": "106 BALDING RD", "addr:postcode": "72176", "addr:state": "AR", "brand": "USPS", "brand:wikidata": "Q668687", "collection_times": "Mo-Fr 16:15; Sa 10:45", "name": "USPS COLLECTION BOX - PO LOBBY", "note": "ON 12/24 AND 12/31, THIS BOX MAY BE COLLECTED AS EARLY AS 12 NOON.", "ref": "7217600003"}, "type": "Feature"}
{"geometry": {"coordinates": [-91.9546, 35.033371], "type": "Point"}, "id": "tP-UoagtYubEwSrdCNkKSQ-e5JM=", "properties": {"@spider": "usps_collection_boxes", "addr:city": "WARD", "addr:country": "US", "addr:full": "106 BALDING RD", "addr:postcode": "72176", "addr:state": "AR", "brand": "USPS", "brand:wikidata": "Q668687", "collection_times": "Mo-Fr 16:15; Sa 10:45", "name": "USPS COLLECTION BOX - BLUE BOX", "note": "ON 12/24 AND 12/31, THIS BOX MAY BE COLLECTED AS EARLY AS 12 NOON.", "ref": "7217600004"}, "type": "Feature"}
{"geometry": {"coordinates": [-91.954582579, 35.033378528], "type": "Point"}, "id": "y081x2SlbRDp7z_FWUsgyg1S4KI=", "properties": {"@spider": "usps_collection_boxes", "addr:city": "WARD", "addr:country": "US", "addr:full": "106 BALDING RD", "addr:postcode": "72176", "addr:state": "AR", "brand": "USPS", "brand:wikidata": "Q668687", "collection_times": "Mo-Fr 16:00; Sa 11:00", "name": "USPS COLLECTION BOX - PO LOBBY", "note": "ON 12/24 AND 12/31, THIS BOX MAY BE COLLECTED AS EARLY AS 12 NOON.", "ref": "7217600005"}, "type": "Feature"}
{"geometry": {"coordinates": [-91.612529, 35.207139], "type": "Point"}, "id": "Hexjd2wkzCM85ypJaARL0udu0kc=", "properties": {"@spider": "usps_collection_boxes", "addr:city": "WEST POINT", "addr:country": "US", "addr:full": "112 BROAD ST", "addr:postcode": "72178", "addr:state": "AR", "brand": "USPS", "brand:wikidata": "Q668687", "collection_times": "Mo-Fr 11:30; Sa 12:00", "name": "USPS COLLECTION BOX - BLUE BOX", "ref": "7217800001"}, "type": "Feature"}
{"geometry": {"coordinates": [-91.612443, 35.207161], "type": "Point"}, "id": "IiczIwcnGxX8KjRBQL3bVzvCwoE=", "properties": {"@spider": "usps_collection_boxes", "addr:city": "WEST POINT", "addr:country": "US", "addr:full": "112 BROAD ST", "addr:postcode": "72178", "addr:state": "AR", "brand": "USPS", "brand:wikidata": "Q668687", "collection_times": "Mo-Fr 11:30; Sa 12:00", "name": "USPS COLLECTION BOX - PO LOBBY", "ref": "7217800002"}, "type": "Feature"}
{"geometry": {"coordinates": [-91.613328799, 35.20661029], "type": "Point"}, "id": "larMXGfccSOM5y8EbRCtzYk9b_Y=", "properties": {"@spider": "usps_collection_boxes", "addr:city": "WEST POINT", "addr:country": "US", "addr:full": "112 BROAD ST", "addr:postcode": "72178", "addr:state": "AR", "brand": "USPS", "brand:wikidata": "Q668687", "collection_times": "Mo-Fr 12:00; Sa 12:30", "name": "USPS COLLECTION BOX - PO LOBBY", "note": "ON 12/24 AND 12/31, THIS BOX MAY BE COLLECTED AS EARLY AS 12 NOON.", "ref": "7217800003"}, "type": "Feature"}
{"geometry": {"coordinates": [-91.888527, 35.506259], "type": "Point"}, "id": "J8dsaz4gka9kZ8iGXiwJ-yd9PTI=", "properties": {"@spider": "usps_collection_boxes", "addr:city": "WILBURN", "addr:country": "US", "addr:full": "4605 WILBURN RD", "addr:postcode": "72179", "addr:state": "AR", "brand": "USPS", "brand:wikidata": "Q668687", "collection_times": "Mo-Fr 11:45; Sa 12:15", "name": "USPS COLLECTION BOX - BLUE BOX", "note": "ON 12/24 AND 12/31, THIS BOX MAY BE COLLECTED AS EARLY AS 12 NOON.", "ref": "7217900001"}, "type": "Feature"}
{"geometry": {"coordinates": [-91.888527, 35.506259], "type": "Point"}, "id": "NeVTFktWJY4JvxfEFNRmuAGbmjs=", "properties": {"@spider": "usps_collection_boxes", "addr:city": "WILBURN", "addr:country": "US", "addr:full": "4605 WILBURN RD", "addr:postcode": "72179", "addr:state": "AR", "brand": "USPS", "brand:wikidata": "Q668687", "collection_times": "Mo-Fr 11:45; Sa 12:15", "name": "USPS COLLECTION BOX - PO LOBBY", "note": "ON 12/24 AND 12/31, THIS BOX MAY BE COLLECTED AS EARLY AS 12 NOON.", "ref": "7217900002"}, "type": "Feature"}
{"geometry": {"coordinates": [-91.888529825, 35.506254382], "type": "Point"}, "id": "9R2W5aczjCuDt39U87J_qcgpVs8=", "properties": {"@spider": "usps_collection_boxes", "addr:city": "WILBURN", "addr:country": "US", "addr:full": "4605 WILBURN RD", "addr:postcode": "72179", "addr:state": "AR", "brand": "USPS", "brand:wikidata": "Q668687", "collection_times": "Mo-Fr 12:00; Sa 12:30", "name": "USPS COLLECTION BOX - PO LOBBY", "note": "ON 12/24 AND 12/31, THIS BOX MAY BE COLLECTED AS EARLY AS 12 NOON.", "ref": "7217900003"}, "type": "Feature"}
{"geometry": {"coordinates": [-92.2112756904, 34.5286768907], "type": "Point"}, "id": "REDfB8doUFLUF-87m7kIlzjaT-s=", "properties": {"@spider": "usps_collection_boxes", "addr:city": "WOODSON", "addr:country": "US", "addr:full": "24622 HIGHWAY 365", "addr:postcode": "72180", "addr:state": "AR", "brand": "USPS", "brand:wikidata": "Q668687", "collection_times": "Mo-Fr 11:30; Sa 10:30", "name": "USPS COLLECTION BOX - BLUE BOX", "ref": "7218000001"}, "type": "Feature"}
{"geometry": {"coordinates": [-92.2112756904, 34.5286768907], "type": "Point"}, "id": "rUWe5ffwQzB0zUqgFVYfrXx0H7Q=", "properties": {"@spider": "usps_collection_boxes", "addr:city": "WOODSON", "addr:country": "US", "addr:full": "24622 HIGHWAY 365", "addr:postcode": "72180", "addr:state": "AR", "brand": "USPS", "brand:wikidata": "Q668687", "collection_times": "Mo-Fr 11:30; Sa 10:30", "name": "USPS COLLECTION BOX - PO LOBBY", "ref": "7218000002"}, "type": "Feature"}
{"geometry": {"coordinates": [-92.2112756904, 34.5286768907], "type": "Point"}, "id": "_caH_ygq2QAWZ_84lvkBh3D-eWM=", "properties": {"@spider": "usps_collection_boxes", "addr:city": "WOODSON", "addr:country": "US", "addr:full": "24622 HIGHWAY 365", "addr:postcode": "72180", "addr:state": "AR", "brand": "USPS", "brand:wikidata": "Q668687", "collection_times": "Mo-Fr 12:00; Sa 10:30", "name": "USPS COLLECTION BOX - PO LOBBY", "ref": "7218000004"}, "type": "Feature"}
{"geometry": {"coordinates": [-92.4556599615, 35.2001700155], "type": "Point"}, "id": "9su3SYmJo23P8ph6gZ0_-QpyWJU=", "properties": {"@spider": "usps_collection_boxes", "addr:city": "WOOSTER", "addr:country": "US", "addr:full": "19 PATTON RD", "addr:postcode": "72181", "addr:state": "AR", "brand": "USPS", "brand:wikidata": "Q668687", "collection_times": "Mo-Fr 12:00; Sa 11:15", "name": "USPS COLLECTION BOX - PO LOBBY", "ref": "7218100002"}, "type": "Feature"}
{"geometry": {"coordinates": [-92.455800628, 35.200146028], "type": "Point"}, "id": "Jw8BFcJdnisp8O-6z6yOxr6ckrc=", "properties": {"@spider": "usps_collection_boxes", "addr:city": "WOOSTER", "addr:country": "US", "addr:full": "19 PATTON RD", "addr:postcode": "72181", "addr:state": "AR", "brand": "USPS", "brand:wikidata": "Q668687", "collection_times": "Mo-Fr 12:30; Sa 11:15", "name": "USPS COLLECTION BOX - PO LOBBY", "note": "ON 12/24 AND 12/31, THIS BOX MAY BE COLLECTED AS EARLY AS 12 NOON.", "ref": "7218100003"}, "type": "Feature"}
{"geometry": {"coordinates": [-92.066174279, 34.436154515], "type": "Point"}, "id": "SKKM-hWxe3BB1Myu6FeqAK1nT9A=", "properties": {"@spider": "usps_collection_boxes", "addr:city": "WRIGHT", "addr:country": "US", "addr:full": "8305 ARKANSAS HIGHWAY 256", "addr:postcode": "72182", "addr:state": "AR", "brand": "USPS", "brand:wikidata": "Q668687", "collection_times": "Mo-Fr 14:00; Sa 12:30", "name": "USPS COLLECTION BOX - PO LOBBY", "note": "ON 12/24 AND 12/31, THIS BOX MAY BE COLLECTED AS EARLY AS 12 NOON.", "ref": "7218200002"}, "type": "Feature"}
{"geometry": {"coordinates": [-92.066174279, 34.436154515], "type": "Point"}, "id": "KqdUz4MGV3ZVZbHCVH29z3vZSa0=", "properties": {"@spider": "usps_collection_boxes", "addr:city": "WRIGHT", "addr:country": "US", "addr:full": "8305 ARKANSAS HIGHWAY 256", "addr:postcode": "72182", "addr:state": "AR", "brand": "USPS", "brand:wikidata": "Q668687", "collection_times": "Mo-Fr 14:00; Sa 12:30", "name": "USPS COLLECTION BOX - PO LOBBY", "note": "ON 12/24 AND 12/31, THIS BOX MAY BE COLLECTED AS EARLY AS 12 NOON.", "ref": "7218200003"}, "type": "Feature"}
{"geometry": {"coordinates": [-92.2167195162, 34.6019500119], "type": "Point"}, "id": "0MsFlLdCOhCpY1CNJG0rceuih44=", "properties": {"@spider": "usps_collection_boxes", "addr:city": "WRIGHTSVILLE", "addr:country": "US", "addr:full": "16220 HIGHWAY 365", "addr:postcode": "72183", "addr:state": "AR", "brand": "USPS", "brand:wikidata": "Q668687", "collection_times": "Mo-Fr 15:30; Sa 10:30", "name": "USPS COLLECTION BOX - BLUE BOX", "note": "ON 12/24 AND 12/31, THIS BOX MAY BE COLLECTED AS EARLY AS 12 NOON.", "ref": "7218300001"}, "type": "Feature"}
{"geometry": {"coordinates": [-92.2167195162, 34.6019500119], "type": "Point"}, "id": "Hq3Dw71uJZWq6KU6AU6DpREIgW8=", "properties": {"@spider": "usps_collection_boxes", "addr:city": "WRIGHTSVILLE", "addr:country": "US", "addr:full": "16220 HIGHWAY 365", "addr:postcode": "72183", "addr:state": "AR", "brand": "USPS", "brand:wikidata": "Q668687", "collection_times": "Mo-Fr 15:30; Sa 10:30", "name": "USPS COLLECTION BOX - PO LOBBY", "note": "ON 12/24 AND 12/31, THIS BOX MAY BE COLLECTED AS EARLY AS 12 NOON.", "ref": "7218300002"}, "type": "Feature"}
{"geometry": {"coordinates": [-92.2167195162, 34.6019500119], "type": "Point"}, "id": "_RAw-ihk_W7lS1-Dlt4bVUjs9lc=", "properties": {"@spider": "usps_collection_boxes", "addr:city": "WRIGHTSVILLE", "addr:country": "US", "addr:full": "16220 HIGHWAY 365", "addr:postcode": "72183", "addr:state": "AR", "brand": "USPS", "brand:wikidata": "Q668687", "collection_times": "Mo-Fr 15:30; Sa 10:30", "name": "USPS COLLECTION BOX - PO LOBBY", "note": "ON 12/24 AND 12/31, THIS BOX MAY BE COLLECTED AS EARLY AS 12 NOON.", "ref": "7218300004"}, "type": "Feature"}
