{"geometry": {"coordinates": [-92.2696078519, 34.7470173367], "type": "Point"}, "id": "us6MnrvmGIg8Lh9g3tkuw9GiVLk=", "properties": {"@spider": "usps_collection_boxes", "addr:city": "LITTLE ROCK", "addr:country": "US", "addr:full": "122 E 2ND ST", "addr:postcode": "72201", "addr:state": "AR", "brand": "USPS", "collection_times": "Mo-Fr 13:00", "name": "USPS COLLECTION BOX - BLUE BOX", "note": "ON 12/24 AND 12/31, THIS BOX MAY BE COLLECTED AS EARLY AS 12 NOON.", "ref": "7220100067"}, "type": "Feature"}
{"geometry": {"coordinates": [-92.2703259, 34.744068], "type": "Point"}, "id": "-B1tnBAuJA_u05rmyG2AWUhpz8E=", "properties": {"@spider": "usps_collection_boxes", "addr:city": "LITTLE ROCK", "addr:country": "US", "addr:full": "115 E CAPITOL AVE", "addr:postcode": "72201", "addr:state": "AR", "brand": "USPS", "collection_times": "Mo-Fr 09:30", "name": "USPS COLLECTION BOX - BLUE BOX", "ref": "7220100070"}, "type": "Feature"}
{"geometry": {"coordinates": [-92.2746575, 34.74634], "type": "Point"}, "id": "2YEFIl73mKSEwnjfGYH99RhBCNY=", "properties": {"@spider": "usps_collection_boxes", "addr:city": "LITTLE ROCK", "addr:country": "US", "addr:full": "300 S SPRING ST", "addr:postcode": "72201", "addr:state": "AR", "brand": "USPS", "collection_times": "Mo-Fr 14:30", "name": "USPS COLLECTION BOX - BLUE BOX", "note": "ON 12/24 AND 12/31, THIS BOX MAY BE COLLECTED AS EARLY AS 12 NOON.", "ref": "7220100114"}, "type": "Feature"}
{"geometry": {"coordinates": [-92.2885457, 34.739511], "type": "Point"}, "id": "-jHu3SFE4EVJ8mGMkff-zM0-h5w=", "properties": {"@spider": "usps_collection_boxes", "addr:city": "LITTLE ROCK", "addr:country": "US", "addr:full": "1400 W 12TH ST", "addr:postcode": "72202", "addr:state": "AR", "brand": "USPS", "collection_times": "Mo-Fr 10:00", "name": "USPS COLLECTION BOX - BLUE BOX", "ref": "7220200000"}, "type": "Feature"}
{"geometry": {"coordinates": [-92.2920979, 34.742224], "type": "Point"}, "id": "3tD6X8KVie0lP9X6MWOPCk3ktrE=", "properties": {"@spider": "usps_collection_boxes", "addr:city": "LITTLE ROCK", "addr:country": "US", "addr:full": "1 CHILDRENS WAY", "addr:postcode": "72202", "addr:state": "AR", "brand": "USPS", "collection_times": "Mo-Fr 11:30", "name": "USPS COLLECTION BOX - BLUE BOX", "ref": "7220200060"}, "type": "Feature"}
{"geometry": {"coordinates": [-92.2603858, 34.724361], "type": "Point"}, "id": "jMPuF2L6mTJFxdGFzChctTkWfww=", "properties": {"@spider": "usps_collection_boxes", "addr:city": "LITTLE ROCK", "addr:country": "US", "addr:full": "1100 E ROOSEVELT RD", "addr:postcode": "72206", "addr:state": "AR", "brand": "USPS", "collection_times": "Mo-Fr 12:00", "name": "USPS COLLECTION BOX - BLUE BOX", "ref": "7220600004"}, "type": "Feature"}
{"geometry": {"coordinates": [-92.4291244, 34.804489], "type": "Point"}, "id": "TmKvFyq57TguoeH2MNZkpwmRBhk=", "properties": {"@spider": "usps_collection_boxes", "addr:city": "LITTLE ROCK", "addr:country": "US", "addr:full": "14000 CANTRELL RD", "addr:postcode": "72223", "addr:state": "AR", "brand": "USPS", "collection_times": "Mo-Fr 14:00", "name": "USPS COLLECTION BOX - BLUE BOX", "note": "ON 12/24 AND 12/31, THIS BOX MAY BE COLLECTED AS EARLY AS 12 NOON.", "ref": "7222300007"}, "type": "Feature"}
{"geometry": {"coordinates": [-92.4490107, 34.756633], "type": "Point"}, "id": "lhsbrzWIJDavBZ6ngjkO7AC2xwU=", "properties": {"@spider": "usps_collection_boxes", "addr:city": "LITTLE ROCK", "addr:country": "US", "addr:full": "16105 CHENAL PKWY", "addr:postcode": "72223", "addr:state": "AR", "brand": "USPS", "collection_times": "Mo-Fr 12:00", "name": "USPS COLLECTION BOX - BLUE BOX", "ref": "7222300012"}, "type": "Feature"}
