{"geometry": {"coordinates": [-90.1850857, 35.161818], "type": "Point"}, "id": "ahw0fvVN4Ej5Ub8NxcDkYP_fOAQ=", "properties": {"@source_uri": "https://tools.usps.com/UspsToolsRestServices/rest/POLocator/findLocations", "@spider": "usps_collection_boxes", "addr:city": "WEST MEMPHIS", "addr:country": "US", "addr:postcode": "72301", "addr:state": "AR", "addr:street_address": "101 DOVER RD", "amenity": "post_box", "collection_times": "Mo-Sa 10:30", "nsi_id": "unitedstatespostalservice-a77078", "operator": "United States Postal Service", "operator:short": "USPS", "operator:type": "public", "operator:wikidata": "Q668687", "ref": "7230100007"}, "type": "Feature"}
{"geometry": {"coordinates": [-90.1758900053, 35.1567606471], "type": "Point"}, "id": "ITSpiHa2SyLleuc-pNiI8cve7fs=", "properties": {"@source_uri": "https://tools.usps.com/UspsToolsRestServices/rest/POLocator/findLocations", "@spider": "usps_collection_boxes", "addr:city": "WEST MEMPHIS", "addr:country": "US", "addr:postcode": "72301", "addr:state": "AR", "addr:street_address": "2100 N. 7TH ST", "amenity": "post_box", "collection_times": "Mo-Sa 12:00", "nsi_id": "unitedstatespostalservice-a77078", "operator": "United States Postal Service", "operator:short": "USPS", "operator:type": "public", "operator:wikidata": "Q668687", "ref": "7230100008"}, "type": "Feature"}
{"geometry": {"coordinates": [-90.1584949, 35.15347], "type": "Point"}, "id": "RHbdpkJ5PT6WJ5e-mvDNB1mplLQ=", "properties": {"@source_uri": "https://tools.usps.com/UspsToolsRestServices/rest/POLocator/findLocations", "@spider": "usps_collection_boxes", "addr:city": "WEST MEMPHIS", "addr:country": "US", "addr:postcode": "72301", "addr:state": "AR", "addr:street_address": "2023 E BARTON AVE", "amenity": "post_box", "collection_times": "Mo-Sa 11:00", "nsi_id": "unitedstatespostalservice-a77078", "operator": "United States Postal Service", "operator:short": "USPS", "operator:type": "public", "operator:wikidata": "Q668687", "ref": "7230100010"}, "type": "Feature"}
{"geometry": {"coordinates": [-90.1924563, 35.168557], "type": "Point"}, "id": "vd47-jPJQ7WP4MXhwMJrne1IiHA=", "properties": {"@source_uri": "https://tools.usps.com/UspsToolsRestServices/rest/POLocator/findLocations", "@spider": "usps_collection_boxes", "addr:city": "WEST MEMPHIS", "addr:country": "US", "addr:postcode": "72301", "addr:state": "AR", "addr:street_address": "310 MID CONTINENT PLZ", "amenity": "post_box", "collection_times": "Mo-Sa 11:00", "nsi_id": "unitedstatespostalservice-a77078", "operator": "United States Postal Service", "operator:short": "USPS", "operator:type": "public", "operator:wikidata": "Q668687", "ref": "7230100012"}, "type": "Feature"}
{"geometry": {"coordinates": [-90.1859004, 35.166368], "type": "Point"}, "id": "9778KULyc5fjTCK30lOCLfJdTak=", "properties": {"@source_uri": "https://tools.usps.com/UspsToolsRestServices/rest/POLocator/findLocations", "@spider": "usps_collection_boxes", "addr:city": "WEST MEMPHIS", "addr:country": "US", "addr:postcode": "72301", "addr:state": "AR", "addr:street_address": "1800 N MISSOURI ST", "amenity": "post_box", "collection_times": "Mo-Sa 11:00", "nsi_id": "unitedstatespostalservice-a77078", "operator": "United States Postal Service", "operator:short": "USPS", "operator:type": "public", "operator:wikidata": "Q668687", "ref": "7230100014"}, "type": "Feature"}
{"geometry": {"coordinates": [-90.1877547, 35.165382], "type": "Point"}, "id": "duEH93utpSswxCAr7QwRYQUnMUI=", "properties": {"@source_uri": "https://tools.usps.com/UspsToolsRestServices/rest/POLocator/findLocations", "@spider": "usps_collection_boxes", "addr:city": "WEST MEMPHIS", "addr:country": "US", "addr:postcode": "72301", "addr:state": "AR", "addr:street_address": "210 SHOPPINGWAY BLVD", "amenity": "post_box", "collection_times": "Mo-Sa 10:30", "nsi_id": "unitedstatespostalservice-a77078", "operator": "United States Postal Service", "operator:short": "USPS", "operator:type": "public", "operator:wikidata": "Q668687", "ref": "7230100015"}, "type": "Feature"}
{"geometry": {"coordinates": [-90.187386, 35.145255], "type": "Point"}, "id": "7uEl2CgshflCvwL9hQ9tGMd3RNE=", "properties": {"@source_uri": "https://tools.usps.com/UspsToolsRestServices/rest/POLocator/findLocations", "@spider": "usps_collection_boxes", "addr:city": "WEST MEMPHIS", "addr:country": "US", "addr:postcode": "72301", "addr:state": "AR", "addr:street_address": "200 S RHODES ST", "amenity": "post_box", "collection_times": "Mo-Sa 08:45", "nsi_id": "unitedstatespostalservice-a77078", "operator": "United States Postal Service", "operator:short": "USPS", "operator:type": "public", "operator:wikidata": "Q668687", "ref": "7230100021"}, "type": "Feature"}
{"geometry": {"coordinates": [-90.1860652, 35.146324], "type": "Point"}, "id": "3asC0N47QUJo6sQBnz3kC3yVz5M=", "properties": {"@source_uri": "https://tools.usps.com/UspsToolsRestServices/rest/POLocator/findLocations", "@spider": "usps_collection_boxes", "addr:city": "WEST MEMPHIS", "addr:country": "US", "addr:postcode": "72301", "addr:state": "AR", "addr:street_address": "100 COURT ST", "amenity": "post_box", "collection_times": "Mo-Sa 12:30", "note": "ON 12/24 AND 12/31, THIS BOX MAY BE COLLECTED AS EARLY AS 12 NOON.", "nsi_id": "unitedstatespostalservice-a77078", "operator": "United States Postal Service", "operator:short": "USPS", "operator:type": "public", "operator:wikidata": "Q668687", "ref": "7230100022"}, "type": "Feature"}
{"geometry": {"coordinates": [-90.190855, 35.14492], "type": "Point"}, "id": "-GgjskiK6nVC8UI56Anr8Z303iw=", "properties": {"@source_uri": "https://tools.usps.com/UspsToolsRestServices/rest/POLocator/findLocations", "@spider": "usps_collection_boxes", "addr:city": "WEST MEMPHIS", "addr:country": "US", "addr:postcode": "72301", "addr:state": "AR", "addr:street_address": "205 S REDDING ST", "amenity": "post_box", "collection_times": "Mo-Sa 09:00", "nsi_id": "unitedstatespostalservice-a77078", "operator": "United States Postal Service", "operator:short": "USPS", "operator:type": "public", "operator:wikidata": "Q668687", "ref": "7230100023"}, "type": "Feature"}
{"geometry": {"coordinates": [-90.1925275, 35.145875], "type": "Point"}, "id": "-1Ju50Nuf9AsCRYZQLTlWO4GO7Q=", "properties": {"@source_uri": "https://tools.usps.com/UspsToolsRestServices/rest/POLocator/findLocations", "@spider": "usps_collection_boxes", "addr:city": "WEST MEMPHIS", "addr:country": "US", "addr:postcode": "72301", "addr:state": "AR", "addr:street_address": "330 W BROADWAY ST", "amenity": "post_box", "collection_times": "Mo-Sa 12:30", "note": "ON 12/24 AND 12/31, THIS BOX MAY BE COLLECTED AS EARLY AS 12 NOON.", "nsi_id": "unitedstatespostalservice-a77078", "operator": "United States Postal Service", "operator:short": "USPS", "operator:type": "public", "operator:wikidata": "Q668687", "ref": "7230100025"}, "type": "Feature"}
{"geometry": {"coordinates": [-90.1942723, 35.146602], "type": "Point"}, "id": "3Wt9OziISpY3LB16Vo-T8MsRXAM=", "properties": {"@source_uri": "https://tools.usps.com/UspsToolsRestServices/rest/POLocator/findLocations", "@spider": "usps_collection_boxes", "addr:city": "WEST MEMPHIS", "addr:country": "US", "addr:postcode": "72301", "addr:state": "AR", "addr:street_address": "429 W BROADWAY ST", "amenity": "post_box", "collection_times": "Mo-Sa 12:30", "note": "ON 12/24 AND 12/31, THIS BOX MAY BE COLLECTED AS EARLY AS 12 NOON.", "nsi_id": "unitedstatespostalservice-a77078", "operator": "United States Postal Service", "operator:short": "USPS", "operator:type": "public", "operator:wikidata": "Q668687", "ref": "7230100026"}, "type": "Feature"}
{"geometry": {"coordinates": [-90.177008, 35.150125], "type": "Point"}, "id": "pxEhaMwKDMxoGmBb983hKE8Epvg=", "properties": {"@source_uri": "https://tools.usps.com/UspsToolsRestServices/rest/POLocator/findLocations", "@spider": "usps_collection_boxes", "addr:city": "WEST MEMPHIS", "addr:country": "US", "addr:postcode": "72301", "addr:state": "AR", "addr:street_address": "100 W BOND", "amenity": "post_box", "collection_times": "Mo-Sa 12:30", "note": "ON 12/24 AND 12/31, THIS BOX MAY BE COLLECTED AS EARLY AS 12 NOON.", "nsi_id": "unitedstatespostalservice-a77078", "operator": "United States Postal Service", "operator:short": "USPS", "operator:type": "public", "operator:wikidata": "Q668687", "ref": "7230100028"}, "type": "Feature"}
{"geometry": {"coordinates": [-90.1440124, 35.153993], "type": "Point"}, "id": "z836dOQIFIRFKS28OdvoUO2gfVM=", "properties": {"@source_uri": "https://tools.usps.com/UspsToolsRestServices/rest/POLocator/findLocations", "@spider": "usps_collection_boxes", "addr:city": "WEST MEMPHIS", "addr:country": "US", "addr:postcode": "72301", "addr:state": "AR", "addr:street_address": "3000 SERVICE ROAD LOOP", "amenity": "post_box", "collection_times": "Mo-Sa 09:30", "nsi_id": "unitedstatespostalservice-a77078", "operator": "United States Postal Service", "operator:short": "USPS", "operator:type": "public", "operator:wikidata": "Q668687", "ref": "7230100029"}, "type": "Feature"}
{"geometry": {"coordinates": [-90.17114, 35.14264], "type": "Point"}, "id": "NIa9_ahByca9C3BhY89WF0X1Ekw=", "properties": {"@source_uri": "https://tools.usps.com/UspsToolsRestServices/rest/POLocator/findLocations", "@spider": "usps_collection_boxes", "addr:city": "WEST MEMPHIS", "addr:country": "US", "addr:postcode": "72301", "addr:state": "AR", "addr:street_address": "615 E COOPER AVE", "amenity": "post_box", "collection_times": "Mo-Fr 17:00; Sa 15:30", "note": "ON 12/24 AND 12/31, THIS BOX MAY BE COLLECTED AS EARLY AS 12 NOON.", "nsi_id": "unitedstatespostalservice-a77078", "operator": "United States Postal Service", "operator:short": "USPS", "operator:type": "public", "operator:wikidata": "Q668687", "ref": "7230100030"}, "type": "Feature"}
{"geometry": {"coordinates": [-90.1769609, 35.151068], "type": "Point"}, "id": "6h8PsOWQRkI_IeSnOklBvxpi54c=", "properties": {"@source_uri": "https://tools.usps.com/UspsToolsRestServices/rest/POLocator/findLocations", "@spider": "usps_collection_boxes", "addr:city": "WEST MEMPHIS", "addr:country": "US", "addr:postcode": "72301", "addr:state": "AR", "addr:street_address": "615 E COOPER AVE", "amenity": "post_box", "collection_times": "Mo-Fr 17:00; Sa 15:30", "indoor": "yes", "note": "ON 12/24 AND 12/31, THIS BOX MAY BE COLLECTED AS EARLY AS 12 NOON.", "nsi_id": "unitedstatespostalservice-a77078", "operator": "United States Postal Service", "operator:short": "USPS", "operator:type": "public", "operator:wikidata": "Q668687", "ref": "7230100031"}, "type": "Feature"}
{"geometry": {"coordinates": [-90.2005666, 35.165958], "type": "Point"}, "id": "oq_ERvMsetFhjSJRbZHdUQbFaE8=", "properties": {"@source_uri": "https://tools.usps.com/UspsToolsRestServices/rest/POLocator/findLocations", "@spider": "usps_collection_boxes", "addr:city": "WEST MEMPHIS", "addr:country": "US", "addr:postcode": "72301", "addr:state": "AR", "addr:street_address": "798 S SERVICE RD", "amenity": "post_box", "collection_times": "Mo-Sa 11:00", "nsi_id": "unitedstatespostalservice-a77078", "operator": "United States Postal Service", "operator:short": "USPS", "operator:type": "public", "operator:wikidata": "Q668687", "ref": "7230100038"}, "type": "Feature"}
{"geometry": {"coordinates": [-90.2212399, 35.1452], "type": "Point"}, "id": "e7oXZyWMGTMKTXR4WvW-IYwmdus=", "properties": {"@source_uri": "https://tools.usps.com/UspsToolsRestServices/rest/POLocator/findLocations", "@spider": "usps_collection_boxes", "addr:city": "WEST MEMPHIS", "addr:country": "US", "addr:postcode": "72301", "addr:state": "AR", "addr:street_address": "2000 W BROADWAY ST", "amenity": "post_box", "collection_times": "Mo-Sa 10:00", "nsi_id": "unitedstatespostalservice-a77078", "operator": "United States Postal Service", "operator:short": "USPS", "operator:type": "public", "operator:wikidata": "Q668687", "ref": "7230100041"}, "type": "Feature"}
{"geometry": {"coordinates": [-90.136142, 35.154339], "type": "Point"}, "id": "iidfVPmm9EJxE0NjtnCg-4NNh7A=", "properties": {"@source_uri": "https://tools.usps.com/UspsToolsRestServices/rest/POLocator/findLocations", "@spider": "usps_collection_boxes", "addr:city": "WEST MEMPHIS", "addr:country": "US", "addr:postcode": "72301", "addr:state": "AR", "addr:street_address": "3900 PETRO DR", "amenity": "post_box", "collection_times": "Mo-Sa 11:00", "nsi_id": "unitedstatespostalservice-a77078", "operator": "United States Postal Service", "operator:short": "USPS", "operator:type": "public", "operator:wikidata": "Q668687", "ref": "7230100042"}, "type": "Feature"}
{"geometry": {"coordinates": [-90.2043115, 35.153619], "type": "Point"}, "id": "OFYuQrz9vUcJ6_Lu8UvZaAQJqlE=", "properties": {"@source_uri": "https://tools.usps.com/UspsToolsRestServices/rest/POLocator/findLocations", "@spider": "usps_collection_boxes", "addr:city": "WEST MEMPHIS", "addr:country": "US", "addr:postcode": "72301", "addr:state": "AR", "addr:street_address": "811 W BARTON AVE", "amenity": "post_box", "collection_times": "Mo-Sa 11:00", "nsi_id": "unitedstatespostalservice-a77078", "operator": "United States Postal Service", "operator:short": "USPS", "operator:type": "public", "operator:wikidata": "Q668687", "ref": "7230100045"}, "type": "Feature"}
{"geometry": {"coordinates": [-90.1769776, 35.150986], "type": "Point"}, "id": "B0-P3CaajAJhwYTpsdzSNBPRElI=", "properties": {"@source_uri": "https://tools.usps.com/UspsToolsRestServices/rest/POLocator/findLocations", "@spider": "usps_collection_boxes", "addr:city": "WEST MEMPHIS", "addr:country": "US", "addr:postcode": "72301", "addr:state": "AR", "addr:street_address": "615 E COOPER AVE", "amenity": "post_box", "collection_times": "Mo-Fr 17:00; Sa 15:30", "indoor": "yes", "note": "ON 12/24 AND 12/31, THIS BOX MAY BE COLLECTED AS EARLY AS 12 NOON.", "nsi_id": "unitedstatespostalservice-a77078", "operator": "United States Postal Service", "operator:short": "USPS", "operator:type": "public", "operator:wikidata": "Q668687", "ref": "7230100046"}, "type": "Feature"}
{"geometry": {"coordinates": [-90.1933883, 35.12724], "type": "Point"}, "id": "eGcFn2UQaueOu0PNpXtcRRR4uvo=", "properties": {"@source_uri": "https://tools.usps.com/UspsToolsRestServices/rest/POLocator/findLocations", "@spider": "usps_collection_boxes", "addr:city": "WEST MEMPHIS", "addr:country": "US", "addr:postcode": "72301", "addr:state": "AR", "addr:street_address": "1334 S AVALON ST", "amenity": "post_box", "collection_times": "Mo-Sa 11:00", "nsi_id": "unitedstatespostalservice-a77078", "operator": "United States Postal Service", "operator:short": "USPS", "operator:type": "public", "operator:wikidata": "Q668687", "ref": "7230100048"}, "type": "Feature"}
{"geometry": {"coordinates": [-90.1769484, 35.151075], "type": "Point"}, "id": "oqryEYAkU_DjsggVrntVdgzgymw=", "properties": {"@source_uri": "https://tools.usps.com/UspsToolsRestServices/rest/POLocator/findLocations", "@spider": "usps_collection_boxes", "addr:city": "WEST MEMPHIS", "addr:country": "US", "addr:postcode": "72301", "addr:state": "AR", "addr:street_address": "615 E COOPER AVE", "amenity": "post_box", "collection_times": "Mo-Fr 17:00; Sa 15:30", "indoor": "yes", "note": "ON 12/24 AND 12/31, THIS BOX MAY BE COLLECTED AS EARLY AS 12 NOON.", "nsi_id": "unitedstatespostalservice-a77078", "operator": "United States Postal Service", "operator:short": "USPS", "operator:type": "public", "operator:wikidata": "Q668687", "ref": "7230100049"}, "type": "Feature"}
{"geometry": {"coordinates": [-90.1769562, 35.151036], "type": "Point"}, "id": "XmRJBxO82ybBB3jjTGFe3rD9Xzg=", "properties": {"@source_uri": "https://tools.usps.com/UspsToolsRestServices/rest/POLocator/findLocations", "@spider": "usps_collection_boxes", "addr:city": "WEST MEMPHIS", "addr:country": "US", "addr:postcode": "72301", "addr:state": "AR", "addr:street_address": "615 E COOPER AVE", "amenity": "post_box", "collection_times": "Mo-Fr 17:00; Sa 15:30", "indoor": "yes", "note": "ON 12/24 AND 12/31, THIS BOX MAY BE COLLECTED AS EARLY AS 12 NOON.", "nsi_id": "unitedstatespostalservice-a77078", "operator": "United States Postal Service", "operator:short": "USPS", "operator:type": "public", "operator:wikidata": "Q668687", "ref": "7230100050"}, "type": "Feature"}
{"geometry": {"coordinates": [-90.1603914, 35.146597], "type": "Point"}, "id": "EsOiQ9OcHRmZ3fhDZs9qnWHNT9o=", "properties": {"@source_uri": "https://tools.usps.com/UspsToolsRestServices/rest/POLocator/findLocations", "@spider": "usps_collection_boxes", "addr:city": "WEST MEMPHIS", "addr:country": "US", "addr:postcode": "72301", "addr:state": "AR", "addr:street_address": "2050 E BROADWAY ST", "amenity": "post_box", "collection_times": "Mo-Sa 10:30", "nsi_id": "unitedstatespostalservice-a77078", "operator": "United States Postal Service", "operator:short": "USPS", "operator:type": "public", "operator:wikidata": "Q668687", "ref": "7230100051"}, "type": "Feature"}
{"geometry": {"coordinates": [-90.176700032, 35.15098002], "type": "Point"}, "id": "6Nl8X_6iSiWv1hVKnlfBz3tzEN4=", "properties": {"@source_uri": "https://tools.usps.com/UspsToolsRestServices/rest/POLocator/findLocations", "@spider": "usps_collection_boxes", "addr:city": "WEST MEMPHIS", "addr:country": "US", "addr:postcode": "72301", "addr:state": "AR", "addr:street_address": "615 E COOPER AVE", "amenity": "post_box", "collection_times": "Mo-Fr 17:00; Sa 12:00", "indoor": "yes", "note": "ON 12/24 AND 12/31, THIS BOX MAY BE COLLECTED AS EARLY AS 12 NOON.", "nsi_id": "unitedstatespostalservice-a77078", "operator": "United States Postal Service", "operator:short": "USPS", "operator:type": "public", "operator:wikidata": "Q668687", "ref": "7230100053"}, "type": "Feature"}
{"geometry": {"coordinates": [-89.7979520866, 35.9198202313], "type": "Point"}, "id": "y6MdkI6tmwb7GT03aHj0kxuY7U0=", "properties": {"@source_uri": "https://tools.usps.com/UspsToolsRestServices/rest/POLocator/findLocations", "@spider": "usps_collection_boxes", "addr:city": "ARMOREL", "addr:country": "US", "addr:postcode": "72310", "addr:state": "AR", "addr:street_address": "4606 N STATE HIGHWAY 137", "amenity": "post_box", "collection_times": "Mo-Fr 12:00; Sa 12:30", "indoor": "yes", "note": "ON 12/24 AND 12/31, THIS BOX MAY BE COLLECTED AS EARLY AS 12 NOON.", "nsi_id": "unitedstatespostalservice-a77078", "operator": "United States Postal Service", "operator:short": "USPS", "operator:type": "public", "operator:wikidata": "Q668687", "ref": "7231000002"}, "type": "Feature"}
{"geometry": {"coordinates": [-89.7979520866, 35.9198202313], "type": "Point"}, "id": "eauD3NqS5D7-EtxcGTqpcYo5Ob8=", "properties": {"@source_uri": "https://tools.usps.com/UspsToolsRestServices/rest/POLocator/findLocations", "@spider": "usps_collection_boxes", "addr:city": "ARMOREL", "addr:country": "US", "addr:postcode": "72310", "addr:state": "AR", "addr:street_address": "4606 N STATE HIGHWAY 137", "amenity": "post_box", "collection_times": "Mo-Fr 12:00; Sa 12:30", "indoor": "yes", "note": "ON 12/24 AND 12/31, THIS BOX MAY BE COLLECTED AS EARLY AS 12 NOON.", "nsi_id": "unitedstatespostalservice-a77078", "operator": "United States Postal Service", "operator:short": "USPS", "operator:type": "public", "operator:wikidata": "Q668687", "ref": "7231000003"}, "type": "Feature"}
{"geometry": {"coordinates": [-89.7979520866, 35.9198202313], "type": "Point"}, "id": "PC8IFOmMsf7AtjNVd7TngLiolxA=", "properties": {"@source_uri": "https://tools.usps.com/UspsToolsRestServices/rest/POLocator/findLocations", "@spider": "usps_collection_boxes", "addr:city": "ARMOREL", "addr:country": "US", "addr:postcode": "72310", "addr:state": "AR", "addr:street_address": "4606 N STATE HIGHWAY 137", "amenity": "post_box", "collection_times": "Mo-Fr 12:00; Sa 12:30", "note": "ON 12/24 AND 12/31, THIS BOX MAY BE COLLECTED AS EARLY AS 12 NOON.", "nsi_id": "unitedstatespostalservice-a77078", "operator": "United States Postal Service", "operator:short": "USPS", "operator:type": "public", "operator:wikidata": "Q668687", "ref": "7231000004"}, "type": "Feature"}
{"geometry": {"coordinates": [-89.7979520866, 35.9198202313], "type": "Point"}, "id": "2Ef9WGrXiAGF3hJBGCRUPEBLF94=", "properties": {"@source_uri": "https://tools.usps.com/UspsToolsRestServices/rest/POLocator/findLocations", "@spider": "usps_collection_boxes", "addr:city": "ARMOREL", "addr:country": "US", "addr:postcode": "72310", "addr:state": "AR", "addr:street_address": "4606 N STATE HIGHWAY 137", "amenity": "post_box", "collection_times": "Mo-Fr 12:00; Sa 12:30", "indoor": "yes", "note": "ON 12/24 AND 12/31, THIS BOX MAY BE COLLECTED AS EARLY AS 12 NOON.", "nsi_id": "unitedstatespostalservice-a77078", "operator": "United States Postal Service", "operator:short": "USPS", "operator:type": "public", "operator:wikidata": "Q668687", "ref": "7231000005"}, "type": "Feature"}
{"geometry": {"coordinates": [-90.900619026, 34.722944011], "type": "Point"}, "id": "t-oyUq0a6rE49eq_m9jrm4J-0WU=", "properties": {"@source_uri": "https://tools.usps.com/UspsToolsRestServices/rest/POLocator/findLocations", "@spider": "usps_collection_boxes", "addr:city": "AUBREY", "addr:country": "US", "addr:postcode": "72311", "addr:state": "AR", "addr:street_address": "3566 HIGHWAY 121 S", "amenity": "post_box", "collection_times": "Mo-Fr 16:30; Sa 10:30", "note": "ON 12/24 AND 12/31, THIS BOX MAY BE COLLECTED AS EARLY AS 12 NOON.", "nsi_id": "unitedstatespostalservice-a77078", "operator": "United States Postal Service", "operator:short": "USPS", "operator:type": "public", "operator:wikidata": "Q668687", "ref": "7231100001"}, "type": "Feature"}
{"geometry": {"coordinates": [-90.900619026, 34.722944011], "type": "Point"}, "id": "k5gvn847WWv69lLw9VmJBNdRHVI=", "properties": {"@source_uri": "https://tools.usps.com/UspsToolsRestServices/rest/POLocator/findLocations", "@spider": "usps_collection_boxes", "addr:city": "AUBREY", "addr:country": "US", "addr:postcode": "72311", "addr:state": "AR", "addr:street_address": "3566 HIGHWAY 121 S", "amenity": "post_box", "collection_times": "Mo-Fr 16:15; Sa 10:45", "indoor": "yes", "note": "ON 12/24 AND 12/31, THIS BOX MAY BE COLLECTED AS EARLY AS 12 NOON.", "nsi_id": "unitedstatespostalservice-a77078", "operator": "United States Postal Service", "operator:short": "USPS", "operator:type": "public", "operator:wikidata": "Q668687", "ref": "7231100002"}, "type": "Feature"}
{"geometry": {"coordinates": [-90.900619026, 34.722944011], "type": "Point"}, "id": "b48Ydh_62ebJJSTASsN3_SneEeU=", "properties": {"@source_uri": "https://tools.usps.com/UspsToolsRestServices/rest/POLocator/findLocations", "@spider": "usps_collection_boxes", "addr:city": "AUBREY", "addr:country": "US", "addr:postcode": "72311", "addr:state": "AR", "addr:street_address": "3566 HIGHWAY 121 S", "amenity": "post_box", "collection_times": "Mo-Fr 16:30; Sa 10:30", "indoor": "yes", "note": "ON 12/24 AND 12/31, THIS BOX MAY BE COLLECTED AS EARLY AS 12 NOON.", "nsi_id": "unitedstatespostalservice-a77078", "operator": "United States Postal Service", "operator:short": "USPS", "operator:type": "public", "operator:wikidata": "Q668687", "ref": "7231100004"}, "type": "Feature"}
{"geometry": {"coordinates": [-90.7684994446, 34.5494942295], "type": "Point"}, "id": "3fHqjvdDbgQ5xR0vobAOAEoW1PI=", "properties": {"@source_uri": "https://tools.usps.com/UspsToolsRestServices/rest/POLocator/findLocations", "@spider": "usps_collection_boxes", "addr:city": "BARTON", "addr:country": "US", "addr:postcode": "72312", "addr:state": "AR", "addr:street_address": "9353 HIGHWAY 85 S", "amenity": "post_box", "collection_times": "Mo-Fr 15:30; Sa 09:30", "note": "ON 12/24 AND 12/31, THIS BOX MAY BE COLLECTED AS EARLY AS 12 NOON.", "nsi_id": "unitedstatespostalservice-a77078", "operator": "United States Postal Service", "operator:short": "USPS", "operator:type": "public", "operator:wikidata": "Q668687", "ref": "7231200000"}, "type": "Feature"}
{"geometry": {"coordinates": [-90.7684994446, 34.5494942295], "type": "Point"}, "id": "pU7gXiO4-vyScYgH_szOsLViReg=", "properties": {"@source_uri": "https://tools.usps.com/UspsToolsRestServices/rest/POLocator/findLocations", "@spider": "usps_collection_boxes", "addr:city": "BARTON", "addr:country": "US", "addr:postcode": "72312", "addr:state": "AR", "addr:street_address": "9353 HIGHWAY 85 S", "amenity": "post_box", "collection_times": "Mo-Fr 11:30; Sa 09:30", "indoor": "yes", "nsi_id": "unitedstatespostalservice-a77078", "operator": "United States Postal Service", "operator:short": "USPS", "operator:type": "public", "operator:wikidata": "Q668687", "ref": "7231200001"}, "type": "Feature"}
{"geometry": {"coordinates": [-90.7684994446, 34.5494942295], "type": "Point"}, "id": "nLk_rVeTaSUh97rIinYsLwFkjJc=", "properties": {"@source_uri": "https://tools.usps.com/UspsToolsRestServices/rest/POLocator/findLocations", "@spider": "usps_collection_boxes", "addr:city": "BARTON", "addr:country": "US", "addr:postcode": "72312", "addr:state": "AR", "addr:street_address": "9353 HIGHWAY 85 S", "amenity": "post_box", "collection_times": "Mo-Fr 12:00; Sa 09:45", "indoor": "yes", "nsi_id": "unitedstatespostalservice-a77078", "operator": "United States Postal Service", "operator:short": "USPS", "operator:type": "public", "operator:wikidata": "Q668687", "ref": "7231200003"}, "type": "Feature"}
{"geometry": {"coordinates": [-90.130017, 35.531823], "type": "Point"}, "id": "JzeONNG4uyDSZsrfZpZFhUfjlXw=", "properties": {"@source_uri": "https://tools.usps.com/UspsToolsRestServices/rest/POLocator/findLocations", "@spider": "usps_collection_boxes", "addr:city": "BASSETT", "addr:country": "US", "addr:postcode": "72313", "addr:state": "AR", "addr:street_address": "414 HIGHWAY 61", "amenity": "post_box", "collection_times": "Mo-Sa 10:00", "nsi_id": "unitedstatespostalservice-a77078", "operator": "United States Postal Service", "operator:short": "USPS", "operator:type": "public", "operator:wikidata": "Q668687", "ref": "7231300000"}, "type": "Feature"}
{"geometry": {"coordinates": [-90.129946, 35.531861], "type": "Point"}, "id": "FESRDd9e2TTJ6jhvOd1uxwiKye4=", "properties": {"@source_uri": "https://tools.usps.com/UspsToolsRestServices/rest/POLocator/findLocations", "@spider": "usps_collection_boxes", "addr:city": "BASSETT", "addr:country": "US", "addr:postcode": "72313", "addr:state": "AR", "addr:street_address": "414 HIGHWAY 61", "amenity": "post_box", "collection_times": "Mo-Sa 10:00", "indoor": "yes", "nsi_id": "unitedstatespostalservice-a77078", "operator": "United States Postal Service", "operator:short": "USPS", "operator:type": "public", "operator:wikidata": "Q668687", "ref": "7231300001"}, "type": "Feature"}
{"geometry": {"coordinates": [-90.129946, 35.531861], "type": "Point"}, "id": "NC8S09kH27DGqSROb45VaH25BmA=", "properties": {"@source_uri": "https://tools.usps.com/UspsToolsRestServices/rest/POLocator/findLocations", "@spider": "usps_collection_boxes", "addr:city": "BASSETT", "addr:country": "US", "addr:postcode": "72313", "addr:state": "AR", "addr:street_address": "414 HIGHWAY 61", "amenity": "post_box", "collection_times": "Mo-Sa 10:00", "indoor": "yes", "nsi_id": "unitedstatespostalservice-a77078", "operator": "United States Postal Service", "operator:short": "USPS", "operator:type": "public", "operator:wikidata": "Q668687", "ref": "7231300002"}, "type": "Feature"}
{"geometry": {"coordinates": [-90.129731428, 35.532296134], "type": "Point"}, "id": "-YDIVem2R-VGFCHtbkyaf7ArHQA=", "properties": {"@source_uri": "https://tools.usps.com/UspsToolsRestServices/rest/POLocator/findLocations", "@spider": "usps_collection_boxes", "addr:city": "BASSETT", "addr:country": "US", "addr:postcode": "72313", "addr:state": "AR", "addr:street_address": "414 HIGHWAY 61", "amenity": "post_box", "collection_times": "Mo-Sa 10:00", "indoor": "yes", "nsi_id": "unitedstatespostalservice-a77078", "operator": "United States Postal Service", "operator:short": "USPS", "operator:type": "public", "operator:wikidata": "Q668687", "ref": "7231300003"}, "type": "Feature"}
{"geometry": {"coordinates": [-89.9067659, 35.93281], "type": "Point"}, "id": "l4cY3nsDTG8IXoc9J3kXj_F9afg=", "properties": {"@source_uri": "https://tools.usps.com/UspsToolsRestServices/rest/POLocator/findLocations", "@spider": "usps_collection_boxes", "addr:city": "BLYTHEVILLE", "addr:country": "US", "addr:postcode": "72315", "addr:state": "AR", "addr:street_address": "600 N BROADWAY ST", "amenity": "post_box", "collection_times": "Mo-Fr 17:00; Sa 12:30", "note": "ON 12/24 AND 12/31, THIS BOX MAY BE COLLECTED AS EARLY AS 12 NOON.", "nsi_id": "unitedstatespostalservice-a77078", "operator": "United States Postal Service", "operator:short": "USPS", "operator:type": "public", "operator:wikidata": "Q668687", "ref": "7231500001"}, "type": "Feature"}
{"geometry": {"coordinates": [-89.9040647, 35.929058], "type": "Point"}, "id": "F2CO1fqzQZemEYKYdUd3cmeqBHs=", "properties": {"@source_uri": "https://tools.usps.com/UspsToolsRestServices/rest/POLocator/findLocations", "@spider": "usps_collection_boxes", "addr:city": "BLYTHEVILLE", "addr:country": "US", "addr:postcode": "72315", "addr:state": "AR", "addr:street_address": "208 N 2ND ST", "amenity": "post_box", "collection_times": "Mo-Sa 10:15", "nsi_id": "unitedstatespostalservice-a77078", "operator": "United States Postal Service", "operator:short": "USPS", "operator:type": "public", "operator:wikidata": "Q668687", "ref": "7231500010"}, "type": "Feature"}
{"geometry": {"coordinates": [-89.9098636, 35.930625], "type": "Point"}, "id": "zkzD5rqtSp-s6knAbyey_LOcV2E=", "properties": {"@source_uri": "https://tools.usps.com/UspsToolsRestServices/rest/POLocator/findLocations", "@spider": "usps_collection_boxes", "addr:city": "BLYTHEVILLE", "addr:country": "US", "addr:postcode": "72315", "addr:state": "AR", "addr:street_address": "302 N 6TH ST", "amenity": "post_box", "collection_times": "Mo-Sa 15:30", "note": "ON 12/24 AND 12/31, THIS BOX MAY BE COLLECTED AS EARLY AS 12 NOON.", "nsi_id": "unitedstatespostalservice-a77078", "operator": "United States Postal Service", "operator:short": "USPS", "operator:type": "public", "operator:wikidata": "Q668687", "ref": "7231500012"}, "type": "Feature"}
{"geometry": {"coordinates": [-89.9068927, 35.927593], "type": "Point"}, "id": "6pbrf8YmkJeGyDHVX5LXcOssrHQ=", "properties": {"@source_uri": "https://tools.usps.com/UspsToolsRestServices/rest/POLocator/findLocations", "@spider": "usps_collection_boxes", "addr:city": "BLYTHEVILLE", "addr:country": "US", "addr:postcode": "72315", "addr:state": "AR", "addr:street_address": "400 W MAIN ST", "amenity": "post_box", "collection_times": "Mo-Sa 15:30", "note": "ON 12/24 AND 12/31, THIS BOX MAY BE COLLECTED AS EARLY AS 12 NOON.", "nsi_id": "unitedstatespostalservice-a77078", "operator": "United States Postal Service", "operator:short": "USPS", "operator:type": "public", "operator:wikidata": "Q668687", "ref": "7231500013"}, "type": "Feature"}
{"geometry": {"coordinates": [-89.9101815, 35.935982], "type": "Point"}, "id": "zSjlW_QP7Im641660U9xc3v4OcE=", "properties": {"@source_uri": "https://tools.usps.com/UspsToolsRestServices/rest/POLocator/findLocations", "@spider": "usps_collection_boxes", "addr:city": "BLYTHEVILLE", "addr:country": "US", "addr:postcode": "72315", "addr:state": "AR", "addr:street_address": "959 N 6TH ST", "amenity": "post_box", "collection_times": "Mo-Sa 15:30", "note": "ON 12/24 AND 12/31, THIS BOX MAY BE COLLECTED AS EARLY AS 12 NOON.", "nsi_id": "unitedstatespostalservice-a77078", "operator": "United States Postal Service", "operator:short": "USPS", "operator:type": "public", "operator:wikidata": "Q668687", "ref": "7231500020"}, "type": "Feature"}
{"geometry": {"coordinates": [-89.9065064, 35.932255], "type": "Point"}, "id": "FWKEJaGc8ptriEPqB4BcsUf-xCM=", "properties": {"@source_uri": "https://tools.usps.com/UspsToolsRestServices/rest/POLocator/findLocations", "@spider": "usps_collection_boxes", "addr:city": "BLYTHEVILLE", "addr:country": "US", "addr:postcode": "72315", "addr:state": "AR", "addr:street_address": "600 N BROADWAY ST", "amenity": "post_box", "collection_times": "Mo-Fr 17:00; Sa 12:30", "indoor": "yes", "note": "ON 12/24 AND 12/31, THIS BOX MAY BE COLLECTED AS EARLY AS 12 NOON.", "nsi_id": "unitedstatespostalservice-a77078", "operator": "United States Postal Service", "operator:short": "USPS", "operator:type": "public", "operator:wikidata": "Q668687", "ref": "7231500035"}, "type": "Feature"}
{"geometry": {"coordinates": [-89.9656523, 35.958142], "type": "Point"}, "id": "Hp9sxvlw3sSKSDOtAoJV9Z9mas0=", "properties": {"@source_uri": "https://tools.usps.com/UspsToolsRestServices/rest/POLocator/findLocations", "@spider": "usps_collection_boxes", "addr:city": "BLYTHEVILLE", "addr:country": "US", "addr:postcode": "72315", "addr:state": "AR", "addr:street_address": "201 S AIR BASE HWY", "amenity": "post_box", "collection_times": "Mo-Sa 15:00", "note": "ON 12/24 AND 12/31, THIS BOX MAY BE COLLECTED AS EARLY AS 12 NOON.", "nsi_id": "unitedstatespostalservice-a77078", "operator": "United States Postal Service", "operator:short": "USPS", "operator:type": "public", "operator:wikidata": "Q668687", "ref": "7231500041"}, "type": "Feature"}
{"geometry": {"coordinates": [-89.9065121, 35.932257], "type": "Point"}, "id": "-XLmY1g6OW_QN_OzP8yseh8e1-A=", "properties": {"@source_uri": "https://tools.usps.com/UspsToolsRestServices/rest/POLocator/findLocations", "@spider": "usps_collection_boxes", "addr:city": "BLYTHEVILLE", "addr:country": "US", "addr:postcode": "72315", "addr:state": "AR", "addr:street_address": "600 N BROADWAY ST", "amenity": "post_box", "collection_times": "Mo-Fr 17:00; Sa 12:30", "indoor": "yes", "note": "ON 12/24 AND 12/31, THIS BOX MAY BE COLLECTED AS EARLY AS 12 NOON.", "nsi_id": "unitedstatespostalservice-a77078", "operator": "United States Postal Service", "operator:short": "USPS", "operator:type": "public", "operator:wikidata": "Q668687", "ref": "7231500045"}, "type": "Feature"}
{"geometry": {"coordinates": [-89.8808617, 35.929226], "type": "Point"}, "id": "m8iHsPQ-C6m75Ubk5P_26Fgmv-M=", "properties": {"@source_uri": "https://tools.usps.com/UspsToolsRestServices/rest/POLocator/findLocations", "@spider": "usps_collection_boxes", "addr:city": "BLYTHEVILLE", "addr:country": "US", "addr:postcode": "72315", "addr:state": "AR", "addr:street_address": "1040 E MAIN ST", "amenity": "post_box", "collection_times": "Mo-Sa 14:00", "note": "ON 12/24 AND 12/31, THIS BOX MAY BE COLLECTED AS EARLY AS 12 NOON.", "nsi_id": "unitedstatespostalservice-a77078", "operator": "United States Postal Service", "operator:short": "USPS", "operator:type": "public", "operator:wikidata": "Q668687", "ref": "7231500046"}, "type": "Feature"}
{"geometry": {"coordinates": [-89.8890144, 35.927114], "type": "Point"}, "id": "2nOIDy_Nly1QD9faNsZbmw1TDiM=", "properties": {"@source_uri": "https://tools.usps.com/UspsToolsRestServices/rest/POLocator/findLocations", "@spider": "usps_collection_boxes", "addr:city": "BLYTHEVILLE", "addr:country": "US", "addr:postcode": "72315", "addr:state": "AR", "addr:street_address": "847 E MAIN ST", "amenity": "post_box", "collection_times": "Mo-Sa 15:25", "note": "ON 12/24 AND 12/31, THIS BOX MAY BE COLLECTED AS EARLY AS 12 NOON.", "nsi_id": "unitedstatespostalservice-a77078", "operator": "United States Postal Service", "operator:short": "USPS", "operator:type": "public", "operator:wikidata": "Q668687", "ref": "7231500047"}, "type": "Feature"}
{"geometry": {"coordinates": [-89.8703531, 35.930645], "type": "Point"}, "id": "atq-LpbuUJWR9AZ5XMCCxBJ9jsc=", "properties": {"@source_uri": "https://tools.usps.com/UspsToolsRestServices/rest/POLocator/findLocations", "@spider": "usps_collection_boxes", "addr:city": "BLYTHEVILLE", "addr:country": "US", "addr:postcode": "72315", "addr:state": "AR", "addr:street_address": "3710 E MAIN ST", "amenity": "post_box", "collection_times": "Mo-Sa 10:00", "nsi_id": "unitedstatespostalservice-a77078", "operator": "United States Postal Service", "operator:short": "USPS", "operator:type": "public", "operator:wikidata": "Q668687", "ref": "7231500048"}, "type": "Feature"}
{"geometry": {"coordinates": [-89.906801128, 35.932334248], "type": "Point"}, "id": "xOO-ZVXqMo2irUqk-0nT9qps5Tc=", "properties": {"@source_uri": "https://tools.usps.com/UspsToolsRestServices/rest/POLocator/findLocations", "@spider": "usps_collection_boxes", "addr:city": "BLYTHEVILLE", "addr:country": "US", "addr:postcode": "72315", "addr:state": "AR", "addr:street_address": "600 N BROADWAY ST", "amenity": "post_box", "collection_times": "Mo-Fr 17:00; Sa 12:30", "indoor": "yes", "note": "ON 12/24 AND 12/31, THIS BOX MAY BE COLLECTED AS EARLY AS 12 NOON.", "nsi_id": "unitedstatespostalservice-a77078", "operator": "United States Postal Service", "operator:short": "USPS", "operator:type": "public", "operator:wikidata": "Q668687", "ref": "7231500050"}, "type": "Feature"}
{"geometry": {"coordinates": [-90.592101557, 34.8616814321], "type": "Point"}, "id": "oER1siW7U0OuAB5WShC_CpPBIec=", "properties": {"@source_uri": "https://tools.usps.com/UspsToolsRestServices/rest/POLocator/findLocations", "@spider": "usps_collection_boxes", "addr:city": "BRICKEYS", "addr:country": "US", "addr:postcode": "72320", "addr:state": "AR", "addr:street_address": "12092 HIGHWAY 79 N", "amenity": "post_box", "collection_times": "Mo-Fr 15:30; Sa 11:15", "note": "ON 12/24 AND 12/31, THIS BOX MAY BE COLLECTED AS EARLY AS 12 NOON.", "nsi_id": "unitedstatespostalservice-a77078", "operator": "United States Postal Service", "operator:short": "USPS", "operator:type": "public", "operator:wikidata": "Q668687", "ref": "7232000001"}, "type": "Feature"}
{"geometry": {"coordinates": [-90.592101557, 34.8616814321], "type": "Point"}, "id": "DttEp4XZ_VhZeKO9jQlpeIq2BGw=", "properties": {"@source_uri": "https://tools.usps.com/UspsToolsRestServices/rest/POLocator/findLocations", "@spider": "usps_collection_boxes", "addr:city": "BRICKEYS", "addr:country": "US", "addr:postcode": "72320", "addr:state": "AR", "addr:street_address": "12092 HIGHWAY 79 N", "amenity": "post_box", "collection_times": "Mo-Fr 15:30; Sa 11:15", "indoor": "yes", "note": "ON 12/24 AND 12/31, THIS BOX MAY BE COLLECTED AS EARLY AS 12 NOON.", "nsi_id": "unitedstatespostalservice-a77078", "operator": "United States Postal Service", "operator:short": "USPS", "operator:type": "public", "operator:wikidata": "Q668687", "ref": "7232000002"}, "type": "Feature"}
{"geometry": {"coordinates": [-90.592101557, 34.8616814321], "type": "Point"}, "id": "N087B4gWTQE5IvjJuFTTIvt00eU=", "properties": {"@source_uri": "https://tools.usps.com/UspsToolsRestServices/rest/POLocator/findLocations", "@spider": "usps_collection_boxes", "addr:city": "BRICKEYS", "addr:country": "US", "addr:postcode": "72320", "addr:state": "AR", "addr:street_address": "12092 HIGHWAY 79 N", "amenity": "post_box", "collection_times": "Mo-Fr 16:00; Sa 11:00", "indoor": "yes", "note": "ON 12/24 AND 12/31, THIS BOX MAY BE COLLECTED AS EARLY AS 12 NOON.", "nsi_id": "unitedstatespostalservice-a77078", "operator": "United States Postal Service", "operator:short": "USPS", "operator:type": "public", "operator:wikidata": "Q668687", "ref": "7232000004"}, "type": "Feature"}
{"geometry": {"coordinates": [-89.9303743455, 35.8201324688], "type": "Point"}, "id": "2_tx5C59_K6z8Q7tasvbO_o5chI=", "properties": {"@source_uri": "https://tools.usps.com/UspsToolsRestServices/rest/POLocator/findLocations", "@spider": "usps_collection_boxes", "addr:city": "BURDETTE", "addr:country": "US", "addr:postcode": "72321", "addr:state": "AR", "addr:street_address": "157 PLANTATION DR", "amenity": "post_box", "collection_times": "Mo-Fr 14:00; Sa 10:45", "note": "ON 12/24 AND 12/31, THIS BOX MAY BE COLLECTED AS EARLY AS 12 NOON.", "nsi_id": "unitedstatespostalservice-a77078", "operator": "United States Postal Service", "operator:short": "USPS", "operator:type": "public", "operator:wikidata": "Q668687", "ref": "7232100001"}, "type": "Feature"}
{"geometry": {"coordinates": [-89.9303743455, 35.8201324688], "type": "Point"}, "id": "tIiAzdTcuFm57XAUHSsK_OQHV7E=", "properties": {"@source_uri": "https://tools.usps.com/UspsToolsRestServices/rest/POLocator/findLocations", "@spider": "usps_collection_boxes", "addr:city": "BURDETTE", "addr:country": "US", "addr:postcode": "72321", "addr:state": "AR", "addr:street_address": "157 PLANTATION DR", "amenity": "post_box", "collection_times": "Mo-Fr 14:00; Sa 10:45", "indoor": "yes", "note": "ON 12/24 AND 12/31, THIS BOX MAY BE COLLECTED AS EARLY AS 12 NOON.", "nsi_id": "unitedstatespostalservice-a77078", "operator": "United States Postal Service", "operator:short": "USPS", "operator:type": "public", "operator:wikidata": "Q668687", "ref": "7232100002"}, "type": "Feature"}
{"geometry": {"coordinates": [-89.9303743455, 35.8201324688], "type": "Point"}, "id": "d--P6ZTfTqgXvLSrWFOux4fU_24=", "properties": {"@source_uri": "https://tools.usps.com/UspsToolsRestServices/rest/POLocator/findLocations", "@spider": "usps_collection_boxes", "addr:city": "BURDETTE", "addr:country": "US", "addr:postcode": "72321", "addr:state": "AR", "addr:street_address": "157 PLANTATION DR", "amenity": "post_box", "collection_times": "Mo-Fr 14:00; Sa 10:45", "indoor": "yes", "note": "ON 12/24 AND 12/31, THIS BOX MAY BE COLLECTED AS EARLY AS 12 NOON.", "nsi_id": "unitedstatespostalservice-a77078", "operator": "United States Postal Service", "operator:short": "USPS", "operator:type": "public", "operator:wikidata": "Q668687", "ref": "7232100003"}, "type": "Feature"}
{"geometry": {"coordinates": [-89.941535905, 35.818606301], "type": "Point"}, "id": "eNnWNNwi_MHpWTjN87F6IhFWrd4=", "properties": {"@source_uri": "https://tools.usps.com/UspsToolsRestServices/rest/POLocator/findLocations", "@spider": "usps_collection_boxes", "addr:city": "BURDETTE", "addr:country": "US", "addr:postcode": "72321", "addr:state": "AR", "addr:street_address": "157 PLANTATION DR", "amenity": "post_box", "collection_times": "Mo-Fr 14:30; Sa 11:00", "indoor": "yes", "note": "ON 12/24 AND 12/31, THIS BOX MAY BE COLLECTED AS EARLY AS 12 NOON.", "nsi_id": "unitedstatespostalservice-a77078", "operator": "United States Postal Service", "operator:short": "USPS", "operator:type": "public", "operator:wikidata": "Q668687", "ref": "7232100004"}, "type": "Feature"}
{"geometry": {"coordinates": [-90.754352971, 35.402111982], "type": "Point"}, "id": "wgjHY88r0qYyXEyS3PQ5VKMoojs=", "properties": {"@source_uri": "https://tools.usps.com/UspsToolsRestServices/rest/POLocator/findLocations", "@spider": "usps_collection_boxes", "addr:city": "CHERRY VALLEY", "addr:country": "US", "addr:postcode": "72324", "addr:state": "AR", "addr:street_address": "3239 HIGHWAY 42", "amenity": "post_box", "collection_times": "Mo-Fr 16:00; Sa 11:00", "note": "ON 12/24 AND 12/31, THIS BOX MAY BE COLLECTED AS EARLY AS 12 NOON.", "nsi_id": "unitedstatespostalservice-a77078", "operator": "United States Postal Service", "operator:short": "USPS", "operator:type": "public", "operator:wikidata": "Q668687", "ref": "7232400001"}, "type": "Feature"}
{"geometry": {"coordinates": [-90.754352971, 35.402111982], "type": "Point"}, "id": "7W5AnkAsnQsE5pIaSGZ1AuMRK9E=", "properties": {"@source_uri": "https://tools.usps.com/UspsToolsRestServices/rest/POLocator/findLocations", "@spider": "usps_collection_boxes", "addr:city": "CHERRY VALLEY", "addr:country": "US", "addr:postcode": "72324", "addr:state": "AR", "addr:street_address": "3239 HIGHWAY 42", "amenity": "post_box", "collection_times": "Mo-Fr 11:30; Sa 11:00", "indoor": "yes", "nsi_id": "unitedstatespostalservice-a77078", "operator": "United States Postal Service", "operator:short": "USPS", "operator:type": "public", "operator:wikidata": "Q668687", "ref": "7232400002"}, "type": "Feature"}
{"geometry": {"coordinates": [-90.754352971, 35.402111982], "type": "Point"}, "id": "oJzvWO57rM6_3hNfNbRzT7_P2NE=", "properties": {"@source_uri": "https://tools.usps.com/UspsToolsRestServices/rest/POLocator/findLocations", "@spider": "usps_collection_boxes", "addr:city": "CHERRY VALLEY", "addr:country": "US", "addr:postcode": "72324", "addr:state": "AR", "addr:street_address": "3239 HIGHWAY 42", "amenity": "post_box", "collection_times": "Mo-Fr 11:30; Sa 11:00", "indoor": "yes", "nsi_id": "unitedstatespostalservice-a77078", "operator": "United States Postal Service", "operator:short": "USPS", "operator:type": "public", "operator:wikidata": "Q668687", "ref": "7232400003"}, "type": "Feature"}
{"geometry": {"coordinates": [-90.754352971, 35.402111982], "type": "Point"}, "id": "iSrYTMPNylMlnKl3gUL7UIqzewg=", "properties": {"@source_uri": "https://tools.usps.com/UspsToolsRestServices/rest/POLocator/findLocations", "@spider": "usps_collection_boxes", "addr:city": "CHERRY VALLEY", "addr:country": "US", "addr:postcode": "72324", "addr:state": "AR", "addr:street_address": "3239 HIGHWAY 42", "amenity": "post_box", "collection_times": "Mo-Fr 12:00; Sa 11:00", "indoor": "yes", "nsi_id": "unitedstatespostalservice-a77078", "operator": "United States Postal Service", "operator:short": "USPS", "operator:type": "public", "operator:wikidata": "Q668687", "ref": "7232400006"}, "type": "Feature"}
{"geometry": {"coordinates": [-90.237863983, 35.313444103], "type": "Point"}, "id": "D2tu5qMzsYpYAOt2bgqcxOWRY8Y=", "properties": {"@source_uri": "https://tools.usps.com/UspsToolsRestServices/rest/POLocator/findLocations", "@spider": "usps_collection_boxes", "addr:city": "CLARKEDALE", "addr:country": "US", "addr:postcode": "72325", "addr:state": "AR", "addr:street_address": "10555 HIGHWAY 77", "amenity": "post_box", "collection_times": "Mo-Fr 15:00; Sa 10:45", "note": "ON 12/24 AND 12/31, THIS BOX MAY BE COLLECTED AS EARLY AS 12 NOON.", "nsi_id": "unitedstatespostalservice-a77078", "operator": "United States Postal Service", "operator:short": "USPS", "operator:type": "public", "operator:wikidata": "Q668687", "ref": "7232500001"}, "type": "Feature"}
{"geometry": {"coordinates": [-90.237863983, 35.313444103], "type": "Point"}, "id": "hhrYryvwiBkTS9CGzuUt5FTWo0M=", "properties": {"@source_uri": "https://tools.usps.com/UspsToolsRestServices/rest/POLocator/findLocations", "@spider": "usps_collection_boxes", "addr:city": "CLARKEDALE", "addr:country": "US", "addr:postcode": "72325", "addr:state": "AR", "addr:street_address": "10555 HIGHWAY 77", "amenity": "post_box", "collection_times": "Mo-Fr 15:00; Sa 10:45", "indoor": "yes", "note": "ON 12/24 AND 12/31, THIS BOX MAY BE COLLECTED AS EARLY AS 12 NOON.", "nsi_id": "unitedstatespostalservice-a77078", "operator": "United States Postal Service", "operator:short": "USPS", "operator:type": "public", "operator:wikidata": "Q668687", "ref": "7232500002"}, "type": "Feature"}
{"geometry": {"coordinates": [-90.237863983, 35.313444103], "type": "Point"}, "id": "vcUfcXl51U7AZEsjygcZOAEBbvY=", "properties": {"@source_uri": "https://tools.usps.com/UspsToolsRestServices/rest/POLocator/findLocations", "@spider": "usps_collection_boxes", "addr:city": "CLARKEDALE", "addr:country": "US", "addr:postcode": "72325", "addr:state": "AR", "addr:street_address": "10555 HIGHWAY 77", "amenity": "post_box", "collection_times": "Mo-Fr 15:00; Sa 10:45", "indoor": "yes", "note": "ON 12/24 AND 12/31, THIS BOX MAY BE COLLECTED AS EARLY AS 12 NOON.", "nsi_id": "unitedstatespostalservice-a77078", "operator": "United States Postal Service", "operator:short": "USPS", "operator:type": "public", "operator:wikidata": "Q668687", "ref": "7232500003"}, "type": "Feature"}
{"geometry": {"coordinates": [-90.237863983, 35.313444103], "type": "Point"}, "id": "c7_RlkmX_UhDxoquwxw3pan5FiU=", "properties": {"@source_uri": "https://tools.usps.com/UspsToolsRestServices/rest/POLocator/findLocations", "@spider": "usps_collection_boxes", "addr:city": "CLARKEDALE", "addr:country": "US", "addr:postcode": "72325", "addr:state": "AR", "addr:street_address": "10555 HIGHWAY 77", "amenity": "post_box", "collection_times": "Mo-Fr 15:00; Sa 10:45", "indoor": "yes", "note": "ON 12/24 AND 12/31, THIS BOX MAY BE COLLECTED AS EARLY AS 12 NOON.", "nsi_id": "unitedstatespostalservice-a77078", "operator": "United States Postal Service", "operator:short": "USPS", "operator:type": "public", "operator:wikidata": "Q668687", "ref": "7232500004"}, "type": "Feature"}
{"geometry": {"coordinates": [-90.811581401, 35.1253370483], "type": "Point"}, "id": "x-Ryz5XgpcNS-05PTgOkPeQaHi8=", "properties": {"@source_uri": "https://tools.usps.com/UspsToolsRestServices/rest/POLocator/findLocations", "@spider": "usps_collection_boxes", "addr:city": "COLT", "addr:country": "US", "addr:postcode": "72326", "addr:state": "AR", "addr:street_address": "8587 HIGHWAY 1 N", "amenity": "post_box", "collection_times": "Mo-Fr 16:30; Sa 09:30", "note": "ON 12/24 AND 12/31, THIS BOX MAY BE COLLECTED AS EARLY AS 12 NOON.", "nsi_id": "unitedstatespostalservice-a77078", "operator": "United States Postal Service", "operator:short": "USPS", "operator:type": "public", "operator:wikidata": "Q668687", "ref": "7232600000"}, "type": "Feature"}
{"geometry": {"coordinates": [-90.811581401, 35.1253370483], "type": "Point"}, "id": "Cm1-VCpPf81QIHAvwNIzQiqUG2g=", "properties": {"@source_uri": "https://tools.usps.com/UspsToolsRestServices/rest/POLocator/findLocations", "@spider": "usps_collection_boxes", "addr:city": "COLT", "addr:country": "US", "addr:postcode": "72326", "addr:state": "AR", "addr:street_address": "8587 HIGHWAY 1 N", "amenity": "post_box", "collection_times": "Mo-Fr 14:00; Sa 09:30", "indoor": "yes", "note": "ON 12/24 AND 12/31, THIS BOX MAY BE COLLECTED AS EARLY AS 12 NOON.", "nsi_id": "unitedstatespostalservice-a77078", "operator": "United States Postal Service", "operator:short": "USPS", "operator:type": "public", "operator:wikidata": "Q668687", "ref": "7232600001"}, "type": "Feature"}
{"geometry": {"coordinates": [-90.811581401, 35.1253370483], "type": "Point"}, "id": "CghSxZRKf4ZokJ9ZMQVHzXjkLag=", "properties": {"@source_uri": "https://tools.usps.com/UspsToolsRestServices/rest/POLocator/findLocations", "@spider": "usps_collection_boxes", "addr:city": "COLT", "addr:country": "US", "addr:postcode": "72326", "addr:state": "AR", "addr:street_address": "8587 HIGHWAY 1 N", "amenity": "post_box", "collection_times": "Mo-Fr 14:15; Sa 09:30", "indoor": "yes", "note": "ON 12/24 AND 12/31, THIS BOX MAY BE COLLECTED AS EARLY AS 12 NOON.", "nsi_id": "unitedstatespostalservice-a77078", "operator": "United States Postal Service", "operator:short": "USPS", "operator:type": "public", "operator:wikidata": "Q668687", "ref": "7232600005"}, "type": "Feature"}
{"geometry": {"coordinates": [-90.3267400387, 35.2210300161], "type": "Point"}, "id": "Ni3EP8nDyAEIhzPtU3st4xVhPKM=", "properties": {"@source_uri": "https://tools.usps.com/UspsToolsRestServices/rest/POLocator/findLocations", "@spider": "usps_collection_boxes", "addr:city": "CRAWFORDSVILLE", "addr:country": "US", "addr:postcode": "72327", "addr:state": "AR", "addr:street_address": "5482 MAIN ST", "amenity": "post_box", "collection_times": "Mo-Fr 11:30; Sa 11:45", "nsi_id": "unitedstatespostalservice-a77078", "operator": "United States Postal Service", "operator:short": "USPS", "operator:type": "public", "operator:wikidata": "Q668687", "ref": "7232700001"}, "type": "Feature"}
{"geometry": {"coordinates": [-90.3267400387, 35.2210300161], "type": "Point"}, "id": "HuQd61QqzR_65ruuu4b2XOpiJxw=", "properties": {"@source_uri": "https://tools.usps.com/UspsToolsRestServices/rest/POLocator/findLocations", "@spider": "usps_collection_boxes", "addr:city": "CRAWFORDSVILLE", "addr:country": "US", "addr:postcode": "72327", "addr:state": "AR", "addr:street_address": "5482 MAIN ST", "amenity": "post_box", "collection_times": "Mo-Fr 11:30; Sa 11:45", "indoor": "yes", "nsi_id": "unitedstatespostalservice-a77078", "operator": "United States Postal Service", "operator:short": "USPS", "operator:type": "public", "operator:wikidata": "Q668687", "ref": "7232700002"}, "type": "Feature"}
{"geometry": {"coordinates": [-90.3267400387, 35.2210300161], "type": "Point"}, "id": "Q55pch22AQtvlwIdTI4oginCqZs=", "properties": {"@source_uri": "https://tools.usps.com/UspsToolsRestServices/rest/POLocator/findLocations", "@spider": "usps_collection_boxes", "addr:city": "CRAWFORDSVILLE", "addr:country": "US", "addr:postcode": "72327", "addr:state": "AR", "addr:street_address": "5482 MAIN ST", "amenity": "post_box", "collection_times": "Mo-Fr 11:30; Sa 11:45", "indoor": "yes", "nsi_id": "unitedstatespostalservice-a77078", "operator": "United States Postal Service", "operator:short": "USPS", "operator:type": "public", "operator:wikidata": "Q668687", "ref": "7232700003"}, "type": "Feature"}
{"geometry": {"coordinates": [-90.3267400387, 35.2210300161], "type": "Point"}, "id": "s7bZWlWgoI1QtSPL0vENVGK6acg=", "properties": {"@source_uri": "https://tools.usps.com/UspsToolsRestServices/rest/POLocator/findLocations", "@spider": "usps_collection_boxes", "addr:city": "CRAWFORDSVILLE", "addr:country": "US", "addr:postcode": "72327", "addr:state": "AR", "addr:street_address": "5482 MAIN ST", "amenity": "post_box", "collection_times": "Mo-Sa 11:30", "indoor": "yes", "nsi_id": "unitedstatespostalservice-a77078", "operator": "United States Postal Service", "operator:short": "USPS", "operator:type": "public", "operator:wikidata": "Q668687", "ref": "7232700005"}, "type": "Feature"}
{"geometry": {"coordinates": [-90.9842007759, 34.1388169003], "type": "Point"}, "id": "PIMcX42y0Py3hRxSV00RNgauL4I=", "properties": {"@source_uri": "https://tools.usps.com/UspsToolsRestServices/rest/POLocator/findLocations", "@spider": "usps_collection_boxes", "addr:city": "CRUMROD", "addr:country": "US", "addr:postcode": "72328", "addr:state": "AR", "addr:street_address": "38305 HIGHWAY 44 S", "amenity": "post_box", "collection_times": "Mo-Fr 14:30; Sa 08:30", "indoor": "yes", "note": "ON 12/24 AND 12/31, THIS BOX MAY BE COLLECTED AS EARLY AS 12 NOON.", "nsi_id": "unitedstatespostalservice-a77078", "operator": "United States Postal Service", "operator:short": "USPS", "operator:type": "public", "operator:wikidata": "Q668687", "ref": "7232800000"}, "type": "Feature"}
{"geometry": {"coordinates": [-90.9842007759, 34.1388169003], "type": "Point"}, "id": "GN8Z1LsbmxaukmOHsBg2mzXae30=", "properties": {"@source_uri": "https://tools.usps.com/UspsToolsRestServices/rest/POLocator/findLocations", "@spider": "usps_collection_boxes", "addr:city": "CRUMROD", "addr:country": "US", "addr:postcode": "72328", "addr:state": "AR", "addr:street_address": "38305 HIGHWAY 44 S", "amenity": "post_box", "collection_times": "Mo-Fr 14:30; Sa 08:30", "note": "ON 12/24 AND 12/31, THIS BOX MAY BE COLLECTED AS EARLY AS 12 NOON.", "nsi_id": "unitedstatespostalservice-a77078", "operator": "United States Postal Service", "operator:short": "USPS", "operator:type": "public", "operator:wikidata": "Q668687", "ref": "7232800001"}, "type": "Feature"}
{"geometry": {"coordinates": [-90.9842007759, 34.1388169003], "type": "Point"}, "id": "J-CcKH2BDHfcUs1z0pSXaycjtO8=", "properties": {"@source_uri": "https://tools.usps.com/UspsToolsRestServices/rest/POLocator/findLocations", "@spider": "usps_collection_boxes", "addr:city": "CRUMROD", "addr:country": "US", "addr:postcode": "72328", "addr:state": "AR", "addr:street_address": "38305 HIGHWAY 44 S", "amenity": "post_box", "collection_times": "Mo-Fr 15:15; Sa 08:30", "indoor": "yes", "note": "ON 12/24 AND 12/31, THIS BOX MAY BE COLLECTED AS EARLY AS 12 NOON.", "nsi_id": "unitedstatespostalservice-a77078", "operator": "United States Postal Service", "operator:short": "USPS", "operator:type": "public", "operator:wikidata": "Q668687", "ref": "7232800003"}, "type": "Feature"}
{"geometry": {"coordinates": [-90.213846, 35.589131], "type": "Point"}, "id": "Bvp3wtVIbC8TjHqgaIsLTyJ6UAM=", "properties": {"@source_uri": "https://tools.usps.com/UspsToolsRestServices/rest/POLocator/findLocations", "@spider": "usps_collection_boxes", "addr:city": "DYESS", "addr:country": "US", "addr:postcode": "72330", "addr:state": "AR", "addr:street_address": "105 HIGHWAY 297 N", "amenity": "post_box", "collection_times": "Mo-Fr 12:00; Sa 10:45", "nsi_id": "unitedstatespostalservice-a77078", "operator": "United States Postal Service", "operator:short": "USPS", "operator:type": "public", "operator:wikidata": "Q668687", "ref": "7233000001"}, "type": "Feature"}
{"geometry": {"coordinates": [-90.213846, 35.589131], "type": "Point"}, "id": "q8RTHQ6s9S_8PJ_hSkRcFstvoig=", "properties": {"@source_uri": "https://tools.usps.com/UspsToolsRestServices/rest/POLocator/findLocations", "@spider": "usps_collection_boxes", "addr:city": "DYESS", "addr:country": "US", "addr:postcode": "72330", "addr:state": "AR", "addr:street_address": "105 HIGHWAY 297 N", "amenity": "post_box", "collection_times": "Mo-Fr 12:00; Sa 10:45", "indoor": "yes", "nsi_id": "unitedstatespostalservice-a77078", "operator": "United States Postal Service", "operator:short": "USPS", "operator:type": "public", "operator:wikidata": "Q668687", "ref": "7233000002"}, "type": "Feature"}
{"geometry": {"coordinates": [-90.213846, 35.589131], "type": "Point"}, "id": "dT3i4epvYUmySBx0VmrGrurcje4=", "properties": {"@source_uri": "https://tools.usps.com/UspsToolsRestServices/rest/POLocator/findLocations", "@spider": "usps_collection_boxes", "addr:city": "DYESS", "addr:country": "US", "addr:postcode": "72330", "addr:state": "AR", "addr:street_address": "105 HIGHWAY 297 N", "amenity": "post_box", "collection_times": "Mo-Fr 12:00; Sa 10:45", "indoor": "yes", "nsi_id": "unitedstatespostalservice-a77078", "operator": "United States Postal Service", "operator:short": "USPS", "operator:type": "public", "operator:wikidata": "Q668687", "ref": "7233000003"}, "type": "Feature"}
{"geometry": {"coordinates": [-90.213876646, 35.58915289], "type": "Point"}, "id": "auaSY3rCr8pKXaqN9HPrYDFaYy8=", "properties": {"@source_uri": "https://tools.usps.com/UspsToolsRestServices/rest/POLocator/findLocations", "@spider": "usps_collection_boxes", "addr:city": "DYESS", "addr:country": "US", "addr:postcode": "72330", "addr:state": "AR", "addr:street_address": "105 HIGHWAY 297 N", "amenity": "post_box", "collection_times": "Mo-Fr 12:00; Sa 10:30", "indoor": "yes", "nsi_id": "unitedstatespostalservice-a77078", "operator": "United States Postal Service", "operator:short": "USPS", "operator:type": "public", "operator:wikidata": "Q668687", "ref": "7233000004"}, "type": "Feature"}
{"geometry": {"coordinates": [-90.4643750798, 35.2717008839], "type": "Point"}, "id": "f0OgxH1-qIGk2gbZ3-c9qA-6H8Q=", "properties": {"@source_uri": "https://tools.usps.com/UspsToolsRestServices/rest/POLocator/findLocations", "@spider": "usps_collection_boxes", "addr:city": "EARLE", "addr:country": "US", "addr:postcode": "72331", "addr:state": "AR", "addr:street_address": "700 EXCHANGE ST", "amenity": "post_box", "collection_times": "Mo-Fr 16:00; Sa 11:00", "note": "ON 12/24 AND 12/31, THIS BOX MAY BE COLLECTED AS EARLY AS 12 NOON.", "nsi_id": "unitedstatespostalservice-a77078", "operator": "United States Postal Service", "operator:short": "USPS", "operator:type": "public", "operator:wikidata": "Q668687", "ref": "7233100001"}, "type": "Feature"}
{"geometry": {"coordinates": [-90.4643750798, 35.2717008839], "type": "Point"}, "id": "iUb5_L06fgBnmJemxkWmpMnkWS8=", "properties": {"@source_uri": "https://tools.usps.com/UspsToolsRestServices/rest/POLocator/findLocations", "@spider": "usps_collection_boxes", "addr:city": "EARLE", "addr:country": "US", "addr:postcode": "72331", "addr:state": "AR", "addr:street_address": "700 EXCHANGE ST", "amenity": "post_box", "collection_times": "Mo-Fr 16:00; Sa 11:00", "indoor": "yes", "note": "ON 12/24 AND 12/31, THIS BOX MAY BE COLLECTED AS EARLY AS 12 NOON.", "nsi_id": "unitedstatespostalservice-a77078", "operator": "United States Postal Service", "operator:short": "USPS", "operator:type": "public", "operator:wikidata": "Q668687", "ref": "7233100008"}, "type": "Feature"}
{"geometry": {"coordinates": [-90.4643750798, 35.2717008839], "type": "Point"}, "id": "T_Lax9Yyj-xr8YRCcnekh0sJPGo=", "properties": {"@source_uri": "https://tools.usps.com/UspsToolsRestServices/rest/POLocator/findLocations", "@spider": "usps_collection_boxes", "addr:city": "EARLE", "addr:country": "US", "addr:postcode": "72331", "addr:state": "AR", "addr:street_address": "700 EXCHANGE ST", "amenity": "post_box", "collection_times": "Mo-Fr 16:00; Sa 11:00", "indoor": "yes", "note": "ON 12/24 AND 12/31, THIS BOX MAY BE COLLECTED AS EARLY AS 12 NOON.", "nsi_id": "unitedstatespostalservice-a77078", "operator": "United States Postal Service", "operator:short": "USPS", "operator:type": "public", "operator:wikidata": "Q668687", "ref": "7233100012"}, "type": "Feature"}
{"geometry": {"coordinates": [-90.3065697431, 35.1024718094], "type": "Point"}, "id": "vGC1oTzCEpDpFXuAd53WZAxzN4g=", "properties": {"@source_uri": "https://tools.usps.com/UspsToolsRestServices/rest/POLocator/findLocations", "@spider": "usps_collection_boxes", "addr:city": "EDMONDSON", "addr:country": "US", "addr:postcode": "72332", "addr:state": "AR", "addr:street_address": "94 WARD ST", "amenity": "post_box", "collection_times": "Mo-Fr 15:45; Sa 10:45", "indoor": "yes", "note": "ON 12/24 AND 12/31, THIS BOX MAY BE COLLECTED AS EARLY AS 12 NOON.", "nsi_id": "unitedstatespostalservice-a77078", "operator": "United States Postal Service", "operator:short": "USPS", "operator:type": "public", "operator:wikidata": "Q668687", "ref": "7233200001"}, "type": "Feature"}
{"geometry": {"coordinates": [-90.3065697431, 35.1024718094], "type": "Point"}, "id": "U_YRTavyuuV8UP456GfucfAWChk=", "properties": {"@source_uri": "https://tools.usps.com/UspsToolsRestServices/rest/POLocator/findLocations", "@spider": "usps_collection_boxes", "addr:city": "EDMONDSON", "addr:country": "US", "addr:postcode": "72332", "addr:state": "AR", "addr:street_address": "94 WARD ST", "amenity": "post_box", "collection_times": "Mo-Fr 15:45; Sa 10:45", "note": "ON 12/24 AND 12/31, THIS BOX MAY BE COLLECTED AS EARLY AS 12 NOON.", "nsi_id": "unitedstatespostalservice-a77078", "operator": "United States Postal Service", "operator:short": "USPS", "operator:type": "public", "operator:wikidata": "Q668687", "ref": "7233200002"}, "type": "Feature"}
{"geometry": {"coordinates": [-90.3065697431, 35.1024718094], "type": "Point"}, "id": "lgHBt3UXiyQHoV608JJ6xeGVExg=", "properties": {"@source_uri": "https://tools.usps.com/UspsToolsRestServices/rest/POLocator/findLocations", "@spider": "usps_collection_boxes", "addr:city": "EDMONDSON", "addr:country": "US", "addr:postcode": "72332", "addr:state": "AR", "addr:street_address": "94 WARD ST", "amenity": "post_box", "collection_times": "Mo-Fr 16:00; Sa 10:30", "indoor": "yes", "note": "ON 12/24 AND 12/31, THIS BOX MAY BE COLLECTED AS EARLY AS 12 NOON.", "nsi_id": "unitedstatespostalservice-a77078", "operator": "United States Postal Service", "operator:short": "USPS", "operator:type": "public", "operator:wikidata": "Q668687", "ref": "7233200003"}, "type": "Feature"}
{"geometry": {"coordinates": [-90.8543183984, 34.307729548], "type": "Point"}, "id": "CiWw79hohK3-_u_s4a2P42N4U4A=", "properties": {"@source_uri": "https://tools.usps.com/UspsToolsRestServices/rest/POLocator/findLocations", "@spider": "usps_collection_boxes", "addr:city": "ELAINE", "addr:country": "US", "addr:postcode": "72333", "addr:state": "AR", "addr:street_address": "217 MAIN ST", "amenity": "post_box", "collection_times": "Mo-Fr 15:45; Sa 12:00", "note": "ON 12/24 AND 12/31, THIS BOX MAY BE COLLECTED AS EARLY AS 12 NOON.", "nsi_id": "unitedstatespostalservice-a77078", "operator": "United States Postal Service", "operator:short": "USPS", "operator:type": "public", "operator:wikidata": "Q668687", "ref": "7233300000"}, "type": "Feature"}
{"geometry": {"coordinates": [-90.8543183984, 34.307729548], "type": "Point"}, "id": "XiAwnFWBnmGX9gGUskKdFGG_BwQ=", "properties": {"@source_uri": "https://tools.usps.com/UspsToolsRestServices/rest/POLocator/findLocations", "@spider": "usps_collection_boxes", "addr:city": "ELAINE", "addr:country": "US", "addr:postcode": "72333", "addr:state": "AR", "addr:street_address": "217 MAIN ST", "amenity": "post_box", "collection_times": "Mo-Fr 16:00; Sa 12:00", "indoor": "yes", "note": "ON 12/24 AND 12/31, THIS BOX MAY BE COLLECTED AS EARLY AS 12 NOON.", "nsi_id": "unitedstatespostalservice-a77078", "operator": "United States Postal Service", "operator:short": "USPS", "operator:type": "public", "operator:wikidata": "Q668687", "ref": "7233300001"}, "type": "Feature"}
{"geometry": {"coordinates": [-90.8543183984, 34.307729548], "type": "Point"}, "id": "6ThVA2CWbOz05mfz7Hv4oRjaZng=", "properties": {"@source_uri": "https://tools.usps.com/UspsToolsRestServices/rest/POLocator/findLocations", "@spider": "usps_collection_boxes", "addr:city": "ELAINE", "addr:country": "US", "addr:postcode": "72333", "addr:state": "AR", "addr:street_address": "217 MAIN ST", "amenity": "post_box", "collection_times": "Mo-Fr 16:00; Sa 12:00", "indoor": "yes", "note": "ON 12/24 AND 12/31, THIS BOX MAY BE COLLECTED AS EARLY AS 12 NOON.", "nsi_id": "unitedstatespostalservice-a77078", "operator": "United States Postal Service", "operator:short": "USPS", "operator:type": "public", "operator:wikidata": "Q668687", "ref": "7233300003"}, "type": "Feature"}
{"geometry": {"coordinates": [-90.7770029692, 35.0112300157], "type": "Point"}, "id": "Mj2wI2IFN9euzwrsMlXZLaXh9Tg=", "properties": {"@source_uri": "https://tools.usps.com/UspsToolsRestServices/rest/POLocator/findLocations", "@spider": "usps_collection_boxes", "addr:city": "FORREST CITY", "addr:country": "US", "addr:postcode": "72335", "addr:state": "AR", "addr:street_address": "1200 E BROADWAY ST", "amenity": "post_box", "collection_times": "Mo-Fr 13:00", "note": "ON 12/24 AND 12/31, THIS BOX MAY BE COLLECTED AS EARLY AS 12 NOON.", "nsi_id": "unitedstatespostalservice-a77078", "operator": "United States Postal Service", "operator:short": "USPS", "operator:type": "public", "operator:wikidata": "Q668687", "ref": "7233500015"}, "type": "Feature"}
{"geometry": {"coordinates": [-90.7834217664, 35.0078948223], "type": "Point"}, "id": "hXK42BxwSHQXL18iS1cztuoSzyQ=", "properties": {"@source_uri": "https://tools.usps.com/UspsToolsRestServices/rest/POLocator/findLocations", "@spider": "usps_collection_boxes", "addr:city": "FORREST CITY", "addr:country": "US", "addr:postcode": "72335", "addr:state": "AR", "addr:street_address": "313 S IZARD ST", "amenity": "post_box", "collection_times": "Mo-Fr 15:00", "note": "ON 12/24 AND 12/31, THIS BOX MAY BE COLLECTED AS EARLY AS 12 NOON.", "nsi_id": "unitedstatespostalservice-a77078", "operator": "United States Postal Service", "operator:short": "USPS", "operator:type": "public", "operator:wikidata": "Q668687", "ref": "7233500017"}, "type": "Feature"}
{"geometry": {"coordinates": [-90.7837049713, 35.0101239816], "type": "Point"}, "id": "4dCTy9qBdaNr7hwSPxuoFyhwciA=", "properties": {"@source_uri": "https://tools.usps.com/UspsToolsRestServices/rest/POLocator/findLocations", "@spider": "usps_collection_boxes", "addr:city": "FORREST CITY", "addr:country": "US", "addr:postcode": "72335", "addr:state": "AR", "addr:street_address": "621 E BROADWAY ST", "amenity": "post_box", "collection_times": "Mo-Fr 17:00; Sa 16:30", "note": "ON 12/24 AND 12/31, THIS BOX MAY BE COLLECTED AS EARLY AS 12 NOON.", "nsi_id": "unitedstatespostalservice-a77078", "operator": "United States Postal Service", "operator:short": "USPS", "operator:type": "public", "operator:wikidata": "Q668687", "ref": "7233500023"}, "type": "Feature"}
{"geometry": {"coordinates": [-90.7837049713, 35.0101239816], "type": "Point"}, "id": "qAVSEJSa0v2CxI8J7Wz8itVweuM=", "properties": {"@source_uri": "https://tools.usps.com/UspsToolsRestServices/rest/POLocator/findLocations", "@spider": "usps_collection_boxes", "addr:city": "FORREST CITY", "addr:country": "US", "addr:postcode": "72335", "addr:state": "AR", "addr:street_address": "621 E BROADWAY ST", "amenity": "post_box", "collection_times": "Mo-Fr 17:00; Sa 16:30", "indoor": "yes", "note": "ON 12/24 AND 12/31, THIS BOX MAY BE COLLECTED AS EARLY AS 12 NOON.", "nsi_id": "unitedstatespostalservice-a77078", "operator": "United States Postal Service", "operator:short": "USPS", "operator:type": "public", "operator:wikidata": "Q668687", "ref": "7233500026"}, "type": "Feature"}
{"geometry": {"coordinates": [-90.7837049713, 35.0101239816], "type": "Point"}, "id": "K8xa1rUYFvEUJ48wETNup4gLw9I=", "properties": {"@source_uri": "https://tools.usps.com/UspsToolsRestServices/rest/POLocator/findLocations", "@spider": "usps_collection_boxes", "addr:city": "FORREST CITY", "addr:country": "US", "addr:postcode": "72335", "addr:state": "AR", "addr:street_address": "621 E BROADWAY ST", "amenity": "post_box", "collection_times": "Mo-Fr 17:00; Sa 16:30", "indoor": "yes", "note": "ON 12/24 AND 12/31, THIS BOX MAY BE COLLECTED AS EARLY AS 12 NOON.", "nsi_id": "unitedstatespostalservice-a77078", "operator": "United States Postal Service", "operator:short": "USPS", "operator:type": "public", "operator:wikidata": "Q668687", "ref": "7233500028"}, "type": "Feature"}
{"geometry": {"coordinates": [-90.7837049713, 35.0101239816], "type": "Point"}, "id": "j-u6i0_EjOnPu0ym5tDHmwEjpW8=", "properties": {"@source_uri": "https://tools.usps.com/UspsToolsRestServices/rest/POLocator/findLocations", "@spider": "usps_collection_boxes", "addr:city": "FORREST CITY", "addr:country": "US", "addr:postcode": "72335", "addr:state": "AR", "addr:street_address": "621 E BROADWAY ST", "amenity": "post_box", "collection_times": "Mo-Fr 17:00; Sa 16:30", "indoor": "yes", "note": "ON 12/24 AND 12/31, THIS BOX MAY BE COLLECTED AS EARLY AS 12 NOON.", "nsi_id": "unitedstatespostalservice-a77078", "operator": "United States Postal Service", "operator:short": "USPS", "operator:type": "public", "operator:wikidata": "Q668687", "ref": "7233500029"}, "type": "Feature"}
{"geometry": {"coordinates": [-90.7936390353, 35.0283019827], "type": "Point"}, "id": "lVOi_AWoECmuBH2LbVlp8mQz_Vs=", "properties": {"@source_uri": "https://tools.usps.com/UspsToolsRestServices/rest/POLocator/findLocations", "@spider": "usps_collection_boxes", "addr:city": "FORREST CITY", "addr:country": "US", "addr:postcode": "72335", "addr:state": "AR", "addr:street_address": "205 DEADRICK RD", "amenity": "post_box", "collection_times": "Mo-Sa 14:00", "note": "ON 12/24 AND 12/31, THIS BOX MAY BE COLLECTED AS EARLY AS 12 NOON.", "nsi_id": "unitedstatespostalservice-a77078", "operator": "United States Postal Service", "operator:short": "USPS", "operator:type": "public", "operator:wikidata": "Q668687", "ref": "7233500035"}, "type": "Feature"}
{"geometry": {"coordinates": [-90.7837049713, 35.0101239816], "type": "Point"}, "id": "pMUophaTp8QbV98-b4yJaM0vQuw=", "properties": {"@source_uri": "https://tools.usps.com/UspsToolsRestServices/rest/POLocator/findLocations", "@spider": "usps_collection_boxes", "addr:city": "FORREST CITY", "addr:country": "US", "addr:postcode": "72335", "addr:state": "AR", "addr:street_address": "621 E BROADWAY ST", "amenity": "post_box", "collection_times": "Mo-Fr 17:00; Sa 12:00", "indoor": "yes", "note": "ON 12/24 AND 12/31, THIS BOX MAY BE COLLECTED AS EARLY AS 12 NOON.", "nsi_id": "unitedstatespostalservice-a77078", "operator": "United States Postal Service", "operator:short": "USPS", "operator:type": "public", "operator:wikidata": "Q668687", "ref": "7233500037"}, "type": "Feature"}
{"geometry": {"coordinates": [-90.199192617, 35.452324916], "type": "Point"}, "id": "3GPnsBrXEW5cDkebY6nTU3goG80=", "properties": {"@source_uri": "https://tools.usps.com/UspsToolsRestServices/rest/POLocator/findLocations", "@spider": "usps_collection_boxes", "addr:city": "FRENCHMAN'S BAYO", "addr:country": "US", "addr:postcode": "72338", "addr:state": "AR", "addr:street_address": "8071 S US HIGHWAY 61", "amenity": "post_box", "collection_times": "Mo-Fr 14:15; Sa 15:30", "note": "ON 12/24 AND 12/31, THIS BOX MAY BE COLLECTED AS EARLY AS 12 NOON.", "nsi_id": "unitedstatespostalservice-a77078", "operator": "United States Postal Service", "operator:short": "USPS", "operator:type": "public", "operator:wikidata": "Q668687", "ref": "7233800000"}, "type": "Feature"}
{"geometry": {"coordinates": [-90.199192617, 35.452324916], "type": "Point"}, "id": "kX3ZNi2A5UmpEJHzDebvvPBcAv8=", "properties": {"@source_uri": "https://tools.usps.com/UspsToolsRestServices/rest/POLocator/findLocations", "@spider": "usps_collection_boxes", "addr:city": "FRENCHMAN'S BAYO", "addr:country": "US", "addr:postcode": "72338", "addr:state": "AR", "addr:street_address": "8071 S US HIGHWAY 61", "amenity": "post_box", "collection_times": "Mo-Fr 14:15; Sa 15:30", "indoor": "yes", "note": "ON 12/24 AND 12/31, THIS BOX MAY BE COLLECTED AS EARLY AS 12 NOON.", "nsi_id": "unitedstatespostalservice-a77078", "operator": "United States Postal Service", "operator:short": "USPS", "operator:type": "public", "operator:wikidata": "Q668687", "ref": "7233800001"}, "type": "Feature"}
{"geometry": {"coordinates": [-90.199192617, 35.452324916], "type": "Point"}, "id": "vV4iLWwhWczOQlgfLw_Uov8q7Ls=", "properties": {"@source_uri": "https://tools.usps.com/UspsToolsRestServices/rest/POLocator/findLocations", "@spider": "usps_collection_boxes", "addr:city": "FRENCHMAN'S BAYO", "addr:country": "US", "addr:postcode": "72338", "addr:state": "AR", "addr:street_address": "8071 S US HIGHWAY 61", "amenity": "post_box", "collection_times": "Mo-Fr 14:15; Sa 15:30", "indoor": "yes", "note": "ON 12/24 AND 12/31, THIS BOX MAY BE COLLECTED AS EARLY AS 12 NOON.", "nsi_id": "unitedstatespostalservice-a77078", "operator": "United States Postal Service", "operator:short": "USPS", "operator:type": "public", "operator:wikidata": "Q668687", "ref": "7233800002"}, "type": "Feature"}
{"geometry": {"coordinates": [-90.199192617, 35.452324916], "type": "Point"}, "id": "jaIUvXSuJMXtTbPdvHcVMXQ0Hf4=", "properties": {"@source_uri": "https://tools.usps.com/UspsToolsRestServices/rest/POLocator/findLocations", "@spider": "usps_collection_boxes", "addr:city": "FRENCHMAN'S BAYO", "addr:country": "US", "addr:postcode": "72338", "addr:state": "AR", "addr:street_address": "8071 S US HIGHWAY 61", "amenity": "post_box", "collection_times": "Mo-Fr 14:30; Sa 15:45", "indoor": "yes", "note": "ON 12/24 AND 12/31, THIS BOX MAY BE COLLECTED AS EARLY AS 12 NOON.", "nsi_id": "unitedstatespostalservice-a77078", "operator": "United States Postal Service", "operator:short": "USPS", "operator:type": "public", "operator:wikidata": "Q668687", "ref": "7233800003"}, "type": "Feature"}
{"geometry": {"coordinates": [-90.282925, 35.415749], "type": "Point"}, "id": "-0vat1wFfxlu0CPXYmeAG9BiduY=", "properties": {"@source_uri": "https://tools.usps.com/UspsToolsRestServices/rest/POLocator/findLocations", "@spider": "usps_collection_boxes", "addr:city": "GILMORE", "addr:country": "US", "addr:postcode": "72339", "addr:state": "AR", "addr:street_address": "102 S FRONT ST", "amenity": "post_box", "collection_times": "Mo-Fr 09:45; Sa 10:00", "nsi_id": "unitedstatespostalservice-a77078", "operator": "United States Postal Service", "operator:short": "USPS", "operator:type": "public", "operator:wikidata": "Q668687", "ref": "7233900000"}, "type": "Feature"}
{"geometry": {"coordinates": [-90.282925, 35.415749], "type": "Point"}, "id": "UP_tsDt_sAoJMOCHCBExLBqmdJM=", "properties": {"@source_uri": "https://tools.usps.com/UspsToolsRestServices/rest/POLocator/findLocations", "@spider": "usps_collection_boxes", "addr:city": "GILMORE", "addr:country": "US", "addr:postcode": "72339", "addr:state": "AR", "addr:street_address": "102 S FRONT ST", "amenity": "post_box", "collection_times": "Mo-Fr 09:45; Sa 10:00", "indoor": "yes", "nsi_id": "unitedstatespostalservice-a77078", "operator": "United States Postal Service", "operator:short": "USPS", "operator:type": "public", "operator:wikidata": "Q668687", "ref": "7233900001"}, "type": "Feature"}
{"geometry": {"coordinates": [-90.282925, 35.415749], "type": "Point"}, "id": "zVUF4kmEsl8t3y8l_0UpOVUEfho=", "properties": {"@source_uri": "https://tools.usps.com/UspsToolsRestServices/rest/POLocator/findLocations", "@spider": "usps_collection_boxes", "addr:city": "GILMORE", "addr:country": "US", "addr:postcode": "72339", "addr:state": "AR", "addr:street_address": "102 S FRONT ST", "amenity": "post_box", "collection_times": "Mo-Fr 09:45; Sa 10:00", "indoor": "yes", "nsi_id": "unitedstatespostalservice-a77078", "operator": "United States Postal Service", "operator:short": "USPS", "operator:type": "public", "operator:wikidata": "Q668687", "ref": "7233900002"}, "type": "Feature"}
{"geometry": {"coordinates": [-90.282839546, 35.415742413], "type": "Point"}, "id": "QZj97zk93va5Qr6V_zuA-4Gr_B4=", "properties": {"@source_uri": "https://tools.usps.com/UspsToolsRestServices/rest/POLocator/findLocations", "@spider": "usps_collection_boxes", "addr:city": "GILMORE", "addr:country": "US", "addr:postcode": "72339", "addr:state": "AR", "addr:street_address": "102 S FRONT ST", "amenity": "post_box", "collection_times": "Mo-Fr 10:00; Sa 10:15", "indoor": "yes", "nsi_id": "unitedstatespostalservice-a77078", "operator": "United States Postal Service", "operator:short": "USPS", "operator:type": "public", "operator:wikidata": "Q668687", "ref": "7233900003"}, "type": "Feature"}
{"geometry": {"coordinates": [-91.0202507657, 34.9368257915], "type": "Point"}, "id": "3cGb_-11i9ZKB_8H09HlE12qhJY=", "properties": {"@source_uri": "https://tools.usps.com/UspsToolsRestServices/rest/POLocator/findLocations", "@spider": "usps_collection_boxes", "addr:city": "GOODWIN", "addr:country": "US", "addr:postcode": "72340", "addr:state": "AR", "addr:street_address": "75 SFC 907", "amenity": "post_box", "collection_times": "Mo-Fr 09:45; Sa 09:15", "nsi_id": "unitedstatespostalservice-a77078", "operator": "United States Postal Service", "operator:short": "USPS", "operator:type": "public", "operator:wikidata": "Q668687", "ref": "7234000000"}, "type": "Feature"}
{"geometry": {"coordinates": [-91.0202507657, 34.9368257915], "type": "Point"}, "id": "OBJjgVAPEPBsvYgbA1kpcd1XmdE=", "properties": {"@source_uri": "https://tools.usps.com/UspsToolsRestServices/rest/POLocator/findLocations", "@spider": "usps_collection_boxes", "addr:city": "GOODWIN", "addr:country": "US", "addr:postcode": "72340", "addr:state": "AR", "addr:street_address": "75 SFC 907", "amenity": "post_box", "collection_times": "Mo-Fr 09:45; Sa 09:15", "indoor": "yes", "nsi_id": "unitedstatespostalservice-a77078", "operator": "United States Postal Service", "operator:short": "USPS", "operator:type": "public", "operator:wikidata": "Q668687", "ref": "7234000001"}, "type": "Feature"}
{"geometry": {"coordinates": [-91.0202507657, 34.9368257915], "type": "Point"}, "id": "UI7AiR-ptumh_J4RhkqL2rmuBa8=", "properties": {"@source_uri": "https://tools.usps.com/UspsToolsRestServices/rest/POLocator/findLocations", "@spider": "usps_collection_boxes", "addr:city": "GOODWIN", "addr:country": "US", "addr:postcode": "72340", "addr:state": "AR", "addr:street_address": "75 SFC 907", "amenity": "post_box", "collection_times": "Mo-Fr 10:00; Sa 09:30", "indoor": "yes", "nsi_id": "unitedstatespostalservice-a77078", "operator": "United States Postal Service", "operator:short": "USPS", "operator:type": "public", "operator:wikidata": "Q668687", "ref": "7234000002"}, "type": "Feature"}
{"geometry": {"coordinates": [-90.7923750183, 34.8913338365], "type": "Point"}, "id": "DzYRyzQbIhPlD1B3X1rdma2QyLo=", "properties": {"@source_uri": "https://tools.usps.com/UspsToolsRestServices/rest/POLocator/findLocations", "@spider": "usps_collection_boxes", "addr:city": "HAYNES", "addr:country": "US", "addr:postcode": "72341", "addr:state": "AR", "addr:street_address": "8402 HIGHWAY 1 N", "amenity": "post_box", "collection_times": "Mo-Fr 10:00; Sa 09:30", "nsi_id": "unitedstatespostalservice-a77078", "operator": "United States Postal Service", "operator:short": "USPS", "operator:type": "public", "operator:wikidata": "Q668687", "ref": "7234100001"}, "type": "Feature"}
{"geometry": {"coordinates": [-90.7923750183, 34.8913338365], "type": "Point"}, "id": "8HPQvzBHILxJ47MdkdKf7MJBaZI=", "properties": {"@source_uri": "https://tools.usps.com/UspsToolsRestServices/rest/POLocator/findLocations", "@spider": "usps_collection_boxes", "addr:city": "HAYNES", "addr:country": "US", "addr:postcode": "72341", "addr:state": "AR", "addr:street_address": "8402 HWY 1 NORTH", "amenity": "post_box", "collection_times": "Mo-Fr 10:00; Sa 09:30", "indoor": "yes", "nsi_id": "unitedstatespostalservice-a77078", "operator": "United States Postal Service", "operator:short": "USPS", "operator:type": "public", "operator:wikidata": "Q668687", "ref": "7234100002"}, "type": "Feature"}
{"geometry": {"coordinates": [-90.7923750183, 34.8913338365], "type": "Point"}, "id": "CtMWkXUydVZyFtYyFvRFy7INUvo=", "properties": {"@source_uri": "https://tools.usps.com/UspsToolsRestServices/rest/POLocator/findLocations", "@spider": "usps_collection_boxes", "addr:city": "HAYNES", "addr:country": "US", "addr:postcode": "72341", "addr:state": "AR", "addr:street_address": "8402 HIGHWAY 1 N", "amenity": "post_box", "collection_times": "Mo-Fr 12:30; Sa 11:45", "indoor": "yes", "note": "ON 12/24 AND 12/31, THIS BOX MAY BE COLLECTED AS EARLY AS 12 NOON.", "nsi_id": "unitedstatespostalservice-a77078", "operator": "United States Postal Service", "operator:short": "USPS", "operator:type": "public", "operator:wikidata": "Q668687", "ref": "7234100003"}, "type": "Feature"}
{"geometry": {"coordinates": [-90.587659967, 34.528629996], "type": "Point"}, "id": "TjxfaY39EoRn0UNBCMgHqsbryYg=", "properties": {"@source_uri": "https://tools.usps.com/UspsToolsRestServices/rest/POLocator/findLocations", "@spider": "usps_collection_boxes", "addr:city": "HELENA", "addr:country": "US", "addr:postcode": "72342", "addr:state": "AR", "addr:street_address": "617 WALNUT", "amenity": "post_box", "collection_times": "Mo-Fr 16:30; Sa 15:00", "note": "ON 12/24 AND 12/31, THIS BOX MAY BE COLLECTED AS EARLY AS 12 NOON.", "nsi_id": "unitedstatespostalservice-a77078", "operator": "United States Postal Service", "operator:short": "USPS", "operator:type": "public", "operator:wikidata": "Q668687", "ref": "7234200016"}, "type": "Feature"}
{"geometry": {"coordinates": [-90.587659967, 34.528629996], "type": "Point"}, "id": "oJWDbgVNlj--c4ii-b2aUu6G7_g=", "properties": {"@source_uri": "https://tools.usps.com/UspsToolsRestServices/rest/POLocator/findLocations", "@spider": "usps_collection_boxes", "addr:city": "HELENA", "addr:country": "US", "addr:postcode": "72342", "addr:state": "AR", "addr:street_address": "617 WALNUT", "amenity": "post_box", "collection_times": "Mo-Fr 16:30; Sa 15:00", "indoor": "yes", "note": "ON 12/24 AND 12/31, THIS BOX MAY BE COLLECTED AS EARLY AS 12 NOON.", "nsi_id": "unitedstatespostalservice-a77078", "operator": "United States Postal Service", "operator:short": "USPS", "operator:type": "public", "operator:wikidata": "Q668687", "ref": "7234200018"}, "type": "Feature"}
{"geometry": {"coordinates": [-90.587659967, 34.528629996], "type": "Point"}, "id": "DIXGLRBgBEfMTrAFkxMrLXpLMf8=", "properties": {"@source_uri": "https://tools.usps.com/UspsToolsRestServices/rest/POLocator/findLocations", "@spider": "usps_collection_boxes", "addr:city": "HELENA", "addr:country": "US", "addr:postcode": "72342", "addr:state": "AR", "addr:street_address": "617 WALNUT", "amenity": "post_box", "collection_times": "Mo-Fr 16:30; Sa 15:00", "indoor": "yes", "note": "ON 12/24 AND 12/31, THIS BOX MAY BE COLLECTED AS EARLY AS 12 NOON.", "nsi_id": "unitedstatespostalservice-a77078", "operator": "United States Postal Service", "operator:short": "USPS", "operator:type": "public", "operator:wikidata": "Q668687", "ref": "7234200021"}, "type": "Feature"}
{"geometry": {"coordinates": [-90.587659967, 34.528629996], "type": "Point"}, "id": "kXHHxjtK74jRje7_G9K5Tlt97zo=", "properties": {"@source_uri": "https://tools.usps.com/UspsToolsRestServices/rest/POLocator/findLocations", "@spider": "usps_collection_boxes", "addr:city": "HELENA", "addr:country": "US", "addr:postcode": "72342", "addr:state": "AR", "addr:street_address": "617 WALNUT", "amenity": "post_box", "collection_times": "Mo-Fr 16:30; Sa 15:00", "indoor": "yes", "note": "ON 12/24 AND 12/31, THIS BOX MAY BE COLLECTED AS EARLY AS 12 NOON.", "nsi_id": "unitedstatespostalservice-a77078", "operator": "United States Postal Service", "operator:short": "USPS", "operator:type": "public", "operator:wikidata": "Q668687", "ref": "7234200022"}, "type": "Feature"}
{"geometry": {"coordinates": [-90.587659967, 34.528629996], "type": "Point"}, "id": "9gFe1MJB7m_mH3m_JFmdHd2jWxo=", "properties": {"@source_uri": "https://tools.usps.com/UspsToolsRestServices/rest/POLocator/findLocations", "@spider": "usps_collection_boxes", "addr:city": "HELENA", "addr:country": "US", "addr:postcode": "72342", "addr:state": "AR", "addr:street_address": "617 WALNUT", "amenity": "post_box", "collection_times": "Mo-Fr 16:30; Sa 15:00", "indoor": "yes", "note": "ON 12/24 AND 12/31, THIS BOX MAY BE COLLECTED AS EARLY AS 12 NOON.", "nsi_id": "unitedstatespostalservice-a77078", "operator": "United States Postal Service", "operator:short": "USPS", "operator:type": "public", "operator:wikidata": "Q668687", "ref": "7234200023"}, "type": "Feature"}
{"geometry": {"coordinates": [-90.587659967, 34.528629996], "type": "Point"}, "id": "z325vpDrLAOSmC28HLm2ukWT7_E=", "properties": {"@source_uri": "https://tools.usps.com/UspsToolsRestServices/rest/POLocator/findLocations", "@spider": "usps_collection_boxes", "addr:city": "HELENA", "addr:country": "US", "addr:postcode": "72342", "addr:state": "AR", "addr:street_address": "617 WALNUT STE 103", "amenity": "post_box", "collection_times": "Mo-Fr 16:30; Sa 12:00", "indoor": "yes", "note": "ON 12/24 AND 12/31, THIS BOX MAY BE COLLECTED AS EARLY AS 12 NOON.", "nsi_id": "unitedstatespostalservice-a77078", "operator": "United States Postal Service", "operator:short": "USPS", "operator:type": "public", "operator:wikidata": "Q668687", "ref": "7234200026"}, "type": "Feature"}
{"geometry": {"coordinates": [-90.49624, 35.12905], "type": "Point"}, "id": "iqnlu2UwOsQtkgeBM6vGDiXsDZ8=", "properties": {"@source_uri": "https://tools.usps.com/UspsToolsRestServices/rest/POLocator/findLocations", "@spider": "usps_collection_boxes", "addr:city": "HETH", "addr:country": "US", "addr:postcode": "72346", "addr:state": "AR", "addr:street_address": "19763 HIGHWAY 70 E", "amenity": "post_box", "collection_times": "Mo-Fr 11:30; Sa 10:30", "nsi_id": "unitedstatespostalservice-a77078", "operator": "United States Postal Service", "operator:short": "USPS", "operator:type": "public", "operator:wikidata": "Q668687", "ref": "7234600001"}, "type": "Feature"}
{"geometry": {"coordinates": [-90.49624, 35.12905], "type": "Point"}, "id": "0R-5J38cGN3QOYf1H8CByEk4g5c=", "properties": {"@source_uri": "https://tools.usps.com/UspsToolsRestServices/rest/POLocator/findLocations", "@spider": "usps_collection_boxes", "addr:city": "HETH", "addr:country": "US", "addr:postcode": "72346", "addr:state": "AR", "addr:street_address": "19763 HIGHWAY 70 E", "amenity": "post_box", "collection_times": "Mo-Fr 11:30; Sa 10:30", "indoor": "yes", "nsi_id": "unitedstatespostalservice-a77078", "operator": "United States Postal Service", "operator:short": "USPS", "operator:type": "public", "operator:wikidata": "Q668687", "ref": "7234600002"}, "type": "Feature"}
{"geometry": {"coordinates": [-90.489323918, 35.129363508], "type": "Point"}, "id": "Q64y0c87I1u5DZ7rj39QGA-e0dg=", "properties": {"@source_uri": "https://tools.usps.com/UspsToolsRestServices/rest/POLocator/findLocations", "@spider": "usps_collection_boxes", "addr:city": "HETH", "addr:country": "US", "addr:postcode": "72346", "addr:state": "AR", "addr:street_address": "19763 HIGHWAY 70 E", "amenity": "post_box", "collection_times": "Mo-Fr 12:00; Sa 10:30", "indoor": "yes", "nsi_id": "unitedstatespostalservice-a77078", "operator": "United States Postal Service", "operator:short": "USPS", "operator:type": "public", "operator:wikidata": "Q668687", "ref": "7234600004"}, "type": "Feature"}
{"geometry": {"coordinates": [-90.9952279977, 35.4017293059], "type": "Point"}, "id": "cnwKYuF8av8Tfk2fVAnidbRGX1k=", "properties": {"@source_uri": "https://tools.usps.com/UspsToolsRestServices/rest/POLocator/findLocations", "@spider": "usps_collection_boxes", "addr:city": "HICKORY RIDGE", "addr:country": "US", "addr:postcode": "72347", "addr:state": "AR", "addr:street_address": "132 S FLORA ST", "amenity": "post_box", "collection_times": "Mo-Fr 16:00; Sa 10:00", "note": "ON 12/24 AND 12/31, THIS BOX MAY BE COLLECTED AS EARLY AS 12 NOON.", "nsi_id": "unitedstatespostalservice-a77078", "operator": "United States Postal Service", "operator:short": "USPS", "operator:type": "public", "operator:wikidata": "Q668687", "ref": "7234700000"}, "type": "Feature"}
{"geometry": {"coordinates": [-90.9952279977, 35.4017293059], "type": "Point"}, "id": "skMYMeA26IAnERD50Mj4EXTMRq0=", "properties": {"@source_uri": "https://tools.usps.com/UspsToolsRestServices/rest/POLocator/findLocations", "@spider": "usps_collection_boxes", "addr:city": "HICKORY RIDGE", "addr:country": "US", "addr:postcode": "72347", "addr:state": "AR", "addr:street_address": "132 S FLORA ST", "amenity": "post_box", "collection_times": "Mo-Fr 11:30; Sa 10:00", "indoor": "yes", "nsi_id": "unitedstatespostalservice-a77078", "operator": "United States Postal Service", "operator:short": "USPS", "operator:type": "public", "operator:wikidata": "Q668687", "ref": "7234700001"}, "type": "Feature"}
{"geometry": {"coordinates": [-90.9952279977, 35.4017293059], "type": "Point"}, "id": "iJgylX6SUbGRejFLG6pKAHAj4Xg=", "properties": {"@source_uri": "https://tools.usps.com/UspsToolsRestServices/rest/POLocator/findLocations", "@spider": "usps_collection_boxes", "addr:city": "HICKORY RIDGE", "addr:country": "US", "addr:postcode": "72347", "addr:state": "AR", "addr:street_address": "132 S FLORA ST", "amenity": "post_box", "collection_times": "Mo-Fr 12:00; Sa 10:00", "indoor": "yes", "nsi_id": "unitedstatespostalservice-a77078", "operator": "United States Postal Service", "operator:short": "USPS", "operator:type": "public", "operator:wikidata": "Q668687", "ref": "7234700003"}, "type": "Feature"}
{"geometry": {"coordinates": [-90.469498, 34.950445], "type": "Point"}, "id": "TFTEtXfQ01qMntrXjxJFzvEIx_U=", "properties": {"@source_uri": "https://tools.usps.com/UspsToolsRestServices/rest/POLocator/findLocations", "@spider": "usps_collection_boxes", "addr:city": "HUGHES", "addr:country": "US", "addr:postcode": "72348", "addr:state": "AR", "addr:street_address": "201 N STONEWALL ST", "amenity": "post_box", "collection_times": "Mo-Fr 16:00; Sa 11:00", "note": "ON 12/24 AND 12/31, THIS BOX MAY BE COLLECTED AS EARLY AS 12 NOON.", "nsi_id": "unitedstatespostalservice-a77078", "operator": "United States Postal Service", "operator:short": "USPS", "operator:type": "public", "operator:wikidata": "Q668687", "ref": "7234800001"}, "type": "Feature"}
{"geometry": {"coordinates": [-90.469498, 34.950445], "type": "Point"}, "id": "bIrTxoAsRqjVgkXh9qdHpU0_dXM=", "properties": {"@source_uri": "https://tools.usps.com/UspsToolsRestServices/rest/POLocator/findLocations", "@spider": "usps_collection_boxes", "addr:city": "HUGHES", "addr:country": "US", "addr:postcode": "72348", "addr:state": "AR", "addr:street_address": "201 N STONEWALL ST", "amenity": "post_box", "collection_times": "Mo-Fr 16:00; Sa 11:00", "indoor": "yes", "note": "ON 12/24 AND 12/31, THIS BOX MAY BE COLLECTED AS EARLY AS 12 NOON.", "nsi_id": "unitedstatespostalservice-a77078", "operator": "United States Postal Service", "operator:short": "USPS", "operator:type": "public", "operator:wikidata": "Q668687", "ref": "7234800002"}, "type": "Feature"}
{"geometry": {"coordinates": [-90.469498, 34.950445], "type": "Point"}, "id": "_NVEE8bFmM1uyUBY-buePDsWcdQ=", "properties": {"@source_uri": "https://tools.usps.com/UspsToolsRestServices/rest/POLocator/findLocations", "@spider": "usps_collection_boxes", "addr:city": "HUGHES", "addr:country": "US", "addr:postcode": "72348", "addr:state": "AR", "addr:street_address": "201 N STONEWALL ST", "amenity": "post_box", "collection_times": "Mo-Fr 16:00; Sa 11:00", "indoor": "yes", "note": "ON 12/24 AND 12/31, THIS BOX MAY BE COLLECTED AS EARLY AS 12 NOON.", "nsi_id": "unitedstatespostalservice-a77078", "operator": "United States Postal Service", "operator:short": "USPS", "operator:type": "public", "operator:wikidata": "Q668687", "ref": "7234800003"}, "type": "Feature"}
{"geometry": {"coordinates": [-90.469629465, 34.950552256], "type": "Point"}, "id": "SvFS7ztoO4G28QsQrIYS9nsgnUA=", "properties": {"@source_uri": "https://tools.usps.com/UspsToolsRestServices/rest/POLocator/findLocations", "@spider": "usps_collection_boxes", "addr:city": "HUGHES", "addr:country": "US", "addr:postcode": "72348", "addr:state": "AR", "addr:street_address": "201 N STONEWALL ST", "amenity": "post_box", "collection_times": "Mo-Fr 16:00; Sa 11:00", "indoor": "yes", "note": "ON 12/24 AND 12/31, THIS BOX MAY BE COLLECTED AS EARLY AS 12 NOON.", "nsi_id": "unitedstatespostalservice-a77078", "operator": "United States Postal Service", "operator:short": "USPS", "operator:type": "public", "operator:wikidata": "Q668687", "ref": "7234800006"}, "type": "Feature"}
{"geometry": {"coordinates": [-90.038911, 35.466468], "type": "Point"}, "id": "wIPqjzNt_t7xyWZSose2Fxit9QI=", "properties": {"@source_uri": "https://tools.usps.com/UspsToolsRestServices/rest/POLocator/findLocations", "@spider": "usps_collection_boxes", "addr:city": "JOINER", "addr:country": "US", "addr:postcode": "72350", "addr:state": "AR", "addr:street_address": "117 HIGHWAY 118 W", "amenity": "post_box", "collection_times": "Mo-Fr 12:00; Sa 11:30", "nsi_id": "unitedstatespostalservice-a77078", "operator": "United States Postal Service", "operator:short": "USPS", "operator:type": "public", "operator:wikidata": "Q668687", "ref": "7235000000"}, "type": "Feature"}
{"geometry": {"coordinates": [-90.038911, 35.466468], "type": "Point"}, "id": "u__BN-Q1Qd0v2knaRHZBWw9rOds=", "properties": {"@source_uri": "https://tools.usps.com/UspsToolsRestServices/rest/POLocator/findLocations", "@spider": "usps_collection_boxes", "addr:city": "JOINER", "addr:country": "US", "addr:postcode": "72350", "addr:state": "AR", "addr:street_address": "117 HIGHWAY 118 W", "amenity": "post_box", "collection_times": "Mo-Fr 12:00; Sa 11:30", "indoor": "yes", "nsi_id": "unitedstatespostalservice-a77078", "operator": "United States Postal Service", "operator:short": "USPS", "operator:type": "public", "operator:wikidata": "Q668687", "ref": "7235000001"}, "type": "Feature"}
{"geometry": {"coordinates": [-90.038911, 35.466468], "type": "Point"}, "id": "qSh4ypFoxOoDZaCNBnsr0cFcLRM=", "properties": {"@source_uri": "https://tools.usps.com/UspsToolsRestServices/rest/POLocator/findLocations", "@spider": "usps_collection_boxes", "addr:city": "JOINER", "addr:country": "US", "addr:postcode": "72350", "addr:state": "AR", "addr:street_address": "117 HIGHWAY 118 W", "amenity": "post_box", "collection_times": "Mo-Fr 12:00; Sa 11:30", "indoor": "yes", "nsi_id": "unitedstatespostalservice-a77078", "operator": "United States Postal Service", "operator:short": "USPS", "operator:type": "public", "operator:wikidata": "Q668687", "ref": "7235000002"}, "type": "Feature"}
{"geometry": {"coordinates": [-90.038911, 35.466468], "type": "Point"}, "id": "_MhHtnqn-aq1dgUU9GIHtSX54lQ=", "properties": {"@source_uri": "https://tools.usps.com/UspsToolsRestServices/rest/POLocator/findLocations", "@spider": "usps_collection_boxes", "addr:city": "JOINER", "addr:country": "US", "addr:postcode": "72350", "addr:state": "AR", "addr:street_address": "117 HIGHWAY 118 W", "amenity": "post_box", "collection_times": "Mo-Fr 12:00; Sa 11:30", "indoor": "yes", "nsi_id": "unitedstatespostalservice-a77078", "operator": "United States Postal Service", "operator:short": "USPS", "operator:type": "public", "operator:wikidata": "Q668687", "ref": "7235000003"}, "type": "Feature"}
{"geometry": {"coordinates": [-90.038911, 35.466468], "type": "Point"}, "id": "WMKtvp7Sv1K75l_z4WCkxJgo0vg=", "properties": {"@source_uri": "https://tools.usps.com/UspsToolsRestServices/rest/POLocator/findLocations", "@spider": "usps_collection_boxes", "addr:city": "JOINER", "addr:country": "US", "addr:postcode": "72350", "addr:state": "AR", "addr:street_address": "117 HIGHWAY 118 W", "amenity": "post_box", "collection_times": "Mo-Fr 12:00; Sa 11:30", "indoor": "yes", "nsi_id": "unitedstatespostalservice-a77078", "operator": "United States Postal Service", "operator:short": "USPS", "operator:type": "public", "operator:wikidata": "Q668687", "ref": "7235000004"}, "type": "Feature"}
{"geometry": {"coordinates": [-90.0388969967, 35.4664145515], "type": "Point"}, "id": "PexIuRTMPrnOVqgTqGRB-ncOWIg=", "properties": {"@source_uri": "https://tools.usps.com/UspsToolsRestServices/rest/POLocator/findLocations", "@spider": "usps_collection_boxes", "addr:city": "JOINER", "addr:country": "US", "addr:postcode": "72350", "addr:state": "AR", "addr:street_address": "117 HIGHWAY 118 W", "amenity": "post_box", "collection_times": "Mo-Sa 12:00", "indoor": "yes", "nsi_id": "unitedstatespostalservice-a77078", "operator": "United States Postal Service", "operator:short": "USPS", "operator:type": "public", "operator:wikidata": "Q668687", "ref": "7235000006"}, "type": "Feature"}
{"geometry": {"coordinates": [-90.0977672, 35.674996], "type": "Point"}, "id": "fNX-0UiRNFp8EZKHbTM2C3PepAE=", "properties": {"@source_uri": "https://tools.usps.com/UspsToolsRestServices/rest/POLocator/findLocations", "@spider": "usps_collection_boxes", "addr:city": "KEISER", "addr:country": "US", "addr:postcode": "72351", "addr:state": "AR", "addr:street_address": "106 MAIN ST", "amenity": "post_box", "collection_times": "Mo-Fr 12:00; Sa 10:30", "nsi_id": "unitedstatespostalservice-a77078", "operator": "United States Postal Service", "operator:short": "USPS", "operator:type": "public", "operator:wikidata": "Q668687", "ref": "7235100000"}, "type": "Feature"}
{"geometry": {"coordinates": [-90.097626, 35.674889], "type": "Point"}, "id": "aPBoF7i4frGiGUzP_4dU0eyg4O8=", "properties": {"@source_uri": "https://tools.usps.com/UspsToolsRestServices/rest/POLocator/findLocations", "@spider": "usps_collection_boxes", "addr:city": "KEISER", "addr:country": "US", "addr:postcode": "72351", "addr:state": "AR", "addr:street_address": "106 MAIN ST", "amenity": "post_box", "collection_times": "Mo-Fr 11:30; Sa 10:00", "indoor": "yes", "nsi_id": "unitedstatespostalservice-a77078", "operator": "United States Postal Service", "operator:short": "USPS", "operator:type": "public", "operator:wikidata": "Q668687", "ref": "7235100001"}, "type": "Feature"}
{"geometry": {"coordinates": [-90.097600081, 35.67490753], "type": "Point"}, "id": "beNq3X_xwuusmFNdDsgcdejtvNY=", "properties": {"@source_uri": "https://tools.usps.com/UspsToolsRestServices/rest/POLocator/findLocations", "@spider": "usps_collection_boxes", "addr:city": "KEISER", "addr:country": "US", "addr:postcode": "72351", "addr:state": "AR", "addr:street_address": "106 MAIN ST", "amenity": "post_box", "collection_times": "Mo-Fr 12:00; Sa 10:00", "indoor": "yes", "nsi_id": "unitedstatespostalservice-a77078", "operator": "United States Postal Service", "operator:short": "USPS", "operator:type": "public", "operator:wikidata": "Q668687", "ref": "7235100002"}, "type": "Feature"}
{"geometry": {"coordinates": [-90.737144549, 34.656754865], "type": "Point"}, "id": "Nrjo6tsOB7QFyvDOIZsjY7JstBU=", "properties": {"@source_uri": "https://tools.usps.com/UspsToolsRestServices/rest/POLocator/findLocations", "@spider": "usps_collection_boxes", "addr:city": "LAGRANGE", "addr:country": "US", "addr:postcode": "72352", "addr:state": "AR", "addr:street_address": "74 E CULLUM DR", "amenity": "post_box", "collection_times": "Mo-Sa 11:30", "indoor": "yes", "nsi_id": "unitedstatespostalservice-a77078", "operator": "United States Postal Service", "operator:short": "USPS", "operator:type": "public", "operator:wikidata": "Q668687", "ref": "7235200001"}, "type": "Feature"}
{"geometry": {"coordinates": [-90.737144549, 34.656754865], "type": "Point"}, "id": "p398GbnycbT4RfFdx9mBC4UmYaw=", "properties": {"@source_uri": "https://tools.usps.com/UspsToolsRestServices/rest/POLocator/findLocations", "@spider": "usps_collection_boxes", "addr:city": "LAGRANGE", "addr:country": "US", "addr:postcode": "72352", "addr:state": "AR", "addr:street_address": "74 E CULLUM DR", "amenity": "post_box", "collection_times": "Mo-Sa 11:30", "nsi_id": "unitedstatespostalservice-a77078", "operator": "United States Postal Service", "operator:short": "USPS", "operator:type": "public", "operator:wikidata": "Q668687", "ref": "7235200002"}, "type": "Feature"}
{"geometry": {"coordinates": [-90.737144549, 34.656754865], "type": "Point"}, "id": "newAUbSrL2Wc6BqwnmT3K9dZIU4=", "properties": {"@source_uri": "https://tools.usps.com/UspsToolsRestServices/rest/POLocator/findLocations", "@spider": "usps_collection_boxes", "addr:city": "LAGRANGE", "addr:country": "US", "addr:postcode": "72352", "addr:state": "AR", "addr:street_address": "74 E CULLUM DR", "amenity": "post_box", "collection_times": "Mo-Sa 12:00", "indoor": "yes", "nsi_id": "unitedstatespostalservice-a77078", "operator": "United States Postal Service", "operator:short": "USPS", "operator:type": "public", "operator:wikidata": "Q668687", "ref": "7235200004"}, "type": "Feature"}
{"geometry": {"coordinates": [-90.9754300391, 34.3360351614], "type": "Point"}, "id": "-jsX2DDmuo1TtFdHrfXX9OIHh2k=", "properties": {"@source_uri": "https://tools.usps.com/UspsToolsRestServices/rest/POLocator/findLocations", "@spider": "usps_collection_boxes", "addr:city": "LAMBROOK", "addr:country": "US", "addr:postcode": "72353", "addr:state": "AR", "addr:street_address": "31393 HIGHWAY 20", "amenity": "post_box", "collection_times": "Mo-Fr 09:30; Sa 09:00", "nsi_id": "unitedstatespostalservice-a77078", "operator": "United States Postal Service", "operator:short": "USPS", "operator:type": "public", "operator:wikidata": "Q668687", "ref": "7235300000"}, "type": "Feature"}
{"geometry": {"coordinates": [-90.9754300391, 34.3360351614], "type": "Point"}, "id": "-Z5txk3Bjtfmnugff-znB_hf_Dw=", "properties": {"@source_uri": "https://tools.usps.com/UspsToolsRestServices/rest/POLocator/findLocations", "@spider": "usps_collection_boxes", "addr:city": "LAMBROOK", "addr:country": "US", "addr:postcode": "72353", "addr:state": "AR", "addr:street_address": "31393 HIGHWAY 20", "amenity": "post_box", "collection_times": "Mo-Fr 09:30; Sa 09:00", "indoor": "yes", "nsi_id": "unitedstatespostalservice-a77078", "operator": "United States Postal Service", "operator:short": "USPS", "operator:type": "public", "operator:wikidata": "Q668687", "ref": "7235300001"}, "type": "Feature"}
{"geometry": {"coordinates": [-90.9754300391, 34.3360351614], "type": "Point"}, "id": "HBIKrvkAYWgN9nNAxglD2GoFkLA=", "properties": {"@source_uri": "https://tools.usps.com/UspsToolsRestServices/rest/POLocator/findLocations", "@spider": "usps_collection_boxes", "addr:city": "LAMBROOK", "addr:country": "US", "addr:postcode": "72353", "addr:state": "AR", "addr:street_address": "31393 HIGHWAY 20", "amenity": "post_box", "collection_times": "Mo-Fr 11:30; Sa 10:00", "indoor": "yes", "nsi_id": "unitedstatespostalservice-a77078", "operator": "United States Postal Service", "operator:short": "USPS", "operator:type": "public", "operator:wikidata": "Q668687", "ref": "7235300003"}, "type": "Feature"}
{"geometry": {"coordinates": [-90.330837, 35.612589], "type": "Point"}, "id": "o7TZNU9mBNdw9TGRAAFwYrlZw8k=", "properties": {"@source_uri": "https://tools.usps.com/UspsToolsRestServices/rest/POLocator/findLocations", "@spider": "usps_collection_boxes", "addr:city": "LEPANTO", "addr:country": "US", "addr:postcode": "72354", "addr:state": "AR", "addr:street_address": "125 HOLMES ST", "amenity": "post_box", "collection_times": "Mo-Fr 15:30; Sa 08:00", "note": "ON 12/24 AND 12/31, THIS BOX MAY BE COLLECTED AS EARLY AS 12 NOON.", "nsi_id": "unitedstatespostalservice-a77078", "operator": "United States Postal Service", "operator:short": "USPS", "operator:type": "public", "operator:wikidata": "Q668687", "ref": "7235400001"}, "type": "Feature"}
{"geometry": {"coordinates": [-90.330837, 35.612589], "type": "Point"}, "id": "23mxPcuGHu8sLNZh1K3xAwJcNJQ=", "properties": {"@source_uri": "https://tools.usps.com/UspsToolsRestServices/rest/POLocator/findLocations", "@spider": "usps_collection_boxes", "addr:city": "LEPANTO", "addr:country": "US", "addr:postcode": "72354", "addr:state": "AR", "addr:street_address": "125 HOLMES ST", "amenity": "post_box", "collection_times": "Mo-Fr 15:30; Sa 08:00", "indoor": "yes", "note": "ON 12/24 AND 12/31, THIS BOX MAY BE COLLECTED AS EARLY AS 12 NOON.", "nsi_id": "unitedstatespostalservice-a77078", "operator": "United States Postal Service", "operator:short": "USPS", "operator:type": "public", "operator:wikidata": "Q668687", "ref": "7235400002"}, "type": "Feature"}
{"geometry": {"coordinates": [-90.330837, 35.612589], "type": "Point"}, "id": "cxp20tjeSyqn6Hug5WKGqSfV0ig=", "properties": {"@source_uri": "https://tools.usps.com/UspsToolsRestServices/rest/POLocator/findLocations", "@spider": "usps_collection_boxes", "addr:city": "LEPANTO", "addr:country": "US", "addr:postcode": "72354", "addr:state": "AR", "addr:street_address": "125 HOLMES ST", "amenity": "post_box", "collection_times": "Mo-Fr 15:30; Sa 08:00", "indoor": "yes", "note": "ON 12/24 AND 12/31, THIS BOX MAY BE COLLECTED AS EARLY AS 12 NOON.", "nsi_id": "unitedstatespostalservice-a77078", "operator": "United States Postal Service", "operator:short": "USPS", "operator:type": "public", "operator:wikidata": "Q668687", "ref": "7235400004"}, "type": "Feature"}
{"geometry": {"coordinates": [-90.330817892, 35.612538549], "type": "Point"}, "id": "IApUtI9Gy5vy5E-k0xPI7WXvbYI=", "properties": {"@source_uri": "https://tools.usps.com/UspsToolsRestServices/rest/POLocator/findLocations", "@spider": "usps_collection_boxes", "addr:city": "LEPANTO", "addr:country": "US", "addr:postcode": "72354", "addr:state": "AR", "addr:street_address": "125 HOLMES ST", "amenity": "post_box", "collection_times": "Mo-Fr 15:45", "indoor": "yes", "note": "ON 12/24 AND 12/31, THIS BOX MAY BE COLLECTED AS EARLY AS 12 NOON.", "nsi_id": "unitedstatespostalservice-a77078", "operator": "United States Postal Service", "operator:short": "USPS", "operator:type": "public", "operator:wikidata": "Q668687", "ref": "7235400005"}, "type": "Feature"}
{"geometry": {"coordinates": [-90.749714, 34.598829], "type": "Point"}, "id": "hkrqNmB_pwtFGm5Q64mR7NbsO9k=", "properties": {"@source_uri": "https://tools.usps.com/UspsToolsRestServices/rest/POLocator/findLocations", "@spider": "usps_collection_boxes", "addr:city": "LEXA", "addr:country": "US", "addr:postcode": "72355", "addr:state": "AR", "addr:street_address": "8984 HIGHWAY 242 W", "amenity": "post_box", "collection_times": "Mo-Fr 11:00; Sa 09:30", "nsi_id": "unitedstatespostalservice-a77078", "operator": "United States Postal Service", "operator:short": "USPS", "operator:type": "public", "operator:wikidata": "Q668687", "ref": "7235500000"}, "type": "Feature"}
{"geometry": {"coordinates": [-90.749714, 34.598829], "type": "Point"}, "id": "g_005xcvC-_cdBEvaUwDiUvgTOw=", "properties": {"@source_uri": "https://tools.usps.com/UspsToolsRestServices/rest/POLocator/findLocations", "@spider": "usps_collection_boxes", "addr:city": "LEXA", "addr:country": "US", "addr:postcode": "72355", "addr:state": "AR", "addr:street_address": "8984 HIGHWAY 242 W", "amenity": "post_box", "collection_times": "Mo-Fr 11:00; Sa 09:30", "indoor": "yes", "nsi_id": "unitedstatespostalservice-a77078", "operator": "United States Postal Service", "operator:short": "USPS", "operator:type": "public", "operator:wikidata": "Q668687", "ref": "7235500001"}, "type": "Feature"}
{"geometry": {"coordinates": [-90.749714, 34.598829], "type": "Point"}, "id": "InbbLD8zQ5Z0B7dVCF5Hqijcizc=", "properties": {"@source_uri": "https://tools.usps.com/UspsToolsRestServices/rest/POLocator/findLocations", "@spider": "usps_collection_boxes", "addr:city": "LEXA", "addr:country": "US", "addr:postcode": "72355", "addr:state": "AR", "addr:street_address": "8984 HIGHWAY 242 W", "amenity": "post_box", "collection_times": "Mo-Fr 11:00; Sa 09:30", "indoor": "yes", "nsi_id": "unitedstatespostalservice-a77078", "operator": "United States Postal Service", "operator:short": "USPS", "operator:type": "public", "operator:wikidata": "Q668687", "ref": "7235500002"}, "type": "Feature"}
{"geometry": {"coordinates": [-90.749716579, 34.598869281], "type": "Point"}, "id": "fz7MM18U6NEYhdxujKD2nJ2Gi0k=", "properties": {"@source_uri": "https://tools.usps.com/UspsToolsRestServices/rest/POLocator/findLocations", "@spider": "usps_collection_boxes", "addr:city": "LEXA", "addr:country": "US", "addr:postcode": "72355", "addr:state": "AR", "addr:street_address": "8984 HIGHWAY 242 W", "amenity": "post_box", "collection_times": "Mo-Fr 11:00; Sa 10:00", "indoor": "yes", "nsi_id": "unitedstatespostalservice-a77078", "operator": "United States Postal Service", "operator:short": "USPS", "operator:type": "public", "operator:wikidata": "Q668687", "ref": "7235500007"}, "type": "Feature"}
{"geometry": {"coordinates": [-89.928044, 35.756667], "type": "Point"}, "id": "qF1rv583RMD3SIJmQmsPKnUF0N8=", "properties": {"@source_uri": "https://tools.usps.com/UspsToolsRestServices/rest/POLocator/findLocations", "@spider": "usps_collection_boxes", "addr:city": "LUXORA", "addr:country": "US", "addr:postcode": "72358", "addr:state": "AR", "addr:street_address": "103 N MAIN ST", "amenity": "post_box", "collection_times": "Mo-Fr 11:30; Sa 10:30", "nsi_id": "unitedstatespostalservice-a77078", "operator": "United States Postal Service", "operator:short": "USPS", "operator:type": "public", "operator:wikidata": "Q668687", "ref": "7235800004"}, "type": "Feature"}
{"geometry": {"coordinates": [-89.928044, 35.756667], "type": "Point"}, "id": "_yd1bRjnJ5TL4R6myY0UOmPBbZc=", "properties": {"@source_uri": "https://tools.usps.com/UspsToolsRestServices/rest/POLocator/findLocations", "@spider": "usps_collection_boxes", "addr:city": "LUXORA", "addr:country": "US", "addr:postcode": "72358", "addr:state": "AR", "addr:street_address": "103 N MAIN ST", "amenity": "post_box", "collection_times": "Mo-Fr 11:30; Sa 10:30", "indoor": "yes", "nsi_id": "unitedstatespostalservice-a77078", "operator": "United States Postal Service", "operator:short": "USPS", "operator:type": "public", "operator:wikidata": "Q668687", "ref": "7235800005"}, "type": "Feature"}
{"geometry": {"coordinates": [-89.92802358, 35.756652849], "type": "Point"}, "id": "UeHlPlE9y2gGD46GnOTHp0s6P1A=", "properties": {"@source_uri": "https://tools.usps.com/UspsToolsRestServices/rest/POLocator/findLocations", "@spider": "usps_collection_boxes", "addr:city": "LUXORA", "addr:country": "US", "addr:postcode": "72358", "addr:state": "AR", "addr:street_address": "103 N MAIN ST", "amenity": "post_box", "collection_times": "Mo-Fr 11:30; Sa 10:30", "indoor": "yes", "nsi_id": "unitedstatespostalservice-a77078", "operator": "United States Postal Service", "operator:short": "USPS", "operator:type": "public", "operator:wikidata": "Q668687", "ref": "7235800009"}, "type": "Feature"}
{"geometry": {"coordinates": [-90.7208465648, 35.0128814182], "type": "Point"}, "id": "eJzGTt-bJVf76CQJqJ2Ol3RCdo0=", "properties": {"@source_uri": "https://tools.usps.com/UspsToolsRestServices/rest/POLocator/findLocations", "@spider": "usps_collection_boxes", "addr:city": "MADISON", "addr:country": "US", "addr:postcode": "72359", "addr:state": "AR", "addr:street_address": "101 S FIRST ST", "amenity": "post_box", "collection_times": "Mo-Fr 11:30; Sa 11:15", "indoor": "yes", "nsi_id": "unitedstatespostalservice-a77078", "operator": "United States Postal Service", "operator:short": "USPS", "operator:type": "public", "operator:wikidata": "Q668687", "ref": "7235900002"}, "type": "Feature"}
{"geometry": {"coordinates": [-90.7208465648, 35.0128814182], "type": "Point"}, "id": "mr9aHQZsmfD9zKcMJYw8HprWJgU=", "properties": {"@source_uri": "https://tools.usps.com/UspsToolsRestServices/rest/POLocator/findLocations", "@spider": "usps_collection_boxes", "addr:city": "MADISON", "addr:country": "US", "addr:postcode": "72359", "addr:state": "AR", "addr:street_address": "101 S FIRST ST", "amenity": "post_box", "collection_times": "Mo-Fr 12:00; Sa 11:30", "indoor": "yes", "nsi_id": "unitedstatespostalservice-a77078", "operator": "United States Postal Service", "operator:short": "USPS", "operator:type": "public", "operator:wikidata": "Q668687", "ref": "7235900004"}, "type": "Feature"}
{"geometry": {"coordinates": [-90.758011, 34.771363], "type": "Point"}, "id": "1_9nVZKCuAV1CywWF6CzWKYFc0o=", "properties": {"@source_uri": "https://tools.usps.com/UspsToolsRestServices/rest/POLocator/findLocations", "@spider": "usps_collection_boxes", "addr:city": "MARIANNA", "addr:country": "US", "addr:postcode": "72360", "addr:state": "AR", "addr:street_address": "1 W MISSISSIPPI ST", "amenity": "post_box", "collection_times": "Mo-Fr 17:00; Sa 15:00", "note": "ON 12/24 AND 12/31, THIS BOX MAY BE COLLECTED AS EARLY AS 12 NOON.", "nsi_id": "unitedstatespostalservice-a77078", "operator": "United States Postal Service", "operator:short": "USPS", "operator:type": "public", "operator:wikidata": "Q668687", "ref": "7236000010"}, "type": "Feature"}
{"geometry": {"coordinates": [-90.758011, 34.771363], "type": "Point"}, "id": "1_FA07tR-yteKUt4jh3gIMk5t14=", "properties": {"@source_uri": "https://tools.usps.com/UspsToolsRestServices/rest/POLocator/findLocations", "@spider": "usps_collection_boxes", "addr:city": "MARIANNA", "addr:country": "US", "addr:postcode": "72360", "addr:state": "AR", "addr:street_address": "1 W MISSISSIPPI ST", "amenity": "post_box", "collection_times": "Mo-Fr 17:00; Sa 15:00", "indoor": "yes", "note": "ON 12/24 AND 12/31, THIS BOX MAY BE COLLECTED AS EARLY AS 12 NOON.", "nsi_id": "unitedstatespostalservice-a77078", "operator": "United States Postal Service", "operator:short": "USPS", "operator:type": "public", "operator:wikidata": "Q668687", "ref": "7236000015"}, "type": "Feature"}
{"geometry": {"coordinates": [-90.758011, 34.771363], "type": "Point"}, "id": "5V0HmxJrRUX2U5sCYfB4-opBd3k=", "properties": {"@source_uri": "https://tools.usps.com/UspsToolsRestServices/rest/POLocator/findLocations", "@spider": "usps_collection_boxes", "addr:city": "MARIANNA", "addr:country": "US", "addr:postcode": "72360", "addr:state": "AR", "addr:street_address": "1 W MISSISSIPPI ST", "amenity": "post_box", "collection_times": "Mo-Fr 17:00; Sa 15:00", "indoor": "yes", "note": "ON 12/24 AND 12/31, THIS BOX MAY BE COLLECTED AS EARLY AS 12 NOON.", "nsi_id": "unitedstatespostalservice-a77078", "operator": "United States Postal Service", "operator:short": "USPS", "operator:type": "public", "operator:wikidata": "Q668687", "ref": "7236000017"}, "type": "Feature"}
{"geometry": {"coordinates": [-90.758011, 34.771363], "type": "Point"}, "id": "FYqTuxVbhC-O19zokVlpkoHsGRU=", "properties": {"@source_uri": "https://tools.usps.com/UspsToolsRestServices/rest/POLocator/findLocations", "@spider": "usps_collection_boxes", "addr:city": "MARIANNA", "addr:country": "US", "addr:postcode": "72360", "addr:state": "AR", "addr:street_address": "1 W MISSISSIPPI ST", "amenity": "post_box", "collection_times": "Mo-Fr 17:00; Sa 15:00", "indoor": "yes", "note": "ON 12/24 AND 12/31, THIS BOX MAY BE COLLECTED AS EARLY AS 12 NOON.", "nsi_id": "unitedstatespostalservice-a77078", "operator": "United States Postal Service", "operator:short": "USPS", "operator:type": "public", "operator:wikidata": "Q668687", "ref": "7236000018"}, "type": "Feature"}
{"geometry": {"coordinates": [-90.758011, 34.771363], "type": "Point"}, "id": "RQOONVYILcDFSYcq6F3WXX1NfOQ=", "properties": {"@source_uri": "https://tools.usps.com/UspsToolsRestServices/rest/POLocator/findLocations", "@spider": "usps_collection_boxes", "addr:city": "MARIANNA", "addr:country": "US", "addr:postcode": "72360", "addr:state": "AR", "addr:street_address": "1 W MISSISSIPPI ST", "amenity": "post_box", "collection_times": "Mo-Fr 17:00; Sa 15:00", "indoor": "yes", "note": "ON 12/24 AND 12/31, THIS BOX MAY BE COLLECTED AS EARLY AS 12 NOON.", "nsi_id": "unitedstatespostalservice-a77078", "operator": "United States Postal Service", "operator:short": "USPS", "operator:type": "public", "operator:wikidata": "Q668687", "ref": "7236000019"}, "type": "Feature"}
{"geometry": {"coordinates": [-90.758017036, 34.770943986], "type": "Point"}, "id": "W-3UmD1lsi7Wy72vZt7U2gEcEx8=", "properties": {"@source_uri": "https://tools.usps.com/UspsToolsRestServices/rest/POLocator/findLocations", "@spider": "usps_collection_boxes", "addr:city": "MARIANNA", "addr:country": "US", "addr:postcode": "72360", "addr:state": "AR", "addr:street_address": "1 W MISSISSIPPI ST", "amenity": "post_box", "collection_times": "Mo-Fr 16:30; Sa 12:00", "indoor": "yes", "note": "ON 12/24 AND 12/31, THIS BOX MAY BE COLLECTED AS EARLY AS 12 NOON.", "nsi_id": "unitedstatespostalservice-a77078", "operator": "United States Postal Service", "operator:short": "USPS", "operator:type": "public", "operator:wikidata": "Q668687", "ref": "7236000021"}, "type": "Feature"}
{"geometry": {"coordinates": [-90.196871, 35.216131], "type": "Point"}, "id": "XmXCaSWBuosfmnO-RSp8b7RHBak=", "properties": {"@source_uri": "https://tools.usps.com/UspsToolsRestServices/rest/POLocator/findLocations", "@spider": "usps_collection_boxes", "addr:city": "MARION", "addr:country": "US", "addr:postcode": "72364", "addr:state": "AR", "addr:street_address": "100 COURT ST", "amenity": "post_box", "collection_times": "Mo-Fr 15:00; Sa 02:00", "note": "ON 12/24 AND 12/31, THIS BOX MAY BE COLLECTED AS EARLY AS 12 NOON.", "nsi_id": "unitedstatespostalservice-a77078", "operator": "United States Postal Service", "operator:short": "USPS", "operator:type": "public", "operator:wikidata": "Q668687", "ref": "7236400000"}, "type": "Feature"}
{"geometry": {"coordinates": [-90.2032999, 35.2084], "type": "Point"}, "id": "k7hedckCLAkNQ7XY1LSh2AXaFf4=", "properties": {"@source_uri": "https://tools.usps.com/UspsToolsRestServices/rest/POLocator/findLocations", "@spider": "usps_collection_boxes", "addr:city": "MARION", "addr:country": "US", "addr:postcode": "72364", "addr:state": "AR", "addr:street_address": "140 BLOCK ST", "amenity": "post_box", "collection_times": "Mo-Fr 17:00; Sa 16:30", "indoor": "yes", "note": "ON 12/24 AND 12/31, THIS BOX MAY BE COLLECTED AS EARLY AS 12 NOON.", "nsi_id": "unitedstatespostalservice-a77078", "operator": "United States Postal Service", "operator:short": "USPS", "operator:type": "public", "operator:wikidata": "Q668687", "ref": "7236400002"}, "type": "Feature"}
{"geometry": {"coordinates": [-90.2042228881, 35.2094825795], "type": "Point"}, "id": "HQoTCbrXn04r06f3Pq4e16PvYEU=", "properties": {"@source_uri": "https://tools.usps.com/UspsToolsRestServices/rest/POLocator/findLocations", "@spider": "usps_collection_boxes", "addr:city": "MARION", "addr:country": "US", "addr:postcode": "72364", "addr:state": "AR", "addr:street_address": "140 BLOCK ST", "amenity": "post_box", "collection_times": "Mo-Fr 17:00; Sa 16:30", "note": "ON 12/24 AND 12/31, THIS BOX MAY BE COLLECTED AS EARLY AS 12 NOON.", "nsi_id": "unitedstatespostalservice-a77078", "operator": "United States Postal Service", "operator:short": "USPS", "operator:type": "public", "operator:wikidata": "Q668687", "ref": "7236400004"}, "type": "Feature"}
{"geometry": {"coordinates": [-90.2033029, 35.208377], "type": "Point"}, "id": "zF8rryktY8AuPt0sSkS5MDmihh4=", "properties": {"@source_uri": "https://tools.usps.com/UspsToolsRestServices/rest/POLocator/findLocations", "@spider": "usps_collection_boxes", "addr:city": "MARION", "addr:country": "US", "addr:postcode": "72364", "addr:state": "AR", "addr:street_address": "140 BLOCK ST", "amenity": "post_box", "collection_times": "Mo-Fr 17:00; Sa 16:30", "indoor": "yes", "note": "ON 12/24 AND 12/31, THIS BOX MAY BE COLLECTED AS EARLY AS 12 NOON.", "nsi_id": "unitedstatespostalservice-a77078", "operator": "United States Postal Service", "operator:short": "USPS", "operator:type": "public", "operator:wikidata": "Q668687", "ref": "7236400005"}, "type": "Feature"}
{"geometry": {"coordinates": [-90.204080022, 35.209519987], "type": "Point"}, "id": "UjTlMfm6XWg0wE-22twwGReXdlA=", "properties": {"@source_uri": "https://tools.usps.com/UspsToolsRestServices/rest/POLocator/findLocations", "@spider": "usps_collection_boxes", "addr:city": "MARION", "addr:country": "US", "addr:postcode": "72364", "addr:state": "AR", "addr:street_address": "140 BLOCK ST", "amenity": "post_box", "collection_times": "Mo-Fr 16:30; Sa 11:00", "indoor": "yes", "note": "ON 12/24 AND 12/31, THIS BOX MAY BE COLLECTED AS EARLY AS 12 NOON.", "nsi_id": "unitedstatespostalservice-a77078", "operator": "United States Postal Service", "operator:short": "USPS", "operator:type": "public", "operator:wikidata": "Q668687", "ref": "7236400008"}, "type": "Feature"}
{"geometry": {"coordinates": [-90.418047, 35.530197], "type": "Point"}, "id": "iXsg7Di6zlVlajTpZW9KDvJReDI=", "properties": {"@source_uri": "https://tools.usps.com/UspsToolsRestServices/rest/POLocator/findLocations", "@spider": "usps_collection_boxes", "addr:city": "MARKED TREE", "addr:country": "US", "addr:postcode": "72365", "addr:state": "AR", "addr:street_address": "402 FRISCO ST", "amenity": "post_box", "collection_times": "Mo-Fr 16:15; Sa 14:15", "note": "ON 12/24 AND 12/31, THIS BOX MAY BE COLLECTED AS EARLY AS 12 NOON.", "nsi_id": "unitedstatespostalservice-a77078", "operator": "United States Postal Service", "operator:short": "USPS", "operator:type": "public", "operator:wikidata": "Q668687", "ref": "7236500001"}, "type": "Feature"}
{"geometry": {"coordinates": [-90.418047, 35.530197], "type": "Point"}, "id": "zO9t08K00fy7L8u4AVaiH4kSPz4=", "properties": {"@source_uri": "https://tools.usps.com/UspsToolsRestServices/rest/POLocator/findLocations", "@spider": "usps_collection_boxes", "addr:city": "MARKED TREE", "addr:country": "US", "addr:postcode": "72365", "addr:state": "AR", "addr:street_address": "402 FRISCO ST", "amenity": "post_box", "collection_times": "Mo-Fr 16:45; Sa 14:15", "indoor": "yes", "note": "ON 12/24 AND 12/31, THIS BOX MAY BE COLLECTED AS EARLY AS 12 NOON.", "nsi_id": "unitedstatespostalservice-a77078", "operator": "United States Postal Service", "operator:short": "USPS", "operator:type": "public", "operator:wikidata": "Q668687", "ref": "7236500019"}, "type": "Feature"}
{"geometry": {"coordinates": [-90.418047, 35.530197], "type": "Point"}, "id": "wnxN1KimUVAeLChWh7_ZXeOP0e0=", "properties": {"@source_uri": "https://tools.usps.com/UspsToolsRestServices/rest/POLocator/findLocations", "@spider": "usps_collection_boxes", "addr:city": "MARKED TREE", "addr:country": "US", "addr:postcode": "72365", "addr:state": "AR", "addr:street_address": "402 FRISCO ST", "amenity": "post_box", "collection_times": "Mo-Fr 16:45; Sa 14:15", "indoor": "yes", "note": "ON 12/24 AND 12/31, THIS BOX MAY BE COLLECTED AS EARLY AS 12 NOON.", "nsi_id": "unitedstatespostalservice-a77078", "operator": "United States Postal Service", "operator:short": "USPS", "operator:type": "public", "operator:wikidata": "Q668687", "ref": "7236500020"}, "type": "Feature"}
{"geometry": {"coordinates": [-90.418319958, 35.529930012], "type": "Point"}, "id": "L3aXvnuqXejucfebEVkwEnZ_Sio=", "properties": {"@source_uri": "https://tools.usps.com/UspsToolsRestServices/rest/POLocator/findLocations", "@spider": "usps_collection_boxes", "addr:city": "MARKED TREE", "addr:country": "US", "addr:postcode": "72365", "addr:state": "AR", "addr:street_address": "402 FRISCO ST", "amenity": "post_box", "collection_times": "Mo-Fr 16:45; Sa 11:00", "indoor": "yes", "note": "ON 12/24 AND 12/31, THIS BOX MAY BE COLLECTED AS EARLY AS 12 NOON.", "nsi_id": "unitedstatespostalservice-a77078", "operator": "United States Postal Service", "operator:short": "USPS", "operator:type": "public", "operator:wikidata": "Q668687", "ref": "7236500021"}, "type": "Feature"}
{"geometry": {"coordinates": [-90.913679, 34.556986], "type": "Point"}, "id": "oomrXh05u7XdcLDKlNpw1MOGDUQ=", "properties": {"@source_uri": "https://tools.usps.com/UspsToolsRestServices/rest/POLocator/findLocations", "@spider": "usps_collection_boxes", "addr:city": "MARVELL", "addr:country": "US", "addr:postcode": "72366", "addr:state": "AR", "addr:street_address": "403 ELM ST", "amenity": "post_box", "collection_times": "Mo-Fr 16:00; Sa 12:00", "note": "ON 12/24 AND 12/31, THIS BOX MAY BE COLLECTED AS EARLY AS 12 NOON.", "nsi_id": "unitedstatespostalservice-a77078", "operator": "United States Postal Service", "operator:short": "USPS", "operator:type": "public", "operator:wikidata": "Q668687", "ref": "7236600000"}, "type": "Feature"}
{"geometry": {"coordinates": [-90.913679, 34.556986], "type": "Point"}, "id": "uSE-16Mp47jWzD3bY07Yign3Ydg=", "properties": {"@source_uri": "https://tools.usps.com/UspsToolsRestServices/rest/POLocator/findLocations", "@spider": "usps_collection_boxes", "addr:city": "MARVELL", "addr:country": "US", "addr:postcode": "72366", "addr:state": "AR", "addr:street_address": "403 ELM ST", "amenity": "post_box", "collection_times": "Mo-Fr 16:00; Sa 12:00", "indoor": "yes", "note": "ON 12/24 AND 12/31, THIS BOX MAY BE COLLECTED AS EARLY AS 12 NOON.", "nsi_id": "unitedstatespostalservice-a77078", "operator": "United States Postal Service", "operator:short": "USPS", "operator:type": "public", "operator:wikidata": "Q668687", "ref": "7236600001"}, "type": "Feature"}
{"geometry": {"coordinates": [-90.913679, 34.556986], "type": "Point"}, "id": "DrexC27jUkDJJXUC7rQfKha10R4=", "properties": {"@source_uri": "https://tools.usps.com/UspsToolsRestServices/rest/POLocator/findLocations", "@spider": "usps_collection_boxes", "addr:city": "MARVELL", "addr:country": "US", "addr:postcode": "72366", "addr:state": "AR", "addr:street_address": "403 ELM ST", "amenity": "post_box", "collection_times": "Mo-Fr 16:00; Sa 12:00", "indoor": "yes", "note": "ON 12/24 AND 12/31, THIS BOX MAY BE COLLECTED AS EARLY AS 12 NOON.", "nsi_id": "unitedstatespostalservice-a77078", "operator": "United States Postal Service", "operator:short": "USPS", "operator:type": "public", "operator:wikidata": "Q668687", "ref": "7236600002"}, "type": "Feature"}
{"geometry": {"coordinates": [-90.913662481, 34.557016972], "type": "Point"}, "id": "W96GcqUGHhj20UdscsoMQCYUMXI=", "properties": {"@source_uri": "https://tools.usps.com/UspsToolsRestServices/rest/POLocator/findLocations", "@spider": "usps_collection_boxes", "addr:city": "MARVELL", "addr:country": "US", "addr:postcode": "72366", "addr:state": "AR", "addr:street_address": "403 ELM ST", "amenity": "post_box", "collection_times": "Mo-Fr 16:00; Sa 11:00", "indoor": "yes", "note": "ON 12/24 AND 12/31, THIS BOX MAY BE COLLECTED AS EARLY AS 12 NOON.", "nsi_id": "unitedstatespostalservice-a77078", "operator": "United States Postal Service", "operator:short": "USPS", "operator:type": "public", "operator:wikidata": "Q668687", "ref": "7236600005"}, "type": "Feature"}
{"geometry": {"coordinates": [-90.9509707107, 34.2197545172], "type": "Point"}, "id": "sMwIoq06vD2e_ShJU3n0Z0uGE_k=", "properties": {"@source_uri": "https://tools.usps.com/UspsToolsRestServices/rest/POLocator/findLocations", "@spider": "usps_collection_boxes", "addr:city": "MELLWOOD", "addr:country": "US", "addr:postcode": "72367", "addr:state": "AR", "addr:street_address": "32403 HIGHWAY 44", "amenity": "post_box", "collection_times": "Mo-Fr 14:30; Sa 11:00", "note": "ON 12/24 AND 12/31, THIS BOX MAY BE COLLECTED AS EARLY AS 12 NOON.", "nsi_id": "unitedstatespostalservice-a77078", "operator": "United States Postal Service", "operator:short": "USPS", "operator:type": "public", "operator:wikidata": "Q668687", "ref": "7236700000"}, "type": "Feature"}
{"geometry": {"coordinates": [-90.9509707107, 34.2197545172], "type": "Point"}, "id": "w0-cXcG5UBpHCwqrmZ8mctE0ZCs=", "properties": {"@source_uri": "https://tools.usps.com/UspsToolsRestServices/rest/POLocator/findLocations", "@spider": "usps_collection_boxes", "addr:city": "MELLWOOD", "addr:country": "US", "addr:postcode": "72367", "addr:state": "AR", "addr:street_address": "32403 HIGHWAY 44", "amenity": "post_box", "collection_times": "Mo-Fr 14:30; Sa 11:00", "indoor": "yes", "note": "ON 12/24 AND 12/31, THIS BOX MAY BE COLLECTED AS EARLY AS 12 NOON.", "nsi_id": "unitedstatespostalservice-a77078", "operator": "United States Postal Service", "operator:short": "USPS", "operator:type": "public", "operator:wikidata": "Q668687", "ref": "7236700001"}, "type": "Feature"}
{"geometry": {"coordinates": [-90.9509707107, 34.2197545172], "type": "Point"}, "id": "SOrchFUvpfJ_956Sm-sMTuSYFvI=", "properties": {"@source_uri": "https://tools.usps.com/UspsToolsRestServices/rest/POLocator/findLocations", "@spider": "usps_collection_boxes", "addr:city": "MELLWOOD", "addr:country": "US", "addr:postcode": "72367", "addr:state": "AR", "addr:street_address": "32403 HIGHWAY 44", "amenity": "post_box", "collection_times": "Mo-Fr 15:30; Sa 11:15", "indoor": "yes", "note": "ON 12/24 AND 12/31, THIS BOX MAY BE COLLECTED AS EARLY AS 12 NOON.", "nsi_id": "unitedstatespostalservice-a77078", "operator": "United States Postal Service", "operator:short": "USPS", "operator:type": "public", "operator:wikidata": "Q668687", "ref": "7236700003"}, "type": "Feature"}
{"geometry": {"coordinates": [-90.990729011, 34.796356994], "type": "Point"}, "id": "6ehS5fHEsGLQVL4BwH5d38dYriI=", "properties": {"@source_uri": "https://tools.usps.com/UspsToolsRestServices/rest/POLocator/findLocations", "@spider": "usps_collection_boxes", "addr:city": "MORO", "addr:country": "US", "addr:postcode": "72368", "addr:state": "AR", "addr:street_address": "103 N MAIN ST", "amenity": "post_box", "collection_times": "Mo-Fr 11:15; Sa 09:45", "nsi_id": "unitedstatespostalservice-a77078", "operator": "United States Postal Service", "operator:short": "USPS", "operator:type": "public", "operator:wikidata": "Q668687", "ref": "7236800000"}, "type": "Feature"}
{"geometry": {"coordinates": [-90.990729011, 34.796356994], "type": "Point"}, "id": "cWPY8-YposjLEo_ju4VzTGyDt-o=", "properties": {"@source_uri": "https://tools.usps.com/UspsToolsRestServices/rest/POLocator/findLocations", "@spider": "usps_collection_boxes", "addr:city": "MORO", "addr:country": "US", "addr:postcode": "72368", "addr:state": "AR", "addr:street_address": "103 N MAIN ST", "amenity": "post_box", "collection_times": "Mo-Fr 11:15; Sa 09:45", "indoor": "yes", "nsi_id": "unitedstatespostalservice-a77078", "operator": "United States Postal Service", "operator:short": "USPS", "operator:type": "public", "operator:wikidata": "Q668687", "ref": "7236800001"}, "type": "Feature"}
{"geometry": {"coordinates": [-90.990729011, 34.796356994], "type": "Point"}, "id": "77KiBsfYPYTRvBW7Zd0C58Tx58U=", "properties": {"@source_uri": "https://tools.usps.com/UspsToolsRestServices/rest/POLocator/findLocations", "@spider": "usps_collection_boxes", "addr:city": "MORO", "addr:country": "US", "addr:postcode": "72368", "addr:state": "AR", "addr:street_address": "103 N MAIN ST", "amenity": "post_box", "collection_times": "Mo-Fr 11:30; Sa 09:45", "indoor": "yes", "nsi_id": "unitedstatespostalservice-a77078", "operator": "United States Postal Service", "operator:short": "USPS", "operator:type": "public", "operator:wikidata": "Q668687", "ref": "7236800004"}, "type": "Feature"}
{"geometry": {"coordinates": [-90.7834622314, 34.4610632651], "type": "Point"}, "id": "SMRsN4LGhwMIa15vCwnk4EbDX2s=", "properties": {"@source_uri": "https://tools.usps.com/UspsToolsRestServices/rest/POLocator/findLocations", "@spider": "usps_collection_boxes", "addr:city": "ONEIDA", "addr:country": "US", "addr:postcode": "72369", "addr:state": "AR", "addr:street_address": "374 PHILLIPS 363 RD", "amenity": "post_box", "collection_times": "Mo-Fr 13:30; Sa 11:30", "note": "ON 12/24 AND 12/31, THIS BOX MAY BE COLLECTED AS EARLY AS 12 NOON.", "nsi_id": "unitedstatespostalservice-a77078", "operator": "United States Postal Service", "operator:short": "USPS", "operator:type": "public", "operator:wikidata": "Q668687", "ref": "7236900002"}, "type": "Feature"}
{"geometry": {"coordinates": [-90.7834622314, 34.4610632651], "type": "Point"}, "id": "XUf5vzjGOyfYmpAxFWQWfGC7rGg=", "properties": {"@source_uri": "https://tools.usps.com/UspsToolsRestServices/rest/POLocator/findLocations", "@spider": "usps_collection_boxes", "addr:city": "ONEIDA", "addr:country": "US", "addr:postcode": "72369", "addr:state": "AR", "addr:street_address": "374 PHILLIPS 363 RD", "amenity": "post_box", "collection_times": "Mo-Fr 13:30; Sa 11:30", "indoor": "yes", "note": "ON 12/24 AND 12/31, THIS BOX MAY BE COLLECTED AS EARLY AS 12 NOON.", "nsi_id": "unitedstatespostalservice-a77078", "operator": "United States Postal Service", "operator:short": "USPS", "operator:type": "public", "operator:wikidata": "Q668687", "ref": "7236900003"}, "type": "Feature"}
{"geometry": {"coordinates": [-90.7834622314, 34.4610632651], "type": "Point"}, "id": "4g0Gt7HX8YG9_PX4uAsF4voTCmI=", "properties": {"@source_uri": "https://tools.usps.com/UspsToolsRestServices/rest/POLocator/findLocations", "@spider": "usps_collection_boxes", "addr:city": "ONEIDA", "addr:country": "US", "addr:postcode": "72369", "addr:state": "AR", "addr:street_address": "374 PHILLIPS 363 RD", "amenity": "post_box", "collection_times": "Mo-Fr 13:45; Sa 11:30", "indoor": "yes", "note": "ON 12/24 AND 12/31, THIS BOX MAY BE COLLECTED AS EARLY AS 12 NOON.", "nsi_id": "unitedstatespostalservice-a77078", "operator": "United States Postal Service", "operator:short": "USPS", "operator:type": "public", "operator:wikidata": "Q668687", "ref": "7236900005"}, "type": "Feature"}
{"geometry": {"coordinates": [-89.9679737515, 35.7037405226], "type": "Point"}, "id": "5K_WnMF3tsUbL_L6b-amFbzCA_M=", "properties": {"@source_uri": "https://tools.usps.com/UspsToolsRestServices/rest/POLocator/findLocations", "@spider": "usps_collection_boxes", "addr:city": "OSCEOLA", "addr:country": "US", "addr:postcode": "72370", "addr:state": "AR", "addr:street_address": "101 E JOHNSON AVE", "amenity": "post_box", "collection_times": "Mo-Fr 17:00; Sa 16:00", "note": "ON 12/24 AND 12/31, THIS BOX MAY BE COLLECTED AS EARLY AS 12 NOON.", "nsi_id": "unitedstatespostalservice-a77078", "operator": "United States Postal Service", "operator:short": "USPS", "operator:type": "public", "operator:wikidata": "Q668687", "ref": "7237000015"}, "type": "Feature"}
{"geometry": {"coordinates": [-89.9679737515, 35.7037405226], "type": "Point"}, "id": "a0TjTX_gi4bLAibxf4hAdYl7_w4=", "properties": {"@source_uri": "https://tools.usps.com/UspsToolsRestServices/rest/POLocator/findLocations", "@spider": "usps_collection_boxes", "addr:city": "OSCEOLA", "addr:country": "US", "addr:postcode": "72370", "addr:state": "AR", "addr:street_address": "101 E JOHNSON AVE", "amenity": "post_box", "collection_times": "Mo-Fr 17:00; Sa 16:00", "indoor": "yes", "note": "ON 12/24 AND 12/31, THIS BOX MAY BE COLLECTED AS EARLY AS 12 NOON.", "nsi_id": "unitedstatespostalservice-a77078", "operator": "United States Postal Service", "operator:short": "USPS", "operator:type": "public", "operator:wikidata": "Q668687", "ref": "7237000020"}, "type": "Feature"}
{"geometry": {"coordinates": [-89.9679737515, 35.7037405226], "type": "Point"}, "id": "ft9SxdIRWFw_yxkrojqoA6thkCo=", "properties": {"@source_uri": "https://tools.usps.com/UspsToolsRestServices/rest/POLocator/findLocations", "@spider": "usps_collection_boxes", "addr:city": "OSCEOLA", "addr:country": "US", "addr:postcode": "72370", "addr:state": "AR", "addr:street_address": "101 E JOHNSON AVE", "amenity": "post_box", "collection_times": "Mo-Fr 17:00; Sa 16:00", "indoor": "yes", "note": "ON 12/24 AND 12/31, THIS BOX MAY BE COLLECTED AS EARLY AS 12 NOON.", "nsi_id": "unitedstatespostalservice-a77078", "operator": "United States Postal Service", "operator:short": "USPS", "operator:type": "public", "operator:wikidata": "Q668687", "ref": "7237000021"}, "type": "Feature"}
{"geometry": {"coordinates": [-89.9806394, 35.697146], "type": "Point"}, "id": "3qMp9YjB797XtYYWCq81t7fyn90=", "properties": {"@source_uri": "https://tools.usps.com/UspsToolsRestServices/rest/POLocator/findLocations", "@spider": "usps_collection_boxes", "addr:city": "OSCEOLA", "addr:country": "US", "addr:postcode": "72370", "addr:state": "AR", "addr:street_address": "815 W KEISER AVE", "amenity": "post_box", "collection_times": "Mo-Sa 15:00", "note": "ON 12/24 AND 12/31, THIS BOX MAY BE COLLECTED AS EARLY AS 12 NOON.", "nsi_id": "unitedstatespostalservice-a77078", "operator": "United States Postal Service", "operator:short": "USPS", "operator:type": "public", "operator:wikidata": "Q668687", "ref": "7237000023"}, "type": "Feature"}
{"geometry": {"coordinates": [-89.9706357, 35.702199], "type": "Point"}, "id": "MSNBW5o2_o9izIu50kB7IzMF_xM=", "properties": {"@source_uri": "https://tools.usps.com/UspsToolsRestServices/rest/POLocator/findLocations", "@spider": "usps_collection_boxes", "addr:city": "OSCEOLA", "addr:country": "US", "addr:postcode": "72370", "addr:state": "AR", "addr:street_address": "303 W HALE AVE", "amenity": "post_box", "collection_times": "Mo-Sa 15:00", "note": "ON 12/24 AND 12/31, THIS BOX MAY BE COLLECTED AS EARLY AS 12 NOON.", "nsi_id": "unitedstatespostalservice-a77078", "operator": "United States Postal Service", "operator:short": "USPS", "operator:type": "public", "operator:wikidata": "Q668687", "ref": "7237000024"}, "type": "Feature"}
{"geometry": {"coordinates": [-89.967961062, 35.703792221], "type": "Point"}, "id": "MADnNK2XoVslhuA3EYjE7lAiCak=", "properties": {"@source_uri": "https://tools.usps.com/UspsToolsRestServices/rest/POLocator/findLocations", "@spider": "usps_collection_boxes", "addr:city": "OSCEOLA", "addr:country": "US", "addr:postcode": "72370", "addr:state": "AR", "addr:street_address": "101 E JOHNSON AVE", "amenity": "post_box", "collection_times": "Mo-Fr 17:00", "indoor": "yes", "note": "ON 12/24 AND 12/31, THIS BOX MAY BE COLLECTED AS EARLY AS 12 NOON.", "nsi_id": "unitedstatespostalservice-a77078", "operator": "United States Postal Service", "operator:short": "USPS", "operator:type": "public", "operator:wikidata": "Q668687", "ref": "7237000026"}, "type": "Feature"}
{"geometry": {"coordinates": [-90.9069060399, 34.9705419945], "type": "Point"}, "id": "ioFqNYG87VH2pp4odfkRa4JKUkA=", "properties": {"@source_uri": "https://tools.usps.com/UspsToolsRestServices/rest/POLocator/findLocations", "@spider": "usps_collection_boxes", "addr:city": "PALESTINE", "addr:country": "US", "addr:postcode": "72372", "addr:state": "AR", "addr:street_address": "310 W PARKER ST", "amenity": "post_box", "collection_times": "Mo-Fr 14:15; Sa 10:45", "note": "ON 12/24 AND 12/31, THIS BOX MAY BE COLLECTED AS EARLY AS 12 NOON.", "nsi_id": "unitedstatespostalservice-a77078", "operator": "United States Postal Service", "operator:short": "USPS", "operator:type": "public", "operator:wikidata": "Q668687", "ref": "7237200001"}, "type": "Feature"}
{"geometry": {"coordinates": [-90.9069060399, 34.9705419945], "type": "Point"}, "id": "oHxrphUK9NtneFeQGSYySyPQHbg=", "properties": {"@source_uri": "https://tools.usps.com/UspsToolsRestServices/rest/POLocator/findLocations", "@spider": "usps_collection_boxes", "addr:city": "PALESTINE", "addr:country": "US", "addr:postcode": "72372", "addr:state": "AR", "addr:street_address": "310 W PARKER ST", "amenity": "post_box", "collection_times": "Mo-Fr 14:15; Sa 10:45", "indoor": "yes", "note": "ON 12/24 AND 12/31, THIS BOX MAY BE COLLECTED AS EARLY AS 12 NOON.", "nsi_id": "unitedstatespostalservice-a77078", "operator": "United States Postal Service", "operator:short": "USPS", "operator:type": "public", "operator:wikidata": "Q668687", "ref": "7237200003"}, "type": "Feature"}
{"geometry": {"coordinates": [-90.9069060399, 34.9705419945], "type": "Point"}, "id": "dmVhYqSIJS4UYbsjbWNaPQNU16E=", "properties": {"@source_uri": "https://tools.usps.com/UspsToolsRestServices/rest/POLocator/findLocations", "@spider": "usps_collection_boxes", "addr:city": "PALESTINE", "addr:country": "US", "addr:postcode": "72372", "addr:state": "AR", "addr:street_address": "310 W PARKER ST", "amenity": "post_box", "collection_times": "Mo-Fr 14:30; Sa 10:30", "indoor": "yes", "note": "ON 12/24 AND 12/31, THIS BOX MAY BE COLLECTED AS EARLY AS 12 NOON.", "nsi_id": "unitedstatespostalservice-a77078", "operator": "United States Postal Service", "operator:short": "USPS", "operator:type": "public", "operator:wikidata": "Q668687", "ref": "7237200008"}, "type": "Feature"}
{"geometry": {"coordinates": [-90.5587859035, 35.2665902699], "type": "Point"}, "id": "MBk87DNcQfGEil3IHKkuhz7GCZk=", "properties": {"@source_uri": "https://tools.usps.com/UspsToolsRestServices/rest/POLocator/findLocations", "@spider": "usps_collection_boxes", "addr:city": "PARKIN", "addr:country": "US", "addr:postcode": "72373", "addr:state": "AR", "addr:street_address": "111 S FRONT ST", "amenity": "post_box", "collection_times": "Mo-Fr 14:15; Sa 12:00", "note": "ON 12/24 AND 12/31, THIS BOX MAY BE COLLECTED AS EARLY AS 12 NOON.", "nsi_id": "unitedstatespostalservice-a77078", "operator": "United States Postal Service", "operator:short": "USPS", "operator:type": "public", "operator:wikidata": "Q668687", "ref": "7237300001"}, "type": "Feature"}
{"geometry": {"coordinates": [-90.5587859035, 35.2665902699], "type": "Point"}, "id": "f1eh1UcqT8TPYa9wtjsW5snhmqk=", "properties": {"@source_uri": "https://tools.usps.com/UspsToolsRestServices/rest/POLocator/findLocations", "@spider": "usps_collection_boxes", "addr:city": "PARKIN", "addr:country": "US", "addr:postcode": "72373", "addr:state": "AR", "addr:street_address": "111 S FRONT ST", "amenity": "post_box", "collection_times": "Mo-Fr 14:15; Sa 12:00", "indoor": "yes", "note": "ON 12/24 AND 12/31, THIS BOX MAY BE COLLECTED AS EARLY AS 12 NOON.", "nsi_id": "unitedstatespostalservice-a77078", "operator": "United States Postal Service", "operator:short": "USPS", "operator:type": "public", "operator:wikidata": "Q668687", "ref": "7237300003"}, "type": "Feature"}
{"geometry": {"coordinates": [-90.5587859035, 35.2665902699], "type": "Point"}, "id": "d4-sPHy810BYo_knYCLElNb5vm0=", "properties": {"@source_uri": "https://tools.usps.com/UspsToolsRestServices/rest/POLocator/findLocations", "@spider": "usps_collection_boxes", "addr:city": "PARKIN", "addr:country": "US", "addr:postcode": "72373", "addr:state": "AR", "addr:street_address": "111 S FRONT ST", "amenity": "post_box", "collection_times": "Mo-Fr 14:15; Sa 12:00", "indoor": "yes", "note": "ON 12/24 AND 12/31, THIS BOX MAY BE COLLECTED AS EARLY AS 12 NOON.", "nsi_id": "unitedstatespostalservice-a77078", "operator": "United States Postal Service", "operator:short": "USPS", "operator:type": "public", "operator:wikidata": "Q668687", "ref": "7237300004"}, "type": "Feature"}
{"geometry": {"coordinates": [-90.5587859035, 35.2665902699], "type": "Point"}, "id": "w69m37APp8uO9wfJgLXnufC-Gms=", "properties": {"@source_uri": "https://tools.usps.com/UspsToolsRestServices/rest/POLocator/findLocations", "@spider": "usps_collection_boxes", "addr:city": "PARKIN", "addr:country": "US", "addr:postcode": "72373", "addr:state": "AR", "addr:street_address": "111 S FRONT ST", "amenity": "post_box", "collection_times": "Mo-Fr 14:15; Sa 12:00", "indoor": "yes", "note": "ON 12/24 AND 12/31, THIS BOX MAY BE COLLECTED AS EARLY AS 12 NOON.", "nsi_id": "unitedstatespostalservice-a77078", "operator": "United States Postal Service", "operator:short": "USPS", "operator:type": "public", "operator:wikidata": "Q668687", "ref": "7237300005"}, "type": "Feature"}
{"geometry": {"coordinates": [-90.856915976, 34.555878574], "type": "Point"}, "id": "ig-q5pmQt9Iv4VE15T38XK2NSUc=", "properties": {"@source_uri": "https://tools.usps.com/UspsToolsRestServices/rest/POLocator/findLocations", "@spider": "usps_collection_boxes", "addr:city": "POPLAR GROVE", "addr:country": "US", "addr:postcode": "72374", "addr:state": "AR", "addr:street_address": "11200 HIGHWAY 49", "amenity": "post_box", "collection_times": "Mo-Fr 16:00; Sa 11:00", "note": "ON 12/24 AND 12/31, THIS BOX MAY BE COLLECTED AS EARLY AS 12 NOON.", "nsi_id": "unitedstatespostalservice-a77078", "operator": "United States Postal Service", "operator:short": "USPS", "operator:type": "public", "operator:wikidata": "Q668687", "ref": "7237400000"}, "type": "Feature"}
{"geometry": {"coordinates": [-90.8569159758, 34.5558785739], "type": "Point"}, "id": "mbOfU1W04kyuWxLM33XzbZfseGo=", "properties": {"@source_uri": "https://tools.usps.com/UspsToolsRestServices/rest/POLocator/findLocations", "@spider": "usps_collection_boxes", "addr:city": "POPLAR GROVE", "addr:country": "US", "addr:postcode": "72374", "addr:state": "AR", "addr:street_address": "11200 HIGHWAY 49", "amenity": "post_box", "collection_times": "Mo-Fr 11:30; Sa 11:00", "indoor": "yes", "nsi_id": "unitedstatespostalservice-a77078", "operator": "United States Postal Service", "operator:short": "USPS", "operator:type": "public", "operator:wikidata": "Q668687", "ref": "7237400001"}, "type": "Feature"}
{"geometry": {"coordinates": [-90.856915976, 34.555878574], "type": "Point"}, "id": "5UEA64qUCql6XXxQcVd0GbX8vOs=", "properties": {"@source_uri": "https://tools.usps.com/UspsToolsRestServices/rest/POLocator/findLocations", "@spider": "usps_collection_boxes", "addr:city": "POPLAR GROVE", "addr:country": "US", "addr:postcode": "72374", "addr:state": "AR", "addr:street_address": "11200 HIGHWAY 49", "amenity": "post_box", "collection_times": "Mo-Fr 11:30; Sa 11:00", "indoor": "yes", "nsi_id": "unitedstatespostalservice-a77078", "operator": "United States Postal Service", "operator:short": "USPS", "operator:type": "public", "operator:wikidata": "Q668687", "ref": "7237400002"}, "type": "Feature"}
{"geometry": {"coordinates": [-90.8569159758, 34.5558785739], "type": "Point"}, "id": "99q_IdnXTRdVeWBY8M_DoPV5NYg=", "properties": {"@source_uri": "https://tools.usps.com/UspsToolsRestServices/rest/POLocator/findLocations", "@spider": "usps_collection_boxes", "addr:city": "POPLAR GROVE", "addr:country": "US", "addr:postcode": "72374", "addr:state": "AR", "addr:street_address": "11200 HIGHWAY 49", "amenity": "post_box", "collection_times": "Mo-Fr 12:00; Sa 11:00", "indoor": "yes", "nsi_id": "unitedstatespostalservice-a77078", "operator": "United States Postal Service", "operator:short": "USPS", "operator:type": "public", "operator:wikidata": "Q668687", "ref": "7237400004"}, "type": "Feature"}
{"geometry": {"coordinates": [-90.309967, 35.067644], "type": "Point"}, "id": "W_TgxFHipzde7tLkwXhLY8AasW4=", "properties": {"@source_uri": "https://tools.usps.com/UspsToolsRestServices/rest/POLocator/findLocations", "@spider": "usps_collection_boxes", "addr:city": "PROCTOR", "addr:country": "US", "addr:postcode": "72376", "addr:state": "AR", "addr:street_address": "5650 HIGHWAY 147 S", "amenity": "post_box", "collection_times": "Mo-Fr 15:00; Sa 09:45", "note": "ON 12/24 AND 12/31, THIS BOX MAY BE COLLECTED AS EARLY AS 12 NOON.", "nsi_id": "unitedstatespostalservice-a77078", "operator": "United States Postal Service", "operator:short": "USPS", "operator:type": "public", "operator:wikidata": "Q668687", "ref": "7237600000"}, "type": "Feature"}
{"geometry": {"coordinates": [-90.309967, 35.067644], "type": "Point"}, "id": "dVxvoFjLLDBdVf4NEHnuZgxs2RI=", "properties": {"@source_uri": "https://tools.usps.com/UspsToolsRestServices/rest/POLocator/findLocations", "@spider": "usps_collection_boxes", "addr:city": "PROCTOR", "addr:country": "US", "addr:postcode": "72376", "addr:state": "AR", "addr:street_address": "5650 HIGHWAY 147 S", "amenity": "post_box", "collection_times": "Mo-Fr 15:00; Sa 09:45", "indoor": "yes", "note": "ON 12/24 AND 12/31, THIS BOX MAY BE COLLECTED AS EARLY AS 12 NOON.", "nsi_id": "unitedstatespostalservice-a77078", "operator": "United States Postal Service", "operator:short": "USPS", "operator:type": "public", "operator:wikidata": "Q668687", "ref": "7237600001"}, "type": "Feature"}
{"geometry": {"coordinates": [-90.298092777, 35.067446488], "type": "Point"}, "id": "WEpYeJ8GtaDSAehvx_O8gn9E03U=", "properties": {"@source_uri": "https://tools.usps.com/UspsToolsRestServices/rest/POLocator/findLocations", "@spider": "usps_collection_boxes", "addr:city": "PROCTOR", "addr:country": "US", "addr:postcode": "72376", "addr:state": "AR", "addr:street_address": "5650 HIGHWAY 147 S", "amenity": "post_box", "collection_times": "Mo-Fr 15:00; Sa 09:30", "indoor": "yes", "note": "ON 12/24 AND 12/31, THIS BOX MAY BE COLLECTED AS EARLY AS 12 NOON.", "nsi_id": "unitedstatespostalservice-a77078", "operator": "United States Postal Service", "operator:short": "USPS", "operator:type": "public", "operator:wikidata": "Q668687", "ref": "7237600004"}, "type": "Feature"}
{"geometry": {"coordinates": [-91.0255711893, 34.0631456222], "type": "Point"}, "id": "Iwcow396sd14Qo9C6YAWonY7gdI=", "properties": {"@source_uri": "https://tools.usps.com/UspsToolsRestServices/rest/POLocator/findLocations", "@spider": "usps_collection_boxes", "addr:city": "SNOW LAKE", "addr:country": "US", "addr:postcode": "72379", "addr:state": "AR", "addr:street_address": "1586 S HIGHWAY 85", "amenity": "post_box", "collection_times": "Mo-Fr 12:30; Sa 10:00", "note": "ON 12/24 AND 12/31, THIS BOX MAY BE COLLECTED AS EARLY AS 12 NOON.", "nsi_id": "unitedstatespostalservice-a77078", "operator": "United States Postal Service", "operator:short": "USPS", "operator:type": "public", "operator:wikidata": "Q668687", "ref": "7237900000"}, "type": "Feature"}
{"geometry": {"coordinates": [-91.0255711893, 34.0631456222], "type": "Point"}, "id": "HhPkx9goo6ipG9JypodzaGvX1zA=", "properties": {"@source_uri": "https://tools.usps.com/UspsToolsRestServices/rest/POLocator/findLocations", "@spider": "usps_collection_boxes", "addr:city": "SNOW LAKE", "addr:country": "US", "addr:postcode": "72379", "addr:state": "AR", "addr:street_address": "1586 S HIGHWAY 85", "amenity": "post_box", "collection_times": "Mo-Fr 12:30; Sa 10:00", "indoor": "yes", "note": "ON 12/24 AND 12/31, THIS BOX MAY BE COLLECTED AS EARLY AS 12 NOON.", "nsi_id": "unitedstatespostalservice-a77078", "operator": "United States Postal Service", "operator:short": "USPS", "operator:type": "public", "operator:wikidata": "Q668687", "ref": "7237900001"}, "type": "Feature"}
{"geometry": {"coordinates": [-90.98409, 34.110655], "type": "Point"}, "id": "Q0JDYfmXruHpKLSviYGTQxtDNu8=", "properties": {"@source_uri": "https://tools.usps.com/UspsToolsRestServices/rest/POLocator/findLocations", "@spider": "usps_collection_boxes", "addr:city": "SNOW LAKE", "addr:country": "US", "addr:postcode": "72379", "addr:state": "AR", "addr:street_address": "1586 S HIGHWAY 44", "amenity": "post_box", "collection_times": "Mo-Fr 12:45; Sa 10:15", "indoor": "yes", "note": "ON 12/24 AND 12/31, THIS BOX MAY BE COLLECTED AS EARLY AS 12 NOON.", "nsi_id": "unitedstatespostalservice-a77078", "operator": "United States Postal Service", "operator:short": "USPS", "operator:type": "public", "operator:wikidata": "Q668687", "ref": "7237900003"}, "type": "Feature"}
{"geometry": {"coordinates": [-91.0182958334, 34.4757085873], "type": "Point"}, "id": "ZAmkCRm7A0hXO3XEXEyQjKnKy9A=", "properties": {"@source_uri": "https://tools.usps.com/UspsToolsRestServices/rest/POLocator/findLocations", "@spider": "usps_collection_boxes", "addr:city": "TURNER", "addr:country": "US", "addr:postcode": "72383", "addr:state": "AR", "addr:street_address": "8176 HIGHWAY 39", "amenity": "post_box", "collection_times": "Mo-Sa 10:45", "nsi_id": "unitedstatespostalservice-a77078", "operator": "United States Postal Service", "operator:short": "USPS", "operator:type": "public", "operator:wikidata": "Q668687", "ref": "7238300000"}, "type": "Feature"}
{"geometry": {"coordinates": [-91.0182958334, 34.4757085873], "type": "Point"}, "id": "aNpWbMN8w-LXYP3XgpsXI17LYUQ=", "properties": {"@source_uri": "https://tools.usps.com/UspsToolsRestServices/rest/POLocator/findLocations", "@spider": "usps_collection_boxes", "addr:city": "TURNER", "addr:country": "US", "addr:postcode": "72383", "addr:state": "AR", "addr:street_address": "8176 HIGHWAY 39", "amenity": "post_box", "collection_times": "Mo-Sa 10:45", "indoor": "yes", "nsi_id": "unitedstatespostalservice-a77078", "operator": "United States Postal Service", "operator:short": "USPS", "operator:type": "public", "operator:wikidata": "Q668687", "ref": "7238300001"}, "type": "Feature"}
{"geometry": {"coordinates": [-91.0182958334, 34.4757085873], "type": "Point"}, "id": "OgWXMIsCyu9GKUEkiBN5fK6CFZ0=", "properties": {"@source_uri": "https://tools.usps.com/UspsToolsRestServices/rest/POLocator/findLocations", "@spider": "usps_collection_boxes", "addr:city": "TURNER", "addr:country": "US", "addr:postcode": "72383", "addr:state": "AR", "addr:street_address": "8176 HIGHWAY 39", "amenity": "post_box", "collection_times": "Mo-Fr 12:30; Sa 12:45", "indoor": "yes", "note": "ON 12/24 AND 12/31, THIS BOX MAY BE COLLECTED AS EARLY AS 12 NOON.", "nsi_id": "unitedstatespostalservice-a77078", "operator": "United States Postal Service", "operator:short": "USPS", "operator:type": "public", "operator:wikidata": "Q668687", "ref": "7238300003"}, "type": "Feature"}
{"geometry": {"coordinates": [-90.25745, 35.374146], "type": "Point"}, "id": "OVRCzZHHgZqstJ3COYHRlgR1zBQ=", "properties": {"@source_uri": "https://tools.usps.com/UspsToolsRestServices/rest/POLocator/findLocations", "@spider": "usps_collection_boxes", "addr:city": "TURRELL", "addr:country": "US", "addr:postcode": "72384", "addr:state": "AR", "addr:street_address": "237 BARTON ST", "amenity": "post_box", "collection_times": "Mo-Fr 11:45; Sa 10:30", "nsi_id": "unitedstatespostalservice-a77078", "operator": "United States Postal Service", "operator:short": "USPS", "operator:type": "public", "operator:wikidata": "Q668687", "ref": "7238400001"}, "type": "Feature"}
{"geometry": {"coordinates": [-90.25745, 35.374146], "type": "Point"}, "id": "cEzf-12lHVpyRbfIHZGC1uFYhXA=", "properties": {"@source_uri": "https://tools.usps.com/UspsToolsRestServices/rest/POLocator/findLocations", "@spider": "usps_collection_boxes", "addr:city": "TURRELL", "addr:country": "US", "addr:postcode": "72384", "addr:state": "AR", "addr:street_address": "237 BARTON ST", "amenity": "post_box", "collection_times": "Mo-Fr 11:45; Sa 10:30", "indoor": "yes", "nsi_id": "unitedstatespostalservice-a77078", "operator": "United States Postal Service", "operator:short": "USPS", "operator:type": "public", "operator:wikidata": "Q668687", "ref": "7238400002"}, "type": "Feature"}
{"geometry": {"coordinates": [-90.25745, 35.374146], "type": "Point"}, "id": "H8F_EsavzOYBKv3CBfP9_1PbtEc=", "properties": {"@source_uri": "https://tools.usps.com/UspsToolsRestServices/rest/POLocator/findLocations", "@spider": "usps_collection_boxes", "addr:city": "TURRELL", "addr:country": "US", "addr:postcode": "72384", "addr:state": "AR", "addr:street_address": "237 BARTON ST", "amenity": "post_box", "collection_times": "Mo-Fr 11:45; Sa 10:30", "indoor": "yes", "nsi_id": "unitedstatespostalservice-a77078", "operator": "United States Postal Service", "operator:short": "USPS", "operator:type": "public", "operator:wikidata": "Q668687", "ref": "7238400003"}, "type": "Feature"}
{"geometry": {"coordinates": [-90.25711891, 35.374159689], "type": "Point"}, "id": "d-UNhTNpQsNKGbl2QZFjVZN9Q_8=", "properties": {"@source_uri": "https://tools.usps.com/UspsToolsRestServices/rest/POLocator/findLocations", "@spider": "usps_collection_boxes", "addr:city": "TURRELL", "addr:country": "US", "addr:postcode": "72384", "addr:state": "AR", "addr:street_address": "237 BARTON ST", "amenity": "post_box", "collection_times": "Mo-Fr 12:00; Sa 10:30", "indoor": "yes", "nsi_id": "unitedstatespostalservice-a77078", "operator": "United States Postal Service", "operator:short": "USPS", "operator:type": "public", "operator:wikidata": "Q668687", "ref": "7238400004"}, "type": "Feature"}
{"geometry": {"coordinates": [-90.35856, 35.48985], "type": "Point"}, "id": "aPbhbDqaFQ5tpD8L6A-YnZgVlgg=", "properties": {"@source_uri": "https://tools.usps.com/UspsToolsRestServices/rest/POLocator/findLocations", "@spider": "usps_collection_boxes", "addr:city": "TYRONZA", "addr:country": "US", "addr:postcode": "72386", "addr:state": "AR", "addr:street_address": "329 S MAIN ST", "amenity": "post_box", "collection_times": "Mo-Fr 15:00; Sa 10:00", "note": "ON 12/24 AND 12/31, THIS BOX MAY BE COLLECTED AS EARLY AS 12 NOON.", "nsi_id": "unitedstatespostalservice-a77078", "operator": "United States Postal Service", "operator:short": "USPS", "operator:type": "public", "operator:wikidata": "Q668687", "ref": "7238600000"}, "type": "Feature"}
{"geometry": {"coordinates": [-90.358669, 35.485934], "type": "Point"}, "id": "4VnQAdItJK-UIo5U_dBh8-vbeAk=", "properties": {"@source_uri": "https://tools.usps.com/UspsToolsRestServices/rest/POLocator/findLocations", "@spider": "usps_collection_boxes", "addr:city": "TYRONZA", "addr:country": "US", "addr:postcode": "72386", "addr:state": "AR", "addr:street_address": "329 S MAIN ST", "amenity": "post_box", "collection_times": "Mo-Fr 15:00; Sa 10:00", "indoor": "yes", "note": "ON 12/24 AND 12/31, THIS BOX MAY BE COLLECTED AS EARLY AS 12 NOON.", "nsi_id": "unitedstatespostalservice-a77078", "operator": "United States Postal Service", "operator:short": "USPS", "operator:type": "public", "operator:wikidata": "Q668687", "ref": "7238600001"}, "type": "Feature"}
{"geometry": {"coordinates": [-90.358669, 35.485934], "type": "Point"}, "id": "8Zr63cKMH_jBx2m_tdacV5TjopQ=", "properties": {"@source_uri": "https://tools.usps.com/UspsToolsRestServices/rest/POLocator/findLocations", "@spider": "usps_collection_boxes", "addr:city": "TYRONZA", "addr:country": "US", "addr:postcode": "72386", "addr:state": "AR", "addr:street_address": "329 S MAIN ST", "amenity": "post_box", "collection_times": "Mo-Fr 15:00; Sa 10:00", "indoor": "yes", "note": "ON 12/24 AND 12/31, THIS BOX MAY BE COLLECTED AS EARLY AS 12 NOON.", "nsi_id": "unitedstatespostalservice-a77078", "operator": "United States Postal Service", "operator:short": "USPS", "operator:type": "public", "operator:wikidata": "Q668687", "ref": "7238600002"}, "type": "Feature"}
{"geometry": {"coordinates": [-90.358669, 35.485934], "type": "Point"}, "id": "0CsIJjCYr_tPxXDKzBKT5YeSk4o=", "properties": {"@source_uri": "https://tools.usps.com/UspsToolsRestServices/rest/POLocator/findLocations", "@spider": "usps_collection_boxes", "addr:city": "TYRONZA", "addr:country": "US", "addr:postcode": "72386", "addr:state": "AR", "addr:street_address": "329 S MAIN ST", "amenity": "post_box", "collection_times": "Mo-Fr 15:00; Sa 10:00", "indoor": "yes", "note": "ON 12/24 AND 12/31, THIS BOX MAY BE COLLECTED AS EARLY AS 12 NOON.", "nsi_id": "unitedstatespostalservice-a77078", "operator": "United States Postal Service", "operator:short": "USPS", "operator:type": "public", "operator:wikidata": "Q668687", "ref": "7238600003"}, "type": "Feature"}
{"geometry": {"coordinates": [-90.358669, 35.485934], "type": "Point"}, "id": "PYJF5-pbi7JmXIzZQdr8Iyc6r10=", "properties": {"@source_uri": "https://tools.usps.com/UspsToolsRestServices/rest/POLocator/findLocations", "@spider": "usps_collection_boxes", "addr:city": "TYRONZA", "addr:country": "US", "addr:postcode": "72386", "addr:state": "AR", "addr:street_address": "329 S MAIN ST", "amenity": "post_box", "collection_times": "Mo-Fr 15:00; Sa 10:00", "indoor": "yes", "note": "ON 12/24 AND 12/31, THIS BOX MAY BE COLLECTED AS EARLY AS 12 NOON.", "nsi_id": "unitedstatespostalservice-a77078", "operator": "United States Postal Service", "operator:short": "USPS", "operator:type": "public", "operator:wikidata": "Q668687", "ref": "7238600004"}, "type": "Feature"}
{"geometry": {"coordinates": [-90.358700486, 35.48592183], "type": "Point"}, "id": "46N2F9EF60KqSMe6ot72v3V20-k=", "properties": {"@source_uri": "https://tools.usps.com/UspsToolsRestServices/rest/POLocator/findLocations", "@spider": "usps_collection_boxes", "addr:city": "TYRONZA", "addr:country": "US", "addr:postcode": "72386", "addr:state": "AR", "addr:street_address": "329 S MAIN ST", "amenity": "post_box", "collection_times": "Mo-Fr 15:00; Sa 10:30", "indoor": "yes", "note": "ON 12/24 AND 12/31, THIS BOX MAY BE COLLECTED AS EARLY AS 12 NOON.", "nsi_id": "unitedstatespostalservice-a77078", "operator": "United States Postal Service", "operator:short": "USPS", "operator:type": "public", "operator:wikidata": "Q668687", "ref": "7238600007"}, "type": "Feature"}
{"geometry": {"coordinates": [-90.7728687631, 35.3140613042], "type": "Point"}, "id": "wzJbFSQpoSgUdc3mU-8gqCxuWfc=", "properties": {"@source_uri": "https://tools.usps.com/UspsToolsRestServices/rest/POLocator/findLocations", "@spider": "usps_collection_boxes", "addr:city": "VANNDALE", "addr:country": "US", "addr:postcode": "72387", "addr:state": "AR", "addr:street_address": "2905 HIGHWAY 1B", "amenity": "post_box", "collection_times": "Mo-Fr 16:30; Sa 10:45", "note": "ON 12/24 AND 12/31, THIS BOX MAY BE COLLECTED AS EARLY AS 12 NOON.", "nsi_id": "unitedstatespostalservice-a77078", "operator": "United States Postal Service", "operator:short": "USPS", "operator:type": "public", "operator:wikidata": "Q668687", "ref": "7238700001"}, "type": "Feature"}
{"geometry": {"coordinates": [-90.7728687631, 35.3140613042], "type": "Point"}, "id": "vNcZ6c1wUALy6hBVDBy06ADOIsU=", "properties": {"@source_uri": "https://tools.usps.com/UspsToolsRestServices/rest/POLocator/findLocations", "@spider": "usps_collection_boxes", "addr:city": "VANNDALE", "addr:country": "US", "addr:postcode": "72387", "addr:state": "AR", "addr:street_address": "2905 HIGHWAY 1B", "amenity": "post_box", "collection_times": "Mo-Fr 09:30; Sa 10:45", "indoor": "yes", "nsi_id": "unitedstatespostalservice-a77078", "operator": "United States Postal Service", "operator:short": "USPS", "operator:type": "public", "operator:wikidata": "Q668687", "ref": "7238700002"}, "type": "Feature"}
{"geometry": {"coordinates": [-90.7728687631, 35.3140613042], "type": "Point"}, "id": "MvPtUTt9b9WzwmmF5TRMFoctlyI=", "properties": {"@source_uri": "https://tools.usps.com/UspsToolsRestServices/rest/POLocator/findLocations", "@spider": "usps_collection_boxes", "addr:city": "VANNDALE", "addr:country": "US", "addr:postcode": "72387", "addr:state": "AR", "addr:street_address": "2905 HIGHWAY 1B", "amenity": "post_box", "collection_times": "Mo-Fr 10:00; Sa 10:45", "indoor": "yes", "nsi_id": "unitedstatespostalservice-a77078", "operator": "United States Postal Service", "operator:short": "USPS", "operator:type": "public", "operator:wikidata": "Q668687", "ref": "7238700003"}, "type": "Feature"}
{"geometry": {"coordinates": [-90.8261281302, 34.3889066039], "type": "Point"}, "id": "owoQRG3c10HMLh9rzShAzEAY_kc=", "properties": {"@source_uri": "https://tools.usps.com/UspsToolsRestServices/rest/POLocator/findLocations", "@spider": "usps_collection_boxes", "addr:city": "WABASH", "addr:country": "US", "addr:postcode": "72389", "addr:state": "AR", "addr:street_address": "17114 HIGHWAY 44", "amenity": "post_box", "collection_times": "Mo-Fr 16:15; Sa 11:15", "note": "ON 12/24 AND 12/31, THIS BOX MAY BE COLLECTED AS EARLY AS 12 NOON.", "nsi_id": "unitedstatespostalservice-a77078", "operator": "United States Postal Service", "operator:short": "USPS", "operator:type": "public", "operator:wikidata": "Q668687", "ref": "7238900018"}, "type": "Feature"}
{"geometry": {"coordinates": [-90.8261281302, 34.3889066039], "type": "Point"}, "id": "hROVyXxCIsVXlFvZE4Is85Ps24M=", "properties": {"@source_uri": "https://tools.usps.com/UspsToolsRestServices/rest/POLocator/findLocations", "@spider": "usps_collection_boxes", "addr:city": "WABASH", "addr:country": "US", "addr:postcode": "72389", "addr:state": "AR", "addr:street_address": "17114 HIGHWAY 44", "amenity": "post_box", "collection_times": "Mo-Fr 16:00; Sa 11:15", "indoor": "yes", "note": "ON 12/24 AND 12/31, THIS BOX MAY BE COLLECTED AS EARLY AS 12 NOON.", "nsi_id": "unitedstatespostalservice-a77078", "operator": "United States Postal Service", "operator:short": "USPS", "operator:type": "public", "operator:wikidata": "Q668687", "ref": "7238900019"}, "type": "Feature"}
{"geometry": {"coordinates": [-90.8261281302, 34.3889066039], "type": "Point"}, "id": "Jfxh4zfJkep-VSHxSHetwAY5f94=", "properties": {"@source_uri": "https://tools.usps.com/UspsToolsRestServices/rest/POLocator/findLocations", "@spider": "usps_collection_boxes", "addr:city": "WABASH", "addr:country": "US", "addr:postcode": "72389", "addr:state": "AR", "addr:street_address": "17114 HIGHWAY 44", "amenity": "post_box", "collection_times": "Mo-Fr 16:15; Sa 11:15", "indoor": "yes", "note": "ON 12/24 AND 12/31, THIS BOX MAY BE COLLECTED AS EARLY AS 12 NOON.", "nsi_id": "unitedstatespostalservice-a77078", "operator": "United States Postal Service", "operator:short": "USPS", "operator:type": "public", "operator:wikidata": "Q668687", "ref": "7238900021"}, "type": "Feature"}
{"geometry": {"coordinates": [-90.645499961, 34.546760011], "type": "Point"}, "id": "gUVf0uV9EcIjZoePNXsKszVLbzg=", "properties": {"@source_uri": "https://tools.usps.com/UspsToolsRestServices/rest/POLocator/findLocations", "@spider": "usps_collection_boxes", "addr:city": "WEST HELENA", "addr:country": "US", "addr:postcode": "72390", "addr:state": "AR", "addr:street_address": "221 N SEBASTIAN", "amenity": "post_box", "collection_times": "Mo-Fr 17:00; Sa 14:45", "indoor": "yes", "note": "ON 12/24 AND 12/31, THIS BOX MAY BE COLLECTED AS EARLY AS 12 NOON.", "nsi_id": "unitedstatespostalservice-a77078", "operator": "United States Postal Service", "operator:short": "USPS", "operator:type": "public", "operator:wikidata": "Q668687", "ref": "7239000019"}, "type": "Feature"}
{"geometry": {"coordinates": [-90.645499961, 34.546760011], "type": "Point"}, "id": "x7WeDV8oPq7XrjEubUzmS0zaZlw=", "properties": {"@source_uri": "https://tools.usps.com/UspsToolsRestServices/rest/POLocator/findLocations", "@spider": "usps_collection_boxes", "addr:city": "WEST HELENA", "addr:country": "US", "addr:postcode": "72390", "addr:state": "AR", "addr:street_address": "221 N SEBASTIAN", "amenity": "post_box", "collection_times": "Mo-Fr 17:00; Sa 14:45", "indoor": "yes", "note": "ON 12/24 AND 12/31, THIS BOX MAY BE COLLECTED AS EARLY AS 12 NOON.", "nsi_id": "unitedstatespostalservice-a77078", "operator": "United States Postal Service", "operator:short": "USPS", "operator:type": "public", "operator:wikidata": "Q668687", "ref": "7239000024"}, "type": "Feature"}
{"geometry": {"coordinates": [-90.645499961, 34.546760011], "type": "Point"}, "id": "RJcX_y6FUCdzTSZ1UBs2HH1CZE0=", "properties": {"@source_uri": "https://tools.usps.com/UspsToolsRestServices/rest/POLocator/findLocations", "@spider": "usps_collection_boxes", "addr:city": "WEST HELENA", "addr:country": "US", "addr:postcode": "72390", "addr:state": "AR", "addr:street_address": "221 N SEBASTIAN", "amenity": "post_box", "collection_times": "Mo-Fr 17:00; Sa 14:45", "indoor": "yes", "note": "ON 12/24 AND 12/31, THIS BOX MAY BE COLLECTED AS EARLY AS 12 NOON.", "nsi_id": "unitedstatespostalservice-a77078", "operator": "United States Postal Service", "operator:short": "USPS", "operator:type": "public", "operator:wikidata": "Q668687", "ref": "7239000025"}, "type": "Feature"}
{"geometry": {"coordinates": [-90.645499961, 34.546760011], "type": "Point"}, "id": "sd7aZsqwVXQJkU84Cx--jbMr9LY=", "properties": {"@source_uri": "https://tools.usps.com/UspsToolsRestServices/rest/POLocator/findLocations", "@spider": "usps_collection_boxes", "addr:city": "WEST HELENA", "addr:country": "US", "addr:postcode": "72390", "addr:state": "AR", "addr:street_address": "221 N SEBASTIAN", "amenity": "post_box", "collection_times": "Mo-Fr 17:00; Sa 14:45", "indoor": "yes", "note": "ON 12/24 AND 12/31, THIS BOX MAY BE COLLECTED AS EARLY AS 12 NOON.", "nsi_id": "unitedstatespostalservice-a77078", "operator": "United States Postal Service", "operator:short": "USPS", "operator:type": "public", "operator:wikidata": "Q668687", "ref": "7239000026"}, "type": "Feature"}
{"geometry": {"coordinates": [-90.645499961, 34.546760011], "type": "Point"}, "id": "dNeIm4mY3_7KVj79rAdUNbpAQFs=", "properties": {"@source_uri": "https://tools.usps.com/UspsToolsRestServices/rest/POLocator/findLocations", "@spider": "usps_collection_boxes", "addr:city": "WEST HELENA", "addr:country": "US", "addr:postcode": "72390", "addr:state": "AR", "addr:street_address": "221 N SEBASTIAN", "amenity": "post_box", "collection_times": "Mo-Fr 17:00; Sa 14:45", "indoor": "yes", "note": "ON 12/24 AND 12/31, THIS BOX MAY BE COLLECTED AS EARLY AS 12 NOON.", "nsi_id": "unitedstatespostalservice-a77078", "operator": "United States Postal Service", "operator:short": "USPS", "operator:type": "public", "operator:wikidata": "Q668687", "ref": "7239000027"}, "type": "Feature"}
{"geometry": {"coordinates": [-90.645499961, 34.546760011], "type": "Point"}, "id": "JbUxOgiKDYS0Q4H4V-1-ueQYTYc=", "properties": {"@source_uri": "https://tools.usps.com/UspsToolsRestServices/rest/POLocator/findLocations", "@spider": "usps_collection_boxes", "addr:city": "WEST HELENA", "addr:country": "US", "addr:postcode": "72390", "addr:state": "AR", "addr:street_address": "221 N SEBASTIAN", "amenity": "post_box", "collection_times": "Mo-Fr 17:00; Sa 14:45", "indoor": "yes", "note": "ON 12/24 AND 12/31, THIS BOX MAY BE COLLECTED AS EARLY AS 12 NOON.", "nsi_id": "unitedstatespostalservice-a77078", "operator": "United States Postal Service", "operator:short": "USPS", "operator:type": "public", "operator:wikidata": "Q668687", "ref": "7239000028"}, "type": "Feature"}
{"geometry": {"coordinates": [-90.645499961, 34.546760011], "type": "Point"}, "id": "V1VAeOW-gVlXHien7kibSTtGmhQ=", "properties": {"@source_uri": "https://tools.usps.com/UspsToolsRestServices/rest/POLocator/findLocations", "@spider": "usps_collection_boxes", "addr:city": "WEST HELENA", "addr:country": "US", "addr:postcode": "72390", "addr:state": "AR", "addr:street_address": "221 N SEBASTIAN", "amenity": "post_box", "collection_times": "Mo-Fr 17:00; Sa 12:00", "indoor": "yes", "note": "ON 12/24 AND 12/31, THIS BOX MAY BE COLLECTED AS EARLY AS 12 NOON.", "nsi_id": "unitedstatespostalservice-a77078", "operator": "United States Postal Service", "operator:short": "USPS", "operator:type": "public", "operator:wikidata": "Q668687", "ref": "7239000030"}, "type": "Feature"}
{"geometry": {"coordinates": [-90.266581433, 35.6792227613], "type": "Point"}, "id": "kRIlBnoVFXn6Y23BRlTnXlsYoOA=", "properties": {"@source_uri": "https://tools.usps.com/UspsToolsRestServices/rest/POLocator/findLocations", "@spider": "usps_collection_boxes", "addr:city": "WEST RIDGE", "addr:country": "US", "addr:postcode": "72391", "addr:state": "AR", "addr:street_address": "5204 W STATE HIGHWAY 140", "amenity": "post_box", "collection_times": "Mo-Sa 09:30", "nsi_id": "unitedstatespostalservice-a77078", "operator": "United States Postal Service", "operator:short": "USPS", "operator:type": "public", "operator:wikidata": "Q668687", "ref": "7239100000"}, "type": "Feature"}
{"geometry": {"coordinates": [-90.266581433, 35.6792227613], "type": "Point"}, "id": "DGqU44daAxyex0cFZpVOno-B2Ho=", "properties": {"@source_uri": "https://tools.usps.com/UspsToolsRestServices/rest/POLocator/findLocations", "@spider": "usps_collection_boxes", "addr:city": "WEST RIDGE", "addr:country": "US", "addr:postcode": "72391", "addr:state": "AR", "addr:street_address": "5204 W STATE HIGHWAY 140", "amenity": "post_box", "collection_times": "Mo-Sa 09:30", "indoor": "yes", "nsi_id": "unitedstatespostalservice-a77078", "operator": "United States Postal Service", "operator:short": "USPS", "operator:type": "public", "operator:wikidata": "Q668687", "ref": "7239100001"}, "type": "Feature"}
{"geometry": {"coordinates": [-90.266581433, 35.6792227613], "type": "Point"}, "id": "i6Iu19_gyZLQFTgg1eJripjUoss=", "properties": {"@source_uri": "https://tools.usps.com/UspsToolsRestServices/rest/POLocator/findLocations", "@spider": "usps_collection_boxes", "addr:city": "WEST RIDGE", "addr:country": "US", "addr:postcode": "72391", "addr:state": "AR", "addr:street_address": "5204 W STATE HIGHWAY 140", "amenity": "post_box", "collection_times": "Mo-Sa 09:30", "indoor": "yes", "nsi_id": "unitedstatespostalservice-a77078", "operator": "United States Postal Service", "operator:short": "USPS", "operator:type": "public", "operator:wikidata": "Q668687", "ref": "7239100002"}, "type": "Feature"}
{"geometry": {"coordinates": [-90.263524488, 35.682441589], "type": "Point"}, "id": "8ZGTQ-oTvTMG4VtdjnxyDsY4Shc=", "properties": {"@source_uri": "https://tools.usps.com/UspsToolsRestServices/rest/POLocator/findLocations", "@spider": "usps_collection_boxes", "addr:city": "WEST RIDGE", "addr:country": "US", "addr:postcode": "72391", "addr:state": "AR", "addr:street_address": "5204 W STATE HIGHWAY 140", "amenity": "post_box", "collection_times": "Mo-Fr 09:30; Sa 10:45", "indoor": "yes", "nsi_id": "unitedstatespostalservice-a77078", "operator": "United States Postal Service", "operator:short": "USPS", "operator:type": "public", "operator:wikidata": "Q668687", "ref": "7239100003"}, "type": "Feature"}
{"geometry": {"coordinates": [-91.1081174813, 34.9135725456], "type": "Point"}, "id": "yRl_3xas_4FgJ2BoZX6UUvczmW4=", "properties": {"@source_uri": "https://tools.usps.com/UspsToolsRestServices/rest/POLocator/findLocations", "@spider": "usps_collection_boxes", "addr:city": "WHEATLEY", "addr:country": "US", "addr:postcode": "72392", "addr:state": "AR", "addr:street_address": "100 LITTLE ROCK ST", "amenity": "post_box", "collection_times": "Mo-Fr 14:30; Sa 11:15", "note": "ON 12/24 AND 12/31, THIS BOX MAY BE COLLECTED AS EARLY AS 12 NOON.", "nsi_id": "unitedstatespostalservice-a77078", "operator": "United States Postal Service", "operator:short": "USPS", "operator:type": "public", "operator:wikidata": "Q668687", "ref": "7239200000"}, "type": "Feature"}
{"geometry": {"coordinates": [-91.1081174813, 34.9135725456], "type": "Point"}, "id": "FCndEtuzyQm0tleA0qDTTi8_C8Q=", "properties": {"@source_uri": "https://tools.usps.com/UspsToolsRestServices/rest/POLocator/findLocations", "@spider": "usps_collection_boxes", "addr:city": "WHEATLEY", "addr:country": "US", "addr:postcode": "72392", "addr:state": "AR", "addr:street_address": "100 LITTLE ROCK ST", "amenity": "post_box", "collection_times": "Mo-Fr 14:30; Sa 11:15", "indoor": "yes", "note": "ON 12/24 AND 12/31, THIS BOX MAY BE COLLECTED AS EARLY AS 12 NOON.", "nsi_id": "unitedstatespostalservice-a77078", "operator": "United States Postal Service", "operator:short": "USPS", "operator:type": "public", "operator:wikidata": "Q668687", "ref": "7239200001"}, "type": "Feature"}
{"geometry": {"coordinates": [-91.1081174813, 34.9135725456], "type": "Point"}, "id": "ytJ_5A8SU3htC2royes0FgEQC-E=", "properties": {"@source_uri": "https://tools.usps.com/UspsToolsRestServices/rest/POLocator/findLocations", "@spider": "usps_collection_boxes", "addr:city": "WHEATLEY", "addr:country": "US", "addr:postcode": "72392", "addr:state": "AR", "addr:street_address": "100 LITTLE ROCK ST", "amenity": "post_box", "collection_times": "Mo-Fr 14:30; Sa 11:15", "indoor": "yes", "note": "ON 12/24 AND 12/31, THIS BOX MAY BE COLLECTED AS EARLY AS 12 NOON.", "nsi_id": "unitedstatespostalservice-a77078", "operator": "United States Postal Service", "operator:short": "USPS", "operator:type": "public", "operator:wikidata": "Q668687", "ref": "7239200003"}, "type": "Feature"}
{"geometry": {"coordinates": [-90.6839431406, 35.0223423238], "type": "Point"}, "id": "dg1WhfBuZQP5tDXei5QlWk6dmHg=", "properties": {"@source_uri": "https://tools.usps.com/UspsToolsRestServices/rest/POLocator/findLocations", "@spider": "usps_collection_boxes", "addr:city": "WIDENER", "addr:country": "US", "addr:postcode": "72394", "addr:state": "AR", "addr:street_address": "100 THIRD ST", "amenity": "post_box", "collection_times": "Mo-Fr 16:00; Sa 10:00", "note": "ON 12/24 AND 12/31, THIS BOX MAY BE COLLECTED AS EARLY AS 12 NOON.", "nsi_id": "unitedstatespostalservice-a77078", "operator": "United States Postal Service", "operator:short": "USPS", "operator:type": "public", "operator:wikidata": "Q668687", "ref": "7239400002"}, "type": "Feature"}
{"geometry": {"coordinates": [-90.6839431406, 35.0223423238], "type": "Point"}, "id": "3X9tw5RH7UmG3aVEurVAUK_Qgv4=", "properties": {"@source_uri": "https://tools.usps.com/UspsToolsRestServices/rest/POLocator/findLocations", "@spider": "usps_collection_boxes", "addr:city": "WIDENER", "addr:country": "US", "addr:postcode": "72394", "addr:state": "AR", "addr:street_address": "100 THIRD ST", "amenity": "post_box", "collection_times": "Mo-Fr 11:30; Sa 10:00", "indoor": "yes", "nsi_id": "unitedstatespostalservice-a77078", "operator": "United States Postal Service", "operator:short": "USPS", "operator:type": "public", "operator:wikidata": "Q668687", "ref": "7239400003"}, "type": "Feature"}
{"geometry": {"coordinates": [-90.6839431406, 35.0223423238], "type": "Point"}, "id": "r9XrSFQB33UxTZbOWaMyJ0xGyxw=", "properties": {"@source_uri": "https://tools.usps.com/UspsToolsRestServices/rest/POLocator/findLocations", "@spider": "usps_collection_boxes", "addr:city": "WIDENER", "addr:country": "US", "addr:postcode": "72394", "addr:state": "AR", "addr:street_address": "100 THIRD ST", "amenity": "post_box", "collection_times": "Mo-Fr 12:00; Sa 10:00", "indoor": "yes", "nsi_id": "unitedstatespostalservice-a77078", "operator": "United States Postal Service", "operator:short": "USPS", "operator:type": "public", "operator:wikidata": "Q668687", "ref": "7239400007"}, "type": "Feature"}
{"geometry": {"coordinates": [-90.041939, 35.568578], "type": "Point"}, "id": "L2oQY3gFnwcD9VS8zIbUIAq1dLk=", "properties": {"@source_uri": "https://tools.usps.com/UspsToolsRestServices/rest/POLocator/findLocations", "@spider": "usps_collection_boxes", "addr:city": "WILSON", "addr:country": "US", "addr:postcode": "72395", "addr:state": "AR", "addr:street_address": "3 PARK ST", "amenity": "post_box", "collection_times": "Mo-Fr 12:00; Sa 10:30", "indoor": "yes", "nsi_id": "unitedstatespostalservice-a77078", "operator": "United States Postal Service", "operator:short": "USPS", "operator:type": "public", "operator:wikidata": "Q668687", "ref": "7239500001"}, "type": "Feature"}
{"geometry": {"coordinates": [-90.041939, 35.568578], "type": "Point"}, "id": "FmzNbjeSailJiexiUocpkkClcSk=", "properties": {"@source_uri": "https://tools.usps.com/UspsToolsRestServices/rest/POLocator/findLocations", "@spider": "usps_collection_boxes", "addr:city": "WILSON", "addr:country": "US", "addr:postcode": "72395", "addr:state": "AR", "addr:street_address": "3 PARK ST", "amenity": "post_box", "collection_times": "Mo-Fr 12:00; Sa 10:30", "nsi_id": "unitedstatespostalservice-a77078", "operator": "United States Postal Service", "operator:short": "USPS", "operator:type": "public", "operator:wikidata": "Q668687", "ref": "7239500004"}, "type": "Feature"}
{"geometry": {"coordinates": [-90.041939, 35.568578], "type": "Point"}, "id": "r5F9Ry_AK0Tyz_nm7Ma8G13qh24=", "properties": {"@source_uri": "https://tools.usps.com/UspsToolsRestServices/rest/POLocator/findLocations", "@spider": "usps_collection_boxes", "addr:city": "WILSON", "addr:country": "US", "addr:postcode": "72395", "addr:state": "AR", "addr:street_address": "3 PARK ST", "amenity": "post_box", "collection_times": "Mo-Fr 12:00; Sa 10:30", "indoor": "yes", "nsi_id": "unitedstatespostalservice-a77078", "operator": "United States Postal Service", "operator:short": "USPS", "operator:type": "public", "operator:wikidata": "Q668687", "ref": "7239500005"}, "type": "Feature"}
{"geometry": {"coordinates": [-90.041939, 35.568578], "type": "Point"}, "id": "DLBCarSnaWKKsNYc1IQJRXjwkTE=", "properties": {"@source_uri": "https://tools.usps.com/UspsToolsRestServices/rest/POLocator/findLocations", "@spider": "usps_collection_boxes", "addr:city": "WILSON", "addr:country": "US", "addr:postcode": "72395", "addr:state": "AR", "addr:street_address": "3 PARK ST", "amenity": "post_box", "collection_times": "Mo-Fr 12:00; Sa 10:30", "indoor": "yes", "nsi_id": "unitedstatespostalservice-a77078", "operator": "United States Postal Service", "operator:short": "USPS", "operator:type": "public", "operator:wikidata": "Q668687", "ref": "7239500006"}, "type": "Feature"}
{"geometry": {"coordinates": [-90.041939, 35.568578], "type": "Point"}, "id": "EmLbUTPeKUrpChbiFBj8OlNEprI=", "properties": {"@source_uri": "https://tools.usps.com/UspsToolsRestServices/rest/POLocator/findLocations", "@spider": "usps_collection_boxes", "addr:city": "WILSON", "addr:country": "US", "addr:postcode": "72395", "addr:state": "AR", "addr:street_address": "3 PARK ST", "amenity": "post_box", "collection_times": "Mo-Fr 12:00; Sa 10:30", "indoor": "yes", "nsi_id": "unitedstatespostalservice-a77078", "operator": "United States Postal Service", "operator:short": "USPS", "operator:type": "public", "operator:wikidata": "Q668687", "ref": "7239500007"}, "type": "Feature"}
{"geometry": {"coordinates": [-90.041900453, 35.568575887], "type": "Point"}, "id": "xOnuty9C3qP9B1NT-HAZNQF74rM=", "properties": {"@source_uri": "https://tools.usps.com/UspsToolsRestServices/rest/POLocator/findLocations", "@spider": "usps_collection_boxes", "addr:city": "WILSON", "addr:country": "US", "addr:postcode": "72395", "addr:state": "AR", "addr:street_address": "3 PARK ST", "amenity": "post_box", "collection_times": "Mo-Fr 12:00; Sa 10:30", "indoor": "yes", "nsi_id": "unitedstatespostalservice-a77078", "operator": "United States Postal Service", "operator:short": "USPS", "operator:type": "public", "operator:wikidata": "Q668687", "ref": "7239500008"}, "type": "Feature"}
{"geometry": {"coordinates": [-90.786484159, 35.2223708691], "type": "Point"}, "id": "QBCnNvsD-sJb_pWhypI9oH1OTaw=", "properties": {"@source_uri": "https://tools.usps.com/UspsToolsRestServices/rest/POLocator/findLocations", "@spider": "usps_collection_boxes", "addr:city": "WYNNE", "addr:country": "US", "addr:postcode": "72396", "addr:state": "AR", "addr:street_address": "705 UNION AVE E", "amenity": "post_box", "collection_times": "Mo-Fr 15:00; Sa 12:00", "note": "ON 12/24 AND 12/31, THIS BOX MAY BE COLLECTED AS EARLY AS 12 NOON.", "nsi_id": "unitedstatespostalservice-a77078", "operator": "United States Postal Service", "operator:short": "USPS", "operator:type": "public", "operator:wikidata": "Q668687", "ref": "7239600008"}, "type": "Feature"}
{"geometry": {"coordinates": [-90.7893166555, 35.2241397021], "type": "Point"}, "id": "Zic75RQ20qUaDP9dZnjDOxHjaTs=", "properties": {"@source_uri": "https://tools.usps.com/UspsToolsRestServices/rest/POLocator/findLocations", "@spider": "usps_collection_boxes", "addr:city": "WYNNE", "addr:country": "US", "addr:postcode": "72396", "addr:state": "AR", "addr:street_address": "402 MERRIMAN AVE E", "amenity": "post_box", "collection_times": "Mo-Fr 17:00; Sa 15:00", "note": "ON 12/24 AND 12/31, THIS BOX MAY BE COLLECTED AS EARLY AS 12 NOON.", "nsi_id": "unitedstatespostalservice-a77078", "operator": "United States Postal Service", "operator:short": "USPS", "operator:type": "public", "operator:wikidata": "Q668687", "ref": "7239600009"}, "type": "Feature"}
{"geometry": {"coordinates": [-90.7893166555, 35.2241397021], "type": "Point"}, "id": "q4uvrGYUkQhswld0PNOz7zmNdWs=", "properties": {"@source_uri": "https://tools.usps.com/UspsToolsRestServices/rest/POLocator/findLocations", "@spider": "usps_collection_boxes", "addr:city": "WYNNE", "addr:country": "US", "addr:postcode": "72396", "addr:state": "AR", "addr:street_address": "402 MERRIMAN AVE E", "amenity": "post_box", "collection_times": "Mo-Fr 17:00; Sa 15:00", "indoor": "yes", "note": "ON 12/24 AND 12/31, THIS BOX MAY BE COLLECTED AS EARLY AS 12 NOON.", "nsi_id": "unitedstatespostalservice-a77078", "operator": "United States Postal Service", "operator:short": "USPS", "operator:type": "public", "operator:wikidata": "Q668687", "ref": "7239600015"}, "type": "Feature"}
{"geometry": {"coordinates": [-90.7774721043, 35.2533111559], "type": "Point"}, "id": "4_dRPggbqT0WzldAuYfSlClTQ20=", "properties": {"@source_uri": "https://tools.usps.com/UspsToolsRestServices/rest/POLocator/findLocations", "@spider": "usps_collection_boxes", "addr:city": "WYNNE", "addr:country": "US", "addr:postcode": "72396", "addr:state": "AR", "addr:street_address": "800 HIGHWAY 64 E", "amenity": "post_box", "collection_times": "Mo-Sa 10:00", "nsi_id": "unitedstatespostalservice-a77078", "operator": "United States Postal Service", "operator:short": "USPS", "operator:type": "public", "operator:wikidata": "Q668687", "ref": "7239600016"}, "type": "Feature"}
{"geometry": {"coordinates": [-90.7893166555, 35.2241397021], "type": "Point"}, "id": "UzpO_8uOicrYvWIksUeHilP-peE=", "properties": {"@source_uri": "https://tools.usps.com/UspsToolsRestServices/rest/POLocator/findLocations", "@spider": "usps_collection_boxes", "addr:city": "WYNNE", "addr:country": "US", "addr:postcode": "72396", "addr:state": "AR", "addr:street_address": "402 MERRIMAN AVE E", "amenity": "post_box", "collection_times": "Mo-Fr 16:30; Sa 12:00", "indoor": "yes", "note": "ON 12/24 AND 12/31, THIS BOX MAY BE COLLECTED AS EARLY AS 12 NOON.", "nsi_id": "unitedstatespostalservice-a77078", "operator": "United States Postal Service", "operator:short": "USPS", "operator:type": "public", "operator:wikidata": "Q668687", "ref": "7239600019"}, "type": "Feature"}
