{"geometry": {"coordinates": [-90.6777331628, 35.8293061717], "type": "Point"}, "id": "vAFT3DwnUFNxbNY7n8ApXz-CVjg=", "properties": {"@source_uri": "https://tools.usps.com/UspsToolsRestServices/rest/POLocator/findLocations", "@spider": "usps_collection_boxes", "addr:city": "JONESBORO", "addr:country": "US", "addr:postcode": "72401", "addr:state": "AR", "addr:street_address": "1311 S CARAWAY RD", "amenity": "post_box", "collection_times": "Mo-Sa 12:30", "note": "ON 12/24 AND 12/31, THIS BOX MAY BE COLLECTED AS EARLY AS 12 NOON.", "nsi_id": "unitedstatespostalservice-a77078", "operator": "United States Postal Service", "operator:short": "USPS", "operator:type": "public", "operator:wikidata": "Q668687", "ref": "7240100004"}, "type": "Feature"}
{"geometry": {"coordinates": [-90.6798080125, 35.8090188474], "type": "Point"}, "id": "xu5MnDXohItQyFxCKb1eqaF2pBg=", "properties": {"@source_uri": "https://tools.usps.com/UspsToolsRestServices/rest/POLocator/findLocations", "@spider": "usps_collection_boxes", "addr:city": "JONESBORO", "addr:country": "US", "addr:postcode": "72401", "addr:state": "AR", "addr:street_address": "2929 S CARAWAY RD", "amenity": "post_box", "collection_times": "Mo-Sa 09:30", "nsi_id": "unitedstatespostalservice-a77078", "operator": "United States Postal Service", "operator:short": "USPS", "operator:type": "public", "operator:wikidata": "Q668687", "ref": "7240100008"}, "type": "Feature"}
{"geometry": {"coordinates": [-90.7050640262, 35.8382753445], "type": "Point"}, "id": "RzDWIs2a__5PsM7pqWPf16kOFNw=", "properties": {"@source_uri": "https://tools.usps.com/UspsToolsRestServices/rest/POLocator/findLocations", "@spider": "usps_collection_boxes", "addr:city": "JONESBORO", "addr:country": "US", "addr:postcode": "72401", "addr:state": "AR", "addr:street_address": "511 S MAIN ST", "amenity": "post_box", "collection_times": "Mo-Sa 12:00", "nsi_id": "unitedstatespostalservice-a77078", "operator": "United States Postal Service", "operator:short": "USPS", "operator:type": "public", "operator:wikidata": "Q668687", "ref": "7240100022"}, "type": "Feature"}
{"geometry": {"coordinates": [-90.7132276663, 35.8148703379], "type": "Point"}, "id": "qKIOz9duyiiPs--9JVKDCwXCglQ=", "properties": {"@source_uri": "https://tools.usps.com/UspsToolsRestServices/rest/POLocator/findLocations", "@spider": "usps_collection_boxes", "addr:city": "JONESBORO", "addr:country": "US", "addr:postcode": "72401", "addr:state": "AR", "addr:street_address": "630 SOUTHWEST DR", "amenity": "post_box", "collection_times": "Mo-Sa 11:30", "nsi_id": "unitedstatespostalservice-a77078", "operator": "United States Postal Service", "operator:short": "USPS", "operator:type": "public", "operator:wikidata": "Q668687", "ref": "7240100039"}, "type": "Feature"}
{"geometry": {"coordinates": [-90.6853206226, 35.8189616286], "type": "Point"}, "id": "CGm74ZPFvxiVgQ5V42t5V5_FZwQ=", "properties": {"@source_uri": "https://tools.usps.com/UspsToolsRestServices/rest/POLocator/findLocations", "@spider": "usps_collection_boxes", "addr:city": "JONESBORO", "addr:country": "US", "addr:postcode": "72401", "addr:state": "AR", "addr:street_address": "1815 E HIGHLAND DR", "amenity": "post_box", "collection_times": "Mo-Sa 11:15", "nsi_id": "unitedstatespostalservice-a77078", "operator": "United States Postal Service", "operator:short": "USPS", "operator:type": "public", "operator:wikidata": "Q668687", "ref": "7240100043"}, "type": "Feature"}
{"geometry": {"coordinates": [-90.6935538308, 35.8353078067], "type": "Point"}, "id": "OTsD0HJa3lzoCvz3wOZjirmum8I=", "properties": {"@source_uri": "https://tools.usps.com/UspsToolsRestServices/rest/POLocator/findLocations", "@spider": "usps_collection_boxes", "addr:city": "JONESBORO", "addr:country": "US", "addr:postcode": "72401", "addr:state": "AR", "addr:street_address": "801 OSLER DR", "amenity": "post_box", "collection_times": "Mo-Fr 11:00; Sa 09:00", "nsi_id": "unitedstatespostalservice-a77078", "operator": "United States Postal Service", "operator:short": "USPS", "operator:type": "public", "operator:wikidata": "Q668687", "ref": "7240100047"}, "type": "Feature"}
{"geometry": {"coordinates": [-90.7036439659, 35.835197417], "type": "Point"}, "id": "ipghdlIaMPwT9kMrFjDKqPkrC_k=", "properties": {"@source_uri": "https://tools.usps.com/UspsToolsRestServices/rest/POLocator/findLocations", "@spider": "usps_collection_boxes", "addr:city": "JONESBORO", "addr:country": "US", "addr:postcode": "72401", "addr:state": "AR", "addr:street_address": "800 S CHURCH ST", "amenity": "post_box", "collection_times": "Mo-Fr 10:15; Sa 09:30", "nsi_id": "unitedstatespostalservice-a77078", "operator": "United States Postal Service", "operator:short": "USPS", "operator:type": "public", "operator:wikidata": "Q668687", "ref": "7240100049"}, "type": "Feature"}
{"geometry": {"coordinates": [-90.6509381099, 35.8186123478], "type": "Point"}, "id": "hzP93SkfeD1DTquoqdpVeshqMfU=", "properties": {"@source_uri": "https://tools.usps.com/UspsToolsRestServices/rest/POLocator/findLocations", "@spider": "usps_collection_boxes", "addr:city": "JONESBORO", "addr:country": "US", "addr:postcode": "72401", "addr:state": "AR", "addr:street_address": "4808 E NETTLETON AVE", "amenity": "post_box", "collection_times": "Mo-Fr 16:00", "indoor": "yes", "note": "ON 12/24 AND 12/31, THIS BOX MAY BE COLLECTED AS EARLY AS 12 NOON.", "nsi_id": "unitedstatespostalservice-a77078", "operator": "United States Postal Service", "operator:short": "USPS", "operator:type": "public", "operator:wikidata": "Q668687", "ref": "7240100059"}, "type": "Feature"}
{"geometry": {"coordinates": [-90.7221655831, 35.8327285588], "type": "Point"}, "id": "Id7SHpv2yvSlf52MDrJq_iPNXZo=", "properties": {"@source_uri": "https://tools.usps.com/UspsToolsRestServices/rest/POLocator/findLocations", "@spider": "usps_collection_boxes", "addr:city": "JONESBORO", "addr:country": "US", "addr:postcode": "72401", "addr:state": "AR", "addr:street_address": "1008 S GEE ST", "amenity": "post_box", "collection_times": "Mo-Sa 09:00", "nsi_id": "unitedstatespostalservice-a77078", "operator": "United States Postal Service", "operator:short": "USPS", "operator:type": "public", "operator:wikidata": "Q668687", "ref": "7240100086"}, "type": "Feature"}
{"geometry": {"coordinates": [-90.6695574479, 35.8274919753], "type": "Point"}, "id": "QBT2Cy3AVYv-L6mUeh7BT2TyxQg=", "properties": {"@source_uri": "https://tools.usps.com/UspsToolsRestServices/rest/POLocator/findLocations", "@spider": "usps_collection_boxes", "addr:city": "JONESBORO", "addr:country": "US", "addr:postcode": "72401", "addr:state": "AR", "addr:street_address": "2905 E NETTLETON AVE", "amenity": "post_box", "collection_times": "Mo-Sa 11:00", "nsi_id": "unitedstatespostalservice-a77078", "operator": "United States Postal Service", "operator:short": "USPS", "operator:type": "public", "operator:wikidata": "Q668687", "ref": "7240100093"}, "type": "Feature"}
{"geometry": {"coordinates": [-90.6509381099, 35.8186123478], "type": "Point"}, "id": "IUIdZWX2v3j7dNM83GYqtbevlXs=", "properties": {"@source_uri": "https://tools.usps.com/UspsToolsRestServices/rest/POLocator/findLocations", "@spider": "usps_collection_boxes", "addr:city": "JONESBORO", "addr:country": "US", "addr:postcode": "72401", "addr:state": "AR", "addr:street_address": "4808 E NETTLETON AVE", "amenity": "post_box", "collection_times": "Mo-Fr 16:00; Sa 09:00", "note": "ON 12/24 AND 12/31, THIS BOX MAY BE COLLECTED AS EARLY AS 12 NOON.", "nsi_id": "unitedstatespostalservice-a77078", "operator": "United States Postal Service", "operator:short": "USPS", "operator:type": "public", "operator:wikidata": "Q668687", "ref": "7240100099"}, "type": "Feature"}
{"geometry": {"coordinates": [-90.7025766557, 35.8390301086], "type": "Point"}, "id": "2bCdWM52Jk4E7TB2cYcKhdFptzM=", "properties": {"@source_uri": "https://tools.usps.com/UspsToolsRestServices/rest/POLocator/findLocations", "@spider": "usps_collection_boxes", "addr:city": "JONESBORO", "addr:country": "US", "addr:postcode": "72401", "addr:state": "AR", "addr:street_address": "309 E MONROE AVE", "amenity": "post_box", "collection_times": "Mo-Fr 15:00; Sa 12:00", "note": "ON 12/24 AND 12/31, THIS BOX MAY BE COLLECTED AS EARLY AS 12 NOON.", "nsi_id": "unitedstatespostalservice-a77078", "operator": "United States Postal Service", "operator:short": "USPS", "operator:type": "public", "operator:wikidata": "Q668687", "ref": "7240100116"}, "type": "Feature"}
{"geometry": {"coordinates": [-90.7025977367, 35.8399515906], "type": "Point"}, "id": "G-8ZnJS6Wq1UOdkgPdbo6SL27Wc=", "properties": {"@source_uri": "https://tools.usps.com/UspsToolsRestServices/rest/POLocator/findLocations", "@spider": "usps_collection_boxes", "addr:city": "JONESBORO", "addr:country": "US", "addr:postcode": "72401", "addr:state": "AR", "addr:street_address": "310 EAST ST", "amenity": "post_box", "collection_times": "Mo-Fr 15:00", "indoor": "yes", "note": "ON 12/24 AND 12/31, THIS BOX MAY BE COLLECTED AS EARLY AS 12 NOON.", "nsi_id": "unitedstatespostalservice-a77078", "operator": "United States Postal Service", "operator:short": "USPS", "operator:type": "public", "operator:wikidata": "Q668687", "ref": "7240100119"}, "type": "Feature"}
{"geometry": {"coordinates": [-90.6509381099, 35.8186123478], "type": "Point"}, "id": "T9N95mRNQrhzzJK_Sn_vv-jk3UA=", "properties": {"@source_uri": "https://tools.usps.com/UspsToolsRestServices/rest/POLocator/findLocations", "@spider": "usps_collection_boxes", "addr:city": "JONESBORO", "addr:country": "US", "addr:postcode": "72401", "addr:state": "AR", "addr:street_address": "4808 E NETTLETON AVE", "amenity": "post_box", "collection_times": "Mo-Fr 16:00", "indoor": "yes", "note": "ON 12/24 AND 12/31, THIS BOX MAY BE COLLECTED AS EARLY AS 12 NOON.", "nsi_id": "unitedstatespostalservice-a77078", "operator": "United States Postal Service", "operator:short": "USPS", "operator:type": "public", "operator:wikidata": "Q668687", "ref": "7240100126"}, "type": "Feature"}
{"geometry": {"coordinates": [-90.6171071858, 35.7999186571], "type": "Point"}, "id": "tug8b_hkvCUoEmZk-wGBfyqNL48=", "properties": {"@source_uri": "https://tools.usps.com/UspsToolsRestServices/rest/POLocator/findLocations", "@spider": "usps_collection_boxes", "addr:city": "JONESBORO", "addr:country": "US", "addr:postcode": "72401", "addr:state": "AR", "addr:street_address": "3405 MOORE RD", "amenity": "post_box", "collection_times": "Mo-Sa 17:00", "note": "ON 12/24 AND 12/31, THIS BOX MAY BE COLLECTED AS EARLY AS 12 NOON.", "nsi_id": "unitedstatespostalservice-a77078", "operator": "United States Postal Service", "operator:short": "USPS", "operator:type": "public", "operator:wikidata": "Q668687", "ref": "7240100128"}, "type": "Feature"}
{"geometry": {"coordinates": [-90.6758048811, 35.8140652591], "type": "Point"}, "id": "DlEaKGtw0xAr5RO4MP7cXTwRV88=", "properties": {"@source_uri": "https://tools.usps.com/UspsToolsRestServices/rest/POLocator/findLocations", "@spider": "usps_collection_boxes", "addr:city": "JONESBORO", "addr:country": "US", "addr:postcode": "72401", "addr:state": "AR", "addr:street_address": "2404 RACE ST", "amenity": "post_box", "collection_times": "Mo-Fr 17:00; Sa 12:00", "note": "ON 12/24 AND 12/31, THIS BOX MAY BE COLLECTED AS EARLY AS 12 NOON.", "nsi_id": "unitedstatespostalservice-a77078", "operator": "United States Postal Service", "operator:short": "USPS", "operator:type": "public", "operator:wikidata": "Q668687", "ref": "7240100132"}, "type": "Feature"}
{"geometry": {"coordinates": [-90.6758048811, 35.8140652591], "type": "Point"}, "id": "ijZuLQWIsPo-Fi4GykzvoDACIjw=", "properties": {"@source_uri": "https://tools.usps.com/UspsToolsRestServices/rest/POLocator/findLocations", "@spider": "usps_collection_boxes", "addr:city": "JONESBORO", "addr:country": "US", "addr:postcode": "72401", "addr:state": "AR", "addr:street_address": "2404 RACE ST", "amenity": "post_box", "collection_times": "Mo-Fr 17:00; Sa 12:00", "indoor": "yes", "note": "ON 12/24 AND 12/31, THIS BOX MAY BE COLLECTED AS EARLY AS 12 NOON.", "nsi_id": "unitedstatespostalservice-a77078", "operator": "United States Postal Service", "operator:short": "USPS", "operator:type": "public", "operator:wikidata": "Q668687", "ref": "7240100135"}, "type": "Feature"}
{"geometry": {"coordinates": [-90.6758048811, 35.8140652591], "type": "Point"}, "id": "1Cg-x6Nd4pBvyc3gWCCzor7_ZSo=", "properties": {"@source_uri": "https://tools.usps.com/UspsToolsRestServices/rest/POLocator/findLocations", "@spider": "usps_collection_boxes", "addr:city": "JONESBORO", "addr:country": "US", "addr:postcode": "72401", "addr:state": "AR", "addr:street_address": "2404 RACE ST", "amenity": "post_box", "collection_times": "Mo-Fr 17:00; Sa 12:00", "indoor": "yes", "note": "ON 12/24 AND 12/31, THIS BOX MAY BE COLLECTED AS EARLY AS 12 NOON.", "nsi_id": "unitedstatespostalservice-a77078", "operator": "United States Postal Service", "operator:short": "USPS", "operator:type": "public", "operator:wikidata": "Q668687", "ref": "7240100139"}, "type": "Feature"}
{"geometry": {"coordinates": [-90.7052180035, 35.8373646838], "type": "Point"}, "id": "8u1lGYT7QfQ2BO8KthSBQIfp-sQ=", "properties": {"@source_uri": "https://tools.usps.com/UspsToolsRestServices/rest/POLocator/findLocations", "@spider": "usps_collection_boxes", "addr:city": "JONESBORO", "addr:country": "US", "addr:postcode": "72401", "addr:state": "AR", "addr:street_address": "615 S MAIN ST", "amenity": "post_box", "collection_times": "Mo-Sa 12:00", "nsi_id": "unitedstatespostalservice-a77078", "operator": "United States Postal Service", "operator:short": "USPS", "operator:type": "public", "operator:wikidata": "Q668687", "ref": "7240100141"}, "type": "Feature"}
{"geometry": {"coordinates": [-90.6758048811, 35.8140652591], "type": "Point"}, "id": "h7K1L8ixZpjNE3snBGq7pKftIMY=", "properties": {"@source_uri": "https://tools.usps.com/UspsToolsRestServices/rest/POLocator/findLocations", "@spider": "usps_collection_boxes", "addr:city": "JONESBORO", "addr:country": "US", "addr:postcode": "72401", "addr:state": "AR", "addr:street_address": "2404 RACE ST", "amenity": "post_box", "collection_times": "Mo-Fr 17:00; Sa 12:00", "name": "USPS COLLECTION BOX - APC", "note": "ON 12/24 AND 12/31, THIS BOX MAY BE COLLECTED AS EARLY AS 12 NOON.", "nsi_id": "unitedstatespostalservice-a77078", "operator": "United States Postal Service", "operator:short": "USPS", "operator:type": "public", "operator:wikidata": "Q668687", "ref": "7240100146"}, "type": "Feature"}
{"geometry": {"coordinates": [-90.7279403371, 35.8151205377], "type": "Point"}, "id": "PnLDQO8ipxvADstCwetTI5kXp9U=", "properties": {"@source_uri": "https://tools.usps.com/UspsToolsRestServices/rest/POLocator/findLocations", "@spider": "usps_collection_boxes", "addr:city": "JONESBORO", "addr:country": "US", "addr:postcode": "72401", "addr:state": "AR", "addr:street_address": "2504 ALEXANDER DR", "amenity": "post_box", "collection_times": "Mo-Sa 13:00", "note": "ON 12/24 AND 12/31, THIS BOX MAY BE COLLECTED AS EARLY AS 12 NOON.", "nsi_id": "unitedstatespostalservice-a77078", "operator": "United States Postal Service", "operator:short": "USPS", "operator:type": "public", "operator:wikidata": "Q668687", "ref": "7240100147"}, "type": "Feature"}
{"geometry": {"coordinates": [-90.6758048811, 35.8140652591], "type": "Point"}, "id": "oAAORlxyMzmG6vR50gluSqdaKQ0=", "properties": {"@source_uri": "https://tools.usps.com/UspsToolsRestServices/rest/POLocator/findLocations", "@spider": "usps_collection_boxes", "addr:city": "JONESBORO", "addr:country": "US", "addr:postcode": "72401", "addr:state": "AR", "addr:street_address": "2404 RACE ST", "amenity": "post_box", "collection_times": "Mo-Fr 17:00; Sa 12:00", "indoor": "yes", "note": "ON 12/24 AND 12/31, THIS BOX MAY BE COLLECTED AS EARLY AS 12 NOON.", "nsi_id": "unitedstatespostalservice-a77078", "operator": "United States Postal Service", "operator:short": "USPS", "operator:type": "public", "operator:wikidata": "Q668687", "ref": "7240100154"}, "type": "Feature"}
{"geometry": {"coordinates": [-90.6509381099, 35.8186123478], "type": "Point"}, "id": "acSueoRKrqt9jE4LvH1DqLWxrAM=", "properties": {"@source_uri": "https://tools.usps.com/UspsToolsRestServices/rest/POLocator/findLocations", "@spider": "usps_collection_boxes", "addr:city": "JONESBORO", "addr:country": "US", "addr:postcode": "72401", "addr:state": "AR", "addr:street_address": "4808 E NETTLETON AVE", "amenity": "post_box", "collection_times": "Mo-Fr 16:00", "indoor": "yes", "note": "ON 12/24 AND 12/31, THIS BOX MAY BE COLLECTED AS EARLY AS 12 NOON.", "nsi_id": "unitedstatespostalservice-a77078", "operator": "United States Postal Service", "operator:short": "USPS", "operator:type": "public", "operator:wikidata": "Q668687", "ref": "7240100155"}, "type": "Feature"}
{"geometry": {"coordinates": [-90.7339158797, 35.8160089356], "type": "Point"}, "id": "n3lH4LVrkNSMAm3n8THAX5CGF0Q=", "properties": {"@source_uri": "https://tools.usps.com/UspsToolsRestServices/rest/POLocator/findLocations", "@spider": "usps_collection_boxes", "addr:city": "JONESBORO", "addr:country": "US", "addr:postcode": "72404", "addr:state": "AR", "addr:street_address": "1911 W PARKER RD", "amenity": "post_box", "collection_times": "Mo-Sa 12:00", "nsi_id": "unitedstatespostalservice-a77078", "operator": "United States Postal Service", "operator:short": "USPS", "operator:type": "public", "operator:wikidata": "Q668687", "ref": "7240400009"}, "type": "Feature"}
{"geometry": {"coordinates": [-90.7517806127, 35.7778926865], "type": "Point"}, "id": "QI6rY8mQTMKE5uJ4MIBZ1HRATnw=", "properties": {"@source_uri": "https://tools.usps.com/UspsToolsRestServices/rest/POLocator/findLocations", "@spider": "usps_collection_boxes", "addr:city": "JONESBORO", "addr:country": "US", "addr:postcode": "72404", "addr:state": "AR", "addr:street_address": "5510 SOUTHWEST DR", "amenity": "post_box", "collection_times": "Mo-Sa 10:00", "nsi_id": "unitedstatespostalservice-a77078", "operator": "United States Postal Service", "operator:short": "USPS", "operator:type": "public", "operator:wikidata": "Q668687", "ref": "7240400010"}, "type": "Feature"}
{"geometry": {"coordinates": [-90.6710838762, 35.7897523305], "type": "Point"}, "id": "zvkaCvhYuY-TlzCMObNqFleifJs=", "properties": {"@source_uri": "https://tools.usps.com/UspsToolsRestServices/rest/POLocator/findLocations", "@spider": "usps_collection_boxes", "addr:city": "JONESBORO", "addr:country": "US", "addr:postcode": "72404", "addr:state": "AR", "addr:street_address": "4225 STADIUM BLVD", "amenity": "post_box", "collection_times": "Mo-Sa 11:00", "nsi_id": "unitedstatespostalservice-a77078", "operator": "United States Postal Service", "operator:short": "USPS", "operator:type": "public", "operator:wikidata": "Q668687", "ref": "7240400012"}, "type": "Feature"}
{"geometry": {"coordinates": [-90.6363186755, 35.8664024043], "type": "Point"}, "id": "u0QVcddbBxrh681wD9OpxjIz7fk=", "properties": {"@source_uri": "https://tools.usps.com/UspsToolsRestServices/rest/POLocator/findLocations", "@spider": "usps_collection_boxes", "addr:city": "JONESBORO", "addr:country": "US", "addr:postcode": "72405", "addr:state": "AR", "addr:street_address": "4800 E JOHNSON AVE", "amenity": "post_box", "collection_times": "Mo-Sa 10:00", "nsi_id": "unitedstatespostalservice-a77078", "operator": "United States Postal Service", "operator:short": "USPS", "operator:type": "public", "operator:wikidata": "Q668687", "ref": "7240500001"}, "type": "Feature"}
{"geometry": {"coordinates": [-90.5637711168, 35.7442433422], "type": "Point"}, "id": "HuuHcbrXFhqTT18aN96ApwYjhaA=", "properties": {"@source_uri": "https://tools.usps.com/UspsToolsRestServices/rest/POLocator/findLocations", "@spider": "usps_collection_boxes", "addr:city": "BAY", "addr:country": "US", "addr:postcode": "72411", "addr:state": "AR", "addr:street_address": "410 N MAIN ST", "amenity": "post_box", "collection_times": "Mo-Fr 14:00; Sa 09:15", "note": "ON 12/24 AND 12/31, THIS BOX MAY BE COLLECTED AS EARLY AS 12 NOON.", "nsi_id": "unitedstatespostalservice-a77078", "operator": "United States Postal Service", "operator:short": "USPS", "operator:type": "public", "operator:wikidata": "Q668687", "ref": "7241100001"}, "type": "Feature"}
{"geometry": {"coordinates": [-90.5637711168, 35.7442433422], "type": "Point"}, "id": "BrJo2LVX5vz_cqTZXc2Ni207hb4=", "properties": {"@source_uri": "https://tools.usps.com/UspsToolsRestServices/rest/POLocator/findLocations", "@spider": "usps_collection_boxes", "addr:city": "BAY", "addr:country": "US", "addr:postcode": "72411", "addr:state": "AR", "addr:street_address": "410 N MAIN ST", "amenity": "post_box", "collection_times": "Mo-Fr 14:00; Sa 08:45", "indoor": "yes", "note": "ON 12/24 AND 12/31, THIS BOX MAY BE COLLECTED AS EARLY AS 12 NOON.", "nsi_id": "unitedstatespostalservice-a77078", "operator": "United States Postal Service", "operator:short": "USPS", "operator:type": "public", "operator:wikidata": "Q668687", "ref": "7241100002"}, "type": "Feature"}
{"geometry": {"coordinates": [-90.5637711168, 35.7442433422], "type": "Point"}, "id": "HgGuXaAxpR3tjeN1e5_Wg0L2sYw=", "properties": {"@source_uri": "https://tools.usps.com/UspsToolsRestServices/rest/POLocator/findLocations", "@spider": "usps_collection_boxes", "addr:city": "BAY", "addr:country": "US", "addr:postcode": "72411", "addr:state": "AR", "addr:street_address": "410 N MAIN ST", "amenity": "post_box", "collection_times": "Mo-Fr 14:30; Sa 09:00", "indoor": "yes", "note": "ON 12/24 AND 12/31, THIS BOX MAY BE COLLECTED AS EARLY AS 12 NOON.", "nsi_id": "unitedstatespostalservice-a77078", "operator": "United States Postal Service", "operator:short": "USPS", "operator:type": "public", "operator:wikidata": "Q668687", "ref": "7241100005"}, "type": "Feature"}
{"geometry": {"coordinates": [-90.618381426, 36.1738548426], "type": "Point"}, "id": "tAFEDmzFUjBCPkwpNUiBxJxRzoo=", "properties": {"@source_uri": "https://tools.usps.com/UspsToolsRestServices/rest/POLocator/findLocations", "@spider": "usps_collection_boxes", "addr:city": "BEECH GROVE", "addr:country": "US", "addr:postcode": "72412", "addr:state": "AR", "addr:street_address": "9034 HIGHWAY 141 N", "amenity": "post_box", "collection_times": "Mo-Fr 09:30; Sa 08:30", "nsi_id": "unitedstatespostalservice-a77078", "operator": "United States Postal Service", "operator:short": "USPS", "operator:type": "public", "operator:wikidata": "Q668687", "ref": "7241200000"}, "type": "Feature"}
{"geometry": {"coordinates": [-90.618381426, 36.1738548426], "type": "Point"}, "id": "_WmC3u_FGS9ShVUQ1xq4IKsbZyw=", "properties": {"@source_uri": "https://tools.usps.com/UspsToolsRestServices/rest/POLocator/findLocations", "@spider": "usps_collection_boxes", "addr:city": "BEECH GROVE", "addr:country": "US", "addr:postcode": "72412", "addr:state": "AR", "addr:street_address": "9034 HIGHWAY 141 N", "amenity": "post_box", "collection_times": "Mo-Fr 09:30; Sa 08:30", "indoor": "yes", "nsi_id": "unitedstatespostalservice-a77078", "operator": "United States Postal Service", "operator:short": "USPS", "operator:type": "public", "operator:wikidata": "Q668687", "ref": "7241200001"}, "type": "Feature"}
{"geometry": {"coordinates": [-90.618381426, 36.1738548426], "type": "Point"}, "id": "1DhkgFmK1xzNK_Bg6SXjbFAb7yM=", "properties": {"@source_uri": "https://tools.usps.com/UspsToolsRestServices/rest/POLocator/findLocations", "@spider": "usps_collection_boxes", "addr:city": "BEECH GROVE", "addr:country": "US", "addr:postcode": "72412", "addr:state": "AR", "addr:street_address": "9034 HIGHWAY 141 N", "amenity": "post_box", "collection_times": "Mo-Fr 09:30; Sa 08:30", "indoor": "yes", "nsi_id": "unitedstatespostalservice-a77078", "operator": "United States Postal Service", "operator:short": "USPS", "operator:type": "public", "operator:wikidata": "Q668687", "ref": "7241200003"}, "type": "Feature"}
{"geometry": {"coordinates": [-90.8060790369, 36.3323851751], "type": "Point"}, "id": "9dex7gJ3Pj009x7dn3bw-GNAEok=", "properties": {"@source_uri": "https://tools.usps.com/UspsToolsRestServices/rest/POLocator/findLocations", "@spider": "usps_collection_boxes", "addr:city": "BIGGERS", "addr:country": "US", "addr:postcode": "72413", "addr:state": "AR", "addr:street_address": "3309 BIGGERS REYNO RD", "amenity": "post_box", "collection_times": "Mo-Fr 11:00; Sa 10:00", "indoor": "yes", "nsi_id": "unitedstatespostalservice-a77078", "operator": "United States Postal Service", "operator:short": "USPS", "operator:type": "public", "operator:wikidata": "Q668687", "ref": "7241300002"}, "type": "Feature"}
{"geometry": {"coordinates": [-90.8060790369, 36.3323851751], "type": "Point"}, "id": "X9Wovmn6mY-hjdo-y7xZOoOdY2k=", "properties": {"@source_uri": "https://tools.usps.com/UspsToolsRestServices/rest/POLocator/findLocations", "@spider": "usps_collection_boxes", "addr:city": "BIGGERS", "addr:country": "US", "addr:postcode": "72413", "addr:state": "AR", "addr:street_address": "3309 BIGGERS REYNO RD", "amenity": "post_box", "collection_times": "Mo-Fr 11:00; Sa 10:00", "indoor": "yes", "nsi_id": "unitedstatespostalservice-a77078", "operator": "United States Postal Service", "operator:short": "USPS", "operator:type": "public", "operator:wikidata": "Q668687", "ref": "7241300003"}, "type": "Feature"}
{"geometry": {"coordinates": [-90.8060790369, 36.3323851751], "type": "Point"}, "id": "sme-k9xBwafXklC2QYqZvkcwg_0=", "properties": {"@source_uri": "https://tools.usps.com/UspsToolsRestServices/rest/POLocator/findLocations", "@spider": "usps_collection_boxes", "addr:city": "BIGGERS", "addr:country": "US", "addr:postcode": "72413", "addr:state": "AR", "addr:street_address": "3309 BIGGERS REYNO RD", "amenity": "post_box", "collection_times": "Mo-Fr 11:30; Sa 09:45", "indoor": "yes", "nsi_id": "unitedstatespostalservice-a77078", "operator": "United States Postal Service", "operator:short": "USPS", "operator:type": "public", "operator:wikidata": "Q668687", "ref": "7241300004"}, "type": "Feature"}
{"geometry": {"coordinates": [-90.3683733709, 35.8356094294], "type": "Point"}, "id": "9zBIZBmNuifgVyfctDWM6p7-c0I=", "properties": {"@source_uri": "https://tools.usps.com/UspsToolsRestServices/rest/POLocator/findLocations", "@spider": "usps_collection_boxes", "addr:city": "BLACK OAK", "addr:country": "US", "addr:postcode": "72414", "addr:state": "AR", "addr:street_address": "200 S MAIN ST", "amenity": "post_box", "collection_times": "Mo-Fr 10:30; Sa 10:00", "nsi_id": "unitedstatespostalservice-a77078", "operator": "United States Postal Service", "operator:short": "USPS", "operator:type": "public", "operator:wikidata": "Q668687", "ref": "7241400001"}, "type": "Feature"}
{"geometry": {"coordinates": [-90.3683733709, 35.8356094294], "type": "Point"}, "id": "KoJ59R02saklvZcCzwXKE4bif-Y=", "properties": {"@source_uri": "https://tools.usps.com/UspsToolsRestServices/rest/POLocator/findLocations", "@spider": "usps_collection_boxes", "addr:city": "BLACK OAK", "addr:country": "US", "addr:postcode": "72414", "addr:state": "AR", "addr:street_address": "200 S MAIN ST", "amenity": "post_box", "collection_times": "Mo-Fr 10:30; Sa 10:00", "indoor": "yes", "nsi_id": "unitedstatespostalservice-a77078", "operator": "United States Postal Service", "operator:short": "USPS", "operator:type": "public", "operator:wikidata": "Q668687", "ref": "7241400002"}, "type": "Feature"}
{"geometry": {"coordinates": [-90.3683733709, 35.8356094294], "type": "Point"}, "id": "YwimT5eYK60iT791TFHW9Km68gc=", "properties": {"@source_uri": "https://tools.usps.com/UspsToolsRestServices/rest/POLocator/findLocations", "@spider": "usps_collection_boxes", "addr:city": "BLACK OAK", "addr:country": "US", "addr:postcode": "72414", "addr:state": "AR", "addr:street_address": "200 S MAIN ST", "amenity": "post_box", "collection_times": "Mo-Fr 11:00; Sa 10:00", "indoor": "yes", "nsi_id": "unitedstatespostalservice-a77078", "operator": "United States Postal Service", "operator:short": "USPS", "operator:type": "public", "operator:wikidata": "Q668687", "ref": "7241400003"}, "type": "Feature"}
{"geometry": {"coordinates": [-91.1127782385, 36.1084386176], "type": "Point"}, "id": "pMyoCYsjg4I5FRRoobF6DeEwid4=", "properties": {"@source_uri": "https://tools.usps.com/UspsToolsRestServices/rest/POLocator/findLocations", "@spider": "usps_collection_boxes", "addr:city": "BLACK ROCK", "addr:country": "US", "addr:postcode": "72415", "addr:state": "AR", "addr:street_address": "1326 ELM ST", "amenity": "post_box", "collection_times": "Mo-Fr 16:30; Sa 10:30", "note": "ON 12/24 AND 12/31, THIS BOX MAY BE COLLECTED AS EARLY AS 12 NOON.", "nsi_id": "unitedstatespostalservice-a77078", "operator": "United States Postal Service", "operator:short": "USPS", "operator:type": "public", "operator:wikidata": "Q668687", "ref": "7241500001"}, "type": "Feature"}
{"geometry": {"coordinates": [-91.1127782385, 36.1084386176], "type": "Point"}, "id": "jLxMja7v2vtu85J-qV7kY6Eejv4=", "properties": {"@source_uri": "https://tools.usps.com/UspsToolsRestServices/rest/POLocator/findLocations", "@spider": "usps_collection_boxes", "addr:city": "BLACK ROCK", "addr:country": "US", "addr:postcode": "72415", "addr:state": "AR", "addr:street_address": "1326 ELM ST", "amenity": "post_box", "collection_times": "Mo-Fr 14:30; Sa 10:30", "indoor": "yes", "note": "ON 12/24 AND 12/31, THIS BOX MAY BE COLLECTED AS EARLY AS 12 NOON.", "nsi_id": "unitedstatespostalservice-a77078", "operator": "United States Postal Service", "operator:short": "USPS", "operator:type": "public", "operator:wikidata": "Q668687", "ref": "7241500002"}, "type": "Feature"}
{"geometry": {"coordinates": [-91.1127782385, 36.1084386176], "type": "Point"}, "id": "OL_dWhcPdfnGxMMKlpuccc14st4=", "properties": {"@source_uri": "https://tools.usps.com/UspsToolsRestServices/rest/POLocator/findLocations", "@spider": "usps_collection_boxes", "addr:city": "BLACK ROCK", "addr:country": "US", "addr:postcode": "72415", "addr:state": "AR", "addr:street_address": "1326 ELM ST", "amenity": "post_box", "collection_times": "Mo-Fr 14:15; Sa 10:30", "indoor": "yes", "note": "ON 12/24 AND 12/31, THIS BOX MAY BE COLLECTED AS EARLY AS 12 NOON.", "nsi_id": "unitedstatespostalservice-a77078", "operator": "United States Postal Service", "operator:short": "USPS", "operator:type": "public", "operator:wikidata": "Q668687", "ref": "7241500011"}, "type": "Feature"}
{"geometry": {"coordinates": [-90.8027943367, 35.9103745808], "type": "Point"}, "id": "vlzTE6zIIbLOLtGrE2ARaLb1jxM=", "properties": {"@source_uri": "https://tools.usps.com/UspsToolsRestServices/rest/POLocator/findLocations", "@spider": "usps_collection_boxes", "addr:city": "BONO", "addr:country": "US", "addr:postcode": "72416", "addr:state": "AR", "addr:street_address": "306 HIGHWAY 63 N", "amenity": "post_box", "collection_times": "Mo-Fr 14:20; Sa 10:30", "note": "ON 12/24 AND 12/31, THIS BOX MAY BE COLLECTED AS EARLY AS 12 NOON.", "nsi_id": "unitedstatespostalservice-a77078", "operator": "United States Postal Service", "operator:short": "USPS", "operator:type": "public", "operator:wikidata": "Q668687", "ref": "7241600002"}, "type": "Feature"}
{"geometry": {"coordinates": [-90.8027943367, 35.9103745808], "type": "Point"}, "id": "fBrECsCF6i4sC0zIHa9ZpSEB5lU=", "properties": {"@source_uri": "https://tools.usps.com/UspsToolsRestServices/rest/POLocator/findLocations", "@spider": "usps_collection_boxes", "addr:city": "BONO", "addr:country": "US", "addr:postcode": "72416", "addr:state": "AR", "addr:street_address": "306 HIGHWAY 63 N", "amenity": "post_box", "collection_times": "Mo-Fr 14:00; Sa 10:30", "indoor": "yes", "note": "ON 12/24 AND 12/31, THIS BOX MAY BE COLLECTED AS EARLY AS 12 NOON.", "nsi_id": "unitedstatespostalservice-a77078", "operator": "United States Postal Service", "operator:short": "USPS", "operator:type": "public", "operator:wikidata": "Q668687", "ref": "7241600003"}, "type": "Feature"}
{"geometry": {"coordinates": [-90.8027943367, 35.9103745808], "type": "Point"}, "id": "Ttbp_zEsAd699xIwdkXsMLCRtgU=", "properties": {"@source_uri": "https://tools.usps.com/UspsToolsRestServices/rest/POLocator/findLocations", "@spider": "usps_collection_boxes", "addr:city": "BONO", "addr:country": "US", "addr:postcode": "72416", "addr:state": "AR", "addr:street_address": "306 HIGHWAY 63 N", "amenity": "post_box", "collection_times": "Mo-Fr 14:30; Sa 10:30", "indoor": "yes", "note": "ON 12/24 AND 12/31, THIS BOX MAY BE COLLECTED AS EARLY AS 12 NOON.", "nsi_id": "unitedstatespostalservice-a77078", "operator": "United States Postal Service", "operator:short": "USPS", "operator:type": "public", "operator:wikidata": "Q668687", "ref": "7241600005"}, "type": "Feature"}
{"geometry": {"coordinates": [-90.5823696454, 35.9001248963], "type": "Point"}, "id": "gL109tyrke2Wbiit3Ew6bCPy1HA=", "properties": {"@source_uri": "https://tools.usps.com/UspsToolsRestServices/rest/POLocator/findLocations", "@spider": "usps_collection_boxes", "addr:city": "BROOKLAND", "addr:country": "US", "addr:postcode": "72417", "addr:state": "AR", "addr:street_address": "100 W HINKLEY ST", "amenity": "post_box", "collection_times": "Mo-Fr 15:45; Sa 09:45", "note": "ON 12/24 AND 12/31, THIS BOX MAY BE COLLECTED AS EARLY AS 12 NOON.", "nsi_id": "unitedstatespostalservice-a77078", "operator": "United States Postal Service", "operator:short": "USPS", "operator:type": "public", "operator:wikidata": "Q668687", "ref": "7241700001"}, "type": "Feature"}
{"geometry": {"coordinates": [-90.5823696454, 35.9001248963], "type": "Point"}, "id": "KZxI4sIdI1Q8QlHZXzSBKRgG0I0=", "properties": {"@source_uri": "https://tools.usps.com/UspsToolsRestServices/rest/POLocator/findLocations", "@spider": "usps_collection_boxes", "addr:city": "BROOKLAND", "addr:country": "US", "addr:postcode": "72417", "addr:state": "AR", "addr:street_address": "100 W HINKLEY ST", "amenity": "post_box", "collection_times": "Mo-Fr 16:00; Sa 10:00", "indoor": "yes", "note": "ON 12/24 AND 12/31, THIS BOX MAY BE COLLECTED AS EARLY AS 12 NOON.", "nsi_id": "unitedstatespostalservice-a77078", "operator": "United States Postal Service", "operator:short": "USPS", "operator:type": "public", "operator:wikidata": "Q668687", "ref": "7241700003"}, "type": "Feature"}
{"geometry": {"coordinates": [-90.5823696454, 35.9001248963], "type": "Point"}, "id": "Pact6LIUMwrkbVQgCV4bGTV0WVU=", "properties": {"@source_uri": "https://tools.usps.com/UspsToolsRestServices/rest/POLocator/findLocations", "@spider": "usps_collection_boxes", "addr:city": "BROOKLAND", "addr:country": "US", "addr:postcode": "72417", "addr:state": "AR", "addr:street_address": "100 W HINKLEY ST", "amenity": "post_box", "collection_times": "Mo-Fr 16:00; Sa 10:00", "indoor": "yes", "note": "ON 12/24 AND 12/31, THIS BOX MAY BE COLLECTED AS EARLY AS 12 NOON.", "nsi_id": "unitedstatespostalservice-a77078", "operator": "United States Postal Service", "operator:short": "USPS", "operator:type": "public", "operator:wikidata": "Q668687", "ref": "7241700004"}, "type": "Feature"}
{"geometry": {"coordinates": [-90.5823696454, 35.9001248963], "type": "Point"}, "id": "TE3aud8JhGI2vjYvjcYlkxxcK8E=", "properties": {"@source_uri": "https://tools.usps.com/UspsToolsRestServices/rest/POLocator/findLocations", "@spider": "usps_collection_boxes", "addr:city": "BROOKLAND", "addr:country": "US", "addr:postcode": "72417", "addr:state": "AR", "addr:street_address": "100 W HINKLEY ST", "amenity": "post_box", "collection_times": "Mo-Fr 16:00", "indoor": "yes", "note": "ON 12/24 AND 12/31, THIS BOX MAY BE COLLECTED AS EARLY AS 12 NOON.", "nsi_id": "unitedstatespostalservice-a77078", "operator": "United States Postal Service", "operator:short": "USPS", "operator:type": "public", "operator:wikidata": "Q668687", "ref": "7241700005"}, "type": "Feature"}
{"geometry": {"coordinates": [-90.321227261, 35.761038822], "type": "Point"}, "id": "nITo-F93hoprSNEPtHtaomXEAGA=", "properties": {"@source_uri": "https://tools.usps.com/UspsToolsRestServices/rest/POLocator/findLocations", "@spider": "usps_collection_boxes", "addr:city": "CARAWAY", "addr:country": "US", "addr:postcode": "72419", "addr:state": "AR", "addr:street_address": "201 E KENTUCKY ST", "amenity": "post_box", "collection_times": "Mo-Fr 15:00; Sa 10:30", "note": "ON 12/24 AND 12/31, THIS BOX MAY BE COLLECTED AS EARLY AS 12 NOON.", "nsi_id": "unitedstatespostalservice-a77078", "operator": "United States Postal Service", "operator:short": "USPS", "operator:type": "public", "operator:wikidata": "Q668687", "ref": "7241900001"}, "type": "Feature"}
{"geometry": {"coordinates": [-90.321227261, 35.761038822], "type": "Point"}, "id": "G2U_llrCK9ud19XbLIb1hz6u5U4=", "properties": {"@source_uri": "https://tools.usps.com/UspsToolsRestServices/rest/POLocator/findLocations", "@spider": "usps_collection_boxes", "addr:city": "CARAWAY", "addr:country": "US", "addr:postcode": "72419", "addr:state": "AR", "addr:street_address": "201 E KENTUCKY ST", "amenity": "post_box", "collection_times": "Mo-Fr 15:00; Sa 10:30", "indoor": "yes", "note": "ON 12/24 AND 12/31, THIS BOX MAY BE COLLECTED AS EARLY AS 12 NOON.", "nsi_id": "unitedstatespostalservice-a77078", "operator": "United States Postal Service", "operator:short": "USPS", "operator:type": "public", "operator:wikidata": "Q668687", "ref": "7241900002"}, "type": "Feature"}
{"geometry": {"coordinates": [-90.321227261, 35.761038822], "type": "Point"}, "id": "uPdqlSbinga7WH1pVPSnc-OA9og=", "properties": {"@source_uri": "https://tools.usps.com/UspsToolsRestServices/rest/POLocator/findLocations", "@spider": "usps_collection_boxes", "addr:city": "CARAWAY", "addr:country": "US", "addr:postcode": "72419", "addr:state": "AR", "addr:street_address": "201 E KENTUCKY ST", "amenity": "post_box", "collection_times": "Mo-Fr 15:00; Sa 10:30", "indoor": "yes", "note": "ON 12/24 AND 12/31, THIS BOX MAY BE COLLECTED AS EARLY AS 12 NOON.", "nsi_id": "unitedstatespostalservice-a77078", "operator": "United States Postal Service", "operator:short": "USPS", "operator:type": "public", "operator:wikidata": "Q668687", "ref": "7241900003"}, "type": "Feature"}
{"geometry": {"coordinates": [-90.321227261, 35.761038822], "type": "Point"}, "id": "QbD94txmH1vvmfvA9pp-GTHMDRE=", "properties": {"@source_uri": "https://tools.usps.com/UspsToolsRestServices/rest/POLocator/findLocations", "@spider": "usps_collection_boxes", "addr:city": "CARAWAY", "addr:country": "US", "addr:postcode": "72419", "addr:state": "AR", "addr:street_address": "201 E KENTUCKY ST", "amenity": "post_box", "collection_times": "Mo-Fr 15:00; Sa 10:30", "indoor": "yes", "note": "ON 12/24 AND 12/31, THIS BOX MAY BE COLLECTED AS EARLY AS 12 NOON.", "nsi_id": "unitedstatespostalservice-a77078", "operator": "United States Postal Service", "operator:short": "USPS", "operator:type": "public", "operator:wikidata": "Q668687", "ref": "7241900005"}, "type": "Feature"}
{"geometry": {"coordinates": [-90.9366205572, 35.794723763], "type": "Point"}, "id": "0HZKtE8gF1Zs0STl0c-qHYV15VY=", "properties": {"@source_uri": "https://tools.usps.com/UspsToolsRestServices/rest/POLocator/findLocations", "@spider": "usps_collection_boxes", "addr:city": "CASH", "addr:country": "US", "addr:postcode": "72421", "addr:state": "AR", "addr:street_address": "4598 HIGHWAY 18", "amenity": "post_box", "collection_times": "Mo-Fr 11:00; Sa 08:30", "nsi_id": "unitedstatespostalservice-a77078", "operator": "United States Postal Service", "operator:short": "USPS", "operator:type": "public", "operator:wikidata": "Q668687", "ref": "7242100001"}, "type": "Feature"}
{"geometry": {"coordinates": [-90.9366205572, 35.794723763], "type": "Point"}, "id": "ahPwXh3hkAUHdnD83UzWjjfSMrk=", "properties": {"@source_uri": "https://tools.usps.com/UspsToolsRestServices/rest/POLocator/findLocations", "@spider": "usps_collection_boxes", "addr:city": "CASH", "addr:country": "US", "addr:postcode": "72421", "addr:state": "AR", "addr:street_address": "4598 HIGHWAY 18", "amenity": "post_box", "collection_times": "Mo-Fr 11:00; Sa 08:30", "indoor": "yes", "nsi_id": "unitedstatespostalservice-a77078", "operator": "United States Postal Service", "operator:short": "USPS", "operator:type": "public", "operator:wikidata": "Q668687", "ref": "7242100002"}, "type": "Feature"}
{"geometry": {"coordinates": [-90.9366205572, 35.794723763], "type": "Point"}, "id": "nQHN_7TLyn9phXJe2o4Lrar_Us4=", "properties": {"@source_uri": "https://tools.usps.com/UspsToolsRestServices/rest/POLocator/findLocations", "@spider": "usps_collection_boxes", "addr:city": "CASH", "addr:country": "US", "addr:postcode": "72421", "addr:state": "AR", "addr:street_address": "4598 HIGHWAY 18", "amenity": "post_box", "collection_times": "Mo-Fr 11:00; Sa 08:30", "indoor": "yes", "nsi_id": "unitedstatespostalservice-a77078", "operator": "United States Postal Service", "operator:short": "USPS", "operator:type": "public", "operator:wikidata": "Q668687", "ref": "7242100003"}, "type": "Feature"}
{"geometry": {"coordinates": [-90.9366205572, 35.794723763], "type": "Point"}, "id": "AV_Dcyh5yJ4chk9Z2yyOFXsT0K8=", "properties": {"@source_uri": "https://tools.usps.com/UspsToolsRestServices/rest/POLocator/findLocations", "@spider": "usps_collection_boxes", "addr:city": "CASH", "addr:country": "US", "addr:postcode": "72421", "addr:state": "AR", "addr:street_address": "4598 HIGHWAY 18", "amenity": "post_box", "collection_times": "Mo-Fr 11:30; Sa 08:30", "indoor": "yes", "nsi_id": "unitedstatespostalservice-a77078", "operator": "United States Postal Service", "operator:short": "USPS", "operator:type": "public", "operator:wikidata": "Q668687", "ref": "7242100004"}, "type": "Feature"}
{"geometry": {"coordinates": [-90.5819254898, 36.4179815492], "type": "Point"}, "id": "s5AEzg9pbpOl_9U9i1n1Z6qILNY=", "properties": {"@source_uri": "https://tools.usps.com/UspsToolsRestServices/rest/POLocator/findLocations", "@spider": "usps_collection_boxes", "addr:city": "CORNING", "addr:country": "US", "addr:postcode": "72422", "addr:state": "AR", "addr:street_address": "700 BOBCAT LN", "amenity": "post_box", "collection_times": "Mo-Fr 16:15; Sa 08:45", "indoor": "yes", "note": "ON 12/24 AND 12/31, THIS BOX MAY BE COLLECTED AS EARLY AS 12 NOON.", "nsi_id": "unitedstatespostalservice-a77078", "operator": "United States Postal Service", "operator:short": "USPS", "operator:type": "public", "operator:wikidata": "Q668687", "ref": "7242200004"}, "type": "Feature"}
{"geometry": {"coordinates": [-90.5819254898, 36.4179815492], "type": "Point"}, "id": "pHm0I4pQO0cuw98F8O9pZC83y_A=", "properties": {"@source_uri": "https://tools.usps.com/UspsToolsRestServices/rest/POLocator/findLocations", "@spider": "usps_collection_boxes", "addr:city": "CORNING", "addr:country": "US", "addr:postcode": "72422", "addr:state": "AR", "addr:street_address": "700 BOBCAT LN", "amenity": "post_box", "collection_times": "Mo-Fr 16:15; Sa 08:45", "indoor": "yes", "note": "ON 12/24 AND 12/31, THIS BOX MAY BE COLLECTED AS EARLY AS 12 NOON.", "nsi_id": "unitedstatespostalservice-a77078", "operator": "United States Postal Service", "operator:short": "USPS", "operator:type": "public", "operator:wikidata": "Q668687", "ref": "7242200005"}, "type": "Feature"}
{"geometry": {"coordinates": [-90.5819254898, 36.4179815492], "type": "Point"}, "id": "-8X87u_UlpuL2nlKupVDD54tpCY=", "properties": {"@source_uri": "https://tools.usps.com/UspsToolsRestServices/rest/POLocator/findLocations", "@spider": "usps_collection_boxes", "addr:city": "CORNING", "addr:country": "US", "addr:postcode": "72422", "addr:state": "AR", "addr:street_address": "700 BOBCAT LN", "amenity": "post_box", "collection_times": "Mo-Fr 16:15; Sa 08:45", "indoor": "yes", "note": "ON 12/24 AND 12/31, THIS BOX MAY BE COLLECTED AS EARLY AS 12 NOON.", "nsi_id": "unitedstatespostalservice-a77078", "operator": "United States Postal Service", "operator:short": "USPS", "operator:type": "public", "operator:wikidata": "Q668687", "ref": "7242200008"}, "type": "Feature"}
{"geometry": {"coordinates": [-90.5819254898, 36.4179815492], "type": "Point"}, "id": "Xydfb2CWHNEpCYx9noU6L79cx0I=", "properties": {"@source_uri": "https://tools.usps.com/UspsToolsRestServices/rest/POLocator/findLocations", "@spider": "usps_collection_boxes", "addr:city": "CORNING", "addr:country": "US", "addr:postcode": "72422", "addr:state": "AR", "addr:street_address": "700 BOBCAT LN", "amenity": "post_box", "collection_times": "Mo-Fr 16:15; Sa 08:45", "indoor": "yes", "note": "ON 12/24 AND 12/31, THIS BOX MAY BE COLLECTED AS EARLY AS 12 NOON.", "nsi_id": "unitedstatespostalservice-a77078", "operator": "United States Postal Service", "operator:short": "USPS", "operator:type": "public", "operator:wikidata": "Q668687", "ref": "7242200009"}, "type": "Feature"}
{"geometry": {"coordinates": [-90.5819254898, 36.4179815492], "type": "Point"}, "id": "NsJp0qBOgJu-bAUDLDBRdoEg-MA=", "properties": {"@source_uri": "https://tools.usps.com/UspsToolsRestServices/rest/POLocator/findLocations", "@spider": "usps_collection_boxes", "addr:city": "CORNING", "addr:country": "US", "addr:postcode": "72422", "addr:state": "AR", "addr:street_address": "700 BOBCAT LN", "amenity": "post_box", "collection_times": "Mo-Fr 16:15; Sa 08:45", "note": "ON 12/24 AND 12/31, THIS BOX MAY BE COLLECTED AS EARLY AS 12 NOON.", "nsi_id": "unitedstatespostalservice-a77078", "operator": "United States Postal Service", "operator:short": "USPS", "operator:type": "public", "operator:wikidata": "Q668687", "ref": "7242200010"}, "type": "Feature"}
{"geometry": {"coordinates": [-90.5819254898, 36.4179815492], "type": "Point"}, "id": "U1sTnkSnzNSDIauHcmI15nEdtO4=", "properties": {"@source_uri": "https://tools.usps.com/UspsToolsRestServices/rest/POLocator/findLocations", "@spider": "usps_collection_boxes", "addr:city": "CORNING", "addr:country": "US", "addr:postcode": "72422", "addr:state": "AR", "addr:street_address": "700 BOBCAT LN", "amenity": "post_box", "collection_times": "Mo-Fr 16:00", "indoor": "yes", "note": "ON 12/24 AND 12/31, THIS BOX MAY BE COLLECTED AS EARLY AS 12 NOON.", "nsi_id": "unitedstatespostalservice-a77078", "operator": "United States Postal Service", "operator:short": "USPS", "operator:type": "public", "operator:wikidata": "Q668687", "ref": "7242200011"}, "type": "Feature"}
{"geometry": {"coordinates": [-90.7273404443, 36.3930058649], "type": "Point"}, "id": "rwk80PO8O4WOPdd275mT80F91gU=", "properties": {"@source_uri": "https://tools.usps.com/UspsToolsRestServices/rest/POLocator/findLocations", "@spider": "usps_collection_boxes", "addr:city": "DATTO", "addr:country": "US", "addr:postcode": "72424", "addr:state": "AR", "addr:street_address": "300 N BILL RICE ST", "amenity": "post_box", "collection_times": "Mo-Sa 11:55", "indoor": "yes", "nsi_id": "unitedstatespostalservice-a77078", "operator": "United States Postal Service", "operator:short": "USPS", "operator:type": "public", "operator:wikidata": "Q668687", "ref": "7242400002"}, "type": "Feature"}
{"geometry": {"coordinates": [-90.7273404443, 36.3930058649], "type": "Point"}, "id": "Tx_pjcKXiEsIFhmWs1JPP8M67Sk=", "properties": {"@source_uri": "https://tools.usps.com/UspsToolsRestServices/rest/POLocator/findLocations", "@spider": "usps_collection_boxes", "addr:city": "DATTO", "addr:country": "US", "addr:postcode": "72424", "addr:state": "AR", "addr:street_address": "300 N BILL RICE ST", "amenity": "post_box", "collection_times": "Mo-Fr 12:00; Sa 12:30", "indoor": "yes", "note": "ON 12/24 AND 12/31, THIS BOX MAY BE COLLECTED AS EARLY AS 12 NOON.", "nsi_id": "unitedstatespostalservice-a77078", "operator": "United States Postal Service", "operator:short": "USPS", "operator:type": "public", "operator:wikidata": "Q668687", "ref": "7242400003"}, "type": "Feature"}
{"geometry": {"coordinates": [-90.7267166179, 36.2328692913], "type": "Point"}, "id": "Ok1qNOf0lXZdorZlSDzuok_HQ_8=", "properties": {"@source_uri": "https://tools.usps.com/UspsToolsRestServices/rest/POLocator/findLocations", "@spider": "usps_collection_boxes", "addr:city": "DELAPLAINE", "addr:country": "US", "addr:postcode": "72425", "addr:state": "AR", "addr:street_address": "3523 HIGHWAY 90", "amenity": "post_box", "collection_times": "Mo-Fr 11:00; Sa 08:45", "indoor": "yes", "nsi_id": "unitedstatespostalservice-a77078", "operator": "United States Postal Service", "operator:short": "USPS", "operator:type": "public", "operator:wikidata": "Q668687", "ref": "7242500002"}, "type": "Feature"}
{"geometry": {"coordinates": [-90.7267166179, 36.2328692913], "type": "Point"}, "id": "F5TEYHdHQVx4L7yDAdRlhY_Z2jI=", "properties": {"@source_uri": "https://tools.usps.com/UspsToolsRestServices/rest/POLocator/findLocations", "@spider": "usps_collection_boxes", "addr:city": "DELAPLAINE", "addr:country": "US", "addr:postcode": "72425", "addr:state": "AR", "addr:street_address": "3523 HIGHWAY 90", "amenity": "post_box", "collection_times": "Mo-Fr 11:30; Sa 09:00", "indoor": "yes", "nsi_id": "unitedstatespostalservice-a77078", "operator": "United States Postal Service", "operator:short": "USPS", "operator:type": "public", "operator:wikidata": "Q668687", "ref": "7242500006"}, "type": "Feature"}
{"geometry": {"coordinates": [-90.0424950337, 35.8552131084], "type": "Point"}, "id": "LyIYXbTBcKgX6a0I32dYZktwMEM=", "properties": {"@source_uri": "https://tools.usps.com/UspsToolsRestServices/rest/POLocator/findLocations", "@spider": "usps_collection_boxes", "addr:city": "DELL", "addr:country": "US", "addr:postcode": "72426", "addr:state": "AR", "addr:street_address": "212 MAIN ST", "amenity": "post_box", "collection_times": "Mo-Fr 11:00; Sa 09:45", "nsi_id": "unitedstatespostalservice-a77078", "operator": "United States Postal Service", "operator:short": "USPS", "operator:type": "public", "operator:wikidata": "Q668687", "ref": "7242600001"}, "type": "Feature"}
{"geometry": {"coordinates": [-90.0424950337, 35.8552131084], "type": "Point"}, "id": "y8u0CYPFXOeIpv4YeDn2EbgSu4w=", "properties": {"@source_uri": "https://tools.usps.com/UspsToolsRestServices/rest/POLocator/findLocations", "@spider": "usps_collection_boxes", "addr:city": "DELL", "addr:country": "US", "addr:postcode": "72426", "addr:state": "AR", "addr:street_address": "212 MAIN ST", "amenity": "post_box", "collection_times": "Mo-Fr 11:00; Sa 09:45", "indoor": "yes", "nsi_id": "unitedstatespostalservice-a77078", "operator": "United States Postal Service", "operator:short": "USPS", "operator:type": "public", "operator:wikidata": "Q668687", "ref": "7242600002"}, "type": "Feature"}
{"geometry": {"coordinates": [-90.0424950337, 35.8552131084], "type": "Point"}, "id": "tR8Wiu5lGG-_o6FqjpbkbwIomNo=", "properties": {"@source_uri": "https://tools.usps.com/UspsToolsRestServices/rest/POLocator/findLocations", "@spider": "usps_collection_boxes", "addr:city": "DELL", "addr:country": "US", "addr:postcode": "72426", "addr:state": "AR", "addr:street_address": "212 MAIN ST", "amenity": "post_box", "collection_times": "Mo-Fr 11:00; Sa 09:30", "indoor": "yes", "nsi_id": "unitedstatespostalservice-a77078", "operator": "United States Postal Service", "operator:short": "USPS", "operator:type": "public", "operator:wikidata": "Q668687", "ref": "7242600004"}, "type": "Feature"}
{"geometry": {"coordinates": [-90.9454206775, 35.8682926857], "type": "Point"}, "id": "8TDf6wLelIfDCbPO8SwD33aEKBo=", "properties": {"@source_uri": "https://tools.usps.com/UspsToolsRestServices/rest/POLocator/findLocations", "@spider": "usps_collection_boxes", "addr:city": "EGYPT", "addr:country": "US", "addr:postcode": "72427", "addr:state": "AR", "addr:street_address": "11085 KINGS HWY 91", "amenity": "post_box", "collection_times": "Mo-Fr 09:30; Sa 08:45", "indoor": "yes", "nsi_id": "unitedstatespostalservice-a77078", "operator": "United States Postal Service", "operator:short": "USPS", "operator:type": "public", "operator:wikidata": "Q668687", "ref": "7242700002"}, "type": "Feature"}
{"geometry": {"coordinates": [-90.9454206775, 35.8682926857], "type": "Point"}, "id": "m7coMVUQ9LPgQY_IrszvyvassiQ=", "properties": {"@source_uri": "https://tools.usps.com/UspsToolsRestServices/rest/POLocator/findLocations", "@spider": "usps_collection_boxes", "addr:city": "EGYPT", "addr:country": "US", "addr:postcode": "72427", "addr:state": "AR", "addr:street_address": "11085 KINGS HWY 91", "amenity": "post_box", "collection_times": "Mo-Fr 09:30; Sa 08:45", "indoor": "yes", "nsi_id": "unitedstatespostalservice-a77078", "operator": "United States Postal Service", "operator:short": "USPS", "operator:type": "public", "operator:wikidata": "Q668687", "ref": "7242700003"}, "type": "Feature"}
{"geometry": {"coordinates": [-90.9454206775, 35.8682926857], "type": "Point"}, "id": "WLsBb5vf5VQtb_WRWgiXAWPAgrs=", "properties": {"@source_uri": "https://tools.usps.com/UspsToolsRestServices/rest/POLocator/findLocations", "@spider": "usps_collection_boxes", "addr:city": "EGYPT", "addr:country": "US", "addr:postcode": "72427", "addr:state": "AR", "addr:street_address": "11085 KINGS HWY", "amenity": "post_box", "collection_times": "Mo-Fr 10:00", "indoor": "yes", "nsi_id": "unitedstatespostalservice-a77078", "operator": "United States Postal Service", "operator:short": "USPS", "operator:type": "public", "operator:wikidata": "Q668687", "ref": "7242700004"}, "type": "Feature"}
{"geometry": {"coordinates": [-90.2404404666, 35.7271317186], "type": "Point"}, "id": "K44O1oo5IjZjVpYx_hoDbFKeG4g=", "properties": {"@source_uri": "https://tools.usps.com/UspsToolsRestServices/rest/POLocator/findLocations", "@spider": "usps_collection_boxes", "addr:city": "ETOWAH", "addr:country": "US", "addr:postcode": "72428", "addr:state": "AR", "addr:street_address": "924 S STATE HIGHWAY 136", "amenity": "post_box", "collection_times": "Mo-Fr 12:00; Sa 10:30", "nsi_id": "unitedstatespostalservice-a77078", "operator": "United States Postal Service", "operator:short": "USPS", "operator:type": "public", "operator:wikidata": "Q668687", "ref": "7242800001"}, "type": "Feature"}
{"geometry": {"coordinates": [-90.2404404666, 35.7271317186], "type": "Point"}, "id": "TlUrxa5SyAR4VGD-VNDoYYNVfX8=", "properties": {"@source_uri": "https://tools.usps.com/UspsToolsRestServices/rest/POLocator/findLocations", "@spider": "usps_collection_boxes", "addr:city": "ETOWAH", "addr:country": "US", "addr:postcode": "72428", "addr:state": "AR", "addr:street_address": "924 S STATE HIGHWAY 136", "amenity": "post_box", "collection_times": "Mo-Fr 12:00; Sa 10:30", "indoor": "yes", "nsi_id": "unitedstatespostalservice-a77078", "operator": "United States Postal Service", "operator:short": "USPS", "operator:type": "public", "operator:wikidata": "Q668687", "ref": "7242800002"}, "type": "Feature"}
{"geometry": {"coordinates": [-90.2404404666, 35.7271317186], "type": "Point"}, "id": "FAJ0VUXBj-x-DmKdDLzzf3oFi7c=", "properties": {"@source_uri": "https://tools.usps.com/UspsToolsRestServices/rest/POLocator/findLocations", "@spider": "usps_collection_boxes", "addr:city": "ETOWAH", "addr:country": "US", "addr:postcode": "72428", "addr:state": "AR", "addr:street_address": "924 S STATE HIGHWAY 136", "amenity": "post_box", "collection_times": "Mo-Fr 12:00; Sa 10:30", "indoor": "yes", "nsi_id": "unitedstatespostalservice-a77078", "operator": "United States Postal Service", "operator:short": "USPS", "operator:type": "public", "operator:wikidata": "Q668687", "ref": "7242800005"}, "type": "Feature"}
{"geometry": {"coordinates": [-90.9728690195, 35.4912140013], "type": "Point"}, "id": "eZvxrL755tG_Sj3cIkpcONE5OY8=", "properties": {"@source_uri": "https://tools.usps.com/UspsToolsRestServices/rest/POLocator/findLocations", "@spider": "usps_collection_boxes", "addr:city": "FISHER", "addr:country": "US", "addr:postcode": "72429", "addr:state": "AR", "addr:street_address": "103 E MAIN ST", "amenity": "post_box", "collection_times": "Mo-Fr 15:00; Sa 11:15", "note": "ON 12/24 AND 12/31, THIS BOX MAY BE COLLECTED AS EARLY AS 12 NOON.", "nsi_id": "unitedstatespostalservice-a77078", "operator": "United States Postal Service", "operator:short": "USPS", "operator:type": "public", "operator:wikidata": "Q668687", "ref": "7242900001"}, "type": "Feature"}
{"geometry": {"coordinates": [-90.9728690195, 35.4912140013], "type": "Point"}, "id": "__6F5LRsT5rE5vF90SCt8ApsUpM=", "properties": {"@source_uri": "https://tools.usps.com/UspsToolsRestServices/rest/POLocator/findLocations", "@spider": "usps_collection_boxes", "addr:city": "FISHER", "addr:country": "US", "addr:postcode": "72429", "addr:state": "AR", "addr:street_address": "103 E MAIN ST", "amenity": "post_box", "collection_times": "Mo-Fr 15:00; Sa 11:15", "indoor": "yes", "note": "ON 12/24 AND 12/31, THIS BOX MAY BE COLLECTED AS EARLY AS 12 NOON.", "nsi_id": "unitedstatespostalservice-a77078", "operator": "United States Postal Service", "operator:short": "USPS", "operator:type": "public", "operator:wikidata": "Q668687", "ref": "7242900002"}, "type": "Feature"}
{"geometry": {"coordinates": [-90.9728690195, 35.4912140013], "type": "Point"}, "id": "caZ_FpTJPzCWijxvozydETU8atw=", "properties": {"@source_uri": "https://tools.usps.com/UspsToolsRestServices/rest/POLocator/findLocations", "@spider": "usps_collection_boxes", "addr:city": "FISHER", "addr:country": "US", "addr:postcode": "72429", "addr:state": "AR", "addr:street_address": "103 E MAIN ST", "amenity": "post_box", "collection_times": "Mo-Fr 15:00; Sa 11:15", "indoor": "yes", "note": "ON 12/24 AND 12/31, THIS BOX MAY BE COLLECTED AS EARLY AS 12 NOON.", "nsi_id": "unitedstatespostalservice-a77078", "operator": "United States Postal Service", "operator:short": "USPS", "operator:type": "public", "operator:wikidata": "Q668687", "ref": "7242900003"}, "type": "Feature"}
{"geometry": {"coordinates": [-90.9728690195, 35.4912140013], "type": "Point"}, "id": "T4PzpX7vt5POHmYimEw4zFWjPW8=", "properties": {"@source_uri": "https://tools.usps.com/UspsToolsRestServices/rest/POLocator/findLocations", "@spider": "usps_collection_boxes", "addr:city": "FISHER", "addr:country": "US", "addr:postcode": "72429", "addr:state": "AR", "addr:street_address": "103 E MAIN ST", "amenity": "post_box", "collection_times": "Mo-Fr 15:15; Sa 11:45", "indoor": "yes", "note": "ON 12/24 AND 12/31, THIS BOX MAY BE COLLECTED AS EARLY AS 12 NOON.", "nsi_id": "unitedstatespostalservice-a77078", "operator": "United States Postal Service", "operator:short": "USPS", "operator:type": "public", "operator:wikidata": "Q668687", "ref": "7242900005"}, "type": "Feature"}
{"geometry": {"coordinates": [-90.2209425672, 36.3401988271], "type": "Point"}, "id": "i3d2A_AdITXg_xegvZPm1dWlv8E=", "properties": {"@source_uri": "https://tools.usps.com/UspsToolsRestServices/rest/POLocator/findLocations", "@spider": "usps_collection_boxes", "addr:city": "GREENWAY", "addr:country": "US", "addr:postcode": "72430", "addr:state": "AR", "addr:street_address": "411 STATE ST", "amenity": "post_box", "collection_times": "Mo-Fr 09:30; Sa 11:00", "nsi_id": "unitedstatespostalservice-a77078", "operator": "United States Postal Service", "operator:short": "USPS", "operator:type": "public", "operator:wikidata": "Q668687", "ref": "7243000001"}, "type": "Feature"}
{"geometry": {"coordinates": [-90.2209425672, 36.3401988271], "type": "Point"}, "id": "9qr7ZQmrfUM5TdVDCqZcNxa8860=", "properties": {"@source_uri": "https://tools.usps.com/UspsToolsRestServices/rest/POLocator/findLocations", "@spider": "usps_collection_boxes", "addr:city": "GREENWAY", "addr:country": "US", "addr:postcode": "72430", "addr:state": "AR", "addr:street_address": "411 STATE ST", "amenity": "post_box", "collection_times": "Mo-Fr 09:30; Sa 11:05", "indoor": "yes", "nsi_id": "unitedstatespostalservice-a77078", "operator": "United States Postal Service", "operator:short": "USPS", "operator:type": "public", "operator:wikidata": "Q668687", "ref": "7243000002"}, "type": "Feature"}
{"geometry": {"coordinates": [-90.2209425672, 36.3401988271], "type": "Point"}, "id": "i8oe3jVe53DPbupbL_yIccuN1UE=", "properties": {"@source_uri": "https://tools.usps.com/UspsToolsRestServices/rest/POLocator/findLocations", "@spider": "usps_collection_boxes", "addr:city": "GREENWAY", "addr:country": "US", "addr:postcode": "72430", "addr:state": "AR", "addr:street_address": "411 STATE ST", "amenity": "post_box", "collection_times": "Mo-Fr 10:00; Sa 11:15", "indoor": "yes", "nsi_id": "unitedstatespostalservice-a77078", "operator": "United States Postal Service", "operator:short": "USPS", "operator:type": "public", "operator:wikidata": "Q668687", "ref": "7243000003"}, "type": "Feature"}
{"geometry": {"coordinates": [-91.0743794629, 35.6522653307], "type": "Point"}, "id": "A_ymGBaEHhHysTUV6X65cdQuAUc=", "properties": {"@source_uri": "https://tools.usps.com/UspsToolsRestServices/rest/POLocator/findLocations", "@spider": "usps_collection_boxes", "addr:city": "GRUBBS", "addr:country": "US", "addr:postcode": "72431", "addr:state": "AR", "addr:street_address": "520 HIGHWAY 37 N", "amenity": "post_box", "collection_times": "Mo-Fr 12:00; Sa 09:15", "indoor": "yes", "nsi_id": "unitedstatespostalservice-a77078", "operator": "United States Postal Service", "operator:short": "USPS", "operator:type": "public", "operator:wikidata": "Q668687", "ref": "7243100002"}, "type": "Feature"}
{"geometry": {"coordinates": [-91.0743794629, 35.6522653307], "type": "Point"}, "id": "TZAkVSw5Gpa1qgbabL663sfnjHA=", "properties": {"@source_uri": "https://tools.usps.com/UspsToolsRestServices/rest/POLocator/findLocations", "@spider": "usps_collection_boxes", "addr:city": "GRUBBS", "addr:country": "US", "addr:postcode": "72431", "addr:state": "AR", "addr:street_address": "520 HIGHWAY 37 N", "amenity": "post_box", "collection_times": "Mo-Fr 12:00; Sa 09:30", "indoor": "yes", "nsi_id": "unitedstatespostalservice-a77078", "operator": "United States Postal Service", "operator:short": "USPS", "operator:type": "public", "operator:wikidata": "Q668687", "ref": "7243100003"}, "type": "Feature"}
{"geometry": {"coordinates": [-90.71735977, 35.5636358818], "type": "Point"}, "id": "EXu8XqVxTBA8DcS7BvjpVaF4L1I=", "properties": {"@source_uri": "https://tools.usps.com/UspsToolsRestServices/rest/POLocator/findLocations", "@spider": "usps_collection_boxes", "addr:city": "HARRISBURG", "addr:country": "US", "addr:postcode": "72432", "addr:state": "AR", "addr:street_address": "401 MARKET ST", "amenity": "post_box", "collection_times": "Mo-Fr 15:00; Sa 08:00", "note": "ON 12/24 AND 12/31, THIS BOX MAY BE COLLECTED AS EARLY AS 12 NOON.", "nsi_id": "unitedstatespostalservice-a77078", "operator": "United States Postal Service", "operator:short": "USPS", "operator:type": "public", "operator:wikidata": "Q668687", "ref": "7243200002"}, "type": "Feature"}
{"geometry": {"coordinates": [-90.7260499665, 35.570500016], "type": "Point"}, "id": "L0f77HwOfzQS-lnumGkuqcmoAKk=", "properties": {"@source_uri": "https://tools.usps.com/UspsToolsRestServices/rest/POLocator/findLocations", "@spider": "usps_collection_boxes", "addr:city": "HARRISBURG", "addr:country": "US", "addr:postcode": "72432", "addr:state": "AR", "addr:street_address": "605 N ILLINOIS ST", "amenity": "post_box", "collection_times": "Mo-Fr 09:30; Sa 09:00", "nsi_id": "unitedstatespostalservice-a77078", "operator": "United States Postal Service", "operator:short": "USPS", "operator:type": "public", "operator:wikidata": "Q668687", "ref": "7243200003"}, "type": "Feature"}
{"geometry": {"coordinates": [-90.7285839503, 35.5652526878], "type": "Point"}, "id": "xqcH67S4zfvlD3xf5qinK5auJ6c=", "properties": {"@source_uri": "https://tools.usps.com/UspsToolsRestServices/rest/POLocator/findLocations", "@spider": "usps_collection_boxes", "addr:city": "HARRISBURG", "addr:country": "US", "addr:postcode": "72432", "addr:state": "AR", "addr:street_address": "705 W JACKSON ST", "amenity": "post_box", "collection_times": "Mo-Fr 16:30; Sa 14:00", "note": "ON 12/24 AND 12/31, THIS BOX MAY BE COLLECTED AS EARLY AS 12 NOON.", "nsi_id": "unitedstatespostalservice-a77078", "operator": "United States Postal Service", "operator:short": "USPS", "operator:type": "public", "operator:wikidata": "Q668687", "ref": "7243200005"}, "type": "Feature"}
{"geometry": {"coordinates": [-90.7285839503, 35.5652526878], "type": "Point"}, "id": "mParRjU4mlX-4kUT_p7dFA8TiWE=", "properties": {"@source_uri": "https://tools.usps.com/UspsToolsRestServices/rest/POLocator/findLocations", "@spider": "usps_collection_boxes", "addr:city": "HARRISBURG", "addr:country": "US", "addr:postcode": "72432", "addr:state": "AR", "addr:street_address": "705 W JACKSON ST", "amenity": "post_box", "collection_times": "Mo-Fr 16:30; Sa 14:00", "indoor": "yes", "note": "ON 12/24 AND 12/31, THIS BOX MAY BE COLLECTED AS EARLY AS 12 NOON.", "nsi_id": "unitedstatespostalservice-a77078", "operator": "United States Postal Service", "operator:short": "USPS", "operator:type": "public", "operator:wikidata": "Q668687", "ref": "7243200007"}, "type": "Feature"}
{"geometry": {"coordinates": [-90.7285839503, 35.5652526878], "type": "Point"}, "id": "VgjNCfxoc9pF0n5jU84flR_p23o=", "properties": {"@source_uri": "https://tools.usps.com/UspsToolsRestServices/rest/POLocator/findLocations", "@spider": "usps_collection_boxes", "addr:city": "HARRISBURG", "addr:country": "US", "addr:postcode": "72432", "addr:state": "AR", "addr:street_address": "705 W JACKSON ST", "amenity": "post_box", "collection_times": "Mo-Fr 16:30; Sa 14:00", "indoor": "yes", "note": "ON 12/24 AND 12/31, THIS BOX MAY BE COLLECTED AS EARLY AS 12 NOON.", "nsi_id": "unitedstatespostalservice-a77078", "operator": "United States Postal Service", "operator:short": "USPS", "operator:type": "public", "operator:wikidata": "Q668687", "ref": "7243200009"}, "type": "Feature"}
{"geometry": {"coordinates": [-90.7285839503, 35.5652526878], "type": "Point"}, "id": "ruLbejvqy8QO3wzw1WM37MWRHJs=", "properties": {"@source_uri": "https://tools.usps.com/UspsToolsRestServices/rest/POLocator/findLocations", "@spider": "usps_collection_boxes", "addr:city": "HARRISBURG", "addr:country": "US", "addr:postcode": "72432", "addr:state": "AR", "addr:street_address": "705 W JACKSON ST", "amenity": "post_box", "collection_times": "Mo-Fr 16:00", "indoor": "yes", "note": "ON 12/24 AND 12/31, THIS BOX MAY BE COLLECTED AS EARLY AS 12 NOON.", "nsi_id": "unitedstatespostalservice-a77078", "operator": "United States Postal Service", "operator:short": "USPS", "operator:type": "public", "operator:wikidata": "Q668687", "ref": "7243200011"}, "type": "Feature"}
{"geometry": {"coordinates": [-90.97458, 36.05128], "type": "Point"}, "id": "Wo91W52e16dujLwYc05zAWnPs2g=", "properties": {"@source_uri": "https://tools.usps.com/UspsToolsRestServices/rest/POLocator/findLocations", "@spider": "usps_collection_boxes", "addr:city": "HOXIE", "addr:country": "US", "addr:postcode": "72433", "addr:state": "AR", "addr:street_address": "202 SW TEXAS ST", "amenity": "post_box", "collection_times": "Mo-Fr 16:15; Sa 10:15", "note": "ON 12/24 AND 12/31, THIS BOX MAY BE COLLECTED AS EARLY AS 12 NOON.", "nsi_id": "unitedstatespostalservice-a77078", "operator": "United States Postal Service", "operator:short": "USPS", "operator:type": "public", "operator:wikidata": "Q668687", "ref": "7243300001"}, "type": "Feature"}
{"geometry": {"coordinates": [-90.9747691131, 36.0510642389], "type": "Point"}, "id": "qcwVDiEkVsPJWNA-VW78v-INGgU=", "properties": {"@source_uri": "https://tools.usps.com/UspsToolsRestServices/rest/POLocator/findLocations", "@spider": "usps_collection_boxes", "addr:city": "HOXIE", "addr:country": "US", "addr:postcode": "72433", "addr:state": "AR", "addr:street_address": "202 SW TEXAS ST", "amenity": "post_box", "collection_times": "Mo-Fr 16:15; Sa 10:15", "indoor": "yes", "note": "ON 12/24 AND 12/31, THIS BOX MAY BE COLLECTED AS EARLY AS 12 NOON.", "nsi_id": "unitedstatespostalservice-a77078", "operator": "United States Postal Service", "operator:short": "USPS", "operator:type": "public", "operator:wikidata": "Q668687", "ref": "7243300002"}, "type": "Feature"}
{"geometry": {"coordinates": [-90.9747691131, 36.0510642389], "type": "Point"}, "id": "9S21w8L8Gts57h-wz9BfNrJ79qU=", "properties": {"@source_uri": "https://tools.usps.com/UspsToolsRestServices/rest/POLocator/findLocations", "@spider": "usps_collection_boxes", "addr:city": "HOXIE", "addr:country": "US", "addr:postcode": "72433", "addr:state": "AR", "addr:street_address": "202 SW TEXAS ST", "amenity": "post_box", "collection_times": "Mo-Fr 14:30", "indoor": "yes", "note": "ON 12/24 AND 12/31, THIS BOX MAY BE COLLECTED AS EARLY AS 12 NOON.", "nsi_id": "unitedstatespostalservice-a77078", "operator": "United States Postal Service", "operator:short": "USPS", "operator:type": "public", "operator:wikidata": "Q668687", "ref": "7243300004"}, "type": "Feature"}
{"geometry": {"coordinates": [-91.1748393584, 36.2017627695], "type": "Point"}, "id": "el1slLGYPxQa-rVRWoaNolp1XXY=", "properties": {"@source_uri": "https://tools.usps.com/UspsToolsRestServices/rest/POLocator/findLocations", "@spider": "usps_collection_boxes", "addr:city": "IMBODEN", "addr:country": "US", "addr:postcode": "72434", "addr:state": "AR", "addr:street_address": "105 W 4TH", "amenity": "post_box", "collection_times": "Mo-Fr 14:30; Sa 11:00", "indoor": "yes", "note": "ON 12/24 AND 12/31, THIS BOX MAY BE COLLECTED AS EARLY AS 12 NOON.", "nsi_id": "unitedstatespostalservice-a77078", "operator": "United States Postal Service", "operator:short": "USPS", "operator:type": "public", "operator:wikidata": "Q668687", "ref": "7243400002"}, "type": "Feature"}
{"geometry": {"coordinates": [-91.1748393584, 36.2017627695], "type": "Point"}, "id": "2vtGFRSGnKNbWipjHC1YGBFZwqE=", "properties": {"@source_uri": "https://tools.usps.com/UspsToolsRestServices/rest/POLocator/findLocations", "@spider": "usps_collection_boxes", "addr:city": "IMBODEN", "addr:country": "US", "addr:postcode": "72434", "addr:state": "AR", "addr:street_address": "105 W 4TH", "amenity": "post_box", "collection_times": "Mo-Fr 14:30; Sa 11:00", "indoor": "yes", "note": "ON 12/24 AND 12/31, THIS BOX MAY BE COLLECTED AS EARLY AS 12 NOON.", "nsi_id": "unitedstatespostalservice-a77078", "operator": "United States Postal Service", "operator:short": "USPS", "operator:type": "public", "operator:wikidata": "Q668687", "ref": "7243400003"}, "type": "Feature"}
{"geometry": {"coordinates": [-91.1748393584, 36.2017627695], "type": "Point"}, "id": "Rk-j5uiSXNRGbviyde9nzVyQtiE=", "properties": {"@source_uri": "https://tools.usps.com/UspsToolsRestServices/rest/POLocator/findLocations", "@spider": "usps_collection_boxes", "addr:city": "IMBODEN", "addr:country": "US", "addr:postcode": "72434", "addr:state": "AR", "addr:street_address": "105 W 4TH", "amenity": "post_box", "collection_times": "Mo-Fr 14:30; Sa 11:00", "note": "ON 12/24 AND 12/31, THIS BOX MAY BE COLLECTED AS EARLY AS 12 NOON.", "nsi_id": "unitedstatespostalservice-a77078", "operator": "United States Postal Service", "operator:short": "USPS", "operator:type": "public", "operator:wikidata": "Q668687", "ref": "7243400010"}, "type": "Feature"}
{"geometry": {"coordinates": [-91.1742790273, 36.2029432941], "type": "Point"}, "id": "wByScEGto97J4LAq1-iyJ57aBK8=", "properties": {"@source_uri": "https://tools.usps.com/UspsToolsRestServices/rest/POLocator/findLocations", "@spider": "usps_collection_boxes", "addr:city": "IMBODEN", "addr:country": "US", "addr:postcode": "72434", "addr:state": "AR", "addr:street_address": "105 HIGHWAY 62", "amenity": "post_box", "collection_times": "Mo-Fr 15:00; Sa 11:00", "indoor": "yes", "note": "ON 12/24 AND 12/31, THIS BOX MAY BE COLLECTED AS EARLY AS 12 NOON.", "nsi_id": "unitedstatespostalservice-a77078", "operator": "United States Postal Service", "operator:short": "USPS", "operator:type": "public", "operator:wikidata": "Q668687", "ref": "7243400011"}, "type": "Feature"}
{"geometry": {"coordinates": [-90.6007932362, 36.318945422], "type": "Point"}, "id": "-86ovzyM_dTky0vOpD9jcQU3tww=", "properties": {"@source_uri": "https://tools.usps.com/UspsToolsRestServices/rest/POLocator/findLocations", "@spider": "usps_collection_boxes", "addr:city": "KNOBEL", "addr:country": "US", "addr:postcode": "72435", "addr:state": "AR", "addr:street_address": "260 MAPLE ST", "amenity": "post_box", "collection_times": "Mo-Fr 12:00; Sa 09:00", "indoor": "yes", "nsi_id": "unitedstatespostalservice-a77078", "operator": "United States Postal Service", "operator:short": "USPS", "operator:type": "public", "operator:wikidata": "Q668687", "ref": "7243500002"}, "type": "Feature"}
{"geometry": {"coordinates": [-90.6007932362, 36.318945422], "type": "Point"}, "id": "nW2m3NNvINEKqeN8BnOjz7cmkvc=", "properties": {"@source_uri": "https://tools.usps.com/UspsToolsRestServices/rest/POLocator/findLocations", "@spider": "usps_collection_boxes", "addr:city": "KNOBEL", "addr:country": "US", "addr:postcode": "72435", "addr:state": "AR", "addr:street_address": "260 MAPLE ST", "amenity": "post_box", "collection_times": "Mo-Fr 12:00", "indoor": "yes", "nsi_id": "unitedstatespostalservice-a77078", "operator": "United States Postal Service", "operator:short": "USPS", "operator:type": "public", "operator:wikidata": "Q668687", "ref": "7243500004"}, "type": "Feature"}
{"geometry": {"coordinates": [-90.4476186495, 35.8178149005], "type": "Point"}, "id": "1gaO5ZKkD8hCZzEP9Dsd8Rne4MY=", "properties": {"@source_uri": "https://tools.usps.com/UspsToolsRestServices/rest/POLocator/findLocations", "@spider": "usps_collection_boxes", "addr:city": "LAKE CITY", "addr:country": "US", "addr:postcode": "72437", "addr:state": "AR", "addr:street_address": "125 HICKORY RD", "amenity": "post_box", "collection_times": "Mo-Fr 16:30; Sa 10:30", "note": "ON 12/24 AND 12/31, THIS BOX MAY BE COLLECTED AS EARLY AS 12 NOON.", "nsi_id": "unitedstatespostalservice-a77078", "operator": "United States Postal Service", "operator:short": "USPS", "operator:type": "public", "operator:wikidata": "Q668687", "ref": "7243700001"}, "type": "Feature"}
{"geometry": {"coordinates": [-90.4476186495, 35.8178149005], "type": "Point"}, "id": "UDAdMIhoeV1qrd_FIAueQ0ByNuM=", "properties": {"@source_uri": "https://tools.usps.com/UspsToolsRestServices/rest/POLocator/findLocations", "@spider": "usps_collection_boxes", "addr:city": "LAKE CITY", "addr:country": "US", "addr:postcode": "72437", "addr:state": "AR", "addr:street_address": "125 HICKORY RD", "amenity": "post_box", "collection_times": "Mo-Fr 16:30; Sa 10:30", "indoor": "yes", "note": "ON 12/24 AND 12/31, THIS BOX MAY BE COLLECTED AS EARLY AS 12 NOON.", "nsi_id": "unitedstatespostalservice-a77078", "operator": "United States Postal Service", "operator:short": "USPS", "operator:type": "public", "operator:wikidata": "Q668687", "ref": "7243700008"}, "type": "Feature"}
{"geometry": {"coordinates": [-90.4476186495, 35.8178149005], "type": "Point"}, "id": "DGk_iBAbrBVri2V8YLaXDlkA7lc=", "properties": {"@source_uri": "https://tools.usps.com/UspsToolsRestServices/rest/POLocator/findLocations", "@spider": "usps_collection_boxes", "addr:city": "LAKE CITY", "addr:country": "US", "addr:postcode": "72437", "addr:state": "AR", "addr:street_address": "125 HICKORY RD", "amenity": "post_box", "collection_times": "Mo-Fr 16:30; Sa 10:00", "indoor": "yes", "note": "ON 12/24 AND 12/31, THIS BOX MAY BE COLLECTED AS EARLY AS 12 NOON.", "nsi_id": "unitedstatespostalservice-a77078", "operator": "United States Postal Service", "operator:short": "USPS", "operator:type": "public", "operator:wikidata": "Q668687", "ref": "7243700011"}, "type": "Feature"}
{"geometry": {"coordinates": [-90.2605823475, 35.9384816587], "type": "Point"}, "id": "bjZ9Dz1v6h2uBsxLBfJMIEiTibY=", "properties": {"@source_uri": "https://tools.usps.com/UspsToolsRestServices/rest/POLocator/findLocations", "@spider": "usps_collection_boxes", "addr:city": "LEACHVILLE", "addr:country": "US", "addr:postcode": "72438", "addr:state": "AR", "addr:street_address": "300 W DOC RODMAN ST", "amenity": "post_box", "collection_times": "Mo-Fr 16:00; Sa 10:30", "note": "ON 12/24 AND 12/31, THIS BOX MAY BE COLLECTED AS EARLY AS 12 NOON.", "nsi_id": "unitedstatespostalservice-a77078", "operator": "United States Postal Service", "operator:short": "USPS", "operator:type": "public", "operator:wikidata": "Q668687", "ref": "7243800006"}, "type": "Feature"}
{"geometry": {"coordinates": [-90.2605823475, 35.9384816587], "type": "Point"}, "id": "s1mONQlGocaBJo381V8elbOBgE8=", "properties": {"@source_uri": "https://tools.usps.com/UspsToolsRestServices/rest/POLocator/findLocations", "@spider": "usps_collection_boxes", "addr:city": "LEACHVILLE", "addr:country": "US", "addr:postcode": "72438", "addr:state": "AR", "addr:street_address": "300 W DOC RODMAN ST", "amenity": "post_box", "collection_times": "Mo-Fr 16:00; Sa 10:30", "indoor": "yes", "note": "ON 12/24 AND 12/31, THIS BOX MAY BE COLLECTED AS EARLY AS 12 NOON.", "nsi_id": "unitedstatespostalservice-a77078", "operator": "United States Postal Service", "operator:short": "USPS", "operator:type": "public", "operator:wikidata": "Q668687", "ref": "7243800008"}, "type": "Feature"}
{"geometry": {"coordinates": [-90.2605823475, 35.9384816587], "type": "Point"}, "id": "s_6Tm4iY3LpNU4ZiiDAeM3rpjiU=", "properties": {"@source_uri": "https://tools.usps.com/UspsToolsRestServices/rest/POLocator/findLocations", "@spider": "usps_collection_boxes", "addr:city": "LEACHVILLE", "addr:country": "US", "addr:postcode": "72438", "addr:state": "AR", "addr:street_address": "300 W DOC RODMAN ST", "amenity": "post_box", "collection_times": "Mo-Fr 16:00; Sa 10:30", "indoor": "yes", "note": "ON 12/24 AND 12/31, THIS BOX MAY BE COLLECTED AS EARLY AS 12 NOON.", "nsi_id": "unitedstatespostalservice-a77078", "operator": "United States Postal Service", "operator:short": "USPS", "operator:type": "public", "operator:wikidata": "Q668687", "ref": "7243800009"}, "type": "Feature"}
{"geometry": {"coordinates": [-90.2605823475, 35.9384816587], "type": "Point"}, "id": "1AS1dGf4O06NLHV71RcDZAruHlo=", "properties": {"@source_uri": "https://tools.usps.com/UspsToolsRestServices/rest/POLocator/findLocations", "@spider": "usps_collection_boxes", "addr:city": "LEACHVILLE", "addr:country": "US", "addr:postcode": "72438", "addr:state": "AR", "addr:street_address": "300 W DOC RODMAN ST", "amenity": "post_box", "collection_times": "Mo-Fr 16:00; Sa 10:30", "indoor": "yes", "note": "ON 12/24 AND 12/31, THIS BOX MAY BE COLLECTED AS EARLY AS 12 NOON.", "nsi_id": "unitedstatespostalservice-a77078", "operator": "United States Postal Service", "operator:short": "USPS", "operator:type": "public", "operator:wikidata": "Q668687", "ref": "7243800012"}, "type": "Feature"}
{"geometry": {"coordinates": [-91.251049047, 36.0080512455], "type": "Point"}, "id": "ZcOZ1joVoQmSSIVW3Z28qE2vjjo=", "properties": {"@source_uri": "https://tools.usps.com/UspsToolsRestServices/rest/POLocator/findLocations", "@spider": "usps_collection_boxes", "addr:city": "LYNN", "addr:country": "US", "addr:postcode": "72440", "addr:state": "AR", "addr:street_address": "66 N HIGHWAY 25", "amenity": "post_box", "collection_times": "Mo-Fr 15:45; Sa 10:45", "note": "ON 12/24 AND 12/31, THIS BOX MAY BE COLLECTED AS EARLY AS 12 NOON.", "nsi_id": "unitedstatespostalservice-a77078", "operator": "United States Postal Service", "operator:short": "USPS", "operator:type": "public", "operator:wikidata": "Q668687", "ref": "7244000001"}, "type": "Feature"}
{"geometry": {"coordinates": [-91.251049047, 36.0080512455], "type": "Point"}, "id": "YOLxmiz3w0kEIWqQlZpyRtuM_tU=", "properties": {"@source_uri": "https://tools.usps.com/UspsToolsRestServices/rest/POLocator/findLocations", "@spider": "usps_collection_boxes", "addr:city": "LYNN", "addr:country": "US", "addr:postcode": "72440", "addr:state": "AR", "addr:street_address": "66 N HIGHWAY 25", "amenity": "post_box", "collection_times": "Mo-Fr 11:30; Sa 10:45", "indoor": "yes", "nsi_id": "unitedstatespostalservice-a77078", "operator": "United States Postal Service", "operator:short": "USPS", "operator:type": "public", "operator:wikidata": "Q668687", "ref": "7244000002"}, "type": "Feature"}
{"geometry": {"coordinates": [-91.251049047, 36.0080512455], "type": "Point"}, "id": "akQwXSMoh4gva-Pk3Y9RaE47iB0=", "properties": {"@source_uri": "https://tools.usps.com/UspsToolsRestServices/rest/POLocator/findLocations", "@spider": "usps_collection_boxes", "addr:city": "LYNN", "addr:country": "US", "addr:postcode": "72440", "addr:state": "AR", "addr:street_address": "66 N HIGHWAY 25", "amenity": "post_box", "collection_times": "Mo-Fr 12:00; Sa 10:45", "indoor": "yes", "nsi_id": "unitedstatespostalservice-a77078", "operator": "United States Postal Service", "operator:short": "USPS", "operator:type": "public", "operator:wikidata": "Q668687", "ref": "7244000003"}, "type": "Feature"}
{"geometry": {"coordinates": [-90.3907408986, 36.4348875109], "type": "Point"}, "id": "TGcx056zg_x5B0u5fcFRL-hnrNI=", "properties": {"@source_uri": "https://tools.usps.com/UspsToolsRestServices/rest/POLocator/findLocations", "@spider": "usps_collection_boxes", "addr:city": "MCDOUGAL", "addr:country": "US", "addr:postcode": "72441", "addr:state": "AR", "addr:street_address": "251 HIGHWAY 62", "amenity": "post_box", "collection_times": "Mo-Fr 12:00; Sa 10:30", "nsi_id": "unitedstatespostalservice-a77078", "operator": "United States Postal Service", "operator:short": "USPS", "operator:type": "public", "operator:wikidata": "Q668687", "ref": "7244100001"}, "type": "Feature"}
{"geometry": {"coordinates": [-90.3907408986, 36.4348875109], "type": "Point"}, "id": "rLWLlyxi3yNcbsZ12tfzeBt_Otk=", "properties": {"@source_uri": "https://tools.usps.com/UspsToolsRestServices/rest/POLocator/findLocations", "@spider": "usps_collection_boxes", "addr:city": "MCDOUGAL", "addr:country": "US", "addr:postcode": "72441", "addr:state": "AR", "addr:street_address": "251 HIGHWAY 62", "amenity": "post_box", "collection_times": "Mo-Fr 12:00; Sa 10:30", "indoor": "yes", "nsi_id": "unitedstatespostalservice-a77078", "operator": "United States Postal Service", "operator:short": "USPS", "operator:type": "public", "operator:wikidata": "Q668687", "ref": "7244100002"}, "type": "Feature"}
{"geometry": {"coordinates": [-90.3907408986, 36.4348875109], "type": "Point"}, "id": "hCR5KZKyXLxu2ghquG_ZiL24PXQ=", "properties": {"@source_uri": "https://tools.usps.com/UspsToolsRestServices/rest/POLocator/findLocations", "@spider": "usps_collection_boxes", "addr:city": "MCDOUGAL", "addr:country": "US", "addr:postcode": "72441", "addr:state": "AR", "addr:street_address": "251 HIGHWAY 62", "amenity": "post_box", "collection_times": "Mo-Fr 12:30; Sa 10:30", "indoor": "yes", "note": "ON 12/24 AND 12/31, THIS BOX MAY BE COLLECTED AS EARLY AS 12 NOON.", "nsi_id": "unitedstatespostalservice-a77078", "operator": "United States Postal Service", "operator:short": "USPS", "operator:type": "public", "operator:wikidata": "Q668687", "ref": "7244100003"}, "type": "Feature"}
{"geometry": {"coordinates": [-90.1641307509, 35.8785927036], "type": "Point"}, "id": "znou7a2tq0hgxsmxnERuPA-rnyE=", "properties": {"@source_uri": "https://tools.usps.com/UspsToolsRestServices/rest/POLocator/findLocations", "@spider": "usps_collection_boxes", "addr:city": "MANILA", "addr:country": "US", "addr:postcode": "72442", "addr:state": "AR", "addr:street_address": "100 S DUNKIN ST", "amenity": "post_box", "collection_times": "Mo-Fr 16:00; Sa 10:00", "indoor": "yes", "note": "ON 12/24 AND 12/31, THIS BOX MAY BE COLLECTED AS EARLY AS 12 NOON.", "nsi_id": "unitedstatespostalservice-a77078", "operator": "United States Postal Service", "operator:short": "USPS", "operator:type": "public", "operator:wikidata": "Q668687", "ref": "7244200003"}, "type": "Feature"}
{"geometry": {"coordinates": [-90.1641307509, 35.8785927036], "type": "Point"}, "id": "08_I0qFsO3xco9LR8mKV4iu-LxI=", "properties": {"@source_uri": "https://tools.usps.com/UspsToolsRestServices/rest/POLocator/findLocations", "@spider": "usps_collection_boxes", "addr:city": "MANILA", "addr:country": "US", "addr:postcode": "72442", "addr:state": "AR", "addr:street_address": "100 S DUNKIN ST", "amenity": "post_box", "collection_times": "Mo-Fr 16:00; Sa 10:00", "note": "ON 12/24 AND 12/31, THIS BOX MAY BE COLLECTED AS EARLY AS 12 NOON.", "nsi_id": "unitedstatespostalservice-a77078", "operator": "United States Postal Service", "operator:short": "USPS", "operator:type": "public", "operator:wikidata": "Q668687", "ref": "7244200004"}, "type": "Feature"}
{"geometry": {"coordinates": [-90.1641307509, 35.8785927036], "type": "Point"}, "id": "5OcqzPvyKzzhY2XTgZo8rHY9b00=", "properties": {"@source_uri": "https://tools.usps.com/UspsToolsRestServices/rest/POLocator/findLocations", "@spider": "usps_collection_boxes", "addr:city": "MANILA", "addr:country": "US", "addr:postcode": "72442", "addr:state": "AR", "addr:street_address": "100 S DUNKIN ST", "amenity": "post_box", "collection_times": "Mo-Fr 16:00; Sa 10:00", "indoor": "yes", "note": "ON 12/24 AND 12/31, THIS BOX MAY BE COLLECTED AS EARLY AS 12 NOON.", "nsi_id": "unitedstatespostalservice-a77078", "operator": "United States Postal Service", "operator:short": "USPS", "operator:type": "public", "operator:wikidata": "Q668687", "ref": "7244200006"}, "type": "Feature"}
{"geometry": {"coordinates": [-90.1641307509, 35.8785927036], "type": "Point"}, "id": "ZgbHrUwYv2F4njS_ZEPL0uPQ1B0=", "properties": {"@source_uri": "https://tools.usps.com/UspsToolsRestServices/rest/POLocator/findLocations", "@spider": "usps_collection_boxes", "addr:city": "MANILA", "addr:country": "US", "addr:postcode": "72442", "addr:state": "AR", "addr:street_address": "100 S DUNKIN ST", "amenity": "post_box", "collection_times": "Mo-Fr 16:00", "indoor": "yes", "note": "ON 12/24 AND 12/31, THIS BOX MAY BE COLLECTED AS EARLY AS 12 NOON.", "nsi_id": "unitedstatespostalservice-a77078", "operator": "United States Postal Service", "operator:short": "USPS", "operator:type": "public", "operator:wikidata": "Q668687", "ref": "7244200009"}, "type": "Feature"}
{"geometry": {"coordinates": [-90.3848240359, 36.1866730043], "type": "Point"}, "id": "9KRKBre85O6YbAX1LOVI-BlAW20=", "properties": {"@source_uri": "https://tools.usps.com/UspsToolsRestServices/rest/POLocator/findLocations", "@spider": "usps_collection_boxes", "addr:city": "MARMADUKE", "addr:country": "US", "addr:postcode": "72443", "addr:state": "AR", "addr:street_address": "11436 HIGHWAY 49 N", "amenity": "post_box", "collection_times": "Mo-Fr 16:00; Sa 09:00", "note": "ON 12/24 AND 12/31, THIS BOX MAY BE COLLECTED AS EARLY AS 12 NOON.", "nsi_id": "unitedstatespostalservice-a77078", "operator": "United States Postal Service", "operator:short": "USPS", "operator:type": "public", "operator:wikidata": "Q668687", "ref": "7244300001"}, "type": "Feature"}
{"geometry": {"coordinates": [-90.3848240359, 36.1866730043], "type": "Point"}, "id": "aBklpM-jP-tpMoAnxBD9fe5ogKo=", "properties": {"@source_uri": "https://tools.usps.com/UspsToolsRestServices/rest/POLocator/findLocations", "@spider": "usps_collection_boxes", "addr:city": "MARMADUKE", "addr:country": "US", "addr:postcode": "72443", "addr:state": "AR", "addr:street_address": "11436 HIGHWAY 49 N", "amenity": "post_box", "collection_times": "Mo-Fr 16:15; Sa 09:00", "indoor": "yes", "note": "ON 12/24 AND 12/31, THIS BOX MAY BE COLLECTED AS EARLY AS 12 NOON.", "nsi_id": "unitedstatespostalservice-a77078", "operator": "United States Postal Service", "operator:short": "USPS", "operator:type": "public", "operator:wikidata": "Q668687", "ref": "7244300002"}, "type": "Feature"}
{"geometry": {"coordinates": [-90.3848240359, 36.1866730043], "type": "Point"}, "id": "QqWnddBsA6ycPqk4e-_d6NQEUTc=", "properties": {"@source_uri": "https://tools.usps.com/UspsToolsRestServices/rest/POLocator/findLocations", "@spider": "usps_collection_boxes", "addr:city": "MARMADUKE", "addr:country": "US", "addr:postcode": "72443", "addr:state": "AR", "addr:street_address": "11436 HIGHWAY 49 N", "amenity": "post_box", "collection_times": "Mo-Fr 16:00; Sa 09:00", "indoor": "yes", "note": "ON 12/24 AND 12/31, THIS BOX MAY BE COLLECTED AS EARLY AS 12 NOON.", "nsi_id": "unitedstatespostalservice-a77078", "operator": "United States Postal Service", "operator:short": "USPS", "operator:type": "public", "operator:wikidata": "Q668687", "ref": "7244300004"}, "type": "Feature"}
{"geometry": {"coordinates": [-90.8951717945, 36.4216345066], "type": "Point"}, "id": "b6mmatfytXcOfWvnLGhI9nvmM6U=", "properties": {"@source_uri": "https://tools.usps.com/UspsToolsRestServices/rest/POLocator/findLocations", "@spider": "usps_collection_boxes", "addr:city": "MAYNARD", "addr:country": "US", "addr:postcode": "72444", "addr:state": "AR", "addr:street_address": "132 OLD MILITARY RD", "amenity": "post_box", "collection_times": "Mo-Fr 16:00; Sa 11:00", "note": "ON 12/24 AND 12/31, THIS BOX MAY BE COLLECTED AS EARLY AS 12 NOON.", "nsi_id": "unitedstatespostalservice-a77078", "operator": "United States Postal Service", "operator:short": "USPS", "operator:type": "public", "operator:wikidata": "Q668687", "ref": "7244400001"}, "type": "Feature"}
{"geometry": {"coordinates": [-90.8951717945, 36.4216345066], "type": "Point"}, "id": "pkP5p1_Stxj-hZ8qeikmqF3IFt0=", "properties": {"@source_uri": "https://tools.usps.com/UspsToolsRestServices/rest/POLocator/findLocations", "@spider": "usps_collection_boxes", "addr:city": "MAYNARD", "addr:country": "US", "addr:postcode": "72444", "addr:state": "AR", "addr:street_address": "132 OLD MILITARY RD", "amenity": "post_box", "collection_times": "Mo-Fr 15:00; Sa 11:00", "indoor": "yes", "note": "ON 12/24 AND 12/31, THIS BOX MAY BE COLLECTED AS EARLY AS 12 NOON.", "nsi_id": "unitedstatespostalservice-a77078", "operator": "United States Postal Service", "operator:short": "USPS", "operator:type": "public", "operator:wikidata": "Q668687", "ref": "7244400002"}, "type": "Feature"}
{"geometry": {"coordinates": [-90.8951717945, 36.4216345066], "type": "Point"}, "id": "0Er696cgEvCHzofDjifUaRNZjCk=", "properties": {"@source_uri": "https://tools.usps.com/UspsToolsRestServices/rest/POLocator/findLocations", "@spider": "usps_collection_boxes", "addr:city": "MAYNARD", "addr:country": "US", "addr:postcode": "72444", "addr:state": "AR", "addr:street_address": "132 OLD MILITARY RD", "amenity": "post_box", "collection_times": "Mo-Fr 15:00; Sa 11:00", "indoor": "yes", "note": "ON 12/24 AND 12/31, THIS BOX MAY BE COLLECTED AS EARLY AS 12 NOON.", "nsi_id": "unitedstatespostalservice-a77078", "operator": "United States Postal Service", "operator:short": "USPS", "operator:type": "public", "operator:wikidata": "Q668687", "ref": "7244400003"}, "type": "Feature"}
{"geometry": {"coordinates": [-90.8951717945, 36.4216345066], "type": "Point"}, "id": "0TZFFinNtv2ojNx27rBJj1Jsbj4=", "properties": {"@source_uri": "https://tools.usps.com/UspsToolsRestServices/rest/POLocator/findLocations", "@spider": "usps_collection_boxes", "addr:city": "MAYNARD", "addr:country": "US", "addr:postcode": "72444", "addr:state": "AR", "addr:street_address": "132 OLD MILITARY RD", "amenity": "post_box", "collection_times": "Mo-Fr 15:00; Sa 10:00", "indoor": "yes", "note": "ON 12/24 AND 12/31, THIS BOX MAY BE COLLECTED AS EARLY AS 12 NOON.", "nsi_id": "unitedstatespostalservice-a77078", "operator": "United States Postal Service", "operator:short": "USPS", "operator:type": "public", "operator:wikidata": "Q668687", "ref": "7244400005"}, "type": "Feature"}
{"geometry": {"coordinates": [-91.0295405067, 35.9736514648], "type": "Point"}, "id": "hyXNRsK-pU09W5YmXX7jFTj2_s4=", "properties": {"@source_uri": "https://tools.usps.com/UspsToolsRestServices/rest/POLocator/findLocations", "@spider": "usps_collection_boxes", "addr:city": "MINTURN", "addr:country": "US", "addr:postcode": "72445", "addr:state": "AR", "addr:street_address": "111 W LAUREL ST", "amenity": "post_box", "collection_times": "Mo-Fr 12:30; Sa 11:30", "note": "ON 12/24 AND 12/31, THIS BOX MAY BE COLLECTED AS EARLY AS 12 NOON.", "nsi_id": "unitedstatespostalservice-a77078", "operator": "United States Postal Service", "operator:short": "USPS", "operator:type": "public", "operator:wikidata": "Q668687", "ref": "7244500001"}, "type": "Feature"}
{"geometry": {"coordinates": [-91.0295405067, 35.9736514648], "type": "Point"}, "id": "6v892DYILjJDn_PqVRSBQsgxweA=", "properties": {"@source_uri": "https://tools.usps.com/UspsToolsRestServices/rest/POLocator/findLocations", "@spider": "usps_collection_boxes", "addr:city": "MINTURN", "addr:country": "US", "addr:postcode": "72445", "addr:state": "AR", "addr:street_address": "111 W LAUREL ST", "amenity": "post_box", "collection_times": "Mo-Fr 12:30; Sa 11:30", "indoor": "yes", "note": "ON 12/24 AND 12/31, THIS BOX MAY BE COLLECTED AS EARLY AS 12 NOON.", "nsi_id": "unitedstatespostalservice-a77078", "operator": "United States Postal Service", "operator:short": "USPS", "operator:type": "public", "operator:wikidata": "Q668687", "ref": "7244500002"}, "type": "Feature"}
{"geometry": {"coordinates": [-91.0295405067, 35.9736514648], "type": "Point"}, "id": "G7zPwpIflRD-o2JYsAvUldximfc=", "properties": {"@source_uri": "https://tools.usps.com/UspsToolsRestServices/rest/POLocator/findLocations", "@spider": "usps_collection_boxes", "addr:city": "MINTURN", "addr:country": "US", "addr:postcode": "72445", "addr:state": "AR", "addr:street_address": "111 W LAUREL ST", "amenity": "post_box", "collection_times": "Mo-Fr 12:30; Sa 11:30", "indoor": "yes", "note": "ON 12/24 AND 12/31, THIS BOX MAY BE COLLECTED AS EARLY AS 12 NOON.", "nsi_id": "unitedstatespostalservice-a77078", "operator": "United States Postal Service", "operator:short": "USPS", "operator:type": "public", "operator:wikidata": "Q668687", "ref": "7244500003"}, "type": "Feature"}
{"geometry": {"coordinates": [-90.3436507599, 35.8906494492], "type": "Point"}, "id": "Z3KoUKZ8SnLwq5ROJpC4p5YBaRw=", "properties": {"@source_uri": "https://tools.usps.com/UspsToolsRestServices/rest/POLocator/findLocations", "@spider": "usps_collection_boxes", "addr:city": "MONETTE", "addr:country": "US", "addr:postcode": "72447", "addr:state": "AR", "addr:street_address": "105 N NANCE ST", "amenity": "post_box", "collection_times": "Mo-Fr 16:00; Sa 10:00", "note": "ON 12/24 AND 12/31, THIS BOX MAY BE COLLECTED AS EARLY AS 12 NOON.", "nsi_id": "unitedstatespostalservice-a77078", "operator": "United States Postal Service", "operator:short": "USPS", "operator:type": "public", "operator:wikidata": "Q668687", "ref": "7244700001"}, "type": "Feature"}
{"geometry": {"coordinates": [-90.3436507599, 35.8906494492], "type": "Point"}, "id": "Vb6OVVrHH2-XX3nW34Dtfl2al64=", "properties": {"@source_uri": "https://tools.usps.com/UspsToolsRestServices/rest/POLocator/findLocations", "@spider": "usps_collection_boxes", "addr:city": "MONETTE", "addr:country": "US", "addr:postcode": "72447", "addr:state": "AR", "addr:street_address": "105 N NANCE ST", "amenity": "post_box", "collection_times": "Mo-Fr 16:00; Sa 10:00", "indoor": "yes", "note": "ON 12/24 AND 12/31, THIS BOX MAY BE COLLECTED AS EARLY AS 12 NOON.", "nsi_id": "unitedstatespostalservice-a77078", "operator": "United States Postal Service", "operator:short": "USPS", "operator:type": "public", "operator:wikidata": "Q668687", "ref": "7244700002"}, "type": "Feature"}
{"geometry": {"coordinates": [-90.3436507599, 35.8906494492], "type": "Point"}, "id": "jC5BP8j1bfGgOULcvWs1Ls9hl-U=", "properties": {"@source_uri": "https://tools.usps.com/UspsToolsRestServices/rest/POLocator/findLocations", "@spider": "usps_collection_boxes", "addr:city": "MONETTE", "addr:country": "US", "addr:postcode": "72447", "addr:state": "AR", "addr:street_address": "105 N NANCE ST", "amenity": "post_box", "collection_times": "Mo-Fr 16:00", "indoor": "yes", "note": "ON 12/24 AND 12/31, THIS BOX MAY BE COLLECTED AS EARLY AS 12 NOON.", "nsi_id": "unitedstatespostalservice-a77078", "operator": "United States Postal Service", "operator:short": "USPS", "operator:type": "public", "operator:wikidata": "Q668687", "ref": "7244700004"}, "type": "Feature"}
{"geometry": {"coordinates": [-90.8153928401, 36.1686372786], "type": "Point"}, "id": "PtP--NX_B6TLjxc5aqdXKqlhPNI=", "properties": {"@source_uri": "https://tools.usps.com/UspsToolsRestServices/rest/POLocator/findLocations", "@spider": "usps_collection_boxes", "addr:city": "O'KEAN", "addr:country": "US", "addr:postcode": "72449", "addr:state": "AR", "addr:street_address": "2233 N HIGHWAY 34", "amenity": "post_box", "collection_times": "Mo-Fr 14:00; Sa 09:00", "note": "ON 12/24 AND 12/31, THIS BOX MAY BE COLLECTED AS EARLY AS 12 NOON.", "nsi_id": "unitedstatespostalservice-a77078", "operator": "United States Postal Service", "operator:short": "USPS", "operator:type": "public", "operator:wikidata": "Q668687", "ref": "7244900001"}, "type": "Feature"}
{"geometry": {"coordinates": [-90.8153928401, 36.1686372786], "type": "Point"}, "id": "tAACd9SxPJih28oT_fDXpDDbwUs=", "properties": {"@source_uri": "https://tools.usps.com/UspsToolsRestServices/rest/POLocator/findLocations", "@spider": "usps_collection_boxes", "addr:city": "O'KEAN", "addr:country": "US", "addr:postcode": "72449", "addr:state": "AR", "addr:street_address": "2233 N HIGHWAY 34", "amenity": "post_box", "collection_times": "Mo-Fr 14:00; Sa 09:00", "indoor": "yes", "note": "ON 12/24 AND 12/31, THIS BOX MAY BE COLLECTED AS EARLY AS 12 NOON.", "nsi_id": "unitedstatespostalservice-a77078", "operator": "United States Postal Service", "operator:short": "USPS", "operator:type": "public", "operator:wikidata": "Q668687", "ref": "7244900002"}, "type": "Feature"}
{"geometry": {"coordinates": [-90.8153928401, 36.1686372786], "type": "Point"}, "id": "qlmy2NKfkzzIQAs9lLCODl_YhMA=", "properties": {"@source_uri": "https://tools.usps.com/UspsToolsRestServices/rest/POLocator/findLocations", "@spider": "usps_collection_boxes", "addr:city": "O'KEAN", "addr:country": "US", "addr:postcode": "72449", "addr:state": "AR", "addr:street_address": "2233 N HIGHWAY 34", "amenity": "post_box", "collection_times": "Mo-Fr 14:00; Sa 09:30", "indoor": "yes", "note": "ON 12/24 AND 12/31, THIS BOX MAY BE COLLECTED AS EARLY AS 12 NOON.", "nsi_id": "unitedstatespostalservice-a77078", "operator": "United States Postal Service", "operator:short": "USPS", "operator:type": "public", "operator:wikidata": "Q668687", "ref": "7244900003"}, "type": "Feature"}
{"geometry": {"coordinates": [-90.5108792096, 36.0560486227], "type": "Point"}, "id": "32DVRmza65ggj-Sj0YJHegWx7zU=", "properties": {"@source_uri": "https://tools.usps.com/UspsToolsRestServices/rest/POLocator/findLocations", "@spider": "usps_collection_boxes", "addr:city": "PARAGOULD", "addr:country": "US", "addr:postcode": "72450", "addr:state": "AR", "addr:street_address": "1711 PARAGOULD PLZ", "amenity": "post_box", "collection_times": "Mo-Sa 09:00", "nsi_id": "unitedstatespostalservice-a77078", "operator": "United States Postal Service", "operator:short": "USPS", "operator:type": "public", "operator:wikidata": "Q668687", "ref": "7245000019"}, "type": "Feature"}
{"geometry": {"coordinates": [-90.4977688669, 36.0525411296], "type": "Point"}, "id": "Ga7HIJz08Z0aQxRzXuuxVDMoDCU=", "properties": {"@source_uri": "https://tools.usps.com/UspsToolsRestServices/rest/POLocator/findLocations", "@spider": "usps_collection_boxes", "addr:city": "PARAGOULD", "addr:country": "US", "addr:postcode": "72450", "addr:state": "AR", "addr:street_address": "900 W KINGS HWY", "amenity": "post_box", "collection_times": "Mo-Sa 14:30", "note": "ON 12/24 AND 12/31, THIS BOX MAY BE COLLECTED AS EARLY AS 12 NOON.", "nsi_id": "unitedstatespostalservice-a77078", "operator": "United States Postal Service", "operator:short": "USPS", "operator:type": "public", "operator:wikidata": "Q668687", "ref": "7245000020"}, "type": "Feature"}
{"geometry": {"coordinates": [-90.4877653674, 36.0564705665], "type": "Point"}, "id": "TDaxu8Fviocnu1p4x_9HMtJHFns=", "properties": {"@source_uri": "https://tools.usps.com/UspsToolsRestServices/rest/POLocator/findLocations", "@spider": "usps_collection_boxes", "addr:city": "PARAGOULD", "addr:country": "US", "addr:postcode": "72450", "addr:state": "AR", "addr:street_address": "201 W COURT ST", "amenity": "post_box", "collection_times": "Mo-Fr 16:40; Sa 16:00", "note": "ON 12/24 AND 12/31, THIS BOX MAY BE COLLECTED AS EARLY AS 12 NOON.", "nsi_id": "unitedstatespostalservice-a77078", "operator": "United States Postal Service", "operator:short": "USPS", "operator:type": "public", "operator:wikidata": "Q668687", "ref": "7245000024"}, "type": "Feature"}
{"geometry": {"coordinates": [-90.4877653674, 36.0564705665], "type": "Point"}, "id": "zJ5WFM0b8OP5iR-8DPc84VWFfAU=", "properties": {"@source_uri": "https://tools.usps.com/UspsToolsRestServices/rest/POLocator/findLocations", "@spider": "usps_collection_boxes", "addr:city": "PARAGOULD", "addr:country": "US", "addr:postcode": "72450", "addr:state": "AR", "addr:street_address": "201 W COURT ST", "amenity": "post_box", "collection_times": "Mo-Fr 16:40; Sa 16:00", "indoor": "yes", "note": "ON 12/24 AND 12/31, THIS BOX MAY BE COLLECTED AS EARLY AS 12 NOON.", "nsi_id": "unitedstatespostalservice-a77078", "operator": "United States Postal Service", "operator:short": "USPS", "operator:type": "public", "operator:wikidata": "Q668687", "ref": "7245000025"}, "type": "Feature"}
{"geometry": {"coordinates": [-90.5267832943, 36.0605379688], "type": "Point"}, "id": "6LqBbJQ6RScsapuXanEWzNmX-OQ=", "properties": {"@source_uri": "https://tools.usps.com/UspsToolsRestServices/rest/POLocator/findLocations", "@spider": "usps_collection_boxes", "addr:city": "PARAGOULD", "addr:country": "US", "addr:postcode": "72450", "addr:state": "AR", "addr:street_address": "3005 W KINGSHIGHWAY", "amenity": "post_box", "collection_times": "Mo-Sa 09:00", "nsi_id": "unitedstatespostalservice-a77078", "operator": "United States Postal Service", "operator:short": "USPS", "operator:type": "public", "operator:wikidata": "Q668687", "ref": "7245000033"}, "type": "Feature"}
{"geometry": {"coordinates": [-90.4877653674, 36.0564705665], "type": "Point"}, "id": "qdKHnfNR8gve3jc7fP-T8Ilfd8Y=", "properties": {"@source_uri": "https://tools.usps.com/UspsToolsRestServices/rest/POLocator/findLocations", "@spider": "usps_collection_boxes", "addr:city": "PARAGOULD", "addr:country": "US", "addr:postcode": "72450", "addr:state": "AR", "addr:street_address": "201 W COURT ST", "amenity": "post_box", "collection_times": "Mo-Fr 16:40; Sa 16:00", "indoor": "yes", "note": "ON 12/24 AND 12/31, THIS BOX MAY BE COLLECTED AS EARLY AS 12 NOON.", "nsi_id": "unitedstatespostalservice-a77078", "operator": "United States Postal Service", "operator:short": "USPS", "operator:type": "public", "operator:wikidata": "Q668687", "ref": "7245000035"}, "type": "Feature"}
{"geometry": {"coordinates": [-90.4877653674, 36.0564705665], "type": "Point"}, "id": "B6duqHmTZeYKFKDd4Ph1uEpxDgw=", "properties": {"@source_uri": "https://tools.usps.com/UspsToolsRestServices/rest/POLocator/findLocations", "@spider": "usps_collection_boxes", "addr:city": "PARAGOULD", "addr:country": "US", "addr:postcode": "72450", "addr:state": "AR", "addr:street_address": "201 W COURT ST", "amenity": "post_box", "collection_times": "Mo-Fr 16:30; Sa 10:30", "indoor": "yes", "note": "ON 12/24 AND 12/31, THIS BOX MAY BE COLLECTED AS EARLY AS 12 NOON.", "nsi_id": "unitedstatespostalservice-a77078", "operator": "United States Postal Service", "operator:short": "USPS", "operator:type": "public", "operator:wikidata": "Q668687", "ref": "7245000038"}, "type": "Feature"}
{"geometry": {"coordinates": [-90.6640668822, 36.2790023844], "type": "Point"}, "id": "WZBN_UZHKCYoBvsYN5zK-tfX9UM=", "properties": {"@source_uri": "https://tools.usps.com/UspsToolsRestServices/rest/POLocator/findLocations", "@spider": "usps_collection_boxes", "addr:city": "PEACH ORCHARD", "addr:country": "US", "addr:postcode": "72453", "addr:state": "AR", "addr:street_address": "123 SW ELM ST", "amenity": "post_box", "collection_times": "Mo-Fr 09:30; Sa 10:00", "indoor": "yes", "nsi_id": "unitedstatespostalservice-a77078", "operator": "United States Postal Service", "operator:short": "USPS", "operator:type": "public", "operator:wikidata": "Q668687", "ref": "7245300002"}, "type": "Feature"}
{"geometry": {"coordinates": [-90.6640668822, 36.2790023844], "type": "Point"}, "id": "ffapxW3uZVCnR8w_2NojPfd3KFA=", "properties": {"@source_uri": "https://tools.usps.com/UspsToolsRestServices/rest/POLocator/findLocations", "@spider": "usps_collection_boxes", "addr:city": "PEACH ORCHARD", "addr:country": "US", "addr:postcode": "72453", "addr:state": "AR", "addr:street_address": "123 SW ELM ST", "amenity": "post_box", "collection_times": "Mo-Fr 10:00; Sa 10:15", "indoor": "yes", "nsi_id": "unitedstatespostalservice-a77078", "operator": "United States Postal Service", "operator:short": "USPS", "operator:type": "public", "operator:wikidata": "Q668687", "ref": "7245300003"}, "type": "Feature"}
{"geometry": {"coordinates": [-90.1928382135, 36.3833247248], "type": "Point"}, "id": "fwxb3xQWMFfRoZPt0xkMMfLifGU=", "properties": {"@source_uri": "https://tools.usps.com/UspsToolsRestServices/rest/POLocator/findLocations", "@spider": "usps_collection_boxes", "addr:city": "PIGGOTT", "addr:country": "US", "addr:postcode": "72454", "addr:state": "AR", "addr:street_address": "116 N 3RD AVE", "amenity": "post_box", "collection_times": "Mo-Fr 16:00; Sa 15:15", "note": "ON 12/24 AND 12/31, THIS BOX MAY BE COLLECTED AS EARLY AS 12 NOON.", "nsi_id": "unitedstatespostalservice-a77078", "operator": "United States Postal Service", "operator:short": "USPS", "operator:type": "public", "operator:wikidata": "Q668687", "ref": "7245400001"}, "type": "Feature"}
{"geometry": {"coordinates": [-90.1928382135, 36.3833247248], "type": "Point"}, "id": "xOMFLHe9X_ia1R_1Nn5YxQ4j69Q=", "properties": {"@source_uri": "https://tools.usps.com/UspsToolsRestServices/rest/POLocator/findLocations", "@spider": "usps_collection_boxes", "addr:city": "PIGGOTT", "addr:country": "US", "addr:postcode": "72454", "addr:state": "AR", "addr:street_address": "116 N 3RD AVE", "amenity": "post_box", "collection_times": "Mo-Fr 16:00; Sa 15:15", "indoor": "yes", "note": "ON 12/24 AND 12/31, THIS BOX MAY BE COLLECTED AS EARLY AS 12 NOON.", "nsi_id": "unitedstatespostalservice-a77078", "operator": "United States Postal Service", "operator:short": "USPS", "operator:type": "public", "operator:wikidata": "Q668687", "ref": "7245400006"}, "type": "Feature"}
{"geometry": {"coordinates": [-90.1928382135, 36.3833247248], "type": "Point"}, "id": "Doa-7Zq1YHE0h8pR4Nh2_vlnYd4=", "properties": {"@source_uri": "https://tools.usps.com/UspsToolsRestServices/rest/POLocator/findLocations", "@spider": "usps_collection_boxes", "addr:city": "PIGGOTT", "addr:country": "US", "addr:postcode": "72454", "addr:state": "AR", "addr:street_address": "116 N 3RD AVE", "amenity": "post_box", "collection_times": "Mo-Fr 16:00; Sa 11:30", "indoor": "yes", "note": "ON 12/24 AND 12/31, THIS BOX MAY BE COLLECTED AS EARLY AS 12 NOON.", "nsi_id": "unitedstatespostalservice-a77078", "operator": "United States Postal Service", "operator:short": "USPS", "operator:type": "public", "operator:wikidata": "Q668687", "ref": "7245400009"}, "type": "Feature"}
{"geometry": {"coordinates": [-90.9746668539, 36.2627298833], "type": "Point"}, "id": "8yfx_hUshsrFszEQtuEDXfkDDBY=", "properties": {"@source_uri": "https://tools.usps.com/UspsToolsRestServices/rest/POLocator/findLocations", "@spider": "usps_collection_boxes", "addr:city": "POCAHONTAS", "addr:country": "US", "addr:postcode": "72455", "addr:state": "AR", "addr:street_address": "501 BROADWAY ST", "amenity": "post_box", "collection_times": "Mo-Fr 16:45; Sa 16:00", "note": "ON 12/24 AND 12/31, THIS BOX MAY BE COLLECTED AS EARLY AS 12 NOON.", "nsi_id": "unitedstatespostalservice-a77078", "operator": "United States Postal Service", "operator:short": "USPS", "operator:type": "public", "operator:wikidata": "Q668687", "ref": "7245500013"}, "type": "Feature"}
{"geometry": {"coordinates": [-90.9591389635, 36.2493134878], "type": "Point"}, "id": "nZTuLC5L9Rph5xvvt4mO5xVHfV8=", "properties": {"@source_uri": "https://tools.usps.com/UspsToolsRestServices/rest/POLocator/findLocations", "@spider": "usps_collection_boxes", "addr:city": "POCAHONTAS", "addr:country": "US", "addr:postcode": "72455", "addr:state": "AR", "addr:street_address": "1612 HIGHWAY 67 S", "amenity": "post_box", "collection_times": "Mo-Fr 14:00; Sa 12:15", "note": "ON 12/24 AND 12/31, THIS BOX MAY BE COLLECTED AS EARLY AS 12 NOON.", "nsi_id": "unitedstatespostalservice-a77078", "operator": "United States Postal Service", "operator:short": "USPS", "operator:type": "public", "operator:wikidata": "Q668687", "ref": "7245500016"}, "type": "Feature"}
{"geometry": {"coordinates": [-90.9746668539, 36.2627298833], "type": "Point"}, "id": "Lqy0xW5ywM65nCiUbFEasSL7TLw=", "properties": {"@source_uri": "https://tools.usps.com/UspsToolsRestServices/rest/POLocator/findLocations", "@spider": "usps_collection_boxes", "addr:city": "POCAHONTAS", "addr:country": "US", "addr:postcode": "72455", "addr:state": "AR", "addr:street_address": "501 BROADWAY ST", "amenity": "post_box", "collection_times": "Mo-Fr 16:45; Sa 16:00", "indoor": "yes", "note": "ON 12/24 AND 12/31, THIS BOX MAY BE COLLECTED AS EARLY AS 12 NOON.", "nsi_id": "unitedstatespostalservice-a77078", "operator": "United States Postal Service", "operator:short": "USPS", "operator:type": "public", "operator:wikidata": "Q668687", "ref": "7245500025"}, "type": "Feature"}
{"geometry": {"coordinates": [-90.9746668539, 36.2627298833], "type": "Point"}, "id": "35_avyLQrqiPZfYC5y3QmMbol7k=", "properties": {"@source_uri": "https://tools.usps.com/UspsToolsRestServices/rest/POLocator/findLocations", "@spider": "usps_collection_boxes", "addr:city": "POCAHONTAS", "addr:country": "US", "addr:postcode": "72455", "addr:state": "AR", "addr:street_address": "501 BROADWAY ST", "amenity": "post_box", "collection_times": "Mo-Fr 16:45; Sa 16:00", "indoor": "yes", "note": "ON 12/24 AND 12/31, THIS BOX MAY BE COLLECTED AS EARLY AS 12 NOON.", "nsi_id": "unitedstatespostalservice-a77078", "operator": "United States Postal Service", "operator:short": "USPS", "operator:type": "public", "operator:wikidata": "Q668687", "ref": "7245500026"}, "type": "Feature"}
{"geometry": {"coordinates": [-90.9746668539, 36.2627298833], "type": "Point"}, "id": "xD-l8s5y_1vsoS4YXnKZTDVXYo0=", "properties": {"@source_uri": "https://tools.usps.com/UspsToolsRestServices/rest/POLocator/findLocations", "@spider": "usps_collection_boxes", "addr:city": "POCAHONTAS", "addr:country": "US", "addr:postcode": "72455", "addr:state": "AR", "addr:street_address": "501 BROADWAY ST", "amenity": "post_box", "collection_times": "Mo-Fr 16:45; Sa 16:00", "indoor": "yes", "note": "ON 12/24 AND 12/31, THIS BOX MAY BE COLLECTED AS EARLY AS 12 NOON.", "nsi_id": "unitedstatespostalservice-a77078", "operator": "United States Postal Service", "operator:short": "USPS", "operator:type": "public", "operator:wikidata": "Q668687", "ref": "7245500027"}, "type": "Feature"}
{"geometry": {"coordinates": [-90.9746668539, 36.2627298833], "type": "Point"}, "id": "vOdyLOz861WXxmbAUgfwZqyJoIc=", "properties": {"@source_uri": "https://tools.usps.com/UspsToolsRestServices/rest/POLocator/findLocations", "@spider": "usps_collection_boxes", "addr:city": "POCAHONTAS", "addr:country": "US", "addr:postcode": "72455", "addr:state": "AR", "addr:street_address": "501 BROADWAY ST", "amenity": "post_box", "collection_times": "Mo-Fr 16:30; Sa 12:00", "indoor": "yes", "note": "ON 12/24 AND 12/31, THIS BOX MAY BE COLLECTED AS EARLY AS 12 NOON.", "nsi_id": "unitedstatespostalservice-a77078", "operator": "United States Postal Service", "operator:short": "USPS", "operator:type": "public", "operator:wikidata": "Q668687", "ref": "7245500030"}, "type": "Feature"}
{"geometry": {"coordinates": [-90.9986715, 36.2813171], "type": "Point"}, "id": "NHBdJQY325tDViUog8SC7QXyhnw=", "properties": {"@source_uri": "https://tools.usps.com/UspsToolsRestServices/rest/POLocator/findLocations", "@spider": "usps_collection_boxes", "addr:city": "POCAHONTAS", "addr:country": "US", "addr:postcode": "72455", "addr:state": "AR", "addr:street_address": "201 S MARR ST", "amenity": "post_box", "collection_times": "Mo-Sa 09:00", "nsi_id": "unitedstatespostalservice-a77078", "operator": "United States Postal Service", "operator:short": "USPS", "operator:type": "public", "operator:wikidata": "Q668687", "ref": "7245500031"}, "type": "Feature"}
{"geometry": {"coordinates": [-90.2688886459, 36.4307805041], "type": "Point"}, "id": "AwCDe_N4_F6BzPYT21uJsMCfMNo=", "properties": {"@source_uri": "https://tools.usps.com/UspsToolsRestServices/rest/POLocator/findLocations", "@spider": "usps_collection_boxes", "addr:city": "POLLARD", "addr:country": "US", "addr:postcode": "72456", "addr:state": "AR", "addr:street_address": "311 FRONT ST", "amenity": "post_box", "collection_times": "Mo-Fr 14:00; Sa 11:00", "note": "ON 12/24 AND 12/31, THIS BOX MAY BE COLLECTED AS EARLY AS 12 NOON.", "nsi_id": "unitedstatespostalservice-a77078", "operator": "United States Postal Service", "operator:short": "USPS", "operator:type": "public", "operator:wikidata": "Q668687", "ref": "7245600001"}, "type": "Feature"}
{"geometry": {"coordinates": [-90.2688886459, 36.4307805041], "type": "Point"}, "id": "UZDr37sRlhaa-EIwLx0CLPAacew=", "properties": {"@source_uri": "https://tools.usps.com/UspsToolsRestServices/rest/POLocator/findLocations", "@spider": "usps_collection_boxes", "addr:city": "POLLARD", "addr:country": "US", "addr:postcode": "72456", "addr:state": "AR", "addr:street_address": "311 FRONT ST", "amenity": "post_box", "collection_times": "Mo-Fr 09:30; Sa 11:00", "indoor": "yes", "nsi_id": "unitedstatespostalservice-a77078", "operator": "United States Postal Service", "operator:short": "USPS", "operator:type": "public", "operator:wikidata": "Q668687", "ref": "7245600002"}, "type": "Feature"}
{"geometry": {"coordinates": [-90.2688886459, 36.4307805041], "type": "Point"}, "id": "xe-60-v_dpdRdxsoogNQP6FQju8=", "properties": {"@source_uri": "https://tools.usps.com/UspsToolsRestServices/rest/POLocator/findLocations", "@spider": "usps_collection_boxes", "addr:city": "POLLARD", "addr:country": "US", "addr:postcode": "72456", "addr:state": "AR", "addr:street_address": "311 FRONT ST", "amenity": "post_box", "collection_times": "Mo-Fr 10:00; Sa 11:45", "indoor": "yes", "nsi_id": "unitedstatespostalservice-a77078", "operator": "United States Postal Service", "operator:short": "USPS", "operator:type": "public", "operator:wikidata": "Q668687", "ref": "7245600003"}, "type": "Feature"}
{"geometry": {"coordinates": [-91.0680855955, 36.0865481878], "type": "Point"}, "id": "VxjiHUaIqC8v1Y3jCAc-qqrm2rY=", "properties": {"@source_uri": "https://tools.usps.com/UspsToolsRestServices/rest/POLocator/findLocations", "@spider": "usps_collection_boxes", "addr:city": "PORTIA", "addr:country": "US", "addr:postcode": "72457", "addr:state": "AR", "addr:street_address": "113 W FRONT ST", "amenity": "post_box", "collection_times": "Mo-Fr 11:30; Sa 09:45", "nsi_id": "unitedstatespostalservice-a77078", "operator": "United States Postal Service", "operator:short": "USPS", "operator:type": "public", "operator:wikidata": "Q668687", "ref": "7245700001"}, "type": "Feature"}
{"geometry": {"coordinates": [-91.0680855955, 36.0865481878], "type": "Point"}, "id": "bYTkvhDWWt_PaD-pfC0tRAonh8w=", "properties": {"@source_uri": "https://tools.usps.com/UspsToolsRestServices/rest/POLocator/findLocations", "@spider": "usps_collection_boxes", "addr:city": "PORTIA", "addr:country": "US", "addr:postcode": "72457", "addr:state": "AR", "addr:street_address": "113 W FRONT ST", "amenity": "post_box", "collection_times": "Mo-Fr 11:30; Sa 09:45", "indoor": "yes", "nsi_id": "unitedstatespostalservice-a77078", "operator": "United States Postal Service", "operator:short": "USPS", "operator:type": "public", "operator:wikidata": "Q668687", "ref": "7245700002"}, "type": "Feature"}
{"geometry": {"coordinates": [-91.0680855955, 36.0865481878], "type": "Point"}, "id": "uYyiNawsJgNSgwGRp64ECqtKbgI=", "properties": {"@source_uri": "https://tools.usps.com/UspsToolsRestServices/rest/POLocator/findLocations", "@spider": "usps_collection_boxes", "addr:city": "PORTIA", "addr:country": "US", "addr:postcode": "72457", "addr:state": "AR", "addr:street_address": "113 W FRONT ST", "amenity": "post_box", "collection_times": "Mo-Fr 12:00; Sa 09:45", "indoor": "yes", "nsi_id": "unitedstatespostalservice-a77078", "operator": "United States Postal Service", "operator:short": "USPS", "operator:type": "public", "operator:wikidata": "Q668687", "ref": "7245700004"}, "type": "Feature"}
{"geometry": {"coordinates": [-91.1208026535, 36.0823394666], "type": "Point"}, "id": "yFUTv38vhzGDV_FaCzoWiWrWQNw=", "properties": {"@source_uri": "https://tools.usps.com/UspsToolsRestServices/rest/POLocator/findLocations", "@spider": "usps_collection_boxes", "addr:city": "POWHATAN", "addr:country": "US", "addr:postcode": "72458", "addr:state": "AR", "addr:street_address": "4399 HIGHWAY 25", "amenity": "post_box", "collection_times": "Mo-Fr 16:15; Sa 09:15", "note": "ON 12/24 AND 12/31, THIS BOX MAY BE COLLECTED AS EARLY AS 12 NOON.", "nsi_id": "unitedstatespostalservice-a77078", "operator": "United States Postal Service", "operator:short": "USPS", "operator:type": "public", "operator:wikidata": "Q668687", "ref": "7245800001"}, "type": "Feature"}
{"geometry": {"coordinates": [-91.1208026535, 36.0823394666], "type": "Point"}, "id": "PJiZBOIWZte4LxsYcZJtorgn1uU=", "properties": {"@source_uri": "https://tools.usps.com/UspsToolsRestServices/rest/POLocator/findLocations", "@spider": "usps_collection_boxes", "addr:city": "POWHATAN", "addr:country": "US", "addr:postcode": "72458", "addr:state": "AR", "addr:street_address": "4399 HIGHWAY 25", "amenity": "post_box", "collection_times": "Mo-Fr 11:30; Sa 09:15", "indoor": "yes", "nsi_id": "unitedstatespostalservice-a77078", "operator": "United States Postal Service", "operator:short": "USPS", "operator:type": "public", "operator:wikidata": "Q668687", "ref": "7245800002"}, "type": "Feature"}
{"geometry": {"coordinates": [-91.1208026535, 36.0823394666], "type": "Point"}, "id": "1pyttmaLUU76Zh_X_l2GgTawxmE=", "properties": {"@source_uri": "https://tools.usps.com/UspsToolsRestServices/rest/POLocator/findLocations", "@spider": "usps_collection_boxes", "addr:city": "POWHATAN", "addr:country": "US", "addr:postcode": "72458", "addr:state": "AR", "addr:street_address": "4399 HIGHWAY 25", "amenity": "post_box", "collection_times": "Mo-Fr 12:00; Sa 09:00", "indoor": "yes", "nsi_id": "unitedstatespostalservice-a77078", "operator": "United States Postal Service", "operator:short": "USPS", "operator:type": "public", "operator:wikidata": "Q668687", "ref": "7245800003"}, "type": "Feature"}
{"geometry": {"coordinates": [-91.2596922304, 36.2389091613], "type": "Point"}, "id": "Ie7DlNVVT5ADoxxs3euSS75VCCU=", "properties": {"@source_uri": "https://tools.usps.com/UspsToolsRestServices/rest/POLocator/findLocations", "@spider": "usps_collection_boxes", "addr:city": "RAVENDEN", "addr:country": "US", "addr:postcode": "72459", "addr:state": "AR", "addr:street_address": "471 HIGHWAY 63 W", "amenity": "post_box", "collection_times": "Mo-Fr 11:30; Sa 09:30", "nsi_id": "unitedstatespostalservice-a77078", "operator": "United States Postal Service", "operator:short": "USPS", "operator:type": "public", "operator:wikidata": "Q668687", "ref": "7245900001"}, "type": "Feature"}
{"geometry": {"coordinates": [-91.2596922304, 36.2389091613], "type": "Point"}, "id": "7O-zVoCidwKX3uqIVw32VhPoST0=", "properties": {"@source_uri": "https://tools.usps.com/UspsToolsRestServices/rest/POLocator/findLocations", "@spider": "usps_collection_boxes", "addr:city": "RAVENDEN", "addr:country": "US", "addr:postcode": "72459", "addr:state": "AR", "addr:street_address": "471 HIGHWAY 63 W", "amenity": "post_box", "collection_times": "Mo-Fr 11:00; Sa 09:30", "indoor": "yes", "nsi_id": "unitedstatespostalservice-a77078", "operator": "United States Postal Service", "operator:short": "USPS", "operator:type": "public", "operator:wikidata": "Q668687", "ref": "7245900002"}, "type": "Feature"}
{"geometry": {"coordinates": [-91.2596922304, 36.2389091613], "type": "Point"}, "id": "l_PMa1x0M-LThqcwO3wZ6xsNN_A=", "properties": {"@source_uri": "https://tools.usps.com/UspsToolsRestServices/rest/POLocator/findLocations", "@spider": "usps_collection_boxes", "addr:city": "RAVENDEN", "addr:country": "US", "addr:postcode": "72459", "addr:state": "AR", "addr:street_address": "471 HIGHWAY 63 W", "amenity": "post_box", "collection_times": "Mo-Fr 11:00; Sa 09:30", "indoor": "yes", "nsi_id": "unitedstatespostalservice-a77078", "operator": "United States Postal Service", "operator:short": "USPS", "operator:type": "public", "operator:wikidata": "Q668687", "ref": "7245900003"}, "type": "Feature"}
{"geometry": {"coordinates": [-91.2596922304, 36.2389091613], "type": "Point"}, "id": "Ji8yho9EWge1O_FMAqqnsXBjopU=", "properties": {"@source_uri": "https://tools.usps.com/UspsToolsRestServices/rest/POLocator/findLocations", "@spider": "usps_collection_boxes", "addr:city": "RAVENDEN", "addr:country": "US", "addr:postcode": "72459", "addr:state": "AR", "addr:street_address": "471 HIGHWAY 63 W", "amenity": "post_box", "collection_times": "Mo-Fr 11:30; Sa 09:30", "indoor": "yes", "nsi_id": "unitedstatespostalservice-a77078", "operator": "United States Postal Service", "operator:short": "USPS", "operator:type": "public", "operator:wikidata": "Q668687", "ref": "7245900006"}, "type": "Feature"}
{"geometry": {"coordinates": [-91.2258555606, 36.3163297653], "type": "Point"}, "id": "R1RGtHBVeeHuxFnNc-CF0-TXegY=", "properties": {"@source_uri": "https://tools.usps.com/UspsToolsRestServices/rest/POLocator/findLocations", "@spider": "usps_collection_boxes", "addr:city": "RAVENDEN SPRINGS", "addr:country": "US", "addr:postcode": "72460", "addr:state": "AR", "addr:street_address": "19319 HIGHWAY 90 W", "amenity": "post_box", "collection_times": "Mo-Fr 15:30; Sa 14:00", "note": "ON 12/24 AND 12/31, THIS BOX MAY BE COLLECTED AS EARLY AS 12 NOON.", "nsi_id": "unitedstatespostalservice-a77078", "operator": "United States Postal Service", "operator:short": "USPS", "operator:type": "public", "operator:wikidata": "Q668687", "ref": "7246000001"}, "type": "Feature"}
{"geometry": {"coordinates": [-91.2258555606, 36.3163297653], "type": "Point"}, "id": "F_pigv5JzuMhzBqVjVFIRF0szkU=", "properties": {"@source_uri": "https://tools.usps.com/UspsToolsRestServices/rest/POLocator/findLocations", "@spider": "usps_collection_boxes", "addr:city": "RAVENDEN SPRINGS", "addr:country": "US", "addr:postcode": "72460", "addr:state": "AR", "addr:street_address": "19319 HIGHWAY 90 W", "amenity": "post_box", "collection_times": "Mo-Fr 15:00; Sa 14:00", "indoor": "yes", "note": "ON 12/24 AND 12/31, THIS BOX MAY BE COLLECTED AS EARLY AS 12 NOON.", "nsi_id": "unitedstatespostalservice-a77078", "operator": "United States Postal Service", "operator:short": "USPS", "operator:type": "public", "operator:wikidata": "Q668687", "ref": "7246000002"}, "type": "Feature"}
{"geometry": {"coordinates": [-91.2258555606, 36.3163297653], "type": "Point"}, "id": "4Lt8FECkKSL7s4zs0QBefAz5BuE=", "properties": {"@source_uri": "https://tools.usps.com/UspsToolsRestServices/rest/POLocator/findLocations", "@spider": "usps_collection_boxes", "addr:city": "RAVENDEN SPRINGS", "addr:country": "US", "addr:postcode": "72460", "addr:state": "AR", "addr:street_address": "19319 HIGHWAY 90 W", "amenity": "post_box", "collection_times": "Mo-Fr 15:30; Sa 14:00", "indoor": "yes", "note": "ON 12/24 AND 12/31, THIS BOX MAY BE COLLECTED AS EARLY AS 12 NOON.", "nsi_id": "unitedstatespostalservice-a77078", "operator": "United States Postal Service", "operator:short": "USPS", "operator:type": "public", "operator:wikidata": "Q668687", "ref": "7246000004"}, "type": "Feature"}
{"geometry": {"coordinates": [-90.2911701753, 36.2643294857], "type": "Point"}, "id": "HOlLkrcxV1vb8J1LoU4OddhhPZo=", "properties": {"@source_uri": "https://tools.usps.com/UspsToolsRestServices/rest/POLocator/findLocations", "@spider": "usps_collection_boxes", "addr:city": "RECTOR", "addr:country": "US", "addr:postcode": "72461", "addr:state": "AR", "addr:street_address": "310 S STEWART ST", "amenity": "post_box", "collection_times": "Mo-Fr 16:45; Sa 11:45", "note": "ON 12/24 AND 12/31, THIS BOX MAY BE COLLECTED AS EARLY AS 12 NOON.", "nsi_id": "unitedstatespostalservice-a77078", "operator": "United States Postal Service", "operator:short": "USPS", "operator:type": "public", "operator:wikidata": "Q668687", "ref": "7246100001"}, "type": "Feature"}
{"geometry": {"coordinates": [-90.2911701753, 36.2643294857], "type": "Point"}, "id": "PCuAxKrDGPOcdEucbwXChYRnTUM=", "properties": {"@source_uri": "https://tools.usps.com/UspsToolsRestServices/rest/POLocator/findLocations", "@spider": "usps_collection_boxes", "addr:city": "RECTOR", "addr:country": "US", "addr:postcode": "72461", "addr:state": "AR", "addr:street_address": "310 S STEWART ST", "amenity": "post_box", "collection_times": "Mo-Fr 16:45; Sa 11:45", "indoor": "yes", "note": "ON 12/24 AND 12/31, THIS BOX MAY BE COLLECTED AS EARLY AS 12 NOON.", "nsi_id": "unitedstatespostalservice-a77078", "operator": "United States Postal Service", "operator:short": "USPS", "operator:type": "public", "operator:wikidata": "Q668687", "ref": "7246100004"}, "type": "Feature"}
{"geometry": {"coordinates": [-90.2911701753, 36.2643294857], "type": "Point"}, "id": "zO4YTiEq7gbhxhnEE0eGv0u3gjc=", "properties": {"@source_uri": "https://tools.usps.com/UspsToolsRestServices/rest/POLocator/findLocations", "@spider": "usps_collection_boxes", "addr:city": "RECTOR", "addr:country": "US", "addr:postcode": "72461", "addr:state": "AR", "addr:street_address": "310 S STEWART ST", "amenity": "post_box", "collection_times": "Mo-Fr 16:45; Sa 11:45", "indoor": "yes", "note": "ON 12/24 AND 12/31, THIS BOX MAY BE COLLECTED AS EARLY AS 12 NOON.", "nsi_id": "unitedstatespostalservice-a77078", "operator": "United States Postal Service", "operator:short": "USPS", "operator:type": "public", "operator:wikidata": "Q668687", "ref": "7246100006"}, "type": "Feature"}
{"geometry": {"coordinates": [-90.2911701753, 36.2643294857], "type": "Point"}, "id": "iXIp_VlUdKVSg1oW_ByhnuHSZ8Q=", "properties": {"@source_uri": "https://tools.usps.com/UspsToolsRestServices/rest/POLocator/findLocations", "@spider": "usps_collection_boxes", "addr:city": "RECTOR", "addr:country": "US", "addr:postcode": "72461", "addr:state": "AR", "addr:street_address": "310 S STEWART ST", "amenity": "post_box", "collection_times": "Mo-Fr 16:30; Sa 11:30", "indoor": "yes", "note": "ON 12/24 AND 12/31, THIS BOX MAY BE COLLECTED AS EARLY AS 12 NOON.", "nsi_id": "unitedstatespostalservice-a77078", "operator": "United States Postal Service", "operator:short": "USPS", "operator:type": "public", "operator:wikidata": "Q668687", "ref": "7246100007"}, "type": "Feature"}
{"geometry": {"coordinates": [-90.7544092977, 36.362522769], "type": "Point"}, "id": "X2HGwqEFjCAIVH7LNaTSCSyNyT8=", "properties": {"@source_uri": "https://tools.usps.com/UspsToolsRestServices/rest/POLocator/findLocations", "@spider": "usps_collection_boxes", "addr:city": "REYNO", "addr:country": "US", "addr:postcode": "72462", "addr:state": "AR", "addr:street_address": "6720 BIGGERS REYNO RD", "amenity": "post_box", "collection_times": "Mo-Fr 12:00; Sa 10:30", "indoor": "yes", "nsi_id": "unitedstatespostalservice-a77078", "operator": "United States Postal Service", "operator:short": "USPS", "operator:type": "public", "operator:wikidata": "Q668687", "ref": "7246200002"}, "type": "Feature"}
{"geometry": {"coordinates": [-90.7544092977, 36.362522769], "type": "Point"}, "id": "aM1O1sef2FEEMIqFgFkKjAn3YDU=", "properties": {"@source_uri": "https://tools.usps.com/UspsToolsRestServices/rest/POLocator/findLocations", "@spider": "usps_collection_boxes", "addr:city": "REYNO", "addr:country": "US", "addr:postcode": "72462", "addr:state": "AR", "addr:street_address": "6720 BIGGERS REYNO RD", "amenity": "post_box", "collection_times": "Mo-Fr 12:00; Sa 10:30", "indoor": "yes", "nsi_id": "unitedstatespostalservice-a77078", "operator": "United States Postal Service", "operator:short": "USPS", "operator:type": "public", "operator:wikidata": "Q668687", "ref": "7246200003"}, "type": "Feature"}
{"geometry": {"coordinates": [-90.7521, 36.365505], "type": "Point"}, "id": "8IEvRf1H7XDoIJ-hC_QOb38ECDg=", "properties": {"@source_uri": "https://tools.usps.com/UspsToolsRestServices/rest/POLocator/findLocations", "@spider": "usps_collection_boxes", "addr:city": "REYNO", "addr:country": "US", "addr:postcode": "72462", "addr:state": "AR", "addr:street_address": "6720 BIGGERS REYNO RD", "amenity": "post_box", "collection_times": "Mo-Fr 12:00; Sa 10:30", "nsi_id": "unitedstatespostalservice-a77078", "operator": "United States Postal Service", "operator:short": "USPS", "operator:type": "public", "operator:wikidata": "Q668687", "ref": "7246200004"}, "type": "Feature"}
{"geometry": {"coordinates": [-90.1424970059, 36.4542901499], "type": "Point"}, "id": "AXkuJO6HRZxUJppgXuXtCgx7Sd4=", "properties": {"@source_uri": "https://tools.usps.com/UspsToolsRestServices/rest/POLocator/findLocations", "@spider": "usps_collection_boxes", "addr:city": "SAINT FRANCIS", "addr:country": "US", "addr:postcode": "72464", "addr:state": "AR", "addr:street_address": "108 E HIGHWAY 62", "amenity": "post_box", "collection_times": "Mo-Fr 12:15; Sa 09:45", "indoor": "yes", "note": "ON 12/24 AND 12/31, THIS BOX MAY BE COLLECTED AS EARLY AS 12 NOON.", "nsi_id": "unitedstatespostalservice-a77078", "operator": "United States Postal Service", "operator:short": "USPS", "operator:type": "public", "operator:wikidata": "Q668687", "ref": "7246400002"}, "type": "Feature"}
{"geometry": {"coordinates": [-90.1424970059, 36.4542901499], "type": "Point"}, "id": "NgpLd1KcTSqZzxq-Kd4UpcWEbo4=", "properties": {"@source_uri": "https://tools.usps.com/UspsToolsRestServices/rest/POLocator/findLocations", "@spider": "usps_collection_boxes", "addr:city": "SAINT FRANCIS", "addr:country": "US", "addr:postcode": "72464", "addr:state": "AR", "addr:street_address": "108 E HIGHWAY 62", "amenity": "post_box", "collection_times": "Mo-Fr 12:45; Sa 09:45", "indoor": "yes", "note": "ON 12/24 AND 12/31, THIS BOX MAY BE COLLECTED AS EARLY AS 12 NOON.", "nsi_id": "unitedstatespostalservice-a77078", "operator": "United States Postal Service", "operator:short": "USPS", "operator:type": "public", "operator:wikidata": "Q668687", "ref": "7246400003"}, "type": "Feature"}
{"geometry": {"coordinates": [-90.8628680235, 35.9781921403], "type": "Point"}, "id": "eghBCC0xD89Y0QSQDOd3Uml5yME=", "properties": {"@source_uri": "https://tools.usps.com/UspsToolsRestServices/rest/POLocator/findLocations", "@spider": "usps_collection_boxes", "addr:city": "SEDGWICK", "addr:country": "US", "addr:postcode": "72465", "addr:state": "AR", "addr:street_address": "102 S MAIN ST", "amenity": "post_box", "collection_times": "Mo-Fr 12:30; Sa 11:45", "indoor": "yes", "note": "ON 12/24 AND 12/31, THIS BOX MAY BE COLLECTED AS EARLY AS 12 NOON.", "nsi_id": "unitedstatespostalservice-a77078", "operator": "United States Postal Service", "operator:short": "USPS", "operator:type": "public", "operator:wikidata": "Q668687", "ref": "7246500002"}, "type": "Feature"}
{"geometry": {"coordinates": [-90.8628680235, 35.9781921403], "type": "Point"}, "id": "byBMFw2Wak0sAYOovUN3wQ8K-lM=", "properties": {"@source_uri": "https://tools.usps.com/UspsToolsRestServices/rest/POLocator/findLocations", "@spider": "usps_collection_boxes", "addr:city": "SEDGWICK", "addr:country": "US", "addr:postcode": "72465", "addr:state": "AR", "addr:street_address": "102 S MAIN ST", "amenity": "post_box", "collection_times": "Mo-Sa 11:45", "nsi_id": "unitedstatespostalservice-a77078", "operator": "United States Postal Service", "operator:short": "USPS", "operator:type": "public", "operator:wikidata": "Q668687", "ref": "7246500003"}, "type": "Feature"}
{"geometry": {"coordinates": [-90.8628680235, 35.9781921403], "type": "Point"}, "id": "HdRfutmfbtIw1lM1fkSfsbTfxDg=", "properties": {"@source_uri": "https://tools.usps.com/UspsToolsRestServices/rest/POLocator/findLocations", "@spider": "usps_collection_boxes", "addr:city": "SEDGWICK", "addr:country": "US", "addr:postcode": "72465", "addr:state": "AR", "addr:street_address": "102 S MAIN ST", "amenity": "post_box", "collection_times": "Mo-Fr 12:30; Sa 11:45", "indoor": "yes", "note": "ON 12/24 AND 12/31, THIS BOX MAY BE COLLECTED AS EARLY AS 12 NOON.", "nsi_id": "unitedstatespostalservice-a77078", "operator": "United States Postal Service", "operator:short": "USPS", "operator:type": "public", "operator:wikidata": "Q668687", "ref": "7246500004"}, "type": "Feature"}
{"geometry": {"coordinates": [-91.3022970088, 36.0805215575], "type": "Point"}, "id": "gb9WbLHVJOq195sKC9SQ2Uu8V_8=", "properties": {"@source_uri": "https://tools.usps.com/UspsToolsRestServices/rest/POLocator/findLocations", "@spider": "usps_collection_boxes", "addr:city": "SMITHVILLE", "addr:country": "US", "addr:postcode": "72466", "addr:state": "AR", "addr:street_address": "52 BRADLEY DR", "amenity": "post_box", "collection_times": "Mo-Fr 16:00; Sa 10:00", "note": "ON 12/24 AND 12/31, THIS BOX MAY BE COLLECTED AS EARLY AS 12 NOON.", "nsi_id": "unitedstatespostalservice-a77078", "operator": "United States Postal Service", "operator:short": "USPS", "operator:type": "public", "operator:wikidata": "Q668687", "ref": "7246600001"}, "type": "Feature"}
{"geometry": {"coordinates": [-91.3022970088, 36.0805215575], "type": "Point"}, "id": "SoUo_P_mtQe8mtNsCUF4O29nxKc=", "properties": {"@source_uri": "https://tools.usps.com/UspsToolsRestServices/rest/POLocator/findLocations", "@spider": "usps_collection_boxes", "addr:city": "SMITHVILLE", "addr:country": "US", "addr:postcode": "72466", "addr:state": "AR", "addr:street_address": "52 BRADLEY DR", "amenity": "post_box", "collection_times": "Mo-Fr 10:30; Sa 10:00", "indoor": "yes", "nsi_id": "unitedstatespostalservice-a77078", "operator": "United States Postal Service", "operator:short": "USPS", "operator:type": "public", "operator:wikidata": "Q668687", "ref": "7246600002"}, "type": "Feature"}
{"geometry": {"coordinates": [-91.3022970088, 36.0805215575], "type": "Point"}, "id": "0bqlU6pqrd_qA1KPssfyjr8DwmI=", "properties": {"@source_uri": "https://tools.usps.com/UspsToolsRestServices/rest/POLocator/findLocations", "@spider": "usps_collection_boxes", "addr:city": "SMITHVILLE", "addr:country": "US", "addr:postcode": "72466", "addr:state": "AR", "addr:street_address": "52 BRADLEY DR", "amenity": "post_box", "collection_times": "Mo-Fr 10:30; Sa 10:00", "indoor": "yes", "nsi_id": "unitedstatespostalservice-a77078", "operator": "United States Postal Service", "operator:short": "USPS", "operator:type": "public", "operator:wikidata": "Q668687", "ref": "7246600003"}, "type": "Feature"}
{"geometry": {"coordinates": [-91.3022970088, 36.0805215575], "type": "Point"}, "id": "jrUvM8GFXRH0jzLkPgcS5s_s6jw=", "properties": {"@source_uri": "https://tools.usps.com/UspsToolsRestServices/rest/POLocator/findLocations", "@spider": "usps_collection_boxes", "addr:city": "SMITHVILLE", "addr:country": "US", "addr:postcode": "72466", "addr:state": "AR", "addr:street_address": "52 BRADLEY DR", "amenity": "post_box", "collection_times": "Mo-Fr 11:00; Sa 10:00", "indoor": "yes", "nsi_id": "unitedstatespostalservice-a77078", "operator": "United States Postal Service", "operator:short": "USPS", "operator:type": "public", "operator:wikidata": "Q668687", "ref": "7246600006"}, "type": "Feature"}
{"geometry": {"coordinates": [-90.6772156206, 35.8434123397], "type": "Point"}, "id": "dZFWxDcEDlUFQaVEaqlJ9JUv5DI=", "properties": {"@source_uri": "https://tools.usps.com/UspsToolsRestServices/rest/POLocator/findLocations", "@spider": "usps_collection_boxes", "addr:city": "STATE UNIVERSITY", "addr:country": "US", "addr:postcode": "72467", "addr:state": "AR", "addr:street_address": "105 N CARAWAY", "amenity": "post_box", "collection_times": "Mo-Fr 15:30; Sa 09:00", "note": "ON 12/24 AND 12/31, THIS BOX MAY BE COLLECTED AS EARLY AS 12 NOON.", "nsi_id": "unitedstatespostalservice-a77078", "operator": "United States Postal Service", "operator:short": "USPS", "operator:type": "public", "operator:wikidata": "Q668687", "ref": "7246700001"}, "type": "Feature"}
{"geometry": {"coordinates": [-90.6772156206, 35.8434123397], "type": "Point"}, "id": "n4BW0cpSaZEyiWTCJDG9_m_dr4Q=", "properties": {"@source_uri": "https://tools.usps.com/UspsToolsRestServices/rest/POLocator/findLocations", "@spider": "usps_collection_boxes", "addr:city": "STATE UNIVERSITY", "addr:country": "US", "addr:postcode": "72467", "addr:state": "AR", "addr:street_address": "105 N CARAWAY RD", "amenity": "post_box", "collection_times": "Mo-Fr 15:30", "indoor": "yes", "note": "ON 12/24 AND 12/31, THIS BOX MAY BE COLLECTED AS EARLY AS 12 NOON.", "nsi_id": "unitedstatespostalservice-a77078", "operator": "United States Postal Service", "operator:short": "USPS", "operator:type": "public", "operator:wikidata": "Q668687", "ref": "7246700003"}, "type": "Feature"}
{"geometry": {"coordinates": [-90.6772156206, 35.8434123397], "type": "Point"}, "id": "5uK_yMmtt6wifjHLh7OnegtlsK8=", "properties": {"@source_uri": "https://tools.usps.com/UspsToolsRestServices/rest/POLocator/findLocations", "@spider": "usps_collection_boxes", "addr:city": "STATE UNIVERSITY", "addr:country": "US", "addr:postcode": "72467", "addr:state": "AR", "addr:street_address": "105 N CARAWAY RD", "amenity": "post_box", "collection_times": "Mo-Fr 15:30", "indoor": "yes", "note": "ON 12/24 AND 12/31, THIS BOX MAY BE COLLECTED AS EARLY AS 12 NOON.", "nsi_id": "unitedstatespostalservice-a77078", "operator": "United States Postal Service", "operator:short": "USPS", "operator:type": "public", "operator:wikidata": "Q668687", "ref": "7246700004"}, "type": "Feature"}
{"geometry": {"coordinates": [-90.6772156206, 35.8434123397], "type": "Point"}, "id": "MP-gxwi3wb9jU1wt1eZKiSlGWxs=", "properties": {"@source_uri": "https://tools.usps.com/UspsToolsRestServices/rest/POLocator/findLocations", "@spider": "usps_collection_boxes", "addr:city": "STATE UNIVERSITY", "addr:country": "US", "addr:postcode": "72467", "addr:state": "AR", "addr:street_address": "105 N CARAWAY", "amenity": "post_box", "collection_times": "Mo-Fr 16:00", "indoor": "yes", "note": "ON 12/24 AND 12/31, THIS BOX MAY BE COLLECTED AS EARLY AS 12 NOON.", "nsi_id": "unitedstatespostalservice-a77078", "operator": "United States Postal Service", "operator:short": "USPS", "operator:type": "public", "operator:wikidata": "Q668687", "ref": "7246700005"}, "type": "Feature"}
{"geometry": {"coordinates": [-91.321316553, 35.9692375436], "type": "Point"}, "id": "VM1ZOyQ-ap_ijrgcVgT4DM9EQ9U=", "properties": {"@source_uri": "https://tools.usps.com/UspsToolsRestServices/rest/POLocator/findLocations", "@spider": "usps_collection_boxes", "addr:city": "STRAWBERRY", "addr:country": "US", "addr:postcode": "72469", "addr:state": "AR", "addr:street_address": "100 N MAIN ST", "amenity": "post_box", "collection_times": "Mo-Fr 15:45; Sa 11:45", "note": "ON 12/24 AND 12/31, THIS BOX MAY BE COLLECTED AS EARLY AS 12 NOON.", "nsi_id": "unitedstatespostalservice-a77078", "operator": "United States Postal Service", "operator:short": "USPS", "operator:type": "public", "operator:wikidata": "Q668687", "ref": "7246900001"}, "type": "Feature"}
{"geometry": {"coordinates": [-91.321316553, 35.9692375436], "type": "Point"}, "id": "rizHzUVJsX1oU-IuYXFCqyZzKw0=", "properties": {"@source_uri": "https://tools.usps.com/UspsToolsRestServices/rest/POLocator/findLocations", "@spider": "usps_collection_boxes", "addr:city": "STRAWBERRY", "addr:country": "US", "addr:postcode": "72469", "addr:state": "AR", "addr:street_address": "100 N MAIN ST", "amenity": "post_box", "collection_times": "Mo-Fr 11:30; Sa 11:45", "indoor": "yes", "nsi_id": "unitedstatespostalservice-a77078", "operator": "United States Postal Service", "operator:short": "USPS", "operator:type": "public", "operator:wikidata": "Q668687", "ref": "7246900002"}, "type": "Feature"}
{"geometry": {"coordinates": [-91.321316553, 35.9692375436], "type": "Point"}, "id": "PBLNTJhGimIhyD9oumKqiFcbO28=", "properties": {"@source_uri": "https://tools.usps.com/UspsToolsRestServices/rest/POLocator/findLocations", "@spider": "usps_collection_boxes", "addr:city": "STRAWBERRY", "addr:country": "US", "addr:postcode": "72469", "addr:state": "AR", "addr:street_address": "100 N MAIN ST", "amenity": "post_box", "collection_times": "Mo-Fr 11:30; Sa 11:45", "indoor": "yes", "nsi_id": "unitedstatespostalservice-a77078", "operator": "United States Postal Service", "operator:short": "USPS", "operator:type": "public", "operator:wikidata": "Q668687", "ref": "7246900003"}, "type": "Feature"}
{"geometry": {"coordinates": [-91.321316553, 35.9692375436], "type": "Point"}, "id": "kO0nYll7ol_93F0ozxoMNzIQOco=", "properties": {"@source_uri": "https://tools.usps.com/UspsToolsRestServices/rest/POLocator/findLocations", "@spider": "usps_collection_boxes", "addr:city": "STRAWBERRY", "addr:country": "US", "addr:postcode": "72469", "addr:state": "AR", "addr:street_address": "100 N MAIN ST", "amenity": "post_box", "collection_times": "Mo-Sa 12:00", "indoor": "yes", "nsi_id": "unitedstatespostalservice-a77078", "operator": "United States Postal Service", "operator:short": "USPS", "operator:type": "public", "operator:wikidata": "Q668687", "ref": "7246900004"}, "type": "Feature"}
{"geometry": {"coordinates": [-90.7215423169, 36.4539547843], "type": "Point"}, "id": "bQa3chM1G5qUA9zLLxdIl1SHz40=", "properties": {"@source_uri": "https://tools.usps.com/UspsToolsRestServices/rest/POLocator/findLocations", "@spider": "usps_collection_boxes", "addr:city": "SUCCESS", "addr:country": "US", "addr:postcode": "72470", "addr:state": "AR", "addr:street_address": "511 FRONT ST", "amenity": "post_box", "collection_times": "Mo-Sa 11:30", "indoor": "yes", "nsi_id": "unitedstatespostalservice-a77078", "operator": "United States Postal Service", "operator:short": "USPS", "operator:type": "public", "operator:wikidata": "Q668687", "ref": "7247000002"}, "type": "Feature"}
{"geometry": {"coordinates": [-90.7215423169, 36.4539547843], "type": "Point"}, "id": "LxI8oIaAXu7CGgY7xI-GFIiouRo=", "properties": {"@source_uri": "https://tools.usps.com/UspsToolsRestServices/rest/POLocator/findLocations", "@spider": "usps_collection_boxes", "addr:city": "SUCCESS", "addr:country": "US", "addr:postcode": "72470", "addr:state": "AR", "addr:street_address": "511 FRONT ST", "amenity": "post_box", "collection_times": "Mo-Sa 11:30", "indoor": "yes", "nsi_id": "unitedstatespostalservice-a77078", "operator": "United States Postal Service", "operator:short": "USPS", "operator:type": "public", "operator:wikidata": "Q668687", "ref": "7247000003"}, "type": "Feature"}
{"geometry": {"coordinates": [-90.7215423169, 36.4539547843], "type": "Point"}, "id": "PbwphuU9o-62isIetJO_UEYR_2Y=", "properties": {"@source_uri": "https://tools.usps.com/UspsToolsRestServices/rest/POLocator/findLocations", "@spider": "usps_collection_boxes", "addr:city": "SUCCESS", "addr:country": "US", "addr:postcode": "72470", "addr:state": "AR", "addr:street_address": "511 FRONT ST", "amenity": "post_box", "collection_times": "Mo-Fr 12:00; Sa 11:45", "indoor": "yes", "nsi_id": "unitedstatespostalservice-a77078", "operator": "United States Postal Service", "operator:short": "USPS", "operator:type": "public", "operator:wikidata": "Q668687", "ref": "7247000004"}, "type": "Feature"}
{"geometry": {"coordinates": [-91.1312064394, 35.8243806548], "type": "Point"}, "id": "jYuyMbiEiTw4TjLx2eABRnylOkw=", "properties": {"@source_uri": "https://tools.usps.com/UspsToolsRestServices/rest/POLocator/findLocations", "@spider": "usps_collection_boxes", "addr:city": "SWIFTON", "addr:country": "US", "addr:postcode": "72471", "addr:state": "AR", "addr:street_address": "109 MAIN ST", "amenity": "post_box", "collection_times": "Mo-Fr 12:20; Sa 10:00", "note": "ON 12/24 AND 12/31, THIS BOX MAY BE COLLECTED AS EARLY AS 12 NOON.", "nsi_id": "unitedstatespostalservice-a77078", "operator": "United States Postal Service", "operator:short": "USPS", "operator:type": "public", "operator:wikidata": "Q668687", "ref": "7247100001"}, "type": "Feature"}
{"geometry": {"coordinates": [-91.1312064394, 35.8243806548], "type": "Point"}, "id": "R9kAVoQ93Iegj6pDSmyeek_1SRY=", "properties": {"@source_uri": "https://tools.usps.com/UspsToolsRestServices/rest/POLocator/findLocations", "@spider": "usps_collection_boxes", "addr:city": "SWIFTON", "addr:country": "US", "addr:postcode": "72471", "addr:state": "AR", "addr:street_address": "109 MAIN ST", "amenity": "post_box", "collection_times": "Mo-Fr 12:00; Sa 10:00", "indoor": "yes", "nsi_id": "unitedstatespostalservice-a77078", "operator": "United States Postal Service", "operator:short": "USPS", "operator:type": "public", "operator:wikidata": "Q668687", "ref": "7247100002"}, "type": "Feature"}
{"geometry": {"coordinates": [-91.1312064394, 35.8243806548], "type": "Point"}, "id": "BZtOpx0SbE2IZq0YDQa7r7xmYpE=", "properties": {"@source_uri": "https://tools.usps.com/UspsToolsRestServices/rest/POLocator/findLocations", "@spider": "usps_collection_boxes", "addr:city": "SWIFTON", "addr:country": "US", "addr:postcode": "72471", "addr:state": "AR", "addr:street_address": "109 MAIN ST", "amenity": "post_box", "collection_times": "Mo-Fr 12:00; Sa 10:00", "indoor": "yes", "nsi_id": "unitedstatespostalservice-a77078", "operator": "United States Postal Service", "operator:short": "USPS", "operator:type": "public", "operator:wikidata": "Q668687", "ref": "7247100003"}, "type": "Feature"}
{"geometry": {"coordinates": [-91.1312064394, 35.8243806548], "type": "Point"}, "id": "mQ-QAamfJIrd8roIXUfW_BtS-Aw=", "properties": {"@source_uri": "https://tools.usps.com/UspsToolsRestServices/rest/POLocator/findLocations", "@spider": "usps_collection_boxes", "addr:city": "SWIFTON", "addr:country": "US", "addr:postcode": "72471", "addr:state": "AR", "addr:street_address": "109 MAIN ST", "amenity": "post_box", "collection_times": "Mo-Fr 12:30; Sa 10:00", "indoor": "yes", "note": "ON 12/24 AND 12/31, THIS BOX MAY BE COLLECTED AS EARLY AS 12 NOON.", "nsi_id": "unitedstatespostalservice-a77078", "operator": "United States Postal Service", "operator:short": "USPS", "operator:type": "public", "operator:wikidata": "Q668687", "ref": "7247100006"}, "type": "Feature"}
{"geometry": {"coordinates": [-90.5153750212, 35.6685300198], "type": "Point"}, "id": "63jgOFWvcAIa3w2WhMOVHIWTj0o=", "properties": {"@source_uri": "https://tools.usps.com/UspsToolsRestServices/rest/POLocator/findLocations", "@spider": "usps_collection_boxes", "addr:city": "TRUMANN", "addr:country": "US", "addr:postcode": "72472", "addr:state": "AR", "addr:street_address": "301 HIGHWAY 463 S", "amenity": "post_box", "collection_times": "Mo-Fr 16:30; Sa 15:00", "indoor": "yes", "note": "ON 12/24 AND 12/31, THIS BOX MAY BE COLLECTED AS EARLY AS 12 NOON.", "nsi_id": "unitedstatespostalservice-a77078", "operator": "United States Postal Service", "operator:short": "USPS", "operator:type": "public", "operator:wikidata": "Q668687", "ref": "7247200011"}, "type": "Feature"}
{"geometry": {"coordinates": [-90.5153750212, 35.6685300198], "type": "Point"}, "id": "Bf4SXZ9IfCmSHpm_H7Ac8J69J3Y=", "properties": {"@source_uri": "https://tools.usps.com/UspsToolsRestServices/rest/POLocator/findLocations", "@spider": "usps_collection_boxes", "addr:city": "TRUMANN", "addr:country": "US", "addr:postcode": "72472", "addr:state": "AR", "addr:street_address": "301 HIGHWAY 463 S", "amenity": "post_box", "collection_times": "Mo-Fr 16:30; Sa 15:00", "indoor": "yes", "note": "ON 12/24 AND 12/31, THIS BOX MAY BE COLLECTED AS EARLY AS 12 NOON.", "nsi_id": "unitedstatespostalservice-a77078", "operator": "United States Postal Service", "operator:short": "USPS", "operator:type": "public", "operator:wikidata": "Q668687", "ref": "7247200020"}, "type": "Feature"}
{"geometry": {"coordinates": [-90.5153750212, 35.6685300198], "type": "Point"}, "id": "i6wbaQzj6bPKHB-7_8JpvZXxGg8=", "properties": {"@source_uri": "https://tools.usps.com/UspsToolsRestServices/rest/POLocator/findLocations", "@spider": "usps_collection_boxes", "addr:city": "TRUMANN", "addr:country": "US", "addr:postcode": "72472", "addr:state": "AR", "addr:street_address": "301 HIGHWAY 463 S", "amenity": "post_box", "collection_times": "Mo-Fr 16:30; Sa 15:00", "note": "ON 12/24 AND 12/31, THIS BOX MAY BE COLLECTED AS EARLY AS 12 NOON.", "nsi_id": "unitedstatespostalservice-a77078", "operator": "United States Postal Service", "operator:short": "USPS", "operator:type": "public", "operator:wikidata": "Q668687", "ref": "7247200021"}, "type": "Feature"}
{"geometry": {"coordinates": [-90.5153750212, 35.6685300198], "type": "Point"}, "id": "4x-l89bgS7Rh9wQoQaP8uTJsCwA=", "properties": {"@source_uri": "https://tools.usps.com/UspsToolsRestServices/rest/POLocator/findLocations", "@spider": "usps_collection_boxes", "addr:city": "TRUMANN", "addr:country": "US", "addr:postcode": "72472", "addr:state": "AR", "addr:street_address": "301 HIGHWAY 463 S", "amenity": "post_box", "collection_times": "Mo-Fr 16:30; Sa 10:00", "indoor": "yes", "note": "ON 12/24 AND 12/31, THIS BOX MAY BE COLLECTED AS EARLY AS 12 NOON.", "nsi_id": "unitedstatespostalservice-a77078", "operator": "United States Postal Service", "operator:short": "USPS", "operator:type": "public", "operator:wikidata": "Q668687", "ref": "7247200022"}, "type": "Feature"}
{"geometry": {"coordinates": [-91.1976972274, 35.7320055439], "type": "Point"}, "id": "HSduKoB4wVMnPM_dkXkZuTh19iY=", "properties": {"@source_uri": "https://tools.usps.com/UspsToolsRestServices/rest/POLocator/findLocations", "@spider": "usps_collection_boxes", "addr:city": "TUCKERMAN", "addr:country": "US", "addr:postcode": "72473", "addr:state": "AR", "addr:street_address": "105 E WALNUT ST", "amenity": "post_box", "collection_times": "Mo-Fr 15:45; Sa 10:30", "indoor": "yes", "note": "ON 12/24 AND 12/31, THIS BOX MAY BE COLLECTED AS EARLY AS 12 NOON.", "nsi_id": "unitedstatespostalservice-a77078", "operator": "United States Postal Service", "operator:short": "USPS", "operator:type": "public", "operator:wikidata": "Q668687", "ref": "7247300002"}, "type": "Feature"}
{"geometry": {"coordinates": [-91.1976972274, 35.7320055439], "type": "Point"}, "id": "Kad9zz60rXbYgW_FuUB55fqLFTc=", "properties": {"@source_uri": "https://tools.usps.com/UspsToolsRestServices/rest/POLocator/findLocations", "@spider": "usps_collection_boxes", "addr:city": "TUCKERMAN", "addr:country": "US", "addr:postcode": "72473", "addr:state": "AR", "addr:street_address": "105 E WALNUT ST", "amenity": "post_box", "collection_times": "Mo-Fr 15:45; Sa 10:30", "note": "ON 12/24 AND 12/31, THIS BOX MAY BE COLLECTED AS EARLY AS 12 NOON.", "nsi_id": "unitedstatespostalservice-a77078", "operator": "United States Postal Service", "operator:short": "USPS", "operator:type": "public", "operator:wikidata": "Q668687", "ref": "7247300003"}, "type": "Feature"}
{"geometry": {"coordinates": [-91.1976972274, 35.7320055439], "type": "Point"}, "id": "xjbUrRXzXpGiWRrVwsbwKTyS9qI=", "properties": {"@source_uri": "https://tools.usps.com/UspsToolsRestServices/rest/POLocator/findLocations", "@spider": "usps_collection_boxes", "addr:city": "TUCKERMAN", "addr:country": "US", "addr:postcode": "72473", "addr:state": "AR", "addr:street_address": "105 E WALNUT ST", "amenity": "post_box", "collection_times": "Mo-Fr 16:00; Sa 09:30", "indoor": "yes", "note": "ON 12/24 AND 12/31, THIS BOX MAY BE COLLECTED AS EARLY AS 12 NOON.", "nsi_id": "unitedstatespostalservice-a77078", "operator": "United States Postal Service", "operator:short": "USPS", "operator:type": "public", "operator:wikidata": "Q668687", "ref": "7247300005"}, "type": "Feature"}
{"geometry": {"coordinates": [-90.6701808938, 36.0425370354], "type": "Point"}, "id": "wdVVdd69JdbxzEb2J9YD5KB2TWk=", "properties": {"@source_uri": "https://tools.usps.com/UspsToolsRestServices/rest/POLocator/findLocations", "@spider": "usps_collection_boxes", "addr:city": "WALCOTT", "addr:country": "US", "addr:postcode": "72474", "addr:state": "AR", "addr:street_address": "1951 HIGHWAY 141 S", "amenity": "post_box", "collection_times": "Mo-Fr 15:15; Sa 09:15", "note": "ON 12/24 AND 12/31, THIS BOX MAY BE COLLECTED AS EARLY AS 12 NOON.", "nsi_id": "unitedstatespostalservice-a77078", "operator": "United States Postal Service", "operator:short": "USPS", "operator:type": "public", "operator:wikidata": "Q668687", "ref": "7247400001"}, "type": "Feature"}
{"geometry": {"coordinates": [-90.6701808938, 36.0425370354], "type": "Point"}, "id": "_XSELKLZ6ZalyUPfFMqjXxc9S8g=", "properties": {"@source_uri": "https://tools.usps.com/UspsToolsRestServices/rest/POLocator/findLocations", "@spider": "usps_collection_boxes", "addr:city": "WALCOTT", "addr:country": "US", "addr:postcode": "72474", "addr:state": "AR", "addr:street_address": "1951 HIGHWAY 141 S", "amenity": "post_box", "collection_times": "Mo-Fr 15:15; Sa 09:15", "indoor": "yes", "note": "ON 12/24 AND 12/31, THIS BOX MAY BE COLLECTED AS EARLY AS 12 NOON.", "nsi_id": "unitedstatespostalservice-a77078", "operator": "United States Postal Service", "operator:short": "USPS", "operator:type": "public", "operator:wikidata": "Q668687", "ref": "7247400002"}, "type": "Feature"}
{"geometry": {"coordinates": [-90.6701808938, 36.0425370354], "type": "Point"}, "id": "K8x2OorxwFL1SOmySTt0WZfVHak=", "properties": {"@source_uri": "https://tools.usps.com/UspsToolsRestServices/rest/POLocator/findLocations", "@spider": "usps_collection_boxes", "addr:city": "WALCOTT", "addr:country": "US", "addr:postcode": "72474", "addr:state": "AR", "addr:street_address": "1951 HIGHWAY 141 S", "amenity": "post_box", "collection_times": "Mo-Fr 15:15; Sa 09:30", "indoor": "yes", "note": "ON 12/24 AND 12/31, THIS BOX MAY BE COLLECTED AS EARLY AS 12 NOON.", "nsi_id": "unitedstatespostalservice-a77078", "operator": "United States Postal Service", "operator:short": "USPS", "operator:type": "public", "operator:wikidata": "Q668687", "ref": "7247400004"}, "type": "Feature"}
{"geometry": {"coordinates": [-90.9313504294, 35.5655520184], "type": "Point"}, "id": "ScE2_rQIBK6YjFB5Bmj6gPzot7U=", "properties": {"@source_uri": "https://tools.usps.com/UspsToolsRestServices/rest/POLocator/findLocations", "@spider": "usps_collection_boxes", "addr:city": "WALDENBURG", "addr:country": "US", "addr:postcode": "72475", "addr:state": "AR", "addr:street_address": "5953 HIGHWAY 14 E", "amenity": "post_box", "collection_times": "Mo-Fr 10:30; Sa 09:45", "nsi_id": "unitedstatespostalservice-a77078", "operator": "United States Postal Service", "operator:short": "USPS", "operator:type": "public", "operator:wikidata": "Q668687", "ref": "7247500001"}, "type": "Feature"}
{"geometry": {"coordinates": [-90.9313504294, 35.5655520184], "type": "Point"}, "id": "aBfcyq79vD0auwbdHuxCyDy6SLU=", "properties": {"@source_uri": "https://tools.usps.com/UspsToolsRestServices/rest/POLocator/findLocations", "@spider": "usps_collection_boxes", "addr:city": "WALDENBURG", "addr:country": "US", "addr:postcode": "72475", "addr:state": "AR", "addr:street_address": "5953 HIGHWAY 14 E", "amenity": "post_box", "collection_times": "Mo-Fr 10:30; Sa 09:45", "indoor": "yes", "nsi_id": "unitedstatespostalservice-a77078", "operator": "United States Postal Service", "operator:short": "USPS", "operator:type": "public", "operator:wikidata": "Q668687", "ref": "7247500002"}, "type": "Feature"}
{"geometry": {"coordinates": [-90.9313504294, 35.5655520184], "type": "Point"}, "id": "cOZ5ufGpgXyH0Y3eNsqhCV3FYmU=", "properties": {"@source_uri": "https://tools.usps.com/UspsToolsRestServices/rest/POLocator/findLocations", "@spider": "usps_collection_boxes", "addr:city": "WALDENBURG", "addr:country": "US", "addr:postcode": "72475", "addr:state": "AR", "addr:street_address": "5953 HIGHWAY 14 E", "amenity": "post_box", "collection_times": "Mo-Fr 10:30; Sa 09:45", "indoor": "yes", "nsi_id": "unitedstatespostalservice-a77078", "operator": "United States Postal Service", "operator:short": "USPS", "operator:type": "public", "operator:wikidata": "Q668687", "ref": "7247500004"}, "type": "Feature"}
{"geometry": {"coordinates": [-90.9595402009, 36.0690825228], "type": "Point"}, "id": "eAm_lQzmPs8YVsRPZJqgLKsTmcY=", "properties": {"@source_uri": "https://tools.usps.com/UspsToolsRestServices/rest/POLocator/findLocations", "@spider": "usps_collection_boxes", "addr:city": "WALNUT RIDGE", "addr:country": "US", "addr:postcode": "72476", "addr:state": "AR", "addr:street_address": "210 SW 3RD ST", "amenity": "post_box", "collection_times": "Mo-Fr 16:15; Sa 12:00", "note": "ON 12/24 AND 12/31, THIS BOX MAY BE COLLECTED AS EARLY AS 12 NOON.", "nsi_id": "unitedstatespostalservice-a77078", "operator": "United States Postal Service", "operator:short": "USPS", "operator:type": "public", "operator:wikidata": "Q668687", "ref": "7247600001"}, "type": "Feature"}
{"geometry": {"coordinates": [-90.9595402009, 36.0690825228], "type": "Point"}, "id": "J9hTDu-ibUUC0czOkDnyVG10tuY=", "properties": {"@source_uri": "https://tools.usps.com/UspsToolsRestServices/rest/POLocator/findLocations", "@spider": "usps_collection_boxes", "addr:city": "WALNUT RIDGE", "addr:country": "US", "addr:postcode": "72476", "addr:state": "AR", "addr:street_address": "210 SW 3RD ST", "amenity": "post_box", "collection_times": "Mo-Fr 16:15; Sa 14:30", "indoor": "yes", "note": "ON 12/24 AND 12/31, THIS BOX MAY BE COLLECTED AS EARLY AS 12 NOON.", "nsi_id": "unitedstatespostalservice-a77078", "operator": "United States Postal Service", "operator:short": "USPS", "operator:type": "public", "operator:wikidata": "Q668687", "ref": "7247600013"}, "type": "Feature"}
{"geometry": {"coordinates": [-91.0337978939, 36.0771982691], "type": "Point"}, "id": "TYz1L7-UClNTCnwKTLXRO0UlANw=", "properties": {"@source_uri": "https://tools.usps.com/UspsToolsRestServices/rest/POLocator/findLocations", "@spider": "usps_collection_boxes", "addr:city": "WALNUT RIDGE", "addr:country": "US", "addr:postcode": "72476", "addr:state": "AR", "addr:street_address": "16898 HIGHWAY 412 W", "amenity": "post_box", "collection_times": "Mo-Sa 09:00", "nsi_id": "unitedstatespostalservice-a77078", "operator": "United States Postal Service", "operator:short": "USPS", "operator:type": "public", "operator:wikidata": "Q668687", "ref": "7247600017"}, "type": "Feature"}
{"geometry": {"coordinates": [-90.9595402009, 36.0690825228], "type": "Point"}, "id": "HRBQRLOB3hDBDnOMfb2GFZFCIdk=", "properties": {"@source_uri": "https://tools.usps.com/UspsToolsRestServices/rest/POLocator/findLocations", "@spider": "usps_collection_boxes", "addr:city": "WALNUT RIDGE", "addr:country": "US", "addr:postcode": "72476", "addr:state": "AR", "addr:street_address": "210 SW 3RD ST", "amenity": "post_box", "collection_times": "Mo-Fr 16:15; Sa 14:30", "indoor": "yes", "note": "ON 12/24 AND 12/31, THIS BOX MAY BE COLLECTED AS EARLY AS 12 NOON.", "nsi_id": "unitedstatespostalservice-a77078", "operator": "United States Postal Service", "operator:short": "USPS", "operator:type": "public", "operator:wikidata": "Q668687", "ref": "7247600020"}, "type": "Feature"}
{"geometry": {"coordinates": [-90.9595402009, 36.0690825228], "type": "Point"}, "id": "h9T3ck2McPBAJq5ftNwYOBMnQWQ=", "properties": {"@source_uri": "https://tools.usps.com/UspsToolsRestServices/rest/POLocator/findLocations", "@spider": "usps_collection_boxes", "addr:city": "WALNUT RIDGE", "addr:country": "US", "addr:postcode": "72476", "addr:state": "AR", "addr:street_address": "210 SW 3RD ST", "amenity": "post_box", "collection_times": "Mo-Fr 16:30; Sa 12:00", "indoor": "yes", "note": "ON 12/24 AND 12/31, THIS BOX MAY BE COLLECTED AS EARLY AS 12 NOON.", "nsi_id": "unitedstatespostalservice-a77078", "operator": "United States Postal Service", "operator:short": "USPS", "operator:type": "public", "operator:wikidata": "Q668687", "ref": "7247600021"}, "type": "Feature"}
{"geometry": {"coordinates": [-90.9001860166, 35.6205349907], "type": "Point"}, "id": "s_4g-BUYswwtVm8i-qfwLXWO1YU=", "properties": {"@source_uri": "https://tools.usps.com/UspsToolsRestServices/rest/POLocator/findLocations", "@spider": "usps_collection_boxes", "addr:city": "WEINER", "addr:country": "US", "addr:postcode": "72479", "addr:state": "AR", "addr:street_address": "117 W SECOND ST", "amenity": "post_box", "collection_times": "Mo-Fr 15:15; Sa 11:00", "note": "ON 12/24 AND 12/31, THIS BOX MAY BE COLLECTED AS EARLY AS 12 NOON.", "nsi_id": "unitedstatespostalservice-a77078", "operator": "United States Postal Service", "operator:short": "USPS", "operator:type": "public", "operator:wikidata": "Q668687", "ref": "7247900003"}, "type": "Feature"}
{"geometry": {"coordinates": [-90.9001860166, 35.6205349907], "type": "Point"}, "id": "QmnFm9Rk-4J9MYAoMgZuOBS0dDE=", "properties": {"@source_uri": "https://tools.usps.com/UspsToolsRestServices/rest/POLocator/findLocations", "@spider": "usps_collection_boxes", "addr:city": "WEINER", "addr:country": "US", "addr:postcode": "72479", "addr:state": "AR", "addr:street_address": "117 W SECOND ST", "amenity": "post_box", "collection_times": "Mo-Fr 15:15; Sa 11:00", "indoor": "yes", "note": "ON 12/24 AND 12/31, THIS BOX MAY BE COLLECTED AS EARLY AS 12 NOON.", "nsi_id": "unitedstatespostalservice-a77078", "operator": "United States Postal Service", "operator:short": "USPS", "operator:type": "public", "operator:wikidata": "Q668687", "ref": "7247900005"}, "type": "Feature"}
{"geometry": {"coordinates": [-90.9001860166, 35.6205349907], "type": "Point"}, "id": "90JzQNJpNymPKzUwiPsAvwlQt6U=", "properties": {"@source_uri": "https://tools.usps.com/UspsToolsRestServices/rest/POLocator/findLocations", "@spider": "usps_collection_boxes", "addr:city": "WEINER", "addr:country": "US", "addr:postcode": "72479", "addr:state": "AR", "addr:street_address": "117 W SECOND ST", "amenity": "post_box", "collection_times": "Mo-Fr 15:15; Sa 11:00", "indoor": "yes", "note": "ON 12/24 AND 12/31, THIS BOX MAY BE COLLECTED AS EARLY AS 12 NOON.", "nsi_id": "unitedstatespostalservice-a77078", "operator": "United States Postal Service", "operator:short": "USPS", "operator:type": "public", "operator:wikidata": "Q668687", "ref": "7247900007"}, "type": "Feature"}
{"geometry": {"coordinates": [-90.9001860166, 35.6205349907], "type": "Point"}, "id": "Eq5dDgwn9jasmOx-Wc0lz3bCPPE=", "properties": {"@source_uri": "https://tools.usps.com/UspsToolsRestServices/rest/POLocator/findLocations", "@spider": "usps_collection_boxes", "addr:city": "WEINER", "addr:country": "US", "addr:postcode": "72479", "addr:state": "AR", "addr:street_address": "117 W SECOND ST", "amenity": "post_box", "collection_times": "Mo-Fr 15:15; Sa 11:00", "indoor": "yes", "note": "ON 12/24 AND 12/31, THIS BOX MAY BE COLLECTED AS EARLY AS 12 NOON.", "nsi_id": "unitedstatespostalservice-a77078", "operator": "United States Postal Service", "operator:short": "USPS", "operator:type": "public", "operator:wikidata": "Q668687", "ref": "7247900009"}, "type": "Feature"}
{"geometry": {"coordinates": [-91.3647743, 36.2491537], "type": "Point"}, "id": "uHOjkFv82gkfl5Upj7z8IVoESnM=", "properties": {"@source_uri": "https://tools.usps.com/UspsToolsRestServices/rest/POLocator/findLocations", "@spider": "usps_collection_boxes", "addr:city": "WILLIFORD", "addr:country": "US", "addr:postcode": "72482", "addr:state": "AR", "addr:street_address": "305 W MAIN ST", "amenity": "post_box", "collection_times": "Mo-Fr 11:30; Sa 10:00", "indoor": "yes", "nsi_id": "unitedstatespostalservice-a77078", "operator": "United States Postal Service", "operator:short": "USPS", "operator:type": "public", "operator:wikidata": "Q668687", "ref": "7248200001"}, "type": "Feature"}
{"geometry": {"coordinates": [-91.3647743, 36.2491537], "type": "Point"}, "id": "XBmNpHYPAEw6_hX7nMP8auVRwWY=", "properties": {"@source_uri": "https://tools.usps.com/UspsToolsRestServices/rest/POLocator/findLocations", "@spider": "usps_collection_boxes", "addr:city": "WILLIFORD", "addr:country": "US", "addr:postcode": "72482", "addr:state": "AR", "addr:street_address": "305 W MAIN ST", "amenity": "post_box", "collection_times": "Mo-Fr 11:30; Sa 10:00", "indoor": "yes", "nsi_id": "unitedstatespostalservice-a77078", "operator": "United States Postal Service", "operator:short": "USPS", "operator:type": "public", "operator:wikidata": "Q668687", "ref": "7248200002"}, "type": "Feature"}
{"geometry": {"coordinates": [-91.3647743, 36.2491537], "type": "Point"}, "id": "NANlfHssZOmb22RR_ENfah9DNVA=", "properties": {"@source_uri": "https://tools.usps.com/UspsToolsRestServices/rest/POLocator/findLocations", "@spider": "usps_collection_boxes", "addr:city": "WILLIFORD", "addr:country": "US", "addr:postcode": "72482", "addr:state": "AR", "addr:street_address": "305 W MAIN ST", "amenity": "post_box", "collection_times": "Mo-Fr 12:00; Sa 10:00", "indoor": "yes", "nsi_id": "unitedstatespostalservice-a77078", "operator": "United States Postal Service", "operator:short": "USPS", "operator:type": "public", "operator:wikidata": "Q668687", "ref": "7248200004"}, "type": "Feature"}
