{"geometry": {"coordinates": [-91.649681, 35.771298], "type": "Point"}, "id": "HXJHwZFUWhIA9iHN2-yoqGlHZ6k=", "properties": {"@source_uri": "https://tools.usps.com/UspsToolsRestServices/rest/POLocator/findLocations", "@spider": "usps_collection_boxes", "addr:city": "BATESVILLE", "addr:country": "US", "addr:postcode": "72501", "addr:state": "AR", "addr:street_address": "490 E COLLEGE ST", "amenity": "post_box", "collection_times": "Mo-Fr 18:00; Sa 17:00", "note": "ON 12/24 AND 12/31, THIS BOX MAY BE COLLECTED AS EARLY AS 12 NOON.", "nsi_id": "unitedstatespostalservice-a77078", "operator": "United States Postal Service", "operator:short": "USPS", "operator:type": "public", "operator:wikidata": "Q668687", "ref": "7250100001"}, "type": "Feature"}
{"geometry": {"coordinates": [-91.6534026, 35.770379], "type": "Point"}, "id": "HHf8DUISbn2G74MTaWi1yTSAjRM=", "properties": {"@source_uri": "https://tools.usps.com/UspsToolsRestServices/rest/POLocator/findLocations", "@spider": "usps_collection_boxes", "addr:city": "BATESVILLE", "addr:country": "US", "addr:postcode": "72501", "addr:state": "AR", "addr:street_address": "192 E MAIN ST", "amenity": "post_box", "collection_times": "Mo-Fr 14:45; Sa 13:30", "note": "ON 12/24 AND 12/31, THIS BOX MAY BE COLLECTED AS EARLY AS 12 NOON.", "nsi_id": "unitedstatespostalservice-a77078", "operator": "United States Postal Service", "operator:short": "USPS", "operator:type": "public", "operator:wikidata": "Q668687", "ref": "7250100002"}, "type": "Feature"}
{"geometry": {"coordinates": [-91.6211063387, 35.6961558088], "type": "Point"}, "id": "Lcu4_BsiafpufdA5I4GvBS-go9I=", "properties": {"@source_uri": "https://tools.usps.com/UspsToolsRestServices/rest/POLocator/findLocations", "@spider": "usps_collection_boxes", "addr:city": "BATESVILLE", "addr:country": "US", "addr:postcode": "72501", "addr:state": "AR", "addr:street_address": "2181 BATESVILLE BLVD", "amenity": "post_box", "collection_times": "Mo-Sa 12:00", "nsi_id": "unitedstatespostalservice-a77078", "operator": "United States Postal Service", "operator:short": "USPS", "operator:type": "public", "operator:wikidata": "Q668687", "ref": "7250100003"}, "type": "Feature"}
{"geometry": {"coordinates": [-91.6406819837, 35.7702120188], "type": "Point"}, "id": "iFbRfY9kpbwlejl594JOgzL8s2I=", "properties": {"@source_uri": "https://tools.usps.com/UspsToolsRestServices/rest/POLocator/findLocations", "@spider": "usps_collection_boxes", "addr:city": "BATESVILLE", "addr:country": "US", "addr:postcode": "72501", "addr:state": "AR", "addr:street_address": "1325 HARRISON ST", "amenity": "post_box", "collection_times": "Mo-Fr 15:00; Sa 12:00", "note": "ON 12/24 AND 12/31, THIS BOX MAY BE COLLECTED AS EARLY AS 12 NOON.", "nsi_id": "unitedstatespostalservice-a77078", "operator": "United States Postal Service", "operator:short": "USPS", "operator:type": "public", "operator:wikidata": "Q668687", "ref": "7250100006"}, "type": "Feature"}
{"geometry": {"coordinates": [-91.6421318, 35.77759], "type": "Point"}, "id": "YQ7dIgCE_nRUsE0B9Us8USjmSHM=", "properties": {"@source_uri": "https://tools.usps.com/UspsToolsRestServices/rest/POLocator/findLocations", "@spider": "usps_collection_boxes", "addr:city": "BATESVILLE", "addr:country": "US", "addr:postcode": "72501", "addr:state": "AR", "addr:street_address": "1255 E MAIN ST", "amenity": "post_box", "collection_times": "Mo-Sa 14:50", "note": "ON 12/24 AND 12/31, THIS BOX MAY BE COLLECTED AS EARLY AS 12 NOON.", "nsi_id": "unitedstatespostalservice-a77078", "operator": "United States Postal Service", "operator:short": "USPS", "operator:type": "public", "operator:wikidata": "Q668687", "ref": "7250100007"}, "type": "Feature"}
{"geometry": {"coordinates": [-91.6147538, 35.763256], "type": "Point"}, "id": "u8OeCZW1Nlj3S6_Z2sn_jRgdkBk=", "properties": {"@source_uri": "https://tools.usps.com/UspsToolsRestServices/rest/POLocator/findLocations", "@spider": "usps_collection_boxes", "addr:city": "BATESVILLE", "addr:country": "US", "addr:postcode": "72501", "addr:state": "AR", "addr:street_address": "3150 HARRISON ST", "amenity": "post_box", "collection_times": "Mo-Sa 12:00", "nsi_id": "unitedstatespostalservice-a77078", "operator": "United States Postal Service", "operator:short": "USPS", "operator:type": "public", "operator:wikidata": "Q668687", "ref": "7250100009"}, "type": "Feature"}
{"geometry": {"coordinates": [-91.6350694, 35.768241], "type": "Point"}, "id": "eBnohKdXfX5Dwp6MaCeer45IvBI=", "properties": {"@source_uri": "https://tools.usps.com/UspsToolsRestServices/rest/POLocator/findLocations", "@spider": "usps_collection_boxes", "addr:city": "BATESVILLE", "addr:country": "US", "addr:postcode": "72501", "addr:state": "AR", "addr:street_address": "1710 HARRISON ST", "amenity": "post_box", "collection_times": "Mo-Fr 14:50; Sa 14:20", "note": "ON 12/24 AND 12/31, THIS BOX MAY BE COLLECTED AS EARLY AS 12 NOON.", "nsi_id": "unitedstatespostalservice-a77078", "operator": "United States Postal Service", "operator:short": "USPS", "operator:type": "public", "operator:wikidata": "Q668687", "ref": "7250100013"}, "type": "Feature"}
{"geometry": {"coordinates": [-91.635433, 35.762183], "type": "Point"}, "id": "-95IpYPAJ-BQtcLJa1PskohAXHo=", "properties": {"@source_uri": "https://tools.usps.com/UspsToolsRestServices/rest/POLocator/findLocations", "@spider": "usps_collection_boxes", "addr:city": "BATESVILLE", "addr:country": "US", "addr:postcode": "72501", "addr:state": "AR", "addr:street_address": "1700 MYERS ST", "amenity": "post_box", "collection_times": "Mo-Fr 14:00; Sa 13:30", "note": "ON 12/24 AND 12/31, THIS BOX MAY BE COLLECTED AS EARLY AS 12 NOON.", "nsi_id": "unitedstatespostalservice-a77078", "operator": "United States Postal Service", "operator:short": "USPS", "operator:type": "public", "operator:wikidata": "Q668687", "ref": "7250100014"}, "type": "Feature"}
{"geometry": {"coordinates": [-91.6601999, 35.776807], "type": "Point"}, "id": "pkSofzcrwXRnLk-fIY8NR7R8WU8=", "properties": {"@source_uri": "https://tools.usps.com/UspsToolsRestServices/rest/POLocator/findLocations", "@spider": "usps_collection_boxes", "addr:city": "BATESVILLE", "addr:country": "US", "addr:postcode": "72501", "addr:state": "AR", "addr:street_address": "945 N CENTRAL AVE", "amenity": "post_box", "collection_times": "Mo-Sa 14:40", "note": "ON 12/24 AND 12/31, THIS BOX MAY BE COLLECTED AS EARLY AS 12 NOON.", "nsi_id": "unitedstatespostalservice-a77078", "operator": "United States Postal Service", "operator:short": "USPS", "operator:type": "public", "operator:wikidata": "Q668687", "ref": "7250100017"}, "type": "Feature"}
{"geometry": {"coordinates": [-91.649681, 35.771298], "type": "Point"}, "id": "c8iS7F2SX2Jt9ftNtYuRu4JAw7U=", "properties": {"@source_uri": "https://tools.usps.com/UspsToolsRestServices/rest/POLocator/findLocations", "@spider": "usps_collection_boxes", "addr:city": "BATESVILLE", "addr:country": "US", "addr:postcode": "72501", "addr:state": "AR", "addr:street_address": "490 E COLLEGE ST", "amenity": "post_box", "collection_times": "Mo-Fr 18:00; Sa 17:00", "indoor": "yes", "note": "ON 12/24 AND 12/31, THIS BOX MAY BE COLLECTED AS EARLY AS 12 NOON.", "nsi_id": "unitedstatespostalservice-a77078", "operator": "United States Postal Service", "operator:short": "USPS", "operator:type": "public", "operator:wikidata": "Q668687", "ref": "7250100022"}, "type": "Feature"}
{"geometry": {"coordinates": [-91.649681, 35.771298], "type": "Point"}, "id": "i9bYMJeJZOgDL7j97oALIm3xfkE=", "properties": {"@source_uri": "https://tools.usps.com/UspsToolsRestServices/rest/POLocator/findLocations", "@spider": "usps_collection_boxes", "addr:city": "BATESVILLE", "addr:country": "US", "addr:postcode": "72501", "addr:state": "AR", "addr:street_address": "490 E COLLEGE ST", "amenity": "post_box", "collection_times": "Mo-Fr 18:00; Sa 17:00", "note": "ON 12/24 AND 12/31, THIS BOX MAY BE COLLECTED AS EARLY AS 12 NOON.", "nsi_id": "unitedstatespostalservice-a77078", "operator": "United States Postal Service", "operator:short": "USPS", "operator:type": "public", "operator:wikidata": "Q668687", "ref": "7250100023"}, "type": "Feature"}
{"geometry": {"coordinates": [-91.649681, 35.771298], "type": "Point"}, "id": "CuNFL4c_8HcE0eHScBUcNSmPu_c=", "properties": {"@source_uri": "https://tools.usps.com/UspsToolsRestServices/rest/POLocator/findLocations", "@spider": "usps_collection_boxes", "addr:city": "BATESVILLE", "addr:country": "US", "addr:postcode": "72501", "addr:state": "AR", "addr:street_address": "490 E COLLEGE ST", "amenity": "post_box", "collection_times": "Mo-Fr 18:00; Sa 17:00", "indoor": "yes", "note": "ON 12/24 AND 12/31, THIS BOX MAY BE COLLECTED AS EARLY AS 12 NOON.", "nsi_id": "unitedstatespostalservice-a77078", "operator": "United States Postal Service", "operator:short": "USPS", "operator:type": "public", "operator:wikidata": "Q668687", "ref": "7250100028"}, "type": "Feature"}
{"geometry": {"coordinates": [-91.649681, 35.771298], "type": "Point"}, "id": "LSrB3wlNRUfotKonnh0nY5uudwY=", "properties": {"@source_uri": "https://tools.usps.com/UspsToolsRestServices/rest/POLocator/findLocations", "@spider": "usps_collection_boxes", "addr:city": "BATESVILLE", "addr:country": "US", "addr:postcode": "72501", "addr:state": "AR", "addr:street_address": "490 E COLLEGE ST", "amenity": "post_box", "collection_times": "Mo-Fr 18:00; Sa 17:00", "indoor": "yes", "note": "ON 12/24 AND 12/31, THIS BOX MAY BE COLLECTED AS EARLY AS 12 NOON.", "nsi_id": "unitedstatespostalservice-a77078", "operator": "United States Postal Service", "operator:short": "USPS", "operator:type": "public", "operator:wikidata": "Q668687", "ref": "7250100029"}, "type": "Feature"}
{"geometry": {"coordinates": [-91.6369854, 35.769208], "type": "Point"}, "id": "NDEhVyOPwd4hB5M-dujBhblyzKY=", "properties": {"@source_uri": "https://tools.usps.com/UspsToolsRestServices/rest/POLocator/findLocations", "@spider": "usps_collection_boxes", "addr:city": "BATESVILLE", "addr:country": "US", "addr:postcode": "72501", "addr:state": "AR", "addr:street_address": "1536 HARRISON ST", "amenity": "post_box", "collection_times": "Mo-Fr 14:45; Sa 14:25", "note": "ON 12/24 AND 12/31, THIS BOX MAY BE COLLECTED AS EARLY AS 12 NOON.", "nsi_id": "unitedstatespostalservice-a77078", "operator": "United States Postal Service", "operator:short": "USPS", "operator:type": "public", "operator:wikidata": "Q668687", "ref": "7250100030"}, "type": "Feature"}
{"geometry": {"coordinates": [-91.649681, 35.771298], "type": "Point"}, "id": "99oSEo-yAk94hJFSj_iVlAM5XOU=", "properties": {"@source_uri": "https://tools.usps.com/UspsToolsRestServices/rest/POLocator/findLocations", "@spider": "usps_collection_boxes", "addr:city": "BATESVILLE", "addr:country": "US", "addr:postcode": "72501", "addr:state": "AR", "addr:street_address": "490 E COLLEGE ST", "amenity": "post_box", "collection_times": "Mo-Fr 18:00; Sa 17:00", "indoor": "yes", "note": "ON 12/24 AND 12/31, THIS BOX MAY BE COLLECTED AS EARLY AS 12 NOON.", "nsi_id": "unitedstatespostalservice-a77078", "operator": "United States Postal Service", "operator:short": "USPS", "operator:type": "public", "operator:wikidata": "Q668687", "ref": "7250100034"}, "type": "Feature"}
{"geometry": {"coordinates": [-91.649642398, 35.771266055], "type": "Point"}, "id": "YdGi_x7t-4KiLVcP6currnBIIT0=", "properties": {"@source_uri": "https://tools.usps.com/UspsToolsRestServices/rest/POLocator/findLocations", "@spider": "usps_collection_boxes", "addr:city": "BATESVILLE", "addr:country": "US", "addr:postcode": "72501", "addr:state": "AR", "addr:street_address": "490 E COLLEGE ST STE 139", "amenity": "post_box", "collection_times": "Mo-Fr 17:00; Sa 12:00", "indoor": "yes", "note": "ON 12/24 AND 12/31, THIS BOX MAY BE COLLECTED AS EARLY AS 12 NOON.", "nsi_id": "unitedstatespostalservice-a77078", "operator": "United States Postal Service", "operator:short": "USPS", "operator:type": "public", "operator:wikidata": "Q668687", "ref": "7250100036"}, "type": "Feature"}
{"geometry": {"coordinates": [-91.7583015, 36.21899], "type": "Point"}, "id": "IIaCv1qdsuh16r-pkqC16Wyj1Mg=", "properties": {"@source_uri": "https://tools.usps.com/UspsToolsRestServices/rest/POLocator/findLocations", "@spider": "usps_collection_boxes", "addr:city": "HORSESHOE BEND", "addr:country": "US", "addr:postcode": "72512", "addr:state": "AR", "addr:street_address": "811 SECOND ST", "amenity": "post_box", "collection_times": "Mo-Sa 16:00", "note": "ON 12/24 AND 12/31, THIS BOX MAY BE COLLECTED AS EARLY AS 12 NOON.", "nsi_id": "unitedstatespostalservice-a77078", "operator": "United States Postal Service", "operator:short": "USPS", "operator:type": "public", "operator:wikidata": "Q668687", "ref": "7251200001"}, "type": "Feature"}
{"geometry": {"coordinates": [-91.61014994, 36.224121497], "type": "Point"}, "id": "gjsZpD0X7XefHFnKCG3g3b0L3Nw=", "properties": {"@source_uri": "https://tools.usps.com/UspsToolsRestServices/rest/POLocator/findLocations", "@spider": "usps_collection_boxes", "addr:city": "ASH FLAT", "addr:country": "US", "addr:postcode": "72513", "addr:state": "AR", "addr:street_address": "34 W MAIN ST", "amenity": "post_box", "collection_times": "Mo-Fr 16:45; Sa 09:45", "note": "ON 12/24 AND 12/31, THIS BOX MAY BE COLLECTED AS EARLY AS 12 NOON.", "nsi_id": "unitedstatespostalservice-a77078", "operator": "United States Postal Service", "operator:short": "USPS", "operator:type": "public", "operator:wikidata": "Q668687", "ref": "7251300000"}, "type": "Feature"}
{"geometry": {"coordinates": [-91.609319, 36.224088], "type": "Point"}, "id": "Qv0anTfRMCWiyNdoMgZiNe8rlDo=", "properties": {"@source_uri": "https://tools.usps.com/UspsToolsRestServices/rest/POLocator/findLocations", "@spider": "usps_collection_boxes", "addr:city": "ASH FLAT", "addr:country": "US", "addr:postcode": "72513", "addr:state": "AR", "addr:street_address": "34 W MAIN ST", "amenity": "post_box", "collection_times": "Mo-Fr 16:45; Sa 09:45", "indoor": "yes", "note": "ON 12/24 AND 12/31, THIS BOX MAY BE COLLECTED AS EARLY AS 12 NOON.", "nsi_id": "unitedstatespostalservice-a77078", "operator": "United States Postal Service", "operator:short": "USPS", "operator:type": "public", "operator:wikidata": "Q668687", "ref": "7251300001"}, "type": "Feature"}
{"geometry": {"coordinates": [-91.61014994, 36.224121497], "type": "Point"}, "id": "bn18C9W1QD0UDT3wNvkSaBzK05M=", "properties": {"@source_uri": "https://tools.usps.com/UspsToolsRestServices/rest/POLocator/findLocations", "@spider": "usps_collection_boxes", "addr:city": "ASH FLAT", "addr:country": "US", "addr:postcode": "72513", "addr:state": "AR", "addr:street_address": "34 W MAIN ST", "amenity": "post_box", "collection_times": "Mo-Fr 16:30; Sa 10:00", "indoor": "yes", "note": "ON 12/24 AND 12/31, THIS BOX MAY BE COLLECTED AS EARLY AS 12 NOON.", "nsi_id": "unitedstatespostalservice-a77078", "operator": "United States Postal Service", "operator:short": "USPS", "operator:type": "public", "operator:wikidata": "Q668687", "ref": "7251300006"}, "type": "Feature"}
{"geometry": {"coordinates": [-91.925145, 36.142744], "type": "Point"}, "id": "xWAPRVYpYXiDZVQgPEg1fMfdJIU=", "properties": {"@source_uri": "https://tools.usps.com/UspsToolsRestServices/rest/POLocator/findLocations", "@spider": "usps_collection_boxes", "addr:city": "BROCKWELL", "addr:country": "US", "addr:postcode": "72517", "addr:state": "AR", "addr:street_address": "4047 N AR 9 HWY", "amenity": "post_box", "collection_times": "Mo-Fr 14:45; Sa 09:30", "indoor": "yes", "note": "ON 12/24 AND 12/31, THIS BOX MAY BE COLLECTED AS EARLY AS 12 NOON.", "nsi_id": "unitedstatespostalservice-a77078", "operator": "United States Postal Service", "operator:short": "USPS", "operator:type": "public", "operator:wikidata": "Q668687", "ref": "7251700000"}, "type": "Feature"}
{"geometry": {"coordinates": [-91.925145, 36.142744], "type": "Point"}, "id": "-8QdqfwjyPf6NoBo2iu9V6JPgHc=", "properties": {"@source_uri": "https://tools.usps.com/UspsToolsRestServices/rest/POLocator/findLocations", "@spider": "usps_collection_boxes", "addr:city": "BROCKWELL", "addr:country": "US", "addr:postcode": "72517", "addr:state": "AR", "addr:street_address": "4047 N AR 9 HWY", "amenity": "post_box", "collection_times": "Mo-Fr 14:45; Sa 09:30", "note": "ON 12/24 AND 12/31, THIS BOX MAY BE COLLECTED AS EARLY AS 12 NOON.", "nsi_id": "unitedstatespostalservice-a77078", "operator": "United States Postal Service", "operator:short": "USPS", "operator:type": "public", "operator:wikidata": "Q668687", "ref": "7251700001"}, "type": "Feature"}
{"geometry": {"coordinates": [-91.925146888, 36.142742239], "type": "Point"}, "id": "cbIzSjdL51fcv9TCX5_wHu7s4J8=", "properties": {"@source_uri": "https://tools.usps.com/UspsToolsRestServices/rest/POLocator/findLocations", "@spider": "usps_collection_boxes", "addr:city": "BROCKWELL", "addr:country": "US", "addr:postcode": "72517", "addr:state": "AR", "addr:street_address": "4047 N AR 9 HWY", "amenity": "post_box", "collection_times": "Mo-Fr 15:00; Sa 09:45", "indoor": "yes", "note": "ON 12/24 AND 12/31, THIS BOX MAY BE COLLECTED AS EARLY AS 12 NOON.", "nsi_id": "unitedstatespostalservice-a77078", "operator": "United States Postal Service", "operator:short": "USPS", "operator:type": "public", "operator:wikidata": "Q668687", "ref": "7251700002"}, "type": "Feature"}
{"geometry": {"coordinates": [-92.123805, 36.140954], "type": "Point"}, "id": "XCo64pZrzxd-gAGWl8td1lL9tJQ=", "properties": {"@source_uri": "https://tools.usps.com/UspsToolsRestServices/rest/POLocator/findLocations", "@spider": "usps_collection_boxes", "addr:city": "CALICO ROCK", "addr:country": "US", "addr:postcode": "72519", "addr:state": "AR", "addr:street_address": "2068 AR 56 HWY", "amenity": "post_box", "collection_times": "Mo-Fr 15:30; Sa 11:15", "indoor": "yes", "note": "ON 12/24 AND 12/31, THIS BOX MAY BE COLLECTED AS EARLY AS 12 NOON.", "nsi_id": "unitedstatespostalservice-a77078", "operator": "United States Postal Service", "operator:short": "USPS", "operator:type": "public", "operator:wikidata": "Q668687", "ref": "7251900002"}, "type": "Feature"}
{"geometry": {"coordinates": [-92.123805, 36.140954], "type": "Point"}, "id": "TkTW10Mpu6JJWldnNmu3p1fN4J8=", "properties": {"@source_uri": "https://tools.usps.com/UspsToolsRestServices/rest/POLocator/findLocations", "@spider": "usps_collection_boxes", "addr:city": "CALICO ROCK", "addr:country": "US", "addr:postcode": "72519", "addr:state": "AR", "addr:street_address": "2068 AR 56 HWY", "amenity": "post_box", "collection_times": "Mo-Fr 15:30; Sa 11:15", "indoor": "yes", "note": "ON 12/24 AND 12/31, THIS BOX MAY BE COLLECTED AS EARLY AS 12 NOON.", "nsi_id": "unitedstatespostalservice-a77078", "operator": "United States Postal Service", "operator:short": "USPS", "operator:type": "public", "operator:wikidata": "Q668687", "ref": "7251900006"}, "type": "Feature"}
{"geometry": {"coordinates": [-92.123805, 36.140954], "type": "Point"}, "id": "KhYyzDDjgYBS6jii0e0OJ4C0kqg=", "properties": {"@source_uri": "https://tools.usps.com/UspsToolsRestServices/rest/POLocator/findLocations", "@spider": "usps_collection_boxes", "addr:city": "CALICO ROCK", "addr:country": "US", "addr:postcode": "72519", "addr:state": "AR", "addr:street_address": "2068 AR 56 HWY", "amenity": "post_box", "collection_times": "Mo-Fr 15:30; Sa 11:15", "note": "ON 12/24 AND 12/31, THIS BOX MAY BE COLLECTED AS EARLY AS 12 NOON.", "nsi_id": "unitedstatespostalservice-a77078", "operator": "United States Postal Service", "operator:short": "USPS", "operator:type": "public", "operator:wikidata": "Q668687", "ref": "7251900007"}, "type": "Feature"}
{"geometry": {"coordinates": [-92.123803984, 36.140951338], "type": "Point"}, "id": "ahDwpUHelPaa0lya2Q-L4-8YHT0=", "properties": {"@source_uri": "https://tools.usps.com/UspsToolsRestServices/rest/POLocator/findLocations", "@spider": "usps_collection_boxes", "addr:city": "CALICO ROCK", "addr:country": "US", "addr:postcode": "72519", "addr:state": "AR", "addr:street_address": "2068 AR 56 HWY", "amenity": "post_box", "collection_times": "Mo-Fr 16:00; Sa 11:00", "indoor": "yes", "note": "ON 12/24 AND 12/31, THIS BOX MAY BE COLLECTED AS EARLY AS 12 NOON.", "nsi_id": "unitedstatespostalservice-a77078", "operator": "United States Postal Service", "operator:short": "USPS", "operator:type": "public", "operator:wikidata": "Q668687", "ref": "7251900008"}, "type": "Feature"}
{"geometry": {"coordinates": [-91.547721, 35.941293], "type": "Point"}, "id": "TvV14iXAXoZPlh8bU7bcH46dzmo=", "properties": {"@source_uri": "https://tools.usps.com/UspsToolsRestServices/rest/POLocator/findLocations", "@spider": "usps_collection_boxes", "addr:city": "CAVE CITY", "addr:country": "US", "addr:postcode": "72521", "addr:state": "AR", "addr:street_address": "112 S MAIN ST", "amenity": "post_box", "collection_times": "Mo-Fr 16:00; Sa 11:00", "note": "ON 12/24 AND 12/31, THIS BOX MAY BE COLLECTED AS EARLY AS 12 NOON.", "nsi_id": "unitedstatespostalservice-a77078", "operator": "United States Postal Service", "operator:short": "USPS", "operator:type": "public", "operator:wikidata": "Q668687", "ref": "7252100001"}, "type": "Feature"}
{"geometry": {"coordinates": [-91.547721, 35.941293], "type": "Point"}, "id": "Lbi_xt09Ua5c9KVnVLWtWv_a2uo=", "properties": {"@source_uri": "https://tools.usps.com/UspsToolsRestServices/rest/POLocator/findLocations", "@spider": "usps_collection_boxes", "addr:city": "CAVE CITY", "addr:country": "US", "addr:postcode": "72521", "addr:state": "AR", "addr:street_address": "112 S MAIN ST", "amenity": "post_box", "collection_times": "Mo-Fr 16:00; Sa 11:00", "indoor": "yes", "note": "ON 12/24 AND 12/31, THIS BOX MAY BE COLLECTED AS EARLY AS 12 NOON.", "nsi_id": "unitedstatespostalservice-a77078", "operator": "United States Postal Service", "operator:short": "USPS", "operator:type": "public", "operator:wikidata": "Q668687", "ref": "7252100002"}, "type": "Feature"}
{"geometry": {"coordinates": [-91.547721, 35.941293], "type": "Point"}, "id": "jSdd5wIR_Xp0xdEt-CaE8UOxK-g=", "properties": {"@source_uri": "https://tools.usps.com/UspsToolsRestServices/rest/POLocator/findLocations", "@spider": "usps_collection_boxes", "addr:city": "CAVE CITY", "addr:country": "US", "addr:postcode": "72521", "addr:state": "AR", "addr:street_address": "112 S MAIN ST", "amenity": "post_box", "collection_times": "Mo-Fr 16:00; Sa 11:00", "indoor": "yes", "note": "ON 12/24 AND 12/31, THIS BOX MAY BE COLLECTED AS EARLY AS 12 NOON.", "nsi_id": "unitedstatespostalservice-a77078", "operator": "United States Postal Service", "operator:short": "USPS", "operator:type": "public", "operator:wikidata": "Q668687", "ref": "7252100003"}, "type": "Feature"}
{"geometry": {"coordinates": [-91.548190308, 35.941174805], "type": "Point"}, "id": "lqLSa5ec2mcnwFyNB6KufaIVSUs=", "properties": {"@source_uri": "https://tools.usps.com/UspsToolsRestServices/rest/POLocator/findLocations", "@spider": "usps_collection_boxes", "addr:city": "CAVE CITY", "addr:country": "US", "addr:postcode": "72521", "addr:state": "AR", "addr:street_address": "112 S MAIN ST", "amenity": "post_box", "collection_times": "Mo-Fr 16:00; Sa 11:30", "indoor": "yes", "note": "ON 12/24 AND 12/31, THIS BOX MAY BE COLLECTED AS EARLY AS 12 NOON.", "nsi_id": "unitedstatespostalservice-a77078", "operator": "United States Postal Service", "operator:short": "USPS", "operator:type": "public", "operator:wikidata": "Q668687", "ref": "7252100004"}, "type": "Feature"}
{"geometry": {"coordinates": [-91.8493, 35.662795], "type": "Point"}, "id": "zVl-8oLjTUT0HXFN6C0V-NfhPzs=", "properties": {"@source_uri": "https://tools.usps.com/UspsToolsRestServices/rest/POLocator/findLocations", "@spider": "usps_collection_boxes", "addr:city": "CONCORD", "addr:country": "US", "addr:postcode": "72523", "addr:state": "AR", "addr:street_address": "10845 HEBER SPRINGS RD N", "amenity": "post_box", "collection_times": "Mo-Fr 13:00; Sa 09:30", "note": "ON 12/24 AND 12/31, THIS BOX MAY BE COLLECTED AS EARLY AS 12 NOON.", "nsi_id": "unitedstatespostalservice-a77078", "operator": "United States Postal Service", "operator:short": "USPS", "operator:type": "public", "operator:wikidata": "Q668687", "ref": "7252300001"}, "type": "Feature"}
{"geometry": {"coordinates": [-91.8493, 35.662795], "type": "Point"}, "id": "x-TijszDBQESO5pR4SfspM-q860=", "properties": {"@source_uri": "https://tools.usps.com/UspsToolsRestServices/rest/POLocator/findLocations", "@spider": "usps_collection_boxes", "addr:city": "CONCORD", "addr:country": "US", "addr:postcode": "72523", "addr:state": "AR", "addr:street_address": "10845 HEBER SPRINGS RD N", "amenity": "post_box", "collection_times": "Mo-Fr 13:00; Sa 09:30", "indoor": "yes", "note": "ON 12/24 AND 12/31, THIS BOX MAY BE COLLECTED AS EARLY AS 12 NOON.", "nsi_id": "unitedstatespostalservice-a77078", "operator": "United States Postal Service", "operator:short": "USPS", "operator:type": "public", "operator:wikidata": "Q668687", "ref": "7252300002"}, "type": "Feature"}
{"geometry": {"coordinates": [-91.848466622, 35.663310973], "type": "Point"}, "id": "Jr2OaUt5Fa8OxRRhLmDQxlrxdeI=", "properties": {"@source_uri": "https://tools.usps.com/UspsToolsRestServices/rest/POLocator/findLocations", "@spider": "usps_collection_boxes", "addr:city": "CONCORD", "addr:country": "US", "addr:postcode": "72523", "addr:state": "AR", "addr:street_address": "10845 HEBER SPRINGS RD N", "amenity": "post_box", "collection_times": "Mo-Fr 13:00; Sa 09:30", "indoor": "yes", "note": "ON 12/24 AND 12/31, THIS BOX MAY BE COLLECTED AS EARLY AS 12 NOON.", "nsi_id": "unitedstatespostalservice-a77078", "operator": "United States Postal Service", "operator:short": "USPS", "operator:type": "public", "operator:wikidata": "Q668687", "ref": "7252300003"}, "type": "Feature"}
{"geometry": {"coordinates": [-91.3414320309, 35.8147099921], "type": "Point"}, "id": "UskI3TZZVV37bbCy_s1acCFwa_o=", "properties": {"@source_uri": "https://tools.usps.com/UspsToolsRestServices/rest/POLocator/findLocations", "@spider": "usps_collection_boxes", "addr:city": "CORD", "addr:country": "US", "addr:postcode": "72524", "addr:state": "AR", "addr:street_address": "8060 CORD RD", "amenity": "post_box", "collection_times": "Mo-Fr 11:30; Sa 10:00", "nsi_id": "unitedstatespostalservice-a77078", "operator": "United States Postal Service", "operator:short": "USPS", "operator:type": "public", "operator:wikidata": "Q668687", "ref": "7252400001"}, "type": "Feature"}
{"geometry": {"coordinates": [-91.343638, 35.813226], "type": "Point"}, "id": "aNk9v9-l7KFxtLeyZ-sJ2xA0De4=", "properties": {"@source_uri": "https://tools.usps.com/UspsToolsRestServices/rest/POLocator/findLocations", "@spider": "usps_collection_boxes", "addr:city": "CORD", "addr:country": "US", "addr:postcode": "72524", "addr:state": "AR", "addr:street_address": "8060 CORD RD", "amenity": "post_box", "collection_times": "Mo-Fr 11:30; Sa 10:30", "indoor": "yes", "nsi_id": "unitedstatespostalservice-a77078", "operator": "United States Postal Service", "operator:short": "USPS", "operator:type": "public", "operator:wikidata": "Q668687", "ref": "7252400002"}, "type": "Feature"}
{"geometry": {"coordinates": [-91.343638667, 35.813225994], "type": "Point"}, "id": "3eJkSXCMw-3PX1AYI4zbwpp8cYw=", "properties": {"@source_uri": "https://tools.usps.com/UspsToolsRestServices/rest/POLocator/findLocations", "@spider": "usps_collection_boxes", "addr:city": "CORD", "addr:country": "US", "addr:postcode": "72524", "addr:state": "AR", "addr:street_address": "8060 CORD RD", "amenity": "post_box", "collection_times": "Mo-Fr 12:00; Sa 11:00", "indoor": "yes", "nsi_id": "unitedstatespostalservice-a77078", "operator": "United States Postal Service", "operator:short": "USPS", "operator:type": "public", "operator:wikidata": "Q668687", "ref": "7252400004"}, "type": "Feature"}
{"geometry": {"coordinates": [-91.753751, 35.87466], "type": "Point"}, "id": "I45qinOWCxwR05hSaoDAvXWwcXw=", "properties": {"@source_uri": "https://tools.usps.com/UspsToolsRestServices/rest/POLocator/findLocations", "@spider": "usps_collection_boxes", "addr:city": "CUSHMAN", "addr:country": "US", "addr:postcode": "72526", "addr:state": "AR", "addr:street_address": "100 COLLIETOWN RD", "amenity": "post_box", "collection_times": "Mo-Fr 12:00; Sa 08:45", "indoor": "yes", "nsi_id": "unitedstatespostalservice-a77078", "operator": "United States Postal Service", "operator:short": "USPS", "operator:type": "public", "operator:wikidata": "Q668687", "ref": "7252600001"}, "type": "Feature"}
{"geometry": {"coordinates": [-91.753710972, 35.874701119], "type": "Point"}, "id": "YejMsaXDWZrSSWHvqzlNMquzYvc=", "properties": {"@source_uri": "https://tools.usps.com/UspsToolsRestServices/rest/POLocator/findLocations", "@spider": "usps_collection_boxes", "addr:city": "CUSHMAN", "addr:country": "US", "addr:postcode": "72526", "addr:state": "AR", "addr:street_address": "100 COLLIETOWN RD", "amenity": "post_box", "collection_times": "Mo-Fr 12:00; Sa 09:00", "indoor": "yes", "nsi_id": "unitedstatespostalservice-a77078", "operator": "United States Postal Service", "operator:short": "USPS", "operator:type": "public", "operator:wikidata": "Q668687", "ref": "7252600002"}, "type": "Feature"}
{"geometry": {"coordinates": [-91.67967, 35.736728], "type": "Point"}, "id": "UKfiqksqJCzJ3BMGNkVhNKNTLrE=", "properties": {"@source_uri": "https://tools.usps.com/UspsToolsRestServices/rest/POLocator/findLocations", "@spider": "usps_collection_boxes", "addr:city": "DESHA", "addr:country": "US", "addr:postcode": "72527", "addr:state": "AR", "addr:street_address": "20 GAINER FERRY RD", "amenity": "post_box", "collection_times": "Mo-Fr 11:30; Sa 10:45", "indoor": "yes", "nsi_id": "unitedstatespostalservice-a77078", "operator": "United States Postal Service", "operator:short": "USPS", "operator:type": "public", "operator:wikidata": "Q668687", "ref": "7252700002"}, "type": "Feature"}
{"geometry": {"coordinates": [-91.679631264, 35.736734436], "type": "Point"}, "id": "gCoO-UdEcjVDA-BXhm05l0Myp0k=", "properties": {"@source_uri": "https://tools.usps.com/UspsToolsRestServices/rest/POLocator/findLocations", "@spider": "usps_collection_boxes", "addr:city": "DESHA", "addr:country": "US", "addr:postcode": "72527", "addr:state": "AR", "addr:street_address": "20 GAINER FERRY RD", "amenity": "post_box", "collection_times": "Mo-Fr 12:00; Sa 10:45", "indoor": "yes", "nsi_id": "unitedstatespostalservice-a77078", "operator": "United States Postal Service", "operator:short": "USPS", "operator:type": "public", "operator:wikidata": "Q668687", "ref": "7252700003"}, "type": "Feature"}
{"geometry": {"coordinates": [-92.112646, 36.227603], "type": "Point"}, "id": "syJuqZQCwIHLYr2-tTRHSsGGZYI=", "properties": {"@source_uri": "https://tools.usps.com/UspsToolsRestServices/rest/POLocator/findLocations", "@spider": "usps_collection_boxes", "addr:city": "DOLPH", "addr:country": "US", "addr:postcode": "72528", "addr:state": "AR", "addr:street_address": "3715 DOLPH RD", "amenity": "post_box", "collection_times": "Mo-Fr 09:30; Sa 09:45", "indoor": "yes", "nsi_id": "unitedstatespostalservice-a77078", "operator": "United States Postal Service", "operator:short": "USPS", "operator:type": "public", "operator:wikidata": "Q668687", "ref": "7252800000"}, "type": "Feature"}
{"geometry": {"coordinates": [-92.1123447512, 36.2276317534], "type": "Point"}, "id": "z6YkoqZE_gYDs_0kywWqTdhwok0=", "properties": {"@source_uri": "https://tools.usps.com/UspsToolsRestServices/rest/POLocator/findLocations", "@spider": "usps_collection_boxes", "addr:city": "DOLPH", "addr:country": "US", "addr:postcode": "72528", "addr:state": "AR", "addr:street_address": "3715 DOLPH RD", "amenity": "post_box", "collection_times": "Mo-Fr 12:30; Sa 09:45", "note": "ON 12/24 AND 12/31, THIS BOX MAY BE COLLECTED AS EARLY AS 12 NOON.", "nsi_id": "unitedstatespostalservice-a77078", "operator": "United States Postal Service", "operator:short": "USPS", "operator:type": "public", "operator:wikidata": "Q668687", "ref": "7252800001"}, "type": "Feature"}
{"geometry": {"coordinates": [-92.112687563, 36.22760123], "type": "Point"}, "id": "0nvKqqOl-kDYgbIoS1JXxZo15hU=", "properties": {"@source_uri": "https://tools.usps.com/UspsToolsRestServices/rest/POLocator/findLocations", "@spider": "usps_collection_boxes", "addr:city": "DOLPH", "addr:country": "US", "addr:postcode": "72528", "addr:state": "AR", "addr:street_address": "3715 DOLPH RD", "amenity": "post_box", "collection_times": "Mo-Sa 10:00", "indoor": "yes", "nsi_id": "unitedstatespostalservice-a77078", "operator": "United States Postal Service", "operator:short": "USPS", "operator:type": "public", "operator:wikidata": "Q668687", "ref": "7252800002"}, "type": "Feature"}
{"geometry": {"coordinates": [-91.527914, 36.309013], "type": "Point"}, "id": "3q6nguBaSOAacO2cGE928TgW0tM=", "properties": {"@source_uri": "https://tools.usps.com/UspsToolsRestServices/rest/POLocator/findLocations", "@spider": "usps_collection_boxes", "addr:city": "CHEROKEE VLG", "addr:country": "US", "addr:postcode": "72529", "addr:state": "AR", "addr:street_address": "13 E CHEROKEE VILLAGE MALL", "amenity": "post_box", "collection_times": "Mo-Fr 16:30; Sa 11:30", "note": "ON 12/24 AND 12/31, THIS BOX MAY BE COLLECTED AS EARLY AS 12 NOON.", "nsi_id": "unitedstatespostalservice-a77078", "operator": "United States Postal Service", "operator:short": "USPS", "operator:type": "public", "operator:wikidata": "Q668687", "ref": "7252900000"}, "type": "Feature"}
{"geometry": {"coordinates": [-91.5563210465, 36.2669888933], "type": "Point"}, "id": "M2Ejlv3bz7VUqpJLOEA-349jHjI=", "properties": {"@source_uri": "https://tools.usps.com/UspsToolsRestServices/rest/POLocator/findLocations", "@spider": "usps_collection_boxes", "addr:city": "CHEROKEE VLG", "addr:country": "US", "addr:postcode": "72529", "addr:state": "AR", "addr:street_address": "195 HOSPITAL DR", "amenity": "post_box", "collection_times": "Mo-Sa 09:15", "nsi_id": "unitedstatespostalservice-a77078", "operator": "United States Postal Service", "operator:short": "USPS", "operator:type": "public", "operator:wikidata": "Q668687", "ref": "7252900002"}, "type": "Feature"}
{"geometry": {"coordinates": [-91.947481014, 35.632759997], "type": "Point"}, "id": "eYcjFNzr7fIs994JFPEM2cAw5dM=", "properties": {"@source_uri": "https://tools.usps.com/UspsToolsRestServices/rest/POLocator/findLocations", "@spider": "usps_collection_boxes", "addr:city": "DRASCO", "addr:country": "US", "addr:postcode": "72530", "addr:state": "AR", "addr:street_address": "6679 HEBER SPRINGS RD N", "amenity": "post_box", "collection_times": "Mo-Fr 15:00; Sa 10:00", "note": "ON 12/24 AND 12/31, THIS BOX MAY BE COLLECTED AS EARLY AS 12 NOON.", "nsi_id": "unitedstatespostalservice-a77078", "operator": "United States Postal Service", "operator:short": "USPS", "operator:type": "public", "operator:wikidata": "Q668687", "ref": "7253000001"}, "type": "Feature"}
{"geometry": {"coordinates": [-91.947481014, 35.632759997], "type": "Point"}, "id": "3BMXc2MgT4YYiIcLEfYuEOXFlXI=", "properties": {"@source_uri": "https://tools.usps.com/UspsToolsRestServices/rest/POLocator/findLocations", "@spider": "usps_collection_boxes", "addr:city": "DRASCO", "addr:country": "US", "addr:postcode": "72530", "addr:state": "AR", "addr:street_address": "6679 HEBER SPRINGS RD N", "amenity": "post_box", "collection_times": "Mo-Fr 15:00; Sa 10:00", "indoor": "yes", "note": "ON 12/24 AND 12/31, THIS BOX MAY BE COLLECTED AS EARLY AS 12 NOON.", "nsi_id": "unitedstatespostalservice-a77078", "operator": "United States Postal Service", "operator:short": "USPS", "operator:type": "public", "operator:wikidata": "Q668687", "ref": "7253000002"}, "type": "Feature"}
{"geometry": {"coordinates": [-91.947481014, 35.632759997], "type": "Point"}, "id": "UNxpW_hC7Nnvbr6DZKBGwKeoxTY=", "properties": {"@source_uri": "https://tools.usps.com/UspsToolsRestServices/rest/POLocator/findLocations", "@spider": "usps_collection_boxes", "addr:city": "DRASCO", "addr:country": "US", "addr:postcode": "72530", "addr:state": "AR", "addr:street_address": "6679 HEBER SPRINGS RD N", "amenity": "post_box", "collection_times": "Mo-Fr 15:00; Sa 10:00", "indoor": "yes", "note": "ON 12/24 AND 12/31, THIS BOX MAY BE COLLECTED AS EARLY AS 12 NOON.", "nsi_id": "unitedstatespostalservice-a77078", "operator": "United States Postal Service", "operator:short": "USPS", "operator:type": "public", "operator:wikidata": "Q668687", "ref": "7253000004"}, "type": "Feature"}
{"geometry": {"coordinates": [-92.0957039074, 36.3316212484], "type": "Point"}, "id": "TosHRNo_LbuMuq8gzZ4sIMSHQkQ=", "properties": {"@source_uri": "https://tools.usps.com/UspsToolsRestServices/rest/POLocator/findLocations", "@spider": "usps_collection_boxes", "addr:city": "ELIZABETH", "addr:country": "US", "addr:postcode": "72531", "addr:state": "AR", "addr:street_address": "4506 ELIZABETH RD", "amenity": "post_box", "collection_times": "Mo-Fr 12:00; Sa 10:00", "indoor": "yes", "nsi_id": "unitedstatespostalservice-a77078", "operator": "United States Postal Service", "operator:short": "USPS", "operator:type": "public", "operator:wikidata": "Q668687", "ref": "7253100002"}, "type": "Feature"}
{"geometry": {"coordinates": [-92.0957039074, 36.3316212484], "type": "Point"}, "id": "5XMXz1Ps4lYG0C9-5wGLiM-9HII=", "properties": {"@source_uri": "https://tools.usps.com/UspsToolsRestServices/rest/POLocator/findLocations", "@spider": "usps_collection_boxes", "addr:city": "ELIZABETH", "addr:country": "US", "addr:postcode": "72531", "addr:state": "AR", "addr:street_address": "4506 ELIZABETH RD", "amenity": "post_box", "collection_times": "Mo-Fr 12:30; Sa 10:15", "indoor": "yes", "note": "ON 12/24 AND 12/31, THIS BOX MAY BE COLLECTED AS EARLY AS 12 NOON.", "nsi_id": "unitedstatespostalservice-a77078", "operator": "United States Postal Service", "operator:short": "USPS", "operator:type": "public", "operator:wikidata": "Q668687", "ref": "7253100003"}, "type": "Feature"}
{"geometry": {"coordinates": [-91.613016, 36.077928], "type": "Point"}, "id": "mYrSZRYKwZilEFeHNFrSGKXQoOc=", "properties": {"@source_uri": "https://tools.usps.com/UspsToolsRestServices/rest/POLocator/findLocations", "@spider": "usps_collection_boxes", "addr:city": "EVENING SHADE", "addr:country": "US", "addr:postcode": "72532", "addr:state": "AR", "addr:street_address": "2095 EVENING SHADE DR", "amenity": "post_box", "collection_times": "Mo-Fr 10:45; Sa 10:15", "indoor": "yes", "nsi_id": "unitedstatespostalservice-a77078", "operator": "United States Postal Service", "operator:short": "USPS", "operator:type": "public", "operator:wikidata": "Q668687", "ref": "7253200003"}, "type": "Feature"}
{"geometry": {"coordinates": [-91.61489477, 36.069876231], "type": "Point"}, "id": "Y9iZJicdTEcVjvPqN65W9ZDGruk=", "properties": {"@source_uri": "https://tools.usps.com/UspsToolsRestServices/rest/POLocator/findLocations", "@spider": "usps_collection_boxes", "addr:city": "EVENING SHADE", "addr:country": "US", "addr:postcode": "72532", "addr:state": "AR", "addr:street_address": "2095 EVENING SHADE DR", "amenity": "post_box", "collection_times": "Mo-Fr 11:00; Sa 10:15", "indoor": "yes", "nsi_id": "unitedstatespostalservice-a77078", "operator": "United States Postal Service", "operator:short": "USPS", "operator:type": "public", "operator:wikidata": "Q668687", "ref": "7253200006"}, "type": "Feature"}
{"geometry": {"coordinates": [-91.757417, 35.587077], "type": "Point"}, "id": "-DzwXMI8P5HLrsRf-1I1QEXZt5Y=", "properties": {"@source_uri": "https://tools.usps.com/UspsToolsRestServices/rest/POLocator/findLocations", "@spider": "usps_collection_boxes", "addr:city": "FLORAL", "addr:country": "US", "addr:postcode": "72534", "addr:state": "AR", "addr:street_address": "3845 FLORAL RD", "amenity": "post_box", "collection_times": "Mo-Fr 11:00; Sa 09:00", "indoor": "yes", "nsi_id": "unitedstatespostalservice-a77078", "operator": "United States Postal Service", "operator:short": "USPS", "operator:type": "public", "operator:wikidata": "Q668687", "ref": "7253400002"}, "type": "Feature"}
{"geometry": {"coordinates": [-91.757406889, 35.587017428], "type": "Point"}, "id": "B4rxP_Ysz_UdQrfHlPduAAGFxOk=", "properties": {"@source_uri": "https://tools.usps.com/UspsToolsRestServices/rest/POLocator/findLocations", "@spider": "usps_collection_boxes", "addr:city": "FLORAL", "addr:country": "US", "addr:postcode": "72534", "addr:state": "AR", "addr:street_address": "3845 FLORAL RD", "amenity": "post_box", "collection_times": "Mo-Fr 11:00; Sa 09:00", "indoor": "yes", "nsi_id": "unitedstatespostalservice-a77078", "operator": "United States Postal Service", "operator:short": "USPS", "operator:type": "public", "operator:wikidata": "Q668687", "ref": "7253400003"}, "type": "Feature"}
{"geometry": {"coordinates": [-91.782149, 36.161515], "type": "Point"}, "id": "lduUYhR584AKEo5a9xQ3F3pOqCE=", "properties": {"@source_uri": "https://tools.usps.com/UspsToolsRestServices/rest/POLocator/findLocations", "@spider": "usps_collection_boxes", "addr:city": "FRANKLIN", "addr:country": "US", "addr:postcode": "72536", "addr:state": "AR", "addr:street_address": "758 E 1ST ST", "amenity": "post_box", "collection_times": "Mo-Fr 15:30; Sa 10:30", "note": "ON 12/24 AND 12/31, THIS BOX MAY BE COLLECTED AS EARLY AS 12 NOON.", "nsi_id": "unitedstatespostalservice-a77078", "operator": "United States Postal Service", "operator:short": "USPS", "operator:type": "public", "operator:wikidata": "Q668687", "ref": "7253600001"}, "type": "Feature"}
{"geometry": {"coordinates": [-91.764725, 36.176927], "type": "Point"}, "id": "TT5j73NEcRbnQ-VUsHsZ1Sb-loQ=", "properties": {"@source_uri": "https://tools.usps.com/UspsToolsRestServices/rest/POLocator/findLocations", "@spider": "usps_collection_boxes", "addr:city": "FRANKLIN", "addr:country": "US", "addr:postcode": "72536", "addr:state": "AR", "addr:street_address": "758 E 1ST ST", "amenity": "post_box", "collection_times": "Mo-Fr 15:30; Sa 10:30", "indoor": "yes", "note": "ON 12/24 AND 12/31, THIS BOX MAY BE COLLECTED AS EARLY AS 12 NOON.", "nsi_id": "unitedstatespostalservice-a77078", "operator": "United States Postal Service", "operator:short": "USPS", "operator:type": "public", "operator:wikidata": "Q668687", "ref": "7253600003"}, "type": "Feature"}
{"geometry": {"coordinates": [-91.764371442, 36.176946561], "type": "Point"}, "id": "cSksJIFkIabr4q5VsN68eU9JXZQ=", "properties": {"@source_uri": "https://tools.usps.com/UspsToolsRestServices/rest/POLocator/findLocations", "@spider": "usps_collection_boxes", "addr:city": "FRANKLIN", "addr:country": "US", "addr:postcode": "72536", "addr:state": "AR", "addr:street_address": "780 HIGHWAY 56 E", "amenity": "post_box", "collection_times": "Mo-Fr 16:00; Sa 10:30", "indoor": "yes", "note": "ON 12/24 AND 12/31, THIS BOX MAY BE COLLECTED AS EARLY AS 12 NOON.", "nsi_id": "unitedstatespostalservice-a77078", "operator": "United States Postal Service", "operator:short": "USPS", "operator:type": "public", "operator:wikidata": "Q668687", "ref": "7253600004"}, "type": "Feature"}
{"geometry": {"coordinates": [-92.2335286309, 36.4560306521], "type": "Point"}, "id": "SUK_Al0xFiI8vpYOYLxKWvf9yR8=", "properties": {"@source_uri": "https://tools.usps.com/UspsToolsRestServices/rest/POLocator/findLocations", "@spider": "usps_collection_boxes", "addr:city": "GAMALIEL", "addr:country": "US", "addr:postcode": "72537", "addr:state": "AR", "addr:street_address": "7621 HIGHWAY 101", "amenity": "post_box", "collection_times": "Mo-Fr 14:30; Sa 12:30", "indoor": "yes", "note": "ON 12/24 AND 12/31, THIS BOX MAY BE COLLECTED AS EARLY AS 12 NOON.", "nsi_id": "unitedstatespostalservice-a77078", "operator": "United States Postal Service", "operator:short": "USPS", "operator:type": "public", "operator:wikidata": "Q668687", "ref": "7253700001"}, "type": "Feature"}
{"geometry": {"coordinates": [-92.2335286309, 36.4560306521], "type": "Point"}, "id": "cWT5YjdNMxkF5IQ1yG2bXkRoUwA=", "properties": {"@source_uri": "https://tools.usps.com/UspsToolsRestServices/rest/POLocator/findLocations", "@spider": "usps_collection_boxes", "addr:city": "GAMALIEL", "addr:country": "US", "addr:postcode": "72537", "addr:state": "AR", "addr:street_address": "7621 HIGHWAY 101", "amenity": "post_box", "collection_times": "Mo-Fr 14:30; Sa 12:00", "indoor": "yes", "note": "ON 12/24 AND 12/31, THIS BOX MAY BE COLLECTED AS EARLY AS 12 NOON.", "nsi_id": "unitedstatespostalservice-a77078", "operator": "United States Postal Service", "operator:short": "USPS", "operator:type": "public", "operator:wikidata": "Q668687", "ref": "7253700003"}, "type": "Feature"}
{"geometry": {"coordinates": [-92.1149836258, 36.3865484886], "type": "Point"}, "id": "eb_LLmSylF2nHPuyeOQpD0gZBzs=", "properties": {"@source_uri": "https://tools.usps.com/UspsToolsRestServices/rest/POLocator/findLocations", "@spider": "usps_collection_boxes", "addr:city": "GEPP", "addr:country": "US", "addr:postcode": "72538", "addr:state": "AR", "addr:street_address": "17971 HIGHWAY 62 W", "amenity": "post_box", "collection_times": "Mo-Fr 15:30; Sa 10:00", "indoor": "yes", "note": "ON 12/24 AND 12/31, THIS BOX MAY BE COLLECTED AS EARLY AS 12 NOON.", "nsi_id": "unitedstatespostalservice-a77078", "operator": "United States Postal Service", "operator:short": "USPS", "operator:type": "public", "operator:wikidata": "Q668687", "ref": "7253800004"}, "type": "Feature"}
{"geometry": {"coordinates": [-92.1149836258, 36.3865484886], "type": "Point"}, "id": "koJJTtxvN81N3fZpDpWgxvEOJtM=", "properties": {"@source_uri": "https://tools.usps.com/UspsToolsRestServices/rest/POLocator/findLocations", "@spider": "usps_collection_boxes", "addr:city": "GEPP", "addr:country": "US", "addr:postcode": "72538", "addr:state": "AR", "addr:street_address": "17971 HIGHWAY 62 W", "amenity": "post_box", "collection_times": "Mo-Fr 16:00; Sa 10:30", "indoor": "yes", "note": "ON 12/24 AND 12/31, THIS BOX MAY BE COLLECTED AS EARLY AS 12 NOON.", "nsi_id": "unitedstatespostalservice-a77078", "operator": "United States Postal Service", "operator:short": "USPS", "operator:type": "public", "operator:wikidata": "Q668687", "ref": "7253800005"}, "type": "Feature"}
{"geometry": {"coordinates": [-91.724814, 36.287099], "type": "Point"}, "id": "-MDU11ACOuNTnfzdG1rmAJwCmC4=", "properties": {"@source_uri": "https://tools.usps.com/UspsToolsRestServices/rest/POLocator/findLocations", "@spider": "usps_collection_boxes", "addr:city": "GLENCOE", "addr:country": "US", "addr:postcode": "72539", "addr:state": "AR", "addr:street_address": "32 HIGHWAY 289 S", "amenity": "post_box", "collection_times": "Mo-Fr 11:30; Sa 09:00", "indoor": "yes", "nsi_id": "unitedstatespostalservice-a77078", "operator": "United States Postal Service", "operator:short": "USPS", "operator:type": "public", "operator:wikidata": "Q668687", "ref": "7253900001"}, "type": "Feature"}
{"geometry": {"coordinates": [-91.74815677, 36.294156632], "type": "Point"}, "id": "ypws5MOqPdS_sgEFm7K4vO8ofns=", "properties": {"@source_uri": "https://tools.usps.com/UspsToolsRestServices/rest/POLocator/findLocations", "@spider": "usps_collection_boxes", "addr:city": "GLENCOE", "addr:country": "US", "addr:postcode": "72539", "addr:state": "AR", "addr:street_address": "32 HIGHWAY 289 S", "amenity": "post_box", "collection_times": "Mo-Fr 12:00; Sa 09:00", "indoor": "yes", "nsi_id": "unitedstatespostalservice-a77078", "operator": "United States Postal Service", "operator:short": "USPS", "operator:type": "public", "operator:wikidata": "Q668687", "ref": "7253900002"}, "type": "Feature"}
{"geometry": {"coordinates": [-91.940415, 35.925327], "type": "Point"}, "id": "NN8Rd0eTs-QHfoXwqvmbDIT8nIU=", "properties": {"@source_uri": "https://tools.usps.com/UspsToolsRestServices/rest/POLocator/findLocations", "@spider": "usps_collection_boxes", "addr:city": "GUION", "addr:country": "US", "addr:postcode": "72540", "addr:state": "AR", "addr:street_address": "301 MAIN ST", "amenity": "post_box", "collection_times": "Mo-Fr 11:00; Sa 09:15", "nsi_id": "unitedstatespostalservice-a77078", "operator": "United States Postal Service", "operator:short": "USPS", "operator:type": "public", "operator:wikidata": "Q668687", "ref": "7254000000"}, "type": "Feature"}
{"geometry": {"coordinates": [-91.940415, 35.925327], "type": "Point"}, "id": "gT_DV5yjtUGiu34klgHgJLCLspE=", "properties": {"@source_uri": "https://tools.usps.com/UspsToolsRestServices/rest/POLocator/findLocations", "@spider": "usps_collection_boxes", "addr:city": "GUION", "addr:country": "US", "addr:postcode": "72540", "addr:state": "AR", "addr:street_address": "301 MAIN ST", "amenity": "post_box", "collection_times": "Mo-Fr 11:00; Sa 09:15", "indoor": "yes", "nsi_id": "unitedstatespostalservice-a77078", "operator": "United States Postal Service", "operator:short": "USPS", "operator:type": "public", "operator:wikidata": "Q668687", "ref": "7254000001"}, "type": "Feature"}
{"geometry": {"coordinates": [-91.940445699, 35.92529387], "type": "Point"}, "id": "nbgehi48fbdFsLHXa4LPv538FqE=", "properties": {"@source_uri": "https://tools.usps.com/UspsToolsRestServices/rest/POLocator/findLocations", "@spider": "usps_collection_boxes", "addr:city": "GUION", "addr:country": "US", "addr:postcode": "72540", "addr:state": "AR", "addr:street_address": "301 MAIN ST", "amenity": "post_box", "collection_times": "Mo-Fr 11:00; Sa 09:45", "indoor": "yes", "nsi_id": "unitedstatespostalservice-a77078", "operator": "United States Postal Service", "operator:short": "USPS", "operator:type": "public", "operator:wikidata": "Q668687", "ref": "7254000002"}, "type": "Feature"}
{"geometry": {"coordinates": [-91.493220876, 36.325798371], "type": "Point"}, "id": "JLCrsrD2y6EXLKvB8sL8bz1az4g=", "properties": {"@source_uri": "https://tools.usps.com/UspsToolsRestServices/rest/POLocator/findLocations", "@spider": "usps_collection_boxes", "addr:city": "HARDY", "addr:country": "US", "addr:postcode": "72542", "addr:state": "AR", "addr:street_address": "300 HIGHWAY 63 N", "amenity": "post_box", "collection_times": "Mo-Sa 16:30", "note": "ON 12/24 AND 12/31, THIS BOX MAY BE COLLECTED AS EARLY AS 12 NOON.", "nsi_id": "unitedstatespostalservice-a77078", "operator": "United States Postal Service", "operator:short": "USPS", "operator:type": "public", "operator:wikidata": "Q668687", "ref": "7254200001"}, "type": "Feature"}
{"geometry": {"coordinates": [-91.5126929, 36.269944], "type": "Point"}, "id": "6CwsATQoZOGdyckzmC7WmDjjsgA=", "properties": {"@source_uri": "https://tools.usps.com/UspsToolsRestServices/rest/POLocator/findLocations", "@spider": "usps_collection_boxes", "addr:city": "HARDY", "addr:country": "US", "addr:postcode": "72542", "addr:state": "AR", "addr:street_address": "2379 HIGHWAY 62 412", "amenity": "post_box", "collection_times": "Mo-Sa 09:15", "nsi_id": "unitedstatespostalservice-a77078", "operator": "United States Postal Service", "operator:short": "USPS", "operator:type": "public", "operator:wikidata": "Q668687", "ref": "7254200002"}, "type": "Feature"}
{"geometry": {"coordinates": [-91.493220876, 36.325798371], "type": "Point"}, "id": "_RIzGfXeXnitTSpptjz-bvKtMz8=", "properties": {"@source_uri": "https://tools.usps.com/UspsToolsRestServices/rest/POLocator/findLocations", "@spider": "usps_collection_boxes", "addr:city": "HARDY", "addr:country": "US", "addr:postcode": "72542", "addr:state": "AR", "addr:street_address": "300 HIGHWAY 63 N", "amenity": "post_box", "collection_times": "Mo-Sa 16:45", "indoor": "yes", "note": "ON 12/24 AND 12/31, THIS BOX MAY BE COLLECTED AS EARLY AS 12 NOON.", "nsi_id": "unitedstatespostalservice-a77078", "operator": "United States Postal Service", "operator:short": "USPS", "operator:type": "public", "operator:wikidata": "Q668687", "ref": "7254200008"}, "type": "Feature"}
{"geometry": {"coordinates": [-91.493220876, 36.325798371], "type": "Point"}, "id": "oSMqnboVq8DSFzalzcwY9rYKuP4=", "properties": {"@source_uri": "https://tools.usps.com/UspsToolsRestServices/rest/POLocator/findLocations", "@spider": "usps_collection_boxes", "addr:city": "HARDY", "addr:country": "US", "addr:postcode": "72542", "addr:state": "AR", "addr:street_address": "300 HIGHWAY 63 N", "amenity": "post_box", "collection_times": "Mo-Fr 16:30; Sa 11:30", "indoor": "yes", "note": "ON 12/24 AND 12/31, THIS BOX MAY BE COLLECTED AS EARLY AS 12 NOON.", "nsi_id": "unitedstatespostalservice-a77078", "operator": "United States Postal Service", "operator:short": "USPS", "operator:type": "public", "operator:wikidata": "Q668687", "ref": "7254200011"}, "type": "Feature"}
{"geometry": {"coordinates": [-92.02946, 35.50372], "type": "Point"}, "id": "ZMw0Kvv-qVWg8vPEuQGpqQIewJ8=", "properties": {"@source_uri": "https://tools.usps.com/UspsToolsRestServices/rest/POLocator/findLocations", "@spider": "usps_collection_boxes", "addr:city": "HEBER SPRINGS", "addr:country": "US", "addr:postcode": "72543", "addr:state": "AR", "addr:street_address": "1215 HIGHWAY 25B N", "amenity": "post_box", "collection_times": "Mo-Sa 16:45", "note": "ON 12/24 AND 12/31, THIS BOX MAY BE COLLECTED AS EARLY AS 12 NOON.", "nsi_id": "unitedstatespostalservice-a77078", "operator": "United States Postal Service", "operator:short": "USPS", "operator:type": "public", "operator:wikidata": "Q668687", "ref": "7254300001"}, "type": "Feature"}
{"geometry": {"coordinates": [-92.031604, 35.491481], "type": "Point"}, "id": "lQpeGXf94XbjX6PSsIEynghw8i8=", "properties": {"@source_uri": "https://tools.usps.com/UspsToolsRestServices/rest/POLocator/findLocations", "@spider": "usps_collection_boxes", "addr:city": "HEBER SPRINGS", "addr:country": "US", "addr:postcode": "72543", "addr:state": "AR", "addr:street_address": "301 W MAIN ST", "amenity": "post_box", "collection_times": "Mo-Fr 14:20; Sa 14:05", "note": "ON 12/24 AND 12/31, THIS BOX MAY BE COLLECTED AS EARLY AS 12 NOON.", "nsi_id": "unitedstatespostalservice-a77078", "operator": "United States Postal Service", "operator:short": "USPS", "operator:type": "public", "operator:wikidata": "Q668687", "ref": "7254300004"}, "type": "Feature"}
{"geometry": {"coordinates": [-92.0384877, 35.491913], "type": "Point"}, "id": "qZbkriZm0OK4UAzR-279QtpxSns=", "properties": {"@source_uri": "https://tools.usps.com/UspsToolsRestServices/rest/POLocator/findLocations", "@spider": "usps_collection_boxes", "addr:city": "HEBER SPRINGS", "addr:country": "US", "addr:postcode": "72543", "addr:state": "AR", "addr:street_address": "821 W MAIN ST", "amenity": "post_box", "collection_times": "Mo-Fr 14:15; Sa 14:00", "note": "ON 12/24 AND 12/31, THIS BOX MAY BE COLLECTED AS EARLY AS 12 NOON.", "nsi_id": "unitedstatespostalservice-a77078", "operator": "United States Postal Service", "operator:short": "USPS", "operator:type": "public", "operator:wikidata": "Q668687", "ref": "7254300007"}, "type": "Feature"}
{"geometry": {"coordinates": [-92.02946, 35.50372], "type": "Point"}, "id": "lHMyBR8E_1iIXHz5h4Mon7ampCI=", "properties": {"@source_uri": "https://tools.usps.com/UspsToolsRestServices/rest/POLocator/findLocations", "@spider": "usps_collection_boxes", "addr:city": "HEBER SPRINGS", "addr:country": "US", "addr:postcode": "72543", "addr:state": "AR", "addr:street_address": "1215 HIGHWAY 25B N", "amenity": "post_box", "collection_times": "Mo-Sa 16:45", "indoor": "yes", "note": "ON 12/24 AND 12/31, THIS BOX MAY BE COLLECTED AS EARLY AS 12 NOON.", "nsi_id": "unitedstatespostalservice-a77078", "operator": "United States Postal Service", "operator:short": "USPS", "operator:type": "public", "operator:wikidata": "Q668687", "ref": "7254300010"}, "type": "Feature"}
{"geometry": {"coordinates": [-92.02946, 35.50372], "type": "Point"}, "id": "12kdr6zy5UVjV-eMkZ1-ZT5Rd_g=", "properties": {"@source_uri": "https://tools.usps.com/UspsToolsRestServices/rest/POLocator/findLocations", "@spider": "usps_collection_boxes", "addr:city": "HEBER SPRINGS", "addr:country": "US", "addr:postcode": "72543", "addr:state": "AR", "addr:street_address": "1215 HIGHWAY 25B N", "amenity": "post_box", "collection_times": "Mo-Sa 16:45", "indoor": "yes", "note": "ON 12/24 AND 12/31, THIS BOX MAY BE COLLECTED AS EARLY AS 12 NOON.", "nsi_id": "unitedstatespostalservice-a77078", "operator": "United States Postal Service", "operator:short": "USPS", "operator:type": "public", "operator:wikidata": "Q668687", "ref": "7254300013"}, "type": "Feature"}
{"geometry": {"coordinates": [-92.029429795, 35.504613859], "type": "Point"}, "id": "-6Ntg5UuA0d7so543xnBwsjTulg=", "properties": {"@source_uri": "https://tools.usps.com/UspsToolsRestServices/rest/POLocator/findLocations", "@spider": "usps_collection_boxes", "addr:city": "HEBER SPRINGS", "addr:country": "US", "addr:postcode": "72543", "addr:state": "AR", "addr:street_address": "1215 HIGHWAY 25B N", "amenity": "post_box", "collection_times": "Mo-Fr 16:30; Sa 12:30", "indoor": "yes", "note": "ON 12/24 AND 12/31, THIS BOX MAY BE COLLECTED AS EARLY AS 12 NOON.", "nsi_id": "unitedstatespostalservice-a77078", "operator": "United States Postal Service", "operator:short": "USPS", "operator:type": "public", "operator:wikidata": "Q668687", "ref": "7254300014"}, "type": "Feature"}
{"geometry": {"coordinates": [-92.1910649874, 36.3832531853], "type": "Point"}, "id": "eBf1fKAC8ol8OffOMmMIe6af7tM=", "properties": {"@source_uri": "https://tools.usps.com/UspsToolsRestServices/rest/POLocator/findLocations", "@spider": "usps_collection_boxes", "addr:city": "HENDERSON", "addr:country": "US", "addr:postcode": "72544", "addr:state": "AR", "addr:street_address": "13091 HIGHWAY 62 E", "amenity": "post_box", "collection_times": "Mo-Fr 11:00; Sa 10:00", "indoor": "yes", "nsi_id": "unitedstatespostalservice-a77078", "operator": "United States Postal Service", "operator:short": "USPS", "operator:type": "public", "operator:wikidata": "Q668687", "ref": "7254400002"}, "type": "Feature"}
{"geometry": {"coordinates": [-92.1910649874, 36.3832531853], "type": "Point"}, "id": "QGjRV-EPuFSdFu0eNg2_xyvnxQM=", "properties": {"@source_uri": "https://tools.usps.com/UspsToolsRestServices/rest/POLocator/findLocations", "@spider": "usps_collection_boxes", "addr:city": "HENDERSON", "addr:country": "US", "addr:postcode": "72544", "addr:state": "AR", "addr:street_address": "13091 HIGHWAY 62 E", "amenity": "post_box", "collection_times": "Mo-Fr 11:30; Sa 10:30", "indoor": "yes", "nsi_id": "unitedstatespostalservice-a77078", "operator": "United States Postal Service", "operator:short": "USPS", "operator:type": "public", "operator:wikidata": "Q668687", "ref": "7254400004"}, "type": "Feature"}
{"geometry": {"coordinates": [-91.9304410237, 35.5811589889], "type": "Point"}, "id": "hv7YVQK1ZQ7gtEfTJSsJb_Eyyvw=", "properties": {"@source_uri": "https://tools.usps.com/UspsToolsRestServices/rest/POLocator/findLocations", "@spider": "usps_collection_boxes", "addr:city": "IDA", "addr:country": "US", "addr:postcode": "72546", "addr:state": "AR", "addr:street_address": "4420 HEBER SPRINGS RD N", "amenity": "post_box", "collection_times": "Mo-Fr 15:15; Sa 11:00", "indoor": "yes", "note": "ON 12/24 AND 12/31, THIS BOX MAY BE COLLECTED AS EARLY AS 12 NOON.", "nsi_id": "unitedstatespostalservice-a77078", "operator": "United States Postal Service", "operator:short": "USPS", "operator:type": "public", "operator:wikidata": "Q668687", "ref": "7254600001"}, "type": "Feature"}
{"geometry": {"coordinates": [-91.9304410237, 35.5811589889], "type": "Point"}, "id": "6-pAO8T8Vs1WVDvcUED5La8X1rQ=", "properties": {"@source_uri": "https://tools.usps.com/UspsToolsRestServices/rest/POLocator/findLocations", "@spider": "usps_collection_boxes", "addr:city": "IDA", "addr:country": "US", "addr:postcode": "72546", "addr:state": "AR", "addr:street_address": "4420 HEBER SPRINGS RD N", "amenity": "post_box", "collection_times": "Mo-Fr 15:15; Sa 09:45", "note": "ON 12/24 AND 12/31, THIS BOX MAY BE COLLECTED AS EARLY AS 12 NOON.", "nsi_id": "unitedstatespostalservice-a77078", "operator": "United States Postal Service", "operator:short": "USPS", "operator:type": "public", "operator:wikidata": "Q668687", "ref": "7254600002"}, "type": "Feature"}
{"geometry": {"coordinates": [-91.9304410237, 35.5811589889], "type": "Point"}, "id": "M7GlirmFnD0H-PkrhydEGKWeBPs=", "properties": {"@source_uri": "https://tools.usps.com/UspsToolsRestServices/rest/POLocator/findLocations", "@spider": "usps_collection_boxes", "addr:city": "IDA", "addr:country": "US", "addr:postcode": "72546", "addr:state": "AR", "addr:street_address": "4420 HEBER SPRINGS RD N", "amenity": "post_box", "collection_times": "Mo-Fr 15:30; Sa 11:30", "indoor": "yes", "note": "ON 12/24 AND 12/31, THIS BOX MAY BE COLLECTED AS EARLY AS 12 NOON.", "nsi_id": "unitedstatespostalservice-a77078", "operator": "United States Postal Service", "operator:short": "USPS", "operator:type": "public", "operator:wikidata": "Q668687", "ref": "7254600003"}, "type": "Feature"}
{"geometry": {"coordinates": [-91.735462, 35.722906], "type": "Point"}, "id": "NJFk62GkhPvLnUJSJGfqYy2Co_g=", "properties": {"@source_uri": "https://tools.usps.com/UspsToolsRestServices/rest/POLocator/findLocations", "@spider": "usps_collection_boxes", "addr:city": "LOCUST GROVE", "addr:country": "US", "addr:postcode": "72550", "addr:state": "AR", "addr:street_address": "4955 HEBER SPRINGS RD", "amenity": "post_box", "collection_times": "Mo-Fr 11:30; Sa 09:45", "nsi_id": "unitedstatespostalservice-a77078", "operator": "United States Postal Service", "operator:short": "USPS", "operator:type": "public", "operator:wikidata": "Q668687", "ref": "7255000001"}, "type": "Feature"}
{"geometry": {"coordinates": [-91.735462, 35.722906], "type": "Point"}, "id": "MeZApr-TCKO9UoVjdW6_LmWKlbc=", "properties": {"@source_uri": "https://tools.usps.com/UspsToolsRestServices/rest/POLocator/findLocations", "@spider": "usps_collection_boxes", "addr:city": "LOCUST GROVE", "addr:country": "US", "addr:postcode": "72550", "addr:state": "AR", "addr:street_address": "4955 HEBER SPRINGS RD", "amenity": "post_box", "collection_times": "Mo-Fr 11:30; Sa 09:45", "indoor": "yes", "nsi_id": "unitedstatespostalservice-a77078", "operator": "United States Postal Service", "operator:short": "USPS", "operator:type": "public", "operator:wikidata": "Q668687", "ref": "7255000002"}, "type": "Feature"}
{"geometry": {"coordinates": [-91.735463961, 35.722899011], "type": "Point"}, "id": "hGFHFgwexMD4FpJCqj7Xg4NzliQ=", "properties": {"@source_uri": "https://tools.usps.com/UspsToolsRestServices/rest/POLocator/findLocations", "@spider": "usps_collection_boxes", "addr:city": "LOCUST GROVE", "addr:country": "US", "addr:postcode": "72550", "addr:state": "AR", "addr:street_address": "4955 HEBER SPRINGS RD", "amenity": "post_box", "collection_times": "Mo-Fr 12:00; Sa 09:45", "indoor": "yes", "nsi_id": "unitedstatespostalservice-a77078", "operator": "United States Postal Service", "operator:short": "USPS", "operator:type": "public", "operator:wikidata": "Q668687", "ref": "7255000004"}, "type": "Feature"}
{"geometry": {"coordinates": [-91.482436, 35.702163], "type": "Point"}, "id": "uF1w30UZ7mjZPk-5p6MzvEKbLdc=", "properties": {"@source_uri": "https://tools.usps.com/UspsToolsRestServices/rest/POLocator/findLocations", "@spider": "usps_collection_boxes", "addr:city": "MAGNESS", "addr:country": "US", "addr:postcode": "72553", "addr:state": "AR", "addr:street_address": "95 BRITTNAY ST", "amenity": "post_box", "collection_times": "Mo-Fr 14:45; Sa 11:45", "indoor": "yes", "note": "ON 12/24 AND 12/31, THIS BOX MAY BE COLLECTED AS EARLY AS 12 NOON.", "nsi_id": "unitedstatespostalservice-a77078", "operator": "United States Postal Service", "operator:short": "USPS", "operator:type": "public", "operator:wikidata": "Q668687", "ref": "7255300002"}, "type": "Feature"}
{"geometry": {"coordinates": [-91.482414262, 35.702200376], "type": "Point"}, "id": "cOXeaQsGIq42I4j5POhEr1u_6fU=", "properties": {"@source_uri": "https://tools.usps.com/UspsToolsRestServices/rest/POLocator/findLocations", "@spider": "usps_collection_boxes", "addr:city": "MAGNESS", "addr:country": "US", "addr:postcode": "72553", "addr:state": "AR", "addr:street_address": "95 BRITTNAY ST", "amenity": "post_box", "collection_times": "Mo-Fr 15:00; Sa 12:00", "indoor": "yes", "note": "ON 12/24 AND 12/31, THIS BOX MAY BE COLLECTED AS EARLY AS 12 NOON.", "nsi_id": "unitedstatespostalservice-a77078", "operator": "United States Postal Service", "operator:short": "USPS", "operator:type": "public", "operator:wikidata": "Q668687", "ref": "7255300003"}, "type": "Feature"}
{"geometry": {"coordinates": [-91.549942, 36.495722], "type": "Point"}, "id": "hOAqoPzQ95CckqejY6oCCSlWMdk=", "properties": {"@source_uri": "https://tools.usps.com/UspsToolsRestServices/rest/POLocator/findLocations", "@spider": "usps_collection_boxes", "addr:city": "MAMMOTH SPRING", "addr:country": "US", "addr:postcode": "72554", "addr:state": "AR", "addr:street_address": "1075 MAIN ST", "amenity": "post_box", "collection_times": "Mo-Fr 16:00; Sa 11:00", "note": "ON 12/24 AND 12/31, THIS BOX MAY BE COLLECTED AS EARLY AS 12 NOON.", "nsi_id": "unitedstatespostalservice-a77078", "operator": "United States Postal Service", "operator:short": "USPS", "operator:type": "public", "operator:wikidata": "Q668687", "ref": "7255400001"}, "type": "Feature"}
{"geometry": {"coordinates": [-91.549942, 36.495722], "type": "Point"}, "id": "4t_6_oL-ATPDExPRQawny3qGmnE=", "properties": {"@source_uri": "https://tools.usps.com/UspsToolsRestServices/rest/POLocator/findLocations", "@spider": "usps_collection_boxes", "addr:city": "MAMMOTH SPRING", "addr:country": "US", "addr:postcode": "72554", "addr:state": "AR", "addr:street_address": "1075 MAIN ST", "amenity": "post_box", "collection_times": "Mo-Fr 16:00; Sa 11:00", "indoor": "yes", "note": "ON 12/24 AND 12/31, THIS BOX MAY BE COLLECTED AS EARLY AS 12 NOON.", "nsi_id": "unitedstatespostalservice-a77078", "operator": "United States Postal Service", "operator:short": "USPS", "operator:type": "public", "operator:wikidata": "Q668687", "ref": "7255400002"}, "type": "Feature"}
{"geometry": {"coordinates": [-91.5354138, 36.495958], "type": "Point"}, "id": "NxN9y33CTh0wcADW4JxKqQAAZEY=", "properties": {"@source_uri": "https://tools.usps.com/UspsToolsRestServices/rest/POLocator/findLocations", "@spider": "usps_collection_boxes", "addr:city": "MAMMOTH SPRING", "addr:country": "US", "addr:postcode": "72554", "addr:state": "AR", "addr:street_address": "17 HIGHWAY 63 N", "amenity": "post_box", "collection_times": "Mo-Sa 10:45", "nsi_id": "unitedstatespostalservice-a77078", "operator": "United States Postal Service", "operator:short": "USPS", "operator:type": "public", "operator:wikidata": "Q668687", "ref": "7255400005"}, "type": "Feature"}
{"geometry": {"coordinates": [-91.549961492, 36.49575], "type": "Point"}, "id": "ESKrSll5mv5U1dovU7EvMJ00xSg=", "properties": {"@source_uri": "https://tools.usps.com/UspsToolsRestServices/rest/POLocator/findLocations", "@spider": "usps_collection_boxes", "addr:city": "MAMMOTH SPRING", "addr:country": "US", "addr:postcode": "72554", "addr:state": "AR", "addr:street_address": "1075 MAIN ST", "amenity": "post_box", "collection_times": "Mo-Fr 16:00; Sa 11:00", "indoor": "yes", "note": "ON 12/24 AND 12/31, THIS BOX MAY BE COLLECTED AS EARLY AS 12 NOON.", "nsi_id": "unitedstatespostalservice-a77078", "operator": "United States Postal Service", "operator:short": "USPS", "operator:type": "public", "operator:wikidata": "Q668687", "ref": "7255400007"}, "type": "Feature"}
{"geometry": {"coordinates": [-91.8843650314, 35.789988784], "type": "Point"}, "id": "agyMRQNt5WbQQL_txhrK0Y_C4r0=", "properties": {"@source_uri": "https://tools.usps.com/UspsToolsRestServices/rest/POLocator/findLocations", "@spider": "usps_collection_boxes", "addr:city": "MARCELLA", "addr:country": "US", "addr:postcode": "72555", "addr:state": "AR", "addr:street_address": "113 HIDDEN RD", "amenity": "post_box", "collection_times": "Mo-Sa 14:45", "note": "ON 12/24 AND 12/31, THIS BOX MAY BE COLLECTED AS EARLY AS 12 NOON.", "nsi_id": "unitedstatespostalservice-a77078", "operator": "United States Postal Service", "operator:short": "USPS", "operator:type": "public", "operator:wikidata": "Q668687", "ref": "7255500000"}, "type": "Feature"}
{"geometry": {"coordinates": [-91.8843650314, 35.789988784], "type": "Point"}, "id": "4Wr1nZmFS2SKE6Pnl1F6RmAgsV8=", "properties": {"@source_uri": "https://tools.usps.com/UspsToolsRestServices/rest/POLocator/findLocations", "@spider": "usps_collection_boxes", "addr:city": "MARCELLA", "addr:country": "US", "addr:postcode": "72555", "addr:state": "AR", "addr:street_address": "113 HIDDEN RD", "amenity": "post_box", "collection_times": "Mo-Sa 14:45", "indoor": "yes", "note": "ON 12/24 AND 12/31, THIS BOX MAY BE COLLECTED AS EARLY AS 12 NOON.", "nsi_id": "unitedstatespostalservice-a77078", "operator": "United States Postal Service", "operator:short": "USPS", "operator:type": "public", "operator:wikidata": "Q668687", "ref": "7255500001"}, "type": "Feature"}
{"geometry": {"coordinates": [-91.8843650314, 35.789988784], "type": "Point"}, "id": "Iefrf7jJQX7NF0TKuC0uZWjbCpk=", "properties": {"@source_uri": "https://tools.usps.com/UspsToolsRestServices/rest/POLocator/findLocations", "@spider": "usps_collection_boxes", "addr:city": "MARCELLA", "addr:country": "US", "addr:postcode": "72555", "addr:state": "AR", "addr:street_address": "113 HIDDEN RD", "amenity": "post_box", "collection_times": "Mo-Sa 15:00", "indoor": "yes", "note": "ON 12/24 AND 12/31, THIS BOX MAY BE COLLECTED AS EARLY AS 12 NOON.", "nsi_id": "unitedstatespostalservice-a77078", "operator": "United States Postal Service", "operator:short": "USPS", "operator:type": "public", "operator:wikidata": "Q668687", "ref": "7255500003"}, "type": "Feature"}
{"geometry": {"coordinates": [-91.906232, 36.055723], "type": "Point"}, "id": "B3uhQynbb8r5bb956LJe14xUVSQ=", "properties": {"@source_uri": "https://tools.usps.com/UspsToolsRestServices/rest/POLocator/findLocations", "@spider": "usps_collection_boxes", "addr:city": "MELBOURNE", "addr:country": "US", "addr:postcode": "72556", "addr:state": "AR", "addr:street_address": "206 LUNEN ST", "amenity": "post_box", "collection_times": "Mo-Fr 16:45; Sa 10:00", "indoor": "yes", "note": "ON 12/24 AND 12/31, THIS BOX MAY BE COLLECTED AS EARLY AS 12 NOON.", "nsi_id": "unitedstatespostalservice-a77078", "operator": "United States Postal Service", "operator:short": "USPS", "operator:type": "public", "operator:wikidata": "Q668687", "ref": "7255600004"}, "type": "Feature"}
{"geometry": {"coordinates": [-91.906232, 36.055723], "type": "Point"}, "id": "sFrRyLlZ9y_5OA_1GqPZFttps8M=", "properties": {"@source_uri": "https://tools.usps.com/UspsToolsRestServices/rest/POLocator/findLocations", "@spider": "usps_collection_boxes", "addr:city": "MELBOURNE", "addr:country": "US", "addr:postcode": "72556", "addr:state": "AR", "addr:street_address": "206 LUNEN ST", "amenity": "post_box", "collection_times": "Mo-Fr 16:45; Sa 10:00", "indoor": "yes", "note": "ON 12/24 AND 12/31, THIS BOX MAY BE COLLECTED AS EARLY AS 12 NOON.", "nsi_id": "unitedstatespostalservice-a77078", "operator": "United States Postal Service", "operator:short": "USPS", "operator:type": "public", "operator:wikidata": "Q668687", "ref": "7255600005"}, "type": "Feature"}
{"geometry": {"coordinates": [-91.906232, 36.055723], "type": "Point"}, "id": "3VBv32zvr9vau6kwsU9sml0RKjk=", "properties": {"@source_uri": "https://tools.usps.com/UspsToolsRestServices/rest/POLocator/findLocations", "@spider": "usps_collection_boxes", "addr:city": "MELBOURNE", "addr:country": "US", "addr:postcode": "72556", "addr:state": "AR", "addr:street_address": "206 LUNEN ST", "amenity": "post_box", "collection_times": "Mo-Fr 16:15; Sa 10:00", "note": "ON 12/24 AND 12/31, THIS BOX MAY BE COLLECTED AS EARLY AS 12 NOON.", "nsi_id": "unitedstatespostalservice-a77078", "operator": "United States Postal Service", "operator:short": "USPS", "operator:type": "public", "operator:wikidata": "Q668687", "ref": "7255600006"}, "type": "Feature"}
{"geometry": {"coordinates": [-91.906224575, 36.055793465], "type": "Point"}, "id": "VI4PUs-9DNS5xy44HyPwmBpiMFk=", "properties": {"@source_uri": "https://tools.usps.com/UspsToolsRestServices/rest/POLocator/findLocations", "@spider": "usps_collection_boxes", "addr:city": "MELBOURNE", "addr:country": "US", "addr:postcode": "72556", "addr:state": "AR", "addr:street_address": "206 LUNEN ST", "amenity": "post_box", "collection_times": "Mo-Fr 16:15; Sa 10:00", "indoor": "yes", "note": "ON 12/24 AND 12/31, THIS BOX MAY BE COLLECTED AS EARLY AS 12 NOON.", "nsi_id": "unitedstatespostalservice-a77078", "operator": "United States Postal Service", "operator:short": "USPS", "operator:type": "public", "operator:wikidata": "Q668687", "ref": "7255600007"}, "type": "Feature"}
{"geometry": {"coordinates": [-92.102744, 35.874665], "type": "Point"}, "id": "WfCtRHfrHs1MQ4p1VE8OqeloouM=", "properties": {"@source_uri": "https://tools.usps.com/UspsToolsRestServices/rest/POLocator/findLocations", "@spider": "usps_collection_boxes", "addr:city": "MOUNTAIN VIEW", "addr:country": "US", "addr:postcode": "72560", "addr:state": "AR", "addr:street_address": "802 SYLAMORE AVE", "amenity": "post_box", "collection_times": "Mo-Fr 16:15; Sa 10:55", "note": "ON 12/24 AND 12/31, THIS BOX MAY BE COLLECTED AS EARLY AS 12 NOON.", "nsi_id": "unitedstatespostalservice-a77078", "operator": "United States Postal Service", "operator:short": "USPS", "operator:type": "public", "operator:wikidata": "Q668687", "ref": "7256000001"}, "type": "Feature"}
{"geometry": {"coordinates": [-92.1184684858, 35.8692420255], "type": "Point"}, "id": "HU8OEGaEbb4xvv4bAQMX8Putccw=", "properties": {"@source_uri": "https://tools.usps.com/UspsToolsRestServices/rest/POLocator/findLocations", "@spider": "usps_collection_boxes", "addr:city": "MOUNTAIN VIEW", "addr:country": "US", "addr:postcode": "72560", "addr:state": "AR", "addr:street_address": "108 W WASHINGTON ST", "amenity": "post_box", "collection_times": "Mo-Sa 12:30", "note": "ON 12/24 AND 12/31, THIS BOX MAY BE COLLECTED AS EARLY AS 12 NOON.", "nsi_id": "unitedstatespostalservice-a77078", "operator": "United States Postal Service", "operator:short": "USPS", "operator:type": "public", "operator:wikidata": "Q668687", "ref": "7256000003"}, "type": "Feature"}
{"geometry": {"coordinates": [-92.102744, 35.874665], "type": "Point"}, "id": "LF04__7qHLc404F340XOKp4woYw=", "properties": {"@source_uri": "https://tools.usps.com/UspsToolsRestServices/rest/POLocator/findLocations", "@spider": "usps_collection_boxes", "addr:city": "MOUNTAIN VIEW", "addr:country": "US", "addr:postcode": "72560", "addr:state": "AR", "addr:street_address": "802 SYLAMORE AVE", "amenity": "post_box", "collection_times": "Mo-Fr 16:30; Sa 10:55", "indoor": "yes", "note": "ON 12/24 AND 12/31, THIS BOX MAY BE COLLECTED AS EARLY AS 12 NOON.", "nsi_id": "unitedstatespostalservice-a77078", "operator": "United States Postal Service", "operator:short": "USPS", "operator:type": "public", "operator:wikidata": "Q668687", "ref": "7256000005"}, "type": "Feature"}
{"geometry": {"coordinates": [-92.102744, 35.874665], "type": "Point"}, "id": "-VcdMtOY1jW8R4mrZsjIGc0OTp0=", "properties": {"@source_uri": "https://tools.usps.com/UspsToolsRestServices/rest/POLocator/findLocations", "@spider": "usps_collection_boxes", "addr:city": "MOUNTAIN VIEW", "addr:country": "US", "addr:postcode": "72560", "addr:state": "AR", "addr:street_address": "802 SYLAMORE AVE", "amenity": "post_box", "collection_times": "Mo-Fr 16:30; Sa 10:55", "indoor": "yes", "note": "ON 12/24 AND 12/31, THIS BOX MAY BE COLLECTED AS EARLY AS 12 NOON.", "nsi_id": "unitedstatespostalservice-a77078", "operator": "United States Postal Service", "operator:short": "USPS", "operator:type": "public", "operator:wikidata": "Q668687", "ref": "7256000006"}, "type": "Feature"}
{"geometry": {"coordinates": [-92.102687366, 35.875068919], "type": "Point"}, "id": "2iM1ZdOMI2DZmhs2Vz0rA34uExk=", "properties": {"@source_uri": "https://tools.usps.com/UspsToolsRestServices/rest/POLocator/findLocations", "@spider": "usps_collection_boxes", "addr:city": "MOUNTAIN VIEW", "addr:country": "US", "addr:postcode": "72560", "addr:state": "AR", "addr:street_address": "802 SYLAMORE AVE", "amenity": "post_box", "collection_times": "Mo-Fr 16:30; Sa 11:30", "indoor": "yes", "note": "ON 12/24 AND 12/31, THIS BOX MAY BE COLLECTED AS EARLY AS 12 NOON.", "nsi_id": "unitedstatespostalservice-a77078", "operator": "United States Postal Service", "operator:short": "USPS", "operator:type": "public", "operator:wikidata": "Q668687", "ref": "7256000007"}, "type": "Feature"}
{"geometry": {"coordinates": [-91.754227, 35.961506], "type": "Point"}, "id": "KEJFmHTxwPh4ymhszBoQFfq6BWc=", "properties": {"@source_uri": "https://tools.usps.com/UspsToolsRestServices/rest/POLocator/findLocations", "@spider": "usps_collection_boxes", "addr:city": "MOUNT PLEASANT", "addr:country": "US", "addr:postcode": "72561", "addr:state": "AR", "addr:street_address": "204 PEARL ST", "amenity": "post_box", "collection_times": "Mo-Fr 11:30; Sa 10:15", "indoor": "yes", "nsi_id": "unitedstatespostalservice-a77078", "operator": "United States Postal Service", "operator:short": "USPS", "operator:type": "public", "operator:wikidata": "Q668687", "ref": "7256100001"}, "type": "Feature"}
{"geometry": {"coordinates": [-91.754227, 35.961506], "type": "Point"}, "id": "IRqYROywMVXCRbUXSFBoWl8KVes=", "properties": {"@source_uri": "https://tools.usps.com/UspsToolsRestServices/rest/POLocator/findLocations", "@spider": "usps_collection_boxes", "addr:city": "MOUNT PLEASANT", "addr:country": "US", "addr:postcode": "72561", "addr:state": "AR", "addr:street_address": "204 PEARL ST", "amenity": "post_box", "collection_times": "Mo-Fr 11:30; Sa 10:15", "nsi_id": "unitedstatespostalservice-a77078", "operator": "United States Postal Service", "operator:short": "USPS", "operator:type": "public", "operator:wikidata": "Q668687", "ref": "7256100003"}, "type": "Feature"}
{"geometry": {"coordinates": [-91.752159486, 35.961391374], "type": "Point"}, "id": "9ZlfyfqKZGlwLDwfHO7KS6ecGoo=", "properties": {"@source_uri": "https://tools.usps.com/UspsToolsRestServices/rest/POLocator/findLocations", "@spider": "usps_collection_boxes", "addr:city": "MOUNT PLEASANT", "addr:country": "US", "addr:postcode": "72561", "addr:state": "AR", "addr:street_address": "204 PEARL ST", "amenity": "post_box", "collection_times": "Mo-Fr 12:00; Sa 10:30", "indoor": "yes", "nsi_id": "unitedstatespostalservice-a77078", "operator": "United States Postal Service", "operator:short": "USPS", "operator:type": "public", "operator:wikidata": "Q668687", "ref": "7256100004"}, "type": "Feature"}
{"geometry": {"coordinates": [-91.440742, 35.708157], "type": "Point"}, "id": "eJv-Nru4gXYxE0m91RSOtEYFn5A=", "properties": {"@source_uri": "https://tools.usps.com/UspsToolsRestServices/rest/POLocator/findLocations", "@spider": "usps_collection_boxes", "addr:city": "NEWARK", "addr:country": "US", "addr:postcode": "72562", "addr:state": "AR", "addr:street_address": "105 N OAK ST", "amenity": "post_box", "collection_times": "Mo-Fr 15:50; Sa 10:00", "note": "ON 12/24 AND 12/31, THIS BOX MAY BE COLLECTED AS EARLY AS 12 NOON.", "nsi_id": "unitedstatespostalservice-a77078", "operator": "United States Postal Service", "operator:short": "USPS", "operator:type": "public", "operator:wikidata": "Q668687", "ref": "7256200001"}, "type": "Feature"}
{"geometry": {"coordinates": [-91.440742, 35.708157], "type": "Point"}, "id": "2RdUQov1r4bJQIYHZj1yQhapZMs=", "properties": {"@source_uri": "https://tools.usps.com/UspsToolsRestServices/rest/POLocator/findLocations", "@spider": "usps_collection_boxes", "addr:city": "NEWARK", "addr:country": "US", "addr:postcode": "72562", "addr:state": "AR", "addr:street_address": "105 N OAK ST", "amenity": "post_box", "collection_times": "Mo-Fr 15:50; Sa 10:00", "indoor": "yes", "note": "ON 12/24 AND 12/31, THIS BOX MAY BE COLLECTED AS EARLY AS 12 NOON.", "nsi_id": "unitedstatespostalservice-a77078", "operator": "United States Postal Service", "operator:short": "USPS", "operator:type": "public", "operator:wikidata": "Q668687", "ref": "7256200002"}, "type": "Feature"}
{"geometry": {"coordinates": [-91.44076842, 35.708120838], "type": "Point"}, "id": "0-FR0ZCpeoIM_byLBPRizsci1OU=", "properties": {"@source_uri": "https://tools.usps.com/UspsToolsRestServices/rest/POLocator/findLocations", "@spider": "usps_collection_boxes", "addr:city": "NEWARK", "addr:country": "US", "addr:postcode": "72562", "addr:state": "AR", "addr:street_address": "105 N OAK ST", "amenity": "post_box", "collection_times": "Mo-Fr 16:00; Sa 10:30", "indoor": "yes", "note": "ON 12/24 AND 12/31, THIS BOX MAY BE COLLECTED AS EARLY AS 12 NOON.", "nsi_id": "unitedstatespostalservice-a77078", "operator": "United States Postal Service", "operator:short": "USPS", "operator:type": "public", "operator:wikidata": "Q668687", "ref": "7256200005"}, "type": "Feature"}
{"geometry": {"coordinates": [-91.462986, 35.630589], "type": "Point"}, "id": "rX8mlKR1efsaC1yluR231nuQTGI=", "properties": {"@source_uri": "https://tools.usps.com/UspsToolsRestServices/rest/POLocator/findLocations", "@spider": "usps_collection_boxes", "addr:city": "OIL TROUGH", "addr:country": "US", "addr:postcode": "72564", "addr:state": "AR", "addr:street_address": "209 MAIN ST", "amenity": "post_box", "collection_times": "Mo-Fr 11:45; Sa 09:45", "indoor": "yes", "nsi_id": "unitedstatespostalservice-a77078", "operator": "United States Postal Service", "operator:short": "USPS", "operator:type": "public", "operator:wikidata": "Q668687", "ref": "7256400002"}, "type": "Feature"}
{"geometry": {"coordinates": [-91.462988264, 35.630583905], "type": "Point"}, "id": "aESPkmZCTE4aKBogmCo-MbXz2HU=", "properties": {"@source_uri": "https://tools.usps.com/UspsToolsRestServices/rest/POLocator/findLocations", "@spider": "usps_collection_boxes", "addr:city": "OIL TROUGH", "addr:country": "US", "addr:postcode": "72564", "addr:state": "AR", "addr:street_address": "209 MAIN ST", "amenity": "post_box", "collection_times": "Mo-Fr 12:00; Sa 10:00", "indoor": "yes", "nsi_id": "unitedstatespostalservice-a77078", "operator": "United States Postal Service", "operator:short": "USPS", "operator:type": "public", "operator:wikidata": "Q668687", "ref": "7256400003"}, "type": "Feature"}
{"geometry": {"coordinates": [-91.929142, 36.225009], "type": "Point"}, "id": "7xAYwMHjQasN5vYL2scAdddAlYA=", "properties": {"@source_uri": "https://tools.usps.com/UspsToolsRestServices/rest/POLocator/findLocations", "@spider": "usps_collection_boxes", "addr:city": "OXFORD", "addr:country": "US", "addr:postcode": "72565", "addr:state": "AR", "addr:street_address": "270 N 1ST ST", "amenity": "post_box", "collection_times": "Mo-Fr 11:30; Sa 09:15", "nsi_id": "unitedstatespostalservice-a77078", "operator": "United States Postal Service", "operator:short": "USPS", "operator:type": "public", "operator:wikidata": "Q668687", "ref": "7256500001"}, "type": "Feature"}
{"geometry": {"coordinates": [-91.929142, 36.225009], "type": "Point"}, "id": "txe0KX4OFVabeEDrtvAUJz21hmk=", "properties": {"@source_uri": "https://tools.usps.com/UspsToolsRestServices/rest/POLocator/findLocations", "@spider": "usps_collection_boxes", "addr:city": "OXFORD", "addr:country": "US", "addr:postcode": "72565", "addr:state": "AR", "addr:street_address": "270 N 1ST ST", "amenity": "post_box", "collection_times": "Mo-Fr 11:30; Sa 09:15", "indoor": "yes", "nsi_id": "unitedstatespostalservice-a77078", "operator": "United States Postal Service", "operator:short": "USPS", "operator:type": "public", "operator:wikidata": "Q668687", "ref": "7256500002"}, "type": "Feature"}
{"geometry": {"coordinates": [-91.929112992, 36.22492359], "type": "Point"}, "id": "RMjQjVAGQ_rBNPnle1Go5lPuXjw=", "properties": {"@source_uri": "https://tools.usps.com/UspsToolsRestServices/rest/POLocator/findLocations", "@spider": "usps_collection_boxes", "addr:city": "OXFORD", "addr:country": "US", "addr:postcode": "72565", "addr:state": "AR", "addr:street_address": "270 N 1ST ST", "amenity": "post_box", "collection_times": "Mo-Fr 12:00; Sa 09:15", "indoor": "yes", "nsi_id": "unitedstatespostalservice-a77078", "operator": "United States Postal Service", "operator:short": "USPS", "operator:type": "public", "operator:wikidata": "Q668687", "ref": "7256500003"}, "type": "Feature"}
{"geometry": {"coordinates": [-91.9099320154, 35.8172619882], "type": "Point"}, "id": "bIn4nfnY-zP1iyTo91yfKF1M6G8=", "properties": {"@source_uri": "https://tools.usps.com/UspsToolsRestServices/rest/POLocator/findLocations", "@spider": "usps_collection_boxes", "addr:city": "PLEASANT GROVE", "addr:country": "US", "addr:postcode": "72567", "addr:state": "AR", "addr:street_address": "28433 HIGHWAY 14", "amenity": "post_box", "collection_times": "Mo-Fr 11:45; Sa 09:00", "nsi_id": "unitedstatespostalservice-a77078", "operator": "United States Postal Service", "operator:short": "USPS", "operator:type": "public", "operator:wikidata": "Q668687", "ref": "7256700001"}, "type": "Feature"}
{"geometry": {"coordinates": [-91.9099320154, 35.8172619882], "type": "Point"}, "id": "8_y3EikVAozWIUg04P0K2iBjlOw=", "properties": {"@source_uri": "https://tools.usps.com/UspsToolsRestServices/rest/POLocator/findLocations", "@spider": "usps_collection_boxes", "addr:city": "PLEASANT GROVE", "addr:country": "US", "addr:postcode": "72567", "addr:state": "AR", "addr:street_address": "28433 HIGHWAY 14", "amenity": "post_box", "collection_times": "Mo-Fr 11:45; Sa 09:00", "indoor": "yes", "nsi_id": "unitedstatespostalservice-a77078", "operator": "United States Postal Service", "operator:short": "USPS", "operator:type": "public", "operator:wikidata": "Q668687", "ref": "7256700002"}, "type": "Feature"}
{"geometry": {"coordinates": [-91.9099320154, 35.8172619882], "type": "Point"}, "id": "mCWiTcQcrtCNF39XRznXYRqcJ5k=", "properties": {"@source_uri": "https://tools.usps.com/UspsToolsRestServices/rest/POLocator/findLocations", "@spider": "usps_collection_boxes", "addr:city": "PLEASANT GROVE", "addr:country": "US", "addr:postcode": "72567", "addr:state": "AR", "addr:street_address": "28433 HIGHWAY 14", "amenity": "post_box", "collection_times": "Mo-Fr 12:00; Sa 09:00", "indoor": "yes", "nsi_id": "unitedstatespostalservice-a77078", "operator": "United States Postal Service", "operator:short": "USPS", "operator:type": "public", "operator:wikidata": "Q668687", "ref": "7256700003"}, "type": "Feature"}
{"geometry": {"coordinates": [-91.626444, 35.558233], "type": "Point"}, "id": "VYAQz8zgphG9UEEJNB-iNAZePFY=", "properties": {"@source_uri": "https://tools.usps.com/UspsToolsRestServices/rest/POLocator/findLocations", "@spider": "usps_collection_boxes", "addr:city": "PLEASANT PLAINS", "addr:country": "US", "addr:postcode": "72568", "addr:state": "AR", "addr:street_address": "360 MAIN ST", "amenity": "post_box", "collection_times": "Mo-Fr 14:45; Sa 09:00", "note": "ON 12/24 AND 12/31, THIS BOX MAY BE COLLECTED AS EARLY AS 12 NOON.", "nsi_id": "unitedstatespostalservice-a77078", "operator": "United States Postal Service", "operator:short": "USPS", "operator:type": "public", "operator:wikidata": "Q668687", "ref": "7256800000"}, "type": "Feature"}
{"geometry": {"coordinates": [-91.626444, 35.558233], "type": "Point"}, "id": "sFofoctxcwNP7kpbP8ohkvId5oY=", "properties": {"@source_uri": "https://tools.usps.com/UspsToolsRestServices/rest/POLocator/findLocations", "@spider": "usps_collection_boxes", "addr:city": "PLEASANT PLAINS", "addr:country": "US", "addr:postcode": "72568", "addr:state": "AR", "addr:street_address": "360 MAIN ST", "amenity": "post_box", "collection_times": "Mo-Fr 14:45; Sa 09:00", "indoor": "yes", "note": "ON 12/24 AND 12/31, THIS BOX MAY BE COLLECTED AS EARLY AS 12 NOON.", "nsi_id": "unitedstatespostalservice-a77078", "operator": "United States Postal Service", "operator:short": "USPS", "operator:type": "public", "operator:wikidata": "Q668687", "ref": "7256800001"}, "type": "Feature"}
{"geometry": {"coordinates": [-91.626444, 35.558233], "type": "Point"}, "id": "8248lZvfceFq4XXSaiX53s_YOOo=", "properties": {"@source_uri": "https://tools.usps.com/UspsToolsRestServices/rest/POLocator/findLocations", "@spider": "usps_collection_boxes", "addr:city": "PLEASANT PLAINS", "addr:country": "US", "addr:postcode": "72568", "addr:state": "AR", "addr:street_address": "360 MAIN ST", "amenity": "post_box", "collection_times": "Mo-Fr 14:45; Sa 09:00", "indoor": "yes", "note": "ON 12/24 AND 12/31, THIS BOX MAY BE COLLECTED AS EARLY AS 12 NOON.", "nsi_id": "unitedstatespostalservice-a77078", "operator": "United States Postal Service", "operator:short": "USPS", "operator:type": "public", "operator:wikidata": "Q668687", "ref": "7256800002"}, "type": "Feature"}
{"geometry": {"coordinates": [-91.626477571, 35.55821807], "type": "Point"}, "id": "r-eiUba4RcTKF2JghkcW3jS6Hmg=", "properties": {"@source_uri": "https://tools.usps.com/UspsToolsRestServices/rest/POLocator/findLocations", "@spider": "usps_collection_boxes", "addr:city": "PLEASANT PLAINS", "addr:country": "US", "addr:postcode": "72568", "addr:state": "AR", "addr:street_address": "360 MAIN ST", "amenity": "post_box", "collection_times": "Mo-Fr 15:30; Sa 09:30", "indoor": "yes", "note": "ON 12/24 AND 12/31, THIS BOX MAY BE COLLECTED AS EARLY AS 12 NOON.", "nsi_id": "unitedstatespostalservice-a77078", "operator": "United States Postal Service", "operator:short": "USPS", "operator:type": "public", "operator:wikidata": "Q668687", "ref": "7256800003"}, "type": "Feature"}
{"geometry": {"coordinates": [-91.476099, 36.063842], "type": "Point"}, "id": "gV-0Vyt_FrRlmoh2HM0OfM3uJjo=", "properties": {"@source_uri": "https://tools.usps.com/UspsToolsRestServices/rest/POLocator/findLocations", "@spider": "usps_collection_boxes", "addr:city": "POUGHKEEPSIE", "addr:country": "US", "addr:postcode": "72569", "addr:state": "AR", "addr:street_address": "4066 ARKANSAS HIGHWAY 58", "amenity": "post_box", "collection_times": "Mo-Fr 11:30; Sa 11:45", "nsi_id": "unitedstatespostalservice-a77078", "operator": "United States Postal Service", "operator:short": "USPS", "operator:type": "public", "operator:wikidata": "Q668687", "ref": "7256900000"}, "type": "Feature"}
{"geometry": {"coordinates": [-91.476099, 36.063842], "type": "Point"}, "id": "EsaJqSHs8gaZiTmLfPuf3sR9Uq8=", "properties": {"@source_uri": "https://tools.usps.com/UspsToolsRestServices/rest/POLocator/findLocations", "@spider": "usps_collection_boxes", "addr:city": "POUGHKEEPSIE", "addr:country": "US", "addr:postcode": "72569", "addr:state": "AR", "addr:street_address": "4066 ARKANSAS HIGHWAY 58", "amenity": "post_box", "collection_times": "Mo-Fr 11:30; Sa 11:45", "indoor": "yes", "nsi_id": "unitedstatespostalservice-a77078", "operator": "United States Postal Service", "operator:short": "USPS", "operator:type": "public", "operator:wikidata": "Q668687", "ref": "7256900001"}, "type": "Feature"}
{"geometry": {"coordinates": [-91.476099, 36.063842], "type": "Point"}, "id": "UKq7yJqq7aXbDbFgXKyMBo4E2_o=", "properties": {"@source_uri": "https://tools.usps.com/UspsToolsRestServices/rest/POLocator/findLocations", "@spider": "usps_collection_boxes", "addr:city": "POUGHKEEPSIE", "addr:country": "US", "addr:postcode": "72569", "addr:state": "AR", "addr:street_address": "4066 ARKANSAS HIGHWAY 58", "amenity": "post_box", "collection_times": "Mo-Fr 11:30; Sa 11:45", "indoor": "yes", "nsi_id": "unitedstatespostalservice-a77078", "operator": "United States Postal Service", "operator:short": "USPS", "operator:type": "public", "operator:wikidata": "Q668687", "ref": "7256900002"}, "type": "Feature"}
{"geometry": {"coordinates": [-91.477693162, 36.076021128], "type": "Point"}, "id": "Fcns59hp5H9UT5cxMpXC6ltRthI=", "properties": {"@source_uri": "https://tools.usps.com/UspsToolsRestServices/rest/POLocator/findLocations", "@spider": "usps_collection_boxes", "addr:city": "POUGHKEEPSIE", "addr:country": "US", "addr:postcode": "72569", "addr:state": "AR", "addr:street_address": "4066 ARKANSAS HIGHWAY 58", "amenity": "post_box", "collection_times": "Mo-Fr 12:00; Sa 11:30", "indoor": "yes", "nsi_id": "unitedstatespostalservice-a77078", "operator": "United States Postal Service", "operator:short": "USPS", "operator:type": "public", "operator:wikidata": "Q668687", "ref": "7256900005"}, "type": "Feature"}
{"geometry": {"coordinates": [-91.5399409791, 35.6687810159], "type": "Point"}, "id": "CZ2X5TW6-hn2drX1_el70pqy7gQ=", "properties": {"@source_uri": "https://tools.usps.com/UspsToolsRestServices/rest/POLocator/findLocations", "@spider": "usps_collection_boxes", "addr:city": "ROSIE", "addr:country": "US", "addr:postcode": "72571", "addr:state": "AR", "addr:street_address": "39 CAPSHAW RD", "amenity": "post_box", "collection_times": "Mo-Fr 15:00; Sa 14:15", "indoor": "yes", "note": "ON 12/24 AND 12/31, THIS BOX MAY BE COLLECTED AS EARLY AS 12 NOON.", "nsi_id": "unitedstatespostalservice-a77078", "operator": "United States Postal Service", "operator:short": "USPS", "operator:type": "public", "operator:wikidata": "Q668687", "ref": "7257100002"}, "type": "Feature"}
{"geometry": {"coordinates": [-91.5399409791, 35.6687810159], "type": "Point"}, "id": "NOyMWVbALweyfdWH7mlZzLGgBSA=", "properties": {"@source_uri": "https://tools.usps.com/UspsToolsRestServices/rest/POLocator/findLocations", "@spider": "usps_collection_boxes", "addr:city": "ROSIE", "addr:country": "US", "addr:postcode": "72571", "addr:state": "AR", "addr:street_address": "39 CAPSHAW RD", "amenity": "post_box", "collection_times": "Mo-Fr 15:00; Sa 14:15", "note": "ON 12/24 AND 12/31, THIS BOX MAY BE COLLECTED AS EARLY AS 12 NOON.", "nsi_id": "unitedstatespostalservice-a77078", "operator": "United States Postal Service", "operator:short": "USPS", "operator:type": "public", "operator:wikidata": "Q668687", "ref": "7257100003"}, "type": "Feature"}
{"geometry": {"coordinates": [-91.290334, 35.912742], "type": "Point"}, "id": "6-TW3U_57zYoirwQGU8lYyi2yD8=", "properties": {"@source_uri": "https://tools.usps.com/UspsToolsRestServices/rest/POLocator/findLocations", "@spider": "usps_collection_boxes", "addr:city": "SAFFELL", "addr:country": "US", "addr:postcode": "72572", "addr:state": "AR", "addr:street_address": "363 HIGHWAY 25", "amenity": "post_box", "collection_times": "Mo-Fr 11:30; Sa 12:00", "nsi_id": "unitedstatespostalservice-a77078", "operator": "United States Postal Service", "operator:short": "USPS", "operator:type": "public", "operator:wikidata": "Q668687", "ref": "7257200001"}, "type": "Feature"}
{"geometry": {"coordinates": [-91.290334, 35.912742], "type": "Point"}, "id": "z7jxCSAbHpCDjGULFIFlmxD5jiU=", "properties": {"@source_uri": "https://tools.usps.com/UspsToolsRestServices/rest/POLocator/findLocations", "@spider": "usps_collection_boxes", "addr:city": "SAFFELL", "addr:country": "US", "addr:postcode": "72572", "addr:state": "AR", "addr:street_address": "363 HIGHWAY 25", "amenity": "post_box", "collection_times": "Mo-Fr 11:30; Sa 12:00", "indoor": "yes", "nsi_id": "unitedstatespostalservice-a77078", "operator": "United States Postal Service", "operator:short": "USPS", "operator:type": "public", "operator:wikidata": "Q668687", "ref": "7257200002"}, "type": "Feature"}
{"geometry": {"coordinates": [-91.290335802, 35.912736566], "type": "Point"}, "id": "iYuaX4w7iT9jZSYWlx3F1aGLnbw=", "properties": {"@source_uri": "https://tools.usps.com/UspsToolsRestServices/rest/POLocator/findLocations", "@spider": "usps_collection_boxes", "addr:city": "SAFFELL", "addr:country": "US", "addr:postcode": "72572", "addr:state": "AR", "addr:street_address": "363 HIGHWAY 25", "amenity": "post_box", "collection_times": "Mo-Fr 12:00; Sa 12:15", "indoor": "yes", "note": "ON 12/24 AND 12/31, THIS BOX MAY BE COLLECTED AS EARLY AS 12 NOON.", "nsi_id": "unitedstatespostalservice-a77078", "operator": "United States Postal Service", "operator:short": "USPS", "operator:type": "public", "operator:wikidata": "Q668687", "ref": "7257200004"}, "type": "Feature"}
{"geometry": {"coordinates": [-91.815218, 36.044136], "type": "Point"}, "id": "MJs8zs-VAmJLok-NwJEjxtg-puo=", "properties": {"@source_uri": "https://tools.usps.com/UspsToolsRestServices/rest/POLocator/findLocations", "@spider": "usps_collection_boxes", "addr:city": "SAGE", "addr:country": "US", "addr:postcode": "72573", "addr:state": "AR", "addr:street_address": "1545 AR 69B HWY", "amenity": "post_box", "collection_times": "Mo-Fr 12:30; Sa 09:30", "indoor": "yes", "note": "ON 12/24 AND 12/31, THIS BOX MAY BE COLLECTED AS EARLY AS 12 NOON.", "nsi_id": "unitedstatespostalservice-a77078", "operator": "United States Postal Service", "operator:short": "USPS", "operator:type": "public", "operator:wikidata": "Q668687", "ref": "7257300001"}, "type": "Feature"}
{"geometry": {"coordinates": [-91.815225447, 36.044110509], "type": "Point"}, "id": "j6CKstNJEIABt9_xlJiJYzcYmIY=", "properties": {"@source_uri": "https://tools.usps.com/UspsToolsRestServices/rest/POLocator/findLocations", "@spider": "usps_collection_boxes", "addr:city": "SAGE", "addr:country": "US", "addr:postcode": "72573", "addr:state": "AR", "addr:street_address": "1545 AR 69B HWY", "amenity": "post_box", "collection_times": "Mo-Fr 13:00; Sa 09:45", "indoor": "yes", "note": "ON 12/24 AND 12/31, THIS BOX MAY BE COLLECTED AS EARLY AS 12 NOON.", "nsi_id": "unitedstatespostalservice-a77078", "operator": "United States Postal Service", "operator:short": "USPS", "operator:type": "public", "operator:wikidata": "Q668687", "ref": "7257300003"}, "type": "Feature"}
{"geometry": {"coordinates": [-91.6018252423, 35.6959638711], "type": "Point"}, "id": "BHl_ckaZU_YZJs28WFkVhuzbAqw=", "properties": {"@source_uri": "https://tools.usps.com/UspsToolsRestServices/rest/POLocator/findLocations", "@spider": "usps_collection_boxes", "addr:city": "SALADO", "addr:country": "US", "addr:postcode": "72575", "addr:state": "AR", "addr:street_address": "959 NEWPORT RD", "amenity": "post_box", "collection_times": "Mo-Fr 12:00; Sa 09:45", "indoor": "yes", "nsi_id": "unitedstatespostalservice-a77078", "operator": "United States Postal Service", "operator:short": "USPS", "operator:type": "public", "operator:wikidata": "Q668687", "ref": "7257500002"}, "type": "Feature"}
{"geometry": {"coordinates": [-91.596966533, 35.691966879], "type": "Point"}, "id": "uBuZLZeU9DZG-SZHZ2PQQTldEpM=", "properties": {"@source_uri": "https://tools.usps.com/UspsToolsRestServices/rest/POLocator/findLocations", "@spider": "usps_collection_boxes", "addr:city": "SALADO", "addr:country": "US", "addr:postcode": "72575", "addr:state": "AR", "addr:street_address": "959 NEWPORT RD", "amenity": "post_box", "collection_times": "Mo-Fr 12:00; Sa 09:45", "indoor": "yes", "nsi_id": "unitedstatespostalservice-a77078", "operator": "United States Postal Service", "operator:short": "USPS", "operator:type": "public", "operator:wikidata": "Q668687", "ref": "7257500003"}, "type": "Feature"}
{"geometry": {"coordinates": [-91.830155, 36.369259], "type": "Point"}, "id": "fKh_dgSPbKcUlf_EMhrH0zapKVg=", "properties": {"@source_uri": "https://tools.usps.com/UspsToolsRestServices/rest/POLocator/findLocations", "@spider": "usps_collection_boxes", "addr:city": "SALEM", "addr:country": "US", "addr:postcode": "72576", "addr:state": "AR", "addr:street_address": "510 HIGHWAY 62 W", "amenity": "post_box", "collection_times": "Mo-Fr 16:15; Sa 11:00", "note": "ON 12/24 AND 12/31, THIS BOX MAY BE COLLECTED AS EARLY AS 12 NOON.", "nsi_id": "unitedstatespostalservice-a77078", "operator": "United States Postal Service", "operator:short": "USPS", "operator:type": "public", "operator:wikidata": "Q668687", "ref": "7257600000"}, "type": "Feature"}
{"geometry": {"coordinates": [-91.830155, 36.369259], "type": "Point"}, "id": "lMNBIkmT1ZHxX1ufzSbfy5Y2VXI=", "properties": {"@source_uri": "https://tools.usps.com/UspsToolsRestServices/rest/POLocator/findLocations", "@spider": "usps_collection_boxes", "addr:city": "SALEM", "addr:country": "US", "addr:postcode": "72576", "addr:state": "AR", "addr:street_address": "510 HIGHWAY 62 W", "amenity": "post_box", "collection_times": "Mo-Fr 16:15; Sa 11:00", "indoor": "yes", "note": "ON 12/24 AND 12/31, THIS BOX MAY BE COLLECTED AS EARLY AS 12 NOON.", "nsi_id": "unitedstatespostalservice-a77078", "operator": "United States Postal Service", "operator:short": "USPS", "operator:type": "public", "operator:wikidata": "Q668687", "ref": "7257600001"}, "type": "Feature"}
{"geometry": {"coordinates": [-91.830155, 36.369259], "type": "Point"}, "id": "gmMOc3Zs5OhH9aaz09-UOslKgjU=", "properties": {"@source_uri": "https://tools.usps.com/UspsToolsRestServices/rest/POLocator/findLocations", "@spider": "usps_collection_boxes", "addr:city": "SALEM", "addr:country": "US", "addr:postcode": "72576", "addr:state": "AR", "addr:street_address": "510 HIGHWAY 62 W", "amenity": "post_box", "collection_times": "Mo-Fr 16:15; Sa 11:00", "indoor": "yes", "note": "ON 12/24 AND 12/31, THIS BOX MAY BE COLLECTED AS EARLY AS 12 NOON.", "nsi_id": "unitedstatespostalservice-a77078", "operator": "United States Postal Service", "operator:short": "USPS", "operator:type": "public", "operator:wikidata": "Q668687", "ref": "7257600004"}, "type": "Feature"}
{"geometry": {"coordinates": [-91.830155, 36.369259], "type": "Point"}, "id": "HxqJqKc3a1ibkVxUw6Hvr92x-Yg=", "properties": {"@source_uri": "https://tools.usps.com/UspsToolsRestServices/rest/POLocator/findLocations", "@spider": "usps_collection_boxes", "addr:city": "SALEM", "addr:country": "US", "addr:postcode": "72576", "addr:state": "AR", "addr:street_address": "510 HIGHWAY 62 W", "amenity": "post_box", "collection_times": "Mo-Fr 16:15; Sa 11:00", "indoor": "yes", "note": "ON 12/24 AND 12/31, THIS BOX MAY BE COLLECTED AS EARLY AS 12 NOON.", "nsi_id": "unitedstatespostalservice-a77078", "operator": "United States Postal Service", "operator:short": "USPS", "operator:type": "public", "operator:wikidata": "Q668687", "ref": "7257600005"}, "type": "Feature"}
{"geometry": {"coordinates": [-91.830155, 36.369259], "type": "Point"}, "id": "4X2Ap5guEJotYK3arIVxJKCJtvs=", "properties": {"@source_uri": "https://tools.usps.com/UspsToolsRestServices/rest/POLocator/findLocations", "@spider": "usps_collection_boxes", "addr:city": "SALEM", "addr:country": "US", "addr:postcode": "72576", "addr:state": "AR", "addr:street_address": "510 HIGHWAY 62 W", "amenity": "post_box", "collection_times": "Mo-Fr 16:15; Sa 11:00", "indoor": "yes", "note": "ON 12/24 AND 12/31, THIS BOX MAY BE COLLECTED AS EARLY AS 12 NOON.", "nsi_id": "unitedstatespostalservice-a77078", "operator": "United States Postal Service", "operator:short": "USPS", "operator:type": "public", "operator:wikidata": "Q668687", "ref": "7257600006"}, "type": "Feature"}
{"geometry": {"coordinates": [-91.830116257, 36.369202488], "type": "Point"}, "id": "XeecY28zX7UrOuyVJlorjaqX18Q=", "properties": {"@source_uri": "https://tools.usps.com/UspsToolsRestServices/rest/POLocator/findLocations", "@spider": "usps_collection_boxes", "addr:city": "SALEM", "addr:country": "US", "addr:postcode": "72576", "addr:state": "AR", "addr:street_address": "510 HIGHWAY 62 W", "amenity": "post_box", "collection_times": "Mo-Fr 16:00", "indoor": "yes", "note": "ON 12/24 AND 12/31, THIS BOX MAY BE COLLECTED AS EARLY AS 12 NOON.", "nsi_id": "unitedstatespostalservice-a77078", "operator": "United States Postal Service", "operator:short": "USPS", "operator:type": "public", "operator:wikidata": "Q668687", "ref": "7257600007"}, "type": "Feature"}
{"geometry": {"coordinates": [-91.671458, 36.006855], "type": "Point"}, "id": "SnK-ugnsUjd633jtYw5jC5Kw2QI=", "properties": {"@source_uri": "https://tools.usps.com/UspsToolsRestServices/rest/POLocator/findLocations", "@spider": "usps_collection_boxes", "addr:city": "SIDNEY", "addr:country": "US", "addr:postcode": "72577", "addr:state": "AR", "addr:street_address": "308 ARKANSAS HIGHWAY 58", "amenity": "post_box", "collection_times": "Mo-Fr 11:30; Sa 10:15", "nsi_id": "unitedstatespostalservice-a77078", "operator": "United States Postal Service", "operator:short": "USPS", "operator:type": "public", "operator:wikidata": "Q668687", "ref": "7257700001"}, "type": "Feature"}
{"geometry": {"coordinates": [-91.671458, 36.006855], "type": "Point"}, "id": "vN4J6UFPUa-iO_VIjlPKiEY72kk=", "properties": {"@source_uri": "https://tools.usps.com/UspsToolsRestServices/rest/POLocator/findLocations", "@spider": "usps_collection_boxes", "addr:city": "SIDNEY", "addr:country": "US", "addr:postcode": "72577", "addr:state": "AR", "addr:street_address": "308 ARKANSAS HIGHWAY 58", "amenity": "post_box", "collection_times": "Mo-Fr 11:30; Sa 10:15", "indoor": "yes", "nsi_id": "unitedstatespostalservice-a77078", "operator": "United States Postal Service", "operator:short": "USPS", "operator:type": "public", "operator:wikidata": "Q668687", "ref": "7257700002"}, "type": "Feature"}
{"geometry": {"coordinates": [-91.671458, 36.006855], "type": "Point"}, "id": "sNy56k_Zj8Ge-pQN_upv4NwxVlw=", "properties": {"@source_uri": "https://tools.usps.com/UspsToolsRestServices/rest/POLocator/findLocations", "@spider": "usps_collection_boxes", "addr:city": "SIDNEY", "addr:country": "US", "addr:postcode": "72577", "addr:state": "AR", "addr:street_address": "308 ARKANSAS HIGHWAY 58", "amenity": "post_box", "collection_times": "Mo-Fr 11:30; Sa 10:15", "indoor": "yes", "nsi_id": "unitedstatespostalservice-a77078", "operator": "United States Postal Service", "operator:short": "USPS", "operator:type": "public", "operator:wikidata": "Q668687", "ref": "7257700003"}, "type": "Feature"}
{"geometry": {"coordinates": [-91.7710850353, 36.0269735982], "type": "Point"}, "id": "5awOQt_43mtkEFv2Yjc4WqhlDIA=", "properties": {"@source_uri": "https://tools.usps.com/UspsToolsRestServices/rest/POLocator/findLocations", "@spider": "usps_collection_boxes", "addr:city": "SIDNEY", "addr:country": "US", "addr:postcode": "72577", "addr:state": "AR", "addr:street_address": "308 ARKANSAS HIGHWAY 58", "amenity": "post_box", "collection_times": "Mo-Fr 12:00; Sa 11:45", "indoor": "yes", "nsi_id": "unitedstatespostalservice-a77078", "operator": "United States Postal Service", "operator:short": "USPS", "operator:type": "public", "operator:wikidata": "Q668687", "ref": "7257700004"}, "type": "Feature"}
{"geometry": {"coordinates": [-91.8757077827, 36.4562722605], "type": "Point"}, "id": "_yA1c08YhwH1xjXujJE3S8lLTAE=", "properties": {"@source_uri": "https://tools.usps.com/UspsToolsRestServices/rest/POLocator/findLocations", "@spider": "usps_collection_boxes", "addr:city": "STURKIE", "addr:country": "US", "addr:postcode": "72578", "addr:state": "AR", "addr:street_address": "5312 STURKIE RD", "amenity": "post_box", "collection_times": "Mo-Fr 09:30; Sa 08:45", "indoor": "yes", "nsi_id": "unitedstatespostalservice-a77078", "operator": "United States Postal Service", "operator:short": "USPS", "operator:type": "public", "operator:wikidata": "Q668687", "ref": "7257800003"}, "type": "Feature"}
{"geometry": {"coordinates": [-91.8757077827, 36.4562722605], "type": "Point"}, "id": "OaGD8XMTWyLzO8Cnitmm7dYXz7M=", "properties": {"@source_uri": "https://tools.usps.com/UspsToolsRestServices/rest/POLocator/findLocations", "@spider": "usps_collection_boxes", "addr:city": "STURKIE", "addr:country": "US", "addr:postcode": "72578", "addr:state": "AR", "addr:street_address": "5312 STURKIE RD", "amenity": "post_box", "collection_times": "Mo-Fr 10:00", "indoor": "yes", "nsi_id": "unitedstatespostalservice-a77078", "operator": "United States Postal Service", "operator:short": "USPS", "operator:type": "public", "operator:wikidata": "Q668687", "ref": "7257800005"}, "type": "Feature"}
{"geometry": {"coordinates": [-91.5009596328, 35.7521472391], "type": "Point"}, "id": "6ppLM0UVS_BHvp72DhvHHIZpo-M=", "properties": {"@source_uri": "https://tools.usps.com/UspsToolsRestServices/rest/POLocator/findLocations", "@spider": "usps_collection_boxes", "addr:city": "SULPHUR ROCK", "addr:country": "US", "addr:postcode": "72579", "addr:state": "AR", "addr:street_address": "210 S MAIN ST", "amenity": "post_box", "collection_times": "Mo-Fr 14:30; Sa 08:45", "note": "ON 12/24 AND 12/31, THIS BOX MAY BE COLLECTED AS EARLY AS 12 NOON.", "nsi_id": "unitedstatespostalservice-a77078", "operator": "United States Postal Service", "operator:short": "USPS", "operator:type": "public", "operator:wikidata": "Q668687", "ref": "7257900001"}, "type": "Feature"}
{"geometry": {"coordinates": [-91.500924, 35.752079], "type": "Point"}, "id": "Vj9hTSgCIGl5kxEJ1rqb6hN_Nro=", "properties": {"@source_uri": "https://tools.usps.com/UspsToolsRestServices/rest/POLocator/findLocations", "@spider": "usps_collection_boxes", "addr:city": "SULPHUR ROCK", "addr:country": "US", "addr:postcode": "72579", "addr:state": "AR", "addr:street_address": "210 S MAIN ST", "amenity": "post_box", "collection_times": "Mo-Fr 14:30; Sa 08:45", "indoor": "yes", "note": "ON 12/24 AND 12/31, THIS BOX MAY BE COLLECTED AS EARLY AS 12 NOON.", "nsi_id": "unitedstatespostalservice-a77078", "operator": "United States Postal Service", "operator:short": "USPS", "operator:type": "public", "operator:wikidata": "Q668687", "ref": "7257900002"}, "type": "Feature"}
{"geometry": {"coordinates": [-91.500925352, 35.752076581], "type": "Point"}, "id": "BjIXBECXxJgrcUe1CIk9jlHUibU=", "properties": {"@source_uri": "https://tools.usps.com/UspsToolsRestServices/rest/POLocator/findLocations", "@spider": "usps_collection_boxes", "addr:city": "SULPHUR ROCK", "addr:country": "US", "addr:postcode": "72579", "addr:state": "AR", "addr:street_address": "210 S MAIN ST", "amenity": "post_box", "collection_times": "Mo-Fr 14:30", "indoor": "yes", "note": "ON 12/24 AND 12/31, THIS BOX MAY BE COLLECTED AS EARLY AS 12 NOON.", "nsi_id": "unitedstatespostalservice-a77078", "operator": "United States Postal Service", "operator:short": "USPS", "operator:type": "public", "operator:wikidata": "Q668687", "ref": "7257900004"}, "type": "Feature"}
{"geometry": {"coordinates": [-91.964682, 35.541575], "type": "Point"}, "id": "CZxtbnzxFdUFZ949USAs9Z1kJa0=", "properties": {"@source_uri": "https://tools.usps.com/UspsToolsRestServices/rest/POLocator/findLocations", "@spider": "usps_collection_boxes", "addr:city": "TUMBLING SHOALS", "addr:country": "US", "addr:postcode": "72581", "addr:state": "AR", "addr:street_address": "2395 HEBER SPRINGS RD N", "amenity": "post_box", "collection_times": "Mo-Fr 11:00; Sa 09:00", "nsi_id": "unitedstatespostalservice-a77078", "operator": "United States Postal Service", "operator:short": "USPS", "operator:type": "public", "operator:wikidata": "Q668687", "ref": "7258100001"}, "type": "Feature"}
{"geometry": {"coordinates": [-91.964682, 35.541575], "type": "Point"}, "id": "i7VrtgcGHCbShz3X9_4K7bXFV8o=", "properties": {"@source_uri": "https://tools.usps.com/UspsToolsRestServices/rest/POLocator/findLocations", "@spider": "usps_collection_boxes", "addr:city": "TUMBLING SHOALS", "addr:country": "US", "addr:postcode": "72581", "addr:state": "AR", "addr:street_address": "2395 HEBER SPRINGS RD N", "amenity": "post_box", "collection_times": "Mo-Fr 11:00; Sa 09:00", "indoor": "yes", "nsi_id": "unitedstatespostalservice-a77078", "operator": "United States Postal Service", "operator:short": "USPS", "operator:type": "public", "operator:wikidata": "Q668687", "ref": "7258100002"}, "type": "Feature"}
{"geometry": {"coordinates": [-91.963614201, 35.541619395], "type": "Point"}, "id": "qip4SUZv8Yc9jvkL1MZaP1oRlxg=", "properties": {"@source_uri": "https://tools.usps.com/UspsToolsRestServices/rest/POLocator/findLocations", "@spider": "usps_collection_boxes", "addr:city": "TUMBLING SHOALS", "addr:country": "US", "addr:postcode": "72581", "addr:state": "AR", "addr:street_address": "2395 HEBER SPRINGS RD N", "amenity": "post_box", "collection_times": "Mo-Fr 11:30; Sa 09:00", "indoor": "yes", "nsi_id": "unitedstatespostalservice-a77078", "operator": "United States Postal Service", "operator:short": "USPS", "operator:type": "public", "operator:wikidata": "Q668687", "ref": "7258100003"}, "type": "Feature"}
{"geometry": {"coordinates": [-91.985938359, 36.3970850019], "type": "Point"}, "id": "L5FDKsowlvglAkDjnzEl6VDshnc=", "properties": {"@source_uri": "https://tools.usps.com/UspsToolsRestServices/rest/POLocator/findLocations", "@spider": "usps_collection_boxes", "addr:city": "VIOLA", "addr:country": "US", "addr:postcode": "72583", "addr:state": "AR", "addr:street_address": "9971 HIGHWAY 62 W", "amenity": "post_box", "collection_times": "Mo-Fr 14:45; Sa 11:00", "indoor": "yes", "note": "ON 12/24 AND 12/31, THIS BOX MAY BE COLLECTED AS EARLY AS 12 NOON.", "nsi_id": "unitedstatespostalservice-a77078", "operator": "United States Postal Service", "operator:short": "USPS", "operator:type": "public", "operator:wikidata": "Q668687", "ref": "7258300002"}, "type": "Feature"}
{"geometry": {"coordinates": [-91.985938359, 36.3970850019], "type": "Point"}, "id": "g1u9qXDS5RaovbgSIz3wxAY2Id0=", "properties": {"@source_uri": "https://tools.usps.com/UspsToolsRestServices/rest/POLocator/findLocations", "@spider": "usps_collection_boxes", "addr:city": "VIOLA", "addr:country": "US", "addr:postcode": "72583", "addr:state": "AR", "addr:street_address": "9971 HIGHWAY 62 W", "amenity": "post_box", "collection_times": "Mo-Fr 14:45; Sa 11:00", "indoor": "yes", "note": "ON 12/24 AND 12/31, THIS BOX MAY BE COLLECTED AS EARLY AS 12 NOON.", "nsi_id": "unitedstatespostalservice-a77078", "operator": "United States Postal Service", "operator:short": "USPS", "operator:type": "public", "operator:wikidata": "Q668687", "ref": "7258300003"}, "type": "Feature"}
{"geometry": {"coordinates": [-91.985938359, 36.3970850019], "type": "Point"}, "id": "4fAZ64FZypP57C4kKlPhaTCtEGg=", "properties": {"@source_uri": "https://tools.usps.com/UspsToolsRestServices/rest/POLocator/findLocations", "@spider": "usps_collection_boxes", "addr:city": "VIOLA", "addr:country": "US", "addr:postcode": "72583", "addr:state": "AR", "addr:street_address": "9971 HIGHWAY 62 W", "amenity": "post_box", "collection_times": "Mo-Fr 14:45; Sa 11:00", "indoor": "yes", "note": "ON 12/24 AND 12/31, THIS BOX MAY BE COLLECTED AS EARLY AS 12 NOON.", "nsi_id": "unitedstatespostalservice-a77078", "operator": "United States Postal Service", "operator:short": "USPS", "operator:type": "public", "operator:wikidata": "Q668687", "ref": "7258300008"}, "type": "Feature"}
{"geometry": {"coordinates": [-91.924074, 36.143517], "type": "Point"}, "id": "gVb_la2nhrJ_CYIkYN0otHpeM0g=", "properties": {"@source_uri": "https://tools.usps.com/UspsToolsRestServices/rest/POLocator/findLocations", "@spider": "usps_collection_boxes", "addr:city": "VIOLET HILL", "addr:country": "US", "addr:postcode": "72584", "addr:state": "AR", "addr:street_address": "100 W HIGHWAY 56", "amenity": "post_box", "collection_times": "Mo-Fr 11:30; Sa 09:45", "indoor": "yes", "nsi_id": "unitedstatespostalservice-a77078", "operator": "United States Postal Service", "operator:short": "USPS", "operator:type": "public", "operator:wikidata": "Q668687", "ref": "7258400001"}, "type": "Feature"}
{"geometry": {"coordinates": [-91.92409743, 36.143410983], "type": "Point"}, "id": "yuSknnqmcw9V4HuWDmH66_TmudM=", "properties": {"@source_uri": "https://tools.usps.com/UspsToolsRestServices/rest/POLocator/findLocations", "@spider": "usps_collection_boxes", "addr:city": "VIOLET HILL", "addr:country": "US", "addr:postcode": "72584", "addr:state": "AR", "addr:street_address": "100 W HIGHWAY 56", "amenity": "post_box", "collection_times": "Mo-Fr 12:00; Sa 09:30", "indoor": "yes", "nsi_id": "unitedstatespostalservice-a77078", "operator": "United States Postal Service", "operator:short": "USPS", "operator:type": "public", "operator:wikidata": "Q668687", "ref": "7258400002"}, "type": "Feature"}
{"geometry": {"coordinates": [-91.8558132958, 36.2251863972], "type": "Point"}, "id": "599BK6S3MYBQfsOH0583uHddy1Y=", "properties": {"@source_uri": "https://tools.usps.com/UspsToolsRestServices/rest/POLocator/findLocations", "@spider": "usps_collection_boxes", "addr:city": "WISEMAN", "addr:country": "US", "addr:postcode": "72587", "addr:state": "AR", "addr:street_address": "100 HIGHWAY 354 E", "amenity": "post_box", "collection_times": "Mo-Fr 11:00; Sa 10:15", "indoor": "yes", "nsi_id": "unitedstatespostalservice-a77078", "operator": "United States Postal Service", "operator:short": "USPS", "operator:type": "public", "operator:wikidata": "Q668687", "ref": "7258700001"}, "type": "Feature"}
{"geometry": {"coordinates": [-91.8149752, 36.2091747], "type": "Point"}, "id": "0RNwpZL8Fc1ppqgEVD5LS0EPDEs=", "properties": {"@source_uri": "https://tools.usps.com/UspsToolsRestServices/rest/POLocator/findLocations", "@spider": "usps_collection_boxes", "addr:city": "WISEMAN", "addr:country": "US", "addr:postcode": "72587", "addr:state": "AR", "addr:street_address": "100 HIGHWAY 354 E", "amenity": "post_box", "collection_times": "Mo-Fr 11:00; Sa 10:30", "indoor": "yes", "nsi_id": "unitedstatespostalservice-a77078", "operator": "United States Postal Service", "operator:short": "USPS", "operator:type": "public", "operator:wikidata": "Q668687", "ref": "7258700002"}, "type": "Feature"}
