{"geometry": {"coordinates": [-93.131766, 36.249622], "type": "Point"}, "id": "_RBxhlN9R1KeB3EWnJOpXoHoixQ=", "properties": {"@spider": "usps_collection_boxes", "addr:city": "HARRISON", "addr:country": "US", "addr:full": "215 W INDUSTRIAL PARK RD", "addr:postcode": "72601", "addr:state": "AR", "brand": "USPS", "brand:wikidata": "Q668687", "collection_times": "Mo-Sa 18:00", "name": "USPS COLLECTION BOX - BLUE BOX", "note": "ON 12/24 AND 12/31, THIS BOX MAY BE COLLECTED AS EARLY AS 12 NOON.", "ref": "7260100001"}, "type": "Feature"}
{"geometry": {"coordinates": [-93.105953332, 36.233475485], "type": "Point"}, "id": "_1G_kBJNb13W-kagZ0htT4xo1xs=", "properties": {"@spider": "usps_collection_boxes", "addr:city": "HARRISON", "addr:country": "US", "addr:full": "402 N WALNUT ST", "addr:postcode": "72601", "addr:state": "AR", "brand": "USPS", "brand:wikidata": "Q668687", "collection_times": "Mo-Fr 16:45; Sa 17:00", "name": "USPS COLLECTION BOX - BLUE BOX", "note": "ON 12/24 AND 12/31, THIS BOX MAY BE COLLECTED AS EARLY AS 12 NOON.", "ref": "7260100006"}, "type": "Feature"}
{"geometry": {"coordinates": [-93.106602529, 36.230913816], "type": "Point"}, "id": "vDnk0QNSgigEJH7FX7OpoPsaXRw=", "properties": {"@spider": "usps_collection_boxes", "addr:city": "HARRISON", "addr:country": "US", "addr:full": "113 E RUSH AVE", "addr:postcode": "72601", "addr:state": "AR", "brand": "USPS", "brand:wikidata": "Q668687", "collection_times": "Mo-Sa 17:00", "name": "USPS COLLECTION BOX - BLUE BOX", "note": "ON 12/24 AND 12/31, THIS BOX MAY BE COLLECTED AS EARLY AS 12 NOON.", "ref": "7260100007"}, "type": "Feature"}
{"geometry": {"coordinates": [-93.1088385, 36.229626], "type": "Point"}, "id": "BHBLm-SqghAaBYYHxwGVVC0VKoU=", "properties": {"@spider": "usps_collection_boxes", "addr:city": "HARRISON", "addr:country": "US", "addr:full": "200 W STEPHENSON AVE", "addr:postcode": "72601", "addr:state": "AR", "brand": "USPS", "brand:wikidata": "Q668687", "collection_times": "Mo-Sa 17:00", "name": "USPS COLLECTION BOX - BLUE BOX", "note": "ON 12/24 AND 12/31, THIS BOX MAY BE COLLECTED AS EARLY AS 12 NOON.", "ref": "7260100008"}, "type": "Feature"}
{"geometry": {"coordinates": [-93.09857411, 36.229582894], "type": "Point"}, "id": "7S7n0tZfKmb9ZEQXo2sz3p8WRzw=", "properties": {"@spider": "usps_collection_boxes", "addr:city": "HARRISON", "addr:country": "US", "addr:full": "719 E STEPHENSON AVE", "addr:postcode": "72601", "addr:state": "AR", "brand": "USPS", "brand:wikidata": "Q668687", "collection_times": "Mo-Sa 16:45", "name": "USPS COLLECTION BOX - BLUE BOX", "note": "ON 12/24 AND 12/31, THIS BOX MAY BE COLLECTED AS EARLY AS 12 NOON.", "ref": "7260100010"}, "type": "Feature"}
{"geometry": {"coordinates": [-93.105927, 36.227088], "type": "Point"}, "id": "IsfCwCPE-7WaHiisiqAyRBPuGnQ=", "properties": {"@spider": "usps_collection_boxes", "addr:city": "HARRISON", "addr:country": "US", "addr:full": "300 S MAIN ST", "addr:postcode": "72601", "addr:state": "AR", "brand": "USPS", "brand:wikidata": "Q668687", "collection_times": "Mo-Sa 17:00", "name": "USPS COLLECTION BOX - BLUE BOX", "note": "ON 12/24 AND 12/31, THIS BOX MAY BE COLLECTED AS EARLY AS 12 NOON.", "ref": "7260100017"}, "type": "Feature"}
{"geometry": {"coordinates": [-93.131766, 36.249622], "type": "Point"}, "id": "xOYNQkdiQR5cyZLdxq0HvAZvNyQ=", "properties": {"@spider": "usps_collection_boxes", "addr:city": "HARRISON", "addr:country": "US", "addr:full": "215 W INDUSTRIAL PARK RD", "addr:postcode": "72601", "addr:state": "AR", "brand": "USPS", "brand:wikidata": "Q668687", "collection_times": "Mo-Sa 18:00", "name": "USPS COLLECTION BOX - PO LOBBY", "note": "ON 12/24 AND 12/31, THIS BOX MAY BE COLLECTED AS EARLY AS 12 NOON.", "ref": "7260100025"}, "type": "Feature"}
{"geometry": {"coordinates": [-93.107210704, 36.232095296], "type": "Point"}, "id": "jnJ7-BWv3IPjCZajab9KB4ZZStU=", "properties": {"@spider": "usps_collection_boxes", "addr:city": "HARRISON", "addr:country": "US", "addr:full": "301 N MAIN ST", "addr:postcode": "72601", "addr:state": "AR", "brand": "USPS", "brand:wikidata": "Q668687", "collection_times": "Mo-Sa 17:00", "name": "USPS COLLECTION BOX - BLUE BOX", "note": "ON 12/24 AND 12/31, THIS BOX MAY BE COLLECTED AS EARLY AS 12 NOON.", "ref": "7260100027"}, "type": "Feature"}
{"geometry": {"coordinates": [-93.131766, 36.249622], "type": "Point"}, "id": "2xj0wuBs0dlVBOBzbXJkuzr6sdM=", "properties": {"@spider": "usps_collection_boxes", "addr:city": "HARRISON", "addr:country": "US", "addr:full": "215 W INDUSTRIAL PARK RD", "addr:postcode": "72601", "addr:state": "AR", "brand": "USPS", "brand:wikidata": "Q668687", "collection_times": "Mo-Sa 18:00", "name": "USPS COLLECTION BOX - PO LOBBY", "note": "ON 12/24 AND 12/31, THIS BOX MAY BE COLLECTED AS EARLY AS 12 NOON.", "ref": "7260100029"}, "type": "Feature"}
{"geometry": {"coordinates": [-93.107105685, 36.235653755], "type": "Point"}, "id": "0uZL7DnG6Cy84XSN5DWFKfCz9tY=", "properties": {"@spider": "usps_collection_boxes", "addr:city": "HARRISON", "addr:country": "US", "addr:full": "609 N MAIN ST", "addr:postcode": "72601", "addr:state": "AR", "brand": "USPS", "brand:wikidata": "Q668687", "collection_times": "Mo-Sa 17:00", "name": "USPS COLLECTION BOX - BLUE BOX", "note": "ON 12/24 AND 12/31, THIS BOX MAY BE COLLECTED AS EARLY AS 12 NOON.", "ref": "7260100036"}, "type": "Feature"}
{"geometry": {"coordinates": [-93.137391508, 36.253663312], "type": "Point"}, "id": "xNfEQbo9b7UCbZy35wIx5SWl2bU=", "properties": {"@spider": "usps_collection_boxes", "addr:city": "HARRISON", "addr:country": "US", "addr:full": "1919 CLUB CIR", "addr:postcode": "72601", "addr:state": "AR", "brand": "USPS", "brand:wikidata": "Q668687", "collection_times": "Mo-Sa 16:45", "name": "USPS COLLECTION BOX - BLUE BOX", "note": "ON 12/24 AND 12/31, THIS BOX MAY BE COLLECTED AS EARLY AS 12 NOON.", "ref": "7260100038"}, "type": "Feature"}
{"geometry": {"coordinates": [-93.109875878, 36.229486005], "type": "Point"}, "id": "BhbBvt2I5UNyA-bVqH3G0B0Uknc=", "properties": {"@spider": "usps_collection_boxes", "addr:city": "HARRISON", "addr:country": "US", "addr:full": "125 S SPRING ST", "addr:postcode": "72601", "addr:state": "AR", "brand": "USPS", "brand:wikidata": "Q668687", "collection_times": "Mo-Sa 17:00", "name": "USPS COLLECTION BOX - BLUE BOX", "note": "ON 12/24 AND 12/31, THIS BOX MAY BE COLLECTED AS EARLY AS 12 NOON.", "ref": "7260100040"}, "type": "Feature"}
{"geometry": {"coordinates": [-93.119578976, 36.251677032], "type": "Point"}, "id": "l47eudnX7Yfoafo7JY4CnfDwVEk=", "properties": {"@spider": "usps_collection_boxes", "addr:city": "HARRISON", "addr:country": "US", "addr:full": "800 HIGHWAY 62 65 N", "addr:postcode": "72601", "addr:state": "AR", "brand": "USPS", "brand:wikidata": "Q668687", "collection_times": "Mo-Sa 17:00", "name": "USPS COLLECTION BOX - BLUE BOX", "note": "ON 12/24 AND 12/31, THIS BOX MAY BE COLLECTED AS EARLY AS 12 NOON.", "ref": "7260100042"}, "type": "Feature"}
{"geometry": {"coordinates": [-93.108546, 36.236628], "type": "Point"}, "id": "vtmEwROYoNVRP4r0IWaBsUS1jzE=", "properties": {"@spider": "usps_collection_boxes", "addr:city": "HARRISON", "addr:country": "US", "addr:full": "620 N MAIN ST", "addr:postcode": "72601", "addr:state": "AR", "brand": "USPS", "brand:wikidata": "Q668687", "collection_times": "Mo-Sa 16:45", "name": "USPS COLLECTION BOX - BLUE BOX", "note": "ON 12/24 AND 12/31, THIS BOX MAY BE COLLECTED AS EARLY AS 12 NOON.", "ref": "7260100045"}, "type": "Feature"}
{"geometry": {"coordinates": [-93.131766, 36.249622], "type": "Point"}, "id": "xM__8h5CfAsWri-QV-wfQtxrFbk=", "properties": {"@spider": "usps_collection_boxes", "addr:city": "HARRISON", "addr:country": "US", "addr:full": "215 W INDUSTRIAL PARK RD", "addr:postcode": "72601", "addr:state": "AR", "brand": "USPS", "brand:wikidata": "Q668687", "collection_times": "Mo-Sa 18:00", "name": "USPS COLLECTION BOX - BLUE BOX", "note": "ON 12/24 AND 12/31, THIS BOX MAY BE COLLECTED AS EARLY AS 12 NOON.", "ref": "7260100046"}, "type": "Feature"}
{"geometry": {"coordinates": [-93.130724057, 36.249858821], "type": "Point"}, "id": "gY_zd9BbcTu9zJX34Re5qz98q70=", "properties": {"@spider": "usps_collection_boxes", "addr:city": "HARRISON", "addr:country": "US", "addr:full": "215 W INDUSTRIAL PARK RD", "addr:postcode": "72601", "addr:state": "AR", "brand": "USPS", "brand:wikidata": "Q668687", "collection_times": "Mo-Fr 17:00; Sa 11:00", "name": "USPS COLLECTION BOX - PO LOBBY", "note": "ON 12/24 AND 12/31, THIS BOX MAY BE COLLECTED AS EARLY AS 12 NOON.", "ref": "7260100048"}, "type": "Feature"}
{"geometry": {"coordinates": [-93.290098, 36.294933], "type": "Point"}, "id": "VaBWg2HSp669UUGt6XlUgv7ynvU=", "properties": {"@spider": "usps_collection_boxes", "addr:city": "ALPENA", "addr:country": "US", "addr:full": "105 N DENTON ST", "addr:postcode": "72611", "addr:state": "AR", "brand": "USPS", "brand:wikidata": "Q668687", "collection_times": "Mo-Fr 14:30; Sa 11:30", "name": "USPS COLLECTION BOX - BLUE BOX", "note": "ON 12/24 AND 12/31, THIS BOX MAY BE COLLECTED AS EARLY AS 12 NOON.", "ref": "7261100001"}, "type": "Feature"}
{"geometry": {"coordinates": [-93.290098, 36.294933], "type": "Point"}, "id": "EjTAnFHs6YwYq-5GgoPfosYDkn8=", "properties": {"@spider": "usps_collection_boxes", "addr:city": "ALPENA", "addr:country": "US", "addr:full": "105 N DENTON ST", "addr:postcode": "72611", "addr:state": "AR", "brand": "USPS", "brand:wikidata": "Q668687", "collection_times": "Mo-Fr 14:30; Sa 11:30", "name": "USPS COLLECTION BOX - PO LOBBY", "note": "ON 12/24 AND 12/31, THIS BOX MAY BE COLLECTED AS EARLY AS 12 NOON.", "ref": "7261100002"}, "type": "Feature"}
{"geometry": {"coordinates": [-93.2900950852, 36.2948776847], "type": "Point"}, "id": "JtQoI1l65tI7o7LooRixOiUlIxo=", "properties": {"@spider": "usps_collection_boxes", "addr:city": "ALPENA", "addr:country": "US", "addr:full": "105 N DENTON ST", "addr:postcode": "72611", "addr:state": "AR", "brand": "USPS", "brand:wikidata": "Q668687", "collection_times": "Mo-Fr 14:30; Sa 11:45", "name": "USPS COLLECTION BOX - PO LOBBY", "note": "ON 12/24 AND 12/31, THIS BOX MAY BE COLLECTED AS EARLY AS 12 NOON.", "ref": "7261100006"}, "type": "Feature"}
{"geometry": {"coordinates": [-93.769461, 36.474545], "type": "Point"}, "id": "a3MrYyMiXYygbW572MKY2DSkM6c=", "properties": {"@spider": "usps_collection_boxes", "addr:city": "BEAVER", "addr:country": "US", "addr:full": "306 SQUIRE BEAVER RD", "addr:postcode": "72613", "addr:state": "AR", "brand": "USPS", "brand:wikidata": "Q668687", "collection_times": "Mo-Fr 15:30; Sa 10:30", "name": "USPS COLLECTION BOX - BLUE BOX", "note": "ON 12/24 AND 12/31, THIS BOX MAY BE COLLECTED AS EARLY AS 12 NOON.", "ref": "7261300001"}, "type": "Feature"}
{"geometry": {"coordinates": [-93.769469, 36.474517], "type": "Point"}, "id": "uibHMSMHfRH3lJ-LFiRvJsE4Icw=", "properties": {"@spider": "usps_collection_boxes", "addr:city": "BEAVER", "addr:country": "US", "addr:full": "306 SQUIRE BEAVER RD", "addr:postcode": "72613", "addr:state": "AR", "brand": "USPS", "brand:wikidata": "Q668687", "collection_times": "Mo-Fr 15:30; Sa 10:30", "name": "USPS COLLECTION BOX - PO LOBBY", "note": "ON 12/24 AND 12/31, THIS BOX MAY BE COLLECTED AS EARLY AS 12 NOON.", "ref": "7261300003"}, "type": "Feature"}
{"geometry": {"coordinates": [-93.769115156, 36.47433976], "type": "Point"}, "id": "ZiqN6ZdL0n5sHiFJMyvyrBJYqIk=", "properties": {"@spider": "usps_collection_boxes", "addr:city": "BEAVER", "addr:country": "US", "addr:full": "306 SQUIRE BEAVER RD", "addr:postcode": "72613", "addr:state": "AR", "brand": "USPS", "brand:wikidata": "Q668687", "collection_times": "Mo-Fr 15:30; Sa 10:30", "name": "USPS COLLECTION BOX - PO LOBBY", "note": "ON 12/24 AND 12/31, THIS BOX MAY BE COLLECTED AS EARLY AS 12 NOON.", "ref": "7261300004"}, "type": "Feature"}
{"geometry": {"coordinates": [-93.0125879, 36.312428], "type": "Point"}, "id": "B3-wDS8TEfgdiajo6FvrVrBGfms=", "properties": {"@spider": "usps_collection_boxes", "addr:city": "BERGMAN", "addr:country": "US", "addr:full": "100 MAIN ST", "addr:postcode": "72615", "addr:state": "AR", "brand": "USPS", "brand:wikidata": "Q668687", "collection_times": "Mo-Fr 11:45; Sa 10:45", "name": "USPS COLLECTION BOX - BLUE BOX", "ref": "7261500001"}, "type": "Feature"}
{"geometry": {"coordinates": [-93.014942, 36.312712], "type": "Point"}, "id": "8c-le9UIanH6GQZ64-wS39MEnDQ=", "properties": {"@spider": "usps_collection_boxes", "addr:city": "BERGMAN", "addr:country": "US", "addr:full": "100 MAIN ST", "addr:postcode": "72615", "addr:state": "AR", "brand": "USPS", "brand:wikidata": "Q668687", "collection_times": "Mo-Fr 11:30; Sa 10:45", "name": "USPS COLLECTION BOX - PO LOBBY", "ref": "7261500002"}, "type": "Feature"}
{"geometry": {"coordinates": [-93.016827204, 36.312801145], "type": "Point"}, "id": "zS8nsw66ZF0PB4YJVF-8xVWYsu4=", "properties": {"@spider": "usps_collection_boxes", "addr:city": "BERGMAN", "addr:country": "US", "addr:full": "100 MAIN ST", "addr:postcode": "72615", "addr:state": "AR", "brand": "USPS", "brand:wikidata": "Q668687", "collection_times": "Mo-Fr 12:00; Sa 10:30", "name": "USPS COLLECTION BOX - PO LOBBY", "ref": "7261500003"}, "type": "Feature"}
{"geometry": {"coordinates": [-93.566678, 36.364513], "type": "Point"}, "id": "W7MElvqa0FRGNiO_JWvlIHXy9CA=", "properties": {"@spider": "usps_collection_boxes", "addr:city": "BERRYVILLE", "addr:country": "US", "addr:full": "101 E MADISON AVE", "addr:postcode": "72616", "addr:state": "AR", "brand": "USPS", "brand:wikidata": "Q668687", "collection_times": "Mo-Sa 17:00", "name": "USPS COLLECTION BOX - PO LOBBY", "note": "ON 12/24 AND 12/31, THIS BOX MAY BE COLLECTED AS EARLY AS 12 NOON.", "ref": "7261600001"}, "type": "Feature"}
{"geometry": {"coordinates": [-93.5714086, 36.36772], "type": "Point"}, "id": "0sW_yNoQTFpgiCkbDPwfY9vwfDw=", "properties": {"@spider": "usps_collection_boxes", "addr:city": "BERRYVILLE", "addr:country": "US", "addr:full": "328 EUREKA AVE", "addr:postcode": "72616", "addr:state": "AR", "brand": "USPS", "brand:wikidata": "Q668687", "collection_times": "Mo-Sa 10:30", "name": "USPS COLLECTION BOX - BLUE BOX", "ref": "7261600002"}, "type": "Feature"}
{"geometry": {"coordinates": [-93.560054586, 36.3711408228], "type": "Point"}, "id": "jHkwCzSfwKOl_ZxpkwFqKTqTo4Y=", "properties": {"@spider": "usps_collection_boxes", "addr:city": "BERRYVILLE", "addr:country": "US", "addr:full": "405 SMALLEY ST", "addr:postcode": "72616", "addr:state": "AR", "brand": "USPS", "brand:wikidata": "Q668687", "collection_times": "Mo-Sa 10:00", "name": "USPS COLLECTION BOX - BLUE BOX", "ref": "7261600005"}, "type": "Feature"}
{"geometry": {"coordinates": [-93.566188013, 36.362378746], "type": "Point"}, "id": "lG97ts8FG6SWJhMlAbP7liajQOM=", "properties": {"@spider": "usps_collection_boxes", "addr:city": "BERRYVILLE", "addr:country": "US", "addr:full": "101 CARL ST", "addr:postcode": "72616", "addr:state": "AR", "brand": "USPS", "brand:wikidata": "Q668687", "collection_times": "Mo-Sa 14:00", "name": "USPS COLLECTION BOX - BLUE BOX", "note": "ON 12/24 AND 12/31, THIS BOX MAY BE COLLECTED AS EARLY AS 12 NOON.", "ref": "7261600009"}, "type": "Feature"}
{"geometry": {"coordinates": [-93.5802288, 36.36913], "type": "Point"}, "id": "e8XAEQVJ51ncIsN87kOrf3qhp7A=", "properties": {"@spider": "usps_collection_boxes", "addr:city": "BERRYVILLE", "addr:country": "US", "addr:full": "1 COUNTRY CT", "addr:postcode": "72616", "addr:state": "AR", "brand": "USPS", "brand:wikidata": "Q668687", "collection_times": "Mo-Sa 11:00", "name": "USPS COLLECTION BOX - BLUE BOX", "ref": "7261600010"}, "type": "Feature"}
{"geometry": {"coordinates": [-93.5863543, 36.376473], "type": "Point"}, "id": "SG3VlWBVIaIPRfhZGFLuptQJDEY=", "properties": {"@spider": "usps_collection_boxes", "addr:city": "BERRYVILLE", "addr:country": "US", "addr:full": "1000 W TRIMBLE AVE", "addr:postcode": "72616", "addr:state": "AR", "brand": "USPS", "brand:wikidata": "Q668687", "collection_times": "Mo-Sa 13:00", "name": "USPS COLLECTION BOX - BLUE BOX", "note": "ON 12/24 AND 12/31, THIS BOX MAY BE COLLECTED AS EARLY AS 12 NOON.", "ref": "7261600012"}, "type": "Feature"}
{"geometry": {"coordinates": [-93.566854, 36.364389], "type": "Point"}, "id": "qtL6VTW1wXy8En-b2W4i0NKNcRw=", "properties": {"@spider": "usps_collection_boxes", "addr:city": "BERRYVILLE", "addr:country": "US", "addr:full": "301 PUBLIC SQ", "addr:postcode": "72616", "addr:state": "AR", "brand": "USPS", "brand:wikidata": "Q668687", "collection_times": "Mo-Sa 16:45", "name": "USPS COLLECTION BOX - BLUE BOX", "note": "ON 12/24 AND 12/31, THIS BOX MAY BE COLLECTED AS EARLY AS 12 NOON.", "ref": "7261600013"}, "type": "Feature"}
{"geometry": {"coordinates": [-93.566854, 36.364389], "type": "Point"}, "id": "C-hiZhsQCxbJKefq0E0fZtpxz40=", "properties": {"@spider": "usps_collection_boxes", "addr:city": "BERRYVILLE", "addr:country": "US", "addr:full": "301 PUBLIC SQ", "addr:postcode": "72616", "addr:state": "AR", "brand": "USPS", "brand:wikidata": "Q668687", "collection_times": "Mo-Sa 16:45", "name": "USPS COLLECTION BOX - BLUE BOX", "note": "ON 12/24 AND 12/31, THIS BOX MAY BE COLLECTED AS EARLY AS 12 NOON.", "ref": "7261600014"}, "type": "Feature"}
{"geometry": {"coordinates": [-93.5877041, 36.378981], "type": "Point"}, "id": "D1cA5FrLjNEN0P-COsT5HjEpUL4=", "properties": {"@spider": "usps_collection_boxes", "addr:city": "BERRYVILLE", "addr:country": "US", "addr:full": "1004 W TRIMBLE AVE", "addr:postcode": "72616", "addr:state": "AR", "brand": "USPS", "brand:wikidata": "Q668687", "collection_times": "Mo-Sa 13:00", "name": "USPS COLLECTION BOX - BLUE BOX", "note": "ON 12/24 AND 12/31, THIS BOX MAY BE COLLECTED AS EARLY AS 12 NOON.", "ref": "7261600015"}, "type": "Feature"}
{"geometry": {"coordinates": [-93.566678, 36.364513], "type": "Point"}, "id": "MkaOeJd8y32-2j4QqkkKr0Cwm6g=", "properties": {"@spider": "usps_collection_boxes", "addr:city": "BERRYVILLE", "addr:country": "US", "addr:full": "101 E MADISON AVE", "addr:postcode": "72616", "addr:state": "AR", "brand": "USPS", "brand:wikidata": "Q668687", "collection_times": "Mo-Sa 17:00", "name": "USPS COLLECTION BOX - PO LOBBY", "note": "ON 12/24 AND 12/31, THIS BOX MAY BE COLLECTED AS EARLY AS 12 NOON.", "ref": "7261600016"}, "type": "Feature"}
{"geometry": {"coordinates": [-93.566678, 36.364513], "type": "Point"}, "id": "8iYNnb410YbfkBx9yLC_4Q4Apeo=", "properties": {"@spider": "usps_collection_boxes", "addr:city": "BERRYVILLE", "addr:country": "US", "addr:full": "101 E MADISON AVE", "addr:postcode": "72616", "addr:state": "AR", "brand": "USPS", "brand:wikidata": "Q668687", "collection_times": "Mo-Sa 17:00", "name": "USPS COLLECTION BOX - PO LOBBY", "note": "ON 12/24 AND 12/31, THIS BOX MAY BE COLLECTED AS EARLY AS 12 NOON.", "ref": "7261600017"}, "type": "Feature"}
{"geometry": {"coordinates": [-93.56668373, 36.364404731], "type": "Point"}, "id": "aHzuq0wSa8i-vKioDoiwOqAy4r0=", "properties": {"@spider": "usps_collection_boxes", "addr:city": "BERRYVILLE", "addr:country": "US", "addr:full": "101 E MADISON AVE STE 100", "addr:postcode": "72616", "addr:state": "AR", "brand": "USPS", "brand:wikidata": "Q668687", "collection_times": "Mo-Fr 16:30; Sa 12:00", "name": "USPS COLLECTION BOX - PO LOBBY", "note": "ON 12/24 AND 12/31, THIS BOX MAY BE COLLECTED AS EARLY AS 12 NOON.", "ref": "7261600018"}, "type": "Feature"}
{"geometry": {"coordinates": [-92.58175, 36.384838], "type": "Point"}, "id": "x8mI7TiUeSZup9PkqFMG7oMbkVA=", "properties": {"@spider": "usps_collection_boxes", "addr:city": "BULL SHOALS", "addr:country": "US", "addr:full": "904 LAKESHORE RD", "addr:postcode": "72619", "addr:state": "AR", "brand": "USPS", "brand:wikidata": "Q668687", "collection_times": "Mo-Fr 15:45; Sa 10:15", "name": "USPS COLLECTION BOX - BLUE BOX", "note": "ON 12/24 AND 12/31, THIS BOX MAY BE COLLECTED AS EARLY AS 12 NOON.", "ref": "7261900000"}, "type": "Feature"}
{"geometry": {"coordinates": [-92.58175, 36.384838], "type": "Point"}, "id": "BEkXOlXBb1yUrJrAD7SggkzgIbk=", "properties": {"@spider": "usps_collection_boxes", "addr:city": "BULL SHOALS", "addr:country": "US", "addr:full": "904 LAKESHORE RD", "addr:postcode": "72619", "addr:state": "AR", "brand": "USPS", "brand:wikidata": "Q668687", "collection_times": "Mo-Fr 15:45; Sa 10:15", "name": "USPS COLLECTION BOX - PO LOBBY", "note": "ON 12/24 AND 12/31, THIS BOX MAY BE COLLECTED AS EARLY AS 12 NOON.", "ref": "7261900001"}, "type": "Feature"}
{"geometry": {"coordinates": [-92.58175, 36.384838], "type": "Point"}, "id": "lnatCssPqM-CHtUWhhXPwzhLubc=", "properties": {"@spider": "usps_collection_boxes", "addr:city": "BULL SHOALS", "addr:country": "US", "addr:full": "904 LAKESHORE RD", "addr:postcode": "72619", "addr:state": "AR", "brand": "USPS", "brand:wikidata": "Q668687", "collection_times": "Mo-Fr 15:45; Sa 10:15", "name": "USPS COLLECTION BOX - PO LOBBY", "note": "ON 12/24 AND 12/31, THIS BOX MAY BE COLLECTED AS EARLY AS 12 NOON.", "ref": "7261900002"}, "type": "Feature"}
{"geometry": {"coordinates": [-92.581753081, 36.384813533], "type": "Point"}, "id": "QGl0ApDeEo5a53eI_YGfHjRVTp8=", "properties": {"@spider": "usps_collection_boxes", "addr:city": "BULL SHOALS", "addr:country": "US", "addr:full": "904 LAKESHORE RD", "addr:postcode": "72619", "addr:state": "AR", "brand": "USPS", "brand:wikidata": "Q668687", "collection_times": "Mo-Fr 15:45; Sa 10:30", "name": "USPS COLLECTION BOX - PO LOBBY", "note": "ON 12/24 AND 12/31, THIS BOX MAY BE COLLECTED AS EARLY AS 12 NOON.", "ref": "7261900003"}, "type": "Feature"}
{"geometry": {"coordinates": [-92.349918, 36.478611], "type": "Point"}, "id": "KIBLPsLGpUe0-iizlkP-TBc46lY=", "properties": {"@spider": "usps_collection_boxes", "addr:city": "CLARKRIDGE", "addr:country": "US", "addr:full": "49 POSTMASTER CIR", "addr:postcode": "72623", "addr:state": "AR", "brand": "USPS", "brand:wikidata": "Q668687", "collection_times": "Mo-Fr 11:30; Sa 10:00", "name": "USPS COLLECTION BOX - PO LOBBY", "ref": "7262300001"}, "type": "Feature"}
{"geometry": {"coordinates": [-92.349917136, 36.478605898], "type": "Point"}, "id": "AX61buowioj340yK5_mDhvISfMU=", "properties": {"@spider": "usps_collection_boxes", "addr:city": "CLARKRIDGE", "addr:country": "US", "addr:full": "49 POSTMASTER CIR", "addr:postcode": "72623", "addr:state": "AR", "brand": "USPS", "brand:wikidata": "Q668687", "collection_times": "Mo-Fr 12:00; Sa 10:00", "name": "USPS COLLECTION BOX - PO LOBBY", "ref": "7262300002"}, "type": "Feature"}
{"geometry": {"coordinates": [-93.3647524, 36.0655614], "type": "Point"}, "id": "1AkiMPWYgE2OWWlrBXzncO3LIrs=", "properties": {"@spider": "usps_collection_boxes", "addr:city": "COMPTON", "addr:country": "US", "addr:full": "1 W MAIN ST", "addr:postcode": "72624", "addr:state": "AR", "brand": "USPS", "brand:wikidata": "Q668687", "collection_times": "Mo-Fr 13:45; Sa 10:45", "name": "USPS COLLECTION BOX - BLUE BOX", "note": "ON 12/24 AND 12/31, THIS BOX MAY BE COLLECTED AS EARLY AS 12 NOON.", "ref": "7262400004"}, "type": "Feature"}
{"geometry": {"coordinates": [-92.5380092, 36.26607], "type": "Point"}, "id": "8_QOPsUA1a5W9QZ6gW2meysWwrE=", "properties": {"@spider": "usps_collection_boxes", "addr:city": "COTTER", "addr:country": "US", "addr:full": "510 SECOND ST", "addr:postcode": "72626", "addr:state": "AR", "brand": "USPS", "brand:wikidata": "Q668687", "collection_times": "Mo-Fr 15:00; Sa 10:00", "name": "USPS COLLECTION BOX - BLUE BOX", "note": "ON 12/24 AND 12/31, THIS BOX MAY BE COLLECTED AS EARLY AS 12 NOON.", "ref": "7262600001"}, "type": "Feature"}
{"geometry": {"coordinates": [-92.538096, 36.266312], "type": "Point"}, "id": "ADsVXafJKzRrVdSHSdEOOMMh4Fs=", "properties": {"@spider": "usps_collection_boxes", "addr:city": "COTTER", "addr:country": "US", "addr:full": "510 SECOND ST", "addr:postcode": "72626", "addr:state": "AR", "brand": "USPS", "brand:wikidata": "Q668687", "collection_times": "Mo-Fr 15:00; Sa 10:00", "name": "USPS COLLECTION BOX - PO LOBBY", "note": "ON 12/24 AND 12/31, THIS BOX MAY BE COLLECTED AS EARLY AS 12 NOON.", "ref": "7262600002"}, "type": "Feature"}
{"geometry": {"coordinates": [-92.538006488, 36.266180208], "type": "Point"}, "id": "zHmdbbMOAuvrOw1OXGDhRMYKaro=", "properties": {"@spider": "usps_collection_boxes", "addr:city": "COTTER", "addr:country": "US", "addr:full": "510 SECOND ST", "addr:postcode": "72626", "addr:state": "AR", "brand": "USPS", "brand:wikidata": "Q668687", "collection_times": "Mo-Fr 15:00; Sa 10:00", "name": "USPS COLLECTION BOX - PO LOBBY", "note": "ON 12/24 AND 12/31, THIS BOX MAY BE COLLECTED AS EARLY AS 12 NOON.", "ref": "7262600007"}, "type": "Feature"}
{"geometry": {"coordinates": [-93.2090685, 35.830252], "type": "Point"}, "id": "oapB5uphhX3JUMN_dhGJnsncKco=", "properties": {"@spider": "usps_collection_boxes", "addr:city": "DEER", "addr:country": "US", "addr:full": "312 HIGHWAY 16 W", "addr:postcode": "72628", "addr:state": "AR", "brand": "USPS", "brand:wikidata": "Q668687", "collection_times": "Mo-Fr 11:30; Sa 12:00", "name": "USPS COLLECTION BOX - BLUE BOX", "ref": "7262800001"}, "type": "Feature"}
{"geometry": {"coordinates": [-93.512043, 35.817028], "type": "Point"}, "id": "eZgzcb5nmzNcvWidnEQPFkJ13SQ=", "properties": {"@spider": "usps_collection_boxes", "addr:city": "DEER", "addr:country": "US", "addr:full": "312 HIGHWAY 16 W", "addr:postcode": "72628", "addr:state": "AR", "brand": "USPS", "brand:wikidata": "Q668687", "collection_times": "Mo-Fr 11:30; Sa 12:00", "name": "USPS COLLECTION BOX - PO LOBBY", "ref": "7262800002"}, "type": "Feature"}
{"geometry": {"coordinates": [-93.512066622, 35.817001794], "type": "Point"}, "id": "fHpf350Od-cltQU_AnLqtq06Sp8=", "properties": {"@spider": "usps_collection_boxes", "addr:city": "DEER", "addr:country": "US", "addr:full": "312 HIGHWAY 16 W", "addr:postcode": "72628", "addr:state": "AR", "brand": "USPS", "brand:wikidata": "Q668687", "collection_times": "Mo-Fr 12:00; Sa 12:15", "name": "USPS COLLECTION BOX - PO LOBBY", "note": "ON 12/24 AND 12/31, THIS BOX MAY BE COLLECTED AS EARLY AS 12 NOON.", "ref": "7262800004"}, "type": "Feature"}
{"geometry": {"coordinates": [-92.5224533, 35.753131], "type": "Point"}, "id": "SN_e6uEwscd_0xcEsDhr437zqUE=", "properties": {"@spider": "usps_collection_boxes", "addr:city": "DENNARD", "addr:country": "US", "addr:full": "120 POST OFFICE RD", "addr:postcode": "72629", "addr:state": "AR", "brand": "USPS", "brand:wikidata": "Q668687", "collection_times": "Mo-Fr 11:30; Sa 10:30", "name": "USPS COLLECTION BOX - BLUE BOX", "ref": "7262900000"}, "type": "Feature"}
{"geometry": {"coordinates": [-92.522471, 35.753303], "type": "Point"}, "id": "64lwAeWEkL5TMkA0d0ysAu5qyq8=", "properties": {"@spider": "usps_collection_boxes", "addr:city": "DENNARD", "addr:country": "US", "addr:full": "120 POST OFFICE RD", "addr:postcode": "72629", "addr:state": "AR", "brand": "USPS", "brand:wikidata": "Q668687", "collection_times": "Mo-Fr 11:30; Sa 10:30", "name": "USPS COLLECTION BOX - PO LOBBY", "ref": "7262900001"}, "type": "Feature"}
{"geometry": {"coordinates": [-92.522471087, 35.75329854], "type": "Point"}, "id": "zMr-cfegH5gRfu-_tDGXImdNIso=", "properties": {"@spider": "usps_collection_boxes", "addr:city": "DENNARD", "addr:country": "US", "addr:full": "120 POST OFFICE RD", "addr:postcode": "72629", "addr:state": "AR", "brand": "USPS", "brand:wikidata": "Q668687", "collection_times": "Mo-Fr 12:00; Sa 10:30", "name": "USPS COLLECTION BOX - PO LOBBY", "ref": "7262900003"}, "type": "Feature"}
{"geometry": {"coordinates": [-93.719059633, 36.455044696], "type": "Point"}, "id": "U3yQSehcex2GK_leOSz_xMz6ggs=", "properties": {"@spider": "usps_collection_boxes", "addr:city": "EUREKA SPRINGS", "addr:country": "US", "addr:full": "7 PARKCLIFF DR", "addr:postcode": "72631", "addr:state": "AR", "brand": "USPS", "brand:wikidata": "Q668687", "collection_times": "Mo-Fr 15:30", "name": "USPS COLLECTION BOX - PO LOBBY", "note": "ON 12/24 AND 12/31, THIS BOX MAY BE COLLECTED AS EARLY AS 12 NOON.", "ref": "7263100001"}, "type": "Feature"}
{"geometry": {"coordinates": [-93.7383178947, 36.4040953472], "type": "Point"}, "id": "Ww_tH24e79oTxidKjJfX_cgCKtY=", "properties": {"@spider": "usps_collection_boxes", "addr:city": "EUREKA SPRINGS", "addr:country": "US", "addr:full": "101 SPRING ST", "addr:postcode": "72632", "addr:state": "AR", "brand": "USPS", "brand:wikidata": "Q668687", "collection_times": "Mo-Fr 16:10; Sa 12:00", "name": "USPS COLLECTION BOX - BLUE BOX", "note": "ON 12/24 AND 12/31, THIS BOX MAY BE COLLECTED AS EARLY AS 12 NOON.", "ref": "7263200001"}, "type": "Feature"}
{"geometry": {"coordinates": [-93.7397131, 36.400375], "type": "Point"}, "id": "fEiKc3TVf9hYZr_0yLcliLOu9lY=", "properties": {"@spider": "usps_collection_boxes", "addr:city": "EUREKA SPRINGS", "addr:country": "US", "addr:full": "70 S MAIN ST", "addr:postcode": "72632", "addr:state": "AR", "brand": "USPS", "brand:wikidata": "Q668687", "collection_times": "Mo-Sa 10:30", "name": "USPS COLLECTION BOX - BLUE BOX", "ref": "7263200003"}, "type": "Feature"}
{"geometry": {"coordinates": [-93.7365735, 36.392724], "type": "Point"}, "id": "Za3aPq_jIRGtNhEQ5u7lRJfm1KM=", "properties": {"@spider": "usps_collection_boxes", "addr:city": "EUREKA SPRINGS", "addr:country": "US", "addr:full": "131 E VAN BUREN", "addr:postcode": "72632", "addr:state": "AR", "brand": "USPS", "brand:wikidata": "Q668687", "collection_times": "Mo-Sa 11:00", "name": "USPS COLLECTION BOX - BLUE BOX", "ref": "7263200005"}, "type": "Feature"}
{"geometry": {"coordinates": [-93.7451042, 36.395238], "type": "Point"}, "id": "Yt5cq9V67gXa7mahzY-r-VOZbJg=", "properties": {"@spider": "usps_collection_boxes", "addr:city": "EUREKA SPRINGS", "addr:country": "US", "addr:full": "137 W VAN BUREN", "addr:postcode": "72632", "addr:state": "AR", "brand": "USPS", "brand:wikidata": "Q668687", "collection_times": "Mo-Sa 10:30", "name": "USPS COLLECTION BOX - BLUE BOX", "ref": "7263200006"}, "type": "Feature"}
{"geometry": {"coordinates": [-93.7310573, 36.392191], "type": "Point"}, "id": "4Fvv4GeLQFJvVLhmf2LECGH33M8=", "properties": {"@spider": "usps_collection_boxes", "addr:city": "EUREKA SPRINGS", "addr:country": "US", "addr:full": "2075 E VAN BUREN", "addr:postcode": "72632", "addr:state": "AR", "brand": "USPS", "brand:wikidata": "Q668687", "collection_times": "Mo-Fr 11:00; Sa 11:45", "name": "USPS COLLECTION BOX - BLUE BOX", "ref": "7263200009"}, "type": "Feature"}
{"geometry": {"coordinates": [-93.7362872, 36.388041], "type": "Point"}, "id": "B_-pT8b8Do-Uls9M0hnynNFpIUo=", "properties": {"@spider": "usps_collection_boxes", "addr:city": "EUREKA SPRINGS", "addr:country": "US", "addr:full": "196 E VAN BUREN", "addr:postcode": "72632", "addr:state": "AR", "brand": "USPS", "brand:wikidata": "Q668687", "collection_times": "Mo-Fr 11:00; Sa 11:45", "name": "USPS COLLECTION BOX - BLUE BOX", "ref": "7263200010"}, "type": "Feature"}
{"geometry": {"coordinates": [-93.737909, 36.404516], "type": "Point"}, "id": "tYBY8nRs5kHuGjypUkk6MuB_Fac=", "properties": {"@spider": "usps_collection_boxes", "addr:city": "EUREKA SPRINGS", "addr:country": "US", "addr:full": "101 SPRING ST", "addr:postcode": "72632", "addr:state": "AR", "brand": "USPS", "brand:wikidata": "Q668687", "collection_times": "Mo-Fr 16:10; Sa 12:00", "name": "USPS COLLECTION BOX - PO LOBBY", "note": "ON 12/24 AND 12/31, THIS BOX MAY BE COLLECTED AS EARLY AS 12 NOON.", "ref": "7263200012"}, "type": "Feature"}
{"geometry": {"coordinates": [-93.720365, 36.454873], "type": "Point"}, "id": "0Ds3ndSarnOO-fnjRAUh367DpCQ=", "properties": {"@spider": "usps_collection_boxes", "addr:city": "EUREKA SPRINGS", "addr:country": "US", "addr:full": "7 PARKCLIFF DR", "addr:postcode": "72632", "addr:state": "AR", "brand": "USPS", "brand:wikidata": "Q668687", "collection_times": "Mo-Fr 16:00; Sa 12:00", "name": "USPS COLLECTION BOX - BLUE BOX", "note": "ON 12/24 AND 12/31, THIS BOX MAY BE COLLECTED AS EARLY AS 12 NOON.", "ref": "7263200017"}, "type": "Feature"}
{"geometry": {"coordinates": [-93.720365, 36.454873], "type": "Point"}, "id": "Tg0THIrToy-dHhE5cRg4GNpKqjc=", "properties": {"@spider": "usps_collection_boxes", "addr:city": "EUREKA SPRINGS", "addr:country": "US", "addr:full": "7 PARKCLIFF DR", "addr:postcode": "72632", "addr:state": "AR", "brand": "USPS", "brand:wikidata": "Q668687", "collection_times": "Mo-Fr 16:00; Sa 12:00", "name": "USPS COLLECTION BOX - PO LOBBY", "note": "ON 12/24 AND 12/31, THIS BOX MAY BE COLLECTED AS EARLY AS 12 NOON.", "ref": "7263200019"}, "type": "Feature"}
{"geometry": {"coordinates": [-93.720365, 36.454873], "type": "Point"}, "id": "5K9xEiW8Jr8C3v2-VbzhfN73VVk=", "properties": {"@spider": "usps_collection_boxes", "addr:city": "EUREKA SPRINGS", "addr:country": "US", "addr:full": "7 PARKCLIFF DR", "addr:postcode": "72632", "addr:state": "AR", "brand": "USPS", "brand:wikidata": "Q668687", "collection_times": "Mo-Fr 16:00; Sa 12:00", "name": "USPS COLLECTION BOX - PO LOBBY", "note": "ON 12/24 AND 12/31, THIS BOX MAY BE COLLECTED AS EARLY AS 12 NOON.", "ref": "7263200020"}, "type": "Feature"}
{"geometry": {"coordinates": [-93.7815171, 36.431917], "type": "Point"}, "id": "2ZlnuuT1C-HwF_ezht1tz03s4HU=", "properties": {"@spider": "usps_collection_boxes", "addr:city": "EUREKA SPRINGS", "addr:country": "US", "addr:full": "14735 HIGHWAY 62 W", "addr:postcode": "72632", "addr:state": "AR", "brand": "USPS", "brand:wikidata": "Q668687", "collection_times": "Mo-Sa 11:45", "name": "USPS COLLECTION BOX - BLUE BOX", "ref": "7263200021"}, "type": "Feature"}
{"geometry": {"coordinates": [-93.7100693, 36.392624], "type": "Point"}, "id": "UaYMEHc-IOsxL6yX3U67dlN8ITA=", "properties": {"@spider": "usps_collection_boxes", "addr:city": "EUREKA SPRINGS", "addr:country": "US", "addr:full": "105 PASSION PLAY RD", "addr:postcode": "72632", "addr:state": "AR", "brand": "USPS", "brand:wikidata": "Q668687", "collection_times": "Mo-Fr 12:30; Sa 11:45", "name": "USPS COLLECTION BOX - BLUE BOX", "note": "ON 12/24 AND 12/31, THIS BOX MAY BE COLLECTED AS EARLY AS 12 NOON.", "ref": "7263200022"}, "type": "Feature"}
{"geometry": {"coordinates": [-93.7384202765, 36.4042715279], "type": "Point"}, "id": "CxOLeZ5EDz9Cb5rXWED9KiD_fng=", "properties": {"@spider": "usps_collection_boxes", "addr:city": "EUREKA SPRINGS", "addr:country": "US", "addr:full": "101 SPRING ST", "addr:postcode": "72632", "addr:state": "AR", "brand": "USPS", "brand:wikidata": "Q668687", "collection_times": "Mo-Fr 16:15; Sa 12:00", "name": "USPS COLLECTION BOX - PO LOBBY", "note": "ON 12/24 AND 12/31, THIS BOX MAY BE COLLECTED AS EARLY AS 12 NOON.", "ref": "7263200024"}, "type": "Feature"}
{"geometry": {"coordinates": [-92.906885, 36.154598], "type": "Point"}, "id": "Egmif49OYDu40UYwo-cumRw1uzw=", "properties": {"@spider": "usps_collection_boxes", "addr:city": "EVERTON", "addr:country": "US", "addr:full": "12097 REICH ST", "addr:postcode": "72633", "addr:state": "AR", "brand": "USPS", "brand:wikidata": "Q668687", "collection_times": "Mo-Fr 15:30; Sa 11:00", "name": "USPS COLLECTION BOX - BLUE BOX", "note": "ON 12/24 AND 12/31, THIS BOX MAY BE COLLECTED AS EARLY AS 12 NOON.", "ref": "7263300001"}, "type": "Feature"}
{"geometry": {"coordinates": [-92.906885, 36.154598], "type": "Point"}, "id": "RoUBIOyqXKdfqMZNX-lU81tbsiY=", "properties": {"@spider": "usps_collection_boxes", "addr:city": "EVERTON", "addr:country": "US", "addr:full": "12097 REICH ST", "addr:postcode": "72633", "addr:state": "AR", "brand": "USPS", "brand:wikidata": "Q668687", "collection_times": "Mo-Fr 15:30; Sa 11:00", "name": "USPS COLLECTION BOX - PO LOBBY", "note": "ON 12/24 AND 12/31, THIS BOX MAY BE COLLECTED AS EARLY AS 12 NOON.", "ref": "7263300002"}, "type": "Feature"}
{"geometry": {"coordinates": [-92.906885, 36.154598], "type": "Point"}, "id": "EZ5YFJpjZklDiUTO-OCyQ4t5rnQ=", "properties": {"@spider": "usps_collection_boxes", "addr:city": "EVERTON", "addr:country": "US", "addr:full": "12097 REICH ST", "addr:postcode": "72633", "addr:state": "AR", "brand": "USPS", "brand:wikidata": "Q668687", "collection_times": "Mo-Fr 15:30; Sa 11:00", "name": "USPS COLLECTION BOX - PO LOBBY", "note": "ON 12/24 AND 12/31, THIS BOX MAY BE COLLECTED AS EARLY AS 12 NOON.", "ref": "7263300003"}, "type": "Feature"}
{"geometry": {"coordinates": [-92.906741334, 36.154617464], "type": "Point"}, "id": "0-6jV-Kvj7gr7EF0WmBa6frO6hc=", "properties": {"@spider": "usps_collection_boxes", "addr:city": "EVERTON", "addr:country": "US", "addr:full": "12097 REICH ST", "addr:postcode": "72633", "addr:state": "AR", "brand": "USPS", "brand:wikidata": "Q668687", "collection_times": "Mo-Fr 16:00; Sa 11:30", "name": "USPS COLLECTION BOX - PO LOBBY", "note": "ON 12/24 AND 12/31, THIS BOX MAY BE COLLECTED AS EARLY AS 12 NOON.", "ref": "7263300004"}, "type": "Feature"}
{"geometry": {"coordinates": [-92.5870179, 36.279608], "type": "Point"}, "id": "LTbEux2Ucn9P86ZFsp2rQu40l5M=", "properties": {"@spider": "usps_collection_boxes", "addr:city": "FLIPPIN", "addr:country": "US", "addr:full": "210 N 8TH ST", "addr:postcode": "72634", "addr:state": "AR", "brand": "USPS", "brand:wikidata": "Q668687", "collection_times": "Mo-Fr 16:00; Sa 11:30", "name": "USPS COLLECTION BOX - PO LOBBY", "note": "ON 12/24 AND 12/31, THIS BOX MAY BE COLLECTED AS EARLY AS 12 NOON.", "ref": "7263400005"}, "type": "Feature"}
{"geometry": {"coordinates": [-92.5870268, 36.27962], "type": "Point"}, "id": "QTYdD5-F4ES_yXzBJAHl_8EpAlg=", "properties": {"@spider": "usps_collection_boxes", "addr:city": "FLIPPIN", "addr:country": "US", "addr:full": "210 N 8TH ST", "addr:postcode": "72634", "addr:state": "AR", "brand": "USPS", "brand:wikidata": "Q668687", "collection_times": "Mo-Fr 16:00; Sa 11:30", "name": "USPS COLLECTION BOX - PO LOBBY", "note": "ON 12/24 AND 12/31, THIS BOX MAY BE COLLECTED AS EARLY AS 12 NOON.", "ref": "7263400006"}, "type": "Feature"}
{"geometry": {"coordinates": [-92.5873126, 36.279776], "type": "Point"}, "id": "-m1Z3g9V3y69nugovaoyDWtoSnM=", "properties": {"@spider": "usps_collection_boxes", "addr:city": "FLIPPIN", "addr:country": "US", "addr:full": "210 N 8TH ST", "addr:postcode": "72634", "addr:state": "AR", "brand": "USPS", "brand:wikidata": "Q668687", "collection_times": "Mo-Fr 16:00; Sa 11:30", "name": "USPS COLLECTION BOX - BLUE BOX", "note": "ON 12/24 AND 12/31, THIS BOX MAY BE COLLECTED AS EARLY AS 12 NOON.", "ref": "7263400007"}, "type": "Feature"}
{"geometry": {"coordinates": [-92.587458071, 36.2785744016], "type": "Point"}, "id": "DLiyguWK6M7a6Cc29d7SnZwmtik=", "properties": {"@spider": "usps_collection_boxes", "addr:city": "FLIPPIN", "addr:country": "US", "addr:full": "210 N 8TH ST", "addr:postcode": "72634", "addr:state": "AR", "brand": "USPS", "brand:wikidata": "Q668687", "collection_times": "Mo-Fr 16:30; Sa 12:00", "name": "USPS COLLECTION BOX - PO LOBBY", "note": "ON 12/24 AND 12/31, THIS BOX MAY BE COLLECTED AS EARLY AS 12 NOON.", "ref": "7263400008"}, "type": "Feature"}
{"geometry": {"coordinates": [-92.481764, 36.288482], "type": "Point"}, "id": "Stb6dIsdTy0clHdEOAzJ_JtpyCU=", "properties": {"@spider": "usps_collection_boxes", "addr:city": "GASSVILLE", "addr:country": "US", "addr:full": "94 HIGHWAY 126 N", "addr:postcode": "72635", "addr:state": "AR", "brand": "USPS", "brand:wikidata": "Q668687", "collection_times": "Mo-Fr 16:10; Sa 11:00", "name": "USPS COLLECTION BOX - BLUE BOX", "note": "ON 12/24 AND 12/31, THIS BOX MAY BE COLLECTED AS EARLY AS 12 NOON.", "ref": "7263500001"}, "type": "Feature"}
{"geometry": {"coordinates": [-92.481764, 36.288482], "type": "Point"}, "id": "lTdEi0z3fPMarFnXFpoFcPSEyQM=", "properties": {"@spider": "usps_collection_boxes", "addr:city": "GASSVILLE", "addr:country": "US", "addr:full": "94 HIGHWAY 126 N", "addr:postcode": "72635", "addr:state": "AR", "brand": "USPS", "brand:wikidata": "Q668687", "collection_times": "Mo-Fr 16:10; Sa 11:00", "name": "USPS COLLECTION BOX - PO LOBBY", "note": "ON 12/24 AND 12/31, THIS BOX MAY BE COLLECTED AS EARLY AS 12 NOON.", "ref": "7263500002"}, "type": "Feature"}
{"geometry": {"coordinates": [-92.481764, 36.288482], "type": "Point"}, "id": "gz-8epE824OiCfyz3SrMUbVgs5o=", "properties": {"@spider": "usps_collection_boxes", "addr:city": "GASSVILLE", "addr:country": "US", "addr:full": "94 HIGHWAY 126 N", "addr:postcode": "72635", "addr:state": "AR", "brand": "USPS", "brand:wikidata": "Q668687", "collection_times": "Mo-Fr 16:10; Sa 11:00", "name": "USPS COLLECTION BOX - PO LOBBY", "note": "ON 12/24 AND 12/31, THIS BOX MAY BE COLLECTED AS EARLY AS 12 NOON.", "ref": "7263500003"}, "type": "Feature"}
{"geometry": {"coordinates": [-92.481776067, 36.28824409], "type": "Point"}, "id": "65LxHIMjL862ucqghECOtVInlFI=", "properties": {"@spider": "usps_collection_boxes", "addr:city": "GASSVILLE", "addr:country": "US", "addr:full": "94 HIGHWAY 126 N", "addr:postcode": "72635", "addr:state": "AR", "brand": "USPS", "brand:wikidata": "Q668687", "collection_times": "Mo-Fr 16:00; Sa 11:00", "name": "USPS COLLECTION BOX - PO LOBBY", "note": "ON 12/24 AND 12/31, THIS BOX MAY BE COLLECTED AS EARLY AS 12 NOON.", "ref": "7263500004"}, "type": "Feature"}
{"geometry": {"coordinates": [-92.715588, 35.989858], "type": "Point"}, "id": "raAP10ET7B9o2FDtr3osYJ5iQhQ=", "properties": {"@spider": "usps_collection_boxes", "addr:city": "GILBERT", "addr:country": "US", "addr:full": "26 N FROST ST", "addr:postcode": "72636", "addr:state": "AR", "brand": "USPS", "brand:wikidata": "Q668687", "collection_times": "Mo-Fr 11:15; Sa 09:00", "name": "USPS COLLECTION BOX - BLUE BOX", "ref": "7263600001"}, "type": "Feature"}
{"geometry": {"coordinates": [-92.715619, 35.989889], "type": "Point"}, "id": "274wCueTiqx3k1ObHwfPLZFE6Tg=", "properties": {"@spider": "usps_collection_boxes", "addr:city": "GILBERT", "addr:country": "US", "addr:full": "26 N FROST ST", "addr:postcode": "72636", "addr:state": "AR", "brand": "USPS", "brand:wikidata": "Q668687", "collection_times": "Mo-Fr 11:15; Sa 09:00", "name": "USPS COLLECTION BOX - PO LOBBY", "ref": "7263600002"}, "type": "Feature"}
{"geometry": {"coordinates": [-92.715586552, 35.989540994], "type": "Point"}, "id": "8CGbGdfHUPuMseTuljduClCZwE4=", "properties": {"@spider": "usps_collection_boxes", "addr:city": "GILBERT", "addr:country": "US", "addr:full": "26 N FROST ST", "addr:postcode": "72636", "addr:state": "AR", "brand": "USPS", "brand:wikidata": "Q668687", "collection_times": "Mo-Fr 11:30; Sa 10:15", "name": "USPS COLLECTION BOX - PO LOBBY", "ref": "7263600003"}, "type": "Feature"}
{"geometry": {"coordinates": [-93.446872, 36.336055], "type": "Point"}, "id": "5ek5PuUn2fp3vxdIuUXCxRB_DDA=", "properties": {"@spider": "usps_collection_boxes", "addr:city": "GREEN FOREST", "addr:country": "US", "addr:full": "701 W MAIN ST", "addr:postcode": "72638", "addr:state": "AR", "brand": "USPS", "brand:wikidata": "Q668687", "collection_times": "Mo-Fr 16:30; Sa 11:00", "name": "USPS COLLECTION BOX - BLUE BOX", "note": "ON 12/24 AND 12/31, THIS BOX MAY BE COLLECTED AS EARLY AS 12 NOON.", "ref": "7263800001"}, "type": "Feature"}
{"geometry": {"coordinates": [-93.446872, 36.336055], "type": "Point"}, "id": "Qzd-6D9o-JK-GdhjDtF3M2ufsJM=", "properties": {"@spider": "usps_collection_boxes", "addr:city": "GREEN FOREST", "addr:country": "US", "addr:full": "701 W MAIN ST", "addr:postcode": "72638", "addr:state": "AR", "brand": "USPS", "brand:wikidata": "Q668687", "collection_times": "Mo-Fr 16:30; Sa 11:00", "name": "USPS COLLECTION BOX - PO LOBBY", "note": "ON 12/24 AND 12/31, THIS BOX MAY BE COLLECTED AS EARLY AS 12 NOON.", "ref": "7263800004"}, "type": "Feature"}
{"geometry": {"coordinates": [-93.4340312, 36.335243], "type": "Point"}, "id": "daLjcCqdVxxKNw9FN9DijGVQoBY=", "properties": {"@spider": "usps_collection_boxes", "addr:city": "GREEN FOREST", "addr:country": "US", "addr:full": "201 E MAIN ST", "addr:postcode": "72638", "addr:state": "AR", "brand": "USPS", "brand:wikidata": "Q668687", "collection_times": "Mo-Sa 14:00", "name": "USPS COLLECTION BOX - BLUE BOX", "note": "ON 12/24 AND 12/31, THIS BOX MAY BE COLLECTED AS EARLY AS 12 NOON.", "ref": "7263800005"}, "type": "Feature"}
{"geometry": {"coordinates": [-93.445305642, 36.335719627], "type": "Point"}, "id": "3vL3mQ63tOXUz3A7lUOqbbFq54o=", "properties": {"@spider": "usps_collection_boxes", "addr:city": "GREEN FOREST", "addr:country": "US", "addr:full": "701 W MAIN ST", "addr:postcode": "72638", "addr:state": "AR", "brand": "USPS", "brand:wikidata": "Q668687", "collection_times": "Mo-Fr 16:30; Sa 11:00", "name": "USPS COLLECTION BOX - PO LOBBY", "note": "ON 12/24 AND 12/31, THIS BOX MAY BE COLLECTED AS EARLY AS 12 NOON.", "ref": "7263800010"}, "type": "Feature"}
{"geometry": {"coordinates": [-92.520658, 35.99349], "type": "Point"}, "id": "AhjchfHTwACQpOew-PrXKXtoZrU=", "properties": {"@spider": "usps_collection_boxes", "addr:city": "HARRIET", "addr:country": "US", "addr:full": "100 E HIGHWAY 14", "addr:postcode": "72639", "addr:state": "AR", "brand": "USPS", "brand:wikidata": "Q668687", "collection_times": "Mo-Sa 11:30", "name": "USPS COLLECTION BOX - PO LOBBY", "ref": "7263900001"}, "type": "Feature"}
{"geometry": {"coordinates": [-92.520439992, 35.993352071], "type": "Point"}, "id": "a3N6uJUVOuog3kOEdPgIkLwu3Qg=", "properties": {"@spider": "usps_collection_boxes", "addr:city": "HARRIET", "addr:country": "US", "addr:full": "100 E HIGHWAY 14", "addr:postcode": "72639", "addr:state": "AR", "brand": "USPS", "brand:wikidata": "Q668687", "collection_times": "Mo-Sa 11:45", "name": "USPS COLLECTION BOX - PO LOBBY", "ref": "7263900002"}, "type": "Feature"}
{"geometry": {"coordinates": [-93.0475415, 36.014966], "type": "Point"}, "id": "ARU0pG6wujl8Yf2IFdpXxWlyUCQ=", "properties": {"@spider": "usps_collection_boxes", "addr:city": "HASTY", "addr:country": "US", "addr:full": "100 HASTY MOUNTAIN RD", "addr:postcode": "72640", "addr:state": "AR", "brand": "USPS", "brand:wikidata": "Q668687", "collection_times": "Mo-Fr 09:30; Sa 09:15", "name": "USPS COLLECTION BOX - BLUE BOX", "ref": "7264000000"}, "type": "Feature"}
{"geometry": {"coordinates": [-93.0438325205, 36.0148562255], "type": "Point"}, "id": "1Hu3EHTagUp3ZBFwIr5q9xNx-q4=", "properties": {"@spider": "usps_collection_boxes", "addr:city": "HASTY", "addr:country": "US", "addr:full": "100 HASTY MOUNTAIN RD", "addr:postcode": "72640", "addr:state": "AR", "brand": "USPS", "brand:wikidata": "Q668687", "collection_times": "Mo-Fr 09:30; Sa 09:15", "name": "USPS COLLECTION BOX - PO LOBBY", "ref": "7264000001"}, "type": "Feature"}
{"geometry": {"coordinates": [-93.066766138, 36.02300833], "type": "Point"}, "id": "Y8UHfxSGO4loe1Kz8hIKOlGBXGs=", "properties": {"@spider": "usps_collection_boxes", "addr:city": "HASTY", "addr:country": "US", "addr:full": "100 HASTY MOUNTAIN RD", "addr:postcode": "72640", "addr:state": "AR", "brand": "USPS", "brand:wikidata": "Q668687", "collection_times": "Mo-Fr 10:00", "name": "USPS COLLECTION BOX - PO LOBBY", "ref": "7264000002"}, "type": "Feature"}
{"geometry": {"coordinates": [-93.191503, 36.006585], "type": "Point"}, "id": "ahOgTDmcTPyr0vPCs8vErYiOBAU=", "properties": {"@spider": "usps_collection_boxes", "addr:city": "JASPER", "addr:country": "US", "addr:full": "412 W COURT ST", "addr:postcode": "72641", "addr:state": "AR", "brand": "USPS", "brand:wikidata": "Q668687", "collection_times": "Mo-Fr 15:40; Sa 10:30", "name": "USPS COLLECTION BOX - BLUE BOX", "note": "ON 12/24 AND 12/31, THIS BOX MAY BE COLLECTED AS EARLY AS 12 NOON.", "ref": "7264100001"}, "type": "Feature"}
{"geometry": {"coordinates": [-93.191503, 36.006585], "type": "Point"}, "id": "brE48Tj7Y27cXSIl9IOPXZbwcdE=", "properties": {"@spider": "usps_collection_boxes", "addr:city": "JASPER", "addr:country": "US", "addr:full": "412 W COURT ST", "addr:postcode": "72641", "addr:state": "AR", "brand": "USPS", "brand:wikidata": "Q668687", "collection_times": "Mo-Fr 15:40; Sa 10:30", "name": "USPS COLLECTION BOX - PO LOBBY", "note": "ON 12/24 AND 12/31, THIS BOX MAY BE COLLECTED AS EARLY AS 12 NOON.", "ref": "7264100002"}, "type": "Feature"}
{"geometry": {"coordinates": [-93.191503, 36.006585], "type": "Point"}, "id": "a0pMHrr20Hm-siNjRicwcMvTn4Y=", "properties": {"@spider": "usps_collection_boxes", "addr:city": "JASPER", "addr:country": "US", "addr:full": "412 W COURT ST", "addr:postcode": "72641", "addr:state": "AR", "brand": "USPS", "brand:wikidata": "Q668687", "collection_times": "Mo-Fr 15:40; Sa 10:30", "name": "USPS COLLECTION BOX - PO LOBBY", "note": "ON 12/24 AND 12/31, THIS BOX MAY BE COLLECTED AS EARLY AS 12 NOON.", "ref": "7264100004"}, "type": "Feature"}
{"geometry": {"coordinates": [-93.191512991, 36.006557886], "type": "Point"}, "id": "t8N-j4Kqq0iM3bsUJ1WWYaScKX0=", "properties": {"@spider": "usps_collection_boxes", "addr:city": "JASPER", "addr:country": "US", "addr:full": "412 W COURT ST", "addr:postcode": "72641", "addr:state": "AR", "brand": "USPS", "brand:wikidata": "Q668687", "collection_times": "Mo-Fr 15:45; Sa 10:30", "name": "USPS COLLECTION BOX - PO LOBBY", "note": "ON 12/24 AND 12/31, THIS BOX MAY BE COLLECTED AS EARLY AS 12 NOON.", "ref": "7264100005"}, "type": "Feature"}
{"geometry": {"coordinates": [-92.5433971, 36.3696], "type": "Point"}, "id": "EWmBka0sREDZ_XT2zCxSccmtUks=", "properties": {"@spider": "usps_collection_boxes", "addr:city": "LAKEVIEW", "addr:country": "US", "addr:full": "5774 HIGHWAY 178 W", "addr:postcode": "72642", "addr:state": "AR", "brand": "USPS", "brand:wikidata": "Q668687", "collection_times": "Mo-Fr 15:00; Sa 10:10", "name": "USPS COLLECTION BOX - BLUE BOX", "note": "ON 12/24 AND 12/31, THIS BOX MAY BE COLLECTED AS EARLY AS 12 NOON.", "ref": "7264200001"}, "type": "Feature"}
{"geometry": {"coordinates": [-92.543516, 36.369666], "type": "Point"}, "id": "jYpE002JO_z1AGZmXONuPTZiJPs=", "properties": {"@spider": "usps_collection_boxes", "addr:city": "LAKEVIEW", "addr:country": "US", "addr:full": "5774 HIGHWAY 178 W", "addr:postcode": "72642", "addr:state": "AR", "brand": "USPS", "brand:wikidata": "Q668687", "collection_times": "Mo-Fr 15:00; Sa 10:10", "name": "USPS COLLECTION BOX - PO LOBBY", "note": "ON 12/24 AND 12/31, THIS BOX MAY BE COLLECTED AS EARLY AS 12 NOON.", "ref": "7264200002"}, "type": "Feature"}
{"geometry": {"coordinates": [-92.543516, 36.369666], "type": "Point"}, "id": "4e5dQ1tYb2YPvQO307lmOd2udSg=", "properties": {"@spider": "usps_collection_boxes", "addr:city": "LAKEVIEW", "addr:country": "US", "addr:full": "5774 HIGHWAY 178 W", "addr:postcode": "72642", "addr:state": "AR", "brand": "USPS", "brand:wikidata": "Q668687", "collection_times": "Mo-Fr 15:00; Sa 10:10", "name": "USPS COLLECTION BOX - PO LOBBY", "note": "ON 12/24 AND 12/31, THIS BOX MAY BE COLLECTED AS EARLY AS 12 NOON.", "ref": "7264200003"}, "type": "Feature"}
{"geometry": {"coordinates": [-92.543877349, 36.369454163], "type": "Point"}, "id": "fUWq5qF3tcuBUqmnIzZn_Gnup8o=", "properties": {"@spider": "usps_collection_boxes", "addr:city": "LAKEVIEW", "addr:country": "US", "addr:full": "5774 HIGHWAY 178 W", "addr:postcode": "72642", "addr:state": "AR", "brand": "USPS", "brand:wikidata": "Q668687", "collection_times": "Mo-Fr 15:00; Sa 10:15", "name": "USPS COLLECTION BOX - PO LOBBY", "note": "ON 12/24 AND 12/31, THIS BOX MAY BE COLLECTED AS EARLY AS 12 NOON.", "ref": "7264200006"}, "type": "Feature"}
{"geometry": {"coordinates": [-92.913301, 36.418629], "type": "Point"}, "id": "V8MVGm7of29CJDldYtZshlJyMXE=", "properties": {"@spider": "usps_collection_boxes", "addr:city": "LEAD HILL", "addr:country": "US", "addr:full": "165 HIGHWAY 14", "addr:postcode": "72644", "addr:state": "AR", "brand": "USPS", "brand:wikidata": "Q668687", "collection_times": "Mo-Fr 15:45; Sa 10:00", "name": "USPS COLLECTION BOX - BLUE BOX", "note": "ON 12/24 AND 12/31, THIS BOX MAY BE COLLECTED AS EARLY AS 12 NOON.", "ref": "7264400000"}, "type": "Feature"}
{"geometry": {"coordinates": [-92.913301, 36.418629], "type": "Point"}, "id": "9cyUEgSBoGYny-1FBkbsyOKsr0M=", "properties": {"@spider": "usps_collection_boxes", "addr:city": "LEAD HILL", "addr:country": "US", "addr:full": "165 HIGHWAY 14", "addr:postcode": "72644", "addr:state": "AR", "brand": "USPS", "brand:wikidata": "Q668687", "collection_times": "Mo-Fr 16:00; Sa 10:00", "name": "USPS COLLECTION BOX - PO LOBBY", "note": "ON 12/24 AND 12/31, THIS BOX MAY BE COLLECTED AS EARLY AS 12 NOON.", "ref": "7264400001"}, "type": "Feature"}
{"geometry": {"coordinates": [-92.913301, 36.418629], "type": "Point"}, "id": "FWCF4oNltDDR8L59EX_80SYTbco=", "properties": {"@spider": "usps_collection_boxes", "addr:city": "LEAD HILL", "addr:country": "US", "addr:full": "165 HIGHWAY 14", "addr:postcode": "72644", "addr:state": "AR", "brand": "USPS", "brand:wikidata": "Q668687", "collection_times": "Mo-Fr 16:00; Sa 10:00", "name": "USPS COLLECTION BOX - PO LOBBY", "note": "ON 12/24 AND 12/31, THIS BOX MAY BE COLLECTED AS EARLY AS 12 NOON.", "ref": "7264400002"}, "type": "Feature"}
{"geometry": {"coordinates": [-92.9164745, 36.465232], "type": "Point"}, "id": "B9g7xgOy7yA0ML9pJGzVmVyJGBQ=", "properties": {"@spider": "usps_collection_boxes", "addr:city": "LEAD HILL", "addr:country": "US", "addr:full": "230 GRAND AVE", "addr:postcode": "72644", "addr:state": "AR", "brand": "USPS", "brand:wikidata": "Q668687", "collection_times": "Mo-Fr 10:00; Sa 09:30", "name": "USPS COLLECTION BOX - BLUE BOX", "ref": "7264400005"}, "type": "Feature"}
{"geometry": {"coordinates": [-92.916503026, 36.419974536], "type": "Point"}, "id": "_YWeblzZ3gf7hnzxhItB-3NX_P8=", "properties": {"@spider": "usps_collection_boxes", "addr:city": "LEAD HILL", "addr:country": "US", "addr:full": "165 HIGHWAY 14", "addr:postcode": "72644", "addr:state": "AR", "brand": "USPS", "brand:wikidata": "Q668687", "collection_times": "Mo-Fr 16:00; Sa 10:00", "name": "USPS COLLECTION BOX - PO LOBBY", "note": "ON 12/24 AND 12/31, THIS BOX MAY BE COLLECTED AS EARLY AS 12 NOON.", "ref": "7264400006"}, "type": "Feature"}
{"geometry": {"coordinates": [-92.5606588, 35.829932], "type": "Point"}, "id": "CFMrPw4s39pfrgvYpnyDWZNWFT4=", "properties": {"@spider": "usps_collection_boxes", "addr:city": "LESLIE", "addr:country": "US", "addr:full": "311 MAIN ST", "addr:postcode": "72645", "addr:state": "AR", "brand": "USPS", "brand:wikidata": "Q668687", "collection_times": "Mo-Fr 14:00; Sa 10:45", "name": "USPS COLLECTION BOX - BLUE BOX", "note": "ON 12/24 AND 12/31, THIS BOX MAY BE COLLECTED AS EARLY AS 12 NOON.", "ref": "7264500000"}, "type": "Feature"}
{"geometry": {"coordinates": [-92.560632, 35.829813], "type": "Point"}, "id": "aD6-Yr5ON8eZ0iuCK6nyfJx4svk=", "properties": {"@spider": "usps_collection_boxes", "addr:city": "LESLIE", "addr:country": "US", "addr:full": "311 MAIN ST", "addr:postcode": "72645", "addr:state": "AR", "brand": "USPS", "brand:wikidata": "Q668687", "collection_times": "Mo-Fr 14:00; Sa 10:45", "name": "USPS COLLECTION BOX - PO LOBBY", "note": "ON 12/24 AND 12/31, THIS BOX MAY BE COLLECTED AS EARLY AS 12 NOON.", "ref": "7264500001"}, "type": "Feature"}
{"geometry": {"coordinates": [-92.560633104, 35.829834894], "type": "Point"}, "id": "LCoFlAy2XaRRq_l9NvcSuk63eo4=", "properties": {"@spider": "usps_collection_boxes", "addr:city": "LESLIE", "addr:country": "US", "addr:full": "311 MAIN ST", "addr:postcode": "72645", "addr:state": "AR", "brand": "USPS", "brand:wikidata": "Q668687", "collection_times": "Mo-Fr 14:15; Sa 10:00", "name": "USPS COLLECTION BOX - PO LOBBY", "note": "ON 12/24 AND 12/31, THIS BOX MAY BE COLLECTED AS EARLY AS 12 NOON.", "ref": "7264500003"}, "type": "Feature"}
{"geometry": {"coordinates": [-93.1241082, 36.110597], "type": "Point"}, "id": "Zj2C-OwMI7asoiv9xYtaIIqqytM=", "properties": {"@spider": "usps_collection_boxes", "addr:city": "MARBLE FALLS", "addr:country": "US", "addr:full": "5 DOGPATCH BLVD", "addr:postcode": "72648", "addr:state": "AR", "brand": "USPS", "brand:wikidata": "Q668687", "collection_times": "Mo-Fr 11:00; Sa 09:30", "name": "USPS COLLECTION BOX - BLUE BOX", "ref": "7264800000"}, "type": "Feature"}
{"geometry": {"coordinates": [-93.1510676901, 36.083841021], "type": "Point"}, "id": "FipQx_W9ih6bqM4g9-jW7YxTJe4=", "properties": {"@spider": "usps_collection_boxes", "addr:city": "MARBLE FALLS", "addr:country": "US", "addr:full": "5 DOGPATCH BLVD", "addr:postcode": "72648", "addr:state": "AR", "brand": "USPS", "brand:wikidata": "Q668687", "collection_times": "Mo-Fr 10:30; Sa 09:30", "name": "USPS COLLECTION BOX - PO LOBBY", "ref": "7264800001"}, "type": "Feature"}
{"geometry": {"coordinates": [-93.1510676901, 36.083841021], "type": "Point"}, "id": "K_9PwwB38PeEZhOZGKGlKq8kMrE=", "properties": {"@spider": "usps_collection_boxes", "addr:city": "MARBLE FALLS", "addr:country": "US", "addr:full": "5 DOGPATCH BLVD", "addr:postcode": "72648", "addr:state": "AR", "brand": "USPS", "brand:wikidata": "Q668687", "collection_times": "Mo-Fr 10:30; Sa 09:30", "name": "USPS COLLECTION BOX - PO LOBBY", "ref": "7264800002"}, "type": "Feature"}
{"geometry": {"coordinates": [-93.12308, 36.11325], "type": "Point"}, "id": "mn1Imv1TaT2rqXZAXY1N5XyBRJE=", "properties": {"@spider": "usps_collection_boxes", "addr:city": "MARBLE FALLS", "addr:country": "US", "addr:full": "5 DOGPATCH BLVD", "addr:postcode": "72648", "addr:state": "AR", "brand": "USPS", "brand:wikidata": "Q668687", "collection_times": "Mo-Fr 11:00; Sa 09:30", "name": "USPS COLLECTION BOX - PO LOBBY", "ref": "7264800003"}, "type": "Feature"}
{"geometry": {"coordinates": [-92.632316, 35.90966], "type": "Point"}, "id": "3A8OmKrlZg0xmysNwHglXLtNalI=", "properties": {"@spider": "usps_collection_boxes", "addr:city": "MARSHALL", "addr:country": "US", "addr:full": "200 S GLADE ST", "addr:postcode": "72650", "addr:state": "AR", "brand": "USPS", "brand:wikidata": "Q668687", "collection_times": "Mo-Fr 16:30; Sa 11:15", "name": "USPS COLLECTION BOX - BLUE BOX", "note": "ON 12/24 AND 12/31, THIS BOX MAY BE COLLECTED AS EARLY AS 12 NOON.", "ref": "7265000000"}, "type": "Feature"}
{"geometry": {"coordinates": [-92.632316, 35.90966], "type": "Point"}, "id": "qVeZHbN3iaqhqD4dJVRS73pU9Ks=", "properties": {"@spider": "usps_collection_boxes", "addr:city": "MARSHALL", "addr:country": "US", "addr:full": "200 S GLADE ST", "addr:postcode": "72650", "addr:state": "AR", "brand": "USPS", "brand:wikidata": "Q668687", "collection_times": "Mo-Fr 16:30; Sa 11:15", "name": "USPS COLLECTION BOX - PO LOBBY", "note": "ON 12/24 AND 12/31, THIS BOX MAY BE COLLECTED AS EARLY AS 12 NOON.", "ref": "7265000001"}, "type": "Feature"}
{"geometry": {"coordinates": [-92.632316, 35.90966], "type": "Point"}, "id": "lK6M4Ud9iMnT1RCFajMvLGPg7AU=", "properties": {"@spider": "usps_collection_boxes", "addr:city": "MARSHALL", "addr:country": "US", "addr:full": "200 S GLADE ST", "addr:postcode": "72650", "addr:state": "AR", "brand": "USPS", "brand:wikidata": "Q668687", "collection_times": "Mo-Fr 16:30; Sa 11:15", "name": "USPS COLLECTION BOX - PO LOBBY", "note": "ON 12/24 AND 12/31, THIS BOX MAY BE COLLECTED AS EARLY AS 12 NOON.", "ref": "7265000002"}, "type": "Feature"}
{"geometry": {"coordinates": [-92.632296462, 35.909648696], "type": "Point"}, "id": "f6rXwE9C21XA2uem6OhpIpSp-eY=", "properties": {"@spider": "usps_collection_boxes", "addr:city": "MARSHALL", "addr:country": "US", "addr:full": "200 S GLADE ST", "addr:postcode": "72650", "addr:state": "AR", "brand": "USPS", "brand:wikidata": "Q668687", "collection_times": "Mo-Fr 16:30; Sa 10:30", "name": "USPS COLLECTION BOX - PO LOBBY", "note": "ON 12/24 AND 12/31, THIS BOX MAY BE COLLECTED AS EARLY AS 12 NOON.", "ref": "7265000005"}, "type": "Feature"}
{"geometry": {"coordinates": [-92.4671920354, 36.3859389985], "type": "Point"}, "id": "znrV8o9bjEziFN-aDxIRVWxKDGQ=", "properties": {"@spider": "usps_collection_boxes", "addr:city": "MIDWAY", "addr:country": "US", "addr:full": "323 HIGHWAY 178 W", "addr:postcode": "72651", "addr:state": "AR", "brand": "USPS", "brand:wikidata": "Q668687", "collection_times": "Mo-Fr 14:30; Sa 10:15", "name": "USPS COLLECTION BOX - BLUE BOX", "note": "ON 12/24 AND 12/31, THIS BOX MAY BE COLLECTED AS EARLY AS 12 NOON.", "ref": "7265100001"}, "type": "Feature"}
{"geometry": {"coordinates": [-92.4672618862, 36.3859174827], "type": "Point"}, "id": "ES-vk_IgY8BWkENCOwLjsURKJzk=", "properties": {"@spider": "usps_collection_boxes", "addr:city": "MIDWAY", "addr:country": "US", "addr:full": "323 HIGHWAY 178 W", "addr:postcode": "72651", "addr:state": "AR", "brand": "USPS", "brand:wikidata": "Q668687", "collection_times": "Mo-Fr 14:30; Sa 10:15", "name": "USPS COLLECTION BOX - PO LOBBY", "note": "ON 12/24 AND 12/31, THIS BOX MAY BE COLLECTED AS EARLY AS 12 NOON.", "ref": "7265100002"}, "type": "Feature"}
{"geometry": {"coordinates": [-92.4604190385, 36.3818790141], "type": "Point"}, "id": "zxK_PmkKb8IxRAQ9ZTsqFzLv3wE=", "properties": {"@spider": "usps_collection_boxes", "addr:city": "MIDWAY", "addr:country": "US", "addr:full": "6132 HIGHWAY 5 N", "addr:postcode": "72651", "addr:state": "AR", "brand": "USPS", "brand:wikidata": "Q668687", "collection_times": "Mo-Sa 14:15", "name": "USPS COLLECTION BOX - BLUE BOX", "note": "ON 12/24 AND 12/31, THIS BOX MAY BE COLLECTED AS EARLY AS 12 NOON.", "ref": "7265100006"}, "type": "Feature"}
{"geometry": {"coordinates": [-92.4672618862, 36.3859174827], "type": "Point"}, "id": "n9QV-y_QxZ9TQLi6m_PVajOKtvc=", "properties": {"@spider": "usps_collection_boxes", "addr:city": "MIDWAY", "addr:country": "US", "addr:full": "323 HIGHWAY 178 W", "addr:postcode": "72651", "addr:state": "AR", "brand": "USPS", "brand:wikidata": "Q668687", "collection_times": "Mo-Fr 14:30; Sa 10:00", "name": "USPS COLLECTION BOX - PO LOBBY", "note": "ON 12/24 AND 12/31, THIS BOX MAY BE COLLECTED AS EARLY AS 12 NOON.", "ref": "7265100008"}, "type": "Feature"}
{"geometry": {"coordinates": [-92.3737007515, 36.3507924965], "type": "Point"}, "id": "7ldhlg7HkAIQcgeWITsoa13MMU8=", "properties": {"@spider": "usps_collection_boxes", "addr:city": "MOUNTAIN HOME", "addr:country": "US", "addr:full": "975 COLEY DR", "addr:postcode": "72653", "addr:state": "AR", "brand": "USPS", "brand:wikidata": "Q668687", "collection_times": "Mo-Fr 16:15; Sa 15:15", "name": "USPS COLLECTION BOX - PO LOBBY", "note": "ON 12/24 AND 12/31, THIS BOX MAY BE COLLECTED AS EARLY AS 12 NOON.", "ref": "7265300001"}, "type": "Feature"}
{"geometry": {"coordinates": [-92.3969719, 36.341574], "type": "Point"}, "id": "kiIcCajYCwYWoppTjh3prkvMHoI=", "properties": {"@spider": "usps_collection_boxes", "addr:city": "MOUNTAIN HOME", "addr:country": "US", "addr:full": "624 HOSPITAL DR", "addr:postcode": "72653", "addr:state": "AR", "brand": "USPS", "brand:wikidata": "Q668687", "collection_times": "Mo-Fr 10:30; Sa 09:30", "name": "USPS COLLECTION BOX - BLUE BOX", "ref": "7265300004"}, "type": "Feature"}
{"geometry": {"coordinates": [-92.395685, 36.343012], "type": "Point"}, "id": "DSxNf1etDXmhvQUQe4r3JBMwdEQ=", "properties": {"@spider": "usps_collection_boxes", "addr:city": "MOUNTAIN HOME", "addr:country": "US", "addr:full": "628 HOSPITAL DR", "addr:postcode": "72653", "addr:state": "AR", "brand": "USPS", "brand:wikidata": "Q668687", "collection_times": "Mo-Fr 10:30; Sa 09:30", "name": "USPS COLLECTION BOX - BLUE BOX", "ref": "7265300010"}, "type": "Feature"}
{"geometry": {"coordinates": [-92.3848193, 36.337178], "type": "Point"}, "id": "LMmrSPi8vGobROmocv_OrcscG9E=", "properties": {"@spider": "usps_collection_boxes", "addr:city": "MOUNTAIN HOME", "addr:country": "US", "addr:full": "307 S MAIN ST", "addr:postcode": "72653", "addr:state": "AR", "brand": "USPS", "brand:wikidata": "Q668687", "collection_times": "Mo-Fr 14:30; Sa 14:00", "name": "USPS COLLECTION BOX - BLUE BOX", "note": "ON 12/24 AND 12/31, THIS BOX MAY BE COLLECTED AS EARLY AS 12 NOON.", "ref": "7265300018"}, "type": "Feature"}
{"geometry": {"coordinates": [-92.3737007515, 36.3507924965], "type": "Point"}, "id": "ZOyjTZNu7fRuiZePENX1PWoXLsU=", "properties": {"@spider": "usps_collection_boxes", "addr:city": "MOUNTAIN HOME", "addr:country": "US", "addr:full": "975 COLEY DR", "addr:postcode": "72653", "addr:state": "AR", "brand": "USPS", "brand:wikidata": "Q668687", "collection_times": "Mo-Fr 16:15; Sa 15:15", "name": "USPS COLLECTION BOX - BLUE BOX", "note": "ON 12/24 AND 12/31, THIS BOX MAY BE COLLECTED AS EARLY AS 12 NOON.", "ref": "7265300022"}, "type": "Feature"}
{"geometry": {"coordinates": [-92.3737007515, 36.3507924965], "type": "Point"}, "id": "TiIWj4-kv75Oon0FxKKFrYVTi8g=", "properties": {"@spider": "usps_collection_boxes", "addr:city": "MOUNTAIN HOME", "addr:country": "US", "addr:full": "975 COLEY DR", "addr:postcode": "72653", "addr:state": "AR", "brand": "USPS", "brand:wikidata": "Q668687", "collection_times": "Mo-Fr 16:15; Sa 15:15", "name": "USPS COLLECTION BOX - BLUE BOX", "note": "ON 12/24 AND 12/31, THIS BOX MAY BE COLLECTED AS EARLY AS 12 NOON.", "ref": "7265300030"}, "type": "Feature"}
{"geometry": {"coordinates": [-92.3843108608, 36.3347204996], "type": "Point"}, "id": "bpyNzVu_tmcm8-1rei7ANFlIFKY=", "properties": {"@spider": "usps_collection_boxes", "addr:city": "MOUNTAIN HOME", "addr:country": "US", "addr:full": "100 E 7TH ST", "addr:postcode": "72653", "addr:state": "AR", "brand": "USPS", "brand:wikidata": "Q668687", "collection_times": "Mo-Fr 14:30; Sa 14:00", "name": "USPS COLLECTION BOX - BLUE BOX", "note": "ON 12/24 AND 12/31, THIS BOX MAY BE COLLECTED AS EARLY AS 12 NOON.", "ref": "7265300036"}, "type": "Feature"}
{"geometry": {"coordinates": [-92.3419809, 36.355597], "type": "Point"}, "id": "GetvFmKHwJ6gNGBr0AFtGZKUoHU=", "properties": {"@spider": "usps_collection_boxes", "addr:city": "MOUNTAIN HOME", "addr:country": "US", "addr:full": "65 WAL MART DR", "addr:postcode": "72653", "addr:state": "AR", "brand": "USPS", "brand:wikidata": "Q668687", "collection_times": "Mo-Sa 12:00", "name": "USPS COLLECTION BOX - BLUE BOX", "ref": "7265300037"}, "type": "Feature"}
{"geometry": {"coordinates": [-92.3885539, 36.320226], "type": "Point"}, "id": "ZaTfmALugKzJaI3Oqf8Owoil5Ko=", "properties": {"@spider": "usps_collection_boxes", "addr:city": "MOUNTAIN HOME", "addr:country": "US", "addr:full": "1600 S COLLEGE ST", "addr:postcode": "72653", "addr:state": "AR", "brand": "USPS", "brand:wikidata": "Q668687", "collection_times": "Mo-Fr 09:00", "name": "USPS COLLECTION BOX - BLUE BOX", "ref": "7265300038"}, "type": "Feature"}
{"geometry": {"coordinates": [-92.3737007515, 36.3507924965], "type": "Point"}, "id": "5b_vMGzX4P1eL9AW2EGyZ_2xb-I=", "properties": {"@spider": "usps_collection_boxes", "addr:city": "MOUNTAIN HOME", "addr:country": "US", "addr:full": "975 COLEY DR", "addr:postcode": "72653", "addr:state": "AR", "brand": "USPS", "brand:wikidata": "Q668687", "collection_times": "Mo-Fr 16:15; Sa 15:15", "name": "USPS COLLECTION BOX - APC", "note": "ON 12/24 AND 12/31, THIS BOX MAY BE COLLECTED AS EARLY AS 12 NOON.", "ref": "7265300039"}, "type": "Feature"}
{"geometry": {"coordinates": [-92.3737007515, 36.3507924965], "type": "Point"}, "id": "2w_CQMATS14FgPwt-PXmjwmTWgU=", "properties": {"@spider": "usps_collection_boxes", "addr:city": "MOUNTAIN HOME", "addr:country": "US", "addr:full": "975 COLEY DR", "addr:postcode": "72653", "addr:state": "AR", "brand": "USPS", "brand:wikidata": "Q668687", "collection_times": "Mo-Fr 16:15; Sa 15:15", "name": "USPS COLLECTION BOX - PO LOBBY", "note": "ON 12/24 AND 12/31, THIS BOX MAY BE COLLECTED AS EARLY AS 12 NOON.", "ref": "7265300040"}, "type": "Feature"}
{"geometry": {"coordinates": [-92.3737007515, 36.3507924965], "type": "Point"}, "id": "2LG1i0SCi2bH-gLgLjrGfLZbpcc=", "properties": {"@spider": "usps_collection_boxes", "addr:city": "MOUNTAIN HOME", "addr:country": "US", "addr:full": "975 COLEY DR", "addr:postcode": "72653", "addr:state": "AR", "brand": "USPS", "brand:wikidata": "Q668687", "collection_times": "Mo-Fr 16:30; Sa 12:00", "name": "USPS COLLECTION BOX - PO LOBBY", "note": "ON 12/24 AND 12/31, THIS BOX MAY BE COLLECTED AS EARLY AS 12 NOON.", "ref": "7265300046"}, "type": "Feature"}
{"geometry": {"coordinates": [-93.046235068, 35.8315294938], "type": "Point"}, "id": "cF5PMU7aC03uEBP8u1JsMXvp3Mo=", "properties": {"@spider": "usps_collection_boxes", "addr:city": "MOUNT JUDEA", "addr:country": "US", "addr:full": "1 S MAIN ST", "addr:postcode": "72655", "addr:state": "AR", "brand": "USPS", "brand:wikidata": "Q668687", "collection_times": "Mo-Fr 12:00; Sa 10:00", "name": "USPS COLLECTION BOX - PO LOBBY", "ref": "7265500001"}, "type": "Feature"}
{"geometry": {"coordinates": [-93.045370543, 35.86687], "type": "Point"}, "id": "KGoqExh_Qb2eTA0zWhyUgLahIBE=", "properties": {"@spider": "usps_collection_boxes", "addr:city": "MOUNT JUDEA", "addr:country": "US", "addr:full": "1 S MAIN ST", "addr:postcode": "72655", "addr:state": "AR", "brand": "USPS", "brand:wikidata": "Q668687", "collection_times": "Mo-Fr 12:00; Sa 10:30", "name": "USPS COLLECTION BOX - PO LOBBY", "ref": "7265500003"}, "type": "Feature"}
{"geometry": {"coordinates": [-92.28642, 36.21153], "type": "Point"}, "id": "y_eBaCBZWo3YpL24Q_wsD-mm61A=", "properties": {"@spider": "usps_collection_boxes", "addr:city": "NORFORK", "addr:country": "US", "addr:full": "13862 HIGHWAY 5 S", "addr:postcode": "72658", "addr:state": "AR", "brand": "USPS", "brand:wikidata": "Q668687", "collection_times": "Mo-Fr 15:30; Sa 11:30", "name": "USPS COLLECTION BOX - BLUE BOX", "note": "ON 12/24 AND 12/31, THIS BOX MAY BE COLLECTED AS EARLY AS 12 NOON.", "ref": "7265800001"}, "type": "Feature"}
{"geometry": {"coordinates": [-92.28642, 36.21153], "type": "Point"}, "id": "eqCrNtso6cSaKteDbhWnvnCxNmM=", "properties": {"@spider": "usps_collection_boxes", "addr:city": "NORFORK", "addr:country": "US", "addr:full": "13862 HIGHWAY 5 S", "addr:postcode": "72658", "addr:state": "AR", "brand": "USPS", "brand:wikidata": "Q668687", "collection_times": "Mo-Fr 15:30; Sa 11:30", "name": "USPS COLLECTION BOX - PO LOBBY", "note": "ON 12/24 AND 12/31, THIS BOX MAY BE COLLECTED AS EARLY AS 12 NOON.", "ref": "7265800002"}, "type": "Feature"}
{"geometry": {"coordinates": [-92.28642, 36.21153], "type": "Point"}, "id": "IZRWeRm12qmCUztR_LAR4iRwCKc=", "properties": {"@spider": "usps_collection_boxes", "addr:city": "NORFORK", "addr:country": "US", "addr:full": "13862 HIGHWAY 5 S", "addr:postcode": "72658", "addr:state": "AR", "brand": "USPS", "brand:wikidata": "Q668687", "collection_times": "Mo-Fr 15:30; Sa 11:30", "name": "USPS COLLECTION BOX - PO LOBBY", "note": "ON 12/24 AND 12/31, THIS BOX MAY BE COLLECTED AS EARLY AS 12 NOON.", "ref": "7265800003"}, "type": "Feature"}
{"geometry": {"coordinates": [-92.286563146, 36.208944043], "type": "Point"}, "id": "yuDDbqO5Ep0zZeY8fptKwOUnXhM=", "properties": {"@spider": "usps_collection_boxes", "addr:city": "NORFORK", "addr:country": "US", "addr:full": "13862 HIGHWAY 5 S", "addr:postcode": "72658", "addr:state": "AR", "brand": "USPS", "brand:wikidata": "Q668687", "collection_times": "Mo-Fr 15:30; Sa 11:00", "name": "USPS COLLECTION BOX - PO LOBBY", "note": "ON 12/24 AND 12/31, THIS BOX MAY BE COLLECTED AS EARLY AS 12 NOON.", "ref": "7265800004"}, "type": "Feature"}
{"geometry": {"coordinates": [-93.436957, 36.456251], "type": "Point"}, "id": "UXwMFa8iJ21svI2P8xlWJF-pnWg=", "properties": {"@spider": "usps_collection_boxes", "addr:city": "OAKGROVE", "addr:country": "US", "addr:full": "10516 HIGHWAY 21 N", "addr:postcode": "72660", "addr:state": "AR", "brand": "USPS", "brand:wikidata": "Q668687", "collection_times": "Mo-Fr 12:00; Sa 11:45", "name": "USPS COLLECTION BOX - BLUE BOX", "ref": "7266000001"}, "type": "Feature"}
{"geometry": {"coordinates": [-93.436957, 36.456251], "type": "Point"}, "id": "rpwuhIVb-ACrpB7XP_6UCpMhfTI=", "properties": {"@spider": "usps_collection_boxes", "addr:city": "OAKGROVE", "addr:country": "US", "addr:full": "10516 HIGHWAY 21 N", "addr:postcode": "72660", "addr:state": "AR", "brand": "USPS", "brand:wikidata": "Q668687", "collection_times": "Mo-Fr 12:00; Sa 11:45", "name": "USPS COLLECTION BOX - PO LOBBY", "ref": "7266000002"}, "type": "Feature"}
{"geometry": {"coordinates": [-93.4361494132, 36.4564059836], "type": "Point"}, "id": "IHiEaUnzATmdTUi1MuQWIShfCY4=", "properties": {"@spider": "usps_collection_boxes", "addr:city": "OAKGROVE", "addr:country": "US", "addr:full": "10516 HIGHWAY 21 N", "addr:postcode": "72660", "addr:state": "AR", "brand": "USPS", "brand:wikidata": "Q668687", "collection_times": "Mo-Fr 12:30; Sa 12:00", "name": "USPS COLLECTION BOX - PO LOBBY", "note": "ON 12/24 AND 12/31, THIS BOX MAY BE COLLECTED AS EARLY AS 12 NOON.", "ref": "7266000003"}, "type": "Feature"}
{"geometry": {"coordinates": [-92.575980002, 36.458450005], "type": "Point"}, "id": "AWMOjrE_mRE9fn_XRGqOL4W59OQ=", "properties": {"@spider": "usps_collection_boxes", "addr:city": "OAKLAND", "addr:country": "US", "addr:full": "6093 OAKLAND RD", "addr:postcode": "72661", "addr:state": "AR", "brand": "USPS", "brand:wikidata": "Q668687", "collection_times": "Mo-Fr 12:00; Sa 10:30", "name": "USPS COLLECTION BOX - BLUE BOX", "ref": "7266100000"}, "type": "Feature"}
{"geometry": {"coordinates": [-92.575980002, 36.458450005], "type": "Point"}, "id": "_fG2JFoJmzlBQ6rFQBs8YE7t6UI=", "properties": {"@spider": "usps_collection_boxes", "addr:city": "OAKLAND", "addr:country": "US", "addr:full": "6093 OAKLAND RD", "addr:postcode": "72661", "addr:state": "AR", "brand": "USPS", "brand:wikidata": "Q668687", "collection_times": "Mo-Fr 12:00; Sa 10:30", "name": "USPS COLLECTION BOX - PO LOBBY", "ref": "7266100001"}, "type": "Feature"}
{"geometry": {"coordinates": [-92.575980002, 36.458450005], "type": "Point"}, "id": "gAVFdHsqOn6B2NRU0eDfKT9f3EU=", "properties": {"@spider": "usps_collection_boxes", "addr:city": "OAKLAND", "addr:country": "US", "addr:full": "6093 OAKLAND RD", "addr:postcode": "72661", "addr:state": "AR", "brand": "USPS", "brand:wikidata": "Q668687", "collection_times": "Mo-Fr 12:00; Sa 10:30", "name": "USPS COLLECTION BOX - PO LOBBY", "ref": "7266100002"}, "type": "Feature"}
{"geometry": {"coordinates": [-92.576019984, 36.458519994], "type": "Point"}, "id": "PndhCTpEnUo0vC7xgcKNaiWiwF4=", "properties": {"@spider": "usps_collection_boxes", "addr:city": "OAKLAND", "addr:country": "US", "addr:full": "6093 OAKLAND RD STE 1", "addr:postcode": "72661", "addr:state": "AR", "brand": "USPS", "brand:wikidata": "Q668687", "collection_times": "Mo-Fr 12:30; Sa 11:00", "name": "USPS COLLECTION BOX - PO LOBBY", "note": "ON 12/24 AND 12/31, THIS BOX MAY BE COLLECTED AS EARLY AS 12 NOON.", "ref": "7266100003"}, "type": "Feature"}
{"geometry": {"coordinates": [-93.189837, 36.450516], "type": "Point"}, "id": "YFnvG8ngrg-6aEAH9WmRmCF8fJM=", "properties": {"@spider": "usps_collection_boxes", "addr:city": "OMAHA", "addr:country": "US", "addr:full": "23620 OLD HIGHWAY 65", "addr:postcode": "72662", "addr:state": "AR", "brand": "USPS", "brand:wikidata": "Q668687", "collection_times": "Mo-Fr 16:00; Sa 12:00", "name": "USPS COLLECTION BOX - BLUE BOX", "note": "ON 12/24 AND 12/31, THIS BOX MAY BE COLLECTED AS EARLY AS 12 NOON.", "ref": "7266200000"}, "type": "Feature"}
{"geometry": {"coordinates": [-93.189837, 36.450516], "type": "Point"}, "id": "2bY6QU15SGxkfC3uBSJcvglG18U=", "properties": {"@spider": "usps_collection_boxes", "addr:city": "OMAHA", "addr:country": "US", "addr:full": "23620 OLD HIGHWAY 65", "addr:postcode": "72662", "addr:state": "AR", "brand": "USPS", "brand:wikidata": "Q668687", "collection_times": "Mo-Fr 16:00; Sa 12:00", "name": "USPS COLLECTION BOX - PO LOBBY", "note": "ON 12/24 AND 12/31, THIS BOX MAY BE COLLECTED AS EARLY AS 12 NOON.", "ref": "7266200001"}, "type": "Feature"}
{"geometry": {"coordinates": [-93.222276076, 36.495496099], "type": "Point"}, "id": "dEW3mysq6pVj1hcvLWYaIquLaS0=", "properties": {"@spider": "usps_collection_boxes", "addr:city": "OMAHA", "addr:country": "US", "addr:full": "23620 HIGHWAY 65", "addr:postcode": "72662", "addr:state": "AR", "brand": "USPS", "brand:wikidata": "Q668687", "collection_times": "Mo-Fr 16:15; Sa 12:00", "name": "USPS COLLECTION BOX - PO LOBBY", "note": "ON 12/24 AND 12/31, THIS BOX MAY BE COLLECTED AS EARLY AS 12 NOON.", "ref": "7266200003"}, "type": "Feature"}
{"geometry": {"coordinates": [-92.32848, 35.919088], "type": "Point"}, "id": "af_JHtGl7CcKVIq9fq5gaHzus6k=", "properties": {"@spider": "usps_collection_boxes", "addr:city": "ONIA", "addr:country": "US", "addr:full": "27284 HIGHWAY 263", "addr:postcode": "72663", "addr:state": "AR", "brand": "USPS", "brand:wikidata": "Q668687", "collection_times": "Mo-Fr 14:15; Sa 13:15", "name": "USPS COLLECTION BOX - BLUE BOX", "note": "ON 12/24 AND 12/31, THIS BOX MAY BE COLLECTED AS EARLY AS 12 NOON.", "ref": "7266300000"}, "type": "Feature"}
{"geometry": {"coordinates": [-92.32848, 35.919088], "type": "Point"}, "id": "JWbWVU4NjWufskmSFO5aK34ZkO8=", "properties": {"@spider": "usps_collection_boxes", "addr:city": "ONIA", "addr:country": "US", "addr:full": "27284 HIGHWAY 263", "addr:postcode": "72663", "addr:state": "AR", "brand": "USPS", "brand:wikidata": "Q668687", "collection_times": "Mo-Fr 14:15; Sa 13:15", "name": "USPS COLLECTION BOX - PO LOBBY", "note": "ON 12/24 AND 12/31, THIS BOX MAY BE COLLECTED AS EARLY AS 12 NOON.", "ref": "7266300001"}, "type": "Feature"}
{"geometry": {"coordinates": [-92.328385814, 35.919081449], "type": "Point"}, "id": "swsDUxbiKuzlzuf5-2Vb6SDHbuA=", "properties": {"@spider": "usps_collection_boxes", "addr:city": "ONIA", "addr:country": "US", "addr:full": "27284 HIGHWAY 263", "addr:postcode": "72663", "addr:state": "AR", "brand": "USPS", "brand:wikidata": "Q668687", "collection_times": "Mo-Fr 14:15; Sa 13:15", "name": "USPS COLLECTION BOX - PO LOBBY", "note": "ON 12/24 AND 12/31, THIS BOX MAY BE COLLECTED AS EARLY AS 12 NOON.", "ref": "7266300002"}, "type": "Feature"}
{"geometry": {"coordinates": [-92.7690742411, 36.4325668972], "type": "Point"}, "id": "8wcOfeB1EUN1kIX2duCzVEgowRo=", "properties": {"@spider": "usps_collection_boxes", "addr:city": "PEEL", "addr:country": "US", "addr:full": "7576 HIGHWAY 125 NW", "addr:postcode": "72668", "addr:state": "AR", "brand": "USPS", "brand:wikidata": "Q668687", "collection_times": "Mo-Sa 11:45", "name": "USPS COLLECTION BOX - BLUE BOX", "ref": "7266800000"}, "type": "Feature"}
{"geometry": {"coordinates": [-92.7690742411, 36.4325668972], "type": "Point"}, "id": "K6BP3_sH3eT_3nLKooSm1jHqRmU=", "properties": {"@spider": "usps_collection_boxes", "addr:city": "PEEL", "addr:country": "US", "addr:full": "7576 HIGHWAY 125 NW", "addr:postcode": "72668", "addr:state": "AR", "brand": "USPS", "brand:wikidata": "Q668687", "collection_times": "Mo-Sa 11:45", "name": "USPS COLLECTION BOX - PO LOBBY", "ref": "7266800001"}, "type": "Feature"}
{"geometry": {"coordinates": [-92.7690742411, 36.4325668972], "type": "Point"}, "id": "meUi16wwcKj0lQB7ynRGmZdHDR0=", "properties": {"@spider": "usps_collection_boxes", "addr:city": "PEEL", "addr:country": "US", "addr:full": "7576 HIGHWAY 125 NW", "addr:postcode": "72668", "addr:state": "AR", "brand": "USPS", "brand:wikidata": "Q668687", "collection_times": "Mo-Sa 12:00", "name": "USPS COLLECTION BOX - PO LOBBY", "ref": "7266800002"}, "type": "Feature"}
{"geometry": {"coordinates": [-92.882795, 36.067064], "type": "Point"}, "id": "JseKeeFi92oStXWTRrw8jqHv0dM=", "properties": {"@spider": "usps_collection_boxes", "addr:city": "PINDALL", "addr:country": "US", "addr:full": "21838 N HIGHWAY 65", "addr:postcode": "72669", "addr:state": "AR", "brand": "USPS", "brand:wikidata": "Q668687", "collection_times": "Mo-Fr 16:30; Sa 10:45", "name": "USPS COLLECTION BOX - BLUE BOX", "note": "ON 12/24 AND 12/31, THIS BOX MAY BE COLLECTED AS EARLY AS 12 NOON.", "ref": "7266900000"}, "type": "Feature"}
{"geometry": {"coordinates": [-92.882867, 36.067122], "type": "Point"}, "id": "JwssKyjNpx2KMPRLGvTS40fK-ug=", "properties": {"@spider": "usps_collection_boxes", "addr:city": "PINDALL", "addr:country": "US", "addr:full": "21838 N HIGHWAY 65", "addr:postcode": "72669", "addr:state": "AR", "brand": "USPS", "brand:wikidata": "Q668687", "collection_times": "Mo-Fr 16:30; Sa 10:45", "name": "USPS COLLECTION BOX - PO LOBBY", "note": "ON 12/24 AND 12/31, THIS BOX MAY BE COLLECTED AS EARLY AS 12 NOON.", "ref": "7266900001"}, "type": "Feature"}
{"geometry": {"coordinates": [-92.882920668, 36.067098772], "type": "Point"}, "id": "DQp6LlhI_zvJFfT9pIr63udbvuo=", "properties": {"@spider": "usps_collection_boxes", "addr:city": "PINDALL", "addr:country": "US", "addr:full": "21838 N HIGHWAY 65", "addr:postcode": "72669", "addr:state": "AR", "brand": "USPS", "brand:wikidata": "Q668687", "collection_times": "Mo-Fr 17:00; Sa 11:00", "name": "USPS COLLECTION BOX - PO LOBBY", "note": "ON 12/24 AND 12/31, THIS BOX MAY BE COLLECTED AS EARLY AS 12 NOON.", "ref": "7266900002"}, "type": "Feature"}
{"geometry": {"coordinates": [-93.3968421855, 36.0485259888], "type": "Point"}, "id": "iP6Zm_8fIDfsRQMr6zPO2bw6z18=", "properties": {"@spider": "usps_collection_boxes", "addr:city": "PONCA", "addr:country": "US", "addr:full": "1 MAIN ST", "addr:postcode": "72670", "addr:state": "AR", "brand": "USPS", "brand:wikidata": "Q668687", "collection_times": "Mo-Sa 11:45", "name": "USPS COLLECTION BOX - BLUE BOX", "ref": "7267000000"}, "type": "Feature"}
{"geometry": {"coordinates": [-93.3968421855, 36.0485259888], "type": "Point"}, "id": "StA3bR1bD42AnXDZ1y-z3GedD10=", "properties": {"@spider": "usps_collection_boxes", "addr:city": "PONCA", "addr:country": "US", "addr:full": "1 MAIN ST", "addr:postcode": "72670", "addr:state": "AR", "brand": "USPS", "brand:wikidata": "Q668687", "collection_times": "Mo-Sa 11:45", "name": "USPS COLLECTION BOX - PO LOBBY", "ref": "7267000001"}, "type": "Feature"}
{"geometry": {"coordinates": [-93.3624992817, 36.0225093153], "type": "Point"}, "id": "ryhTVrViK9xJAgGwoDaS7tcrwQA=", "properties": {"@spider": "usps_collection_boxes", "addr:city": "PONCA", "addr:country": "US", "addr:full": "4651 AR 43 HWY", "addr:postcode": "72670", "addr:state": "AR", "brand": "USPS", "brand:wikidata": "Q668687", "collection_times": "Mo-Fr 13:00; Sa 12:00", "name": "USPS COLLECTION BOX - PO LOBBY", "note": "ON 12/24 AND 12/31, THIS BOX MAY BE COLLECTED AS EARLY AS 12 NOON.", "ref": "7267000003"}, "type": "Feature"}
{"geometry": {"coordinates": [-92.8444052, 36.252386], "type": "Point"}, "id": "ylrLu1nM9jFrGxGryhU1NX54lEk=", "properties": {"@spider": "usps_collection_boxes", "addr:city": "PYATT", "addr:country": "US", "addr:full": "676 FOSTER ST", "addr:postcode": "72672", "addr:state": "AR", "brand": "USPS", "brand:wikidata": "Q668687", "collection_times": "Mo-Fr 12:00; Sa 10:00", "name": "USPS COLLECTION BOX - BLUE BOX", "ref": "7267200001"}, "type": "Feature"}
{"geometry": {"coordinates": [-92.844156, 36.252391], "type": "Point"}, "id": "9WKdDat4xfmpNkiJjCNXWwR2Rvg=", "properties": {"@spider": "usps_collection_boxes", "addr:city": "PYATT", "addr:country": "US", "addr:full": "676 FOSTER ST", "addr:postcode": "72672", "addr:state": "AR", "brand": "USPS", "brand:wikidata": "Q668687", "collection_times": "Mo-Fr 12:00; Sa 10:00", "name": "USPS COLLECTION BOX - PO LOBBY", "ref": "7267200002"}, "type": "Feature"}
{"geometry": {"coordinates": [-92.844198104, 36.25237778], "type": "Point"}, "id": "CXgldtovqyLtoCKFnimJWsjQVdE=", "properties": {"@spider": "usps_collection_boxes", "addr:city": "PYATT", "addr:country": "US", "addr:full": "676 FOSTER ST", "addr:postcode": "72672", "addr:state": "AR", "brand": "USPS", "brand:wikidata": "Q668687", "collection_times": "Mo-Fr 12:00; Sa 10:00", "name": "USPS COLLECTION BOX - PO LOBBY", "ref": "7267200003"}, "type": "Feature"}
{"geometry": {"coordinates": [-92.7988559, 36.02762], "type": "Point"}, "id": "s6xRSgC7enNsFPLSs4xaz326VG8=", "properties": {"@spider": "usps_collection_boxes", "addr:city": "SAINT JOE", "addr:country": "US", "addr:full": "1 HIGHWAY 65 S", "addr:postcode": "72675", "addr:state": "AR", "brand": "USPS", "brand:wikidata": "Q668687", "collection_times": "Mo-Fr 10:30; Sa 10:45", "name": "USPS COLLECTION BOX - BLUE BOX", "ref": "7267500000"}, "type": "Feature"}
{"geometry": {"coordinates": [-92.770439, 36.003104], "type": "Point"}, "id": "kf58YmKRND4W60EqcvSikdR_-fg=", "properties": {"@spider": "usps_collection_boxes", "addr:city": "SAINT JOE", "addr:country": "US", "addr:full": "1 HIGHWAY 65 S", "addr:postcode": "72675", "addr:state": "AR", "brand": "USPS", "brand:wikidata": "Q668687", "collection_times": "Mo-Fr 10:30; Sa 10:45", "name": "USPS COLLECTION BOX - PO LOBBY", "ref": "7267500001"}, "type": "Feature"}
{"geometry": {"coordinates": [-92.802826676, 36.030150302], "type": "Point"}, "id": "3fQLtx_Whiv-vYrCI6V8mOY1jzc=", "properties": {"@spider": "usps_collection_boxes", "addr:city": "SAINT JOE", "addr:country": "US", "addr:full": "1 HIGHWAY 65 S", "addr:postcode": "72675", "addr:state": "AR", "brand": "USPS", "brand:wikidata": "Q668687", "collection_times": "Mo-Fr 11:00; Sa 10:45", "name": "USPS COLLECTION BOX - PO LOBBY", "ref": "7267500002"}, "type": "Feature"}
{"geometry": {"coordinates": [-92.690857, 36.249276], "type": "Point"}, "id": "DqoJZ8U-KkiBOSu7ZI02jjCir0o=", "properties": {"@spider": "usps_collection_boxes", "addr:city": "SUMMIT", "addr:country": "US", "addr:full": "112 S MAIN ST", "addr:postcode": "72677", "addr:state": "AR", "brand": "USPS", "brand:wikidata": "Q668687", "collection_times": "Mo-Fr 14:00; Sa 10:30", "name": "USPS COLLECTION BOX - PO LOBBY", "note": "ON 12/24 AND 12/31, THIS BOX MAY BE COLLECTED AS EARLY AS 12 NOON.", "ref": "7267700000"}, "type": "Feature"}
{"geometry": {"coordinates": [-92.690857513, 36.249210199], "type": "Point"}, "id": "8CUL2l_wZ6utpGIS9_REX3vbS-M=", "properties": {"@spider": "usps_collection_boxes", "addr:city": "SUMMIT", "addr:country": "US", "addr:full": "112 S MAIN ST", "addr:postcode": "72677", "addr:state": "AR", "brand": "USPS", "brand:wikidata": "Q668687", "collection_times": "Mo-Fr 14:00; Sa 10:30", "name": "USPS COLLECTION BOX - PO LOBBY", "note": "ON 12/24 AND 12/31, THIS BOX MAY BE COLLECTED AS EARLY AS 12 NOON.", "ref": "7267700002"}, "type": "Feature"}
{"geometry": {"coordinates": [-92.823873, 35.720298], "type": "Point"}, "id": "g_duUlt2xXniCbVGfiyoHSsCyb4=", "properties": {"@spider": "usps_collection_boxes", "addr:city": "TILLY", "addr:country": "US", "addr:full": "36386 HIGHWAY 27", "addr:postcode": "72679", "addr:state": "AR", "brand": "USPS", "brand:wikidata": "Q668687", "collection_times": "Mo-Fr 12:30; Sa 12:15", "name": "USPS COLLECTION BOX - BLUE BOX", "note": "ON 12/24 AND 12/31, THIS BOX MAY BE COLLECTED AS EARLY AS 12 NOON.", "ref": "7267900001"}, "type": "Feature"}
{"geometry": {"coordinates": [-92.823873, 35.720298], "type": "Point"}, "id": "brR3oVfqffGvzNQKJMJiuoGTRgQ=", "properties": {"@spider": "usps_collection_boxes", "addr:city": "TILLY", "addr:country": "US", "addr:full": "36386 HIGHWAY 27", "addr:postcode": "72679", "addr:state": "AR", "brand": "USPS", "brand:wikidata": "Q668687", "collection_times": "Mo-Fr 12:30; Sa 12:15", "name": "USPS COLLECTION BOX - PO LOBBY", "note": "ON 12/24 AND 12/31, THIS BOX MAY BE COLLECTED AS EARLY AS 12 NOON.", "ref": "7267900002"}, "type": "Feature"}
{"geometry": {"coordinates": [-92.823874424, 35.720291681], "type": "Point"}, "id": "XfAylIZdG8XHH1PCXfnuXYZwstU=", "properties": {"@spider": "usps_collection_boxes", "addr:city": "TILLY", "addr:country": "US", "addr:full": "36386 HIGHWAY 27", "addr:postcode": "72679", "addr:state": "AR", "brand": "USPS", "brand:wikidata": "Q668687", "collection_times": "Mo-Fr 12:45; Sa 12:15", "name": "USPS COLLECTION BOX - PO LOBBY", "note": "ON 12/24 AND 12/31, THIS BOX MAY BE COLLECTED AS EARLY AS 12 NOON.", "ref": "7267900003"}, "type": "Feature"}
{"geometry": {"coordinates": [-92.313074, 35.86972], "type": "Point"}, "id": "UizGVtscQo8d6gpjtXFKIqC_cCk=", "properties": {"@spider": "usps_collection_boxes", "addr:city": "TIMBO", "addr:country": "US", "addr:full": "7127 HIGHWAY 66", "addr:postcode": "72680", "addr:state": "AR", "brand": "USPS", "brand:wikidata": "Q668687", "collection_times": "Mo-Sa 11:15", "name": "USPS COLLECTION BOX - BLUE BOX", "ref": "7268000000"}, "type": "Feature"}
{"geometry": {"coordinates": [-92.313074, 35.86972], "type": "Point"}, "id": "uL7KkomTqW968ApWTNs6oVfsH7Q=", "properties": {"@spider": "usps_collection_boxes", "addr:city": "TIMBO", "addr:country": "US", "addr:full": "7127 HIGHWAY 66", "addr:postcode": "72680", "addr:state": "AR", "brand": "USPS", "brand:wikidata": "Q668687", "collection_times": "Mo-Sa 11:15", "name": "USPS COLLECTION BOX - PO LOBBY", "ref": "7268000001"}, "type": "Feature"}
{"geometry": {"coordinates": [-92.313537733, 35.869891555], "type": "Point"}, "id": "zhxo77mUzdhezcE80q7i0KdZZRM=", "properties": {"@spider": "usps_collection_boxes", "addr:city": "TIMBO", "addr:country": "US", "addr:full": "7127 HIGHWAY 66", "addr:postcode": "72680", "addr:state": "AR", "brand": "USPS", "brand:wikidata": "Q668687", "collection_times": "Mo-Sa 11:15", "name": "USPS COLLECTION BOX - PO LOBBY", "ref": "7268000006"}, "type": "Feature"}
{"geometry": {"coordinates": [-92.9896986, 36.153415], "type": "Point"}, "id": "deXGYU__WmDSWsxuI9XQPOb8iNk=", "properties": {"@spider": "usps_collection_boxes", "addr:city": "VALLEY SPRINGS", "addr:country": "US", "addr:full": "7729 HIGHWAY 65 S", "addr:postcode": "72682", "addr:state": "AR", "brand": "USPS", "brand:wikidata": "Q668687", "collection_times": "Mo-Fr 13:30; Sa 11:00", "name": "USPS COLLECTION BOX - BLUE BOX", "note": "ON 12/24 AND 12/31, THIS BOX MAY BE COLLECTED AS EARLY AS 12 NOON.", "ref": "7268200001"}, "type": "Feature"}
{"geometry": {"coordinates": [-92.990312, 36.153725], "type": "Point"}, "id": "-wPTY24n2mXQDNXcDaFBLyJ_jTU=", "properties": {"@spider": "usps_collection_boxes", "addr:city": "VALLEY SPRINGS", "addr:country": "US", "addr:full": "7729 HIGHWAY 65 S", "addr:postcode": "72682", "addr:state": "AR", "brand": "USPS", "brand:wikidata": "Q668687", "collection_times": "Mo-Fr 13:30; Sa 11:00", "name": "USPS COLLECTION BOX - PO LOBBY", "note": "ON 12/24 AND 12/31, THIS BOX MAY BE COLLECTED AS EARLY AS 12 NOON.", "ref": "7268200002"}, "type": "Feature"}
{"geometry": {"coordinates": [-92.990312, 36.153725], "type": "Point"}, "id": "ujNwJR93d-HJfMfs6sPBo-oxJik=", "properties": {"@spider": "usps_collection_boxes", "addr:city": "VALLEY SPRINGS", "addr:country": "US", "addr:full": "7729 HIGHWAY 65 S", "addr:postcode": "72682", "addr:state": "AR", "brand": "USPS", "brand:wikidata": "Q668687", "collection_times": "Mo-Fr 13:30; Sa 11:00", "name": "USPS COLLECTION BOX - PO LOBBY", "note": "ON 12/24 AND 12/31, THIS BOX MAY BE COLLECTED AS EARLY AS 12 NOON.", "ref": "7268200005"}, "type": "Feature"}
{"geometry": {"coordinates": [-92.990267796, 36.153705283], "type": "Point"}, "id": "QBaGa--6T3xvgd5-jYca0B_LQtc=", "properties": {"@spider": "usps_collection_boxes", "addr:city": "VALLEY SPRINGS", "addr:country": "US", "addr:full": "7729 HIGHWAY 65 S", "addr:postcode": "72682", "addr:state": "AR", "brand": "USPS", "brand:wikidata": "Q668687", "collection_times": "Mo-Fr 13:30; Sa 11:00", "name": "USPS COLLECTION BOX - PO LOBBY", "note": "ON 12/24 AND 12/31, THIS BOX MAY BE COLLECTED AS EARLY AS 12 NOON.", "ref": "7268200007"}, "type": "Feature"}
{"geometry": {"coordinates": [-93.1174178179, 35.9316124317], "type": "Point"}, "id": "XQL-BJ4fmQYOfe4glCoeu4a5Rmk=", "properties": {"@spider": "usps_collection_boxes", "addr:city": "VENDOR", "addr:country": "US", "addr:full": "1 MAIN ST", "addr:postcode": "72683", "addr:state": "AR", "brand": "USPS", "brand:wikidata": "Q668687", "collection_times": "Mo-Fr 12:00; Sa 10:30", "name": "USPS COLLECTION BOX - PO LOBBY", "ref": "7268300002"}, "type": "Feature"}
{"geometry": {"coordinates": [-93.0780214, 35.947638], "type": "Point"}, "id": "WP-n8MCRL3a1JUMSnuN4WKNQfbc=", "properties": {"@spider": "usps_collection_boxes", "addr:city": "VENDOR", "addr:country": "US", "addr:full": "1 MAIN ST", "addr:postcode": "72683", "addr:state": "AR", "brand": "USPS", "brand:wikidata": "Q668687", "collection_times": "Mo-Fr 12:00; Sa 10:30", "name": "USPS COLLECTION BOX - BLUE BOX", "ref": "7268300003"}, "type": "Feature"}
{"geometry": {"coordinates": [-93.152142097, 35.929349753], "type": "Point"}, "id": "rlwRJYdLQu4rvwlOcPkHvLRSZvk=", "properties": {"@spider": "usps_collection_boxes", "addr:city": "VENDOR", "addr:country": "US", "addr:full": "1 MAIN ST", "addr:postcode": "72683", "addr:state": "AR", "brand": "USPS", "brand:wikidata": "Q668687", "collection_times": "Mo-Fr 12:30; Sa 10:45", "name": "USPS COLLECTION BOX - PO LOBBY", "note": "ON 12/24 AND 12/31, THIS BOX MAY BE COLLECTED AS EARLY AS 12 NOON.", "ref": "7268300004"}, "type": "Feature"}
{"geometry": {"coordinates": [-92.9551645, 36.094968], "type": "Point"}, "id": "r6QxA8x9fC2xy8pcmShcxd5KvpA=", "properties": {"@spider": "usps_collection_boxes", "addr:city": "WESTERN GROVE", "addr:country": "US", "addr:full": "101 HIGHWAY 65", "addr:postcode": "72685", "addr:state": "AR", "brand": "USPS", "brand:wikidata": "Q668687", "collection_times": "Mo-Fr 10:30; Sa 11:15", "name": "USPS COLLECTION BOX - BLUE BOX", "ref": "7268500001"}, "type": "Feature"}
{"geometry": {"coordinates": [-92.939656, 36.065792], "type": "Point"}, "id": "2H1itwA8sdXGOx_3184837hpNAw=", "properties": {"@spider": "usps_collection_boxes", "addr:city": "WESTERN GROVE", "addr:country": "US", "addr:full": "101 HIGHWAY 65", "addr:postcode": "72685", "addr:state": "AR", "brand": "USPS", "brand:wikidata": "Q668687", "collection_times": "Mo-Fr 10:30; Sa 11:15", "name": "USPS COLLECTION BOX - PO LOBBY", "ref": "7268500003"}, "type": "Feature"}
{"geometry": {"coordinates": [-92.939647302, 36.065718498], "type": "Point"}, "id": "t_AquYg4tlyA8aO_dyRcdwlyHqQ=", "properties": {"@spider": "usps_collection_boxes", "addr:city": "WESTERN GROVE", "addr:country": "US", "addr:full": "101 HIGHWAY 65", "addr:postcode": "72685", "addr:state": "AR", "brand": "USPS", "brand:wikidata": "Q668687", "collection_times": "Mo-Fr 11:00; Sa 11:15", "name": "USPS COLLECTION BOX - PO LOBBY", "ref": "7268500004"}, "type": "Feature"}
{"geometry": {"coordinates": [-92.868219, 35.768414], "type": "Point"}, "id": "LQ-dSs8pYZqSN_eIZAhSda_Dy0U=", "properties": {"@spider": "usps_collection_boxes", "addr:city": "WITTS SPRINGS", "addr:country": "US", "addr:full": "387 W HIGHWAY 16", "addr:postcode": "72686", "addr:state": "AR", "brand": "USPS", "brand:wikidata": "Q668687", "collection_times": "Mo-Fr 10:30; Sa 11:00", "name": "USPS COLLECTION BOX - BLUE BOX", "ref": "7268600001"}, "type": "Feature"}
{"geometry": {"coordinates": [-92.868219, 35.768414], "type": "Point"}, "id": "6DLalxM_su5GUSnxhja_N-J6w_Y=", "properties": {"@spider": "usps_collection_boxes", "addr:city": "WITTS SPRINGS", "addr:country": "US", "addr:full": "387 W HIGHWAY 16", "addr:postcode": "72686", "addr:state": "AR", "brand": "USPS", "brand:wikidata": "Q668687", "collection_times": "Mo-Fr 10:30; Sa 11:00", "name": "USPS COLLECTION BOX - PO LOBBY", "ref": "7268600002"}, "type": "Feature"}
{"geometry": {"coordinates": [-92.8684299685, 35.7684700078], "type": "Point"}, "id": "R1D_t0qR4WzczZbDkd1yAa-RZQg=", "properties": {"@spider": "usps_collection_boxes", "addr:city": "WITTS SPRINGS", "addr:country": "US", "addr:full": "387 W HIGHWAY 16", "addr:postcode": "72686", "addr:state": "AR", "brand": "USPS", "brand:wikidata": "Q668687", "collection_times": "Mo-Sa 11:45", "name": "USPS COLLECTION BOX - PO LOBBY", "ref": "7268600003"}, "type": "Feature"}
{"geometry": {"coordinates": [-92.688561, 36.228217], "type": "Point"}, "id": "CS5Ro0HxsgKNushcUZdLfc7K6fI=", "properties": {"@spider": "usps_collection_boxes", "addr:city": "YELLVILLE", "addr:country": "US", "addr:full": "408 W 4TH ST", "addr:postcode": "72687", "addr:state": "AR", "brand": "USPS", "brand:wikidata": "Q668687", "collection_times": "Mo-Fr 16:30; Sa 11:30", "name": "USPS COLLECTION BOX - BLUE BOX", "note": "ON 12/24 AND 12/31, THIS BOX MAY BE COLLECTED AS EARLY AS 12 NOON.", "ref": "7268700001"}, "type": "Feature"}
{"geometry": {"coordinates": [-92.688561, 36.228217], "type": "Point"}, "id": "-PhwtkyThvrqOkHh_WKKl2ibwUA=", "properties": {"@spider": "usps_collection_boxes", "addr:city": "YELLVILLE", "addr:country": "US", "addr:full": "408 W 4TH ST", "addr:postcode": "72687", "addr:state": "AR", "brand": "USPS", "brand:wikidata": "Q668687", "collection_times": "Mo-Fr 16:30; Sa 11:30", "name": "USPS COLLECTION BOX - PO LOBBY", "note": "ON 12/24 AND 12/31, THIS BOX MAY BE COLLECTED AS EARLY AS 12 NOON.", "ref": "7268700004"}, "type": "Feature"}
{"geometry": {"coordinates": [-92.688561, 36.228217], "type": "Point"}, "id": "3fQyrf4SAGtd0ZlOOTwgrXIOcr8=", "properties": {"@spider": "usps_collection_boxes", "addr:city": "YELLVILLE", "addr:country": "US", "addr:full": "408 W 4TH ST", "addr:postcode": "72687", "addr:state": "AR", "brand": "USPS", "brand:wikidata": "Q668687", "collection_times": "Mo-Fr 16:30; Sa 11:30", "name": "USPS COLLECTION BOX - PO LOBBY", "note": "ON 12/24 AND 12/31, THIS BOX MAY BE COLLECTED AS EARLY AS 12 NOON.", "ref": "7268700005"}, "type": "Feature"}
{"geometry": {"coordinates": [-92.688192, 36.228229522], "type": "Point"}, "id": "Ads6TA_ZehVXOhmn0wLdxFDIAnM=", "properties": {"@spider": "usps_collection_boxes", "addr:city": "YELLVILLE", "addr:country": "US", "addr:full": "408 W 4TH ST", "addr:postcode": "72687", "addr:state": "AR", "brand": "USPS", "brand:wikidata": "Q668687", "collection_times": "Mo-Fr 16:30; Sa 11:30", "name": "USPS COLLECTION BOX - PO LOBBY", "note": "ON 12/24 AND 12/31, THIS BOX MAY BE COLLECTED AS EARLY AS 12 NOON.", "ref": "7268700008"}, "type": "Feature"}
