{"geometry": {"coordinates": [-94.1596985, 36.063868], "type": "Point"}, "id": "H0dZOEyBEovzTuFKiLcJqio7X2Q=", "properties": {"@spider": "usps_collection_boxes", "addr:city": "FAYETTEVILLE", "addr:country": "US", "addr:full": "101 N EAST AVE", "addr:postcode": "72701", "addr:state": "AR", "brand": "USPS", "brand:wikidata": "Q668687", "collection_times": "Mo-Fr 16:15; Sa 13:30", "name": "USPS COLLECTION BOX - BLUE BOX", "note": "ON 12/24 AND 12/31, THIS BOX MAY BE COLLECTED AS EARLY AS 12 NOON.", "ref": "7270100108"}, "type": "Feature"}
{"geometry": {"coordinates": [-94.1607116, 36.067379], "type": "Point"}, "id": "lsKviih5IHJkGf8cg77XuPQX_yI=", "properties": {"@spider": "usps_collection_boxes", "addr:city": "FAYETTEVILLE", "addr:country": "US", "addr:full": "310 N SAINT CHARLES AVE", "addr:postcode": "72701", "addr:state": "AR", "brand": "USPS", "brand:wikidata": "Q668687", "collection_times": "Mo-Fr 17:00; Sa 13:30", "name": "USPS COLLECTION BOX - BLUE BOX", "note": "ON 12/24 AND 12/31, THIS BOX MAY BE COLLECTED AS EARLY AS 12 NOON.", "ref": "7270100109"}, "type": "Feature"}
{"geometry": {"coordinates": [-94.160746, 36.06678], "type": "Point"}, "id": "1i8AATWedDYFz8JJQoBnvhLKKUQ=", "properties": {"@spider": "usps_collection_boxes", "addr:city": "FAYETTEVILLE", "addr:country": "US", "addr:full": "310 N SAINT CHARLES AVE", "addr:postcode": "72701", "addr:state": "AR", "brand": "USPS", "brand:wikidata": "Q668687", "collection_times": "Mo-Fr 17:00; Sa 13:30", "name": "USPS COLLECTION BOX - BLUE BOX", "note": "ON 12/24 AND 12/31, THIS BOX MAY BE COLLECTED AS EARLY AS 12 NOON.", "ref": "7270100110"}, "type": "Feature"}
{"geometry": {"coordinates": [-94.1275721, 36.065298], "type": "Point"}, "id": "5i5T6ZNxE6M-eBd6nRekEmpS8kE=", "properties": {"@spider": "usps_collection_boxes", "addr:city": "FAYETTEVILLE", "addr:country": "US", "addr:full": "2400 E CLIFFS BLVD", "addr:postcode": "72701", "addr:state": "AR", "brand": "USPS", "brand:wikidata": "Q668687", "collection_times": "Mo-Fr 11:00; Sa 11:15", "name": "USPS COLLECTION BOX - BLUE BOX", "ref": "7270100112"}, "type": "Feature"}
{"geometry": {"coordinates": [-94.160391, 36.066389], "type": "Point"}, "id": "ot_X6IKpfhNcfG2bqPKac9cEPT0=", "properties": {"@spider": "usps_collection_boxes", "addr:city": "FAYETTEVILLE", "addr:country": "US", "addr:full": "12 W DICKSON ST", "addr:postcode": "72701", "addr:state": "AR", "brand": "USPS", "brand:wikidata": "Q668687", "collection_times": "Mo-Fr 17:00; Sa 13:30", "name": "USPS COLLECTION BOX - PO LOBBY", "note": "ON 12/24 AND 12/31, THIS BOX MAY BE COLLECTED AS EARLY AS 12 NOON.", "ref": "7270100113"}, "type": "Feature"}
{"geometry": {"coordinates": [-94.160391, 36.066389], "type": "Point"}, "id": "YNQyHLBGradmK52NXkDAZ-s430g=", "properties": {"@spider": "usps_collection_boxes", "addr:city": "FAYETTEVILLE", "addr:country": "US", "addr:full": "12 W DICKSON ST", "addr:postcode": "72701", "addr:state": "AR", "brand": "USPS", "brand:wikidata": "Q668687", "collection_times": "Mo-Fr 17:00; Sa 13:30", "name": "USPS COLLECTION BOX - APC", "note": "ON 12/24 AND 12/31, THIS BOX MAY BE COLLECTED AS EARLY AS 12 NOON.", "ref": "7270100117"}, "type": "Feature"}
{"geometry": {"coordinates": [-94.148402994, 36.038465987], "type": "Point"}, "id": "VwzS0TR7qBMI28kqUkPR5kLETHE=", "properties": {"@spider": "usps_collection_boxes", "addr:city": "FAYETTEVILLE", "addr:country": "US", "addr:full": "2300 S CITY LAKE RD", "addr:postcode": "72701", "addr:state": "AR", "brand": "USPS", "brand:wikidata": "Q668687", "collection_times": "Mo-Fr 19:00; Sa 17:45", "name": "USPS COLLECTION BOX - BLUE BOX", "note": "ON 12/24 AND 12/31, THIS BOX MAY BE COLLECTED AS EARLY AS 12 NOON.", "ref": "7270100119"}, "type": "Feature"}
{"geometry": {"coordinates": [-94.160399778, 36.06637945], "type": "Point"}, "id": "iw9qbwTJD-mpgYvFMiGTnNd-Cps=", "properties": {"@spider": "usps_collection_boxes", "addr:city": "FAYETTEVILLE", "addr:country": "US", "addr:full": "12 W DICKSON ST", "addr:postcode": "72701", "addr:state": "AR", "brand": "USPS", "brand:wikidata": "Q668687", "collection_times": "Mo-Fr 17:00; Sa 12:30", "name": "USPS COLLECTION BOX - PO LOBBY", "note": "ON 12/24 AND 12/31, THIS BOX MAY BE COLLECTED AS EARLY AS 12 NOON.", "ref": "7270100125"}, "type": "Feature"}
{"geometry": {"coordinates": [-94.156785905, 36.079880043], "type": "Point"}, "id": "XwOay3oGXgjnhwkk1gRsouxL5bU=", "properties": {"@spider": "usps_collection_boxes", "addr:city": "FAYETTEVILLE", "addr:country": "US", "addr:full": "1300 N COLLEGE AVE", "addr:postcode": "72703", "addr:state": "AR", "brand": "USPS", "brand:wikidata": "Q668687", "collection_times": "Mo-Sa 11:30", "name": "USPS COLLECTION BOX - BLUE BOX", "ref": "7270300062"}, "type": "Feature"}
{"geometry": {"coordinates": [-94.1487149, 36.106664], "type": "Point"}, "id": "wIffogO3M8IVsGiZ4JWbxZnF7IY=", "properties": {"@spider": "usps_collection_boxes", "addr:city": "FAYETTEVILLE", "addr:country": "US", "addr:full": "3181 N COLLEGE AVE", "addr:postcode": "72703", "addr:state": "AR", "brand": "USPS", "brand:wikidata": "Q668687", "collection_times": "Mo-Fr 15:15; Sa 13:00", "name": "USPS COLLECTION BOX - BLUE BOX", "note": "ON 12/24 AND 12/31, THIS BOX MAY BE COLLECTED AS EARLY AS 12 NOON.", "ref": "7270300063"}, "type": "Feature"}
{"geometry": {"coordinates": [-94.1557168, 36.112883], "type": "Point"}, "id": "bvpNpHb0Llyp0oWw4m3Ngcsx-2U=", "properties": {"@spider": "usps_collection_boxes", "addr:city": "FAYETTEVILLE", "addr:country": "US", "addr:full": "3390 N FUTRALL DR", "addr:postcode": "72703", "addr:state": "AR", "brand": "USPS", "brand:wikidata": "Q668687", "collection_times": "Mo-Fr 14:15; Sa 13:00", "name": "USPS COLLECTION BOX - BLUE BOX", "note": "ON 12/24 AND 12/31, THIS BOX MAY BE COLLECTED AS EARLY AS 12 NOON.", "ref": "7270300064"}, "type": "Feature"}
{"geometry": {"coordinates": [-94.1572594, 36.094654], "type": "Point"}, "id": "C48q_qhNUvf765LxM39C82tCO2c=", "properties": {"@spider": "usps_collection_boxes", "addr:city": "FAYETTEVILLE", "addr:country": "US", "addr:full": "2386 N GREEN ACRES RD", "addr:postcode": "72703", "addr:state": "AR", "brand": "USPS", "brand:wikidata": "Q668687", "collection_times": "Mo-Sa 12:00", "name": "USPS COLLECTION BOX - BLUE BOX", "ref": "7270300065"}, "type": "Feature"}
{"geometry": {"coordinates": [-94.1440962, 36.106121], "type": "Point"}, "id": "_VP9QyjXrMpPzVmQgYoAbUt14dI=", "properties": {"@spider": "usps_collection_boxes", "addr:city": "FAYETTEVILLE", "addr:country": "US", "addr:full": "3009 N MARKET AVE", "addr:postcode": "72703", "addr:state": "AR", "brand": "USPS", "brand:wikidata": "Q668687", "collection_times": "Mo-Fr 15:10; Sa 13:00", "name": "USPS COLLECTION BOX - BLUE BOX", "note": "ON 12/24 AND 12/31, THIS BOX MAY BE COLLECTED AS EARLY AS 12 NOON.", "ref": "7270300066"}, "type": "Feature"}
{"geometry": {"coordinates": [-94.152124, 36.122013], "type": "Point"}, "id": "Y87BsyfuwX55Re-0_RxzweNfAAU=", "properties": {"@spider": "usps_collection_boxes", "addr:city": "FAYETTEVILLE", "addr:country": "US", "addr:full": "3919 N MALL AVE", "addr:postcode": "72703", "addr:state": "AR", "brand": "USPS", "brand:wikidata": "Q668687", "collection_times": "Mo-Sa 11:00", "name": "USPS COLLECTION BOX - BLUE BOX", "ref": "7270300067"}, "type": "Feature"}
{"geometry": {"coordinates": [-94.137121, 36.120162], "type": "Point"}, "id": "5NjDPNEIb6fFqnhoqaeYh2tIx3M=", "properties": {"@spider": "usps_collection_boxes", "addr:city": "FAYETTEVILLE", "addr:country": "US", "addr:full": "1590 E JOYCE BLVD", "addr:postcode": "72703", "addr:state": "AR", "brand": "USPS", "brand:wikidata": "Q668687", "collection_times": "Mo-Fr 17:00; Sa 15:00", "name": "USPS COLLECTION BOX - BLUE BOX", "note": "ON 12/24 AND 12/31, THIS BOX MAY BE COLLECTED AS EARLY AS 12 NOON.", "ref": "7270300068"}, "type": "Feature"}
{"geometry": {"coordinates": [-94.137176, 36.120136], "type": "Point"}, "id": "NhHnRZ9J8j4eVyvUrL9DNuqaoWs=", "properties": {"@spider": "usps_collection_boxes", "addr:city": "FAYETTEVILLE", "addr:country": "US", "addr:full": "1590 E JOYCE BLVD", "addr:postcode": "72703", "addr:state": "AR", "brand": "USPS", "brand:wikidata": "Q668687", "collection_times": "Mo-Fr 17:00; Sa 15:00", "name": "USPS COLLECTION BOX - PO LOBBY", "note": "ON 12/24 AND 12/31, THIS BOX MAY BE COLLECTED AS EARLY AS 12 NOON.", "ref": "7270300069"}, "type": "Feature"}
{"geometry": {"coordinates": [-94.137176, 36.120136], "type": "Point"}, "id": "_K1m8SkYiqWlo6KJUyumoIrFG90=", "properties": {"@spider": "usps_collection_boxes", "addr:city": "FAYETTEVILLE", "addr:country": "US", "addr:full": "1590 E JOYCE BLVD", "addr:postcode": "72703", "addr:state": "AR", "brand": "USPS", "brand:wikidata": "Q668687", "collection_times": "Mo-Fr 17:00; Sa 15:00", "name": "USPS COLLECTION BOX - PO LOBBY", "note": "ON 12/24 AND 12/31, THIS BOX MAY BE COLLECTED AS EARLY AS 12 NOON.", "ref": "7270300070"}, "type": "Feature"}
{"geometry": {"coordinates": [-94.137176, 36.120136], "type": "Point"}, "id": "egCplKuj014Qqve0qUKdKp4IqqE=", "properties": {"@spider": "usps_collection_boxes", "addr:city": "FAYETTEVILLE", "addr:country": "US", "addr:full": "1590 E JOYCE BLVD", "addr:postcode": "72703", "addr:state": "AR", "brand": "USPS", "brand:wikidata": "Q668687", "collection_times": "Mo-Fr 17:00; Sa 15:00", "name": "USPS COLLECTION BOX - APC", "note": "ON 12/24 AND 12/31, THIS BOX MAY BE COLLECTED AS EARLY AS 12 NOON.", "ref": "7270300072"}, "type": "Feature"}
{"geometry": {"coordinates": [-94.137040111, 36.120160483], "type": "Point"}, "id": "yqc7TESNJVJUwcp-ITLh8eBdDKc=", "properties": {"@spider": "usps_collection_boxes", "addr:city": "FAYETTEVILLE", "addr:country": "US", "addr:full": "1590 E JOYCE BLVD", "addr:postcode": "72703", "addr:state": "AR", "brand": "USPS", "brand:wikidata": "Q668687", "collection_times": "Mo-Fr 18:00; Sa 14:00", "name": "USPS COLLECTION BOX - PO LOBBY", "note": "ON 12/24 AND 12/31, THIS BOX MAY BE COLLECTED AS EARLY AS 12 NOON.", "ref": "7270300080"}, "type": "Feature"}
{"geometry": {"coordinates": [-94.2011070597, 36.0499645332], "type": "Point"}, "id": "ofmZv1SDb-WId4Yis1KWELnvzzA=", "properties": {"@spider": "usps_collection_boxes", "addr:city": "FAYETTEVILLE", "addr:country": "US", "addr:full": "2875 W MARTIN LUTHER KING BLVD", "addr:postcode": "72704", "addr:state": "AR", "brand": "USPS", "brand:wikidata": "Q668687", "collection_times": "Mo-Fr 15:45; Sa 10:30", "name": "USPS COLLECTION BOX - BLUE BOX", "note": "ON 12/24 AND 12/31, THIS BOX MAY BE COLLECTED AS EARLY AS 12 NOON.", "ref": "7270400005"}, "type": "Feature"}
{"geometry": {"coordinates": [-94.2097876, 36.076588], "type": "Point"}, "id": "ynB7RoVABbSNX9jLjGZJm061oV0=", "properties": {"@spider": "usps_collection_boxes", "addr:city": "FAYETTEVILLE", "addr:country": "US", "addr:full": "3475 BLACK FOREST DR", "addr:postcode": "72704", "addr:state": "AR", "brand": "USPS", "brand:wikidata": "Q668687", "collection_times": "Mo-Fr 15:15", "name": "USPS COLLECTION BOX - BLUE BOX", "note": "ON 12/24 AND 12/31, THIS BOX MAY BE COLLECTED AS EARLY AS 12 NOON.", "ref": "7270400007"}, "type": "Feature"}
{"geometry": {"coordinates": [-94.0761920733, 36.3982458395], "type": "Point"}, "id": "8NoqEoInDCzNiADBNGwXCjCC4VU=", "properties": {"@spider": "usps_collection_boxes", "addr:city": "AVOCA", "addr:country": "US", "addr:full": "280 HIGHWAY 62 N", "addr:postcode": "72711", "addr:state": "AR", "brand": "USPS", "brand:wikidata": "Q668687", "collection_times": "Mo-Fr 11:30; Sa 11:00", "name": "USPS COLLECTION BOX - BLUE BOX", "ref": "7271100001"}, "type": "Feature"}
{"geometry": {"coordinates": [-94.0761920733, 36.3982458395], "type": "Point"}, "id": "n0MsVvdDpw9uYgqXOwulqE7yfzc=", "properties": {"@spider": "usps_collection_boxes", "addr:city": "AVOCA", "addr:country": "US", "addr:full": "280 HIGHWAY 62 N", "addr:postcode": "72711", "addr:state": "AR", "brand": "USPS", "brand:wikidata": "Q668687", "collection_times": "Mo-Fr 11:30; Sa 11:00", "name": "USPS COLLECTION BOX - PO LOBBY", "ref": "7271100002"}, "type": "Feature"}
{"geometry": {"coordinates": [-94.071857014, 36.404525871], "type": "Point"}, "id": "WXu8qCxi-nt3JoNUQqXVbxHgXxM=", "properties": {"@spider": "usps_collection_boxes", "addr:city": "AVOCA", "addr:country": "US", "addr:full": "280 HIGHWAY 62 N", "addr:postcode": "72711", "addr:state": "AR", "brand": "USPS", "brand:wikidata": "Q668687", "collection_times": "Mo-Fr 12:00; Sa 11:00", "name": "USPS COLLECTION BOX - PO LOBBY", "ref": "7271100003"}, "type": "Feature"}
{"geometry": {"coordinates": [-94.2087495, 36.37383], "type": "Point"}, "id": "nCprRnjNMyHvvDagFJrSbcddNqk=", "properties": {"@spider": "usps_collection_boxes", "addr:city": "BENTONVILLE", "addr:country": "US", "addr:full": "216 N MAIN ST", "addr:postcode": "72712", "addr:state": "AR", "brand": "USPS", "brand:wikidata": "Q668687", "collection_times": "Mo-Sa 10:00", "name": "USPS COLLECTION BOX - BLUE BOX", "ref": "7271200003"}, "type": "Feature"}
{"geometry": {"coordinates": [-94.2232819, 36.369499], "type": "Point"}, "id": "BclsDrI3lsOhYwk_Q8h3QYISLlc=", "properties": {"@spider": "usps_collection_boxes", "addr:city": "BENTONVILLE", "addr:country": "US", "addr:full": "406 S WALTON BLVD", "addr:postcode": "72712", "addr:state": "AR", "brand": "USPS", "brand:wikidata": "Q668687", "collection_times": "Mo-Sa 13:00", "name": "USPS COLLECTION BOX - BLUE BOX", "note": "ON 12/24 AND 12/31, THIS BOX MAY BE COLLECTED AS EARLY AS 12 NOON.", "ref": "7271200006"}, "type": "Feature"}
{"geometry": {"coordinates": [-94.2196739, 36.389274], "type": "Point"}, "id": "sLfHD2TI_uVrDF56TVra0jo4Y1o=", "properties": {"@spider": "usps_collection_boxes", "addr:city": "BENTONVILLE", "addr:country": "US", "addr:full": "1400 N WALTON BLVD", "addr:postcode": "72712", "addr:state": "AR", "brand": "USPS", "brand:wikidata": "Q668687", "collection_times": "Mo-Sa 10:00", "name": "USPS COLLECTION BOX - BLUE BOX", "ref": "7271200007"}, "type": "Feature"}
{"geometry": {"coordinates": [-94.1712599, 36.382751], "type": "Point"}, "id": "QCC51UVfnBkRUUZaTwmcYfuSurg=", "properties": {"@spider": "usps_collection_boxes", "addr:city": "BENTONVILLE", "addr:country": "US", "addr:full": "1005 BEAU TERRE DR", "addr:postcode": "72712", "addr:state": "AR", "brand": "USPS", "brand:wikidata": "Q668687", "collection_times": "Mo-Fr 10:00", "name": "USPS COLLECTION BOX - BLUE BOX", "ref": "7271200022"}, "type": "Feature"}
{"geometry": {"coordinates": [-94.210918, 36.353619], "type": "Point"}, "id": "Pu9f-3UNHtoJTPWNa_VG_Kh7Hyw=", "properties": {"@spider": "usps_collection_boxes", "addr:city": "BENTONVILLE", "addr:country": "US", "addr:full": "1706 S WALTON BLVD", "addr:postcode": "72712", "addr:state": "AR", "brand": "USPS", "brand:wikidata": "Q668687", "collection_times": "Mo-Fr 17:00; Sa 16:00", "name": "USPS COLLECTION BOX - BLUE BOX", "note": "ON 12/24 AND 12/31, THIS BOX MAY BE COLLECTED AS EARLY AS 12 NOON.", "ref": "7271200030"}, "type": "Feature"}
{"geometry": {"coordinates": [-94.210907, 36.353712], "type": "Point"}, "id": "B9t-1mK3iUG4168i27yOiV8cXV0=", "properties": {"@spider": "usps_collection_boxes", "addr:city": "BENTONVILLE", "addr:country": "US", "addr:full": "1706 S WALTON BLVD", "addr:postcode": "72712", "addr:state": "AR", "brand": "USPS", "brand:wikidata": "Q668687", "collection_times": "Mo-Fr 17:00; Sa 16:00", "name": "USPS COLLECTION BOX - PO LOBBY", "note": "ON 12/24 AND 12/31, THIS BOX MAY BE COLLECTED AS EARLY AS 12 NOON.", "ref": "7271200033"}, "type": "Feature"}
{"geometry": {"coordinates": [-94.210907, 36.353712], "type": "Point"}, "id": "UnhSQcGJg-gRkrMvPRNLwO6xD-s=", "properties": {"@spider": "usps_collection_boxes", "addr:city": "BENTONVILLE", "addr:country": "US", "addr:full": "1706 S WALTON BLVD", "addr:postcode": "72712", "addr:state": "AR", "brand": "USPS", "brand:wikidata": "Q668687", "collection_times": "Mo-Fr 17:00; Sa 16:00", "name": "USPS COLLECTION BOX - PO LOBBY", "note": "ON 12/24 AND 12/31, THIS BOX MAY BE COLLECTED AS EARLY AS 12 NOON.", "ref": "7271200034"}, "type": "Feature"}
{"geometry": {"coordinates": [-94.210907, 36.353712], "type": "Point"}, "id": "irp-LQxp9ZbPbAqf5fJJjM7Lmco=", "properties": {"@spider": "usps_collection_boxes", "addr:city": "BENTONVILLE", "addr:country": "US", "addr:full": "1706 S WALTON BLVD", "addr:postcode": "72712", "addr:state": "AR", "brand": "USPS", "brand:wikidata": "Q668687", "collection_times": "Mo-Fr 17:00; Sa 16:00", "name": "USPS COLLECTION BOX - PO LOBBY", "note": "ON 12/24 AND 12/31, THIS BOX MAY BE COLLECTED AS EARLY AS 12 NOON.", "ref": "7271200035"}, "type": "Feature"}
{"geometry": {"coordinates": [-94.210907, 36.353712], "type": "Point"}, "id": "HppwtG0jxW8zSmSPKfxh6d3jX18=", "properties": {"@spider": "usps_collection_boxes", "addr:city": "BENTONVILLE", "addr:country": "US", "addr:full": "1706 S WALTON BLVD", "addr:postcode": "72712", "addr:state": "AR", "brand": "USPS", "brand:wikidata": "Q668687", "collection_times": "Mo-Fr 17:00; Sa 16:00", "name": "USPS COLLECTION BOX - APC", "note": "ON 12/24 AND 12/31, THIS BOX MAY BE COLLECTED AS EARLY AS 12 NOON.", "ref": "7271200037"}, "type": "Feature"}
{"geometry": {"coordinates": [-94.1724960199, 36.3576119795], "type": "Point"}, "id": "emmwDoF4fDGqy6F0rftZB9gU4ws=", "properties": {"@spider": "usps_collection_boxes", "addr:city": "BENTONVILLE", "addr:country": "US", "addr:full": "1 COLLEGE DR", "addr:postcode": "72712", "addr:state": "AR", "brand": "USPS", "brand:wikidata": "Q668687", "collection_times": "Mo-Fr 10:00", "name": "USPS COLLECTION BOX - BLUE BOX", "ref": "7271200038"}, "type": "Feature"}
{"geometry": {"coordinates": [-94.2527726, 36.358618], "type": "Point"}, "id": "3tMs3QEdOSzVJVcRP9BVN6je0Ns=", "properties": {"@spider": "usps_collection_boxes", "addr:city": "BENTONVILLE", "addr:country": "US", "addr:full": "1800 E CENTERTON BLVD", "addr:postcode": "72712", "addr:state": "AR", "brand": "USPS", "brand:wikidata": "Q668687", "collection_times": "Mo-Sa 10:00", "name": "USPS COLLECTION BOX - BLUE BOX", "ref": "7271200039"}, "type": "Feature"}
{"geometry": {"coordinates": [-94.2119415, 36.353043], "type": "Point"}, "id": "w40S97jRQTL9t1puayK871p_Q5k=", "properties": {"@spider": "usps_collection_boxes", "addr:city": "BENTONVILLE", "addr:country": "US", "addr:full": "1706 S WALTON BLVD", "addr:postcode": "72712", "addr:state": "AR", "brand": "USPS", "brand:wikidata": "Q668687", "collection_times": "Mo-Fr 18:00; Sa 15:00", "name": "USPS COLLECTION BOX - PO LOBBY", "note": "ON 12/24 AND 12/31, THIS BOX MAY BE COLLECTED AS EARLY AS 12 NOON.", "ref": "7271200044"}, "type": "Feature"}
{"geometry": {"coordinates": [-94.2440783801, 36.4762886669], "type": "Point"}, "id": "UfOAvUxeOkAU9EEV-KXX8o5ddfg=", "properties": {"@spider": "usps_collection_boxes", "addr:city": "BELLA VISTA", "addr:country": "US", "addr:full": "555 MEMORIAL DR", "addr:postcode": "72714", "addr:state": "AR", "brand": "USPS", "brand:wikidata": "Q668687", "collection_times": "Mo-Fr 16:30; Sa 15:45", "name": "USPS COLLECTION BOX - BLUE BOX", "note": "ON 12/24 AND 12/31, THIS BOX MAY BE COLLECTED AS EARLY AS 12 NOON.", "ref": "7271400001"}, "type": "Feature"}
{"geometry": {"coordinates": [-94.244078, 36.476283], "type": "Point"}, "id": "TAX7xU8QKCqlcSoTxnq7G_bBVkA=", "properties": {"@spider": "usps_collection_boxes", "addr:city": "BELLA VISTA", "addr:country": "US", "addr:full": "555 MEMORIAL DR", "addr:postcode": "72714", "addr:state": "AR", "brand": "USPS", "brand:wikidata": "Q668687", "collection_times": "Mo-Fr 16:30; Sa 15:45", "name": "USPS COLLECTION BOX - BLUE BOX", "note": "ON 12/24 AND 12/31, THIS BOX MAY BE COLLECTED AS EARLY AS 12 NOON.", "ref": "7271400005"}, "type": "Feature"}
{"geometry": {"coordinates": [-94.244078, 36.476283], "type": "Point"}, "id": "3m03fPjsfmcU1p-sdgpEwmaYHy8=", "properties": {"@spider": "usps_collection_boxes", "addr:city": "BELLA VISTA", "addr:country": "US", "addr:full": "555 MEMORIAL DR", "addr:postcode": "72714", "addr:state": "AR", "brand": "USPS", "brand:wikidata": "Q668687", "collection_times": "Mo-Fr 16:30; Sa 15:45", "name": "USPS COLLECTION BOX - PO LOBBY", "note": "ON 12/24 AND 12/31, THIS BOX MAY BE COLLECTED AS EARLY AS 12 NOON.", "ref": "7271400006"}, "type": "Feature"}
{"geometry": {"coordinates": [-94.244078, 36.476283], "type": "Point"}, "id": "1UhwIFirPN6oUq3a1I5G9yMYKoQ=", "properties": {"@spider": "usps_collection_boxes", "addr:city": "BELLA VISTA", "addr:country": "US", "addr:full": "555 MEMORIAL DR", "addr:postcode": "72714", "addr:state": "AR", "brand": "USPS", "brand:wikidata": "Q668687", "collection_times": "Mo-Fr 16:30; Sa 15:45", "name": "USPS COLLECTION BOX - PO LOBBY", "note": "ON 12/24 AND 12/31, THIS BOX MAY BE COLLECTED AS EARLY AS 12 NOON.", "ref": "7271400008"}, "type": "Feature"}
{"geometry": {"coordinates": [-94.244080775, 36.476275904], "type": "Point"}, "id": "rgwz1c5xWZ9vGvSS61Nra56dip0=", "properties": {"@spider": "usps_collection_boxes", "addr:city": "BELLA VISTA", "addr:country": "US", "addr:full": "555 MEMORIAL DR", "addr:postcode": "72714", "addr:state": "AR", "brand": "USPS", "brand:wikidata": "Q668687", "collection_times": "Mo-Fr 16:00", "name": "USPS COLLECTION BOX - PO LOBBY", "note": "ON 12/24 AND 12/31, THIS BOX MAY BE COLLECTED AS EARLY AS 12 NOON.", "ref": "7271400010"}, "type": "Feature"}
{"geometry": {"coordinates": [-94.3014060013, 36.4648035534], "type": "Point"}, "id": "0JpajAu5ewSZdVOvp34SYDxDLeg=", "properties": {"@spider": "usps_collection_boxes", "addr:city": "BELLA VISTA", "addr:country": "US", "addr:full": "1750 FOREST HILLS BLVD", "addr:postcode": "72715", "addr:state": "AR", "brand": "USPS", "brand:wikidata": "Q668687", "collection_times": "Mo-Sa 16:00", "name": "USPS COLLECTION BOX - BLUE BOX", "note": "ON 12/24 AND 12/31, THIS BOX MAY BE COLLECTED AS EARLY AS 12 NOON.", "ref": "7271500000"}, "type": "Feature"}
{"geometry": {"coordinates": [-94.301394, 36.464858], "type": "Point"}, "id": "eoH4c2Jdo7mjYRohlcv4ncteomM=", "properties": {"@spider": "usps_collection_boxes", "addr:city": "BELLA VISTA", "addr:country": "US", "addr:full": "1750 FOREST HILLS BLVD", "addr:postcode": "72715", "addr:state": "AR", "brand": "USPS", "brand:wikidata": "Q668687", "collection_times": "Mo-Sa 16:00", "name": "USPS COLLECTION BOX - BLUE BOX", "note": "ON 12/24 AND 12/31, THIS BOX MAY BE COLLECTED AS EARLY AS 12 NOON.", "ref": "7271500002"}, "type": "Feature"}
{"geometry": {"coordinates": [-94.301394, 36.464858], "type": "Point"}, "id": "7qxIF0-MD3AuSlhgJa6O0JQ9bm8=", "properties": {"@spider": "usps_collection_boxes", "addr:city": "BELLA VISTA", "addr:country": "US", "addr:full": "1750 FOREST HILLS BLVD", "addr:postcode": "72715", "addr:state": "AR", "brand": "USPS", "brand:wikidata": "Q668687", "collection_times": "Mo-Sa 16:00", "name": "USPS COLLECTION BOX - PO LOBBY", "note": "ON 12/24 AND 12/31, THIS BOX MAY BE COLLECTED AS EARLY AS 12 NOON.", "ref": "7271500003"}, "type": "Feature"}
{"geometry": {"coordinates": [-94.301394, 36.464858], "type": "Point"}, "id": "QRkyFhB1Q_OUcUcpHp5mn9YFRic=", "properties": {"@spider": "usps_collection_boxes", "addr:city": "BELLA VISTA", "addr:country": "US", "addr:full": "1750 FOREST HILLS BLVD", "addr:postcode": "72715", "addr:state": "AR", "brand": "USPS", "brand:wikidata": "Q668687", "collection_times": "Mo-Sa 16:00", "name": "USPS COLLECTION BOX - PO LOBBY", "note": "ON 12/24 AND 12/31, THIS BOX MAY BE COLLECTED AS EARLY AS 12 NOON.", "ref": "7271500004"}, "type": "Feature"}
{"geometry": {"coordinates": [-94.301406001, 36.464803553], "type": "Point"}, "id": "ABxg_CctSiAqxnyAl1QHY2hEdHE=", "properties": {"@spider": "usps_collection_boxes", "addr:city": "BELLA VISTA", "addr:country": "US", "addr:full": "1750 FOREST HILLS BLVD", "addr:postcode": "72715", "addr:state": "AR", "brand": "USPS", "brand:wikidata": "Q668687", "collection_times": "Mo-Fr 16:00", "name": "USPS COLLECTION BOX - PO LOBBY", "note": "ON 12/24 AND 12/31, THIS BOX MAY BE COLLECTED AS EARLY AS 12 NOON.", "ref": "7271500005"}, "type": "Feature"}
{"geometry": {"coordinates": [-94.3966542, 35.90917], "type": "Point"}, "id": "e0WbLeglc5g620iSDRglKjJbLd4=", "properties": {"@spider": "usps_collection_boxes", "addr:city": "CANEHILL", "addr:country": "US", "addr:full": "14311 HIGHWAY 45", "addr:postcode": "72717", "addr:state": "AR", "brand": "USPS", "brand:wikidata": "Q668687", "collection_times": "Mo-Fr 11:15; Sa 11:30", "name": "USPS COLLECTION BOX - BLUE BOX", "ref": "7271700001"}, "type": "Feature"}
{"geometry": {"coordinates": [-94.396675, 35.908593], "type": "Point"}, "id": "b7MPAV7DB_igXRPQFz1iSZO_ZaE=", "properties": {"@spider": "usps_collection_boxes", "addr:city": "CANEHILL", "addr:country": "US", "addr:full": "14311 HIGHWAY 45", "addr:postcode": "72717", "addr:state": "AR", "brand": "USPS", "brand:wikidata": "Q668687", "collection_times": "Mo-Fr 11:00; Sa 11:30", "name": "USPS COLLECTION BOX - PO LOBBY", "ref": "7271700002"}, "type": "Feature"}
{"geometry": {"coordinates": [-94.3966973742, 35.9086182773], "type": "Point"}, "id": "n3bznB4BrIDU_HBWhs9iirutc3c=", "properties": {"@spider": "usps_collection_boxes", "addr:city": "CANEHILL", "addr:country": "US", "addr:full": "14311 HIGHWAY 45", "addr:postcode": "72717", "addr:state": "AR", "brand": "USPS", "brand:wikidata": "Q668687", "collection_times": "Mo-Fr 11:15; Sa 12:00", "name": "USPS COLLECTION BOX - PO LOBBY", "ref": "7271700003"}, "type": "Feature"}
{"geometry": {"coordinates": [-94.231774, 36.263263], "type": "Point"}, "id": "eHCJIpLB1aGkjkqNG_RCEDF6OOo=", "properties": {"@spider": "usps_collection_boxes", "addr:city": "CAVE SPRINGS", "addr:country": "US", "addr:full": "115 E MIDWAY ST", "addr:postcode": "72718", "addr:state": "AR", "brand": "USPS", "brand:wikidata": "Q668687", "collection_times": "Mo-Fr 16:00; Sa 11:30", "name": "USPS COLLECTION BOX - BLUE BOX", "note": "ON 12/24 AND 12/31, THIS BOX MAY BE COLLECTED AS EARLY AS 12 NOON.", "ref": "7271800001"}, "type": "Feature"}
{"geometry": {"coordinates": [-94.231774, 36.263263], "type": "Point"}, "id": "bTiF7ujC7AVh_L3mk_HV9jvQRdI=", "properties": {"@spider": "usps_collection_boxes", "addr:city": "CAVE SPRINGS", "addr:country": "US", "addr:full": "115 E MIDWAY ST", "addr:postcode": "72718", "addr:state": "AR", "brand": "USPS", "brand:wikidata": "Q668687", "collection_times": "Mo-Fr 16:00; Sa 11:30", "name": "USPS COLLECTION BOX - PO LOBBY", "note": "ON 12/24 AND 12/31, THIS BOX MAY BE COLLECTED AS EARLY AS 12 NOON.", "ref": "7271800002"}, "type": "Feature"}
{"geometry": {"coordinates": [-94.231789923, 36.263211535], "type": "Point"}, "id": "driHiOcRc0l7FJBKniNAESUntkM=", "properties": {"@spider": "usps_collection_boxes", "addr:city": "CAVE SPRINGS", "addr:country": "US", "addr:full": "115 E MIDWAY ST", "addr:postcode": "72718", "addr:state": "AR", "brand": "USPS", "brand:wikidata": "Q668687", "collection_times": "Mo-Fr 16:30; Sa 11:30", "name": "USPS COLLECTION BOX - PO LOBBY", "note": "ON 12/24 AND 12/31, THIS BOX MAY BE COLLECTED AS EARLY AS 12 NOON.", "ref": "7271800004"}, "type": "Feature"}
{"geometry": {"coordinates": [-94.29996, 36.358646], "type": "Point"}, "id": "xbbj3wF8GoVC3v4d39pKEMtMrWA=", "properties": {"@spider": "usps_collection_boxes", "addr:city": "CENTERTON", "addr:country": "US", "addr:full": "100 MONROE ST", "addr:postcode": "72719", "addr:state": "AR", "brand": "USPS", "brand:wikidata": "Q668687", "collection_times": "Mo-Fr 16:30; Sa 16:00", "name": "USPS COLLECTION BOX - BLUE BOX", "note": "ON 12/24 AND 12/31, THIS BOX MAY BE COLLECTED AS EARLY AS 12 NOON.", "ref": "7271900001"}, "type": "Feature"}
{"geometry": {"coordinates": [-94.299918, 36.358734], "type": "Point"}, "id": "jW9EhfS9da7y55Vc5RCAyGqKxV4=", "properties": {"@spider": "usps_collection_boxes", "addr:city": "CENTERTON", "addr:country": "US", "addr:full": "100 MONROE ST", "addr:postcode": "72719", "addr:state": "AR", "brand": "USPS", "brand:wikidata": "Q668687", "collection_times": "Mo-Fr 16:30; Sa 16:00", "name": "USPS COLLECTION BOX - PO LOBBY", "note": "ON 12/24 AND 12/31, THIS BOX MAY BE COLLECTED AS EARLY AS 12 NOON.", "ref": "7271900002"}, "type": "Feature"}
{"geometry": {"coordinates": [-94.299918, 36.358734], "type": "Point"}, "id": "273lAgEM50dQ95ccwjc-xNyZjeA=", "properties": {"@spider": "usps_collection_boxes", "addr:city": "CENTERTON", "addr:country": "US", "addr:full": "100 MONROE ST", "addr:postcode": "72719", "addr:state": "AR", "brand": "USPS", "brand:wikidata": "Q668687", "collection_times": "Mo-Fr 16:30; Sa 16:00", "name": "USPS COLLECTION BOX - PO LOBBY", "note": "ON 12/24 AND 12/31, THIS BOX MAY BE COLLECTED AS EARLY AS 12 NOON.", "ref": "7271900003"}, "type": "Feature"}
{"geometry": {"coordinates": [-94.2887093, 36.358382], "type": "Point"}, "id": "TLHwmmlUX0fKad0JBnirXdmxBZY=", "properties": {"@spider": "usps_collection_boxes", "addr:city": "CENTERTON", "addr:country": "US", "addr:full": "413 W CENTERTON BLVD", "addr:postcode": "72719", "addr:state": "AR", "brand": "USPS", "brand:wikidata": "Q668687", "collection_times": "Mo-Fr 12:00; Sa 11:00", "name": "USPS COLLECTION BOX - BLUE BOX", "ref": "7271900005"}, "type": "Feature"}
{"geometry": {"coordinates": [-94.2999084789, 36.3583170211], "type": "Point"}, "id": "zI8Jv0xrCYxtOuGfit4DvDbzXgs=", "properties": {"@spider": "usps_collection_boxes", "addr:city": "CENTERTON", "addr:country": "US", "addr:full": "100 MONROE ST", "addr:postcode": "72719", "addr:state": "AR", "brand": "USPS", "brand:wikidata": "Q668687", "collection_times": "Mo-Fr 16:30; Sa 11:30", "name": "USPS COLLECTION BOX - PO LOBBY", "note": "ON 12/24 AND 12/31, THIS BOX MAY BE COLLECTED AS EARLY AS 12 NOON.", "ref": "7271900006"}, "type": "Feature"}
{"geometry": {"coordinates": [-93.7896737873, 35.8134143397], "type": "Point"}, "id": "xN185adl_jhKBZk9U2O1rPFt6gY=", "properties": {"@spider": "usps_collection_boxes", "addr:city": "COMBS", "addr:country": "US", "addr:full": "10208 HIGHWAY 16", "addr:postcode": "72721", "addr:state": "AR", "brand": "USPS", "brand:wikidata": "Q668687", "collection_times": "Mo-Fr 12:35; Sa 12:15", "name": "USPS COLLECTION BOX - BLUE BOX", "note": "ON 12/24 AND 12/31, THIS BOX MAY BE COLLECTED AS EARLY AS 12 NOON.", "ref": "7272100000"}, "type": "Feature"}
{"geometry": {"coordinates": [-93.8395, 35.826118], "type": "Point"}, "id": "YNWdbWK4XEI_dgU0XU_k3xzkc6M=", "properties": {"@spider": "usps_collection_boxes", "addr:city": "COMBS", "addr:country": "US", "addr:full": "10208 HIGHWAY 16", "addr:postcode": "72721", "addr:state": "AR", "brand": "USPS", "brand:wikidata": "Q668687", "collection_times": "Mo-Sa 12:15", "name": "USPS COLLECTION BOX - PO LOBBY", "note": "ON 12/24 AND 12/31, THIS BOX MAY BE COLLECTED AS EARLY AS 12 NOON.", "ref": "7272100001"}, "type": "Feature"}
{"geometry": {"coordinates": [-93.839500195, 35.826110453], "type": "Point"}, "id": "AFK-uY7eMApJ2JG0u-VUz2Hwhb0=", "properties": {"@spider": "usps_collection_boxes", "addr:city": "COMBS", "addr:country": "US", "addr:full": "10208 HIGHWAY 16", "addr:postcode": "72721", "addr:state": "AR", "brand": "USPS", "brand:wikidata": "Q668687", "collection_times": "Mo-Fr 12:30; Sa 12:45", "name": "USPS COLLECTION BOX - PO LOBBY", "note": "ON 12/24 AND 12/31, THIS BOX MAY BE COLLECTED AS EARLY AS 12 NOON.", "ref": "7272100002"}, "type": "Feature"}
{"geometry": {"coordinates": [-94.45366, 36.335667], "type": "Point"}, "id": "S0rgLRCKr8Z20dgmCY8Czm2e0cQ=", "properties": {"@spider": "usps_collection_boxes", "addr:city": "DECATUR", "addr:country": "US", "addr:full": "750 E ROLLER AVE", "addr:postcode": "72722", "addr:state": "AR", "brand": "USPS", "brand:wikidata": "Q668687", "collection_times": "Mo-Fr 14:00; Sa 11:30", "name": "USPS COLLECTION BOX - BLUE BOX", "note": "ON 12/24 AND 12/31, THIS BOX MAY BE COLLECTED AS EARLY AS 12 NOON.", "ref": "7272200000"}, "type": "Feature"}
{"geometry": {"coordinates": [-94.45366, 36.335667], "type": "Point"}, "id": "wMfOcC8Zzt6gXh2zk0r33ZRACTU=", "properties": {"@spider": "usps_collection_boxes", "addr:city": "DECATUR", "addr:country": "US", "addr:full": "750 E ROLLER AVE", "addr:postcode": "72722", "addr:state": "AR", "brand": "USPS", "brand:wikidata": "Q668687", "collection_times": "Mo-Fr 14:00; Sa 11:30", "name": "USPS COLLECTION BOX - PO LOBBY", "note": "ON 12/24 AND 12/31, THIS BOX MAY BE COLLECTED AS EARLY AS 12 NOON.", "ref": "7272200001"}, "type": "Feature"}
{"geometry": {"coordinates": [-94.45366, 36.335667], "type": "Point"}, "id": "j0e7pUdt2mdF5BMR2hVMKLOISJk=", "properties": {"@spider": "usps_collection_boxes", "addr:city": "DECATUR", "addr:country": "US", "addr:full": "750 E ROLLER AVE", "addr:postcode": "72722", "addr:state": "AR", "brand": "USPS", "brand:wikidata": "Q668687", "collection_times": "Mo-Fr 14:00; Sa 11:30", "name": "USPS COLLECTION BOX - PO LOBBY", "note": "ON 12/24 AND 12/31, THIS BOX MAY BE COLLECTED AS EARLY AS 12 NOON.", "ref": "7272200003"}, "type": "Feature"}
{"geometry": {"coordinates": [-94.453649665, 36.335656527], "type": "Point"}, "id": "ZCOdhcYOJGJu7nFufNltnFwGtFM=", "properties": {"@spider": "usps_collection_boxes", "addr:city": "DECATUR", "addr:country": "US", "addr:full": "750 E ROLLER AVE", "addr:postcode": "72722", "addr:state": "AR", "brand": "USPS", "brand:wikidata": "Q668687", "collection_times": "Mo-Fr 14:30; Sa 11:30", "name": "USPS COLLECTION BOX - PO LOBBY", "note": "ON 12/24 AND 12/31, THIS BOX MAY BE COLLECTED AS EARLY AS 12 NOON.", "ref": "7272200005"}, "type": "Feature"}
{"geometry": {"coordinates": [-94.008724, 36.00589], "type": "Point"}, "id": "7rdeshshminE0rirEiB1Mi1fa24=", "properties": {"@spider": "usps_collection_boxes", "addr:city": "ELKINS", "addr:country": "US", "addr:full": "455 N CENTER ST", "addr:postcode": "72727", "addr:state": "AR", "brand": "USPS", "brand:wikidata": "Q668687", "collection_times": "Mo-Fr 16:35; Sa 10:30", "name": "USPS COLLECTION BOX - BLUE BOX", "note": "ON 12/24 AND 12/31, THIS BOX MAY BE COLLECTED AS EARLY AS 12 NOON.", "ref": "7272700001"}, "type": "Feature"}
{"geometry": {"coordinates": [-94.008724, 36.00589], "type": "Point"}, "id": "zLhP1GMyTQgC4SMibPs_fw6AYd4=", "properties": {"@spider": "usps_collection_boxes", "addr:city": "ELKINS", "addr:country": "US", "addr:full": "455 N CENTER ST", "addr:postcode": "72727", "addr:state": "AR", "brand": "USPS", "brand:wikidata": "Q668687", "collection_times": "Mo-Fr 16:35; Sa 10:30", "name": "USPS COLLECTION BOX - PO LOBBY", "note": "ON 12/24 AND 12/31, THIS BOX MAY BE COLLECTED AS EARLY AS 12 NOON.", "ref": "7272700002"}, "type": "Feature"}
{"geometry": {"coordinates": [-94.008724, 36.00589], "type": "Point"}, "id": "YPRa8mNAl3pwmyTxOStCeUsMOSY=", "properties": {"@spider": "usps_collection_boxes", "addr:city": "ELKINS", "addr:country": "US", "addr:full": "455 N CENTER ST", "addr:postcode": "72727", "addr:state": "AR", "brand": "USPS", "brand:wikidata": "Q668687", "collection_times": "Mo-Fr 16:35; Sa 10:30", "name": "USPS COLLECTION BOX - PO LOBBY", "note": "ON 12/24 AND 12/31, THIS BOX MAY BE COLLECTED AS EARLY AS 12 NOON.", "ref": "7272700003"}, "type": "Feature"}
{"geometry": {"coordinates": [-94.008725977, 36.00589036], "type": "Point"}, "id": "8Wmrn1yTUWUN7zEoygyj51m3TNE=", "properties": {"@spider": "usps_collection_boxes", "addr:city": "ELKINS", "addr:country": "US", "addr:full": "455 N CENTER ST", "addr:postcode": "72727", "addr:state": "AR", "brand": "USPS", "brand:wikidata": "Q668687", "collection_times": "Mo-Fr 16:30; Sa 10:00", "name": "USPS COLLECTION BOX - PO LOBBY", "note": "ON 12/24 AND 12/31, THIS BOX MAY BE COLLECTED AS EARLY AS 12 NOON.", "ref": "7272700006"}, "type": "Feature"}
{"geometry": {"coordinates": [-94.232973, 36.20562], "type": "Point"}, "id": "1_h7VLHQq176sT_xnKTEPW3teBc=", "properties": {"@spider": "usps_collection_boxes", "addr:city": "ELM SPRINGS", "addr:country": "US", "addr:full": "210 SCHOOL AVE", "addr:postcode": "72728", "addr:state": "AR", "brand": "USPS", "brand:wikidata": "Q668687", "collection_times": "Mo-Fr 11:45; Sa 11:00", "name": "USPS COLLECTION BOX - BLUE BOX", "ref": "7272800001"}, "type": "Feature"}
{"geometry": {"coordinates": [-94.233078, 36.205633], "type": "Point"}, "id": "K0n0tclm9Hx_ITrj7Nqxyt7hgjU=", "properties": {"@spider": "usps_collection_boxes", "addr:city": "ELM SPRINGS", "addr:country": "US", "addr:full": "210 SCHOOL AVE", "addr:postcode": "72728", "addr:state": "AR", "brand": "USPS", "brand:wikidata": "Q668687", "collection_times": "Mo-Fr 11:45; Sa 11:00", "name": "USPS COLLECTION BOX - PO LOBBY", "ref": "7272800002"}, "type": "Feature"}
{"geometry": {"coordinates": [-94.231981651, 36.205199024], "type": "Point"}, "id": "3k3B1qTjBQjtQJnREiO10WcRGHc=", "properties": {"@spider": "usps_collection_boxes", "addr:city": "ELM SPRINGS", "addr:country": "US", "addr:full": "210 SCHOOL AVE", "addr:postcode": "72728", "addr:state": "AR", "brand": "USPS", "brand:wikidata": "Q668687", "collection_times": "Mo-Fr 12:00; Sa 11:30", "name": "USPS COLLECTION BOX - PO LOBBY", "ref": "7272800004"}, "type": "Feature"}
{"geometry": {"coordinates": [-94.497214, 35.794083], "type": "Point"}, "id": "AydaseumUotZxTkXgz3VgzBQEII=", "properties": {"@spider": "usps_collection_boxes", "addr:city": "EVANSVILLE", "addr:country": "US", "addr:full": "20740 S HIGHWAY 59", "addr:postcode": "72729", "addr:state": "AR", "brand": "USPS", "brand:wikidata": "Q668687", "collection_times": "Mo-Sa 12:30", "name": "USPS COLLECTION BOX - BLUE BOX", "note": "ON 12/24 AND 12/31, THIS BOX MAY BE COLLECTED AS EARLY AS 12 NOON.", "ref": "7272900000"}, "type": "Feature"}
{"geometry": {"coordinates": [-94.497214, 35.794083], "type": "Point"}, "id": "cSUM0uDchpDnLjJQ0_Yu5OnDUAg=", "properties": {"@spider": "usps_collection_boxes", "addr:city": "EVANSVILLE", "addr:country": "US", "addr:full": "20740 S HIGHWAY 59", "addr:postcode": "72729", "addr:state": "AR", "brand": "USPS", "brand:wikidata": "Q668687", "collection_times": "Mo-Sa 12:30", "name": "USPS COLLECTION BOX - PO LOBBY", "note": "ON 12/24 AND 12/31, THIS BOX MAY BE COLLECTED AS EARLY AS 12 NOON.", "ref": "7272900001"}, "type": "Feature"}
{"geometry": {"coordinates": [-94.496571016, 35.795488837], "type": "Point"}, "id": "5JlQtcPZQemf7oQeYYY2W8w7PI4=", "properties": {"@spider": "usps_collection_boxes", "addr:city": "EVANSVILLE", "addr:country": "US", "addr:full": "20740 S HIGHWAY 59", "addr:postcode": "72729", "addr:state": "AR", "brand": "USPS", "brand:wikidata": "Q668687", "collection_times": "Mo-Fr 14:00; Sa 13:00", "name": "USPS COLLECTION BOX - PO LOBBY", "note": "ON 12/24 AND 12/31, THIS BOX MAY BE COLLECTED AS EARLY AS 12 NOON.", "ref": "7272900002"}, "type": "Feature"}
{"geometry": {"coordinates": [-94.2493236159, 36.039947194], "type": "Point"}, "id": "Tq7DCXs-DsX2eEBYcAfxNLQOnLM=", "properties": {"@spider": "usps_collection_boxes", "addr:city": "FARMINGTON", "addr:country": "US", "addr:full": "190 W CIMARRON PL", "addr:postcode": "72730", "addr:state": "AR", "brand": "USPS", "brand:wikidata": "Q668687", "collection_times": "Mo-Fr 17:00; Sa 11:00", "name": "USPS COLLECTION BOX - BLUE BOX", "note": "ON 12/24 AND 12/31, THIS BOX MAY BE COLLECTED AS EARLY AS 12 NOON.", "ref": "7273000001"}, "type": "Feature"}
{"geometry": {"coordinates": [-94.2493236159, 36.039947194], "type": "Point"}, "id": "qdFbzwdC-zEAobWfEIdikY9egJw=", "properties": {"@spider": "usps_collection_boxes", "addr:city": "FARMINGTON", "addr:country": "US", "addr:full": "190 W CIMARRON PL", "addr:postcode": "72730", "addr:state": "AR", "brand": "USPS", "brand:wikidata": "Q668687", "collection_times": "Mo-Fr 17:00; Sa 11:00", "name": "USPS COLLECTION BOX - PO LOBBY", "note": "ON 12/24 AND 12/31, THIS BOX MAY BE COLLECTED AS EARLY AS 12 NOON.", "ref": "7273000002"}, "type": "Feature"}
{"geometry": {"coordinates": [-94.2493236159, 36.039947194], "type": "Point"}, "id": "3d2o6qC4OGDjexL26KNeEh8zKQg=", "properties": {"@spider": "usps_collection_boxes", "addr:city": "FARMINGTON", "addr:country": "US", "addr:full": "190 W CIMARRON PL", "addr:postcode": "72730", "addr:state": "AR", "brand": "USPS", "brand:wikidata": "Q668687", "collection_times": "Mo-Fr 17:00; Sa 11:00", "name": "USPS COLLECTION BOX - PO LOBBY", "note": "ON 12/24 AND 12/31, THIS BOX MAY BE COLLECTED AS EARLY AS 12 NOON.", "ref": "7273000003"}, "type": "Feature"}
{"geometry": {"coordinates": [-94.249323616, 36.039947194], "type": "Point"}, "id": "K-UkfGQCSRSLoK8mSOjbQ0qsa0c=", "properties": {"@spider": "usps_collection_boxes", "addr:city": "FARMINGTON", "addr:country": "US", "addr:full": "190 W CIMARRON PL", "addr:postcode": "72730", "addr:state": "AR", "brand": "USPS", "brand:wikidata": "Q668687", "collection_times": "Mo-Fr 17:00; Sa 11:00", "name": "USPS COLLECTION BOX - PO LOBBY", "note": "ON 12/24 AND 12/31, THIS BOX MAY BE COLLECTED AS EARLY AS 12 NOON.", "ref": "7273000006"}, "type": "Feature"}
{"geometry": {"coordinates": [-93.990697, 36.444909], "type": "Point"}, "id": "zDH2Fop49vxfWVnD1_fJx5UgT3I=", "properties": {"@spider": "usps_collection_boxes", "addr:city": "GARFIELD", "addr:country": "US", "addr:full": "14700 ALVIN SEAMSTER RD", "addr:postcode": "72732", "addr:state": "AR", "brand": "USPS", "brand:wikidata": "Q668687", "collection_times": "Mo-Fr 16:15; Sa 11:00", "name": "USPS COLLECTION BOX - BLUE BOX", "note": "ON 12/24 AND 12/31, THIS BOX MAY BE COLLECTED AS EARLY AS 12 NOON.", "ref": "7273200001"}, "type": "Feature"}
{"geometry": {"coordinates": [-93.990697, 36.444909], "type": "Point"}, "id": "A37wW0ENyiXTr-Zi38dseEItu84=", "properties": {"@spider": "usps_collection_boxes", "addr:city": "GARFIELD", "addr:country": "US", "addr:full": "14700 ALVIN SEAMSTER RD", "addr:postcode": "72732", "addr:state": "AR", "brand": "USPS", "brand:wikidata": "Q668687", "collection_times": "Mo-Fr 16:15; Sa 11:00", "name": "USPS COLLECTION BOX - PO LOBBY", "note": "ON 12/24 AND 12/31, THIS BOX MAY BE COLLECTED AS EARLY AS 12 NOON.", "ref": "7273200002"}, "type": "Feature"}
{"geometry": {"coordinates": [-93.990696907, 36.444904743], "type": "Point"}, "id": "x1mFvimP_C8Srqfk1xrmHy23z8g=", "properties": {"@spider": "usps_collection_boxes", "addr:city": "GARFIELD", "addr:country": "US", "addr:full": "14700 ALVIN SEAMSTER RD", "addr:postcode": "72732", "addr:state": "AR", "brand": "USPS", "brand:wikidata": "Q668687", "collection_times": "Mo-Fr 16:30; Sa 11:00", "name": "USPS COLLECTION BOX - PO LOBBY", "note": "ON 12/24 AND 12/31, THIS BOX MAY BE COLLECTED AS EARLY AS 12 NOON.", "ref": "7273200003"}, "type": "Feature"}
{"geometry": {"coordinates": [-93.9315645705, 36.4902508907], "type": "Point"}, "id": "u7AqS9LYTMreYwYZQhz5ZeUfvfY=", "properties": {"@spider": "usps_collection_boxes", "addr:city": "GATEWAY", "addr:country": "US", "addr:full": "17260 HIGHWAY 37 N", "addr:postcode": "72733", "addr:state": "AR", "brand": "USPS", "brand:wikidata": "Q668687", "collection_times": "Mo-Fr 11:30; Sa 09:30", "name": "USPS COLLECTION BOX - BLUE BOX", "ref": "7273300000"}, "type": "Feature"}
{"geometry": {"coordinates": [-93.9315645705, 36.4902508907], "type": "Point"}, "id": "OoI2qmu8GnsbA_SeuGC0nk4yUr8=", "properties": {"@spider": "usps_collection_boxes", "addr:city": "GATEWAY", "addr:country": "US", "addr:full": "17260 HIGHWAY 37 N", "addr:postcode": "72733", "addr:state": "AR", "brand": "USPS", "brand:wikidata": "Q668687", "collection_times": "Mo-Fr 11:30; Sa 09:30", "name": "USPS COLLECTION BOX - PO LOBBY", "ref": "7273300001"}, "type": "Feature"}
{"geometry": {"coordinates": [-93.931327934, 36.490839718], "type": "Point"}, "id": "tiTdPiVHw3z24UxylyKy8-yZREU=", "properties": {"@spider": "usps_collection_boxes", "addr:city": "GATEWAY", "addr:country": "US", "addr:full": "17260 HIGHWAY 37 N", "addr:postcode": "72733", "addr:state": "AR", "brand": "USPS", "brand:wikidata": "Q668687", "collection_times": "Mo-Fr 12:00; Sa 10:00", "name": "USPS COLLECTION BOX - PO LOBBY", "ref": "7273300002"}, "type": "Feature"}
{"geometry": {"coordinates": [-94.4929179, 36.267283], "type": "Point"}, "id": "1umd4gCVmXkGhzWu20ZWeL_j3MU=", "properties": {"@spider": "usps_collection_boxes", "addr:city": "GENTRY", "addr:country": "US", "addr:full": "899 W MAIN ST", "addr:postcode": "72734", "addr:state": "AR", "brand": "USPS", "brand:wikidata": "Q668687", "collection_times": "Mo-Fr 16:30; Sa 11:30", "name": "USPS COLLECTION BOX - PO LOBBY", "note": "ON 12/24 AND 12/31, THIS BOX MAY BE COLLECTED AS EARLY AS 12 NOON.", "ref": "7273400001"}, "type": "Feature"}
{"geometry": {"coordinates": [-94.4929126, 36.267295], "type": "Point"}, "id": "mLNLUm2FJcqTybYw6lWEFKRsbp8=", "properties": {"@spider": "usps_collection_boxes", "addr:city": "GENTRY", "addr:country": "US", "addr:full": "899 W MAIN ST", "addr:postcode": "72734", "addr:state": "AR", "brand": "USPS", "brand:wikidata": "Q668687", "collection_times": "Mo-Fr 16:30; Sa 11:30", "name": "USPS COLLECTION BOX - PO LOBBY", "note": "ON 12/24 AND 12/31, THIS BOX MAY BE COLLECTED AS EARLY AS 12 NOON.", "ref": "7273400002"}, "type": "Feature"}
{"geometry": {"coordinates": [-94.4928835, 36.267518], "type": "Point"}, "id": "_HBaXZaqSvqHaDg4L5b-3oMd2mI=", "properties": {"@spider": "usps_collection_boxes", "addr:city": "GENTRY", "addr:country": "US", "addr:full": "899 W MAIN ST", "addr:postcode": "72734", "addr:state": "AR", "brand": "USPS", "brand:wikidata": "Q668687", "collection_times": "Mo-Fr 16:30; Sa 11:30", "name": "USPS COLLECTION BOX - BLUE BOX", "note": "ON 12/24 AND 12/31, THIS BOX MAY BE COLLECTED AS EARLY AS 12 NOON.", "ref": "7273400003"}, "type": "Feature"}
{"geometry": {"coordinates": [-94.492880612, 36.267642506], "type": "Point"}, "id": "y9ooo9Z96Em9BesosvH12w2e49c=", "properties": {"@spider": "usps_collection_boxes", "addr:city": "GENTRY", "addr:country": "US", "addr:full": "899 W MAIN ST", "addr:postcode": "72734", "addr:state": "AR", "brand": "USPS", "brand:wikidata": "Q668687", "collection_times": "Mo-Fr 16:30; Sa 11:30", "name": "USPS COLLECTION BOX - PO LOBBY", "note": "ON 12/24 AND 12/31, THIS BOX MAY BE COLLECTED AS EARLY AS 12 NOON.", "ref": "7273400004"}, "type": "Feature"}
{"geometry": {"coordinates": [-93.990563, 36.101548], "type": "Point"}, "id": "Vu0TPD0qhpUJRByq3v46NYgJqi4=", "properties": {"@spider": "usps_collection_boxes", "addr:city": "GOSHEN", "addr:country": "US", "addr:full": "188 W BOWEN BLVD", "addr:postcode": "72735", "addr:state": "AR", "brand": "USPS", "brand:wikidata": "Q668687", "collection_times": "Mo-Sa 11:30", "name": "USPS COLLECTION BOX - BLUE BOX", "ref": "7273500001"}, "type": "Feature"}
{"geometry": {"coordinates": [-93.990615, 36.101484], "type": "Point"}, "id": "D_nYT-D1MIXBMkAO8tKaaCBaUYA=", "properties": {"@spider": "usps_collection_boxes", "addr:city": "GOSHEN", "addr:country": "US", "addr:full": "188 W BOWEN BLVD", "addr:postcode": "72735", "addr:state": "AR", "brand": "USPS", "brand:wikidata": "Q668687", "collection_times": "Mo-Sa 11:30", "name": "USPS COLLECTION BOX - PO LOBBY", "ref": "7273500002"}, "type": "Feature"}
{"geometry": {"coordinates": [-93.990695212, 36.10150995], "type": "Point"}, "id": "lhN6d7AMtmc2Y8KuUlUjlf92NVY=", "properties": {"@spider": "usps_collection_boxes", "addr:city": "GOSHEN", "addr:country": "US", "addr:full": "188 W BOWEN BLVD", "addr:postcode": "72735", "addr:state": "AR", "brand": "USPS", "brand:wikidata": "Q668687", "collection_times": "Mo-Fr 12:00; Sa 11:30", "name": "USPS COLLECTION BOX - PO LOBBY", "ref": "7273500004"}, "type": "Feature"}
{"geometry": {"coordinates": [-94.454091, 36.422286], "type": "Point"}, "id": "EyobPjLLz9MIIfnzS6aU-nCRqe8=", "properties": {"@spider": "usps_collection_boxes", "addr:city": "GRAVETTE", "addr:country": "US", "addr:full": "613 MAIN ST SW", "addr:postcode": "72736", "addr:state": "AR", "brand": "USPS", "brand:wikidata": "Q668687", "collection_times": "Mo-Fr 16:30; Sa 11:30", "name": "USPS COLLECTION BOX - PO LOBBY", "note": "ON 12/24 AND 12/31, THIS BOX MAY BE COLLECTED AS EARLY AS 12 NOON.", "ref": "7273600002"}, "type": "Feature"}
{"geometry": {"coordinates": [-94.454091, 36.422286], "type": "Point"}, "id": "_pgTLusEL0lFKMF0Y1NkyLkuyTQ=", "properties": {"@spider": "usps_collection_boxes", "addr:city": "GRAVETTE", "addr:country": "US", "addr:full": "613 MAIN ST SW", "addr:postcode": "72736", "addr:state": "AR", "brand": "USPS", "brand:wikidata": "Q668687", "collection_times": "Mo-Fr 16:00; Sa 11:00", "name": "USPS COLLECTION BOX - BLUE BOX", "note": "ON 12/24 AND 12/31, THIS BOX MAY BE COLLECTED AS EARLY AS 12 NOON.", "ref": "7273600003"}, "type": "Feature"}
{"geometry": {"coordinates": [-94.454091, 36.422286], "type": "Point"}, "id": "Rh25AtbAyFRiGoxhwKKK3ST5e-g=", "properties": {"@spider": "usps_collection_boxes", "addr:city": "GRAVETTE", "addr:country": "US", "addr:full": "613 MAIN ST SW", "addr:postcode": "72736", "addr:state": "AR", "brand": "USPS", "brand:wikidata": "Q668687", "collection_times": "Mo-Fr 16:30; Sa 11:30", "name": "USPS COLLECTION BOX - PO LOBBY", "note": "ON 12/24 AND 12/31, THIS BOX MAY BE COLLECTED AS EARLY AS 12 NOON.", "ref": "7273600004"}, "type": "Feature"}
{"geometry": {"coordinates": [-94.454074571, 36.422239275], "type": "Point"}, "id": "HH57O7oF7TQJYhbnhxyOMCUY7nM=", "properties": {"@spider": "usps_collection_boxes", "addr:city": "GRAVETTE", "addr:country": "US", "addr:full": "613 MAIN ST SW", "addr:postcode": "72736", "addr:state": "AR", "brand": "USPS", "brand:wikidata": "Q668687", "collection_times": "Mo-Fr 16:30; Sa 11:30", "name": "USPS COLLECTION BOX - PO LOBBY", "note": "ON 12/24 AND 12/31, THIS BOX MAY BE COLLECTED AS EARLY AS 12 NOON.", "ref": "7273600008"}, "type": "Feature"}
{"geometry": {"coordinates": [-94.173937, 36.002011], "type": "Point"}, "id": "_CEbxpa6GCerU2A-o9U_D5oVtcM=", "properties": {"@spider": "usps_collection_boxes", "addr:city": "GREENLAND", "addr:country": "US", "addr:full": "4500 S SCHOOL AVE", "addr:postcode": "72737", "addr:state": "AR", "brand": "USPS", "brand:wikidata": "Q668687", "collection_times": "Mo-Fr 16:45; Sa 11:45", "name": "USPS COLLECTION BOX - BLUE BOX", "note": "ON 12/24 AND 12/31, THIS BOX MAY BE COLLECTED AS EARLY AS 12 NOON.", "ref": "7273700001"}, "type": "Feature"}
{"geometry": {"coordinates": [-94.173937, 36.002011], "type": "Point"}, "id": "mCa9o257CggoM6Az12DniPXqI9I=", "properties": {"@spider": "usps_collection_boxes", "addr:city": "GREENLAND", "addr:country": "US", "addr:full": "4500 S SCHOOL AVE", "addr:postcode": "72737", "addr:state": "AR", "brand": "USPS", "brand:wikidata": "Q668687", "collection_times": "Mo-Fr 16:45; Sa 11:45", "name": "USPS COLLECTION BOX - PO LOBBY", "note": "ON 12/24 AND 12/31, THIS BOX MAY BE COLLECTED AS EARLY AS 12 NOON.", "ref": "7273700002"}, "type": "Feature"}
{"geometry": {"coordinates": [-94.173923761, 36.001971502], "type": "Point"}, "id": "9fmS1Ww39jDtsl3Pxlj9QUFZxKY=", "properties": {"@spider": "usps_collection_boxes", "addr:city": "GREENLAND", "addr:country": "US", "addr:full": "4500 S SCHOOL AVE STE P", "addr:postcode": "72737", "addr:state": "AR", "brand": "USPS", "brand:wikidata": "Q668687", "collection_times": "Mo-Fr 16:30; Sa 11:30", "name": "USPS COLLECTION BOX - PO LOBBY", "note": "ON 12/24 AND 12/31, THIS BOX MAY BE COLLECTED AS EARLY AS 12 NOON.", "ref": "7273700004"}, "type": "Feature"}
{"geometry": {"coordinates": [-93.861925, 36.143937], "type": "Point"}, "id": "T_Ja7XA1sUDoVomhjh_qb9uaKoU=", "properties": {"@spider": "usps_collection_boxes", "addr:city": "HINDSVILLE", "addr:country": "US", "addr:full": "143 E VALLEY RD", "addr:postcode": "72738", "addr:state": "AR", "brand": "USPS", "brand:wikidata": "Q668687", "collection_times": "Mo-Fr 11:00; Sa 12:00", "name": "USPS COLLECTION BOX - PO LOBBY", "ref": "7273800002"}, "type": "Feature"}
{"geometry": {"coordinates": [-93.861925, 36.143937], "type": "Point"}, "id": "oCY1ccMQVe9HBNF7FoF1RM_JJjE=", "properties": {"@spider": "usps_collection_boxes", "addr:city": "HINDSVILLE", "addr:country": "US", "addr:full": "143 E VALLEY RD", "addr:postcode": "72738", "addr:state": "AR", "brand": "USPS", "brand:wikidata": "Q668687", "collection_times": "Mo-Fr 11:00; Sa 12:00", "name": "USPS COLLECTION BOX - BLUE BOX", "ref": "7273800004"}, "type": "Feature"}
{"geometry": {"coordinates": [-93.861984564, 36.14388313], "type": "Point"}, "id": "ZhEbVqXHVGJsnqEvdLs5ys1se0w=", "properties": {"@spider": "usps_collection_boxes", "addr:city": "HINDSVILLE", "addr:country": "US", "addr:full": "143 E VALLEY RD", "addr:postcode": "72738", "addr:state": "AR", "brand": "USPS", "brand:wikidata": "Q668687", "collection_times": "Mo-Fr 11:30; Sa 12:00", "name": "USPS COLLECTION BOX - PO LOBBY", "ref": "7273800007"}, "type": "Feature"}
{"geometry": {"coordinates": [-94.3360694162, 36.4318514932], "type": "Point"}, "id": "GeNmcWZ1x14v0H9D5hXkQroQ8-4=", "properties": {"@spider": "usps_collection_boxes", "addr:city": "HIWASSE", "addr:country": "US", "addr:full": "13902 W HIGHWAY 72", "addr:postcode": "72739", "addr:state": "AR", "brand": "USPS", "brand:wikidata": "Q668687", "collection_times": "Mo-Fr 11:00; Sa 11:30", "name": "USPS COLLECTION BOX - BLUE BOX", "ref": "7273900000"}, "type": "Feature"}
{"geometry": {"coordinates": [-94.33605, 36.431848], "type": "Point"}, "id": "W0vP7GN3bDLMOENJcOgJWnoxXA4=", "properties": {"@spider": "usps_collection_boxes", "addr:city": "HIWASSE", "addr:country": "US", "addr:full": "13902 W HIGHWAY 72", "addr:postcode": "72739", "addr:state": "AR", "brand": "USPS", "brand:wikidata": "Q668687", "collection_times": "Mo-Fr 11:00; Sa 11:30", "name": "USPS COLLECTION BOX - PO LOBBY", "ref": "7273900001"}, "type": "Feature"}
{"geometry": {"coordinates": [-94.336073916, 36.431842493], "type": "Point"}, "id": "0Nd1zFTUDFoXU700uzKeIlQnv3M=", "properties": {"@spider": "usps_collection_boxes", "addr:city": "HIWASSE", "addr:country": "US", "addr:full": "13902 W HIGHWAY 72", "addr:postcode": "72739", "addr:state": "AR", "brand": "USPS", "brand:wikidata": "Q668687", "collection_times": "Mo-Sa 11:30", "name": "USPS COLLECTION BOX - PO LOBBY", "ref": "7273900003"}, "type": "Feature"}
{"geometry": {"coordinates": [-93.738402, 36.086423], "type": "Point"}, "id": "EHK-HK-4HR-Yobgll6vi_XDNcxM=", "properties": {"@spider": "usps_collection_boxes", "addr:city": "HUNTSVILLE", "addr:country": "US", "addr:full": "208 LOCUST ST", "addr:postcode": "72740", "addr:state": "AR", "brand": "USPS", "brand:wikidata": "Q668687", "collection_times": "Mo-Fr 16:30; Sa 16:00", "name": "USPS COLLECTION BOX - BLUE BOX", "note": "ON 12/24 AND 12/31, THIS BOX MAY BE COLLECTED AS EARLY AS 12 NOON.", "ref": "7274000002"}, "type": "Feature"}
{"geometry": {"coordinates": [-93.73848, 36.086567], "type": "Point"}, "id": "Qn26PBPqRpDMEPnwCZTr6ijhY3U=", "properties": {"@spider": "usps_collection_boxes", "addr:city": "HUNTSVILLE", "addr:country": "US", "addr:full": "401 CHURCH AVE", "addr:postcode": "72740", "addr:state": "AR", "brand": "USPS", "brand:wikidata": "Q668687", "collection_times": "Mo-Fr 16:45; Sa 16:15", "name": "USPS COLLECTION BOX - PO LOBBY", "note": "ON 12/24 AND 12/31, THIS BOX MAY BE COLLECTED AS EARLY AS 12 NOON.", "ref": "7274000003"}, "type": "Feature"}
{"geometry": {"coordinates": [-93.73848, 36.086567], "type": "Point"}, "id": "CRlPV4QO1yL7W8YfvSAY5F3yIZA=", "properties": {"@spider": "usps_collection_boxes", "addr:city": "HUNTSVILLE", "addr:country": "US", "addr:full": "401 CHURCH AVE", "addr:postcode": "72740", "addr:state": "AR", "brand": "USPS", "brand:wikidata": "Q668687", "collection_times": "Mo-Fr 16:45; Sa 16:15", "name": "USPS COLLECTION BOX - PO LOBBY", "note": "ON 12/24 AND 12/31, THIS BOX MAY BE COLLECTED AS EARLY AS 12 NOON.", "ref": "7274000005"}, "type": "Feature"}
{"geometry": {"coordinates": [-93.73848, 36.086567], "type": "Point"}, "id": "by_TrSV8_xW0_0o4_mp7XofabRQ=", "properties": {"@spider": "usps_collection_boxes", "addr:city": "HUNTSVILLE", "addr:country": "US", "addr:full": "401 CHURCH AVE", "addr:postcode": "72740", "addr:state": "AR", "brand": "USPS", "brand:wikidata": "Q668687", "collection_times": "Mo-Fr 16:45; Sa 16:15", "name": "USPS COLLECTION BOX - PO LOBBY", "note": "ON 12/24 AND 12/31, THIS BOX MAY BE COLLECTED AS EARLY AS 12 NOON.", "ref": "7274000008"}, "type": "Feature"}
{"geometry": {"coordinates": [-93.738442961, 36.086520052], "type": "Point"}, "id": "GpOsfgdL1Tg8M-L3GLJkfhw5hm8=", "properties": {"@spider": "usps_collection_boxes", "addr:city": "HUNTSVILLE", "addr:country": "US", "addr:full": "401 CHURCH AVE", "addr:postcode": "72740", "addr:state": "AR", "brand": "USPS", "brand:wikidata": "Q668687", "collection_times": "Mo-Fr 16:30; Sa 12:00", "name": "USPS COLLECTION BOX - PO LOBBY", "note": "ON 12/24 AND 12/31, THIS BOX MAY BE COLLECTED AS EARLY AS 12 NOON.", "ref": "7274000009"}, "type": "Feature"}
{"geometry": {"coordinates": [-93.448918, 36.017431], "type": "Point"}, "id": "irJsFy5OoLzyszjXWe7YIT7p4oc=", "properties": {"@spider": "usps_collection_boxes", "addr:city": "KINGSTON", "addr:country": "US", "addr:full": "5103 HIGHWAY 21", "addr:postcode": "72742", "addr:state": "AR", "brand": "USPS", "brand:wikidata": "Q668687", "collection_times": "Mo-Fr 15:00; Sa 09:45", "name": "USPS COLLECTION BOX - BLUE BOX", "note": "ON 12/24 AND 12/31, THIS BOX MAY BE COLLECTED AS EARLY AS 12 NOON.", "ref": "7274200001"}, "type": "Feature"}
{"geometry": {"coordinates": [-93.518651, 36.05083], "type": "Point"}, "id": "xmXOScQ5XCbdAv1R4ogFoJzHXoY=", "properties": {"@spider": "usps_collection_boxes", "addr:city": "KINGSTON", "addr:country": "US", "addr:full": "5103 HIGHWAY 21", "addr:postcode": "72742", "addr:state": "AR", "brand": "USPS", "brand:wikidata": "Q668687", "collection_times": "Mo-Fr 15:00; Sa 09:45", "name": "USPS COLLECTION BOX - PO LOBBY", "note": "ON 12/24 AND 12/31, THIS BOX MAY BE COLLECTED AS EARLY AS 12 NOON.", "ref": "7274200002"}, "type": "Feature"}
{"geometry": {"coordinates": [-93.518522226, 36.050527585], "type": "Point"}, "id": "whmLpeSCjAtPMQkNtNO3bi2rSJE=", "properties": {"@spider": "usps_collection_boxes", "addr:city": "KINGSTON", "addr:country": "US", "addr:full": "5103 HIGHWAY 21", "addr:postcode": "72742", "addr:state": "AR", "brand": "USPS", "brand:wikidata": "Q668687", "collection_times": "Mo-Fr 15:00; Sa 10:00", "name": "USPS COLLECTION BOX - PO LOBBY", "note": "ON 12/24 AND 12/31, THIS BOX MAY BE COLLECTED AS EARLY AS 12 NOON.", "ref": "7274200004"}, "type": "Feature"}
{"geometry": {"coordinates": [-94.426203, 35.948073], "type": "Point"}, "id": "PBiPp7bdNOEEbk53e67a4XAB1Uc=", "properties": {"@spider": "usps_collection_boxes", "addr:city": "LINCOLN", "addr:country": "US", "addr:full": "304 W PRIDEMORE DR", "addr:postcode": "72744", "addr:state": "AR", "brand": "USPS", "brand:wikidata": "Q668687", "collection_times": "Mo-Fr 16:30; Sa 15:30", "name": "USPS COLLECTION BOX - BLUE BOX", "note": "ON 12/24 AND 12/31, THIS BOX MAY BE COLLECTED AS EARLY AS 12 NOON.", "ref": "7274400001"}, "type": "Feature"}
{"geometry": {"coordinates": [-94.426203, 35.948073], "type": "Point"}, "id": "RAOITWeAsK9Yi_sVq_B5q8yyIa0=", "properties": {"@spider": "usps_collection_boxes", "addr:city": "LINCOLN", "addr:country": "US", "addr:full": "304 W PRIDEMORE DR", "addr:postcode": "72744", "addr:state": "AR", "brand": "USPS", "brand:wikidata": "Q668687", "collection_times": "Mo-Fr 16:45; Sa 15:30", "name": "USPS COLLECTION BOX - PO LOBBY", "note": "ON 12/24 AND 12/31, THIS BOX MAY BE COLLECTED AS EARLY AS 12 NOON.", "ref": "7274400002"}, "type": "Feature"}
{"geometry": {"coordinates": [-94.426203, 35.948073], "type": "Point"}, "id": "Xtd8NaJjf3RJfNZ3Qpq7wpjkQrI=", "properties": {"@spider": "usps_collection_boxes", "addr:city": "LINCOLN", "addr:country": "US", "addr:full": "304 W PRIDEMORE DR", "addr:postcode": "72744", "addr:state": "AR", "brand": "USPS", "brand:wikidata": "Q668687", "collection_times": "Mo-Fr 16:45; Sa 15:30", "name": "USPS COLLECTION BOX - PO LOBBY", "note": "ON 12/24 AND 12/31, THIS BOX MAY BE COLLECTED AS EARLY AS 12 NOON.", "ref": "7274400003"}, "type": "Feature"}
{"geometry": {"coordinates": [-94.425966535, 35.948021096], "type": "Point"}, "id": "x06-kxdAdgnD6GQ1XrDS4Cxi1h4=", "properties": {"@spider": "usps_collection_boxes", "addr:city": "LINCOLN", "addr:country": "US", "addr:full": "304 W PRIDEMORE DR", "addr:postcode": "72744", "addr:state": "AR", "brand": "USPS", "brand:wikidata": "Q668687", "collection_times": "Mo-Fr 16:00; Sa 10:30", "name": "USPS COLLECTION BOX - PO LOBBY", "note": "ON 12/24 AND 12/31, THIS BOX MAY BE COLLECTED AS EARLY AS 12 NOON.", "ref": "7274400004"}, "type": "Feature"}
{"geometry": {"coordinates": [-94.132394086, 36.252027199], "type": "Point"}, "id": "2CapGQ9D-p78IIpvEgI1u5iI3U4=", "properties": {"@spider": "usps_collection_boxes", "addr:city": "LOWELL", "addr:country": "US", "addr:full": "202 S LINCOLN ST", "addr:postcode": "72745", "addr:state": "AR", "brand": "USPS", "brand:wikidata": "Q668687", "collection_times": "Mo-Sa 16:30", "name": "USPS COLLECTION BOX - PO LOBBY", "note": "ON 12/24 AND 12/31, THIS BOX MAY BE COLLECTED AS EARLY AS 12 NOON.", "ref": "7274500002"}, "type": "Feature"}
{"geometry": {"coordinates": [-94.1545129, 36.255082], "type": "Point"}, "id": "5IVU9OxRJ20vB6qNqabu9S_cnhc=", "properties": {"@spider": "usps_collection_boxes", "addr:city": "LOWELL", "addr:country": "US", "addr:full": "816 W MONROE AVE", "addr:postcode": "72745", "addr:state": "AR", "brand": "USPS", "brand:wikidata": "Q668687", "collection_times": "Mo-Sa 10:30", "name": "USPS COLLECTION BOX - BLUE BOX", "ref": "7274500003"}, "type": "Feature"}
{"geometry": {"coordinates": [-94.132394086, 36.252027199], "type": "Point"}, "id": "R-t7Qljmz5YoY5ZAdEsHSpYe-VY=", "properties": {"@spider": "usps_collection_boxes", "addr:city": "LOWELL", "addr:country": "US", "addr:full": "202 S LINCOLN ST", "addr:postcode": "72745", "addr:state": "AR", "brand": "USPS", "brand:wikidata": "Q668687", "collection_times": "Mo-Sa 16:30", "name": "USPS COLLECTION BOX - PO LOBBY", "note": "ON 12/24 AND 12/31, THIS BOX MAY BE COLLECTED AS EARLY AS 12 NOON.", "ref": "7274500005"}, "type": "Feature"}
{"geometry": {"coordinates": [-94.132394086, 36.252027199], "type": "Point"}, "id": "R5KDbIMlb-Xux9rJzqf0b7Dd42Q=", "properties": {"@spider": "usps_collection_boxes", "addr:city": "LOWELL", "addr:country": "US", "addr:full": "202 S LINCOLN ST", "addr:postcode": "72745", "addr:state": "AR", "brand": "USPS", "brand:wikidata": "Q668687", "collection_times": "Mo-Fr 16:30", "name": "USPS COLLECTION BOX - PO LOBBY", "note": "ON 12/24 AND 12/31, THIS BOX MAY BE COLLECTED AS EARLY AS 12 NOON.", "ref": "7274500007"}, "type": "Feature"}
{"geometry": {"coordinates": [-94.132394086, 36.252027199], "type": "Point"}, "id": "TLFa7GoNwbziZo6Q3vXON9o3udQ=", "properties": {"@spider": "usps_collection_boxes", "addr:city": "LOWELL", "addr:country": "US", "addr:full": "202 S LINCOLN ST", "addr:postcode": "72745", "addr:state": "AR", "brand": "USPS", "brand:wikidata": "Q668687", "collection_times": "Mo-Sa 16:30", "name": "USPS COLLECTION BOX - BLUE BOX", "note": "ON 12/24 AND 12/31, THIS BOX MAY BE COLLECTED AS EARLY AS 12 NOON.", "ref": "7274500009"}, "type": "Feature"}
{"geometry": {"coordinates": [-94.602051, 36.402414], "type": "Point"}, "id": "4lgx5HELAjBIk9bye3Jjps-bEYM=", "properties": {"@spider": "usps_collection_boxes", "addr:city": "MAYSVILLE", "addr:country": "US", "addr:full": "11776 N HIGHWAY 43", "addr:postcode": "72747", "addr:state": "AR", "brand": "USPS", "brand:wikidata": "Q668687", "collection_times": "Mo-Fr 14:45; Sa 12:45", "name": "USPS COLLECTION BOX - BLUE BOX", "note": "ON 12/24 AND 12/31, THIS BOX MAY BE COLLECTED AS EARLY AS 12 NOON.", "ref": "7274700000"}, "type": "Feature"}
{"geometry": {"coordinates": [-94.602051, 36.402414], "type": "Point"}, "id": "vagwrEph6iTns6C3HXPBPkRJXDY=", "properties": {"@spider": "usps_collection_boxes", "addr:city": "MAYSVILLE", "addr:country": "US", "addr:full": "11776 N HIGHWAY 43", "addr:postcode": "72747", "addr:state": "AR", "brand": "USPS", "brand:wikidata": "Q668687", "collection_times": "Mo-Fr 14:45; Sa 12:45", "name": "USPS COLLECTION BOX - PO LOBBY", "note": "ON 12/24 AND 12/31, THIS BOX MAY BE COLLECTED AS EARLY AS 12 NOON.", "ref": "7274700001"}, "type": "Feature"}
{"geometry": {"coordinates": [-94.6018769323, 36.4034950722], "type": "Point"}, "id": "P4iXNolAyJ-kJQ1t1kHLbKyAsdI=", "properties": {"@spider": "usps_collection_boxes", "addr:city": "MAYSVILLE", "addr:country": "US", "addr:full": "11776 N HIGHWAY 43", "addr:postcode": "72747", "addr:state": "AR", "brand": "USPS", "brand:wikidata": "Q668687", "collection_times": "Mo-Fr 15:00; Sa 13:00", "name": "USPS COLLECTION BOX - PO LOBBY", "note": "ON 12/24 AND 12/31, THIS BOX MAY BE COLLECTED AS EARLY AS 12 NOON.", "ref": "7274700002"}, "type": "Feature"}
{"geometry": {"coordinates": [-94.437105, 35.858611], "type": "Point"}, "id": "6qyqYLGWGzhILtVKq-0ZUI41Ue8=", "properties": {"@spider": "usps_collection_boxes", "addr:city": "MORROW", "addr:country": "US", "addr:full": "17149 HALE MOUNTAIN RD", "addr:postcode": "72749", "addr:state": "AR", "brand": "USPS", "brand:wikidata": "Q668687", "collection_times": "Mo-Sa 13:30", "name": "USPS COLLECTION BOX - BLUE BOX", "note": "ON 12/24 AND 12/31, THIS BOX MAY BE COLLECTED AS EARLY AS 12 NOON.", "ref": "7274900000"}, "type": "Feature"}
{"geometry": {"coordinates": [-94.437105, 35.858611], "type": "Point"}, "id": "wJVWbxz02I5TDX-gSrt7fhBlSfw=", "properties": {"@spider": "usps_collection_boxes", "addr:city": "MORROW", "addr:country": "US", "addr:full": "17149 HALE MOUNTAIN RD", "addr:postcode": "72749", "addr:state": "AR", "brand": "USPS", "brand:wikidata": "Q668687", "collection_times": "Mo-Sa 13:30", "name": "USPS COLLECTION BOX - PO LOBBY", "note": "ON 12/24 AND 12/31, THIS BOX MAY BE COLLECTED AS EARLY AS 12 NOON.", "ref": "7274900001"}, "type": "Feature"}
{"geometry": {"coordinates": [-94.437103871, 35.85861109], "type": "Point"}, "id": "Xh5YA7aPhLxHlA-ROHS9ETKYr8c=", "properties": {"@spider": "usps_collection_boxes", "addr:city": "MORROW", "addr:country": "US", "addr:full": "17149 HALE MOUNTAIN RD", "addr:postcode": "72749", "addr:state": "AR", "brand": "USPS", "brand:wikidata": "Q668687", "collection_times": "Mo-Sa 14:00", "name": "USPS COLLECTION BOX - PO LOBBY", "note": "ON 12/24 AND 12/31, THIS BOX MAY BE COLLECTED AS EARLY AS 12 NOON.", "ref": "7274900002"}, "type": "Feature"}
{"geometry": {"coordinates": [-94.11601, 36.444454], "type": "Point"}, "id": "PGUEKtbiYFn_94M894ZVyVQO0B8=", "properties": {"@spider": "usps_collection_boxes", "addr:city": "PEA RIDGE", "addr:country": "US", "addr:full": "468 N CURTIS AVE", "addr:postcode": "72751", "addr:state": "AR", "brand": "USPS", "brand:wikidata": "Q668687", "collection_times": "Mo-Fr 16:30; Sa 11:00", "name": "USPS COLLECTION BOX - BLUE BOX", "note": "ON 12/24 AND 12/31, THIS BOX MAY BE COLLECTED AS EARLY AS 12 NOON.", "ref": "7275100000"}, "type": "Feature"}
{"geometry": {"coordinates": [-94.11601, 36.444454], "type": "Point"}, "id": "-2lE4TYhu1pcJf75mk8ARw6SeuE=", "properties": {"@spider": "usps_collection_boxes", "addr:city": "PEA RIDGE", "addr:country": "US", "addr:full": "468 N CURTIS AVE", "addr:postcode": "72751", "addr:state": "AR", "brand": "USPS", "brand:wikidata": "Q668687", "collection_times": "Mo-Fr 16:30; Sa 11:00", "name": "USPS COLLECTION BOX - PO LOBBY", "note": "ON 12/24 AND 12/31, THIS BOX MAY BE COLLECTED AS EARLY AS 12 NOON.", "ref": "7275100001"}, "type": "Feature"}
{"geometry": {"coordinates": [-94.11601, 36.444454], "type": "Point"}, "id": "qTwrnh_VyONYTrv_y1Mp_2OwyUY=", "properties": {"@spider": "usps_collection_boxes", "addr:city": "PEA RIDGE", "addr:country": "US", "addr:full": "468 N CURTIS AVE", "addr:postcode": "72751", "addr:state": "AR", "brand": "USPS", "brand:wikidata": "Q668687", "collection_times": "Mo-Fr 16:30; Sa 11:00", "name": "USPS COLLECTION BOX - PO LOBBY", "note": "ON 12/24 AND 12/31, THIS BOX MAY BE COLLECTED AS EARLY AS 12 NOON.", "ref": "7275100003"}, "type": "Feature"}
{"geometry": {"coordinates": [-94.11601, 36.444454], "type": "Point"}, "id": "AXO-6bKK1jS4CSa_Jzz_zUu7xX8=", "properties": {"@spider": "usps_collection_boxes", "addr:city": "PEA RIDGE", "addr:country": "US", "addr:full": "468 N CURTIS AVE", "addr:postcode": "72751", "addr:state": "AR", "brand": "USPS", "brand:wikidata": "Q668687", "collection_times": "Mo-Fr 16:30; Sa 11:00", "name": "USPS COLLECTION BOX - PO LOBBY", "note": "ON 12/24 AND 12/31, THIS BOX MAY BE COLLECTED AS EARLY AS 12 NOON.", "ref": "7275100004"}, "type": "Feature"}
{"geometry": {"coordinates": [-94.11601, 36.444454], "type": "Point"}, "id": "cYxFIQf7SZNhG8bOCYIxrJqMDxM=", "properties": {"@spider": "usps_collection_boxes", "addr:city": "PEA RIDGE", "addr:country": "US", "addr:full": "468 N CURTIS AVE", "addr:postcode": "72751", "addr:state": "AR", "brand": "USPS", "brand:wikidata": "Q668687", "collection_times": "Mo-Fr 16:30; Sa 11:00", "name": "USPS COLLECTION BOX - PO LOBBY", "note": "ON 12/24 AND 12/31, THIS BOX MAY BE COLLECTED AS EARLY AS 12 NOON.", "ref": "7275100005"}, "type": "Feature"}
{"geometry": {"coordinates": [-94.115987346, 36.444469041], "type": "Point"}, "id": "FAM5IHmCeg1D2YALFHjf-sHF70k=", "properties": {"@spider": "usps_collection_boxes", "addr:city": "PEA RIDGE", "addr:country": "US", "addr:full": "468 N CURTIS AVE", "addr:postcode": "72751", "addr:state": "AR", "brand": "USPS", "brand:wikidata": "Q668687", "collection_times": "Mo-Fr 16:30; Sa 11:00", "name": "USPS COLLECTION BOX - PO LOBBY", "note": "ON 12/24 AND 12/31, THIS BOX MAY BE COLLECTED AS EARLY AS 12 NOON.", "ref": "7275100006"}, "type": "Feature"}
{"geometry": {"coordinates": [-93.6495749809, 35.8169619999], "type": "Point"}, "id": "cUZIrANZyQxl9TuBy9UkOfzQeYA=", "properties": {"@spider": "usps_collection_boxes", "addr:city": "PETTIGREW", "addr:country": "US", "addr:full": "23170 HIGHWAY 16", "addr:postcode": "72752", "addr:state": "AR", "brand": "USPS", "brand:wikidata": "Q668687", "collection_times": "Mo-Fr 14:15; Sa 12:15", "name": "USPS COLLECTION BOX - BLUE BOX", "note": "ON 12/24 AND 12/31, THIS BOX MAY BE COLLECTED AS EARLY AS 12 NOON.", "ref": "7275200001"}, "type": "Feature"}
{"geometry": {"coordinates": [-93.6495749809, 35.8169619999], "type": "Point"}, "id": "49vMA8OBJm81xbXGV2bxxgoVbEk=", "properties": {"@spider": "usps_collection_boxes", "addr:city": "PETTIGREW", "addr:country": "US", "addr:full": "23170 HIGHWAY 16", "addr:postcode": "72752", "addr:state": "AR", "brand": "USPS", "brand:wikidata": "Q668687", "collection_times": "Mo-Fr 14:15; Sa 12:15", "name": "USPS COLLECTION BOX - PO LOBBY", "note": "ON 12/24 AND 12/31, THIS BOX MAY BE COLLECTED AS EARLY AS 12 NOON.", "ref": "7275200002"}, "type": "Feature"}
{"geometry": {"coordinates": [-93.6495749809, 35.8169619999], "type": "Point"}, "id": "4vPoBKhm35FrSXl-IRSjC1jrSTQ=", "properties": {"@spider": "usps_collection_boxes", "addr:city": "PETTIGREW", "addr:country": "US", "addr:full": "23170 HIGHWAY 16", "addr:postcode": "72752", "addr:state": "AR", "brand": "USPS", "brand:wikidata": "Q668687", "collection_times": "Mo-Fr 14:15; Sa 12:30", "name": "USPS COLLECTION BOX - PO LOBBY", "note": "ON 12/24 AND 12/31, THIS BOX MAY BE COLLECTED AS EARLY AS 12 NOON.", "ref": "7275200003"}, "type": "Feature"}
{"geometry": {"coordinates": [-94.320418, 35.975624], "type": "Point"}, "id": "0zttkeEybXTKynP4xr5x42cDh54=", "properties": {"@spider": "usps_collection_boxes", "addr:city": "PRAIRIE GROVE", "addr:country": "US", "addr:full": "221 W BUCHANAN ST", "addr:postcode": "72753", "addr:state": "AR", "brand": "USPS", "brand:wikidata": "Q668687", "collection_times": "Mo-Fr 16:30; Sa 14:30", "name": "USPS COLLECTION BOX - BLUE BOX", "note": "ON 12/24 AND 12/31, THIS BOX MAY BE COLLECTED AS EARLY AS 12 NOON.", "ref": "7275300001"}, "type": "Feature"}
{"geometry": {"coordinates": [-94.320418, 35.975624], "type": "Point"}, "id": "ovHWkN1zrfIZ4eFwCzQngQ0VvCk=", "properties": {"@spider": "usps_collection_boxes", "addr:city": "PRAIRIE GROVE", "addr:country": "US", "addr:full": "221 W BUCHANAN ST", "addr:postcode": "72753", "addr:state": "AR", "brand": "USPS", "brand:wikidata": "Q668687", "collection_times": "Mo-Fr 16:30; Sa 14:30", "name": "USPS COLLECTION BOX - PO LOBBY", "note": "ON 12/24 AND 12/31, THIS BOX MAY BE COLLECTED AS EARLY AS 12 NOON.", "ref": "7275300002"}, "type": "Feature"}
{"geometry": {"coordinates": [-94.320418, 35.975624], "type": "Point"}, "id": "8C9-NFNotfxR4SJDofDfOOmmlbM=", "properties": {"@spider": "usps_collection_boxes", "addr:city": "PRAIRIE GROVE", "addr:country": "US", "addr:full": "221 W BUCHANAN ST", "addr:postcode": "72753", "addr:state": "AR", "brand": "USPS", "brand:wikidata": "Q668687", "collection_times": "Mo-Fr 16:30; Sa 14:30", "name": "USPS COLLECTION BOX - BLUE BOX", "note": "ON 12/24 AND 12/31, THIS BOX MAY BE COLLECTED AS EARLY AS 12 NOON.", "ref": "7275300003"}, "type": "Feature"}
{"geometry": {"coordinates": [-94.320418, 35.975624], "type": "Point"}, "id": "m8NlgBAIL8rXSrnIKz_ispvK00I=", "properties": {"@spider": "usps_collection_boxes", "addr:city": "PRAIRIE GROVE", "addr:country": "US", "addr:full": "221 W BUCHANAN ST", "addr:postcode": "72753", "addr:state": "AR", "brand": "USPS", "brand:wikidata": "Q668687", "collection_times": "Mo-Fr 16:30; Sa 14:30", "name": "USPS COLLECTION BOX - PO LOBBY", "note": "ON 12/24 AND 12/31, THIS BOX MAY BE COLLECTED AS EARLY AS 12 NOON.", "ref": "7275300004"}, "type": "Feature"}
{"geometry": {"coordinates": [-94.320520199, 35.975608663], "type": "Point"}, "id": "smHCvoQBVy_EjHHy1j7-6Yo74dw=", "properties": {"@spider": "usps_collection_boxes", "addr:city": "PRAIRIE GROVE", "addr:country": "US", "addr:full": "221 W BUCHANAN ST", "addr:postcode": "72753", "addr:state": "AR", "brand": "USPS", "brand:wikidata": "Q668687", "collection_times": "Mo-Fr 16:30; Sa 11:00", "name": "USPS COLLECTION BOX - PO LOBBY", "note": "ON 12/24 AND 12/31, THIS BOX MAY BE COLLECTED AS EARLY AS 12 NOON.", "ref": "7275300006"}, "type": "Feature"}
{"geometry": {"coordinates": [-94.1277680053, 36.3172270061], "type": "Point"}, "id": "k7Gp4znqASsDlgD6_zyO93vJcfI=", "properties": {"@spider": "usps_collection_boxes", "addr:city": "ROGERS", "addr:country": "US", "addr:full": "1618 S 8TH ST", "addr:postcode": "72756", "addr:state": "AR", "brand": "USPS", "brand:wikidata": "Q668687", "collection_times": "Mo-Sa 14:00", "name": "USPS COLLECTION BOX - BLUE BOX", "note": "ON 12/24 AND 12/31, THIS BOX MAY BE COLLECTED AS EARLY AS 12 NOON.", "ref": "7275600002"}, "type": "Feature"}
{"geometry": {"coordinates": [-94.1599158, 36.334712], "type": "Point"}, "id": "U-Vb1lAFdhRUy5xHmPRWOMSIers=", "properties": {"@spider": "usps_collection_boxes", "addr:city": "ROGERS", "addr:country": "US", "addr:full": "5 HALSTED CIR", "addr:postcode": "72756", "addr:state": "AR", "brand": "USPS", "brand:wikidata": "Q668687", "collection_times": "Mo-Sa 15:00", "name": "USPS COLLECTION BOX - BLUE BOX", "note": "ON 12/24 AND 12/31, THIS BOX MAY BE COLLECTED AS EARLY AS 12 NOON.", "ref": "7275600008"}, "type": "Feature"}
{"geometry": {"coordinates": [-94.1483369, 36.339128], "type": "Point"}, "id": "iiFYM0s4ZpHSFtlRaiawNRQvzUc=", "properties": {"@spider": "usps_collection_boxes", "addr:city": "ROGERS", "addr:country": "US", "addr:full": "2200 W LOCUST ST", "addr:postcode": "72756", "addr:state": "AR", "brand": "USPS", "brand:wikidata": "Q668687", "collection_times": "Mo-Sa 12:30", "name": "USPS COLLECTION BOX - BLUE BOX", "note": "ON 12/24 AND 12/31, THIS BOX MAY BE COLLECTED AS EARLY AS 12 NOON.", "ref": "7275600010"}, "type": "Feature"}
{"geometry": {"coordinates": [-94.1183849, 36.333851], "type": "Point"}, "id": "y_oFnVSYpL4l63JURxhpY7XGbhQ=", "properties": {"@spider": "usps_collection_boxes", "addr:city": "ROGERS", "addr:country": "US", "addr:full": "109 N 3RD ST", "addr:postcode": "72756", "addr:state": "AR", "brand": "USPS", "brand:wikidata": "Q668687", "collection_times": "Mo-Sa 12:00", "name": "USPS COLLECTION BOX - BLUE BOX", "ref": "7275600011"}, "type": "Feature"}
{"geometry": {"coordinates": [-94.1185999, 36.335371], "type": "Point"}, "id": "qwKzz3tuc5O8n5-26Im4bvJ0lbU=", "properties": {"@spider": "usps_collection_boxes", "addr:city": "ROGERS", "addr:country": "US", "addr:full": "306 N 3RD ST", "addr:postcode": "72756", "addr:state": "AR", "brand": "USPS", "brand:wikidata": "Q668687", "collection_times": "Mo-Sa 12:00", "name": "USPS COLLECTION BOX - BLUE BOX", "ref": "7275600012"}, "type": "Feature"}
{"geometry": {"coordinates": [-94.1517316, 36.338103], "type": "Point"}, "id": "803t_rNp49Z17cH-CbYzjB5jNyI=", "properties": {"@spider": "usps_collection_boxes", "addr:city": "ROGERS", "addr:country": "US", "addr:full": "2300 W BEECHWOOD DR", "addr:postcode": "72756", "addr:state": "AR", "brand": "USPS", "brand:wikidata": "Q668687", "collection_times": "Mo-Sa 12:00", "name": "USPS COLLECTION BOX - BLUE BOX", "ref": "7275600014"}, "type": "Feature"}
{"geometry": {"coordinates": [-94.1454784, 36.335394], "type": "Point"}, "id": "muipyvFnD6jbSp-VhLL675UKPm8=", "properties": {"@spider": "usps_collection_boxes", "addr:city": "ROGERS", "addr:country": "US", "addr:full": "100 N DIXIELAND RD", "addr:postcode": "72756", "addr:state": "AR", "brand": "USPS", "brand:wikidata": "Q668687", "collection_times": "Mo-Sa 15:00", "name": "USPS COLLECTION BOX - BLUE BOX", "note": "ON 12/24 AND 12/31, THIS BOX MAY BE COLLECTED AS EARLY AS 12 NOON.", "ref": "7275600015"}, "type": "Feature"}
{"geometry": {"coordinates": [-94.1224612, 36.348224], "type": "Point"}, "id": "jJhvLwu4vnG5HKflrzyvKz3LC60=", "properties": {"@spider": "usps_collection_boxes", "addr:city": "ROGERS", "addr:country": "US", "addr:full": "601 W EASY ST", "addr:postcode": "72756", "addr:state": "AR", "brand": "USPS", "brand:wikidata": "Q668687", "collection_times": "Mo-Sa 10:30", "name": "USPS COLLECTION BOX - BLUE BOX", "ref": "7275600016"}, "type": "Feature"}
{"geometry": {"coordinates": [-94.1161949, 36.354384], "type": "Point"}, "id": "IOQgqU5LjC9sGWyfsp1hsYDwZ4E=", "properties": {"@spider": "usps_collection_boxes", "addr:city": "ROGERS", "addr:country": "US", "addr:full": "2403 N 2ND ST", "addr:postcode": "72756", "addr:state": "AR", "brand": "USPS", "brand:wikidata": "Q668687", "collection_times": "Mo-Sa 14:00", "name": "USPS COLLECTION BOX - BLUE BOX", "note": "ON 12/24 AND 12/31, THIS BOX MAY BE COLLECTED AS EARLY AS 12 NOON.", "ref": "7275600017"}, "type": "Feature"}
{"geometry": {"coordinates": [-94.1519229739, 36.3407050103], "type": "Point"}, "id": "uLrurkVHBzRcOVpOUj2CVTW1i_I=", "properties": {"@spider": "usps_collection_boxes", "addr:city": "ROGERS", "addr:country": "US", "addr:full": "701 N 24TH ST.", "addr:postcode": "72756", "addr:state": "AR", "brand": "USPS", "brand:wikidata": "Q668687", "collection_times": "Mo-Sa 13:00", "name": "USPS COLLECTION BOX - BLUE BOX", "note": "ON 12/24 AND 12/31, THIS BOX MAY BE COLLECTED AS EARLY AS 12 NOON.", "ref": "7275600024"}, "type": "Feature"}
{"geometry": {"coordinates": [-94.0625399, 36.341854], "type": "Point"}, "id": "Thva5ipXpIgAD7Ujs7TqZUzjcoQ=", "properties": {"@spider": "usps_collection_boxes", "addr:city": "ROGERS", "addr:country": "US", "addr:full": "14432 E HIGHWAY 12", "addr:postcode": "72756", "addr:state": "AR", "brand": "USPS", "brand:wikidata": "Q668687", "collection_times": "Mo-Sa 14:00", "name": "USPS COLLECTION BOX - BLUE BOX", "note": "ON 12/24 AND 12/31, THIS BOX MAY BE COLLECTED AS EARLY AS 12 NOON.", "ref": "7275600026"}, "type": "Feature"}
{"geometry": {"coordinates": [-94.1484217, 36.357656], "type": "Point"}, "id": "ZB4Pm22QO15vRs_TM7G0UfXrdm0=", "properties": {"@spider": "usps_collection_boxes", "addr:city": "ROGERS", "addr:country": "US", "addr:full": "2900 N 22ND ST", "addr:postcode": "72756", "addr:state": "AR", "brand": "USPS", "brand:wikidata": "Q668687", "collection_times": "Mo-Sa 12:00", "name": "USPS COLLECTION BOX - BLUE BOX", "ref": "7275600028"}, "type": "Feature"}
{"geometry": {"coordinates": [-94.1652504, 36.346111], "type": "Point"}, "id": "xbw0xvyB4DRN0VaGFTPos-I-0Uc=", "properties": {"@spider": "usps_collection_boxes", "addr:city": "ROGERS", "addr:country": "US", "addr:full": "1100 N 31ST ST", "addr:postcode": "72756", "addr:state": "AR", "brand": "USPS", "brand:wikidata": "Q668687", "collection_times": "Mo-Sa 10:00", "name": "USPS COLLECTION BOX - BLUE BOX", "ref": "7275600029"}, "type": "Feature"}
{"geometry": {"coordinates": [-94.125657, 36.336658], "type": "Point"}, "id": "XzvBNuEFPkF-Xx5DtnKn-_WmCRc=", "properties": {"@spider": "usps_collection_boxes", "addr:city": "ROGERS", "addr:country": "US", "addr:full": "401 N 8TH ST", "addr:postcode": "72756", "addr:state": "AR", "brand": "USPS", "brand:wikidata": "Q668687", "collection_times": "Mo-Fr 17:15; Sa 16:15", "name": "USPS COLLECTION BOX - BLUE BOX", "note": "ON 12/24 AND 12/31, THIS BOX MAY BE COLLECTED AS EARLY AS 12 NOON.", "ref": "7275600032"}, "type": "Feature"}
{"geometry": {"coordinates": [-94.125657, 36.336658], "type": "Point"}, "id": "ncwp8dcLMyuCsSDO7mporg4BkbQ=", "properties": {"@spider": "usps_collection_boxes", "addr:city": "ROGERS", "addr:country": "US", "addr:full": "401 N 8TH ST", "addr:postcode": "72756", "addr:state": "AR", "brand": "USPS", "brand:wikidata": "Q668687", "collection_times": "Mo-Fr 17:15; Sa 16:15", "name": "USPS COLLECTION BOX - BLUE BOX", "note": "ON 12/24 AND 12/31, THIS BOX MAY BE COLLECTED AS EARLY AS 12 NOON.", "ref": "7275600033"}, "type": "Feature"}
{"geometry": {"coordinates": [-94.1174662, 36.332307], "type": "Point"}, "id": "iuRNkvIT372_M2PizJka1RQacbg=", "properties": {"@spider": "usps_collection_boxes", "addr:city": "ROGERS", "addr:country": "US", "addr:full": "123 S 2ND ST", "addr:postcode": "72756", "addr:state": "AR", "brand": "USPS", "brand:wikidata": "Q668687", "collection_times": "Mo-Sa 12:00", "name": "USPS COLLECTION BOX - BLUE BOX", "ref": "7275600040"}, "type": "Feature"}
{"geometry": {"coordinates": [-94.1796307, 36.343743], "type": "Point"}, "id": "13wwveWg4_dyJ1gsJYZuvNQJT0Y=", "properties": {"@spider": "usps_collection_boxes", "addr:city": "ROGERS", "addr:country": "US", "addr:full": "901 N 47TH ST", "addr:postcode": "72756", "addr:state": "AR", "brand": "USPS", "brand:wikidata": "Q668687", "collection_times": "Mo-Fr 15:00; Sa 10:00", "name": "USPS COLLECTION BOX - BLUE BOX", "note": "ON 12/24 AND 12/31, THIS BOX MAY BE COLLECTED AS EARLY AS 12 NOON.", "ref": "7275600048"}, "type": "Feature"}
{"geometry": {"coordinates": [-94.1910683, 36.317336], "type": "Point"}, "id": "2FMgjrFeqOflW077oIHWAfb4i48=", "properties": {"@spider": "usps_collection_boxes", "addr:city": "ROGERS", "addr:country": "US", "addr:full": "5305 W VILLAGE PKWY", "addr:postcode": "72756", "addr:state": "AR", "brand": "USPS", "brand:wikidata": "Q668687", "collection_times": "Mo-Sa 15:00", "name": "USPS COLLECTION BOX - BLUE BOX", "note": "ON 12/24 AND 12/31, THIS BOX MAY BE COLLECTED AS EARLY AS 12 NOON.", "ref": "7275600058"}, "type": "Feature"}
{"geometry": {"coordinates": [-94.144199, 36.359435], "type": "Point"}, "id": "KhH5cKsFDkDE5Mllgodz690Q-E8=", "properties": {"@spider": "usps_collection_boxes", "addr:city": "ROGERS", "addr:country": "US", "addr:full": "2900 N DIXIELAND RD", "addr:postcode": "72756", "addr:state": "AR", "brand": "USPS", "brand:wikidata": "Q668687", "collection_times": "Mo-Sa 13:00", "name": "USPS COLLECTION BOX - BLUE BOX", "note": "ON 12/24 AND 12/31, THIS BOX MAY BE COLLECTED AS EARLY AS 12 NOON.", "ref": "7275600059"}, "type": "Feature"}
{"geometry": {"coordinates": [-94.1086847, 36.322307], "type": "Point"}, "id": "c2ag3wl8vNMhfw9UA8iGbXEhSL4=", "properties": {"@spider": "usps_collection_boxes", "addr:city": "ROGERS", "addr:country": "US", "addr:full": "1203 MONTE NE RD", "addr:postcode": "72756", "addr:state": "AR", "brand": "USPS", "brand:wikidata": "Q668687", "collection_times": "Mo-Sa 13:30", "name": "USPS COLLECTION BOX - BLUE BOX", "note": "ON 12/24 AND 12/31, THIS BOX MAY BE COLLECTED AS EARLY AS 12 NOON.", "ref": "7275600060"}, "type": "Feature"}
{"geometry": {"coordinates": [-94.188960201, 36.311814489], "type": "Point"}, "id": "RlqZ1YTwioP31CrBnAN85knmw3M=", "properties": {"@spider": "usps_collection_boxes", "addr:city": "ROGERS", "addr:country": "US", "addr:full": "5417 W PINNACLE POINTE DR", "addr:postcode": "72756", "addr:state": "AR", "brand": "USPS", "brand:wikidata": "Q668687", "collection_times": "Mo-Fr 15:00; Sa 14:00", "name": "USPS COLLECTION BOX - BLUE BOX", "note": "ON 12/24 AND 12/31, THIS BOX MAY BE COLLECTED AS EARLY AS 12 NOON.", "ref": "7275600065"}, "type": "Feature"}
{"geometry": {"coordinates": [-94.1246265, 36.31299], "type": "Point"}, "id": "Dowsnr4cqxxt1FTxo8Tw7sabNQc=", "properties": {"@spider": "usps_collection_boxes", "addr:city": "ROGERS", "addr:country": "US", "addr:full": "1817 S 8TH ST", "addr:postcode": "72756", "addr:state": "AR", "brand": "USPS", "brand:wikidata": "Q668687", "collection_times": "Mo-Sa 14:00", "name": "USPS COLLECTION BOX - BLUE BOX", "note": "ON 12/24 AND 12/31, THIS BOX MAY BE COLLECTED AS EARLY AS 12 NOON.", "ref": "7275600066"}, "type": "Feature"}
{"geometry": {"coordinates": [-94.125657, 36.336658], "type": "Point"}, "id": "d5WglJevV0REeOAmt5Zzci-JSJM=", "properties": {"@spider": "usps_collection_boxes", "addr:city": "ROGERS", "addr:country": "US", "addr:full": "401 N 8TH ST", "addr:postcode": "72756", "addr:state": "AR", "brand": "USPS", "brand:wikidata": "Q668687", "collection_times": "Mo-Fr 17:15; Sa 16:15", "name": "USPS COLLECTION BOX - APC", "note": "ON 12/24 AND 12/31, THIS BOX MAY BE COLLECTED AS EARLY AS 12 NOON.", "ref": "7275600069"}, "type": "Feature"}
{"geometry": {"coordinates": [-94.1255944, 36.33164], "type": "Point"}, "id": "P6ddchrkhPqiIT7OuypfSqI3giE=", "properties": {"@spider": "usps_collection_boxes", "addr:city": "ROGERS", "addr:country": "US", "addr:full": "215 S 8TH ST", "addr:postcode": "72756", "addr:state": "AR", "brand": "USPS", "brand:wikidata": "Q668687", "collection_times": "Mo-Sa 13:00", "name": "USPS COLLECTION BOX - BLUE BOX", "note": "ON 12/24 AND 12/31, THIS BOX MAY BE COLLECTED AS EARLY AS 12 NOON.", "ref": "7275600070"}, "type": "Feature"}
{"geometry": {"coordinates": [-94.125657, 36.336658], "type": "Point"}, "id": "1mqpwIcoIbD-WbDdazY4y8av5hw=", "properties": {"@spider": "usps_collection_boxes", "addr:city": "ROGERS", "addr:country": "US", "addr:full": "401 N 8TH ST", "addr:postcode": "72756", "addr:state": "AR", "brand": "USPS", "brand:wikidata": "Q668687", "collection_times": "Mo-Fr 17:15; Sa 16:15", "name": "USPS COLLECTION BOX - PO LOBBY", "note": "ON 12/24 AND 12/31, THIS BOX MAY BE COLLECTED AS EARLY AS 12 NOON.", "ref": "7275600072"}, "type": "Feature"}
{"geometry": {"coordinates": [-94.125657, 36.336658], "type": "Point"}, "id": "8yMGuG6ff9bDVFT70_hiBcMZjzo=", "properties": {"@spider": "usps_collection_boxes", "addr:city": "ROGERS", "addr:country": "US", "addr:full": "401 N 8TH ST", "addr:postcode": "72756", "addr:state": "AR", "brand": "USPS", "brand:wikidata": "Q668687", "collection_times": "Mo-Fr 17:15; Sa 16:15", "name": "USPS COLLECTION BOX - PO LOBBY", "note": "ON 12/24 AND 12/31, THIS BOX MAY BE COLLECTED AS EARLY AS 12 NOON.", "ref": "7275600073"}, "type": "Feature"}
{"geometry": {"coordinates": [-94.125657, 36.336658], "type": "Point"}, "id": "NHNgh6URhNg_1qk4NGDLunDVOn8=", "properties": {"@spider": "usps_collection_boxes", "addr:city": "ROGERS", "addr:country": "US", "addr:full": "401 N 8TH ST", "addr:postcode": "72756", "addr:state": "AR", "brand": "USPS", "brand:wikidata": "Q668687", "collection_times": "Mo-Fr 17:15; Sa 16:15", "name": "USPS COLLECTION BOX - PO LOBBY", "note": "ON 12/24 AND 12/31, THIS BOX MAY BE COLLECTED AS EARLY AS 12 NOON.", "ref": "7275600074"}, "type": "Feature"}
{"geometry": {"coordinates": [-94.1386972, 36.333642], "type": "Point"}, "id": "ZftAZ0RQcx27b_6PK6X_RB1-QX8=", "properties": {"@spider": "usps_collection_boxes", "addr:city": "ROGERS", "addr:country": "US", "addr:full": "1428 W WALNUT ST", "addr:postcode": "72756", "addr:state": "AR", "brand": "USPS", "brand:wikidata": "Q668687", "collection_times": "Mo-Sa 10:00", "name": "USPS COLLECTION BOX - BLUE BOX", "ref": "7275600075"}, "type": "Feature"}
{"geometry": {"coordinates": [-94.1256888867, 36.3363217755], "type": "Point"}, "id": "Rc8QX3ceGA0PUNLG-5T5IUjikxw=", "properties": {"@spider": "usps_collection_boxes", "addr:city": "ROGERS", "addr:country": "US", "addr:full": "401 N 8TH ST", "addr:postcode": "72756", "addr:state": "AR", "brand": "USPS", "brand:wikidata": "Q668687", "collection_times": "Mo-Fr 17:30; Sa 12:00", "name": "USPS COLLECTION BOX - PO LOBBY", "note": "ON 12/24 AND 12/31, THIS BOX MAY BE COLLECTED AS EARLY AS 12 NOON.", "ref": "7275600081"}, "type": "Feature"}
{"geometry": {"coordinates": [-94.1456974, 36.333373], "type": "Point"}, "id": "_UO9wKnP6P-AkcKOIPuE608hv_8=", "properties": {"@spider": "usps_collection_boxes", "addr:city": "ROGERS", "addr:country": "US", "addr:full": "100 S 20TH ST", "addr:postcode": "72758", "addr:state": "AR", "brand": "USPS", "brand:wikidata": "Q668687", "collection_times": "Mo-Fr 14:30; Sa 12:00", "name": "USPS COLLECTION BOX - BLUE BOX", "note": "ON 12/24 AND 12/31, THIS BOX MAY BE COLLECTED AS EARLY AS 12 NOON.", "ref": "7275800008"}, "type": "Feature"}
{"geometry": {"coordinates": [-94.1646121, 36.295033], "type": "Point"}, "id": "FxAfXfg8eiWf8jl4HJPtWtCkgH4=", "properties": {"@spider": "usps_collection_boxes", "addr:city": "ROGERS", "addr:country": "US", "addr:full": "2807 W AJAX AVE", "addr:postcode": "72758", "addr:state": "AR", "brand": "USPS", "brand:wikidata": "Q668687", "collection_times": "Mo-Sa 12:30", "name": "USPS COLLECTION BOX - BLUE BOX", "note": "ON 12/24 AND 12/31, THIS BOX MAY BE COLLECTED AS EARLY AS 12 NOON.", "ref": "7275800009"}, "type": "Feature"}
{"geometry": {"coordinates": [-94.1503654486, 36.2837672449], "type": "Point"}, "id": "p0s1PiRiJ3xo6kwarxXbP4SBLVU=", "properties": {"@spider": "usps_collection_boxes", "addr:city": "ROGERS", "addr:country": "US", "addr:full": "2501 W PLEASANT GROVE RD", "addr:postcode": "72758", "addr:state": "AR", "brand": "USPS", "brand:wikidata": "Q668687", "collection_times": "Mo-Sa 12:00", "name": "USPS COLLECTION BOX - BLUE BOX", "ref": "7275800011"}, "type": "Feature"}
{"geometry": {"coordinates": [-93.7649274873, 35.8241501886], "type": "Point"}, "id": "IiyUBe7HUkFsAiUN9aedn7obWTQ=", "properties": {"@spider": "usps_collection_boxes", "addr:city": "SAINT PAUL", "addr:country": "US", "addr:full": "190 5TH ST", "addr:postcode": "72760", "addr:state": "AR", "brand": "USPS", "brand:wikidata": "Q668687", "collection_times": "Mo-Fr 14:00; Sa 11:45", "name": "USPS COLLECTION BOX - BLUE BOX", "note": "ON 12/24 AND 12/31, THIS BOX MAY BE COLLECTED AS EARLY AS 12 NOON.", "ref": "7276000001"}, "type": "Feature"}
{"geometry": {"coordinates": [-93.764897, 35.824111], "type": "Point"}, "id": "smYzT5K1u76RsDt-RAlfpRKjUgo=", "properties": {"@spider": "usps_collection_boxes", "addr:city": "SAINT PAUL", "addr:country": "US", "addr:full": "190 5TH ST", "addr:postcode": "72760", "addr:state": "AR", "brand": "USPS", "brand:wikidata": "Q668687", "collection_times": "Mo-Fr 13:30; Sa 11:45", "name": "USPS COLLECTION BOX - PO LOBBY", "note": "ON 12/24 AND 12/31, THIS BOX MAY BE COLLECTED AS EARLY AS 12 NOON.", "ref": "7276000002"}, "type": "Feature"}
{"geometry": {"coordinates": [-93.764927487, 35.824150189], "type": "Point"}, "id": "-nHhIIOUkw7kR5oPUMgChxvuNS4=", "properties": {"@spider": "usps_collection_boxes", "addr:city": "SAINT PAUL", "addr:country": "US", "addr:full": "190 5TH ST", "addr:postcode": "72760", "addr:state": "AR", "brand": "USPS", "brand:wikidata": "Q668687", "collection_times": "Mo-Fr 14:00; Sa 12:00", "name": "USPS COLLECTION BOX - PO LOBBY", "note": "ON 12/24 AND 12/31, THIS BOX MAY BE COLLECTED AS EARLY AS 12 NOON.", "ref": "7276000003"}, "type": "Feature"}
{"geometry": {"coordinates": [-94.5406089761, 36.1848775809], "type": "Point"}, "id": "-VMDt4CkGOso2dcJquNiBuT73O8=", "properties": {"@spider": "usps_collection_boxes", "addr:city": "SILOAM SPRINGS", "addr:country": "US", "addr:full": "101 S BROADWAY ST", "addr:postcode": "72761", "addr:state": "AR", "brand": "USPS", "brand:wikidata": "Q668687", "collection_times": "Mo-Fr 14:20; Sa 13:00", "name": "USPS COLLECTION BOX - BLUE BOX", "note": "ON 12/24 AND 12/31, THIS BOX MAY BE COLLECTED AS EARLY AS 12 NOON.", "ref": "7276100001"}, "type": "Feature"}
{"geometry": {"coordinates": [-94.5240259, 36.195507], "type": "Point"}, "id": "9of2ZuVy15tgdfH8p4S5Wwe7VCY=", "properties": {"@spider": "usps_collection_boxes", "addr:city": "SILOAM SPRINGS", "addr:country": "US", "addr:full": "1720 CHERI WHITLOCK DR", "addr:postcode": "72761", "addr:state": "AR", "brand": "USPS", "brand:wikidata": "Q668687", "collection_times": "Mo-Fr 14:00; Sa 13:00", "name": "USPS COLLECTION BOX - BLUE BOX", "note": "ON 12/24 AND 12/31, THIS BOX MAY BE COLLECTED AS EARLY AS 12 NOON.", "ref": "7276100008"}, "type": "Feature"}
{"geometry": {"coordinates": [-94.5401221, 36.172545], "type": "Point"}, "id": "mZ8x8fS7GWeANpWhRxjIjSGa9Ts=", "properties": {"@spider": "usps_collection_boxes", "addr:city": "SILOAM SPRINGS", "addr:country": "US", "addr:full": "1099 S MAXWELL ST", "addr:postcode": "72761", "addr:state": "AR", "brand": "USPS", "brand:wikidata": "Q668687", "collection_times": "Mo-Fr 14:30; Sa 13:00", "name": "USPS COLLECTION BOX - BLUE BOX", "note": "ON 12/24 AND 12/31, THIS BOX MAY BE COLLECTED AS EARLY AS 12 NOON.", "ref": "7276100009"}, "type": "Feature"}
{"geometry": {"coordinates": [-94.550265, 36.176561], "type": "Point"}, "id": "5YM6L2ZDKyIXPFyQpagtkGaZJCw=", "properties": {"@spider": "usps_collection_boxes", "addr:city": "SILOAM SPRINGS", "addr:country": "US", "addr:full": "828 S CARL ST", "addr:postcode": "72761", "addr:state": "AR", "brand": "USPS", "brand:wikidata": "Q668687", "collection_times": "Mo-Fr 17:00; Sa 16:00", "name": "USPS COLLECTION BOX - BLUE BOX", "note": "ON 12/24 AND 12/31, THIS BOX MAY BE COLLECTED AS EARLY AS 12 NOON.", "ref": "7276100014"}, "type": "Feature"}
{"geometry": {"coordinates": [-94.550265, 36.176561], "type": "Point"}, "id": "N8CecnEHecIknAcQd5mcq8JzmmM=", "properties": {"@spider": "usps_collection_boxes", "addr:city": "SILOAM SPRINGS", "addr:country": "US", "addr:full": "828 S CARL ST", "addr:postcode": "72761", "addr:state": "AR", "brand": "USPS", "brand:wikidata": "Q668687", "collection_times": "Mo-Fr 17:00; Sa 16:00", "name": "USPS COLLECTION BOX - PO LOBBY", "note": "ON 12/24 AND 12/31, THIS BOX MAY BE COLLECTED AS EARLY AS 12 NOON.", "ref": "7276100015"}, "type": "Feature"}
{"geometry": {"coordinates": [-94.550265, 36.176561], "type": "Point"}, "id": "SR-t6TGuTIXvUhmTcx6VI8OL9rg=", "properties": {"@spider": "usps_collection_boxes", "addr:city": "SILOAM SPRINGS", "addr:country": "US", "addr:full": "828 S CARL ST", "addr:postcode": "72761", "addr:state": "AR", "brand": "USPS", "brand:wikidata": "Q668687", "collection_times": "Mo-Fr 17:00; Sa 16:00", "name": "USPS COLLECTION BOX - PO LOBBY", "note": "ON 12/24 AND 12/31, THIS BOX MAY BE COLLECTED AS EARLY AS 12 NOON.", "ref": "7276100016"}, "type": "Feature"}
{"geometry": {"coordinates": [-94.550265, 36.176561], "type": "Point"}, "id": "ZGYQzKtnSFceVZQ4ag0ba9nWRbo=", "properties": {"@spider": "usps_collection_boxes", "addr:city": "SILOAM SPRINGS", "addr:country": "US", "addr:full": "828 S CARL ST", "addr:postcode": "72761", "addr:state": "AR", "brand": "USPS", "brand:wikidata": "Q668687", "collection_times": "Mo-Fr 17:00; Sa 16:00", "name": "USPS COLLECTION BOX - BLUE BOX", "note": "ON 12/24 AND 12/31, THIS BOX MAY BE COLLECTED AS EARLY AS 12 NOON.", "ref": "7276100017"}, "type": "Feature"}
{"geometry": {"coordinates": [-94.5127499, 36.181737], "type": "Point"}, "id": "ePfbapy5Wrl3oovkdMJYcCUX-jU=", "properties": {"@spider": "usps_collection_boxes", "addr:city": "SILOAM SPRINGS", "addr:country": "US", "addr:full": "2901 HIGHWAY 412 E", "addr:postcode": "72761", "addr:state": "AR", "brand": "USPS", "brand:wikidata": "Q668687", "collection_times": "Mo-Fr 14:00; Sa 13:00", "name": "USPS COLLECTION BOX - BLUE BOX", "note": "ON 12/24 AND 12/31, THIS BOX MAY BE COLLECTED AS EARLY AS 12 NOON.", "ref": "7276100019"}, "type": "Feature"}
{"geometry": {"coordinates": [-94.550265495, 36.176553283], "type": "Point"}, "id": "l_1rEkGTTc3FneEXrHIE0m7Ymsg=", "properties": {"@spider": "usps_collection_boxes", "addr:city": "SILOAM SPRINGS", "addr:country": "US", "addr:full": "828 S CARL ST", "addr:postcode": "72761", "addr:state": "AR", "brand": "USPS", "brand:wikidata": "Q668687", "collection_times": "Mo-Fr 16:30; Sa 12:00", "name": "USPS COLLECTION BOX - PO LOBBY", "note": "ON 12/24 AND 12/31, THIS BOX MAY BE COLLECTED AS EARLY AS 12 NOON.", "ref": "7276100025"}, "type": "Feature"}
{"geometry": {"coordinates": [-94.1548427, 36.189203], "type": "Point"}, "id": "01KfzHK4Q8pEVeZavRgdw_Bp6rQ=", "properties": {"@spider": "usps_collection_boxes", "addr:city": "SPRINGDALE", "addr:country": "US", "addr:full": "1902 W HUNTSVILLE AVE", "addr:postcode": "72762", "addr:state": "AR", "brand": "USPS", "brand:wikidata": "Q668687", "collection_times": "Mo-Sa 10:00", "name": "USPS COLLECTION BOX - BLUE BOX", "ref": "7276200000"}, "type": "Feature"}
{"geometry": {"coordinates": [-94.1626983, 36.17564], "type": "Point"}, "id": "e1pi-G6-eUtykUxCDSfOsv9e2FU=", "properties": {"@spider": "usps_collection_boxes", "addr:city": "SPRINGDALE", "addr:country": "US", "addr:full": "2804 W SUNSET AVE", "addr:postcode": "72762", "addr:state": "AR", "brand": "USPS", "brand:wikidata": "Q668687", "collection_times": "Mo-Sa 15:00", "name": "USPS COLLECTION BOX - BLUE BOX", "note": "ON 12/24 AND 12/31, THIS BOX MAY BE COLLECTED AS EARLY AS 12 NOON.", "ref": "7276200001"}, "type": "Feature"}
{"geometry": {"coordinates": [-94.1929472216, 36.1756140975], "type": "Point"}, "id": "vkFJZ-rMkaALvDZjcAefDS0G45M=", "properties": {"@spider": "usps_collection_boxes", "addr:city": "SPRINGDALE", "addr:country": "US", "addr:full": "5660A W SUNSET AVE", "addr:postcode": "72762", "addr:state": "AR", "brand": "USPS", "brand:wikidata": "Q668687", "collection_times": "Mo-Sa 08:00", "name": "USPS COLLECTION BOX - BLUE BOX", "ref": "7276200006"}, "type": "Feature"}
{"geometry": {"coordinates": [-94.119273772, 36.16104511], "type": "Point"}, "id": "607Nd5CmHDQHFn1DF15Zj_mWO18=", "properties": {"@spider": "usps_collection_boxes", "addr:city": "SPRINGDALE", "addr:country": "US", "addr:full": "2600 S OLD MISSOURI RD", "addr:postcode": "72764", "addr:state": "AR", "brand": "USPS", "brand:wikidata": "Q668687", "collection_times": "Mo-Sa 14:00", "name": "USPS COLLECTION BOX - BLUE BOX", "note": "ON 12/24 AND 12/31, THIS BOX MAY BE COLLECTED AS EARLY AS 12 NOON.", "ref": "7276400003"}, "type": "Feature"}
{"geometry": {"coordinates": [-94.1168288, 36.184705], "type": "Point"}, "id": "NiXaVrqxZjVyDpH1U5tTo3zYGD8=", "properties": {"@spider": "usps_collection_boxes", "addr:city": "SPRINGDALE", "addr:country": "US", "addr:full": "1116 E EMMA ST", "addr:postcode": "72764", "addr:state": "AR", "brand": "USPS", "brand:wikidata": "Q668687", "collection_times": "Mo-Sa 11:00", "name": "USPS COLLECTION BOX - BLUE BOX", "ref": "7276400005"}, "type": "Feature"}
{"geometry": {"coordinates": [-94.1391226, 36.195981], "type": "Point"}, "id": "JHCqJgQd1KGbgf64Zu8DjmQDdPQ=", "properties": {"@spider": "usps_collection_boxes", "addr:city": "SPRINGDALE", "addr:country": "US", "addr:full": "1300 N THOMPSON ST", "addr:postcode": "72764", "addr:state": "AR", "brand": "USPS", "brand:wikidata": "Q668687", "collection_times": "Mo-Sa 15:00", "name": "USPS COLLECTION BOX - BLUE BOX", "note": "ON 12/24 AND 12/31, THIS BOX MAY BE COLLECTED AS EARLY AS 12 NOON.", "ref": "7276400011"}, "type": "Feature"}
{"geometry": {"coordinates": [-94.1416733, 36.181424], "type": "Point"}, "id": "CYuYc3D-oGDKW_y7EdlWnjtNkqU=", "properties": {"@spider": "usps_collection_boxes", "addr:city": "SPRINGDALE", "addr:country": "US", "addr:full": "1205 W MAPLE AVE", "addr:postcode": "72764", "addr:state": "AR", "brand": "USPS", "brand:wikidata": "Q668687", "collection_times": "Mo-Sa 14:00", "name": "USPS COLLECTION BOX - BLUE BOX", "note": "ON 12/24 AND 12/31, THIS BOX MAY BE COLLECTED AS EARLY AS 12 NOON.", "ref": "7276400013"}, "type": "Feature"}
{"geometry": {"coordinates": [-94.146154, 36.165829], "type": "Point"}, "id": "kzAKubaWbpDckhls2GunUI2dcMA=", "properties": {"@spider": "usps_collection_boxes", "addr:city": "SPRINGDALE", "addr:country": "US", "addr:full": "2004 S PLEASANT ST", "addr:postcode": "72764", "addr:state": "AR", "brand": "USPS", "brand:wikidata": "Q668687", "collection_times": "Mo-Sa 10:00", "name": "USPS COLLECTION BOX - BLUE BOX", "ref": "7276400017"}, "type": "Feature"}
{"geometry": {"coordinates": [-94.1389784827, 36.1740237172], "type": "Point"}, "id": "IY7YvnjhQgEln0GSIecw9dy6bWE=", "properties": {"@spider": "usps_collection_boxes", "addr:city": "SPRINGDALE", "addr:country": "US", "addr:full": "1101 S THOMPSON ST", "addr:postcode": "72764", "addr:state": "AR", "brand": "USPS", "brand:wikidata": "Q668687", "collection_times": "Mo-Sa 10:00", "name": "USPS COLLECTION BOX - BLUE BOX", "ref": "7276400018"}, "type": "Feature"}
{"geometry": {"coordinates": [-94.1311533, 36.181738], "type": "Point"}, "id": "AOa7Dn_1D18EjFH1rKZueeZTZ7Q=", "properties": {"@spider": "usps_collection_boxes", "addr:city": "SPRINGDALE", "addr:country": "US", "addr:full": "429 HOLCOMB ST", "addr:postcode": "72764", "addr:state": "AR", "brand": "USPS", "brand:wikidata": "Q668687", "collection_times": "Mo-Fr 17:00; Sa 16:30", "name": "USPS COLLECTION BOX - BLUE BOX", "note": "ON 12/24 AND 12/31, THIS BOX MAY BE COLLECTED AS EARLY AS 12 NOON.", "ref": "7276400037"}, "type": "Feature"}
{"geometry": {"coordinates": [-94.1313179, 36.18144], "type": "Point"}, "id": "Pq-1KZdmHLJY6hfsLI1JODYjxd4=", "properties": {"@spider": "usps_collection_boxes", "addr:city": "SPRINGDALE", "addr:country": "US", "addr:full": "429 HOLCOMB ST", "addr:postcode": "72764", "addr:state": "AR", "brand": "USPS", "brand:wikidata": "Q668687", "collection_times": "Mo-Fr 17:00; Sa 16:30", "name": "USPS COLLECTION BOX - PO LOBBY", "note": "ON 12/24 AND 12/31, THIS BOX MAY BE COLLECTED AS EARLY AS 12 NOON.", "ref": "7276400038"}, "type": "Feature"}
{"geometry": {"coordinates": [-94.1085869, 36.16734], "type": "Point"}, "id": "JEzJBRXGTJ7xPeJO72t-fo8Etjo=", "properties": {"@spider": "usps_collection_boxes", "addr:city": "SPRINGDALE", "addr:country": "US", "addr:full": "2012 E ROBINSON AVE", "addr:postcode": "72764", "addr:state": "AR", "brand": "USPS", "brand:wikidata": "Q668687", "collection_times": "Mo-Sa 14:00", "name": "USPS COLLECTION BOX - BLUE BOX", "note": "ON 12/24 AND 12/31, THIS BOX MAY BE COLLECTED AS EARLY AS 12 NOON.", "ref": "7276400043"}, "type": "Feature"}
{"geometry": {"coordinates": [-94.1362028, 36.180673], "type": "Point"}, "id": "Zbk5GuK3uofxFNnmDgL-g7nRGiw=", "properties": {"@spider": "usps_collection_boxes", "addr:city": "SPRINGDALE", "addr:country": "US", "addr:full": "609 W MAPLE AVE", "addr:postcode": "72764", "addr:state": "AR", "brand": "USPS", "brand:wikidata": "Q668687", "collection_times": "Mo-Sa 14:00", "name": "USPS COLLECTION BOX - BLUE BOX", "note": "ON 12/24 AND 12/31, THIS BOX MAY BE COLLECTED AS EARLY AS 12 NOON.", "ref": "7276400044"}, "type": "Feature"}
{"geometry": {"coordinates": [-94.1429399, 36.155432], "type": "Point"}, "id": "1IXTFBDH0L5b5aOQ-rL70rmV3Kg=", "properties": {"@spider": "usps_collection_boxes", "addr:city": "SPRINGDALE", "addr:country": "US", "addr:full": "3291 S THOMPSON ST", "addr:postcode": "72764", "addr:state": "AR", "brand": "USPS", "brand:wikidata": "Q668687", "collection_times": "Mo-Sa 09:45", "name": "USPS COLLECTION BOX - BLUE BOX", "ref": "7276400047"}, "type": "Feature"}
{"geometry": {"coordinates": [-94.1437492, 36.16593], "type": "Point"}, "id": "HbN7ccTxs5fhmQjjkyBRf4dfFSE=", "properties": {"@spider": "usps_collection_boxes", "addr:city": "SPRINGDALE", "addr:country": "US", "addr:full": "2012 S THOMPSON ST", "addr:postcode": "72764", "addr:state": "AR", "brand": "USPS", "brand:wikidata": "Q668687", "collection_times": "Mo-Sa 10:00", "name": "USPS COLLECTION BOX - BLUE BOX", "ref": "7276400051"}, "type": "Feature"}
{"geometry": {"coordinates": [-94.1173229, 36.165772], "type": "Point"}, "id": "TVknB-nlio2Oh147WPpZ2_73Iwc=", "properties": {"@spider": "usps_collection_boxes", "addr:city": "SPRINGDALE", "addr:country": "US", "addr:full": "1301 E ROBINSON AVE", "addr:postcode": "72764", "addr:state": "AR", "brand": "USPS", "brand:wikidata": "Q668687", "collection_times": "Mo-Sa 10:00", "name": "USPS COLLECTION BOX - BLUE BOX", "ref": "7276400056"}, "type": "Feature"}
{"geometry": {"coordinates": [-94.1313579, 36.181406], "type": "Point"}, "id": "amVwmpwT83a-U7q_ZmSbmTmXCBA=", "properties": {"@spider": "usps_collection_boxes", "addr:city": "SPRINGDALE", "addr:country": "US", "addr:full": "429 HOLCOMB ST", "addr:postcode": "72764", "addr:state": "AR", "brand": "USPS", "brand:wikidata": "Q668687", "collection_times": "Mo-Fr 17:00; Sa 16:30", "name": "USPS COLLECTION BOX - PO LOBBY", "note": "ON 12/24 AND 12/31, THIS BOX MAY BE COLLECTED AS EARLY AS 12 NOON.", "ref": "7276400060"}, "type": "Feature"}
{"geometry": {"coordinates": [-94.1314119, 36.181384], "type": "Point"}, "id": "RXRC_mNYPsMPH2aoGQNGXXZTa7A=", "properties": {"@spider": "usps_collection_boxes", "addr:city": "SPRINGDALE", "addr:country": "US", "addr:full": "429 HOLCOMB ST", "addr:postcode": "72764", "addr:state": "AR", "brand": "USPS", "brand:wikidata": "Q668687", "collection_times": "Mo-Fr 17:00; Sa 16:30", "name": "USPS COLLECTION BOX - PO LOBBY", "note": "ON 12/24 AND 12/31, THIS BOX MAY BE COLLECTED AS EARLY AS 12 NOON.", "ref": "7276400061"}, "type": "Feature"}
{"geometry": {"coordinates": [-94.161364, 36.174695], "type": "Point"}, "id": "QtzbpvfZieY5BFSsQlPz4c8Na0Q=", "properties": {"@spider": "usps_collection_boxes", "addr:city": "SPRINGDALE", "addr:country": "US", "addr:full": "2811 SPRINGDALE AVE", "addr:postcode": "72764", "addr:state": "AR", "brand": "USPS", "brand:wikidata": "Q668687", "collection_times": "Mo-Sa 17:00", "name": "USPS COLLECTION BOX - PO LOBBY", "note": "ON 12/24 AND 12/31, THIS BOX MAY BE COLLECTED AS EARLY AS 12 NOON.", "ref": "7276400062"}, "type": "Feature"}
{"geometry": {"coordinates": [-94.162082, 36.172818], "type": "Point"}, "id": "CGrwAUSrvYK_Lx_rjVpmWs2WG-0=", "properties": {"@spider": "usps_collection_boxes", "addr:city": "SPRINGDALE", "addr:country": "US", "addr:full": "2811 SPRINGDALE AVE", "addr:postcode": "72764", "addr:state": "AR", "brand": "USPS", "brand:wikidata": "Q668687", "collection_times": "Mo-Sa 17:00", "name": "USPS COLLECTION BOX - PO LOBBY", "note": "ON 12/24 AND 12/31, THIS BOX MAY BE COLLECTED AS EARLY AS 12 NOON.", "ref": "7276400063"}, "type": "Feature"}
{"geometry": {"coordinates": [-94.162082, 36.172818], "type": "Point"}, "id": "dX4qhWOhke-a2AdlvdZ0vCPw_V0=", "properties": {"@spider": "usps_collection_boxes", "addr:city": "SPRINGDALE", "addr:country": "US", "addr:full": "2811 SPRINGDALE AVE", "addr:postcode": "72764", "addr:state": "AR", "brand": "USPS", "brand:wikidata": "Q668687", "collection_times": "Mo-Sa 17:00", "name": "USPS COLLECTION BOX - PO LOBBY", "note": "ON 12/24 AND 12/31, THIS BOX MAY BE COLLECTED AS EARLY AS 12 NOON.", "ref": "7276400064"}, "type": "Feature"}
{"geometry": {"coordinates": [-94.162082, 36.172818], "type": "Point"}, "id": "bsLtSafL-p1V7xA-0cebj-rnF7Y=", "properties": {"@spider": "usps_collection_boxes", "addr:city": "SPRINGDALE", "addr:country": "US", "addr:full": "2811 SPRINGDALE AVE", "addr:postcode": "72764", "addr:state": "AR", "brand": "USPS", "brand:wikidata": "Q668687", "collection_times": "Mo-Sa 17:00", "name": "USPS COLLECTION BOX - BLUE BOX", "note": "ON 12/24 AND 12/31, THIS BOX MAY BE COLLECTED AS EARLY AS 12 NOON.", "ref": "7276400065"}, "type": "Feature"}
{"geometry": {"coordinates": [-94.162082, 36.172818], "type": "Point"}, "id": "IJ3uyClZw4tj2UfkQ7E7G6hFHcA=", "properties": {"@spider": "usps_collection_boxes", "addr:city": "SPRINGDALE", "addr:country": "US", "addr:full": "2811 SPRINGDALE AVE", "addr:postcode": "72764", "addr:state": "AR", "brand": "USPS", "brand:wikidata": "Q668687", "collection_times": "Mo-Sa 17:00", "name": "USPS COLLECTION BOX - BLUE BOX", "note": "ON 12/24 AND 12/31, THIS BOX MAY BE COLLECTED AS EARLY AS 12 NOON.", "ref": "7276400066"}, "type": "Feature"}
{"geometry": {"coordinates": [-94.1173693307, 36.1732259323], "type": "Point"}, "id": "dkt2Nj24jMsCBF0gsLrsd9-lmgw=", "properties": {"@spider": "usps_collection_boxes", "addr:city": "SPRINGDALE", "addr:country": "US", "addr:full": "1201 ESI DR", "addr:postcode": "72764", "addr:state": "AR", "brand": "USPS", "brand:wikidata": "Q668687", "collection_times": "Mo-Sa 15:30", "name": "USPS COLLECTION BOX - BLUE BOX", "note": "ON 12/24 AND 12/31, THIS BOX MAY BE COLLECTED AS EARLY AS 12 NOON.", "ref": "7276400067"}, "type": "Feature"}
{"geometry": {"coordinates": [-94.162082, 36.172818], "type": "Point"}, "id": "6IU_SeE-EM4GzZyukTmlz5BEvNE=", "properties": {"@spider": "usps_collection_boxes", "addr:city": "SPRINGDALE", "addr:country": "US", "addr:full": "2811 SPRINGDALE AVE", "addr:postcode": "72764", "addr:state": "AR", "brand": "USPS", "brand:wikidata": "Q668687", "collection_times": "Mo-Sa 17:00", "name": "USPS COLLECTION BOX - BLUE BOX", "note": "ON 12/24 AND 12/31, THIS BOX MAY BE COLLECTED AS EARLY AS 12 NOON.", "ref": "7276400068"}, "type": "Feature"}
{"geometry": {"coordinates": [-94.118968, 36.156662], "type": "Point"}, "id": "1laxdvRL9Sh2IQZ6bKaoMKbbg2Q=", "properties": {"@spider": "usps_collection_boxes", "addr:city": "SPRINGDALE", "addr:country": "US", "addr:full": "3138 S OLD MISSOURI RD", "addr:postcode": "72764", "addr:state": "AR", "brand": "USPS", "brand:wikidata": "Q668687", "collection_times": "Mo-Fr 15:30; Sa 14:30", "name": "USPS COLLECTION BOX - BLUE BOX", "note": "ON 12/24 AND 12/31, THIS BOX MAY BE COLLECTED AS EARLY AS 12 NOON.", "ref": "7276400069"}, "type": "Feature"}
{"geometry": {"coordinates": [-94.162091732, 36.172825538], "type": "Point"}, "id": "ISKybaEkzj8kdBQ80efMw6dqvuU=", "properties": {"@spider": "usps_collection_boxes", "addr:city": "SPRINGDALE", "addr:country": "US", "addr:full": "2811 SPRINGDALE AVE", "addr:postcode": "72764", "addr:state": "AR", "brand": "USPS", "brand:wikidata": "Q668687", "collection_times": "Mo-Fr 17:00; Sa 12:00", "name": "USPS COLLECTION BOX - PO LOBBY", "note": "ON 12/24 AND 12/31, THIS BOX MAY BE COLLECTED AS EARLY AS 12 NOON.", "ref": "7276400072"}, "type": "Feature"}
{"geometry": {"coordinates": [-94.131358946, 36.181557304], "type": "Point"}, "id": "dsWvkDERDf8-KC1hfrUh9xf3yYg=", "properties": {"@spider": "usps_collection_boxes", "addr:city": "SPRINGDALE", "addr:country": "US", "addr:full": "429 HOLCOMB ST", "addr:postcode": "72764", "addr:state": "AR", "brand": "USPS", "brand:wikidata": "Q668687", "collection_times": "Mo-Fr 16:30", "name": "USPS COLLECTION BOX - PO LOBBY", "note": "ON 12/24 AND 12/31, THIS BOX MAY BE COLLECTED AS EARLY AS 12 NOON.", "ref": "7276400073"}, "type": "Feature"}
{"geometry": {"coordinates": [-94.458448, 36.480747], "type": "Point"}, "id": "OdfCCSvVmE-rVzfmWbhw9Tb1nIc=", "properties": {"@spider": "usps_collection_boxes", "addr:city": "SULPHUR SPRINGS", "addr:country": "US", "addr:full": "205 S HIBLER ST", "addr:postcode": "72768", "addr:state": "AR", "brand": "USPS", "brand:wikidata": "Q668687", "collection_times": "Mo-Fr 11:00; Sa 11:30", "name": "USPS COLLECTION BOX - BLUE BOX", "ref": "7276800000"}, "type": "Feature"}
{"geometry": {"coordinates": [-94.458448, 36.480747], "type": "Point"}, "id": "oI8xAZdSkivXF9J8icstzS641Jc=", "properties": {"@spider": "usps_collection_boxes", "addr:city": "SULPHUR SPRINGS", "addr:country": "US", "addr:full": "205 S HIBLER ST", "addr:postcode": "72768", "addr:state": "AR", "brand": "USPS", "brand:wikidata": "Q668687", "collection_times": "Mo-Fr 11:00; Sa 11:30", "name": "USPS COLLECTION BOX - PO LOBBY", "ref": "7276800001"}, "type": "Feature"}
{"geometry": {"coordinates": [-94.458448, 36.480747], "type": "Point"}, "id": "Q9341OoMpud46o5lOL-0xsNq7_A=", "properties": {"@spider": "usps_collection_boxes", "addr:city": "SULPHUR SPRINGS", "addr:country": "US", "addr:full": "205 S HIBLER ST", "addr:postcode": "72768", "addr:state": "AR", "brand": "USPS", "brand:wikidata": "Q668687", "collection_times": "Mo-Fr 11:00; Sa 11:30", "name": "USPS COLLECTION BOX - PO LOBBY", "ref": "7276800002"}, "type": "Feature"}
{"geometry": {"coordinates": [-94.4584568518, 36.4805638848], "type": "Point"}, "id": "42rP6wCJ49FPlAU6gJ6YKELE9PM=", "properties": {"@spider": "usps_collection_boxes", "addr:city": "SULPHUR SPRINGS", "addr:country": "US", "addr:full": "205 S HIBLER ST", "addr:postcode": "72768", "addr:state": "AR", "brand": "USPS", "brand:wikidata": "Q668687", "collection_times": "Mo-Sa 11:30", "name": "USPS COLLECTION BOX - PO LOBBY", "ref": "7276800006"}, "type": "Feature"}
{"geometry": {"coordinates": [-94.491405, 35.97894], "type": "Point"}, "id": "tNz-DN75pmir6Elvyk8ZfDh9qJE=", "properties": {"@spider": "usps_collection_boxes", "addr:city": "SUMMERS", "addr:country": "US", "addr:full": "10591 S HIGHWAY 59", "addr:postcode": "72769", "addr:state": "AR", "brand": "USPS", "brand:wikidata": "Q668687", "collection_times": "Mo-Fr 16:20; Sa 11:00", "name": "USPS COLLECTION BOX - BLUE BOX", "note": "ON 12/24 AND 12/31, THIS BOX MAY BE COLLECTED AS EARLY AS 12 NOON.", "ref": "7276900001"}, "type": "Feature"}
{"geometry": {"coordinates": [-94.491405, 35.97894], "type": "Point"}, "id": "-Q46hmLMcEOoI4rFHus1TFSBguM=", "properties": {"@spider": "usps_collection_boxes", "addr:city": "SUMMERS", "addr:country": "US", "addr:full": "10591 S HIGHWAY 59", "addr:postcode": "72769", "addr:state": "AR", "brand": "USPS", "brand:wikidata": "Q668687", "collection_times": "Mo-Fr 16:20; Sa 11:00", "name": "USPS COLLECTION BOX - PO LOBBY", "note": "ON 12/24 AND 12/31, THIS BOX MAY BE COLLECTED AS EARLY AS 12 NOON.", "ref": "7276900002"}, "type": "Feature"}
{"geometry": {"coordinates": [-94.491404977, 35.978885969], "type": "Point"}, "id": "5vU3mvwZ1Ewk18b2szGbSPeQ1a0=", "properties": {"@spider": "usps_collection_boxes", "addr:city": "SUMMERS", "addr:country": "US", "addr:full": "10591 S HIGHWAY 59", "addr:postcode": "72769", "addr:state": "AR", "brand": "USPS", "brand:wikidata": "Q668687", "collection_times": "Mo-Fr 16:30; Sa 11:30", "name": "USPS COLLECTION BOX - PO LOBBY", "note": "ON 12/24 AND 12/31, THIS BOX MAY BE COLLECTED AS EARLY AS 12 NOON.", "ref": "7276900003"}, "type": "Feature"}
{"geometry": {"coordinates": [-94.234738, 36.179056], "type": "Point"}, "id": "2FGXWApdTDyt4nRHAseJLP3z2aA=", "properties": {"@spider": "usps_collection_boxes", "addr:city": "TONTITOWN", "addr:country": "US", "addr:full": "246 N BARRINGTON RD", "addr:postcode": "72770", "addr:state": "AR", "brand": "USPS", "brand:wikidata": "Q668687", "collection_times": "Mo-Fr 16:30; Sa 11:30", "name": "USPS COLLECTION BOX - PO LOBBY", "note": "ON 12/24 AND 12/31, THIS BOX MAY BE COLLECTED AS EARLY AS 12 NOON.", "ref": "7277000003"}, "type": "Feature"}
{"geometry": {"coordinates": [-94.234765, 36.179101], "type": "Point"}, "id": "jSKHpMh55kI089Juv9JoM94Utaw=", "properties": {"@spider": "usps_collection_boxes", "addr:city": "TONTITOWN", "addr:country": "US", "addr:full": "246 N BARRINGTON RD", "addr:postcode": "72770", "addr:state": "AR", "brand": "USPS", "brand:wikidata": "Q668687", "collection_times": "Mo-Fr 16:30; Sa 11:30", "name": "USPS COLLECTION BOX - PO LOBBY", "note": "ON 12/24 AND 12/31, THIS BOX MAY BE COLLECTED AS EARLY AS 12 NOON.", "ref": "7277000005"}, "type": "Feature"}
{"geometry": {"coordinates": [-94.234765, 36.179101], "type": "Point"}, "id": "SYUcGw078RlUexkcrlvCci5Y834=", "properties": {"@spider": "usps_collection_boxes", "addr:city": "TONTITOWN", "addr:country": "US", "addr:full": "246 N BARRINGTON RD", "addr:postcode": "72770", "addr:state": "AR", "brand": "USPS", "brand:wikidata": "Q668687", "collection_times": "Mo-Fr 16:30; Sa 11:30", "name": "USPS COLLECTION BOX - BLUE BOX", "note": "ON 12/24 AND 12/31, THIS BOX MAY BE COLLECTED AS EARLY AS 12 NOON.", "ref": "7277000007"}, "type": "Feature"}
{"geometry": {"coordinates": [-94.234818037, 36.178577759], "type": "Point"}, "id": "sZ1LKNmLX2r8QrOFMHujxjD10Wk=", "properties": {"@spider": "usps_collection_boxes", "addr:city": "TONTITOWN", "addr:country": "US", "addr:full": "246 N BARRINGTON RD", "addr:postcode": "72770", "addr:state": "AR", "brand": "USPS", "brand:wikidata": "Q668687", "collection_times": "Mo-Fr 16:30; Sa 11:30", "name": "USPS COLLECTION BOX - PO LOBBY", "note": "ON 12/24 AND 12/31, THIS BOX MAY BE COLLECTED AS EARLY AS 12 NOON.", "ref": "7277000008"}, "type": "Feature"}
{"geometry": {"coordinates": [-93.920618, 36.027495], "type": "Point"}, "id": "lIidDiy2vKdzzVkiUBiMWAEakGQ=", "properties": {"@spider": "usps_collection_boxes", "addr:city": "WESLEY", "addr:country": "US", "addr:full": "1611 HIGHWAY 74", "addr:postcode": "72773", "addr:state": "AR", "brand": "USPS", "brand:wikidata": "Q668687", "collection_times": "Mo-Fr 14:45; Sa 11:45", "name": "USPS COLLECTION BOX - BLUE BOX", "note": "ON 12/24 AND 12/31, THIS BOX MAY BE COLLECTED AS EARLY AS 12 NOON.", "ref": "7277300001"}, "type": "Feature"}
{"geometry": {"coordinates": [-93.920603561, 36.027439359], "type": "Point"}, "id": "qPbOkzJvdiSWc69xqEhldef_nyQ=", "properties": {"@spider": "usps_collection_boxes", "addr:city": "WESLEY", "addr:country": "US", "addr:full": "1611 HIGHWAY 74", "addr:postcode": "72773", "addr:state": "AR", "brand": "USPS", "brand:wikidata": "Q668687", "collection_times": "Mo-Fr 15:00; Sa 11:30", "name": "USPS COLLECTION BOX - PO LOBBY", "note": "ON 12/24 AND 12/31, THIS BOX MAY BE COLLECTED AS EARLY AS 12 NOON.", "ref": "7277300002"}, "type": "Feature"}
{"geometry": {"coordinates": [-94.187494, 35.927489], "type": "Point"}, "id": "jzGqQ05kKKOUwP5-ASDkeQcLchI=", "properties": {"@spider": "usps_collection_boxes", "addr:city": "WEST FORK", "addr:country": "US", "addr:full": "207 WEBBER ST", "addr:postcode": "72774", "addr:state": "AR", "brand": "USPS", "brand:wikidata": "Q668687", "collection_times": "Mo-Fr 16:30; Sa 15:00", "name": "USPS COLLECTION BOX - BLUE BOX", "note": "ON 12/24 AND 12/31, THIS BOX MAY BE COLLECTED AS EARLY AS 12 NOON.", "ref": "7277400001"}, "type": "Feature"}
{"geometry": {"coordinates": [-94.187494, 35.927489], "type": "Point"}, "id": "CHytOyoYxxYFrZcjNu4JFhKUQfI=", "properties": {"@spider": "usps_collection_boxes", "addr:city": "WEST FORK", "addr:country": "US", "addr:full": "207 WEBBER ST", "addr:postcode": "72774", "addr:state": "AR", "brand": "USPS", "brand:wikidata": "Q668687", "collection_times": "Mo-Fr 16:30; Sa 15:00", "name": "USPS COLLECTION BOX - PO LOBBY", "note": "ON 12/24 AND 12/31, THIS BOX MAY BE COLLECTED AS EARLY AS 12 NOON.", "ref": "7277400005"}, "type": "Feature"}
{"geometry": {"coordinates": [-94.186970335, 35.927521579], "type": "Point"}, "id": "-QBeHiyD5aTHTlX7b3NvnGziQ20=", "properties": {"@spider": "usps_collection_boxes", "addr:city": "WEST FORK", "addr:country": "US", "addr:full": "207 WEBBER ST", "addr:postcode": "72774", "addr:state": "AR", "brand": "USPS", "brand:wikidata": "Q668687", "collection_times": "Mo-Fr 16:30; Sa 10:30", "name": "USPS COLLECTION BOX - PO LOBBY", "note": "ON 12/24 AND 12/31, THIS BOX MAY BE COLLECTED AS EARLY AS 12 NOON.", "ref": "7277400006"}, "type": "Feature"}
{"geometry": {"coordinates": [-93.685176, 35.941144], "type": "Point"}, "id": "fLWOTU_ZAuRkzJObCWvlm2cdEeo=", "properties": {"@spider": "usps_collection_boxes", "addr:city": "WITTER", "addr:country": "US", "addr:full": "16734 HIGHWAY 23", "addr:postcode": "72776", "addr:state": "AR", "brand": "USPS", "brand:wikidata": "Q668687", "collection_times": "Mo-Fr 11:30; Sa 10:45", "name": "USPS COLLECTION BOX - PO LOBBY", "ref": "7277600002"}, "type": "Feature"}
{"geometry": {"coordinates": [-93.684564768, 35.940024246], "type": "Point"}, "id": "Da-EnLL2_r3GxeR3FBHTuNWBNgQ=", "properties": {"@spider": "usps_collection_boxes", "addr:city": "WITTER", "addr:country": "US", "addr:full": "16734 HIGHWAY 23", "addr:postcode": "72776", "addr:state": "AR", "brand": "USPS", "brand:wikidata": "Q668687", "collection_times": "Mo-Fr 12:00; Sa 10:45", "name": "USPS COLLECTION BOX - PO LOBBY", "ref": "7277600004"}, "type": "Feature"}
