{"dataset_attributes": {"@spider": "usps_collection_boxes", "spider:collection_time": "2023-11-28T08:25:58.546046"}, "geometry": {"coordinates": [-93.1381105, 35.279444], "type": "Point"}, "id": "tOsixgohfr9PZbKm1A-TYwNw6Yo=", "properties": {"@spider": "usps_collection_boxes", "addr:city": "RUSSELLVILLE", "addr:country": "US", "addr:full": "500 W MAIN ST", "addr:postcode": "72801", "addr:state": "AR", "amenity": "post_box", "brand": "United States Postal Service", "brand:wikidata": "Q668687", "collection_times": "Mo-Sa 11:30", "name": "USPS COLLECTION BOX - BLUE BOX", "nsi_id": "unitedstatespostalservice-a77078", "operator": "United States Postal Service", "operator:short": "USPS", "operator:type": "public", "operator:wikidata": "Q668687", "ref": "7280100002"}, "type": "Feature"}
{"dataset_attributes": {"@spider": "usps_collection_boxes", "spider:collection_time": "2023-11-28T08:25:58.546046"}, "geometry": {"coordinates": [-93.1336466576, 35.2815829731], "type": "Point"}, "id": "w5o4-_l2VKeozNWyvWgNknR2NrY=", "properties": {"@spider": "usps_collection_boxes", "addr:city": "RUSSELLVILLE", "addr:country": "US", "addr:full": "401 N ARKANSAS AVE", "addr:postcode": "72801", "addr:state": "AR", "amenity": "post_box", "brand": "United States Postal Service", "brand:wikidata": "Q668687", "collection_times": "Mo-Sa 10:30", "name": "USPS COLLECTION BOX - BLUE BOX", "nsi_id": "unitedstatespostalservice-a77078", "operator": "United States Postal Service", "operator:short": "USPS", "operator:type": "public", "operator:wikidata": "Q668687", "ref": "7280100004"}, "type": "Feature"}
{"dataset_attributes": {"@spider": "usps_collection_boxes", "spider:collection_time": "2023-11-28T08:25:58.546046"}, "geometry": {"coordinates": [-93.133296013, 35.265813016], "type": "Point"}, "id": "699ARIalQg4I1bPVSQC54WPRLak=", "properties": {"@spider": "usps_collection_boxes", "addr:city": "RUSSELLVILLE", "addr:country": "US", "addr:full": "1319 S ARKANSAS AVE", "addr:postcode": "72801", "addr:state": "AR", "amenity": "post_box", "brand": "United States Postal Service", "brand:wikidata": "Q668687", "collection_times": "Mo-Sa 09:00", "name": "USPS COLLECTION BOX - BLUE BOX", "nsi_id": "unitedstatespostalservice-a77078", "operator": "United States Postal Service", "operator:short": "USPS", "operator:type": "public", "operator:wikidata": "Q668687", "ref": "7280100005"}, "type": "Feature"}
{"dataset_attributes": {"@spider": "usps_collection_boxes", "spider:collection_time": "2023-11-28T08:25:58.546046"}, "geometry": {"coordinates": [-93.165805413, 35.2878395732], "type": "Point"}, "id": "46gulFKQ_PpNWH9BYtHmsfhJh2o=", "properties": {"@spider": "usps_collection_boxes", "addr:city": "RUSSELLVILLE", "addr:country": "US", "addr:full": "100 SKYLINE DR", "addr:postcode": "72801", "addr:state": "AR", "amenity": "post_box", "brand": "United States Postal Service", "brand:wikidata": "Q668687", "collection_times": "Mo-Sa 15:00", "name": "USPS COLLECTION BOX - BLUE BOX", "note": "ON 12/24 AND 12/31, THIS BOX MAY BE COLLECTED AS EARLY AS 12 NOON.", "nsi_id": "unitedstatespostalservice-a77078", "operator": "United States Postal Service", "operator:short": "USPS", "operator:type": "public", "operator:wikidata": "Q668687", "ref": "7280100006"}, "type": "Feature"}
{"dataset_attributes": {"@spider": "usps_collection_boxes", "spider:collection_time": "2023-11-28T08:25:58.546046"}, "geometry": {"coordinates": [-93.135422, 35.278593], "type": "Point"}, "id": "eKBaVFragF7lmomYzBMpARNi85U=", "properties": {"@spider": "usps_collection_boxes", "addr:city": "RUSSELLVILLE", "addr:country": "US", "addr:full": "300 W MAIN ST", "addr:postcode": "72801", "addr:state": "AR", "amenity": "post_box", "brand": "United States Postal Service", "brand:wikidata": "Q668687", "collection_times": "Mo-Sa 11:00", "name": "USPS COLLECTION BOX - BLUE BOX", "nsi_id": "unitedstatespostalservice-a77078", "operator": "United States Postal Service", "operator:short": "USPS", "operator:type": "public", "operator:wikidata": "Q668687", "ref": "7280100009"}, "type": "Feature"}
{"dataset_attributes": {"@spider": "usps_collection_boxes", "spider:collection_time": "2023-11-28T08:25:58.546046"}, "geometry": {"coordinates": [-93.0959133, 35.278529], "type": "Point"}, "id": "TtuM9LVprP627u_Grd0cuRX4mes=", "properties": {"@spider": "usps_collection_boxes", "addr:city": "RUSSELLVILLE", "addr:country": "US", "addr:full": "3079 E MAIN ST", "addr:postcode": "72801", "addr:state": "AR", "amenity": "post_box", "brand": "United States Postal Service", "brand:wikidata": "Q668687", "collection_times": "Mo-Sa 12:00", "name": "USPS COLLECTION BOX - BLUE BOX", "nsi_id": "unitedstatespostalservice-a77078", "operator": "United States Postal Service", "operator:short": "USPS", "operator:type": "public", "operator:wikidata": "Q668687", "ref": "7280100016"}, "type": "Feature"}
{"dataset_attributes": {"@spider": "usps_collection_boxes", "spider:collection_time": "2023-11-28T08:25:58.546046"}, "geometry": {"coordinates": [-93.1510526, 35.282877], "type": "Point"}, "id": "ObO_gWIJoA0bMDt82c3V6zRyiNU=", "properties": {"@spider": "usps_collection_boxes", "addr:city": "RUSSELLVILLE", "addr:country": "US", "addr:full": "1907 W MAIN ST", "addr:postcode": "72801", "addr:state": "AR", "amenity": "post_box", "brand": "United States Postal Service", "brand:wikidata": "Q668687", "collection_times": "Mo-Sa 15:00", "name": "USPS COLLECTION BOX - BLUE BOX", "note": "ON 12/24 AND 12/31, THIS BOX MAY BE COLLECTED AS EARLY AS 12 NOON.", "nsi_id": "unitedstatespostalservice-a77078", "operator": "United States Postal Service", "operator:short": "USPS", "operator:type": "public", "operator:wikidata": "Q668687", "ref": "7280100021"}, "type": "Feature"}
{"dataset_attributes": {"@spider": "usps_collection_boxes", "spider:collection_time": "2023-11-28T08:25:58.546046"}, "geometry": {"coordinates": [-93.1316270088, 35.2765490186], "type": "Point"}, "id": "2xUByN7JyMkUL__T5TC1PoqXx78=", "properties": {"@spider": "usps_collection_boxes", "addr:city": "RUSSELLVILLE", "addr:country": "US", "addr:full": "203 S BOSTON AVE", "addr:postcode": "72801", "addr:state": "AR", "amenity": "post_box", "brand": "United States Postal Service", "brand:wikidata": "Q668687", "collection_times": "Mo-Fr 18:30; Sa 18:00", "name": "USPS COLLECTION BOX - PO LOBBY", "note": "ON 12/24 AND 12/31, THIS BOX MAY BE COLLECTED AS EARLY AS 12 NOON.", "nsi_id": "unitedstatespostalservice-a77078", "operator": "United States Postal Service", "operator:short": "USPS", "operator:type": "public", "operator:wikidata": "Q668687", "ref": "7280100022"}, "type": "Feature"}
{"dataset_attributes": {"@spider": "usps_collection_boxes", "spider:collection_time": "2023-11-28T08:25:58.546046"}, "geometry": {"coordinates": [-93.1316270088, 35.2765490186], "type": "Point"}, "id": "g7-eywzaU_Oxzg4-BuAwNFxlcaM=", "properties": {"@spider": "usps_collection_boxes", "addr:city": "RUSSELLVILLE", "addr:country": "US", "addr:full": "203 S BOSTON AVE", "addr:postcode": "72801", "addr:state": "AR", "amenity": "post_box", "brand": "United States Postal Service", "brand:wikidata": "Q668687", "collection_times": "Mo-Fr 18:30; Sa 18:00", "name": "USPS COLLECTION BOX - BLUE BOX", "note": "ON 12/24 AND 12/31, THIS BOX MAY BE COLLECTED AS EARLY AS 12 NOON.", "nsi_id": "unitedstatespostalservice-a77078", "operator": "United States Postal Service", "operator:short": "USPS", "operator:type": "public", "operator:wikidata": "Q668687", "ref": "7280100025"}, "type": "Feature"}
{"dataset_attributes": {"@spider": "usps_collection_boxes", "spider:collection_time": "2023-11-28T08:25:58.546046"}, "geometry": {"coordinates": [-93.1316270088, 35.2765490186], "type": "Point"}, "id": "9cRLVi3XUWHg-k1_lKWrX7sk_F4=", "properties": {"@spider": "usps_collection_boxes", "addr:city": "RUSSELLVILLE", "addr:country": "US", "addr:full": "203 S BOSTON AVE", "addr:postcode": "72801", "addr:state": "AR", "amenity": "post_box", "brand": "United States Postal Service", "brand:wikidata": "Q668687", "collection_times": "Mo-Fr 18:30; Sa 18:00", "name": "USPS COLLECTION BOX - BLUE BOX", "note": "ON 12/24 AND 12/31, THIS BOX MAY BE COLLECTED AS EARLY AS 12 NOON.", "nsi_id": "unitedstatespostalservice-a77078", "operator": "United States Postal Service", "operator:short": "USPS", "operator:type": "public", "operator:wikidata": "Q668687", "ref": "7280100028"}, "type": "Feature"}
{"dataset_attributes": {"@spider": "usps_collection_boxes", "spider:collection_time": "2023-11-28T08:25:58.546046"}, "geometry": {"coordinates": [-93.1316270088, 35.2765490186], "type": "Point"}, "id": "WGsbP70itYPssQ22cfGTSgQrexg=", "properties": {"@spider": "usps_collection_boxes", "addr:city": "RUSSELLVILLE", "addr:country": "US", "addr:full": "203 S BOSTON AVE", "addr:postcode": "72801", "addr:state": "AR", "amenity": "post_box", "brand": "United States Postal Service", "brand:wikidata": "Q668687", "collection_times": "Mo-Fr 16:30; Sa 12:00", "name": "USPS COLLECTION BOX - PO LOBBY", "note": "ON 12/24 AND 12/31, THIS BOX MAY BE COLLECTED AS EARLY AS 12 NOON.", "nsi_id": "unitedstatespostalservice-a77078", "operator": "United States Postal Service", "operator:short": "USPS", "operator:type": "public", "operator:wikidata": "Q668687", "ref": "7280100048"}, "type": "Feature"}
{"dataset_attributes": {"@spider": "usps_collection_boxes", "spider:collection_time": "2023-11-28T08:25:58.546046"}, "geometry": {"coordinates": [-93.101678, 35.283549], "type": "Point"}, "id": "wDgqSHjazMGafeUOqo-RFBVYp74=", "properties": {"@spider": "usps_collection_boxes", "addr:city": "RUSSELLVILLE", "addr:country": "US", "addr:full": "414 N ELMIRA AVE", "addr:postcode": "72802", "addr:state": "AR", "amenity": "post_box", "brand": "United States Postal Service", "brand:wikidata": "Q668687", "collection_times": "Mo-Fr 17:00; Sa 16:00", "name": "USPS COLLECTION BOX - PO LOBBY", "note": "ON 12/24 AND 12/31, THIS BOX MAY BE COLLECTED AS EARLY AS 12 NOON.", "nsi_id": "unitedstatespostalservice-a77078", "operator": "United States Postal Service", "operator:short": "USPS", "operator:type": "public", "operator:wikidata": "Q668687", "ref": "7280200000"}, "type": "Feature"}
{"dataset_attributes": {"@spider": "usps_collection_boxes", "spider:collection_time": "2023-11-28T08:25:58.546046"}, "geometry": {"coordinates": [-93.101678, 35.283549], "type": "Point"}, "id": "m8sDJPIaynpXGjQeZvyYdkhd-k8=", "properties": {"@spider": "usps_collection_boxes", "addr:city": "RUSSELLVILLE", "addr:country": "US", "addr:full": "414 N ELMIRA AVE", "addr:postcode": "72802", "addr:state": "AR", "amenity": "post_box", "brand": "United States Postal Service", "brand:wikidata": "Q668687", "collection_times": "Mo-Fr 17:00; Sa 16:00", "name": "USPS COLLECTION BOX - PO LOBBY", "note": "ON 12/24 AND 12/31, THIS BOX MAY BE COLLECTED AS EARLY AS 12 NOON.", "nsi_id": "unitedstatespostalservice-a77078", "operator": "United States Postal Service", "operator:short": "USPS", "operator:type": "public", "operator:wikidata": "Q668687", "ref": "7280200001"}, "type": "Feature"}
{"dataset_attributes": {"@spider": "usps_collection_boxes", "spider:collection_time": "2023-11-28T08:25:58.546046"}, "geometry": {"coordinates": [-93.101678, 35.283549], "type": "Point"}, "id": "gJytHwoUhyfqcyPN6eYCREANWbY=", "properties": {"@spider": "usps_collection_boxes", "addr:city": "RUSSELLVILLE", "addr:country": "US", "addr:full": "414 N ELMIRA AVE", "addr:postcode": "72802", "addr:state": "AR", "amenity": "post_box", "brand": "United States Postal Service", "brand:wikidata": "Q668687", "collection_times": "Mo-Fr 16:45; Sa 16:30", "name": "USPS COLLECTION BOX - BLUE BOX", "note": "ON 12/24 AND 12/31, THIS BOX MAY BE COLLECTED AS EARLY AS 12 NOON.", "nsi_id": "unitedstatespostalservice-a77078", "operator": "United States Postal Service", "operator:short": "USPS", "operator:type": "public", "operator:wikidata": "Q668687", "ref": "7280200002"}, "type": "Feature"}
{"dataset_attributes": {"@spider": "usps_collection_boxes", "spider:collection_time": "2023-11-28T08:25:58.546046"}, "geometry": {"coordinates": [-93.101678, 35.283549], "type": "Point"}, "id": "bcsz6VvwncaGZnislkqpfkcH6ig=", "properties": {"@spider": "usps_collection_boxes", "addr:city": "RUSSELLVILLE", "addr:country": "US", "addr:full": "414 N ELMIRA AVE", "addr:postcode": "72802", "addr:state": "AR", "amenity": "post_box", "brand": "United States Postal Service", "brand:wikidata": "Q668687", "collection_times": "Mo-Fr 16:45; Sa 16:30", "name": "USPS COLLECTION BOX - BLUE BOX", "note": "ON 12/24 AND 12/31, THIS BOX MAY BE COLLECTED AS EARLY AS 12 NOON.", "nsi_id": "unitedstatespostalservice-a77078", "operator": "United States Postal Service", "operator:short": "USPS", "operator:type": "public", "operator:wikidata": "Q668687", "ref": "7280200003"}, "type": "Feature"}
{"dataset_attributes": {"@spider": "usps_collection_boxes", "spider:collection_time": "2023-11-28T08:25:58.546046"}, "geometry": {"coordinates": [-93.0898958, 35.283448], "type": "Point"}, "id": "kXBZTI7cWEtgHmN67Mg0qdhTw7g=", "properties": {"@spider": "usps_collection_boxes", "addr:city": "RUSSELLVILLE", "addr:country": "US", "addr:full": "43 BRADLEY COVE RD", "addr:postcode": "72802", "addr:state": "AR", "amenity": "post_box", "brand": "United States Postal Service", "brand:wikidata": "Q668687", "collection_times": "Mo-Sa 12:00", "name": "USPS COLLECTION BOX - BLUE BOX", "nsi_id": "unitedstatespostalservice-a77078", "operator": "United States Postal Service", "operator:short": "USPS", "operator:type": "public", "operator:wikidata": "Q668687", "ref": "7280200005"}, "type": "Feature"}
{"dataset_attributes": {"@spider": "usps_collection_boxes", "spider:collection_time": "2023-11-28T08:25:58.546046"}, "geometry": {"coordinates": [-93.101679817, 35.283644885], "type": "Point"}, "id": "7UjHp9EIGIl3OKmZs-JKJ1XLZ0s=", "properties": {"@spider": "usps_collection_boxes", "addr:city": "RUSSELLVILLE", "addr:country": "US", "addr:full": "414 N ELMIRA AVE", "addr:postcode": "72802", "addr:state": "AR", "amenity": "post_box", "brand": "United States Postal Service", "brand:wikidata": "Q668687", "collection_times": "Mo-Fr 16:00", "name": "USPS COLLECTION BOX - PO LOBBY", "note": "ON 12/24 AND 12/31, THIS BOX MAY BE COLLECTED AS EARLY AS 12 NOON.", "nsi_id": "unitedstatespostalservice-a77078", "operator": "United States Postal Service", "operator:short": "USPS", "operator:type": "public", "operator:wikidata": "Q668687", "ref": "7280200007"}, "type": "Feature"}
{"dataset_attributes": {"@spider": "usps_collection_boxes", "spider:collection_time": "2023-11-28T08:25:58.546046"}, "geometry": {"coordinates": [-93.730697, 35.424844], "type": "Point"}, "id": "Y3ZOS0A2A2MEfKXgej884Dkdd3A=", "properties": {"@spider": "usps_collection_boxes", "addr:city": "ALIX", "addr:country": "US", "addr:full": "3229 HIGHWAY 186", "addr:postcode": "72820", "addr:state": "AR", "amenity": "post_box", "brand": "United States Postal Service", "brand:wikidata": "Q668687", "collection_times": "Mo-Fr 10:30; Sa 11:15", "name": "USPS COLLECTION BOX - PO LOBBY", "nsi_id": "unitedstatespostalservice-a77078", "operator": "United States Postal Service", "operator:short": "USPS", "operator:type": "public", "operator:wikidata": "Q668687", "ref": "7282000003"}, "type": "Feature"}
{"dataset_attributes": {"@spider": "usps_collection_boxes", "spider:collection_time": "2023-11-28T08:25:58.546046"}, "geometry": {"coordinates": [-93.730744317, 35.424683039], "type": "Point"}, "id": "BITv96K-uvqdY9aNt2q1GrAE9oI=", "properties": {"@spider": "usps_collection_boxes", "addr:city": "ALIX", "addr:country": "US", "addr:full": "3229 HIGHWAY 186", "addr:postcode": "72820", "addr:state": "AR", "amenity": "post_box", "brand": "United States Postal Service", "brand:wikidata": "Q668687", "collection_times": "Mo-Fr 10:30; Sa 11:15", "name": "USPS COLLECTION BOX - PO LOBBY", "nsi_id": "unitedstatespostalservice-a77078", "operator": "United States Postal Service", "operator:short": "USPS", "operator:type": "public", "operator:wikidata": "Q668687", "ref": "7282000005"}, "type": "Feature"}
{"dataset_attributes": {"@spider": "usps_collection_boxes", "spider:collection_time": "2023-11-28T08:25:58.546046"}, "geometry": {"coordinates": [-93.76087, 35.445915], "type": "Point"}, "id": "q53b45sDPNeXAmmYYFwKQEz8qdM=", "properties": {"@spider": "usps_collection_boxes", "addr:city": "ALTUS", "addr:country": "US", "addr:full": "21 E MAIN ST", "addr:postcode": "72821", "addr:state": "AR", "amenity": "post_box", "brand": "United States Postal Service", "brand:wikidata": "Q668687", "collection_times": "Mo-Fr 14:30; Sa 10:00", "name": "USPS COLLECTION BOX - BLUE BOX", "note": "ON 12/24 AND 12/31, THIS BOX MAY BE COLLECTED AS EARLY AS 12 NOON.", "nsi_id": "unitedstatespostalservice-a77078", "operator": "United States Postal Service", "operator:short": "USPS", "operator:type": "public", "operator:wikidata": "Q668687", "ref": "7282100001"}, "type": "Feature"}
{"dataset_attributes": {"@spider": "usps_collection_boxes", "spider:collection_time": "2023-11-28T08:25:58.546046"}, "geometry": {"coordinates": [-93.76087, 35.445915], "type": "Point"}, "id": "9kQPwYG4gA9JXtKtCSQLnaakW8k=", "properties": {"@spider": "usps_collection_boxes", "addr:city": "ALTUS", "addr:country": "US", "addr:full": "21 E MAIN ST", "addr:postcode": "72821", "addr:state": "AR", "amenity": "post_box", "brand": "United States Postal Service", "brand:wikidata": "Q668687", "collection_times": "Mo-Fr 14:30; Sa 10:00", "name": "USPS COLLECTION BOX - PO LOBBY", "note": "ON 12/24 AND 12/31, THIS BOX MAY BE COLLECTED AS EARLY AS 12 NOON.", "nsi_id": "unitedstatespostalservice-a77078", "operator": "United States Postal Service", "operator:short": "USPS", "operator:type": "public", "operator:wikidata": "Q668687", "ref": "7282100002"}, "type": "Feature"}
{"dataset_attributes": {"@spider": "usps_collection_boxes", "spider:collection_time": "2023-11-28T08:25:58.546046"}, "geometry": {"coordinates": [-93.76087, 35.445915], "type": "Point"}, "id": "sYiWrLdFXr6NlFzWm7RPQ6qpP2s=", "properties": {"@spider": "usps_collection_boxes", "addr:city": "ALTUS", "addr:country": "US", "addr:full": "21 E MAIN ST", "addr:postcode": "72821", "addr:state": "AR", "amenity": "post_box", "brand": "United States Postal Service", "brand:wikidata": "Q668687", "collection_times": "Mo-Fr 14:30; Sa 10:00", "name": "USPS COLLECTION BOX - PO LOBBY", "note": "ON 12/24 AND 12/31, THIS BOX MAY BE COLLECTED AS EARLY AS 12 NOON.", "nsi_id": "unitedstatespostalservice-a77078", "operator": "United States Postal Service", "operator:short": "USPS", "operator:type": "public", "operator:wikidata": "Q668687", "ref": "7282100004"}, "type": "Feature"}
{"dataset_attributes": {"@spider": "usps_collection_boxes", "spider:collection_time": "2023-11-28T08:25:58.546046"}, "geometry": {"coordinates": [-93.760934772, 35.445891049], "type": "Point"}, "id": "1CmoSKE1galKDQJsTsKQEmt2rW4=", "properties": {"@spider": "usps_collection_boxes", "addr:city": "ALTUS", "addr:country": "US", "addr:full": "21 E MAIN ST", "addr:postcode": "72821", "addr:state": "AR", "amenity": "post_box", "brand": "United States Postal Service", "brand:wikidata": "Q668687", "collection_times": "Mo-Fr 14:30; Sa 10:00", "name": "USPS COLLECTION BOX - PO LOBBY", "note": "ON 12/24 AND 12/31, THIS BOX MAY BE COLLECTED AS EARLY AS 12 NOON.", "nsi_id": "unitedstatespostalservice-a77078", "operator": "United States Postal Service", "operator:short": "USPS", "operator:type": "public", "operator:wikidata": "Q668687", "ref": "7282100006"}, "type": "Feature"}
{"dataset_attributes": {"@spider": "usps_collection_boxes", "spider:collection_time": "2023-11-28T08:25:58.546046"}, "geometry": {"coordinates": [-92.937526, 35.248821], "type": "Point"}, "id": "j0ioEzFhXiPnURSx3fSdclGDa-M=", "properties": {"@spider": "usps_collection_boxes", "addr:city": "ATKINS", "addr:country": "US", "addr:full": "705 N CHURCH ST", "addr:postcode": "72823", "addr:state": "AR", "amenity": "post_box", "brand": "United States Postal Service", "brand:wikidata": "Q668687", "collection_times": "Mo-Fr 16:30; Sa 10:15", "name": "USPS COLLECTION BOX - BLUE BOX", "note": "ON 12/24 AND 12/31, THIS BOX MAY BE COLLECTED AS EARLY AS 12 NOON.", "nsi_id": "unitedstatespostalservice-a77078", "operator": "United States Postal Service", "operator:short": "USPS", "operator:type": "public", "operator:wikidata": "Q668687", "ref": "7282300004"}, "type": "Feature"}
{"dataset_attributes": {"@spider": "usps_collection_boxes", "spider:collection_time": "2023-11-28T08:25:58.546046"}, "geometry": {"coordinates": [-92.937526, 35.248821], "type": "Point"}, "id": "hkw-_O3ZQDtD4o68Z-MzGx5_kh4=", "properties": {"@spider": "usps_collection_boxes", "addr:city": "ATKINS", "addr:country": "US", "addr:full": "705 N CHURCH ST", "addr:postcode": "72823", "addr:state": "AR", "amenity": "post_box", "brand": "United States Postal Service", "brand:wikidata": "Q668687", "collection_times": "Mo-Fr 16:30; Sa 10:15", "name": "USPS COLLECTION BOX - PO LOBBY", "note": "ON 12/24 AND 12/31, THIS BOX MAY BE COLLECTED AS EARLY AS 12 NOON.", "nsi_id": "unitedstatespostalservice-a77078", "operator": "United States Postal Service", "operator:short": "USPS", "operator:type": "public", "operator:wikidata": "Q668687", "ref": "7282300006"}, "type": "Feature"}
{"dataset_attributes": {"@spider": "usps_collection_boxes", "spider:collection_time": "2023-11-28T08:25:58.546046"}, "geometry": {"coordinates": [-92.937526, 35.248821], "type": "Point"}, "id": "OTrDzUGoyoLrNtqis9YqMpn9qF4=", "properties": {"@spider": "usps_collection_boxes", "addr:city": "ATKINS", "addr:country": "US", "addr:full": "705 N CHURCH ST", "addr:postcode": "72823", "addr:state": "AR", "amenity": "post_box", "brand": "United States Postal Service", "brand:wikidata": "Q668687", "collection_times": "Mo-Fr 16:30; Sa 10:15", "name": "USPS COLLECTION BOX - PO LOBBY", "note": "ON 12/24 AND 12/31, THIS BOX MAY BE COLLECTED AS EARLY AS 12 NOON.", "nsi_id": "unitedstatespostalservice-a77078", "operator": "United States Postal Service", "operator:short": "USPS", "operator:type": "public", "operator:wikidata": "Q668687", "ref": "7282300007"}, "type": "Feature"}
{"dataset_attributes": {"@spider": "usps_collection_boxes", "spider:collection_time": "2023-11-28T08:25:58.546046"}, "geometry": {"coordinates": [-92.937527164, 35.24881478], "type": "Point"}, "id": "cVe5hRMUuOpBKIVYvbiOFPJVfGg=", "properties": {"@spider": "usps_collection_boxes", "addr:city": "ATKINS", "addr:country": "US", "addr:full": "705 N CHURCH ST", "addr:postcode": "72823", "addr:state": "AR", "amenity": "post_box", "brand": "United States Postal Service", "brand:wikidata": "Q668687", "collection_times": "Mo-Fr 16:30; Sa 10:00", "name": "USPS COLLECTION BOX - PO LOBBY", "note": "ON 12/24 AND 12/31, THIS BOX MAY BE COLLECTED AS EARLY AS 12 NOON.", "nsi_id": "unitedstatespostalservice-a77078", "operator": "United States Postal Service", "operator:short": "USPS", "operator:type": "public", "operator:wikidata": "Q668687", "ref": "7282300008"}, "type": "Feature"}
{"dataset_attributes": {"@spider": "usps_collection_boxes", "spider:collection_time": "2023-11-28T08:25:58.546046"}, "geometry": {"coordinates": [-93.44831, 35.092655], "type": "Point"}, "id": "nobUqZauYv1rnNlX7nLRvZDmPV4=", "properties": {"@spider": "usps_collection_boxes", "addr:city": "BELLEVILLE", "addr:country": "US", "addr:full": "109 N MAIN ST", "addr:postcode": "72824", "addr:state": "AR", "amenity": "post_box", "brand": "United States Postal Service", "brand:wikidata": "Q668687", "collection_times": "Mo-Fr 11:30; Sa 09:45", "name": "USPS COLLECTION BOX - BLUE BOX", "nsi_id": "unitedstatespostalservice-a77078", "operator": "United States Postal Service", "operator:short": "USPS", "operator:type": "public", "operator:wikidata": "Q668687", "ref": "7282400001"}, "type": "Feature"}
{"dataset_attributes": {"@spider": "usps_collection_boxes", "spider:collection_time": "2023-11-28T08:25:58.546046"}, "geometry": {"coordinates": [-93.44831, 35.092655], "type": "Point"}, "id": "ifxzVI1c31db77BQNntWEpb9dWA=", "properties": {"@spider": "usps_collection_boxes", "addr:city": "BELLEVILLE", "addr:country": "US", "addr:full": "109 N MAIN ST", "addr:postcode": "72824", "addr:state": "AR", "amenity": "post_box", "brand": "United States Postal Service", "brand:wikidata": "Q668687", "collection_times": "Mo-Fr 11:00; Sa 09:45", "name": "USPS COLLECTION BOX - PO LOBBY", "nsi_id": "unitedstatespostalservice-a77078", "operator": "United States Postal Service", "operator:short": "USPS", "operator:type": "public", "operator:wikidata": "Q668687", "ref": "7282400002"}, "type": "Feature"}
{"dataset_attributes": {"@spider": "usps_collection_boxes", "spider:collection_time": "2023-11-28T08:25:58.546046"}, "geometry": {"coordinates": [-93.448312706, 35.092647681], "type": "Point"}, "id": "SIKhJCQw0zNYZMkyngnKBExzbvI=", "properties": {"@spider": "usps_collection_boxes", "addr:city": "BELLEVILLE", "addr:country": "US", "addr:full": "109 N MAIN ST", "addr:postcode": "72824", "addr:state": "AR", "amenity": "post_box", "brand": "United States Postal Service", "brand:wikidata": "Q668687", "collection_times": "Mo-Fr 11:30; Sa 09:45", "name": "USPS COLLECTION BOX - PO LOBBY", "nsi_id": "unitedstatespostalservice-a77078", "operator": "United States Postal Service", "operator:short": "USPS", "operator:type": "public", "operator:wikidata": "Q668687", "ref": "7282400006"}, "type": "Feature"}
{"dataset_attributes": {"@spider": "usps_collection_boxes", "spider:collection_time": "2023-11-28T08:25:58.546046"}, "geometry": {"coordinates": [-93.710968, 35.130267], "type": "Point"}, "id": "qVippJaDZINtufbrlptmNF415aY=", "properties": {"@spider": "usps_collection_boxes", "addr:city": "BLUE MOUNTAIN", "addr:country": "US", "addr:full": "297 LOGAN ST", "addr:postcode": "72826", "addr:state": "AR", "amenity": "post_box", "brand": "United States Postal Service", "brand:wikidata": "Q668687", "collection_times": "Mo-Fr 10:00; Sa 10:30", "name": "USPS COLLECTION BOX - PO LOBBY", "nsi_id": "unitedstatespostalservice-a77078", "operator": "United States Postal Service", "operator:short": "USPS", "operator:type": "public", "operator:wikidata": "Q668687", "ref": "7282600002"}, "type": "Feature"}
{"dataset_attributes": {"@spider": "usps_collection_boxes", "spider:collection_time": "2023-11-28T08:25:58.546046"}, "geometry": {"coordinates": [-93.710986533, 35.130261121], "type": "Point"}, "id": "I9RY3sXmwldvCR_UW8R4Fd0tyt8=", "properties": {"@spider": "usps_collection_boxes", "addr:city": "BLUE MOUNTAIN", "addr:country": "US", "addr:full": "297 LOGAN ST", "addr:postcode": "72826", "addr:state": "AR", "amenity": "post_box", "brand": "United States Postal Service", "brand:wikidata": "Q668687", "collection_times": "Mo-Fr 10:00; Sa 10:45", "name": "USPS COLLECTION BOX - PO LOBBY", "nsi_id": "unitedstatespostalservice-a77078", "operator": "United States Postal Service", "operator:short": "USPS", "operator:type": "public", "operator:wikidata": "Q668687", "ref": "7282600003"}, "type": "Feature"}
{"dataset_attributes": {"@spider": "usps_collection_boxes", "spider:collection_time": "2023-11-28T08:25:58.546046"}, "geometry": {"coordinates": [-93.601136968, 34.904718993], "type": "Point"}, "id": "tr8LeAFwuEOl6twoHF3JjLQVJvM=", "properties": {"@spider": "usps_collection_boxes", "addr:city": "BLUFFTON", "addr:country": "US", "addr:full": "22263 W HIGHWAY 28", "addr:postcode": "72827", "addr:state": "AR", "amenity": "post_box", "brand": "United States Postal Service", "brand:wikidata": "Q668687", "collection_times": "Mo-Fr 10:30; Sa 11:15", "name": "USPS COLLECTION BOX - BLUE BOX", "nsi_id": "unitedstatespostalservice-a77078", "operator": "United States Postal Service", "operator:short": "USPS", "operator:type": "public", "operator:wikidata": "Q668687", "ref": "7282700001"}, "type": "Feature"}
{"dataset_attributes": {"@spider": "usps_collection_boxes", "spider:collection_time": "2023-11-28T08:25:58.546046"}, "geometry": {"coordinates": [-93.60109, 34.904713], "type": "Point"}, "id": "5FGmmaq8NFHlE13ZMDTnTM0kgWA=", "properties": {"@spider": "usps_collection_boxes", "addr:city": "BLUFFTON", "addr:country": "US", "addr:full": "22263 W HIGHWAY 28", "addr:postcode": "72827", "addr:state": "AR", "amenity": "post_box", "brand": "United States Postal Service", "brand:wikidata": "Q668687", "collection_times": "Mo-Fr 10:00; Sa 11:15", "name": "USPS COLLECTION BOX - PO LOBBY", "nsi_id": "unitedstatespostalservice-a77078", "operator": "United States Postal Service", "operator:short": "USPS", "operator:type": "public", "operator:wikidata": "Q668687", "ref": "7282700002"}, "type": "Feature"}
{"dataset_attributes": {"@spider": "usps_collection_boxes", "spider:collection_time": "2023-11-28T08:25:58.546046"}, "geometry": {"coordinates": [-93.601059783, 34.904701777], "type": "Point"}, "id": "I0orkow4Nqf9tRqe_IviM-qJKoI=", "properties": {"@spider": "usps_collection_boxes", "addr:city": "BLUFFTON", "addr:country": "US", "addr:full": "22263 W HIGHWAY 28", "addr:postcode": "72827", "addr:state": "AR", "amenity": "post_box", "brand": "United States Postal Service", "brand:wikidata": "Q668687", "collection_times": "Mo-Fr 10:30; Sa 11:30", "name": "USPS COLLECTION BOX - PO LOBBY", "nsi_id": "unitedstatespostalservice-a77078", "operator": "United States Postal Service", "operator:short": "USPS", "operator:type": "public", "operator:wikidata": "Q668687", "ref": "7282700003"}, "type": "Feature"}
{"dataset_attributes": {"@spider": "usps_collection_boxes", "spider:collection_time": "2023-11-28T08:25:58.546046"}, "geometry": {"coordinates": [-93.155172338, 35.2239790899], "type": "Point"}, "id": "HoAYKi0UGugV5hl1ADGfBtZxH1c=", "properties": {"@spider": "usps_collection_boxes", "addr:city": "CENTERVILLE", "addr:country": "US", "addr:full": "16931 N STATE HIGHWAY 7", "addr:postcode": "72829", "addr:state": "AR", "amenity": "post_box", "brand": "United States Postal Service", "brand:wikidata": "Q668687", "collection_times": "Mo-Fr 12:30; Sa 09:30", "name": "USPS COLLECTION BOX - BLUE BOX", "note": "ON 12/24 AND 12/31, THIS BOX MAY BE COLLECTED AS EARLY AS 12 NOON.", "nsi_id": "unitedstatespostalservice-a77078", "operator": "United States Postal Service", "operator:short": "USPS", "operator:type": "public", "operator:wikidata": "Q668687", "ref": "7282900001"}, "type": "Feature"}
{"dataset_attributes": {"@spider": "usps_collection_boxes", "spider:collection_time": "2023-11-28T08:25:58.546046"}, "geometry": {"coordinates": [-93.155172338, 35.2239790899], "type": "Point"}, "id": "nbmNgNhUwgwGncGbSoLNbK7yGeY=", "properties": {"@spider": "usps_collection_boxes", "addr:city": "CENTERVILLE", "addr:country": "US", "addr:full": "16931 N STATE HIGHWAY 7", "addr:postcode": "72829", "addr:state": "AR", "amenity": "post_box", "brand": "United States Postal Service", "brand:wikidata": "Q668687", "collection_times": "Mo-Fr 12:30; Sa 09:30", "name": "USPS COLLECTION BOX - PO LOBBY", "note": "ON 12/24 AND 12/31, THIS BOX MAY BE COLLECTED AS EARLY AS 12 NOON.", "nsi_id": "unitedstatespostalservice-a77078", "operator": "United States Postal Service", "operator:short": "USPS", "operator:type": "public", "operator:wikidata": "Q668687", "ref": "7282900002"}, "type": "Feature"}
{"dataset_attributes": {"@spider": "usps_collection_boxes", "spider:collection_time": "2023-11-28T08:25:58.546046"}, "geometry": {"coordinates": [-93.155172338, 35.2239790899], "type": "Point"}, "id": "7Q4LHqxIGiPGbjwZtAnc3UbbnEc=", "properties": {"@spider": "usps_collection_boxes", "addr:city": "CENTERVILLE", "addr:country": "US", "addr:full": "16931 N STATE HIGHWAY 7", "addr:postcode": "72829", "addr:state": "AR", "amenity": "post_box", "brand": "United States Postal Service", "brand:wikidata": "Q668687", "collection_times": "Mo-Fr 12:30; Sa 09:30", "name": "USPS COLLECTION BOX - PO LOBBY", "note": "ON 12/24 AND 12/31, THIS BOX MAY BE COLLECTED AS EARLY AS 12 NOON.", "nsi_id": "unitedstatespostalservice-a77078", "operator": "United States Postal Service", "operator:short": "USPS", "operator:type": "public", "operator:wikidata": "Q668687", "ref": "7282900003"}, "type": "Feature"}
{"dataset_attributes": {"@spider": "usps_collection_boxes", "spider:collection_time": "2023-11-28T08:25:58.546046"}, "geometry": {"coordinates": [-93.169173185, 35.114224977], "type": "Point"}, "id": "s7EVODRvaKIrvdvsubgHw-X_bN0=", "properties": {"@spider": "usps_collection_boxes", "addr:city": "CENTERVILLE", "addr:country": "US", "addr:full": "16931 N STATE HIGHWAY 7", "addr:postcode": "72829", "addr:state": "AR", "amenity": "post_box", "brand": "United States Postal Service", "brand:wikidata": "Q668687", "collection_times": "Mo-Fr 13:00; Sa 10:00", "name": "USPS COLLECTION BOX - PO LOBBY", "note": "ON 12/24 AND 12/31, THIS BOX MAY BE COLLECTED AS EARLY AS 12 NOON.", "nsi_id": "unitedstatespostalservice-a77078", "operator": "United States Postal Service", "operator:short": "USPS", "operator:type": "public", "operator:wikidata": "Q668687", "ref": "7282900004"}, "type": "Feature"}
{"dataset_attributes": {"@spider": "usps_collection_boxes", "spider:collection_time": "2023-11-28T08:25:58.546046"}, "geometry": {"coordinates": [-93.463908, 35.47028], "type": "Point"}, "id": "PadFwE3q5s6zCTc8-74G3ZxuUxY=", "properties": {"@spider": "usps_collection_boxes", "addr:city": "CLARKSVILLE", "addr:country": "US", "addr:full": "200 W SEVIER ST", "addr:postcode": "72830", "addr:state": "AR", "amenity": "post_box", "brand": "United States Postal Service", "brand:wikidata": "Q668687", "collection_times": "Mo-Sa 16:30", "name": "USPS COLLECTION BOX - BLUE BOX", "note": "ON 12/24 AND 12/31, THIS BOX MAY BE COLLECTED AS EARLY AS 12 NOON.", "nsi_id": "unitedstatespostalservice-a77078", "operator": "United States Postal Service", "operator:short": "USPS", "operator:type": "public", "operator:wikidata": "Q668687", "ref": "7283000001"}, "type": "Feature"}
{"dataset_attributes": {"@spider": "usps_collection_boxes", "spider:collection_time": "2023-11-28T08:25:58.546046"}, "geometry": {"coordinates": [-93.4606155, 35.459203], "type": "Point"}, "id": "t_R7SvFSqqVP-2rz1BlNlMUYX3A=", "properties": {"@spider": "usps_collection_boxes", "addr:city": "CLARKSVILLE", "addr:country": "US", "addr:full": "1121 S ROGERS ST", "addr:postcode": "72830", "addr:state": "AR", "amenity": "post_box", "brand": "United States Postal Service", "brand:wikidata": "Q668687", "collection_times": "Mo-Sa 09:00", "name": "USPS COLLECTION BOX - BLUE BOX", "nsi_id": "unitedstatespostalservice-a77078", "operator": "United States Postal Service", "operator:short": "USPS", "operator:type": "public", "operator:wikidata": "Q668687", "ref": "7283000008"}, "type": "Feature"}
{"dataset_attributes": {"@spider": "usps_collection_boxes", "spider:collection_time": "2023-11-28T08:25:58.546046"}, "geometry": {"coordinates": [-93.4783711, 35.472258], "type": "Point"}, "id": "PqSbYRlXOvUxYUd-CF2DQf_CANk=", "properties": {"@spider": "usps_collection_boxes", "addr:city": "CLARKSVILLE", "addr:country": "US", "addr:full": "1320 W MAIN ST", "addr:postcode": "72830", "addr:state": "AR", "amenity": "post_box", "brand": "United States Postal Service", "brand:wikidata": "Q668687", "collection_times": "Mo-Sa 13:25", "name": "USPS COLLECTION BOX - BLUE BOX", "note": "ON 12/24 AND 12/31, THIS BOX MAY BE COLLECTED AS EARLY AS 12 NOON.", "nsi_id": "unitedstatespostalservice-a77078", "operator": "United States Postal Service", "operator:short": "USPS", "operator:type": "public", "operator:wikidata": "Q668687", "ref": "7283000011"}, "type": "Feature"}
{"dataset_attributes": {"@spider": "usps_collection_boxes", "spider:collection_time": "2023-11-28T08:25:58.546046"}, "geometry": {"coordinates": [-93.4793549, 35.465977], "type": "Point"}, "id": "vmFVf15R9PNGO4ElTJljIEfudp0=", "properties": {"@spider": "usps_collection_boxes", "addr:city": "CLARKSVILLE", "addr:country": "US", "addr:full": "502 S CRAWFORD ST", "addr:postcode": "72830", "addr:state": "AR", "amenity": "post_box", "brand": "United States Postal Service", "brand:wikidata": "Q668687", "collection_times": "Mo-Sa 09:00", "name": "USPS COLLECTION BOX - BLUE BOX", "nsi_id": "unitedstatespostalservice-a77078", "operator": "United States Postal Service", "operator:short": "USPS", "operator:type": "public", "operator:wikidata": "Q668687", "ref": "7283000012"}, "type": "Feature"}
{"dataset_attributes": {"@spider": "usps_collection_boxes", "spider:collection_time": "2023-11-28T08:25:58.546046"}, "geometry": {"coordinates": [-93.463908, 35.47028], "type": "Point"}, "id": "Rt-QnlLVZYxTWcwmi63KlG6nF2Y=", "properties": {"@spider": "usps_collection_boxes", "addr:city": "CLARKSVILLE", "addr:country": "US", "addr:full": "200 W SEVIER ST", "addr:postcode": "72830", "addr:state": "AR", "amenity": "post_box", "brand": "United States Postal Service", "brand:wikidata": "Q668687", "collection_times": "Mo-Sa 16:30", "name": "USPS COLLECTION BOX - PO LOBBY", "note": "ON 12/24 AND 12/31, THIS BOX MAY BE COLLECTED AS EARLY AS 12 NOON.", "nsi_id": "unitedstatespostalservice-a77078", "operator": "United States Postal Service", "operator:short": "USPS", "operator:type": "public", "operator:wikidata": "Q668687", "ref": "7283000013"}, "type": "Feature"}
{"dataset_attributes": {"@spider": "usps_collection_boxes", "spider:collection_time": "2023-11-28T08:25:58.546046"}, "geometry": {"coordinates": [-93.463908, 35.47028], "type": "Point"}, "id": "eE_dx_v4u5HIpk4CmcZhDcQmlrQ=", "properties": {"@spider": "usps_collection_boxes", "addr:city": "CLARKSVILLE", "addr:country": "US", "addr:full": "200 W SEVIER ST", "addr:postcode": "72830", "addr:state": "AR", "amenity": "post_box", "brand": "United States Postal Service", "brand:wikidata": "Q668687", "collection_times": "Mo-Sa 16:30", "name": "USPS COLLECTION BOX - BLUE BOX", "note": "ON 12/24 AND 12/31, THIS BOX MAY BE COLLECTED AS EARLY AS 12 NOON.", "nsi_id": "unitedstatespostalservice-a77078", "operator": "United States Postal Service", "operator:short": "USPS", "operator:type": "public", "operator:wikidata": "Q668687", "ref": "7283000018"}, "type": "Feature"}
{"dataset_attributes": {"@spider": "usps_collection_boxes", "spider:collection_time": "2023-11-28T08:25:58.546046"}, "geometry": {"coordinates": [-93.4602687, 35.460206], "type": "Point"}, "id": "5wRt0jXSHiuj3SPC_MA7ewo1IDY=", "properties": {"@spider": "usps_collection_boxes", "addr:city": "CLARKSVILLE", "addr:country": "US", "addr:full": "1100 S ROGERS ST", "addr:postcode": "72830", "addr:state": "AR", "amenity": "post_box", "brand": "United States Postal Service", "brand:wikidata": "Q668687", "collection_times": "Mo-Sa 13:30", "name": "USPS COLLECTION BOX - BLUE BOX", "note": "ON 12/24 AND 12/31, THIS BOX MAY BE COLLECTED AS EARLY AS 12 NOON.", "nsi_id": "unitedstatespostalservice-a77078", "operator": "United States Postal Service", "operator:short": "USPS", "operator:type": "public", "operator:wikidata": "Q668687", "ref": "7283000020"}, "type": "Feature"}
{"dataset_attributes": {"@spider": "usps_collection_boxes", "spider:collection_time": "2023-11-28T08:25:58.546046"}, "geometry": {"coordinates": [-93.463908, 35.47028], "type": "Point"}, "id": "Rx8WruzDChlmC469K-LAVlFa_QI=", "properties": {"@spider": "usps_collection_boxes", "addr:city": "CLARKSVILLE", "addr:country": "US", "addr:full": "200 W SEVIER ST", "addr:postcode": "72830", "addr:state": "AR", "amenity": "post_box", "brand": "United States Postal Service", "brand:wikidata": "Q668687", "collection_times": "Mo-Sa 16:30", "name": "USPS COLLECTION BOX - PO LOBBY", "note": "ON 12/24 AND 12/31, THIS BOX MAY BE COLLECTED AS EARLY AS 12 NOON.", "nsi_id": "unitedstatespostalservice-a77078", "operator": "United States Postal Service", "operator:short": "USPS", "operator:type": "public", "operator:wikidata": "Q668687", "ref": "7283000021"}, "type": "Feature"}
{"dataset_attributes": {"@spider": "usps_collection_boxes", "spider:collection_time": "2023-11-28T08:25:58.546046"}, "geometry": {"coordinates": [-93.4598363, 35.45006], "type": "Point"}, "id": "-hfei0dC0NnnByg-MypMHXE93t4=", "properties": {"@spider": "usps_collection_boxes", "addr:city": "CLARKSVILLE", "addr:country": "US", "addr:full": "230 E MARKET ST", "addr:postcode": "72830", "addr:state": "AR", "amenity": "post_box", "brand": "United States Postal Service", "brand:wikidata": "Q668687", "collection_times": "Mo-Sa 12:00", "name": "USPS COLLECTION BOX - BLUE BOX", "nsi_id": "unitedstatespostalservice-a77078", "operator": "United States Postal Service", "operator:short": "USPS", "operator:type": "public", "operator:wikidata": "Q668687", "ref": "7283000022"}, "type": "Feature"}
{"dataset_attributes": {"@spider": "usps_collection_boxes", "spider:collection_time": "2023-11-28T08:25:58.546046"}, "geometry": {"coordinates": [-93.463908, 35.47028], "type": "Point"}, "id": "-oXI3La3-6pBywXvQSu3ph0eCpU=", "properties": {"@spider": "usps_collection_boxes", "addr:city": "CLARKSVILLE", "addr:country": "US", "addr:full": "200 W SEVIER ST", "addr:postcode": "72830", "addr:state": "AR", "amenity": "post_box", "brand": "United States Postal Service", "brand:wikidata": "Q668687", "collection_times": "Mo-Sa 16:30", "name": "USPS COLLECTION BOX - PO LOBBY", "note": "ON 12/24 AND 12/31, THIS BOX MAY BE COLLECTED AS EARLY AS 12 NOON.", "nsi_id": "unitedstatespostalservice-a77078", "operator": "United States Postal Service", "operator:short": "USPS", "operator:type": "public", "operator:wikidata": "Q668687", "ref": "7283000023"}, "type": "Feature"}
{"dataset_attributes": {"@spider": "usps_collection_boxes", "spider:collection_time": "2023-11-28T08:25:58.546046"}, "geometry": {"coordinates": [-93.4667860082, 35.4703452588], "type": "Point"}, "id": "gj6x2jDK91eleZwSfZAtNCxGnMw=", "properties": {"@spider": "usps_collection_boxes", "addr:city": "CLARKSVILLE", "addr:country": "US", "addr:full": "200 W SEVIER ST", "addr:postcode": "72830", "addr:state": "AR", "amenity": "post_box", "brand": "United States Postal Service", "brand:wikidata": "Q668687", "collection_times": "Mo-Sa 16:30", "name": "USPS COLLECTION BOX - PO LOBBY", "note": "ON 12/24 AND 12/31, THIS BOX MAY BE COLLECTED AS EARLY AS 12 NOON.", "nsi_id": "unitedstatespostalservice-a77078", "operator": "United States Postal Service", "operator:short": "USPS", "operator:type": "public", "operator:wikidata": "Q668687", "ref": "7283000024"}, "type": "Feature"}
{"dataset_attributes": {"@spider": "usps_collection_boxes", "spider:collection_time": "2023-11-28T08:25:58.546046"}, "geometry": {"coordinates": [-93.466749924, 35.470405773], "type": "Point"}, "id": "kDWV7tzC8g2NPsFwkhwpprJjg-g=", "properties": {"@spider": "usps_collection_boxes", "addr:city": "CLARKSVILLE", "addr:country": "US", "addr:full": "200 W SEVIER ST", "addr:postcode": "72830", "addr:state": "AR", "amenity": "post_box", "brand": "United States Postal Service", "brand:wikidata": "Q668687", "collection_times": "Mo-Fr 16:30; Sa 12:00", "name": "USPS COLLECTION BOX - PO LOBBY", "note": "ON 12/24 AND 12/31, THIS BOX MAY BE COLLECTED AS EARLY AS 12 NOON.", "nsi_id": "unitedstatespostalservice-a77078", "operator": "United States Postal Service", "operator:short": "USPS", "operator:type": "public", "operator:wikidata": "Q668687", "ref": "7283000028"}, "type": "Feature"}
{"dataset_attributes": {"@spider": "usps_collection_boxes", "spider:collection_time": "2023-11-28T08:25:58.546046"}, "geometry": {"coordinates": [-93.669943, 35.437522], "type": "Point"}, "id": "gW2CAB2KWCpWucupSmahCXDtREk=", "properties": {"@spider": "usps_collection_boxes", "addr:city": "COAL HILL", "addr:country": "US", "addr:full": "506 E HIGHWAY 64", "addr:postcode": "72832", "addr:state": "AR", "amenity": "post_box", "brand": "United States Postal Service", "brand:wikidata": "Q668687", "collection_times": "Mo-Sa 11:00", "name": "USPS COLLECTION BOX - BLUE BOX", "nsi_id": "unitedstatespostalservice-a77078", "operator": "United States Postal Service", "operator:short": "USPS", "operator:type": "public", "operator:wikidata": "Q668687", "ref": "7283200001"}, "type": "Feature"}
{"dataset_attributes": {"@spider": "usps_collection_boxes", "spider:collection_time": "2023-11-28T08:25:58.546046"}, "geometry": {"coordinates": [-93.669943, 35.437522], "type": "Point"}, "id": "bXJNwnvC-jzjxQ7jwrcz17WLDBI=", "properties": {"@spider": "usps_collection_boxes", "addr:city": "COAL HILL", "addr:country": "US", "addr:full": "506 E HIGHWAY 64", "addr:postcode": "72832", "addr:state": "AR", "amenity": "post_box", "brand": "United States Postal Service", "brand:wikidata": "Q668687", "collection_times": "Mo-Sa 11:00", "name": "USPS COLLECTION BOX - PO LOBBY", "nsi_id": "unitedstatespostalservice-a77078", "operator": "United States Postal Service", "operator:short": "USPS", "operator:type": "public", "operator:wikidata": "Q668687", "ref": "7283200002"}, "type": "Feature"}
{"dataset_attributes": {"@spider": "usps_collection_boxes", "spider:collection_time": "2023-11-28T08:25:58.546046"}, "geometry": {"coordinates": [-93.669943, 35.437522], "type": "Point"}, "id": "UeNcHYJex_FNN_c0xoqp_yElSDI=", "properties": {"@spider": "usps_collection_boxes", "addr:city": "COAL HILL", "addr:country": "US", "addr:full": "506 E HIGHWAY 64", "addr:postcode": "72832", "addr:state": "AR", "amenity": "post_box", "brand": "United States Postal Service", "brand:wikidata": "Q668687", "collection_times": "Mo-Sa 11:00", "name": "USPS COLLECTION BOX - PO LOBBY", "nsi_id": "unitedstatespostalservice-a77078", "operator": "United States Postal Service", "operator:short": "USPS", "operator:type": "public", "operator:wikidata": "Q668687", "ref": "7283200003"}, "type": "Feature"}
{"dataset_attributes": {"@spider": "usps_collection_boxes", "spider:collection_time": "2023-11-28T08:25:58.546046"}, "geometry": {"coordinates": [-93.669934479, 35.437517551], "type": "Point"}, "id": "I-ApZHsn3TDfpqfgo-zYN8NQ36M=", "properties": {"@spider": "usps_collection_boxes", "addr:city": "COAL HILL", "addr:country": "US", "addr:full": "506 E HIGHWAY 64", "addr:postcode": "72832", "addr:state": "AR", "amenity": "post_box", "brand": "United States Postal Service", "brand:wikidata": "Q668687", "collection_times": "Mo-Fr 11:30; Sa 11:15", "name": "USPS COLLECTION BOX - PO LOBBY", "nsi_id": "unitedstatespostalservice-a77078", "operator": "United States Postal Service", "operator:short": "USPS", "operator:type": "public", "operator:wikidata": "Q668687", "ref": "7283200004"}, "type": "Feature"}
{"dataset_attributes": {"@spider": "usps_collection_boxes", "spider:collection_time": "2023-11-28T08:25:58.546046"}, "geometry": {"coordinates": [-93.389546, 35.054188], "type": "Point"}, "id": "_GC5SGN_l_yki-PiKrF-GJO2B9I=", "properties": {"@spider": "usps_collection_boxes", "addr:city": "DANVILLE", "addr:country": "US", "addr:full": "407 E 8TH ST", "addr:postcode": "72833", "addr:state": "AR", "amenity": "post_box", "brand": "United States Postal Service", "brand:wikidata": "Q668687", "collection_times": "Mo-Fr 16:00; Sa 11:30", "name": "USPS COLLECTION BOX - BLUE BOX", "note": "ON 12/24 AND 12/31, THIS BOX MAY BE COLLECTED AS EARLY AS 12 NOON.", "nsi_id": "unitedstatespostalservice-a77078", "operator": "United States Postal Service", "operator:short": "USPS", "operator:type": "public", "operator:wikidata": "Q668687", "ref": "7283300000"}, "type": "Feature"}
{"dataset_attributes": {"@spider": "usps_collection_boxes", "spider:collection_time": "2023-11-28T08:25:58.546046"}, "geometry": {"coordinates": [-93.389546, 35.054188], "type": "Point"}, "id": "9Au7Ke2yUJC83mbMm_NTDekhv8Q=", "properties": {"@spider": "usps_collection_boxes", "addr:city": "DANVILLE", "addr:country": "US", "addr:full": "407 E 8TH ST", "addr:postcode": "72833", "addr:state": "AR", "amenity": "post_box", "brand": "United States Postal Service", "brand:wikidata": "Q668687", "collection_times": "Mo-Fr 16:00; Sa 11:30", "name": "USPS COLLECTION BOX - PO LOBBY", "note": "ON 12/24 AND 12/31, THIS BOX MAY BE COLLECTED AS EARLY AS 12 NOON.", "nsi_id": "unitedstatespostalservice-a77078", "operator": "United States Postal Service", "operator:short": "USPS", "operator:type": "public", "operator:wikidata": "Q668687", "ref": "7283300001"}, "type": "Feature"}
{"dataset_attributes": {"@spider": "usps_collection_boxes", "spider:collection_time": "2023-11-28T08:25:58.546046"}, "geometry": {"coordinates": [-93.3937579, 35.056971], "type": "Point"}, "id": "9WSNSiR-xaYLzmrhD3EUd5gS4dg=", "properties": {"@spider": "usps_collection_boxes", "addr:city": "DANVILLE", "addr:country": "US", "addr:full": "100 E 5TH ST", "addr:postcode": "72833", "addr:state": "AR", "amenity": "post_box", "brand": "United States Postal Service", "brand:wikidata": "Q668687", "collection_times": "Mo-Fr 13:00", "name": "USPS COLLECTION BOX - BLUE BOX", "note": "ON 12/24 AND 12/31, THIS BOX MAY BE COLLECTED AS EARLY AS 12 NOON.", "nsi_id": "unitedstatespostalservice-a77078", "operator": "United States Postal Service", "operator:short": "USPS", "operator:type": "public", "operator:wikidata": "Q668687", "ref": "7283300002"}, "type": "Feature"}
{"dataset_attributes": {"@spider": "usps_collection_boxes", "spider:collection_time": "2023-11-28T08:25:58.546046"}, "geometry": {"coordinates": [-93.389546, 35.054188], "type": "Point"}, "id": "OUm2gUP-QmDR75SWLDyEuzqZIZM=", "properties": {"@spider": "usps_collection_boxes", "addr:city": "DANVILLE", "addr:country": "US", "addr:full": "407 E 8TH ST", "addr:postcode": "72833", "addr:state": "AR", "amenity": "post_box", "brand": "United States Postal Service", "brand:wikidata": "Q668687", "collection_times": "Mo-Fr 16:00; Sa 11:30", "name": "USPS COLLECTION BOX - PO LOBBY", "note": "ON 12/24 AND 12/31, THIS BOX MAY BE COLLECTED AS EARLY AS 12 NOON.", "nsi_id": "unitedstatespostalservice-a77078", "operator": "United States Postal Service", "operator:short": "USPS", "operator:type": "public", "operator:wikidata": "Q668687", "ref": "7283300003"}, "type": "Feature"}
{"dataset_attributes": {"@spider": "usps_collection_boxes", "spider:collection_time": "2023-11-28T08:25:58.546046"}, "geometry": {"coordinates": [-93.389546, 35.054188], "type": "Point"}, "id": "rH8nIFs1aOgRzuIpQsi8-73G9t4=", "properties": {"@spider": "usps_collection_boxes", "addr:city": "DANVILLE", "addr:country": "US", "addr:full": "407 E 8TH ST", "addr:postcode": "72833", "addr:state": "AR", "amenity": "post_box", "brand": "United States Postal Service", "brand:wikidata": "Q668687", "collection_times": "Mo-Fr 16:00; Sa 11:30", "name": "USPS COLLECTION BOX - PO LOBBY", "note": "ON 12/24 AND 12/31, THIS BOX MAY BE COLLECTED AS EARLY AS 12 NOON.", "nsi_id": "unitedstatespostalservice-a77078", "operator": "United States Postal Service", "operator:short": "USPS", "operator:type": "public", "operator:wikidata": "Q668687", "ref": "7283300004"}, "type": "Feature"}
{"dataset_attributes": {"@spider": "usps_collection_boxes", "spider:collection_time": "2023-11-28T08:25:58.546046"}, "geometry": {"coordinates": [-93.389546, 35.054188], "type": "Point"}, "id": "RyZ_4D4whvZ0rIgQVU-LEFT02Y0=", "properties": {"@spider": "usps_collection_boxes", "addr:city": "DANVILLE", "addr:country": "US", "addr:full": "407 E 8TH ST", "addr:postcode": "72833", "addr:state": "AR", "amenity": "post_box", "brand": "United States Postal Service", "brand:wikidata": "Q668687", "collection_times": "Mo-Fr 16:00; Sa 11:30", "name": "USPS COLLECTION BOX - PO LOBBY", "note": "ON 12/24 AND 12/31, THIS BOX MAY BE COLLECTED AS EARLY AS 12 NOON.", "nsi_id": "unitedstatespostalservice-a77078", "operator": "United States Postal Service", "operator:short": "USPS", "operator:type": "public", "operator:wikidata": "Q668687", "ref": "7283300005"}, "type": "Feature"}
{"dataset_attributes": {"@spider": "usps_collection_boxes", "spider:collection_time": "2023-11-28T08:25:58.546046"}, "geometry": {"coordinates": [-93.389549951, 35.054194285], "type": "Point"}, "id": "tAEXKMYcnGbBUD-qKX7YSlqzT_4=", "properties": {"@spider": "usps_collection_boxes", "addr:city": "DANVILLE", "addr:country": "US", "addr:full": "407 E 8TH ST", "addr:postcode": "72833", "addr:state": "AR", "amenity": "post_box", "brand": "United States Postal Service", "brand:wikidata": "Q668687", "collection_times": "Mo-Fr 16:00; Sa 11:30", "name": "USPS COLLECTION BOX - PO LOBBY", "note": "ON 12/24 AND 12/31, THIS BOX MAY BE COLLECTED AS EARLY AS 12 NOON.", "nsi_id": "unitedstatespostalservice-a77078", "operator": "United States Postal Service", "operator:short": "USPS", "operator:type": "public", "operator:wikidata": "Q668687", "ref": "7283300006"}, "type": "Feature"}
{"dataset_attributes": {"@spider": "usps_collection_boxes", "spider:collection_time": "2023-11-28T08:25:58.546046"}, "geometry": {"coordinates": [-93.153239, 35.220505], "type": "Point"}, "id": "2_A96kEf9KnFdG_g8BvPZVrVpGU=", "properties": {"@spider": "usps_collection_boxes", "addr:city": "DARDANELLE", "addr:country": "US", "addr:full": "103 N FRONT ST", "addr:postcode": "72834", "addr:state": "AR", "amenity": "post_box", "brand": "United States Postal Service", "brand:wikidata": "Q668687", "collection_times": "Mo-Fr 16:30; Sa 10:00", "name": "USPS COLLECTION BOX - BLUE BOX", "note": "ON 12/24 AND 12/31, THIS BOX MAY BE COLLECTED AS EARLY AS 12 NOON.", "nsi_id": "unitedstatespostalservice-a77078", "operator": "United States Postal Service", "operator:short": "USPS", "operator:type": "public", "operator:wikidata": "Q668687", "ref": "7283400001"}, "type": "Feature"}
{"dataset_attributes": {"@spider": "usps_collection_boxes", "spider:collection_time": "2023-11-28T08:25:58.546046"}, "geometry": {"coordinates": [-93.153239, 35.220505], "type": "Point"}, "id": "bkDaMOe0nB1MyOoloUA8BJZNKdQ=", "properties": {"@spider": "usps_collection_boxes", "addr:city": "DARDANELLE", "addr:country": "US", "addr:full": "103 N FRONT ST", "addr:postcode": "72834", "addr:state": "AR", "amenity": "post_box", "brand": "United States Postal Service", "brand:wikidata": "Q668687", "collection_times": "Mo-Fr 16:30; Sa 10:00", "name": "USPS COLLECTION BOX - BLUE BOX", "note": "ON 12/24 AND 12/31, THIS BOX MAY BE COLLECTED AS EARLY AS 12 NOON.", "nsi_id": "unitedstatespostalservice-a77078", "operator": "United States Postal Service", "operator:short": "USPS", "operator:type": "public", "operator:wikidata": "Q668687", "ref": "7283400006"}, "type": "Feature"}
{"dataset_attributes": {"@spider": "usps_collection_boxes", "spider:collection_time": "2023-11-28T08:25:58.546046"}, "geometry": {"coordinates": [-93.153239, 35.220505], "type": "Point"}, "id": "BqNokhsLnmA83IepzGW1WDxUR2k=", "properties": {"@spider": "usps_collection_boxes", "addr:city": "DARDANELLE", "addr:country": "US", "addr:full": "103 N FRONT ST", "addr:postcode": "72834", "addr:state": "AR", "amenity": "post_box", "brand": "United States Postal Service", "brand:wikidata": "Q668687", "collection_times": "Mo-Fr 16:30; Sa 10:00", "name": "USPS COLLECTION BOX - PO LOBBY", "note": "ON 12/24 AND 12/31, THIS BOX MAY BE COLLECTED AS EARLY AS 12 NOON.", "nsi_id": "unitedstatespostalservice-a77078", "operator": "United States Postal Service", "operator:short": "USPS", "operator:type": "public", "operator:wikidata": "Q668687", "ref": "7283400007"}, "type": "Feature"}
{"dataset_attributes": {"@spider": "usps_collection_boxes", "spider:collection_time": "2023-11-28T08:25:58.546046"}, "geometry": {"coordinates": [-93.153239, 35.220505], "type": "Point"}, "id": "YJeXQAxV9s8-2-eq7ssVydmOLeI=", "properties": {"@spider": "usps_collection_boxes", "addr:city": "DARDANELLE", "addr:country": "US", "addr:full": "103 N FRONT ST", "addr:postcode": "72834", "addr:state": "AR", "amenity": "post_box", "brand": "United States Postal Service", "brand:wikidata": "Q668687", "collection_times": "Mo-Fr 16:30; Sa 10:00", "name": "USPS COLLECTION BOX - PO LOBBY", "note": "ON 12/24 AND 12/31, THIS BOX MAY BE COLLECTED AS EARLY AS 12 NOON.", "nsi_id": "unitedstatespostalservice-a77078", "operator": "United States Postal Service", "operator:short": "USPS", "operator:type": "public", "operator:wikidata": "Q668687", "ref": "7283400008"}, "type": "Feature"}
{"dataset_attributes": {"@spider": "usps_collection_boxes", "spider:collection_time": "2023-11-28T08:25:58.546046"}, "geometry": {"coordinates": [-93.1600574, 35.222015], "type": "Point"}, "id": "hkJdzFg90R18asfKt6G908rya-U=", "properties": {"@spider": "usps_collection_boxes", "addr:city": "DARDANELLE", "addr:country": "US", "addr:full": "415 UNION ST", "addr:postcode": "72834", "addr:state": "AR", "amenity": "post_box", "brand": "United States Postal Service", "brand:wikidata": "Q668687", "collection_times": "Mo-Sa 15:00", "name": "USPS COLLECTION BOX - BLUE BOX", "note": "ON 12/24 AND 12/31, THIS BOX MAY BE COLLECTED AS EARLY AS 12 NOON.", "nsi_id": "unitedstatespostalservice-a77078", "operator": "United States Postal Service", "operator:short": "USPS", "operator:type": "public", "operator:wikidata": "Q668687", "ref": "7283400009"}, "type": "Feature"}
{"dataset_attributes": {"@spider": "usps_collection_boxes", "spider:collection_time": "2023-11-28T08:25:58.546046"}, "geometry": {"coordinates": [-93.153241225, 35.220498978], "type": "Point"}, "id": "Y7_Nhgo3lJCDVXuA_-gq3MBhgow=", "properties": {"@spider": "usps_collection_boxes", "addr:city": "DARDANELLE", "addr:country": "US", "addr:full": "103 N FRONT ST", "addr:postcode": "72834", "addr:state": "AR", "amenity": "post_box", "brand": "United States Postal Service", "brand:wikidata": "Q668687", "collection_times": "Mo-Fr 16:30; Sa 09:30", "name": "USPS COLLECTION BOX - PO LOBBY", "note": "ON 12/24 AND 12/31, THIS BOX MAY BE COLLECTED AS EARLY AS 12 NOON.", "nsi_id": "unitedstatespostalservice-a77078", "operator": "United States Postal Service", "operator:short": "USPS", "operator:type": "public", "operator:wikidata": "Q668687", "ref": "7283400011"}, "type": "Feature"}
{"dataset_attributes": {"@spider": "usps_collection_boxes", "spider:collection_time": "2023-11-28T08:25:58.546046"}, "geometry": {"coordinates": [-93.296814, 35.28318], "type": "Point"}, "id": "oij5jphecYL0_Cecxgcx8ZaPIZ0=", "properties": {"@spider": "usps_collection_boxes", "addr:city": "DELAWARE", "addr:country": "US", "addr:full": "53 E STATE HIGHWAY 393", "addr:postcode": "72835", "addr:state": "AR", "amenity": "post_box", "brand": "United States Postal Service", "brand:wikidata": "Q668687", "collection_times": "Mo-Fr 11:00; Sa 10:00", "name": "USPS COLLECTION BOX - BLUE BOX", "nsi_id": "unitedstatespostalservice-a77078", "operator": "United States Postal Service", "operator:short": "USPS", "operator:type": "public", "operator:wikidata": "Q668687", "ref": "7283500001"}, "type": "Feature"}
{"dataset_attributes": {"@spider": "usps_collection_boxes", "spider:collection_time": "2023-11-28T08:25:58.546046"}, "geometry": {"coordinates": [-93.296814, 35.28318], "type": "Point"}, "id": "aJYWGsunR_xHuYQHCc-xuKoUVo4=", "properties": {"@spider": "usps_collection_boxes", "addr:city": "DELAWARE", "addr:country": "US", "addr:full": "53 E STATE HIGHWAY 393", "addr:postcode": "72835", "addr:state": "AR", "amenity": "post_box", "brand": "United States Postal Service", "brand:wikidata": "Q668687", "collection_times": "Mo-Fr 11:00; Sa 10:00", "name": "USPS COLLECTION BOX - PO LOBBY", "nsi_id": "unitedstatespostalservice-a77078", "operator": "United States Postal Service", "operator:short": "USPS", "operator:type": "public", "operator:wikidata": "Q668687", "ref": "7283500002"}, "type": "Feature"}
{"dataset_attributes": {"@spider": "usps_collection_boxes", "spider:collection_time": "2023-11-28T08:25:58.546046"}, "geometry": {"coordinates": [-93.296814, 35.28318], "type": "Point"}, "id": "m7Hd_DqAgaWZiAI6iYgYhIOv8WU=", "properties": {"@spider": "usps_collection_boxes", "addr:city": "DELAWARE", "addr:country": "US", "addr:full": "53 E STATE HIGHWAY 393", "addr:postcode": "72835", "addr:state": "AR", "amenity": "post_box", "brand": "United States Postal Service", "brand:wikidata": "Q668687", "collection_times": "Mo-Fr 11:00; Sa 10:00", "name": "USPS COLLECTION BOX - PO LOBBY", "nsi_id": "unitedstatespostalservice-a77078", "operator": "United States Postal Service", "operator:short": "USPS", "operator:type": "public", "operator:wikidata": "Q668687", "ref": "7283500003"}, "type": "Feature"}
{"dataset_attributes": {"@spider": "usps_collection_boxes", "spider:collection_time": "2023-11-28T08:25:58.546046"}, "geometry": {"coordinates": [-93.296814174, 35.283177503], "type": "Point"}, "id": "zvb_fmtHEQ7OcrpAoahy0jzXyT0=", "properties": {"@spider": "usps_collection_boxes", "addr:city": "DELAWARE", "addr:country": "US", "addr:full": "53 E STATE HIGHWAY 393", "addr:postcode": "72835", "addr:state": "AR", "amenity": "post_box", "brand": "United States Postal Service", "brand:wikidata": "Q668687", "collection_times": "Mo-Fr 11:30; Sa 10:15", "name": "USPS COLLECTION BOX - PO LOBBY", "nsi_id": "unitedstatespostalservice-a77078", "operator": "United States Postal Service", "operator:short": "USPS", "operator:type": "public", "operator:wikidata": "Q668687", "ref": "7283500007"}, "type": "Feature"}
{"dataset_attributes": {"@spider": "usps_collection_boxes", "spider:collection_time": "2023-11-28T08:25:58.546046"}, "geometry": {"coordinates": [-93.120351, 35.402963], "type": "Point"}, "id": "oyC5xWj-MG0yMXG8grcMJ7OG7Jk=", "properties": {"@spider": "usps_collection_boxes", "addr:city": "DOVER", "addr:country": "US", "addr:full": "10115 W CAMP ST", "addr:postcode": "72837", "addr:state": "AR", "amenity": "post_box", "brand": "United States Postal Service", "brand:wikidata": "Q668687", "collection_times": "Mo-Fr 16:30; Sa 11:30", "name": "USPS COLLECTION BOX - BLUE BOX", "note": "ON 12/24 AND 12/31, THIS BOX MAY BE COLLECTED AS EARLY AS 12 NOON.", "nsi_id": "unitedstatespostalservice-a77078", "operator": "United States Postal Service", "operator:short": "USPS", "operator:type": "public", "operator:wikidata": "Q668687", "ref": "7283700000"}, "type": "Feature"}
{"dataset_attributes": {"@spider": "usps_collection_boxes", "spider:collection_time": "2023-11-28T08:25:58.546046"}, "geometry": {"coordinates": [-93.120351, 35.402963], "type": "Point"}, "id": "9JWPcYzip7gkHo7TrNjnoOlDYqA=", "properties": {"@spider": "usps_collection_boxes", "addr:city": "DOVER", "addr:country": "US", "addr:full": "10115 W CAMP ST", "addr:postcode": "72837", "addr:state": "AR", "amenity": "post_box", "brand": "United States Postal Service", "brand:wikidata": "Q668687", "collection_times": "Mo-Fr 16:30; Sa 11:30", "name": "USPS COLLECTION BOX - PO LOBBY", "note": "ON 12/24 AND 12/31, THIS BOX MAY BE COLLECTED AS EARLY AS 12 NOON.", "nsi_id": "unitedstatespostalservice-a77078", "operator": "United States Postal Service", "operator:short": "USPS", "operator:type": "public", "operator:wikidata": "Q668687", "ref": "7283700001"}, "type": "Feature"}
{"dataset_attributes": {"@spider": "usps_collection_boxes", "spider:collection_time": "2023-11-28T08:25:58.546046"}, "geometry": {"coordinates": [-93.120351, 35.402963], "type": "Point"}, "id": "95yQPLtUeOuPuuwy3UprrTVvUT0=", "properties": {"@spider": "usps_collection_boxes", "addr:city": "DOVER", "addr:country": "US", "addr:full": "10115 W CAMP ST", "addr:postcode": "72837", "addr:state": "AR", "amenity": "post_box", "brand": "United States Postal Service", "brand:wikidata": "Q668687", "collection_times": "Mo-Fr 16:30; Sa 11:30", "name": "USPS COLLECTION BOX - PO LOBBY", "note": "ON 12/24 AND 12/31, THIS BOX MAY BE COLLECTED AS EARLY AS 12 NOON.", "nsi_id": "unitedstatespostalservice-a77078", "operator": "United States Postal Service", "operator:short": "USPS", "operator:type": "public", "operator:wikidata": "Q668687", "ref": "7283700003"}, "type": "Feature"}
{"dataset_attributes": {"@spider": "usps_collection_boxes", "spider:collection_time": "2023-11-28T08:25:58.546046"}, "geometry": {"coordinates": [-93.120353361, 35.402961492], "type": "Point"}, "id": "9_MRt9VbIf0U4ctYfDQ8A0w8gvk=", "properties": {"@spider": "usps_collection_boxes", "addr:city": "DOVER", "addr:country": "US", "addr:full": "10115 W CAMP ST", "addr:postcode": "72837", "addr:state": "AR", "amenity": "post_box", "brand": "United States Postal Service", "brand:wikidata": "Q668687", "collection_times": "Mo-Fr 16:00; Sa 11:00", "name": "USPS COLLECTION BOX - PO LOBBY", "note": "ON 12/24 AND 12/31, THIS BOX MAY BE COLLECTED AS EARLY AS 12 NOON.", "nsi_id": "unitedstatespostalservice-a77078", "operator": "United States Postal Service", "operator:short": "USPS", "operator:type": "public", "operator:wikidata": "Q668687", "ref": "7283700007"}, "type": "Feature"}
{"dataset_attributes": {"@spider": "usps_collection_boxes", "spider:collection_time": "2023-11-28T08:25:58.546046"}, "geometry": {"coordinates": [-93.6866808281, 34.8813043138], "type": "Point"}, "id": "a3p06BBOAuPHOhWUmLOLMvN2wVU=", "properties": {"@spider": "usps_collection_boxes", "addr:city": "GRAVELLY", "addr:country": "US", "addr:full": "28634 W HIGHWAY 28", "addr:postcode": "72838", "addr:state": "AR", "amenity": "post_box", "brand": "United States Postal Service", "brand:wikidata": "Q668687", "collection_times": "Mo-Fr 12:30; Sa 11:30", "name": "USPS COLLECTION BOX - PO LOBBY", "note": "ON 12/24 AND 12/31, THIS BOX MAY BE COLLECTED AS EARLY AS 12 NOON.", "nsi_id": "unitedstatespostalservice-a77078", "operator": "United States Postal Service", "operator:short": "USPS", "operator:type": "public", "operator:wikidata": "Q668687", "ref": "7283800000"}, "type": "Feature"}
{"dataset_attributes": {"@spider": "usps_collection_boxes", "spider:collection_time": "2023-11-28T08:25:58.546046"}, "geometry": {"coordinates": [-93.6866808281, 34.8813043138], "type": "Point"}, "id": "hH-EpCqp4SrcohPmoEJfIvfz1BQ=", "properties": {"@spider": "usps_collection_boxes", "addr:city": "GRAVELLY", "addr:country": "US", "addr:full": "28634 W HIGHWAY 28", "addr:postcode": "72838", "addr:state": "AR", "amenity": "post_box", "brand": "United States Postal Service", "brand:wikidata": "Q668687", "collection_times": "Mo-Fr 12:30; Sa 11:30", "name": "USPS COLLECTION BOX - PO LOBBY", "note": "ON 12/24 AND 12/31, THIS BOX MAY BE COLLECTED AS EARLY AS 12 NOON.", "nsi_id": "unitedstatespostalservice-a77078", "operator": "United States Postal Service", "operator:short": "USPS", "operator:type": "public", "operator:wikidata": "Q668687", "ref": "7283800002"}, "type": "Feature"}
{"dataset_attributes": {"@spider": "usps_collection_boxes", "spider:collection_time": "2023-11-28T08:25:58.546046"}, "geometry": {"coordinates": [-93.6866808281, 34.8813043138], "type": "Point"}, "id": "AFXbD3FyB7kF82lw6XbWbMe1Gy8=", "properties": {"@spider": "usps_collection_boxes", "addr:city": "GRAVELLY", "addr:country": "US", "addr:full": "28634 W HIGHWAY 28", "addr:postcode": "72838", "addr:state": "AR", "amenity": "post_box", "brand": "United States Postal Service", "brand:wikidata": "Q668687", "collection_times": "Mo-Fr 13:00; Sa 12:00", "name": "USPS COLLECTION BOX - PO LOBBY", "note": "ON 12/24 AND 12/31, THIS BOX MAY BE COLLECTED AS EARLY AS 12 NOON.", "nsi_id": "unitedstatespostalservice-a77078", "operator": "United States Postal Service", "operator:short": "USPS", "operator:type": "public", "operator:wikidata": "Q668687", "ref": "7283800003"}, "type": "Feature"}
{"dataset_attributes": {"@spider": "usps_collection_boxes", "spider:collection_time": "2023-11-28T08:25:58.546046"}, "geometry": {"coordinates": [-93.3276692, 35.516187], "type": "Point"}, "id": "QNpLk_dkca5_P0dXgEoVJX_hGP0=", "properties": {"@spider": "usps_collection_boxes", "addr:city": "HAGARVILLE", "addr:country": "US", "addr:full": "12083 HIGHWAY 123", "addr:postcode": "72839", "addr:state": "AR", "amenity": "post_box", "brand": "United States Postal Service", "brand:wikidata": "Q668687", "collection_times": "Mo-Fr 15:00; Sa 10:00", "name": "USPS COLLECTION BOX - BLUE BOX", "note": "ON 12/24 AND 12/31, THIS BOX MAY BE COLLECTED AS EARLY AS 12 NOON.", "nsi_id": "unitedstatespostalservice-a77078", "operator": "United States Postal Service", "operator:short": "USPS", "operator:type": "public", "operator:wikidata": "Q668687", "ref": "7283900002"}, "type": "Feature"}
{"dataset_attributes": {"@spider": "usps_collection_boxes", "spider:collection_time": "2023-11-28T08:25:58.546046"}, "geometry": {"coordinates": [-93.327631, 35.51616], "type": "Point"}, "id": "8iu5LGRu2PvmL8GrDXLRtRm_mEs=", "properties": {"@spider": "usps_collection_boxes", "addr:city": "HAGARVILLE", "addr:country": "US", "addr:full": "12083 HIGHWAY 123", "addr:postcode": "72839", "addr:state": "AR", "amenity": "post_box", "brand": "United States Postal Service", "brand:wikidata": "Q668687", "collection_times": "Mo-Fr 10:30; Sa 10:00", "name": "USPS COLLECTION BOX - PO LOBBY", "nsi_id": "unitedstatespostalservice-a77078", "operator": "United States Postal Service", "operator:short": "USPS", "operator:type": "public", "operator:wikidata": "Q668687", "ref": "7283900003"}, "type": "Feature"}
{"dataset_attributes": {"@spider": "usps_collection_boxes", "spider:collection_time": "2023-11-28T08:25:58.546046"}, "geometry": {"coordinates": [-93.327833803, 35.516284479], "type": "Point"}, "id": "G1FNb4Urd4sysU7pEQhSE5sO_fA=", "properties": {"@spider": "usps_collection_boxes", "addr:city": "HAGARVILLE", "addr:country": "US", "addr:full": "12083 HIGHWAY 123", "addr:postcode": "72839", "addr:state": "AR", "amenity": "post_box", "brand": "United States Postal Service", "brand:wikidata": "Q668687", "collection_times": "Mo-Fr 11:00; Sa 10:30", "name": "USPS COLLECTION BOX - PO LOBBY", "nsi_id": "unitedstatespostalservice-a77078", "operator": "United States Postal Service", "operator:short": "USPS", "operator:type": "public", "operator:wikidata": "Q668687", "ref": "7283900004"}, "type": "Feature"}
{"dataset_attributes": {"@spider": "usps_collection_boxes", "spider:collection_time": "2023-11-28T08:25:58.546046"}, "geometry": {"coordinates": [-93.614457, 35.43103], "type": "Point"}, "id": "xCDZyFVr1AMwMLkn1eDe4kkRGr0=", "properties": {"@spider": "usps_collection_boxes", "addr:city": "HARTMAN", "addr:country": "US", "addr:full": "212 MAIN ST", "addr:postcode": "72840", "addr:state": "AR", "amenity": "post_box", "brand": "United States Postal Service", "brand:wikidata": "Q668687", "collection_times": "Mo-Fr 11:30; Sa 12:00", "name": "USPS COLLECTION BOX - BLUE BOX", "nsi_id": "unitedstatespostalservice-a77078", "operator": "United States Postal Service", "operator:short": "USPS", "operator:type": "public", "operator:wikidata": "Q668687", "ref": "7284000000"}, "type": "Feature"}
{"dataset_attributes": {"@spider": "usps_collection_boxes", "spider:collection_time": "2023-11-28T08:25:58.546046"}, "geometry": {"coordinates": [-93.614457, 35.43103], "type": "Point"}, "id": "0YS3xcPVGRRvX9GGKP9b5hhZ_fo=", "properties": {"@spider": "usps_collection_boxes", "addr:city": "HARTMAN", "addr:country": "US", "addr:full": "212 MAIN ST", "addr:postcode": "72840", "addr:state": "AR", "amenity": "post_box", "brand": "United States Postal Service", "brand:wikidata": "Q668687", "collection_times": "Mo-Fr 11:15; Sa 12:00", "name": "USPS COLLECTION BOX - PO LOBBY", "nsi_id": "unitedstatespostalservice-a77078", "operator": "United States Postal Service", "operator:short": "USPS", "operator:type": "public", "operator:wikidata": "Q668687", "ref": "7284000001"}, "type": "Feature"}
{"dataset_attributes": {"@spider": "usps_collection_boxes", "spider:collection_time": "2023-11-28T08:25:58.546046"}, "geometry": {"coordinates": [-93.614457, 35.43103], "type": "Point"}, "id": "TSZHAwHOdR1umgwZKcYRw-PzOnk=", "properties": {"@spider": "usps_collection_boxes", "addr:city": "HARTMAN", "addr:country": "US", "addr:full": "212 MAIN ST", "addr:postcode": "72840", "addr:state": "AR", "amenity": "post_box", "brand": "United States Postal Service", "brand:wikidata": "Q668687", "collection_times": "Mo-Fr 11:15; Sa 12:00", "name": "USPS COLLECTION BOX - PO LOBBY", "nsi_id": "unitedstatespostalservice-a77078", "operator": "United States Postal Service", "operator:short": "USPS", "operator:type": "public", "operator:wikidata": "Q668687", "ref": "7284000002"}, "type": "Feature"}
{"dataset_attributes": {"@spider": "usps_collection_boxes", "spider:collection_time": "2023-11-28T08:25:58.546046"}, "geometry": {"coordinates": [-93.614466322, 35.431027491], "type": "Point"}, "id": "Uphhfg_JyIb42vPtG3L1N3jZFWM=", "properties": {"@spider": "usps_collection_boxes", "addr:city": "HARTMAN", "addr:country": "US", "addr:full": "212 MAIN ST", "addr:postcode": "72840", "addr:state": "AR", "amenity": "post_box", "brand": "United States Postal Service", "brand:wikidata": "Q668687", "collection_times": "Mo-Fr 11:30; Sa 12:00", "name": "USPS COLLECTION BOX - PO LOBBY", "nsi_id": "unitedstatespostalservice-a77078", "operator": "United States Postal Service", "operator:short": "USPS", "operator:type": "public", "operator:wikidata": "Q668687", "ref": "7284000005"}, "type": "Feature"}
{"dataset_attributes": {"@spider": "usps_collection_boxes", "spider:collection_time": "2023-11-28T08:25:58.546046"}, "geometry": {"coordinates": [-93.785005, 34.850679], "type": "Point"}, "id": "53MFRTGj0bXj8kfRNZzGT9elnao=", "properties": {"@spider": "usps_collection_boxes", "addr:city": "HARVEY", "addr:country": "US", "addr:full": "26396 E HIGHWAY 28", "addr:postcode": "72841", "addr:state": "AR", "amenity": "post_box", "brand": "United States Postal Service", "brand:wikidata": "Q668687", "collection_times": "Mo-Sa 11:45", "name": "USPS COLLECTION BOX - PO LOBBY", "nsi_id": "unitedstatespostalservice-a77078", "operator": "United States Postal Service", "operator:short": "USPS", "operator:type": "public", "operator:wikidata": "Q668687", "ref": "7284100002"}, "type": "Feature"}
{"dataset_attributes": {"@spider": "usps_collection_boxes", "spider:collection_time": "2023-11-28T08:25:58.546046"}, "geometry": {"coordinates": [-93.785005, 34.850679], "type": "Point"}, "id": "tao4bQsITkiHZhI0YghcDc5kQ5o=", "properties": {"@spider": "usps_collection_boxes", "addr:city": "HARVEY", "addr:country": "US", "addr:full": "26396 E HIGHWAY 28", "addr:postcode": "72841", "addr:state": "AR", "amenity": "post_box", "brand": "United States Postal Service", "brand:wikidata": "Q668687", "collection_times": "Mo-Sa 11:45", "name": "USPS COLLECTION BOX - PO LOBBY", "nsi_id": "unitedstatespostalservice-a77078", "operator": "United States Postal Service", "operator:short": "USPS", "operator:type": "public", "operator:wikidata": "Q668687", "ref": "7284100003"}, "type": "Feature"}
{"dataset_attributes": {"@spider": "usps_collection_boxes", "spider:collection_time": "2023-11-28T08:25:58.546046"}, "geometry": {"coordinates": [-93.784987318, 34.850713022], "type": "Point"}, "id": "Wc_iDTduvUDQS-tWvJB4ILaoh4E=", "properties": {"@spider": "usps_collection_boxes", "addr:city": "HARVEY", "addr:country": "US", "addr:full": "26396 E HIGHWAY 28", "addr:postcode": "72841", "addr:state": "AR", "amenity": "post_box", "brand": "United States Postal Service", "brand:wikidata": "Q668687", "collection_times": "Mo-Fr 14:00; Sa 12:30", "name": "USPS COLLECTION BOX - PO LOBBY", "note": "ON 12/24 AND 12/31, THIS BOX MAY BE COLLECTED AS EARLY AS 12 NOON.", "nsi_id": "unitedstatespostalservice-a77078", "operator": "United States Postal Service", "operator:short": "USPS", "operator:type": "public", "operator:wikidata": "Q668687", "ref": "7284100004"}, "type": "Feature"}
{"dataset_attributes": {"@spider": "usps_collection_boxes", "spider:collection_time": "2023-11-28T08:25:58.546046"}, "geometry": {"coordinates": [-93.533272, 35.11117], "type": "Point"}, "id": "NW5dwalYoSuyAL9Bq4MNqO3nPQA=", "properties": {"@spider": "usps_collection_boxes", "addr:city": "HAVANA", "addr:country": "US", "addr:full": "311 W BROADWAY", "addr:postcode": "72842", "addr:state": "AR", "amenity": "post_box", "brand": "United States Postal Service", "brand:wikidata": "Q668687", "collection_times": "Mo-Fr 11:30; Sa 10:30", "name": "USPS COLLECTION BOX - BLUE BOX", "nsi_id": "unitedstatespostalservice-a77078", "operator": "United States Postal Service", "operator:short": "USPS", "operator:type": "public", "operator:wikidata": "Q668687", "ref": "7284200001"}, "type": "Feature"}
{"dataset_attributes": {"@spider": "usps_collection_boxes", "spider:collection_time": "2023-11-28T08:25:58.546046"}, "geometry": {"coordinates": [-93.533272, 35.11117], "type": "Point"}, "id": "DO_IMfL1qnzzh0yGtZjKQKxRdDk=", "properties": {"@spider": "usps_collection_boxes", "addr:city": "HAVANA", "addr:country": "US", "addr:full": "311 W BROADWAY", "addr:postcode": "72842", "addr:state": "AR", "amenity": "post_box", "brand": "United States Postal Service", "brand:wikidata": "Q668687", "collection_times": "Mo-Fr 11:00; Sa 10:30", "name": "USPS COLLECTION BOX - PO LOBBY", "nsi_id": "unitedstatespostalservice-a77078", "operator": "United States Postal Service", "operator:short": "USPS", "operator:type": "public", "operator:wikidata": "Q668687", "ref": "7284200002"}, "type": "Feature"}
{"dataset_attributes": {"@spider": "usps_collection_boxes", "spider:collection_time": "2023-11-28T08:25:58.546046"}, "geometry": {"coordinates": [-93.533679508, 35.11128709], "type": "Point"}, "id": "hASicdoITqTmsNkni4ubtzobbgw=", "properties": {"@spider": "usps_collection_boxes", "addr:city": "HAVANA", "addr:country": "US", "addr:full": "311 W BROADWAY", "addr:postcode": "72842", "addr:state": "AR", "amenity": "post_box", "brand": "United States Postal Service", "brand:wikidata": "Q668687", "collection_times": "Mo-Fr 11:30; Sa 10:45", "name": "USPS COLLECTION BOX - PO LOBBY", "nsi_id": "unitedstatespostalservice-a77078", "operator": "United States Postal Service", "operator:short": "USPS", "operator:type": "public", "operator:wikidata": "Q668687", "ref": "7284200005"}, "type": "Feature"}
{"dataset_attributes": {"@spider": "usps_collection_boxes", "spider:collection_time": "2023-11-28T08:25:58.546046"}, "geometry": {"coordinates": [-92.9758457, 35.465103], "type": "Point"}, "id": "oDmAze28182VrtzQ8hi9CVCE8vI=", "properties": {"@spider": "usps_collection_boxes", "addr:city": "HECTOR", "addr:country": "US", "addr:full": "59 ELM ST", "addr:postcode": "72843", "addr:state": "AR", "amenity": "post_box", "brand": "United States Postal Service", "brand:wikidata": "Q668687", "collection_times": "Mo-Fr 11:30; Sa 11:00", "name": "USPS COLLECTION BOX - BLUE BOX", "nsi_id": "unitedstatespostalservice-a77078", "operator": "United States Postal Service", "operator:short": "USPS", "operator:type": "public", "operator:wikidata": "Q668687", "ref": "7284300001"}, "type": "Feature"}
{"dataset_attributes": {"@spider": "usps_collection_boxes", "spider:collection_time": "2023-11-28T08:25:58.546046"}, "geometry": {"coordinates": [-92.975622, 35.465349], "type": "Point"}, "id": "J91PiFHJKw1pnl86UECSptJ7-Ug=", "properties": {"@spider": "usps_collection_boxes", "addr:city": "HECTOR", "addr:country": "US", "addr:full": "59 ELM ST", "addr:postcode": "72843", "addr:state": "AR", "amenity": "post_box", "brand": "United States Postal Service", "brand:wikidata": "Q668687", "collection_times": "Mo-Fr 11:30; Sa 11:00", "name": "USPS COLLECTION BOX - PO LOBBY", "nsi_id": "unitedstatespostalservice-a77078", "operator": "United States Postal Service", "operator:short": "USPS", "operator:type": "public", "operator:wikidata": "Q668687", "ref": "7284300002"}, "type": "Feature"}
{"dataset_attributes": {"@spider": "usps_collection_boxes", "spider:collection_time": "2023-11-28T08:25:58.546046"}, "geometry": {"coordinates": [-92.975622, 35.465349], "type": "Point"}, "id": "079pIEYVLQ39BooR-CJJ6a1O9vg=", "properties": {"@spider": "usps_collection_boxes", "addr:city": "HECTOR", "addr:country": "US", "addr:full": "59 ELM ST", "addr:postcode": "72843", "addr:state": "AR", "amenity": "post_box", "brand": "United States Postal Service", "brand:wikidata": "Q668687", "collection_times": "Mo-Fr 11:30; Sa 11:00", "name": "USPS COLLECTION BOX - PO LOBBY", "nsi_id": "unitedstatespostalservice-a77078", "operator": "United States Postal Service", "operator:short": "USPS", "operator:type": "public", "operator:wikidata": "Q668687", "ref": "7284300003"}, "type": "Feature"}
{"dataset_attributes": {"@spider": "usps_collection_boxes", "spider:collection_time": "2023-11-28T08:25:58.546046"}, "geometry": {"coordinates": [-92.976002801, 35.465278507], "type": "Point"}, "id": "C_ELQDE5RbQFqZEYZh80pBNh-2E=", "properties": {"@spider": "usps_collection_boxes", "addr:city": "HECTOR", "addr:country": "US", "addr:full": "59 ELM ST", "addr:postcode": "72843", "addr:state": "AR", "amenity": "post_box", "brand": "United States Postal Service", "brand:wikidata": "Q668687", "collection_times": "Mo-Fr 12:00; Sa 11:00", "name": "USPS COLLECTION BOX - PO LOBBY", "nsi_id": "unitedstatespostalservice-a77078", "operator": "United States Postal Service", "operator:short": "USPS", "operator:type": "public", "operator:wikidata": "Q668687", "ref": "7284300006"}, "type": "Feature"}
{"dataset_attributes": {"@spider": "usps_collection_boxes", "spider:collection_time": "2023-11-28T08:25:58.546046"}, "geometry": {"coordinates": [-93.364059, 35.382348], "type": "Point"}, "id": "mHL-QckPjQtBqXH4_YlkqP3aaHg=", "properties": {"@spider": "usps_collection_boxes", "addr:city": "KNOXVILLE", "addr:country": "US", "addr:full": "100 HIGHWAY 315", "addr:postcode": "72845", "addr:state": "AR", "amenity": "post_box", "brand": "United States Postal Service", "brand:wikidata": "Q668687", "collection_times": "Mo-Fr 11:30; Sa 11:40", "name": "USPS COLLECTION BOX - BLUE BOX", "nsi_id": "unitedstatespostalservice-a77078", "operator": "United States Postal Service", "operator:short": "USPS", "operator:type": "public", "operator:wikidata": "Q668687", "ref": "7284500000"}, "type": "Feature"}
{"dataset_attributes": {"@spider": "usps_collection_boxes", "spider:collection_time": "2023-11-28T08:25:58.546046"}, "geometry": {"coordinates": [-93.364059, 35.382348], "type": "Point"}, "id": "NU2gWjWRV2TVY532XuVH2HJ7ONo=", "properties": {"@spider": "usps_collection_boxes", "addr:city": "KNOXVILLE", "addr:country": "US", "addr:full": "100 HIGHWAY 315", "addr:postcode": "72845", "addr:state": "AR", "amenity": "post_box", "brand": "United States Postal Service", "brand:wikidata": "Q668687", "collection_times": "Mo-Fr 11:00; Sa 11:45", "name": "USPS COLLECTION BOX - PO LOBBY", "nsi_id": "unitedstatespostalservice-a77078", "operator": "United States Postal Service", "operator:short": "USPS", "operator:type": "public", "operator:wikidata": "Q668687", "ref": "7284500001"}, "type": "Feature"}
{"dataset_attributes": {"@spider": "usps_collection_boxes", "spider:collection_time": "2023-11-28T08:25:58.546046"}, "geometry": {"coordinates": [-93.364108448, 35.382378091], "type": "Point"}, "id": "PooOWHqing4eDAfre5udNeNH-7Y=", "properties": {"@spider": "usps_collection_boxes", "addr:city": "KNOXVILLE", "addr:country": "US", "addr:full": "100 HIGHWAY 315", "addr:postcode": "72845", "addr:state": "AR", "amenity": "post_box", "brand": "United States Postal Service", "brand:wikidata": "Q668687", "collection_times": "Mo-Fr 11:30; Sa 11:45", "name": "USPS COLLECTION BOX - PO LOBBY", "nsi_id": "unitedstatespostalservice-a77078", "operator": "United States Postal Service", "operator:short": "USPS", "operator:type": "public", "operator:wikidata": "Q668687", "ref": "7284500002"}, "type": "Feature"}
{"dataset_attributes": {"@spider": "usps_collection_boxes", "spider:collection_time": "2023-11-28T08:25:58.546046"}, "geometry": {"coordinates": [-93.391205, 35.443519], "type": "Point"}, "id": "KMXbrbD-hrKm4y-O9b8bRH3EWPg=", "properties": {"@spider": "usps_collection_boxes", "addr:city": "LAMAR", "addr:country": "US", "addr:full": "251 W MAIN ST", "addr:postcode": "72846", "addr:state": "AR", "amenity": "post_box", "brand": "United States Postal Service", "brand:wikidata": "Q668687", "collection_times": "Mo-Fr 16:30; Sa 10:00", "name": "USPS COLLECTION BOX - BLUE BOX", "note": "ON 12/24 AND 12/31, THIS BOX MAY BE COLLECTED AS EARLY AS 12 NOON.", "nsi_id": "unitedstatespostalservice-a77078", "operator": "United States Postal Service", "operator:short": "USPS", "operator:type": "public", "operator:wikidata": "Q668687", "ref": "7284600000"}, "type": "Feature"}
{"dataset_attributes": {"@spider": "usps_collection_boxes", "spider:collection_time": "2023-11-28T08:25:58.546046"}, "geometry": {"coordinates": [-93.391205, 35.443519], "type": "Point"}, "id": "qlB8LMM0aifT3FhCcpv4PaD6uw4=", "properties": {"@spider": "usps_collection_boxes", "addr:city": "LAMAR", "addr:country": "US", "addr:full": "251 W MAIN ST", "addr:postcode": "72846", "addr:state": "AR", "amenity": "post_box", "brand": "United States Postal Service", "brand:wikidata": "Q668687", "collection_times": "Mo-Fr 16:30; Sa 10:00", "name": "USPS COLLECTION BOX - PO LOBBY", "note": "ON 12/24 AND 12/31, THIS BOX MAY BE COLLECTED AS EARLY AS 12 NOON.", "nsi_id": "unitedstatespostalservice-a77078", "operator": "United States Postal Service", "operator:short": "USPS", "operator:type": "public", "operator:wikidata": "Q668687", "ref": "7284600001"}, "type": "Feature"}
{"dataset_attributes": {"@spider": "usps_collection_boxes", "spider:collection_time": "2023-11-28T08:25:58.546046"}, "geometry": {"coordinates": [-93.391205, 35.443519], "type": "Point"}, "id": "nLliVVlA0SQ-VOEorwIZYUvfclY=", "properties": {"@spider": "usps_collection_boxes", "addr:city": "LAMAR", "addr:country": "US", "addr:full": "251 W MAIN ST", "addr:postcode": "72846", "addr:state": "AR", "amenity": "post_box", "brand": "United States Postal Service", "brand:wikidata": "Q668687", "collection_times": "Mo-Fr 16:30; Sa 10:00", "name": "USPS COLLECTION BOX - PO LOBBY", "note": "ON 12/24 AND 12/31, THIS BOX MAY BE COLLECTED AS EARLY AS 12 NOON.", "nsi_id": "unitedstatespostalservice-a77078", "operator": "United States Postal Service", "operator:short": "USPS", "operator:type": "public", "operator:wikidata": "Q668687", "ref": "7284600004"}, "type": "Feature"}
{"dataset_attributes": {"@spider": "usps_collection_boxes", "spider:collection_time": "2023-11-28T08:25:58.546046"}, "geometry": {"coordinates": [-93.391098683, 35.443839207], "type": "Point"}, "id": "yNyBCF6nwjyvqiE8bsUnpZ-Cxn0=", "properties": {"@spider": "usps_collection_boxes", "addr:city": "LAMAR", "addr:country": "US", "addr:full": "251 W MAIN ST", "addr:postcode": "72846", "addr:state": "AR", "amenity": "post_box", "brand": "United States Postal Service", "brand:wikidata": "Q668687", "collection_times": "Mo-Fr 16:30; Sa 10:00", "name": "USPS COLLECTION BOX - PO LOBBY", "note": "ON 12/24 AND 12/31, THIS BOX MAY BE COLLECTED AS EARLY AS 12 NOON.", "nsi_id": "unitedstatespostalservice-a77078", "operator": "United States Postal Service", "operator:short": "USPS", "operator:type": "public", "operator:wikidata": "Q668687", "ref": "7284600005"}, "type": "Feature"}
{"dataset_attributes": {"@spider": "usps_collection_boxes", "spider:collection_time": "2023-11-28T08:25:58.546046"}, "geometry": {"coordinates": [-93.255322, 35.331507], "type": "Point"}, "id": "IeUhJbzX83OL_ZiIUeGU2jkvk5o=", "properties": {"@spider": "usps_collection_boxes", "addr:city": "LONDON", "addr:country": "US", "addr:full": "10518 US HIGHWAY 64 W", "addr:postcode": "72847", "addr:state": "AR", "amenity": "post_box", "brand": "United States Postal Service", "brand:wikidata": "Q668687", "collection_times": "Mo-Fr 14:30; Sa 11:00", "name": "USPS COLLECTION BOX - PO LOBBY", "note": "ON 12/24 AND 12/31, THIS BOX MAY BE COLLECTED AS EARLY AS 12 NOON.", "nsi_id": "unitedstatespostalservice-a77078", "operator": "United States Postal Service", "operator:short": "USPS", "operator:type": "public", "operator:wikidata": "Q668687", "ref": "7284700001"}, "type": "Feature"}
{"dataset_attributes": {"@spider": "usps_collection_boxes", "spider:collection_time": "2023-11-28T08:25:58.546046"}, "geometry": {"coordinates": [-93.255322531, 35.331503446], "type": "Point"}, "id": "xV5Wgc96uB_F1u_4JUaCzAoHLMc=", "properties": {"@spider": "usps_collection_boxes", "addr:city": "LONDON", "addr:country": "US", "addr:full": "10518 US HIGHWAY 64 W", "addr:postcode": "72847", "addr:state": "AR", "amenity": "post_box", "brand": "United States Postal Service", "brand:wikidata": "Q668687", "collection_times": "Mo-Fr 14:45; Sa 11:00", "name": "USPS COLLECTION BOX - PO LOBBY", "note": "ON 12/24 AND 12/31, THIS BOX MAY BE COLLECTED AS EARLY AS 12 NOON.", "nsi_id": "unitedstatespostalservice-a77078", "operator": "United States Postal Service", "operator:short": "USPS", "operator:type": "public", "operator:wikidata": "Q668687", "ref": "7284700004"}, "type": "Feature"}
{"dataset_attributes": {"@spider": "usps_collection_boxes", "spider:collection_time": "2023-11-28T08:25:58.546046"}, "geometry": {"coordinates": [-93.48098, 35.288691], "type": "Point"}, "id": "0FAKbgM4MW8rR-bxLWIMpwGs9hs=", "properties": {"@spider": "usps_collection_boxes", "addr:city": "NEW BLAINE", "addr:country": "US", "addr:full": "19809 E STATE HIGHWAY 22", "addr:postcode": "72851", "addr:state": "AR", "amenity": "post_box", "brand": "United States Postal Service", "brand:wikidata": "Q668687", "collection_times": "Mo-Fr 09:00; Sa 10:00", "name": "USPS COLLECTION BOX - PO LOBBY", "nsi_id": "unitedstatespostalservice-a77078", "operator": "United States Postal Service", "operator:short": "USPS", "operator:type": "public", "operator:wikidata": "Q668687", "ref": "7285100002"}, "type": "Feature"}
{"dataset_attributes": {"@spider": "usps_collection_boxes", "spider:collection_time": "2023-11-28T08:25:58.546046"}, "geometry": {"coordinates": [-93.383897, 35.283946], "type": "Point"}, "id": "R9_g9MWi5mzkaujv8D4uQ0xvJ8c=", "properties": {"@spider": "usps_collection_boxes", "addr:city": "NEW BLAINE", "addr:country": "US", "addr:full": "19809 E STATE HIGHWAY 22", "addr:postcode": "72851", "addr:state": "AR", "amenity": "post_box", "brand": "United States Postal Service", "brand:wikidata": "Q668687", "collection_times": "Mo-Fr 09:00; Sa 10:00", "name": "USPS COLLECTION BOX - PO LOBBY", "nsi_id": "unitedstatespostalservice-a77078", "operator": "United States Postal Service", "operator:short": "USPS", "operator:type": "public", "operator:wikidata": "Q668687", "ref": "7285100003"}, "type": "Feature"}
{"dataset_attributes": {"@spider": "usps_collection_boxes", "spider:collection_time": "2023-11-28T08:25:58.546046"}, "geometry": {"coordinates": [-93.383897, 35.283946], "type": "Point"}, "id": "PDp2_N6y0OnNp2DjGyOkEJK1g7M=", "properties": {"@spider": "usps_collection_boxes", "addr:city": "NEW BLAINE", "addr:country": "US", "addr:full": "19809 E STATE HIGHWAY 22", "addr:postcode": "72851", "addr:state": "AR", "amenity": "post_box", "brand": "United States Postal Service", "brand:wikidata": "Q668687", "collection_times": "Mo-Fr 09:00; Sa 10:00", "name": "USPS COLLECTION BOX - BLUE BOX", "nsi_id": "unitedstatespostalservice-a77078", "operator": "United States Postal Service", "operator:short": "USPS", "operator:type": "public", "operator:wikidata": "Q668687", "ref": "7285100004"}, "type": "Feature"}
{"dataset_attributes": {"@spider": "usps_collection_boxes", "spider:collection_time": "2023-11-28T08:25:58.546046"}, "geometry": {"coordinates": [-93.411910074, 35.289971225], "type": "Point"}, "id": "IAwQ0-1Cz4wJOoawxryLCw68M6g=", "properties": {"@spider": "usps_collection_boxes", "addr:city": "NEW BLAINE", "addr:country": "US", "addr:full": "19809 E STATE HIGHWAY 22", "addr:postcode": "72851", "addr:state": "AR", "amenity": "post_box", "brand": "United States Postal Service", "brand:wikidata": "Q668687", "collection_times": "Mo-Fr 09:30; Sa 10:15", "name": "USPS COLLECTION BOX - PO LOBBY", "nsi_id": "unitedstatespostalservice-a77078", "operator": "United States Postal Service", "operator:short": "USPS", "operator:type": "public", "operator:wikidata": "Q668687", "ref": "7285100005"}, "type": "Feature"}
{"dataset_attributes": {"@spider": "usps_collection_boxes", "spider:collection_time": "2023-11-28T08:25:58.546046"}, "geometry": {"coordinates": [-93.573395709, 35.6892451734], "type": "Point"}, "id": "KtKfPFlhm6mhow4mP70-Ll8sm_A=", "properties": {"@spider": "usps_collection_boxes", "addr:city": "OARK", "addr:country": "US", "addr:full": "100 HIGHWAY 215", "addr:postcode": "72852", "addr:state": "AR", "amenity": "post_box", "brand": "United States Postal Service", "brand:wikidata": "Q668687", "collection_times": "Mo-Sa 11:30", "name": "USPS COLLECTION BOX - PO LOBBY", "nsi_id": "unitedstatespostalservice-a77078", "operator": "United States Postal Service", "operator:short": "USPS", "operator:type": "public", "operator:wikidata": "Q668687", "ref": "7285200001"}, "type": "Feature"}
{"dataset_attributes": {"@spider": "usps_collection_boxes", "spider:collection_time": "2023-11-28T08:25:58.546046"}, "geometry": {"coordinates": [-93.573395709, 35.689245173], "type": "Point"}, "id": "-nFvIWqnrbH3FY43ON7ksOXWCjU=", "properties": {"@spider": "usps_collection_boxes", "addr:city": "OARK", "addr:country": "US", "addr:full": "100 HIGHWAY 215", "addr:postcode": "72852", "addr:state": "AR", "amenity": "post_box", "brand": "United States Postal Service", "brand:wikidata": "Q668687", "collection_times": "Mo-Fr 14:00; Sa 13:30", "name": "USPS COLLECTION BOX - PO LOBBY", "note": "ON 12/24 AND 12/31, THIS BOX MAY BE COLLECTED AS EARLY AS 12 NOON.", "nsi_id": "unitedstatespostalservice-a77078", "operator": "United States Postal Service", "operator:short": "USPS", "operator:type": "public", "operator:wikidata": "Q668687", "ref": "7285200003"}, "type": "Feature"}
{"dataset_attributes": {"@spider": "usps_collection_boxes", "spider:collection_time": "2023-11-28T08:25:58.546046"}, "geometry": {"coordinates": [-93.220132, 35.032353], "type": "Point"}, "id": "DE7rR2QfY7f-b5S4CIBTrmtQGjA=", "properties": {"@spider": "usps_collection_boxes", "addr:city": "OLA", "addr:country": "US", "addr:full": "310 E PENNINGTON ST", "addr:postcode": "72853", "addr:state": "AR", "amenity": "post_box", "brand": "United States Postal Service", "brand:wikidata": "Q668687", "collection_times": "Mo-Fr 13:30; Sa 12:00", "name": "USPS COLLECTION BOX - BLUE BOX", "note": "ON 12/24 AND 12/31, THIS BOX MAY BE COLLECTED AS EARLY AS 12 NOON.", "nsi_id": "unitedstatespostalservice-a77078", "operator": "United States Postal Service", "operator:short": "USPS", "operator:type": "public", "operator:wikidata": "Q668687", "ref": "7285300000"}, "type": "Feature"}
{"dataset_attributes": {"@spider": "usps_collection_boxes", "spider:collection_time": "2023-11-28T08:25:58.546046"}, "geometry": {"coordinates": [-93.220132, 35.032353], "type": "Point"}, "id": "Zk_IdhsI8-Dpy7CDyJsnGqo1LXg=", "properties": {"@spider": "usps_collection_boxes", "addr:city": "OLA", "addr:country": "US", "addr:full": "310 E PENNINGTON ST", "addr:postcode": "72853", "addr:state": "AR", "amenity": "post_box", "brand": "United States Postal Service", "brand:wikidata": "Q668687", "collection_times": "Mo-Fr 13:30; Sa 12:00", "name": "USPS COLLECTION BOX - PO LOBBY", "note": "ON 12/24 AND 12/31, THIS BOX MAY BE COLLECTED AS EARLY AS 12 NOON.", "nsi_id": "unitedstatespostalservice-a77078", "operator": "United States Postal Service", "operator:short": "USPS", "operator:type": "public", "operator:wikidata": "Q668687", "ref": "7285300001"}, "type": "Feature"}
{"dataset_attributes": {"@spider": "usps_collection_boxes", "spider:collection_time": "2023-11-28T08:25:58.546046"}, "geometry": {"coordinates": [-93.220132919, 35.032348624], "type": "Point"}, "id": "LkK-6NMe1B_rhby05fOelUHu9pw=", "properties": {"@spider": "usps_collection_boxes", "addr:city": "OLA", "addr:country": "US", "addr:full": "310 E PENNINGTON ST", "addr:postcode": "72853", "addr:state": "AR", "amenity": "post_box", "brand": "United States Postal Service", "brand:wikidata": "Q668687", "collection_times": "Mo-Fr 14:00; Sa 12:00", "name": "USPS COLLECTION BOX - PO LOBBY", "note": "ON 12/24 AND 12/31, THIS BOX MAY BE COLLECTED AS EARLY AS 12 NOON.", "nsi_id": "unitedstatespostalservice-a77078", "operator": "United States Postal Service", "operator:short": "USPS", "operator:type": "public", "operator:wikidata": "Q668687", "ref": "7285300005"}, "type": "Feature"}
{"dataset_attributes": {"@spider": "usps_collection_boxes", "spider:collection_time": "2023-11-28T08:25:58.546046"}, "geometry": {"coordinates": [-93.4425918, 35.640466], "type": "Point"}, "id": "KpB2HnFZ4ciRZSHgiwA0YDI--JQ=", "properties": {"@spider": "usps_collection_boxes", "addr:city": "OZONE", "addr:country": "US", "addr:full": "101 HIGHWAY 21 N", "addr:postcode": "72854", "addr:state": "AR", "amenity": "post_box", "brand": "United States Postal Service", "brand:wikidata": "Q668687", "collection_times": "Mo-Fr 14:00; Sa 10:45", "name": "USPS COLLECTION BOX - BLUE BOX", "note": "ON 12/24 AND 12/31, THIS BOX MAY BE COLLECTED AS EARLY AS 12 NOON.", "nsi_id": "unitedstatespostalservice-a77078", "operator": "United States Postal Service", "operator:short": "USPS", "operator:type": "public", "operator:wikidata": "Q668687", "ref": "7285400000"}, "type": "Feature"}
{"dataset_attributes": {"@spider": "usps_collection_boxes", "spider:collection_time": "2023-11-28T08:25:58.546046"}, "geometry": {"coordinates": [-93.438371, 35.681332], "type": "Point"}, "id": "eF6XjbYXxA_fh0jKF6UpESYQ-J4=", "properties": {"@spider": "usps_collection_boxes", "addr:city": "OZONE", "addr:country": "US", "addr:full": "101 HIGHWAY 21 N", "addr:postcode": "72854", "addr:state": "AR", "amenity": "post_box", "brand": "United States Postal Service", "brand:wikidata": "Q668687", "collection_times": "Mo-Fr 11:30; Sa 10:45", "name": "USPS COLLECTION BOX - PO LOBBY", "nsi_id": "unitedstatespostalservice-a77078", "operator": "United States Postal Service", "operator:short": "USPS", "operator:type": "public", "operator:wikidata": "Q668687", "ref": "7285400001"}, "type": "Feature"}
{"dataset_attributes": {"@spider": "usps_collection_boxes", "spider:collection_time": "2023-11-28T08:25:58.546046"}, "geometry": {"coordinates": [-93.436578414, 35.683822079], "type": "Point"}, "id": "iFB_q4O6ivPY2JN4-LMtq4Nv4V0=", "properties": {"@spider": "usps_collection_boxes", "addr:city": "OZONE", "addr:country": "US", "addr:full": "101 HIGHWAY 21 N", "addr:postcode": "72854", "addr:state": "AR", "amenity": "post_box", "brand": "United States Postal Service", "brand:wikidata": "Q668687", "collection_times": "Mo-Fr 12:00; Sa 11:00", "name": "USPS COLLECTION BOX - PO LOBBY", "nsi_id": "unitedstatespostalservice-a77078", "operator": "United States Postal Service", "operator:short": "USPS", "operator:type": "public", "operator:wikidata": "Q668687", "ref": "7285400003"}, "type": "Feature"}
{"dataset_attributes": {"@spider": "usps_collection_boxes", "spider:collection_time": "2023-11-28T08:25:58.546046"}, "geometry": {"coordinates": [-93.7209299, 35.291913], "type": "Point"}, "id": "VnUVCEs-PrGpHebQlYYPwAIE-GU=", "properties": {"@spider": "usps_collection_boxes", "addr:city": "PARIS", "addr:country": "US", "addr:full": "1004 E WALNUT ST", "addr:postcode": "72855", "addr:state": "AR", "amenity": "post_box", "brand": "United States Postal Service", "brand:wikidata": "Q668687", "collection_times": "Mo-Sa 12:00", "name": "USPS COLLECTION BOX - BLUE BOX", "nsi_id": "unitedstatespostalservice-a77078", "operator": "United States Postal Service", "operator:short": "USPS", "operator:type": "public", "operator:wikidata": "Q668687", "ref": "7285500010"}, "type": "Feature"}
{"dataset_attributes": {"@spider": "usps_collection_boxes", "spider:collection_time": "2023-11-28T08:25:58.546046"}, "geometry": {"coordinates": [-93.729921, 35.293622], "type": "Point"}, "id": "cnuR5suNqwQC5xVMNa0_hx_UDhA=", "properties": {"@spider": "usps_collection_boxes", "addr:city": "PARIS", "addr:country": "US", "addr:full": "206 N ELM ST", "addr:postcode": "72855", "addr:state": "AR", "amenity": "post_box", "brand": "United States Postal Service", "brand:wikidata": "Q668687", "collection_times": "Mo-Fr 16:15; Sa 09:00", "name": "USPS COLLECTION BOX - PO LOBBY", "note": "ON 12/24 AND 12/31, THIS BOX MAY BE COLLECTED AS EARLY AS 12 NOON.", "nsi_id": "unitedstatespostalservice-a77078", "operator": "United States Postal Service", "operator:short": "USPS", "operator:type": "public", "operator:wikidata": "Q668687", "ref": "7285500011"}, "type": "Feature"}
{"dataset_attributes": {"@spider": "usps_collection_boxes", "spider:collection_time": "2023-11-28T08:25:58.546046"}, "geometry": {"coordinates": [-93.729921, 35.293622], "type": "Point"}, "id": "m1vpu9P9acKonFuykXJmVeF3g4U=", "properties": {"@spider": "usps_collection_boxes", "addr:city": "PARIS", "addr:country": "US", "addr:full": "206 N ELM ST", "addr:postcode": "72855", "addr:state": "AR", "amenity": "post_box", "brand": "United States Postal Service", "brand:wikidata": "Q668687", "collection_times": "Mo-Fr 16:15; Sa 09:00", "name": "USPS COLLECTION BOX - BLUE BOX", "note": "ON 12/24 AND 12/31, THIS BOX MAY BE COLLECTED AS EARLY AS 12 NOON.", "nsi_id": "unitedstatespostalservice-a77078", "operator": "United States Postal Service", "operator:short": "USPS", "operator:type": "public", "operator:wikidata": "Q668687", "ref": "7285500012"}, "type": "Feature"}
{"dataset_attributes": {"@spider": "usps_collection_boxes", "spider:collection_time": "2023-11-28T08:25:58.546046"}, "geometry": {"coordinates": [-93.729921, 35.293622], "type": "Point"}, "id": "0QvhADm6hDlkzTzNAD7EuyvIdvg=", "properties": {"@spider": "usps_collection_boxes", "addr:city": "PARIS", "addr:country": "US", "addr:full": "206 N ELM ST", "addr:postcode": "72855", "addr:state": "AR", "amenity": "post_box", "brand": "United States Postal Service", "brand:wikidata": "Q668687", "collection_times": "Mo-Fr 16:15; Sa 09:00", "name": "USPS COLLECTION BOX - PO LOBBY", "note": "ON 12/24 AND 12/31, THIS BOX MAY BE COLLECTED AS EARLY AS 12 NOON.", "nsi_id": "unitedstatespostalservice-a77078", "operator": "United States Postal Service", "operator:short": "USPS", "operator:type": "public", "operator:wikidata": "Q668687", "ref": "7285500013"}, "type": "Feature"}
{"dataset_attributes": {"@spider": "usps_collection_boxes", "spider:collection_time": "2023-11-28T08:25:58.546046"}, "geometry": {"coordinates": [-93.729926152, 35.293842], "type": "Point"}, "id": "DKIJ6LwxCySNYV_8KVVimf5N2iU=", "properties": {"@spider": "usps_collection_boxes", "addr:city": "PARIS", "addr:country": "US", "addr:full": "206 N ELM ST", "addr:postcode": "72855", "addr:state": "AR", "amenity": "post_box", "brand": "United States Postal Service", "brand:wikidata": "Q668687", "collection_times": "Mo-Fr 16:30", "name": "USPS COLLECTION BOX - PO LOBBY", "note": "ON 12/24 AND 12/31, THIS BOX MAY BE COLLECTED AS EARLY AS 12 NOON.", "nsi_id": "unitedstatespostalservice-a77078", "operator": "United States Postal Service", "operator:short": "USPS", "operator:type": "public", "operator:wikidata": "Q668687", "ref": "7285500014"}, "type": "Feature"}
{"dataset_attributes": {"@spider": "usps_collection_boxes", "spider:collection_time": "2023-11-28T08:25:58.546046"}, "geometry": {"coordinates": [-93.095742, 35.720889], "type": "Point"}, "id": "5q00aCpnlloeoggh-RQt_rNEa9s=", "properties": {"@spider": "usps_collection_boxes", "addr:city": "PELSOR", "addr:country": "US", "addr:full": "38501 SR 7 N", "addr:postcode": "72856", "addr:state": "AR", "amenity": "post_box", "brand": "United States Postal Service", "brand:wikidata": "Q668687", "collection_times": "Mo-Fr 12:30; Sa 10:30", "name": "USPS COLLECTION BOX - PO LOBBY", "note": "ON 12/24 AND 12/31, THIS BOX MAY BE COLLECTED AS EARLY AS 12 NOON.", "nsi_id": "unitedstatespostalservice-a77078", "operator": "United States Postal Service", "operator:short": "USPS", "operator:type": "public", "operator:wikidata": "Q668687", "ref": "7285600002"}, "type": "Feature"}
{"dataset_attributes": {"@spider": "usps_collection_boxes", "spider:collection_time": "2023-11-28T08:25:58.546046"}, "geometry": {"coordinates": [-93.095742985, 35.720886028], "type": "Point"}, "id": "9dD9xuOEEYtrW2P9ba_HqB7eCII=", "properties": {"@spider": "usps_collection_boxes", "addr:city": "PELSOR", "addr:country": "US", "addr:full": "38501 SR 7 N", "addr:postcode": "72856", "addr:state": "AR", "amenity": "post_box", "brand": "United States Postal Service", "brand:wikidata": "Q668687", "collection_times": "Mo-Fr 12:30; Sa 10:30", "name": "USPS COLLECTION BOX - PO LOBBY", "note": "ON 12/24 AND 12/31, THIS BOX MAY BE COLLECTED AS EARLY AS 12 NOON.", "nsi_id": "unitedstatespostalservice-a77078", "operator": "United States Postal Service", "operator:short": "USPS", "operator:type": "public", "operator:wikidata": "Q668687", "ref": "7285600004"}, "type": "Feature"}
{"dataset_attributes": {"@spider": "usps_collection_boxes", "spider:collection_time": "2023-11-28T08:25:58.546046"}, "geometry": {"coordinates": [-93.2984382099, 34.9888747023], "type": "Point"}, "id": "SZWEgPFgJgJaHJ-gmGxIdq3IgYQ=", "properties": {"@spider": "usps_collection_boxes", "addr:city": "PLAINVIEW", "addr:country": "US", "addr:full": "405 W MAIN ST", "addr:postcode": "72857", "addr:state": "AR", "amenity": "post_box", "brand": "United States Postal Service", "brand:wikidata": "Q668687", "collection_times": "Mo-Fr 14:15; Sa 10:30", "name": "USPS COLLECTION BOX - BLUE BOX", "note": "ON 12/24 AND 12/31, THIS BOX MAY BE COLLECTED AS EARLY AS 12 NOON.", "nsi_id": "unitedstatespostalservice-a77078", "operator": "United States Postal Service", "operator:short": "USPS", "operator:type": "public", "operator:wikidata": "Q668687", "ref": "7285700001"}, "type": "Feature"}
{"dataset_attributes": {"@spider": "usps_collection_boxes", "spider:collection_time": "2023-11-28T08:25:58.546046"}, "geometry": {"coordinates": [-93.298394, 34.988933], "type": "Point"}, "id": "Luvt2MgqblpL_7Jgn0cZOyrtWwI=", "properties": {"@spider": "usps_collection_boxes", "addr:city": "PLAINVIEW", "addr:country": "US", "addr:full": "405 W MAIN ST", "addr:postcode": "72857", "addr:state": "AR", "amenity": "post_box", "brand": "United States Postal Service", "brand:wikidata": "Q668687", "collection_times": "Mo-Fr 14:15; Sa 10:30", "name": "USPS COLLECTION BOX - PO LOBBY", "note": "ON 12/24 AND 12/31, THIS BOX MAY BE COLLECTED AS EARLY AS 12 NOON.", "nsi_id": "unitedstatespostalservice-a77078", "operator": "United States Postal Service", "operator:short": "USPS", "operator:type": "public", "operator:wikidata": "Q668687", "ref": "7285700002"}, "type": "Feature"}
{"dataset_attributes": {"@spider": "usps_collection_boxes", "spider:collection_time": "2023-11-28T08:25:58.546046"}, "geometry": {"coordinates": [-93.298394, 34.988933], "type": "Point"}, "id": "XmNyq6OQ7ddLH1koVZ4l0AEumB0=", "properties": {"@spider": "usps_collection_boxes", "addr:city": "PLAINVIEW", "addr:country": "US", "addr:full": "405 W MAIN ST", "addr:postcode": "72857", "addr:state": "AR", "amenity": "post_box", "brand": "United States Postal Service", "brand:wikidata": "Q668687", "collection_times": "Mo-Fr 14:15; Sa 10:30", "name": "USPS COLLECTION BOX - PO LOBBY", "note": "ON 12/24 AND 12/31, THIS BOX MAY BE COLLECTED AS EARLY AS 12 NOON.", "nsi_id": "unitedstatespostalservice-a77078", "operator": "United States Postal Service", "operator:short": "USPS", "operator:type": "public", "operator:wikidata": "Q668687", "ref": "7285700003"}, "type": "Feature"}
{"dataset_attributes": {"@spider": "usps_collection_boxes", "spider:collection_time": "2023-11-28T08:25:58.546046"}, "geometry": {"coordinates": [-93.298359258, 34.988895092], "type": "Point"}, "id": "qNCsGgGZgAIaCYk4IMBocrmJqGw=", "properties": {"@spider": "usps_collection_boxes", "addr:city": "PLAINVIEW", "addr:country": "US", "addr:full": "405 W MAIN ST", "addr:postcode": "72857", "addr:state": "AR", "amenity": "post_box", "brand": "United States Postal Service", "brand:wikidata": "Q668687", "collection_times": "Mo-Fr 14:15; Sa 10:30", "name": "USPS COLLECTION BOX - PO LOBBY", "note": "ON 12/24 AND 12/31, THIS BOX MAY BE COLLECTED AS EARLY AS 12 NOON.", "nsi_id": "unitedstatespostalservice-a77078", "operator": "United States Postal Service", "operator:short": "USPS", "operator:type": "public", "operator:wikidata": "Q668687", "ref": "7285700006"}, "type": "Feature"}
{"dataset_attributes": {"@spider": "usps_collection_boxes", "spider:collection_time": "2023-11-28T08:25:58.546046"}, "geometry": {"coordinates": [-93.055362, 35.256675], "type": "Point"}, "id": "DMWw0LA9A3VJ-_FFQ1Vo42amO2k=", "properties": {"@spider": "usps_collection_boxes", "addr:city": "POTTSVILLE", "addr:country": "US", "addr:full": "5580 US HIGHWAY 64 E", "addr:postcode": "72858", "addr:state": "AR", "amenity": "post_box", "brand": "United States Postal Service", "brand:wikidata": "Q668687", "collection_times": "Mo-Fr 16:00; Sa 10:00", "name": "USPS COLLECTION BOX - BLUE BOX", "note": "ON 12/24 AND 12/31, THIS BOX MAY BE COLLECTED AS EARLY AS 12 NOON.", "nsi_id": "unitedstatespostalservice-a77078", "operator": "United States Postal Service", "operator:short": "USPS", "operator:type": "public", "operator:wikidata": "Q668687", "ref": "7285800001"}, "type": "Feature"}
{"dataset_attributes": {"@spider": "usps_collection_boxes", "spider:collection_time": "2023-11-28T08:25:58.546046"}, "geometry": {"coordinates": [-93.055362, 35.256675], "type": "Point"}, "id": "j-eUlBrQ-GjsvMxCjXlZUP9Flng=", "properties": {"@spider": "usps_collection_boxes", "addr:city": "POTTSVILLE", "addr:country": "US", "addr:full": "5580 US HIGHWAY 64 E", "addr:postcode": "72858", "addr:state": "AR", "amenity": "post_box", "brand": "United States Postal Service", "brand:wikidata": "Q668687", "collection_times": "Mo-Fr 16:00; Sa 10:00", "name": "USPS COLLECTION BOX - PO LOBBY", "note": "ON 12/24 AND 12/31, THIS BOX MAY BE COLLECTED AS EARLY AS 12 NOON.", "nsi_id": "unitedstatespostalservice-a77078", "operator": "United States Postal Service", "operator:short": "USPS", "operator:type": "public", "operator:wikidata": "Q668687", "ref": "7285800002"}, "type": "Feature"}
{"dataset_attributes": {"@spider": "usps_collection_boxes", "spider:collection_time": "2023-11-28T08:25:58.546046"}, "geometry": {"coordinates": [-93.055362, 35.256675], "type": "Point"}, "id": "MCGn3HdBTs7VLwLsh2DXO0vfYAE=", "properties": {"@spider": "usps_collection_boxes", "addr:city": "POTTSVILLE", "addr:country": "US", "addr:full": "5580 US HIGHWAY 64 E", "addr:postcode": "72858", "addr:state": "AR", "amenity": "post_box", "brand": "United States Postal Service", "brand:wikidata": "Q668687", "collection_times": "Mo-Fr 16:00; Sa 10:00", "name": "USPS COLLECTION BOX - PO LOBBY", "note": "ON 12/24 AND 12/31, THIS BOX MAY BE COLLECTED AS EARLY AS 12 NOON.", "nsi_id": "unitedstatespostalservice-a77078", "operator": "United States Postal Service", "operator:short": "USPS", "operator:type": "public", "operator:wikidata": "Q668687", "ref": "7285800003"}, "type": "Feature"}
{"dataset_attributes": {"@spider": "usps_collection_boxes", "spider:collection_time": "2023-11-28T08:25:58.546046"}, "geometry": {"coordinates": [-93.055364014, 35.256670012], "type": "Point"}, "id": "OZYHXYXFLG-B_VjJEaU5CvmQkV8=", "properties": {"@spider": "usps_collection_boxes", "addr:city": "POTTSVILLE", "addr:country": "US", "addr:full": "5580 US HIGHWAY 64 E", "addr:postcode": "72858", "addr:state": "AR", "amenity": "post_box", "brand": "United States Postal Service", "brand:wikidata": "Q668687", "collection_times": "Mo-Fr 16:00; Sa 10:00", "name": "USPS COLLECTION BOX - PO LOBBY", "note": "ON 12/24 AND 12/31, THIS BOX MAY BE COLLECTED AS EARLY AS 12 NOON.", "nsi_id": "unitedstatespostalservice-a77078", "operator": "United States Postal Service", "operator:short": "USPS", "operator:type": "public", "operator:wikidata": "Q668687", "ref": "7285800004"}, "type": "Feature"}
{"dataset_attributes": {"@spider": "usps_collection_boxes", "spider:collection_time": "2023-11-28T08:25:58.546046"}, "geometry": {"coordinates": [-93.403256998, 34.948732995], "type": "Point"}, "id": "R96yZCJcvpbzWCr_2V38MOm7reE=", "properties": {"@spider": "usps_collection_boxes", "addr:city": "ROVER", "addr:country": "US", "addr:full": "19623 S HIGHWAY 27", "addr:postcode": "72860", "addr:state": "AR", "amenity": "post_box", "brand": "United States Postal Service", "brand:wikidata": "Q668687", "collection_times": "Mo-Fr 11:30; Sa 09:15", "name": "USPS COLLECTION BOX - BLUE BOX", "nsi_id": "unitedstatespostalservice-a77078", "operator": "United States Postal Service", "operator:short": "USPS", "operator:type": "public", "operator:wikidata": "Q668687", "ref": "7286000001"}, "type": "Feature"}
{"dataset_attributes": {"@spider": "usps_collection_boxes", "spider:collection_time": "2023-11-28T08:25:58.546046"}, "geometry": {"coordinates": [-93.403194, 34.948884], "type": "Point"}, "id": "pnIvfTLeZsAc-3bciZt3l_3sh8Y=", "properties": {"@spider": "usps_collection_boxes", "addr:city": "ROVER", "addr:country": "US", "addr:full": "19623 S HIGHWAY 27", "addr:postcode": "72860", "addr:state": "AR", "amenity": "post_box", "brand": "United States Postal Service", "brand:wikidata": "Q668687", "collection_times": "Mo-Fr 11:00; Sa 09:15", "name": "USPS COLLECTION BOX - PO LOBBY", "nsi_id": "unitedstatespostalservice-a77078", "operator": "United States Postal Service", "operator:short": "USPS", "operator:type": "public", "operator:wikidata": "Q668687", "ref": "7286000002"}, "type": "Feature"}
{"dataset_attributes": {"@spider": "usps_collection_boxes", "spider:collection_time": "2023-11-28T08:25:58.546046"}, "geometry": {"coordinates": [-93.403194, 34.948884], "type": "Point"}, "id": "B7ualtogAtqHr_uTOgRMirbg9IM=", "properties": {"@spider": "usps_collection_boxes", "addr:city": "ROVER", "addr:country": "US", "addr:full": "19623 S HIGHWAY 27", "addr:postcode": "72860", "addr:state": "AR", "amenity": "post_box", "brand": "United States Postal Service", "brand:wikidata": "Q668687", "collection_times": "Mo-Fr 11:00; Sa 09:15", "name": "USPS COLLECTION BOX - PO LOBBY", "nsi_id": "unitedstatespostalservice-a77078", "operator": "United States Postal Service", "operator:short": "USPS", "operator:type": "public", "operator:wikidata": "Q668687", "ref": "7286000003"}, "type": "Feature"}
{"dataset_attributes": {"@spider": "usps_collection_boxes", "spider:collection_time": "2023-11-28T08:25:58.546046"}, "geometry": {"coordinates": [-93.403190417, 34.94882905], "type": "Point"}, "id": "VWGZznUjkK0d4SCpqa6gB9F2d1U=", "properties": {"@spider": "usps_collection_boxes", "addr:city": "ROVER", "addr:country": "US", "addr:full": "19623 S HIGHWAY 27", "addr:postcode": "72860", "addr:state": "AR", "amenity": "post_box", "brand": "United States Postal Service", "brand:wikidata": "Q668687", "collection_times": "Mo-Fr 11:30; Sa 09:30", "name": "USPS COLLECTION BOX - PO LOBBY", "nsi_id": "unitedstatespostalservice-a77078", "operator": "United States Postal Service", "operator:short": "USPS", "operator:type": "public", "operator:wikidata": "Q668687", "ref": "7286000004"}, "type": "Feature"}
{"dataset_attributes": {"@spider": "usps_collection_boxes", "spider:collection_time": "2023-11-28T08:25:58.546046"}, "geometry": {"coordinates": [-93.535525, 35.361952], "type": "Point"}, "id": "pwoN2hjsSFhUmjTpknAsmRYO1go=", "properties": {"@spider": "usps_collection_boxes", "addr:city": "SCRANTON", "addr:country": "US", "addr:full": "508 MAGNOLIA ST", "addr:postcode": "72863", "addr:state": "AR", "amenity": "post_box", "brand": "United States Postal Service", "brand:wikidata": "Q668687", "collection_times": "Mo-Fr 15:00; Sa 09:30", "name": "USPS COLLECTION BOX - BLUE BOX", "note": "ON 12/24 AND 12/31, THIS BOX MAY BE COLLECTED AS EARLY AS 12 NOON.", "nsi_id": "unitedstatespostalservice-a77078", "operator": "United States Postal Service", "operator:short": "USPS", "operator:type": "public", "operator:wikidata": "Q668687", "ref": "7286300001"}, "type": "Feature"}
{"dataset_attributes": {"@spider": "usps_collection_boxes", "spider:collection_time": "2023-11-28T08:25:58.546046"}, "geometry": {"coordinates": [-93.535525, 35.361952], "type": "Point"}, "id": "-u0Uqdgh6vMl42TdzwBTVd2g_Hk=", "properties": {"@spider": "usps_collection_boxes", "addr:city": "SCRANTON", "addr:country": "US", "addr:full": "508 MAGNOLIA ST", "addr:postcode": "72863", "addr:state": "AR", "amenity": "post_box", "brand": "United States Postal Service", "brand:wikidata": "Q668687", "collection_times": "Mo-Fr 15:00; Sa 09:30", "name": "USPS COLLECTION BOX - PO LOBBY", "note": "ON 12/24 AND 12/31, THIS BOX MAY BE COLLECTED AS EARLY AS 12 NOON.", "nsi_id": "unitedstatespostalservice-a77078", "operator": "United States Postal Service", "operator:short": "USPS", "operator:type": "public", "operator:wikidata": "Q668687", "ref": "7286300002"}, "type": "Feature"}
{"dataset_attributes": {"@spider": "usps_collection_boxes", "spider:collection_time": "2023-11-28T08:25:58.546046"}, "geometry": {"coordinates": [-93.535525, 35.361952], "type": "Point"}, "id": "J8kKsShDYyzZoG0awW5oAi0wtbY=", "properties": {"@spider": "usps_collection_boxes", "addr:city": "SCRANTON", "addr:country": "US", "addr:full": "508 MAGNOLIA ST", "addr:postcode": "72863", "addr:state": "AR", "amenity": "post_box", "brand": "United States Postal Service", "brand:wikidata": "Q668687", "collection_times": "Mo-Fr 15:00; Sa 09:30", "name": "USPS COLLECTION BOX - PO LOBBY", "note": "ON 12/24 AND 12/31, THIS BOX MAY BE COLLECTED AS EARLY AS 12 NOON.", "nsi_id": "unitedstatespostalservice-a77078", "operator": "United States Postal Service", "operator:short": "USPS", "operator:type": "public", "operator:wikidata": "Q668687", "ref": "7286300003"}, "type": "Feature"}
{"dataset_attributes": {"@spider": "usps_collection_boxes", "spider:collection_time": "2023-11-28T08:25:58.546046"}, "geometry": {"coordinates": [-93.536072832, 35.361953515], "type": "Point"}, "id": "7tTXpf--UBz-Mpld1vrRouKQRDg=", "properties": {"@spider": "usps_collection_boxes", "addr:city": "SCRANTON", "addr:country": "US", "addr:full": "508 MAGNOLIA ST", "addr:postcode": "72863", "addr:state": "AR", "amenity": "post_box", "brand": "United States Postal Service", "brand:wikidata": "Q668687", "collection_times": "Mo-Fr 15:00; Sa 09:30", "name": "USPS COLLECTION BOX - PO LOBBY", "note": "ON 12/24 AND 12/31, THIS BOX MAY BE COLLECTED AS EARLY AS 12 NOON.", "nsi_id": "unitedstatespostalservice-a77078", "operator": "United States Postal Service", "operator:short": "USPS", "operator:type": "public", "operator:wikidata": "Q668687", "ref": "7286300007"}, "type": "Feature"}
{"dataset_attributes": {"@spider": "usps_collection_boxes", "spider:collection_time": "2023-11-28T08:25:58.546046"}, "geometry": {"coordinates": [-93.636489, 35.293298], "type": "Point"}, "id": "8FMK-RQ0FqfDrhUaLpz7qOdsU3o=", "properties": {"@spider": "usps_collection_boxes", "addr:city": "SUBIACO", "addr:country": "US", "addr:full": "283 CONRAD ST", "addr:postcode": "72865", "addr:state": "AR", "amenity": "post_box", "brand": "United States Postal Service", "brand:wikidata": "Q668687", "collection_times": "Mo-Fr 11:00; Sa 11:30", "name": "USPS COLLECTION BOX - BLUE BOX", "nsi_id": "unitedstatespostalservice-a77078", "operator": "United States Postal Service", "operator:short": "USPS", "operator:type": "public", "operator:wikidata": "Q668687", "ref": "7286500000"}, "type": "Feature"}
{"dataset_attributes": {"@spider": "usps_collection_boxes", "spider:collection_time": "2023-11-28T08:25:58.546046"}, "geometry": {"coordinates": [-93.63619, 35.293447], "type": "Point"}, "id": "h6m55bIcngFGcTznzrzs1pYWa-s=", "properties": {"@spider": "usps_collection_boxes", "addr:city": "SUBIACO", "addr:country": "US", "addr:full": "283 CONRAD ST", "addr:postcode": "72865", "addr:state": "AR", "amenity": "post_box", "brand": "United States Postal Service", "brand:wikidata": "Q668687", "collection_times": "Mo-Fr 11:00; Sa 11:30", "name": "USPS COLLECTION BOX - PO LOBBY", "nsi_id": "unitedstatespostalservice-a77078", "operator": "United States Postal Service", "operator:short": "USPS", "operator:type": "public", "operator:wikidata": "Q668687", "ref": "7286500001"}, "type": "Feature"}
{"dataset_attributes": {"@spider": "usps_collection_boxes", "spider:collection_time": "2023-11-28T08:25:58.546046"}, "geometry": {"coordinates": [-93.636522, 35.293439474], "type": "Point"}, "id": "95qLmkhrBe0RdjA8AXDI5Wc8sMU=", "properties": {"@spider": "usps_collection_boxes", "addr:city": "SUBIACO", "addr:country": "US", "addr:full": "283 CONRAD ST", "addr:postcode": "72865", "addr:state": "AR", "amenity": "post_box", "brand": "United States Postal Service", "brand:wikidata": "Q668687", "collection_times": "Mo-Fr 11:30; Sa 11:45", "name": "USPS COLLECTION BOX - PO LOBBY", "nsi_id": "unitedstatespostalservice-a77078", "operator": "United States Postal Service", "operator:short": "USPS", "operator:type": "public", "operator:wikidata": "Q668687", "ref": "7286500003"}, "type": "Feature"}
