{"geometry": {"coordinates": [-94.4213259, 35.383609], "type": "Point"}, "id": "iNxFEl779T2sPiUCXFQpsn9dlO8=", "properties": {"@source_uri": "https://tools.usps.com/UspsToolsRestServices/rest/POLocator/findLocations", "@spider": "usps_collection_boxes", "addr:city": "FORT SMITH", "addr:country": "US", "addr:postcode": "72901", "addr:state": "AR", "addr:street_address": "1020 GARRISON AVE", "amenity": "post_box", "collection_times": "Mo-Fr 17:15; Sa 16:30", "note": "ON 12/24 AND 12/31, THIS BOX MAY BE COLLECTED AS EARLY AS 12 NOON.", "nsi_id": "unitedstatespostalservice-a77078", "operator": "United States Postal Service", "operator:short": "USPS", "operator:type": "public", "operator:wikidata": "Q668687", "ref": "7290100001"}, "type": "Feature"}
{"geometry": {"coordinates": [-94.4254474, 35.387346], "type": "Point"}, "id": "E6SVx2sQ19N_u0cNxQIsLYHTQP8=", "properties": {"@source_uri": "https://tools.usps.com/UspsToolsRestServices/rest/POLocator/findLocations", "@spider": "usps_collection_boxes", "addr:city": "FORT SMITH", "addr:country": "US", "addr:postcode": "72901", "addr:state": "AR", "addr:street_address": "524 GARRISON AVE", "amenity": "post_box", "collection_times": "Mo-Fr 16:05", "note": "ON 12/24 AND 12/31, THIS BOX MAY BE COLLECTED AS EARLY AS 12 NOON.", "nsi_id": "unitedstatespostalservice-a77078", "operator": "United States Postal Service", "operator:short": "USPS", "operator:type": "public", "operator:wikidata": "Q668687", "ref": "7290100002"}, "type": "Feature"}
{"geometry": {"coordinates": [-94.4253174144, 35.3873089473], "type": "Point"}, "id": "Xo7dsNOdbYbZkwkeqXvgyYe00Uo=", "properties": {"@source_uri": "https://tools.usps.com/UspsToolsRestServices/rest/POLocator/findLocations", "@spider": "usps_collection_boxes", "addr:city": "FORT SMITH", "addr:country": "US", "addr:postcode": "72901", "addr:state": "AR", "addr:street_address": "523 GARRISON AVE", "amenity": "post_box", "collection_times": "Mo-Fr 16:05", "note": "ON 12/24 AND 12/31, THIS BOX MAY BE COLLECTED AS EARLY AS 12 NOON.", "nsi_id": "unitedstatespostalservice-a77078", "operator": "United States Postal Service", "operator:short": "USPS", "operator:type": "public", "operator:wikidata": "Q668687", "ref": "7290100011"}, "type": "Feature"}
{"geometry": {"coordinates": [-94.4273469, 35.387316], "type": "Point"}, "id": "W6oHivjG_TQYVzgGnObRlUX6C6Y=", "properties": {"@source_uri": "https://tools.usps.com/UspsToolsRestServices/rest/POLocator/findLocations", "@spider": "usps_collection_boxes", "addr:city": "FORT SMITH", "addr:country": "US", "addr:postcode": "72901", "addr:state": "AR", "addr:street_address": "505 ROGERS AVE", "amenity": "post_box", "collection_times": "Mo-Fr 16:15", "note": "ON 12/24 AND 12/31, THIS BOX MAY BE COLLECTED AS EARLY AS 12 NOON.", "nsi_id": "unitedstatespostalservice-a77078", "operator": "United States Postal Service", "operator:short": "USPS", "operator:type": "public", "operator:wikidata": "Q668687", "ref": "7290100055"}, "type": "Feature"}
{"geometry": {"coordinates": [-94.4249613, 35.385952], "type": "Point"}, "id": "JIwQ98SZ1ieKvvuLyJhGrVmoo3Q=", "properties": {"@source_uri": "https://tools.usps.com/UspsToolsRestServices/rest/POLocator/findLocations", "@spider": "usps_collection_boxes", "addr:city": "FORT SMITH", "addr:country": "US", "addr:postcode": "72901", "addr:state": "AR", "addr:street_address": "619 ROGERS AVE", "amenity": "post_box", "collection_times": "Mo-Fr 16:20", "note": "ON 12/24 AND 12/31, THIS BOX MAY BE COLLECTED AS EARLY AS 12 NOON.", "nsi_id": "unitedstatespostalservice-a77078", "operator": "United States Postal Service", "operator:short": "USPS", "operator:type": "public", "operator:wikidata": "Q668687", "ref": "7290100057"}, "type": "Feature"}
{"geometry": {"coordinates": [-94.4243381, 35.340211], "type": "Point"}, "id": "crO6OyUq2A0nWbcz1xlOLY9gXRY=", "properties": {"@source_uri": "https://tools.usps.com/UspsToolsRestServices/rest/POLocator/findLocations", "@spider": "usps_collection_boxes", "addr:city": "FORT SMITH", "addr:country": "US", "addr:postcode": "72901", "addr:state": "AR", "addr:street_address": "4600 TOWSON AVE", "amenity": "post_box", "collection_times": "Mo-Fr 16:30; Sa 16:00", "note": "ON 12/24 AND 12/31, THIS BOX MAY BE COLLECTED AS EARLY AS 12 NOON.", "nsi_id": "unitedstatespostalservice-a77078", "operator": "United States Postal Service", "operator:short": "USPS", "operator:type": "public", "operator:wikidata": "Q668687", "ref": "7290100061"}, "type": "Feature"}
{"geometry": {"coordinates": [-94.421402, 35.384636], "type": "Point"}, "id": "DTG5qbyeUpVuNmdZbzaLV-1PxbI=", "properties": {"@source_uri": "https://tools.usps.com/UspsToolsRestServices/rest/POLocator/findLocations", "@spider": "usps_collection_boxes", "addr:city": "FORT SMITH", "addr:country": "US", "addr:postcode": "72901", "addr:state": "AR", "addr:street_address": "1020 GARRISON AVE", "amenity": "post_box", "collection_times": "Mo-Sa 16:30", "indoor": "yes", "note": "ON 12/24 AND 12/31, THIS BOX MAY BE COLLECTED AS EARLY AS 12 NOON.", "nsi_id": "unitedstatespostalservice-a77078", "operator": "United States Postal Service", "operator:short": "USPS", "operator:type": "public", "operator:wikidata": "Q668687", "ref": "7290100065"}, "type": "Feature"}
{"geometry": {"coordinates": [-94.4152289, 35.381971], "type": "Point"}, "id": "dRDQq0LHSWzd9UY2P4cR90YoTCs=", "properties": {"@source_uri": "https://tools.usps.com/UspsToolsRestServices/rest/POLocator/findLocations", "@spider": "usps_collection_boxes", "addr:city": "FORT SMITH", "addr:country": "US", "addr:postcode": "72901", "addr:state": "AR", "addr:street_address": "1601 N A ST", "amenity": "post_box", "collection_times": "Mo-Sa 08:00", "nsi_id": "unitedstatespostalservice-a77078", "operator": "United States Postal Service", "operator:short": "USPS", "operator:type": "public", "operator:wikidata": "Q668687", "ref": "7290100068"}, "type": "Feature"}
{"geometry": {"coordinates": [-94.421402, 35.384636], "type": "Point"}, "id": "N_UQIPm0rZ-JpBDo-qH9nNMCkgE=", "properties": {"@source_uri": "https://tools.usps.com/UspsToolsRestServices/rest/POLocator/findLocations", "@spider": "usps_collection_boxes", "addr:city": "FORT SMITH", "addr:country": "US", "addr:postcode": "72901", "addr:state": "AR", "addr:street_address": "1020 GARRISON AVE", "amenity": "post_box", "collection_times": "Mo-Sa 16:30", "indoor": "yes", "note": "ON 12/24 AND 12/31, THIS BOX MAY BE COLLECTED AS EARLY AS 12 NOON.", "nsi_id": "unitedstatespostalservice-a77078", "operator": "United States Postal Service", "operator:short": "USPS", "operator:type": "public", "operator:wikidata": "Q668687", "ref": "7290100071"}, "type": "Feature"}
{"geometry": {"coordinates": [-94.4213064, 35.383617], "type": "Point"}, "id": "SjhJZuzHTbaRt0Dd-Y4FCi6ishA=", "properties": {"@source_uri": "https://tools.usps.com/UspsToolsRestServices/rest/POLocator/findLocations", "@spider": "usps_collection_boxes", "addr:city": "FORT SMITH", "addr:country": "US", "addr:postcode": "72901", "addr:state": "AR", "addr:street_address": "1020 GARRISON AVE", "amenity": "post_box", "collection_times": "Mo-Fr 17:15; Sa 16:30", "note": "ON 12/24 AND 12/31, THIS BOX MAY BE COLLECTED AS EARLY AS 12 NOON.", "nsi_id": "unitedstatespostalservice-a77078", "operator": "United States Postal Service", "operator:short": "USPS", "operator:type": "public", "operator:wikidata": "Q668687", "ref": "7290100073"}, "type": "Feature"}
{"geometry": {"coordinates": [-94.421107138, 35.384435815], "type": "Point"}, "id": "6rHeRj04VvM7OjRHX5J7bKJnmXo=", "properties": {"@source_uri": "https://tools.usps.com/UspsToolsRestServices/rest/POLocator/findLocations", "@spider": "usps_collection_boxes", "addr:city": "FORT SMITH", "addr:country": "US", "addr:postcode": "72901", "addr:state": "AR", "addr:street_address": "1020 GARRISON AVE", "amenity": "post_box", "collection_times": "Mo-Fr 16:30", "indoor": "yes", "note": "ON 12/24 AND 12/31, THIS BOX MAY BE COLLECTED AS EARLY AS 12 NOON.", "nsi_id": "unitedstatespostalservice-a77078", "operator": "United States Postal Service", "operator:short": "USPS", "operator:type": "public", "operator:wikidata": "Q668687", "ref": "7290100074"}, "type": "Feature"}
{"geometry": {"coordinates": [-94.3974811465, 35.3858315523], "type": "Point"}, "id": "BQ0YjG3pWyzw3wyjI1gJdk2A1kE=", "properties": {"@source_uri": "https://tools.usps.com/UspsToolsRestServices/rest/POLocator/findLocations", "@spider": "usps_collection_boxes", "addr:city": "FORT SMITH", "addr:country": "US", "addr:postcode": "72903", "addr:state": "AR", "addr:street_address": "3200 GRAND AVE", "amenity": "post_box", "collection_times": "Mo-Fr 14:55; Sa 16:20", "note": "ON 12/24 AND 12/31, THIS BOX MAY BE COLLECTED AS EARLY AS 12 NOON.", "nsi_id": "unitedstatespostalservice-a77078", "operator": "United States Postal Service", "operator:short": "USPS", "operator:type": "public", "operator:wikidata": "Q668687", "ref": "7290300004"}, "type": "Feature"}
{"geometry": {"coordinates": [-94.362692, 35.35268], "type": "Point"}, "id": "347bxoJS8DI1T3VgcT604DtBp4Q=", "properties": {"@source_uri": "https://tools.usps.com/UspsToolsRestServices/rest/POLocator/findLocations", "@spider": "usps_collection_boxes", "addr:city": "FORT SMITH", "addr:country": "US", "addr:postcode": "72903", "addr:state": "AR", "addr:street_address": "5111 ROGERS AVE", "amenity": "post_box", "collection_times": "Mo-Fr 11:30; Sa 17:30", "note": "ON 12/24 AND 12/31, THIS BOX MAY BE COLLECTED AS EARLY AS 12 NOON.", "nsi_id": "unitedstatespostalservice-a77078", "operator": "United States Postal Service", "operator:short": "USPS", "operator:type": "public", "operator:wikidata": "Q668687", "ref": "7290300026"}, "type": "Feature"}
{"geometry": {"coordinates": [-94.3772653, 35.365438], "type": "Point"}, "id": "UzNpmCaZaIXaZPdZU7OP4zy7Kz4=", "properties": {"@source_uri": "https://tools.usps.com/UspsToolsRestServices/rest/POLocator/findLocations", "@spider": "usps_collection_boxes", "addr:city": "FORT SMITH", "addr:country": "US", "addr:postcode": "72903", "addr:state": "AR", "addr:street_address": "4900 ROGERS AVE", "amenity": "post_box", "collection_times": "Mo-Fr 09:30", "nsi_id": "unitedstatespostalservice-a77078", "operator": "United States Postal Service", "operator:short": "USPS", "operator:type": "public", "operator:wikidata": "Q668687", "ref": "7290300040"}, "type": "Feature"}
{"geometry": {"coordinates": [-94.3943321, 35.37086], "type": "Point"}, "id": "AI2vCkkVuK6j1RC4sbOyiiyBXpQ=", "properties": {"@source_uri": "https://tools.usps.com/UspsToolsRestServices/rest/POLocator/findLocations", "@spider": "usps_collection_boxes", "addr:city": "FORT SMITH", "addr:country": "US", "addr:postcode": "72903", "addr:state": "AR", "addr:street_address": "3400 ROGERS AVE", "amenity": "post_box", "collection_times": "Mo-Fr 16:30; Sa 16:15", "note": "ON 12/24 AND 12/31, THIS BOX MAY BE COLLECTED AS EARLY AS 12 NOON.", "nsi_id": "unitedstatespostalservice-a77078", "operator": "United States Postal Service", "operator:short": "USPS", "operator:type": "public", "operator:wikidata": "Q668687", "ref": "7290300044"}, "type": "Feature"}
{"geometry": {"coordinates": [-94.3898046475, 35.3352331361], "type": "Point"}, "id": "M0Z_KlGs4MgpVkAmw0wB99IKJuo=", "properties": {"@source_uri": "https://tools.usps.com/UspsToolsRestServices/rest/POLocator/findLocations", "@spider": "usps_collection_boxes", "addr:city": "FORT SMITH", "addr:country": "US", "addr:postcode": "72903", "addr:state": "AR", "addr:street_address": "4903 OLD GREENWOOD RD", "amenity": "post_box", "collection_times": "Mo-Sa 16:50", "note": "ON 12/24 AND 12/31, THIS BOX MAY BE COLLECTED AS EARLY AS 12 NOON.", "nsi_id": "unitedstatespostalservice-a77078", "operator": "United States Postal Service", "operator:short": "USPS", "operator:type": "public", "operator:wikidata": "Q668687", "ref": "7290300052"}, "type": "Feature"}
{"geometry": {"coordinates": [-94.3931466383, 35.3492369384], "type": "Point"}, "id": "oMDtzbqLP8wpfRkju6VZzueyLpY=", "properties": {"@source_uri": "https://tools.usps.com/UspsToolsRestServices/rest/POLocator/findLocations", "@spider": "usps_collection_boxes", "addr:city": "FORT SMITH", "addr:country": "US", "addr:postcode": "72903", "addr:state": "AR", "addr:street_address": "3501 OLD GREENWOOD RD", "amenity": "post_box", "collection_times": "Mo-Sa 16:50", "note": "ON 12/24 AND 12/31, THIS BOX MAY BE COLLECTED AS EARLY AS 12 NOON.", "nsi_id": "unitedstatespostalservice-a77078", "operator": "United States Postal Service", "operator:short": "USPS", "operator:type": "public", "operator:wikidata": "Q668687", "ref": "7290300066"}, "type": "Feature"}
{"geometry": {"coordinates": [-94.3384447, 35.349442], "type": "Point"}, "id": "COP83aFPohHni2eylgeFC75A6w8=", "properties": {"@source_uri": "https://tools.usps.com/UspsToolsRestServices/rest/POLocator/findLocations", "@spider": "usps_collection_boxes", "addr:city": "FORT SMITH", "addr:country": "US", "addr:postcode": "72903", "addr:state": "AR", "addr:street_address": "8365 ROGERS AVE", "amenity": "post_box", "collection_times": "Mo-Sa 12:00", "nsi_id": "unitedstatespostalservice-a77078", "operator": "United States Postal Service", "operator:short": "USPS", "operator:type": "public", "operator:wikidata": "Q668687", "ref": "7290300069"}, "type": "Feature"}
{"geometry": {"coordinates": [-94.351164682, 35.350215831], "type": "Point"}, "id": "KbidrnSoz4FXsUw0mFAt89e0Sjw=", "properties": {"@source_uri": "https://tools.usps.com/UspsToolsRestServices/rest/POLocator/findLocations", "@spider": "usps_collection_boxes", "addr:city": "FORT SMITH", "addr:country": "US", "addr:postcode": "72903", "addr:state": "AR", "addr:street_address": "3318 S 74TH ST", "amenity": "post_box", "collection_times": "Mo-Fr 18:00; Sa 14:00", "indoor": "yes", "note": "ON 12/24 AND 12/31, THIS BOX MAY BE COLLECTED AS EARLY AS 12 NOON.", "nsi_id": "unitedstatespostalservice-a77078", "operator": "United States Postal Service", "operator:short": "USPS", "operator:type": "public", "operator:wikidata": "Q668687", "ref": "7290300084"}, "type": "Feature"}
{"geometry": {"coordinates": [-94.3873406, 35.392856], "type": "Point"}, "id": "XX4TP0cDQfP3OF1LLjCAxa8Ny-8=", "properties": {"@source_uri": "https://tools.usps.com/UspsToolsRestServices/rest/POLocator/findLocations", "@spider": "usps_collection_boxes", "addr:city": "FORT SMITH", "addr:country": "US", "addr:postcode": "72904", "addr:state": "AR", "addr:street_address": "4000 N O ST", "amenity": "post_box", "collection_times": "Mo-Sa 12:00", "nsi_id": "unitedstatespostalservice-a77078", "operator": "United States Postal Service", "operator:short": "USPS", "operator:type": "public", "operator:wikidata": "Q668687", "ref": "7290400004"}, "type": "Feature"}
{"geometry": {"coordinates": [-94.396292, 35.406813], "type": "Point"}, "id": "VSdcQ4ImVNhECwZy5odaO6vXtMc=", "properties": {"@source_uri": "https://tools.usps.com/UspsToolsRestServices/rest/POLocator/findLocations", "@spider": "usps_collection_boxes", "addr:city": "FORT SMITH", "addr:country": "US", "addr:postcode": "72904", "addr:state": "AR", "addr:street_address": "3100 WIRSING AVE", "amenity": "post_box", "collection_times": "Mo-Fr 16:30; Sa 14:30", "note": "ON 12/24 AND 12/31, THIS BOX MAY BE COLLECTED AS EARLY AS 12 NOON.", "nsi_id": "unitedstatespostalservice-a77078", "operator": "United States Postal Service", "operator:short": "USPS", "operator:type": "public", "operator:wikidata": "Q668687", "ref": "7290400007"}, "type": "Feature"}
{"geometry": {"coordinates": [-94.396292, 35.406813], "type": "Point"}, "id": "KoLUY0_VFtwIEe64y_a6dsLlzfA=", "properties": {"@source_uri": "https://tools.usps.com/UspsToolsRestServices/rest/POLocator/findLocations", "@spider": "usps_collection_boxes", "addr:city": "FORT SMITH", "addr:country": "US", "addr:postcode": "72904", "addr:state": "AR", "addr:street_address": "3100 WIRSING AVE", "amenity": "post_box", "collection_times": "Mo-Fr 16:30; Sa 14:30", "indoor": "yes", "note": "ON 12/24 AND 12/31, THIS BOX MAY BE COLLECTED AS EARLY AS 12 NOON.", "nsi_id": "unitedstatespostalservice-a77078", "operator": "United States Postal Service", "operator:short": "USPS", "operator:type": "public", "operator:wikidata": "Q668687", "ref": "7290400010"}, "type": "Feature"}
{"geometry": {"coordinates": [-94.396292, 35.406813], "type": "Point"}, "id": "hKw-ykcJ0iGdliX1EuYgqb6W_Iw=", "properties": {"@source_uri": "https://tools.usps.com/UspsToolsRestServices/rest/POLocator/findLocations", "@spider": "usps_collection_boxes", "addr:city": "FORT SMITH", "addr:country": "US", "addr:postcode": "72904", "addr:state": "AR", "addr:street_address": "3100 WIRSING AVE", "amenity": "post_box", "collection_times": "Mo-Fr 16:30; Sa 14:30", "indoor": "yes", "note": "ON 12/24 AND 12/31, THIS BOX MAY BE COLLECTED AS EARLY AS 12 NOON.", "nsi_id": "unitedstatespostalservice-a77078", "operator": "United States Postal Service", "operator:short": "USPS", "operator:type": "public", "operator:wikidata": "Q668687", "ref": "7290400011"}, "type": "Feature"}
{"geometry": {"coordinates": [-94.396292, 35.406813], "type": "Point"}, "id": "w9x9TJn1Jo93L9gbrMR7ENmitSE=", "properties": {"@source_uri": "https://tools.usps.com/UspsToolsRestServices/rest/POLocator/findLocations", "@spider": "usps_collection_boxes", "addr:city": "FORT SMITH", "addr:country": "US", "addr:postcode": "72904", "addr:state": "AR", "addr:street_address": "3100 WIRSING AVE", "amenity": "post_box", "collection_times": "Mo-Fr 16:30; Sa 14:30", "indoor": "yes", "note": "ON 12/24 AND 12/31, THIS BOX MAY BE COLLECTED AS EARLY AS 12 NOON.", "nsi_id": "unitedstatespostalservice-a77078", "operator": "United States Postal Service", "operator:short": "USPS", "operator:type": "public", "operator:wikidata": "Q668687", "ref": "7290400012"}, "type": "Feature"}
{"geometry": {"coordinates": [-94.396292, 35.406813], "type": "Point"}, "id": "KCZO1KbkTyO21QRXTIlYJIKKvWs=", "properties": {"@source_uri": "https://tools.usps.com/UspsToolsRestServices/rest/POLocator/findLocations", "@spider": "usps_collection_boxes", "addr:city": "FORT SMITH", "addr:country": "US", "addr:postcode": "72904", "addr:state": "AR", "addr:street_address": "3100 WIRSING AVE", "amenity": "post_box", "collection_times": "Mo-Fr 16:30; Sa 14:30", "indoor": "yes", "note": "ON 12/24 AND 12/31, THIS BOX MAY BE COLLECTED AS EARLY AS 12 NOON.", "nsi_id": "unitedstatespostalservice-a77078", "operator": "United States Postal Service", "operator:short": "USPS", "operator:type": "public", "operator:wikidata": "Q668687", "ref": "7290400013"}, "type": "Feature"}
{"geometry": {"coordinates": [-94.396291805, 35.406808557], "type": "Point"}, "id": "xQKQN2928JEyfj4NSm-LeXlc0gg=", "properties": {"@source_uri": "https://tools.usps.com/UspsToolsRestServices/rest/POLocator/findLocations", "@spider": "usps_collection_boxes", "addr:city": "FORT SMITH", "addr:country": "US", "addr:postcode": "72904", "addr:state": "AR", "addr:street_address": "3100 WIRSING AVE", "amenity": "post_box", "collection_times": "Mo-Fr 16:30", "indoor": "yes", "note": "ON 12/24 AND 12/31, THIS BOX MAY BE COLLECTED AS EARLY AS 12 NOON.", "nsi_id": "unitedstatespostalservice-a77078", "operator": "United States Postal Service", "operator:short": "USPS", "operator:type": "public", "operator:wikidata": "Q668687", "ref": "7290400014"}, "type": "Feature"}
{"geometry": {"coordinates": [-94.3744110383, 35.3840980145], "type": "Point"}, "id": "WCB4TMm2N_tzBm4FodblAfBNiJ8=", "properties": {"@source_uri": "https://tools.usps.com/UspsToolsRestServices/rest/POLocator/findLocations", "@spider": "usps_collection_boxes", "addr:city": "FORT SMITH", "addr:country": "US", "addr:postcode": "72904", "addr:state": "AR", "addr:street_address": "5210 GRAND AVE", "amenity": "post_box", "collection_times": "Mo-Sa 11:45", "nsi_id": "unitedstatespostalservice-a77078", "operator": "United States Postal Service", "operator:short": "USPS", "operator:type": "public", "operator:wikidata": "Q668687", "ref": "7290400015"}, "type": "Feature"}
{"geometry": {"coordinates": [-94.40593, 35.301783], "type": "Point"}, "id": "is2vNAPxmG8_zNw1-rYUIgUOV4E=", "properties": {"@source_uri": "https://tools.usps.com/UspsToolsRestServices/rest/POLocator/findLocations", "@spider": "usps_collection_boxes", "addr:city": "FORT SMITH", "addr:country": "US", "addr:postcode": "72908", "addr:state": "AR", "addr:street_address": "2712 MARKET TRCE", "amenity": "post_box", "collection_times": "Mo-Fr 16:30; Sa 14:30", "note": "ON 12/24 AND 12/31, THIS BOX MAY BE COLLECTED AS EARLY AS 12 NOON.", "nsi_id": "unitedstatespostalservice-a77078", "operator": "United States Postal Service", "operator:short": "USPS", "operator:type": "public", "operator:wikidata": "Q668687", "ref": "7290800000"}, "type": "Feature"}
{"geometry": {"coordinates": [-94.4088940203, 35.3005210102], "type": "Point"}, "id": "_CKG3JtyQjHs3a9Uzd3g_Uxv4D0=", "properties": {"@source_uri": "https://tools.usps.com/UspsToolsRestServices/rest/POLocator/findLocations", "@spider": "usps_collection_boxes", "addr:city": "FORT SMITH", "addr:country": "US", "addr:postcode": "72908", "addr:state": "AR", "addr:street_address": "8901 JENNY LIND RD", "amenity": "post_box", "collection_times": "Mo-Sa 13:00", "note": "ON 12/24 AND 12/31, THIS BOX MAY BE COLLECTED AS EARLY AS 12 NOON.", "nsi_id": "unitedstatespostalservice-a77078", "operator": "United States Postal Service", "operator:short": "USPS", "operator:type": "public", "operator:wikidata": "Q668687", "ref": "7290800007"}, "type": "Feature"}
{"geometry": {"coordinates": [-94.3895906, 35.294805], "type": "Point"}, "id": "6ZNf9RDQ9f15EDS6Duvsbf5sreU=", "properties": {"@source_uri": "https://tools.usps.com/UspsToolsRestServices/rest/POLocator/findLocations", "@spider": "usps_collection_boxes", "addr:city": "FORT SMITH", "addr:country": "US", "addr:postcode": "72908", "addr:state": "AR", "addr:street_address": "3913 BROOKEN HILL DR", "amenity": "post_box", "collection_times": "Mo-Sa 12:00", "nsi_id": "unitedstatespostalservice-a77078", "operator": "United States Postal Service", "operator:short": "USPS", "operator:type": "public", "operator:wikidata": "Q668687", "ref": "7290800010"}, "type": "Feature"}
{"geometry": {"coordinates": [-94.4065239026, 35.301736795], "type": "Point"}, "id": "GGq0Zv8WkD_0y0Ik6SJ4_sz0byo=", "properties": {"@source_uri": "https://tools.usps.com/UspsToolsRestServices/rest/POLocator/findLocations", "@spider": "usps_collection_boxes", "addr:city": "FORT SMITH", "addr:country": "US", "addr:postcode": "72908", "addr:state": "AR", "addr:street_address": "2712 MARKET TRCE", "amenity": "post_box", "collection_times": "Mo-Fr 16:30; Sa 14:30", "indoor": "yes", "note": "ON 12/24 AND 12/31, THIS BOX MAY BE COLLECTED AS EARLY AS 12 NOON.", "nsi_id": "unitedstatespostalservice-a77078", "operator": "United States Postal Service", "operator:short": "USPS", "operator:type": "public", "operator:wikidata": "Q668687", "ref": "7290800015"}, "type": "Feature"}
{"geometry": {"coordinates": [-94.40593, 35.301783], "type": "Point"}, "id": "aOyuaPJbR2Z_vZYsDhjdhONQo04=", "properties": {"@source_uri": "https://tools.usps.com/UspsToolsRestServices/rest/POLocator/findLocations", "@spider": "usps_collection_boxes", "addr:city": "FORT SMITH", "addr:country": "US", "addr:postcode": "72908", "addr:state": "AR", "addr:street_address": "2712 MARKET TRCE", "amenity": "post_box", "collection_times": "Mo-Fr 16:30; Sa 14:30", "indoor": "yes", "note": "ON 12/24 AND 12/31, THIS BOX MAY BE COLLECTED AS EARLY AS 12 NOON.", "nsi_id": "unitedstatespostalservice-a77078", "operator": "United States Postal Service", "operator:short": "USPS", "operator:type": "public", "operator:wikidata": "Q668687", "ref": "7290800016"}, "type": "Feature"}
{"geometry": {"coordinates": [-94.4059725, 35.301778495], "type": "Point"}, "id": "rvzp7F0pkXXloLaIUFyFSKLsddM=", "properties": {"@source_uri": "https://tools.usps.com/UspsToolsRestServices/rest/POLocator/findLocations", "@spider": "usps_collection_boxes", "addr:city": "FORT SMITH", "addr:country": "US", "addr:postcode": "72908", "addr:state": "AR", "addr:street_address": "2712 MARKET TRCE", "amenity": "post_box", "collection_times": "Mo-Fr 16:30", "indoor": "yes", "note": "ON 12/24 AND 12/31, THIS BOX MAY BE COLLECTED AS EARLY AS 12 NOON.", "nsi_id": "unitedstatespostalservice-a77078", "operator": "United States Postal Service", "operator:short": "USPS", "operator:type": "public", "operator:wikidata": "Q668687", "ref": "7290800018"}, "type": "Feature"}
{"geometry": {"coordinates": [-94.352351965, 35.350354987], "type": "Point"}, "id": "2cTitI1KTNs5gwVkmWXI76grP8M=", "properties": {"@source_uri": "https://tools.usps.com/UspsToolsRestServices/rest/POLocator/findLocations", "@spider": "usps_collection_boxes", "addr:city": "FORT SMITH", "addr:country": "US", "addr:postcode": "72917", "addr:state": "AR", "addr:street_address": "3318 S 74TH ST", "amenity": "post_box", "collection_times": "Mo-Sa 18:00", "indoor": "yes", "note": "ON 12/24 AND 12/31, THIS BOX MAY BE COLLECTED AS EARLY AS 12 NOON.", "nsi_id": "unitedstatespostalservice-a77078", "operator": "United States Postal Service", "operator:short": "USPS", "operator:type": "public", "operator:wikidata": "Q668687", "ref": "7291700001"}, "type": "Feature"}
{"geometry": {"coordinates": [-94.3523590892, 35.3503616924], "type": "Point"}, "id": "hXkX_YWapHFW1NDOJr7eOHHjPeQ=", "properties": {"@source_uri": "https://tools.usps.com/UspsToolsRestServices/rest/POLocator/findLocations", "@spider": "usps_collection_boxes", "addr:city": "FORT SMITH", "addr:country": "US", "addr:postcode": "72917", "addr:state": "AR", "addr:street_address": "3318 S 74TH ST", "amenity": "post_box", "collection_times": "Mo-Sa 18:00", "note": "ON 12/24 AND 12/31, THIS BOX MAY BE COLLECTED AS EARLY AS 12 NOON.", "nsi_id": "unitedstatespostalservice-a77078", "operator": "United States Postal Service", "operator:short": "USPS", "operator:type": "public", "operator:wikidata": "Q668687", "ref": "7291700003"}, "type": "Feature"}
{"geometry": {"coordinates": [-94.352351965, 35.350354987], "type": "Point"}, "id": "uxhk5IcrTip6FIsOxvsmV3h0-_w=", "properties": {"@source_uri": "https://tools.usps.com/UspsToolsRestServices/rest/POLocator/findLocations", "@spider": "usps_collection_boxes", "addr:city": "FORT SMITH", "addr:country": "US", "addr:postcode": "72917", "addr:state": "AR", "addr:street_address": "3318 S 74TH ST", "amenity": "post_box", "collection_times": "Mo-Sa 18:00", "name": "USPS COLLECTION BOX - APC", "note": "ON 12/24 AND 12/31, THIS BOX MAY BE COLLECTED AS EARLY AS 12 NOON.", "nsi_id": "unitedstatespostalservice-a77078", "operator": "United States Postal Service", "operator:short": "USPS", "operator:type": "public", "operator:wikidata": "Q668687", "ref": "7291700007"}, "type": "Feature"}
{"geometry": {"coordinates": [-94.2174866, 35.487171], "type": "Point"}, "id": "MedOvrobRwIIQulxSXUZ_iwGZ00=", "properties": {"@source_uri": "https://tools.usps.com/UspsToolsRestServices/rest/POLocator/findLocations", "@spider": "usps_collection_boxes", "addr:city": "ALMA", "addr:country": "US", "addr:postcode": "72921", "addr:state": "AR", "addr:street_address": "524 HIGHWAY 64 E", "amenity": "post_box", "collection_times": "Mo-Fr 16:45; Sa 14:15", "note": "ON 12/24 AND 12/31, THIS BOX MAY BE COLLECTED AS EARLY AS 12 NOON.", "nsi_id": "unitedstatespostalservice-a77078", "operator": "United States Postal Service", "operator:short": "USPS", "operator:type": "public", "operator:wikidata": "Q668687", "ref": "7292100001"}, "type": "Feature"}
{"geometry": {"coordinates": [-94.2172115, 35.487403], "type": "Point"}, "id": "POzjN1XTtKLtvnMq4hk2MpwNVqk=", "properties": {"@source_uri": "https://tools.usps.com/UspsToolsRestServices/rest/POLocator/findLocations", "@spider": "usps_collection_boxes", "addr:city": "ALMA", "addr:country": "US", "addr:postcode": "72921", "addr:state": "AR", "addr:street_address": "524 HIGHWAY 64 E", "amenity": "post_box", "collection_times": "Mo-Fr 16:45; Sa 14:15", "indoor": "yes", "note": "ON 12/24 AND 12/31, THIS BOX MAY BE COLLECTED AS EARLY AS 12 NOON.", "nsi_id": "unitedstatespostalservice-a77078", "operator": "United States Postal Service", "operator:short": "USPS", "operator:type": "public", "operator:wikidata": "Q668687", "ref": "7292100002"}, "type": "Feature"}
{"geometry": {"coordinates": [-94.2262458252, 35.4847856334], "type": "Point"}, "id": "sbdL-bGAXKu_IsgMs287WabjOlo=", "properties": {"@source_uri": "https://tools.usps.com/UspsToolsRestServices/rest/POLocator/findLocations", "@spider": "usps_collection_boxes", "addr:city": "ALMA", "addr:country": "US", "addr:postcode": "72921", "addr:state": "AR", "addr:street_address": "106 HIGHWAY 71 NORTH", "amenity": "post_box", "collection_times": "Mo-Sa 13:30", "note": "ON 12/24 AND 12/31, THIS BOX MAY BE COLLECTED AS EARLY AS 12 NOON.", "nsi_id": "unitedstatespostalservice-a77078", "operator": "United States Postal Service", "operator:short": "USPS", "operator:type": "public", "operator:wikidata": "Q668687", "ref": "7292100004"}, "type": "Feature"}
{"geometry": {"coordinates": [-94.2172206, 35.487401], "type": "Point"}, "id": "v3r-fW6kklLtZ1Bil1tQoP6PIPQ=", "properties": {"@source_uri": "https://tools.usps.com/UspsToolsRestServices/rest/POLocator/findLocations", "@spider": "usps_collection_boxes", "addr:city": "ALMA", "addr:country": "US", "addr:postcode": "72921", "addr:state": "AR", "addr:street_address": "524 HIGHWAY 64 E", "amenity": "post_box", "collection_times": "Mo-Fr 16:45; Sa 14:15", "indoor": "yes", "note": "ON 12/24 AND 12/31, THIS BOX MAY BE COLLECTED AS EARLY AS 12 NOON.", "nsi_id": "unitedstatespostalservice-a77078", "operator": "United States Postal Service", "operator:short": "USPS", "operator:type": "public", "operator:wikidata": "Q668687", "ref": "7292100006"}, "type": "Feature"}
{"geometry": {"coordinates": [-94.217333646, 35.487013083], "type": "Point"}, "id": "15VJvD9CDQ-FQyzUMvI5nxJoNGE=", "properties": {"@source_uri": "https://tools.usps.com/UspsToolsRestServices/rest/POLocator/findLocations", "@spider": "usps_collection_boxes", "addr:city": "ALMA", "addr:country": "US", "addr:postcode": "72921", "addr:state": "AR", "addr:street_address": "524 HIGHWAY 64 E", "amenity": "post_box", "collection_times": "Mo-Fr 16:45; Sa 12:00", "indoor": "yes", "note": "ON 12/24 AND 12/31, THIS BOX MAY BE COLLECTED AS EARLY AS 12 NOON.", "nsi_id": "unitedstatespostalservice-a77078", "operator": "United States Postal Service", "operator:short": "USPS", "operator:type": "public", "operator:wikidata": "Q668687", "ref": "7292100007"}, "type": "Feature"}
{"geometry": {"coordinates": [-94.3036656, 35.326524], "type": "Point"}, "id": "EPAlbeZl05QeEsah4CqGTHolFIc=", "properties": {"@source_uri": "https://tools.usps.com/UspsToolsRestServices/rest/POLocator/findLocations", "@spider": "usps_collection_boxes", "addr:city": "BARLING", "addr:country": "US", "addr:postcode": "72923", "addr:state": "AR", "addr:street_address": "609 FORT ST", "amenity": "post_box", "collection_times": "Mo-Fr 16:30; Sa 12:45", "note": "ON 12/24 AND 12/31, THIS BOX MAY BE COLLECTED AS EARLY AS 12 NOON.", "nsi_id": "unitedstatespostalservice-a77078", "operator": "United States Postal Service", "operator:short": "USPS", "operator:type": "public", "operator:wikidata": "Q668687", "ref": "7292300001"}, "type": "Feature"}
{"geometry": {"coordinates": [-94.3035259, 35.326368], "type": "Point"}, "id": "NpHf8GaoFDf7p1ojj4x85A4i9Ow=", "properties": {"@source_uri": "https://tools.usps.com/UspsToolsRestServices/rest/POLocator/findLocations", "@spider": "usps_collection_boxes", "addr:city": "BARLING", "addr:country": "US", "addr:postcode": "72923", "addr:state": "AR", "addr:street_address": "609 FORT ST", "amenity": "post_box", "collection_times": "Mo-Fr 16:30; Sa 12:45", "indoor": "yes", "note": "ON 12/24 AND 12/31, THIS BOX MAY BE COLLECTED AS EARLY AS 12 NOON.", "nsi_id": "unitedstatespostalservice-a77078", "operator": "United States Postal Service", "operator:short": "USPS", "operator:type": "public", "operator:wikidata": "Q668687", "ref": "7292300002"}, "type": "Feature"}
{"geometry": {"coordinates": [-94.303351601, 35.326636084], "type": "Point"}, "id": "IQx3s2DnnjvuzRLA737UOrIjtco=", "properties": {"@source_uri": "https://tools.usps.com/UspsToolsRestServices/rest/POLocator/findLocations", "@spider": "usps_collection_boxes", "addr:city": "BARLING", "addr:country": "US", "addr:postcode": "72923", "addr:state": "AR", "addr:street_address": "609 FORT ST", "amenity": "post_box", "collection_times": "Mo-Fr 16:00", "indoor": "yes", "note": "ON 12/24 AND 12/31, THIS BOX MAY BE COLLECTED AS EARLY AS 12 NOON.", "nsi_id": "unitedstatespostalservice-a77078", "operator": "United States Postal Service", "operator:short": "USPS", "operator:type": "public", "operator:wikidata": "Q668687", "ref": "7292300003"}, "type": "Feature"}
{"geometry": {"coordinates": [-94.046971, 34.785401], "type": "Point"}, "id": "pS14dtDFNHkRpLcqvkb4pstQk94=", "properties": {"@source_uri": "https://tools.usps.com/UspsToolsRestServices/rest/POLocator/findLocations", "@spider": "usps_collection_boxes", "addr:city": "BOLES", "addr:country": "US", "addr:postcode": "72926", "addr:state": "AR", "addr:street_address": "11992 HIGHWAY 71 S", "amenity": "post_box", "collection_times": "Mo-Fr 11:00; Sa 10:00", "nsi_id": "unitedstatespostalservice-a77078", "operator": "United States Postal Service", "operator:short": "USPS", "operator:type": "public", "operator:wikidata": "Q668687", "ref": "7292600001"}, "type": "Feature"}
{"geometry": {"coordinates": [-94.046971, 34.785401], "type": "Point"}, "id": "T9UEfnkXXvKrSwBO7GvSfk_ZnLg=", "properties": {"@source_uri": "https://tools.usps.com/UspsToolsRestServices/rest/POLocator/findLocations", "@spider": "usps_collection_boxes", "addr:city": "BOLES", "addr:country": "US", "addr:postcode": "72926", "addr:state": "AR", "addr:street_address": "11992 HIGHWAY 71 S", "amenity": "post_box", "collection_times": "Mo-Fr 11:00; Sa 10:00", "indoor": "yes", "nsi_id": "unitedstatespostalservice-a77078", "operator": "United States Postal Service", "operator:short": "USPS", "operator:type": "public", "operator:wikidata": "Q668687", "ref": "7292600002"}, "type": "Feature"}
{"geometry": {"coordinates": [-94.046952281, 34.785439784], "type": "Point"}, "id": "JF8ODcbUVtTxmk8ix9BCCOKk2Sw=", "properties": {"@source_uri": "https://tools.usps.com/UspsToolsRestServices/rest/POLocator/findLocations", "@spider": "usps_collection_boxes", "addr:city": "BOLES", "addr:country": "US", "addr:postcode": "72926", "addr:state": "AR", "addr:street_address": "11992 HIGHWAY 71 S", "amenity": "post_box", "collection_times": "Mo-Fr 11:30; Sa 10:45", "indoor": "yes", "nsi_id": "unitedstatespostalservice-a77078", "operator": "United States Postal Service", "operator:short": "USPS", "operator:type": "public", "operator:wikidata": "Q668687", "ref": "7292600003"}, "type": "Feature"}
{"geometry": {"coordinates": [-93.9226069, 35.137715], "type": "Point"}, "id": "eu4KrhKMF1A7BLLWBRjyfJffz_M=", "properties": {"@source_uri": "https://tools.usps.com/UspsToolsRestServices/rest/POLocator/findLocations", "@spider": "usps_collection_boxes", "addr:city": "BOONEVILLE", "addr:country": "US", "addr:postcode": "72927", "addr:state": "AR", "addr:street_address": "111 S BROADWAY AVE", "amenity": "post_box", "collection_times": "Mo-Fr 16:30; Sa 12:00", "indoor": "yes", "note": "ON 12/24 AND 12/31, THIS BOX MAY BE COLLECTED AS EARLY AS 12 NOON.", "nsi_id": "unitedstatespostalservice-a77078", "operator": "United States Postal Service", "operator:short": "USPS", "operator:type": "public", "operator:wikidata": "Q668687", "ref": "7292700006"}, "type": "Feature"}
{"geometry": {"coordinates": [-93.9226069, 35.13772], "type": "Point"}, "id": "Cd5w0JnR4S-cNfCfjKdFN6Ov4Rg=", "properties": {"@source_uri": "https://tools.usps.com/UspsToolsRestServices/rest/POLocator/findLocations", "@spider": "usps_collection_boxes", "addr:city": "BOONEVILLE", "addr:country": "US", "addr:postcode": "72927", "addr:state": "AR", "addr:street_address": "111 S BROADWAY AVE", "amenity": "post_box", "collection_times": "Mo-Fr 16:30; Sa 12:00", "indoor": "yes", "note": "ON 12/24 AND 12/31, THIS BOX MAY BE COLLECTED AS EARLY AS 12 NOON.", "nsi_id": "unitedstatespostalservice-a77078", "operator": "United States Postal Service", "operator:short": "USPS", "operator:type": "public", "operator:wikidata": "Q668687", "ref": "7292700007"}, "type": "Feature"}
{"geometry": {"coordinates": [-93.9223133, 35.137808], "type": "Point"}, "id": "boEmMFWmvoiknEGOte8ne7oXRUQ=", "properties": {"@source_uri": "https://tools.usps.com/UspsToolsRestServices/rest/POLocator/findLocations", "@spider": "usps_collection_boxes", "addr:city": "BOONEVILLE", "addr:country": "US", "addr:postcode": "72927", "addr:state": "AR", "addr:street_address": "111 S BROADWAY AVE", "amenity": "post_box", "collection_times": "Mo-Fr 16:45; Sa 15:30", "note": "ON 12/24 AND 12/31, THIS BOX MAY BE COLLECTED AS EARLY AS 12 NOON.", "nsi_id": "unitedstatespostalservice-a77078", "operator": "United States Postal Service", "operator:short": "USPS", "operator:type": "public", "operator:wikidata": "Q668687", "ref": "7292700009"}, "type": "Feature"}
{"geometry": {"coordinates": [-93.922116336, 35.137710597], "type": "Point"}, "id": "_4QIMYkkRsVvnBVHFB8Mpe0Di00=", "properties": {"@source_uri": "https://tools.usps.com/UspsToolsRestServices/rest/POLocator/findLocations", "@spider": "usps_collection_boxes", "addr:city": "BOONEVILLE", "addr:country": "US", "addr:postcode": "72927", "addr:state": "AR", "addr:street_address": "111 S BROADWAY AVE", "amenity": "post_box", "collection_times": "Mo-Fr 16:30; Sa 12:00", "indoor": "yes", "note": "ON 12/24 AND 12/31, THIS BOX MAY BE COLLECTED AS EARLY AS 12 NOON.", "nsi_id": "unitedstatespostalservice-a77078", "operator": "United States Postal Service", "operator:short": "USPS", "operator:type": "public", "operator:wikidata": "Q668687", "ref": "7292700010"}, "type": "Feature"}
{"geometry": {"coordinates": [-93.9591833, 35.305698], "type": "Point"}, "id": "L0QSyjeiIL5UFFQaBoReb2rjj8g=", "properties": {"@source_uri": "https://tools.usps.com/UspsToolsRestServices/rest/POLocator/findLocations", "@spider": "usps_collection_boxes", "addr:city": "BRANCH", "addr:country": "US", "addr:postcode": "72928", "addr:state": "AR", "addr:street_address": "510 HIGHWAY 22 W", "amenity": "post_box", "collection_times": "Mo-Fr 11:00; Sa 11:20", "nsi_id": "unitedstatespostalservice-a77078", "operator": "United States Postal Service", "operator:short": "USPS", "operator:type": "public", "operator:wikidata": "Q668687", "ref": "7292800001"}, "type": "Feature"}
{"geometry": {"coordinates": [-93.959218, 35.305574], "type": "Point"}, "id": "hANAOjwF6k5AQ5nDkmCHCFgDStc=", "properties": {"@source_uri": "https://tools.usps.com/UspsToolsRestServices/rest/POLocator/findLocations", "@spider": "usps_collection_boxes", "addr:city": "BRANCH", "addr:country": "US", "addr:postcode": "72928", "addr:state": "AR", "addr:street_address": "510 HIGHWAY 22 W", "amenity": "post_box", "collection_times": "Mo-Fr 11:00; Sa 11:20", "indoor": "yes", "nsi_id": "unitedstatespostalservice-a77078", "operator": "United States Postal Service", "operator:short": "USPS", "operator:type": "public", "operator:wikidata": "Q668687", "ref": "7292800002"}, "type": "Feature"}
{"geometry": {"coordinates": [-93.959218, 35.305574], "type": "Point"}, "id": "tQzMBoF88gT3b11CL_dgDvsTGeM=", "properties": {"@source_uri": "https://tools.usps.com/UspsToolsRestServices/rest/POLocator/findLocations", "@spider": "usps_collection_boxes", "addr:city": "BRANCH", "addr:country": "US", "addr:postcode": "72928", "addr:state": "AR", "addr:street_address": "510 HIGHWAY 22 W", "amenity": "post_box", "collection_times": "Mo-Fr 11:00; Sa 11:20", "indoor": "yes", "nsi_id": "unitedstatespostalservice-a77078", "operator": "United States Postal Service", "operator:short": "USPS", "operator:type": "public", "operator:wikidata": "Q668687", "ref": "7292800003"}, "type": "Feature"}
{"geometry": {"coordinates": [-93.959258369, 35.305610946], "type": "Point"}, "id": "2VlrePpxQQEJsj1bviDb4W65c70=", "properties": {"@source_uri": "https://tools.usps.com/UspsToolsRestServices/rest/POLocator/findLocations", "@spider": "usps_collection_boxes", "addr:city": "BRANCH", "addr:country": "US", "addr:postcode": "72928", "addr:state": "AR", "addr:street_address": "510 HIGHWAY 22 W", "amenity": "post_box", "collection_times": "Mo-Fr 11:30; Sa 11:15", "indoor": "yes", "nsi_id": "unitedstatespostalservice-a77078", "operator": "United States Postal Service", "operator:short": "USPS", "operator:type": "public", "operator:wikidata": "Q668687", "ref": "7292800006"}, "type": "Feature"}
{"geometry": {"coordinates": [-93.944698, 35.438695], "type": "Point"}, "id": "mDcBB82EAlIKanKJHebZFzh6BuU=", "properties": {"@source_uri": "https://tools.usps.com/UspsToolsRestServices/rest/POLocator/findLocations", "@spider": "usps_collection_boxes", "addr:city": "CECIL", "addr:country": "US", "addr:postcode": "72930", "addr:state": "AR", "addr:street_address": "21 W HIGHWAY 96", "amenity": "post_box", "collection_times": "Mo-Sa 11:45", "indoor": "yes", "nsi_id": "unitedstatespostalservice-a77078", "operator": "United States Postal Service", "operator:short": "USPS", "operator:type": "public", "operator:wikidata": "Q668687", "ref": "7293000002"}, "type": "Feature"}
{"geometry": {"coordinates": [-93.944698, 35.438695], "type": "Point"}, "id": "zwdbpOVm0Rkko0upQ3FaPeLKf9I=", "properties": {"@source_uri": "https://tools.usps.com/UspsToolsRestServices/rest/POLocator/findLocations", "@spider": "usps_collection_boxes", "addr:city": "CECIL", "addr:country": "US", "addr:postcode": "72930", "addr:state": "AR", "addr:street_address": "21 W HIGHWAY 96", "amenity": "post_box", "collection_times": "Mo-Sa 11:45", "indoor": "yes", "nsi_id": "unitedstatespostalservice-a77078", "operator": "United States Postal Service", "operator:short": "USPS", "operator:type": "public", "operator:wikidata": "Q668687", "ref": "7293000003"}, "type": "Feature"}
{"geometry": {"coordinates": [-93.944848204, 35.438646076], "type": "Point"}, "id": "CFvDu_VxYB_vTvm3xF9dsxnqirI=", "properties": {"@source_uri": "https://tools.usps.com/UspsToolsRestServices/rest/POLocator/findLocations", "@spider": "usps_collection_boxes", "addr:city": "CECIL", "addr:country": "US", "addr:postcode": "72930", "addr:state": "AR", "addr:street_address": "21 W HIGHWAY 96", "amenity": "post_box", "collection_times": "Mo-Sa 12:00", "indoor": "yes", "nsi_id": "unitedstatespostalservice-a77078", "operator": "United States Postal Service", "operator:short": "USPS", "operator:type": "public", "operator:wikidata": "Q668687", "ref": "7293000004"}, "type": "Feature"}
{"geometry": {"coordinates": [-94.367109, 35.567081], "type": "Point"}, "id": "8PtymKTPvwvjm4ZUlytuTW3D16c=", "properties": {"@source_uri": "https://tools.usps.com/UspsToolsRestServices/rest/POLocator/findLocations", "@spider": "usps_collection_boxes", "addr:city": "CEDARVILLE", "addr:country": "US", "addr:postcode": "72932", "addr:state": "AR", "addr:street_address": "8904 N HIGHWAY 59", "amenity": "post_box", "collection_times": "Mo-Fr 14:20; Sa 11:15", "note": "ON 12/24 AND 12/31, THIS BOX MAY BE COLLECTED AS EARLY AS 12 NOON.", "nsi_id": "unitedstatespostalservice-a77078", "operator": "United States Postal Service", "operator:short": "USPS", "operator:type": "public", "operator:wikidata": "Q668687", "ref": "7293200001"}, "type": "Feature"}
{"geometry": {"coordinates": [-94.367109, 35.567081], "type": "Point"}, "id": "-VGXtmprx2r74enxAKfnxv09Nfc=", "properties": {"@source_uri": "https://tools.usps.com/UspsToolsRestServices/rest/POLocator/findLocations", "@spider": "usps_collection_boxes", "addr:city": "CEDARVILLE", "addr:country": "US", "addr:postcode": "72932", "addr:state": "AR", "addr:street_address": "8904 N HIGHWAY 59", "amenity": "post_box", "collection_times": "Mo-Fr 14:20; Sa 11:15", "indoor": "yes", "note": "ON 12/24 AND 12/31, THIS BOX MAY BE COLLECTED AS EARLY AS 12 NOON.", "nsi_id": "unitedstatespostalservice-a77078", "operator": "United States Postal Service", "operator:short": "USPS", "operator:type": "public", "operator:wikidata": "Q668687", "ref": "7293200002"}, "type": "Feature"}
{"geometry": {"coordinates": [-94.367109, 35.567081], "type": "Point"}, "id": "vNiqZGaun2D-sLTfqf1wZ8_4aqY=", "properties": {"@source_uri": "https://tools.usps.com/UspsToolsRestServices/rest/POLocator/findLocations", "@spider": "usps_collection_boxes", "addr:city": "CEDARVILLE", "addr:country": "US", "addr:postcode": "72932", "addr:state": "AR", "addr:street_address": "8904 N HIGHWAY 59", "amenity": "post_box", "collection_times": "Mo-Fr 14:20; Sa 11:15", "indoor": "yes", "note": "ON 12/24 AND 12/31, THIS BOX MAY BE COLLECTED AS EARLY AS 12 NOON.", "nsi_id": "unitedstatespostalservice-a77078", "operator": "United States Postal Service", "operator:short": "USPS", "operator:type": "public", "operator:wikidata": "Q668687", "ref": "7293200003"}, "type": "Feature"}
{"geometry": {"coordinates": [-94.367109363, 35.567073388], "type": "Point"}, "id": "WOvDycbHwLAl8UNPAU6JVKAk3o0=", "properties": {"@source_uri": "https://tools.usps.com/UspsToolsRestServices/rest/POLocator/findLocations", "@spider": "usps_collection_boxes", "addr:city": "CEDARVILLE", "addr:country": "US", "addr:postcode": "72932", "addr:state": "AR", "addr:street_address": "8904 N HIGHWAY 59", "amenity": "post_box", "collection_times": "Mo-Fr 14:45; Sa 11:30", "indoor": "yes", "note": "ON 12/24 AND 12/31, THIS BOX MAY BE COLLECTED AS EARLY AS 12 NOON.", "nsi_id": "unitedstatespostalservice-a77078", "operator": "United States Postal Service", "operator:short": "USPS", "operator:type": "public", "operator:wikidata": "Q668687", "ref": "7293200006"}, "type": "Feature"}
{"geometry": {"coordinates": [-94.041362, 35.297122], "type": "Point"}, "id": "3ja3xM4aKxVM0_jENJoRBrqTGpA=", "properties": {"@source_uri": "https://tools.usps.com/UspsToolsRestServices/rest/POLocator/findLocations", "@spider": "usps_collection_boxes", "addr:city": "CHARLESTON", "addr:country": "US", "addr:postcode": "72933", "addr:state": "AR", "addr:street_address": "215 E MAIN ST", "amenity": "post_box", "collection_times": "Mo-Fr 16:30; Sa 13:00", "note": "ON 12/24 AND 12/31, THIS BOX MAY BE COLLECTED AS EARLY AS 12 NOON.", "nsi_id": "unitedstatespostalservice-a77078", "operator": "United States Postal Service", "operator:short": "USPS", "operator:type": "public", "operator:wikidata": "Q668687", "ref": "7293300001"}, "type": "Feature"}
{"geometry": {"coordinates": [-94.041362, 35.297122], "type": "Point"}, "id": "oDHme8jeZr5PP-__rbCX7z6HQqc=", "properties": {"@source_uri": "https://tools.usps.com/UspsToolsRestServices/rest/POLocator/findLocations", "@spider": "usps_collection_boxes", "addr:city": "CHARLESTON", "addr:country": "US", "addr:postcode": "72933", "addr:state": "AR", "addr:street_address": "215 E MAIN ST", "amenity": "post_box", "collection_times": "Mo-Fr 16:30; Sa 13:00", "indoor": "yes", "note": "ON 12/24 AND 12/31, THIS BOX MAY BE COLLECTED AS EARLY AS 12 NOON.", "nsi_id": "unitedstatespostalservice-a77078", "operator": "United States Postal Service", "operator:short": "USPS", "operator:type": "public", "operator:wikidata": "Q668687", "ref": "7293300002"}, "type": "Feature"}
{"geometry": {"coordinates": [-94.041362, 35.297122], "type": "Point"}, "id": "3EI4WvwnsfZo4CLcUg_CigsGj-g=", "properties": {"@source_uri": "https://tools.usps.com/UspsToolsRestServices/rest/POLocator/findLocations", "@spider": "usps_collection_boxes", "addr:city": "CHARLESTON", "addr:country": "US", "addr:postcode": "72933", "addr:state": "AR", "addr:street_address": "215 E MAIN ST", "amenity": "post_box", "collection_times": "Mo-Fr 16:30; Sa 13:00", "indoor": "yes", "note": "ON 12/24 AND 12/31, THIS BOX MAY BE COLLECTED AS EARLY AS 12 NOON.", "nsi_id": "unitedstatespostalservice-a77078", "operator": "United States Postal Service", "operator:short": "USPS", "operator:type": "public", "operator:wikidata": "Q668687", "ref": "7293300003"}, "type": "Feature"}
{"geometry": {"coordinates": [-94.041362, 35.297122], "type": "Point"}, "id": "MdF0QD6MNwCctOsP0pEzdGnp4W8=", "properties": {"@source_uri": "https://tools.usps.com/UspsToolsRestServices/rest/POLocator/findLocations", "@spider": "usps_collection_boxes", "addr:city": "CHARLESTON", "addr:country": "US", "addr:postcode": "72933", "addr:state": "AR", "addr:street_address": "215 E MAIN ST", "amenity": "post_box", "collection_times": "Mo-Fr 16:30; Sa 13:00", "indoor": "yes", "note": "ON 12/24 AND 12/31, THIS BOX MAY BE COLLECTED AS EARLY AS 12 NOON.", "nsi_id": "unitedstatespostalservice-a77078", "operator": "United States Postal Service", "operator:short": "USPS", "operator:type": "public", "operator:wikidata": "Q668687", "ref": "7293300004"}, "type": "Feature"}
{"geometry": {"coordinates": [-94.041362, 35.297122], "type": "Point"}, "id": "cecxmbcYvSt-rWfHkOL9xA87W2s=", "properties": {"@source_uri": "https://tools.usps.com/UspsToolsRestServices/rest/POLocator/findLocations", "@spider": "usps_collection_boxes", "addr:city": "CHARLESTON", "addr:country": "US", "addr:postcode": "72933", "addr:state": "AR", "addr:street_address": "215 E MAIN ST", "amenity": "post_box", "collection_times": "Mo-Fr 16:30; Sa 13:00", "indoor": "yes", "note": "ON 12/24 AND 12/31, THIS BOX MAY BE COLLECTED AS EARLY AS 12 NOON.", "nsi_id": "unitedstatespostalservice-a77078", "operator": "United States Postal Service", "operator:short": "USPS", "operator:type": "public", "operator:wikidata": "Q668687", "ref": "7293300005"}, "type": "Feature"}
{"geometry": {"coordinates": [-94.0413641961, 35.2971164924], "type": "Point"}, "id": "Maj_xBq6wWkEw0ngWDOklv4zIDA=", "properties": {"@source_uri": "https://tools.usps.com/UspsToolsRestServices/rest/POLocator/findLocations", "@spider": "usps_collection_boxes", "addr:city": "CHARLESTON", "addr:country": "US", "addr:postcode": "72933", "addr:state": "AR", "addr:street_address": "215 E MAIN ST", "amenity": "post_box", "collection_times": "Mo-Fr 17:00; Sa 13:30", "indoor": "yes", "note": "ON 12/24 AND 12/31, THIS BOX MAY BE COLLECTED AS EARLY AS 12 NOON.", "nsi_id": "unitedstatespostalservice-a77078", "operator": "United States Postal Service", "operator:short": "USPS", "operator:type": "public", "operator:wikidata": "Q668687", "ref": "7293300006"}, "type": "Feature"}
{"geometry": {"coordinates": [-94.1745899, 35.679186], "type": "Point"}, "id": "z2w0F0tVmcnhgH4JpaniBgs8m_g=", "properties": {"@source_uri": "https://tools.usps.com/UspsToolsRestServices/rest/POLocator/findLocations", "@spider": "usps_collection_boxes", "addr:city": "CHESTER", "addr:country": "US", "addr:postcode": "72934", "addr:state": "AR", "addr:street_address": "405 E FRONT AVE", "amenity": "post_box", "collection_times": "Mo-Fr 12:00; Sa 10:00", "nsi_id": "unitedstatespostalservice-a77078", "operator": "United States Postal Service", "operator:short": "USPS", "operator:type": "public", "operator:wikidata": "Q668687", "ref": "7293400001"}, "type": "Feature"}
{"geometry": {"coordinates": [-94.1746617, 35.679151329], "type": "Point"}, "id": "iDDlnjv5En8chPQp1XndZ1G9fD0=", "properties": {"@source_uri": "https://tools.usps.com/UspsToolsRestServices/rest/POLocator/findLocations", "@spider": "usps_collection_boxes", "addr:city": "CHESTER", "addr:country": "US", "addr:postcode": "72934", "addr:state": "AR", "addr:street_address": "405 E FRONT AVE", "amenity": "post_box", "collection_times": "Mo-Fr 12:00; Sa 10:00", "indoor": "yes", "nsi_id": "unitedstatespostalservice-a77078", "operator": "United States Postal Service", "operator:short": "USPS", "operator:type": "public", "operator:wikidata": "Q668687", "ref": "7293400003"}, "type": "Feature"}
{"geometry": {"coordinates": [-94.138521, 35.489906], "type": "Point"}, "id": "w02pikEv_azq2Ff0B24IcpgCx0Y=", "properties": {"@source_uri": "https://tools.usps.com/UspsToolsRestServices/rest/POLocator/findLocations", "@spider": "usps_collection_boxes", "addr:city": "DYER", "addr:country": "US", "addr:postcode": "72935", "addr:state": "AR", "addr:street_address": "107 N MAIN ST", "amenity": "post_box", "collection_times": "Mo-Sa 11:30", "indoor": "yes", "nsi_id": "unitedstatespostalservice-a77078", "operator": "United States Postal Service", "operator:short": "USPS", "operator:type": "public", "operator:wikidata": "Q668687", "ref": "7293500002"}, "type": "Feature"}
{"geometry": {"coordinates": [-94.138521, 35.489906], "type": "Point"}, "id": "RAhQu_2eEIEDO6B5Wnbeqd_c6ds=", "properties": {"@source_uri": "https://tools.usps.com/UspsToolsRestServices/rest/POLocator/findLocations", "@spider": "usps_collection_boxes", "addr:city": "DYER", "addr:country": "US", "addr:postcode": "72935", "addr:state": "AR", "addr:street_address": "107 N MAIN ST", "amenity": "post_box", "collection_times": "Mo-Sa 11:30", "indoor": "yes", "nsi_id": "unitedstatespostalservice-a77078", "operator": "United States Postal Service", "operator:short": "USPS", "operator:type": "public", "operator:wikidata": "Q668687", "ref": "7293500003"}, "type": "Feature"}
{"geometry": {"coordinates": [-94.1385936144, 35.4900474904], "type": "Point"}, "id": "x6SsxqOzYW2UoQ0R8l1bV8WbPuQ=", "properties": {"@source_uri": "https://tools.usps.com/UspsToolsRestServices/rest/POLocator/findLocations", "@spider": "usps_collection_boxes", "addr:city": "DYER", "addr:country": "US", "addr:postcode": "72935", "addr:state": "AR", "addr:street_address": "107 N MAIN ST", "amenity": "post_box", "collection_times": "Mo-Fr 12:00; Sa 11:45", "indoor": "yes", "nsi_id": "unitedstatespostalservice-a77078", "operator": "United States Postal Service", "operator:short": "USPS", "operator:type": "public", "operator:wikidata": "Q668687", "ref": "7293500004"}, "type": "Feature"}
{"geometry": {"coordinates": [-94.25305, 35.213428], "type": "Point"}, "id": "R3Q3dVSkpwwBY5w_SMAzGY80lEE=", "properties": {"@source_uri": "https://tools.usps.com/UspsToolsRestServices/rest/POLocator/findLocations", "@spider": "usps_collection_boxes", "addr:city": "GREENWOOD", "addr:country": "US", "addr:postcode": "72936", "addr:state": "AR", "addr:street_address": "450 E ATLANTA ST", "amenity": "post_box", "collection_times": "Mo-Fr 17:00; Sa 14:30", "note": "ON 12/24 AND 12/31, THIS BOX MAY BE COLLECTED AS EARLY AS 12 NOON.", "nsi_id": "unitedstatespostalservice-a77078", "operator": "United States Postal Service", "operator:short": "USPS", "operator:type": "public", "operator:wikidata": "Q668687", "ref": "7293600001"}, "type": "Feature"}
{"geometry": {"coordinates": [-94.2767997525, 35.219740125], "type": "Point"}, "id": "veVQeOHEiQzw33fcsqb2T8y4M30=", "properties": {"@source_uri": "https://tools.usps.com/UspsToolsRestServices/rest/POLocator/findLocations", "@spider": "usps_collection_boxes", "addr:city": "GREENWOOD", "addr:country": "US", "addr:postcode": "72936", "addr:state": "AR", "addr:street_address": "1245 W CENTER ST", "amenity": "post_box", "collection_times": "Mo-Sa 09:35", "nsi_id": "unitedstatespostalservice-a77078", "operator": "United States Postal Service", "operator:short": "USPS", "operator:type": "public", "operator:wikidata": "Q668687", "ref": "7293600015"}, "type": "Feature"}
{"geometry": {"coordinates": [-94.2552688, 35.211895], "type": "Point"}, "id": "ugMFtbOJNeqqYlNqEK70ryRyrJw=", "properties": {"@source_uri": "https://tools.usps.com/UspsToolsRestServices/rest/POLocator/findLocations", "@spider": "usps_collection_boxes", "addr:city": "GREENWOOD", "addr:country": "US", "addr:postcode": "72936", "addr:state": "AR", "addr:street_address": "301 E CENTER ST", "amenity": "post_box", "collection_times": "Mo-Sa 11:30", "nsi_id": "unitedstatespostalservice-a77078", "operator": "United States Postal Service", "operator:short": "USPS", "operator:type": "public", "operator:wikidata": "Q668687", "ref": "7293600016"}, "type": "Feature"}
{"geometry": {"coordinates": [-94.2301835, 35.208351], "type": "Point"}, "id": "XPFZ7r-2LT2ft_4H2a3UBI-VYqE=", "properties": {"@source_uri": "https://tools.usps.com/UspsToolsRestServices/rest/POLocator/findLocations", "@spider": "usps_collection_boxes", "addr:city": "GREENWOOD", "addr:country": "US", "addr:postcode": "72936", "addr:state": "AR", "addr:street_address": "220 SUGARBERRY DR", "amenity": "post_box", "collection_times": "Mo-Sa 09:30", "nsi_id": "unitedstatespostalservice-a77078", "operator": "United States Postal Service", "operator:short": "USPS", "operator:type": "public", "operator:wikidata": "Q668687", "ref": "7293600017"}, "type": "Feature"}
{"geometry": {"coordinates": [-94.2335749, 35.207897], "type": "Point"}, "id": "EQGiMm_A9LkPfBxg9z0Oe3rbqqc=", "properties": {"@source_uri": "https://tools.usps.com/UspsToolsRestServices/rest/POLocator/findLocations", "@spider": "usps_collection_boxes", "addr:city": "GREENWOOD", "addr:country": "US", "addr:postcode": "72936", "addr:state": "AR", "addr:street_address": "1580 WHIPPOORWILL DR", "amenity": "post_box", "collection_times": "Mo-Sa 09:00", "nsi_id": "unitedstatespostalservice-a77078", "operator": "United States Postal Service", "operator:short": "USPS", "operator:type": "public", "operator:wikidata": "Q668687", "ref": "7293600021"}, "type": "Feature"}
{"geometry": {"coordinates": [-94.25305, 35.213428], "type": "Point"}, "id": "Hn90HUiyUdqabjnWQpN9SfO_ocY=", "properties": {"@source_uri": "https://tools.usps.com/UspsToolsRestServices/rest/POLocator/findLocations", "@spider": "usps_collection_boxes", "addr:city": "GREENWOOD", "addr:country": "US", "addr:postcode": "72936", "addr:state": "AR", "addr:street_address": "450 E ATLANTA ST", "amenity": "post_box", "collection_times": "Mo-Fr 17:00; Sa 14:30", "indoor": "yes", "note": "ON 12/24 AND 12/31, THIS BOX MAY BE COLLECTED AS EARLY AS 12 NOON.", "nsi_id": "unitedstatespostalservice-a77078", "operator": "United States Postal Service", "operator:short": "USPS", "operator:type": "public", "operator:wikidata": "Q668687", "ref": "7293600025"}, "type": "Feature"}
{"geometry": {"coordinates": [-94.25305, 35.213428], "type": "Point"}, "id": "XNcAEfEYM0ChITlgAIEUf6P0LAo=", "properties": {"@source_uri": "https://tools.usps.com/UspsToolsRestServices/rest/POLocator/findLocations", "@spider": "usps_collection_boxes", "addr:city": "GREENWOOD", "addr:country": "US", "addr:postcode": "72936", "addr:state": "AR", "addr:street_address": "450 E ATLANTA ST", "amenity": "post_box", "collection_times": "Mo-Fr 17:00; Sa 14:30", "indoor": "yes", "note": "ON 12/24 AND 12/31, THIS BOX MAY BE COLLECTED AS EARLY AS 12 NOON.", "nsi_id": "unitedstatespostalservice-a77078", "operator": "United States Postal Service", "operator:short": "USPS", "operator:type": "public", "operator:wikidata": "Q668687", "ref": "7293600026"}, "type": "Feature"}
{"geometry": {"coordinates": [-94.2611266, 35.212641], "type": "Point"}, "id": "Nn-lN5kmMOpOvKdKYVkJKSVdtL8=", "properties": {"@source_uri": "https://tools.usps.com/UspsToolsRestServices/rest/POLocator/findLocations", "@spider": "usps_collection_boxes", "addr:city": "GREENWOOD", "addr:country": "US", "addr:postcode": "72936", "addr:state": "AR", "addr:street_address": "301 W CENTER ST", "amenity": "post_box", "collection_times": "Mo-Sa 10:30", "nsi_id": "unitedstatespostalservice-a77078", "operator": "United States Postal Service", "operator:short": "USPS", "operator:type": "public", "operator:wikidata": "Q668687", "ref": "7293600027"}, "type": "Feature"}
{"geometry": {"coordinates": [-94.2971714, 35.220957], "type": "Point"}, "id": "mZ6mklfvaY3Ixm8i9fs7RamC24s=", "properties": {"@source_uri": "https://tools.usps.com/UspsToolsRestServices/rest/POLocator/findLocations", "@spider": "usps_collection_boxes", "addr:city": "GREENWOOD", "addr:country": "US", "addr:postcode": "72936", "addr:state": "AR", "addr:street_address": "551 LIBERTY DR", "amenity": "post_box", "collection_times": "Mo-Sa 09:30", "nsi_id": "unitedstatespostalservice-a77078", "operator": "United States Postal Service", "operator:short": "USPS", "operator:type": "public", "operator:wikidata": "Q668687", "ref": "7293600028"}, "type": "Feature"}
{"geometry": {"coordinates": [-94.253051085, 35.213419483], "type": "Point"}, "id": "HnL2P-2AHGYixesbbuikpLR71Bs=", "properties": {"@source_uri": "https://tools.usps.com/UspsToolsRestServices/rest/POLocator/findLocations", "@spider": "usps_collection_boxes", "addr:city": "GREENWOOD", "addr:country": "US", "addr:postcode": "72936", "addr:state": "AR", "addr:street_address": "450 E ATLANTA ST", "amenity": "post_box", "collection_times": "Mo-Fr 16:30; Sa 13:00", "indoor": "yes", "note": "ON 12/24 AND 12/31, THIS BOX MAY BE COLLECTED AS EARLY AS 12 NOON.", "nsi_id": "unitedstatespostalservice-a77078", "operator": "United States Postal Service", "operator:short": "USPS", "operator:type": "public", "operator:wikidata": "Q668687", "ref": "7293600029"}, "type": "Feature"}
{"geometry": {"coordinates": [-94.413678, 35.18945], "type": "Point"}, "id": "EoiJ8nO9Pf8XcWwdNMK4t2z-v1Q=", "properties": {"@source_uri": "https://tools.usps.com/UspsToolsRestServices/rest/POLocator/findLocations", "@spider": "usps_collection_boxes", "addr:city": "HACKETT", "addr:country": "US", "addr:postcode": "72937", "addr:state": "AR", "addr:street_address": "402 N MAIN ST", "amenity": "post_box", "collection_times": "Mo-Fr 16:00; Sa 11:00", "note": "ON 12/24 AND 12/31, THIS BOX MAY BE COLLECTED AS EARLY AS 12 NOON.", "nsi_id": "unitedstatespostalservice-a77078", "operator": "United States Postal Service", "operator:short": "USPS", "operator:type": "public", "operator:wikidata": "Q668687", "ref": "7293700001"}, "type": "Feature"}
{"geometry": {"coordinates": [-94.413678, 35.18945], "type": "Point"}, "id": "VPhX_qKj0aAt_FTckF4kCc8jZ78=", "properties": {"@source_uri": "https://tools.usps.com/UspsToolsRestServices/rest/POLocator/findLocations", "@spider": "usps_collection_boxes", "addr:city": "HACKETT", "addr:country": "US", "addr:postcode": "72937", "addr:state": "AR", "addr:street_address": "402 N MAIN ST", "amenity": "post_box", "collection_times": "Mo-Fr 16:00; Sa 11:00", "indoor": "yes", "note": "ON 12/24 AND 12/31, THIS BOX MAY BE COLLECTED AS EARLY AS 12 NOON.", "nsi_id": "unitedstatespostalservice-a77078", "operator": "United States Postal Service", "operator:short": "USPS", "operator:type": "public", "operator:wikidata": "Q668687", "ref": "7293700003"}, "type": "Feature"}
{"geometry": {"coordinates": [-94.413678, 35.18945], "type": "Point"}, "id": "HvaQ2J6bILCgC8nGz0XOiO7Fmkg=", "properties": {"@source_uri": "https://tools.usps.com/UspsToolsRestServices/rest/POLocator/findLocations", "@spider": "usps_collection_boxes", "addr:city": "HACKETT", "addr:country": "US", "addr:postcode": "72937", "addr:state": "AR", "addr:street_address": "402 N MAIN ST", "amenity": "post_box", "collection_times": "Mo-Fr 16:00; Sa 11:00", "indoor": "yes", "note": "ON 12/24 AND 12/31, THIS BOX MAY BE COLLECTED AS EARLY AS 12 NOON.", "nsi_id": "unitedstatespostalservice-a77078", "operator": "United States Postal Service", "operator:short": "USPS", "operator:type": "public", "operator:wikidata": "Q668687", "ref": "7293700004"}, "type": "Feature"}
{"geometry": {"coordinates": [-94.413678913, 35.189441329], "type": "Point"}, "id": "7r42RNQJ8fU00L2LXJ5yUQlAxpE=", "properties": {"@source_uri": "https://tools.usps.com/UspsToolsRestServices/rest/POLocator/findLocations", "@spider": "usps_collection_boxes", "addr:city": "HACKETT", "addr:country": "US", "addr:postcode": "72937", "addr:state": "AR", "addr:street_address": "402 N MAIN ST", "amenity": "post_box", "collection_times": "Mo-Fr 16:15; Sa 10:30", "indoor": "yes", "note": "ON 12/24 AND 12/31, THIS BOX MAY BE COLLECTED AS EARLY AS 12 NOON.", "nsi_id": "unitedstatespostalservice-a77078", "operator": "United States Postal Service", "operator:short": "USPS", "operator:type": "public", "operator:wikidata": "Q668687", "ref": "7293700005"}, "type": "Feature"}
{"geometry": {"coordinates": [-94.381384, 35.025261], "type": "Point"}, "id": "r7hjH_yaOWNLTQM3toduEbrUJ6E=", "properties": {"@source_uri": "https://tools.usps.com/UspsToolsRestServices/rest/POLocator/findLocations", "@spider": "usps_collection_boxes", "addr:city": "HARTFORD", "addr:country": "US", "addr:postcode": "72938", "addr:state": "AR", "addr:street_address": "203 N BROADWAY ST", "amenity": "post_box", "collection_times": "Mo-Fr 11:30; Sa 10:30", "nsi_id": "unitedstatespostalservice-a77078", "operator": "United States Postal Service", "operator:short": "USPS", "operator:type": "public", "operator:wikidata": "Q668687", "ref": "7293800000"}, "type": "Feature"}
{"geometry": {"coordinates": [-94.381384, 35.025261], "type": "Point"}, "id": "4VHDvTJpl80z4SR6mRqKAguGUb0=", "properties": {"@source_uri": "https://tools.usps.com/UspsToolsRestServices/rest/POLocator/findLocations", "@spider": "usps_collection_boxes", "addr:city": "HARTFORD", "addr:country": "US", "addr:postcode": "72938", "addr:state": "AR", "addr:street_address": "203 N BROADWAY ST", "amenity": "post_box", "collection_times": "Mo-Fr 11:30; Sa 10:30", "indoor": "yes", "nsi_id": "unitedstatespostalservice-a77078", "operator": "United States Postal Service", "operator:short": "USPS", "operator:type": "public", "operator:wikidata": "Q668687", "ref": "7293800001"}, "type": "Feature"}
{"geometry": {"coordinates": [-94.381384492, 35.025255367], "type": "Point"}, "id": "C2JHVuj1JWmD_DF7eyBlBnVGR0w=", "properties": {"@source_uri": "https://tools.usps.com/UspsToolsRestServices/rest/POLocator/findLocations", "@spider": "usps_collection_boxes", "addr:city": "HARTFORD", "addr:country": "US", "addr:postcode": "72938", "addr:state": "AR", "addr:street_address": "203 N BROADWAY ST", "amenity": "post_box", "collection_times": "Mo-Fr 12:00; Sa 10:30", "indoor": "yes", "nsi_id": "unitedstatespostalservice-a77078", "operator": "United States Postal Service", "operator:short": "USPS", "operator:type": "public", "operator:wikidata": "Q668687", "ref": "7293800003"}, "type": "Feature"}
{"geometry": {"coordinates": [-94.263407, 35.083252], "type": "Point"}, "id": "pn8mqdzQ0SB1Z0NbCLJezhDtyQ8=", "properties": {"@source_uri": "https://tools.usps.com/UspsToolsRestServices/rest/POLocator/findLocations", "@spider": "usps_collection_boxes", "addr:city": "HUNTINGTON", "addr:country": "US", "addr:postcode": "72940", "addr:state": "AR", "addr:street_address": "101 HIGHWAY 71 SW", "amenity": "post_box", "collection_times": "Mo-Fr 13:30; Sa 11:00", "note": "ON 12/24 AND 12/31, THIS BOX MAY BE COLLECTED AS EARLY AS 12 NOON.", "nsi_id": "unitedstatespostalservice-a77078", "operator": "United States Postal Service", "operator:short": "USPS", "operator:type": "public", "operator:wikidata": "Q668687", "ref": "7294000001"}, "type": "Feature"}
{"geometry": {"coordinates": [-94.263407, 35.083252], "type": "Point"}, "id": "ZfUcHBRJLqaXDGlveHl3HWROYCo=", "properties": {"@source_uri": "https://tools.usps.com/UspsToolsRestServices/rest/POLocator/findLocations", "@spider": "usps_collection_boxes", "addr:city": "HUNTINGTON", "addr:country": "US", "addr:postcode": "72940", "addr:state": "AR", "addr:street_address": "101 HIGHWAY 71 SW", "amenity": "post_box", "collection_times": "Mo-Fr 13:30; Sa 11:00", "indoor": "yes", "note": "ON 12/24 AND 12/31, THIS BOX MAY BE COLLECTED AS EARLY AS 12 NOON.", "nsi_id": "unitedstatespostalservice-a77078", "operator": "United States Postal Service", "operator:short": "USPS", "operator:type": "public", "operator:wikidata": "Q668687", "ref": "7294000002"}, "type": "Feature"}
{"geometry": {"coordinates": [-94.26343408, 35.082558283], "type": "Point"}, "id": "_tQwQiF9DuVsIUxvDqLLiTZ0WAQ=", "properties": {"@source_uri": "https://tools.usps.com/UspsToolsRestServices/rest/POLocator/findLocations", "@spider": "usps_collection_boxes", "addr:city": "HUNTINGTON", "addr:country": "US", "addr:postcode": "72940", "addr:state": "AR", "addr:street_address": "101 HIGHWAY 71 SW", "amenity": "post_box", "collection_times": "Mo-Fr 14:00; Sa 11:00", "indoor": "yes", "note": "ON 12/24 AND 12/31, THIS BOX MAY BE COLLECTED AS EARLY AS 12 NOON.", "nsi_id": "unitedstatespostalservice-a77078", "operator": "United States Postal Service", "operator:short": "USPS", "operator:type": "public", "operator:wikidata": "Q668687", "ref": "7294000005"}, "type": "Feature"}
{"geometry": {"coordinates": [-94.17631, 35.336288], "type": "Point"}, "id": "8gPL3z-GdJGSIXiCMEdP85qQOTo=", "properties": {"@source_uri": "https://tools.usps.com/UspsToolsRestServices/rest/POLocator/findLocations", "@spider": "usps_collection_boxes", "addr:city": "LAVACA", "addr:country": "US", "addr:postcode": "72941", "addr:state": "AR", "addr:street_address": "504 W MAIN ST", "amenity": "post_box", "collection_times": "Mo-Fr 16:45; Sa 10:45", "note": "ON 12/24 AND 12/31, THIS BOX MAY BE COLLECTED AS EARLY AS 12 NOON.", "nsi_id": "unitedstatespostalservice-a77078", "operator": "United States Postal Service", "operator:short": "USPS", "operator:type": "public", "operator:wikidata": "Q668687", "ref": "7294100001"}, "type": "Feature"}
{"geometry": {"coordinates": [-94.17631, 35.336288], "type": "Point"}, "id": "DFEKbN1RGWBznRAg_-0_OKbPTYM=", "properties": {"@source_uri": "https://tools.usps.com/UspsToolsRestServices/rest/POLocator/findLocations", "@spider": "usps_collection_boxes", "addr:city": "LAVACA", "addr:country": "US", "addr:postcode": "72941", "addr:state": "AR", "addr:street_address": "504 W MAIN ST", "amenity": "post_box", "collection_times": "Mo-Fr 16:45; Sa 10:45", "indoor": "yes", "note": "ON 12/24 AND 12/31, THIS BOX MAY BE COLLECTED AS EARLY AS 12 NOON.", "nsi_id": "unitedstatespostalservice-a77078", "operator": "United States Postal Service", "operator:short": "USPS", "operator:type": "public", "operator:wikidata": "Q668687", "ref": "7294100002"}, "type": "Feature"}
{"geometry": {"coordinates": [-94.17631, 35.336288], "type": "Point"}, "id": "uV0VQWe5WvqNPjlauCapd_8uk4A=", "properties": {"@source_uri": "https://tools.usps.com/UspsToolsRestServices/rest/POLocator/findLocations", "@spider": "usps_collection_boxes", "addr:city": "LAVACA", "addr:country": "US", "addr:postcode": "72941", "addr:state": "AR", "addr:street_address": "504 W MAIN ST", "amenity": "post_box", "collection_times": "Mo-Fr 16:45; Sa 10:45", "indoor": "yes", "note": "ON 12/24 AND 12/31, THIS BOX MAY BE COLLECTED AS EARLY AS 12 NOON.", "nsi_id": "unitedstatespostalservice-a77078", "operator": "United States Postal Service", "operator:short": "USPS", "operator:type": "public", "operator:wikidata": "Q668687", "ref": "7294100003"}, "type": "Feature"}
{"geometry": {"coordinates": [-94.176310249, 35.336286468], "type": "Point"}, "id": "ZaoQ0SpoWOQZLY6GhRPK9GmV9zI=", "properties": {"@source_uri": "https://tools.usps.com/UspsToolsRestServices/rest/POLocator/findLocations", "@spider": "usps_collection_boxes", "addr:city": "LAVACA", "addr:country": "US", "addr:postcode": "72941", "addr:state": "AR", "addr:street_address": "504 W MAIN ST", "amenity": "post_box", "collection_times": "Mo-Fr 16:30; Sa 10:45", "indoor": "yes", "note": "ON 12/24 AND 12/31, THIS BOX MAY BE COLLECTED AS EARLY AS 12 NOON.", "nsi_id": "unitedstatespostalservice-a77078", "operator": "United States Postal Service", "operator:short": "USPS", "operator:type": "public", "operator:wikidata": "Q668687", "ref": "7294100004"}, "type": "Feature"}
{"geometry": {"coordinates": [-93.80782, 35.15317], "type": "Point"}, "id": "WTdv6k85lA223tosI0906yMorB4=", "properties": {"@source_uri": "https://tools.usps.com/UspsToolsRestServices/rest/POLocator/findLocations", "@spider": "usps_collection_boxes", "addr:city": "MAGAZINE", "addr:country": "US", "addr:postcode": "72943", "addr:state": "AR", "addr:street_address": "60 N STATE HIGHWAY 109", "amenity": "post_box", "collection_times": "Mo-Fr 14:45; Sa 11:00", "note": "ON 12/24 AND 12/31, THIS BOX MAY BE COLLECTED AS EARLY AS 12 NOON.", "nsi_id": "unitedstatespostalservice-a77078", "operator": "United States Postal Service", "operator:short": "USPS", "operator:type": "public", "operator:wikidata": "Q668687", "ref": "7294300001"}, "type": "Feature"}
{"geometry": {"coordinates": [-93.807168, 35.15077], "type": "Point"}, "id": "Vkc6-yhLxje5euLkG64f_ajZN20=", "properties": {"@source_uri": "https://tools.usps.com/UspsToolsRestServices/rest/POLocator/findLocations", "@spider": "usps_collection_boxes", "addr:city": "MAGAZINE", "addr:country": "US", "addr:postcode": "72943", "addr:state": "AR", "addr:street_address": "60 N STATE HIGHWAY 109", "amenity": "post_box", "collection_times": "Mo-Fr 14:45; Sa 11:00", "indoor": "yes", "note": "ON 12/24 AND 12/31, THIS BOX MAY BE COLLECTED AS EARLY AS 12 NOON.", "nsi_id": "unitedstatespostalservice-a77078", "operator": "United States Postal Service", "operator:short": "USPS", "operator:type": "public", "operator:wikidata": "Q668687", "ref": "7294300002"}, "type": "Feature"}
{"geometry": {"coordinates": [-93.807166424, 35.150768801], "type": "Point"}, "id": "sLZ6PiF_LC4AcnPuFehmTRZzffE=", "properties": {"@source_uri": "https://tools.usps.com/UspsToolsRestServices/rest/POLocator/findLocations", "@spider": "usps_collection_boxes", "addr:city": "MAGAZINE", "addr:country": "US", "addr:postcode": "72943", "addr:state": "AR", "addr:street_address": "60 N STATE HIGHWAY 109", "amenity": "post_box", "collection_times": "Mo-Fr 14:45; Sa 11:00", "indoor": "yes", "note": "ON 12/24 AND 12/31, THIS BOX MAY BE COLLECTED AS EARLY AS 12 NOON.", "nsi_id": "unitedstatespostalservice-a77078", "operator": "United States Postal Service", "operator:short": "USPS", "operator:type": "public", "operator:wikidata": "Q668687", "ref": "7294300003"}, "type": "Feature"}
{"geometry": {"coordinates": [-94.248592, 35.059657], "type": "Point"}, "id": "AxdKMjJLfscHBUYvdUfDNhbVa-M=", "properties": {"@source_uri": "https://tools.usps.com/UspsToolsRestServices/rest/POLocator/findLocations", "@spider": "usps_collection_boxes", "addr:city": "MANSFIELD", "addr:country": "US", "addr:postcode": "72944", "addr:state": "AR", "addr:street_address": "310 E HOWARD ST", "amenity": "post_box", "collection_times": "Mo-Fr 16:00; Sa 10:30", "note": "ON 12/24 AND 12/31, THIS BOX MAY BE COLLECTED AS EARLY AS 12 NOON.", "nsi_id": "unitedstatespostalservice-a77078", "operator": "United States Postal Service", "operator:short": "USPS", "operator:type": "public", "operator:wikidata": "Q668687", "ref": "7294400001"}, "type": "Feature"}
{"geometry": {"coordinates": [-94.248592, 35.059657], "type": "Point"}, "id": "pwrG4dC3Osar_1m60mvFmqQJYeU=", "properties": {"@source_uri": "https://tools.usps.com/UspsToolsRestServices/rest/POLocator/findLocations", "@spider": "usps_collection_boxes", "addr:city": "MANSFIELD", "addr:country": "US", "addr:postcode": "72944", "addr:state": "AR", "addr:street_address": "310 E HOWARD ST", "amenity": "post_box", "collection_times": "Mo-Fr 16:00; Sa 10:30", "indoor": "yes", "note": "ON 12/24 AND 12/31, THIS BOX MAY BE COLLECTED AS EARLY AS 12 NOON.", "nsi_id": "unitedstatespostalservice-a77078", "operator": "United States Postal Service", "operator:short": "USPS", "operator:type": "public", "operator:wikidata": "Q668687", "ref": "7294400002"}, "type": "Feature"}
{"geometry": {"coordinates": [-94.248592, 35.059657], "type": "Point"}, "id": "-DCI_leimNEAZc1TWYMw9IrVS4Q=", "properties": {"@source_uri": "https://tools.usps.com/UspsToolsRestServices/rest/POLocator/findLocations", "@spider": "usps_collection_boxes", "addr:city": "MANSFIELD", "addr:country": "US", "addr:postcode": "72944", "addr:state": "AR", "addr:street_address": "310 E HOWARD ST", "amenity": "post_box", "collection_times": "Mo-Fr 16:00; Sa 10:30", "indoor": "yes", "note": "ON 12/24 AND 12/31, THIS BOX MAY BE COLLECTED AS EARLY AS 12 NOON.", "nsi_id": "unitedstatespostalservice-a77078", "operator": "United States Postal Service", "operator:short": "USPS", "operator:type": "public", "operator:wikidata": "Q668687", "ref": "7294400003"}, "type": "Feature"}
{"geometry": {"coordinates": [-94.248593329, 35.059674519], "type": "Point"}, "id": "YXOvlxmQXh0AB3zo1TcG1shyOsE=", "properties": {"@source_uri": "https://tools.usps.com/UspsToolsRestServices/rest/POLocator/findLocations", "@spider": "usps_collection_boxes", "addr:city": "MANSFIELD", "addr:country": "US", "addr:postcode": "72944", "addr:state": "AR", "addr:street_address": "310 E HOWARD ST", "amenity": "post_box", "collection_times": "Mo-Fr 16:00; Sa 10:30", "indoor": "yes", "note": "ON 12/24 AND 12/31, THIS BOX MAY BE COLLECTED AS EARLY AS 12 NOON.", "nsi_id": "unitedstatespostalservice-a77078", "operator": "United States Postal Service", "operator:short": "USPS", "operator:type": "public", "operator:wikidata": "Q668687", "ref": "7294400004"}, "type": "Feature"}
{"geometry": {"coordinates": [-94.35479, 35.093286], "type": "Point"}, "id": "GAdzA7Rq61N_vYgXOmLVS0rp9hU=", "properties": {"@source_uri": "https://tools.usps.com/UspsToolsRestServices/rest/POLocator/findLocations", "@spider": "usps_collection_boxes", "addr:city": "MIDLAND", "addr:country": "US", "addr:postcode": "72945", "addr:state": "AR", "addr:street_address": "403 N 3RD ST", "amenity": "post_box", "collection_times": "Mo-Fr 12:00; Sa 09:20", "indoor": "yes", "nsi_id": "unitedstatespostalservice-a77078", "operator": "United States Postal Service", "operator:short": "USPS", "operator:type": "public", "operator:wikidata": "Q668687", "ref": "7294500002"}, "type": "Feature"}
{"geometry": {"coordinates": [-94.35476, 35.093275], "type": "Point"}, "id": "ADbWk1dTBs13WXdcIJW_PSl9x0U=", "properties": {"@source_uri": "https://tools.usps.com/UspsToolsRestServices/rest/POLocator/findLocations", "@spider": "usps_collection_boxes", "addr:city": "MIDLAND", "addr:country": "US", "addr:postcode": "72945", "addr:state": "AR", "addr:street_address": "403 N 3RD ST", "amenity": "post_box", "collection_times": "Mo-Fr 12:00; Sa 09:20", "indoor": "yes", "nsi_id": "unitedstatespostalservice-a77078", "operator": "United States Postal Service", "operator:short": "USPS", "operator:type": "public", "operator:wikidata": "Q668687", "ref": "7294500003"}, "type": "Feature"}
{"geometry": {"coordinates": [-94.354815001, 35.093301392], "type": "Point"}, "id": "W0SqdncKGVQ61WjAnV6alrGj1mw=", "properties": {"@source_uri": "https://tools.usps.com/UspsToolsRestServices/rest/POLocator/findLocations", "@spider": "usps_collection_boxes", "addr:city": "MIDLAND", "addr:country": "US", "addr:postcode": "72945", "addr:state": "AR", "addr:street_address": "403 N 3RD ST", "amenity": "post_box", "collection_times": "Mo-Fr 12:00; Sa 09:30", "indoor": "yes", "nsi_id": "unitedstatespostalservice-a77078", "operator": "United States Postal Service", "operator:short": "USPS", "operator:type": "public", "operator:wikidata": "Q668687", "ref": "7294500004"}, "type": "Feature"}
{"geometry": {"coordinates": [-94.169122, 35.633054], "type": "Point"}, "id": "ME8jM0-4dwpU83ZI7GWV-TcsD7A=", "properties": {"@source_uri": "https://tools.usps.com/UspsToolsRestServices/rest/POLocator/findLocations", "@spider": "usps_collection_boxes", "addr:city": "MOUNTAINBURG", "addr:country": "US", "addr:postcode": "72946", "addr:state": "AR", "addr:street_address": "6 HICKORY ST", "amenity": "post_box", "collection_times": "Mo-Fr 16:30; Sa 10:30", "note": "ON 12/24 AND 12/31, THIS BOX MAY BE COLLECTED AS EARLY AS 12 NOON.", "nsi_id": "unitedstatespostalservice-a77078", "operator": "United States Postal Service", "operator:short": "USPS", "operator:type": "public", "operator:wikidata": "Q668687", "ref": "7294600001"}, "type": "Feature"}
{"geometry": {"coordinates": [-94.169122, 35.633054], "type": "Point"}, "id": "pWzL9dlvBJVfn1RExv_1l1Cu8b8=", "properties": {"@source_uri": "https://tools.usps.com/UspsToolsRestServices/rest/POLocator/findLocations", "@spider": "usps_collection_boxes", "addr:city": "MOUNTAINBURG", "addr:country": "US", "addr:postcode": "72946", "addr:state": "AR", "addr:street_address": "6 HICKORY ST", "amenity": "post_box", "collection_times": "Mo-Fr 16:30; Sa 10:30", "indoor": "yes", "note": "ON 12/24 AND 12/31, THIS BOX MAY BE COLLECTED AS EARLY AS 12 NOON.", "nsi_id": "unitedstatespostalservice-a77078", "operator": "United States Postal Service", "operator:short": "USPS", "operator:type": "public", "operator:wikidata": "Q668687", "ref": "7294600002"}, "type": "Feature"}
{"geometry": {"coordinates": [-94.169124513, 35.633051132], "type": "Point"}, "id": "AOauh_bnywEm6D8rtcxRkJYiyUc=", "properties": {"@source_uri": "https://tools.usps.com/UspsToolsRestServices/rest/POLocator/findLocations", "@spider": "usps_collection_boxes", "addr:city": "MOUNTAINBURG", "addr:country": "US", "addr:postcode": "72946", "addr:state": "AR", "addr:street_address": "6 HICKORY ST", "amenity": "post_box", "collection_times": "Mo-Fr 16:30; Sa 10:30", "indoor": "yes", "note": "ON 12/24 AND 12/31, THIS BOX MAY BE COLLECTED AS EARLY AS 12 NOON.", "nsi_id": "unitedstatespostalservice-a77078", "operator": "United States Postal Service", "operator:short": "USPS", "operator:type": "public", "operator:wikidata": "Q668687", "ref": "7294600005"}, "type": "Feature"}
{"geometry": {"coordinates": [-94.051995, 35.497771], "type": "Point"}, "id": "qfQS0H9l842cabtNm2DNvWMi45o=", "properties": {"@source_uri": "https://tools.usps.com/UspsToolsRestServices/rest/POLocator/findLocations", "@spider": "usps_collection_boxes", "addr:city": "MULBERRY", "addr:country": "US", "addr:postcode": "72947", "addr:state": "AR", "addr:street_address": "221 N MAIN ST", "amenity": "post_box", "collection_times": "Mo-Fr 16:15; Sa 11:00", "note": "ON 12/24 AND 12/31, THIS BOX MAY BE COLLECTED AS EARLY AS 12 NOON.", "nsi_id": "unitedstatespostalservice-a77078", "operator": "United States Postal Service", "operator:short": "USPS", "operator:type": "public", "operator:wikidata": "Q668687", "ref": "7294700001"}, "type": "Feature"}
{"geometry": {"coordinates": [-94.051995, 35.497771], "type": "Point"}, "id": "poy3CNUbUtVrkeTLTZ0zwOpOz0E=", "properties": {"@source_uri": "https://tools.usps.com/UspsToolsRestServices/rest/POLocator/findLocations", "@spider": "usps_collection_boxes", "addr:city": "MULBERRY", "addr:country": "US", "addr:postcode": "72947", "addr:state": "AR", "addr:street_address": "221 N MAIN ST", "amenity": "post_box", "collection_times": "Mo-Fr 16:15; Sa 11:00", "indoor": "yes", "note": "ON 12/24 AND 12/31, THIS BOX MAY BE COLLECTED AS EARLY AS 12 NOON.", "nsi_id": "unitedstatespostalservice-a77078", "operator": "United States Postal Service", "operator:short": "USPS", "operator:type": "public", "operator:wikidata": "Q668687", "ref": "7294700002"}, "type": "Feature"}
{"geometry": {"coordinates": [-94.051995, 35.497771], "type": "Point"}, "id": "8mSyQkkgSd9NHi2yaNsbHS_YuqM=", "properties": {"@source_uri": "https://tools.usps.com/UspsToolsRestServices/rest/POLocator/findLocations", "@spider": "usps_collection_boxes", "addr:city": "MULBERRY", "addr:country": "US", "addr:postcode": "72947", "addr:state": "AR", "addr:street_address": "221 N MAIN ST", "amenity": "post_box", "collection_times": "Mo-Fr 16:15; Sa 11:00", "indoor": "yes", "note": "ON 12/24 AND 12/31, THIS BOX MAY BE COLLECTED AS EARLY AS 12 NOON.", "nsi_id": "unitedstatespostalservice-a77078", "operator": "United States Postal Service", "operator:short": "USPS", "operator:type": "public", "operator:wikidata": "Q668687", "ref": "7294700003"}, "type": "Feature"}
{"geometry": {"coordinates": [-94.051996751, 35.497718864], "type": "Point"}, "id": "93YReXEJrfo84dKsjorNIxdFhko=", "properties": {"@source_uri": "https://tools.usps.com/UspsToolsRestServices/rest/POLocator/findLocations", "@spider": "usps_collection_boxes", "addr:city": "MULBERRY", "addr:country": "US", "addr:postcode": "72947", "addr:state": "AR", "addr:street_address": "221 N MAIN ST", "amenity": "post_box", "collection_times": "Mo-Fr 16:30; Sa 11:00", "indoor": "yes", "note": "ON 12/24 AND 12/31, THIS BOX MAY BE COLLECTED AS EARLY AS 12 NOON.", "nsi_id": "unitedstatespostalservice-a77078", "operator": "United States Postal Service", "operator:short": "USPS", "operator:type": "public", "operator:wikidata": "Q668687", "ref": "7294700005"}, "type": "Feature"}
{"geometry": {"coordinates": [-94.3944389, 35.648844], "type": "Point"}, "id": "mNxeC9_HMhCYqUPZbAWsRaFg6us=", "properties": {"@source_uri": "https://tools.usps.com/UspsToolsRestServices/rest/POLocator/findLocations", "@spider": "usps_collection_boxes", "addr:city": "NATURAL DAM", "addr:country": "US", "addr:postcode": "72948", "addr:state": "AR", "addr:street_address": "14510 N HIGHWAY 59", "amenity": "post_box", "collection_times": "Mo-Fr 14:00; Sa 12:00", "note": "ON 12/24 AND 12/31, THIS BOX MAY BE COLLECTED AS EARLY AS 12 NOON.", "nsi_id": "unitedstatespostalservice-a77078", "operator": "United States Postal Service", "operator:short": "USPS", "operator:type": "public", "operator:wikidata": "Q668687", "ref": "7294800001"}, "type": "Feature"}
{"geometry": {"coordinates": [-94.394577, 35.648916], "type": "Point"}, "id": "-Xrm4WsmMgEWM4-w9JHWRTyVe7Y=", "properties": {"@source_uri": "https://tools.usps.com/UspsToolsRestServices/rest/POLocator/findLocations", "@spider": "usps_collection_boxes", "addr:city": "NATURAL DAM", "addr:country": "US", "addr:postcode": "72948", "addr:state": "AR", "addr:street_address": "14510 N HIGHWAY 59", "amenity": "post_box", "collection_times": "Mo-Fr 12:30; Sa 12:00", "indoor": "yes", "note": "ON 12/24 AND 12/31, THIS BOX MAY BE COLLECTED AS EARLY AS 12 NOON.", "nsi_id": "unitedstatespostalservice-a77078", "operator": "United States Postal Service", "operator:short": "USPS", "operator:type": "public", "operator:wikidata": "Q668687", "ref": "7294800002"}, "type": "Feature"}
{"geometry": {"coordinates": [-94.394577, 35.648916], "type": "Point"}, "id": "WozWHE3wZQbUReEOh5h7HQKyuXQ=", "properties": {"@source_uri": "https://tools.usps.com/UspsToolsRestServices/rest/POLocator/findLocations", "@spider": "usps_collection_boxes", "addr:city": "NATURAL DAM", "addr:country": "US", "addr:postcode": "72948", "addr:state": "AR", "addr:street_address": "14510 N HIGHWAY 59", "amenity": "post_box", "collection_times": "Mo-Fr 12:30; Sa 12:00", "indoor": "yes", "note": "ON 12/24 AND 12/31, THIS BOX MAY BE COLLECTED AS EARLY AS 12 NOON.", "nsi_id": "unitedstatespostalservice-a77078", "operator": "United States Postal Service", "operator:short": "USPS", "operator:type": "public", "operator:wikidata": "Q668687", "ref": "7294800003"}, "type": "Feature"}
{"geometry": {"coordinates": [-94.394587424, 35.648881429], "type": "Point"}, "id": "J6UHf-xmq6ZegetmrzMfsBcGVjE=", "properties": {"@source_uri": "https://tools.usps.com/UspsToolsRestServices/rest/POLocator/findLocations", "@spider": "usps_collection_boxes", "addr:city": "NATURAL DAM", "addr:country": "US", "addr:postcode": "72948", "addr:state": "AR", "addr:street_address": "14510 N HIGHWAY 59", "amenity": "post_box", "collection_times": "Mo-Fr 13:00; Sa 12:00", "indoor": "yes", "note": "ON 12/24 AND 12/31, THIS BOX MAY BE COLLECTED AS EARLY AS 12 NOON.", "nsi_id": "unitedstatespostalservice-a77078", "operator": "United States Postal Service", "operator:short": "USPS", "operator:type": "public", "operator:wikidata": "Q668687", "ref": "7294800004"}, "type": "Feature"}
{"geometry": {"coordinates": [-93.8253862354, 35.4851513217], "type": "Point"}, "id": "gP_KRHeCtY2NXmMubPV-Z4_YtAc=", "properties": {"@source_uri": "https://tools.usps.com/UspsToolsRestServices/rest/POLocator/findLocations", "@spider": "usps_collection_boxes", "addr:city": "OZARK", "addr:country": "US", "addr:postcode": "72949", "addr:state": "AR", "addr:street_address": "106 E RIVER ST", "amenity": "post_box", "collection_times": "Mo-Fr 16:15; Sa 12:00", "indoor": "yes", "note": "ON 12/24 AND 12/31, THIS BOX MAY BE COLLECTED AS EARLY AS 12 NOON.", "nsi_id": "unitedstatespostalservice-a77078", "operator": "United States Postal Service", "operator:short": "USPS", "operator:type": "public", "operator:wikidata": "Q668687", "ref": "7294900002"}, "type": "Feature"}
{"geometry": {"coordinates": [-93.8253862354, 35.4851513217], "type": "Point"}, "id": "PnU2GptNSjAxgvZkQQ2pn9iuy0o=", "properties": {"@source_uri": "https://tools.usps.com/UspsToolsRestServices/rest/POLocator/findLocations", "@spider": "usps_collection_boxes", "addr:city": "OZARK", "addr:country": "US", "addr:postcode": "72949", "addr:state": "AR", "addr:street_address": "106 E RIVER ST", "amenity": "post_box", "collection_times": "Mo-Fr 16:15; Sa 12:00", "note": "ON 12/24 AND 12/31, THIS BOX MAY BE COLLECTED AS EARLY AS 12 NOON.", "nsi_id": "unitedstatespostalservice-a77078", "operator": "United States Postal Service", "operator:short": "USPS", "operator:type": "public", "operator:wikidata": "Q668687", "ref": "7294900011"}, "type": "Feature"}
{"geometry": {"coordinates": [-93.8253862354, 35.4851513217], "type": "Point"}, "id": "fcajkbfPwlHd9uTXBcde6bgwyaQ=", "properties": {"@source_uri": "https://tools.usps.com/UspsToolsRestServices/rest/POLocator/findLocations", "@spider": "usps_collection_boxes", "addr:city": "OZARK", "addr:country": "US", "addr:postcode": "72949", "addr:state": "AR", "addr:street_address": "106 E RIVER ST", "amenity": "post_box", "collection_times": "Mo-Fr 16:15; Sa 12:00", "indoor": "yes", "note": "ON 12/24 AND 12/31, THIS BOX MAY BE COLLECTED AS EARLY AS 12 NOON.", "nsi_id": "unitedstatespostalservice-a77078", "operator": "United States Postal Service", "operator:short": "USPS", "operator:type": "public", "operator:wikidata": "Q668687", "ref": "7294900012"}, "type": "Feature"}
{"geometry": {"coordinates": [-93.8253862354, 35.4851513217], "type": "Point"}, "id": "d3zo9DdNgiq8j6V_st-qSPaQfuc=", "properties": {"@source_uri": "https://tools.usps.com/UspsToolsRestServices/rest/POLocator/findLocations", "@spider": "usps_collection_boxes", "addr:city": "OZARK", "addr:country": "US", "addr:postcode": "72949", "addr:state": "AR", "addr:street_address": "106 E RIVER ST", "amenity": "post_box", "collection_times": "Mo-Fr 16:15; Sa 12:00", "indoor": "yes", "note": "ON 12/24 AND 12/31, THIS BOX MAY BE COLLECTED AS EARLY AS 12 NOON.", "nsi_id": "unitedstatespostalservice-a77078", "operator": "United States Postal Service", "operator:short": "USPS", "operator:type": "public", "operator:wikidata": "Q668687", "ref": "7294900013"}, "type": "Feature"}
{"geometry": {"coordinates": [-93.8253862354, 35.4851513217], "type": "Point"}, "id": "u6vuVU-EVFAKo95mQ4HL64wuGg8=", "properties": {"@source_uri": "https://tools.usps.com/UspsToolsRestServices/rest/POLocator/findLocations", "@spider": "usps_collection_boxes", "addr:city": "OZARK", "addr:country": "US", "addr:postcode": "72949", "addr:state": "AR", "addr:street_address": "106 E RIVER ST", "amenity": "post_box", "collection_times": "Mo-Fr 16:15; Sa 12:00", "indoor": "yes", "note": "ON 12/24 AND 12/31, THIS BOX MAY BE COLLECTED AS EARLY AS 12 NOON.", "nsi_id": "unitedstatespostalservice-a77078", "operator": "United States Postal Service", "operator:short": "USPS", "operator:type": "public", "operator:wikidata": "Q668687", "ref": "7294900014"}, "type": "Feature"}
{"geometry": {"coordinates": [-93.825386235, 35.485151322], "type": "Point"}, "id": "vRuH7KmTlCMG2Slp8cLUqPtcdjs=", "properties": {"@source_uri": "https://tools.usps.com/UspsToolsRestServices/rest/POLocator/findLocations", "@spider": "usps_collection_boxes", "addr:city": "OZARK", "addr:country": "US", "addr:postcode": "72949", "addr:state": "AR", "addr:street_address": "106 E RIVER ST", "amenity": "post_box", "collection_times": "Mo-Fr 16:30; Sa 12:00", "indoor": "yes", "note": "ON 12/24 AND 12/31, THIS BOX MAY BE COLLECTED AS EARLY AS 12 NOON.", "nsi_id": "unitedstatespostalservice-a77078", "operator": "United States Postal Service", "operator:short": "USPS", "operator:type": "public", "operator:wikidata": "Q668687", "ref": "7294900017"}, "type": "Feature"}
{"geometry": {"coordinates": [-93.961489, 34.802554], "type": "Point"}, "id": "rLwFQ2b4TsZKgaza1vdreoeH3N0=", "properties": {"@source_uri": "https://tools.usps.com/UspsToolsRestServices/rest/POLocator/findLocations", "@spider": "usps_collection_boxes", "addr:city": "PARKS", "addr:country": "US", "addr:postcode": "72950", "addr:state": "AR", "addr:street_address": "10009 E HIGHWAY 28", "amenity": "post_box", "collection_times": "Mo-Fr 11:30; Sa 10:15", "nsi_id": "unitedstatespostalservice-a77078", "operator": "United States Postal Service", "operator:short": "USPS", "operator:type": "public", "operator:wikidata": "Q668687", "ref": "7295000001"}, "type": "Feature"}
{"geometry": {"coordinates": [-93.961489, 34.802554], "type": "Point"}, "id": "ELRUl1CW9-fsTBLda8wkM5fbEcE=", "properties": {"@source_uri": "https://tools.usps.com/UspsToolsRestServices/rest/POLocator/findLocations", "@spider": "usps_collection_boxes", "addr:city": "PARKS", "addr:country": "US", "addr:postcode": "72950", "addr:state": "AR", "addr:street_address": "10009 E HIGHWAY 28", "amenity": "post_box", "collection_times": "Mo-Fr 11:30; Sa 10:15", "indoor": "yes", "nsi_id": "unitedstatespostalservice-a77078", "operator": "United States Postal Service", "operator:short": "USPS", "operator:type": "public", "operator:wikidata": "Q668687", "ref": "7295000002"}, "type": "Feature"}
{"geometry": {"coordinates": [-93.961398022, 34.802517228], "type": "Point"}, "id": "RPUb6nR5SsvTWcwO2p-Tf2FQMlw=", "properties": {"@source_uri": "https://tools.usps.com/UspsToolsRestServices/rest/POLocator/findLocations", "@spider": "usps_collection_boxes", "addr:city": "PARKS", "addr:country": "US", "addr:postcode": "72950", "addr:state": "AR", "addr:street_address": "10009 E HIGHWAY 28", "amenity": "post_box", "collection_times": "Mo-Fr 12:00; Sa 10:15", "indoor": "yes", "nsi_id": "unitedstatespostalservice-a77078", "operator": "United States Postal Service", "operator:short": "USPS", "operator:type": "public", "operator:wikidata": "Q668687", "ref": "7295000004"}, "type": "Feature"}
{"geometry": {"coordinates": [-93.879884, 35.306395], "type": "Point"}, "id": "6dMg_scPd8xuTuftGk_UFu6fqD4=", "properties": {"@source_uri": "https://tools.usps.com/UspsToolsRestServices/rest/POLocator/findLocations", "@spider": "usps_collection_boxes", "addr:city": "RATCLIFF", "addr:country": "US", "addr:postcode": "72951", "addr:state": "AR", "addr:street_address": "9901 W STATE HIGHWAY 22", "amenity": "post_box", "collection_times": "Mo-Fr 14:15; Sa 11:40", "note": "ON 12/24 AND 12/31, THIS BOX MAY BE COLLECTED AS EARLY AS 12 NOON.", "nsi_id": "unitedstatespostalservice-a77078", "operator": "United States Postal Service", "operator:short": "USPS", "operator:type": "public", "operator:wikidata": "Q668687", "ref": "7295100001"}, "type": "Feature"}
{"geometry": {"coordinates": [-93.879884, 35.306395], "type": "Point"}, "id": "y2JUEDRVKTKkxxSDnvEDZILEjeY=", "properties": {"@source_uri": "https://tools.usps.com/UspsToolsRestServices/rest/POLocator/findLocations", "@spider": "usps_collection_boxes", "addr:city": "RATCLIFF", "addr:country": "US", "addr:postcode": "72951", "addr:state": "AR", "addr:street_address": "9901 W STATE HIGHWAY 22", "amenity": "post_box", "collection_times": "Mo-Fr 14:15; Sa 11:40", "indoor": "yes", "note": "ON 12/24 AND 12/31, THIS BOX MAY BE COLLECTED AS EARLY AS 12 NOON.", "nsi_id": "unitedstatespostalservice-a77078", "operator": "United States Postal Service", "operator:short": "USPS", "operator:type": "public", "operator:wikidata": "Q668687", "ref": "7295100002"}, "type": "Feature"}
{"geometry": {"coordinates": [-93.879884, 35.306395], "type": "Point"}, "id": "HhOHfXmyrBXKfJRD49uWpVpWHMY=", "properties": {"@source_uri": "https://tools.usps.com/UspsToolsRestServices/rest/POLocator/findLocations", "@spider": "usps_collection_boxes", "addr:city": "RATCLIFF", "addr:country": "US", "addr:postcode": "72951", "addr:state": "AR", "addr:street_address": "9901 W STATE HIGHWAY 22", "amenity": "post_box", "collection_times": "Mo-Fr 14:15; Sa 11:40", "indoor": "yes", "note": "ON 12/24 AND 12/31, THIS BOX MAY BE COLLECTED AS EARLY AS 12 NOON.", "nsi_id": "unitedstatespostalservice-a77078", "operator": "United States Postal Service", "operator:short": "USPS", "operator:type": "public", "operator:wikidata": "Q668687", "ref": "7295100003"}, "type": "Feature"}
{"geometry": {"coordinates": [-93.879886383, 35.306391617], "type": "Point"}, "id": "PZbKRPOIsxfmjW9od3MlwtlJTrw=", "properties": {"@source_uri": "https://tools.usps.com/UspsToolsRestServices/rest/POLocator/findLocations", "@spider": "usps_collection_boxes", "addr:city": "RATCLIFF", "addr:country": "US", "addr:postcode": "72951", "addr:state": "AR", "addr:street_address": "9901 W STATE HIGHWAY 22", "amenity": "post_box", "collection_times": "Mo-Fr 14:30; Sa 12:00", "indoor": "yes", "note": "ON 12/24 AND 12/31, THIS BOX MAY BE COLLECTED AS EARLY AS 12 NOON.", "nsi_id": "unitedstatespostalservice-a77078", "operator": "United States Postal Service", "operator:short": "USPS", "operator:type": "public", "operator:wikidata": "Q668687", "ref": "7295100006"}, "type": "Feature"}
{"geometry": {"coordinates": [-94.272278, 35.527661], "type": "Point"}, "id": "NOyMafieXxNpUUv4fkAPaMT_dFs=", "properties": {"@source_uri": "https://tools.usps.com/UspsToolsRestServices/rest/POLocator/findLocations", "@spider": "usps_collection_boxes", "addr:city": "RUDY", "addr:country": "US", "addr:postcode": "72952", "addr:state": "AR", "addr:street_address": "224 N RAILROAD AVE", "amenity": "post_box", "collection_times": "Mo-Fr 11:00; Sa 10:45", "nsi_id": "unitedstatespostalservice-a77078", "operator": "United States Postal Service", "operator:short": "USPS", "operator:type": "public", "operator:wikidata": "Q668687", "ref": "7295200001"}, "type": "Feature"}
{"geometry": {"coordinates": [-94.272278, 35.527661], "type": "Point"}, "id": "zsyA5yxHP7UR-PWSFjYfMU7qd58=", "properties": {"@source_uri": "https://tools.usps.com/UspsToolsRestServices/rest/POLocator/findLocations", "@spider": "usps_collection_boxes", "addr:city": "RUDY", "addr:country": "US", "addr:postcode": "72952", "addr:state": "AR", "addr:street_address": "224 N RAILROAD AVE", "amenity": "post_box", "collection_times": "Mo-Fr 11:00; Sa 10:45", "indoor": "yes", "nsi_id": "unitedstatespostalservice-a77078", "operator": "United States Postal Service", "operator:short": "USPS", "operator:type": "public", "operator:wikidata": "Q668687", "ref": "7295200002"}, "type": "Feature"}
{"geometry": {"coordinates": [-94.272278, 35.527661], "type": "Point"}, "id": "pFHKhR7x60730qTOryMhmC8-PVk=", "properties": {"@source_uri": "https://tools.usps.com/UspsToolsRestServices/rest/POLocator/findLocations", "@spider": "usps_collection_boxes", "addr:city": "RUDY", "addr:country": "US", "addr:postcode": "72952", "addr:state": "AR", "addr:street_address": "224 N RAILROAD AVE", "amenity": "post_box", "collection_times": "Mo-Fr 11:00; Sa 10:45", "indoor": "yes", "nsi_id": "unitedstatespostalservice-a77078", "operator": "United States Postal Service", "operator:short": "USPS", "operator:type": "public", "operator:wikidata": "Q668687", "ref": "7295200003"}, "type": "Feature"}
{"geometry": {"coordinates": [-94.2722785075, 35.5276591388], "type": "Point"}, "id": "EYNvofdh70rt5fBiAr7kHtZvE74=", "properties": {"@source_uri": "https://tools.usps.com/UspsToolsRestServices/rest/POLocator/findLocations", "@spider": "usps_collection_boxes", "addr:city": "RUDY", "addr:country": "US", "addr:postcode": "72952", "addr:state": "AR", "addr:street_address": "224 N RAILROAD AVE", "amenity": "post_box", "collection_times": "Mo-Fr 11:30; Sa 11:00", "indoor": "yes", "nsi_id": "unitedstatespostalservice-a77078", "operator": "United States Postal Service", "operator:short": "USPS", "operator:type": "public", "operator:wikidata": "Q668687", "ref": "7295200004"}, "type": "Feature"}
{"geometry": {"coordinates": [-94.4442912165, 35.583727204], "type": "Point"}, "id": "ABmX84AT6gBO5D7j-B56FWjLrVc=", "properties": {"@source_uri": "https://tools.usps.com/UspsToolsRestServices/rest/POLocator/findLocations", "@spider": "usps_collection_boxes", "addr:city": "UNIONTOWN", "addr:country": "US", "addr:postcode": "72955", "addr:state": "AR", "addr:street_address": "9929 UNIONTOWN HWY", "amenity": "post_box", "collection_times": "Mo-Fr 13:05; Sa 10:45", "note": "ON 12/24 AND 12/31, THIS BOX MAY BE COLLECTED AS EARLY AS 12 NOON.", "nsi_id": "unitedstatespostalservice-a77078", "operator": "United States Postal Service", "operator:short": "USPS", "operator:type": "public", "operator:wikidata": "Q668687", "ref": "7295500001"}, "type": "Feature"}
{"geometry": {"coordinates": [-94.444111, 35.583897], "type": "Point"}, "id": "He1tC07UOOGjUx5LhDUTGGMrsck=", "properties": {"@source_uri": "https://tools.usps.com/UspsToolsRestServices/rest/POLocator/findLocations", "@spider": "usps_collection_boxes", "addr:city": "UNIONTOWN", "addr:country": "US", "addr:postcode": "72955", "addr:state": "AR", "addr:street_address": "9929 UNIONTOWN HWY", "amenity": "post_box", "collection_times": "Mo-Fr 13:05; Sa 10:45", "indoor": "yes", "note": "ON 12/24 AND 12/31, THIS BOX MAY BE COLLECTED AS EARLY AS 12 NOON.", "nsi_id": "unitedstatespostalservice-a77078", "operator": "United States Postal Service", "operator:short": "USPS", "operator:type": "public", "operator:wikidata": "Q668687", "ref": "7295500002"}, "type": "Feature"}
{"geometry": {"coordinates": [-94.444111, 35.583897], "type": "Point"}, "id": "5RQdb78EbJqxB75osokIqiHupbo=", "properties": {"@source_uri": "https://tools.usps.com/UspsToolsRestServices/rest/POLocator/findLocations", "@spider": "usps_collection_boxes", "addr:city": "UNIONTOWN", "addr:country": "US", "addr:postcode": "72955", "addr:state": "AR", "addr:street_address": "9929 UNIONTOWN HWY", "amenity": "post_box", "collection_times": "Mo-Fr 13:05; Sa 10:45", "indoor": "yes", "note": "ON 12/24 AND 12/31, THIS BOX MAY BE COLLECTED AS EARLY AS 12 NOON.", "nsi_id": "unitedstatespostalservice-a77078", "operator": "United States Postal Service", "operator:short": "USPS", "operator:type": "public", "operator:wikidata": "Q668687", "ref": "7295500003"}, "type": "Feature"}
{"geometry": {"coordinates": [-94.444110931, 35.583893142], "type": "Point"}, "id": "K3ti1qB1d_1d8297ta3leB4FmAA=", "properties": {"@source_uri": "https://tools.usps.com/UspsToolsRestServices/rest/POLocator/findLocations", "@spider": "usps_collection_boxes", "addr:city": "UNIONTOWN", "addr:country": "US", "addr:postcode": "72955", "addr:state": "AR", "addr:street_address": "9929 UNIONTOWN HWY", "amenity": "post_box", "collection_times": "Mo-Fr 13:15; Sa 10:45", "indoor": "yes", "note": "ON 12/24 AND 12/31, THIS BOX MAY BE COLLECTED AS EARLY AS 12 NOON.", "nsi_id": "unitedstatespostalservice-a77078", "operator": "United States Postal Service", "operator:short": "USPS", "operator:type": "public", "operator:wikidata": "Q668687", "ref": "7295500004"}, "type": "Feature"}
{"geometry": {"coordinates": [-94.350245, 35.43682], "type": "Point"}, "id": "O432xSNet8kMkP-r6Sj2Ghe4vUw=", "properties": {"@source_uri": "https://tools.usps.com/UspsToolsRestServices/rest/POLocator/findLocations", "@spider": "usps_collection_boxes", "addr:city": "VAN BUREN", "addr:country": "US", "addr:postcode": "72956", "addr:state": "AR", "addr:street_address": "22 S 7TH ST", "amenity": "post_box", "collection_times": "Mo-Fr 16:45; Sa 14:00", "note": "ON 12/24 AND 12/31, THIS BOX MAY BE COLLECTED AS EARLY AS 12 NOON.", "nsi_id": "unitedstatespostalservice-a77078", "operator": "United States Postal Service", "operator:short": "USPS", "operator:type": "public", "operator:wikidata": "Q668687", "ref": "7295600001"}, "type": "Feature"}
{"geometry": {"coordinates": [-94.3543715, 35.459416], "type": "Point"}, "id": "jCZ_rJjho0SdyJPn934BnzNzo2M=", "properties": {"@source_uri": "https://tools.usps.com/UspsToolsRestServices/rest/POLocator/findLocations", "@spider": "usps_collection_boxes", "addr:city": "VAN BUREN", "addr:country": "US", "addr:postcode": "72956", "addr:state": "AR", "addr:street_address": "601 E POINTER TRL", "amenity": "post_box", "collection_times": "Mo-Sa 09:30", "nsi_id": "unitedstatespostalservice-a77078", "operator": "United States Postal Service", "operator:short": "USPS", "operator:type": "public", "operator:wikidata": "Q668687", "ref": "7295600003"}, "type": "Feature"}
{"geometry": {"coordinates": [-94.348719, 35.436715], "type": "Point"}, "id": "_QlmTStqIicVTTq65Ry70mbHEvY=", "properties": {"@source_uri": "https://tools.usps.com/UspsToolsRestServices/rest/POLocator/findLocations", "@spider": "usps_collection_boxes", "addr:city": "VAN BUREN", "addr:country": "US", "addr:postcode": "72956", "addr:state": "AR", "addr:street_address": "1000 MAIN ST", "amenity": "post_box", "collection_times": "Mo-Sa 09:00", "nsi_id": "unitedstatespostalservice-a77078", "operator": "United States Postal Service", "operator:short": "USPS", "operator:type": "public", "operator:wikidata": "Q668687", "ref": "7295600004"}, "type": "Feature"}
{"geometry": {"coordinates": [-94.3581074, 35.459115], "type": "Point"}, "id": "CSu2WqY9d_9va9EUUvLJLdukJP0=", "properties": {"@source_uri": "https://tools.usps.com/UspsToolsRestServices/rest/POLocator/findLocations", "@spider": "usps_collection_boxes", "addr:city": "VAN BUREN", "addr:country": "US", "addr:postcode": "72956", "addr:state": "AR", "addr:street_address": "102 POINTER TRL W", "amenity": "post_box", "collection_times": "Mo-Sa 11:00", "nsi_id": "unitedstatespostalservice-a77078", "operator": "United States Postal Service", "operator:short": "USPS", "operator:type": "public", "operator:wikidata": "Q668687", "ref": "7295600008"}, "type": "Feature"}
{"geometry": {"coordinates": [-94.3258984, 35.442457], "type": "Point"}, "id": "6lahjSy4HUYt2Z7P0yy1UG9h_mY=", "properties": {"@source_uri": "https://tools.usps.com/UspsToolsRestServices/rest/POLocator/findLocations", "@spider": "usps_collection_boxes", "addr:city": "VAN BUREN", "addr:country": "US", "addr:postcode": "72956", "addr:state": "AR", "addr:street_address": "120 CLOVERLEAF PLZ", "amenity": "post_box", "collection_times": "Mo-Sa 10:00", "nsi_id": "unitedstatespostalservice-a77078", "operator": "United States Postal Service", "operator:short": "USPS", "operator:type": "public", "operator:wikidata": "Q668687", "ref": "7295600009"}, "type": "Feature"}
{"geometry": {"coordinates": [-94.339474, 35.458262], "type": "Point"}, "id": "dSw71ZcHwl-1ef54TkJEzIHmtME=", "properties": {"@source_uri": "https://tools.usps.com/UspsToolsRestServices/rest/POLocator/findLocations", "@spider": "usps_collection_boxes", "addr:city": "VAN BUREN", "addr:country": "US", "addr:postcode": "72956", "addr:state": "AR", "addr:street_address": "711 FAYETTEVILLE RD", "amenity": "post_box", "collection_times": "Mo-Sa 10:00", "nsi_id": "unitedstatespostalservice-a77078", "operator": "United States Postal Service", "operator:short": "USPS", "operator:type": "public", "operator:wikidata": "Q668687", "ref": "7295600010"}, "type": "Feature"}
{"geometry": {"coordinates": [-94.3360863, 35.423278], "type": "Point"}, "id": "ijKtHIqCU1QhrVHk0EtLpgR_neg=", "properties": {"@source_uri": "https://tools.usps.com/UspsToolsRestServices/rest/POLocator/findLocations", "@spider": "usps_collection_boxes", "addr:city": "VAN BUREN", "addr:country": "US", "addr:postcode": "72956", "addr:state": "AR", "addr:street_address": "2205 INDUSTRIAL PARK RD", "amenity": "post_box", "collection_times": "Mo-Sa 10:00", "nsi_id": "unitedstatespostalservice-a77078", "operator": "United States Postal Service", "operator:short": "USPS", "operator:type": "public", "operator:wikidata": "Q668687", "ref": "7295600015"}, "type": "Feature"}
{"geometry": {"coordinates": [-94.3266461, 35.444285], "type": "Point"}, "id": "XQ-RtCB2YJqSw9dw8byTt8VsN50=", "properties": {"@source_uri": "https://tools.usps.com/UspsToolsRestServices/rest/POLocator/findLocations", "@spider": "usps_collection_boxes", "addr:city": "VAN BUREN", "addr:country": "US", "addr:postcode": "72956", "addr:state": "AR", "addr:street_address": "2925 ALMA HWY", "amenity": "post_box", "collection_times": "Mo-Sa 10:00", "nsi_id": "unitedstatespostalservice-a77078", "operator": "United States Postal Service", "operator:short": "USPS", "operator:type": "public", "operator:wikidata": "Q668687", "ref": "7295600017"}, "type": "Feature"}
{"geometry": {"coordinates": [-94.353171, 35.435979], "type": "Point"}, "id": "TRjHAagzoF2SSd2YXGNK2nCIG0o=", "properties": {"@source_uri": "https://tools.usps.com/UspsToolsRestServices/rest/POLocator/findLocations", "@spider": "usps_collection_boxes", "addr:city": "VAN BUREN", "addr:country": "US", "addr:postcode": "72956", "addr:state": "AR", "addr:street_address": "22 S 7TH ST", "amenity": "post_box", "collection_times": "Mo-Fr 16:45; Sa 10:30", "indoor": "yes", "note": "ON 12/24 AND 12/31, THIS BOX MAY BE COLLECTED AS EARLY AS 12 NOON.", "nsi_id": "unitedstatespostalservice-a77078", "operator": "United States Postal Service", "operator:short": "USPS", "operator:type": "public", "operator:wikidata": "Q668687", "ref": "7295600020"}, "type": "Feature"}
{"geometry": {"coordinates": [-94.3222359, 35.444001], "type": "Point"}, "id": "yzqdIEybgSpkBkS4sGTFitDNHbU=", "properties": {"@source_uri": "https://tools.usps.com/UspsToolsRestServices/rest/POLocator/findLocations", "@spider": "usps_collection_boxes", "addr:city": "VAN BUREN", "addr:country": "US", "addr:postcode": "72956", "addr:state": "AR", "addr:street_address": "715 CLOVERLEAF CIR", "amenity": "post_box", "collection_times": "Mo-Sa 10:00", "nsi_id": "unitedstatespostalservice-a77078", "operator": "United States Postal Service", "operator:short": "USPS", "operator:type": "public", "operator:wikidata": "Q668687", "ref": "7295600021"}, "type": "Feature"}
{"geometry": {"coordinates": [-94.353171, 35.435979], "type": "Point"}, "id": "iULDzd6W24uq6DWbGr0mu8rW7s8=", "properties": {"@source_uri": "https://tools.usps.com/UspsToolsRestServices/rest/POLocator/findLocations", "@spider": "usps_collection_boxes", "addr:city": "VAN BUREN", "addr:country": "US", "addr:postcode": "72956", "addr:state": "AR", "addr:street_address": "22 S 7TH ST", "amenity": "post_box", "collection_times": "Mo-Fr 16:45; Sa 10:30", "indoor": "yes", "note": "ON 12/24 AND 12/31, THIS BOX MAY BE COLLECTED AS EARLY AS 12 NOON.", "nsi_id": "unitedstatespostalservice-a77078", "operator": "United States Postal Service", "operator:short": "USPS", "operator:type": "public", "operator:wikidata": "Q668687", "ref": "7295600024"}, "type": "Feature"}
{"geometry": {"coordinates": [-94.356103, 35.476542], "type": "Point"}, "id": "b_o8cmdRIDGoKu91o-Tt5ETkb6Q=", "properties": {"@source_uri": "https://tools.usps.com/UspsToolsRestServices/rest/POLocator/findLocations", "@spider": "usps_collection_boxes", "addr:city": "VAN BUREN", "addr:country": "US", "addr:postcode": "72956", "addr:state": "AR", "addr:street_address": "2741 FAYETTEVILLE RD", "amenity": "post_box", "collection_times": "Mo-Sa 17:20", "note": "ON 12/24 AND 12/31, THIS BOX MAY BE COLLECTED AS EARLY AS 12 NOON.", "nsi_id": "unitedstatespostalservice-a77078", "operator": "United States Postal Service", "operator:short": "USPS", "operator:type": "public", "operator:wikidata": "Q668687", "ref": "7295600025"}, "type": "Feature"}
{"geometry": {"coordinates": [-94.353171, 35.435979], "type": "Point"}, "id": "XNKRp6OVMOxL3Up_t8H8tEF0qCE=", "properties": {"@source_uri": "https://tools.usps.com/UspsToolsRestServices/rest/POLocator/findLocations", "@spider": "usps_collection_boxes", "addr:city": "VAN BUREN", "addr:country": "US", "addr:postcode": "72956", "addr:state": "AR", "addr:street_address": "22 S 7TH ST", "amenity": "post_box", "collection_times": "Mo-Fr 16:45; Sa 10:30", "indoor": "yes", "note": "ON 12/24 AND 12/31, THIS BOX MAY BE COLLECTED AS EARLY AS 12 NOON.", "nsi_id": "unitedstatespostalservice-a77078", "operator": "United States Postal Service", "operator:short": "USPS", "operator:type": "public", "operator:wikidata": "Q668687", "ref": "7295600026"}, "type": "Feature"}
{"geometry": {"coordinates": [-94.353171, 35.435979], "type": "Point"}, "id": "mJ74Q5dpt2siAvD8GXc67nbwfU8=", "properties": {"@source_uri": "https://tools.usps.com/UspsToolsRestServices/rest/POLocator/findLocations", "@spider": "usps_collection_boxes", "addr:city": "VAN BUREN", "addr:country": "US", "addr:postcode": "72956", "addr:state": "AR", "addr:street_address": "22 S 7TH ST", "amenity": "post_box", "collection_times": "Mo-Fr 16:45; Sa 10:30", "indoor": "yes", "note": "ON 12/24 AND 12/31, THIS BOX MAY BE COLLECTED AS EARLY AS 12 NOON.", "nsi_id": "unitedstatespostalservice-a77078", "operator": "United States Postal Service", "operator:short": "USPS", "operator:type": "public", "operator:wikidata": "Q668687", "ref": "7295600027"}, "type": "Feature"}
{"geometry": {"coordinates": [-94.353171, 35.435979], "type": "Point"}, "id": "1iL06nqTVBzvxkP5dGZjJZYcy7o=", "properties": {"@source_uri": "https://tools.usps.com/UspsToolsRestServices/rest/POLocator/findLocations", "@spider": "usps_collection_boxes", "addr:city": "VAN BUREN", "addr:country": "US", "addr:postcode": "72956", "addr:state": "AR", "addr:street_address": "22 S 7TH ST", "amenity": "post_box", "collection_times": "Mo-Fr 16:45; Sa 10:30", "indoor": "yes", "note": "ON 12/24 AND 12/31, THIS BOX MAY BE COLLECTED AS EARLY AS 12 NOON.", "nsi_id": "unitedstatespostalservice-a77078", "operator": "United States Postal Service", "operator:short": "USPS", "operator:type": "public", "operator:wikidata": "Q668687", "ref": "7295600028"}, "type": "Feature"}
{"geometry": {"coordinates": [-94.356071, 35.476525], "type": "Point"}, "id": "SKzgOkND4ARFwriknnl9rUFjLns=", "properties": {"@source_uri": "https://tools.usps.com/UspsToolsRestServices/rest/POLocator/findLocations", "@spider": "usps_collection_boxes", "addr:city": "VAN BUREN", "addr:country": "US", "addr:postcode": "72956", "addr:state": "AR", "addr:street_address": "2741 FAYETTEVILLE RD", "amenity": "post_box", "collection_times": "Mo-Sa 17:20", "note": "ON 12/24 AND 12/31, THIS BOX MAY BE COLLECTED AS EARLY AS 12 NOON.", "nsi_id": "unitedstatespostalservice-a77078", "operator": "United States Postal Service", "operator:short": "USPS", "operator:type": "public", "operator:wikidata": "Q668687", "ref": "7295600031"}, "type": "Feature"}
{"geometry": {"coordinates": [-94.3565681, 35.476966], "type": "Point"}, "id": "TE9EbaLyL8HHCheOxAB_1kKsPws=", "properties": {"@source_uri": "https://tools.usps.com/UspsToolsRestServices/rest/POLocator/findLocations", "@spider": "usps_collection_boxes", "addr:city": "VAN BUREN", "addr:country": "US", "addr:postcode": "72956", "addr:state": "AR", "addr:street_address": "2741 FAYETTEVILLE RD", "amenity": "post_box", "collection_times": "Mo-Sa 17:30", "indoor": "yes", "note": "ON 12/24 AND 12/31, THIS BOX MAY BE COLLECTED AS EARLY AS 12 NOON.", "nsi_id": "unitedstatespostalservice-a77078", "operator": "United States Postal Service", "operator:short": "USPS", "operator:type": "public", "operator:wikidata": "Q668687", "ref": "7295600032"}, "type": "Feature"}
{"geometry": {"coordinates": [-94.3566541, 35.476896], "type": "Point"}, "id": "08-rgVEEmgbikPe2Zxc3LhRiFdk=", "properties": {"@source_uri": "https://tools.usps.com/UspsToolsRestServices/rest/POLocator/findLocations", "@spider": "usps_collection_boxes", "addr:city": "VAN BUREN", "addr:country": "US", "addr:postcode": "72956", "addr:state": "AR", "addr:street_address": "2741 FAYETTEVILLE RD", "amenity": "post_box", "collection_times": "Mo-Sa 17:30", "indoor": "yes", "note": "ON 12/24 AND 12/31, THIS BOX MAY BE COLLECTED AS EARLY AS 12 NOON.", "nsi_id": "unitedstatespostalservice-a77078", "operator": "United States Postal Service", "operator:short": "USPS", "operator:type": "public", "operator:wikidata": "Q668687", "ref": "7295600033"}, "type": "Feature"}
{"geometry": {"coordinates": [-94.3568826, 35.476989], "type": "Point"}, "id": "D78i9jgsQeclr1HTr_9wT9TspJ0=", "properties": {"@source_uri": "https://tools.usps.com/UspsToolsRestServices/rest/POLocator/findLocations", "@spider": "usps_collection_boxes", "addr:city": "VAN BUREN", "addr:country": "US", "addr:postcode": "72956", "addr:state": "AR", "addr:street_address": "2741 FAYETTEVILLE RD", "amenity": "post_box", "collection_times": "Mo-Sa 17:30", "indoor": "yes", "note": "ON 12/24 AND 12/31, THIS BOX MAY BE COLLECTED AS EARLY AS 12 NOON.", "nsi_id": "unitedstatespostalservice-a77078", "operator": "United States Postal Service", "operator:short": "USPS", "operator:type": "public", "operator:wikidata": "Q668687", "ref": "7295600034"}, "type": "Feature"}
{"geometry": {"coordinates": [-94.3568573, 35.476986], "type": "Point"}, "id": "LaptwNMx-CQl2J1g22OmKGtYIh0=", "properties": {"@source_uri": "https://tools.usps.com/UspsToolsRestServices/rest/POLocator/findLocations", "@spider": "usps_collection_boxes", "addr:city": "VAN BUREN", "addr:country": "US", "addr:postcode": "72956", "addr:state": "AR", "addr:street_address": "2741 FAYETTEVILLE RD", "amenity": "post_box", "collection_times": "Mo-Sa 17:30", "indoor": "yes", "note": "ON 12/24 AND 12/31, THIS BOX MAY BE COLLECTED AS EARLY AS 12 NOON.", "nsi_id": "unitedstatespostalservice-a77078", "operator": "United States Postal Service", "operator:short": "USPS", "operator:type": "public", "operator:wikidata": "Q668687", "ref": "7295600035"}, "type": "Feature"}
{"geometry": {"coordinates": [-94.3566498, 35.476978], "type": "Point"}, "id": "VWfZzf_-50eG5nXlaIgB4hI5TSU=", "properties": {"@source_uri": "https://tools.usps.com/UspsToolsRestServices/rest/POLocator/findLocations", "@spider": "usps_collection_boxes", "addr:city": "VAN BUREN", "addr:country": "US", "addr:postcode": "72956", "addr:state": "AR", "addr:street_address": "2741 FAYETTEVILLE RD", "amenity": "post_box", "collection_times": "Mo-Sa 17:30", "indoor": "yes", "note": "ON 12/24 AND 12/31, THIS BOX MAY BE COLLECTED AS EARLY AS 12 NOON.", "nsi_id": "unitedstatespostalservice-a77078", "operator": "United States Postal Service", "operator:short": "USPS", "operator:type": "public", "operator:wikidata": "Q668687", "ref": "7295600036"}, "type": "Feature"}
{"geometry": {"coordinates": [-94.3566443, 35.476887], "type": "Point"}, "id": "ea1hCZEK1uY96pGp_iqA349u7gA=", "properties": {"@source_uri": "https://tools.usps.com/UspsToolsRestServices/rest/POLocator/findLocations", "@spider": "usps_collection_boxes", "addr:city": "VAN BUREN", "addr:country": "US", "addr:postcode": "72956", "addr:state": "AR", "addr:street_address": "2741 FAYETTEVILLE RD", "amenity": "post_box", "collection_times": "Mo-Sa 17:30", "indoor": "yes", "note": "ON 12/24 AND 12/31, THIS BOX MAY BE COLLECTED AS EARLY AS 12 NOON.", "nsi_id": "unitedstatespostalservice-a77078", "operator": "United States Postal Service", "operator:short": "USPS", "operator:type": "public", "operator:wikidata": "Q668687", "ref": "7295600037"}, "type": "Feature"}
{"geometry": {"coordinates": [-94.3540777, 35.46907], "type": "Point"}, "id": "7SFrEMcOvPkvaJn5SGIJQE2Rz7o=", "properties": {"@source_uri": "https://tools.usps.com/UspsToolsRestServices/rest/POLocator/findLocations", "@spider": "usps_collection_boxes", "addr:city": "VAN BUREN", "addr:country": "US", "addr:postcode": "72956", "addr:state": "AR", "addr:street_address": "2214 FAYETTEVILLE RD", "amenity": "post_box", "collection_times": "Mo-Sa 14:30", "note": "ON 12/24 AND 12/31, THIS BOX MAY BE COLLECTED AS EARLY AS 12 NOON.", "nsi_id": "unitedstatespostalservice-a77078", "operator": "United States Postal Service", "operator:short": "USPS", "operator:type": "public", "operator:wikidata": "Q668687", "ref": "7295600038"}, "type": "Feature"}
{"geometry": {"coordinates": [-94.3561290857, 35.4765313301], "type": "Point"}, "id": "PQHLVXNGDKEfVenrb7_p9Y75zR4=", "properties": {"@source_uri": "https://tools.usps.com/UspsToolsRestServices/rest/POLocator/findLocations", "@spider": "usps_collection_boxes", "addr:city": "VAN BUREN", "addr:country": "US", "addr:postcode": "72956", "addr:state": "AR", "addr:street_address": "2741 FAYETTEVILLE RD", "amenity": "post_box", "collection_times": "Mo-Fr 17:00; Sa 13:30", "indoor": "yes", "note": "ON 12/24 AND 12/31, THIS BOX MAY BE COLLECTED AS EARLY AS 12 NOON.", "nsi_id": "unitedstatespostalservice-a77078", "operator": "United States Postal Service", "operator:short": "USPS", "operator:type": "public", "operator:wikidata": "Q668687", "ref": "7295600043"}, "type": "Feature"}
{"geometry": {"coordinates": [-94.092115, 34.897581], "type": "Point"}, "id": "bon2HDULGOMLFwedHdYTcWNxT_w=", "properties": {"@source_uri": "https://tools.usps.com/UspsToolsRestServices/rest/POLocator/findLocations", "@spider": "usps_collection_boxes", "addr:city": "WALDRON", "addr:country": "US", "addr:postcode": "72958", "addr:state": "AR", "addr:street_address": "368 WASHINGTON ST", "amenity": "post_box", "collection_times": "Mo-Fr 16:30; Sa 12:00", "indoor": "yes", "note": "ON 12/24 AND 12/31, THIS BOX MAY BE COLLECTED AS EARLY AS 12 NOON.", "nsi_id": "unitedstatespostalservice-a77078", "operator": "United States Postal Service", "operator:short": "USPS", "operator:type": "public", "operator:wikidata": "Q668687", "ref": "7295800002"}, "type": "Feature"}
{"geometry": {"coordinates": [-94.1068230865, 34.8968803954], "type": "Point"}, "id": "uSLqX41hhCzlycMQYgRdOt4DKlM=", "properties": {"@source_uri": "https://tools.usps.com/UspsToolsRestServices/rest/POLocator/findLocations", "@spider": "usps_collection_boxes", "addr:city": "WALDRON", "addr:country": "US", "addr:postcode": "72958", "addr:state": "AR", "addr:street_address": "1350 W 6TH ST", "amenity": "post_box", "collection_times": "Mo-Sa 09:15", "nsi_id": "unitedstatespostalservice-a77078", "operator": "United States Postal Service", "operator:short": "USPS", "operator:type": "public", "operator:wikidata": "Q668687", "ref": "7295800004"}, "type": "Feature"}
{"geometry": {"coordinates": [-94.0929844, 34.900746], "type": "Point"}, "id": "9F6cXe67vmiW0Dp-Pp3pIqpqidE=", "properties": {"@source_uri": "https://tools.usps.com/UspsToolsRestServices/rest/POLocator/findLocations", "@spider": "usps_collection_boxes", "addr:city": "WALDRON", "addr:country": "US", "addr:postcode": "72958", "addr:state": "AR", "addr:street_address": "190 W 1ST ST", "amenity": "post_box", "collection_times": "Mo-Sa 09:00", "nsi_id": "unitedstatespostalservice-a77078", "operator": "United States Postal Service", "operator:short": "USPS", "operator:type": "public", "operator:wikidata": "Q668687", "ref": "7295800005"}, "type": "Feature"}
{"geometry": {"coordinates": [-94.092115, 34.897581], "type": "Point"}, "id": "DE0cQSc8cDX2bJe9Hy1dgDybACg=", "properties": {"@source_uri": "https://tools.usps.com/UspsToolsRestServices/rest/POLocator/findLocations", "@spider": "usps_collection_boxes", "addr:city": "WALDRON", "addr:country": "US", "addr:postcode": "72958", "addr:state": "AR", "addr:street_address": "368 WASHINGTON ST", "amenity": "post_box", "collection_times": "Mo-Fr 16:30; Sa 12:00", "note": "ON 12/24 AND 12/31, THIS BOX MAY BE COLLECTED AS EARLY AS 12 NOON.", "nsi_id": "unitedstatespostalservice-a77078", "operator": "United States Postal Service", "operator:short": "USPS", "operator:type": "public", "operator:wikidata": "Q668687", "ref": "7295800006"}, "type": "Feature"}
{"geometry": {"coordinates": [-94.0999424, 34.89408], "type": "Point"}, "id": "GhJgrH3og1tcv5b8JvLEC5njzMo=", "properties": {"@source_uri": "https://tools.usps.com/UspsToolsRestServices/rest/POLocator/findLocations", "@spider": "usps_collection_boxes", "addr:city": "WALDRON", "addr:country": "US", "addr:postcode": "72958", "addr:state": "AR", "addr:street_address": "809 BRISTOL SQUARE ST", "amenity": "post_box", "collection_times": "Mo-Sa 09:45", "nsi_id": "unitedstatespostalservice-a77078", "operator": "United States Postal Service", "operator:short": "USPS", "operator:type": "public", "operator:wikidata": "Q668687", "ref": "7295800008"}, "type": "Feature"}
{"geometry": {"coordinates": [-94.1007349, 34.892668], "type": "Point"}, "id": "Q7AFX5FtnC4X8t2CM9B-NrpLorY=", "properties": {"@source_uri": "https://tools.usps.com/UspsToolsRestServices/rest/POLocator/findLocations", "@spider": "usps_collection_boxes", "addr:city": "WALDRON", "addr:country": "US", "addr:postcode": "72958", "addr:state": "AR", "addr:street_address": "849 ELM ST", "amenity": "post_box", "collection_times": "Mo-Sa 11:15", "nsi_id": "unitedstatespostalservice-a77078", "operator": "United States Postal Service", "operator:short": "USPS", "operator:type": "public", "operator:wikidata": "Q668687", "ref": "7295800009"}, "type": "Feature"}
{"geometry": {"coordinates": [-94.0959109427, 34.8910364274], "type": "Point"}, "id": "C5ZbXwH-kZVQEmcvYbSxuQ7axW0=", "properties": {"@source_uri": "https://tools.usps.com/UspsToolsRestServices/rest/POLocator/findLocations", "@spider": "usps_collection_boxes", "addr:city": "WALDRON", "addr:country": "US", "addr:postcode": "72958", "addr:state": "AR", "addr:street_address": "1092 SHIPLEY CIRCLE DR", "amenity": "post_box", "collection_times": "Mo-Sa 11:00", "nsi_id": "unitedstatespostalservice-a77078", "operator": "United States Postal Service", "operator:short": "USPS", "operator:type": "public", "operator:wikidata": "Q668687", "ref": "7295800010"}, "type": "Feature"}
{"geometry": {"coordinates": [-94.0927431, 34.893256], "type": "Point"}, "id": "I8yZ8aZ4H1tZ8IB7n54wzfoKCFM=", "properties": {"@source_uri": "https://tools.usps.com/UspsToolsRestServices/rest/POLocator/findLocations", "@spider": "usps_collection_boxes", "addr:city": "WALDRON", "addr:country": "US", "addr:postcode": "72958", "addr:state": "AR", "addr:street_address": "204 W 8TH ST", "amenity": "post_box", "collection_times": "Mo-Sa 11:20", "nsi_id": "unitedstatespostalservice-a77078", "operator": "United States Postal Service", "operator:short": "USPS", "operator:type": "public", "operator:wikidata": "Q668687", "ref": "7295800011"}, "type": "Feature"}
{"geometry": {"coordinates": [-94.0967934, 34.891597], "type": "Point"}, "id": "f7yPJbpY-an5aCE0LVnAHQ0nBv8=", "properties": {"@source_uri": "https://tools.usps.com/UspsToolsRestServices/rest/POLocator/findLocations", "@spider": "usps_collection_boxes", "addr:city": "WALDRON", "addr:country": "US", "addr:postcode": "72958", "addr:state": "AR", "addr:street_address": "445 W 8TH ST", "amenity": "post_box", "collection_times": "Mo-Sa 12:30", "note": "ON 12/24 AND 12/31, THIS BOX MAY BE COLLECTED AS EARLY AS 12 NOON.", "nsi_id": "unitedstatespostalservice-a77078", "operator": "United States Postal Service", "operator:short": "USPS", "operator:type": "public", "operator:wikidata": "Q668687", "ref": "7295800012"}, "type": "Feature"}
{"geometry": {"coordinates": [-94.092156448, 34.897581115], "type": "Point"}, "id": "G7mKh2ae4qRdL2XQkOlPsL-h1bQ=", "properties": {"@source_uri": "https://tools.usps.com/UspsToolsRestServices/rest/POLocator/findLocations", "@spider": "usps_collection_boxes", "addr:city": "WALDRON", "addr:country": "US", "addr:postcode": "72958", "addr:state": "AR", "addr:street_address": "368 WASHINGTON ST", "amenity": "post_box", "collection_times": "Mo-Fr 16:30; Sa 12:00", "indoor": "yes", "note": "ON 12/24 AND 12/31, THIS BOX MAY BE COLLECTED AS EARLY AS 12 NOON.", "nsi_id": "unitedstatespostalservice-a77078", "operator": "United States Postal Service", "operator:short": "USPS", "operator:type": "public", "operator:wikidata": "Q668687", "ref": "7295800014"}, "type": "Feature"}
{"geometry": {"coordinates": [-94.133499, 35.804395], "type": "Point"}, "id": "V9_ja562U-tTsHnUDGD3bT3EToE=", "properties": {"@source_uri": "https://tools.usps.com/UspsToolsRestServices/rest/POLocator/findLocations", "@spider": "usps_collection_boxes", "addr:city": "WINSLOW", "addr:country": "US", "addr:postcode": "72959", "addr:state": "AR", "addr:street_address": "383 N WINSLOW BLVD", "amenity": "post_box", "collection_times": "Mo-Fr 14:00; Sa 11:00", "note": "ON 12/24 AND 12/31, THIS BOX MAY BE COLLECTED AS EARLY AS 12 NOON.", "nsi_id": "unitedstatespostalservice-a77078", "operator": "United States Postal Service", "operator:short": "USPS", "operator:type": "public", "operator:wikidata": "Q668687", "ref": "7295900001"}, "type": "Feature"}
{"geometry": {"coordinates": [-94.133499, 35.804395], "type": "Point"}, "id": "UmzWWgsb0kOQir76rkSihtw4Tpo=", "properties": {"@source_uri": "https://tools.usps.com/UspsToolsRestServices/rest/POLocator/findLocations", "@spider": "usps_collection_boxes", "addr:city": "WINSLOW", "addr:country": "US", "addr:postcode": "72959", "addr:state": "AR", "addr:street_address": "383 N WINSLOW BLVD", "amenity": "post_box", "collection_times": "Mo-Fr 14:00; Sa 11:00", "indoor": "yes", "note": "ON 12/24 AND 12/31, THIS BOX MAY BE COLLECTED AS EARLY AS 12 NOON.", "nsi_id": "unitedstatespostalservice-a77078", "operator": "United States Postal Service", "operator:short": "USPS", "operator:type": "public", "operator:wikidata": "Q668687", "ref": "7295900002"}, "type": "Feature"}
{"geometry": {"coordinates": [-94.133468449, 35.804429968], "type": "Point"}, "id": "APjnRKT1LQ80bLxzRTAOiNxXZSI=", "properties": {"@source_uri": "https://tools.usps.com/UspsToolsRestServices/rest/POLocator/findLocations", "@spider": "usps_collection_boxes", "addr:city": "WINSLOW", "addr:country": "US", "addr:postcode": "72959", "addr:state": "AR", "addr:street_address": "383 N WINSLOW BLVD", "amenity": "post_box", "collection_times": "Mo-Fr 14:30; Sa 11:00", "indoor": "yes", "note": "ON 12/24 AND 12/31, THIS BOX MAY BE COLLECTED AS EARLY AS 12 NOON.", "nsi_id": "unitedstatespostalservice-a77078", "operator": "United States Postal Service", "operator:short": "USPS", "operator:type": "public", "operator:wikidata": "Q668687", "ref": "7295900006"}, "type": "Feature"}
