{"geometry": {"coordinates": [-97.5224899, 35.467725], "type": "Point"}, "id": "J6V0NXv8IVWD7_mHsvBgu-LZ5oQ=", "properties": {"@spider": "usps_collection_boxes", "addr:city": "OKLAHOMA CITY", "addr:country": "US", "addr:full": "520 W MAIN ST", "addr:postcode": "73102", "addr:state": "OK", "brand": "USPS", "collection_times": "Mo-Fr 16:15", "name": "USPS COLLECTION BOX - BLUE BOX", "note": "ON 12/24 AND 12/31, THIS BOX MAY BE COLLECTED AS EARLY AS 12 NOON.", "ref": "7310200003"}, "type": "Feature"}
{"geometry": {"coordinates": [-97.5171000219, 35.4716589793], "type": "Point"}, "id": "715Qz4KpnSLLTh75xHQD1sot5ZY=", "properties": {"@spider": "usps_collection_boxes", "addr:city": "OKLAHOMA CITY", "addr:country": "US", "addr:full": "200 NW 4TH ST", "addr:postcode": "73102", "addr:state": "OK", "brand": "USPS", "collection_times": "Mo-Fr 16:45", "name": "USPS COLLECTION BOX - BLUE BOX", "note": "ON 12/24 AND 12/31, THIS BOX MAY BE COLLECTED AS EARLY AS 12 NOON.", "ref": "7310200028"}, "type": "Feature"}
{"geometry": {"coordinates": [-97.5242417363, 35.4782411246], "type": "Point"}, "id": "skEnvE9cyK7XHxeDaIlMcS3fbe4=", "properties": {"@spider": "usps_collection_boxes", "addr:city": "OKLAHOMA CITY", "addr:country": "US", "addr:full": "1000 N LEE AVE", "addr:postcode": "73102", "addr:state": "OK", "brand": "USPS", "collection_times": "Mo-Fr 16:15", "name": "USPS COLLECTION BOX - BLUE BOX", "note": "ON 12/24 AND 12/31, THIS BOX MAY BE COLLECTED AS EARLY AS 12 NOON.", "ref": "7310200046"}, "type": "Feature"}
{"geometry": {"coordinates": [-97.5237476, 35.476721], "type": "Point"}, "id": "Eccj8-iGAl_9O-oFegaVbMIO7Wk=", "properties": {"@spider": "usps_collection_boxes", "addr:city": "OKLAHOMA CITY", "addr:country": "US", "addr:full": "608 NW 9TH ST", "addr:postcode": "73102", "addr:state": "OK", "brand": "USPS", "collection_times": "Mo-Fr 16:15", "name": "USPS COLLECTION BOX - BLUE BOX", "note": "ON 12/24 AND 12/31, THIS BOX MAY BE COLLECTED AS EARLY AS 12 NOON.", "ref": "7310200049"}, "type": "Feature"}
{"geometry": {"coordinates": [-97.5171825, 35.470467], "type": "Point"}, "id": "YXx3FxdkHKPa4LiFBs5IHHaUkRs=", "properties": {"@spider": "usps_collection_boxes", "addr:city": "OKLAHOMA CITY", "addr:country": "US", "addr:full": "201 ROBERT S KERR AVE", "addr:postcode": "73102", "addr:state": "OK", "brand": "USPS", "collection_times": "Mo-Fr 16:30", "name": "USPS COLLECTION BOX - BLUE BOX", "note": "ON 12/24 AND 12/31, THIS BOX MAY BE COLLECTED AS EARLY AS 12 NOON.", "ref": "7310200066"}, "type": "Feature"}
{"geometry": {"coordinates": [-97.5160844, 35.47665], "type": "Point"}, "id": "8jyiNrbdBfu4TUVvouw_ZhR-dpg=", "properties": {"@spider": "usps_collection_boxes", "addr:city": "OKLAHOMA CITY", "addr:country": "US", "addr:full": "920 N ROBINSON AVE", "addr:postcode": "73102", "addr:state": "OK", "brand": "USPS", "collection_times": "Mo-Fr 15:45", "name": "USPS COLLECTION BOX - BLUE BOX", "note": "ON 12/24 AND 12/31, THIS BOX MAY BE COLLECTED AS EARLY AS 12 NOON.", "ref": "7310200069"}, "type": "Feature"}
{"geometry": {"coordinates": [-97.5161195, 35.46761], "type": "Point"}, "id": "hBUdKtQf1bKZ-X_dyXiB869yhO8=", "properties": {"@spider": "usps_collection_boxes", "addr:city": "OKLAHOMA CITY", "addr:country": "US", "addr:full": "100 W MAIN ST", "addr:postcode": "73102", "addr:state": "OK", "brand": "USPS", "collection_times": "Mo-Fr 16:45", "name": "USPS COLLECTION BOX - BLUE BOX", "note": "ON 12/24 AND 12/31, THIS BOX MAY BE COLLECTED AS EARLY AS 12 NOON.", "ref": "7310200072"}, "type": "Feature"}
{"geometry": {"coordinates": [-97.5267319, 35.470013], "type": "Point"}, "id": "facjuS4Pjz1Y3ZirwCQN3hGTNaY=", "properties": {"@spider": "usps_collection_boxes", "addr:city": "OKLAHOMA CITY", "addr:country": "US", "addr:full": "201 N SHARTEL AVE", "addr:postcode": "73102", "addr:state": "OK", "brand": "USPS", "collection_times": "Mo-Fr 16:30", "name": "USPS COLLECTION BOX - BLUE BOX", "note": "ON 12/24 AND 12/31, THIS BOX MAY BE COLLECTED AS EARLY AS 12 NOON.", "ref": "7310200091"}, "type": "Feature"}
{"geometry": {"coordinates": [-97.5177866, 35.470008], "type": "Point"}, "id": "LHw3BaHa-XDwL22edokNMYtgYlw=", "properties": {"@spider": "usps_collection_boxes", "addr:city": "OKLAHOMA CITY", "addr:country": "US", "addr:full": "228 ROBERT S KERR AVE", "addr:postcode": "73102", "addr:state": "OK", "brand": "USPS", "collection_times": "Mo-Fr 16:45", "name": "USPS COLLECTION BOX - BLUE BOX", "note": "ON 12/24 AND 12/31, THIS BOX MAY BE COLLECTED AS EARLY AS 12 NOON.", "ref": "7310200138"}, "type": "Feature"}
{"geometry": {"coordinates": [-97.5190852, 35.473876], "type": "Point"}, "id": "sbWMpRuxX2ANuxxyw9da4i6Ej9o=", "properties": {"@spider": "usps_collection_boxes", "addr:city": "OKLAHOMA CITY", "addr:country": "US", "addr:full": "305 NW 5TH ST", "addr:postcode": "73102", "addr:state": "OK", "brand": "USPS", "collection_times": "Mo-Fr 17:45; Sa 15:00", "name": "USPS COLLECTION BOX - BLUE BOX", "note": "ON 12/24 AND 12/31, THIS BOX MAY BE COLLECTED AS EARLY AS 12 NOON.", "ref": "7310200152"}, "type": "Feature"}
{"geometry": {"coordinates": [-97.5191143, 35.473833], "type": "Point"}, "id": "AC9gH5XA4Ibqe40Wlh-Yf09R9Y8=", "properties": {"@spider": "usps_collection_boxes", "addr:city": "OKLAHOMA CITY", "addr:country": "US", "addr:full": "305 NW 5TH ST", "addr:postcode": "73102", "addr:state": "OK", "brand": "USPS", "collection_times": "Mo-Fr 17:45; Sa 15:00", "name": "USPS COLLECTION BOX - BLUE BOX", "note": "ON 12/24 AND 12/31, THIS BOX MAY BE COLLECTED AS EARLY AS 12 NOON.", "ref": "7310200153"}, "type": "Feature"}
{"geometry": {"coordinates": [-97.51817, 35.473058], "type": "Point"}, "id": "oob0tewOpDvxA1nfJCkJGONCK5M=", "properties": {"@spider": "usps_collection_boxes", "addr:city": "OKLAHOMA CITY", "addr:country": "US", "addr:full": "305 NW 5TH ST", "addr:postcode": "73102", "addr:state": "OK", "brand": "USPS", "collection_times": "Mo-Fr 17:00; Sa 14:00", "name": "USPS COLLECTION BOX - PO LOBBY", "note": "ON 12/24 AND 12/31, THIS BOX MAY BE COLLECTED AS EARLY AS 12 NOON.", "ref": "7310200155"}, "type": "Feature"}
{"geometry": {"coordinates": [-97.51817, 35.473058], "type": "Point"}, "id": "COtVMBXqAlE2bCzhyKu-cq7VMqo=", "properties": {"@spider": "usps_collection_boxes", "addr:city": "OKLAHOMA CITY", "addr:country": "US", "addr:full": "305 NW 5TH ST", "addr:postcode": "73102", "addr:state": "OK", "brand": "USPS", "collection_times": "Mo-Fr 17:00; Sa 14:00", "name": "USPS COLLECTION BOX - PO LOBBY", "note": "ON 12/24 AND 12/31, THIS BOX MAY BE COLLECTED AS EARLY AS 12 NOON.", "ref": "7310200156"}, "type": "Feature"}
{"geometry": {"coordinates": [-97.51817, 35.473058], "type": "Point"}, "id": "wvzCbZiFx0iv6hzRlG6C4_1PEmQ=", "properties": {"@spider": "usps_collection_boxes", "addr:city": "OKLAHOMA CITY", "addr:country": "US", "addr:full": "305 NW 5TH ST", "addr:postcode": "73102", "addr:state": "OK", "brand": "USPS", "collection_times": "Mo-Fr 17:00; Sa 14:00", "name": "USPS COLLECTION BOX - PO LOBBY", "note": "ON 12/24 AND 12/31, THIS BOX MAY BE COLLECTED AS EARLY AS 12 NOON.", "ref": "7310200157"}, "type": "Feature"}
{"geometry": {"coordinates": [-97.5185810204, 35.4744330121], "type": "Point"}, "id": "P8aIYfDGL_qkSkHJSEHy2QZk854=", "properties": {"@spider": "usps_collection_boxes", "addr:city": "OKLAHOMA CITY", "addr:country": "US", "addr:full": "301 NW 6TH ST", "addr:postcode": "73102", "addr:state": "OK", "brand": "USPS", "collection_times": "Mo-Fr 15:45", "name": "USPS COLLECTION BOX - BLUE BOX", "note": "ON 12/24 AND 12/31, THIS BOX MAY BE COLLECTED AS EARLY AS 12 NOON.", "ref": "7310200166"}, "type": "Feature"}
{"geometry": {"coordinates": [-97.5177624, 35.469958], "type": "Point"}, "id": "vteHZ5HTYYnlGLqHBlfWdgI4ZTM=", "properties": {"@spider": "usps_collection_boxes", "addr:city": "OKLAHOMA CITY", "addr:country": "US", "addr:full": "228 ROBERT S KERR AVE", "addr:postcode": "73102", "addr:state": "OK", "brand": "USPS", "collection_times": "Mo-Fr 16:45", "name": "USPS COLLECTION BOX - BLUE BOX", "note": "ON 12/24 AND 12/31, THIS BOX MAY BE COLLECTED AS EARLY AS 12 NOON.", "ref": "7310200171"}, "type": "Feature"}
{"geometry": {"coordinates": [-97.518461139, 35.47305449], "type": "Point"}, "id": "4KTmxicTzH2NVpTGZz7zGemcxpg=", "properties": {"@spider": "usps_collection_boxes", "addr:city": "OKLAHOMA CITY", "addr:country": "US", "addr:full": "305 NW 5TH ST", "addr:postcode": "73102", "addr:state": "OK", "brand": "USPS", "collection_times": "Mo-Fr 19:00; Sa 14:00", "name": "USPS COLLECTION BOX - PO LOBBY", "note": "ON 12/24 AND 12/31, THIS BOX MAY BE COLLECTED AS EARLY AS 12 NOON.", "ref": "7310200173"}, "type": "Feature"}
{"geometry": {"coordinates": [-97.518373051, 35.482345495], "type": "Point"}, "id": "H4QLR1CLn6I0Ubl48WH8CzCEdms=", "properties": {"@spider": "usps_collection_boxes", "addr:city": "OKLAHOMA CITY", "addr:country": "US", "addr:full": "320 NW 13TH ST", "addr:postcode": "73103", "addr:state": "OK", "brand": "USPS", "collection_times": "Mo-Fr 15:45", "name": "USPS COLLECTION BOX - BLUE BOX", "note": "ON 12/24 AND 12/31, THIS BOX MAY BE COLLECTED AS EARLY AS 12 NOON.", "ref": "7310300010"}, "type": "Feature"}
{"geometry": {"coordinates": [-97.5227899, 35.479834], "type": "Point"}, "id": "olOE21eHdHER1Cz-GW4M5GYjm9k=", "properties": {"@spider": "usps_collection_boxes", "addr:city": "OKLAHOMA CITY", "addr:country": "US", "addr:full": "1111 N DEWEY AVE", "addr:postcode": "73103", "addr:state": "OK", "brand": "USPS", "collection_times": "Mo-Fr 16:15", "name": "USPS COLLECTION BOX - BLUE BOX", "note": "ON 12/24 AND 12/31, THIS BOX MAY BE COLLECTED AS EARLY AS 12 NOON.", "ref": "7310300014"}, "type": "Feature"}
{"geometry": {"coordinates": [-97.5248045, 35.47939], "type": "Point"}, "id": "1d9N_j3dtWxMbAIwl-d13r8b8Jg=", "properties": {"@spider": "usps_collection_boxes", "addr:city": "OKLAHOMA CITY", "addr:country": "US", "addr:full": "1111 N LEE AVE", "addr:postcode": "73103", "addr:state": "OK", "brand": "USPS", "collection_times": "Mo-Fr 16:15", "name": "USPS COLLECTION BOX - BLUE BOX", "note": "ON 12/24 AND 12/31, THIS BOX MAY BE COLLECTED AS EARLY AS 12 NOON.", "ref": "7310300017"}, "type": "Feature"}
{"geometry": {"coordinates": [-97.5159788075, 35.480924078], "type": "Point"}, "id": "XiUfdqKQKg_xjkPq0G95J-IhrrY=", "properties": {"@spider": "usps_collection_boxes", "addr:city": "OKLAHOMA CITY", "addr:country": "US", "addr:full": "1220 N ROBINSON AVE", "addr:postcode": "73103", "addr:state": "OK", "brand": "USPS", "collection_times": "Mo-Fr 15:45", "name": "USPS COLLECTION BOX - BLUE BOX", "note": "ON 12/24 AND 12/31, THIS BOX MAY BE COLLECTED AS EARLY AS 12 NOON.", "ref": "7310300022"}, "type": "Feature"}
{"geometry": {"coordinates": [-97.518373051, 35.482345495], "type": "Point"}, "id": "W7BRn1GCdkGbedms3fs3iAks6wo=", "properties": {"@spider": "usps_collection_boxes", "addr:city": "OKLAHOMA CITY", "addr:country": "US", "addr:full": "320 NW 13TH ST", "addr:postcode": "73103", "addr:state": "OK", "brand": "USPS", "collection_times": "Mo-Fr 15:45", "name": "USPS COLLECTION BOX - BLUE BOX", "note": "ON 12/24 AND 12/31, THIS BOX MAY BE COLLECTED AS EARLY AS 12 NOON.", "ref": "7310300029"}, "type": "Feature"}
{"geometry": {"coordinates": [-97.500954769, 35.479750505], "type": "Point"}, "id": "srjfEv6yEgPKjb_MY4MNrAMrKv4=", "properties": {"@spider": "usps_collection_boxes", "addr:city": "OKLAHOMA CITY", "addr:country": "US", "addr:full": "1100 N LINDSAY AVE", "addr:postcode": "73104", "addr:state": "OK", "brand": "USPS", "collection_times": "Mo-Fr 16:15", "name": "USPS COLLECTION BOX - BLUE BOX", "note": "ON 12/24 AND 12/31, THIS BOX MAY BE COLLECTED AS EARLY AS 12 NOON.", "ref": "7310400003"}, "type": "Feature"}
{"geometry": {"coordinates": [-97.5098084, 35.46654], "type": "Point"}, "id": "Jmz2BVdir6uKNEMJcR59A_1WvFo=", "properties": {"@spider": "usps_collection_boxes", "addr:city": "OKLAHOMA CITY", "addr:country": "US", "addr:full": "115 E SHERIDAN AVE", "addr:postcode": "73104", "addr:state": "OK", "brand": "USPS", "collection_times": "Mo-Fr 16:30", "name": "USPS COLLECTION BOX - BLUE BOX", "note": "ON 12/24 AND 12/31, THIS BOX MAY BE COLLECTED AS EARLY AS 12 NOON.", "ref": "7310400006"}, "type": "Feature"}
{"geometry": {"coordinates": [-97.5051507, 35.476896], "type": "Point"}, "id": "VkqM81M55k8ESjyc-YK3Q9XCEzg=", "properties": {"@spider": "usps_collection_boxes", "addr:city": "OKLAHOMA CITY", "addr:country": "US", "addr:full": "900 N STILES AVE", "addr:postcode": "73104", "addr:state": "OK", "brand": "USPS", "collection_times": "Mo-Fr 16:30", "name": "USPS COLLECTION BOX - BLUE BOX", "note": "ON 12/24 AND 12/31, THIS BOX MAY BE COLLECTED AS EARLY AS 12 NOON.", "ref": "7310400018"}, "type": "Feature"}
{"geometry": {"coordinates": [-97.5014961, 35.477373], "type": "Point"}, "id": "lnmezCvXR82Vx8hPFJyUSWXdMtI=", "properties": {"@spider": "usps_collection_boxes", "addr:city": "OKLAHOMA CITY", "addr:country": "US", "addr:full": "1000 N LINCOLN BLVD", "addr:postcode": "73104", "addr:state": "OK", "brand": "USPS", "collection_times": "Mo-Fr 16:30", "name": "USPS COLLECTION BOX - BLUE BOX", "note": "ON 12/24 AND 12/31, THIS BOX MAY BE COLLECTED AS EARLY AS 12 NOON.", "ref": "7310400024"}, "type": "Feature"}
{"geometry": {"coordinates": [-97.504709074, 35.526443371], "type": "Point"}, "id": "ZlyRABhwRbUpcEYtuFmI0XmAe80=", "properties": {"@spider": "usps_collection_boxes", "addr:city": "OKLAHOMA CITY", "addr:country": "US", "addr:full": "525 CENTRAL PARK DR", "addr:postcode": "73105", "addr:state": "OK", "brand": "USPS", "collection_times": "Mo-Fr 16:15", "name": "USPS COLLECTION BOX - BLUE BOX", "note": "ON 12/24 AND 12/31, THIS BOX MAY BE COLLECTED AS EARLY AS 12 NOON.", "ref": "7310500003"}, "type": "Feature"}
{"geometry": {"coordinates": [-97.5040492, 35.511927], "type": "Point"}, "id": "PH7lbIGqPC1FKk_gvwlGjIQfsNg=", "properties": {"@spider": "usps_collection_boxes", "addr:city": "OKLAHOMA CITY", "addr:country": "US", "addr:full": "4001 N LINCOLN BLVD", "addr:postcode": "73105", "addr:state": "OK", "brand": "USPS", "collection_times": "Mo-Fr 16:45", "name": "USPS COLLECTION BOX - BLUE BOX", "note": "ON 12/24 AND 12/31, THIS BOX MAY BE COLLECTED AS EARLY AS 12 NOON.", "ref": "7310500011"}, "type": "Feature"}
{"geometry": {"coordinates": [-97.5028858, 35.515484], "type": "Point"}, "id": "Ya_ab2pnU0yOog2oaRlVaKYd1gU=", "properties": {"@spider": "usps_collection_boxes", "addr:city": "OKLAHOMA CITY", "addr:country": "US", "addr:full": "4300 N LINCOLN BLVD", "addr:postcode": "73105", "addr:state": "OK", "brand": "USPS", "collection_times": "Mo-Fr 16:45", "name": "USPS COLLECTION BOX - BLUE BOX", "note": "ON 12/24 AND 12/31, THIS BOX MAY BE COLLECTED AS EARLY AS 12 NOON.", "ref": "7310500013"}, "type": "Feature"}
{"geometry": {"coordinates": [-97.5036942, 35.515514], "type": "Point"}, "id": "vjH-nSUvNZ6pfyjh7pawI21xQis=", "properties": {"@spider": "usps_collection_boxes", "addr:city": "OKLAHOMA CITY", "addr:country": "US", "addr:full": "4345 N LINCOLN BLVD", "addr:postcode": "73105", "addr:state": "OK", "brand": "USPS", "collection_times": "Mo-Fr 16:45", "name": "USPS COLLECTION BOX - BLUE BOX", "note": "ON 12/24 AND 12/31, THIS BOX MAY BE COLLECTED AS EARLY AS 12 NOON.", "ref": "7310500014"}, "type": "Feature"}
{"geometry": {"coordinates": [-97.5100074, 35.496961], "type": "Point"}, "id": "1ZOoe5QxkxwyjWfR0DjGmJ7sWN0=", "properties": {"@spider": "usps_collection_boxes", "addr:city": "OKLAHOMA CITY", "addr:country": "US", "addr:full": "2701 N OKLAHOMA AVE", "addr:postcode": "73105", "addr:state": "OK", "brand": "USPS", "collection_times": "Mo-Fr 16:00", "name": "USPS COLLECTION BOX - BLUE BOX", "note": "ON 12/24 AND 12/31, THIS BOX MAY BE COLLECTED AS EARLY AS 12 NOON.", "ref": "7310500020"}, "type": "Feature"}
{"geometry": {"coordinates": [-97.5056904, 35.498733], "type": "Point"}, "id": "b8CYQk3Ba7xLLqaFm3-m_Q8eMjM=", "properties": {"@spider": "usps_collection_boxes", "addr:city": "OKLAHOMA CITY", "addr:country": "US", "addr:full": "313 NE 28TH ST", "addr:postcode": "73105", "addr:state": "OK", "brand": "USPS", "collection_times": "Mo-Fr 16:00", "name": "USPS COLLECTION BOX - BLUE BOX", "note": "ON 12/24 AND 12/31, THIS BOX MAY BE COLLECTED AS EARLY AS 12 NOON.", "ref": "7310500028"}, "type": "Feature"}
{"geometry": {"coordinates": [-97.5034215, 35.492202], "type": "Point"}, "id": "M9rB5BBhfxnrykROWpJ--lhekWI=", "properties": {"@spider": "usps_collection_boxes", "addr:city": "OKLAHOMA CITY", "addr:country": "US", "addr:full": "2300 N LINCOLN BLVD", "addr:postcode": "73105", "addr:state": "OK", "brand": "USPS", "collection_times": "Mo-Fr 16:15", "name": "USPS COLLECTION BOX - BLUE BOX", "note": "ON 12/24 AND 12/31, THIS BOX MAY BE COLLECTED AS EARLY AS 12 NOON.", "ref": "7310500061"}, "type": "Feature"}
{"geometry": {"coordinates": [-97.503092034, 35.515467], "type": "Point"}, "id": "Cklip4MgMgcEJ1mHaYfZAbtmjBw=", "properties": {"@spider": "usps_collection_boxes", "addr:city": "OKLAHOMA CITY", "addr:country": "US", "addr:full": "4300 N LINCOLN BLVD", "addr:postcode": "73105", "addr:state": "OK", "brand": "USPS", "collection_times": "Mo-Fr 16:45", "name": "USPS COLLECTION BOX - BLUE BOX", "note": "ON 12/24 AND 12/31, THIS BOX MAY BE COLLECTED AS EARLY AS 12 NOON.", "ref": "7310500077"}, "type": "Feature"}
{"geometry": {"coordinates": [-97.504709074, 35.526443371], "type": "Point"}, "id": "rjTp4O-Ix1jwx5rrMsMJyzfgjsQ=", "properties": {"@spider": "usps_collection_boxes", "addr:city": "OKLAHOMA CITY", "addr:country": "US", "addr:full": "525 CENTRAL PARK DR", "addr:postcode": "73105", "addr:state": "OK", "brand": "USPS", "collection_times": "Mo-Fr 16:15", "name": "USPS COLLECTION BOX - BLUE BOX", "note": "ON 12/24 AND 12/31, THIS BOX MAY BE COLLECTED AS EARLY AS 12 NOON.", "ref": "7310500078"}, "type": "Feature"}
{"geometry": {"coordinates": [-97.530739293, 35.488042514], "type": "Point"}, "id": "hDjRKbIYRJapg_H7Nrbhdfapt2E=", "properties": {"@spider": "usps_collection_boxes", "addr:city": "OKLAHOMA CITY", "addr:country": "US", "addr:full": "1108 NW 18TH ST", "addr:postcode": "73106", "addr:state": "OK", "brand": "USPS", "collection_times": "Mo-Fr 15:45", "name": "USPS COLLECTION BOX - BLUE BOX", "note": "ON 12/24 AND 12/31, THIS BOX MAY BE COLLECTED AS EARLY AS 12 NOON.", "ref": "7310600018"}, "type": "Feature"}
{"geometry": {"coordinates": [-97.5306726, 35.489833], "type": "Point"}, "id": "munBNhX3ZDc9VyDxMFcC0S7dKR0=", "properties": {"@spider": "usps_collection_boxes", "addr:city": "OKLAHOMA CITY", "addr:country": "US", "addr:full": "2000 N CLASSEN BLVD", "addr:postcode": "73106", "addr:state": "OK", "brand": "USPS", "collection_times": "Mo-Fr 16:00", "name": "USPS COLLECTION BOX - BLUE BOX", "note": "ON 12/24 AND 12/31, THIS BOX MAY BE COLLECTED AS EARLY AS 12 NOON.", "ref": "7310600022"}, "type": "Feature"}
{"geometry": {"coordinates": [-97.522275009, 35.4674810197], "type": "Point"}, "id": "X-u5ZvaRxlf-Lx45DcDe8IxX53A=", "properties": {"@spider": "usps_collection_boxes", "addr:city": "OKLAHOMA CITY", "addr:country": "US", "addr:full": "520 W MAIN ST", "addr:postcode": "73106", "addr:state": "OK", "brand": "USPS", "collection_times": "Mo-Fr 16:15", "name": "USPS COLLECTION BOX - BLUE BOX", "note": "ON 12/24 AND 12/31, THIS BOX MAY BE COLLECTED AS EARLY AS 12 NOON.", "ref": "7310600036"}, "type": "Feature"}
{"geometry": {"coordinates": [-97.6005405, 35.470221], "type": "Point"}, "id": "doUv2tI56Lie6qwNZgCMwHpx8cs=", "properties": {"@spider": "usps_collection_boxes", "addr:city": "OKLAHOMA CITY", "addr:country": "US", "addr:full": "304 N MERIDIAN AVE", "addr:postcode": "73107", "addr:state": "OK", "brand": "USPS", "collection_times": "Mo-Fr 15:45", "name": "USPS COLLECTION BOX - BLUE BOX", "note": "ON 12/24 AND 12/31, THIS BOX MAY BE COLLECTED AS EARLY AS 12 NOON.", "ref": "7310700002"}, "type": "Feature"}
{"geometry": {"coordinates": [-97.5473653, 35.49405], "type": "Point"}, "id": "EmOC7UagGXa2hoO4gnoSKOY6234=", "properties": {"@spider": "usps_collection_boxes", "addr:city": "OKLAHOMA CITY", "addr:country": "US", "addr:full": "2500 N PENNSYLVANIA AVE", "addr:postcode": "73107", "addr:state": "OK", "brand": "USPS", "collection_times": "Mo-Fr 16:15", "name": "USPS COLLECTION BOX - BLUE BOX", "note": "ON 12/24 AND 12/31, THIS BOX MAY BE COLLECTED AS EARLY AS 12 NOON.", "ref": "7310700007"}, "type": "Feature"}
{"geometry": {"coordinates": [-97.5551513, 35.496033], "type": "Point"}, "id": "VN6qT9uzSTFG21e__UyGbiJzZYQ=", "properties": {"@spider": "usps_collection_boxes", "addr:city": "OKLAHOMA CITY", "addr:country": "US", "addr:full": "2632 N VILLA AVE", "addr:postcode": "73107", "addr:state": "OK", "brand": "USPS", "collection_times": "Mo-Fr 16:15", "name": "USPS COLLECTION BOX - BLUE BOX", "note": "ON 12/24 AND 12/31, THIS BOX MAY BE COLLECTED AS EARLY AS 12 NOON.", "ref": "7310700016"}, "type": "Feature"}
{"geometry": {"coordinates": [-97.5824235, 35.486049528], "type": "Point"}, "id": "I-0TnsVnpyL1eCCdTofYB2iUeDA=", "properties": {"@spider": "usps_collection_boxes", "addr:city": "OKLAHOMA CITY", "addr:country": "US", "addr:full": "3621 NW 16TH ST", "addr:postcode": "73107", "addr:state": "OK", "brand": "USPS", "collection_times": "Mo-Fr 16:00", "name": "USPS COLLECTION BOX - BLUE BOX", "note": "ON 12/24 AND 12/31, THIS BOX MAY BE COLLECTED AS EARLY AS 12 NOON.", "ref": "7310700021"}, "type": "Feature"}
{"geometry": {"coordinates": [-97.5987666126, 35.4523222799], "type": "Point"}, "id": "ykiq_fnFPgSWeebdh4WGvPDxV30=", "properties": {"@spider": "usps_collection_boxes", "addr:city": "OKLAHOMA CITY", "addr:country": "US", "addr:full": "4401 WILL ROGERS PKWY", "addr:postcode": "73108", "addr:state": "OK", "brand": "USPS", "collection_times": "Mo-Fr 16:45", "name": "USPS COLLECTION BOX - BLUE BOX", "note": "ON 12/24 AND 12/31, THIS BOX MAY BE COLLECTED AS EARLY AS 12 NOON.", "ref": "7310800012"}, "type": "Feature"}
{"geometry": {"coordinates": [-97.554626269, 35.454654251], "type": "Point"}, "id": "3lxjFMkrL8iuv6-5L6xZV01tEhg=", "properties": {"@spider": "usps_collection_boxes", "addr:city": "OKLAHOMA CITY", "addr:country": "US", "addr:full": "1101 S AGNEW AVE", "addr:postcode": "73108", "addr:state": "OK", "brand": "USPS", "collection_times": "Mo-Fr 16:00", "name": "USPS COLLECTION BOX - PO LOBBY", "note": "ON 12/24 AND 12/31, THIS BOX MAY BE COLLECTED AS EARLY AS 12 NOON.", "ref": "7310800020"}, "type": "Feature"}
{"geometry": {"coordinates": [-97.5291011, 35.412171], "type": "Point"}, "id": "3Kx28uBQofrJaTXEiU6h7-CCSwA=", "properties": {"@spider": "usps_collection_boxes", "addr:city": "OKLAHOMA CITY", "addr:country": "US", "addr:full": "5350 S WESTERN AVE", "addr:postcode": "73109", "addr:state": "OK", "brand": "USPS", "collection_times": "Mo-Fr 15:30", "name": "USPS COLLECTION BOX - BLUE BOX", "note": "ON 12/24 AND 12/31, THIS BOX MAY BE COLLECTED AS EARLY AS 12 NOON.", "ref": "7310900011"}, "type": "Feature"}
{"geometry": {"coordinates": [-97.5331254, 35.421241], "type": "Point"}, "id": "9iXIQgSWWTHPuj8cGpGC4eRmphc=", "properties": {"@spider": "usps_collection_boxes", "addr:city": "OKLAHOMA CITY", "addr:country": "US", "addr:full": "4401 S WESTERN AVE", "addr:postcode": "73109", "addr:state": "OK", "brand": "USPS", "collection_times": "Mo-Fr 15:30", "name": "USPS COLLECTION BOX - BLUE BOX", "note": "ON 12/24 AND 12/31, THIS BOX MAY BE COLLECTED AS EARLY AS 12 NOON.", "ref": "7310900015"}, "type": "Feature"}
{"geometry": {"coordinates": [-97.526239, 35.434722], "type": "Point"}, "id": "fh46lIfi3TAwYt1CQ9PLdtTPrmk=", "properties": {"@spider": "usps_collection_boxes", "addr:city": "OKLAHOMA CITY", "addr:country": "US", "addr:full": "700 SW 29TH ST", "addr:postcode": "73109", "addr:state": "OK", "brand": "USPS", "collection_times": "Mo-Fr 16:00", "name": "USPS COLLECTION BOX - BLUE BOX", "note": "ON 12/24 AND 12/31, THIS BOX MAY BE COLLECTED AS EARLY AS 12 NOON.", "ref": "7310900020"}, "type": "Feature"}
{"geometry": {"coordinates": [-97.5304305, 35.431523], "type": "Point"}, "id": "gyGOHgFjMcsmn4PvyZD76E8Qkag=", "properties": {"@spider": "usps_collection_boxes", "addr:city": "OKLAHOMA CITY", "addr:country": "US", "addr:full": "3301 S WESTERN AVE", "addr:postcode": "73109", "addr:state": "OK", "brand": "USPS", "collection_times": "Mo-Fr 15:45", "name": "USPS COLLECTION BOX - BLUE BOX", "note": "ON 12/24 AND 12/31, THIS BOX MAY BE COLLECTED AS EARLY AS 12 NOON.", "ref": "7310900021"}, "type": "Feature"}
{"geometry": {"coordinates": [-97.516193718, 35.4385622515], "type": "Point"}, "id": "jgzMs1WoFJrZPIdchwNjaA4A9ck=", "properties": {"@spider": "usps_collection_boxes", "addr:city": "OKLAHOMA CITY", "addr:country": "US", "addr:full": "2617 S ROBINSON AVE", "addr:postcode": "73109", "addr:state": "OK", "brand": "USPS", "collection_times": "Mo-Fr 16:00", "name": "USPS COLLECTION BOX - BLUE BOX", "note": "ON 12/24 AND 12/31, THIS BOX MAY BE COLLECTED AS EARLY AS 12 NOON.", "ref": "7310900024"}, "type": "Feature"}
{"geometry": {"coordinates": [-97.4081905, 35.464965], "type": "Point"}, "id": "nRnuqVaOX71tZbDo7EEs2JFZnFA=", "properties": {"@spider": "usps_collection_boxes", "addr:city": "MIDWEST CITY", "addr:country": "US", "addr:full": "6801 E RENO AVE", "addr:postcode": "73110", "addr:state": "OK", "brand": "USPS", "collection_times": "Mo-Fr 16:00", "name": "USPS COLLECTION BOX - BLUE BOX", "note": "ON 12/24 AND 12/31, THIS BOX MAY BE COLLECTED AS EARLY AS 12 NOON.", "ref": "7311000007"}, "type": "Feature"}
{"geometry": {"coordinates": [-97.4061979, 35.447151], "type": "Point"}, "id": "tBs-d2WvN_d7dhJG73inMdOduNQ=", "properties": {"@spider": "usps_collection_boxes", "addr:city": "MIDWEST CITY", "addr:country": "US", "addr:full": "1805 S AIR DEPOT BLVD", "addr:postcode": "73110", "addr:state": "OK", "brand": "USPS", "collection_times": "Mo-Fr 16:00", "name": "USPS COLLECTION BOX - BLUE BOX", "note": "ON 12/24 AND 12/31, THIS BOX MAY BE COLLECTED AS EARLY AS 12 NOON.", "ref": "7311000009"}, "type": "Feature"}
{"geometry": {"coordinates": [-97.4061799, 35.435903], "type": "Point"}, "id": "g8TX12eiupIb8V3NU00w4kxnJCk=", "properties": {"@spider": "usps_collection_boxes", "addr:city": "MIDWEST CITY", "addr:country": "US", "addr:full": "2911 S AIR DEPOT BLVD", "addr:postcode": "73110", "addr:state": "OK", "brand": "USPS", "collection_times": "Mo-Fr 16:15", "name": "USPS COLLECTION BOX - BLUE BOX", "note": "ON 12/24 AND 12/31, THIS BOX MAY BE COLLECTED AS EARLY AS 12 NOON.", "ref": "7311000010"}, "type": "Feature"}
{"geometry": {"coordinates": [-97.3883081, 35.45034], "type": "Point"}, "id": "rYailKO6cCcKIfb-cDBqP6kYvls=", "properties": {"@spider": "usps_collection_boxes", "addr:city": "MIDWEST CITY", "addr:country": "US", "addr:full": "1500 S MIDWEST BLVD", "addr:postcode": "73110", "addr:state": "OK", "brand": "USPS", "collection_times": "Mo-Fr 15:15", "name": "USPS COLLECTION BOX - BLUE BOX", "note": "ON 12/24 AND 12/31, THIS BOX MAY BE COLLECTED AS EARLY AS 12 NOON.", "ref": "7311000015"}, "type": "Feature"}
{"geometry": {"coordinates": [-97.3841531, 35.464206], "type": "Point"}, "id": "BEYjh-1BURAWcO5PLMZ3_6D-n8Y=", "properties": {"@spider": "usps_collection_boxes", "addr:city": "MIDWEST CITY", "addr:country": "US", "addr:full": "8275 E RENO AVE", "addr:postcode": "73110", "addr:state": "OK", "brand": "USPS", "collection_times": "Mo-Fr 17:00; Sa 16:00", "name": "USPS COLLECTION BOX - BLUE BOX", "note": "ON 12/24 AND 12/31, THIS BOX MAY BE COLLECTED AS EARLY AS 12 NOON.", "ref": "7311000017"}, "type": "Feature"}
{"geometry": {"coordinates": [-97.3841123, 35.46421], "type": "Point"}, "id": "Nu6c65RaJMKBW9PmzsVC5hDF_Is=", "properties": {"@spider": "usps_collection_boxes", "addr:city": "MIDWEST CITY", "addr:country": "US", "addr:full": "8275 E RENO AVE", "addr:postcode": "73110", "addr:state": "OK", "brand": "USPS", "collection_times": "Mo-Fr 17:00; Sa 16:00", "name": "USPS COLLECTION BOX - BLUE BOX", "note": "ON 12/24 AND 12/31, THIS BOX MAY BE COLLECTED AS EARLY AS 12 NOON.", "ref": "7311000019"}, "type": "Feature"}
{"geometry": {"coordinates": [-97.3864254, 35.46699], "type": "Point"}, "id": "ntDMQ6hE0IE0Px5sKBY5q8YFsMY=", "properties": {"@spider": "usps_collection_boxes", "addr:city": "MIDWEST CITY", "addr:country": "US", "addr:full": "8121 NATIONAL AVE", "addr:postcode": "73110", "addr:state": "OK", "brand": "USPS", "collection_times": "Mo-Fr 15:45", "name": "USPS COLLECTION BOX - BLUE BOX", "note": "ON 12/24 AND 12/31, THIS BOX MAY BE COLLECTED AS EARLY AS 12 NOON.", "ref": "7311000023"}, "type": "Feature"}
{"geometry": {"coordinates": [-97.3881473733, 35.4663612954], "type": "Point"}, "id": "rWoA16blCiSjpc8H3Hxo6egspdw=", "properties": {"@spider": "usps_collection_boxes", "addr:city": "MIDWEST CITY", "addr:country": "US", "addr:full": "8121 NATIONAL AVE", "addr:postcode": "73110", "addr:state": "OK", "brand": "USPS", "collection_times": "Mo-Fr 15:45", "name": "USPS COLLECTION BOX - BLUE BOX", "note": "ON 12/24 AND 12/31, THIS BOX MAY BE COLLECTED AS EARLY AS 12 NOON.", "ref": "7311000024"}, "type": "Feature"}
{"geometry": {"coordinates": [-97.3931593, 35.466838], "type": "Point"}, "id": "WpNGsLHKxEd1-37RGOGk5VUpJ4M=", "properties": {"@spider": "usps_collection_boxes", "addr:city": "MIDWEST CITY", "addr:country": "US", "addr:full": "2825 PARKLAWN DR", "addr:postcode": "73110", "addr:state": "OK", "brand": "USPS", "collection_times": "Mo-Fr 15:45", "name": "USPS COLLECTION BOX - BLUE BOX", "note": "ON 12/24 AND 12/31, THIS BOX MAY BE COLLECTED AS EARLY AS 12 NOON.", "ref": "7311000025"}, "type": "Feature"}
{"geometry": {"coordinates": [-97.423157, 35.439262], "type": "Point"}, "id": "_WI-nBwvnU4_et-b_0f8_QcHO6U=", "properties": {"@spider": "usps_collection_boxes", "addr:city": "MIDWEST CITY", "addr:country": "US", "addr:full": "5600 LIBERTY PKWY", "addr:postcode": "73110", "addr:state": "OK", "brand": "USPS", "collection_times": "Mo-Fr 16:15", "name": "USPS COLLECTION BOX - BLUE BOX", "note": "ON 12/24 AND 12/31, THIS BOX MAY BE COLLECTED AS EARLY AS 12 NOON.", "ref": "7311000031"}, "type": "Feature"}
{"geometry": {"coordinates": [-97.383746, 35.464087], "type": "Point"}, "id": "dUzeQkMVz6HiSe310ZU5t4b-RNY=", "properties": {"@spider": "usps_collection_boxes", "addr:city": "MIDWEST CITY", "addr:country": "US", "addr:full": "8275 E RENO AVE", "addr:postcode": "73110", "addr:state": "OK", "brand": "USPS", "collection_times": "Mo-Fr 17:00; Sa 16:00", "name": "USPS COLLECTION BOX - PO LOBBY", "note": "ON 12/24 AND 12/31, THIS BOX MAY BE COLLECTED AS EARLY AS 12 NOON.", "ref": "7311000042"}, "type": "Feature"}
{"geometry": {"coordinates": [-97.383746, 35.464087], "type": "Point"}, "id": "WVBNhWgzhfwuiQUXpkai5kzdpAI=", "properties": {"@spider": "usps_collection_boxes", "addr:city": "MIDWEST CITY", "addr:country": "US", "addr:full": "8275 E RENO AVE", "addr:postcode": "73110", "addr:state": "OK", "brand": "USPS", "collection_times": "Mo-Fr 17:00; Sa 16:00", "name": "USPS COLLECTION BOX - PO LOBBY", "note": "ON 12/24 AND 12/31, THIS BOX MAY BE COLLECTED AS EARLY AS 12 NOON.", "ref": "7311000044"}, "type": "Feature"}
{"geometry": {"coordinates": [-97.383746, 35.464087], "type": "Point"}, "id": "sN-Od6fGruuoH1_Tx-MxgL3S03U=", "properties": {"@spider": "usps_collection_boxes", "addr:city": "MIDWEST CITY", "addr:country": "US", "addr:full": "8275 E RENO AVE", "addr:postcode": "73110", "addr:state": "OK", "brand": "USPS", "collection_times": "Mo-Fr 17:00; Sa 16:00", "name": "USPS COLLECTION BOX - APC", "note": "ON 12/24 AND 12/31, THIS BOX MAY BE COLLECTED AS EARLY AS 12 NOON.", "ref": "7311000046"}, "type": "Feature"}
{"geometry": {"coordinates": [-97.383697695, 35.464129189], "type": "Point"}, "id": "uTKiilJUhjuoOQ8uINy1GUMbChg=", "properties": {"@spider": "usps_collection_boxes", "addr:city": "MIDWEST CITY", "addr:country": "US", "addr:full": "8275 E RENO AVE", "addr:postcode": "73110", "addr:state": "OK", "brand": "USPS", "collection_times": "Mo-Fr 18:00; Sa 13:00", "name": "USPS COLLECTION BOX - PO LOBBY", "note": "ON 12/24 AND 12/31, THIS BOX MAY BE COLLECTED AS EARLY AS 12 NOON.", "ref": "7311000054"}, "type": "Feature"}
{"geometry": {"coordinates": [-97.4948699, 35.494382], "type": "Point"}, "id": "e6lxFJoK4SXCOGdOsA7SM8NDv0M=", "properties": {"@spider": "usps_collection_boxes", "addr:city": "OKLAHOMA CITY", "addr:country": "US", "addr:full": "2409 N KELLEY AVE", "addr:postcode": "73111", "addr:state": "OK", "brand": "USPS", "collection_times": "Mo-Fr 15:45", "name": "USPS COLLECTION BOX - BLUE BOX", "note": "ON 12/24 AND 12/31, THIS BOX MAY BE COLLECTED AS EARLY AS 12 NOON.", "ref": "7311100001"}, "type": "Feature"}
{"geometry": {"coordinates": [-97.4745066, 35.505882], "type": "Point"}, "id": "YyljQXJ_Bzubaf9a9IqGaHV8JNc=", "properties": {"@spider": "usps_collection_boxes", "addr:city": "OKLAHOMA CITY", "addr:country": "US", "addr:full": "3600 N MARTIN LUTHER KING AVE", "addr:postcode": "73111", "addr:state": "OK", "brand": "USPS", "collection_times": "Mo-Fr 15:45", "name": "USPS COLLECTION BOX - BLUE BOX", "note": "ON 12/24 AND 12/31, THIS BOX MAY BE COLLECTED AS EARLY AS 12 NOON.", "ref": "7311100002"}, "type": "Feature"}
{"geometry": {"coordinates": [-97.4594877, 35.536689], "type": "Point"}, "id": "YadW4OOXpRua8B4yAqFl-WnnPZg=", "properties": {"@spider": "usps_collection_boxes", "addr:city": "OKLAHOMA CITY", "addr:country": "US", "addr:full": "2928 NE 63RD ST", "addr:postcode": "73111", "addr:state": "OK", "brand": "USPS", "collection_times": "Mo-Fr 16:15", "name": "USPS COLLECTION BOX - BLUE BOX", "note": "ON 12/24 AND 12/31, THIS BOX MAY BE COLLECTED AS EARLY AS 12 NOON.", "ref": "7311100004"}, "type": "Feature"}
{"geometry": {"coordinates": [-97.4835889, 35.493623], "type": "Point"}, "id": "htSfN0Iu-RT6_8R8aHUMguQiLbQ=", "properties": {"@spider": "usps_collection_boxes", "addr:city": "OKLAHOMA CITY", "addr:country": "US", "addr:full": "1541 NE 23RD ST", "addr:postcode": "73111", "addr:state": "OK", "brand": "USPS", "collection_times": "Mo-Fr 15:45", "name": "USPS COLLECTION BOX - BLUE BOX", "note": "ON 12/24 AND 12/31, THIS BOX MAY BE COLLECTED AS EARLY AS 12 NOON.", "ref": "7311100014"}, "type": "Feature"}
{"geometry": {"coordinates": [-97.4629769, 35.49345], "type": "Point"}, "id": "4oxEUek3KMymb7F2K6fXwW8UZ6E=", "properties": {"@spider": "usps_collection_boxes", "addr:city": "OKLAHOMA CITY", "addr:country": "US", "addr:full": "2501 NE 23RD ST STE E", "addr:postcode": "73111", "addr:state": "OK", "brand": "USPS", "collection_times": "Mo-Fr 16:15", "name": "USPS COLLECTION BOX - BLUE BOX", "note": "ON 12/24 AND 12/31, THIS BOX MAY BE COLLECTED AS EARLY AS 12 NOON.", "ref": "7311100018"}, "type": "Feature"}
{"geometry": {"coordinates": [-97.5579954, 35.525917], "type": "Point"}, "id": "2j1nP7yMIV71QJrJuxjGwhwTS_g=", "properties": {"@spider": "usps_collection_boxes", "addr:city": "OKLAHOMA CITY", "addr:country": "US", "addr:full": "2525 NW EXPRESSWAY", "addr:postcode": "73112", "addr:state": "OK", "brand": "USPS", "collection_times": "Mo-Fr 16:00", "name": "USPS COLLECTION BOX - BLUE BOX", "note": "ON 12/24 AND 12/31, THIS BOX MAY BE COLLECTED AS EARLY AS 12 NOON.", "ref": "7311200001"}, "type": "Feature"}
{"geometry": {"coordinates": [-97.549993, 35.521732], "type": "Point"}, "id": "d2OAJDi4Vjb5Rz9DO_8DEVo7Xpg=", "properties": {"@spider": "usps_collection_boxes", "addr:city": "OKLAHOMA CITY", "addr:country": "US", "addr:full": "2200 NW 50TH ST", "addr:postcode": "73112", "addr:state": "OK", "brand": "USPS", "collection_times": "Mo-Fr 16:30", "name": "USPS COLLECTION BOX - BLUE BOX", "note": "ON 12/24 AND 12/31, THIS BOX MAY BE COLLECTED AS EARLY AS 12 NOON.", "ref": "7311200015"}, "type": "Feature"}
{"geometry": {"coordinates": [-97.5499965, 35.521739], "type": "Point"}, "id": "LZjhpPlwogYHcO8ibQGGGrRqQPI=", "properties": {"@spider": "usps_collection_boxes", "addr:city": "OKLAHOMA CITY", "addr:country": "US", "addr:full": "2200 NW 50TH ST", "addr:postcode": "73112", "addr:state": "OK", "brand": "USPS", "collection_times": "Mo-Fr 16:30", "name": "USPS COLLECTION BOX - BLUE BOX", "note": "ON 12/24 AND 12/31, THIS BOX MAY BE COLLECTED AS EARLY AS 12 NOON.", "ref": "7311200017"}, "type": "Feature"}
{"geometry": {"coordinates": [-97.5500083, 35.52175], "type": "Point"}, "id": "rsipQB_Jh77UJPjJ2ofNbRpDSpM=", "properties": {"@spider": "usps_collection_boxes", "addr:city": "OKLAHOMA CITY", "addr:country": "US", "addr:full": "2200 NW 50TH ST", "addr:postcode": "73112", "addr:state": "OK", "brand": "USPS", "collection_times": "Mo-Fr 16:30", "name": "USPS COLLECTION BOX - BLUE BOX", "note": "ON 12/24 AND 12/31, THIS BOX MAY BE COLLECTED AS EARLY AS 12 NOON.", "ref": "7311200018"}, "type": "Feature"}
{"geometry": {"coordinates": [-97.5806119, 35.529539], "type": "Point"}, "id": "m8fG3NC-YzdNt8fyl_-HPJx9jo8=", "properties": {"@spider": "usps_collection_boxes", "addr:city": "OKLAHOMA CITY", "addr:country": "US", "addr:full": "3520 NW 58TH ST", "addr:postcode": "73112", "addr:state": "OK", "brand": "USPS", "collection_times": "Mo-Fr 16:30", "name": "USPS COLLECTION BOX - BLUE BOX", "note": "ON 12/24 AND 12/31, THIS BOX MAY BE COLLECTED AS EARLY AS 12 NOON.", "ref": "7311200022"}, "type": "Feature"}
{"geometry": {"coordinates": [-97.5752485, 35.527008], "type": "Point"}, "id": "Hf-jholLQOCeWrURGTrk5TyxU_Q=", "properties": {"@spider": "usps_collection_boxes", "addr:city": "OKLAHOMA CITY", "addr:country": "US", "addr:full": "3330 NW 56TH ST", "addr:postcode": "73112", "addr:state": "OK", "brand": "USPS", "collection_times": "Mo-Fr 15:30", "name": "USPS COLLECTION BOX - BLUE BOX", "note": "ON 12/24 AND 12/31, THIS BOX MAY BE COLLECTED AS EARLY AS 12 NOON.", "ref": "7311200032"}, "type": "Feature"}
{"geometry": {"coordinates": [-97.5760695, 35.52588], "type": "Point"}, "id": "xo0icxZgaNXSErQxi0O0hxgtzlw=", "properties": {"@spider": "usps_collection_boxes", "addr:city": "OKLAHOMA CITY", "addr:country": "US", "addr:full": "5400 N GRAND BLVD", "addr:postcode": "73112", "addr:state": "OK", "brand": "USPS", "collection_times": "Mo-Fr 15:30", "name": "USPS COLLECTION BOX - BLUE BOX", "note": "ON 12/24 AND 12/31, THIS BOX MAY BE COLLECTED AS EARLY AS 12 NOON.", "ref": "7311200033"}, "type": "Feature"}
{"geometry": {"coordinates": [-97.5821794, 35.528587], "type": "Point"}, "id": "mzJbbQ4fgjMhZhvpvVADOdteGBg=", "properties": {"@spider": "usps_collection_boxes", "addr:city": "OKLAHOMA CITY", "addr:country": "US", "addr:full": "3625 NW 56TH ST", "addr:postcode": "73112", "addr:state": "OK", "brand": "USPS", "collection_times": "Mo-Fr 16:30", "name": "USPS COLLECTION BOX - BLUE BOX", "note": "ON 12/24 AND 12/31, THIS BOX MAY BE COLLECTED AS EARLY AS 12 NOON.", "ref": "7311200038"}, "type": "Feature"}
{"geometry": {"coordinates": [-97.5757844, 35.526226], "type": "Point"}, "id": "lZ8j0-ERRMFyk2Il7gQabIkSPKw=", "properties": {"@spider": "usps_collection_boxes", "addr:city": "OKLAHOMA CITY", "addr:country": "US", "addr:full": "5400 N GRAND BLVD", "addr:postcode": "73112", "addr:state": "OK", "brand": "USPS", "collection_times": "Mo-Fr 15:30", "name": "USPS COLLECTION BOX - BLUE BOX", "note": "ON 12/24 AND 12/31, THIS BOX MAY BE COLLECTED AS EARLY AS 12 NOON.", "ref": "7311200042"}, "type": "Feature"}
{"geometry": {"coordinates": [-97.5839186, 35.525927], "type": "Point"}, "id": "s20DgfOMaaU47BbbAyf9d5r2gRs=", "properties": {"@spider": "usps_collection_boxes", "addr:city": "OKLAHOMA CITY", "addr:country": "US", "addr:full": "5401 N PORTLAND AVE", "addr:postcode": "73112", "addr:state": "OK", "brand": "USPS", "collection_times": "Mo-Fr 16:00", "name": "USPS COLLECTION BOX - BLUE BOX", "note": "ON 12/24 AND 12/31, THIS BOX MAY BE COLLECTED AS EARLY AS 12 NOON.", "ref": "7311200065"}, "type": "Feature"}
{"geometry": {"coordinates": [-97.5843674, 35.527354], "type": "Point"}, "id": "yQ0MKRdmrACkim7qC6V2W1D1ig4=", "properties": {"@spider": "usps_collection_boxes", "addr:city": "OKLAHOMA CITY", "addr:country": "US", "addr:full": "5501 N PORTLAND AVE", "addr:postcode": "73112", "addr:state": "OK", "brand": "USPS", "collection_times": "Mo-Fr 16:00", "name": "USPS COLLECTION BOX - BLUE BOX", "note": "ON 12/24 AND 12/31, THIS BOX MAY BE COLLECTED AS EARLY AS 12 NOON.", "ref": "7311200066"}, "type": "Feature"}
{"geometry": {"coordinates": [-97.583103, 35.528886], "type": "Point"}, "id": "SKsY64vPYY8ADJKSuvqWIXdLtoA=", "properties": {"@spider": "usps_collection_boxes", "addr:city": "OKLAHOMA CITY", "addr:country": "US", "addr:full": "5700 N PORTLAND AVE", "addr:postcode": "73112", "addr:state": "OK", "brand": "USPS", "collection_times": "Mo-Fr 16:15", "name": "USPS COLLECTION BOX - BLUE BOX", "note": "ON 12/24 AND 12/31, THIS BOX MAY BE COLLECTED AS EARLY AS 12 NOON.", "ref": "7311200067"}, "type": "Feature"}
{"geometry": {"coordinates": [-97.5848585, 35.527949], "type": "Point"}, "id": "c3dGkmNvrPVJMG8rvHtCmswiy4M=", "properties": {"@spider": "usps_collection_boxes", "addr:city": "OKLAHOMA CITY", "addr:country": "US", "addr:full": "5701 N PORTLAND AVE", "addr:postcode": "73112", "addr:state": "OK", "brand": "USPS", "collection_times": "Mo-Fr 16:00", "name": "USPS COLLECTION BOX - BLUE BOX", "note": "ON 12/24 AND 12/31, THIS BOX MAY BE COLLECTED AS EARLY AS 12 NOON.", "ref": "7311200068"}, "type": "Feature"}
{"geometry": {"coordinates": [-97.5689685, 35.5111255462], "type": "Point"}, "id": "p5_H_ar3uGIRzHC_Qifo07VcQbA=", "properties": {"@spider": "usps_collection_boxes", "addr:city": "OKLAHOMA CITY", "addr:country": "US", "addr:full": "3022 NW 39TH EXPY", "addr:postcode": "73112", "addr:state": "OK", "brand": "USPS", "collection_times": "Mo-Fr 17:00; Sa 16:30", "name": "USPS COLLECTION BOX - BLUE BOX", "note": "ON 12/24 AND 12/31, THIS BOX MAY BE COLLECTED AS EARLY AS 12 NOON.", "ref": "7311200073"}, "type": "Feature"}
{"geometry": {"coordinates": [-97.5930010051, 35.5146930113], "type": "Point"}, "id": "lY9r0oujV5L7D2QTwl9bz0pedMc=", "properties": {"@spider": "usps_collection_boxes", "addr:city": "OKLAHOMA CITY", "addr:country": "US", "addr:full": "4200 PERIMETER CENTER DR", "addr:postcode": "73112", "addr:state": "OK", "brand": "USPS", "collection_times": "Mo-Fr 15:45", "name": "USPS COLLECTION BOX - BLUE BOX", "note": "ON 12/24 AND 12/31, THIS BOX MAY BE COLLECTED AS EARLY AS 12 NOON.", "ref": "7311200081"}, "type": "Feature"}
{"geometry": {"coordinates": [-97.5665514, 35.529295], "type": "Point"}, "id": "kfwYmMHI-IAQTQ25Imeu27qtuho=", "properties": {"@spider": "usps_collection_boxes", "addr:city": "OKLAHOMA CITY", "addr:country": "US", "addr:full": "2915 UNITED FOUNDERS BLVD", "addr:postcode": "73112", "addr:state": "OK", "brand": "USPS", "collection_times": "Mo-Fr 15:45", "name": "USPS COLLECTION BOX - BLUE BOX", "note": "ON 12/24 AND 12/31, THIS BOX MAY BE COLLECTED AS EARLY AS 12 NOON.", "ref": "7311200085"}, "type": "Feature"}
{"geometry": {"coordinates": [-97.5665492, 35.529295], "type": "Point"}, "id": "IY1p61M5qFh17FPcPOqVHPZL6So=", "properties": {"@spider": "usps_collection_boxes", "addr:city": "OKLAHOMA CITY", "addr:country": "US", "addr:full": "2915 UNITED FOUNDERS BLVD", "addr:postcode": "73112", "addr:state": "OK", "brand": "USPS", "collection_times": "Mo-Fr 15:45", "name": "USPS COLLECTION BOX - BLUE BOX", "note": "ON 12/24 AND 12/31, THIS BOX MAY BE COLLECTED AS EARLY AS 12 NOON.", "ref": "7311200086"}, "type": "Feature"}
{"geometry": {"coordinates": [-97.5665393, 35.529292], "type": "Point"}, "id": "RlyvKYwgNCXzZL10NtDxViAVbAo=", "properties": {"@spider": "usps_collection_boxes", "addr:city": "OKLAHOMA CITY", "addr:country": "US", "addr:full": "2915 UNITED FOUNDERS BLVD", "addr:postcode": "73112", "addr:state": "OK", "brand": "USPS", "collection_times": "Mo-Fr 15:45", "name": "USPS COLLECTION BOX - BLUE BOX", "note": "ON 12/24 AND 12/31, THIS BOX MAY BE COLLECTED AS EARLY AS 12 NOON.", "ref": "7311200087"}, "type": "Feature"}
{"geometry": {"coordinates": [-97.5682999, 35.528807], "type": "Point"}, "id": "O8qKG9COS72gU475glQDIvHYBOE=", "properties": {"@spider": "usps_collection_boxes", "addr:city": "OKLAHOMA CITY", "addr:country": "US", "addr:full": "3000 UNITED FOUNDERS BLVD", "addr:postcode": "73112", "addr:state": "OK", "brand": "USPS", "collection_times": "Mo-Fr 15:30", "name": "USPS COLLECTION BOX - BLUE BOX", "note": "ON 12/24 AND 12/31, THIS BOX MAY BE COLLECTED AS EARLY AS 12 NOON.", "ref": "7311200089"}, "type": "Feature"}
{"geometry": {"coordinates": [-97.576466739, 35.530456127], "type": "Point"}, "id": "ixSnSAXaESBEZc_41ZEWFcvgAI4=", "properties": {"@spider": "usps_collection_boxes", "addr:city": "OKLAHOMA CITY", "addr:country": "US", "addr:full": "3300 NW EXPRESSWAY", "addr:postcode": "73112", "addr:state": "OK", "brand": "USPS", "collection_times": "Mo-Fr 15:30", "name": "USPS COLLECTION BOX - BLUE BOX", "note": "ON 12/24 AND 12/31, THIS BOX MAY BE COLLECTED AS EARLY AS 12 NOON.", "ref": "7311200100"}, "type": "Feature"}
{"geometry": {"coordinates": [-97.5842075, 35.535182], "type": "Point"}, "id": "lxei0DBZnnTMJLj1aeZTCxFNDWc=", "properties": {"@spider": "usps_collection_boxes", "addr:city": "OKLAHOMA CITY", "addr:country": "US", "addr:full": "6303 N PORTLAND AVE", "addr:postcode": "73112", "addr:state": "OK", "brand": "USPS", "collection_times": "Mo-Fr 16:15", "name": "USPS COLLECTION BOX - BLUE BOX", "note": "ON 12/24 AND 12/31, THIS BOX MAY BE COLLECTED AS EARLY AS 12 NOON.", "ref": "7311200104"}, "type": "Feature"}
{"geometry": {"coordinates": [-97.5943659, 35.513454], "type": "Point"}, "id": "SBzcP2IZtM33bHi0IeJo4RRrjJU=", "properties": {"@spider": "usps_collection_boxes", "addr:city": "OKLAHOMA CITY", "addr:country": "US", "addr:full": "4101 PERIMETER CENTER DR", "addr:postcode": "73112", "addr:state": "OK", "brand": "USPS", "collection_times": "Mo-Fr 15:45", "name": "USPS COLLECTION BOX - BLUE BOX", "note": "ON 12/24 AND 12/31, THIS BOX MAY BE COLLECTED AS EARLY AS 12 NOON.", "ref": "7311200110"}, "type": "Feature"}
{"geometry": {"coordinates": [-97.5796033, 35.52609], "type": "Point"}, "id": "okBRdswX41nwJJW2o94aUtqW9S8=", "properties": {"@spider": "usps_collection_boxes", "addr:city": "OKLAHOMA CITY", "addr:country": "US", "addr:full": "5555 N GRAND BLVD", "addr:postcode": "73112", "addr:state": "OK", "brand": "USPS", "collection_times": "Mo-Fr 16:30", "name": "USPS COLLECTION BOX - BLUE BOX", "note": "ON 12/24 AND 12/31, THIS BOX MAY BE COLLECTED AS EARLY AS 12 NOON.", "ref": "7311200127"}, "type": "Feature"}
{"geometry": {"coordinates": [-97.5829796, 35.530902], "type": "Point"}, "id": "hQPnTNYHvMVS9h5ka1hu4Mfb9eM=", "properties": {"@spider": "usps_collection_boxes", "addr:city": "OKLAHOMA CITY", "addr:country": "US", "addr:full": "3555 NW 58TH ST", "addr:postcode": "73112", "addr:state": "OK", "brand": "USPS", "collection_times": "Mo-Fr 16:15", "name": "USPS COLLECTION BOX - BLUE BOX", "note": "ON 12/24 AND 12/31, THIS BOX MAY BE COLLECTED AS EARLY AS 12 NOON.", "ref": "7311200130"}, "type": "Feature"}
{"geometry": {"coordinates": [-97.5817111, 35.530415], "type": "Point"}, "id": "Q8bHWd-oOsxsqJXL47Zx5G9sf3c=", "properties": {"@spider": "usps_collection_boxes", "addr:city": "OKLAHOMA CITY", "addr:country": "US", "addr:full": "3545 NW 58TH ST", "addr:postcode": "73112", "addr:state": "OK", "brand": "USPS", "collection_times": "Mo-Fr 16:15", "name": "USPS COLLECTION BOX - BLUE BOX", "note": "ON 12/24 AND 12/31, THIS BOX MAY BE COLLECTED AS EARLY AS 12 NOON.", "ref": "7311200131"}, "type": "Feature"}
{"geometry": {"coordinates": [-97.5806393, 35.530831], "type": "Point"}, "id": "fd0smaqXWHLhM4iWn8iSqA5Hkxo=", "properties": {"@spider": "usps_collection_boxes", "addr:city": "OKLAHOMA CITY", "addr:country": "US", "addr:full": "3535 NW 58TH ST", "addr:postcode": "73112", "addr:state": "OK", "brand": "USPS", "collection_times": "Mo-Fr 16:15", "name": "USPS COLLECTION BOX - BLUE BOX", "note": "ON 12/24 AND 12/31, THIS BOX MAY BE COLLECTED AS EARLY AS 12 NOON.", "ref": "7311200132"}, "type": "Feature"}
{"geometry": {"coordinates": [-97.568972, 35.511122], "type": "Point"}, "id": "Crrk9t6jLL59RbM2Ky8RmJhs-Nk=", "properties": {"@spider": "usps_collection_boxes", "addr:city": "OKLAHOMA CITY", "addr:country": "US", "addr:full": "3022 NW 39TH EXPY", "addr:postcode": "73112", "addr:state": "OK", "brand": "USPS", "collection_times": "Mo-Fr 17:00; Sa 16:30", "name": "USPS COLLECTION BOX - PO LOBBY", "note": "ON 12/24 AND 12/31, THIS BOX MAY BE COLLECTED AS EARLY AS 12 NOON.", "ref": "7311200134"}, "type": "Feature"}
{"geometry": {"coordinates": [-97.568972, 35.511122], "type": "Point"}, "id": "qqfjwnQewGjV2zVbLrNG3WMeDWA=", "properties": {"@spider": "usps_collection_boxes", "addr:city": "OKLAHOMA CITY", "addr:country": "US", "addr:full": "3022 NW 39TH EXPY", "addr:postcode": "73112", "addr:state": "OK", "brand": "USPS", "collection_times": "Mo-Fr 17:00; Sa 16:30", "name": "USPS COLLECTION BOX - PO LOBBY", "note": "ON 12/24 AND 12/31, THIS BOX MAY BE COLLECTED AS EARLY AS 12 NOON.", "ref": "7311200138"}, "type": "Feature"}
{"geometry": {"coordinates": [-97.568972, 35.511122], "type": "Point"}, "id": "5Tp2GLsjlYBbNm7h_zoxg411mdM=", "properties": {"@spider": "usps_collection_boxes", "addr:city": "OKLAHOMA CITY", "addr:country": "US", "addr:full": "3022 NW 39TH EXPY", "addr:postcode": "73112", "addr:state": "OK", "brand": "USPS", "collection_times": "Mo-Fr 17:00; Sa 16:30", "name": "USPS COLLECTION BOX - PO LOBBY", "note": "ON 12/24 AND 12/31, THIS BOX MAY BE COLLECTED AS EARLY AS 12 NOON.", "ref": "7311200139"}, "type": "Feature"}
{"geometry": {"coordinates": [-97.5806559, 35.530837], "type": "Point"}, "id": "d6Xlmjbl_0IjFZrMY3hVDHXnjB8=", "properties": {"@spider": "usps_collection_boxes", "addr:city": "OKLAHOMA CITY", "addr:country": "US", "addr:full": "3535 NW 58TH ST", "addr:postcode": "73112", "addr:state": "OK", "brand": "USPS", "collection_times": "Mo-Fr 16:15", "name": "USPS COLLECTION BOX - BLUE BOX", "note": "ON 12/24 AND 12/31, THIS BOX MAY BE COLLECTED AS EARLY AS 12 NOON.", "ref": "7311200140"}, "type": "Feature"}
{"geometry": {"coordinates": [-97.5817244, 35.530375], "type": "Point"}, "id": "wvIHmXZ3Yc_11yg-hQKCI0EiHHw=", "properties": {"@spider": "usps_collection_boxes", "addr:city": "OKLAHOMA CITY", "addr:country": "US", "addr:full": "3545 NW 58TH ST", "addr:postcode": "73112", "addr:state": "OK", "brand": "USPS", "collection_times": "Mo-Fr 16:15", "name": "USPS COLLECTION BOX - BLUE BOX", "note": "ON 12/24 AND 12/31, THIS BOX MAY BE COLLECTED AS EARLY AS 12 NOON.", "ref": "7311200142"}, "type": "Feature"}
{"geometry": {"coordinates": [-97.5829858, 35.530883], "type": "Point"}, "id": "L3ro7IRHS8VbK2O0inBzF5jevJo=", "properties": {"@spider": "usps_collection_boxes", "addr:city": "OKLAHOMA CITY", "addr:country": "US", "addr:full": "3555 NW 58TH ST", "addr:postcode": "73112", "addr:state": "OK", "brand": "USPS", "collection_times": "Mo-Fr 16:15", "name": "USPS COLLECTION BOX - BLUE BOX", "note": "ON 12/24 AND 12/31, THIS BOX MAY BE COLLECTED AS EARLY AS 12 NOON.", "ref": "7311200144"}, "type": "Feature"}
{"geometry": {"coordinates": [-97.5641091, 35.528051], "type": "Point"}, "id": "zyRn0xHd1rI_EJMWH4KzONgQ388=", "properties": {"@spider": "usps_collection_boxes", "addr:city": "OKLAHOMA CITY", "addr:country": "US", "addr:full": "5600 N MAY AVE", "addr:postcode": "73112", "addr:state": "OK", "brand": "USPS", "collection_times": "Mo-Fr 16:15", "name": "USPS COLLECTION BOX - BLUE BOX", "note": "ON 12/24 AND 12/31, THIS BOX MAY BE COLLECTED AS EARLY AS 12 NOON.", "ref": "7311200148"}, "type": "Feature"}
{"geometry": {"coordinates": [-97.6015549, 35.514362], "type": "Point"}, "id": "3J7uHREizTsysc7NnAmROs1L6f4=", "properties": {"@spider": "usps_collection_boxes", "addr:city": "OKLAHOMA CITY", "addr:country": "US", "addr:full": "4235 N MERIDIAN AVE", "addr:postcode": "73112", "addr:state": "OK", "brand": "USPS", "collection_times": "Mo-Fr 15:45", "name": "USPS COLLECTION BOX - BLUE BOX", "note": "ON 12/24 AND 12/31, THIS BOX MAY BE COLLECTED AS EARLY AS 12 NOON.", "ref": "7311200150"}, "type": "Feature"}
{"geometry": {"coordinates": [-97.568972, 35.511122], "type": "Point"}, "id": "2Nz-rY9lR6mRdkPBVOmcugHzK9E=", "properties": {"@spider": "usps_collection_boxes", "addr:city": "OKLAHOMA CITY", "addr:country": "US", "addr:full": "3022 NW 39TH EXPY", "addr:postcode": "73112", "addr:state": "OK", "brand": "USPS", "collection_times": "Mo-Fr 17:00; Sa 16:30", "name": "USPS COLLECTION BOX - APC", "note": "ON 12/24 AND 12/31, THIS BOX MAY BE COLLECTED AS EARLY AS 12 NOON.", "ref": "7311200155"}, "type": "Feature"}
{"geometry": {"coordinates": [-97.5855221, 35.536164], "type": "Point"}, "id": "MEHMUKkwB0QGdJtaQ0_OKkWZrhg=", "properties": {"@spider": "usps_collection_boxes", "addr:city": "OKLAHOMA CITY", "addr:country": "US", "addr:full": "3817 NW EXPRESSWAY", "addr:postcode": "73112", "addr:state": "OK", "brand": "USPS", "collection_times": "Mo-Fr 16:15", "name": "USPS COLLECTION BOX - BLUE BOX", "note": "ON 12/24 AND 12/31, THIS BOX MAY BE COLLECTED AS EARLY AS 12 NOON.", "ref": "7311200156"}, "type": "Feature"}
{"geometry": {"coordinates": [-97.5930010051, 35.5146930113], "type": "Point"}, "id": "6AIKjCFK78QKH_Y6ly1h2Jpfn-w=", "properties": {"@spider": "usps_collection_boxes", "addr:city": "OKLAHOMA CITY", "addr:country": "US", "addr:full": "4200 PERIMETER CENTER DR", "addr:postcode": "73112", "addr:state": "OK", "brand": "USPS", "collection_times": "Mo-Fr 15:45", "name": "USPS COLLECTION BOX - BLUE BOX", "note": "ON 12/24 AND 12/31, THIS BOX MAY BE COLLECTED AS EARLY AS 12 NOON.", "ref": "7311200160"}, "type": "Feature"}
{"geometry": {"coordinates": [-97.5641199, 35.528055], "type": "Point"}, "id": "H4P58QUtbaO522UJTt22YzwmwLU=", "properties": {"@spider": "usps_collection_boxes", "addr:city": "OKLAHOMA CITY", "addr:country": "US", "addr:full": "5600 N MAY AVE", "addr:postcode": "73112", "addr:state": "OK", "brand": "USPS", "collection_times": "Mo-Fr 16:15", "name": "USPS COLLECTION BOX - BLUE BOX", "note": "ON 12/24 AND 12/31, THIS BOX MAY BE COLLECTED AS EARLY AS 12 NOON.", "ref": "7311200168"}, "type": "Feature"}
{"geometry": {"coordinates": [-97.568973, 35.511116546], "type": "Point"}, "id": "iXokgrI1UyrZ4eWXE-xbH3a1uUs=", "properties": {"@spider": "usps_collection_boxes", "addr:city": "OKLAHOMA CITY", "addr:country": "US", "addr:full": "3022 W I 44 SERVICE RD", "addr:postcode": "73112", "addr:state": "OK", "brand": "USPS", "collection_times": "Mo-Fr 17:00; Sa 12:00", "name": "USPS COLLECTION BOX - PO LOBBY", "note": "ON 12/24 AND 12/31, THIS BOX MAY BE COLLECTED AS EARLY AS 12 NOON.", "ref": "7311200169"}, "type": "Feature"}
{"geometry": {"coordinates": [-97.5689685, 35.5111255462], "type": "Point"}, "id": "qJoiBbnkp6uPsikTHW14bg42JfE=", "properties": {"@spider": "usps_collection_boxes", "addr:city": "OKLAHOMA CITY", "addr:country": "US", "addr:full": "3022 NW 39TH EXPY", "addr:postcode": "73112", "addr:state": "OK", "brand": "USPS", "collection_times": "Mo-Fr 17:00; Sa 16:00", "name": "USPS COLLECTION BOX - BLUE BOX", "note": "ON 12/24 AND 12/31, THIS BOX MAY BE COLLECTED AS EARLY AS 12 NOON.", "ref": "7311200172"}, "type": "Feature"}
{"geometry": {"coordinates": [-97.5930010051, 35.5146930113], "type": "Point"}, "id": "xPV--6xZranmUtfUfeea07eo-h4=", "properties": {"@spider": "usps_collection_boxes", "addr:city": "OKLAHOMA CITY", "addr:country": "US", "addr:full": "4200 PERIMETER CENTER DR", "addr:postcode": "73112", "addr:state": "OK", "brand": "USPS", "collection_times": "Mo-Fr 15:45", "name": "USPS COLLECTION BOX - BLUE BOX", "note": "ON 12/24 AND 12/31, THIS BOX MAY BE COLLECTED AS EARLY AS 12 NOON.", "ref": "7311200173"}, "type": "Feature"}
{"geometry": {"coordinates": [-97.5192209, 35.565732], "type": "Point"}, "id": "AZ0mbjVoArnPb_Po97K7DG-jULQ=", "properties": {"@spider": "usps_collection_boxes", "addr:city": "OKLAHOMA CITY", "addr:country": "US", "addr:full": "301 W BRITTON RD", "addr:postcode": "73114", "addr:state": "OK", "brand": "USPS", "collection_times": "Mo-Fr 17:00; Sa 15:45", "name": "USPS COLLECTION BOX - BLUE BOX", "note": "ON 12/24 AND 12/31, THIS BOX MAY BE COLLECTED AS EARLY AS 12 NOON.", "ref": "7311400000"}, "type": "Feature"}
{"geometry": {"coordinates": [-97.518582, 35.5655965127], "type": "Point"}, "id": "xjeNtB8xK0mRjrcjrlwltQdVS_o=", "properties": {"@spider": "usps_collection_boxes", "addr:city": "OKLAHOMA CITY", "addr:country": "US", "addr:full": "301 W BRITTON RD", "addr:postcode": "73114", "addr:state": "OK", "brand": "USPS", "collection_times": "Mo-Fr 17:00; Sa 15:45", "name": "USPS COLLECTION BOX - BLUE BOX", "note": "ON 12/24 AND 12/31, THIS BOX MAY BE COLLECTED AS EARLY AS 12 NOON.", "ref": "7311400001"}, "type": "Feature"}
{"geometry": {"coordinates": [-97.5106611, 35.56641], "type": "Point"}, "id": "DKucqLcpYjn6lRjUrJomy9TFfmk=", "properties": {"@spider": "usps_collection_boxes", "addr:city": "OKLAHOMA CITY", "addr:country": "US", "addr:full": "9400 BROADWAY EXT", "addr:postcode": "73114", "addr:state": "OK", "brand": "USPS", "collection_times": "Mo-Fr 16:45", "name": "USPS COLLECTION BOX - BLUE BOX", "note": "ON 12/24 AND 12/31, THIS BOX MAY BE COLLECTED AS EARLY AS 12 NOON.", "ref": "7311400005"}, "type": "Feature"}
{"geometry": {"coordinates": [-97.5106484, 35.566394], "type": "Point"}, "id": "R_OBhYg1oFM_gMK-UpfYloKQYjI=", "properties": {"@spider": "usps_collection_boxes", "addr:city": "OKLAHOMA CITY", "addr:country": "US", "addr:full": "9400 BROADWAY EXT", "addr:postcode": "73114", "addr:state": "OK", "brand": "USPS", "collection_times": "Mo-Fr 16:45", "name": "USPS COLLECTION BOX - BLUE BOX", "note": "ON 12/24 AND 12/31, THIS BOX MAY BE COLLECTED AS EARLY AS 12 NOON.", "ref": "7311400007"}, "type": "Feature"}
{"geometry": {"coordinates": [-97.4984285, 35.567315], "type": "Point"}, "id": "15PKNgIMbbC8YV5OcXIcwQ-DQMQ=", "properties": {"@spider": "usps_collection_boxes", "addr:city": "OKLAHOMA CITY", "addr:country": "US", "addr:full": "701 CEDAR LAKE BLVD", "addr:postcode": "73114", "addr:state": "OK", "brand": "USPS", "collection_times": "Mo-Fr 16:30", "name": "USPS COLLECTION BOX - BLUE BOX", "note": "ON 12/24 AND 12/31, THIS BOX MAY BE COLLECTED AS EARLY AS 12 NOON.", "ref": "7311400009"}, "type": "Feature"}
{"geometry": {"coordinates": [-97.5034624, 35.608879], "type": "Point"}, "id": "jvb4yk_OQkdB0Poug_ga311eXP4=", "properties": {"@spider": "usps_collection_boxes", "addr:city": "OKLAHOMA CITY", "addr:country": "US", "addr:full": "520 E MEMORIAL RD", "addr:postcode": "73114", "addr:state": "OK", "brand": "USPS", "collection_times": "Mo-Fr 15:45", "name": "USPS COLLECTION BOX - BLUE BOX", "note": "ON 12/24 AND 12/31, THIS BOX MAY BE COLLECTED AS EARLY AS 12 NOON.", "ref": "7311400012"}, "type": "Feature"}
{"geometry": {"coordinates": [-97.5187041, 35.565951], "type": "Point"}, "id": "jVM0RQsakKWsqOHRbEqhs3IFIdk=", "properties": {"@spider": "usps_collection_boxes", "addr:city": "OKLAHOMA CITY", "addr:country": "US", "addr:full": "301 W BRITTON RD", "addr:postcode": "73114", "addr:state": "OK", "brand": "USPS", "collection_times": "Mo-Fr 17:00; Sa 15:45", "name": "USPS COLLECTION BOX - PO LOBBY", "note": "ON 12/24 AND 12/31, THIS BOX MAY BE COLLECTED AS EARLY AS 12 NOON.", "ref": "7311400022"}, "type": "Feature"}
{"geometry": {"coordinates": [-97.5186667, 35.565945], "type": "Point"}, "id": "mi_ClsEt6DuVnggw0IDSM6-eN3g=", "properties": {"@spider": "usps_collection_boxes", "addr:city": "OKLAHOMA CITY", "addr:country": "US", "addr:full": "301 W BRITTON RD", "addr:postcode": "73114", "addr:state": "OK", "brand": "USPS", "collection_times": "Mo-Fr 17:00; Sa 15:45", "name": "USPS COLLECTION BOX - PO LOBBY", "note": "ON 12/24 AND 12/31, THIS BOX MAY BE COLLECTED AS EARLY AS 12 NOON.", "ref": "7311400026"}, "type": "Feature"}
{"geometry": {"coordinates": [-97.4982091, 35.566806], "type": "Point"}, "id": "H_RHdOVwOq9WgelioOs1sHsHSv0=", "properties": {"@spider": "usps_collection_boxes", "addr:city": "OKLAHOMA CITY", "addr:country": "US", "addr:full": "9401 CEDAR LAKE AVE", "addr:postcode": "73114", "addr:state": "OK", "brand": "USPS", "collection_times": "Mo-Fr 16:30", "name": "USPS COLLECTION BOX - BLUE BOX", "note": "ON 12/24 AND 12/31, THIS BOX MAY BE COLLECTED AS EARLY AS 12 NOON.", "ref": "7311400028"}, "type": "Feature"}
{"geometry": {"coordinates": [-97.518582, 35.565596513], "type": "Point"}, "id": "lzzEXlGyzw7pe0ZnXwN0BwWRrck=", "properties": {"@spider": "usps_collection_boxes", "addr:city": "OKLAHOMA CITY", "addr:country": "US", "addr:full": "301 W BRITTON RD", "addr:postcode": "73114", "addr:state": "OK", "brand": "USPS", "collection_times": "Mo-Fr 17:00; Sa 12:30", "name": "USPS COLLECTION BOX - PO LOBBY", "note": "ON 12/24 AND 12/31, THIS BOX MAY BE COLLECTED AS EARLY AS 12 NOON.", "ref": "7311400030"}, "type": "Feature"}
{"geometry": {"coordinates": [-97.437001, 35.436213], "type": "Point"}, "id": "VA4-8ugk1ZmIgDHKEiZ35gT5-Rc=", "properties": {"@spider": "usps_collection_boxes", "addr:city": "DEL CITY", "addr:country": "US", "addr:full": "4520 SE 28TH ST", "addr:postcode": "73115", "addr:state": "OK", "brand": "USPS", "collection_times": "Mo-Fr 17:00; Sa 12:00", "name": "USPS COLLECTION BOX - BLUE BOX", "note": "ON 12/24 AND 12/31, THIS BOX MAY BE COLLECTED AS EARLY AS 12 NOON.", "ref": "7311500000"}, "type": "Feature"}
{"geometry": {"coordinates": [-97.4332882, 35.434802], "type": "Point"}, "id": "4UMxYKyv7yMVebD9vEkkfzxBIHU=", "properties": {"@spider": "usps_collection_boxes", "addr:city": "DEL CITY", "addr:country": "US", "addr:full": "4600 SE 29TH ST", "addr:postcode": "73115", "addr:state": "OK", "brand": "USPS", "collection_times": "Mo-Fr 16:15", "name": "USPS COLLECTION BOX - BLUE BOX", "note": "ON 12/24 AND 12/31, THIS BOX MAY BE COLLECTED AS EARLY AS 12 NOON.", "ref": "7311500003"}, "type": "Feature"}
{"geometry": {"coordinates": [-97.437498, 35.436214], "type": "Point"}, "id": "i9bTcnWLl0LvcPbyL5HAITbIsh8=", "properties": {"@spider": "usps_collection_boxes", "addr:city": "DEL CITY", "addr:country": "US", "addr:full": "4500 SE 28TH ST", "addr:postcode": "73115", "addr:state": "OK", "brand": "USPS", "collection_times": "Mo-Fr 17:00", "name": "USPS COLLECTION BOX - PO LOBBY", "note": "ON 12/24 AND 12/31, THIS BOX MAY BE COLLECTED AS EARLY AS 12 NOON.", "ref": "7311500018"}, "type": "Feature"}
{"geometry": {"coordinates": [-97.436600277, 35.43622547], "type": "Point"}, "id": "55yaa_Kq2IE26sbC4Ukum9q-aaU=", "properties": {"@spider": "usps_collection_boxes", "addr:city": "DEL CITY", "addr:country": "US", "addr:full": "4500 SE 28TH ST", "addr:postcode": "73115", "addr:state": "OK", "brand": "USPS", "collection_times": "Mo-Fr 17:00", "name": "USPS COLLECTION BOX - PO LOBBY", "note": "ON 12/24 AND 12/31, THIS BOX MAY BE COLLECTED AS EARLY AS 12 NOON.", "ref": "7311500019"}, "type": "Feature"}
{"geometry": {"coordinates": [-97.5353683, 35.541602], "type": "Point"}, "id": "Y2rRKWAy4cZfmfk07FUKrPWvH9U=", "properties": {"@spider": "usps_collection_boxes", "addr:city": "NICHOLS HILLS", "addr:country": "US", "addr:full": "1212 BEDFORD DR", "addr:postcode": "73116", "addr:state": "OK", "brand": "USPS", "collection_times": "Mo-Fr 16:30", "name": "USPS COLLECTION BOX - BLUE BOX", "note": "ON 12/24 AND 12/31, THIS BOX MAY BE COLLECTED AS EARLY AS 12 NOON.", "ref": "7311600006"}, "type": "Feature"}
{"geometry": {"coordinates": [-97.514919, 35.540919], "type": "Point"}, "id": "9I2Sm8jOcjokC36EzhAPs-Os1Rk=", "properties": {"@spider": "usps_collection_boxes", "addr:city": "NICHOLS HILLS", "addr:country": "US", "addr:full": "6801 BROADWAY EXT", "addr:postcode": "73116", "addr:state": "OK", "brand": "USPS", "collection_times": "Mo-Fr 16:00", "name": "USPS COLLECTION BOX - BLUE BOX", "note": "ON 12/24 AND 12/31, THIS BOX MAY BE COLLECTED AS EARLY AS 12 NOON.", "ref": "7311600009"}, "type": "Feature"}
{"geometry": {"coordinates": [-97.5143548135, 35.5451583353], "type": "Point"}, "id": "XTmKjuOgFf9GNJJWhirYIVHbZdo=", "properties": {"@spider": "usps_collection_boxes", "addr:city": "NICHOLS HILLS", "addr:country": "US", "addr:full": "7301 BROADWAY EXT", "addr:postcode": "73116", "addr:state": "OK", "brand": "USPS", "collection_times": "Mo-Fr 15:45", "name": "USPS COLLECTION BOX - BLUE BOX", "note": "ON 12/24 AND 12/31, THIS BOX MAY BE COLLECTED AS EARLY AS 12 NOON.", "ref": "7311600011"}, "type": "Feature"}
{"geometry": {"coordinates": [-97.5146612, 35.539614], "type": "Point"}, "id": "b1S4Ki4JLeSreTkvI92eu5h3_iY=", "properties": {"@spider": "usps_collection_boxes", "addr:city": "NICHOLS HILLS", "addr:country": "US", "addr:full": "6701 BROADWAY EXT", "addr:postcode": "73116", "addr:state": "OK", "brand": "USPS", "collection_times": "Mo-Fr 16:00", "name": "USPS COLLECTION BOX - BLUE BOX", "note": "ON 12/24 AND 12/31, THIS BOX MAY BE COLLECTED AS EARLY AS 12 NOON.", "ref": "7311600014"}, "type": "Feature"}
{"geometry": {"coordinates": [-97.5769626, 35.537315], "type": "Point"}, "id": "VmBStd9lT-rbwHcBfyFyDtI_izA=", "properties": {"@spider": "usps_collection_boxes", "addr:city": "NICHOLS HILLS", "addr:country": "US", "addr:full": "3401 NW 63RD ST", "addr:postcode": "73116", "addr:state": "OK", "brand": "USPS", "collection_times": "Mo-Fr 16:15", "name": "USPS COLLECTION BOX - BLUE BOX", "note": "ON 12/24 AND 12/31, THIS BOX MAY BE COLLECTED AS EARLY AS 12 NOON.", "ref": "7311600017"}, "type": "Feature"}
{"geometry": {"coordinates": [-97.5918592, 35.539153], "type": "Point"}, "id": "Qb5-3hcab8J_EeJedfhcLSlz5wc=", "properties": {"@spider": "usps_collection_boxes", "addr:city": "NICHOLS HILLS", "addr:country": "US", "addr:full": "4045 NW EXPRESSWAY", "addr:postcode": "73116", "addr:state": "OK", "brand": "USPS", "collection_times": "Mo-Fr 16:15", "name": "USPS COLLECTION BOX - BLUE BOX", "note": "ON 12/24 AND 12/31, THIS BOX MAY BE COLLECTED AS EARLY AS 12 NOON.", "ref": "7311600020"}, "type": "Feature"}
{"geometry": {"coordinates": [-97.5163084, 35.5385], "type": "Point"}, "id": "Dk15odH_lagnVVeQPfzmQLbcB70=", "properties": {"@spider": "usps_collection_boxes", "addr:city": "NICHOLS HILLS", "addr:country": "US", "addr:full": "202 NW 66TH ST", "addr:postcode": "73116", "addr:state": "OK", "brand": "USPS", "collection_times": "Mo-Fr 16:00", "name": "USPS COLLECTION BOX - BLUE BOX", "note": "ON 12/24 AND 12/31, THIS BOX MAY BE COLLECTED AS EARLY AS 12 NOON.", "ref": "7311600038"}, "type": "Feature"}
{"geometry": {"coordinates": [-97.5163073, 35.5385], "type": "Point"}, "id": "gKHSimzJmH6KQzQiY4o5QnbX8Es=", "properties": {"@spider": "usps_collection_boxes", "addr:city": "NICHOLS HILLS", "addr:country": "US", "addr:full": "202 NW 66TH ST", "addr:postcode": "73116", "addr:state": "OK", "brand": "USPS", "collection_times": "Mo-Fr 16:00", "name": "USPS COLLECTION BOX - BLUE BOX", "note": "ON 12/24 AND 12/31, THIS BOX MAY BE COLLECTED AS EARLY AS 12 NOON.", "ref": "7311600042"}, "type": "Feature"}
{"geometry": {"coordinates": [-97.534249727, 35.541752487], "type": "Point"}, "id": "lw3osbhZJjPTPBOsBANIDsLInu4=", "properties": {"@spider": "usps_collection_boxes", "addr:city": "NICHOLS HILLS", "addr:country": "US", "addr:full": "1212 BEDFORD DR", "addr:postcode": "73116", "addr:state": "OK", "brand": "USPS", "collection_times": "Mo-Fr 16:30", "name": "USPS COLLECTION BOX - BLUE BOX", "note": "ON 12/24 AND 12/31, THIS BOX MAY BE COLLECTED AS EARLY AS 12 NOON.", "ref": "7311600050"}, "type": "Feature"}
{"geometry": {"coordinates": [-97.5723485, 35.537037], "type": "Point"}, "id": "08u2r2LYg90U6lwCpGLJVCWx2dQ=", "properties": {"@spider": "usps_collection_boxes", "addr:city": "NICHOLS HILLS", "addr:country": "US", "addr:full": "3141 NW 63RD ST", "addr:postcode": "73116", "addr:state": "OK", "brand": "USPS", "collection_times": "Mo-Fr 16:00", "name": "USPS COLLECTION BOX - BLUE BOX", "note": "ON 12/24 AND 12/31, THIS BOX MAY BE COLLECTED AS EARLY AS 12 NOON.", "ref": "7311600052"}, "type": "Feature"}
{"geometry": {"coordinates": [-97.5851936, 35.537246], "type": "Point"}, "id": "iLYo8-NQn7Na8WCD_T0eNDnTQZQ=", "properties": {"@spider": "usps_collection_boxes", "addr:city": "NICHOLS HILLS", "addr:country": "US", "addr:full": "3727 NW 63RD ST", "addr:postcode": "73116", "addr:state": "OK", "brand": "USPS", "collection_times": "Mo-Fr 16:15", "name": "USPS COLLECTION BOX - BLUE BOX", "note": "ON 12/24 AND 12/31, THIS BOX MAY BE COLLECTED AS EARLY AS 12 NOON.", "ref": "7311600053"}, "type": "Feature"}
{"geometry": {"coordinates": [-97.5872866, 35.536995], "type": "Point"}, "id": "eJDMmnpXWdc-3MIlDyN9PsiiO2M=", "properties": {"@spider": "usps_collection_boxes", "addr:city": "NICHOLS HILLS", "addr:country": "US", "addr:full": "3801 NW 63RD ST", "addr:postcode": "73116", "addr:state": "OK", "brand": "USPS", "collection_times": "Mo-Fr 16:15", "name": "USPS COLLECTION BOX - BLUE BOX", "note": "ON 12/24 AND 12/31, THIS BOX MAY BE COLLECTED AS EARLY AS 12 NOON.", "ref": "7311600054"}, "type": "Feature"}
{"geometry": {"coordinates": [-97.5948235, 35.537169], "type": "Point"}, "id": "Bn3Jj_Y9Xg5ALbQz3ikYe0weKno=", "properties": {"@spider": "usps_collection_boxes", "addr:city": "NICHOLS HILLS", "addr:country": "US", "addr:full": "4247 NW 63RD ST", "addr:postcode": "73116", "addr:state": "OK", "brand": "USPS", "collection_times": "Mo-Fr 16:45", "name": "USPS COLLECTION BOX - BLUE BOX", "note": "ON 12/24 AND 12/31, THIS BOX MAY BE COLLECTED AS EARLY AS 12 NOON.", "ref": "7311600055"}, "type": "Feature"}
{"geometry": {"coordinates": [-97.59529717, 35.536903252], "type": "Point"}, "id": "x9nzt9420Lay1413HPe18WVtNiM=", "properties": {"@spider": "usps_collection_boxes", "addr:city": "NICHOLS HILLS", "addr:country": "US", "addr:full": "4247 NW 63RD ST", "addr:postcode": "73116", "addr:state": "OK", "brand": "USPS", "collection_times": "Mo-Fr 16:45", "name": "USPS COLLECTION BOX - BLUE BOX", "note": "ON 12/24 AND 12/31, THIS BOX MAY BE COLLECTED AS EARLY AS 12 NOON.", "ref": "7311600057"}, "type": "Feature"}
{"geometry": {"coordinates": [-97.5699579, 35.537354], "type": "Point"}, "id": "DcFNPTRz0CwKMIbienYgEhkfzLs=", "properties": {"@spider": "usps_collection_boxes", "addr:city": "NICHOLS HILLS", "addr:country": "US", "addr:full": "3037 NW 63RD ST", "addr:postcode": "73116", "addr:state": "OK", "brand": "USPS", "collection_times": "Mo-Fr 16:00", "name": "USPS COLLECTION BOX - BLUE BOX", "note": "ON 12/24 AND 12/31, THIS BOX MAY BE COLLECTED AS EARLY AS 12 NOON.", "ref": "7311600059"}, "type": "Feature"}
{"geometry": {"coordinates": [-97.5298726, 35.55097], "type": "Point"}, "id": "Z2k2Ap5y2O5Frhu9cudf4bhq3dU=", "properties": {"@spider": "usps_collection_boxes", "addr:city": "NICHOLS HILLS", "addr:country": "US", "addr:full": "1000 W WILSHIRE BLVD", "addr:postcode": "73116", "addr:state": "OK", "brand": "USPS", "collection_times": "Mo-Fr 15:45", "name": "USPS COLLECTION BOX - BLUE BOX", "note": "ON 12/24 AND 12/31, THIS BOX MAY BE COLLECTED AS EARLY AS 12 NOON.", "ref": "7311600065"}, "type": "Feature"}
{"geometry": {"coordinates": [-97.5164892, 35.551023], "type": "Point"}, "id": "rUnJxcIjt2nMltrZjvVnzeYaoF4=", "properties": {"@spider": "usps_collection_boxes", "addr:city": "NICHOLS HILLS", "addr:country": "US", "addr:full": "200 W WILSHIRE BLVD", "addr:postcode": "73116", "addr:state": "OK", "brand": "USPS", "collection_times": "Mo-Fr 15:45", "name": "USPS COLLECTION BOX - BLUE BOX", "note": "ON 12/24 AND 12/31, THIS BOX MAY BE COLLECTED AS EARLY AS 12 NOON.", "ref": "7311600069"}, "type": "Feature"}
{"geometry": {"coordinates": [-97.5698921, 35.537345], "type": "Point"}, "id": "9u1FuzzPnEGR2il_-BN4DrVeKTQ=", "properties": {"@spider": "usps_collection_boxes", "addr:city": "NICHOLS HILLS", "addr:country": "US", "addr:full": "3037 NW 63RD ST", "addr:postcode": "73116", "addr:state": "OK", "brand": "USPS", "collection_times": "Mo-Fr 16:00", "name": "USPS COLLECTION BOX - BLUE BOX", "note": "ON 12/24 AND 12/31, THIS BOX MAY BE COLLECTED AS EARLY AS 12 NOON.", "ref": "7311600072"}, "type": "Feature"}
{"geometry": {"coordinates": [-97.5642124, 35.536289], "type": "Point"}, "id": "FpWdhiGXLnYvfAUcITyHl0UiKHU=", "properties": {"@spider": "usps_collection_boxes", "addr:city": "NICHOLS HILLS", "addr:country": "US", "addr:full": "2844 NW 63RD ST", "addr:postcode": "73116", "addr:state": "OK", "brand": "USPS", "collection_times": "Mo-Fr 15:45", "name": "USPS COLLECTION BOX - BLUE BOX", "note": "ON 12/24 AND 12/31, THIS BOX MAY BE COLLECTED AS EARLY AS 12 NOON.", "ref": "7311600077"}, "type": "Feature"}
{"geometry": {"coordinates": [-97.5160494, 35.536449], "type": "Point"}, "id": "esOBkvp0zpFkoCyJrTaTeLPbFtA=", "properties": {"@spider": "usps_collection_boxes", "addr:city": "NICHOLS HILLS", "addr:country": "US", "addr:full": "100 NW 63RD ST", "addr:postcode": "73116", "addr:state": "OK", "brand": "USPS", "collection_times": "Mo-Fr 16:15", "name": "USPS COLLECTION BOX - BLUE BOX", "note": "ON 12/24 AND 12/31, THIS BOX MAY BE COLLECTED AS EARLY AS 12 NOON.", "ref": "7311600078"}, "type": "Feature"}
{"geometry": {"coordinates": [-97.5159, 35.5395144912], "type": "Point"}, "id": "apjWYE4qxQ8FN8th5VD-zjgJ1V0=", "properties": {"@spider": "usps_collection_boxes", "addr:city": "NICHOLS HILLS", "addr:country": "US", "addr:full": "202 NW 66TH ST", "addr:postcode": "73116", "addr:state": "OK", "brand": "USPS", "collection_times": "Mo-Fr 16:00", "name": "USPS COLLECTION BOX - BLUE BOX", "note": "ON 12/24 AND 12/31, THIS BOX MAY BE COLLECTED AS EARLY AS 12 NOON.", "ref": "7311600086"}, "type": "Feature"}
{"geometry": {"coordinates": [-97.5905435, 35.538478], "type": "Point"}, "id": "L6jMrDi5_DiRTRRzE5LgxymLFZA=", "properties": {"@spider": "usps_collection_boxes", "addr:city": "NICHOLS HILLS", "addr:country": "US", "addr:full": "4013 NW EXPRESSWAY", "addr:postcode": "73116", "addr:state": "OK", "brand": "USPS", "collection_times": "Mo-Fr 16:15", "name": "USPS COLLECTION BOX - BLUE BOX", "note": "ON 12/24 AND 12/31, THIS BOX MAY BE COLLECTED AS EARLY AS 12 NOON.", "ref": "7311600097"}, "type": "Feature"}
{"geometry": {"coordinates": [-97.5117949, 35.537418], "type": "Point"}, "id": "hRHGUG3mSYRuah5GfkprYwM_ApY=", "properties": {"@spider": "usps_collection_boxes", "addr:city": "NICHOLS HILLS", "addr:country": "US", "addr:full": "6402 N SANTA FE AVE", "addr:postcode": "73116", "addr:state": "OK", "brand": "USPS", "collection_times": "Mo-Fr 16:15", "name": "USPS COLLECTION BOX - BLUE BOX", "note": "ON 12/24 AND 12/31, THIS BOX MAY BE COLLECTED AS EARLY AS 12 NOON.", "ref": "7311600109"}, "type": "Feature"}
{"geometry": {"coordinates": [-97.5272499, 35.537411], "type": "Point"}, "id": "9F4E-Lpo9IHqUzhQ19KYTUtLdtU=", "properties": {"@spider": "usps_collection_boxes", "addr:city": "NICHOLS HILLS", "addr:country": "US", "addr:full": "1001 NW 63RD ST", "addr:postcode": "73116", "addr:state": "OK", "brand": "USPS", "collection_times": "Mo-Fr 15:45", "name": "USPS COLLECTION BOX - BLUE BOX", "note": "ON 12/24 AND 12/31, THIS BOX MAY BE COLLECTED AS EARLY AS 12 NOON.", "ref": "7311600110"}, "type": "Feature"}
{"geometry": {"coordinates": [-97.5931138, 35.539011], "type": "Point"}, "id": "6wDJbtuL_B-G7XcPesvEgjpPQt0=", "properties": {"@spider": "usps_collection_boxes", "addr:city": "NICHOLS HILLS", "addr:country": "US", "addr:full": "4141 NW EXPRESSWAY", "addr:postcode": "73116", "addr:state": "OK", "brand": "USPS", "collection_times": "Mo-Fr 16:15", "name": "USPS COLLECTION BOX - BLUE BOX", "note": "ON 12/24 AND 12/31, THIS BOX MAY BE COLLECTED AS EARLY AS 12 NOON.", "ref": "7311600112"}, "type": "Feature"}
{"geometry": {"coordinates": [-97.5770064, 35.537325], "type": "Point"}, "id": "KlmL7RZbNp8T22PE9WAqw3b7bWw=", "properties": {"@spider": "usps_collection_boxes", "addr:city": "NICHOLS HILLS", "addr:country": "US", "addr:full": "3401 NW 63RD ST", "addr:postcode": "73116", "addr:state": "OK", "brand": "USPS", "collection_times": "Mo-Fr 16:15", "name": "USPS COLLECTION BOX - BLUE BOX", "note": "ON 12/24 AND 12/31, THIS BOX MAY BE COLLECTED AS EARLY AS 12 NOON.", "ref": "7311600114"}, "type": "Feature"}
{"geometry": {"coordinates": [-97.495183, 35.473933], "type": "Point"}, "id": "pqhPAEW5bB7nFCvL4C7HG0-cuFA=", "properties": {"@spider": "usps_collection_boxes", "addr:city": "OKLAHOMA CITY", "addr:country": "US", "addr:full": "701 N KELLEY AVE", "addr:postcode": "73117", "addr:state": "OK", "brand": "USPS", "collection_times": "Mo-Fr 17:00; Sa 15:45", "name": "USPS COLLECTION BOX - BLUE BOX", "note": "ON 12/24 AND 12/31, THIS BOX MAY BE COLLECTED AS EARLY AS 12 NOON.", "ref": "7311700001"}, "type": "Feature"}
{"geometry": {"coordinates": [-97.495183, 35.473933], "type": "Point"}, "id": "ZrjtppfdwoQs9HlVZMK-SXcnb2w=", "properties": {"@spider": "usps_collection_boxes", "addr:city": "OKLAHOMA CITY", "addr:country": "US", "addr:full": "701 N KELLEY AVE", "addr:postcode": "73117", "addr:state": "OK", "brand": "USPS", "collection_times": "Mo-Fr 16:30; Sa 15:45", "name": "USPS COLLECTION BOX - PO LOBBY", "note": "ON 12/24 AND 12/31, THIS BOX MAY BE COLLECTED AS EARLY AS 12 NOON.", "ref": "7311700003"}, "type": "Feature"}
{"geometry": {"coordinates": [-97.495207923, 35.473890423], "type": "Point"}, "id": "juxDE6pvG4VMGi0y4YBqCqSTa-w=", "properties": {"@spider": "usps_collection_boxes", "addr:city": "OKLAHOMA CITY", "addr:country": "US", "addr:full": "701 N KELLEY AVE", "addr:postcode": "73117", "addr:state": "OK", "brand": "USPS", "collection_times": "Mo-Fr 16:30", "name": "USPS COLLECTION BOX - PO LOBBY", "note": "ON 12/24 AND 12/31, THIS BOX MAY BE COLLECTED AS EARLY AS 12 NOON.", "ref": "7311700004"}, "type": "Feature"}
{"geometry": {"coordinates": [-97.5255180768, 35.5234534215], "type": "Point"}, "id": "_TteDAq2w6eWu-MSq52-7cXNeRM=", "properties": {"@spider": "usps_collection_boxes", "addr:city": "OKLAHOMA CITY", "addr:country": "US", "addr:full": "5300 N SHARTEL AVE", "addr:postcode": "73118", "addr:state": "OK", "brand": "USPS", "collection_times": "Mo-Fr 17:00; Sa 16:00", "name": "USPS COLLECTION BOX - BLUE BOX", "note": "ON 12/24 AND 12/31, THIS BOX MAY BE COLLECTED AS EARLY AS 12 NOON.", "ref": "7311800001"}, "type": "Feature"}
{"geometry": {"coordinates": [-97.5469394, 35.534888], "type": "Point"}, "id": "R3jkdUYB0wjM7Uu8w2UnxR9WaJw=", "properties": {"@spider": "usps_collection_boxes", "addr:city": "OKLAHOMA CITY", "addr:country": "US", "addr:full": "6303 WATERFORD BLVD", "addr:postcode": "73118", "addr:state": "OK", "brand": "USPS", "collection_times": "Mo-Fr 16:45", "name": "USPS COLLECTION BOX - BLUE BOX", "note": "ON 12/24 AND 12/31, THIS BOX MAY BE COLLECTED AS EARLY AS 12 NOON.", "ref": "7311800010"}, "type": "Feature"}
{"geometry": {"coordinates": [-97.5395927, 35.522919], "type": "Point"}, "id": "qsLGF-sumxrnhrJUG1QJ-xsCClo=", "properties": {"@spider": "usps_collection_boxes", "addr:city": "OKLAHOMA CITY", "addr:country": "US", "addr:full": "1601 NW EXPRESSWAY", "addr:postcode": "73118", "addr:state": "OK", "brand": "USPS", "collection_times": "Mo-Fr 15:30", "name": "USPS COLLECTION BOX - BLUE BOX", "note": "ON 12/24 AND 12/31, THIS BOX MAY BE COLLECTED AS EARLY AS 12 NOON.", "ref": "7311800019"}, "type": "Feature"}
{"geometry": {"coordinates": [-97.5395117, 35.522937], "type": "Point"}, "id": "cWuBX7tykwtEWbAL7BDnPfOHgxk=", "properties": {"@spider": "usps_collection_boxes", "addr:city": "OKLAHOMA CITY", "addr:country": "US", "addr:full": "1601 NW EXPRESSWAY", "addr:postcode": "73118", "addr:state": "OK", "brand": "USPS", "collection_times": "Mo-Fr 15:30", "name": "USPS COLLECTION BOX - BLUE BOX", "note": "ON 12/24 AND 12/31, THIS BOX MAY BE COLLECTED AS EARLY AS 12 NOON.", "ref": "7311800021"}, "type": "Feature"}
{"geometry": {"coordinates": [-97.5374689687, 35.5281799964], "type": "Point"}, "id": "FTD3K_41_TuywB3yqG4VAonRchs=", "properties": {"@spider": "usps_collection_boxes", "addr:city": "OKLAHOMA CITY", "addr:country": "US", "addr:full": "5617 N CLASSEN BLVD", "addr:postcode": "73118", "addr:state": "OK", "brand": "USPS", "collection_times": "Mo-Fr 15:45", "name": "USPS COLLECTION BOX - BLUE BOX", "note": "ON 12/24 AND 12/31, THIS BOX MAY BE COLLECTED AS EARLY AS 12 NOON.", "ref": "7311800054"}, "type": "Feature"}
{"geometry": {"coordinates": [-97.5348495, 35.520012], "type": "Point"}, "id": "--o7RRB85-AF24YXETXJEu7ze4s=", "properties": {"@spider": "usps_collection_boxes", "addr:city": "OKLAHOMA CITY", "addr:country": "US", "addr:full": "4801 N CLASSEN", "addr:postcode": "73118", "addr:state": "OK", "brand": "USPS", "collection_times": "Mo-Fr 15:45", "name": "USPS COLLECTION BOX - BLUE BOX", "note": "ON 12/24 AND 12/31, THIS BOX MAY BE COLLECTED AS EARLY AS 12 NOON.", "ref": "7311800062"}, "type": "Feature"}
{"geometry": {"coordinates": [-97.5274679, 35.532006], "type": "Point"}, "id": "mYU_faqdsNCM7YNLQI5S124Q6sg=", "properties": {"@spider": "usps_collection_boxes", "addr:city": "OKLAHOMA CITY", "addr:country": "US", "addr:full": "5905 N CLASSEN CT", "addr:postcode": "73118", "addr:state": "OK", "brand": "USPS", "collection_times": "Mo-Fr 15:45", "name": "USPS COLLECTION BOX - BLUE BOX", "note": "ON 12/24 AND 12/31, THIS BOX MAY BE COLLECTED AS EARLY AS 12 NOON.", "ref": "7311800063"}, "type": "Feature"}
{"geometry": {"coordinates": [-97.525094, 35.523908], "type": "Point"}, "id": "HvHYxy7Biv6OBaf-CRNjfyxfXM4=", "properties": {"@spider": "usps_collection_boxes", "addr:city": "OKLAHOMA CITY", "addr:country": "US", "addr:full": "5300 N SHARTEL AVE", "addr:postcode": "73118", "addr:state": "OK", "brand": "USPS", "collection_times": "Mo-Fr 17:00; Sa 16:00", "name": "USPS COLLECTION BOX - PO LOBBY", "note": "ON 12/24 AND 12/31, THIS BOX MAY BE COLLECTED AS EARLY AS 12 NOON.", "ref": "7311800077"}, "type": "Feature"}
{"geometry": {"coordinates": [-97.5443625, 35.525223], "type": "Point"}, "id": "miGJql6nM-WSK1EaYmxyrpks3l8=", "properties": {"@spider": "usps_collection_boxes", "addr:city": "OKLAHOMA CITY", "addr:country": "US", "addr:full": "1901 NW EXPRESSWAY", "addr:postcode": "73118", "addr:state": "OK", "brand": "USPS", "collection_times": "Mo-Sa 12:30", "name": "USPS COLLECTION BOX - BLUE BOX", "note": "ON 12/24 AND 12/31, THIS BOX MAY BE COLLECTED AS EARLY AS 12 NOON.", "ref": "7311800095"}, "type": "Feature"}
{"geometry": {"coordinates": [-97.5395455, 35.522947], "type": "Point"}, "id": "yWuYybbtl2p_UUj24yiwaYGeFno=", "properties": {"@spider": "usps_collection_boxes", "addr:city": "OKLAHOMA CITY", "addr:country": "US", "addr:full": "1601 NW EXPRESSWAY", "addr:postcode": "73118", "addr:state": "OK", "brand": "USPS", "collection_times": "Mo-Fr 15:30", "name": "USPS COLLECTION BOX - BLUE BOX", "note": "ON 12/24 AND 12/31, THIS BOX MAY BE COLLECTED AS EARLY AS 12 NOON.", "ref": "7311800096"}, "type": "Feature"}
{"geometry": {"coordinates": [-97.5151394, 35.532425], "type": "Point"}, "id": "6bR18pFyJluh2QUkueSfDHWO5aQ=", "properties": {"@spider": "usps_collection_boxes", "addr:city": "OKLAHOMA CITY", "addr:country": "US", "addr:full": "5801 BROADWAY EXT", "addr:postcode": "73118", "addr:state": "OK", "brand": "USPS", "collection_times": "Mo-Fr 16:00", "name": "USPS COLLECTION BOX - BLUE BOX", "note": "ON 12/24 AND 12/31, THIS BOX MAY BE COLLECTED AS EARLY AS 12 NOON.", "ref": "7311800099"}, "type": "Feature"}
{"geometry": {"coordinates": [-97.525518077, 35.523453422], "type": "Point"}, "id": "bkzP6hMczTQR7UO-P1N3IghzCko=", "properties": {"@spider": "usps_collection_boxes", "addr:city": "OKLAHOMA CITY", "addr:country": "US", "addr:full": "5300 N SHARTEL AVE", "addr:postcode": "73118", "addr:state": "OK", "brand": "USPS", "collection_times": "Mo-Fr 17:00; Sa 12:00", "name": "USPS COLLECTION BOX - PO LOBBY", "note": "ON 12/24 AND 12/31, THIS BOX MAY BE COLLECTED AS EARLY AS 12 NOON.", "ref": "7311800104"}, "type": "Feature"}
{"geometry": {"coordinates": [-97.525134, 35.523927], "type": "Point"}, "id": "is2ubQYEe_dGUNTMrDPs2wZxaNg=", "properties": {"@spider": "usps_collection_boxes", "addr:city": "OKLAHOMA CITY", "addr:country": "US", "addr:full": "5300 N SHARTEL AVE", "addr:postcode": "73118", "addr:state": "OK", "brand": "USPS", "collection_times": "Mo-Fr 17:00; Sa 16:00", "name": "USPS COLLECTION BOX - BLUE BOX", "note": "ON 12/24 AND 12/31, THIS BOX MAY BE COLLECTED AS EARLY AS 12 NOON.", "ref": "7311800106"}, "type": "Feature"}
{"geometry": {"coordinates": [-97.5665588, 35.420825], "type": "Point"}, "id": "sljSNBZLgUGqNhLw-Bv5CqbRp1E=", "properties": {"@spider": "usps_collection_boxes", "addr:city": "OKLAHOMA CITY", "addr:country": "US", "addr:full": "2901 SW 44TH ST", "addr:postcode": "73119", "addr:state": "OK", "brand": "USPS", "collection_times": "Mo-Fr 13:30", "name": "USPS COLLECTION BOX - BLUE BOX", "note": "ON 12/24 AND 12/31, THIS BOX MAY BE COLLECTED AS EARLY AS 12 NOON.", "ref": "7311900075"}, "type": "Feature"}
{"geometry": {"coordinates": [-97.5947007043, 35.3983262957], "type": "Point"}, "id": "3pb8vO96LlDGuZX33yAl3WS14T8=", "properties": {"@spider": "usps_collection_boxes", "addr:city": "OKLAHOMA CITY", "addr:country": "US", "addr:full": "6500 AIR CARGO RD STE B", "addr:postcode": "73119", "addr:state": "OK", "brand": "USPS", "collection_times": "Mo-Fr 17:00; Sa 12:00", "name": "USPS COLLECTION BOX - PO LOBBY", "note": "ON 12/24 AND 12/31, THIS BOX MAY BE COLLECTED AS EARLY AS 12 NOON.", "ref": "7311900085"}, "type": "Feature"}
{"geometry": {"coordinates": [-97.5558393, 35.579933], "type": "Point"}, "id": "bDYt1LhoiptTbx-lCvpOhvUQqho=", "properties": {"@spider": "usps_collection_boxes", "addr:city": "OKLAHOMA CITY", "addr:country": "US", "addr:full": "2304 W HEFNER RD", "addr:postcode": "73120", "addr:state": "OK", "brand": "USPS", "collection_times": "Mo-Fr 17:00; Sa 16:00", "name": "USPS COLLECTION BOX - BLUE BOX", "note": "ON 12/24 AND 12/31, THIS BOX MAY BE COLLECTED AS EARLY AS 12 NOON.", "ref": "7312000014"}, "type": "Feature"}
{"geometry": {"coordinates": [-97.5558159, 35.579943], "type": "Point"}, "id": "clM2-iPWE4F4eWuPEKRtYKhV4p8=", "properties": {"@spider": "usps_collection_boxes", "addr:city": "OKLAHOMA CITY", "addr:country": "US", "addr:full": "2304 W HEFNER RD", "addr:postcode": "73120", "addr:state": "OK", "brand": "USPS", "collection_times": "Mo-Fr 17:00; Sa 16:00", "name": "USPS COLLECTION BOX - BLUE BOX", "note": "ON 12/24 AND 12/31, THIS BOX MAY BE COLLECTED AS EARLY AS 12 NOON.", "ref": "7312000016"}, "type": "Feature"}
{"geometry": {"coordinates": [-97.5671582225, 35.567989985], "type": "Point"}, "id": "Fd0VP53m6Y3hCWX5irquvDBMvDs=", "properties": {"@spider": "usps_collection_boxes", "addr:city": "OKLAHOMA CITY", "addr:country": "US", "addr:full": "9520 N MAY AVE", "addr:postcode": "73120", "addr:state": "OK", "brand": "USPS", "collection_times": "Mo-Fr 16:30", "name": "USPS COLLECTION BOX - BLUE BOX", "note": "ON 12/24 AND 12/31, THIS BOX MAY BE COLLECTED AS EARLY AS 12 NOON.", "ref": "7312000023"}, "type": "Feature"}
{"geometry": {"coordinates": [-97.5663608, 35.582008], "type": "Point"}, "id": "YBpHIBd4BCt8JP8icHfe4ViWt08=", "properties": {"@spider": "usps_collection_boxes", "addr:city": "OKLAHOMA CITY", "addr:country": "US", "addr:full": "10942 N MAY AVE", "addr:postcode": "73120", "addr:state": "OK", "brand": "USPS", "collection_times": "Mo-Fr 16:15", "name": "USPS COLLECTION BOX - BLUE BOX", "note": "ON 12/24 AND 12/31, THIS BOX MAY BE COLLECTED AS EARLY AS 12 NOON.", "ref": "7312000025"}, "type": "Feature"}
{"geometry": {"coordinates": [-97.5667769, 35.597193], "type": "Point"}, "id": "w0vgmoFG4S5cRxAcFs_CfLaI_cM=", "properties": {"@spider": "usps_collection_boxes", "addr:city": "OKLAHOMA CITY", "addr:country": "US", "addr:full": "12516 N MAY AVE", "addr:postcode": "73120", "addr:state": "OK", "brand": "USPS", "collection_times": "Mo-Fr 16:00", "name": "USPS COLLECTION BOX - BLUE BOX", "note": "ON 12/24 AND 12/31, THIS BOX MAY BE COLLECTED AS EARLY AS 12 NOON.", "ref": "7312000029"}, "type": "Feature"}
{"geometry": {"coordinates": [-97.5663121, 35.584676], "type": "Point"}, "id": "s20gjW5N94gINgU887HrOaoubP0=", "properties": {"@spider": "usps_collection_boxes", "addr:city": "OKLAHOMA CITY", "addr:country": "US", "addr:full": "11212 N MAY AVE", "addr:postcode": "73120", "addr:state": "OK", "brand": "USPS", "collection_times": "Mo-Fr 16:15", "name": "USPS COLLECTION BOX - BLUE BOX", "note": "ON 12/24 AND 12/31, THIS BOX MAY BE COLLECTED AS EARLY AS 12 NOON.", "ref": "7312000030"}, "type": "Feature"}
{"geometry": {"coordinates": [-97.5946972, 35.594883], "type": "Point"}, "id": "jKySS_o15DG0mS3TbbJQeYODYEU=", "properties": {"@spider": "usps_collection_boxes", "addr:city": "OKLAHOMA CITY", "addr:country": "US", "addr:full": "4117 NW 122ND ST", "addr:postcode": "73120", "addr:state": "OK", "brand": "USPS", "collection_times": "Mo-Fr 16:45", "name": "USPS COLLECTION BOX - BLUE BOX", "note": "ON 12/24 AND 12/31, THIS BOX MAY BE COLLECTED AS EARLY AS 12 NOON.", "ref": "7312000031"}, "type": "Feature"}
{"geometry": {"coordinates": [-97.5688516, 35.581528], "type": "Point"}, "id": "8xhL1V8T_czFq5gdbxwH1amIVvg=", "properties": {"@spider": "usps_collection_boxes", "addr:city": "OKLAHOMA CITY", "addr:country": "US", "addr:full": "11032 QUAIL CREEK RD", "addr:postcode": "73120", "addr:state": "OK", "brand": "USPS", "collection_times": "Mo-Fr 16:15", "name": "USPS COLLECTION BOX - BLUE BOX", "note": "ON 12/24 AND 12/31, THIS BOX MAY BE COLLECTED AS EARLY AS 12 NOON.", "ref": "7312000040"}, "type": "Feature"}
{"geometry": {"coordinates": [-97.5487053, 35.59217], "type": "Point"}, "id": "egbj5ri7zPvVBpzcTplCw--MDaM=", "properties": {"@spider": "usps_collection_boxes", "addr:city": "OKLAHOMA CITY", "addr:country": "US", "addr:full": "12024 N PENN AVE", "addr:postcode": "73120", "addr:state": "OK", "brand": "USPS", "collection_times": "Mo-Fr 15:45", "name": "USPS COLLECTION BOX - BLUE BOX", "note": "ON 12/24 AND 12/31, THIS BOX MAY BE COLLECTED AS EARLY AS 12 NOON.", "ref": "7312000044"}, "type": "Feature"}
{"geometry": {"coordinates": [-97.5710285, 35.564995], "type": "Point"}, "id": "Iq2yBav_rUs3JsDYjPyP6vNdN-I=", "properties": {"@spider": "usps_collection_boxes", "addr:city": "OKLAHOMA CITY", "addr:country": "US", "addr:full": "3240 W BRITTON RD", "addr:postcode": "73120", "addr:state": "OK", "brand": "USPS", "collection_times": "Mo-Fr 16:30", "name": "USPS COLLECTION BOX - BLUE BOX", "note": "ON 12/24 AND 12/31, THIS BOX MAY BE COLLECTED AS EARLY AS 12 NOON.", "ref": "7312000047"}, "type": "Feature"}
{"geometry": {"coordinates": [-97.6015246, 35.605049], "type": "Point"}, "id": "u5Aqc93jH7Pt_tPkWx1IOWhCTPs=", "properties": {"@spider": "usps_collection_boxes", "addr:city": "OKLAHOMA CITY", "addr:country": "US", "addr:full": "4300 MCAULEY BLVD", "addr:postcode": "73120", "addr:state": "OK", "brand": "USPS", "collection_times": "Mo-Fr 16:30", "name": "USPS COLLECTION BOX - BLUE BOX", "note": "ON 12/24 AND 12/31, THIS BOX MAY BE COLLECTED AS EARLY AS 12 NOON.", "ref": "7312000049"}, "type": "Feature"}
{"geometry": {"coordinates": [-97.5688581, 35.581521], "type": "Point"}, "id": "7GaObIUanLvTQb8TsTP0p840IyU=", "properties": {"@spider": "usps_collection_boxes", "addr:city": "OKLAHOMA CITY", "addr:country": "US", "addr:full": "11032 QUAIL CREEK RD", "addr:postcode": "73120", "addr:state": "OK", "brand": "USPS", "collection_times": "Mo-Fr 16:15", "name": "USPS COLLECTION BOX - BLUE BOX", "note": "ON 12/24 AND 12/31, THIS BOX MAY BE COLLECTED AS EARLY AS 12 NOON.", "ref": "7312000058"}, "type": "Feature"}
{"geometry": {"coordinates": [-97.5667654, 35.597194], "type": "Point"}, "id": "RBJs6dk4j_12XuUG5FlWxn1HyfU=", "properties": {"@spider": "usps_collection_boxes", "addr:city": "OKLAHOMA CITY", "addr:country": "US", "addr:full": "12516 N MAY AVE", "addr:postcode": "73120", "addr:state": "OK", "brand": "USPS", "collection_times": "Mo-Fr 16:00", "name": "USPS COLLECTION BOX - BLUE BOX", "note": "ON 12/24 AND 12/31, THIS BOX MAY BE COLLECTED AS EARLY AS 12 NOON.", "ref": "7312000060"}, "type": "Feature"}
{"geometry": {"coordinates": [-97.594812, 35.5946794538], "type": "Point"}, "id": "egu37fQp1LEON2950CoQrHWXtMw=", "properties": {"@spider": "usps_collection_boxes", "addr:city": "OKLAHOMA CITY", "addr:country": "US", "addr:full": "4117 NW 122ND ST", "addr:postcode": "73120", "addr:state": "OK", "brand": "USPS", "collection_times": "Mo-Fr 16:45", "name": "USPS COLLECTION BOX - BLUE BOX", "note": "ON 12/24 AND 12/31, THIS BOX MAY BE COLLECTED AS EARLY AS 12 NOON.", "ref": "7312000062"}, "type": "Feature"}
{"geometry": {"coordinates": [-97.553237, 35.580146], "type": "Point"}, "id": "EeIShWO3WCmemcyZRfPe1qi_VK0=", "properties": {"@spider": "usps_collection_boxes", "addr:city": "OKLAHOMA CITY", "addr:country": "US", "addr:full": "2304 W HEFNER RD", "addr:postcode": "73120", "addr:state": "OK", "brand": "USPS", "collection_times": "Mo-Fr 17:00; Sa 16:00", "name": "USPS COLLECTION BOX - PO LOBBY", "note": "ON 12/24 AND 12/31, THIS BOX MAY BE COLLECTED AS EARLY AS 12 NOON.", "ref": "7312000063"}, "type": "Feature"}
{"geometry": {"coordinates": [-97.553237, 35.580146], "type": "Point"}, "id": "AbXgMDAct-vWo8Pgt0prMjC8Kmk=", "properties": {"@spider": "usps_collection_boxes", "addr:city": "OKLAHOMA CITY", "addr:country": "US", "addr:full": "2304 W HEFNER RD", "addr:postcode": "73120", "addr:state": "OK", "brand": "USPS", "collection_times": "Mo-Fr 17:00; Sa 16:00", "name": "USPS COLLECTION BOX - PO LOBBY", "note": "ON 12/24 AND 12/31, THIS BOX MAY BE COLLECTED AS EARLY AS 12 NOON.", "ref": "7312000064"}, "type": "Feature"}
{"geometry": {"coordinates": [-97.5844288, 35.5831], "type": "Point"}, "id": "ELbU2b0w7hPlJbn83spx3eF8Xd0=", "properties": {"@spider": "usps_collection_boxes", "addr:city": "OKLAHOMA CITY", "addr:country": "US", "addr:full": "11101 N PORTLAND AVE", "addr:postcode": "73120", "addr:state": "OK", "brand": "USPS", "collection_times": "Mo-Fr 16:45", "name": "USPS COLLECTION BOX - BLUE BOX", "note": "ON 12/24 AND 12/31, THIS BOX MAY BE COLLECTED AS EARLY AS 12 NOON.", "ref": "7312000069"}, "type": "Feature"}
{"geometry": {"coordinates": [-97.5988553, 35.606949], "type": "Point"}, "id": "q2lu5MjS7WwQu5XM643qD6c9DMc=", "properties": {"@spider": "usps_collection_boxes", "addr:city": "OKLAHOMA CITY", "addr:country": "US", "addr:full": "4140 W MEMORIAL RD", "addr:postcode": "73120", "addr:state": "OK", "brand": "USPS", "collection_times": "Mo-Fr 16:00", "name": "USPS COLLECTION BOX - BLUE BOX", "note": "ON 12/24 AND 12/31, THIS BOX MAY BE COLLECTED AS EARLY AS 12 NOON.", "ref": "7312000070"}, "type": "Feature"}
{"geometry": {"coordinates": [-97.5988758, 35.606887], "type": "Point"}, "id": "M1dE_mMeojFez131ow_G-ZuZMVU=", "properties": {"@spider": "usps_collection_boxes", "addr:city": "OKLAHOMA CITY", "addr:country": "US", "addr:full": "4140 W MEMORIAL RD", "addr:postcode": "73120", "addr:state": "OK", "brand": "USPS", "collection_times": "Mo-Fr 16:00", "name": "USPS COLLECTION BOX - BLUE BOX", "note": "ON 12/24 AND 12/31, THIS BOX MAY BE COLLECTED AS EARLY AS 12 NOON.", "ref": "7312000071"}, "type": "Feature"}
{"geometry": {"coordinates": [-97.5988634, 35.606895], "type": "Point"}, "id": "auUcn5GM_9gDKqTXimsBkT8wl-4=", "properties": {"@spider": "usps_collection_boxes", "addr:city": "OKLAHOMA CITY", "addr:country": "US", "addr:full": "4140 W MEMORIAL RD", "addr:postcode": "73120", "addr:state": "OK", "brand": "USPS", "collection_times": "Mo-Fr 16:00", "name": "USPS COLLECTION BOX - BLUE BOX", "note": "ON 12/24 AND 12/31, THIS BOX MAY BE COLLECTED AS EARLY AS 12 NOON.", "ref": "7312000072"}, "type": "Feature"}
{"geometry": {"coordinates": [-97.553237, 35.580146], "type": "Point"}, "id": "0Szw_EbpQcuOhe5KydeRqE-5zbY=", "properties": {"@spider": "usps_collection_boxes", "addr:city": "OKLAHOMA CITY", "addr:country": "US", "addr:full": "2304 W HEFNER RD", "addr:postcode": "73120", "addr:state": "OK", "brand": "USPS", "collection_times": "Mo-Fr 17:00; Sa 16:00", "name": "USPS COLLECTION BOX - APC", "note": "ON 12/24 AND 12/31, THIS BOX MAY BE COLLECTED AS EARLY AS 12 NOON.", "ref": "7312000076"}, "type": "Feature"}
{"geometry": {"coordinates": [-97.5710431, 35.565008], "type": "Point"}, "id": "VTuUgp7TRvmtNjyewhLSGbe0GF8=", "properties": {"@spider": "usps_collection_boxes", "addr:city": "OKLAHOMA CITY", "addr:country": "US", "addr:full": "3240 W BRITTON RD", "addr:postcode": "73120", "addr:state": "OK", "brand": "USPS", "collection_times": "Mo-Fr 16:30", "name": "USPS COLLECTION BOX - BLUE BOX", "note": "ON 12/24 AND 12/31, THIS BOX MAY BE COLLECTED AS EARLY AS 12 NOON.", "ref": "7312000077"}, "type": "Feature"}
{"geometry": {"coordinates": [-97.5556215, 35.580142483], "type": "Point"}, "id": "lz1sscQzIRcqvr7imyKF0w6l5D8=", "properties": {"@spider": "usps_collection_boxes", "addr:city": "OKLAHOMA CITY", "addr:country": "US", "addr:full": "2304 W HEFNER RD", "addr:postcode": "73120", "addr:state": "OK", "brand": "USPS", "collection_times": "Mo-Fr 18:00; Sa 13:00", "name": "USPS COLLECTION BOX - PO LOBBY", "note": "ON 12/24 AND 12/31, THIS BOX MAY BE COLLECTED AS EARLY AS 12 NOON.", "ref": "7312000082"}, "type": "Feature"}
{"geometry": {"coordinates": [-97.588596, 35.464157], "type": "Point"}, "id": "a3JF-uxC3ijoPAibaRwOy5wG86c=", "properties": {"@spider": "usps_collection_boxes", "addr:city": "OKLAHOMA CITY", "addr:country": "US", "addr:full": "4025 W RENO AVE", "addr:postcode": "73125", "addr:state": "OK", "brand": "USPS", "collection_times": "Mo-Sa 21:15", "name": "USPS COLLECTION BOX - BLUE BOX", "note": "ON 12/24 AND 12/31, THIS BOX MAY BE COLLECTED AS EARLY AS 12 NOON.", "ref": "7312500001"}, "type": "Feature"}
{"geometry": {"coordinates": [-97.588596, 35.464157], "type": "Point"}, "id": "uug13UJ5thJZginCd4l5TG6H-js=", "properties": {"@spider": "usps_collection_boxes", "addr:city": "OKLAHOMA CITY", "addr:country": "US", "addr:full": "4025 W RENO AVE", "addr:postcode": "73125", "addr:state": "OK", "brand": "USPS", "collection_times": "Mo-Sa 17:00", "name": "USPS COLLECTION BOX - BLUE BOX", "note": "ON 12/24 AND 12/31, THIS BOX MAY BE COLLECTED AS EARLY AS 12 NOON.", "ref": "7312500012"}, "type": "Feature"}
{"geometry": {"coordinates": [-97.6202537, 35.468388], "type": "Point"}, "id": "Vv6bJfP853qpBsIArny6mLl1GA4=", "properties": {"@spider": "usps_collection_boxes", "addr:city": "OKLAHOMA CITY", "addr:country": "US", "addr:full": "5924 NW 2ND ST", "addr:postcode": "73127", "addr:state": "OK", "brand": "USPS", "collection_times": "Mo-Fr 16:00", "name": "USPS COLLECTION BOX - BLUE BOX", "note": "ON 12/24 AND 12/31, THIS BOX MAY BE COLLECTED AS EARLY AS 12 NOON.", "ref": "7312700017"}, "type": "Feature"}
{"geometry": {"coordinates": [-97.6044146, 35.493423], "type": "Point"}, "id": "FY7gpcloLsgfDZBsXCHkfqaohrA=", "properties": {"@spider": "usps_collection_boxes", "addr:city": "OKLAHOMA CITY", "addr:country": "US", "addr:full": "4615 NW 23RD ST", "addr:postcode": "73127", "addr:state": "OK", "brand": "USPS", "collection_times": "Mo-Fr 16:00", "name": "USPS COLLECTION BOX - BLUE BOX", "note": "ON 12/24 AND 12/31, THIS BOX MAY BE COLLECTED AS EARLY AS 12 NOON.", "ref": "7312700022"}, "type": "Feature"}
{"geometry": {"coordinates": [-97.6044254, 35.493416], "type": "Point"}, "id": "8g0lbhf93p1yKiSAIT6QmcwEm_c=", "properties": {"@spider": "usps_collection_boxes", "addr:city": "OKLAHOMA CITY", "addr:country": "US", "addr:full": "4615 NW 23RD ST", "addr:postcode": "73127", "addr:state": "OK", "brand": "USPS", "collection_times": "Mo-Fr 16:00", "name": "USPS COLLECTION BOX - BLUE BOX", "note": "ON 12/24 AND 12/31, THIS BOX MAY BE COLLECTED AS EARLY AS 12 NOON.", "ref": "7312700023"}, "type": "Feature"}
{"geometry": {"coordinates": [-97.6369331, 35.479111], "type": "Point"}, "id": "6VB4WL4lXEyZjB84GzSGWxWOJpw=", "properties": {"@spider": "usps_collection_boxes", "addr:city": "OKLAHOMA CITY", "addr:country": "US", "addr:full": "7101 NW 10TH ST", "addr:postcode": "73127", "addr:state": "OK", "brand": "USPS", "collection_times": "Mo-Fr 16:00", "name": "USPS COLLECTION BOX - BLUE BOX", "note": "ON 12/24 AND 12/31, THIS BOX MAY BE COLLECTED AS EARLY AS 12 NOON.", "ref": "7312700030"}, "type": "Feature"}
{"geometry": {"coordinates": [-97.606580307, 35.464449516], "type": "Point"}, "id": "gyJ8PBU81NqFgPJzUnS43mhkK3o=", "properties": {"@spider": "usps_collection_boxes", "addr:city": "OKLAHOMA CITY", "addr:country": "US", "addr:full": "4901 W RENO AVE STE 400", "addr:postcode": "73127", "addr:state": "OK", "brand": "USPS", "collection_times": "Mo-Fr 17:00", "name": "USPS COLLECTION BOX - PO LOBBY", "note": "ON 12/24 AND 12/31, THIS BOX MAY BE COLLECTED AS EARLY AS 12 NOON.", "ref": "7312700039"}, "type": "Feature"}
{"geometry": {"coordinates": [-97.489951, 35.417887], "type": "Point"}, "id": "waPc6cA9pI-1-uMBPXRuhQHtFf8=", "properties": {"@spider": "usps_collection_boxes", "addr:city": "OKLAHOMA CITY", "addr:country": "US", "addr:full": "4801 S I 35 SERVICE RD", "addr:postcode": "73129", "addr:state": "OK", "brand": "USPS", "collection_times": "Mo-Fr 17:00; Sa 15:30", "name": "USPS COLLECTION BOX - BLUE BOX", "note": "ON 12/24 AND 12/31, THIS BOX MAY BE COLLECTED AS EARLY AS 12 NOON.", "ref": "7312900018"}, "type": "Feature"}
{"geometry": {"coordinates": [-97.489951, 35.417887], "type": "Point"}, "id": "Tt5nbUDb3WvMErsnxp2EqkGPWyQ=", "properties": {"@spider": "usps_collection_boxes", "addr:city": "OKLAHOMA CITY", "addr:country": "US", "addr:full": "4801 S I 35 SERVICE RD", "addr:postcode": "73129", "addr:state": "OK", "brand": "USPS", "collection_times": "Mo-Fr 16:45; Sa 15:30", "name": "USPS COLLECTION BOX - PO LOBBY", "note": "ON 12/24 AND 12/31, THIS BOX MAY BE COLLECTED AS EARLY AS 12 NOON.", "ref": "7312900022"}, "type": "Feature"}
{"geometry": {"coordinates": [-97.489951, 35.417887], "type": "Point"}, "id": "ecHzpUkdjqcrfyHvtAFCCxwXA5Y=", "properties": {"@spider": "usps_collection_boxes", "addr:city": "OKLAHOMA CITY", "addr:country": "US", "addr:full": "4801 S I 35 SERVICE RD", "addr:postcode": "73129", "addr:state": "OK", "brand": "USPS", "collection_times": "Mo-Fr 17:00; Sa 15:30", "name": "USPS COLLECTION BOX - BLUE BOX", "note": "ON 12/24 AND 12/31, THIS BOX MAY BE COLLECTED AS EARLY AS 12 NOON.", "ref": "7312900023"}, "type": "Feature"}
{"geometry": {"coordinates": [-97.511532077, 35.406247531], "type": "Point"}, "id": "ATBUHy_jPHTYudCX4NDMhpm6WSw=", "properties": {"@spider": "usps_collection_boxes", "addr:city": "OKLAHOMA CITY", "addr:country": "US", "addr:full": "1 SE 59TH ST", "addr:postcode": "73129", "addr:state": "OK", "brand": "USPS", "collection_times": "Mo-Fr 16:15", "name": "USPS COLLECTION BOX - BLUE BOX", "note": "ON 12/24 AND 12/31, THIS BOX MAY BE COLLECTED AS EARLY AS 12 NOON.", "ref": "7312900024"}, "type": "Feature"}
{"geometry": {"coordinates": [-97.489951, 35.417887], "type": "Point"}, "id": "D2QUfKlGhXHgiL3UlXT5pDUFP-k=", "properties": {"@spider": "usps_collection_boxes", "addr:city": "OKLAHOMA CITY", "addr:country": "US", "addr:full": "4801 S I 35 SERVICE RD", "addr:postcode": "73129", "addr:state": "OK", "brand": "USPS", "collection_times": "Mo-Fr 16:45; Sa 15:30", "name": "USPS COLLECTION BOX - PO LOBBY", "note": "ON 12/24 AND 12/31, THIS BOX MAY BE COLLECTED AS EARLY AS 12 NOON.", "ref": "7312900025"}, "type": "Feature"}
{"geometry": {"coordinates": [-97.489976668, 35.417897035], "type": "Point"}, "id": "NEFJx6DupoZApX7JAkfr53NwuOA=", "properties": {"@spider": "usps_collection_boxes", "addr:city": "OKLAHOMA CITY", "addr:country": "US", "addr:full": "4801 S I 35 SERVICE RD", "addr:postcode": "73129", "addr:state": "OK", "brand": "USPS", "collection_times": "Mo-Fr 16:30; Sa 12:00", "name": "USPS COLLECTION BOX - PO LOBBY", "note": "ON 12/24 AND 12/31, THIS BOX MAY BE COLLECTED AS EARLY AS 12 NOON.", "ref": "7312900026"}, "type": "Feature"}
{"geometry": {"coordinates": [-97.3711464, 35.45181], "type": "Point"}, "id": "iQiOUPia7SbFHlSgBfLxnVpY5zE=", "properties": {"@spider": "usps_collection_boxes", "addr:city": "MIDWEST CITY", "addr:country": "US", "addr:full": "1401 S DOUGLAS BLVD STE A", "addr:postcode": "73130", "addr:state": "OK", "brand": "USPS", "collection_times": "Mo-Fr 15:15", "name": "USPS COLLECTION BOX - BLUE BOX", "note": "ON 12/24 AND 12/31, THIS BOX MAY BE COLLECTED AS EARLY AS 12 NOON.", "ref": "7313000002"}, "type": "Feature"}
{"geometry": {"coordinates": [-97.3519027, 35.449224], "type": "Point"}, "id": "7g9HvZZoYSWr1DA-BwTghfZKuE4=", "properties": {"@spider": "usps_collection_boxes", "addr:city": "MIDWEST CITY", "addr:country": "US", "addr:full": "10100 SE 15TH ST", "addr:postcode": "73130", "addr:state": "OK", "brand": "USPS", "collection_times": "Mo-Fr 15:15", "name": "USPS COLLECTION BOX - BLUE BOX", "note": "ON 12/24 AND 12/31, THIS BOX MAY BE COLLECTED AS EARLY AS 12 NOON.", "ref": "7313000006"}, "type": "Feature"}
{"geometry": {"coordinates": [-97.6221684, 35.537215], "type": "Point"}, "id": "plKX13JdyfqiPU-R9PoCut5YXsA=", "properties": {"@spider": "usps_collection_boxes", "addr:city": "WARR ACRES", "addr:country": "US", "addr:full": "5901 NW 63RD ST", "addr:postcode": "73132", "addr:state": "OK", "brand": "USPS", "collection_times": "Mo-Fr 17:00; Sa 14:45", "name": "USPS COLLECTION BOX - BLUE BOX", "note": "ON 12/24 AND 12/31, THIS BOX MAY BE COLLECTED AS EARLY AS 12 NOON.", "ref": "7313200000"}, "type": "Feature"}
{"geometry": {"coordinates": [-97.6221566, 35.537176], "type": "Point"}, "id": "Ot_v4kDJJN65kE3K2kzF6W_5pRY=", "properties": {"@spider": "usps_collection_boxes", "addr:city": "WARR ACRES", "addr:country": "US", "addr:full": "5901 NW 63RD ST", "addr:postcode": "73132", "addr:state": "OK", "brand": "USPS", "collection_times": "Mo-Fr 17:00; Sa 14:45", "name": "USPS COLLECTION BOX - BLUE BOX", "note": "ON 12/24 AND 12/31, THIS BOX MAY BE COLLECTED AS EARLY AS 12 NOON.", "ref": "7313200004"}, "type": "Feature"}
{"geometry": {"coordinates": [-97.6211886, 35.552116], "type": "Point"}, "id": "L4Vn3dJXctktRvqnVP4LQGEvb6Y=", "properties": {"@spider": "usps_collection_boxes", "addr:city": "WARR ACRES", "addr:country": "US", "addr:full": "5909 NW EXPRESSWAY", "addr:postcode": "73132", "addr:state": "OK", "brand": "USPS", "collection_times": "Mo-Fr 16:00", "name": "USPS COLLECTION BOX - BLUE BOX", "note": "ON 12/24 AND 12/31, THIS BOX MAY BE COLLECTED AS EARLY AS 12 NOON.", "ref": "7313200019"}, "type": "Feature"}
{"geometry": {"coordinates": [-97.6396745, 35.559406], "type": "Point"}, "id": "ZbGnPGd6OJqzkyfF1dElFm4iCO8=", "properties": {"@spider": "usps_collection_boxes", "addr:city": "WARR ACRES", "addr:country": "US", "addr:full": "7101 NW EXPRESSWAY", "addr:postcode": "73132", "addr:state": "OK", "brand": "USPS", "collection_times": "Mo-Fr 15:45", "name": "USPS COLLECTION BOX - BLUE BOX", "note": "ON 12/24 AND 12/31, THIS BOX MAY BE COLLECTED AS EARLY AS 12 NOON.", "ref": "7313200023"}, "type": "Feature"}
{"geometry": {"coordinates": [-97.6112038, 35.544989], "type": "Point"}, "id": "8mZHk-MzSHJBYIdhs7Vmg6YZYQo=", "properties": {"@spider": "usps_collection_boxes", "addr:city": "WARR ACRES", "addr:country": "US", "addr:full": "5601 NW 72ND ST", "addr:postcode": "73132", "addr:state": "OK", "brand": "USPS", "collection_times": "Mo-Fr 16:15", "name": "USPS COLLECTION BOX - BLUE BOX", "note": "ON 12/24 AND 12/31, THIS BOX MAY BE COLLECTED AS EARLY AS 12 NOON.", "ref": "7313200025"}, "type": "Feature"}
{"geometry": {"coordinates": [-97.622701, 35.536876], "type": "Point"}, "id": "_d2KYmOx8CeCpwHvvtbV96BUG8s=", "properties": {"@spider": "usps_collection_boxes", "addr:city": "WARR ACRES", "addr:country": "US", "addr:full": "6001 NW 63RD ST", "addr:postcode": "73132", "addr:state": "OK", "brand": "USPS", "collection_times": "Mo-Fr 17:00; Sa 11:45", "name": "USPS COLLECTION BOX - PO LOBBY", "note": "ON 12/24 AND 12/31, THIS BOX MAY BE COLLECTED AS EARLY AS 12 NOON.", "ref": "7313200046"}, "type": "Feature"}
{"geometry": {"coordinates": [-97.622702749, 35.536871479], "type": "Point"}, "id": "tcLBFPtHLBC9CnqvKLUZJA8TPEk=", "properties": {"@spider": "usps_collection_boxes", "addr:city": "WARR ACRES", "addr:country": "US", "addr:full": "6001 NW 63RD ST", "addr:postcode": "73132", "addr:state": "OK", "brand": "USPS", "collection_times": "Mo-Fr 17:00; Sa 12:00", "name": "USPS COLLECTION BOX - PO LOBBY", "note": "ON 12/24 AND 12/31, THIS BOX MAY BE COLLECTED AS EARLY AS 12 NOON.", "ref": "7313200054"}, "type": "Feature"}
{"geometry": {"coordinates": [-97.5799604, 35.610119], "type": "Point"}, "id": "Jzdt0Xkp54uVdOOuvcKqA7RAqbY=", "properties": {"@spider": "usps_collection_boxes", "addr:city": "OKLAHOMA CITY", "addr:country": "US", "addr:full": "3445 W MEMORIAL RD", "addr:postcode": "73134", "addr:state": "OK", "brand": "USPS", "collection_times": "Mo-Fr 15:45", "name": "USPS COLLECTION BOX - BLUE BOX", "note": "ON 12/24 AND 12/31, THIS BOX MAY BE COLLECTED AS EARLY AS 12 NOON.", "ref": "7313400009"}, "type": "Feature"}
{"geometry": {"coordinates": [-97.5871472, 35.61119], "type": "Point"}, "id": "ra1Ws3q-j0M6vy3vVz64ClIKYbA=", "properties": {"@spider": "usps_collection_boxes", "addr:city": "OKLAHOMA CITY", "addr:country": "US", "addr:full": "3705 W MEMORIAL RD", "addr:postcode": "73134", "addr:state": "OK", "brand": "USPS", "collection_times": "Mo-Fr 15:45", "name": "USPS COLLECTION BOX - BLUE BOX", "note": "ON 12/24 AND 12/31, THIS BOX MAY BE COLLECTED AS EARLY AS 12 NOON.", "ref": "7313400011"}, "type": "Feature"}
{"geometry": {"coordinates": [-97.5871341, 35.611198], "type": "Point"}, "id": "zd8JSD0UrtxLddTA1MjDxi_HAyI=", "properties": {"@spider": "usps_collection_boxes", "addr:city": "OKLAHOMA CITY", "addr:country": "US", "addr:full": "3705 W MEMORIAL RD", "addr:postcode": "73134", "addr:state": "OK", "brand": "USPS", "collection_times": "Mo-Fr 15:45", "name": "USPS COLLECTION BOX - BLUE BOX", "note": "ON 12/24 AND 12/31, THIS BOX MAY BE COLLECTED AS EARLY AS 12 NOON.", "ref": "7313400019"}, "type": "Feature"}
{"geometry": {"coordinates": [-97.6016089, 35.611721], "type": "Point"}, "id": "bLzSwwQv_TJezGthpyQljk9_psk=", "properties": {"@spider": "usps_collection_boxes", "addr:city": "OKLAHOMA CITY", "addr:country": "US", "addr:full": "4401 W MEMORIAL RD", "addr:postcode": "73134", "addr:state": "OK", "brand": "USPS", "collection_times": "Mo-Fr 15:45", "name": "USPS COLLECTION BOX - BLUE BOX", "note": "ON 12/24 AND 12/31, THIS BOX MAY BE COLLECTED AS EARLY AS 12 NOON.", "ref": "7313400021"}, "type": "Feature"}
{"geometry": {"coordinates": [-97.6060778, 35.464667], "type": "Point"}, "id": "zgfV42vKyYGXCMTxnelWTMBAW1U=", "properties": {"@spider": "usps_collection_boxes", "addr:city": "OKLAHOMA CITY", "addr:country": "US", "addr:full": "4901 W RENO AVE", "addr:postcode": "73137", "addr:state": "OK", "brand": "USPS", "collection_times": "Mo-Fr 17:00; Sa 11:30", "name": "USPS COLLECTION BOX - BLUE BOX", "note": "ON 12/24 AND 12/31, THIS BOX MAY BE COLLECTED AS EARLY AS 12 NOON.", "ref": "7313700000"}, "type": "Feature"}
{"geometry": {"coordinates": [-97.6060709, 35.464673], "type": "Point"}, "id": "VGfyys6Vj-PdI_76CzmpXSCs8Y4=", "properties": {"@spider": "usps_collection_boxes", "addr:city": "OKLAHOMA CITY", "addr:country": "US", "addr:full": "4901 W RENO AVE", "addr:postcode": "73137", "addr:state": "OK", "brand": "USPS", "collection_times": "Mo-Fr 17:00; Sa 11:30", "name": "USPS COLLECTION BOX - BLUE BOX", "note": "ON 12/24 AND 12/31, THIS BOX MAY BE COLLECTED AS EARLY AS 12 NOON.", "ref": "7313700002"}, "type": "Feature"}
{"geometry": {"coordinates": [-97.6060708, 35.464677], "type": "Point"}, "id": "Y1_XTirICULeVjiHHhobqtjItnY=", "properties": {"@spider": "usps_collection_boxes", "addr:city": "OKLAHOMA CITY", "addr:country": "US", "addr:full": "4901 W RENO AVE", "addr:postcode": "73137", "addr:state": "OK", "brand": "USPS", "collection_times": "Mo-Fr 17:00; Sa 11:30", "name": "USPS COLLECTION BOX - BLUE BOX", "note": "ON 12/24 AND 12/31, THIS BOX MAY BE COLLECTED AS EARLY AS 12 NOON.", "ref": "7313700003"}, "type": "Feature"}
{"geometry": {"coordinates": [-97.6060635, 35.464676], "type": "Point"}, "id": "ammVdzGRizFHtiZiHLjvhu1uLEg=", "properties": {"@spider": "usps_collection_boxes", "addr:city": "OKLAHOMA CITY", "addr:country": "US", "addr:full": "4901 W RENO AVE", "addr:postcode": "73137", "addr:state": "OK", "brand": "USPS", "collection_times": "Mo-Fr 17:00; Sa 11:30", "name": "USPS COLLECTION BOX - BLUE BOX", "note": "ON 12/24 AND 12/31, THIS BOX MAY BE COLLECTED AS EARLY AS 12 NOON.", "ref": "7313700004"}, "type": "Feature"}
{"geometry": {"coordinates": [-97.607013, 35.464459], "type": "Point"}, "id": "wpPKHG6RzEqaZLJo78UZ7vR2pQE=", "properties": {"@spider": "usps_collection_boxes", "addr:city": "OKLAHOMA CITY", "addr:country": "US", "addr:full": "4901 W RENO AVE", "addr:postcode": "73137", "addr:state": "OK", "brand": "USPS", "collection_times": "Mo-Fr 17:00", "name": "USPS COLLECTION BOX - PO LOBBY", "note": "ON 12/24 AND 12/31, THIS BOX MAY BE COLLECTED AS EARLY AS 12 NOON.", "ref": "7313700006"}, "type": "Feature"}
{"geometry": {"coordinates": [-97.5215414, 35.378328], "type": "Point"}, "id": "yU-EIO6oTnUhZCtOBkBNXkqdY2w=", "properties": {"@spider": "usps_collection_boxes", "addr:city": "OKLAHOMA CITY", "addr:country": "US", "addr:full": "8921 S WALKER AVE", "addr:postcode": "73139", "addr:state": "OK", "brand": "USPS", "collection_times": "Mo-Fr 16:00", "name": "USPS COLLECTION BOX - BLUE BOX", "note": "ON 12/24 AND 12/31, THIS BOX MAY BE COLLECTED AS EARLY AS 12 NOON.", "ref": "7313900000"}, "type": "Feature"}
{"geometry": {"coordinates": [-97.528427, 35.376739], "type": "Point"}, "id": "RfM86X7T1NL0NCNjlAoVufmy8_4=", "properties": {"@spider": "usps_collection_boxes", "addr:city": "OKLAHOMA CITY", "addr:country": "US", "addr:full": "820 SW 89TH ST", "addr:postcode": "73139", "addr:state": "OK", "brand": "USPS", "collection_times": "Mo-Fr 16:00", "name": "USPS COLLECTION BOX - BLUE BOX", "note": "ON 12/24 AND 12/31, THIS BOX MAY BE COLLECTED AS EARLY AS 12 NOON.", "ref": "7313900003"}, "type": "Feature"}
{"geometry": {"coordinates": [-97.5218290079, 35.383818981], "type": "Point"}, "id": "U01e8c3SFf3yIoRqGc-mjnQEYcw=", "properties": {"@spider": "usps_collection_boxes", "addr:city": "OKLAHOMA CITY", "addr:country": "US", "addr:full": "8283 S WALKER AVE", "addr:postcode": "73139", "addr:state": "OK", "brand": "USPS", "collection_times": "Mo-Fr 16:00", "name": "USPS COLLECTION BOX - BLUE BOX", "note": "ON 12/24 AND 12/31, THIS BOX MAY BE COLLECTED AS EARLY AS 12 NOON.", "ref": "7313900007"}, "type": "Feature"}
{"geometry": {"coordinates": [-97.5297712, 35.405193], "type": "Point"}, "id": "s-mMlvv2R694_-0MrWBr3vr3hEc=", "properties": {"@spider": "usps_collection_boxes", "addr:city": "OKLAHOMA CITY", "addr:country": "US", "addr:full": "6014 S WESTERN AVE", "addr:postcode": "73139", "addr:state": "OK", "brand": "USPS", "collection_times": "Mo-Fr 16:15", "name": "USPS COLLECTION BOX - BLUE BOX", "note": "ON 12/24 AND 12/31, THIS BOX MAY BE COLLECTED AS EARLY AS 12 NOON.", "ref": "7313900012"}, "type": "Feature"}
{"geometry": {"coordinates": [-97.528876113, 35.377066887], "type": "Point"}, "id": "LaNBptJXWCPoPM_0G4H3-_4Nqmg=", "properties": {"@spider": "usps_collection_boxes", "addr:city": "OKLAHOMA CITY", "addr:country": "US", "addr:full": "820 SW 89TH ST", "addr:postcode": "73139", "addr:state": "OK", "brand": "USPS", "collection_times": "Mo-Fr 16:00", "name": "USPS COLLECTION BOX - BLUE BOX", "note": "ON 12/24 AND 12/31, THIS BOX MAY BE COLLECTED AS EARLY AS 12 NOON.", "ref": "7313900024"}, "type": "Feature"}
{"geometry": {"coordinates": [-97.622752, 35.59444], "type": "Point"}, "id": "ePJQa7JqHZi8qFqyo6UhRDLRjuU=", "properties": {"@spider": "usps_collection_boxes", "addr:city": "OKLAHOMA CITY", "addr:country": "US", "addr:full": "12203 WARWICK DR", "addr:postcode": "73142", "addr:state": "OK", "brand": "USPS", "collection_times": "Mo-Fr 16:30", "name": "USPS COLLECTION BOX - BLUE BOX", "note": "ON 12/24 AND 12/31, THIS BOX MAY BE COLLECTED AS EARLY AS 12 NOON.", "ref": "7314200003"}, "type": "Feature"}
{"geometry": {"coordinates": [-97.6077657, 35.611321], "type": "Point"}, "id": "7ub_p5-WzfrsY3-YcsdJyFWDjt0=", "properties": {"@spider": "usps_collection_boxes", "addr:city": "OKLAHOMA CITY", "addr:country": "US", "addr:full": "4801 GAILLARDIA PKWY", "addr:postcode": "73142", "addr:state": "OK", "brand": "USPS", "collection_times": "Mo-Fr 16:00", "name": "USPS COLLECTION BOX - BLUE BOX", "note": "ON 12/24 AND 12/31, THIS BOX MAY BE COLLECTED AS EARLY AS 12 NOON.", "ref": "7314200005"}, "type": "Feature"}
{"geometry": {"coordinates": [-97.6077926, 35.611342], "type": "Point"}, "id": "bac9QejuBvQB1JUyq2al3jLfjCo=", "properties": {"@spider": "usps_collection_boxes", "addr:city": "OKLAHOMA CITY", "addr:country": "US", "addr:full": "4801 GAILLARDIA PKWY", "addr:postcode": "73142", "addr:state": "OK", "brand": "USPS", "collection_times": "Mo-Fr 16:00", "name": "USPS COLLECTION BOX - BLUE BOX", "note": "ON 12/24 AND 12/31, THIS BOX MAY BE COLLECTED AS EARLY AS 12 NOON.", "ref": "7314200006"}, "type": "Feature"}
{"geometry": {"coordinates": [-97.4004287957, 35.428563983], "type": "Point"}, "id": "cT5Ok2pHUwJkJDdR4pLCRBiO25A=", "properties": {"@spider": "usps_collection_boxes", "addr:city": "OKC", "addr:country": "US", "addr:full": "3681 H AVE (BLDG 478)", "addr:postcode": "73145", "addr:state": "OK", "brand": "USPS", "collection_times": "Mo-Fr 16:00", "name": "USPS COLLECTION BOX - PO LOBBY", "note": "ON 12/24 AND 12/31, THIS BOX MAY BE COLLECTED AS EARLY AS 12 NOON.", "ref": "7314500011"}, "type": "Feature"}
{"geometry": {"coordinates": [-97.3765880741, 35.4173792719], "type": "Point"}, "id": "qVdagkET5uhp4tIgoonS47nFKoM=", "properties": {"@spider": "usps_collection_boxes", "addr:city": "OKC", "addr:country": "US", "addr:full": "3001 STAFF DR", "addr:postcode": "73145", "addr:state": "OK", "brand": "USPS", "collection_times": "Mo-Fr 15:00", "name": "USPS COLLECTION BOX - BLUE BOX", "note": "ON 12/24 AND 12/31, THIS BOX MAY BE COLLECTED AS EARLY AS 12 NOON.", "ref": "7314500012"}, "type": "Feature"}
{"geometry": {"coordinates": [-97.4208364, 35.427327], "type": "Point"}, "id": "h0jC0ml7occKxO86yOBL-6W2wxw=", "properties": {"@spider": "usps_collection_boxes", "addr:city": "OKC", "addr:country": "US", "addr:full": "5905 ARNOLD ST", "addr:postcode": "73145", "addr:state": "OK", "brand": "USPS", "collection_times": "Mo-Fr 14:30", "name": "USPS COLLECTION BOX - BLUE BOX", "note": "ON 12/24 AND 12/31, THIS BOX MAY BE COLLECTED AS EARLY AS 12 NOON.", "ref": "7314500013"}, "type": "Feature"}
{"geometry": {"coordinates": [-97.400428923, 35.428555064], "type": "Point"}, "id": "B4Hqgwqp5J7ksYIUd8gny-1a4bM=", "properties": {"@spider": "usps_collection_boxes", "addr:city": "OKC", "addr:country": "US", "addr:full": "3681 H AVE BLDG 478", "addr:postcode": "73145", "addr:state": "OK", "brand": "USPS", "collection_times": "Mo-Fr 16:00", "name": "USPS COLLECTION BOX - PO LOBBY", "note": "ON 12/24 AND 12/31, THIS BOX MAY BE COLLECTED AS EARLY AS 12 NOON.", "ref": "7314500015"}, "type": "Feature"}
{"geometry": {"coordinates": [-97.591896, 35.466741], "type": "Point"}, "id": "g7IJsllZnot3lxczXIc92ygVizw=", "properties": {"@spider": "usps_collection_boxes", "addr:city": "OKLAHOMA CITY", "addr:country": "US", "addr:full": "4025 W RENO AVE", "addr:postcode": "73147", "addr:state": "OK", "brand": "USPS", "collection_times": "Mo-Fr 21:00; Sa 18:00", "name": "USPS COLLECTION BOX - PO LOBBY", "note": "ON 12/24 AND 12/31, THIS BOX MAY BE COLLECTED AS EARLY AS 12 NOON.", "ref": "7314700001"}, "type": "Feature"}
{"geometry": {"coordinates": [-97.591896, 35.466741], "type": "Point"}, "id": "UV2jjaL8rHIK5EIyIzM4LSgt0eA=", "properties": {"@spider": "usps_collection_boxes", "addr:city": "OKLAHOMA CITY", "addr:country": "US", "addr:full": "4025 W RENO AVE", "addr:postcode": "73147", "addr:state": "OK", "brand": "USPS", "collection_times": "Mo-Fr 21:00; Sa 18:00", "name": "USPS COLLECTION BOX - PO LOBBY", "note": "ON 12/24 AND 12/31, THIS BOX MAY BE COLLECTED AS EARLY AS 12 NOON.", "ref": "7314700002"}, "type": "Feature"}
{"geometry": {"coordinates": [-97.5550153, 35.454872], "type": "Point"}, "id": "u9O7Gp4xfLZXHc_7Z53XIL12L-w=", "properties": {"@spider": "usps_collection_boxes", "addr:city": "OKLAHOMA CITY", "addr:country": "US", "addr:full": "1101 S AGNEW AVE", "addr:postcode": "73148", "addr:state": "OK", "brand": "USPS", "collection_times": "Mo-Fr 16:45; Sa 11:30", "name": "USPS COLLECTION BOX - BLUE BOX", "note": "ON 12/24 AND 12/31, THIS BOX MAY BE COLLECTED AS EARLY AS 12 NOON.", "ref": "7314800001"}, "type": "Feature"}
{"geometry": {"coordinates": [-97.5550106, 35.454861], "type": "Point"}, "id": "LQsHGVgXyn-uOmt3Lumbocn3IF8=", "properties": {"@spider": "usps_collection_boxes", "addr:city": "OKLAHOMA CITY", "addr:country": "US", "addr:full": "1101 S AGNEW AVE", "addr:postcode": "73148", "addr:state": "OK", "brand": "USPS", "collection_times": "Mo-Fr 16:45; Sa 11:30", "name": "USPS COLLECTION BOX - BLUE BOX", "note": "ON 12/24 AND 12/31, THIS BOX MAY BE COLLECTED AS EARLY AS 12 NOON.", "ref": "7314800002"}, "type": "Feature"}
{"geometry": {"coordinates": [-97.5550189, 35.454883], "type": "Point"}, "id": "DevR1Z9MgCujSnrqpI2fcvRz-5A=", "properties": {"@spider": "usps_collection_boxes", "addr:city": "OKLAHOMA CITY", "addr:country": "US", "addr:full": "1101 S AGNEW AVE", "addr:postcode": "73148", "addr:state": "OK", "brand": "USPS", "collection_times": "Mo-Fr 16:45; Sa 11:30", "name": "USPS COLLECTION BOX - BLUE BOX", "note": "ON 12/24 AND 12/31, THIS BOX MAY BE COLLECTED AS EARLY AS 12 NOON.", "ref": "7314800005"}, "type": "Feature"}
{"geometry": {"coordinates": [-97.554623, 35.454831], "type": "Point"}, "id": "QUt5t3FdQYBPSm728Of_w7IWCSc=", "properties": {"@spider": "usps_collection_boxes", "addr:city": "OKLAHOMA CITY", "addr:country": "US", "addr:full": "1101 S AGNEW AVE", "addr:postcode": "73148", "addr:state": "OK", "brand": "USPS", "collection_times": "Mo-Fr 16:45", "name": "USPS COLLECTION BOX - PO LOBBY", "note": "ON 12/24 AND 12/31, THIS BOX MAY BE COLLECTED AS EARLY AS 12 NOON.", "ref": "7314800006"}, "type": "Feature"}
{"geometry": {"coordinates": [-97.554623, 35.454831], "type": "Point"}, "id": "-XwEQzanVf8i7OYqBb_81q4-zvQ=", "properties": {"@spider": "usps_collection_boxes", "addr:city": "OKLAHOMA CITY", "addr:country": "US", "addr:full": "1101 S AGNEW AVE", "addr:postcode": "73148", "addr:state": "OK", "brand": "USPS", "collection_times": "Mo-Fr 16:45", "name": "USPS COLLECTION BOX - PO LOBBY", "note": "ON 12/24 AND 12/31, THIS BOX MAY BE COLLECTED AS EARLY AS 12 NOON.", "ref": "7314800007"}, "type": "Feature"}
{"geometry": {"coordinates": [-97.5449142448, 35.3926680702], "type": "Point"}, "id": "PAbOp7mauATUgECCzCNbAy0pWE4=", "properties": {"@spider": "usps_collection_boxes", "addr:city": "OKLAHOMA CITY", "addr:country": "US", "addr:full": "1615 PENN PARK BLVD", "addr:postcode": "73159", "addr:state": "OK", "brand": "USPS", "collection_times": "Mo-Fr 16:30", "name": "USPS COLLECTION BOX - BLUE BOX", "note": "ON 12/24 AND 12/31, THIS BOX MAY BE COLLECTED AS EARLY AS 12 NOON.", "ref": "7315900010"}, "type": "Feature"}
{"geometry": {"coordinates": [-97.5473711, 35.365388], "type": "Point"}, "id": "aYBaLoqqeFGYGFEVMOQ4fkjSYQo=", "properties": {"@spider": "usps_collection_boxes", "addr:city": "OKLAHOMA CITY", "addr:country": "US", "addr:full": "1624 GREENBRIAR PL", "addr:postcode": "73159", "addr:state": "OK", "brand": "USPS", "collection_times": "Mo-Fr 15:45", "name": "USPS COLLECTION BOX - BLUE BOX", "note": "ON 12/24 AND 12/31, THIS BOX MAY BE COLLECTED AS EARLY AS 12 NOON.", "ref": "7315900015"}, "type": "Feature"}
{"geometry": {"coordinates": [-97.5480514, 35.374751], "type": "Point"}, "id": "RjDICDwXB1daWJlDUmtGv8zKMLI=", "properties": {"@spider": "usps_collection_boxes", "addr:city": "OKLAHOMA CITY", "addr:country": "US", "addr:full": "9201 S PENN AVE", "addr:postcode": "73159", "addr:state": "OK", "brand": "USPS", "collection_times": "Mo-Fr 17:00; Sa 15:30", "name": "USPS COLLECTION BOX - BLUE BOX", "note": "ON 12/24 AND 12/31, THIS BOX MAY BE COLLECTED AS EARLY AS 12 NOON.", "ref": "7315900019"}, "type": "Feature"}
{"geometry": {"coordinates": [-97.547855, 35.374996], "type": "Point"}, "id": "68gQDhm1tcSBzCv2smWxA6rqBTY=", "properties": {"@spider": "usps_collection_boxes", "addr:city": "OKLAHOMA CITY", "addr:country": "US", "addr:full": "9201 S PENN AVE", "addr:postcode": "73159", "addr:state": "OK", "brand": "USPS", "collection_times": "Mo-Fr 17:00; Sa 15:30", "name": "USPS COLLECTION BOX - PO LOBBY", "note": "ON 12/24 AND 12/31, THIS BOX MAY BE COLLECTED AS EARLY AS 12 NOON.", "ref": "7315900026"}, "type": "Feature"}
{"geometry": {"coordinates": [-97.547855, 35.374996], "type": "Point"}, "id": "wLQ2eN3lzF07KuyEzvoSJdqK9bQ=", "properties": {"@spider": "usps_collection_boxes", "addr:city": "OKLAHOMA CITY", "addr:country": "US", "addr:full": "9201 S PENN AVE", "addr:postcode": "73159", "addr:state": "OK", "brand": "USPS", "collection_times": "Mo-Fr 17:00; Sa 15:30", "name": "USPS COLLECTION BOX - PO LOBBY", "note": "ON 12/24 AND 12/31, THIS BOX MAY BE COLLECTED AS EARLY AS 12 NOON.", "ref": "7315900028"}, "type": "Feature"}
{"geometry": {"coordinates": [-97.596806, 35.396118], "type": "Point"}, "id": "5_1Vg4BUxLOCGZnxWlaNMKsr9yQ=", "properties": {"@spider": "usps_collection_boxes", "addr:city": "OKLAHOMA CITY", "addr:country": "US", "addr:full": "7100 TERMINAL DR", "addr:postcode": "73159", "addr:state": "OK", "brand": "USPS", "collection_times": "Mo-Fr 08:30", "name": "USPS COLLECTION BOX - BLUE BOX", "ref": "7315900029"}, "type": "Feature"}
{"geometry": {"coordinates": [-97.547855, 35.374996], "type": "Point"}, "id": "1vJlnmI3-s4Nwa1EyOakfoHNmNU=", "properties": {"@spider": "usps_collection_boxes", "addr:city": "OKLAHOMA CITY", "addr:country": "US", "addr:full": "9201 S PENN AVE", "addr:postcode": "73159", "addr:state": "OK", "brand": "USPS", "collection_times": "Mo-Fr 17:00; Sa 15:30", "name": "USPS COLLECTION BOX - APC", "note": "ON 12/24 AND 12/31, THIS BOX MAY BE COLLECTED AS EARLY AS 12 NOON.", "ref": "7315900030"}, "type": "Feature"}
{"geometry": {"coordinates": [-97.547883157, 35.374982291], "type": "Point"}, "id": "MBOVEfWLxXlP1_LKDEOdDcgLnhU=", "properties": {"@spider": "usps_collection_boxes", "addr:city": "OKLAHOMA CITY", "addr:country": "US", "addr:full": "9201 S PENNSYLVANIA AVE", "addr:postcode": "73159", "addr:state": "OK", "brand": "USPS", "collection_times": "Mo-Fr 17:00; Sa 12:30", "name": "USPS COLLECTION BOX - PO LOBBY", "note": "ON 12/24 AND 12/31, THIS BOX MAY BE COLLECTED AS EARLY AS 12 NOON.", "ref": "7315900035"}, "type": "Feature"}
{"geometry": {"coordinates": [-97.4752364, 35.334424], "type": "Point"}, "id": "_3eu8cUSL49DnaoHcBlqt3QFQuc=", "properties": {"@spider": "usps_collection_boxes", "addr:city": "MOORE", "addr:country": "US", "addr:full": "805 SE 4TH ST", "addr:postcode": "73160", "addr:state": "OK", "brand": "USPS", "collection_times": "Mo-Fr 16:00", "name": "USPS COLLECTION BOX - BLUE BOX", "note": "ON 12/24 AND 12/31, THIS BOX MAY BE COLLECTED AS EARLY AS 12 NOON.", "ref": "7316000001"}, "type": "Feature"}
{"geometry": {"coordinates": [-97.4915294, 35.332948], "type": "Point"}, "id": "b924GzHK_9ByrQCdEb56LWqKBTo=", "properties": {"@spider": "usps_collection_boxes", "addr:city": "MOORE", "addr:country": "US", "addr:full": "601 S I 35 SERVICE RD", "addr:postcode": "73160", "addr:state": "OK", "brand": "USPS", "collection_times": "Mo-Fr 17:00; Sa 16:30", "name": "USPS COLLECTION BOX - BLUE BOX", "note": "ON 12/24 AND 12/31, THIS BOX MAY BE COLLECTED AS EARLY AS 12 NOON.", "ref": "7316000002"}, "type": "Feature"}
{"geometry": {"coordinates": [-97.4915395, 35.332948], "type": "Point"}, "id": "fJG-QsFTaDW48IapnbFt6Cay7tQ=", "properties": {"@spider": "usps_collection_boxes", "addr:city": "MOORE", "addr:country": "US", "addr:full": "601 S I 35 SERVICE RD", "addr:postcode": "73160", "addr:state": "OK", "brand": "USPS", "collection_times": "Mo-Fr 17:00; Sa 16:30", "name": "USPS COLLECTION BOX - BLUE BOX", "note": "ON 12/24 AND 12/31, THIS BOX MAY BE COLLECTED AS EARLY AS 12 NOON.", "ref": "7316000004"}, "type": "Feature"}
{"geometry": {"coordinates": [-97.4955349, 35.344554], "type": "Point"}, "id": "M-pivfGBtxzbrITpLUkgWqLHao0=", "properties": {"@spider": "usps_collection_boxes", "addr:city": "MOORE", "addr:country": "US", "addr:full": "633 N MOORE AVE", "addr:postcode": "73160", "addr:state": "OK", "brand": "USPS", "collection_times": "Mo-Fr 16:15", "name": "USPS COLLECTION BOX - BLUE BOX", "note": "ON 12/24 AND 12/31, THIS BOX MAY BE COLLECTED AS EARLY AS 12 NOON.", "ref": "7316000018"}, "type": "Feature"}
{"geometry": {"coordinates": [-97.4754326, 35.347634], "type": "Point"}, "id": "Wivdy_aPgMtwG-L_fuBY6a9kI0o=", "properties": {"@spider": "usps_collection_boxes", "addr:city": "MOORE", "addr:country": "US", "addr:full": "1258 N EASTERN AVE", "addr:postcode": "73160", "addr:state": "OK", "brand": "USPS", "collection_times": "Mo-Fr 16:00", "name": "USPS COLLECTION BOX - BLUE BOX", "note": "ON 12/24 AND 12/31, THIS BOX MAY BE COLLECTED AS EARLY AS 12 NOON.", "ref": "7316000021"}, "type": "Feature"}
{"geometry": {"coordinates": [-97.4914642, 35.332782], "type": "Point"}, "id": "M65GerQeCYsasA47IuLUEzyLAAw=", "properties": {"@spider": "usps_collection_boxes", "addr:city": "MOORE", "addr:country": "US", "addr:full": "601 S I 35 SERVICE RD", "addr:postcode": "73160", "addr:state": "OK", "brand": "USPS", "collection_times": "Mo-Fr 17:00; Sa 16:30", "name": "USPS COLLECTION BOX - PO LOBBY", "note": "ON 12/24 AND 12/31, THIS BOX MAY BE COLLECTED AS EARLY AS 12 NOON.", "ref": "7316000026"}, "type": "Feature"}
{"geometry": {"coordinates": [-97.4914472, 35.33273], "type": "Point"}, "id": "FJyuznEj-VXFgcwgA9ar-JFLMW0=", "properties": {"@spider": "usps_collection_boxes", "addr:city": "MOORE", "addr:country": "US", "addr:full": "601 S I 35 SERVICE RD", "addr:postcode": "73160", "addr:state": "OK", "brand": "USPS", "collection_times": "Mo-Fr 17:00; Sa 16:30", "name": "USPS COLLECTION BOX - PO LOBBY", "note": "ON 12/24 AND 12/31, THIS BOX MAY BE COLLECTED AS EARLY AS 12 NOON.", "ref": "7316000028"}, "type": "Feature"}
{"geometry": {"coordinates": [-97.4925858831, 35.3337120271], "type": "Point"}, "id": "ObZa5xov1YsSCDBDpA8g-zJd1gE=", "properties": {"@spider": "usps_collection_boxes", "addr:city": "MOORE", "addr:country": "US", "addr:full": "601 S I 35 SERVICE RD", "addr:postcode": "73160", "addr:state": "OK", "brand": "USPS", "collection_times": "Mo-Fr 17:00; Sa 16:30", "name": "USPS COLLECTION BOX - APC", "note": "ON 12/24 AND 12/31, THIS BOX MAY BE COLLECTED AS EARLY AS 12 NOON.", "ref": "7316000030"}, "type": "Feature"}
{"geometry": {"coordinates": [-97.491595482, 35.319770558], "type": "Point"}, "id": "yrjwIf3fAFP3ESZk49r77ZaT_Xk=", "properties": {"@spider": "usps_collection_boxes", "addr:city": "MOORE", "addr:country": "US", "addr:full": "601 S SERVICE RD", "addr:postcode": "73160", "addr:state": "OK", "brand": "USPS", "collection_times": "Mo-Fr 17:00; Sa 12:00", "name": "USPS COLLECTION BOX - PO LOBBY", "note": "ON 12/24 AND 12/31, THIS BOX MAY BE COLLECTED AS EARLY AS 12 NOON.", "ref": "7316000037"}, "type": "Feature"}
{"geometry": {"coordinates": [-97.640381168, 35.558947921], "type": "Point"}, "id": "x04YcLQMC5fdccRYai-s3QoGOM4=", "properties": {"@spider": "usps_collection_boxes", "addr:city": "OKLAHOMA CITY", "addr:country": "US", "addr:full": "7101 NW EXPRESSWAY", "addr:postcode": "73162", "addr:state": "OK", "brand": "USPS", "collection_times": "Mo-Fr 15:45", "name": "USPS COLLECTION BOX - BLUE BOX", "note": "ON 12/24 AND 12/31, THIS BOX MAY BE COLLECTED AS EARLY AS 12 NOON.", "ref": "7316200003"}, "type": "Feature"}
{"geometry": {"coordinates": [-97.65294, 35.580114], "type": "Point"}, "id": "do-X7QBZzzXgHXofCRb1DpwmQYs=", "properties": {"@spider": "usps_collection_boxes", "addr:city": "OKLAHOMA CITY", "addr:country": "US", "addr:full": "7800 W HEFNER RD", "addr:postcode": "73162", "addr:state": "OK", "brand": "USPS", "collection_times": "Mo-Fr 17:00; Sa 15:15", "name": "USPS COLLECTION BOX - BLUE BOX", "note": "ON 12/24 AND 12/31, THIS BOX MAY BE COLLECTED AS EARLY AS 12 NOON.", "ref": "7316200009"}, "type": "Feature"}
{"geometry": {"coordinates": [-97.65294, 35.580114], "type": "Point"}, "id": "spLFDvUu67tOrUdVZYK_8hBht1o=", "properties": {"@spider": "usps_collection_boxes", "addr:city": "OKLAHOMA CITY", "addr:country": "US", "addr:full": "7800 W HEFNER RD", "addr:postcode": "73162", "addr:state": "OK", "brand": "USPS", "collection_times": "Mo-Fr 17:00; Sa 15:15", "name": "USPS COLLECTION BOX - BLUE BOX", "note": "ON 12/24 AND 12/31, THIS BOX MAY BE COLLECTED AS EARLY AS 12 NOON.", "ref": "7316200010"}, "type": "Feature"}
{"geometry": {"coordinates": [-97.65294, 35.580114], "type": "Point"}, "id": "0IdrBdovC9KRqkQ4DwOCVbyvLAU=", "properties": {"@spider": "usps_collection_boxes", "addr:city": "OKLAHOMA CITY", "addr:country": "US", "addr:full": "7800 W HEFNER RD", "addr:postcode": "73162", "addr:state": "OK", "brand": "USPS", "collection_times": "Mo-Fr 17:00; Sa 15:15", "name": "USPS COLLECTION BOX - PO LOBBY", "note": "ON 12/24 AND 12/31, THIS BOX MAY BE COLLECTED AS EARLY AS 12 NOON.", "ref": "7316200021"}, "type": "Feature"}
{"geometry": {"coordinates": [-97.65294, 35.580114], "type": "Point"}, "id": "t2MbYXpa80p99HFxgyPyyqHpzps=", "properties": {"@spider": "usps_collection_boxes", "addr:city": "OKLAHOMA CITY", "addr:country": "US", "addr:full": "7800 W HEFNER RD", "addr:postcode": "73162", "addr:state": "OK", "brand": "USPS", "collection_times": "Mo-Fr 17:00; Sa 15:15", "name": "USPS COLLECTION BOX - PO LOBBY", "note": "ON 12/24 AND 12/31, THIS BOX MAY BE COLLECTED AS EARLY AS 12 NOON.", "ref": "7316200022"}, "type": "Feature"}
{"geometry": {"coordinates": [-97.65294, 35.580114], "type": "Point"}, "id": "jV9GKrX25OLCv__DL61W7_bIQzw=", "properties": {"@spider": "usps_collection_boxes", "addr:city": "OKLAHOMA CITY", "addr:country": "US", "addr:full": "7800 W HEFNER RD", "addr:postcode": "73162", "addr:state": "OK", "brand": "USPS", "collection_times": "Mo-Fr 17:00; Sa 15:15", "name": "USPS COLLECTION BOX - APC", "note": "ON 12/24 AND 12/31, THIS BOX MAY BE COLLECTED AS EARLY AS 12 NOON.", "ref": "7316200023"}, "type": "Feature"}
{"geometry": {"coordinates": [-97.652943974, 35.580104534], "type": "Point"}, "id": "h7Ys_lOLCmexVxK016P-FapMvLA=", "properties": {"@spider": "usps_collection_boxes", "addr:city": "OKLAHOMA CITY", "addr:country": "US", "addr:full": "7800 W HEFNER RD", "addr:postcode": "73162", "addr:state": "OK", "brand": "USPS", "collection_times": "Mo-Fr 18:00; Sa 13:00", "name": "USPS COLLECTION BOX - PO LOBBY", "note": "ON 12/24 AND 12/31, THIS BOX MAY BE COLLECTED AS EARLY AS 12 NOON.", "ref": "7316200026"}, "type": "Feature"}
{"geometry": {"coordinates": [-97.5135374, 35.348625], "type": "Point"}, "id": "oDjjkk0ZX0XQZiBvP1tcKRtqm5k=", "properties": {"@spider": "usps_collection_boxes", "addr:city": "MOORE", "addr:country": "US", "addr:full": "1219 N SANTA FE AVE", "addr:postcode": "73170", "addr:state": "OK", "brand": "USPS", "collection_times": "Mo-Fr 16:30", "name": "USPS COLLECTION BOX - BLUE BOX", "note": "ON 12/24 AND 12/31, THIS BOX MAY BE COLLECTED AS EARLY AS 12 NOON.", "ref": "7317000002"}, "type": "Feature"}
{"geometry": {"coordinates": [-97.5315465, 35.349147], "type": "Point"}, "id": "FFEqsM-aUqQ83Urv_z9yHLIIfDE=", "properties": {"@spider": "usps_collection_boxes", "addr:city": "MOORE", "addr:country": "US", "addr:full": "11809 S WESTERN AVE", "addr:postcode": "73170", "addr:state": "OK", "brand": "USPS", "collection_times": "Mo-Fr 16:30", "name": "USPS COLLECTION BOX - BLUE BOX", "note": "ON 12/24 AND 12/31, THIS BOX MAY BE COLLECTED AS EARLY AS 12 NOON.", "ref": "7317000004"}, "type": "Feature"}
{"geometry": {"coordinates": [-97.516317, 35.334353], "type": "Point"}, "id": "uOHIP0SzLXSKZSJnoRyuS40OHIk=", "properties": {"@spider": "usps_collection_boxes", "addr:city": "MOORE", "addr:country": "US", "addr:full": "201 SW 134TH ST", "addr:postcode": "73170", "addr:state": "OK", "brand": "USPS", "collection_times": "Mo-Fr 16:30; Sa 15:30", "name": "USPS COLLECTION BOX - BLUE BOX", "note": "ON 12/24 AND 12/31, THIS BOX MAY BE COLLECTED AS EARLY AS 12 NOON.", "ref": "7317000005"}, "type": "Feature"}
{"geometry": {"coordinates": [-97.516317, 35.334353], "type": "Point"}, "id": "ahfGezeyak_od8E6wijCOLgGPwE=", "properties": {"@spider": "usps_collection_boxes", "addr:city": "MOORE", "addr:country": "US", "addr:full": "201 SW 134TH ST", "addr:postcode": "73170", "addr:state": "OK", "brand": "USPS", "collection_times": "Mo-Fr 16:30; Sa 15:30", "name": "USPS COLLECTION BOX - BLUE BOX", "note": "ON 12/24 AND 12/31, THIS BOX MAY BE COLLECTED AS EARLY AS 12 NOON.", "ref": "7317000006"}, "type": "Feature"}
{"geometry": {"coordinates": [-97.516317, 35.334353], "type": "Point"}, "id": "j71qaE6SgeUe_ADMYODoKsWHA0E=", "properties": {"@spider": "usps_collection_boxes", "addr:city": "MOORE", "addr:country": "US", "addr:full": "201 SW 134TH ST", "addr:postcode": "73170", "addr:state": "OK", "brand": "USPS", "collection_times": "Mo-Fr 16:30; Sa 15:30", "name": "USPS COLLECTION BOX - PO LOBBY", "note": "ON 12/24 AND 12/31, THIS BOX MAY BE COLLECTED AS EARLY AS 12 NOON.", "ref": "7317000007"}, "type": "Feature"}
{"geometry": {"coordinates": [-97.516317, 35.334353], "type": "Point"}, "id": "oDyat-zQEultOmhzpNKpLmCKFT4=", "properties": {"@spider": "usps_collection_boxes", "addr:city": "MOORE", "addr:country": "US", "addr:full": "201 SW 134TH ST", "addr:postcode": "73170", "addr:state": "OK", "brand": "USPS", "collection_times": "Mo-Fr 16:30; Sa 15:30", "name": "USPS COLLECTION BOX - PO LOBBY", "note": "ON 12/24 AND 12/31, THIS BOX MAY BE COLLECTED AS EARLY AS 12 NOON.", "ref": "7317000008"}, "type": "Feature"}
{"geometry": {"coordinates": [-97.565476185, 35.361998581], "type": "Point"}, "id": "0hL1a1ujtT_kYHffrWUZ8YgJ4YE=", "properties": {"@spider": "usps_collection_boxes", "addr:city": "MOORE", "addr:country": "US", "addr:full": "10601 S MAY AVE", "addr:postcode": "73170", "addr:state": "OK", "brand": "USPS", "collection_times": "Mo-Fr 15:15", "name": "USPS COLLECTION BOX - BLUE BOX", "note": "ON 12/24 AND 12/31, THIS BOX MAY BE COLLECTED AS EARLY AS 12 NOON.", "ref": "7317000010"}, "type": "Feature"}
{"geometry": {"coordinates": [-97.6081783, 35.427948], "type": "Point"}, "id": "57cEQSDzC4VRbLJTkb60fsvYRg0=", "properties": {"@spider": "usps_collection_boxes", "addr:city": "OKLAHOMA CITY", "addr:country": "US", "addr:full": "5024 SW 36TH ST", "addr:postcode": "73179", "addr:state": "OK", "brand": "USPS", "collection_times": "Mo-Fr 13:30", "name": "USPS COLLECTION BOX - BLUE BOX", "note": "ON 12/24 AND 12/31, THIS BOX MAY BE COLLECTED AS EARLY AS 12 NOON.", "ref": "7317900003"}, "type": "Feature"}
{"geometry": {"coordinates": [-97.6131568, 35.435547], "type": "Point"}, "id": "ZFdBgd6POQJRpSNQ0ooMjP3Wis0=", "properties": {"@spider": "usps_collection_boxes", "addr:city": "OKLAHOMA CITY", "addr:country": "US", "addr:full": "5421 SW 29TH ST", "addr:postcode": "73179", "addr:state": "OK", "brand": "USPS", "collection_times": "Mo-Fr 13:30", "name": "USPS COLLECTION BOX - BLUE BOX", "note": "ON 12/24 AND 12/31, THIS BOX MAY BE COLLECTED AS EARLY AS 12 NOON.", "ref": "7317900005"}, "type": "Feature"}
{"geometry": {"coordinates": [-97.6500536, 35.421393], "type": "Point"}, "id": "nXm8DdKJrcQh997R9xibnplqZYA=", "properties": {"@spider": "usps_collection_boxes", "addr:city": "OKLAHOMA CITY", "addr:country": "US", "addr:full": "7707 SW 44TH ST", "addr:postcode": "73179", "addr:state": "OK", "brand": "USPS", "collection_times": "Mo-Fr 16:00", "name": "USPS COLLECTION BOX - BLUE BOX", "note": "ON 12/24 AND 12/31, THIS BOX MAY BE COLLECTED AS EARLY AS 12 NOON.", "ref": "7317900006"}, "type": "Feature"}
{"geometry": {"coordinates": [-97.5947050766, 35.3983264234], "type": "Point"}, "id": "r91kIA0MqpJqOfnZg1wnMpelXIA=", "properties": {"@spider": "usps_collection_boxes", "addr:city": "OKLAHOMA CITY", "addr:country": "US", "addr:full": "6500 AIR CARGO RD", "addr:postcode": "73195", "addr:state": "OK", "brand": "USPS", "collection_times": "Mo-Fr 17:00; Sa 12:00", "name": "USPS COLLECTION BOX - BLUE BOX", "note": "ON 12/24 AND 12/31, THIS BOX MAY BE COLLECTED AS EARLY AS 12 NOON.", "ref": "7319500001"}, "type": "Feature"}
{"geometry": {"coordinates": [-97.5938596, 35.398404], "type": "Point"}, "id": "L56yvYQO1_ERSAwvAP4-hcIyhTw=", "properties": {"@spider": "usps_collection_boxes", "addr:city": "OKLAHOMA CITY", "addr:country": "US", "addr:full": "6500 AIR CARGO RD", "addr:postcode": "73195", "addr:state": "OK", "brand": "USPS", "collection_times": "Mo-Fr 17:00; Sa 12:00", "name": "USPS COLLECTION BOX - PO LOBBY", "note": "ON 12/24 AND 12/31, THIS BOX MAY BE COLLECTED AS EARLY AS 12 NOON.", "ref": "7319500003"}, "type": "Feature"}
{"geometry": {"coordinates": [-97.5938521, 35.398391], "type": "Point"}, "id": "pYQtax83fmY7pDHzxLvPAq2GqHs=", "properties": {"@spider": "usps_collection_boxes", "addr:city": "OKLAHOMA CITY", "addr:country": "US", "addr:full": "6500 AIR CARGO RD", "addr:postcode": "73195", "addr:state": "OK", "brand": "USPS", "collection_times": "Mo-Fr 17:00; Sa 12:00", "name": "USPS COLLECTION BOX - PO LOBBY", "note": "ON 12/24 AND 12/31, THIS BOX MAY BE COLLECTED AS EARLY AS 12 NOON.", "ref": "7319500004"}, "type": "Feature"}
