{"dataset_attributes": {"@spider": "usps_collection_boxes", "spider:collection_time": "2023-09-19T08:25:58.007339"}, "geometry": {"coordinates": [-97.1299395, 34.174399], "type": "Point"}, "id": "rMbBH5jLejLwXEMvk0l7O-XmfwU=", "properties": {"@spider": "usps_collection_boxes", "addr:city": "ARDMORE", "addr:country": "US", "addr:full": "115 W BROADWAY ST", "addr:postcode": "73401", "addr:state": "OK", "amenity": "post_box", "brand": "United States Postal Service", "brand:wikidata": "Q668687", "collection_times": "Mo-Sa 15:15", "name": "USPS COLLECTION BOX - BLUE BOX", "note": "ON 12/24 AND 12/31, THIS BOX MAY BE COLLECTED AS EARLY AS 12 NOON.", "nsi_id": "unitedstatespostalservice-a77078", "operator": "United States Postal Service", "operator:short": "USPS", "operator:type": "public", "operator:wikidata": "Q668687", "ref": "7340100002"}, "type": "Feature"}
{"dataset_attributes": {"@spider": "usps_collection_boxes", "spider:collection_time": "2023-09-19T08:25:58.007339"}, "geometry": {"coordinates": [-97.1291074, 34.172709], "type": "Point"}, "id": "Tl6jNqBuTP71uGubh7816uv7vGo=", "properties": {"@spider": "usps_collection_boxes", "addr:city": "ARDMORE", "addr:country": "US", "addr:full": "10 W MAIN ST", "addr:postcode": "73401", "addr:state": "OK", "amenity": "post_box", "brand": "United States Postal Service", "brand:wikidata": "Q668687", "collection_times": "Mo-Sa 15:15", "name": "USPS COLLECTION BOX - BLUE BOX", "note": "ON 12/24 AND 12/31, THIS BOX MAY BE COLLECTED AS EARLY AS 12 NOON.", "nsi_id": "unitedstatespostalservice-a77078", "operator": "United States Postal Service", "operator:short": "USPS", "operator:type": "public", "operator:wikidata": "Q668687", "ref": "7340100006"}, "type": "Feature"}
{"dataset_attributes": {"@spider": "usps_collection_boxes", "spider:collection_time": "2023-09-19T08:25:58.007339"}, "geometry": {"coordinates": [-97.1247387, 34.18261], "type": "Point"}, "id": "qbenqV-5BiKFej5PdY2y8-uqZDE=", "properties": {"@spider": "usps_collection_boxes", "addr:city": "ARDMORE", "addr:country": "US", "addr:full": "921 N WASHINGTON ST", "addr:postcode": "73401", "addr:state": "OK", "amenity": "post_box", "brand": "United States Postal Service", "brand:wikidata": "Q668687", "collection_times": "Mo-Sa 15:30", "name": "USPS COLLECTION BOX - BLUE BOX", "note": "ON 12/24 AND 12/31, THIS BOX MAY BE COLLECTED AS EARLY AS 12 NOON.", "nsi_id": "unitedstatespostalservice-a77078", "operator": "United States Postal Service", "operator:short": "USPS", "operator:type": "public", "operator:wikidata": "Q668687", "ref": "7340100007"}, "type": "Feature"}
{"dataset_attributes": {"@spider": "usps_collection_boxes", "spider:collection_time": "2023-09-19T08:25:58.007339"}, "geometry": {"coordinates": [-97.1319099, 34.186283], "type": "Point"}, "id": "-0OyDUHcGD-DgguVktL71yBlLeM=", "properties": {"@spider": "usps_collection_boxes", "addr:city": "ARDMORE", "addr:country": "US", "addr:full": "423 12TH AVE NW", "addr:postcode": "73401", "addr:state": "OK", "amenity": "post_box", "brand": "United States Postal Service", "brand:wikidata": "Q668687", "collection_times": "Mo-Sa 15:30", "name": "USPS COLLECTION BOX - BLUE BOX", "note": "ON 12/24 AND 12/31, THIS BOX MAY BE COLLECTED AS EARLY AS 12 NOON.", "nsi_id": "unitedstatespostalservice-a77078", "operator": "United States Postal Service", "operator:short": "USPS", "operator:type": "public", "operator:wikidata": "Q668687", "ref": "7340100009"}, "type": "Feature"}
{"dataset_attributes": {"@spider": "usps_collection_boxes", "spider:collection_time": "2023-09-19T08:25:58.007339"}, "geometry": {"coordinates": [-97.1341852, 34.19398], "type": "Point"}, "id": "NwUqO73OxXFhesV9VsDVJJ0jt_g=", "properties": {"@spider": "usps_collection_boxes", "addr:city": "ARDMORE", "addr:country": "US", "addr:full": "12 BROADLAWN SHOPPING CTR", "addr:postcode": "73401", "addr:state": "OK", "amenity": "post_box", "brand": "United States Postal Service", "brand:wikidata": "Q668687", "collection_times": "Mo-Fr 15:45; Sa 15:30", "name": "USPS COLLECTION BOX - BLUE BOX", "note": "ON 12/24 AND 12/31, THIS BOX MAY BE COLLECTED AS EARLY AS 12 NOON.", "nsi_id": "unitedstatespostalservice-a77078", "operator": "United States Postal Service", "operator:short": "USPS", "operator:type": "public", "operator:wikidata": "Q668687", "ref": "7340100010"}, "type": "Feature"}
{"dataset_attributes": {"@spider": "usps_collection_boxes", "spider:collection_time": "2023-09-19T08:25:58.007339"}, "geometry": {"coordinates": [-97.1458445, 34.180536], "type": "Point"}, "id": "mduOav1WcX7hBNebbOsH9Rgd2as=", "properties": {"@spider": "usps_collection_boxes", "addr:city": "ARDMORE", "addr:country": "US", "addr:full": "1405 4TH AVE NW", "addr:postcode": "73401", "addr:state": "OK", "amenity": "post_box", "brand": "United States Postal Service", "brand:wikidata": "Q668687", "collection_times": "Mo-Sa 16:00", "name": "USPS COLLECTION BOX - BLUE BOX", "note": "ON 12/24 AND 12/31, THIS BOX MAY BE COLLECTED AS EARLY AS 12 NOON.", "nsi_id": "unitedstatespostalservice-a77078", "operator": "United States Postal Service", "operator:short": "USPS", "operator:type": "public", "operator:wikidata": "Q668687", "ref": "7340100011"}, "type": "Feature"}
{"dataset_attributes": {"@spider": "usps_collection_boxes", "spider:collection_time": "2023-09-19T08:25:58.007339"}, "geometry": {"coordinates": [-97.1435788, 34.195105], "type": "Point"}, "id": "s-h0UZyV9wWkzayW7cqnCEEUTW8=", "properties": {"@spider": "usps_collection_boxes", "addr:city": "ARDMORE", "addr:country": "US", "addr:full": "1901 N COMMERCE ST", "addr:postcode": "73401", "addr:state": "OK", "amenity": "post_box", "brand": "United States Postal Service", "brand:wikidata": "Q668687", "collection_times": "Mo-Sa 15:45", "name": "USPS COLLECTION BOX - BLUE BOX", "note": "ON 12/24 AND 12/31, THIS BOX MAY BE COLLECTED AS EARLY AS 12 NOON.", "nsi_id": "unitedstatespostalservice-a77078", "operator": "United States Postal Service", "operator:short": "USPS", "operator:type": "public", "operator:wikidata": "Q668687", "ref": "7340100016"}, "type": "Feature"}
{"dataset_attributes": {"@spider": "usps_collection_boxes", "spider:collection_time": "2023-09-19T08:25:58.007339"}, "geometry": {"coordinates": [-97.1432794, 34.193295], "type": "Point"}, "id": "dqFRY7EOtuUdCvjsGelPga8AnX4=", "properties": {"@spider": "usps_collection_boxes", "addr:city": "ARDMORE", "addr:country": "US", "addr:full": "1715 N COMMERCE ST", "addr:postcode": "73401", "addr:state": "OK", "amenity": "post_box", "brand": "United States Postal Service", "brand:wikidata": "Q668687", "collection_times": "Mo-Sa 16:00", "name": "USPS COLLECTION BOX - BLUE BOX", "note": "ON 12/24 AND 12/31, THIS BOX MAY BE COLLECTED AS EARLY AS 12 NOON.", "nsi_id": "unitedstatespostalservice-a77078", "operator": "United States Postal Service", "operator:short": "USPS", "operator:type": "public", "operator:wikidata": "Q668687", "ref": "7340100017"}, "type": "Feature"}
{"dataset_attributes": {"@spider": "usps_collection_boxes", "spider:collection_time": "2023-09-19T08:25:58.007339"}, "geometry": {"coordinates": [-97.1406413, 34.175099], "type": "Point"}, "id": "B8CLJkDf4Wh_5t1WqcDG_RjAvdE=", "properties": {"@spider": "usps_collection_boxes", "addr:city": "ARDMORE", "addr:country": "US", "addr:full": "925 W BROADWAY ST", "addr:postcode": "73401", "addr:state": "OK", "amenity": "post_box", "brand": "United States Postal Service", "brand:wikidata": "Q668687", "collection_times": "Mo-Fr 16:30; Sa 16:15", "name": "USPS COLLECTION BOX - BLUE BOX", "note": "ON 12/24 AND 12/31, THIS BOX MAY BE COLLECTED AS EARLY AS 12 NOON.", "nsi_id": "unitedstatespostalservice-a77078", "operator": "United States Postal Service", "operator:short": "USPS", "operator:type": "public", "operator:wikidata": "Q668687", "ref": "7340100022"}, "type": "Feature"}
{"dataset_attributes": {"@spider": "usps_collection_boxes", "spider:collection_time": "2023-09-19T08:25:58.007339"}, "geometry": {"coordinates": [-97.1550545, 34.174562], "type": "Point"}, "id": "0ikakpdSZ30hrBwkcni2N_NLjlk=", "properties": {"@spider": "usps_collection_boxes", "addr:city": "ARDMORE", "addr:country": "US", "addr:full": "24 TIFFANY PLZ", "addr:postcode": "73401", "addr:state": "OK", "amenity": "post_box", "brand": "United States Postal Service", "brand:wikidata": "Q668687", "collection_times": "Mo-Sa 16:15", "name": "USPS COLLECTION BOX - BLUE BOX", "note": "ON 12/24 AND 12/31, THIS BOX MAY BE COLLECTED AS EARLY AS 12 NOON.", "nsi_id": "unitedstatespostalservice-a77078", "operator": "United States Postal Service", "operator:short": "USPS", "operator:type": "public", "operator:wikidata": "Q668687", "ref": "7340100023"}, "type": "Feature"}
{"dataset_attributes": {"@spider": "usps_collection_boxes", "spider:collection_time": "2023-09-19T08:25:58.007339"}, "geometry": {"coordinates": [-97.1307253, 34.171964], "type": "Point"}, "id": "lINKV_8LMyFwfgfvdlPNflFYoNs=", "properties": {"@spider": "usps_collection_boxes", "addr:city": "ARDMORE", "addr:country": "US", "addr:full": "20 B ST SW", "addr:postcode": "73401", "addr:state": "OK", "amenity": "post_box", "brand": "United States Postal Service", "brand:wikidata": "Q668687", "collection_times": "Mo-Fr 16:30", "name": "USPS COLLECTION BOX - BLUE BOX", "note": "ON 12/24 AND 12/31, THIS BOX MAY BE COLLECTED AS EARLY AS 12 NOON.", "nsi_id": "unitedstatespostalservice-a77078", "operator": "United States Postal Service", "operator:short": "USPS", "operator:type": "public", "operator:wikidata": "Q668687", "ref": "7340100028"}, "type": "Feature"}
{"dataset_attributes": {"@spider": "usps_collection_boxes", "spider:collection_time": "2023-09-19T08:25:58.007339"}, "geometry": {"coordinates": [-97.131965, 34.17889], "type": "Point"}, "id": "-qp4c81kAeXVrElELEMF4L20meM=", "properties": {"@spider": "usps_collection_boxes", "addr:city": "ARDMORE", "addr:country": "US", "addr:full": "208 1ST AVE SW", "addr:postcode": "73401", "addr:state": "OK", "amenity": "post_box", "brand": "United States Postal Service", "brand:wikidata": "Q668687", "collection_times": "Mo-Fr 17:00; Sa 16:30", "name": "USPS COLLECTION BOX - BLUE BOX", "note": "ON 12/24 AND 12/31, THIS BOX MAY BE COLLECTED AS EARLY AS 12 NOON.", "nsi_id": "unitedstatespostalservice-a77078", "operator": "United States Postal Service", "operator:short": "USPS", "operator:type": "public", "operator:wikidata": "Q668687", "ref": "7340100039"}, "type": "Feature"}
{"dataset_attributes": {"@spider": "usps_collection_boxes", "spider:collection_time": "2023-09-19T08:25:58.007339"}, "geometry": {"coordinates": [-97.1312118, 34.171538], "type": "Point"}, "id": "d14JeUahyvVBLtTZxYsn3UB9uKE=", "properties": {"@spider": "usps_collection_boxes", "addr:city": "ARDMORE", "addr:country": "US", "addr:full": "208 1ST AVE SW", "addr:postcode": "73401", "addr:state": "OK", "amenity": "post_box", "brand": "United States Postal Service", "brand:wikidata": "Q668687", "collection_times": "Mo-Fr 16:45; Sa 16:30", "name": "USPS COLLECTION BOX - PO LOBBY", "note": "ON 12/24 AND 12/31, THIS BOX MAY BE COLLECTED AS EARLY AS 12 NOON.", "nsi_id": "unitedstatespostalservice-a77078", "operator": "United States Postal Service", "operator:short": "USPS", "operator:type": "public", "operator:wikidata": "Q668687", "ref": "7340100040"}, "type": "Feature"}
{"dataset_attributes": {"@spider": "usps_collection_boxes", "spider:collection_time": "2023-09-19T08:25:58.007339"}, "geometry": {"coordinates": [-97.1444251, 34.189653], "type": "Point"}, "id": "W0mXsIgZQW2ED6oXrqyuF6jE-nw=", "properties": {"@spider": "usps_collection_boxes", "addr:city": "ARDMORE", "addr:country": "US", "addr:full": "1211 N COMMERCE ST", "addr:postcode": "73401", "addr:state": "OK", "amenity": "post_box", "brand": "United States Postal Service", "brand:wikidata": "Q668687", "collection_times": "Mo-Sa 16:00", "name": "USPS COLLECTION BOX - BLUE BOX", "note": "ON 12/24 AND 12/31, THIS BOX MAY BE COLLECTED AS EARLY AS 12 NOON.", "nsi_id": "unitedstatespostalservice-a77078", "operator": "United States Postal Service", "operator:short": "USPS", "operator:type": "public", "operator:wikidata": "Q668687", "ref": "7340100043"}, "type": "Feature"}
{"dataset_attributes": {"@spider": "usps_collection_boxes", "spider:collection_time": "2023-09-19T08:25:58.007339"}, "geometry": {"coordinates": [-97.1437057, 34.176192], "type": "Point"}, "id": "yXznJB_ubi5aEqbhA9bWHb12LiI=", "properties": {"@spider": "usps_collection_boxes", "addr:city": "ARDMORE", "addr:country": "US", "addr:full": "5 S COMMERCE ST", "addr:postcode": "73401", "addr:state": "OK", "amenity": "post_box", "brand": "United States Postal Service", "brand:wikidata": "Q668687", "collection_times": "Mo-Sa 16:00", "name": "USPS COLLECTION BOX - BLUE BOX", "note": "ON 12/24 AND 12/31, THIS BOX MAY BE COLLECTED AS EARLY AS 12 NOON.", "nsi_id": "unitedstatespostalservice-a77078", "operator": "United States Postal Service", "operator:short": "USPS", "operator:type": "public", "operator:wikidata": "Q668687", "ref": "7340100045"}, "type": "Feature"}
{"dataset_attributes": {"@spider": "usps_collection_boxes", "spider:collection_time": "2023-09-19T08:25:58.007339"}, "geometry": {"coordinates": [-97.1421799, 34.183241], "type": "Point"}, "id": "36AG-VZ5kAKs-ehDasGoMUu8OYw=", "properties": {"@spider": "usps_collection_boxes", "addr:city": "ARDMORE", "addr:country": "US", "addr:full": "720 N COMMERCE ST", "addr:postcode": "73401", "addr:state": "OK", "amenity": "post_box", "brand": "United States Postal Service", "brand:wikidata": "Q668687", "collection_times": "Mo-Fr 15:45", "name": "USPS COLLECTION BOX - BLUE BOX", "note": "ON 12/24 AND 12/31, THIS BOX MAY BE COLLECTED AS EARLY AS 12 NOON.", "nsi_id": "unitedstatespostalservice-a77078", "operator": "United States Postal Service", "operator:short": "USPS", "operator:type": "public", "operator:wikidata": "Q668687", "ref": "7340100051"}, "type": "Feature"}
{"dataset_attributes": {"@spider": "usps_collection_boxes", "spider:collection_time": "2023-09-19T08:25:58.007339"}, "geometry": {"coordinates": [-97.1313412, 34.171443], "type": "Point"}, "id": "y2FAHLiI-RzdnG7Sj3yLEov8Q9w=", "properties": {"@spider": "usps_collection_boxes", "addr:city": "ARDMORE", "addr:country": "US", "addr:full": "208 1ST AVE SW", "addr:postcode": "73401", "addr:state": "OK", "amenity": "post_box", "brand": "United States Postal Service", "brand:wikidata": "Q668687", "collection_times": "Mo-Fr 16:45; Sa 16:30", "name": "USPS COLLECTION BOX - PO LOBBY", "note": "ON 12/24 AND 12/31, THIS BOX MAY BE COLLECTED AS EARLY AS 12 NOON.", "nsi_id": "unitedstatespostalservice-a77078", "operator": "United States Postal Service", "operator:short": "USPS", "operator:type": "public", "operator:wikidata": "Q668687", "ref": "7340100052"}, "type": "Feature"}
{"dataset_attributes": {"@spider": "usps_collection_boxes", "spider:collection_time": "2023-09-19T08:25:58.007339"}, "geometry": {"coordinates": [-97.1710160175, 34.1882179837], "type": "Point"}, "id": "X42Bf2JTB46EghmOu7tkSf6oMU4=", "properties": {"@spider": "usps_collection_boxes", "addr:city": "ARDMORE", "addr:country": "US", "addr:full": "3201 12TH AVE NW", "addr:postcode": "73401", "addr:state": "OK", "amenity": "post_box", "brand": "United States Postal Service", "brand:wikidata": "Q668687", "collection_times": "Mo-Sa 16:00", "name": "USPS COLLECTION BOX - BLUE BOX", "note": "ON 12/24 AND 12/31, THIS BOX MAY BE COLLECTED AS EARLY AS 12 NOON.", "nsi_id": "unitedstatespostalservice-a77078", "operator": "United States Postal Service", "operator:short": "USPS", "operator:type": "public", "operator:wikidata": "Q668687", "ref": "7340100053"}, "type": "Feature"}
{"dataset_attributes": {"@spider": "usps_collection_boxes", "spider:collection_time": "2023-09-19T08:25:58.007339"}, "geometry": {"coordinates": [-97.143581742, 34.159121431], "type": "Point"}, "id": "rILPBNWrsNiUFDCAyV9XMUb27gk=", "properties": {"@spider": "usps_collection_boxes", "addr:city": "ARDMORE", "addr:country": "US", "addr:full": "1117 S COMMERCE ST", "addr:postcode": "73401", "addr:state": "OK", "amenity": "post_box", "brand": "United States Postal Service", "brand:wikidata": "Q668687", "collection_times": "Mo-Fr 16:30; Sa 16:15", "name": "USPS COLLECTION BOX - BLUE BOX", "note": "ON 12/24 AND 12/31, THIS BOX MAY BE COLLECTED AS EARLY AS 12 NOON.", "nsi_id": "unitedstatespostalservice-a77078", "operator": "United States Postal Service", "operator:short": "USPS", "operator:type": "public", "operator:wikidata": "Q668687", "ref": "7340100054"}, "type": "Feature"}
{"dataset_attributes": {"@spider": "usps_collection_boxes", "spider:collection_time": "2023-09-19T08:25:58.007339"}, "geometry": {"coordinates": [-97.131329732, 34.171719006], "type": "Point"}, "id": "AZrvzb50ojOhu_8Wytvsbgu3ZE8=", "properties": {"@spider": "usps_collection_boxes", "addr:city": "ARDMORE", "addr:country": "US", "addr:full": "208 1ST AVE SW", "addr:postcode": "73401", "addr:state": "OK", "amenity": "post_box", "brand": "United States Postal Service", "brand:wikidata": "Q668687", "collection_times": "Mo-Fr 17:00; Sa 12:00", "name": "USPS COLLECTION BOX - PO LOBBY", "note": "ON 12/24 AND 12/31, THIS BOX MAY BE COLLECTED AS EARLY AS 12 NOON.", "nsi_id": "unitedstatespostalservice-a77078", "operator": "United States Postal Service", "operator:short": "USPS", "operator:type": "public", "operator:wikidata": "Q668687", "ref": "7340100059"}, "type": "Feature"}
{"dataset_attributes": {"@spider": "usps_collection_boxes", "spider:collection_time": "2023-09-19T08:25:58.007339"}, "geometry": {"coordinates": [-97.5711170143, 34.4450825381], "type": "Point"}, "id": "m6KWZA8XC5ApoTJkBF8GDmLj1tg=", "properties": {"@spider": "usps_collection_boxes", "addr:city": "COUNTYLINE", "addr:country": "US", "addr:full": "304900 OLD HIGHWAY 7", "addr:postcode": "73425", "addr:state": "OK", "amenity": "post_box", "brand": "United States Postal Service", "brand:wikidata": "Q668687", "collection_times": "Mo-Sa 10:00", "name": "USPS COLLECTION BOX - PO LOBBY", "nsi_id": "unitedstatespostalservice-a77078", "operator": "United States Postal Service", "operator:short": "USPS", "operator:type": "public", "operator:wikidata": "Q668687", "ref": "7342500001"}, "type": "Feature"}
{"dataset_attributes": {"@spider": "usps_collection_boxes", "spider:collection_time": "2023-09-19T08:25:58.007339"}, "geometry": {"coordinates": [-97.564782489, 34.448812132], "type": "Point"}, "id": "VeeE3O7zy_A5AVUJ6bVk3TQx5zM=", "properties": {"@spider": "usps_collection_boxes", "addr:city": "COUNTYLINE", "addr:country": "US", "addr:full": "304900 OLD HIGHWAY 7", "addr:postcode": "73425", "addr:state": "OK", "amenity": "post_box", "brand": "United States Postal Service", "brand:wikidata": "Q668687", "collection_times": "Mo-Fr 10:00; Sa 09:45", "name": "USPS COLLECTION BOX - PO LOBBY", "nsi_id": "unitedstatespostalservice-a77078", "operator": "United States Postal Service", "operator:short": "USPS", "operator:type": "public", "operator:wikidata": "Q668687", "ref": "7342500002"}, "type": "Feature"}
{"dataset_attributes": {"@spider": "usps_collection_boxes", "spider:collection_time": "2023-09-19T08:25:58.007339"}, "geometry": {"coordinates": [-97.290096, 33.906465], "type": "Point"}, "id": "MTYcq-ddpD6hDPPpGUUA7H46hDo=", "properties": {"@spider": "usps_collection_boxes", "addr:city": "BURNEYVILLE", "addr:country": "US", "addr:full": "11340 SPARROW RD", "addr:postcode": "73430", "addr:state": "OK", "amenity": "post_box", "brand": "United States Postal Service", "brand:wikidata": "Q668687", "collection_times": "Mo-Fr 14:30; Sa 10:45", "name": "USPS COLLECTION BOX - PO LOBBY", "note": "ON 12/24 AND 12/31, THIS BOX MAY BE COLLECTED AS EARLY AS 12 NOON.", "nsi_id": "unitedstatespostalservice-a77078", "operator": "United States Postal Service", "operator:short": "USPS", "operator:type": "public", "operator:wikidata": "Q668687", "ref": "7343000001"}, "type": "Feature"}
{"dataset_attributes": {"@spider": "usps_collection_boxes", "spider:collection_time": "2023-09-19T08:25:58.007339"}, "geometry": {"coordinates": [-97.3095983, 33.92621], "type": "Point"}, "id": "LChFIp7l-lPJsiHp2caCnqDJ0Ms=", "properties": {"@spider": "usps_collection_boxes", "addr:city": "BURNEYVILLE", "addr:country": "US", "addr:full": "113 FALCONHEAD DR", "addr:postcode": "73430", "addr:state": "OK", "amenity": "post_box", "brand": "United States Postal Service", "brand:wikidata": "Q668687", "collection_times": "Mo-Fr 10:00", "name": "USPS COLLECTION BOX - BLUE BOX", "nsi_id": "unitedstatespostalservice-a77078", "operator": "United States Postal Service", "operator:short": "USPS", "operator:type": "public", "operator:wikidata": "Q668687", "ref": "7343000002"}, "type": "Feature"}
{"dataset_attributes": {"@spider": "usps_collection_boxes", "spider:collection_time": "2023-09-19T08:25:58.007339"}, "geometry": {"coordinates": [-97.290096351, 33.906510346], "type": "Point"}, "id": "7zhP85tNH06k9V9eW_T4j_1zdu8=", "properties": {"@spider": "usps_collection_boxes", "addr:city": "BURNEYVILLE", "addr:country": "US", "addr:full": "11340 SPARROW RD", "addr:postcode": "73430", "addr:state": "OK", "amenity": "post_box", "brand": "United States Postal Service", "brand:wikidata": "Q668687", "collection_times": "Mo-Fr 16:00; Sa 10:00", "name": "USPS COLLECTION BOX - PO LOBBY", "note": "ON 12/24 AND 12/31, THIS BOX MAY BE COLLECTED AS EARLY AS 12 NOON.", "nsi_id": "unitedstatespostalservice-a77078", "operator": "United States Postal Service", "operator:short": "USPS", "operator:type": "public", "operator:wikidata": "Q668687", "ref": "7343000003"}, "type": "Feature"}
{"dataset_attributes": {"@spider": "usps_collection_boxes", "spider:collection_time": "2023-09-19T08:25:58.007339"}, "geometry": {"coordinates": [-96.548789, 34.245882], "type": "Point"}, "id": "ElJ4qivi316gB22yObhSln4JYb4=", "properties": {"@spider": "usps_collection_boxes", "addr:city": "COLEMAN", "addr:country": "US", "addr:full": "12900 OK HIGHWAY 48A E", "addr:postcode": "73432", "addr:state": "OK", "amenity": "post_box", "brand": "United States Postal Service", "brand:wikidata": "Q668687", "collection_times": "Mo-Fr 11:15; Sa 10:00", "name": "USPS COLLECTION BOX - PO LOBBY", "nsi_id": "unitedstatespostalservice-a77078", "operator": "United States Postal Service", "operator:short": "USPS", "operator:type": "public", "operator:wikidata": "Q668687", "ref": "7343200001"}, "type": "Feature"}
{"dataset_attributes": {"@spider": "usps_collection_boxes", "spider:collection_time": "2023-09-19T08:25:58.007339"}, "geometry": {"coordinates": [-96.4810524542, 34.2895486782], "type": "Point"}, "id": "vp_4YzhpPzNcerDXWlZIXy5sNpM=", "properties": {"@spider": "usps_collection_boxes", "addr:city": "COLEMAN", "addr:country": "US", "addr:full": "12900 OK HIGHWAY 48A E", "addr:postcode": "73432", "addr:state": "OK", "amenity": "post_box", "brand": "United States Postal Service", "brand:wikidata": "Q668687", "collection_times": "Mo-Fr 11:15; Sa 10:00", "name": "USPS COLLECTION BOX - PO LOBBY", "nsi_id": "unitedstatespostalservice-a77078", "operator": "United States Postal Service", "operator:short": "USPS", "operator:type": "public", "operator:wikidata": "Q668687", "ref": "7343200002"}, "type": "Feature"}
{"dataset_attributes": {"@spider": "usps_collection_boxes", "spider:collection_time": "2023-09-19T08:25:58.007339"}, "geometry": {"coordinates": [-96.4265499077, 34.2732389453], "type": "Point"}, "id": "jxbC4zlWL-giI-Ufg2kN_2E-q1Q=", "properties": {"@spider": "usps_collection_boxes", "addr:city": "COLEMAN", "addr:country": "US", "addr:full": "12900 OK HIGHWAY 48A E", "addr:postcode": "73432", "addr:state": "OK", "amenity": "post_box", "brand": "United States Postal Service", "brand:wikidata": "Q668687", "collection_times": "Mo-Fr 11:30; Sa 10:00", "name": "USPS COLLECTION BOX - PO LOBBY", "nsi_id": "unitedstatespostalservice-a77078", "operator": "United States Postal Service", "operator:short": "USPS", "operator:type": "public", "operator:wikidata": "Q668687", "ref": "7343200003"}, "type": "Feature"}
{"dataset_attributes": {"@spider": "usps_collection_boxes", "spider:collection_time": "2023-09-19T08:25:58.007339"}, "geometry": {"coordinates": [-97.396438, 34.62155], "type": "Point"}, "id": "PRM0_pDuCnvx4y-HM-ZK74kNqv8=", "properties": {"@spider": "usps_collection_boxes", "addr:city": "ELMORE CITY", "addr:country": "US", "addr:full": "204 S MAIN ST", "addr:postcode": "73433", "addr:state": "OK", "amenity": "post_box", "brand": "United States Postal Service", "brand:wikidata": "Q668687", "collection_times": "Mo-Fr 16:30; Sa 10:30", "name": "USPS COLLECTION BOX - BLUE BOX", "note": "ON 12/24 AND 12/31, THIS BOX MAY BE COLLECTED AS EARLY AS 12 NOON.", "nsi_id": "unitedstatespostalservice-a77078", "operator": "United States Postal Service", "operator:short": "USPS", "operator:type": "public", "operator:wikidata": "Q668687", "ref": "7343300000"}, "type": "Feature"}
{"dataset_attributes": {"@spider": "usps_collection_boxes", "spider:collection_time": "2023-09-19T08:25:58.007339"}, "geometry": {"coordinates": [-97.396438, 34.62155], "type": "Point"}, "id": "wFNt0N4W2hA0DkA37RCvxY3bYZg=", "properties": {"@spider": "usps_collection_boxes", "addr:city": "ELMORE CITY", "addr:country": "US", "addr:full": "204 S MAIN ST", "addr:postcode": "73433", "addr:state": "OK", "amenity": "post_box", "brand": "United States Postal Service", "brand:wikidata": "Q668687", "collection_times": "Mo-Fr 16:30; Sa 10:30", "name": "USPS COLLECTION BOX - PO LOBBY", "note": "ON 12/24 AND 12/31, THIS BOX MAY BE COLLECTED AS EARLY AS 12 NOON.", "nsi_id": "unitedstatespostalservice-a77078", "operator": "United States Postal Service", "operator:short": "USPS", "operator:type": "public", "operator:wikidata": "Q668687", "ref": "7343300001"}, "type": "Feature"}
{"dataset_attributes": {"@spider": "usps_collection_boxes", "spider:collection_time": "2023-09-19T08:25:58.007339"}, "geometry": {"coordinates": [-97.396438, 34.62155], "type": "Point"}, "id": "1jPrLDMX7hPU_FS0TJPm6GzrOLU=", "properties": {"@spider": "usps_collection_boxes", "addr:city": "ELMORE CITY", "addr:country": "US", "addr:full": "204 S MAIN ST", "addr:postcode": "73433", "addr:state": "OK", "amenity": "post_box", "brand": "United States Postal Service", "brand:wikidata": "Q668687", "collection_times": "Mo-Fr 16:30; Sa 10:30", "name": "USPS COLLECTION BOX - PO LOBBY", "note": "ON 12/24 AND 12/31, THIS BOX MAY BE COLLECTED AS EARLY AS 12 NOON.", "nsi_id": "unitedstatespostalservice-a77078", "operator": "United States Postal Service", "operator:short": "USPS", "operator:type": "public", "operator:wikidata": "Q668687", "ref": "7343300002"}, "type": "Feature"}
{"dataset_attributes": {"@spider": "usps_collection_boxes", "spider:collection_time": "2023-09-19T08:25:58.007339"}, "geometry": {"coordinates": [-97.396437099, 34.621550612], "type": "Point"}, "id": "yYVU0_Fza5dWukDm-CaQxqHvCp4=", "properties": {"@spider": "usps_collection_boxes", "addr:city": "ELMORE CITY", "addr:country": "US", "addr:full": "204 S MAIN ST", "addr:postcode": "73433", "addr:state": "OK", "amenity": "post_box", "brand": "United States Postal Service", "brand:wikidata": "Q668687", "collection_times": "Mo-Fr 16:30; Sa 10:30", "name": "USPS COLLECTION BOX - PO LOBBY", "note": "ON 12/24 AND 12/31, THIS BOX MAY BE COLLECTED AS EARLY AS 12 NOON.", "nsi_id": "unitedstatespostalservice-a77078", "operator": "United States Postal Service", "operator:short": "USPS", "operator:type": "public", "operator:wikidata": "Q668687", "ref": "7343300005"}, "type": "Feature"}
{"dataset_attributes": {"@spider": "usps_collection_boxes", "spider:collection_time": "2023-09-19T08:25:58.007339"}, "geometry": {"coordinates": [-97.489445, 34.616413], "type": "Point"}, "id": "Y5N0bt39OlPrQaQH6ob6gXn1NYU=", "properties": {"@spider": "usps_collection_boxes", "addr:city": "FOSTER", "addr:country": "US", "addr:full": "20188 E COUNTY ROAD 1655", "addr:postcode": "73434", "addr:state": "OK", "amenity": "post_box", "brand": "United States Postal Service", "brand:wikidata": "Q668687", "collection_times": "Mo-Fr 11:15; Sa 09:15", "name": "USPS COLLECTION BOX - PO LOBBY", "nsi_id": "unitedstatespostalservice-a77078", "operator": "United States Postal Service", "operator:short": "USPS", "operator:type": "public", "operator:wikidata": "Q668687", "ref": "7343400001"}, "type": "Feature"}
{"dataset_attributes": {"@spider": "usps_collection_boxes", "spider:collection_time": "2023-09-19T08:25:58.007339"}, "geometry": {"coordinates": [-97.489446375, 34.61640958], "type": "Point"}, "id": "fyPbWuBXRxicJxB8nwAe3anvzt4=", "properties": {"@spider": "usps_collection_boxes", "addr:city": "FOSTER", "addr:country": "US", "addr:full": "20188 E COUNTY ROAD 1655", "addr:postcode": "73434", "addr:state": "OK", "amenity": "post_box", "brand": "United States Postal Service", "brand:wikidata": "Q668687", "collection_times": "Mo-Fr 11:30; Sa 09:15", "name": "USPS COLLECTION BOX - PO LOBBY", "nsi_id": "unitedstatespostalservice-a77078", "operator": "United States Postal Service", "operator:short": "USPS", "operator:type": "public", "operator:wikidata": "Q668687", "ref": "7343400002"}, "type": "Feature"}
{"dataset_attributes": {"@spider": "usps_collection_boxes", "spider:collection_time": "2023-09-19T08:25:58.007339"}, "geometry": {"coordinates": [-97.492458, 34.364159], "type": "Point"}, "id": "MP8DFZdcy4gdyhZUM6cCEYjk2lU=", "properties": {"@spider": "usps_collection_boxes", "addr:city": "FOX", "addr:country": "US", "addr:full": "20378 STATE HIGHWAY 76", "addr:postcode": "73435", "addr:state": "OK", "amenity": "post_box", "brand": "United States Postal Service", "brand:wikidata": "Q668687", "collection_times": "Mo-Fr 15:45; Sa 10:30", "name": "USPS COLLECTION BOX - BLUE BOX", "note": "ON 12/24 AND 12/31, THIS BOX MAY BE COLLECTED AS EARLY AS 12 NOON.", "nsi_id": "unitedstatespostalservice-a77078", "operator": "United States Postal Service", "operator:short": "USPS", "operator:type": "public", "operator:wikidata": "Q668687", "ref": "7343500000"}, "type": "Feature"}
{"dataset_attributes": {"@spider": "usps_collection_boxes", "spider:collection_time": "2023-09-19T08:25:58.007339"}, "geometry": {"coordinates": [-97.492458, 34.364159], "type": "Point"}, "id": "FAYkl9qzjh7qmStQo_wP49j9pG4=", "properties": {"@spider": "usps_collection_boxes", "addr:city": "FOX", "addr:country": "US", "addr:full": "20378 STATE HIGHWAY 76", "addr:postcode": "73435", "addr:state": "OK", "amenity": "post_box", "brand": "United States Postal Service", "brand:wikidata": "Q668687", "collection_times": "Mo-Fr 15:45; Sa 10:30", "name": "USPS COLLECTION BOX - PO LOBBY", "note": "ON 12/24 AND 12/31, THIS BOX MAY BE COLLECTED AS EARLY AS 12 NOON.", "nsi_id": "unitedstatespostalservice-a77078", "operator": "United States Postal Service", "operator:short": "USPS", "operator:type": "public", "operator:wikidata": "Q668687", "ref": "7343500002"}, "type": "Feature"}
{"dataset_attributes": {"@spider": "usps_collection_boxes", "spider:collection_time": "2023-09-19T08:25:58.007339"}, "geometry": {"coordinates": [-97.492457208, 34.364151534], "type": "Point"}, "id": "ghMuTT2suoWeYC84lKWNDrBprPw=", "properties": {"@spider": "usps_collection_boxes", "addr:city": "FOX", "addr:country": "US", "addr:full": "20378 STATE HIGHWAY 76", "addr:postcode": "73435", "addr:state": "OK", "amenity": "post_box", "brand": "United States Postal Service", "brand:wikidata": "Q668687", "collection_times": "Mo-Fr 16:00; Sa 12:00", "name": "USPS COLLECTION BOX - PO LOBBY", "note": "ON 12/24 AND 12/31, THIS BOX MAY BE COLLECTED AS EARLY AS 12 NOON.", "nsi_id": "unitedstatespostalservice-a77078", "operator": "United States Postal Service", "operator:short": "USPS", "operator:type": "public", "operator:wikidata": "Q668687", "ref": "7343500003"}, "type": "Feature"}
{"dataset_attributes": {"@spider": "usps_collection_boxes", "spider:collection_time": "2023-09-19T08:25:58.007339"}, "geometry": {"coordinates": [-97.041092, 34.282319], "type": "Point"}, "id": "eVFT1T5RwpSnl3bAWeizcGgA7U4=", "properties": {"@spider": "usps_collection_boxes", "addr:city": "GENE AUTRY", "addr:country": "US", "addr:full": "45 PRAIRIE ST", "addr:postcode": "73436", "addr:state": "OK", "amenity": "post_box", "brand": "United States Postal Service", "brand:wikidata": "Q668687", "collection_times": "Mo-Fr 16:00; Sa 10:00", "name": "USPS COLLECTION BOX - PO LOBBY", "note": "ON 12/24 AND 12/31, THIS BOX MAY BE COLLECTED AS EARLY AS 12 NOON.", "nsi_id": "unitedstatespostalservice-a77078", "operator": "United States Postal Service", "operator:short": "USPS", "operator:type": "public", "operator:wikidata": "Q668687", "ref": "7343600001"}, "type": "Feature"}
{"dataset_attributes": {"@spider": "usps_collection_boxes", "spider:collection_time": "2023-09-19T08:25:58.007339"}, "geometry": {"coordinates": [-97.041091088, 34.282315216], "type": "Point"}, "id": "bgUTLhJpN-OwBeCw5YPJtUIHgeo=", "properties": {"@spider": "usps_collection_boxes", "addr:city": "GENE AUTRY", "addr:country": "US", "addr:full": "45 PRAIRIE ST", "addr:postcode": "73436", "addr:state": "OK", "amenity": "post_box", "brand": "United States Postal Service", "brand:wikidata": "Q668687", "collection_times": "Mo-Fr 16:00; Sa 10:00", "name": "USPS COLLECTION BOX - PO LOBBY", "note": "ON 12/24 AND 12/31, THIS BOX MAY BE COLLECTED AS EARLY AS 12 NOON.", "nsi_id": "unitedstatespostalservice-a77078", "operator": "United States Postal Service", "operator:short": "USPS", "operator:type": "public", "operator:wikidata": "Q668687", "ref": "7343600002"}, "type": "Feature"}
{"dataset_attributes": {"@spider": "usps_collection_boxes", "spider:collection_time": "2023-09-19T08:25:58.007339"}, "geometry": {"coordinates": [-97.435342, 34.340268], "type": "Point"}, "id": "nzZSn8ENcth1X2gcCBT4Vfc0FXs=", "properties": {"@spider": "usps_collection_boxes", "addr:city": "GRAHAM", "addr:country": "US", "addr:full": "29173 STATE HIGHWAY 53", "addr:postcode": "73437", "addr:state": "OK", "amenity": "post_box", "brand": "United States Postal Service", "brand:wikidata": "Q668687", "collection_times": "Mo-Fr 12:45; Sa 10:30", "name": "USPS COLLECTION BOX - BLUE BOX", "note": "ON 12/24 AND 12/31, THIS BOX MAY BE COLLECTED AS EARLY AS 12 NOON.", "nsi_id": "unitedstatespostalservice-a77078", "operator": "United States Postal Service", "operator:short": "USPS", "operator:type": "public", "operator:wikidata": "Q668687", "ref": "7343700000"}, "type": "Feature"}
{"dataset_attributes": {"@spider": "usps_collection_boxes", "spider:collection_time": "2023-09-19T08:25:58.007339"}, "geometry": {"coordinates": [-97.435342, 34.340268], "type": "Point"}, "id": "bBAdRh2rNIV2UsFysHVHuoMwXb8=", "properties": {"@spider": "usps_collection_boxes", "addr:city": "GRAHAM", "addr:country": "US", "addr:full": "29173 STATE HIGHWAY 53", "addr:postcode": "73437", "addr:state": "OK", "amenity": "post_box", "brand": "United States Postal Service", "brand:wikidata": "Q668687", "collection_times": "Mo-Fr 12:45; Sa 10:30", "name": "USPS COLLECTION BOX - PO LOBBY", "note": "ON 12/24 AND 12/31, THIS BOX MAY BE COLLECTED AS EARLY AS 12 NOON.", "nsi_id": "unitedstatespostalservice-a77078", "operator": "United States Postal Service", "operator:short": "USPS", "operator:type": "public", "operator:wikidata": "Q668687", "ref": "7343700001"}, "type": "Feature"}
{"dataset_attributes": {"@spider": "usps_collection_boxes", "spider:collection_time": "2023-09-19T08:25:58.007339"}, "geometry": {"coordinates": [-97.435342, 34.340268], "type": "Point"}, "id": "ReL3grfl4ZdfQWLUY8Hcl1_M-Q8=", "properties": {"@spider": "usps_collection_boxes", "addr:city": "GRAHAM", "addr:country": "US", "addr:full": "29173 STATE HIGHWAY 53", "addr:postcode": "73437", "addr:state": "OK", "amenity": "post_box", "brand": "United States Postal Service", "brand:wikidata": "Q668687", "collection_times": "Mo-Fr 12:45; Sa 10:30", "name": "USPS COLLECTION BOX - PO LOBBY", "note": "ON 12/24 AND 12/31, THIS BOX MAY BE COLLECTED AS EARLY AS 12 NOON.", "nsi_id": "unitedstatespostalservice-a77078", "operator": "United States Postal Service", "operator:short": "USPS", "operator:type": "public", "operator:wikidata": "Q668687", "ref": "7343700002"}, "type": "Feature"}
{"dataset_attributes": {"@spider": "usps_collection_boxes", "spider:collection_time": "2023-09-19T08:25:58.007339"}, "geometry": {"coordinates": [-97.435371433, 34.340275327], "type": "Point"}, "id": "DeLEeTEkwVIGBnanBgtdv5N5uQA=", "properties": {"@spider": "usps_collection_boxes", "addr:city": "GRAHAM", "addr:country": "US", "addr:full": "29173 STATE HIGHWAY 53", "addr:postcode": "73437", "addr:state": "OK", "amenity": "post_box", "brand": "United States Postal Service", "brand:wikidata": "Q668687", "collection_times": "Mo-Fr 13:00; Sa 10:45", "name": "USPS COLLECTION BOX - PO LOBBY", "note": "ON 12/24 AND 12/31, THIS BOX MAY BE COLLECTED AS EARLY AS 12 NOON.", "nsi_id": "unitedstatespostalservice-a77078", "operator": "United States Postal Service", "operator:short": "USPS", "operator:type": "public", "operator:wikidata": "Q668687", "ref": "7343700003"}, "type": "Feature"}
{"dataset_attributes": {"@spider": "usps_collection_boxes", "spider:collection_time": "2023-09-19T08:25:58.007339"}, "geometry": {"coordinates": [-97.48732, 34.234057], "type": "Point"}, "id": "a1iQZ1oxTJqJWZbKMJEbGsJCdgk=", "properties": {"@spider": "usps_collection_boxes", "addr:city": "HEALDTON", "addr:country": "US", "addr:full": "186 FRANKLIN ST", "addr:postcode": "73438", "addr:state": "OK", "amenity": "post_box", "brand": "United States Postal Service", "brand:wikidata": "Q668687", "collection_times": "Mo-Fr 16:15; Sa 10:30", "name": "USPS COLLECTION BOX - BLUE BOX", "note": "ON 12/24 AND 12/31, THIS BOX MAY BE COLLECTED AS EARLY AS 12 NOON.", "nsi_id": "unitedstatespostalservice-a77078", "operator": "United States Postal Service", "operator:short": "USPS", "operator:type": "public", "operator:wikidata": "Q668687", "ref": "7343800000"}, "type": "Feature"}
{"dataset_attributes": {"@spider": "usps_collection_boxes", "spider:collection_time": "2023-09-19T08:25:58.007339"}, "geometry": {"coordinates": [-97.48732, 34.234057], "type": "Point"}, "id": "Ed2tC3zFEhjlHt6-4mmAJsAm3NI=", "properties": {"@spider": "usps_collection_boxes", "addr:city": "HEALDTON", "addr:country": "US", "addr:full": "186 FRANKLIN ST", "addr:postcode": "73438", "addr:state": "OK", "amenity": "post_box", "brand": "United States Postal Service", "brand:wikidata": "Q668687", "collection_times": "Mo-Fr 16:15; Sa 10:30", "name": "USPS COLLECTION BOX - PO LOBBY", "note": "ON 12/24 AND 12/31, THIS BOX MAY BE COLLECTED AS EARLY AS 12 NOON.", "nsi_id": "unitedstatespostalservice-a77078", "operator": "United States Postal Service", "operator:short": "USPS", "operator:type": "public", "operator:wikidata": "Q668687", "ref": "7343800002"}, "type": "Feature"}
{"dataset_attributes": {"@spider": "usps_collection_boxes", "spider:collection_time": "2023-09-19T08:25:58.007339"}, "geometry": {"coordinates": [-97.487369581, 34.234057464], "type": "Point"}, "id": "V_A1DPCh-0E15tHEdNEFOk7M81Y=", "properties": {"@spider": "usps_collection_boxes", "addr:city": "HEALDTON", "addr:country": "US", "addr:full": "186 FRANKLIN ST", "addr:postcode": "73438", "addr:state": "OK", "amenity": "post_box", "brand": "United States Postal Service", "brand:wikidata": "Q668687", "collection_times": "Mo-Fr 16:15; Sa 10:30", "name": "USPS COLLECTION BOX - PO LOBBY", "note": "ON 12/24 AND 12/31, THIS BOX MAY BE COLLECTED AS EARLY AS 12 NOON.", "nsi_id": "unitedstatespostalservice-a77078", "operator": "United States Postal Service", "operator:short": "USPS", "operator:type": "public", "operator:wikidata": "Q668687", "ref": "7343800003"}, "type": "Feature"}
{"dataset_attributes": {"@spider": "usps_collection_boxes", "spider:collection_time": "2023-09-19T08:25:58.007339"}, "geometry": {"coordinates": [-96.719472, 33.999319], "type": "Point"}, "id": "ATfAByDyhlCgJ2yZrrLsbQgSLms=", "properties": {"@spider": "usps_collection_boxes", "addr:city": "KINGSTON", "addr:country": "US", "addr:full": "101 N MAIN ST", "addr:postcode": "73439", "addr:state": "OK", "amenity": "post_box", "brand": "United States Postal Service", "brand:wikidata": "Q668687", "collection_times": "Mo-Fr 16:00; Sa 10:00", "name": "USPS COLLECTION BOX - BLUE BOX", "note": "ON 12/24 AND 12/31, THIS BOX MAY BE COLLECTED AS EARLY AS 12 NOON.", "nsi_id": "unitedstatespostalservice-a77078", "operator": "United States Postal Service", "operator:short": "USPS", "operator:type": "public", "operator:wikidata": "Q668687", "ref": "7343900000"}, "type": "Feature"}
{"dataset_attributes": {"@spider": "usps_collection_boxes", "spider:collection_time": "2023-09-19T08:25:58.007339"}, "geometry": {"coordinates": [-96.719472, 33.999319], "type": "Point"}, "id": "1Hn0OOgLe8uhEoyzu_PBPRocQOM=", "properties": {"@spider": "usps_collection_boxes", "addr:city": "KINGSTON", "addr:country": "US", "addr:full": "101 N MAIN ST", "addr:postcode": "73439", "addr:state": "OK", "amenity": "post_box", "brand": "United States Postal Service", "brand:wikidata": "Q668687", "collection_times": "Mo-Fr 16:00; Sa 10:00", "name": "USPS COLLECTION BOX - PO LOBBY", "note": "ON 12/24 AND 12/31, THIS BOX MAY BE COLLECTED AS EARLY AS 12 NOON.", "nsi_id": "unitedstatespostalservice-a77078", "operator": "United States Postal Service", "operator:short": "USPS", "operator:type": "public", "operator:wikidata": "Q668687", "ref": "7343900001"}, "type": "Feature"}
{"dataset_attributes": {"@spider": "usps_collection_boxes", "spider:collection_time": "2023-09-19T08:25:58.007339"}, "geometry": {"coordinates": [-96.719472112, 33.999317475], "type": "Point"}, "id": "-sMQwP3Vg3nmZNvz2o0QBbG-dvc=", "properties": {"@spider": "usps_collection_boxes", "addr:city": "KINGSTON", "addr:country": "US", "addr:full": "101 N MAIN ST", "addr:postcode": "73439", "addr:state": "OK", "amenity": "post_box", "brand": "United States Postal Service", "brand:wikidata": "Q668687", "collection_times": "Mo-Fr 16:30; Sa 10:00", "name": "USPS COLLECTION BOX - PO LOBBY", "note": "ON 12/24 AND 12/31, THIS BOX MAY BE COLLECTED AS EARLY AS 12 NOON.", "nsi_id": "unitedstatespostalservice-a77078", "operator": "United States Postal Service", "operator:short": "USPS", "operator:type": "public", "operator:wikidata": "Q668687", "ref": "7343900002"}, "type": "Feature"}
{"dataset_attributes": {"@spider": "usps_collection_boxes", "spider:collection_time": "2023-09-19T08:25:58.007339"}, "geometry": {"coordinates": [-96.9106109892, 33.9833910083], "type": "Point"}, "id": "z4wVddT2-W0QOC98WtLMnQ9DSIw=", "properties": {"@spider": "usps_collection_boxes", "addr:city": "LEBANON", "addr:country": "US", "addr:full": "21601 HIGHWAY 32", "addr:postcode": "73440", "addr:state": "OK", "amenity": "post_box", "brand": "United States Postal Service", "brand:wikidata": "Q668687", "collection_times": "Mo-Fr 12:00; Sa 10:30", "name": "USPS COLLECTION BOX - BLUE BOX", "nsi_id": "unitedstatespostalservice-a77078", "operator": "United States Postal Service", "operator:short": "USPS", "operator:type": "public", "operator:wikidata": "Q668687", "ref": "7344000000"}, "type": "Feature"}
{"dataset_attributes": {"@spider": "usps_collection_boxes", "spider:collection_time": "2023-09-19T08:25:58.007339"}, "geometry": {"coordinates": [-96.911022, 33.983632], "type": "Point"}, "id": "6xclx9ADvVf4XRD9uHmTTUQPm7E=", "properties": {"@spider": "usps_collection_boxes", "addr:city": "LEBANON", "addr:country": "US", "addr:full": "21601 HIGHWAY 32", "addr:postcode": "73440", "addr:state": "OK", "amenity": "post_box", "brand": "United States Postal Service", "brand:wikidata": "Q668687", "collection_times": "Mo-Fr 12:00; Sa 10:30", "name": "USPS COLLECTION BOX - PO LOBBY", "nsi_id": "unitedstatespostalservice-a77078", "operator": "United States Postal Service", "operator:short": "USPS", "operator:type": "public", "operator:wikidata": "Q668687", "ref": "7344000001"}, "type": "Feature"}
{"dataset_attributes": {"@spider": "usps_collection_boxes", "spider:collection_time": "2023-09-19T08:25:58.007339"}, "geometry": {"coordinates": [-96.911023448, 33.983629514], "type": "Point"}, "id": "ld8IQXoBJ_9h5XbM7MS5I9axQ9w=", "properties": {"@spider": "usps_collection_boxes", "addr:city": "LEBANON", "addr:country": "US", "addr:full": "21601 HIGHWAY 32", "addr:postcode": "73440", "addr:state": "OK", "amenity": "post_box", "brand": "United States Postal Service", "brand:wikidata": "Q668687", "collection_times": "Mo-Fr 13:00; Sa 12:00", "name": "USPS COLLECTION BOX - PO LOBBY", "note": "ON 12/24 AND 12/31, THIS BOX MAY BE COLLECTED AS EARLY AS 12 NOON.", "nsi_id": "unitedstatespostalservice-a77078", "operator": "United States Postal Service", "operator:short": "USPS", "operator:type": "public", "operator:wikidata": "Q668687", "ref": "7344000002"}, "type": "Feature"}
{"dataset_attributes": {"@spider": "usps_collection_boxes", "spider:collection_time": "2023-09-19T08:25:58.007339"}, "geometry": {"coordinates": [-97.427936, 33.879054], "type": "Point"}, "id": "dhwzarHLPBdUoPvJbASaB3_9cB4=", "properties": {"@spider": "usps_collection_boxes", "addr:city": "LEON", "addr:country": "US", "addr:full": "27339 EASTRIDGE ST", "addr:postcode": "73441", "addr:state": "OK", "amenity": "post_box", "brand": "United States Postal Service", "brand:wikidata": "Q668687", "collection_times": "Mo-Sa 10:45", "name": "USPS COLLECTION BOX - BLUE BOX", "nsi_id": "unitedstatespostalservice-a77078", "operator": "United States Postal Service", "operator:short": "USPS", "operator:type": "public", "operator:wikidata": "Q668687", "ref": "7344100000"}, "type": "Feature"}
{"dataset_attributes": {"@spider": "usps_collection_boxes", "spider:collection_time": "2023-09-19T08:25:58.007339"}, "geometry": {"coordinates": [-97.427841, 33.879052], "type": "Point"}, "id": "HNNmWhxyRW3bmhgUb1iLjmKx-C0=", "properties": {"@spider": "usps_collection_boxes", "addr:city": "LEON", "addr:country": "US", "addr:full": "27339 EASTRIDGE ST", "addr:postcode": "73441", "addr:state": "OK", "amenity": "post_box", "brand": "United States Postal Service", "brand:wikidata": "Q668687", "collection_times": "Mo-Sa 10:45", "name": "USPS COLLECTION BOX - PO LOBBY", "nsi_id": "unitedstatespostalservice-a77078", "operator": "United States Postal Service", "operator:short": "USPS", "operator:type": "public", "operator:wikidata": "Q668687", "ref": "7344100001"}, "type": "Feature"}
{"dataset_attributes": {"@spider": "usps_collection_boxes", "spider:collection_time": "2023-09-19T08:25:58.007339"}, "geometry": {"coordinates": [-97.427844, 33.879046507], "type": "Point"}, "id": "qo7PWGmvmmoqPYAsOaqZvpWwiEs=", "properties": {"@spider": "usps_collection_boxes", "addr:city": "LEON", "addr:country": "US", "addr:full": "27339 EASTRIDGE ST", "addr:postcode": "73441", "addr:state": "OK", "amenity": "post_box", "brand": "United States Postal Service", "brand:wikidata": "Q668687", "collection_times": "Mo-Sa 11:00", "name": "USPS COLLECTION BOX - PO LOBBY", "nsi_id": "unitedstatespostalservice-a77078", "operator": "United States Postal Service", "operator:short": "USPS", "operator:type": "public", "operator:wikidata": "Q668687", "ref": "7344100002"}, "type": "Feature"}
{"dataset_attributes": {"@spider": "usps_collection_boxes", "spider:collection_time": "2023-09-19T08:25:58.007339"}, "geometry": {"coordinates": [-97.676189, 34.328884], "type": "Point"}, "id": "3lYuD78H1b0yIoyVv4BTSk8e_ys=", "properties": {"@spider": "usps_collection_boxes", "addr:city": "LOCO", "addr:country": "US", "addr:full": "308 2ND ST", "addr:postcode": "73442", "addr:state": "OK", "amenity": "post_box", "brand": "United States Postal Service", "brand:wikidata": "Q668687", "collection_times": "Mo-Fr 12:00; Sa 10:00", "name": "USPS COLLECTION BOX - PO LOBBY", "nsi_id": "unitedstatespostalservice-a77078", "operator": "United States Postal Service", "operator:short": "USPS", "operator:type": "public", "operator:wikidata": "Q668687", "ref": "7344200001"}, "type": "Feature"}
{"dataset_attributes": {"@spider": "usps_collection_boxes", "spider:collection_time": "2023-09-19T08:25:58.007339"}, "geometry": {"coordinates": [-97.682388175, 34.32916523], "type": "Point"}, "id": "nX8QxloUr-n90k-DCsqt-j50SIE=", "properties": {"@spider": "usps_collection_boxes", "addr:city": "LOCO", "addr:country": "US", "addr:full": "308 2ND ST", "addr:postcode": "73442", "addr:state": "OK", "amenity": "post_box", "brand": "United States Postal Service", "brand:wikidata": "Q668687", "collection_times": "Mo-Fr 13:00; Sa 10:00", "name": "USPS COLLECTION BOX - PO LOBBY", "note": "ON 12/24 AND 12/31, THIS BOX MAY BE COLLECTED AS EARLY AS 12 NOON.", "nsi_id": "unitedstatespostalservice-a77078", "operator": "United States Postal Service", "operator:short": "USPS", "operator:type": "public", "operator:wikidata": "Q668687", "ref": "7344200002"}, "type": "Feature"}
{"dataset_attributes": {"@spider": "usps_collection_boxes", "spider:collection_time": "2023-09-19T08:25:58.007339"}, "geometry": {"coordinates": [-97.247782, 34.172513], "type": "Point"}, "id": "WCGRZWiKdQDEvP-J7m-P5oLMf08=", "properties": {"@spider": "usps_collection_boxes", "addr:city": "LONE GROVE", "addr:country": "US", "addr:full": "25 HERITAGE ST", "addr:postcode": "73443", "addr:state": "OK", "amenity": "post_box", "brand": "United States Postal Service", "brand:wikidata": "Q668687", "collection_times": "Mo-Fr 16:00; Sa 09:45", "name": "USPS COLLECTION BOX - BLUE BOX", "note": "ON 12/24 AND 12/31, THIS BOX MAY BE COLLECTED AS EARLY AS 12 NOON.", "nsi_id": "unitedstatespostalservice-a77078", "operator": "United States Postal Service", "operator:short": "USPS", "operator:type": "public", "operator:wikidata": "Q668687", "ref": "7344300003"}, "type": "Feature"}
{"dataset_attributes": {"@spider": "usps_collection_boxes", "spider:collection_time": "2023-09-19T08:25:58.007339"}, "geometry": {"coordinates": [-97.247782, 34.172513], "type": "Point"}, "id": "akozU5ZwUO4tg3KusFb0L2sb9w8=", "properties": {"@spider": "usps_collection_boxes", "addr:city": "LONE GROVE", "addr:country": "US", "addr:full": "25 HERITAGE ST", "addr:postcode": "73443", "addr:state": "OK", "amenity": "post_box", "brand": "United States Postal Service", "brand:wikidata": "Q668687", "collection_times": "Mo-Fr 16:00; Sa 09:45", "name": "USPS COLLECTION BOX - PO LOBBY", "note": "ON 12/24 AND 12/31, THIS BOX MAY BE COLLECTED AS EARLY AS 12 NOON.", "nsi_id": "unitedstatespostalservice-a77078", "operator": "United States Postal Service", "operator:short": "USPS", "operator:type": "public", "operator:wikidata": "Q668687", "ref": "7344300004"}, "type": "Feature"}
{"dataset_attributes": {"@spider": "usps_collection_boxes", "spider:collection_time": "2023-09-19T08:25:58.007339"}, "geometry": {"coordinates": [-97.247782, 34.172513], "type": "Point"}, "id": "TjXVk9XHZ_WClE2WwqrTas4RCrw=", "properties": {"@spider": "usps_collection_boxes", "addr:city": "LONE GROVE", "addr:country": "US", "addr:full": "25 HERITAGE ST", "addr:postcode": "73443", "addr:state": "OK", "amenity": "post_box", "brand": "United States Postal Service", "brand:wikidata": "Q668687", "collection_times": "Mo-Fr 16:00; Sa 09:45", "name": "USPS COLLECTION BOX - PO LOBBY", "note": "ON 12/24 AND 12/31, THIS BOX MAY BE COLLECTED AS EARLY AS 12 NOON.", "nsi_id": "unitedstatespostalservice-a77078", "operator": "United States Postal Service", "operator:short": "USPS", "operator:type": "public", "operator:wikidata": "Q668687", "ref": "7344300005"}, "type": "Feature"}
{"dataset_attributes": {"@spider": "usps_collection_boxes", "spider:collection_time": "2023-09-19T08:25:58.007339"}, "geometry": {"coordinates": [-97.247781974, 34.172505485], "type": "Point"}, "id": "9D6V1lUCVyAaymgNV8esH51gfZc=", "properties": {"@spider": "usps_collection_boxes", "addr:city": "LONE GROVE", "addr:country": "US", "addr:full": "25 HERITAGE ST", "addr:postcode": "73443", "addr:state": "OK", "amenity": "post_box", "brand": "United States Postal Service", "brand:wikidata": "Q668687", "collection_times": "Mo-Fr 16:30; Sa 10:00", "name": "USPS COLLECTION BOX - PO LOBBY", "note": "ON 12/24 AND 12/31, THIS BOX MAY BE COLLECTED AS EARLY AS 12 NOON.", "nsi_id": "unitedstatespostalservice-a77078", "operator": "United States Postal Service", "operator:short": "USPS", "operator:type": "public", "operator:wikidata": "Q668687", "ref": "7344300006"}, "type": "Feature"}
{"dataset_attributes": {"@spider": "usps_collection_boxes", "spider:collection_time": "2023-09-19T08:25:58.007339"}, "geometry": {"coordinates": [-97.3480984, 34.507946], "type": "Point"}, "id": "E0I29xktFY_9RbGMoSWsM9Hx610=", "properties": {"@spider": "usps_collection_boxes", "addr:city": "HENNEPIN", "addr:country": "US", "addr:full": "28240 HIGHWAY 7", "addr:postcode": "73444", "addr:state": "OK", "amenity": "post_box", "brand": "United States Postal Service", "brand:wikidata": "Q668687", "collection_times": "Mo-Fr 10:30; Sa 09:45", "name": "USPS COLLECTION BOX - BLUE BOX", "nsi_id": "unitedstatespostalservice-a77078", "operator": "United States Postal Service", "operator:short": "USPS", "operator:type": "public", "operator:wikidata": "Q668687", "ref": "7344400000"}, "type": "Feature"}
{"dataset_attributes": {"@spider": "usps_collection_boxes", "spider:collection_time": "2023-09-19T08:25:58.007339"}, "geometry": {"coordinates": [-97.347729, 34.508414], "type": "Point"}, "id": "FgP-PlpmAota8f3fV4bKgJ7l7TE=", "properties": {"@spider": "usps_collection_boxes", "addr:city": "HENNEPIN", "addr:country": "US", "addr:full": "28240 HIGHWAY 7", "addr:postcode": "73444", "addr:state": "OK", "amenity": "post_box", "brand": "United States Postal Service", "brand:wikidata": "Q668687", "collection_times": "Mo-Fr 10:30; Sa 09:45", "name": "USPS COLLECTION BOX - PO LOBBY", "nsi_id": "unitedstatespostalservice-a77078", "operator": "United States Postal Service", "operator:short": "USPS", "operator:type": "public", "operator:wikidata": "Q668687", "ref": "7344400002"}, "type": "Feature"}
{"dataset_attributes": {"@spider": "usps_collection_boxes", "spider:collection_time": "2023-09-19T08:25:58.007339"}, "geometry": {"coordinates": [-97.347729, 34.508414], "type": "Point"}, "id": "xIuDsTSnoCQgCmFjNT3YBiZeqCU=", "properties": {"@spider": "usps_collection_boxes", "addr:city": "HENNEPIN", "addr:country": "US", "addr:full": "28240 HIGHWAY 7", "addr:postcode": "73444", "addr:state": "OK", "amenity": "post_box", "brand": "United States Postal Service", "brand:wikidata": "Q668687", "collection_times": "Mo-Fr 10:30; Sa 09:45", "name": "USPS COLLECTION BOX - PO LOBBY", "nsi_id": "unitedstatespostalservice-a77078", "operator": "United States Postal Service", "operator:short": "USPS", "operator:type": "public", "operator:wikidata": "Q668687", "ref": "7344400003"}, "type": "Feature"}
{"dataset_attributes": {"@spider": "usps_collection_boxes", "spider:collection_time": "2023-09-19T08:25:58.007339"}, "geometry": {"coordinates": [-97.347731275, 34.508408082], "type": "Point"}, "id": "NyHY6WpZTCLGxwUwi_t0B24R0e0=", "properties": {"@spider": "usps_collection_boxes", "addr:city": "HENNEPIN", "addr:country": "US", "addr:full": "28240 HIGHWAY 7", "addr:postcode": "73444", "addr:state": "OK", "amenity": "post_box", "brand": "United States Postal Service", "brand:wikidata": "Q668687", "collection_times": "Mo-Fr 10:30; Sa 10:00", "name": "USPS COLLECTION BOX - PO LOBBY", "nsi_id": "unitedstatespostalservice-a77078", "operator": "United States Postal Service", "operator:short": "USPS", "operator:type": "public", "operator:wikidata": "Q668687", "ref": "7344400004"}, "type": "Feature"}
{"dataset_attributes": {"@spider": "usps_collection_boxes", "spider:collection_time": "2023-09-19T08:25:58.007339"}, "geometry": {"coordinates": [-96.7727840025, 34.0902140057], "type": "Point"}, "id": "btDXma9DWASsL-kqu1XwomSFo5g=", "properties": {"@spider": "usps_collection_boxes", "addr:city": "MADILL", "addr:country": "US", "addr:full": "223 W LILLIE BLVD", "addr:postcode": "73446", "addr:state": "OK", "amenity": "post_box", "brand": "United States Postal Service", "brand:wikidata": "Q668687", "collection_times": "Mo-Fr 17:00; Sa 10:00", "name": "USPS COLLECTION BOX - BLUE BOX", "note": "ON 12/24 AND 12/31, THIS BOX MAY BE COLLECTED AS EARLY AS 12 NOON.", "nsi_id": "unitedstatespostalservice-a77078", "operator": "United States Postal Service", "operator:short": "USPS", "operator:type": "public", "operator:wikidata": "Q668687", "ref": "7344600000"}, "type": "Feature"}
{"dataset_attributes": {"@spider": "usps_collection_boxes", "spider:collection_time": "2023-09-19T08:25:58.007339"}, "geometry": {"coordinates": [-96.7727840025, 34.0902140057], "type": "Point"}, "id": "2H1a2c4gnmCV7_PB7zLNuKTWHmk=", "properties": {"@spider": "usps_collection_boxes", "addr:city": "MADILL", "addr:country": "US", "addr:full": "223 W LILLIE BLVD", "addr:postcode": "73446", "addr:state": "OK", "amenity": "post_box", "brand": "United States Postal Service", "brand:wikidata": "Q668687", "collection_times": "Mo-Fr 17:00; Sa 10:00", "name": "USPS COLLECTION BOX - BLUE BOX", "note": "ON 12/24 AND 12/31, THIS BOX MAY BE COLLECTED AS EARLY AS 12 NOON.", "nsi_id": "unitedstatespostalservice-a77078", "operator": "United States Postal Service", "operator:short": "USPS", "operator:type": "public", "operator:wikidata": "Q668687", "ref": "7344600007"}, "type": "Feature"}
{"dataset_attributes": {"@spider": "usps_collection_boxes", "spider:collection_time": "2023-09-19T08:25:58.007339"}, "geometry": {"coordinates": [-96.772717, 34.090482], "type": "Point"}, "id": "3hHfqWre9mkhSq54qZM1c9ucfVY=", "properties": {"@spider": "usps_collection_boxes", "addr:city": "MADILL", "addr:country": "US", "addr:full": "223 W LILLIE BLVD", "addr:postcode": "73446", "addr:state": "OK", "amenity": "post_box", "brand": "United States Postal Service", "brand:wikidata": "Q668687", "collection_times": "Mo-Fr 17:00", "name": "USPS COLLECTION BOX - PO LOBBY", "note": "ON 12/24 AND 12/31, THIS BOX MAY BE COLLECTED AS EARLY AS 12 NOON.", "nsi_id": "unitedstatespostalservice-a77078", "operator": "United States Postal Service", "operator:short": "USPS", "operator:type": "public", "operator:wikidata": "Q668687", "ref": "7344600008"}, "type": "Feature"}
{"dataset_attributes": {"@spider": "usps_collection_boxes", "spider:collection_time": "2023-09-19T08:25:58.007339"}, "geometry": {"coordinates": [-96.772717, 34.090482], "type": "Point"}, "id": "V_K48p0Z-B0AemhiJhycR8p3iAE=", "properties": {"@spider": "usps_collection_boxes", "addr:city": "MADILL", "addr:country": "US", "addr:full": "223 W LILLIE BLVD", "addr:postcode": "73446", "addr:state": "OK", "amenity": "post_box", "brand": "United States Postal Service", "brand:wikidata": "Q668687", "collection_times": "Mo-Fr 17:00", "name": "USPS COLLECTION BOX - PO LOBBY", "note": "ON 12/24 AND 12/31, THIS BOX MAY BE COLLECTED AS EARLY AS 12 NOON.", "nsi_id": "unitedstatespostalservice-a77078", "operator": "United States Postal Service", "operator:short": "USPS", "operator:type": "public", "operator:wikidata": "Q668687", "ref": "7344600009"}, "type": "Feature"}
{"dataset_attributes": {"@spider": "usps_collection_boxes", "spider:collection_time": "2023-09-19T08:25:58.007339"}, "geometry": {"coordinates": [-96.772716371, 34.090480962], "type": "Point"}, "id": "bhrMGe_SEwMWobLhBKEavjPUdls=", "properties": {"@spider": "usps_collection_boxes", "addr:city": "MADILL", "addr:country": "US", "addr:full": "223 W LILLIE BLVD", "addr:postcode": "73446", "addr:state": "OK", "amenity": "post_box", "brand": "United States Postal Service", "brand:wikidata": "Q668687", "collection_times": "Mo-Fr 16:30; Sa 09:30", "name": "USPS COLLECTION BOX - PO LOBBY", "note": "ON 12/24 AND 12/31, THIS BOX MAY BE COLLECTED AS EARLY AS 12 NOON.", "nsi_id": "unitedstatespostalservice-a77078", "operator": "United States Postal Service", "operator:short": "USPS", "operator:type": "public", "operator:wikidata": "Q668687", "ref": "7344600011"}, "type": "Feature"}
{"dataset_attributes": {"@spider": "usps_collection_boxes", "spider:collection_time": "2023-09-19T08:25:58.007339"}, "geometry": {"coordinates": [-96.882058, 34.186345], "type": "Point"}, "id": "gApyHObu6sZYJAOL_gVYAftvbqI=", "properties": {"@spider": "usps_collection_boxes", "addr:city": "MANNSVILLE", "addr:country": "US", "addr:full": "101 N 20TH ST", "addr:postcode": "73447", "addr:state": "OK", "amenity": "post_box", "brand": "United States Postal Service", "brand:wikidata": "Q668687", "collection_times": "Mo-Fr 16:00; Sa 09:00", "name": "USPS COLLECTION BOX - BLUE BOX", "note": "ON 12/24 AND 12/31, THIS BOX MAY BE COLLECTED AS EARLY AS 12 NOON.", "nsi_id": "unitedstatespostalservice-a77078", "operator": "United States Postal Service", "operator:short": "USPS", "operator:type": "public", "operator:wikidata": "Q668687", "ref": "7344700000"}, "type": "Feature"}
{"dataset_attributes": {"@spider": "usps_collection_boxes", "spider:collection_time": "2023-09-19T08:25:58.007339"}, "geometry": {"coordinates": [-96.882058, 34.186345], "type": "Point"}, "id": "2KMk5ojRTvhnOum2mh172M_gD8A=", "properties": {"@spider": "usps_collection_boxes", "addr:city": "MANNSVILLE", "addr:country": "US", "addr:full": "101 N 20TH ST", "addr:postcode": "73447", "addr:state": "OK", "amenity": "post_box", "brand": "United States Postal Service", "brand:wikidata": "Q668687", "collection_times": "Mo-Fr 16:00; Sa 09:00", "name": "USPS COLLECTION BOX - PO LOBBY", "note": "ON 12/24 AND 12/31, THIS BOX MAY BE COLLECTED AS EARLY AS 12 NOON.", "nsi_id": "unitedstatespostalservice-a77078", "operator": "United States Postal Service", "operator:short": "USPS", "operator:type": "public", "operator:wikidata": "Q668687", "ref": "7344700002"}, "type": "Feature"}
{"dataset_attributes": {"@spider": "usps_collection_boxes", "spider:collection_time": "2023-09-19T08:25:58.007339"}, "geometry": {"coordinates": [-96.882086525, 34.186306334], "type": "Point"}, "id": "tobtiz0Q-vpcHGZisuItQR6GKZ0=", "properties": {"@spider": "usps_collection_boxes", "addr:city": "MANNSVILLE", "addr:country": "US", "addr:full": "101 N 20TH ST", "addr:postcode": "73447", "addr:state": "OK", "amenity": "post_box", "brand": "United States Postal Service", "brand:wikidata": "Q668687", "collection_times": "Mo-Fr 16:30; Sa 09:30", "name": "USPS COLLECTION BOX - PO LOBBY", "note": "ON 12/24 AND 12/31, THIS BOX MAY BE COLLECTED AS EARLY AS 12 NOON.", "nsi_id": "unitedstatespostalservice-a77078", "operator": "United States Postal Service", "operator:short": "USPS", "operator:type": "public", "operator:wikidata": "Q668687", "ref": "7344700003"}, "type": "Feature"}
{"dataset_attributes": {"@spider": "usps_collection_boxes", "spider:collection_time": "2023-09-19T08:25:58.007339"}, "geometry": {"coordinates": [-97.117779, 33.937238], "type": "Point"}, "id": "rb_wtL55GL8oj-NQ7ClW09AIcRg=", "properties": {"@spider": "usps_collection_boxes", "addr:city": "MARIETTA", "addr:country": "US", "addr:full": "118 W MAIN ST", "addr:postcode": "73448", "addr:state": "OK", "amenity": "post_box", "brand": "United States Postal Service", "brand:wikidata": "Q668687", "collection_times": "Mo-Fr 16:45; Sa 10:45", "name": "USPS COLLECTION BOX - BLUE BOX", "note": "ON 12/24 AND 12/31, THIS BOX MAY BE COLLECTED AS EARLY AS 12 NOON.", "nsi_id": "unitedstatespostalservice-a77078", "operator": "United States Postal Service", "operator:short": "USPS", "operator:type": "public", "operator:wikidata": "Q668687", "ref": "7344800001"}, "type": "Feature"}
{"dataset_attributes": {"@spider": "usps_collection_boxes", "spider:collection_time": "2023-09-19T08:25:58.007339"}, "geometry": {"coordinates": [-97.117779, 33.937238], "type": "Point"}, "id": "JoDaYQmUqZPnOuTPm4_D90QWhGg=", "properties": {"@spider": "usps_collection_boxes", "addr:city": "MARIETTA", "addr:country": "US", "addr:full": "118 W MAIN ST", "addr:postcode": "73448", "addr:state": "OK", "amenity": "post_box", "brand": "United States Postal Service", "brand:wikidata": "Q668687", "collection_times": "Mo-Fr 16:45; Sa 11:00", "name": "USPS COLLECTION BOX - PO LOBBY", "note": "ON 12/24 AND 12/31, THIS BOX MAY BE COLLECTED AS EARLY AS 12 NOON.", "nsi_id": "unitedstatespostalservice-a77078", "operator": "United States Postal Service", "operator:short": "USPS", "operator:type": "public", "operator:wikidata": "Q668687", "ref": "7344800011"}, "type": "Feature"}
{"dataset_attributes": {"@spider": "usps_collection_boxes", "spider:collection_time": "2023-09-19T08:25:58.007339"}, "geometry": {"coordinates": [-97.117808496, 33.937243479], "type": "Point"}, "id": "SsYgPtADVA0dEMqxMg8ZXpyO0Gc=", "properties": {"@spider": "usps_collection_boxes", "addr:city": "MARIETTA", "addr:country": "US", "addr:full": "118 W MAIN ST", "addr:postcode": "73448", "addr:state": "OK", "amenity": "post_box", "brand": "United States Postal Service", "brand:wikidata": "Q668687", "collection_times": "Mo-Fr 16:30; Sa 11:00", "name": "USPS COLLECTION BOX - PO LOBBY", "note": "ON 12/24 AND 12/31, THIS BOX MAY BE COLLECTED AS EARLY AS 12 NOON.", "nsi_id": "unitedstatespostalservice-a77078", "operator": "United States Postal Service", "operator:short": "USPS", "operator:type": "public", "operator:wikidata": "Q668687", "ref": "7344800012"}, "type": "Feature"}
{"dataset_attributes": {"@spider": "usps_collection_boxes", "spider:collection_time": "2023-09-19T08:25:58.007339"}, "geometry": {"coordinates": [-96.5100397698, 34.0017984587], "type": "Point"}, "id": "SSR-reQCJNVQ4nfm4OWUyQ7x4rs=", "properties": {"@spider": "usps_collection_boxes", "addr:city": "MEAD", "addr:country": "US", "addr:full": "105 MAIN ST", "addr:postcode": "73449", "addr:state": "OK", "amenity": "post_box", "brand": "United States Postal Service", "brand:wikidata": "Q668687", "collection_times": "Mo-Fr 14:00; Sa 09:00", "name": "USPS COLLECTION BOX - BLUE BOX", "note": "ON 12/24 AND 12/31, THIS BOX MAY BE COLLECTED AS EARLY AS 12 NOON.", "nsi_id": "unitedstatespostalservice-a77078", "operator": "United States Postal Service", "operator:short": "USPS", "operator:type": "public", "operator:wikidata": "Q668687", "ref": "7344900000"}, "type": "Feature"}
{"dataset_attributes": {"@spider": "usps_collection_boxes", "spider:collection_time": "2023-09-19T08:25:58.007339"}, "geometry": {"coordinates": [-96.5100504788, 34.0017995979], "type": "Point"}, "id": "vt64UBvbIavLfvfLfcxG0MIr9Lg=", "properties": {"@spider": "usps_collection_boxes", "addr:city": "MEAD", "addr:country": "US", "addr:full": "105 MAIN ST", "addr:postcode": "73449", "addr:state": "OK", "amenity": "post_box", "brand": "United States Postal Service", "brand:wikidata": "Q668687", "collection_times": "Mo-Fr 14:00; Sa 09:00", "name": "USPS COLLECTION BOX - PO LOBBY", "note": "ON 12/24 AND 12/31, THIS BOX MAY BE COLLECTED AS EARLY AS 12 NOON.", "nsi_id": "unitedstatespostalservice-a77078", "operator": "United States Postal Service", "operator:short": "USPS", "operator:type": "public", "operator:wikidata": "Q668687", "ref": "7344900001"}, "type": "Feature"}
{"dataset_attributes": {"@spider": "usps_collection_boxes", "spider:collection_time": "2023-09-19T08:25:58.007339"}, "geometry": {"coordinates": [-96.514619691, 34.005430152], "type": "Point"}, "id": "HKlOnPjhAnqTN8vtzdmi0Rwm6vc=", "properties": {"@spider": "usps_collection_boxes", "addr:city": "MEAD", "addr:country": "US", "addr:full": "310 N MAIN ST", "addr:postcode": "73449", "addr:state": "OK", "amenity": "post_box", "brand": "United States Postal Service", "brand:wikidata": "Q668687", "collection_times": "Mo-Fr 14:00", "name": "USPS COLLECTION BOX - PO LOBBY", "note": "ON 12/24 AND 12/31, THIS BOX MAY BE COLLECTED AS EARLY AS 12 NOON.", "nsi_id": "unitedstatespostalservice-a77078", "operator": "United States Postal Service", "operator:short": "USPS", "operator:type": "public", "operator:wikidata": "Q668687", "ref": "7344900002"}, "type": "Feature"}
{"dataset_attributes": {"@spider": "usps_collection_boxes", "spider:collection_time": "2023-09-19T08:25:58.007339"}, "geometry": {"coordinates": [-96.551348, 34.243411], "type": "Point"}, "id": "K6SZ5hbt7eTHYKCkIvie1l4i6Qo=", "properties": {"@spider": "usps_collection_boxes", "addr:city": "MILBURN", "addr:country": "US", "addr:full": "201 E I AVE", "addr:postcode": "73450", "addr:state": "OK", "amenity": "post_box", "brand": "United States Postal Service", "brand:wikidata": "Q668687", "collection_times": "Mo-Fr 11:45; Sa 09:00", "name": "USPS COLLECTION BOX - BLUE BOX", "nsi_id": "unitedstatespostalservice-a77078", "operator": "United States Postal Service", "operator:short": "USPS", "operator:type": "public", "operator:wikidata": "Q668687", "ref": "7345000001"}, "type": "Feature"}
{"dataset_attributes": {"@spider": "usps_collection_boxes", "spider:collection_time": "2023-09-19T08:25:58.007339"}, "geometry": {"coordinates": [-96.548529, 34.24262], "type": "Point"}, "id": "Fjca063m7lxdMSWMp8ThKJBBqC4=", "properties": {"@spider": "usps_collection_boxes", "addr:city": "MILBURN", "addr:country": "US", "addr:full": "201 E I AVE", "addr:postcode": "73450", "addr:state": "OK", "amenity": "post_box", "brand": "United States Postal Service", "brand:wikidata": "Q668687", "collection_times": "Mo-Fr 11:45; Sa 09:00", "name": "USPS COLLECTION BOX - PO LOBBY", "nsi_id": "unitedstatespostalservice-a77078", "operator": "United States Postal Service", "operator:short": "USPS", "operator:type": "public", "operator:wikidata": "Q668687", "ref": "7345000002"}, "type": "Feature"}
{"dataset_attributes": {"@spider": "usps_collection_boxes", "spider:collection_time": "2023-09-19T08:25:58.007339"}, "geometry": {"coordinates": [-96.548529, 34.24262], "type": "Point"}, "id": "Y0Tta6RhqFXZawz88vJJAgQ1Ebo=", "properties": {"@spider": "usps_collection_boxes", "addr:city": "MILBURN", "addr:country": "US", "addr:full": "201 E I AVE", "addr:postcode": "73450", "addr:state": "OK", "amenity": "post_box", "brand": "United States Postal Service", "brand:wikidata": "Q668687", "collection_times": "Mo-Fr 11:45; Sa 09:00", "name": "USPS COLLECTION BOX - PO LOBBY", "nsi_id": "unitedstatespostalservice-a77078", "operator": "United States Postal Service", "operator:short": "USPS", "operator:type": "public", "operator:wikidata": "Q668687", "ref": "7345000003"}, "type": "Feature"}
{"dataset_attributes": {"@spider": "usps_collection_boxes", "spider:collection_time": "2023-09-19T08:25:58.007339"}, "geometry": {"coordinates": [-96.547378669, 34.243731285], "type": "Point"}, "id": "rTvcxZfJa00CPgeEJn_sKianJ0U=", "properties": {"@spider": "usps_collection_boxes", "addr:city": "MILBURN", "addr:country": "US", "addr:full": "201 E I AVE", "addr:postcode": "73450", "addr:state": "OK", "amenity": "post_box", "brand": "United States Postal Service", "brand:wikidata": "Q668687", "collection_times": "Mo-Fr 12:00; Sa 09:00", "name": "USPS COLLECTION BOX - PO LOBBY", "nsi_id": "unitedstatespostalservice-a77078", "operator": "United States Postal Service", "operator:short": "USPS", "operator:type": "public", "operator:wikidata": "Q668687", "ref": "7345000004"}, "type": "Feature"}
{"dataset_attributes": {"@spider": "usps_collection_boxes", "spider:collection_time": "2023-09-19T08:25:58.007339"}, "geometry": {"coordinates": [-97.1435510354, 34.067494019], "type": "Point"}, "id": "NjFj1QAYwxmC2LjgkBFsIbjuAgA=", "properties": {"@spider": "usps_collection_boxes", "addr:city": "OVERBROOK", "addr:country": "US", "addr:full": "232 US HIGHWAY 77", "addr:postcode": "73453", "addr:state": "OK", "amenity": "post_box", "brand": "United States Postal Service", "brand:wikidata": "Q668687", "collection_times": "Mo-Fr 11:45; Sa 09:45", "name": "USPS COLLECTION BOX - BLUE BOX", "nsi_id": "unitedstatespostalservice-a77078", "operator": "United States Postal Service", "operator:short": "USPS", "operator:type": "public", "operator:wikidata": "Q668687", "ref": "7345300000"}, "type": "Feature"}
{"dataset_attributes": {"@spider": "usps_collection_boxes", "spider:collection_time": "2023-09-19T08:25:58.007339"}, "geometry": {"coordinates": [-97.143415663, 34.067564749], "type": "Point"}, "id": "LWtiAxEy5TmJCXz5o3hEWQgDztI=", "properties": {"@spider": "usps_collection_boxes", "addr:city": "OVERBROOK", "addr:country": "US", "addr:full": "232 US HIGHWAY 77", "addr:postcode": "73453", "addr:state": "OK", "amenity": "post_box", "brand": "United States Postal Service", "brand:wikidata": "Q668687", "collection_times": "Mo-Fr 11:45; Sa 09:45", "name": "USPS COLLECTION BOX - PO LOBBY", "nsi_id": "unitedstatespostalservice-a77078", "operator": "United States Postal Service", "operator:short": "USPS", "operator:type": "public", "operator:wikidata": "Q668687", "ref": "7345300001"}, "type": "Feature"}
{"dataset_attributes": {"@spider": "usps_collection_boxes", "spider:collection_time": "2023-09-19T08:25:58.007339"}, "geometry": {"coordinates": [-97.143415663, 34.067564749], "type": "Point"}, "id": "3lItqd4VaUkHLxRa2NIl4Otgaxs=", "properties": {"@spider": "usps_collection_boxes", "addr:city": "OVERBROOK", "addr:country": "US", "addr:full": "232 US HIGHWAY 77", "addr:postcode": "73453", "addr:state": "OK", "amenity": "post_box", "brand": "United States Postal Service", "brand:wikidata": "Q668687", "collection_times": "Mo-Fr 12:00; Sa 10:00", "name": "USPS COLLECTION BOX - PO LOBBY", "nsi_id": "unitedstatespostalservice-a77078", "operator": "United States Postal Service", "operator:short": "USPS", "operator:type": "public", "operator:wikidata": "Q668687", "ref": "7345300002"}, "type": "Feature"}
{"dataset_attributes": {"@spider": "usps_collection_boxes", "spider:collection_time": "2023-09-19T08:25:58.007339"}, "geometry": {"coordinates": [-96.752671, 34.241438], "type": "Point"}, "id": "Om4bgC7xfiXh1SUoL5ytmK3gvSw=", "properties": {"@spider": "usps_collection_boxes", "addr:city": "RAVIA", "addr:country": "US", "addr:full": "312 E GRAND ST", "addr:postcode": "73455", "addr:state": "OK", "amenity": "post_box", "brand": "United States Postal Service", "brand:wikidata": "Q668687", "collection_times": "Mo-Fr 11:45; Sa 09:00", "name": "USPS COLLECTION BOX - BLUE BOX", "nsi_id": "unitedstatespostalservice-a77078", "operator": "United States Postal Service", "operator:short": "USPS", "operator:type": "public", "operator:wikidata": "Q668687", "ref": "7345500000"}, "type": "Feature"}
{"dataset_attributes": {"@spider": "usps_collection_boxes", "spider:collection_time": "2023-09-19T08:25:58.007339"}, "geometry": {"coordinates": [-96.752671, 34.241438], "type": "Point"}, "id": "uaH8ezZ6VkJfZs8-okdBNcIUXZY=", "properties": {"@spider": "usps_collection_boxes", "addr:city": "RAVIA", "addr:country": "US", "addr:full": "312 E GRAND ST", "addr:postcode": "73455", "addr:state": "OK", "amenity": "post_box", "brand": "United States Postal Service", "brand:wikidata": "Q668687", "collection_times": "Mo-Fr 11:45; Sa 09:00", "name": "USPS COLLECTION BOX - PO LOBBY", "nsi_id": "unitedstatespostalservice-a77078", "operator": "United States Postal Service", "operator:short": "USPS", "operator:type": "public", "operator:wikidata": "Q668687", "ref": "7345500001"}, "type": "Feature"}
{"dataset_attributes": {"@spider": "usps_collection_boxes", "spider:collection_time": "2023-09-19T08:25:58.007339"}, "geometry": {"coordinates": [-96.752673, 34.241430475], "type": "Point"}, "id": "7oqI3SfO_Ca0EudBK0ZufTtYDSA=", "properties": {"@spider": "usps_collection_boxes", "addr:city": "RAVIA", "addr:country": "US", "addr:full": "312 E GRAND ST", "addr:postcode": "73455", "addr:state": "OK", "amenity": "post_box", "brand": "United States Postal Service", "brand:wikidata": "Q668687", "collection_times": "Mo-Fr 12:00; Sa 09:00", "name": "USPS COLLECTION BOX - PO LOBBY", "nsi_id": "unitedstatespostalservice-a77078", "operator": "United States Postal Service", "operator:short": "USPS", "operator:type": "public", "operator:wikidata": "Q668687", "ref": "7345500002"}, "type": "Feature"}
{"dataset_attributes": {"@spider": "usps_collection_boxes", "spider:collection_time": "2023-09-19T08:25:58.007339"}, "geometry": {"coordinates": [-97.593892, 34.178846], "type": "Point"}, "id": "0AQhjEJZ0OvFLoDqhbA-b5Q2qo4=", "properties": {"@spider": "usps_collection_boxes", "addr:city": "RINGLING", "addr:country": "US", "addr:full": "204 N 4TH ST", "addr:postcode": "73456", "addr:state": "OK", "amenity": "post_box", "brand": "United States Postal Service", "brand:wikidata": "Q668687", "collection_times": "Mo-Fr 16:00; Sa 10:00", "name": "USPS COLLECTION BOX - BLUE BOX", "note": "ON 12/24 AND 12/31, THIS BOX MAY BE COLLECTED AS EARLY AS 12 NOON.", "nsi_id": "unitedstatespostalservice-a77078", "operator": "United States Postal Service", "operator:short": "USPS", "operator:type": "public", "operator:wikidata": "Q668687", "ref": "7345600000"}, "type": "Feature"}
{"dataset_attributes": {"@spider": "usps_collection_boxes", "spider:collection_time": "2023-09-19T08:25:58.007339"}, "geometry": {"coordinates": [-97.593892, 34.178846], "type": "Point"}, "id": "vWdvarmY38GR4ZmHt95mjrr_Y98=", "properties": {"@spider": "usps_collection_boxes", "addr:city": "RINGLING", "addr:country": "US", "addr:full": "204 N 4TH ST", "addr:postcode": "73456", "addr:state": "OK", "amenity": "post_box", "brand": "United States Postal Service", "brand:wikidata": "Q668687", "collection_times": "Mo-Fr 16:00; Sa 10:00", "name": "USPS COLLECTION BOX - PO LOBBY", "note": "ON 12/24 AND 12/31, THIS BOX MAY BE COLLECTED AS EARLY AS 12 NOON.", "nsi_id": "unitedstatespostalservice-a77078", "operator": "United States Postal Service", "operator:short": "USPS", "operator:type": "public", "operator:wikidata": "Q668687", "ref": "7345600001"}, "type": "Feature"}
{"dataset_attributes": {"@spider": "usps_collection_boxes", "spider:collection_time": "2023-09-19T08:25:58.007339"}, "geometry": {"coordinates": [-97.593892, 34.178846], "type": "Point"}, "id": "dsu_yQ7wsTzYHQoI01piWcEqIwk=", "properties": {"@spider": "usps_collection_boxes", "addr:city": "RINGLING", "addr:country": "US", "addr:full": "204 N 4TH ST", "addr:postcode": "73456", "addr:state": "OK", "amenity": "post_box", "brand": "United States Postal Service", "brand:wikidata": "Q668687", "collection_times": "Mo-Fr 16:00; Sa 10:00", "name": "USPS COLLECTION BOX - PO LOBBY", "note": "ON 12/24 AND 12/31, THIS BOX MAY BE COLLECTED AS EARLY AS 12 NOON.", "nsi_id": "unitedstatespostalservice-a77078", "operator": "United States Postal Service", "operator:short": "USPS", "operator:type": "public", "operator:wikidata": "Q668687", "ref": "7345600002"}, "type": "Feature"}
{"dataset_attributes": {"@spider": "usps_collection_boxes", "spider:collection_time": "2023-09-19T08:25:58.007339"}, "geometry": {"coordinates": [-97.593919935, 34.178823591], "type": "Point"}, "id": "RjsRj9IyXwgPA6ZLX-gxtqVl0U0=", "properties": {"@spider": "usps_collection_boxes", "addr:city": "RINGLING", "addr:country": "US", "addr:full": "204 N 4TH ST", "addr:postcode": "73456", "addr:state": "OK", "amenity": "post_box", "brand": "United States Postal Service", "brand:wikidata": "Q668687", "collection_times": "Mo-Fr 16:00", "name": "USPS COLLECTION BOX - PO LOBBY", "note": "ON 12/24 AND 12/31, THIS BOX MAY BE COLLECTED AS EARLY AS 12 NOON.", "nsi_id": "unitedstatespostalservice-a77078", "operator": "United States Postal Service", "operator:short": "USPS", "operator:type": "public", "operator:wikidata": "Q668687", "ref": "7345600003"}, "type": "Feature"}
{"dataset_attributes": {"@spider": "usps_collection_boxes", "spider:collection_time": "2023-09-19T08:25:58.007339"}, "geometry": {"coordinates": [-97.143024, 34.31201], "type": "Point"}, "id": "ic9hb77BntAI4damoIrHFJLuknw=", "properties": {"@spider": "usps_collection_boxes", "addr:city": "SPRINGER", "addr:country": "US", "addr:full": "16625 US HIGHWAY 77", "addr:postcode": "73458", "addr:state": "OK", "amenity": "post_box", "brand": "United States Postal Service", "brand:wikidata": "Q668687", "collection_times": "Mo-Fr 16:00; Sa 10:15", "name": "USPS COLLECTION BOX - BLUE BOX", "note": "ON 12/24 AND 12/31, THIS BOX MAY BE COLLECTED AS EARLY AS 12 NOON.", "nsi_id": "unitedstatespostalservice-a77078", "operator": "United States Postal Service", "operator:short": "USPS", "operator:type": "public", "operator:wikidata": "Q668687", "ref": "7345800000"}, "type": "Feature"}
{"dataset_attributes": {"@spider": "usps_collection_boxes", "spider:collection_time": "2023-09-19T08:25:58.007339"}, "geometry": {"coordinates": [-97.143024, 34.31201], "type": "Point"}, "id": "JCm53oMNrQ9Z15Oo74XvI25MTTc=", "properties": {"@spider": "usps_collection_boxes", "addr:city": "SPRINGER", "addr:country": "US", "addr:full": "16625 US HIGHWAY 77", "addr:postcode": "73458", "addr:state": "OK", "amenity": "post_box", "brand": "United States Postal Service", "brand:wikidata": "Q668687", "collection_times": "Mo-Fr 16:00; Sa 10:15", "name": "USPS COLLECTION BOX - PO LOBBY", "note": "ON 12/24 AND 12/31, THIS BOX MAY BE COLLECTED AS EARLY AS 12 NOON.", "nsi_id": "unitedstatespostalservice-a77078", "operator": "United States Postal Service", "operator:short": "USPS", "operator:type": "public", "operator:wikidata": "Q668687", "ref": "7345800001"}, "type": "Feature"}
{"dataset_attributes": {"@spider": "usps_collection_boxes", "spider:collection_time": "2023-09-19T08:25:58.007339"}, "geometry": {"coordinates": [-97.143023313, 34.312005], "type": "Point"}, "id": "ItXBXG1PV1rzcmcnXO8Y4yKGYgY=", "properties": {"@spider": "usps_collection_boxes", "addr:city": "SPRINGER", "addr:country": "US", "addr:full": "16625 US HIGHWAY 77", "addr:postcode": "73458", "addr:state": "OK", "amenity": "post_box", "brand": "United States Postal Service", "brand:wikidata": "Q668687", "collection_times": "Mo-Fr 16:00; Sa 10:00", "name": "USPS COLLECTION BOX - PO LOBBY", "note": "ON 12/24 AND 12/31, THIS BOX MAY BE COLLECTED AS EARLY AS 12 NOON.", "nsi_id": "unitedstatespostalservice-a77078", "operator": "United States Postal Service", "operator:short": "USPS", "operator:type": "public", "operator:wikidata": "Q668687", "ref": "7345800002"}, "type": "Feature"}
{"dataset_attributes": {"@spider": "usps_collection_boxes", "spider:collection_time": "2023-09-19T08:25:58.007339"}, "geometry": {"coordinates": [-97.1438589865, 33.791894989], "type": "Point"}, "id": "4-uAfgBhq56DSh_XXdDYvBBpO0o=", "properties": {"@spider": "usps_collection_boxes", "addr:city": "THACKERVILLE", "addr:country": "US", "addr:full": "19224 US HIGHWAY 77", "addr:postcode": "73459", "addr:state": "OK", "amenity": "post_box", "brand": "United States Postal Service", "brand:wikidata": "Q668687", "collection_times": "Mo-Fr 15:30; Sa 09:15", "name": "USPS COLLECTION BOX - BLUE BOX", "note": "ON 12/24 AND 12/31, THIS BOX MAY BE COLLECTED AS EARLY AS 12 NOON.", "nsi_id": "unitedstatespostalservice-a77078", "operator": "United States Postal Service", "operator:short": "USPS", "operator:type": "public", "operator:wikidata": "Q668687", "ref": "7345900000"}, "type": "Feature"}
{"dataset_attributes": {"@spider": "usps_collection_boxes", "spider:collection_time": "2023-09-19T08:25:58.007339"}, "geometry": {"coordinates": [-97.1438, 33.791919], "type": "Point"}, "id": "uRnnOSORL43_xZwru_CZq5sYQYA=", "properties": {"@spider": "usps_collection_boxes", "addr:city": "THACKERVILLE", "addr:country": "US", "addr:full": "19224 US HIGHWAY 77", "addr:postcode": "73459", "addr:state": "OK", "amenity": "post_box", "brand": "United States Postal Service", "brand:wikidata": "Q668687", "collection_times": "Mo-Fr 15:30; Sa 09:15", "name": "USPS COLLECTION BOX - PO LOBBY", "note": "ON 12/24 AND 12/31, THIS BOX MAY BE COLLECTED AS EARLY AS 12 NOON.", "nsi_id": "unitedstatespostalservice-a77078", "operator": "United States Postal Service", "operator:short": "USPS", "operator:type": "public", "operator:wikidata": "Q668687", "ref": "7345900001"}, "type": "Feature"}
{"dataset_attributes": {"@spider": "usps_collection_boxes", "spider:collection_time": "2023-09-19T08:25:58.007339"}, "geometry": {"coordinates": [-97.1438, 33.791919], "type": "Point"}, "id": "Mr_atluNDyDWsnN392_REQvvwsg=", "properties": {"@spider": "usps_collection_boxes", "addr:city": "THACKERVILLE", "addr:country": "US", "addr:full": "19224 US HIGHWAY 77", "addr:postcode": "73459", "addr:state": "OK", "amenity": "post_box", "brand": "United States Postal Service", "brand:wikidata": "Q668687", "collection_times": "Mo-Fr 15:30; Sa 09:15", "name": "USPS COLLECTION BOX - PO LOBBY", "note": "ON 12/24 AND 12/31, THIS BOX MAY BE COLLECTED AS EARLY AS 12 NOON.", "nsi_id": "unitedstatespostalservice-a77078", "operator": "United States Postal Service", "operator:short": "USPS", "operator:type": "public", "operator:wikidata": "Q668687", "ref": "7345900003"}, "type": "Feature"}
{"dataset_attributes": {"@spider": "usps_collection_boxes", "spider:collection_time": "2023-09-19T08:25:58.007339"}, "geometry": {"coordinates": [-97.14343704, 33.791912916], "type": "Point"}, "id": "WAJOuwyrcIVXskCYKNlHDG3GiaQ=", "properties": {"@spider": "usps_collection_boxes", "addr:city": "THACKERVILLE", "addr:country": "US", "addr:full": "19224 US HIGHWAY 77", "addr:postcode": "73459", "addr:state": "OK", "amenity": "post_box", "brand": "United States Postal Service", "brand:wikidata": "Q668687", "collection_times": "Mo-Fr 15:30", "name": "USPS COLLECTION BOX - PO LOBBY", "note": "ON 12/24 AND 12/31, THIS BOX MAY BE COLLECTED AS EARLY AS 12 NOON.", "nsi_id": "unitedstatespostalservice-a77078", "operator": "United States Postal Service", "operator:short": "USPS", "operator:type": "public", "operator:wikidata": "Q668687", "ref": "7345900004"}, "type": "Feature"}
{"dataset_attributes": {"@spider": "usps_collection_boxes", "spider:collection_time": "2023-09-19T08:25:58.007339"}, "geometry": {"coordinates": [-96.677729, 34.235979], "type": "Point"}, "id": "oxBlK6XS76b91lUhasyCMypCpSg=", "properties": {"@spider": "usps_collection_boxes", "addr:city": "TISHOMINGO", "addr:country": "US", "addr:full": "108 N NESHOBA ST", "addr:postcode": "73460", "addr:state": "OK", "amenity": "post_box", "brand": "United States Postal Service", "brand:wikidata": "Q668687", "collection_times": "Mo-Fr 16:30", "name": "USPS COLLECTION BOX - BLUE BOX", "note": "ON 12/24 AND 12/31, THIS BOX MAY BE COLLECTED AS EARLY AS 12 NOON.", "nsi_id": "unitedstatespostalservice-a77078", "operator": "United States Postal Service", "operator:short": "USPS", "operator:type": "public", "operator:wikidata": "Q668687", "ref": "7346000006"}, "type": "Feature"}
{"dataset_attributes": {"@spider": "usps_collection_boxes", "spider:collection_time": "2023-09-19T08:25:58.007339"}, "geometry": {"coordinates": [-96.677729, 34.235979], "type": "Point"}, "id": "wj5UkqqMeNOuuuS7Qw7E9e26jKg=", "properties": {"@spider": "usps_collection_boxes", "addr:city": "TISHOMINGO", "addr:country": "US", "addr:full": "108 N NESHOBA ST", "addr:postcode": "73460", "addr:state": "OK", "amenity": "post_box", "brand": "United States Postal Service", "brand:wikidata": "Q668687", "collection_times": "Mo-Fr 16:30; Sa 10:00", "name": "USPS COLLECTION BOX - BLUE BOX", "note": "ON 12/24 AND 12/31, THIS BOX MAY BE COLLECTED AS EARLY AS 12 NOON.", "nsi_id": "unitedstatespostalservice-a77078", "operator": "United States Postal Service", "operator:short": "USPS", "operator:type": "public", "operator:wikidata": "Q668687", "ref": "7346000007"}, "type": "Feature"}
{"dataset_attributes": {"@spider": "usps_collection_boxes", "spider:collection_time": "2023-09-19T08:25:58.007339"}, "geometry": {"coordinates": [-96.677729, 34.235979], "type": "Point"}, "id": "YgdlejZ4KtcIm2atBJr46Pt1adY=", "properties": {"@spider": "usps_collection_boxes", "addr:city": "TISHOMINGO", "addr:country": "US", "addr:full": "108 N NESHOBA ST", "addr:postcode": "73460", "addr:state": "OK", "amenity": "post_box", "brand": "United States Postal Service", "brand:wikidata": "Q668687", "collection_times": "Mo-Fr 16:30; Sa 10:00", "name": "USPS COLLECTION BOX - PO LOBBY", "note": "ON 12/24 AND 12/31, THIS BOX MAY BE COLLECTED AS EARLY AS 12 NOON.", "nsi_id": "unitedstatespostalservice-a77078", "operator": "United States Postal Service", "operator:short": "USPS", "operator:type": "public", "operator:wikidata": "Q668687", "ref": "7346000011"}, "type": "Feature"}
{"dataset_attributes": {"@spider": "usps_collection_boxes", "spider:collection_time": "2023-09-19T08:25:58.007339"}, "geometry": {"coordinates": [-96.67773017, 34.235972205], "type": "Point"}, "id": "_i_V2KXOFknp3d_Pa2uctvJFl_o=", "properties": {"@spider": "usps_collection_boxes", "addr:city": "TISHOMINGO", "addr:country": "US", "addr:full": "108 N NESHOBA ST", "addr:postcode": "73460", "addr:state": "OK", "amenity": "post_box", "brand": "United States Postal Service", "brand:wikidata": "Q668687", "collection_times": "Mo-Fr 16:30; Sa 10:30", "name": "USPS COLLECTION BOX - PO LOBBY", "note": "ON 12/24 AND 12/31, THIS BOX MAY BE COLLECTED AS EARLY AS 12 NOON.", "nsi_id": "unitedstatespostalservice-a77078", "operator": "United States Postal Service", "operator:short": "USPS", "operator:type": "public", "operator:wikidata": "Q668687", "ref": "7346000012"}, "type": "Feature"}
{"dataset_attributes": {"@spider": "usps_collection_boxes", "spider:collection_time": "2023-09-19T08:25:58.007339"}, "geometry": {"coordinates": [-96.424501, 34.374993], "type": "Point"}, "id": "M3x8uUTFpxkSg7geIQ5cpKAeFYg=", "properties": {"@spider": "usps_collection_boxes", "addr:city": "WAPANUCKA", "addr:country": "US", "addr:full": "109 E MAIN ST", "addr:postcode": "73461", "addr:state": "OK", "amenity": "post_box", "brand": "United States Postal Service", "brand:wikidata": "Q668687", "collection_times": "Mo-Fr 11:30; Sa 09:30", "name": "USPS COLLECTION BOX - PO LOBBY", "nsi_id": "unitedstatespostalservice-a77078", "operator": "United States Postal Service", "operator:short": "USPS", "operator:type": "public", "operator:wikidata": "Q668687", "ref": "7346100001"}, "type": "Feature"}
{"dataset_attributes": {"@spider": "usps_collection_boxes", "spider:collection_time": "2023-09-19T08:25:58.007339"}, "geometry": {"coordinates": [-96.424319, 34.375037], "type": "Point"}, "id": "Z4NbGJhytqOzsV0PgyX--EuTKNM=", "properties": {"@spider": "usps_collection_boxes", "addr:city": "WAPANUCKA", "addr:country": "US", "addr:full": "109 E MAIN ST", "addr:postcode": "73461", "addr:state": "OK", "amenity": "post_box", "brand": "United States Postal Service", "brand:wikidata": "Q668687", "collection_times": "Mo-Fr 11:30; Sa 09:30", "name": "USPS COLLECTION BOX - PO LOBBY", "nsi_id": "unitedstatespostalservice-a77078", "operator": "United States Postal Service", "operator:short": "USPS", "operator:type": "public", "operator:wikidata": "Q668687", "ref": "7346100002"}, "type": "Feature"}
{"dataset_attributes": {"@spider": "usps_collection_boxes", "spider:collection_time": "2023-09-19T08:25:58.007339"}, "geometry": {"coordinates": [-96.422085, 34.374987], "type": "Point"}, "id": "rdAS8t0zMOFD7aSk3pq8RmmBG2s=", "properties": {"@spider": "usps_collection_boxes", "addr:city": "WAPANUCKA", "addr:country": "US", "addr:full": "109 E MAIN ST", "addr:postcode": "73461", "addr:state": "OK", "amenity": "post_box", "brand": "United States Postal Service", "brand:wikidata": "Q668687", "collection_times": "Mo-Fr 11:30; Sa 09:00", "name": "USPS COLLECTION BOX - PO LOBBY", "nsi_id": "unitedstatespostalservice-a77078", "operator": "United States Postal Service", "operator:short": "USPS", "operator:type": "public", "operator:wikidata": "Q668687", "ref": "7346100003"}, "type": "Feature"}
{"dataset_attributes": {"@spider": "usps_collection_boxes", "spider:collection_time": "2023-09-19T08:25:58.007339"}, "geometry": {"coordinates": [-97.4280400376, 34.1619200139], "type": "Point"}, "id": "Uq2LWLd2MTDFf16VsQkTiiHUc34=", "properties": {"@spider": "usps_collection_boxes", "addr:city": "WILSON", "addr:country": "US", "addr:full": "1224 US HIGHWAY 70A", "addr:postcode": "73463", "addr:state": "OK", "amenity": "post_box", "brand": "United States Postal Service", "brand:wikidata": "Q668687", "collection_times": "Mo-Fr 16:30; Sa 08:30", "name": "USPS COLLECTION BOX - BLUE BOX", "note": "ON 12/24 AND 12/31, THIS BOX MAY BE COLLECTED AS EARLY AS 12 NOON.", "nsi_id": "unitedstatespostalservice-a77078", "operator": "United States Postal Service", "operator:short": "USPS", "operator:type": "public", "operator:wikidata": "Q668687", "ref": "7346300000"}, "type": "Feature"}
{"dataset_attributes": {"@spider": "usps_collection_boxes", "spider:collection_time": "2023-09-19T08:25:58.007339"}, "geometry": {"coordinates": [-97.4280400376, 34.1619200139], "type": "Point"}, "id": "uXR-EnP_NFEdqVb2ztvUprli0O0=", "properties": {"@spider": "usps_collection_boxes", "addr:city": "WILSON", "addr:country": "US", "addr:full": "1224 US HIGHWAY 70A", "addr:postcode": "73463", "addr:state": "OK", "amenity": "post_box", "brand": "United States Postal Service", "brand:wikidata": "Q668687", "collection_times": "Mo-Fr 16:30; Sa 08:30", "name": "USPS COLLECTION BOX - PO LOBBY", "note": "ON 12/24 AND 12/31, THIS BOX MAY BE COLLECTED AS EARLY AS 12 NOON.", "nsi_id": "unitedstatespostalservice-a77078", "operator": "United States Postal Service", "operator:short": "USPS", "operator:type": "public", "operator:wikidata": "Q668687", "ref": "7346300001"}, "type": "Feature"}
{"dataset_attributes": {"@spider": "usps_collection_boxes", "spider:collection_time": "2023-09-19T08:25:58.007339"}, "geometry": {"coordinates": [-97.4280400376, 34.1619200139], "type": "Point"}, "id": "7c7cNKm_Vh0_bMFQ_JMG7HboA5k=", "properties": {"@spider": "usps_collection_boxes", "addr:city": "WILSON", "addr:country": "US", "addr:full": "1224 US HIGHWAY 70A", "addr:postcode": "73463", "addr:state": "OK", "amenity": "post_box", "brand": "United States Postal Service", "brand:wikidata": "Q668687", "collection_times": "Mo-Fr 16:30", "name": "USPS COLLECTION BOX - PO LOBBY", "note": "ON 12/24 AND 12/31, THIS BOX MAY BE COLLECTED AS EARLY AS 12 NOON.", "nsi_id": "unitedstatespostalservice-a77078", "operator": "United States Postal Service", "operator:short": "USPS", "operator:type": "public", "operator:wikidata": "Q668687", "ref": "7346300002"}, "type": "Feature"}
{"dataset_attributes": {"@spider": "usps_collection_boxes", "spider:collection_time": "2023-09-19T08:25:58.007339"}, "geometry": {"coordinates": [-97.516388, 34.44802], "type": "Point"}, "id": "p9CYlviYG7wpxaw_LGUZBosSfJY=", "properties": {"@spider": "usps_collection_boxes", "addr:city": "RATLIFF CITY", "addr:country": "US", "addr:full": "57 CHURCH ST", "addr:postcode": "73481", "addr:state": "OK", "amenity": "post_box", "brand": "United States Postal Service", "brand:wikidata": "Q668687", "collection_times": "Mo-Fr 13:45; Sa 09:00", "name": "USPS COLLECTION BOX - BLUE BOX", "note": "ON 12/24 AND 12/31, THIS BOX MAY BE COLLECTED AS EARLY AS 12 NOON.", "nsi_id": "unitedstatespostalservice-a77078", "operator": "United States Postal Service", "operator:short": "USPS", "operator:type": "public", "operator:wikidata": "Q668687", "ref": "7348100000"}, "type": "Feature"}
{"dataset_attributes": {"@spider": "usps_collection_boxes", "spider:collection_time": "2023-09-19T08:25:58.007339"}, "geometry": {"coordinates": [-97.516388, 34.44802], "type": "Point"}, "id": "joGo7YqZmwyp-mdFK8GcgsfI75M=", "properties": {"@spider": "usps_collection_boxes", "addr:city": "RATLIFF CITY", "addr:country": "US", "addr:full": "57 CHURCH ST", "addr:postcode": "73481", "addr:state": "OK", "amenity": "post_box", "brand": "United States Postal Service", "brand:wikidata": "Q668687", "collection_times": "Mo-Fr 13:45; Sa 09:00", "name": "USPS COLLECTION BOX - PO LOBBY", "note": "ON 12/24 AND 12/31, THIS BOX MAY BE COLLECTED AS EARLY AS 12 NOON.", "nsi_id": "unitedstatespostalservice-a77078", "operator": "United States Postal Service", "operator:short": "USPS", "operator:type": "public", "operator:wikidata": "Q668687", "ref": "7348100001"}, "type": "Feature"}
{"dataset_attributes": {"@spider": "usps_collection_boxes", "spider:collection_time": "2023-09-19T08:25:58.007339"}, "geometry": {"coordinates": [-97.516388208, 34.448013335], "type": "Point"}, "id": "trftB7LgN49BvEdyBDAzZhnTF0A=", "properties": {"@spider": "usps_collection_boxes", "addr:city": "RATLIFF CITY", "addr:country": "US", "addr:full": "57 CHURCH ST", "addr:postcode": "73481", "addr:state": "OK", "amenity": "post_box", "brand": "United States Postal Service", "brand:wikidata": "Q668687", "collection_times": "Mo-Fr 14:00", "name": "USPS COLLECTION BOX - PO LOBBY", "note": "ON 12/24 AND 12/31, THIS BOX MAY BE COLLECTED AS EARLY AS 12 NOON.", "nsi_id": "unitedstatespostalservice-a77078", "operator": "United States Postal Service", "operator:short": "USPS", "operator:type": "public", "operator:wikidata": "Q668687", "ref": "7348100002"}, "type": "Feature"}
{"dataset_attributes": {"@spider": "usps_collection_boxes", "spider:collection_time": "2023-09-19T08:25:58.007339"}, "geometry": {"coordinates": [-97.459348, 34.483521], "type": "Point"}, "id": "Geq9wCBA44jFvq8wiuisA26BsZs=", "properties": {"@spider": "usps_collection_boxes", "addr:city": "TATUMS", "addr:country": "US", "addr:full": "26 KING ST", "addr:postcode": "73487", "addr:state": "OK", "amenity": "post_box", "brand": "United States Postal Service", "brand:wikidata": "Q668687", "collection_times": "Mo-Sa 13:15", "name": "USPS COLLECTION BOX - PO LOBBY", "note": "ON 12/24 AND 12/31, THIS BOX MAY BE COLLECTED AS EARLY AS 12 NOON.", "nsi_id": "unitedstatespostalservice-a77078", "operator": "United States Postal Service", "operator:short": "USPS", "operator:type": "public", "operator:wikidata": "Q668687", "ref": "7348700001"}, "type": "Feature"}
{"dataset_attributes": {"@spider": "usps_collection_boxes", "spider:collection_time": "2023-09-19T08:25:58.007339"}, "geometry": {"coordinates": [-97.459347679, 34.483517696], "type": "Point"}, "id": "SAXbf7K_z1H6_idUAtT_6VD0RSI=", "properties": {"@spider": "usps_collection_boxes", "addr:city": "TATUMS", "addr:country": "US", "addr:full": "26 KING ST", "addr:postcode": "73487", "addr:state": "OK", "amenity": "post_box", "brand": "United States Postal Service", "brand:wikidata": "Q668687", "collection_times": "Mo-Fr 13:30; Sa 13:15", "name": "USPS COLLECTION BOX - PO LOBBY", "note": "ON 12/24 AND 12/31, THIS BOX MAY BE COLLECTED AS EARLY AS 12 NOON.", "nsi_id": "unitedstatespostalservice-a77078", "operator": "United States Postal Service", "operator:short": "USPS", "operator:type": "public", "operator:wikidata": "Q668687", "ref": "7348700002"}, "type": "Feature"}
{"dataset_attributes": {"@spider": "usps_collection_boxes", "spider:collection_time": "2023-09-19T08:25:58.007339"}, "geometry": {"coordinates": [-97.6738400977, 34.4578651271], "type": "Point"}, "id": "88kyZ2yTn0nc9Ljdn8bEzcPTERo=", "properties": {"@spider": "usps_collection_boxes", "addr:city": "VELMA", "addr:country": "US", "addr:full": "503 MAIN ST", "addr:postcode": "73491", "addr:state": "OK", "amenity": "post_box", "brand": "United States Postal Service", "brand:wikidata": "Q668687", "collection_times": "Mo-Fr 16:00; Sa 10:00", "name": "USPS COLLECTION BOX - BLUE BOX", "note": "ON 12/24 AND 12/31, THIS BOX MAY BE COLLECTED AS EARLY AS 12 NOON.", "nsi_id": "unitedstatespostalservice-a77078", "operator": "United States Postal Service", "operator:short": "USPS", "operator:type": "public", "operator:wikidata": "Q668687", "ref": "7349100000"}, "type": "Feature"}
{"dataset_attributes": {"@spider": "usps_collection_boxes", "spider:collection_time": "2023-09-19T08:25:58.007339"}, "geometry": {"coordinates": [-97.6738400977, 34.4578651271], "type": "Point"}, "id": "J3YMumc77gTywkQby2taJtLlv88=", "properties": {"@spider": "usps_collection_boxes", "addr:city": "VELMA", "addr:country": "US", "addr:full": "503 MAIN ST", "addr:postcode": "73491", "addr:state": "OK", "amenity": "post_box", "brand": "United States Postal Service", "brand:wikidata": "Q668687", "collection_times": "Mo-Fr 16:15; Sa 10:00", "name": "USPS COLLECTION BOX - PO LOBBY", "note": "ON 12/24 AND 12/31, THIS BOX MAY BE COLLECTED AS EARLY AS 12 NOON.", "nsi_id": "unitedstatespostalservice-a77078", "operator": "United States Postal Service", "operator:short": "USPS", "operator:type": "public", "operator:wikidata": "Q668687", "ref": "7349100001"}, "type": "Feature"}
{"dataset_attributes": {"@spider": "usps_collection_boxes", "spider:collection_time": "2023-09-19T08:25:58.007339"}, "geometry": {"coordinates": [-97.673840098, 34.457865127], "type": "Point"}, "id": "ET6JrhGVOKnEtJPgSsh2whfTRaM=", "properties": {"@spider": "usps_collection_boxes", "addr:city": "VELMA", "addr:country": "US", "addr:full": "503 MAIN ST", "addr:postcode": "73491", "addr:state": "OK", "amenity": "post_box", "brand": "United States Postal Service", "brand:wikidata": "Q668687", "collection_times": "Mo-Fr 16:00; Sa 10:00", "name": "USPS COLLECTION BOX - PO LOBBY", "note": "ON 12/24 AND 12/31, THIS BOX MAY BE COLLECTED AS EARLY AS 12 NOON.", "nsi_id": "unitedstatespostalservice-a77078", "operator": "United States Postal Service", "operator:short": "USPS", "operator:type": "public", "operator:wikidata": "Q668687", "ref": "7349100004"}, "type": "Feature"}
