{"geometry": {"coordinates": [-98.403486522, 34.67156665], "type": "Point"}, "id": "zkj_zGklwhNzXJwDgVNf_PNrdGE=", "properties": {"@spider": "usps_collection_boxes", "addr:city": "LAWTON", "addr:country": "US", "addr:full": "930 FORT SILL BLVD STE 100", "addr:postcode": "73503", "addr:state": "OK", "brand": "USPS", "collection_times": "Mo-Fr 16:30; Sa 11:30", "name": "USPS COLLECTION BOX - PO LOBBY", "note": "ON 12/24 AND 12/31, THIS BOX MAY BE COLLECTED AS EARLY AS 12 NOON.", "ref": "7350300045"}, "type": "Feature"}
{"geometry": {"coordinates": [-99.570161, 34.661405], "type": "Point"}, "id": "gB3EEcqS5l7Fiicg4ObkexEGSng=", "properties": {"@spider": "usps_collection_boxes", "addr:city": "DUKE", "addr:country": "US", "addr:full": "106 E 2ND ST", "addr:postcode": "73532", "addr:state": "OK", "brand": "USPS", "collection_times": "Mo-Fr 16:00; Sa 09:00", "name": "USPS COLLECTION BOX - BLUE BOX", "note": "ON 12/24 AND 12/31, THIS BOX MAY BE COLLECTED AS EARLY AS 12 NOON.", "ref": "7353200000"}, "type": "Feature"}
{"geometry": {"coordinates": [-99.570161, 34.661405], "type": "Point"}, "id": "IOUN2kKu65ZDRatFf90g16F8s34=", "properties": {"@spider": "usps_collection_boxes", "addr:city": "DUKE", "addr:country": "US", "addr:full": "106 E 2ND ST", "addr:postcode": "73532", "addr:state": "OK", "brand": "USPS", "collection_times": "Mo-Fr 16:00; Sa 09:00", "name": "USPS COLLECTION BOX - PO LOBBY", "note": "ON 12/24 AND 12/31, THIS BOX MAY BE COLLECTED AS EARLY AS 12 NOON.", "ref": "7353200001"}, "type": "Feature"}
{"geometry": {"coordinates": [-99.570161, 34.661405], "type": "Point"}, "id": "RaLGMrJ0fQLv2RuZOiN0L6b1AaA=", "properties": {"@spider": "usps_collection_boxes", "addr:city": "DUKE", "addr:country": "US", "addr:full": "106 E 2ND ST", "addr:postcode": "73532", "addr:state": "OK", "brand": "USPS", "collection_times": "Mo-Fr 16:00; Sa 09:00", "name": "USPS COLLECTION BOX - PO LOBBY", "note": "ON 12/24 AND 12/31, THIS BOX MAY BE COLLECTED AS EARLY AS 12 NOON.", "ref": "7353200002"}, "type": "Feature"}
{"geometry": {"coordinates": [-99.57020181, 34.661360746], "type": "Point"}, "id": "wgLCDN_Acr8is-1-0AnEbWR0rAw=", "properties": {"@spider": "usps_collection_boxes", "addr:city": "DUKE", "addr:country": "US", "addr:full": "106 E 2ND ST", "addr:postcode": "73532", "addr:state": "OK", "brand": "USPS", "collection_times": "Mo-Fr 16:15; Sa 09:00", "name": "USPS COLLECTION BOX - PO LOBBY", "note": "ON 12/24 AND 12/31, THIS BOX MAY BE COLLECTED AS EARLY AS 12 NOON.", "ref": "7353200003"}, "type": "Feature"}
{"geometry": {"coordinates": [-97.9623204, 34.500625], "type": "Point"}, "id": "fX3fkv53p_o4ggw9gJNfHtLaldk=", "properties": {"@spider": "usps_collection_boxes", "addr:city": "DUNCAN", "addr:country": "US", "addr:full": "102 S 12TH ST", "addr:postcode": "73533", "addr:state": "OK", "brand": "USPS", "collection_times": "Mo-Fr 16:30", "name": "USPS COLLECTION BOX - BLUE BOX", "note": "ON 12/24 AND 12/31, THIS BOX MAY BE COLLECTED AS EARLY AS 12 NOON.", "ref": "7353300006"}, "type": "Feature"}
{"geometry": {"coordinates": [-97.975059449, 34.5200051317], "type": "Point"}, "id": "btNlPIAxwvanReIoacPIHuIbbEY=", "properties": {"@spider": "usps_collection_boxes", "addr:city": "DUNCAN", "addr:country": "US", "addr:full": "1407 N WHISENANT DR", "addr:postcode": "73533", "addr:state": "OK", "brand": "USPS", "collection_times": "Mo-Fr 16:30", "name": "USPS COLLECTION BOX - BLUE BOX", "note": "ON 12/24 AND 12/31, THIS BOX MAY BE COLLECTED AS EARLY AS 12 NOON.", "ref": "7353300008"}, "type": "Feature"}
{"geometry": {"coordinates": [-97.9757917, 34.521199], "type": "Point"}, "id": "4YDI8_Cwo-gm_7lOTw7eTDGt1BA=", "properties": {"@spider": "usps_collection_boxes", "addr:city": "DUNCAN", "addr:country": "US", "addr:full": "2120 W ELK AVE", "addr:postcode": "73533", "addr:state": "OK", "brand": "USPS", "collection_times": "Mo-Fr 16:30", "name": "USPS COLLECTION BOX - BLUE BOX", "note": "ON 12/24 AND 12/31, THIS BOX MAY BE COLLECTED AS EARLY AS 12 NOON.", "ref": "7353300010"}, "type": "Feature"}
{"geometry": {"coordinates": [-97.9676252, 34.523337], "type": "Point"}, "id": "l25kZ-BhBo3NFUOg9uULf-X3XQw=", "properties": {"@spider": "usps_collection_boxes", "addr:city": "DUNCAN", "addr:country": "US", "addr:full": "1500 N HIGHWAY 81", "addr:postcode": "73533", "addr:state": "OK", "brand": "USPS", "collection_times": "Mo-Fr 16:15; Sa 09:30", "name": "USPS COLLECTION BOX - BLUE BOX", "note": "ON 12/24 AND 12/31, THIS BOX MAY BE COLLECTED AS EARLY AS 12 NOON.", "ref": "7353300012"}, "type": "Feature"}
{"geometry": {"coordinates": [-97.9579794, 34.516324], "type": "Point"}, "id": "DI0nKm-scVnWO7n8big6DfCBcsI=", "properties": {"@spider": "usps_collection_boxes", "addr:city": "DUNCAN", "addr:country": "US", "addr:full": "900 W PEACH AVE", "addr:postcode": "73533", "addr:state": "OK", "brand": "USPS", "collection_times": "Mo-Fr 16:15; Sa 09:30", "name": "USPS COLLECTION BOX - BLUE BOX", "note": "ON 12/24 AND 12/31, THIS BOX MAY BE COLLECTED AS EARLY AS 12 NOON.", "ref": "7353300016"}, "type": "Feature"}
{"geometry": {"coordinates": [-97.957014, 34.500694], "type": "Point"}, "id": "cw9nfQpduJo3MD-yEY6H7U5btk0=", "properties": {"@spider": "usps_collection_boxes", "addr:city": "DUNCAN", "addr:country": "US", "addr:full": "802 W WILLOW AVE", "addr:postcode": "73533", "addr:state": "OK", "brand": "USPS", "collection_times": "Mo-Fr 17:00; Sa 15:00", "name": "USPS COLLECTION BOX - BLUE BOX", "note": "ON 12/24 AND 12/31, THIS BOX MAY BE COLLECTED AS EARLY AS 12 NOON.", "ref": "7353300021"}, "type": "Feature"}
{"geometry": {"coordinates": [-97.957014, 34.500694], "type": "Point"}, "id": "PQ1d5brRLn4FjWIZnu7RlMWuU2E=", "properties": {"@spider": "usps_collection_boxes", "addr:city": "DUNCAN", "addr:country": "US", "addr:full": "802 W WILLOW AVE", "addr:postcode": "73533", "addr:state": "OK", "brand": "USPS", "collection_times": "Mo-Fr 17:00; Sa 15:00", "name": "USPS COLLECTION BOX - BLUE BOX", "note": "ON 12/24 AND 12/31, THIS BOX MAY BE COLLECTED AS EARLY AS 12 NOON.", "ref": "7353300022"}, "type": "Feature"}
{"geometry": {"coordinates": [-97.9566288, 34.501893], "type": "Point"}, "id": "twBFg85MoLGbzl-roVGzNx2tXPE=", "properties": {"@spider": "usps_collection_boxes", "addr:city": "DUNCAN", "addr:country": "US", "addr:full": "729 W MAIN ST", "addr:postcode": "73533", "addr:state": "OK", "brand": "USPS", "collection_times": "Mo-Fr 15:45", "name": "USPS COLLECTION BOX - BLUE BOX", "note": "ON 12/24 AND 12/31, THIS BOX MAY BE COLLECTED AS EARLY AS 12 NOON.", "ref": "7353300024"}, "type": "Feature"}
{"geometry": {"coordinates": [-97.9448711, 34.500918], "type": "Point"}, "id": "P2MR1MYHTDec4umI_XE29zCdIDo=", "properties": {"@spider": "usps_collection_boxes", "addr:city": "DUNCAN", "addr:country": "US", "addr:full": "109 E MAIN ST", "addr:postcode": "73533", "addr:state": "OK", "brand": "USPS", "collection_times": "Mo-Fr 15:45; Sa 09:30", "name": "USPS COLLECTION BOX - BLUE BOX", "note": "ON 12/24 AND 12/31, THIS BOX MAY BE COLLECTED AS EARLY AS 12 NOON.", "ref": "7353300029"}, "type": "Feature"}
{"geometry": {"coordinates": [-97.9624679, 34.502396], "type": "Point"}, "id": "pqAl2wuR63TGGMRbZuAXF1R2_ts=", "properties": {"@spider": "usps_collection_boxes", "addr:city": "DUNCAN", "addr:country": "US", "addr:full": "1109 W MAIN ST", "addr:postcode": "73533", "addr:state": "OK", "brand": "USPS", "collection_times": "Mo-Fr 16:30; Sa 09:30", "name": "USPS COLLECTION BOX - BLUE BOX", "note": "ON 12/24 AND 12/31, THIS BOX MAY BE COLLECTED AS EARLY AS 12 NOON.", "ref": "7353300030"}, "type": "Feature"}
{"geometry": {"coordinates": [-97.9735984, 34.507237], "type": "Point"}, "id": "au1g1yMgeq1w3XC6k5DmVm8JcZ0=", "properties": {"@spider": "usps_collection_boxes", "addr:city": "DUNCAN", "addr:country": "US", "addr:full": "400 N 20TH ST", "addr:postcode": "73533", "addr:state": "OK", "brand": "USPS", "collection_times": "Mo-Sa 13:00", "name": "USPS COLLECTION BOX - BLUE BOX", "note": "ON 12/24 AND 12/31, THIS BOX MAY BE COLLECTED AS EARLY AS 12 NOON.", "ref": "7353300038"}, "type": "Feature"}
{"geometry": {"coordinates": [-97.9779372, 34.519142], "type": "Point"}, "id": "4Vm43SZG5zulVODgJ2Szmkij9Kk=", "properties": {"@spider": "usps_collection_boxes", "addr:city": "DUNCAN", "addr:country": "US", "addr:full": "1300 JACKIE RD", "addr:postcode": "73533", "addr:state": "OK", "brand": "USPS", "collection_times": "Mo-Fr 16:30", "name": "USPS COLLECTION BOX - BLUE BOX", "note": "ON 12/24 AND 12/31, THIS BOX MAY BE COLLECTED AS EARLY AS 12 NOON.", "ref": "7353300040"}, "type": "Feature"}
{"geometry": {"coordinates": [-97.957014, 34.500694], "type": "Point"}, "id": "7tA3l2xRwG33vG-8Qcbi6MmaEKs=", "properties": {"@spider": "usps_collection_boxes", "addr:city": "DUNCAN", "addr:country": "US", "addr:full": "802 W WILLOW AVE", "addr:postcode": "73533", "addr:state": "OK", "brand": "USPS", "collection_times": "Mo-Fr 17:00; Sa 15:00", "name": "USPS COLLECTION BOX - PO LOBBY", "note": "ON 12/24 AND 12/31, THIS BOX MAY BE COLLECTED AS EARLY AS 12 NOON.", "ref": "7353300041"}, "type": "Feature"}
{"geometry": {"coordinates": [-97.957303533, 34.500692579], "type": "Point"}, "id": "MA9-uxb3beG7snKWIYXnfTY1SJ0=", "properties": {"@spider": "usps_collection_boxes", "addr:city": "DUNCAN", "addr:country": "US", "addr:full": "802 W WILLOW AVE FL 100", "addr:postcode": "73533", "addr:state": "OK", "brand": "USPS", "collection_times": "Mo-Fr 16:30; Sa 11:00", "name": "USPS COLLECTION BOX - PO LOBBY", "note": "ON 12/24 AND 12/31, THIS BOX MAY BE COLLECTED AS EARLY AS 12 NOON.", "ref": "7353300045"}, "type": "Feature"}
{"geometry": {"coordinates": [-98.290031, 34.782518], "type": "Point"}, "id": "MDNjnknIFE8opYIsv3gB2d4EuFc=", "properties": {"@spider": "usps_collection_boxes", "addr:city": "ELGIN", "addr:country": "US", "addr:full": "8292 STATE HIGHWAY 17", "addr:postcode": "73538", "addr:state": "OK", "brand": "USPS", "collection_times": "Mo-Fr 16:15; Sa 10:00", "name": "USPS COLLECTION BOX - BLUE BOX", "note": "ON 12/24 AND 12/31, THIS BOX MAY BE COLLECTED AS EARLY AS 12 NOON.", "ref": "7353800000"}, "type": "Feature"}
{"geometry": {"coordinates": [-98.290031, 34.782518], "type": "Point"}, "id": "Vn7Gs52Vc2zBIacAWp6X2iCcPpU=", "properties": {"@spider": "usps_collection_boxes", "addr:city": "ELGIN", "addr:country": "US", "addr:full": "8292 STATE HIGHWAY 17", "addr:postcode": "73538", "addr:state": "OK", "brand": "USPS", "collection_times": "Mo-Fr 16:30; Sa 10:00", "name": "USPS COLLECTION BOX - PO LOBBY", "note": "ON 12/24 AND 12/31, THIS BOX MAY BE COLLECTED AS EARLY AS 12 NOON.", "ref": "7353800002"}, "type": "Feature"}
{"geometry": {"coordinates": [-98.290031, 34.782518], "type": "Point"}, "id": "Z5k9mhVqdGZ7C-2C9sPeCEggZmA=", "properties": {"@spider": "usps_collection_boxes", "addr:city": "ELGIN", "addr:country": "US", "addr:full": "8292 STATE HIGHWAY 17", "addr:postcode": "73538", "addr:state": "OK", "brand": "USPS", "collection_times": "Mo-Fr 16:30; Sa 10:00", "name": "USPS COLLECTION BOX - PO LOBBY", "note": "ON 12/24 AND 12/31, THIS BOX MAY BE COLLECTED AS EARLY AS 12 NOON.", "ref": "7353800003"}, "type": "Feature"}
{"geometry": {"coordinates": [-98.290034361, 34.78250946], "type": "Point"}, "id": "62Qej9s6VwRCaKmoKC9qmhiYmtw=", "properties": {"@spider": "usps_collection_boxes", "addr:city": "ELGIN", "addr:country": "US", "addr:full": "8292 STATE HIGHWAY 17", "addr:postcode": "73538", "addr:state": "OK", "brand": "USPS", "collection_times": "Mo-Fr 16:30; Sa 10:00", "name": "USPS COLLECTION BOX - PO LOBBY", "note": "ON 12/24 AND 12/31, THIS BOX MAY BE COLLECTED AS EARLY AS 12 NOON.", "ref": "7353800004"}, "type": "Feature"}
{"geometry": {"coordinates": [-98.244821, 34.823217], "type": "Point"}, "id": "cXOG_oPuRJXI8T4gaM8y8sc_C9s=", "properties": {"@spider": "usps_collection_boxes", "addr:city": "FLETCHER", "addr:country": "US", "addr:full": "103 N SELBY", "addr:postcode": "73541", "addr:state": "OK", "brand": "USPS", "collection_times": "Mo-Fr 16:00; Sa 11:00", "name": "USPS COLLECTION BOX - BLUE BOX", "note": "ON 12/24 AND 12/31, THIS BOX MAY BE COLLECTED AS EARLY AS 12 NOON.", "ref": "7354100000"}, "type": "Feature"}
{"geometry": {"coordinates": [-98.244821, 34.823217], "type": "Point"}, "id": "rFOFP8ARou4yWkbZ1RsQx162BLA=", "properties": {"@spider": "usps_collection_boxes", "addr:city": "FLETCHER", "addr:country": "US", "addr:full": "103 N SELBY", "addr:postcode": "73541", "addr:state": "OK", "brand": "USPS", "collection_times": "Mo-Fr 16:00; Sa 11:00", "name": "USPS COLLECTION BOX - PO LOBBY", "note": "ON 12/24 AND 12/31, THIS BOX MAY BE COLLECTED AS EARLY AS 12 NOON.", "ref": "7354100002"}, "type": "Feature"}
{"geometry": {"coordinates": [-98.244824988, 34.823649026], "type": "Point"}, "id": "z5rrq__A5fqNV2MSYK8LAyrfinQ=", "properties": {"@spider": "usps_collection_boxes", "addr:city": "FLETCHER", "addr:country": "US", "addr:full": "103 N SELBY", "addr:postcode": "73541", "addr:state": "OK", "brand": "USPS", "collection_times": "Mo-Fr 16:00; Sa 11:00", "name": "USPS COLLECTION BOX - PO LOBBY", "note": "ON 12/24 AND 12/31, THIS BOX MAY BE COLLECTED AS EARLY AS 12 NOON.", "ref": "7354100003"}, "type": "Feature"}
{"geometry": {"coordinates": [-99.7736174294, 34.6669622811], "type": "Point"}, "id": "KNcZZNp-085dAQAMO77Qt7iD9G0=", "properties": {"@spider": "usps_collection_boxes", "addr:city": "GOULD", "addr:country": "US", "addr:full": "111 S KENNEDY ST", "addr:postcode": "73544", "addr:state": "OK", "brand": "USPS", "collection_times": "Mo-Fr 11:25; Sa 09:00", "name": "USPS COLLECTION BOX - BLUE BOX", "ref": "7354400000"}, "type": "Feature"}
{"geometry": {"coordinates": [-99.7736174294, 34.6669622811], "type": "Point"}, "id": "WE7SM9CI2AByRyW21VlBUP51x14=", "properties": {"@spider": "usps_collection_boxes", "addr:city": "GOULD", "addr:country": "US", "addr:full": "111 S KENNEDY ST", "addr:postcode": "73544", "addr:state": "OK", "brand": "USPS", "collection_times": "Mo-Fr 11:25; Sa 09:00", "name": "USPS COLLECTION BOX - PO LOBBY", "ref": "7354400001"}, "type": "Feature"}
{"geometry": {"coordinates": [-99.773523, 34.67121082], "type": "Point"}, "id": "nwS31z1qiCGFamI4-z5-_EAEGJg=", "properties": {"@spider": "usps_collection_boxes", "addr:city": "GOULD", "addr:country": "US", "addr:full": "111 S KENNEDY ST", "addr:postcode": "73544", "addr:state": "OK", "brand": "USPS", "collection_times": "Mo-Sa 11:30", "name": "USPS COLLECTION BOX - PO LOBBY", "ref": "7354400002"}, "type": "Feature"}
{"geometry": {"coordinates": [-99.382177, 34.961278], "type": "Point"}, "id": "_O00bRtzB8FwRwy0qy3w3L_RXhM=", "properties": {"@spider": "usps_collection_boxes", "addr:city": "GRANITE", "addr:country": "US", "addr:full": "402 N GRANITE ST", "addr:postcode": "73547", "addr:state": "OK", "brand": "USPS", "collection_times": "Mo-Fr 15:00; Sa 09:30", "name": "USPS COLLECTION BOX - PO LOBBY", "note": "ON 12/24 AND 12/31, THIS BOX MAY BE COLLECTED AS EARLY AS 12 NOON.", "ref": "7354700001"}, "type": "Feature"}
{"geometry": {"coordinates": [-99.382177, 34.961278], "type": "Point"}, "id": "Gx5D2mU1-JZZX3k7vY5bk_fGGU8=", "properties": {"@spider": "usps_collection_boxes", "addr:city": "GRANITE", "addr:country": "US", "addr:full": "402 N GRANITE ST", "addr:postcode": "73547", "addr:state": "OK", "brand": "USPS", "collection_times": "Mo-Fr 15:00; Sa 09:30", "name": "USPS COLLECTION BOX - PO LOBBY", "note": "ON 12/24 AND 12/31, THIS BOX MAY BE COLLECTED AS EARLY AS 12 NOON.", "ref": "7354700002"}, "type": "Feature"}
{"geometry": {"coordinates": [-99.382154572, 34.961250964], "type": "Point"}, "id": "A6tQoalTmO7erZwGo1TYkspV0d0=", "properties": {"@spider": "usps_collection_boxes", "addr:city": "GRANITE", "addr:country": "US", "addr:full": "402 N GRANITE ST", "addr:postcode": "73547", "addr:state": "OK", "brand": "USPS", "collection_times": "Mo-Fr 15:00", "name": "USPS COLLECTION BOX - PO LOBBY", "note": "ON 12/24 AND 12/31, THIS BOX MAY BE COLLECTED AS EARLY AS 12 NOON.", "ref": "7354700003"}, "type": "Feature"}
{"geometry": {"coordinates": [-99.9198539299, 34.6824626961], "type": "Point"}, "id": "W_2LCilXkYyInMTrDj_ooQOdP_I=", "properties": {"@spider": "usps_collection_boxes", "addr:city": "HOLLIS", "addr:country": "US", "addr:full": "120 N 2ND ST", "addr:postcode": "73550", "addr:state": "OK", "brand": "USPS", "collection_times": "Mo-Fr 16:00; Sa 15:45", "name": "USPS COLLECTION BOX - BLUE BOX", "note": "ON 12/24 AND 12/31, THIS BOX MAY BE COLLECTED AS EARLY AS 12 NOON.", "ref": "7355000005"}, "type": "Feature"}
{"geometry": {"coordinates": [-99.919865, 34.682481], "type": "Point"}, "id": "4pFgXCIKOMDjZFSN0XdUleZExzw=", "properties": {"@spider": "usps_collection_boxes", "addr:city": "HOLLIS", "addr:country": "US", "addr:full": "120 N 2ND ST", "addr:postcode": "73550", "addr:state": "OK", "brand": "USPS", "collection_times": "Mo-Fr 16:00; Sa 15:45", "name": "USPS COLLECTION BOX - PO LOBBY", "note": "ON 12/24 AND 12/31, THIS BOX MAY BE COLLECTED AS EARLY AS 12 NOON.", "ref": "7355000006"}, "type": "Feature"}
{"geometry": {"coordinates": [-99.919865, 34.682481], "type": "Point"}, "id": "5uKAsXVC7FUt19NHqm85O0wljnE=", "properties": {"@spider": "usps_collection_boxes", "addr:city": "HOLLIS", "addr:country": "US", "addr:full": "120 N 2ND ST", "addr:postcode": "73550", "addr:state": "OK", "brand": "USPS", "collection_times": "Mo-Fr 16:00; Sa 15:45", "name": "USPS COLLECTION BOX - BLUE BOX", "note": "ON 12/24 AND 12/31, THIS BOX MAY BE COLLECTED AS EARLY AS 12 NOON.", "ref": "7355000009"}, "type": "Feature"}
{"geometry": {"coordinates": [-99.919863904, 34.682472], "type": "Point"}, "id": "hE2o2_u9ZgEtoUsKTBIr7eYv9DA=", "properties": {"@spider": "usps_collection_boxes", "addr:city": "HOLLIS", "addr:country": "US", "addr:full": "120 N 2ND ST", "addr:postcode": "73550", "addr:state": "OK", "brand": "USPS", "collection_times": "Mo-Fr 16:00", "name": "USPS COLLECTION BOX - PO LOBBY", "note": "ON 12/24 AND 12/31, THIS BOX MAY BE COLLECTED AS EARLY AS 12 NOON.", "ref": "7355000010"}, "type": "Feature"}
{"geometry": {"coordinates": [-99.504433, 34.873522], "type": "Point"}, "id": "D550XdcLi-dQ_lzZNdx8Li1L2uI=", "properties": {"@spider": "usps_collection_boxes", "addr:city": "MANGUM", "addr:country": "US", "addr:full": "101 S PENNSYLVANIA AVE", "addr:postcode": "73554", "addr:state": "OK", "brand": "USPS", "collection_times": "Mo-Sa 16:00", "name": "USPS COLLECTION BOX - BLUE BOX", "note": "ON 12/24 AND 12/31, THIS BOX MAY BE COLLECTED AS EARLY AS 12 NOON.", "ref": "7355400001"}, "type": "Feature"}
{"geometry": {"coordinates": [-99.504433, 34.873522], "type": "Point"}, "id": "5k2gZJZqveiRIojtDsOaeLgzn24=", "properties": {"@spider": "usps_collection_boxes", "addr:city": "MANGUM", "addr:country": "US", "addr:full": "101 S PENNSYLVANIA AVE", "addr:postcode": "73554", "addr:state": "OK", "brand": "USPS", "collection_times": "Mo-Sa 16:00", "name": "USPS COLLECTION BOX - BLUE BOX", "note": "ON 12/24 AND 12/31, THIS BOX MAY BE COLLECTED AS EARLY AS 12 NOON.", "ref": "7355400006"}, "type": "Feature"}
{"geometry": {"coordinates": [-99.504433, 34.873522], "type": "Point"}, "id": "UArbqJLtIeyEGtXFUznxi57PdaY=", "properties": {"@spider": "usps_collection_boxes", "addr:city": "MANGUM", "addr:country": "US", "addr:full": "101 S PENNSYLVANIA AVE", "addr:postcode": "73554", "addr:state": "OK", "brand": "USPS", "collection_times": "Mo-Sa 16:00", "name": "USPS COLLECTION BOX - PO LOBBY", "note": "ON 12/24 AND 12/31, THIS BOX MAY BE COLLECTED AS EARLY AS 12 NOON.", "ref": "7355400007"}, "type": "Feature"}
{"geometry": {"coordinates": [-99.504433, 34.873522], "type": "Point"}, "id": "g_CeEHkHYscF2Fr-LmbtxXI4DMU=", "properties": {"@spider": "usps_collection_boxes", "addr:city": "MANGUM", "addr:country": "US", "addr:full": "101 S PENNSYLVANIA AVE", "addr:postcode": "73554", "addr:state": "OK", "brand": "USPS", "collection_times": "Mo-Sa 16:00", "name": "USPS COLLECTION BOX - PO LOBBY", "note": "ON 12/24 AND 12/31, THIS BOX MAY BE COLLECTED AS EARLY AS 12 NOON.", "ref": "7355400008"}, "type": "Feature"}
{"geometry": {"coordinates": [-99.504433, 34.873522], "type": "Point"}, "id": "Zx2brYIJ3nfIC7e6Yy0XRLcjkGc=", "properties": {"@spider": "usps_collection_boxes", "addr:city": "MANGUM", "addr:country": "US", "addr:full": "101 S PENNSYLVANIA AVE", "addr:postcode": "73554", "addr:state": "OK", "brand": "USPS", "collection_times": "Mo-Sa 16:00", "name": "USPS COLLECTION BOX - PO LOBBY", "note": "ON 12/24 AND 12/31, THIS BOX MAY BE COLLECTED AS EARLY AS 12 NOON.", "ref": "7355400009"}, "type": "Feature"}
{"geometry": {"coordinates": [-99.504463201, 34.873548351], "type": "Point"}, "id": "bA0KJ2-Ynx-QF5xcy24qCnABKjQ=", "properties": {"@spider": "usps_collection_boxes", "addr:city": "MANGUM", "addr:country": "US", "addr:full": "101 S PENNSYLVANIA AVE", "addr:postcode": "73554", "addr:state": "OK", "brand": "USPS", "collection_times": "Mo-Fr 16:00; Sa 11:30", "name": "USPS COLLECTION BOX - PO LOBBY", "note": "ON 12/24 AND 12/31, THIS BOX MAY BE COLLECTED AS EARLY AS 12 NOON.", "ref": "7355400010"}, "type": "Feature"}
{"geometry": {"coordinates": [-97.955956, 34.017301], "type": "Point"}, "id": "EESc0TF0N3Zg1-sjA0QQb71KfUg=", "properties": {"@spider": "usps_collection_boxes", "addr:city": "RYAN", "addr:country": "US", "addr:full": "1114 5TH ST", "addr:postcode": "73565", "addr:state": "OK", "brand": "USPS", "collection_times": "Mo-Fr 11:15; Sa 10:00", "name": "USPS COLLECTION BOX - BLUE BOX", "ref": "7356500000"}, "type": "Feature"}
{"geometry": {"coordinates": [-97.955956, 34.017301], "type": "Point"}, "id": "OEB6406I_s7kz0oH7rQ_radbmr0=", "properties": {"@spider": "usps_collection_boxes", "addr:city": "RYAN", "addr:country": "US", "addr:full": "1114 5TH ST", "addr:postcode": "73565", "addr:state": "OK", "brand": "USPS", "collection_times": "Mo-Fr 11:30; Sa 10:00", "name": "USPS COLLECTION BOX - PO LOBBY", "ref": "7356500001"}, "type": "Feature"}
{"geometry": {"coordinates": [-97.955956, 34.017301], "type": "Point"}, "id": "rXKFqZreQ3p3aqZkhjiYv2D5RMg=", "properties": {"@spider": "usps_collection_boxes", "addr:city": "RYAN", "addr:country": "US", "addr:full": "1114 5TH ST", "addr:postcode": "73565", "addr:state": "OK", "brand": "USPS", "collection_times": "Mo-Fr 11:30; Sa 10:00", "name": "USPS COLLECTION BOX - PO LOBBY", "ref": "7356500002"}, "type": "Feature"}
{"geometry": {"coordinates": [-97.955920925, 34.017301967], "type": "Point"}, "id": "HbkMYCFWNQqnxB6awD2x1Vg5z-4=", "properties": {"@spider": "usps_collection_boxes", "addr:city": "RYAN", "addr:country": "US", "addr:full": "1114 5TH ST", "addr:postcode": "73565", "addr:state": "OK", "brand": "USPS", "collection_times": "Mo-Fr 11:30; Sa 10:00", "name": "USPS COLLECTION BOX - PO LOBBY", "ref": "7356500003"}, "type": "Feature"}
{"geometry": {"coordinates": [-98.170863, 34.750202], "type": "Point"}, "id": "fryMmS-_kAFOi520HSD7yZFszMw=", "properties": {"@spider": "usps_collection_boxes", "addr:city": "STERLING", "addr:country": "US", "addr:full": "210 W MAIN ST", "addr:postcode": "73567", "addr:state": "OK", "brand": "USPS", "collection_times": "Mo-Fr 13:45; Sa 09:15", "name": "USPS COLLECTION BOX - PO LOBBY", "note": "ON 12/24 AND 12/31, THIS BOX MAY BE COLLECTED AS EARLY AS 12 NOON.", "ref": "7356700001"}, "type": "Feature"}
{"geometry": {"coordinates": [-98.1725715, 34.750192547], "type": "Point"}, "id": "mHaFt5NgiYtvDFyyNPEzZ5qd7LE=", "properties": {"@spider": "usps_collection_boxes", "addr:city": "STERLING", "addr:country": "US", "addr:full": "210 W MAIN ST", "addr:postcode": "73567", "addr:state": "OK", "brand": "USPS", "collection_times": "Mo-Fr 14:00; Sa 09:00", "name": "USPS COLLECTION BOX - PO LOBBY", "note": "ON 12/24 AND 12/31, THIS BOX MAY BE COLLECTED AS EARLY AS 12 NOON.", "ref": "7356700003"}, "type": "Feature"}
{"geometry": {"coordinates": [-97.937291, 33.896782], "type": "Point"}, "id": "ZhVa5jH4Cs5y4WrgYEmY0_1__yI=", "properties": {"@spider": "usps_collection_boxes", "addr:city": "TERRAL", "addr:country": "US", "addr:full": "309 E APACHE ST", "addr:postcode": "73569", "addr:state": "OK", "brand": "USPS", "collection_times": "Mo-Fr 11:15; Sa 09:15", "name": "USPS COLLECTION BOX - BLUE BOX", "ref": "7356900000"}, "type": "Feature"}
{"geometry": {"coordinates": [-97.937291, 33.896782], "type": "Point"}, "id": "Y2-Day1SU20MMHG4j4JE0M5wbfQ=", "properties": {"@spider": "usps_collection_boxes", "addr:city": "TERRAL", "addr:country": "US", "addr:full": "309 E APACHE ST", "addr:postcode": "73569", "addr:state": "OK", "brand": "USPS", "collection_times": "Mo-Fr 11:30; Sa 09:30", "name": "USPS COLLECTION BOX - PO LOBBY", "ref": "7356900001"}, "type": "Feature"}
{"geometry": {"coordinates": [-97.9372935, 33.896775492], "type": "Point"}, "id": "WV0ZEQQknledUin8ty2Mw7sz_5g=", "properties": {"@spider": "usps_collection_boxes", "addr:city": "TERRAL", "addr:country": "US", "addr:full": "309 E APACHE ST", "addr:postcode": "73569", "addr:state": "OK", "brand": "USPS", "collection_times": "Mo-Fr 11:30; Sa 09:45", "name": "USPS COLLECTION BOX - PO LOBBY", "ref": "7356900002"}, "type": "Feature"}
