{"dataset_attributes": {"@spider": "usps_collection_boxes", "spider:collection_time": "2023-11-19T08:23:43.397954"}, "geometry": {"coordinates": [-98.973305, 35.512801], "type": "Point"}, "id": "vazNmrmN86MgppnXBxTdf50p23U=", "properties": {"@spider": "usps_collection_boxes", "addr:city": "CLINTON", "addr:country": "US", "addr:full": "212 S 11TH ST", "addr:postcode": "73601", "addr:state": "OK", "amenity": "post_box", "brand": "United States Postal Service", "brand:wikidata": "Q668687", "collection_times": "Mo-Fr 17:00; Sa 16:00", "name": "USPS COLLECTION BOX - BLUE BOX", "note": "ON 12/24 AND 12/31, THIS BOX MAY BE COLLECTED AS EARLY AS 12 NOON.", "nsi_id": "unitedstatespostalservice-a77078", "operator": "United States Postal Service", "operator:short": "USPS", "operator:type": "public", "operator:wikidata": "Q668687", "ref": "7360100006"}, "type": "Feature"}
{"dataset_attributes": {"@spider": "usps_collection_boxes", "spider:collection_time": "2023-11-19T08:23:43.397954"}, "geometry": {"coordinates": [-98.973305, 35.512801], "type": "Point"}, "id": "n1ruta1NxBafyn-d5FH2cZdTD8k=", "properties": {"@spider": "usps_collection_boxes", "addr:city": "CLINTON", "addr:country": "US", "addr:full": "212 S 11TH ST", "addr:postcode": "73601", "addr:state": "OK", "amenity": "post_box", "brand": "United States Postal Service", "brand:wikidata": "Q668687", "collection_times": "Mo-Fr 17:00; Sa 16:00", "name": "USPS COLLECTION BOX - BLUE BOX", "note": "ON 12/24 AND 12/31, THIS BOX MAY BE COLLECTED AS EARLY AS 12 NOON.", "nsi_id": "unitedstatespostalservice-a77078", "operator": "United States Postal Service", "operator:short": "USPS", "operator:type": "public", "operator:wikidata": "Q668687", "ref": "7360100007"}, "type": "Feature"}
{"dataset_attributes": {"@spider": "usps_collection_boxes", "spider:collection_time": "2023-11-19T08:23:43.397954"}, "geometry": {"coordinates": [-98.973305, 35.512801], "type": "Point"}, "id": "HkCjzKSna6HaG4jMOMu10OiG0cc=", "properties": {"@spider": "usps_collection_boxes", "addr:city": "CLINTON", "addr:country": "US", "addr:full": "212 S 11TH ST", "addr:postcode": "73601", "addr:state": "OK", "amenity": "post_box", "brand": "United States Postal Service", "brand:wikidata": "Q668687", "collection_times": "Mo-Fr 17:00; Sa 16:00", "name": "USPS COLLECTION BOX - PO LOBBY", "note": "ON 12/24 AND 12/31, THIS BOX MAY BE COLLECTED AS EARLY AS 12 NOON.", "nsi_id": "unitedstatespostalservice-a77078", "operator": "United States Postal Service", "operator:short": "USPS", "operator:type": "public", "operator:wikidata": "Q668687", "ref": "7360100009"}, "type": "Feature"}
{"dataset_attributes": {"@spider": "usps_collection_boxes", "spider:collection_time": "2023-11-19T08:23:43.397954"}, "geometry": {"coordinates": [-98.97330674, 35.512794251], "type": "Point"}, "id": "dAFcdMmpwY5uFv0yChM2ciLrB8A=", "properties": {"@spider": "usps_collection_boxes", "addr:city": "CLINTON", "addr:country": "US", "addr:full": "212 S 11TH ST", "addr:postcode": "73601", "addr:state": "OK", "amenity": "post_box", "brand": "United States Postal Service", "brand:wikidata": "Q668687", "collection_times": "Mo-Fr 16:30; Sa 11:00", "name": "USPS COLLECTION BOX - PO LOBBY", "note": "ON 12/24 AND 12/31, THIS BOX MAY BE COLLECTED AS EARLY AS 12 NOON.", "nsi_id": "unitedstatespostalservice-a77078", "operator": "United States Postal Service", "operator:short": "USPS", "operator:type": "public", "operator:wikidata": "Q668687", "ref": "7360100011"}, "type": "Feature"}
{"dataset_attributes": {"@spider": "usps_collection_boxes", "spider:collection_time": "2023-11-19T08:23:43.397954"}, "geometry": {"coordinates": [-98.959931, 35.577582], "type": "Point"}, "id": "9wKdU2Y5XWTjdhqROluj_FD1QU0=", "properties": {"@spider": "usps_collection_boxes", "addr:city": "ARAPAHO", "addr:country": "US", "addr:full": "668 MAIN ST", "addr:postcode": "73620", "addr:state": "OK", "amenity": "post_box", "brand": "United States Postal Service", "brand:wikidata": "Q668687", "collection_times": "Mo-Fr 16:00; Sa 09:30", "name": "USPS COLLECTION BOX - BLUE BOX", "note": "ON 12/24 AND 12/31, THIS BOX MAY BE COLLECTED AS EARLY AS 12 NOON.", "nsi_id": "unitedstatespostalservice-a77078", "operator": "United States Postal Service", "operator:short": "USPS", "operator:type": "public", "operator:wikidata": "Q668687", "ref": "7362000000"}, "type": "Feature"}
{"dataset_attributes": {"@spider": "usps_collection_boxes", "spider:collection_time": "2023-11-19T08:23:43.397954"}, "geometry": {"coordinates": [-98.959931, 35.577582], "type": "Point"}, "id": "TUCQ84xI7OvAE_9G6R8LWnolmr0=", "properties": {"@spider": "usps_collection_boxes", "addr:city": "ARAPAHO", "addr:country": "US", "addr:full": "668 MAIN ST", "addr:postcode": "73620", "addr:state": "OK", "amenity": "post_box", "brand": "United States Postal Service", "brand:wikidata": "Q668687", "collection_times": "Mo-Fr 16:00; Sa 09:30", "name": "USPS COLLECTION BOX - PO LOBBY", "note": "ON 12/24 AND 12/31, THIS BOX MAY BE COLLECTED AS EARLY AS 12 NOON.", "nsi_id": "unitedstatespostalservice-a77078", "operator": "United States Postal Service", "operator:short": "USPS", "operator:type": "public", "operator:wikidata": "Q668687", "ref": "7362000001"}, "type": "Feature"}
{"dataset_attributes": {"@spider": "usps_collection_boxes", "spider:collection_time": "2023-11-19T08:23:43.397954"}, "geometry": {"coordinates": [-98.959933074, 35.577580466], "type": "Point"}, "id": "orWHx7-1CNS8yt3hKtqapflcAWA=", "properties": {"@spider": "usps_collection_boxes", "addr:city": "ARAPAHO", "addr:country": "US", "addr:full": "668 MAIN ST", "addr:postcode": "73620", "addr:state": "OK", "amenity": "post_box", "brand": "United States Postal Service", "brand:wikidata": "Q668687", "collection_times": "Mo-Fr 16:00; Sa 11:00", "name": "USPS COLLECTION BOX - PO LOBBY", "note": "ON 12/24 AND 12/31, THIS BOX MAY BE COLLECTED AS EARLY AS 12 NOON.", "nsi_id": "unitedstatespostalservice-a77078", "operator": "United States Postal Service", "operator:short": "USPS", "operator:type": "public", "operator:wikidata": "Q668687", "ref": "7362000003"}, "type": "Feature"}
{"dataset_attributes": {"@spider": "usps_collection_boxes", "spider:collection_time": "2023-11-19T08:23:43.397954"}, "geometry": {"coordinates": [-98.987986, 35.386392], "type": "Point"}, "id": "xJRGxLpw3Fhqq09_xhlajTcdswY=", "properties": {"@spider": "usps_collection_boxes", "addr:city": "BESSIE", "addr:country": "US", "addr:full": "709 MAIN ST", "addr:postcode": "73622", "addr:state": "OK", "amenity": "post_box", "brand": "United States Postal Service", "brand:wikidata": "Q668687", "collection_times": "Mo-Fr 15:00; Sa 09:00", "name": "USPS COLLECTION BOX - BLUE BOX", "note": "ON 12/24 AND 12/31, THIS BOX MAY BE COLLECTED AS EARLY AS 12 NOON.", "nsi_id": "unitedstatespostalservice-a77078", "operator": "United States Postal Service", "operator:short": "USPS", "operator:type": "public", "operator:wikidata": "Q668687", "ref": "7362200000"}, "type": "Feature"}
{"dataset_attributes": {"@spider": "usps_collection_boxes", "spider:collection_time": "2023-11-19T08:23:43.397954"}, "geometry": {"coordinates": [-98.987986, 35.386392], "type": "Point"}, "id": "Dwr5kkldfblFHQrbCycd9OT38As=", "properties": {"@spider": "usps_collection_boxes", "addr:city": "BESSIE", "addr:country": "US", "addr:full": "709 MAIN ST", "addr:postcode": "73622", "addr:state": "OK", "amenity": "post_box", "brand": "United States Postal Service", "brand:wikidata": "Q668687", "collection_times": "Mo-Fr 15:00; Sa 09:00", "name": "USPS COLLECTION BOX - PO LOBBY", "note": "ON 12/24 AND 12/31, THIS BOX MAY BE COLLECTED AS EARLY AS 12 NOON.", "nsi_id": "unitedstatespostalservice-a77078", "operator": "United States Postal Service", "operator:short": "USPS", "operator:type": "public", "operator:wikidata": "Q668687", "ref": "7362200001"}, "type": "Feature"}
{"dataset_attributes": {"@spider": "usps_collection_boxes", "spider:collection_time": "2023-11-19T08:23:43.397954"}, "geometry": {"coordinates": [-98.987963577, 35.386410931], "type": "Point"}, "id": "tnaL6Q9qJ6VPy2_-pPLAvj6K_8M=", "properties": {"@spider": "usps_collection_boxes", "addr:city": "BESSIE", "addr:country": "US", "addr:full": "709 MAIN ST", "addr:postcode": "73622", "addr:state": "OK", "amenity": "post_box", "brand": "United States Postal Service", "brand:wikidata": "Q668687", "collection_times": "Mo-Fr 15:00; Sa 09:00", "name": "USPS COLLECTION BOX - PO LOBBY", "note": "ON 12/24 AND 12/31, THIS BOX MAY BE COLLECTED AS EARLY AS 12 NOON.", "nsi_id": "unitedstatespostalservice-a77078", "operator": "United States Postal Service", "operator:short": "USPS", "operator:type": "public", "operator:wikidata": "Q668687", "ref": "7362200002"}, "type": "Feature"}
{"dataset_attributes": {"@spider": "usps_collection_boxes", "spider:collection_time": "2023-11-19T08:23:43.397954"}, "geometry": {"coordinates": [-99.170387, 35.355288], "type": "Point"}, "id": "a7qAJewfElqEkqWVj-HmDb12XSg=", "properties": {"@spider": "usps_collection_boxes", "addr:city": "BURNS FLAT", "addr:country": "US", "addr:full": "100 SOONER DR", "addr:postcode": "73624", "addr:state": "OK", "amenity": "post_box", "brand": "United States Postal Service", "brand:wikidata": "Q668687", "collection_times": "Mo-Fr 15:45; Sa 10:30", "name": "USPS COLLECTION BOX - PO LOBBY", "note": "ON 12/24 AND 12/31, THIS BOX MAY BE COLLECTED AS EARLY AS 12 NOON.", "nsi_id": "unitedstatespostalservice-a77078", "operator": "United States Postal Service", "operator:short": "USPS", "operator:type": "public", "operator:wikidata": "Q668687", "ref": "7362400002"}, "type": "Feature"}
{"dataset_attributes": {"@spider": "usps_collection_boxes", "spider:collection_time": "2023-11-19T08:23:43.397954"}, "geometry": {"coordinates": [-99.170387, 35.355285], "type": "Point"}, "id": "GbfQvZlnqDHHMv-LvHkkn-OuwVI=", "properties": {"@spider": "usps_collection_boxes", "addr:city": "BURNS FLAT", "addr:country": "US", "addr:full": "100 SOONER DR", "addr:postcode": "73624", "addr:state": "OK", "amenity": "post_box", "brand": "United States Postal Service", "brand:wikidata": "Q668687", "collection_times": "Mo-Fr 15:45; Sa 10:30", "name": "USPS COLLECTION BOX - PO LOBBY", "note": "ON 12/24 AND 12/31, THIS BOX MAY BE COLLECTED AS EARLY AS 12 NOON.", "nsi_id": "unitedstatespostalservice-a77078", "operator": "United States Postal Service", "operator:short": "USPS", "operator:type": "public", "operator:wikidata": "Q668687", "ref": "7362400003"}, "type": "Feature"}
{"dataset_attributes": {"@spider": "usps_collection_boxes", "spider:collection_time": "2023-11-19T08:23:43.397954"}, "geometry": {"coordinates": [-99.170387, 35.355285], "type": "Point"}, "id": "TW5_ejJCO5Xrenxlfsbf9lE_c40=", "properties": {"@spider": "usps_collection_boxes", "addr:city": "BURNS FLAT", "addr:country": "US", "addr:full": "100 SOONER DR", "addr:postcode": "73624", "addr:state": "OK", "amenity": "post_box", "brand": "United States Postal Service", "brand:wikidata": "Q668687", "collection_times": "Mo-Fr 15:45; Sa 10:30", "name": "USPS COLLECTION BOX - BLUE BOX", "note": "ON 12/24 AND 12/31, THIS BOX MAY BE COLLECTED AS EARLY AS 12 NOON.", "nsi_id": "unitedstatespostalservice-a77078", "operator": "United States Postal Service", "operator:short": "USPS", "operator:type": "public", "operator:wikidata": "Q668687", "ref": "7362400004"}, "type": "Feature"}
{"dataset_attributes": {"@spider": "usps_collection_boxes", "spider:collection_time": "2023-11-19T08:23:43.397954"}, "geometry": {"coordinates": [-99.170350139, 35.355323163], "type": "Point"}, "id": "WMtGLeep7WFMpfdCRMIEAHMSVNc=", "properties": {"@spider": "usps_collection_boxes", "addr:city": "BURNS FLAT", "addr:country": "US", "addr:full": "100 SOONER DR", "addr:postcode": "73624", "addr:state": "OK", "amenity": "post_box", "brand": "United States Postal Service", "brand:wikidata": "Q668687", "collection_times": "Mo-Fr 16:00; Sa 10:30", "name": "USPS COLLECTION BOX - PO LOBBY", "note": "ON 12/24 AND 12/31, THIS BOX MAY BE COLLECTED AS EARLY AS 12 NOON.", "nsi_id": "unitedstatespostalservice-a77078", "operator": "United States Postal Service", "operator:short": "USPS", "operator:type": "public", "operator:wikidata": "Q668687", "ref": "7362400005"}, "type": "Feature"}
{"dataset_attributes": {"@spider": "usps_collection_boxes", "spider:collection_time": "2023-11-19T08:23:43.397954"}, "geometry": {"coordinates": [-99.187876, 35.637301], "type": "Point"}, "id": "fvmfxSzsp_MjYc_R0rfpdzoPJL8=", "properties": {"@spider": "usps_collection_boxes", "addr:city": "BUTLER", "addr:country": "US", "addr:full": "103 N OLMSTEAD AVE", "addr:postcode": "73625", "addr:state": "OK", "amenity": "post_box", "brand": "United States Postal Service", "brand:wikidata": "Q668687", "collection_times": "Mo-Fr 11:45; Sa 09:15", "name": "USPS COLLECTION BOX - BLUE BOX", "nsi_id": "unitedstatespostalservice-a77078", "operator": "United States Postal Service", "operator:short": "USPS", "operator:type": "public", "operator:wikidata": "Q668687", "ref": "7362500000"}, "type": "Feature"}
{"dataset_attributes": {"@spider": "usps_collection_boxes", "spider:collection_time": "2023-11-19T08:23:43.397954"}, "geometry": {"coordinates": [-99.187876, 35.637301], "type": "Point"}, "id": "AsP21UCBCGS6afcRjpt4tbYEBNo=", "properties": {"@spider": "usps_collection_boxes", "addr:city": "BUTLER", "addr:country": "US", "addr:full": "103 N OLMSTEAD AVE", "addr:postcode": "73625", "addr:state": "OK", "amenity": "post_box", "brand": "United States Postal Service", "brand:wikidata": "Q668687", "collection_times": "Mo-Fr 11:45; Sa 09:15", "name": "USPS COLLECTION BOX - PO LOBBY", "nsi_id": "unitedstatespostalservice-a77078", "operator": "United States Postal Service", "operator:short": "USPS", "operator:type": "public", "operator:wikidata": "Q668687", "ref": "7362500001"}, "type": "Feature"}
{"dataset_attributes": {"@spider": "usps_collection_boxes", "spider:collection_time": "2023-11-19T08:23:43.397954"}, "geometry": {"coordinates": [-99.187873835, 35.6373], "type": "Point"}, "id": "PKMGfKHP5_hy0apMgEGqZaxrn-c=", "properties": {"@spider": "usps_collection_boxes", "addr:city": "BUTLER", "addr:country": "US", "addr:full": "103 N OLMSTEAD AVE", "addr:postcode": "73625", "addr:state": "OK", "amenity": "post_box", "brand": "United States Postal Service", "brand:wikidata": "Q668687", "collection_times": "Mo-Fr 12:00; Sa 09:15", "name": "USPS COLLECTION BOX - PO LOBBY", "nsi_id": "unitedstatespostalservice-a77078", "operator": "United States Postal Service", "operator:short": "USPS", "operator:type": "public", "operator:wikidata": "Q668687", "ref": "7362500003"}, "type": "Feature"}
{"dataset_attributes": {"@spider": "usps_collection_boxes", "spider:collection_time": "2023-11-19T08:23:43.397954"}, "geometry": {"coordinates": [-99.275762, 35.42193], "type": "Point"}, "id": "KHPRBYFziy2zWPDYbISbkPs82jI=", "properties": {"@spider": "usps_collection_boxes", "addr:city": "CANUTE", "addr:country": "US", "addr:full": "919 HIGHWAY 66", "addr:postcode": "73626", "addr:state": "OK", "amenity": "post_box", "brand": "United States Postal Service", "brand:wikidata": "Q668687", "collection_times": "Mo-Fr 15:45; Sa 09:00", "name": "USPS COLLECTION BOX - BLUE BOX", "note": "ON 12/24 AND 12/31, THIS BOX MAY BE COLLECTED AS EARLY AS 12 NOON.", "nsi_id": "unitedstatespostalservice-a77078", "operator": "United States Postal Service", "operator:short": "USPS", "operator:type": "public", "operator:wikidata": "Q668687", "ref": "7362600000"}, "type": "Feature"}
{"dataset_attributes": {"@spider": "usps_collection_boxes", "spider:collection_time": "2023-11-19T08:23:43.397954"}, "geometry": {"coordinates": [-99.275762, 35.42193], "type": "Point"}, "id": "J7XA0xi06IZA7_Y50ibjEojAaXw=", "properties": {"@spider": "usps_collection_boxes", "addr:city": "CANUTE", "addr:country": "US", "addr:full": "919 HIGHWAY 66", "addr:postcode": "73626", "addr:state": "OK", "amenity": "post_box", "brand": "United States Postal Service", "brand:wikidata": "Q668687", "collection_times": "Mo-Fr 15:45; Sa 09:00", "name": "USPS COLLECTION BOX - PO LOBBY", "note": "ON 12/24 AND 12/31, THIS BOX MAY BE COLLECTED AS EARLY AS 12 NOON.", "nsi_id": "unitedstatespostalservice-a77078", "operator": "United States Postal Service", "operator:short": "USPS", "operator:type": "public", "operator:wikidata": "Q668687", "ref": "7362600001"}, "type": "Feature"}
{"dataset_attributes": {"@spider": "usps_collection_boxes", "spider:collection_time": "2023-11-19T08:23:43.397954"}, "geometry": {"coordinates": [-99.275762, 35.42193], "type": "Point"}, "id": "jGr65ZCNk0XF3QMwKuiZ4Mjecus=", "properties": {"@spider": "usps_collection_boxes", "addr:city": "CANUTE", "addr:country": "US", "addr:full": "919 HIGHWAY 66", "addr:postcode": "73626", "addr:state": "OK", "amenity": "post_box", "brand": "United States Postal Service", "brand:wikidata": "Q668687", "collection_times": "Mo-Fr 15:45; Sa 09:00", "name": "USPS COLLECTION BOX - PO LOBBY", "note": "ON 12/24 AND 12/31, THIS BOX MAY BE COLLECTED AS EARLY AS 12 NOON.", "nsi_id": "unitedstatespostalservice-a77078", "operator": "United States Postal Service", "operator:short": "USPS", "operator:type": "public", "operator:wikidata": "Q668687", "ref": "7362600002"}, "type": "Feature"}
{"dataset_attributes": {"@spider": "usps_collection_boxes", "spider:collection_time": "2023-11-19T08:23:43.397954"}, "geometry": {"coordinates": [-99.275771871, 35.421874749], "type": "Point"}, "id": "cmCZvQyhpMYcWwEy9LfhwTlP1Zs=", "properties": {"@spider": "usps_collection_boxes", "addr:city": "CANUTE", "addr:country": "US", "addr:full": "919 HIGHWAY 66", "addr:postcode": "73626", "addr:state": "OK", "amenity": "post_box", "brand": "United States Postal Service", "brand:wikidata": "Q668687", "collection_times": "Mo-Fr 15:45; Sa 09:00", "name": "USPS COLLECTION BOX - PO LOBBY", "note": "ON 12/24 AND 12/31, THIS BOX MAY BE COLLECTED AS EARLY AS 12 NOON.", "nsi_id": "unitedstatespostalservice-a77078", "operator": "United States Postal Service", "operator:short": "USPS", "operator:type": "public", "operator:wikidata": "Q668687", "ref": "7362600003"}, "type": "Feature"}
{"dataset_attributes": {"@spider": "usps_collection_boxes", "spider:collection_time": "2023-11-19T08:23:43.397954"}, "geometry": {"coordinates": [-99.512601, 35.218983], "type": "Point"}, "id": "Qc_kEoco5VtoyKBaFtWHEHKkztA=", "properties": {"@spider": "usps_collection_boxes", "addr:city": "CARTER", "addr:country": "US", "addr:full": "108 E MAIN ST", "addr:postcode": "73627", "addr:state": "OK", "amenity": "post_box", "brand": "United States Postal Service", "brand:wikidata": "Q668687", "collection_times": "Mo-Fr 15:30; Sa 08:45", "name": "USPS COLLECTION BOX - BLUE BOX", "note": "ON 12/24 AND 12/31, THIS BOX MAY BE COLLECTED AS EARLY AS 12 NOON.", "nsi_id": "unitedstatespostalservice-a77078", "operator": "United States Postal Service", "operator:short": "USPS", "operator:type": "public", "operator:wikidata": "Q668687", "ref": "7362700000"}, "type": "Feature"}
{"dataset_attributes": {"@spider": "usps_collection_boxes", "spider:collection_time": "2023-11-19T08:23:43.397954"}, "geometry": {"coordinates": [-99.505472, 35.219036], "type": "Point"}, "id": "99Mx8y0cMawDor-XM3Q7T07zm5U=", "properties": {"@spider": "usps_collection_boxes", "addr:city": "CARTER", "addr:country": "US", "addr:full": "108 E MAIN ST", "addr:postcode": "73627", "addr:state": "OK", "amenity": "post_box", "brand": "United States Postal Service", "brand:wikidata": "Q668687", "collection_times": "Mo-Fr 15:30; Sa 08:45", "name": "USPS COLLECTION BOX - PO LOBBY", "note": "ON 12/24 AND 12/31, THIS BOX MAY BE COLLECTED AS EARLY AS 12 NOON.", "nsi_id": "unitedstatespostalservice-a77078", "operator": "United States Postal Service", "operator:short": "USPS", "operator:type": "public", "operator:wikidata": "Q668687", "ref": "7362700001"}, "type": "Feature"}
{"dataset_attributes": {"@spider": "usps_collection_boxes", "spider:collection_time": "2023-11-19T08:23:43.397954"}, "geometry": {"coordinates": [-99.504344023, 35.218955023], "type": "Point"}, "id": "JUdzG175Vyh35Zyww2w6PynX0Vs=", "properties": {"@spider": "usps_collection_boxes", "addr:city": "CARTER", "addr:country": "US", "addr:full": "108 E MAIN ST", "addr:postcode": "73627", "addr:state": "OK", "amenity": "post_box", "brand": "United States Postal Service", "brand:wikidata": "Q668687", "collection_times": "Mo-Fr 15:30", "name": "USPS COLLECTION BOX - PO LOBBY", "note": "ON 12/24 AND 12/31, THIS BOX MAY BE COLLECTED AS EARLY AS 12 NOON.", "nsi_id": "unitedstatespostalservice-a77078", "operator": "United States Postal Service", "operator:short": "USPS", "operator:type": "public", "operator:wikidata": "Q668687", "ref": "7362700002"}, "type": "Feature"}
{"dataset_attributes": {"@spider": "usps_collection_boxes", "spider:collection_time": "2023-11-19T08:23:43.397954"}, "geometry": {"coordinates": [-99.6716109848, 35.6119849885], "type": "Point"}, "id": "Jbo_Qyr4o1HNs48fpQ1MlN4gl-8=", "properties": {"@spider": "usps_collection_boxes", "addr:city": "CHEYENNE", "addr:country": "US", "addr:full": "207 S LL MALES AVE", "addr:postcode": "73628", "addr:state": "OK", "amenity": "post_box", "brand": "United States Postal Service", "brand:wikidata": "Q668687", "collection_times": "Mo-Fr 15:45; Sa 09:00", "name": "USPS COLLECTION BOX - BLUE BOX", "note": "ON 12/24 AND 12/31, THIS BOX MAY BE COLLECTED AS EARLY AS 12 NOON.", "nsi_id": "unitedstatespostalservice-a77078", "operator": "United States Postal Service", "operator:short": "USPS", "operator:type": "public", "operator:wikidata": "Q668687", "ref": "7362800000"}, "type": "Feature"}
{"dataset_attributes": {"@spider": "usps_collection_boxes", "spider:collection_time": "2023-11-19T08:23:43.397954"}, "geometry": {"coordinates": [-99.671845, 35.612786], "type": "Point"}, "id": "HY0cToCjWnznLPf3TLSSjCht-9Y=", "properties": {"@spider": "usps_collection_boxes", "addr:city": "CHEYENNE", "addr:country": "US", "addr:full": "207 S LL MALES AVE", "addr:postcode": "73628", "addr:state": "OK", "amenity": "post_box", "brand": "United States Postal Service", "brand:wikidata": "Q668687", "collection_times": "Mo-Fr 15:45; Sa 09:00", "name": "USPS COLLECTION BOX - PO LOBBY", "note": "ON 12/24 AND 12/31, THIS BOX MAY BE COLLECTED AS EARLY AS 12 NOON.", "nsi_id": "unitedstatespostalservice-a77078", "operator": "United States Postal Service", "operator:short": "USPS", "operator:type": "public", "operator:wikidata": "Q668687", "ref": "7362800001"}, "type": "Feature"}
{"dataset_attributes": {"@spider": "usps_collection_boxes", "spider:collection_time": "2023-11-19T08:23:43.397954"}, "geometry": {"coordinates": [-99.671845, 35.612786], "type": "Point"}, "id": "up-4WM0DBJ1y9FvvkTZk_UxxQ-I=", "properties": {"@spider": "usps_collection_boxes", "addr:city": "CHEYENNE", "addr:country": "US", "addr:full": "207 S LL MALES AVE", "addr:postcode": "73628", "addr:state": "OK", "amenity": "post_box", "brand": "United States Postal Service", "brand:wikidata": "Q668687", "collection_times": "Mo-Fr 15:45; Sa 09:00", "name": "USPS COLLECTION BOX - PO LOBBY", "note": "ON 12/24 AND 12/31, THIS BOX MAY BE COLLECTED AS EARLY AS 12 NOON.", "nsi_id": "unitedstatespostalservice-a77078", "operator": "United States Postal Service", "operator:short": "USPS", "operator:type": "public", "operator:wikidata": "Q668687", "ref": "7362800002"}, "type": "Feature"}
{"dataset_attributes": {"@spider": "usps_collection_boxes", "spider:collection_time": "2023-11-19T08:23:43.397954"}, "geometry": {"coordinates": [-99.671879224, 35.611955801], "type": "Point"}, "id": "mBEg4Y0m2woBC0yDfgEWlEVgbJU=", "properties": {"@spider": "usps_collection_boxes", "addr:city": "CHEYENNE", "addr:country": "US", "addr:full": "207 S LL MALES AVE", "addr:postcode": "73628", "addr:state": "OK", "amenity": "post_box", "brand": "United States Postal Service", "brand:wikidata": "Q668687", "collection_times": "Mo-Fr 16:00; Sa 09:15", "name": "USPS COLLECTION BOX - PO LOBBY", "note": "ON 12/24 AND 12/31, THIS BOX MAY BE COLLECTED AS EARLY AS 12 NOON.", "nsi_id": "unitedstatespostalservice-a77078", "operator": "United States Postal Service", "operator:short": "USPS", "operator:type": "public", "operator:wikidata": "Q668687", "ref": "7362800003"}, "type": "Feature"}
{"dataset_attributes": {"@spider": "usps_collection_boxes", "spider:collection_time": "2023-11-19T08:23:43.397954"}, "geometry": {"coordinates": [-98.9893900319, 35.2926600004], "type": "Point"}, "id": "1NhQp9UrJ-gZtaY0Ef_aLlxbk7w=", "properties": {"@spider": "usps_collection_boxes", "addr:city": "CORDELL", "addr:country": "US", "addr:full": "121 E 1ST ST", "addr:postcode": "73632", "addr:state": "OK", "amenity": "post_box", "brand": "United States Postal Service", "brand:wikidata": "Q668687", "collection_times": "Mo-Fr 16:30; Sa 09:00", "name": "USPS COLLECTION BOX - BLUE BOX", "note": "ON 12/24 AND 12/31, THIS BOX MAY BE COLLECTED AS EARLY AS 12 NOON.", "nsi_id": "unitedstatespostalservice-a77078", "operator": "United States Postal Service", "operator:short": "USPS", "operator:type": "public", "operator:wikidata": "Q668687", "ref": "7363200001"}, "type": "Feature"}
{"dataset_attributes": {"@spider": "usps_collection_boxes", "spider:collection_time": "2023-11-19T08:23:43.397954"}, "geometry": {"coordinates": [-98.9892, 35.292377], "type": "Point"}, "id": "2r9sCGnhZ2LPpq0tK0TyCfhqXnI=", "properties": {"@spider": "usps_collection_boxes", "addr:city": "CORDELL", "addr:country": "US", "addr:full": "121 E 1ST ST", "addr:postcode": "73632", "addr:state": "OK", "amenity": "post_box", "brand": "United States Postal Service", "brand:wikidata": "Q668687", "collection_times": "Mo-Fr 16:30; Sa 09:00", "name": "USPS COLLECTION BOX - PO LOBBY", "note": "ON 12/24 AND 12/31, THIS BOX MAY BE COLLECTED AS EARLY AS 12 NOON.", "nsi_id": "unitedstatespostalservice-a77078", "operator": "United States Postal Service", "operator:short": "USPS", "operator:type": "public", "operator:wikidata": "Q668687", "ref": "7363200002"}, "type": "Feature"}
{"dataset_attributes": {"@spider": "usps_collection_boxes", "spider:collection_time": "2023-11-19T08:23:43.397954"}, "geometry": {"coordinates": [-98.989383777, 35.29237153], "type": "Point"}, "id": "j9acX8-yR93tXM3opltU2r6KS94=", "properties": {"@spider": "usps_collection_boxes", "addr:city": "CORDELL", "addr:country": "US", "addr:full": "121 E 1ST ST", "addr:postcode": "73632", "addr:state": "OK", "amenity": "post_box", "brand": "United States Postal Service", "brand:wikidata": "Q668687", "collection_times": "Mo-Fr 16:30", "name": "USPS COLLECTION BOX - PO LOBBY", "note": "ON 12/24 AND 12/31, THIS BOX MAY BE COLLECTED AS EARLY AS 12 NOON.", "nsi_id": "unitedstatespostalservice-a77078", "operator": "United States Postal Service", "operator:short": "USPS", "operator:type": "public", "operator:wikidata": "Q668687", "ref": "7363200003"}, "type": "Feature"}
{"dataset_attributes": {"@spider": "usps_collection_boxes", "spider:collection_time": "2023-11-19T08:23:43.397954"}, "geometry": {"coordinates": [-98.883465, 35.66416], "type": "Point"}, "id": "wIYRcSENg_PmwR_QS5Snf8FhEyw=", "properties": {"@spider": "usps_collection_boxes", "addr:city": "CUSTER CITY", "addr:country": "US", "addr:full": "630 S MAIN ST", "addr:postcode": "73639", "addr:state": "OK", "amenity": "post_box", "brand": "United States Postal Service", "brand:wikidata": "Q668687", "collection_times": "Mo-Fr 11:45; Sa 09:00", "name": "USPS COLLECTION BOX - PO LOBBY", "nsi_id": "unitedstatespostalservice-a77078", "operator": "United States Postal Service", "operator:short": "USPS", "operator:type": "public", "operator:wikidata": "Q668687", "ref": "7363900001"}, "type": "Feature"}
{"dataset_attributes": {"@spider": "usps_collection_boxes", "spider:collection_time": "2023-11-19T08:23:43.397954"}, "geometry": {"coordinates": [-98.883464284, 35.664156], "type": "Point"}, "id": "3pD6tHa-Lh36pk1lfyr0YvZUohk=", "properties": {"@spider": "usps_collection_boxes", "addr:city": "CUSTER CITY", "addr:country": "US", "addr:full": "630 S MAIN ST", "addr:postcode": "73639", "addr:state": "OK", "amenity": "post_box", "brand": "United States Postal Service", "brand:wikidata": "Q668687", "collection_times": "Mo-Fr 12:00; Sa 09:30", "name": "USPS COLLECTION BOX - PO LOBBY", "nsi_id": "unitedstatespostalservice-a77078", "operator": "United States Postal Service", "operator:short": "USPS", "operator:type": "public", "operator:wikidata": "Q668687", "ref": "7363900002"}, "type": "Feature"}
{"dataset_attributes": {"@spider": "usps_collection_boxes", "spider:collection_time": "2023-11-19T08:23:43.397954"}, "geometry": {"coordinates": [-99.129806, 35.277746], "type": "Point"}, "id": "7UpWj-kEBAaxtr0g6X8a11TwC58=", "properties": {"@spider": "usps_collection_boxes", "addr:city": "DILL CITY", "addr:country": "US", "addr:full": "606 S MCDONALD ST", "addr:postcode": "73641", "addr:state": "OK", "amenity": "post_box", "brand": "United States Postal Service", "brand:wikidata": "Q668687", "collection_times": "Mo-Fr 12:00; Sa 08:00", "name": "USPS COLLECTION BOX - BLUE BOX", "nsi_id": "unitedstatespostalservice-a77078", "operator": "United States Postal Service", "operator:short": "USPS", "operator:type": "public", "operator:wikidata": "Q668687", "ref": "7364100000"}, "type": "Feature"}
{"dataset_attributes": {"@spider": "usps_collection_boxes", "spider:collection_time": "2023-11-19T08:23:43.397954"}, "geometry": {"coordinates": [-99.129806, 35.277746], "type": "Point"}, "id": "iPodBX7PMKphultxLNbuSe5N4X4=", "properties": {"@spider": "usps_collection_boxes", "addr:city": "DILL CITY", "addr:country": "US", "addr:full": "606 S MCDONALD ST", "addr:postcode": "73641", "addr:state": "OK", "amenity": "post_box", "brand": "United States Postal Service", "brand:wikidata": "Q668687", "collection_times": "Mo-Fr 12:00; Sa 09:30", "name": "USPS COLLECTION BOX - PO LOBBY", "nsi_id": "unitedstatespostalservice-a77078", "operator": "United States Postal Service", "operator:short": "USPS", "operator:type": "public", "operator:wikidata": "Q668687", "ref": "7364100001"}, "type": "Feature"}
{"dataset_attributes": {"@spider": "usps_collection_boxes", "spider:collection_time": "2023-11-19T08:23:43.397954"}, "geometry": {"coordinates": [-99.129806, 35.277746], "type": "Point"}, "id": "73ULCi3UmDvkvRyfFz2M81tra2w=", "properties": {"@spider": "usps_collection_boxes", "addr:city": "DILL CITY", "addr:country": "US", "addr:full": "606 S MCDONALD ST", "addr:postcode": "73641", "addr:state": "OK", "amenity": "post_box", "brand": "United States Postal Service", "brand:wikidata": "Q668687", "collection_times": "Mo-Fr 12:00; Sa 09:30", "name": "USPS COLLECTION BOX - PO LOBBY", "nsi_id": "unitedstatespostalservice-a77078", "operator": "United States Postal Service", "operator:short": "USPS", "operator:type": "public", "operator:wikidata": "Q668687", "ref": "7364100002"}, "type": "Feature"}
{"dataset_attributes": {"@spider": "usps_collection_boxes", "spider:collection_time": "2023-11-19T08:23:43.397954"}, "geometry": {"coordinates": [-99.129785575, 35.277760587], "type": "Point"}, "id": "YsBMqNF0YNJLcRaxfIOo0SSeABE=", "properties": {"@spider": "usps_collection_boxes", "addr:city": "DILL CITY", "addr:country": "US", "addr:full": "606 S MCDONALD ST", "addr:postcode": "73641", "addr:state": "OK", "amenity": "post_box", "brand": "United States Postal Service", "brand:wikidata": "Q668687", "collection_times": "Mo-Fr 12:00; Sa 09:30", "name": "USPS COLLECTION BOX - PO LOBBY", "nsi_id": "unitedstatespostalservice-a77078", "operator": "United States Postal Service", "operator:short": "USPS", "operator:type": "public", "operator:wikidata": "Q668687", "ref": "7364100003"}, "type": "Feature"}
{"dataset_attributes": {"@spider": "usps_collection_boxes", "spider:collection_time": "2023-11-19T08:23:43.397954"}, "geometry": {"coordinates": [-99.4370326, 35.411826], "type": "Point"}, "id": "69bI-d8mJdL8cEei_lcXZ5CLUmw=", "properties": {"@spider": "usps_collection_boxes", "addr:city": "ELK CITY", "addr:country": "US", "addr:full": "2717 W 3RD ST", "addr:postcode": "73644", "addr:state": "OK", "amenity": "post_box", "brand": "United States Postal Service", "brand:wikidata": "Q668687", "collection_times": "Mo-Fr 15:00; Sa 14:15", "name": "USPS COLLECTION BOX - BLUE BOX", "note": "ON 12/24 AND 12/31, THIS BOX MAY BE COLLECTED AS EARLY AS 12 NOON.", "nsi_id": "unitedstatespostalservice-a77078", "operator": "United States Postal Service", "operator:short": "USPS", "operator:type": "public", "operator:wikidata": "Q668687", "ref": "7364400007"}, "type": "Feature"}
{"dataset_attributes": {"@spider": "usps_collection_boxes", "spider:collection_time": "2023-11-19T08:23:43.397954"}, "geometry": {"coordinates": [-99.407504, 35.41059], "type": "Point"}, "id": "UzN65drZGDTuoAZw_Z9oM-EZXpU=", "properties": {"@spider": "usps_collection_boxes", "addr:city": "ELK CITY", "addr:country": "US", "addr:full": "101 S ADAMS AVE", "addr:postcode": "73644", "addr:state": "OK", "amenity": "post_box", "brand": "United States Postal Service", "brand:wikidata": "Q668687", "collection_times": "Mo-Fr 16:30; Sa 15:30", "name": "USPS COLLECTION BOX - BLUE BOX", "note": "ON 12/24 AND 12/31, THIS BOX MAY BE COLLECTED AS EARLY AS 12 NOON.", "nsi_id": "unitedstatespostalservice-a77078", "operator": "United States Postal Service", "operator:short": "USPS", "operator:type": "public", "operator:wikidata": "Q668687", "ref": "7364400015"}, "type": "Feature"}
{"dataset_attributes": {"@spider": "usps_collection_boxes", "spider:collection_time": "2023-11-19T08:23:43.397954"}, "geometry": {"coordinates": [-99.407504, 35.41059], "type": "Point"}, "id": "kUaXDXqwyyrDGfI-53lOWco_LRU=", "properties": {"@spider": "usps_collection_boxes", "addr:city": "ELK CITY", "addr:country": "US", "addr:full": "101 S ADAMS AVE", "addr:postcode": "73644", "addr:state": "OK", "amenity": "post_box", "brand": "United States Postal Service", "brand:wikidata": "Q668687", "collection_times": "Mo-Fr 16:30; Sa 15:30", "name": "USPS COLLECTION BOX - PO LOBBY", "note": "ON 12/24 AND 12/31, THIS BOX MAY BE COLLECTED AS EARLY AS 12 NOON.", "nsi_id": "unitedstatespostalservice-a77078", "operator": "United States Postal Service", "operator:short": "USPS", "operator:type": "public", "operator:wikidata": "Q668687", "ref": "7364400020"}, "type": "Feature"}
{"dataset_attributes": {"@spider": "usps_collection_boxes", "spider:collection_time": "2023-11-19T08:23:43.397954"}, "geometry": {"coordinates": [-99.407504, 35.41059], "type": "Point"}, "id": "4eFAZUAk26EKRjtnhHWzXuHs_I4=", "properties": {"@spider": "usps_collection_boxes", "addr:city": "ELK CITY", "addr:country": "US", "addr:full": "101 S ADAMS AVE", "addr:postcode": "73644", "addr:state": "OK", "amenity": "post_box", "brand": "United States Postal Service", "brand:wikidata": "Q668687", "collection_times": "Mo-Fr 16:30; Sa 15:30", "name": "USPS COLLECTION BOX - PO LOBBY", "note": "ON 12/24 AND 12/31, THIS BOX MAY BE COLLECTED AS EARLY AS 12 NOON.", "nsi_id": "unitedstatespostalservice-a77078", "operator": "United States Postal Service", "operator:short": "USPS", "operator:type": "public", "operator:wikidata": "Q668687", "ref": "7364400021"}, "type": "Feature"}
{"dataset_attributes": {"@spider": "usps_collection_boxes", "spider:collection_time": "2023-11-19T08:23:43.397954"}, "geometry": {"coordinates": [-99.4257366, 35.414443], "type": "Point"}, "id": "-zcsEw6EWMlishzdpxlD4yraszU=", "properties": {"@spider": "usps_collection_boxes", "addr:city": "ELK CITY", "addr:country": "US", "addr:full": "1801 W 3RD ST", "addr:postcode": "73644", "addr:state": "OK", "amenity": "post_box", "brand": "United States Postal Service", "brand:wikidata": "Q668687", "collection_times": "Mo-Fr 14:45; Sa 14:15", "name": "USPS COLLECTION BOX - BLUE BOX", "note": "ON 12/24 AND 12/31, THIS BOX MAY BE COLLECTED AS EARLY AS 12 NOON.", "nsi_id": "unitedstatespostalservice-a77078", "operator": "United States Postal Service", "operator:short": "USPS", "operator:type": "public", "operator:wikidata": "Q668687", "ref": "7364400022"}, "type": "Feature"}
{"dataset_attributes": {"@spider": "usps_collection_boxes", "spider:collection_time": "2023-11-19T08:23:43.397954"}, "geometry": {"coordinates": [-99.407532913, 35.410614069], "type": "Point"}, "id": "bj2_RgGckLNP7hOjofZ7ckHEFmk=", "properties": {"@spider": "usps_collection_boxes", "addr:city": "ELK CITY", "addr:country": "US", "addr:full": "101 S ADAMS AVE", "addr:postcode": "73644", "addr:state": "OK", "amenity": "post_box", "brand": "United States Postal Service", "brand:wikidata": "Q668687", "collection_times": "Mo-Fr 16:30; Sa 11:00", "name": "USPS COLLECTION BOX - PO LOBBY", "note": "ON 12/24 AND 12/31, THIS BOX MAY BE COLLECTED AS EARLY AS 12 NOON.", "nsi_id": "unitedstatespostalservice-a77078", "operator": "United States Postal Service", "operator:short": "USPS", "operator:type": "public", "operator:wikidata": "Q668687", "ref": "7364400023"}, "type": "Feature"}
{"dataset_attributes": {"@spider": "usps_collection_boxes", "spider:collection_time": "2023-11-19T08:23:43.397954"}, "geometry": {"coordinates": [-99.866945, 35.213928], "type": "Point"}, "id": "8ji-T2Z6RfaGm3XjYyAEkMbtSNo=", "properties": {"@spider": "usps_collection_boxes", "addr:city": "ERICK", "addr:country": "US", "addr:full": "119 W 3RD ST", "addr:postcode": "73645", "addr:state": "OK", "amenity": "post_box", "brand": "United States Postal Service", "brand:wikidata": "Q668687", "collection_times": "Mo-Fr 16:00; Sa 10:15", "name": "USPS COLLECTION BOX - PO LOBBY", "note": "ON 12/24 AND 12/31, THIS BOX MAY BE COLLECTED AS EARLY AS 12 NOON.", "nsi_id": "unitedstatespostalservice-a77078", "operator": "United States Postal Service", "operator:short": "USPS", "operator:type": "public", "operator:wikidata": "Q668687", "ref": "7364500000"}, "type": "Feature"}
{"dataset_attributes": {"@spider": "usps_collection_boxes", "spider:collection_time": "2023-11-19T08:23:43.397954"}, "geometry": {"coordinates": [-99.866945, 35.213928], "type": "Point"}, "id": "lw9eJde4-r4TDpW06ssG1nSwZtY=", "properties": {"@spider": "usps_collection_boxes", "addr:city": "ERICK", "addr:country": "US", "addr:full": "119 W 3RD ST", "addr:postcode": "73645", "addr:state": "OK", "amenity": "post_box", "brand": "United States Postal Service", "brand:wikidata": "Q668687", "collection_times": "Mo-Fr 16:00; Sa 10:15", "name": "USPS COLLECTION BOX - PO LOBBY", "note": "ON 12/24 AND 12/31, THIS BOX MAY BE COLLECTED AS EARLY AS 12 NOON.", "nsi_id": "unitedstatespostalservice-a77078", "operator": "United States Postal Service", "operator:short": "USPS", "operator:type": "public", "operator:wikidata": "Q668687", "ref": "7364500001"}, "type": "Feature"}
{"dataset_attributes": {"@spider": "usps_collection_boxes", "spider:collection_time": "2023-11-19T08:23:43.397954"}, "geometry": {"coordinates": [-99.866945, 35.213928], "type": "Point"}, "id": "EndhK8WLac-a8T8YqpvOTqdsKXs=", "properties": {"@spider": "usps_collection_boxes", "addr:city": "ERICK", "addr:country": "US", "addr:full": "119 W 3RD ST", "addr:postcode": "73645", "addr:state": "OK", "amenity": "post_box", "brand": "United States Postal Service", "brand:wikidata": "Q668687", "collection_times": "Mo-Fr 16:00; Sa 10:15", "name": "USPS COLLECTION BOX - BLUE BOX", "note": "ON 12/24 AND 12/31, THIS BOX MAY BE COLLECTED AS EARLY AS 12 NOON.", "nsi_id": "unitedstatespostalservice-a77078", "operator": "United States Postal Service", "operator:short": "USPS", "operator:type": "public", "operator:wikidata": "Q668687", "ref": "7364500003"}, "type": "Feature"}
{"dataset_attributes": {"@spider": "usps_collection_boxes", "spider:collection_time": "2023-11-19T08:23:43.397954"}, "geometry": {"coordinates": [-99.866927218, 35.213963019], "type": "Point"}, "id": "HZAzvGIn3YSsD0sl-62OGFgR_dY=", "properties": {"@spider": "usps_collection_boxes", "addr:city": "ERICK", "addr:country": "US", "addr:full": "119 W 3RD ST", "addr:postcode": "73645", "addr:state": "OK", "amenity": "post_box", "brand": "United States Postal Service", "brand:wikidata": "Q668687", "collection_times": "Mo-Fr 16:15; Sa 10:30", "name": "USPS COLLECTION BOX - PO LOBBY", "note": "ON 12/24 AND 12/31, THIS BOX MAY BE COLLECTED AS EARLY AS 12 NOON.", "nsi_id": "unitedstatespostalservice-a77078", "operator": "United States Postal Service", "operator:short": "USPS", "operator:type": "public", "operator:wikidata": "Q668687", "ref": "7364500004"}, "type": "Feature"}
{"dataset_attributes": {"@spider": "usps_collection_boxes", "spider:collection_time": "2023-11-19T08:23:43.397954"}, "geometry": {"coordinates": [-98.6805455787, 35.8354650683], "type": "Point"}, "id": "Wt5sOdsH7Iqtzbmvmk8RkMtwxvM=", "properties": {"@spider": "usps_collection_boxes", "addr:city": "FAY", "addr:country": "US", "addr:full": "120 N CUSTER ST", "addr:postcode": "73646", "addr:state": "OK", "amenity": "post_box", "brand": "United States Postal Service", "brand:wikidata": "Q668687", "collection_times": "Mo-Fr 15:45; Sa 12:45", "name": "USPS COLLECTION BOX - PO LOBBY", "note": "ON 12/24 AND 12/31, THIS BOX MAY BE COLLECTED AS EARLY AS 12 NOON.", "nsi_id": "unitedstatespostalservice-a77078", "operator": "United States Postal Service", "operator:short": "USPS", "operator:type": "public", "operator:wikidata": "Q668687", "ref": "7364600001"}, "type": "Feature"}
{"dataset_attributes": {"@spider": "usps_collection_boxes", "spider:collection_time": "2023-11-19T08:23:43.397954"}, "geometry": {"coordinates": [-98.6805455787, 35.8354650683], "type": "Point"}, "id": "lr36pDHDQNFTVLbW2x-oahMM4dY=", "properties": {"@spider": "usps_collection_boxes", "addr:city": "FAY", "addr:country": "US", "addr:full": "120 N CUSTER ST", "addr:postcode": "73646", "addr:state": "OK", "amenity": "post_box", "brand": "United States Postal Service", "brand:wikidata": "Q668687", "collection_times": "Mo-Fr 15:45; Sa 12:45", "name": "USPS COLLECTION BOX - PO LOBBY", "note": "ON 12/24 AND 12/31, THIS BOX MAY BE COLLECTED AS EARLY AS 12 NOON.", "nsi_id": "unitedstatespostalservice-a77078", "operator": "United States Postal Service", "operator:short": "USPS", "operator:type": "public", "operator:wikidata": "Q668687", "ref": "7364600002"}, "type": "Feature"}
{"dataset_attributes": {"@spider": "usps_collection_boxes", "spider:collection_time": "2023-11-19T08:23:43.397954"}, "geometry": {"coordinates": [-98.6558699, 35.8135199], "type": "Point"}, "id": "kxtwMPRcW1B39aDoIGExBxzqN4A=", "properties": {"@spider": "usps_collection_boxes", "addr:city": "FAY", "addr:country": "US", "addr:full": "82880 CUSTER", "addr:postcode": "73646", "addr:state": "OK", "amenity": "post_box", "brand": "United States Postal Service", "brand:wikidata": "Q668687", "collection_times": "Mo-Fr 16:00; Sa 13:00", "name": "USPS COLLECTION BOX - PO LOBBY", "note": "ON 12/24 AND 12/31, THIS BOX MAY BE COLLECTED AS EARLY AS 12 NOON.", "nsi_id": "unitedstatespostalservice-a77078", "operator": "United States Postal Service", "operator:short": "USPS", "operator:type": "public", "operator:wikidata": "Q668687", "ref": "7364600003"}, "type": "Feature"}
{"dataset_attributes": {"@spider": "usps_collection_boxes", "spider:collection_time": "2023-11-19T08:23:43.397954"}, "geometry": {"coordinates": [-99.1701776964, 35.4557252515], "type": "Point"}, "id": "LNFDgvg6CgsvU-QxMUdDVy1Xc5o=", "properties": {"@spider": "usps_collection_boxes", "addr:city": "FOSS", "addr:country": "US", "addr:full": "302 E BROADWAY ST", "addr:postcode": "73647", "addr:state": "OK", "amenity": "post_box", "brand": "United States Postal Service", "brand:wikidata": "Q668687", "collection_times": "Mo-Fr 11:45; Sa 08:00", "name": "USPS COLLECTION BOX - PO LOBBY", "nsi_id": "unitedstatespostalservice-a77078", "operator": "United States Postal Service", "operator:short": "USPS", "operator:type": "public", "operator:wikidata": "Q668687", "ref": "7364700002"}, "type": "Feature"}
{"dataset_attributes": {"@spider": "usps_collection_boxes", "spider:collection_time": "2023-11-19T08:23:43.397954"}, "geometry": {"coordinates": [-99.1701776964, 35.4557252515], "type": "Point"}, "id": "vc67-pcnQ15PMrLlTrXVjfVRkA4=", "properties": {"@spider": "usps_collection_boxes", "addr:city": "FOSS", "addr:country": "US", "addr:full": "302 E BROADWAY ST", "addr:postcode": "73647", "addr:state": "OK", "amenity": "post_box", "brand": "United States Postal Service", "brand:wikidata": "Q668687", "collection_times": "Mo-Fr 11:45; Sa 08:00", "name": "USPS COLLECTION BOX - PO LOBBY", "nsi_id": "unitedstatespostalservice-a77078", "operator": "United States Postal Service", "operator:short": "USPS", "operator:type": "public", "operator:wikidata": "Q668687", "ref": "7364700003"}, "type": "Feature"}
{"dataset_attributes": {"@spider": "usps_collection_boxes", "spider:collection_time": "2023-11-19T08:23:43.397954"}, "geometry": {"coordinates": [-99.1701776964, 35.4557252515], "type": "Point"}, "id": "odcC-PCYTOv8ijMxqiegpRECALQ=", "properties": {"@spider": "usps_collection_boxes", "addr:city": "FOSS", "addr:country": "US", "addr:full": "302 E BROADWAY ST", "addr:postcode": "73647", "addr:state": "OK", "amenity": "post_box", "brand": "United States Postal Service", "brand:wikidata": "Q668687", "collection_times": "Mo-Fr 12:00; Sa 08:30", "name": "USPS COLLECTION BOX - PO LOBBY", "nsi_id": "unitedstatespostalservice-a77078", "operator": "United States Postal Service", "operator:short": "USPS", "operator:type": "public", "operator:wikidata": "Q668687", "ref": "7364700004"}, "type": "Feature"}
{"dataset_attributes": {"@spider": "usps_collection_boxes", "spider:collection_time": "2023-11-19T08:23:43.397954"}, "geometry": {"coordinates": [-99.376927, 35.632841], "type": "Point"}, "id": "o9_GdT9SiMiigQsRQnqzpf30sEo=", "properties": {"@spider": "usps_collection_boxes", "addr:city": "HAMMON", "addr:country": "US", "addr:full": "701 MAIN ST", "addr:postcode": "73650", "addr:state": "OK", "amenity": "post_box", "brand": "United States Postal Service", "brand:wikidata": "Q668687", "collection_times": "Mo-Fr 15:30; Sa 07:30", "name": "USPS COLLECTION BOX - PO LOBBY", "note": "ON 12/24 AND 12/31, THIS BOX MAY BE COLLECTED AS EARLY AS 12 NOON.", "nsi_id": "unitedstatespostalservice-a77078", "operator": "United States Postal Service", "operator:short": "USPS", "operator:type": "public", "operator:wikidata": "Q668687", "ref": "7365000001"}, "type": "Feature"}
{"dataset_attributes": {"@spider": "usps_collection_boxes", "spider:collection_time": "2023-11-19T08:23:43.397954"}, "geometry": {"coordinates": [-99.381727, 35.632814], "type": "Point"}, "id": "c2QpcxzaY8oEafhDMTkZds304kk=", "properties": {"@spider": "usps_collection_boxes", "addr:city": "HAMMON", "addr:country": "US", "addr:full": "701 MAIN ST", "addr:postcode": "73650", "addr:state": "OK", "amenity": "post_box", "brand": "United States Postal Service", "brand:wikidata": "Q668687", "collection_times": "Mo-Fr 15:30; Sa 07:30", "name": "USPS COLLECTION BOX - PO LOBBY", "note": "ON 12/24 AND 12/31, THIS BOX MAY BE COLLECTED AS EARLY AS 12 NOON.", "nsi_id": "unitedstatespostalservice-a77078", "operator": "United States Postal Service", "operator:short": "USPS", "operator:type": "public", "operator:wikidata": "Q668687", "ref": "7365000002"}, "type": "Feature"}
{"dataset_attributes": {"@spider": "usps_collection_boxes", "spider:collection_time": "2023-11-19T08:23:43.397954"}, "geometry": {"coordinates": [-99.381631332, 35.632832468], "type": "Point"}, "id": "P9nTnL7kZ-BsenqDdKdhzi4i8Cw=", "properties": {"@spider": "usps_collection_boxes", "addr:city": "HAMMON", "addr:country": "US", "addr:full": "701 MAIN ST", "addr:postcode": "73650", "addr:state": "OK", "amenity": "post_box", "brand": "United States Postal Service", "brand:wikidata": "Q668687", "collection_times": "Mo-Fr 15:45; Sa 09:15", "name": "USPS COLLECTION BOX - PO LOBBY", "note": "ON 12/24 AND 12/31, THIS BOX MAY BE COLLECTED AS EARLY AS 12 NOON.", "nsi_id": "unitedstatespostalservice-a77078", "operator": "United States Postal Service", "operator:short": "USPS", "operator:type": "public", "operator:wikidata": "Q668687", "ref": "7365000003"}, "type": "Feature"}
{"dataset_attributes": {"@spider": "usps_collection_boxes", "spider:collection_time": "2023-11-19T08:23:43.397954"}, "geometry": {"coordinates": [-99.093244, 35.026038], "type": "Point"}, "id": "56Ro72dw3lPV948DTPhBSZeJv88=", "properties": {"@spider": "usps_collection_boxes", "addr:city": "HOBART", "addr:country": "US", "addr:full": "229 S MAIN ST", "addr:postcode": "73651", "addr:state": "OK", "amenity": "post_box", "brand": "United States Postal Service", "brand:wikidata": "Q668687", "collection_times": "Mo-Fr 16:15; Sa 11:30", "name": "USPS COLLECTION BOX - BLUE BOX", "note": "ON 12/24 AND 12/31, THIS BOX MAY BE COLLECTED AS EARLY AS 12 NOON.", "nsi_id": "unitedstatespostalservice-a77078", "operator": "United States Postal Service", "operator:short": "USPS", "operator:type": "public", "operator:wikidata": "Q668687", "ref": "7365100000"}, "type": "Feature"}
{"dataset_attributes": {"@spider": "usps_collection_boxes", "spider:collection_time": "2023-11-19T08:23:43.397954"}, "geometry": {"coordinates": [-99.093244, 35.026038], "type": "Point"}, "id": "KJnlS-xdsM_qptdfXmydGA1TbXw=", "properties": {"@spider": "usps_collection_boxes", "addr:city": "HOBART", "addr:country": "US", "addr:full": "229 S MAIN ST", "addr:postcode": "73651", "addr:state": "OK", "amenity": "post_box", "brand": "United States Postal Service", "brand:wikidata": "Q668687", "collection_times": "Mo-Fr 16:15; Sa 11:30", "name": "USPS COLLECTION BOX - BLUE BOX", "note": "ON 12/24 AND 12/31, THIS BOX MAY BE COLLECTED AS EARLY AS 12 NOON.", "nsi_id": "unitedstatespostalservice-a77078", "operator": "United States Postal Service", "operator:short": "USPS", "operator:type": "public", "operator:wikidata": "Q668687", "ref": "7365100001"}, "type": "Feature"}
{"dataset_attributes": {"@spider": "usps_collection_boxes", "spider:collection_time": "2023-11-19T08:23:43.397954"}, "geometry": {"coordinates": [-99.093244, 35.026038], "type": "Point"}, "id": "r_zWkUhA7Zmr3eQkiWx0uAEQCBc=", "properties": {"@spider": "usps_collection_boxes", "addr:city": "HOBART", "addr:country": "US", "addr:full": "229 S MAIN ST", "addr:postcode": "73651", "addr:state": "OK", "amenity": "post_box", "brand": "United States Postal Service", "brand:wikidata": "Q668687", "collection_times": "Mo-Fr 16:15; Sa 11:30", "name": "USPS COLLECTION BOX - PO LOBBY", "note": "ON 12/24 AND 12/31, THIS BOX MAY BE COLLECTED AS EARLY AS 12 NOON.", "nsi_id": "unitedstatespostalservice-a77078", "operator": "United States Postal Service", "operator:short": "USPS", "operator:type": "public", "operator:wikidata": "Q668687", "ref": "7365100002"}, "type": "Feature"}
{"dataset_attributes": {"@spider": "usps_collection_boxes", "spider:collection_time": "2023-11-19T08:23:43.397954"}, "geometry": {"coordinates": [-99.093244, 35.026038], "type": "Point"}, "id": "ZuHc05YZecTUXPaqNnn5zBdlJVA=", "properties": {"@spider": "usps_collection_boxes", "addr:city": "HOBART", "addr:country": "US", "addr:full": "229 S MAIN ST", "addr:postcode": "73651", "addr:state": "OK", "amenity": "post_box", "brand": "United States Postal Service", "brand:wikidata": "Q668687", "collection_times": "Mo-Fr 16:15; Sa 11:30", "name": "USPS COLLECTION BOX - PO LOBBY", "note": "ON 12/24 AND 12/31, THIS BOX MAY BE COLLECTED AS EARLY AS 12 NOON.", "nsi_id": "unitedstatespostalservice-a77078", "operator": "United States Postal Service", "operator:short": "USPS", "operator:type": "public", "operator:wikidata": "Q668687", "ref": "7365100003"}, "type": "Feature"}
{"dataset_attributes": {"@spider": "usps_collection_boxes", "spider:collection_time": "2023-11-19T08:23:43.397954"}, "geometry": {"coordinates": [-99.093246007, 35.026145969], "type": "Point"}, "id": "FxwduzT49QIq4Cq9aQ0M1lQqblE=", "properties": {"@spider": "usps_collection_boxes", "addr:city": "HOBART", "addr:country": "US", "addr:full": "229 S MAIN ST", "addr:postcode": "73651", "addr:state": "OK", "amenity": "post_box", "brand": "United States Postal Service", "brand:wikidata": "Q668687", "collection_times": "Mo-Fr 16:30; Sa 11:00", "name": "USPS COLLECTION BOX - PO LOBBY", "note": "ON 12/24 AND 12/31, THIS BOX MAY BE COLLECTED AS EARLY AS 12 NOON.", "nsi_id": "unitedstatespostalservice-a77078", "operator": "United States Postal Service", "operator:short": "USPS", "operator:type": "public", "operator:wikidata": "Q668687", "ref": "7365100004"}, "type": "Feature"}
{"dataset_attributes": {"@spider": "usps_collection_boxes", "spider:collection_time": "2023-11-19T08:23:43.397954"}, "geometry": {"coordinates": [-99.347273, 35.868772], "type": "Point"}, "id": "FQ6WG-zcw2C9z7o9cLI4z7KuIio=", "properties": {"@spider": "usps_collection_boxes", "addr:city": "LEEDEY", "addr:country": "US", "addr:full": "515 S MAIN ST", "addr:postcode": "73654", "addr:state": "OK", "amenity": "post_box", "brand": "United States Postal Service", "brand:wikidata": "Q668687", "collection_times": "Mo-Fr 14:00; Sa 09:30", "name": "USPS COLLECTION BOX - BLUE BOX", "note": "ON 12/24 AND 12/31, THIS BOX MAY BE COLLECTED AS EARLY AS 12 NOON.", "nsi_id": "unitedstatespostalservice-a77078", "operator": "United States Postal Service", "operator:short": "USPS", "operator:type": "public", "operator:wikidata": "Q668687", "ref": "7365400000"}, "type": "Feature"}
{"dataset_attributes": {"@spider": "usps_collection_boxes", "spider:collection_time": "2023-11-19T08:23:43.397954"}, "geometry": {"coordinates": [-99.347273, 35.868772], "type": "Point"}, "id": "r7dgqdCZgw2o8spSCkBHXx4Qofo=", "properties": {"@spider": "usps_collection_boxes", "addr:city": "LEEDEY", "addr:country": "US", "addr:full": "515 S MAIN ST", "addr:postcode": "73654", "addr:state": "OK", "amenity": "post_box", "brand": "United States Postal Service", "brand:wikidata": "Q668687", "collection_times": "Mo-Fr 13:45; Sa 09:30", "name": "USPS COLLECTION BOX - PO LOBBY", "note": "ON 12/24 AND 12/31, THIS BOX MAY BE COLLECTED AS EARLY AS 12 NOON.", "nsi_id": "unitedstatespostalservice-a77078", "operator": "United States Postal Service", "operator:short": "USPS", "operator:type": "public", "operator:wikidata": "Q668687", "ref": "7365400001"}, "type": "Feature"}
{"dataset_attributes": {"@spider": "usps_collection_boxes", "spider:collection_time": "2023-11-19T08:23:43.397954"}, "geometry": {"coordinates": [-99.347273, 35.868772], "type": "Point"}, "id": "Vtc_PF8tJfUCSHEsSl_JkPCN8Ho=", "properties": {"@spider": "usps_collection_boxes", "addr:city": "LEEDEY", "addr:country": "US", "addr:full": "515 S MAIN ST", "addr:postcode": "73654", "addr:state": "OK", "amenity": "post_box", "brand": "United States Postal Service", "brand:wikidata": "Q668687", "collection_times": "Mo-Fr 13:45; Sa 09:30", "name": "USPS COLLECTION BOX - PO LOBBY", "note": "ON 12/24 AND 12/31, THIS BOX MAY BE COLLECTED AS EARLY AS 12 NOON.", "nsi_id": "unitedstatespostalservice-a77078", "operator": "United States Postal Service", "operator:short": "USPS", "operator:type": "public", "operator:wikidata": "Q668687", "ref": "7365400002"}, "type": "Feature"}
{"dataset_attributes": {"@spider": "usps_collection_boxes", "spider:collection_time": "2023-11-19T08:23:43.397954"}, "geometry": {"coordinates": [-99.347250955, 35.86879218], "type": "Point"}, "id": "XuSlm7ZS7uVkqpgDzmCtbIaMFlg=", "properties": {"@spider": "usps_collection_boxes", "addr:city": "LEEDEY", "addr:country": "US", "addr:full": "515 S MAIN ST", "addr:postcode": "73654", "addr:state": "OK", "amenity": "post_box", "brand": "United States Postal Service", "brand:wikidata": "Q668687", "collection_times": "Mo-Fr 14:00; Sa 09:30", "name": "USPS COLLECTION BOX - PO LOBBY", "note": "ON 12/24 AND 12/31, THIS BOX MAY BE COLLECTED AS EARLY AS 12 NOON.", "nsi_id": "unitedstatespostalservice-a77078", "operator": "United States Postal Service", "operator:short": "USPS", "operator:type": "public", "operator:wikidata": "Q668687", "ref": "7365400003"}, "type": "Feature"}
{"dataset_attributes": {"@spider": "usps_collection_boxes", "spider:collection_time": "2023-11-19T08:23:43.397954"}, "geometry": {"coordinates": [-99.248435, 34.989536], "type": "Point"}, "id": "X8Ep8HHJvXx2UUauwnzRyCTUovE=", "properties": {"@spider": "usps_collection_boxes", "addr:city": "LONE WOLF", "addr:country": "US", "addr:full": "1024 MAIN ST", "addr:postcode": "73655", "addr:state": "OK", "amenity": "post_box", "brand": "United States Postal Service", "brand:wikidata": "Q668687", "collection_times": "Mo-Fr 15:30; Sa 09:30", "name": "USPS COLLECTION BOX - BLUE BOX", "note": "ON 12/24 AND 12/31, THIS BOX MAY BE COLLECTED AS EARLY AS 12 NOON.", "nsi_id": "unitedstatespostalservice-a77078", "operator": "United States Postal Service", "operator:short": "USPS", "operator:type": "public", "operator:wikidata": "Q668687", "ref": "7365500000"}, "type": "Feature"}
{"dataset_attributes": {"@spider": "usps_collection_boxes", "spider:collection_time": "2023-11-19T08:23:43.397954"}, "geometry": {"coordinates": [-99.248435, 34.989536], "type": "Point"}, "id": "tToCo5BOUwx_-FL9DURfyGlH5Oc=", "properties": {"@spider": "usps_collection_boxes", "addr:city": "LONE WOLF", "addr:country": "US", "addr:full": "1024 MAIN ST", "addr:postcode": "73655", "addr:state": "OK", "amenity": "post_box", "brand": "United States Postal Service", "brand:wikidata": "Q668687", "collection_times": "Mo-Fr 15:30; Sa 09:30", "name": "USPS COLLECTION BOX - PO LOBBY", "note": "ON 12/24 AND 12/31, THIS BOX MAY BE COLLECTED AS EARLY AS 12 NOON.", "nsi_id": "unitedstatespostalservice-a77078", "operator": "United States Postal Service", "operator:short": "USPS", "operator:type": "public", "operator:wikidata": "Q668687", "ref": "7365500004"}, "type": "Feature"}
{"dataset_attributes": {"@spider": "usps_collection_boxes", "spider:collection_time": "2023-11-19T08:23:43.397954"}, "geometry": {"coordinates": [-99.248415974, 34.989484673], "type": "Point"}, "id": "9v8qp0igAX1xsI0L14wgpiplpxI=", "properties": {"@spider": "usps_collection_boxes", "addr:city": "LONE WOLF", "addr:country": "US", "addr:full": "1024 MAIN ST", "addr:postcode": "73655", "addr:state": "OK", "amenity": "post_box", "brand": "United States Postal Service", "brand:wikidata": "Q668687", "collection_times": "Mo-Fr 16:00; Sa 10:00", "name": "USPS COLLECTION BOX - PO LOBBY", "note": "ON 12/24 AND 12/31, THIS BOX MAY BE COLLECTED AS EARLY AS 12 NOON.", "nsi_id": "unitedstatespostalservice-a77078", "operator": "United States Postal Service", "operator:short": "USPS", "operator:type": "public", "operator:wikidata": "Q668687", "ref": "7365500006"}, "type": "Feature"}
{"dataset_attributes": {"@spider": "usps_collection_boxes", "spider:collection_time": "2023-11-19T08:23:43.397954"}, "geometry": {"coordinates": [-98.7170640158, 35.910971267], "type": "Point"}, "id": "kRbamlEBoKhh8iBCiLbWFM9tEDo=", "properties": {"@spider": "usps_collection_boxes", "addr:city": "OAKWOOD", "addr:country": "US", "addr:full": "102 S MISSOURI ST", "addr:postcode": "73658", "addr:state": "OK", "amenity": "post_box", "brand": "United States Postal Service", "brand:wikidata": "Q668687", "collection_times": "Mo-Fr 09:45; Sa 09:30", "name": "USPS COLLECTION BOX - BLUE BOX", "nsi_id": "unitedstatespostalservice-a77078", "operator": "United States Postal Service", "operator:short": "USPS", "operator:type": "public", "operator:wikidata": "Q668687", "ref": "7365800000"}, "type": "Feature"}
{"dataset_attributes": {"@spider": "usps_collection_boxes", "spider:collection_time": "2023-11-19T08:23:43.397954"}, "geometry": {"coordinates": [-98.7170640158, 35.910971267], "type": "Point"}, "id": "q0L2ScHJAz3Z_nJ3znYIrzmqja8=", "properties": {"@spider": "usps_collection_boxes", "addr:city": "OAKWOOD", "addr:country": "US", "addr:full": "102 S MISSOURI ST", "addr:postcode": "73658", "addr:state": "OK", "amenity": "post_box", "brand": "United States Postal Service", "brand:wikidata": "Q668687", "collection_times": "Mo-Fr 09:45; Sa 09:30", "name": "USPS COLLECTION BOX - PO LOBBY", "nsi_id": "unitedstatespostalservice-a77078", "operator": "United States Postal Service", "operator:short": "USPS", "operator:type": "public", "operator:wikidata": "Q668687", "ref": "7365800001"}, "type": "Feature"}
{"dataset_attributes": {"@spider": "usps_collection_boxes", "spider:collection_time": "2023-11-19T08:23:43.397954"}, "geometry": {"coordinates": [-98.7170640158, 35.910971267], "type": "Point"}, "id": "W-B0ea2MPE5IcuqWJBCFc9ZQFd0=", "properties": {"@spider": "usps_collection_boxes", "addr:city": "OAKWOOD", "addr:country": "US", "addr:full": "102 S MISSOURI ST", "addr:postcode": "73658", "addr:state": "OK", "amenity": "post_box", "brand": "United States Postal Service", "brand:wikidata": "Q668687", "collection_times": "Mo-Fr 09:45; Sa 09:30", "name": "USPS COLLECTION BOX - PO LOBBY", "nsi_id": "unitedstatespostalservice-a77078", "operator": "United States Postal Service", "operator:short": "USPS", "operator:type": "public", "operator:wikidata": "Q668687", "ref": "7365800002"}, "type": "Feature"}
{"dataset_attributes": {"@spider": "usps_collection_boxes", "spider:collection_time": "2023-11-19T08:23:43.397954"}, "geometry": {"coordinates": [-98.706468934, 35.931953899], "type": "Point"}, "id": "T7RUlxFvk_CIe4sdV07zHtIVnBc=", "properties": {"@spider": "usps_collection_boxes", "addr:city": "OAKWOOD", "addr:country": "US", "addr:full": "102 S MISSOURI ST", "addr:postcode": "73658", "addr:state": "OK", "amenity": "post_box", "brand": "United States Postal Service", "brand:wikidata": "Q668687", "collection_times": "Mo-Fr 10:00; Sa 09:30", "name": "USPS COLLECTION BOX - PO LOBBY", "nsi_id": "unitedstatespostalservice-a77078", "operator": "United States Postal Service", "operator:short": "USPS", "operator:type": "public", "operator:wikidata": "Q668687", "ref": "7365800003"}, "type": "Feature"}
{"dataset_attributes": {"@spider": "usps_collection_boxes", "spider:collection_time": "2023-11-19T08:23:43.397954"}, "geometry": {"coordinates": [-99.919208, 35.653638], "type": "Point"}, "id": "C7918LWQY4HBfNKqaxcEFP1WKmU=", "properties": {"@spider": "usps_collection_boxes", "addr:city": "REYDON", "addr:country": "US", "addr:full": "202 2ND AVE", "addr:postcode": "73660", "addr:state": "OK", "amenity": "post_box", "brand": "United States Postal Service", "brand:wikidata": "Q668687", "collection_times": "Mo-Fr 11:45; Sa 09:45", "name": "USPS COLLECTION BOX - PO LOBBY", "nsi_id": "unitedstatespostalservice-a77078", "operator": "United States Postal Service", "operator:short": "USPS", "operator:type": "public", "operator:wikidata": "Q668687", "ref": "7366000001"}, "type": "Feature"}
{"dataset_attributes": {"@spider": "usps_collection_boxes", "spider:collection_time": "2023-11-19T08:23:43.397954"}, "geometry": {"coordinates": [-99.919208, 35.653638], "type": "Point"}, "id": "uRR7C-I6Qmi8DD428W462bAmH2A=", "properties": {"@spider": "usps_collection_boxes", "addr:city": "REYDON", "addr:country": "US", "addr:full": "202 2ND AVE", "addr:postcode": "73660", "addr:state": "OK", "amenity": "post_box", "brand": "United States Postal Service", "brand:wikidata": "Q668687", "collection_times": "Mo-Fr 11:45; Sa 09:45", "name": "USPS COLLECTION BOX - PO LOBBY", "nsi_id": "unitedstatespostalservice-a77078", "operator": "United States Postal Service", "operator:short": "USPS", "operator:type": "public", "operator:wikidata": "Q668687", "ref": "7366000002"}, "type": "Feature"}
{"dataset_attributes": {"@spider": "usps_collection_boxes", "spider:collection_time": "2023-11-19T08:23:43.397954"}, "geometry": {"coordinates": [-99.921476275, 35.653698], "type": "Point"}, "id": "Svjk59TBU1O5AxdmDnHryyh1mwM=", "properties": {"@spider": "usps_collection_boxes", "addr:city": "REYDON", "addr:country": "US", "addr:full": "202 2ND AVE", "addr:postcode": "73660", "addr:state": "OK", "amenity": "post_box", "brand": "United States Postal Service", "brand:wikidata": "Q668687", "collection_times": "Mo-Fr 12:00; Sa 09:30", "name": "USPS COLLECTION BOX - PO LOBBY", "nsi_id": "unitedstatespostalservice-a77078", "operator": "United States Postal Service", "operator:short": "USPS", "operator:type": "public", "operator:wikidata": "Q668687", "ref": "7366000003"}, "type": "Feature"}
{"dataset_attributes": {"@spider": "usps_collection_boxes", "spider:collection_time": "2023-11-19T08:23:43.397954"}, "geometry": {"coordinates": [-99.060575, 35.15607], "type": "Point"}, "id": "GL3-tj2Bzlt8x9LmTinVxHooWOo=", "properties": {"@spider": "usps_collection_boxes", "addr:city": "ROCKY", "addr:country": "US", "addr:full": "313 MAIN ST", "addr:postcode": "73661", "addr:state": "OK", "amenity": "post_box", "brand": "United States Postal Service", "brand:wikidata": "Q668687", "collection_times": "Mo-Fr 16:00; Sa 10:15", "name": "USPS COLLECTION BOX - BLUE BOX", "note": "ON 12/24 AND 12/31, THIS BOX MAY BE COLLECTED AS EARLY AS 12 NOON.", "nsi_id": "unitedstatespostalservice-a77078", "operator": "United States Postal Service", "operator:short": "USPS", "operator:type": "public", "operator:wikidata": "Q668687", "ref": "7366100000"}, "type": "Feature"}
{"dataset_attributes": {"@spider": "usps_collection_boxes", "spider:collection_time": "2023-11-19T08:23:43.397954"}, "geometry": {"coordinates": [-99.060575, 35.15607], "type": "Point"}, "id": "vOOz2DmBqyAImVL5SDMdVKfgD9I=", "properties": {"@spider": "usps_collection_boxes", "addr:city": "ROCKY", "addr:country": "US", "addr:full": "313 MAIN ST", "addr:postcode": "73661", "addr:state": "OK", "amenity": "post_box", "brand": "United States Postal Service", "brand:wikidata": "Q668687", "collection_times": "Mo-Fr 16:00; Sa 10:15", "name": "USPS COLLECTION BOX - PO LOBBY", "note": "ON 12/24 AND 12/31, THIS BOX MAY BE COLLECTED AS EARLY AS 12 NOON.", "nsi_id": "unitedstatespostalservice-a77078", "operator": "United States Postal Service", "operator:short": "USPS", "operator:type": "public", "operator:wikidata": "Q668687", "ref": "7366100001"}, "type": "Feature"}
{"dataset_attributes": {"@spider": "usps_collection_boxes", "spider:collection_time": "2023-11-19T08:23:43.397954"}, "geometry": {"coordinates": [-99.060575, 35.15607], "type": "Point"}, "id": "cZtq72JwEtFV3r3kPZSFRj3gBvI=", "properties": {"@spider": "usps_collection_boxes", "addr:city": "ROCKY", "addr:country": "US", "addr:full": "313 MAIN ST", "addr:postcode": "73661", "addr:state": "OK", "amenity": "post_box", "brand": "United States Postal Service", "brand:wikidata": "Q668687", "collection_times": "Mo-Fr 16:00; Sa 10:15", "name": "USPS COLLECTION BOX - PO LOBBY", "note": "ON 12/24 AND 12/31, THIS BOX MAY BE COLLECTED AS EARLY AS 12 NOON.", "nsi_id": "unitedstatespostalservice-a77078", "operator": "United States Postal Service", "operator:short": "USPS", "operator:type": "public", "operator:wikidata": "Q668687", "ref": "7366100002"}, "type": "Feature"}
{"dataset_attributes": {"@spider": "usps_collection_boxes", "spider:collection_time": "2023-11-19T08:23:43.397954"}, "geometry": {"coordinates": [-99.060576153, 35.156124], "type": "Point"}, "id": "fAUpNx2sECKOxwtzDJsP4UOSicU=", "properties": {"@spider": "usps_collection_boxes", "addr:city": "ROCKY", "addr:country": "US", "addr:full": "313 MAIN ST", "addr:postcode": "73661", "addr:state": "OK", "amenity": "post_box", "brand": "United States Postal Service", "brand:wikidata": "Q668687", "collection_times": "Mo-Fr 16:00; Sa 11:00", "name": "USPS COLLECTION BOX - PO LOBBY", "note": "ON 12/24 AND 12/31, THIS BOX MAY BE COLLECTED AS EARLY AS 12 NOON.", "nsi_id": "unitedstatespostalservice-a77078", "operator": "United States Postal Service", "operator:short": "USPS", "operator:type": "public", "operator:wikidata": "Q668687", "ref": "7366100003"}, "type": "Feature"}
{"dataset_attributes": {"@spider": "usps_collection_boxes", "spider:collection_time": "2023-11-19T08:23:43.397954"}, "geometry": {"coordinates": [-99.640034, 35.29263], "type": "Point"}, "id": "Mn1SPJG1_m531AEb2RnGrgz5Q6M=", "properties": {"@spider": "usps_collection_boxes", "addr:city": "SAYRE", "addr:country": "US", "addr:full": "201 N 4TH ST", "addr:postcode": "73662", "addr:state": "OK", "amenity": "post_box", "brand": "United States Postal Service", "brand:wikidata": "Q668687", "collection_times": "Mo-Fr 16:00; Sa 12:00", "name": "USPS COLLECTION BOX - BLUE BOX", "note": "ON 12/24 AND 12/31, THIS BOX MAY BE COLLECTED AS EARLY AS 12 NOON.", "nsi_id": "unitedstatespostalservice-a77078", "operator": "United States Postal Service", "operator:short": "USPS", "operator:type": "public", "operator:wikidata": "Q668687", "ref": "7366200000"}, "type": "Feature"}
{"dataset_attributes": {"@spider": "usps_collection_boxes", "spider:collection_time": "2023-11-19T08:23:43.397954"}, "geometry": {"coordinates": [-99.640034, 35.29263], "type": "Point"}, "id": "lGnYAo6F1yzIgYQ0csXMWcT0AsM=", "properties": {"@spider": "usps_collection_boxes", "addr:city": "SAYRE", "addr:country": "US", "addr:full": "201 N 4TH ST", "addr:postcode": "73662", "addr:state": "OK", "amenity": "post_box", "brand": "United States Postal Service", "brand:wikidata": "Q668687", "collection_times": "Mo-Fr 16:00; Sa 12:00", "name": "USPS COLLECTION BOX - PO LOBBY", "note": "ON 12/24 AND 12/31, THIS BOX MAY BE COLLECTED AS EARLY AS 12 NOON.", "nsi_id": "unitedstatespostalservice-a77078", "operator": "United States Postal Service", "operator:short": "USPS", "operator:type": "public", "operator:wikidata": "Q668687", "ref": "7366200002"}, "type": "Feature"}
{"dataset_attributes": {"@spider": "usps_collection_boxes", "spider:collection_time": "2023-11-19T08:23:43.397954"}, "geometry": {"coordinates": [-99.640034, 35.29263], "type": "Point"}, "id": "brTgzAdU1eemQOBkNPlcf7UKvbY=", "properties": {"@spider": "usps_collection_boxes", "addr:city": "SAYRE", "addr:country": "US", "addr:full": "201 N 4TH ST", "addr:postcode": "73662", "addr:state": "OK", "amenity": "post_box", "brand": "United States Postal Service", "brand:wikidata": "Q668687", "collection_times": "Mo-Fr 16:00; Sa 12:00", "name": "USPS COLLECTION BOX - BLUE BOX", "note": "ON 12/24 AND 12/31, THIS BOX MAY BE COLLECTED AS EARLY AS 12 NOON.", "nsi_id": "unitedstatespostalservice-a77078", "operator": "United States Postal Service", "operator:short": "USPS", "operator:type": "public", "operator:wikidata": "Q668687", "ref": "7366200003"}, "type": "Feature"}
{"dataset_attributes": {"@spider": "usps_collection_boxes", "spider:collection_time": "2023-11-19T08:23:43.397954"}, "geometry": {"coordinates": [-99.640034, 35.29263], "type": "Point"}, "id": "C0xaebzoJWnqx63S64Wshg7pnKA=", "properties": {"@spider": "usps_collection_boxes", "addr:city": "SAYRE", "addr:country": "US", "addr:full": "201 N 4TH ST", "addr:postcode": "73662", "addr:state": "OK", "amenity": "post_box", "brand": "United States Postal Service", "brand:wikidata": "Q668687", "collection_times": "Mo-Fr 16:00; Sa 12:00", "name": "USPS COLLECTION BOX - PO LOBBY", "note": "ON 12/24 AND 12/31, THIS BOX MAY BE COLLECTED AS EARLY AS 12 NOON.", "nsi_id": "unitedstatespostalservice-a77078", "operator": "United States Postal Service", "operator:short": "USPS", "operator:type": "public", "operator:wikidata": "Q668687", "ref": "7366200004"}, "type": "Feature"}
{"dataset_attributes": {"@spider": "usps_collection_boxes", "spider:collection_time": "2023-11-19T08:23:43.397954"}, "geometry": {"coordinates": [-99.640035678, 35.292662413], "type": "Point"}, "id": "X2WI9w5vbkzG0RvU5FxNdIN5xTE=", "properties": {"@spider": "usps_collection_boxes", "addr:city": "SAYRE", "addr:country": "US", "addr:full": "201 N 4TH ST", "addr:postcode": "73662", "addr:state": "OK", "amenity": "post_box", "brand": "United States Postal Service", "brand:wikidata": "Q668687", "collection_times": "Mo-Fr 16:30; Sa 12:00", "name": "USPS COLLECTION BOX - PO LOBBY", "note": "ON 12/24 AND 12/31, THIS BOX MAY BE COLLECTED AS EARLY AS 12 NOON.", "nsi_id": "unitedstatespostalservice-a77078", "operator": "United States Postal Service", "operator:short": "USPS", "operator:type": "public", "operator:wikidata": "Q668687", "ref": "7366200005"}, "type": "Feature"}
{"dataset_attributes": {"@spider": "usps_collection_boxes", "spider:collection_time": "2023-11-19T08:23:43.397954"}, "geometry": {"coordinates": [-98.923288, 36.147272], "type": "Point"}, "id": "Qq9MNwkdrjeEwZWLKMw9WI3KQHg=", "properties": {"@spider": "usps_collection_boxes", "addr:city": "SEILING", "addr:country": "US", "addr:full": "209 N WALNUT ST", "addr:postcode": "73663", "addr:state": "OK", "amenity": "post_box", "brand": "United States Postal Service", "brand:wikidata": "Q668687", "collection_times": "Mo-Fr 16:15; Sa 10:30", "name": "USPS COLLECTION BOX - BLUE BOX", "note": "ON 12/24 AND 12/31, THIS BOX MAY BE COLLECTED AS EARLY AS 12 NOON.", "nsi_id": "unitedstatespostalservice-a77078", "operator": "United States Postal Service", "operator:short": "USPS", "operator:type": "public", "operator:wikidata": "Q668687", "ref": "7366300001"}, "type": "Feature"}
{"dataset_attributes": {"@spider": "usps_collection_boxes", "spider:collection_time": "2023-11-19T08:23:43.397954"}, "geometry": {"coordinates": [-98.923288, 36.147272], "type": "Point"}, "id": "dp1w0PfdEEiMb51EdrGIlBLnu0c=", "properties": {"@spider": "usps_collection_boxes", "addr:city": "SEILING", "addr:country": "US", "addr:full": "209 N WALNUT ST", "addr:postcode": "73663", "addr:state": "OK", "amenity": "post_box", "brand": "United States Postal Service", "brand:wikidata": "Q668687", "collection_times": "Mo-Fr 16:15; Sa 10:30", "name": "USPS COLLECTION BOX - PO LOBBY", "note": "ON 12/24 AND 12/31, THIS BOX MAY BE COLLECTED AS EARLY AS 12 NOON.", "nsi_id": "unitedstatespostalservice-a77078", "operator": "United States Postal Service", "operator:short": "USPS", "operator:type": "public", "operator:wikidata": "Q668687", "ref": "7366300002"}, "type": "Feature"}
{"dataset_attributes": {"@spider": "usps_collection_boxes", "spider:collection_time": "2023-11-19T08:23:43.397954"}, "geometry": {"coordinates": [-98.923288, 36.147272], "type": "Point"}, "id": "zesNhy5MALQRXSwSBs794O7l41I=", "properties": {"@spider": "usps_collection_boxes", "addr:city": "SEILING", "addr:country": "US", "addr:full": "209 N WALNUT ST", "addr:postcode": "73663", "addr:state": "OK", "amenity": "post_box", "brand": "United States Postal Service", "brand:wikidata": "Q668687", "collection_times": "Mo-Fr 16:15; Sa 10:30", "name": "USPS COLLECTION BOX - PO LOBBY", "note": "ON 12/24 AND 12/31, THIS BOX MAY BE COLLECTED AS EARLY AS 12 NOON.", "nsi_id": "unitedstatespostalservice-a77078", "operator": "United States Postal Service", "operator:short": "USPS", "operator:type": "public", "operator:wikidata": "Q668687", "ref": "7366300003"}, "type": "Feature"}
{"dataset_attributes": {"@spider": "usps_collection_boxes", "spider:collection_time": "2023-11-19T08:23:43.397954"}, "geometry": {"coordinates": [-98.92329752, 36.147159587], "type": "Point"}, "id": "uJoTj4eMei5FtkbF02hULA5FEZs=", "properties": {"@spider": "usps_collection_boxes", "addr:city": "SEILING", "addr:country": "US", "addr:full": "209 N WALNUT ST", "addr:postcode": "73663", "addr:state": "OK", "amenity": "post_box", "brand": "United States Postal Service", "brand:wikidata": "Q668687", "collection_times": "Mo-Fr 16:15; Sa 11:00", "name": "USPS COLLECTION BOX - PO LOBBY", "note": "ON 12/24 AND 12/31, THIS BOX MAY BE COLLECTED AS EARLY AS 12 NOON.", "nsi_id": "unitedstatespostalservice-a77078", "operator": "United States Postal Service", "operator:short": "USPS", "operator:type": "public", "operator:wikidata": "Q668687", "ref": "7366300004"}, "type": "Feature"}
{"dataset_attributes": {"@spider": "usps_collection_boxes", "spider:collection_time": "2023-11-19T08:23:43.397954"}, "geometry": {"coordinates": [-99.175549, 35.158293], "type": "Point"}, "id": "JNrSNycBVnBlCol4FE2B5h0B1sE=", "properties": {"@spider": "usps_collection_boxes", "addr:city": "SENTINEL", "addr:country": "US", "addr:full": "312 E MAIN ST", "addr:postcode": "73664", "addr:state": "OK", "amenity": "post_box", "brand": "United States Postal Service", "brand:wikidata": "Q668687", "collection_times": "Mo-Fr 16:00; Sa 09:00", "name": "USPS COLLECTION BOX - BLUE BOX", "note": "ON 12/24 AND 12/31, THIS BOX MAY BE COLLECTED AS EARLY AS 12 NOON.", "nsi_id": "unitedstatespostalservice-a77078", "operator": "United States Postal Service", "operator:short": "USPS", "operator:type": "public", "operator:wikidata": "Q668687", "ref": "7366400000"}, "type": "Feature"}
{"dataset_attributes": {"@spider": "usps_collection_boxes", "spider:collection_time": "2023-11-19T08:23:43.397954"}, "geometry": {"coordinates": [-99.175549, 35.158293], "type": "Point"}, "id": "9uR-F10bvtbnKonDvXB7wC-N08o=", "properties": {"@spider": "usps_collection_boxes", "addr:city": "SENTINEL", "addr:country": "US", "addr:full": "312 E MAIN ST", "addr:postcode": "73664", "addr:state": "OK", "amenity": "post_box", "brand": "United States Postal Service", "brand:wikidata": "Q668687", "collection_times": "Mo-Fr 16:00; Sa 09:00", "name": "USPS COLLECTION BOX - PO LOBBY", "note": "ON 12/24 AND 12/31, THIS BOX MAY BE COLLECTED AS EARLY AS 12 NOON.", "nsi_id": "unitedstatespostalservice-a77078", "operator": "United States Postal Service", "operator:short": "USPS", "operator:type": "public", "operator:wikidata": "Q668687", "ref": "7366400001"}, "type": "Feature"}
{"dataset_attributes": {"@spider": "usps_collection_boxes", "spider:collection_time": "2023-11-19T08:23:43.397954"}, "geometry": {"coordinates": [-99.175579204, 35.158239604], "type": "Point"}, "id": "3sBvTMVxXpTbDhXOQX1-5DHR6uQ=", "properties": {"@spider": "usps_collection_boxes", "addr:city": "SENTINEL", "addr:country": "US", "addr:full": "312 E MAIN ST", "addr:postcode": "73664", "addr:state": "OK", "amenity": "post_box", "brand": "United States Postal Service", "brand:wikidata": "Q668687", "collection_times": "Mo-Fr 16:00; Sa 10:00", "name": "USPS COLLECTION BOX - PO LOBBY", "note": "ON 12/24 AND 12/31, THIS BOX MAY BE COLLECTED AS EARLY AS 12 NOON.", "nsi_id": "unitedstatespostalservice-a77078", "operator": "United States Postal Service", "operator:short": "USPS", "operator:type": "public", "operator:wikidata": "Q668687", "ref": "7366400002"}, "type": "Feature"}
{"dataset_attributes": {"@spider": "usps_collection_boxes", "spider:collection_time": "2023-11-19T08:23:43.397954"}, "geometry": {"coordinates": [-98.963848, 36.03961], "type": "Point"}, "id": "W39lr-PtQX3lCpFsxEFyjshO_FU=", "properties": {"@spider": "usps_collection_boxes", "addr:city": "TALOGA", "addr:country": "US", "addr:full": "119 S BROADWAY ST", "addr:postcode": "73667", "addr:state": "OK", "amenity": "post_box", "brand": "United States Postal Service", "brand:wikidata": "Q668687", "collection_times": "Mo-Fr 15:00; Sa 09:00", "name": "USPS COLLECTION BOX - PO LOBBY", "note": "ON 12/24 AND 12/31, THIS BOX MAY BE COLLECTED AS EARLY AS 12 NOON.", "nsi_id": "unitedstatespostalservice-a77078", "operator": "United States Postal Service", "operator:short": "USPS", "operator:type": "public", "operator:wikidata": "Q668687", "ref": "7366700001"}, "type": "Feature"}
{"dataset_attributes": {"@spider": "usps_collection_boxes", "spider:collection_time": "2023-11-19T08:23:43.397954"}, "geometry": {"coordinates": [-98.963848, 36.03961], "type": "Point"}, "id": "eISz3NTVrLiXML1kcE2RqHfKobA=", "properties": {"@spider": "usps_collection_boxes", "addr:city": "TALOGA", "addr:country": "US", "addr:full": "119 S BROADWAY ST", "addr:postcode": "73667", "addr:state": "OK", "amenity": "post_box", "brand": "United States Postal Service", "brand:wikidata": "Q668687", "collection_times": "Mo-Fr 15:00; Sa 09:00", "name": "USPS COLLECTION BOX - PO LOBBY", "note": "ON 12/24 AND 12/31, THIS BOX MAY BE COLLECTED AS EARLY AS 12 NOON.", "nsi_id": "unitedstatespostalservice-a77078", "operator": "United States Postal Service", "operator:short": "USPS", "operator:type": "public", "operator:wikidata": "Q668687", "ref": "7366700003"}, "type": "Feature"}
{"dataset_attributes": {"@spider": "usps_collection_boxes", "spider:collection_time": "2023-11-19T08:23:43.397954"}, "geometry": {"coordinates": [-98.963827532, 36.039620882], "type": "Point"}, "id": "QguMS-wjYozq_JvtRWShoftCk4k=", "properties": {"@spider": "usps_collection_boxes", "addr:city": "TALOGA", "addr:country": "US", "addr:full": "119 S BROADWAY ST", "addr:postcode": "73667", "addr:state": "OK", "amenity": "post_box", "brand": "United States Postal Service", "brand:wikidata": "Q668687", "collection_times": "Mo-Fr 15:00; Sa 09:00", "name": "USPS COLLECTION BOX - PO LOBBY", "note": "ON 12/24 AND 12/31, THIS BOX MAY BE COLLECTED AS EARLY AS 12 NOON.", "nsi_id": "unitedstatespostalservice-a77078", "operator": "United States Postal Service", "operator:short": "USPS", "operator:type": "public", "operator:wikidata": "Q668687", "ref": "7366700004"}, "type": "Feature"}
{"dataset_attributes": {"@spider": "usps_collection_boxes", "spider:collection_time": "2023-11-19T08:23:43.397954"}, "geometry": {"coordinates": [-98.747615, 35.744219], "type": "Point"}, "id": "I2cvi7yv4aHiW7AHk9FGeoRLvn8=", "properties": {"@spider": "usps_collection_boxes", "addr:city": "THOMAS", "addr:country": "US", "addr:full": "108 N MAIN ST", "addr:postcode": "73669", "addr:state": "OK", "amenity": "post_box", "brand": "United States Postal Service", "brand:wikidata": "Q668687", "collection_times": "Mo-Fr 16:15; Sa 08:30", "name": "USPS COLLECTION BOX - BLUE BOX", "note": "ON 12/24 AND 12/31, THIS BOX MAY BE COLLECTED AS EARLY AS 12 NOON.", "nsi_id": "unitedstatespostalservice-a77078", "operator": "United States Postal Service", "operator:short": "USPS", "operator:type": "public", "operator:wikidata": "Q668687", "ref": "7366900000"}, "type": "Feature"}
{"dataset_attributes": {"@spider": "usps_collection_boxes", "spider:collection_time": "2023-11-19T08:23:43.397954"}, "geometry": {"coordinates": [-98.747615, 35.744219], "type": "Point"}, "id": "HVnsFgxKjSAIufo7O6G-MXXaOWA=", "properties": {"@spider": "usps_collection_boxes", "addr:city": "THOMAS", "addr:country": "US", "addr:full": "108 N MAIN ST", "addr:postcode": "73669", "addr:state": "OK", "amenity": "post_box", "brand": "United States Postal Service", "brand:wikidata": "Q668687", "collection_times": "Mo-Fr 16:15; Sa 08:30", "name": "USPS COLLECTION BOX - PO LOBBY", "note": "ON 12/24 AND 12/31, THIS BOX MAY BE COLLECTED AS EARLY AS 12 NOON.", "nsi_id": "unitedstatespostalservice-a77078", "operator": "United States Postal Service", "operator:short": "USPS", "operator:type": "public", "operator:wikidata": "Q668687", "ref": "7366900001"}, "type": "Feature"}
{"dataset_attributes": {"@spider": "usps_collection_boxes", "spider:collection_time": "2023-11-19T08:23:43.397954"}, "geometry": {"coordinates": [-98.747617393, 35.744292639], "type": "Point"}, "id": "95LQ44GmPU1NA7xplSyvMrTTIC0=", "properties": {"@spider": "usps_collection_boxes", "addr:city": "THOMAS", "addr:country": "US", "addr:full": "108 N MAIN ST", "addr:postcode": "73669", "addr:state": "OK", "amenity": "post_box", "brand": "United States Postal Service", "brand:wikidata": "Q668687", "collection_times": "Mo-Fr 16:30", "name": "USPS COLLECTION BOX - PO LOBBY", "note": "ON 12/24 AND 12/31, THIS BOX MAY BE COLLECTED AS EARLY AS 12 NOON.", "nsi_id": "unitedstatespostalservice-a77078", "operator": "United States Postal Service", "operator:short": "USPS", "operator:type": "public", "operator:wikidata": "Q668687", "ref": "7366900004"}, "type": "Feature"}
{"dataset_attributes": {"@spider": "usps_collection_boxes", "spider:collection_time": "2023-11-19T08:23:43.397954"}, "geometry": {"coordinates": [-99.502185, 35.009374], "type": "Point"}, "id": "mO-Ud5NZDBivFg6MQScZl-a1wbA=", "properties": {"@spider": "usps_collection_boxes", "addr:city": "WILLOW", "addr:country": "US", "addr:full": "113 W MAIN ST", "addr:postcode": "73673", "addr:state": "OK", "amenity": "post_box", "brand": "United States Postal Service", "brand:wikidata": "Q668687", "collection_times": "Mo-Fr 11:30; Sa 08:00", "name": "USPS COLLECTION BOX - PO LOBBY", "nsi_id": "unitedstatespostalservice-a77078", "operator": "United States Postal Service", "operator:short": "USPS", "operator:type": "public", "operator:wikidata": "Q668687", "ref": "7367300001"}, "type": "Feature"}
{"dataset_attributes": {"@spider": "usps_collection_boxes", "spider:collection_time": "2023-11-19T08:23:43.397954"}, "geometry": {"coordinates": [-99.502185, 35.009374], "type": "Point"}, "id": "-9n7YYZDk_LCnvBO__9vFjZlQH0=", "properties": {"@spider": "usps_collection_boxes", "addr:city": "WILLOW", "addr:country": "US", "addr:full": "113 W MAIN ST", "addr:postcode": "73673", "addr:state": "OK", "amenity": "post_box", "brand": "United States Postal Service", "brand:wikidata": "Q668687", "collection_times": "Mo-Fr 11:30; Sa 08:00", "name": "USPS COLLECTION BOX - PO LOBBY", "nsi_id": "unitedstatespostalservice-a77078", "operator": "United States Postal Service", "operator:short": "USPS", "operator:type": "public", "operator:wikidata": "Q668687", "ref": "7367300002"}, "type": "Feature"}
{"dataset_attributes": {"@spider": "usps_collection_boxes", "spider:collection_time": "2023-11-19T08:23:43.397954"}, "geometry": {"coordinates": [-99.502151576, 35.009409046], "type": "Point"}, "id": "ww6Ju2P1oTZDugMUYS85ksClwh0=", "properties": {"@spider": "usps_collection_boxes", "addr:city": "WILLOW", "addr:country": "US", "addr:full": "113 W MAIN ST", "addr:postcode": "73673", "addr:state": "OK", "amenity": "post_box", "brand": "United States Postal Service", "brand:wikidata": "Q668687", "collection_times": "Mo-Fr 11:30; Sa 08:45", "name": "USPS COLLECTION BOX - PO LOBBY", "nsi_id": "unitedstatespostalservice-a77078", "operator": "United States Postal Service", "operator:short": "USPS", "operator:type": "public", "operator:wikidata": "Q668687", "ref": "7367300003"}, "type": "Feature"}
