{"geometry": {"coordinates": [-97.8645099, 36.389715], "type": "Point"}, "id": "Xx6zOHpW-ti8x6jbMJH-Chb-AjA=", "properties": {"@spider": "usps_collection_boxes", "addr:city": "ENID", "addr:country": "US", "addr:full": "915 E GARRIOTT RD", "addr:postcode": "73701", "addr:state": "OK", "brand": "USPS", "collection_times": "Mo-Fr 14:15; Sa 09:30", "name": "USPS COLLECTION BOX - BLUE BOX", "note": "ON 12/24 AND 12/31, THIS BOX MAY BE COLLECTED AS EARLY AS 12 NOON.", "ref": "7370100033"}, "type": "Feature"}
{"geometry": {"coordinates": [-97.8691193, 36.392871], "type": "Point"}, "id": "fTdUMD48kStIn73z-VVYwtqHWXk=", "properties": {"@spider": "usps_collection_boxes", "addr:city": "ENID", "addr:country": "US", "addr:full": "615 E OKLAHOMA AVE", "addr:postcode": "73701", "addr:state": "OK", "brand": "USPS", "collection_times": "Mo-Fr 14:15; Sa 10:00", "name": "USPS COLLECTION BOX - BLUE BOX", "note": "ON 12/24 AND 12/31, THIS BOX MAY BE COLLECTED AS EARLY AS 12 NOON.", "ref": "7370100037"}, "type": "Feature"}
{"geometry": {"coordinates": [-97.8802605, 36.398948], "type": "Point"}, "id": "7NjCITWG3IoXOGa-_B2s65PRQ_k=", "properties": {"@spider": "usps_collection_boxes", "addr:city": "ENID", "addr:country": "US", "addr:full": "302 N INDEPENDENCE ST", "addr:postcode": "73701", "addr:state": "OK", "brand": "USPS", "collection_times": "Mo-Fr 09:30", "name": "USPS COLLECTION BOX - BLUE BOX", "ref": "7370100055"}, "type": "Feature"}
{"geometry": {"coordinates": [-97.878652, 36.396616], "type": "Point"}, "id": "x_0LjLbQyfB6GG-lPrpUavYXisk=", "properties": {"@spider": "usps_collection_boxes", "addr:city": "ENID", "addr:country": "US", "addr:full": "115 W BROADWAY AVE", "addr:postcode": "73701", "addr:state": "OK", "brand": "USPS", "collection_times": "Mo-Sa 17:00", "name": "USPS COLLECTION BOX - PO LOBBY", "note": "ON 12/24 AND 12/31, THIS BOX MAY BE COLLECTED AS EARLY AS 12 NOON.", "ref": "7370100061"}, "type": "Feature"}
{"geometry": {"coordinates": [-97.878388, 36.396369], "type": "Point"}, "id": "W1vrgowDsvFxu4QhIyzh2nPL21M=", "properties": {"@spider": "usps_collection_boxes", "addr:city": "ENID", "addr:country": "US", "addr:full": "118 S GRAND ST", "addr:postcode": "73701", "addr:state": "OK", "brand": "USPS", "collection_times": "Mo-Sa 17:00", "name": "USPS COLLECTION BOX - BLUE BOX", "note": "ON 12/24 AND 12/31, THIS BOX MAY BE COLLECTED AS EARLY AS 12 NOON.", "ref": "7370100064"}, "type": "Feature"}
{"geometry": {"coordinates": [-97.879817, 36.39642], "type": "Point"}, "id": "kSygfYrrO_AxG5MvCyF9dm862NQ=", "properties": {"@spider": "usps_collection_boxes", "addr:city": "ENID", "addr:country": "US", "addr:full": "115 S INDEPENDENCE ST", "addr:postcode": "73701", "addr:state": "OK", "brand": "USPS", "collection_times": "Mo-Sa 17:00", "name": "USPS COLLECTION BOX - BLUE BOX", "note": "ON 12/24 AND 12/31, THIS BOX MAY BE COLLECTED AS EARLY AS 12 NOON.", "ref": "7370100065"}, "type": "Feature"}
{"geometry": {"coordinates": [-97.87862544, 36.396569576], "type": "Point"}, "id": "pFA73sHkUjHurSbuLrZhsi1uyoU=", "properties": {"@spider": "usps_collection_boxes", "addr:city": "ENID", "addr:country": "US", "addr:full": "115 W BROADWAY AVE FL 1", "addr:postcode": "73701", "addr:state": "OK", "brand": "USPS", "collection_times": "Mo-Fr 17:00; Sa 13:00", "name": "USPS COLLECTION BOX - PO LOBBY", "note": "ON 12/24 AND 12/31, THIS BOX MAY BE COLLECTED AS EARLY AS 12 NOON.", "ref": "7370100072"}, "type": "Feature"}
{"geometry": {"coordinates": [-97.9064294, 36.420071], "type": "Point"}, "id": "eajVrhAYq8YLbfeLfl_uzZfMRjA=", "properties": {"@spider": "usps_collection_boxes", "addr:city": "ENID", "addr:country": "US", "addr:full": "2200 W WILLOW RD", "addr:postcode": "73703", "addr:state": "OK", "brand": "USPS", "collection_times": "Mo-Fr 14:30; Sa 12:15", "name": "USPS COLLECTION BOX - BLUE BOX", "note": "ON 12/24 AND 12/31, THIS BOX MAY BE COLLECTED AS EARLY AS 12 NOON.", "ref": "7370300003"}, "type": "Feature"}
{"geometry": {"coordinates": [-97.9061363, 36.418904], "type": "Point"}, "id": "JQFAUbNZTaOHGUx9h1NhkiO3xmw=", "properties": {"@spider": "usps_collection_boxes", "addr:city": "ENID", "addr:country": "US", "addr:full": "2311 W WILLOW RD", "addr:postcode": "73703", "addr:state": "OK", "brand": "USPS", "collection_times": "Mo-Fr 14:30; Sa 13:15", "name": "USPS COLLECTION BOX - BLUE BOX", "note": "ON 12/24 AND 12/31, THIS BOX MAY BE COLLECTED AS EARLY AS 12 NOON.", "ref": "7370300004"}, "type": "Feature"}
{"geometry": {"coordinates": [-97.8922899, 36.419991], "type": "Point"}, "id": "GNCBpbsBzvi_I0abntTevY3m5LE=", "properties": {"@spider": "usps_collection_boxes", "addr:city": "ENID", "addr:country": "US", "addr:full": "1000 W WILLOW RD", "addr:postcode": "73703", "addr:state": "OK", "brand": "USPS", "collection_times": "Mo-Fr 14:30; Sa 10:30", "name": "USPS COLLECTION BOX - BLUE BOX", "note": "ON 12/24 AND 12/31, THIS BOX MAY BE COLLECTED AS EARLY AS 12 NOON.", "ref": "7370300005"}, "type": "Feature"}
{"geometry": {"coordinates": [-97.926816, 36.397453], "type": "Point"}, "id": "Icv6mInQ9HmF0HHuulzGPi8BMv8=", "properties": {"@spider": "usps_collection_boxes", "addr:city": "ENID", "addr:country": "US", "addr:full": "122 N OAKWOOD RD", "addr:postcode": "73703", "addr:state": "OK", "brand": "USPS", "collection_times": "Mo-Fr 14:30; Sa 14:00", "name": "USPS COLLECTION BOX - BLUE BOX", "note": "ON 12/24 AND 12/31, THIS BOX MAY BE COLLECTED AS EARLY AS 12 NOON.", "ref": "7370300011"}, "type": "Feature"}
{"geometry": {"coordinates": [-97.890245064, 36.39639776], "type": "Point"}, "id": "c-wv5tjTl_4e5JJccmK2Xcfl1m0=", "properties": {"@spider": "usps_collection_boxes", "addr:city": "ENID", "addr:country": "US", "addr:full": "102 S VAN BUREN ST", "addr:postcode": "73703", "addr:state": "OK", "brand": "USPS", "collection_times": "Mo-Fr 14:45", "name": "USPS COLLECTION BOX - BLUE BOX", "note": "ON 12/24 AND 12/31, THIS BOX MAY BE COLLECTED AS EARLY AS 12 NOON.", "ref": "7370300012"}, "type": "Feature"}
{"geometry": {"coordinates": [-97.9284438, 36.391512], "type": "Point"}, "id": "hLPAzrcBbsrvQLOOOplggQSKlLM=", "properties": {"@spider": "usps_collection_boxes", "addr:city": "ENID", "addr:country": "US", "addr:full": "4110 W GARRIOTT RD", "addr:postcode": "73703", "addr:state": "OK", "brand": "USPS", "collection_times": "Mo-Sa 10:00", "name": "USPS COLLECTION BOX - BLUE BOX", "ref": "7370300013"}, "type": "Feature"}
{"geometry": {"coordinates": [-97.9088666, 36.390022], "type": "Point"}, "id": "mci1z-5hg7umJ-DzE2CV_ofvceQ=", "properties": {"@spider": "usps_collection_boxes", "addr:city": "ENID", "addr:country": "US", "addr:full": "610 S CLEVELAND ST STE 110A", "addr:postcode": "73703", "addr:state": "OK", "brand": "USPS", "collection_times": "Mo-Fr 15:00; Sa 12:45", "name": "USPS COLLECTION BOX - BLUE BOX", "note": "ON 12/24 AND 12/31, THIS BOX MAY BE COLLECTED AS EARLY AS 12 NOON.", "ref": "7370300017"}, "type": "Feature"}
{"geometry": {"coordinates": [-97.9268009, 36.397435], "type": "Point"}, "id": "wwZ5GHLpngZiX4h3u0iYNdYgQmE=", "properties": {"@spider": "usps_collection_boxes", "addr:city": "ENID", "addr:country": "US", "addr:full": "122 N OAKWOOD RD", "addr:postcode": "73703", "addr:state": "OK", "brand": "USPS", "collection_times": "Mo-Fr 14:30; Sa 14:00", "name": "USPS COLLECTION BOX - BLUE BOX", "note": "ON 12/24 AND 12/31, THIS BOX MAY BE COLLECTED AS EARLY AS 12 NOON.", "ref": "7370300027"}, "type": "Feature"}
{"geometry": {"coordinates": [-97.9018972571, 36.3427653664], "type": "Point"}, "id": "lLXAILAz6q22PQAtUH8QpRKYvV0=", "properties": {"@spider": "usps_collection_boxes", "addr:city": "ENID", "addr:country": "US", "addr:full": "200 FIELD ST", "addr:postcode": "73703", "addr:state": "OK", "brand": "USPS", "collection_times": "Mo-Fr 11:30", "name": "USPS COLLECTION BOX - BLUE BOX", "ref": "7370300033"}, "type": "Feature"}
{"geometry": {"coordinates": [-97.893863, 36.420377], "type": "Point"}, "id": "BVMEURFZVfHTuMCvFFoYwWfGz1Q=", "properties": {"@spider": "usps_collection_boxes", "addr:city": "ENID", "addr:country": "US", "addr:full": "1202 W WILLOW RD", "addr:postcode": "73703", "addr:state": "OK", "brand": "USPS", "collection_times": "Mo-Fr 14:30; Sa 10:30", "name": "USPS COLLECTION BOX - BLUE BOX", "note": "ON 12/24 AND 12/31, THIS BOX MAY BE COLLECTED AS EARLY AS 12 NOON.", "ref": "7370300034"}, "type": "Feature"}
{"geometry": {"coordinates": [-98.450713, 36.506697], "type": "Point"}, "id": "TdNKR4Ng1Q50r-54t9G6C_2-urY=", "properties": {"@spider": "usps_collection_boxes", "addr:city": "ALINE", "addr:country": "US", "addr:full": "104 N MAIN ST", "addr:postcode": "73716", "addr:state": "OK", "brand": "USPS", "collection_times": "Mo-Fr 11:45; Sa 08:45", "name": "USPS COLLECTION BOX - PO LOBBY", "ref": "7371600001"}, "type": "Feature"}
{"geometry": {"coordinates": [-98.450737913, 36.506659604], "type": "Point"}, "id": "SGOYd7j2rHUAhLMz3pd45Icyg_Q=", "properties": {"@spider": "usps_collection_boxes", "addr:city": "ALINE", "addr:country": "US", "addr:full": "104 N MAIN ST", "addr:postcode": "73716", "addr:state": "OK", "brand": "USPS", "collection_times": "Mo-Fr 11:30; Sa 08:30", "name": "USPS COLLECTION BOX - PO LOBBY", "ref": "7371600002"}, "type": "Feature"}
{"geometry": {"coordinates": [-98.664507, 36.804741], "type": "Point"}, "id": "ni1iVU4U4EUN-w1HUnOKYJdKTRI=", "properties": {"@spider": "usps_collection_boxes", "addr:city": "ALVA", "addr:country": "US", "addr:full": "408 GOVERNMENT ST", "addr:postcode": "73717", "addr:state": "OK", "brand": "USPS", "collection_times": "Mo-Sa 16:15", "name": "USPS COLLECTION BOX - BLUE BOX", "note": "ON 12/24 AND 12/31, THIS BOX MAY BE COLLECTED AS EARLY AS 12 NOON.", "ref": "7371700018"}, "type": "Feature"}
{"geometry": {"coordinates": [-98.664507, 36.804741], "type": "Point"}, "id": "otDx0kcYKT8zG8rpaTvVasHXohY=", "properties": {"@spider": "usps_collection_boxes", "addr:city": "ALVA", "addr:country": "US", "addr:full": "408 GOVERNMENT ST", "addr:postcode": "73717", "addr:state": "OK", "brand": "USPS", "collection_times": "Mo-Sa 16:15", "name": "USPS COLLECTION BOX - BLUE BOX", "note": "ON 12/24 AND 12/31, THIS BOX MAY BE COLLECTED AS EARLY AS 12 NOON.", "ref": "7371700019"}, "type": "Feature"}
{"geometry": {"coordinates": [-98.664507, 36.804741], "type": "Point"}, "id": "Pk37PiuKibGPmcx122a-I5ggGCo=", "properties": {"@spider": "usps_collection_boxes", "addr:city": "ALVA", "addr:country": "US", "addr:full": "408 GOVERNMENT ST", "addr:postcode": "73717", "addr:state": "OK", "brand": "USPS", "collection_times": "Mo-Sa 16:15", "name": "USPS COLLECTION BOX - PO LOBBY", "note": "ON 12/24 AND 12/31, THIS BOX MAY BE COLLECTED AS EARLY AS 12 NOON.", "ref": "7371700023"}, "type": "Feature"}
{"geometry": {"coordinates": [-98.664507, 36.804741], "type": "Point"}, "id": "516z6MLDe2Ii_VWjfCI6vnrXwEM=", "properties": {"@spider": "usps_collection_boxes", "addr:city": "ALVA", "addr:country": "US", "addr:full": "408 GOVERNMENT ST", "addr:postcode": "73717", "addr:state": "OK", "brand": "USPS", "collection_times": "Mo-Sa 16:15", "name": "USPS COLLECTION BOX - PO LOBBY", "note": "ON 12/24 AND 12/31, THIS BOX MAY BE COLLECTED AS EARLY AS 12 NOON.", "ref": "7371700024"}, "type": "Feature"}
{"geometry": {"coordinates": [-98.664488948, 36.804755034], "type": "Point"}, "id": "u35uwAyJCdCKMq384XsSZfW0lN4=", "properties": {"@spider": "usps_collection_boxes", "addr:city": "ALVA", "addr:country": "US", "addr:full": "408 GOVERNMENT ST", "addr:postcode": "73717", "addr:state": "OK", "brand": "USPS", "collection_times": "Mo-Fr 16:30; Sa 12:00", "name": "USPS COLLECTION BOX - PO LOBBY", "note": "ON 12/24 AND 12/31, THIS BOX MAY BE COLLECTED AS EARLY AS 12 NOON.", "ref": "7371700027"}, "type": "Feature"}
{"geometry": {"coordinates": [-98.182388, 36.246044], "type": "Point"}, "id": "TwDUaKj0WUHTBQ8onN5qffycCD4=", "properties": {"@spider": "usps_collection_boxes", "addr:city": "AMES", "addr:country": "US", "addr:full": "108 E MARIE GAUTIER BLVD", "addr:postcode": "73718", "addr:state": "OK", "brand": "USPS", "collection_times": "Mo-Fr 11:45; Sa 09:00", "name": "USPS COLLECTION BOX - PO LOBBY", "ref": "7371800001"}, "type": "Feature"}
{"geometry": {"coordinates": [-98.1871268348, 36.2325957911], "type": "Point"}, "id": "gfg5_UjRkOjBr9F1WCFZ70_kAEo=", "properties": {"@spider": "usps_collection_boxes", "addr:city": "AMES", "addr:country": "US", "addr:full": "108 E MARIE GAUTIER BLVD", "addr:postcode": "73718", "addr:state": "OK", "brand": "USPS", "collection_times": "Mo-Fr 11:45; Sa 09:00", "name": "USPS COLLECTION BOX - PO LOBBY", "ref": "7371800002"}, "type": "Feature"}
{"geometry": {"coordinates": [-98.190111082, 36.246113179], "type": "Point"}, "id": "YO7VAiGeE7wvSnOfuozBFMISUMo=", "properties": {"@spider": "usps_collection_boxes", "addr:city": "AMES", "addr:country": "US", "addr:full": "108 E MAIN ST", "addr:postcode": "73718", "addr:state": "OK", "brand": "USPS", "collection_times": "Mo-Fr 12:00; Sa 09:30", "name": "USPS COLLECTION BOX - PO LOBBY", "ref": "7371800003"}, "type": "Feature"}
{"geometry": {"coordinates": [-98.289249, 36.926634], "type": "Point"}, "id": "8m2Q0GctxxEwgKz9_0FGWu2eCnA=", "properties": {"@spider": "usps_collection_boxes", "addr:city": "AMORITA", "addr:country": "US", "addr:full": "305 W CHESTNUT", "addr:postcode": "73719", "addr:state": "OK", "brand": "USPS", "collection_times": "Mo-Fr 14:45; Sa 09:00", "name": "USPS COLLECTION BOX - PO LOBBY", "note": "ON 12/24 AND 12/31, THIS BOX MAY BE COLLECTED AS EARLY AS 12 NOON.", "ref": "7371900001"}, "type": "Feature"}
{"geometry": {"coordinates": [-98.2898325, 36.926624496], "type": "Point"}, "id": "Ie10AZudKffiEsZyTJgzfqLa4Io=", "properties": {"@spider": "usps_collection_boxes", "addr:city": "AMORITA", "addr:country": "US", "addr:full": "305 W CHESTNUT", "addr:postcode": "73719", "addr:state": "OK", "brand": "USPS", "collection_times": "Mo-Fr 15:00; Sa 12:00", "name": "USPS COLLECTION BOX - PO LOBBY", "note": "ON 12/24 AND 12/31, THIS BOX MAY BE COLLECTED AS EARLY AS 12 NOON.", "ref": "7371900002"}, "type": "Feature"}
{"geometry": {"coordinates": [-97.890951, 36.195807], "type": "Point"}, "id": "jPeLcaJxDE4yLDoFgHWUhtgUGOE=", "properties": {"@spider": "usps_collection_boxes", "addr:city": "BISON", "addr:country": "US", "addr:full": "200 W MAIN ST", "addr:postcode": "73720", "addr:state": "OK", "brand": "USPS", "collection_times": "Mo-Fr 11:00; Sa 09:00", "name": "USPS COLLECTION BOX - BLUE BOX", "ref": "7372000000"}, "type": "Feature"}
{"geometry": {"coordinates": [-97.890951, 36.195807], "type": "Point"}, "id": "lDkas78ltWW1SN_Cz3lUZjTHUbA=", "properties": {"@spider": "usps_collection_boxes", "addr:city": "BISON", "addr:country": "US", "addr:full": "200 W MAIN ST", "addr:postcode": "73720", "addr:state": "OK", "brand": "USPS", "collection_times": "Mo-Fr 11:00; Sa 09:00", "name": "USPS COLLECTION BOX - PO LOBBY", "ref": "7372000001"}, "type": "Feature"}
{"geometry": {"coordinates": [-97.890916362, 36.195846787], "type": "Point"}, "id": "C4r-xL_ZDgN6stLiMc5M3cG0Gxg=", "properties": {"@spider": "usps_collection_boxes", "addr:city": "BISON", "addr:country": "US", "addr:full": "200 W MAIN ST", "addr:postcode": "73720", "addr:state": "OK", "brand": "USPS", "collection_times": "Mo-Fr 11:00; Sa 09:30", "name": "USPS COLLECTION BOX - PO LOBBY", "ref": "7372000003"}, "type": "Feature"}
{"geometry": {"coordinates": [-98.293028, 36.89858], "type": "Point"}, "id": "J3syhnmkxCV-SkfTmrmHVcJtO4M=", "properties": {"@spider": "usps_collection_boxes", "addr:city": "BURLINGTON", "addr:country": "US", "addr:full": "513 MAIN ST", "addr:postcode": "73722", "addr:state": "OK", "brand": "USPS", "collection_times": "Mo-Fr 11:45; Sa 09:30", "name": "USPS COLLECTION BOX - BLUE BOX", "ref": "7372200000"}, "type": "Feature"}
{"geometry": {"coordinates": [-98.269935, 36.548243], "type": "Point"}, "id": "sHDBXESZkGBSVrop6lY5Ee1m-Js=", "properties": {"@spider": "usps_collection_boxes", "addr:city": "BURLINGTON", "addr:country": "US", "addr:full": "513 MAIN ST", "addr:postcode": "73722", "addr:state": "OK", "brand": "USPS", "collection_times": "Mo-Fr 11:45; Sa 09:30", "name": "USPS COLLECTION BOX - PO LOBBY", "ref": "7372200002"}, "type": "Feature"}
{"geometry": {"coordinates": [-98.423019622, 36.900260696], "type": "Point"}, "id": "q8C7iaqHg6R5VeQNSqTflO23tCk=", "properties": {"@spider": "usps_collection_boxes", "addr:city": "BURLINGTON", "addr:country": "US", "addr:full": "513 MAIN ST", "addr:postcode": "73722", "addr:state": "OK", "brand": "USPS", "collection_times": "Mo-Fr 12:00; Sa 10:00", "name": "USPS COLLECTION BOX - PO LOBBY", "ref": "7372200003"}, "type": "Feature"}
{"geometry": {"coordinates": [-98.589763, 36.053449], "type": "Point"}, "id": "KycwcMsmA6G--Wwytal8FI6rBsA=", "properties": {"@spider": "usps_collection_boxes", "addr:city": "CANTON", "addr:country": "US", "addr:full": "202 W MAIN ST", "addr:postcode": "73724", "addr:state": "OK", "brand": "USPS", "collection_times": "Mo-Fr 15:45; Sa 09:30", "name": "USPS COLLECTION BOX - BLUE BOX", "note": "ON 12/24 AND 12/31, THIS BOX MAY BE COLLECTED AS EARLY AS 12 NOON.", "ref": "7372400000"}, "type": "Feature"}
{"geometry": {"coordinates": [-98.589763, 36.053449], "type": "Point"}, "id": "D9INnfc5tcJbxjm441Mxr26gddA=", "properties": {"@spider": "usps_collection_boxes", "addr:city": "CANTON", "addr:country": "US", "addr:full": "202 W MAIN ST", "addr:postcode": "73724", "addr:state": "OK", "brand": "USPS", "collection_times": "Mo-Fr 15:45; Sa 09:30", "name": "USPS COLLECTION BOX - PO LOBBY", "note": "ON 12/24 AND 12/31, THIS BOX MAY BE COLLECTED AS EARLY AS 12 NOON.", "ref": "7372400002"}, "type": "Feature"}
{"geometry": {"coordinates": [-98.589763, 36.053449], "type": "Point"}, "id": "O2O59f8hnEPmp363RcY5FrfrqXA=", "properties": {"@spider": "usps_collection_boxes", "addr:city": "CANTON", "addr:country": "US", "addr:full": "202 W MAIN ST", "addr:postcode": "73724", "addr:state": "OK", "brand": "USPS", "collection_times": "Mo-Fr 15:45; Sa 09:30", "name": "USPS COLLECTION BOX - PO LOBBY", "note": "ON 12/24 AND 12/31, THIS BOX MAY BE COLLECTED AS EARLY AS 12 NOON.", "ref": "7372400003"}, "type": "Feature"}
{"geometry": {"coordinates": [-98.58972522, 36.053485708], "type": "Point"}, "id": "5sUq_L96TUHjAtJriy3Jx28mBxI=", "properties": {"@spider": "usps_collection_boxes", "addr:city": "CANTON", "addr:country": "US", "addr:full": "202 W MAIN ST", "addr:postcode": "73724", "addr:state": "OK", "brand": "USPS", "collection_times": "Mo-Fr 15:45", "name": "USPS COLLECTION BOX - PO LOBBY", "note": "ON 12/24 AND 12/31, THIS BOX MAY BE COLLECTED AS EARLY AS 12 NOON.", "ref": "7372400004"}, "type": "Feature"}
{"geometry": {"coordinates": [-98.020902, 36.475712], "type": "Point"}, "id": "vdcRyTYmD4NgETqaHAvC78LpYek=", "properties": {"@spider": "usps_collection_boxes", "addr:city": "CARRIER", "addr:country": "US", "addr:full": "101 E MAIN ST", "addr:postcode": "73727", "addr:state": "OK", "brand": "USPS", "collection_times": "Mo-Fr 16:30; Sa 09:00", "name": "USPS COLLECTION BOX - PO LOBBY", "note": "ON 12/24 AND 12/31, THIS BOX MAY BE COLLECTED AS EARLY AS 12 NOON.", "ref": "7372700001"}, "type": "Feature"}
{"geometry": {"coordinates": [-98.0209215, 36.475710477], "type": "Point"}, "id": "9LsLddTW55ZAyTFN4XC50sLGBiM=", "properties": {"@spider": "usps_collection_boxes", "addr:city": "CARRIER", "addr:country": "US", "addr:full": "101 E MAIN ST", "addr:postcode": "73727", "addr:state": "OK", "brand": "USPS", "collection_times": "Mo-Fr 16:30; Sa 09:00", "name": "USPS COLLECTION BOX - PO LOBBY", "note": "ON 12/24 AND 12/31, THIS BOX MAY BE COLLECTED AS EARLY AS 12 NOON.", "ref": "7372700003"}, "type": "Feature"}
{"geometry": {"coordinates": [-98.360147, 36.739541], "type": "Point"}, "id": "UHNsaCUwjeT9zb3P5oq0Uu7ZsbU=", "properties": {"@spider": "usps_collection_boxes", "addr:city": "CHEROKEE", "addr:country": "US", "addr:full": "1780 S GRAND AVE", "addr:postcode": "73728", "addr:state": "OK", "brand": "USPS", "collection_times": "Mo-Fr 16:00; Sa 11:15", "name": "USPS COLLECTION BOX - BLUE BOX", "note": "ON 12/24 AND 12/31, THIS BOX MAY BE COLLECTED AS EARLY AS 12 NOON.", "ref": "7372800001"}, "type": "Feature"}
{"geometry": {"coordinates": [-98.360147, 36.739541], "type": "Point"}, "id": "2zYaYL7vJqvmjZSkuSrJPjWiFNA=", "properties": {"@spider": "usps_collection_boxes", "addr:city": "CHEROKEE", "addr:country": "US", "addr:full": "1780 S GRAND AVE", "addr:postcode": "73728", "addr:state": "OK", "brand": "USPS", "collection_times": "Mo-Fr 16:00; Sa 11:15", "name": "USPS COLLECTION BOX - PO LOBBY", "note": "ON 12/24 AND 12/31, THIS BOX MAY BE COLLECTED AS EARLY AS 12 NOON.", "ref": "7372800002"}, "type": "Feature"}
{"geometry": {"coordinates": [-98.360147, 36.739541], "type": "Point"}, "id": "RFOk7r5zUrg_R_UBdnh8NXCPU1M=", "properties": {"@spider": "usps_collection_boxes", "addr:city": "CHEROKEE", "addr:country": "US", "addr:full": "1780 S GRAND AVE", "addr:postcode": "73728", "addr:state": "OK", "brand": "USPS", "collection_times": "Mo-Fr 16:00; Sa 11:15", "name": "USPS COLLECTION BOX - PO LOBBY", "note": "ON 12/24 AND 12/31, THIS BOX MAY BE COLLECTED AS EARLY AS 12 NOON.", "ref": "7372800005"}, "type": "Feature"}
{"geometry": {"coordinates": [-98.360145727, 36.739539], "type": "Point"}, "id": "l5udhyBW6kTwdSaek_pD1OTHXLk=", "properties": {"@spider": "usps_collection_boxes", "addr:city": "CHEROKEE", "addr:country": "US", "addr:full": "1780 S GRAND AVE", "addr:postcode": "73728", "addr:state": "OK", "brand": "USPS", "collection_times": "Mo-Fr 16:30; Sa 11:30", "name": "USPS COLLECTION BOX - PO LOBBY", "note": "ON 12/24 AND 12/31, THIS BOX MAY BE COLLECTED AS EARLY AS 12 NOON.", "ref": "7372800006"}, "type": "Feature"}
{"geometry": {"coordinates": [-98.441459602, 36.408004417], "type": "Point"}, "id": "NbE1WJEKIQX9m6OyrzrH7cY7vk4=", "properties": {"@spider": "usps_collection_boxes", "addr:city": "CLEO SPRINGS", "addr:country": "US", "addr:full": "123 N SQUARE ST", "addr:postcode": "73729", "addr:state": "OK", "brand": "USPS", "collection_times": "Mo-Fr 16:00; Sa 09:15", "name": "USPS COLLECTION BOX - BLUE BOX", "note": "ON 12/24 AND 12/31, THIS BOX MAY BE COLLECTED AS EARLY AS 12 NOON.", "ref": "7372900000"}, "type": "Feature"}
{"geometry": {"coordinates": [-98.441459602, 36.408004417], "type": "Point"}, "id": "P9EHYNmUh85FCi8sbeDmvj0c5js=", "properties": {"@spider": "usps_collection_boxes", "addr:city": "CLEO SPRINGS", "addr:country": "US", "addr:full": "123 N SQUARE ST", "addr:postcode": "73729", "addr:state": "OK", "brand": "USPS", "collection_times": "Mo-Fr 16:00; Sa 09:15", "name": "USPS COLLECTION BOX - PO LOBBY", "note": "ON 12/24 AND 12/31, THIS BOX MAY BE COLLECTED AS EARLY AS 12 NOON.", "ref": "7372900001"}, "type": "Feature"}
{"geometry": {"coordinates": [-98.441459602, 36.408004417], "type": "Point"}, "id": "Q7J_TarxJQDKKYH2OQgwxkiynPs=", "properties": {"@spider": "usps_collection_boxes", "addr:city": "CLEO SPRINGS", "addr:country": "US", "addr:full": "123 N SQUARE ST", "addr:postcode": "73729", "addr:state": "OK", "brand": "USPS", "collection_times": "Mo-Fr 16:30; Sa 11:30", "name": "USPS COLLECTION BOX - PO LOBBY", "note": "ON 12/24 AND 12/31, THIS BOX MAY BE COLLECTED AS EARLY AS 12 NOON.", "ref": "7372900002"}, "type": "Feature"}
{"geometry": {"coordinates": [-97.589155, 36.305867], "type": "Point"}, "id": "qlWAgFT_Y4huwASXK9dNGnoP6dk=", "properties": {"@spider": "usps_collection_boxes", "addr:city": "COVINGTON", "addr:country": "US", "addr:full": "316 W MAIN ST", "addr:postcode": "73730", "addr:state": "OK", "brand": "USPS", "collection_times": "Mo-Fr 15:45; Sa 09:00", "name": "USPS COLLECTION BOX - BLUE BOX", "note": "ON 12/24 AND 12/31, THIS BOX MAY BE COLLECTED AS EARLY AS 12 NOON.", "ref": "7373000000"}, "type": "Feature"}
{"geometry": {"coordinates": [-97.589155, 36.305867], "type": "Point"}, "id": "8yDQUb9JSwOSRD338ncARg7xqEI=", "properties": {"@spider": "usps_collection_boxes", "addr:city": "COVINGTON", "addr:country": "US", "addr:full": "316 W MAIN ST", "addr:postcode": "73730", "addr:state": "OK", "brand": "USPS", "collection_times": "Mo-Fr 15:45; Sa 09:00", "name": "USPS COLLECTION BOX - PO LOBBY", "note": "ON 12/24 AND 12/31, THIS BOX MAY BE COLLECTED AS EARLY AS 12 NOON.", "ref": "7373000001"}, "type": "Feature"}
{"geometry": {"coordinates": [-97.589673, 36.305861468], "type": "Point"}, "id": "nWOOjGLsnkDFEOG7AmgkmW5pGHw=", "properties": {"@spider": "usps_collection_boxes", "addr:city": "COVINGTON", "addr:country": "US", "addr:full": "316 W MAIN ST", "addr:postcode": "73730", "addr:state": "OK", "brand": "USPS", "collection_times": "Mo-Fr 16:00; Sa 09:30", "name": "USPS COLLECTION BOX - PO LOBBY", "note": "ON 12/24 AND 12/31, THIS BOX MAY BE COLLECTED AS EARLY AS 12 NOON.", "ref": "7373000003"}, "type": "Feature"}
{"geometry": {"coordinates": [-98.563434, 36.661582], "type": "Point"}, "id": "rljl4Cj9YLmAoTwdfd2xpf7WhT4=", "properties": {"@spider": "usps_collection_boxes", "addr:city": "DACOMA", "addr:country": "US", "addr:full": "1000 MAIN ST", "addr:postcode": "73731", "addr:state": "OK", "brand": "USPS", "collection_times": "Mo-Fr 11:15; Sa 09:15", "name": "USPS COLLECTION BOX - PO LOBBY", "ref": "7373100001"}, "type": "Feature"}
{"geometry": {"coordinates": [-98.5635142627, 36.6621296647], "type": "Point"}, "id": "509FxHQ7wfftNLRPNQ4cBak0pII=", "properties": {"@spider": "usps_collection_boxes", "addr:city": "DACOMA", "addr:country": "US", "addr:full": "1023 MAIN ST", "addr:postcode": "73731", "addr:state": "OK", "brand": "USPS", "collection_times": "Mo-Fr 11:30; Sa 10:45", "name": "USPS COLLECTION BOX - PO LOBBY", "ref": "7373100003"}, "type": "Feature"}
{"geometry": {"coordinates": [-97.911677, 35.98194], "type": "Point"}, "id": "7DyIloo7Yc8jU42PRpf1kDeqFsQ=", "properties": {"@spider": "usps_collection_boxes", "addr:city": "DOVER", "addr:country": "US", "addr:full": "120 N CHISHOLM TRL", "addr:postcode": "73734", "addr:state": "OK", "brand": "USPS", "collection_times": "Mo-Fr 16:00; Sa 09:45", "name": "USPS COLLECTION BOX - BLUE BOX", "note": "ON 12/24 AND 12/31, THIS BOX MAY BE COLLECTED AS EARLY AS 12 NOON.", "ref": "7373400000"}, "type": "Feature"}
{"geometry": {"coordinates": [-97.911677, 35.98194], "type": "Point"}, "id": "ai8-5hTE6OKXs2X4gZa7PGAqK5I=", "properties": {"@spider": "usps_collection_boxes", "addr:city": "DOVER", "addr:country": "US", "addr:full": "120 N CHISHOLM TRL", "addr:postcode": "73734", "addr:state": "OK", "brand": "USPS", "collection_times": "Mo-Fr 16:00; Sa 09:45", "name": "USPS COLLECTION BOX - PO LOBBY", "note": "ON 12/24 AND 12/31, THIS BOX MAY BE COLLECTED AS EARLY AS 12 NOON.", "ref": "7373400001"}, "type": "Feature"}
{"geometry": {"coordinates": [-97.911677574, 35.981937472], "type": "Point"}, "id": "e3llKAUNeV_kqyQwmoIYO6r1A8g=", "properties": {"@spider": "usps_collection_boxes", "addr:city": "DOVER", "addr:country": "US", "addr:full": "120 N CHISHOLM TRL", "addr:postcode": "73734", "addr:state": "OK", "brand": "USPS", "collection_times": "Mo-Fr 16:00; Sa 10:00", "name": "USPS COLLECTION BOX - PO LOBBY", "note": "ON 12/24 AND 12/31, THIS BOX MAY BE COLLECTED AS EARLY AS 12 NOON.", "ref": "7373400003"}, "type": "Feature"}
{"geometry": {"coordinates": [-98.036627, 36.301017], "type": "Point"}, "id": "iRWz62172RvoymGJNFZD_jEOI9Q=", "properties": {"@spider": "usps_collection_boxes", "addr:city": "DRUMMOND", "addr:country": "US", "addr:full": "319 S MAIN ST", "addr:postcode": "73735", "addr:state": "OK", "brand": "USPS", "collection_times": "Mo-Fr 11:15; Sa 07:30", "name": "USPS COLLECTION BOX - BLUE BOX", "ref": "7373500000"}, "type": "Feature"}
{"geometry": {"coordinates": [-98.036627, 36.301014], "type": "Point"}, "id": "1VpmDy1Im5uALAlFLWHsawNKu_s=", "properties": {"@spider": "usps_collection_boxes", "addr:city": "DRUMMOND", "addr:country": "US", "addr:full": "319 S MAIN ST", "addr:postcode": "73735", "addr:state": "OK", "brand": "USPS", "collection_times": "Mo-Fr 11:15; Sa 07:30", "name": "USPS COLLECTION BOX - PO LOBBY", "ref": "7373500001"}, "type": "Feature"}
{"geometry": {"coordinates": [-98.036627, 36.301014], "type": "Point"}, "id": "S4VXkAcTx9Nz-WPa08KLtixwSJg=", "properties": {"@spider": "usps_collection_boxes", "addr:city": "DRUMMOND", "addr:country": "US", "addr:full": "319 S MAIN ST", "addr:postcode": "73735", "addr:state": "OK", "brand": "USPS", "collection_times": "Mo-Fr 11:15; Sa 07:30", "name": "USPS COLLECTION BOX - PO LOBBY", "ref": "7373500002"}, "type": "Feature"}
{"geometry": {"coordinates": [-98.036639877, 36.300284749], "type": "Point"}, "id": "zqZgh1roRHSkVxzrQh0QWn5hv7Q=", "properties": {"@spider": "usps_collection_boxes", "addr:city": "DRUMMOND", "addr:country": "US", "addr:full": "319 N MAIN ST", "addr:postcode": "73735", "addr:state": "OK", "brand": "USPS", "collection_times": "Mo-Fr 11:30", "name": "USPS COLLECTION BOX - PO LOBBY", "ref": "7373500003"}, "type": "Feature"}
{"geometry": {"coordinates": [-97.706575, 36.35559], "type": "Point"}, "id": "cPxzZhV0qUj5G9JvJ8VY36kMhgc=", "properties": {"@spider": "usps_collection_boxes", "addr:city": "FAIRMONT", "addr:country": "US", "addr:full": "620 MAIN ST", "addr:postcode": "73736", "addr:state": "OK", "brand": "USPS", "collection_times": "Mo-Fr 10:45; Sa 08:15", "name": "USPS COLLECTION BOX - PO LOBBY", "ref": "7373600001"}, "type": "Feature"}
{"geometry": {"coordinates": [-97.7065746, 36.355590335], "type": "Point"}, "id": "Hu3FwclECtRhvkDLP6-llw-DEY8=", "properties": {"@spider": "usps_collection_boxes", "addr:city": "FAIRMONT", "addr:country": "US", "addr:full": "620 MAIN ST", "addr:postcode": "73736", "addr:state": "OK", "brand": "USPS", "collection_times": "Mo-Fr 11:00; Sa 09:00", "name": "USPS COLLECTION BOX - PO LOBBY", "ref": "7373600002"}, "type": "Feature"}
{"geometry": {"coordinates": [-98.480141, 36.269025], "type": "Point"}, "id": "mpKSJCglsWACDvCeppvSnVas4_M=", "properties": {"@spider": "usps_collection_boxes", "addr:city": "FAIRVIEW", "addr:country": "US", "addr:full": "115 W BROADWAY", "addr:postcode": "73737", "addr:state": "OK", "brand": "USPS", "collection_times": "Mo-Fr 16:15; Sa 10:30", "name": "USPS COLLECTION BOX - BLUE BOX", "note": "ON 12/24 AND 12/31, THIS BOX MAY BE COLLECTED AS EARLY AS 12 NOON.", "ref": "7373700003"}, "type": "Feature"}
{"geometry": {"coordinates": [-98.480141, 36.269025], "type": "Point"}, "id": "m5_qX7z-GDrQPPNAsWm9gY46yu8=", "properties": {"@spider": "usps_collection_boxes", "addr:city": "FAIRVIEW", "addr:country": "US", "addr:full": "115 W BROADWAY", "addr:postcode": "73737", "addr:state": "OK", "brand": "USPS", "collection_times": "Mo-Fr 16:15; Sa 10:30", "name": "USPS COLLECTION BOX - PO LOBBY", "note": "ON 12/24 AND 12/31, THIS BOX MAY BE COLLECTED AS EARLY AS 12 NOON.", "ref": "7373700010"}, "type": "Feature"}
{"geometry": {"coordinates": [-98.480141, 36.269025], "type": "Point"}, "id": "IHxJ-0YdaaECapBATB8z7WzrBsg=", "properties": {"@spider": "usps_collection_boxes", "addr:city": "FAIRVIEW", "addr:country": "US", "addr:full": "115 W BROADWAY", "addr:postcode": "73737", "addr:state": "OK", "brand": "USPS", "collection_times": "Mo-Fr 16:15; Sa 10:30", "name": "USPS COLLECTION BOX - PO LOBBY", "note": "ON 12/24 AND 12/31, THIS BOX MAY BE COLLECTED AS EARLY AS 12 NOON.", "ref": "7373700011"}, "type": "Feature"}
{"geometry": {"coordinates": [-98.480694237, 36.269028485], "type": "Point"}, "id": "Tuy0FigRbbFwmRcW6PH_qY9FqbY=", "properties": {"@spider": "usps_collection_boxes", "addr:city": "FAIRVIEW", "addr:country": "US", "addr:full": "115 W BROADWAY", "addr:postcode": "73737", "addr:state": "OK", "brand": "USPS", "collection_times": "Mo-Fr 16:30", "name": "USPS COLLECTION BOX - PO LOBBY", "note": "ON 12/24 AND 12/31, THIS BOX MAY BE COLLECTED AS EARLY AS 12 NOON.", "ref": "7373700012"}, "type": "Feature"}
{"geometry": {"coordinates": [-97.582504, 36.442059], "type": "Point"}, "id": "Y_zSOzYwo1f3IAI0Uf6cxd1H__Y=", "properties": {"@spider": "usps_collection_boxes", "addr:city": "GARBER", "addr:country": "US", "addr:full": "104 MAIN ST", "addr:postcode": "73738", "addr:state": "OK", "brand": "USPS", "collection_times": "Mo-Fr 14:45; Sa 09:00", "name": "USPS COLLECTION BOX - BLUE BOX", "note": "ON 12/24 AND 12/31, THIS BOX MAY BE COLLECTED AS EARLY AS 12 NOON.", "ref": "7373800000"}, "type": "Feature"}
{"geometry": {"coordinates": [-97.582504, 36.442059], "type": "Point"}, "id": "Snz7w0f8AJKdOMsbnJSIS2AgrGg=", "properties": {"@spider": "usps_collection_boxes", "addr:city": "GARBER", "addr:country": "US", "addr:full": "104 MAIN ST", "addr:postcode": "73738", "addr:state": "OK", "brand": "USPS", "collection_times": "Mo-Fr 14:45; Sa 09:00", "name": "USPS COLLECTION BOX - PO LOBBY", "note": "ON 12/24 AND 12/31, THIS BOX MAY BE COLLECTED AS EARLY AS 12 NOON.", "ref": "7373800001"}, "type": "Feature"}
{"geometry": {"coordinates": [-97.582544179, 36.442088059], "type": "Point"}, "id": "MvIpE1MfBg3BiRo1BIjnZD3mjk8=", "properties": {"@spider": "usps_collection_boxes", "addr:city": "GARBER", "addr:country": "US", "addr:full": "104 MAIN ST", "addr:postcode": "73738", "addr:state": "OK", "brand": "USPS", "collection_times": "Mo-Fr 15:00", "name": "USPS COLLECTION BOX - PO LOBBY", "note": "ON 12/24 AND 12/31, THIS BOX MAY BE COLLECTED AS EARLY AS 12 NOON.", "ref": "7373800002"}, "type": "Feature"}
{"geometry": {"coordinates": [-98.14569, 36.532571], "type": "Point"}, "id": "QsJfP8PvtyXRJ5iG3SPGXdjSTBs=", "properties": {"@spider": "usps_collection_boxes", "addr:city": "GOLTRY", "addr:country": "US", "addr:full": "201 W MAIN", "addr:postcode": "73739", "addr:state": "OK", "brand": "USPS", "collection_times": "Mo-Fr 15:00; Sa 09:30", "name": "USPS COLLECTION BOX - PO LOBBY", "note": "ON 12/24 AND 12/31, THIS BOX MAY BE COLLECTED AS EARLY AS 12 NOON.", "ref": "7373900001"}, "type": "Feature"}
{"geometry": {"coordinates": [-98.153272, 36.53263], "type": "Point"}, "id": "qQaji5dVhl9IH720XGc1vzI0DSo=", "properties": {"@spider": "usps_collection_boxes", "addr:city": "GOLTRY", "addr:country": "US", "addr:full": "201 W MAIN", "addr:postcode": "73739", "addr:state": "OK", "brand": "USPS", "collection_times": "Mo-Fr 15:00; Sa 09:30", "name": "USPS COLLECTION BOX - PO LOBBY", "note": "ON 12/24 AND 12/31, THIS BOX MAY BE COLLECTED AS EARLY AS 12 NOON.", "ref": "7373900003"}, "type": "Feature"}
{"geometry": {"coordinates": [-98.153244, 36.532625468], "type": "Point"}, "id": "6F_xl1w6krGoPHss9-rnQ4sBfsA=", "properties": {"@spider": "usps_collection_boxes", "addr:city": "GOLTRY", "addr:country": "US", "addr:full": "201 W MAIN", "addr:postcode": "73739", "addr:state": "OK", "brand": "USPS", "collection_times": "Mo-Fr 16:30; Sa 12:15", "name": "USPS COLLECTION BOX - PO LOBBY", "note": "ON 12/24 AND 12/31, THIS BOX MAY BE COLLECTED AS EARLY AS 12 NOON.", "ref": "7373900004"}, "type": "Feature"}
{"geometry": {"coordinates": [-98.26996, 36.543421], "type": "Point"}, "id": "Ws2F6W2zLaYz9xH5c4MPCkt-h0c=", "properties": {"@spider": "usps_collection_boxes", "addr:city": "HELENA", "addr:country": "US", "addr:full": "212 N MAIN ST", "addr:postcode": "73741", "addr:state": "OK", "brand": "USPS", "collection_times": "Mo-Fr 15:00; Sa 09:00", "name": "USPS COLLECTION BOX - PO LOBBY", "note": "ON 12/24 AND 12/31, THIS BOX MAY BE COLLECTED AS EARLY AS 12 NOON.", "ref": "7374100001"}, "type": "Feature"}
{"geometry": {"coordinates": [-98.269995, 36.545304], "type": "Point"}, "id": "YwP43Y1uxjekLx9T5Bkrsw-htbc=", "properties": {"@spider": "usps_collection_boxes", "addr:city": "HELENA", "addr:country": "US", "addr:full": "212 N MAIN ST", "addr:postcode": "73741", "addr:state": "OK", "brand": "USPS", "collection_times": "Mo-Fr 15:00; Sa 09:00", "name": "USPS COLLECTION BOX - PO LOBBY", "note": "ON 12/24 AND 12/31, THIS BOX MAY BE COLLECTED AS EARLY AS 12 NOON.", "ref": "7374100002"}, "type": "Feature"}
{"geometry": {"coordinates": [-98.269997184, 36.545561665], "type": "Point"}, "id": "3v6Zm0iuMxsnvZPxyGKeqElpGXM=", "properties": {"@spider": "usps_collection_boxes", "addr:city": "HELENA", "addr:country": "US", "addr:full": "212 N MAIN ST", "addr:postcode": "73741", "addr:state": "OK", "brand": "USPS", "collection_times": "Mo-Fr 15:00; Sa 09:00", "name": "USPS COLLECTION BOX - PO LOBBY", "note": "ON 12/24 AND 12/31, THIS BOX MAY BE COLLECTED AS EARLY AS 12 NOON.", "ref": "7374100003"}, "type": "Feature"}
{"geometry": {"coordinates": [-97.898937, 36.107571], "type": "Point"}, "id": "HBeBZsQL-AJIi87A6Oej0Cb4SIE=", "properties": {"@spider": "usps_collection_boxes", "addr:city": "HENNESSEY", "addr:country": "US", "addr:full": "221 S MAIN ST", "addr:postcode": "73742", "addr:state": "OK", "brand": "USPS", "collection_times": "Mo-Fr 16:00; Sa 11:00", "name": "USPS COLLECTION BOX - BLUE BOX", "note": "ON 12/24 AND 12/31, THIS BOX MAY BE COLLECTED AS EARLY AS 12 NOON.", "ref": "7374200001"}, "type": "Feature"}
{"geometry": {"coordinates": [-97.898937, 36.107571], "type": "Point"}, "id": "dbIrVOOt6E0A8rs0CqWqsmG5gbY=", "properties": {"@spider": "usps_collection_boxes", "addr:city": "HENNESSEY", "addr:country": "US", "addr:full": "221 S MAIN ST", "addr:postcode": "73742", "addr:state": "OK", "brand": "USPS", "collection_times": "Mo-Fr 16:00; Sa 11:00", "name": "USPS COLLECTION BOX - BLUE BOX", "note": "ON 12/24 AND 12/31, THIS BOX MAY BE COLLECTED AS EARLY AS 12 NOON.", "ref": "7374200002"}, "type": "Feature"}
{"geometry": {"coordinates": [-97.898937, 36.107571], "type": "Point"}, "id": "l3o0u6X32q5e5iLyNjRuU_GVNCw=", "properties": {"@spider": "usps_collection_boxes", "addr:city": "HENNESSEY", "addr:country": "US", "addr:full": "221 S MAIN ST", "addr:postcode": "73742", "addr:state": "OK", "brand": "USPS", "collection_times": "Mo-Fr 16:00; Sa 11:00", "name": "USPS COLLECTION BOX - PO LOBBY", "note": "ON 12/24 AND 12/31, THIS BOX MAY BE COLLECTED AS EARLY AS 12 NOON.", "ref": "7374200006"}, "type": "Feature"}
{"geometry": {"coordinates": [-97.898938012, 36.107568974], "type": "Point"}, "id": "34uXfTKYrKARsPowMeTqNzp433k=", "properties": {"@spider": "usps_collection_boxes", "addr:city": "HENNESSEY", "addr:country": "US", "addr:full": "221 S MAIN ST", "addr:postcode": "73742", "addr:state": "OK", "brand": "USPS", "collection_times": "Mo-Fr 16:30; Sa 10:30", "name": "USPS COLLECTION BOX - PO LOBBY", "note": "ON 12/24 AND 12/31, THIS BOX MAY BE COLLECTED AS EARLY AS 12 NOON.", "ref": "7374200007"}, "type": "Feature"}
{"geometry": {"coordinates": [-97.991869812, 36.562554], "type": "Point"}, "id": "_xnvPXP8BFaYk5ttYQsR8NNlkss=", "properties": {"@spider": "usps_collection_boxes", "addr:city": "HILLSDALE", "addr:country": "US", "addr:full": "103 S MAIN ST", "addr:postcode": "73743", "addr:state": "OK", "brand": "USPS", "collection_times": "Mo-Fr 10:45; Sa 10:00", "name": "USPS COLLECTION BOX - PO LOBBY", "ref": "7374300002"}, "type": "Feature"}
{"geometry": {"coordinates": [-97.991869812, 36.562554], "type": "Point"}, "id": "5hZ00Cu2KWaOVoK-nyArqF_s59g=", "properties": {"@spider": "usps_collection_boxes", "addr:city": "HILLSDALE", "addr:country": "US", "addr:full": "103 S MAIN ST", "addr:postcode": "73743", "addr:state": "OK", "brand": "USPS", "collection_times": "Mo-Fr 11:00; Sa 11:30", "name": "USPS COLLECTION BOX - PO LOBBY", "ref": "7374300003"}, "type": "Feature"}
{"geometry": {"coordinates": [-98.349162, 35.968068], "type": "Point"}, "id": "4ut38E3EgnJnWJ157xfvUMj8M3I=", "properties": {"@spider": "usps_collection_boxes", "addr:city": "HITCHCOCK", "addr:country": "US", "addr:full": "104 W MAIN ST", "addr:postcode": "73744", "addr:state": "OK", "brand": "USPS", "collection_times": "Mo-Fr 15:15; Sa 10:00", "name": "USPS COLLECTION BOX - PO LOBBY", "note": "ON 12/24 AND 12/31, THIS BOX MAY BE COLLECTED AS EARLY AS 12 NOON.", "ref": "7374400001"}, "type": "Feature"}
{"geometry": {"coordinates": [-98.349162, 35.968068], "type": "Point"}, "id": "pVyGMu6EYxJyh0p1EeWW5zvxevU=", "properties": {"@spider": "usps_collection_boxes", "addr:city": "HITCHCOCK", "addr:country": "US", "addr:full": "104 W MAIN ST", "addr:postcode": "73744", "addr:state": "OK", "brand": "USPS", "collection_times": "Mo-Fr 15:15; Sa 10:00", "name": "USPS COLLECTION BOX - PO LOBBY", "note": "ON 12/24 AND 12/31, THIS BOX MAY BE COLLECTED AS EARLY AS 12 NOON.", "ref": "7374400002"}, "type": "Feature"}
{"geometry": {"coordinates": [-98.349421332, 35.967997543], "type": "Point"}, "id": "CdoFxf3GIln10d34B1_7z6RcRuM=", "properties": {"@spider": "usps_collection_boxes", "addr:city": "HITCHCOCK", "addr:country": "US", "addr:full": "107 W MAIN ST", "addr:postcode": "73744", "addr:state": "OK", "brand": "USPS", "collection_times": "Mo-Fr 15:30; Sa 10:00", "name": "USPS COLLECTION BOX - PO LOBBY", "note": "ON 12/24 AND 12/31, THIS BOX MAY BE COLLECTED AS EARLY AS 12 NOON.", "ref": "7374400003"}, "type": "Feature"}
{"geometry": {"coordinates": [-98.666296694, 36.687145215], "type": "Point"}, "id": "fenUjwxXpiwgagIjjt7VnoonYhg=", "properties": {"@spider": "usps_collection_boxes", "addr:city": "HOPETON", "addr:country": "US", "addr:full": "19405 COUNTY ROAD 440", "addr:postcode": "73746", "addr:state": "OK", "brand": "USPS", "collection_times": "Mo-Fr 14:00; Sa 09:00", "name": "USPS COLLECTION BOX - PO LOBBY", "note": "ON 12/24 AND 12/31, THIS BOX MAY BE COLLECTED AS EARLY AS 12 NOON.", "ref": "7374600001"}, "type": "Feature"}
{"geometry": {"coordinates": [-98.666296694, 36.687145215], "type": "Point"}, "id": "YLUXUQVmmb8r6B5L1PocWZ_Dqsc=", "properties": {"@spider": "usps_collection_boxes", "addr:city": "HOPETON", "addr:country": "US", "addr:full": "19405 COUNTY ROAD 440", "addr:postcode": "73746", "addr:state": "OK", "brand": "USPS", "collection_times": "Mo-Fr 14:30; Sa 12:00", "name": "USPS COLLECTION BOX - PO LOBBY", "note": "ON 12/24 AND 12/31, THIS BOX MAY BE COLLECTED AS EARLY AS 12 NOON.", "ref": "7374600002"}, "type": "Feature"}
{"geometry": {"coordinates": [-98.341702561, 36.2368538838], "type": "Point"}, "id": "LkWTUKn_lryIkgYpSPK7Y2htzDw=", "properties": {"@spider": "usps_collection_boxes", "addr:city": "ISABELLA", "addr:country": "US", "addr:full": "130 W MAIN", "addr:postcode": "73747", "addr:state": "OK", "brand": "USPS", "collection_times": "Mo-Fr 15:30; Sa 09:00", "name": "USPS COLLECTION BOX - PO LOBBY", "note": "ON 12/24 AND 12/31, THIS BOX MAY BE COLLECTED AS EARLY AS 12 NOON.", "ref": "7374700001"}, "type": "Feature"}
{"geometry": {"coordinates": [-98.33526, 36.21717], "type": "Point"}, "id": "yxZQSdMx-5bLi8455sFjgGP6lIY=", "properties": {"@spider": "usps_collection_boxes", "addr:city": "ISABELLA", "addr:country": "US", "addr:full": "130 W MAIN ST", "addr:postcode": "73747", "addr:state": "OK", "brand": "USPS", "collection_times": "Mo-Fr 15:30; Sa 11:30", "name": "USPS COLLECTION BOX - PO LOBBY", "note": "ON 12/24 AND 12/31, THIS BOX MAY BE COLLECTED AS EARLY AS 12 NOON.", "ref": "7374700002"}, "type": "Feature"}
{"geometry": {"coordinates": [-98.179907, 36.66621], "type": "Point"}, "id": "vnvlU1OqpJ7gQQ8KWVdpFfWmHJU=", "properties": {"@spider": "usps_collection_boxes", "addr:city": "JET", "addr:country": "US", "addr:full": "418 MAIN ST", "addr:postcode": "73749", "addr:state": "OK", "brand": "USPS", "collection_times": "Mo-Fr 16:00; Sa 10:45", "name": "USPS COLLECTION BOX - PO LOBBY", "note": "ON 12/24 AND 12/31, THIS BOX MAY BE COLLECTED AS EARLY AS 12 NOON.", "ref": "7374900001"}, "type": "Feature"}
{"geometry": {"coordinates": [-98.179907, 36.66621], "type": "Point"}, "id": "ds0OjwapV6CPntUaGNjXt5Q1Dl0=", "properties": {"@spider": "usps_collection_boxes", "addr:city": "JET", "addr:country": "US", "addr:full": "418 MAIN ST", "addr:postcode": "73749", "addr:state": "OK", "brand": "USPS", "collection_times": "Mo-Fr 16:00; Sa 10:45", "name": "USPS COLLECTION BOX - PO LOBBY", "note": "ON 12/24 AND 12/31, THIS BOX MAY BE COLLECTED AS EARLY AS 12 NOON.", "ref": "7374900002"}, "type": "Feature"}
{"geometry": {"coordinates": [-98.181184284, 36.666170337], "type": "Point"}, "id": "eUBuUrsvL_-LEfmhRaqFcu1XoSs=", "properties": {"@spider": "usps_collection_boxes", "addr:city": "JET", "addr:country": "US", "addr:full": "418 MAIN ST", "addr:postcode": "73749", "addr:state": "OK", "brand": "USPS", "collection_times": "Mo-Fr 16:30; Sa 11:00", "name": "USPS COLLECTION BOX - PO LOBBY", "note": "ON 12/24 AND 12/31, THIS BOX MAY BE COLLECTED AS EARLY AS 12 NOON.", "ref": "7374900003"}, "type": "Feature"}
{"geometry": {"coordinates": [-97.93271, 35.85973], "type": "Point"}, "id": "FYVQPKG_gtjLOsU9lP1zsd_Tyns=", "properties": {"@spider": "usps_collection_boxes", "addr:city": "KINGFISHER", "addr:country": "US", "addr:full": "214 S MAIN ST", "addr:postcode": "73750", "addr:state": "OK", "brand": "USPS", "collection_times": "Mo-Fr 16:45; Sa 11:30", "name": "USPS COLLECTION BOX - BLUE BOX", "note": "ON 12/24 AND 12/31, THIS BOX MAY BE COLLECTED AS EARLY AS 12 NOON.", "ref": "7375000003"}, "type": "Feature"}
{"geometry": {"coordinates": [-97.93271, 35.85973], "type": "Point"}, "id": "6JDDBky0LtJ2pdMUU4fkhQWA9jA=", "properties": {"@spider": "usps_collection_boxes", "addr:city": "KINGFISHER", "addr:country": "US", "addr:full": "214 S MAIN ST", "addr:postcode": "73750", "addr:state": "OK", "brand": "USPS", "collection_times": "Mo-Fr 16:45; Sa 11:30", "name": "USPS COLLECTION BOX - PO LOBBY", "note": "ON 12/24 AND 12/31, THIS BOX MAY BE COLLECTED AS EARLY AS 12 NOON.", "ref": "7375000006"}, "type": "Feature"}
{"geometry": {"coordinates": [-97.932704886, 35.859329413], "type": "Point"}, "id": "NqZP6neqRC5z5YFJuzj-nU9ScYs=", "properties": {"@spider": "usps_collection_boxes", "addr:city": "KINGFISHER", "addr:country": "US", "addr:full": "214 S MAIN ST", "addr:postcode": "73750", "addr:state": "OK", "brand": "USPS", "collection_times": "Mo-Fr 16:30; Sa 11:00", "name": "USPS COLLECTION BOX - PO LOBBY", "note": "ON 12/24 AND 12/31, THIS BOX MAY BE COLLECTED AS EARLY AS 12 NOON.", "ref": "7375000009"}, "type": "Feature"}
{"geometry": {"coordinates": [-97.829871, 36.550133], "type": "Point"}, "id": "YISBc2ZwnGrQ-DFl7_lwrKMaoHw=", "properties": {"@spider": "usps_collection_boxes", "addr:city": "KREMLIN", "addr:country": "US", "addr:full": "3415 E KEOWEE RD", "addr:postcode": "73753", "addr:state": "OK", "brand": "USPS", "collection_times": "Mo-Fr 15:45; Sa 09:15", "name": "USPS COLLECTION BOX - BLUE BOX", "note": "ON 12/24 AND 12/31, THIS BOX MAY BE COLLECTED AS EARLY AS 12 NOON.", "ref": "7375300000"}, "type": "Feature"}
{"geometry": {"coordinates": [-97.829871, 36.550133], "type": "Point"}, "id": "qKihTo4FzRH1VNn6Nc1xN7epSV0=", "properties": {"@spider": "usps_collection_boxes", "addr:city": "KREMLIN", "addr:country": "US", "addr:full": "3415 E KEOWEE RD", "addr:postcode": "73753", "addr:state": "OK", "brand": "USPS", "collection_times": "Mo-Fr 15:45; Sa 09:15", "name": "USPS COLLECTION BOX - PO LOBBY", "note": "ON 12/24 AND 12/31, THIS BOX MAY BE COLLECTED AS EARLY AS 12 NOON.", "ref": "7375300001"}, "type": "Feature"}
{"geometry": {"coordinates": [-97.829871, 36.550133], "type": "Point"}, "id": "qzGok7OWwiOqw4XZTiZoCC2kSN8=", "properties": {"@spider": "usps_collection_boxes", "addr:city": "KREMLIN", "addr:country": "US", "addr:full": "3415 E KEOWEE RD", "addr:postcode": "73753", "addr:state": "OK", "brand": "USPS", "collection_times": "Mo-Fr 15:45; Sa 09:15", "name": "USPS COLLECTION BOX - PO LOBBY", "note": "ON 12/24 AND 12/31, THIS BOX MAY BE COLLECTED AS EARLY AS 12 NOON.", "ref": "7375300002"}, "type": "Feature"}
{"geometry": {"coordinates": [-97.830111945, 36.550130503], "type": "Point"}, "id": "xoWg1JyULBArq6z_lYgQeSgVutQ=", "properties": {"@spider": "usps_collection_boxes", "addr:city": "KREMLIN", "addr:country": "US", "addr:full": "3415 E KEOWEE RD", "addr:postcode": "73753", "addr:state": "OK", "brand": "USPS", "collection_times": "Mo-Fr 15:45; Sa 09:30", "name": "USPS COLLECTION BOX - PO LOBBY", "note": "ON 12/24 AND 12/31, THIS BOX MAY BE COLLECTED AS EARLY AS 12 NOON.", "ref": "7375300003"}, "type": "Feature"}
{"geometry": {"coordinates": [-98.089366, 36.38924], "type": "Point"}, "id": "UIXw3YRBEUZcQW_8pd7F1oqUJFE=", "properties": {"@spider": "usps_collection_boxes", "addr:city": "LAHOMA", "addr:country": "US", "addr:full": "535 MAIN ST", "addr:postcode": "73754", "addr:state": "OK", "brand": "USPS", "collection_times": "Mo-Fr 16:15; Sa 09:15", "name": "USPS COLLECTION BOX - PO LOBBY", "note": "ON 12/24 AND 12/31, THIS BOX MAY BE COLLECTED AS EARLY AS 12 NOON.", "ref": "7375400001"}, "type": "Feature"}
{"geometry": {"coordinates": [-98.089366, 36.38924], "type": "Point"}, "id": "-54rT3LLVvifr58u-Wrz7Mps80o=", "properties": {"@spider": "usps_collection_boxes", "addr:city": "LAHOMA", "addr:country": "US", "addr:full": "535 MAIN ST", "addr:postcode": "73754", "addr:state": "OK", "brand": "USPS", "collection_times": "Mo-Fr 16:15; Sa 09:15", "name": "USPS COLLECTION BOX - PO LOBBY", "note": "ON 12/24 AND 12/31, THIS BOX MAY BE COLLECTED AS EARLY AS 12 NOON.", "ref": "7375400002"}, "type": "Feature"}
{"geometry": {"coordinates": [-98.089368388, 36.389237354], "type": "Point"}, "id": "U2IXmnfxUqkz2CHBgLH-haaPdBg=", "properties": {"@spider": "usps_collection_boxes", "addr:city": "LAHOMA", "addr:country": "US", "addr:full": "535 MAIN ST", "addr:postcode": "73754", "addr:state": "OK", "brand": "USPS", "collection_times": "Mo-Fr 16:15; Sa 09:00", "name": "USPS COLLECTION BOX - PO LOBBY", "note": "ON 12/24 AND 12/31, THIS BOX MAY BE COLLECTED AS EARLY AS 12 NOON.", "ref": "7375400003"}, "type": "Feature"}
{"geometry": {"coordinates": [-98.547782, 36.137259], "type": "Point"}, "id": "eHO5uckyC9pmd-PT2gbsAPhlEZA=", "properties": {"@spider": "usps_collection_boxes", "addr:city": "LONGDALE", "addr:country": "US", "addr:full": "501 KEN MILLER BLVD", "addr:postcode": "73755", "addr:state": "OK", "brand": "USPS", "collection_times": "Mo-Fr 12:00; Sa 08:45", "name": "USPS COLLECTION BOX - BLUE BOX", "ref": "7375500000"}, "type": "Feature"}
{"geometry": {"coordinates": [-98.547782, 36.137259], "type": "Point"}, "id": "7_TfQWJLI3z_dqIto_ZR0CVUPzI=", "properties": {"@spider": "usps_collection_boxes", "addr:city": "LONGDALE", "addr:country": "US", "addr:full": "501 KEN MILLER BLVD", "addr:postcode": "73755", "addr:state": "OK", "brand": "USPS", "collection_times": "Mo-Fr 11:45; Sa 08:45", "name": "USPS COLLECTION BOX - PO LOBBY", "ref": "7375500001"}, "type": "Feature"}
{"geometry": {"coordinates": [-98.547724575, 36.133748988], "type": "Point"}, "id": "W_GnhqIpdqxe73gj3SDpjycviYM=", "properties": {"@spider": "usps_collection_boxes", "addr:city": "LONGDALE", "addr:country": "US", "addr:full": "501 KEN MILLER BLVD", "addr:postcode": "73755", "addr:state": "OK", "brand": "USPS", "collection_times": "Mo-Fr 12:00; Sa 09:00", "name": "USPS COLLECTION BOX - PO LOBBY", "ref": "7375500002"}, "type": "Feature"}
{"geometry": {"coordinates": [-98.1209346577, 35.9731226758], "type": "Point"}, "id": "DvSgZoSyBBR9cD86HgHfOjr-qto=", "properties": {"@spider": "usps_collection_boxes", "addr:city": "LOYAL", "addr:country": "US", "addr:full": "119 MAIN ST", "addr:postcode": "73756", "addr:state": "OK", "brand": "USPS", "collection_times": "Mo-Fr 11:45; Sa 10:45", "name": "USPS COLLECTION BOX - BLUE BOX", "ref": "7375600000"}, "type": "Feature"}
{"geometry": {"coordinates": [-98.1209346577, 35.9731226758], "type": "Point"}, "id": "2rNYGahesa3ssYLUHbBBJFD3LE0=", "properties": {"@spider": "usps_collection_boxes", "addr:city": "LOYAL", "addr:country": "US", "addr:full": "119  MAIN ST", "addr:postcode": "73756", "addr:state": "OK", "brand": "USPS", "collection_times": "Mo-Fr 11:45; Sa 10:45", "name": "USPS COLLECTION BOX - PO LOBBY", "ref": "7375600001"}, "type": "Feature"}
{"geometry": {"coordinates": [-98.1209346577, 35.9731226758], "type": "Point"}, "id": "kS9_Jqab-5hExXKYNfvQgPRrbpE=", "properties": {"@spider": "usps_collection_boxes", "addr:city": "LOYAL", "addr:country": "US", "addr:full": "119 MAIN ST", "addr:postcode": "73756", "addr:state": "OK", "brand": "USPS", "collection_times": "Mo-Fr 12:00; Sa 12:30", "name": "USPS COLLECTION BOX - PO LOBBY", "note": "ON 12/24 AND 12/31, THIS BOX MAY BE COLLECTED AS EARLY AS 12 NOON.", "ref": "7375600002"}, "type": "Feature"}
{"geometry": {"coordinates": [-98.036762, 36.993927], "type": "Point"}, "id": "AuD8WGaGJWZq_mA7VowR5dzn8rI=", "properties": {"@spider": "usps_collection_boxes", "addr:city": "MANCHESTER", "addr:country": "US", "addr:full": "1561 MAIN ST", "addr:postcode": "73758", "addr:state": "OK", "brand": "USPS", "collection_times": "Mo-Fr 11:30; Sa 09:30", "name": "USPS COLLECTION BOX - BLUE BOX", "ref": "7375800000"}, "type": "Feature"}
{"geometry": {"coordinates": [-98.036762, 36.993927], "type": "Point"}, "id": "5n8FoMuOnMdNYh06cL3pop0duzQ=", "properties": {"@spider": "usps_collection_boxes", "addr:city": "MANCHESTER", "addr:country": "US", "addr:full": "1561 MAIN ST", "addr:postcode": "73758", "addr:state": "OK", "brand": "USPS", "collection_times": "Mo-Fr 11:15; Sa 09:30", "name": "USPS COLLECTION BOX - PO LOBBY", "ref": "7375800001"}, "type": "Feature"}
{"geometry": {"coordinates": [-98.036762, 36.993927], "type": "Point"}, "id": "5WIdLgZrZH9ANClR8OYku8RlI70=", "properties": {"@spider": "usps_collection_boxes", "addr:city": "MANCHESTER", "addr:country": "US", "addr:full": "1561 MAIN ST", "addr:postcode": "73758", "addr:state": "OK", "brand": "USPS", "collection_times": "Mo-Fr 11:15; Sa 09:30", "name": "USPS COLLECTION BOX - PO LOBBY", "ref": "7375800002"}, "type": "Feature"}
{"geometry": {"coordinates": [-98.03677369, 36.993874033], "type": "Point"}, "id": "t8JosAuIbRYGCUHW-EJX3PnNcwI=", "properties": {"@spider": "usps_collection_boxes", "addr:city": "MANCHESTER", "addr:country": "US", "addr:full": "1561 MAIN ST", "addr:postcode": "73758", "addr:state": "OK", "brand": "USPS", "collection_times": "Mo-Fr 11:30; Sa 09:30", "name": "USPS COLLECTION BOX - PO LOBBY", "ref": "7375800003"}, "type": "Feature"}
{"geometry": {"coordinates": [-97.7356714191, 36.8069605173], "type": "Point"}, "id": "7A9Z5FrVT-VCSfC5LSrpZmVTvIA=", "properties": {"@spider": "usps_collection_boxes", "addr:city": "MEDFORD", "addr:country": "US", "addr:full": "115 W CHEROKEE ST", "addr:postcode": "73759", "addr:state": "OK", "brand": "USPS", "collection_times": "Mo-Fr 16:00; Sa 11:45", "name": "USPS COLLECTION BOX - BLUE BOX", "note": "ON 12/24 AND 12/31, THIS BOX MAY BE COLLECTED AS EARLY AS 12 NOON.", "ref": "7375900002"}, "type": "Feature"}
{"geometry": {"coordinates": [-97.735671, 36.806964], "type": "Point"}, "id": "VWGA8nB9ICDm69rf__sv6eId_ls=", "properties": {"@spider": "usps_collection_boxes", "addr:city": "MEDFORD", "addr:country": "US", "addr:full": "115 W CHEROKEE ST", "addr:postcode": "73759", "addr:state": "OK", "brand": "USPS", "collection_times": "Mo-Fr 16:30; Sa 11:45", "name": "USPS COLLECTION BOX - PO LOBBY", "note": "ON 12/24 AND 12/31, THIS BOX MAY BE COLLECTED AS EARLY AS 12 NOON.", "ref": "7375900003"}, "type": "Feature"}
{"geometry": {"coordinates": [-97.735671, 36.806964], "type": "Point"}, "id": "ZB1LA-WS6V6RgpSlrV_-uptTlqA=", "properties": {"@spider": "usps_collection_boxes", "addr:city": "MEDFORD", "addr:country": "US", "addr:full": "115 W CHEROKEE ST", "addr:postcode": "73759", "addr:state": "OK", "brand": "USPS", "collection_times": "Mo-Fr 16:00; Sa 11:45", "name": "USPS COLLECTION BOX - PO LOBBY", "note": "ON 12/24 AND 12/31, THIS BOX MAY BE COLLECTED AS EARLY AS 12 NOON.", "ref": "7375900004"}, "type": "Feature"}
{"geometry": {"coordinates": [-97.735671, 36.806964], "type": "Point"}, "id": "X3awDXYFms_Z6VIll9_zMEmSXhk=", "properties": {"@spider": "usps_collection_boxes", "addr:city": "MEDFORD", "addr:country": "US", "addr:full": "115 W CHEROKEE ST", "addr:postcode": "73759", "addr:state": "OK", "brand": "USPS", "collection_times": "Mo-Fr 16:30; Sa 11:45", "name": "USPS COLLECTION BOX - PO LOBBY", "note": "ON 12/24 AND 12/31, THIS BOX MAY BE COLLECTED AS EARLY AS 12 NOON.", "ref": "7375900006"}, "type": "Feature"}
{"geometry": {"coordinates": [-97.735671419, 36.806960517], "type": "Point"}, "id": "m6G7HcAa2PFIR3CPDr65QHvhPE4=", "properties": {"@spider": "usps_collection_boxes", "addr:city": "MEDFORD", "addr:country": "US", "addr:full": "115 W CHEROKEE ST", "addr:postcode": "73759", "addr:state": "OK", "brand": "USPS", "collection_times": "Mo-Fr 16:30; Sa 10:30", "name": "USPS COLLECTION BOX - PO LOBBY", "note": "ON 12/24 AND 12/31, THIS BOX MAY BE COLLECTED AS EARLY AS 12 NOON.", "ref": "7375900007"}, "type": "Feature"}
{"geometry": {"coordinates": [-98.1783454523, 36.3909410125], "type": "Point"}, "id": "A7VRSFQ0WGgFT0EznoAbDdPKRjw=", "properties": {"@spider": "usps_collection_boxes", "addr:city": "MENO", "addr:country": "US", "addr:full": "123 HIGHWAY 60", "addr:postcode": "73760", "addr:state": "OK", "brand": "USPS", "collection_times": "Mo-Fr 11:30; Sa 09:00", "name": "USPS COLLECTION BOX - BLUE BOX", "ref": "7376000000"}, "type": "Feature"}
{"geometry": {"coordinates": [-98.1783454523, 36.3909410125], "type": "Point"}, "id": "IrSe3W8ykEEG-aWHFNPa2X_z7rY=", "properties": {"@spider": "usps_collection_boxes", "addr:city": "MENO", "addr:country": "US", "addr:full": "123 HIGHWAY 60", "addr:postcode": "73760", "addr:state": "OK", "brand": "USPS", "collection_times": "Mo-Fr 11:30; Sa 09:00", "name": "USPS COLLECTION BOX - PO LOBBY", "ref": "7376000001"}, "type": "Feature"}
{"geometry": {"coordinates": [-98.1783454523, 36.3909410125], "type": "Point"}, "id": "tCHjD0Zvt6uFXoW1SjzOixjrm1E=", "properties": {"@spider": "usps_collection_boxes", "addr:city": "MENO", "addr:country": "US", "addr:full": "123 HIGHWAY 60", "addr:postcode": "73760", "addr:state": "OK", "brand": "USPS", "collection_times": "Mo-Fr 11:30; Sa 09:00", "name": "USPS COLLECTION BOX - PO LOBBY", "ref": "7376000002"}, "type": "Feature"}
{"geometry": {"coordinates": [-98.139114664, 36.390465], "type": "Point"}, "id": "bepkIgHfYJ9xkDb1tZlkqbgcqPA=", "properties": {"@spider": "usps_collection_boxes", "addr:city": "MENO", "addr:country": "US", "addr:full": "47134 HIGHWAY 412", "addr:postcode": "73760", "addr:state": "OK", "brand": "USPS", "collection_times": "Mo-Fr 11:30; Sa 08:30", "name": "USPS COLLECTION BOX - PO LOBBY", "ref": "7376000003"}, "type": "Feature"}
{"geometry": {"coordinates": [-98.050588, 36.66602], "type": "Point"}, "id": "9-gtDwfMOxvbBqIkEuAMVye2RD8=", "properties": {"@spider": "usps_collection_boxes", "addr:city": "NASH", "addr:country": "US", "addr:full": "103 S MAIN ST", "addr:postcode": "73761", "addr:state": "OK", "brand": "USPS", "collection_times": "Mo-Fr 11:30; Sa 09:30", "name": "USPS COLLECTION BOX - PO LOBBY", "ref": "7376100001"}, "type": "Feature"}
{"geometry": {"coordinates": [-98.050618663, 36.663489182], "type": "Point"}, "id": "FqmEmg5Zo6EHqQ2_GJ6q7XITvjA=", "properties": {"@spider": "usps_collection_boxes", "addr:city": "NASH", "addr:country": "US", "addr:full": "1480 MAIN ST", "addr:postcode": "73761", "addr:state": "OK", "brand": "USPS", "collection_times": "Mo-Fr 11:30; Sa 09:30", "name": "USPS COLLECTION BOX - PO LOBBY", "ref": "7376100002"}, "type": "Feature"}
{"geometry": {"coordinates": [-97.974075, 35.725863], "type": "Point"}, "id": "PyC4TLfTTagiO0LeHrOFWIr8A2k=", "properties": {"@spider": "usps_collection_boxes", "addr:city": "OKARCHE", "addr:country": "US", "addr:full": "120 W OKLAHOMA ST", "addr:postcode": "73762", "addr:state": "OK", "brand": "USPS", "collection_times": "Mo-Fr 16:15; Sa 10:00", "name": "USPS COLLECTION BOX - BLUE BOX", "note": "ON 12/24 AND 12/31, THIS BOX MAY BE COLLECTED AS EARLY AS 12 NOON.", "ref": "7376200000"}, "type": "Feature"}
{"geometry": {"coordinates": [-97.974073, 35.725809], "type": "Point"}, "id": "B_gC-zdbaj_5Vs9bg4soC_pqoM0=", "properties": {"@spider": "usps_collection_boxes", "addr:city": "OKARCHE", "addr:country": "US", "addr:full": "120 W OKLAHOMA ST", "addr:postcode": "73762", "addr:state": "OK", "brand": "USPS", "collection_times": "Mo-Fr 16:15; Sa 10:00", "name": "USPS COLLECTION BOX - PO LOBBY", "note": "ON 12/24 AND 12/31, THIS BOX MAY BE COLLECTED AS EARLY AS 12 NOON.", "ref": "7376200001"}, "type": "Feature"}
{"geometry": {"coordinates": [-97.974922081, 35.725781496], "type": "Point"}, "id": "LrbFIJ83c86_cf-Yr5UrnGoetIs=", "properties": {"@spider": "usps_collection_boxes", "addr:city": "OKARCHE", "addr:country": "US", "addr:full": "121 W OKLAHOMA ST", "addr:postcode": "73762", "addr:state": "OK", "brand": "USPS", "collection_times": "Mo-Fr 16:00; Sa 10:00", "name": "USPS COLLECTION BOX - PO LOBBY", "note": "ON 12/24 AND 12/31, THIS BOX MAY BE COLLECTED AS EARLY AS 12 NOON.", "ref": "7376200003"}, "type": "Feature"}
{"geometry": {"coordinates": [-98.315808, 36.11721], "type": "Point"}, "id": "c-dRMRbuPxDbp87jMczOhFyyMI0=", "properties": {"@spider": "usps_collection_boxes", "addr:city": "OKEENE", "addr:country": "US", "addr:full": "201 N 5TH ST", "addr:postcode": "73763", "addr:state": "OK", "brand": "USPS", "collection_times": "Mo-Fr 15:45; Sa 10:00", "name": "USPS COLLECTION BOX - BLUE BOX", "note": "ON 12/24 AND 12/31, THIS BOX MAY BE COLLECTED AS EARLY AS 12 NOON.", "ref": "7376300000"}, "type": "Feature"}
{"geometry": {"coordinates": [-98.315808, 36.11721], "type": "Point"}, "id": "R3k_rdqfmHDJ8lQRI9PPN1xJRk4=", "properties": {"@spider": "usps_collection_boxes", "addr:city": "OKEENE", "addr:country": "US", "addr:full": "201 N 5TH ST", "addr:postcode": "73763", "addr:state": "OK", "brand": "USPS", "collection_times": "Mo-Fr 16:00; Sa 10:00", "name": "USPS COLLECTION BOX - PO LOBBY", "note": "ON 12/24 AND 12/31, THIS BOX MAY BE COLLECTED AS EARLY AS 12 NOON.", "ref": "7376300001"}, "type": "Feature"}
{"geometry": {"coordinates": [-98.315808, 36.11721], "type": "Point"}, "id": "hBLGd0Nzo7wPjBWlJvb-J2b-sAc=", "properties": {"@spider": "usps_collection_boxes", "addr:city": "OKEENE", "addr:country": "US", "addr:full": "201 N 5TH ST", "addr:postcode": "73763", "addr:state": "OK", "brand": "USPS", "collection_times": "Mo-Fr 16:00; Sa 10:00", "name": "USPS COLLECTION BOX - PO LOBBY", "note": "ON 12/24 AND 12/31, THIS BOX MAY BE COLLECTED AS EARLY AS 12 NOON.", "ref": "7376300002"}, "type": "Feature"}
{"geometry": {"coordinates": [-98.315809447, 36.117206749], "type": "Point"}, "id": "0vRxbmky0R8nKGcomRmHkDfR-KA=", "properties": {"@spider": "usps_collection_boxes", "addr:city": "OKEENE", "addr:country": "US", "addr:full": "201 N 5TH ST", "addr:postcode": "73763", "addr:state": "OK", "brand": "USPS", "collection_times": "Mo-Fr 16:00", "name": "USPS COLLECTION BOX - PO LOBBY", "note": "ON 12/24 AND 12/31, THIS BOX MAY BE COLLECTED AS EARLY AS 12 NOON.", "ref": "7376300005"}, "type": "Feature"}
{"geometry": {"coordinates": [-97.799921, 36.669407], "type": "Point"}, "id": "q3STMI7NswVKY2H4wBICcedFohs=", "properties": {"@spider": "usps_collection_boxes", "addr:city": "POND CREEK", "addr:country": "US", "addr:full": "104 W BROADWAY ST", "addr:postcode": "73766", "addr:state": "OK", "brand": "USPS", "collection_times": "Mo-Fr 14:45; Sa 10:00", "name": "USPS COLLECTION BOX - PO LOBBY", "note": "ON 12/24 AND 12/31, THIS BOX MAY BE COLLECTED AS EARLY AS 12 NOON.", "ref": "7376600001"}, "type": "Feature"}
{"geometry": {"coordinates": [-97.799921, 36.669407], "type": "Point"}, "id": "bEvOBdzXtDsE13zSovqQcEgrFt0=", "properties": {"@spider": "usps_collection_boxes", "addr:city": "POND CREEK", "addr:country": "US", "addr:full": "104 W BROADWAY ST", "addr:postcode": "73766", "addr:state": "OK", "brand": "USPS", "collection_times": "Mo-Fr 14:45; Sa 10:00", "name": "USPS COLLECTION BOX - PO LOBBY", "note": "ON 12/24 AND 12/31, THIS BOX MAY BE COLLECTED AS EARLY AS 12 NOON.", "ref": "7376600002"}, "type": "Feature"}
{"geometry": {"coordinates": [-97.79988931, 36.669444815], "type": "Point"}, "id": "EE8nTYjFT-bXeOQNEa8wFe9bLdk=", "properties": {"@spider": "usps_collection_boxes", "addr:city": "POND CREEK", "addr:country": "US", "addr:full": "104 W BROADWAY ST", "addr:postcode": "73766", "addr:state": "OK", "brand": "USPS", "collection_times": "Mo-Fr 15:00; Sa 09:30", "name": "USPS COLLECTION BOX - PO LOBBY", "note": "ON 12/24 AND 12/31, THIS BOX MAY BE COLLECTED AS EARLY AS 12 NOON.", "ref": "7376600003"}, "type": "Feature"}
{"geometry": {"coordinates": [-98.2460812, 36.376801], "type": "Point"}, "id": "O51NqRtX93RVZIC7z999XNpL1PY=", "properties": {"@spider": "usps_collection_boxes", "addr:city": "RINGWOOD", "addr:country": "US", "addr:full": "124 S MAIN ST", "addr:postcode": "73768", "addr:state": "OK", "brand": "USPS", "collection_times": "Mo-Fr 13:45; Sa 09:45", "name": "USPS COLLECTION BOX - BLUE BOX", "note": "ON 12/24 AND 12/31, THIS BOX MAY BE COLLECTED AS EARLY AS 12 NOON.", "ref": "7376800000"}, "type": "Feature"}
{"geometry": {"coordinates": [-98.245845, 36.376877], "type": "Point"}, "id": "wm3L9TIZ6u2LqSYj8KNAPOMBRKs=", "properties": {"@spider": "usps_collection_boxes", "addr:city": "RINGWOOD", "addr:country": "US", "addr:full": "124 S MAIN ST", "addr:postcode": "73768", "addr:state": "OK", "brand": "USPS", "collection_times": "Mo-Fr 13:45; Sa 09:45", "name": "USPS COLLECTION BOX - PO LOBBY", "note": "ON 12/24 AND 12/31, THIS BOX MAY BE COLLECTED AS EARLY AS 12 NOON.", "ref": "7376800001"}, "type": "Feature"}
{"geometry": {"coordinates": [-98.245845, 36.376877], "type": "Point"}, "id": "wHqflVSrVZuc1y4Kva7UpIcA7h8=", "properties": {"@spider": "usps_collection_boxes", "addr:city": "RINGWOOD", "addr:country": "US", "addr:full": "124 S MAIN ST", "addr:postcode": "73768", "addr:state": "OK", "brand": "USPS", "collection_times": "Mo-Fr 13:45; Sa 09:45", "name": "USPS COLLECTION BOX - PO LOBBY", "note": "ON 12/24 AND 12/31, THIS BOX MAY BE COLLECTED AS EARLY AS 12 NOON.", "ref": "7376800002"}, "type": "Feature"}
{"geometry": {"coordinates": [-98.245845101, 36.376875273], "type": "Point"}, "id": "9u8Z25yXxMwFwugC2enbcxV7u9o=", "properties": {"@spider": "usps_collection_boxes", "addr:city": "RINGWOOD", "addr:country": "US", "addr:full": "124 S MAIN ST", "addr:postcode": "73768", "addr:state": "OK", "brand": "USPS", "collection_times": "Mo-Fr 14:00; Sa 09:30", "name": "USPS COLLECTION BOX - PO LOBBY", "note": "ON 12/24 AND 12/31, THIS BOX MAY BE COLLECTED AS EARLY AS 12 NOON.", "ref": "7376800003"}, "type": "Feature"}
{"geometry": {"coordinates": [-97.929658, 36.883293], "type": "Point"}, "id": "Yu28r0iBobHt_vQ6MGgP0iFj8Fc=", "properties": {"@spider": "usps_collection_boxes", "addr:city": "WAKITA", "addr:country": "US", "addr:full": "1742 MAIN ST", "addr:postcode": "73771", "addr:state": "OK", "brand": "USPS", "collection_times": "Mo-Fr 14:30; Sa 10:00", "name": "USPS COLLECTION BOX - BLUE BOX", "note": "ON 12/24 AND 12/31, THIS BOX MAY BE COLLECTED AS EARLY AS 12 NOON.", "ref": "7377100000"}, "type": "Feature"}
{"geometry": {"coordinates": [-97.9338648024, 36.8762412382], "type": "Point"}, "id": "SXlCAEPsc2jN73xzcTrCnzbmMh0=", "properties": {"@spider": "usps_collection_boxes", "addr:city": "WAKITA", "addr:country": "US", "addr:full": "1742 MAIN ST", "addr:postcode": "73771", "addr:state": "OK", "brand": "USPS", "collection_times": "Mo-Fr 14:30; Sa 12:00", "name": "USPS COLLECTION BOX - PO LOBBY", "note": "ON 12/24 AND 12/31, THIS BOX MAY BE COLLECTED AS EARLY AS 12 NOON.", "ref": "7377100001"}, "type": "Feature"}
{"geometry": {"coordinates": [-97.9338648024, 36.8762412382], "type": "Point"}, "id": "Ejhz3GfpjmsLatkVH5_74eiVvZc=", "properties": {"@spider": "usps_collection_boxes", "addr:city": "WAKITA", "addr:country": "US", "addr:full": "1742 MAIN ST", "addr:postcode": "73771", "addr:state": "OK", "brand": "USPS", "collection_times": "Mo-Fr 14:30; Sa 12:00", "name": "USPS COLLECTION BOX - PO LOBBY", "note": "ON 12/24 AND 12/31, THIS BOX MAY BE COLLECTED AS EARLY AS 12 NOON.", "ref": "7377100002"}, "type": "Feature"}
{"geometry": {"coordinates": [-97.925780021, 36.883287], "type": "Point"}, "id": "yLnt_ONnuwMYfXC-T10P21626oE=", "properties": {"@spider": "usps_collection_boxes", "addr:city": "WAKITA", "addr:country": "US", "addr:full": "1742 MAIN ST", "addr:postcode": "73771", "addr:state": "OK", "brand": "USPS", "collection_times": "Mo-Fr 14:30; Sa 12:00", "name": "USPS COLLECTION BOX - PO LOBBY", "note": "ON 12/24 AND 12/31, THIS BOX MAY BE COLLECTED AS EARLY AS 12 NOON.", "ref": "7377100003"}, "type": "Feature"}
{"geometry": {"coordinates": [-98.413165, 35.845201], "type": "Point"}, "id": "y7fL_jAJrYRvTtPaaLCjnMXZBWU=", "properties": {"@spider": "usps_collection_boxes", "addr:city": "WATONGA", "addr:country": "US", "addr:full": "121 N NOBLE AVE", "addr:postcode": "73772", "addr:state": "OK", "brand": "USPS", "collection_times": "Mo-Fr 16:00; Sa 10:00", "name": "USPS COLLECTION BOX - BLUE BOX", "note": "ON 12/24 AND 12/31, THIS BOX MAY BE COLLECTED AS EARLY AS 12 NOON.", "ref": "7377200005"}, "type": "Feature"}
{"geometry": {"coordinates": [-98.413165, 35.845201], "type": "Point"}, "id": "QY2RD0hFtCGG9Q0jHOHmB-mL-WM=", "properties": {"@spider": "usps_collection_boxes", "addr:city": "WATONGA", "addr:country": "US", "addr:full": "121 N NOBLE AVE", "addr:postcode": "73772", "addr:state": "OK", "brand": "USPS", "collection_times": "Mo-Fr 16:00; Sa 10:00", "name": "USPS COLLECTION BOX - PO LOBBY", "note": "ON 12/24 AND 12/31, THIS BOX MAY BE COLLECTED AS EARLY AS 12 NOON.", "ref": "7377200006"}, "type": "Feature"}
{"geometry": {"coordinates": [-98.413165, 35.845201], "type": "Point"}, "id": "peP9-ou5NPfX7Boogf-u4mWto1o=", "properties": {"@spider": "usps_collection_boxes", "addr:city": "WATONGA", "addr:country": "US", "addr:full": "121 N NOBLE AVE", "addr:postcode": "73772", "addr:state": "OK", "brand": "USPS", "collection_times": "Mo-Fr 16:00; Sa 10:00", "name": "USPS COLLECTION BOX - PO LOBBY", "note": "ON 12/24 AND 12/31, THIS BOX MAY BE COLLECTED AS EARLY AS 12 NOON.", "ref": "7377200007"}, "type": "Feature"}
{"geometry": {"coordinates": [-98.413165, 35.845201], "type": "Point"}, "id": "Twwhy54QvDiCVWh3f45ZQTh8S0k=", "properties": {"@spider": "usps_collection_boxes", "addr:city": "WATONGA", "addr:country": "US", "addr:full": "121 N NOBLE AVE", "addr:postcode": "73772", "addr:state": "OK", "brand": "USPS", "collection_times": "Mo-Fr 16:00; Sa 10:00", "name": "USPS COLLECTION BOX - BLUE BOX", "note": "ON 12/24 AND 12/31, THIS BOX MAY BE COLLECTED AS EARLY AS 12 NOON.", "ref": "7377200008"}, "type": "Feature"}
{"geometry": {"coordinates": [-98.413167875, 35.845200587], "type": "Point"}, "id": "JufhX1DhBtWxLJWmZhFCql_9IdY=", "properties": {"@spider": "usps_collection_boxes", "addr:city": "WATONGA", "addr:country": "US", "addr:full": "121 N NOBLE AVE", "addr:postcode": "73772", "addr:state": "OK", "brand": "USPS", "collection_times": "Mo-Fr 16:15", "name": "USPS COLLECTION BOX - PO LOBBY", "note": "ON 12/24 AND 12/31, THIS BOX MAY BE COLLECTED AS EARLY AS 12 NOON.", "ref": "7377200009"}, "type": "Feature"}
{"geometry": {"coordinates": [-97.89433, 36.280107], "type": "Point"}, "id": "PLLmrc9z1Dei6h1TrjkMlCr0dCk=", "properties": {"@spider": "usps_collection_boxes", "addr:city": "WAUKOMIS", "addr:country": "US", "addr:full": "504 E EUCLID AVE", "addr:postcode": "73773", "addr:state": "OK", "brand": "USPS", "collection_times": "Mo-Fr 14:00; Sa 09:30", "name": "USPS COLLECTION BOX - BLUE BOX", "note": "ON 12/24 AND 12/31, THIS BOX MAY BE COLLECTED AS EARLY AS 12 NOON.", "ref": "7377300000"}, "type": "Feature"}
{"geometry": {"coordinates": [-97.89433, 36.280107], "type": "Point"}, "id": "JJ8sg4rOONE-yBzGfR7zt1KikZI=", "properties": {"@spider": "usps_collection_boxes", "addr:city": "WAUKOMIS", "addr:country": "US", "addr:full": "504 E EUCLID AVE", "addr:postcode": "73773", "addr:state": "OK", "brand": "USPS", "collection_times": "Mo-Fr 14:00; Sa 09:30", "name": "USPS COLLECTION BOX - PO LOBBY", "note": "ON 12/24 AND 12/31, THIS BOX MAY BE COLLECTED AS EARLY AS 12 NOON.", "ref": "7377300001"}, "type": "Feature"}
{"geometry": {"coordinates": [-97.89433, 36.280107], "type": "Point"}, "id": "HLeaTlNtkB-_5N1GMh1s_UTv030=", "properties": {"@spider": "usps_collection_boxes", "addr:city": "WAUKOMIS", "addr:country": "US", "addr:full": "504 E EUCLID AVE", "addr:postcode": "73773", "addr:state": "OK", "brand": "USPS", "collection_times": "Mo-Fr 14:00; Sa 09:30", "name": "USPS COLLECTION BOX - PO LOBBY", "note": "ON 12/24 AND 12/31, THIS BOX MAY BE COLLECTED AS EARLY AS 12 NOON.", "ref": "7377300002"}, "type": "Feature"}
{"geometry": {"coordinates": [-97.894331063, 36.280102493], "type": "Point"}, "id": "aGFwZk6OoR48yExOVrAnuwRaFDU=", "properties": {"@spider": "usps_collection_boxes", "addr:city": "WAUKOMIS", "addr:country": "US", "addr:full": "504 E EUCLID AVE", "addr:postcode": "73773", "addr:state": "OK", "brand": "USPS", "collection_times": "Mo-Fr 14:00; Sa 09:30", "name": "USPS COLLECTION BOX - PO LOBBY", "note": "ON 12/24 AND 12/31, THIS BOX MAY BE COLLECTED AS EARLY AS 12 NOON.", "ref": "7377300003"}, "type": "Feature"}
