{"dataset_attributes": {"@spider": "usps_collection_boxes", "spider:collection_time": "2023-12-07T08:25:58.402860"}, "geometry": {"coordinates": [-99.3920734, 36.436095], "type": "Point"}, "id": "y34Rd4laRnIbZHE2bfHyGL4caLU=", "properties": {"@spider": "usps_collection_boxes", "addr:city": "WOODWARD", "addr:country": "US", "addr:full": "1023 10TH ST", "addr:postcode": "73801", "addr:state": "OK", "amenity": "post_box", "brand": "United States Postal Service", "brand:wikidata": "Q668687", "collection_times": "Mo-Fr 15:00; Sa 14:15", "name": "USPS COLLECTION BOX - BLUE BOX", "note": "ON 12/24 AND 12/31, THIS BOX MAY BE COLLECTED AS EARLY AS 12 NOON.", "nsi_id": "unitedstatespostalservice-a77078", "operator": "United States Postal Service", "operator:short": "USPS", "operator:type": "public", "operator:wikidata": "Q668687", "ref": "7380100003"}, "type": "Feature"}
{"dataset_attributes": {"@spider": "usps_collection_boxes", "spider:collection_time": "2023-12-07T08:25:58.402860"}, "geometry": {"coordinates": [-99.3902842, 36.418832], "type": "Point"}, "id": "kE7-QpBzn5Fkd1tw1XeecEmMi-8=", "properties": {"@spider": "usps_collection_boxes", "addr:city": "WOODWARD", "addr:country": "US", "addr:full": "2821 8TH ST", "addr:postcode": "73801", "addr:state": "OK", "amenity": "post_box", "brand": "United States Postal Service", "brand:wikidata": "Q668687", "collection_times": "Mo-Fr 15:00; Sa 11:00", "name": "USPS COLLECTION BOX - BLUE BOX", "note": "ON 12/24 AND 12/31, THIS BOX MAY BE COLLECTED AS EARLY AS 12 NOON.", "nsi_id": "unitedstatespostalservice-a77078", "operator": "United States Postal Service", "operator:short": "USPS", "operator:type": "public", "operator:wikidata": "Q668687", "ref": "7380100005"}, "type": "Feature"}
{"dataset_attributes": {"@spider": "usps_collection_boxes", "spider:collection_time": "2023-12-07T08:25:58.402860"}, "geometry": {"coordinates": [-99.3984461, 36.436658], "type": "Point"}, "id": "QU0zvHxvolPrfT0LYpU7D4GqxYs=", "properties": {"@spider": "usps_collection_boxes", "addr:city": "WOODWARD", "addr:country": "US", "addr:full": "1000 15TH ST", "addr:postcode": "73801", "addr:state": "OK", "amenity": "post_box", "brand": "United States Postal Service", "brand:wikidata": "Q668687", "collection_times": "Mo-Fr 15:00; Sa 14:00", "name": "USPS COLLECTION BOX - BLUE BOX", "note": "ON 12/24 AND 12/31, THIS BOX MAY BE COLLECTED AS EARLY AS 12 NOON.", "nsi_id": "unitedstatespostalservice-a77078", "operator": "United States Postal Service", "operator:short": "USPS", "operator:type": "public", "operator:wikidata": "Q668687", "ref": "7380100006"}, "type": "Feature"}
{"dataset_attributes": {"@spider": "usps_collection_boxes", "spider:collection_time": "2023-12-07T08:25:58.402860"}, "geometry": {"coordinates": [-99.4262419, 36.433063], "type": "Point"}, "id": "gBTNl4SaRbFbWf6MjXNvrj4oCFA=", "properties": {"@spider": "usps_collection_boxes", "addr:city": "WOODWARD", "addr:country": "US", "addr:full": "3401 OKLAHOMA AVE", "addr:postcode": "73801", "addr:state": "OK", "amenity": "post_box", "brand": "United States Postal Service", "brand:wikidata": "Q668687", "collection_times": "Mo-Fr 15:00; Sa 13:30", "name": "USPS COLLECTION BOX - BLUE BOX", "note": "ON 12/24 AND 12/31, THIS BOX MAY BE COLLECTED AS EARLY AS 12 NOON.", "nsi_id": "unitedstatespostalservice-a77078", "operator": "United States Postal Service", "operator:short": "USPS", "operator:type": "public", "operator:wikidata": "Q668687", "ref": "7380100011"}, "type": "Feature"}
{"dataset_attributes": {"@spider": "usps_collection_boxes", "spider:collection_time": "2023-12-07T08:25:58.402860"}, "geometry": {"coordinates": [-99.390626, 36.426121], "type": "Point"}, "id": "xWkDNqF_ddY_DVyfn6A9DUAU9u8=", "properties": {"@spider": "usps_collection_boxes", "addr:city": "WOODWARD", "addr:country": "US", "addr:full": "2020 WILLIAMS AVE", "addr:postcode": "73801", "addr:state": "OK", "amenity": "post_box", "brand": "United States Postal Service", "brand:wikidata": "Q668687", "collection_times": "Mo-Fr 16:45; Sa 15:30", "name": "USPS COLLECTION BOX - PO LOBBY", "note": "ON 12/24 AND 12/31, THIS BOX MAY BE COLLECTED AS EARLY AS 12 NOON.", "nsi_id": "unitedstatespostalservice-a77078", "operator": "United States Postal Service", "operator:short": "USPS", "operator:type": "public", "operator:wikidata": "Q668687", "ref": "7380100029"}, "type": "Feature"}
{"dataset_attributes": {"@spider": "usps_collection_boxes", "spider:collection_time": "2023-12-07T08:25:58.402860"}, "geometry": {"coordinates": [-99.390626, 36.426121], "type": "Point"}, "id": "Qv4ulm88WLuB6oqNFmD2ldsJUAs=", "properties": {"@spider": "usps_collection_boxes", "addr:city": "WOODWARD", "addr:country": "US", "addr:full": "2020 WILLIAMS AVE", "addr:postcode": "73801", "addr:state": "OK", "amenity": "post_box", "brand": "United States Postal Service", "brand:wikidata": "Q668687", "collection_times": "Mo-Fr 16:45; Sa 15:30", "name": "USPS COLLECTION BOX - PO LOBBY", "note": "ON 12/24 AND 12/31, THIS BOX MAY BE COLLECTED AS EARLY AS 12 NOON.", "nsi_id": "unitedstatespostalservice-a77078", "operator": "United States Postal Service", "operator:short": "USPS", "operator:type": "public", "operator:wikidata": "Q668687", "ref": "7380100030"}, "type": "Feature"}
{"dataset_attributes": {"@spider": "usps_collection_boxes", "spider:collection_time": "2023-12-07T08:25:58.402860"}, "geometry": {"coordinates": [-99.390626, 36.426121], "type": "Point"}, "id": "ut_sXeJne4b_Wyh1qzqiQz3EVOg=", "properties": {"@spider": "usps_collection_boxes", "addr:city": "WOODWARD", "addr:country": "US", "addr:full": "2020 WILLIAMS AVE", "addr:postcode": "73801", "addr:state": "OK", "amenity": "post_box", "brand": "United States Postal Service", "brand:wikidata": "Q668687", "collection_times": "Mo-Fr 16:45; Sa 15:30", "name": "USPS COLLECTION BOX - PO LOBBY", "note": "ON 12/24 AND 12/31, THIS BOX MAY BE COLLECTED AS EARLY AS 12 NOON.", "nsi_id": "unitedstatespostalservice-a77078", "operator": "United States Postal Service", "operator:short": "USPS", "operator:type": "public", "operator:wikidata": "Q668687", "ref": "7380100031"}, "type": "Feature"}
{"dataset_attributes": {"@spider": "usps_collection_boxes", "spider:collection_time": "2023-12-07T08:25:58.402860"}, "geometry": {"coordinates": [-99.390626, 36.426121], "type": "Point"}, "id": "FfHuPgSIIkWTU_cWTpOgRe7yFnY=", "properties": {"@spider": "usps_collection_boxes", "addr:city": "WOODWARD", "addr:country": "US", "addr:full": "2020 WILLIAMS AVE", "addr:postcode": "73801", "addr:state": "OK", "amenity": "post_box", "brand": "United States Postal Service", "brand:wikidata": "Q668687", "collection_times": "Mo-Fr 16:45; Sa 15:30", "name": "USPS COLLECTION BOX - BLUE BOX", "note": "ON 12/24 AND 12/31, THIS BOX MAY BE COLLECTED AS EARLY AS 12 NOON.", "nsi_id": "unitedstatespostalservice-a77078", "operator": "United States Postal Service", "operator:short": "USPS", "operator:type": "public", "operator:wikidata": "Q668687", "ref": "7380100032"}, "type": "Feature"}
{"dataset_attributes": {"@spider": "usps_collection_boxes", "spider:collection_time": "2023-12-07T08:25:58.402860"}, "geometry": {"coordinates": [-99.3838804, 36.412861], "type": "Point"}, "id": "D8XTGmALw6UPUYgR0bhAq-jPo-E=", "properties": {"@spider": "usps_collection_boxes", "addr:city": "WOODWARD", "addr:country": "US", "addr:full": "3215 WILLIAMS AVE", "addr:postcode": "73801", "addr:state": "OK", "amenity": "post_box", "brand": "United States Postal Service", "brand:wikidata": "Q668687", "collection_times": "Mo-Sa 13:45", "name": "USPS COLLECTION BOX - BLUE BOX", "note": "ON 12/24 AND 12/31, THIS BOX MAY BE COLLECTED AS EARLY AS 12 NOON.", "nsi_id": "unitedstatespostalservice-a77078", "operator": "United States Postal Service", "operator:short": "USPS", "operator:type": "public", "operator:wikidata": "Q668687", "ref": "7380100034"}, "type": "Feature"}
{"dataset_attributes": {"@spider": "usps_collection_boxes", "spider:collection_time": "2023-12-07T08:25:58.402860"}, "geometry": {"coordinates": [-99.4427686, 36.433419], "type": "Point"}, "id": "eAGlKvUEQCUVmp7f6Ryris4vcMA=", "properties": {"@spider": "usps_collection_boxes", "addr:city": "WOODWARD", "addr:country": "US", "addr:full": "1304 48TH ST", "addr:postcode": "73801", "addr:state": "OK", "amenity": "post_box", "brand": "United States Postal Service", "brand:wikidata": "Q668687", "collection_times": "Mo-Fr 11:30; Sa 11:00", "name": "USPS COLLECTION BOX - BLUE BOX", "nsi_id": "unitedstatespostalservice-a77078", "operator": "United States Postal Service", "operator:short": "USPS", "operator:type": "public", "operator:wikidata": "Q668687", "ref": "7380100035"}, "type": "Feature"}
{"dataset_attributes": {"@spider": "usps_collection_boxes", "spider:collection_time": "2023-12-07T08:25:58.402860"}, "geometry": {"coordinates": [-99.4233699, 36.434863], "type": "Point"}, "id": "kZBSnNgUMKqnzQWPfavoiE0mTaA=", "properties": {"@spider": "usps_collection_boxes", "addr:city": "WOODWARD", "addr:country": "US", "addr:full": "3202 OKLAHOMA AVE", "addr:postcode": "73801", "addr:state": "OK", "amenity": "post_box", "brand": "United States Postal Service", "brand:wikidata": "Q668687", "collection_times": "Mo-Fr 15:00", "name": "USPS COLLECTION BOX - BLUE BOX", "note": "ON 12/24 AND 12/31, THIS BOX MAY BE COLLECTED AS EARLY AS 12 NOON.", "nsi_id": "unitedstatespostalservice-a77078", "operator": "United States Postal Service", "operator:short": "USPS", "operator:type": "public", "operator:wikidata": "Q668687", "ref": "7380100037"}, "type": "Feature"}
{"dataset_attributes": {"@spider": "usps_collection_boxes", "spider:collection_time": "2023-12-07T08:25:58.402860"}, "geometry": {"coordinates": [-99.4066805, 36.433809], "type": "Point"}, "id": "wLXeZL23LA9wmTso0k4cjARNNoc=", "properties": {"@spider": "usps_collection_boxes", "addr:city": "WOODWARD", "addr:country": "US", "addr:full": "2116 OKLAHOMA AVE", "addr:postcode": "73801", "addr:state": "OK", "amenity": "post_box", "brand": "United States Postal Service", "brand:wikidata": "Q668687", "collection_times": "Mo-Fr 12:00; Sa 14:00", "name": "USPS COLLECTION BOX - BLUE BOX", "note": "ON 12/24 AND 12/31, THIS BOX MAY BE COLLECTED AS EARLY AS 12 NOON.", "nsi_id": "unitedstatespostalservice-a77078", "operator": "United States Postal Service", "operator:short": "USPS", "operator:type": "public", "operator:wikidata": "Q668687", "ref": "7380100038"}, "type": "Feature"}
{"dataset_attributes": {"@spider": "usps_collection_boxes", "spider:collection_time": "2023-12-07T08:25:58.402860"}, "geometry": {"coordinates": [-99.390616831, 36.425685552], "type": "Point"}, "id": "4-Pp4JiKCeLCICLvsueCGwnh4IY=", "properties": {"@spider": "usps_collection_boxes", "addr:city": "WOODWARD", "addr:country": "US", "addr:full": "2020 WILLIAMS AVE", "addr:postcode": "73801", "addr:state": "OK", "amenity": "post_box", "brand": "United States Postal Service", "brand:wikidata": "Q668687", "collection_times": "Mo-Fr 17:00; Sa 11:30", "name": "USPS COLLECTION BOX - PO LOBBY", "note": "ON 12/24 AND 12/31, THIS BOX MAY BE COLLECTED AS EARLY AS 12 NOON.", "nsi_id": "unitedstatespostalservice-a77078", "operator": "United States Postal Service", "operator:short": "USPS", "operator:type": "public", "operator:wikidata": "Q668687", "ref": "7380100045"}, "type": "Feature"}
{"dataset_attributes": {"@spider": "usps_collection_boxes", "spider:collection_time": "2023-12-07T08:25:58.402860"}, "geometry": {"coordinates": [-99.771303, 36.134711], "type": "Point"}, "id": "h7r3FocSILu-op3DjDbu8I9hJWk=", "properties": {"@spider": "usps_collection_boxes", "addr:city": "ARNETT", "addr:country": "US", "addr:full": "107 S WASHINGTON ST", "addr:postcode": "73832", "addr:state": "OK", "amenity": "post_box", "brand": "United States Postal Service", "brand:wikidata": "Q668687", "collection_times": "Mo-Fr 15:30; Sa 11:15", "name": "USPS COLLECTION BOX - PO LOBBY", "note": "ON 12/24 AND 12/31, THIS BOX MAY BE COLLECTED AS EARLY AS 12 NOON.", "nsi_id": "unitedstatespostalservice-a77078", "operator": "United States Postal Service", "operator:short": "USPS", "operator:type": "public", "operator:wikidata": "Q668687", "ref": "7383200000"}, "type": "Feature"}
{"dataset_attributes": {"@spider": "usps_collection_boxes", "spider:collection_time": "2023-12-07T08:25:58.402860"}, "geometry": {"coordinates": [-99.771303, 36.134711], "type": "Point"}, "id": "9UIn5tWmIR5_616d7Wi454lWqc4=", "properties": {"@spider": "usps_collection_boxes", "addr:city": "ARNETT", "addr:country": "US", "addr:full": "107 S WASHINGTON ST", "addr:postcode": "73832", "addr:state": "OK", "amenity": "post_box", "brand": "United States Postal Service", "brand:wikidata": "Q668687", "collection_times": "Mo-Fr 15:30; Sa 11:15", "name": "USPS COLLECTION BOX - PO LOBBY", "note": "ON 12/24 AND 12/31, THIS BOX MAY BE COLLECTED AS EARLY AS 12 NOON.", "nsi_id": "unitedstatespostalservice-a77078", "operator": "United States Postal Service", "operator:short": "USPS", "operator:type": "public", "operator:wikidata": "Q668687", "ref": "7383200002"}, "type": "Feature"}
{"dataset_attributes": {"@spider": "usps_collection_boxes", "spider:collection_time": "2023-12-07T08:25:58.402860"}, "geometry": {"coordinates": [-99.771297034, 36.134504413], "type": "Point"}, "id": "4RGZPpHwPgMTknLLIbGE9AqcaeU=", "properties": {"@spider": "usps_collection_boxes", "addr:city": "ARNETT", "addr:country": "US", "addr:full": "107 S WASHINGTON ST", "addr:postcode": "73832", "addr:state": "OK", "amenity": "post_box", "brand": "United States Postal Service", "brand:wikidata": "Q668687", "collection_times": "Mo-Fr 16:00; Sa 11:30", "name": "USPS COLLECTION BOX - PO LOBBY", "note": "ON 12/24 AND 12/31, THIS BOX MAY BE COLLECTED AS EARLY AS 12 NOON.", "nsi_id": "unitedstatespostalservice-a77078", "operator": "United States Postal Service", "operator:short": "USPS", "operator:type": "public", "operator:wikidata": "Q668687", "ref": "7383200004"}, "type": "Feature"}
{"dataset_attributes": {"@spider": "usps_collection_boxes", "spider:collection_time": "2023-12-07T08:25:58.402860"}, "geometry": {"coordinates": [-99.629099, 36.833468], "type": "Point"}, "id": "-GjEvyivPK10GboKQWx809oSOAk=", "properties": {"@spider": "usps_collection_boxes", "addr:city": "BUFFALO", "addr:country": "US", "addr:full": "103 E ELM ST", "addr:postcode": "73834", "addr:state": "OK", "amenity": "post_box", "brand": "United States Postal Service", "brand:wikidata": "Q668687", "collection_times": "Mo-Fr 15:15; Sa 10:15", "name": "USPS COLLECTION BOX - BLUE BOX", "note": "ON 12/24 AND 12/31, THIS BOX MAY BE COLLECTED AS EARLY AS 12 NOON.", "nsi_id": "unitedstatespostalservice-a77078", "operator": "United States Postal Service", "operator:short": "USPS", "operator:type": "public", "operator:wikidata": "Q668687", "ref": "7383400000"}, "type": "Feature"}
{"dataset_attributes": {"@spider": "usps_collection_boxes", "spider:collection_time": "2023-12-07T08:25:58.402860"}, "geometry": {"coordinates": [-99.629099, 36.833468], "type": "Point"}, "id": "oISGsLdTE8roc1zBAEz80NQS-Eg=", "properties": {"@spider": "usps_collection_boxes", "addr:city": "BUFFALO", "addr:country": "US", "addr:full": "103 E ELM ST", "addr:postcode": "73834", "addr:state": "OK", "amenity": "post_box", "brand": "United States Postal Service", "brand:wikidata": "Q668687", "collection_times": "Mo-Fr 15:45; Sa 10:30", "name": "USPS COLLECTION BOX - PO LOBBY", "note": "ON 12/24 AND 12/31, THIS BOX MAY BE COLLECTED AS EARLY AS 12 NOON.", "nsi_id": "unitedstatespostalservice-a77078", "operator": "United States Postal Service", "operator:short": "USPS", "operator:type": "public", "operator:wikidata": "Q668687", "ref": "7383400001"}, "type": "Feature"}
{"dataset_attributes": {"@spider": "usps_collection_boxes", "spider:collection_time": "2023-12-07T08:25:58.402860"}, "geometry": {"coordinates": [-99.629099, 36.833468], "type": "Point"}, "id": "6pTFHpAImqrwEHnoJLhCSTG0Q1Q=", "properties": {"@spider": "usps_collection_boxes", "addr:city": "BUFFALO", "addr:country": "US", "addr:full": "103 E ELM ST", "addr:postcode": "73834", "addr:state": "OK", "amenity": "post_box", "brand": "United States Postal Service", "brand:wikidata": "Q668687", "collection_times": "Mo-Fr 15:45; Sa 10:30", "name": "USPS COLLECTION BOX - PO LOBBY", "note": "ON 12/24 AND 12/31, THIS BOX MAY BE COLLECTED AS EARLY AS 12 NOON.", "nsi_id": "unitedstatespostalservice-a77078", "operator": "United States Postal Service", "operator:short": "USPS", "operator:type": "public", "operator:wikidata": "Q668687", "ref": "7383400002"}, "type": "Feature"}
{"dataset_attributes": {"@spider": "usps_collection_boxes", "spider:collection_time": "2023-12-07T08:25:58.402860"}, "geometry": {"coordinates": [-99.62910175, 36.833459446], "type": "Point"}, "id": "SIk6slgYxGEWX5KOJQsd5YQiyJg=", "properties": {"@spider": "usps_collection_boxes", "addr:city": "BUFFALO", "addr:country": "US", "addr:full": "103 E ELM ST", "addr:postcode": "73834", "addr:state": "OK", "amenity": "post_box", "brand": "United States Postal Service", "brand:wikidata": "Q668687", "collection_times": "Mo-Fr 15:45; Sa 10:00", "name": "USPS COLLECTION BOX - PO LOBBY", "note": "ON 12/24 AND 12/31, THIS BOX MAY BE COLLECTED AS EARLY AS 12 NOON.", "nsi_id": "unitedstatespostalservice-a77078", "operator": "United States Postal Service", "operator:short": "USPS", "operator:type": "public", "operator:wikidata": "Q668687", "ref": "7383400003"}, "type": "Feature"}
{"dataset_attributes": {"@spider": "usps_collection_boxes", "spider:collection_time": "2023-12-07T08:25:58.402860"}, "geometry": {"coordinates": [-99.290967, 36.00086], "type": "Point"}, "id": "7332II9QdsJhlAZ33Nk_smyQzdU=", "properties": {"@spider": "usps_collection_boxes", "addr:city": "CAMARGO", "addr:country": "US", "addr:full": "200 S BROADWAY ST", "addr:postcode": "73835", "addr:state": "OK", "amenity": "post_box", "brand": "United States Postal Service", "brand:wikidata": "Q668687", "collection_times": "Mo-Fr 11:45; Sa 09:30", "name": "USPS COLLECTION BOX - PO LOBBY", "nsi_id": "unitedstatespostalservice-a77078", "operator": "United States Postal Service", "operator:short": "USPS", "operator:type": "public", "operator:wikidata": "Q668687", "ref": "7383500001"}, "type": "Feature"}
{"dataset_attributes": {"@spider": "usps_collection_boxes", "spider:collection_time": "2023-12-07T08:25:58.402860"}, "geometry": {"coordinates": [-99.289314, 36.015815], "type": "Point"}, "id": "S9T9J_5hw0lDunecnNPbCgMrY74=", "properties": {"@spider": "usps_collection_boxes", "addr:city": "CAMARGO", "addr:country": "US", "addr:full": "200 S BROADWAY ST", "addr:postcode": "73835", "addr:state": "OK", "amenity": "post_box", "brand": "United States Postal Service", "brand:wikidata": "Q668687", "collection_times": "Mo-Fr 11:45; Sa 09:30", "name": "USPS COLLECTION BOX - PO LOBBY", "nsi_id": "unitedstatespostalservice-a77078", "operator": "United States Postal Service", "operator:short": "USPS", "operator:type": "public", "operator:wikidata": "Q668687", "ref": "7383500002"}, "type": "Feature"}
{"dataset_attributes": {"@spider": "usps_collection_boxes", "spider:collection_time": "2023-12-07T08:25:58.402860"}, "geometry": {"coordinates": [-99.289292583, 36.0159255], "type": "Point"}, "id": "RhE8tOOw027JfEPmWRw0wnOma0E=", "properties": {"@spider": "usps_collection_boxes", "addr:city": "CAMARGO", "addr:country": "US", "addr:full": "68892 BROADWAY ST", "addr:postcode": "73835", "addr:state": "OK", "amenity": "post_box", "brand": "United States Postal Service", "brand:wikidata": "Q668687", "collection_times": "Mo-Fr 12:00; Sa 09:30", "name": "USPS COLLECTION BOX - PO LOBBY", "nsi_id": "unitedstatespostalservice-a77078", "operator": "United States Postal Service", "operator:short": "USPS", "operator:type": "public", "operator:wikidata": "Q668687", "ref": "7383500003"}, "type": "Feature"}
{"dataset_attributes": {"@spider": "usps_collection_boxes", "spider:collection_time": "2023-12-07T08:25:58.402860"}, "geometry": {"coordinates": [-99.6234085565, 36.3749371937], "type": "Point"}, "id": "eaxx-DuWoqxCUdj3dxqzpXHD7aY=", "properties": {"@spider": "usps_collection_boxes", "addr:city": "FARGO", "addr:country": "US", "addr:full": "218 S MAIN ST", "addr:postcode": "73840", "addr:state": "OK", "amenity": "post_box", "brand": "United States Postal Service", "brand:wikidata": "Q668687", "collection_times": "Mo-Fr 11:45; Sa 09:00", "name": "USPS COLLECTION BOX - BLUE BOX", "nsi_id": "unitedstatespostalservice-a77078", "operator": "United States Postal Service", "operator:short": "USPS", "operator:type": "public", "operator:wikidata": "Q668687", "ref": "7384000000"}, "type": "Feature"}
{"dataset_attributes": {"@spider": "usps_collection_boxes", "spider:collection_time": "2023-12-07T08:25:58.402860"}, "geometry": {"coordinates": [-99.6234085565, 36.3749371937], "type": "Point"}, "id": "N8DRqiW3emvV8jL5pYeBr9fyGQ0=", "properties": {"@spider": "usps_collection_boxes", "addr:city": "FARGO", "addr:country": "US", "addr:full": "218 S MAIN ST", "addr:postcode": "73840", "addr:state": "OK", "amenity": "post_box", "brand": "United States Postal Service", "brand:wikidata": "Q668687", "collection_times": "Mo-Fr 11:45; Sa 09:00", "name": "USPS COLLECTION BOX - PO LOBBY", "nsi_id": "unitedstatespostalservice-a77078", "operator": "United States Postal Service", "operator:short": "USPS", "operator:type": "public", "operator:wikidata": "Q668687", "ref": "7384000001"}, "type": "Feature"}
{"dataset_attributes": {"@spider": "usps_collection_boxes", "spider:collection_time": "2023-12-07T08:25:58.402860"}, "geometry": {"coordinates": [-99.623447896, 36.374426749], "type": "Point"}, "id": "SGpuCeuzLuvDMBdxamnYVdgBHdg=", "properties": {"@spider": "usps_collection_boxes", "addr:city": "FARGO", "addr:country": "US", "addr:full": "216 S MAIN ST", "addr:postcode": "73840", "addr:state": "OK", "amenity": "post_box", "brand": "United States Postal Service", "brand:wikidata": "Q668687", "collection_times": "Mo-Fr 12:00; Sa 09:00", "name": "USPS COLLECTION BOX - PO LOBBY", "nsi_id": "unitedstatespostalservice-a77078", "operator": "United States Postal Service", "operator:short": "USPS", "operator:type": "public", "operator:wikidata": "Q668687", "ref": "7384000003"}, "type": "Feature"}
{"dataset_attributes": {"@spider": "usps_collection_boxes", "spider:collection_time": "2023-12-07T08:25:58.402860"}, "geometry": {"coordinates": [-99.571099, 36.573681], "type": "Point"}, "id": "UMfDKqawkymTkONxXoQHHj0rczg=", "properties": {"@spider": "usps_collection_boxes", "addr:city": "FT SUPPLY", "addr:country": "US", "addr:full": "229 BROADWAY ST", "addr:postcode": "73841", "addr:state": "OK", "amenity": "post_box", "brand": "United States Postal Service", "brand:wikidata": "Q668687", "collection_times": "Mo-Fr 11:45; Sa 09:30", "name": "USPS COLLECTION BOX - BLUE BOX", "nsi_id": "unitedstatespostalservice-a77078", "operator": "United States Postal Service", "operator:short": "USPS", "operator:type": "public", "operator:wikidata": "Q668687", "ref": "7384100000"}, "type": "Feature"}
{"dataset_attributes": {"@spider": "usps_collection_boxes", "spider:collection_time": "2023-12-07T08:25:58.402860"}, "geometry": {"coordinates": [-99.571099, 36.573681], "type": "Point"}, "id": "8su1xgXR_rUU_9JmA9cx7Ua3Gak=", "properties": {"@spider": "usps_collection_boxes", "addr:city": "FT SUPPLY", "addr:country": "US", "addr:full": "229 BROADWAY ST", "addr:postcode": "73841", "addr:state": "OK", "amenity": "post_box", "brand": "United States Postal Service", "brand:wikidata": "Q668687", "collection_times": "Mo-Fr 11:45; Sa 09:30", "name": "USPS COLLECTION BOX - PO LOBBY", "nsi_id": "unitedstatespostalservice-a77078", "operator": "United States Postal Service", "operator:short": "USPS", "operator:type": "public", "operator:wikidata": "Q668687", "ref": "7384100001"}, "type": "Feature"}
{"dataset_attributes": {"@spider": "usps_collection_boxes", "spider:collection_time": "2023-12-07T08:25:58.402860"}, "geometry": {"coordinates": [-99.571824, 36.573675496], "type": "Point"}, "id": "XBkpnUZVqzgCTCJ7WwPF-taWsKI=", "properties": {"@spider": "usps_collection_boxes", "addr:city": "FT SUPPLY", "addr:country": "US", "addr:full": "229 BROADWAY ST", "addr:postcode": "73841", "addr:state": "OK", "amenity": "post_box", "brand": "United States Postal Service", "brand:wikidata": "Q668687", "collection_times": "Mo-Fr 12:00; Sa 09:00", "name": "USPS COLLECTION BOX - PO LOBBY", "nsi_id": "unitedstatespostalservice-a77078", "operator": "United States Postal Service", "operator:short": "USPS", "operator:type": "public", "operator:wikidata": "Q668687", "ref": "7384100003"}, "type": "Feature"}
{"dataset_attributes": {"@spider": "usps_collection_boxes", "spider:collection_time": "2023-12-07T08:25:58.402860"}, "geometry": {"coordinates": [-99.114692, 36.768698], "type": "Point"}, "id": "2GsZwgVWcESLm1drBswdZSzYs34=", "properties": {"@spider": "usps_collection_boxes", "addr:city": "FREEDOM", "addr:country": "US", "addr:full": "1055 MAIN ST", "addr:postcode": "73842", "addr:state": "OK", "amenity": "post_box", "brand": "United States Postal Service", "brand:wikidata": "Q668687", "collection_times": "Mo-Fr 11:45; Sa 09:45", "name": "USPS COLLECTION BOX - BLUE BOX", "nsi_id": "unitedstatespostalservice-a77078", "operator": "United States Postal Service", "operator:short": "USPS", "operator:type": "public", "operator:wikidata": "Q668687", "ref": "7384200000"}, "type": "Feature"}
{"dataset_attributes": {"@spider": "usps_collection_boxes", "spider:collection_time": "2023-12-07T08:25:58.402860"}, "geometry": {"coordinates": [-99.114692, 36.768698], "type": "Point"}, "id": "_O8vtRLwQCKlycm_voqa-D8GJSY=", "properties": {"@spider": "usps_collection_boxes", "addr:city": "FREEDOM", "addr:country": "US", "addr:full": "1055 MAIN ST", "addr:postcode": "73842", "addr:state": "OK", "amenity": "post_box", "brand": "United States Postal Service", "brand:wikidata": "Q668687", "collection_times": "Mo-Fr 11:45; Sa 09:45", "name": "USPS COLLECTION BOX - PO LOBBY", "nsi_id": "unitedstatespostalservice-a77078", "operator": "United States Postal Service", "operator:short": "USPS", "operator:type": "public", "operator:wikidata": "Q668687", "ref": "7384200001"}, "type": "Feature"}
{"dataset_attributes": {"@spider": "usps_collection_boxes", "spider:collection_time": "2023-12-07T08:25:58.402860"}, "geometry": {"coordinates": [-99.1146915, 36.76869553], "type": "Point"}, "id": "bITm8GOsPKJKDuDCc4WHm902h2g=", "properties": {"@spider": "usps_collection_boxes", "addr:city": "FREEDOM", "addr:country": "US", "addr:full": "1055 MAIN ST", "addr:postcode": "73842", "addr:state": "OK", "amenity": "post_box", "brand": "United States Postal Service", "brand:wikidata": "Q668687", "collection_times": "Mo-Fr 12:00; Sa 09:45", "name": "USPS COLLECTION BOX - PO LOBBY", "nsi_id": "unitedstatespostalservice-a77078", "operator": "United States Postal Service", "operator:short": "USPS", "operator:type": "public", "operator:wikidata": "Q668687", "ref": "7384200002"}, "type": "Feature"}
{"dataset_attributes": {"@spider": "usps_collection_boxes", "spider:collection_time": "2023-12-07T08:25:58.402860"}, "geometry": {"coordinates": [-99.756084, 36.318302], "type": "Point"}, "id": "01yVMXYJbYTzS80g6dFjbLjO1xM=", "properties": {"@spider": "usps_collection_boxes", "addr:city": "GAGE", "addr:country": "US", "addr:full": "414 N MAIN ST", "addr:postcode": "73843", "addr:state": "OK", "amenity": "post_box", "brand": "United States Postal Service", "brand:wikidata": "Q668687", "collection_times": "Mo-Fr 14:30; Sa 10:00", "name": "USPS COLLECTION BOX - BLUE BOX", "note": "ON 12/24 AND 12/31, THIS BOX MAY BE COLLECTED AS EARLY AS 12 NOON.", "nsi_id": "unitedstatespostalservice-a77078", "operator": "United States Postal Service", "operator:short": "USPS", "operator:type": "public", "operator:wikidata": "Q668687", "ref": "7384300000"}, "type": "Feature"}
{"dataset_attributes": {"@spider": "usps_collection_boxes", "spider:collection_time": "2023-12-07T08:25:58.402860"}, "geometry": {"coordinates": [-99.756084, 36.318302], "type": "Point"}, "id": "EpUPBFXMhz9AGt4y5hqWo6R8nEE=", "properties": {"@spider": "usps_collection_boxes", "addr:city": "GAGE", "addr:country": "US", "addr:full": "414 N MAIN ST", "addr:postcode": "73843", "addr:state": "OK", "amenity": "post_box", "brand": "United States Postal Service", "brand:wikidata": "Q668687", "collection_times": "Mo-Fr 14:30; Sa 10:00", "name": "USPS COLLECTION BOX - PO LOBBY", "note": "ON 12/24 AND 12/31, THIS BOX MAY BE COLLECTED AS EARLY AS 12 NOON.", "nsi_id": "unitedstatespostalservice-a77078", "operator": "United States Postal Service", "operator:short": "USPS", "operator:type": "public", "operator:wikidata": "Q668687", "ref": "7384300001"}, "type": "Feature"}
{"dataset_attributes": {"@spider": "usps_collection_boxes", "spider:collection_time": "2023-12-07T08:25:58.402860"}, "geometry": {"coordinates": [-99.756084, 36.318302], "type": "Point"}, "id": "GYmpyl_wQuIyDUFfJMlgWG5YaK4=", "properties": {"@spider": "usps_collection_boxes", "addr:city": "GAGE", "addr:country": "US", "addr:full": "414 N MAIN ST", "addr:postcode": "73843", "addr:state": "OK", "amenity": "post_box", "brand": "United States Postal Service", "brand:wikidata": "Q668687", "collection_times": "Mo-Fr 14:30; Sa 10:00", "name": "USPS COLLECTION BOX - PO LOBBY", "note": "ON 12/24 AND 12/31, THIS BOX MAY BE COLLECTED AS EARLY AS 12 NOON.", "nsi_id": "unitedstatespostalservice-a77078", "operator": "United States Postal Service", "operator:short": "USPS", "operator:type": "public", "operator:wikidata": "Q668687", "ref": "7384300002"}, "type": "Feature"}
{"dataset_attributes": {"@spider": "usps_collection_boxes", "spider:collection_time": "2023-12-07T08:25:58.402860"}, "geometry": {"coordinates": [-99.756234969, 36.318624318], "type": "Point"}, "id": "plHOJog5IUWwrDnfS-BYNXlbrHg=", "properties": {"@spider": "usps_collection_boxes", "addr:city": "GAGE", "addr:country": "US", "addr:full": "414 N MAIN ST", "addr:postcode": "73843", "addr:state": "OK", "amenity": "post_box", "brand": "United States Postal Service", "brand:wikidata": "Q668687", "collection_times": "Mo-Fr 14:30; Sa 10:00", "name": "USPS COLLECTION BOX - PO LOBBY", "note": "ON 12/24 AND 12/31, THIS BOX MAY BE COLLECTED AS EARLY AS 12 NOON.", "nsi_id": "unitedstatespostalservice-a77078", "operator": "United States Postal Service", "operator:short": "USPS", "operator:type": "public", "operator:wikidata": "Q668687", "ref": "7384300003"}, "type": "Feature"}
{"dataset_attributes": {"@spider": "usps_collection_boxes", "spider:collection_time": "2023-12-07T08:25:58.402860"}, "geometry": {"coordinates": [-100.059037, 36.853353], "type": "Point"}, "id": "U0OShwIE1U9aqop1Leskm-1brD4=", "properties": {"@spider": "usps_collection_boxes", "addr:city": "GATE", "addr:country": "US", "addr:full": "102 E MAIN ST", "addr:postcode": "73844", "addr:state": "OK", "amenity": "post_box", "brand": "United States Postal Service", "brand:wikidata": "Q668687", "collection_times": "Mo-Fr 11:15; Sa 09:30", "name": "USPS COLLECTION BOX - PO LOBBY", "nsi_id": "unitedstatespostalservice-a77078", "operator": "United States Postal Service", "operator:short": "USPS", "operator:type": "public", "operator:wikidata": "Q668687", "ref": "7384400001"}, "type": "Feature"}
{"dataset_attributes": {"@spider": "usps_collection_boxes", "spider:collection_time": "2023-12-07T08:25:58.402860"}, "geometry": {"coordinates": [-100.192585, 36.873131], "type": "Point"}, "id": "L1GvG2p-DVb4ZmEwWfLJQrukNZA=", "properties": {"@spider": "usps_collection_boxes", "addr:city": "GATE", "addr:country": "US", "addr:full": "501 W MAIN ST", "addr:postcode": "73844", "addr:state": "OK", "amenity": "post_box", "brand": "United States Postal Service", "brand:wikidata": "Q668687", "collection_times": "Mo-Sa 13:00", "name": "USPS COLLECTION BOX - BLUE BOX", "note": "ON 12/24 AND 12/31, THIS BOX MAY BE COLLECTED AS EARLY AS 12 NOON.", "nsi_id": "unitedstatespostalservice-a77078", "operator": "United States Postal Service", "operator:short": "USPS", "operator:type": "public", "operator:wikidata": "Q668687", "ref": "7384400004"}, "type": "Feature"}
{"dataset_attributes": {"@spider": "usps_collection_boxes", "spider:collection_time": "2023-12-07T08:25:58.402860"}, "geometry": {"coordinates": [-100.055337778, 36.853354046], "type": "Point"}, "id": "xh9qSAGigvjEZZf6DCMU-x0Z8HQ=", "properties": {"@spider": "usps_collection_boxes", "addr:city": "GATE", "addr:country": "US", "addr:full": "102 E MAIN ST", "addr:postcode": "73844", "addr:state": "OK", "amenity": "post_box", "brand": "United States Postal Service", "brand:wikidata": "Q668687", "collection_times": "Mo-Fr 11:30; Sa 10:00", "name": "USPS COLLECTION BOX - PO LOBBY", "nsi_id": "unitedstatespostalservice-a77078", "operator": "United States Postal Service", "operator:short": "USPS", "operator:type": "public", "operator:wikidata": "Q668687", "ref": "7384400005"}, "type": "Feature"}
{"dataset_attributes": {"@spider": "usps_collection_boxes", "spider:collection_time": "2023-12-07T08:25:58.402860"}, "geometry": {"coordinates": [-99.895206, 36.709735], "type": "Point"}, "id": "9V3vHzirkW0gxU4tZjPyMAGuFzk=", "properties": {"@spider": "usps_collection_boxes", "addr:city": "LAVERNE", "addr:country": "US", "addr:full": "206 W JANE JAYROE BLVD", "addr:postcode": "73848", "addr:state": "OK", "amenity": "post_box", "brand": "United States Postal Service", "brand:wikidata": "Q668687", "collection_times": "Mo-Fr 15:45; Sa 10:30", "name": "USPS COLLECTION BOX - BLUE BOX", "note": "ON 12/24 AND 12/31, THIS BOX MAY BE COLLECTED AS EARLY AS 12 NOON.", "nsi_id": "unitedstatespostalservice-a77078", "operator": "United States Postal Service", "operator:short": "USPS", "operator:type": "public", "operator:wikidata": "Q668687", "ref": "7384800000"}, "type": "Feature"}
{"dataset_attributes": {"@spider": "usps_collection_boxes", "spider:collection_time": "2023-12-07T08:25:58.402860"}, "geometry": {"coordinates": [-99.895206, 36.709735], "type": "Point"}, "id": "2KHa54l6-YCmUrmxaGMnmk7H-GM=", "properties": {"@spider": "usps_collection_boxes", "addr:city": "LAVERNE", "addr:country": "US", "addr:full": "206 W JANE JAYROE BLVD", "addr:postcode": "73848", "addr:state": "OK", "amenity": "post_box", "brand": "United States Postal Service", "brand:wikidata": "Q668687", "collection_times": "Mo-Fr 15:45; Sa 10:30", "name": "USPS COLLECTION BOX - PO LOBBY", "note": "ON 12/24 AND 12/31, THIS BOX MAY BE COLLECTED AS EARLY AS 12 NOON.", "nsi_id": "unitedstatespostalservice-a77078", "operator": "United States Postal Service", "operator:short": "USPS", "operator:type": "public", "operator:wikidata": "Q668687", "ref": "7384800003"}, "type": "Feature"}
{"dataset_attributes": {"@spider": "usps_collection_boxes", "spider:collection_time": "2023-12-07T08:25:58.402860"}, "geometry": {"coordinates": [-99.895176371, 36.709772261], "type": "Point"}, "id": "_V7VUaY7Tbmtkl6l-jidNDk85xg=", "properties": {"@spider": "usps_collection_boxes", "addr:city": "LAVERNE", "addr:country": "US", "addr:full": "206 W JANE JAYROE BLVD", "addr:postcode": "73848", "addr:state": "OK", "amenity": "post_box", "brand": "United States Postal Service", "brand:wikidata": "Q668687", "collection_times": "Mo-Fr 15:45; Sa 10:00", "name": "USPS COLLECTION BOX - PO LOBBY", "note": "ON 12/24 AND 12/31, THIS BOX MAY BE COLLECTED AS EARLY AS 12 NOON.", "nsi_id": "unitedstatespostalservice-a77078", "operator": "United States Postal Service", "operator:short": "USPS", "operator:type": "public", "operator:wikidata": "Q668687", "ref": "7384800005"}, "type": "Feature"}
{"dataset_attributes": {"@spider": "usps_collection_boxes", "spider:collection_time": "2023-12-07T08:25:58.402860"}, "geometry": {"coordinates": [-99.636428, 36.593232], "type": "Point"}, "id": "mRE95Be1A04dZeDi3wigdgj6PK4=", "properties": {"@spider": "usps_collection_boxes", "addr:city": "MAY", "addr:country": "US", "addr:full": "201 HIGHWAY 270", "addr:postcode": "73851", "addr:state": "OK", "amenity": "post_box", "brand": "United States Postal Service", "brand:wikidata": "Q668687", "collection_times": "Mo-Fr 15:00; Sa 14:45", "name": "USPS COLLECTION BOX - BLUE BOX", "note": "ON 12/24 AND 12/31, THIS BOX MAY BE COLLECTED AS EARLY AS 12 NOON.", "nsi_id": "unitedstatespostalservice-a77078", "operator": "United States Postal Service", "operator:short": "USPS", "operator:type": "public", "operator:wikidata": "Q668687", "ref": "7385100000"}, "type": "Feature"}
{"dataset_attributes": {"@spider": "usps_collection_boxes", "spider:collection_time": "2023-12-07T08:25:58.402860"}, "geometry": {"coordinates": [-99.684270517, 36.6347248355], "type": "Point"}, "id": "3ebnyHW2TNSkP3vi2zVm6r53zjQ=", "properties": {"@spider": "usps_collection_boxes", "addr:city": "MAY", "addr:country": "US", "addr:full": "201 HIGHWAY 270", "addr:postcode": "73851", "addr:state": "OK", "amenity": "post_box", "brand": "United States Postal Service", "brand:wikidata": "Q668687", "collection_times": "Mo-Fr 15:00; Sa 14:45", "name": "USPS COLLECTION BOX - PO LOBBY", "note": "ON 12/24 AND 12/31, THIS BOX MAY BE COLLECTED AS EARLY AS 12 NOON.", "nsi_id": "unitedstatespostalservice-a77078", "operator": "United States Postal Service", "operator:short": "USPS", "operator:type": "public", "operator:wikidata": "Q668687", "ref": "7385100001"}, "type": "Feature"}
{"dataset_attributes": {"@spider": "usps_collection_boxes", "spider:collection_time": "2023-12-07T08:25:58.402860"}, "geometry": {"coordinates": [-99.747873, 36.614931483], "type": "Point"}, "id": "_SS4ZH3JqfiL3QvYWkWLqjI2hYE=", "properties": {"@spider": "usps_collection_boxes", "addr:city": "MAY", "addr:country": "US", "addr:full": "201 HIGHWAY 270", "addr:postcode": "73851", "addr:state": "OK", "amenity": "post_box", "brand": "United States Postal Service", "brand:wikidata": "Q668687", "collection_times": "Mo-Sa 15:00", "name": "USPS COLLECTION BOX - PO LOBBY", "note": "ON 12/24 AND 12/31, THIS BOX MAY BE COLLECTED AS EARLY AS 12 NOON.", "nsi_id": "unitedstatespostalservice-a77078", "operator": "United States Postal Service", "operator:short": "USPS", "operator:type": "public", "operator:wikidata": "Q668687", "ref": "7385100002"}, "type": "Feature"}
{"dataset_attributes": {"@spider": "usps_collection_boxes", "spider:collection_time": "2023-12-07T08:25:58.402860"}, "geometry": {"coordinates": [-99.204727, 36.43784], "type": "Point"}, "id": "-gBUabFKrT0i9DzGh1J2w3bFjFI=", "properties": {"@spider": "usps_collection_boxes", "addr:city": "MOORELAND", "addr:country": "US", "addr:full": "302 S MAIN ST", "addr:postcode": "73852", "addr:state": "OK", "amenity": "post_box", "brand": "United States Postal Service", "brand:wikidata": "Q668687", "collection_times": "Mo-Fr 16:00; Sa 09:00", "name": "USPS COLLECTION BOX - BLUE BOX", "note": "ON 12/24 AND 12/31, THIS BOX MAY BE COLLECTED AS EARLY AS 12 NOON.", "nsi_id": "unitedstatespostalservice-a77078", "operator": "United States Postal Service", "operator:short": "USPS", "operator:type": "public", "operator:wikidata": "Q668687", "ref": "7385200000"}, "type": "Feature"}
{"dataset_attributes": {"@spider": "usps_collection_boxes", "spider:collection_time": "2023-12-07T08:25:58.402860"}, "geometry": {"coordinates": [-99.204727, 36.43784], "type": "Point"}, "id": "qzoNF036e1bRyyPizRobERmxv1k=", "properties": {"@spider": "usps_collection_boxes", "addr:city": "MOORELAND", "addr:country": "US", "addr:full": "302 S MAIN ST", "addr:postcode": "73852", "addr:state": "OK", "amenity": "post_box", "brand": "United States Postal Service", "brand:wikidata": "Q668687", "collection_times": "Mo-Fr 16:00; Sa 09:00", "name": "USPS COLLECTION BOX - PO LOBBY", "note": "ON 12/24 AND 12/31, THIS BOX MAY BE COLLECTED AS EARLY AS 12 NOON.", "nsi_id": "unitedstatespostalservice-a77078", "operator": "United States Postal Service", "operator:short": "USPS", "operator:type": "public", "operator:wikidata": "Q668687", "ref": "7385200001"}, "type": "Feature"}
{"dataset_attributes": {"@spider": "usps_collection_boxes", "spider:collection_time": "2023-12-07T08:25:58.402860"}, "geometry": {"coordinates": [-99.204727831, 36.437912665], "type": "Point"}, "id": "HP6LBuFTWOMwqozjdygIZB-4dx8=", "properties": {"@spider": "usps_collection_boxes", "addr:city": "MOORELAND", "addr:country": "US", "addr:full": "302 S MAIN ST", "addr:postcode": "73852", "addr:state": "OK", "amenity": "post_box", "brand": "United States Postal Service", "brand:wikidata": "Q668687", "collection_times": "Mo-Fr 16:00; Sa 09:30", "name": "USPS COLLECTION BOX - PO LOBBY", "note": "ON 12/24 AND 12/31, THIS BOX MAY BE COLLECTED AS EARLY AS 12 NOON.", "nsi_id": "unitedstatespostalservice-a77078", "operator": "United States Postal Service", "operator:short": "USPS", "operator:type": "public", "operator:wikidata": "Q668687", "ref": "7385200003"}, "type": "Feature"}
{"dataset_attributes": {"@spider": "usps_collection_boxes", "spider:collection_time": "2023-12-07T08:25:58.402860"}, "geometry": {"coordinates": [-99.168495, 36.232909], "type": "Point"}, "id": "gOaStG33LV8unQYgXNajlGxL5Ts=", "properties": {"@spider": "usps_collection_boxes", "addr:city": "MUTUAL", "addr:country": "US", "addr:full": "157 N BROADWAY AVE", "addr:postcode": "73853", "addr:state": "OK", "amenity": "post_box", "brand": "United States Postal Service", "brand:wikidata": "Q668687", "collection_times": "Mo-Fr 11:15; Sa 08:30", "name": "USPS COLLECTION BOX - PO LOBBY", "nsi_id": "unitedstatespostalservice-a77078", "operator": "United States Postal Service", "operator:short": "USPS", "operator:type": "public", "operator:wikidata": "Q668687", "ref": "7385300001"}, "type": "Feature"}
{"dataset_attributes": {"@spider": "usps_collection_boxes", "spider:collection_time": "2023-12-07T08:25:58.402860"}, "geometry": {"coordinates": [-99.168495, 36.232909], "type": "Point"}, "id": "ixv88TztGwX24YorGKouEKd2IFU=", "properties": {"@spider": "usps_collection_boxes", "addr:city": "MUTUAL", "addr:country": "US", "addr:full": "157 N BROADWAY AVE", "addr:postcode": "73853", "addr:state": "OK", "amenity": "post_box", "brand": "United States Postal Service", "brand:wikidata": "Q668687", "collection_times": "Mo-Fr 11:15; Sa 08:30", "name": "USPS COLLECTION BOX - PO LOBBY", "nsi_id": "unitedstatespostalservice-a77078", "operator": "United States Postal Service", "operator:short": "USPS", "operator:type": "public", "operator:wikidata": "Q668687", "ref": "7385300002"}, "type": "Feature"}
{"dataset_attributes": {"@spider": "usps_collection_boxes", "spider:collection_time": "2023-12-07T08:25:58.402860"}, "geometry": {"coordinates": [-99.168507082, 36.231975], "type": "Point"}, "id": "nFAzS9yRI1o62en5n_CZXGaxy0I=", "properties": {"@spider": "usps_collection_boxes", "addr:city": "MUTUAL", "addr:country": "US", "addr:full": "157 N BROADWAY AVE", "addr:postcode": "73853", "addr:state": "OK", "amenity": "post_box", "brand": "United States Postal Service", "brand:wikidata": "Q668687", "collection_times": "Mo-Fr 11:30; Sa 09:30", "name": "USPS COLLECTION BOX - PO LOBBY", "nsi_id": "unitedstatespostalservice-a77078", "operator": "United States Postal Service", "operator:short": "USPS", "operator:type": "public", "operator:wikidata": "Q668687", "ref": "7385300003"}, "type": "Feature"}
{"dataset_attributes": {"@spider": "usps_collection_boxes", "spider:collection_time": "2023-12-07T08:25:58.402860"}, "geometry": {"coordinates": [-99.339215, 36.276142], "type": "Point"}, "id": "0NP_6pMTZBU0pCAJyDIrjcZI0Vs=", "properties": {"@spider": "usps_collection_boxes", "addr:city": "SHARON", "addr:country": "US", "addr:full": "114 N MAIN ST", "addr:postcode": "73857", "addr:state": "OK", "amenity": "post_box", "brand": "United States Postal Service", "brand:wikidata": "Q668687", "collection_times": "Mo-Fr 15:45; Sa 11:45", "name": "USPS COLLECTION BOX - PO LOBBY", "note": "ON 12/24 AND 12/31, THIS BOX MAY BE COLLECTED AS EARLY AS 12 NOON.", "nsi_id": "unitedstatespostalservice-a77078", "operator": "United States Postal Service", "operator:short": "USPS", "operator:type": "public", "operator:wikidata": "Q668687", "ref": "7385700001"}, "type": "Feature"}
{"dataset_attributes": {"@spider": "usps_collection_boxes", "spider:collection_time": "2023-12-07T08:25:58.402860"}, "geometry": {"coordinates": [-99.339246079, 36.276533612], "type": "Point"}, "id": "O3CY7cphkT2biIkVjei09zBGpTg=", "properties": {"@spider": "usps_collection_boxes", "addr:city": "SHARON", "addr:country": "US", "addr:full": "114 N MAIN ST", "addr:postcode": "73857", "addr:state": "OK", "amenity": "post_box", "brand": "United States Postal Service", "brand:wikidata": "Q668687", "collection_times": "Mo-Fr 16:00; Sa 12:00", "name": "USPS COLLECTION BOX - PO LOBBY", "note": "ON 12/24 AND 12/31, THIS BOX MAY BE COLLECTED AS EARLY AS 12 NOON.", "nsi_id": "unitedstatespostalservice-a77078", "operator": "United States Postal Service", "operator:short": "USPS", "operator:type": "public", "operator:wikidata": "Q668687", "ref": "7385700002"}, "type": "Feature"}
{"dataset_attributes": {"@spider": "usps_collection_boxes", "spider:collection_time": "2023-12-07T08:25:58.402860"}, "geometry": {"coordinates": [-99.8816060744, 36.2716286647], "type": "Point"}, "id": "Z7xlC4VpSfRzNh-L9ILVrZK7xM0=", "properties": {"@spider": "usps_collection_boxes", "addr:city": "SHATTUCK", "addr:country": "US", "addr:full": "513 S MAIN ST", "addr:postcode": "73858", "addr:state": "OK", "amenity": "post_box", "brand": "United States Postal Service", "brand:wikidata": "Q668687", "collection_times": "Mo-Fr 15:45; Sa 11:00", "name": "USPS COLLECTION BOX - BLUE BOX", "note": "ON 12/24 AND 12/31, THIS BOX MAY BE COLLECTED AS EARLY AS 12 NOON.", "nsi_id": "unitedstatespostalservice-a77078", "operator": "United States Postal Service", "operator:short": "USPS", "operator:type": "public", "operator:wikidata": "Q668687", "ref": "7385800000"}, "type": "Feature"}
{"dataset_attributes": {"@spider": "usps_collection_boxes", "spider:collection_time": "2023-12-07T08:25:58.402860"}, "geometry": {"coordinates": [-99.8816, 36.271983], "type": "Point"}, "id": "bCTuL4aTJ_Gv8kqquYnKtpQDSFs=", "properties": {"@spider": "usps_collection_boxes", "addr:city": "SHATTUCK", "addr:country": "US", "addr:full": "513 S MAIN ST", "addr:postcode": "73858", "addr:state": "OK", "amenity": "post_box", "brand": "United States Postal Service", "brand:wikidata": "Q668687", "collection_times": "Mo-Fr 15:45; Sa 11:00", "name": "USPS COLLECTION BOX - PO LOBBY", "note": "ON 12/24 AND 12/31, THIS BOX MAY BE COLLECTED AS EARLY AS 12 NOON.", "nsi_id": "unitedstatespostalservice-a77078", "operator": "United States Postal Service", "operator:short": "USPS", "operator:type": "public", "operator:wikidata": "Q668687", "ref": "7385800001"}, "type": "Feature"}
{"dataset_attributes": {"@spider": "usps_collection_boxes", "spider:collection_time": "2023-12-07T08:25:58.402860"}, "geometry": {"coordinates": [-99.881606074, 36.271628665], "type": "Point"}, "id": "draLjFemu0mnJphI3cCJBUnFCt4=", "properties": {"@spider": "usps_collection_boxes", "addr:city": "SHATTUCK", "addr:country": "US", "addr:full": "513 S MAIN ST", "addr:postcode": "73858", "addr:state": "OK", "amenity": "post_box", "brand": "United States Postal Service", "brand:wikidata": "Q668687", "collection_times": "Mo-Fr 15:45; Sa 11:00", "name": "USPS COLLECTION BOX - PO LOBBY", "note": "ON 12/24 AND 12/31, THIS BOX MAY BE COLLECTED AS EARLY AS 12 NOON.", "nsi_id": "unitedstatespostalservice-a77078", "operator": "United States Postal Service", "operator:short": "USPS", "operator:type": "public", "operator:wikidata": "Q668687", "ref": "7385800002"}, "type": "Feature"}
{"dataset_attributes": {"@spider": "usps_collection_boxes", "spider:collection_time": "2023-12-07T08:25:58.402860"}, "geometry": {"coordinates": [-99.298629, 36.144704], "type": "Point"}, "id": "nMKmJLgDyeYLDZrl2InHRAIWwK4=", "properties": {"@spider": "usps_collection_boxes", "addr:city": "VICI", "addr:country": "US", "addr:full": "706 N MAIN ST", "addr:postcode": "73859", "addr:state": "OK", "amenity": "post_box", "brand": "United States Postal Service", "brand:wikidata": "Q668687", "collection_times": "Mo-Fr 15:00; Sa 10:00", "name": "USPS COLLECTION BOX - BLUE BOX", "note": "ON 12/24 AND 12/31, THIS BOX MAY BE COLLECTED AS EARLY AS 12 NOON.", "nsi_id": "unitedstatespostalservice-a77078", "operator": "United States Postal Service", "operator:short": "USPS", "operator:type": "public", "operator:wikidata": "Q668687", "ref": "7385900000"}, "type": "Feature"}
{"dataset_attributes": {"@spider": "usps_collection_boxes", "spider:collection_time": "2023-12-07T08:25:58.402860"}, "geometry": {"coordinates": [-99.298577, 36.151011], "type": "Point"}, "id": "OQbbxuaLzXh_TxETs1YTn_BZsM4=", "properties": {"@spider": "usps_collection_boxes", "addr:city": "VICI", "addr:country": "US", "addr:full": "706 N MAIN ST", "addr:postcode": "73859", "addr:state": "OK", "amenity": "post_box", "brand": "United States Postal Service", "brand:wikidata": "Q668687", "collection_times": "Mo-Fr 15:00; Sa 10:00", "name": "USPS COLLECTION BOX - PO LOBBY", "note": "ON 12/24 AND 12/31, THIS BOX MAY BE COLLECTED AS EARLY AS 12 NOON.", "nsi_id": "unitedstatespostalservice-a77078", "operator": "United States Postal Service", "operator:short": "USPS", "operator:type": "public", "operator:wikidata": "Q668687", "ref": "7385900001"}, "type": "Feature"}
{"dataset_attributes": {"@spider": "usps_collection_boxes", "spider:collection_time": "2023-12-07T08:25:58.402860"}, "geometry": {"coordinates": [-99.298577, 36.151011], "type": "Point"}, "id": "Ec6vMmqAHTzKhp8jT6wz55Xywyg=", "properties": {"@spider": "usps_collection_boxes", "addr:city": "VICI", "addr:country": "US", "addr:full": "706 N MAIN ST", "addr:postcode": "73859", "addr:state": "OK", "amenity": "post_box", "brand": "United States Postal Service", "brand:wikidata": "Q668687", "collection_times": "Mo-Fr 15:00; Sa 10:00", "name": "USPS COLLECTION BOX - PO LOBBY", "note": "ON 12/24 AND 12/31, THIS BOX MAY BE COLLECTED AS EARLY AS 12 NOON.", "nsi_id": "unitedstatespostalservice-a77078", "operator": "United States Postal Service", "operator:short": "USPS", "operator:type": "public", "operator:wikidata": "Q668687", "ref": "7385900002"}, "type": "Feature"}
{"dataset_attributes": {"@spider": "usps_collection_boxes", "spider:collection_time": "2023-12-07T08:25:58.402860"}, "geometry": {"coordinates": [-99.298553584, 36.150975794], "type": "Point"}, "id": "uH-969AvGE2dzopnz15-PuOFhqQ=", "properties": {"@spider": "usps_collection_boxes", "addr:city": "VICI", "addr:country": "US", "addr:full": "706 N MAIN ST", "addr:postcode": "73859", "addr:state": "OK", "amenity": "post_box", "brand": "United States Postal Service", "brand:wikidata": "Q668687", "collection_times": "Mo-Fr 16:00", "name": "USPS COLLECTION BOX - PO LOBBY", "note": "ON 12/24 AND 12/31, THIS BOX MAY BE COLLECTED AS EARLY AS 12 NOON.", "nsi_id": "unitedstatespostalservice-a77078", "operator": "United States Postal Service", "operator:short": "USPS", "operator:type": "public", "operator:wikidata": "Q668687", "ref": "7385900003"}, "type": "Feature"}
{"dataset_attributes": {"@spider": "usps_collection_boxes", "spider:collection_time": "2023-12-07T08:25:58.402860"}, "geometry": {"coordinates": [-98.88131, 36.584522], "type": "Point"}, "id": "JUZCluPD1FOc_SW7_OJw6mvNblo=", "properties": {"@spider": "usps_collection_boxes", "addr:city": "WAYNOKA", "addr:country": "US", "addr:full": "1620 SANTA FE ST", "addr:postcode": "73860", "addr:state": "OK", "amenity": "post_box", "brand": "United States Postal Service", "brand:wikidata": "Q668687", "collection_times": "Mo-Fr 14:30; Sa 10:00", "name": "USPS COLLECTION BOX - PO LOBBY", "note": "ON 12/24 AND 12/31, THIS BOX MAY BE COLLECTED AS EARLY AS 12 NOON.", "nsi_id": "unitedstatespostalservice-a77078", "operator": "United States Postal Service", "operator:short": "USPS", "operator:type": "public", "operator:wikidata": "Q668687", "ref": "7386000001"}, "type": "Feature"}
{"dataset_attributes": {"@spider": "usps_collection_boxes", "spider:collection_time": "2023-12-07T08:25:58.402860"}, "geometry": {"coordinates": [-98.88131, 36.584522], "type": "Point"}, "id": "QRDO_pwFaEz9_SdxpyKZ7i-CpMs=", "properties": {"@spider": "usps_collection_boxes", "addr:city": "WAYNOKA", "addr:country": "US", "addr:full": "1620 SANTA FE ST", "addr:postcode": "73860", "addr:state": "OK", "amenity": "post_box", "brand": "United States Postal Service", "brand:wikidata": "Q668687", "collection_times": "Mo-Fr 14:30; Sa 10:00", "name": "USPS COLLECTION BOX - BLUE BOX", "note": "ON 12/24 AND 12/31, THIS BOX MAY BE COLLECTED AS EARLY AS 12 NOON.", "nsi_id": "unitedstatespostalservice-a77078", "operator": "United States Postal Service", "operator:short": "USPS", "operator:type": "public", "operator:wikidata": "Q668687", "ref": "7386000005"}, "type": "Feature"}
{"dataset_attributes": {"@spider": "usps_collection_boxes", "spider:collection_time": "2023-12-07T08:25:58.402860"}, "geometry": {"coordinates": [-98.8813125, 36.584514547], "type": "Point"}, "id": "CQjfEPiLO1TdQtxZ5COyxLuB_ow=", "properties": {"@spider": "usps_collection_boxes", "addr:city": "WAYNOKA", "addr:country": "US", "addr:full": "1620 SANTA FE ST", "addr:postcode": "73860", "addr:state": "OK", "amenity": "post_box", "brand": "United States Postal Service", "brand:wikidata": "Q668687", "collection_times": "Mo-Fr 14:30", "name": "USPS COLLECTION BOX - PO LOBBY", "note": "ON 12/24 AND 12/31, THIS BOX MAY BE COLLECTED AS EARLY AS 12 NOON.", "nsi_id": "unitedstatespostalservice-a77078", "operator": "United States Postal Service", "operator:short": "USPS", "operator:type": "public", "operator:wikidata": "Q668687", "ref": "7386000006"}, "type": "Feature"}
