{"geometry": {"coordinates": [-101.074181, 36.756125], "type": "Point"}, "id": "P7rqdv8A4P0dtgALx9zP2JgnNnA=", "properties": {"@source_uri": "https://tools.usps.com/UspsToolsRestServices/rest/POLocator/findLocations", "@spider": "usps_collection_boxes", "addr:city": "ADAMS", "addr:country": "US", "addr:postcode": "73901", "addr:state": "OK", "addr:street_address": "17 MAIN ST", "amenity": "post_box", "collection_times": "Mo-Fr 12:00; Sa 11:15", "indoor": "yes", "nsi_id": "unitedstatespostalservice-a77078", "operator": "United States Postal Service", "operator:short": "USPS", "operator:type": "public", "operator:wikidata": "Q668687", "ref": "7390100006"}, "type": "Feature"}
{"geometry": {"coordinates": [-101.074140368, 36.756191417], "type": "Point"}, "id": "Q_qKZkspolIY_ctSpnm5ZF7VSZU=", "properties": {"@source_uri": "https://tools.usps.com/UspsToolsRestServices/rest/POLocator/findLocations", "@spider": "usps_collection_boxes", "addr:city": "ADAMS", "addr:country": "US", "addr:postcode": "73901", "addr:state": "OK", "addr:street_address": "17 MAIN ST", "amenity": "post_box", "collection_times": "Mo-Fr 12:00; Sa 11:30", "indoor": "yes", "nsi_id": "unitedstatespostalservice-a77078", "operator": "United States Postal Service", "operator:short": "USPS", "operator:type": "public", "operator:wikidata": "Q668687", "ref": "7390100007"}, "type": "Feature"}
{"geometry": {"coordinates": [-100.828938, 36.6155], "type": "Point"}, "id": "dcLLeg7qXFZPwCIVDK3OfirXRQI=", "properties": {"@source_uri": "https://tools.usps.com/UspsToolsRestServices/rest/POLocator/findLocations", "@spider": "usps_collection_boxes", "addr:city": "BALKO", "addr:country": "US", "addr:postcode": "73931", "addr:state": "OK", "addr:street_address": "1 HIGHWAY 83", "amenity": "post_box", "collection_times": "Mo-Fr 12:00; Sa 09:30", "indoor": "yes", "nsi_id": "unitedstatespostalservice-a77078", "operator": "United States Postal Service", "operator:short": "USPS", "operator:type": "public", "operator:wikidata": "Q668687", "ref": "7393100002"}, "type": "Feature"}
{"geometry": {"coordinates": [-100.828645829, 36.615722506], "type": "Point"}, "id": "WI2Hg5pWjUtfKkrXZNn4eeSQf5w=", "properties": {"@source_uri": "https://tools.usps.com/UspsToolsRestServices/rest/POLocator/findLocations", "@spider": "usps_collection_boxes", "addr:city": "BALKO", "addr:country": "US", "addr:postcode": "73931", "addr:state": "OK", "addr:street_address": "1 HIGHWAY 83", "amenity": "post_box", "collection_times": "Mo-Fr 12:00", "indoor": "yes", "nsi_id": "unitedstatespostalservice-a77078", "operator": "United States Postal Service", "operator:short": "USPS", "operator:type": "public", "operator:wikidata": "Q668687", "ref": "7393100003"}, "type": "Feature"}
{"geometry": {"coordinates": [-100.518916, 36.816275], "type": "Point"}, "id": "0_g527q6YZz_ZxBhOywMfS2LGwY=", "properties": {"@source_uri": "https://tools.usps.com/UspsToolsRestServices/rest/POLocator/findLocations", "@spider": "usps_collection_boxes", "addr:city": "BEAVER", "addr:country": "US", "addr:postcode": "73932", "addr:state": "OK", "addr:street_address": "16 E 2ND ST", "amenity": "post_box", "collection_times": "Mo-Fr 15:30; Sa 10:00", "note": "ON 12/24 AND 12/31, THIS BOX MAY BE COLLECTED AS EARLY AS 12 NOON.", "nsi_id": "unitedstatespostalservice-a77078", "operator": "United States Postal Service", "operator:short": "USPS", "operator:type": "public", "operator:wikidata": "Q668687", "ref": "7393200000"}, "type": "Feature"}
{"geometry": {"coordinates": [-100.518765, 36.816337], "type": "Point"}, "id": "BunbFaHYAwg3mQze1lX7jn-dtdc=", "properties": {"@source_uri": "https://tools.usps.com/UspsToolsRestServices/rest/POLocator/findLocations", "@spider": "usps_collection_boxes", "addr:city": "BEAVER", "addr:country": "US", "addr:postcode": "73932", "addr:state": "OK", "addr:street_address": "16 E 2ND ST", "amenity": "post_box", "collection_times": "Mo-Fr 15:30; Sa 10:00", "indoor": "yes", "note": "ON 12/24 AND 12/31, THIS BOX MAY BE COLLECTED AS EARLY AS 12 NOON.", "nsi_id": "unitedstatespostalservice-a77078", "operator": "United States Postal Service", "operator:short": "USPS", "operator:type": "public", "operator:wikidata": "Q668687", "ref": "7393200003"}, "type": "Feature"}
{"geometry": {"coordinates": [-100.519262277, 36.816217457], "type": "Point"}, "id": "V059gEBtAztVvCOwaXqiKyQkQQQ=", "properties": {"@source_uri": "https://tools.usps.com/UspsToolsRestServices/rest/POLocator/findLocations", "@spider": "usps_collection_boxes", "addr:city": "BEAVER", "addr:country": "US", "addr:postcode": "73932", "addr:state": "OK", "addr:street_address": "16 E 2ND ST", "amenity": "post_box", "collection_times": "Mo-Fr 15:30", "indoor": "yes", "note": "ON 12/24 AND 12/31, THIS BOX MAY BE COLLECTED AS EARLY AS 12 NOON.", "nsi_id": "unitedstatespostalservice-a77078", "operator": "United States Postal Service", "operator:short": "USPS", "operator:type": "public", "operator:wikidata": "Q668687", "ref": "7393200005"}, "type": "Feature"}
{"geometry": {"coordinates": [-102.513095, 36.731353], "type": "Point"}, "id": "SioTBBr_qau9y0spNcMcWYNooH0=", "properties": {"@source_uri": "https://tools.usps.com/UspsToolsRestServices/rest/POLocator/findLocations", "@spider": "usps_collection_boxes", "addr:city": "BOISE CITY", "addr:country": "US", "addr:postcode": "73933", "addr:state": "OK", "addr:street_address": "210 N CIMARRON", "amenity": "post_box", "collection_times": "Mo-Fr 14:00; Sa 12:30", "note": "ON 12/24 AND 12/31, THIS BOX MAY BE COLLECTED AS EARLY AS 12 NOON.", "nsi_id": "unitedstatespostalservice-a77078", "operator": "United States Postal Service", "operator:short": "USPS", "operator:type": "public", "operator:wikidata": "Q668687", "ref": "7393300000"}, "type": "Feature"}
{"geometry": {"coordinates": [-102.513129, 36.731443], "type": "Point"}, "id": "tghnrgDrKD873uwuyGOxhvmLyBM=", "properties": {"@source_uri": "https://tools.usps.com/UspsToolsRestServices/rest/POLocator/findLocations", "@spider": "usps_collection_boxes", "addr:city": "BOISE CITY", "addr:country": "US", "addr:postcode": "73933", "addr:state": "OK", "addr:street_address": "210 N CIMARRON", "amenity": "post_box", "collection_times": "Mo-Fr 14:00; Sa 12:30", "indoor": "yes", "note": "ON 12/24 AND 12/31, THIS BOX MAY BE COLLECTED AS EARLY AS 12 NOON.", "nsi_id": "unitedstatespostalservice-a77078", "operator": "United States Postal Service", "operator:short": "USPS", "operator:type": "public", "operator:wikidata": "Q668687", "ref": "7393300003"}, "type": "Feature"}
{"geometry": {"coordinates": [-102.513129, 36.731443], "type": "Point"}, "id": "bZRolSxI_o-fR6-DCK76ZqzDPv4=", "properties": {"@source_uri": "https://tools.usps.com/UspsToolsRestServices/rest/POLocator/findLocations", "@spider": "usps_collection_boxes", "addr:city": "BOISE CITY", "addr:country": "US", "addr:postcode": "73933", "addr:state": "OK", "addr:street_address": "210 N CIMARRON", "amenity": "post_box", "collection_times": "Mo-Fr 14:00; Sa 12:30", "indoor": "yes", "note": "ON 12/24 AND 12/31, THIS BOX MAY BE COLLECTED AS EARLY AS 12 NOON.", "nsi_id": "unitedstatespostalservice-a77078", "operator": "United States Postal Service", "operator:short": "USPS", "operator:type": "public", "operator:wikidata": "Q668687", "ref": "7393300004"}, "type": "Feature"}
{"geometry": {"coordinates": [-102.513096684, 36.731178], "type": "Point"}, "id": "CgjsAvWhKcJogzNH9a2yyf4lIxo=", "properties": {"@source_uri": "https://tools.usps.com/UspsToolsRestServices/rest/POLocator/findLocations", "@spider": "usps_collection_boxes", "addr:city": "BOISE CITY", "addr:country": "US", "addr:postcode": "73933", "addr:state": "OK", "addr:street_address": "210 N CIMARRON", "amenity": "post_box", "collection_times": "Mo-Fr 14:00", "indoor": "yes", "note": "ON 12/24 AND 12/31, THIS BOX MAY BE COLLECTED AS EARLY AS 12 NOON.", "nsi_id": "unitedstatespostalservice-a77078", "operator": "United States Postal Service", "operator:short": "USPS", "operator:type": "public", "operator:wikidata": "Q668687", "ref": "7393300005"}, "type": "Feature"}
{"geometry": {"coordinates": [-102.794313, 36.561891], "type": "Point"}, "id": "npmmosMaUVAlh-zNn3k3dZzswFA=", "properties": {"@source_uri": "https://tools.usps.com/UspsToolsRestServices/rest/POLocator/findLocations", "@spider": "usps_collection_boxes", "addr:city": "FELT", "addr:country": "US", "addr:postcode": "73937", "addr:state": "OK", "addr:street_address": "101 LINCOLN ST", "amenity": "post_box", "collection_times": "Mo-Fr 13:30; Sa 11:30", "indoor": "yes", "note": "ON 12/24 AND 12/31, THIS BOX MAY BE COLLECTED AS EARLY AS 12 NOON.", "nsi_id": "unitedstatespostalservice-a77078", "operator": "United States Postal Service", "operator:short": "USPS", "operator:type": "public", "operator:wikidata": "Q668687", "ref": "7393700000"}, "type": "Feature"}
{"geometry": {"coordinates": [-102.794347, 36.561981], "type": "Point"}, "id": "S-44AdMVkT0uFZNcz5wWP7ku7Cw=", "properties": {"@source_uri": "https://tools.usps.com/UspsToolsRestServices/rest/POLocator/findLocations", "@spider": "usps_collection_boxes", "addr:city": "FELT", "addr:country": "US", "addr:postcode": "73937", "addr:state": "OK", "addr:street_address": "101 LINCOLN ST", "amenity": "post_box", "collection_times": "Mo-Fr 13:30; Sa 11:30", "note": "ON 12/24 AND 12/31, THIS BOX MAY BE COLLECTED AS EARLY AS 12 NOON.", "nsi_id": "unitedstatespostalservice-a77078", "operator": "United States Postal Service", "operator:short": "USPS", "operator:type": "public", "operator:wikidata": "Q668687", "ref": "7393700001"}, "type": "Feature"}
{"geometry": {"coordinates": [-102.794571944, 36.561046476], "type": "Point"}, "id": "Ap92Wtc4VvVgAzS18tuEfuiAHkA=", "properties": {"@source_uri": "https://tools.usps.com/UspsToolsRestServices/rest/POLocator/findLocations", "@spider": "usps_collection_boxes", "addr:city": "FELT", "addr:country": "US", "addr:postcode": "73937", "addr:state": "OK", "addr:street_address": "101 LINCOLN ST", "amenity": "post_box", "collection_times": "Mo-Fr 13:30; Sa 11:30", "indoor": "yes", "note": "ON 12/24 AND 12/31, THIS BOX MAY BE COLLECTED AS EARLY AS 12 NOON.", "nsi_id": "unitedstatespostalservice-a77078", "operator": "United States Postal Service", "operator:short": "USPS", "operator:type": "public", "operator:wikidata": "Q668687", "ref": "7393700002"}, "type": "Feature"}
{"geometry": {"coordinates": [-100.535806, 36.907059], "type": "Point"}, "id": "0o6uKqP_QQO9CJ7xFrJCJgk66us=", "properties": {"@source_uri": "https://tools.usps.com/UspsToolsRestServices/rest/POLocator/findLocations", "@spider": "usps_collection_boxes", "addr:city": "FORGAN", "addr:country": "US", "addr:postcode": "73938", "addr:state": "OK", "addr:street_address": "115 S BROADWAY ST", "amenity": "post_box", "collection_times": "Mo-Fr 15:45; Sa 10:15", "indoor": "yes", "note": "ON 12/24 AND 12/31, THIS BOX MAY BE COLLECTED AS EARLY AS 12 NOON.", "nsi_id": "unitedstatespostalservice-a77078", "operator": "United States Postal Service", "operator:short": "USPS", "operator:type": "public", "operator:wikidata": "Q668687", "ref": "7393800000"}, "type": "Feature"}
{"geometry": {"coordinates": [-100.535806, 36.907059], "type": "Point"}, "id": "dJ6B5_10p1LxtYqqy1McnB-qHRk=", "properties": {"@source_uri": "https://tools.usps.com/UspsToolsRestServices/rest/POLocator/findLocations", "@spider": "usps_collection_boxes", "addr:city": "FORGAN", "addr:country": "US", "addr:postcode": "73938", "addr:state": "OK", "addr:street_address": "115 S BROADWAY ST", "amenity": "post_box", "collection_times": "Mo-Fr 15:45; Sa 10:15", "note": "ON 12/24 AND 12/31, THIS BOX MAY BE COLLECTED AS EARLY AS 12 NOON.", "nsi_id": "unitedstatespostalservice-a77078", "operator": "United States Postal Service", "operator:short": "USPS", "operator:type": "public", "operator:wikidata": "Q668687", "ref": "7393800001"}, "type": "Feature"}
{"geometry": {"coordinates": [-100.535753353, 36.907090919], "type": "Point"}, "id": "TT3td72ynQwANbg3VeIQaUmpSCQ=", "properties": {"@source_uri": "https://tools.usps.com/UspsToolsRestServices/rest/POLocator/findLocations", "@spider": "usps_collection_boxes", "addr:city": "FORGAN", "addr:country": "US", "addr:postcode": "73938", "addr:state": "OK", "addr:street_address": "115 S BROADWAY ST", "amenity": "post_box", "collection_times": "Mo-Fr 15:45; Sa 12:00", "indoor": "yes", "note": "ON 12/24 AND 12/31, THIS BOX MAY BE COLLECTED AS EARLY AS 12 NOON.", "nsi_id": "unitedstatespostalservice-a77078", "operator": "United States Postal Service", "operator:short": "USPS", "operator:type": "public", "operator:wikidata": "Q668687", "ref": "7393800003"}, "type": "Feature"}
{"geometry": {"coordinates": [-101.632547, 36.593839], "type": "Point"}, "id": "uJJ0MpbanGFxZ-rIet2yYaimCSY=", "properties": {"@source_uri": "https://tools.usps.com/UspsToolsRestServices/rest/POLocator/findLocations", "@spider": "usps_collection_boxes", "addr:city": "GOODWELL", "addr:country": "US", "addr:postcode": "73939", "addr:state": "OK", "addr:street_address": "105 S MAIN ST", "amenity": "post_box", "collection_times": "Mo-Fr 16:00; Sa 10:00", "note": "ON 12/24 AND 12/31, THIS BOX MAY BE COLLECTED AS EARLY AS 12 NOON.", "nsi_id": "unitedstatespostalservice-a77078", "operator": "United States Postal Service", "operator:short": "USPS", "operator:type": "public", "operator:wikidata": "Q668687", "ref": "7393900000"}, "type": "Feature"}
{"geometry": {"coordinates": [-101.632547, 36.593839], "type": "Point"}, "id": "ITw2SzodV8vUD5I5EAWi7qz5H8U=", "properties": {"@source_uri": "https://tools.usps.com/UspsToolsRestServices/rest/POLocator/findLocations", "@spider": "usps_collection_boxes", "addr:city": "GOODWELL", "addr:country": "US", "addr:postcode": "73939", "addr:state": "OK", "addr:street_address": "105 S MAIN ST", "amenity": "post_box", "collection_times": "Mo-Fr 16:00; Sa 10:00", "indoor": "yes", "note": "ON 12/24 AND 12/31, THIS BOX MAY BE COLLECTED AS EARLY AS 12 NOON.", "nsi_id": "unitedstatespostalservice-a77078", "operator": "United States Postal Service", "operator:short": "USPS", "operator:type": "public", "operator:wikidata": "Q668687", "ref": "7393900002"}, "type": "Feature"}
{"geometry": {"coordinates": [-101.632559354, 36.593746224], "type": "Point"}, "id": "wCXrpQCMDDD6M6sc4tQ-zqDjTS4=", "properties": {"@source_uri": "https://tools.usps.com/UspsToolsRestServices/rest/POLocator/findLocations", "@spider": "usps_collection_boxes", "addr:city": "GOODWELL", "addr:country": "US", "addr:postcode": "73939", "addr:state": "OK", "addr:street_address": "105 S MAIN ST", "amenity": "post_box", "collection_times": "Mo-Fr 15:49", "indoor": "yes", "note": "ON 12/24 AND 12/31, THIS BOX MAY BE COLLECTED AS EARLY AS 12 NOON.", "nsi_id": "unitedstatespostalservice-a77078", "operator": "United States Postal Service", "operator:short": "USPS", "operator:type": "public", "operator:wikidata": "Q668687", "ref": "7393900003"}, "type": "Feature"}
{"geometry": {"coordinates": [-101.482991, 36.681046], "type": "Point"}, "id": "1lr2hc2GXrYFdE8glftCjwDfYXY=", "properties": {"@source_uri": "https://tools.usps.com/UspsToolsRestServices/rest/POLocator/findLocations", "@spider": "usps_collection_boxes", "addr:city": "GUYMON", "addr:country": "US", "addr:postcode": "73942", "addr:state": "OK", "addr:street_address": "302 N QUINN ST", "amenity": "post_box", "collection_times": "Mo-Fr 16:30; Sa 10:00", "indoor": "yes", "note": "ON 12/24 AND 12/31, THIS BOX MAY BE COLLECTED AS EARLY AS 12 NOON.", "nsi_id": "unitedstatespostalservice-a77078", "operator": "United States Postal Service", "operator:short": "USPS", "operator:type": "public", "operator:wikidata": "Q668687", "ref": "7394200010"}, "type": "Feature"}
{"geometry": {"coordinates": [-101.483055, 36.681038], "type": "Point"}, "id": "x0Qn1fi2Vv0PaGa78JgXIE0Lb98=", "properties": {"@source_uri": "https://tools.usps.com/UspsToolsRestServices/rest/POLocator/findLocations", "@spider": "usps_collection_boxes", "addr:city": "GUYMON", "addr:country": "US", "addr:postcode": "73942", "addr:state": "OK", "addr:street_address": "302 N QUINN ST", "amenity": "post_box", "collection_times": "Mo-Fr 16:30; Sa 10:00", "indoor": "yes", "note": "ON 12/24 AND 12/31, THIS BOX MAY BE COLLECTED AS EARLY AS 12 NOON.", "nsi_id": "unitedstatespostalservice-a77078", "operator": "United States Postal Service", "operator:short": "USPS", "operator:type": "public", "operator:wikidata": "Q668687", "ref": "7394200011"}, "type": "Feature"}
{"geometry": {"coordinates": [-101.48341, 36.681339], "type": "Point"}, "id": "WHIygpw1MhK29iEsjZ08P585Ynk=", "properties": {"@source_uri": "https://tools.usps.com/UspsToolsRestServices/rest/POLocator/findLocations", "@spider": "usps_collection_boxes", "addr:city": "GUYMON", "addr:country": "US", "addr:postcode": "73942", "addr:state": "OK", "addr:street_address": "302 N QUINN ST", "amenity": "post_box", "collection_times": "Mo-Fr 16:30; Sa 10:00", "note": "ON 12/24 AND 12/31, THIS BOX MAY BE COLLECTED AS EARLY AS 12 NOON.", "nsi_id": "unitedstatespostalservice-a77078", "operator": "United States Postal Service", "operator:short": "USPS", "operator:type": "public", "operator:wikidata": "Q668687", "ref": "7394200012"}, "type": "Feature"}
{"geometry": {"coordinates": [-101.482898225, 36.681056665], "type": "Point"}, "id": "-rSgrbmUSTRdB0e9tfSK4kIyhZg=", "properties": {"@source_uri": "https://tools.usps.com/UspsToolsRestServices/rest/POLocator/findLocations", "@spider": "usps_collection_boxes", "addr:city": "GUYMON", "addr:country": "US", "addr:postcode": "73942", "addr:state": "OK", "addr:street_address": "302 N QUINN ST", "amenity": "post_box", "collection_times": "Mo-Fr 16:30", "indoor": "yes", "note": "ON 12/24 AND 12/31, THIS BOX MAY BE COLLECTED AS EARLY AS 12 NOON.", "nsi_id": "unitedstatespostalservice-a77078", "operator": "United States Postal Service", "operator:short": "USPS", "operator:type": "public", "operator:wikidata": "Q668687", "ref": "7394200016"}, "type": "Feature"}
{"geometry": {"coordinates": [-101.191848, 36.616381], "type": "Point"}, "id": "7ijOsUaJLvlde8Ys21FK2WyW36o=", "properties": {"@source_uri": "https://tools.usps.com/UspsToolsRestServices/rest/POLocator/findLocations", "@spider": "usps_collection_boxes", "addr:city": "HARDESTY", "addr:country": "US", "addr:postcode": "73944", "addr:state": "OK", "addr:street_address": "107 BROADWAY ST", "amenity": "post_box", "collection_times": "Mo-Fr 13:00; Sa 09:15", "indoor": "yes", "note": "ON 12/24 AND 12/31, THIS BOX MAY BE COLLECTED AS EARLY AS 12 NOON.", "nsi_id": "unitedstatespostalservice-a77078", "operator": "United States Postal Service", "operator:short": "USPS", "operator:type": "public", "operator:wikidata": "Q668687", "ref": "7394400000"}, "type": "Feature"}
{"geometry": {"coordinates": [-101.191826579, 36.616400806], "type": "Point"}, "id": "jtulTzD0_8sDij9rahoWd2FuTDE=", "properties": {"@source_uri": "https://tools.usps.com/UspsToolsRestServices/rest/POLocator/findLocations", "@spider": "usps_collection_boxes", "addr:city": "HARDESTY", "addr:country": "US", "addr:postcode": "73944", "addr:state": "OK", "addr:street_address": "107 S BROADWAY ST", "amenity": "post_box", "collection_times": "Mo-Fr 13:00", "indoor": "yes", "note": "ON 12/24 AND 12/31, THIS BOX MAY BE COLLECTED AS EARLY AS 12 NOON.", "nsi_id": "unitedstatespostalservice-a77078", "operator": "United States Postal Service", "operator:short": "USPS", "operator:type": "public", "operator:wikidata": "Q668687", "ref": "7394400002"}, "type": "Feature"}
{"geometry": {"coordinates": [-101.207857, 36.856404], "type": "Point"}, "id": "KCejvJGgNs5RP-aX-PIBxrU3kvY=", "properties": {"@source_uri": "https://tools.usps.com/UspsToolsRestServices/rest/POLocator/findLocations", "@spider": "usps_collection_boxes", "addr:city": "HOOKER", "addr:country": "US", "addr:postcode": "73945", "addr:state": "OK", "addr:street_address": "107 S SWEM ST", "amenity": "post_box", "collection_times": "Mo-Fr 16:00; Sa 09:00", "note": "ON 12/24 AND 12/31, THIS BOX MAY BE COLLECTED AS EARLY AS 12 NOON.", "nsi_id": "unitedstatespostalservice-a77078", "operator": "United States Postal Service", "operator:short": "USPS", "operator:type": "public", "operator:wikidata": "Q668687", "ref": "7394500001"}, "type": "Feature"}
{"geometry": {"coordinates": [-101.207857, 36.856404], "type": "Point"}, "id": "WUXfs_3XF7wPbHNibtoISKgVXDw=", "properties": {"@source_uri": "https://tools.usps.com/UspsToolsRestServices/rest/POLocator/findLocations", "@spider": "usps_collection_boxes", "addr:city": "HOOKER", "addr:country": "US", "addr:postcode": "73945", "addr:state": "OK", "addr:street_address": "107 S SWEM ST", "amenity": "post_box", "collection_times": "Mo-Fr 16:00; Sa 09:00", "indoor": "yes", "note": "ON 12/24 AND 12/31, THIS BOX MAY BE COLLECTED AS EARLY AS 12 NOON.", "nsi_id": "unitedstatespostalservice-a77078", "operator": "United States Postal Service", "operator:short": "USPS", "operator:type": "public", "operator:wikidata": "Q668687", "ref": "7394500003"}, "type": "Feature"}
{"geometry": {"coordinates": [-101.211625431, 36.860060489], "type": "Point"}, "id": "oFIeV4fwVa58fzRBYbcP5rV1N8E=", "properties": {"@source_uri": "https://tools.usps.com/UspsToolsRestServices/rest/POLocator/findLocations", "@spider": "usps_collection_boxes", "addr:city": "HOOKER", "addr:country": "US", "addr:postcode": "73945", "addr:state": "OK", "addr:street_address": "107 S SWEM ST", "amenity": "post_box", "collection_times": "Mo-Fr 16:00", "indoor": "yes", "note": "ON 12/24 AND 12/31, THIS BOX MAY BE COLLECTED AS EARLY AS 12 NOON.", "nsi_id": "unitedstatespostalservice-a77078", "operator": "United States Postal Service", "operator:short": "USPS", "operator:type": "public", "operator:wikidata": "Q668687", "ref": "7394500004"}, "type": "Feature"}
{"geometry": {"coordinates": [-102.962038, 36.900591], "type": "Point"}, "id": "9eUODbaKpcuwG_3nD3m_1QoINDw=", "properties": {"@source_uri": "https://tools.usps.com/UspsToolsRestServices/rest/POLocator/findLocations", "@spider": "usps_collection_boxes", "addr:city": "KENTON", "addr:country": "US", "addr:postcode": "73946", "addr:state": "OK", "addr:street_address": "100 NEWBERT", "amenity": "post_box", "collection_times": "Mo-Fr 11:30; Sa 10:30", "indoor": "yes", "nsi_id": "unitedstatespostalservice-a77078", "operator": "United States Postal Service", "operator:short": "USPS", "operator:type": "public", "operator:wikidata": "Q668687", "ref": "7394600001"}, "type": "Feature"}
{"geometry": {"coordinates": [-102.961975621, 36.903102572], "type": "Point"}, "id": "N553IgVtL_sfRVX75aHqimAMC-8=", "properties": {"@source_uri": "https://tools.usps.com/UspsToolsRestServices/rest/POLocator/findLocations", "@spider": "usps_collection_boxes", "addr:city": "KENTON", "addr:country": "US", "addr:postcode": "73946", "addr:state": "OK", "addr:street_address": "100 NEWBERT", "amenity": "post_box", "collection_times": "Mo-Fr 11:30; Sa 11:00", "indoor": "yes", "nsi_id": "unitedstatespostalservice-a77078", "operator": "United States Postal Service", "operator:short": "USPS", "operator:type": "public", "operator:wikidata": "Q668687", "ref": "7394600002"}, "type": "Feature"}
{"geometry": {"coordinates": [-102.252491, 36.806007], "type": "Point"}, "id": "iwislA0ngSIdHg1FPoZgMb7Sclk=", "properties": {"@source_uri": "https://tools.usps.com/UspsToolsRestServices/rest/POLocator/findLocations", "@spider": "usps_collection_boxes", "addr:city": "KEYES", "addr:country": "US", "addr:postcode": "73947", "addr:state": "OK", "addr:street_address": "101 E RAMSEY ST", "amenity": "post_box", "collection_times": "Mo-Fr 12:30; Sa 10:30", "indoor": "yes", "note": "ON 12/24 AND 12/31, THIS BOX MAY BE COLLECTED AS EARLY AS 12 NOON.", "nsi_id": "unitedstatespostalservice-a77078", "operator": "United States Postal Service", "operator:short": "USPS", "operator:type": "public", "operator:wikidata": "Q668687", "ref": "7394700000"}, "type": "Feature"}
{"geometry": {"coordinates": [-102.252204246, 36.806010439], "type": "Point"}, "id": "kMn0jBy-FV9_sdbyl4Zme0ccaRI=", "properties": {"@source_uri": "https://tools.usps.com/UspsToolsRestServices/rest/POLocator/findLocations", "@spider": "usps_collection_boxes", "addr:city": "KEYES", "addr:country": "US", "addr:postcode": "73947", "addr:state": "OK", "addr:street_address": "101 E RAMSEY ST", "amenity": "post_box", "collection_times": "Mo-Fr 12:30; Sa 10:30", "indoor": "yes", "note": "ON 12/24 AND 12/31, THIS BOX MAY BE COLLECTED AS EARLY AS 12 NOON.", "nsi_id": "unitedstatespostalservice-a77078", "operator": "United States Postal Service", "operator:short": "USPS", "operator:type": "public", "operator:wikidata": "Q668687", "ref": "7394700006"}, "type": "Feature"}
{"geometry": {"coordinates": [-101.783293, 36.504654], "type": "Point"}, "id": "px6cs7Nww6Z6ei9tp8ps7b-cR4c=", "properties": {"@source_uri": "https://tools.usps.com/UspsToolsRestServices/rest/POLocator/findLocations", "@spider": "usps_collection_boxes", "addr:city": "TEXHOMA", "addr:country": "US", "addr:postcode": "73949", "addr:state": "OK", "addr:street_address": "114 S 2ND ST", "amenity": "post_box", "collection_times": "Mo-Fr 15:45; Sa 11:00", "note": "ON 12/24 AND 12/31, THIS BOX MAY BE COLLECTED AS EARLY AS 12 NOON.", "nsi_id": "unitedstatespostalservice-a77078", "operator": "United States Postal Service", "operator:short": "USPS", "operator:type": "public", "operator:wikidata": "Q668687", "ref": "7394900000"}, "type": "Feature"}
{"geometry": {"coordinates": [-101.783259, 36.504719], "type": "Point"}, "id": "fzkYOvV2yU3WnED2XCw_c77KuMg=", "properties": {"@source_uri": "https://tools.usps.com/UspsToolsRestServices/rest/POLocator/findLocations", "@spider": "usps_collection_boxes", "addr:city": "TEXHOMA", "addr:country": "US", "addr:postcode": "73949", "addr:state": "OK", "addr:street_address": "114 S 2ND ST", "amenity": "post_box", "collection_times": "Mo-Fr 15:45; Sa 11:00", "indoor": "yes", "note": "ON 12/24 AND 12/31, THIS BOX MAY BE COLLECTED AS EARLY AS 12 NOON.", "nsi_id": "unitedstatespostalservice-a77078", "operator": "United States Postal Service", "operator:short": "USPS", "operator:type": "public", "operator:wikidata": "Q668687", "ref": "7394900001"}, "type": "Feature"}
{"geometry": {"coordinates": [-101.783320913, 36.504669991], "type": "Point"}, "id": "UP2kTalRja6Ma00LtBTQXqZRTq8=", "properties": {"@source_uri": "https://tools.usps.com/UspsToolsRestServices/rest/POLocator/findLocations", "@spider": "usps_collection_boxes", "addr:city": "TEXHOMA", "addr:country": "US", "addr:postcode": "73949", "addr:state": "OK", "addr:street_address": "114 S 2ND ST", "amenity": "post_box", "collection_times": "Mo-Fr 16:00", "indoor": "yes", "note": "ON 12/24 AND 12/31, THIS BOX MAY BE COLLECTED AS EARLY AS 12 NOON.", "nsi_id": "unitedstatespostalservice-a77078", "operator": "United States Postal Service", "operator:short": "USPS", "operator:type": "public", "operator:wikidata": "Q668687", "ref": "7394900003"}, "type": "Feature"}
{"geometry": {"coordinates": [-100.877341, 36.864063], "type": "Point"}, "id": "mgwN0Y0s-3hgMrGTrdEH7A-Tu9c=", "properties": {"@source_uri": "https://tools.usps.com/UspsToolsRestServices/rest/POLocator/findLocations", "@spider": "usps_collection_boxes", "addr:city": "TURPIN", "addr:country": "US", "addr:postcode": "73950", "addr:state": "OK", "addr:street_address": "419 S MAIN ST", "amenity": "post_box", "collection_times": "Mo-Fr 15:45; Sa 09:00", "note": "ON 12/24 AND 12/31, THIS BOX MAY BE COLLECTED AS EARLY AS 12 NOON.", "nsi_id": "unitedstatespostalservice-a77078", "operator": "United States Postal Service", "operator:short": "USPS", "operator:type": "public", "operator:wikidata": "Q668687", "ref": "7395000000"}, "type": "Feature"}
{"geometry": {"coordinates": [-100.877341, 36.864063], "type": "Point"}, "id": "wpRbbgAPszMYpqRWQXgKFlREDZg=", "properties": {"@source_uri": "https://tools.usps.com/UspsToolsRestServices/rest/POLocator/findLocations", "@spider": "usps_collection_boxes", "addr:city": "TURPIN", "addr:country": "US", "addr:postcode": "73950", "addr:state": "OK", "addr:street_address": "419 S MAIN ST", "amenity": "post_box", "collection_times": "Mo-Fr 15:45; Sa 09:00", "indoor": "yes", "note": "ON 12/24 AND 12/31, THIS BOX MAY BE COLLECTED AS EARLY AS 12 NOON.", "nsi_id": "unitedstatespostalservice-a77078", "operator": "United States Postal Service", "operator:short": "USPS", "operator:type": "public", "operator:wikidata": "Q668687", "ref": "7395000002"}, "type": "Feature"}
{"geometry": {"coordinates": [-100.877286146, 36.864068763], "type": "Point"}, "id": "38GZf1tFnQbAZaHNMk9FXkLpiNE=", "properties": {"@source_uri": "https://tools.usps.com/UspsToolsRestServices/rest/POLocator/findLocations", "@spider": "usps_collection_boxes", "addr:city": "TURPIN", "addr:country": "US", "addr:postcode": "73950", "addr:state": "OK", "addr:street_address": "419 S MAIN ST", "amenity": "post_box", "collection_times": "Mo-Fr 15:45", "indoor": "yes", "note": "ON 12/24 AND 12/31, THIS BOX MAY BE COLLECTED AS EARLY AS 12 NOON.", "nsi_id": "unitedstatespostalservice-a77078", "operator": "United States Postal Service", "operator:short": "USPS", "operator:type": "public", "operator:wikidata": "Q668687", "ref": "7395000003"}, "type": "Feature"}
{"geometry": {"coordinates": [-101.074367, 36.954653], "type": "Point"}, "id": "kKqsu-p1eYnZtGP6Zh9qSdCKE2I=", "properties": {"@source_uri": "https://tools.usps.com/UspsToolsRestServices/rest/POLocator/findLocations", "@spider": "usps_collection_boxes", "addr:city": "TYRONE", "addr:country": "US", "addr:postcode": "73951", "addr:state": "OK", "addr:street_address": "104 W MAIN ST", "amenity": "post_box", "collection_times": "Mo-Fr 16:00; Sa 10:30", "note": "ON 12/24 AND 12/31, THIS BOX MAY BE COLLECTED AS EARLY AS 12 NOON.", "nsi_id": "unitedstatespostalservice-a77078", "operator": "United States Postal Service", "operator:short": "USPS", "operator:type": "public", "operator:wikidata": "Q668687", "ref": "7395100000"}, "type": "Feature"}
{"geometry": {"coordinates": [-101.074367, 36.954653], "type": "Point"}, "id": "9n504fzH3xeUqLlHQoSS9tKA1GE=", "properties": {"@source_uri": "https://tools.usps.com/UspsToolsRestServices/rest/POLocator/findLocations", "@spider": "usps_collection_boxes", "addr:city": "TYRONE", "addr:country": "US", "addr:postcode": "73951", "addr:state": "OK", "addr:street_address": "104 W MAIN ST", "amenity": "post_box", "collection_times": "Mo-Fr 16:00; Sa 10:30", "indoor": "yes", "note": "ON 12/24 AND 12/31, THIS BOX MAY BE COLLECTED AS EARLY AS 12 NOON.", "nsi_id": "unitedstatespostalservice-a77078", "operator": "United States Postal Service", "operator:short": "USPS", "operator:type": "public", "operator:wikidata": "Q668687", "ref": "7395100002"}, "type": "Feature"}
{"geometry": {"coordinates": [-101.069390142, 36.954791532], "type": "Point"}, "id": "zFW8qi5qTWLJ2rcwcifMLuVBLns=", "properties": {"@source_uri": "https://tools.usps.com/UspsToolsRestServices/rest/POLocator/findLocations", "@spider": "usps_collection_boxes", "addr:city": "TYRONE", "addr:country": "US", "addr:postcode": "73951", "addr:state": "OK", "addr:street_address": "104 W MAIN ST", "amenity": "post_box", "collection_times": "Mo-Fr 16:00; Sa 10:30", "indoor": "yes", "note": "ON 12/24 AND 12/31, THIS BOX MAY BE COLLECTED AS EARLY AS 12 NOON.", "nsi_id": "unitedstatespostalservice-a77078", "operator": "United States Postal Service", "operator:short": "USPS", "operator:type": "public", "operator:wikidata": "Q668687", "ref": "7395100003"}, "type": "Feature"}
