{"geometry": {"coordinates": [-96.056861, 36.492137], "type": "Point"}, "id": "cN9lzp-NJFT2syEU50wscHdzrWI=", "properties": {"@source_uri": "https://tools.usps.com/UspsToolsRestServices/rest/POLocator/findLocations", "@spider": "usps_collection_boxes", "addr:city": "AVANT", "addr:country": "US", "addr:postcode": "74001", "addr:state": "OK", "addr:street_address": "514 E 3RD ST", "amenity": "post_box", "collection_times": "Mo-Fr 13:00; Sa 09:45", "indoor": "yes", "note": "ON 12/24 AND 12/31, THIS BOX MAY BE COLLECTED AS EARLY AS 12 NOON.", "nsi_id": "unitedstatespostalservice-a77078", "operator": "United States Postal Service", "operator:short": "USPS", "operator:type": "public", "operator:wikidata": "Q668687", "ref": "7400100000"}, "type": "Feature"}
{"geometry": {"coordinates": [-96.056886088, 36.492172428], "type": "Point"}, "id": "jPGBbmR8CxBBiRine8nGXx52iQk=", "properties": {"@source_uri": "https://tools.usps.com/UspsToolsRestServices/rest/POLocator/findLocations", "@spider": "usps_collection_boxes", "addr:city": "AVANT", "addr:country": "US", "addr:postcode": "74001", "addr:state": "OK", "addr:street_address": "514 E 3RD ST", "amenity": "post_box", "collection_times": "Mo-Fr 13:00; Sa 09:30", "indoor": "yes", "note": "ON 12/24 AND 12/31, THIS BOX MAY BE COLLECTED AS EARLY AS 12 NOON.", "nsi_id": "unitedstatespostalservice-a77078", "operator": "United States Postal Service", "operator:short": "USPS", "operator:type": "public", "operator:wikidata": "Q668687", "ref": "7400100002"}, "type": "Feature"}
{"geometry": {"coordinates": [-96.162135, 36.561839], "type": "Point"}, "id": "Wc5hB_yVFZW5SsN1V8BrmkpIXxk=", "properties": {"@source_uri": "https://tools.usps.com/UspsToolsRestServices/rest/POLocator/findLocations", "@spider": "usps_collection_boxes", "addr:city": "BARNSDALL", "addr:country": "US", "addr:postcode": "74002", "addr:state": "OK", "addr:street_address": "520 W MAIN ST", "amenity": "post_box", "collection_times": "Mo-Fr 16:15; Sa 10:00", "note": "ON 12/24 AND 12/31, THIS BOX MAY BE COLLECTED AS EARLY AS 12 NOON.", "nsi_id": "unitedstatespostalservice-a77078", "operator": "United States Postal Service", "operator:short": "USPS", "operator:type": "public", "operator:wikidata": "Q668687", "ref": "7400200000"}, "type": "Feature"}
{"geometry": {"coordinates": [-96.162135, 36.561839], "type": "Point"}, "id": "Ry6uMf1DGvjUIBPaTXZwEKpF8Mo=", "properties": {"@source_uri": "https://tools.usps.com/UspsToolsRestServices/rest/POLocator/findLocations", "@spider": "usps_collection_boxes", "addr:city": "BARNSDALL", "addr:country": "US", "addr:postcode": "74002", "addr:state": "OK", "addr:street_address": "520 W MAIN ST", "amenity": "post_box", "collection_times": "Mo-Fr 16:15; Sa 10:00", "indoor": "yes", "note": "ON 12/24 AND 12/31, THIS BOX MAY BE COLLECTED AS EARLY AS 12 NOON.", "nsi_id": "unitedstatespostalservice-a77078", "operator": "United States Postal Service", "operator:short": "USPS", "operator:type": "public", "operator:wikidata": "Q668687", "ref": "7400200002"}, "type": "Feature"}
{"geometry": {"coordinates": [-96.162135, 36.561839], "type": "Point"}, "id": "J2VtQatTvuyAkvHqrx7KF4zBfxI=", "properties": {"@source_uri": "https://tools.usps.com/UspsToolsRestServices/rest/POLocator/findLocations", "@spider": "usps_collection_boxes", "addr:city": "BARNSDALL", "addr:country": "US", "addr:postcode": "74002", "addr:state": "OK", "addr:street_address": "520 W MAIN ST", "amenity": "post_box", "collection_times": "Mo-Fr 16:15; Sa 10:00", "indoor": "yes", "note": "ON 12/24 AND 12/31, THIS BOX MAY BE COLLECTED AS EARLY AS 12 NOON.", "nsi_id": "unitedstatespostalservice-a77078", "operator": "United States Postal Service", "operator:short": "USPS", "operator:type": "public", "operator:wikidata": "Q668687", "ref": "7400200003"}, "type": "Feature"}
{"geometry": {"coordinates": [-96.162113998, 36.561878169], "type": "Point"}, "id": "-zaW4WC06iyByy3U-OOgw4NCgoM=", "properties": {"@source_uri": "https://tools.usps.com/UspsToolsRestServices/rest/POLocator/findLocations", "@spider": "usps_collection_boxes", "addr:city": "BARNSDALL", "addr:country": "US", "addr:postcode": "74002", "addr:state": "OK", "addr:street_address": "520 W MAIN ST", "amenity": "post_box", "collection_times": "Mo-Fr 16:15", "indoor": "yes", "note": "ON 12/24 AND 12/31, THIS BOX MAY BE COLLECTED AS EARLY AS 12 NOON.", "nsi_id": "unitedstatespostalservice-a77078", "operator": "United States Postal Service", "operator:short": "USPS", "operator:type": "public", "operator:wikidata": "Q668687", "ref": "7400200004"}, "type": "Feature"}
{"geometry": {"coordinates": [-95.9726286, 36.748169], "type": "Point"}, "id": "rlkwbwC7LsFYlrCJnWhmoamAdGw=", "properties": {"@source_uri": "https://tools.usps.com/UspsToolsRestServices/rest/POLocator/findLocations", "@spider": "usps_collection_boxes", "addr:city": "BARTLESVILLE", "addr:country": "US", "addr:postcode": "74003", "addr:state": "OK", "addr:street_address": "416 E 5TH ST", "amenity": "post_box", "collection_times": "Mo-Fr 14:00; Sa 11:00", "note": "ON 12/24 AND 12/31, THIS BOX MAY BE COLLECTED AS EARLY AS 12 NOON.", "nsi_id": "unitedstatespostalservice-a77078", "operator": "United States Postal Service", "operator:short": "USPS", "operator:type": "public", "operator:wikidata": "Q668687", "ref": "7400300001"}, "type": "Feature"}
{"geometry": {"coordinates": [-95.9777447, 36.74898], "type": "Point"}, "id": "Esc5sfnjRMnKHV1nvQhlvLxpvIU=", "properties": {"@source_uri": "https://tools.usps.com/UspsToolsRestServices/rest/POLocator/findLocations", "@spider": "usps_collection_boxes", "addr:city": "BARTLESVILLE", "addr:country": "US", "addr:postcode": "74003", "addr:state": "OK", "addr:street_address": "420 S JOHNSTONE AVE", "amenity": "post_box", "collection_times": "Mo-Fr 14:30; Sa 11:00", "note": "ON 12/24 AND 12/31, THIS BOX MAY BE COLLECTED AS EARLY AS 12 NOON.", "nsi_id": "unitedstatespostalservice-a77078", "operator": "United States Postal Service", "operator:short": "USPS", "operator:type": "public", "operator:wikidata": "Q668687", "ref": "7400300011"}, "type": "Feature"}
{"geometry": {"coordinates": [-95.9771029, 36.751317], "type": "Point"}, "id": "NFHDs8qQDbpSZkY-zNIDUv231vk=", "properties": {"@source_uri": "https://tools.usps.com/UspsToolsRestServices/rest/POLocator/findLocations", "@spider": "usps_collection_boxes", "addr:city": "BARTLESVILLE", "addr:country": "US", "addr:postcode": "74003", "addr:state": "OK", "addr:street_address": "100 SE FRANK PHILLIPS BLVD", "amenity": "post_box", "collection_times": "Mo-Fr 14:30; Sa 11:00", "note": "ON 12/24 AND 12/31, THIS BOX MAY BE COLLECTED AS EARLY AS 12 NOON.", "nsi_id": "unitedstatespostalservice-a77078", "operator": "United States Postal Service", "operator:short": "USPS", "operator:type": "public", "operator:wikidata": "Q668687", "ref": "7400300013"}, "type": "Feature"}
{"geometry": {"coordinates": [-95.9817333, 36.74821], "type": "Point"}, "id": "gFMt6wO2rSnWVTGU-U2G2-OXoAk=", "properties": {"@source_uri": "https://tools.usps.com/UspsToolsRestServices/rest/POLocator/findLocations", "@spider": "usps_collection_boxes", "addr:city": "BARTLESVILLE", "addr:country": "US", "addr:postcode": "74003", "addr:state": "OK", "addr:street_address": "615 SW JENNINGS AVE", "amenity": "post_box", "collection_times": "Mo-Fr 17:00; Sa 16:00", "note": "ON 12/24 AND 12/31, THIS BOX MAY BE COLLECTED AS EARLY AS 12 NOON.", "nsi_id": "unitedstatespostalservice-a77078", "operator": "United States Postal Service", "operator:short": "USPS", "operator:type": "public", "operator:wikidata": "Q668687", "ref": "7400300019"}, "type": "Feature"}
{"geometry": {"coordinates": [-95.980885, 36.747987], "type": "Point"}, "id": "7TMXNCdc1XxpB6vAk2gNVNK3D0M=", "properties": {"@source_uri": "https://tools.usps.com/UspsToolsRestServices/rest/POLocator/findLocations", "@spider": "usps_collection_boxes", "addr:city": "BARTLESVILLE", "addr:country": "US", "addr:postcode": "74003", "addr:state": "OK", "addr:street_address": "615 SW JENNINGS AVE", "amenity": "post_box", "collection_times": "Mo-Fr 16:30; Sa 16:00", "indoor": "yes", "note": "ON 12/24 AND 12/31, THIS BOX MAY BE COLLECTED AS EARLY AS 12 NOON.", "nsi_id": "unitedstatespostalservice-a77078", "operator": "United States Postal Service", "operator:short": "USPS", "operator:type": "public", "operator:wikidata": "Q668687", "ref": "7400300034"}, "type": "Feature"}
{"geometry": {"coordinates": [-95.980885, 36.747987], "type": "Point"}, "id": "q0mOq8fYTXKlatuEBQGqZUg3lLY=", "properties": {"@source_uri": "https://tools.usps.com/UspsToolsRestServices/rest/POLocator/findLocations", "@spider": "usps_collection_boxes", "addr:city": "BARTLESVILLE", "addr:country": "US", "addr:postcode": "74003", "addr:state": "OK", "addr:street_address": "615 SW JENNINGS AVE", "amenity": "post_box", "collection_times": "Mo-Fr 16:30; Sa 16:00", "indoor": "yes", "note": "ON 12/24 AND 12/31, THIS BOX MAY BE COLLECTED AS EARLY AS 12 NOON.", "nsi_id": "unitedstatespostalservice-a77078", "operator": "United States Postal Service", "operator:short": "USPS", "operator:type": "public", "operator:wikidata": "Q668687", "ref": "7400300035"}, "type": "Feature"}
{"geometry": {"coordinates": [-95.980985943, 36.747555631], "type": "Point"}, "id": "0LHUjOY2YRdJaxAQVs_08CmaWGQ=", "properties": {"@source_uri": "https://tools.usps.com/UspsToolsRestServices/rest/POLocator/findLocations", "@spider": "usps_collection_boxes", "addr:city": "BARTLESVILLE", "addr:country": "US", "addr:postcode": "74003", "addr:state": "OK", "addr:street_address": "615 SW JENNINGS AVE", "amenity": "post_box", "collection_times": "Mo-Fr 16:30; Sa 12:00", "indoor": "yes", "note": "ON 12/24 AND 12/31, THIS BOX MAY BE COLLECTED AS EARLY AS 12 NOON.", "nsi_id": "unitedstatespostalservice-a77078", "operator": "United States Postal Service", "operator:short": "USPS", "operator:type": "public", "operator:wikidata": "Q668687", "ref": "7400300036"}, "type": "Feature"}
{"geometry": {"coordinates": [-95.926884, 36.732499], "type": "Point"}, "id": "iwCATAp25Kh_EDDmweCvte3cHZs=", "properties": {"@source_uri": "https://tools.usps.com/UspsToolsRestServices/rest/POLocator/findLocations", "@spider": "usps_collection_boxes", "addr:city": "BARTLESVILLE", "addr:country": "US", "addr:postcode": "74006", "addr:state": "OK", "addr:street_address": "3900 SE GREEN COUNTRY RD", "amenity": "post_box", "collection_times": "Mo-Fr 16:30; Sa 14:30", "note": "ON 12/24 AND 12/31, THIS BOX MAY BE COLLECTED AS EARLY AS 12 NOON.", "nsi_id": "unitedstatespostalservice-a77078", "operator": "United States Postal Service", "operator:short": "USPS", "operator:type": "public", "operator:wikidata": "Q668687", "ref": "7400600003"}, "type": "Feature"}
{"geometry": {"coordinates": [-95.9359299, 36.726309], "type": "Point"}, "id": "zyjy0tpjSYvj1Z0qG84CMgz9afA=", "properties": {"@source_uri": "https://tools.usps.com/UspsToolsRestServices/rest/POLocator/findLocations", "@spider": "usps_collection_boxes", "addr:city": "BARTLESVILLE", "addr:country": "US", "addr:postcode": "74006", "addr:state": "OK", "addr:street_address": "1725 SE WASHINGTON BLVD", "amenity": "post_box", "collection_times": "Mo-Sa 09:30", "nsi_id": "unitedstatespostalservice-a77078", "operator": "United States Postal Service", "operator:short": "USPS", "operator:type": "public", "operator:wikidata": "Q668687", "ref": "7400600005"}, "type": "Feature"}
{"geometry": {"coordinates": [-95.9318224, 36.715034], "type": "Point"}, "id": "T4Yp8SzMWsW6-mWPI8zdHj7L9rc=", "properties": {"@source_uri": "https://tools.usps.com/UspsToolsRestServices/rest/POLocator/findLocations", "@spider": "usps_collection_boxes", "addr:city": "BARTLESVILLE", "addr:country": "US", "addr:postcode": "74006", "addr:state": "OK", "addr:street_address": "2350 SE WASHINGTON BLVD", "amenity": "post_box", "collection_times": "Mo-Fr 14:00; Sa 13:15", "note": "ON 12/24 AND 12/31, THIS BOX MAY BE COLLECTED AS EARLY AS 12 NOON.", "nsi_id": "unitedstatespostalservice-a77078", "operator": "United States Postal Service", "operator:short": "USPS", "operator:type": "public", "operator:wikidata": "Q668687", "ref": "7400600007"}, "type": "Feature"}
{"geometry": {"coordinates": [-95.9400136, 36.752683], "type": "Point"}, "id": "LXejxf9P8YkVGNlRXCUJYbhXi7s=", "properties": {"@source_uri": "https://tools.usps.com/UspsToolsRestServices/rest/POLocator/findLocations", "@spider": "usps_collection_boxes", "addr:city": "BARTLESVILLE", "addr:country": "US", "addr:postcode": "74006", "addr:state": "OK", "addr:street_address": "3500 E FRANK PHILLIPS BLVD", "amenity": "post_box", "collection_times": "Mo-Sa 09:30", "nsi_id": "unitedstatespostalservice-a77078", "operator": "United States Postal Service", "operator:short": "USPS", "operator:type": "public", "operator:wikidata": "Q668687", "ref": "7400600011"}, "type": "Feature"}
{"geometry": {"coordinates": [-95.933887, 36.740335], "type": "Point"}, "id": "bHeHtQeJnO03ANWnNo0sqU3U0Uk=", "properties": {"@source_uri": "https://tools.usps.com/UspsToolsRestServices/rest/POLocator/findLocations", "@spider": "usps_collection_boxes", "addr:city": "BARTLESVILLE", "addr:country": "US", "addr:postcode": "74006", "addr:state": "OK", "addr:street_address": "3900 SE GREEN COUNTRY RD", "amenity": "post_box", "collection_times": "Mo-Fr 16:30; Sa 14:30", "indoor": "yes", "note": "ON 12/24 AND 12/31, THIS BOX MAY BE COLLECTED AS EARLY AS 12 NOON.", "nsi_id": "unitedstatespostalservice-a77078", "operator": "United States Postal Service", "operator:short": "USPS", "operator:type": "public", "operator:wikidata": "Q668687", "ref": "7400600020"}, "type": "Feature"}
{"geometry": {"coordinates": [-95.9338817, 36.740339], "type": "Point"}, "id": "gQhFnuhMTVKgZdwsDF1314Pz6Tk=", "properties": {"@source_uri": "https://tools.usps.com/UspsToolsRestServices/rest/POLocator/findLocations", "@spider": "usps_collection_boxes", "addr:city": "BARTLESVILLE", "addr:country": "US", "addr:postcode": "74006", "addr:state": "OK", "addr:street_address": "3900 SE GREEN COUNTRY RD", "amenity": "post_box", "collection_times": "Mo-Fr 16:30; Sa 14:30", "indoor": "yes", "note": "ON 12/24 AND 12/31, THIS BOX MAY BE COLLECTED AS EARLY AS 12 NOON.", "nsi_id": "unitedstatespostalservice-a77078", "operator": "United States Postal Service", "operator:short": "USPS", "operator:type": "public", "operator:wikidata": "Q668687", "ref": "7400600023"}, "type": "Feature"}
{"geometry": {"coordinates": [-95.9338876, 36.74033], "type": "Point"}, "id": "Dyr7uld4-4rCtXVPUiTAR6NRmOw=", "properties": {"@source_uri": "https://tools.usps.com/UspsToolsRestServices/rest/POLocator/findLocations", "@spider": "usps_collection_boxes", "addr:city": "BARTLESVILLE", "addr:country": "US", "addr:postcode": "74006", "addr:state": "OK", "addr:street_address": "3900 SE GREEN COUNTRY RD", "amenity": "post_box", "collection_times": "Mo-Fr 16:30; Sa 14:30", "indoor": "yes", "note": "ON 12/24 AND 12/31, THIS BOX MAY BE COLLECTED AS EARLY AS 12 NOON.", "nsi_id": "unitedstatespostalservice-a77078", "operator": "United States Postal Service", "operator:short": "USPS", "operator:type": "public", "operator:wikidata": "Q668687", "ref": "7400600024"}, "type": "Feature"}
{"geometry": {"coordinates": [-95.9338999, 36.740331], "type": "Point"}, "id": "xUHK6yN0j3OGhJBvnNSB4uL1DR4=", "properties": {"@source_uri": "https://tools.usps.com/UspsToolsRestServices/rest/POLocator/findLocations", "@spider": "usps_collection_boxes", "addr:city": "BARTLESVILLE", "addr:country": "US", "addr:postcode": "74006", "addr:state": "OK", "addr:street_address": "3900 SE GREEN COUNTRY RD", "amenity": "post_box", "collection_times": "Mo-Fr 16:30; Sa 14:30", "indoor": "yes", "note": "ON 12/24 AND 12/31, THIS BOX MAY BE COLLECTED AS EARLY AS 12 NOON.", "nsi_id": "unitedstatespostalservice-a77078", "operator": "United States Postal Service", "operator:short": "USPS", "operator:type": "public", "operator:wikidata": "Q668687", "ref": "7400600025"}, "type": "Feature"}
{"geometry": {"coordinates": [-95.933803432, 36.740007029], "type": "Point"}, "id": "gO7yhWJAZKvBGCfsISlA1WkDZMg=", "properties": {"@source_uri": "https://tools.usps.com/UspsToolsRestServices/rest/POLocator/findLocations", "@spider": "usps_collection_boxes", "addr:city": "BARTLESVILLE", "addr:country": "US", "addr:postcode": "74006", "addr:state": "OK", "addr:street_address": "3900 SE GREEN COUNTRY RD", "amenity": "post_box", "collection_times": "Mo-Fr 16:30", "indoor": "yes", "note": "ON 12/24 AND 12/31, THIS BOX MAY BE COLLECTED AS EARLY AS 12 NOON.", "nsi_id": "unitedstatespostalservice-a77078", "operator": "United States Postal Service", "operator:short": "USPS", "operator:type": "public", "operator:wikidata": "Q668687", "ref": "7400600029"}, "type": "Feature"}
{"geometry": {"coordinates": [-95.883535, 35.940954], "type": "Point"}, "id": "AebZm8aXhvGQlWu1Um6v_Uf1FGw=", "properties": {"@source_uri": "https://tools.usps.com/UspsToolsRestServices/rest/POLocator/findLocations", "@spider": "usps_collection_boxes", "addr:city": "BIXBY", "addr:country": "US", "addr:postcode": "74008", "addr:state": "OK", "addr:street_address": "16 S A AVE", "amenity": "post_box", "collection_times": "Mo-Fr 16:30; Sa 14:30", "note": "ON 12/24 AND 12/31, THIS BOX MAY BE COLLECTED AS EARLY AS 12 NOON.", "nsi_id": "unitedstatespostalservice-a77078", "operator": "United States Postal Service", "operator:short": "USPS", "operator:type": "public", "operator:wikidata": "Q668687", "ref": "7400800000"}, "type": "Feature"}
{"geometry": {"coordinates": [-95.886307, 35.990212], "type": "Point"}, "id": "AAyg0RyZpdvRCupGRnbbFdc9K7s=", "properties": {"@source_uri": "https://tools.usps.com/UspsToolsRestServices/rest/POLocator/findLocations", "@spider": "usps_collection_boxes", "addr:city": "BIXBY", "addr:country": "US", "addr:postcode": "74008", "addr:state": "OK", "addr:street_address": "11900 S MEMORIAL DR", "amenity": "post_box", "collection_times": "Mo-Sa 12:00", "nsi_id": "unitedstatespostalservice-a77078", "operator": "United States Postal Service", "operator:short": "USPS", "operator:type": "public", "operator:wikidata": "Q668687", "ref": "7400800002"}, "type": "Feature"}
{"geometry": {"coordinates": [-95.8882026, 35.946882], "type": "Point"}, "id": "bmww02IkPTvndb9hk5D_XO1DRQI=", "properties": {"@source_uri": "https://tools.usps.com/UspsToolsRestServices/rest/POLocator/findLocations", "@spider": "usps_collection_boxes", "addr:city": "BIXBY", "addr:country": "US", "addr:postcode": "74008", "addr:state": "OK", "addr:street_address": "15000 S MEMORIAL DR", "amenity": "post_box", "collection_times": "Mo-Sa 11:00", "nsi_id": "unitedstatespostalservice-a77078", "operator": "United States Postal Service", "operator:short": "USPS", "operator:type": "public", "operator:wikidata": "Q668687", "ref": "7400800004"}, "type": "Feature"}
{"geometry": {"coordinates": [-95.88353492, 35.940949251], "type": "Point"}, "id": "m8i5aMI28MvgD7FfwxQksgaWk-I=", "properties": {"@source_uri": "https://tools.usps.com/UspsToolsRestServices/rest/POLocator/findLocations", "@spider": "usps_collection_boxes", "addr:city": "BIXBY", "addr:country": "US", "addr:postcode": "74008", "addr:state": "OK", "addr:street_address": "16 S A AVE", "amenity": "post_box", "collection_times": "Mo-Fr 16:30; Sa 14:30", "indoor": "yes", "note": "ON 12/24 AND 12/31, THIS BOX MAY BE COLLECTED AS EARLY AS 12 NOON.", "nsi_id": "unitedstatespostalservice-a77078", "operator": "United States Postal Service", "operator:short": "USPS", "operator:type": "public", "operator:wikidata": "Q668687", "ref": "7400800008"}, "type": "Feature"}
{"geometry": {"coordinates": [-95.88353492, 35.940949251], "type": "Point"}, "id": "hS-HEq5x5ahSu58IbTPWK26xnIk=", "properties": {"@source_uri": "https://tools.usps.com/UspsToolsRestServices/rest/POLocator/findLocations", "@spider": "usps_collection_boxes", "addr:city": "BIXBY", "addr:country": "US", "addr:postcode": "74008", "addr:state": "OK", "addr:street_address": "16 S A AVE", "amenity": "post_box", "collection_times": "Mo-Fr 16:30", "indoor": "yes", "note": "ON 12/24 AND 12/31, THIS BOX MAY BE COLLECTED AS EARLY AS 12 NOON.", "nsi_id": "unitedstatespostalservice-a77078", "operator": "United States Postal Service", "operator:short": "USPS", "operator:type": "public", "operator:wikidata": "Q668687", "ref": "7400800010"}, "type": "Feature"}
{"geometry": {"coordinates": [-96.3920653, 35.832785], "type": "Point"}, "id": "6vVuR2tR4Mx2EIVy_dTdQJj0LO4=", "properties": {"@source_uri": "https://tools.usps.com/UspsToolsRestServices/rest/POLocator/findLocations", "@spider": "usps_collection_boxes", "addr:city": "BRISTOW", "addr:country": "US", "addr:postcode": "74010", "addr:state": "OK", "addr:street_address": "124 W 6TH AVE", "amenity": "post_box", "collection_times": "Mo-Fr 16:00; Sa 15:00", "note": "ON 12/24 AND 12/31, THIS BOX MAY BE COLLECTED AS EARLY AS 12 NOON.", "nsi_id": "unitedstatespostalservice-a77078", "operator": "United States Postal Service", "operator:short": "USPS", "operator:type": "public", "operator:wikidata": "Q668687", "ref": "7401000001"}, "type": "Feature"}
{"geometry": {"coordinates": [-96.390507, 35.838633], "type": "Point"}, "id": "cnpmRe2B83T4T8MDyRIZAtAZGy0=", "properties": {"@source_uri": "https://tools.usps.com/UspsToolsRestServices/rest/POLocator/findLocations", "@spider": "usps_collection_boxes", "addr:city": "BRISTOW", "addr:country": "US", "addr:postcode": "74010", "addr:state": "OK", "addr:street_address": "601 N MAIN ST", "amenity": "post_box", "collection_times": "Mo-Sa 15:00", "note": "ON 12/24 AND 12/31, THIS BOX MAY BE COLLECTED AS EARLY AS 12 NOON.", "nsi_id": "unitedstatespostalservice-a77078", "operator": "United States Postal Service", "operator:short": "USPS", "operator:type": "public", "operator:wikidata": "Q668687", "ref": "7401000004"}, "type": "Feature"}
{"geometry": {"coordinates": [-96.3929011, 35.833722], "type": "Point"}, "id": "7ra_D9FX3F8j7fVoR8U50lZ3uDk=", "properties": {"@source_uri": "https://tools.usps.com/UspsToolsRestServices/rest/POLocator/findLocations", "@spider": "usps_collection_boxes", "addr:city": "BRISTOW", "addr:country": "US", "addr:postcode": "74010", "addr:state": "OK", "addr:street_address": "110 W 7TH AVE", "amenity": "post_box", "collection_times": "Mo-Sa 15:00", "note": "ON 12/24 AND 12/31, THIS BOX MAY BE COLLECTED AS EARLY AS 12 NOON.", "nsi_id": "unitedstatespostalservice-a77078", "operator": "United States Postal Service", "operator:short": "USPS", "operator:type": "public", "operator:wikidata": "Q668687", "ref": "7401000006"}, "type": "Feature"}
{"geometry": {"coordinates": [-96.3921245, 35.8326], "type": "Point"}, "id": "UvqeBxhMNgysj2W6i3OV2WDUTBI=", "properties": {"@source_uri": "https://tools.usps.com/UspsToolsRestServices/rest/POLocator/findLocations", "@spider": "usps_collection_boxes", "addr:city": "BRISTOW", "addr:country": "US", "addr:postcode": "74010", "addr:state": "OK", "addr:street_address": "124 W 6TH AVE", "amenity": "post_box", "collection_times": "Mo-Fr 16:00; Sa 12:00", "indoor": "yes", "note": "ON 12/24 AND 12/31, THIS BOX MAY BE COLLECTED AS EARLY AS 12 NOON.", "nsi_id": "unitedstatespostalservice-a77078", "operator": "United States Postal Service", "operator:short": "USPS", "operator:type": "public", "operator:wikidata": "Q668687", "ref": "7401000011"}, "type": "Feature"}
{"geometry": {"coordinates": [-96.3921685, 35.832646], "type": "Point"}, "id": "ErgWosS8khAWwddxt-IJPr8ZYjs=", "properties": {"@source_uri": "https://tools.usps.com/UspsToolsRestServices/rest/POLocator/findLocations", "@spider": "usps_collection_boxes", "addr:city": "BRISTOW", "addr:country": "US", "addr:postcode": "74010", "addr:state": "OK", "addr:street_address": "124 W 6TH AVE", "amenity": "post_box", "collection_times": "Mo-Fr 16:00; Sa 12:00", "indoor": "yes", "note": "ON 12/24 AND 12/31, THIS BOX MAY BE COLLECTED AS EARLY AS 12 NOON.", "nsi_id": "unitedstatespostalservice-a77078", "operator": "United States Postal Service", "operator:short": "USPS", "operator:type": "public", "operator:wikidata": "Q668687", "ref": "7401000013"}, "type": "Feature"}
{"geometry": {"coordinates": [-96.391649906, 35.83274314], "type": "Point"}, "id": "PhLVF25uTNOpnhEFe4sGGoHEzsA=", "properties": {"@source_uri": "https://tools.usps.com/UspsToolsRestServices/rest/POLocator/findLocations", "@spider": "usps_collection_boxes", "addr:city": "BRISTOW", "addr:country": "US", "addr:postcode": "74010", "addr:state": "OK", "addr:street_address": "124 W 6TH AVE", "amenity": "post_box", "collection_times": "Mo-Fr 16:30", "indoor": "yes", "note": "ON 12/24 AND 12/31, THIS BOX MAY BE COLLECTED AS EARLY AS 12 NOON.", "nsi_id": "unitedstatespostalservice-a77078", "operator": "United States Postal Service", "operator:short": "USPS", "operator:type": "public", "operator:wikidata": "Q668687", "ref": "7401000014"}, "type": "Feature"}
{"geometry": {"coordinates": [-95.7978740315, 35.9910819987], "type": "Point"}, "id": "tLnKAl1EjsPMysu9o8e2RwOIyaY=", "properties": {"@source_uri": "https://tools.usps.com/UspsToolsRestServices/rest/POLocator/findLocations", "@spider": "usps_collection_boxes", "addr:city": "BROKEN ARROW", "addr:country": "US", "addr:postcode": "74011", "addr:state": "OK", "addr:street_address": "6312 S ELM PL", "amenity": "post_box", "collection_times": "Mo-Sa 11:00", "nsi_id": "unitedstatespostalservice-a77078", "operator": "United States Postal Service", "operator:short": "USPS", "operator:type": "public", "operator:wikidata": "Q668687", "ref": "7401100003"}, "type": "Feature"}
{"geometry": {"coordinates": [-95.797846036, 36.018853004], "type": "Point"}, "id": "Eow-l2W7UeFap8WrRqGcw3oUjaE=", "properties": {"@source_uri": "https://tools.usps.com/UspsToolsRestServices/rest/POLocator/findLocations", "@spider": "usps_collection_boxes", "addr:city": "BROKEN ARROW", "addr:country": "US", "addr:postcode": "74011", "addr:state": "OK", "addr:street_address": "720 W NEW ORLEANS ST", "amenity": "post_box", "collection_times": "Mo-Fr 11:00; Sa 12:30", "note": "ON 12/24 AND 12/31, THIS BOX MAY BE COLLECTED AS EARLY AS 12 NOON.", "nsi_id": "unitedstatespostalservice-a77078", "operator": "United States Postal Service", "operator:short": "USPS", "operator:type": "public", "operator:wikidata": "Q668687", "ref": "7401100005"}, "type": "Feature"}
{"geometry": {"coordinates": [-95.8158180098, 36.0745100147], "type": "Point"}, "id": "7cxP1FkHxicth8WcrSqtQnFkPyo=", "properties": {"@source_uri": "https://tools.usps.com/UspsToolsRestServices/rest/POLocator/findLocations", "@spider": "usps_collection_boxes", "addr:city": "BROKEN ARROW", "addr:country": "US", "addr:postcode": "74012", "addr:state": "OK", "addr:street_address": "2201 W ALBANY ST", "amenity": "post_box", "collection_times": "Mo-Sa 10:30", "nsi_id": "unitedstatespostalservice-a77078", "operator": "United States Postal Service", "operator:short": "USPS", "operator:type": "public", "operator:wikidata": "Q668687", "ref": "7401200000"}, "type": "Feature"}
{"geometry": {"coordinates": [-95.8155493, 36.04581], "type": "Point"}, "id": "BlT6InNqOMFvEg9mUq8pFisOToc=", "properties": {"@source_uri": "https://tools.usps.com/UspsToolsRestServices/rest/POLocator/findLocations", "@spider": "usps_collection_boxes", "addr:city": "BROKEN ARROW", "addr:country": "US", "addr:postcode": "74012", "addr:state": "OK", "addr:street_address": "708 S ASPEN AVE", "amenity": "post_box", "collection_times": "Mo-Fr 11:00; Sa 12:15", "note": "ON 12/24 AND 12/31, THIS BOX MAY BE COLLECTED AS EARLY AS 12 NOON.", "nsi_id": "unitedstatespostalservice-a77078", "operator": "United States Postal Service", "operator:short": "USPS", "operator:type": "public", "operator:wikidata": "Q668687", "ref": "7401200004"}, "type": "Feature"}
{"geometry": {"coordinates": [-95.7986135, 36.031361], "type": "Point"}, "id": "6-9YcRrIoBK7fPG3q4wHP-w6jfk=", "properties": {"@source_uri": "https://tools.usps.com/UspsToolsRestServices/rest/POLocator/findLocations", "@spider": "usps_collection_boxes", "addr:city": "BROKEN ARROW", "addr:country": "US", "addr:postcode": "74012", "addr:state": "OK", "addr:street_address": "709 W WASHINGTON ST", "amenity": "post_box", "collection_times": "Mo-Fr 11:00; Sa 12:30", "note": "ON 12/24 AND 12/31, THIS BOX MAY BE COLLECTED AS EARLY AS 12 NOON.", "nsi_id": "unitedstatespostalservice-a77078", "operator": "United States Postal Service", "operator:short": "USPS", "operator:type": "public", "operator:wikidata": "Q668687", "ref": "7401200005"}, "type": "Feature"}
{"geometry": {"coordinates": [-95.790803, 36.037173], "type": "Point"}, "id": "eUPPZTRa4Z0qFEMLyRpw9DZULsE=", "properties": {"@source_uri": "https://tools.usps.com/UspsToolsRestServices/rest/POLocator/findLocations", "@spider": "usps_collection_boxes", "addr:city": "BROKEN ARROW", "addr:country": "US", "addr:postcode": "74012", "addr:state": "OK", "addr:street_address": "1701 S MAIN ST", "amenity": "post_box", "collection_times": "Mo-Fr 17:00; Sa 15:30", "note": "ON 12/24 AND 12/31, THIS BOX MAY BE COLLECTED AS EARLY AS 12 NOON.", "nsi_id": "unitedstatespostalservice-a77078", "operator": "United States Postal Service", "operator:short": "USPS", "operator:type": "public", "operator:wikidata": "Q668687", "ref": "7401200028"}, "type": "Feature"}
{"geometry": {"coordinates": [-95.790803, 36.037173], "type": "Point"}, "id": "DahtHqLxo7gJy76lfN1JarP7TYg=", "properties": {"@source_uri": "https://tools.usps.com/UspsToolsRestServices/rest/POLocator/findLocations", "@spider": "usps_collection_boxes", "addr:city": "BROKEN ARROW", "addr:country": "US", "addr:postcode": "74012", "addr:state": "OK", "addr:street_address": "1701 S MAIN ST", "amenity": "post_box", "collection_times": "Mo-Fr 17:00; Sa 15:30", "indoor": "yes", "note": "ON 12/24 AND 12/31, THIS BOX MAY BE COLLECTED AS EARLY AS 12 NOON.", "nsi_id": "unitedstatespostalservice-a77078", "operator": "United States Postal Service", "operator:short": "USPS", "operator:type": "public", "operator:wikidata": "Q668687", "ref": "7401200033"}, "type": "Feature"}
{"geometry": {"coordinates": [-95.7631649895, 36.0594320186], "type": "Point"}, "id": "8Ho1RUKtePMQfnliELWN2wjVhAc=", "properties": {"@source_uri": "https://tools.usps.com/UspsToolsRestServices/rest/POLocator/findLocations", "@spider": "usps_collection_boxes", "addr:city": "BROKEN ARROW", "addr:country": "US", "addr:postcode": "74012", "addr:state": "OK", "addr:street_address": "2351 E KENOSHA ST", "amenity": "post_box", "collection_times": "Mo-Sa 11:00", "nsi_id": "unitedstatespostalservice-a77078", "operator": "United States Postal Service", "operator:short": "USPS", "operator:type": "public", "operator:wikidata": "Q668687", "ref": "7401200034"}, "type": "Feature"}
{"geometry": {"coordinates": [-95.8499205, 36.061459], "type": "Point"}, "id": "Jxl8GVX4_0qyZOzzJxcMgagqlhg=", "properties": {"@source_uri": "https://tools.usps.com/UspsToolsRestServices/rest/POLocator/findLocations", "@spider": "usps_collection_boxes", "addr:city": "BROKEN ARROW", "addr:country": "US", "addr:postcode": "74012", "addr:state": "OK", "addr:street_address": "5000 W KENOSHA ST", "amenity": "post_box", "collection_times": "Mo-Fr 10:30", "nsi_id": "unitedstatespostalservice-a77078", "operator": "United States Postal Service", "operator:short": "USPS", "operator:type": "public", "operator:wikidata": "Q668687", "ref": "7401200041"}, "type": "Feature"}
{"geometry": {"coordinates": [-95.790803, 36.037173], "type": "Point"}, "id": "B_-uZqrjXCJGaEFaGWSKygZlb5s=", "properties": {"@source_uri": "https://tools.usps.com/UspsToolsRestServices/rest/POLocator/findLocations", "@spider": "usps_collection_boxes", "addr:city": "BROKEN ARROW", "addr:country": "US", "addr:postcode": "74012", "addr:state": "OK", "addr:street_address": "1701 S MAIN ST", "amenity": "post_box", "collection_times": "Mo-Fr 17:00; Sa 15:30", "name": "USPS COLLECTION BOX - APC", "note": "ON 12/24 AND 12/31, THIS BOX MAY BE COLLECTED AS EARLY AS 12 NOON.", "nsi_id": "unitedstatespostalservice-a77078", "operator": "United States Postal Service", "operator:short": "USPS", "operator:type": "public", "operator:wikidata": "Q668687", "ref": "7401200043"}, "type": "Feature"}
{"geometry": {"coordinates": [-95.790768996, 36.035199], "type": "Point"}, "id": "6CVz5RY88ahutUmlynZjdTujGV0=", "properties": {"@source_uri": "https://tools.usps.com/UspsToolsRestServices/rest/POLocator/findLocations", "@spider": "usps_collection_boxes", "addr:city": "BROKEN ARROW", "addr:country": "US", "addr:postcode": "74012", "addr:state": "OK", "addr:street_address": "1701 S MAIN ST", "amenity": "post_box", "collection_times": "Mo-Fr 17:30; Sa 12:00", "indoor": "yes", "note": "ON 12/24 AND 12/31, THIS BOX MAY BE COLLECTED AS EARLY AS 12 NOON.", "nsi_id": "unitedstatespostalservice-a77078", "operator": "United States Postal Service", "operator:short": "USPS", "operator:type": "public", "operator:wikidata": "Q668687", "ref": "7401200047"}, "type": "Feature"}
{"geometry": {"coordinates": [-95.8140429742, 36.0600060113], "type": "Point"}, "id": "p8WTQNszEVnsHUSKVc7GOd7wSCc=", "properties": {"@source_uri": "https://tools.usps.com/UspsToolsRestServices/rest/POLocator/findLocations", "@spider": "usps_collection_boxes", "addr:city": "BROKEN ARROW", "addr:country": "US", "addr:postcode": "74012", "addr:state": "OK", "addr:street_address": "2029 W KENOSHA ST", "amenity": "post_box", "collection_times": "Mo-Fr 11:00; Sa 12:00", "nsi_id": "unitedstatespostalservice-a77078", "operator": "United States Postal Service", "operator:short": "USPS", "operator:type": "public", "operator:wikidata": "Q668687", "ref": "7401200049"}, "type": "Feature"}
{"geometry": {"coordinates": [-95.756637, 36.060913], "type": "Point"}, "id": "KMYfp7z1LnRSTZxz-WdlQm7Sg9M=", "properties": {"@source_uri": "https://tools.usps.com/UspsToolsRestServices/rest/POLocator/findLocations", "@spider": "usps_collection_boxes", "addr:city": "BROKEN ARROW", "addr:country": "US", "addr:postcode": "74014", "addr:state": "OK", "addr:street_address": "2801 E KENOSHA ST", "amenity": "post_box", "collection_times": "Mo-Fr 16:00; Sa 12:00", "indoor": "yes", "note": "ON 12/24 AND 12/31, THIS BOX MAY BE COLLECTED AS EARLY AS 12 NOON.", "nsi_id": "unitedstatespostalservice-a77078", "operator": "United States Postal Service", "operator:short": "USPS", "operator:type": "public", "operator:wikidata": "Q668687", "ref": "7401400000"}, "type": "Feature"}
{"geometry": {"coordinates": [-95.756749, 36.06094], "type": "Point"}, "id": "ToYKtjtDPSQ_BLyXQKQ57IwJWFo=", "properties": {"@source_uri": "https://tools.usps.com/UspsToolsRestServices/rest/POLocator/findLocations", "@spider": "usps_collection_boxes", "addr:city": "BROKEN ARROW", "addr:country": "US", "addr:postcode": "74014", "addr:state": "OK", "addr:street_address": "2801 E KENOSHA ST", "amenity": "post_box", "collection_times": "Mo-Fr 16:00; Sa 12:00", "indoor": "yes", "note": "ON 12/24 AND 12/31, THIS BOX MAY BE COLLECTED AS EARLY AS 12 NOON.", "nsi_id": "unitedstatespostalservice-a77078", "operator": "United States Postal Service", "operator:short": "USPS", "operator:type": "public", "operator:wikidata": "Q668687", "ref": "7401400001"}, "type": "Feature"}
{"geometry": {"coordinates": [-95.756749, 36.06094], "type": "Point"}, "id": "SlBwc7nDfuL6McZvgnaHDhTKlXE=", "properties": {"@source_uri": "https://tools.usps.com/UspsToolsRestServices/rest/POLocator/findLocations", "@spider": "usps_collection_boxes", "addr:city": "BROKEN ARROW", "addr:country": "US", "addr:postcode": "74014", "addr:state": "OK", "addr:street_address": "2801 E KENOSHA ST", "amenity": "post_box", "collection_times": "Mo-Fr 16:00; Sa 12:00", "indoor": "yes", "note": "ON 12/24 AND 12/31, THIS BOX MAY BE COLLECTED AS EARLY AS 12 NOON.", "nsi_id": "unitedstatespostalservice-a77078", "operator": "United States Postal Service", "operator:short": "USPS", "operator:type": "public", "operator:wikidata": "Q668687", "ref": "7401400002"}, "type": "Feature"}
{"geometry": {"coordinates": [-95.7561129591, 36.0603450174], "type": "Point"}, "id": "OxyCUw3jzqcG2LVGB9bpiEYJoWU=", "properties": {"@source_uri": "https://tools.usps.com/UspsToolsRestServices/rest/POLocator/findLocations", "@spider": "usps_collection_boxes", "addr:city": "BROKEN ARROW", "addr:country": "US", "addr:postcode": "74014", "addr:state": "OK", "addr:street_address": "2801 E KENOSHA ST", "amenity": "post_box", "collection_times": "Mo-Fr 16:00; Sa 12:00", "note": "ON 12/24 AND 12/31, THIS BOX MAY BE COLLECTED AS EARLY AS 12 NOON.", "nsi_id": "unitedstatespostalservice-a77078", "operator": "United States Postal Service", "operator:short": "USPS", "operator:type": "public", "operator:wikidata": "Q668687", "ref": "7401400003"}, "type": "Feature"}
{"geometry": {"coordinates": [-95.7561615, 36.06088447], "type": "Point"}, "id": "PbJ1vOBHuO6AeJJMkOVnwkOfhRg=", "properties": {"@source_uri": "https://tools.usps.com/UspsToolsRestServices/rest/POLocator/findLocations", "@spider": "usps_collection_boxes", "addr:city": "BROKEN ARROW", "addr:country": "US", "addr:postcode": "74014", "addr:state": "OK", "addr:street_address": "2801 E KENOSHA ST", "amenity": "post_box", "collection_times": "Mo-Fr 16:00; Sa 11:00", "indoor": "yes", "note": "ON 12/24 AND 12/31, THIS BOX MAY BE COLLECTED AS EARLY AS 12 NOON.", "nsi_id": "unitedstatespostalservice-a77078", "operator": "United States Postal Service", "operator:short": "USPS", "operator:type": "public", "operator:wikidata": "Q668687", "ref": "7401400005"}, "type": "Feature"}
{"geometry": {"coordinates": [-95.756995, 36.17125], "type": "Point"}, "id": "nJgDxtVN4d3QTIJu1SPQCrbjgxI=", "properties": {"@source_uri": "https://tools.usps.com/UspsToolsRestServices/rest/POLocator/findLocations", "@spider": "usps_collection_boxes", "addr:city": "CATOOSA", "addr:country": "US", "addr:postcode": "74015", "addr:state": "OK", "addr:street_address": "1805 S CHEROKEE ST", "amenity": "post_box", "collection_times": "Mo-Fr 16:30; Sa 10:00", "note": "ON 12/24 AND 12/31, THIS BOX MAY BE COLLECTED AS EARLY AS 12 NOON.", "nsi_id": "unitedstatespostalservice-a77078", "operator": "United States Postal Service", "operator:short": "USPS", "operator:type": "public", "operator:wikidata": "Q668687", "ref": "7401500000"}, "type": "Feature"}
{"geometry": {"coordinates": [-95.756995, 36.17125], "type": "Point"}, "id": "DsviZVjatzMOB8NFPJ5bNM7v9I0=", "properties": {"@source_uri": "https://tools.usps.com/UspsToolsRestServices/rest/POLocator/findLocations", "@spider": "usps_collection_boxes", "addr:city": "CATOOSA", "addr:country": "US", "addr:postcode": "74015", "addr:state": "OK", "addr:street_address": "1805 S CHEROKEE ST", "amenity": "post_box", "collection_times": "Mo-Fr 16:30; Sa 10:00", "indoor": "yes", "note": "ON 12/24 AND 12/31, THIS BOX MAY BE COLLECTED AS EARLY AS 12 NOON.", "nsi_id": "unitedstatespostalservice-a77078", "operator": "United States Postal Service", "operator:short": "USPS", "operator:type": "public", "operator:wikidata": "Q668687", "ref": "7401500003"}, "type": "Feature"}
{"geometry": {"coordinates": [-95.7410461, 36.230369], "type": "Point"}, "id": "QZvbHwjjYzQqUp7UaZKkzsCKlZA=", "properties": {"@source_uri": "https://tools.usps.com/UspsToolsRestServices/rest/POLocator/findLocations", "@spider": "usps_collection_boxes", "addr:city": "CATOOSA", "addr:country": "US", "addr:postcode": "74015", "addr:state": "OK", "addr:street_address": "5350 CIMARRON RD", "amenity": "post_box", "collection_times": "Mo-Fr 16:30", "note": "ON 12/24 AND 12/31, THIS BOX MAY BE COLLECTED AS EARLY AS 12 NOON.", "nsi_id": "unitedstatespostalservice-a77078", "operator": "United States Postal Service", "operator:short": "USPS", "operator:type": "public", "operator:wikidata": "Q668687", "ref": "7401500005"}, "type": "Feature"}
{"geometry": {"coordinates": [-95.756944576, 36.171314873], "type": "Point"}, "id": "pT28j_KxsgOuBCMx6WnJskfQUYM=", "properties": {"@source_uri": "https://tools.usps.com/UspsToolsRestServices/rest/POLocator/findLocations", "@spider": "usps_collection_boxes", "addr:city": "CATOOSA", "addr:country": "US", "addr:postcode": "74015", "addr:state": "OK", "addr:street_address": "1805 S CHEROKEE ST", "amenity": "post_box", "collection_times": "Mo-Fr 16:30", "indoor": "yes", "note": "ON 12/24 AND 12/31, THIS BOX MAY BE COLLECTED AS EARLY AS 12 NOON.", "nsi_id": "unitedstatespostalservice-a77078", "operator": "United States Postal Service", "operator:short": "USPS", "operator:type": "public", "operator:wikidata": "Q668687", "ref": "7401500007"}, "type": "Feature"}
{"geometry": {"coordinates": [-95.4302688, 36.532901], "type": "Point"}, "id": "7PVOA1YCjCBluCv-fH2_x_X-Ogo=", "properties": {"@source_uri": "https://tools.usps.com/UspsToolsRestServices/rest/POLocator/findLocations", "@spider": "usps_collection_boxes", "addr:city": "CHELSEA", "addr:country": "US", "addr:postcode": "74016", "addr:state": "OK", "addr:street_address": "720 WALNUT ST", "amenity": "post_box", "collection_times": "Mo-Sa 12:00", "nsi_id": "unitedstatespostalservice-a77078", "operator": "United States Postal Service", "operator:short": "USPS", "operator:type": "public", "operator:wikidata": "Q668687", "ref": "7401600001"}, "type": "Feature"}
{"geometry": {"coordinates": [-95.434275, 36.536704], "type": "Point"}, "id": "YdaLZbXsihmTmx9PvBt3o7eejmo=", "properties": {"@source_uri": "https://tools.usps.com/UspsToolsRestServices/rest/POLocator/findLocations", "@spider": "usps_collection_boxes", "addr:city": "CHELSEA", "addr:country": "US", "addr:postcode": "74016", "addr:state": "OK", "addr:street_address": "408 W 6TH ST", "amenity": "post_box", "collection_times": "Mo-Fr 16:15; Sa 11:00", "note": "ON 12/24 AND 12/31, THIS BOX MAY BE COLLECTED AS EARLY AS 12 NOON.", "nsi_id": "unitedstatespostalservice-a77078", "operator": "United States Postal Service", "operator:short": "USPS", "operator:type": "public", "operator:wikidata": "Q668687", "ref": "7401600002"}, "type": "Feature"}
{"geometry": {"coordinates": [-95.434275, 36.536704], "type": "Point"}, "id": "tiSj5sX_QM7oDQgW23aKUmYPur4=", "properties": {"@source_uri": "https://tools.usps.com/UspsToolsRestServices/rest/POLocator/findLocations", "@spider": "usps_collection_boxes", "addr:city": "CHELSEA", "addr:country": "US", "addr:postcode": "74016", "addr:state": "OK", "addr:street_address": "408 W 6TH ST", "amenity": "post_box", "collection_times": "Mo-Fr 16:15; Sa 11:00", "indoor": "yes", "note": "ON 12/24 AND 12/31, THIS BOX MAY BE COLLECTED AS EARLY AS 12 NOON.", "nsi_id": "unitedstatespostalservice-a77078", "operator": "United States Postal Service", "operator:short": "USPS", "operator:type": "public", "operator:wikidata": "Q668687", "ref": "7401600003"}, "type": "Feature"}
{"geometry": {"coordinates": [-95.434275583, 36.536701799], "type": "Point"}, "id": "XOFvKD9yAPvPEqc1irRtvq1wogU=", "properties": {"@source_uri": "https://tools.usps.com/UspsToolsRestServices/rest/POLocator/findLocations", "@spider": "usps_collection_boxes", "addr:city": "CHELSEA", "addr:country": "US", "addr:postcode": "74016", "addr:state": "OK", "addr:street_address": "408 W 6TH ST", "amenity": "post_box", "collection_times": "Mo-Fr 16:00; Sa 11:00", "indoor": "yes", "note": "ON 12/24 AND 12/31, THIS BOX MAY BE COLLECTED AS EARLY AS 12 NOON.", "nsi_id": "unitedstatespostalservice-a77078", "operator": "United States Postal Service", "operator:short": "USPS", "operator:type": "public", "operator:wikidata": "Q668687", "ref": "7401600005"}, "type": "Feature"}
{"geometry": {"coordinates": [-95.6216675, 36.314655], "type": "Point"}, "id": "qUDIAUVvBmm5xL62Io0QMz6Olso=", "properties": {"@source_uri": "https://tools.usps.com/UspsToolsRestServices/rest/POLocator/findLocations", "@spider": "usps_collection_boxes", "addr:city": "CLAREMORE", "addr:country": "US", "addr:postcode": "74017", "addr:state": "OK", "addr:street_address": "1025 W WILL ROGERS BLVD", "amenity": "post_box", "collection_times": "Mo-Sa 15:15", "note": "ON 12/24 AND 12/31, THIS BOX MAY BE COLLECTED AS EARLY AS 12 NOON.", "nsi_id": "unitedstatespostalservice-a77078", "operator": "United States Postal Service", "operator:short": "USPS", "operator:type": "public", "operator:wikidata": "Q668687", "ref": "7401700003"}, "type": "Feature"}
{"geometry": {"coordinates": [-95.6154358, 36.311124], "type": "Point"}, "id": "GSihZUJCpRL5spZp5o1S9kukM4s=", "properties": {"@source_uri": "https://tools.usps.com/UspsToolsRestServices/rest/POLocator/findLocations", "@spider": "usps_collection_boxes", "addr:city": "CLAREMORE", "addr:country": "US", "addr:postcode": "74017", "addr:state": "OK", "addr:street_address": "200 S LYNN RIGGS BLVD", "amenity": "post_box", "collection_times": "Mo-Sa 14:30", "note": "ON 12/24 AND 12/31, THIS BOX MAY BE COLLECTED AS EARLY AS 12 NOON.", "nsi_id": "unitedstatespostalservice-a77078", "operator": "United States Postal Service", "operator:short": "USPS", "operator:type": "public", "operator:wikidata": "Q668687", "ref": "7401700004"}, "type": "Feature"}
{"geometry": {"coordinates": [-95.610393, 36.317247], "type": "Point"}, "id": "9hZMIHKszvYY-5KjZ-Fls5GG0e4=", "properties": {"@source_uri": "https://tools.usps.com/UspsToolsRestServices/rest/POLocator/findLocations", "@spider": "usps_collection_boxes", "addr:city": "CLAREMORE", "addr:country": "US", "addr:postcode": "74017", "addr:state": "OK", "addr:street_address": "400 W 9TH ST", "amenity": "post_box", "collection_times": "Mo-Fr 16:30; Sa 15:15", "indoor": "yes", "note": "ON 12/24 AND 12/31, THIS BOX MAY BE COLLECTED AS EARLY AS 12 NOON.", "nsi_id": "unitedstatespostalservice-a77078", "operator": "United States Postal Service", "operator:short": "USPS", "operator:type": "public", "operator:wikidata": "Q668687", "ref": "7401700005"}, "type": "Feature"}
{"geometry": {"coordinates": [-95.610393, 36.317247], "type": "Point"}, "id": "sb04Ymgg61NK7a9OzUXiQwe2RXk=", "properties": {"@source_uri": "https://tools.usps.com/UspsToolsRestServices/rest/POLocator/findLocations", "@spider": "usps_collection_boxes", "addr:city": "CLAREMORE", "addr:country": "US", "addr:postcode": "74017", "addr:state": "OK", "addr:street_address": "400 W 9TH ST", "amenity": "post_box", "collection_times": "Mo-Fr 16:30; Sa 15:15", "name": "USPS COLLECTION BOX - APC", "note": "ON 12/24 AND 12/31, THIS BOX MAY BE COLLECTED AS EARLY AS 12 NOON.", "nsi_id": "unitedstatespostalservice-a77078", "operator": "United States Postal Service", "operator:short": "USPS", "operator:type": "public", "operator:wikidata": "Q668687", "ref": "7401700006"}, "type": "Feature"}
{"geometry": {"coordinates": [-95.610349302, 36.317267244], "type": "Point"}, "id": "YZNVPqzjWswrJDq6DmLkq9CR11Y=", "properties": {"@source_uri": "https://tools.usps.com/UspsToolsRestServices/rest/POLocator/findLocations", "@spider": "usps_collection_boxes", "addr:city": "CLAREMORE", "addr:country": "US", "addr:postcode": "74017", "addr:state": "OK", "addr:street_address": "400 W 9TH ST", "amenity": "post_box", "collection_times": "Mo-Fr 17:00; Sa 12:00", "indoor": "yes", "note": "ON 12/24 AND 12/31, THIS BOX MAY BE COLLECTED AS EARLY AS 12 NOON.", "nsi_id": "unitedstatespostalservice-a77078", "operator": "United States Postal Service", "operator:short": "USPS", "operator:type": "public", "operator:wikidata": "Q668687", "ref": "7401700022"}, "type": "Feature"}
{"geometry": {"coordinates": [-96.464156, 36.310066], "type": "Point"}, "id": "kYs_S3hMwTiWLHjKLBW8BnQRR30=", "properties": {"@source_uri": "https://tools.usps.com/UspsToolsRestServices/rest/POLocator/findLocations", "@spider": "usps_collection_boxes", "addr:city": "CLEVELAND", "addr:country": "US", "addr:postcode": "74020", "addr:state": "OK", "addr:street_address": "105 W PAWNEE ST", "amenity": "post_box", "collection_times": "Mo-Fr 15:45; Sa 11:00", "note": "ON 12/24 AND 12/31, THIS BOX MAY BE COLLECTED AS EARLY AS 12 NOON.", "nsi_id": "unitedstatespostalservice-a77078", "operator": "United States Postal Service", "operator:short": "USPS", "operator:type": "public", "operator:wikidata": "Q668687", "ref": "7402000003"}, "type": "Feature"}
{"geometry": {"coordinates": [-96.464156, 36.310066], "type": "Point"}, "id": "izxn-ZDNc8YbuB8ayWNq3icli5w=", "properties": {"@source_uri": "https://tools.usps.com/UspsToolsRestServices/rest/POLocator/findLocations", "@spider": "usps_collection_boxes", "addr:city": "CLEVELAND", "addr:country": "US", "addr:postcode": "74020", "addr:state": "OK", "addr:street_address": "105 W PAWNEE ST", "amenity": "post_box", "collection_times": "Mo-Fr 15:45; Sa 11:00", "indoor": "yes", "note": "ON 12/24 AND 12/31, THIS BOX MAY BE COLLECTED AS EARLY AS 12 NOON.", "nsi_id": "unitedstatespostalservice-a77078", "operator": "United States Postal Service", "operator:short": "USPS", "operator:type": "public", "operator:wikidata": "Q668687", "ref": "7402000007"}, "type": "Feature"}
{"geometry": {"coordinates": [-96.2857366, 36.205212], "type": "Point"}, "id": "dNkNW2rCoc_62R1MFxB0SkLWYkM=", "properties": {"@source_uri": "https://tools.usps.com/UspsToolsRestServices/rest/POLocator/findLocations", "@spider": "usps_collection_boxes", "addr:city": "CLEVELAND", "addr:country": "US", "addr:postcode": "74020", "addr:state": "OK", "addr:street_address": "1091 E PENINSULA DR", "amenity": "post_box", "collection_times": "Sa 10:30", "nsi_id": "unitedstatespostalservice-a77078", "operator": "United States Postal Service", "operator:short": "USPS", "operator:type": "public", "operator:wikidata": "Q668687", "ref": "7402000008"}, "type": "Feature"}
{"geometry": {"coordinates": [-96.464122039, 36.310099759], "type": "Point"}, "id": "Ju85hgRx2S9Sg01XdYlvrxI59Cg=", "properties": {"@source_uri": "https://tools.usps.com/UspsToolsRestServices/rest/POLocator/findLocations", "@spider": "usps_collection_boxes", "addr:city": "CLEVELAND", "addr:country": "US", "addr:postcode": "74020", "addr:state": "OK", "addr:street_address": "105 W PAWNEE ST", "amenity": "post_box", "collection_times": "Mo-Fr 16:00; Sa 11:00", "indoor": "yes", "note": "ON 12/24 AND 12/31, THIS BOX MAY BE COLLECTED AS EARLY AS 12 NOON.", "nsi_id": "unitedstatespostalservice-a77078", "operator": "United States Postal Service", "operator:short": "USPS", "operator:type": "public", "operator:wikidata": "Q668687", "ref": "7402000009"}, "type": "Feature"}
{"geometry": {"coordinates": [-95.837913, 36.364297], "type": "Point"}, "id": "KR1Jm2Sjt0cOn78f9m9dyj1urpM=", "properties": {"@source_uri": "https://tools.usps.com/UspsToolsRestServices/rest/POLocator/findLocations", "@spider": "usps_collection_boxes", "addr:city": "COLLINSVILLE", "addr:country": "US", "addr:postcode": "74021", "addr:state": "OK", "addr:street_address": "118 S 11TH ST", "amenity": "post_box", "collection_times": "Mo-Fr 16:00; Sa 10:30", "note": "ON 12/24 AND 12/31, THIS BOX MAY BE COLLECTED AS EARLY AS 12 NOON.", "nsi_id": "unitedstatespostalservice-a77078", "operator": "United States Postal Service", "operator:short": "USPS", "operator:type": "public", "operator:wikidata": "Q668687", "ref": "7402100001"}, "type": "Feature"}
{"geometry": {"coordinates": [-95.837913, 36.364297], "type": "Point"}, "id": "syJT4116zzUXPUph7QYyzE6HUh4=", "properties": {"@source_uri": "https://tools.usps.com/UspsToolsRestServices/rest/POLocator/findLocations", "@spider": "usps_collection_boxes", "addr:city": "COLLINSVILLE", "addr:country": "US", "addr:postcode": "74021", "addr:state": "OK", "addr:street_address": "118 S 11TH ST", "amenity": "post_box", "collection_times": "Mo-Fr 16:00; Sa 10:30", "indoor": "yes", "note": "ON 12/24 AND 12/31, THIS BOX MAY BE COLLECTED AS EARLY AS 12 NOON.", "nsi_id": "unitedstatespostalservice-a77078", "operator": "United States Postal Service", "operator:short": "USPS", "operator:type": "public", "operator:wikidata": "Q668687", "ref": "7402100002"}, "type": "Feature"}
{"geometry": {"coordinates": [-95.837913, 36.364297], "type": "Point"}, "id": "LuboeHLEEgY8w3L0dI8voDzj0o4=", "properties": {"@source_uri": "https://tools.usps.com/UspsToolsRestServices/rest/POLocator/findLocations", "@spider": "usps_collection_boxes", "addr:city": "COLLINSVILLE", "addr:country": "US", "addr:postcode": "74021", "addr:state": "OK", "addr:street_address": "118 S 11TH ST", "amenity": "post_box", "collection_times": "Mo-Fr 16:00; Sa 10:30", "indoor": "yes", "note": "ON 12/24 AND 12/31, THIS BOX MAY BE COLLECTED AS EARLY AS 12 NOON.", "nsi_id": "unitedstatespostalservice-a77078", "operator": "United States Postal Service", "operator:short": "USPS", "operator:type": "public", "operator:wikidata": "Q668687", "ref": "7402100003"}, "type": "Feature"}
{"geometry": {"coordinates": [-95.837940869, 36.364310789], "type": "Point"}, "id": "KRP9__qwRU1MdnIUBdi-h1y7Gc4=", "properties": {"@source_uri": "https://tools.usps.com/UspsToolsRestServices/rest/POLocator/findLocations", "@spider": "usps_collection_boxes", "addr:city": "COLLINSVILLE", "addr:country": "US", "addr:postcode": "74021", "addr:state": "OK", "addr:street_address": "118 S 11TH ST", "amenity": "post_box", "collection_times": "Mo-Fr 16:00", "indoor": "yes", "note": "ON 12/24 AND 12/31, THIS BOX MAY BE COLLECTED AS EARLY AS 12 NOON.", "nsi_id": "unitedstatespostalservice-a77078", "operator": "United States Postal Service", "operator:short": "USPS", "operator:type": "public", "operator:wikidata": "Q668687", "ref": "7402100004"}, "type": "Feature"}
{"geometry": {"coordinates": [-95.925983, 36.896389], "type": "Point"}, "id": "KWR-_zahbcV2J6V3VtGUjlgGAuE=", "properties": {"@source_uri": "https://tools.usps.com/UspsToolsRestServices/rest/POLocator/findLocations", "@spider": "usps_collection_boxes", "addr:city": "COPAN", "addr:country": "US", "addr:postcode": "74022", "addr:state": "OK", "addr:street_address": "207 S CANEY ST", "amenity": "post_box", "collection_times": "Mo-Fr 14:00; Sa 09:00", "indoor": "yes", "note": "ON 12/24 AND 12/31, THIS BOX MAY BE COLLECTED AS EARLY AS 12 NOON.", "nsi_id": "unitedstatespostalservice-a77078", "operator": "United States Postal Service", "operator:short": "USPS", "operator:type": "public", "operator:wikidata": "Q668687", "ref": "7402200001"}, "type": "Feature"}
{"geometry": {"coordinates": [-95.925983, 36.896389], "type": "Point"}, "id": "JST1xO4omejAx-yt9a5eITEQ4Cw=", "properties": {"@source_uri": "https://tools.usps.com/UspsToolsRestServices/rest/POLocator/findLocations", "@spider": "usps_collection_boxes", "addr:city": "COPAN", "addr:country": "US", "addr:postcode": "74022", "addr:state": "OK", "addr:street_address": "207 S CANEY ST", "amenity": "post_box", "collection_times": "Mo-Fr 14:00; Sa 09:00", "indoor": "yes", "note": "ON 12/24 AND 12/31, THIS BOX MAY BE COLLECTED AS EARLY AS 12 NOON.", "nsi_id": "unitedstatespostalservice-a77078", "operator": "United States Postal Service", "operator:short": "USPS", "operator:type": "public", "operator:wikidata": "Q668687", "ref": "7402200002"}, "type": "Feature"}
{"geometry": {"coordinates": [-95.926045572, 36.896417219], "type": "Point"}, "id": "7M-7S2aGnsMszkiD3LOfzWOpNl8=", "properties": {"@source_uri": "https://tools.usps.com/UspsToolsRestServices/rest/POLocator/findLocations", "@spider": "usps_collection_boxes", "addr:city": "COPAN", "addr:country": "US", "addr:postcode": "74022", "addr:state": "OK", "addr:street_address": "207 S CANEY ST", "amenity": "post_box", "collection_times": "Mo-Fr 14:00", "indoor": "yes", "note": "ON 12/24 AND 12/31, THIS BOX MAY BE COLLECTED AS EARLY AS 12 NOON.", "nsi_id": "unitedstatespostalservice-a77078", "operator": "United States Postal Service", "operator:short": "USPS", "operator:type": "public", "operator:wikidata": "Q668687", "ref": "7402200003"}, "type": "Feature"}
{"geometry": {"coordinates": [-96.7725247, 35.979394], "type": "Point"}, "id": "ZlXooYuU-H6Zh9nuohvlr-dvJOc=", "properties": {"@source_uri": "https://tools.usps.com/UspsToolsRestServices/rest/POLocator/findLocations", "@spider": "usps_collection_boxes", "addr:city": "CUSHING", "addr:country": "US", "addr:postcode": "74023", "addr:state": "OK", "addr:street_address": "116 S CLEVELAND AVE", "amenity": "post_box", "collection_times": "Mo-Fr 16:30; Sa 12:00", "note": "ON 12/24 AND 12/31, THIS BOX MAY BE COLLECTED AS EARLY AS 12 NOON.", "nsi_id": "unitedstatespostalservice-a77078", "operator": "United States Postal Service", "operator:short": "USPS", "operator:type": "public", "operator:wikidata": "Q668687", "ref": "7402300002"}, "type": "Feature"}
{"geometry": {"coordinates": [-96.7723739, 35.979168], "type": "Point"}, "id": "U7J3Mwg7tmR6y7zhKKh75VaPz9k=", "properties": {"@source_uri": "https://tools.usps.com/UspsToolsRestServices/rest/POLocator/findLocations", "@spider": "usps_collection_boxes", "addr:city": "CUSHING", "addr:country": "US", "addr:postcode": "74023", "addr:state": "OK", "addr:street_address": "116 S CLEVELAND AVE", "amenity": "post_box", "collection_times": "Mo-Fr 16:30; Sa 12:00", "indoor": "yes", "note": "ON 12/24 AND 12/31, THIS BOX MAY BE COLLECTED AS EARLY AS 12 NOON.", "nsi_id": "unitedstatespostalservice-a77078", "operator": "United States Postal Service", "operator:short": "USPS", "operator:type": "public", "operator:wikidata": "Q668687", "ref": "7402300013"}, "type": "Feature"}
{"geometry": {"coordinates": [-96.772667, 35.97925], "type": "Point"}, "id": "RI8RCth3PaOxpFPD28nQQMyE1jg=", "properties": {"@source_uri": "https://tools.usps.com/UspsToolsRestServices/rest/POLocator/findLocations", "@spider": "usps_collection_boxes", "addr:city": "CUSHING", "addr:country": "US", "addr:postcode": "74023", "addr:state": "OK", "addr:street_address": "116 S CLEVELAND AVE", "amenity": "post_box", "collection_times": "Mo-Fr 16:30; Sa 12:00", "indoor": "yes", "note": "ON 12/24 AND 12/31, THIS BOX MAY BE COLLECTED AS EARLY AS 12 NOON.", "nsi_id": "unitedstatespostalservice-a77078", "operator": "United States Postal Service", "operator:short": "USPS", "operator:type": "public", "operator:wikidata": "Q668687", "ref": "7402300014"}, "type": "Feature"}
{"geometry": {"coordinates": [-96.7501121236, 35.8820286284], "type": "Point"}, "id": "o0u8qUj_khBkVcjfT0oIRB0QJ-s=", "properties": {"@source_uri": "https://tools.usps.com/UspsToolsRestServices/rest/POLocator/findLocations", "@spider": "usps_collection_boxes", "addr:city": "CUSHING", "addr:country": "US", "addr:postcode": "74023", "addr:state": "OK", "addr:street_address": "2200 E MAIN ST", "amenity": "post_box", "collection_times": "Mo-Sa 10:00", "nsi_id": "unitedstatespostalservice-a77078", "operator": "United States Postal Service", "operator:short": "USPS", "operator:type": "public", "operator:wikidata": "Q668687", "ref": "7402300015"}, "type": "Feature"}
{"geometry": {"coordinates": [-96.772668059, 35.979245969], "type": "Point"}, "id": "b9oBAhT6Kf6ELZ2jvYJlrMbkMrQ=", "properties": {"@source_uri": "https://tools.usps.com/UspsToolsRestServices/rest/POLocator/findLocations", "@spider": "usps_collection_boxes", "addr:city": "CUSHING", "addr:country": "US", "addr:postcode": "74023", "addr:state": "OK", "addr:street_address": "116 S CLEVELAND AVE", "amenity": "post_box", "collection_times": "Mo-Fr 16:30; Sa 12:00", "indoor": "yes", "note": "ON 12/24 AND 12/31, THIS BOX MAY BE COLLECTED AS EARLY AS 12 NOON.", "nsi_id": "unitedstatespostalservice-a77078", "operator": "United States Postal Service", "operator:short": "USPS", "operator:type": "public", "operator:wikidata": "Q668687", "ref": "7402300016"}, "type": "Feature"}
{"geometry": {"coordinates": [-96.76523, 35.707126], "type": "Point"}, "id": "vBjKtOXhZ1Yi9IHwTYuQsOzXEeI=", "properties": {"@source_uri": "https://tools.usps.com/UspsToolsRestServices/rest/POLocator/findLocations", "@spider": "usps_collection_boxes", "addr:city": "DAVENPORT", "addr:country": "US", "addr:postcode": "74026", "addr:state": "OK", "addr:street_address": "313 BROADWAY ST", "amenity": "post_box", "collection_times": "Mo-Fr 16:00; Sa 10:15", "note": "ON 12/24 AND 12/31, THIS BOX MAY BE COLLECTED AS EARLY AS 12 NOON.", "nsi_id": "unitedstatespostalservice-a77078", "operator": "United States Postal Service", "operator:short": "USPS", "operator:type": "public", "operator:wikidata": "Q668687", "ref": "7402600000"}, "type": "Feature"}
{"geometry": {"coordinates": [-96.76523, 35.707126], "type": "Point"}, "id": "fQk1j-jWOE1Gw0fPMSKQfNUTEvs=", "properties": {"@source_uri": "https://tools.usps.com/UspsToolsRestServices/rest/POLocator/findLocations", "@spider": "usps_collection_boxes", "addr:city": "DAVENPORT", "addr:country": "US", "addr:postcode": "74026", "addr:state": "OK", "addr:street_address": "313 BROADWAY ST", "amenity": "post_box", "collection_times": "Mo-Fr 16:00; Sa 10:15", "indoor": "yes", "note": "ON 12/24 AND 12/31, THIS BOX MAY BE COLLECTED AS EARLY AS 12 NOON.", "nsi_id": "unitedstatespostalservice-a77078", "operator": "United States Postal Service", "operator:short": "USPS", "operator:type": "public", "operator:wikidata": "Q668687", "ref": "7402600001"}, "type": "Feature"}
{"geometry": {"coordinates": [-96.76523, 35.707126], "type": "Point"}, "id": "MmsQ2XMRkUe6F5Kf7qcGI_8i4pk=", "properties": {"@source_uri": "https://tools.usps.com/UspsToolsRestServices/rest/POLocator/findLocations", "@spider": "usps_collection_boxes", "addr:city": "DAVENPORT", "addr:country": "US", "addr:postcode": "74026", "addr:state": "OK", "addr:street_address": "313 BROADWAY ST", "amenity": "post_box", "collection_times": "Mo-Fr 16:00; Sa 10:15", "indoor": "yes", "note": "ON 12/24 AND 12/31, THIS BOX MAY BE COLLECTED AS EARLY AS 12 NOON.", "nsi_id": "unitedstatespostalservice-a77078", "operator": "United States Postal Service", "operator:short": "USPS", "operator:type": "public", "operator:wikidata": "Q668687", "ref": "7402600002"}, "type": "Feature"}
{"geometry": {"coordinates": [-96.765268892, 35.707095805], "type": "Point"}, "id": "RlAYNS6mSEuJjMhmSPtLn-MOkOk=", "properties": {"@source_uri": "https://tools.usps.com/UspsToolsRestServices/rest/POLocator/findLocations", "@spider": "usps_collection_boxes", "addr:city": "DAVENPORT", "addr:country": "US", "addr:postcode": "74026", "addr:state": "OK", "addr:street_address": "313 BROADWAY ST", "amenity": "post_box", "collection_times": "Mo-Fr 16:00; Sa 10:15", "indoor": "yes", "note": "ON 12/24 AND 12/31, THIS BOX MAY BE COLLECTED AS EARLY AS 12 NOON.", "nsi_id": "unitedstatespostalservice-a77078", "operator": "United States Postal Service", "operator:short": "USPS", "operator:type": "public", "operator:wikidata": "Q668687", "ref": "7402600003"}, "type": "Feature"}
{"geometry": {"coordinates": [-95.642396, 36.778767], "type": "Point"}, "id": "GLXNuZq3tZRWWYhKMQF9s9g4slI=", "properties": {"@source_uri": "https://tools.usps.com/UspsToolsRestServices/rest/POLocator/findLocations", "@spider": "usps_collection_boxes", "addr:city": "DELAWARE", "addr:country": "US", "addr:postcode": "74027", "addr:state": "OK", "addr:street_address": "117 ELEVATOR", "amenity": "post_box", "collection_times": "Mo-Fr 11:15; Sa 09:15", "indoor": "yes", "nsi_id": "unitedstatespostalservice-a77078", "operator": "United States Postal Service", "operator:short": "USPS", "operator:type": "public", "operator:wikidata": "Q668687", "ref": "7402700001"}, "type": "Feature"}
{"geometry": {"coordinates": [-95.640810682, 36.778850369], "type": "Point"}, "id": "LF1jBE-2vbseE_u5iLGGW8Yr3ws=", "properties": {"@source_uri": "https://tools.usps.com/UspsToolsRestServices/rest/POLocator/findLocations", "@spider": "usps_collection_boxes", "addr:city": "DELAWARE", "addr:country": "US", "addr:postcode": "74027", "addr:state": "OK", "addr:street_address": "117 ELEVATOR", "amenity": "post_box", "collection_times": "Mo-Fr 11:30", "indoor": "yes", "nsi_id": "unitedstatespostalservice-a77078", "operator": "United States Postal Service", "operator:short": "USPS", "operator:type": "public", "operator:wikidata": "Q668687", "ref": "7402700005"}, "type": "Feature"}
{"geometry": {"coordinates": [-96.505611, 35.802968], "type": "Point"}, "id": "f84gIJGLvyB5nesQrokQrn7Rti4=", "properties": {"@source_uri": "https://tools.usps.com/UspsToolsRestServices/rest/POLocator/findLocations", "@spider": "usps_collection_boxes", "addr:city": "DEPEW", "addr:country": "US", "addr:postcode": "74028", "addr:state": "OK", "addr:street_address": "316 W MAIN ST", "amenity": "post_box", "collection_times": "Mo-Fr 15:00; Sa 10:00", "indoor": "yes", "note": "ON 12/24 AND 12/31, THIS BOX MAY BE COLLECTED AS EARLY AS 12 NOON.", "nsi_id": "unitedstatespostalservice-a77078", "operator": "United States Postal Service", "operator:short": "USPS", "operator:type": "public", "operator:wikidata": "Q668687", "ref": "7402800001"}, "type": "Feature"}
{"geometry": {"coordinates": [-96.50561323, 35.802965523], "type": "Point"}, "id": "o5P_zne-2sMtOkzEdhrZmoNIP1M=", "properties": {"@source_uri": "https://tools.usps.com/UspsToolsRestServices/rest/POLocator/findLocations", "@spider": "usps_collection_boxes", "addr:city": "DEPEW", "addr:country": "US", "addr:postcode": "74028", "addr:state": "OK", "addr:street_address": "316 W MAIN ST", "amenity": "post_box", "collection_times": "Mo-Fr 15:00", "indoor": "yes", "note": "ON 12/24 AND 12/31, THIS BOX MAY BE COLLECTED AS EARLY AS 12 NOON.", "nsi_id": "unitedstatespostalservice-a77078", "operator": "United States Postal Service", "operator:short": "USPS", "operator:type": "public", "operator:wikidata": "Q668687", "ref": "7402800003"}, "type": "Feature"}
{"geometry": {"coordinates": [-95.936836, 36.79954], "type": "Point"}, "id": "1k1DZKN6blpqpUHzbg3ZCUqv5YI=", "properties": {"@source_uri": "https://tools.usps.com/UspsToolsRestServices/rest/POLocator/findLocations", "@spider": "usps_collection_boxes", "addr:city": "DEWEY", "addr:country": "US", "addr:postcode": "74029", "addr:state": "OK", "addr:street_address": "800 N SHAWNEE AVE", "amenity": "post_box", "collection_times": "Mo-Fr 16:00; Sa 08:00", "indoor": "yes", "note": "ON 12/24 AND 12/31, THIS BOX MAY BE COLLECTED AS EARLY AS 12 NOON.", "nsi_id": "unitedstatespostalservice-a77078", "operator": "United States Postal Service", "operator:short": "USPS", "operator:type": "public", "operator:wikidata": "Q668687", "ref": "7402900009"}, "type": "Feature"}
{"geometry": {"coordinates": [-95.936836, 36.79954], "type": "Point"}, "id": "v4SiQF9rKwNd22hdqbm0QXPkiJM=", "properties": {"@source_uri": "https://tools.usps.com/UspsToolsRestServices/rest/POLocator/findLocations", "@spider": "usps_collection_boxes", "addr:city": "DEWEY", "addr:country": "US", "addr:postcode": "74029", "addr:state": "OK", "addr:street_address": "800 N SHAWNEE AVE", "amenity": "post_box", "collection_times": "Mo-Fr 16:00; Sa 09:00", "note": "ON 12/24 AND 12/31, THIS BOX MAY BE COLLECTED AS EARLY AS 12 NOON.", "nsi_id": "unitedstatespostalservice-a77078", "operator": "United States Postal Service", "operator:short": "USPS", "operator:type": "public", "operator:wikidata": "Q668687", "ref": "7402900011"}, "type": "Feature"}
{"geometry": {"coordinates": [-95.936836145, 36.799532665], "type": "Point"}, "id": "-izp5Qkgn3gVx08QOc2zITscoEQ=", "properties": {"@source_uri": "https://tools.usps.com/UspsToolsRestServices/rest/POLocator/findLocations", "@spider": "usps_collection_boxes", "addr:city": "DEWEY", "addr:country": "US", "addr:postcode": "74029", "addr:state": "OK", "addr:street_address": "800 N SHAWNEE AVE", "amenity": "post_box", "collection_times": "Mo-Fr 16:00", "indoor": "yes", "note": "ON 12/24 AND 12/31, THIS BOX MAY BE COLLECTED AS EARLY AS 12 NOON.", "nsi_id": "unitedstatespostalservice-a77078", "operator": "United States Postal Service", "operator:short": "USPS", "operator:type": "public", "operator:wikidata": "Q668687", "ref": "7402900012"}, "type": "Feature"}
{"geometry": {"coordinates": [-95.9366490114, 36.7994490018], "type": "Point"}, "id": "gfvPZyPsfjUBb09KbzopUW0ppIs=", "properties": {"@source_uri": "https://tools.usps.com/UspsToolsRestServices/rest/POLocator/findLocations", "@spider": "usps_collection_boxes", "addr:city": "DEWEY", "addr:country": "US", "addr:postcode": "74029", "addr:state": "OK", "addr:street_address": "800 N SHAWNEE AVE", "amenity": "post_box", "collection_times": "Mo-Fr 16:00; Sa 08:00", "indoor": "yes", "note": "ON 12/24 AND 12/31, THIS BOX MAY BE COLLECTED AS EARLY AS 12 NOON.", "nsi_id": "unitedstatespostalservice-a77078", "operator": "United States Postal Service", "operator:short": "USPS", "operator:type": "public", "operator:wikidata": "Q668687", "ref": "7402900013"}, "type": "Feature"}
{"geometry": {"coordinates": [-96.599464, 35.988736], "type": "Point"}, "id": "w2fr8uJ53_XOD58fZKDSOjz2gsQ=", "properties": {"@source_uri": "https://tools.usps.com/UspsToolsRestServices/rest/POLocator/findLocations", "@spider": "usps_collection_boxes", "addr:city": "DRUMRIGHT", "addr:country": "US", "addr:postcode": "74030", "addr:state": "OK", "addr:street_address": "118 N OHIO AVE", "amenity": "post_box", "collection_times": "Mo-Fr 16:15; Sa 10:00", "note": "ON 12/24 AND 12/31, THIS BOX MAY BE COLLECTED AS EARLY AS 12 NOON.", "nsi_id": "unitedstatespostalservice-a77078", "operator": "United States Postal Service", "operator:short": "USPS", "operator:type": "public", "operator:wikidata": "Q668687", "ref": "7403000000"}, "type": "Feature"}
{"geometry": {"coordinates": [-96.599464, 35.988736], "type": "Point"}, "id": "oEoMIOs_cBjR_SK9qtA-gHILwAw=", "properties": {"@source_uri": "https://tools.usps.com/UspsToolsRestServices/rest/POLocator/findLocations", "@spider": "usps_collection_boxes", "addr:city": "DRUMRIGHT", "addr:country": "US", "addr:postcode": "74030", "addr:state": "OK", "addr:street_address": "118 N OHIO AVE", "amenity": "post_box", "collection_times": "Mo-Fr 15:30; Sa 10:00", "indoor": "yes", "note": "ON 12/24 AND 12/31, THIS BOX MAY BE COLLECTED AS EARLY AS 12 NOON.", "nsi_id": "unitedstatespostalservice-a77078", "operator": "United States Postal Service", "operator:short": "USPS", "operator:type": "public", "operator:wikidata": "Q668687", "ref": "7403000005"}, "type": "Feature"}
{"geometry": {"coordinates": [-96.599464, 35.988736], "type": "Point"}, "id": "D_u-FQ6baMKqcfz4u43OnTOXP-Q=", "properties": {"@source_uri": "https://tools.usps.com/UspsToolsRestServices/rest/POLocator/findLocations", "@spider": "usps_collection_boxes", "addr:city": "DRUMRIGHT", "addr:country": "US", "addr:postcode": "74030", "addr:state": "OK", "addr:street_address": "118 N OHIO AVE", "amenity": "post_box", "collection_times": "Mo-Fr 15:30; Sa 10:00", "indoor": "yes", "note": "ON 12/24 AND 12/31, THIS BOX MAY BE COLLECTED AS EARLY AS 12 NOON.", "nsi_id": "unitedstatespostalservice-a77078", "operator": "United States Postal Service", "operator:short": "USPS", "operator:type": "public", "operator:wikidata": "Q668687", "ref": "7403000006"}, "type": "Feature"}
{"geometry": {"coordinates": [-96.599444582, 35.98870616], "type": "Point"}, "id": "XtJ4AmUvYShBo_Gye8VWSLj2kJI=", "properties": {"@source_uri": "https://tools.usps.com/UspsToolsRestServices/rest/POLocator/findLocations", "@spider": "usps_collection_boxes", "addr:city": "DRUMRIGHT", "addr:country": "US", "addr:postcode": "74030", "addr:state": "OK", "addr:street_address": "118 N OHIO AVE", "amenity": "post_box", "collection_times": "Mo-Fr 16:30", "indoor": "yes", "note": "ON 12/24 AND 12/31, THIS BOX MAY BE COLLECTED AS EARLY AS 12 NOON.", "nsi_id": "unitedstatespostalservice-a77078", "operator": "United States Postal Service", "operator:short": "USPS", "operator:type": "public", "operator:wikidata": "Q668687", "ref": "7403000007"}, "type": "Feature"}
{"geometry": {"coordinates": [-95.521443, 36.433554], "type": "Point"}, "id": "oCsANjs05J118mOtzUTCtWH4DsQ=", "properties": {"@source_uri": "https://tools.usps.com/UspsToolsRestServices/rest/POLocator/findLocations", "@spider": "usps_collection_boxes", "addr:city": "FOYIL", "addr:country": "US", "addr:postcode": "74031", "addr:state": "OK", "addr:street_address": "17172 E 3RD ST", "amenity": "post_box", "collection_times": "Mo-Fr 16:00; Sa 12:00", "indoor": "yes", "note": "ON 12/24 AND 12/31, THIS BOX MAY BE COLLECTED AS EARLY AS 12 NOON.", "nsi_id": "unitedstatespostalservice-a77078", "operator": "United States Postal Service", "operator:short": "USPS", "operator:type": "public", "operator:wikidata": "Q668687", "ref": "7403100001"}, "type": "Feature"}
{"geometry": {"coordinates": [-95.521090835, 36.433539485], "type": "Point"}, "id": "1ZM7HTFMhwi0yVkkRDzMMKsAo2U=", "properties": {"@source_uri": "https://tools.usps.com/UspsToolsRestServices/rest/POLocator/findLocations", "@spider": "usps_collection_boxes", "addr:city": "FOYIL", "addr:country": "US", "addr:postcode": "74031", "addr:state": "OK", "addr:street_address": "17172 E 3RD ST", "amenity": "post_box", "collection_times": "Mo-Fr 16:00; Sa 12:00", "indoor": "yes", "note": "ON 12/24 AND 12/31, THIS BOX MAY BE COLLECTED AS EARLY AS 12 NOON.", "nsi_id": "unitedstatespostalservice-a77078", "operator": "United States Postal Service", "operator:short": "USPS", "operator:type": "public", "operator:wikidata": "Q668687", "ref": "7403100003"}, "type": "Feature"}
{"geometry": {"coordinates": [-96.928752, 36.227673], "type": "Point"}, "id": "yFEoLh9fk7ZTfUUZRrEeEuVYgM4=", "properties": {"@source_uri": "https://tools.usps.com/UspsToolsRestServices/rest/POLocator/findLocations", "@spider": "usps_collection_boxes", "addr:city": "GLENCOE", "addr:country": "US", "addr:postcode": "74032", "addr:state": "OK", "addr:street_address": "313 W MAIN ST", "amenity": "post_box", "collection_times": "Mo-Fr 16:15; Sa 12:30", "note": "ON 12/24 AND 12/31, THIS BOX MAY BE COLLECTED AS EARLY AS 12 NOON.", "nsi_id": "unitedstatespostalservice-a77078", "operator": "United States Postal Service", "operator:short": "USPS", "operator:type": "public", "operator:wikidata": "Q668687", "ref": "7403200000"}, "type": "Feature"}
{"geometry": {"coordinates": [-96.9075207, 36.1996515], "type": "Point"}, "id": "-takfILOBw5Etwep_7yCnjzFnUU=", "properties": {"@source_uri": "https://tools.usps.com/UspsToolsRestServices/rest/POLocator/findLocations", "@spider": "usps_collection_boxes", "addr:city": "GLENCOE", "addr:country": "US", "addr:postcode": "74032", "addr:state": "OK", "addr:street_address": "313 W MAIN ST", "amenity": "post_box", "collection_times": "Mo-Fr 16:15; Sa 12:30", "indoor": "yes", "note": "ON 12/24 AND 12/31, THIS BOX MAY BE COLLECTED AS EARLY AS 12 NOON.", "nsi_id": "unitedstatespostalservice-a77078", "operator": "United States Postal Service", "operator:short": "USPS", "operator:type": "public", "operator:wikidata": "Q668687", "ref": "7403200001"}, "type": "Feature"}
{"geometry": {"coordinates": [-96.9075207, 36.1996515], "type": "Point"}, "id": "YvhfkGtE9nA7MYBa-4dAmWk7Mz8=", "properties": {"@source_uri": "https://tools.usps.com/UspsToolsRestServices/rest/POLocator/findLocations", "@spider": "usps_collection_boxes", "addr:city": "GLENCOE", "addr:country": "US", "addr:postcode": "74032", "addr:state": "OK", "addr:street_address": "313 W MAIN ST", "amenity": "post_box", "collection_times": "Mo-Fr 16:15; Sa 12:30", "indoor": "yes", "note": "ON 12/24 AND 12/31, THIS BOX MAY BE COLLECTED AS EARLY AS 12 NOON.", "nsi_id": "unitedstatespostalservice-a77078", "operator": "United States Postal Service", "operator:short": "USPS", "operator:type": "public", "operator:wikidata": "Q668687", "ref": "7403200002"}, "type": "Feature"}
{"geometry": {"coordinates": [-96.9075207, 36.1996515], "type": "Point"}, "id": "ILbjJRLNgX6IulErbmbyBBzhQMY=", "properties": {"@source_uri": "https://tools.usps.com/UspsToolsRestServices/rest/POLocator/findLocations", "@spider": "usps_collection_boxes", "addr:city": "GLENCOE", "addr:country": "US", "addr:postcode": "74032", "addr:state": "OK", "addr:street_address": "313 W MAIN ST", "amenity": "post_box", "collection_times": "Mo-Fr 16:15; Sa 12:30", "indoor": "yes", "note": "ON 12/24 AND 12/31, THIS BOX MAY BE COLLECTED AS EARLY AS 12 NOON.", "nsi_id": "unitedstatespostalservice-a77078", "operator": "United States Postal Service", "operator:short": "USPS", "operator:type": "public", "operator:wikidata": "Q668687", "ref": "7403200003"}, "type": "Feature"}
{"geometry": {"coordinates": [-96.008018, 35.958632], "type": "Point"}, "id": "19Kh800fr48hFKx2TOzHAD0bDEs=", "properties": {"@source_uri": "https://tools.usps.com/UspsToolsRestServices/rest/POLocator/findLocations", "@spider": "usps_collection_boxes", "addr:city": "GLENPOOL", "addr:country": "US", "addr:postcode": "74033", "addr:state": "OK", "addr:street_address": "14169 S BROADWAY ST", "amenity": "post_box", "collection_times": "Mo-Fr 16:15; Sa 10:30", "note": "ON 12/24 AND 12/31, THIS BOX MAY BE COLLECTED AS EARLY AS 12 NOON.", "nsi_id": "unitedstatespostalservice-a77078", "operator": "United States Postal Service", "operator:short": "USPS", "operator:type": "public", "operator:wikidata": "Q668687", "ref": "7403300000"}, "type": "Feature"}
{"geometry": {"coordinates": [-96.008018, 35.958632], "type": "Point"}, "id": "oXjTsIMkoNBWZpCrZcAnhEJN8qg=", "properties": {"@source_uri": "https://tools.usps.com/UspsToolsRestServices/rest/POLocator/findLocations", "@spider": "usps_collection_boxes", "addr:city": "GLENPOOL", "addr:country": "US", "addr:postcode": "74033", "addr:state": "OK", "addr:street_address": "14169 S BROADWAY ST", "amenity": "post_box", "collection_times": "Mo-Fr 16:15; Sa 10:30", "indoor": "yes", "note": "ON 12/24 AND 12/31, THIS BOX MAY BE COLLECTED AS EARLY AS 12 NOON.", "nsi_id": "unitedstatespostalservice-a77078", "operator": "United States Postal Service", "operator:short": "USPS", "operator:type": "public", "operator:wikidata": "Q668687", "ref": "7403300001"}, "type": "Feature"}
{"geometry": {"coordinates": [-96.008018, 35.958632], "type": "Point"}, "id": "3JQYBRxfxAqzIo5jgu4QE9U0jP0=", "properties": {"@source_uri": "https://tools.usps.com/UspsToolsRestServices/rest/POLocator/findLocations", "@spider": "usps_collection_boxes", "addr:city": "GLENPOOL", "addr:country": "US", "addr:postcode": "74033", "addr:state": "OK", "addr:street_address": "14169 S BROADWAY ST", "amenity": "post_box", "collection_times": "Mo-Fr 16:15; Sa 10:30", "indoor": "yes", "note": "ON 12/24 AND 12/31, THIS BOX MAY BE COLLECTED AS EARLY AS 12 NOON.", "nsi_id": "unitedstatespostalservice-a77078", "operator": "United States Postal Service", "operator:short": "USPS", "operator:type": "public", "operator:wikidata": "Q668687", "ref": "7403300002"}, "type": "Feature"}
{"geometry": {"coordinates": [-96.008020118, 35.958617141], "type": "Point"}, "id": "lCSWZw-8rSnSHqSutZaUfVPTdo8=", "properties": {"@source_uri": "https://tools.usps.com/UspsToolsRestServices/rest/POLocator/findLocations", "@spider": "usps_collection_boxes", "addr:city": "GLENPOOL", "addr:country": "US", "addr:postcode": "74033", "addr:state": "OK", "addr:street_address": "14169 S BROADWAY ST", "amenity": "post_box", "collection_times": "Mo-Fr 16:30; Sa 10:30", "indoor": "yes", "note": "ON 12/24 AND 12/31, THIS BOX MAY BE COLLECTED AS EARLY AS 12 NOON.", "nsi_id": "unitedstatespostalservice-a77078", "operator": "United States Postal Service", "operator:short": "USPS", "operator:type": "public", "operator:wikidata": "Q668687", "ref": "7403300003"}, "type": "Feature"}
{"geometry": {"coordinates": [-96.5679509438, 36.2312954388], "type": "Point"}, "id": "nYoU3Du9sGukkmD6fTh3s_CKVME=", "properties": {"@source_uri": "https://tools.usps.com/UspsToolsRestServices/rest/POLocator/findLocations", "@spider": "usps_collection_boxes", "addr:city": "HALLETT", "addr:country": "US", "addr:postcode": "74034", "addr:state": "OK", "addr:street_address": "501 5TH AVE", "amenity": "post_box", "collection_times": "Mo-Fr 16:00; Sa 09:15", "note": "ON 12/24 AND 12/31, THIS BOX MAY BE COLLECTED AS EARLY AS 12 NOON.", "nsi_id": "unitedstatespostalservice-a77078", "operator": "United States Postal Service", "operator:short": "USPS", "operator:type": "public", "operator:wikidata": "Q668687", "ref": "7403400000"}, "type": "Feature"}
{"geometry": {"coordinates": [-96.5679509438, 36.2312954388], "type": "Point"}, "id": "xjy7vGRKSgwdQUbYhJH-jShoTAg=", "properties": {"@source_uri": "https://tools.usps.com/UspsToolsRestServices/rest/POLocator/findLocations", "@spider": "usps_collection_boxes", "addr:city": "HALLETT", "addr:country": "US", "addr:postcode": "74034", "addr:state": "OK", "addr:street_address": "501 5TH AVE", "amenity": "post_box", "collection_times": "Mo-Fr 16:00; Sa 09:15", "indoor": "yes", "note": "ON 12/24 AND 12/31, THIS BOX MAY BE COLLECTED AS EARLY AS 12 NOON.", "nsi_id": "unitedstatespostalservice-a77078", "operator": "United States Postal Service", "operator:short": "USPS", "operator:type": "public", "operator:wikidata": "Q668687", "ref": "7403400001"}, "type": "Feature"}
{"geometry": {"coordinates": [-96.5679509438, 36.2312954388], "type": "Point"}, "id": "iD7vo3S6Qc5Bm8ciCAlKU3q3wbM=", "properties": {"@source_uri": "https://tools.usps.com/UspsToolsRestServices/rest/POLocator/findLocations", "@spider": "usps_collection_boxes", "addr:city": "HALLETT", "addr:country": "US", "addr:postcode": "74034", "addr:state": "OK", "addr:street_address": "501 5TH AVE", "amenity": "post_box", "collection_times": "Mo-Fr 16:00; Sa 09:30", "indoor": "yes", "note": "ON 12/24 AND 12/31, THIS BOX MAY BE COLLECTED AS EARLY AS 12 NOON.", "nsi_id": "unitedstatespostalservice-a77078", "operator": "United States Postal Service", "operator:short": "USPS", "operator:type": "public", "operator:wikidata": "Q668687", "ref": "7403400002"}, "type": "Feature"}
{"geometry": {"coordinates": [-96.397589, 36.414493], "type": "Point"}, "id": "BhkhQYUpzYPGXd_lueKcH1xdYh8=", "properties": {"@source_uri": "https://tools.usps.com/UspsToolsRestServices/rest/POLocator/findLocations", "@spider": "usps_collection_boxes", "addr:city": "HOMINY", "addr:country": "US", "addr:postcode": "74035", "addr:state": "OK", "addr:street_address": "402 W 1ST ST", "amenity": "post_box", "collection_times": "Mo-Fr 16:30; Sa 10:15", "indoor": "yes", "note": "ON 12/24 AND 12/31, THIS BOX MAY BE COLLECTED AS EARLY AS 12 NOON.", "nsi_id": "unitedstatespostalservice-a77078", "operator": "United States Postal Service", "operator:short": "USPS", "operator:type": "public", "operator:wikidata": "Q668687", "ref": "7403500005"}, "type": "Feature"}
{"geometry": {"coordinates": [-96.397589, 36.414493], "type": "Point"}, "id": "nP0zKygvJSlNytEPLL0qb_JkZao=", "properties": {"@source_uri": "https://tools.usps.com/UspsToolsRestServices/rest/POLocator/findLocations", "@spider": "usps_collection_boxes", "addr:city": "HOMINY", "addr:country": "US", "addr:postcode": "74035", "addr:state": "OK", "addr:street_address": "402 W 1ST ST", "amenity": "post_box", "collection_times": "Mo-Fr 16:30; Sa 10:15", "note": "ON 12/24 AND 12/31, THIS BOX MAY BE COLLECTED AS EARLY AS 12 NOON.", "nsi_id": "unitedstatespostalservice-a77078", "operator": "United States Postal Service", "operator:short": "USPS", "operator:type": "public", "operator:wikidata": "Q668687", "ref": "7403500006"}, "type": "Feature"}
{"geometry": {"coordinates": [-96.397589, 36.414493], "type": "Point"}, "id": "fYQD42OW2CngWsIP050ff4pG8Yk=", "properties": {"@source_uri": "https://tools.usps.com/UspsToolsRestServices/rest/POLocator/findLocations", "@spider": "usps_collection_boxes", "addr:city": "HOMINY", "addr:country": "US", "addr:postcode": "74035", "addr:state": "OK", "addr:street_address": "402 W 1ST ST", "amenity": "post_box", "collection_times": "Mo-Fr 16:30; Sa 10:15", "indoor": "yes", "note": "ON 12/24 AND 12/31, THIS BOX MAY BE COLLECTED AS EARLY AS 12 NOON.", "nsi_id": "unitedstatespostalservice-a77078", "operator": "United States Postal Service", "operator:short": "USPS", "operator:type": "public", "operator:wikidata": "Q668687", "ref": "7403500008"}, "type": "Feature"}
{"geometry": {"coordinates": [-96.397630496, 36.414439224], "type": "Point"}, "id": "edRlZIVIaVNq1kcLecuxuwxXLbQ=", "properties": {"@source_uri": "https://tools.usps.com/UspsToolsRestServices/rest/POLocator/findLocations", "@spider": "usps_collection_boxes", "addr:city": "HOMINY", "addr:country": "US", "addr:postcode": "74035", "addr:state": "OK", "addr:street_address": "402 W 1ST ST", "amenity": "post_box", "collection_times": "Mo-Fr 16:30; Sa 10:30", "indoor": "yes", "note": "ON 12/24 AND 12/31, THIS BOX MAY BE COLLECTED AS EARLY AS 12 NOON.", "nsi_id": "unitedstatespostalservice-a77078", "operator": "United States Postal Service", "operator:short": "USPS", "operator:type": "public", "operator:wikidata": "Q668687", "ref": "7403500009"}, "type": "Feature"}
{"geometry": {"coordinates": [-95.513278, 36.1482032], "type": "Point"}, "id": "L6kXIyjT-CF2v3Nf1M8Fadt1qq4=", "properties": {"@source_uri": "https://tools.usps.com/UspsToolsRestServices/rest/POLocator/findLocations", "@spider": "usps_collection_boxes", "addr:city": "INOLA", "addr:country": "US", "addr:postcode": "74036", "addr:state": "OK", "addr:street_address": "25 2ND ST SW", "amenity": "post_box", "collection_times": "Mo-Fr 16:00; Sa 11:30", "note": "ON 12/24 AND 12/31, THIS BOX MAY BE COLLECTED AS EARLY AS 12 NOON.", "nsi_id": "unitedstatespostalservice-a77078", "operator": "United States Postal Service", "operator:short": "USPS", "operator:type": "public", "operator:wikidata": "Q668687", "ref": "7403600000"}, "type": "Feature"}
{"geometry": {"coordinates": [-95.507951, 36.148887], "type": "Point"}, "id": "HFXKc8aTHVoXcAREYeikePI7x2I=", "properties": {"@source_uri": "https://tools.usps.com/UspsToolsRestServices/rest/POLocator/findLocations", "@spider": "usps_collection_boxes", "addr:city": "INOLA", "addr:country": "US", "addr:postcode": "74036", "addr:state": "OK", "addr:street_address": "25 2ND ST SW", "amenity": "post_box", "collection_times": "Mo-Fr 16:00; Sa 11:30", "indoor": "yes", "note": "ON 12/24 AND 12/31, THIS BOX MAY BE COLLECTED AS EARLY AS 12 NOON.", "nsi_id": "unitedstatespostalservice-a77078", "operator": "United States Postal Service", "operator:short": "USPS", "operator:type": "public", "operator:wikidata": "Q668687", "ref": "7403600001"}, "type": "Feature"}
{"geometry": {"coordinates": [-95.5088120305, 36.1489509959], "type": "Point"}, "id": "QwStXtWKjbEX6gyrxSsTWMsw02E=", "properties": {"@source_uri": "https://tools.usps.com/UspsToolsRestServices/rest/POLocator/findLocations", "@spider": "usps_collection_boxes", "addr:city": "INOLA", "addr:country": "US", "addr:postcode": "74036", "addr:state": "OK", "addr:street_address": "25 2ND ST SW", "amenity": "post_box", "collection_times": "Mo-Fr 16:00; Sa 11:30", "indoor": "yes", "note": "ON 12/24 AND 12/31, THIS BOX MAY BE COLLECTED AS EARLY AS 12 NOON.", "nsi_id": "unitedstatespostalservice-a77078", "operator": "United States Postal Service", "operator:short": "USPS", "operator:type": "public", "operator:wikidata": "Q668687", "ref": "7403600002"}, "type": "Feature"}
{"geometry": {"coordinates": [-95.976594, 36.018414], "type": "Point"}, "id": "0ap9nOuIeZrfL6d_8orqoIQUbJ4=", "properties": {"@source_uri": "https://tools.usps.com/UspsToolsRestServices/rest/POLocator/findLocations", "@spider": "usps_collection_boxes", "addr:city": "JENKS", "addr:country": "US", "addr:postcode": "74037", "addr:state": "OK", "addr:street_address": "410 S ELM ST", "amenity": "post_box", "collection_times": "Mo-Sa 13:00", "note": "ON 12/24 AND 12/31, THIS BOX MAY BE COLLECTED AS EARLY AS 12 NOON.", "nsi_id": "unitedstatespostalservice-a77078", "operator": "United States Postal Service", "operator:short": "USPS", "operator:type": "public", "operator:wikidata": "Q668687", "ref": "7403700000"}, "type": "Feature"}
{"geometry": {"coordinates": [-95.9751370344, 35.98626999], "type": "Point"}, "id": "eYPAyT95A3jVAmMBwVBOq3ENYAg=", "properties": {"@source_uri": "https://tools.usps.com/UspsToolsRestServices/rest/POLocator/findLocations", "@spider": "usps_collection_boxes", "addr:city": "JENKS", "addr:country": "US", "addr:postcode": "74037", "addr:state": "OK", "addr:street_address": "12141 S ELM ST", "amenity": "post_box", "collection_times": "Mo-Sa 12:30", "note": "ON 12/24 AND 12/31, THIS BOX MAY BE COLLECTED AS EARLY AS 12 NOON.", "nsi_id": "unitedstatespostalservice-a77078", "operator": "United States Postal Service", "operator:short": "USPS", "operator:type": "public", "operator:wikidata": "Q668687", "ref": "7403700001"}, "type": "Feature"}
{"geometry": {"coordinates": [-95.9669208569, 36.0236272996], "type": "Point"}, "id": "p_21MnNFqrU0i99wYtGsZSsTUVU=", "properties": {"@source_uri": "https://tools.usps.com/UspsToolsRestServices/rest/POLocator/findLocations", "@spider": "usps_collection_boxes", "addr:city": "JENKS", "addr:country": "US", "addr:postcode": "74037", "addr:state": "OK", "addr:street_address": "303 E A ST", "amenity": "post_box", "collection_times": "Mo-Fr 17:00; Sa 14:30", "note": "ON 12/24 AND 12/31, THIS BOX MAY BE COLLECTED AS EARLY AS 12 NOON.", "nsi_id": "unitedstatespostalservice-a77078", "operator": "United States Postal Service", "operator:short": "USPS", "operator:type": "public", "operator:wikidata": "Q668687", "ref": "7403700004"}, "type": "Feature"}
{"geometry": {"coordinates": [-95.966989, 36.023603], "type": "Point"}, "id": "d6LYk1w66OdCc0UOBCWZmTzvqr0=", "properties": {"@source_uri": "https://tools.usps.com/UspsToolsRestServices/rest/POLocator/findLocations", "@spider": "usps_collection_boxes", "addr:city": "JENKS", "addr:country": "US", "addr:postcode": "74037", "addr:state": "OK", "addr:street_address": "303 E A ST", "amenity": "post_box", "collection_times": "Mo-Fr 17:00; Sa 14:30", "indoor": "yes", "note": "ON 12/24 AND 12/31, THIS BOX MAY BE COLLECTED AS EARLY AS 12 NOON.", "nsi_id": "unitedstatespostalservice-a77078", "operator": "United States Postal Service", "operator:short": "USPS", "operator:type": "public", "operator:wikidata": "Q668687", "ref": "7403700007"}, "type": "Feature"}
{"geometry": {"coordinates": [-95.967030349, 36.023634056], "type": "Point"}, "id": "Z_YrfKoMDfsYyU57VZbMIWYEThI=", "properties": {"@source_uri": "https://tools.usps.com/UspsToolsRestServices/rest/POLocator/findLocations", "@spider": "usps_collection_boxes", "addr:city": "JENKS", "addr:country": "US", "addr:postcode": "74037", "addr:state": "OK", "addr:street_address": "303 E A ST", "amenity": "post_box", "collection_times": "Mo-Fr 17:00; Sa 12:00", "indoor": "yes", "note": "ON 12/24 AND 12/31, THIS BOX MAY BE COLLECTED AS EARLY AS 12 NOON.", "nsi_id": "unitedstatespostalservice-a77078", "operator": "United States Postal Service", "operator:short": "USPS", "operator:type": "public", "operator:wikidata": "Q668687", "ref": "7403700009"}, "type": "Feature"}
{"geometry": {"coordinates": [-96.569826, 36.184589], "type": "Point"}, "id": "iOQ1mzRkbguMcNCkvabNbb7_IfM=", "properties": {"@source_uri": "https://tools.usps.com/UspsToolsRestServices/rest/POLocator/findLocations", "@spider": "usps_collection_boxes", "addr:city": "JENNINGS", "addr:country": "US", "addr:postcode": "74038", "addr:state": "OK", "addr:street_address": "718 N MAIN ST", "amenity": "post_box", "collection_times": "Mo-Fr 15:00; Sa 10:45", "indoor": "yes", "note": "ON 12/24 AND 12/31, THIS BOX MAY BE COLLECTED AS EARLY AS 12 NOON.", "nsi_id": "unitedstatespostalservice-a77078", "operator": "United States Postal Service", "operator:short": "USPS", "operator:type": "public", "operator:wikidata": "Q668687", "ref": "7403800001"}, "type": "Feature"}
{"geometry": {"coordinates": [-96.569826, 36.184589], "type": "Point"}, "id": "k4f3KXWUgyBiJe0mASpMpXDCMTI=", "properties": {"@source_uri": "https://tools.usps.com/UspsToolsRestServices/rest/POLocator/findLocations", "@spider": "usps_collection_boxes", "addr:city": "JENNINGS", "addr:country": "US", "addr:postcode": "74038", "addr:state": "OK", "addr:street_address": "718 N MAIN ST", "amenity": "post_box", "collection_times": "Mo-Fr 15:00; Sa 10:45", "indoor": "yes", "note": "ON 12/24 AND 12/31, THIS BOX MAY BE COLLECTED AS EARLY AS 12 NOON.", "nsi_id": "unitedstatespostalservice-a77078", "operator": "United States Postal Service", "operator:short": "USPS", "operator:type": "public", "operator:wikidata": "Q668687", "ref": "7403800002"}, "type": "Feature"}
{"geometry": {"coordinates": [-96.569803084, 36.18458027], "type": "Point"}, "id": "-BKJatKKJkRaVl7Znxr96hOaf4s=", "properties": {"@source_uri": "https://tools.usps.com/UspsToolsRestServices/rest/POLocator/findLocations", "@spider": "usps_collection_boxes", "addr:city": "JENNINGS", "addr:country": "US", "addr:postcode": "74038", "addr:state": "OK", "addr:street_address": "718 N MAIN ST", "amenity": "post_box", "collection_times": "Mo-Fr 15:00; Sa 10:30", "indoor": "yes", "note": "ON 12/24 AND 12/31, THIS BOX MAY BE COLLECTED AS EARLY AS 12 NOON.", "nsi_id": "unitedstatespostalservice-a77078", "operator": "United States Postal Service", "operator:short": "USPS", "operator:type": "public", "operator:wikidata": "Q668687", "ref": "7403800003"}, "type": "Feature"}
{"geometry": {"coordinates": [-96.2141559883, 35.9436459833], "type": "Point"}, "id": "vjjh3qNSfev7dV8wDhQTAIm5f84=", "properties": {"@source_uri": "https://tools.usps.com/UspsToolsRestServices/rest/POLocator/findLocations", "@spider": "usps_collection_boxes", "addr:city": "KELLYVILLE", "addr:country": "US", "addr:postcode": "74039", "addr:state": "OK", "addr:street_address": "218 E BUFFALO ST", "amenity": "post_box", "collection_times": "Mo-Fr 15:45; Sa 09:00", "note": "ON 12/24 AND 12/31, THIS BOX MAY BE COLLECTED AS EARLY AS 12 NOON.", "nsi_id": "unitedstatespostalservice-a77078", "operator": "United States Postal Service", "operator:short": "USPS", "operator:type": "public", "operator:wikidata": "Q668687", "ref": "7403900000"}, "type": "Feature"}
{"geometry": {"coordinates": [-96.214001, 35.943652], "type": "Point"}, "id": "3f5aScMZdiK2PnIChqNE0je910U=", "properties": {"@source_uri": "https://tools.usps.com/UspsToolsRestServices/rest/POLocator/findLocations", "@spider": "usps_collection_boxes", "addr:city": "KELLYVILLE", "addr:country": "US", "addr:postcode": "74039", "addr:state": "OK", "addr:street_address": "218 E BUFFALO ST", "amenity": "post_box", "collection_times": "Mo-Fr 16:00; Sa 09:00", "indoor": "yes", "note": "ON 12/24 AND 12/31, THIS BOX MAY BE COLLECTED AS EARLY AS 12 NOON.", "nsi_id": "unitedstatespostalservice-a77078", "operator": "United States Postal Service", "operator:short": "USPS", "operator:type": "public", "operator:wikidata": "Q668687", "ref": "7403900001"}, "type": "Feature"}
{"geometry": {"coordinates": [-96.214001, 35.943652], "type": "Point"}, "id": "J3J4NapzM2pVKeQGP9YuDaYf3t0=", "properties": {"@source_uri": "https://tools.usps.com/UspsToolsRestServices/rest/POLocator/findLocations", "@spider": "usps_collection_boxes", "addr:city": "KELLYVILLE", "addr:country": "US", "addr:postcode": "74039", "addr:state": "OK", "addr:street_address": "218 E BUFFALO ST", "amenity": "post_box", "collection_times": "Mo-Fr 16:00; Sa 09:00", "indoor": "yes", "note": "ON 12/24 AND 12/31, THIS BOX MAY BE COLLECTED AS EARLY AS 12 NOON.", "nsi_id": "unitedstatespostalservice-a77078", "operator": "United States Postal Service", "operator:short": "USPS", "operator:type": "public", "operator:wikidata": "Q668687", "ref": "7403900002"}, "type": "Feature"}
{"geometry": {"coordinates": [-96.214170777, 35.943652521], "type": "Point"}, "id": "12WPHKjLMDz34wMgEoOqQjJI6ZM=", "properties": {"@source_uri": "https://tools.usps.com/UspsToolsRestServices/rest/POLocator/findLocations", "@spider": "usps_collection_boxes", "addr:city": "KELLYVILLE", "addr:country": "US", "addr:postcode": "74039", "addr:state": "OK", "addr:street_address": "218 E BUFFALO ST", "amenity": "post_box", "collection_times": "Mo-Fr 16:00", "indoor": "yes", "note": "ON 12/24 AND 12/31, THIS BOX MAY BE COLLECTED AS EARLY AS 12 NOON.", "nsi_id": "unitedstatespostalservice-a77078", "operator": "United States Postal Service", "operator:short": "USPS", "operator:type": "public", "operator:wikidata": "Q668687", "ref": "7403900003"}, "type": "Feature"}
{"geometry": {"coordinates": [-96.059142, 35.944708], "type": "Point"}, "id": "bEhWxFUKmQMX2NUkXrbwWwXgW5c=", "properties": {"@source_uri": "https://tools.usps.com/UspsToolsRestServices/rest/POLocator/findLocations", "@spider": "usps_collection_boxes", "addr:city": "KIEFER", "addr:country": "US", "addr:postcode": "74041", "addr:state": "OK", "addr:street_address": "417 E INDIANA", "amenity": "post_box", "collection_times": "Mo-Fr 16:00; Sa 10:00", "note": "ON 12/24 AND 12/31, THIS BOX MAY BE COLLECTED AS EARLY AS 12 NOON.", "nsi_id": "unitedstatespostalservice-a77078", "operator": "United States Postal Service", "operator:short": "USPS", "operator:type": "public", "operator:wikidata": "Q668687", "ref": "7404100000"}, "type": "Feature"}
{"geometry": {"coordinates": [-96.059217, 35.944681], "type": "Point"}, "id": "6NigPLEq1eT13fxYvvyBNX3imKQ=", "properties": {"@source_uri": "https://tools.usps.com/UspsToolsRestServices/rest/POLocator/findLocations", "@spider": "usps_collection_boxes", "addr:city": "KIEFER", "addr:country": "US", "addr:postcode": "74041", "addr:state": "OK", "addr:street_address": "417 E INDIANA", "amenity": "post_box", "collection_times": "Mo-Fr 16:00; Sa 10:00", "indoor": "yes", "note": "ON 12/24 AND 12/31, THIS BOX MAY BE COLLECTED AS EARLY AS 12 NOON.", "nsi_id": "unitedstatespostalservice-a77078", "operator": "United States Postal Service", "operator:short": "USPS", "operator:type": "public", "operator:wikidata": "Q668687", "ref": "7404100001"}, "type": "Feature"}
{"geometry": {"coordinates": [-96.059173242, 35.944747611], "type": "Point"}, "id": "bF5jzJvbxsX2_s4ssNVHi1aRdZ4=", "properties": {"@source_uri": "https://tools.usps.com/UspsToolsRestServices/rest/POLocator/findLocations", "@spider": "usps_collection_boxes", "addr:city": "KIEFER", "addr:country": "US", "addr:postcode": "74041", "addr:state": "OK", "addr:street_address": "417 E INDIANA", "amenity": "post_box", "collection_times": "Mo-Fr 16:00", "indoor": "yes", "note": "ON 12/24 AND 12/31, THIS BOX MAY BE COLLECTED AS EARLY AS 12 NOON.", "nsi_id": "unitedstatespostalservice-a77078", "operator": "United States Postal Service", "operator:short": "USPS", "operator:type": "public", "operator:wikidata": "Q668687", "ref": "7404100003"}, "type": "Feature"}
{"geometry": {"coordinates": [-95.635977, 36.850892], "type": "Point"}, "id": "jvmsAsyLbEwl69VQTfhW8kl6wDc=", "properties": {"@source_uri": "https://tools.usps.com/UspsToolsRestServices/rest/POLocator/findLocations", "@spider": "usps_collection_boxes", "addr:city": "LENAPAH", "addr:country": "US", "addr:postcode": "74042", "addr:state": "OK", "addr:street_address": "400 SHAWNEE", "amenity": "post_box", "collection_times": "Mo-Fr 12:30; Sa 09:00", "indoor": "yes", "note": "ON 12/24 AND 12/31, THIS BOX MAY BE COLLECTED AS EARLY AS 12 NOON.", "nsi_id": "unitedstatespostalservice-a77078", "operator": "United States Postal Service", "operator:short": "USPS", "operator:type": "public", "operator:wikidata": "Q668687", "ref": "7404200001"}, "type": "Feature"}
{"geometry": {"coordinates": [-95.635953695, 36.85090275], "type": "Point"}, "id": "YK1XAO7vZQnG6BAb8MwnY2bKK0w=", "properties": {"@source_uri": "https://tools.usps.com/UspsToolsRestServices/rest/POLocator/findLocations", "@spider": "usps_collection_boxes", "addr:city": "LENAPAH", "addr:country": "US", "addr:postcode": "74042", "addr:state": "OK", "addr:street_address": "400 SHAWNEE", "amenity": "post_box", "collection_times": "Mo-Fr 12:30", "indoor": "yes", "note": "ON 12/24 AND 12/31, THIS BOX MAY BE COLLECTED AS EARLY AS 12 NOON.", "nsi_id": "unitedstatespostalservice-a77078", "operator": "United States Postal Service", "operator:short": "USPS", "operator:type": "public", "operator:wikidata": "Q668687", "ref": "7404200004"}, "type": "Feature"}
{"geometry": {"coordinates": [-95.79929091, 35.92073841], "type": "Point"}, "id": "l8QNrLTptg02c7x70fXU-nUF338=", "properties": {"@source_uri": "https://tools.usps.com/UspsToolsRestServices/rest/POLocator/findLocations", "@spider": "usps_collection_boxes", "addr:city": "LEONARD", "addr:country": "US", "addr:postcode": "74043", "addr:state": "OK", "addr:street_address": "15900 E 167TH ST S", "amenity": "post_box", "collection_times": "Mo-Sa 10:00", "nsi_id": "unitedstatespostalservice-a77078", "operator": "United States Postal Service", "operator:short": "USPS", "operator:type": "public", "operator:wikidata": "Q668687", "ref": "7404300002"}, "type": "Feature"}
{"geometry": {"coordinates": [-96.326565, 36.1169917], "type": "Point"}, "id": "aLYQXArABVCfbt8GojDpNe6KyeI=", "properties": {"@source_uri": "https://tools.usps.com/UspsToolsRestServices/rest/POLocator/findLocations", "@spider": "usps_collection_boxes", "addr:city": "MANNFORD", "addr:country": "US", "addr:postcode": "74044", "addr:state": "OK", "addr:street_address": "165 COONROD AVE", "amenity": "post_box", "collection_times": "Mo-Fr 16:30; Sa 11:00", "note": "ON 12/24 AND 12/31, THIS BOX MAY BE COLLECTED AS EARLY AS 12 NOON.", "nsi_id": "unitedstatespostalservice-a77078", "operator": "United States Postal Service", "operator:short": "USPS", "operator:type": "public", "operator:wikidata": "Q668687", "ref": "7404400000"}, "type": "Feature"}
{"geometry": {"coordinates": [-96.326565, 36.1169917], "type": "Point"}, "id": "4KN3NWtNmRSNN0YOvOj2OMvcoJg=", "properties": {"@source_uri": "https://tools.usps.com/UspsToolsRestServices/rest/POLocator/findLocations", "@spider": "usps_collection_boxes", "addr:city": "MANNFORD", "addr:country": "US", "addr:postcode": "74044", "addr:state": "OK", "addr:street_address": "165 COONROD AVE", "amenity": "post_box", "collection_times": "Mo-Fr 16:30; Sa 11:00", "indoor": "yes", "note": "ON 12/24 AND 12/31, THIS BOX MAY BE COLLECTED AS EARLY AS 12 NOON.", "nsi_id": "unitedstatespostalservice-a77078", "operator": "United States Postal Service", "operator:short": "USPS", "operator:type": "public", "operator:wikidata": "Q668687", "ref": "7404400002"}, "type": "Feature"}
{"geometry": {"coordinates": [-96.326565, 36.1169917], "type": "Point"}, "id": "rXH56Hoa_dSOGTovq3g5YhRYBXs=", "properties": {"@source_uri": "https://tools.usps.com/UspsToolsRestServices/rest/POLocator/findLocations", "@spider": "usps_collection_boxes", "addr:city": "MANNFORD", "addr:country": "US", "addr:postcode": "74044", "addr:state": "OK", "addr:street_address": "165 COONROD AVE", "amenity": "post_box", "collection_times": "Mo-Fr 16:30; Sa 11:00", "indoor": "yes", "note": "ON 12/24 AND 12/31, THIS BOX MAY BE COLLECTED AS EARLY AS 12 NOON.", "nsi_id": "unitedstatespostalservice-a77078", "operator": "United States Postal Service", "operator:short": "USPS", "operator:type": "public", "operator:wikidata": "Q668687", "ref": "7404400003"}, "type": "Feature"}
{"geometry": {"coordinates": [-96.326565, 36.1169917], "type": "Point"}, "id": "EGOFUAEtcr8JQYzgyWHmGh9wLPA=", "properties": {"@source_uri": "https://tools.usps.com/UspsToolsRestServices/rest/POLocator/findLocations", "@spider": "usps_collection_boxes", "addr:city": "MANNFORD", "addr:country": "US", "addr:postcode": "74044", "addr:state": "OK", "addr:street_address": "165 COONROD AVE", "amenity": "post_box", "collection_times": "Mo-Fr 16:30; Sa 11:00", "indoor": "yes", "note": "ON 12/24 AND 12/31, THIS BOX MAY BE COLLECTED AS EARLY AS 12 NOON.", "nsi_id": "unitedstatespostalservice-a77078", "operator": "United States Postal Service", "operator:short": "USPS", "operator:type": "public", "operator:wikidata": "Q668687", "ref": "7404400005"}, "type": "Feature"}
{"geometry": {"coordinates": [-96.67766, 36.241952], "type": "Point"}, "id": "lbAEvSoxLCpA41ZN1a2Z37syevM=", "properties": {"@source_uri": "https://tools.usps.com/UspsToolsRestServices/rest/POLocator/findLocations", "@spider": "usps_collection_boxes", "addr:city": "MARAMEC", "addr:country": "US", "addr:postcode": "74045", "addr:state": "OK", "addr:street_address": "420 2ND ST", "amenity": "post_box", "collection_times": "Mo-Sa 11:00", "indoor": "yes", "nsi_id": "unitedstatespostalservice-a77078", "operator": "United States Postal Service", "operator:short": "USPS", "operator:type": "public", "operator:wikidata": "Q668687", "ref": "7404500001"}, "type": "Feature"}
{"geometry": {"coordinates": [-96.6768863564, 36.2176065092], "type": "Point"}, "id": "cM6HopUT515xhlvWz0CRBgM7x-I=", "properties": {"@source_uri": "https://tools.usps.com/UspsToolsRestServices/rest/POLocator/findLocations", "@spider": "usps_collection_boxes", "addr:city": "MARAMEC", "addr:country": "US", "addr:postcode": "74045", "addr:state": "OK", "addr:street_address": "420 2ND ST", "amenity": "post_box", "collection_times": "Mo-Sa 11:00", "indoor": "yes", "nsi_id": "unitedstatespostalservice-a77078", "operator": "United States Postal Service", "operator:short": "USPS", "operator:type": "public", "operator:wikidata": "Q668687", "ref": "7404500002"}, "type": "Feature"}
{"geometry": {"coordinates": [-96.709022891, 36.157550052], "type": "Point"}, "id": "M0FXjt_RISEL0gE8DWU_xjpzxvU=", "properties": {"@source_uri": "https://tools.usps.com/UspsToolsRestServices/rest/POLocator/findLocations", "@spider": "usps_collection_boxes", "addr:city": "MARAMEC", "addr:country": "US", "addr:postcode": "74045", "addr:state": "OK", "addr:street_address": "420 2ND ST", "amenity": "post_box", "collection_times": "Mo-Fr 12:30; Sa 12:00", "indoor": "yes", "note": "ON 12/24 AND 12/31, THIS BOX MAY BE COLLECTED AS EARLY AS 12 NOON.", "nsi_id": "unitedstatespostalservice-a77078", "operator": "United States Postal Service", "operator:short": "USPS", "operator:type": "public", "operator:wikidata": "Q668687", "ref": "7404500003"}, "type": "Feature"}
{"geometry": {"coordinates": [-96.5655493804, 35.7530382258], "type": "Point"}, "id": "Xr_SsQc1D4JVcapyqTqgMBC5gxA=", "properties": {"@source_uri": "https://tools.usps.com/UspsToolsRestServices/rest/POLocator/findLocations", "@spider": "usps_collection_boxes", "addr:city": "MILFAY", "addr:country": "US", "addr:postcode": "74046", "addr:state": "OK", "addr:street_address": "28110 S 513TH WEST AVE", "amenity": "post_box", "collection_times": "Mo-Sa 09:30", "indoor": "yes", "nsi_id": "unitedstatespostalservice-a77078", "operator": "United States Postal Service", "operator:short": "USPS", "operator:type": "public", "operator:wikidata": "Q668687", "ref": "7404600001"}, "type": "Feature"}
{"geometry": {"coordinates": [-96.565597357, 35.753066012], "type": "Point"}, "id": "KZ-dRJu5b1s7IiQ6rFVkZSeBBzg=", "properties": {"@source_uri": "https://tools.usps.com/UspsToolsRestServices/rest/POLocator/findLocations", "@spider": "usps_collection_boxes", "addr:city": "MILFAY", "addr:country": "US", "addr:postcode": "74046", "addr:state": "OK", "addr:street_address": "28110 S 513TH WEST AVE", "amenity": "post_box", "collection_times": "Mo-Fr 10:00; Sa 09:45", "indoor": "yes", "nsi_id": "unitedstatespostalservice-a77078", "operator": "United States Postal Service", "operator:short": "USPS", "operator:type": "public", "operator:wikidata": "Q668687", "ref": "7404600002"}, "type": "Feature"}
{"geometry": {"coordinates": [-96.061967, 35.87563], "type": "Point"}, "id": "7p1LXwhDPLI_c5xxUkAj56WSf4A=", "properties": {"@source_uri": "https://tools.usps.com/UspsToolsRestServices/rest/POLocator/findLocations", "@spider": "usps_collection_boxes", "addr:city": "MOUNDS", "addr:country": "US", "addr:postcode": "74047", "addr:state": "OK", "addr:street_address": "1201 ROCKWOOD", "amenity": "post_box", "collection_times": "Mo-Fr 16:30; Sa 11:00", "note": "ON 12/24 AND 12/31, THIS BOX MAY BE COLLECTED AS EARLY AS 12 NOON.", "nsi_id": "unitedstatespostalservice-a77078", "operator": "United States Postal Service", "operator:short": "USPS", "operator:type": "public", "operator:wikidata": "Q668687", "ref": "7404700000"}, "type": "Feature"}
{"geometry": {"coordinates": [-96.061967, 35.87563], "type": "Point"}, "id": "TaJKCafIQE3CF25Dm47d_X0nBE0=", "properties": {"@source_uri": "https://tools.usps.com/UspsToolsRestServices/rest/POLocator/findLocations", "@spider": "usps_collection_boxes", "addr:city": "MOUNDS", "addr:country": "US", "addr:postcode": "74047", "addr:state": "OK", "addr:street_address": "1201 ROCKWOOD", "amenity": "post_box", "collection_times": "Mo-Fr 16:30; Sa 11:00", "indoor": "yes", "note": "ON 12/24 AND 12/31, THIS BOX MAY BE COLLECTED AS EARLY AS 12 NOON.", "nsi_id": "unitedstatespostalservice-a77078", "operator": "United States Postal Service", "operator:short": "USPS", "operator:type": "public", "operator:wikidata": "Q668687", "ref": "7404700001"}, "type": "Feature"}
{"geometry": {"coordinates": [-96.061967, 35.87563], "type": "Point"}, "id": "_3pAKX1iIXj108O57qD2E2gwevE=", "properties": {"@source_uri": "https://tools.usps.com/UspsToolsRestServices/rest/POLocator/findLocations", "@spider": "usps_collection_boxes", "addr:city": "MOUNDS", "addr:country": "US", "addr:postcode": "74047", "addr:state": "OK", "addr:street_address": "1201 ROCKWOOD", "amenity": "post_box", "collection_times": "Mo-Fr 16:30; Sa 11:00", "indoor": "yes", "note": "ON 12/24 AND 12/31, THIS BOX MAY BE COLLECTED AS EARLY AS 12 NOON.", "nsi_id": "unitedstatespostalservice-a77078", "operator": "United States Postal Service", "operator:short": "USPS", "operator:type": "public", "operator:wikidata": "Q668687", "ref": "7404700002"}, "type": "Feature"}
{"geometry": {"coordinates": [-96.061947585, 35.875597412], "type": "Point"}, "id": "OI7kOGDlkSuti-ffJgFiP3t_4Uk=", "properties": {"@source_uri": "https://tools.usps.com/UspsToolsRestServices/rest/POLocator/findLocations", "@spider": "usps_collection_boxes", "addr:city": "MOUNDS", "addr:country": "US", "addr:postcode": "74047", "addr:state": "OK", "addr:street_address": "1201 ROCKWOOD", "amenity": "post_box", "collection_times": "Mo-Fr 16:30; Sa 11:00", "indoor": "yes", "note": "ON 12/24 AND 12/31, THIS BOX MAY BE COLLECTED AS EARLY AS 12 NOON.", "nsi_id": "unitedstatespostalservice-a77078", "operator": "United States Postal Service", "operator:short": "USPS", "operator:type": "public", "operator:wikidata": "Q668687", "ref": "7404700003"}, "type": "Feature"}
{"geometry": {"coordinates": [-95.639224, 36.701053], "type": "Point"}, "id": "T3gNl36B8NPXukk3p3EfmVjGgeQ=", "properties": {"@source_uri": "https://tools.usps.com/UspsToolsRestServices/rest/POLocator/findLocations", "@spider": "usps_collection_boxes", "addr:city": "NOWATA", "addr:country": "US", "addr:postcode": "74048", "addr:state": "OK", "addr:street_address": "109 N PINE ST", "amenity": "post_box", "collection_times": "Mo-Fr 16:45; Sa 12:00", "note": "ON 12/24 AND 12/31, THIS BOX MAY BE COLLECTED AS EARLY AS 12 NOON.", "nsi_id": "unitedstatespostalservice-a77078", "operator": "United States Postal Service", "operator:short": "USPS", "operator:type": "public", "operator:wikidata": "Q668687", "ref": "7404800000"}, "type": "Feature"}
{"geometry": {"coordinates": [-95.639224, 36.701053], "type": "Point"}, "id": "dIeIrBUcFPfmVVH-1zI0WwnVb9Q=", "properties": {"@source_uri": "https://tools.usps.com/UspsToolsRestServices/rest/POLocator/findLocations", "@spider": "usps_collection_boxes", "addr:city": "NOWATA", "addr:country": "US", "addr:postcode": "74048", "addr:state": "OK", "addr:street_address": "109 N PINE ST", "amenity": "post_box", "collection_times": "Mo-Fr 16:45; Sa 12:00", "indoor": "yes", "note": "ON 12/24 AND 12/31, THIS BOX MAY BE COLLECTED AS EARLY AS 12 NOON.", "nsi_id": "unitedstatespostalservice-a77078", "operator": "United States Postal Service", "operator:short": "USPS", "operator:type": "public", "operator:wikidata": "Q668687", "ref": "7404800002"}, "type": "Feature"}
{"geometry": {"coordinates": [-95.639224, 36.701053], "type": "Point"}, "id": "AAwmcSvyqp3WzyqzZLhfjP-f_GA=", "properties": {"@source_uri": "https://tools.usps.com/UspsToolsRestServices/rest/POLocator/findLocations", "@spider": "usps_collection_boxes", "addr:city": "NOWATA", "addr:country": "US", "addr:postcode": "74048", "addr:state": "OK", "addr:street_address": "109 N PINE ST", "amenity": "post_box", "collection_times": "Mo-Fr 16:45; Sa 12:00", "indoor": "yes", "note": "ON 12/24 AND 12/31, THIS BOX MAY BE COLLECTED AS EARLY AS 12 NOON.", "nsi_id": "unitedstatespostalservice-a77078", "operator": "United States Postal Service", "operator:short": "USPS", "operator:type": "public", "operator:wikidata": "Q668687", "ref": "7404800003"}, "type": "Feature"}
{"geometry": {"coordinates": [-95.63922564, 36.701047456], "type": "Point"}, "id": "dF7D74BQxwC4evh_rwbWIxXiwWE=", "properties": {"@source_uri": "https://tools.usps.com/UspsToolsRestServices/rest/POLocator/findLocations", "@spider": "usps_collection_boxes", "addr:city": "NOWATA", "addr:country": "US", "addr:postcode": "74048", "addr:state": "OK", "addr:street_address": "109 N PINE ST", "amenity": "post_box", "collection_times": "Mo-Fr 16:30", "indoor": "yes", "note": "ON 12/24 AND 12/31, THIS BOX MAY BE COLLECTED AS EARLY AS 12 NOON.", "nsi_id": "unitedstatespostalservice-a77078", "operator": "United States Postal Service", "operator:short": "USPS", "operator:type": "public", "operator:wikidata": "Q668687", "ref": "7404800004"}, "type": "Feature"}
{"geometry": {"coordinates": [-96.064457, 36.076425], "type": "Point"}, "id": "ak_9GpeYFxf-_r3YFLp6Z0dXFV4=", "properties": {"@source_uri": "https://tools.usps.com/UspsToolsRestServices/rest/POLocator/findLocations", "@spider": "usps_collection_boxes", "addr:city": "OAKHURST", "addr:country": "US", "addr:postcode": "74050", "addr:state": "OK", "addr:street_address": "6403 W 60TH ST", "amenity": "post_box", "collection_times": "Mo-Fr 16:00; Sa 11:00", "indoor": "yes", "note": "ON 12/24 AND 12/31, THIS BOX MAY BE COLLECTED AS EARLY AS 12 NOON.", "nsi_id": "unitedstatespostalservice-a77078", "operator": "United States Postal Service", "operator:short": "USPS", "operator:type": "public", "operator:wikidata": "Q668687", "ref": "7405000001"}, "type": "Feature"}
{"geometry": {"coordinates": [-96.064457, 36.076425], "type": "Point"}, "id": "nAJAo-a-IF0jCXtmT9NNFCTIcyk=", "properties": {"@source_uri": "https://tools.usps.com/UspsToolsRestServices/rest/POLocator/findLocations", "@spider": "usps_collection_boxes", "addr:city": "OAKHURST", "addr:country": "US", "addr:postcode": "74050", "addr:state": "OK", "addr:street_address": "6403 W 60TH ST", "amenity": "post_box", "collection_times": "Mo-Fr 16:00; Sa 11:00", "indoor": "yes", "note": "ON 12/24 AND 12/31, THIS BOX MAY BE COLLECTED AS EARLY AS 12 NOON.", "nsi_id": "unitedstatespostalservice-a77078", "operator": "United States Postal Service", "operator:short": "USPS", "operator:type": "public", "operator:wikidata": "Q668687", "ref": "7405000002"}, "type": "Feature"}
{"geometry": {"coordinates": [-96.064399485, 36.076488602], "type": "Point"}, "id": "ixgOMugZ7RvQyF7TTRryf8mRcPU=", "properties": {"@source_uri": "https://tools.usps.com/UspsToolsRestServices/rest/POLocator/findLocations", "@spider": "usps_collection_boxes", "addr:city": "OAKHURST", "addr:country": "US", "addr:postcode": "74050", "addr:state": "OK", "addr:street_address": "6403 W 60TH ST", "amenity": "post_box", "collection_times": "Mo-Fr 16:00; Sa 11:00", "indoor": "yes", "note": "ON 12/24 AND 12/31, THIS BOX MAY BE COLLECTED AS EARLY AS 12 NOON.", "nsi_id": "unitedstatespostalservice-a77078", "operator": "United States Postal Service", "operator:short": "USPS", "operator:type": "public", "operator:wikidata": "Q668687", "ref": "7405000003"}, "type": "Feature"}
{"geometry": {"coordinates": [-95.979812, 36.6034], "type": "Point"}, "id": "U8dcwkR5n_RZIQm5nZZrkSYKpLA=", "properties": {"@source_uri": "https://tools.usps.com/UspsToolsRestServices/rest/POLocator/findLocations", "@spider": "usps_collection_boxes", "addr:city": "OCHELATA", "addr:country": "US", "addr:postcode": "74051", "addr:state": "OK", "addr:street_address": "300 N OCHELATA ST", "amenity": "post_box", "collection_times": "Mo-Fr 15:15; Sa 10:30", "note": "ON 12/24 AND 12/31, THIS BOX MAY BE COLLECTED AS EARLY AS 12 NOON.", "nsi_id": "unitedstatespostalservice-a77078", "operator": "United States Postal Service", "operator:short": "USPS", "operator:type": "public", "operator:wikidata": "Q668687", "ref": "7405100000"}, "type": "Feature"}
{"geometry": {"coordinates": [-95.979812, 36.6034], "type": "Point"}, "id": "AGVJ1GJoh_5reASztPntQrSESpA=", "properties": {"@source_uri": "https://tools.usps.com/UspsToolsRestServices/rest/POLocator/findLocations", "@spider": "usps_collection_boxes", "addr:city": "OCHELATA", "addr:country": "US", "addr:postcode": "74051", "addr:state": "OK", "addr:street_address": "300 N OCHELATA ST", "amenity": "post_box", "collection_times": "Mo-Fr 15:15; Sa 10:30", "indoor": "yes", "note": "ON 12/24 AND 12/31, THIS BOX MAY BE COLLECTED AS EARLY AS 12 NOON.", "nsi_id": "unitedstatespostalservice-a77078", "operator": "United States Postal Service", "operator:short": "USPS", "operator:type": "public", "operator:wikidata": "Q668687", "ref": "7405100001"}, "type": "Feature"}
{"geometry": {"coordinates": [-95.979812, 36.6034], "type": "Point"}, "id": "BpZ1y6nBPqEEErdqaAFQQI1UogA=", "properties": {"@source_uri": "https://tools.usps.com/UspsToolsRestServices/rest/POLocator/findLocations", "@spider": "usps_collection_boxes", "addr:city": "OCHELATA", "addr:country": "US", "addr:postcode": "74051", "addr:state": "OK", "addr:street_address": "300 N OCHELATA ST", "amenity": "post_box", "collection_times": "Mo-Fr 15:15; Sa 10:30", "indoor": "yes", "note": "ON 12/24 AND 12/31, THIS BOX MAY BE COLLECTED AS EARLY AS 12 NOON.", "nsi_id": "unitedstatespostalservice-a77078", "operator": "United States Postal Service", "operator:short": "USPS", "operator:type": "public", "operator:wikidata": "Q668687", "ref": "7405100002"}, "type": "Feature"}
{"geometry": {"coordinates": [-95.979793992, 36.603362812], "type": "Point"}, "id": "Zz8dNrNrylpTzFKqzKn1bMJ7p1U=", "properties": {"@source_uri": "https://tools.usps.com/UspsToolsRestServices/rest/POLocator/findLocations", "@spider": "usps_collection_boxes", "addr:city": "OCHELATA", "addr:country": "US", "addr:postcode": "74051", "addr:state": "OK", "addr:street_address": "300 N OCHELATA ST", "amenity": "post_box", "collection_times": "Mo-Fr 15:15", "indoor": "yes", "note": "ON 12/24 AND 12/31, THIS BOX MAY BE COLLECTED AS EARLY AS 12 NOON.", "nsi_id": "unitedstatespostalservice-a77078", "operator": "United States Postal Service", "operator:short": "USPS", "operator:type": "public", "operator:wikidata": "Q668687", "ref": "7405100003"}, "type": "Feature"}
{"geometry": {"coordinates": [-96.585674, 36.086331], "type": "Point"}, "id": "dmZL3lWc8tW0_-DW3evR0J6JtYo=", "properties": {"@source_uri": "https://tools.usps.com/UspsToolsRestServices/rest/POLocator/findLocations", "@spider": "usps_collection_boxes", "addr:city": "OILTON", "addr:country": "US", "addr:postcode": "74052", "addr:state": "OK", "addr:street_address": "101 E MAIN ST", "amenity": "post_box", "collection_times": "Mo-Fr 16:00; Sa 10:00", "indoor": "yes", "note": "ON 12/24 AND 12/31, THIS BOX MAY BE COLLECTED AS EARLY AS 12 NOON.", "nsi_id": "unitedstatespostalservice-a77078", "operator": "United States Postal Service", "operator:short": "USPS", "operator:type": "public", "operator:wikidata": "Q668687", "ref": "7405200001"}, "type": "Feature"}
{"geometry": {"coordinates": [-96.585674, 36.086331], "type": "Point"}, "id": "REbGoy4oUjCXI2hD_c6d1emjA4Y=", "properties": {"@source_uri": "https://tools.usps.com/UspsToolsRestServices/rest/POLocator/findLocations", "@spider": "usps_collection_boxes", "addr:city": "OILTON", "addr:country": "US", "addr:postcode": "74052", "addr:state": "OK", "addr:street_address": "101 E MAIN ST", "amenity": "post_box", "collection_times": "Mo-Fr 16:00; Sa 10:00", "indoor": "yes", "note": "ON 12/24 AND 12/31, THIS BOX MAY BE COLLECTED AS EARLY AS 12 NOON.", "nsi_id": "unitedstatespostalservice-a77078", "operator": "United States Postal Service", "operator:short": "USPS", "operator:type": "public", "operator:wikidata": "Q668687", "ref": "7405200003"}, "type": "Feature"}
{"geometry": {"coordinates": [-96.585610668, 36.086390488], "type": "Point"}, "id": "ppBBJWpSk_f1q4kw1m0duvN3AAI=", "properties": {"@source_uri": "https://tools.usps.com/UspsToolsRestServices/rest/POLocator/findLocations", "@spider": "usps_collection_boxes", "addr:city": "OILTON", "addr:country": "US", "addr:postcode": "74052", "addr:state": "OK", "addr:street_address": "101 E MAIN ST", "amenity": "post_box", "collection_times": "Mo-Fr 16:00; Sa 10:00", "indoor": "yes", "note": "ON 12/24 AND 12/31, THIS BOX MAY BE COLLECTED AS EARLY AS 12 NOON.", "nsi_id": "unitedstatespostalservice-a77078", "operator": "United States Postal Service", "operator:short": "USPS", "operator:type": "public", "operator:wikidata": "Q668687", "ref": "7405200004"}, "type": "Feature"}
{"geometry": {"coordinates": [-95.70937, 36.447257], "type": "Point"}, "id": "oXDA2SQLlkMJrNfYL180jdhKbUY=", "properties": {"@source_uri": "https://tools.usps.com/UspsToolsRestServices/rest/POLocator/findLocations", "@spider": "usps_collection_boxes", "addr:city": "OOLOGAH", "addr:country": "US", "addr:postcode": "74053", "addr:state": "OK", "addr:street_address": "150 W COOWEESCOOWEE AVE", "amenity": "post_box", "collection_times": "Mo-Fr 16:30; Sa 09:30", "note": "ON 12/24 AND 12/31, THIS BOX MAY BE COLLECTED AS EARLY AS 12 NOON.", "nsi_id": "unitedstatespostalservice-a77078", "operator": "United States Postal Service", "operator:short": "USPS", "operator:type": "public", "operator:wikidata": "Q668687", "ref": "7405300000"}, "type": "Feature"}
{"geometry": {"coordinates": [-95.70937, 36.447257], "type": "Point"}, "id": "KL7s4W-zQW0TQWa-glgFHz8bod8=", "properties": {"@source_uri": "https://tools.usps.com/UspsToolsRestServices/rest/POLocator/findLocations", "@spider": "usps_collection_boxes", "addr:city": "OOLOGAH", "addr:country": "US", "addr:postcode": "74053", "addr:state": "OK", "addr:street_address": "150 W COOWEESCOOWEE AVE", "amenity": "post_box", "collection_times": "Mo-Fr 16:30; Sa 09:30", "indoor": "yes", "note": "ON 12/24 AND 12/31, THIS BOX MAY BE COLLECTED AS EARLY AS 12 NOON.", "nsi_id": "unitedstatespostalservice-a77078", "operator": "United States Postal Service", "operator:short": "USPS", "operator:type": "public", "operator:wikidata": "Q668687", "ref": "7405300001"}, "type": "Feature"}
{"geometry": {"coordinates": [-95.709439886, 36.447257439], "type": "Point"}, "id": "rJeuP0rZRQ6HzAE48Yvnn49oMyA=", "properties": {"@source_uri": "https://tools.usps.com/UspsToolsRestServices/rest/POLocator/findLocations", "@spider": "usps_collection_boxes", "addr:city": "OOLOGAH", "addr:country": "US", "addr:postcode": "74053", "addr:state": "OK", "addr:street_address": "150 W COOWEESCOOWEE AVE", "amenity": "post_box", "collection_times": "Mo-Fr 16:30", "indoor": "yes", "note": "ON 12/24 AND 12/31, THIS BOX MAY BE COLLECTED AS EARLY AS 12 NOON.", "nsi_id": "unitedstatespostalservice-a77078", "operator": "United States Postal Service", "operator:short": "USPS", "operator:type": "public", "operator:wikidata": "Q668687", "ref": "7405300003"}, "type": "Feature"}
{"geometry": {"coordinates": [-96.416055, 36.290744], "type": "Point"}, "id": "gicFb5f0T3uioY5JdWZO0qML2Ow=", "properties": {"@source_uri": "https://tools.usps.com/UspsToolsRestServices/rest/POLocator/findLocations", "@spider": "usps_collection_boxes", "addr:city": "OSAGE", "addr:country": "US", "addr:postcode": "74054", "addr:state": "OK", "addr:street_address": "101 S BROADWAY", "amenity": "post_box", "collection_times": "Mo-Fr 11:15; Sa 10:00", "indoor": "yes", "nsi_id": "unitedstatespostalservice-a77078", "operator": "United States Postal Service", "operator:short": "USPS", "operator:type": "public", "operator:wikidata": "Q668687", "ref": "7405400001"}, "type": "Feature"}
{"geometry": {"coordinates": [-96.416081891, 36.290760572], "type": "Point"}, "id": "GBgBJcaC4yJ1Hn44qCh12u4kgTo=", "properties": {"@source_uri": "https://tools.usps.com/UspsToolsRestServices/rest/POLocator/findLocations", "@spider": "usps_collection_boxes", "addr:city": "OSAGE", "addr:country": "US", "addr:postcode": "74054", "addr:state": "OK", "addr:street_address": "101 S BROADWAY", "amenity": "post_box", "collection_times": "Mo-Fr 11:30; Sa 10:00", "indoor": "yes", "nsi_id": "unitedstatespostalservice-a77078", "operator": "United States Postal Service", "operator:short": "USPS", "operator:type": "public", "operator:wikidata": "Q668687", "ref": "7405400002"}, "type": "Feature"}
{"geometry": {"coordinates": [-95.8510400242, 36.2800080032], "type": "Point"}, "id": "P1r9FrlQn7D8y443uSsQyUMfvbU=", "properties": {"@source_uri": "https://tools.usps.com/UspsToolsRestServices/rest/POLocator/findLocations", "@spider": "usps_collection_boxes", "addr:city": "OWASSO", "addr:country": "US", "addr:postcode": "74055", "addr:state": "OK", "addr:street_address": "1233 N CEDAR ST", "amenity": "post_box", "collection_times": "Mo-Fr 17:00; Sa 15:00", "note": "ON 12/24 AND 12/31, THIS BOX MAY BE COLLECTED AS EARLY AS 12 NOON.", "nsi_id": "unitedstatespostalservice-a77078", "operator": "United States Postal Service", "operator:short": "USPS", "operator:type": "public", "operator:wikidata": "Q668687", "ref": "7405500005"}, "type": "Feature"}
{"geometry": {"coordinates": [-95.851386, 36.279454], "type": "Point"}, "id": "kDSM7HUw2D8ztsG5ZBKe2T_Zv-c=", "properties": {"@source_uri": "https://tools.usps.com/UspsToolsRestServices/rest/POLocator/findLocations", "@spider": "usps_collection_boxes", "addr:city": "OWASSO", "addr:country": "US", "addr:postcode": "74055", "addr:state": "OK", "addr:street_address": "1233 N CEDAR ST", "amenity": "post_box", "collection_times": "Mo-Fr 16:45; Sa 15:00", "indoor": "yes", "note": "ON 12/24 AND 12/31, THIS BOX MAY BE COLLECTED AS EARLY AS 12 NOON.", "nsi_id": "unitedstatespostalservice-a77078", "operator": "United States Postal Service", "operator:short": "USPS", "operator:type": "public", "operator:wikidata": "Q668687", "ref": "7405500006"}, "type": "Feature"}
{"geometry": {"coordinates": [-95.851386, 36.279454], "type": "Point"}, "id": "8z0ebf2--dkosSXxUEOvF9APkHQ=", "properties": {"@source_uri": "https://tools.usps.com/UspsToolsRestServices/rest/POLocator/findLocations", "@spider": "usps_collection_boxes", "addr:city": "OWASSO", "addr:country": "US", "addr:postcode": "74055", "addr:state": "OK", "addr:street_address": "1233 N CEDAR ST", "amenity": "post_box", "collection_times": "Mo-Fr 16:45; Sa 15:00", "indoor": "yes", "note": "ON 12/24 AND 12/31, THIS BOX MAY BE COLLECTED AS EARLY AS 12 NOON.", "nsi_id": "unitedstatespostalservice-a77078", "operator": "United States Postal Service", "operator:short": "USPS", "operator:type": "public", "operator:wikidata": "Q668687", "ref": "7405500007"}, "type": "Feature"}
{"geometry": {"coordinates": [-95.851386, 36.279454], "type": "Point"}, "id": "YC34dR1YItRPtfvWlhDLz9mai4M=", "properties": {"@source_uri": "https://tools.usps.com/UspsToolsRestServices/rest/POLocator/findLocations", "@spider": "usps_collection_boxes", "addr:city": "OWASSO", "addr:country": "US", "addr:postcode": "74055", "addr:state": "OK", "addr:street_address": "1233 N CEDAR ST", "amenity": "post_box", "collection_times": "Mo-Fr 16:45; Sa 15:00", "name": "USPS COLLECTION BOX - APC", "note": "ON 12/24 AND 12/31, THIS BOX MAY BE COLLECTED AS EARLY AS 12 NOON.", "nsi_id": "unitedstatespostalservice-a77078", "operator": "United States Postal Service", "operator:short": "USPS", "operator:type": "public", "operator:wikidata": "Q668687", "ref": "7405500008"}, "type": "Feature"}
{"geometry": {"coordinates": [-95.8519651073, 36.2640973543], "type": "Point"}, "id": "KE7sz7HsL9RBpteg_MAaHEbr5cE=", "properties": {"@source_uri": "https://tools.usps.com/UspsToolsRestServices/rest/POLocator/findLocations", "@spider": "usps_collection_boxes", "addr:city": "OWASSO", "addr:country": "US", "addr:postcode": "74055", "addr:state": "OK", "addr:street_address": "401 E 2ND AVE", "amenity": "post_box", "collection_times": "Mo-Fr 16:15; Sa 12:00", "note": "ON 12/24 AND 12/31, THIS BOX MAY BE COLLECTED AS EARLY AS 12 NOON.", "nsi_id": "unitedstatespostalservice-a77078", "operator": "United States Postal Service", "operator:short": "USPS", "operator:type": "public", "operator:wikidata": "Q668687", "ref": "7405500009"}, "type": "Feature"}
{"geometry": {"coordinates": [-95.8324498933, 36.2784946286], "type": "Point"}, "id": "M4Mf54NnZO0QE3Vg3gzSlRd22g8=", "properties": {"@source_uri": "https://tools.usps.com/UspsToolsRestServices/rest/POLocator/findLocations", "@spider": "usps_collection_boxes", "addr:city": "OWASSO", "addr:country": "US", "addr:postcode": "74055", "addr:state": "OK", "addr:street_address": "12720 E 86TH ST N", "amenity": "post_box", "collection_times": "Mo-Fr 16:15; Sa 12:00", "note": "ON 12/24 AND 12/31, THIS BOX MAY BE COLLECTED AS EARLY AS 12 NOON.", "nsi_id": "unitedstatespostalservice-a77078", "operator": "United States Postal Service", "operator:short": "USPS", "operator:type": "public", "operator:wikidata": "Q668687", "ref": "7405500010"}, "type": "Feature"}
{"geometry": {"coordinates": [-95.8337799, 36.298167], "type": "Point"}, "id": "sQMEgpRXbrex16YF6VstJ7ZCRF0=", "properties": {"@source_uri": "https://tools.usps.com/UspsToolsRestServices/rest/POLocator/findLocations", "@spider": "usps_collection_boxes", "addr:city": "OWASSO", "addr:country": "US", "addr:postcode": "74055", "addr:state": "OK", "addr:street_address": "12451 E 100TH ST N", "amenity": "post_box", "collection_times": "Mo-Fr 16:30; Sa 12:15", "note": "ON 12/24 AND 12/31, THIS BOX MAY BE COLLECTED AS EARLY AS 12 NOON.", "nsi_id": "unitedstatespostalservice-a77078", "operator": "United States Postal Service", "operator:short": "USPS", "operator:type": "public", "operator:wikidata": "Q668687", "ref": "7405500011"}, "type": "Feature"}
{"geometry": {"coordinates": [-95.851387888, 36.279918], "type": "Point"}, "id": "t4aK9WNofvtiQ0lBGNg4hcK-fN8=", "properties": {"@source_uri": "https://tools.usps.com/UspsToolsRestServices/rest/POLocator/findLocations", "@spider": "usps_collection_boxes", "addr:city": "OWASSO", "addr:country": "US", "addr:postcode": "74055", "addr:state": "OK", "addr:street_address": "1233 N CEDAR ST", "amenity": "post_box", "collection_times": "Mo-Fr 17:00; Sa 12:00", "indoor": "yes", "note": "ON 12/24 AND 12/31, THIS BOX MAY BE COLLECTED AS EARLY AS 12 NOON.", "nsi_id": "unitedstatespostalservice-a77078", "operator": "United States Postal Service", "operator:short": "USPS", "operator:type": "public", "operator:wikidata": "Q668687", "ref": "7405500016"}, "type": "Feature"}
{"geometry": {"coordinates": [-96.3403904, 36.663488], "type": "Point"}, "id": "yqX74taqK0e9-uuh7Y-p8LIFXXs=", "properties": {"@source_uri": "https://tools.usps.com/UspsToolsRestServices/rest/POLocator/findLocations", "@spider": "usps_collection_boxes", "addr:city": "PAWHUSKA", "addr:country": "US", "addr:postcode": "74056", "addr:state": "OK", "addr:street_address": "100 W MAIN ST", "amenity": "post_box", "collection_times": "Mo-Sa 09:30", "nsi_id": "unitedstatespostalservice-a77078", "operator": "United States Postal Service", "operator:short": "USPS", "operator:type": "public", "operator:wikidata": "Q668687", "ref": "7405600002"}, "type": "Feature"}
{"geometry": {"coordinates": [-96.338069, 36.664338], "type": "Point"}, "id": "BEsjJfHYg-n6YzEQoh_poHLUD38=", "properties": {"@source_uri": "https://tools.usps.com/UspsToolsRestServices/rest/POLocator/findLocations", "@spider": "usps_collection_boxes", "addr:city": "PAWHUSKA", "addr:country": "US", "addr:postcode": "74056", "addr:state": "OK", "addr:street_address": "137 E 6TH ST", "amenity": "post_box", "collection_times": "Mo-Fr 16:30; Sa 10:00", "note": "ON 12/24 AND 12/31, THIS BOX MAY BE COLLECTED AS EARLY AS 12 NOON.", "nsi_id": "unitedstatespostalservice-a77078", "operator": "United States Postal Service", "operator:short": "USPS", "operator:type": "public", "operator:wikidata": "Q668687", "ref": "7405600005"}, "type": "Feature"}
{"geometry": {"coordinates": [-96.3410791, 36.66499], "type": "Point"}, "id": "9eNVnqdKUOL2ha_fqhfNf9zql7Y=", "properties": {"@source_uri": "https://tools.usps.com/UspsToolsRestServices/rest/POLocator/findLocations", "@spider": "usps_collection_boxes", "addr:city": "PAWHUSKA", "addr:country": "US", "addr:postcode": "74056", "addr:state": "OK", "addr:street_address": "600 GRANDVIEW AVE", "amenity": "post_box", "collection_times": "Mo-Fr 15:30; Sa 09:30", "note": "ON 12/24 AND 12/31, THIS BOX MAY BE COLLECTED AS EARLY AS 12 NOON.", "nsi_id": "unitedstatespostalservice-a77078", "operator": "United States Postal Service", "operator:short": "USPS", "operator:type": "public", "operator:wikidata": "Q668687", "ref": "7405600006"}, "type": "Feature"}
{"geometry": {"coordinates": [-96.338069, 36.664338], "type": "Point"}, "id": "NxDYAt8go-pwwykuIMjP-OqRyIQ=", "properties": {"@source_uri": "https://tools.usps.com/UspsToolsRestServices/rest/POLocator/findLocations", "@spider": "usps_collection_boxes", "addr:city": "PAWHUSKA", "addr:country": "US", "addr:postcode": "74056", "addr:state": "OK", "addr:street_address": "137 E 6TH ST", "amenity": "post_box", "collection_times": "Mo-Fr 16:30; Sa 10:00", "indoor": "yes", "note": "ON 12/24 AND 12/31, THIS BOX MAY BE COLLECTED AS EARLY AS 12 NOON.", "nsi_id": "unitedstatespostalservice-a77078", "operator": "United States Postal Service", "operator:short": "USPS", "operator:type": "public", "operator:wikidata": "Q668687", "ref": "7405600008"}, "type": "Feature"}
{"geometry": {"coordinates": [-96.338069, 36.664338], "type": "Point"}, "id": "C_tcMJ4TgJwREghEbXP6rVJp6-g=", "properties": {"@source_uri": "https://tools.usps.com/UspsToolsRestServices/rest/POLocator/findLocations", "@spider": "usps_collection_boxes", "addr:city": "PAWHUSKA", "addr:country": "US", "addr:postcode": "74056", "addr:state": "OK", "addr:street_address": "137 E 6TH ST", "amenity": "post_box", "collection_times": "Mo-Fr 16:30; Sa 10:00", "indoor": "yes", "note": "ON 12/24 AND 12/31, THIS BOX MAY BE COLLECTED AS EARLY AS 12 NOON.", "nsi_id": "unitedstatespostalservice-a77078", "operator": "United States Postal Service", "operator:short": "USPS", "operator:type": "public", "operator:wikidata": "Q668687", "ref": "7405600009"}, "type": "Feature"}
{"geometry": {"coordinates": [-96.338068413, 36.664336381], "type": "Point"}, "id": "VlRfjciP1ZShVfjZRl8aGGZbso8=", "properties": {"@source_uri": "https://tools.usps.com/UspsToolsRestServices/rest/POLocator/findLocations", "@spider": "usps_collection_boxes", "addr:city": "PAWHUSKA", "addr:country": "US", "addr:postcode": "74056", "addr:state": "OK", "addr:street_address": "137 E 6TH ST", "amenity": "post_box", "collection_times": "Mo-Fr 16:30", "indoor": "yes", "note": "ON 12/24 AND 12/31, THIS BOX MAY BE COLLECTED AS EARLY AS 12 NOON.", "nsi_id": "unitedstatespostalservice-a77078", "operator": "United States Postal Service", "operator:short": "USPS", "operator:type": "public", "operator:wikidata": "Q668687", "ref": "7405600012"}, "type": "Feature"}
{"geometry": {"coordinates": [-96.805412, 36.339137], "type": "Point"}, "id": "thacS2rt4LOGM9HaNOcHjE-EhTE=", "properties": {"@source_uri": "https://tools.usps.com/UspsToolsRestServices/rest/POLocator/findLocations", "@spider": "usps_collection_boxes", "addr:city": "PAWNEE", "addr:country": "US", "addr:postcode": "74058", "addr:state": "OK", "addr:street_address": "658 ILLINOIS ST", "amenity": "post_box", "collection_times": "Mo-Fr 16:15; Sa 12:00", "note": "ON 12/24 AND 12/31, THIS BOX MAY BE COLLECTED AS EARLY AS 12 NOON.", "nsi_id": "unitedstatespostalservice-a77078", "operator": "United States Postal Service", "operator:short": "USPS", "operator:type": "public", "operator:wikidata": "Q668687", "ref": "7405800003"}, "type": "Feature"}
{"geometry": {"coordinates": [-96.805412, 36.339137], "type": "Point"}, "id": "irc1Q1uT0LOCjmKx2-TaEK9lZvU=", "properties": {"@source_uri": "https://tools.usps.com/UspsToolsRestServices/rest/POLocator/findLocations", "@spider": "usps_collection_boxes", "addr:city": "PAWNEE", "addr:country": "US", "addr:postcode": "74058", "addr:state": "OK", "addr:street_address": "658 ILLINOIS ST", "amenity": "post_box", "collection_times": "Mo-Fr 16:15; Sa 12:00", "indoor": "yes", "note": "ON 12/24 AND 12/31, THIS BOX MAY BE COLLECTED AS EARLY AS 12 NOON.", "nsi_id": "unitedstatespostalservice-a77078", "operator": "United States Postal Service", "operator:short": "USPS", "operator:type": "public", "operator:wikidata": "Q668687", "ref": "7405800005"}, "type": "Feature"}
{"geometry": {"coordinates": [-96.805412, 36.339137], "type": "Point"}, "id": "Rt63ZkHLsnwEEHrJeIDtm4s4OXc=", "properties": {"@source_uri": "https://tools.usps.com/UspsToolsRestServices/rest/POLocator/findLocations", "@spider": "usps_collection_boxes", "addr:city": "PAWNEE", "addr:country": "US", "addr:postcode": "74058", "addr:state": "OK", "addr:street_address": "658 ILLINOIS ST", "amenity": "post_box", "collection_times": "Mo-Fr 16:15; Sa 12:00", "indoor": "yes", "note": "ON 12/24 AND 12/31, THIS BOX MAY BE COLLECTED AS EARLY AS 12 NOON.", "nsi_id": "unitedstatespostalservice-a77078", "operator": "United States Postal Service", "operator:short": "USPS", "operator:type": "public", "operator:wikidata": "Q668687", "ref": "7405800006"}, "type": "Feature"}
{"geometry": {"coordinates": [-96.805413838, 36.339135504], "type": "Point"}, "id": "0RFRZU0L9Q0GNqHd-s8G-ceMcbc=", "properties": {"@source_uri": "https://tools.usps.com/UspsToolsRestServices/rest/POLocator/findLocations", "@spider": "usps_collection_boxes", "addr:city": "PAWNEE", "addr:country": "US", "addr:postcode": "74058", "addr:state": "OK", "addr:street_address": "658 ILLINOIS ST", "amenity": "post_box", "collection_times": "Mo-Fr 16:15; Sa 12:00", "indoor": "yes", "note": "ON 12/24 AND 12/31, THIS BOX MAY BE COLLECTED AS EARLY AS 12 NOON.", "nsi_id": "unitedstatespostalservice-a77078", "operator": "United States Postal Service", "operator:short": "USPS", "operator:type": "public", "operator:wikidata": "Q668687", "ref": "7405800007"}, "type": "Feature"}
{"geometry": {"coordinates": [-97.034501, 35.973013], "type": "Point"}, "id": "a9ylB7pFMF3GLq_ZSTDECqd0F5Y=", "properties": {"@source_uri": "https://tools.usps.com/UspsToolsRestServices/rest/POLocator/findLocations", "@spider": "usps_collection_boxes", "addr:city": "PERKINS", "addr:country": "US", "addr:postcode": "74059", "addr:state": "OK", "addr:street_address": "114 W STUMBO AVE", "amenity": "post_box", "collection_times": "Mo-Fr 16:30; Sa 11:00", "note": "ON 12/24 AND 12/31, THIS BOX MAY BE COLLECTED AS EARLY AS 12 NOON.", "nsi_id": "unitedstatespostalservice-a77078", "operator": "United States Postal Service", "operator:short": "USPS", "operator:type": "public", "operator:wikidata": "Q668687", "ref": "7405900000"}, "type": "Feature"}
{"geometry": {"coordinates": [-97.034501, 35.973013], "type": "Point"}, "id": "4Q9EfUKL8tm8pBlmhHsxJ9DHRfw=", "properties": {"@source_uri": "https://tools.usps.com/UspsToolsRestServices/rest/POLocator/findLocations", "@spider": "usps_collection_boxes", "addr:city": "PERKINS", "addr:country": "US", "addr:postcode": "74059", "addr:state": "OK", "addr:street_address": "114 W STUMBO AVE", "amenity": "post_box", "collection_times": "Mo-Fr 16:30; Sa 11:00", "indoor": "yes", "note": "ON 12/24 AND 12/31, THIS BOX MAY BE COLLECTED AS EARLY AS 12 NOON.", "nsi_id": "unitedstatespostalservice-a77078", "operator": "United States Postal Service", "operator:short": "USPS", "operator:type": "public", "operator:wikidata": "Q668687", "ref": "7405900001"}, "type": "Feature"}
{"geometry": {"coordinates": [-97.034501, 35.973013], "type": "Point"}, "id": "bXSj9_o3nTo9lSow_nM-se5JBH0=", "properties": {"@source_uri": "https://tools.usps.com/UspsToolsRestServices/rest/POLocator/findLocations", "@spider": "usps_collection_boxes", "addr:city": "PERKINS", "addr:country": "US", "addr:postcode": "74059", "addr:state": "OK", "addr:street_address": "114 W STUMBO AVE", "amenity": "post_box", "collection_times": "Mo-Fr 16:30; Sa 11:00", "indoor": "yes", "note": "ON 12/24 AND 12/31, THIS BOX MAY BE COLLECTED AS EARLY AS 12 NOON.", "nsi_id": "unitedstatespostalservice-a77078", "operator": "United States Postal Service", "operator:short": "USPS", "operator:type": "public", "operator:wikidata": "Q668687", "ref": "7405900002"}, "type": "Feature"}
{"geometry": {"coordinates": [-97.034502662, 35.973012492], "type": "Point"}, "id": "nb8olESZS_0ob-xBHfJWSN2zqng=", "properties": {"@source_uri": "https://tools.usps.com/UspsToolsRestServices/rest/POLocator/findLocations", "@spider": "usps_collection_boxes", "addr:city": "PERKINS", "addr:country": "US", "addr:postcode": "74059", "addr:state": "OK", "addr:street_address": "114 W STUMBO AVE", "amenity": "post_box", "collection_times": "Mo-Fr 16:15; Sa 11:00", "indoor": "yes", "note": "ON 12/24 AND 12/31, THIS BOX MAY BE COLLECTED AS EARLY AS 12 NOON.", "nsi_id": "unitedstatespostalservice-a77078", "operator": "United States Postal Service", "operator:short": "USPS", "operator:type": "public", "operator:wikidata": "Q668687", "ref": "7405900003"}, "type": "Feature"}
{"geometry": {"coordinates": [-96.271038, 36.253081], "type": "Point"}, "id": "FvvdFyfLJuLis3a8dLI5lMWOGD8=", "properties": {"@source_uri": "https://tools.usps.com/UspsToolsRestServices/rest/POLocator/findLocations", "@spider": "usps_collection_boxes", "addr:city": "PRUE", "addr:country": "US", "addr:postcode": "74060", "addr:state": "OK", "addr:street_address": "101 BROADWAY", "amenity": "post_box", "collection_times": "Mo-Fr 13:30; Sa 11:30", "indoor": "yes", "note": "ON 12/24 AND 12/31, THIS BOX MAY BE COLLECTED AS EARLY AS 12 NOON.", "nsi_id": "unitedstatespostalservice-a77078", "operator": "United States Postal Service", "operator:short": "USPS", "operator:type": "public", "operator:wikidata": "Q668687", "ref": "7406000001"}, "type": "Feature"}
{"geometry": {"coordinates": [-96.268741, 36.253046], "type": "Point"}, "id": "AQyMdwpMJM2n--VlQ7q7Kxqzo8k=", "properties": {"@source_uri": "https://tools.usps.com/UspsToolsRestServices/rest/POLocator/findLocations", "@spider": "usps_collection_boxes", "addr:city": "PRUE", "addr:country": "US", "addr:postcode": "74060", "addr:state": "OK", "addr:street_address": "101 BROADWAY", "amenity": "post_box", "collection_times": "Mo-Fr 13:30; Sa 11:30", "indoor": "yes", "note": "ON 12/24 AND 12/31, THIS BOX MAY BE COLLECTED AS EARLY AS 12 NOON.", "nsi_id": "unitedstatespostalservice-a77078", "operator": "United States Postal Service", "operator:short": "USPS", "operator:type": "public", "operator:wikidata": "Q668687", "ref": "7406000002"}, "type": "Feature"}
{"geometry": {"coordinates": [-96.267725798, 36.253084553], "type": "Point"}, "id": "HaO9pybb0Gz06lS1G8QIx_uXHrA=", "properties": {"@source_uri": "https://tools.usps.com/UspsToolsRestServices/rest/POLocator/findLocations", "@spider": "usps_collection_boxes", "addr:city": "PRUE", "addr:country": "US", "addr:postcode": "74060", "addr:state": "OK", "addr:street_address": "101 BROADWAY", "amenity": "post_box", "collection_times": "Mo-Fr 14:00; Sa 11:30", "indoor": "yes", "note": "ON 12/24 AND 12/31, THIS BOX MAY BE COLLECTED AS EARLY AS 12 NOON.", "nsi_id": "unitedstatespostalservice-a77078", "operator": "United States Postal Service", "operator:short": "USPS", "operator:type": "public", "operator:wikidata": "Q668687", "ref": "7406000004"}, "type": "Feature"}
{"geometry": {"coordinates": [-95.926078, 36.532432], "type": "Point"}, "id": "_oxEwkbBc4YrffsttCSSLJdoybA=", "properties": {"@source_uri": "https://tools.usps.com/UspsToolsRestServices/rest/POLocator/findLocations", "@spider": "usps_collection_boxes", "addr:city": "RAMONA", "addr:country": "US", "addr:postcode": "74061", "addr:state": "OK", "addr:street_address": "585 WYANDOTTE AVE", "amenity": "post_box", "collection_times": "Mo-Fr 15:15; Sa 10:30", "note": "ON 12/24 AND 12/31, THIS BOX MAY BE COLLECTED AS EARLY AS 12 NOON.", "nsi_id": "unitedstatespostalservice-a77078", "operator": "United States Postal Service", "operator:short": "USPS", "operator:type": "public", "operator:wikidata": "Q668687", "ref": "7406100000"}, "type": "Feature"}
{"geometry": {"coordinates": [-95.926078, 36.532432], "type": "Point"}, "id": "MfN55hOiUR65qKoIBGtkJm1qSGM=", "properties": {"@source_uri": "https://tools.usps.com/UspsToolsRestServices/rest/POLocator/findLocations", "@spider": "usps_collection_boxes", "addr:city": "RAMONA", "addr:country": "US", "addr:postcode": "74061", "addr:state": "OK", "addr:street_address": "585 WYANDOTTE AVE", "amenity": "post_box", "collection_times": "Mo-Fr 15:15; Sa 10:30", "indoor": "yes", "note": "ON 12/24 AND 12/31, THIS BOX MAY BE COLLECTED AS EARLY AS 12 NOON.", "nsi_id": "unitedstatespostalservice-a77078", "operator": "United States Postal Service", "operator:short": "USPS", "operator:type": "public", "operator:wikidata": "Q668687", "ref": "7406100001"}, "type": "Feature"}
{"geometry": {"coordinates": [-95.926078, 36.532432], "type": "Point"}, "id": "KmbqvBxeAvydBmZZZyTdSxjT128=", "properties": {"@source_uri": "https://tools.usps.com/UspsToolsRestServices/rest/POLocator/findLocations", "@spider": "usps_collection_boxes", "addr:city": "RAMONA", "addr:country": "US", "addr:postcode": "74061", "addr:state": "OK", "addr:street_address": "585 WYANDOTTE AVE", "amenity": "post_box", "collection_times": "Mo-Fr 15:15; Sa 10:30", "indoor": "yes", "note": "ON 12/24 AND 12/31, THIS BOX MAY BE COLLECTED AS EARLY AS 12 NOON.", "nsi_id": "unitedstatespostalservice-a77078", "operator": "United States Postal Service", "operator:short": "USPS", "operator:type": "public", "operator:wikidata": "Q668687", "ref": "7406100002"}, "type": "Feature"}
{"geometry": {"coordinates": [-95.92604589, 36.53238602], "type": "Point"}, "id": "1On3LER8WdZ9yhJlLQnim9bd_yo=", "properties": {"@source_uri": "https://tools.usps.com/UspsToolsRestServices/rest/POLocator/findLocations", "@spider": "usps_collection_boxes", "addr:city": "RAMONA", "addr:country": "US", "addr:postcode": "74061", "addr:state": "OK", "addr:street_address": "585 WYANDOTTE AVE", "amenity": "post_box", "collection_times": "Mo-Fr 15:15; Sa 09:00", "indoor": "yes", "note": "ON 12/24 AND 12/31, THIS BOX MAY BE COLLECTED AS EARLY AS 12 NOON.", "nsi_id": "unitedstatespostalservice-a77078", "operator": "United States Postal Service", "operator:short": "USPS", "operator:type": "public", "operator:wikidata": "Q668687", "ref": "7406100003"}, "type": "Feature"}
{"geometry": {"coordinates": [-96.905191, 36.019043], "type": "Point"}, "id": "g-wYvsIMlrl-NsiVfW6Odr8w9wU=", "properties": {"@source_uri": "https://tools.usps.com/UspsToolsRestServices/rest/POLocator/findLocations", "@spider": "usps_collection_boxes", "addr:city": "RIPLEY", "addr:country": "US", "addr:postcode": "74062", "addr:state": "OK", "addr:street_address": "107 E MAIN ST", "amenity": "post_box", "collection_times": "Mo-Sa 12:30", "indoor": "yes", "note": "ON 12/24 AND 12/31, THIS BOX MAY BE COLLECTED AS EARLY AS 12 NOON.", "nsi_id": "unitedstatespostalservice-a77078", "operator": "United States Postal Service", "operator:short": "USPS", "operator:type": "public", "operator:wikidata": "Q668687", "ref": "7406200001"}, "type": "Feature"}
{"geometry": {"coordinates": [-96.905191, 36.019043], "type": "Point"}, "id": "BC4LW77AFqQYjpr6aexvcyY0BEc=", "properties": {"@source_uri": "https://tools.usps.com/UspsToolsRestServices/rest/POLocator/findLocations", "@spider": "usps_collection_boxes", "addr:city": "RIPLEY", "addr:country": "US", "addr:postcode": "74062", "addr:state": "OK", "addr:street_address": "107 E MAIN ST", "amenity": "post_box", "collection_times": "Mo-Sa 12:30", "indoor": "yes", "note": "ON 12/24 AND 12/31, THIS BOX MAY BE COLLECTED AS EARLY AS 12 NOON.", "nsi_id": "unitedstatespostalservice-a77078", "operator": "United States Postal Service", "operator:short": "USPS", "operator:type": "public", "operator:wikidata": "Q668687", "ref": "7406200002"}, "type": "Feature"}
{"geometry": {"coordinates": [-96.905190777, 36.019037496], "type": "Point"}, "id": "Jboh903gCSa0fpceGPiE-eMZd-c=", "properties": {"@source_uri": "https://tools.usps.com/UspsToolsRestServices/rest/POLocator/findLocations", "@spider": "usps_collection_boxes", "addr:city": "RIPLEY", "addr:country": "US", "addr:postcode": "74062", "addr:state": "OK", "addr:street_address": "107 E MAIN ST", "amenity": "post_box", "collection_times": "Mo-Fr 12:30; Sa 12:00", "indoor": "yes", "note": "ON 12/24 AND 12/31, THIS BOX MAY BE COLLECTED AS EARLY AS 12 NOON.", "nsi_id": "unitedstatespostalservice-a77078", "operator": "United States Postal Service", "operator:short": "USPS", "operator:type": "public", "operator:wikidata": "Q668687", "ref": "7406200003"}, "type": "Feature"}
{"geometry": {"coordinates": [-96.1202815, 36.105165], "type": "Point"}, "id": "UuiRZRTYIuTxxVmmO-YEZP0jJck=", "properties": {"@source_uri": "https://tools.usps.com/UspsToolsRestServices/rest/POLocator/findLocations", "@spider": "usps_collection_boxes", "addr:city": "SAND SPRINGS", "addr:country": "US", "addr:postcode": "74063", "addr:state": "OK", "addr:street_address": "7 W 41ST ST", "amenity": "post_box", "collection_times": "Mo-Sa 09:30", "nsi_id": "unitedstatespostalservice-a77078", "operator": "United States Postal Service", "operator:short": "USPS", "operator:type": "public", "operator:wikidata": "Q668687", "ref": "7406300001"}, "type": "Feature"}
{"geometry": {"coordinates": [-96.1174969166, 36.1069528946], "type": "Point"}, "id": "pM__k0PkH9vfzJv7UqjxmQQ-mFY=", "properties": {"@source_uri": "https://tools.usps.com/UspsToolsRestServices/rest/POLocator/findLocations", "@spider": "usps_collection_boxes", "addr:city": "SAND SPRINGS", "addr:country": "US", "addr:postcode": "74063", "addr:state": "OK", "addr:street_address": "3900 S HIGHWAY 97", "amenity": "post_box", "collection_times": "Mo-Sa 10:15", "nsi_id": "unitedstatespostalservice-a77078", "operator": "United States Postal Service", "operator:short": "USPS", "operator:type": "public", "operator:wikidata": "Q668687", "ref": "7406300003"}, "type": "Feature"}
{"geometry": {"coordinates": [-96.1001836, 36.136298], "type": "Point"}, "id": "MjSNIVgtvuFM2EARW-DOUx2c0tU=", "properties": {"@source_uri": "https://tools.usps.com/UspsToolsRestServices/rest/POLocator/findLocations", "@spider": "usps_collection_boxes", "addr:city": "SAND SPRINGS", "addr:country": "US", "addr:postcode": "74063", "addr:state": "OK", "addr:street_address": "105 S ADAMS RD", "amenity": "post_box", "collection_times": "Mo-Sa 10:15", "nsi_id": "unitedstatespostalservice-a77078", "operator": "United States Postal Service", "operator:short": "USPS", "operator:type": "public", "operator:wikidata": "Q668687", "ref": "7406300009"}, "type": "Feature"}
{"geometry": {"coordinates": [-96.1331339, 36.104534], "type": "Point"}, "id": "qZ3O-ANmS_O4RGKW3OEPj6my8BU=", "properties": {"@source_uri": "https://tools.usps.com/UspsToolsRestServices/rest/POLocator/findLocations", "@spider": "usps_collection_boxes", "addr:city": "SAND SPRINGS", "addr:country": "US", "addr:postcode": "74063", "addr:state": "OK", "addr:street_address": "606 W 41ST ST", "amenity": "post_box", "collection_times": "Mo-Fr 14:00; Sa 10:00", "note": "ON 12/24 AND 12/31, THIS BOX MAY BE COLLECTED AS EARLY AS 12 NOON.", "nsi_id": "unitedstatespostalservice-a77078", "operator": "United States Postal Service", "operator:short": "USPS", "operator:type": "public", "operator:wikidata": "Q668687", "ref": "7406300011"}, "type": "Feature"}
{"geometry": {"coordinates": [-96.111752, 36.138401], "type": "Point"}, "id": "tD4i53d2pYhDzhjL3Q_E5OouRWg=", "properties": {"@source_uri": "https://tools.usps.com/UspsToolsRestServices/rest/POLocator/findLocations", "@spider": "usps_collection_boxes", "addr:city": "SAND SPRINGS", "addr:country": "US", "addr:postcode": "74063", "addr:state": "OK", "addr:street_address": "114 W 2ND ST", "amenity": "post_box", "collection_times": "Mo-Fr 17:00; Sa 15:30", "note": "ON 12/24 AND 12/31, THIS BOX MAY BE COLLECTED AS EARLY AS 12 NOON.", "nsi_id": "unitedstatespostalservice-a77078", "operator": "United States Postal Service", "operator:short": "USPS", "operator:type": "public", "operator:wikidata": "Q668687", "ref": "7406300015"}, "type": "Feature"}
{"geometry": {"coordinates": [-96.111752, 36.138401], "type": "Point"}, "id": "CxZyOJnPU6NkU0VfEGCvPHr5Hyk=", "properties": {"@source_uri": "https://tools.usps.com/UspsToolsRestServices/rest/POLocator/findLocations", "@spider": "usps_collection_boxes", "addr:city": "SAND SPRINGS", "addr:country": "US", "addr:postcode": "74063", "addr:state": "OK", "addr:street_address": "114 W 2ND ST", "amenity": "post_box", "collection_times": "Mo-Fr 17:00; Sa 15:30", "indoor": "yes", "note": "ON 12/24 AND 12/31, THIS BOX MAY BE COLLECTED AS EARLY AS 12 NOON.", "nsi_id": "unitedstatespostalservice-a77078", "operator": "United States Postal Service", "operator:short": "USPS", "operator:type": "public", "operator:wikidata": "Q668687", "ref": "7406300024"}, "type": "Feature"}
{"geometry": {"coordinates": [-96.111752, 36.138401], "type": "Point"}, "id": "1QmQ37xGYwGp2OXODUA4T7w9pww=", "properties": {"@source_uri": "https://tools.usps.com/UspsToolsRestServices/rest/POLocator/findLocations", "@spider": "usps_collection_boxes", "addr:city": "SAND SPRINGS", "addr:country": "US", "addr:postcode": "74063", "addr:state": "OK", "addr:street_address": "114 W 2ND ST", "amenity": "post_box", "collection_times": "Mo-Fr 17:00; Sa 15:30", "indoor": "yes", "note": "ON 12/24 AND 12/31, THIS BOX MAY BE COLLECTED AS EARLY AS 12 NOON.", "nsi_id": "unitedstatespostalservice-a77078", "operator": "United States Postal Service", "operator:short": "USPS", "operator:type": "public", "operator:wikidata": "Q668687", "ref": "7406300025"}, "type": "Feature"}
{"geometry": {"coordinates": [-96.112404, 36.138390499], "type": "Point"}, "id": "Qr0eE43y7D1CLBm6ZJyZjSiLhk4=", "properties": {"@source_uri": "https://tools.usps.com/UspsToolsRestServices/rest/POLocator/findLocations", "@spider": "usps_collection_boxes", "addr:city": "SAND SPRINGS", "addr:country": "US", "addr:postcode": "74063", "addr:state": "OK", "addr:street_address": "114 W 2ND ST", "amenity": "post_box", "collection_times": "Mo-Fr 17:00", "indoor": "yes", "note": "ON 12/24 AND 12/31, THIS BOX MAY BE COLLECTED AS EARLY AS 12 NOON.", "nsi_id": "unitedstatespostalservice-a77078", "operator": "United States Postal Service", "operator:short": "USPS", "operator:type": "public", "operator:wikidata": "Q668687", "ref": "7406300028"}, "type": "Feature"}
{"geometry": {"coordinates": [-96.0982394, 35.989811], "type": "Point"}, "id": "AAis1oFNqSJ0WMyQkPIyl2asZM0=", "properties": {"@source_uri": "https://tools.usps.com/UspsToolsRestServices/rest/POLocator/findLocations", "@spider": "usps_collection_boxes", "addr:city": "SAPULPA", "addr:country": "US", "addr:postcode": "74066", "addr:state": "OK", "addr:street_address": "735 S MISSION ST", "amenity": "post_box", "collection_times": "Mo-Sa 09:30", "nsi_id": "unitedstatespostalservice-a77078", "operator": "United States Postal Service", "operator:short": "USPS", "operator:type": "public", "operator:wikidata": "Q668687", "ref": "7406600005"}, "type": "Feature"}
{"geometry": {"coordinates": [-96.098839034, 36.002655031], "type": "Point"}, "id": "PwAmIz7a14ipHaxsJuuPgMWO9bM=", "properties": {"@source_uri": "https://tools.usps.com/UspsToolsRestServices/rest/POLocator/findLocations", "@spider": "usps_collection_boxes", "addr:city": "SAPULPA", "addr:country": "US", "addr:postcode": "74066", "addr:state": "OK", "addr:street_address": "309 N MISSION ST", "amenity": "post_box", "collection_times": "Mo-Sa 10:00", "nsi_id": "unitedstatespostalservice-a77078", "operator": "United States Postal Service", "operator:short": "USPS", "operator:type": "public", "operator:wikidata": "Q668687", "ref": "7406600006"}, "type": "Feature"}
{"geometry": {"coordinates": [-96.1082799, 35.999758], "type": "Point"}, "id": "PCB2NObowz4C1L7-kZOj8f29u0Y=", "properties": {"@source_uri": "https://tools.usps.com/UspsToolsRestServices/rest/POLocator/findLocations", "@spider": "usps_collection_boxes", "addr:city": "SAPULPA", "addr:country": "US", "addr:postcode": "74066", "addr:state": "OK", "addr:street_address": "400 E HOBSON AVE", "amenity": "post_box", "collection_times": "Mo-Sa 09:00", "nsi_id": "unitedstatespostalservice-a77078", "operator": "United States Postal Service", "operator:short": "USPS", "operator:type": "public", "operator:wikidata": "Q668687", "ref": "7406600008"}, "type": "Feature"}
{"geometry": {"coordinates": [-96.1095272, 35.997747], "type": "Point"}, "id": "RUZSweRbDL4HqNWsKAGIet9s22w=", "properties": {"@source_uri": "https://tools.usps.com/UspsToolsRestServices/rest/POLocator/findLocations", "@spider": "usps_collection_boxes", "addr:city": "SAPULPA", "addr:country": "US", "addr:postcode": "74066", "addr:state": "OK", "addr:street_address": "301 E LEE AVE", "amenity": "post_box", "collection_times": "Mo-Sa 09:00", "nsi_id": "unitedstatespostalservice-a77078", "operator": "United States Postal Service", "operator:short": "USPS", "operator:type": "public", "operator:wikidata": "Q668687", "ref": "7406600009"}, "type": "Feature"}
{"geometry": {"coordinates": [-96.1113938, 35.99764], "type": "Point"}, "id": "p-HBvRbE4-fd5G7VZcl9GGJ__2k=", "properties": {"@source_uri": "https://tools.usps.com/UspsToolsRestServices/rest/POLocator/findLocations", "@spider": "usps_collection_boxes", "addr:city": "SAPULPA", "addr:country": "US", "addr:postcode": "74066", "addr:state": "OK", "addr:street_address": "201 E LEE AVE", "amenity": "post_box", "collection_times": "Mo-Sa 09:00", "nsi_id": "unitedstatespostalservice-a77078", "operator": "United States Postal Service", "operator:short": "USPS", "operator:type": "public", "operator:wikidata": "Q668687", "ref": "7406600010"}, "type": "Feature"}
{"geometry": {"coordinates": [-96.114056, 35.993927], "type": "Point"}, "id": "TI-gKkzCmaFXJz9uBzzB8i7Hiwo=", "properties": {"@source_uri": "https://tools.usps.com/UspsToolsRestServices/rest/POLocator/findLocations", "@spider": "usps_collection_boxes", "addr:city": "SAPULPA", "addr:country": "US", "addr:postcode": "74066", "addr:state": "OK", "addr:street_address": "410 S MAIN ST", "amenity": "post_box", "collection_times": "Mo-Fr 17:00; Sa 14:15", "indoor": "yes", "note": "ON 12/24 AND 12/31, THIS BOX MAY BE COLLECTED AS EARLY AS 12 NOON.", "nsi_id": "unitedstatespostalservice-a77078", "operator": "United States Postal Service", "operator:short": "USPS", "operator:type": "public", "operator:wikidata": "Q668687", "ref": "7406600014"}, "type": "Feature"}
{"geometry": {"coordinates": [-96.1145999, 35.99391], "type": "Point"}, "id": "B7r9DgGGaME61FtHmLf534B2lxQ=", "properties": {"@source_uri": "https://tools.usps.com/UspsToolsRestServices/rest/POLocator/findLocations", "@spider": "usps_collection_boxes", "addr:city": "SAPULPA", "addr:country": "US", "addr:postcode": "74066", "addr:state": "OK", "addr:street_address": "410 S MAIN ST", "amenity": "post_box", "collection_times": "Mo-Fr 17:00; Sa 14:15", "indoor": "yes", "note": "ON 12/24 AND 12/31, THIS BOX MAY BE COLLECTED AS EARLY AS 12 NOON.", "nsi_id": "unitedstatespostalservice-a77078", "operator": "United States Postal Service", "operator:short": "USPS", "operator:type": "public", "operator:wikidata": "Q668687", "ref": "7406600015"}, "type": "Feature"}
{"geometry": {"coordinates": [-96.114056, 35.993927], "type": "Point"}, "id": "yiCcAhLAoqJafgGjX8kk2clRtj8=", "properties": {"@source_uri": "https://tools.usps.com/UspsToolsRestServices/rest/POLocator/findLocations", "@spider": "usps_collection_boxes", "addr:city": "SAPULPA", "addr:country": "US", "addr:postcode": "74066", "addr:state": "OK", "addr:street_address": "410 S MAIN ST", "amenity": "post_box", "collection_times": "Mo-Fr 17:00; Sa 14:15", "note": "ON 12/24 AND 12/31, THIS BOX MAY BE COLLECTED AS EARLY AS 12 NOON.", "nsi_id": "unitedstatespostalservice-a77078", "operator": "United States Postal Service", "operator:short": "USPS", "operator:type": "public", "operator:wikidata": "Q668687", "ref": "7406600017"}, "type": "Feature"}
{"geometry": {"coordinates": [-96.1105516661, 35.9986675317], "type": "Point"}, "id": "XSotRNGTx0BIKMwjTykDsMAlBoU=", "properties": {"@source_uri": "https://tools.usps.com/UspsToolsRestServices/rest/POLocator/findLocations", "@spider": "usps_collection_boxes", "addr:city": "SAPULPA", "addr:country": "US", "addr:postcode": "74066", "addr:state": "OK", "addr:street_address": "222 E DEWEY AVE", "amenity": "post_box", "collection_times": "Mo-Sa 09:00", "nsi_id": "unitedstatespostalservice-a77078", "operator": "United States Postal Service", "operator:short": "USPS", "operator:type": "public", "operator:wikidata": "Q668687", "ref": "7406600020"}, "type": "Feature"}
{"geometry": {"coordinates": [-96.114056842, 35.993923795], "type": "Point"}, "id": "mu0rauGTuaCbwK0eN6kX0r9kX-w=", "properties": {"@source_uri": "https://tools.usps.com/UspsToolsRestServices/rest/POLocator/findLocations", "@spider": "usps_collection_boxes", "addr:city": "SAPULPA", "addr:country": "US", "addr:postcode": "74066", "addr:state": "OK", "addr:street_address": "410 S MAIN ST", "amenity": "post_box", "collection_times": "Mo-Fr 17:00; Sa 12:00", "indoor": "yes", "note": "ON 12/24 AND 12/31, THIS BOX MAY BE COLLECTED AS EARLY AS 12 NOON.", "nsi_id": "unitedstatespostalservice-a77078", "operator": "United States Postal Service", "operator:short": "USPS", "operator:type": "public", "operator:wikidata": "Q668687", "ref": "7406600023"}, "type": "Feature"}
{"geometry": {"coordinates": [-96.583753, 35.910274], "type": "Point"}, "id": "3GGPLIErX-gAPJqDT2q-Twp8voU=", "properties": {"@source_uri": "https://tools.usps.com/UspsToolsRestServices/rest/POLocator/findLocations", "@spider": "usps_collection_boxes", "addr:city": "SHAMROCK", "addr:country": "US", "addr:postcode": "74068", "addr:state": "OK", "addr:street_address": "108 E TIPPERARY RD", "amenity": "post_box", "collection_times": "Mo-Fr 12:30; Sa 11:30", "indoor": "yes", "note": "ON 12/24 AND 12/31, THIS BOX MAY BE COLLECTED AS EARLY AS 12 NOON.", "nsi_id": "unitedstatespostalservice-a77078", "operator": "United States Postal Service", "operator:short": "USPS", "operator:type": "public", "operator:wikidata": "Q668687", "ref": "7406800001"}, "type": "Feature"}
{"geometry": {"coordinates": [-96.583792334, 35.910224131], "type": "Point"}, "id": "vY2gENTgfDmHxTGWz1pISEBYqeI=", "properties": {"@source_uri": "https://tools.usps.com/UspsToolsRestServices/rest/POLocator/findLocations", "@spider": "usps_collection_boxes", "addr:city": "SHAMROCK", "addr:country": "US", "addr:postcode": "74068", "addr:state": "OK", "addr:street_address": "108 E TIPPERARY RD", "amenity": "post_box", "collection_times": "Mo-Fr 12:30; Sa 11:30", "indoor": "yes", "note": "ON 12/24 AND 12/31, THIS BOX MAY BE COLLECTED AS EARLY AS 12 NOON.", "nsi_id": "unitedstatespostalservice-a77078", "operator": "United States Postal Service", "operator:short": "USPS", "operator:type": "public", "operator:wikidata": "Q668687", "ref": "7406800002"}, "type": "Feature"}
{"geometry": {"coordinates": [-95.998677, 36.369529], "type": "Point"}, "id": "t2JPRt3JLinleCnZF32RND82twI=", "properties": {"@source_uri": "https://tools.usps.com/UspsToolsRestServices/rest/POLocator/findLocations", "@spider": "usps_collection_boxes", "addr:city": "SKIATOOK", "addr:country": "US", "addr:postcode": "74070", "addr:state": "OK", "addr:street_address": "303 E 2ND ST", "amenity": "post_box", "collection_times": "Mo-Fr 16:45; Sa 10:30", "note": "ON 12/24 AND 12/31, THIS BOX MAY BE COLLECTED AS EARLY AS 12 NOON.", "nsi_id": "unitedstatespostalservice-a77078", "operator": "United States Postal Service", "operator:short": "USPS", "operator:type": "public", "operator:wikidata": "Q668687", "ref": "7407000001"}, "type": "Feature"}
{"geometry": {"coordinates": [-95.998677, 36.369529], "type": "Point"}, "id": "mDl6QLgLZsMZj6BjPHWxSC-QkEU=", "properties": {"@source_uri": "https://tools.usps.com/UspsToolsRestServices/rest/POLocator/findLocations", "@spider": "usps_collection_boxes", "addr:city": "SKIATOOK", "addr:country": "US", "addr:postcode": "74070", "addr:state": "OK", "addr:street_address": "303 E 2ND ST", "amenity": "post_box", "collection_times": "Mo-Fr 16:30; Sa 14:30", "indoor": "yes", "note": "ON 12/24 AND 12/31, THIS BOX MAY BE COLLECTED AS EARLY AS 12 NOON.", "nsi_id": "unitedstatespostalservice-a77078", "operator": "United States Postal Service", "operator:short": "USPS", "operator:type": "public", "operator:wikidata": "Q668687", "ref": "7407000003"}, "type": "Feature"}
{"geometry": {"coordinates": [-95.998715952, 36.369564631], "type": "Point"}, "id": "IhiAwCo72V-1FSeSwdRi7qS0VnQ=", "properties": {"@source_uri": "https://tools.usps.com/UspsToolsRestServices/rest/POLocator/findLocations", "@spider": "usps_collection_boxes", "addr:city": "SKIATOOK", "addr:country": "US", "addr:postcode": "74070", "addr:state": "OK", "addr:street_address": "303 E 2ND ST", "amenity": "post_box", "collection_times": "Mo-Fr 16:30", "indoor": "yes", "note": "ON 12/24 AND 12/31, THIS BOX MAY BE COLLECTED AS EARLY AS 12 NOON.", "nsi_id": "unitedstatespostalservice-a77078", "operator": "United States Postal Service", "operator:short": "USPS", "operator:type": "public", "operator:wikidata": "Q668687", "ref": "7407000004"}, "type": "Feature"}
{"geometry": {"coordinates": [-96.2660493206, 35.7796978358], "type": "Point"}, "id": "knk1j6QunvLiYRMrAr1rgyvItL0=", "properties": {"@source_uri": "https://tools.usps.com/UspsToolsRestServices/rest/POLocator/findLocations", "@spider": "usps_collection_boxes", "addr:city": "SLICK", "addr:country": "US", "addr:postcode": "74071", "addr:state": "OK", "addr:street_address": "104 N COLUMBIA", "amenity": "post_box", "collection_times": "Mo-Sa 12:00", "indoor": "yes", "nsi_id": "unitedstatespostalservice-a77078", "operator": "United States Postal Service", "operator:short": "USPS", "operator:type": "public", "operator:wikidata": "Q668687", "ref": "7407100001"}, "type": "Feature"}
{"geometry": {"coordinates": [-96.2660493206, 35.7796978358], "type": "Point"}, "id": "ylkY5-zSxWIyT-OdgfOiulpZdhg=", "properties": {"@source_uri": "https://tools.usps.com/UspsToolsRestServices/rest/POLocator/findLocations", "@spider": "usps_collection_boxes", "addr:city": "SLICK", "addr:country": "US", "addr:postcode": "74071", "addr:state": "OK", "addr:street_address": "104 N COLUMBIA", "amenity": "post_box", "collection_times": "Mo-Sa 12:00", "indoor": "yes", "nsi_id": "unitedstatespostalservice-a77078", "operator": "United States Postal Service", "operator:short": "USPS", "operator:type": "public", "operator:wikidata": "Q668687", "ref": "7407100002"}, "type": "Feature"}
{"geometry": {"coordinates": [-96.26608, 35.77647], "type": "Point"}, "id": "6yvxJYzsGktc67FRURXxcQMLacY=", "properties": {"@source_uri": "https://tools.usps.com/UspsToolsRestServices/rest/POLocator/findLocations", "@spider": "usps_collection_boxes", "addr:city": "SLICK", "addr:country": "US", "addr:postcode": "74071", "addr:state": "OK", "addr:street_address": "104 N COLUMBIA", "amenity": "post_box", "collection_times": "Mo-Fr 12:30; Sa 12:00", "indoor": "yes", "note": "ON 12/24 AND 12/31, THIS BOX MAY BE COLLECTED AS EARLY AS 12 NOON.", "nsi_id": "unitedstatespostalservice-a77078", "operator": "United States Postal Service", "operator:short": "USPS", "operator:type": "public", "operator:wikidata": "Q668687", "ref": "7407100003"}, "type": "Feature"}
{"geometry": {"coordinates": [-95.620456, 36.994622], "type": "Point"}, "id": "zm-TUsNii44sE99skC7j64zDSUw=", "properties": {"@source_uri": "https://tools.usps.com/UspsToolsRestServices/rest/POLocator/findLocations", "@spider": "usps_collection_boxes", "addr:city": "S COFFEYVILLE", "addr:country": "US", "addr:postcode": "74072", "addr:state": "OK", "addr:street_address": "501 WILLOW ST", "amenity": "post_box", "collection_times": "Mo-Fr 16:00; Sa 11:00", "indoor": "yes", "note": "ON 12/24 AND 12/31, THIS BOX MAY BE COLLECTED AS EARLY AS 12 NOON.", "nsi_id": "unitedstatespostalservice-a77078", "operator": "United States Postal Service", "operator:short": "USPS", "operator:type": "public", "operator:wikidata": "Q668687", "ref": "7407200001"}, "type": "Feature"}
{"geometry": {"coordinates": [-95.620456, 36.994622], "type": "Point"}, "id": "KpKtahZ4NJhYIUUx5Ux5eegBMtE=", "properties": {"@source_uri": "https://tools.usps.com/UspsToolsRestServices/rest/POLocator/findLocations", "@spider": "usps_collection_boxes", "addr:city": "S COFFEYVILLE", "addr:country": "US", "addr:postcode": "74072", "addr:state": "OK", "addr:street_address": "501 WILLOW ST", "amenity": "post_box", "collection_times": "Mo-Fr 16:00; Sa 11:00", "indoor": "yes", "note": "ON 12/24 AND 12/31, THIS BOX MAY BE COLLECTED AS EARLY AS 12 NOON.", "nsi_id": "unitedstatespostalservice-a77078", "operator": "United States Postal Service", "operator:short": "USPS", "operator:type": "public", "operator:wikidata": "Q668687", "ref": "7407200002"}, "type": "Feature"}
{"geometry": {"coordinates": [-95.620433174, 36.994641012], "type": "Point"}, "id": "6bvvOI7i1_p2Z_eqLjDXY1JqCoU=", "properties": {"@source_uri": "https://tools.usps.com/UspsToolsRestServices/rest/POLocator/findLocations", "@spider": "usps_collection_boxes", "addr:city": "S COFFEYVILLE", "addr:country": "US", "addr:postcode": "74072", "addr:state": "OK", "addr:street_address": "501 WILLOW ST", "amenity": "post_box", "collection_times": "Mo-Fr 16:00", "indoor": "yes", "note": "ON 12/24 AND 12/31, THIS BOX MAY BE COLLECTED AS EARLY AS 12 NOON.", "nsi_id": "unitedstatespostalservice-a77078", "operator": "United States Postal Service", "operator:short": "USPS", "operator:type": "public", "operator:wikidata": "Q668687", "ref": "7407200003"}, "type": "Feature"}
{"geometry": {"coordinates": [-95.991626, 36.298589], "type": "Point"}, "id": "I-7n6MdjivaVH3SWovatoBdJdIs=", "properties": {"@source_uri": "https://tools.usps.com/UspsToolsRestServices/rest/POLocator/findLocations", "@spider": "usps_collection_boxes", "addr:city": "SPERRY", "addr:country": "US", "addr:postcode": "74073", "addr:state": "OK", "addr:street_address": "117 N CINCINNATI AVE", "amenity": "post_box", "collection_times": "Mo-Fr 16:30; Sa 09:30", "indoor": "yes", "note": "ON 12/24 AND 12/31, THIS BOX MAY BE COLLECTED AS EARLY AS 12 NOON.", "nsi_id": "unitedstatespostalservice-a77078", "operator": "United States Postal Service", "operator:short": "USPS", "operator:type": "public", "operator:wikidata": "Q668687", "ref": "7407300001"}, "type": "Feature"}
{"geometry": {"coordinates": [-95.991626, 36.298589], "type": "Point"}, "id": "_jLpTDNahEA0JnmYoXiHPTpI4vQ=", "properties": {"@source_uri": "https://tools.usps.com/UspsToolsRestServices/rest/POLocator/findLocations", "@spider": "usps_collection_boxes", "addr:city": "SPERRY", "addr:country": "US", "addr:postcode": "74073", "addr:state": "OK", "addr:street_address": "117 N CINCINNATI AVE", "amenity": "post_box", "collection_times": "Mo-Fr 16:30; Sa 09:30", "indoor": "yes", "note": "ON 12/24 AND 12/31, THIS BOX MAY BE COLLECTED AS EARLY AS 12 NOON.", "nsi_id": "unitedstatespostalservice-a77078", "operator": "United States Postal Service", "operator:short": "USPS", "operator:type": "public", "operator:wikidata": "Q668687", "ref": "7407300002"}, "type": "Feature"}
{"geometry": {"coordinates": [-95.991628896, 36.298584], "type": "Point"}, "id": "HRG5U1B7-u-Yv_gRZ8USd0x8pSo=", "properties": {"@source_uri": "https://tools.usps.com/UspsToolsRestServices/rest/POLocator/findLocations", "@spider": "usps_collection_boxes", "addr:city": "SPERRY", "addr:country": "US", "addr:postcode": "74073", "addr:state": "OK", "addr:street_address": "117 N CINCINNATI AVE", "amenity": "post_box", "collection_times": "Mo-Fr 16:30", "indoor": "yes", "note": "ON 12/24 AND 12/31, THIS BOX MAY BE COLLECTED AS EARLY AS 12 NOON.", "nsi_id": "unitedstatespostalservice-a77078", "operator": "United States Postal Service", "operator:short": "USPS", "operator:type": "public", "operator:wikidata": "Q668687", "ref": "7407300003"}, "type": "Feature"}
{"geometry": {"coordinates": [-97.0504693, 36.127026], "type": "Point"}, "id": "dm9oHHsGVRUeTIxDFNY1eHZPe_o=", "properties": {"@source_uri": "https://tools.usps.com/UspsToolsRestServices/rest/POLocator/findLocations", "@spider": "usps_collection_boxes", "addr:city": "STILLWATER", "addr:country": "US", "addr:postcode": "74074", "addr:state": "OK", "addr:street_address": "521 N PERKINS RD", "amenity": "post_box", "collection_times": "Mo-Sa 13:30", "note": "ON 12/24 AND 12/31, THIS BOX MAY BE COLLECTED AS EARLY AS 12 NOON.", "nsi_id": "unitedstatespostalservice-a77078", "operator": "United States Postal Service", "operator:short": "USPS", "operator:type": "public", "operator:wikidata": "Q668687", "ref": "7407400006"}, "type": "Feature"}
{"geometry": {"coordinates": [-97.0753004, 36.115356], "type": "Point"}, "id": "I2InJLs_6Jezjm6AMElBftRh6zw=", "properties": {"@source_uri": "https://tools.usps.com/UspsToolsRestServices/rest/POLocator/findLocations", "@spider": "usps_collection_boxes", "addr:city": "STILLWATER", "addr:country": "US", "addr:postcode": "74074", "addr:state": "OK", "addr:street_address": "1323 W 6TH AVE", "amenity": "post_box", "collection_times": "Mo-Sa 10:30", "nsi_id": "unitedstatespostalservice-a77078", "operator": "United States Postal Service", "operator:short": "USPS", "operator:type": "public", "operator:wikidata": "Q668687", "ref": "7407400012"}, "type": "Feature"}
{"geometry": {"coordinates": [-97.0518422, 36.124636], "type": "Point"}, "id": "OlQlaigrrprvXDg6wZ6pLiZJrh8=", "properties": {"@source_uri": "https://tools.usps.com/UspsToolsRestServices/rest/POLocator/findLocations", "@spider": "usps_collection_boxes", "addr:city": "STILLWATER", "addr:country": "US", "addr:postcode": "74074", "addr:state": "OK", "addr:street_address": "120 N PERKINS RD", "amenity": "post_box", "collection_times": "Mo-Sa 09:00", "nsi_id": "unitedstatespostalservice-a77078", "operator": "United States Postal Service", "operator:short": "USPS", "operator:type": "public", "operator:wikidata": "Q668687", "ref": "7407400017"}, "type": "Feature"}
{"geometry": {"coordinates": [-97.057208, 36.112839], "type": "Point"}, "id": "OkPSRUvaikNn8374ytO-fMy9XU8=", "properties": {"@source_uri": "https://tools.usps.com/UspsToolsRestServices/rest/POLocator/findLocations", "@spider": "usps_collection_boxes", "addr:city": "STILLWATER", "addr:country": "US", "addr:postcode": "74074", "addr:state": "OK", "addr:street_address": "809 S LEWIS ST", "amenity": "post_box", "collection_times": "Mo-Sa 17:00", "note": "ON 12/24 AND 12/31, THIS BOX MAY BE COLLECTED AS EARLY AS 12 NOON.", "nsi_id": "unitedstatespostalservice-a77078", "operator": "United States Postal Service", "operator:short": "USPS", "operator:type": "public", "operator:wikidata": "Q668687", "ref": "7407400018"}, "type": "Feature"}
{"geometry": {"coordinates": [-97.057208, 36.112839], "type": "Point"}, "id": "EmOC5J69Ev9hZRxMtoMfKHXcVf4=", "properties": {"@source_uri": "https://tools.usps.com/UspsToolsRestServices/rest/POLocator/findLocations", "@spider": "usps_collection_boxes", "addr:city": "STILLWATER", "addr:country": "US", "addr:postcode": "74074", "addr:state": "OK", "addr:street_address": "809 S LEWIS ST", "amenity": "post_box", "collection_times": "Mo-Sa 17:00", "indoor": "yes", "note": "ON 12/24 AND 12/31, THIS BOX MAY BE COLLECTED AS EARLY AS 12 NOON.", "nsi_id": "unitedstatespostalservice-a77078", "operator": "United States Postal Service", "operator:short": "USPS", "operator:type": "public", "operator:wikidata": "Q668687", "ref": "7407400026"}, "type": "Feature"}
{"geometry": {"coordinates": [-97.057208, 36.112839], "type": "Point"}, "id": "lltCS0TlqpDuwfrpC0DOh6IG15U=", "properties": {"@source_uri": "https://tools.usps.com/UspsToolsRestServices/rest/POLocator/findLocations", "@spider": "usps_collection_boxes", "addr:city": "STILLWATER", "addr:country": "US", "addr:postcode": "74074", "addr:state": "OK", "addr:street_address": "809 S LEWIS ST", "amenity": "post_box", "collection_times": "Mo-Sa 17:00", "indoor": "yes", "note": "ON 12/24 AND 12/31, THIS BOX MAY BE COLLECTED AS EARLY AS 12 NOON.", "nsi_id": "unitedstatespostalservice-a77078", "operator": "United States Postal Service", "operator:short": "USPS", "operator:type": "public", "operator:wikidata": "Q668687", "ref": "7407400028"}, "type": "Feature"}
{"geometry": {"coordinates": [-97.057208, 36.112839], "type": "Point"}, "id": "Ofnn7ozdA2PKfbtSyO1tu0IW0uc=", "properties": {"@source_uri": "https://tools.usps.com/UspsToolsRestServices/rest/POLocator/findLocations", "@spider": "usps_collection_boxes", "addr:city": "STILLWATER", "addr:country": "US", "addr:postcode": "74074", "addr:state": "OK", "addr:street_address": "809 S LEWIS ST", "amenity": "post_box", "collection_times": "Mo-Sa 17:00", "indoor": "yes", "note": "ON 12/24 AND 12/31, THIS BOX MAY BE COLLECTED AS EARLY AS 12 NOON.", "nsi_id": "unitedstatespostalservice-a77078", "operator": "United States Postal Service", "operator:short": "USPS", "operator:type": "public", "operator:wikidata": "Q668687", "ref": "7407400029"}, "type": "Feature"}
{"geometry": {"coordinates": [-97.0652872, 36.119634], "type": "Point"}, "id": "jO2vCu9kWl2APLhKprQiRwt_LGo=", "properties": {"@source_uri": "https://tools.usps.com/UspsToolsRestServices/rest/POLocator/findLocations", "@spider": "usps_collection_boxes", "addr:city": "STILLWATER", "addr:country": "US", "addr:postcode": "74074", "addr:state": "OK", "addr:street_address": "1 UNIVERSITY CIR", "amenity": "post_box", "collection_times": "Mo-Sa 12:00", "nsi_id": "unitedstatespostalservice-a77078", "operator": "United States Postal Service", "operator:short": "USPS", "operator:type": "public", "operator:wikidata": "Q668687", "ref": "7407400030"}, "type": "Feature"}
{"geometry": {"coordinates": [-97.057208, 36.112839], "type": "Point"}, "id": "ANUNMHgg-cELOpteqJmEFlXYxlI=", "properties": {"@source_uri": "https://tools.usps.com/UspsToolsRestServices/rest/POLocator/findLocations", "@spider": "usps_collection_boxes", "addr:city": "STILLWATER", "addr:country": "US", "addr:postcode": "74074", "addr:state": "OK", "addr:street_address": "809 S LEWIS ST", "amenity": "post_box", "collection_times": "Mo-Sa 17:00", "indoor": "yes", "note": "ON 12/24 AND 12/31, THIS BOX MAY BE COLLECTED AS EARLY AS 12 NOON.", "nsi_id": "unitedstatespostalservice-a77078", "operator": "United States Postal Service", "operator:short": "USPS", "operator:type": "public", "operator:wikidata": "Q668687", "ref": "7407400031"}, "type": "Feature"}
{"geometry": {"coordinates": [-97.0624154, 36.115038], "type": "Point"}, "id": "l4-QxHK7BrVz1A0ocyCJ-49Wf_k=", "properties": {"@source_uri": "https://tools.usps.com/UspsToolsRestServices/rest/POLocator/findLocations", "@spider": "usps_collection_boxes", "addr:city": "STILLWATER", "addr:country": "US", "addr:postcode": "74074", "addr:state": "OK", "addr:street_address": "315 W 6TH AVE", "amenity": "post_box", "collection_times": "Mo-Sa 15:00", "note": "ON 12/24 AND 12/31, THIS BOX MAY BE COLLECTED AS EARLY AS 12 NOON.", "nsi_id": "unitedstatespostalservice-a77078", "operator": "United States Postal Service", "operator:short": "USPS", "operator:type": "public", "operator:wikidata": "Q668687", "ref": "7407400033"}, "type": "Feature"}
{"geometry": {"coordinates": [-97.0874847, 36.114333], "type": "Point"}, "id": "pG8Z38dInCs-QVnPf3e6nbWJtUQ=", "properties": {"@source_uri": "https://tools.usps.com/UspsToolsRestServices/rest/POLocator/findLocations", "@spider": "usps_collection_boxes", "addr:city": "STILLWATER", "addr:country": "US", "addr:postcode": "74074", "addr:state": "OK", "addr:street_address": "700 S WESTERN RD", "amenity": "post_box", "collection_times": "Mo-Sa 13:00", "note": "ON 12/24 AND 12/31, THIS BOX MAY BE COLLECTED AS EARLY AS 12 NOON.", "nsi_id": "unitedstatespostalservice-a77078", "operator": "United States Postal Service", "operator:short": "USPS", "operator:type": "public", "operator:wikidata": "Q668687", "ref": "7407400034"}, "type": "Feature"}
{"geometry": {"coordinates": [-97.057208, 36.112839], "type": "Point"}, "id": "90c8KLkKteVJ34L0cTuWWXysh9c=", "properties": {"@source_uri": "https://tools.usps.com/UspsToolsRestServices/rest/POLocator/findLocations", "@spider": "usps_collection_boxes", "addr:city": "STILLWATER", "addr:country": "US", "addr:postcode": "74074", "addr:state": "OK", "addr:street_address": "809 S LEWIS ST", "amenity": "post_box", "collection_times": "Mo-Sa 17:00", "name": "USPS COLLECTION BOX - APC", "note": "ON 12/24 AND 12/31, THIS BOX MAY BE COLLECTED AS EARLY AS 12 NOON.", "nsi_id": "unitedstatespostalservice-a77078", "operator": "United States Postal Service", "operator:short": "USPS", "operator:type": "public", "operator:wikidata": "Q668687", "ref": "7407400035"}, "type": "Feature"}
{"geometry": {"coordinates": [-97.057207497, 36.112778749], "type": "Point"}, "id": "vvX1fcfN8x1g-QHqFosNuHrdlH8=", "properties": {"@source_uri": "https://tools.usps.com/UspsToolsRestServices/rest/POLocator/findLocations", "@spider": "usps_collection_boxes", "addr:city": "STILLWATER", "addr:country": "US", "addr:postcode": "74074", "addr:state": "OK", "addr:street_address": "809 S LEWIS ST", "amenity": "post_box", "collection_times": "Mo-Fr 17:00; Sa 12:00", "indoor": "yes", "note": "ON 12/24 AND 12/31, THIS BOX MAY BE COLLECTED AS EARLY AS 12 NOON.", "nsi_id": "unitedstatespostalservice-a77078", "operator": "United States Postal Service", "operator:short": "USPS", "operator:type": "public", "operator:wikidata": "Q668687", "ref": "7407400039"}, "type": "Feature"}
{"geometry": {"coordinates": [-96.660881, 35.749127], "type": "Point"}, "id": "wX0HDWKzorIC1HRbulgINYQk7_w=", "properties": {"@source_uri": "https://tools.usps.com/UspsToolsRestServices/rest/POLocator/findLocations", "@spider": "usps_collection_boxes", "addr:city": "STROUD", "addr:country": "US", "addr:postcode": "74079", "addr:state": "OK", "addr:street_address": "601 W MAIN ST", "amenity": "post_box", "collection_times": "Mo-Fr 16:15; Sa 11:00", "note": "ON 12/24 AND 12/31, THIS BOX MAY BE COLLECTED AS EARLY AS 12 NOON.", "nsi_id": "unitedstatespostalservice-a77078", "operator": "United States Postal Service", "operator:short": "USPS", "operator:type": "public", "operator:wikidata": "Q668687", "ref": "7407900005"}, "type": "Feature"}
{"geometry": {"coordinates": [-96.660881, 35.749127], "type": "Point"}, "id": "o4Zs5vnyEuqusbpCAZtEev65mQU=", "properties": {"@source_uri": "https://tools.usps.com/UspsToolsRestServices/rest/POLocator/findLocations", "@spider": "usps_collection_boxes", "addr:city": "STROUD", "addr:country": "US", "addr:postcode": "74079", "addr:state": "OK", "addr:street_address": "601 W MAIN ST", "amenity": "post_box", "collection_times": "Mo-Fr 16:15; Sa 11:00", "indoor": "yes", "note": "ON 12/24 AND 12/31, THIS BOX MAY BE COLLECTED AS EARLY AS 12 NOON.", "nsi_id": "unitedstatespostalservice-a77078", "operator": "United States Postal Service", "operator:short": "USPS", "operator:type": "public", "operator:wikidata": "Q668687", "ref": "7407900006"}, "type": "Feature"}
{"geometry": {"coordinates": [-96.660881, 35.749127], "type": "Point"}, "id": "fPURVBB2jIfDb78diJjAIGTRaZM=", "properties": {"@source_uri": "https://tools.usps.com/UspsToolsRestServices/rest/POLocator/findLocations", "@spider": "usps_collection_boxes", "addr:city": "STROUD", "addr:country": "US", "addr:postcode": "74079", "addr:state": "OK", "addr:street_address": "601 W MAIN ST", "amenity": "post_box", "collection_times": "Mo-Fr 16:15; Sa 11:00", "indoor": "yes", "note": "ON 12/24 AND 12/31, THIS BOX MAY BE COLLECTED AS EARLY AS 12 NOON.", "nsi_id": "unitedstatespostalservice-a77078", "operator": "United States Postal Service", "operator:short": "USPS", "operator:type": "public", "operator:wikidata": "Q668687", "ref": "7407900007"}, "type": "Feature"}
{"geometry": {"coordinates": [-96.660989581, 35.749127504], "type": "Point"}, "id": "2AUcWOFSLPclZ7el5lGm-PwD9LI=", "properties": {"@source_uri": "https://tools.usps.com/UspsToolsRestServices/rest/POLocator/findLocations", "@spider": "usps_collection_boxes", "addr:city": "STROUD", "addr:country": "US", "addr:postcode": "74079", "addr:state": "OK", "addr:street_address": "601 W MAIN ST", "amenity": "post_box", "collection_times": "Mo-Fr 16:15; Sa 11:00", "indoor": "yes", "note": "ON 12/24 AND 12/31, THIS BOX MAY BE COLLECTED AS EARLY AS 12 NOON.", "nsi_id": "unitedstatespostalservice-a77078", "operator": "United States Postal Service", "operator:short": "USPS", "operator:type": "public", "operator:wikidata": "Q668687", "ref": "7407900008"}, "type": "Feature"}
{"geometry": {"coordinates": [-95.702543, 36.530079], "type": "Point"}, "id": "6XtfLHEbkon6f8dLJCDe9NBiKgc=", "properties": {"@source_uri": "https://tools.usps.com/UspsToolsRestServices/rest/POLocator/findLocations", "@spider": "usps_collection_boxes", "addr:city": "TALALA", "addr:country": "US", "addr:postcode": "74080", "addr:state": "OK", "addr:street_address": "112 N PINE ST", "amenity": "post_box", "collection_times": "Mo-Fr 15:30; Sa 10:00", "note": "ON 12/24 AND 12/31, THIS BOX MAY BE COLLECTED AS EARLY AS 12 NOON.", "nsi_id": "unitedstatespostalservice-a77078", "operator": "United States Postal Service", "operator:short": "USPS", "operator:type": "public", "operator:wikidata": "Q668687", "ref": "7408000000"}, "type": "Feature"}
{"geometry": {"coordinates": [-95.702543, 36.530079], "type": "Point"}, "id": "4aeBWlcxQ8RKbdBSWlvd-jxfoFg=", "properties": {"@source_uri": "https://tools.usps.com/UspsToolsRestServices/rest/POLocator/findLocations", "@spider": "usps_collection_boxes", "addr:city": "TALALA", "addr:country": "US", "addr:postcode": "74080", "addr:state": "OK", "addr:street_address": "112 N PINE ST", "amenity": "post_box", "collection_times": "Mo-Fr 15:30; Sa 10:00", "indoor": "yes", "note": "ON 12/24 AND 12/31, THIS BOX MAY BE COLLECTED AS EARLY AS 12 NOON.", "nsi_id": "unitedstatespostalservice-a77078", "operator": "United States Postal Service", "operator:short": "USPS", "operator:type": "public", "operator:wikidata": "Q668687", "ref": "7408000002"}, "type": "Feature"}
{"geometry": {"coordinates": [-95.70257184, 36.530052038], "type": "Point"}, "id": "jXjgZQvMyY95puuhpz7CrurxpsU=", "properties": {"@source_uri": "https://tools.usps.com/UspsToolsRestServices/rest/POLocator/findLocations", "@spider": "usps_collection_boxes", "addr:city": "TALALA", "addr:country": "US", "addr:postcode": "74080", "addr:state": "OK", "addr:street_address": "112 N PINE ST", "amenity": "post_box", "collection_times": "Mo-Fr 15:30; Sa 10:30", "indoor": "yes", "note": "ON 12/24 AND 12/31, THIS BOX MAY BE COLLECTED AS EARLY AS 12 NOON.", "nsi_id": "unitedstatespostalservice-a77078", "operator": "United States Postal Service", "operator:short": "USPS", "operator:type": "public", "operator:wikidata": "Q668687", "ref": "7408000003"}, "type": "Feature"}
{"geometry": {"coordinates": [-96.4919536542, 36.188117705], "type": "Point"}, "id": "wL0SRpJvI5XVsG-REiUQwSskG1A=", "properties": {"@source_uri": "https://tools.usps.com/UspsToolsRestServices/rest/POLocator/findLocations", "@spider": "usps_collection_boxes", "addr:city": "TERLTON", "addr:country": "US", "addr:postcode": "74081", "addr:state": "OK", "addr:street_address": "104 E MAIN ST", "amenity": "post_box", "collection_times": "Mo-Fr 14:45; Sa 09:30", "note": "ON 12/24 AND 12/31, THIS BOX MAY BE COLLECTED AS EARLY AS 12 NOON.", "nsi_id": "unitedstatespostalservice-a77078", "operator": "United States Postal Service", "operator:short": "USPS", "operator:type": "public", "operator:wikidata": "Q668687", "ref": "7408100000"}, "type": "Feature"}
{"geometry": {"coordinates": [-96.491986, 36.188153], "type": "Point"}, "id": "ulxtyAIBiCziWJpnKu-KEMTNZac=", "properties": {"@source_uri": "https://tools.usps.com/UspsToolsRestServices/rest/POLocator/findLocations", "@spider": "usps_collection_boxes", "addr:city": "TERLTON", "addr:country": "US", "addr:postcode": "74081", "addr:state": "OK", "addr:street_address": "104 E MAIN ST", "amenity": "post_box", "collection_times": "Mo-Fr 14:45; Sa 09:30", "indoor": "yes", "note": "ON 12/24 AND 12/31, THIS BOX MAY BE COLLECTED AS EARLY AS 12 NOON.", "nsi_id": "unitedstatespostalservice-a77078", "operator": "United States Postal Service", "operator:short": "USPS", "operator:type": "public", "operator:wikidata": "Q668687", "ref": "7408100002"}, "type": "Feature"}
{"geometry": {"coordinates": [-96.491954087, 36.188096633], "type": "Point"}, "id": "OfjeK2EbWGMhHlJFU2kPqEc6jLQ=", "properties": {"@source_uri": "https://tools.usps.com/UspsToolsRestServices/rest/POLocator/findLocations", "@spider": "usps_collection_boxes", "addr:city": "TERLTON", "addr:country": "US", "addr:postcode": "74081", "addr:state": "OK", "addr:street_address": "104 E MAIN ST", "amenity": "post_box", "collection_times": "Mo-Fr 14:45", "indoor": "yes", "note": "ON 12/24 AND 12/31, THIS BOX MAY BE COLLECTED AS EARLY AS 12 NOON.", "nsi_id": "unitedstatespostalservice-a77078", "operator": "United States Postal Service", "operator:short": "USPS", "operator:type": "public", "operator:wikidata": "Q668687", "ref": "7408100003"}, "type": "Feature"}
{"geometry": {"coordinates": [-95.883174101, 36.449154031], "type": "Point"}, "id": "06bXwDeZ1Or0CQ3gZJ2zzMwBSJg=", "properties": {"@source_uri": "https://tools.usps.com/UspsToolsRestServices/rest/POLocator/findLocations", "@spider": "usps_collection_boxes", "addr:city": "VERA", "addr:country": "US", "addr:postcode": "74082", "addr:state": "OK", "addr:street_address": "100 S OSAGE ST", "amenity": "post_box", "collection_times": "Mo-Fr 16:15; Sa 09:45", "indoor": "yes", "note": "ON 12/24 AND 12/31, THIS BOX MAY BE COLLECTED AS EARLY AS 12 NOON.", "nsi_id": "unitedstatespostalservice-a77078", "operator": "United States Postal Service", "operator:short": "USPS", "operator:type": "public", "operator:wikidata": "Q668687", "ref": "7408200001"}, "type": "Feature"}
{"geometry": {"coordinates": [-95.802763, 36.915519], "type": "Point"}, "id": "w1dYJTCdoI7HfkDwj_8nMc9vVng=", "properties": {"@source_uri": "https://tools.usps.com/UspsToolsRestServices/rest/POLocator/findLocations", "@spider": "usps_collection_boxes", "addr:city": "WANN", "addr:country": "US", "addr:postcode": "74083", "addr:state": "OK", "addr:street_address": "110 W MAIN ST", "amenity": "post_box", "collection_times": "Mo-Fr 11:30; Sa 09:00", "indoor": "yes", "nsi_id": "unitedstatespostalservice-a77078", "operator": "United States Postal Service", "operator:short": "USPS", "operator:type": "public", "operator:wikidata": "Q668687", "ref": "7408300001"}, "type": "Feature"}
{"geometry": {"coordinates": [-95.80251265, 36.915517464], "type": "Point"}, "id": "nGNv2YOz2Dq5DFOUDzCsDQKIaxE=", "properties": {"@source_uri": "https://tools.usps.com/UspsToolsRestServices/rest/POLocator/findLocations", "@spider": "usps_collection_boxes", "addr:city": "WANN", "addr:country": "US", "addr:postcode": "74083", "addr:state": "OK", "addr:street_address": "107 W MAIN ST", "amenity": "post_box", "collection_times": "Mo-Fr 11:30", "indoor": "yes", "nsi_id": "unitedstatespostalservice-a77078", "operator": "United States Postal Service", "operator:short": "USPS", "operator:type": "public", "operator:wikidata": "Q668687", "ref": "7408300003"}, "type": "Feature"}
{"geometry": {"coordinates": [-96.328481986, 36.547083845], "type": "Point"}, "id": "eaWnc7vOj9VvG7CGlOY77iYLYgY=", "properties": {"@source_uri": "https://tools.usps.com/UspsToolsRestServices/rest/POLocator/findLocations", "@spider": "usps_collection_boxes", "addr:city": "WYNONA", "addr:country": "US", "addr:postcode": "74084", "addr:state": "OK", "addr:street_address": "202 W 4TH ST", "amenity": "post_box", "collection_times": "Mo-Fr 12:00; Sa 09:30", "indoor": "yes", "nsi_id": "unitedstatespostalservice-a77078", "operator": "United States Postal Service", "operator:short": "USPS", "operator:type": "public", "operator:wikidata": "Q668687", "ref": "7408400001"}, "type": "Feature"}
{"geometry": {"coordinates": [-96.328481986, 36.547083845], "type": "Point"}, "id": "_-GaQELS1cdv_gzHjP15EnYrTvY=", "properties": {"@source_uri": "https://tools.usps.com/UspsToolsRestServices/rest/POLocator/findLocations", "@spider": "usps_collection_boxes", "addr:city": "WYNONA", "addr:country": "US", "addr:postcode": "74084", "addr:state": "OK", "addr:street_address": "202 W 4TH ST", "amenity": "post_box", "collection_times": "Mo-Fr 12:00; Sa 09:30", "indoor": "yes", "nsi_id": "unitedstatespostalservice-a77078", "operator": "United States Postal Service", "operator:short": "USPS", "operator:type": "public", "operator:wikidata": "Q668687", "ref": "7408400003"}, "type": "Feature"}
{"geometry": {"coordinates": [-96.702081, 36.11401], "type": "Point"}, "id": "XuUDEBj537DBrzgJmdmuadrXWV0=", "properties": {"@source_uri": "https://tools.usps.com/UspsToolsRestServices/rest/POLocator/findLocations", "@spider": "usps_collection_boxes", "addr:city": "YALE", "addr:country": "US", "addr:postcode": "74085", "addr:state": "OK", "addr:street_address": "209 W BROADWAY AVE", "amenity": "post_box", "collection_times": "Mo-Fr 16:15; Sa 10:15", "note": "ON 12/24 AND 12/31, THIS BOX MAY BE COLLECTED AS EARLY AS 12 NOON.", "nsi_id": "unitedstatespostalservice-a77078", "operator": "United States Postal Service", "operator:short": "USPS", "operator:type": "public", "operator:wikidata": "Q668687", "ref": "7408500001"}, "type": "Feature"}
{"geometry": {"coordinates": [-96.702081, 36.11401], "type": "Point"}, "id": "laPP6nXxQZSRgfR7KHN_L7iBJfk=", "properties": {"@source_uri": "https://tools.usps.com/UspsToolsRestServices/rest/POLocator/findLocations", "@spider": "usps_collection_boxes", "addr:city": "YALE", "addr:country": "US", "addr:postcode": "74085", "addr:state": "OK", "addr:street_address": "209 W BROADWAY AVE", "amenity": "post_box", "collection_times": "Mo-Fr 16:15; Sa 10:15", "indoor": "yes", "note": "ON 12/24 AND 12/31, THIS BOX MAY BE COLLECTED AS EARLY AS 12 NOON.", "nsi_id": "unitedstatespostalservice-a77078", "operator": "United States Postal Service", "operator:short": "USPS", "operator:type": "public", "operator:wikidata": "Q668687", "ref": "7408500003"}, "type": "Feature"}
{"geometry": {"coordinates": [-96.702081, 36.11401], "type": "Point"}, "id": "m_dz9VEt5luCdHz2aWDd6ogoErI=", "properties": {"@source_uri": "https://tools.usps.com/UspsToolsRestServices/rest/POLocator/findLocations", "@spider": "usps_collection_boxes", "addr:city": "YALE", "addr:country": "US", "addr:postcode": "74085", "addr:state": "OK", "addr:street_address": "209 W BROADWAY AVE", "amenity": "post_box", "collection_times": "Mo-Fr 16:15; Sa 10:15", "indoor": "yes", "note": "ON 12/24 AND 12/31, THIS BOX MAY BE COLLECTED AS EARLY AS 12 NOON.", "nsi_id": "unitedstatespostalservice-a77078", "operator": "United States Postal Service", "operator:short": "USPS", "operator:type": "public", "operator:wikidata": "Q668687", "ref": "7408500004"}, "type": "Feature"}
{"geometry": {"coordinates": [-96.702151972, 36.114002488], "type": "Point"}, "id": "mrMGbl9L9b_HLDByE0Kn1o-9aJ8=", "properties": {"@source_uri": "https://tools.usps.com/UspsToolsRestServices/rest/POLocator/findLocations", "@spider": "usps_collection_boxes", "addr:city": "YALE", "addr:country": "US", "addr:postcode": "74085", "addr:state": "OK", "addr:street_address": "209 W BROADWAY AVE", "amenity": "post_box", "collection_times": "Mo-Fr 16:00; Sa 10:30", "indoor": "yes", "note": "ON 12/24 AND 12/31, THIS BOX MAY BE COLLECTED AS EARLY AS 12 NOON.", "nsi_id": "unitedstatespostalservice-a77078", "operator": "United States Postal Service", "operator:short": "USPS", "operator:type": "public", "operator:wikidata": "Q668687", "ref": "7408500005"}, "type": "Feature"}
