{"geometry": {"coordinates": [-95.991287545, 36.15096655], "type": "Point"}, "id": "6-MVCzhfXy28KJKfAj5VBjfLq_M=", "properties": {"@source_uri": "https://tools.usps.com/UspsToolsRestServices/rest/POLocator/findLocations", "@spider": "usps_collection_boxes", "addr:city": "TULSA", "addr:country": "US", "addr:postcode": "74103", "addr:state": "OK", "addr:street_address": "502 S BOULDER AVE", "amenity": "post_box", "collection_times": "Mo-Fr 16:15", "note": "ON 12/24 AND 12/31, THIS BOX MAY BE COLLECTED AS EARLY AS 12 NOON.", "nsi_id": "unitedstatespostalservice-a77078", "operator": "United States Postal Service", "operator:short": "USPS", "operator:type": "public", "operator:wikidata": "Q668687", "ref": "7410300001"}, "type": "Feature"}
{"geometry": {"coordinates": [-95.990010543, 36.15124754], "type": "Point"}, "id": "WY2FLPbtSlXgnPqEiD6oAiBz7CY=", "properties": {"@source_uri": "https://tools.usps.com/UspsToolsRestServices/rest/POLocator/findLocations", "@spider": "usps_collection_boxes", "addr:city": "TULSA", "addr:country": "US", "addr:postcode": "74103", "addr:state": "OK", "addr:street_address": "508 S MAIN ST", "amenity": "post_box", "collection_times": "Mo-Fr 16:15", "note": "ON 12/24 AND 12/31, THIS BOX MAY BE COLLECTED AS EARLY AS 12 NOON.", "nsi_id": "unitedstatespostalservice-a77078", "operator": "United States Postal Service", "operator:short": "USPS", "operator:type": "public", "operator:wikidata": "Q668687", "ref": "7410300020"}, "type": "Feature"}
{"geometry": {"coordinates": [-95.995296, 36.151272], "type": "Point"}, "id": "eW0evj-Y6OcXNpKLRUdaxxu1q9M=", "properties": {"@source_uri": "https://tools.usps.com/UspsToolsRestServices/rest/POLocator/findLocations", "@spider": "usps_collection_boxes", "addr:city": "TULSA", "addr:country": "US", "addr:postcode": "74103", "addr:state": "OK", "addr:street_address": "333 W 4TH ST", "amenity": "post_box", "collection_times": "Mo-Fr 17:45; Sa 17:00", "note": "ON 12/24 AND 12/31, THIS BOX MAY BE COLLECTED AS EARLY AS 12 NOON.", "nsi_id": "unitedstatespostalservice-a77078", "operator": "United States Postal Service", "operator:short": "USPS", "operator:type": "public", "operator:wikidata": "Q668687", "ref": "7410300031"}, "type": "Feature"}
{"geometry": {"coordinates": [-95.995296, 36.151272], "type": "Point"}, "id": "AtPnV5E3hW7GBB7kav4yCMs-1qA=", "properties": {"@source_uri": "https://tools.usps.com/UspsToolsRestServices/rest/POLocator/findLocations", "@spider": "usps_collection_boxes", "addr:city": "TULSA", "addr:country": "US", "addr:postcode": "74103", "addr:state": "OK", "addr:street_address": "333 W 4TH ST", "amenity": "post_box", "collection_times": "Mo-Fr 17:45; Sa 17:00", "indoor": "yes", "note": "ON 12/24 AND 12/31, THIS BOX MAY BE COLLECTED AS EARLY AS 12 NOON.", "nsi_id": "unitedstatespostalservice-a77078", "operator": "United States Postal Service", "operator:short": "USPS", "operator:type": "public", "operator:wikidata": "Q668687", "ref": "7410300099"}, "type": "Feature"}
{"geometry": {"coordinates": [-95.995296, 36.151272], "type": "Point"}, "id": "4JvvNMkBg1s_o2I1X7vyvEglxGM=", "properties": {"@source_uri": "https://tools.usps.com/UspsToolsRestServices/rest/POLocator/findLocations", "@spider": "usps_collection_boxes", "addr:city": "TULSA", "addr:country": "US", "addr:postcode": "74103", "addr:state": "OK", "addr:street_address": "333 W 4TH ST", "amenity": "post_box", "collection_times": "Mo-Fr 17:45; Sa 17:00", "indoor": "yes", "note": "ON 12/24 AND 12/31, THIS BOX MAY BE COLLECTED AS EARLY AS 12 NOON.", "nsi_id": "unitedstatespostalservice-a77078", "operator": "United States Postal Service", "operator:short": "USPS", "operator:type": "public", "operator:wikidata": "Q668687", "ref": "7410300100"}, "type": "Feature"}
{"geometry": {"coordinates": [-95.995296, 36.151272], "type": "Point"}, "id": "1lGNbZPeEDZeYdUXPeFId07q9G0=", "properties": {"@source_uri": "https://tools.usps.com/UspsToolsRestServices/rest/POLocator/findLocations", "@spider": "usps_collection_boxes", "addr:city": "TULSA", "addr:country": "US", "addr:postcode": "74103", "addr:state": "OK", "addr:street_address": "333 W 4TH ST", "amenity": "post_box", "collection_times": "Mo-Fr 17:45; Sa 17:00", "indoor": "yes", "note": "ON 12/24 AND 12/31, THIS BOX MAY BE COLLECTED AS EARLY AS 12 NOON.", "nsi_id": "unitedstatespostalservice-a77078", "operator": "United States Postal Service", "operator:short": "USPS", "operator:type": "public", "operator:wikidata": "Q668687", "ref": "7410300102"}, "type": "Feature"}
{"geometry": {"coordinates": [-95.995296, 36.151272], "type": "Point"}, "id": "sYQ_J_BUxVEMYx-lmnvn0Qf-MCE=", "properties": {"@source_uri": "https://tools.usps.com/UspsToolsRestServices/rest/POLocator/findLocations", "@spider": "usps_collection_boxes", "addr:city": "TULSA", "addr:country": "US", "addr:postcode": "74103", "addr:state": "OK", "addr:street_address": "333 W 4TH ST", "amenity": "post_box", "collection_times": "Mo-Fr 17:45; Sa 17:00", "indoor": "yes", "note": "ON 12/24 AND 12/31, THIS BOX MAY BE COLLECTED AS EARLY AS 12 NOON.", "nsi_id": "unitedstatespostalservice-a77078", "operator": "United States Postal Service", "operator:short": "USPS", "operator:type": "public", "operator:wikidata": "Q668687", "ref": "7410300105"}, "type": "Feature"}
{"geometry": {"coordinates": [-95.9951548488, 36.1508884441], "type": "Point"}, "id": "XONi5ZqFL76E-BUyK486RLaW2ck=", "properties": {"@source_uri": "https://tools.usps.com/UspsToolsRestServices/rest/POLocator/findLocations", "@spider": "usps_collection_boxes", "addr:city": "TULSA", "addr:country": "US", "addr:postcode": "74103", "addr:state": "OK", "addr:street_address": "333 W 4TH ST FL 1", "amenity": "post_box", "collection_times": "Mo-Fr 17:00", "indoor": "yes", "note": "ON 12/24 AND 12/31, THIS BOX MAY BE COLLECTED AS EARLY AS 12 NOON.", "nsi_id": "unitedstatespostalservice-a77078", "operator": "United States Postal Service", "operator:short": "USPS", "operator:type": "public", "operator:wikidata": "Q668687", "ref": "7410300127"}, "type": "Feature"}
{"geometry": {"coordinates": [-95.96682, 36.146295], "type": "Point"}, "id": "KX3RPaQDPI3SkP8aSVZ-JE-_F2w=", "properties": {"@source_uri": "https://tools.usps.com/UspsToolsRestServices/rest/POLocator/findLocations", "@spider": "usps_collection_boxes", "addr:city": "TULSA", "addr:country": "US", "addr:postcode": "74104", "addr:state": "OK", "addr:street_address": "1145 S UTICA AVE", "amenity": "post_box", "collection_times": "Mo-Fr 10:15", "nsi_id": "unitedstatespostalservice-a77078", "operator": "United States Postal Service", "operator:short": "USPS", "operator:type": "public", "operator:wikidata": "Q668687", "ref": "7410400000"}, "type": "Feature"}
{"geometry": {"coordinates": [-95.9675984, 36.147094], "type": "Point"}, "id": "z5XOKO7lRbdM7HX5jopKJ4V9v4c=", "properties": {"@source_uri": "https://tools.usps.com/UspsToolsRestServices/rest/POLocator/findLocations", "@spider": "usps_collection_boxes", "addr:city": "TULSA", "addr:country": "US", "addr:postcode": "74104", "addr:state": "OK", "addr:street_address": "1120 S UTICA AVE", "amenity": "post_box", "collection_times": "Mo-Fr 11:00", "nsi_id": "unitedstatespostalservice-a77078", "operator": "United States Postal Service", "operator:short": "USPS", "operator:type": "public", "operator:wikidata": "Q668687", "ref": "7410400003"}, "type": "Feature"}
{"geometry": {"coordinates": [-95.9554092, 36.1432747], "type": "Point"}, "id": "emPtu2fSPM7yCwi-Ho21xxpqv8M=", "properties": {"@source_uri": "https://tools.usps.com/UspsToolsRestServices/rest/POLocator/findLocations", "@spider": "usps_collection_boxes", "addr:city": "TULSA", "addr:country": "US", "addr:postcode": "74104", "addr:state": "OK", "addr:street_address": "1423 TERRACE DR", "amenity": "post_box", "collection_times": "Mo-Fr 17:00; Sa 16:15", "note": "ON 12/24 AND 12/31, THIS BOX MAY BE COLLECTED AS EARLY AS 12 NOON.", "nsi_id": "unitedstatespostalservice-a77078", "operator": "United States Postal Service", "operator:short": "USPS", "operator:type": "public", "operator:wikidata": "Q668687", "ref": "7410400009"}, "type": "Feature"}
{"geometry": {"coordinates": [-95.956596, 36.133569], "type": "Point"}, "id": "dZqdTlcBkXes7HstACndYiBWaPE=", "properties": {"@source_uri": "https://tools.usps.com/UspsToolsRestServices/rest/POLocator/findLocations", "@spider": "usps_collection_boxes", "addr:city": "TULSA", "addr:country": "US", "addr:postcode": "74104", "addr:state": "OK", "addr:street_address": "2021 S LEWIS AVE", "amenity": "post_box", "collection_times": "Mo-Fr 09:30", "nsi_id": "unitedstatespostalservice-a77078", "operator": "United States Postal Service", "operator:short": "USPS", "operator:type": "public", "operator:wikidata": "Q668687", "ref": "7410400017"}, "type": "Feature"}
{"geometry": {"coordinates": [-95.9663199, 36.135069], "type": "Point"}, "id": "8i2UviS-CLunGknhp165ZuZIMLc=", "properties": {"@source_uri": "https://tools.usps.com/UspsToolsRestServices/rest/POLocator/findLocations", "@spider": "usps_collection_boxes", "addr:city": "TULSA", "addr:country": "US", "addr:postcode": "74104", "addr:state": "OK", "addr:street_address": "1725 E 19TH ST", "amenity": "post_box", "collection_times": "Mo-Fr 11:00", "nsi_id": "unitedstatespostalservice-a77078", "operator": "United States Postal Service", "operator:short": "USPS", "operator:type": "public", "operator:wikidata": "Q668687", "ref": "7410400044"}, "type": "Feature"}
{"geometry": {"coordinates": [-95.960036555, 36.141694575], "type": "Point"}, "id": "xMTt8xhAODMKQvUaLRnf6d5y0bU=", "properties": {"@source_uri": "https://tools.usps.com/UspsToolsRestServices/rest/POLocator/findLocations", "@spider": "usps_collection_boxes", "addr:city": "TULSA", "addr:country": "US", "addr:postcode": "74104", "addr:state": "OK", "addr:street_address": "1423 TERRACE DR", "amenity": "post_box", "collection_times": "Mo-Fr 17:00; Sa 16:15", "name": "USPS COLLECTION BOX - APC", "note": "ON 12/24 AND 12/31, THIS BOX MAY BE COLLECTED AS EARLY AS 12 NOON.", "nsi_id": "unitedstatespostalservice-a77078", "operator": "United States Postal Service", "operator:short": "USPS", "operator:type": "public", "operator:wikidata": "Q668687", "ref": "7410400051"}, "type": "Feature"}
{"geometry": {"coordinates": [-95.9594689943, 36.1416729894], "type": "Point"}, "id": "lVq_yedhJgPFBQfvTezzoVIh_X8=", "properties": {"@source_uri": "https://tools.usps.com/UspsToolsRestServices/rest/POLocator/findLocations", "@spider": "usps_collection_boxes", "addr:city": "TULSA", "addr:country": "US", "addr:postcode": "74104", "addr:state": "OK", "addr:street_address": "1423 TERRACE DR", "amenity": "post_box", "collection_times": "Mo-Fr 17:00; Sa 16:15", "indoor": "yes", "note": "ON 12/24 AND 12/31, THIS BOX MAY BE COLLECTED AS EARLY AS 12 NOON.", "nsi_id": "unitedstatespostalservice-a77078", "operator": "United States Postal Service", "operator:short": "USPS", "operator:type": "public", "operator:wikidata": "Q668687", "ref": "7410400054"}, "type": "Feature"}
{"geometry": {"coordinates": [-95.960036555, 36.141694575], "type": "Point"}, "id": "z3tR-w_-KQAA7RbeW_iOLJMCUwE=", "properties": {"@source_uri": "https://tools.usps.com/UspsToolsRestServices/rest/POLocator/findLocations", "@spider": "usps_collection_boxes", "addr:city": "TULSA", "addr:country": "US", "addr:postcode": "74104", "addr:state": "OK", "addr:street_address": "1423 TERRACE DR", "amenity": "post_box", "collection_times": "Mo-Fr 17:00; Sa 16:15", "indoor": "yes", "note": "ON 12/24 AND 12/31, THIS BOX MAY BE COLLECTED AS EARLY AS 12 NOON.", "nsi_id": "unitedstatespostalservice-a77078", "operator": "United States Postal Service", "operator:short": "USPS", "operator:type": "public", "operator:wikidata": "Q668687", "ref": "7410400055"}, "type": "Feature"}
{"geometry": {"coordinates": [-95.960036555, 36.141694575], "type": "Point"}, "id": "m8tHreu0s8XpCeiWOyOkHRBwv3Q=", "properties": {"@source_uri": "https://tools.usps.com/UspsToolsRestServices/rest/POLocator/findLocations", "@spider": "usps_collection_boxes", "addr:city": "TULSA", "addr:country": "US", "addr:postcode": "74104", "addr:state": "OK", "addr:street_address": "1423 TERRACE DR", "amenity": "post_box", "collection_times": "Mo-Fr 17:00", "indoor": "yes", "note": "ON 12/24 AND 12/31, THIS BOX MAY BE COLLECTED AS EARLY AS 12 NOON.", "nsi_id": "unitedstatespostalservice-a77078", "operator": "United States Postal Service", "operator:short": "USPS", "operator:type": "public", "operator:wikidata": "Q668687", "ref": "7410400058"}, "type": "Feature"}
{"geometry": {"coordinates": [-95.97648, 36.104305], "type": "Point"}, "id": "j9PFuerRp7FctwCD8E2EiEg1g3k=", "properties": {"@source_uri": "https://tools.usps.com/UspsToolsRestServices/rest/POLocator/findLocations", "@spider": "usps_collection_boxes", "addr:city": "TULSA", "addr:country": "US", "addr:postcode": "74105", "addr:state": "OK", "addr:street_address": "5119 S PEORIA AVE", "amenity": "post_box", "collection_times": "Mo-Fr 09:00", "nsi_id": "unitedstatespostalservice-a77078", "operator": "United States Postal Service", "operator:short": "USPS", "operator:type": "public", "operator:wikidata": "Q668687", "ref": "7410500001"}, "type": "Feature"}
{"geometry": {"coordinates": [-95.9584723, 36.089267], "type": "Point"}, "id": "x79gVwNoT6zGJg9fKZGBUExEQKQ=", "properties": {"@source_uri": "https://tools.usps.com/UspsToolsRestServices/rest/POLocator/findLocations", "@spider": "usps_collection_boxes", "addr:city": "TULSA", "addr:country": "US", "addr:postcode": "74105", "addr:state": "OK", "addr:street_address": "5104 S LEWIS AVE", "amenity": "post_box", "collection_times": "Mo-Fr 12:30", "note": "ON 12/24 AND 12/31, THIS BOX MAY BE COLLECTED AS EARLY AS 12 NOON.", "nsi_id": "unitedstatespostalservice-a77078", "operator": "United States Postal Service", "operator:short": "USPS", "operator:type": "public", "operator:wikidata": "Q668687", "ref": "7410500007"}, "type": "Feature"}
{"geometry": {"coordinates": [-95.97648, 36.104305], "type": "Point"}, "id": "RCMoVhXelQds9F14KKFXRAZBqCI=", "properties": {"@source_uri": "https://tools.usps.com/UspsToolsRestServices/rest/POLocator/findLocations", "@spider": "usps_collection_boxes", "addr:city": "TULSA", "addr:country": "US", "addr:postcode": "74105", "addr:state": "OK", "addr:street_address": "2738 E 51ST ST", "amenity": "post_box", "collection_times": "Mo-Fr 09:15", "nsi_id": "unitedstatespostalservice-a77078", "operator": "United States Postal Service", "operator:short": "USPS", "operator:type": "public", "operator:wikidata": "Q668687", "ref": "7410500010"}, "type": "Feature"}
{"geometry": {"coordinates": [-95.9456293972, 36.0908723993], "type": "Point"}, "id": "QnYdMFqZCutyk0OagBshbphjyBg=", "properties": {"@source_uri": "https://tools.usps.com/UspsToolsRestServices/rest/POLocator/findLocations", "@spider": "usps_collection_boxes", "addr:city": "TULSA", "addr:country": "US", "addr:postcode": "74105", "addr:state": "OK", "addr:street_address": "3000 E SKELLY DR", "amenity": "post_box", "collection_times": "Mo-Fr 09:30", "nsi_id": "unitedstatespostalservice-a77078", "operator": "United States Postal Service", "operator:short": "USPS", "operator:type": "public", "operator:wikidata": "Q668687", "ref": "7410500011"}, "type": "Feature"}
{"geometry": {"coordinates": [-95.9592357839, 36.0922473425], "type": "Point"}, "id": "8pXdFdSzw7834rPlilWuF4QJQrI=", "properties": {"@source_uri": "https://tools.usps.com/UspsToolsRestServices/rest/POLocator/findLocations", "@spider": "usps_collection_boxes", "addr:city": "TULSA", "addr:country": "US", "addr:postcode": "74105", "addr:state": "OK", "addr:street_address": "2241 E 49TH ST", "amenity": "post_box", "collection_times": "Mo-Fr 09:00", "nsi_id": "unitedstatespostalservice-a77078", "operator": "United States Postal Service", "operator:short": "USPS", "operator:type": "public", "operator:wikidata": "Q668687", "ref": "7410500024"}, "type": "Feature"}
{"geometry": {"coordinates": [-95.975555426, 36.11527833], "type": "Point"}, "id": "9l49ps7qzvtby5TZ9vtUBLkSQKg=", "properties": {"@source_uri": "https://tools.usps.com/UspsToolsRestServices/rest/POLocator/findLocations", "@spider": "usps_collection_boxes", "addr:city": "TULSA", "addr:country": "US", "addr:postcode": "74105", "addr:state": "OK", "addr:street_address": "1303 E 33RD ST", "amenity": "post_box", "collection_times": "Mo-Fr 12:00", "nsi_id": "unitedstatespostalservice-a77078", "operator": "United States Postal Service", "operator:short": "USPS", "operator:type": "public", "operator:wikidata": "Q668687", "ref": "7410500027"}, "type": "Feature"}
{"geometry": {"coordinates": [-95.9757916, 36.108119], "type": "Point"}, "id": "G9qjS3vc_8hrM80FPJcGfL1JcOs=", "properties": {"@source_uri": "https://tools.usps.com/UspsToolsRestServices/rest/POLocator/findLocations", "@spider": "usps_collection_boxes", "addr:city": "TULSA", "addr:country": "US", "addr:postcode": "74105", "addr:state": "OK", "addr:street_address": "3750 S PEORIA AVE", "amenity": "post_box", "collection_times": "Mo-Fr 10:45", "nsi_id": "unitedstatespostalservice-a77078", "operator": "United States Postal Service", "operator:short": "USPS", "operator:type": "public", "operator:wikidata": "Q668687", "ref": "7410500029"}, "type": "Feature"}
{"geometry": {"coordinates": [-95.9755374, 36.094306], "type": "Point"}, "id": "eq3pemoC_txFLjZ81xSaulMgS74=", "properties": {"@source_uri": "https://tools.usps.com/UspsToolsRestServices/rest/POLocator/findLocations", "@spider": "usps_collection_boxes", "addr:city": "TULSA", "addr:country": "US", "addr:postcode": "74105", "addr:state": "OK", "addr:street_address": "4835 S PEORIA AVE", "amenity": "post_box", "collection_times": "Mo-Fr 10:30", "nsi_id": "unitedstatespostalservice-a77078", "operator": "United States Postal Service", "operator:short": "USPS", "operator:type": "public", "operator:wikidata": "Q668687", "ref": "7410500034"}, "type": "Feature"}
{"geometry": {"coordinates": [-95.97275802, 36.104366978], "type": "Point"}, "id": "GJk4Ms9i_ldhnKe-DzM92ZBuJDo=", "properties": {"@source_uri": "https://tools.usps.com/UspsToolsRestServices/rest/POLocator/findLocations", "@spider": "usps_collection_boxes", "addr:city": "TULSA", "addr:country": "US", "addr:postcode": "74105", "addr:state": "OK", "addr:street_address": "1417 E 41ST ST", "amenity": "post_box", "collection_times": "Mo-Fr 10:30", "nsi_id": "unitedstatespostalservice-a77078", "operator": "United States Postal Service", "operator:short": "USPS", "operator:type": "public", "operator:wikidata": "Q668687", "ref": "7410500038"}, "type": "Feature"}
{"geometry": {"coordinates": [-95.9883215, 36.163881], "type": "Point"}, "id": "ZKM4JYhK23LfllslOkDjF7QBW-A=", "properties": {"@source_uri": "https://tools.usps.com/UspsToolsRestServices/rest/POLocator/findLocations", "@spider": "usps_collection_boxes", "addr:city": "TULSA", "addr:country": "US", "addr:postcode": "74106", "addr:state": "OK", "addr:street_address": "701 N GREENWOOD AVE", "amenity": "post_box", "collection_times": "Mo-Fr 09:30", "nsi_id": "unitedstatespostalservice-a77078", "operator": "United States Postal Service", "operator:short": "USPS", "operator:type": "public", "operator:wikidata": "Q668687", "ref": "7410600016"}, "type": "Feature"}
{"geometry": {"coordinates": [-95.9856173, 36.191121], "type": "Point"}, "id": "026dQj5CfItIzdq2ib3jAftnyD4=", "properties": {"@source_uri": "https://tools.usps.com/UspsToolsRestServices/rest/POLocator/findLocations", "@spider": "usps_collection_boxes", "addr:city": "TULSA", "addr:country": "US", "addr:postcode": "74106", "addr:state": "OK", "addr:street_address": "626 E APACHE ST", "amenity": "post_box", "collection_times": "Mo-Sa 17:00", "indoor": "yes", "note": "ON 12/24 AND 12/31, THIS BOX MAY BE COLLECTED AS EARLY AS 12 NOON.", "nsi_id": "unitedstatespostalservice-a77078", "operator": "United States Postal Service", "operator:short": "USPS", "operator:type": "public", "operator:wikidata": "Q668687", "ref": "7410600017"}, "type": "Feature"}
{"geometry": {"coordinates": [-95.9846178, 36.191285], "type": "Point"}, "id": "nktXa7VJjBIRa0S1dBeF9O2yC9M=", "properties": {"@source_uri": "https://tools.usps.com/UspsToolsRestServices/rest/POLocator/findLocations", "@spider": "usps_collection_boxes", "addr:city": "TULSA", "addr:country": "US", "addr:postcode": "74106", "addr:state": "OK", "addr:street_address": "626 E APACHE ST", "amenity": "post_box", "collection_times": "Mo-Sa 17:00", "note": "ON 12/24 AND 12/31, THIS BOX MAY BE COLLECTED AS EARLY AS 12 NOON.", "nsi_id": "unitedstatespostalservice-a77078", "operator": "United States Postal Service", "operator:short": "USPS", "operator:type": "public", "operator:wikidata": "Q668687", "ref": "7410600021"}, "type": "Feature"}
{"geometry": {"coordinates": [-95.985531, 36.191429532], "type": "Point"}, "id": "0Vz95d6KADench6UM6FObsqnwQo=", "properties": {"@source_uri": "https://tools.usps.com/UspsToolsRestServices/rest/POLocator/findLocations", "@spider": "usps_collection_boxes", "addr:city": "TULSA", "addr:country": "US", "addr:postcode": "74106", "addr:state": "OK", "addr:street_address": "626 E APACHE ST", "amenity": "post_box", "collection_times": "Mo-Fr 17:00", "indoor": "yes", "note": "ON 12/24 AND 12/31, THIS BOX MAY BE COLLECTED AS EARLY AS 12 NOON.", "nsi_id": "unitedstatespostalservice-a77078", "operator": "United States Postal Service", "operator:short": "USPS", "operator:type": "public", "operator:wikidata": "Q668687", "ref": "7410600023"}, "type": "Feature"}
{"geometry": {"coordinates": [-96.02471, 36.10354], "type": "Point"}, "id": "F0BjT_zMmgoru2sF2Ia8A0TWvK4=", "properties": {"@source_uri": "https://tools.usps.com/UspsToolsRestServices/rest/POLocator/findLocations", "@spider": "usps_collection_boxes", "addr:city": "TULSA", "addr:country": "US", "addr:postcode": "74107", "addr:state": "OK", "addr:street_address": "2420 SOUTHWEST BLVD", "amenity": "post_box", "collection_times": "Mo-Fr 10:30", "nsi_id": "unitedstatespostalservice-a77078", "operator": "United States Postal Service", "operator:short": "USPS", "operator:type": "public", "operator:wikidata": "Q668687", "ref": "7410700008"}, "type": "Feature"}
{"geometry": {"coordinates": [-96.02471, 36.10354], "type": "Point"}, "id": "RfMVRJI9JoIxFM0crWXwpQsfsA8=", "properties": {"@source_uri": "https://tools.usps.com/UspsToolsRestServices/rest/POLocator/findLocations", "@spider": "usps_collection_boxes", "addr:city": "TULSA", "addr:country": "US", "addr:postcode": "74107", "addr:state": "OK", "addr:street_address": "3408 W 42ND PL", "amenity": "post_box", "collection_times": "Mo-Fr 17:00; Sa 16:30", "note": "ON 12/24 AND 12/31, THIS BOX MAY BE COLLECTED AS EARLY AS 12 NOON.", "nsi_id": "unitedstatespostalservice-a77078", "operator": "United States Postal Service", "operator:short": "USPS", "operator:type": "public", "operator:wikidata": "Q668687", "ref": "7410700017"}, "type": "Feature"}
{"geometry": {"coordinates": [-96.0311040078, 36.1008780152], "type": "Point"}, "id": "NiFhZ9XzxPDdwff2MGIoglosrns=", "properties": {"@source_uri": "https://tools.usps.com/UspsToolsRestServices/rest/POLocator/findLocations", "@spider": "usps_collection_boxes", "addr:city": "TULSA", "addr:country": "US", "addr:postcode": "74107", "addr:state": "OK", "addr:street_address": "3408 W 42ND PL", "amenity": "post_box", "collection_times": "Mo-Fr 17:00; Sa 16:30", "indoor": "yes", "note": "ON 12/24 AND 12/31, THIS BOX MAY BE COLLECTED AS EARLY AS 12 NOON.", "nsi_id": "unitedstatespostalservice-a77078", "operator": "United States Postal Service", "operator:short": "USPS", "operator:type": "public", "operator:wikidata": "Q668687", "ref": "7410700029"}, "type": "Feature"}
{"geometry": {"coordinates": [-96.0311040078, 36.1008780152], "type": "Point"}, "id": "NzVSASMSZIyUq-RilAlJibw570c=", "properties": {"@source_uri": "https://tools.usps.com/UspsToolsRestServices/rest/POLocator/findLocations", "@spider": "usps_collection_boxes", "addr:city": "TULSA", "addr:country": "US", "addr:postcode": "74107", "addr:state": "OK", "addr:street_address": "3408 W 42ND PL", "amenity": "post_box", "collection_times": "Mo-Fr 17:00; Sa 16:30", "indoor": "yes", "note": "ON 12/24 AND 12/31, THIS BOX MAY BE COLLECTED AS EARLY AS 12 NOON.", "nsi_id": "unitedstatespostalservice-a77078", "operator": "United States Postal Service", "operator:short": "USPS", "operator:type": "public", "operator:wikidata": "Q668687", "ref": "7410700030"}, "type": "Feature"}
{"geometry": {"coordinates": [-96.0624270123, 36.104055008], "type": "Point"}, "id": "_KzpMqGMOVPtlld9-qAfGYwMnmw=", "properties": {"@source_uri": "https://tools.usps.com/UspsToolsRestServices/rest/POLocator/findLocations", "@spider": "usps_collection_boxes", "addr:city": "TULSA", "addr:country": "US", "addr:postcode": "74107", "addr:state": "OK", "addr:street_address": "6136 W 41ST ST", "amenity": "post_box", "collection_times": "Mo-Fr 13:00", "note": "ON 12/24 AND 12/31, THIS BOX MAY BE COLLECTED AS EARLY AS 12 NOON.", "nsi_id": "unitedstatespostalservice-a77078", "operator": "United States Postal Service", "operator:short": "USPS", "operator:type": "public", "operator:wikidata": "Q668687", "ref": "7410700033"}, "type": "Feature"}
{"geometry": {"coordinates": [-96.0311040078, 36.1008780152], "type": "Point"}, "id": "R-n3ilk2WUTH685-S2yb6AC-Eow=", "properties": {"@source_uri": "https://tools.usps.com/UspsToolsRestServices/rest/POLocator/findLocations", "@spider": "usps_collection_boxes", "addr:city": "TULSA", "addr:country": "US", "addr:postcode": "74107", "addr:state": "OK", "addr:street_address": "3408 W 42ND PL", "amenity": "post_box", "collection_times": "Mo-Fr 17:00; Sa 12:00", "indoor": "yes", "note": "ON 12/24 AND 12/31, THIS BOX MAY BE COLLECTED AS EARLY AS 12 NOON.", "nsi_id": "unitedstatespostalservice-a77078", "operator": "United States Postal Service", "operator:short": "USPS", "operator:type": "public", "operator:wikidata": "Q668687", "ref": "7410700035"}, "type": "Feature"}
{"geometry": {"coordinates": [-95.9583308867, 36.178127112], "type": "Point"}, "id": "JkgjWiBj3zxf8D-3YEMbttCX4gg=", "properties": {"@source_uri": "https://tools.usps.com/UspsToolsRestServices/rest/POLocator/findLocations", "@spider": "usps_collection_boxes", "addr:city": "TULSA", "addr:country": "US", "addr:postcode": "74110", "addr:state": "OK", "addr:street_address": "1544 N LEWIS AVE", "amenity": "post_box", "collection_times": "Mo-Fr 14:00", "note": "ON 12/24 AND 12/31, THIS BOX MAY BE COLLECTED AS EARLY AS 12 NOON.", "nsi_id": "unitedstatespostalservice-a77078", "operator": "United States Postal Service", "operator:short": "USPS", "operator:type": "public", "operator:wikidata": "Q668687", "ref": "7411000006"}, "type": "Feature"}
{"geometry": {"coordinates": [-95.92697, 36.150975], "type": "Point"}, "id": "9Q9N1l0uB01-CrmrObdRtP1lT7Y=", "properties": {"@source_uri": "https://tools.usps.com/UspsToolsRestServices/rest/POLocator/findLocations", "@spider": "usps_collection_boxes", "addr:city": "TULSA", "addr:country": "US", "addr:postcode": "74112", "addr:state": "OK", "addr:street_address": "1330 S HARVARD AVE", "amenity": "post_box", "collection_times": "Mo-Fr 12:00", "nsi_id": "unitedstatespostalservice-a77078", "operator": "United States Postal Service", "operator:short": "USPS", "operator:type": "public", "operator:wikidata": "Q668687", "ref": "7411200000"}, "type": "Feature"}
{"geometry": {"coordinates": [-95.9515829645, 36.1335779988], "type": "Point"}, "id": "-o7RHrhMaJpHIsVFfWSyDiaV_rw=", "properties": {"@source_uri": "https://tools.usps.com/UspsToolsRestServices/rest/POLocator/findLocations", "@spider": "usps_collection_boxes", "addr:city": "TULSA", "addr:country": "US", "addr:postcode": "74114", "addr:state": "OK", "addr:street_address": "2651 E 21ST ST", "amenity": "post_box", "collection_times": "Mo-Fr 09:30", "nsi_id": "unitedstatespostalservice-a77078", "operator": "United States Postal Service", "operator:short": "USPS", "operator:type": "public", "operator:wikidata": "Q668687", "ref": "7411400004"}, "type": "Feature"}
{"geometry": {"coordinates": [-95.9498761, 36.133533], "type": "Point"}, "id": "0cWgDIFeSH6eAAEgY-ccTx-05GU=", "properties": {"@source_uri": "https://tools.usps.com/UspsToolsRestServices/rest/POLocator/findLocations", "@spider": "usps_collection_boxes", "addr:city": "TULSA", "addr:country": "US", "addr:postcode": "74114", "addr:state": "OK", "addr:street_address": "2727 E 21ST ST", "amenity": "post_box", "collection_times": "Mo-Fr 10:00", "nsi_id": "unitedstatespostalservice-a77078", "operator": "United States Postal Service", "operator:short": "USPS", "operator:type": "public", "operator:wikidata": "Q668687", "ref": "7411400012"}, "type": "Feature"}
{"geometry": {"coordinates": [-95.963943, 36.131937], "type": "Point"}, "id": "eQ2yRrigMQH0Y0g9Y4Z955AZTgk=", "properties": {"@source_uri": "https://tools.usps.com/UspsToolsRestServices/rest/POLocator/findLocations", "@spider": "usps_collection_boxes", "addr:city": "TULSA", "addr:country": "US", "addr:postcode": "74114", "addr:state": "OK", "addr:street_address": "2032 UTICA SQ", "amenity": "post_box", "collection_times": "Mo-Fr 17:00; Sa 14:00", "note": "ON 12/24 AND 12/31, THIS BOX MAY BE COLLECTED AS EARLY AS 12 NOON.", "nsi_id": "unitedstatespostalservice-a77078", "operator": "United States Postal Service", "operator:short": "USPS", "operator:type": "public", "operator:wikidata": "Q668687", "ref": "7411400017"}, "type": "Feature"}
{"geometry": {"coordinates": [-95.9392329845, 36.1779370001], "type": "Point"}, "id": "7mHGStw6xcFZRp7cGoWNDF6CXW8=", "properties": {"@source_uri": "https://tools.usps.com/UspsToolsRestServices/rest/POLocator/findLocations", "@spider": "usps_collection_boxes", "addr:city": "TULSA", "addr:country": "US", "addr:postcode": "74115", "addr:state": "OK", "addr:street_address": "1515 N HARVARD AVE", "amenity": "post_box", "collection_times": "Mo-Fr 11:00", "nsi_id": "unitedstatespostalservice-a77078", "operator": "United States Postal Service", "operator:short": "USPS", "operator:type": "public", "operator:wikidata": "Q668687", "ref": "7411500008"}, "type": "Feature"}
{"geometry": {"coordinates": [-95.9175680279, 36.1669479898], "type": "Point"}, "id": "UI3zM6bCyxlBcAIqalEdtHzOCKs=", "properties": {"@source_uri": "https://tools.usps.com/UspsToolsRestServices/rest/POLocator/findLocations", "@spider": "usps_collection_boxes", "addr:city": "TULSA", "addr:country": "US", "addr:postcode": "74115", "addr:state": "OK", "addr:street_address": "5313 E INDEPENDENCE ST", "amenity": "post_box", "collection_times": "Mo-Fr 17:00; Sa 16:00", "note": "ON 12/24 AND 12/31, THIS BOX MAY BE COLLECTED AS EARLY AS 12 NOON.", "nsi_id": "unitedstatespostalservice-a77078", "operator": "United States Postal Service", "operator:short": "USPS", "operator:type": "public", "operator:wikidata": "Q668687", "ref": "7411500011"}, "type": "Feature"}
{"geometry": {"coordinates": [-95.9033244, 36.173465], "type": "Point"}, "id": "rrJ-AKazKRYwdumIla1rfT9LWkA=", "properties": {"@source_uri": "https://tools.usps.com/UspsToolsRestServices/rest/POLocator/findLocations", "@spider": "usps_collection_boxes", "addr:city": "TULSA", "addr:country": "US", "addr:postcode": "74115", "addr:state": "OK", "addr:street_address": "2601 N SHERIDAN RD", "amenity": "post_box", "collection_times": "Mo-Fr 10:00", "nsi_id": "unitedstatespostalservice-a77078", "operator": "United States Postal Service", "operator:short": "USPS", "operator:type": "public", "operator:wikidata": "Q668687", "ref": "7411500018"}, "type": "Feature"}
{"geometry": {"coordinates": [-95.917608367, 36.166282572], "type": "Point"}, "id": "PyemtRB5QQhUfDgMTZKU_lY814U=", "properties": {"@source_uri": "https://tools.usps.com/UspsToolsRestServices/rest/POLocator/findLocations", "@spider": "usps_collection_boxes", "addr:city": "TULSA", "addr:country": "US", "addr:postcode": "74115", "addr:state": "OK", "addr:street_address": "5313 E INDEPENDENCE ST", "amenity": "post_box", "collection_times": "Mo-Fr 17:00", "indoor": "yes", "note": "ON 12/24 AND 12/31, THIS BOX MAY BE COLLECTED AS EARLY AS 12 NOON.", "nsi_id": "unitedstatespostalservice-a77078", "operator": "United States Postal Service", "operator:short": "USPS", "operator:type": "public", "operator:wikidata": "Q668687", "ref": "7411500039"}, "type": "Feature"}
{"geometry": {"coordinates": [-95.888251204, 36.185297288], "type": "Point"}, "id": "hLhdq3_XXmPgUV7iBG0WKetubtE=", "properties": {"@source_uri": "https://tools.usps.com/UspsToolsRestServices/rest/POLocator/findLocations", "@spider": "usps_collection_boxes", "addr:city": "TULSA", "addr:country": "US", "addr:postcode": "74115", "addr:state": "OK", "addr:street_address": "2161 N CARGO RD STE A", "amenity": "post_box", "collection_times": "Mo-Fr 18:00; Sa 16:00", "indoor": "yes", "note": "ON 12/24 AND 12/31, THIS BOX MAY BE COLLECTED AS EARLY AS 12 NOON.", "nsi_id": "unitedstatespostalservice-a77078", "operator": "United States Postal Service", "operator:short": "USPS", "operator:type": "public", "operator:wikidata": "Q668687", "ref": "7411500040"}, "type": "Feature"}
{"geometry": {"coordinates": [-95.868867206, 36.205072736], "type": "Point"}, "id": "tAVvLogNlRZe7igWb2t1BumkqgI=", "properties": {"@source_uri": "https://tools.usps.com/UspsToolsRestServices/rest/POLocator/findLocations", "@spider": "usps_collection_boxes", "addr:city": "TULSA", "addr:country": "US", "addr:postcode": "74116", "addr:state": "OK", "addr:street_address": "3850 N MINGO RD", "amenity": "post_box", "collection_times": "Mo-Fr 11:00", "nsi_id": "unitedstatespostalservice-a77078", "operator": "United States Postal Service", "operator:short": "USPS", "operator:type": "public", "operator:wikidata": "Q668687", "ref": "7411600012"}, "type": "Feature"}
{"geometry": {"coordinates": [-95.865283, 36.161619], "type": "Point"}, "id": "IEvTqJeT3TP_83OU0mz5XiXRUcs=", "properties": {"@source_uri": "https://tools.usps.com/UspsToolsRestServices/rest/POLocator/findLocations", "@spider": "usps_collection_boxes", "addr:city": "TULSA", "addr:country": "US", "addr:postcode": "74116", "addr:state": "OK", "addr:street_address": "10161 E ADMIRAL PL", "amenity": "post_box", "collection_times": "Mo-Fr 12:00", "nsi_id": "unitedstatespostalservice-a77078", "operator": "United States Postal Service", "operator:short": "USPS", "operator:type": "public", "operator:wikidata": "Q668687", "ref": "7411600014"}, "type": "Feature"}
{"geometry": {"coordinates": [-95.9905575, 36.150552], "type": "Point"}, "id": "NcnmRJZ0SjNBHnhfcgMIiSK-_BU=", "properties": {"@source_uri": "https://tools.usps.com/UspsToolsRestServices/rest/POLocator/findLocations", "@spider": "usps_collection_boxes", "addr:city": "TULSA", "addr:country": "US", "addr:postcode": "74119", "addr:state": "OK", "addr:street_address": "15 W 6TH ST", "amenity": "post_box", "collection_times": "Mo-Fr 16:15", "note": "ON 12/24 AND 12/31, THIS BOX MAY BE COLLECTED AS EARLY AS 12 NOON.", "nsi_id": "unitedstatespostalservice-a77078", "operator": "United States Postal Service", "operator:short": "USPS", "operator:type": "public", "operator:wikidata": "Q668687", "ref": "7411900012"}, "type": "Feature"}
{"geometry": {"coordinates": [-95.9877375785, 36.1498111239], "type": "Point"}, "id": "9ENH0LbMNbMQPfA2Gw1K33wJLIs=", "properties": {"@source_uri": "https://tools.usps.com/UspsToolsRestServices/rest/POLocator/findLocations", "@spider": "usps_collection_boxes", "addr:city": "TULSA", "addr:country": "US", "addr:postcode": "74119", "addr:state": "OK", "addr:street_address": "715 S BOSTON AVE", "amenity": "post_box", "collection_times": "Mo-Fr 12:00", "nsi_id": "unitedstatespostalservice-a77078", "operator": "United States Postal Service", "operator:short": "USPS", "operator:type": "public", "operator:wikidata": "Q668687", "ref": "7411900015"}, "type": "Feature"}
{"geometry": {"coordinates": [-95.989315, 36.14061], "type": "Point"}, "id": "K2Scg_FNz4ilykJZAvmXYWuiDWI=", "properties": {"@source_uri": "https://tools.usps.com/UspsToolsRestServices/rest/POLocator/findLocations", "@spider": "usps_collection_boxes", "addr:city": "TULSA", "addr:country": "US", "addr:postcode": "74119", "addr:state": "OK", "addr:street_address": "1516 S BOSTON AVE", "amenity": "post_box", "collection_times": "Mo-Fr 15:15", "note": "ON 12/24 AND 12/31, THIS BOX MAY BE COLLECTED AS EARLY AS 12 NOON.", "nsi_id": "unitedstatespostalservice-a77078", "operator": "United States Postal Service", "operator:short": "USPS", "operator:type": "public", "operator:wikidata": "Q668687", "ref": "7411900020"}, "type": "Feature"}
{"geometry": {"coordinates": [-95.9865000172, 36.1504983914], "type": "Point"}, "id": "7MYFhARWnVpaxI0_t1SLuGTQpao=", "properties": {"@source_uri": "https://tools.usps.com/UspsToolsRestServices/rest/POLocator/findLocations", "@spider": "usps_collection_boxes", "addr:city": "TULSA", "addr:country": "US", "addr:postcode": "74119", "addr:state": "OK", "addr:street_address": "213 E 7TH", "amenity": "post_box", "collection_times": "Mo-Fr 16:15", "note": "ON 12/24 AND 12/31, THIS BOX MAY BE COLLECTED AS EARLY AS 12 NOON.", "nsi_id": "unitedstatespostalservice-a77078", "operator": "United States Postal Service", "operator:short": "USPS", "operator:type": "public", "operator:wikidata": "Q668687", "ref": "7411900045"}, "type": "Feature"}
{"geometry": {"coordinates": [-95.9892795, 36.142659], "type": "Point"}, "id": "mejjD5sXe4YgitoV0P9MHXg80N8=", "properties": {"@source_uri": "https://tools.usps.com/UspsToolsRestServices/rest/POLocator/findLocations", "@spider": "usps_collection_boxes", "addr:city": "TULSA", "addr:country": "US", "addr:postcode": "74119", "addr:state": "OK", "addr:street_address": "1350 S BOULDER AVE", "amenity": "post_box", "collection_times": "Mo-Fr 15:30", "note": "ON 12/24 AND 12/31, THIS BOX MAY BE COLLECTED AS EARLY AS 12 NOON.", "nsi_id": "unitedstatespostalservice-a77078", "operator": "United States Postal Service", "operator:short": "USPS", "operator:type": "public", "operator:wikidata": "Q668687", "ref": "7411900060"}, "type": "Feature"}
{"geometry": {"coordinates": [-95.975513741, 36.248238995], "type": "Point"}, "id": "4JDzYfpRqCdxnG5D93pfl16_FMk=", "properties": {"@source_uri": "https://tools.usps.com/UspsToolsRestServices/rest/POLocator/findLocations", "@spider": "usps_collection_boxes", "addr:city": "TULSA", "addr:country": "US", "addr:postcode": "74126", "addr:state": "OK", "addr:street_address": "6528 N PEORIA AVE", "amenity": "post_box", "collection_times": "Mo-Fr 12:00", "nsi_id": "unitedstatespostalservice-a77078", "operator": "United States Postal Service", "operator:short": "USPS", "operator:type": "public", "operator:wikidata": "Q668687", "ref": "7412600002"}, "type": "Feature"}
{"geometry": {"coordinates": [-96.0459909, 36.15485], "type": "Point"}, "id": "SlUAEy0Q62UypVTUR99mpUt3yJ8=", "properties": {"@source_uri": "https://tools.usps.com/UspsToolsRestServices/rest/POLocator/findLocations", "@spider": "usps_collection_boxes", "addr:city": "TULSA", "addr:country": "US", "addr:postcode": "74127", "addr:state": "OK", "addr:street_address": "19 S 49TH WEST AVE", "amenity": "post_box", "collection_times": "Mo-Fr 12:00", "nsi_id": "unitedstatespostalservice-a77078", "operator": "United States Postal Service", "operator:short": "USPS", "operator:type": "public", "operator:wikidata": "Q668687", "ref": "7412700005"}, "type": "Feature"}
{"geometry": {"coordinates": [-95.8517407952, 36.1478427353], "type": "Point"}, "id": "OP6uFFb_k2XvrJMxmGUaFmv_Sjg=", "properties": {"@source_uri": "https://tools.usps.com/UspsToolsRestServices/rest/POLocator/findLocations", "@spider": "usps_collection_boxes", "addr:city": "TULSA", "addr:country": "US", "addr:postcode": "74128", "addr:state": "OK", "addr:street_address": "11212 E 11TH ST", "amenity": "post_box", "collection_times": "Mo-Fr 16:30", "note": "ON 12/24 AND 12/31, THIS BOX MAY BE COLLECTED AS EARLY AS 12 NOON.", "nsi_id": "unitedstatespostalservice-a77078", "operator": "United States Postal Service", "operator:short": "USPS", "operator:type": "public", "operator:wikidata": "Q668687", "ref": "7412800000"}, "type": "Feature"}
{"geometry": {"coordinates": [-95.9044989455, 36.1207027615], "type": "Point"}, "id": "D1_NOTzV_vT2dk7MN3sIQMlsCPQ=", "properties": {"@source_uri": "https://tools.usps.com/UspsToolsRestServices/rest/POLocator/findLocations", "@spider": "usps_collection_boxes", "addr:city": "TULSA", "addr:country": "US", "addr:postcode": "74129", "addr:state": "OK", "addr:street_address": "3025 S SHERIDAN RD", "amenity": "post_box", "collection_times": "Mo-Fr 15:00", "note": "ON 12/24 AND 12/31, THIS BOX MAY BE COLLECTED AS EARLY AS 12 NOON.", "nsi_id": "unitedstatespostalservice-a77078", "operator": "United States Postal Service", "operator:short": "USPS", "operator:type": "public", "operator:wikidata": "Q668687", "ref": "7412900007"}, "type": "Feature"}
{"geometry": {"coordinates": [-95.833287058, 36.120933], "type": "Point"}, "id": "QFVg7BFuZIROT3ojU_8LqiU_VgQ=", "properties": {"@source_uri": "https://tools.usps.com/UspsToolsRestServices/rest/POLocator/findLocations", "@spider": "usps_collection_boxes", "addr:city": "TULSA", "addr:country": "US", "addr:postcode": "74129", "addr:state": "OK", "addr:street_address": "2920 S 129TH EAST AVE", "amenity": "post_box", "collection_times": "Mo-Fr 18:00", "indoor": "yes", "note": "ON 12/24 AND 12/31, THIS BOX MAY BE COLLECTED AS EARLY AS 12 NOON.", "nsi_id": "unitedstatespostalservice-a77078", "operator": "United States Postal Service", "operator:short": "USPS", "operator:type": "public", "operator:wikidata": "Q668687", "ref": "7412900010"}, "type": "Feature"}
{"geometry": {"coordinates": [-95.9055399969, 36.0294950036], "type": "Point"}, "id": "_EatJvEymtKqQj7tjn9m49Edi5c=", "properties": {"@source_uri": "https://tools.usps.com/UspsToolsRestServices/rest/POLocator/findLocations", "@spider": "usps_collection_boxes", "addr:city": "TULSA", "addr:country": "US", "addr:postcode": "74133", "addr:state": "OK", "addr:street_address": "9230 S SHERIDAN RD", "amenity": "post_box", "collection_times": "Mo-Fr 17:00; Sa 16:30", "note": "ON 12/24 AND 12/31, THIS BOX MAY BE COLLECTED AS EARLY AS 12 NOON.", "nsi_id": "unitedstatespostalservice-a77078", "operator": "United States Postal Service", "operator:short": "USPS", "operator:type": "public", "operator:wikidata": "Q668687", "ref": "7413300001"}, "type": "Feature"}
{"geometry": {"coordinates": [-95.9032176, 36.016824], "type": "Point"}, "id": "V4jS-qekXWuj9TALDsqB2tWqhY4=", "properties": {"@source_uri": "https://tools.usps.com/UspsToolsRestServices/rest/POLocator/findLocations", "@spider": "usps_collection_boxes", "addr:city": "TULSA", "addr:country": "US", "addr:postcode": "74133", "addr:state": "OK", "addr:street_address": "10101 S SHERIDAN RD", "amenity": "post_box", "collection_times": "Mo-Fr 16:30", "note": "ON 12/24 AND 12/31, THIS BOX MAY BE COLLECTED AS EARLY AS 12 NOON.", "nsi_id": "unitedstatespostalservice-a77078", "operator": "United States Postal Service", "operator:short": "USPS", "operator:type": "public", "operator:wikidata": "Q668687", "ref": "7413300007"}, "type": "Feature"}
{"geometry": {"coordinates": [-95.897735, 36.061505], "type": "Point"}, "id": "bBxJ4ZKaPU4ovHZor-TEKx00tJE=", "properties": {"@source_uri": "https://tools.usps.com/UspsToolsRestServices/rest/POLocator/findLocations", "@spider": "usps_collection_boxes", "addr:city": "TULSA", "addr:country": "US", "addr:postcode": "74133", "addr:state": "OK", "addr:street_address": "9000 S MEMORIAL DR", "amenity": "post_box", "collection_times": "Mo-Fr 10:00", "nsi_id": "unitedstatespostalservice-a77078", "operator": "United States Postal Service", "operator:short": "USPS", "operator:type": "public", "operator:wikidata": "Q668687", "ref": "7413300008"}, "type": "Feature"}
{"geometry": {"coordinates": [-95.8863733981, 36.0447665574], "type": "Point"}, "id": "DBbPVmELrJSogpbttiMZwUYoE9g=", "properties": {"@source_uri": "https://tools.usps.com/UspsToolsRestServices/rest/POLocator/findLocations", "@spider": "usps_collection_boxes", "addr:city": "TULSA", "addr:country": "US", "addr:postcode": "74133", "addr:state": "OK", "addr:street_address": "8130 S MEMORIAL DR", "amenity": "post_box", "collection_times": "Mo-Fr 12:00", "nsi_id": "unitedstatespostalservice-a77078", "operator": "United States Postal Service", "operator:short": "USPS", "operator:type": "public", "operator:wikidata": "Q668687", "ref": "7413300035"}, "type": "Feature"}
{"geometry": {"coordinates": [-95.8682185, 36.074915], "type": "Point"}, "id": "EyaKguTBun0FUBPF8TRjpacZWi8=", "properties": {"@source_uri": "https://tools.usps.com/UspsToolsRestServices/rest/POLocator/findLocations", "@spider": "usps_collection_boxes", "addr:city": "TULSA", "addr:country": "US", "addr:postcode": "74133", "addr:state": "OK", "addr:street_address": "6105 S MINGO RD", "amenity": "post_box", "collection_times": "Mo-Fr 16:15", "note": "ON 12/24 AND 12/31, THIS BOX MAY BE COLLECTED AS EARLY AS 12 NOON.", "nsi_id": "unitedstatespostalservice-a77078", "operator": "United States Postal Service", "operator:short": "USPS", "operator:type": "public", "operator:wikidata": "Q668687", "ref": "7413300038"}, "type": "Feature"}
{"geometry": {"coordinates": [-95.8711099885, 36.0624880186], "type": "Point"}, "id": "oOBW_hdTfG2RrbvnHS5D6ZjqwRk=", "properties": {"@source_uri": "https://tools.usps.com/UspsToolsRestServices/rest/POLocator/findLocations", "@spider": "usps_collection_boxes", "addr:city": "TULSA", "addr:country": "US", "addr:postcode": "74133", "addr:state": "OK", "addr:street_address": "6922 S MINGO RD", "amenity": "post_box", "collection_times": "Mo-Fr 10:30", "nsi_id": "unitedstatespostalservice-a77078", "operator": "United States Postal Service", "operator:short": "USPS", "operator:type": "public", "operator:wikidata": "Q668687", "ref": "7413300043"}, "type": "Feature"}
{"geometry": {"coordinates": [-95.8883700035, 36.0744300094], "type": "Point"}, "id": "KXlBLi-F647kfZo1hdx2NlEvQUg=", "properties": {"@source_uri": "https://tools.usps.com/UspsToolsRestServices/rest/POLocator/findLocations", "@spider": "usps_collection_boxes", "addr:city": "TULSA", "addr:country": "US", "addr:postcode": "74133", "addr:state": "OK", "addr:street_address": "7666 E 61ST ST", "amenity": "post_box", "collection_times": "Mo-Fr 09:45", "nsi_id": "unitedstatespostalservice-a77078", "operator": "United States Postal Service", "operator:short": "USPS", "operator:type": "public", "operator:wikidata": "Q668687", "ref": "7413300053"}, "type": "Feature"}
{"geometry": {"coordinates": [-95.897735, 36.061505], "type": "Point"}, "id": "NI1uaZkFR-PfXNomlV8AsESk6pI=", "properties": {"@source_uri": "https://tools.usps.com/UspsToolsRestServices/rest/POLocator/findLocations", "@spider": "usps_collection_boxes", "addr:city": "TULSA", "addr:country": "US", "addr:postcode": "74133", "addr:state": "OK", "addr:street_address": "8803 S 101ST EAST AVE", "amenity": "post_box", "collection_times": "Mo-Fr 11:30", "nsi_id": "unitedstatespostalservice-a77078", "operator": "United States Postal Service", "operator:short": "USPS", "operator:type": "public", "operator:wikidata": "Q668687", "ref": "7413300061"}, "type": "Feature"}
{"geometry": {"coordinates": [-95.8874973, 36.00969], "type": "Point"}, "id": "edgDWtQ5K9HOyFY4Yz4tgTf555o=", "properties": {"@source_uri": "https://tools.usps.com/UspsToolsRestServices/rest/POLocator/findLocations", "@spider": "usps_collection_boxes", "addr:city": "TULSA", "addr:country": "US", "addr:postcode": "74133", "addr:state": "OK", "addr:street_address": "10632 S MEMORIAL DR", "amenity": "post_box", "collection_times": "Mo-Sa 11:00", "nsi_id": "unitedstatespostalservice-a77078", "operator": "United States Postal Service", "operator:short": "USPS", "operator:type": "public", "operator:wikidata": "Q668687", "ref": "7413300063"}, "type": "Feature"}
{"geometry": {"coordinates": [-95.897735, 36.061505], "type": "Point"}, "id": "Y5pkf87HNe_i1yECo9q9-Rz1Bq0=", "properties": {"@source_uri": "https://tools.usps.com/UspsToolsRestServices/rest/POLocator/findLocations", "@spider": "usps_collection_boxes", "addr:city": "TULSA", "addr:country": "US", "addr:postcode": "74133", "addr:state": "OK", "addr:street_address": "8103 E 63RD ST", "amenity": "post_box", "collection_times": "Mo-Fr 10:15", "nsi_id": "unitedstatespostalservice-a77078", "operator": "United States Postal Service", "operator:short": "USPS", "operator:type": "public", "operator:wikidata": "Q668687", "ref": "7413300092"}, "type": "Feature"}
{"geometry": {"coordinates": [-95.8340199831, 36.12101998], "type": "Point"}, "id": "L73BIAwigIjj1Ta8yJPDPSMwQ8U=", "properties": {"@source_uri": "https://tools.usps.com/UspsToolsRestServices/rest/POLocator/findLocations", "@spider": "usps_collection_boxes", "addr:city": "TULSA", "addr:country": "US", "addr:postcode": "74134", "addr:state": "OK", "addr:street_address": "2920 S 129TH EAST AVE", "amenity": "post_box", "collection_times": "Mo-Fr 17:00; Sa 16:15", "note": "ON 12/24 AND 12/31, THIS BOX MAY BE COLLECTED AS EARLY AS 12 NOON.", "nsi_id": "unitedstatespostalservice-a77078", "operator": "United States Postal Service", "operator:short": "USPS", "operator:type": "public", "operator:wikidata": "Q668687", "ref": "7413400008"}, "type": "Feature"}
{"geometry": {"coordinates": [-95.833282, 36.122489], "type": "Point"}, "id": "Ak0VAJpi-79tXMdo9q8W6-WrvS4=", "properties": {"@source_uri": "https://tools.usps.com/UspsToolsRestServices/rest/POLocator/findLocations", "@spider": "usps_collection_boxes", "addr:city": "TULSA", "addr:country": "US", "addr:postcode": "74134", "addr:state": "OK", "addr:street_address": "2920 S 129TH EAST AVE", "amenity": "post_box", "collection_times": "Mo-Fr 17:00; Sa 16:15", "indoor": "yes", "note": "ON 12/24 AND 12/31, THIS BOX MAY BE COLLECTED AS EARLY AS 12 NOON.", "nsi_id": "unitedstatespostalservice-a77078", "operator": "United States Postal Service", "operator:short": "USPS", "operator:type": "public", "operator:wikidata": "Q668687", "ref": "7413400010"}, "type": "Feature"}
{"geometry": {"coordinates": [-95.833282, 36.122489], "type": "Point"}, "id": "M6VWiJAxyHRxzDNhMGfFciG3Yp4=", "properties": {"@source_uri": "https://tools.usps.com/UspsToolsRestServices/rest/POLocator/findLocations", "@spider": "usps_collection_boxes", "addr:city": "TULSA", "addr:country": "US", "addr:postcode": "74134", "addr:state": "OK", "addr:street_address": "2920 S 129TH EAST AVE", "amenity": "post_box", "collection_times": "Mo-Fr 17:00; Sa 16:15", "indoor": "yes", "note": "ON 12/24 AND 12/31, THIS BOX MAY BE COLLECTED AS EARLY AS 12 NOON.", "nsi_id": "unitedstatespostalservice-a77078", "operator": "United States Postal Service", "operator:short": "USPS", "operator:type": "public", "operator:wikidata": "Q668687", "ref": "7413400011"}, "type": "Feature"}
{"geometry": {"coordinates": [-95.833282, 36.122489], "type": "Point"}, "id": "Sh7rznzlnCkHLxfEPNCq1Q6BW-E=", "properties": {"@source_uri": "https://tools.usps.com/UspsToolsRestServices/rest/POLocator/findLocations", "@spider": "usps_collection_boxes", "addr:city": "TULSA", "addr:country": "US", "addr:postcode": "74134", "addr:state": "OK", "addr:street_address": "2920 S 129TH EAST AVE", "amenity": "post_box", "collection_times": "Mo-Fr 17:00; Sa 16:15", "indoor": "yes", "note": "ON 12/24 AND 12/31, THIS BOX MAY BE COLLECTED AS EARLY AS 12 NOON.", "nsi_id": "unitedstatespostalservice-a77078", "operator": "United States Postal Service", "operator:short": "USPS", "operator:type": "public", "operator:wikidata": "Q668687", "ref": "7413400012"}, "type": "Feature"}
{"geometry": {"coordinates": [-95.833282, 36.122489], "type": "Point"}, "id": "V5ONRQN3aKoPy-qt0qaRac76HGY=", "properties": {"@source_uri": "https://tools.usps.com/UspsToolsRestServices/rest/POLocator/findLocations", "@spider": "usps_collection_boxes", "addr:city": "TULSA", "addr:country": "US", "addr:postcode": "74134", "addr:state": "OK", "addr:street_address": "2920 S 129TH EAST AVE", "amenity": "post_box", "collection_times": "Mo-Fr 17:00; Sa 16:15", "name": "USPS COLLECTION BOX - APC", "note": "ON 12/24 AND 12/31, THIS BOX MAY BE COLLECTED AS EARLY AS 12 NOON.", "nsi_id": "unitedstatespostalservice-a77078", "operator": "United States Postal Service", "operator:short": "USPS", "operator:type": "public", "operator:wikidata": "Q668687", "ref": "7413400016"}, "type": "Feature"}
{"geometry": {"coordinates": [-95.94021091, 36.117612521], "type": "Point"}, "id": "PUA6RdeagboFx2Kiztsi0AYAWHE=", "properties": {"@source_uri": "https://tools.usps.com/UspsToolsRestServices/rest/POLocator/findLocations", "@spider": "usps_collection_boxes", "addr:city": "TULSA", "addr:country": "US", "addr:postcode": "74135", "addr:state": "OK", "addr:street_address": "3133 S HARVARD AVE", "amenity": "post_box", "collection_times": "Mo-Fr 08:45", "nsi_id": "unitedstatespostalservice-a77078", "operator": "United States Postal Service", "operator:short": "USPS", "operator:type": "public", "operator:wikidata": "Q668687", "ref": "7413500004"}, "type": "Feature"}
{"geometry": {"coordinates": [-95.9401754611, 36.1073701676], "type": "Point"}, "id": "_eNf_D49plu2ilPFlHU6k4Tp2yI=", "properties": {"@source_uri": "https://tools.usps.com/UspsToolsRestServices/rest/POLocator/findLocations", "@spider": "usps_collection_boxes", "addr:city": "TULSA", "addr:country": "US", "addr:postcode": "74135", "addr:state": "OK", "addr:street_address": "3815 S HARVARD AVE", "amenity": "post_box", "collection_times": "Mo-Fr 10:45", "nsi_id": "unitedstatespostalservice-a77078", "operator": "United States Postal Service", "operator:short": "USPS", "operator:type": "public", "operator:wikidata": "Q668687", "ref": "7413500006"}, "type": "Feature"}
{"geometry": {"coordinates": [-95.9077981, 36.106732], "type": "Point"}, "id": "NHSXBcCNhW4hW9b1JqiecoqRUxM=", "properties": {"@source_uri": "https://tools.usps.com/UspsToolsRestServices/rest/POLocator/findLocations", "@spider": "usps_collection_boxes", "addr:city": "TULSA", "addr:country": "US", "addr:postcode": "74135", "addr:state": "OK", "addr:street_address": "6111 E SKELLY DR", "amenity": "post_box", "collection_times": "Mo-Fr 11:30", "nsi_id": "unitedstatespostalservice-a77078", "operator": "United States Postal Service", "operator:short": "USPS", "operator:type": "public", "operator:wikidata": "Q668687", "ref": "7413500017"}, "type": "Feature"}
{"geometry": {"coordinates": [-95.9290039614, 36.0907970164], "type": "Point"}, "id": "cM7btv0f3BzdxwJoSudKtoa-sYQ=", "properties": {"@source_uri": "https://tools.usps.com/UspsToolsRestServices/rest/POLocator/findLocations", "@spider": "usps_collection_boxes", "addr:city": "TULSA", "addr:country": "US", "addr:postcode": "74135", "addr:state": "OK", "addr:street_address": "4200 E SKELLY DR", "amenity": "post_box", "collection_times": "Mo-Fr 09:30", "nsi_id": "unitedstatespostalservice-a77078", "operator": "United States Postal Service", "operator:short": "USPS", "operator:type": "public", "operator:wikidata": "Q668687", "ref": "7413500026"}, "type": "Feature"}
{"geometry": {"coordinates": [-95.9077889, 36.118777], "type": "Point"}, "id": "969hpByqTXIimlI3zYNN3ksDROU=", "properties": {"@source_uri": "https://tools.usps.com/UspsToolsRestServices/rest/POLocator/findLocations", "@spider": "usps_collection_boxes", "addr:city": "TULSA", "addr:country": "US", "addr:postcode": "74135", "addr:state": "OK", "addr:street_address": "6108 E 31ST ST", "amenity": "post_box", "collection_times": "Mo-Fr 15:00", "note": "ON 12/24 AND 12/31, THIS BOX MAY BE COLLECTED AS EARLY AS 12 NOON.", "nsi_id": "unitedstatespostalservice-a77078", "operator": "United States Postal Service", "operator:short": "USPS", "operator:type": "public", "operator:wikidata": "Q668687", "ref": "7413500046"}, "type": "Feature"}
{"geometry": {"coordinates": [-95.9400890374, 36.0897827589], "type": "Point"}, "id": "Jy4jpu8L4cQKWeoOAkASxwGkTp0=", "properties": {"@source_uri": "https://tools.usps.com/UspsToolsRestServices/rest/POLocator/findLocations", "@spider": "usps_collection_boxes", "addr:city": "TULSA", "addr:country": "US", "addr:postcode": "74135", "addr:state": "OK", "addr:street_address": "5101 S HARVARD AVE", "amenity": "post_box", "collection_times": "Mo-Fr 08:30", "nsi_id": "unitedstatespostalservice-a77078", "operator": "United States Postal Service", "operator:short": "USPS", "operator:type": "public", "operator:wikidata": "Q668687", "ref": "7413500083"}, "type": "Feature"}
{"geometry": {"coordinates": [-95.923283983, 36.0893580113], "type": "Point"}, "id": "dGziibA2EquNu3-QoKS3Q5nS3rE=", "properties": {"@source_uri": "https://tools.usps.com/UspsToolsRestServices/rest/POLocator/findLocations", "@spider": "usps_collection_boxes", "addr:city": "TULSA", "addr:country": "US", "addr:postcode": "74135", "addr:state": "OK", "addr:street_address": "5110 S YALE AVE", "amenity": "post_box", "collection_times": "Mo-Fr 15:45", "note": "ON 12/24 AND 12/31, THIS BOX MAY BE COLLECTED AS EARLY AS 12 NOON.", "nsi_id": "unitedstatespostalservice-a77078", "operator": "United States Postal Service", "operator:short": "USPS", "operator:type": "public", "operator:wikidata": "Q668687", "ref": "7413500086"}, "type": "Feature"}
{"geometry": {"coordinates": [-95.906501, 36.08986], "type": "Point"}, "id": "HiiXSXMifCL0CuXiTnkexK7cJQo=", "properties": {"@source_uri": "https://tools.usps.com/UspsToolsRestServices/rest/POLocator/findLocations", "@spider": "usps_collection_boxes", "addr:city": "TULSA", "addr:country": "US", "addr:postcode": "74135", "addr:state": "OK", "addr:street_address": "6110 E 51ST PL/STAMPED", "amenity": "post_box", "collection_times": "Mo-Fr 17:00; Sa 16:15", "indoor": "yes", "note": "ON 12/24 AND 12/31, THIS BOX MAY BE COLLECTED AS EARLY AS 12 NOON.", "nsi_id": "unitedstatespostalservice-a77078", "operator": "United States Postal Service", "operator:short": "USPS", "operator:type": "public", "operator:wikidata": "Q668687", "ref": "7413500096"}, "type": "Feature"}
{"geometry": {"coordinates": [-95.906394029, 36.0887050191], "type": "Point"}, "id": "q3n1NIIUpdqJ46KzeVDwIhmKs0c=", "properties": {"@source_uri": "https://tools.usps.com/UspsToolsRestServices/rest/POLocator/findLocations", "@spider": "usps_collection_boxes", "addr:city": "TULSA", "addr:country": "US", "addr:postcode": "74135", "addr:state": "OK", "addr:street_address": "6110 E 51ST PL", "amenity": "post_box", "collection_times": "Mo-Fr 17:00; Sa 16:15", "name": "USPS COLLECTION BOX - APC", "note": "ON 12/24 AND 12/31, THIS BOX MAY BE COLLECTED AS EARLY AS 12 NOON.", "nsi_id": "unitedstatespostalservice-a77078", "operator": "United States Postal Service", "operator:short": "USPS", "operator:type": "public", "operator:wikidata": "Q668687", "ref": "7413500100"}, "type": "Feature"}
{"geometry": {"coordinates": [-95.9258446, 36.1126678], "type": "Point"}, "id": "fWBbXK9iNSq6DSmRUVaivPnOgag=", "properties": {"@source_uri": "https://tools.usps.com/UspsToolsRestServices/rest/POLocator/findLocations", "@spider": "usps_collection_boxes", "addr:city": "TULSA", "addr:country": "US", "addr:postcode": "74135", "addr:state": "OK", "addr:street_address": "6110 E 51ST PL", "amenity": "post_box", "collection_times": "Mo-Fr 17:00; Sa 16:15", "note": "ON 12/24 AND 12/31, THIS BOX MAY BE COLLECTED AS EARLY AS 12 NOON.", "nsi_id": "unitedstatespostalservice-a77078", "operator": "United States Postal Service", "operator:short": "USPS", "operator:type": "public", "operator:wikidata": "Q668687", "ref": "7413500101"}, "type": "Feature"}
{"geometry": {"coordinates": [-95.906394029, 36.0887050191], "type": "Point"}, "id": "pUxjJWRolybQRNctumH6Sxnw9Gc=", "properties": {"@source_uri": "https://tools.usps.com/UspsToolsRestServices/rest/POLocator/findLocations", "@spider": "usps_collection_boxes", "addr:city": "TULSA", "addr:country": "US", "addr:postcode": "74135", "addr:state": "OK", "addr:street_address": "6110 E 51ST PL", "amenity": "post_box", "collection_times": "Mo-Fr 18:00", "indoor": "yes", "note": "ON 12/24 AND 12/31, THIS BOX MAY BE COLLECTED AS EARLY AS 12 NOON.", "nsi_id": "unitedstatespostalservice-a77078", "operator": "United States Postal Service", "operator:short": "USPS", "operator:type": "public", "operator:wikidata": "Q668687", "ref": "7413500108"}, "type": "Feature"}
{"geometry": {"coordinates": [-95.912405, 36.054385], "type": "Point"}, "id": "O7r3R3KI-L-L5Ap_umpdQ3mIxao=", "properties": {"@source_uri": "https://tools.usps.com/UspsToolsRestServices/rest/POLocator/findLocations", "@spider": "usps_collection_boxes", "addr:city": "TULSA", "addr:country": "US", "addr:postcode": "74136", "addr:state": "OK", "addr:street_address": "1719 E 71ST ST", "amenity": "post_box", "collection_times": "Mo-Fr 15:30", "note": "ON 12/24 AND 12/31, THIS BOX MAY BE COLLECTED AS EARLY AS 12 NOON.", "nsi_id": "unitedstatespostalservice-a77078", "operator": "United States Postal Service", "operator:short": "USPS", "operator:type": "public", "operator:wikidata": "Q668687", "ref": "7413600000"}, "type": "Feature"}
{"geometry": {"coordinates": [-95.912405, 36.054385], "type": "Point"}, "id": "a277JGYe7WdTNDJIp1twSlc8vrg=", "properties": {"@source_uri": "https://tools.usps.com/UspsToolsRestServices/rest/POLocator/findLocations", "@spider": "usps_collection_boxes", "addr:city": "TULSA", "addr:country": "US", "addr:postcode": "74136", "addr:state": "OK", "addr:street_address": "6910 S YORKTOWN AVE", "amenity": "post_box", "collection_times": "Mo-Fr 17:00; Sa 16:30", "note": "ON 12/24 AND 12/31, THIS BOX MAY BE COLLECTED AS EARLY AS 12 NOON.", "nsi_id": "unitedstatespostalservice-a77078", "operator": "United States Postal Service", "operator:short": "USPS", "operator:type": "public", "operator:wikidata": "Q668687", "ref": "7413600003"}, "type": "Feature"}
{"geometry": {"coordinates": [-95.95795376, 36.069505292], "type": "Point"}, "id": "kZ8NF-BXLVTBtARpt5VJPPcsusg=", "properties": {"@source_uri": "https://tools.usps.com/UspsToolsRestServices/rest/POLocator/findLocations", "@spider": "usps_collection_boxes", "addr:city": "TULSA", "addr:country": "US", "addr:postcode": "74136", "addr:state": "OK", "addr:street_address": "6506 S LEWIS AVE", "amenity": "post_box", "collection_times": "Mo-Fr 16:30", "note": "ON 12/24 AND 12/31, THIS BOX MAY BE COLLECTED AS EARLY AS 12 NOON.", "nsi_id": "unitedstatespostalservice-a77078", "operator": "United States Postal Service", "operator:short": "USPS", "operator:type": "public", "operator:wikidata": "Q668687", "ref": "7413600011"}, "type": "Feature"}
{"geometry": {"coordinates": [-95.9204533, 36.069847], "type": "Point"}, "id": "TWE4FBGvU9SqAWvfqD-jl2onqwo=", "properties": {"@source_uri": "https://tools.usps.com/UspsToolsRestServices/rest/POLocator/findLocations", "@spider": "usps_collection_boxes", "addr:city": "TULSA", "addr:country": "US", "addr:postcode": "74136", "addr:state": "OK", "addr:street_address": "6565 S YALE AVE", "amenity": "post_box", "collection_times": "Mo-Fr 15:30", "note": "ON 12/24 AND 12/31, THIS BOX MAY BE COLLECTED AS EARLY AS 12 NOON.", "nsi_id": "unitedstatespostalservice-a77078", "operator": "United States Postal Service", "operator:short": "USPS", "operator:type": "public", "operator:wikidata": "Q668687", "ref": "7413600038"}, "type": "Feature"}
{"geometry": {"coordinates": [-95.9212821, 36.070838], "type": "Point"}, "id": "dewwEnZzcNe0UAAyzmy639Wh_W0=", "properties": {"@source_uri": "https://tools.usps.com/UspsToolsRestServices/rest/POLocator/findLocations", "@spider": "usps_collection_boxes", "addr:city": "TULSA", "addr:country": "US", "addr:postcode": "74136", "addr:state": "OK", "addr:street_address": "6465 S YALE AVE", "amenity": "post_box", "collection_times": "Mo-Fr 15:30", "note": "ON 12/24 AND 12/31, THIS BOX MAY BE COLLECTED AS EARLY AS 12 NOON.", "nsi_id": "unitedstatespostalservice-a77078", "operator": "United States Postal Service", "operator:short": "USPS", "operator:type": "public", "operator:wikidata": "Q668687", "ref": "7413600045"}, "type": "Feature"}
{"geometry": {"coordinates": [-95.9222460214, 36.0611700062], "type": "Point"}, "id": "gFvl5PX2YKvw2nIixKYzJe8_CoE=", "properties": {"@source_uri": "https://tools.usps.com/UspsToolsRestServices/rest/POLocator/findLocations", "@spider": "usps_collection_boxes", "addr:city": "TULSA", "addr:country": "US", "addr:postcode": "74136", "addr:state": "OK", "addr:street_address": "7060 S YALE AVE", "amenity": "post_box", "collection_times": "Mo-Fr 16:15", "note": "ON 12/24 AND 12/31, THIS BOX MAY BE COLLECTED AS EARLY AS 12 NOON.", "nsi_id": "unitedstatespostalservice-a77078", "operator": "United States Postal Service", "operator:short": "USPS", "operator:type": "public", "operator:wikidata": "Q668687", "ref": "7413600055"}, "type": "Feature"}
{"geometry": {"coordinates": [-95.923118021, 36.059912008], "type": "Point"}, "id": "fehHuhKVryELa-alQJAlnJIruts=", "properties": {"@source_uri": "https://tools.usps.com/UspsToolsRestServices/rest/POLocator/findLocations", "@spider": "usps_collection_boxes", "addr:city": "TULSA", "addr:country": "US", "addr:postcode": "74136", "addr:state": "OK", "addr:street_address": "7134 S YALE AVE", "amenity": "post_box", "collection_times": "Mo-Fr 16:15", "note": "ON 12/24 AND 12/31, THIS BOX MAY BE COLLECTED AS EARLY AS 12 NOON.", "nsi_id": "unitedstatespostalservice-a77078", "operator": "United States Postal Service", "operator:short": "USPS", "operator:type": "public", "operator:wikidata": "Q668687", "ref": "7413600058"}, "type": "Feature"}
{"geometry": {"coordinates": [-95.9568319, 36.076174], "type": "Point"}, "id": "6txXI04iKZHkC2nRjJuEiusd5Xg=", "properties": {"@source_uri": "https://tools.usps.com/UspsToolsRestServices/rest/POLocator/findLocations", "@spider": "usps_collection_boxes", "addr:city": "TULSA", "addr:country": "US", "addr:postcode": "74136", "addr:state": "OK", "addr:street_address": "5951 S LEWIS AVE", "amenity": "post_box", "collection_times": "Mo-Fr 16:30", "note": "ON 12/24 AND 12/31, THIS BOX MAY BE COLLECTED AS EARLY AS 12 NOON.", "nsi_id": "unitedstatespostalservice-a77078", "operator": "United States Postal Service", "operator:short": "USPS", "operator:type": "public", "operator:wikidata": "Q668687", "ref": "7413600062"}, "type": "Feature"}
{"geometry": {"coordinates": [-95.9222549973, 36.067122], "type": "Point"}, "id": "Gar4w-PYi8zjb6Au6sB_W1N0C-M=", "properties": {"@source_uri": "https://tools.usps.com/UspsToolsRestServices/rest/POLocator/findLocations", "@spider": "usps_collection_boxes", "addr:city": "TULSA", "addr:country": "US", "addr:postcode": "74136", "addr:state": "OK", "addr:street_address": "6600 S YALE AVE", "amenity": "post_box", "collection_times": "Mo-Fr 16:00", "note": "ON 12/24 AND 12/31, THIS BOX MAY BE COLLECTED AS EARLY AS 12 NOON.", "nsi_id": "unitedstatespostalservice-a77078", "operator": "United States Postal Service", "operator:short": "USPS", "operator:type": "public", "operator:wikidata": "Q668687", "ref": "7413600080"}, "type": "Feature"}
{"geometry": {"coordinates": [-95.9617170207, 36.0637730062], "type": "Point"}, "id": "o6eKe92sG7Xqpzn6q2ZqhVcmEN8=", "properties": {"@source_uri": "https://tools.usps.com/UspsToolsRestServices/rest/POLocator/findLocations", "@spider": "usps_collection_boxes", "addr:city": "TULSA", "addr:country": "US", "addr:postcode": "74136", "addr:state": "OK", "addr:street_address": "6910 S YORKTOWN AVE", "amenity": "post_box", "collection_times": "Mo-Fr 17:00; Sa 16:30", "indoor": "yes", "note": "ON 12/24 AND 12/31, THIS BOX MAY BE COLLECTED AS EARLY AS 12 NOON.", "nsi_id": "unitedstatespostalservice-a77078", "operator": "United States Postal Service", "operator:short": "USPS", "operator:type": "public", "operator:wikidata": "Q668687", "ref": "7413600090"}, "type": "Feature"}
{"geometry": {"coordinates": [-95.9617170207, 36.0637730062], "type": "Point"}, "id": "ihbbfgBiSHkfnETEpNRXeD_VEp8=", "properties": {"@source_uri": "https://tools.usps.com/UspsToolsRestServices/rest/POLocator/findLocations", "@spider": "usps_collection_boxes", "addr:city": "TULSA", "addr:country": "US", "addr:postcode": "74136", "addr:state": "OK", "addr:street_address": "6910 S YORKTOWN AVE", "amenity": "post_box", "collection_times": "Mo-Fr 17:00; Sa 16:30", "indoor": "yes", "note": "ON 12/24 AND 12/31, THIS BOX MAY BE COLLECTED AS EARLY AS 12 NOON.", "nsi_id": "unitedstatespostalservice-a77078", "operator": "United States Postal Service", "operator:short": "USPS", "operator:type": "public", "operator:wikidata": "Q668687", "ref": "7413600091"}, "type": "Feature"}
{"geometry": {"coordinates": [-95.9617170207, 36.0637730062], "type": "Point"}, "id": "_2UOmP8fZLCFyVoF6J3EV8SNaAM=", "properties": {"@source_uri": "https://tools.usps.com/UspsToolsRestServices/rest/POLocator/findLocations", "@spider": "usps_collection_boxes", "addr:city": "TULSA", "addr:country": "US", "addr:postcode": "74136", "addr:state": "OK", "addr:street_address": "6910 S YORKTOWN AVE", "amenity": "post_box", "collection_times": "Mo-Fr 17:00; Sa 16:30", "indoor": "yes", "note": "ON 12/24 AND 12/31, THIS BOX MAY BE COLLECTED AS EARLY AS 12 NOON.", "nsi_id": "unitedstatespostalservice-a77078", "operator": "United States Postal Service", "operator:short": "USPS", "operator:type": "public", "operator:wikidata": "Q668687", "ref": "7413600092"}, "type": "Feature"}
{"geometry": {"coordinates": [-95.9617170207, 36.0637730062], "type": "Point"}, "id": "DD4qW0afsYYq0_VQIWGVyK8-7aI=", "properties": {"@source_uri": "https://tools.usps.com/UspsToolsRestServices/rest/POLocator/findLocations", "@spider": "usps_collection_boxes", "addr:city": "TULSA", "addr:country": "US", "addr:postcode": "74136", "addr:state": "OK", "addr:street_address": "6910 S YORKTOWN AVE", "amenity": "post_box", "collection_times": "Mo-Fr 17:00; Sa 16:30", "name": "USPS COLLECTION BOX - APC", "note": "ON 12/24 AND 12/31, THIS BOX MAY BE COLLECTED AS EARLY AS 12 NOON.", "nsi_id": "unitedstatespostalservice-a77078", "operator": "United States Postal Service", "operator:short": "USPS", "operator:type": "public", "operator:wikidata": "Q668687", "ref": "7413600094"}, "type": "Feature"}
{"geometry": {"coordinates": [-95.9617170207, 36.0637730062], "type": "Point"}, "id": "o-VPDvaDxOv-KqIPoqCKe10VXm4=", "properties": {"@source_uri": "https://tools.usps.com/UspsToolsRestServices/rest/POLocator/findLocations", "@spider": "usps_collection_boxes", "addr:city": "TULSA", "addr:country": "US", "addr:postcode": "74136", "addr:state": "OK", "addr:street_address": "6910 S YORKTOWN AVE", "amenity": "post_box", "collection_times": "Mo-Fr 18:00; Sa 13:00", "indoor": "yes", "note": "ON 12/24 AND 12/31, THIS BOX MAY BE COLLECTED AS EARLY AS 12 NOON.", "nsi_id": "unitedstatespostalservice-a77078", "operator": "United States Postal Service", "operator:short": "USPS", "operator:type": "public", "operator:wikidata": "Q668687", "ref": "7413600107"}, "type": "Feature"}
{"geometry": {"coordinates": [-95.91868, 36.03471], "type": "Point"}, "id": "Z9wvSHfT8IHzULwROwqwlvgSnnM=", "properties": {"@source_uri": "https://tools.usps.com/UspsToolsRestServices/rest/POLocator/findLocations", "@spider": "usps_collection_boxes", "addr:city": "TULSA", "addr:country": "US", "addr:postcode": "74137", "addr:state": "OK", "addr:street_address": "8908 S YALE AVE", "amenity": "post_box", "collection_times": "Mo-Fr 11:00", "nsi_id": "unitedstatespostalservice-a77078", "operator": "United States Postal Service", "operator:short": "USPS", "operator:type": "public", "operator:wikidata": "Q668687", "ref": "7413700008"}, "type": "Feature"}
{"geometry": {"coordinates": [-95.9492582758, 36.0183509995], "type": "Point"}, "id": "R8lWnoohlmy_jsh9EeQrLzw8Qnk=", "properties": {"@source_uri": "https://tools.usps.com/UspsToolsRestServices/rest/POLocator/findLocations", "@spider": "usps_collection_boxes", "addr:city": "TULSA", "addr:country": "US", "addr:postcode": "74137", "addr:state": "OK", "addr:street_address": "9934 RIVERSIDE PKWY", "amenity": "post_box", "collection_times": "Mo-Fr 11:00", "nsi_id": "unitedstatespostalservice-a77078", "operator": "United States Postal Service", "operator:short": "USPS", "operator:type": "public", "operator:wikidata": "Q668687", "ref": "7413700010"}, "type": "Feature"}
{"geometry": {"coordinates": [-95.87553, 36.131756], "type": "Point"}, "id": "CwD0JBEGrcK_Mj_T7VrJv7-1jv8=", "properties": {"@source_uri": "https://tools.usps.com/UspsToolsRestServices/rest/POLocator/findLocations", "@spider": "usps_collection_boxes", "addr:city": "TULSA", "addr:country": "US", "addr:postcode": "74141", "addr:state": "OK", "addr:street_address": "2132 S 91ST EAST AVE", "amenity": "post_box", "collection_times": "Mo-Sa 18:30", "note": "ON 12/24 AND 12/31, THIS BOX MAY BE COLLECTED AS EARLY AS 12 NOON.", "nsi_id": "unitedstatespostalservice-a77078", "operator": "United States Postal Service", "operator:short": "USPS", "operator:type": "public", "operator:wikidata": "Q668687", "ref": "7414100005"}, "type": "Feature"}
{"geometry": {"coordinates": [-95.904354761, 36.0923196018], "type": "Point"}, "id": "ANWUg7rtp-Vl_-hY9sPg3DzfiCU=", "properties": {"@source_uri": "https://tools.usps.com/UspsToolsRestServices/rest/POLocator/findLocations", "@spider": "usps_collection_boxes", "addr:city": "TULSA", "addr:country": "US", "addr:postcode": "74145", "addr:state": "OK", "addr:street_address": "4845 S SHERIDAN RD", "amenity": "post_box", "collection_times": "Mo-Fr 08:30", "nsi_id": "unitedstatespostalservice-a77078", "operator": "United States Postal Service", "operator:short": "USPS", "operator:type": "public", "operator:wikidata": "Q668687", "ref": "7414500007"}, "type": "Feature"}
{"geometry": {"coordinates": [-95.886715529, 36.115848], "type": "Point"}, "id": "dF0gyTYyxk4vhSZKQXvGJZPKx3o=", "properties": {"@source_uri": "https://tools.usps.com/UspsToolsRestServices/rest/POLocator/findLocations", "@spider": "usps_collection_boxes", "addr:city": "TULSA", "addr:country": "US", "addr:postcode": "74145", "addr:state": "OK", "addr:street_address": "3220 S MEMORIAL DR", "amenity": "post_box", "collection_times": "Mo-Fr 15:00", "note": "ON 12/24 AND 12/31, THIS BOX MAY BE COLLECTED AS EARLY AS 12 NOON.", "nsi_id": "unitedstatespostalservice-a77078", "operator": "United States Postal Service", "operator:short": "USPS", "operator:type": "public", "operator:wikidata": "Q668687", "ref": "7414500017"}, "type": "Feature"}
{"geometry": {"coordinates": [-95.8874625, 36.0898604717], "type": "Point"}, "id": "68e7wAp7JwF7WnjgjfTlcivNIek=", "properties": {"@source_uri": "https://tools.usps.com/UspsToolsRestServices/rest/POLocator/findLocations", "@spider": "usps_collection_boxes", "addr:city": "TULSA", "addr:country": "US", "addr:postcode": "74145", "addr:state": "OK", "addr:street_address": "7990 E 51ST ST", "amenity": "post_box", "collection_times": "Mo-Fr 09:45", "nsi_id": "unitedstatespostalservice-a77078", "operator": "United States Postal Service", "operator:short": "USPS", "operator:type": "public", "operator:wikidata": "Q668687", "ref": "7414500035"}, "type": "Feature"}
{"geometry": {"coordinates": [-95.8715818, 36.118613], "type": "Point"}, "id": "R6RpUQnx9hivS_LyNlpUwSliSxk=", "properties": {"@source_uri": "https://tools.usps.com/UspsToolsRestServices/rest/POLocator/findLocations", "@spider": "usps_collection_boxes", "addr:city": "TULSA", "addr:country": "US", "addr:postcode": "74145", "addr:state": "OK", "addr:street_address": "9126 E 31ST ST", "amenity": "post_box", "collection_times": "Mo-Fr 15:15", "note": "ON 12/24 AND 12/31, THIS BOX MAY BE COLLECTED AS EARLY AS 12 NOON.", "nsi_id": "unitedstatespostalservice-a77078", "operator": "United States Postal Service", "operator:short": "USPS", "operator:type": "public", "operator:wikidata": "Q668687", "ref": "7414500038"}, "type": "Feature"}
{"geometry": {"coordinates": [-95.876621, 36.09783], "type": "Point"}, "id": "W5TOnvY7TBwcO6SrlacTQw1xmgM=", "properties": {"@source_uri": "https://tools.usps.com/UspsToolsRestServices/rest/POLocator/findLocations", "@spider": "usps_collection_boxes", "addr:city": "TULSA", "addr:country": "US", "addr:postcode": "74145", "addr:state": "OK", "addr:street_address": "9023 E 46TH ST", "amenity": "post_box", "collection_times": "Mo-Fr 17:00; Sa 16:00", "name": "USPS COLLECTION BOX - APC", "note": "ON 12/24 AND 12/31, THIS BOX MAY BE COLLECTED AS EARLY AS 12 NOON.", "nsi_id": "unitedstatespostalservice-a77078", "operator": "United States Postal Service", "operator:short": "USPS", "operator:type": "public", "operator:wikidata": "Q668687", "ref": "7414500049"}, "type": "Feature"}
{"geometry": {"coordinates": [-95.8766535, 36.097823479], "type": "Point"}, "id": "0_y_hZ3PD8WRwfFzcI6n3HzTs7A=", "properties": {"@source_uri": "https://tools.usps.com/UspsToolsRestServices/rest/POLocator/findLocations", "@spider": "usps_collection_boxes", "addr:city": "TULSA", "addr:country": "US", "addr:postcode": "74145", "addr:state": "OK", "addr:street_address": "9023 E 46TH ST", "amenity": "post_box", "collection_times": "Mo-Fr 17:00; Sa 13:00", "indoor": "yes", "note": "ON 12/24 AND 12/31, THIS BOX MAY BE COLLECTED AS EARLY AS 12 NOON.", "nsi_id": "unitedstatespostalservice-a77078", "operator": "United States Postal Service", "operator:short": "USPS", "operator:type": "public", "operator:wikidata": "Q668687", "ref": "7414500054"}, "type": "Feature"}
{"geometry": {"coordinates": [-95.8528417, 36.097888], "type": "Point"}, "id": "i8RuD6mNwU6xRS7aKo2HHh8y0FY=", "properties": {"@source_uri": "https://tools.usps.com/UspsToolsRestServices/rest/POLocator/findLocations", "@spider": "usps_collection_boxes", "addr:city": "TULSA", "addr:country": "US", "addr:postcode": "74146", "addr:state": "OK", "addr:street_address": "4500 S GARNETT RD", "amenity": "post_box", "collection_times": "Mo-Fr 15:45", "note": "ON 12/24 AND 12/31, THIS BOX MAY BE COLLECTED AS EARLY AS 12 NOON.", "nsi_id": "unitedstatespostalservice-a77078", "operator": "United States Postal Service", "operator:short": "USPS", "operator:type": "public", "operator:wikidata": "Q668687", "ref": "7414600001"}, "type": "Feature"}
{"geometry": {"coordinates": [-95.8678505255, 36.102360516], "type": "Point"}, "id": "vnxo9rj8CZUx7Bv_YMoAKRpzgb8=", "properties": {"@source_uri": "https://tools.usps.com/UspsToolsRestServices/rest/POLocator/findLocations", "@spider": "usps_collection_boxes", "addr:city": "TULSA", "addr:country": "US", "addr:postcode": "74146", "addr:state": "OK", "addr:street_address": "9717 E 42ND ST", "amenity": "post_box", "collection_times": "Mo-Fr 15:15", "note": "ON 12/24 AND 12/31, THIS BOX MAY BE COLLECTED AS EARLY AS 12 NOON.", "nsi_id": "unitedstatespostalservice-a77078", "operator": "United States Postal Service", "operator:short": "USPS", "operator:type": "public", "operator:wikidata": "Q668687", "ref": "7414600013"}, "type": "Feature"}
{"geometry": {"coordinates": [-95.8546192, 36.104622], "type": "Point"}, "id": "HBaZC1wha3iWCW-79cEPgR4bUIs=", "properties": {"@source_uri": "https://tools.usps.com/UspsToolsRestServices/rest/POLocator/findLocations", "@spider": "usps_collection_boxes", "addr:city": "TULSA", "addr:country": "US", "addr:postcode": "74146", "addr:state": "OK", "addr:street_address": "11005 E 41ST ST", "amenity": "post_box", "collection_times": "Mo-Fr 15:15", "note": "ON 12/24 AND 12/31, THIS BOX MAY BE COLLECTED AS EARLY AS 12 NOON.", "nsi_id": "unitedstatespostalservice-a77078", "operator": "United States Postal Service", "operator:short": "USPS", "operator:type": "public", "operator:wikidata": "Q668687", "ref": "7414600017"}, "type": "Feature"}
{"geometry": {"coordinates": [-95.8568511, 36.098824], "type": "Point"}, "id": "xz3TREeVfv2HSmE9VUA140rquYU=", "properties": {"@source_uri": "https://tools.usps.com/UspsToolsRestServices/rest/POLocator/findLocations", "@spider": "usps_collection_boxes", "addr:city": "TULSA", "addr:country": "US", "addr:postcode": "74146", "addr:state": "OK", "addr:street_address": "10810 E 45TH ST", "amenity": "post_box", "collection_times": "Mo-Fr 15:30", "note": "ON 12/24 AND 12/31, THIS BOX MAY BE COLLECTED AS EARLY AS 12 NOON.", "nsi_id": "unitedstatespostalservice-a77078", "operator": "United States Postal Service", "operator:short": "USPS", "operator:type": "public", "operator:wikidata": "Q668687", "ref": "7414600022"}, "type": "Feature"}
{"geometry": {"coordinates": [-95.840420704, 36.083626869], "type": "Point"}, "id": "LT06HKeEkb0qZZmeMBvjsmIEzjQ=", "properties": {"@source_uri": "https://tools.usps.com/UspsToolsRestServices/rest/POLocator/findLocations", "@spider": "usps_collection_boxes", "addr:city": "TULSA", "addr:country": "US", "addr:postcode": "74146", "addr:state": "OK", "addr:street_address": "5615 S 122ND EAST AVE", "amenity": "post_box", "collection_times": "Mo-Fr 15:45", "note": "ON 12/24 AND 12/31, THIS BOX MAY BE COLLECTED AS EARLY AS 12 NOON.", "nsi_id": "unitedstatespostalservice-a77078", "operator": "United States Postal Service", "operator:short": "USPS", "operator:type": "public", "operator:wikidata": "Q668687", "ref": "7414600054"}, "type": "Feature"}
{"geometry": {"coordinates": [-95.85143, 36.11339], "type": "Point"}, "id": "LiDQNbO3vxiKwBsopEbE6Tgb8to=", "properties": {"@source_uri": "https://tools.usps.com/UspsToolsRestServices/rest/POLocator/findLocations", "@spider": "usps_collection_boxes", "addr:city": "TULSA", "addr:country": "US", "addr:postcode": "74146", "addr:state": "OK", "addr:street_address": "10830 E 45TH ST", "amenity": "post_box", "collection_times": "Mo-Fr 15:45", "note": "ON 12/24 AND 12/31, THIS BOX MAY BE COLLECTED AS EARLY AS 12 NOON.", "nsi_id": "unitedstatespostalservice-a77078", "operator": "United States Postal Service", "operator:short": "USPS", "operator:type": "public", "operator:wikidata": "Q668687", "ref": "7414600072"}, "type": "Feature"}
{"geometry": {"coordinates": [-95.850350026, 36.079570002], "type": "Point"}, "id": "0Ch3_SF0K8qYX4y3IAuiITuPO_8=", "properties": {"@source_uri": "https://tools.usps.com/UspsToolsRestServices/rest/POLocator/findLocations", "@spider": "usps_collection_boxes", "addr:city": "TULSA", "addr:country": "US", "addr:postcode": "74146", "addr:state": "OK", "addr:street_address": "5727 S GARNETT RD", "amenity": "post_box", "collection_times": "Mo-Fr 16:00", "note": "ON 12/24 AND 12/31, THIS BOX MAY BE COLLECTED AS EARLY AS 12 NOON.", "nsi_id": "unitedstatespostalservice-a77078", "operator": "United States Postal Service", "operator:short": "USPS", "operator:type": "public", "operator:wikidata": "Q668687", "ref": "7414600074"}, "type": "Feature"}
{"geometry": {"coordinates": [-95.8438979722, 36.0997830034], "type": "Point"}, "id": "kHLPWvqvnpWM8UP93CssdsXRAEE=", "properties": {"@source_uri": "https://tools.usps.com/UspsToolsRestServices/rest/POLocator/findLocations", "@spider": "usps_collection_boxes", "addr:city": "TULSA", "addr:country": "US", "addr:postcode": "74146", "addr:state": "OK", "addr:street_address": "4343 S 118TH EAST AVE", "amenity": "post_box", "collection_times": "Mo-Fr 15:15", "note": "ON 12/24 AND 12/31, THIS BOX MAY BE COLLECTED AS EARLY AS 12 NOON.", "nsi_id": "unitedstatespostalservice-a77078", "operator": "United States Postal Service", "operator:short": "USPS", "operator:type": "public", "operator:wikidata": "Q668687", "ref": "7414600081"}, "type": "Feature"}
{"geometry": {"coordinates": [-95.963944, 36.131936], "type": "Point"}, "id": "fv5T6wFqsipnNu2mbBxDLW0VvuU=", "properties": {"@source_uri": "https://tools.usps.com/UspsToolsRestServices/rest/POLocator/findLocations", "@spider": "usps_collection_boxes", "addr:city": "TULSA", "addr:country": "US", "addr:postcode": "74152", "addr:state": "OK", "addr:street_address": "2032 UTICA SQ", "amenity": "post_box", "collection_times": "Mo-Fr 17:00", "indoor": "yes", "note": "ON 12/24 AND 12/31, THIS BOX MAY BE COLLECTED AS EARLY AS 12 NOON.", "nsi_id": "unitedstatespostalservice-a77078", "operator": "United States Postal Service", "operator:short": "USPS", "operator:type": "public", "operator:wikidata": "Q668687", "ref": "7415200000"}, "type": "Feature"}
{"geometry": {"coordinates": [-95.963956425, 36.131887222], "type": "Point"}, "id": "4vTkxVo5yHjc-urBpDylz8QBqd0=", "properties": {"@source_uri": "https://tools.usps.com/UspsToolsRestServices/rest/POLocator/findLocations", "@spider": "usps_collection_boxes", "addr:city": "TULSA", "addr:country": "US", "addr:postcode": "74152", "addr:state": "OK", "addr:street_address": "2032 UTICA SQ", "amenity": "post_box", "collection_times": "Mo-Fr 18:00; Sa 14:00", "indoor": "yes", "note": "ON 12/24 AND 12/31, THIS BOX MAY BE COLLECTED AS EARLY AS 12 NOON.", "nsi_id": "unitedstatespostalservice-a77078", "operator": "United States Postal Service", "operator:short": "USPS", "operator:type": "public", "operator:wikidata": "Q668687", "ref": "7415200004"}, "type": "Feature"}
