{"geometry": {"coordinates": [-95.072002, 36.800018], "type": "Point"}, "id": "eCZ1K5ue2_OPpxl7F-nhE8mIZAI=", "properties": {"@spider": "usps_collection_boxes", "addr:city": "BLUEJACKET", "addr:country": "US", "addr:full": "210 E MAIN ST", "addr:postcode": "74333", "addr:state": "OK", "amenity": "post_box", "brand": "United States Postal Service", "brand:wikidata": "Q668687", "collection_times": "Mo-Fr 16:30; Sa 11:30", "name": "USPS COLLECTION BOX - PO LOBBY", "note": "ON 12/24 AND 12/31, THIS BOX MAY BE COLLECTED AS EARLY AS 12 NOON.", "nsi_id": "unitedstatespostalservice-a77078", "operator": "United States Postal Service", "operator:short": "USPS", "operator:type": "public", "operator:wikidata": "Q668687", "ref": "7433300002"}, "type": "Feature"}
{"geometry": {"coordinates": [-95.071989791, 36.799947923], "type": "Point"}, "id": "-lTYwbAe0BTpuM2bdHtoobKzCp8=", "properties": {"@spider": "usps_collection_boxes", "addr:city": "BLUEJACKET", "addr:country": "US", "addr:full": "255 E MAIN ST", "addr:postcode": "74333", "addr:state": "OK", "amenity": "post_box", "brand": "United States Postal Service", "brand:wikidata": "Q668687", "collection_times": "Mo-Fr 16:30", "name": "USPS COLLECTION BOX - PO LOBBY", "note": "ON 12/24 AND 12/31, THIS BOX MAY BE COLLECTED AS EARLY AS 12 NOON.", "nsi_id": "unitedstatespostalservice-a77078", "operator": "United States Postal Service", "operator:short": "USPS", "operator:type": "public", "operator:wikidata": "Q668687", "ref": "7433300003"}, "type": "Feature"}
{"geometry": {"coordinates": [-95.0950957, 36.874428], "type": "Point"}, "id": "jsHRkk2dPCEIE9YpbK41bUaZFz4=", "properties": {"@spider": "usps_collection_boxes", "addr:city": "WELCH", "addr:country": "US", "addr:full": "369 S COMMERCIAL ST", "addr:postcode": "74369", "addr:state": "OK", "amenity": "post_box", "brand": "United States Postal Service", "brand:wikidata": "Q668687", "collection_times": "Mo-Fr 15:30; Sa 10:45", "name": "USPS COLLECTION BOX - PO LOBBY", "note": "ON 12/24 AND 12/31, THIS BOX MAY BE COLLECTED AS EARLY AS 12 NOON.", "nsi_id": "unitedstatespostalservice-a77078", "operator": "United States Postal Service", "operator:short": "USPS", "operator:type": "public", "operator:wikidata": "Q668687", "ref": "7436900000"}, "type": "Feature"}
{"geometry": {"coordinates": [-95.0951099, 36.874446], "type": "Point"}, "id": "8BXjPSWHBh2qZOMUtDK8h_fmwgU=", "properties": {"@spider": "usps_collection_boxes", "addr:city": "WELCH", "addr:country": "US", "addr:full": "369 S COMMERCIAL ST", "addr:postcode": "74369", "addr:state": "OK", "amenity": "post_box", "brand": "United States Postal Service", "brand:wikidata": "Q668687", "collection_times": "Mo-Fr 15:30; Sa 10:45", "name": "USPS COLLECTION BOX - PO LOBBY", "note": "ON 12/24 AND 12/31, THIS BOX MAY BE COLLECTED AS EARLY AS 12 NOON.", "nsi_id": "unitedstatespostalservice-a77078", "operator": "United States Postal Service", "operator:short": "USPS", "operator:type": "public", "operator:wikidata": "Q668687", "ref": "7436900001"}, "type": "Feature"}
{"geometry": {"coordinates": [-95.0951516, 36.874466], "type": "Point"}, "id": "6eXiFWkpvYhZUJ8CsuXK2ZX353U=", "properties": {"@spider": "usps_collection_boxes", "addr:city": "WELCH", "addr:country": "US", "addr:full": "369 S COMMERCIAL ST", "addr:postcode": "74369", "addr:state": "OK", "amenity": "post_box", "brand": "United States Postal Service", "brand:wikidata": "Q668687", "collection_times": "Mo-Fr 15:30; Sa 10:45", "name": "USPS COLLECTION BOX - PO LOBBY", "note": "ON 12/24 AND 12/31, THIS BOX MAY BE COLLECTED AS EARLY AS 12 NOON.", "nsi_id": "unitedstatespostalservice-a77078", "operator": "United States Postal Service", "operator:short": "USPS", "operator:type": "public", "operator:wikidata": "Q668687", "ref": "7436900002"}, "type": "Feature"}
{"geometry": {"coordinates": [-95.095029409, 36.874262872], "type": "Point"}, "id": "5D2zgGiN4X2W4ltTunwBGWN5oSE=", "properties": {"@spider": "usps_collection_boxes", "addr:city": "WELCH", "addr:country": "US", "addr:full": "369 S COMMERCIAL ST", "addr:postcode": "74369", "addr:state": "OK", "amenity": "post_box", "brand": "United States Postal Service", "brand:wikidata": "Q668687", "collection_times": "Mo-Fr 15:30", "name": "USPS COLLECTION BOX - PO LOBBY", "note": "ON 12/24 AND 12/31, THIS BOX MAY BE COLLECTED AS EARLY AS 12 NOON.", "nsi_id": "unitedstatespostalservice-a77078", "operator": "United States Postal Service", "operator:short": "USPS", "operator:type": "public", "operator:wikidata": "Q668687", "ref": "7436900003"}, "type": "Feature"}
