{"geometry": {"coordinates": [-95.38942, 35.75116], "type": "Point"}, "id": "Ovo9sOpjPqGdBzdVCh3taXl14gs=", "properties": {"@source_uri": "https://tools.usps.com/UspsToolsRestServices/rest/POLocator/findLocations", "@spider": "usps_collection_boxes", "addr:city": "MUSKOGEE", "addr:country": "US", "addr:postcode": "74401", "addr:state": "OK", "addr:street_address": "125 S MAIN ST", "amenity": "post_box", "collection_times": "Mo-Fr 16:00", "note": "ON 12/24 AND 12/31, THIS BOX MAY BE COLLECTED AS EARLY AS 12 NOON.", "nsi_id": "unitedstatespostalservice-a77078", "operator": "United States Postal Service", "operator:short": "USPS", "operator:type": "public", "operator:wikidata": "Q668687", "ref": "7440100006"}, "type": "Feature"}
{"geometry": {"coordinates": [-95.4113144, 35.752376], "type": "Point"}, "id": "jrRyFHsUwZb_DaNU7EjTK7j0irs=", "properties": {"@source_uri": "https://tools.usps.com/UspsToolsRestServices/rest/POLocator/findLocations", "@spider": "usps_collection_boxes", "addr:city": "MUSKOGEE", "addr:country": "US", "addr:postcode": "74401", "addr:state": "OK", "addr:street_address": "350 S 40TH ST", "amenity": "post_box", "collection_times": "Mo-Fr 15:30", "note": "ON 12/24 AND 12/31, THIS BOX MAY BE COLLECTED AS EARLY AS 12 NOON.", "nsi_id": "unitedstatespostalservice-a77078", "operator": "United States Postal Service", "operator:short": "USPS", "operator:type": "public", "operator:wikidata": "Q668687", "ref": "7440100018"}, "type": "Feature"}
{"geometry": {"coordinates": [-95.4043499, 35.75551], "type": "Point"}, "id": "NCiKm35NVCThpP7G_7QQ7IxxJAU=", "properties": {"@source_uri": "https://tools.usps.com/UspsToolsRestServices/rest/POLocator/findLocations", "@spider": "usps_collection_boxes", "addr:city": "MUSKOGEE", "addr:country": "US", "addr:postcode": "74401", "addr:state": "OK", "addr:street_address": "3316 W OKMULGEE ST", "amenity": "post_box", "collection_times": "Mo-Fr 15:45; Sa 14:30", "note": "ON 12/24 AND 12/31, THIS BOX MAY BE COLLECTED AS EARLY AS 12 NOON.", "nsi_id": "unitedstatespostalservice-a77078", "operator": "United States Postal Service", "operator:short": "USPS", "operator:type": "public", "operator:wikidata": "Q668687", "ref": "7440100036"}, "type": "Feature"}
{"geometry": {"coordinates": [-95.3672826108, 35.7518116756], "type": "Point"}, "id": "k4BOhA6LeQNJ2egmJ_zhU3M7Eao=", "properties": {"@source_uri": "https://tools.usps.com/UspsToolsRestServices/rest/POLocator/findLocations", "@spider": "usps_collection_boxes", "addr:city": "MUSKOGEE", "addr:country": "US", "addr:postcode": "74401", "addr:state": "OK", "addr:street_address": "505 N MAIN ST", "amenity": "post_box", "collection_times": "Mo-Sa 17:00", "note": "ON 12/24 AND 12/31, THIS BOX MAY BE COLLECTED AS EARLY AS 12 NOON.", "nsi_id": "unitedstatespostalservice-a77078", "operator": "United States Postal Service", "operator:short": "USPS", "operator:type": "public", "operator:wikidata": "Q668687", "ref": "7440100049"}, "type": "Feature"}
{"geometry": {"coordinates": [-95.3672826108, 35.7518116756], "type": "Point"}, "id": "amHXJvyCkUGwbhFFOEZkR-3J-wY=", "properties": {"@source_uri": "https://tools.usps.com/UspsToolsRestServices/rest/POLocator/findLocations", "@spider": "usps_collection_boxes", "addr:city": "MUSKOGEE", "addr:country": "US", "addr:postcode": "74401", "addr:state": "OK", "addr:street_address": "505 N MAIN ST", "amenity": "post_box", "collection_times": "Mo-Sa 17:00", "indoor": "yes", "note": "ON 12/24 AND 12/31, THIS BOX MAY BE COLLECTED AS EARLY AS 12 NOON.", "nsi_id": "unitedstatespostalservice-a77078", "operator": "United States Postal Service", "operator:short": "USPS", "operator:type": "public", "operator:wikidata": "Q668687", "ref": "7440100059"}, "type": "Feature"}
{"geometry": {"coordinates": [-95.372798, 35.750583], "type": "Point"}, "id": "-NxUyf4Weeur-Hj5R0jk0fB34gQ=", "properties": {"@source_uri": "https://tools.usps.com/UspsToolsRestServices/rest/POLocator/findLocations", "@spider": "usps_collection_boxes", "addr:city": "MUSKOGEE", "addr:country": "US", "addr:postcode": "74401", "addr:state": "OK", "addr:street_address": "220 STATE ST", "amenity": "post_box", "collection_times": "Mo-Fr 16:00", "note": "ON 12/24 AND 12/31, THIS BOX MAY BE COLLECTED AS EARLY AS 12 NOON.", "nsi_id": "unitedstatespostalservice-a77078", "operator": "United States Postal Service", "operator:short": "USPS", "operator:type": "public", "operator:wikidata": "Q668687", "ref": "7440100061"}, "type": "Feature"}
{"geometry": {"coordinates": [-95.4036823, 35.745836], "type": "Point"}, "id": "azkbLDp6NSvx6AX3w6VNouX00Ps=", "properties": {"@source_uri": "https://tools.usps.com/UspsToolsRestServices/rest/POLocator/findLocations", "@spider": "usps_collection_boxes", "addr:city": "MUSKOGEE", "addr:country": "US", "addr:postcode": "74401", "addr:state": "OK", "addr:street_address": "727 S 32ND ST", "amenity": "post_box", "collection_times": "Mo-Fr 15:30", "note": "ON 12/24 AND 12/31, THIS BOX MAY BE COLLECTED AS EARLY AS 12 NOON.", "nsi_id": "unitedstatespostalservice-a77078", "operator": "United States Postal Service", "operator:short": "USPS", "operator:type": "public", "operator:wikidata": "Q668687", "ref": "7440100069"}, "type": "Feature"}
{"geometry": {"coordinates": [-95.3710247, 35.749602], "type": "Point"}, "id": "_3b7E8-unxlsTqA2S5Jegf380vY=", "properties": {"@source_uri": "https://tools.usps.com/UspsToolsRestServices/rest/POLocator/findLocations", "@spider": "usps_collection_boxes", "addr:city": "MUSKOGEE", "addr:country": "US", "addr:postcode": "74401", "addr:state": "OK", "addr:street_address": "300 W BROADWAY ST", "amenity": "post_box", "collection_times": "Mo-Fr 16:00", "note": "ON 12/24 AND 12/31, THIS BOX MAY BE COLLECTED AS EARLY AS 12 NOON.", "nsi_id": "unitedstatespostalservice-a77078", "operator": "United States Postal Service", "operator:short": "USPS", "operator:type": "public", "operator:wikidata": "Q668687", "ref": "7440100071"}, "type": "Feature"}
{"geometry": {"coordinates": [-95.4139404, 35.76533], "type": "Point"}, "id": "OmLtjHoxpg2kFu4a9XkGfHf6auA=", "properties": {"@source_uri": "https://tools.usps.com/UspsToolsRestServices/rest/POLocator/findLocations", "@spider": "usps_collection_boxes", "addr:city": "MUSKOGEE", "addr:country": "US", "addr:postcode": "74401", "addr:state": "OK", "addr:street_address": "1011 HONOR HEIGHTS DR", "amenity": "post_box", "collection_times": "Mo-Fr 15:30", "note": "ON 12/24 AND 12/31, THIS BOX MAY BE COLLECTED AS EARLY AS 12 NOON.", "nsi_id": "unitedstatespostalservice-a77078", "operator": "United States Postal Service", "operator:short": "USPS", "operator:type": "public", "operator:wikidata": "Q668687", "ref": "7440100074"}, "type": "Feature"}
{"geometry": {"coordinates": [-95.3672826108, 35.7518116756], "type": "Point"}, "id": "ftoi6Bzuu4ZpXLTzGTtmqUF-jZ4=", "properties": {"@source_uri": "https://tools.usps.com/UspsToolsRestServices/rest/POLocator/findLocations", "@spider": "usps_collection_boxes", "addr:city": "MUSKOGEE", "addr:country": "US", "addr:postcode": "74401", "addr:state": "OK", "addr:street_address": "505 N MAIN ST", "amenity": "post_box", "collection_times": "Mo-Fr 17:00; Sa 12:00", "indoor": "yes", "note": "ON 12/24 AND 12/31, THIS BOX MAY BE COLLECTED AS EARLY AS 12 NOON.", "nsi_id": "unitedstatespostalservice-a77078", "operator": "United States Postal Service", "operator:short": "USPS", "operator:type": "public", "operator:wikidata": "Q668687", "ref": "7440100077"}, "type": "Feature"}
{"geometry": {"coordinates": [-95.3701247102, 35.7703532118], "type": "Point"}, "id": "ZvSfzdnHoapG6HRTUeUDG9YT9T8=", "properties": {"@source_uri": "https://tools.usps.com/UspsToolsRestServices/rest/POLocator/findLocations", "@spider": "usps_collection_boxes", "addr:city": "MUSKOGEE", "addr:country": "US", "addr:postcode": "74401", "addr:state": "OK", "addr:street_address": "934 W SHAWNEE ST", "amenity": "post_box", "collection_times": "Mo-Fr 15:30; Sa 14:00", "note": "ON 12/24 AND 12/31, THIS BOX MAY BE COLLECTED AS EARLY AS 12 NOON.", "nsi_id": "unitedstatespostalservice-a77078", "operator": "United States Postal Service", "operator:short": "USPS", "operator:type": "public", "operator:wikidata": "Q668687", "ref": "7440100079"}, "type": "Feature"}
{"geometry": {"coordinates": [-95.3570531, 35.746481], "type": "Point"}, "id": "xtgrJ7CdyBWaOiT2LKVxVLvxHHY=", "properties": {"@source_uri": "https://tools.usps.com/UspsToolsRestServices/rest/POLocator/findLocations", "@spider": "usps_collection_boxes", "addr:city": "MUSKOGEE", "addr:country": "US", "addr:postcode": "74403", "addr:state": "OK", "addr:street_address": "300 EASTSIDE BLVD", "amenity": "post_box", "collection_times": "Mo-Fr 15:45; Sa 14:15", "note": "ON 12/24 AND 12/31, THIS BOX MAY BE COLLECTED AS EARLY AS 12 NOON.", "nsi_id": "unitedstatespostalservice-a77078", "operator": "United States Postal Service", "operator:short": "USPS", "operator:type": "public", "operator:wikidata": "Q668687", "ref": "7440300001"}, "type": "Feature"}
{"geometry": {"coordinates": [-95.3396408, 35.727771], "type": "Point"}, "id": "Wd_YdqN2upkh17sViwzrysjDflA=", "properties": {"@source_uri": "https://tools.usps.com/UspsToolsRestServices/rest/POLocator/findLocations", "@spider": "usps_collection_boxes", "addr:city": "MUSKOGEE", "addr:country": "US", "addr:postcode": "74403", "addr:state": "OK", "addr:street_address": "1306 S YORK ST", "amenity": "post_box", "collection_times": "Mo-Fr 15:30; Sa 14:00", "note": "ON 12/24 AND 12/31, THIS BOX MAY BE COLLECTED AS EARLY AS 12 NOON.", "nsi_id": "unitedstatespostalservice-a77078", "operator": "United States Postal Service", "operator:short": "USPS", "operator:type": "public", "operator:wikidata": "Q668687", "ref": "7440300009"}, "type": "Feature"}
{"geometry": {"coordinates": [-95.3391840194, 35.7419189884], "type": "Point"}, "id": "EYC7b_-pZ4xUTdNzNhFW3EWiDWo=", "properties": {"@source_uri": "https://tools.usps.com/UspsToolsRestServices/rest/POLocator/findLocations", "@spider": "usps_collection_boxes", "addr:city": "MUSKOGEE", "addr:country": "US", "addr:postcode": "74403", "addr:state": "OK", "addr:street_address": "2410 CHANDLER RD", "amenity": "post_box", "collection_times": "Mo-Fr 15:30; Sa 14:00", "note": "ON 12/24 AND 12/31, THIS BOX MAY BE COLLECTED AS EARLY AS 12 NOON.", "nsi_id": "unitedstatespostalservice-a77078", "operator": "United States Postal Service", "operator:short": "USPS", "operator:type": "public", "operator:wikidata": "Q668687", "ref": "7440300032"}, "type": "Feature"}
{"geometry": {"coordinates": [-95.3405385, 35.762924], "type": "Point"}, "id": "GoQF2hPzlOFoSSkjJXL_MEiF58c=", "properties": {"@source_uri": "https://tools.usps.com/UspsToolsRestServices/rest/POLocator/findLocations", "@spider": "usps_collection_boxes", "addr:city": "MUSKOGEE", "addr:country": "US", "addr:postcode": "74403", "addr:state": "OK", "addr:street_address": "1805 N YORK ST", "amenity": "post_box", "collection_times": "Mo-Fr 15:45; Sa 14:15", "note": "ON 12/24 AND 12/31, THIS BOX MAY BE COLLECTED AS EARLY AS 12 NOON.", "nsi_id": "unitedstatespostalservice-a77078", "operator": "United States Postal Service", "operator:short": "USPS", "operator:type": "public", "operator:wikidata": "Q668687", "ref": "7440300033"}, "type": "Feature"}
{"geometry": {"coordinates": [-95.34265479, 35.77142187], "type": "Point"}, "id": "4IuA-uFpW75yzaZeLDz8CLvC9dI=", "properties": {"@source_uri": "https://tools.usps.com/UspsToolsRestServices/rest/POLocator/findLocations", "@spider": "usps_collection_boxes", "addr:city": "MUSKOGEE", "addr:country": "US", "addr:postcode": "74403", "addr:state": "OK", "addr:street_address": "2250 E SHAWNEE BYP", "amenity": "post_box", "collection_times": "Mo-Fr 15:45", "note": "ON 12/24 AND 12/31, THIS BOX MAY BE COLLECTED AS EARLY AS 12 NOON.", "nsi_id": "unitedstatespostalservice-a77078", "operator": "United States Postal Service", "operator:short": "USPS", "operator:type": "public", "operator:wikidata": "Q668687", "ref": "7440300035"}, "type": "Feature"}
{"geometry": {"coordinates": [-96.0686253522, 35.741629315], "type": "Point"}, "id": "1GlviM9Os23zlFCnyAFWscnAe5o=", "properties": {"@source_uri": "https://tools.usps.com/UspsToolsRestServices/rest/POLocator/findLocations", "@spider": "usps_collection_boxes", "addr:city": "BEGGS", "addr:country": "US", "addr:postcode": "74421", "addr:state": "OK", "addr:street_address": "106 N CHOCTAW ST", "amenity": "post_box", "collection_times": "Mo-Fr 16:30; Sa 11:00", "note": "ON 12/24 AND 12/31, THIS BOX MAY BE COLLECTED AS EARLY AS 12 NOON.", "nsi_id": "unitedstatespostalservice-a77078", "operator": "United States Postal Service", "operator:short": "USPS", "operator:type": "public", "operator:wikidata": "Q668687", "ref": "7442100000"}, "type": "Feature"}
{"geometry": {"coordinates": [-96.0686253522, 35.741629315], "type": "Point"}, "id": "4cTvTMJPEMLNtnt8LUvZScqxvTg=", "properties": {"@source_uri": "https://tools.usps.com/UspsToolsRestServices/rest/POLocator/findLocations", "@spider": "usps_collection_boxes", "addr:city": "BEGGS", "addr:country": "US", "addr:postcode": "74421", "addr:state": "OK", "addr:street_address": "106 N CHOCTAW ST", "amenity": "post_box", "collection_times": "Mo-Fr 16:30; Sa 11:00", "indoor": "yes", "note": "ON 12/24 AND 12/31, THIS BOX MAY BE COLLECTED AS EARLY AS 12 NOON.", "nsi_id": "unitedstatespostalservice-a77078", "operator": "United States Postal Service", "operator:short": "USPS", "operator:type": "public", "operator:wikidata": "Q668687", "ref": "7442100001"}, "type": "Feature"}
{"geometry": {"coordinates": [-96.0686253522, 35.741629315], "type": "Point"}, "id": "C1MEiYATDNBmEkjPCoRbUz2F7BQ=", "properties": {"@source_uri": "https://tools.usps.com/UspsToolsRestServices/rest/POLocator/findLocations", "@spider": "usps_collection_boxes", "addr:city": "BEGGS", "addr:country": "US", "addr:postcode": "74421", "addr:state": "OK", "addr:street_address": "106 N CHOCTAW ST", "amenity": "post_box", "collection_times": "Mo-Fr 16:30; Sa 11:00", "indoor": "yes", "note": "ON 12/24 AND 12/31, THIS BOX MAY BE COLLECTED AS EARLY AS 12 NOON.", "nsi_id": "unitedstatespostalservice-a77078", "operator": "United States Postal Service", "operator:short": "USPS", "operator:type": "public", "operator:wikidata": "Q668687", "ref": "7442100002"}, "type": "Feature"}
{"geometry": {"coordinates": [-96.068708614, 35.738514004], "type": "Point"}, "id": "E4B3lwosDmU9mH0CC8ERJYMv-lY=", "properties": {"@source_uri": "https://tools.usps.com/UspsToolsRestServices/rest/POLocator/findLocations", "@spider": "usps_collection_boxes", "addr:city": "BEGGS", "addr:country": "US", "addr:postcode": "74421", "addr:state": "OK", "addr:street_address": "106 N CHOCTAW ST", "amenity": "post_box", "collection_times": "Mo-Fr 16:15; Sa 11:00", "indoor": "yes", "note": "ON 12/24 AND 12/31, THIS BOX MAY BE COLLECTED AS EARLY AS 12 NOON.", "nsi_id": "unitedstatespostalservice-a77078", "operator": "United States Postal Service", "operator:short": "USPS", "operator:type": "public", "operator:wikidata": "Q668687", "ref": "7442100003"}, "type": "Feature"}
{"geometry": {"coordinates": [-95.656051, 35.644372], "type": "Point"}, "id": "JiZzqxIo1wQ-wJvlNsr5O2xGdEk=", "properties": {"@source_uri": "https://tools.usps.com/UspsToolsRestServices/rest/POLocator/findLocations", "@spider": "usps_collection_boxes", "addr:city": "BOYNTON", "addr:country": "US", "addr:postcode": "74422", "addr:state": "OK", "addr:street_address": "101 S SEAMAN ST", "amenity": "post_box", "collection_times": "Mo-Fr 11:15; Sa 09:00", "indoor": "yes", "nsi_id": "unitedstatespostalservice-a77078", "operator": "United States Postal Service", "operator:short": "USPS", "operator:type": "public", "operator:wikidata": "Q668687", "ref": "7442200002"}, "type": "Feature"}
{"geometry": {"coordinates": [-95.655983579, 35.648753579], "type": "Point"}, "id": "LMsLjcTcAW7TmQVh3ysSwvUZmiU=", "properties": {"@source_uri": "https://tools.usps.com/UspsToolsRestServices/rest/POLocator/findLocations", "@spider": "usps_collection_boxes", "addr:city": "BOYNTON", "addr:country": "US", "addr:postcode": "74422", "addr:state": "OK", "addr:street_address": "201 S SEAMAN ST", "amenity": "post_box", "collection_times": "Mo-Fr 11:30", "indoor": "yes", "nsi_id": "unitedstatespostalservice-a77078", "operator": "United States Postal Service", "operator:short": "USPS", "operator:type": "public", "operator:wikidata": "Q668687", "ref": "7442200003"}, "type": "Feature"}
{"geometry": {"coordinates": [-95.2002045286, 35.665433773], "type": "Point"}, "id": "BeyHU_n7iz23DNezu-dzBngIqNE=", "properties": {"@source_uri": "https://tools.usps.com/UspsToolsRestServices/rest/POLocator/findLocations", "@spider": "usps_collection_boxes", "addr:city": "BRAGGS", "addr:country": "US", "addr:postcode": "74423", "addr:state": "OK", "addr:street_address": "300 N MADISON ST", "amenity": "post_box", "collection_times": "Mo-Fr 12:00; Sa 10:30", "nsi_id": "unitedstatespostalservice-a77078", "operator": "United States Postal Service", "operator:short": "USPS", "operator:type": "public", "operator:wikidata": "Q668687", "ref": "7442300000"}, "type": "Feature"}
{"geometry": {"coordinates": [-95.2002045286, 35.665433773], "type": "Point"}, "id": "spH19AkVDOr5HwV5ymRBEpzCs4w=", "properties": {"@source_uri": "https://tools.usps.com/UspsToolsRestServices/rest/POLocator/findLocations", "@spider": "usps_collection_boxes", "addr:city": "BRAGGS", "addr:country": "US", "addr:postcode": "74423", "addr:state": "OK", "addr:street_address": "300 N MADISON ST", "amenity": "post_box", "collection_times": "Mo-Fr 12:00; Sa 10:30", "indoor": "yes", "nsi_id": "unitedstatespostalservice-a77078", "operator": "United States Postal Service", "operator:short": "USPS", "operator:type": "public", "operator:wikidata": "Q668687", "ref": "7442300001"}, "type": "Feature"}
{"geometry": {"coordinates": [-95.2002045286, 35.665433773], "type": "Point"}, "id": "z3mAs4oI_UzS6jFOGw4XwhP1764=", "properties": {"@source_uri": "https://tools.usps.com/UspsToolsRestServices/rest/POLocator/findLocations", "@spider": "usps_collection_boxes", "addr:city": "BRAGGS", "addr:country": "US", "addr:postcode": "74423", "addr:state": "OK", "addr:street_address": "300 N MADISON ST", "amenity": "post_box", "collection_times": "Mo-Fr 12:00; Sa 10:30", "indoor": "yes", "nsi_id": "unitedstatespostalservice-a77078", "operator": "United States Postal Service", "operator:short": "USPS", "operator:type": "public", "operator:wikidata": "Q668687", "ref": "7442300002"}, "type": "Feature"}
{"geometry": {"coordinates": [-95.2002045286, 35.665433773], "type": "Point"}, "id": "6n3tXMbhJkrpzRq5VKk1OSa2ZL8=", "properties": {"@source_uri": "https://tools.usps.com/UspsToolsRestServices/rest/POLocator/findLocations", "@spider": "usps_collection_boxes", "addr:city": "BRAGGS", "addr:country": "US", "addr:postcode": "74423", "addr:state": "OK", "addr:street_address": "300 N MADISON ST", "amenity": "post_box", "collection_times": "Mo-Fr 12:00; Sa 10:30", "indoor": "yes", "nsi_id": "unitedstatespostalservice-a77078", "operator": "United States Postal Service", "operator:short": "USPS", "operator:type": "public", "operator:wikidata": "Q668687", "ref": "7442300003"}, "type": "Feature"}
{"geometry": {"coordinates": [-95.654777, 35.176374], "type": "Point"}, "id": "JPnmCyXI61o0iE9Y4t5uY49Mx7E=", "properties": {"@source_uri": "https://tools.usps.com/UspsToolsRestServices/rest/POLocator/findLocations", "@spider": "usps_collection_boxes", "addr:city": "CANADIAN", "addr:country": "US", "addr:postcode": "74425", "addr:state": "OK", "addr:street_address": "101 TIGNOR ST", "amenity": "post_box", "collection_times": "Mo-Fr 16:00; Sa 08:45", "indoor": "yes", "note": "ON 12/24 AND 12/31, THIS BOX MAY BE COLLECTED AS EARLY AS 12 NOON.", "nsi_id": "unitedstatespostalservice-a77078", "operator": "United States Postal Service", "operator:short": "USPS", "operator:type": "public", "operator:wikidata": "Q668687", "ref": "7442500001"}, "type": "Feature"}
{"geometry": {"coordinates": [-95.655078732, 35.176138847], "type": "Point"}, "id": "WLwK936f6pvJlcqdXqdI_yOv0UM=", "properties": {"@source_uri": "https://tools.usps.com/UspsToolsRestServices/rest/POLocator/findLocations", "@spider": "usps_collection_boxes", "addr:city": "CANADIAN", "addr:country": "US", "addr:postcode": "74425", "addr:state": "OK", "addr:street_address": "101 TIGNOR ST", "amenity": "post_box", "collection_times": "Mo-Fr 16:00", "indoor": "yes", "note": "ON 12/24 AND 12/31, THIS BOX MAY BE COLLECTED AS EARLY AS 12 NOON.", "nsi_id": "unitedstatespostalservice-a77078", "operator": "United States Postal Service", "operator:short": "USPS", "operator:type": "public", "operator:wikidata": "Q668687", "ref": "7442500002"}, "type": "Feature"}
{"geometry": {"coordinates": [-95.5231123, 35.46999], "type": "Point"}, "id": "Kp5IdR90TlvuTYh6Tpwck0h8ynY=", "properties": {"@source_uri": "https://tools.usps.com/UspsToolsRestServices/rest/POLocator/findLocations", "@spider": "usps_collection_boxes", "addr:city": "CHECOTAH", "addr:country": "US", "addr:postcode": "74426", "addr:state": "OK", "addr:street_address": "300 W GENTRY AVE", "amenity": "post_box", "collection_times": "Mo-Sa 15:00", "note": "ON 12/24 AND 12/31, THIS BOX MAY BE COLLECTED AS EARLY AS 12 NOON.", "nsi_id": "unitedstatespostalservice-a77078", "operator": "United States Postal Service", "operator:short": "USPS", "operator:type": "public", "operator:wikidata": "Q668687", "ref": "7442600001"}, "type": "Feature"}
{"geometry": {"coordinates": [-95.5220469153, 35.4709198698], "type": "Point"}, "id": "pkMjph-gl987bpRhvgvoPsCwRxo=", "properties": {"@source_uri": "https://tools.usps.com/UspsToolsRestServices/rest/POLocator/findLocations", "@spider": "usps_collection_boxes", "addr:city": "CHECOTAH", "addr:country": "US", "addr:postcode": "74426", "addr:state": "OK", "addr:street_address": "213 W SPAULDING ST", "amenity": "post_box", "collection_times": "Mo-Sa 16:00", "note": "ON 12/24 AND 12/31, THIS BOX MAY BE COLLECTED AS EARLY AS 12 NOON.", "nsi_id": "unitedstatespostalservice-a77078", "operator": "United States Postal Service", "operator:short": "USPS", "operator:type": "public", "operator:wikidata": "Q668687", "ref": "7442600003"}, "type": "Feature"}
{"geometry": {"coordinates": [-95.5388261, 35.475766], "type": "Point"}, "id": "f2ooCSmuhmInv4umVEltZQTiyg0=", "properties": {"@source_uri": "https://tools.usps.com/UspsToolsRestServices/rest/POLocator/findLocations", "@spider": "usps_collection_boxes", "addr:city": "CHECOTAH", "addr:country": "US", "addr:postcode": "74426", "addr:state": "OK", "addr:street_address": "1255 W GENTRY AVE", "amenity": "post_box", "collection_times": "Mo-Sa 09:30", "nsi_id": "unitedstatespostalservice-a77078", "operator": "United States Postal Service", "operator:short": "USPS", "operator:type": "public", "operator:wikidata": "Q668687", "ref": "7442600005"}, "type": "Feature"}
{"geometry": {"coordinates": [-95.5376004, 35.4768], "type": "Point"}, "id": "W-ylLon2r_aB18iIF7jNei9ZiGs=", "properties": {"@source_uri": "https://tools.usps.com/UspsToolsRestServices/rest/POLocator/findLocations", "@spider": "usps_collection_boxes", "addr:city": "CHECOTAH", "addr:country": "US", "addr:postcode": "74426", "addr:state": "OK", "addr:street_address": "1220 W GENTRY AVE", "amenity": "post_box", "collection_times": "Mo-Sa 09:00", "nsi_id": "unitedstatespostalservice-a77078", "operator": "United States Postal Service", "operator:short": "USPS", "operator:type": "public", "operator:wikidata": "Q668687", "ref": "7442600006"}, "type": "Feature"}
{"geometry": {"coordinates": [-95.521539, 35.470827], "type": "Point"}, "id": "2-61cjamjEaOdah5G5obt_xJXDo=", "properties": {"@source_uri": "https://tools.usps.com/UspsToolsRestServices/rest/POLocator/findLocations", "@spider": "usps_collection_boxes", "addr:city": "CHECOTAH", "addr:country": "US", "addr:postcode": "74426", "addr:state": "OK", "addr:street_address": "213 W SPAULDING ST", "amenity": "post_box", "collection_times": "Mo-Fr 16:30; Sa 16:00", "indoor": "yes", "note": "ON 12/24 AND 12/31, THIS BOX MAY BE COLLECTED AS EARLY AS 12 NOON.", "nsi_id": "unitedstatespostalservice-a77078", "operator": "United States Postal Service", "operator:short": "USPS", "operator:type": "public", "operator:wikidata": "Q668687", "ref": "7442600007"}, "type": "Feature"}
{"geometry": {"coordinates": [-95.521539, 35.470827], "type": "Point"}, "id": "gtvjHwsufEZJLOPrcDkcyd_tIdM=", "properties": {"@source_uri": "https://tools.usps.com/UspsToolsRestServices/rest/POLocator/findLocations", "@spider": "usps_collection_boxes", "addr:city": "CHECOTAH", "addr:country": "US", "addr:postcode": "74426", "addr:state": "OK", "addr:street_address": "213 W SPAULDING ST", "amenity": "post_box", "collection_times": "Mo-Fr 16:30; Sa 16:00", "indoor": "yes", "note": "ON 12/24 AND 12/31, THIS BOX MAY BE COLLECTED AS EARLY AS 12 NOON.", "nsi_id": "unitedstatespostalservice-a77078", "operator": "United States Postal Service", "operator:short": "USPS", "operator:type": "public", "operator:wikidata": "Q668687", "ref": "7442600008"}, "type": "Feature"}
{"geometry": {"coordinates": [-95.522046915, 35.47091987], "type": "Point"}, "id": "9dTVhgG6w8O7_ZqjLvOPLXs1b70=", "properties": {"@source_uri": "https://tools.usps.com/UspsToolsRestServices/rest/POLocator/findLocations", "@spider": "usps_collection_boxes", "addr:city": "CHECOTAH", "addr:country": "US", "addr:postcode": "74426", "addr:state": "OK", "addr:street_address": "213 W SPAULDING ST", "amenity": "post_box", "collection_times": "Mo-Fr 16:30; Sa 12:00", "indoor": "yes", "note": "ON 12/24 AND 12/31, THIS BOX MAY BE COLLECTED AS EARLY AS 12 NOON.", "nsi_id": "unitedstatespostalservice-a77078", "operator": "United States Postal Service", "operator:short": "USPS", "operator:type": "public", "operator:wikidata": "Q668687", "ref": "7442600010"}, "type": "Feature"}
{"geometry": {"coordinates": [-94.918614, 35.709463], "type": "Point"}, "id": "KRYNtk4w8ayoeqOMC6Ey-z66Riw=", "properties": {"@source_uri": "https://tools.usps.com/UspsToolsRestServices/rest/POLocator/findLocations", "@spider": "usps_collection_boxes", "addr:city": "COOKSON", "addr:country": "US", "addr:postcode": "74427", "addr:state": "OK", "addr:street_address": "32094 HIGHWAY 82", "amenity": "post_box", "collection_times": "Mo-Fr 15:45; Sa 12:15", "note": "ON 12/24 AND 12/31, THIS BOX MAY BE COLLECTED AS EARLY AS 12 NOON.", "nsi_id": "unitedstatespostalservice-a77078", "operator": "United States Postal Service", "operator:short": "USPS", "operator:type": "public", "operator:wikidata": "Q668687", "ref": "7442700000"}, "type": "Feature"}
{"geometry": {"coordinates": [-94.918614, 35.709463], "type": "Point"}, "id": "pOAaeDMnkW0QMqh6E_ANAaITomM=", "properties": {"@source_uri": "https://tools.usps.com/UspsToolsRestServices/rest/POLocator/findLocations", "@spider": "usps_collection_boxes", "addr:city": "COOKSON", "addr:country": "US", "addr:postcode": "74427", "addr:state": "OK", "addr:street_address": "32094 HIGHWAY 82", "amenity": "post_box", "collection_times": "Mo-Fr 15:45; Sa 12:15", "indoor": "yes", "note": "ON 12/24 AND 12/31, THIS BOX MAY BE COLLECTED AS EARLY AS 12 NOON.", "nsi_id": "unitedstatespostalservice-a77078", "operator": "United States Postal Service", "operator:short": "USPS", "operator:type": "public", "operator:wikidata": "Q668687", "ref": "7442700001"}, "type": "Feature"}
{"geometry": {"coordinates": [-94.918613146, 35.709457346], "type": "Point"}, "id": "Cb-wxjnFzqmvvVvCrR-QVxyeugc=", "properties": {"@source_uri": "https://tools.usps.com/UspsToolsRestServices/rest/POLocator/findLocations", "@spider": "usps_collection_boxes", "addr:city": "COOKSON", "addr:country": "US", "addr:postcode": "74427", "addr:state": "OK", "addr:street_address": "32094 HIGHWAY 82", "amenity": "post_box", "collection_times": "Mo-Fr 16:00; Sa 12:00", "indoor": "yes", "note": "ON 12/24 AND 12/31, THIS BOX MAY BE COLLECTED AS EARLY AS 12 NOON.", "nsi_id": "unitedstatespostalservice-a77078", "operator": "United States Postal Service", "operator:short": "USPS", "operator:type": "public", "operator:wikidata": "Q668687", "ref": "7442700002"}, "type": "Feature"}
{"geometry": {"coordinates": [-95.651467, 35.551721], "type": "Point"}, "id": "lSHtS8RQyx6h91AatE_YmrwUWWI=", "properties": {"@source_uri": "https://tools.usps.com/UspsToolsRestServices/rest/POLocator/findLocations", "@spider": "usps_collection_boxes", "addr:city": "COUNCIL HILL", "addr:country": "US", "addr:postcode": "74428", "addr:state": "OK", "addr:street_address": "115 S BROADWAY ST", "amenity": "post_box", "collection_times": "Mo-Fr 12:00; Sa 10:30", "indoor": "yes", "nsi_id": "unitedstatespostalservice-a77078", "operator": "United States Postal Service", "operator:short": "USPS", "operator:type": "public", "operator:wikidata": "Q668687", "ref": "7442800001"}, "type": "Feature"}
{"geometry": {"coordinates": [-95.651396115, 35.556380324], "type": "Point"}, "id": "pKdVvPpxTRaPOx_LTS7wbwFCMk8=", "properties": {"@source_uri": "https://tools.usps.com/UspsToolsRestServices/rest/POLocator/findLocations", "@spider": "usps_collection_boxes", "addr:city": "COUNCIL HILL", "addr:country": "US", "addr:postcode": "74428", "addr:state": "OK", "addr:street_address": "115 S BROADWAY ST", "amenity": "post_box", "collection_times": "Mo-Fr 12:00; Sa 10:30", "indoor": "yes", "nsi_id": "unitedstatespostalservice-a77078", "operator": "United States Postal Service", "operator:short": "USPS", "operator:type": "public", "operator:wikidata": "Q668687", "ref": "7442800002"}, "type": "Feature"}
{"geometry": {"coordinates": [-95.6523409369, 35.9509959827], "type": "Point"}, "id": "VKRHIJKk_MMsEy9lL1ewQ221Izw=", "properties": {"@source_uri": "https://tools.usps.com/UspsToolsRestServices/rest/POLocator/findLocations", "@spider": "usps_collection_boxes", "addr:city": "COWETA", "addr:country": "US", "addr:postcode": "74429", "addr:state": "OK", "addr:street_address": "215 W SYCAMORE ST", "amenity": "post_box", "collection_times": "Mo-Fr 16:15; Sa 15:15", "note": "ON 12/24 AND 12/31, THIS BOX MAY BE COLLECTED AS EARLY AS 12 NOON.", "nsi_id": "unitedstatespostalservice-a77078", "operator": "United States Postal Service", "operator:short": "USPS", "operator:type": "public", "operator:wikidata": "Q668687", "ref": "7442900000"}, "type": "Feature"}
{"geometry": {"coordinates": [-95.6493764, 35.956865], "type": "Point"}, "id": "PXvK979XeARVBOVLoRmfGAMxkXc=", "properties": {"@source_uri": "https://tools.usps.com/UspsToolsRestServices/rest/POLocator/findLocations", "@spider": "usps_collection_boxes", "addr:city": "COWETA", "addr:country": "US", "addr:postcode": "74429", "addr:state": "OK", "addr:street_address": "14269 S STATE HIGHWAY 51", "amenity": "post_box", "collection_times": "Mo-Fr 12:00; Sa 11:30", "nsi_id": "unitedstatespostalservice-a77078", "operator": "United States Postal Service", "operator:short": "USPS", "operator:type": "public", "operator:wikidata": "Q668687", "ref": "7442900001"}, "type": "Feature"}
{"geometry": {"coordinates": [-95.652063, 35.950977], "type": "Point"}, "id": "ubLEMpNq9GIFKWF5LmzudCzMjPY=", "properties": {"@source_uri": "https://tools.usps.com/UspsToolsRestServices/rest/POLocator/findLocations", "@spider": "usps_collection_boxes", "addr:city": "COWETA", "addr:country": "US", "addr:postcode": "74429", "addr:state": "OK", "addr:street_address": "215 W SYCAMORE ST", "amenity": "post_box", "collection_times": "Mo-Fr 16:30; Sa 15:15", "indoor": "yes", "note": "ON 12/24 AND 12/31, THIS BOX MAY BE COLLECTED AS EARLY AS 12 NOON.", "nsi_id": "unitedstatespostalservice-a77078", "operator": "United States Postal Service", "operator:short": "USPS", "operator:type": "public", "operator:wikidata": "Q668687", "ref": "7442900003"}, "type": "Feature"}
{"geometry": {"coordinates": [-95.652063, 35.950977], "type": "Point"}, "id": "CEPkT2on65JZbm0cG6sfwQMvvKc=", "properties": {"@source_uri": "https://tools.usps.com/UspsToolsRestServices/rest/POLocator/findLocations", "@spider": "usps_collection_boxes", "addr:city": "COWETA", "addr:country": "US", "addr:postcode": "74429", "addr:state": "OK", "addr:street_address": "215 W SYCAMORE ST", "amenity": "post_box", "collection_times": "Mo-Fr 16:30; Sa 15:15", "indoor": "yes", "note": "ON 12/24 AND 12/31, THIS BOX MAY BE COLLECTED AS EARLY AS 12 NOON.", "nsi_id": "unitedstatespostalservice-a77078", "operator": "United States Postal Service", "operator:short": "USPS", "operator:type": "public", "operator:wikidata": "Q668687", "ref": "7442900004"}, "type": "Feature"}
{"geometry": {"coordinates": [-95.652063, 35.950977], "type": "Point"}, "id": "TktAzdIHXxYVmFVyQO4-6K4EXUE=", "properties": {"@source_uri": "https://tools.usps.com/UspsToolsRestServices/rest/POLocator/findLocations", "@spider": "usps_collection_boxes", "addr:city": "COWETA", "addr:country": "US", "addr:postcode": "74429", "addr:state": "OK", "addr:street_address": "215 W SYCAMORE ST", "amenity": "post_box", "collection_times": "Mo-Fr 16:30; Sa 15:15", "indoor": "yes", "note": "ON 12/24 AND 12/31, THIS BOX MAY BE COLLECTED AS EARLY AS 12 NOON.", "nsi_id": "unitedstatespostalservice-a77078", "operator": "United States Postal Service", "operator:short": "USPS", "operator:type": "public", "operator:wikidata": "Q668687", "ref": "7442900005"}, "type": "Feature"}
{"geometry": {"coordinates": [-95.652093245, 35.9510083], "type": "Point"}, "id": "zGTpC3PWplWT1nBntB4MSMwgvtw=", "properties": {"@source_uri": "https://tools.usps.com/UspsToolsRestServices/rest/POLocator/findLocations", "@spider": "usps_collection_boxes", "addr:city": "COWETA", "addr:country": "US", "addr:postcode": "74429", "addr:state": "OK", "addr:street_address": "215 W SYCAMORE ST", "amenity": "post_box", "collection_times": "Mo-Fr 16:30; Sa 11:00", "indoor": "yes", "note": "ON 12/24 AND 12/31, THIS BOX MAY BE COLLECTED AS EARLY AS 12 NOON.", "nsi_id": "unitedstatespostalservice-a77078", "operator": "United States Postal Service", "operator:short": "USPS", "operator:type": "public", "operator:wikidata": "Q668687", "ref": "7442900007"}, "type": "Feature"}
{"geometry": {"coordinates": [-95.6747656192, 35.123949], "type": "Point"}, "id": "mfrdYKdG53qbhee8JYkpMCdAufU=", "properties": {"@source_uri": "https://tools.usps.com/UspsToolsRestServices/rest/POLocator/findLocations", "@spider": "usps_collection_boxes", "addr:city": "CROWDER", "addr:country": "US", "addr:postcode": "74430", "addr:state": "OK", "addr:street_address": "100 N B ST", "amenity": "post_box", "collection_times": "Mo-Fr 15:45; Sa 09:45", "indoor": "yes", "note": "ON 12/24 AND 12/31, THIS BOX MAY BE COLLECTED AS EARLY AS 12 NOON.", "nsi_id": "unitedstatespostalservice-a77078", "operator": "United States Postal Service", "operator:short": "USPS", "operator:type": "public", "operator:wikidata": "Q668687", "ref": "7443000001"}, "type": "Feature"}
{"geometry": {"coordinates": [-95.6747656192, 35.123949], "type": "Point"}, "id": "UWIDLuhLFMZzmamu2ulkJARHdq4=", "properties": {"@source_uri": "https://tools.usps.com/UspsToolsRestServices/rest/POLocator/findLocations", "@spider": "usps_collection_boxes", "addr:city": "CROWDER", "addr:country": "US", "addr:postcode": "74430", "addr:state": "OK", "addr:street_address": "100 N B ST", "amenity": "post_box", "collection_times": "Mo-Fr 15:45; Sa 09:45", "indoor": "yes", "note": "ON 12/24 AND 12/31, THIS BOX MAY BE COLLECTED AS EARLY AS 12 NOON.", "nsi_id": "unitedstatespostalservice-a77078", "operator": "United States Postal Service", "operator:short": "USPS", "operator:type": "public", "operator:wikidata": "Q668687", "ref": "7443000002"}, "type": "Feature"}
{"geometry": {"coordinates": [-95.6747656192, 35.123949], "type": "Point"}, "id": "0xJyprmSQbt_cAm0lGA3Z3puXKw=", "properties": {"@source_uri": "https://tools.usps.com/UspsToolsRestServices/rest/POLocator/findLocations", "@spider": "usps_collection_boxes", "addr:city": "CROWDER", "addr:country": "US", "addr:postcode": "74430", "addr:state": "OK", "addr:street_address": "100 N B ST", "amenity": "post_box", "collection_times": "Mo-Fr 15:45", "indoor": "yes", "note": "ON 12/24 AND 12/31, THIS BOX MAY BE COLLECTED AS EARLY AS 12 NOON.", "nsi_id": "unitedstatespostalservice-a77078", "operator": "United States Postal Service", "operator:short": "USPS", "operator:type": "public", "operator:wikidata": "Q668687", "ref": "7443000003"}, "type": "Feature"}
{"geometry": {"coordinates": [-95.9408806591, 35.4558324298], "type": "Point"}, "id": "JWUlprYS48wQ8_-WGGXCcPZ6AmQ=", "properties": {"@source_uri": "https://tools.usps.com/UspsToolsRestServices/rest/POLocator/findLocations", "@spider": "usps_collection_boxes", "addr:city": "DEWAR", "addr:country": "US", "addr:postcode": "74431", "addr:state": "OK", "addr:street_address": "104 N BROADWAY", "amenity": "post_box", "collection_times": "Mo-Fr 15:30; Sa 10:30", "indoor": "yes", "note": "ON 12/24 AND 12/31, THIS BOX MAY BE COLLECTED AS EARLY AS 12 NOON.", "nsi_id": "unitedstatespostalservice-a77078", "operator": "United States Postal Service", "operator:short": "USPS", "operator:type": "public", "operator:wikidata": "Q668687", "ref": "7443100001"}, "type": "Feature"}
{"geometry": {"coordinates": [-95.9408806591, 35.4558324298], "type": "Point"}, "id": "Vmn28KrOOlQlPAvTZ7QiTKleVqE=", "properties": {"@source_uri": "https://tools.usps.com/UspsToolsRestServices/rest/POLocator/findLocations", "@spider": "usps_collection_boxes", "addr:city": "DEWAR", "addr:country": "US", "addr:postcode": "74431", "addr:state": "OK", "addr:street_address": "104 N BROADWAY", "amenity": "post_box", "collection_times": "Mo-Fr 15:30; Sa 10:30", "indoor": "yes", "note": "ON 12/24 AND 12/31, THIS BOX MAY BE COLLECTED AS EARLY AS 12 NOON.", "nsi_id": "unitedstatespostalservice-a77078", "operator": "United States Postal Service", "operator:short": "USPS", "operator:type": "public", "operator:wikidata": "Q668687", "ref": "7443100002"}, "type": "Feature"}
{"geometry": {"coordinates": [-95.940874077, 35.458354674], "type": "Point"}, "id": "32wsxU9VTqbSJGesrZUHvvbQaik=", "properties": {"@source_uri": "https://tools.usps.com/UspsToolsRestServices/rest/POLocator/findLocations", "@spider": "usps_collection_boxes", "addr:city": "DEWAR", "addr:country": "US", "addr:postcode": "74431", "addr:state": "OK", "addr:street_address": "104 N BROADWAY", "amenity": "post_box", "collection_times": "Mo-Fr 15:30; Sa 10:30", "indoor": "yes", "note": "ON 12/24 AND 12/31, THIS BOX MAY BE COLLECTED AS EARLY AS 12 NOON.", "nsi_id": "unitedstatespostalservice-a77078", "operator": "United States Postal Service", "operator:short": "USPS", "operator:type": "public", "operator:wikidata": "Q668687", "ref": "7443100003"}, "type": "Feature"}
{"geometry": {"coordinates": [-95.583573, 35.286563], "type": "Point"}, "id": "Dg8fR1oLOaaxwqx7xRrPbc9sNOo=", "properties": {"@source_uri": "https://tools.usps.com/UspsToolsRestServices/rest/POLocator/findLocations", "@spider": "usps_collection_boxes", "addr:city": "EUFAULA", "addr:country": "US", "addr:postcode": "74432", "addr:state": "OK", "addr:street_address": "131 W FOLEY ST", "amenity": "post_box", "collection_times": "Mo-Fr 16:15; Sa 12:00", "note": "ON 12/24 AND 12/31, THIS BOX MAY BE COLLECTED AS EARLY AS 12 NOON.", "nsi_id": "unitedstatespostalservice-a77078", "operator": "United States Postal Service", "operator:short": "USPS", "operator:type": "public", "operator:wikidata": "Q668687", "ref": "7443200000"}, "type": "Feature"}
{"geometry": {"coordinates": [-95.583573, 35.286563], "type": "Point"}, "id": "n2Qt7OqRHQk2Xp2-6aiBC8jUO4k=", "properties": {"@source_uri": "https://tools.usps.com/UspsToolsRestServices/rest/POLocator/findLocations", "@spider": "usps_collection_boxes", "addr:city": "EUFAULA", "addr:country": "US", "addr:postcode": "74432", "addr:state": "OK", "addr:street_address": "131 W FOLEY ST", "amenity": "post_box", "collection_times": "Mo-Fr 16:30; Sa 12:00", "indoor": "yes", "note": "ON 12/24 AND 12/31, THIS BOX MAY BE COLLECTED AS EARLY AS 12 NOON.", "nsi_id": "unitedstatespostalservice-a77078", "operator": "United States Postal Service", "operator:short": "USPS", "operator:type": "public", "operator:wikidata": "Q668687", "ref": "7443200003"}, "type": "Feature"}
{"geometry": {"coordinates": [-95.5319805, 35.2391544867], "type": "Point"}, "id": "6Z8UAfkfm6Mbf7gC3uMmfQK9HAg=", "properties": {"@source_uri": "https://tools.usps.com/UspsToolsRestServices/rest/POLocator/findLocations", "@spider": "usps_collection_boxes", "addr:city": "EUFAULA", "addr:country": "US", "addr:postcode": "74432", "addr:state": "OK", "addr:street_address": "16876 STATE HIGHWAY 9 E", "amenity": "post_box", "collection_times": "Mo-Sa 09:00", "nsi_id": "unitedstatespostalservice-a77078", "operator": "United States Postal Service", "operator:short": "USPS", "operator:type": "public", "operator:wikidata": "Q668687", "ref": "7443200004"}, "type": "Feature"}
{"geometry": {"coordinates": [-95.583433615, 35.286562521], "type": "Point"}, "id": "fF4myYSgV16z7HtHW5oVDB8A8UA=", "properties": {"@source_uri": "https://tools.usps.com/UspsToolsRestServices/rest/POLocator/findLocations", "@spider": "usps_collection_boxes", "addr:city": "EUFAULA", "addr:country": "US", "addr:postcode": "74432", "addr:state": "OK", "addr:street_address": "131 W FOLEY ST", "amenity": "post_box", "collection_times": "Mo-Fr 16:15; Sa 12:00", "indoor": "yes", "note": "ON 12/24 AND 12/31, THIS BOX MAY BE COLLECTED AS EARLY AS 12 NOON.", "nsi_id": "unitedstatespostalservice-a77078", "operator": "United States Postal Service", "operator:short": "USPS", "operator:type": "public", "operator:wikidata": "Q668687", "ref": "7443200005"}, "type": "Feature"}
{"geometry": {"coordinates": [-95.251425, 35.797029], "type": "Point"}, "id": "LIbEMOMpxI55u1Q71Iuypmoc2u4=", "properties": {"@source_uri": "https://tools.usps.com/UspsToolsRestServices/rest/POLocator/findLocations", "@spider": "usps_collection_boxes", "addr:city": "FORT GIBSON", "addr:country": "US", "addr:postcode": "74434", "addr:state": "OK", "addr:street_address": "201 W POPLAR ST", "amenity": "post_box", "collection_times": "Mo-Fr 16:00; Sa 10:00", "note": "ON 12/24 AND 12/31, THIS BOX MAY BE COLLECTED AS EARLY AS 12 NOON.", "nsi_id": "unitedstatespostalservice-a77078", "operator": "United States Postal Service", "operator:short": "USPS", "operator:type": "public", "operator:wikidata": "Q668687", "ref": "7443400000"}, "type": "Feature"}
{"geometry": {"coordinates": [-95.251425, 35.797029], "type": "Point"}, "id": "8dymuphZRJCwbIrXTk3PqPez88w=", "properties": {"@source_uri": "https://tools.usps.com/UspsToolsRestServices/rest/POLocator/findLocations", "@spider": "usps_collection_boxes", "addr:city": "FORT GIBSON", "addr:country": "US", "addr:postcode": "74434", "addr:state": "OK", "addr:street_address": "201 W POPLAR ST", "amenity": "post_box", "collection_times": "Mo-Fr 16:00; Sa 10:00", "indoor": "yes", "note": "ON 12/24 AND 12/31, THIS BOX MAY BE COLLECTED AS EARLY AS 12 NOON.", "nsi_id": "unitedstatespostalservice-a77078", "operator": "United States Postal Service", "operator:short": "USPS", "operator:type": "public", "operator:wikidata": "Q668687", "ref": "7443400002"}, "type": "Feature"}
{"geometry": {"coordinates": [-95.251425, 35.797029], "type": "Point"}, "id": "lW-vrNnZ3qc5bHmawxbn8DbvU20=", "properties": {"@source_uri": "https://tools.usps.com/UspsToolsRestServices/rest/POLocator/findLocations", "@spider": "usps_collection_boxes", "addr:city": "FORT GIBSON", "addr:country": "US", "addr:postcode": "74434", "addr:state": "OK", "addr:street_address": "201 W POPLAR ST", "amenity": "post_box", "collection_times": "Mo-Fr 16:00; Sa 10:00", "indoor": "yes", "note": "ON 12/24 AND 12/31, THIS BOX MAY BE COLLECTED AS EARLY AS 12 NOON.", "nsi_id": "unitedstatespostalservice-a77078", "operator": "United States Postal Service", "operator:short": "USPS", "operator:type": "public", "operator:wikidata": "Q668687", "ref": "7443400003"}, "type": "Feature"}
{"geometry": {"coordinates": [-95.251425, 35.797029], "type": "Point"}, "id": "aT3BBKGimn5lYdkiSPSS0Bmd0sQ=", "properties": {"@source_uri": "https://tools.usps.com/UspsToolsRestServices/rest/POLocator/findLocations", "@spider": "usps_collection_boxes", "addr:city": "FORT GIBSON", "addr:country": "US", "addr:postcode": "74434", "addr:state": "OK", "addr:street_address": "201 W POPLAR ST", "amenity": "post_box", "collection_times": "Mo-Fr 16:00; Sa 10:00", "indoor": "yes", "note": "ON 12/24 AND 12/31, THIS BOX MAY BE COLLECTED AS EARLY AS 12 NOON.", "nsi_id": "unitedstatespostalservice-a77078", "operator": "United States Postal Service", "operator:short": "USPS", "operator:type": "public", "operator:wikidata": "Q668687", "ref": "7443400004"}, "type": "Feature"}
{"geometry": {"coordinates": [-95.251425, 35.797029], "type": "Point"}, "id": "vy2mgD9Rqf24ZKSUxSkASYb7niM=", "properties": {"@source_uri": "https://tools.usps.com/UspsToolsRestServices/rest/POLocator/findLocations", "@spider": "usps_collection_boxes", "addr:city": "FORT GIBSON", "addr:country": "US", "addr:postcode": "74434", "addr:state": "OK", "addr:street_address": "201 W POPLAR ST", "amenity": "post_box", "collection_times": "Mo-Fr 16:00; Sa 10:00", "indoor": "yes", "note": "ON 12/24 AND 12/31, THIS BOX MAY BE COLLECTED AS EARLY AS 12 NOON.", "nsi_id": "unitedstatespostalservice-a77078", "operator": "United States Postal Service", "operator:short": "USPS", "operator:type": "public", "operator:wikidata": "Q668687", "ref": "7443400005"}, "type": "Feature"}
{"geometry": {"coordinates": [-95.251360604, 35.796969992], "type": "Point"}, "id": "uFA40Fz4hqnXw3eG4HmQfLefgws=", "properties": {"@source_uri": "https://tools.usps.com/UspsToolsRestServices/rest/POLocator/findLocations", "@spider": "usps_collection_boxes", "addr:city": "FORT GIBSON", "addr:country": "US", "addr:postcode": "74434", "addr:state": "OK", "addr:street_address": "201 W POPLAR ST", "amenity": "post_box", "collection_times": "Mo-Fr 16:00; Sa 10:00", "indoor": "yes", "note": "ON 12/24 AND 12/31, THIS BOX MAY BE COLLECTED AS EARLY AS 12 NOON.", "nsi_id": "unitedstatespostalservice-a77078", "operator": "United States Postal Service", "operator:short": "USPS", "operator:type": "public", "operator:wikidata": "Q668687", "ref": "7443400006"}, "type": "Feature"}
{"geometry": {"coordinates": [-95.1149500046, 35.5315499825], "type": "Point"}, "id": "aYnVFlzimIHdmPBkiS6MxkYrPeM=", "properties": {"@source_uri": "https://tools.usps.com/UspsToolsRestServices/rest/POLocator/findLocations", "@spider": "usps_collection_boxes", "addr:city": "GORE", "addr:country": "US", "addr:postcode": "74435", "addr:state": "OK", "addr:street_address": "402 N MAIN ST", "amenity": "post_box", "collection_times": "Mo-Fr 16:00; Sa 10:00", "note": "ON 12/24 AND 12/31, THIS BOX MAY BE COLLECTED AS EARLY AS 12 NOON.", "nsi_id": "unitedstatespostalservice-a77078", "operator": "United States Postal Service", "operator:short": "USPS", "operator:type": "public", "operator:wikidata": "Q668687", "ref": "7443500000"}, "type": "Feature"}
{"geometry": {"coordinates": [-95.11519, 35.531618], "type": "Point"}, "id": "SuTmPnqTXh1LWifSXh8GFOgcFqE=", "properties": {"@source_uri": "https://tools.usps.com/UspsToolsRestServices/rest/POLocator/findLocations", "@spider": "usps_collection_boxes", "addr:city": "GORE", "addr:country": "US", "addr:postcode": "74435", "addr:state": "OK", "addr:street_address": "402 N MAIN ST", "amenity": "post_box", "collection_times": "Mo-Fr 16:15; Sa 10:00", "indoor": "yes", "note": "ON 12/24 AND 12/31, THIS BOX MAY BE COLLECTED AS EARLY AS 12 NOON.", "nsi_id": "unitedstatespostalservice-a77078", "operator": "United States Postal Service", "operator:short": "USPS", "operator:type": "public", "operator:wikidata": "Q668687", "ref": "7443500001"}, "type": "Feature"}
{"geometry": {"coordinates": [-95.115141012, 35.531668436], "type": "Point"}, "id": "42LrzVLy7TB-FfY3pQBmIYLx-Ik=", "properties": {"@source_uri": "https://tools.usps.com/UspsToolsRestServices/rest/POLocator/findLocations", "@spider": "usps_collection_boxes", "addr:city": "GORE", "addr:country": "US", "addr:postcode": "74435", "addr:state": "OK", "addr:street_address": "402 N MAIN ST", "amenity": "post_box", "collection_times": "Mo-Fr 16:00", "indoor": "yes", "note": "ON 12/24 AND 12/31, THIS BOX MAY BE COLLECTED AS EARLY AS 12 NOON.", "nsi_id": "unitedstatespostalservice-a77078", "operator": "United States Postal Service", "operator:short": "USPS", "operator:type": "public", "operator:wikidata": "Q668687", "ref": "7443500003"}, "type": "Feature"}
{"geometry": {"coordinates": [-95.67498, 35.815013], "type": "Point"}, "id": "ltg8e0hB_0GAzKSkWk9pqB984q0=", "properties": {"@source_uri": "https://tools.usps.com/UspsToolsRestServices/rest/POLocator/findLocations", "@spider": "usps_collection_boxes", "addr:city": "HASKELL", "addr:country": "US", "addr:postcode": "74436", "addr:state": "OK", "addr:street_address": "525 BROADWAY", "amenity": "post_box", "collection_times": "Mo-Fr 16:15; Sa 10:30", "indoor": "yes", "note": "ON 12/24 AND 12/31, THIS BOX MAY BE COLLECTED AS EARLY AS 12 NOON.", "nsi_id": "unitedstatespostalservice-a77078", "operator": "United States Postal Service", "operator:short": "USPS", "operator:type": "public", "operator:wikidata": "Q668687", "ref": "7443600001"}, "type": "Feature"}
{"geometry": {"coordinates": [-95.67498, 35.815013], "type": "Point"}, "id": "2zJYWUamsqo78BLEWg3Z9_KomC8=", "properties": {"@source_uri": "https://tools.usps.com/UspsToolsRestServices/rest/POLocator/findLocations", "@spider": "usps_collection_boxes", "addr:city": "HASKELL", "addr:country": "US", "addr:postcode": "74436", "addr:state": "OK", "addr:street_address": "525 BROADWAY", "amenity": "post_box", "collection_times": "Mo-Fr 16:15; Sa 10:30", "indoor": "yes", "note": "ON 12/24 AND 12/31, THIS BOX MAY BE COLLECTED AS EARLY AS 12 NOON.", "nsi_id": "unitedstatespostalservice-a77078", "operator": "United States Postal Service", "operator:short": "USPS", "operator:type": "public", "operator:wikidata": "Q668687", "ref": "7443600002"}, "type": "Feature"}
{"geometry": {"coordinates": [-95.67498, 35.815013], "type": "Point"}, "id": "a-AxK4fqtf9jNEc5n0hhv51y-t8=", "properties": {"@source_uri": "https://tools.usps.com/UspsToolsRestServices/rest/POLocator/findLocations", "@spider": "usps_collection_boxes", "addr:city": "HASKELL", "addr:country": "US", "addr:postcode": "74436", "addr:state": "OK", "addr:street_address": "525 BROADWAY", "amenity": "post_box", "collection_times": "Mo-Fr 16:15; Sa 10:30", "indoor": "yes", "note": "ON 12/24 AND 12/31, THIS BOX MAY BE COLLECTED AS EARLY AS 12 NOON.", "nsi_id": "unitedstatespostalservice-a77078", "operator": "United States Postal Service", "operator:short": "USPS", "operator:type": "public", "operator:wikidata": "Q668687", "ref": "7443600003"}, "type": "Feature"}
{"geometry": {"coordinates": [-95.675007419, 35.815021255], "type": "Point"}, "id": "uwD1SJSJjUPCrHLFskt3hdyaN20=", "properties": {"@source_uri": "https://tools.usps.com/UspsToolsRestServices/rest/POLocator/findLocations", "@spider": "usps_collection_boxes", "addr:city": "HASKELL", "addr:country": "US", "addr:postcode": "74436", "addr:state": "OK", "addr:street_address": "525 S BROADWAY AVE", "amenity": "post_box", "collection_times": "Mo-Fr 16:00", "indoor": "yes", "note": "ON 12/24 AND 12/31, THIS BOX MAY BE COLLECTED AS EARLY AS 12 NOON.", "nsi_id": "unitedstatespostalservice-a77078", "operator": "United States Postal Service", "operator:short": "USPS", "operator:type": "public", "operator:wikidata": "Q668687", "ref": "7443600004"}, "type": "Feature"}
{"geometry": {"coordinates": [-95.99152, 35.441895], "type": "Point"}, "id": "7rE6BO5B6f133q0X-DKVMtXncmw=", "properties": {"@source_uri": "https://tools.usps.com/UspsToolsRestServices/rest/POLocator/findLocations", "@spider": "usps_collection_boxes", "addr:city": "HENRYETTA", "addr:country": "US", "addr:postcode": "74437", "addr:state": "OK", "addr:street_address": "201 N 5TH ST", "amenity": "post_box", "collection_times": "Mo-Fr 16:30; Sa 15:45", "note": "ON 12/24 AND 12/31, THIS BOX MAY BE COLLECTED AS EARLY AS 12 NOON.", "nsi_id": "unitedstatespostalservice-a77078", "operator": "United States Postal Service", "operator:short": "USPS", "operator:type": "public", "operator:wikidata": "Q668687", "ref": "7443700004"}, "type": "Feature"}
{"geometry": {"coordinates": [-95.987065, 35.440972], "type": "Point"}, "id": "YCV4UuFo-4nXsuDaOvu-JpMvYF0=", "properties": {"@source_uri": "https://tools.usps.com/UspsToolsRestServices/rest/POLocator/findLocations", "@spider": "usps_collection_boxes", "addr:city": "HENRYETTA", "addr:country": "US", "addr:postcode": "74437", "addr:state": "OK", "addr:street_address": "201 N 5TH ST", "amenity": "post_box", "collection_times": "Mo-Fr 16:30; Sa 15:45", "indoor": "yes", "note": "ON 12/24 AND 12/31, THIS BOX MAY BE COLLECTED AS EARLY AS 12 NOON.", "nsi_id": "unitedstatespostalservice-a77078", "operator": "United States Postal Service", "operator:short": "USPS", "operator:type": "public", "operator:wikidata": "Q668687", "ref": "7443700006"}, "type": "Feature"}
{"geometry": {"coordinates": [-95.987065, 35.440972], "type": "Point"}, "id": "3tQxs1KlcgQ0-zrlFq5z5ClTXI0=", "properties": {"@source_uri": "https://tools.usps.com/UspsToolsRestServices/rest/POLocator/findLocations", "@spider": "usps_collection_boxes", "addr:city": "HENRYETTA", "addr:country": "US", "addr:postcode": "74437", "addr:state": "OK", "addr:street_address": "201 N 5TH ST", "amenity": "post_box", "collection_times": "Mo-Fr 16:30; Sa 15:45", "indoor": "yes", "note": "ON 12/24 AND 12/31, THIS BOX MAY BE COLLECTED AS EARLY AS 12 NOON.", "nsi_id": "unitedstatespostalservice-a77078", "operator": "United States Postal Service", "operator:short": "USPS", "operator:type": "public", "operator:wikidata": "Q668687", "ref": "7443700007"}, "type": "Feature"}
{"geometry": {"coordinates": [-95.7497517, 35.50721], "type": "Point"}, "id": "pT9dNKbvQ01dWX0ytTIM9afWO_I=", "properties": {"@source_uri": "https://tools.usps.com/UspsToolsRestServices/rest/POLocator/findLocations", "@spider": "usps_collection_boxes", "addr:city": "HENRYETTA", "addr:country": "US", "addr:postcode": "74437", "addr:state": "OK", "addr:street_address": "408110 HIGHWAY 266", "amenity": "post_box", "collection_times": "Mo-Sa 11:00", "nsi_id": "unitedstatespostalservice-a77078", "operator": "United States Postal Service", "operator:short": "USPS", "operator:type": "public", "operator:wikidata": "Q668687", "ref": "7443700009"}, "type": "Feature"}
{"geometry": {"coordinates": [-95.98709292, 35.440930899], "type": "Point"}, "id": "RBYWn2sCU_RwJpkCoQoBaKC__qM=", "properties": {"@source_uri": "https://tools.usps.com/UspsToolsRestServices/rest/POLocator/findLocations", "@spider": "usps_collection_boxes", "addr:city": "HENRYETTA", "addr:country": "US", "addr:postcode": "74437", "addr:state": "OK", "addr:street_address": "201 N 5TH ST", "amenity": "post_box", "collection_times": "Mo-Fr 16:30", "indoor": "yes", "note": "ON 12/24 AND 12/31, THIS BOX MAY BE COLLECTED AS EARLY AS 12 NOON.", "nsi_id": "unitedstatespostalservice-a77078", "operator": "United States Postal Service", "operator:short": "USPS", "operator:type": "public", "operator:wikidata": "Q668687", "ref": "7443700010"}, "type": "Feature"}
{"geometry": {"coordinates": [-95.7518032892, 35.5204500361], "type": "Point"}, "id": "PSXzOoNubxr1Px7g3UT87JQm45M=", "properties": {"@source_uri": "https://tools.usps.com/UspsToolsRestServices/rest/POLocator/findLocations", "@spider": "usps_collection_boxes", "addr:city": "HITCHITA", "addr:country": "US", "addr:postcode": "74438", "addr:state": "OK", "addr:street_address": "1 BROADWAY ST", "amenity": "post_box", "collection_times": "Mo-Fr 15:00; Sa 09:45", "note": "ON 12/24 AND 12/31, THIS BOX MAY BE COLLECTED AS EARLY AS 12 NOON.", "nsi_id": "unitedstatespostalservice-a77078", "operator": "United States Postal Service", "operator:short": "USPS", "operator:type": "public", "operator:wikidata": "Q668687", "ref": "7443800000"}, "type": "Feature"}
{"geometry": {"coordinates": [-95.7518032892, 35.5204500361], "type": "Point"}, "id": "Vg2eEqn9f7mRhtFMholLWa1cHLg=", "properties": {"@source_uri": "https://tools.usps.com/UspsToolsRestServices/rest/POLocator/findLocations", "@spider": "usps_collection_boxes", "addr:city": "HITCHITA", "addr:country": "US", "addr:postcode": "74438", "addr:state": "OK", "addr:street_address": "1 BROADWAY ST", "amenity": "post_box", "collection_times": "Mo-Fr 15:00; Sa 10:30", "indoor": "yes", "note": "ON 12/24 AND 12/31, THIS BOX MAY BE COLLECTED AS EARLY AS 12 NOON.", "nsi_id": "unitedstatespostalservice-a77078", "operator": "United States Postal Service", "operator:short": "USPS", "operator:type": "public", "operator:wikidata": "Q668687", "ref": "7443800001"}, "type": "Feature"}
{"geometry": {"coordinates": [-95.7694249, 35.5144277], "type": "Point"}, "id": "7KfLsW5eXeO6BOgJSlrDfOqRCrM=", "properties": {"@source_uri": "https://tools.usps.com/UspsToolsRestServices/rest/POLocator/findLocations", "@spider": "usps_collection_boxes", "addr:city": "HITCHITA", "addr:country": "US", "addr:postcode": "74438", "addr:state": "OK", "addr:street_address": "1 BROADWAY ST", "amenity": "post_box", "collection_times": "Mo-Fr 15:15; Sa 10:30", "indoor": "yes", "note": "ON 12/24 AND 12/31, THIS BOX MAY BE COLLECTED AS EARLY AS 12 NOON.", "nsi_id": "unitedstatespostalservice-a77078", "operator": "United States Postal Service", "operator:short": "USPS", "operator:type": "public", "operator:wikidata": "Q668687", "ref": "7443800002"}, "type": "Feature"}
{"geometry": {"coordinates": [-95.13974, 35.932732], "type": "Point"}, "id": "zPHq3PT793URIQZINai_juso-_g=", "properties": {"@source_uri": "https://tools.usps.com/UspsToolsRestServices/rest/POLocator/findLocations", "@spider": "usps_collection_boxes", "addr:city": "HULBERT", "addr:country": "US", "addr:postcode": "74441", "addr:state": "OK", "addr:street_address": "402 E MAIN ST", "amenity": "post_box", "collection_times": "Mo-Fr 16:00; Sa 09:45", "note": "ON 12/24 AND 12/31, THIS BOX MAY BE COLLECTED AS EARLY AS 12 NOON.", "nsi_id": "unitedstatespostalservice-a77078", "operator": "United States Postal Service", "operator:short": "USPS", "operator:type": "public", "operator:wikidata": "Q668687", "ref": "7444100000"}, "type": "Feature"}
{"geometry": {"coordinates": [-95.13974, 35.932732], "type": "Point"}, "id": "k7BYSONHZcN4gUfjkwcJFT0kdPc=", "properties": {"@source_uri": "https://tools.usps.com/UspsToolsRestServices/rest/POLocator/findLocations", "@spider": "usps_collection_boxes", "addr:city": "HULBERT", "addr:country": "US", "addr:postcode": "74441", "addr:state": "OK", "addr:street_address": "402 E MAIN ST", "amenity": "post_box", "collection_times": "Mo-Fr 16:15; Sa 09:45", "indoor": "yes", "note": "ON 12/24 AND 12/31, THIS BOX MAY BE COLLECTED AS EARLY AS 12 NOON.", "nsi_id": "unitedstatespostalservice-a77078", "operator": "United States Postal Service", "operator:short": "USPS", "operator:type": "public", "operator:wikidata": "Q668687", "ref": "7444100001"}, "type": "Feature"}
{"geometry": {"coordinates": [-95.13974, 35.932732], "type": "Point"}, "id": "oGnY_PzzeZewWdC4pzjo4tuod3U=", "properties": {"@source_uri": "https://tools.usps.com/UspsToolsRestServices/rest/POLocator/findLocations", "@spider": "usps_collection_boxes", "addr:city": "HULBERT", "addr:country": "US", "addr:postcode": "74441", "addr:state": "OK", "addr:street_address": "402 E MAIN ST", "amenity": "post_box", "collection_times": "Mo-Fr 16:15; Sa 09:45", "indoor": "yes", "note": "ON 12/24 AND 12/31, THIS BOX MAY BE COLLECTED AS EARLY AS 12 NOON.", "nsi_id": "unitedstatespostalservice-a77078", "operator": "United States Postal Service", "operator:short": "USPS", "operator:type": "public", "operator:wikidata": "Q668687", "ref": "7444100002"}, "type": "Feature"}
{"geometry": {"coordinates": [-95.139703922, 35.932680876], "type": "Point"}, "id": "nf1W3TJrwXAqMUZlZPqTlPUfarM=", "properties": {"@source_uri": "https://tools.usps.com/UspsToolsRestServices/rest/POLocator/findLocations", "@spider": "usps_collection_boxes", "addr:city": "HULBERT", "addr:country": "US", "addr:postcode": "74441", "addr:state": "OK", "addr:street_address": "402 E MAIN ST", "amenity": "post_box", "collection_times": "Mo-Fr 16:00", "indoor": "yes", "note": "ON 12/24 AND 12/31, THIS BOX MAY BE COLLECTED AS EARLY AS 12 NOON.", "nsi_id": "unitedstatespostalservice-a77078", "operator": "United States Postal Service", "operator:short": "USPS", "operator:type": "public", "operator:wikidata": "Q668687", "ref": "7444100003"}, "type": "Feature"}
{"geometry": {"coordinates": [-95.7744299823, 35.167772739], "type": "Point"}, "id": "4MrZZO-q4vIxFkEFdCTtrs1s9RM=", "properties": {"@source_uri": "https://tools.usps.com/UspsToolsRestServices/rest/POLocator/findLocations", "@spider": "usps_collection_boxes", "addr:city": "INDIANOLA", "addr:country": "US", "addr:postcode": "74442", "addr:state": "OK", "addr:street_address": "212 MAIN ST", "amenity": "post_box", "collection_times": "Mo-Fr 11:45; Sa 10:00", "indoor": "yes", "nsi_id": "unitedstatespostalservice-a77078", "operator": "United States Postal Service", "operator:short": "USPS", "operator:type": "public", "operator:wikidata": "Q668687", "ref": "7444200001"}, "type": "Feature"}
{"geometry": {"coordinates": [-95.7744299823, 35.167772739], "type": "Point"}, "id": "W6l45admF39T_AKmTAif4vIwYS4=", "properties": {"@source_uri": "https://tools.usps.com/UspsToolsRestServices/rest/POLocator/findLocations", "@spider": "usps_collection_boxes", "addr:city": "INDIANOLA", "addr:country": "US", "addr:postcode": "74442", "addr:state": "OK", "addr:street_address": "212 MAIN ST", "amenity": "post_box", "collection_times": "Mo-Fr 12:00; Sa 10:00", "indoor": "yes", "nsi_id": "unitedstatespostalservice-a77078", "operator": "United States Postal Service", "operator:short": "USPS", "operator:type": "public", "operator:wikidata": "Q668687", "ref": "7444200002"}, "type": "Feature"}
{"geometry": {"coordinates": [-94.957725125, 36.0602645145], "type": "Point"}, "id": "i1lZk4w86PII2x84jm7wlDqnNM8=", "properties": {"@source_uri": "https://tools.usps.com/UspsToolsRestServices/rest/POLocator/findLocations", "@spider": "usps_collection_boxes", "addr:city": "MOODYS", "addr:country": "US", "addr:postcode": "74444", "addr:state": "OK", "addr:street_address": "9783 HIGHWAY 82A", "amenity": "post_box", "collection_times": "Mo-Fr 11:30; Sa 10:30", "nsi_id": "unitedstatespostalservice-a77078", "operator": "United States Postal Service", "operator:short": "USPS", "operator:type": "public", "operator:wikidata": "Q668687", "ref": "7444400000"}, "type": "Feature"}
{"geometry": {"coordinates": [-94.957887483, 36.034335], "type": "Point"}, "id": "MZDSROZkxmAAkee2OS70VtUW1_g=", "properties": {"@source_uri": "https://tools.usps.com/UspsToolsRestServices/rest/POLocator/findLocations", "@spider": "usps_collection_boxes", "addr:city": "MOODYS", "addr:country": "US", "addr:postcode": "74444", "addr:state": "OK", "addr:street_address": "9783 HIGHWAY 82A", "amenity": "post_box", "collection_times": "Mo-Fr 12:30; Sa 12:15", "indoor": "yes", "note": "ON 12/24 AND 12/31, THIS BOX MAY BE COLLECTED AS EARLY AS 12 NOON.", "nsi_id": "unitedstatespostalservice-a77078", "operator": "United States Postal Service", "operator:short": "USPS", "operator:type": "public", "operator:wikidata": "Q668687", "ref": "7444400001"}, "type": "Feature"}
{"geometry": {"coordinates": [-95.861418, 35.607396], "type": "Point"}, "id": "ypJ4PCiv6L4bQNkxWLRr_-7DTlc=", "properties": {"@source_uri": "https://tools.usps.com/UspsToolsRestServices/rest/POLocator/findLocations", "@spider": "usps_collection_boxes", "addr:city": "MORRIS", "addr:country": "US", "addr:postcode": "74445", "addr:state": "OK", "addr:street_address": "321 S 2ND ST", "amenity": "post_box", "collection_times": "Mo-Fr 16:00; Sa 10:00", "note": "ON 12/24 AND 12/31, THIS BOX MAY BE COLLECTED AS EARLY AS 12 NOON.", "nsi_id": "unitedstatespostalservice-a77078", "operator": "United States Postal Service", "operator:short": "USPS", "operator:type": "public", "operator:wikidata": "Q668687", "ref": "7444500000"}, "type": "Feature"}
{"geometry": {"coordinates": [-95.861418, 35.607396], "type": "Point"}, "id": "-1tWVJlVZK6upOWygbldFpuvlMU=", "properties": {"@source_uri": "https://tools.usps.com/UspsToolsRestServices/rest/POLocator/findLocations", "@spider": "usps_collection_boxes", "addr:city": "MORRIS", "addr:country": "US", "addr:postcode": "74445", "addr:state": "OK", "addr:street_address": "321 S 2ND ST", "amenity": "post_box", "collection_times": "Mo-Fr 16:00; Sa 10:00", "indoor": "yes", "note": "ON 12/24 AND 12/31, THIS BOX MAY BE COLLECTED AS EARLY AS 12 NOON.", "nsi_id": "unitedstatespostalservice-a77078", "operator": "United States Postal Service", "operator:short": "USPS", "operator:type": "public", "operator:wikidata": "Q668687", "ref": "7444500004"}, "type": "Feature"}
{"geometry": {"coordinates": [-95.861418, 35.607396], "type": "Point"}, "id": "jUtef9d8MNqIeHGY6Ko2aHAdba0=", "properties": {"@source_uri": "https://tools.usps.com/UspsToolsRestServices/rest/POLocator/findLocations", "@spider": "usps_collection_boxes", "addr:city": "MORRIS", "addr:country": "US", "addr:postcode": "74445", "addr:state": "OK", "addr:street_address": "321 S 2ND ST", "amenity": "post_box", "collection_times": "Mo-Fr 16:00; Sa 10:00", "indoor": "yes", "note": "ON 12/24 AND 12/31, THIS BOX MAY BE COLLECTED AS EARLY AS 12 NOON.", "nsi_id": "unitedstatespostalservice-a77078", "operator": "United States Postal Service", "operator:short": "USPS", "operator:type": "public", "operator:wikidata": "Q668687", "ref": "7444500005"}, "type": "Feature"}
{"geometry": {"coordinates": [-95.861418, 35.607396], "type": "Point"}, "id": "JpQyyCw_NNZTqKCQdGr_6wrvIaA=", "properties": {"@source_uri": "https://tools.usps.com/UspsToolsRestServices/rest/POLocator/findLocations", "@spider": "usps_collection_boxes", "addr:city": "MORRIS", "addr:country": "US", "addr:postcode": "74445", "addr:state": "OK", "addr:street_address": "321 S 2ND ST", "amenity": "post_box", "collection_times": "Mo-Fr 16:00; Sa 10:00", "indoor": "yes", "note": "ON 12/24 AND 12/31, THIS BOX MAY BE COLLECTED AS EARLY AS 12 NOON.", "nsi_id": "unitedstatespostalservice-a77078", "operator": "United States Postal Service", "operator:short": "USPS", "operator:type": "public", "operator:wikidata": "Q668687", "ref": "7444500006"}, "type": "Feature"}
{"geometry": {"coordinates": [-95.861398725, 35.607410297], "type": "Point"}, "id": "5JtD5QJ2PyyBSxTAOhKXlQFYiGU=", "properties": {"@source_uri": "https://tools.usps.com/UspsToolsRestServices/rest/POLocator/findLocations", "@spider": "usps_collection_boxes", "addr:city": "MORRIS", "addr:country": "US", "addr:postcode": "74445", "addr:state": "OK", "addr:street_address": "321 S 2ND ST", "amenity": "post_box", "collection_times": "Mo-Fr 16:00; Sa 11:30", "indoor": "yes", "note": "ON 12/24 AND 12/31, THIS BOX MAY BE COLLECTED AS EARLY AS 12 NOON.", "nsi_id": "unitedstatespostalservice-a77078", "operator": "United States Postal Service", "operator:short": "USPS", "operator:type": "public", "operator:wikidata": "Q668687", "ref": "7444500007"}, "type": "Feature"}
{"geometry": {"coordinates": [-95.316008, 35.850622], "type": "Point"}, "id": "3e9BMQS1QHPk_zvsGQ3SD7YRLkU=", "properties": {"@source_uri": "https://tools.usps.com/UspsToolsRestServices/rest/POLocator/findLocations", "@spider": "usps_collection_boxes", "addr:city": "OKAY", "addr:country": "US", "addr:postcode": "74446", "addr:state": "OK", "addr:street_address": "3620 E 75TH ST N", "amenity": "post_box", "collection_times": "Mo-Fr 15:15; Sa 09:00", "note": "ON 12/24 AND 12/31, THIS BOX MAY BE COLLECTED AS EARLY AS 12 NOON.", "nsi_id": "unitedstatespostalservice-a77078", "operator": "United States Postal Service", "operator:short": "USPS", "operator:type": "public", "operator:wikidata": "Q668687", "ref": "7444600000"}, "type": "Feature"}
{"geometry": {"coordinates": [-95.316008, 35.850622], "type": "Point"}, "id": "oJGYGIdrOlb0Nw-hNdS1I0OcjTs=", "properties": {"@source_uri": "https://tools.usps.com/UspsToolsRestServices/rest/POLocator/findLocations", "@spider": "usps_collection_boxes", "addr:city": "OKAY", "addr:country": "US", "addr:postcode": "74446", "addr:state": "OK", "addr:street_address": "3620 E 75TH ST N", "amenity": "post_box", "collection_times": "Mo-Fr 15:30; Sa 09:00", "indoor": "yes", "note": "ON 12/24 AND 12/31, THIS BOX MAY BE COLLECTED AS EARLY AS 12 NOON.", "nsi_id": "unitedstatespostalservice-a77078", "operator": "United States Postal Service", "operator:short": "USPS", "operator:type": "public", "operator:wikidata": "Q668687", "ref": "7444600001"}, "type": "Feature"}
{"geometry": {"coordinates": [-95.316008, 35.850622], "type": "Point"}, "id": "bkVqU5aVy7gKlsWMO9AfPwdzAcg=", "properties": {"@source_uri": "https://tools.usps.com/UspsToolsRestServices/rest/POLocator/findLocations", "@spider": "usps_collection_boxes", "addr:city": "OKAY", "addr:country": "US", "addr:postcode": "74446", "addr:state": "OK", "addr:street_address": "3620 E 75TH ST N", "amenity": "post_box", "collection_times": "Mo-Fr 15:30; Sa 09:00", "indoor": "yes", "note": "ON 12/24 AND 12/31, THIS BOX MAY BE COLLECTED AS EARLY AS 12 NOON.", "nsi_id": "unitedstatespostalservice-a77078", "operator": "United States Postal Service", "operator:short": "USPS", "operator:type": "public", "operator:wikidata": "Q668687", "ref": "7444600002"}, "type": "Feature"}
{"geometry": {"coordinates": [-95.321295593, 35.8506976877], "type": "Point"}, "id": "uCE8tRNOEiZ9RHZ5TSVlUlkp8nY=", "properties": {"@source_uri": "https://tools.usps.com/UspsToolsRestServices/rest/POLocator/findLocations", "@spider": "usps_collection_boxes", "addr:city": "OKAY", "addr:country": "US", "addr:postcode": "74446", "addr:state": "OK", "addr:street_address": "3620 E 75TH ST N", "amenity": "post_box", "collection_times": "Mo-Fr 15:30", "indoor": "yes", "note": "ON 12/24 AND 12/31, THIS BOX MAY BE COLLECTED AS EARLY AS 12 NOON.", "nsi_id": "unitedstatespostalservice-a77078", "operator": "United States Postal Service", "operator:short": "USPS", "operator:type": "public", "operator:wikidata": "Q668687", "ref": "7444600003"}, "type": "Feature"}
{"geometry": {"coordinates": [-95.9745042, 35.622484], "type": "Point"}, "id": "VKHlItwB6-PW7Wd5o4zoz7t132M=", "properties": {"@source_uri": "https://tools.usps.com/UspsToolsRestServices/rest/POLocator/findLocations", "@spider": "usps_collection_boxes", "addr:city": "OKMULGEE", "addr:country": "US", "addr:postcode": "74447", "addr:state": "OK", "addr:street_address": "310 W 7TH ST", "amenity": "post_box", "collection_times": "Mo-Fr 16:30; Sa 16:00", "note": "ON 12/24 AND 12/31, THIS BOX MAY BE COLLECTED AS EARLY AS 12 NOON.", "nsi_id": "unitedstatespostalservice-a77078", "operator": "United States Postal Service", "operator:short": "USPS", "operator:type": "public", "operator:wikidata": "Q668687", "ref": "7444700005"}, "type": "Feature"}
{"geometry": {"coordinates": [-95.9717095, 35.623708], "type": "Point"}, "id": "5NdbcHVpY6_pa_gltIuRcyVNlKg=", "properties": {"@source_uri": "https://tools.usps.com/UspsToolsRestServices/rest/POLocator/findLocations", "@spider": "usps_collection_boxes", "addr:city": "OKMULGEE", "addr:country": "US", "addr:postcode": "74447", "addr:state": "OK", "addr:street_address": "114 N GRAND AVE", "amenity": "post_box", "collection_times": "Mo-Fr 16:30; Sa 16:00", "note": "ON 12/24 AND 12/31, THIS BOX MAY BE COLLECTED AS EARLY AS 12 NOON.", "nsi_id": "unitedstatespostalservice-a77078", "operator": "United States Postal Service", "operator:short": "USPS", "operator:type": "public", "operator:wikidata": "Q668687", "ref": "7444700006"}, "type": "Feature"}
{"geometry": {"coordinates": [-95.9635345, 35.605431], "type": "Point"}, "id": "qght62Vs4slKIH9ly3zKGSJOhAs=", "properties": {"@source_uri": "https://tools.usps.com/UspsToolsRestServices/rest/POLocator/findLocations", "@spider": "usps_collection_boxes", "addr:city": "OKMULGEE", "addr:country": "US", "addr:postcode": "74447", "addr:state": "OK", "addr:street_address": "1800 S WOOD DR", "amenity": "post_box", "collection_times": "Mo-Sa 09:00", "nsi_id": "unitedstatespostalservice-a77078", "operator": "United States Postal Service", "operator:short": "USPS", "operator:type": "public", "operator:wikidata": "Q668687", "ref": "7444700011"}, "type": "Feature"}
{"geometry": {"coordinates": [-95.9643899, 35.620991], "type": "Point"}, "id": "ccWIIuf-ayhBjmvmouTgPEzMgL4=", "properties": {"@source_uri": "https://tools.usps.com/UspsToolsRestServices/rest/POLocator/findLocations", "@spider": "usps_collection_boxes", "addr:city": "OKMULGEE", "addr:country": "US", "addr:postcode": "74447", "addr:state": "OK", "addr:street_address": "610 E 8TH ST", "amenity": "post_box", "collection_times": "Mo-Fr 16:30; Sa 16:00", "note": "ON 12/24 AND 12/31, THIS BOX MAY BE COLLECTED AS EARLY AS 12 NOON.", "nsi_id": "unitedstatespostalservice-a77078", "operator": "United States Postal Service", "operator:short": "USPS", "operator:type": "public", "operator:wikidata": "Q668687", "ref": "7444700022"}, "type": "Feature"}
{"geometry": {"coordinates": [-95.971874, 35.624713], "type": "Point"}, "id": "3TMnZXMJ3ScVSX5zzEeuEqtEmwQ=", "properties": {"@source_uri": "https://tools.usps.com/UspsToolsRestServices/rest/POLocator/findLocations", "@spider": "usps_collection_boxes", "addr:city": "OKMULGEE", "addr:country": "US", "addr:postcode": "74447", "addr:state": "OK", "addr:street_address": "111 W 4TH ST", "amenity": "post_box", "collection_times": "Mo-Fr 16:45; Sa 16:30", "indoor": "yes", "note": "ON 12/24 AND 12/31, THIS BOX MAY BE COLLECTED AS EARLY AS 12 NOON.", "nsi_id": "unitedstatespostalservice-a77078", "operator": "United States Postal Service", "operator:short": "USPS", "operator:type": "public", "operator:wikidata": "Q668687", "ref": "7444700025"}, "type": "Feature"}
{"geometry": {"coordinates": [-95.971874, 35.624713], "type": "Point"}, "id": "BwL0FERXMrkQxbUmuKT9QxqL5TA=", "properties": {"@source_uri": "https://tools.usps.com/UspsToolsRestServices/rest/POLocator/findLocations", "@spider": "usps_collection_boxes", "addr:city": "OKMULGEE", "addr:country": "US", "addr:postcode": "74447", "addr:state": "OK", "addr:street_address": "111 W 4TH ST", "amenity": "post_box", "collection_times": "Mo-Fr 16:45; Sa 16:30", "indoor": "yes", "note": "ON 12/24 AND 12/31, THIS BOX MAY BE COLLECTED AS EARLY AS 12 NOON.", "nsi_id": "unitedstatespostalservice-a77078", "operator": "United States Postal Service", "operator:short": "USPS", "operator:type": "public", "operator:wikidata": "Q668687", "ref": "7444700026"}, "type": "Feature"}
{"geometry": {"coordinates": [-95.971874, 35.624713], "type": "Point"}, "id": "WKDwlWmV3tUQT2r5p_1L8LboCLo=", "properties": {"@source_uri": "https://tools.usps.com/UspsToolsRestServices/rest/POLocator/findLocations", "@spider": "usps_collection_boxes", "addr:city": "OKMULGEE", "addr:country": "US", "addr:postcode": "74447", "addr:state": "OK", "addr:street_address": "111 W 4TH ST", "amenity": "post_box", "collection_times": "Mo-Fr 16:45; Sa 16:30", "indoor": "yes", "note": "ON 12/24 AND 12/31, THIS BOX MAY BE COLLECTED AS EARLY AS 12 NOON.", "nsi_id": "unitedstatespostalservice-a77078", "operator": "United States Postal Service", "operator:short": "USPS", "operator:type": "public", "operator:wikidata": "Q668687", "ref": "7444700028"}, "type": "Feature"}
{"geometry": {"coordinates": [-95.9718456933, 35.6247447728], "type": "Point"}, "id": "KPAoi3z_2rexLXBptJjomJHF6CY=", "properties": {"@source_uri": "https://tools.usps.com/UspsToolsRestServices/rest/POLocator/findLocations", "@spider": "usps_collection_boxes", "addr:city": "OKMULGEE", "addr:country": "US", "addr:postcode": "74447", "addr:state": "OK", "addr:street_address": "111 W 4TH ST", "amenity": "post_box", "collection_times": "Mo-Fr 16:45; Sa 16:00", "note": "ON 12/24 AND 12/31, THIS BOX MAY BE COLLECTED AS EARLY AS 12 NOON.", "nsi_id": "unitedstatespostalservice-a77078", "operator": "United States Postal Service", "operator:short": "USPS", "operator:type": "public", "operator:wikidata": "Q668687", "ref": "7444700029"}, "type": "Feature"}
{"geometry": {"coordinates": [-95.971845693, 35.624744773], "type": "Point"}, "id": "hRVmjbzQeVqOWjlbuf9mPX6t1wA=", "properties": {"@source_uri": "https://tools.usps.com/UspsToolsRestServices/rest/POLocator/findLocations", "@spider": "usps_collection_boxes", "addr:city": "OKMULGEE", "addr:country": "US", "addr:postcode": "74447", "addr:state": "OK", "addr:street_address": "111 W 4TH ST", "amenity": "post_box", "collection_times": "Mo-Fr 16:30; Sa 12:00", "indoor": "yes", "note": "ON 12/24 AND 12/31, THIS BOX MAY BE COLLECTED AS EARLY AS 12 NOON.", "nsi_id": "unitedstatespostalservice-a77078", "operator": "United States Postal Service", "operator:short": "USPS", "operator:type": "public", "operator:wikidata": "Q668687", "ref": "7444700030"}, "type": "Feature"}
{"geometry": {"coordinates": [-95.4772869, 35.576268], "type": "Point"}, "id": "mV2OCmOnhNtCxp4TzFm-L0R_JzY=", "properties": {"@source_uri": "https://tools.usps.com/UspsToolsRestServices/rest/POLocator/findLocations", "@spider": "usps_collection_boxes", "addr:city": "OKTAHA", "addr:country": "US", "addr:postcode": "74450", "addr:state": "OK", "addr:street_address": "104 E PRAIRIE", "amenity": "post_box", "collection_times": "Mo-Fr 15:30; Sa 10:00", "note": "ON 12/24 AND 12/31, THIS BOX MAY BE COLLECTED AS EARLY AS 12 NOON.", "nsi_id": "unitedstatespostalservice-a77078", "operator": "United States Postal Service", "operator:short": "USPS", "operator:type": "public", "operator:wikidata": "Q668687", "ref": "7445000000"}, "type": "Feature"}
{"geometry": {"coordinates": [-95.477663, 35.576343], "type": "Point"}, "id": "JQZ0p9Rx-LtCnOY0yGmSxcBhrR4=", "properties": {"@source_uri": "https://tools.usps.com/UspsToolsRestServices/rest/POLocator/findLocations", "@spider": "usps_collection_boxes", "addr:city": "OKTAHA", "addr:country": "US", "addr:postcode": "74450", "addr:state": "OK", "addr:street_address": "104 E PRAIRIE", "amenity": "post_box", "collection_times": "Mo-Fr 15:00; Sa 10:00", "indoor": "yes", "note": "ON 12/24 AND 12/31, THIS BOX MAY BE COLLECTED AS EARLY AS 12 NOON.", "nsi_id": "unitedstatespostalservice-a77078", "operator": "United States Postal Service", "operator:short": "USPS", "operator:type": "public", "operator:wikidata": "Q668687", "ref": "7445000002"}, "type": "Feature"}
{"geometry": {"coordinates": [-95.477663, 35.576343], "type": "Point"}, "id": "VelZEH9B0K8teSEI0w3iI4sR3uc=", "properties": {"@source_uri": "https://tools.usps.com/UspsToolsRestServices/rest/POLocator/findLocations", "@spider": "usps_collection_boxes", "addr:city": "OKTAHA", "addr:country": "US", "addr:postcode": "74450", "addr:state": "OK", "addr:street_address": "104 E PRAIRIE", "amenity": "post_box", "collection_times": "Mo-Fr 15:00; Sa 10:00", "indoor": "yes", "note": "ON 12/24 AND 12/31, THIS BOX MAY BE COLLECTED AS EARLY AS 12 NOON.", "nsi_id": "unitedstatespostalservice-a77078", "operator": "United States Postal Service", "operator:short": "USPS", "operator:type": "public", "operator:wikidata": "Q668687", "ref": "7445000003"}, "type": "Feature"}
{"geometry": {"coordinates": [-95.477703349, 35.576299714], "type": "Point"}, "id": "rExnflwlXzskWIQbWVqayoM-Pq8=", "properties": {"@source_uri": "https://tools.usps.com/UspsToolsRestServices/rest/POLocator/findLocations", "@spider": "usps_collection_boxes", "addr:city": "OKTAHA", "addr:country": "US", "addr:postcode": "74450", "addr:state": "OK", "addr:street_address": "104 E PRAIRIE", "amenity": "post_box", "collection_times": "Mo-Fr 15:00; Sa 10:30", "indoor": "yes", "note": "ON 12/24 AND 12/31, THIS BOX MAY BE COLLECTED AS EARLY AS 12 NOON.", "nsi_id": "unitedstatespostalservice-a77078", "operator": "United States Postal Service", "operator:short": "USPS", "operator:type": "public", "operator:wikidata": "Q668687", "ref": "7445000004"}, "type": "Feature"}
{"geometry": {"coordinates": [-94.9626204, 35.793483], "type": "Point"}, "id": "Engz2-VGmO8HvTY3L1B06xLWZBQ=", "properties": {"@source_uri": "https://tools.usps.com/UspsToolsRestServices/rest/POLocator/findLocations", "@spider": "usps_collection_boxes", "addr:city": "PARK HILL", "addr:country": "US", "addr:postcode": "74451", "addr:state": "OK", "addr:street_address": "26241 HIGHWAY 82", "amenity": "post_box", "collection_times": "Mo-Fr 15:30", "note": "ON 12/24 AND 12/31, THIS BOX MAY BE COLLECTED AS EARLY AS 12 NOON.", "nsi_id": "unitedstatespostalservice-a77078", "operator": "United States Postal Service", "operator:short": "USPS", "operator:type": "public", "operator:wikidata": "Q668687", "ref": "7445100001"}, "type": "Feature"}
{"geometry": {"coordinates": [-94.9082607, 35.764406], "type": "Point"}, "id": "wjYnhcunMcGUtBIbQYzVy2Jgtz4=", "properties": {"@source_uri": "https://tools.usps.com/UspsToolsRestServices/rest/POLocator/findLocations", "@spider": "usps_collection_boxes", "addr:city": "PARK HILL", "addr:country": "US", "addr:postcode": "74451", "addr:state": "OK", "addr:street_address": "28406 HIGHWAY 82", "amenity": "post_box", "collection_times": "Mo-Fr 15:45", "note": "ON 12/24 AND 12/31, THIS BOX MAY BE COLLECTED AS EARLY AS 12 NOON.", "nsi_id": "unitedstatespostalservice-a77078", "operator": "United States Postal Service", "operator:short": "USPS", "operator:type": "public", "operator:wikidata": "Q668687", "ref": "7445100002"}, "type": "Feature"}
{"geometry": {"coordinates": [-94.958557, 35.866419], "type": "Point"}, "id": "HGPil7jLPdACizlL3gUJM4qzA7M=", "properties": {"@source_uri": "https://tools.usps.com/UspsToolsRestServices/rest/POLocator/findLocations", "@spider": "usps_collection_boxes", "addr:city": "PARK HILL", "addr:country": "US", "addr:postcode": "74451", "addr:state": "OK", "addr:street_address": "21286 S KEELER DR", "amenity": "post_box", "collection_times": "Mo-Fr 15:45; Sa 10:00", "indoor": "yes", "note": "ON 12/24 AND 12/31, THIS BOX MAY BE COLLECTED AS EARLY AS 12 NOON.", "nsi_id": "unitedstatespostalservice-a77078", "operator": "United States Postal Service", "operator:short": "USPS", "operator:type": "public", "operator:wikidata": "Q668687", "ref": "7445100003"}, "type": "Feature"}
{"geometry": {"coordinates": [-94.958557, 35.866419], "type": "Point"}, "id": "gE-fpaeyMW7MNi6rrc8Hb34lQys=", "properties": {"@source_uri": "https://tools.usps.com/UspsToolsRestServices/rest/POLocator/findLocations", "@spider": "usps_collection_boxes", "addr:city": "PARK HILL", "addr:country": "US", "addr:postcode": "74451", "addr:state": "OK", "addr:street_address": "21286 S KEELER DR", "amenity": "post_box", "collection_times": "Mo-Fr 15:45; Sa 10:00", "indoor": "yes", "note": "ON 12/24 AND 12/31, THIS BOX MAY BE COLLECTED AS EARLY AS 12 NOON.", "nsi_id": "unitedstatespostalservice-a77078", "operator": "United States Postal Service", "operator:short": "USPS", "operator:type": "public", "operator:wikidata": "Q668687", "ref": "7445100004"}, "type": "Feature"}
{"geometry": {"coordinates": [-94.958558049, 35.866413], "type": "Point"}, "id": "RVru06S8WLWlX3LpVOFCZ1-KoN8=", "properties": {"@source_uri": "https://tools.usps.com/UspsToolsRestServices/rest/POLocator/findLocations", "@spider": "usps_collection_boxes", "addr:city": "PARK HILL", "addr:country": "US", "addr:postcode": "74451", "addr:state": "OK", "addr:street_address": "21286 S KEELER DR", "amenity": "post_box", "collection_times": "Mo-Fr 15:30", "indoor": "yes", "note": "ON 12/24 AND 12/31, THIS BOX MAY BE COLLECTED AS EARLY AS 12 NOON.", "nsi_id": "unitedstatespostalservice-a77078", "operator": "United States Postal Service", "operator:short": "USPS", "operator:type": "public", "operator:wikidata": "Q668687", "ref": "7445100006"}, "type": "Feature"}
{"geometry": {"coordinates": [-95.0168212568, 36.1269206434], "type": "Point"}, "id": "ZVu1ioXCEpu0DsJo8HO5QkyXNM4=", "properties": {"@source_uri": "https://tools.usps.com/UspsToolsRestServices/rest/POLocator/findLocations", "@spider": "usps_collection_boxes", "addr:city": "PEGGS", "addr:country": "US", "addr:postcode": "74452", "addr:state": "OK", "addr:street_address": "6580 N SYLVAN ST", "amenity": "post_box", "collection_times": "Mo-Fr 14:00; Sa 12:00", "note": "ON 12/24 AND 12/31, THIS BOX MAY BE COLLECTED AS EARLY AS 12 NOON.", "nsi_id": "unitedstatespostalservice-a77078", "operator": "United States Postal Service", "operator:short": "USPS", "operator:type": "public", "operator:wikidata": "Q668687", "ref": "7445200000"}, "type": "Feature"}
{"geometry": {"coordinates": [-95.0168212568, 36.1269206434], "type": "Point"}, "id": "OqktB3irEDEVeTKLftwp_B2gHk8=", "properties": {"@source_uri": "https://tools.usps.com/UspsToolsRestServices/rest/POLocator/findLocations", "@spider": "usps_collection_boxes", "addr:city": "PEGGS", "addr:country": "US", "addr:postcode": "74452", "addr:state": "OK", "addr:street_address": "6580 N SYLVAN ST", "amenity": "post_box", "collection_times": "Mo-Fr 14:00; Sa 12:00", "indoor": "yes", "note": "ON 12/24 AND 12/31, THIS BOX MAY BE COLLECTED AS EARLY AS 12 NOON.", "nsi_id": "unitedstatespostalservice-a77078", "operator": "United States Postal Service", "operator:short": "USPS", "operator:type": "public", "operator:wikidata": "Q668687", "ref": "7445200001"}, "type": "Feature"}
{"geometry": {"coordinates": [-95.098267473, 36.081198168], "type": "Point"}, "id": "5zhqnvcm1X5FqFqc3eyLILPS264=", "properties": {"@source_uri": "https://tools.usps.com/UspsToolsRestServices/rest/POLocator/findLocations", "@spider": "usps_collection_boxes", "addr:city": "PEGGS", "addr:country": "US", "addr:postcode": "74452", "addr:state": "OK", "addr:street_address": "6580 N SYLVAN ST", "amenity": "post_box", "collection_times": "Mo-Fr 14:00; Sa 12:00", "indoor": "yes", "note": "ON 12/24 AND 12/31, THIS BOX MAY BE COLLECTED AS EARLY AS 12 NOON.", "nsi_id": "unitedstatespostalservice-a77078", "operator": "United States Postal Service", "operator:short": "USPS", "operator:type": "public", "operator:wikidata": "Q668687", "ref": "7445200003"}, "type": "Feature"}
{"geometry": {"coordinates": [-95.522482, 35.866517], "type": "Point"}, "id": "U6GHSUYcMxENbU7cbfynVkrszEU=", "properties": {"@source_uri": "https://tools.usps.com/UspsToolsRestServices/rest/POLocator/findLocations", "@spider": "usps_collection_boxes", "addr:city": "PORTER", "addr:country": "US", "addr:postcode": "74454", "addr:state": "OK", "addr:street_address": "530 S MAIN ST", "amenity": "post_box", "collection_times": "Mo-Fr 15:00; Sa 09:15", "indoor": "yes", "note": "ON 12/24 AND 12/31, THIS BOX MAY BE COLLECTED AS EARLY AS 12 NOON.", "nsi_id": "unitedstatespostalservice-a77078", "operator": "United States Postal Service", "operator:short": "USPS", "operator:type": "public", "operator:wikidata": "Q668687", "ref": "7445400001"}, "type": "Feature"}
{"geometry": {"coordinates": [-95.522482, 35.866517], "type": "Point"}, "id": "PjCXauFjvM_buVdpZfzKgJsXJ8U=", "properties": {"@source_uri": "https://tools.usps.com/UspsToolsRestServices/rest/POLocator/findLocations", "@spider": "usps_collection_boxes", "addr:city": "PORTER", "addr:country": "US", "addr:postcode": "74454", "addr:state": "OK", "addr:street_address": "530 S MAIN ST", "amenity": "post_box", "collection_times": "Mo-Fr 15:00; Sa 09:15", "indoor": "yes", "note": "ON 12/24 AND 12/31, THIS BOX MAY BE COLLECTED AS EARLY AS 12 NOON.", "nsi_id": "unitedstatespostalservice-a77078", "operator": "United States Postal Service", "operator:short": "USPS", "operator:type": "public", "operator:wikidata": "Q668687", "ref": "7445400002"}, "type": "Feature"}
{"geometry": {"coordinates": [-95.522483878, 35.865027], "type": "Point"}, "id": "uRagDLacTRNbhxadG2XNNoHRpZk=", "properties": {"@source_uri": "https://tools.usps.com/UspsToolsRestServices/rest/POLocator/findLocations", "@spider": "usps_collection_boxes", "addr:city": "PORTER", "addr:country": "US", "addr:postcode": "74454", "addr:state": "OK", "addr:street_address": "530 S MAIN ST", "amenity": "post_box", "collection_times": "Mo-Fr 15:00", "indoor": "yes", "note": "ON 12/24 AND 12/31, THIS BOX MAY BE COLLECTED AS EARLY AS 12 NOON.", "nsi_id": "unitedstatespostalservice-a77078", "operator": "United States Postal Service", "operator:short": "USPS", "operator:type": "public", "operator:wikidata": "Q668687", "ref": "7445400003"}, "type": "Feature"}
{"geometry": {"coordinates": [-95.265389, 35.358766], "type": "Point"}, "id": "1DVRmVr6hLi0yBD_75fI2NMKEMk=", "properties": {"@source_uri": "https://tools.usps.com/UspsToolsRestServices/rest/POLocator/findLocations", "@spider": "usps_collection_boxes", "addr:city": "PORUM", "addr:country": "US", "addr:postcode": "74455", "addr:state": "OK", "addr:street_address": "105 SEMINOLE ST", "amenity": "post_box", "collection_times": "Mo-Fr 15:30; Sa 10:00", "note": "ON 12/24 AND 12/31, THIS BOX MAY BE COLLECTED AS EARLY AS 12 NOON.", "nsi_id": "unitedstatespostalservice-a77078", "operator": "United States Postal Service", "operator:short": "USPS", "operator:type": "public", "operator:wikidata": "Q668687", "ref": "7445500000"}, "type": "Feature"}
{"geometry": {"coordinates": [-95.265389, 35.358766], "type": "Point"}, "id": "sxRBVsmJFXRbJ6MveO_YR_ytapI=", "properties": {"@source_uri": "https://tools.usps.com/UspsToolsRestServices/rest/POLocator/findLocations", "@spider": "usps_collection_boxes", "addr:city": "PORUM", "addr:country": "US", "addr:postcode": "74455", "addr:state": "OK", "addr:street_address": "105 SEMINOLE ST", "amenity": "post_box", "collection_times": "Mo-Fr 15:30; Sa 10:00", "indoor": "yes", "note": "ON 12/24 AND 12/31, THIS BOX MAY BE COLLECTED AS EARLY AS 12 NOON.", "nsi_id": "unitedstatespostalservice-a77078", "operator": "United States Postal Service", "operator:short": "USPS", "operator:type": "public", "operator:wikidata": "Q668687", "ref": "7445500001"}, "type": "Feature"}
{"geometry": {"coordinates": [-95.265389, 35.358766], "type": "Point"}, "id": "5GPmYXMPC0QhvRuJRFHH3vaje2c=", "properties": {"@source_uri": "https://tools.usps.com/UspsToolsRestServices/rest/POLocator/findLocations", "@spider": "usps_collection_boxes", "addr:city": "PORUM", "addr:country": "US", "addr:postcode": "74455", "addr:state": "OK", "addr:street_address": "105 SEMINOLE ST", "amenity": "post_box", "collection_times": "Mo-Fr 15:30; Sa 10:00", "indoor": "yes", "note": "ON 12/24 AND 12/31, THIS BOX MAY BE COLLECTED AS EARLY AS 12 NOON.", "nsi_id": "unitedstatespostalservice-a77078", "operator": "United States Postal Service", "operator:short": "USPS", "operator:type": "public", "operator:wikidata": "Q668687", "ref": "7445500002"}, "type": "Feature"}
{"geometry": {"coordinates": [-95.26536162, 35.358801247], "type": "Point"}, "id": "030Oil5hsdED-zXQdke0gL-ITN8=", "properties": {"@source_uri": "https://tools.usps.com/UspsToolsRestServices/rest/POLocator/findLocations", "@spider": "usps_collection_boxes", "addr:city": "PORUM", "addr:country": "US", "addr:postcode": "74455", "addr:state": "OK", "addr:street_address": "105 SEMINOLE ST", "amenity": "post_box", "collection_times": "Mo-Fr 15:30; Sa 10:00", "indoor": "yes", "note": "ON 12/24 AND 12/31, THIS BOX MAY BE COLLECTED AS EARLY AS 12 NOON.", "nsi_id": "unitedstatespostalservice-a77078", "operator": "United States Postal Service", "operator:short": "USPS", "operator:type": "public", "operator:wikidata": "Q668687", "ref": "7445500003"}, "type": "Feature"}
{"geometry": {"coordinates": [-95.9890885942, 35.7138970195], "type": "Point"}, "id": "mnBNC4TepJFq8tHaB_0HxV5BJLI=", "properties": {"@source_uri": "https://tools.usps.com/UspsToolsRestServices/rest/POLocator/findLocations", "@spider": "usps_collection_boxes", "addr:city": "PRESTON", "addr:country": "US", "addr:postcode": "74456", "addr:state": "OK", "addr:street_address": "10040 POLK AVE", "amenity": "post_box", "collection_times": "Mo-Fr 11:30; Sa 09:45", "indoor": "yes", "nsi_id": "unitedstatespostalservice-a77078", "operator": "United States Postal Service", "operator:short": "USPS", "operator:type": "public", "operator:wikidata": "Q668687", "ref": "7445600001"}, "type": "Feature"}
{"geometry": {"coordinates": [-95.99169, 35.708459819], "type": "Point"}, "id": "zYOc7Cb179HVZP7wKwn1KV2om-k=", "properties": {"@source_uri": "https://tools.usps.com/UspsToolsRestServices/rest/POLocator/findLocations", "@spider": "usps_collection_boxes", "addr:city": "PRESTON", "addr:country": "US", "addr:postcode": "74456", "addr:state": "OK", "addr:street_address": "10040 POLK AVE", "amenity": "post_box", "collection_times": "Mo-Fr 11:30; Sa 10:00", "indoor": "yes", "nsi_id": "unitedstatespostalservice-a77078", "operator": "United States Postal Service", "operator:short": "USPS", "operator:type": "public", "operator:wikidata": "Q668687", "ref": "7445600002"}, "type": "Feature"}
{"geometry": {"coordinates": [-94.7278512427, 35.9629727065], "type": "Point"}, "id": "_A0b-c1yrRNEfw48w6G3KdaGrvw=", "properties": {"@source_uri": "https://tools.usps.com/UspsToolsRestServices/rest/POLocator/findLocations", "@spider": "usps_collection_boxes", "addr:city": "PROCTOR", "addr:country": "US", "addr:postcode": "74457", "addr:state": "OK", "addr:street_address": "100 HIGHWAY 62", "amenity": "post_box", "collection_times": "Mo-Fr 15:30; Sa 13:00", "note": "ON 12/24 AND 12/31, THIS BOX MAY BE COLLECTED AS EARLY AS 12 NOON.", "nsi_id": "unitedstatespostalservice-a77078", "operator": "United States Postal Service", "operator:short": "USPS", "operator:type": "public", "operator:wikidata": "Q668687", "ref": "7445700000"}, "type": "Feature"}
{"geometry": {"coordinates": [-94.7278512427, 35.9629727065], "type": "Point"}, "id": "erGp7jQfmZ3Ebd_LvAlr4XPzUH4=", "properties": {"@source_uri": "https://tools.usps.com/UspsToolsRestServices/rest/POLocator/findLocations", "@spider": "usps_collection_boxes", "addr:city": "PROCTOR", "addr:country": "US", "addr:postcode": "74457", "addr:state": "OK", "addr:street_address": "100 HIGHWAY 62", "amenity": "post_box", "collection_times": "Mo-Fr 15:30; Sa 13:00", "indoor": "yes", "note": "ON 12/24 AND 12/31, THIS BOX MAY BE COLLECTED AS EARLY AS 12 NOON.", "nsi_id": "unitedstatespostalservice-a77078", "operator": "United States Postal Service", "operator:short": "USPS", "operator:type": "public", "operator:wikidata": "Q668687", "ref": "7445700001"}, "type": "Feature"}
{"geometry": {"coordinates": [-94.7278512427, 35.9629727065], "type": "Point"}, "id": "q2GNj0SG-GxBAi-N5bNPf5jKEfo=", "properties": {"@source_uri": "https://tools.usps.com/UspsToolsRestServices/rest/POLocator/findLocations", "@spider": "usps_collection_boxes", "addr:city": "PROCTOR", "addr:country": "US", "addr:postcode": "74457", "addr:state": "OK", "addr:street_address": "100 HIGHWAY 62", "amenity": "post_box", "collection_times": "Mo-Fr 15:30; Sa 13:00", "indoor": "yes", "note": "ON 12/24 AND 12/31, THIS BOX MAY BE COLLECTED AS EARLY AS 12 NOON.", "nsi_id": "unitedstatespostalservice-a77078", "operator": "United States Postal Service", "operator:short": "USPS", "operator:type": "public", "operator:wikidata": "Q668687", "ref": "7445700002"}, "type": "Feature"}
{"geometry": {"coordinates": [-95.958689, 35.517582], "type": "Point"}, "id": "tOI9Rm76AeEwzUcOCdF16GXOp3Y=", "properties": {"@source_uri": "https://tools.usps.com/UspsToolsRestServices/rest/POLocator/findLocations", "@spider": "usps_collection_boxes", "addr:city": "SCHULTER", "addr:country": "US", "addr:postcode": "74460", "addr:state": "OK", "addr:street_address": "13445 GINGER ST", "amenity": "post_box", "collection_times": "Mo-Fr 15:45; Sa 09:45", "note": "ON 12/24 AND 12/31, THIS BOX MAY BE COLLECTED AS EARLY AS 12 NOON.", "nsi_id": "unitedstatespostalservice-a77078", "operator": "United States Postal Service", "operator:short": "USPS", "operator:type": "public", "operator:wikidata": "Q668687", "ref": "7446000000"}, "type": "Feature"}
{"geometry": {"coordinates": [-95.956951858, 35.518091533], "type": "Point"}, "id": "arobsoh7Meqwc3kzU-cXZs_IgDc=", "properties": {"@source_uri": "https://tools.usps.com/UspsToolsRestServices/rest/POLocator/findLocations", "@spider": "usps_collection_boxes", "addr:city": "SCHULTER", "addr:country": "US", "addr:postcode": "74460", "addr:state": "OK", "addr:street_address": "13445 GINGER ST", "amenity": "post_box", "collection_times": "Mo-Fr 15:45; Sa 09:45", "indoor": "yes", "note": "ON 12/24 AND 12/31, THIS BOX MAY BE COLLECTED AS EARLY AS 12 NOON.", "nsi_id": "unitedstatespostalservice-a77078", "operator": "United States Postal Service", "operator:short": "USPS", "operator:type": "public", "operator:wikidata": "Q668687", "ref": "7446000001"}, "type": "Feature"}
{"geometry": {"coordinates": [-95.957156358, 35.51759441], "type": "Point"}, "id": "j5DKDM0TP1ToWIpP02xd8EEv2Ag=", "properties": {"@source_uri": "https://tools.usps.com/UspsToolsRestServices/rest/POLocator/findLocations", "@spider": "usps_collection_boxes", "addr:city": "SCHULTER", "addr:country": "US", "addr:postcode": "74460", "addr:state": "OK", "addr:street_address": "13445 GINGER ST", "amenity": "post_box", "collection_times": "Mo-Fr 16:00; Sa 10:30", "indoor": "yes", "note": "ON 12/24 AND 12/31, THIS BOX MAY BE COLLECTED AS EARLY AS 12 NOON.", "nsi_id": "unitedstatespostalservice-a77078", "operator": "United States Postal Service", "operator:short": "USPS", "operator:type": "public", "operator:wikidata": "Q668687", "ref": "7446000002"}, "type": "Feature"}
{"geometry": {"coordinates": [-95.125705, 35.258745], "type": "Point"}, "id": "YIlq8vo3kV8k6Xwp07xrIfWFU5M=", "properties": {"@source_uri": "https://tools.usps.com/UspsToolsRestServices/rest/POLocator/findLocations", "@spider": "usps_collection_boxes", "addr:city": "STIGLER", "addr:country": "US", "addr:postcode": "74462", "addr:state": "OK", "addr:street_address": "120 E A ST", "amenity": "post_box", "collection_times": "Mo-Fr 16:00; Sa 11:30", "note": "ON 12/24 AND 12/31, THIS BOX MAY BE COLLECTED AS EARLY AS 12 NOON.", "nsi_id": "unitedstatespostalservice-a77078", "operator": "United States Postal Service", "operator:short": "USPS", "operator:type": "public", "operator:wikidata": "Q668687", "ref": "7446200000"}, "type": "Feature"}
{"geometry": {"coordinates": [-95.125281, 35.254967], "type": "Point"}, "id": "d76qhGrHJHrEm7SltrPgF90uVGY=", "properties": {"@source_uri": "https://tools.usps.com/UspsToolsRestServices/rest/POLocator/findLocations", "@spider": "usps_collection_boxes", "addr:city": "STIGLER", "addr:country": "US", "addr:postcode": "74462", "addr:state": "OK", "addr:street_address": "120 N BROADWAY ST", "amenity": "post_box", "collection_times": "Mo-Fr 16:00; Sa 11:30", "indoor": "yes", "note": "ON 12/24 AND 12/31, THIS BOX MAY BE COLLECTED AS EARLY AS 12 NOON.", "nsi_id": "unitedstatespostalservice-a77078", "operator": "United States Postal Service", "operator:short": "USPS", "operator:type": "public", "operator:wikidata": "Q668687", "ref": "7446200001"}, "type": "Feature"}
{"geometry": {"coordinates": [-95.125280493, 35.25496132], "type": "Point"}, "id": "m5c6KKfuNDYExh7_7oop1TSCSjA=", "properties": {"@source_uri": "https://tools.usps.com/UspsToolsRestServices/rest/POLocator/findLocations", "@spider": "usps_collection_boxes", "addr:city": "STIGLER", "addr:country": "US", "addr:postcode": "74462", "addr:state": "OK", "addr:street_address": "120 N BROADWAY ST", "amenity": "post_box", "collection_times": "Mo-Fr 16:00; Sa 11:30", "indoor": "yes", "note": "ON 12/24 AND 12/31, THIS BOX MAY BE COLLECTED AS EARLY AS 12 NOON.", "nsi_id": "unitedstatespostalservice-a77078", "operator": "United States Postal Service", "operator:short": "USPS", "operator:type": "public", "operator:wikidata": "Q668687", "ref": "7446200002"}, "type": "Feature"}
{"geometry": {"coordinates": [-95.547529, 35.76075], "type": "Point"}, "id": "u15FajwuEKRnBNKQLnjYJYLURTI=", "properties": {"@source_uri": "https://tools.usps.com/UspsToolsRestServices/rest/POLocator/findLocations", "@spider": "usps_collection_boxes", "addr:city": "TAFT", "addr:country": "US", "addr:postcode": "74463", "addr:state": "OK", "addr:street_address": "106 W CHEROKEE ST", "amenity": "post_box", "collection_times": "Mo-Fr 15:15; Sa 09:45", "note": "ON 12/24 AND 12/31, THIS BOX MAY BE COLLECTED AS EARLY AS 12 NOON.", "nsi_id": "unitedstatespostalservice-a77078", "operator": "United States Postal Service", "operator:short": "USPS", "operator:type": "public", "operator:wikidata": "Q668687", "ref": "7446300000"}, "type": "Feature"}
{"geometry": {"coordinates": [-95.547529, 35.76075], "type": "Point"}, "id": "T4U7kDYrO8wLX8JCaEkSD06zXb4=", "properties": {"@source_uri": "https://tools.usps.com/UspsToolsRestServices/rest/POLocator/findLocations", "@spider": "usps_collection_boxes", "addr:city": "TAFT", "addr:country": "US", "addr:postcode": "74463", "addr:state": "OK", "addr:street_address": "106 W CHEROKEE ST", "amenity": "post_box", "collection_times": "Mo-Fr 15:15; Sa 09:45", "indoor": "yes", "note": "ON 12/24 AND 12/31, THIS BOX MAY BE COLLECTED AS EARLY AS 12 NOON.", "nsi_id": "unitedstatespostalservice-a77078", "operator": "United States Postal Service", "operator:short": "USPS", "operator:type": "public", "operator:wikidata": "Q668687", "ref": "7446300001"}, "type": "Feature"}
{"geometry": {"coordinates": [-95.547506056, 35.760791049], "type": "Point"}, "id": "OK70GPFZOw6IFqs1yraEh3_Tz9k=", "properties": {"@source_uri": "https://tools.usps.com/UspsToolsRestServices/rest/POLocator/findLocations", "@spider": "usps_collection_boxes", "addr:city": "TAFT", "addr:country": "US", "addr:postcode": "74463", "addr:state": "OK", "addr:street_address": "106 W CHEROKEE ST", "amenity": "post_box", "collection_times": "Mo-Fr 15:30", "indoor": "yes", "note": "ON 12/24 AND 12/31, THIS BOX MAY BE COLLECTED AS EARLY AS 12 NOON.", "nsi_id": "unitedstatespostalservice-a77078", "operator": "United States Postal Service", "operator:short": "USPS", "operator:type": "public", "operator:wikidata": "Q668687", "ref": "7446300002"}, "type": "Feature"}
{"geometry": {"coordinates": [-94.974436, 35.90218], "type": "Point"}, "id": "hi94EO1Msn8d8zunhcPTz-zIoCo=", "properties": {"@source_uri": "https://tools.usps.com/UspsToolsRestServices/rest/POLocator/findLocations", "@spider": "usps_collection_boxes", "addr:city": "TAHLEQUAH", "addr:country": "US", "addr:postcode": "74464", "addr:state": "OK", "addr:street_address": "1101 S MUSKOGEE AVE", "amenity": "post_box", "collection_times": "Mo-Fr 16:45; Sa 16:00", "note": "ON 12/24 AND 12/31, THIS BOX MAY BE COLLECTED AS EARLY AS 12 NOON.", "nsi_id": "unitedstatespostalservice-a77078", "operator": "United States Postal Service", "operator:short": "USPS", "operator:type": "public", "operator:wikidata": "Q668687", "ref": "7446400000"}, "type": "Feature"}
{"geometry": {"coordinates": [-94.9755029, 35.902331], "type": "Point"}, "id": "7RV8dc95-EEPCkOG7JruKTOpR60=", "properties": {"@source_uri": "https://tools.usps.com/UspsToolsRestServices/rest/POLocator/findLocations", "@spider": "usps_collection_boxes", "addr:city": "TAHLEQUAH", "addr:country": "US", "addr:postcode": "74464", "addr:state": "OK", "addr:street_address": "1001 S COLLEGE AVE", "amenity": "post_box", "collection_times": "Mo-Fr 15:30; Sa 15:00", "note": "ON 12/24 AND 12/31, THIS BOX MAY BE COLLECTED AS EARLY AS 12 NOON.", "nsi_id": "unitedstatespostalservice-a77078", "operator": "United States Postal Service", "operator:short": "USPS", "operator:type": "public", "operator:wikidata": "Q668687", "ref": "7446400002"}, "type": "Feature"}
{"geometry": {"coordinates": [-94.9736268, 35.914101], "type": "Point"}, "id": "QS1kTs6wFWbhfCW7TlMlBfA7VuQ=", "properties": {"@source_uri": "https://tools.usps.com/UspsToolsRestServices/rest/POLocator/findLocations", "@spider": "usps_collection_boxes", "addr:city": "TAHLEQUAH", "addr:country": "US", "addr:postcode": "74464", "addr:state": "OK", "addr:street_address": "213 W DELAWARE ST", "amenity": "post_box", "collection_times": "Mo-Fr 15:30; Sa 15:00", "note": "ON 12/24 AND 12/31, THIS BOX MAY BE COLLECTED AS EARLY AS 12 NOON.", "nsi_id": "unitedstatespostalservice-a77078", "operator": "United States Postal Service", "operator:short": "USPS", "operator:type": "public", "operator:wikidata": "Q668687", "ref": "7446400010"}, "type": "Feature"}
{"geometry": {"coordinates": [-94.974436, 35.90218], "type": "Point"}, "id": "ufj0PZ0xvttYJIjV2iSfSgtWQGU=", "properties": {"@source_uri": "https://tools.usps.com/UspsToolsRestServices/rest/POLocator/findLocations", "@spider": "usps_collection_boxes", "addr:city": "TAHLEQUAH", "addr:country": "US", "addr:postcode": "74464", "addr:state": "OK", "addr:street_address": "1101 S MUSKOGEE AVE", "amenity": "post_box", "collection_times": "Mo-Fr 16:45; Sa 16:00", "indoor": "yes", "note": "ON 12/24 AND 12/31, THIS BOX MAY BE COLLECTED AS EARLY AS 12 NOON.", "nsi_id": "unitedstatespostalservice-a77078", "operator": "United States Postal Service", "operator:short": "USPS", "operator:type": "public", "operator:wikidata": "Q668687", "ref": "7446400022"}, "type": "Feature"}
{"geometry": {"coordinates": [-94.974436, 35.90218], "type": "Point"}, "id": "9c2fY_3OHZBonopqOgqNQVu7Ffk=", "properties": {"@source_uri": "https://tools.usps.com/UspsToolsRestServices/rest/POLocator/findLocations", "@spider": "usps_collection_boxes", "addr:city": "TAHLEQUAH", "addr:country": "US", "addr:postcode": "74464", "addr:state": "OK", "addr:street_address": "1101 S MUSKOGEE AVE", "amenity": "post_box", "collection_times": "Mo-Fr 16:45; Sa 16:00", "indoor": "yes", "note": "ON 12/24 AND 12/31, THIS BOX MAY BE COLLECTED AS EARLY AS 12 NOON.", "nsi_id": "unitedstatespostalservice-a77078", "operator": "United States Postal Service", "operator:short": "USPS", "operator:type": "public", "operator:wikidata": "Q668687", "ref": "7446400023"}, "type": "Feature"}
{"geometry": {"coordinates": [-94.971154, 35.913055], "type": "Point"}, "id": "zQieOFHerxAiY3Fc_HwOIpucgXY=", "properties": {"@source_uri": "https://tools.usps.com/UspsToolsRestServices/rest/POLocator/findLocations", "@spider": "usps_collection_boxes", "addr:city": "TAHLEQUAH", "addr:country": "US", "addr:postcode": "74464", "addr:state": "OK", "addr:street_address": "100 S MUSKOGEE AVE", "amenity": "post_box", "collection_times": "Mo-Fr 15:30; Sa 15:00", "note": "ON 12/24 AND 12/31, THIS BOX MAY BE COLLECTED AS EARLY AS 12 NOON.", "nsi_id": "unitedstatespostalservice-a77078", "operator": "United States Postal Service", "operator:short": "USPS", "operator:type": "public", "operator:wikidata": "Q668687", "ref": "7446400024"}, "type": "Feature"}
{"geometry": {"coordinates": [-94.974419171, 35.902201505], "type": "Point"}, "id": "zO9vQxINypFkhY0MJj7375gYyJI=", "properties": {"@source_uri": "https://tools.usps.com/UspsToolsRestServices/rest/POLocator/findLocations", "@spider": "usps_collection_boxes", "addr:city": "TAHLEQUAH", "addr:country": "US", "addr:postcode": "74464", "addr:state": "OK", "addr:street_address": "1101 S MUSKOGEE AVE", "amenity": "post_box", "collection_times": "Mo-Fr 16:30; Sa 12:00", "indoor": "yes", "note": "ON 12/24 AND 12/31, THIS BOX MAY BE COLLECTED AS EARLY AS 12 NOON.", "nsi_id": "unitedstatespostalservice-a77078", "operator": "United States Postal Service", "operator:short": "USPS", "operator:type": "public", "operator:wikidata": "Q668687", "ref": "7446400025"}, "type": "Feature"}
{"geometry": {"coordinates": [-95.375217, 35.958438], "type": "Point"}, "id": "xfl2FMtkVgM4MVV3Wq2UHvTwzxQ=", "properties": {"@source_uri": "https://tools.usps.com/UspsToolsRestServices/rest/POLocator/findLocations", "@spider": "usps_collection_boxes", "addr:city": "WAGONER", "addr:country": "US", "addr:postcode": "74467", "addr:state": "OK", "addr:street_address": "233 E CHURCH ST", "amenity": "post_box", "collection_times": "Mo-Fr 16:30; Sa 15:00", "note": "ON 12/24 AND 12/31, THIS BOX MAY BE COLLECTED AS EARLY AS 12 NOON.", "nsi_id": "unitedstatespostalservice-a77078", "operator": "United States Postal Service", "operator:short": "USPS", "operator:type": "public", "operator:wikidata": "Q668687", "ref": "7446700000"}, "type": "Feature"}
{"geometry": {"coordinates": [-95.375217, 35.958438], "type": "Point"}, "id": "UR2AB9L1bq_j8g1C7Q3VYdiGwTA=", "properties": {"@source_uri": "https://tools.usps.com/UspsToolsRestServices/rest/POLocator/findLocations", "@spider": "usps_collection_boxes", "addr:city": "WAGONER", "addr:country": "US", "addr:postcode": "74467", "addr:state": "OK", "addr:street_address": "233 E CHURCH ST", "amenity": "post_box", "collection_times": "Mo-Fr 16:30; Sa 15:00", "indoor": "yes", "note": "ON 12/24 AND 12/31, THIS BOX MAY BE COLLECTED AS EARLY AS 12 NOON.", "nsi_id": "unitedstatespostalservice-a77078", "operator": "United States Postal Service", "operator:short": "USPS", "operator:type": "public", "operator:wikidata": "Q668687", "ref": "7446700003"}, "type": "Feature"}
{"geometry": {"coordinates": [-95.375217, 35.958438], "type": "Point"}, "id": "dwCi8dsFa4Lz_nkIMqjtypVe_wk=", "properties": {"@source_uri": "https://tools.usps.com/UspsToolsRestServices/rest/POLocator/findLocations", "@spider": "usps_collection_boxes", "addr:city": "WAGONER", "addr:country": "US", "addr:postcode": "74467", "addr:state": "OK", "addr:street_address": "233 E CHURCH ST", "amenity": "post_box", "collection_times": "Mo-Fr 16:30; Sa 15:00", "indoor": "yes", "note": "ON 12/24 AND 12/31, THIS BOX MAY BE COLLECTED AS EARLY AS 12 NOON.", "nsi_id": "unitedstatespostalservice-a77078", "operator": "United States Postal Service", "operator:short": "USPS", "operator:type": "public", "operator:wikidata": "Q668687", "ref": "7446700004"}, "type": "Feature"}
{"geometry": {"coordinates": [-95.375217, 35.958438], "type": "Point"}, "id": "mOQYkdUNicLbNPuIIW1_mFJtudA=", "properties": {"@source_uri": "https://tools.usps.com/UspsToolsRestServices/rest/POLocator/findLocations", "@spider": "usps_collection_boxes", "addr:city": "WAGONER", "addr:country": "US", "addr:postcode": "74467", "addr:state": "OK", "addr:street_address": "233 E CHURCH ST", "amenity": "post_box", "collection_times": "Mo-Fr 16:30; Sa 15:00", "indoor": "yes", "note": "ON 12/24 AND 12/31, THIS BOX MAY BE COLLECTED AS EARLY AS 12 NOON.", "nsi_id": "unitedstatespostalservice-a77078", "operator": "United States Postal Service", "operator:short": "USPS", "operator:type": "public", "operator:wikidata": "Q668687", "ref": "7446700005"}, "type": "Feature"}
{"geometry": {"coordinates": [-95.375217, 35.958438], "type": "Point"}, "id": "ujhrtQsv3wYkiELhoJYvqPbE45A=", "properties": {"@source_uri": "https://tools.usps.com/UspsToolsRestServices/rest/POLocator/findLocations", "@spider": "usps_collection_boxes", "addr:city": "WAGONER", "addr:country": "US", "addr:postcode": "74467", "addr:state": "OK", "addr:street_address": "233 E CHURCH ST", "amenity": "post_box", "collection_times": "Mo-Fr 16:30; Sa 15:00", "indoor": "yes", "note": "ON 12/24 AND 12/31, THIS BOX MAY BE COLLECTED AS EARLY AS 12 NOON.", "nsi_id": "unitedstatespostalservice-a77078", "operator": "United States Postal Service", "operator:short": "USPS", "operator:type": "public", "operator:wikidata": "Q668687", "ref": "7446700006"}, "type": "Feature"}
{"geometry": {"coordinates": [-95.375216546, 35.958399253], "type": "Point"}, "id": "9k7l55rF3kVdMTV7uDewhZhRDpw=", "properties": {"@source_uri": "https://tools.usps.com/UspsToolsRestServices/rest/POLocator/findLocations", "@spider": "usps_collection_boxes", "addr:city": "WAGONER", "addr:country": "US", "addr:postcode": "74467", "addr:state": "OK", "addr:street_address": "233 E CHURCH ST", "amenity": "post_box", "collection_times": "Mo-Fr 16:15; Sa 11:00", "indoor": "yes", "note": "ON 12/24 AND 12/31, THIS BOX MAY BE COLLECTED AS EARLY AS 12 NOON.", "nsi_id": "unitedstatespostalservice-a77078", "operator": "United States Postal Service", "operator:short": "USPS", "operator:type": "public", "operator:wikidata": "Q668687", "ref": "7446700007"}, "type": "Feature"}
{"geometry": {"coordinates": [-95.307698, 35.48754], "type": "Point"}, "id": "MhWdQLSyP6ALAD5M8OP6LcvWpC8=", "properties": {"@source_uri": "https://tools.usps.com/UspsToolsRestServices/rest/POLocator/findLocations", "@spider": "usps_collection_boxes", "addr:city": "WARNER", "addr:country": "US", "addr:postcode": "74469", "addr:state": "OK", "addr:street_address": "805 2ND AVE", "amenity": "post_box", "collection_times": "Mo-Fr 16:00; Sa 09:30", "note": "ON 12/24 AND 12/31, THIS BOX MAY BE COLLECTED AS EARLY AS 12 NOON.", "nsi_id": "unitedstatespostalservice-a77078", "operator": "United States Postal Service", "operator:short": "USPS", "operator:type": "public", "operator:wikidata": "Q668687", "ref": "7446900000"}, "type": "Feature"}
{"geometry": {"coordinates": [-95.307652, 35.493687], "type": "Point"}, "id": "2_PQM7buQDqFwnjwi6dAWdxGzp8=", "properties": {"@source_uri": "https://tools.usps.com/UspsToolsRestServices/rest/POLocator/findLocations", "@spider": "usps_collection_boxes", "addr:city": "WARNER", "addr:country": "US", "addr:postcode": "74469", "addr:state": "OK", "addr:street_address": "805 2ND AVE", "amenity": "post_box", "collection_times": "Mo-Fr 16:00; Sa 09:30", "indoor": "yes", "note": "ON 12/24 AND 12/31, THIS BOX MAY BE COLLECTED AS EARLY AS 12 NOON.", "nsi_id": "unitedstatespostalservice-a77078", "operator": "United States Postal Service", "operator:short": "USPS", "operator:type": "public", "operator:wikidata": "Q668687", "ref": "7446900001"}, "type": "Feature"}
{"geometry": {"coordinates": [-95.307652, 35.493687], "type": "Point"}, "id": "trTk04cwbad6pIkRwtTwdeXxRU4=", "properties": {"@source_uri": "https://tools.usps.com/UspsToolsRestServices/rest/POLocator/findLocations", "@spider": "usps_collection_boxes", "addr:city": "WARNER", "addr:country": "US", "addr:postcode": "74469", "addr:state": "OK", "addr:street_address": "805 2ND AVE", "amenity": "post_box", "collection_times": "Mo-Fr 16:00; Sa 09:30", "indoor": "yes", "note": "ON 12/24 AND 12/31, THIS BOX MAY BE COLLECTED AS EARLY AS 12 NOON.", "nsi_id": "unitedstatespostalservice-a77078", "operator": "United States Postal Service", "operator:short": "USPS", "operator:type": "public", "operator:wikidata": "Q668687", "ref": "7446900002"}, "type": "Feature"}
{"geometry": {"coordinates": [-95.307631601, 35.493645089], "type": "Point"}, "id": "qlzbUYyENgC-qp8wfliYxKm7G2U=", "properties": {"@source_uri": "https://tools.usps.com/UspsToolsRestServices/rest/POLocator/findLocations", "@spider": "usps_collection_boxes", "addr:city": "WARNER", "addr:country": "US", "addr:postcode": "74469", "addr:state": "OK", "addr:street_address": "805 2ND AVE", "amenity": "post_box", "collection_times": "Mo-Fr 16:15", "indoor": "yes", "note": "ON 12/24 AND 12/31, THIS BOX MAY BE COLLECTED AS EARLY AS 12 NOON.", "nsi_id": "unitedstatespostalservice-a77078", "operator": "United States Postal Service", "operator:short": "USPS", "operator:type": "public", "operator:wikidata": "Q668687", "ref": "7446900003"}, "type": "Feature"}
{"geometry": {"coordinates": [-95.1292060205, 35.5114333165], "type": "Point"}, "id": "o-t-IniacBF_R7LdzX8HznwDkJw=", "properties": {"@source_uri": "https://tools.usps.com/UspsToolsRestServices/rest/POLocator/findLocations", "@spider": "usps_collection_boxes", "addr:city": "WEBBERS FALLS", "addr:country": "US", "addr:postcode": "74470", "addr:state": "OK", "addr:street_address": "116 W COMMERCIAL ST", "amenity": "post_box", "collection_times": "Mo-Fr 13:45; Sa 09:30", "indoor": "yes", "note": "ON 12/24 AND 12/31, THIS BOX MAY BE COLLECTED AS EARLY AS 12 NOON.", "nsi_id": "unitedstatespostalservice-a77078", "operator": "United States Postal Service", "operator:short": "USPS", "operator:type": "public", "operator:wikidata": "Q668687", "ref": "7447000004"}, "type": "Feature"}
{"geometry": {"coordinates": [-94.898883, 35.873742], "type": "Point"}, "id": "ZVL672rulIg3Q9KjSAfgLmpl30M=", "properties": {"@source_uri": "https://tools.usps.com/UspsToolsRestServices/rest/POLocator/findLocations", "@spider": "usps_collection_boxes", "addr:city": "WELLING", "addr:country": "US", "addr:postcode": "74471", "addr:state": "OK", "addr:street_address": "20627 S WELLING RD", "amenity": "post_box", "collection_times": "Mo-Fr 15:30; Sa 12:00", "note": "ON 12/24 AND 12/31, THIS BOX MAY BE COLLECTED AS EARLY AS 12 NOON.", "nsi_id": "unitedstatespostalservice-a77078", "operator": "United States Postal Service", "operator:short": "USPS", "operator:type": "public", "operator:wikidata": "Q668687", "ref": "7447100000"}, "type": "Feature"}
{"geometry": {"coordinates": [-94.898883, 35.873742], "type": "Point"}, "id": "rwreo6t8ckAVrAQRXIGjyPkMtNI=", "properties": {"@source_uri": "https://tools.usps.com/UspsToolsRestServices/rest/POLocator/findLocations", "@spider": "usps_collection_boxes", "addr:city": "WELLING", "addr:country": "US", "addr:postcode": "74471", "addr:state": "OK", "addr:street_address": "20627 S WELLING RD", "amenity": "post_box", "collection_times": "Mo-Fr 15:30; Sa 12:00", "indoor": "yes", "note": "ON 12/24 AND 12/31, THIS BOX MAY BE COLLECTED AS EARLY AS 12 NOON.", "nsi_id": "unitedstatespostalservice-a77078", "operator": "United States Postal Service", "operator:short": "USPS", "operator:type": "public", "operator:wikidata": "Q668687", "ref": "7447100001"}, "type": "Feature"}
{"geometry": {"coordinates": [-94.8988833, 35.873733541], "type": "Point"}, "id": "YYIWMeV2qLz4_C9dwuaX66Vz6QM=", "properties": {"@source_uri": "https://tools.usps.com/UspsToolsRestServices/rest/POLocator/findLocations", "@spider": "usps_collection_boxes", "addr:city": "WELLING", "addr:country": "US", "addr:postcode": "74471", "addr:state": "OK", "addr:street_address": "20627 S WELLING RD", "amenity": "post_box", "collection_times": "Mo-Fr 15:30; Sa 12:00", "indoor": "yes", "note": "ON 12/24 AND 12/31, THIS BOX MAY BE COLLECTED AS EARLY AS 12 NOON.", "nsi_id": "unitedstatespostalservice-a77078", "operator": "United States Postal Service", "operator:short": "USPS", "operator:type": "public", "operator:wikidata": "Q668687", "ref": "7447100002"}, "type": "Feature"}
{"geometry": {"coordinates": [-95.2372247189, 35.2535116406], "type": "Point"}, "id": "LK_I2K3yljzTTPGAqPJWOJI-D6E=", "properties": {"@source_uri": "https://tools.usps.com/UspsToolsRestServices/rest/POLocator/findLocations", "@spider": "usps_collection_boxes", "addr:city": "WHITEFIELD", "addr:country": "US", "addr:postcode": "74472", "addr:state": "OK", "addr:street_address": "201 N MAIN ST", "amenity": "post_box", "collection_times": "Mo-Fr 16:15; Sa 13:30", "note": "ON 12/24 AND 12/31, THIS BOX MAY BE COLLECTED AS EARLY AS 12 NOON.", "nsi_id": "unitedstatespostalservice-a77078", "operator": "United States Postal Service", "operator:short": "USPS", "operator:type": "public", "operator:wikidata": "Q668687", "ref": "7447200000"}, "type": "Feature"}
{"geometry": {"coordinates": [-95.237127, 35.253542], "type": "Point"}, "id": "3AKO4GnEakKOYmEMeex530j_qYY=", "properties": {"@source_uri": "https://tools.usps.com/UspsToolsRestServices/rest/POLocator/findLocations", "@spider": "usps_collection_boxes", "addr:city": "WHITEFIELD", "addr:country": "US", "addr:postcode": "74472", "addr:state": "OK", "addr:street_address": "201 N MAIN ST", "amenity": "post_box", "collection_times": "Mo-Fr 16:15; Sa 13:30", "indoor": "yes", "note": "ON 12/24 AND 12/31, THIS BOX MAY BE COLLECTED AS EARLY AS 12 NOON.", "nsi_id": "unitedstatespostalservice-a77078", "operator": "United States Postal Service", "operator:short": "USPS", "operator:type": "public", "operator:wikidata": "Q668687", "ref": "7447200001"}, "type": "Feature"}
{"geometry": {"coordinates": [-95.237224837, 35.253511778], "type": "Point"}, "id": "QDwjMhxjw0g-dqu85SUolHM41pE=", "properties": {"@source_uri": "https://tools.usps.com/UspsToolsRestServices/rest/POLocator/findLocations", "@spider": "usps_collection_boxes", "addr:city": "WHITEFIELD", "addr:country": "US", "addr:postcode": "74472", "addr:state": "OK", "addr:street_address": "201 N MAIN ST", "amenity": "post_box", "collection_times": "Mo-Fr 16:15; Sa 13:30", "indoor": "yes", "note": "ON 12/24 AND 12/31, THIS BOX MAY BE COLLECTED AS EARLY AS 12 NOON.", "nsi_id": "unitedstatespostalservice-a77078", "operator": "United States Postal Service", "operator:short": "USPS", "operator:type": "public", "operator:wikidata": "Q668687", "ref": "7447200003"}, "type": "Feature"}
