{"geometry": {"coordinates": [-95.7669077226, 34.931595496], "type": "Point"}, "id": "wHz-JozXD1K6ZvfGVFjlA_RYecU=", "properties": {"@source_uri": "https://tools.usps.com/UspsToolsRestServices/rest/POLocator/findLocations", "@spider": "usps_collection_boxes", "addr:city": "MCALESTER", "addr:country": "US", "addr:postcode": "74501", "addr:state": "OK", "addr:street_address": "235 E CHOCTAW AVE", "amenity": "post_box", "collection_times": "Mo-Fr 12:00", "nsi_id": "unitedstatespostalservice-a77078", "operator": "United States Postal Service", "operator:short": "USPS", "operator:type": "public", "operator:wikidata": "Q668687", "ref": "7450100015"}, "type": "Feature"}
{"geometry": {"coordinates": [-95.7680806, 34.933102], "type": "Point"}, "id": "Bx7PpTeGxGnnVsRX4p0iP8rcq3Y=", "properties": {"@source_uri": "https://tools.usps.com/UspsToolsRestServices/rest/POLocator/findLocations", "@spider": "usps_collection_boxes", "addr:city": "MCALESTER", "addr:country": "US", "addr:postcode": "74501", "addr:state": "OK", "addr:street_address": "101 E CARL ALBERT PKWY", "amenity": "post_box", "collection_times": "Mo-Fr 12:00", "nsi_id": "unitedstatespostalservice-a77078", "operator": "United States Postal Service", "operator:short": "USPS", "operator:type": "public", "operator:wikidata": "Q668687", "ref": "7450100018"}, "type": "Feature"}
{"geometry": {"coordinates": [-95.7681438, 34.93412], "type": "Point"}, "id": "Bj2qumtxy9KFDjTGstmimM8FHVU=", "properties": {"@source_uri": "https://tools.usps.com/UspsToolsRestServices/rest/POLocator/findLocations", "@spider": "usps_collection_boxes", "addr:city": "MCALESTER", "addr:country": "US", "addr:postcode": "74501", "addr:state": "OK", "addr:street_address": "28 E WASHINGTON AVE", "amenity": "post_box", "collection_times": "Mo-Fr 12:00", "nsi_id": "unitedstatespostalservice-a77078", "operator": "United States Postal Service", "operator:short": "USPS", "operator:type": "public", "operator:wikidata": "Q668687", "ref": "7450100020"}, "type": "Feature"}
{"geometry": {"coordinates": [-95.7447306, 34.92685], "type": "Point"}, "id": "LZitaPR_xhsN0dBqjAxy3gHYrI4=", "properties": {"@source_uri": "https://tools.usps.com/UspsToolsRestServices/rest/POLocator/findLocations", "@spider": "usps_collection_boxes", "addr:city": "MCALESTER", "addr:country": "US", "addr:postcode": "74501", "addr:state": "OK", "addr:street_address": "1706 E CARL ALBERT PKWY", "amenity": "post_box", "collection_times": "Mo-Fr 10:30", "nsi_id": "unitedstatespostalservice-a77078", "operator": "United States Postal Service", "operator:short": "USPS", "operator:type": "public", "operator:wikidata": "Q668687", "ref": "7450100021"}, "type": "Feature"}
{"geometry": {"coordinates": [-95.7616516, 34.932414], "type": "Point"}, "id": "RnKwliWGS1n70zUjq0s-7O49Ncc=", "properties": {"@source_uri": "https://tools.usps.com/UspsToolsRestServices/rest/POLocator/findLocations", "@spider": "usps_collection_boxes", "addr:city": "MCALESTER", "addr:country": "US", "addr:postcode": "74501", "addr:state": "OK", "addr:street_address": "500 E WASHINGTON AVE", "amenity": "post_box", "collection_times": "Mo-Sa 17:00", "note": "ON 12/24 AND 12/31, THIS BOX MAY BE COLLECTED AS EARLY AS 12 NOON.", "nsi_id": "unitedstatespostalservice-a77078", "operator": "United States Postal Service", "operator:short": "USPS", "operator:type": "public", "operator:wikidata": "Q668687", "ref": "7450100027"}, "type": "Feature"}
{"geometry": {"coordinates": [-95.7622824, 34.932401], "type": "Point"}, "id": "R6rN9HitqSF6oujtyfPkhvFWjRk=", "properties": {"@source_uri": "https://tools.usps.com/UspsToolsRestServices/rest/POLocator/findLocations", "@spider": "usps_collection_boxes", "addr:city": "MCALESTER", "addr:country": "US", "addr:postcode": "74501", "addr:state": "OK", "addr:street_address": "500 E WASHINGTON AVE", "amenity": "post_box", "collection_times": "Mo-Sa 17:00", "indoor": "yes", "note": "ON 12/24 AND 12/31, THIS BOX MAY BE COLLECTED AS EARLY AS 12 NOON.", "nsi_id": "unitedstatespostalservice-a77078", "operator": "United States Postal Service", "operator:short": "USPS", "operator:type": "public", "operator:wikidata": "Q668687", "ref": "7450100037"}, "type": "Feature"}
{"geometry": {"coordinates": [-95.7695989, 34.925675], "type": "Point"}, "id": "UKGrHoJmofmgc1kSNOSQ4NASYtM=", "properties": {"@source_uri": "https://tools.usps.com/UspsToolsRestServices/rest/POLocator/findLocations", "@spider": "usps_collection_boxes", "addr:city": "MCALESTER", "addr:country": "US", "addr:postcode": "74501", "addr:state": "OK", "addr:street_address": "524 S 2ND ST", "amenity": "post_box", "collection_times": "Mo-Fr 11:00", "nsi_id": "unitedstatespostalservice-a77078", "operator": "United States Postal Service", "operator:short": "USPS", "operator:type": "public", "operator:wikidata": "Q668687", "ref": "7450100039"}, "type": "Feature"}
{"geometry": {"coordinates": [-95.7744450196, 34.902302993], "type": "Point"}, "id": "hL567NqlaVqsWgrzE0-iLgzXgbk=", "properties": {"@source_uri": "https://tools.usps.com/UspsToolsRestServices/rest/POLocator/findLocations", "@spider": "usps_collection_boxes", "addr:city": "MCALESTER", "addr:country": "US", "addr:postcode": "74501", "addr:state": "OK", "addr:street_address": "1900 S MAIN ST", "amenity": "post_box", "collection_times": "Mo-Fr 11:30", "nsi_id": "unitedstatespostalservice-a77078", "operator": "United States Postal Service", "operator:short": "USPS", "operator:type": "public", "operator:wikidata": "Q668687", "ref": "7450100041"}, "type": "Feature"}
{"geometry": {"coordinates": [-95.7614614, 34.955167], "type": "Point"}, "id": "o1cAdYDBhqsNtjTBmtEfb-PCw3c=", "properties": {"@source_uri": "https://tools.usps.com/UspsToolsRestServices/rest/POLocator/findLocations", "@spider": "usps_collection_boxes", "addr:city": "MCALESTER", "addr:country": "US", "addr:postcode": "74501", "addr:state": "OK", "addr:street_address": "2657 N MAIN ST", "amenity": "post_box", "collection_times": "Mo-Fr 12:00", "nsi_id": "unitedstatespostalservice-a77078", "operator": "United States Postal Service", "operator:short": "USPS", "operator:type": "public", "operator:wikidata": "Q668687", "ref": "7450100045"}, "type": "Feature"}
{"geometry": {"coordinates": [-95.8686507, 34.83784], "type": "Point"}, "id": "IVKolmScFgvoLK7aZf3NkmOXAmY=", "properties": {"@source_uri": "https://tools.usps.com/UspsToolsRestServices/rest/POLocator/findLocations", "@spider": "usps_collection_boxes", "addr:city": "MCALESTER", "addr:country": "US", "addr:postcode": "74501", "addr:state": "OK", "addr:street_address": "1 C TREE RD", "amenity": "post_box", "collection_times": "Mo-Fr 10:00", "nsi_id": "unitedstatespostalservice-a77078", "operator": "United States Postal Service", "operator:short": "USPS", "operator:type": "public", "operator:wikidata": "Q668687", "ref": "7450100046"}, "type": "Feature"}
{"geometry": {"coordinates": [-95.762079837, 34.932552111], "type": "Point"}, "id": "dlQ7cgGB9Dzhoko5YZrZHKG2DU0=", "properties": {"@source_uri": "https://tools.usps.com/UspsToolsRestServices/rest/POLocator/findLocations", "@spider": "usps_collection_boxes", "addr:city": "MCALESTER", "addr:country": "US", "addr:postcode": "74501", "addr:state": "OK", "addr:street_address": "500 E WASHINGTON AVE", "amenity": "post_box", "collection_times": "Mo-Fr 16:30; Sa 12:00", "indoor": "yes", "note": "ON 12/24 AND 12/31, THIS BOX MAY BE COLLECTED AS EARLY AS 12 NOON.", "nsi_id": "unitedstatespostalservice-a77078", "operator": "United States Postal Service", "operator:short": "USPS", "operator:type": "public", "operator:wikidata": "Q668687", "ref": "7450100048"}, "type": "Feature"}
{"geometry": {"coordinates": [-95.0998661407, 34.6628514155], "type": "Point"}, "id": "VG9Itqoegs81CdYin8_ETic8u3Q=", "properties": {"@source_uri": "https://tools.usps.com/UspsToolsRestServices/rest/POLocator/findLocations", "@spider": "usps_collection_boxes", "addr:city": "ALBION", "addr:country": "US", "addr:postcode": "74521", "addr:state": "OK", "addr:street_address": "110 S KENTUCKY ST", "amenity": "post_box", "collection_times": "Mo-Fr 10:30; Sa 09:00", "nsi_id": "unitedstatespostalservice-a77078", "operator": "United States Postal Service", "operator:short": "USPS", "operator:type": "public", "operator:wikidata": "Q668687", "ref": "7452100001"}, "type": "Feature"}
{"geometry": {"coordinates": [-95.102330955, 34.661871], "type": "Point"}, "id": "Fa6s8iij26MgBzbw7GQiv_Sn4oQ=", "properties": {"@source_uri": "https://tools.usps.com/UspsToolsRestServices/rest/POLocator/findLocations", "@spider": "usps_collection_boxes", "addr:city": "ALBION", "addr:country": "US", "addr:postcode": "74521", "addr:state": "OK", "addr:street_address": "110 S KENTUCKY ST", "amenity": "post_box", "collection_times": "Mo-Fr 10:30; Sa 09:00", "indoor": "yes", "nsi_id": "unitedstatespostalservice-a77078", "operator": "United States Postal Service", "operator:short": "USPS", "operator:type": "public", "operator:wikidata": "Q668687", "ref": "7452100002"}, "type": "Feature"}
{"geometry": {"coordinates": [-95.6918490033, 34.9002702742], "type": "Point"}, "id": "7IxS1_8SpoAOyPkOI7jHKoLaLZc=", "properties": {"@source_uri": "https://tools.usps.com/UspsToolsRestServices/rest/POLocator/findLocations", "@spider": "usps_collection_boxes", "addr:city": "ALDERSON", "addr:country": "US", "addr:postcode": "74522", "addr:state": "OK", "addr:street_address": "49 W HIGHWAY 270", "amenity": "post_box", "collection_times": "Mo-Fr 11:45; Sa 09:30", "nsi_id": "unitedstatespostalservice-a77078", "operator": "United States Postal Service", "operator:short": "USPS", "operator:type": "public", "operator:wikidata": "Q668687", "ref": "7452200000"}, "type": "Feature"}
{"geometry": {"coordinates": [-95.6918490033, 34.9002702742], "type": "Point"}, "id": "cifkq_Ly-jisjo5WGPdDjeR3Ea8=", "properties": {"@source_uri": "https://tools.usps.com/UspsToolsRestServices/rest/POLocator/findLocations", "@spider": "usps_collection_boxes", "addr:city": "ALDERSON", "addr:country": "US", "addr:postcode": "74522", "addr:state": "OK", "addr:street_address": "49 W HIGHWAY 270", "amenity": "post_box", "collection_times": "Mo-Fr 11:45; Sa 09:30", "indoor": "yes", "nsi_id": "unitedstatespostalservice-a77078", "operator": "United States Postal Service", "operator:short": "USPS", "operator:type": "public", "operator:wikidata": "Q668687", "ref": "7452200001"}, "type": "Feature"}
{"geometry": {"coordinates": [-95.691029617, 34.899840248], "type": "Point"}, "id": "v8cz1aahBsPVcmuQsgydd6C6b00=", "properties": {"@source_uri": "https://tools.usps.com/UspsToolsRestServices/rest/POLocator/findLocations", "@spider": "usps_collection_boxes", "addr:city": "ALDERSON", "addr:country": "US", "addr:postcode": "74522", "addr:state": "OK", "addr:street_address": "49 W HIGHWAY 270", "amenity": "post_box", "collection_times": "Mo-Fr 12:00; Sa 09:30", "indoor": "yes", "nsi_id": "unitedstatespostalservice-a77078", "operator": "United States Postal Service", "operator:short": "USPS", "operator:type": "public", "operator:wikidata": "Q668687", "ref": "7452200003"}, "type": "Feature"}
{"geometry": {"coordinates": [-95.620754, 34.232906], "type": "Point"}, "id": "3zlUx68XBsMI20KILYZojRF_WBg=", "properties": {"@source_uri": "https://tools.usps.com/UspsToolsRestServices/rest/POLocator/findLocations", "@spider": "usps_collection_boxes", "addr:city": "ANTLERS", "addr:country": "US", "addr:postcode": "74523", "addr:state": "OK", "addr:street_address": "219 N HIGH ST", "amenity": "post_box", "collection_times": "Mo-Fr 16:00; Sa 11:30", "indoor": "yes", "note": "ON 12/24 AND 12/31, THIS BOX MAY BE COLLECTED AS EARLY AS 12 NOON.", "nsi_id": "unitedstatespostalservice-a77078", "operator": "United States Postal Service", "operator:short": "USPS", "operator:type": "public", "operator:wikidata": "Q668687", "ref": "7452300003"}, "type": "Feature"}
{"geometry": {"coordinates": [-95.620754, 34.232906], "type": "Point"}, "id": "yScqQKg_y4S3xGTf08_qEI8edfU=", "properties": {"@source_uri": "https://tools.usps.com/UspsToolsRestServices/rest/POLocator/findLocations", "@spider": "usps_collection_boxes", "addr:city": "ANTLERS", "addr:country": "US", "addr:postcode": "74523", "addr:state": "OK", "addr:street_address": "219 N HIGH ST", "amenity": "post_box", "collection_times": "Mo-Fr 16:00; Sa 11:30", "indoor": "yes", "note": "ON 12/24 AND 12/31, THIS BOX MAY BE COLLECTED AS EARLY AS 12 NOON.", "nsi_id": "unitedstatespostalservice-a77078", "operator": "United States Postal Service", "operator:short": "USPS", "operator:type": "public", "operator:wikidata": "Q668687", "ref": "7452300004"}, "type": "Feature"}
{"geometry": {"coordinates": [-95.620754, 34.232906], "type": "Point"}, "id": "Batv1Gr7QhLB-Hl_nBpGgpYypoQ=", "properties": {"@source_uri": "https://tools.usps.com/UspsToolsRestServices/rest/POLocator/findLocations", "@spider": "usps_collection_boxes", "addr:city": "ANTLERS", "addr:country": "US", "addr:postcode": "74523", "addr:state": "OK", "addr:street_address": "219 N HIGH ST", "amenity": "post_box", "collection_times": "Mo-Fr 16:00; Sa 11:30", "indoor": "yes", "note": "ON 12/24 AND 12/31, THIS BOX MAY BE COLLECTED AS EARLY AS 12 NOON.", "nsi_id": "unitedstatespostalservice-a77078", "operator": "United States Postal Service", "operator:short": "USPS", "operator:type": "public", "operator:wikidata": "Q668687", "ref": "7452300005"}, "type": "Feature"}
{"geometry": {"coordinates": [-95.620754267, 34.232991507], "type": "Point"}, "id": "654espQTYn92FDxzfg8D4wDmhJg=", "properties": {"@source_uri": "https://tools.usps.com/UspsToolsRestServices/rest/POLocator/findLocations", "@spider": "usps_collection_boxes", "addr:city": "ANTLERS", "addr:country": "US", "addr:postcode": "74523", "addr:state": "OK", "addr:street_address": "219 N HIGH ST", "amenity": "post_box", "collection_times": "Mo-Fr 16:00; Sa 11:30", "indoor": "yes", "note": "ON 12/24 AND 12/31, THIS BOX MAY BE COLLECTED AS EARLY AS 12 NOON.", "nsi_id": "unitedstatespostalservice-a77078", "operator": "United States Postal Service", "operator:short": "USPS", "operator:type": "public", "operator:wikidata": "Q668687", "ref": "7452300006"}, "type": "Feature"}
{"geometry": {"coordinates": [-96.124391, 34.385035], "type": "Point"}, "id": "ctKBKavZ1x_nhPq5PVRyErtSksQ=", "properties": {"@source_uri": "https://tools.usps.com/UspsToolsRestServices/rest/POLocator/findLocations", "@spider": "usps_collection_boxes", "addr:city": "ATOKA", "addr:country": "US", "addr:postcode": "74525", "addr:state": "OK", "addr:street_address": "409 E COURT ST", "amenity": "post_box", "collection_times": "Mo-Fr 15:45; Sa 10:30", "note": "ON 12/24 AND 12/31, THIS BOX MAY BE COLLECTED AS EARLY AS 12 NOON.", "nsi_id": "unitedstatespostalservice-a77078", "operator": "United States Postal Service", "operator:short": "USPS", "operator:type": "public", "operator:wikidata": "Q668687", "ref": "7452500000"}, "type": "Feature"}
{"geometry": {"coordinates": [-96.1405094399, 34.3714878124], "type": "Point"}, "id": "P2sqJdIyKwx8XqGEPx4BuYNQsuQ=", "properties": {"@source_uri": "https://tools.usps.com/UspsToolsRestServices/rest/POLocator/findLocations", "@spider": "usps_collection_boxes", "addr:city": "ATOKA", "addr:country": "US", "addr:postcode": "74525", "addr:state": "OK", "addr:street_address": "180 W CEDAR CIR", "amenity": "post_box", "collection_times": "Mo-Sa 09:30", "nsi_id": "unitedstatespostalservice-a77078", "operator": "United States Postal Service", "operator:short": "USPS", "operator:type": "public", "operator:wikidata": "Q668687", "ref": "7452500002"}, "type": "Feature"}
{"geometry": {"coordinates": [-96.1410813, 34.366784], "type": "Point"}, "id": "rcbYTqqbTsGEBHqptq5bN-c7cfQ=", "properties": {"@source_uri": "https://tools.usps.com/UspsToolsRestServices/rest/POLocator/findLocations", "@spider": "usps_collection_boxes", "addr:city": "ATOKA", "addr:country": "US", "addr:postcode": "74525", "addr:state": "OK", "addr:street_address": "1935 S MISSISSIPPI AVE", "amenity": "post_box", "collection_times": "Mo-Sa 10:00", "nsi_id": "unitedstatespostalservice-a77078", "operator": "United States Postal Service", "operator:short": "USPS", "operator:type": "public", "operator:wikidata": "Q668687", "ref": "7452500003"}, "type": "Feature"}
{"geometry": {"coordinates": [-96.124391, 34.385035], "type": "Point"}, "id": "Wc8Qmib-hJZGXTlOei1voES9RCs=", "properties": {"@source_uri": "https://tools.usps.com/UspsToolsRestServices/rest/POLocator/findLocations", "@spider": "usps_collection_boxes", "addr:city": "ATOKA", "addr:country": "US", "addr:postcode": "74525", "addr:state": "OK", "addr:street_address": "409 E COURT ST", "amenity": "post_box", "collection_times": "Mo-Fr 15:45; Sa 10:30", "indoor": "yes", "note": "ON 12/24 AND 12/31, THIS BOX MAY BE COLLECTED AS EARLY AS 12 NOON.", "nsi_id": "unitedstatespostalservice-a77078", "operator": "United States Postal Service", "operator:short": "USPS", "operator:type": "public", "operator:wikidata": "Q668687", "ref": "7452500004"}, "type": "Feature"}
{"geometry": {"coordinates": [-96.124391, 34.385035], "type": "Point"}, "id": "zdAKR6Fgywax49Ga-DSqKm422tM=", "properties": {"@source_uri": "https://tools.usps.com/UspsToolsRestServices/rest/POLocator/findLocations", "@spider": "usps_collection_boxes", "addr:city": "ATOKA", "addr:country": "US", "addr:postcode": "74525", "addr:state": "OK", "addr:street_address": "409 E COURT ST", "amenity": "post_box", "collection_times": "Mo-Fr 15:45; Sa 10:30", "indoor": "yes", "note": "ON 12/24 AND 12/31, THIS BOX MAY BE COLLECTED AS EARLY AS 12 NOON.", "nsi_id": "unitedstatespostalservice-a77078", "operator": "United States Postal Service", "operator:short": "USPS", "operator:type": "public", "operator:wikidata": "Q668687", "ref": "7452500005"}, "type": "Feature"}
{"geometry": {"coordinates": [-96.124406524, 34.385075767], "type": "Point"}, "id": "_hhMNBrJYHeSPgSocWRul50G9zY=", "properties": {"@source_uri": "https://tools.usps.com/UspsToolsRestServices/rest/POLocator/findLocations", "@spider": "usps_collection_boxes", "addr:city": "ATOKA", "addr:country": "US", "addr:postcode": "74525", "addr:state": "OK", "addr:street_address": "409 E COURT ST", "amenity": "post_box", "collection_times": "Mo-Fr 15:45; Sa 10:30", "indoor": "yes", "note": "ON 12/24 AND 12/31, THIS BOX MAY BE COLLECTED AS EARLY AS 12 NOON.", "nsi_id": "unitedstatespostalservice-a77078", "operator": "United States Postal Service", "operator:short": "USPS", "operator:type": "public", "operator:wikidata": "Q668687", "ref": "7452500006"}, "type": "Feature"}
{"geometry": {"coordinates": [-95.773891, 34.751446], "type": "Point"}, "id": "wdD0tHx1B_ETGRPKHaVmSGGYqws=", "properties": {"@source_uri": "https://tools.usps.com/UspsToolsRestServices/rest/POLocator/findLocations", "@spider": "usps_collection_boxes", "addr:city": "BLANCO", "addr:country": "US", "addr:postcode": "74528", "addr:state": "OK", "addr:street_address": "8515 STATE HIGHWAY 63", "amenity": "post_box", "collection_times": "Mo-Sa 10:30", "nsi_id": "unitedstatespostalservice-a77078", "operator": "United States Postal Service", "operator:short": "USPS", "operator:type": "public", "operator:wikidata": "Q668687", "ref": "7452800000"}, "type": "Feature"}
{"geometry": {"coordinates": [-95.773891, 34.751446], "type": "Point"}, "id": "egmIMKZIJEJZeo7vHNRCrmc4iHA=", "properties": {"@source_uri": "https://tools.usps.com/UspsToolsRestServices/rest/POLocator/findLocations", "@spider": "usps_collection_boxes", "addr:city": "BLANCO", "addr:country": "US", "addr:postcode": "74528", "addr:state": "OK", "addr:street_address": "8515 STATE HIGHWAY 63", "amenity": "post_box", "collection_times": "Mo-Sa 10:30", "indoor": "yes", "nsi_id": "unitedstatespostalservice-a77078", "operator": "United States Postal Service", "operator:short": "USPS", "operator:type": "public", "operator:wikidata": "Q668687", "ref": "7452800001"}, "type": "Feature"}
{"geometry": {"coordinates": [-95.773893213, 34.751445432], "type": "Point"}, "id": "_eNT0jFgper8YxwTup9DZ654jgc=", "properties": {"@source_uri": "https://tools.usps.com/UspsToolsRestServices/rest/POLocator/findLocations", "@spider": "usps_collection_boxes", "addr:city": "BLANCO", "addr:country": "US", "addr:postcode": "74528", "addr:state": "OK", "addr:street_address": "8515 STATE HIGHWAY 63", "amenity": "post_box", "collection_times": "Mo-Fr 13:00; Sa 11:00", "indoor": "yes", "note": "ON 12/24 AND 12/31, THIS BOX MAY BE COLLECTED AS EARLY AS 12 NOON.", "nsi_id": "unitedstatespostalservice-a77078", "operator": "United States Postal Service", "operator:short": "USPS", "operator:type": "public", "operator:wikidata": "Q668687", "ref": "7452800002"}, "type": "Feature"}
{"geometry": {"coordinates": [-96.493341, 34.416301], "type": "Point"}, "id": "cCnHArgfNlWKtvbPZpe1K-f6Amg=", "properties": {"@source_uri": "https://tools.usps.com/UspsToolsRestServices/rest/POLocator/findLocations", "@spider": "usps_collection_boxes", "addr:city": "BROMIDE", "addr:country": "US", "addr:postcode": "74530", "addr:state": "OK", "addr:street_address": "102 S MAIN ST", "amenity": "post_box", "collection_times": "Mo-Fr 14:30; Sa 12:30", "indoor": "yes", "note": "ON 12/24 AND 12/31, THIS BOX MAY BE COLLECTED AS EARLY AS 12 NOON.", "nsi_id": "unitedstatespostalservice-a77078", "operator": "United States Postal Service", "operator:short": "USPS", "operator:type": "public", "operator:wikidata": "Q668687", "ref": "7453000000"}, "type": "Feature"}
{"geometry": {"coordinates": [-96.4927575, 34.416297], "type": "Point"}, "id": "yE5gD6BcSyhklR08UFrJpMzbqIw=", "properties": {"@source_uri": "https://tools.usps.com/UspsToolsRestServices/rest/POLocator/findLocations", "@spider": "usps_collection_boxes", "addr:city": "BROMIDE", "addr:country": "US", "addr:postcode": "74530", "addr:state": "OK", "addr:street_address": "102 S MAIN ST", "amenity": "post_box", "collection_times": "Mo-Fr 14:30; Sa 12:30", "indoor": "yes", "note": "ON 12/24 AND 12/31, THIS BOX MAY BE COLLECTED AS EARLY AS 12 NOON.", "nsi_id": "unitedstatespostalservice-a77078", "operator": "United States Postal Service", "operator:short": "USPS", "operator:type": "public", "operator:wikidata": "Q668687", "ref": "7453000001"}, "type": "Feature"}
{"geometry": {"coordinates": [-96.250264, 34.967902], "type": "Point"}, "id": "GOScd9QJ34xXzIV9oO8pEv4FvKg=", "properties": {"@source_uri": "https://tools.usps.com/UspsToolsRestServices/rest/POLocator/findLocations", "@spider": "usps_collection_boxes", "addr:city": "CALVIN", "addr:country": "US", "addr:postcode": "74531", "addr:state": "OK", "addr:street_address": "205 CANADIAN ST", "amenity": "post_box", "collection_times": "Mo-Fr 12:00; Sa 09:30", "indoor": "yes", "nsi_id": "unitedstatespostalservice-a77078", "operator": "United States Postal Service", "operator:short": "USPS", "operator:type": "public", "operator:wikidata": "Q668687", "ref": "7453100001"}, "type": "Feature"}
{"geometry": {"coordinates": [-96.250264, 34.967902], "type": "Point"}, "id": "lNGqXdG5syASk5nV4uk0j5WAqoI=", "properties": {"@source_uri": "https://tools.usps.com/UspsToolsRestServices/rest/POLocator/findLocations", "@spider": "usps_collection_boxes", "addr:city": "CALVIN", "addr:country": "US", "addr:postcode": "74531", "addr:state": "OK", "addr:street_address": "205 CANADIAN ST", "amenity": "post_box", "collection_times": "Mo-Fr 12:00; Sa 09:30", "indoor": "yes", "nsi_id": "unitedstatespostalservice-a77078", "operator": "United States Postal Service", "operator:short": "USPS", "operator:type": "public", "operator:wikidata": "Q668687", "ref": "7453100002"}, "type": "Feature"}
{"geometry": {"coordinates": [-96.250292174, 34.967933003], "type": "Point"}, "id": "smK6fPlizRNS80DnD1zDkoOBu7M=", "properties": {"@source_uri": "https://tools.usps.com/UspsToolsRestServices/rest/POLocator/findLocations", "@spider": "usps_collection_boxes", "addr:city": "CALVIN", "addr:country": "US", "addr:postcode": "74531", "addr:state": "OK", "addr:street_address": "205 CANADIAN ST", "amenity": "post_box", "collection_times": "Mo-Fr 12:00; Sa 09:30", "indoor": "yes", "nsi_id": "unitedstatespostalservice-a77078", "operator": "United States Postal Service", "operator:short": "USPS", "operator:type": "public", "operator:wikidata": "Q668687", "ref": "7453100003"}, "type": "Feature"}
{"geometry": {"coordinates": [-96.213077, 34.232346], "type": "Point"}, "id": "kyHpOiU9NOCNiU0rV42OpMgwIqU=", "properties": {"@source_uri": "https://tools.usps.com/UspsToolsRestServices/rest/POLocator/findLocations", "@spider": "usps_collection_boxes", "addr:city": "CANEY", "addr:country": "US", "addr:postcode": "74533", "addr:state": "OK", "addr:street_address": "200 W MAIN ST", "amenity": "post_box", "collection_times": "Mo-Fr 11:30; Sa 09:30", "indoor": "yes", "nsi_id": "unitedstatespostalservice-a77078", "operator": "United States Postal Service", "operator:short": "USPS", "operator:type": "public", "operator:wikidata": "Q668687", "ref": "7453300001"}, "type": "Feature"}
{"geometry": {"coordinates": [-96.213077, 34.232346], "type": "Point"}, "id": "MR4bM1XOC3Pv6VIEICp9WSU8Z5o=", "properties": {"@source_uri": "https://tools.usps.com/UspsToolsRestServices/rest/POLocator/findLocations", "@spider": "usps_collection_boxes", "addr:city": "CANEY", "addr:country": "US", "addr:postcode": "74533", "addr:state": "OK", "addr:street_address": "200 W MAIN ST", "amenity": "post_box", "collection_times": "Mo-Fr 11:30; Sa 09:30", "indoor": "yes", "nsi_id": "unitedstatespostalservice-a77078", "operator": "United States Postal Service", "operator:short": "USPS", "operator:type": "public", "operator:wikidata": "Q668687", "ref": "7453300002"}, "type": "Feature"}
{"geometry": {"coordinates": [-96.212954336, 34.232349368], "type": "Point"}, "id": "-fb-PfpEQ_JPYiDgzAwwqfRpLEs=", "properties": {"@source_uri": "https://tools.usps.com/UspsToolsRestServices/rest/POLocator/findLocations", "@spider": "usps_collection_boxes", "addr:city": "CANEY", "addr:country": "US", "addr:postcode": "74533", "addr:state": "OK", "addr:street_address": "200 W MAIN ST", "amenity": "post_box", "collection_times": "Mo-Fr 11:30; Sa 09:30", "indoor": "yes", "nsi_id": "unitedstatespostalservice-a77078", "operator": "United States Postal Service", "operator:short": "USPS", "operator:type": "public", "operator:wikidata": "Q668687", "ref": "7453300003"}, "type": "Feature"}
{"geometry": {"coordinates": [-96.4335101461, 34.4843439865], "type": "Point"}, "id": "m5pvsC4_UiNBxrUflTdB_DvHX8Y=", "properties": {"@source_uri": "https://tools.usps.com/UspsToolsRestServices/rest/POLocator/findLocations", "@spider": "usps_collection_boxes", "addr:city": "CLARITA", "addr:country": "US", "addr:postcode": "74535", "addr:state": "OK", "addr:street_address": "100 MAIN ST", "amenity": "post_box", "collection_times": "Mo-Fr 10:00; Sa 12:00", "indoor": "yes", "nsi_id": "unitedstatespostalservice-a77078", "operator": "United States Postal Service", "operator:short": "USPS", "operator:type": "public", "operator:wikidata": "Q668687", "ref": "7453500001"}, "type": "Feature"}
{"geometry": {"coordinates": [-96.421174042, 34.604718458], "type": "Point"}, "id": "eEPeW4fEMgwjMGrqjM07kdxPp5I=", "properties": {"@source_uri": "https://tools.usps.com/UspsToolsRestServices/rest/POLocator/findLocations", "@spider": "usps_collection_boxes", "addr:city": "CLARITA", "addr:country": "US", "addr:postcode": "74535", "addr:state": "OK", "addr:street_address": "100 MAIN ST", "amenity": "post_box", "collection_times": "Mo-Fr 10:00; Sa 11:30", "indoor": "yes", "nsi_id": "unitedstatespostalservice-a77078", "operator": "United States Postal Service", "operator:short": "USPS", "operator:type": "public", "operator:wikidata": "Q668687", "ref": "7453500002"}, "type": "Feature"}
{"geometry": {"coordinates": [-95.350669, 34.591933], "type": "Point"}, "id": "hQH1c6l8Bk0v7f1EG--9sy24rh0=", "properties": {"@source_uri": "https://tools.usps.com/UspsToolsRestServices/rest/POLocator/findLocations", "@spider": "usps_collection_boxes", "addr:city": "CLAYTON", "addr:country": "US", "addr:postcode": "74536", "addr:state": "OK", "addr:street_address": "121 N LAWSON BLVD", "amenity": "post_box", "collection_times": "Mo-Fr 15:00; Sa 11:00", "note": "ON 12/24 AND 12/31, THIS BOX MAY BE COLLECTED AS EARLY AS 12 NOON.", "nsi_id": "unitedstatespostalservice-a77078", "operator": "United States Postal Service", "operator:short": "USPS", "operator:type": "public", "operator:wikidata": "Q668687", "ref": "7453600001"}, "type": "Feature"}
{"geometry": {"coordinates": [-95.350669, 34.591933], "type": "Point"}, "id": "uck5Xv26YtohYQQFlPwpHCKuBmE=", "properties": {"@source_uri": "https://tools.usps.com/UspsToolsRestServices/rest/POLocator/findLocations", "@spider": "usps_collection_boxes", "addr:city": "CLAYTON", "addr:country": "US", "addr:postcode": "74536", "addr:state": "OK", "addr:street_address": "121 LAWSON BLVD", "amenity": "post_box", "collection_times": "Mo-Fr 15:00; Sa 11:00", "indoor": "yes", "note": "ON 12/24 AND 12/31, THIS BOX MAY BE COLLECTED AS EARLY AS 12 NOON.", "nsi_id": "unitedstatespostalservice-a77078", "operator": "United States Postal Service", "operator:short": "USPS", "operator:type": "public", "operator:wikidata": "Q668687", "ref": "7453600002"}, "type": "Feature"}
{"geometry": {"coordinates": [-95.354210207, 34.587229915], "type": "Point"}, "id": "E0omivlX2o1dwRmKkEOIJbKZ1KE=", "properties": {"@source_uri": "https://tools.usps.com/UspsToolsRestServices/rest/POLocator/findLocations", "@spider": "usps_collection_boxes", "addr:city": "CLAYTON", "addr:country": "US", "addr:postcode": "74536", "addr:state": "OK", "addr:street_address": "121 N LAWSON BLVD", "amenity": "post_box", "collection_times": "Mo-Fr 16:00; Sa 11:00", "indoor": "yes", "note": "ON 12/24 AND 12/31, THIS BOX MAY BE COLLECTED AS EARLY AS 12 NOON.", "nsi_id": "unitedstatespostalservice-a77078", "operator": "United States Postal Service", "operator:short": "USPS", "operator:type": "public", "operator:wikidata": "Q668687", "ref": "7453600004"}, "type": "Feature"}
{"geometry": {"coordinates": [-96.218286, 34.538732], "type": "Point"}, "id": "5tiINKC66Jx6a0BVXpLgB2Em_Ys=", "properties": {"@source_uri": "https://tools.usps.com/UspsToolsRestServices/rest/POLocator/findLocations", "@spider": "usps_collection_boxes", "addr:city": "COALGATE", "addr:country": "US", "addr:postcode": "74538", "addr:state": "OK", "addr:street_address": "38 N MAIN ST", "amenity": "post_box", "collection_times": "Mo-Fr 15:15; Sa 11:00", "indoor": "yes", "note": "ON 12/24 AND 12/31, THIS BOX MAY BE COLLECTED AS EARLY AS 12 NOON.", "nsi_id": "unitedstatespostalservice-a77078", "operator": "United States Postal Service", "operator:short": "USPS", "operator:type": "public", "operator:wikidata": "Q668687", "ref": "7453800001"}, "type": "Feature"}
{"geometry": {"coordinates": [-96.2182168514, 34.5366860955], "type": "Point"}, "id": "fhGwMxXAGdbYuE8KHvwr3_bZ810=", "properties": {"@source_uri": "https://tools.usps.com/UspsToolsRestServices/rest/POLocator/findLocations", "@spider": "usps_collection_boxes", "addr:city": "COALGATE", "addr:country": "US", "addr:postcode": "74538", "addr:state": "OK", "addr:street_address": "38 N MAIN ST", "amenity": "post_box", "collection_times": "Mo-Fr 15:15; Sa 11:00", "note": "ON 12/24 AND 12/31, THIS BOX MAY BE COLLECTED AS EARLY AS 12 NOON.", "nsi_id": "unitedstatespostalservice-a77078", "operator": "United States Postal Service", "operator:short": "USPS", "operator:type": "public", "operator:wikidata": "Q668687", "ref": "7453800002"}, "type": "Feature"}
{"geometry": {"coordinates": [-96.218229534, 34.536692971], "type": "Point"}, "id": "RFXsj-f_3xtGuB9YMch2WJt5DAs=", "properties": {"@source_uri": "https://tools.usps.com/UspsToolsRestServices/rest/POLocator/findLocations", "@spider": "usps_collection_boxes", "addr:city": "COALGATE", "addr:country": "US", "addr:postcode": "74538", "addr:state": "OK", "addr:street_address": "38 N MAIN ST", "amenity": "post_box", "collection_times": "Mo-Fr 15:00; Sa 11:00", "indoor": "yes", "note": "ON 12/24 AND 12/31, THIS BOX MAY BE COLLECTED AS EARLY AS 12 NOON.", "nsi_id": "unitedstatespostalservice-a77078", "operator": "United States Postal Service", "operator:short": "USPS", "operator:type": "public", "operator:wikidata": "Q668687", "ref": "7453800003"}, "type": "Feature"}
{"geometry": {"coordinates": [-95.49584, 34.328437], "type": "Point"}, "id": "BFlYK4q6A7kaqZkbuTG_f6BBmbg=", "properties": {"@source_uri": "https://tools.usps.com/UspsToolsRestServices/rest/POLocator/findLocations", "@spider": "usps_collection_boxes", "addr:city": "FINLEY", "addr:country": "US", "addr:postcode": "74543", "addr:state": "OK", "addr:street_address": "185218 US HIGHWAY 271", "amenity": "post_box", "collection_times": "Mo-Fr 10:15; Sa 09:45", "nsi_id": "unitedstatespostalservice-a77078", "operator": "United States Postal Service", "operator:short": "USPS", "operator:type": "public", "operator:wikidata": "Q668687", "ref": "7454300000"}, "type": "Feature"}
{"geometry": {"coordinates": [-95.49584, 34.328437], "type": "Point"}, "id": "BWGQGmRYNwVO3n3a81LMjbN0rFg=", "properties": {"@source_uri": "https://tools.usps.com/UspsToolsRestServices/rest/POLocator/findLocations", "@spider": "usps_collection_boxes", "addr:city": "FINLEY", "addr:country": "US", "addr:postcode": "74543", "addr:state": "OK", "addr:street_address": "185218 US HIGHWAY 271", "amenity": "post_box", "collection_times": "Mo-Fr 10:15; Sa 09:45", "indoor": "yes", "nsi_id": "unitedstatespostalservice-a77078", "operator": "United States Postal Service", "operator:short": "USPS", "operator:type": "public", "operator:wikidata": "Q668687", "ref": "7454300001"}, "type": "Feature"}
{"geometry": {"coordinates": [-95.495884271, 34.328387771], "type": "Point"}, "id": "mAImyGkmR1r2amsQhRSxzsHS5Io=", "properties": {"@source_uri": "https://tools.usps.com/UspsToolsRestServices/rest/POLocator/findLocations", "@spider": "usps_collection_boxes", "addr:city": "FINLEY", "addr:country": "US", "addr:postcode": "74543", "addr:state": "OK", "addr:street_address": "185218 US HIGHWAY 271", "amenity": "post_box", "collection_times": "Mo-Fr 12:00; Sa 09:45", "indoor": "yes", "nsi_id": "unitedstatespostalservice-a77078", "operator": "United States Postal Service", "operator:short": "USPS", "operator:type": "public", "operator:wikidata": "Q668687", "ref": "7454300002"}, "type": "Feature"}
{"geometry": {"coordinates": [-95.47636, 34.882505], "type": "Point"}, "id": "yzkB4TVzPyEMPePjcFfxnYqJru8=", "properties": {"@source_uri": "https://tools.usps.com/UspsToolsRestServices/rest/POLocator/findLocations", "@spider": "usps_collection_boxes", "addr:city": "GOWEN", "addr:country": "US", "addr:postcode": "74545", "addr:state": "OK", "addr:street_address": "9231 SW GOWEN RD", "amenity": "post_box", "collection_times": "Mo-Sa 11:30", "indoor": "yes", "nsi_id": "unitedstatespostalservice-a77078", "operator": "United States Postal Service", "operator:short": "USPS", "operator:type": "public", "operator:wikidata": "Q668687", "ref": "7454500001"}, "type": "Feature"}
{"geometry": {"coordinates": [-95.47636, 34.882505], "type": "Point"}, "id": "B9xUJd4lRqR71iSeOECxy8LUfT8=", "properties": {"@source_uri": "https://tools.usps.com/UspsToolsRestServices/rest/POLocator/findLocations", "@spider": "usps_collection_boxes", "addr:city": "GOWEN", "addr:country": "US", "addr:postcode": "74545", "addr:state": "OK", "addr:street_address": "9231 SW GOWEN RD", "amenity": "post_box", "collection_times": "Mo-Sa 11:30", "indoor": "yes", "nsi_id": "unitedstatespostalservice-a77078", "operator": "United States Postal Service", "operator:short": "USPS", "operator:type": "public", "operator:wikidata": "Q668687", "ref": "7454500002"}, "type": "Feature"}
{"geometry": {"coordinates": [-95.47636208, 34.882498414], "type": "Point"}, "id": "m5wF-PmApuBm8JgjOeD6e6mAnH0=", "properties": {"@source_uri": "https://tools.usps.com/UspsToolsRestServices/rest/POLocator/findLocations", "@spider": "usps_collection_boxes", "addr:city": "GOWEN", "addr:country": "US", "addr:postcode": "74545", "addr:state": "OK", "addr:street_address": "9231 SW GOWEN RD", "amenity": "post_box", "collection_times": "Mo-Sa 11:30", "indoor": "yes", "nsi_id": "unitedstatespostalservice-a77078", "operator": "United States Postal Service", "operator:short": "USPS", "operator:type": "public", "operator:wikidata": "Q668687", "ref": "7454500003"}, "type": "Feature"}
{"geometry": {"coordinates": [-95.5807734518, 34.8545380462], "type": "Point"}, "id": "5FPfwQzkcj0qMe3vxUWvFWuEUpY=", "properties": {"@source_uri": "https://tools.usps.com/UspsToolsRestServices/rest/POLocator/findLocations", "@spider": "usps_collection_boxes", "addr:city": "HAILEYVILLE", "addr:country": "US", "addr:postcode": "74546", "addr:state": "OK", "addr:street_address": "509 PARKWAY AVE", "amenity": "post_box", "collection_times": "Mo-Fr 15:00; Sa 09:00", "indoor": "yes", "note": "ON 12/24 AND 12/31, THIS BOX MAY BE COLLECTED AS EARLY AS 12 NOON.", "nsi_id": "unitedstatespostalservice-a77078", "operator": "United States Postal Service", "operator:short": "USPS", "operator:type": "public", "operator:wikidata": "Q668687", "ref": "7454600001"}, "type": "Feature"}
{"geometry": {"coordinates": [-95.579972497, 34.855410478], "type": "Point"}, "id": "lF5im8Uprct6i_5zfKAC6U2JvOI=", "properties": {"@source_uri": "https://tools.usps.com/UspsToolsRestServices/rest/POLocator/findLocations", "@spider": "usps_collection_boxes", "addr:city": "HAILEYVILLE", "addr:country": "US", "addr:postcode": "74546", "addr:state": "OK", "addr:street_address": "509 PARKWAY AVE", "amenity": "post_box", "collection_times": "Mo-Fr 15:00", "indoor": "yes", "note": "ON 12/24 AND 12/31, THIS BOX MAY BE COLLECTED AS EARLY AS 12 NOON.", "nsi_id": "unitedstatespostalservice-a77078", "operator": "United States Postal Service", "operator:short": "USPS", "operator:type": "public", "operator:wikidata": "Q668687", "ref": "7454600002"}, "type": "Feature"}
{"geometry": {"coordinates": [-95.5568, 34.849567], "type": "Point"}, "id": "e3eY4idwmg1m0ZuxHgkVYuVwzb8=", "properties": {"@source_uri": "https://tools.usps.com/UspsToolsRestServices/rest/POLocator/findLocations", "@spider": "usps_collection_boxes", "addr:city": "HARTSHORNE", "addr:country": "US", "addr:postcode": "74547", "addr:state": "OK", "addr:street_address": "1021 PENNSYLVANIA AVE", "amenity": "post_box", "collection_times": "Mo-Fr 16:00; Sa 12:00", "note": "ON 12/24 AND 12/31, THIS BOX MAY BE COLLECTED AS EARLY AS 12 NOON.", "nsi_id": "unitedstatespostalservice-a77078", "operator": "United States Postal Service", "operator:short": "USPS", "operator:type": "public", "operator:wikidata": "Q668687", "ref": "7454700001"}, "type": "Feature"}
{"geometry": {"coordinates": [-95.555352, 34.844777], "type": "Point"}, "id": "i_kC7JriutB1EjKs91HBH2-3dsM=", "properties": {"@source_uri": "https://tools.usps.com/UspsToolsRestServices/rest/POLocator/findLocations", "@spider": "usps_collection_boxes", "addr:city": "HARTSHORNE", "addr:country": "US", "addr:postcode": "74547", "addr:state": "OK", "addr:street_address": "1021 PENNSYLVANIA AVE", "amenity": "post_box", "collection_times": "Mo-Fr 16:00; Sa 12:00", "indoor": "yes", "note": "ON 12/24 AND 12/31, THIS BOX MAY BE COLLECTED AS EARLY AS 12 NOON.", "nsi_id": "unitedstatespostalservice-a77078", "operator": "United States Postal Service", "operator:short": "USPS", "operator:type": "public", "operator:wikidata": "Q668687", "ref": "7454700002"}, "type": "Feature"}
{"geometry": {"coordinates": [-95.555354124, 34.844773692], "type": "Point"}, "id": "ZadUyKbpylJdAmT17PuV0sJUrSs=", "properties": {"@source_uri": "https://tools.usps.com/UspsToolsRestServices/rest/POLocator/findLocations", "@spider": "usps_collection_boxes", "addr:city": "HARTSHORNE", "addr:country": "US", "addr:postcode": "74547", "addr:state": "OK", "addr:street_address": "1021 PENNSYLVANIA AVE", "amenity": "post_box", "collection_times": "Mo-Fr 16:00; Sa 12:00", "indoor": "yes", "note": "ON 12/24 AND 12/31, THIS BOX MAY BE COLLECTED AS EARLY AS 12 NOON.", "nsi_id": "unitedstatespostalservice-a77078", "operator": "United States Postal Service", "operator:short": "USPS", "operator:type": "public", "operator:wikidata": "Q668687", "ref": "7454700003"}, "type": "Feature"}
{"geometry": {"coordinates": [-95.236376, 35.116071], "type": "Point"}, "id": "uY-i6CbnrYXJbgjluevziUFPkhQ=", "properties": {"@source_uri": "https://tools.usps.com/UspsToolsRestServices/rest/POLocator/findLocations", "@spider": "usps_collection_boxes", "addr:city": "KINTA", "addr:country": "US", "addr:postcode": "74552", "addr:state": "OK", "addr:street_address": "301 W BROADWAY ST", "amenity": "post_box", "collection_times": "Mo-Fr 11:15; Sa 08:30", "indoor": "yes", "nsi_id": "unitedstatespostalservice-a77078", "operator": "United States Postal Service", "operator:short": "USPS", "operator:type": "public", "operator:wikidata": "Q668687", "ref": "7455200001"}, "type": "Feature"}
{"geometry": {"coordinates": [-95.242878146, 35.117818357], "type": "Point"}, "id": "gX7--td5Ld05x4rCPg5s_LC-5Yc=", "properties": {"@source_uri": "https://tools.usps.com/UspsToolsRestServices/rest/POLocator/findLocations", "@spider": "usps_collection_boxes", "addr:city": "KINTA", "addr:country": "US", "addr:postcode": "74552", "addr:state": "OK", "addr:street_address": "301 W BROADWAY ST", "amenity": "post_box", "collection_times": "Mo-Fr 11:30", "indoor": "yes", "nsi_id": "unitedstatespostalservice-a77078", "operator": "United States Postal Service", "operator:short": "USPS", "operator:type": "public", "operator:wikidata": "Q668687", "ref": "7455200002"}, "type": "Feature"}
{"geometry": {"coordinates": [-95.90463, 34.723906], "type": "Point"}, "id": "Bxw1XjRSh-OwkYKxeZykKtsKasw=", "properties": {"@source_uri": "https://tools.usps.com/UspsToolsRestServices/rest/POLocator/findLocations", "@spider": "usps_collection_boxes", "addr:city": "KIOWA", "addr:country": "US", "addr:postcode": "74553", "addr:state": "OK", "addr:street_address": "824 S HARRISON ST", "amenity": "post_box", "collection_times": "Mo-Fr 16:00; Sa 10:30", "note": "ON 12/24 AND 12/31, THIS BOX MAY BE COLLECTED AS EARLY AS 12 NOON.", "nsi_id": "unitedstatespostalservice-a77078", "operator": "United States Postal Service", "operator:short": "USPS", "operator:type": "public", "operator:wikidata": "Q668687", "ref": "7455300000"}, "type": "Feature"}
{"geometry": {"coordinates": [-95.90463, 34.723906], "type": "Point"}, "id": "5-hV6MkR2lZ22Jc7HQLsn64FWuw=", "properties": {"@source_uri": "https://tools.usps.com/UspsToolsRestServices/rest/POLocator/findLocations", "@spider": "usps_collection_boxes", "addr:city": "KIOWA", "addr:country": "US", "addr:postcode": "74553", "addr:state": "OK", "addr:street_address": "824 S HARRISON ST", "amenity": "post_box", "collection_times": "Mo-Fr 16:00; Sa 10:30", "indoor": "yes", "note": "ON 12/24 AND 12/31, THIS BOX MAY BE COLLECTED AS EARLY AS 12 NOON.", "nsi_id": "unitedstatespostalservice-a77078", "operator": "United States Postal Service", "operator:short": "USPS", "operator:type": "public", "operator:wikidata": "Q668687", "ref": "7455300001"}, "type": "Feature"}
{"geometry": {"coordinates": [-95.90463, 34.723906], "type": "Point"}, "id": "zgZyWLbZEzMJRODKB9GND8Txr8w=", "properties": {"@source_uri": "https://tools.usps.com/UspsToolsRestServices/rest/POLocator/findLocations", "@spider": "usps_collection_boxes", "addr:city": "KIOWA", "addr:country": "US", "addr:postcode": "74553", "addr:state": "OK", "addr:street_address": "824 S HARRISON ST", "amenity": "post_box", "collection_times": "Mo-Fr 16:00; Sa 10:30", "indoor": "yes", "note": "ON 12/24 AND 12/31, THIS BOX MAY BE COLLECTED AS EARLY AS 12 NOON.", "nsi_id": "unitedstatespostalservice-a77078", "operator": "United States Postal Service", "operator:short": "USPS", "operator:type": "public", "operator:wikidata": "Q668687", "ref": "7455300002"}, "type": "Feature"}
{"geometry": {"coordinates": [-95.905327389, 34.721344037], "type": "Point"}, "id": "z93bXzmRNwI_zWdv6m9HcT07MlM=", "properties": {"@source_uri": "https://tools.usps.com/UspsToolsRestServices/rest/POLocator/findLocations", "@spider": "usps_collection_boxes", "addr:city": "KIOWA", "addr:country": "US", "addr:postcode": "74553", "addr:state": "OK", "addr:street_address": "824 S HARRISON ST", "amenity": "post_box", "collection_times": "Mo-Fr 16:00; Sa 10:30", "indoor": "yes", "note": "ON 12/24 AND 12/31, THIS BOX MAY BE COLLECTED AS EARLY AS 12 NOON.", "nsi_id": "unitedstatespostalservice-a77078", "operator": "United States Postal Service", "operator:short": "USPS", "operator:type": "public", "operator:wikidata": "Q668687", "ref": "7455300003"}, "type": "Feature"}
{"geometry": {"coordinates": [-95.715783, 34.926947], "type": "Point"}, "id": "LHK7UZOgwFPyAuRL8e_nnxX1TWM=", "properties": {"@source_uri": "https://tools.usps.com/UspsToolsRestServices/rest/POLocator/findLocations", "@spider": "usps_collection_boxes", "addr:city": "KREBS", "addr:country": "US", "addr:postcode": "74554", "addr:state": "OK", "addr:street_address": "40 S MAIN ST", "amenity": "post_box", "collection_times": "Mo-Fr 16:00; Sa 10:30", "note": "ON 12/24 AND 12/31, THIS BOX MAY BE COLLECTED AS EARLY AS 12 NOON.", "nsi_id": "unitedstatespostalservice-a77078", "operator": "United States Postal Service", "operator:short": "USPS", "operator:type": "public", "operator:wikidata": "Q668687", "ref": "7455400000"}, "type": "Feature"}
{"geometry": {"coordinates": [-95.715783, 34.926948], "type": "Point"}, "id": "pl9bh5TNZ0UUanb_oDWFTibvaFI=", "properties": {"@source_uri": "https://tools.usps.com/UspsToolsRestServices/rest/POLocator/findLocations", "@spider": "usps_collection_boxes", "addr:city": "KREBS", "addr:country": "US", "addr:postcode": "74554", "addr:state": "OK", "addr:street_address": "40 S MAIN ST", "amenity": "post_box", "collection_times": "Mo-Fr 16:00; Sa 10:30", "indoor": "yes", "note": "ON 12/24 AND 12/31, THIS BOX MAY BE COLLECTED AS EARLY AS 12 NOON.", "nsi_id": "unitedstatespostalservice-a77078", "operator": "United States Postal Service", "operator:short": "USPS", "operator:type": "public", "operator:wikidata": "Q668687", "ref": "7455400001"}, "type": "Feature"}
{"geometry": {"coordinates": [-95.715810008, 34.926479497], "type": "Point"}, "id": "rgJ_RCerwIzPq_EDnJPV1Xk4gKU=", "properties": {"@source_uri": "https://tools.usps.com/UspsToolsRestServices/rest/POLocator/findLocations", "@spider": "usps_collection_boxes", "addr:city": "KREBS", "addr:country": "US", "addr:postcode": "74554", "addr:state": "OK", "addr:street_address": "40 S MAIN ST", "amenity": "post_box", "collection_times": "Mo-Fr 16:00", "indoor": "yes", "note": "ON 12/24 AND 12/31, THIS BOX MAY BE COLLECTED AS EARLY AS 12 NOON.", "nsi_id": "unitedstatespostalservice-a77078", "operator": "United States Postal Service", "operator:short": "USPS", "operator:type": "public", "operator:wikidata": "Q668687", "ref": "7455400002"}, "type": "Feature"}
{"geometry": {"coordinates": [-95.97901, 34.295012], "type": "Point"}, "id": "2iIePMU19_5pQsnQyQCZXTZ9pOA=", "properties": {"@source_uri": "https://tools.usps.com/UspsToolsRestServices/rest/POLocator/findLocations", "@spider": "usps_collection_boxes", "addr:city": "LANE", "addr:country": "US", "addr:postcode": "74555", "addr:state": "OK", "addr:street_address": "11820 E HIGHWAY 3", "amenity": "post_box", "collection_times": "Mo-Fr 11:30; Sa 10:00", "nsi_id": "unitedstatespostalservice-a77078", "operator": "United States Postal Service", "operator:short": "USPS", "operator:type": "public", "operator:wikidata": "Q668687", "ref": "7455500000"}, "type": "Feature"}
{"geometry": {"coordinates": [-95.97901, 34.295012], "type": "Point"}, "id": "o4cs0LjBPjCyScTinZS42miHhsk=", "properties": {"@source_uri": "https://tools.usps.com/UspsToolsRestServices/rest/POLocator/findLocations", "@spider": "usps_collection_boxes", "addr:city": "LANE", "addr:country": "US", "addr:postcode": "74555", "addr:state": "OK", "addr:street_address": "11820 E HIGHWAY 3", "amenity": "post_box", "collection_times": "Mo-Fr 11:30; Sa 10:00", "indoor": "yes", "nsi_id": "unitedstatespostalservice-a77078", "operator": "United States Postal Service", "operator:short": "USPS", "operator:type": "public", "operator:wikidata": "Q668687", "ref": "7455500001"}, "type": "Feature"}
{"geometry": {"coordinates": [-95.978668233, 34.294836956], "type": "Point"}, "id": "PLDbN9z-zzLqFBLYx7rE9btteS4=", "properties": {"@source_uri": "https://tools.usps.com/UspsToolsRestServices/rest/POLocator/findLocations", "@spider": "usps_collection_boxes", "addr:city": "LANE", "addr:country": "US", "addr:postcode": "74555", "addr:state": "OK", "addr:street_address": "11820 E HIGHWAY 3", "amenity": "post_box", "collection_times": "Mo-Fr 11:30; Sa 10:00", "indoor": "yes", "nsi_id": "unitedstatespostalservice-a77078", "operator": "United States Postal Service", "operator:short": "USPS", "operator:type": "public", "operator:wikidata": "Q668687", "ref": "7455500002"}, "type": "Feature"}
{"geometry": {"coordinates": [-96.2173916963, 34.4691415869], "type": "Point"}, "id": "JrZAsLA3Yz56I7W7E14c1FyWwFs=", "properties": {"@source_uri": "https://tools.usps.com/UspsToolsRestServices/rest/POLocator/findLocations", "@spider": "usps_collection_boxes", "addr:city": "LEHIGH", "addr:country": "US", "addr:postcode": "74556", "addr:state": "OK", "addr:street_address": "105 N HIGHWAY 75", "amenity": "post_box", "collection_times": "Mo-Fr 15:30; Sa 09:15", "indoor": "yes", "note": "ON 12/24 AND 12/31, THIS BOX MAY BE COLLECTED AS EARLY AS 12 NOON.", "nsi_id": "unitedstatespostalservice-a77078", "operator": "United States Postal Service", "operator:short": "USPS", "operator:type": "public", "operator:wikidata": "Q668687", "ref": "7455600001"}, "type": "Feature"}
{"geometry": {"coordinates": [-96.21759345, 34.471080301], "type": "Point"}, "id": "eXFQeaOlxgpQA2-WcVo7ID77ljo=", "properties": {"@source_uri": "https://tools.usps.com/UspsToolsRestServices/rest/POLocator/findLocations", "@spider": "usps_collection_boxes", "addr:city": "LEHIGH", "addr:country": "US", "addr:postcode": "74556", "addr:state": "OK", "addr:street_address": "105 N HIGHWAY 75", "amenity": "post_box", "collection_times": "Mo-Fr 15:30; Sa 09:00", "indoor": "yes", "note": "ON 12/24 AND 12/31, THIS BOX MAY BE COLLECTED AS EARLY AS 12 NOON.", "nsi_id": "unitedstatespostalservice-a77078", "operator": "United States Postal Service", "operator:short": "USPS", "operator:type": "public", "operator:wikidata": "Q668687", "ref": "7455600002"}, "type": "Feature"}
{"geometry": {"coordinates": [-95.653388306, 34.326282244], "type": "Point"}, "id": "WPpaG2I8d8n_j-bXMAeouvRDm8A=", "properties": {"@source_uri": "https://tools.usps.com/UspsToolsRestServices/rest/POLocator/findLocations", "@spider": "usps_collection_boxes", "addr:city": "MOYERS", "addr:country": "US", "addr:postcode": "74557", "addr:state": "OK", "addr:street_address": "100 MAIN ST", "amenity": "post_box", "collection_times": "Mo-Fr 12:00; Sa 09:00", "indoor": "yes", "nsi_id": "unitedstatespostalservice-a77078", "operator": "United States Postal Service", "operator:short": "USPS", "operator:type": "public", "operator:wikidata": "Q668687", "ref": "7455700001"}, "type": "Feature"}
{"geometry": {"coordinates": [-95.653388306, 34.326282244], "type": "Point"}, "id": "cx95Xe3H-x0rielJBiRSLjXlfGg=", "properties": {"@source_uri": "https://tools.usps.com/UspsToolsRestServices/rest/POLocator/findLocations", "@spider": "usps_collection_boxes", "addr:city": "MOYERS", "addr:country": "US", "addr:postcode": "74557", "addr:state": "OK", "addr:street_address": "100 MAIN ST", "amenity": "post_box", "collection_times": "Mo-Fr 12:00; Sa 09:00", "indoor": "yes", "nsi_id": "unitedstatespostalservice-a77078", "operator": "United States Postal Service", "operator:short": "USPS", "operator:type": "public", "operator:wikidata": "Q668687", "ref": "7455700002"}, "type": "Feature"}
{"geometry": {"coordinates": [-95.281637, 34.482891], "type": "Point"}, "id": "nJSrcGPuTWALulSSdc26dF8mzGU=", "properties": {"@source_uri": "https://tools.usps.com/UspsToolsRestServices/rest/POLocator/findLocations", "@spider": "usps_collection_boxes", "addr:city": "NASHOBA", "addr:country": "US", "addr:postcode": "74558", "addr:state": "OK", "addr:street_address": "100 HIGHWAY 144", "amenity": "post_box", "collection_times": "Mo-Fr 12:30; Sa 09:00", "indoor": "yes", "note": "ON 12/24 AND 12/31, THIS BOX MAY BE COLLECTED AS EARLY AS 12 NOON.", "nsi_id": "unitedstatespostalservice-a77078", "operator": "United States Postal Service", "operator:short": "USPS", "operator:type": "public", "operator:wikidata": "Q668687", "ref": "7455800001"}, "type": "Feature"}
{"geometry": {"coordinates": [-95.182294404, 34.5301671448], "type": "Point"}, "id": "e6m9bDK3NnJR_sECj66wjSw5zQk=", "properties": {"@source_uri": "https://tools.usps.com/UspsToolsRestServices/rest/POLocator/findLocations", "@spider": "usps_collection_boxes", "addr:city": "NASHOBA", "addr:country": "US", "addr:postcode": "74558", "addr:state": "OK", "addr:street_address": "100 HIGHWAY 144", "amenity": "post_box", "collection_times": "Mo-Fr 12:30; Sa 09:00", "indoor": "yes", "note": "ON 12/24 AND 12/31, THIS BOX MAY BE COLLECTED AS EARLY AS 12 NOON.", "nsi_id": "unitedstatespostalservice-a77078", "operator": "United States Postal Service", "operator:short": "USPS", "operator:type": "public", "operator:wikidata": "Q668687", "ref": "7455800002"}, "type": "Feature"}
{"geometry": {"coordinates": [-95.210698696, 34.482522865], "type": "Point"}, "id": "YeLAYuZKqJoCkBoGy1diZoYXc8E=", "properties": {"@source_uri": "https://tools.usps.com/UspsToolsRestServices/rest/POLocator/findLocations", "@spider": "usps_collection_boxes", "addr:city": "NASHOBA", "addr:country": "US", "addr:postcode": "74558", "addr:state": "OK", "addr:street_address": "439534 STATE HIGHWAY 144", "amenity": "post_box", "collection_times": "Mo-Fr 12:30; Sa 09:00", "indoor": "yes", "note": "ON 12/24 AND 12/31, THIS BOX MAY BE COLLECTED AS EARLY AS 12 NOON.", "nsi_id": "unitedstatespostalservice-a77078", "operator": "United States Postal Service", "operator:short": "USPS", "operator:type": "public", "operator:wikidata": "Q668687", "ref": "7455800003"}, "type": "Feature"}
{"geometry": {"coordinates": [-95.2382548633, 34.9268801567], "type": "Point"}, "id": "hRK6QTkDzxMlMmyxkv198un7k10=", "properties": {"@source_uri": "https://tools.usps.com/UspsToolsRestServices/rest/POLocator/findLocations", "@spider": "usps_collection_boxes", "addr:city": "PANOLA", "addr:country": "US", "addr:postcode": "74559", "addr:state": "OK", "addr:street_address": "5755 HIGHWAY 270 E", "amenity": "post_box", "collection_times": "Mo-Fr 11:00; Sa 10:45", "indoor": "yes", "nsi_id": "unitedstatespostalservice-a77078", "operator": "United States Postal Service", "operator:short": "USPS", "operator:type": "public", "operator:wikidata": "Q668687", "ref": "7455900001"}, "type": "Feature"}
{"geometry": {"coordinates": [-95.2149150135, 34.931090535], "type": "Point"}, "id": "-Vi6N4KdLZnQ_QeJo6GwwmNV9E8=", "properties": {"@source_uri": "https://tools.usps.com/UspsToolsRestServices/rest/POLocator/findLocations", "@spider": "usps_collection_boxes", "addr:city": "PANOLA", "addr:country": "US", "addr:postcode": "74559", "addr:state": "OK", "addr:street_address": "5755 HIGHWAY 270 E", "amenity": "post_box", "collection_times": "Mo-Fr 11:00; Sa 10:30", "indoor": "yes", "nsi_id": "unitedstatespostalservice-a77078", "operator": "United States Postal Service", "operator:short": "USPS", "operator:type": "public", "operator:wikidata": "Q668687", "ref": "7455900002"}, "type": "Feature"}
{"geometry": {"coordinates": [-95.850039, 34.714095], "type": "Point"}, "id": "L_-xMlW-j966vPzzsMz5tugYn0E=", "properties": {"@source_uri": "https://tools.usps.com/UspsToolsRestServices/rest/POLocator/findLocations", "@spider": "usps_collection_boxes", "addr:city": "PITTSBURG", "addr:country": "US", "addr:postcode": "74560", "addr:state": "OK", "addr:street_address": "508 BROADWAY AVE", "amenity": "post_box", "collection_times": "Mo-Fr 12:30; Sa 09:30", "indoor": "yes", "note": "ON 12/24 AND 12/31, THIS BOX MAY BE COLLECTED AS EARLY AS 12 NOON.", "nsi_id": "unitedstatespostalservice-a77078", "operator": "United States Postal Service", "operator:short": "USPS", "operator:type": "public", "operator:wikidata": "Q668687", "ref": "7456000001"}, "type": "Feature"}
{"geometry": {"coordinates": [-95.850039, 34.714095], "type": "Point"}, "id": "jLoAgOn3uluQ8HDfeNTloYcoVtQ=", "properties": {"@source_uri": "https://tools.usps.com/UspsToolsRestServices/rest/POLocator/findLocations", "@spider": "usps_collection_boxes", "addr:city": "PITTSBURG", "addr:country": "US", "addr:postcode": "74560", "addr:state": "OK", "addr:street_address": "508 BROADWAY AVE", "amenity": "post_box", "collection_times": "Mo-Fr 12:30; Sa 09:30", "indoor": "yes", "note": "ON 12/24 AND 12/31, THIS BOX MAY BE COLLECTED AS EARLY AS 12 NOON.", "nsi_id": "unitedstatespostalservice-a77078", "operator": "United States Postal Service", "operator:short": "USPS", "operator:type": "public", "operator:wikidata": "Q668687", "ref": "7456000002"}, "type": "Feature"}
{"geometry": {"coordinates": [-95.849968498, 34.714047008], "type": "Point"}, "id": "Jn_SY4AkU3soS_TgXSYkauO4qxc=", "properties": {"@source_uri": "https://tools.usps.com/UspsToolsRestServices/rest/POLocator/findLocations", "@spider": "usps_collection_boxes", "addr:city": "PITTSBURG", "addr:country": "US", "addr:postcode": "74560", "addr:state": "OK", "addr:street_address": "508 BROADWAY AVE", "amenity": "post_box", "collection_times": "Mo-Fr 12:30; Sa 09:00", "indoor": "yes", "note": "ON 12/24 AND 12/31, THIS BOX MAY BE COLLECTED AS EARLY AS 12 NOON.", "nsi_id": "unitedstatespostalservice-a77078", "operator": "United States Postal Service", "operator:short": "USPS", "operator:type": "public", "operator:wikidata": "Q668687", "ref": "7456000003"}, "type": "Feature"}
{"geometry": {"coordinates": [-95.366625, 35.123432], "type": "Point"}, "id": "_Bh7FpGvfxvHzZrlYeiK7jg-B48=", "properties": {"@source_uri": "https://tools.usps.com/UspsToolsRestServices/rest/POLocator/findLocations", "@spider": "usps_collection_boxes", "addr:city": "QUINTON", "addr:country": "US", "addr:postcode": "74561", "addr:state": "OK", "addr:street_address": "911 E MAIN ST", "amenity": "post_box", "collection_times": "Mo-Fr 15:45; Sa 09:00", "indoor": "yes", "note": "ON 12/24 AND 12/31, THIS BOX MAY BE COLLECTED AS EARLY AS 12 NOON.", "nsi_id": "unitedstatespostalservice-a77078", "operator": "United States Postal Service", "operator:short": "USPS", "operator:type": "public", "operator:wikidata": "Q668687", "ref": "7456100001"}, "type": "Feature"}
{"geometry": {"coordinates": [-95.367377295, 35.123289791], "type": "Point"}, "id": "4D3Y74nuAkdSRJMkiYF6l6J27H8=", "properties": {"@source_uri": "https://tools.usps.com/UspsToolsRestServices/rest/POLocator/findLocations", "@spider": "usps_collection_boxes", "addr:city": "QUINTON", "addr:country": "US", "addr:postcode": "74561", "addr:state": "OK", "addr:street_address": "911 E MAIN ST", "amenity": "post_box", "collection_times": "Mo-Fr 15:45", "indoor": "yes", "note": "ON 12/24 AND 12/31, THIS BOX MAY BE COLLECTED AS EARLY AS 12 NOON.", "nsi_id": "unitedstatespostalservice-a77078", "operator": "United States Postal Service", "operator:short": "USPS", "operator:type": "public", "operator:wikidata": "Q668687", "ref": "7456100002"}, "type": "Feature"}
{"geometry": {"coordinates": [-95.413381, 34.200408], "type": "Point"}, "id": "us4R21E5sfmqXzDOJ2lp5qCZcJY=", "properties": {"@source_uri": "https://tools.usps.com/UspsToolsRestServices/rest/POLocator/findLocations", "@spider": "usps_collection_boxes", "addr:city": "RATTAN", "addr:country": "US", "addr:postcode": "74562", "addr:state": "OK", "addr:street_address": "107 W MAIN ST", "amenity": "post_box", "collection_times": "Mo-Fr 14:00; Sa 11:00", "indoor": "yes", "note": "ON 12/24 AND 12/31, THIS BOX MAY BE COLLECTED AS EARLY AS 12 NOON.", "nsi_id": "unitedstatespostalservice-a77078", "operator": "United States Postal Service", "operator:short": "USPS", "operator:type": "public", "operator:wikidata": "Q668687", "ref": "7456200001"}, "type": "Feature"}
{"geometry": {"coordinates": [-95.413381, 34.200408], "type": "Point"}, "id": "BOrI0dRzUVBewj92NtSpJUo_pAY=", "properties": {"@source_uri": "https://tools.usps.com/UspsToolsRestServices/rest/POLocator/findLocations", "@spider": "usps_collection_boxes", "addr:city": "RATTAN", "addr:country": "US", "addr:postcode": "74562", "addr:state": "OK", "addr:street_address": "107 W MAIN ST", "amenity": "post_box", "collection_times": "Mo-Fr 14:00; Sa 11:00", "indoor": "yes", "note": "ON 12/24 AND 12/31, THIS BOX MAY BE COLLECTED AS EARLY AS 12 NOON.", "nsi_id": "unitedstatespostalservice-a77078", "operator": "United States Postal Service", "operator:short": "USPS", "operator:type": "public", "operator:wikidata": "Q668687", "ref": "7456200002"}, "type": "Feature"}
{"geometry": {"coordinates": [-95.413353113, 34.200447124], "type": "Point"}, "id": "zCzLZKU4nprkr7H-dN9JRLNpTpU=", "properties": {"@source_uri": "https://tools.usps.com/UspsToolsRestServices/rest/POLocator/findLocations", "@spider": "usps_collection_boxes", "addr:city": "RATTAN", "addr:country": "US", "addr:postcode": "74562", "addr:state": "OK", "addr:street_address": "107 W MAIN ST", "amenity": "post_box", "collection_times": "Mo-Fr 14:00; Sa 11:00", "indoor": "yes", "note": "ON 12/24 AND 12/31, THIS BOX MAY BE COLLECTED AS EARLY AS 12 NOON.", "nsi_id": "unitedstatespostalservice-a77078", "operator": "United States Postal Service", "operator:short": "USPS", "operator:type": "public", "operator:wikidata": "Q668687", "ref": "7456200003"}, "type": "Feature"}
{"geometry": {"coordinates": [-95.07902, 34.951887], "type": "Point"}, "id": "N2joGWpKAcP22rskesv4xm4dKkg=", "properties": {"@source_uri": "https://tools.usps.com/UspsToolsRestServices/rest/POLocator/findLocations", "@spider": "usps_collection_boxes", "addr:city": "RED OAK", "addr:country": "US", "addr:postcode": "74563", "addr:state": "OK", "addr:street_address": "111 NE DIVISION ST", "amenity": "post_box", "collection_times": "Mo-Fr 15:30; Sa 10:00", "note": "ON 12/24 AND 12/31, THIS BOX MAY BE COLLECTED AS EARLY AS 12 NOON.", "nsi_id": "unitedstatespostalservice-a77078", "operator": "United States Postal Service", "operator:short": "USPS", "operator:type": "public", "operator:wikidata": "Q668687", "ref": "7456300000"}, "type": "Feature"}
{"geometry": {"coordinates": [-95.07902, 34.951887], "type": "Point"}, "id": "st9_AbDDX3jJozaFcHmHr47JjQk=", "properties": {"@source_uri": "https://tools.usps.com/UspsToolsRestServices/rest/POLocator/findLocations", "@spider": "usps_collection_boxes", "addr:city": "RED OAK", "addr:country": "US", "addr:postcode": "74563", "addr:state": "OK", "addr:street_address": "111 NE DIVISION ST", "amenity": "post_box", "collection_times": "Mo-Fr 15:30; Sa 10:00", "indoor": "yes", "note": "ON 12/24 AND 12/31, THIS BOX MAY BE COLLECTED AS EARLY AS 12 NOON.", "nsi_id": "unitedstatespostalservice-a77078", "operator": "United States Postal Service", "operator:short": "USPS", "operator:type": "public", "operator:wikidata": "Q668687", "ref": "7456300001"}, "type": "Feature"}
{"geometry": {"coordinates": [-95.07902, 34.951887], "type": "Point"}, "id": "p_tmElxiXt0Rp8BHmKc7kJYO8IY=", "properties": {"@source_uri": "https://tools.usps.com/UspsToolsRestServices/rest/POLocator/findLocations", "@spider": "usps_collection_boxes", "addr:city": "RED OAK", "addr:country": "US", "addr:postcode": "74563", "addr:state": "OK", "addr:street_address": "111 NE DIVISION ST", "amenity": "post_box", "collection_times": "Mo-Fr 15:30; Sa 10:00", "indoor": "yes", "note": "ON 12/24 AND 12/31, THIS BOX MAY BE COLLECTED AS EARLY AS 12 NOON.", "nsi_id": "unitedstatespostalservice-a77078", "operator": "United States Postal Service", "operator:short": "USPS", "operator:type": "public", "operator:wikidata": "Q668687", "ref": "7456300002"}, "type": "Feature"}
{"geometry": {"coordinates": [-95.079019972, 34.951881519], "type": "Point"}, "id": "kLZY4zUcGbniXeVCOwJtskmhzUQ=", "properties": {"@source_uri": "https://tools.usps.com/UspsToolsRestServices/rest/POLocator/findLocations", "@spider": "usps_collection_boxes", "addr:city": "RED OAK", "addr:country": "US", "addr:postcode": "74563", "addr:state": "OK", "addr:street_address": "111 NE DIVISION ST", "amenity": "post_box", "collection_times": "Mo-Fr 16:30", "indoor": "yes", "note": "ON 12/24 AND 12/31, THIS BOX MAY BE COLLECTED AS EARLY AS 12 NOON.", "nsi_id": "unitedstatespostalservice-a77078", "operator": "United States Postal Service", "operator:short": "USPS", "operator:type": "public", "operator:wikidata": "Q668687", "ref": "7456300003"}, "type": "Feature"}
{"geometry": {"coordinates": [-95.844108, 34.829091], "type": "Point"}, "id": "PZ5daqNwuA5S-iYMe-fxxc-Da3Q=", "properties": {"@source_uri": "https://tools.usps.com/UspsToolsRestServices/rest/POLocator/findLocations", "@spider": "usps_collection_boxes", "addr:city": "SAVANNA", "addr:country": "US", "addr:postcode": "74565", "addr:state": "OK", "addr:street_address": "1 S MAIN ST", "amenity": "post_box", "collection_times": "Mo-Fr 16:00; Sa 10:00", "indoor": "yes", "note": "ON 12/24 AND 12/31, THIS BOX MAY BE COLLECTED AS EARLY AS 12 NOON.", "nsi_id": "unitedstatespostalservice-a77078", "operator": "United States Postal Service", "operator:short": "USPS", "operator:type": "public", "operator:wikidata": "Q668687", "ref": "7456500001"}, "type": "Feature"}
{"geometry": {"coordinates": [-95.844188174, 34.828994064], "type": "Point"}, "id": "OtL5i2wl1J2UTpAyDDLXmadYkjw=", "properties": {"@source_uri": "https://tools.usps.com/UspsToolsRestServices/rest/POLocator/findLocations", "@spider": "usps_collection_boxes", "addr:city": "SAVANNA", "addr:country": "US", "addr:postcode": "74565", "addr:state": "OK", "addr:street_address": "15 S MAIN ST", "amenity": "post_box", "collection_times": "Mo-Fr 16:00; Sa 10:00", "indoor": "yes", "note": "ON 12/24 AND 12/31, THIS BOX MAY BE COLLECTED AS EARLY AS 12 NOON.", "nsi_id": "unitedstatespostalservice-a77078", "operator": "United States Postal Service", "operator:short": "USPS", "operator:type": "public", "operator:wikidata": "Q668687", "ref": "7456500002"}, "type": "Feature"}
{"geometry": {"coordinates": [-95.4655, 34.336802], "type": "Point"}, "id": "9xtg5xGoCIssqPisTKrKtLWK7Co=", "properties": {"@source_uri": "https://tools.usps.com/UspsToolsRestServices/rest/POLocator/findLocations", "@spider": "usps_collection_boxes", "addr:city": "SNOW", "addr:country": "US", "addr:postcode": "74567", "addr:state": "OK", "addr:street_address": "180411 US HIGHWAY 271", "amenity": "post_box", "collection_times": "Mo-Sa 12:30", "note": "ON 12/24 AND 12/31, THIS BOX MAY BE COLLECTED AS EARLY AS 12 NOON.", "nsi_id": "unitedstatespostalservice-a77078", "operator": "United States Postal Service", "operator:short": "USPS", "operator:type": "public", "operator:wikidata": "Q668687", "ref": "7456700000"}, "type": "Feature"}
{"geometry": {"coordinates": [-95.412351, 34.396537], "type": "Point"}, "id": "BN9bZkWlQMqr4y10elXh0Vuv2u0=", "properties": {"@source_uri": "https://tools.usps.com/UspsToolsRestServices/rest/POLocator/findLocations", "@spider": "usps_collection_boxes", "addr:city": "SNOW", "addr:country": "US", "addr:postcode": "74567", "addr:state": "OK", "addr:street_address": "180411 US HIGHWAY 271", "amenity": "post_box", "collection_times": "Mo-Sa 12:30", "indoor": "yes", "note": "ON 12/24 AND 12/31, THIS BOX MAY BE COLLECTED AS EARLY AS 12 NOON.", "nsi_id": "unitedstatespostalservice-a77078", "operator": "United States Postal Service", "operator:short": "USPS", "operator:type": "public", "operator:wikidata": "Q668687", "ref": "7456700001"}, "type": "Feature"}
{"geometry": {"coordinates": [-95.412386415, 34.39653345], "type": "Point"}, "id": "Nxn17QwdcMurjwB7BATgnt1J-qc=", "properties": {"@source_uri": "https://tools.usps.com/UspsToolsRestServices/rest/POLocator/findLocations", "@spider": "usps_collection_boxes", "addr:city": "SNOW", "addr:country": "US", "addr:postcode": "74567", "addr:state": "OK", "addr:street_address": "180411 US HIGHWAY 271", "amenity": "post_box", "collection_times": "Mo-Sa 14:00", "indoor": "yes", "note": "ON 12/24 AND 12/31, THIS BOX MAY BE COLLECTED AS EARLY AS 12 NOON.", "nsi_id": "unitedstatespostalservice-a77078", "operator": "United States Postal Service", "operator:short": "USPS", "operator:type": "public", "operator:wikidata": "Q668687", "ref": "7456700002"}, "type": "Feature"}
{"geometry": {"coordinates": [-96.048871, 34.468028], "type": "Point"}, "id": "258E-KIrH9utDI-c0mp0XsQltqY=", "properties": {"@source_uri": "https://tools.usps.com/UspsToolsRestServices/rest/POLocator/findLocations", "@spider": "usps_collection_boxes", "addr:city": "STRINGTOWN", "addr:country": "US", "addr:postcode": "74569", "addr:state": "OK", "addr:street_address": "164 E REBA MCENTIRE AVE", "amenity": "post_box", "collection_times": "Mo-Fr 13:30; Sa 10:00", "indoor": "yes", "note": "ON 12/24 AND 12/31, THIS BOX MAY BE COLLECTED AS EARLY AS 12 NOON.", "nsi_id": "unitedstatespostalservice-a77078", "operator": "United States Postal Service", "operator:short": "USPS", "operator:type": "public", "operator:wikidata": "Q668687", "ref": "7456900001"}, "type": "Feature"}
{"geometry": {"coordinates": [-96.055248458, 34.470409911], "type": "Point"}, "id": "ZUB2kwSQ7tRbc75mV1_kR9fD0Dk=", "properties": {"@source_uri": "https://tools.usps.com/UspsToolsRestServices/rest/POLocator/findLocations", "@spider": "usps_collection_boxes", "addr:city": "STRINGTOWN", "addr:country": "US", "addr:postcode": "74569", "addr:state": "OK", "addr:street_address": "164 E REBA MCENTIRE AVE", "amenity": "post_box", "collection_times": "Mo-Fr 13:30; Sa 10:00", "indoor": "yes", "note": "ON 12/24 AND 12/31, THIS BOX MAY BE COLLECTED AS EARLY AS 12 NOON.", "nsi_id": "unitedstatespostalservice-a77078", "operator": "United States Postal Service", "operator:short": "USPS", "operator:type": "public", "operator:wikidata": "Q668687", "ref": "7456900002"}, "type": "Feature"}
{"geometry": {"coordinates": [-96.0993949, 34.901017], "type": "Point"}, "id": "zLnaMncC2ww4g8jRC3__0WPz7A8=", "properties": {"@source_uri": "https://tools.usps.com/UspsToolsRestServices/rest/POLocator/findLocations", "@spider": "usps_collection_boxes", "addr:city": "STUART", "addr:country": "US", "addr:postcode": "74570", "addr:state": "OK", "addr:street_address": "619 ROOSEVELT AVE", "amenity": "post_box", "collection_times": "Mo-Fr 12:00; Sa 09:00", "nsi_id": "unitedstatespostalservice-a77078", "operator": "United States Postal Service", "operator:short": "USPS", "operator:type": "public", "operator:wikidata": "Q668687", "ref": "7457000000"}, "type": "Feature"}
{"geometry": {"coordinates": [-96.0996799, 34.901064], "type": "Point"}, "id": "mGSmJ7SAQJpSUM-u6lCALcZqf34=", "properties": {"@source_uri": "https://tools.usps.com/UspsToolsRestServices/rest/POLocator/findLocations", "@spider": "usps_collection_boxes", "addr:city": "STUART", "addr:country": "US", "addr:postcode": "74570", "addr:state": "OK", "addr:street_address": "619 ROOSEVELT AVE", "amenity": "post_box", "collection_times": "Mo-Fr 11:45; Sa 09:00", "indoor": "yes", "nsi_id": "unitedstatespostalservice-a77078", "operator": "United States Postal Service", "operator:short": "USPS", "operator:type": "public", "operator:wikidata": "Q668687", "ref": "7457000001"}, "type": "Feature"}
{"geometry": {"coordinates": [-96.099324981, 34.901037], "type": "Point"}, "id": "95c2FNt8FSN4nmPeX275w-Uk2Tc=", "properties": {"@source_uri": "https://tools.usps.com/UspsToolsRestServices/rest/POLocator/findLocations", "@spider": "usps_collection_boxes", "addr:city": "STUART", "addr:country": "US", "addr:postcode": "74570", "addr:state": "OK", "addr:street_address": "619 ROOSEVELT AVE", "amenity": "post_box", "collection_times": "Mo-Fr 11:45; Sa 08:45", "indoor": "yes", "nsi_id": "unitedstatespostalservice-a77078", "operator": "United States Postal Service", "operator:short": "USPS", "operator:type": "public", "operator:wikidata": "Q668687", "ref": "7457000002"}, "type": "Feature"}
{"geometry": {"coordinates": [-95.047855, 34.751576], "type": "Point"}, "id": "UcQYU2uvPAKVqcZdxhUIY5FNwNU=", "properties": {"@source_uri": "https://tools.usps.com/UspsToolsRestServices/rest/POLocator/findLocations", "@spider": "usps_collection_boxes", "addr:city": "TALIHINA", "addr:country": "US", "addr:postcode": "74571", "addr:state": "OK", "addr:street_address": "405 DALLAS ST", "amenity": "post_box", "collection_times": "Mo-Fr 15:45; Sa 09:30", "note": "ON 12/24 AND 12/31, THIS BOX MAY BE COLLECTED AS EARLY AS 12 NOON.", "nsi_id": "unitedstatespostalservice-a77078", "operator": "United States Postal Service", "operator:short": "USPS", "operator:type": "public", "operator:wikidata": "Q668687", "ref": "7457100000"}, "type": "Feature"}
{"geometry": {"coordinates": [-95.047855, 34.751576], "type": "Point"}, "id": "AgK3UC_wkQWrjHsgx0ozMxMSks4=", "properties": {"@source_uri": "https://tools.usps.com/UspsToolsRestServices/rest/POLocator/findLocations", "@spider": "usps_collection_boxes", "addr:city": "TALIHINA", "addr:country": "US", "addr:postcode": "74571", "addr:state": "OK", "addr:street_address": "405 DALLAS ST", "amenity": "post_box", "collection_times": "Mo-Fr 15:45; Sa 09:30", "indoor": "yes", "note": "ON 12/24 AND 12/31, THIS BOX MAY BE COLLECTED AS EARLY AS 12 NOON.", "nsi_id": "unitedstatespostalservice-a77078", "operator": "United States Postal Service", "operator:short": "USPS", "operator:type": "public", "operator:wikidata": "Q668687", "ref": "7457100002"}, "type": "Feature"}
{"geometry": {"coordinates": [-95.047855, 34.751576], "type": "Point"}, "id": "gTPd5SwPmFR6R_C8JcyrKqKwNRM=", "properties": {"@source_uri": "https://tools.usps.com/UspsToolsRestServices/rest/POLocator/findLocations", "@spider": "usps_collection_boxes", "addr:city": "TALIHINA", "addr:country": "US", "addr:postcode": "74571", "addr:state": "OK", "addr:street_address": "405 DALLAS ST", "amenity": "post_box", "collection_times": "Mo-Fr 15:45; Sa 09:30", "indoor": "yes", "note": "ON 12/24 AND 12/31, THIS BOX MAY BE COLLECTED AS EARLY AS 12 NOON.", "nsi_id": "unitedstatespostalservice-a77078", "operator": "United States Postal Service", "operator:short": "USPS", "operator:type": "public", "operator:wikidata": "Q668687", "ref": "7457100003"}, "type": "Feature"}
{"geometry": {"coordinates": [-95.047875645, 34.75163183], "type": "Point"}, "id": "xuZJVHIcoEkqLFvVBMInzoIeZWw=", "properties": {"@source_uri": "https://tools.usps.com/UspsToolsRestServices/rest/POLocator/findLocations", "@spider": "usps_collection_boxes", "addr:city": "TALIHINA", "addr:country": "US", "addr:postcode": "74571", "addr:state": "OK", "addr:street_address": "403 DALLAS ST", "amenity": "post_box", "collection_times": "Mo-Fr 15:45", "indoor": "yes", "note": "ON 12/24 AND 12/31, THIS BOX MAY BE COLLECTED AS EARLY AS 12 NOON.", "nsi_id": "unitedstatespostalservice-a77078", "operator": "United States Postal Service", "operator:short": "USPS", "operator:type": "public", "operator:wikidata": "Q668687", "ref": "7457100004"}, "type": "Feature"}
{"geometry": {"coordinates": [-96.416404, 34.604635], "type": "Point"}, "id": "GdW5UgQzsGiIcd_4UWyDFi4UZVE=", "properties": {"@source_uri": "https://tools.usps.com/UspsToolsRestServices/rest/POLocator/findLocations", "@spider": "usps_collection_boxes", "addr:city": "TUPELO", "addr:country": "US", "addr:postcode": "74572", "addr:state": "OK", "addr:street_address": "403 MAIN ST", "amenity": "post_box", "collection_times": "Mo-Fr 11:15; Sa 10:00", "indoor": "yes", "nsi_id": "unitedstatespostalservice-a77078", "operator": "United States Postal Service", "operator:short": "USPS", "operator:type": "public", "operator:wikidata": "Q668687", "ref": "7457200001"}, "type": "Feature"}
{"geometry": {"coordinates": [-96.416404, 34.604635], "type": "Point"}, "id": "kl0Fpaw41PN6guCxy6DXIjQ1rBE=", "properties": {"@source_uri": "https://tools.usps.com/UspsToolsRestServices/rest/POLocator/findLocations", "@spider": "usps_collection_boxes", "addr:city": "TUPELO", "addr:country": "US", "addr:postcode": "74572", "addr:state": "OK", "addr:street_address": "403 MAIN ST", "amenity": "post_box", "collection_times": "Mo-Fr 11:15; Sa 10:00", "indoor": "yes", "nsi_id": "unitedstatespostalservice-a77078", "operator": "United States Postal Service", "operator:short": "USPS", "operator:type": "public", "operator:wikidata": "Q668687", "ref": "7457200002"}, "type": "Feature"}
{"geometry": {"coordinates": [-96.416444958, 34.604590209], "type": "Point"}, "id": "IJEpWxAktluz2MgaoXqKI94O4i8=", "properties": {"@source_uri": "https://tools.usps.com/UspsToolsRestServices/rest/POLocator/findLocations", "@spider": "usps_collection_boxes", "addr:city": "TUPELO", "addr:country": "US", "addr:postcode": "74572", "addr:state": "OK", "addr:street_address": "403 MAIN ST", "amenity": "post_box", "collection_times": "Mo-Fr 11:30; Sa 09:30", "indoor": "yes", "nsi_id": "unitedstatespostalservice-a77078", "operator": "United States Postal Service", "operator:short": "USPS", "operator:type": "public", "operator:wikidata": "Q668687", "ref": "7457200003"}, "type": "Feature"}
{"geometry": {"coordinates": [-95.101148, 34.662654], "type": "Point"}, "id": "c6Usd6TWA0jPYW2GnEehvj3BY3c=", "properties": {"@source_uri": "https://tools.usps.com/UspsToolsRestServices/rest/POLocator/findLocations", "@spider": "usps_collection_boxes", "addr:city": "TUSKAHOMA", "addr:country": "US", "addr:postcode": "74574", "addr:state": "OK", "addr:street_address": "435689 E 1657 RD", "amenity": "post_box", "collection_times": "Mo-Fr 15:00; Sa 12:30", "note": "ON 12/24 AND 12/31, THIS BOX MAY BE COLLECTED AS EARLY AS 12 NOON.", "nsi_id": "unitedstatespostalservice-a77078", "operator": "United States Postal Service", "operator:short": "USPS", "operator:type": "public", "operator:wikidata": "Q668687", "ref": "7457400000"}, "type": "Feature"}
{"geometry": {"coordinates": [-95.275216, 34.613889], "type": "Point"}, "id": "L4To7VKFp63s-JV9Ch5zOYA-_5E=", "properties": {"@source_uri": "https://tools.usps.com/UspsToolsRestServices/rest/POLocator/findLocations", "@spider": "usps_collection_boxes", "addr:city": "TUSKAHOMA", "addr:country": "US", "addr:postcode": "74574", "addr:state": "OK", "addr:street_address": "435689 E 1657 RD", "amenity": "post_box", "collection_times": "Mo-Fr 15:00; Sa 12:30", "indoor": "yes", "note": "ON 12/24 AND 12/31, THIS BOX MAY BE COLLECTED AS EARLY AS 12 NOON.", "nsi_id": "unitedstatespostalservice-a77078", "operator": "United States Postal Service", "operator:short": "USPS", "operator:type": "public", "operator:wikidata": "Q668687", "ref": "7457400001"}, "type": "Feature"}
{"geometry": {"coordinates": [-95.275190581, 34.613929652], "type": "Point"}, "id": "vslJQa49HrCm0uJT7ckr9rSdNG0=", "properties": {"@source_uri": "https://tools.usps.com/UspsToolsRestServices/rest/POLocator/findLocations", "@spider": "usps_collection_boxes", "addr:city": "TUSKAHOMA", "addr:country": "US", "addr:postcode": "74574", "addr:state": "OK", "addr:street_address": "435689 E 1657 RD", "amenity": "post_box", "collection_times": "Mo-Fr 16:00; Sa 13:45", "indoor": "yes", "note": "ON 12/24 AND 12/31, THIS BOX MAY BE COLLECTED AS EARLY AS 12 NOON.", "nsi_id": "unitedstatespostalservice-a77078", "operator": "United States Postal Service", "operator:short": "USPS", "operator:type": "public", "operator:wikidata": "Q668687", "ref": "7457400002"}, "type": "Feature"}
{"geometry": {"coordinates": [-94.883063, 34.693238], "type": "Point"}, "id": "ksnelTOR2uL0YswfzLnvcp667yc=", "properties": {"@source_uri": "https://tools.usps.com/UspsToolsRestServices/rest/POLocator/findLocations", "@spider": "usps_collection_boxes", "addr:city": "WHITESBORO", "addr:country": "US", "addr:postcode": "74577", "addr:state": "OK", "addr:street_address": "57137 WHITE WOOD DR", "amenity": "post_box", "collection_times": "Mo-Fr 14:00; Sa 12:00", "indoor": "yes", "note": "ON 12/24 AND 12/31, THIS BOX MAY BE COLLECTED AS EARLY AS 12 NOON.", "nsi_id": "unitedstatespostalservice-a77078", "operator": "United States Postal Service", "operator:short": "USPS", "operator:type": "public", "operator:wikidata": "Q668687", "ref": "7457700001"}, "type": "Feature"}
{"geometry": {"coordinates": [-94.883063, 34.693238], "type": "Point"}, "id": "zr1leEjUCnNVhBXTqff7Wha7jD4=", "properties": {"@source_uri": "https://tools.usps.com/UspsToolsRestServices/rest/POLocator/findLocations", "@spider": "usps_collection_boxes", "addr:city": "WHITESBORO", "addr:country": "US", "addr:postcode": "74577", "addr:state": "OK", "addr:street_address": "57137 WHITE WOOD DR", "amenity": "post_box", "collection_times": "Mo-Fr 14:00; Sa 12:00", "indoor": "yes", "note": "ON 12/24 AND 12/31, THIS BOX MAY BE COLLECTED AS EARLY AS 12 NOON.", "nsi_id": "unitedstatespostalservice-a77078", "operator": "United States Postal Service", "operator:short": "USPS", "operator:type": "public", "operator:wikidata": "Q668687", "ref": "7457700002"}, "type": "Feature"}
{"geometry": {"coordinates": [-94.88308843, 34.693227558], "type": "Point"}, "id": "GtnfJqKhwfFDj8K6MQ68SJjE8Uw=", "properties": {"@source_uri": "https://tools.usps.com/UspsToolsRestServices/rest/POLocator/findLocations", "@spider": "usps_collection_boxes", "addr:city": "WHITESBORO", "addr:country": "US", "addr:postcode": "74577", "addr:state": "OK", "addr:street_address": "57137 WHITE WOOD DR", "amenity": "post_box", "collection_times": "Mo-Fr 16:00; Sa 14:15", "indoor": "yes", "note": "ON 12/24 AND 12/31, THIS BOX MAY BE COLLECTED AS EARLY AS 12 NOON.", "nsi_id": "unitedstatespostalservice-a77078", "operator": "United States Postal Service", "operator:short": "USPS", "operator:type": "public", "operator:wikidata": "Q668687", "ref": "7457700003"}, "type": "Feature"}
{"geometry": {"coordinates": [-95.307342, 34.918838], "type": "Point"}, "id": "QzCaTeAQgu6Sjh_32sg_nOUjF1s=", "properties": {"@source_uri": "https://tools.usps.com/UspsToolsRestServices/rest/POLocator/findLocations", "@spider": "usps_collection_boxes", "addr:city": "WILBURTON", "addr:country": "US", "addr:postcode": "74578", "addr:state": "OK", "addr:street_address": "205 E MAIN ST", "amenity": "post_box", "collection_times": "Mo-Fr 16:00; Sa 11:30", "note": "ON 12/24 AND 12/31, THIS BOX MAY BE COLLECTED AS EARLY AS 12 NOON.", "nsi_id": "unitedstatespostalservice-a77078", "operator": "United States Postal Service", "operator:short": "USPS", "operator:type": "public", "operator:wikidata": "Q668687", "ref": "7457800004"}, "type": "Feature"}
{"geometry": {"coordinates": [-95.307342, 34.918838], "type": "Point"}, "id": "gwVxoV9k0I_w2j7YSIZ8TWbGFeA=", "properties": {"@source_uri": "https://tools.usps.com/UspsToolsRestServices/rest/POLocator/findLocations", "@spider": "usps_collection_boxes", "addr:city": "WILBURTON", "addr:country": "US", "addr:postcode": "74578", "addr:state": "OK", "addr:street_address": "205 E MAIN ST", "amenity": "post_box", "collection_times": "Mo-Fr 16:00; Sa 11:30", "indoor": "yes", "note": "ON 12/24 AND 12/31, THIS BOX MAY BE COLLECTED AS EARLY AS 12 NOON.", "nsi_id": "unitedstatespostalservice-a77078", "operator": "United States Postal Service", "operator:short": "USPS", "operator:type": "public", "operator:wikidata": "Q668687", "ref": "7457800007"}, "type": "Feature"}
{"geometry": {"coordinates": [-95.307344612, 34.91883246], "type": "Point"}, "id": "YuCEBUasdI8sR9DbCFJRFtDnMJ0=", "properties": {"@source_uri": "https://tools.usps.com/UspsToolsRestServices/rest/POLocator/findLocations", "@spider": "usps_collection_boxes", "addr:city": "WILBURTON", "addr:country": "US", "addr:postcode": "74578", "addr:state": "OK", "addr:street_address": "205 E MAIN ST", "amenity": "post_box", "collection_times": "Mo-Fr 16:00; Sa 11:30", "indoor": "yes", "note": "ON 12/24 AND 12/31, THIS BOX MAY BE COLLECTED AS EARLY AS 12 NOON.", "nsi_id": "unitedstatespostalservice-a77078", "operator": "United States Postal Service", "operator:short": "USPS", "operator:type": "public", "operator:wikidata": "Q668687", "ref": "7457800008"}, "type": "Feature"}
