{"dataset_attributes": {"@spider": "usps_collection_boxes", "spider:collection_time": "2023-12-31T08:23:44.423400"}, "geometry": {"coordinates": [-97.0676914, 36.736665], "type": "Point"}, "id": "0vOB30y2J7eOUysTUwN-juKdSz8=", "properties": {"@spider": "usps_collection_boxes", "addr:city": "PONCA CITY", "addr:country": "US", "addr:full": "2800 N 14TH ST", "addr:postcode": "74601", "addr:state": "OK", "amenity": "post_box", "brand": "United States Postal Service", "brand:wikidata": "Q668687", "collection_times": "Mo-Sa 11:00", "name": "USPS COLLECTION BOX - BLUE BOX", "nsi_id": "unitedstatespostalservice-a77078", "operator": "United States Postal Service", "operator:short": "USPS", "operator:type": "public", "operator:wikidata": "Q668687", "ref": "7460100001"}, "type": "Feature"}
{"dataset_attributes": {"@spider": "usps_collection_boxes", "spider:collection_time": "2023-12-31T08:23:44.423400"}, "geometry": {"coordinates": [-97.079572, 36.703563], "type": "Point"}, "id": "OG5AwX5pywh-1wDlg2u4NsBKIQw=", "properties": {"@spider": "usps_collection_boxes", "addr:city": "PONCA CITY", "addr:country": "US", "addr:full": "402 E GRAND AVE", "addr:postcode": "74601", "addr:state": "OK", "amenity": "post_box", "brand": "United States Postal Service", "brand:wikidata": "Q668687", "collection_times": "Mo-Fr 17:00; Sa 13:00", "name": "USPS COLLECTION BOX - BLUE BOX", "note": "ON 12/24 AND 12/31, THIS BOX MAY BE COLLECTED AS EARLY AS 12 NOON.", "nsi_id": "unitedstatespostalservice-a77078", "operator": "United States Postal Service", "operator:short": "USPS", "operator:type": "public", "operator:wikidata": "Q668687", "ref": "7460100006"}, "type": "Feature"}
{"dataset_attributes": {"@spider": "usps_collection_boxes", "spider:collection_time": "2023-12-31T08:23:44.423400"}, "geometry": {"coordinates": [-97.094000253, 36.703961491], "type": "Point"}, "id": "lB1F06YKOaAbdS-5gu5kU7q-jOM=", "properties": {"@spider": "usps_collection_boxes", "addr:city": "PONCA CITY", "addr:country": "US", "addr:full": "801 W GRAND AVE", "addr:postcode": "74601", "addr:state": "OK", "amenity": "post_box", "brand": "United States Postal Service", "brand:wikidata": "Q668687", "collection_times": "Mo-Sa 12:30", "name": "USPS COLLECTION BOX - BLUE BOX", "note": "ON 12/24 AND 12/31, THIS BOX MAY BE COLLECTED AS EARLY AS 12 NOON.", "nsi_id": "unitedstatespostalservice-a77078", "operator": "United States Postal Service", "operator:short": "USPS", "operator:type": "public", "operator:wikidata": "Q668687", "ref": "7460100009"}, "type": "Feature"}
{"dataset_attributes": {"@spider": "usps_collection_boxes", "spider:collection_time": "2023-12-31T08:23:44.423400"}, "geometry": {"coordinates": [-97.0671655894, 36.7254041588], "type": "Point"}, "id": "Ncq8yMOK5DyWXJOL5fXGKS-3bYM=", "properties": {"@spider": "usps_collection_boxes", "addr:city": "PONCA CITY", "addr:country": "US", "addr:full": "2005 N 14TH ST", "addr:postcode": "74601", "addr:state": "OK", "amenity": "post_box", "brand": "United States Postal Service", "brand:wikidata": "Q668687", "collection_times": "Mo-Sa 10:00", "name": "USPS COLLECTION BOX - BLUE BOX", "nsi_id": "unitedstatespostalservice-a77078", "operator": "United States Postal Service", "operator:short": "USPS", "operator:type": "public", "operator:wikidata": "Q668687", "ref": "7460100021"}, "type": "Feature"}
{"dataset_attributes": {"@spider": "usps_collection_boxes", "spider:collection_time": "2023-12-31T08:23:44.423400"}, "geometry": {"coordinates": [-97.0791940284, 36.723540014], "type": "Point"}, "id": "6E9o5qcH5XLMOCFJnafCD-f2aME=", "properties": {"@spider": "usps_collection_boxes", "addr:city": "PONCA CITY", "addr:country": "US", "addr:full": "412 E HARTFORD AVE", "addr:postcode": "74601", "addr:state": "OK", "amenity": "post_box", "brand": "United States Postal Service", "brand:wikidata": "Q668687", "collection_times": "Mo-Sa 10:00", "name": "USPS COLLECTION BOX - BLUE BOX", "nsi_id": "unitedstatespostalservice-a77078", "operator": "United States Postal Service", "operator:short": "USPS", "operator:type": "public", "operator:wikidata": "Q668687", "ref": "7460100027"}, "type": "Feature"}
{"dataset_attributes": {"@spider": "usps_collection_boxes", "spider:collection_time": "2023-12-31T08:23:44.423400"}, "geometry": {"coordinates": [-97.0773476, 36.702962], "type": "Point"}, "id": "3d9XSzaO4qHp9Gx1fKKuG9mSyfI=", "properties": {"@spider": "usps_collection_boxes", "addr:city": "PONCA CITY", "addr:country": "US", "addr:full": "112 S 6TH ST", "addr:postcode": "74601", "addr:state": "OK", "amenity": "post_box", "brand": "United States Postal Service", "brand:wikidata": "Q668687", "collection_times": "Mo-Fr 14:00; Sa 13:30", "name": "USPS COLLECTION BOX - BLUE BOX", "note": "ON 12/24 AND 12/31, THIS BOX MAY BE COLLECTED AS EARLY AS 12 NOON.", "nsi_id": "unitedstatespostalservice-a77078", "operator": "United States Postal Service", "operator:short": "USPS", "operator:type": "public", "operator:wikidata": "Q668687", "ref": "7460100036"}, "type": "Feature"}
{"dataset_attributes": {"@spider": "usps_collection_boxes", "spider:collection_time": "2023-12-31T08:23:44.423400"}, "geometry": {"coordinates": [-97.0773447, 36.702981], "type": "Point"}, "id": "6g2S5PJ0aFtJal1OhV1F89L5dpo=", "properties": {"@spider": "usps_collection_boxes", "addr:city": "PONCA CITY", "addr:country": "US", "addr:full": "112 S 6TH ST", "addr:postcode": "74601", "addr:state": "OK", "amenity": "post_box", "brand": "United States Postal Service", "brand:wikidata": "Q668687", "collection_times": "Mo-Fr 14:00; Sa 13:30", "name": "USPS COLLECTION BOX - BLUE BOX", "note": "ON 12/24 AND 12/31, THIS BOX MAY BE COLLECTED AS EARLY AS 12 NOON.", "nsi_id": "unitedstatespostalservice-a77078", "operator": "United States Postal Service", "operator:short": "USPS", "operator:type": "public", "operator:wikidata": "Q668687", "ref": "7460100037"}, "type": "Feature"}
{"dataset_attributes": {"@spider": "usps_collection_boxes", "spider:collection_time": "2023-12-31T08:23:44.423400"}, "geometry": {"coordinates": [-97.0773566, 36.702996], "type": "Point"}, "id": "9bsBHXLqo47KZI829MW8ndzSIfM=", "properties": {"@spider": "usps_collection_boxes", "addr:city": "PONCA CITY", "addr:country": "US", "addr:full": "112 S 6TH ST", "addr:postcode": "74601", "addr:state": "OK", "amenity": "post_box", "brand": "United States Postal Service", "brand:wikidata": "Q668687", "collection_times": "Mo-Fr 14:00; Sa 13:30", "name": "USPS COLLECTION BOX - BLUE BOX", "note": "ON 12/24 AND 12/31, THIS BOX MAY BE COLLECTED AS EARLY AS 12 NOON.", "nsi_id": "unitedstatespostalservice-a77078", "operator": "United States Postal Service", "operator:short": "USPS", "operator:type": "public", "operator:wikidata": "Q668687", "ref": "7460100038"}, "type": "Feature"}
{"dataset_attributes": {"@spider": "usps_collection_boxes", "spider:collection_time": "2023-12-31T08:23:44.423400"}, "geometry": {"coordinates": [-97.079572, 36.703563], "type": "Point"}, "id": "fn1sUDzihYrmH0u0FT7awDKcpkw=", "properties": {"@spider": "usps_collection_boxes", "addr:city": "PONCA CITY", "addr:country": "US", "addr:full": "402 E GRAND AVE", "addr:postcode": "74601", "addr:state": "OK", "amenity": "post_box", "brand": "United States Postal Service", "brand:wikidata": "Q668687", "collection_times": "Mo-Fr 17:00; Sa 13:00", "name": "USPS COLLECTION BOX - PO LOBBY", "note": "ON 12/24 AND 12/31, THIS BOX MAY BE COLLECTED AS EARLY AS 12 NOON.", "nsi_id": "unitedstatespostalservice-a77078", "operator": "United States Postal Service", "operator:short": "USPS", "operator:type": "public", "operator:wikidata": "Q668687", "ref": "7460100045"}, "type": "Feature"}
{"dataset_attributes": {"@spider": "usps_collection_boxes", "spider:collection_time": "2023-12-31T08:23:44.423400"}, "geometry": {"coordinates": [-97.079572, 36.703563], "type": "Point"}, "id": "RD0z0bqTMpccmqf20XVqPhFRmM4=", "properties": {"@spider": "usps_collection_boxes", "addr:city": "PONCA CITY", "addr:country": "US", "addr:full": "402 E GRAND AVE", "addr:postcode": "74601", "addr:state": "OK", "amenity": "post_box", "brand": "United States Postal Service", "brand:wikidata": "Q668687", "collection_times": "Mo-Fr 17:00; Sa 13:00", "name": "USPS COLLECTION BOX - PO LOBBY", "note": "ON 12/24 AND 12/31, THIS BOX MAY BE COLLECTED AS EARLY AS 12 NOON.", "nsi_id": "unitedstatespostalservice-a77078", "operator": "United States Postal Service", "operator:short": "USPS", "operator:type": "public", "operator:wikidata": "Q668687", "ref": "7460100046"}, "type": "Feature"}
{"dataset_attributes": {"@spider": "usps_collection_boxes", "spider:collection_time": "2023-12-31T08:23:44.423400"}, "geometry": {"coordinates": [-97.079572, 36.703563], "type": "Point"}, "id": "lbau0O7ijBKrrBLAU9LXu2CYYm4=", "properties": {"@spider": "usps_collection_boxes", "addr:city": "PONCA CITY", "addr:country": "US", "addr:full": "402 E GRAND AVE", "addr:postcode": "74601", "addr:state": "OK", "amenity": "post_box", "brand": "United States Postal Service", "brand:wikidata": "Q668687", "collection_times": "Mo-Fr 17:00; Sa 13:00", "name": "USPS COLLECTION BOX - PO LOBBY", "note": "ON 12/24 AND 12/31, THIS BOX MAY BE COLLECTED AS EARLY AS 12 NOON.", "nsi_id": "unitedstatespostalservice-a77078", "operator": "United States Postal Service", "operator:short": "USPS", "operator:type": "public", "operator:wikidata": "Q668687", "ref": "7460100047"}, "type": "Feature"}
{"dataset_attributes": {"@spider": "usps_collection_boxes", "spider:collection_time": "2023-12-31T08:23:44.423400"}, "geometry": {"coordinates": [-97.079572, 36.703563], "type": "Point"}, "id": "Qq1w-LdbDVmZfAi_5t5XV7D7vYE=", "properties": {"@spider": "usps_collection_boxes", "addr:city": "PONCA CITY", "addr:country": "US", "addr:full": "402 E GRAND AVE", "addr:postcode": "74601", "addr:state": "OK", "amenity": "post_box", "brand": "United States Postal Service", "brand:wikidata": "Q668687", "collection_times": "Mo-Fr 17:00; Sa 13:00", "name": "USPS COLLECTION BOX - BLUE BOX", "note": "ON 12/24 AND 12/31, THIS BOX MAY BE COLLECTED AS EARLY AS 12 NOON.", "nsi_id": "unitedstatespostalservice-a77078", "operator": "United States Postal Service", "operator:short": "USPS", "operator:type": "public", "operator:wikidata": "Q668687", "ref": "7460100048"}, "type": "Feature"}
{"dataset_attributes": {"@spider": "usps_collection_boxes", "spider:collection_time": "2023-12-31T08:23:44.423400"}, "geometry": {"coordinates": [-97.0812861, 36.703485], "type": "Point"}, "id": "lswBtS4S5NCIm5FULU_Iou2AK6o=", "properties": {"@spider": "usps_collection_boxes", "addr:city": "PONCA CITY", "addr:country": "US", "addr:full": "222 E GRAND AVE", "addr:postcode": "74601", "addr:state": "OK", "amenity": "post_box", "brand": "United States Postal Service", "brand:wikidata": "Q668687", "collection_times": "Mo-Fr 10:30", "name": "USPS COLLECTION BOX - BLUE BOX", "nsi_id": "unitedstatespostalservice-a77078", "operator": "United States Postal Service", "operator:short": "USPS", "operator:type": "public", "operator:wikidata": "Q668687", "ref": "7460100052"}, "type": "Feature"}
{"dataset_attributes": {"@spider": "usps_collection_boxes", "spider:collection_time": "2023-12-31T08:23:44.423400"}, "geometry": {"coordinates": [-97.079560889, 36.703550558], "type": "Point"}, "id": "-tEiIidCcU8yauSuDxxMuftPAc0=", "properties": {"@spider": "usps_collection_boxes", "addr:city": "PONCA CITY", "addr:country": "US", "addr:full": "402 E GRAND AVE", "addr:postcode": "74601", "addr:state": "OK", "amenity": "post_box", "brand": "United States Postal Service", "brand:wikidata": "Q668687", "collection_times": "Mo-Fr 17:00; Sa 13:00", "name": "USPS COLLECTION BOX - PO LOBBY", "note": "ON 12/24 AND 12/31, THIS BOX MAY BE COLLECTED AS EARLY AS 12 NOON.", "nsi_id": "unitedstatespostalservice-a77078", "operator": "United States Postal Service", "operator:short": "USPS", "operator:type": "public", "operator:wikidata": "Q668687", "ref": "7460100058"}, "type": "Feature"}
{"dataset_attributes": {"@spider": "usps_collection_boxes", "spider:collection_time": "2023-12-31T08:23:44.423400"}, "geometry": {"coordinates": [-97.0580619, 36.708715], "type": "Point"}, "id": "bOHaJmWHBrMbxMcW4P5XpSYO-GE=", "properties": {"@spider": "usps_collection_boxes", "addr:city": "PONCA CITY", "addr:country": "US", "addr:full": "1916 LAKE RD", "addr:postcode": "74604", "addr:state": "OK", "amenity": "post_box", "brand": "United States Postal Service", "brand:wikidata": "Q668687", "collection_times": "Mo-Fr 10:00", "name": "USPS COLLECTION BOX - BLUE BOX", "nsi_id": "unitedstatespostalservice-a77078", "operator": "United States Postal Service", "operator:short": "USPS", "operator:type": "public", "operator:wikidata": "Q668687", "ref": "7460400000"}, "type": "Feature"}
{"dataset_attributes": {"@spider": "usps_collection_boxes", "spider:collection_time": "2023-12-31T08:23:44.423400"}, "geometry": {"coordinates": [-97.0488461, 36.680937], "type": "Point"}, "id": "qN8MPPP2eySXZVMwE4uflk6qsSc=", "properties": {"@spider": "usps_collection_boxes", "addr:city": "PONCA CITY", "addr:country": "US", "addr:full": "64820 US HIGHWAY 60", "addr:postcode": "74604", "addr:state": "OK", "amenity": "post_box", "brand": "United States Postal Service", "brand:wikidata": "Q668687", "collection_times": "Mo-Sa 13:00", "name": "USPS COLLECTION BOX - BLUE BOX", "note": "ON 12/24 AND 12/31, THIS BOX MAY BE COLLECTED AS EARLY AS 12 NOON.", "nsi_id": "unitedstatespostalservice-a77078", "operator": "United States Postal Service", "operator:short": "USPS", "operator:type": "public", "operator:wikidata": "Q668687", "ref": "7460400003"}, "type": "Feature"}
{"dataset_attributes": {"@spider": "usps_collection_boxes", "spider:collection_time": "2023-12-31T08:23:44.423400"}, "geometry": {"coordinates": [-97.444562, 36.528872], "type": "Point"}, "id": "jtf81n0ugGJj0J0XOixdMRB0H7Q=", "properties": {"@spider": "usps_collection_boxes", "addr:city": "BILLINGS", "addr:country": "US", "addr:full": "113 W MAIN ST", "addr:postcode": "74630", "addr:state": "OK", "amenity": "post_box", "brand": "United States Postal Service", "brand:wikidata": "Q668687", "collection_times": "Mo-Fr 14:45; Sa 09:30", "name": "USPS COLLECTION BOX - PO LOBBY", "note": "ON 12/24 AND 12/31, THIS BOX MAY BE COLLECTED AS EARLY AS 12 NOON.", "nsi_id": "unitedstatespostalservice-a77078", "operator": "United States Postal Service", "operator:short": "USPS", "operator:type": "public", "operator:wikidata": "Q668687", "ref": "7463000001"}, "type": "Feature"}
{"dataset_attributes": {"@spider": "usps_collection_boxes", "spider:collection_time": "2023-12-31T08:23:44.423400"}, "geometry": {"coordinates": [-97.4445615, 36.528871466], "type": "Point"}, "id": "J18KKCSbRaR6e5nkujkqdhVlsMg=", "properties": {"@spider": "usps_collection_boxes", "addr:city": "BILLINGS", "addr:country": "US", "addr:full": "113 W MAIN ST", "addr:postcode": "74630", "addr:state": "OK", "amenity": "post_box", "brand": "United States Postal Service", "brand:wikidata": "Q668687", "collection_times": "Mo-Fr 15:00", "name": "USPS COLLECTION BOX - PO LOBBY", "note": "ON 12/24 AND 12/31, THIS BOX MAY BE COLLECTED AS EARLY AS 12 NOON.", "nsi_id": "unitedstatespostalservice-a77078", "operator": "United States Postal Service", "operator:short": "USPS", "operator:type": "public", "operator:wikidata": "Q668687", "ref": "7463000003"}, "type": "Feature"}
{"dataset_attributes": {"@spider": "usps_collection_boxes", "spider:collection_time": "2023-12-31T08:23:44.423400"}, "geometry": {"coordinates": [-97.2845469682, 36.8039899817], "type": "Point"}, "id": "Yf_h3tkQBqV8zQ8qIjVnGcHSp5M=", "properties": {"@spider": "usps_collection_boxes", "addr:city": "BLACKWELL", "addr:country": "US", "addr:full": "203 W BLACKWELL AVE", "addr:postcode": "74631", "addr:state": "OK", "amenity": "post_box", "brand": "United States Postal Service", "brand:wikidata": "Q668687", "collection_times": "Mo-Fr 15:30; Sa 12:00", "name": "USPS COLLECTION BOX - BLUE BOX", "note": "ON 12/24 AND 12/31, THIS BOX MAY BE COLLECTED AS EARLY AS 12 NOON.", "nsi_id": "unitedstatespostalservice-a77078", "operator": "United States Postal Service", "operator:short": "USPS", "operator:type": "public", "operator:wikidata": "Q668687", "ref": "7463100002"}, "type": "Feature"}
{"dataset_attributes": {"@spider": "usps_collection_boxes", "spider:collection_time": "2023-12-31T08:23:44.423400"}, "geometry": {"coordinates": [-97.2845469682, 36.8039899817], "type": "Point"}, "id": "D-0Eg3XWOlfy-oN-zxuD75gVZjc=", "properties": {"@spider": "usps_collection_boxes", "addr:city": "BLACKWELL", "addr:country": "US", "addr:full": "203 W BLACKWELL AVE", "addr:postcode": "74631", "addr:state": "OK", "amenity": "post_box", "brand": "United States Postal Service", "brand:wikidata": "Q668687", "collection_times": "Mo-Fr 15:30; Sa 12:00", "name": "USPS COLLECTION BOX - PO LOBBY", "note": "ON 12/24 AND 12/31, THIS BOX MAY BE COLLECTED AS EARLY AS 12 NOON.", "nsi_id": "unitedstatespostalservice-a77078", "operator": "United States Postal Service", "operator:short": "USPS", "operator:type": "public", "operator:wikidata": "Q668687", "ref": "7463100028"}, "type": "Feature"}
{"dataset_attributes": {"@spider": "usps_collection_boxes", "spider:collection_time": "2023-12-31T08:23:44.423400"}, "geometry": {"coordinates": [-97.2845469682, 36.8039899817], "type": "Point"}, "id": "UkE8m5j-fd6ofcTg5HeQ2eb1EeU=", "properties": {"@spider": "usps_collection_boxes", "addr:city": "BLACKWELL", "addr:country": "US", "addr:full": "203 W BLACKWELL AVE", "addr:postcode": "74631", "addr:state": "OK", "amenity": "post_box", "brand": "United States Postal Service", "brand:wikidata": "Q668687", "collection_times": "Mo-Fr 15:30; Sa 12:00", "name": "USPS COLLECTION BOX - PO LOBBY", "note": "ON 12/24 AND 12/31, THIS BOX MAY BE COLLECTED AS EARLY AS 12 NOON.", "nsi_id": "unitedstatespostalservice-a77078", "operator": "United States Postal Service", "operator:short": "USPS", "operator:type": "public", "operator:wikidata": "Q668687", "ref": "7463100029"}, "type": "Feature"}
{"dataset_attributes": {"@spider": "usps_collection_boxes", "spider:collection_time": "2023-12-31T08:23:44.423400"}, "geometry": {"coordinates": [-97.2845469682, 36.8039899817], "type": "Point"}, "id": "XZl-rjxMx4_vYouiHE2yC3jfA5k=", "properties": {"@spider": "usps_collection_boxes", "addr:city": "BLACKWELL", "addr:country": "US", "addr:full": "203 W BLACKWELL AVE", "addr:postcode": "74631", "addr:state": "OK", "amenity": "post_box", "brand": "United States Postal Service", "brand:wikidata": "Q668687", "collection_times": "Mo-Fr 16:00; Sa 12:00", "name": "USPS COLLECTION BOX - PO LOBBY", "note": "ON 12/24 AND 12/31, THIS BOX MAY BE COLLECTED AS EARLY AS 12 NOON.", "nsi_id": "unitedstatespostalservice-a77078", "operator": "United States Postal Service", "operator:short": "USPS", "operator:type": "public", "operator:wikidata": "Q668687", "ref": "7463100031"}, "type": "Feature"}
{"dataset_attributes": {"@spider": "usps_collection_boxes", "spider:collection_time": "2023-12-31T08:23:44.423400"}, "geometry": {"coordinates": [-97.334546, 36.92342], "type": "Point"}, "id": "tjilxoiSSSAyDdLFSlscDBQdv3E=", "properties": {"@spider": "usps_collection_boxes", "addr:city": "BRAMAN", "addr:country": "US", "addr:full": "410 BROADWAY AVE", "addr:postcode": "74632", "addr:state": "OK", "amenity": "post_box", "brand": "United States Postal Service", "brand:wikidata": "Q668687", "collection_times": "Mo-Fr 12:30; Sa 08:00", "name": "USPS COLLECTION BOX - PO LOBBY", "note": "ON 12/24 AND 12/31, THIS BOX MAY BE COLLECTED AS EARLY AS 12 NOON.", "nsi_id": "unitedstatespostalservice-a77078", "operator": "United States Postal Service", "operator:short": "USPS", "operator:type": "public", "operator:wikidata": "Q668687", "ref": "7463200002"}, "type": "Feature"}
{"dataset_attributes": {"@spider": "usps_collection_boxes", "spider:collection_time": "2023-12-31T08:23:44.423400"}, "geometry": {"coordinates": [-97.334557363, 36.923165612], "type": "Point"}, "id": "kzf2GVqLOAMQkVkCey6wP1rjP7Y=", "properties": {"@spider": "usps_collection_boxes", "addr:city": "BRAMAN", "addr:country": "US", "addr:full": "410 BROADWAY AVE", "addr:postcode": "74632", "addr:state": "OK", "amenity": "post_box", "brand": "United States Postal Service", "brand:wikidata": "Q668687", "collection_times": "Mo-Fr 13:00", "name": "USPS COLLECTION BOX - PO LOBBY", "note": "ON 12/24 AND 12/31, THIS BOX MAY BE COLLECTED AS EARLY AS 12 NOON.", "nsi_id": "unitedstatespostalservice-a77078", "operator": "United States Postal Service", "operator:short": "USPS", "operator:type": "public", "operator:wikidata": "Q668687", "ref": "7463200004"}, "type": "Feature"}
{"dataset_attributes": {"@spider": "usps_collection_boxes", "spider:collection_time": "2023-12-31T08:23:44.423400"}, "geometry": {"coordinates": [-96.726362214, 36.698072074], "type": "Point"}, "id": "ctEWhTXLT1hfkaOf4GaGjwjaaqI=", "properties": {"@spider": "usps_collection_boxes", "addr:city": "BURBANK", "addr:country": "US", "addr:full": "100 E MCCORKLE AVE", "addr:postcode": "74633", "addr:state": "OK", "amenity": "post_box", "brand": "United States Postal Service", "brand:wikidata": "Q668687", "collection_times": "Mo-Fr 11:30; Sa 09:30", "name": "USPS COLLECTION BOX - PO LOBBY", "nsi_id": "unitedstatespostalservice-a77078", "operator": "United States Postal Service", "operator:short": "USPS", "operator:type": "public", "operator:wikidata": "Q668687", "ref": "7463300001"}, "type": "Feature"}
{"dataset_attributes": {"@spider": "usps_collection_boxes", "spider:collection_time": "2023-12-31T08:23:44.423400"}, "geometry": {"coordinates": [-96.7034970115, 36.5737709946], "type": "Point"}, "id": "hBg-kU_NUhkfSGKv-lOY9YUdoMA=", "properties": {"@spider": "usps_collection_boxes", "addr:city": "FAIRFAX", "addr:country": "US", "addr:full": "151 E ELM ST", "addr:postcode": "74637", "addr:state": "OK", "amenity": "post_box", "brand": "United States Postal Service", "brand:wikidata": "Q668687", "collection_times": "Mo-Fr 15:30; Sa 10:00", "name": "USPS COLLECTION BOX - BLUE BOX", "note": "ON 12/24 AND 12/31, THIS BOX MAY BE COLLECTED AS EARLY AS 12 NOON.", "nsi_id": "unitedstatespostalservice-a77078", "operator": "United States Postal Service", "operator:short": "USPS", "operator:type": "public", "operator:wikidata": "Q668687", "ref": "7463700000"}, "type": "Feature"}
{"dataset_attributes": {"@spider": "usps_collection_boxes", "spider:collection_time": "2023-12-31T08:23:44.423400"}, "geometry": {"coordinates": [-96.7034835, 36.573496479], "type": "Point"}, "id": "Pv9jlQTjagSVQ6XrStuEVCW7Rd8=", "properties": {"@spider": "usps_collection_boxes", "addr:city": "FAIRFAX", "addr:country": "US", "addr:full": "151 E ELM ST", "addr:postcode": "74637", "addr:state": "OK", "amenity": "post_box", "brand": "United States Postal Service", "brand:wikidata": "Q668687", "collection_times": "Mo-Fr 15:30; Sa 10:00", "name": "USPS COLLECTION BOX - PO LOBBY", "note": "ON 12/24 AND 12/31, THIS BOX MAY BE COLLECTED AS EARLY AS 12 NOON.", "nsi_id": "unitedstatespostalservice-a77078", "operator": "United States Postal Service", "operator:short": "USPS", "operator:type": "public", "operator:wikidata": "Q668687", "ref": "7463700002"}, "type": "Feature"}
{"dataset_attributes": {"@spider": "usps_collection_boxes", "spider:collection_time": "2023-12-31T08:23:44.423400"}, "geometry": {"coordinates": [-96.7034835, 36.573496479], "type": "Point"}, "id": "WaJJ6OuUpXH-JxiA2LX12AgFqMM=", "properties": {"@spider": "usps_collection_boxes", "addr:city": "FAIRFAX", "addr:country": "US", "addr:full": "151 E ELM ST", "addr:postcode": "74637", "addr:state": "OK", "amenity": "post_box", "brand": "United States Postal Service", "brand:wikidata": "Q668687", "collection_times": "Mo-Fr 16:00", "name": "USPS COLLECTION BOX - PO LOBBY", "note": "ON 12/24 AND 12/31, THIS BOX MAY BE COLLECTED AS EARLY AS 12 NOON.", "nsi_id": "unitedstatespostalservice-a77078", "operator": "United States Postal Service", "operator:short": "USPS", "operator:type": "public", "operator:wikidata": "Q668687", "ref": "7463700003"}, "type": "Feature"}
{"dataset_attributes": {"@spider": "usps_collection_boxes", "spider:collection_time": "2023-12-31T08:23:44.423400"}, "geometry": {"coordinates": [-97.661246, 36.56461], "type": "Point"}, "id": "vIYbQraXLQg4MxwQFPSfJ66Z-Vw=", "properties": {"@spider": "usps_collection_boxes", "addr:city": "HUNTER", "addr:country": "US", "addr:full": "126 N MAINE ST", "addr:postcode": "74640", "addr:state": "OK", "amenity": "post_box", "brand": "United States Postal Service", "brand:wikidata": "Q668687", "collection_times": "Mo-Fr 13:45; Sa 09:00", "name": "USPS COLLECTION BOX - PO LOBBY", "note": "ON 12/24 AND 12/31, THIS BOX MAY BE COLLECTED AS EARLY AS 12 NOON.", "nsi_id": "unitedstatespostalservice-a77078", "operator": "United States Postal Service", "operator:short": "USPS", "operator:type": "public", "operator:wikidata": "Q668687", "ref": "7464000001"}, "type": "Feature"}
{"dataset_attributes": {"@spider": "usps_collection_boxes", "spider:collection_time": "2023-12-31T08:23:44.423400"}, "geometry": {"coordinates": [-97.661246703, 36.564605162], "type": "Point"}, "id": "LYcCnYHzfBYCy1B8AagXtLcQbes=", "properties": {"@spider": "usps_collection_boxes", "addr:city": "HUNTER", "addr:country": "US", "addr:full": "126 N MAINE ST", "addr:postcode": "74640", "addr:state": "OK", "amenity": "post_box", "brand": "United States Postal Service", "brand:wikidata": "Q668687", "collection_times": "Mo-Fr 14:00", "name": "USPS COLLECTION BOX - PO LOBBY", "note": "ON 12/24 AND 12/31, THIS BOX MAY BE COLLECTED AS EARLY AS 12 NOON.", "nsi_id": "unitedstatespostalservice-a77078", "operator": "United States Postal Service", "operator:short": "USPS", "operator:type": "public", "operator:wikidata": "Q668687", "ref": "7464000003"}, "type": "Feature"}
{"dataset_attributes": {"@spider": "usps_collection_boxes", "spider:collection_time": "2023-12-31T08:23:44.423400"}, "geometry": {"coordinates": [-96.859758, 36.76592], "type": "Point"}, "id": "AeUmJ5OViYM16DCUUbp85umnxKc=", "properties": {"@spider": "usps_collection_boxes", "addr:city": "KAW CITY", "addr:country": "US", "addr:full": "701 MORGAN SQ", "addr:postcode": "74641", "addr:state": "OK", "amenity": "post_box", "brand": "United States Postal Service", "brand:wikidata": "Q668687", "collection_times": "Mo-Fr 15:45; Sa 11:00", "name": "USPS COLLECTION BOX - PO LOBBY", "note": "ON 12/24 AND 12/31, THIS BOX MAY BE COLLECTED AS EARLY AS 12 NOON.", "nsi_id": "unitedstatespostalservice-a77078", "operator": "United States Postal Service", "operator:short": "USPS", "operator:type": "public", "operator:wikidata": "Q668687", "ref": "7464100000"}, "type": "Feature"}
{"dataset_attributes": {"@spider": "usps_collection_boxes", "spider:collection_time": "2023-12-31T08:23:44.423400"}, "geometry": {"coordinates": [-96.86034452, 36.764565286], "type": "Point"}, "id": "T2wHNJZ_MdaqDU0dxUlulmw44xQ=", "properties": {"@spider": "usps_collection_boxes", "addr:city": "KAW CITY", "addr:country": "US", "addr:full": "701 MORGAN SQ", "addr:postcode": "74641", "addr:state": "OK", "amenity": "post_box", "brand": "United States Postal Service", "brand:wikidata": "Q668687", "collection_times": "Mo-Fr 16:30; Sa 10:30", "name": "USPS COLLECTION BOX - PO LOBBY", "note": "ON 12/24 AND 12/31, THIS BOX MAY BE COLLECTED AS EARLY AS 12 NOON.", "nsi_id": "unitedstatespostalservice-a77078", "operator": "United States Postal Service", "operator:short": "USPS", "operator:type": "public", "operator:wikidata": "Q668687", "ref": "7464100001"}, "type": "Feature"}
{"dataset_attributes": {"@spider": "usps_collection_boxes", "spider:collection_time": "2023-12-31T08:23:44.423400"}, "geometry": {"coordinates": [-97.556881, 36.690831], "type": "Point"}, "id": "vIWAk9u_iHhQgxl8q14diawMXmw=", "properties": {"@spider": "usps_collection_boxes", "addr:city": "LAMONT", "addr:country": "US", "addr:full": "102 N MAIN ST", "addr:postcode": "74643", "addr:state": "OK", "amenity": "post_box", "brand": "United States Postal Service", "brand:wikidata": "Q668687", "collection_times": "Mo-Fr 11:30; Sa 09:30", "name": "USPS COLLECTION BOX - PO LOBBY", "nsi_id": "unitedstatespostalservice-a77078", "operator": "United States Postal Service", "operator:short": "USPS", "operator:type": "public", "operator:wikidata": "Q668687", "ref": "7464300001"}, "type": "Feature"}
{"dataset_attributes": {"@spider": "usps_collection_boxes", "spider:collection_time": "2023-12-31T08:23:44.423400"}, "geometry": {"coordinates": [-97.556792589, 36.690771411], "type": "Point"}, "id": "OZeb_NFYmsIxaQIhvuySdzliAX8=", "properties": {"@spider": "usps_collection_boxes", "addr:city": "LAMONT", "addr:country": "US", "addr:full": "101 N MAIN ST", "addr:postcode": "74643", "addr:state": "OK", "amenity": "post_box", "brand": "United States Postal Service", "brand:wikidata": "Q668687", "collection_times": "Mo-Fr 11:30", "name": "USPS COLLECTION BOX - PO LOBBY", "nsi_id": "unitedstatespostalservice-a77078", "operator": "United States Postal Service", "operator:short": "USPS", "operator:type": "public", "operator:wikidata": "Q668687", "ref": "7464300002"}, "type": "Feature"}
{"dataset_attributes": {"@spider": "usps_collection_boxes", "spider:collection_time": "2023-12-31T08:23:44.423400"}, "geometry": {"coordinates": [-97.151072, 36.560661], "type": "Point"}, "id": "I429jKa5-W_Cms00yGuFfSAPbb8=", "properties": {"@spider": "usps_collection_boxes", "addr:city": "MARLAND", "addr:country": "US", "addr:full": "375 N MAIN ST", "addr:postcode": "74644", "addr:state": "OK", "amenity": "post_box", "brand": "United States Postal Service", "brand:wikidata": "Q668687", "collection_times": "Mo-Fr 11:30; Sa 11:00", "name": "USPS COLLECTION BOX - PO LOBBY", "nsi_id": "unitedstatespostalservice-a77078", "operator": "United States Postal Service", "operator:short": "USPS", "operator:type": "public", "operator:wikidata": "Q668687", "ref": "7464400003"}, "type": "Feature"}
{"dataset_attributes": {"@spider": "usps_collection_boxes", "spider:collection_time": "2023-12-31T08:23:44.423400"}, "geometry": {"coordinates": [-97.151054588, 36.560666851], "type": "Point"}, "id": "o_jU4VPDJmR3iznNBcKWxR5e9nA=", "properties": {"@spider": "usps_collection_boxes", "addr:city": "MARLAND", "addr:country": "US", "addr:full": "375 N MAIN ST", "addr:postcode": "74644", "addr:state": "OK", "amenity": "post_box", "brand": "United States Postal Service", "brand:wikidata": "Q668687", "collection_times": "Mo-Fr 11:45; Sa 11:00", "name": "USPS COLLECTION BOX - PO LOBBY", "nsi_id": "unitedstatespostalservice-a77078", "operator": "United States Postal Service", "operator:short": "USPS", "operator:type": "public", "operator:wikidata": "Q668687", "ref": "7464400004"}, "type": "Feature"}
{"dataset_attributes": {"@spider": "usps_collection_boxes", "spider:collection_time": "2023-12-31T08:23:44.423400"}, "geometry": {"coordinates": [-97.0539404, 36.88237], "type": "Point"}, "id": "6BxLjuencXi3eI3eeFdllcwF2nE=", "properties": {"@spider": "usps_collection_boxes", "addr:city": "NEWKIRK", "addr:country": "US", "addr:full": "101 S MAIN ST", "addr:postcode": "74647", "addr:state": "OK", "amenity": "post_box", "brand": "United States Postal Service", "brand:wikidata": "Q668687", "collection_times": "Mo-Fr 16:15; Sa 10:15", "name": "USPS COLLECTION BOX - BLUE BOX", "note": "ON 12/24 AND 12/31, THIS BOX MAY BE COLLECTED AS EARLY AS 12 NOON.", "nsi_id": "unitedstatespostalservice-a77078", "operator": "United States Postal Service", "operator:short": "USPS", "operator:type": "public", "operator:wikidata": "Q668687", "ref": "7464700000"}, "type": "Feature"}
{"dataset_attributes": {"@spider": "usps_collection_boxes", "spider:collection_time": "2023-12-31T08:23:44.423400"}, "geometry": {"coordinates": [-97.0539743, 36.882045], "type": "Point"}, "id": "K_wNNy8N4JhxxBytRZJ3HoeL12s=", "properties": {"@spider": "usps_collection_boxes", "addr:city": "NEWKIRK", "addr:country": "US", "addr:full": "101 S MAIN ST", "addr:postcode": "74647", "addr:state": "OK", "amenity": "post_box", "brand": "United States Postal Service", "brand:wikidata": "Q668687", "collection_times": "Mo-Fr 16:15; Sa 10:15", "name": "USPS COLLECTION BOX - PO LOBBY", "note": "ON 12/24 AND 12/31, THIS BOX MAY BE COLLECTED AS EARLY AS 12 NOON.", "nsi_id": "unitedstatespostalservice-a77078", "operator": "United States Postal Service", "operator:short": "USPS", "operator:type": "public", "operator:wikidata": "Q668687", "ref": "7464700002"}, "type": "Feature"}
{"dataset_attributes": {"@spider": "usps_collection_boxes", "spider:collection_time": "2023-12-31T08:23:44.423400"}, "geometry": {"coordinates": [-97.053658385, 36.882026528], "type": "Point"}, "id": "idTsmptXtZD-tLn-RtB_pclqAe4=", "properties": {"@spider": "usps_collection_boxes", "addr:city": "NEWKIRK", "addr:country": "US", "addr:full": "101 S MAIN ST", "addr:postcode": "74647", "addr:state": "OK", "amenity": "post_box", "brand": "United States Postal Service", "brand:wikidata": "Q668687", "collection_times": "Mo-Fr 16:15", "name": "USPS COLLECTION BOX - PO LOBBY", "note": "ON 12/24 AND 12/31, THIS BOX MAY BE COLLECTED AS EARLY AS 12 NOON.", "nsi_id": "unitedstatespostalservice-a77078", "operator": "United States Postal Service", "operator:short": "USPS", "operator:type": "public", "operator:wikidata": "Q668687", "ref": "7464700003"}, "type": "Feature"}
{"dataset_attributes": {"@spider": "usps_collection_boxes", "spider:collection_time": "2023-12-31T08:23:44.423400"}, "geometry": {"coordinates": [-96.73205, 36.503987], "type": "Point"}, "id": "QMYJrmAW7AOtHguLOmDiaBHDktw=", "properties": {"@spider": "usps_collection_boxes", "addr:city": "RALSTON", "addr:country": "US", "addr:full": "560 E MAIN ST", "addr:postcode": "74650", "addr:state": "OK", "amenity": "post_box", "brand": "United States Postal Service", "brand:wikidata": "Q668687", "collection_times": "Mo-Fr 16:00; Sa 10:00", "name": "USPS COLLECTION BOX - BLUE BOX", "note": "ON 12/24 AND 12/31, THIS BOX MAY BE COLLECTED AS EARLY AS 12 NOON.", "nsi_id": "unitedstatespostalservice-a77078", "operator": "United States Postal Service", "operator:short": "USPS", "operator:type": "public", "operator:wikidata": "Q668687", "ref": "7465000000"}, "type": "Feature"}
{"dataset_attributes": {"@spider": "usps_collection_boxes", "spider:collection_time": "2023-12-31T08:23:44.423400"}, "geometry": {"coordinates": [-96.73205, 36.503987], "type": "Point"}, "id": "0ZahP8qEzdX4Z3XECiUu34L5MhM=", "properties": {"@spider": "usps_collection_boxes", "addr:city": "RALSTON", "addr:country": "US", "addr:full": "560 E MAIN ST", "addr:postcode": "74650", "addr:state": "OK", "amenity": "post_box", "brand": "United States Postal Service", "brand:wikidata": "Q668687", "collection_times": "Mo-Fr 16:15; Sa 10:00", "name": "USPS COLLECTION BOX - PO LOBBY", "note": "ON 12/24 AND 12/31, THIS BOX MAY BE COLLECTED AS EARLY AS 12 NOON.", "nsi_id": "unitedstatespostalservice-a77078", "operator": "United States Postal Service", "operator:short": "USPS", "operator:type": "public", "operator:wikidata": "Q668687", "ref": "7465000001"}, "type": "Feature"}
{"dataset_attributes": {"@spider": "usps_collection_boxes", "spider:collection_time": "2023-12-31T08:23:44.423400"}, "geometry": {"coordinates": [-96.7314825, 36.503929521], "type": "Point"}, "id": "x5daZb6sFq2fIvSPknR3AqM1WDU=", "properties": {"@spider": "usps_collection_boxes", "addr:city": "RALSTON", "addr:country": "US", "addr:full": "560 E MAIN ST", "addr:postcode": "74650", "addr:state": "OK", "amenity": "post_box", "brand": "United States Postal Service", "brand:wikidata": "Q668687", "collection_times": "Mo-Fr 16:30; Sa 12:30", "name": "USPS COLLECTION BOX - PO LOBBY", "note": "ON 12/24 AND 12/31, THIS BOX MAY BE COLLECTED AS EARLY AS 12 NOON.", "nsi_id": "unitedstatespostalservice-a77078", "operator": "United States Postal Service", "operator:short": "USPS", "operator:type": "public", "operator:wikidata": "Q668687", "ref": "7465000003"}, "type": "Feature"}
{"dataset_attributes": {"@spider": "usps_collection_boxes", "spider:collection_time": "2023-12-31T08:23:44.423400"}, "geometry": {"coordinates": [-97.177312, 36.459372], "type": "Point"}, "id": "0zBIWlNhmdNoJIgvC_b1gITbdbs=", "properties": {"@spider": "usps_collection_boxes", "addr:city": "RED ROCK", "addr:country": "US", "addr:full": "500 MCKINLEY ST", "addr:postcode": "74651", "addr:state": "OK", "amenity": "post_box", "brand": "United States Postal Service", "brand:wikidata": "Q668687", "collection_times": "Mo-Fr 11:45; Sa 10:00", "name": "USPS COLLECTION BOX - PO LOBBY", "nsi_id": "unitedstatespostalservice-a77078", "operator": "United States Postal Service", "operator:short": "USPS", "operator:type": "public", "operator:wikidata": "Q668687", "ref": "7465100002"}, "type": "Feature"}
{"dataset_attributes": {"@spider": "usps_collection_boxes", "spider:collection_time": "2023-12-31T08:23:44.423400"}, "geometry": {"coordinates": [-97.177341413, 36.459392587], "type": "Point"}, "id": "JUQ-xczROKHSGZlkPrr0ZyyVy_s=", "properties": {"@spider": "usps_collection_boxes", "addr:city": "RED ROCK", "addr:country": "US", "addr:full": "500 MCKINLEY ST", "addr:postcode": "74651", "addr:state": "OK", "amenity": "post_box", "brand": "United States Postal Service", "brand:wikidata": "Q668687", "collection_times": "Mo-Fr 12:00", "name": "USPS COLLECTION BOX - PO LOBBY", "nsi_id": "unitedstatespostalservice-a77078", "operator": "United States Postal Service", "operator:short": "USPS", "operator:type": "public", "operator:wikidata": "Q668687", "ref": "7465100004"}, "type": "Feature"}
{"dataset_attributes": {"@spider": "usps_collection_boxes", "spider:collection_time": "2023-12-31T08:23:44.423400"}, "geometry": {"coordinates": [-96.6613766, 36.77968], "type": "Point"}, "id": "dvtVidgx9EGDrTopOQqyQ-dUJ90=", "properties": {"@spider": "usps_collection_boxes", "addr:city": "SHIDLER", "addr:country": "US", "addr:full": "301 S COSDEN AVE", "addr:postcode": "74652", "addr:state": "OK", "amenity": "post_box", "brand": "United States Postal Service", "brand:wikidata": "Q668687", "collection_times": "Mo-Fr 11:30; Sa 09:00", "name": "USPS COLLECTION BOX - BLUE BOX", "nsi_id": "unitedstatespostalservice-a77078", "operator": "United States Postal Service", "operator:short": "USPS", "operator:type": "public", "operator:wikidata": "Q668687", "ref": "7465200000"}, "type": "Feature"}
{"dataset_attributes": {"@spider": "usps_collection_boxes", "spider:collection_time": "2023-12-31T08:23:44.423400"}, "geometry": {"coordinates": [-96.661234, 36.779734], "type": "Point"}, "id": "y-YJZ1tT6-bqRAC88y8tVE-qP5M=", "properties": {"@spider": "usps_collection_boxes", "addr:city": "SHIDLER", "addr:country": "US", "addr:full": "301 S COSDEN AVE", "addr:postcode": "74652", "addr:state": "OK", "amenity": "post_box", "brand": "United States Postal Service", "brand:wikidata": "Q668687", "collection_times": "Mo-Fr 11:15; Sa 09:00", "name": "USPS COLLECTION BOX - PO LOBBY", "nsi_id": "unitedstatespostalservice-a77078", "operator": "United States Postal Service", "operator:short": "USPS", "operator:type": "public", "operator:wikidata": "Q668687", "ref": "7465200001"}, "type": "Feature"}
{"dataset_attributes": {"@spider": "usps_collection_boxes", "spider:collection_time": "2023-12-31T08:23:44.423400"}, "geometry": {"coordinates": [-96.661234, 36.779734], "type": "Point"}, "id": "5lNVKckUwOYv1csR7sMT2AM9tdU=", "properties": {"@spider": "usps_collection_boxes", "addr:city": "SHIDLER", "addr:country": "US", "addr:full": "301 S COSDEN AVE", "addr:postcode": "74652", "addr:state": "OK", "amenity": "post_box", "brand": "United States Postal Service", "brand:wikidata": "Q668687", "collection_times": "Mo-Fr 11:15; Sa 09:00", "name": "USPS COLLECTION BOX - PO LOBBY", "nsi_id": "unitedstatespostalservice-a77078", "operator": "United States Postal Service", "operator:short": "USPS", "operator:type": "public", "operator:wikidata": "Q668687", "ref": "7465200002"}, "type": "Feature"}
{"dataset_attributes": {"@spider": "usps_collection_boxes", "spider:collection_time": "2023-12-31T08:23:44.423400"}, "geometry": {"coordinates": [-96.66125891, 36.77974759], "type": "Point"}, "id": "CnMnkhrBcfH7BRWeQsCBOxziI0g=", "properties": {"@spider": "usps_collection_boxes", "addr:city": "SHIDLER", "addr:country": "US", "addr:full": "301 S COSDEN AVE", "addr:postcode": "74652", "addr:state": "OK", "amenity": "post_box", "brand": "United States Postal Service", "brand:wikidata": "Q668687", "collection_times": "Mo-Fr 11:30", "name": "USPS COLLECTION BOX - PO LOBBY", "nsi_id": "unitedstatespostalservice-a77078", "operator": "United States Postal Service", "operator:short": "USPS", "operator:type": "public", "operator:wikidata": "Q668687", "ref": "7465200003"}, "type": "Feature"}
{"dataset_attributes": {"@spider": "usps_collection_boxes", "spider:collection_time": "2023-12-31T08:23:44.423400"}, "geometry": {"coordinates": [-97.3104688, 36.693464], "type": "Point"}, "id": "lMF56uq-7WFf2fQu4gTJWOPGnrI=", "properties": {"@spider": "usps_collection_boxes", "addr:city": "TONKAWA", "addr:country": "US", "addr:full": "1315 N MAIN ST", "addr:postcode": "74653", "addr:state": "OK", "amenity": "post_box", "brand": "United States Postal Service", "brand:wikidata": "Q668687", "collection_times": "Mo-Sa 09:30", "name": "USPS COLLECTION BOX - BLUE BOX", "nsi_id": "unitedstatespostalservice-a77078", "operator": "United States Postal Service", "operator:short": "USPS", "operator:type": "public", "operator:wikidata": "Q668687", "ref": "7465300000"}, "type": "Feature"}
{"dataset_attributes": {"@spider": "usps_collection_boxes", "spider:collection_time": "2023-12-31T08:23:44.423400"}, "geometry": {"coordinates": [-97.3073927, 36.679652], "type": "Point"}, "id": "WxM2COFd68Y5SNBXE-_QBze1VAw=", "properties": {"@spider": "usps_collection_boxes", "addr:city": "TONKAWA", "addr:country": "US", "addr:full": "120 N 6TH STREET", "addr:postcode": "74653", "addr:state": "OK", "amenity": "post_box", "brand": "United States Postal Service", "brand:wikidata": "Q668687", "collection_times": "Mo-Sa 13:30", "name": "USPS COLLECTION BOX - BLUE BOX", "note": "ON 12/24 AND 12/31, THIS BOX MAY BE COLLECTED AS EARLY AS 12 NOON.", "nsi_id": "unitedstatespostalservice-a77078", "operator": "United States Postal Service", "operator:short": "USPS", "operator:type": "public", "operator:wikidata": "Q668687", "ref": "7465300002"}, "type": "Feature"}
{"dataset_attributes": {"@spider": "usps_collection_boxes", "spider:collection_time": "2023-12-31T08:23:44.423400"}, "geometry": {"coordinates": [-97.3418838, 36.65117], "type": "Point"}, "id": "HBRdjI68czuapwGGOhBbjrg6MPw=", "properties": {"@spider": "usps_collection_boxes", "addr:city": "TONKAWA", "addr:country": "US", "addr:full": "16501 W FOUNTAIN RD", "addr:postcode": "74653", "addr:state": "OK", "amenity": "post_box", "brand": "United States Postal Service", "brand:wikidata": "Q668687", "collection_times": "Mo-Sa 10:30", "name": "USPS COLLECTION BOX - BLUE BOX", "nsi_id": "unitedstatespostalservice-a77078", "operator": "United States Postal Service", "operator:short": "USPS", "operator:type": "public", "operator:wikidata": "Q668687", "ref": "7465300005"}, "type": "Feature"}
{"dataset_attributes": {"@spider": "usps_collection_boxes", "spider:collection_time": "2023-12-31T08:23:44.423400"}, "geometry": {"coordinates": [-97.30784, 36.679682], "type": "Point"}, "id": "0q4nZGsLWxo9I1XS9y3SVChxUb4=", "properties": {"@spider": "usps_collection_boxes", "addr:city": "TONKAWA", "addr:country": "US", "addr:full": "207 E TONKAWA AVE", "addr:postcode": "74653", "addr:state": "OK", "amenity": "post_box", "brand": "United States Postal Service", "brand:wikidata": "Q668687", "collection_times": "Mo-Fr 15:45; Sa 10:00", "name": "USPS COLLECTION BOX - PO LOBBY", "note": "ON 12/24 AND 12/31, THIS BOX MAY BE COLLECTED AS EARLY AS 12 NOON.", "nsi_id": "unitedstatespostalservice-a77078", "operator": "United States Postal Service", "operator:short": "USPS", "operator:type": "public", "operator:wikidata": "Q668687", "ref": "7465300010"}, "type": "Feature"}
{"dataset_attributes": {"@spider": "usps_collection_boxes", "spider:collection_time": "2023-12-31T08:23:44.423400"}, "geometry": {"coordinates": [-97.307841777, 36.679676481], "type": "Point"}, "id": "218P_ZN7xJImaWiZyJeuJnCCWnk=", "properties": {"@spider": "usps_collection_boxes", "addr:city": "TONKAWA", "addr:country": "US", "addr:full": "207 E TONKAWA AVE", "addr:postcode": "74653", "addr:state": "OK", "amenity": "post_box", "brand": "United States Postal Service", "brand:wikidata": "Q668687", "collection_times": "Mo-Fr 16:00", "name": "USPS COLLECTION BOX - PO LOBBY", "note": "ON 12/24 AND 12/31, THIS BOX MAY BE COLLECTED AS EARLY AS 12 NOON.", "nsi_id": "unitedstatespostalservice-a77078", "operator": "United States Postal Service", "operator:short": "USPS", "operator:type": "public", "operator:wikidata": "Q668687", "ref": "7465300011"}, "type": "Feature"}
