{"geometry": {"coordinates": [-96.4105449, 34.000771], "type": "Point"}, "id": "tEpL1cILeOpqRFNM-4TIDNwc0bA=", "properties": {"@source_uri": "https://tools.usps.com/UspsToolsRestServices/rest/POLocator/findLocations", "@spider": "usps_collection_boxes", "addr:city": "DURANT", "addr:country": "US", "addr:postcode": "74701", "addr:state": "OK", "addr:street_address": "3712 W MAIN ST", "amenity": "post_box", "collection_times": "Mo-Sa 10:30", "nsi_id": "unitedstatespostalservice-a77078", "operator": "United States Postal Service", "operator:short": "USPS", "operator:type": "public", "operator:wikidata": "Q668687", "ref": "7470100002"}, "type": "Feature"}
{"geometry": {"coordinates": [-96.3905812, 34.005851], "type": "Point"}, "id": "-WZ4SYbvD4INAz1r3ziLocwTKKc=", "properties": {"@source_uri": "https://tools.usps.com/UspsToolsRestServices/rest/POLocator/findLocations", "@spider": "usps_collection_boxes", "addr:city": "DURANT", "addr:country": "US", "addr:postcode": "74701", "addr:state": "OK", "addr:street_address": "1200 N WASHINGTON AVE", "amenity": "post_box", "collection_times": "Mo-Sa 13:00", "note": "ON 12/24 AND 12/31, THIS BOX MAY BE COLLECTED AS EARLY AS 12 NOON.", "nsi_id": "unitedstatespostalservice-a77078", "operator": "United States Postal Service", "operator:short": "USPS", "operator:type": "public", "operator:wikidata": "Q668687", "ref": "7470100014"}, "type": "Feature"}
{"geometry": {"coordinates": [-96.3792499, 33.992831], "type": "Point"}, "id": "omNjAxMtgq5_MGhgbMsmjy_YzQY=", "properties": {"@source_uri": "https://tools.usps.com/UspsToolsRestServices/rest/POLocator/findLocations", "@spider": "usps_collection_boxes", "addr:city": "DURANT", "addr:country": "US", "addr:postcode": "74701", "addr:state": "OK", "addr:street_address": "324 W EVERGREEN ST", "amenity": "post_box", "collection_times": "Mo-Sa 13:00", "note": "ON 12/24 AND 12/31, THIS BOX MAY BE COLLECTED AS EARLY AS 12 NOON.", "nsi_id": "unitedstatespostalservice-a77078", "operator": "United States Postal Service", "operator:short": "USPS", "operator:type": "public", "operator:wikidata": "Q668687", "ref": "7470100015"}, "type": "Feature"}
{"geometry": {"coordinates": [-96.389528, 33.994053], "type": "Point"}, "id": "zI2ucSYbG2PPou0FQmtKCScjmMw=", "properties": {"@source_uri": "https://tools.usps.com/UspsToolsRestServices/rest/POLocator/findLocations", "@spider": "usps_collection_boxes", "addr:city": "DURANT", "addr:country": "US", "addr:postcode": "74701", "addr:state": "OK", "addr:street_address": "1223 W MAIN ST", "amenity": "post_box", "collection_times": "Mo-Sa 16:30", "indoor": "yes", "note": "ON 12/24 AND 12/31, THIS BOX MAY BE COLLECTED AS EARLY AS 12 NOON.", "nsi_id": "unitedstatespostalservice-a77078", "operator": "United States Postal Service", "operator:short": "USPS", "operator:type": "public", "operator:wikidata": "Q668687", "ref": "7470100019"}, "type": "Feature"}
{"geometry": {"coordinates": [-96.389528, 33.994053], "type": "Point"}, "id": "D5Z2GcZzXYaoMZS0hIVQeL8Gdmk=", "properties": {"@source_uri": "https://tools.usps.com/UspsToolsRestServices/rest/POLocator/findLocations", "@spider": "usps_collection_boxes", "addr:city": "DURANT", "addr:country": "US", "addr:postcode": "74701", "addr:state": "OK", "addr:street_address": "1223 W MAIN ST", "amenity": "post_box", "collection_times": "Mo-Sa 16:30", "indoor": "yes", "note": "ON 12/24 AND 12/31, THIS BOX MAY BE COLLECTED AS EARLY AS 12 NOON.", "nsi_id": "unitedstatespostalservice-a77078", "operator": "United States Postal Service", "operator:short": "USPS", "operator:type": "public", "operator:wikidata": "Q668687", "ref": "7470100020"}, "type": "Feature"}
{"geometry": {"coordinates": [-96.4192804, 33.998153], "type": "Point"}, "id": "hMELythS5JWQGMz3LQS7hgb8iSM=", "properties": {"@source_uri": "https://tools.usps.com/UspsToolsRestServices/rest/POLocator/findLocations", "@spider": "usps_collection_boxes", "addr:city": "DURANT", "addr:country": "US", "addr:postcode": "74701", "addr:state": "OK", "addr:street_address": "4300 W MAIN ST", "amenity": "post_box", "collection_times": "Mo-Sa 10:30", "nsi_id": "unitedstatespostalservice-a77078", "operator": "United States Postal Service", "operator:short": "USPS", "operator:type": "public", "operator:wikidata": "Q668687", "ref": "7470100021"}, "type": "Feature"}
{"geometry": {"coordinates": [-96.3948749, 34.007216], "type": "Point"}, "id": "UmBOC2AFdbqYcuBUx_nRPVm2E3E=", "properties": {"@source_uri": "https://tools.usps.com/UspsToolsRestServices/rest/POLocator/findLocations", "@spider": "usps_collection_boxes", "addr:city": "DURANT", "addr:country": "US", "addr:postcode": "74701", "addr:state": "OK", "addr:street_address": "1400 BRYAN DR", "amenity": "post_box", "collection_times": "Mo-Sa 11:00", "nsi_id": "unitedstatespostalservice-a77078", "operator": "United States Postal Service", "operator:short": "USPS", "operator:type": "public", "operator:wikidata": "Q668687", "ref": "7470100023"}, "type": "Feature"}
{"geometry": {"coordinates": [-96.38952929, 33.994038085], "type": "Point"}, "id": "cMhPLporMLcJihFDNfwjvdQYRHw=", "properties": {"@source_uri": "https://tools.usps.com/UspsToolsRestServices/rest/POLocator/findLocations", "@spider": "usps_collection_boxes", "addr:city": "DURANT", "addr:country": "US", "addr:postcode": "74701", "addr:state": "OK", "addr:street_address": "1223 W MAIN ST", "amenity": "post_box", "collection_times": "Mo-Fr 16:30; Sa 11:00", "indoor": "yes", "note": "ON 12/24 AND 12/31, THIS BOX MAY BE COLLECTED AS EARLY AS 12 NOON.", "nsi_id": "unitedstatespostalservice-a77078", "operator": "United States Postal Service", "operator:short": "USPS", "operator:type": "public", "operator:wikidata": "Q668687", "ref": "7470100026"}, "type": "Feature"}
{"geometry": {"coordinates": [-96.38749, 33.833596], "type": "Point"}, "id": "ex7xgFmPbWwQLdE--FGJrnPzcYU=", "properties": {"@source_uri": "https://tools.usps.com/UspsToolsRestServices/rest/POLocator/findLocations", "@spider": "usps_collection_boxes", "addr:city": "ACHILLE", "addr:country": "US", "addr:postcode": "74720", "addr:state": "OK", "addr:street_address": "110 E MAIN ST", "amenity": "post_box", "collection_times": "Mo-Fr 15:15; Sa 09:00", "note": "ON 12/24 AND 12/31, THIS BOX MAY BE COLLECTED AS EARLY AS 12 NOON.", "nsi_id": "unitedstatespostalservice-a77078", "operator": "United States Postal Service", "operator:short": "USPS", "operator:type": "public", "operator:wikidata": "Q668687", "ref": "7472000000"}, "type": "Feature"}
{"geometry": {"coordinates": [-96.38749, 33.833596], "type": "Point"}, "id": "SX1tBEBLoM_V_eGWnMSZvcDTav4=", "properties": {"@source_uri": "https://tools.usps.com/UspsToolsRestServices/rest/POLocator/findLocations", "@spider": "usps_collection_boxes", "addr:city": "ACHILLE", "addr:country": "US", "addr:postcode": "74720", "addr:state": "OK", "addr:street_address": "110 E MAIN ST", "amenity": "post_box", "collection_times": "Mo-Fr 15:15; Sa 09:00", "indoor": "yes", "note": "ON 12/24 AND 12/31, THIS BOX MAY BE COLLECTED AS EARLY AS 12 NOON.", "nsi_id": "unitedstatespostalservice-a77078", "operator": "United States Postal Service", "operator:short": "USPS", "operator:type": "public", "operator:wikidata": "Q668687", "ref": "7472000001"}, "type": "Feature"}
{"geometry": {"coordinates": [-96.387590277, 33.833705222], "type": "Point"}, "id": "3JtDSLY27pM-KHAOVbaGLnw-_7w=", "properties": {"@source_uri": "https://tools.usps.com/UspsToolsRestServices/rest/POLocator/findLocations", "@spider": "usps_collection_boxes", "addr:city": "ACHILLE", "addr:country": "US", "addr:postcode": "74720", "addr:state": "OK", "addr:street_address": "103 E MAIN ST", "amenity": "post_box", "collection_times": "Mo-Fr 15:15", "indoor": "yes", "note": "ON 12/24 AND 12/31, THIS BOX MAY BE COLLECTED AS EARLY AS 12 NOON.", "nsi_id": "unitedstatespostalservice-a77078", "operator": "United States Postal Service", "operator:short": "USPS", "operator:type": "public", "operator:wikidata": "Q668687", "ref": "7472000002"}, "type": "Feature"}
{"geometry": {"coordinates": [-96.1637201216, 33.8811767044], "type": "Point"}, "id": "GzUbpO3-A2yq6HTZSToj88apNF4=", "properties": {"@source_uri": "https://tools.usps.com/UspsToolsRestServices/rest/POLocator/findLocations", "@spider": "usps_collection_boxes", "addr:city": "ALBANY", "addr:country": "US", "addr:postcode": "74721", "addr:state": "OK", "addr:street_address": "109 N WADE ST", "amenity": "post_box", "collection_times": "Mo-Sa 09:30", "indoor": "yes", "nsi_id": "unitedstatespostalservice-a77078", "operator": "United States Postal Service", "operator:short": "USPS", "operator:type": "public", "operator:wikidata": "Q668687", "ref": "7472100000"}, "type": "Feature"}
{"geometry": {"coordinates": [-96.0773569817, 33.8900904009], "type": "Point"}, "id": "BiY4QF4mTTK5YQs6usQUX1A3pY0=", "properties": {"@source_uri": "https://tools.usps.com/UspsToolsRestServices/rest/POLocator/findLocations", "@spider": "usps_collection_boxes", "addr:city": "ALBANY", "addr:country": "US", "addr:postcode": "74721", "addr:state": "OK", "addr:street_address": "109 N WADE ST", "amenity": "post_box", "collection_times": "Mo-Fr 12:00; Sa 11:30", "indoor": "yes", "nsi_id": "unitedstatespostalservice-a77078", "operator": "United States Postal Service", "operator:short": "USPS", "operator:type": "public", "operator:wikidata": "Q668687", "ref": "7472100001"}, "type": "Feature"}
{"geometry": {"coordinates": [-95.013928879, 33.984504569], "type": "Point"}, "id": "bcXVVzbhgV6mtJgYYaQYJHZMBm0=", "properties": {"@source_uri": "https://tools.usps.com/UspsToolsRestServices/rest/POLocator/findLocations", "@spider": "usps_collection_boxes", "addr:city": "BATTIEST", "addr:country": "US", "addr:postcode": "74722", "addr:state": "OK", "addr:street_address": "100 S MAIN ST", "amenity": "post_box", "collection_times": "Mo-Fr 12:45; Sa 11:30", "indoor": "yes", "note": "ON 12/24 AND 12/31, THIS BOX MAY BE COLLECTED AS EARLY AS 12 NOON.", "nsi_id": "unitedstatespostalservice-a77078", "operator": "United States Postal Service", "operator:short": "USPS", "operator:type": "public", "operator:wikidata": "Q668687", "ref": "7472200001"}, "type": "Feature"}
{"geometry": {"coordinates": [-95.013928879, 33.984504569], "type": "Point"}, "id": "rYnzXUFrJ0tAOVjfhs7u_yHbHfg=", "properties": {"@source_uri": "https://tools.usps.com/UspsToolsRestServices/rest/POLocator/findLocations", "@spider": "usps_collection_boxes", "addr:city": "BATTIEST", "addr:country": "US", "addr:postcode": "74722", "addr:state": "OK", "addr:street_address": "100 S MAIN ST", "amenity": "post_box", "collection_times": "Mo-Fr 13:00; Sa 12:30", "indoor": "yes", "note": "ON 12/24 AND 12/31, THIS BOX MAY BE COLLECTED AS EARLY AS 12 NOON.", "nsi_id": "unitedstatespostalservice-a77078", "operator": "United States Postal Service", "operator:short": "USPS", "operator:type": "public", "operator:wikidata": "Q668687", "ref": "7472200002"}, "type": "Feature"}
{"geometry": {"coordinates": [-96.038335, 33.996465], "type": "Point"}, "id": "Sq1xXvJqOSLDW34usfC7kbCMGFs=", "properties": {"@source_uri": "https://tools.usps.com/UspsToolsRestServices/rest/POLocator/findLocations", "@spider": "usps_collection_boxes", "addr:city": "BENNINGTON", "addr:country": "US", "addr:postcode": "74723", "addr:state": "OK", "addr:street_address": "310 N PERRY ST", "amenity": "post_box", "collection_times": "Mo-Fr 11:30; Sa 09:30", "indoor": "yes", "nsi_id": "unitedstatespostalservice-a77078", "operator": "United States Postal Service", "operator:short": "USPS", "operator:type": "public", "operator:wikidata": "Q668687", "ref": "7472300001"}, "type": "Feature"}
{"geometry": {"coordinates": [-96.038335, 33.996465], "type": "Point"}, "id": "ZEjRvT4hYXNn4MVS9m0yAyoA1WQ=", "properties": {"@source_uri": "https://tools.usps.com/UspsToolsRestServices/rest/POLocator/findLocations", "@spider": "usps_collection_boxes", "addr:city": "BENNINGTON", "addr:country": "US", "addr:postcode": "74723", "addr:state": "OK", "addr:street_address": "310 N PERRY ST", "amenity": "post_box", "collection_times": "Mo-Fr 11:30; Sa 09:30", "indoor": "yes", "nsi_id": "unitedstatespostalservice-a77078", "operator": "United States Postal Service", "operator:short": "USPS", "operator:type": "public", "operator:wikidata": "Q668687", "ref": "7472300002"}, "type": "Feature"}
{"geometry": {"coordinates": [-96.038360001, 33.996485955], "type": "Point"}, "id": "HW34HVN4rs2RduTrVREWBGOYS1Q=", "properties": {"@source_uri": "https://tools.usps.com/UspsToolsRestServices/rest/POLocator/findLocations", "@spider": "usps_collection_boxes", "addr:city": "BENNINGTON", "addr:country": "US", "addr:postcode": "74723", "addr:state": "OK", "addr:street_address": "310 N PERRY ST", "amenity": "post_box", "collection_times": "Mo-Fr 11:30; Sa 09:30", "indoor": "yes", "nsi_id": "unitedstatespostalservice-a77078", "operator": "United States Postal Service", "operator:short": "USPS", "operator:type": "public", "operator:wikidata": "Q668687", "ref": "7472300003"}, "type": "Feature"}
{"geometry": {"coordinates": [-94.8448181816, 34.3549673033], "type": "Point"}, "id": "sXB3pdfxT9LkwXDpk3rci82mKSE=", "properties": {"@source_uri": "https://tools.usps.com/UspsToolsRestServices/rest/POLocator/findLocations", "@spider": "usps_collection_boxes", "addr:city": "BETHEL", "addr:country": "US", "addr:postcode": "74724", "addr:state": "OK", "addr:street_address": "100 MAIN ST", "amenity": "post_box", "collection_times": "Mo-Fr 12:00; Sa 11:30", "indoor": "yes", "nsi_id": "unitedstatespostalservice-a77078", "operator": "United States Postal Service", "operator:short": "USPS", "operator:type": "public", "operator:wikidata": "Q668687", "ref": "7472400001"}, "type": "Feature"}
{"geometry": {"coordinates": [-94.8357135, 34.360182547], "type": "Point"}, "id": "YJUV3BRgjX0A6bb1R5fjMbvIgZg=", "properties": {"@source_uri": "https://tools.usps.com/UspsToolsRestServices/rest/POLocator/findLocations", "@spider": "usps_collection_boxes", "addr:city": "BETHEL", "addr:country": "US", "addr:postcode": "74724", "addr:state": "OK", "addr:street_address": "1533 INDIAN HIGHWAY 144", "amenity": "post_box", "collection_times": "Mo-Fr 12:00; Sa 11:30", "indoor": "yes", "nsi_id": "unitedstatespostalservice-a77078", "operator": "United States Postal Service", "operator:short": "USPS", "operator:type": "public", "operator:wikidata": "Q668687", "ref": "7472400002"}, "type": "Feature"}
{"geometry": {"coordinates": [-96.144795, 34.016657], "type": "Point"}, "id": "6e9tfhcqyWyzpir7mA8l7D7_aJM=", "properties": {"@source_uri": "https://tools.usps.com/UspsToolsRestServices/rest/POLocator/findLocations", "@spider": "usps_collection_boxes", "addr:city": "BOKCHITO", "addr:country": "US", "addr:postcode": "74726", "addr:state": "OK", "addr:street_address": "118 W MAIN ST", "amenity": "post_box", "collection_times": "Mo-Fr 15:30; Sa 09:00", "indoor": "yes", "note": "ON 12/24 AND 12/31, THIS BOX MAY BE COLLECTED AS EARLY AS 12 NOON.", "nsi_id": "unitedstatespostalservice-a77078", "operator": "United States Postal Service", "operator:short": "USPS", "operator:type": "public", "operator:wikidata": "Q668687", "ref": "7472600001"}, "type": "Feature"}
{"geometry": {"coordinates": [-96.144795, 34.016657], "type": "Point"}, "id": "-8MbKrhK4lb1kCPcFwPPa4P42nI=", "properties": {"@source_uri": "https://tools.usps.com/UspsToolsRestServices/rest/POLocator/findLocations", "@spider": "usps_collection_boxes", "addr:city": "BOKCHITO", "addr:country": "US", "addr:postcode": "74726", "addr:state": "OK", "addr:street_address": "118 W MAIN ST", "amenity": "post_box", "collection_times": "Mo-Fr 15:30; Sa 09:00", "indoor": "yes", "note": "ON 12/24 AND 12/31, THIS BOX MAY BE COLLECTED AS EARLY AS 12 NOON.", "nsi_id": "unitedstatespostalservice-a77078", "operator": "United States Postal Service", "operator:short": "USPS", "operator:type": "public", "operator:wikidata": "Q668687", "ref": "7472600002"}, "type": "Feature"}
{"geometry": {"coordinates": [-96.144780156, 34.016692017], "type": "Point"}, "id": "8ZOklHtHu3o_y7DguRel1305mxE=", "properties": {"@source_uri": "https://tools.usps.com/UspsToolsRestServices/rest/POLocator/findLocations", "@spider": "usps_collection_boxes", "addr:city": "BOKCHITO", "addr:country": "US", "addr:postcode": "74726", "addr:state": "OK", "addr:street_address": "118 W MAIN ST", "amenity": "post_box", "collection_times": "Mo-Fr 15:30", "indoor": "yes", "note": "ON 12/24 AND 12/31, THIS BOX MAY BE COLLECTED AS EARLY AS 12 NOON.", "nsi_id": "unitedstatespostalservice-a77078", "operator": "United States Postal Service", "operator:short": "USPS", "operator:type": "public", "operator:wikidata": "Q668687", "ref": "7472600003"}, "type": "Feature"}
{"geometry": {"coordinates": [-95.870506, 34.027287], "type": "Point"}, "id": "OlVYOAliar_p2kcDXtiT5QeiUCI=", "properties": {"@source_uri": "https://tools.usps.com/UspsToolsRestServices/rest/POLocator/findLocations", "@spider": "usps_collection_boxes", "addr:city": "BOSWELL", "addr:country": "US", "addr:postcode": "74727", "addr:state": "OK", "addr:street_address": "515 HUNTER AVE", "amenity": "post_box", "collection_times": "Mo-Fr 15:30; Sa 09:00", "indoor": "yes", "note": "ON 12/24 AND 12/31, THIS BOX MAY BE COLLECTED AS EARLY AS 12 NOON.", "nsi_id": "unitedstatespostalservice-a77078", "operator": "United States Postal Service", "operator:short": "USPS", "operator:type": "public", "operator:wikidata": "Q668687", "ref": "7472700002"}, "type": "Feature"}
{"geometry": {"coordinates": [-95.870527246, 34.027239016], "type": "Point"}, "id": "4vzgqqHg8rOY_Y0yMc8SJu5jHnw=", "properties": {"@source_uri": "https://tools.usps.com/UspsToolsRestServices/rest/POLocator/findLocations", "@spider": "usps_collection_boxes", "addr:city": "BOSWELL", "addr:country": "US", "addr:postcode": "74727", "addr:state": "OK", "addr:street_address": "515 HUNTER AVE", "amenity": "post_box", "collection_times": "Mo-Fr 15:30", "indoor": "yes", "note": "ON 12/24 AND 12/31, THIS BOX MAY BE COLLECTED AS EARLY AS 12 NOON.", "nsi_id": "unitedstatespostalservice-a77078", "operator": "United States Postal Service", "operator:short": "USPS", "operator:type": "public", "operator:wikidata": "Q668687", "ref": "7472700003"}, "type": "Feature"}
{"geometry": {"coordinates": [-94.737258, 34.031334], "type": "Point"}, "id": "o1-86NBJNni1ZFbhN1mX9xnBpZw=", "properties": {"@source_uri": "https://tools.usps.com/UspsToolsRestServices/rest/POLocator/findLocations", "@spider": "usps_collection_boxes", "addr:city": "BROKEN BOW", "addr:country": "US", "addr:postcode": "74728", "addr:state": "OK", "addr:street_address": "107 W 5TH ST", "amenity": "post_box", "collection_times": "Mo-Sa 15:30", "note": "ON 12/24 AND 12/31, THIS BOX MAY BE COLLECTED AS EARLY AS 12 NOON.", "nsi_id": "unitedstatespostalservice-a77078", "operator": "United States Postal Service", "operator:short": "USPS", "operator:type": "public", "operator:wikidata": "Q668687", "ref": "7472800004"}, "type": "Feature"}
{"geometry": {"coordinates": [-94.737132, 34.030506], "type": "Point"}, "id": "B4S99K3Jfadi7PhuRiWzC9ekTQY=", "properties": {"@source_uri": "https://tools.usps.com/UspsToolsRestServices/rest/POLocator/findLocations", "@spider": "usps_collection_boxes", "addr:city": "BROKEN BOW", "addr:country": "US", "addr:postcode": "74728", "addr:state": "OK", "addr:street_address": "405 MAIN ST", "amenity": "post_box", "collection_times": "Mo-Sa 15:30", "indoor": "yes", "note": "ON 12/24 AND 12/31, THIS BOX MAY BE COLLECTED AS EARLY AS 12 NOON.", "nsi_id": "unitedstatespostalservice-a77078", "operator": "United States Postal Service", "operator:short": "USPS", "operator:type": "public", "operator:wikidata": "Q668687", "ref": "7472800006"}, "type": "Feature"}
{"geometry": {"coordinates": [-94.737132, 34.030506], "type": "Point"}, "id": "No8Cu8RM12J2mkl6APfhanKUX1Q=", "properties": {"@source_uri": "https://tools.usps.com/UspsToolsRestServices/rest/POLocator/findLocations", "@spider": "usps_collection_boxes", "addr:city": "BROKEN BOW", "addr:country": "US", "addr:postcode": "74728", "addr:state": "OK", "addr:street_address": "405 MAIN ST", "amenity": "post_box", "collection_times": "Mo-Sa 15:30", "indoor": "yes", "note": "ON 12/24 AND 12/31, THIS BOX MAY BE COLLECTED AS EARLY AS 12 NOON.", "nsi_id": "unitedstatespostalservice-a77078", "operator": "United States Postal Service", "operator:short": "USPS", "operator:type": "public", "operator:wikidata": "Q668687", "ref": "7472800007"}, "type": "Feature"}
{"geometry": {"coordinates": [-94.737132, 34.030506], "type": "Point"}, "id": "GiLy5l8_GHBzT8mviN0q2osdO0E=", "properties": {"@source_uri": "https://tools.usps.com/UspsToolsRestServices/rest/POLocator/findLocations", "@spider": "usps_collection_boxes", "addr:city": "BROKEN BOW", "addr:country": "US", "addr:postcode": "74728", "addr:state": "OK", "addr:street_address": "405 MAIN ST", "amenity": "post_box", "collection_times": "Mo-Sa 15:30", "indoor": "yes", "note": "ON 12/24 AND 12/31, THIS BOX MAY BE COLLECTED AS EARLY AS 12 NOON.", "nsi_id": "unitedstatespostalservice-a77078", "operator": "United States Postal Service", "operator:short": "USPS", "operator:type": "public", "operator:wikidata": "Q668687", "ref": "7472800008"}, "type": "Feature"}
{"geometry": {"coordinates": [-94.7579656, 34.162665], "type": "Point"}, "id": "spWvfq5f-xgXfEoqbwe6_ivZDDo=", "properties": {"@source_uri": "https://tools.usps.com/UspsToolsRestServices/rest/POLocator/findLocations", "@spider": "usps_collection_boxes", "addr:city": "BROKEN BOW", "addr:country": "US", "addr:postcode": "74728", "addr:state": "OK", "addr:street_address": "10053 N US HIGHWAY 259", "amenity": "post_box", "collection_times": "Mo-Sa 09:00", "nsi_id": "unitedstatespostalservice-a77078", "operator": "United States Postal Service", "operator:short": "USPS", "operator:type": "public", "operator:wikidata": "Q668687", "ref": "7472800009"}, "type": "Feature"}
{"geometry": {"coordinates": [-94.737038361, 34.028703031], "type": "Point"}, "id": "dYnSHYd5swWR4v-HmvRmPhIpg1I=", "properties": {"@source_uri": "https://tools.usps.com/UspsToolsRestServices/rest/POLocator/findLocations", "@spider": "usps_collection_boxes", "addr:city": "BROKEN BOW", "addr:country": "US", "addr:postcode": "74728", "addr:state": "OK", "addr:street_address": "405 MAIN ST", "amenity": "post_box", "collection_times": "Mo-Fr 15:30; Sa 11:30", "indoor": "yes", "note": "ON 12/24 AND 12/31, THIS BOX MAY BE COLLECTED AS EARLY AS 12 NOON.", "nsi_id": "unitedstatespostalservice-a77078", "operator": "United States Postal Service", "operator:short": "USPS", "operator:type": "public", "operator:wikidata": "Q668687", "ref": "7472800010"}, "type": "Feature"}
{"geometry": {"coordinates": [-96.25762, 34.124982], "type": "Point"}, "id": "3GoIG_7MTAFDqTosh_kN6iNPbx8=", "properties": {"@source_uri": "https://tools.usps.com/UspsToolsRestServices/rest/POLocator/findLocations", "@spider": "usps_collection_boxes", "addr:city": "CADDO", "addr:country": "US", "addr:postcode": "74729", "addr:state": "OK", "addr:street_address": "127 W BUFFALO ST", "amenity": "post_box", "collection_times": "Mo-Fr 14:00; Sa 10:30", "indoor": "yes", "note": "ON 12/24 AND 12/31, THIS BOX MAY BE COLLECTED AS EARLY AS 12 NOON.", "nsi_id": "unitedstatespostalservice-a77078", "operator": "United States Postal Service", "operator:short": "USPS", "operator:type": "public", "operator:wikidata": "Q668687", "ref": "7472900000"}, "type": "Feature"}
{"geometry": {"coordinates": [-96.26041, 34.12554], "type": "Point"}, "id": "ElMT-k_bhEfrG2hGUu_-w2fzopQ=", "properties": {"@source_uri": "https://tools.usps.com/UspsToolsRestServices/rest/POLocator/findLocations", "@spider": "usps_collection_boxes", "addr:city": "CADDO", "addr:country": "US", "addr:postcode": "74729", "addr:state": "OK", "addr:street_address": "127 W BUFFALO ST", "amenity": "post_box", "collection_times": "Mo-Fr 14:00; Sa 10:30", "indoor": "yes", "note": "ON 12/24 AND 12/31, THIS BOX MAY BE COLLECTED AS EARLY AS 12 NOON.", "nsi_id": "unitedstatespostalservice-a77078", "operator": "United States Postal Service", "operator:short": "USPS", "operator:type": "public", "operator:wikidata": "Q668687", "ref": "7472900002"}, "type": "Feature"}
{"geometry": {"coordinates": [-96.261386585, 34.125899706], "type": "Point"}, "id": "Gbg-q6XgcA_7UJcJhw6EcQd0YGQ=", "properties": {"@source_uri": "https://tools.usps.com/UspsToolsRestServices/rest/POLocator/findLocations", "@spider": "usps_collection_boxes", "addr:city": "CADDO", "addr:country": "US", "addr:postcode": "74729", "addr:state": "OK", "addr:street_address": "127 W BUFFALO ST", "amenity": "post_box", "collection_times": "Mo-Fr 14:00; Sa 10:30", "indoor": "yes", "note": "ON 12/24 AND 12/31, THIS BOX MAY BE COLLECTED AS EARLY AS 12 NOON.", "nsi_id": "unitedstatespostalservice-a77078", "operator": "United States Postal Service", "operator:short": "USPS", "operator:type": "public", "operator:wikidata": "Q668687", "ref": "7472900003"}, "type": "Feature"}
{"geometry": {"coordinates": [-96.431976, 33.931615], "type": "Point"}, "id": "FfSRMGxoMEoEA2ka-nhcRNnkf9s=", "properties": {"@source_uri": "https://tools.usps.com/UspsToolsRestServices/rest/POLocator/findLocations", "@spider": "usps_collection_boxes", "addr:city": "CALERA", "addr:country": "US", "addr:postcode": "74730", "addr:state": "OK", "addr:street_address": "410 N MCKINLEY AVE", "amenity": "post_box", "collection_times": "Mo-Fr 16:00; Sa 10:00", "indoor": "yes", "note": "ON 12/24 AND 12/31, THIS BOX MAY BE COLLECTED AS EARLY AS 12 NOON.", "nsi_id": "unitedstatespostalservice-a77078", "operator": "United States Postal Service", "operator:short": "USPS", "operator:type": "public", "operator:wikidata": "Q668687", "ref": "7473000001"}, "type": "Feature"}
{"geometry": {"coordinates": [-96.431988972, 33.931642776], "type": "Point"}, "id": "q75BiCRX-_ZX1cfHMm__4sm8bwQ=", "properties": {"@source_uri": "https://tools.usps.com/UspsToolsRestServices/rest/POLocator/findLocations", "@spider": "usps_collection_boxes", "addr:city": "CALERA", "addr:country": "US", "addr:postcode": "74730", "addr:state": "OK", "addr:street_address": "410 N MCKINLEY AVE", "amenity": "post_box", "collection_times": "Mo-Fr 16:00; Sa 10:00", "indoor": "yes", "note": "ON 12/24 AND 12/31, THIS BOX MAY BE COLLECTED AS EARLY AS 12 NOON.", "nsi_id": "unitedstatespostalservice-a77078", "operator": "United States Postal Service", "operator:short": "USPS", "operator:type": "public", "operator:wikidata": "Q668687", "ref": "7473000002"}, "type": "Feature"}
{"geometry": {"coordinates": [-96.566489, 33.852998], "type": "Point"}, "id": "n_iaLW5hFXLEZF2dJtrgqvFdZow=", "properties": {"@source_uri": "https://tools.usps.com/UspsToolsRestServices/rest/POLocator/findLocations", "@spider": "usps_collection_boxes", "addr:city": "CARTWRIGHT", "addr:country": "US", "addr:postcode": "74731", "addr:state": "OK", "addr:street_address": "52 BOAT CLUB RD", "amenity": "post_box", "collection_times": "Mo-Fr 11:30; Sa 08:45", "indoor": "yes", "nsi_id": "unitedstatespostalservice-a77078", "operator": "United States Postal Service", "operator:short": "USPS", "operator:type": "public", "operator:wikidata": "Q668687", "ref": "7473100001"}, "type": "Feature"}
{"geometry": {"coordinates": [-96.566489, 33.852998], "type": "Point"}, "id": "vetnAdtsyWXmV6u-WKNSzBPWrEA=", "properties": {"@source_uri": "https://tools.usps.com/UspsToolsRestServices/rest/POLocator/findLocations", "@spider": "usps_collection_boxes", "addr:city": "CARTWRIGHT", "addr:country": "US", "addr:postcode": "74731", "addr:state": "OK", "addr:street_address": "52 BOAT CLUB RD", "amenity": "post_box", "collection_times": "Mo-Fr 11:30; Sa 08:45", "indoor": "yes", "nsi_id": "unitedstatespostalservice-a77078", "operator": "United States Postal Service", "operator:short": "USPS", "operator:type": "public", "operator:wikidata": "Q668687", "ref": "7473100002"}, "type": "Feature"}
{"geometry": {"coordinates": [-96.566484792, 33.853028843], "type": "Point"}, "id": "mdVE7QzZ9LZv22FTglbaK_gETsw=", "properties": {"@source_uri": "https://tools.usps.com/UspsToolsRestServices/rest/POLocator/findLocations", "@spider": "usps_collection_boxes", "addr:city": "CARTWRIGHT", "addr:country": "US", "addr:postcode": "74731", "addr:state": "OK", "addr:street_address": "52 BOAT CLUB RD", "amenity": "post_box", "collection_times": "Mo-Fr 11:30", "indoor": "yes", "nsi_id": "unitedstatespostalservice-a77078", "operator": "United States Postal Service", "operator:short": "USPS", "operator:type": "public", "operator:wikidata": "Q668687", "ref": "7473100003"}, "type": "Feature"}
{"geometry": {"coordinates": [-96.510027, 33.852962], "type": "Point"}, "id": "TiOoD_h3VMFjmussfbh_TDKe9BA=", "properties": {"@source_uri": "https://tools.usps.com/UspsToolsRestServices/rest/POLocator/findLocations", "@spider": "usps_collection_boxes", "addr:city": "COLBERT", "addr:country": "US", "addr:postcode": "74733", "addr:state": "OK", "addr:street_address": "711 MOORE AVE", "amenity": "post_box", "collection_times": "Mo-Fr 15:45; Sa 09:00", "note": "ON 12/24 AND 12/31, THIS BOX MAY BE COLLECTED AS EARLY AS 12 NOON.", "nsi_id": "unitedstatespostalservice-a77078", "operator": "United States Postal Service", "operator:short": "USPS", "operator:type": "public", "operator:wikidata": "Q668687", "ref": "7473300000"}, "type": "Feature"}
{"geometry": {"coordinates": [-96.509092, 33.85293], "type": "Point"}, "id": "lOOXF-MHK9b1ndPqNzGki-oL8lY=", "properties": {"@source_uri": "https://tools.usps.com/UspsToolsRestServices/rest/POLocator/findLocations", "@spider": "usps_collection_boxes", "addr:city": "COLBERT", "addr:country": "US", "addr:postcode": "74733", "addr:state": "OK", "addr:street_address": "711 MOORE AVE", "amenity": "post_box", "collection_times": "Mo-Fr 15:45; Sa 09:00", "indoor": "yes", "note": "ON 12/24 AND 12/31, THIS BOX MAY BE COLLECTED AS EARLY AS 12 NOON.", "nsi_id": "unitedstatespostalservice-a77078", "operator": "United States Postal Service", "operator:short": "USPS", "operator:type": "public", "operator:wikidata": "Q668687", "ref": "7473300004"}, "type": "Feature"}
{"geometry": {"coordinates": [-96.506271236, 33.853273094], "type": "Point"}, "id": "BNcTZU9cdF1GzoqwjGuVTnJDrDQ=", "properties": {"@source_uri": "https://tools.usps.com/UspsToolsRestServices/rest/POLocator/findLocations", "@spider": "usps_collection_boxes", "addr:city": "COLBERT", "addr:country": "US", "addr:postcode": "74733", "addr:state": "OK", "addr:street_address": "711 MOORE AVE", "amenity": "post_box", "collection_times": "Mo-Fr 16:00; Sa 09:00", "indoor": "yes", "note": "ON 12/24 AND 12/31, THIS BOX MAY BE COLLECTED AS EARLY AS 12 NOON.", "nsi_id": "unitedstatespostalservice-a77078", "operator": "United States Postal Service", "operator:short": "USPS", "operator:type": "public", "operator:wikidata": "Q668687", "ref": "7473300006"}, "type": "Feature"}
{"geometry": {"coordinates": [-94.589299, 34.043737], "type": "Point"}, "id": "xkGgF7JmXYxnl8vLuLk97Ajin7w=", "properties": {"@source_uri": "https://tools.usps.com/UspsToolsRestServices/rest/POLocator/findLocations", "@spider": "usps_collection_boxes", "addr:city": "EAGLETOWN", "addr:country": "US", "addr:postcode": "74734", "addr:state": "OK", "addr:street_address": "8747 E US HIGHWAY 70", "amenity": "post_box", "collection_times": "Mo-Fr 11:30; Sa 10:00", "indoor": "yes", "nsi_id": "unitedstatespostalservice-a77078", "operator": "United States Postal Service", "operator:short": "USPS", "operator:type": "public", "operator:wikidata": "Q668687", "ref": "7473400001"}, "type": "Feature"}
{"geometry": {"coordinates": [-94.589299, 34.043737], "type": "Point"}, "id": "Rcub3n3Vp3WiO-MyAOVegVTdd6I=", "properties": {"@source_uri": "https://tools.usps.com/UspsToolsRestServices/rest/POLocator/findLocations", "@spider": "usps_collection_boxes", "addr:city": "EAGLETOWN", "addr:country": "US", "addr:postcode": "74734", "addr:state": "OK", "addr:street_address": "8747 E US HIGHWAY 70", "amenity": "post_box", "collection_times": "Mo-Fr 11:30; Sa 10:00", "indoor": "yes", "nsi_id": "unitedstatespostalservice-a77078", "operator": "United States Postal Service", "operator:short": "USPS", "operator:type": "public", "operator:wikidata": "Q668687", "ref": "7473400002"}, "type": "Feature"}
{"geometry": {"coordinates": [-94.5773485, 34.0348907], "type": "Point"}, "id": "Jro4HYgqwZgMtUkwJzbNG9MWrHk=", "properties": {"@source_uri": "https://tools.usps.com/UspsToolsRestServices/rest/POLocator/findLocations", "@spider": "usps_collection_boxes", "addr:city": "EAGLETOWN", "addr:country": "US", "addr:postcode": "74734", "addr:state": "OK", "addr:street_address": "76 MAIN ST", "amenity": "post_box", "collection_times": "Mo-Sa 14:00", "note": "ON 12/24 AND 12/31, THIS BOX MAY BE COLLECTED AS EARLY AS 12 NOON.", "nsi_id": "unitedstatespostalservice-a77078", "operator": "United States Postal Service", "operator:short": "USPS", "operator:type": "public", "operator:wikidata": "Q668687", "ref": "7473400003"}, "type": "Feature"}
{"geometry": {"coordinates": [-94.589479927, 34.044112684], "type": "Point"}, "id": "dizD1UKHGX9DF0KZemUFu164VZo=", "properties": {"@source_uri": "https://tools.usps.com/UspsToolsRestServices/rest/POLocator/findLocations", "@spider": "usps_collection_boxes", "addr:city": "EAGLETOWN", "addr:country": "US", "addr:postcode": "74734", "addr:state": "OK", "addr:street_address": "8747 E US HIGHWAY 70", "amenity": "post_box", "collection_times": "Mo-Fr 11:30; Sa 10:00", "indoor": "yes", "nsi_id": "unitedstatespostalservice-a77078", "operator": "United States Postal Service", "operator:short": "USPS", "operator:type": "public", "operator:wikidata": "Q668687", "ref": "7473400004"}, "type": "Feature"}
{"geometry": {"coordinates": [-95.255155101, 34.0489316324], "type": "Point"}, "id": "zbTF49QGs6PniBlfYOtfRbhjQkI=", "properties": {"@source_uri": "https://tools.usps.com/UspsToolsRestServices/rest/POLocator/findLocations", "@spider": "usps_collection_boxes", "addr:city": "FORT TOWSON", "addr:country": "US", "addr:postcode": "74735", "addr:state": "OK", "addr:street_address": "100 N MAIN ST", "amenity": "post_box", "collection_times": "Mo-Fr 14:00; Sa 09:00", "indoor": "yes", "note": "ON 12/24 AND 12/31, THIS BOX MAY BE COLLECTED AS EARLY AS 12 NOON.", "nsi_id": "unitedstatespostalservice-a77078", "operator": "United States Postal Service", "operator:short": "USPS", "operator:type": "public", "operator:wikidata": "Q668687", "ref": "7473500002"}, "type": "Feature"}
{"geometry": {"coordinates": [-95.202282826, 34.019358063], "type": "Point"}, "id": "rq4Otfnv8-muRY-SCcUl_p7Pcjs=", "properties": {"@source_uri": "https://tools.usps.com/UspsToolsRestServices/rest/POLocator/findLocations", "@spider": "usps_collection_boxes", "addr:city": "FORT TOWSON", "addr:country": "US", "addr:postcode": "74735", "addr:state": "OK", "addr:street_address": "100 N MAIN ST", "amenity": "post_box", "collection_times": "Mo-Fr 14:00", "indoor": "yes", "note": "ON 12/24 AND 12/31, THIS BOX MAY BE COLLECTED AS EARLY AS 12 NOON.", "nsi_id": "unitedstatespostalservice-a77078", "operator": "United States Postal Service", "operator:short": "USPS", "operator:type": "public", "operator:wikidata": "Q668687", "ref": "7473500003"}, "type": "Feature"}
{"geometry": {"coordinates": [-94.940584, 33.954431], "type": "Point"}, "id": "1R8S1omWzbwINZIlSeFlamU2SZY=", "properties": {"@source_uri": "https://tools.usps.com/UspsToolsRestServices/rest/POLocator/findLocations", "@spider": "usps_collection_boxes", "addr:city": "GARVIN", "addr:country": "US", "addr:postcode": "74736", "addr:state": "OK", "addr:street_address": "10 N LOVE ST", "amenity": "post_box", "collection_times": "Mo-Fr 11:15; Sa 09:30", "indoor": "yes", "nsi_id": "unitedstatespostalservice-a77078", "operator": "United States Postal Service", "operator:short": "USPS", "operator:type": "public", "operator:wikidata": "Q668687", "ref": "7473600001"}, "type": "Feature"}
{"geometry": {"coordinates": [-94.940564563, 33.954393437], "type": "Point"}, "id": "SF2DhU5vWwKNwzCjeyZlATnPULs=", "properties": {"@source_uri": "https://tools.usps.com/UspsToolsRestServices/rest/POLocator/findLocations", "@spider": "usps_collection_boxes", "addr:city": "GARVIN", "addr:country": "US", "addr:postcode": "74736", "addr:state": "OK", "addr:street_address": "10 N LOVE ST", "amenity": "post_box", "collection_times": "Mo-Fr 11:30; Sa 10:30", "indoor": "yes", "nsi_id": "unitedstatespostalservice-a77078", "operator": "United States Postal Service", "operator:short": "USPS", "operator:type": "public", "operator:wikidata": "Q668687", "ref": "7473600002"}, "type": "Feature"}
{"geometry": {"coordinates": [-94.895923, 34.033703], "type": "Point"}, "id": "uY9aL1Y-u7px95BcrAVIde4pE9c=", "properties": {"@source_uri": "https://tools.usps.com/UspsToolsRestServices/rest/POLocator/findLocations", "@spider": "usps_collection_boxes", "addr:city": "GOLDEN", "addr:country": "US", "addr:postcode": "74737", "addr:state": "OK", "addr:street_address": "100 LINE ST", "amenity": "post_box", "collection_times": "Mo-Fr 12:30; Sa 11:30", "indoor": "yes", "note": "ON 12/24 AND 12/31, THIS BOX MAY BE COLLECTED AS EARLY AS 12 NOON.", "nsi_id": "unitedstatespostalservice-a77078", "operator": "United States Postal Service", "operator:short": "USPS", "operator:type": "public", "operator:wikidata": "Q668687", "ref": "7473700001"}, "type": "Feature"}
{"geometry": {"coordinates": [-94.89704, 34.032714306], "type": "Point"}, "id": "TZUOw5_p7JJAmJF4wdyv2QyCkGw=", "properties": {"@source_uri": "https://tools.usps.com/UspsToolsRestServices/rest/POLocator/findLocations", "@spider": "usps_collection_boxes", "addr:city": "GOLDEN", "addr:country": "US", "addr:postcode": "74737", "addr:state": "OK", "addr:street_address": "100 LINE ST", "amenity": "post_box", "collection_times": "Mo-Fr 12:30; Sa 11:45", "indoor": "yes", "note": "ON 12/24 AND 12/31, THIS BOX MAY BE COLLECTED AS EARLY AS 12 NOON.", "nsi_id": "unitedstatespostalservice-a77078", "operator": "United States Postal Service", "operator:short": "USPS", "operator:type": "public", "operator:wikidata": "Q668687", "ref": "7473700002"}, "type": "Feature"}
{"geometry": {"coordinates": [-95.515135, 33.942985], "type": "Point"}, "id": "r2CUFGFDM0O8gFld2SwC4z1rSzk=", "properties": {"@source_uri": "https://tools.usps.com/UspsToolsRestServices/rest/POLocator/findLocations", "@spider": "usps_collection_boxes", "addr:city": "GRANT", "addr:country": "US", "addr:postcode": "74738", "addr:state": "OK", "addr:street_address": "604 WALNUT ST", "amenity": "post_box", "collection_times": "Mo-Fr 14:30; Sa 12:30", "indoor": "yes", "note": "ON 12/24 AND 12/31, THIS BOX MAY BE COLLECTED AS EARLY AS 12 NOON.", "nsi_id": "unitedstatespostalservice-a77078", "operator": "United States Postal Service", "operator:short": "USPS", "operator:type": "public", "operator:wikidata": "Q668687", "ref": "7473800002"}, "type": "Feature"}
{"geometry": {"coordinates": [-95.5213275, 33.9284573], "type": "Point"}, "id": "EQ-V1159g6rTztwiAsaHq0bMqU4=", "properties": {"@source_uri": "https://tools.usps.com/UspsToolsRestServices/rest/POLocator/findLocations", "@spider": "usps_collection_boxes", "addr:city": "GRANT", "addr:country": "US", "addr:postcode": "74738", "addr:state": "OK", "addr:street_address": "604 WALNUT ST", "amenity": "post_box", "collection_times": "Mo-Fr 16:00; Sa 12:30", "indoor": "yes", "note": "ON 12/24 AND 12/31, THIS BOX MAY BE COLLECTED AS EARLY AS 12 NOON.", "nsi_id": "unitedstatespostalservice-a77078", "operator": "United States Postal Service", "operator:short": "USPS", "operator:type": "public", "operator:wikidata": "Q668687", "ref": "7473800003"}, "type": "Feature"}
{"geometry": {"coordinates": [-94.6519599923, 33.8455299911], "type": "Point"}, "id": "1-AlJ7R-GmoUjn4Z6g41dNyDhvw=", "properties": {"@source_uri": "https://tools.usps.com/UspsToolsRestServices/rest/POLocator/findLocations", "@spider": "usps_collection_boxes", "addr:city": "HAWORTH", "addr:country": "US", "addr:postcode": "74740", "addr:state": "OK", "addr:street_address": "100 N ELM ST", "amenity": "post_box", "collection_times": "Mo-Fr 14:15", "indoor": "yes", "note": "ON 12/24 AND 12/31, THIS BOX MAY BE COLLECTED AS EARLY AS 12 NOON.", "nsi_id": "unitedstatespostalservice-a77078", "operator": "United States Postal Service", "operator:short": "USPS", "operator:type": "public", "operator:wikidata": "Q668687", "ref": "7474000000"}, "type": "Feature"}
{"geometry": {"coordinates": [-94.6519599923, 33.8455299911], "type": "Point"}, "id": "clA1PgcU3XSqJ2qeSMybsdtz0OM=", "properties": {"@source_uri": "https://tools.usps.com/UspsToolsRestServices/rest/POLocator/findLocations", "@spider": "usps_collection_boxes", "addr:city": "HAWORTH", "addr:country": "US", "addr:postcode": "74740", "addr:state": "OK", "addr:street_address": "100 N ELM ST", "amenity": "post_box", "collection_times": "Mo-Fr 14:30", "indoor": "yes", "note": "ON 12/24 AND 12/31, THIS BOX MAY BE COLLECTED AS EARLY AS 12 NOON.", "nsi_id": "unitedstatespostalservice-a77078", "operator": "United States Postal Service", "operator:short": "USPS", "operator:type": "public", "operator:wikidata": "Q668687", "ref": "7474000002"}, "type": "Feature"}
{"geometry": {"coordinates": [-96.40446, 33.775174], "type": "Point"}, "id": "5_NVJBsmi4eXbP5ytCphe9Pq9io=", "properties": {"@source_uri": "https://tools.usps.com/UspsToolsRestServices/rest/POLocator/findLocations", "@spider": "usps_collection_boxes", "addr:city": "HENDRIX", "addr:country": "US", "addr:postcode": "74741", "addr:state": "OK", "addr:street_address": "309 E MAIN ST", "amenity": "post_box", "collection_times": "Mo-Fr 12:00; Sa 09:00", "indoor": "yes", "nsi_id": "unitedstatespostalservice-a77078", "operator": "United States Postal Service", "operator:short": "USPS", "operator:type": "public", "operator:wikidata": "Q668687", "ref": "7474100000"}, "type": "Feature"}
{"geometry": {"coordinates": [-96.40450307, 33.775121383], "type": "Point"}, "id": "Et4TvNOdGi8_y47PJ7UVByYK7vk=", "properties": {"@source_uri": "https://tools.usps.com/UspsToolsRestServices/rest/POLocator/findLocations", "@spider": "usps_collection_boxes", "addr:city": "HENDRIX", "addr:country": "US", "addr:postcode": "74741", "addr:state": "OK", "addr:street_address": "309 E MAIN ST", "amenity": "post_box", "collection_times": "Mo-Fr 12:00; Sa 09:00", "indoor": "yes", "nsi_id": "unitedstatespostalservice-a77078", "operator": "United States Postal Service", "operator:short": "USPS", "operator:type": "public", "operator:wikidata": "Q668687", "ref": "7474100001"}, "type": "Feature"}
{"geometry": {"coordinates": [-95.5087152329, 34.0108421624], "type": "Point"}, "id": "xcYh0XNDkD_zGKM7Mm4em4Ummlw=", "properties": {"@source_uri": "https://tools.usps.com/UspsToolsRestServices/rest/POLocator/findLocations", "@spider": "usps_collection_boxes", "addr:city": "HUGO", "addr:country": "US", "addr:postcode": "74743", "addr:state": "OK", "addr:street_address": "207 N 4TH ST", "amenity": "post_box", "collection_times": "Mo-Sa 16:45", "note": "ON 12/24 AND 12/31, THIS BOX MAY BE COLLECTED AS EARLY AS 12 NOON.", "nsi_id": "unitedstatespostalservice-a77078", "operator": "United States Postal Service", "operator:short": "USPS", "operator:type": "public", "operator:wikidata": "Q668687", "ref": "7474300003"}, "type": "Feature"}
{"geometry": {"coordinates": [-95.508683, 34.010874], "type": "Point"}, "id": "fSppM-KLPSHTP5z4UDI3ZrqhNVw=", "properties": {"@source_uri": "https://tools.usps.com/UspsToolsRestServices/rest/POLocator/findLocations", "@spider": "usps_collection_boxes", "addr:city": "HUGO", "addr:country": "US", "addr:postcode": "74743", "addr:state": "OK", "addr:street_address": "207 N 4TH ST", "amenity": "post_box", "collection_times": "Mo-Sa 17:00", "indoor": "yes", "note": "ON 12/24 AND 12/31, THIS BOX MAY BE COLLECTED AS EARLY AS 12 NOON.", "nsi_id": "unitedstatespostalservice-a77078", "operator": "United States Postal Service", "operator:short": "USPS", "operator:type": "public", "operator:wikidata": "Q668687", "ref": "7474300012"}, "type": "Feature"}
{"geometry": {"coordinates": [-95.508683, 34.010874], "type": "Point"}, "id": "gOhSocHpNmvM5mAPFxBEo7iFVzg=", "properties": {"@source_uri": "https://tools.usps.com/UspsToolsRestServices/rest/POLocator/findLocations", "@spider": "usps_collection_boxes", "addr:city": "HUGO", "addr:country": "US", "addr:postcode": "74743", "addr:state": "OK", "addr:street_address": "207 N 4TH ST", "amenity": "post_box", "collection_times": "Mo-Sa 17:00", "indoor": "yes", "note": "ON 12/24 AND 12/31, THIS BOX MAY BE COLLECTED AS EARLY AS 12 NOON.", "nsi_id": "unitedstatespostalservice-a77078", "operator": "United States Postal Service", "operator:short": "USPS", "operator:type": "public", "operator:wikidata": "Q668687", "ref": "7474300013"}, "type": "Feature"}
{"geometry": {"coordinates": [-95.508683, 34.010874], "type": "Point"}, "id": "NM_PFzN0Fq6B2brQNXHcwzFfLzM=", "properties": {"@source_uri": "https://tools.usps.com/UspsToolsRestServices/rest/POLocator/findLocations", "@spider": "usps_collection_boxes", "addr:city": "HUGO", "addr:country": "US", "addr:postcode": "74743", "addr:state": "OK", "addr:street_address": "207 N 4TH ST", "amenity": "post_box", "collection_times": "Mo-Sa 17:00", "indoor": "yes", "note": "ON 12/24 AND 12/31, THIS BOX MAY BE COLLECTED AS EARLY AS 12 NOON.", "nsi_id": "unitedstatespostalservice-a77078", "operator": "United States Postal Service", "operator:short": "USPS", "operator:type": "public", "operator:wikidata": "Q668687", "ref": "7474300014"}, "type": "Feature"}
{"geometry": {"coordinates": [-95.508712311, 34.010844345], "type": "Point"}, "id": "F3od_EJ5u6JOFwPDxDvZWUruSA4=", "properties": {"@source_uri": "https://tools.usps.com/UspsToolsRestServices/rest/POLocator/findLocations", "@spider": "usps_collection_boxes", "addr:city": "HUGO", "addr:country": "US", "addr:postcode": "74743", "addr:state": "OK", "addr:street_address": "207 N 4TH ST", "amenity": "post_box", "collection_times": "Mo-Fr 16:30; Sa 11:00", "indoor": "yes", "note": "ON 12/24 AND 12/31, THIS BOX MAY BE COLLECTED AS EARLY AS 12 NOON.", "nsi_id": "unitedstatespostalservice-a77078", "operator": "United States Postal Service", "operator:short": "USPS", "operator:type": "public", "operator:wikidata": "Q668687", "ref": "7474300015"}, "type": "Feature"}
{"geometry": {"coordinates": [-94.829319065, 33.897280538], "type": "Point"}, "id": "g5Xf7ks5xSVUiuTnnFvJx9P9pn4=", "properties": {"@source_uri": "https://tools.usps.com/UspsToolsRestServices/rest/POLocator/findLocations", "@spider": "usps_collection_boxes", "addr:city": "IDABEL", "addr:country": "US", "addr:postcode": "74745", "addr:state": "OK", "addr:street_address": "201 N CENTRAL AVE", "amenity": "post_box", "collection_times": "Mo-Fr 15:45; Sa 15:00", "note": "ON 12/24 AND 12/31, THIS BOX MAY BE COLLECTED AS EARLY AS 12 NOON.", "nsi_id": "unitedstatespostalservice-a77078", "operator": "United States Postal Service", "operator:short": "USPS", "operator:type": "public", "operator:wikidata": "Q668687", "ref": "7474500008"}, "type": "Feature"}
{"geometry": {"coordinates": [-94.829318, 33.897283], "type": "Point"}, "id": "_u_NgNR0mQlblsBLWW7EJ8saZM0=", "properties": {"@source_uri": "https://tools.usps.com/UspsToolsRestServices/rest/POLocator/findLocations", "@spider": "usps_collection_boxes", "addr:city": "IDABEL", "addr:country": "US", "addr:postcode": "74745", "addr:state": "OK", "addr:street_address": "201 N CENTRAL AVE", "amenity": "post_box", "collection_times": "Mo-Fr 15:45; Sa 15:00", "indoor": "yes", "note": "ON 12/24 AND 12/31, THIS BOX MAY BE COLLECTED AS EARLY AS 12 NOON.", "nsi_id": "unitedstatespostalservice-a77078", "operator": "United States Postal Service", "operator:short": "USPS", "operator:type": "public", "operator:wikidata": "Q668687", "ref": "7474500011"}, "type": "Feature"}
{"geometry": {"coordinates": [-94.829318, 33.897283], "type": "Point"}, "id": "r6zaBcJdn888hAw6UM9OLHXDGpk=", "properties": {"@source_uri": "https://tools.usps.com/UspsToolsRestServices/rest/POLocator/findLocations", "@spider": "usps_collection_boxes", "addr:city": "IDABEL", "addr:country": "US", "addr:postcode": "74745", "addr:state": "OK", "addr:street_address": "201 N CENTRAL AVE", "amenity": "post_box", "collection_times": "Mo-Fr 15:45; Sa 15:00", "indoor": "yes", "note": "ON 12/24 AND 12/31, THIS BOX MAY BE COLLECTED AS EARLY AS 12 NOON.", "nsi_id": "unitedstatespostalservice-a77078", "operator": "United States Postal Service", "operator:short": "USPS", "operator:type": "public", "operator:wikidata": "Q668687", "ref": "7474500012"}, "type": "Feature"}
{"geometry": {"coordinates": [-94.829318, 33.897283], "type": "Point"}, "id": "e_PuZsNv0yVbRO54XogT0E1e3nw=", "properties": {"@source_uri": "https://tools.usps.com/UspsToolsRestServices/rest/POLocator/findLocations", "@spider": "usps_collection_boxes", "addr:city": "IDABEL", "addr:country": "US", "addr:postcode": "74745", "addr:state": "OK", "addr:street_address": "201 N CENTRAL AVE", "amenity": "post_box", "collection_times": "Mo-Fr 15:45; Sa 15:00", "indoor": "yes", "note": "ON 12/24 AND 12/31, THIS BOX MAY BE COLLECTED AS EARLY AS 12 NOON.", "nsi_id": "unitedstatespostalservice-a77078", "operator": "United States Postal Service", "operator:short": "USPS", "operator:type": "public", "operator:wikidata": "Q668687", "ref": "7474500013"}, "type": "Feature"}
{"geometry": {"coordinates": [-94.829319065, 33.897280538], "type": "Point"}, "id": "HrKtxsf5hoPCwOCWxuDM9YSfaKw=", "properties": {"@source_uri": "https://tools.usps.com/UspsToolsRestServices/rest/POLocator/findLocations", "@spider": "usps_collection_boxes", "addr:city": "IDABEL", "addr:country": "US", "addr:postcode": "74745", "addr:state": "OK", "addr:street_address": "201 N CENTRAL AVE LBBY", "amenity": "post_box", "collection_times": "Mo-Fr 16:00; Sa 11:00", "indoor": "yes", "note": "ON 12/24 AND 12/31, THIS BOX MAY BE COLLECTED AS EARLY AS 12 NOON.", "nsi_id": "unitedstatespostalservice-a77078", "operator": "United States Postal Service", "operator:short": "USPS", "operator:type": "public", "operator:wikidata": "Q668687", "ref": "7474500014"}, "type": "Feature"}
{"geometry": {"coordinates": [-96.3629519831, 34.1442026884], "type": "Point"}, "id": "zr_cvSVgAY2OBlxjUm_jedD10aU=", "properties": {"@source_uri": "https://tools.usps.com/UspsToolsRestServices/rest/POLocator/findLocations", "@spider": "usps_collection_boxes", "addr:city": "KENEFIC", "addr:country": "US", "addr:postcode": "74748", "addr:state": "OK", "addr:street_address": "117 MARY ST", "amenity": "post_box", "collection_times": "Mo-Fr 10:30; Sa 10:00", "indoor": "yes", "nsi_id": "unitedstatespostalservice-a77078", "operator": "United States Postal Service", "operator:short": "USPS", "operator:type": "public", "operator:wikidata": "Q668687", "ref": "7474800001"}, "type": "Feature"}
{"geometry": {"coordinates": [-96.3629519831, 34.1442026884], "type": "Point"}, "id": "hWZpbBFuX7RP21bj3-aC5WJdRak=", "properties": {"@source_uri": "https://tools.usps.com/UspsToolsRestServices/rest/POLocator/findLocations", "@spider": "usps_collection_boxes", "addr:city": "KENEFIC", "addr:country": "US", "addr:postcode": "74748", "addr:state": "OK", "addr:street_address": "117 MARY ST", "amenity": "post_box", "collection_times": "Mo-Fr 10:30; Sa 10:00", "indoor": "yes", "nsi_id": "unitedstatespostalservice-a77078", "operator": "United States Postal Service", "operator:short": "USPS", "operator:type": "public", "operator:wikidata": "Q668687", "ref": "7474800002"}, "type": "Feature"}
{"geometry": {"coordinates": [-96.3629519831, 34.1442026884], "type": "Point"}, "id": "5S-mKnx7bQmuypGqBmvHKeXrDk4=", "properties": {"@source_uri": "https://tools.usps.com/UspsToolsRestServices/rest/POLocator/findLocations", "@spider": "usps_collection_boxes", "addr:city": "KENEFIC", "addr:country": "US", "addr:postcode": "74748", "addr:state": "OK", "addr:street_address": "117 MARY ST", "amenity": "post_box", "collection_times": "Mo-Fr 10:30; Sa 10:00", "indoor": "yes", "nsi_id": "unitedstatespostalservice-a77078", "operator": "United States Postal Service", "operator:short": "USPS", "operator:type": "public", "operator:wikidata": "Q668687", "ref": "7474800003"}, "type": "Feature"}
{"geometry": {"coordinates": [-95.013975, 33.986451], "type": "Point"}, "id": "AxZPvCvh6kgbG-WYfp2fzciO_bY=", "properties": {"@source_uri": "https://tools.usps.com/UspsToolsRestServices/rest/POLocator/findLocations", "@spider": "usps_collection_boxes", "addr:city": "MILLERTON", "addr:country": "US", "addr:postcode": "74750", "addr:state": "OK", "addr:street_address": "101 N MAIN ST", "amenity": "post_box", "collection_times": "Mo-Fr 16:00; Sa 10:30", "note": "ON 12/24 AND 12/31, THIS BOX MAY BE COLLECTED AS EARLY AS 12 NOON.", "nsi_id": "unitedstatespostalservice-a77078", "operator": "United States Postal Service", "operator:short": "USPS", "operator:type": "public", "operator:wikidata": "Q668687", "ref": "7475000000"}, "type": "Feature"}
{"geometry": {"coordinates": [-95.013975, 33.986451], "type": "Point"}, "id": "TKlowTJ57-BNG3n3mfLojeYVM54=", "properties": {"@source_uri": "https://tools.usps.com/UspsToolsRestServices/rest/POLocator/findLocations", "@spider": "usps_collection_boxes", "addr:city": "MILLERTON", "addr:country": "US", "addr:postcode": "74750", "addr:state": "OK", "addr:street_address": "101 N MAIN ST", "amenity": "post_box", "collection_times": "Mo-Fr 16:00; Sa 10:30", "indoor": "yes", "note": "ON 12/24 AND 12/31, THIS BOX MAY BE COLLECTED AS EARLY AS 12 NOON.", "nsi_id": "unitedstatespostalservice-a77078", "operator": "United States Postal Service", "operator:short": "USPS", "operator:type": "public", "operator:wikidata": "Q668687", "ref": "7475000001"}, "type": "Feature"}
{"geometry": {"coordinates": [-95.013976591, 33.986447696], "type": "Point"}, "id": "Yc1Nzv6Q_rMesQu7V4bFF8O3Z3A=", "properties": {"@source_uri": "https://tools.usps.com/UspsToolsRestServices/rest/POLocator/findLocations", "@spider": "usps_collection_boxes", "addr:city": "MILLERTON", "addr:country": "US", "addr:postcode": "74750", "addr:state": "OK", "addr:street_address": "101 N MAIN ST", "amenity": "post_box", "collection_times": "Mo-Fr 16:00; Sa 11:30", "indoor": "yes", "note": "ON 12/24 AND 12/31, THIS BOX MAY BE COLLECTED AS EARLY AS 12 NOON.", "nsi_id": "unitedstatespostalservice-a77078", "operator": "United States Postal Service", "operator:short": "USPS", "operator:type": "public", "operator:wikidata": "Q668687", "ref": "7475000002"}, "type": "Feature"}
{"geometry": {"coordinates": [-95.003310909, 34.058690466], "type": "Point"}, "id": "fCfQjM3YJIscV9Vrvv9yZeStOyM=", "properties": {"@source_uri": "https://tools.usps.com/UspsToolsRestServices/rest/POLocator/findLocations", "@spider": "usps_collection_boxes", "addr:city": "PICKENS", "addr:country": "US", "addr:postcode": "74752", "addr:state": "OK", "addr:street_address": "100 MAIN ST", "amenity": "post_box", "collection_times": "Mo-Fr 12:15; Sa 12:00", "indoor": "yes", "note": "ON 12/24 AND 12/31, THIS BOX MAY BE COLLECTED AS EARLY AS 12 NOON.", "nsi_id": "unitedstatespostalservice-a77078", "operator": "United States Postal Service", "operator:short": "USPS", "operator:type": "public", "operator:wikidata": "Q668687", "ref": "7475200001"}, "type": "Feature"}
{"geometry": {"coordinates": [-95.003310909, 34.058690466], "type": "Point"}, "id": "PWwrUtfd2tAVxPJFi--7q2HH_Dc=", "properties": {"@source_uri": "https://tools.usps.com/UspsToolsRestServices/rest/POLocator/findLocations", "@spider": "usps_collection_boxes", "addr:city": "PICKENS", "addr:country": "US", "addr:postcode": "74752", "addr:state": "OK", "addr:street_address": "100 MAIN ST", "amenity": "post_box", "collection_times": "Mo-Sa 13:00", "indoor": "yes", "note": "ON 12/24 AND 12/31, THIS BOX MAY BE COLLECTED AS EARLY AS 12 NOON.", "nsi_id": "unitedstatespostalservice-a77078", "operator": "United States Postal Service", "operator:short": "USPS", "operator:type": "public", "operator:wikidata": "Q668687", "ref": "7475200002"}, "type": "Feature"}
{"geometry": {"coordinates": [-95.034859, 34.15707], "type": "Point"}, "id": "8Fhag0sE-bwIxrctg4_QNS-yWlY=", "properties": {"@source_uri": "https://tools.usps.com/UspsToolsRestServices/rest/POLocator/findLocations", "@spider": "usps_collection_boxes", "addr:city": "RINGOLD", "addr:country": "US", "addr:postcode": "74754", "addr:state": "OK", "addr:street_address": "23112 W STATE HIGHWAY 3", "amenity": "post_box", "collection_times": "Mo-Fr 11:30; Sa 10:30", "indoor": "yes", "nsi_id": "unitedstatespostalservice-a77078", "operator": "United States Postal Service", "operator:short": "USPS", "operator:type": "public", "operator:wikidata": "Q668687", "ref": "7475400001"}, "type": "Feature"}
{"geometry": {"coordinates": [-95.089882904, 34.176852291], "type": "Point"}, "id": "2fqIWLAN7aXS9YyE_XMF8eWwDXM=", "properties": {"@source_uri": "https://tools.usps.com/UspsToolsRestServices/rest/POLocator/findLocations", "@spider": "usps_collection_boxes", "addr:city": "RINGOLD", "addr:country": "US", "addr:postcode": "74754", "addr:state": "OK", "addr:street_address": "23112 W STATE HIGHWAY 3", "amenity": "post_box", "collection_times": "Mo-Sa 11:30", "indoor": "yes", "nsi_id": "unitedstatespostalservice-a77078", "operator": "United States Postal Service", "operator:short": "USPS", "operator:type": "public", "operator:wikidata": "Q668687", "ref": "7475400002"}, "type": "Feature"}
{"geometry": {"coordinates": [-95.3487663632, 34.0259646427], "type": "Point"}, "id": "YEsx6B2h4n4vv3mm74TtdVJMGP4=", "properties": {"@source_uri": "https://tools.usps.com/UspsToolsRestServices/rest/POLocator/findLocations", "@spider": "usps_collection_boxes", "addr:city": "SAWYER", "addr:country": "US", "addr:postcode": "74756", "addr:state": "OK", "addr:street_address": "100 DAM ACCESS", "amenity": "post_box", "collection_times": "Mo-Fr 11:00; Sa 09:00", "indoor": "yes", "nsi_id": "unitedstatespostalservice-a77078", "operator": "United States Postal Service", "operator:short": "USPS", "operator:type": "public", "operator:wikidata": "Q668687", "ref": "7475600001"}, "type": "Feature"}
{"geometry": {"coordinates": [-95.3487663632, 34.0259646427], "type": "Point"}, "id": "0dtTu-7XIOhDIbfG90hw_17Z7ds=", "properties": {"@source_uri": "https://tools.usps.com/UspsToolsRestServices/rest/POLocator/findLocations", "@spider": "usps_collection_boxes", "addr:city": "SAWYER", "addr:country": "US", "addr:postcode": "74756", "addr:state": "OK", "addr:street_address": "100 DAM ACCESS", "amenity": "post_box", "collection_times": "Mo-Fr 11:00; Sa 09:00", "indoor": "yes", "nsi_id": "unitedstatespostalservice-a77078", "operator": "United States Postal Service", "operator:short": "USPS", "operator:type": "public", "operator:wikidata": "Q668687", "ref": "7475600002"}, "type": "Feature"}
{"geometry": {"coordinates": [-95.371502008, 34.015203541], "type": "Point"}, "id": "hqJEjzXiOod_iGwrpl4Pg6Tkc_Y=", "properties": {"@source_uri": "https://tools.usps.com/UspsToolsRestServices/rest/POLocator/findLocations", "@spider": "usps_collection_boxes", "addr:city": "SAWYER", "addr:country": "US", "addr:postcode": "74756", "addr:state": "OK", "addr:street_address": "320 SAWYER DAM RD", "amenity": "post_box", "collection_times": "Mo-Fr 11:00", "indoor": "yes", "nsi_id": "unitedstatespostalservice-a77078", "operator": "United States Postal Service", "operator:short": "USPS", "operator:type": "public", "operator:wikidata": "Q668687", "ref": "7475600003"}, "type": "Feature"}
{"geometry": {"coordinates": [-95.698286, 34.03407], "type": "Point"}, "id": "Oh_XCSsfThpzBU8warxLXO7_uHk=", "properties": {"@source_uri": "https://tools.usps.com/UspsToolsRestServices/rest/POLocator/findLocations", "@spider": "usps_collection_boxes", "addr:city": "SOPER", "addr:country": "US", "addr:postcode": "74759", "addr:state": "OK", "addr:street_address": "300 PARIS AVE", "amenity": "post_box", "collection_times": "Mo-Fr 13:45; Sa 08:00", "indoor": "yes", "note": "ON 12/24 AND 12/31, THIS BOX MAY BE COLLECTED AS EARLY AS 12 NOON.", "nsi_id": "unitedstatespostalservice-a77078", "operator": "United States Postal Service", "operator:short": "USPS", "operator:type": "public", "operator:wikidata": "Q668687", "ref": "7475900001"}, "type": "Feature"}
{"geometry": {"coordinates": [-95.698286, 34.03407], "type": "Point"}, "id": "fIwH4cYW0FuEzUIRrVzmKS7m9ZA=", "properties": {"@source_uri": "https://tools.usps.com/UspsToolsRestServices/rest/POLocator/findLocations", "@spider": "usps_collection_boxes", "addr:city": "SOPER", "addr:country": "US", "addr:postcode": "74759", "addr:state": "OK", "addr:street_address": "300 PARIS AVE", "amenity": "post_box", "collection_times": "Mo-Fr 13:45; Sa 08:00", "indoor": "yes", "note": "ON 12/24 AND 12/31, THIS BOX MAY BE COLLECTED AS EARLY AS 12 NOON.", "nsi_id": "unitedstatespostalservice-a77078", "operator": "United States Postal Service", "operator:short": "USPS", "operator:type": "public", "operator:wikidata": "Q668687", "ref": "7475900002"}, "type": "Feature"}
{"geometry": {"coordinates": [-95.696405794, 34.033724544], "type": "Point"}, "id": "w0kPFJ8sNpr4yG_hhBWpxWfm21A=", "properties": {"@source_uri": "https://tools.usps.com/UspsToolsRestServices/rest/POLocator/findLocations", "@spider": "usps_collection_boxes", "addr:city": "SOPER", "addr:country": "US", "addr:postcode": "74759", "addr:state": "OK", "addr:street_address": "300 PARIS AVE", "amenity": "post_box", "collection_times": "Mo-Fr 14:00", "indoor": "yes", "note": "ON 12/24 AND 12/31, THIS BOX MAY BE COLLECTED AS EARLY AS 12 NOON.", "nsi_id": "unitedstatespostalservice-a77078", "operator": "United States Postal Service", "operator:short": "USPS", "operator:type": "public", "operator:wikidata": "Q668687", "ref": "7475900003"}, "type": "Feature"}
{"geometry": {"coordinates": [-95.200079, 34.018824], "type": "Point"}, "id": "5xEnYefmINbCaAa4wlhfMt_zfds=", "properties": {"@source_uri": "https://tools.usps.com/UspsToolsRestServices/rest/POLocator/findLocations", "@spider": "usps_collection_boxes", "addr:city": "SWINK", "addr:country": "US", "addr:postcode": "74761", "addr:state": "OK", "addr:street_address": "100 FRONT ST", "amenity": "post_box", "collection_times": "Mo-Fr 14:30; Sa 09:15", "indoor": "yes", "note": "ON 12/24 AND 12/31, THIS BOX MAY BE COLLECTED AS EARLY AS 12 NOON.", "nsi_id": "unitedstatespostalservice-a77078", "operator": "United States Postal Service", "operator:short": "USPS", "operator:type": "public", "operator:wikidata": "Q668687", "ref": "7476100001"}, "type": "Feature"}
{"geometry": {"coordinates": [-95.20230373, 34.019122516], "type": "Point"}, "id": "dLUH_23eu5QreY-YBlCtk3hCfRY=", "properties": {"@source_uri": "https://tools.usps.com/UspsToolsRestServices/rest/POLocator/findLocations", "@spider": "usps_collection_boxes", "addr:city": "SWINK", "addr:country": "US", "addr:postcode": "74761", "addr:state": "OK", "addr:street_address": "100 FRONT ST", "amenity": "post_box", "collection_times": "Mo-Fr 14:30; Sa 09:15", "indoor": "yes", "note": "ON 12/24 AND 12/31, THIS BOX MAY BE COLLECTED AS EARLY AS 12 NOON.", "nsi_id": "unitedstatespostalservice-a77078", "operator": "United States Postal Service", "operator:short": "USPS", "operator:type": "public", "operator:wikidata": "Q668687", "ref": "7476100002"}, "type": "Feature"}
{"geometry": {"coordinates": [-95.093254, 34.00686], "type": "Point"}, "id": "13BiAmgOaGopdLv8zDoEWgIyWUU=", "properties": {"@source_uri": "https://tools.usps.com/UspsToolsRestServices/rest/POLocator/findLocations", "@spider": "usps_collection_boxes", "addr:city": "VALLIANT", "addr:country": "US", "addr:postcode": "74764", "addr:state": "OK", "addr:street_address": "501 N DALTON ST", "amenity": "post_box", "collection_times": "Mo-Fr 15:00; Sa 10:00", "note": "ON 12/24 AND 12/31, THIS BOX MAY BE COLLECTED AS EARLY AS 12 NOON.", "nsi_id": "unitedstatespostalservice-a77078", "operator": "United States Postal Service", "operator:short": "USPS", "operator:type": "public", "operator:wikidata": "Q668687", "ref": "7476400000"}, "type": "Feature"}
{"geometry": {"coordinates": [-95.093254, 34.00686], "type": "Point"}, "id": "Nc5ZOAor2ejzm09ZFIlxM7lQEgg=", "properties": {"@source_uri": "https://tools.usps.com/UspsToolsRestServices/rest/POLocator/findLocations", "@spider": "usps_collection_boxes", "addr:city": "VALLIANT", "addr:country": "US", "addr:postcode": "74764", "addr:state": "OK", "addr:street_address": "501 N DALTON ST", "amenity": "post_box", "collection_times": "Mo-Fr 15:00; Sa 10:00", "indoor": "yes", "note": "ON 12/24 AND 12/31, THIS BOX MAY BE COLLECTED AS EARLY AS 12 NOON.", "nsi_id": "unitedstatespostalservice-a77078", "operator": "United States Postal Service", "operator:short": "USPS", "operator:type": "public", "operator:wikidata": "Q668687", "ref": "7476400001"}, "type": "Feature"}
{"geometry": {"coordinates": [-95.093254, 34.00686], "type": "Point"}, "id": "gi7PU3ILh7vBObRX7UTB4IBAywM=", "properties": {"@source_uri": "https://tools.usps.com/UspsToolsRestServices/rest/POLocator/findLocations", "@spider": "usps_collection_boxes", "addr:city": "VALLIANT", "addr:country": "US", "addr:postcode": "74764", "addr:state": "OK", "addr:street_address": "501 N DALTON ST", "amenity": "post_box", "collection_times": "Mo-Fr 15:00; Sa 10:00", "indoor": "yes", "note": "ON 12/24 AND 12/31, THIS BOX MAY BE COLLECTED AS EARLY AS 12 NOON.", "nsi_id": "unitedstatespostalservice-a77078", "operator": "United States Postal Service", "operator:short": "USPS", "operator:type": "public", "operator:wikidata": "Q668687", "ref": "7476400002"}, "type": "Feature"}
{"geometry": {"coordinates": [-95.093254646, 34.006859916], "type": "Point"}, "id": "lizhJb1J0PETDFJatk6FudnINPY=", "properties": {"@source_uri": "https://tools.usps.com/UspsToolsRestServices/rest/POLocator/findLocations", "@spider": "usps_collection_boxes", "addr:city": "VALLIANT", "addr:country": "US", "addr:postcode": "74764", "addr:state": "OK", "addr:street_address": "501 N DALTON ST", "amenity": "post_box", "collection_times": "Mo-Fr 16:00", "indoor": "yes", "note": "ON 12/24 AND 12/31, THIS BOX MAY BE COLLECTED AS EARLY AS 12 NOON.", "nsi_id": "unitedstatespostalservice-a77078", "operator": "United States Postal Service", "operator:short": "USPS", "operator:type": "public", "operator:wikidata": "Q668687", "ref": "7476400003"}, "type": "Feature"}
{"geometry": {"coordinates": [-95.001978, 34.067984], "type": "Point"}, "id": "bdtIhYOd26cnfP3zu8u1LT5vEvk=", "properties": {"@source_uri": "https://tools.usps.com/UspsToolsRestServices/rest/POLocator/findLocations", "@spider": "usps_collection_boxes", "addr:city": "WRIGHT CITY", "addr:country": "US", "addr:postcode": "74766", "addr:state": "OK", "addr:street_address": "301 W 10TH ST", "amenity": "post_box", "collection_times": "Mo-Fr 15:00; Sa 10:00", "note": "ON 12/24 AND 12/31, THIS BOX MAY BE COLLECTED AS EARLY AS 12 NOON.", "nsi_id": "unitedstatespostalservice-a77078", "operator": "United States Postal Service", "operator:short": "USPS", "operator:type": "public", "operator:wikidata": "Q668687", "ref": "7476600000"}, "type": "Feature"}
{"geometry": {"coordinates": [-95.006311, 34.068348], "type": "Point"}, "id": "S_ZwgoFPYM4QGODj2OesFz1C5Hk=", "properties": {"@source_uri": "https://tools.usps.com/UspsToolsRestServices/rest/POLocator/findLocations", "@spider": "usps_collection_boxes", "addr:city": "WRIGHT CITY", "addr:country": "US", "addr:postcode": "74766", "addr:state": "OK", "addr:street_address": "301 W 10TH ST", "amenity": "post_box", "collection_times": "Mo-Fr 15:00; Sa 10:00", "indoor": "yes", "note": "ON 12/24 AND 12/31, THIS BOX MAY BE COLLECTED AS EARLY AS 12 NOON.", "nsi_id": "unitedstatespostalservice-a77078", "operator": "United States Postal Service", "operator:short": "USPS", "operator:type": "public", "operator:wikidata": "Q668687", "ref": "7476600001"}, "type": "Feature"}
{"geometry": {"coordinates": [-95.006311, 34.068348], "type": "Point"}, "id": "gvhUF10uxHpLVoB0BRGx3d6z6VM=", "properties": {"@source_uri": "https://tools.usps.com/UspsToolsRestServices/rest/POLocator/findLocations", "@spider": "usps_collection_boxes", "addr:city": "WRIGHT CITY", "addr:country": "US", "addr:postcode": "74766", "addr:state": "OK", "addr:street_address": "301 W 10TH ST", "amenity": "post_box", "collection_times": "Mo-Fr 15:00; Sa 10:00", "indoor": "yes", "note": "ON 12/24 AND 12/31, THIS BOX MAY BE COLLECTED AS EARLY AS 12 NOON.", "nsi_id": "unitedstatespostalservice-a77078", "operator": "United States Postal Service", "operator:short": "USPS", "operator:type": "public", "operator:wikidata": "Q668687", "ref": "7476600003"}, "type": "Feature"}
{"geometry": {"coordinates": [-95.006312832, 34.068342497], "type": "Point"}, "id": "KwmPvA1UQC9z__W34baKDFoVziM=", "properties": {"@source_uri": "https://tools.usps.com/UspsToolsRestServices/rest/POLocator/findLocations", "@spider": "usps_collection_boxes", "addr:city": "WRIGHT CITY", "addr:country": "US", "addr:postcode": "74766", "addr:state": "OK", "addr:street_address": "301 W 10TH ST", "amenity": "post_box", "collection_times": "Mo-Fr 16:00", "indoor": "yes", "note": "ON 12/24 AND 12/31, THIS BOX MAY BE COLLECTED AS EARLY AS 12 NOON.", "nsi_id": "unitedstatespostalservice-a77078", "operator": "United States Postal Service", "operator:short": "USPS", "operator:type": "public", "operator:wikidata": "Q668687", "ref": "7476600004"}, "type": "Feature"}
