{"dataset_attributes": {"@spider": "usps_collection_boxes", "spider:collection_time": "2024-02-07T08:23:59.531981"}, "geometry": {"coordinates": [-96.921661, 35.328698], "type": "Point"}, "id": "b16DImkL50wqCvrqfR1cpiHAAqE=", "properties": {"@spider": "usps_collection_boxes", "addr:city": "SHAWNEE", "addr:country": "US", "addr:full": "116 E 9TH ST", "addr:postcode": "74801", "addr:state": "OK", "amenity": "post_box", "brand": "United States Postal Service", "brand:wikidata": "Q668687", "collection_times": "Mo-Fr 17:00; Sa 16:00", "name": "USPS COLLECTION BOX - PO LOBBY", "note": "ON 12/24 AND 12/31, THIS BOX MAY BE COLLECTED AS EARLY AS 12 NOON.", "nsi_id": "unitedstatespostalservice-a77078", "operator": "United States Postal Service", "operator:short": "USPS", "operator:type": "public", "operator:wikidata": "Q668687", "ref": "7480100046"}, "type": "Feature"}
{"dataset_attributes": {"@spider": "usps_collection_boxes", "spider:collection_time": "2024-02-07T08:23:59.531981"}, "geometry": {"coordinates": [-96.922181, 35.328761], "type": "Point"}, "id": "Vg8oiQj-MkBRzuiu-LABVQbD_tU=", "properties": {"@spider": "usps_collection_boxes", "addr:city": "SHAWNEE", "addr:country": "US", "addr:full": "115 E 9TH ST", "addr:postcode": "74801", "addr:state": "OK", "amenity": "post_box", "brand": "United States Postal Service", "brand:wikidata": "Q668687", "collection_times": "Mo-Fr 17:00; Sa 16:00", "name": "USPS COLLECTION BOX - BLUE BOX", "note": "ON 12/24 AND 12/31, THIS BOX MAY BE COLLECTED AS EARLY AS 12 NOON.", "nsi_id": "unitedstatespostalservice-a77078", "operator": "United States Postal Service", "operator:short": "USPS", "operator:type": "public", "operator:wikidata": "Q668687", "ref": "7480100047"}, "type": "Feature"}
{"dataset_attributes": {"@spider": "usps_collection_boxes", "spider:collection_time": "2024-02-07T08:23:59.531981"}, "geometry": {"coordinates": [-96.9216615, 35.328694515], "type": "Point"}, "id": "5HQpxBHvrzJD68HiAEVL6JxRdAQ=", "properties": {"@spider": "usps_collection_boxes", "addr:city": "SHAWNEE", "addr:country": "US", "addr:full": "116 E 9TH ST", "addr:postcode": "74801", "addr:state": "OK", "amenity": "post_box", "brand": "United States Postal Service", "brand:wikidata": "Q668687", "collection_times": "Mo-Fr 17:00", "name": "USPS COLLECTION BOX - PO LOBBY", "note": "ON 12/24 AND 12/31, THIS BOX MAY BE COLLECTED AS EARLY AS 12 NOON.", "nsi_id": "unitedstatespostalservice-a77078", "operator": "United States Postal Service", "operator:short": "USPS", "operator:type": "public", "operator:wikidata": "Q668687", "ref": "7480100049"}, "type": "Feature"}
{"dataset_attributes": {"@spider": "usps_collection_boxes", "spider:collection_time": "2024-02-07T08:23:59.531981"}, "geometry": {"coordinates": [-96.9259300069, 35.362590009], "type": "Point"}, "id": "9QblP2Bih2BNuZry64301CQlGno=", "properties": {"@spider": "usps_collection_boxes", "addr:city": "SHAWNEE", "addr:country": "US", "addr:full": "120 W MACARTHUR ST", "addr:postcode": "74801", "addr:state": "OK", "amenity": "post_box", "brand": "United States Postal Service", "brand:wikidata": "Q668687", "collection_times": "Mo-Sa 13:30", "name": "USPS COLLECTION BOX - BLUE BOX", "note": "ON 12/24 AND 12/31, THIS BOX MAY BE COLLECTED AS EARLY AS 12 NOON.", "nsi_id": "unitedstatespostalservice-a77078", "operator": "United States Postal Service", "operator:short": "USPS", "operator:type": "public", "operator:wikidata": "Q668687", "ref": "7480100050"}, "type": "Feature"}
{"dataset_attributes": {"@spider": "usps_collection_boxes", "spider:collection_time": "2024-02-07T08:23:59.531981"}, "geometry": {"coordinates": [-96.9110279, 35.354227], "type": "Point"}, "id": "09g0DBD6r2cKjdFOBLZ1CSSh-d0=", "properties": {"@spider": "usps_collection_boxes", "addr:city": "SHAWNEE", "addr:country": "US", "addr:full": "901 E FEDERAL ST", "addr:postcode": "74804", "addr:state": "OK", "amenity": "post_box", "brand": "United States Postal Service", "brand:wikidata": "Q668687", "collection_times": "Mo-Fr 14:30; Sa 13:00", "name": "USPS COLLECTION BOX - BLUE BOX", "note": "ON 12/24 AND 12/31, THIS BOX MAY BE COLLECTED AS EARLY AS 12 NOON.", "nsi_id": "unitedstatespostalservice-a77078", "operator": "United States Postal Service", "operator:short": "USPS", "operator:type": "public", "operator:wikidata": "Q668687", "ref": "7480400001"}, "type": "Feature"}
{"dataset_attributes": {"@spider": "usps_collection_boxes", "spider:collection_time": "2024-02-07T08:23:59.531981"}, "geometry": {"coordinates": [-96.9325015, 35.347652], "type": "Point"}, "id": "AQIoARXYrV3IK7zpgpZLjlOrrMU=", "properties": {"@spider": "usps_collection_boxes", "addr:city": "SHAWNEE", "addr:country": "US", "addr:full": "600 W INDEPENDENCE ST", "addr:postcode": "74804", "addr:state": "OK", "amenity": "post_box", "brand": "United States Postal Service", "brand:wikidata": "Q668687", "collection_times": "Mo-Sa 14:30", "name": "USPS COLLECTION BOX - BLUE BOX", "note": "ON 12/24 AND 12/31, THIS BOX MAY BE COLLECTED AS EARLY AS 12 NOON.", "nsi_id": "unitedstatespostalservice-a77078", "operator": "United States Postal Service", "operator:short": "USPS", "operator:type": "public", "operator:wikidata": "Q668687", "ref": "7480400006"}, "type": "Feature"}
{"dataset_attributes": {"@spider": "usps_collection_boxes", "spider:collection_time": "2024-02-07T08:23:59.531981"}, "geometry": {"coordinates": [-96.925930007, 35.362590009], "type": "Point"}, "id": "_lxUix68zfXj9SqgsdMO1sqryB8=", "properties": {"@spider": "usps_collection_boxes", "addr:city": "SHAWNEE", "addr:country": "US", "addr:full": "120 W MACARTHUR ST", "addr:postcode": "74804", "addr:state": "OK", "amenity": "post_box", "brand": "United States Postal Service", "brand:wikidata": "Q668687", "collection_times": "Mo-Sa 13:30", "name": "USPS COLLECTION BOX - BLUE BOX", "note": "ON 12/24 AND 12/31, THIS BOX MAY BE COLLECTED AS EARLY AS 12 NOON.", "nsi_id": "unitedstatespostalservice-a77078", "operator": "United States Postal Service", "operator:short": "USPS", "operator:type": "public", "operator:wikidata": "Q668687", "ref": "7480400008"}, "type": "Feature"}
{"dataset_attributes": {"@spider": "usps_collection_boxes", "spider:collection_time": "2024-02-07T08:23:59.531981"}, "geometry": {"coordinates": [-96.6542352, 34.789075], "type": "Point"}, "id": "X4AgHhR2Uw4ya2h6qjATY0lswT8=", "properties": {"@spider": "usps_collection_boxes", "addr:city": "ADA", "addr:country": "US", "addr:full": "1419 N COUNTRY CLUB RD", "addr:postcode": "74820", "addr:state": "OK", "amenity": "post_box", "brand": "United States Postal Service", "brand:wikidata": "Q668687", "collection_times": "Mo-Fr 10:00; Sa 09:00", "name": "USPS COLLECTION BOX - BLUE BOX", "nsi_id": "unitedstatespostalservice-a77078", "operator": "United States Postal Service", "operator:short": "USPS", "operator:type": "public", "operator:wikidata": "Q668687", "ref": "7482000025"}, "type": "Feature"}
{"dataset_attributes": {"@spider": "usps_collection_boxes", "spider:collection_time": "2024-02-07T08:23:59.531981"}, "geometry": {"coordinates": [-96.677441, 34.773412], "type": "Point"}, "id": "6-vFjT0MDsWpH51nwwkbwzYomkQ=", "properties": {"@spider": "usps_collection_boxes", "addr:city": "ADA", "addr:country": "US", "addr:full": "131 E 12TH ST", "addr:postcode": "74820", "addr:state": "OK", "amenity": "post_box", "brand": "United States Postal Service", "brand:wikidata": "Q668687", "collection_times": "Mo-Fr 17:00; Sa 16:30", "name": "USPS COLLECTION BOX - BLUE BOX", "note": "ON 12/24 AND 12/31, THIS BOX MAY BE COLLECTED AS EARLY AS 12 NOON.", "nsi_id": "unitedstatespostalservice-a77078", "operator": "United States Postal Service", "operator:short": "USPS", "operator:type": "public", "operator:wikidata": "Q668687", "ref": "7482000027"}, "type": "Feature"}
{"dataset_attributes": {"@spider": "usps_collection_boxes", "spider:collection_time": "2024-02-07T08:23:59.531981"}, "geometry": {"coordinates": [-96.677441, 34.773412], "type": "Point"}, "id": "1wCf0Q5FkHVOWfW-7ec6_8wyQ_0=", "properties": {"@spider": "usps_collection_boxes", "addr:city": "ADA", "addr:country": "US", "addr:full": "131 E 12TH ST", "addr:postcode": "74820", "addr:state": "OK", "amenity": "post_box", "brand": "United States Postal Service", "brand:wikidata": "Q668687", "collection_times": "Mo-Fr 17:00; Sa 16:30", "name": "USPS COLLECTION BOX - PO LOBBY", "note": "ON 12/24 AND 12/31, THIS BOX MAY BE COLLECTED AS EARLY AS 12 NOON.", "nsi_id": "unitedstatespostalservice-a77078", "operator": "United States Postal Service", "operator:short": "USPS", "operator:type": "public", "operator:wikidata": "Q668687", "ref": "7482000034"}, "type": "Feature"}
{"dataset_attributes": {"@spider": "usps_collection_boxes", "spider:collection_time": "2024-02-07T08:23:59.531981"}, "geometry": {"coordinates": [-96.677442, 34.773404522], "type": "Point"}, "id": "mls3JJtX1kD57Whd-Q74P28kJKY=", "properties": {"@spider": "usps_collection_boxes", "addr:city": "ADA", "addr:country": "US", "addr:full": "131 E 12TH ST", "addr:postcode": "74820", "addr:state": "OK", "amenity": "post_box", "brand": "United States Postal Service", "brand:wikidata": "Q668687", "collection_times": "Mo-Fr 16:30; Sa 12:00", "name": "USPS COLLECTION BOX - PO LOBBY", "note": "ON 12/24 AND 12/31, THIS BOX MAY BE COLLECTED AS EARLY AS 12 NOON.", "nsi_id": "unitedstatespostalservice-a77078", "operator": "United States Postal Service", "operator:short": "USPS", "operator:type": "public", "operator:wikidata": "Q668687", "ref": "7482000047"}, "type": "Feature"}
{"dataset_attributes": {"@spider": "usps_collection_boxes", "spider:collection_time": "2024-02-07T08:23:59.531981"}, "geometry": {"coordinates": [-96.87247, 35.895347], "type": "Point"}, "id": "gAR9WSTUViKJrfJFN-VBvd_jtZs=", "properties": {"@spider": "usps_collection_boxes", "addr:city": "AGRA", "addr:country": "US", "addr:full": "13 S MAIN ST", "addr:postcode": "74824", "addr:state": "OK", "amenity": "post_box", "brand": "United States Postal Service", "brand:wikidata": "Q668687", "collection_times": "Mo-Fr 12:30; Sa 10:45", "name": "USPS COLLECTION BOX - PO LOBBY", "note": "ON 12/24 AND 12/31, THIS BOX MAY BE COLLECTED AS EARLY AS 12 NOON.", "nsi_id": "unitedstatespostalservice-a77078", "operator": "United States Postal Service", "operator:short": "USPS", "operator:type": "public", "operator:wikidata": "Q668687", "ref": "7482400001"}, "type": "Feature"}
{"dataset_attributes": {"@spider": "usps_collection_boxes", "spider:collection_time": "2024-02-07T08:23:59.531981"}, "geometry": {"coordinates": [-96.87247, 35.895347], "type": "Point"}, "id": "5WV0SLdN1W5L_AbsxY0cKYJzzIk=", "properties": {"@spider": "usps_collection_boxes", "addr:city": "AGRA", "addr:country": "US", "addr:full": "13 S MAIN ST", "addr:postcode": "74824", "addr:state": "OK", "amenity": "post_box", "brand": "United States Postal Service", "brand:wikidata": "Q668687", "collection_times": "Mo-Fr 12:30; Sa 10:45", "name": "USPS COLLECTION BOX - PO LOBBY", "note": "ON 12/24 AND 12/31, THIS BOX MAY BE COLLECTED AS EARLY AS 12 NOON.", "nsi_id": "unitedstatespostalservice-a77078", "operator": "United States Postal Service", "operator:short": "USPS", "operator:type": "public", "operator:wikidata": "Q668687", "ref": "7482400002"}, "type": "Feature"}
{"dataset_attributes": {"@spider": "usps_collection_boxes", "spider:collection_time": "2024-02-07T08:23:59.531981"}, "geometry": {"coordinates": [-96.872728735, 35.894945975], "type": "Point"}, "id": "bsa5ir-teyeHfuiIPIeM2ohHldo=", "properties": {"@spider": "usps_collection_boxes", "addr:city": "AGRA", "addr:country": "US", "addr:full": "13 S MAIN ST", "addr:postcode": "74824", "addr:state": "OK", "amenity": "post_box", "brand": "United States Postal Service", "brand:wikidata": "Q668687", "collection_times": "Mo-Fr 12:30; Sa 10:00", "name": "USPS COLLECTION BOX - PO LOBBY", "note": "ON 12/24 AND 12/31, THIS BOX MAY BE COLLECTED AS EARLY AS 12 NOON.", "nsi_id": "unitedstatespostalservice-a77078", "operator": "United States Postal Service", "operator:short": "USPS", "operator:type": "public", "operator:wikidata": "Q668687", "ref": "7482400003"}, "type": "Feature"}
{"dataset_attributes": {"@spider": "usps_collection_boxes", "spider:collection_time": "2024-02-07T08:23:59.531981"}, "geometry": {"coordinates": [-96.416003, 34.878701], "type": "Point"}, "id": "gR4WkF5CChZ9v6uwsdDBQF5GFbs=", "properties": {"@spider": "usps_collection_boxes", "addr:city": "ALLEN", "addr:country": "US", "addr:full": "107 S EASTON", "addr:postcode": "74825", "addr:state": "OK", "amenity": "post_box", "brand": "United States Postal Service", "brand:wikidata": "Q668687", "collection_times": "Mo-Fr 14:45; Sa 09:30", "name": "USPS COLLECTION BOX - BLUE BOX", "note": "ON 12/24 AND 12/31, THIS BOX MAY BE COLLECTED AS EARLY AS 12 NOON.", "nsi_id": "unitedstatespostalservice-a77078", "operator": "United States Postal Service", "operator:short": "USPS", "operator:type": "public", "operator:wikidata": "Q668687", "ref": "7482500000"}, "type": "Feature"}
{"dataset_attributes": {"@spider": "usps_collection_boxes", "spider:collection_time": "2024-02-07T08:23:59.531981"}, "geometry": {"coordinates": [-96.416003, 34.878701], "type": "Point"}, "id": "tgyet0CrmB3MeqBzAcNP7EJRnuM=", "properties": {"@spider": "usps_collection_boxes", "addr:city": "ALLEN", "addr:country": "US", "addr:full": "107 S EASTON", "addr:postcode": "74825", "addr:state": "OK", "amenity": "post_box", "brand": "United States Postal Service", "brand:wikidata": "Q668687", "collection_times": "Mo-Fr 14:45; Sa 09:30", "name": "USPS COLLECTION BOX - PO LOBBY", "note": "ON 12/24 AND 12/31, THIS BOX MAY BE COLLECTED AS EARLY AS 12 NOON.", "nsi_id": "unitedstatespostalservice-a77078", "operator": "United States Postal Service", "operator:short": "USPS", "operator:type": "public", "operator:wikidata": "Q668687", "ref": "7482500001"}, "type": "Feature"}
{"dataset_attributes": {"@spider": "usps_collection_boxes", "spider:collection_time": "2024-02-07T08:23:59.531981"}, "geometry": {"coordinates": [-96.416002707, 34.878697973], "type": "Point"}, "id": "6HJKLBZON5Z_hM-ff9lv8BstkTc=", "properties": {"@spider": "usps_collection_boxes", "addr:city": "ALLEN", "addr:country": "US", "addr:full": "107 S EASTON", "addr:postcode": "74825", "addr:state": "OK", "amenity": "post_box", "brand": "United States Postal Service", "brand:wikidata": "Q668687", "collection_times": "Mo-Fr 14:45; Sa 09:30", "name": "USPS COLLECTION BOX - PO LOBBY", "note": "ON 12/24 AND 12/31, THIS BOX MAY BE COLLECTED AS EARLY AS 12 NOON.", "nsi_id": "unitedstatespostalservice-a77078", "operator": "United States Postal Service", "operator:short": "USPS", "operator:type": "public", "operator:wikidata": "Q668687", "ref": "7482500003"}, "type": "Feature"}
{"dataset_attributes": {"@spider": "usps_collection_boxes", "spider:collection_time": "2024-02-07T08:23:59.531981"}, "geometry": {"coordinates": [-96.9267227, 34.989289], "type": "Point"}, "id": "s_cr21mdYHv2KVwVNkdmXrSUKyU=", "properties": {"@spider": "usps_collection_boxes", "addr:city": "ASHER", "addr:country": "US", "addr:full": "112 W MAIN ST", "addr:postcode": "74826", "addr:state": "OK", "amenity": "post_box", "brand": "United States Postal Service", "brand:wikidata": "Q668687", "collection_times": "Mo-Fr 15:00; Sa 09:30", "name": "USPS COLLECTION BOX - BLUE BOX", "note": "ON 12/24 AND 12/31, THIS BOX MAY BE COLLECTED AS EARLY AS 12 NOON.", "nsi_id": "unitedstatespostalservice-a77078", "operator": "United States Postal Service", "operator:short": "USPS", "operator:type": "public", "operator:wikidata": "Q668687", "ref": "7482600000"}, "type": "Feature"}
{"dataset_attributes": {"@spider": "usps_collection_boxes", "spider:collection_time": "2024-02-07T08:23:59.531981"}, "geometry": {"coordinates": [-96.926665, 34.989165], "type": "Point"}, "id": "3DiewrCdVHeottqkqUjXwlGtd4M=", "properties": {"@spider": "usps_collection_boxes", "addr:city": "ASHER", "addr:country": "US", "addr:full": "112 W MAIN ST", "addr:postcode": "74826", "addr:state": "OK", "amenity": "post_box", "brand": "United States Postal Service", "brand:wikidata": "Q668687", "collection_times": "Mo-Fr 11:30; Sa 09:30", "name": "USPS COLLECTION BOX - PO LOBBY", "nsi_id": "unitedstatespostalservice-a77078", "operator": "United States Postal Service", "operator:short": "USPS", "operator:type": "public", "operator:wikidata": "Q668687", "ref": "7482600002"}, "type": "Feature"}
{"dataset_attributes": {"@spider": "usps_collection_boxes", "spider:collection_time": "2024-02-07T08:23:59.531981"}, "geometry": {"coordinates": [-96.92625601, 34.989433262], "type": "Point"}, "id": "x1WfnTgMnGGNwyGu8EU77xAcwMI=", "properties": {"@spider": "usps_collection_boxes", "addr:city": "ASHER", "addr:country": "US", "addr:full": "100 W MAIN ST", "addr:postcode": "74826", "addr:state": "OK", "amenity": "post_box", "brand": "United States Postal Service", "brand:wikidata": "Q668687", "collection_times": "Mo-Fr 11:45; Sa 09:30", "name": "USPS COLLECTION BOX - PO LOBBY", "nsi_id": "unitedstatespostalservice-a77078", "operator": "United States Postal Service", "operator:short": "USPS", "operator:type": "public", "operator:wikidata": "Q668687", "ref": "7482600004"}, "type": "Feature"}
{"dataset_attributes": {"@spider": "usps_collection_boxes", "spider:collection_time": "2024-02-07T08:23:59.531981"}, "geometry": {"coordinates": [-96.338871, 34.956153], "type": "Point"}, "id": "p-fhmnlL7OPy23qb-MVyABKhktY=", "properties": {"@spider": "usps_collection_boxes", "addr:city": "ATWOOD", "addr:country": "US", "addr:full": "321 HIGHWAY 1", "addr:postcode": "74827", "addr:state": "OK", "amenity": "post_box", "brand": "United States Postal Service", "brand:wikidata": "Q668687", "collection_times": "Mo-Fr 13:30; Sa 10:00", "name": "USPS COLLECTION BOX - PO LOBBY", "note": "ON 12/24 AND 12/31, THIS BOX MAY BE COLLECTED AS EARLY AS 12 NOON.", "nsi_id": "unitedstatespostalservice-a77078", "operator": "United States Postal Service", "operator:short": "USPS", "operator:type": "public", "operator:wikidata": "Q668687", "ref": "7482700001"}, "type": "Feature"}
{"dataset_attributes": {"@spider": "usps_collection_boxes", "spider:collection_time": "2024-02-07T08:23:59.531981"}, "geometry": {"coordinates": [-96.338871, 34.956153], "type": "Point"}, "id": "d0kcBmufVU2SAEH5DCBXyonReNM=", "properties": {"@spider": "usps_collection_boxes", "addr:city": "ATWOOD", "addr:country": "US", "addr:full": "321 HIGHWAY 1", "addr:postcode": "74827", "addr:state": "OK", "amenity": "post_box", "brand": "United States Postal Service", "brand:wikidata": "Q668687", "collection_times": "Mo-Fr 13:30; Sa 10:00", "name": "USPS COLLECTION BOX - PO LOBBY", "note": "ON 12/24 AND 12/31, THIS BOX MAY BE COLLECTED AS EARLY AS 12 NOON.", "nsi_id": "unitedstatespostalservice-a77078", "operator": "United States Postal Service", "operator:short": "USPS", "operator:type": "public", "operator:wikidata": "Q668687", "ref": "7482700002"}, "type": "Feature"}
{"dataset_attributes": {"@spider": "usps_collection_boxes", "spider:collection_time": "2024-02-07T08:23:59.531981"}, "geometry": {"coordinates": [-96.338871, 34.956148528], "type": "Point"}, "id": "bRcJDijge3omSFN_2FLsJgtSpg4=", "properties": {"@spider": "usps_collection_boxes", "addr:city": "ATWOOD", "addr:country": "US", "addr:full": "321 HIGHWAY 1", "addr:postcode": "74827", "addr:state": "OK", "amenity": "post_box", "brand": "United States Postal Service", "brand:wikidata": "Q668687", "collection_times": "Mo-Fr 13:30; Sa 10:15", "name": "USPS COLLECTION BOX - PO LOBBY", "note": "ON 12/24 AND 12/31, THIS BOX MAY BE COLLECTED AS EARLY AS 12 NOON.", "nsi_id": "unitedstatespostalservice-a77078", "operator": "United States Postal Service", "operator:short": "USPS", "operator:type": "public", "operator:wikidata": "Q668687", "ref": "7482700003"}, "type": "Feature"}
{"dataset_attributes": {"@spider": "usps_collection_boxes", "spider:collection_time": "2024-02-07T08:23:59.531981"}, "geometry": {"coordinates": [-96.483627, 35.491976], "type": "Point"}, "id": "-JgAPXaoFXycGgyBLFFpNV4g20w=", "properties": {"@spider": "usps_collection_boxes", "addr:city": "BOLEY", "addr:country": "US", "addr:full": "122 S PECAN ST", "addr:postcode": "74829", "addr:state": "OK", "amenity": "post_box", "brand": "United States Postal Service", "brand:wikidata": "Q668687", "collection_times": "Mo-Fr 15:15; Sa 09:30", "name": "USPS COLLECTION BOX - BLUE BOX", "note": "ON 12/24 AND 12/31, THIS BOX MAY BE COLLECTED AS EARLY AS 12 NOON.", "nsi_id": "unitedstatespostalservice-a77078", "operator": "United States Postal Service", "operator:short": "USPS", "operator:type": "public", "operator:wikidata": "Q668687", "ref": "7482900000"}, "type": "Feature"}
{"dataset_attributes": {"@spider": "usps_collection_boxes", "spider:collection_time": "2024-02-07T08:23:59.531981"}, "geometry": {"coordinates": [-96.483627, 35.491976], "type": "Point"}, "id": "x_lwtxvc3n9Xk9tpaUgtN6pLFiI=", "properties": {"@spider": "usps_collection_boxes", "addr:city": "BOLEY", "addr:country": "US", "addr:full": "122 S PECAN ST", "addr:postcode": "74829", "addr:state": "OK", "amenity": "post_box", "brand": "United States Postal Service", "brand:wikidata": "Q668687", "collection_times": "Mo-Fr 15:15; Sa 09:30", "name": "USPS COLLECTION BOX - PO LOBBY", "note": "ON 12/24 AND 12/31, THIS BOX MAY BE COLLECTED AS EARLY AS 12 NOON.", "nsi_id": "unitedstatespostalservice-a77078", "operator": "United States Postal Service", "operator:short": "USPS", "operator:type": "public", "operator:wikidata": "Q668687", "ref": "7482900001"}, "type": "Feature"}
{"dataset_attributes": {"@spider": "usps_collection_boxes", "spider:collection_time": "2024-02-07T08:23:59.531981"}, "geometry": {"coordinates": [-96.483629224, 35.491374], "type": "Point"}, "id": "ld-sCBScNwaE-QWCnnlgIq0AwUI=", "properties": {"@spider": "usps_collection_boxes", "addr:city": "BOLEY", "addr:country": "US", "addr:full": "122 S PECAN ST", "addr:postcode": "74829", "addr:state": "OK", "amenity": "post_box", "brand": "United States Postal Service", "brand:wikidata": "Q668687", "collection_times": "Mo-Fr 15:30; Sa 09:45", "name": "USPS COLLECTION BOX - PO LOBBY", "note": "ON 12/24 AND 12/31, THIS BOX MAY BE COLLECTED AS EARLY AS 12 NOON.", "nsi_id": "unitedstatespostalservice-a77078", "operator": "United States Postal Service", "operator:short": "USPS", "operator:type": "public", "operator:wikidata": "Q668687", "ref": "7482900002"}, "type": "Feature"}
{"dataset_attributes": {"@spider": "usps_collection_boxes", "spider:collection_time": "2024-02-07T08:23:59.531981"}, "geometry": {"coordinates": [-96.670187355, 35.1483038178], "type": "Point"}, "id": "5q-gUMSUgMyNL5jR5plBGv_ZEQ0=", "properties": {"@spider": "usps_collection_boxes", "addr:city": "BOWLEGS", "addr:country": "US", "addr:full": "126 S MAIN", "addr:postcode": "74830", "addr:state": "OK", "amenity": "post_box", "brand": "United States Postal Service", "brand:wikidata": "Q668687", "collection_times": "Mo-Fr 11:45; Sa 09:15", "name": "USPS COLLECTION BOX - PO LOBBY", "nsi_id": "unitedstatespostalservice-a77078", "operator": "United States Postal Service", "operator:short": "USPS", "operator:type": "public", "operator:wikidata": "Q668687", "ref": "7483000000"}, "type": "Feature"}
{"dataset_attributes": {"@spider": "usps_collection_boxes", "spider:collection_time": "2024-02-07T08:23:59.531981"}, "geometry": {"coordinates": [-96.670199947, 35.14557013], "type": "Point"}, "id": "GJOO7kVJukSlGDk-p494zdJP2kA=", "properties": {"@spider": "usps_collection_boxes", "addr:city": "BOWLEGS", "addr:country": "US", "addr:full": "126 S MAIN", "addr:postcode": "74830", "addr:state": "OK", "amenity": "post_box", "brand": "United States Postal Service", "brand:wikidata": "Q668687", "collection_times": "Mo-Fr 12:00; Sa 09:00", "name": "USPS COLLECTION BOX - PO LOBBY", "nsi_id": "unitedstatespostalservice-a77078", "operator": "United States Postal Service", "operator:short": "USPS", "operator:type": "public", "operator:wikidata": "Q668687", "ref": "7483000002"}, "type": "Feature"}
{"dataset_attributes": {"@spider": "usps_collection_boxes", "spider:collection_time": "2024-02-07T08:23:59.531981"}, "geometry": {"coordinates": [-97.052858, 34.874474], "type": "Point"}, "id": "UXMoPJv-YEhuX3KaedPoKsBhc1s=", "properties": {"@spider": "usps_collection_boxes", "addr:city": "BYARS", "addr:country": "US", "addr:full": "252 E RIPLEY ST", "addr:postcode": "74831", "addr:state": "OK", "amenity": "post_box", "brand": "United States Postal Service", "brand:wikidata": "Q668687", "collection_times": "Mo-Fr 11:45; Sa 08:30", "name": "USPS COLLECTION BOX - PO LOBBY", "nsi_id": "unitedstatespostalservice-a77078", "operator": "United States Postal Service", "operator:short": "USPS", "operator:type": "public", "operator:wikidata": "Q668687", "ref": "7483100002"}, "type": "Feature"}
{"dataset_attributes": {"@spider": "usps_collection_boxes", "spider:collection_time": "2024-02-07T08:23:59.531981"}, "geometry": {"coordinates": [-97.052858, 34.874474], "type": "Point"}, "id": "xB0wlj8ezlFPk5DBVWlfTtJQj_8=", "properties": {"@spider": "usps_collection_boxes", "addr:city": "BYARS", "addr:country": "US", "addr:full": "252 E RIPLEY ST", "addr:postcode": "74831", "addr:state": "OK", "amenity": "post_box", "brand": "United States Postal Service", "brand:wikidata": "Q668687", "collection_times": "Mo-Fr 11:45; Sa 08:30", "name": "USPS COLLECTION BOX - PO LOBBY", "nsi_id": "unitedstatespostalservice-a77078", "operator": "United States Postal Service", "operator:short": "USPS", "operator:type": "public", "operator:wikidata": "Q668687", "ref": "7483100003"}, "type": "Feature"}
{"dataset_attributes": {"@spider": "usps_collection_boxes", "spider:collection_time": "2024-02-07T08:23:59.531981"}, "geometry": {"coordinates": [-97.0528623471, 34.8745074289], "type": "Point"}, "id": "QWJ2jJCUcv0UmhO90ybz1XjADqM=", "properties": {"@spider": "usps_collection_boxes", "addr:city": "BYARS", "addr:country": "US", "addr:full": "252 E RIPLEY ST", "addr:postcode": "74831", "addr:state": "OK", "amenity": "post_box", "brand": "United States Postal Service", "brand:wikidata": "Q668687", "collection_times": "Mo-Fr 11:45; Sa 08:30", "name": "USPS COLLECTION BOX - PO LOBBY", "nsi_id": "unitedstatespostalservice-a77078", "operator": "United States Postal Service", "operator:short": "USPS", "operator:type": "public", "operator:wikidata": "Q668687", "ref": "7483100004"}, "type": "Feature"}
{"dataset_attributes": {"@spider": "usps_collection_boxes", "spider:collection_time": "2024-02-07T08:23:59.531981"}, "geometry": {"coordinates": [-97.020504, 35.809415], "type": "Point"}, "id": "zk0w6EXADVtk93pJltxOMFcu6RE=", "properties": {"@spider": "usps_collection_boxes", "addr:city": "CARNEY", "addr:country": "US", "addr:full": "406 W SANTA FE ST", "addr:postcode": "74832", "addr:state": "OK", "amenity": "post_box", "brand": "United States Postal Service", "brand:wikidata": "Q668687", "collection_times": "Mo-Fr 11:00; Sa 09:30", "name": "USPS COLLECTION BOX - PO LOBBY", "nsi_id": "unitedstatespostalservice-a77078", "operator": "United States Postal Service", "operator:short": "USPS", "operator:type": "public", "operator:wikidata": "Q668687", "ref": "7483200001"}, "type": "Feature"}
{"dataset_attributes": {"@spider": "usps_collection_boxes", "spider:collection_time": "2024-02-07T08:23:59.531981"}, "geometry": {"coordinates": [-97.020504, 35.809415], "type": "Point"}, "id": "KgHwc9lVBSTTZQm_XpZpQIdDO-Y=", "properties": {"@spider": "usps_collection_boxes", "addr:city": "CARNEY", "addr:country": "US", "addr:full": "406 W SANTA FE ST", "addr:postcode": "74832", "addr:state": "OK", "amenity": "post_box", "brand": "United States Postal Service", "brand:wikidata": "Q668687", "collection_times": "Mo-Fr 11:00; Sa 09:30", "name": "USPS COLLECTION BOX - PO LOBBY", "nsi_id": "unitedstatespostalservice-a77078", "operator": "United States Postal Service", "operator:short": "USPS", "operator:type": "public", "operator:wikidata": "Q668687", "ref": "7483200002"}, "type": "Feature"}
{"dataset_attributes": {"@spider": "usps_collection_boxes", "spider:collection_time": "2024-02-07T08:23:59.531981"}, "geometry": {"coordinates": [-97.016300277, 35.809447493], "type": "Point"}, "id": "Tf-sWZirFcGHBNgmMTfZPi_3TJg=", "properties": {"@spider": "usps_collection_boxes", "addr:city": "CARNEY", "addr:country": "US", "addr:full": "108 E SANTA FE ST", "addr:postcode": "74832", "addr:state": "OK", "amenity": "post_box", "brand": "United States Postal Service", "brand:wikidata": "Q668687", "collection_times": "Mo-Fr 11:30; Sa 10:00", "name": "USPS COLLECTION BOX - PO LOBBY", "nsi_id": "unitedstatespostalservice-a77078", "operator": "United States Postal Service", "operator:short": "USPS", "operator:type": "public", "operator:wikidata": "Q668687", "ref": "7483200003"}, "type": "Feature"}
{"dataset_attributes": {"@spider": "usps_collection_boxes", "spider:collection_time": "2024-02-07T08:23:59.531981"}, "geometry": {"coordinates": [-96.38348, 35.471133], "type": "Point"}, "id": "hxmsXATmdoo2MUlwI1L8nrILkPM=", "properties": {"@spider": "usps_collection_boxes", "addr:city": "CASTLE", "addr:country": "US", "addr:full": "401 MAIN ST", "addr:postcode": "74833", "addr:state": "OK", "amenity": "post_box", "brand": "United States Postal Service", "brand:wikidata": "Q668687", "collection_times": "Mo-Fr 11:30; Sa 08:45", "name": "USPS COLLECTION BOX - PO LOBBY", "nsi_id": "unitedstatespostalservice-a77078", "operator": "United States Postal Service", "operator:short": "USPS", "operator:type": "public", "operator:wikidata": "Q668687", "ref": "7483300001"}, "type": "Feature"}
{"dataset_attributes": {"@spider": "usps_collection_boxes", "spider:collection_time": "2024-02-07T08:23:59.531981"}, "geometry": {"coordinates": [-96.3832905, 35.475065892], "type": "Point"}, "id": "v9CKwI5-K4MQlilpHsUkG_kl4bs=", "properties": {"@spider": "usps_collection_boxes", "addr:city": "CASTLE", "addr:country": "US", "addr:full": "401 MAIN ST", "addr:postcode": "74833", "addr:state": "OK", "amenity": "post_box", "brand": "United States Postal Service", "brand:wikidata": "Q668687", "collection_times": "Mo-Fr 12:00; Sa 09:00", "name": "USPS COLLECTION BOX - PO LOBBY", "nsi_id": "unitedstatespostalservice-a77078", "operator": "United States Postal Service", "operator:short": "USPS", "operator:type": "public", "operator:wikidata": "Q668687", "ref": "7483300002"}, "type": "Feature"}
{"dataset_attributes": {"@spider": "usps_collection_boxes", "spider:collection_time": "2024-02-07T08:23:59.531981"}, "geometry": {"coordinates": [-96.8624337, 35.710009], "type": "Point"}, "id": "sbG-FZGrP2KBUvkica5LxsslIr4=", "properties": {"@spider": "usps_collection_boxes", "addr:city": "CHANDLER", "addr:country": "US", "addr:full": "1601 E 1ST ST", "addr:postcode": "74834", "addr:state": "OK", "amenity": "post_box", "brand": "United States Postal Service", "brand:wikidata": "Q668687", "collection_times": "Mo-Fr 13:45; Sa 13:00", "name": "USPS COLLECTION BOX - BLUE BOX", "note": "ON 12/24 AND 12/31, THIS BOX MAY BE COLLECTED AS EARLY AS 12 NOON.", "nsi_id": "unitedstatespostalservice-a77078", "operator": "United States Postal Service", "operator:short": "USPS", "operator:type": "public", "operator:wikidata": "Q668687", "ref": "7483400004"}, "type": "Feature"}
{"dataset_attributes": {"@spider": "usps_collection_boxes", "spider:collection_time": "2024-02-07T08:23:59.531981"}, "geometry": {"coordinates": [-96.8825066505, 35.7014917315], "type": "Point"}, "id": "Sv1cm1UoGRnT2uk5gP9rd4KIqYg=", "properties": {"@spider": "usps_collection_boxes", "addr:city": "CHANDLER", "addr:country": "US", "addr:full": "211 W 9TH STREET", "addr:postcode": "74834", "addr:state": "OK", "amenity": "post_box", "brand": "United States Postal Service", "brand:wikidata": "Q668687", "collection_times": "Mo-Fr 16:00; Sa 12:00", "name": "USPS COLLECTION BOX - BLUE BOX", "note": "ON 12/24 AND 12/31, THIS BOX MAY BE COLLECTED AS EARLY AS 12 NOON.", "nsi_id": "unitedstatespostalservice-a77078", "operator": "United States Postal Service", "operator:short": "USPS", "operator:type": "public", "operator:wikidata": "Q668687", "ref": "7483400005"}, "type": "Feature"}
{"dataset_attributes": {"@spider": "usps_collection_boxes", "spider:collection_time": "2024-02-07T08:23:59.531981"}, "geometry": {"coordinates": [-96.881692, 35.701543], "type": "Point"}, "id": "u1GvrHixEVG5bw6_lKip4pMF6G8=", "properties": {"@spider": "usps_collection_boxes", "addr:city": "CHANDLER", "addr:country": "US", "addr:full": "123 W 9TH ST", "addr:postcode": "74834", "addr:state": "OK", "amenity": "post_box", "brand": "United States Postal Service", "brand:wikidata": "Q668687", "collection_times": "Mo-Fr 16:00; Sa 12:00", "name": "USPS COLLECTION BOX - BLUE BOX", "note": "ON 12/24 AND 12/31, THIS BOX MAY BE COLLECTED AS EARLY AS 12 NOON.", "nsi_id": "unitedstatespostalservice-a77078", "operator": "United States Postal Service", "operator:short": "USPS", "operator:type": "public", "operator:wikidata": "Q668687", "ref": "7483400007"}, "type": "Feature"}
{"dataset_attributes": {"@spider": "usps_collection_boxes", "spider:collection_time": "2024-02-07T08:23:59.531981"}, "geometry": {"coordinates": [-96.881692, 35.701543], "type": "Point"}, "id": "2dXOPaoZGLmyCpgTjNc2DN6JOaY=", "properties": {"@spider": "usps_collection_boxes", "addr:city": "CHANDLER", "addr:country": "US", "addr:full": "123 W 9TH ST", "addr:postcode": "74834", "addr:state": "OK", "amenity": "post_box", "brand": "United States Postal Service", "brand:wikidata": "Q668687", "collection_times": "Mo-Fr 16:00; Sa 12:00", "name": "USPS COLLECTION BOX - PO LOBBY", "note": "ON 12/24 AND 12/31, THIS BOX MAY BE COLLECTED AS EARLY AS 12 NOON.", "nsi_id": "unitedstatespostalservice-a77078", "operator": "United States Postal Service", "operator:short": "USPS", "operator:type": "public", "operator:wikidata": "Q668687", "ref": "7483400009"}, "type": "Feature"}
{"dataset_attributes": {"@spider": "usps_collection_boxes", "spider:collection_time": "2024-02-07T08:23:59.531981"}, "geometry": {"coordinates": [-96.881692, 35.701543], "type": "Point"}, "id": "l8ESWocUqq1YzdHay0t2Ej_phTo=", "properties": {"@spider": "usps_collection_boxes", "addr:city": "CHANDLER", "addr:country": "US", "addr:full": "123 W 9TH ST", "addr:postcode": "74834", "addr:state": "OK", "amenity": "post_box", "brand": "United States Postal Service", "brand:wikidata": "Q668687", "collection_times": "Mo-Fr 16:00; Sa 12:00", "name": "USPS COLLECTION BOX - PO LOBBY", "note": "ON 12/24 AND 12/31, THIS BOX MAY BE COLLECTED AS EARLY AS 12 NOON.", "nsi_id": "unitedstatespostalservice-a77078", "operator": "United States Postal Service", "operator:short": "USPS", "operator:type": "public", "operator:wikidata": "Q668687", "ref": "7483400010"}, "type": "Feature"}
{"dataset_attributes": {"@spider": "usps_collection_boxes", "spider:collection_time": "2024-02-07T08:23:59.531981"}, "geometry": {"coordinates": [-96.881692, 35.701543], "type": "Point"}, "id": "pahPPIIa3OLNTnAh0K5uqzHOomw=", "properties": {"@spider": "usps_collection_boxes", "addr:city": "CHANDLER", "addr:country": "US", "addr:full": "123 W 9TH ST", "addr:postcode": "74834", "addr:state": "OK", "amenity": "post_box", "brand": "United States Postal Service", "brand:wikidata": "Q668687", "collection_times": "Mo-Fr 16:00; Sa 12:00", "name": "USPS COLLECTION BOX - PO LOBBY", "note": "ON 12/24 AND 12/31, THIS BOX MAY BE COLLECTED AS EARLY AS 12 NOON.", "nsi_id": "unitedstatespostalservice-a77078", "operator": "United States Postal Service", "operator:short": "USPS", "operator:type": "public", "operator:wikidata": "Q668687", "ref": "7483400011"}, "type": "Feature"}
{"dataset_attributes": {"@spider": "usps_collection_boxes", "spider:collection_time": "2024-02-07T08:23:59.531981"}, "geometry": {"coordinates": [-96.881723581, 35.701526515], "type": "Point"}, "id": "mQFUZYkKdqpmGLxvn1w20XM_-X4=", "properties": {"@spider": "usps_collection_boxes", "addr:city": "CHANDLER", "addr:country": "US", "addr:full": "123 W 9TH ST", "addr:postcode": "74834", "addr:state": "OK", "amenity": "post_box", "brand": "United States Postal Service", "brand:wikidata": "Q668687", "collection_times": "Mo-Fr 16:15", "name": "USPS COLLECTION BOX - PO LOBBY", "note": "ON 12/24 AND 12/31, THIS BOX MAY BE COLLECTED AS EARLY AS 12 NOON.", "nsi_id": "unitedstatespostalservice-a77078", "operator": "United States Postal Service", "operator:short": "USPS", "operator:type": "public", "operator:wikidata": "Q668687", "ref": "7483400012"}, "type": "Feature"}
{"dataset_attributes": {"@spider": "usps_collection_boxes", "spider:collection_time": "2024-02-07T08:23:59.531981"}, "geometry": {"coordinates": [-96.6359521194, 34.4484876352], "type": "Point"}, "id": "shzG-2Dfhv25SzyVURZV4n-w2F0=", "properties": {"@spider": "usps_collection_boxes", "addr:city": "CONNERVILLE", "addr:country": "US", "addr:full": "7121 N HIGHWAY 377", "addr:postcode": "74836", "addr:state": "OK", "amenity": "post_box", "brand": "United States Postal Service", "brand:wikidata": "Q668687", "collection_times": "Mo-Fr 11:30; Sa 09:15", "name": "USPS COLLECTION BOX - PO LOBBY", "nsi_id": "unitedstatespostalservice-a77078", "operator": "United States Postal Service", "operator:short": "USPS", "operator:type": "public", "operator:wikidata": "Q668687", "ref": "7483600001"}, "type": "Feature"}
{"dataset_attributes": {"@spider": "usps_collection_boxes", "spider:collection_time": "2024-02-07T08:23:59.531981"}, "geometry": {"coordinates": [-96.671147901, 34.267225949], "type": "Point"}, "id": "FpCR93N7LTiEAts9_cn-3pgZTck=", "properties": {"@spider": "usps_collection_boxes", "addr:city": "CONNERVILLE", "addr:country": "US", "addr:full": "7121 N HIGHWAY 377", "addr:postcode": "74836", "addr:state": "OK", "amenity": "post_box", "brand": "United States Postal Service", "brand:wikidata": "Q668687", "collection_times": "Mo-Sa 11:30", "name": "USPS COLLECTION BOX - PO LOBBY", "nsi_id": "unitedstatespostalservice-a77078", "operator": "United States Postal Service", "operator:short": "USPS", "operator:type": "public", "operator:wikidata": "Q668687", "ref": "7483600002"}, "type": "Feature"}
{"dataset_attributes": {"@spider": "usps_collection_boxes", "spider:collection_time": "2024-02-07T08:23:59.531981"}, "geometry": {"coordinates": [-96.459014, 35.340708], "type": "Point"}, "id": "ml37W6SK-v5G1XgiKi8RmaNpiSo=", "properties": {"@spider": "usps_collection_boxes", "addr:city": "CROMWELL", "addr:country": "US", "addr:full": "104 N SHAWNEE AVE", "addr:postcode": "74837", "addr:state": "OK", "amenity": "post_box", "brand": "United States Postal Service", "brand:wikidata": "Q668687", "collection_times": "Mo-Fr 12:00; Sa 08:45", "name": "USPS COLLECTION BOX - BLUE BOX", "nsi_id": "unitedstatespostalservice-a77078", "operator": "United States Postal Service", "operator:short": "USPS", "operator:type": "public", "operator:wikidata": "Q668687", "ref": "7483700000"}, "type": "Feature"}
{"dataset_attributes": {"@spider": "usps_collection_boxes", "spider:collection_time": "2024-02-07T08:23:59.531981"}, "geometry": {"coordinates": [-96.459014, 35.340708], "type": "Point"}, "id": "VCpmIZcZz6M3zHaIC-T6GJQADtI=", "properties": {"@spider": "usps_collection_boxes", "addr:city": "CROMWELL", "addr:country": "US", "addr:full": "104 N SHAWNEE AVE", "addr:postcode": "74837", "addr:state": "OK", "amenity": "post_box", "brand": "United States Postal Service", "brand:wikidata": "Q668687", "collection_times": "Mo-Fr 12:00; Sa 08:45", "name": "USPS COLLECTION BOX - PO LOBBY", "nsi_id": "unitedstatespostalservice-a77078", "operator": "United States Postal Service", "operator:short": "USPS", "operator:type": "public", "operator:wikidata": "Q668687", "ref": "7483700001"}, "type": "Feature"}
{"dataset_attributes": {"@spider": "usps_collection_boxes", "spider:collection_time": "2024-02-07T08:23:59.531981"}, "geometry": {"coordinates": [-96.458995076, 35.340725884], "type": "Point"}, "id": "BifAFy6QFgLCkFg8Vc9sN62LggA=", "properties": {"@spider": "usps_collection_boxes", "addr:city": "CROMWELL", "addr:country": "US", "addr:full": "104 N SHAWNEE AVE", "addr:postcode": "74837", "addr:state": "OK", "amenity": "post_box", "brand": "United States Postal Service", "brand:wikidata": "Q668687", "collection_times": "Mo-Fr 12:00", "name": "USPS COLLECTION BOX - PO LOBBY", "nsi_id": "unitedstatespostalservice-a77078", "operator": "United States Postal Service", "operator:short": "USPS", "operator:type": "public", "operator:wikidata": "Q668687", "ref": "7483700002"}, "type": "Feature"}
{"dataset_attributes": {"@spider": "usps_collection_boxes", "spider:collection_time": "2024-02-07T08:23:59.531981"}, "geometry": {"coordinates": [-96.0695036051, 35.2252165937], "type": "Point"}, "id": "x0i7A9S3qgmz_-FgxxshDpfvLrw=", "properties": {"@spider": "usps_collection_boxes", "addr:city": "DUSTIN", "addr:country": "US", "addr:full": "127 N BROADWAY ST", "addr:postcode": "74839", "addr:state": "OK", "amenity": "post_box", "brand": "United States Postal Service", "brand:wikidata": "Q668687", "collection_times": "Mo-Fr 12:00; Sa 10:00", "name": "USPS COLLECTION BOX - PO LOBBY", "nsi_id": "unitedstatespostalservice-a77078", "operator": "United States Postal Service", "operator:short": "USPS", "operator:type": "public", "operator:wikidata": "Q668687", "ref": "7483900001"}, "type": "Feature"}
{"dataset_attributes": {"@spider": "usps_collection_boxes", "spider:collection_time": "2024-02-07T08:23:59.531981"}, "geometry": {"coordinates": [-96.0695036051, 35.2252165937], "type": "Point"}, "id": "HU43FNA-UT1mJTreZKeL4ZpGVYQ=", "properties": {"@spider": "usps_collection_boxes", "addr:city": "DUSTIN", "addr:country": "US", "addr:full": "127 N BROADWAY ST", "addr:postcode": "74839", "addr:state": "OK", "amenity": "post_box", "brand": "United States Postal Service", "brand:wikidata": "Q668687", "collection_times": "Mo-Fr 12:00; Sa 10:00", "name": "USPS COLLECTION BOX - PO LOBBY", "nsi_id": "unitedstatespostalservice-a77078", "operator": "United States Postal Service", "operator:short": "USPS", "operator:type": "public", "operator:wikidata": "Q668687", "ref": "7483900002"}, "type": "Feature"}
{"dataset_attributes": {"@spider": "usps_collection_boxes", "spider:collection_time": "2024-02-07T08:23:59.531981"}, "geometry": {"coordinates": [-96.03094584, 35.27226588], "type": "Point"}, "id": "O4I_0jnraZez_zkrwqHdU71lK0c=", "properties": {"@spider": "usps_collection_boxes", "addr:city": "DUSTIN", "addr:country": "US", "addr:full": "127 N BROADWAY ST", "addr:postcode": "74839", "addr:state": "OK", "amenity": "post_box", "brand": "United States Postal Service", "brand:wikidata": "Q668687", "collection_times": "Mo-Fr 12:00; Sa 10:00", "name": "USPS COLLECTION BOX - PO LOBBY", "nsi_id": "unitedstatespostalservice-a77078", "operator": "United States Postal Service", "operator:short": "USPS", "operator:type": "public", "operator:wikidata": "Q668687", "ref": "7483900003"}, "type": "Feature"}
{"dataset_attributes": {"@spider": "usps_collection_boxes", "spider:collection_time": "2024-02-07T08:23:59.531981"}, "geometry": {"coordinates": [-96.805391, 35.267887], "type": "Point"}, "id": "Zb2C0c5ezHfUrPjcGuDY2mOVvG8=", "properties": {"@spider": "usps_collection_boxes", "addr:city": "EARLSBORO", "addr:country": "US", "addr:full": "220 W MAIN ST", "addr:postcode": "74840", "addr:state": "OK", "amenity": "post_box", "brand": "United States Postal Service", "brand:wikidata": "Q668687", "collection_times": "Mo-Fr 15:00; Sa 09:00", "name": "USPS COLLECTION BOX - BLUE BOX", "note": "ON 12/24 AND 12/31, THIS BOX MAY BE COLLECTED AS EARLY AS 12 NOON.", "nsi_id": "unitedstatespostalservice-a77078", "operator": "United States Postal Service", "operator:short": "USPS", "operator:type": "public", "operator:wikidata": "Q668687", "ref": "7484000000"}, "type": "Feature"}
{"dataset_attributes": {"@spider": "usps_collection_boxes", "spider:collection_time": "2024-02-07T08:23:59.531981"}, "geometry": {"coordinates": [-96.805391, 35.267887], "type": "Point"}, "id": "3BRWjAOr9JYPHAD-_OrnLCvKlZU=", "properties": {"@spider": "usps_collection_boxes", "addr:city": "EARLSBORO", "addr:country": "US", "addr:full": "220 W MAIN ST", "addr:postcode": "74840", "addr:state": "OK", "amenity": "post_box", "brand": "United States Postal Service", "brand:wikidata": "Q668687", "collection_times": "Mo-Fr 14:45; Sa 09:00", "name": "USPS COLLECTION BOX - PO LOBBY", "note": "ON 12/24 AND 12/31, THIS BOX MAY BE COLLECTED AS EARLY AS 12 NOON.", "nsi_id": "unitedstatespostalservice-a77078", "operator": "United States Postal Service", "operator:short": "USPS", "operator:type": "public", "operator:wikidata": "Q668687", "ref": "7484000001"}, "type": "Feature"}
{"dataset_attributes": {"@spider": "usps_collection_boxes", "spider:collection_time": "2024-02-07T08:23:59.531981"}, "geometry": {"coordinates": [-96.805391, 35.267887], "type": "Point"}, "id": "jJuuNzx76pUyCRVZrHdEzV9oZkE=", "properties": {"@spider": "usps_collection_boxes", "addr:city": "EARLSBORO", "addr:country": "US", "addr:full": "220 W MAIN ST", "addr:postcode": "74840", "addr:state": "OK", "amenity": "post_box", "brand": "United States Postal Service", "brand:wikidata": "Q668687", "collection_times": "Mo-Fr 14:45; Sa 09:00", "name": "USPS COLLECTION BOX - PO LOBBY", "note": "ON 12/24 AND 12/31, THIS BOX MAY BE COLLECTED AS EARLY AS 12 NOON.", "nsi_id": "unitedstatespostalservice-a77078", "operator": "United States Postal Service", "operator:short": "USPS", "operator:type": "public", "operator:wikidata": "Q668687", "ref": "7484000002"}, "type": "Feature"}
{"dataset_attributes": {"@spider": "usps_collection_boxes", "spider:collection_time": "2024-02-07T08:23:59.531981"}, "geometry": {"coordinates": [-96.805390668, 35.267885475], "type": "Point"}, "id": "UJZWDeuNHttky1lfq17ImEAEmQs=", "properties": {"@spider": "usps_collection_boxes", "addr:city": "EARLSBORO", "addr:country": "US", "addr:full": "220 W MAIN ST", "addr:postcode": "74840", "addr:state": "OK", "amenity": "post_box", "brand": "United States Postal Service", "brand:wikidata": "Q668687", "collection_times": "Mo-Fr 14:45; Sa 09:00", "name": "USPS COLLECTION BOX - PO LOBBY", "note": "ON 12/24 AND 12/31, THIS BOX MAY BE COLLECTED AS EARLY AS 12 NOON.", "nsi_id": "unitedstatespostalservice-a77078", "operator": "United States Postal Service", "operator:short": "USPS", "operator:type": "public", "operator:wikidata": "Q668687", "ref": "7484000003"}, "type": "Feature"}
{"dataset_attributes": {"@spider": "usps_collection_boxes", "spider:collection_time": "2024-02-07T08:23:59.531981"}, "geometry": {"coordinates": [-96.634678, 34.549233], "type": "Point"}, "id": "S0WYPLnh6k2EgG8MB7Nnm2LOAno=", "properties": {"@spider": "usps_collection_boxes", "addr:city": "FITTSTOWN", "addr:country": "US", "addr:full": "101 US HIGHWAY 377", "addr:postcode": "74842", "addr:state": "OK", "amenity": "post_box", "brand": "United States Postal Service", "brand:wikidata": "Q668687", "collection_times": "Mo-Fr 13:45; Sa 09:30", "name": "USPS COLLECTION BOX - PO LOBBY", "note": "ON 12/24 AND 12/31, THIS BOX MAY BE COLLECTED AS EARLY AS 12 NOON.", "nsi_id": "unitedstatespostalservice-a77078", "operator": "United States Postal Service", "operator:short": "USPS", "operator:type": "public", "operator:wikidata": "Q668687", "ref": "7484200001"}, "type": "Feature"}
{"dataset_attributes": {"@spider": "usps_collection_boxes", "spider:collection_time": "2024-02-07T08:23:59.531981"}, "geometry": {"coordinates": [-96.634704541, 34.613736967], "type": "Point"}, "id": "41RBZsGw7HCxt3lYAc8DGuA3Y28=", "properties": {"@spider": "usps_collection_boxes", "addr:city": "FITTSTOWN", "addr:country": "US", "addr:full": "101 US HIGHWAY 377", "addr:postcode": "74842", "addr:state": "OK", "amenity": "post_box", "brand": "United States Postal Service", "brand:wikidata": "Q668687", "collection_times": "Mo-Fr 14:00; Sa 10:00", "name": "USPS COLLECTION BOX - PO LOBBY", "note": "ON 12/24 AND 12/31, THIS BOX MAY BE COLLECTED AS EARLY AS 12 NOON.", "nsi_id": "unitedstatespostalservice-a77078", "operator": "United States Postal Service", "operator:short": "USPS", "operator:type": "public", "operator:wikidata": "Q668687", "ref": "7484200002"}, "type": "Feature"}
{"dataset_attributes": {"@spider": "usps_collection_boxes", "spider:collection_time": "2024-02-07T08:23:59.531981"}, "geometry": {"coordinates": [-96.7668135229, 34.6589314696], "type": "Point"}, "id": "pLtLXOeaEas5xAPaHy4aSZRUZM8=", "properties": {"@spider": "usps_collection_boxes", "addr:city": "FITZHUGH", "addr:country": "US", "addr:full": "100 E JACKSON", "addr:postcode": "74843", "addr:state": "OK", "amenity": "post_box", "brand": "United States Postal Service", "brand:wikidata": "Q668687", "collection_times": "Mo-Sa 11:30", "name": "USPS COLLECTION BOX - BLUE BOX", "nsi_id": "unitedstatespostalservice-a77078", "operator": "United States Postal Service", "operator:short": "USPS", "operator:type": "public", "operator:wikidata": "Q668687", "ref": "7484300000"}, "type": "Feature"}
{"dataset_attributes": {"@spider": "usps_collection_boxes", "spider:collection_time": "2024-02-07T08:23:59.531981"}, "geometry": {"coordinates": [-96.770917976, 34.665181225], "type": "Point"}, "id": "3PBrvMdUEe9e292lN44fxLzZu0I=", "properties": {"@spider": "usps_collection_boxes", "addr:city": "FITZHUGH", "addr:country": "US", "addr:full": "100 E JACKSON", "addr:postcode": "74843", "addr:state": "OK", "amenity": "post_box", "brand": "United States Postal Service", "brand:wikidata": "Q668687", "collection_times": "Mo-Sa 11:30", "name": "USPS COLLECTION BOX - PO LOBBY", "nsi_id": "unitedstatespostalservice-a77078", "operator": "United States Postal Service", "operator:short": "USPS", "operator:type": "public", "operator:wikidata": "Q668687", "ref": "7484300001"}, "type": "Feature"}
{"dataset_attributes": {"@spider": "usps_collection_boxes", "spider:collection_time": "2024-02-07T08:23:59.531981"}, "geometry": {"coordinates": [-96.776271084, 34.665817547], "type": "Point"}, "id": "1KX0rucoCuy1y0HVed0WqkGdNxM=", "properties": {"@spider": "usps_collection_boxes", "addr:city": "FITZHUGH", "addr:country": "US", "addr:full": "9935 COUNTY ROAD 1620", "addr:postcode": "74843", "addr:state": "OK", "amenity": "post_box", "brand": "United States Postal Service", "brand:wikidata": "Q668687", "collection_times": "Mo-Fr 11:30; Sa 12:00", "name": "USPS COLLECTION BOX - PO LOBBY", "nsi_id": "unitedstatespostalservice-a77078", "operator": "United States Postal Service", "operator:short": "USPS", "operator:type": "public", "operator:wikidata": "Q668687", "ref": "7484300002"}, "type": "Feature"}
{"dataset_attributes": {"@spider": "usps_collection_boxes", "spider:collection_time": "2024-02-07T08:23:59.531981"}, "geometry": {"coordinates": [-96.595872, 34.873683], "type": "Point"}, "id": "hNCUOv3wMjUWe31npOhz0Y_4YSY=", "properties": {"@spider": "usps_collection_boxes", "addr:city": "FRANCIS", "addr:country": "US", "addr:full": "231 W MAIN ST", "addr:postcode": "74844", "addr:state": "OK", "amenity": "post_box", "brand": "United States Postal Service", "brand:wikidata": "Q668687", "collection_times": "Mo-Fr 11:15; Sa 09:00", "name": "USPS COLLECTION BOX - BLUE BOX", "nsi_id": "unitedstatespostalservice-a77078", "operator": "United States Postal Service", "operator:short": "USPS", "operator:type": "public", "operator:wikidata": "Q668687", "ref": "7484400000"}, "type": "Feature"}
{"dataset_attributes": {"@spider": "usps_collection_boxes", "spider:collection_time": "2024-02-07T08:23:59.531981"}, "geometry": {"coordinates": [-96.595872, 34.873683], "type": "Point"}, "id": "kG-XJ2ahh9qAVvdpEmnDvZtdh_A=", "properties": {"@spider": "usps_collection_boxes", "addr:city": "FRANCIS", "addr:country": "US", "addr:full": "231 W MAIN ST", "addr:postcode": "74844", "addr:state": "OK", "amenity": "post_box", "brand": "United States Postal Service", "brand:wikidata": "Q668687", "collection_times": "Mo-Fr 11:15; Sa 09:00", "name": "USPS COLLECTION BOX - PO LOBBY", "nsi_id": "unitedstatespostalservice-a77078", "operator": "United States Postal Service", "operator:short": "USPS", "operator:type": "public", "operator:wikidata": "Q668687", "ref": "7484400001"}, "type": "Feature"}
{"dataset_attributes": {"@spider": "usps_collection_boxes", "spider:collection_time": "2024-02-07T08:23:59.531981"}, "geometry": {"coordinates": [-96.595870668, 34.873675471], "type": "Point"}, "id": "xUrcd7RDPnXLLMX6dL0AvXMagp0=", "properties": {"@spider": "usps_collection_boxes", "addr:city": "FRANCIS", "addr:country": "US", "addr:full": "231 W MAIN ST", "addr:postcode": "74844", "addr:state": "OK", "amenity": "post_box", "brand": "United States Postal Service", "brand:wikidata": "Q668687", "collection_times": "Mo-Fr 11:30; Sa 09:30", "name": "USPS COLLECTION BOX - PO LOBBY", "nsi_id": "unitedstatespostalservice-a77078", "operator": "United States Postal Service", "operator:short": "USPS", "operator:type": "public", "operator:wikidata": "Q668687", "ref": "7484400002"}, "type": "Feature"}
{"dataset_attributes": {"@spider": "usps_collection_boxes", "spider:collection_time": "2024-02-07T08:23:59.531981"}, "geometry": {"coordinates": [-95.9249884575, 35.2066142555], "type": "Point"}, "id": "79AJr6J2tMPBFCp5SUZDGDRTFa8=", "properties": {"@spider": "usps_collection_boxes", "addr:city": "HANNA", "addr:country": "US", "addr:full": "105 S MAIN ST", "addr:postcode": "74845", "addr:state": "OK", "amenity": "post_box", "brand": "United States Postal Service", "brand:wikidata": "Q668687", "collection_times": "Mo-Fr 13:00; Sa 10:15", "name": "USPS COLLECTION BOX - PO LOBBY", "note": "ON 12/24 AND 12/31, THIS BOX MAY BE COLLECTED AS EARLY AS 12 NOON.", "nsi_id": "unitedstatespostalservice-a77078", "operator": "United States Postal Service", "operator:short": "USPS", "operator:type": "public", "operator:wikidata": "Q668687", "ref": "7484500001"}, "type": "Feature"}
{"dataset_attributes": {"@spider": "usps_collection_boxes", "spider:collection_time": "2024-02-07T08:23:59.531981"}, "geometry": {"coordinates": [-95.8982079, 35.2174017], "type": "Point"}, "id": "XimzsIszdttRAUD1pOYcZJSwu1k=", "properties": {"@spider": "usps_collection_boxes", "addr:city": "HANNA", "addr:country": "US", "addr:full": "105 S MAIN ST", "addr:postcode": "74845", "addr:state": "OK", "amenity": "post_box", "brand": "United States Postal Service", "brand:wikidata": "Q668687", "collection_times": "Mo-Fr 13:00; Sa 10:00", "name": "USPS COLLECTION BOX - PO LOBBY", "note": "ON 12/24 AND 12/31, THIS BOX MAY BE COLLECTED AS EARLY AS 12 NOON.", "nsi_id": "unitedstatespostalservice-a77078", "operator": "United States Postal Service", "operator:short": "USPS", "operator:type": "public", "operator:wikidata": "Q668687", "ref": "7484500002"}, "type": "Feature"}
{"dataset_attributes": {"@spider": "usps_collection_boxes", "spider:collection_time": "2024-02-07T08:23:59.531981"}, "geometry": {"coordinates": [-96.4009964256, 35.0840487294], "type": "Point"}, "id": "CvUwr3NRIWj2wwAoWsVPM8YKH-s=", "properties": {"@spider": "usps_collection_boxes", "addr:city": "HOLDENVILLE", "addr:country": "US", "addr:full": "123 W 7TH ST", "addr:postcode": "74848", "addr:state": "OK", "amenity": "post_box", "brand": "United States Postal Service", "brand:wikidata": "Q668687", "collection_times": "Mo-Fr 16:30; Sa 11:00", "name": "USPS COLLECTION BOX - BLUE BOX", "note": "ON 12/24 AND 12/31, THIS BOX MAY BE COLLECTED AS EARLY AS 12 NOON.", "nsi_id": "unitedstatespostalservice-a77078", "operator": "United States Postal Service", "operator:short": "USPS", "operator:type": "public", "operator:wikidata": "Q668687", "ref": "7484800001"}, "type": "Feature"}
{"dataset_attributes": {"@spider": "usps_collection_boxes", "spider:collection_time": "2024-02-07T08:23:59.531981"}, "geometry": {"coordinates": [-96.40133, 35.084401], "type": "Point"}, "id": "xyh4tOzD5uX1X9XjEykdDDyc7Y0=", "properties": {"@spider": "usps_collection_boxes", "addr:city": "HOLDENVILLE", "addr:country": "US", "addr:full": "123 W 7TH ST", "addr:postcode": "74848", "addr:state": "OK", "amenity": "post_box", "brand": "United States Postal Service", "brand:wikidata": "Q668687", "collection_times": "Mo-Fr 16:30; Sa 11:00", "name": "USPS COLLECTION BOX - PO LOBBY", "note": "ON 12/24 AND 12/31, THIS BOX MAY BE COLLECTED AS EARLY AS 12 NOON.", "nsi_id": "unitedstatespostalservice-a77078", "operator": "United States Postal Service", "operator:short": "USPS", "operator:type": "public", "operator:wikidata": "Q668687", "ref": "7484800012"}, "type": "Feature"}
{"dataset_attributes": {"@spider": "usps_collection_boxes", "spider:collection_time": "2024-02-07T08:23:59.531981"}, "geometry": {"coordinates": [-96.401000926, 35.084048729], "type": "Point"}, "id": "9_3sJ2q9FavlfpASbxzXIknlEhU=", "properties": {"@spider": "usps_collection_boxes", "addr:city": "HOLDENVILLE", "addr:country": "US", "addr:full": "123 W 7TH ST", "addr:postcode": "74848", "addr:state": "OK", "amenity": "post_box", "brand": "United States Postal Service", "brand:wikidata": "Q668687", "collection_times": "Mo-Fr 16:30; Sa 11:00", "name": "USPS COLLECTION BOX - PO LOBBY", "note": "ON 12/24 AND 12/31, THIS BOX MAY BE COLLECTED AS EARLY AS 12 NOON.", "nsi_id": "unitedstatespostalservice-a77078", "operator": "United States Postal Service", "operator:short": "USPS", "operator:type": "public", "operator:wikidata": "Q668687", "ref": "7484800016"}, "type": "Feature"}
{"dataset_attributes": {"@spider": "usps_collection_boxes", "spider:collection_time": "2024-02-07T08:23:59.531981"}, "geometry": {"coordinates": [-96.752047, 34.957253], "type": "Point"}, "id": "wtBUWQW1ZZwdmaascX-bikgIChI=", "properties": {"@spider": "usps_collection_boxes", "addr:city": "KONAWA", "addr:country": "US", "addr:full": "100 S BROADWAY ST", "addr:postcode": "74849", "addr:state": "OK", "amenity": "post_box", "brand": "United States Postal Service", "brand:wikidata": "Q668687", "collection_times": "Mo-Fr 15:30; Sa 10:30", "name": "USPS COLLECTION BOX - PO LOBBY", "note": "ON 12/24 AND 12/31, THIS BOX MAY BE COLLECTED AS EARLY AS 12 NOON.", "nsi_id": "unitedstatespostalservice-a77078", "operator": "United States Postal Service", "operator:short": "USPS", "operator:type": "public", "operator:wikidata": "Q668687", "ref": "7484900001"}, "type": "Feature"}
{"dataset_attributes": {"@spider": "usps_collection_boxes", "spider:collection_time": "2024-02-07T08:23:59.531981"}, "geometry": {"coordinates": [-96.752026072, 34.957274572], "type": "Point"}, "id": "7KZhe7nbMPI8EeikGcClw9xJpDY=", "properties": {"@spider": "usps_collection_boxes", "addr:city": "KONAWA", "addr:country": "US", "addr:full": "100 S BROADWAY ST", "addr:postcode": "74849", "addr:state": "OK", "amenity": "post_box", "brand": "United States Postal Service", "brand:wikidata": "Q668687", "collection_times": "Mo-Fr 15:30; Sa 10:30", "name": "USPS COLLECTION BOX - PO LOBBY", "note": "ON 12/24 AND 12/31, THIS BOX MAY BE COLLECTED AS EARLY AS 12 NOON.", "nsi_id": "unitedstatespostalservice-a77078", "operator": "United States Postal Service", "operator:short": "USPS", "operator:type": "public", "operator:wikidata": "Q668687", "ref": "7484900004"}, "type": "Feature"}
{"dataset_attributes": {"@spider": "usps_collection_boxes", "spider:collection_time": "2024-02-07T08:23:59.531981"}, "geometry": {"coordinates": [-97.09185976, 35.436573723], "type": "Point"}, "id": "MhcUtf2VYgHB_7incow5JpfkJEg=", "properties": {"@spider": "usps_collection_boxes", "addr:city": "MCLOUD", "addr:country": "US", "addr:full": "118 N MAIN ST", "addr:postcode": "74851", "addr:state": "OK", "amenity": "post_box", "brand": "United States Postal Service", "brand:wikidata": "Q668687", "collection_times": "Mo-Sa 13:00", "name": "USPS COLLECTION BOX - BLUE BOX", "note": "ON 12/24 AND 12/31, THIS BOX MAY BE COLLECTED AS EARLY AS 12 NOON.", "nsi_id": "unitedstatespostalservice-a77078", "operator": "United States Postal Service", "operator:short": "USPS", "operator:type": "public", "operator:wikidata": "Q668687", "ref": "7485100000"}, "type": "Feature"}
{"dataset_attributes": {"@spider": "usps_collection_boxes", "spider:collection_time": "2024-02-07T08:23:59.531981"}, "geometry": {"coordinates": [-97.096888, 35.426081], "type": "Point"}, "id": "TXXldaYrgZzaup_doDW1cL6D0oE=", "properties": {"@spider": "usps_collection_boxes", "addr:city": "MCLOUD", "addr:country": "US", "addr:full": "700 S 8TH ST", "addr:postcode": "74851", "addr:state": "OK", "amenity": "post_box", "brand": "United States Postal Service", "brand:wikidata": "Q668687", "collection_times": "Mo-Fr 16:45; Sa 10:00", "name": "USPS COLLECTION BOX - BLUE BOX", "note": "ON 12/24 AND 12/31, THIS BOX MAY BE COLLECTED AS EARLY AS 12 NOON.", "nsi_id": "unitedstatespostalservice-a77078", "operator": "United States Postal Service", "operator:short": "USPS", "operator:type": "public", "operator:wikidata": "Q668687", "ref": "7485100002"}, "type": "Feature"}
{"dataset_attributes": {"@spider": "usps_collection_boxes", "spider:collection_time": "2024-02-07T08:23:59.531981"}, "geometry": {"coordinates": [-97.0465316847, 35.3893592515], "type": "Point"}, "id": "OdNpIc-tcjH3-Qu8BtycgqebF2M=", "properties": {"@spider": "usps_collection_boxes", "addr:city": "MCLOUD", "addr:country": "US", "addr:full": "208 OKLAHOMA AVE", "addr:postcode": "74851", "addr:state": "OK", "amenity": "post_box", "brand": "United States Postal Service", "brand:wikidata": "Q668687", "collection_times": "Mo-Sa 10:00", "name": "USPS COLLECTION BOX - BLUE BOX", "nsi_id": "unitedstatespostalservice-a77078", "operator": "United States Postal Service", "operator:short": "USPS", "operator:type": "public", "operator:wikidata": "Q668687", "ref": "7485100004"}, "type": "Feature"}
{"dataset_attributes": {"@spider": "usps_collection_boxes", "spider:collection_time": "2024-02-07T08:23:59.531981"}, "geometry": {"coordinates": [-97.096888, 35.426081], "type": "Point"}, "id": "aPqs25hpgyznGbRU34O2ATWWI7g=", "properties": {"@spider": "usps_collection_boxes", "addr:city": "MCLOUD", "addr:country": "US", "addr:full": "700 S 8TH ST", "addr:postcode": "74851", "addr:state": "OK", "amenity": "post_box", "brand": "United States Postal Service", "brand:wikidata": "Q668687", "collection_times": "Mo-Fr 16:45; Sa 10:00", "name": "USPS COLLECTION BOX - PO LOBBY", "note": "ON 12/24 AND 12/31, THIS BOX MAY BE COLLECTED AS EARLY AS 12 NOON.", "nsi_id": "unitedstatespostalservice-a77078", "operator": "United States Postal Service", "operator:short": "USPS", "operator:type": "public", "operator:wikidata": "Q668687", "ref": "7485100005"}, "type": "Feature"}
{"dataset_attributes": {"@spider": "usps_collection_boxes", "spider:collection_time": "2024-02-07T08:23:59.531981"}, "geometry": {"coordinates": [-97.096888, 35.426081], "type": "Point"}, "id": "zVcgVuC2JP9RMKugF12UuBc5tw4=", "properties": {"@spider": "usps_collection_boxes", "addr:city": "MCLOUD", "addr:country": "US", "addr:full": "700 S 8TH ST", "addr:postcode": "74851", "addr:state": "OK", "amenity": "post_box", "brand": "United States Postal Service", "brand:wikidata": "Q668687", "collection_times": "Mo-Fr 16:45; Sa 10:00", "name": "USPS COLLECTION BOX - PO LOBBY", "note": "ON 12/24 AND 12/31, THIS BOX MAY BE COLLECTED AS EARLY AS 12 NOON.", "nsi_id": "unitedstatespostalservice-a77078", "operator": "United States Postal Service", "operator:short": "USPS", "operator:type": "public", "operator:wikidata": "Q668687", "ref": "7485100006"}, "type": "Feature"}
{"dataset_attributes": {"@spider": "usps_collection_boxes", "spider:collection_time": "2024-02-07T08:23:59.531981"}, "geometry": {"coordinates": [-97.096888, 35.426081], "type": "Point"}, "id": "VQotblcDxJROBeMla-bEXt6V28s=", "properties": {"@spider": "usps_collection_boxes", "addr:city": "MCLOUD", "addr:country": "US", "addr:full": "700 S 8TH ST", "addr:postcode": "74851", "addr:state": "OK", "amenity": "post_box", "brand": "United States Postal Service", "brand:wikidata": "Q668687", "collection_times": "Mo-Fr 16:45; Sa 10:00", "name": "USPS COLLECTION BOX - PO LOBBY", "note": "ON 12/24 AND 12/31, THIS BOX MAY BE COLLECTED AS EARLY AS 12 NOON.", "nsi_id": "unitedstatespostalservice-a77078", "operator": "United States Postal Service", "operator:short": "USPS", "operator:type": "public", "operator:wikidata": "Q668687", "ref": "7485100007"}, "type": "Feature"}
{"dataset_attributes": {"@spider": "usps_collection_boxes", "spider:collection_time": "2024-02-07T08:23:59.531981"}, "geometry": {"coordinates": [-97.09688877, 35.426052], "type": "Point"}, "id": "W9VTt333Fw5gHGqmfYXwaXyQkJU=", "properties": {"@spider": "usps_collection_boxes", "addr:city": "MCLOUD", "addr:country": "US", "addr:full": "700 S 8TH ST", "addr:postcode": "74851", "addr:state": "OK", "amenity": "post_box", "brand": "United States Postal Service", "brand:wikidata": "Q668687", "collection_times": "Mo-Fr 16:30; Sa 10:30", "name": "USPS COLLECTION BOX - PO LOBBY", "note": "ON 12/24 AND 12/31, THIS BOX MAY BE COLLECTED AS EARLY AS 12 NOON.", "nsi_id": "unitedstatespostalservice-a77078", "operator": "United States Postal Service", "operator:short": "USPS", "operator:type": "public", "operator:wikidata": "Q668687", "ref": "7485100008"}, "type": "Feature"}
{"dataset_attributes": {"@spider": "usps_collection_boxes", "spider:collection_time": "2024-02-07T08:23:59.531981"}, "geometry": {"coordinates": [-97.008131, 35.146267], "type": "Point"}, "id": "jRRI-MjN-1OJ0IIraJ7keK6GZQs=", "properties": {"@spider": "usps_collection_boxes", "addr:city": "MACOMB", "addr:country": "US", "addr:full": "36654 SECOND ST", "addr:postcode": "74852", "addr:state": "OK", "amenity": "post_box", "brand": "United States Postal Service", "brand:wikidata": "Q668687", "collection_times": "Mo-Fr 11:30; Sa 09:00", "name": "USPS COLLECTION BOX - PO LOBBY", "nsi_id": "unitedstatespostalservice-a77078", "operator": "United States Postal Service", "operator:short": "USPS", "operator:type": "public", "operator:wikidata": "Q668687", "ref": "7485200001"}, "type": "Feature"}
{"dataset_attributes": {"@spider": "usps_collection_boxes", "spider:collection_time": "2024-02-07T08:23:59.531981"}, "geometry": {"coordinates": [-97.0079236, 35.146471], "type": "Point"}, "id": "MIUC0aeJQs1uDq9lT1MtsW84Prw=", "properties": {"@spider": "usps_collection_boxes", "addr:city": "MACOMB", "addr:country": "US", "addr:full": "36654 SECOND ST", "addr:postcode": "74852", "addr:state": "OK", "amenity": "post_box", "brand": "United States Postal Service", "brand:wikidata": "Q668687", "collection_times": "Mo-Fr 11:30; Sa 09:00", "name": "USPS COLLECTION BOX - BLUE BOX", "nsi_id": "unitedstatespostalservice-a77078", "operator": "United States Postal Service", "operator:short": "USPS", "operator:type": "public", "operator:wikidata": "Q668687", "ref": "7485200003"}, "type": "Feature"}
{"dataset_attributes": {"@spider": "usps_collection_boxes", "spider:collection_time": "2024-02-07T08:23:59.531981"}, "geometry": {"coordinates": [-97.008133332, 35.146266504], "type": "Point"}, "id": "sW9MPGMo0dBbsfhC1mTVvAcmmbM=", "properties": {"@spider": "usps_collection_boxes", "addr:city": "MACOMB", "addr:country": "US", "addr:full": "36654 SECOND ST", "addr:postcode": "74852", "addr:state": "OK", "amenity": "post_box", "brand": "United States Postal Service", "brand:wikidata": "Q668687", "collection_times": "Mo-Fr 11:30; Sa 09:00", "name": "USPS COLLECTION BOX - PO LOBBY", "nsi_id": "unitedstatespostalservice-a77078", "operator": "United States Postal Service", "operator:short": "USPS", "operator:type": "public", "operator:wikidata": "Q668687", "ref": "7485200004"}, "type": "Feature"}
{"dataset_attributes": {"@spider": "usps_collection_boxes", "spider:collection_time": "2024-02-07T08:23:59.531981"}, "geometry": {"coordinates": [-96.7771036676, 35.1312194707], "type": "Point"}, "id": "VgaboEncJGNPQO5LM89fHPWT4vU=", "properties": {"@spider": "usps_collection_boxes", "addr:city": "MAUD", "addr:country": "US", "addr:full": "201 W MAIN ST", "addr:postcode": "74854", "addr:state": "OK", "amenity": "post_box", "brand": "United States Postal Service", "brand:wikidata": "Q668687", "collection_times": "Mo-Fr 14:00; Sa 09:15", "name": "USPS COLLECTION BOX - BLUE BOX", "note": "ON 12/24 AND 12/31, THIS BOX MAY BE COLLECTED AS EARLY AS 12 NOON.", "nsi_id": "unitedstatespostalservice-a77078", "operator": "United States Postal Service", "operator:short": "USPS", "operator:type": "public", "operator:wikidata": "Q668687", "ref": "7485400000"}, "type": "Feature"}
{"dataset_attributes": {"@spider": "usps_collection_boxes", "spider:collection_time": "2024-02-07T08:23:59.531981"}, "geometry": {"coordinates": [-96.7771036676, 35.1312194707], "type": "Point"}, "id": "fthAzcUMMCJS9IZMPQHqJjWUxlU=", "properties": {"@spider": "usps_collection_boxes", "addr:city": "MAUD", "addr:country": "US", "addr:full": "201 W MAIN ST", "addr:postcode": "74854", "addr:state": "OK", "amenity": "post_box", "brand": "United States Postal Service", "brand:wikidata": "Q668687", "collection_times": "Mo-Fr 14:00; Sa 09:15", "name": "USPS COLLECTION BOX - PO LOBBY", "note": "ON 12/24 AND 12/31, THIS BOX MAY BE COLLECTED AS EARLY AS 12 NOON.", "nsi_id": "unitedstatespostalservice-a77078", "operator": "United States Postal Service", "operator:short": "USPS", "operator:type": "public", "operator:wikidata": "Q668687", "ref": "7485400001"}, "type": "Feature"}
{"dataset_attributes": {"@spider": "usps_collection_boxes", "spider:collection_time": "2024-02-07T08:23:59.531981"}, "geometry": {"coordinates": [-96.777103668, 35.131219471], "type": "Point"}, "id": "RWY6AJlHFi_W1UjS-5zqRnoools=", "properties": {"@spider": "usps_collection_boxes", "addr:city": "MAUD", "addr:country": "US", "addr:full": "201 W MAIN ST", "addr:postcode": "74854", "addr:state": "OK", "amenity": "post_box", "brand": "United States Postal Service", "brand:wikidata": "Q668687", "collection_times": "Mo-Fr 14:00; Sa 09:15", "name": "USPS COLLECTION BOX - PO LOBBY", "note": "ON 12/24 AND 12/31, THIS BOX MAY BE COLLECTED AS EARLY AS 12 NOON.", "nsi_id": "unitedstatespostalservice-a77078", "operator": "United States Postal Service", "operator:short": "USPS", "operator:type": "public", "operator:wikidata": "Q668687", "ref": "7485400003"}, "type": "Feature"}
{"dataset_attributes": {"@spider": "usps_collection_boxes", "spider:collection_time": "2024-02-07T08:23:59.531981"}, "geometry": {"coordinates": [-96.896109, 35.503239], "type": "Point"}, "id": "EogpnBjlqQyRDUuTUjfdvbZFYoM=", "properties": {"@spider": "usps_collection_boxes", "addr:city": "MEEKER", "addr:country": "US", "addr:full": "220 W CARL HUBBELL BLVD", "addr:postcode": "74855", "addr:state": "OK", "amenity": "post_box", "brand": "United States Postal Service", "brand:wikidata": "Q668687", "collection_times": "Mo-Fr 16:30; Sa 10:00", "name": "USPS COLLECTION BOX - BLUE BOX", "note": "ON 12/24 AND 12/31, THIS BOX MAY BE COLLECTED AS EARLY AS 12 NOON.", "nsi_id": "unitedstatespostalservice-a77078", "operator": "United States Postal Service", "operator:short": "USPS", "operator:type": "public", "operator:wikidata": "Q668687", "ref": "7485500000"}, "type": "Feature"}
{"dataset_attributes": {"@spider": "usps_collection_boxes", "spider:collection_time": "2024-02-07T08:23:59.531981"}, "geometry": {"coordinates": [-96.896109, 35.503239], "type": "Point"}, "id": "ZLP-FGZZLPDkhaokdhDUuv9tJhY=", "properties": {"@spider": "usps_collection_boxes", "addr:city": "MEEKER", "addr:country": "US", "addr:full": "220 W CARL HUBBELL BLVD", "addr:postcode": "74855", "addr:state": "OK", "amenity": "post_box", "brand": "United States Postal Service", "brand:wikidata": "Q668687", "collection_times": "Mo-Fr 16:30; Sa 10:00", "name": "USPS COLLECTION BOX - PO LOBBY", "note": "ON 12/24 AND 12/31, THIS BOX MAY BE COLLECTED AS EARLY AS 12 NOON.", "nsi_id": "unitedstatespostalservice-a77078", "operator": "United States Postal Service", "operator:short": "USPS", "operator:type": "public", "operator:wikidata": "Q668687", "ref": "7485500001"}, "type": "Feature"}
{"dataset_attributes": {"@spider": "usps_collection_boxes", "spider:collection_time": "2024-02-07T08:23:59.531981"}, "geometry": {"coordinates": [-96.896109, 35.503239], "type": "Point"}, "id": "eiYq4b5t8N9D-sXx-zlQLCpQuxA=", "properties": {"@spider": "usps_collection_boxes", "addr:city": "MEEKER", "addr:country": "US", "addr:full": "220 W CARL HUBBELL BLVD", "addr:postcode": "74855", "addr:state": "OK", "amenity": "post_box", "brand": "United States Postal Service", "brand:wikidata": "Q668687", "collection_times": "Mo-Fr 16:30; Sa 10:00", "name": "USPS COLLECTION BOX - PO LOBBY", "note": "ON 12/24 AND 12/31, THIS BOX MAY BE COLLECTED AS EARLY AS 12 NOON.", "nsi_id": "unitedstatespostalservice-a77078", "operator": "United States Postal Service", "operator:short": "USPS", "operator:type": "public", "operator:wikidata": "Q668687", "ref": "7485500002"}, "type": "Feature"}
{"dataset_attributes": {"@spider": "usps_collection_boxes", "spider:collection_time": "2024-02-07T08:23:59.531981"}, "geometry": {"coordinates": [-96.896192034, 35.503232487], "type": "Point"}, "id": "uhopaLnMDuFDgPqE9QkyPgYb11Y=", "properties": {"@spider": "usps_collection_boxes", "addr:city": "MEEKER", "addr:country": "US", "addr:full": "220 W CARL HUBBELL BLVD", "addr:postcode": "74855", "addr:state": "OK", "amenity": "post_box", "brand": "United States Postal Service", "brand:wikidata": "Q668687", "collection_times": "Mo-Fr 16:30; Sa 10:00", "name": "USPS COLLECTION BOX - PO LOBBY", "note": "ON 12/24 AND 12/31, THIS BOX MAY BE COLLECTED AS EARLY AS 12 NOON.", "nsi_id": "unitedstatespostalservice-a77078", "operator": "United States Postal Service", "operator:short": "USPS", "operator:type": "public", "operator:wikidata": "Q668687", "ref": "7485500003"}, "type": "Feature"}
{"dataset_attributes": {"@spider": "usps_collection_boxes", "spider:collection_time": "2024-02-07T08:23:59.531981"}, "geometry": {"coordinates": [-96.825939, 34.404591], "type": "Point"}, "id": "X-iHLP-VE4Us3BqEII_YjOx3_qg=", "properties": {"@spider": "usps_collection_boxes", "addr:city": "MILL CREEK", "addr:country": "US", "addr:full": "100 W MAIN ST", "addr:postcode": "74856", "addr:state": "OK", "amenity": "post_box", "brand": "United States Postal Service", "brand:wikidata": "Q668687", "collection_times": "Mo-Fr 12:30; Sa 09:30", "name": "USPS COLLECTION BOX - PO LOBBY", "note": "ON 12/24 AND 12/31, THIS BOX MAY BE COLLECTED AS EARLY AS 12 NOON.", "nsi_id": "unitedstatespostalservice-a77078", "operator": "United States Postal Service", "operator:short": "USPS", "operator:type": "public", "operator:wikidata": "Q668687", "ref": "7485600001"}, "type": "Feature"}
{"dataset_attributes": {"@spider": "usps_collection_boxes", "spider:collection_time": "2024-02-07T08:23:59.531981"}, "geometry": {"coordinates": [-96.825939, 34.404591], "type": "Point"}, "id": "prKQyNR348w2qBDoZLEgfvv4xYg=", "properties": {"@spider": "usps_collection_boxes", "addr:city": "MILL CREEK", "addr:country": "US", "addr:full": "100 W MAIN ST", "addr:postcode": "74856", "addr:state": "OK", "amenity": "post_box", "brand": "United States Postal Service", "brand:wikidata": "Q668687", "collection_times": "Mo-Fr 12:30; Sa 09:30", "name": "USPS COLLECTION BOX - PO LOBBY", "note": "ON 12/24 AND 12/31, THIS BOX MAY BE COLLECTED AS EARLY AS 12 NOON.", "nsi_id": "unitedstatespostalservice-a77078", "operator": "United States Postal Service", "operator:short": "USPS", "operator:type": "public", "operator:wikidata": "Q668687", "ref": "7485600002"}, "type": "Feature"}
{"dataset_attributes": {"@spider": "usps_collection_boxes", "spider:collection_time": "2024-02-07T08:23:59.531981"}, "geometry": {"coordinates": [-96.758513344, 34.238061001], "type": "Point"}, "id": "LWdP4dyCnnGofGaZ1XVIGHRPcHg=", "properties": {"@spider": "usps_collection_boxes", "addr:city": "MILL CREEK", "addr:country": "US", "addr:full": "100 W MAIN ST", "addr:postcode": "74856", "addr:state": "OK", "amenity": "post_box", "brand": "United States Postal Service", "brand:wikidata": "Q668687", "collection_times": "Mo-Fr 12:30; Sa 10:00", "name": "USPS COLLECTION BOX - PO LOBBY", "note": "ON 12/24 AND 12/31, THIS BOX MAY BE COLLECTED AS EARLY AS 12 NOON.", "nsi_id": "unitedstatespostalservice-a77078", "operator": "United States Postal Service", "operator:short": "USPS", "operator:type": "public", "operator:wikidata": "Q668687", "ref": "7485600003"}, "type": "Feature"}
{"dataset_attributes": {"@spider": "usps_collection_boxes", "spider:collection_time": "2024-02-07T08:23:59.531981"}, "geometry": {"coordinates": [-97.1596198069, 35.406837723], "type": "Point"}, "id": "NmzOKOPyvA0QPKQhXtMCqEu2iaU=", "properties": {"@spider": "usps_collection_boxes", "addr:city": "NEWALLA", "addr:country": "US", "addr:full": "5900 S HARRAH RD", "addr:postcode": "74857", "addr:state": "OK", "amenity": "post_box", "brand": "United States Postal Service", "brand:wikidata": "Q668687", "collection_times": "Mo-Fr 16:15; Sa 10:00", "name": "USPS COLLECTION BOX - BLUE BOX", "note": "ON 12/24 AND 12/31, THIS BOX MAY BE COLLECTED AS EARLY AS 12 NOON.", "nsi_id": "unitedstatespostalservice-a77078", "operator": "United States Postal Service", "operator:short": "USPS", "operator:type": "public", "operator:wikidata": "Q668687", "ref": "7485700000"}, "type": "Feature"}
{"dataset_attributes": {"@spider": "usps_collection_boxes", "spider:collection_time": "2024-02-07T08:23:59.531981"}, "geometry": {"coordinates": [-97.1599519, 35.29249], "type": "Point"}, "id": "uWaN5Hh24b6KGE7LzAOA9yAWfj0=", "properties": {"@spider": "usps_collection_boxes", "addr:city": "NEWALLA", "addr:country": "US", "addr:full": "17805 S HARRAH RD", "addr:postcode": "74857", "addr:state": "OK", "amenity": "post_box", "brand": "United States Postal Service", "brand:wikidata": "Q668687", "collection_times": "Mo-Sa 11:30", "name": "USPS COLLECTION BOX - BLUE BOX", "nsi_id": "unitedstatespostalservice-a77078", "operator": "United States Postal Service", "operator:short": "USPS", "operator:type": "public", "operator:wikidata": "Q668687", "ref": "7485700001"}, "type": "Feature"}
{"dataset_attributes": {"@spider": "usps_collection_boxes", "spider:collection_time": "2024-02-07T08:23:59.531981"}, "geometry": {"coordinates": [-97.159616, 35.40684], "type": "Point"}, "id": "KW6sStt9l7rbVT16cQA7s5RfeJg=", "properties": {"@spider": "usps_collection_boxes", "addr:city": "NEWALLA", "addr:country": "US", "addr:full": "5900 S HARRAH RD", "addr:postcode": "74857", "addr:state": "OK", "amenity": "post_box", "brand": "United States Postal Service", "brand:wikidata": "Q668687", "collection_times": "Mo-Fr 16:30; Sa 10:00", "name": "USPS COLLECTION BOX - PO LOBBY", "note": "ON 12/24 AND 12/31, THIS BOX MAY BE COLLECTED AS EARLY AS 12 NOON.", "nsi_id": "unitedstatespostalservice-a77078", "operator": "United States Postal Service", "operator:short": "USPS", "operator:type": "public", "operator:wikidata": "Q668687", "ref": "7485700002"}, "type": "Feature"}
{"dataset_attributes": {"@spider": "usps_collection_boxes", "spider:collection_time": "2024-02-07T08:23:59.531981"}, "geometry": {"coordinates": [-97.159616, 35.40684], "type": "Point"}, "id": "ABCb_8_Rij_KS8r79b7CeHXjwyg=", "properties": {"@spider": "usps_collection_boxes", "addr:city": "NEWALLA", "addr:country": "US", "addr:full": "5900 S HARRAH RD", "addr:postcode": "74857", "addr:state": "OK", "amenity": "post_box", "brand": "United States Postal Service", "brand:wikidata": "Q668687", "collection_times": "Mo-Fr 16:30; Sa 10:00", "name": "USPS COLLECTION BOX - PO LOBBY", "note": "ON 12/24 AND 12/31, THIS BOX MAY BE COLLECTED AS EARLY AS 12 NOON.", "nsi_id": "unitedstatespostalservice-a77078", "operator": "United States Postal Service", "operator:short": "USPS", "operator:type": "public", "operator:wikidata": "Q668687", "ref": "7485700003"}, "type": "Feature"}
{"dataset_attributes": {"@spider": "usps_collection_boxes", "spider:collection_time": "2024-02-07T08:23:59.531981"}, "geometry": {"coordinates": [-97.159619807, 35.406837723], "type": "Point"}, "id": "11ToZZtKauYYHb3s3ckddF2mOQc=", "properties": {"@spider": "usps_collection_boxes", "addr:city": "NEWALLA", "addr:country": "US", "addr:full": "5900 S HARRAH RD", "addr:postcode": "74857", "addr:state": "OK", "amenity": "post_box", "brand": "United States Postal Service", "brand:wikidata": "Q668687", "collection_times": "Mo-Fr 16:30; Sa 10:00", "name": "USPS COLLECTION BOX - PO LOBBY", "note": "ON 12/24 AND 12/31, THIS BOX MAY BE COLLECTED AS EARLY AS 12 NOON.", "nsi_id": "unitedstatespostalservice-a77078", "operator": "United States Postal Service", "operator:short": "USPS", "operator:type": "public", "operator:wikidata": "Q668687", "ref": "7485700004"}, "type": "Feature"}
{"dataset_attributes": {"@spider": "usps_collection_boxes", "spider:collection_time": "2024-02-07T08:23:59.531981"}, "geometry": {"coordinates": [-96.306017768, 35.432136], "type": "Point"}, "id": "8wcz31631umwInD1CW_qu-9dm68=", "properties": {"@spider": "usps_collection_boxes", "addr:city": "OKEMAH", "addr:country": "US", "addr:full": "110 N 5TH ST", "addr:postcode": "74859", "addr:state": "OK", "amenity": "post_box", "brand": "United States Postal Service", "brand:wikidata": "Q668687", "collection_times": "Mo-Fr 16:15; Sa 09:30", "name": "USPS COLLECTION BOX - BLUE BOX", "note": "ON 12/24 AND 12/31, THIS BOX MAY BE COLLECTED AS EARLY AS 12 NOON.", "nsi_id": "unitedstatespostalservice-a77078", "operator": "United States Postal Service", "operator:short": "USPS", "operator:type": "public", "operator:wikidata": "Q668687", "ref": "7485900000"}, "type": "Feature"}
{"dataset_attributes": {"@spider": "usps_collection_boxes", "spider:collection_time": "2024-02-07T08:23:59.531981"}, "geometry": {"coordinates": [-96.305048, 35.431561], "type": "Point"}, "id": "bDcGSoQQO3b7hYFGjQeRR0qrucs=", "properties": {"@spider": "usps_collection_boxes", "addr:city": "OKEMAH", "addr:country": "US", "addr:full": "418 W BROADWAY ST", "addr:postcode": "74859", "addr:state": "OK", "amenity": "post_box", "brand": "United States Postal Service", "brand:wikidata": "Q668687", "collection_times": "Mo-Fr 16:15; Sa 09:30", "name": "USPS COLLECTION BOX - PO LOBBY", "note": "ON 12/24 AND 12/31, THIS BOX MAY BE COLLECTED AS EARLY AS 12 NOON.", "nsi_id": "unitedstatespostalservice-a77078", "operator": "United States Postal Service", "operator:short": "USPS", "operator:type": "public", "operator:wikidata": "Q668687", "ref": "7485900004"}, "type": "Feature"}
{"dataset_attributes": {"@spider": "usps_collection_boxes", "spider:collection_time": "2024-02-07T08:23:59.531981"}, "geometry": {"coordinates": [-96.305048, 35.431561], "type": "Point"}, "id": "8pjz_INLp4Y8vCZryrMYlSvt_dk=", "properties": {"@spider": "usps_collection_boxes", "addr:city": "OKEMAH", "addr:country": "US", "addr:full": "418 W BROADWAY ST", "addr:postcode": "74859", "addr:state": "OK", "amenity": "post_box", "brand": "United States Postal Service", "brand:wikidata": "Q668687", "collection_times": "Mo-Fr 16:15; Sa 09:30", "name": "USPS COLLECTION BOX - PO LOBBY", "note": "ON 12/24 AND 12/31, THIS BOX MAY BE COLLECTED AS EARLY AS 12 NOON.", "nsi_id": "unitedstatespostalservice-a77078", "operator": "United States Postal Service", "operator:short": "USPS", "operator:type": "public", "operator:wikidata": "Q668687", "ref": "7485900005"}, "type": "Feature"}
{"dataset_attributes": {"@spider": "usps_collection_boxes", "spider:collection_time": "2024-02-07T08:23:59.531981"}, "geometry": {"coordinates": [-96.305027816, 35.43159416], "type": "Point"}, "id": "_GjhEpyAd4pVGbF5LDCM4XpXEOY=", "properties": {"@spider": "usps_collection_boxes", "addr:city": "OKEMAH", "addr:country": "US", "addr:full": "418 W BROADWAY ST", "addr:postcode": "74859", "addr:state": "OK", "amenity": "post_box", "brand": "United States Postal Service", "brand:wikidata": "Q668687", "collection_times": "Mo-Fr 16:15", "name": "USPS COLLECTION BOX - PO LOBBY", "note": "ON 12/24 AND 12/31, THIS BOX MAY BE COLLECTED AS EARLY AS 12 NOON.", "nsi_id": "unitedstatespostalservice-a77078", "operator": "United States Postal Service", "operator:short": "USPS", "operator:type": "public", "operator:wikidata": "Q668687", "ref": "7485900006"}, "type": "Feature"}
{"dataset_attributes": {"@spider": "usps_collection_boxes", "spider:collection_time": "2024-02-07T08:23:59.531981"}, "geometry": {"coordinates": [-96.56777, 35.506618], "type": "Point"}, "id": "E29Z_QdbKj5I-86dlkyAJJVAW4o=", "properties": {"@spider": "usps_collection_boxes", "addr:city": "PADEN", "addr:country": "US", "addr:full": "813 S MAIN ST", "addr:postcode": "74860", "addr:state": "OK", "amenity": "post_box", "brand": "United States Postal Service", "brand:wikidata": "Q668687", "collection_times": "Mo-Fr 14:00; Sa 09:00", "name": "USPS COLLECTION BOX - BLUE BOX", "note": "ON 12/24 AND 12/31, THIS BOX MAY BE COLLECTED AS EARLY AS 12 NOON.", "nsi_id": "unitedstatespostalservice-a77078", "operator": "United States Postal Service", "operator:short": "USPS", "operator:type": "public", "operator:wikidata": "Q668687", "ref": "7486000000"}, "type": "Feature"}
{"dataset_attributes": {"@spider": "usps_collection_boxes", "spider:collection_time": "2024-02-07T08:23:59.531981"}, "geometry": {"coordinates": [-96.56777, 35.506618], "type": "Point"}, "id": "-YYgGBlLSHzNejDpXHZ_nIUs_uM=", "properties": {"@spider": "usps_collection_boxes", "addr:city": "PADEN", "addr:country": "US", "addr:full": "813 S MAIN ST", "addr:postcode": "74860", "addr:state": "OK", "amenity": "post_box", "brand": "United States Postal Service", "brand:wikidata": "Q668687", "collection_times": "Mo-Fr 13:45; Sa 09:00", "name": "USPS COLLECTION BOX - PO LOBBY", "note": "ON 12/24 AND 12/31, THIS BOX MAY BE COLLECTED AS EARLY AS 12 NOON.", "nsi_id": "unitedstatespostalservice-a77078", "operator": "United States Postal Service", "operator:short": "USPS", "operator:type": "public", "operator:wikidata": "Q668687", "ref": "7486000001"}, "type": "Feature"}
{"dataset_attributes": {"@spider": "usps_collection_boxes", "spider:collection_time": "2024-02-07T08:23:59.531981"}, "geometry": {"coordinates": [-96.56777, 35.506618], "type": "Point"}, "id": "AwPdfW0PZrU0OgkJ1im256yX61U=", "properties": {"@spider": "usps_collection_boxes", "addr:city": "PADEN", "addr:country": "US", "addr:full": "813 S MAIN ST", "addr:postcode": "74860", "addr:state": "OK", "amenity": "post_box", "brand": "United States Postal Service", "brand:wikidata": "Q668687", "collection_times": "Mo-Fr 13:45; Sa 09:00", "name": "USPS COLLECTION BOX - PO LOBBY", "note": "ON 12/24 AND 12/31, THIS BOX MAY BE COLLECTED AS EARLY AS 12 NOON.", "nsi_id": "unitedstatespostalservice-a77078", "operator": "United States Postal Service", "operator:short": "USPS", "operator:type": "public", "operator:wikidata": "Q668687", "ref": "7486000002"}, "type": "Feature"}
{"dataset_attributes": {"@spider": "usps_collection_boxes", "spider:collection_time": "2024-02-07T08:23:59.531981"}, "geometry": {"coordinates": [-96.567798422, 35.506629906], "type": "Point"}, "id": "Rx5VOnaW-2o5fHhzICQdLwtE6fc=", "properties": {"@spider": "usps_collection_boxes", "addr:city": "PADEN", "addr:country": "US", "addr:full": "813 S MAIN ST", "addr:postcode": "74860", "addr:state": "OK", "amenity": "post_box", "brand": "United States Postal Service", "brand:wikidata": "Q668687", "collection_times": "Mo-Fr 14:00; Sa 09:30", "name": "USPS COLLECTION BOX - PO LOBBY", "note": "ON 12/24 AND 12/31, THIS BOX MAY BE COLLECTED AS EARLY AS 12 NOON.", "nsi_id": "unitedstatespostalservice-a77078", "operator": "United States Postal Service", "operator:short": "USPS", "operator:type": "public", "operator:wikidata": "Q668687", "ref": "7486000003"}, "type": "Feature"}
{"dataset_attributes": {"@spider": "usps_collection_boxes", "spider:collection_time": "2024-02-07T08:23:59.531981"}, "geometry": {"coordinates": [-96.68463, 35.485643], "type": "Point"}, "id": "u6mniVnolTxEatv1SUFGpF-QmaA=", "properties": {"@spider": "usps_collection_boxes", "addr:city": "PRAGUE", "addr:country": "US", "addr:full": "901 KLABZUBA AVE", "addr:postcode": "74864", "addr:state": "OK", "amenity": "post_box", "brand": "United States Postal Service", "brand:wikidata": "Q668687", "collection_times": "Mo-Fr 16:00; Sa 10:30", "name": "USPS COLLECTION BOX - BLUE BOX", "note": "ON 12/24 AND 12/31, THIS BOX MAY BE COLLECTED AS EARLY AS 12 NOON.", "nsi_id": "unitedstatespostalservice-a77078", "operator": "United States Postal Service", "operator:short": "USPS", "operator:type": "public", "operator:wikidata": "Q668687", "ref": "7486400000"}, "type": "Feature"}
{"dataset_attributes": {"@spider": "usps_collection_boxes", "spider:collection_time": "2024-02-07T08:23:59.531981"}, "geometry": {"coordinates": [-96.686854, 35.485588], "type": "Point"}, "id": "awUyil-6GeIkxlc5GlTFOI0tG-k=", "properties": {"@spider": "usps_collection_boxes", "addr:city": "PRAGUE", "addr:country": "US", "addr:full": "804 9TH ST", "addr:postcode": "74864", "addr:state": "OK", "amenity": "post_box", "brand": "United States Postal Service", "brand:wikidata": "Q668687", "collection_times": "Mo-Fr 16:00; Sa 10:30", "name": "USPS COLLECTION BOX - PO LOBBY", "note": "ON 12/24 AND 12/31, THIS BOX MAY BE COLLECTED AS EARLY AS 12 NOON.", "nsi_id": "unitedstatespostalservice-a77078", "operator": "United States Postal Service", "operator:short": "USPS", "operator:type": "public", "operator:wikidata": "Q668687", "ref": "7486400001"}, "type": "Feature"}
{"dataset_attributes": {"@spider": "usps_collection_boxes", "spider:collection_time": "2024-02-07T08:23:59.531981"}, "geometry": {"coordinates": [-96.686854, 35.485588], "type": "Point"}, "id": "q4ihqFn5Ttjnic2o3UVM5U3cVpE=", "properties": {"@spider": "usps_collection_boxes", "addr:city": "PRAGUE", "addr:country": "US", "addr:full": "804 9TH ST", "addr:postcode": "74864", "addr:state": "OK", "amenity": "post_box", "brand": "United States Postal Service", "brand:wikidata": "Q668687", "collection_times": "Mo-Fr 16:00; Sa 10:30", "name": "USPS COLLECTION BOX - PO LOBBY", "note": "ON 12/24 AND 12/31, THIS BOX MAY BE COLLECTED AS EARLY AS 12 NOON.", "nsi_id": "unitedstatespostalservice-a77078", "operator": "United States Postal Service", "operator:short": "USPS", "operator:type": "public", "operator:wikidata": "Q668687", "ref": "7486400002"}, "type": "Feature"}
{"dataset_attributes": {"@spider": "usps_collection_boxes", "spider:collection_time": "2024-02-07T08:23:59.531981"}, "geometry": {"coordinates": [-96.6847021634, 35.4856200513], "type": "Point"}, "id": "ND-wEck64mjZx_9I5BnF-1SCMSI=", "properties": {"@spider": "usps_collection_boxes", "addr:city": "PRAGUE", "addr:country": "US", "addr:full": "804 9TH ST", "addr:postcode": "74864", "addr:state": "OK", "amenity": "post_box", "brand": "United States Postal Service", "brand:wikidata": "Q668687", "collection_times": "Mo-Fr 16:00; Sa 10:30", "name": "USPS COLLECTION BOX - PO LOBBY", "note": "ON 12/24 AND 12/31, THIS BOX MAY BE COLLECTED AS EARLY AS 12 NOON.", "nsi_id": "unitedstatespostalservice-a77078", "operator": "United States Postal Service", "operator:short": "USPS", "operator:type": "public", "operator:wikidata": "Q668687", "ref": "7486400003"}, "type": "Feature"}
{"dataset_attributes": {"@spider": "usps_collection_boxes", "spider:collection_time": "2024-02-07T08:23:59.531981"}, "geometry": {"coordinates": [-96.842331, 34.627367], "type": "Point"}, "id": "gPMyFLCGyH1jnujbugEr31dWc-k=", "properties": {"@spider": "usps_collection_boxes", "addr:city": "ROFF", "addr:country": "US", "addr:full": "204 W MAIN ST", "addr:postcode": "74865", "addr:state": "OK", "amenity": "post_box", "brand": "United States Postal Service", "brand:wikidata": "Q668687", "collection_times": "Mo-Fr 15:45; Sa 09:00", "name": "USPS COLLECTION BOX - BLUE BOX", "note": "ON 12/24 AND 12/31, THIS BOX MAY BE COLLECTED AS EARLY AS 12 NOON.", "nsi_id": "unitedstatespostalservice-a77078", "operator": "United States Postal Service", "operator:short": "USPS", "operator:type": "public", "operator:wikidata": "Q668687", "ref": "7486500000"}, "type": "Feature"}
{"dataset_attributes": {"@spider": "usps_collection_boxes", "spider:collection_time": "2024-02-07T08:23:59.531981"}, "geometry": {"coordinates": [-96.842331, 34.627367], "type": "Point"}, "id": "WG71xYp486WOBwbIQ0i9iWqWTEI=", "properties": {"@spider": "usps_collection_boxes", "addr:city": "ROFF", "addr:country": "US", "addr:full": "204 W MAIN ST", "addr:postcode": "74865", "addr:state": "OK", "amenity": "post_box", "brand": "United States Postal Service", "brand:wikidata": "Q668687", "collection_times": "Mo-Fr 16:00; Sa 09:00", "name": "USPS COLLECTION BOX - PO LOBBY", "note": "ON 12/24 AND 12/31, THIS BOX MAY BE COLLECTED AS EARLY AS 12 NOON.", "nsi_id": "unitedstatespostalservice-a77078", "operator": "United States Postal Service", "operator:short": "USPS", "operator:type": "public", "operator:wikidata": "Q668687", "ref": "7486500002"}, "type": "Feature"}
{"dataset_attributes": {"@spider": "usps_collection_boxes", "spider:collection_time": "2024-02-07T08:23:59.531981"}, "geometry": {"coordinates": [-96.842331, 34.627367], "type": "Point"}, "id": "v_NtUdE3vQtdH2FbRGHvhdBgq1g=", "properties": {"@spider": "usps_collection_boxes", "addr:city": "ROFF", "addr:country": "US", "addr:full": "204 W MAIN ST", "addr:postcode": "74865", "addr:state": "OK", "amenity": "post_box", "brand": "United States Postal Service", "brand:wikidata": "Q668687", "collection_times": "Mo-Fr 16:00; Sa 09:00", "name": "USPS COLLECTION BOX - PO LOBBY", "note": "ON 12/24 AND 12/31, THIS BOX MAY BE COLLECTED AS EARLY AS 12 NOON.", "nsi_id": "unitedstatespostalservice-a77078", "operator": "United States Postal Service", "operator:short": "USPS", "operator:type": "public", "operator:wikidata": "Q668687", "ref": "7486500003"}, "type": "Feature"}
{"dataset_attributes": {"@spider": "usps_collection_boxes", "spider:collection_time": "2024-02-07T08:23:59.531981"}, "geometry": {"coordinates": [-96.842331, 34.627364497], "type": "Point"}, "id": "UHldrDW3xmNsXZZEIS3_tVhbelA=", "properties": {"@spider": "usps_collection_boxes", "addr:city": "ROFF", "addr:country": "US", "addr:full": "204 W MAIN ST", "addr:postcode": "74865", "addr:state": "OK", "amenity": "post_box", "brand": "United States Postal Service", "brand:wikidata": "Q668687", "collection_times": "Mo-Fr 16:00; Sa 09:00", "name": "USPS COLLECTION BOX - PO LOBBY", "note": "ON 12/24 AND 12/31, THIS BOX MAY BE COLLECTED AS EARLY AS 12 NOON.", "nsi_id": "unitedstatespostalservice-a77078", "operator": "United States Postal Service", "operator:short": "USPS", "operator:type": "public", "operator:wikidata": "Q668687", "ref": "7486500004"}, "type": "Feature"}
{"dataset_attributes": {"@spider": "usps_collection_boxes", "spider:collection_time": "2024-02-07T08:23:59.531981"}, "geometry": {"coordinates": [-96.8618555826, 35.072172], "type": "Point"}, "id": "dDJ7ShLqu8BVJITjW_SgwPz5bdU=", "properties": {"@spider": "usps_collection_boxes", "addr:city": "ST LOUIS", "addr:country": "US", "addr:full": "34000 SAINT LOUIS RD", "addr:postcode": "74866", "addr:state": "OK", "amenity": "post_box", "brand": "United States Postal Service", "brand:wikidata": "Q668687", "collection_times": "Mo-Fr 14:00; Sa 08:45", "name": "USPS COLLECTION BOX - PO LOBBY", "note": "ON 12/24 AND 12/31, THIS BOX MAY BE COLLECTED AS EARLY AS 12 NOON.", "nsi_id": "unitedstatespostalservice-a77078", "operator": "United States Postal Service", "operator:short": "USPS", "operator:type": "public", "operator:wikidata": "Q668687", "ref": "7486600001"}, "type": "Feature"}
{"dataset_attributes": {"@spider": "usps_collection_boxes", "spider:collection_time": "2024-02-07T08:23:59.531981"}, "geometry": {"coordinates": [-96.861855583, 35.072172], "type": "Point"}, "id": "lmSe8EZ44c97G5wu2INjL_4tWi0=", "properties": {"@spider": "usps_collection_boxes", "addr:city": "ST LOUIS", "addr:country": "US", "addr:full": "34000 SAINT LOUIS RD", "addr:postcode": "74866", "addr:state": "OK", "amenity": "post_box", "brand": "United States Postal Service", "brand:wikidata": "Q668687", "collection_times": "Mo-Fr 15:00; Sa 08:45", "name": "USPS COLLECTION BOX - PO LOBBY", "note": "ON 12/24 AND 12/31, THIS BOX MAY BE COLLECTED AS EARLY AS 12 NOON.", "nsi_id": "unitedstatespostalservice-a77078", "operator": "United States Postal Service", "operator:short": "USPS", "operator:type": "public", "operator:wikidata": "Q668687", "ref": "7486600003"}, "type": "Feature"}
{"dataset_attributes": {"@spider": "usps_collection_boxes", "spider:collection_time": "2024-02-07T08:23:59.531981"}, "geometry": {"coordinates": [-96.5255171, 34.948283], "type": "Point"}, "id": "VToOXoili_nzcY6udpRKGA7pgs0=", "properties": {"@spider": "usps_collection_boxes", "addr:city": "SASAKWA", "addr:country": "US", "addr:full": "1 OLIVE ST", "addr:postcode": "74867", "addr:state": "OK", "amenity": "post_box", "brand": "United States Postal Service", "brand:wikidata": "Q668687", "collection_times": "Mo-Fr 12:00; Sa 10:00", "name": "USPS COLLECTION BOX - BLUE BOX", "nsi_id": "unitedstatespostalservice-a77078", "operator": "United States Postal Service", "operator:short": "USPS", "operator:type": "public", "operator:wikidata": "Q668687", "ref": "7486700000"}, "type": "Feature"}
{"dataset_attributes": {"@spider": "usps_collection_boxes", "spider:collection_time": "2024-02-07T08:23:59.531981"}, "geometry": {"coordinates": [-96.525661, 34.947223], "type": "Point"}, "id": "oNcNY6MdbnrPud4VyOvGbwKobug=", "properties": {"@spider": "usps_collection_boxes", "addr:city": "SASAKWA", "addr:country": "US", "addr:full": "1 OLIVE ST", "addr:postcode": "74867", "addr:state": "OK", "amenity": "post_box", "brand": "United States Postal Service", "brand:wikidata": "Q668687", "collection_times": "Mo-Fr 12:00; Sa 10:00", "name": "USPS COLLECTION BOX - PO LOBBY", "nsi_id": "unitedstatespostalservice-a77078", "operator": "United States Postal Service", "operator:short": "USPS", "operator:type": "public", "operator:wikidata": "Q668687", "ref": "7486700001"}, "type": "Feature"}
{"dataset_attributes": {"@spider": "usps_collection_boxes", "spider:collection_time": "2024-02-07T08:23:59.531981"}, "geometry": {"coordinates": [-96.525678684, 34.947254104], "type": "Point"}, "id": "nxKol03salUm2C7tP7-2_3iZvSE=", "properties": {"@spider": "usps_collection_boxes", "addr:city": "SASAKWA", "addr:country": "US", "addr:full": "1 OLIVE ST", "addr:postcode": "74867", "addr:state": "OK", "amenity": "post_box", "brand": "United States Postal Service", "brand:wikidata": "Q668687", "collection_times": "Mo-Fr 12:00; Sa 10:00", "name": "USPS COLLECTION BOX - PO LOBBY", "nsi_id": "unitedstatespostalservice-a77078", "operator": "United States Postal Service", "operator:short": "USPS", "operator:type": "public", "operator:wikidata": "Q668687", "ref": "7486700002"}, "type": "Feature"}
{"dataset_attributes": {"@spider": "usps_collection_boxes", "spider:collection_time": "2024-02-07T08:23:59.531981"}, "geometry": {"coordinates": [-96.67012, 35.225529], "type": "Point"}, "id": "OIVZPZ_K_TXsvZ_FvG_zfA41MNo=", "properties": {"@spider": "usps_collection_boxes", "addr:city": "SEMINOLE", "addr:country": "US", "addr:full": "120 E OAK AVE", "addr:postcode": "74868", "addr:state": "OK", "amenity": "post_box", "brand": "United States Postal Service", "brand:wikidata": "Q668687", "collection_times": "Mo-Fr 16:30; Sa 12:00", "name": "USPS COLLECTION BOX - BLUE BOX", "note": "ON 12/24 AND 12/31, THIS BOX MAY BE COLLECTED AS EARLY AS 12 NOON.", "nsi_id": "unitedstatespostalservice-a77078", "operator": "United States Postal Service", "operator:short": "USPS", "operator:type": "public", "operator:wikidata": "Q668687", "ref": "7486800008"}, "type": "Feature"}
{"dataset_attributes": {"@spider": "usps_collection_boxes", "spider:collection_time": "2024-02-07T08:23:59.531981"}, "geometry": {"coordinates": [-96.67012, 35.225529], "type": "Point"}, "id": "WTEkMuAmo_AO83qQZKDzFL_7xq8=", "properties": {"@spider": "usps_collection_boxes", "addr:city": "SEMINOLE", "addr:country": "US", "addr:full": "120 E OAK AVE", "addr:postcode": "74868", "addr:state": "OK", "amenity": "post_box", "brand": "United States Postal Service", "brand:wikidata": "Q668687", "collection_times": "Mo-Fr 16:30; Sa 12:00", "name": "USPS COLLECTION BOX - PO LOBBY", "note": "ON 12/24 AND 12/31, THIS BOX MAY BE COLLECTED AS EARLY AS 12 NOON.", "nsi_id": "unitedstatespostalservice-a77078", "operator": "United States Postal Service", "operator:short": "USPS", "operator:type": "public", "operator:wikidata": "Q668687", "ref": "7486800013"}, "type": "Feature"}
{"dataset_attributes": {"@spider": "usps_collection_boxes", "spider:collection_time": "2024-02-07T08:23:59.531981"}, "geometry": {"coordinates": [-96.6701205, 35.225523533], "type": "Point"}, "id": "ss-T4lEBjoaXTywCVaf0RdnpiOI=", "properties": {"@spider": "usps_collection_boxes", "addr:city": "SEMINOLE", "addr:country": "US", "addr:full": "120 E OAK AVE", "addr:postcode": "74868", "addr:state": "OK", "amenity": "post_box", "brand": "United States Postal Service", "brand:wikidata": "Q668687", "collection_times": "Mo-Fr 16:30; Sa 12:00", "name": "USPS COLLECTION BOX - PO LOBBY", "note": "ON 12/24 AND 12/31, THIS BOX MAY BE COLLECTED AS EARLY AS 12 NOON.", "nsi_id": "unitedstatespostalservice-a77078", "operator": "United States Postal Service", "operator:short": "USPS", "operator:type": "public", "operator:wikidata": "Q668687", "ref": "7486800016"}, "type": "Feature"}
{"dataset_attributes": {"@spider": "usps_collection_boxes", "spider:collection_time": "2024-02-07T08:23:59.531981"}, "geometry": {"coordinates": [-96.821813, 35.611479], "type": "Point"}, "id": "3E3hQfiyRdo27YFKLhyEXikj3Wg=", "properties": {"@spider": "usps_collection_boxes", "addr:city": "SPARKS", "addr:country": "US", "addr:full": "316 BROADWAY ST", "addr:postcode": "74869", "addr:state": "OK", "amenity": "post_box", "brand": "United States Postal Service", "brand:wikidata": "Q668687", "collection_times": "Mo-Fr 14:30; Sa 11:00", "name": "USPS COLLECTION BOX - BLUE BOX", "note": "ON 12/24 AND 12/31, THIS BOX MAY BE COLLECTED AS EARLY AS 12 NOON.", "nsi_id": "unitedstatespostalservice-a77078", "operator": "United States Postal Service", "operator:short": "USPS", "operator:type": "public", "operator:wikidata": "Q668687", "ref": "7486900000"}, "type": "Feature"}
{"dataset_attributes": {"@spider": "usps_collection_boxes", "spider:collection_time": "2024-02-07T08:23:59.531981"}, "geometry": {"coordinates": [-96.821813, 35.611479], "type": "Point"}, "id": "P5-2D6J-3W3gRrBqUU3-Yjyp-vE=", "properties": {"@spider": "usps_collection_boxes", "addr:city": "SPARKS", "addr:country": "US", "addr:full": "316 BROADWAY ST", "addr:postcode": "74869", "addr:state": "OK", "amenity": "post_box", "brand": "United States Postal Service", "brand:wikidata": "Q668687", "collection_times": "Mo-Fr 14:30; Sa 11:00", "name": "USPS COLLECTION BOX - PO LOBBY", "note": "ON 12/24 AND 12/31, THIS BOX MAY BE COLLECTED AS EARLY AS 12 NOON.", "nsi_id": "unitedstatespostalservice-a77078", "operator": "United States Postal Service", "operator:short": "USPS", "operator:type": "public", "operator:wikidata": "Q668687", "ref": "7486900001"}, "type": "Feature"}
{"dataset_attributes": {"@spider": "usps_collection_boxes", "spider:collection_time": "2024-02-07T08:23:59.531981"}, "geometry": {"coordinates": [-96.821351026, 35.611482497], "type": "Point"}, "id": "a11M4WdGjJ5WjGyix4P54MLQRsk=", "properties": {"@spider": "usps_collection_boxes", "addr:city": "SPARKS", "addr:country": "US", "addr:full": "316 BROADWAY ST", "addr:postcode": "74869", "addr:state": "OK", "amenity": "post_box", "brand": "United States Postal Service", "brand:wikidata": "Q668687", "collection_times": "Mo-Fr 15:00; Sa 11:30", "name": "USPS COLLECTION BOX - PO LOBBY", "note": "ON 12/24 AND 12/31, THIS BOX MAY BE COLLECTED AS EARLY AS 12 NOON.", "nsi_id": "unitedstatespostalservice-a77078", "operator": "United States Postal Service", "operator:short": "USPS", "operator:type": "public", "operator:wikidata": "Q668687", "ref": "7486900002"}, "type": "Feature"}
{"dataset_attributes": {"@spider": "usps_collection_boxes", "spider:collection_time": "2024-02-07T08:23:59.531981"}, "geometry": {"coordinates": [-96.52683, 34.652726], "type": "Point"}, "id": "uW1Zaf6PLw3I1yzSQrMwjHWhUX8=", "properties": {"@spider": "usps_collection_boxes", "addr:city": "STONEWALL", "addr:country": "US", "addr:full": "124 W MAIN ST", "addr:postcode": "74871", "addr:state": "OK", "amenity": "post_box", "brand": "United States Postal Service", "brand:wikidata": "Q668687", "collection_times": "Mo-Fr 16:00; Sa 12:30", "name": "USPS COLLECTION BOX - BLUE BOX", "note": "ON 12/24 AND 12/31, THIS BOX MAY BE COLLECTED AS EARLY AS 12 NOON.", "nsi_id": "unitedstatespostalservice-a77078", "operator": "United States Postal Service", "operator:short": "USPS", "operator:type": "public", "operator:wikidata": "Q668687", "ref": "7487100000"}, "type": "Feature"}
{"dataset_attributes": {"@spider": "usps_collection_boxes", "spider:collection_time": "2024-02-07T08:23:59.531981"}, "geometry": {"coordinates": [-96.52683, 34.652726], "type": "Point"}, "id": "Su5ZVUmn9rX01btLVoB1eE9ygxs=", "properties": {"@spider": "usps_collection_boxes", "addr:city": "STONEWALL", "addr:country": "US", "addr:full": "124 W MAIN ST", "addr:postcode": "74871", "addr:state": "OK", "amenity": "post_box", "brand": "United States Postal Service", "brand:wikidata": "Q668687", "collection_times": "Mo-Fr 16:00; Sa 12:30", "name": "USPS COLLECTION BOX - PO LOBBY", "note": "ON 12/24 AND 12/31, THIS BOX MAY BE COLLECTED AS EARLY AS 12 NOON.", "nsi_id": "unitedstatespostalservice-a77078", "operator": "United States Postal Service", "operator:short": "USPS", "operator:type": "public", "operator:wikidata": "Q668687", "ref": "7487100001"}, "type": "Feature"}
{"dataset_attributes": {"@spider": "usps_collection_boxes", "spider:collection_time": "2024-02-07T08:23:59.531981"}, "geometry": {"coordinates": [-96.52683, 34.652726], "type": "Point"}, "id": "l2Yh8jDhPsbQsOzG0KGXRC17TZ4=", "properties": {"@spider": "usps_collection_boxes", "addr:city": "STONEWALL", "addr:country": "US", "addr:full": "124 W MAIN ST", "addr:postcode": "74871", "addr:state": "OK", "amenity": "post_box", "brand": "United States Postal Service", "brand:wikidata": "Q668687", "collection_times": "Mo-Fr 16:00; Sa 12:30", "name": "USPS COLLECTION BOX - PO LOBBY", "note": "ON 12/24 AND 12/31, THIS BOX MAY BE COLLECTED AS EARLY AS 12 NOON.", "nsi_id": "unitedstatespostalservice-a77078", "operator": "United States Postal Service", "operator:short": "USPS", "operator:type": "public", "operator:wikidata": "Q668687", "ref": "7487100002"}, "type": "Feature"}
{"dataset_attributes": {"@spider": "usps_collection_boxes", "spider:collection_time": "2024-02-07T08:23:59.531981"}, "geometry": {"coordinates": [-96.526961832, 34.652722453], "type": "Point"}, "id": "8Fo1TQMzIkqc1Zcl3K2GJDnulBQ=", "properties": {"@spider": "usps_collection_boxes", "addr:city": "STONEWALL", "addr:country": "US", "addr:full": "124 W MAIN ST", "addr:postcode": "74871", "addr:state": "OK", "amenity": "post_box", "brand": "United States Postal Service", "brand:wikidata": "Q668687", "collection_times": "Mo-Fr 16:00; Sa 12:30", "name": "USPS COLLECTION BOX - PO LOBBY", "note": "ON 12/24 AND 12/31, THIS BOX MAY BE COLLECTED AS EARLY AS 12 NOON.", "nsi_id": "unitedstatespostalservice-a77078", "operator": "United States Postal Service", "operator:short": "USPS", "operator:type": "public", "operator:wikidata": "Q668687", "ref": "7487100003"}, "type": "Feature"}
{"dataset_attributes": {"@spider": "usps_collection_boxes", "spider:collection_time": "2024-02-07T08:23:59.531981"}, "geometry": {"coordinates": [-96.962103, 34.79561], "type": "Point"}, "id": "RNMAxLpCERjbnt9pgDBv_NHL_bY=", "properties": {"@spider": "usps_collection_boxes", "addr:city": "STRATFORD", "addr:country": "US", "addr:full": "116 E MAIN ST", "addr:postcode": "74872", "addr:state": "OK", "amenity": "post_box", "brand": "United States Postal Service", "brand:wikidata": "Q668687", "collection_times": "Mo-Fr 16:00; Sa 10:30", "name": "USPS COLLECTION BOX - BLUE BOX", "note": "ON 12/24 AND 12/31, THIS BOX MAY BE COLLECTED AS EARLY AS 12 NOON.", "nsi_id": "unitedstatespostalservice-a77078", "operator": "United States Postal Service", "operator:short": "USPS", "operator:type": "public", "operator:wikidata": "Q668687", "ref": "7487200001"}, "type": "Feature"}
{"dataset_attributes": {"@spider": "usps_collection_boxes", "spider:collection_time": "2024-02-07T08:23:59.531981"}, "geometry": {"coordinates": [-96.962103, 34.79561], "type": "Point"}, "id": "kKw45DSjH7nANBiHMj77sESMg0A=", "properties": {"@spider": "usps_collection_boxes", "addr:city": "STRATFORD", "addr:country": "US", "addr:full": "116 E MAIN ST", "addr:postcode": "74872", "addr:state": "OK", "amenity": "post_box", "brand": "United States Postal Service", "brand:wikidata": "Q668687", "collection_times": "Mo-Fr 16:00; Sa 10:30", "name": "USPS COLLECTION BOX - PO LOBBY", "note": "ON 12/24 AND 12/31, THIS BOX MAY BE COLLECTED AS EARLY AS 12 NOON.", "nsi_id": "unitedstatespostalservice-a77078", "operator": "United States Postal Service", "operator:short": "USPS", "operator:type": "public", "operator:wikidata": "Q668687", "ref": "7487200003"}, "type": "Feature"}
{"dataset_attributes": {"@spider": "usps_collection_boxes", "spider:collection_time": "2024-02-07T08:23:59.531981"}, "geometry": {"coordinates": [-96.962103, 34.79561], "type": "Point"}, "id": "ZVNvfe212BhRgwFxY01gQqGj80U=", "properties": {"@spider": "usps_collection_boxes", "addr:city": "STRATFORD", "addr:country": "US", "addr:full": "116 E MAIN ST", "addr:postcode": "74872", "addr:state": "OK", "amenity": "post_box", "brand": "United States Postal Service", "brand:wikidata": "Q668687", "collection_times": "Mo-Fr 16:00; Sa 10:30", "name": "USPS COLLECTION BOX - PO LOBBY", "note": "ON 12/24 AND 12/31, THIS BOX MAY BE COLLECTED AS EARLY AS 12 NOON.", "nsi_id": "unitedstatespostalservice-a77078", "operator": "United States Postal Service", "operator:short": "USPS", "operator:type": "public", "operator:wikidata": "Q668687", "ref": "7487200004"}, "type": "Feature"}
{"dataset_attributes": {"@spider": "usps_collection_boxes", "spider:collection_time": "2024-02-07T08:23:59.531981"}, "geometry": {"coordinates": [-96.962133074, 34.795644617], "type": "Point"}, "id": "fvavAFfcXqw0-yuZeJXyajnhTB8=", "properties": {"@spider": "usps_collection_boxes", "addr:city": "STRATFORD", "addr:country": "US", "addr:full": "116 E MAIN ST", "addr:postcode": "74872", "addr:state": "OK", "amenity": "post_box", "brand": "United States Postal Service", "brand:wikidata": "Q668687", "collection_times": "Mo-Fr 16:00; Sa 10:30", "name": "USPS COLLECTION BOX - PO LOBBY", "note": "ON 12/24 AND 12/31, THIS BOX MAY BE COLLECTED AS EARLY AS 12 NOON.", "nsi_id": "unitedstatespostalservice-a77078", "operator": "United States Postal Service", "operator:short": "USPS", "operator:type": "public", "operator:wikidata": "Q668687", "ref": "7487200005"}, "type": "Feature"}
{"dataset_attributes": {"@spider": "usps_collection_boxes", "spider:collection_time": "2024-02-07T08:23:59.531981"}, "geometry": {"coordinates": [-96.937637011, 35.2584869812], "type": "Point"}, "id": "AjmVbiY2ACabTknIN1oPBmljgRE=", "properties": {"@spider": "usps_collection_boxes", "addr:city": "TECUMSEH", "addr:country": "US", "addr:full": "116 W PARK ST", "addr:postcode": "74873", "addr:state": "OK", "amenity": "post_box", "brand": "United States Postal Service", "brand:wikidata": "Q668687", "collection_times": "Mo-Fr 16:30; Sa 11:00", "name": "USPS COLLECTION BOX - BLUE BOX", "note": "ON 12/24 AND 12/31, THIS BOX MAY BE COLLECTED AS EARLY AS 12 NOON.", "nsi_id": "unitedstatespostalservice-a77078", "operator": "United States Postal Service", "operator:short": "USPS", "operator:type": "public", "operator:wikidata": "Q668687", "ref": "7487300003"}, "type": "Feature"}
{"dataset_attributes": {"@spider": "usps_collection_boxes", "spider:collection_time": "2024-02-07T08:23:59.531981"}, "geometry": {"coordinates": [-96.937637011, 35.2584869812], "type": "Point"}, "id": "XUqq9FSHQIdNKGQkpMGNNgS-OHw=", "properties": {"@spider": "usps_collection_boxes", "addr:city": "TECUMSEH", "addr:country": "US", "addr:full": "116 W PARK ST", "addr:postcode": "74873", "addr:state": "OK", "amenity": "post_box", "brand": "United States Postal Service", "brand:wikidata": "Q668687", "collection_times": "Mo-Fr 16:30; Sa 11:00", "name": "USPS COLLECTION BOX - PO LOBBY", "note": "ON 12/24 AND 12/31, THIS BOX MAY BE COLLECTED AS EARLY AS 12 NOON.", "nsi_id": "unitedstatespostalservice-a77078", "operator": "United States Postal Service", "operator:short": "USPS", "operator:type": "public", "operator:wikidata": "Q668687", "ref": "7487300010"}, "type": "Feature"}
{"dataset_attributes": {"@spider": "usps_collection_boxes", "spider:collection_time": "2024-02-07T08:23:59.531981"}, "geometry": {"coordinates": [-96.937637011, 35.2584869812], "type": "Point"}, "id": "FwlhYGpWKeKPONm3P4NUS_RrcrU=", "properties": {"@spider": "usps_collection_boxes", "addr:city": "TECUMSEH", "addr:country": "US", "addr:full": "116 W PARK ST", "addr:postcode": "74873", "addr:state": "OK", "amenity": "post_box", "brand": "United States Postal Service", "brand:wikidata": "Q668687", "collection_times": "Mo-Fr 16:30; Sa 11:00", "name": "USPS COLLECTION BOX - PO LOBBY", "note": "ON 12/24 AND 12/31, THIS BOX MAY BE COLLECTED AS EARLY AS 12 NOON.", "nsi_id": "unitedstatespostalservice-a77078", "operator": "United States Postal Service", "operator:short": "USPS", "operator:type": "public", "operator:wikidata": "Q668687", "ref": "7487300011"}, "type": "Feature"}
{"dataset_attributes": {"@spider": "usps_collection_boxes", "spider:collection_time": "2024-02-07T08:23:59.531981"}, "geometry": {"coordinates": [-96.937637011, 35.2584869812], "type": "Point"}, "id": "Ns4N1FATi7tMKeBeXz4k2qCwLGA=", "properties": {"@spider": "usps_collection_boxes", "addr:city": "TECUMSEH", "addr:country": "US", "addr:full": "116 W PARK ST", "addr:postcode": "74873", "addr:state": "OK", "amenity": "post_box", "brand": "United States Postal Service", "brand:wikidata": "Q668687", "collection_times": "Mo-Fr 16:30; Sa 11:00", "name": "USPS COLLECTION BOX - BLUE BOX", "note": "ON 12/24 AND 12/31, THIS BOX MAY BE COLLECTED AS EARLY AS 12 NOON.", "nsi_id": "unitedstatespostalservice-a77078", "operator": "United States Postal Service", "operator:short": "USPS", "operator:type": "public", "operator:wikidata": "Q668687", "ref": "7487300012"}, "type": "Feature"}
{"dataset_attributes": {"@spider": "usps_collection_boxes", "spider:collection_time": "2024-02-07T08:23:59.531981"}, "geometry": {"coordinates": [-96.937637011, 35.2584869812], "type": "Point"}, "id": "2Axil-vhJhkCvj0MSwUH9I3QKYw=", "properties": {"@spider": "usps_collection_boxes", "addr:city": "TECUMSEH", "addr:country": "US", "addr:full": "116 W PARK ST", "addr:postcode": "74873", "addr:state": "OK", "amenity": "post_box", "brand": "United States Postal Service", "brand:wikidata": "Q668687", "collection_times": "Mo-Fr 16:30; Sa 11:00", "name": "USPS COLLECTION BOX - PO LOBBY", "note": "ON 12/24 AND 12/31, THIS BOX MAY BE COLLECTED AS EARLY AS 12 NOON.", "nsi_id": "unitedstatespostalservice-a77078", "operator": "United States Postal Service", "operator:short": "USPS", "operator:type": "public", "operator:wikidata": "Q668687", "ref": "7487300013"}, "type": "Feature"}
{"dataset_attributes": {"@spider": "usps_collection_boxes", "spider:collection_time": "2024-02-07T08:23:59.531981"}, "geometry": {"coordinates": [-96.965124, 35.869553], "type": "Point"}, "id": "4GBsMnvrSB9YIfJxHJsZsbV-hjI=", "properties": {"@spider": "usps_collection_boxes", "addr:city": "TRYON", "addr:country": "US", "addr:full": "10 S OKLAHOMA ST", "addr:postcode": "74875", "addr:state": "OK", "amenity": "post_box", "brand": "United States Postal Service", "brand:wikidata": "Q668687", "collection_times": "Mo-Fr 13:15; Sa 10:00", "name": "USPS COLLECTION BOX - BLUE BOX", "note": "ON 12/24 AND 12/31, THIS BOX MAY BE COLLECTED AS EARLY AS 12 NOON.", "nsi_id": "unitedstatespostalservice-a77078", "operator": "United States Postal Service", "operator:short": "USPS", "operator:type": "public", "operator:wikidata": "Q668687", "ref": "7487500000"}, "type": "Feature"}
{"dataset_attributes": {"@spider": "usps_collection_boxes", "spider:collection_time": "2024-02-07T08:23:59.531981"}, "geometry": {"coordinates": [-96.965124, 35.869553], "type": "Point"}, "id": "tKCkbSbHe_-bkFXomJDElUG-vm4=", "properties": {"@spider": "usps_collection_boxes", "addr:city": "TRYON", "addr:country": "US", "addr:full": "10 S OKLAHOMA ST", "addr:postcode": "74875", "addr:state": "OK", "amenity": "post_box", "brand": "United States Postal Service", "brand:wikidata": "Q668687", "collection_times": "Mo-Fr 13:15; Sa 10:00", "name": "USPS COLLECTION BOX - PO LOBBY", "note": "ON 12/24 AND 12/31, THIS BOX MAY BE COLLECTED AS EARLY AS 12 NOON.", "nsi_id": "unitedstatespostalservice-a77078", "operator": "United States Postal Service", "operator:short": "USPS", "operator:type": "public", "operator:wikidata": "Q668687", "ref": "7487500001"}, "type": "Feature"}
{"dataset_attributes": {"@spider": "usps_collection_boxes", "spider:collection_time": "2024-02-07T08:23:59.531981"}, "geometry": {"coordinates": [-96.965124, 35.869553], "type": "Point"}, "id": "Ipqe1wop7ZHJD2KtBShe3-f9kjc=", "properties": {"@spider": "usps_collection_boxes", "addr:city": "TRYON", "addr:country": "US", "addr:full": "10 S OKLAHOMA ST", "addr:postcode": "74875", "addr:state": "OK", "amenity": "post_box", "brand": "United States Postal Service", "brand:wikidata": "Q668687", "collection_times": "Mo-Fr 13:15; Sa 10:00", "name": "USPS COLLECTION BOX - PO LOBBY", "note": "ON 12/24 AND 12/31, THIS BOX MAY BE COLLECTED AS EARLY AS 12 NOON.", "nsi_id": "unitedstatespostalservice-a77078", "operator": "United States Postal Service", "operator:short": "USPS", "operator:type": "public", "operator:wikidata": "Q668687", "ref": "7487500002"}, "type": "Feature"}
{"dataset_attributes": {"@spider": "usps_collection_boxes", "spider:collection_time": "2024-02-07T08:23:59.531981"}, "geometry": {"coordinates": [-96.965129075, 35.869575936], "type": "Point"}, "id": "5oaqY7le2Sv9Vvm59c_DkQrNDLE=", "properties": {"@spider": "usps_collection_boxes", "addr:city": "TRYON", "addr:country": "US", "addr:full": "10 S OKLAHOMA ST", "addr:postcode": "74875", "addr:state": "OK", "amenity": "post_box", "brand": "United States Postal Service", "brand:wikidata": "Q668687", "collection_times": "Mo-Fr 13:30; Sa 10:00", "name": "USPS COLLECTION BOX - PO LOBBY", "note": "ON 12/24 AND 12/31, THIS BOX MAY BE COLLECTED AS EARLY AS 12 NOON.", "nsi_id": "unitedstatespostalservice-a77078", "operator": "United States Postal Service", "operator:short": "USPS", "operator:type": "public", "operator:wikidata": "Q668687", "ref": "7487500003"}, "type": "Feature"}
{"dataset_attributes": {"@spider": "usps_collection_boxes", "spider:collection_time": "2024-02-07T08:23:59.531981"}, "geometry": {"coordinates": [-97.032402, 34.962218], "type": "Point"}, "id": "pgoPiWbU21bZ6TGmN_dLUGKUnKs=", "properties": {"@spider": "usps_collection_boxes", "addr:city": "WANETTE", "addr:country": "US", "addr:full": "112 E MAIN ST", "addr:postcode": "74878", "addr:state": "OK", "amenity": "post_box", "brand": "United States Postal Service", "brand:wikidata": "Q668687", "collection_times": "Mo-Fr 15:30; Sa 09:30", "name": "USPS COLLECTION BOX - PO LOBBY", "note": "ON 12/24 AND 12/31, THIS BOX MAY BE COLLECTED AS EARLY AS 12 NOON.", "nsi_id": "unitedstatespostalservice-a77078", "operator": "United States Postal Service", "operator:short": "USPS", "operator:type": "public", "operator:wikidata": "Q668687", "ref": "7487800001"}, "type": "Feature"}
{"dataset_attributes": {"@spider": "usps_collection_boxes", "spider:collection_time": "2024-02-07T08:23:59.531981"}, "geometry": {"coordinates": [-97.032402, 34.962218], "type": "Point"}, "id": "lYFvQfiS_Cv5OtDywst8_Hrxb00=", "properties": {"@spider": "usps_collection_boxes", "addr:city": "WANETTE", "addr:country": "US", "addr:full": "112 E MAIN ST", "addr:postcode": "74878", "addr:state": "OK", "amenity": "post_box", "brand": "United States Postal Service", "brand:wikidata": "Q668687", "collection_times": "Mo-Fr 15:30; Sa 09:30", "name": "USPS COLLECTION BOX - PO LOBBY", "note": "ON 12/24 AND 12/31, THIS BOX MAY BE COLLECTED AS EARLY AS 12 NOON.", "nsi_id": "unitedstatespostalservice-a77078", "operator": "United States Postal Service", "operator:short": "USPS", "operator:type": "public", "operator:wikidata": "Q668687", "ref": "7487800002"}, "type": "Feature"}
{"dataset_attributes": {"@spider": "usps_collection_boxes", "spider:collection_time": "2024-02-07T08:23:59.531981"}, "geometry": {"coordinates": [-97.032402, 34.962209453], "type": "Point"}, "id": "u_EeDowK84q-LiQ5gprqVpEbAp4=", "properties": {"@spider": "usps_collection_boxes", "addr:city": "WANETTE", "addr:country": "US", "addr:full": "112 E MAIN ST", "addr:postcode": "74878", "addr:state": "OK", "amenity": "post_box", "brand": "United States Postal Service", "brand:wikidata": "Q668687", "collection_times": "Mo-Fr 15:45; Sa 09:30", "name": "USPS COLLECTION BOX - PO LOBBY", "note": "ON 12/24 AND 12/31, THIS BOX MAY BE COLLECTED AS EARLY AS 12 NOON.", "nsi_id": "unitedstatespostalservice-a77078", "operator": "United States Postal Service", "operator:short": "USPS", "operator:type": "public", "operator:wikidata": "Q668687", "ref": "7487800003"}, "type": "Feature"}
{"dataset_attributes": {"@spider": "usps_collection_boxes", "spider:collection_time": "2024-02-07T08:23:59.531981"}, "geometry": {"coordinates": [-96.139512, 35.335589], "type": "Point"}, "id": "5A8kwXz_igbY2UnaIXPKR-Sc5hw=", "properties": {"@spider": "usps_collection_boxes", "addr:city": "WELEETKA", "addr:country": "US", "addr:full": "212 W 9TH ST", "addr:postcode": "74880", "addr:state": "OK", "amenity": "post_box", "brand": "United States Postal Service", "brand:wikidata": "Q668687", "collection_times": "Mo-Fr 16:00; Sa 09:45", "name": "USPS COLLECTION BOX - PO LOBBY", "note": "ON 12/24 AND 12/31, THIS BOX MAY BE COLLECTED AS EARLY AS 12 NOON.", "nsi_id": "unitedstatespostalservice-a77078", "operator": "United States Postal Service", "operator:short": "USPS", "operator:type": "public", "operator:wikidata": "Q668687", "ref": "7488000003"}, "type": "Feature"}
{"dataset_attributes": {"@spider": "usps_collection_boxes", "spider:collection_time": "2024-02-07T08:23:59.531981"}, "geometry": {"coordinates": [-96.139512, 35.335589], "type": "Point"}, "id": "zUTrg5jMV4QABJ7ZIW1jEzkiFqU=", "properties": {"@spider": "usps_collection_boxes", "addr:city": "WELEETKA", "addr:country": "US", "addr:full": "212 W 9TH ST", "addr:postcode": "74880", "addr:state": "OK", "amenity": "post_box", "brand": "United States Postal Service", "brand:wikidata": "Q668687", "collection_times": "Mo-Fr 16:00; Sa 09:45", "name": "USPS COLLECTION BOX - PO LOBBY", "note": "ON 12/24 AND 12/31, THIS BOX MAY BE COLLECTED AS EARLY AS 12 NOON.", "nsi_id": "unitedstatespostalservice-a77078", "operator": "United States Postal Service", "operator:short": "USPS", "operator:type": "public", "operator:wikidata": "Q668687", "ref": "7488000005"}, "type": "Feature"}
{"dataset_attributes": {"@spider": "usps_collection_boxes", "spider:collection_time": "2024-02-07T08:23:59.531981"}, "geometry": {"coordinates": [-96.139484007, 35.335627077], "type": "Point"}, "id": "SDntXb-4mWtGwfPJK8FLWIJQkiE=", "properties": {"@spider": "usps_collection_boxes", "addr:city": "WELEETKA", "addr:country": "US", "addr:full": "212 W 9TH ST", "addr:postcode": "74880", "addr:state": "OK", "amenity": "post_box", "brand": "United States Postal Service", "brand:wikidata": "Q668687", "collection_times": "Mo-Fr 16:00; Sa 10:00", "name": "USPS COLLECTION BOX - PO LOBBY", "note": "ON 12/24 AND 12/31, THIS BOX MAY BE COLLECTED AS EARLY AS 12 NOON.", "nsi_id": "unitedstatespostalservice-a77078", "operator": "United States Postal Service", "operator:short": "USPS", "operator:type": "public", "operator:wikidata": "Q668687", "ref": "7488000007"}, "type": "Feature"}
{"dataset_attributes": {"@spider": "usps_collection_boxes", "spider:collection_time": "2024-02-07T08:23:59.531981"}, "geometry": {"coordinates": [-97.065421, 35.694504], "type": "Point"}, "id": "qpmuxUqzGdjnvAMTiYo27HhcVD8=", "properties": {"@spider": "usps_collection_boxes", "addr:city": "WELLSTON", "addr:country": "US", "addr:full": "401 2ND ST", "addr:postcode": "74881", "addr:state": "OK", "amenity": "post_box", "brand": "United States Postal Service", "brand:wikidata": "Q668687", "collection_times": "Mo-Fr 16:00; Sa 10:00", "name": "USPS COLLECTION BOX - BLUE BOX", "note": "ON 12/24 AND 12/31, THIS BOX MAY BE COLLECTED AS EARLY AS 12 NOON.", "nsi_id": "unitedstatespostalservice-a77078", "operator": "United States Postal Service", "operator:short": "USPS", "operator:type": "public", "operator:wikidata": "Q668687", "ref": "7488100000"}, "type": "Feature"}
{"dataset_attributes": {"@spider": "usps_collection_boxes", "spider:collection_time": "2024-02-07T08:23:59.531981"}, "geometry": {"coordinates": [-97.065421, 35.694504], "type": "Point"}, "id": "nH4g4dgkGuwElSms7YsyE_Y3JEU=", "properties": {"@spider": "usps_collection_boxes", "addr:city": "WELLSTON", "addr:country": "US", "addr:full": "401 2ND ST", "addr:postcode": "74881", "addr:state": "OK", "amenity": "post_box", "brand": "United States Postal Service", "brand:wikidata": "Q668687", "collection_times": "Mo-Fr 16:00; Sa 10:00", "name": "USPS COLLECTION BOX - PO LOBBY", "note": "ON 12/24 AND 12/31, THIS BOX MAY BE COLLECTED AS EARLY AS 12 NOON.", "nsi_id": "unitedstatespostalservice-a77078", "operator": "United States Postal Service", "operator:short": "USPS", "operator:type": "public", "operator:wikidata": "Q668687", "ref": "7488100001"}, "type": "Feature"}
{"dataset_attributes": {"@spider": "usps_collection_boxes", "spider:collection_time": "2024-02-07T08:23:59.531981"}, "geometry": {"coordinates": [-97.065421, 35.694504], "type": "Point"}, "id": "wEtN1CauHBz2cy3fMNo03yEf_wo=", "properties": {"@spider": "usps_collection_boxes", "addr:city": "WELLSTON", "addr:country": "US", "addr:full": "401 2ND ST", "addr:postcode": "74881", "addr:state": "OK", "amenity": "post_box", "brand": "United States Postal Service", "brand:wikidata": "Q668687", "collection_times": "Mo-Fr 16:00; Sa 10:00", "name": "USPS COLLECTION BOX - PO LOBBY", "note": "ON 12/24 AND 12/31, THIS BOX MAY BE COLLECTED AS EARLY AS 12 NOON.", "nsi_id": "unitedstatespostalservice-a77078", "operator": "United States Postal Service", "operator:short": "USPS", "operator:type": "public", "operator:wikidata": "Q668687", "ref": "7488100002"}, "type": "Feature"}
{"dataset_attributes": {"@spider": "usps_collection_boxes", "spider:collection_time": "2024-02-07T08:23:59.531981"}, "geometry": {"coordinates": [-97.065413026, 35.694496521], "type": "Point"}, "id": "Yumi44fGpb9bl7lPJt5kA4Hi2XI=", "properties": {"@spider": "usps_collection_boxes", "addr:city": "WELLSTON", "addr:country": "US", "addr:full": "401 2ND ST", "addr:postcode": "74881", "addr:state": "OK", "amenity": "post_box", "brand": "United States Postal Service", "brand:wikidata": "Q668687", "collection_times": "Mo-Fr 16:00; Sa 10:00", "name": "USPS COLLECTION BOX - PO LOBBY", "note": "ON 12/24 AND 12/31, THIS BOX MAY BE COLLECTED AS EARLY AS 12 NOON.", "nsi_id": "unitedstatespostalservice-a77078", "operator": "United States Postal Service", "operator:short": "USPS", "operator:type": "public", "operator:wikidata": "Q668687", "ref": "7488100003"}, "type": "Feature"}
{"dataset_attributes": {"@spider": "usps_collection_boxes", "spider:collection_time": "2024-02-07T08:23:59.531981"}, "geometry": {"coordinates": [-96.241613, 35.237957], "type": "Point"}, "id": "GwfHIrNdC2T8xGkUo-a_c0sd9sM=", "properties": {"@spider": "usps_collection_boxes", "addr:city": "WETUMKA", "addr:country": "US", "addr:full": "119 N MAIN ST", "addr:postcode": "74883", "addr:state": "OK", "amenity": "post_box", "brand": "United States Postal Service", "brand:wikidata": "Q668687", "collection_times": "Mo-Fr 15:30; Sa 09:30", "name": "USPS COLLECTION BOX - BLUE BOX", "note": "ON 12/24 AND 12/31, THIS BOX MAY BE COLLECTED AS EARLY AS 12 NOON.", "nsi_id": "unitedstatespostalservice-a77078", "operator": "United States Postal Service", "operator:short": "USPS", "operator:type": "public", "operator:wikidata": "Q668687", "ref": "7488300000"}, "type": "Feature"}
{"dataset_attributes": {"@spider": "usps_collection_boxes", "spider:collection_time": "2024-02-07T08:23:59.531981"}, "geometry": {"coordinates": [-96.2415955751, 35.2379208307], "type": "Point"}, "id": "qY2xE3bQnVajIO5lz4adXl6YHT8=", "properties": {"@spider": "usps_collection_boxes", "addr:city": "WETUMKA", "addr:country": "US", "addr:full": "119 N MAIN ST", "addr:postcode": "74883", "addr:state": "OK", "amenity": "post_box", "brand": "United States Postal Service", "brand:wikidata": "Q668687", "collection_times": "Mo-Fr 15:30; Sa 09:30", "name": "USPS COLLECTION BOX - PO LOBBY", "note": "ON 12/24 AND 12/31, THIS BOX MAY BE COLLECTED AS EARLY AS 12 NOON.", "nsi_id": "unitedstatespostalservice-a77078", "operator": "United States Postal Service", "operator:short": "USPS", "operator:type": "public", "operator:wikidata": "Q668687", "ref": "7488300004"}, "type": "Feature"}
{"dataset_attributes": {"@spider": "usps_collection_boxes", "spider:collection_time": "2024-02-07T08:23:59.531981"}, "geometry": {"coordinates": [-96.241595575, 35.237920831], "type": "Point"}, "id": "q74EZ30vc4Qgm2jOF91ajqptJWo=", "properties": {"@spider": "usps_collection_boxes", "addr:city": "WETUMKA", "addr:country": "US", "addr:full": "119 N MAIN ST", "addr:postcode": "74883", "addr:state": "OK", "amenity": "post_box", "brand": "United States Postal Service", "brand:wikidata": "Q668687", "collection_times": "Mo-Fr 15:30; Sa 09:30", "name": "USPS COLLECTION BOX - PO LOBBY", "note": "ON 12/24 AND 12/31, THIS BOX MAY BE COLLECTED AS EARLY AS 12 NOON.", "nsi_id": "unitedstatespostalservice-a77078", "operator": "United States Postal Service", "operator:short": "USPS", "operator:type": "public", "operator:wikidata": "Q668687", "ref": "7488300005"}, "type": "Feature"}
{"dataset_attributes": {"@spider": "usps_collection_boxes", "spider:collection_time": "2024-02-07T08:23:59.531981"}, "geometry": {"coordinates": [-96.491821, 35.15773], "type": "Point"}, "id": "78zn_8QKOZadtoKx9i3ZEAe7s_c=", "properties": {"@spider": "usps_collection_boxes", "addr:city": "WEWOKA", "addr:country": "US", "addr:full": "115 W 2ND ST", "addr:postcode": "74884", "addr:state": "OK", "amenity": "post_box", "brand": "United States Postal Service", "brand:wikidata": "Q668687", "collection_times": "Mo-Fr 16:45; Sa 10:00", "name": "USPS COLLECTION BOX - BLUE BOX", "note": "ON 12/24 AND 12/31, THIS BOX MAY BE COLLECTED AS EARLY AS 12 NOON.", "nsi_id": "unitedstatespostalservice-a77078", "operator": "United States Postal Service", "operator:short": "USPS", "operator:type": "public", "operator:wikidata": "Q668687", "ref": "7488400001"}, "type": "Feature"}
{"dataset_attributes": {"@spider": "usps_collection_boxes", "spider:collection_time": "2024-02-07T08:23:59.531981"}, "geometry": {"coordinates": [-96.491821, 35.15773], "type": "Point"}, "id": "7D1kAdCUt21oxsRztJpEEjXgkGM=", "properties": {"@spider": "usps_collection_boxes", "addr:city": "WEWOKA", "addr:country": "US", "addr:full": "115 W 2ND ST", "addr:postcode": "74884", "addr:state": "OK", "amenity": "post_box", "brand": "United States Postal Service", "brand:wikidata": "Q668687", "collection_times": "Mo-Fr 16:45; Sa 10:00", "name": "USPS COLLECTION BOX - BLUE BOX", "note": "ON 12/24 AND 12/31, THIS BOX MAY BE COLLECTED AS EARLY AS 12 NOON.", "nsi_id": "unitedstatespostalservice-a77078", "operator": "United States Postal Service", "operator:short": "USPS", "operator:type": "public", "operator:wikidata": "Q668687", "ref": "7488400002"}, "type": "Feature"}
{"dataset_attributes": {"@spider": "usps_collection_boxes", "spider:collection_time": "2024-02-07T08:23:59.531981"}, "geometry": {"coordinates": [-96.491821, 35.15773], "type": "Point"}, "id": "rWZ1sELxa85lPV3_-jh4dWjMxbE=", "properties": {"@spider": "usps_collection_boxes", "addr:city": "WEWOKA", "addr:country": "US", "addr:full": "115 W 2ND ST", "addr:postcode": "74884", "addr:state": "OK", "amenity": "post_box", "brand": "United States Postal Service", "brand:wikidata": "Q668687", "collection_times": "Mo-Fr 16:45; Sa 10:00", "name": "USPS COLLECTION BOX - PO LOBBY", "note": "ON 12/24 AND 12/31, THIS BOX MAY BE COLLECTED AS EARLY AS 12 NOON.", "nsi_id": "unitedstatespostalservice-a77078", "operator": "United States Postal Service", "operator:short": "USPS", "operator:type": "public", "operator:wikidata": "Q668687", "ref": "7488400004"}, "type": "Feature"}
{"dataset_attributes": {"@spider": "usps_collection_boxes", "spider:collection_time": "2024-02-07T08:23:59.531981"}, "geometry": {"coordinates": [-96.491798803, 35.157768924], "type": "Point"}, "id": "GHFAr3Fw5OUkkx-0r-yOUn_pbfQ=", "properties": {"@spider": "usps_collection_boxes", "addr:city": "WEWOKA", "addr:country": "US", "addr:full": "115 W 2ND ST", "addr:postcode": "74884", "addr:state": "OK", "amenity": "post_box", "brand": "United States Postal Service", "brand:wikidata": "Q668687", "collection_times": "Mo-Fr 16:30; Sa 10:00", "name": "USPS COLLECTION BOX - PO LOBBY", "note": "ON 12/24 AND 12/31, THIS BOX MAY BE COLLECTED AS EARLY AS 12 NOON.", "nsi_id": "unitedstatespostalservice-a77078", "operator": "United States Postal Service", "operator:short": "USPS", "operator:type": "public", "operator:wikidata": "Q668687", "ref": "7488400005"}, "type": "Feature"}
