{"geometry": {"coordinates": [-94.435086, 35.353242], "type": "Point"}, "id": "tUhLSFnGqnlQmfGJ6oBS5r95VvQ=", "properties": {"@spider": "usps_collection_boxes", "addr:city": "ARKOMA", "addr:country": "US", "addr:full": "308 SICARD AVE", "addr:postcode": "74901", "addr:state": "OK", "brand": "USPS", "collection_times": "Mo-Fr 16:00; Sa 10:00", "name": "USPS COLLECTION BOX - BLUE BOX", "note": "ON 12/24 AND 12/31, THIS BOX MAY BE COLLECTED AS EARLY AS 12 NOON.", "ref": "7490100000"}, "type": "Feature"}
{"geometry": {"coordinates": [-94.434992, 35.353218], "type": "Point"}, "id": "A4gmNBzSMyZne7uHm8AeuCT8-7s=", "properties": {"@spider": "usps_collection_boxes", "addr:city": "ARKOMA", "addr:country": "US", "addr:full": "308 SICARD AVE", "addr:postcode": "74901", "addr:state": "OK", "brand": "USPS", "collection_times": "Mo-Fr 16:30; Sa 10:00", "name": "USPS COLLECTION BOX - PO LOBBY", "note": "ON 12/24 AND 12/31, THIS BOX MAY BE COLLECTED AS EARLY AS 12 NOON.", "ref": "7490100001"}, "type": "Feature"}
{"geometry": {"coordinates": [-94.434992, 35.353218], "type": "Point"}, "id": "FG1frZGny1oIxYN6bywLH6q1Jmk=", "properties": {"@spider": "usps_collection_boxes", "addr:city": "ARKOMA", "addr:country": "US", "addr:full": "308 SICARD AVE", "addr:postcode": "74901", "addr:state": "OK", "brand": "USPS", "collection_times": "Mo-Fr 16:30; Sa 10:00", "name": "USPS COLLECTION BOX - PO LOBBY", "note": "ON 12/24 AND 12/31, THIS BOX MAY BE COLLECTED AS EARLY AS 12 NOON.", "ref": "7490100002"}, "type": "Feature"}
{"geometry": {"coordinates": [-94.435084083, 35.353292878], "type": "Point"}, "id": "ltIcv9g8pKoIfti9bQ9WOOR-VA4=", "properties": {"@spider": "usps_collection_boxes", "addr:city": "ARKOMA", "addr:country": "US", "addr:full": "308 SICARD AVE", "addr:postcode": "74901", "addr:state": "OK", "brand": "USPS", "collection_times": "Mo-Fr 16:30", "name": "USPS COLLECTION BOX - PO LOBBY", "note": "ON 12/24 AND 12/31, THIS BOX MAY BE COLLECTED AS EARLY AS 12 NOON.", "ref": "7490100003"}, "type": "Feature"}
{"geometry": {"coordinates": [-94.477937, 35.25564], "type": "Point"}, "id": "QmUDkwSQyAhtieeGZyv2hyQW3xw=", "properties": {"@spider": "usps_collection_boxes", "addr:city": "POCOLA", "addr:country": "US", "addr:full": "101 E VICTOR LN", "addr:postcode": "74902", "addr:state": "OK", "brand": "USPS", "collection_times": "Mo-Fr 16:15; Sa 10:00", "name": "USPS COLLECTION BOX - BLUE BOX", "note": "ON 12/24 AND 12/31, THIS BOX MAY BE COLLECTED AS EARLY AS 12 NOON.", "ref": "7490200000"}, "type": "Feature"}
{"geometry": {"coordinates": [-94.477937, 35.25564], "type": "Point"}, "id": "i_zi5VssUabtWBFFnkHI7HkywRw=", "properties": {"@spider": "usps_collection_boxes", "addr:city": "POCOLA", "addr:country": "US", "addr:full": "101 E VICTOR LN", "addr:postcode": "74902", "addr:state": "OK", "brand": "USPS", "collection_times": "Mo-Fr 16:30; Sa 10:00", "name": "USPS COLLECTION BOX - PO LOBBY", "note": "ON 12/24 AND 12/31, THIS BOX MAY BE COLLECTED AS EARLY AS 12 NOON.", "ref": "7490200002"}, "type": "Feature"}
{"geometry": {"coordinates": [-94.477937, 35.25564], "type": "Point"}, "id": "fl_sEIdszgAS7XQdDIk6rMHBA1s=", "properties": {"@spider": "usps_collection_boxes", "addr:city": "POCOLA", "addr:country": "US", "addr:full": "101 E VICTOR LN", "addr:postcode": "74902", "addr:state": "OK", "brand": "USPS", "collection_times": "Mo-Fr 16:30; Sa 10:00", "name": "USPS COLLECTION BOX - PO LOBBY", "note": "ON 12/24 AND 12/31, THIS BOX MAY BE COLLECTED AS EARLY AS 12 NOON.", "ref": "7490200003"}, "type": "Feature"}
{"geometry": {"coordinates": [-94.477937, 35.25564], "type": "Point"}, "id": "iTdgVPKGk8i9__NrppqOaeUlL-g=", "properties": {"@spider": "usps_collection_boxes", "addr:city": "POCOLA", "addr:country": "US", "addr:full": "101 E VICTOR LN", "addr:postcode": "74902", "addr:state": "OK", "brand": "USPS", "collection_times": "Mo-Fr 16:30; Sa 10:00", "name": "USPS COLLECTION BOX - PO LOBBY", "note": "ON 12/24 AND 12/31, THIS BOX MAY BE COLLECTED AS EARLY AS 12 NOON.", "ref": "7490200004"}, "type": "Feature"}
{"geometry": {"coordinates": [-94.477981004, 35.255672938], "type": "Point"}, "id": "T7ougCKeAzjsbMJkRnYosa9tOoY=", "properties": {"@spider": "usps_collection_boxes", "addr:city": "POCOLA", "addr:country": "US", "addr:full": "101 E VICTOR LN", "addr:postcode": "74902", "addr:state": "OK", "brand": "USPS", "collection_times": "Mo-Fr 16:30", "name": "USPS COLLECTION BOX - PO LOBBY", "note": "ON 12/24 AND 12/31, THIS BOX MAY BE COLLECTED AS EARLY AS 12 NOON.", "ref": "7490200005"}, "type": "Feature"}
{"geometry": {"coordinates": [-94.7864655, 35.186542], "type": "Point"}, "id": "0Q_sukHUj3IC_LE_-0-E14c70Ek=", "properties": {"@spider": "usps_collection_boxes", "addr:city": "BOKOSHE", "addr:country": "US", "addr:full": "100 HIGHWAY 31", "addr:postcode": "74930", "addr:state": "OK", "brand": "USPS", "collection_times": "Mo-Fr 14:45; Sa 10:15", "name": "USPS COLLECTION BOX - BLUE BOX", "note": "ON 12/24 AND 12/31, THIS BOX MAY BE COLLECTED AS EARLY AS 12 NOON.", "ref": "7493000000"}, "type": "Feature"}
{"geometry": {"coordinates": [-94.77029, 35.188711], "type": "Point"}, "id": "EwaFSBPY9NithwaixsYiezXKoyI=", "properties": {"@spider": "usps_collection_boxes", "addr:city": "BOKOSHE", "addr:country": "US", "addr:full": "100 HIGHWAY 31", "addr:postcode": "74930", "addr:state": "OK", "brand": "USPS", "collection_times": "Mo-Fr 14:45; Sa 10:15", "name": "USPS COLLECTION BOX - PO LOBBY", "note": "ON 12/24 AND 12/31, THIS BOX MAY BE COLLECTED AS EARLY AS 12 NOON.", "ref": "7493000001"}, "type": "Feature"}
{"geometry": {"coordinates": [-94.77021107, 35.188704], "type": "Point"}, "id": "A9jystxbh6q93Jvz0A1xfEtO5Ec=", "properties": {"@spider": "usps_collection_boxes", "addr:city": "BOKOSHE", "addr:country": "US", "addr:full": "100 HIGHWAY 31", "addr:postcode": "74930", "addr:state": "OK", "brand": "USPS", "collection_times": "Mo-Fr 14:45; Sa 10:30", "name": "USPS COLLECTION BOX - PO LOBBY", "note": "ON 12/24 AND 12/31, THIS BOX MAY BE COLLECTED AS EARLY AS 12 NOON.", "ref": "7493000004"}, "type": "Feature"}
{"geometry": {"coordinates": [-94.7424122602, 35.7180854937], "type": "Point"}, "id": "ocRbZeFl6HwHdhIYvF-tTJ1KSj0=", "properties": {"@spider": "usps_collection_boxes", "addr:city": "BUNCH", "addr:country": "US", "addr:full": "3 E MAIN ST", "addr:postcode": "74931", "addr:state": "OK", "brand": "USPS", "collection_times": "Mo-Fr 13:00; Sa 10:45", "name": "USPS COLLECTION BOX - BLUE BOX", "note": "ON 12/24 AND 12/31, THIS BOX MAY BE COLLECTED AS EARLY AS 12 NOON.", "ref": "7493100000"}, "type": "Feature"}
{"geometry": {"coordinates": [-94.7424122602, 35.7180854937], "type": "Point"}, "id": "upD-DNAIj73A98KCYhS4mrMwUJM=", "properties": {"@spider": "usps_collection_boxes", "addr:city": "BUNCH", "addr:country": "US", "addr:full": "3 E MAIN ST", "addr:postcode": "74931", "addr:state": "OK", "brand": "USPS", "collection_times": "Mo-Fr 13:00; Sa 10:45", "name": "USPS COLLECTION BOX - PO LOBBY", "note": "ON 12/24 AND 12/31, THIS BOX MAY BE COLLECTED AS EARLY AS 12 NOON.", "ref": "7493100001"}, "type": "Feature"}
{"geometry": {"coordinates": [-94.7424122602, 35.7180854937], "type": "Point"}, "id": "U5bZbWIIyc8nOF2i0Vn2sXNHYTQ=", "properties": {"@spider": "usps_collection_boxes", "addr:city": "BUNCH", "addr:country": "US", "addr:full": "3 E MAIN ST", "addr:postcode": "74931", "addr:state": "OK", "brand": "USPS", "collection_times": "Mo-Fr 13:00; Sa 10:45", "name": "USPS COLLECTION BOX - PO LOBBY", "note": "ON 12/24 AND 12/31, THIS BOX MAY BE COLLECTED AS EARLY AS 12 NOON.", "ref": "7493100002"}, "type": "Feature"}
{"geometry": {"coordinates": [-94.8408803, 35.7292531], "type": "Point"}, "id": "vIypIf4oAtW5MbmIgFWxQA0PmVk=", "properties": {"@spider": "usps_collection_boxes", "addr:city": "BUNCH", "addr:country": "US", "addr:full": "3 E MAIN ST", "addr:postcode": "74931", "addr:state": "OK", "brand": "USPS", "collection_times": "Mo-Fr 13:00", "name": "USPS COLLECTION BOX - PO LOBBY", "note": "ON 12/24 AND 12/31, THIS BOX MAY BE COLLECTED AS EARLY AS 12 NOON.", "ref": "7493100003"}, "type": "Feature"}
{"geometry": {"coordinates": [-94.5373, 35.135032], "type": "Point"}, "id": "bnxJUFwqU6EpxEqADjpwrYboLA4=", "properties": {"@spider": "usps_collection_boxes", "addr:city": "CAMERON", "addr:country": "US", "addr:full": "15818 CHURCH ST", "addr:postcode": "74932", "addr:state": "OK", "brand": "USPS", "collection_times": "Mo-Fr 13:45; Sa 10:00", "name": "USPS COLLECTION BOX - BLUE BOX", "note": "ON 12/24 AND 12/31, THIS BOX MAY BE COLLECTED AS EARLY AS 12 NOON.", "ref": "7493200000"}, "type": "Feature"}
{"geometry": {"coordinates": [-94.5373, 35.135032], "type": "Point"}, "id": "mb2jlExRdGHDBDWl2522BvLj10E=", "properties": {"@spider": "usps_collection_boxes", "addr:city": "CAMERON", "addr:country": "US", "addr:full": "15818 CHURCH ST", "addr:postcode": "74932", "addr:state": "OK", "brand": "USPS", "collection_times": "Mo-Fr 13:45; Sa 10:00", "name": "USPS COLLECTION BOX - PO LOBBY", "note": "ON 12/24 AND 12/31, THIS BOX MAY BE COLLECTED AS EARLY AS 12 NOON.", "ref": "7493200001"}, "type": "Feature"}
{"geometry": {"coordinates": [-94.5373, 35.135032], "type": "Point"}, "id": "dZAw2IAq3ANWoteFDPwGvzSExLM=", "properties": {"@spider": "usps_collection_boxes", "addr:city": "CAMERON", "addr:country": "US", "addr:full": "15818 CHURCH ST", "addr:postcode": "74932", "addr:state": "OK", "brand": "USPS", "collection_times": "Mo-Fr 13:45; Sa 10:00", "name": "USPS COLLECTION BOX - PO LOBBY", "note": "ON 12/24 AND 12/31, THIS BOX MAY BE COLLECTED AS EARLY AS 12 NOON.", "ref": "7493200002"}, "type": "Feature"}
{"geometry": {"coordinates": [-94.5373831507, 35.1350600389], "type": "Point"}, "id": "UXxM8pm2yC3gywtIGKvtVrb6jx4=", "properties": {"@spider": "usps_collection_boxes", "addr:city": "CAMERON", "addr:country": "US", "addr:full": "15818 CHURCH ST", "addr:postcode": "74932", "addr:state": "OK", "brand": "USPS", "collection_times": "Mo-Fr 14:00; Sa 10:00", "name": "USPS COLLECTION BOX - PO LOBBY", "note": "ON 12/24 AND 12/31, THIS BOX MAY BE COLLECTED AS EARLY AS 12 NOON.", "ref": "7493200003"}, "type": "Feature"}
{"geometry": {"coordinates": [-94.909428, 34.951096], "type": "Point"}, "id": "9JTxo9uHh-laMou5FS68EwSJqcw=", "properties": {"@spider": "usps_collection_boxes", "addr:city": "FANSHAWE", "addr:country": "US", "addr:full": "36968 US HIGHWAY 270", "addr:postcode": "74935", "addr:state": "OK", "brand": "USPS", "collection_times": "Mo-Sa 10:00", "name": "USPS COLLECTION BOX - PO LOBBY", "ref": "7493500000"}, "type": "Feature"}
{"geometry": {"coordinates": [-94.91006661, 34.95108619], "type": "Point"}, "id": "VP0FiCtMbcYEKpX2iZfH29cv99M=", "properties": {"@spider": "usps_collection_boxes", "addr:city": "FANSHAWE", "addr:country": "US", "addr:full": "36968 US HIGHWAY 270", "addr:postcode": "74935", "addr:state": "OK", "brand": "USPS", "collection_times": "Mo-Sa 10:00", "name": "USPS COLLECTION BOX - PO LOBBY", "ref": "7493500001"}, "type": "Feature"}
{"geometry": {"coordinates": [-94.692372, 35.388932], "type": "Point"}, "id": "gRC8B0GU30nXiOCbEu3IEcZ1-mM=", "properties": {"@spider": "usps_collection_boxes", "addr:city": "GANS", "addr:country": "US", "addr:full": "100 S STACY AVE", "addr:postcode": "74936", "addr:state": "OK", "brand": "USPS", "collection_times": "Mo-Fr 12:00; Sa 10:00", "name": "USPS COLLECTION BOX - BLUE BOX", "ref": "7493600000"}, "type": "Feature"}
{"geometry": {"coordinates": [-94.692372, 35.388932], "type": "Point"}, "id": "ZMvkyP_YLrL2lCxMzN_s8KTurBk=", "properties": {"@spider": "usps_collection_boxes", "addr:city": "GANS", "addr:country": "US", "addr:full": "100 S STACY AVE", "addr:postcode": "74936", "addr:state": "OK", "brand": "USPS", "collection_times": "Mo-Fr 12:00; Sa 10:00", "name": "USPS COLLECTION BOX - PO LOBBY", "ref": "7493600001"}, "type": "Feature"}
{"geometry": {"coordinates": [-94.692372, 35.388932], "type": "Point"}, "id": "3NPI3EKfbj3T5jZtw8PcvrNsx3Y=", "properties": {"@spider": "usps_collection_boxes", "addr:city": "GANS", "addr:country": "US", "addr:full": "100 S STACY AVE", "addr:postcode": "74936", "addr:state": "OK", "brand": "USPS", "collection_times": "Mo-Fr 12:00; Sa 10:00", "name": "USPS COLLECTION BOX - PO LOBBY", "ref": "7493600002"}, "type": "Feature"}
{"geometry": {"coordinates": [-94.692330943, 35.388899963], "type": "Point"}, "id": "k4doiX-ihh-Vj4E19kQk3piasBc=", "properties": {"@spider": "usps_collection_boxes", "addr:city": "GANS", "addr:country": "US", "addr:full": "100 S STACY AVE", "addr:postcode": "74936", "addr:state": "OK", "brand": "USPS", "collection_times": "Mo-Fr 12:00; Sa 10:00", "name": "USPS COLLECTION BOX - PO LOBBY", "ref": "7493600003"}, "type": "Feature"}
{"geometry": {"coordinates": [-94.601949, 34.890303], "type": "Point"}, "id": "D1k0Anx-PWtYDKAmRFJpWcUxInc=", "properties": {"@spider": "usps_collection_boxes", "addr:city": "HEAVENER", "addr:country": "US", "addr:full": "301 MAIN ST", "addr:postcode": "74937", "addr:state": "OK", "brand": "USPS", "collection_times": "Mo-Fr 16:00; Sa 11:00", "name": "USPS COLLECTION BOX - BLUE BOX", "note": "ON 12/24 AND 12/31, THIS BOX MAY BE COLLECTED AS EARLY AS 12 NOON.", "ref": "7493700006"}, "type": "Feature"}
{"geometry": {"coordinates": [-94.601949, 34.890303], "type": "Point"}, "id": "mV2W9mawQruY0WBvZdiqcVV9nhc=", "properties": {"@spider": "usps_collection_boxes", "addr:city": "HEAVENER", "addr:country": "US", "addr:full": "301 MAIN ST", "addr:postcode": "74937", "addr:state": "OK", "brand": "USPS", "collection_times": "Mo-Fr 16:00; Sa 11:00", "name": "USPS COLLECTION BOX - PO LOBBY", "note": "ON 12/24 AND 12/31, THIS BOX MAY BE COLLECTED AS EARLY AS 12 NOON.", "ref": "7493700008"}, "type": "Feature"}
{"geometry": {"coordinates": [-94.601949, 34.890303], "type": "Point"}, "id": "eaK-M-kiDLKgsbvPEG7hIBHT_A8=", "properties": {"@spider": "usps_collection_boxes", "addr:city": "HEAVENER", "addr:country": "US", "addr:full": "301 MAIN ST", "addr:postcode": "74937", "addr:state": "OK", "brand": "USPS", "collection_times": "Mo-Fr 16:00; Sa 11:00", "name": "USPS COLLECTION BOX - PO LOBBY", "note": "ON 12/24 AND 12/31, THIS BOX MAY BE COLLECTED AS EARLY AS 12 NOON.", "ref": "7493700009"}, "type": "Feature"}
{"geometry": {"coordinates": [-94.601949802, 34.890296354], "type": "Point"}, "id": "jBjeXsdlqty_IXOyG-jUSxbyqwU=", "properties": {"@spider": "usps_collection_boxes", "addr:city": "HEAVENER", "addr:country": "US", "addr:full": "301 MAIN ST", "addr:postcode": "74937", "addr:state": "OK", "brand": "USPS", "collection_times": "Mo-Fr 16:00; Sa 11:00", "name": "USPS COLLECTION BOX - PO LOBBY", "note": "ON 12/24 AND 12/31, THIS BOX MAY BE COLLECTED AS EARLY AS 12 NOON.", "ref": "7493700010"}, "type": "Feature"}
{"geometry": {"coordinates": [-94.63297, 34.839979], "type": "Point"}, "id": "0Q4kW_OvNPmH_Sq3QuEgxGxvB1E=", "properties": {"@spider": "usps_collection_boxes", "addr:city": "HODGEN", "addr:country": "US", "addr:full": "47061 US HIGHWAY 59", "addr:postcode": "74939", "addr:state": "OK", "brand": "USPS", "collection_times": "Mo-Fr 11:00; Sa 10:00", "name": "USPS COLLECTION BOX - PO LOBBY", "ref": "7493900001"}, "type": "Feature"}
{"geometry": {"coordinates": [-94.632993774, 34.839968926], "type": "Point"}, "id": "Atqoh86D5etjb-vdiLKC6pBiq2g=", "properties": {"@spider": "usps_collection_boxes", "addr:city": "HODGEN", "addr:country": "US", "addr:full": "47061 US HIGHWAY 59", "addr:postcode": "74939", "addr:state": "OK", "brand": "USPS", "collection_times": "Mo-Fr 11:00; Sa 10:00", "name": "USPS COLLECTION BOX - PO LOBBY", "ref": "7493900002"}, "type": "Feature"}
{"geometry": {"coordinates": [-94.638491, 34.950355], "type": "Point"}, "id": "9qfTfNl0-_k0mhIWTwv8UbhXe1E=", "properties": {"@spider": "usps_collection_boxes", "addr:city": "HOWE", "addr:country": "US", "addr:full": "21525 W MAIN ST", "addr:postcode": "74940", "addr:state": "OK", "brand": "USPS", "collection_times": "Mo-Fr 15:30; Sa 12:00", "name": "USPS COLLECTION BOX - PO LOBBY", "note": "ON 12/24 AND 12/31, THIS BOX MAY BE COLLECTED AS EARLY AS 12 NOON.", "ref": "7494000002"}, "type": "Feature"}
{"geometry": {"coordinates": [-94.638507519, 34.950303388], "type": "Point"}, "id": "qHz0SG2zfNPU6556zx8YVEp7J-4=", "properties": {"@spider": "usps_collection_boxes", "addr:city": "HOWE", "addr:country": "US", "addr:full": "21525 W MAIN ST", "addr:postcode": "74940", "addr:state": "OK", "brand": "USPS", "collection_times": "Mo-Fr 15:30; Sa 11:45", "name": "USPS COLLECTION BOX - PO LOBBY", "note": "ON 12/24 AND 12/31, THIS BOX MAY BE COLLECTED AS EARLY AS 12 NOON.", "ref": "7494000003"}, "type": "Feature"}
{"geometry": {"coordinates": [-94.919447, 35.257081], "type": "Point"}, "id": "e924Fva4yQgK-S0qQt0uUXsBIAs=", "properties": {"@spider": "usps_collection_boxes", "addr:city": "KEOTA", "addr:country": "US", "addr:full": "307 SW MAIN ST", "addr:postcode": "74941", "addr:state": "OK", "brand": "USPS", "collection_times": "Mo-Fr 15:45; Sa 10:00", "name": "USPS COLLECTION BOX - BLUE BOX", "note": "ON 12/24 AND 12/31, THIS BOX MAY BE COLLECTED AS EARLY AS 12 NOON.", "ref": "7494100000"}, "type": "Feature"}
{"geometry": {"coordinates": [-94.919447, 35.257081], "type": "Point"}, "id": "jmuqrJ0Cql16wBc0Jti81VuXukU=", "properties": {"@spider": "usps_collection_boxes", "addr:city": "KEOTA", "addr:country": "US", "addr:full": "307 SW MAIN ST", "addr:postcode": "74941", "addr:state": "OK", "brand": "USPS", "collection_times": "Mo-Fr 15:45; Sa 10:00", "name": "USPS COLLECTION BOX - PO LOBBY", "note": "ON 12/24 AND 12/31, THIS BOX MAY BE COLLECTED AS EARLY AS 12 NOON.", "ref": "7494100001"}, "type": "Feature"}
{"geometry": {"coordinates": [-94.919447, 35.257081], "type": "Point"}, "id": "N7uCca0MHiT4itg5s9RY94U4oCs=", "properties": {"@spider": "usps_collection_boxes", "addr:city": "KEOTA", "addr:country": "US", "addr:full": "307 SW MAIN ST", "addr:postcode": "74941", "addr:state": "OK", "brand": "USPS", "collection_times": "Mo-Fr 15:45; Sa 10:00", "name": "USPS COLLECTION BOX - PO LOBBY", "note": "ON 12/24 AND 12/31, THIS BOX MAY BE COLLECTED AS EARLY AS 12 NOON.", "ref": "7494100002"}, "type": "Feature"}
{"geometry": {"coordinates": [-94.924303475, 35.253855527], "type": "Point"}, "id": "9ykb_uXjjBCMM2favi_XNaHaHrU=", "properties": {"@spider": "usps_collection_boxes", "addr:city": "KEOTA", "addr:country": "US", "addr:full": "307 SW MAIN ST", "addr:postcode": "74941", "addr:state": "OK", "brand": "USPS", "collection_times": "Mo-Fr 16:00; Sa 10:00", "name": "USPS COLLECTION BOX - PO LOBBY", "note": "ON 12/24 AND 12/31, THIS BOX MAY BE COLLECTED AS EARLY AS 12 NOON.", "ref": "7494100003"}, "type": "Feature"}
{"geometry": {"coordinates": [-94.982051, 34.897447], "type": "Point"}, "id": "juCMwT-qEta8o55KzM9WA8b6Fyw=", "properties": {"@spider": "usps_collection_boxes", "addr:city": "LEFLORE", "addr:country": "US", "addr:full": "41165 E STATE ST", "addr:postcode": "74942", "addr:state": "OK", "brand": "USPS", "collection_times": "Mo-Fr 13:00; Sa 09:30", "name": "USPS COLLECTION BOX - BLUE BOX", "note": "ON 12/24 AND 12/31, THIS BOX MAY BE COLLECTED AS EARLY AS 12 NOON.", "ref": "7494200000"}, "type": "Feature"}
{"geometry": {"coordinates": [-94.982051, 34.897447], "type": "Point"}, "id": "I107eH_NDzcQuhxDBoBTKZriC-Q=", "properties": {"@spider": "usps_collection_boxes", "addr:city": "LEFLORE", "addr:country": "US", "addr:full": "41165 E STATE ST", "addr:postcode": "74942", "addr:state": "OK", "brand": "USPS", "collection_times": "Mo-Fr 13:00; Sa 09:30", "name": "USPS COLLECTION BOX - PO LOBBY", "note": "ON 12/24 AND 12/31, THIS BOX MAY BE COLLECTED AS EARLY AS 12 NOON.", "ref": "7494200001"}, "type": "Feature"}
{"geometry": {"coordinates": [-94.982903913, 34.8974356949], "type": "Point"}, "id": "8yF0JXiAlf1ygTgKzgnyu-baQSk=", "properties": {"@spider": "usps_collection_boxes", "addr:city": "LEFLORE", "addr:country": "US", "addr:full": "41165 E STATE ST", "addr:postcode": "74942", "addr:state": "OK", "brand": "USPS", "collection_times": "Mo-Fr 13:00; Sa 09:30", "name": "USPS COLLECTION BOX - PO LOBBY", "note": "ON 12/24 AND 12/31, THIS BOX MAY BE COLLECTED AS EARLY AS 12 NOON.", "ref": "7494200002"}, "type": "Feature"}
{"geometry": {"coordinates": [-95.1073891974, 35.1046445151], "type": "Point"}, "id": "EaTT4biKqm2x-sSdkDxaOaEoGM0=", "properties": {"@spider": "usps_collection_boxes", "addr:city": "LEQUIRE", "addr:country": "US", "addr:full": "104 W FRONT ST", "addr:postcode": "74943", "addr:state": "OK", "brand": "USPS", "collection_times": "Mo-Fr 15:45; Sa 09:30", "name": "USPS COLLECTION BOX - BLUE BOX", "note": "ON 12/24 AND 12/31, THIS BOX MAY BE COLLECTED AS EARLY AS 12 NOON.", "ref": "7494300000"}, "type": "Feature"}
{"geometry": {"coordinates": [-95.1073891974, 35.1046445151], "type": "Point"}, "id": "_ervgNF_3xwTAWh7jizj7XI3xnE=", "properties": {"@spider": "usps_collection_boxes", "addr:city": "LEQUIRE", "addr:country": "US", "addr:full": "104 W FRONT ST", "addr:postcode": "74943", "addr:state": "OK", "brand": "USPS", "collection_times": "Mo-Fr 15:45; Sa 09:30", "name": "USPS COLLECTION BOX - PO LOBBY", "note": "ON 12/24 AND 12/31, THIS BOX MAY BE COLLECTED AS EARLY AS 12 NOON.", "ref": "7494300001"}, "type": "Feature"}
{"geometry": {"coordinates": [-95.10438, 35.1048], "type": "Point"}, "id": "qftqMGjPTQ6SYXVMckRiW2kowb0=", "properties": {"@spider": "usps_collection_boxes", "addr:city": "LEQUIRE", "addr:country": "US", "addr:full": "104 W FRONT ST", "addr:postcode": "74943", "addr:state": "OK", "brand": "USPS", "collection_times": "Mo-Fr 16:00; Sa 09:30", "name": "USPS COLLECTION BOX - PO LOBBY", "note": "ON 12/24 AND 12/31, THIS BOX MAY BE COLLECTED AS EARLY AS 12 NOON.", "ref": "7494300003"}, "type": "Feature"}
{"geometry": {"coordinates": [-95.106424, 35.103352], "type": "Point"}, "id": "5yIpoG36bcbohm5V-li14wqFIW4=", "properties": {"@spider": "usps_collection_boxes", "addr:city": "MCCURTAIN", "addr:country": "US", "addr:full": "215 MAIN ST", "addr:postcode": "74944", "addr:state": "OK", "brand": "USPS", "collection_times": "Mo-Fr 15:00; Sa 10:00", "name": "USPS COLLECTION BOX - PO LOBBY", "note": "ON 12/24 AND 12/31, THIS BOX MAY BE COLLECTED AS EARLY AS 12 NOON.", "ref": "7494400001"}, "type": "Feature"}
{"geometry": {"coordinates": [-95.110488942, 35.103459322], "type": "Point"}, "id": "NOrHtZjyE2WffA1pzj3--BMhMwQ=", "properties": {"@spider": "usps_collection_boxes", "addr:city": "MCCURTAIN", "addr:country": "US", "addr:full": "215 MAIN ST", "addr:postcode": "74944", "addr:state": "OK", "brand": "USPS", "collection_times": "Mo-Fr 15:00", "name": "USPS COLLECTION BOX - PO LOBBY", "note": "ON 12/24 AND 12/31, THIS BOX MAY BE COLLECTED AS EARLY AS 12 NOON.", "ref": "7494400002"}, "type": "Feature"}
{"geometry": {"coordinates": [-94.820885, 35.580539], "type": "Point"}, "id": "PeXgG-gjM3IH0PwkUxLPItUHd20=", "properties": {"@spider": "usps_collection_boxes", "addr:city": "MARBLE CITY", "addr:country": "US", "addr:full": "105 N MAIN ST", "addr:postcode": "74945", "addr:state": "OK", "brand": "USPS", "collection_times": "Mo-Fr 11:15; Sa 09:00", "name": "USPS COLLECTION BOX - PO LOBBY", "ref": "7494500001"}, "type": "Feature"}
{"geometry": {"coordinates": [-94.820886309, 35.580537], "type": "Point"}, "id": "NyX0PTKErKk3vYodkLipFupKZTo=", "properties": {"@spider": "usps_collection_boxes", "addr:city": "MARBLE CITY", "addr:country": "US", "addr:full": "105 N MAIN ST", "addr:postcode": "74945", "addr:state": "OK", "brand": "USPS", "collection_times": "Mo-Fr 11:30; Sa 09:00", "name": "USPS COLLECTION BOX - PO LOBBY", "ref": "7494500002"}, "type": "Feature"}
{"geometry": {"coordinates": [-94.4456613155, 35.3905357426], "type": "Point"}, "id": "frYzxdu9Tak-ThSIN57fRyH6t74=", "properties": {"@spider": "usps_collection_boxes", "addr:city": "MOFFETT", "addr:country": "US", "addr:full": "400 BELT AVE", "addr:postcode": "74946", "addr:state": "OK", "brand": "USPS", "collection_times": "Mo-Fr 11:00; Sa 10:45", "name": "USPS COLLECTION BOX - PO LOBBY", "ref": "7494600003"}, "type": "Feature"}
{"geometry": {"coordinates": [-94.5171283263, 34.9925516816], "type": "Point"}, "id": "g7nEJl7IWQi3Avu9YUY1bYYxpiQ=", "properties": {"@spider": "usps_collection_boxes", "addr:city": "MONROE", "addr:country": "US", "addr:full": "14577 HICKORY ST", "addr:postcode": "74947", "addr:state": "OK", "brand": "USPS", "collection_times": "Mo-Fr 14:45; Sa 14:00", "name": "USPS COLLECTION BOX - PO LOBBY", "note": "ON 12/24 AND 12/31, THIS BOX MAY BE COLLECTED AS EARLY AS 12 NOON.", "ref": "7494700001"}, "type": "Feature"}
{"geometry": {"coordinates": [-94.5165463069, 34.9925547667], "type": "Point"}, "id": "RCUdatyWL6AQD78By3vjVtfOqgU=", "properties": {"@spider": "usps_collection_boxes", "addr:city": "MONROE", "addr:country": "US", "addr:full": "14577 HICKORY ST", "addr:postcode": "74947", "addr:state": "OK", "brand": "USPS", "collection_times": "Mo-Fr 15:00; Sa 14:15", "name": "USPS COLLECTION BOX - PO LOBBY", "note": "ON 12/24 AND 12/31, THIS BOX MAY BE COLLECTED AS EARLY AS 12 NOON.", "ref": "7494700002"}, "type": "Feature"}
{"geometry": {"coordinates": [-94.590917, 35.403244], "type": "Point"}, "id": "bndMN2rLIoV8r0EVs3vbWbOiAgc=", "properties": {"@spider": "usps_collection_boxes", "addr:city": "MULDROW", "addr:country": "US", "addr:full": "600 E SHAWNTEL SMITH BLVD", "addr:postcode": "74948", "addr:state": "OK", "brand": "USPS", "collection_times": "Mo-Fr 16:30; Sa 13:00", "name": "USPS COLLECTION BOX - PO LOBBY", "note": "ON 12/24 AND 12/31, THIS BOX MAY BE COLLECTED AS EARLY AS 12 NOON.", "ref": "7494800006"}, "type": "Feature"}
{"geometry": {"coordinates": [-94.5909083933, 35.403227721], "type": "Point"}, "id": "_UhWz8uN0z7LR074ChPktLKgfK0=", "properties": {"@spider": "usps_collection_boxes", "addr:city": "MULDROW", "addr:country": "US", "addr:full": "600 E SHAWNTEL SMITH BLVD", "addr:postcode": "74948", "addr:state": "OK", "brand": "USPS", "collection_times": "Mo-Fr 16:30", "name": "USPS COLLECTION BOX - PO LOBBY", "note": "ON 12/24 AND 12/31, THIS BOX MAY BE COLLECTED AS EARLY AS 12 NOON.", "ref": "7494800007"}, "type": "Feature"}
{"geometry": {"coordinates": [-94.7048197096, 34.6891600916], "type": "Point"}, "id": "gABUk9c2y6dJ6GdEmyaRLIYfUe4=", "properties": {"@spider": "usps_collection_boxes", "addr:city": "MUSE", "addr:country": "US", "addr:full": "1 MAIN ST", "addr:postcode": "74949", "addr:state": "OK", "brand": "USPS", "collection_times": "Mo-Fr 14:30; Sa 10:15", "name": "USPS COLLECTION BOX - BLUE BOX", "note": "ON 12/24 AND 12/31, THIS BOX MAY BE COLLECTED AS EARLY AS 12 NOON.", "ref": "7494900000"}, "type": "Feature"}
{"geometry": {"coordinates": [-94.7048197096, 34.6891600916], "type": "Point"}, "id": "5tbKClDnNm3-_oyZKAf0yOD95Qo=", "properties": {"@spider": "usps_collection_boxes", "addr:city": "MUSE", "addr:country": "US", "addr:full": "1 MAIN ST", "addr:postcode": "74949", "addr:state": "OK", "brand": "USPS", "collection_times": "Mo-Fr 14:30; Sa 10:30", "name": "USPS COLLECTION BOX - PO LOBBY", "note": "ON 12/24 AND 12/31, THIS BOX MAY BE COLLECTED AS EARLY AS 12 NOON.", "ref": "7494900001"}, "type": "Feature"}
{"geometry": {"coordinates": [-94.7672995, 34.6720749], "type": "Point"}, "id": "IrACFi5f_feB10rM7fLOO3Jqhx8=", "properties": {"@spider": "usps_collection_boxes", "addr:city": "MUSE", "addr:country": "US", "addr:full": "1 MAIN ST", "addr:postcode": "74949", "addr:state": "OK", "brand": "USPS", "collection_times": "Mo-Fr 16:00; Sa 13:30", "name": "USPS COLLECTION BOX - PO LOBBY", "note": "ON 12/24 AND 12/31, THIS BOX MAY BE COLLECTED AS EARLY AS 12 NOON.", "ref": "7494900002"}, "type": "Feature"}
{"geometry": {"coordinates": [-94.6732067773, 35.1754260353], "type": "Point"}, "id": "D30WUkPvEgv_wfQKsDKIdO4a0oQ=", "properties": {"@spider": "usps_collection_boxes", "addr:city": "PANAMA", "addr:country": "US", "addr:full": "901 N KENTUCKY ST", "addr:postcode": "74951", "addr:state": "OK", "brand": "USPS", "collection_times": "Mo-Fr 15:45; Sa 09:45", "name": "USPS COLLECTION BOX - BLUE BOX", "note": "ON 12/24 AND 12/31, THIS BOX MAY BE COLLECTED AS EARLY AS 12 NOON.", "ref": "7495100000"}, "type": "Feature"}
{"geometry": {"coordinates": [-94.6732067773, 35.1754260353], "type": "Point"}, "id": "YzrtBMJifEEg9Z27fLqHRRilQLg=", "properties": {"@spider": "usps_collection_boxes", "addr:city": "PANAMA", "addr:country": "US", "addr:full": "901 N KENTUCKY ST", "addr:postcode": "74951", "addr:state": "OK", "brand": "USPS", "collection_times": "Mo-Fr 16:00; Sa 10:00", "name": "USPS COLLECTION BOX - PO LOBBY", "note": "ON 12/24 AND 12/31, THIS BOX MAY BE COLLECTED AS EARLY AS 12 NOON.", "ref": "7495100001"}, "type": "Feature"}
{"geometry": {"coordinates": [-94.6732067773, 35.1754260353], "type": "Point"}, "id": "1vKSnqcfL5t1nN5imwE-fjdSlxw=", "properties": {"@spider": "usps_collection_boxes", "addr:city": "PANAMA", "addr:country": "US", "addr:full": "901 N KENTUCKY ST", "addr:postcode": "74951", "addr:state": "OK", "brand": "USPS", "collection_times": "Mo-Fr 16:00; Sa 10:00", "name": "USPS COLLECTION BOX - PO LOBBY", "note": "ON 12/24 AND 12/31, THIS BOX MAY BE COLLECTED AS EARLY AS 12 NOON.", "ref": "7495100002"}, "type": "Feature"}
{"geometry": {"coordinates": [-94.6734034153, 35.1760394717], "type": "Point"}, "id": "-j-3NHbH2DL7Pk3IRG4eqq5guhI=", "properties": {"@spider": "usps_collection_boxes", "addr:city": "PANAMA", "addr:country": "US", "addr:full": "901 N KENTUCKY ST", "addr:postcode": "74951", "addr:state": "OK", "brand": "USPS", "collection_times": "Mo-Fr 16:00", "name": "USPS COLLECTION BOX - PO LOBBY", "note": "ON 12/24 AND 12/31, THIS BOX MAY BE COLLECTED AS EARLY AS 12 NOON.", "ref": "7495100003"}, "type": "Feature"}
{"geometry": {"coordinates": [-94.621554, 35.052363], "type": "Point"}, "id": "_VtJN_nuA9zYldA73K2_X4vEY5g=", "properties": {"@spider": "usps_collection_boxes", "addr:city": "POTEAU", "addr:country": "US", "addr:full": "115 N WITTE ST", "addr:postcode": "74953", "addr:state": "OK", "brand": "USPS", "collection_times": "Mo-Sa 17:00", "name": "USPS COLLECTION BOX - BLUE BOX", "note": "ON 12/24 AND 12/31, THIS BOX MAY BE COLLECTED AS EARLY AS 12 NOON.", "ref": "7495300008"}, "type": "Feature"}
{"geometry": {"coordinates": [-94.621554, 35.052363], "type": "Point"}, "id": "mW3RtSUy260huVARsGQKAclSQ4g=", "properties": {"@spider": "usps_collection_boxes", "addr:city": "POTEAU", "addr:country": "US", "addr:full": "115 N WITTE ST", "addr:postcode": "74953", "addr:state": "OK", "brand": "USPS", "collection_times": "Mo-Sa 17:00", "name": "USPS COLLECTION BOX - BLUE BOX", "note": "ON 12/24 AND 12/31, THIS BOX MAY BE COLLECTED AS EARLY AS 12 NOON.", "ref": "7495300009"}, "type": "Feature"}
{"geometry": {"coordinates": [-94.6289899, 35.094262], "type": "Point"}, "id": "BLM87FLXLey7Kpiown7w1FnbdTc=", "properties": {"@spider": "usps_collection_boxes", "addr:city": "POTEAU", "addr:country": "US", "addr:full": "3108 N BROADWAY ST", "addr:postcode": "74953", "addr:state": "OK", "brand": "USPS", "collection_times": "Mo-Sa 10:00", "name": "USPS COLLECTION BOX - BLUE BOX", "ref": "7495300010"}, "type": "Feature"}
{"geometry": {"coordinates": [-94.621554, 35.052363], "type": "Point"}, "id": "sAkwLe18JtnZVNDy0hXUaOQQae4=", "properties": {"@spider": "usps_collection_boxes", "addr:city": "POTEAU", "addr:country": "US", "addr:full": "115 N WITTE ST", "addr:postcode": "74953", "addr:state": "OK", "brand": "USPS", "collection_times": "Mo-Sa 17:00", "name": "USPS COLLECTION BOX - PO LOBBY", "note": "ON 12/24 AND 12/31, THIS BOX MAY BE COLLECTED AS EARLY AS 12 NOON.", "ref": "7495300011"}, "type": "Feature"}
{"geometry": {"coordinates": [-94.621554, 35.052363], "type": "Point"}, "id": "DxxpdgRhP1gJCP0xEDQgELNVVnw=", "properties": {"@spider": "usps_collection_boxes", "addr:city": "POTEAU", "addr:country": "US", "addr:full": "115 N WITTE ST", "addr:postcode": "74953", "addr:state": "OK", "brand": "USPS", "collection_times": "Mo-Sa 17:00", "name": "USPS COLLECTION BOX - PO LOBBY", "note": "ON 12/24 AND 12/31, THIS BOX MAY BE COLLECTED AS EARLY AS 12 NOON.", "ref": "7495300012"}, "type": "Feature"}
{"geometry": {"coordinates": [-94.621586191, 35.052366498], "type": "Point"}, "id": "f0hf327mk_x_1Q5DUOJ33Nt7ycY=", "properties": {"@spider": "usps_collection_boxes", "addr:city": "POTEAU", "addr:country": "US", "addr:full": "115 N WITTE ST", "addr:postcode": "74953", "addr:state": "OK", "brand": "USPS", "collection_times": "Mo-Fr 16:30; Sa 10:00", "name": "USPS COLLECTION BOX - PO LOBBY", "note": "ON 12/24 AND 12/31, THIS BOX MAY BE COLLECTED AS EARLY AS 12 NOON.", "ref": "7495300013"}, "type": "Feature"}
{"geometry": {"coordinates": [-94.512146, 35.410747], "type": "Point"}, "id": "YZiz0L6jhRJ_o-4jKM0WG8Xowg0=", "properties": {"@spider": "usps_collection_boxes", "addr:city": "ROLAND", "addr:country": "US", "addr:full": "101 DAVIS LN", "addr:postcode": "74954", "addr:state": "OK", "brand": "USPS", "collection_times": "Mo-Fr 15:45; Sa 11:00", "name": "USPS COLLECTION BOX - BLUE BOX", "note": "ON 12/24 AND 12/31, THIS BOX MAY BE COLLECTED AS EARLY AS 12 NOON.", "ref": "7495400002"}, "type": "Feature"}
{"geometry": {"coordinates": [-94.512146, 35.410747], "type": "Point"}, "id": "R5NHG_ZqvtVrYrxEqW8AsYAwdKg=", "properties": {"@spider": "usps_collection_boxes", "addr:city": "ROLAND", "addr:country": "US", "addr:full": "101 DAVIS LN", "addr:postcode": "74954", "addr:state": "OK", "brand": "USPS", "collection_times": "Mo-Fr 16:00; Sa 11:00", "name": "USPS COLLECTION BOX - PO LOBBY", "note": "ON 12/24 AND 12/31, THIS BOX MAY BE COLLECTED AS EARLY AS 12 NOON.", "ref": "7495400003"}, "type": "Feature"}
{"geometry": {"coordinates": [-94.512146, 35.410747], "type": "Point"}, "id": "SWxj0o-c0gl5BKrSdlec8ElRuW8=", "properties": {"@spider": "usps_collection_boxes", "addr:city": "ROLAND", "addr:country": "US", "addr:full": "101 DAVIS LN", "addr:postcode": "74954", "addr:state": "OK", "brand": "USPS", "collection_times": "Mo-Fr 16:00; Sa 11:00", "name": "USPS COLLECTION BOX - PO LOBBY", "note": "ON 12/24 AND 12/31, THIS BOX MAY BE COLLECTED AS EARLY AS 12 NOON.", "ref": "7495400004"}, "type": "Feature"}
{"geometry": {"coordinates": [-94.512146, 35.410747], "type": "Point"}, "id": "VxSQgaynO2roYiTZFIWNWafqGEI=", "properties": {"@spider": "usps_collection_boxes", "addr:city": "ROLAND", "addr:country": "US", "addr:full": "101 DAVIS LN", "addr:postcode": "74954", "addr:state": "OK", "brand": "USPS", "collection_times": "Mo-Fr 16:00; Sa 11:00", "name": "USPS COLLECTION BOX - PO LOBBY", "note": "ON 12/24 AND 12/31, THIS BOX MAY BE COLLECTED AS EARLY AS 12 NOON.", "ref": "7495400006"}, "type": "Feature"}
{"geometry": {"coordinates": [-94.512145296, 35.410745104], "type": "Point"}, "id": "7LIj7ZQl7H877CMqHUBI-MCn80I=", "properties": {"@spider": "usps_collection_boxes", "addr:city": "ROLAND", "addr:country": "US", "addr:full": "101 DAVIS LN", "addr:postcode": "74954", "addr:state": "OK", "brand": "USPS", "collection_times": "Mo-Fr 16:00", "name": "USPS COLLECTION BOX - PO LOBBY", "note": "ON 12/24 AND 12/31, THIS BOX MAY BE COLLECTED AS EARLY AS 12 NOON.", "ref": "7495400007"}, "type": "Feature"}
{"geometry": {"coordinates": [-94.7890018, 35.458617], "type": "Point"}, "id": "DjjeLthxYOIgUcwg8PIHpYKx4AM=", "properties": {"@spider": "usps_collection_boxes", "addr:city": "SALLISAW", "addr:country": "US", "addr:full": "120 E CHICKASAW AVE", "addr:postcode": "74955", "addr:state": "OK", "brand": "USPS", "collection_times": "Mo-Fr 15:30; Sa 14:00", "name": "USPS COLLECTION BOX - BLUE BOX", "note": "ON 12/24 AND 12/31, THIS BOX MAY BE COLLECTED AS EARLY AS 12 NOON.", "ref": "7495500011"}, "type": "Feature"}
{"geometry": {"coordinates": [-94.770184, 35.457633], "type": "Point"}, "id": "_cUGgYAi5KEi3DwB2FsYAhXkzx8=", "properties": {"@spider": "usps_collection_boxes", "addr:city": "SALLISAW", "addr:country": "US", "addr:full": "111 S MCGEE DR", "addr:postcode": "74955", "addr:state": "OK", "brand": "USPS", "collection_times": "Mo-Fr 16:30; Sa 14:00", "name": "USPS COLLECTION BOX - BLUE BOX", "note": "ON 12/24 AND 12/31, THIS BOX MAY BE COLLECTED AS EARLY AS 12 NOON.", "ref": "7495500014"}, "type": "Feature"}
{"geometry": {"coordinates": [-94.770184, 35.457633], "type": "Point"}, "id": "mN3RiX4YBqcsHQafqahjOyJh30U=", "properties": {"@spider": "usps_collection_boxes", "addr:city": "SALLISAW", "addr:country": "US", "addr:full": "111 S MCGEE DR", "addr:postcode": "74955", "addr:state": "OK", "brand": "USPS", "collection_times": "Mo-Fr 16:30; Sa 14:00", "name": "USPS COLLECTION BOX - BLUE BOX", "note": "ON 12/24 AND 12/31, THIS BOX MAY BE COLLECTED AS EARLY AS 12 NOON.", "ref": "7495500015"}, "type": "Feature"}
{"geometry": {"coordinates": [-94.770184, 35.457633], "type": "Point"}, "id": "shQgOUrr4u4Y1KgmSiucwutcfZQ=", "properties": {"@spider": "usps_collection_boxes", "addr:city": "SALLISAW", "addr:country": "US", "addr:full": "111 S MCGEE DR", "addr:postcode": "74955", "addr:state": "OK", "brand": "USPS", "collection_times": "Mo-Fr 16:30; Sa 14:00", "name": "USPS COLLECTION BOX - PO LOBBY", "note": "ON 12/24 AND 12/31, THIS BOX MAY BE COLLECTED AS EARLY AS 12 NOON.", "ref": "7495500017"}, "type": "Feature"}
{"geometry": {"coordinates": [-94.770184, 35.457633], "type": "Point"}, "id": "oqD_LoGvc878GSURe0CDD-7zo-Y=", "properties": {"@spider": "usps_collection_boxes", "addr:city": "SALLISAW", "addr:country": "US", "addr:full": "111 S MCGEE DR", "addr:postcode": "74955", "addr:state": "OK", "brand": "USPS", "collection_times": "Mo-Fr 16:30; Sa 14:00", "name": "USPS COLLECTION BOX - PO LOBBY", "note": "ON 12/24 AND 12/31, THIS BOX MAY BE COLLECTED AS EARLY AS 12 NOON.", "ref": "7495500018"}, "type": "Feature"}
{"geometry": {"coordinates": [-94.770184, 35.457633], "type": "Point"}, "id": "S0MXkTehv9feoIGl0cpQfcV5XmQ=", "properties": {"@spider": "usps_collection_boxes", "addr:city": "SALLISAW", "addr:country": "US", "addr:full": "111 S MCGEE DR", "addr:postcode": "74955", "addr:state": "OK", "brand": "USPS", "collection_times": "Mo-Fr 16:30; Sa 14:00", "name": "USPS COLLECTION BOX - PO LOBBY", "note": "ON 12/24 AND 12/31, THIS BOX MAY BE COLLECTED AS EARLY AS 12 NOON.", "ref": "7495500020"}, "type": "Feature"}
{"geometry": {"coordinates": [-94.770185113, 35.457631449], "type": "Point"}, "id": "Dkr4R_hCznmPPKRvEGudFQ3DmB4=", "properties": {"@spider": "usps_collection_boxes", "addr:city": "SALLISAW", "addr:country": "US", "addr:full": "111 S MCGEE DR", "addr:postcode": "74955", "addr:state": "OK", "brand": "USPS", "collection_times": "Mo-Fr 16:30", "name": "USPS COLLECTION BOX - PO LOBBY", "note": "ON 12/24 AND 12/31, THIS BOX MAY BE COLLECTED AS EARLY AS 12 NOON.", "ref": "7495500021"}, "type": "Feature"}
{"geometry": {"coordinates": [-94.665107, 35.130858], "type": "Point"}, "id": "LTw9jKEjIkJh62TUHJrynBcn5Bo=", "properties": {"@spider": "usps_collection_boxes", "addr:city": "SHADY POINT", "addr:country": "US", "addr:full": "23067 WHEELUS ST", "addr:postcode": "74956", "addr:state": "OK", "brand": "USPS", "collection_times": "Mo-Fr 14:30; Sa 10:00", "name": "USPS COLLECTION BOX - PO LOBBY", "note": "ON 12/24 AND 12/31, THIS BOX MAY BE COLLECTED AS EARLY AS 12 NOON.", "ref": "7495600001"}, "type": "Feature"}
{"geometry": {"coordinates": [-94.6650944802, 35.1308129067], "type": "Point"}, "id": "dVWytoHtjGqfUWMqcY5pw2-x_Yk=", "properties": {"@spider": "usps_collection_boxes", "addr:city": "SHADY POINT", "addr:country": "US", "addr:full": "23067 WHEELUS ST", "addr:postcode": "74956", "addr:state": "OK", "brand": "USPS", "collection_times": "Mo-Fr 14:30; Sa 10:00", "name": "USPS COLLECTION BOX - PO LOBBY", "note": "ON 12/24 AND 12/31, THIS BOX MAY BE COLLECTED AS EARLY AS 12 NOON.", "ref": "7495600002"}, "type": "Feature"}
{"geometry": {"coordinates": [-94.632479, 34.458181], "type": "Point"}, "id": "9R_f-woIzmg7CH8DyNOzlcSpwA0=", "properties": {"@spider": "usps_collection_boxes", "addr:city": "SMITHVILLE", "addr:country": "US", "addr:full": "200 HIGHWAY 4", "addr:postcode": "74957", "addr:state": "OK", "brand": "USPS", "collection_times": "Mo-Fr 15:30; Sa 10:30", "name": "USPS COLLECTION BOX - PO LOBBY", "note": "ON 12/24 AND 12/31, THIS BOX MAY BE COLLECTED AS EARLY AS 12 NOON.", "ref": "7495700001"}, "type": "Feature"}
{"geometry": {"coordinates": [-94.649807, 34.46703], "type": "Point"}, "id": "j6bmr_PbmtdzU1UBM5dXnn90SDU=", "properties": {"@spider": "usps_collection_boxes", "addr:city": "SMITHVILLE", "addr:country": "US", "addr:full": "200 HIGHWAY 4", "addr:postcode": "74957", "addr:state": "OK", "brand": "USPS", "collection_times": "Mo-Fr 15:30; Sa 10:30", "name": "USPS COLLECTION BOX - PO LOBBY", "note": "ON 12/24 AND 12/31, THIS BOX MAY BE COLLECTED AS EARLY AS 12 NOON.", "ref": "7495700002"}, "type": "Feature"}
{"geometry": {"coordinates": [-94.6498045982, 34.4670633433], "type": "Point"}, "id": "2RHgSx3LuPXynZVS3n3Rm41YbGI=", "properties": {"@spider": "usps_collection_boxes", "addr:city": "SMITHVILLE", "addr:country": "US", "addr:full": "209 STATE HIGHWAY 4", "addr:postcode": "74957", "addr:state": "OK", "brand": "USPS", "collection_times": "Mo-Fr 16:00", "name": "USPS COLLECTION BOX - PO LOBBY", "note": "ON 12/24 AND 12/31, THIS BOX MAY BE COLLECTED AS EARLY AS 12 NOON.", "ref": "7495700003"}, "type": "Feature"}
{"geometry": {"coordinates": [-94.621206, 35.241385], "type": "Point"}, "id": "J5-jwdVlBySBYbTbqyGg1deDays=", "properties": {"@spider": "usps_collection_boxes", "addr:city": "SPIRO", "addr:country": "US", "addr:full": "123 N MAIN ST", "addr:postcode": "74959", "addr:state": "OK", "brand": "USPS", "collection_times": "Mo-Fr 15:30; Sa 11:30", "name": "USPS COLLECTION BOX - BLUE BOX", "note": "ON 12/24 AND 12/31, THIS BOX MAY BE COLLECTED AS EARLY AS 12 NOON.", "ref": "7495900007"}, "type": "Feature"}
{"geometry": {"coordinates": [-94.621206, 35.241385], "type": "Point"}, "id": "cZI26kqSIyxzoonjnZKeVAxkgps=", "properties": {"@spider": "usps_collection_boxes", "addr:city": "SPIRO", "addr:country": "US", "addr:full": "123 N MAIN ST", "addr:postcode": "74959", "addr:state": "OK", "brand": "USPS", "collection_times": "Mo-Fr 16:00; Sa 11:30", "name": "USPS COLLECTION BOX - PO LOBBY", "note": "ON 12/24 AND 12/31, THIS BOX MAY BE COLLECTED AS EARLY AS 12 NOON.", "ref": "7495900008"}, "type": "Feature"}
{"geometry": {"coordinates": [-94.621206, 35.241385], "type": "Point"}, "id": "AnsvalPe4Q1VZ7Dy_Ue4cnJw8ig=", "properties": {"@spider": "usps_collection_boxes", "addr:city": "SPIRO", "addr:country": "US", "addr:full": "123 N MAIN ST", "addr:postcode": "74959", "addr:state": "OK", "brand": "USPS", "collection_times": "Mo-Fr 16:00; Sa 11:30", "name": "USPS COLLECTION BOX - PO LOBBY", "note": "ON 12/24 AND 12/31, THIS BOX MAY BE COLLECTED AS EARLY AS 12 NOON.", "ref": "7495900009"}, "type": "Feature"}
{"geometry": {"coordinates": [-94.6347133, 35.242002], "type": "Point"}, "id": "8O7fOT-2u60WiSXrhm25kE1AAAU=", "properties": {"@spider": "usps_collection_boxes", "addr:city": "SPIRO", "addr:country": "US", "addr:full": "117 N GUTHRIE ST", "addr:postcode": "74959", "addr:state": "OK", "brand": "USPS", "collection_times": "Mo-Sa 10:00", "name": "USPS COLLECTION BOX - BLUE BOX", "ref": "7495900010"}, "type": "Feature"}
{"geometry": {"coordinates": [-94.621233483, 35.24135916], "type": "Point"}, "id": "_nZ2IQfYF7TdOQGlqlb0dAny6hI=", "properties": {"@spider": "usps_collection_boxes", "addr:city": "SPIRO", "addr:country": "US", "addr:full": "123 N MAIN ST", "addr:postcode": "74959", "addr:state": "OK", "brand": "USPS", "collection_times": "Mo-Fr 16:00; Sa 11:30", "name": "USPS COLLECTION BOX - PO LOBBY", "note": "ON 12/24 AND 12/31, THIS BOX MAY BE COLLECTED AS EARLY AS 12 NOON.", "ref": "7495900011"}, "type": "Feature"}
{"geometry": {"coordinates": [-94.628740025, 35.8138200016], "type": "Point"}, "id": "bjcioOFXjKLjNNBNVdpQmtHHSUY=", "properties": {"@spider": "usps_collection_boxes", "addr:city": "STILWELL", "addr:country": "US", "addr:full": "16 S 2ND ST", "addr:postcode": "74960", "addr:state": "OK", "brand": "USPS", "collection_times": "Mo-Fr 16:00; Sa 15:00", "name": "USPS COLLECTION BOX - BLUE BOX", "note": "ON 12/24 AND 12/31, THIS BOX MAY BE COLLECTED AS EARLY AS 12 NOON.", "ref": "7496000001"}, "type": "Feature"}
{"geometry": {"coordinates": [-94.6311199, 35.808318], "type": "Point"}, "id": "IMnYKs3rjq7fXO8HQOJOdpssVg0=", "properties": {"@spider": "usps_collection_boxes", "addr:city": "STILWELL", "addr:country": "US", "addr:full": "308 W LOCUST ST", "addr:postcode": "74960", "addr:state": "OK", "brand": "USPS", "collection_times": "Mo-Sa 10:00", "name": "USPS COLLECTION BOX - BLUE BOX", "ref": "7496000002"}, "type": "Feature"}
{"geometry": {"coordinates": [-94.628740025, 35.8138200016], "type": "Point"}, "id": "R8ZNWTT-ADVUpC6JeD4DKCgNPcQ=", "properties": {"@spider": "usps_collection_boxes", "addr:city": "STILWELL", "addr:country": "US", "addr:full": "16 S 2ND ST", "addr:postcode": "74960", "addr:state": "OK", "brand": "USPS", "collection_times": "Mo-Fr 16:00; Sa 15:45", "name": "USPS COLLECTION BOX - PO LOBBY", "note": "ON 12/24 AND 12/31, THIS BOX MAY BE COLLECTED AS EARLY AS 12 NOON.", "ref": "7496000006"}, "type": "Feature"}
{"geometry": {"coordinates": [-94.628740025, 35.8138200016], "type": "Point"}, "id": "_QS6RQYxW82-oW9vJWj4eltTO2s=", "properties": {"@spider": "usps_collection_boxes", "addr:city": "STILWELL", "addr:country": "US", "addr:full": "16 S 2ND ST", "addr:postcode": "74960", "addr:state": "OK", "brand": "USPS", "collection_times": "Mo-Fr 16:00; Sa 15:45", "name": "USPS COLLECTION BOX - PO LOBBY", "note": "ON 12/24 AND 12/31, THIS BOX MAY BE COLLECTED AS EARLY AS 12 NOON.", "ref": "7496000007"}, "type": "Feature"}
{"geometry": {"coordinates": [-94.628740025, 35.8138200016], "type": "Point"}, "id": "4hsoba4UMSsA_c-7xR8m3McJ61Q=", "properties": {"@spider": "usps_collection_boxes", "addr:city": "STILWELL", "addr:country": "US", "addr:full": "16 S 2ND ST", "addr:postcode": "74960", "addr:state": "OK", "brand": "USPS", "collection_times": "Mo-Fr 16:00", "name": "USPS COLLECTION BOX - PO LOBBY", "note": "ON 12/24 AND 12/31, THIS BOX MAY BE COLLECTED AS EARLY AS 12 NOON.", "ref": "7496000009"}, "type": "Feature"}
{"geometry": {"coordinates": [-94.969167, 35.499609], "type": "Point"}, "id": "jvrTbfosb6ifM51LpuagHOKVukA=", "properties": {"@spider": "usps_collection_boxes", "addr:city": "VIAN", "addr:country": "US", "addr:full": "205 N THORNTON ST", "addr:postcode": "74962", "addr:state": "OK", "brand": "USPS", "collection_times": "Mo-Fr 15:30; Sa 10:00", "name": "USPS COLLECTION BOX - BLUE BOX", "note": "ON 12/24 AND 12/31, THIS BOX MAY BE COLLECTED AS EARLY AS 12 NOON.", "ref": "7496200000"}, "type": "Feature"}
{"geometry": {"coordinates": [-94.969167, 35.499609], "type": "Point"}, "id": "Rxir9qnq1EShmFeRswkrv9kXFW4=", "properties": {"@spider": "usps_collection_boxes", "addr:city": "VIAN", "addr:country": "US", "addr:full": "205 N THORNTON ST", "addr:postcode": "74962", "addr:state": "OK", "brand": "USPS", "collection_times": "Mo-Fr 16:00; Sa 10:00", "name": "USPS COLLECTION BOX - PO LOBBY", "note": "ON 12/24 AND 12/31, THIS BOX MAY BE COLLECTED AS EARLY AS 12 NOON.", "ref": "7496200001"}, "type": "Feature"}
{"geometry": {"coordinates": [-94.969167, 35.499609], "type": "Point"}, "id": "CNLQKKn8luehZEsykE0SPkluKGw=", "properties": {"@spider": "usps_collection_boxes", "addr:city": "VIAN", "addr:country": "US", "addr:full": "205 N THORNTON ST", "addr:postcode": "74962", "addr:state": "OK", "brand": "USPS", "collection_times": "Mo-Fr 16:00; Sa 10:00", "name": "USPS COLLECTION BOX - PO LOBBY", "note": "ON 12/24 AND 12/31, THIS BOX MAY BE COLLECTED AS EARLY AS 12 NOON.", "ref": "7496200002"}, "type": "Feature"}
{"geometry": {"coordinates": [-94.969208005, 35.499584335], "type": "Point"}, "id": "S_HR8YBkBk7zYmYRPoxQJ6Xzu98=", "properties": {"@spider": "usps_collection_boxes", "addr:city": "VIAN", "addr:country": "US", "addr:full": "205 N THORNTON ST", "addr:postcode": "74962", "addr:state": "OK", "brand": "USPS", "collection_times": "Mo-Fr 16:00", "name": "USPS COLLECTION BOX - PO LOBBY", "note": "ON 12/24 AND 12/31, THIS BOX MAY BE COLLECTED AS EARLY AS 12 NOON.", "ref": "7496200003"}, "type": "Feature"}
{"geometry": {"coordinates": [-94.625651, 34.448474], "type": "Point"}, "id": "sAhqxtFS-Dt5W6WUzFevwKED11k=", "properties": {"@spider": "usps_collection_boxes", "addr:city": "WATSON", "addr:country": "US", "addr:full": "100 HIGHWAY 4", "addr:postcode": "74963", "addr:state": "OK", "brand": "USPS", "collection_times": "Mo-Fr 15:30; Sa 10:00", "name": "USPS COLLECTION BOX - BLUE BOX", "note": "ON 12/24 AND 12/31, THIS BOX MAY BE COLLECTED AS EARLY AS 12 NOON.", "ref": "7496300000"}, "type": "Feature"}
{"geometry": {"coordinates": [-94.514894, 34.431727], "type": "Point"}, "id": "zlAZhLcuybfBZlFC91HLKenaEPI=", "properties": {"@spider": "usps_collection_boxes", "addr:city": "WATSON", "addr:country": "US", "addr:full": "100 HIGHWAY 4", "addr:postcode": "74963", "addr:state": "OK", "brand": "USPS", "collection_times": "Mo-Fr 15:30; Sa 10:00", "name": "USPS COLLECTION BOX - PO LOBBY", "note": "ON 12/24 AND 12/31, THIS BOX MAY BE COLLECTED AS EARLY AS 12 NOON.", "ref": "7496300001"}, "type": "Feature"}
{"geometry": {"coordinates": [-94.520063659, 34.43204342], "type": "Point"}, "id": "fcY8AeCT3M0L4TGTsXBxQWQGmGI=", "properties": {"@spider": "usps_collection_boxes", "addr:city": "WATSON", "addr:country": "US", "addr:full": "100 HIGHWAY 4", "addr:postcode": "74963", "addr:state": "OK", "brand": "USPS", "collection_times": "Mo-Fr 15:15; Sa 10:00", "name": "USPS COLLECTION BOX - PO LOBBY", "note": "ON 12/24 AND 12/31, THIS BOX MAY BE COLLECTED AS EARLY AS 12 NOON.", "ref": "7496300002"}, "type": "Feature"}
{"geometry": {"coordinates": [-94.657082754, 36.1148368669], "type": "Point"}, "id": "jZg8AyALnNpSjjOS9NQdai0ps1A=", "properties": {"@spider": "usps_collection_boxes", "addr:city": "WATTS", "addr:country": "US", "addr:full": "601 E 6TH ST", "addr:postcode": "74964", "addr:state": "OK", "brand": "USPS", "collection_times": "Mo-Fr 16:00; Sa 11:00", "name": "USPS COLLECTION BOX - BLUE BOX", "note": "ON 12/24 AND 12/31, THIS BOX MAY BE COLLECTED AS EARLY AS 12 NOON.", "ref": "7496400000"}, "type": "Feature"}
{"geometry": {"coordinates": [-94.5790864, 36.176367], "type": "Point"}, "id": "zV8j-85HHxYkURd_skw87o7iOec=", "properties": {"@spider": "usps_collection_boxes", "addr:city": "WATTS", "addr:country": "US", "addr:full": "1 HIGHWAY 412 W", "addr:postcode": "74964", "addr:state": "OK", "brand": "USPS", "collection_times": "Mo-Sa 12:45", "name": "USPS COLLECTION BOX - BLUE BOX", "note": "ON 12/24 AND 12/31, THIS BOX MAY BE COLLECTED AS EARLY AS 12 NOON.", "ref": "7496400001"}, "type": "Feature"}
{"geometry": {"coordinates": [-94.657082754, 36.1148368669], "type": "Point"}, "id": "_DlsS7B_bRrLO6oWsAQ8DAgd9Rc=", "properties": {"@spider": "usps_collection_boxes", "addr:city": "WATTS", "addr:country": "US", "addr:full": "601 E 6TH ST", "addr:postcode": "74964", "addr:state": "OK", "brand": "USPS", "collection_times": "Mo-Fr 16:00; Sa 11:00", "name": "USPS COLLECTION BOX - PO LOBBY", "note": "ON 12/24 AND 12/31, THIS BOX MAY BE COLLECTED AS EARLY AS 12 NOON.", "ref": "7496400002"}, "type": "Feature"}
{"geometry": {"coordinates": [-94.657082754, 36.1148368669], "type": "Point"}, "id": "XRJIXnZlvpi5cX-q3NLYut1wFy4=", "properties": {"@spider": "usps_collection_boxes", "addr:city": "WATTS", "addr:country": "US", "addr:full": "601 E 6TH ST", "addr:postcode": "74964", "addr:state": "OK", "brand": "USPS", "collection_times": "Mo-Fr 16:00; Sa 11:00", "name": "USPS COLLECTION BOX - PO LOBBY", "note": "ON 12/24 AND 12/31, THIS BOX MAY BE COLLECTED AS EARLY AS 12 NOON.", "ref": "7496400003"}, "type": "Feature"}
{"geometry": {"coordinates": [-94.5697887043, 36.110169], "type": "Point"}, "id": "Pfn4Lh5EUH5Jh25opcCTzbT76b0=", "properties": {"@spider": "usps_collection_boxes", "addr:city": "WATTS", "addr:country": "US", "addr:full": "601 E 6TH ST", "addr:postcode": "74964", "addr:state": "OK", "brand": "USPS", "collection_times": "Mo-Fr 16:00; Sa 11:00", "name": "USPS COLLECTION BOX - PO LOBBY", "note": "ON 12/24 AND 12/31, THIS BOX MAY BE COLLECTED AS EARLY AS 12 NOON.", "ref": "7496400004"}, "type": "Feature"}
{"geometry": {"coordinates": [-94.5834262, 35.994145], "type": "Point"}, "id": "LIBj9YDL60Cpf-kUjLvYPVCmnTI=", "properties": {"@spider": "usps_collection_boxes", "addr:city": "WESTVILLE", "addr:country": "US", "addr:full": "901 N HWY 59", "addr:postcode": "74965", "addr:state": "OK", "brand": "USPS", "collection_times": "Mo-Sa 13:00", "name": "USPS COLLECTION BOX - BLUE BOX", "note": "ON 12/24 AND 12/31, THIS BOX MAY BE COLLECTED AS EARLY AS 12 NOON.", "ref": "7496500002"}, "type": "Feature"}
{"geometry": {"coordinates": [-94.56775, 35.992739], "type": "Point"}, "id": "bDRBXeeU6v65wV-BjJqWj6oeic8=", "properties": {"@spider": "usps_collection_boxes", "addr:city": "WESTVILLE", "addr:country": "US", "addr:full": "210 S WILLIAMS ST", "addr:postcode": "74965", "addr:state": "OK", "brand": "USPS", "collection_times": "Mo-Fr 16:00; Sa 10:45", "name": "USPS COLLECTION BOX - BLUE BOX", "note": "ON 12/24 AND 12/31, THIS BOX MAY BE COLLECTED AS EARLY AS 12 NOON.", "ref": "7496500003"}, "type": "Feature"}
{"geometry": {"coordinates": [-94.56775, 35.992739], "type": "Point"}, "id": "V6paOJVk4yzDWUkcRiwenIB1aNw=", "properties": {"@spider": "usps_collection_boxes", "addr:city": "WESTVILLE", "addr:country": "US", "addr:full": "210 S WILLIAMS ST", "addr:postcode": "74965", "addr:state": "OK", "brand": "USPS", "collection_times": "Mo-Fr 16:00; Sa 11:00", "name": "USPS COLLECTION BOX - PO LOBBY", "note": "ON 12/24 AND 12/31, THIS BOX MAY BE COLLECTED AS EARLY AS 12 NOON.", "ref": "7496500004"}, "type": "Feature"}
{"geometry": {"coordinates": [-94.56775, 35.992739], "type": "Point"}, "id": "4XfJaa8klIEygjlebi2UI2uKbCk=", "properties": {"@spider": "usps_collection_boxes", "addr:city": "WESTVILLE", "addr:country": "US", "addr:full": "210 S WILLIAMS ST", "addr:postcode": "74965", "addr:state": "OK", "brand": "USPS", "collection_times": "Mo-Fr 16:00; Sa 11:00", "name": "USPS COLLECTION BOX - PO LOBBY", "note": "ON 12/24 AND 12/31, THIS BOX MAY BE COLLECTED AS EARLY AS 12 NOON.", "ref": "7496500005"}, "type": "Feature"}
{"geometry": {"coordinates": [-94.568290476, 35.994370182], "type": "Point"}, "id": "twEpbzJeCWgVsQnTYl1AEAtBnzw=", "properties": {"@spider": "usps_collection_boxes", "addr:city": "WESTVILLE", "addr:country": "US", "addr:full": "210 S WILLIAMS ST", "addr:postcode": "74965", "addr:state": "OK", "brand": "USPS", "collection_times": "Mo-Fr 16:00; Sa 11:00", "name": "USPS COLLECTION BOX - PO LOBBY", "note": "ON 12/24 AND 12/31, THIS BOX MAY BE COLLECTED AS EARLY AS 12 NOON.", "ref": "7496500006"}, "type": "Feature"}
{"geometry": {"coordinates": [-94.725909, 34.966088], "type": "Point"}, "id": "jNqfRzqbIHk723BasUS-FPB1xDk=", "properties": {"@spider": "usps_collection_boxes", "addr:city": "WISTER", "addr:country": "US", "addr:full": "204 PLUM ST", "addr:postcode": "74966", "addr:state": "OK", "brand": "USPS", "collection_times": "Mo-Fr 16:00; Sa 10:00", "name": "USPS COLLECTION BOX - PO LOBBY", "note": "ON 12/24 AND 12/31, THIS BOX MAY BE COLLECTED AS EARLY AS 12 NOON.", "ref": "7496600001"}, "type": "Feature"}
{"geometry": {"coordinates": [-94.725909, 34.966088], "type": "Point"}, "id": "1UsF6p1ZI4OqOZ5lfJUM0pvhpNw=", "properties": {"@spider": "usps_collection_boxes", "addr:city": "WISTER", "addr:country": "US", "addr:full": "204 PLUM ST", "addr:postcode": "74966", "addr:state": "OK", "brand": "USPS", "collection_times": "Mo-Fr 16:00; Sa 10:00", "name": "USPS COLLECTION BOX - PO LOBBY", "note": "ON 12/24 AND 12/31, THIS BOX MAY BE COLLECTED AS EARLY AS 12 NOON.", "ref": "7496600002"}, "type": "Feature"}
{"geometry": {"coordinates": [-94.725909, 34.966088], "type": "Point"}, "id": "Yd56nZ6IDHFMYJmbleGJQxGPp2o=", "properties": {"@spider": "usps_collection_boxes", "addr:city": "WISTER", "addr:country": "US", "addr:full": "204 PLUM ST", "addr:postcode": "74966", "addr:state": "OK", "brand": "USPS", "collection_times": "Mo-Fr 16:00; Sa 10:00", "name": "USPS COLLECTION BOX - PO LOBBY", "note": "ON 12/24 AND 12/31, THIS BOX MAY BE COLLECTED AS EARLY AS 12 NOON.", "ref": "7496600003"}, "type": "Feature"}
{"geometry": {"coordinates": [-94.725900051, 34.966126006], "type": "Point"}, "id": "XypBYLlI4T1mG3MjXL_GmDVKN4U=", "properties": {"@spider": "usps_collection_boxes", "addr:city": "WISTER", "addr:country": "US", "addr:full": "204 PLUM ST", "addr:postcode": "74966", "addr:state": "OK", "brand": "USPS", "collection_times": "Mo-Fr 16:00", "name": "USPS COLLECTION BOX - PO LOBBY", "note": "ON 12/24 AND 12/31, THIS BOX MAY BE COLLECTED AS EARLY AS 12 NOON.", "ref": "7496600004"}, "type": "Feature"}
