{"geometry": {"coordinates": [-96.693766, 32.266781], "type": "Point"}, "id": "OxyVkt_jrZnXr6dBBcyB_o9df1k=", "properties": {"@source_uri": "https://tools.usps.com/UspsToolsRestServices/rest/POLocator/findLocations", "@spider": "usps_collection_boxes", "addr:city": "BARDWELL", "addr:country": "US", "addr:postcode": "75101", "addr:state": "TX", "addr:street_address": "100 ELLIS ST", "amenity": "post_box", "collection_times": "Mo-Fr 12:00; Sa 09:00", "nsi_id": "unitedstatespostalservice-a77078", "operator": "United States Postal Service", "operator:short": "USPS", "operator:type": "public", "operator:wikidata": "Q668687", "ref": "7510100771"}, "type": "Feature"}
{"geometry": {"coordinates": [-96.693797, 32.266871], "type": "Point"}, "id": "8RZj44ayhwWY18D55eDwizZ1DaE=", "properties": {"@source_uri": "https://tools.usps.com/UspsToolsRestServices/rest/POLocator/findLocations", "@spider": "usps_collection_boxes", "addr:city": "BARDWELL", "addr:country": "US", "addr:postcode": "75101", "addr:state": "TX", "addr:street_address": "100 ELLIS ST", "amenity": "post_box", "collection_times": "Mo-Fr 11:30; Sa 09:00", "indoor": "yes", "nsi_id": "unitedstatespostalservice-a77078", "operator": "United States Postal Service", "operator:short": "USPS", "operator:type": "public", "operator:wikidata": "Q668687", "ref": "7510100773"}, "type": "Feature"}
{"geometry": {"coordinates": [-96.693810296, 32.266777828], "type": "Point"}, "id": "-FgfBgmeg1hwfUkl6QPBJjp2XW8=", "properties": {"@source_uri": "https://tools.usps.com/UspsToolsRestServices/rest/POLocator/findLocations", "@spider": "usps_collection_boxes", "addr:city": "BARDWELL", "addr:country": "US", "addr:postcode": "75101", "addr:state": "TX", "addr:street_address": "100 ELLIS ST", "amenity": "post_box", "collection_times": "Mo-Fr 12:00", "indoor": "yes", "nsi_id": "unitedstatespostalservice-a77078", "operator": "United States Postal Service", "operator:short": "USPS", "operator:type": "public", "operator:wikidata": "Q668687", "ref": "7510100774"}, "type": "Feature"}
{"geometry": {"coordinates": [-96.636476, 32.099437], "type": "Point"}, "id": "NJzwbH8PrYWftW_FMdKrQAnvRBQ=", "properties": {"@source_uri": "https://tools.usps.com/UspsToolsRestServices/rest/POLocator/findLocations", "@spider": "usps_collection_boxes", "addr:city": "BARRY", "addr:country": "US", "addr:postcode": "75102", "addr:state": "TX", "addr:street_address": "103 HOUSTON ST", "amenity": "post_box", "collection_times": "Mo-Fr 12:00; Sa 09:00", "indoor": "yes", "nsi_id": "unitedstatespostalservice-a77078", "operator": "United States Postal Service", "operator:short": "USPS", "operator:type": "public", "operator:wikidata": "Q668687", "ref": "7510200772"}, "type": "Feature"}
{"geometry": {"coordinates": [-96.636476, 32.099437], "type": "Point"}, "id": "lcy1QGe7SkeQliO7kR4_5azLZxI=", "properties": {"@source_uri": "https://tools.usps.com/UspsToolsRestServices/rest/POLocator/findLocations", "@spider": "usps_collection_boxes", "addr:city": "BARRY", "addr:country": "US", "addr:postcode": "75102", "addr:state": "TX", "addr:street_address": "103 HOUSTON ST", "amenity": "post_box", "collection_times": "Mo-Fr 11:45; Sa 09:00", "nsi_id": "unitedstatespostalservice-a77078", "operator": "United States Postal Service", "operator:short": "USPS", "operator:type": "public", "operator:wikidata": "Q668687", "ref": "7510200773"}, "type": "Feature"}
{"geometry": {"coordinates": [-96.636486362, 32.099095037], "type": "Point"}, "id": "sqTY7VSM8fJNJtdRsqA2XCHTa8Q=", "properties": {"@source_uri": "https://tools.usps.com/UspsToolsRestServices/rest/POLocator/findLocations", "@spider": "usps_collection_boxes", "addr:city": "BARRY", "addr:country": "US", "addr:postcode": "75102", "addr:state": "TX", "addr:street_address": "103 HOUSTON ST", "amenity": "post_box", "collection_times": "Mo-Fr 11:45", "indoor": "yes", "nsi_id": "unitedstatespostalservice-a77078", "operator": "United States Postal Service", "operator:short": "USPS", "operator:type": "public", "operator:wikidata": "Q668687", "ref": "7510200775"}, "type": "Feature"}
{"geometry": {"coordinates": [-95.8627177, 32.556332], "type": "Point"}, "id": "a3kyDPDVTptGukaDcoYbgmzWj8I=", "properties": {"@source_uri": "https://tools.usps.com/UspsToolsRestServices/rest/POLocator/findLocations", "@spider": "usps_collection_boxes", "addr:city": "CANTON", "addr:country": "US", "addr:postcode": "75103", "addr:state": "TX", "addr:street_address": "121 E DALLAS ST", "amenity": "post_box", "collection_times": "Mo-Sa 12:00", "nsi_id": "unitedstatespostalservice-a77078", "operator": "United States Postal Service", "operator:short": "USPS", "operator:type": "public", "operator:wikidata": "Q668687", "ref": "7510300774"}, "type": "Feature"}
{"geometry": {"coordinates": [-95.864240013, 32.5454380096], "type": "Point"}, "id": "A1XhhHEX4jOSZQGPH5agFU68tQg=", "properties": {"@source_uri": "https://tools.usps.com/UspsToolsRestServices/rest/POLocator/findLocations", "@spider": "usps_collection_boxes", "addr:city": "CANTON", "addr:country": "US", "addr:postcode": "75103", "addr:state": "TX", "addr:street_address": "1215 S TRADE DAYS BLVD", "amenity": "post_box", "collection_times": "Mo-Sa 11:00", "nsi_id": "unitedstatespostalservice-a77078", "operator": "United States Postal Service", "operator:short": "USPS", "operator:type": "public", "operator:wikidata": "Q668687", "ref": "7510300775"}, "type": "Feature"}
{"geometry": {"coordinates": [-95.87445, 32.56219], "type": "Point"}, "id": "pdCowcqYF9_oZQPPXULWUy41Z60=", "properties": {"@source_uri": "https://tools.usps.com/UspsToolsRestServices/rest/POLocator/findLocations", "@spider": "usps_collection_boxes", "addr:city": "CANTON", "addr:country": "US", "addr:postcode": "75103", "addr:state": "TX", "addr:street_address": "1001 W DALLAS ST", "amenity": "post_box", "collection_times": "Mo-Fr 16:30; Sa 14:00", "note": "ON 12/24 AND 12/31, THIS BOX MAY BE COLLECTED AS EARLY AS 12 NOON.", "nsi_id": "unitedstatespostalservice-a77078", "operator": "United States Postal Service", "operator:short": "USPS", "operator:type": "public", "operator:wikidata": "Q668687", "ref": "7510300776"}, "type": "Feature"}
{"geometry": {"coordinates": [-95.87445, 32.56219], "type": "Point"}, "id": "DMdXCen3-fKY1vP61Czmziim2vQ=", "properties": {"@source_uri": "https://tools.usps.com/UspsToolsRestServices/rest/POLocator/findLocations", "@spider": "usps_collection_boxes", "addr:city": "CANTON", "addr:country": "US", "addr:postcode": "75103", "addr:state": "TX", "addr:street_address": "1001 W DALLAS ST", "amenity": "post_box", "collection_times": "Mo-Fr 16:30; Sa 14:00", "indoor": "yes", "note": "ON 12/24 AND 12/31, THIS BOX MAY BE COLLECTED AS EARLY AS 12 NOON.", "nsi_id": "unitedstatespostalservice-a77078", "operator": "United States Postal Service", "operator:short": "USPS", "operator:type": "public", "operator:wikidata": "Q668687", "ref": "7510306320"}, "type": "Feature"}
{"geometry": {"coordinates": [-95.87445, 32.56219], "type": "Point"}, "id": "D0ezYS0zKC2onvXtYn05ztI82B8=", "properties": {"@source_uri": "https://tools.usps.com/UspsToolsRestServices/rest/POLocator/findLocations", "@spider": "usps_collection_boxes", "addr:city": "CANTON", "addr:country": "US", "addr:postcode": "75103", "addr:state": "TX", "addr:street_address": "1001 W DALLAS ST", "amenity": "post_box", "collection_times": "Mo-Fr 16:30; Sa 14:00", "indoor": "yes", "note": "ON 12/24 AND 12/31, THIS BOX MAY BE COLLECTED AS EARLY AS 12 NOON.", "nsi_id": "unitedstatespostalservice-a77078", "operator": "United States Postal Service", "operator:short": "USPS", "operator:type": "public", "operator:wikidata": "Q668687", "ref": "7510306322"}, "type": "Feature"}
{"geometry": {"coordinates": [-95.873733413, 32.561387236], "type": "Point"}, "id": "RifAsMUiPjPmiKH-o2utnlzHdnA=", "properties": {"@source_uri": "https://tools.usps.com/UspsToolsRestServices/rest/POLocator/findLocations", "@spider": "usps_collection_boxes", "addr:city": "CANTON", "addr:country": "US", "addr:postcode": "75103", "addr:state": "TX", "addr:street_address": "1001 W DALLAS ST", "amenity": "post_box", "collection_times": "Mo-Fr 16:30", "indoor": "yes", "note": "ON 12/24 AND 12/31, THIS BOX MAY BE COLLECTED AS EARLY AS 12 NOON.", "nsi_id": "unitedstatespostalservice-a77078", "operator": "United States Postal Service", "operator:short": "USPS", "operator:type": "public", "operator:wikidata": "Q668687", "ref": "7510306328"}, "type": "Feature"}
{"geometry": {"coordinates": [-96.9403818, 32.581103], "type": "Point"}, "id": "1XqD1YIfwjujFpcrO81fk4BtJw8=", "properties": {"@source_uri": "https://tools.usps.com/UspsToolsRestServices/rest/POLocator/findLocations", "@spider": "usps_collection_boxes", "addr:city": "CEDAR HILL", "addr:country": "US", "addr:postcode": "75104", "addr:state": "TX", "addr:street_address": "200 WEAVER ST", "amenity": "post_box", "collection_times": "Mo-Sa 11:30", "nsi_id": "unitedstatespostalservice-a77078", "operator": "United States Postal Service", "operator:short": "USPS", "operator:type": "public", "operator:wikidata": "Q668687", "ref": "7510400778"}, "type": "Feature"}
{"geometry": {"coordinates": [-96.9557273, 32.588456], "type": "Point"}, "id": "yuxr0dVZaM2kZ3iwC5TIrshnVD0=", "properties": {"@source_uri": "https://tools.usps.com/UspsToolsRestServices/rest/POLocator/findLocations", "@spider": "usps_collection_boxes", "addr:city": "CEDAR HILL", "addr:country": "US", "addr:postcode": "75104", "addr:state": "TX", "addr:street_address": "200 S MAIN ST", "amenity": "post_box", "collection_times": "Mo-Sa 09:00", "nsi_id": "unitedstatespostalservice-a77078", "operator": "United States Postal Service", "operator:short": "USPS", "operator:type": "public", "operator:wikidata": "Q668687", "ref": "7510400781"}, "type": "Feature"}
{"geometry": {"coordinates": [-96.9442428, 32.589029], "type": "Point"}, "id": "SyF4hpbKEWvYoPikiuNAs0MTvjk=", "properties": {"@source_uri": "https://tools.usps.com/UspsToolsRestServices/rest/POLocator/findLocations", "@spider": "usps_collection_boxes", "addr:city": "CEDAR HILL", "addr:country": "US", "addr:postcode": "75104", "addr:state": "TX", "addr:street_address": "112 W BELT LINE RD", "amenity": "post_box", "collection_times": "Mo-Sa 13:00", "note": "ON 12/24 AND 12/31, THIS BOX MAY BE COLLECTED AS EARLY AS 12 NOON.", "nsi_id": "unitedstatespostalservice-a77078", "operator": "United States Postal Service", "operator:short": "USPS", "operator:type": "public", "operator:wikidata": "Q668687", "ref": "7510406515"}, "type": "Feature"}
{"geometry": {"coordinates": [-96.9345499, 32.591129], "type": "Point"}, "id": "gqE4he-qmRHoVhiPl07Xt048J7o=", "properties": {"@source_uri": "https://tools.usps.com/UspsToolsRestServices/rest/POLocator/findLocations", "@spider": "usps_collection_boxes", "addr:city": "CEDAR HILL", "addr:country": "US", "addr:postcode": "75104", "addr:state": "TX", "addr:street_address": "475 E FM 1382", "amenity": "post_box", "collection_times": "Mo-Fr 17:00; Sa 16:00", "indoor": "yes", "note": "ON 12/24 AND 12/31, THIS BOX MAY BE COLLECTED AS EARLY AS 12 NOON.", "nsi_id": "unitedstatespostalservice-a77078", "operator": "United States Postal Service", "operator:short": "USPS", "operator:type": "public", "operator:wikidata": "Q668687", "ref": "7510406521"}, "type": "Feature"}
{"geometry": {"coordinates": [-96.9345419, 32.591131], "type": "Point"}, "id": "iG7pl84iOmcGUCx3EgivRczrPfc=", "properties": {"@source_uri": "https://tools.usps.com/UspsToolsRestServices/rest/POLocator/findLocations", "@spider": "usps_collection_boxes", "addr:city": "CEDAR HILL", "addr:country": "US", "addr:postcode": "75104", "addr:state": "TX", "addr:street_address": "475 E FM 1382", "amenity": "post_box", "collection_times": "Mo-Fr 17:00; Sa 16:00", "indoor": "yes", "note": "ON 12/24 AND 12/31, THIS BOX MAY BE COLLECTED AS EARLY AS 12 NOON.", "nsi_id": "unitedstatespostalservice-a77078", "operator": "United States Postal Service", "operator:short": "USPS", "operator:type": "public", "operator:wikidata": "Q668687", "ref": "7510406522"}, "type": "Feature"}
{"geometry": {"coordinates": [-96.935192961, 32.590496837], "type": "Point"}, "id": "F6I_h18b82Z3GwWaSqVWZRm0DS8=", "properties": {"@source_uri": "https://tools.usps.com/UspsToolsRestServices/rest/POLocator/findLocations", "@spider": "usps_collection_boxes", "addr:city": "CEDAR HILL", "addr:country": "US", "addr:postcode": "75104", "addr:state": "TX", "addr:street_address": "475 E FM 1382", "amenity": "post_box", "collection_times": "Mo-Fr 17:00; Sa 12:00", "indoor": "yes", "note": "ON 12/24 AND 12/31, THIS BOX MAY BE COLLECTED AS EARLY AS 12 NOON.", "nsi_id": "unitedstatespostalservice-a77078", "operator": "United States Postal Service", "operator:short": "USPS", "operator:type": "public", "operator:wikidata": "Q668687", "ref": "7510406530"}, "type": "Feature"}
{"geometry": {"coordinates": [-96.412257, 32.240397], "type": "Point"}, "id": "N9OiBoNbCTBZgXAEjBDEiveEefk=", "properties": {"@source_uri": "https://tools.usps.com/UspsToolsRestServices/rest/POLocator/findLocations", "@spider": "usps_collection_boxes", "addr:city": "CHATFIELD", "addr:country": "US", "addr:postcode": "75105", "addr:state": "TX", "addr:street_address": "4857 FM 1603", "amenity": "post_box", "collection_times": "Mo-Sa 11:00", "indoor": "yes", "nsi_id": "unitedstatespostalservice-a77078", "operator": "United States Postal Service", "operator:short": "USPS", "operator:type": "public", "operator:wikidata": "Q668687", "ref": "7510500000"}, "type": "Feature"}
{"geometry": {"coordinates": [-96.412257, 32.240397], "type": "Point"}, "id": "uyuPuOpX96ExGHLa3gCt9obsfDM=", "properties": {"@source_uri": "https://tools.usps.com/UspsToolsRestServices/rest/POLocator/findLocations", "@spider": "usps_collection_boxes", "addr:city": "CHATFIELD", "addr:country": "US", "addr:postcode": "75105", "addr:state": "TX", "addr:street_address": "4857 FM 1603", "amenity": "post_box", "collection_times": "Mo-Sa 11:00", "nsi_id": "unitedstatespostalservice-a77078", "operator": "United States Postal Service", "operator:short": "USPS", "operator:type": "public", "operator:wikidata": "Q668687", "ref": "7510500001"}, "type": "Feature"}
{"geometry": {"coordinates": [-96.412247093, 32.240385961], "type": "Point"}, "id": "6TjO_ueh0ZTM5b7hh1v99P9g0_I=", "properties": {"@source_uri": "https://tools.usps.com/UspsToolsRestServices/rest/POLocator/findLocations", "@spider": "usps_collection_boxes", "addr:city": "CHATFIELD", "addr:country": "US", "addr:postcode": "75105", "addr:state": "TX", "addr:street_address": "4857 FM 1603", "amenity": "post_box", "collection_times": "Mo-Fr 12:00", "indoor": "yes", "nsi_id": "unitedstatespostalservice-a77078", "operator": "United States Postal Service", "operator:short": "USPS", "operator:type": "public", "operator:wikidata": "Q668687", "ref": "7510500003"}, "type": "Feature"}
{"geometry": {"coordinates": [-96.5009406, 32.081752], "type": "Point"}, "id": "R_CklpLJKFXaFNx7nJ52Q1tYbJ4=", "properties": {"@source_uri": "https://tools.usps.com/UspsToolsRestServices/rest/POLocator/findLocations", "@spider": "usps_collection_boxes", "addr:city": "CORSICANA", "addr:country": "US", "addr:postcode": "75110", "addr:state": "TX", "addr:street_address": "330 HOSPITAL DR", "amenity": "post_box", "collection_times": "Mo-Fr 16:00; Sa 09:00", "note": "ON 12/24 AND 12/31, THIS BOX MAY BE COLLECTED AS EARLY AS 12 NOON.", "nsi_id": "unitedstatespostalservice-a77078", "operator": "United States Postal Service", "operator:short": "USPS", "operator:type": "public", "operator:wikidata": "Q668687", "ref": "7511000784"}, "type": "Feature"}
{"geometry": {"coordinates": [-96.507496, 32.068536], "type": "Point"}, "id": "JWHGbWeB56ATge2kLjRXGLIQ5Z0=", "properties": {"@source_uri": "https://tools.usps.com/UspsToolsRestServices/rest/POLocator/findLocations", "@spider": "usps_collection_boxes", "addr:city": "CORSICANA", "addr:country": "US", "addr:postcode": "75110", "addr:state": "TX", "addr:street_address": "3811 W HIGHWAY 31", "amenity": "post_box", "collection_times": "Mo-Fr 16:00; Sa 09:30", "note": "ON 12/24 AND 12/31, THIS BOX MAY BE COLLECTED AS EARLY AS 12 NOON.", "nsi_id": "unitedstatespostalservice-a77078", "operator": "United States Postal Service", "operator:short": "USPS", "operator:type": "public", "operator:wikidata": "Q668687", "ref": "7511000785"}, "type": "Feature"}
{"geometry": {"coordinates": [-96.4647909703, 32.0922510103], "type": "Point"}, "id": "zVaeueEwpsYm-swhH3UhmnRsOBY=", "properties": {"@source_uri": "https://tools.usps.com/UspsToolsRestServices/rest/POLocator/findLocations", "@spider": "usps_collection_boxes", "addr:city": "CORSICANA", "addr:country": "US", "addr:postcode": "75110", "addr:state": "TX", "addr:street_address": "116 S MAIN ST", "amenity": "post_box", "collection_times": "Mo-Sa 17:00", "note": "ON 12/24 AND 12/31, THIS BOX MAY BE COLLECTED AS EARLY AS 12 NOON.", "nsi_id": "unitedstatespostalservice-a77078", "operator": "United States Postal Service", "operator:short": "USPS", "operator:type": "public", "operator:wikidata": "Q668687", "ref": "7511000788"}, "type": "Feature"}
{"geometry": {"coordinates": [-96.4789634, 32.090735], "type": "Point"}, "id": "50PWDtmu7iIilyeT78cBqE4zzjU=", "properties": {"@source_uri": "https://tools.usps.com/UspsToolsRestServices/rest/POLocator/findLocations", "@spider": "usps_collection_boxes", "addr:city": "CORSICANA", "addr:country": "US", "addr:postcode": "75110", "addr:state": "TX", "addr:street_address": "1321 W 2ND AVE", "amenity": "post_box", "collection_times": "Mo-Fr 16:30; Sa 14:30", "note": "ON 12/24 AND 12/31, THIS BOX MAY BE COLLECTED AS EARLY AS 12 NOON.", "nsi_id": "unitedstatespostalservice-a77078", "operator": "United States Postal Service", "operator:short": "USPS", "operator:type": "public", "operator:wikidata": "Q668687", "ref": "7511000789"}, "type": "Feature"}
{"geometry": {"coordinates": [-96.477879983, 32.084990019], "type": "Point"}, "id": "U3OnZcwHZ6RxOYC-S1WgwCFxJnw=", "properties": {"@source_uri": "https://tools.usps.com/UspsToolsRestServices/rest/POLocator/findLocations", "@spider": "usps_collection_boxes", "addr:city": "CORSICANA", "addr:country": "US", "addr:postcode": "75110", "addr:state": "TX", "addr:street_address": "1440 W 7TH AVE", "amenity": "post_box", "collection_times": "Mo-Fr 16:00; Sa 14:30", "note": "ON 12/24 AND 12/31, THIS BOX MAY BE COLLECTED AS EARLY AS 12 NOON.", "nsi_id": "unitedstatespostalservice-a77078", "operator": "United States Postal Service", "operator:short": "USPS", "operator:type": "public", "operator:wikidata": "Q668687", "ref": "7511000791"}, "type": "Feature"}
{"geometry": {"coordinates": [-96.4644172, 32.094471], "type": "Point"}, "id": "MYiWEI-eG9PVE5vN5fIe-qDF5wQ=", "properties": {"@source_uri": "https://tools.usps.com/UspsToolsRestServices/rest/POLocator/findLocations", "@spider": "usps_collection_boxes", "addr:city": "CORSICANA", "addr:country": "US", "addr:postcode": "75110", "addr:state": "TX", "addr:street_address": "200 N BEATON ST", "amenity": "post_box", "collection_times": "Mo-Fr 16:30; Sa 14:30", "note": "ON 12/24 AND 12/31, THIS BOX MAY BE COLLECTED AS EARLY AS 12 NOON.", "nsi_id": "unitedstatespostalservice-a77078", "operator": "United States Postal Service", "operator:short": "USPS", "operator:type": "public", "operator:wikidata": "Q668687", "ref": "7511000792"}, "type": "Feature"}
{"geometry": {"coordinates": [-96.4655979, 32.092126], "type": "Point"}, "id": "o9ZxQmM_meieSNfZqDh7QcmqESM=", "properties": {"@source_uri": "https://tools.usps.com/UspsToolsRestServices/rest/POLocator/findLocations", "@spider": "usps_collection_boxes", "addr:city": "CORSICANA", "addr:country": "US", "addr:postcode": "75110", "addr:state": "TX", "addr:street_address": "116 S MAIN ST", "amenity": "post_box", "collection_times": "Mo-Sa 17:00", "note": "ON 12/24 AND 12/31, THIS BOX MAY BE COLLECTED AS EARLY AS 12 NOON.", "nsi_id": "unitedstatespostalservice-a77078", "operator": "United States Postal Service", "operator:short": "USPS", "operator:type": "public", "operator:wikidata": "Q668687", "ref": "7511005096"}, "type": "Feature"}
{"geometry": {"coordinates": [-96.4691759, 32.099483], "type": "Point"}, "id": "48uy3158p2eQpt2aBOF3H-ux79M=", "properties": {"@source_uri": "https://tools.usps.com/UspsToolsRestServices/rest/POLocator/findLocations", "@spider": "usps_collection_boxes", "addr:city": "CORSICANA", "addr:country": "US", "addr:postcode": "75110", "addr:state": "TX", "addr:street_address": "725 N MAIN ST", "amenity": "post_box", "collection_times": "Mo-Fr 16:30; Sa 14:00", "note": "ON 12/24 AND 12/31, THIS BOX MAY BE COLLECTED AS EARLY AS 12 NOON.", "nsi_id": "unitedstatespostalservice-a77078", "operator": "United States Postal Service", "operator:short": "USPS", "operator:type": "public", "operator:wikidata": "Q668687", "ref": "7511007293"}, "type": "Feature"}
{"geometry": {"coordinates": [-96.4537149, 32.09663], "type": "Point"}, "id": "dNU5zUK70kYPk9bd5B22F2p_5k8=", "properties": {"@source_uri": "https://tools.usps.com/UspsToolsRestServices/rest/POLocator/findLocations", "@spider": "usps_collection_boxes", "addr:city": "CORSICANA", "addr:country": "US", "addr:postcode": "75110", "addr:state": "TX", "addr:street_address": "1100 E 7TH AVE", "amenity": "post_box", "collection_times": "Mo-Fr 16:00; Sa 10:00", "note": "ON 12/24 AND 12/31, THIS BOX MAY BE COLLECTED AS EARLY AS 12 NOON.", "nsi_id": "unitedstatespostalservice-a77078", "operator": "United States Postal Service", "operator:short": "USPS", "operator:type": "public", "operator:wikidata": "Q668687", "ref": "7511007294"}, "type": "Feature"}
{"geometry": {"coordinates": [-96.4974252, 32.076844], "type": "Point"}, "id": "IwV2T5ESV0laDtMOAbPYEmtB_Fc=", "properties": {"@source_uri": "https://tools.usps.com/UspsToolsRestServices/rest/POLocator/findLocations", "@spider": "usps_collection_boxes", "addr:city": "CORSICANA", "addr:country": "US", "addr:postcode": "75110", "addr:state": "TX", "addr:street_address": "101 S 41ST ST", "amenity": "post_box", "collection_times": "Mo-Fr 16:00; Sa 12:30", "note": "ON 12/24 AND 12/31, THIS BOX MAY BE COLLECTED AS EARLY AS 12 NOON.", "nsi_id": "unitedstatespostalservice-a77078", "operator": "United States Postal Service", "operator:short": "USPS", "operator:type": "public", "operator:wikidata": "Q668687", "ref": "7511007295"}, "type": "Feature"}
{"geometry": {"coordinates": [-96.46486, 32.09281], "type": "Point"}, "id": "5IB3pJCeTyXlAp2GMrWQDyR8FZw=", "properties": {"@source_uri": "https://tools.usps.com/UspsToolsRestServices/rest/POLocator/findLocations", "@spider": "usps_collection_boxes", "addr:city": "CORSICANA", "addr:country": "US", "addr:postcode": "75110", "addr:state": "TX", "addr:street_address": "116 S MAIN ST", "amenity": "post_box", "collection_times": "Mo-Sa 17:00", "indoor": "yes", "note": "ON 12/24 AND 12/31, THIS BOX MAY BE COLLECTED AS EARLY AS 12 NOON.", "nsi_id": "unitedstatespostalservice-a77078", "operator": "United States Postal Service", "operator:short": "USPS", "operator:type": "public", "operator:wikidata": "Q668687", "ref": "7511007296"}, "type": "Feature"}
{"geometry": {"coordinates": [-96.46486, 32.09281], "type": "Point"}, "id": "BQDpJnuKp_XG3dhye7CcF4sjwgQ=", "properties": {"@source_uri": "https://tools.usps.com/UspsToolsRestServices/rest/POLocator/findLocations", "@spider": "usps_collection_boxes", "addr:city": "CORSICANA", "addr:country": "US", "addr:postcode": "75110", "addr:state": "TX", "addr:street_address": "116 S MAIN ST", "amenity": "post_box", "collection_times": "Mo-Sa 17:00", "indoor": "yes", "note": "ON 12/24 AND 12/31, THIS BOX MAY BE COLLECTED AS EARLY AS 12 NOON.", "nsi_id": "unitedstatespostalservice-a77078", "operator": "United States Postal Service", "operator:short": "USPS", "operator:type": "public", "operator:wikidata": "Q668687", "ref": "7511007299"}, "type": "Feature"}
{"geometry": {"coordinates": [-96.464509267, 32.09245174], "type": "Point"}, "id": "PBBKbWXroZMI77OlDPd5oZbqHEY=", "properties": {"@source_uri": "https://tools.usps.com/UspsToolsRestServices/rest/POLocator/findLocations", "@spider": "usps_collection_boxes", "addr:city": "CORSICANA", "addr:country": "US", "addr:postcode": "75110", "addr:state": "TX", "addr:street_address": "116 S MAIN ST", "amenity": "post_box", "collection_times": "Mo-Fr 17:00; Sa 12:00", "indoor": "yes", "note": "ON 12/24 AND 12/31, THIS BOX MAY BE COLLECTED AS EARLY AS 12 NOON.", "nsi_id": "unitedstatespostalservice-a77078", "operator": "United States Postal Service", "operator:short": "USPS", "operator:type": "public", "operator:wikidata": "Q668687", "ref": "7511007303"}, "type": "Feature"}
{"geometry": {"coordinates": [-96.4701758, 32.0882414], "type": "Point"}, "id": "GLgoC_ZSaLeQisIBW17t4c_Mf-o=", "properties": {"@source_uri": "https://tools.usps.com/UspsToolsRestServices/rest/POLocator/findLocations", "@spider": "usps_collection_boxes", "addr:city": "CORSICANA", "addr:country": "US", "addr:postcode": "75110", "addr:state": "TX", "addr:street_address": "300 W 3RD AVE", "amenity": "post_box", "collection_times": "Mo-Fr 16:30; Sa 11:00", "note": "ON 12/24 AND 12/31, THIS BOX MAY BE COLLECTED AS EARLY AS 12 NOON.", "nsi_id": "unitedstatespostalservice-a77078", "operator": "United States Postal Service", "operator:short": "USPS", "operator:type": "public", "operator:wikidata": "Q668687", "ref": "7511007306"}, "type": "Feature"}
{"geometry": {"coordinates": [-96.455847, 32.627851], "type": "Point"}, "id": "fBTUd13YyjR1h72jk9cipMg3iLY=", "properties": {"@source_uri": "https://tools.usps.com/UspsToolsRestServices/rest/POLocator/findLocations", "@spider": "usps_collection_boxes", "addr:city": "CRANDALL", "addr:country": "US", "addr:postcode": "75114", "addr:state": "TX", "addr:street_address": "123 S MAIN ST", "amenity": "post_box", "collection_times": "Mo-Fr 16:00; Sa 09:30", "note": "ON 12/24 AND 12/31, THIS BOX MAY BE COLLECTED AS EARLY AS 12 NOON.", "nsi_id": "unitedstatespostalservice-a77078", "operator": "United States Postal Service", "operator:short": "USPS", "operator:type": "public", "operator:wikidata": "Q668687", "ref": "7511400796"}, "type": "Feature"}
{"geometry": {"coordinates": [-96.455847, 32.627851], "type": "Point"}, "id": "Yp7Uij5zfIu_m6ifyFZWYcw7aKk=", "properties": {"@source_uri": "https://tools.usps.com/UspsToolsRestServices/rest/POLocator/findLocations", "@spider": "usps_collection_boxes", "addr:city": "CRANDALL", "addr:country": "US", "addr:postcode": "75114", "addr:state": "TX", "addr:street_address": "123 S MAIN ST", "amenity": "post_box", "collection_times": "Mo-Fr 16:30; Sa 09:30", "indoor": "yes", "note": "ON 12/24 AND 12/31, THIS BOX MAY BE COLLECTED AS EARLY AS 12 NOON.", "nsi_id": "unitedstatespostalservice-a77078", "operator": "United States Postal Service", "operator:short": "USPS", "operator:type": "public", "operator:wikidata": "Q668687", "ref": "7511400797"}, "type": "Feature"}
{"geometry": {"coordinates": [-96.455829878, 32.6278661], "type": "Point"}, "id": "AMheHg0RDEf80rC8vhC9DgqC7Kc=", "properties": {"@source_uri": "https://tools.usps.com/UspsToolsRestServices/rest/POLocator/findLocations", "@spider": "usps_collection_boxes", "addr:city": "CRANDALL", "addr:country": "US", "addr:postcode": "75114", "addr:state": "TX", "addr:street_address": "123 S MAIN ST", "amenity": "post_box", "collection_times": "Mo-Fr 16:30", "indoor": "yes", "note": "ON 12/24 AND 12/31, THIS BOX MAY BE COLLECTED AS EARLY AS 12 NOON.", "nsi_id": "unitedstatespostalservice-a77078", "operator": "United States Postal Service", "operator:short": "USPS", "operator:type": "public", "operator:wikidata": "Q668687", "ref": "7511400799"}, "type": "Feature"}
{"geometry": {"coordinates": [-96.8581935, 32.622315], "type": "Point"}, "id": "C5wEbAOzdITfAz1lOAwvRSgx3v4=", "properties": {"@source_uri": "https://tools.usps.com/UspsToolsRestServices/rest/POLocator/findLocations", "@spider": "usps_collection_boxes", "addr:city": "DESOTO", "addr:country": "US", "addr:postcode": "75115", "addr:state": "TX", "addr:street_address": "123 EXECUTIVE WAY", "amenity": "post_box", "collection_times": "Mo-Sa 09:30", "nsi_id": "unitedstatespostalservice-a77078", "operator": "United States Postal Service", "operator:short": "USPS", "operator:type": "public", "operator:wikidata": "Q668687", "ref": "7511500797"}, "type": "Feature"}
{"geometry": {"coordinates": [-96.8497388, 32.622483], "type": "Point"}, "id": "B0x9ocmVC5391HGOsmozlZGd02s=", "properties": {"@source_uri": "https://tools.usps.com/UspsToolsRestServices/rest/POLocator/findLocations", "@spider": "usps_collection_boxes", "addr:city": "DESOTO", "addr:country": "US", "addr:postcode": "75115", "addr:state": "TX", "addr:street_address": "1600 OSPREY DR", "amenity": "post_box", "collection_times": "Mo-Sa 09:30", "nsi_id": "unitedstatespostalservice-a77078", "operator": "United States Postal Service", "operator:short": "USPS", "operator:type": "public", "operator:wikidata": "Q668687", "ref": "7511500798"}, "type": "Feature"}
{"geometry": {"coordinates": [-96.85711, 32.586598], "type": "Point"}, "id": "t539zOEkc3mKxKsdV6m2GO9P6AY=", "properties": {"@source_uri": "https://tools.usps.com/UspsToolsRestServices/rest/POLocator/findLocations", "@spider": "usps_collection_boxes", "addr:city": "DESOTO", "addr:country": "US", "addr:postcode": "75115", "addr:state": "TX", "addr:street_address": "229 S HAMPTON RD", "amenity": "post_box", "collection_times": "Mo-Sa 17:00", "indoor": "yes", "note": "ON 12/24 AND 12/31, THIS BOX MAY BE COLLECTED AS EARLY AS 12 NOON.", "nsi_id": "unitedstatespostalservice-a77078", "operator": "United States Postal Service", "operator:short": "USPS", "operator:type": "public", "operator:wikidata": "Q668687", "ref": "7511500799"}, "type": "Feature"}
{"geometry": {"coordinates": [-96.8519456, 32.589521], "type": "Point"}, "id": "TvNuMnEr82VcqnX3t7vBdeyjOko=", "properties": {"@source_uri": "https://tools.usps.com/UspsToolsRestServices/rest/POLocator/findLocations", "@spider": "usps_collection_boxes", "addr:city": "DESOTO", "addr:country": "US", "addr:postcode": "75115", "addr:state": "TX", "addr:street_address": "300 E BELT LINE RD", "amenity": "post_box", "collection_times": "Mo-Sa 08:30", "nsi_id": "unitedstatespostalservice-a77078", "operator": "United States Postal Service", "operator:short": "USPS", "operator:type": "public", "operator:wikidata": "Q668687", "ref": "7511500801"}, "type": "Feature"}
{"geometry": {"coordinates": [-96.8540362, 32.605166], "type": "Point"}, "id": "744Jh4NhElmogMsn3P2NP7EZiso=", "properties": {"@source_uri": "https://tools.usps.com/UspsToolsRestServices/rest/POLocator/findLocations", "@spider": "usps_collection_boxes", "addr:city": "DESOTO", "addr:country": "US", "addr:postcode": "75115", "addr:state": "TX", "addr:street_address": "211 E PLEASANT RUN RD", "amenity": "post_box", "collection_times": "Mo-Sa 10:00", "nsi_id": "unitedstatespostalservice-a77078", "operator": "United States Postal Service", "operator:short": "USPS", "operator:type": "public", "operator:wikidata": "Q668687", "ref": "7511506570"}, "type": "Feature"}
{"geometry": {"coordinates": [-96.8561228, 32.601074], "type": "Point"}, "id": "1cNfGCqF8IW0AU_sfsCOxW81Ses=", "properties": {"@source_uri": "https://tools.usps.com/UspsToolsRestServices/rest/POLocator/findLocations", "@spider": "usps_collection_boxes", "addr:city": "DESOTO", "addr:country": "US", "addr:postcode": "75115", "addr:state": "TX", "addr:street_address": "712 N HAMPTON RD", "amenity": "post_box", "collection_times": "Mo-Sa 09:00", "nsi_id": "unitedstatespostalservice-a77078", "operator": "United States Postal Service", "operator:short": "USPS", "operator:type": "public", "operator:wikidata": "Q668687", "ref": "7511506626"}, "type": "Feature"}
{"geometry": {"coordinates": [-96.8392444, 32.589846], "type": "Point"}, "id": "0wZYKuaIt7ibydVZJu4N_ZIhELY=", "properties": {"@source_uri": "https://tools.usps.com/UspsToolsRestServices/rest/POLocator/findLocations", "@spider": "usps_collection_boxes", "addr:city": "DESOTO", "addr:country": "US", "addr:postcode": "75115", "addr:state": "TX", "addr:street_address": "757 E BELT LINE RD", "amenity": "post_box", "collection_times": "Mo-Fr 15:00; Sa 13:30", "note": "ON 12/24 AND 12/31, THIS BOX MAY BE COLLECTED AS EARLY AS 12 NOON.", "nsi_id": "unitedstatespostalservice-a77078", "operator": "United States Postal Service", "operator:short": "USPS", "operator:type": "public", "operator:wikidata": "Q668687", "ref": "7511506627"}, "type": "Feature"}
{"geometry": {"coordinates": [-96.8515849, 32.618303], "type": "Point"}, "id": "p76IaXtbHmind_wH5vsk8vbnfr4=", "properties": {"@source_uri": "https://tools.usps.com/UspsToolsRestServices/rest/POLocator/findLocations", "@spider": "usps_collection_boxes", "addr:city": "DESOTO", "addr:country": "US", "addr:postcode": "75115", "addr:state": "TX", "addr:street_address": "320 E WINTERGREEN RD", "amenity": "post_box", "collection_times": "Mo-Sa 12:45", "note": "ON 12/24 AND 12/31, THIS BOX MAY BE COLLECTED AS EARLY AS 12 NOON.", "nsi_id": "unitedstatespostalservice-a77078", "operator": "United States Postal Service", "operator:short": "USPS", "operator:type": "public", "operator:wikidata": "Q668687", "ref": "7511506628"}, "type": "Feature"}
{"geometry": {"coordinates": [-96.8251955, 32.606764], "type": "Point"}, "id": "EpYSZcaFTesC-h9qG8LzGeIzi-A=", "properties": {"@source_uri": "https://tools.usps.com/UspsToolsRestServices/rest/POLocator/findLocations", "@spider": "usps_collection_boxes", "addr:city": "DESOTO", "addr:country": "US", "addr:postcode": "75115", "addr:state": "TX", "addr:street_address": "1001 N I 35 E STE 500", "amenity": "post_box", "collection_times": "Mo-Sa 09:30", "nsi_id": "unitedstatespostalservice-a77078", "operator": "United States Postal Service", "operator:short": "USPS", "operator:type": "public", "operator:wikidata": "Q668687", "ref": "7511506630"}, "type": "Feature"}
{"geometry": {"coordinates": [-96.8402426, 32.605117], "type": "Point"}, "id": "9DrDIS4Ashqqf4p0MpScHUDmYtc=", "properties": {"@source_uri": "https://tools.usps.com/UspsToolsRestServices/rest/POLocator/findLocations", "@spider": "usps_collection_boxes", "addr:city": "DESOTO", "addr:country": "US", "addr:postcode": "75115", "addr:state": "TX", "addr:street_address": "900 N POLK ST", "amenity": "post_box", "collection_times": "Mo-Fr 15:00; Sa 13:30", "note": "ON 12/24 AND 12/31, THIS BOX MAY BE COLLECTED AS EARLY AS 12 NOON.", "nsi_id": "unitedstatespostalservice-a77078", "operator": "United States Postal Service", "operator:short": "USPS", "operator:type": "public", "operator:wikidata": "Q668687", "ref": "7511506631"}, "type": "Feature"}
{"geometry": {"coordinates": [-96.8418016, 32.605734], "type": "Point"}, "id": "f_It-PErF3bYETG2j8WrawiqMr8=", "properties": {"@source_uri": "https://tools.usps.com/UspsToolsRestServices/rest/POLocator/findLocations", "@spider": "usps_collection_boxes", "addr:city": "DESOTO", "addr:country": "US", "addr:postcode": "75115", "addr:state": "TX", "addr:street_address": "901 N POLK ST", "amenity": "post_box", "collection_times": "Mo-Fr 15:00; Sa 13:30", "note": "ON 12/24 AND 12/31, THIS BOX MAY BE COLLECTED AS EARLY AS 12 NOON.", "nsi_id": "unitedstatespostalservice-a77078", "operator": "United States Postal Service", "operator:short": "USPS", "operator:type": "public", "operator:wikidata": "Q668687", "ref": "7511506632"}, "type": "Feature"}
{"geometry": {"coordinates": [-96.8917068, 32.588779], "type": "Point"}, "id": "zg6s9ysOGpPw6uHWSKbGvk0IyjY=", "properties": {"@source_uri": "https://tools.usps.com/UspsToolsRestServices/rest/POLocator/findLocations", "@spider": "usps_collection_boxes", "addr:city": "DESOTO", "addr:country": "US", "addr:postcode": "75115", "addr:state": "TX", "addr:street_address": "1300 W BELT LINE RD", "amenity": "post_box", "collection_times": "Mo-Sa 10:45", "nsi_id": "unitedstatespostalservice-a77078", "operator": "United States Postal Service", "operator:short": "USPS", "operator:type": "public", "operator:wikidata": "Q668687", "ref": "7511506633"}, "type": "Feature"}
{"geometry": {"coordinates": [-96.8520094, 32.620219], "type": "Point"}, "id": "qYfxyDMFkWvRIcwG1oZGHUKUn7E=", "properties": {"@source_uri": "https://tools.usps.com/UspsToolsRestServices/rest/POLocator/findLocations", "@spider": "usps_collection_boxes", "addr:city": "DESOTO", "addr:country": "US", "addr:postcode": "75115", "addr:state": "TX", "addr:street_address": "1509 FALCON DR", "amenity": "post_box", "collection_times": "Mo-Sa 09:30", "nsi_id": "unitedstatespostalservice-a77078", "operator": "United States Postal Service", "operator:short": "USPS", "operator:type": "public", "operator:wikidata": "Q668687", "ref": "7511506635"}, "type": "Feature"}
{"geometry": {"coordinates": [-96.8568889, 32.618989], "type": "Point"}, "id": "6PkK0Cm0D_fAuEWKHaM3vy3OEi4=", "properties": {"@source_uri": "https://tools.usps.com/UspsToolsRestServices/rest/POLocator/findLocations", "@spider": "usps_collection_boxes", "addr:city": "DESOTO", "addr:country": "US", "addr:postcode": "75115", "addr:state": "TX", "addr:street_address": "1500 N HAMPTON RD", "amenity": "post_box", "collection_times": "Mo-Sa 09:15", "nsi_id": "unitedstatespostalservice-a77078", "operator": "United States Postal Service", "operator:short": "USPS", "operator:type": "public", "operator:wikidata": "Q668687", "ref": "7511506636"}, "type": "Feature"}
{"geometry": {"coordinates": [-96.8568555, 32.623363], "type": "Point"}, "id": "ukvLOC0qmhu6gB4gxhMaVtXEVqo=", "properties": {"@source_uri": "https://tools.usps.com/UspsToolsRestServices/rest/POLocator/findLocations", "@spider": "usps_collection_boxes", "addr:city": "DESOTO", "addr:country": "US", "addr:postcode": "75115", "addr:state": "TX", "addr:street_address": "1700 N HAMPTON RD", "amenity": "post_box", "collection_times": "Mo-Sa 09:45", "nsi_id": "unitedstatespostalservice-a77078", "operator": "United States Postal Service", "operator:short": "USPS", "operator:type": "public", "operator:wikidata": "Q668687", "ref": "7511506637"}, "type": "Feature"}
{"geometry": {"coordinates": [-96.8787621, 32.645438], "type": "Point"}, "id": "sC8jgZLeIKR5OXsNtQz3-V_b-gw=", "properties": {"@source_uri": "https://tools.usps.com/UspsToolsRestServices/rest/POLocator/findLocations", "@spider": "usps_collection_boxes", "addr:city": "DESOTO", "addr:country": "US", "addr:postcode": "75115", "addr:state": "TX", "addr:street_address": "2727 BOLTON BOONE DR", "amenity": "post_box", "collection_times": "Mo-Sa 09:30", "nsi_id": "unitedstatespostalservice-a77078", "operator": "United States Postal Service", "operator:short": "USPS", "operator:type": "public", "operator:wikidata": "Q668687", "ref": "7511506638"}, "type": "Feature"}
{"geometry": {"coordinates": [-96.8575222, 32.60491], "type": "Point"}, "id": "Uh_o5b4Sn_nuDbRLD3mmXf9HwCs=", "properties": {"@source_uri": "https://tools.usps.com/UspsToolsRestServices/rest/POLocator/findLocations", "@spider": "usps_collection_boxes", "addr:city": "DESOTO", "addr:country": "US", "addr:postcode": "75115", "addr:state": "TX", "addr:street_address": "911 N HAMPTON RD", "amenity": "post_box", "collection_times": "Mo-Sa 10:00", "nsi_id": "unitedstatespostalservice-a77078", "operator": "United States Postal Service", "operator:short": "USPS", "operator:type": "public", "operator:wikidata": "Q668687", "ref": "7511506639"}, "type": "Feature"}
{"geometry": {"coordinates": [-96.857457, 32.601778], "type": "Point"}, "id": "N2hbckGx34UjD_WbhSEjVF2bC80=", "properties": {"@source_uri": "https://tools.usps.com/UspsToolsRestServices/rest/POLocator/findLocations", "@spider": "usps_collection_boxes", "addr:city": "DESOTO", "addr:country": "US", "addr:postcode": "75115", "addr:state": "TX", "addr:street_address": "719 N HAMPTON RD", "amenity": "post_box", "collection_times": "Mo-Sa 09:30", "nsi_id": "unitedstatespostalservice-a77078", "operator": "United States Postal Service", "operator:short": "USPS", "operator:type": "public", "operator:wikidata": "Q668687", "ref": "7511506640"}, "type": "Feature"}
{"geometry": {"coordinates": [-96.85711, 32.586598], "type": "Point"}, "id": "9JAFP9PZMS-5lA_8M5BbzDHq_VA=", "properties": {"@source_uri": "https://tools.usps.com/UspsToolsRestServices/rest/POLocator/findLocations", "@spider": "usps_collection_boxes", "addr:city": "DESOTO", "addr:country": "US", "addr:postcode": "75115", "addr:state": "TX", "addr:street_address": "229 S HAMPTON RD", "amenity": "post_box", "collection_times": "Mo-Sa 17:00", "indoor": "yes", "note": "ON 12/24 AND 12/31, THIS BOX MAY BE COLLECTED AS EARLY AS 12 NOON.", "nsi_id": "unitedstatespostalservice-a77078", "operator": "United States Postal Service", "operator:short": "USPS", "operator:type": "public", "operator:wikidata": "Q668687", "ref": "7511506645"}, "type": "Feature"}
{"geometry": {"coordinates": [-96.85711, 32.586598], "type": "Point"}, "id": "q0hq09lBP6eJDcgC0r3prlNWg14=", "properties": {"@source_uri": "https://tools.usps.com/UspsToolsRestServices/rest/POLocator/findLocations", "@spider": "usps_collection_boxes", "addr:city": "DESOTO", "addr:country": "US", "addr:postcode": "75115", "addr:state": "TX", "addr:street_address": "229 S HAMPTON RD", "amenity": "post_box", "collection_times": "Mo-Sa 17:00", "name": "USPS COLLECTION BOX - APC", "note": "ON 12/24 AND 12/31, THIS BOX MAY BE COLLECTED AS EARLY AS 12 NOON.", "nsi_id": "unitedstatespostalservice-a77078", "operator": "United States Postal Service", "operator:short": "USPS", "operator:type": "public", "operator:wikidata": "Q668687", "ref": "7511506646"}, "type": "Feature"}
{"geometry": {"coordinates": [-96.857131115, 32.586752779], "type": "Point"}, "id": "KH6_O4e2rxd0vUbSvUhzwhJJfV8=", "properties": {"@source_uri": "https://tools.usps.com/UspsToolsRestServices/rest/POLocator/findLocations", "@spider": "usps_collection_boxes", "addr:city": "DESOTO", "addr:country": "US", "addr:postcode": "75115", "addr:state": "TX", "addr:street_address": "229 S HAMPTON RD", "amenity": "post_box", "collection_times": "Mo-Fr 17:00; Sa 12:00", "indoor": "yes", "note": "ON 12/24 AND 12/31, THIS BOX MAY BE COLLECTED AS EARLY AS 12 NOON.", "nsi_id": "unitedstatespostalservice-a77078", "operator": "United States Postal Service", "operator:short": "USPS", "operator:type": "public", "operator:wikidata": "Q668687", "ref": "7511506650"}, "type": "Feature"}
{"geometry": {"coordinates": [-96.9090706, 32.649118], "type": "Point"}, "id": "pMQJvomkcScP8cXZKj8Kl_-txhg=", "properties": {"@source_uri": "https://tools.usps.com/UspsToolsRestServices/rest/POLocator/findLocations", "@spider": "usps_collection_boxes", "addr:city": "DUNCANVILLE", "addr:country": "US", "addr:postcode": "75116", "addr:state": "TX", "addr:street_address": "100 W DANIELS ST", "amenity": "post_box", "collection_times": "Mo-Fr 15:00", "note": "ON 12/24 AND 12/31, THIS BOX MAY BE COLLECTED AS EARLY AS 12 NOON.", "nsi_id": "unitedstatespostalservice-a77078", "operator": "United States Postal Service", "operator:short": "USPS", "operator:type": "public", "operator:wikidata": "Q668687", "ref": "7511600000"}, "type": "Feature"}
{"geometry": {"coordinates": [-96.9017329, 32.661518], "type": "Point"}, "id": "I9_4Uj14fe4ca7dmwLLA1lfzx-w=", "properties": {"@source_uri": "https://tools.usps.com/UspsToolsRestServices/rest/POLocator/findLocations", "@spider": "usps_collection_boxes", "addr:city": "DUNCANVILLE", "addr:country": "US", "addr:postcode": "75116", "addr:state": "TX", "addr:street_address": "410 E CAMP WISDOM RD", "amenity": "post_box", "collection_times": "Mo-Fr 15:00; Sa 13:30", "note": "ON 12/24 AND 12/31, THIS BOX MAY BE COLLECTED AS EARLY AS 12 NOON.", "nsi_id": "unitedstatespostalservice-a77078", "operator": "United States Postal Service", "operator:short": "USPS", "operator:type": "public", "operator:wikidata": "Q668687", "ref": "7511600003"}, "type": "Feature"}
{"geometry": {"coordinates": [-96.9093904, 32.661087], "type": "Point"}, "id": "yi-ER-jFXY-Wk7MB68Ijv6vH5g4=", "properties": {"@source_uri": "https://tools.usps.com/UspsToolsRestServices/rest/POLocator/findLocations", "@spider": "usps_collection_boxes", "addr:city": "DUNCANVILLE", "addr:country": "US", "addr:postcode": "75116", "addr:state": "TX", "addr:street_address": "222 W CAMP WISDOM RD", "amenity": "post_box", "collection_times": "Mo-Fr 15:00; Sa 13:30", "note": "ON 12/24 AND 12/31, THIS BOX MAY BE COLLECTED AS EARLY AS 12 NOON.", "nsi_id": "unitedstatespostalservice-a77078", "operator": "United States Postal Service", "operator:short": "USPS", "operator:type": "public", "operator:wikidata": "Q668687", "ref": "7511600005"}, "type": "Feature"}
{"geometry": {"coordinates": [-96.9261214, 32.657193], "type": "Point"}, "id": "xNB1Fi3gPna2FqLfhMNEKB9lScM=", "properties": {"@source_uri": "https://tools.usps.com/UspsToolsRestServices/rest/POLocator/findLocations", "@spider": "usps_collection_boxes", "addr:city": "DUNCANVILLE", "addr:country": "US", "addr:postcode": "75116", "addr:state": "TX", "addr:street_address": "515 N CEDAR RIDGE DR", "amenity": "post_box", "collection_times": "Mo-Fr 15:00; Sa 13:00", "note": "ON 12/24 AND 12/31, THIS BOX MAY BE COLLECTED AS EARLY AS 12 NOON.", "nsi_id": "unitedstatespostalservice-a77078", "operator": "United States Postal Service", "operator:short": "USPS", "operator:type": "public", "operator:wikidata": "Q668687", "ref": "7511600007"}, "type": "Feature"}
{"geometry": {"coordinates": [-96.9141137879, 32.6620586233], "type": "Point"}, "id": "H_JIQgk7hrFV4aykXpThyqcIru0=", "properties": {"@source_uri": "https://tools.usps.com/UspsToolsRestServices/rest/POLocator/findLocations", "@spider": "usps_collection_boxes", "addr:city": "DUNCANVILLE", "addr:country": "US", "addr:postcode": "75116", "addr:state": "TX", "addr:street_address": "801 LINK DR", "amenity": "post_box", "collection_times": "Mo-Fr 15:00", "note": "ON 12/24 AND 12/31, THIS BOX MAY BE COLLECTED AS EARLY AS 12 NOON.", "nsi_id": "unitedstatespostalservice-a77078", "operator": "United States Postal Service", "operator:short": "USPS", "operator:type": "public", "operator:wikidata": "Q668687", "ref": "7511600010"}, "type": "Feature"}
{"geometry": {"coordinates": [-96.9074879, 32.656895], "type": "Point"}, "id": "dEzZBeSFCC8ePVRd2fqFLunMKoc=", "properties": {"@source_uri": "https://tools.usps.com/UspsToolsRestServices/rest/POLocator/findLocations", "@spider": "usps_collection_boxes", "addr:city": "DUNCANVILLE", "addr:country": "US", "addr:postcode": "75116", "addr:state": "TX", "addr:street_address": "550 N MAIN ST", "amenity": "post_box", "collection_times": "Mo-Fr 15:00; Sa 13:00", "note": "ON 12/24 AND 12/31, THIS BOX MAY BE COLLECTED AS EARLY AS 12 NOON.", "nsi_id": "unitedstatespostalservice-a77078", "operator": "United States Postal Service", "operator:short": "USPS", "operator:type": "public", "operator:wikidata": "Q668687", "ref": "7511600011"}, "type": "Feature"}
{"geometry": {"coordinates": [-96.9008191, 32.647262], "type": "Point"}, "id": "IezNwh1byg0V5aECT3XzO2TkTB4=", "properties": {"@source_uri": "https://tools.usps.com/UspsToolsRestServices/rest/POLocator/findLocations", "@spider": "usps_collection_boxes", "addr:city": "DUNCANVILLE", "addr:country": "US", "addr:postcode": "75116", "addr:state": "TX", "addr:street_address": "500 E WHEATLAND RD", "amenity": "post_box", "collection_times": "Mo-Fr 15:00; Sa 13:00", "note": "ON 12/24 AND 12/31, THIS BOX MAY BE COLLECTED AS EARLY AS 12 NOON.", "nsi_id": "unitedstatespostalservice-a77078", "operator": "United States Postal Service", "operator:short": "USPS", "operator:type": "public", "operator:wikidata": "Q668687", "ref": "7511600013"}, "type": "Feature"}
{"geometry": {"coordinates": [-95.886425, 32.698399], "type": "Point"}, "id": "vmp1lE4lQWJYBwePz9snpakPmEw=", "properties": {"@source_uri": "https://tools.usps.com/UspsToolsRestServices/rest/POLocator/findLocations", "@spider": "usps_collection_boxes", "addr:city": "EDGEWOOD", "addr:country": "US", "addr:postcode": "75117", "addr:state": "TX", "addr:street_address": "100 N MAIN ST", "amenity": "post_box", "collection_times": "Mo-Fr 15:00; Sa 07:30", "note": "ON 12/24 AND 12/31, THIS BOX MAY BE COLLECTED AS EARLY AS 12 NOON.", "nsi_id": "unitedstatespostalservice-a77078", "operator": "United States Postal Service", "operator:short": "USPS", "operator:type": "public", "operator:wikidata": "Q668687", "ref": "7511700802"}, "type": "Feature"}
{"geometry": {"coordinates": [-95.886425, 32.698399], "type": "Point"}, "id": "Dy7WIhlTdObMZQrH1WHFJ0UJVYw=", "properties": {"@source_uri": "https://tools.usps.com/UspsToolsRestServices/rest/POLocator/findLocations", "@spider": "usps_collection_boxes", "addr:city": "EDGEWOOD", "addr:country": "US", "addr:postcode": "75117", "addr:state": "TX", "addr:street_address": "105 N MAIN ST", "amenity": "post_box", "collection_times": "Mo-Fr 15:00; Sa 07:30", "indoor": "yes", "note": "ON 12/24 AND 12/31, THIS BOX MAY BE COLLECTED AS EARLY AS 12 NOON.", "nsi_id": "unitedstatespostalservice-a77078", "operator": "United States Postal Service", "operator:short": "USPS", "operator:type": "public", "operator:wikidata": "Q668687", "ref": "7511700804"}, "type": "Feature"}
{"geometry": {"coordinates": [-95.886355439, 32.698314862], "type": "Point"}, "id": "6eCQe2VVzLSfLA4Qskt_rIUBSQc=", "properties": {"@source_uri": "https://tools.usps.com/UspsToolsRestServices/rest/POLocator/findLocations", "@spider": "usps_collection_boxes", "addr:city": "EDGEWOOD", "addr:country": "US", "addr:postcode": "75117", "addr:state": "TX", "addr:street_address": "100 N MAIN ST", "amenity": "post_box", "collection_times": "Mo-Fr 16:00", "indoor": "yes", "note": "ON 12/24 AND 12/31, THIS BOX MAY BE COLLECTED AS EARLY AS 12 NOON.", "nsi_id": "unitedstatespostalservice-a77078", "operator": "United States Postal Service", "operator:short": "USPS", "operator:type": "public", "operator:wikidata": "Q668687", "ref": "7511700805"}, "type": "Feature"}
{"geometry": {"coordinates": [-96.162161, 32.72215], "type": "Point"}, "id": "EGfPQb3pdXz0hzLU-rS7ct7CaT0=", "properties": {"@source_uri": "https://tools.usps.com/UspsToolsRestServices/rest/POLocator/findLocations", "@spider": "usps_collection_boxes", "addr:city": "ELMO", "addr:country": "US", "addr:postcode": "75118", "addr:state": "TX", "addr:street_address": "10482 COUNTY ROAD 376", "amenity": "post_box", "collection_times": "Mo-Fr 12:00; Sa 09:00", "nsi_id": "unitedstatespostalservice-a77078", "operator": "United States Postal Service", "operator:short": "USPS", "operator:type": "public", "operator:wikidata": "Q668687", "ref": "7511800803"}, "type": "Feature"}
{"geometry": {"coordinates": [-96.162161, 32.72215], "type": "Point"}, "id": "x7nJ8RINhuSs_c_dvMUGW2uvrFI=", "properties": {"@source_uri": "https://tools.usps.com/UspsToolsRestServices/rest/POLocator/findLocations", "@spider": "usps_collection_boxes", "addr:city": "ELMO", "addr:country": "US", "addr:postcode": "75118", "addr:state": "TX", "addr:street_address": "10482 COUNTY ROAD 376", "amenity": "post_box", "collection_times": "Mo-Fr 12:00; Sa 09:00", "indoor": "yes", "nsi_id": "unitedstatespostalservice-a77078", "operator": "United States Postal Service", "operator:short": "USPS", "operator:type": "public", "operator:wikidata": "Q668687", "ref": "7511800804"}, "type": "Feature"}
{"geometry": {"coordinates": [-96.1620945031, 32.72256959], "type": "Point"}, "id": "0bUoBRA9g2IRuuUADo7lC8_-TaI=", "properties": {"@source_uri": "https://tools.usps.com/UspsToolsRestServices/rest/POLocator/findLocations", "@spider": "usps_collection_boxes", "addr:city": "ELMO", "addr:country": "US", "addr:postcode": "75118", "addr:state": "TX", "addr:street_address": "10482 COUNTY ROAD 376", "amenity": "post_box", "collection_times": "Mo-Fr 12:00", "indoor": "yes", "nsi_id": "unitedstatespostalservice-a77078", "operator": "United States Postal Service", "operator:short": "USPS", "operator:type": "public", "operator:wikidata": "Q668687", "ref": "7511800807"}, "type": "Feature"}
{"geometry": {"coordinates": [-96.629816, 32.327953], "type": "Point"}, "id": "dNjn1k7mJ-mtyuElEyQQ-nahtBw=", "properties": {"@source_uri": "https://tools.usps.com/UspsToolsRestServices/rest/POLocator/findLocations", "@spider": "usps_collection_boxes", "addr:city": "ENNIS", "addr:country": "US", "addr:postcode": "75119", "addr:state": "TX", "addr:street_address": "205 N MCKINNEY ST", "amenity": "post_box", "collection_times": "Mo-Fr 17:00; Sa 15:00", "note": "ON 12/24 AND 12/31, THIS BOX MAY BE COLLECTED AS EARLY AS 12 NOON.", "nsi_id": "unitedstatespostalservice-a77078", "operator": "United States Postal Service", "operator:short": "USPS", "operator:type": "public", "operator:wikidata": "Q668687", "ref": "7511905178"}, "type": "Feature"}
{"geometry": {"coordinates": [-96.629816, 32.327953], "type": "Point"}, "id": "4MtqLuX8RWqCV5QCgsu6kY2bonQ=", "properties": {"@source_uri": "https://tools.usps.com/UspsToolsRestServices/rest/POLocator/findLocations", "@spider": "usps_collection_boxes", "addr:city": "ENNIS", "addr:country": "US", "addr:postcode": "75119", "addr:state": "TX", "addr:street_address": "205 N MCKINNEY ST", "amenity": "post_box", "collection_times": "Mo-Fr 17:00; Sa 15:00", "indoor": "yes", "note": "ON 12/24 AND 12/31, THIS BOX MAY BE COLLECTED AS EARLY AS 12 NOON.", "nsi_id": "unitedstatespostalservice-a77078", "operator": "United States Postal Service", "operator:short": "USPS", "operator:type": "public", "operator:wikidata": "Q668687", "ref": "7511906279"}, "type": "Feature"}
{"geometry": {"coordinates": [-96.629816, 32.327953], "type": "Point"}, "id": "UNJkh7MfLKUACwElTa3RNn_g4-s=", "properties": {"@source_uri": "https://tools.usps.com/UspsToolsRestServices/rest/POLocator/findLocations", "@spider": "usps_collection_boxes", "addr:city": "ENNIS", "addr:country": "US", "addr:postcode": "75119", "addr:state": "TX", "addr:street_address": "205 N MCKINNEY ST", "amenity": "post_box", "collection_times": "Mo-Fr 17:00; Sa 15:00", "indoor": "yes", "note": "ON 12/24 AND 12/31, THIS BOX MAY BE COLLECTED AS EARLY AS 12 NOON.", "nsi_id": "unitedstatespostalservice-a77078", "operator": "United States Postal Service", "operator:short": "USPS", "operator:type": "public", "operator:wikidata": "Q668687", "ref": "7511906280"}, "type": "Feature"}
{"geometry": {"coordinates": [-96.627208, 32.326686], "type": "Point"}, "id": "ZgMP5n1vYlmeZAcFej8e4wx12V4=", "properties": {"@source_uri": "https://tools.usps.com/UspsToolsRestServices/rest/POLocator/findLocations", "@spider": "usps_collection_boxes", "addr:city": "ENNIS", "addr:country": "US", "addr:postcode": "75119", "addr:state": "TX", "addr:street_address": "115 W BROWN ST", "amenity": "post_box", "collection_times": "Mo-Fr 15:00", "note": "ON 12/24 AND 12/31, THIS BOX MAY BE COLLECTED AS EARLY AS 12 NOON.", "nsi_id": "unitedstatespostalservice-a77078", "operator": "United States Postal Service", "operator:short": "USPS", "operator:type": "public", "operator:wikidata": "Q668687", "ref": "7511906281"}, "type": "Feature"}
{"geometry": {"coordinates": [-96.629817261, 32.327951146], "type": "Point"}, "id": "EMZDx-bFeVPxSxlJwZRqkaEXK28=", "properties": {"@source_uri": "https://tools.usps.com/UspsToolsRestServices/rest/POLocator/findLocations", "@spider": "usps_collection_boxes", "addr:city": "ENNIS", "addr:country": "US", "addr:postcode": "75119", "addr:state": "TX", "addr:street_address": "205 N MCKINNEY ST", "amenity": "post_box", "collection_times": "Mo-Fr 16:30; Sa 11:30", "indoor": "yes", "note": "ON 12/24 AND 12/31, THIS BOX MAY BE COLLECTED AS EARLY AS 12 NOON.", "nsi_id": "unitedstatespostalservice-a77078", "operator": "United States Postal Service", "operator:short": "USPS", "operator:type": "public", "operator:wikidata": "Q668687", "ref": "7511906284"}, "type": "Feature"}
{"geometry": {"coordinates": [-96.415197553, 33.0794031685], "type": "Point"}, "id": "xC5puYFZYwnwVgcvsvfxNwhHdH0=", "properties": {"@source_uri": "https://tools.usps.com/UspsToolsRestServices/rest/POLocator/findLocations", "@spider": "usps_collection_boxes", "addr:city": "COPEVILLE", "addr:country": "US", "addr:postcode": "75121", "addr:state": "TX", "addr:street_address": "15104 COUNTY ROAD 549", "amenity": "post_box", "collection_times": "Mo-Fr 12:00; Sa 09:30", "indoor": "yes", "nsi_id": "unitedstatespostalservice-a77078", "operator": "United States Postal Service", "operator:short": "USPS", "operator:type": "public", "operator:wikidata": "Q668687", "ref": "7512100077"}, "type": "Feature"}
{"geometry": {"coordinates": [-96.42297493, 33.080481549], "type": "Point"}, "id": "QxpzS3g09is7yQgkocClhw2JfYw=", "properties": {"@source_uri": "https://tools.usps.com/UspsToolsRestServices/rest/POLocator/findLocations", "@spider": "usps_collection_boxes", "addr:city": "COPEVILLE", "addr:country": "US", "addr:postcode": "75121", "addr:state": "TX", "addr:street_address": "15104 COUNTY ROAD 549", "amenity": "post_box", "collection_times": "Mo-Fr 12:00; Sa 09:30", "indoor": "yes", "nsi_id": "unitedstatespostalservice-a77078", "operator": "United States Postal Service", "operator:short": "USPS", "operator:type": "public", "operator:wikidata": "Q668687", "ref": "7512100079"}, "type": "Feature"}
{"geometry": {"coordinates": [-96.41567, 33.08034], "type": "Point"}, "id": "0Kdqho5lFLP2rpDnbMOz4HnMd8M=", "properties": {"@source_uri": "https://tools.usps.com/UspsToolsRestServices/rest/POLocator/findLocations", "@spider": "usps_collection_boxes", "addr:city": "COPEVILLE", "addr:country": "US", "addr:postcode": "75121", "addr:state": "TX", "addr:street_address": "15104 COUNTY ROAD 549", "amenity": "post_box", "collection_times": "Mo-Fr 12:00; Sa 09:30", "nsi_id": "unitedstatespostalservice-a77078", "operator": "United States Postal Service", "operator:short": "USPS", "operator:type": "public", "operator:wikidata": "Q668687", "ref": "7512100080"}, "type": "Feature"}
{"geometry": {"coordinates": [-96.008216, 32.30931], "type": "Point"}, "id": "VZnbRAzQvMnwXzvHFCexwi6w3kA=", "properties": {"@source_uri": "https://tools.usps.com/UspsToolsRestServices/rest/POLocator/findLocations", "@spider": "usps_collection_boxes", "addr:city": "EUSTACE", "addr:country": "US", "addr:postcode": "75124", "addr:state": "TX", "addr:street_address": "202 US HIGHWAY 175 W", "amenity": "post_box", "collection_times": "Mo-Fr 16:00; Sa 09:00", "note": "ON 12/24 AND 12/31, THIS BOX MAY BE COLLECTED AS EARLY AS 12 NOON.", "nsi_id": "unitedstatespostalservice-a77078", "operator": "United States Postal Service", "operator:short": "USPS", "operator:type": "public", "operator:wikidata": "Q668687", "ref": "7512400817"}, "type": "Feature"}
{"geometry": {"coordinates": [-96.008216, 32.30931], "type": "Point"}, "id": "NHIcT9wWyJx104CMqvXHxRhf9iM=", "properties": {"@source_uri": "https://tools.usps.com/UspsToolsRestServices/rest/POLocator/findLocations", "@spider": "usps_collection_boxes", "addr:city": "EUSTACE", "addr:country": "US", "addr:postcode": "75124", "addr:state": "TX", "addr:street_address": "202 US HIGHWAY 175 W", "amenity": "post_box", "collection_times": "Mo-Fr 16:00; Sa 09:00", "indoor": "yes", "note": "ON 12/24 AND 12/31, THIS BOX MAY BE COLLECTED AS EARLY AS 12 NOON.", "nsi_id": "unitedstatespostalservice-a77078", "operator": "United States Postal Service", "operator:short": "USPS", "operator:type": "public", "operator:wikidata": "Q668687", "ref": "7512400818"}, "type": "Feature"}
{"geometry": {"coordinates": [-96.008216, 32.30931], "type": "Point"}, "id": "zmm4kXJcHsaxIA4aYDfcRQcJ6pk=", "properties": {"@source_uri": "https://tools.usps.com/UspsToolsRestServices/rest/POLocator/findLocations", "@spider": "usps_collection_boxes", "addr:city": "EUSTACE", "addr:country": "US", "addr:postcode": "75124", "addr:state": "TX", "addr:street_address": "202 US HIGHWAY 175 W", "amenity": "post_box", "collection_times": "Mo-Fr 16:00; Sa 09:00", "indoor": "yes", "note": "ON 12/24 AND 12/31, THIS BOX MAY BE COLLECTED AS EARLY AS 12 NOON.", "nsi_id": "unitedstatespostalservice-a77078", "operator": "United States Postal Service", "operator:short": "USPS", "operator:type": "public", "operator:wikidata": "Q668687", "ref": "7512400819"}, "type": "Feature"}
{"geometry": {"coordinates": [-96.008629585, 32.30919488], "type": "Point"}, "id": "q2_UnmH3bFNfanioYkD9pujbXJc=", "properties": {"@source_uri": "https://tools.usps.com/UspsToolsRestServices/rest/POLocator/findLocations", "@spider": "usps_collection_boxes", "addr:city": "EUSTACE", "addr:country": "US", "addr:postcode": "75124", "addr:state": "TX", "addr:street_address": "202 US HIGHWAY 175 W", "amenity": "post_box", "collection_times": "Mo-Fr 16:00; Sa 09:00", "indoor": "yes", "note": "ON 12/24 AND 12/31, THIS BOX MAY BE COLLECTED AS EARLY AS 12 NOON.", "nsi_id": "unitedstatespostalservice-a77078", "operator": "United States Postal Service", "operator:short": "USPS", "operator:type": "public", "operator:wikidata": "Q668687", "ref": "7512400820"}, "type": "Feature"}
{"geometry": {"coordinates": [-96.6692553, 32.533804], "type": "Point"}, "id": "tPImUMJ_jV47q56qLdRM3M8FVA8=", "properties": {"@source_uri": "https://tools.usps.com/UspsToolsRestServices/rest/POLocator/findLocations", "@spider": "usps_collection_boxes", "addr:city": "FERRIS", "addr:country": "US", "addr:postcode": "75125", "addr:state": "TX", "addr:street_address": "413 W 6TH ST", "amenity": "post_box", "collection_times": "Mo-Fr 16:00; Sa 08:30", "note": "ON 12/24 AND 12/31, THIS BOX MAY BE COLLECTED AS EARLY AS 12 NOON.", "nsi_id": "unitedstatespostalservice-a77078", "operator": "United States Postal Service", "operator:short": "USPS", "operator:type": "public", "operator:wikidata": "Q668687", "ref": "7512500821"}, "type": "Feature"}
{"geometry": {"coordinates": [-96.668284, 32.533637], "type": "Point"}, "id": "P7azZB97USYsuzePpY6cSL_YCjo=", "properties": {"@source_uri": "https://tools.usps.com/UspsToolsRestServices/rest/POLocator/findLocations", "@spider": "usps_collection_boxes", "addr:city": "FERRIS", "addr:country": "US", "addr:postcode": "75125", "addr:state": "TX", "addr:street_address": "413 W 6TH ST", "amenity": "post_box", "collection_times": "Mo-Fr 16:00", "indoor": "yes", "note": "ON 12/24 AND 12/31, THIS BOX MAY BE COLLECTED AS EARLY AS 12 NOON.", "nsi_id": "unitedstatespostalservice-a77078", "operator": "United States Postal Service", "operator:short": "USPS", "operator:type": "public", "operator:wikidata": "Q668687", "ref": "7512506693"}, "type": "Feature"}
{"geometry": {"coordinates": [-96.66827131, 32.533670281], "type": "Point"}, "id": "ibUdXa_T6FzMEFaJ-IRxk9LTI4U=", "properties": {"@source_uri": "https://tools.usps.com/UspsToolsRestServices/rest/POLocator/findLocations", "@spider": "usps_collection_boxes", "addr:city": "FERRIS", "addr:country": "US", "addr:postcode": "75125", "addr:state": "TX", "addr:street_address": "413 W 6TH ST", "amenity": "post_box", "collection_times": "Mo-Fr 16:00", "indoor": "yes", "note": "ON 12/24 AND 12/31, THIS BOX MAY BE COLLECTED AS EARLY AS 12 NOON.", "nsi_id": "unitedstatespostalservice-a77078", "operator": "United States Postal Service", "operator:short": "USPS", "operator:type": "public", "operator:wikidata": "Q668687", "ref": "7512506695"}, "type": "Feature"}
{"geometry": {"coordinates": [-96.469971, 32.748762], "type": "Point"}, "id": "0b1PAVdhwiu7R5JMpkE-c6CPcdg=", "properties": {"@source_uri": "https://tools.usps.com/UspsToolsRestServices/rest/POLocator/findLocations", "@spider": "usps_collection_boxes", "addr:city": "FORNEY", "addr:country": "US", "addr:postcode": "75126", "addr:state": "TX", "addr:street_address": "102 E BROAD ST", "amenity": "post_box", "collection_times": "Mo-Sa 17:00", "indoor": "yes", "note": "ON 12/24 AND 12/31, THIS BOX MAY BE COLLECTED AS EARLY AS 12 NOON.", "nsi_id": "unitedstatespostalservice-a77078", "operator": "United States Postal Service", "operator:short": "USPS", "operator:type": "public", "operator:wikidata": "Q668687", "ref": "7512606560"}, "type": "Feature"}
{"geometry": {"coordinates": [-96.4480062982, 32.7473707584], "type": "Point"}, "id": "YZVXEDQXAU2gUkL0F9o_ddJwViw=", "properties": {"@source_uri": "https://tools.usps.com/UspsToolsRestServices/rest/POLocator/findLocations", "@spider": "usps_collection_boxes", "addr:city": "FORNEY", "addr:country": "US", "addr:postcode": "75126", "addr:state": "TX", "addr:street_address": "500 MARKETPLACE BLVD", "amenity": "post_box", "collection_times": "Mo-Sa 12:00", "nsi_id": "unitedstatespostalservice-a77078", "operator": "United States Postal Service", "operator:short": "USPS", "operator:type": "public", "operator:wikidata": "Q668687", "ref": "7512606561"}, "type": "Feature"}
{"geometry": {"coordinates": [-96.469971, 32.748762], "type": "Point"}, "id": "G-5mQOxRqTiPdqaUwGgZuwjZktE=", "properties": {"@source_uri": "https://tools.usps.com/UspsToolsRestServices/rest/POLocator/findLocations", "@spider": "usps_collection_boxes", "addr:city": "FORNEY", "addr:country": "US", "addr:postcode": "75126", "addr:state": "TX", "addr:street_address": "102 E BROAD ST", "amenity": "post_box", "collection_times": "Mo-Sa 17:00", "indoor": "yes", "note": "ON 12/24 AND 12/31, THIS BOX MAY BE COLLECTED AS EARLY AS 12 NOON.", "nsi_id": "unitedstatespostalservice-a77078", "operator": "United States Postal Service", "operator:short": "USPS", "operator:type": "public", "operator:wikidata": "Q668687", "ref": "7512606562"}, "type": "Feature"}
{"geometry": {"coordinates": [-96.469972029, 32.748751422], "type": "Point"}, "id": "fh4Y27iJqaeL0YSZjiDJI7qsYnk=", "properties": {"@source_uri": "https://tools.usps.com/UspsToolsRestServices/rest/POLocator/findLocations", "@spider": "usps_collection_boxes", "addr:city": "FORNEY", "addr:country": "US", "addr:postcode": "75126", "addr:state": "TX", "addr:street_address": "102 E BROAD ST", "amenity": "post_box", "collection_times": "Mo-Fr 17:00; Sa 12:00", "indoor": "yes", "note": "ON 12/24 AND 12/31, THIS BOX MAY BE COLLECTED AS EARLY AS 12 NOON.", "nsi_id": "unitedstatespostalservice-a77078", "operator": "United States Postal Service", "operator:short": "USPS", "operator:type": "public", "operator:wikidata": "Q668687", "ref": "7512606567"}, "type": "Feature"}
{"geometry": {"coordinates": [-96.46764, 32.74801], "type": "Point"}, "id": "sKESFivxrZPzxsEphX2HTQVbnQA=", "properties": {"@source_uri": "https://tools.usps.com/UspsToolsRestServices/rest/POLocator/findLocations", "@spider": "usps_collection_boxes", "addr:city": "FORNEY", "addr:country": "US", "addr:postcode": "75126", "addr:state": "TX", "addr:street_address": "102 E BROAD ST", "amenity": "post_box", "collection_times": "Mo-Fr 17:00; Sa 15:00", "note": "ON 12/24 AND 12/31, THIS BOX MAY BE COLLECTED AS EARLY AS 12 NOON.", "nsi_id": "unitedstatespostalservice-a77078", "operator": "United States Postal Service", "operator:short": "USPS", "operator:type": "public", "operator:wikidata": "Q668687", "ref": "7512606569"}, "type": "Feature"}
{"geometry": {"coordinates": [-95.803276, 32.68332], "type": "Point"}, "id": "cLLoMYXehtMKy_rUhHKEw4fUc8Y=", "properties": {"@source_uri": "https://tools.usps.com/UspsToolsRestServices/rest/POLocator/findLocations", "@spider": "usps_collection_boxes", "addr:city": "FRUITVALE", "addr:country": "US", "addr:postcode": "75127", "addr:state": "TX", "addr:street_address": "121 VZ COUNTY ROAD 1910", "amenity": "post_box", "collection_times": "Mo-Fr 15:45; Sa 08:30", "indoor": "yes", "note": "ON 12/24 AND 12/31, THIS BOX MAY BE COLLECTED AS EARLY AS 12 NOON.", "nsi_id": "unitedstatespostalservice-a77078", "operator": "United States Postal Service", "operator:short": "USPS", "operator:type": "public", "operator:wikidata": "Q668687", "ref": "7512700827"}, "type": "Feature"}
{"geometry": {"coordinates": [-95.803276, 32.68332], "type": "Point"}, "id": "LumzE9MRSzNZeTNXoWuxH2XdjXg=", "properties": {"@source_uri": "https://tools.usps.com/UspsToolsRestServices/rest/POLocator/findLocations", "@spider": "usps_collection_boxes", "addr:city": "FRUITVALE", "addr:country": "US", "addr:postcode": "75127", "addr:state": "TX", "addr:street_address": "121 VZ COUNTY ROAD 1910", "amenity": "post_box", "collection_times": "Mo-Fr 15:45; Sa 08:30", "indoor": "yes", "note": "ON 12/24 AND 12/31, THIS BOX MAY BE COLLECTED AS EARLY AS 12 NOON.", "nsi_id": "unitedstatespostalservice-a77078", "operator": "United States Postal Service", "operator:short": "USPS", "operator:type": "public", "operator:wikidata": "Q668687", "ref": "7512700828"}, "type": "Feature"}
{"geometry": {"coordinates": [-95.793258721, 32.713951813], "type": "Point"}, "id": "2MmDzRD_xo0b__6BhXD2zPmDP7Q=", "properties": {"@source_uri": "https://tools.usps.com/UspsToolsRestServices/rest/POLocator/findLocations", "@spider": "usps_collection_boxes", "addr:city": "FRUITVALE", "addr:country": "US", "addr:postcode": "75127", "addr:state": "TX", "addr:street_address": "121 VZ COUNTY ROAD 1910", "amenity": "post_box", "collection_times": "Mo-Fr 16:00", "indoor": "yes", "note": "ON 12/24 AND 12/31, THIS BOX MAY BE COLLECTED AS EARLY AS 12 NOON.", "nsi_id": "unitedstatespostalservice-a77078", "operator": "United States Postal Service", "operator:short": "USPS", "operator:type": "public", "operator:wikidata": "Q668687", "ref": "7512700829"}, "type": "Feature"}
{"geometry": {"coordinates": [-96.38082, 32.94151], "type": "Point"}, "id": "pwiruyLE6U84qchkgMUdPyiU5Uk=", "properties": {"@source_uri": "https://tools.usps.com/UspsToolsRestServices/rest/POLocator/findLocations", "@spider": "usps_collection_boxes", "addr:city": "FATE", "addr:country": "US", "addr:postcode": "75132", "addr:state": "TX", "addr:street_address": "909 W HOLIDAY DR", "amenity": "post_box", "collection_times": "Mo-Fr 16:00; Sa 09:30", "indoor": "yes", "note": "ON 12/24 AND 12/31, THIS BOX MAY BE COLLECTED AS EARLY AS 12 NOON.", "nsi_id": "unitedstatespostalservice-a77078", "operator": "United States Postal Service", "operator:short": "USPS", "operator:type": "public", "operator:wikidata": "Q668687", "ref": "7513200122"}, "type": "Feature"}
{"geometry": {"coordinates": [-96.38082, 32.94151], "type": "Point"}, "id": "cwI5Vn1Yh_bL7NgZ1jsbGHC70FM=", "properties": {"@source_uri": "https://tools.usps.com/UspsToolsRestServices/rest/POLocator/findLocations", "@spider": "usps_collection_boxes", "addr:city": "FATE", "addr:country": "US", "addr:postcode": "75132", "addr:state": "TX", "addr:street_address": "909 W HOLIDAY DR", "amenity": "post_box", "collection_times": "Mo-Fr 16:00; Sa 09:30", "indoor": "yes", "note": "ON 12/24 AND 12/31, THIS BOX MAY BE COLLECTED AS EARLY AS 12 NOON.", "nsi_id": "unitedstatespostalservice-a77078", "operator": "United States Postal Service", "operator:short": "USPS", "operator:type": "public", "operator:wikidata": "Q668687", "ref": "7513200124"}, "type": "Feature"}
{"geometry": {"coordinates": [-96.7579969, 32.604362], "type": "Point"}, "id": "g4xqOUhEKCDHqAc0-mrFwcXy8oY=", "properties": {"@source_uri": "https://tools.usps.com/UspsToolsRestServices/rest/POLocator/findLocations", "@spider": "usps_collection_boxes", "addr:city": "LANCASTER", "addr:country": "US", "addr:postcode": "75134", "addr:state": "TX", "addr:street_address": "1316 N DALLAS AVE", "amenity": "post_box", "collection_times": "Mo-Sa 09:00", "nsi_id": "unitedstatespostalservice-a77078", "operator": "United States Postal Service", "operator:short": "USPS", "operator:type": "public", "operator:wikidata": "Q668687", "ref": "7513400000"}, "type": "Feature"}
{"geometry": {"coordinates": [-96.7737707, 32.6200863], "type": "Point"}, "id": "urOUGaAa2cWx8W9Msl2VLdrjKR8=", "properties": {"@source_uri": "https://tools.usps.com/UspsToolsRestServices/rest/POLocator/findLocations", "@spider": "usps_collection_boxes", "addr:city": "LANCASTER", "addr:country": "US", "addr:postcode": "75134", "addr:state": "TX", "addr:street_address": "2601 N DALLAS AVE", "amenity": "post_box", "collection_times": "Mo-Sa 09:00", "nsi_id": "unitedstatespostalservice-a77078", "operator": "United States Postal Service", "operator:short": "USPS", "operator:type": "public", "operator:wikidata": "Q668687", "ref": "7513400002"}, "type": "Feature"}
{"geometry": {"coordinates": [-96.2303943, 33.062819], "type": "Point"}, "id": "sD8xPIsu19XVVKzejSiVG7eMpCk=", "properties": {"@source_uri": "https://tools.usps.com/UspsToolsRestServices/rest/POLocator/findLocations", "@spider": "usps_collection_boxes", "addr:city": "CADDO MILLS", "addr:country": "US", "addr:postcode": "75135", "addr:state": "TX", "addr:street_address": "2109 STATE HIGHWAY 66", "amenity": "post_box", "collection_times": "Mo-Fr 16:00; Sa 09:00", "note": "ON 12/24 AND 12/31, THIS BOX MAY BE COLLECTED AS EARLY AS 12 NOON.", "nsi_id": "unitedstatespostalservice-a77078", "operator": "United States Postal Service", "operator:short": "USPS", "operator:type": "public", "operator:wikidata": "Q668687", "ref": "7513500013"}, "type": "Feature"}
{"geometry": {"coordinates": [-96.230137, 33.062798], "type": "Point"}, "id": "GZsD3yL4DQiF0P0ltrFuFm-MXpY=", "properties": {"@source_uri": "https://tools.usps.com/UspsToolsRestServices/rest/POLocator/findLocations", "@spider": "usps_collection_boxes", "addr:city": "CADDO MILLS", "addr:country": "US", "addr:postcode": "75135", "addr:state": "TX", "addr:street_address": "2109 STATE HIGHWAY 66", "amenity": "post_box", "collection_times": "Mo-Fr 16:00; Sa 09:00", "indoor": "yes", "note": "ON 12/24 AND 12/31, THIS BOX MAY BE COLLECTED AS EARLY AS 12 NOON.", "nsi_id": "unitedstatespostalservice-a77078", "operator": "United States Postal Service", "operator:short": "USPS", "operator:type": "public", "operator:wikidata": "Q668687", "ref": "7513506276"}, "type": "Feature"}
{"geometry": {"coordinates": [-96.2301418667, 33.0627922054], "type": "Point"}, "id": "g2IqgPsOxHNEMZwb_BakCIFabPE=", "properties": {"@source_uri": "https://tools.usps.com/UspsToolsRestServices/rest/POLocator/findLocations", "@spider": "usps_collection_boxes", "addr:city": "CADDO MILLS", "addr:country": "US", "addr:postcode": "75135", "addr:state": "TX", "addr:street_address": "2109 STATE HIGHWAY 66", "amenity": "post_box", "collection_times": "Mo-Fr 16:15", "indoor": "yes", "note": "ON 12/24 AND 12/31, THIS BOX MAY BE COLLECTED AS EARLY AS 12 NOON.", "nsi_id": "unitedstatespostalservice-a77078", "operator": "United States Postal Service", "operator:short": "USPS", "operator:type": "public", "operator:wikidata": "Q668687", "ref": "7513506279"}, "type": "Feature"}
{"geometry": {"coordinates": [-96.9081269, 32.622637], "type": "Point"}, "id": "JWge54rpk6wlHRu4MG5oxCgLX9Q=", "properties": {"@source_uri": "https://tools.usps.com/UspsToolsRestServices/rest/POLocator/findLocations", "@spider": "usps_collection_boxes", "addr:city": "DUNCANVILLE", "addr:country": "US", "addr:postcode": "75137", "addr:state": "TX", "addr:street_address": "100 SILVER CREEK DR", "amenity": "post_box", "collection_times": "Mo-Fr 15:00; Sa 13:00", "note": "ON 12/24 AND 12/31, THIS BOX MAY BE COLLECTED AS EARLY AS 12 NOON.", "nsi_id": "unitedstatespostalservice-a77078", "operator": "United States Postal Service", "operator:short": "USPS", "operator:type": "public", "operator:wikidata": "Q668687", "ref": "7513700002"}, "type": "Feature"}
{"geometry": {"coordinates": [-96.9257439, 32.644896], "type": "Point"}, "id": "pdL2T57FAZOj5Vytu-AlZp7FuAI=", "properties": {"@source_uri": "https://tools.usps.com/UspsToolsRestServices/rest/POLocator/findLocations", "@spider": "usps_collection_boxes", "addr:city": "DUNCANVILLE", "addr:country": "US", "addr:postcode": "75137", "addr:state": "TX", "addr:street_address": "711 S CEDAR RIDGE DR", "amenity": "post_box", "collection_times": "Mo-Sa 17:00", "note": "ON 12/24 AND 12/31, THIS BOX MAY BE COLLECTED AS EARLY AS 12 NOON.", "nsi_id": "unitedstatespostalservice-a77078", "operator": "United States Postal Service", "operator:short": "USPS", "operator:type": "public", "operator:wikidata": "Q668687", "ref": "7513700005"}, "type": "Feature"}
{"geometry": {"coordinates": [-96.9429906913, 32.6325502756], "type": "Point"}, "id": "Hvu6IR37kMErL7FHz95o-8LdiJw=", "properties": {"@source_uri": "https://tools.usps.com/UspsToolsRestServices/rest/POLocator/findLocations", "@spider": "usps_collection_boxes", "addr:city": "DUNCANVILLE", "addr:country": "US", "addr:postcode": "75137", "addr:state": "TX", "addr:street_address": "1500 S CLARK RD", "amenity": "post_box", "collection_times": "Mo-Fr 15:00; Sa 13:00", "note": "ON 12/24 AND 12/31, THIS BOX MAY BE COLLECTED AS EARLY AS 12 NOON.", "nsi_id": "unitedstatespostalservice-a77078", "operator": "United States Postal Service", "operator:short": "USPS", "operator:type": "public", "operator:wikidata": "Q668687", "ref": "7513700007"}, "type": "Feature"}
{"geometry": {"coordinates": [-96.8897005, 32.645795], "type": "Point"}, "id": "nP3W3-qnTxfd4aZlN420sZTFE0A=", "properties": {"@source_uri": "https://tools.usps.com/UspsToolsRestServices/rest/POLocator/findLocations", "@spider": "usps_collection_boxes", "addr:city": "DUNCANVILLE", "addr:country": "US", "addr:postcode": "75137", "addr:state": "TX", "addr:street_address": "800 S COCKRELL HILL RD", "amenity": "post_box", "collection_times": "Mo-Fr 15:00; Sa 13:00", "note": "ON 12/24 AND 12/31, THIS BOX MAY BE COLLECTED AS EARLY AS 12 NOON.", "nsi_id": "unitedstatespostalservice-a77078", "operator": "United States Postal Service", "operator:short": "USPS", "operator:type": "public", "operator:wikidata": "Q668687", "ref": "7513700008"}, "type": "Feature"}
{"geometry": {"coordinates": [-96.9262448, 32.644851], "type": "Point"}, "id": "PuDvGkNLi5Hn4YrzyFcyQ2tcHOk=", "properties": {"@source_uri": "https://tools.usps.com/UspsToolsRestServices/rest/POLocator/findLocations", "@spider": "usps_collection_boxes", "addr:city": "DUNCANVILLE", "addr:country": "US", "addr:postcode": "75137", "addr:state": "TX", "addr:street_address": "711 S CEDAR RIDGE DR", "amenity": "post_box", "collection_times": "Mo-Sa 17:00", "indoor": "yes", "note": "ON 12/24 AND 12/31, THIS BOX MAY BE COLLECTED AS EARLY AS 12 NOON.", "nsi_id": "unitedstatespostalservice-a77078", "operator": "United States Postal Service", "operator:short": "USPS", "operator:type": "public", "operator:wikidata": "Q668687", "ref": "7513700009"}, "type": "Feature"}
{"geometry": {"coordinates": [-96.9262324, 32.644879], "type": "Point"}, "id": "8U3T7XR2dMURM3SQazp6nmN4tcU=", "properties": {"@source_uri": "https://tools.usps.com/UspsToolsRestServices/rest/POLocator/findLocations", "@spider": "usps_collection_boxes", "addr:city": "DUNCANVILLE", "addr:country": "US", "addr:postcode": "75137", "addr:state": "TX", "addr:street_address": "711 S CEDAR RIDGE DR", "amenity": "post_box", "collection_times": "Mo-Sa 17:00", "indoor": "yes", "note": "ON 12/24 AND 12/31, THIS BOX MAY BE COLLECTED AS EARLY AS 12 NOON.", "nsi_id": "unitedstatespostalservice-a77078", "operator": "United States Postal Service", "operator:short": "USPS", "operator:type": "public", "operator:wikidata": "Q668687", "ref": "7513700010"}, "type": "Feature"}
{"geometry": {"coordinates": [-96.9262191, 32.644853], "type": "Point"}, "id": "c3-rkj4HDnveIuFmwvI8DBGubVk=", "properties": {"@source_uri": "https://tools.usps.com/UspsToolsRestServices/rest/POLocator/findLocations", "@spider": "usps_collection_boxes", "addr:city": "DUNCANVILLE", "addr:country": "US", "addr:postcode": "75137", "addr:state": "TX", "addr:street_address": "711 S CEDAR RIDGE DR", "amenity": "post_box", "collection_times": "Mo-Sa 17:00", "name": "USPS COLLECTION BOX - APC", "note": "ON 12/24 AND 12/31, THIS BOX MAY BE COLLECTED AS EARLY AS 12 NOON.", "nsi_id": "unitedstatespostalservice-a77078", "operator": "United States Postal Service", "operator:short": "USPS", "operator:type": "public", "operator:wikidata": "Q668687", "ref": "7513700012"}, "type": "Feature"}
{"geometry": {"coordinates": [-96.9255131262, 32.6452323039], "type": "Point"}, "id": "ybYGytU3v_zhh-esqZ3w1JIUgHk=", "properties": {"@source_uri": "https://tools.usps.com/UspsToolsRestServices/rest/POLocator/findLocations", "@spider": "usps_collection_boxes", "addr:city": "DUNCANVILLE", "addr:country": "US", "addr:postcode": "75137", "addr:state": "TX", "addr:street_address": "711 S CEDAR RIDGE DR", "amenity": "post_box", "collection_times": "Mo-Fr 17:00; Sa 14:00", "indoor": "yes", "note": "ON 12/24 AND 12/31, THIS BOX MAY BE COLLECTED AS EARLY AS 12 NOON.", "nsi_id": "unitedstatespostalservice-a77078", "operator": "United States Postal Service", "operator:short": "USPS", "operator:type": "public", "operator:wikidata": "Q668687", "ref": "7513700016"}, "type": "Feature"}
{"geometry": {"coordinates": [-95.708451, 32.673569], "type": "Point"}, "id": "9XTGUkMfLal6ICjST34ozwg4bXQ=", "properties": {"@source_uri": "https://tools.usps.com/UspsToolsRestServices/rest/POLocator/findLocations", "@spider": "usps_collection_boxes", "addr:city": "GRAND SALINE", "addr:country": "US", "addr:postcode": "75140", "addr:state": "TX", "addr:street_address": "200 N GREEN ST", "amenity": "post_box", "collection_times": "Mo-Fr 16:30; Sa 13:00", "note": "ON 12/24 AND 12/31, THIS BOX MAY BE COLLECTED AS EARLY AS 12 NOON.", "nsi_id": "unitedstatespostalservice-a77078", "operator": "United States Postal Service", "operator:short": "USPS", "operator:type": "public", "operator:wikidata": "Q668687", "ref": "7514000848"}, "type": "Feature"}
{"geometry": {"coordinates": [-95.708451, 32.673569], "type": "Point"}, "id": "AzA2SCSMVg-bZ3vMl6hkhxUQs_o=", "properties": {"@source_uri": "https://tools.usps.com/UspsToolsRestServices/rest/POLocator/findLocations", "@spider": "usps_collection_boxes", "addr:city": "GRAND SALINE", "addr:country": "US", "addr:postcode": "75140", "addr:state": "TX", "addr:street_address": "200 N GREEN ST", "amenity": "post_box", "collection_times": "Mo-Fr 16:30", "indoor": "yes", "note": "ON 12/24 AND 12/31, THIS BOX MAY BE COLLECTED AS EARLY AS 12 NOON.", "nsi_id": "unitedstatespostalservice-a77078", "operator": "United States Postal Service", "operator:short": "USPS", "operator:type": "public", "operator:wikidata": "Q668687", "ref": "7514000849"}, "type": "Feature"}
{"geometry": {"coordinates": [-95.708451, 32.673569], "type": "Point"}, "id": "Jh1CBLEpYl7VTIvQ-iMzxMOT_MU=", "properties": {"@source_uri": "https://tools.usps.com/UspsToolsRestServices/rest/POLocator/findLocations", "@spider": "usps_collection_boxes", "addr:city": "GRAND SALINE", "addr:country": "US", "addr:postcode": "75140", "addr:state": "TX", "addr:street_address": "200 N GREEN ST", "amenity": "post_box", "collection_times": "Mo-Fr 16:30", "indoor": "yes", "note": "ON 12/24 AND 12/31, THIS BOX MAY BE COLLECTED AS EARLY AS 12 NOON.", "nsi_id": "unitedstatespostalservice-a77078", "operator": "United States Postal Service", "operator:short": "USPS", "operator:type": "public", "operator:wikidata": "Q668687", "ref": "7514000850"}, "type": "Feature"}
{"geometry": {"coordinates": [-95.708447372, 32.673671717], "type": "Point"}, "id": "I19cijLJkxJGdvidYwSFALyyTVI=", "properties": {"@source_uri": "https://tools.usps.com/UspsToolsRestServices/rest/POLocator/findLocations", "@spider": "usps_collection_boxes", "addr:city": "GRAND SALINE", "addr:country": "US", "addr:postcode": "75140", "addr:state": "TX", "addr:street_address": "200 N GREEN ST", "amenity": "post_box", "collection_times": "Mo-Fr 16:00", "indoor": "yes", "note": "ON 12/24 AND 12/31, THIS BOX MAY BE COLLECTED AS EARLY AS 12 NOON.", "nsi_id": "unitedstatespostalservice-a77078", "operator": "United States Postal Service", "operator:short": "USPS", "operator:type": "public", "operator:wikidata": "Q668687", "ref": "7514000851"}, "type": "Feature"}
{"geometry": {"coordinates": [-96.7092999707, 32.6490799909], "type": "Point"}, "id": "btXcVCBDeZCHMyJRJjQPRzernJc=", "properties": {"@source_uri": "https://tools.usps.com/UspsToolsRestServices/rest/POLocator/findLocations", "@spider": "usps_collection_boxes", "addr:city": "HUTCHINS", "addr:country": "US", "addr:postcode": "75141", "addr:state": "TX", "addr:street_address": "401 E PALESTINE ST", "amenity": "post_box", "collection_times": "Mo-Sa 12:00", "nsi_id": "unitedstatespostalservice-a77078", "operator": "United States Postal Service", "operator:short": "USPS", "operator:type": "public", "operator:wikidata": "Q668687", "ref": "7514100850"}, "type": "Feature"}
{"geometry": {"coordinates": [-96.7229231528, 32.6442648595], "type": "Point"}, "id": "MX1jyDGjqjzhmw-MAN7UNMclsAo=", "properties": {"@source_uri": "https://tools.usps.com/UspsToolsRestServices/rest/POLocator/findLocations", "@spider": "usps_collection_boxes", "addr:city": "HUTCHINS", "addr:country": "US", "addr:postcode": "75141", "addr:state": "TX", "addr:street_address": "720 LANCASTER HUTCHINS RD", "amenity": "post_box", "collection_times": "Mo-Fr 17:00; Sa 08:00", "indoor": "yes", "note": "ON 12/24 AND 12/31, THIS BOX MAY BE COLLECTED AS EARLY AS 12 NOON.", "nsi_id": "unitedstatespostalservice-a77078", "operator": "United States Postal Service", "operator:short": "USPS", "operator:type": "public", "operator:wikidata": "Q668687", "ref": "7514105185"}, "type": "Feature"}
{"geometry": {"coordinates": [-96.7229231528, 32.6442648595], "type": "Point"}, "id": "Tu1tLtjfh4CQ2inPg-b5IvQ669Q=", "properties": {"@source_uri": "https://tools.usps.com/UspsToolsRestServices/rest/POLocator/findLocations", "@spider": "usps_collection_boxes", "addr:city": "HUTCHINS", "addr:country": "US", "addr:postcode": "75141", "addr:state": "TX", "addr:street_address": "720 LANCASTER HUTCHINS RD", "amenity": "post_box", "collection_times": "Mo-Fr 17:00", "indoor": "yes", "note": "ON 12/24 AND 12/31, THIS BOX MAY BE COLLECTED AS EARLY AS 12 NOON.", "nsi_id": "unitedstatespostalservice-a77078", "operator": "United States Postal Service", "operator:short": "USPS", "operator:type": "public", "operator:wikidata": "Q668687", "ref": "7514105187"}, "type": "Feature"}
{"geometry": {"coordinates": [-96.3126357, 32.589368], "type": "Point"}, "id": "07D0EOyj02uVsteJq5G3FT26XVw=", "properties": {"@source_uri": "https://tools.usps.com/UspsToolsRestServices/rest/POLocator/findLocations", "@spider": "usps_collection_boxes", "addr:city": "KAUFMAN", "addr:country": "US", "addr:postcode": "75142", "addr:state": "TX", "addr:street_address": "101 N HOUSTON ST", "amenity": "post_box", "collection_times": "Mo-Sa 09:00", "nsi_id": "unitedstatespostalservice-a77078", "operator": "United States Postal Service", "operator:short": "USPS", "operator:type": "public", "operator:wikidata": "Q668687", "ref": "7514200853"}, "type": "Feature"}
{"geometry": {"coordinates": [-96.3189817, 32.592048], "type": "Point"}, "id": "Ol6OrH6WqhfS1_SknZdRhCU_j-U=", "properties": {"@source_uri": "https://tools.usps.com/UspsToolsRestServices/rest/POLocator/findLocations", "@spider": "usps_collection_boxes", "addr:city": "KAUFMAN", "addr:country": "US", "addr:postcode": "75142", "addr:state": "TX", "addr:street_address": "874 ED HALL DR", "amenity": "post_box", "collection_times": "Mo-Fr 10:00", "nsi_id": "unitedstatespostalservice-a77078", "operator": "United States Postal Service", "operator:short": "USPS", "operator:type": "public", "operator:wikidata": "Q668687", "ref": "7514200854"}, "type": "Feature"}
{"geometry": {"coordinates": [-96.3134939949, 32.5708951116], "type": "Point"}, "id": "Xxrky_YJT8Bcabn4zYj6_0LJS2Y=", "properties": {"@source_uri": "https://tools.usps.com/UspsToolsRestServices/rest/POLocator/findLocations", "@spider": "usps_collection_boxes", "addr:city": "KAUFMAN", "addr:country": "US", "addr:postcode": "75142", "addr:state": "TX", "addr:street_address": "2231 S WASHINGTON ST", "amenity": "post_box", "collection_times": "Mo-Fr 16:30; Sa 15:30", "note": "ON 12/24 AND 12/31, THIS BOX MAY BE COLLECTED AS EARLY AS 12 NOON.", "nsi_id": "unitedstatespostalservice-a77078", "operator": "United States Postal Service", "operator:short": "USPS", "operator:type": "public", "operator:wikidata": "Q668687", "ref": "7514200858"}, "type": "Feature"}
{"geometry": {"coordinates": [-96.3124299, 32.570993], "type": "Point"}, "id": "yUnFfK8iKEwqjNya5-5q1Zb3ow4=", "properties": {"@source_uri": "https://tools.usps.com/UspsToolsRestServices/rest/POLocator/findLocations", "@spider": "usps_collection_boxes", "addr:city": "KAUFMAN", "addr:country": "US", "addr:postcode": "75142", "addr:state": "TX", "addr:street_address": "2231 S WASHINGTON ST", "amenity": "post_box", "collection_times": "Mo-Fr 16:30; Sa 15:30", "indoor": "yes", "note": "ON 12/24 AND 12/31, THIS BOX MAY BE COLLECTED AS EARLY AS 12 NOON.", "nsi_id": "unitedstatespostalservice-a77078", "operator": "United States Postal Service", "operator:short": "USPS", "operator:type": "public", "operator:wikidata": "Q668687", "ref": "7514205183"}, "type": "Feature"}
{"geometry": {"coordinates": [-96.3124307, 32.570988], "type": "Point"}, "id": "unfk9tqtm6g0GAAHH9SVNTCmhhI=", "properties": {"@source_uri": "https://tools.usps.com/UspsToolsRestServices/rest/POLocator/findLocations", "@spider": "usps_collection_boxes", "addr:city": "KAUFMAN", "addr:country": "US", "addr:postcode": "75142", "addr:state": "TX", "addr:street_address": "2231 S WASHINGTON ST", "amenity": "post_box", "collection_times": "Mo-Fr 16:30; Sa 15:30", "indoor": "yes", "note": "ON 12/24 AND 12/31, THIS BOX MAY BE COLLECTED AS EARLY AS 12 NOON.", "nsi_id": "unitedstatespostalservice-a77078", "operator": "United States Postal Service", "operator:short": "USPS", "operator:type": "public", "operator:wikidata": "Q668687", "ref": "7514205184"}, "type": "Feature"}
{"geometry": {"coordinates": [-96.3075716, 32.589608], "type": "Point"}, "id": "UKv1ZkFkeAS30FN2V9cExITrxZI=", "properties": {"@source_uri": "https://tools.usps.com/UspsToolsRestServices/rest/POLocator/findLocations", "@spider": "usps_collection_boxes", "addr:city": "KAUFMAN", "addr:country": "US", "addr:postcode": "75142", "addr:state": "TX", "addr:street_address": "100 N WASHINGTON ST", "amenity": "post_box", "collection_times": "Mo-Sa 12:30", "note": "ON 12/24 AND 12/31, THIS BOX MAY BE COLLECTED AS EARLY AS 12 NOON.", "nsi_id": "unitedstatespostalservice-a77078", "operator": "United States Postal Service", "operator:short": "USPS", "operator:type": "public", "operator:wikidata": "Q668687", "ref": "7514205185"}, "type": "Feature"}
{"geometry": {"coordinates": [-96.313493995, 32.570895112], "type": "Point"}, "id": "38uuHbxWOySWtekSv3asfWIvYXA=", "properties": {"@source_uri": "https://tools.usps.com/UspsToolsRestServices/rest/POLocator/findLocations", "@spider": "usps_collection_boxes", "addr:city": "KAUFMAN", "addr:country": "US", "addr:postcode": "75142", "addr:state": "TX", "addr:street_address": "2231 S WASHINGTON ST", "amenity": "post_box", "collection_times": "Mo-Fr 17:00", "indoor": "yes", "note": "ON 12/24 AND 12/31, THIS BOX MAY BE COLLECTED AS EARLY AS 12 NOON.", "nsi_id": "unitedstatespostalservice-a77078", "operator": "United States Postal Service", "operator:short": "USPS", "operator:type": "public", "operator:wikidata": "Q668687", "ref": "7514205187"}, "type": "Feature"}
{"geometry": {"coordinates": [-96.231408, 32.442444], "type": "Point"}, "id": "F6byydNJ9iwGuM75b7nESgH9Gpk=", "properties": {"@source_uri": "https://tools.usps.com/UspsToolsRestServices/rest/POLocator/findLocations", "@spider": "usps_collection_boxes", "addr:city": "KEMP", "addr:country": "US", "addr:postcode": "75143", "addr:state": "TX", "addr:street_address": "101 W 9TH ST", "amenity": "post_box", "collection_times": "Mo-Fr 16:30; Sa 10:00", "indoor": "yes", "note": "ON 12/24 AND 12/31, THIS BOX MAY BE COLLECTED AS EARLY AS 12 NOON.", "nsi_id": "unitedstatespostalservice-a77078", "operator": "United States Postal Service", "operator:short": "USPS", "operator:type": "public", "operator:wikidata": "Q668687", "ref": "7514300864"}, "type": "Feature"}
{"geometry": {"coordinates": [-96.231408, 32.442444], "type": "Point"}, "id": "fE1aNpKa-jYUgQvIO5fFua2Jkh8=", "properties": {"@source_uri": "https://tools.usps.com/UspsToolsRestServices/rest/POLocator/findLocations", "@spider": "usps_collection_boxes", "addr:city": "KEMP", "addr:country": "US", "addr:postcode": "75143", "addr:state": "TX", "addr:street_address": "101 W 9TH ST", "amenity": "post_box", "collection_times": "Mo-Fr 16:30; Sa 10:00", "note": "ON 12/24 AND 12/31, THIS BOX MAY BE COLLECTED AS EARLY AS 12 NOON.", "nsi_id": "unitedstatespostalservice-a77078", "operator": "United States Postal Service", "operator:short": "USPS", "operator:type": "public", "operator:wikidata": "Q668687", "ref": "7514300865"}, "type": "Feature"}
{"geometry": {"coordinates": [-96.2052838, 32.323255], "type": "Point"}, "id": "nZ6A7njulEaxoS3drg4xXbn37K0=", "properties": {"@source_uri": "https://tools.usps.com/UspsToolsRestServices/rest/POLocator/findLocations", "@spider": "usps_collection_boxes", "addr:city": "KEMP", "addr:country": "US", "addr:postcode": "75143", "addr:state": "TX", "addr:street_address": "422 E CEDAR CREEK PKWY", "amenity": "post_box", "collection_times": "Mo-Sa 11:00", "nsi_id": "unitedstatespostalservice-a77078", "operator": "United States Postal Service", "operator:short": "USPS", "operator:type": "public", "operator:wikidata": "Q668687", "ref": "7514305813"}, "type": "Feature"}
{"geometry": {"coordinates": [-96.1871554, 32.288716], "type": "Point"}, "id": "bFLwywHKRHZf3eLHtV7dddfMhC4=", "properties": {"@source_uri": "https://tools.usps.com/UspsToolsRestServices/rest/POLocator/findLocations", "@spider": "usps_collection_boxes", "addr:city": "KEMP", "addr:country": "US", "addr:postcode": "75143", "addr:state": "TX", "addr:street_address": "701 N TOOL DR", "amenity": "post_box", "collection_times": "Mo-Sa 11:00", "nsi_id": "unitedstatespostalservice-a77078", "operator": "United States Postal Service", "operator:short": "USPS", "operator:type": "public", "operator:wikidata": "Q668687", "ref": "7514306001"}, "type": "Feature"}
{"geometry": {"coordinates": [-96.231387668, 32.442484345], "type": "Point"}, "id": "IiWXZ0jDZBgfZRZbfA3srmPyrXg=", "properties": {"@source_uri": "https://tools.usps.com/UspsToolsRestServices/rest/POLocator/findLocations", "@spider": "usps_collection_boxes", "addr:city": "KEMP", "addr:country": "US", "addr:postcode": "75143", "addr:state": "TX", "addr:street_address": "101 W 9TH ST", "amenity": "post_box", "collection_times": "Mo-Fr 16:30", "indoor": "yes", "note": "ON 12/24 AND 12/31, THIS BOX MAY BE COLLECTED AS EARLY AS 12 NOON.", "nsi_id": "unitedstatespostalservice-a77078", "operator": "United States Postal Service", "operator:short": "USPS", "operator:type": "public", "operator:wikidata": "Q668687", "ref": "7514306003"}, "type": "Feature"}
{"geometry": {"coordinates": [-96.2411635, 32.13122], "type": "Point"}, "id": "MRUt1wxuVVtOd5nJqCyhgndUE-Q=", "properties": {"@source_uri": "https://tools.usps.com/UspsToolsRestServices/rest/POLocator/findLocations", "@spider": "usps_collection_boxes", "addr:city": "KERENS", "addr:country": "US", "addr:postcode": "75144", "addr:state": "TX", "addr:street_address": "1001 NW 2ND ST", "amenity": "post_box", "collection_times": "Mo-Sa 13:30", "note": "ON 12/24 AND 12/31, THIS BOX MAY BE COLLECTED AS EARLY AS 12 NOON.", "nsi_id": "unitedstatespostalservice-a77078", "operator": "United States Postal Service", "operator:short": "USPS", "operator:type": "public", "operator:wikidata": "Q668687", "ref": "7514400868"}, "type": "Feature"}
{"geometry": {"coordinates": [-96.2275473, 32.130998], "type": "Point"}, "id": "NY01Simc_RsiD32QNZLr_JTOqs4=", "properties": {"@source_uri": "https://tools.usps.com/UspsToolsRestServices/rest/POLocator/findLocations", "@spider": "usps_collection_boxes", "addr:city": "KERENS", "addr:country": "US", "addr:postcode": "75144", "addr:state": "TX", "addr:street_address": "106 S COLKET ST", "amenity": "post_box", "collection_times": "Mo-Fr 16:30; Sa 11:00", "note": "ON 12/24 AND 12/31, THIS BOX MAY BE COLLECTED AS EARLY AS 12 NOON.", "nsi_id": "unitedstatespostalservice-a77078", "operator": "United States Postal Service", "operator:short": "USPS", "operator:type": "public", "operator:wikidata": "Q668687", "ref": "7514400869"}, "type": "Feature"}
{"geometry": {"coordinates": [-96.2276613, 32.13101], "type": "Point"}, "id": "-wO4sMmocVVJk_TO6YPIFeuOiJ0=", "properties": {"@source_uri": "https://tools.usps.com/UspsToolsRestServices/rest/POLocator/findLocations", "@spider": "usps_collection_boxes", "addr:city": "KERENS", "addr:country": "US", "addr:postcode": "75144", "addr:state": "TX", "addr:street_address": "106 S COLKET ST", "amenity": "post_box", "collection_times": "Mo-Fr 16:30; Sa 08:30", "indoor": "yes", "note": "ON 12/24 AND 12/31, THIS BOX MAY BE COLLECTED AS EARLY AS 12 NOON.", "nsi_id": "unitedstatespostalservice-a77078", "operator": "United States Postal Service", "operator:short": "USPS", "operator:type": "public", "operator:wikidata": "Q668687", "ref": "7514400870"}, "type": "Feature"}
{"geometry": {"coordinates": [-96.227611078, 32.13134495], "type": "Point"}, "id": "GLsK7O8u6Jv_x9mDnFTC0fanSBs=", "properties": {"@source_uri": "https://tools.usps.com/UspsToolsRestServices/rest/POLocator/findLocations", "@spider": "usps_collection_boxes", "addr:city": "KERENS", "addr:country": "US", "addr:postcode": "75144", "addr:state": "TX", "addr:street_address": "106 S COLKET ST", "amenity": "post_box", "collection_times": "Mo-Fr 16:30", "indoor": "yes", "note": "ON 12/24 AND 12/31, THIS BOX MAY BE COLLECTED AS EARLY AS 12 NOON.", "nsi_id": "unitedstatespostalservice-a77078", "operator": "United States Postal Service", "operator:short": "USPS", "operator:type": "public", "operator:wikidata": "Q668687", "ref": "7514400872"}, "type": "Feature"}
{"geometry": {"coordinates": [-96.7868716, 32.603021], "type": "Point"}, "id": "lxJWxGWLU6xVW0EREBwXb2KrnbQ=", "properties": {"@source_uri": "https://tools.usps.com/UspsToolsRestServices/rest/POLocator/findLocations", "@spider": "usps_collection_boxes", "addr:city": "LANCASTER", "addr:country": "US", "addr:postcode": "75146", "addr:state": "TX", "addr:street_address": "1400 W PLEASANT RUN RD", "amenity": "post_box", "collection_times": "Mo-Sa 11:00", "nsi_id": "unitedstatespostalservice-a77078", "operator": "United States Postal Service", "operator:short": "USPS", "operator:type": "public", "operator:wikidata": "Q668687", "ref": "7514600874"}, "type": "Feature"}
{"geometry": {"coordinates": [-96.8191415, 32.603667], "type": "Point"}, "id": "ma4xDpGvk0JkFi5m8kcCA5M3ADE=", "properties": {"@source_uri": "https://tools.usps.com/UspsToolsRestServices/rest/POLocator/findLocations", "@spider": "usps_collection_boxes", "addr:city": "LANCASTER", "addr:country": "US", "addr:postcode": "75146", "addr:state": "TX", "addr:street_address": "3200 W PLEASANT RUN RD", "amenity": "post_box", "collection_times": "Mo-Sa 09:00", "nsi_id": "unitedstatespostalservice-a77078", "operator": "United States Postal Service", "operator:short": "USPS", "operator:type": "public", "operator:wikidata": "Q668687", "ref": "7514600882"}, "type": "Feature"}
{"geometry": {"coordinates": [-96.758635, 32.596885], "type": "Point"}, "id": "yAvDsLxvC8W9-2MQPv5jJviklSI=", "properties": {"@source_uri": "https://tools.usps.com/UspsToolsRestServices/rest/POLocator/findLocations", "@spider": "usps_collection_boxes", "addr:city": "LANCASTER", "addr:country": "US", "addr:postcode": "75146", "addr:state": "TX", "addr:street_address": "200 N STATE ST", "amenity": "post_box", "collection_times": "Mo-Fr 17:00; Sa 13:00", "note": "ON 12/24 AND 12/31, THIS BOX MAY BE COLLECTED AS EARLY AS 12 NOON.", "nsi_id": "unitedstatespostalservice-a77078", "operator": "United States Postal Service", "operator:short": "USPS", "operator:type": "public", "operator:wikidata": "Q668687", "ref": "7514605243"}, "type": "Feature"}
{"geometry": {"coordinates": [-96.7543373749, 32.5931579686], "type": "Point"}, "id": "KogZIuXOu5Et3uRqWHJRvE6AEbE=", "properties": {"@source_uri": "https://tools.usps.com/UspsToolsRestServices/rest/POLocator/findLocations", "@spider": "usps_collection_boxes", "addr:city": "LANCASTER", "addr:country": "US", "addr:postcode": "75146", "addr:state": "TX", "addr:street_address": "200 N STATE ST", "amenity": "post_box", "collection_times": "Mo-Fr 17:00; Sa 13:00", "indoor": "yes", "note": "ON 12/24 AND 12/31, THIS BOX MAY BE COLLECTED AS EARLY AS 12 NOON.", "nsi_id": "unitedstatespostalservice-a77078", "operator": "United States Postal Service", "operator:short": "USPS", "operator:type": "public", "operator:wikidata": "Q668687", "ref": "7514605245"}, "type": "Feature"}
{"geometry": {"coordinates": [-96.7543373749, 32.5931579686], "type": "Point"}, "id": "aKcLDbD-7MHfShSzRJ9ytDrC_24=", "properties": {"@source_uri": "https://tools.usps.com/UspsToolsRestServices/rest/POLocator/findLocations", "@spider": "usps_collection_boxes", "addr:city": "LANCASTER", "addr:country": "US", "addr:postcode": "75146", "addr:state": "TX", "addr:street_address": "200 N STATE ST", "amenity": "post_box", "collection_times": "Mo-Fr 17:00; Sa 13:00", "indoor": "yes", "note": "ON 12/24 AND 12/31, THIS BOX MAY BE COLLECTED AS EARLY AS 12 NOON.", "nsi_id": "unitedstatespostalservice-a77078", "operator": "United States Postal Service", "operator:short": "USPS", "operator:type": "public", "operator:wikidata": "Q668687", "ref": "7514605247"}, "type": "Feature"}
{"geometry": {"coordinates": [-96.7543373749, 32.5931579686], "type": "Point"}, "id": "bw1snUUY6FnAZkLpzB5qSndzIG4=", "properties": {"@source_uri": "https://tools.usps.com/UspsToolsRestServices/rest/POLocator/findLocations", "@spider": "usps_collection_boxes", "addr:city": "LANCASTER", "addr:country": "US", "addr:postcode": "75146", "addr:state": "TX", "addr:street_address": "200 N STATE ST", "amenity": "post_box", "collection_times": "Mo-Fr 17:00", "indoor": "yes", "note": "ON 12/24 AND 12/31, THIS BOX MAY BE COLLECTED AS EARLY AS 12 NOON.", "nsi_id": "unitedstatespostalservice-a77078", "operator": "United States Postal Service", "operator:short": "USPS", "operator:type": "public", "operator:wikidata": "Q668687", "ref": "7514605249"}, "type": "Feature"}
{"geometry": {"coordinates": [-96.1352018068, 32.3308964895], "type": "Point"}, "id": "6IUvEZVIIcR6M_I9iym0rlpid70=", "properties": {"@source_uri": "https://tools.usps.com/UspsToolsRestServices/rest/POLocator/findLocations", "@spider": "usps_collection_boxes", "addr:city": "MABANK", "addr:country": "US", "addr:postcode": "75147", "addr:state": "TX", "addr:street_address": "1200 W MAIN ST", "amenity": "post_box", "collection_times": "Mo-Sa 09:00", "nsi_id": "unitedstatespostalservice-a77078", "operator": "United States Postal Service", "operator:short": "USPS", "operator:type": "public", "operator:wikidata": "Q668687", "ref": "7514700886"}, "type": "Feature"}
{"geometry": {"coordinates": [-96.1443585, 32.33115], "type": "Point"}, "id": "MbS48N_CGpL_VSxINhF0AY7j9FA=", "properties": {"@source_uri": "https://tools.usps.com/UspsToolsRestServices/rest/POLocator/findLocations", "@spider": "usps_collection_boxes", "addr:city": "MABANK", "addr:country": "US", "addr:postcode": "75147", "addr:state": "TX", "addr:street_address": "1716 W MAIN ST", "amenity": "post_box", "collection_times": "Mo-Sa 11:30", "nsi_id": "unitedstatespostalservice-a77078", "operator": "United States Postal Service", "operator:short": "USPS", "operator:type": "public", "operator:wikidata": "Q668687", "ref": "7514700889"}, "type": "Feature"}
{"geometry": {"coordinates": [-96.100615, 32.365345], "type": "Point"}, "id": "np7otlRCjeRc3r3bpsAd75HKMxQ=", "properties": {"@source_uri": "https://tools.usps.com/UspsToolsRestServices/rest/POLocator/findLocations", "@spider": "usps_collection_boxes", "addr:city": "MABANK", "addr:country": "US", "addr:postcode": "75147", "addr:state": "TX", "addr:street_address": "1401 S 3RD ST", "amenity": "post_box", "collection_times": "Mo-Fr 16:30; Sa 16:00", "note": "ON 12/24 AND 12/31, THIS BOX MAY BE COLLECTED AS EARLY AS 12 NOON.", "nsi_id": "unitedstatespostalservice-a77078", "operator": "United States Postal Service", "operator:short": "USPS", "operator:type": "public", "operator:wikidata": "Q668687", "ref": "7514700890"}, "type": "Feature"}
{"geometry": {"coordinates": [-96.1050311, 32.352215], "type": "Point"}, "id": "Qcrv_AmvV4Mh6dQmzyviLwv66S4=", "properties": {"@source_uri": "https://tools.usps.com/UspsToolsRestServices/rest/POLocator/findLocations", "@spider": "usps_collection_boxes", "addr:city": "MABANK", "addr:country": "US", "addr:postcode": "75147", "addr:state": "TX", "addr:street_address": "1401 S 3RD ST", "amenity": "post_box", "collection_times": "Mo-Fr 16:30; Sa 16:00", "indoor": "yes", "note": "ON 12/24 AND 12/31, THIS BOX MAY BE COLLECTED AS EARLY AS 12 NOON.", "nsi_id": "unitedstatespostalservice-a77078", "operator": "United States Postal Service", "operator:short": "USPS", "operator:type": "public", "operator:wikidata": "Q668687", "ref": "7514705925"}, "type": "Feature"}
{"geometry": {"coordinates": [-96.1050671, 32.352204], "type": "Point"}, "id": "A7n_VinToL6Rh7_j0VOBNWtGs-g=", "properties": {"@source_uri": "https://tools.usps.com/UspsToolsRestServices/rest/POLocator/findLocations", "@spider": "usps_collection_boxes", "addr:city": "MABANK", "addr:country": "US", "addr:postcode": "75147", "addr:state": "TX", "addr:street_address": "1401 S 3RD ST", "amenity": "post_box", "collection_times": "Mo-Fr 16:30; Sa 16:00", "indoor": "yes", "note": "ON 12/24 AND 12/31, THIS BOX MAY BE COLLECTED AS EARLY AS 12 NOON.", "nsi_id": "unitedstatespostalservice-a77078", "operator": "United States Postal Service", "operator:short": "USPS", "operator:type": "public", "operator:wikidata": "Q668687", "ref": "7514706203"}, "type": "Feature"}
{"geometry": {"coordinates": [-96.105531568, 32.352389236], "type": "Point"}, "id": "UE1pF5Ac_fPut-B5ax9kva91x8k=", "properties": {"@source_uri": "https://tools.usps.com/UspsToolsRestServices/rest/POLocator/findLocations", "@spider": "usps_collection_boxes", "addr:city": "MABANK", "addr:country": "US", "addr:postcode": "75147", "addr:state": "TX", "addr:street_address": "1401 S 3RD ST", "amenity": "post_box", "collection_times": "Mo-Fr 16:30", "indoor": "yes", "note": "ON 12/24 AND 12/31, THIS BOX MAY BE COLLECTED AS EARLY AS 12 NOON.", "nsi_id": "unitedstatespostalservice-a77078", "operator": "United States Postal Service", "operator:short": "USPS", "operator:type": "public", "operator:wikidata": "Q668687", "ref": "7514706205"}, "type": "Feature"}
{"geometry": {"coordinates": [-96.012677, 32.169975], "type": "Point"}, "id": "ld92wveveP366VBIjDo4sxuNz8w=", "properties": {"@source_uri": "https://tools.usps.com/UspsToolsRestServices/rest/POLocator/findLocations", "@spider": "usps_collection_boxes", "addr:city": "MALAKOFF", "addr:country": "US", "addr:postcode": "75148", "addr:state": "TX", "addr:street_address": "101 S TERRY ST", "amenity": "post_box", "collection_times": "Mo-Sa 13:00", "note": "ON 12/24 AND 12/31, THIS BOX MAY BE COLLECTED AS EARLY AS 12 NOON.", "nsi_id": "unitedstatespostalservice-a77078", "operator": "United States Postal Service", "operator:short": "USPS", "operator:type": "public", "operator:wikidata": "Q668687", "ref": "7514800893"}, "type": "Feature"}
{"geometry": {"coordinates": [-96.021113, 32.170279], "type": "Point"}, "id": "ppUrkMPWOY18XHXbDCVPAkerYJk=", "properties": {"@source_uri": "https://tools.usps.com/UspsToolsRestServices/rest/POLocator/findLocations", "@spider": "usps_collection_boxes", "addr:city": "MALAKOFF", "addr:country": "US", "addr:postcode": "75148", "addr:state": "TX", "addr:street_address": "609 W ROYALL BLVD", "amenity": "post_box", "collection_times": "Mo-Fr 16:30; Sa 09:00", "note": "ON 12/24 AND 12/31, THIS BOX MAY BE COLLECTED AS EARLY AS 12 NOON.", "nsi_id": "unitedstatespostalservice-a77078", "operator": "United States Postal Service", "operator:short": "USPS", "operator:type": "public", "operator:wikidata": "Q668687", "ref": "7514800894"}, "type": "Feature"}
{"geometry": {"coordinates": [-96.0215509, 32.226338], "type": "Point"}, "id": "5X_WitgyFBotvfUHUamATahYjQI=", "properties": {"@source_uri": "https://tools.usps.com/UspsToolsRestServices/rest/POLocator/findLocations", "@spider": "usps_collection_boxes", "addr:city": "MALAKOFF", "addr:country": "US", "addr:postcode": "75148", "addr:state": "TX", "addr:street_address": "14388 ALAMO RD", "amenity": "post_box", "collection_times": "Mo-Sa 11:00", "nsi_id": "unitedstatespostalservice-a77078", "operator": "United States Postal Service", "operator:short": "USPS", "operator:type": "public", "operator:wikidata": "Q668687", "ref": "7514807360"}, "type": "Feature"}
{"geometry": {"coordinates": [-96.021113, 32.170279], "type": "Point"}, "id": "1W51bHeenJto-5R2FN3UwVVfi4Y=", "properties": {"@source_uri": "https://tools.usps.com/UspsToolsRestServices/rest/POLocator/findLocations", "@spider": "usps_collection_boxes", "addr:city": "MALAKOFF", "addr:country": "US", "addr:postcode": "75148", "addr:state": "TX", "addr:street_address": "609 W ROYALL BLVD", "amenity": "post_box", "collection_times": "Mo-Fr 16:30; Sa 09:00", "indoor": "yes", "note": "ON 12/24 AND 12/31, THIS BOX MAY BE COLLECTED AS EARLY AS 12 NOON.", "nsi_id": "unitedstatespostalservice-a77078", "operator": "United States Postal Service", "operator:short": "USPS", "operator:type": "public", "operator:wikidata": "Q668687", "ref": "7514807362"}, "type": "Feature"}
{"geometry": {"coordinates": [-96.021113, 32.170279], "type": "Point"}, "id": "IH_mZpolOFNK_fqzGJQmt61qFrU=", "properties": {"@source_uri": "https://tools.usps.com/UspsToolsRestServices/rest/POLocator/findLocations", "@spider": "usps_collection_boxes", "addr:city": "MALAKOFF", "addr:country": "US", "addr:postcode": "75148", "addr:state": "TX", "addr:street_address": "609 W ROYALL BLVD", "amenity": "post_box", "collection_times": "Mo-Fr 16:30; Sa 09:00", "indoor": "yes", "note": "ON 12/24 AND 12/31, THIS BOX MAY BE COLLECTED AS EARLY AS 12 NOON.", "nsi_id": "unitedstatespostalservice-a77078", "operator": "United States Postal Service", "operator:short": "USPS", "operator:type": "public", "operator:wikidata": "Q668687", "ref": "7514807363"}, "type": "Feature"}
{"geometry": {"coordinates": [-96.021119305, 32.170223433], "type": "Point"}, "id": "fM1I2Yn1P2Czi3SK5z_nuNuVTug=", "properties": {"@source_uri": "https://tools.usps.com/UspsToolsRestServices/rest/POLocator/findLocations", "@spider": "usps_collection_boxes", "addr:city": "MALAKOFF", "addr:country": "US", "addr:postcode": "75148", "addr:state": "TX", "addr:street_address": "609 W ROYALL BLVD", "amenity": "post_box", "collection_times": "Mo-Fr 16:30", "indoor": "yes", "note": "ON 12/24 AND 12/31, THIS BOX MAY BE COLLECTED AS EARLY AS 12 NOON.", "nsi_id": "unitedstatespostalservice-a77078", "operator": "United States Postal Service", "operator:short": "USPS", "operator:type": "public", "operator:wikidata": "Q668687", "ref": "7514807364"}, "type": "Feature"}
{"geometry": {"coordinates": [-96.6228099, 32.748944], "type": "Point"}, "id": "0uu7cPYgzu3gtY-CaVOjHEl_OQc=", "properties": {"@source_uri": "https://tools.usps.com/UspsToolsRestServices/rest/POLocator/findLocations", "@spider": "usps_collection_boxes", "addr:city": "MESQUITE", "addr:country": "US", "addr:postcode": "75149", "addr:state": "TX", "addr:street_address": "1701 W BRUTON RD", "amenity": "post_box", "collection_times": "Mo-Fr 13:00", "note": "ON 12/24 AND 12/31, THIS BOX MAY BE COLLECTED AS EARLY AS 12 NOON.", "nsi_id": "unitedstatespostalservice-a77078", "operator": "United States Postal Service", "operator:short": "USPS", "operator:type": "public", "operator:wikidata": "Q668687", "ref": "7514900898"}, "type": "Feature"}
{"geometry": {"coordinates": [-96.6073568, 32.787764], "type": "Point"}, "id": "SqUnes3PSfsbrpLa0Fch4VxwCu0=", "properties": {"@source_uri": "https://tools.usps.com/UspsToolsRestServices/rest/POLocator/findLocations", "@spider": "usps_collection_boxes", "addr:city": "MESQUITE", "addr:country": "US", "addr:postcode": "75149", "addr:state": "TX", "addr:street_address": "1835 N GALLOWAY AVE", "amenity": "post_box", "collection_times": "Mo-Fr 11:00", "nsi_id": "unitedstatespostalservice-a77078", "operator": "United States Postal Service", "operator:short": "USPS", "operator:type": "public", "operator:wikidata": "Q668687", "ref": "7514900907"}, "type": "Feature"}
{"geometry": {"coordinates": [-96.598174, 32.775713], "type": "Point"}, "id": "nOodqnTNknbSlRosVSfjuyk2ZIA=", "properties": {"@source_uri": "https://tools.usps.com/UspsToolsRestServices/rest/POLocator/findLocations", "@spider": "usps_collection_boxes", "addr:city": "MESQUITE", "addr:country": "US", "addr:postcode": "75149", "addr:state": "TX", "addr:street_address": "120 E GRUBB DR", "amenity": "post_box", "collection_times": "Mo-Fr 17:00; Sa 11:45", "indoor": "yes", "note": "ON 12/24 AND 12/31, THIS BOX MAY BE COLLECTED AS EARLY AS 12 NOON.", "nsi_id": "unitedstatespostalservice-a77078", "operator": "United States Postal Service", "operator:short": "USPS", "operator:type": "public", "operator:wikidata": "Q668687", "ref": "7514900920"}, "type": "Feature"}
{"geometry": {"coordinates": [-96.6007716, 32.782172], "type": "Point"}, "id": "deCensCDJm-PmO23A9yHOJr9qHQ=", "properties": {"@source_uri": "https://tools.usps.com/UspsToolsRestServices/rest/POLocator/findLocations", "@spider": "usps_collection_boxes", "addr:city": "MESQUITE", "addr:country": "US", "addr:postcode": "75149", "addr:state": "TX", "addr:street_address": "1336 N GALLOWAY AVE", "amenity": "post_box", "collection_times": "Mo-Sa 10:45", "nsi_id": "unitedstatespostalservice-a77078", "operator": "United States Postal Service", "operator:short": "USPS", "operator:type": "public", "operator:wikidata": "Q668687", "ref": "7514900923"}, "type": "Feature"}
{"geometry": {"coordinates": [-96.598174, 32.775713], "type": "Point"}, "id": "j5yD5Z9hKlB2m5fh6Q-fPfzXyx0=", "properties": {"@source_uri": "https://tools.usps.com/UspsToolsRestServices/rest/POLocator/findLocations", "@spider": "usps_collection_boxes", "addr:city": "MESQUITE", "addr:country": "US", "addr:postcode": "75149", "addr:state": "TX", "addr:street_address": "120 E GRUBB DR", "amenity": "post_box", "collection_times": "Mo-Fr 17:00; Sa 17:30", "note": "ON 12/24 AND 12/31, THIS BOX MAY BE COLLECTED AS EARLY AS 12 NOON.", "nsi_id": "unitedstatespostalservice-a77078", "operator": "United States Postal Service", "operator:short": "USPS", "operator:type": "public", "operator:wikidata": "Q668687", "ref": "7514905262"}, "type": "Feature"}
{"geometry": {"coordinates": [-96.6304795, 32.768425], "type": "Point"}, "id": "wx3xoka5xAKVjJ6VBzw7C_C8Ux8=", "properties": {"@source_uri": "https://tools.usps.com/UspsToolsRestServices/rest/POLocator/findLocations", "@spider": "usps_collection_boxes", "addr:city": "MESQUITE", "addr:country": "US", "addr:postcode": "75149", "addr:state": "TX", "addr:street_address": "2033 MILITARY PKWY", "amenity": "post_box", "collection_times": "Mo-Sa 09:30", "nsi_id": "unitedstatespostalservice-a77078", "operator": "United States Postal Service", "operator:short": "USPS", "operator:type": "public", "operator:wikidata": "Q668687", "ref": "7514906760"}, "type": "Feature"}
{"geometry": {"coordinates": [-96.5838324, 32.764263], "type": "Point"}, "id": "IecIG0yrIeSWDkuWj4eTdLhTxbE=", "properties": {"@source_uri": "https://tools.usps.com/UspsToolsRestServices/rest/POLocator/findLocations", "@spider": "usps_collection_boxes", "addr:city": "MESQUITE", "addr:country": "US", "addr:postcode": "75149", "addr:state": "TX", "addr:street_address": "1200 E DAVIS ST", "amenity": "post_box", "collection_times": "Mo-Sa 10:30", "nsi_id": "unitedstatespostalservice-a77078", "operator": "United States Postal Service", "operator:short": "USPS", "operator:type": "public", "operator:wikidata": "Q668687", "ref": "7514906761"}, "type": "Feature"}
{"geometry": {"coordinates": [-96.5972146, 32.746754], "type": "Point"}, "id": "8PWRkDdpuwz6EcSc-n6tkxyRGbM=", "properties": {"@source_uri": "https://tools.usps.com/UspsToolsRestServices/rest/POLocator/findLocations", "@spider": "usps_collection_boxes", "addr:city": "MESQUITE", "addr:country": "US", "addr:postcode": "75149", "addr:state": "TX", "addr:street_address": "1433 S BELT LINE RD", "amenity": "post_box", "collection_times": "Mo-Sa 09:45", "nsi_id": "unitedstatespostalservice-a77078", "operator": "United States Postal Service", "operator:short": "USPS", "operator:type": "public", "operator:wikidata": "Q668687", "ref": "7514907282"}, "type": "Feature"}
{"geometry": {"coordinates": [-96.598174, 32.775713], "type": "Point"}, "id": "96z8j_HIggd0OBkSxiUeesewbL4=", "properties": {"@source_uri": "https://tools.usps.com/UspsToolsRestServices/rest/POLocator/findLocations", "@spider": "usps_collection_boxes", "addr:city": "MESQUITE", "addr:country": "US", "addr:postcode": "75149", "addr:state": "TX", "addr:street_address": "120 E GRUBB DR", "amenity": "post_box", "collection_times": "Mo-Fr 17:00; Sa 11:45", "indoor": "yes", "note": "ON 12/24 AND 12/31, THIS BOX MAY BE COLLECTED AS EARLY AS 12 NOON.", "nsi_id": "unitedstatespostalservice-a77078", "operator": "United States Postal Service", "operator:short": "USPS", "operator:type": "public", "operator:wikidata": "Q668687", "ref": "7514907283"}, "type": "Feature"}
{"geometry": {"coordinates": [-96.598174, 32.775713], "type": "Point"}, "id": "8OMw78bNrLCqWxsSG7Wf4qGSlF8=", "properties": {"@source_uri": "https://tools.usps.com/UspsToolsRestServices/rest/POLocator/findLocations", "@spider": "usps_collection_boxes", "addr:city": "MESQUITE", "addr:country": "US", "addr:postcode": "75149", "addr:state": "TX", "addr:street_address": "120 E GRUBB DR", "amenity": "post_box", "collection_times": "Mo-Fr 17:00; Sa 11:45", "name": "USPS COLLECTION BOX - APC", "note": "ON 12/24 AND 12/31, THIS BOX MAY BE COLLECTED AS EARLY AS 12 NOON.", "nsi_id": "unitedstatespostalservice-a77078", "operator": "United States Postal Service", "operator:short": "USPS", "operator:type": "public", "operator:wikidata": "Q668687", "ref": "7514907286"}, "type": "Feature"}
{"geometry": {"coordinates": [-96.598017607, 32.775676747], "type": "Point"}, "id": "uxPb0bNHKUbgbud7JYNww2YEF1k=", "properties": {"@source_uri": "https://tools.usps.com/UspsToolsRestServices/rest/POLocator/findLocations", "@spider": "usps_collection_boxes", "addr:city": "MESQUITE", "addr:country": "US", "addr:postcode": "75149", "addr:state": "TX", "addr:street_address": "120 E GRUBB DR", "amenity": "post_box", "collection_times": "Mo-Fr 17:00; Sa 12:00", "indoor": "yes", "note": "ON 12/24 AND 12/31, THIS BOX MAY BE COLLECTED AS EARLY AS 12 NOON.", "nsi_id": "unitedstatespostalservice-a77078", "operator": "United States Postal Service", "operator:short": "USPS", "operator:type": "public", "operator:wikidata": "Q668687", "ref": "7514907292"}, "type": "Feature"}
{"geometry": {"coordinates": [-96.6478633, 32.825343], "type": "Point"}, "id": "RetreSeBfxtd_XWc1HYrb8KBEgM=", "properties": {"@source_uri": "https://tools.usps.com/UspsToolsRestServices/rest/POLocator/findLocations", "@spider": "usps_collection_boxes", "addr:city": "MESQUITE", "addr:country": "US", "addr:postcode": "75150", "addr:state": "TX", "addr:street_address": "4600 GUS THOMASSON RD", "amenity": "post_box", "collection_times": "Mo-Fr 15:00; Sa 13:00", "note": "ON 12/24 AND 12/31, THIS BOX MAY BE COLLECTED AS EARLY AS 12 NOON.", "nsi_id": "unitedstatespostalservice-a77078", "operator": "United States Postal Service", "operator:short": "USPS", "operator:type": "public", "operator:wikidata": "Q668687", "ref": "7515000001"}, "type": "Feature"}
{"geometry": {"coordinates": [-96.6207152, 32.810644], "type": "Point"}, "id": "wtHwoq8s79c9UzxEUzpXDBVl5ss=", "properties": {"@source_uri": "https://tools.usps.com/UspsToolsRestServices/rest/POLocator/findLocations", "@spider": "usps_collection_boxes", "addr:city": "MESQUITE", "addr:country": "US", "addr:postcode": "75150", "addr:state": "TX", "addr:street_address": "1638 N TOWN EAST BLVD", "amenity": "post_box", "collection_times": "Mo-Sa 12:00", "nsi_id": "unitedstatespostalservice-a77078", "operator": "United States Postal Service", "operator:short": "USPS", "operator:type": "public", "operator:wikidata": "Q668687", "ref": "7515000006"}, "type": "Feature"}
{"geometry": {"coordinates": [-96.617067017, 32.793748999], "type": "Point"}, "id": "YXwmnKEr_YiOXpkxmYfqYuaPR-M=", "properties": {"@source_uri": "https://tools.usps.com/UspsToolsRestServices/rest/POLocator/findLocations", "@spider": "usps_collection_boxes", "addr:city": "MESQUITE", "addr:country": "US", "addr:postcode": "75150", "addr:state": "TX", "addr:street_address": "1331 US HIGHWAY 80 E", "amenity": "post_box", "collection_times": "Mo-Sa 10:45", "nsi_id": "unitedstatespostalservice-a77078", "operator": "United States Postal Service", "operator:short": "USPS", "operator:type": "public", "operator:wikidata": "Q668687", "ref": "7515000007"}, "type": "Feature"}
{"geometry": {"coordinates": [-96.6184771, 32.811674], "type": "Point"}, "id": "IbawowQnujcbbgnX7XUKyqWJDTE=", "properties": {"@source_uri": "https://tools.usps.com/UspsToolsRestServices/rest/POLocator/findLocations", "@spider": "usps_collection_boxes", "addr:city": "MESQUITE", "addr:country": "US", "addr:postcode": "75150", "addr:state": "TX", "addr:street_address": "1515 N TOWN EAST BLVD", "amenity": "post_box", "collection_times": "Mo-Sa 10:30", "nsi_id": "unitedstatespostalservice-a77078", "operator": "United States Postal Service", "operator:short": "USPS", "operator:type": "public", "operator:wikidata": "Q668687", "ref": "7515000008"}, "type": "Feature"}
{"geometry": {"coordinates": [-96.6107557, 32.794444], "type": "Point"}, "id": "SM2dAF4cj-wQSOS5LreQhlkgF7o=", "properties": {"@source_uri": "https://tools.usps.com/UspsToolsRestServices/rest/POLocator/findLocations", "@spider": "usps_collection_boxes", "addr:city": "MESQUITE", "addr:country": "US", "addr:postcode": "75150", "addr:state": "TX", "addr:street_address": "2110 N GALLOWAY AVE", "amenity": "post_box", "collection_times": "Mo-Fr 15:00; Sa 13:00", "note": "ON 12/24 AND 12/31, THIS BOX MAY BE COLLECTED AS EARLY AS 12 NOON.", "nsi_id": "unitedstatespostalservice-a77078", "operator": "United States Postal Service", "operator:short": "USPS", "operator:type": "public", "operator:wikidata": "Q668687", "ref": "7515000012"}, "type": "Feature"}
{"geometry": {"coordinates": [-96.6215586, 32.79982], "type": "Point"}, "id": "DcCDgOwYNFCKKew43-bqjmibuoU=", "properties": {"@source_uri": "https://tools.usps.com/UspsToolsRestServices/rest/POLocator/findLocations", "@spider": "usps_collection_boxes", "addr:city": "MESQUITE", "addr:country": "US", "addr:postcode": "75150", "addr:state": "TX", "addr:street_address": "2701 FRANKLIN DR", "amenity": "post_box", "collection_times": "Mo-Fr 15:00; Sa 13:00", "note": "ON 12/24 AND 12/31, THIS BOX MAY BE COLLECTED AS EARLY AS 12 NOON.", "nsi_id": "unitedstatespostalservice-a77078", "operator": "United States Postal Service", "operator:short": "USPS", "operator:type": "public", "operator:wikidata": "Q668687", "ref": "7515000015"}, "type": "Feature"}
{"geometry": {"coordinates": [-96.6532114, 32.79616], "type": "Point"}, "id": "rKDUOdwRFHgATI0quMZeZ6Sbz8k=", "properties": {"@source_uri": "https://tools.usps.com/UspsToolsRestServices/rest/POLocator/findLocations", "@spider": "usps_collection_boxes", "addr:city": "MESQUITE", "addr:country": "US", "addr:postcode": "75150", "addr:state": "TX", "addr:street_address": "3801 N TOWN EAST BLVD", "amenity": "post_box", "collection_times": "Mo-Fr 15:00; Sa 13:00", "note": "ON 12/24 AND 12/31, THIS BOX MAY BE COLLECTED AS EARLY AS 12 NOON.", "nsi_id": "unitedstatespostalservice-a77078", "operator": "United States Postal Service", "operator:short": "USPS", "operator:type": "public", "operator:wikidata": "Q668687", "ref": "7515000021"}, "type": "Feature"}
{"geometry": {"coordinates": [-96.6423964, 32.820654], "type": "Point"}, "id": "pmLUyDyiPrt8TWaUPsiTLWeqzbU=", "properties": {"@source_uri": "https://tools.usps.com/UspsToolsRestServices/rest/POLocator/findLocations", "@spider": "usps_collection_boxes", "addr:city": "MESQUITE", "addr:country": "US", "addr:postcode": "75150", "addr:state": "TX", "addr:street_address": "4200 GUS THOMASSON RD", "amenity": "post_box", "collection_times": "Mo-Fr 12:00", "nsi_id": "unitedstatespostalservice-a77078", "operator": "United States Postal Service", "operator:short": "USPS", "operator:type": "public", "operator:wikidata": "Q668687", "ref": "7515000024"}, "type": "Feature"}
{"geometry": {"coordinates": [-96.6357366, 32.812791], "type": "Point"}, "id": "EK8ERI4gd6GYeo8MwYGyzWUwwQM=", "properties": {"@source_uri": "https://tools.usps.com/UspsToolsRestServices/rest/POLocator/findLocations", "@spider": "usps_collection_boxes", "addr:city": "MESQUITE", "addr:country": "US", "addr:postcode": "75150", "addr:state": "TX", "addr:street_address": "3500 GUS THOMASSON RD STE 35", "amenity": "post_box", "collection_times": "Mo-Fr 17:00; Sa 13:00", "note": "ON 12/24 AND 12/31, THIS BOX MAY BE COLLECTED AS EARLY AS 12 NOON.", "nsi_id": "unitedstatespostalservice-a77078", "operator": "United States Postal Service", "operator:short": "USPS", "operator:type": "public", "operator:wikidata": "Q668687", "ref": "7515000031"}, "type": "Feature"}
{"geometry": {"coordinates": [-96.6359851, 32.812633], "type": "Point"}, "id": "nXI5En7miPwZSgvlIdU3JVEba-0=", "properties": {"@source_uri": "https://tools.usps.com/UspsToolsRestServices/rest/POLocator/findLocations", "@spider": "usps_collection_boxes", "addr:city": "MESQUITE", "addr:country": "US", "addr:postcode": "75150", "addr:state": "TX", "addr:street_address": "3500 GUS THOMASSON RD STE 35", "amenity": "post_box", "collection_times": "Mo-Fr 17:00; Sa 13:00", "indoor": "yes", "note": "ON 12/24 AND 12/31, THIS BOX MAY BE COLLECTED AS EARLY AS 12 NOON.", "nsi_id": "unitedstatespostalservice-a77078", "operator": "United States Postal Service", "operator:short": "USPS", "operator:type": "public", "operator:wikidata": "Q668687", "ref": "7515000038"}, "type": "Feature"}
{"geometry": {"coordinates": [-96.635848, 32.812688], "type": "Point"}, "id": "cKSSgElWAquI82L31b1vCxYzoxE=", "properties": {"@source_uri": "https://tools.usps.com/UspsToolsRestServices/rest/POLocator/findLocations", "@spider": "usps_collection_boxes", "addr:city": "MESQUITE", "addr:country": "US", "addr:postcode": "75150", "addr:state": "TX", "addr:street_address": "3500 GUS THOMASSON RD STE 35", "amenity": "post_box", "collection_times": "Mo-Fr 17:00; Sa 13:00", "indoor": "yes", "note": "ON 12/24 AND 12/31, THIS BOX MAY BE COLLECTED AS EARLY AS 12 NOON.", "nsi_id": "unitedstatespostalservice-a77078", "operator": "United States Postal Service", "operator:short": "USPS", "operator:type": "public", "operator:wikidata": "Q668687", "ref": "7515000039"}, "type": "Feature"}
{"geometry": {"coordinates": [-96.5949705, 32.797323], "type": "Point"}, "id": "5651UMk_Fdb9mgzCCpLFcgA2X_Y=", "properties": {"@source_uri": "https://tools.usps.com/UspsToolsRestServices/rest/POLocator/findLocations", "@spider": "usps_collection_boxes", "addr:city": "MESQUITE", "addr:country": "US", "addr:postcode": "75150", "addr:state": "TX", "addr:street_address": "2424 N BELT LINE RD", "amenity": "post_box", "collection_times": "Mo-Sa 12:00", "nsi_id": "unitedstatespostalservice-a77078", "operator": "United States Postal Service", "operator:short": "USPS", "operator:type": "public", "operator:wikidata": "Q668687", "ref": "7515000041"}, "type": "Feature"}
{"geometry": {"coordinates": [-96.6109249, 32.811078], "type": "Point"}, "id": "kLTV5H32IbB9OFvBfik0p56rQ9o=", "properties": {"@source_uri": "https://tools.usps.com/UspsToolsRestServices/rest/POLocator/findLocations", "@spider": "usps_collection_boxes", "addr:city": "MESQUITE", "addr:country": "US", "addr:postcode": "75150", "addr:state": "TX", "addr:street_address": "3344 N GALLOWAY AVE", "amenity": "post_box", "collection_times": "Mo-Fr 15:00; Sa 13:00", "note": "ON 12/24 AND 12/31, THIS BOX MAY BE COLLECTED AS EARLY AS 12 NOON.", "nsi_id": "unitedstatespostalservice-a77078", "operator": "United States Postal Service", "operator:short": "USPS", "operator:type": "public", "operator:wikidata": "Q668687", "ref": "7515000044"}, "type": "Feature"}
{"geometry": {"coordinates": [-96.6463143, 32.802857], "type": "Point"}, "id": "A-CMu9cVrFFOcBuG2xOtUz8zncs=", "properties": {"@source_uri": "https://tools.usps.com/UspsToolsRestServices/rest/POLocator/findLocations", "@spider": "usps_collection_boxes", "addr:city": "MESQUITE", "addr:country": "US", "addr:postcode": "75150", "addr:state": "TX", "addr:street_address": "2828 MOTLEY DR", "amenity": "post_box", "collection_times": "Mo-Fr 15:00; Sa 13:00", "note": "ON 12/24 AND 12/31, THIS BOX MAY BE COLLECTED AS EARLY AS 12 NOON.", "nsi_id": "unitedstatespostalservice-a77078", "operator": "United States Postal Service", "operator:short": "USPS", "operator:type": "public", "operator:wikidata": "Q668687", "ref": "7515000045"}, "type": "Feature"}
{"geometry": {"coordinates": [-96.6314466, 32.835448], "type": "Point"}, "id": "rSrLmCmd-mVO3mxLC1ZMBfjydA0=", "properties": {"@source_uri": "https://tools.usps.com/UspsToolsRestServices/rest/POLocator/findLocations", "@spider": "usps_collection_boxes", "addr:city": "MESQUITE", "addr:country": "US", "addr:postcode": "75150", "addr:state": "TX", "addr:street_address": "1900 OATES DR", "amenity": "post_box", "collection_times": "Mo-Fr 15:00; Sa 13:00", "note": "ON 12/24 AND 12/31, THIS BOX MAY BE COLLECTED AS EARLY AS 12 NOON.", "nsi_id": "unitedstatespostalservice-a77078", "operator": "United States Postal Service", "operator:short": "USPS", "operator:type": "public", "operator:wikidata": "Q668687", "ref": "7515000050"}, "type": "Feature"}
{"geometry": {"coordinates": [-96.6442211, 32.823145], "type": "Point"}, "id": "piuKbwDT-TiWlI-gKtYPMuGqTbI=", "properties": {"@source_uri": "https://tools.usps.com/UspsToolsRestServices/rest/POLocator/findLocations", "@spider": "usps_collection_boxes", "addr:city": "MESQUITE", "addr:country": "US", "addr:postcode": "75150", "addr:state": "TX", "addr:street_address": "4406 GUS THOMASSON RD", "amenity": "post_box", "collection_times": "Mo-Fr 15:00; Sa 13:00", "note": "ON 12/24 AND 12/31, THIS BOX MAY BE COLLECTED AS EARLY AS 12 NOON.", "nsi_id": "unitedstatespostalservice-a77078", "operator": "United States Postal Service", "operator:short": "USPS", "operator:type": "public", "operator:wikidata": "Q668687", "ref": "7515000053"}, "type": "Feature"}
{"geometry": {"coordinates": [-96.6347437298, 32.8116032247], "type": "Point"}, "id": "F56ZwFG8nU2XgiB0Tj7SD0p7G4I=", "properties": {"@source_uri": "https://tools.usps.com/UspsToolsRestServices/rest/POLocator/findLocations", "@spider": "usps_collection_boxes", "addr:city": "MESQUITE", "addr:country": "US", "addr:postcode": "75150", "addr:state": "TX", "addr:street_address": "3501 GUS THOMASSON RD STE 35", "amenity": "post_box", "collection_times": "Mo-Fr 17:00", "indoor": "yes", "note": "ON 12/24 AND 12/31, THIS BOX MAY BE COLLECTED AS EARLY AS 12 NOON.", "nsi_id": "unitedstatespostalservice-a77078", "operator": "United States Postal Service", "operator:short": "USPS", "operator:type": "public", "operator:wikidata": "Q668687", "ref": "7515000063"}, "type": "Feature"}
{"geometry": {"coordinates": [-96.664565, 32.432222], "type": "Point"}, "id": "JbJgqvVbvWrK8r1gEscmbAVzW_s=", "properties": {"@source_uri": "https://tools.usps.com/UspsToolsRestServices/rest/POLocator/findLocations", "@spider": "usps_collection_boxes", "addr:city": "PALMER", "addr:country": "US", "addr:postcode": "75152", "addr:state": "TX", "addr:street_address": "310 E JEFFERSON ST", "amenity": "post_box", "collection_times": "Mo-Fr 16:00; Sa 08:30", "note": "ON 12/24 AND 12/31, THIS BOX MAY BE COLLECTED AS EARLY AS 12 NOON.", "nsi_id": "unitedstatespostalservice-a77078", "operator": "United States Postal Service", "operator:short": "USPS", "operator:type": "public", "operator:wikidata": "Q668687", "ref": "7515200961"}, "type": "Feature"}
{"geometry": {"coordinates": [-96.664565, 32.432222], "type": "Point"}, "id": "k0Tl0N04C-s_rdrrKWFi3O6tUtE=", "properties": {"@source_uri": "https://tools.usps.com/UspsToolsRestServices/rest/POLocator/findLocations", "@spider": "usps_collection_boxes", "addr:city": "PALMER", "addr:country": "US", "addr:postcode": "75152", "addr:state": "TX", "addr:street_address": "310 E JEFFERSON ST", "amenity": "post_box", "collection_times": "Mo-Fr 16:00; Sa 08:30", "indoor": "yes", "note": "ON 12/24 AND 12/31, THIS BOX MAY BE COLLECTED AS EARLY AS 12 NOON.", "nsi_id": "unitedstatespostalservice-a77078", "operator": "United States Postal Service", "operator:short": "USPS", "operator:type": "public", "operator:wikidata": "Q668687", "ref": "7515205247"}, "type": "Feature"}
{"geometry": {"coordinates": [-96.664565, 32.432222], "type": "Point"}, "id": "5LzU0Y57EEA-vaC1ju1yL4hCAnk=", "properties": {"@source_uri": "https://tools.usps.com/UspsToolsRestServices/rest/POLocator/findLocations", "@spider": "usps_collection_boxes", "addr:city": "PALMER", "addr:country": "US", "addr:postcode": "75152", "addr:state": "TX", "addr:street_address": "310 E JEFFERSON ST", "amenity": "post_box", "collection_times": "Mo-Fr 16:00; Sa 08:30", "indoor": "yes", "note": "ON 12/24 AND 12/31, THIS BOX MAY BE COLLECTED AS EARLY AS 12 NOON.", "nsi_id": "unitedstatespostalservice-a77078", "operator": "United States Postal Service", "operator:short": "USPS", "operator:type": "public", "operator:wikidata": "Q668687", "ref": "7515205248"}, "type": "Feature"}
{"geometry": {"coordinates": [-96.664605771, 32.432244927], "type": "Point"}, "id": "C28ry7RLROEKKWiTQ3y9jyNFzSA=", "properties": {"@source_uri": "https://tools.usps.com/UspsToolsRestServices/rest/POLocator/findLocations", "@spider": "usps_collection_boxes", "addr:city": "PALMER", "addr:country": "US", "addr:postcode": "75152", "addr:state": "TX", "addr:street_address": "310 E JEFFERSON ST", "amenity": "post_box", "collection_times": "Mo-Fr 16:30", "indoor": "yes", "note": "ON 12/24 AND 12/31, THIS BOX MAY BE COLLECTED AS EARLY AS 12 NOON.", "nsi_id": "unitedstatespostalservice-a77078", "operator": "United States Postal Service", "operator:short": "USPS", "operator:type": "public", "operator:wikidata": "Q668687", "ref": "7515205249"}, "type": "Feature"}
{"geometry": {"coordinates": [-96.327496, 32.117491], "type": "Point"}, "id": "VIRgFt5CHHwrV1vY_6ectzaTXiU=", "properties": {"@source_uri": "https://tools.usps.com/UspsToolsRestServices/rest/POLocator/findLocations", "@spider": "usps_collection_boxes", "addr:city": "POWELL", "addr:country": "US", "addr:postcode": "75153", "addr:state": "TX", "addr:street_address": "101 BROOKSHIRE ST", "amenity": "post_box", "collection_times": "Mo-Fr 15:00; Sa 08:30", "note": "ON 12/24 AND 12/31, THIS BOX MAY BE COLLECTED AS EARLY AS 12 NOON.", "nsi_id": "unitedstatespostalservice-a77078", "operator": "United States Postal Service", "operator:short": "USPS", "operator:type": "public", "operator:wikidata": "Q668687", "ref": "7515300964"}, "type": "Feature"}
{"geometry": {"coordinates": [-96.327496, 32.117491], "type": "Point"}, "id": "-BWwwsVC-71zHK3I2HiNCRjxw24=", "properties": {"@source_uri": "https://tools.usps.com/UspsToolsRestServices/rest/POLocator/findLocations", "@spider": "usps_collection_boxes", "addr:city": "POWELL", "addr:country": "US", "addr:postcode": "75153", "addr:state": "TX", "addr:street_address": "101 BROOKSHIRE ST", "amenity": "post_box", "collection_times": "Mo-Fr 15:00; Sa 08:30", "indoor": "yes", "note": "ON 12/24 AND 12/31, THIS BOX MAY BE COLLECTED AS EARLY AS 12 NOON.", "nsi_id": "unitedstatespostalservice-a77078", "operator": "United States Postal Service", "operator:short": "USPS", "operator:type": "public", "operator:wikidata": "Q668687", "ref": "7515305288"}, "type": "Feature"}
{"geometry": {"coordinates": [-96.327496, 32.117491], "type": "Point"}, "id": "VNl7iOjlHkSG0LPI8vvfqP5Iyak=", "properties": {"@source_uri": "https://tools.usps.com/UspsToolsRestServices/rest/POLocator/findLocations", "@spider": "usps_collection_boxes", "addr:city": "POWELL", "addr:country": "US", "addr:postcode": "75153", "addr:state": "TX", "addr:street_address": "101 BROOKSHIRE ST", "amenity": "post_box", "collection_times": "Mo-Fr 15:00; Sa 08:30", "indoor": "yes", "note": "ON 12/24 AND 12/31, THIS BOX MAY BE COLLECTED AS EARLY AS 12 NOON.", "nsi_id": "unitedstatespostalservice-a77078", "operator": "United States Postal Service", "operator:short": "USPS", "operator:type": "public", "operator:wikidata": "Q668687", "ref": "7515305289"}, "type": "Feature"}
{"geometry": {"coordinates": [-96.327609939, 32.117755506], "type": "Point"}, "id": "PmAe_jMO-DncSTDAYNW44UMuLiM=", "properties": {"@source_uri": "https://tools.usps.com/UspsToolsRestServices/rest/POLocator/findLocations", "@spider": "usps_collection_boxes", "addr:city": "POWELL", "addr:country": "US", "addr:postcode": "75153", "addr:state": "TX", "addr:street_address": "101 BROOKSHIRE ST", "amenity": "post_box", "collection_times": "Mo-Fr 15:00", "indoor": "yes", "note": "ON 12/24 AND 12/31, THIS BOX MAY BE COLLECTED AS EARLY AS 12 NOON.", "nsi_id": "unitedstatespostalservice-a77078", "operator": "United States Postal Service", "operator:short": "USPS", "operator:type": "public", "operator:wikidata": "Q668687", "ref": "7515305291"}, "type": "Feature"}
{"geometry": {"coordinates": [-96.8178759594, 32.5324150047], "type": "Point"}, "id": "gQP4d5DQmGFB3PaSs2Llas0JBZ8=", "properties": {"@source_uri": "https://tools.usps.com/UspsToolsRestServices/rest/POLocator/findLocations", "@spider": "usps_collection_boxes", "addr:city": "RED OAK", "addr:country": "US", "addr:postcode": "75154", "addr:state": "TX", "addr:street_address": "104 E OVILLA RD", "amenity": "post_box", "collection_times": "Mo-Sa 16:30", "indoor": "yes", "note": "ON 12/24 AND 12/31, THIS BOX MAY BE COLLECTED AS EARLY AS 12 NOON.", "nsi_id": "unitedstatespostalservice-a77078", "operator": "United States Postal Service", "operator:short": "USPS", "operator:type": "public", "operator:wikidata": "Q668687", "ref": "7515405294"}, "type": "Feature"}
{"geometry": {"coordinates": [-96.8567603605, 32.5525321676], "type": "Point"}, "id": "tblSJ-eKh56Rxpy9ts-3SNd_wOY=", "properties": {"@source_uri": "https://tools.usps.com/UspsToolsRestServices/rest/POLocator/findLocations", "@spider": "usps_collection_boxes", "addr:city": "RED OAK", "addr:country": "US", "addr:postcode": "75154", "addr:state": "TX", "addr:street_address": "1938 S HAMPTON RD", "amenity": "post_box", "collection_times": "Mo-Sa 10:30", "nsi_id": "unitedstatespostalservice-a77078", "operator": "United States Postal Service", "operator:short": "USPS", "operator:type": "public", "operator:wikidata": "Q668687", "ref": "7515406888"}, "type": "Feature"}
{"geometry": {"coordinates": [-96.8570996647, 32.5319054644], "type": "Point"}, "id": "nXUEs329EJHWht1UrdSfPhi9ocQ=", "properties": {"@source_uri": "https://tools.usps.com/UspsToolsRestServices/rest/POLocator/findLocations", "@spider": "usps_collection_boxes", "addr:city": "RED OAK", "addr:country": "US", "addr:postcode": "75154", "addr:state": "TX", "addr:street_address": "101 W OVILLA RD", "amenity": "post_box", "collection_times": "Mo-Sa 10:15", "nsi_id": "unitedstatespostalservice-a77078", "operator": "United States Postal Service", "operator:short": "USPS", "operator:type": "public", "operator:wikidata": "Q668687", "ref": "7515407310"}, "type": "Feature"}
{"geometry": {"coordinates": [-96.8217389204, 32.5166567216], "type": "Point"}, "id": "NmDeWMHnQDmUW-rYCC8s0gcm5zE=", "properties": {"@source_uri": "https://tools.usps.com/UspsToolsRestServices/rest/POLocator/findLocations", "@spider": "usps_collection_boxes", "addr:city": "RED OAK", "addr:country": "US", "addr:postcode": "75154", "addr:state": "TX", "addr:street_address": "200 S I-35", "amenity": "post_box", "collection_times": "Mo-Sa 11:00", "nsi_id": "unitedstatespostalservice-a77078", "operator": "United States Postal Service", "operator:short": "USPS", "operator:type": "public", "operator:wikidata": "Q668687", "ref": "7515407312"}, "type": "Feature"}
{"geometry": {"coordinates": [-96.8178759594, 32.5324150047], "type": "Point"}, "id": "r-Ct4muqrZZSsc5lGem3DYfuAho=", "properties": {"@source_uri": "https://tools.usps.com/UspsToolsRestServices/rest/POLocator/findLocations", "@spider": "usps_collection_boxes", "addr:city": "RED OAK", "addr:country": "US", "addr:postcode": "75154", "addr:state": "TX", "addr:street_address": "104 E OVILLA RD", "amenity": "post_box", "collection_times": "Mo-Sa 16:30", "indoor": "yes", "note": "ON 12/24 AND 12/31, THIS BOX MAY BE COLLECTED AS EARLY AS 12 NOON.", "nsi_id": "unitedstatespostalservice-a77078", "operator": "United States Postal Service", "operator:short": "USPS", "operator:type": "public", "operator:wikidata": "Q668687", "ref": "7515407313"}, "type": "Feature"}
{"geometry": {"coordinates": [-96.8857886192, 32.5289219907], "type": "Point"}, "id": "u6hTe_0sg0XpsE25ON3dMUwq1VU=", "properties": {"@source_uri": "https://tools.usps.com/UspsToolsRestServices/rest/POLocator/findLocations", "@spider": "usps_collection_boxes", "addr:city": "RED OAK", "addr:country": "US", "addr:postcode": "75154", "addr:state": "TX", "addr:street_address": "3321 OVILLA RD", "amenity": "post_box", "collection_times": "Mo-Sa 10:45", "nsi_id": "unitedstatespostalservice-a77078", "operator": "United States Postal Service", "operator:short": "USPS", "operator:type": "public", "operator:wikidata": "Q668687", "ref": "7515407315"}, "type": "Feature"}
{"geometry": {"coordinates": [-96.817941, 32.5318044505], "type": "Point"}, "id": "fsVY6mzkReWKSWc68pEbd77J6SQ=", "properties": {"@source_uri": "https://tools.usps.com/UspsToolsRestServices/rest/POLocator/findLocations", "@spider": "usps_collection_boxes", "addr:city": "RED OAK", "addr:country": "US", "addr:postcode": "75154", "addr:state": "TX", "addr:street_address": "104 E OVILLA RD", "amenity": "post_box", "collection_times": "Mo-Sa 16:30", "note": "ON 12/24 AND 12/31, THIS BOX MAY BE COLLECTED AS EARLY AS 12 NOON.", "nsi_id": "unitedstatespostalservice-a77078", "operator": "United States Postal Service", "operator:short": "USPS", "operator:type": "public", "operator:wikidata": "Q668687", "ref": "7515407316"}, "type": "Feature"}
{"geometry": {"coordinates": [-96.7915280495, 32.5312039087], "type": "Point"}, "id": "-NNAUTltosqPTec8yqecpMmt8II=", "properties": {"@source_uri": "https://tools.usps.com/UspsToolsRestServices/rest/POLocator/findLocations", "@spider": "usps_collection_boxes", "addr:city": "RED OAK", "addr:country": "US", "addr:postcode": "75154", "addr:state": "TX", "addr:street_address": "600 N HIGHWAY 342", "amenity": "post_box", "collection_times": "Mo-Sa 11:00", "nsi_id": "unitedstatespostalservice-a77078", "operator": "United States Postal Service", "operator:short": "USPS", "operator:type": "public", "operator:wikidata": "Q668687", "ref": "7515407318"}, "type": "Feature"}
{"geometry": {"coordinates": [-96.826382425, 32.5145705089], "type": "Point"}, "id": "Mt0Ubfe9xqIbY2J_6jjDVhQYICQ=", "properties": {"@source_uri": "https://tools.usps.com/UspsToolsRestServices/rest/POLocator/findLocations", "@spider": "usps_collection_boxes", "addr:city": "RED OAK", "addr:country": "US", "addr:postcode": "75154", "addr:state": "TX", "addr:street_address": "200 LAKEVIEW DR", "amenity": "post_box", "collection_times": "Mo-Sa 11:00", "nsi_id": "unitedstatespostalservice-a77078", "operator": "United States Postal Service", "operator:short": "USPS", "operator:type": "public", "operator:wikidata": "Q668687", "ref": "7515407319"}, "type": "Feature"}
{"geometry": {"coordinates": [-96.8503913166, 32.5201134584], "type": "Point"}, "id": "edSaisMijsF2b5vNJ8_wnBLtbQw=", "properties": {"@source_uri": "https://tools.usps.com/UspsToolsRestServices/rest/POLocator/findLocations", "@spider": "usps_collection_boxes", "addr:city": "RED OAK", "addr:country": "US", "addr:postcode": "75154", "addr:state": "TX", "addr:street_address": "301 LOCUST DR", "amenity": "post_box", "collection_times": "Mo-Sa 11:00", "nsi_id": "unitedstatespostalservice-a77078", "operator": "United States Postal Service", "operator:short": "USPS", "operator:type": "public", "operator:wikidata": "Q668687", "ref": "7515407320"}, "type": "Feature"}
{"geometry": {"coordinates": [-96.8178759594, 32.5324150047], "type": "Point"}, "id": "WyfvU0z_Qi5qQXh4so4wFOTmRmQ=", "properties": {"@source_uri": "https://tools.usps.com/UspsToolsRestServices/rest/POLocator/findLocations", "@spider": "usps_collection_boxes", "addr:city": "RED OAK", "addr:country": "US", "addr:postcode": "75154", "addr:state": "TX", "addr:street_address": "104 E OVILLA RD", "amenity": "post_box", "collection_times": "Mo-Fr 16:30", "indoor": "yes", "note": "ON 12/24 AND 12/31, THIS BOX MAY BE COLLECTED AS EARLY AS 12 NOON.", "nsi_id": "unitedstatespostalservice-a77078", "operator": "United States Postal Service", "operator:short": "USPS", "operator:type": "public", "operator:wikidata": "Q668687", "ref": "7515407322"}, "type": "Feature"}
{"geometry": {"coordinates": [-96.49749, 32.244117], "type": "Point"}, "id": "hUbVOuR1Enty7dHwG7iAPilqmpw=", "properties": {"@source_uri": "https://tools.usps.com/UspsToolsRestServices/rest/POLocator/findLocations", "@spider": "usps_collection_boxes", "addr:city": "RICE", "addr:country": "US", "addr:postcode": "75155", "addr:state": "TX", "addr:street_address": "300 E CALHOUN ST", "amenity": "post_box", "collection_times": "Mo-Fr 16:00; Sa 08:30", "note": "ON 12/24 AND 12/31, THIS BOX MAY BE COLLECTED AS EARLY AS 12 NOON.", "nsi_id": "unitedstatespostalservice-a77078", "operator": "United States Postal Service", "operator:short": "USPS", "operator:type": "public", "operator:wikidata": "Q668687", "ref": "7515500966"}, "type": "Feature"}
{"geometry": {"coordinates": [-96.49749, 32.244117], "type": "Point"}, "id": "850X9QmXR3AZbuhDwV82aq3fghc=", "properties": {"@source_uri": "https://tools.usps.com/UspsToolsRestServices/rest/POLocator/findLocations", "@spider": "usps_collection_boxes", "addr:city": "RICE", "addr:country": "US", "addr:postcode": "75155", "addr:state": "TX", "addr:street_address": "300 E CALHOUN ST", "amenity": "post_box", "collection_times": "Mo-Fr 16:00; Sa 08:30", "indoor": "yes", "note": "ON 12/24 AND 12/31, THIS BOX MAY BE COLLECTED AS EARLY AS 12 NOON.", "nsi_id": "unitedstatespostalservice-a77078", "operator": "United States Postal Service", "operator:short": "USPS", "operator:type": "public", "operator:wikidata": "Q668687", "ref": "7515505945"}, "type": "Feature"}
{"geometry": {"coordinates": [-96.497434642, 32.244146], "type": "Point"}, "id": "GErSvhHgImdmpNogyhjURLg4X8I=", "properties": {"@source_uri": "https://tools.usps.com/UspsToolsRestServices/rest/POLocator/findLocations", "@spider": "usps_collection_boxes", "addr:city": "RICE", "addr:country": "US", "addr:postcode": "75155", "addr:state": "TX", "addr:street_address": "300 E CALHOUN ST", "amenity": "post_box", "collection_times": "Mo-Fr 16:00", "indoor": "yes", "note": "ON 12/24 AND 12/31, THIS BOX MAY BE COLLECTED AS EARLY AS 12 NOON.", "nsi_id": "unitedstatespostalservice-a77078", "operator": "United States Postal Service", "operator:short": "USPS", "operator:type": "public", "operator:wikidata": "Q668687", "ref": "7515505947"}, "type": "Feature"}
{"geometry": {"coordinates": [-96.453329, 32.462784], "type": "Point"}, "id": "UBnX0zqokhVvXKUQav3GsZ51nJI=", "properties": {"@source_uri": "https://tools.usps.com/UspsToolsRestServices/rest/POLocator/findLocations", "@spider": "usps_collection_boxes", "addr:city": "ROSSER", "addr:country": "US", "addr:postcode": "75157", "addr:state": "TX", "addr:street_address": "208 MAIN ST", "amenity": "post_box", "collection_times": "Mo-Fr 12:00; Sa 11:00", "nsi_id": "unitedstatespostalservice-a77078", "operator": "United States Postal Service", "operator:short": "USPS", "operator:type": "public", "operator:wikidata": "Q668687", "ref": "7515700967"}, "type": "Feature"}
{"geometry": {"coordinates": [-96.453329, 32.462784], "type": "Point"}, "id": "0i-qak8tffnaMzyvTAPnr484lMk=", "properties": {"@source_uri": "https://tools.usps.com/UspsToolsRestServices/rest/POLocator/findLocations", "@spider": "usps_collection_boxes", "addr:city": "ROSSER", "addr:country": "US", "addr:postcode": "75157", "addr:state": "TX", "addr:street_address": "208 MAIN ST", "amenity": "post_box", "collection_times": "Mo-Fr 12:00; Sa 11:00", "indoor": "yes", "nsi_id": "unitedstatespostalservice-a77078", "operator": "United States Postal Service", "operator:short": "USPS", "operator:type": "public", "operator:wikidata": "Q668687", "ref": "7515705293"}, "type": "Feature"}
{"geometry": {"coordinates": [-96.453332258, 32.462779361], "type": "Point"}, "id": "WgTpSzpRP0rARcQof5-sDsh2_3Y=", "properties": {"@source_uri": "https://tools.usps.com/UspsToolsRestServices/rest/POLocator/findLocations", "@spider": "usps_collection_boxes", "addr:city": "ROSSER", "addr:country": "US", "addr:postcode": "75157", "addr:state": "TX", "addr:street_address": "208 MAIN ST", "amenity": "post_box", "collection_times": "Mo-Fr 12:00; Sa 11:00", "indoor": "yes", "nsi_id": "unitedstatespostalservice-a77078", "operator": "United States Postal Service", "operator:short": "USPS", "operator:type": "public", "operator:wikidata": "Q668687", "ref": "7515705295"}, "type": "Feature"}
{"geometry": {"coordinates": [-96.382335, 32.513992], "type": "Point"}, "id": "JydQqj7mZKITzqcdwnyyXuIJqHI=", "properties": {"@source_uri": "https://tools.usps.com/UspsToolsRestServices/rest/POLocator/findLocations", "@spider": "usps_collection_boxes", "addr:city": "SCURRY", "addr:country": "US", "addr:postcode": "75158", "addr:state": "TX", "addr:street_address": "8315 S STATE HIGHWAY 34", "amenity": "post_box", "collection_times": "Mo-Fr 16:00; Sa 08:00", "note": "ON 12/24 AND 12/31, THIS BOX MAY BE COLLECTED AS EARLY AS 12 NOON.", "nsi_id": "unitedstatespostalservice-a77078", "operator": "United States Postal Service", "operator:short": "USPS", "operator:type": "public", "operator:wikidata": "Q668687", "ref": "7515800968"}, "type": "Feature"}
{"geometry": {"coordinates": [-96.382335, 32.513992], "type": "Point"}, "id": "mKuIQ-HQ8_bOZlxL0Yl80Uqn_4k=", "properties": {"@source_uri": "https://tools.usps.com/UspsToolsRestServices/rest/POLocator/findLocations", "@spider": "usps_collection_boxes", "addr:city": "SCURRY", "addr:country": "US", "addr:postcode": "75158", "addr:state": "TX", "addr:street_address": "8315 S STATE HIGHWAY 34", "amenity": "post_box", "collection_times": "Mo-Fr 16:00; Sa 08:00", "indoor": "yes", "note": "ON 12/24 AND 12/31, THIS BOX MAY BE COLLECTED AS EARLY AS 12 NOON.", "nsi_id": "unitedstatespostalservice-a77078", "operator": "United States Postal Service", "operator:short": "USPS", "operator:type": "public", "operator:wikidata": "Q668687", "ref": "7515805295"}, "type": "Feature"}
{"geometry": {"coordinates": [-96.382540769, 32.513792262], "type": "Point"}, "id": "Gluo-jM3j7ExMrcG1bydz3k-O0U=", "properties": {"@source_uri": "https://tools.usps.com/UspsToolsRestServices/rest/POLocator/findLocations", "@spider": "usps_collection_boxes", "addr:city": "SCURRY", "addr:country": "US", "addr:postcode": "75158", "addr:state": "TX", "addr:street_address": "8315 S STATE HIGHWAY 34", "amenity": "post_box", "collection_times": "Mo-Fr 16:00", "indoor": "yes", "note": "ON 12/24 AND 12/31, THIS BOX MAY BE COLLECTED AS EARLY AS 12 NOON.", "nsi_id": "unitedstatespostalservice-a77078", "operator": "United States Postal Service", "operator:short": "USPS", "operator:type": "public", "operator:wikidata": "Q668687", "ref": "7515805297"}, "type": "Feature"}
{"geometry": {"coordinates": [-96.5483268, 32.649683], "type": "Point"}, "id": "EpZxO5ZfrywyZj6vJoDAeCkZwUc=", "properties": {"@source_uri": "https://tools.usps.com/UspsToolsRestServices/rest/POLocator/findLocations", "@spider": "usps_collection_boxes", "addr:city": "SEAGOVILLE", "addr:country": "US", "addr:postcode": "75159", "addr:state": "TX", "addr:street_address": "125 HALL RD", "amenity": "post_box", "collection_times": "Mo-Sa 10:00", "nsi_id": "unitedstatespostalservice-a77078", "operator": "United States Postal Service", "operator:short": "USPS", "operator:type": "public", "operator:wikidata": "Q668687", "ref": "7515900972"}, "type": "Feature"}
{"geometry": {"coordinates": [-96.5643786, 32.658751], "type": "Point"}, "id": "xecgs351UMA4OQRhhuzrE-gi83o=", "properties": {"@source_uri": "https://tools.usps.com/UspsToolsRestServices/rest/POLocator/findLocations", "@spider": "usps_collection_boxes", "addr:city": "SEAGOVILLE", "addr:country": "US", "addr:postcode": "75159", "addr:state": "TX", "addr:street_address": "2106 N HIGHWAY 175", "amenity": "post_box", "collection_times": "Mo-Sa 13:00", "note": "ON 12/24 AND 12/31, THIS BOX MAY BE COLLECTED AS EARLY AS 12 NOON.", "nsi_id": "unitedstatespostalservice-a77078", "operator": "United States Postal Service", "operator:short": "USPS", "operator:type": "public", "operator:wikidata": "Q668687", "ref": "7515900974"}, "type": "Feature"}
{"geometry": {"coordinates": [-96.5431564, 32.651942], "type": "Point"}, "id": "KnHxw1mBgA-xCeQZ5DTZF5mN5N8=", "properties": {"@source_uri": "https://tools.usps.com/UspsToolsRestServices/rest/POLocator/findLocations", "@spider": "usps_collection_boxes", "addr:city": "SEAGOVILLE", "addr:country": "US", "addr:postcode": "75159", "addr:state": "TX", "addr:street_address": "602 HALL RD", "amenity": "post_box", "collection_times": "Mo-Sa 13:00", "note": "ON 12/24 AND 12/31, THIS BOX MAY BE COLLECTED AS EARLY AS 12 NOON.", "nsi_id": "unitedstatespostalservice-a77078", "operator": "United States Postal Service", "operator:short": "USPS", "operator:type": "public", "operator:wikidata": "Q668687", "ref": "7515900976"}, "type": "Feature"}
{"geometry": {"coordinates": [-96.5028363951, 32.584330997], "type": "Point"}, "id": "vidPE5DFW03uSaXymz8NVBE59ZI=", "properties": {"@source_uri": "https://tools.usps.com/UspsToolsRestServices/rest/POLocator/findLocations", "@spider": "usps_collection_boxes", "addr:city": "SEAGOVILLE", "addr:country": "US", "addr:postcode": "75159", "addr:state": "TX", "addr:street_address": "103 FM 3039", "amenity": "post_box", "collection_times": "Mo-Sa 11:00", "nsi_id": "unitedstatespostalservice-a77078", "operator": "United States Postal Service", "operator:short": "USPS", "operator:type": "public", "operator:wikidata": "Q668687", "ref": "7515905249"}, "type": "Feature"}
{"geometry": {"coordinates": [-96.5414814, 32.649397], "type": "Point"}, "id": "xdp-V_eAhzI3r-WkDrjpJ-J45Zs=", "properties": {"@source_uri": "https://tools.usps.com/UspsToolsRestServices/rest/POLocator/findLocations", "@spider": "usps_collection_boxes", "addr:city": "SEAGOVILLE", "addr:country": "US", "addr:postcode": "75159", "addr:state": "TX", "addr:street_address": "702 N HIGHWAY 175", "amenity": "post_box", "collection_times": "Mo-Fr 13:00", "note": "ON 12/24 AND 12/31, THIS BOX MAY BE COLLECTED AS EARLY AS 12 NOON.", "nsi_id": "unitedstatespostalservice-a77078", "operator": "United States Postal Service", "operator:short": "USPS", "operator:type": "public", "operator:wikidata": "Q668687", "ref": "7515905254"}, "type": "Feature"}
{"geometry": {"coordinates": [-96.2780479, 32.737472], "type": "Point"}, "id": "YRE6dIqfSS2FiFM7sSx1JMJKxUw=", "properties": {"@source_uri": "https://tools.usps.com/UspsToolsRestServices/rest/POLocator/findLocations", "@spider": "usps_collection_boxes", "addr:city": "TERRELL", "addr:country": "US", "addr:postcode": "75160", "addr:state": "TX", "addr:street_address": "120 N FRANCES ST", "amenity": "post_box", "collection_times": "Mo-Sa 09:30", "nsi_id": "unitedstatespostalservice-a77078", "operator": "United States Postal Service", "operator:short": "USPS", "operator:type": "public", "operator:wikidata": "Q668687", "ref": "7516000979"}, "type": "Feature"}
{"geometry": {"coordinates": [-96.2791921, 32.74249], "type": "Point"}, "id": "qYvuo9vwhcCec0DVeY8Oz89Ut38=", "properties": {"@source_uri": "https://tools.usps.com/UspsToolsRestServices/rest/POLocator/findLocations", "@spider": "usps_collection_boxes", "addr:city": "TERRELL", "addr:country": "US", "addr:postcode": "75160", "addr:state": "TX", "addr:street_address": "654 N ROCKWALL AVE", "amenity": "post_box", "collection_times": "Mo-Sa 09:00", "nsi_id": "unitedstatespostalservice-a77078", "operator": "United States Postal Service", "operator:short": "USPS", "operator:type": "public", "operator:wikidata": "Q668687", "ref": "7516000980"}, "type": "Feature"}
{"geometry": {"coordinates": [-96.2809888, 32.719542], "type": "Point"}, "id": "80WjQjZMfWz9xTsHd1akxuRp0yY=", "properties": {"@source_uri": "https://tools.usps.com/UspsToolsRestServices/rest/POLocator/findLocations", "@spider": "usps_collection_boxes", "addr:city": "TERRELL", "addr:country": "US", "addr:postcode": "75160", "addr:state": "TX", "addr:street_address": "1250 STATE HIGHWAY 34 S", "amenity": "post_box", "collection_times": "Mo-Sa 17:00", "note": "ON 12/24 AND 12/31, THIS BOX MAY BE COLLECTED AS EARLY AS 12 NOON.", "nsi_id": "unitedstatespostalservice-a77078", "operator": "United States Postal Service", "operator:short": "USPS", "operator:type": "public", "operator:wikidata": "Q668687", "ref": "7516005000"}, "type": "Feature"}
{"geometry": {"coordinates": [-96.2977900153, 32.738926994], "type": "Point"}, "id": "jGum-IvAH0VnCuRIFIjBPxdv8BQ=", "properties": {"@source_uri": "https://tools.usps.com/UspsToolsRestServices/rest/POLocator/findLocations", "@spider": "usps_collection_boxes", "addr:city": "TERRELL", "addr:country": "US", "addr:postcode": "75160", "addr:state": "TX", "addr:street_address": "1400 W MOORE AVE", "amenity": "post_box", "collection_times": "Mo-Sa 10:00", "nsi_id": "unitedstatespostalservice-a77078", "operator": "United States Postal Service", "operator:short": "USPS", "operator:type": "public", "operator:wikidata": "Q668687", "ref": "7516006574"}, "type": "Feature"}
{"geometry": {"coordinates": [-96.278956, 32.720196], "type": "Point"}, "id": "QTKfsIi4BPNu-iHONwSNpwVva2E=", "properties": {"@source_uri": "https://tools.usps.com/UspsToolsRestServices/rest/POLocator/findLocations", "@spider": "usps_collection_boxes", "addr:city": "TERRELL", "addr:country": "US", "addr:postcode": "75160", "addr:state": "TX", "addr:street_address": "1250 STATE HIGHWAY 34 S", "amenity": "post_box", "collection_times": "Mo-Sa 17:00", "indoor": "yes", "note": "ON 12/24 AND 12/31, THIS BOX MAY BE COLLECTED AS EARLY AS 12 NOON.", "nsi_id": "unitedstatespostalservice-a77078", "operator": "United States Postal Service", "operator:short": "USPS", "operator:type": "public", "operator:wikidata": "Q668687", "ref": "7516007101"}, "type": "Feature"}
{"geometry": {"coordinates": [-96.2798469589, 32.7198320128], "type": "Point"}, "id": "CwI8Qg8TJ0XGVRgc2ubMlU09i1w=", "properties": {"@source_uri": "https://tools.usps.com/UspsToolsRestServices/rest/POLocator/findLocations", "@spider": "usps_collection_boxes", "addr:city": "TERRELL", "addr:country": "US", "addr:postcode": "75160", "addr:state": "TX", "addr:street_address": "1250 STATE HIGHWAY 34 S", "amenity": "post_box", "collection_times": "Mo-Fr 16:30; Sa 12:00", "indoor": "yes", "note": "ON 12/24 AND 12/31, THIS BOX MAY BE COLLECTED AS EARLY AS 12 NOON.", "nsi_id": "unitedstatespostalservice-a77078", "operator": "United States Postal Service", "operator:short": "USPS", "operator:type": "public", "operator:wikidata": "Q668687", "ref": "7516007106"}, "type": "Feature"}
{"geometry": {"coordinates": [-96.2440426, 32.690948], "type": "Point"}, "id": "AUs7kpRb72jzXOfT9motYOop8KI=", "properties": {"@source_uri": "https://tools.usps.com/UspsToolsRestServices/rest/POLocator/findLocations", "@spider": "usps_collection_boxes", "addr:city": "TERRELL", "addr:country": "US", "addr:postcode": "75161", "addr:state": "TX", "addr:street_address": "1700 WILSON RD", "amenity": "post_box", "collection_times": "Mo-Sa 10:30", "nsi_id": "unitedstatespostalservice-a77078", "operator": "United States Postal Service", "operator:short": "USPS", "operator:type": "public", "operator:wikidata": "Q668687", "ref": "7516100000"}, "type": "Feature"}
{"geometry": {"coordinates": [-96.091592, 32.145198], "type": "Point"}, "id": "yMBiv-7qCK1_sSBVCs8Mj1of4oE=", "properties": {"@source_uri": "https://tools.usps.com/UspsToolsRestServices/rest/POLocator/findLocations", "@spider": "usps_collection_boxes", "addr:city": "TRINIDAD", "addr:country": "US", "addr:postcode": "75163", "addr:state": "TX", "addr:street_address": "206 PARK ST", "amenity": "post_box", "collection_times": "Mo-Fr 16:00; Sa 09:00", "note": "ON 12/24 AND 12/31, THIS BOX MAY BE COLLECTED AS EARLY AS 12 NOON.", "nsi_id": "unitedstatespostalservice-a77078", "operator": "United States Postal Service", "operator:short": "USPS", "operator:type": "public", "operator:wikidata": "Q668687", "ref": "7516300983"}, "type": "Feature"}
{"geometry": {"coordinates": [-96.091592, 32.145198], "type": "Point"}, "id": "3vJGNLQfpK4Th1yKJH2H-LoGBEk=", "properties": {"@source_uri": "https://tools.usps.com/UspsToolsRestServices/rest/POLocator/findLocations", "@spider": "usps_collection_boxes", "addr:city": "TRINIDAD", "addr:country": "US", "addr:postcode": "75163", "addr:state": "TX", "addr:street_address": "206 PARK ST", "amenity": "post_box", "collection_times": "Mo-Fr 16:00", "indoor": "yes", "note": "ON 12/24 AND 12/31, THIS BOX MAY BE COLLECTED AS EARLY AS 12 NOON.", "nsi_id": "unitedstatespostalservice-a77078", "operator": "United States Postal Service", "operator:short": "USPS", "operator:type": "public", "operator:wikidata": "Q668687", "ref": "7516300984"}, "type": "Feature"}
{"geometry": {"coordinates": [-96.091635269, 32.145191679], "type": "Point"}, "id": "GkAiK-vNifg4_gomgwweRWE2l48=", "properties": {"@source_uri": "https://tools.usps.com/UspsToolsRestServices/rest/POLocator/findLocations", "@spider": "usps_collection_boxes", "addr:city": "TRINIDAD", "addr:country": "US", "addr:postcode": "75163", "addr:state": "TX", "addr:street_address": "206 PARK ST", "amenity": "post_box", "collection_times": "Mo-Fr 16:00", "indoor": "yes", "note": "ON 12/24 AND 12/31, THIS BOX MAY BE COLLECTED AS EARLY AS 12 NOON.", "nsi_id": "unitedstatespostalservice-a77078", "operator": "United States Postal Service", "operator:short": "USPS", "operator:type": "public", "operator:wikidata": "Q668687", "ref": "7516300986"}, "type": "Feature"}
{"geometry": {"coordinates": [-96.312497, 33.070314], "type": "Point"}, "id": "CROEsAq22n1ogSLH_5y5XbX78j8=", "properties": {"@source_uri": "https://tools.usps.com/UspsToolsRestServices/rest/POLocator/findLocations", "@spider": "usps_collection_boxes", "addr:city": "JOSEPHINE", "addr:country": "US", "addr:postcode": "75164", "addr:state": "TX", "addr:street_address": "408 MAIN ST", "amenity": "post_box", "collection_times": "Mo-Fr 11:30; Sa 09:00", "nsi_id": "unitedstatespostalservice-a77078", "operator": "United States Postal Service", "operator:short": "USPS", "operator:type": "public", "operator:wikidata": "Q668687", "ref": "7516400426"}, "type": "Feature"}
{"geometry": {"coordinates": [-96.312477738, 33.070521161], "type": "Point"}, "id": "UsAUsjLJdKLJLTQ3mm0qLqrz5Gk=", "properties": {"@source_uri": "https://tools.usps.com/UspsToolsRestServices/rest/POLocator/findLocations", "@spider": "usps_collection_boxes", "addr:city": "JOSEPHINE", "addr:country": "US", "addr:postcode": "75164", "addr:state": "TX", "addr:street_address": "408 MAIN ST", "amenity": "post_box", "collection_times": "Mo-Fr 11:30; Sa 09:00", "indoor": "yes", "nsi_id": "unitedstatespostalservice-a77078", "operator": "United States Postal Service", "operator:short": "USPS", "operator:type": "public", "operator:wikidata": "Q668687", "ref": "7516405289"}, "type": "Feature"}
{"geometry": {"coordinates": [-96.312477738, 33.070521161], "type": "Point"}, "id": "IsJC9bENdRHmm4JDSIRBo5o9TMQ=", "properties": {"@source_uri": "https://tools.usps.com/UspsToolsRestServices/rest/POLocator/findLocations", "@spider": "usps_collection_boxes", "addr:city": "JOSEPHINE", "addr:country": "US", "addr:postcode": "75164", "addr:state": "TX", "addr:street_address": "408 MAIN ST", "amenity": "post_box", "collection_times": "Mo-Fr 11:30; Sa 09:00", "indoor": "yes", "nsi_id": "unitedstatespostalservice-a77078", "operator": "United States Postal Service", "operator:short": "USPS", "operator:type": "public", "operator:wikidata": "Q668687", "ref": "7516405290"}, "type": "Feature"}
{"geometry": {"coordinates": [-96.312477738, 33.070521161], "type": "Point"}, "id": "nph9lT2DRsl-9AvqTy9J6Pvp20A=", "properties": {"@source_uri": "https://tools.usps.com/UspsToolsRestServices/rest/POLocator/findLocations", "@spider": "usps_collection_boxes", "addr:city": "JOSEPHINE", "addr:country": "US", "addr:postcode": "75164", "addr:state": "TX", "addr:street_address": "408 MAIN ST", "amenity": "post_box", "collection_times": "Mo-Fr 11:30; Sa 09:00", "indoor": "yes", "nsi_id": "unitedstatespostalservice-a77078", "operator": "United States Postal Service", "operator:short": "USPS", "operator:type": "public", "operator:wikidata": "Q668687", "ref": "7516405292"}, "type": "Feature"}
{"geometry": {"coordinates": [-96.8463480272, 32.3848049959], "type": "Point"}, "id": "-Yxs_5e-yC25VvI4-GEaPsbOqns=", "properties": {"@source_uri": "https://tools.usps.com/UspsToolsRestServices/rest/POLocator/findLocations", "@spider": "usps_collection_boxes", "addr:city": "WAXAHACHIE", "addr:country": "US", "addr:postcode": "75165", "addr:state": "TX", "addr:street_address": "109 S JACKSON ST", "amenity": "post_box", "collection_times": "Mo-Fr 15:00; Sa 13:00", "note": "ON 12/24 AND 12/31, THIS BOX MAY BE COLLECTED AS EARLY AS 12 NOON.", "nsi_id": "unitedstatespostalservice-a77078", "operator": "United States Postal Service", "operator:short": "USPS", "operator:type": "public", "operator:wikidata": "Q668687", "ref": "7516500986"}, "type": "Feature"}
{"geometry": {"coordinates": [-96.8518230025, 32.4209120136], "type": "Point"}, "id": "ZqIquLMcPH9GacyEiRgbXDPTNDs=", "properties": {"@source_uri": "https://tools.usps.com/UspsToolsRestServices/rest/POLocator/findLocations", "@spider": "usps_collection_boxes", "addr:city": "WAXAHACHIE", "addr:country": "US", "addr:postcode": "75165", "addr:state": "TX", "addr:street_address": "100 AMANDA LN", "amenity": "post_box", "collection_times": "Mo-Fr 15:00; Sa 13:00", "note": "ON 12/24 AND 12/31, THIS BOX MAY BE COLLECTED AS EARLY AS 12 NOON.", "nsi_id": "unitedstatespostalservice-a77078", "operator": "United States Postal Service", "operator:short": "USPS", "operator:type": "public", "operator:wikidata": "Q668687", "ref": "7516500987"}, "type": "Feature"}
{"geometry": {"coordinates": [-96.8438850049, 32.3978549905], "type": "Point"}, "id": "L_w9z9b2yZfo7EbDYEgShZWlxso=", "properties": {"@source_uri": "https://tools.usps.com/UspsToolsRestServices/rest/POLocator/findLocations", "@spider": "usps_collection_boxes", "addr:city": "WAXAHACHIE", "addr:country": "US", "addr:postcode": "75165", "addr:state": "TX", "addr:street_address": "1014 FERRIS AVE", "amenity": "post_box", "collection_times": "Mo-Fr 15:00; Sa 13:00", "note": "ON 12/24 AND 12/31, THIS BOX MAY BE COLLECTED AS EARLY AS 12 NOON.", "nsi_id": "unitedstatespostalservice-a77078", "operator": "United States Postal Service", "operator:short": "USPS", "operator:type": "public", "operator:wikidata": "Q668687", "ref": "7516500992"}, "type": "Feature"}
{"geometry": {"coordinates": [-96.84485, 32.3898], "type": "Point"}, "id": "tJJJ0r3qDFydeNprn-UzjQFCb20=", "properties": {"@source_uri": "https://tools.usps.com/UspsToolsRestServices/rest/POLocator/findLocations", "@spider": "usps_collection_boxes", "addr:city": "WAXAHACHIE", "addr:country": "US", "addr:postcode": "75165", "addr:state": "TX", "addr:street_address": "316 N COLLEGE ST", "amenity": "post_box", "collection_times": "Mo-Sa 17:00", "note": "ON 12/24 AND 12/31, THIS BOX MAY BE COLLECTED AS EARLY AS 12 NOON.", "nsi_id": "unitedstatespostalservice-a77078", "operator": "United States Postal Service", "operator:short": "USPS", "operator:type": "public", "operator:wikidata": "Q668687", "ref": "7516501002"}, "type": "Feature"}
{"geometry": {"coordinates": [-96.8424081, 32.410201], "type": "Point"}, "id": "YN_wABm1k4upQmDOBBy-LmwZg8E=", "properties": {"@source_uri": "https://tools.usps.com/UspsToolsRestServices/rest/POLocator/findLocations", "@spider": "usps_collection_boxes", "addr:city": "WAXAHACHIE", "addr:country": "US", "addr:postcode": "75165", "addr:state": "TX", "addr:street_address": "507 N HIGHWAY 77", "amenity": "post_box", "collection_times": "Mo-Fr 15:00; Sa 13:00", "note": "ON 12/24 AND 12/31, THIS BOX MAY BE COLLECTED AS EARLY AS 12 NOON.", "nsi_id": "unitedstatespostalservice-a77078", "operator": "United States Postal Service", "operator:short": "USPS", "operator:type": "public", "operator:wikidata": "Q668687", "ref": "7516501005"}, "type": "Feature"}
{"geometry": {"coordinates": [-96.83430801, 32.4590060033], "type": "Point"}, "id": "OJz3M07f6tzp0ZzFhn_kmhaHHfc=", "properties": {"@source_uri": "https://tools.usps.com/UspsToolsRestServices/rest/POLocator/findLocations", "@spider": "usps_collection_boxes", "addr:city": "WAXAHACHIE", "addr:country": "US", "addr:postcode": "75165", "addr:state": "TX", "addr:street_address": "2980 N HIGHWAY 77", "amenity": "post_box", "collection_times": "Mo-Fr 15:00; Sa 13:00", "note": "ON 12/24 AND 12/31, THIS BOX MAY BE COLLECTED AS EARLY AS 12 NOON.", "nsi_id": "unitedstatespostalservice-a77078", "operator": "United States Postal Service", "operator:short": "USPS", "operator:type": "public", "operator:wikidata": "Q668687", "ref": "7516506262"}, "type": "Feature"}
{"geometry": {"coordinates": [-96.84485, 32.3898], "type": "Point"}, "id": "ZEMgSwnUzOy9vxkj-m4AoucM3CY=", "properties": {"@source_uri": "https://tools.usps.com/UspsToolsRestServices/rest/POLocator/findLocations", "@spider": "usps_collection_boxes", "addr:city": "WAXAHACHIE", "addr:country": "US", "addr:postcode": "75165", "addr:state": "TX", "addr:street_address": "1200 N HIGHWAY 77", "amenity": "post_box", "collection_times": "Mo-Fr 15:00; Sa 13:00", "note": "ON 12/24 AND 12/31, THIS BOX MAY BE COLLECTED AS EARLY AS 12 NOON.", "nsi_id": "unitedstatespostalservice-a77078", "operator": "United States Postal Service", "operator:short": "USPS", "operator:type": "public", "operator:wikidata": "Q668687", "ref": "7516506263"}, "type": "Feature"}
{"geometry": {"coordinates": [-96.8449269593, 32.3886170017], "type": "Point"}, "id": "BJywkWDwwD1XnEvobXj4j6xmveY=", "properties": {"@source_uri": "https://tools.usps.com/UspsToolsRestServices/rest/POLocator/findLocations", "@spider": "usps_collection_boxes", "addr:city": "WAXAHACHIE", "addr:country": "US", "addr:postcode": "75165", "addr:state": "TX", "addr:street_address": "316 N COLLEGE ST", "amenity": "post_box", "collection_times": "Mo-Sa 17:00", "indoor": "yes", "note": "ON 12/24 AND 12/31, THIS BOX MAY BE COLLECTED AS EARLY AS 12 NOON.", "nsi_id": "unitedstatespostalservice-a77078", "operator": "United States Postal Service", "operator:short": "USPS", "operator:type": "public", "operator:wikidata": "Q668687", "ref": "7516506264"}, "type": "Feature"}
{"geometry": {"coordinates": [-96.8429899853, 32.4182889808], "type": "Point"}, "id": "tGS8lp1QZaxmyeb9ieZvaiX9yec=", "properties": {"@source_uri": "https://tools.usps.com/UspsToolsRestServices/rest/POLocator/findLocations", "@spider": "usps_collection_boxes", "addr:city": "WAXAHACHIE", "addr:country": "US", "addr:postcode": "75165", "addr:state": "TX", "addr:street_address": "1201 N HIGHWAY 77", "amenity": "post_box", "collection_times": "Mo-Fr 15:00; Sa 13:00", "note": "ON 12/24 AND 12/31, THIS BOX MAY BE COLLECTED AS EARLY AS 12 NOON.", "nsi_id": "unitedstatespostalservice-a77078", "operator": "United States Postal Service", "operator:short": "USPS", "operator:type": "public", "operator:wikidata": "Q668687", "ref": "7516506266"}, "type": "Feature"}
{"geometry": {"coordinates": [-96.8449269593, 32.3886170017], "type": "Point"}, "id": "mW75qzF2FZtLFMq-UTvjbiaKs4I=", "properties": {"@source_uri": "https://tools.usps.com/UspsToolsRestServices/rest/POLocator/findLocations", "@spider": "usps_collection_boxes", "addr:city": "WAXAHACHIE", "addr:country": "US", "addr:postcode": "75165", "addr:state": "TX", "addr:street_address": "316 N COLLEGE ST", "amenity": "post_box", "collection_times": "Mo-Fr 16:30; Sa 12:00", "indoor": "yes", "note": "ON 12/24 AND 12/31, THIS BOX MAY BE COLLECTED AS EARLY AS 12 NOON.", "nsi_id": "unitedstatespostalservice-a77078", "operator": "United States Postal Service", "operator:short": "USPS", "operator:type": "public", "operator:wikidata": "Q668687", "ref": "7516506274"}, "type": "Feature"}
{"geometry": {"coordinates": [-96.440299, 33.021928], "type": "Point"}, "id": "IdFsbgBhhYKKE9FJZw4HIaSip_8=", "properties": {"@source_uri": "https://tools.usps.com/UspsToolsRestServices/rest/POLocator/findLocations", "@spider": "usps_collection_boxes", "addr:city": "LAVON", "addr:country": "US", "addr:postcode": "75166", "addr:state": "TX", "addr:street_address": "609 MAIN ST", "amenity": "post_box", "collection_times": "Mo-Fr 16:00; Sa 09:30", "indoor": "yes", "note": "ON 12/24 AND 12/31, THIS BOX MAY BE COLLECTED AS EARLY AS 12 NOON.", "nsi_id": "unitedstatespostalservice-a77078", "operator": "United States Postal Service", "operator:short": "USPS", "operator:type": "public", "operator:wikidata": "Q668687", "ref": "7516605820"}, "type": "Feature"}
{"geometry": {"coordinates": [-96.440319136, 33.021921497], "type": "Point"}, "id": "XLXWcB--J0WoaNDqtLqm9q-6jMc=", "properties": {"@source_uri": "https://tools.usps.com/UspsToolsRestServices/rest/POLocator/findLocations", "@spider": "usps_collection_boxes", "addr:city": "LAVON", "addr:country": "US", "addr:postcode": "75166", "addr:state": "TX", "addr:street_address": "609 MAIN ST", "amenity": "post_box", "collection_times": "Mo-Fr 16:00; Sa 09:30", "indoor": "yes", "note": "ON 12/24 AND 12/31, THIS BOX MAY BE COLLECTED AS EARLY AS 12 NOON.", "nsi_id": "unitedstatespostalservice-a77078", "operator": "United States Postal Service", "operator:short": "USPS", "operator:type": "public", "operator:wikidata": "Q668687", "ref": "7516606056"}, "type": "Feature"}
{"geometry": {"coordinates": [-96.0082179755, 32.7114480141], "type": "Point"}, "id": "OeJzdcv3L3qhAp_3EGKDul7o2qI=", "properties": {"@source_uri": "https://tools.usps.com/UspsToolsRestServices/rest/POLocator/findLocations", "@spider": "usps_collection_boxes", "addr:city": "WILLS POINT", "addr:country": "US", "addr:postcode": "75169", "addr:state": "TX", "addr:street_address": "415 N 4TH ST", "amenity": "post_box", "collection_times": "Mo-Fr 16:00; Sa 10:30", "note": "ON 12/24 AND 12/31, THIS BOX MAY BE COLLECTED AS EARLY AS 12 NOON.", "nsi_id": "unitedstatespostalservice-a77078", "operator": "United States Postal Service", "operator:short": "USPS", "operator:type": "public", "operator:wikidata": "Q668687", "ref": "7516901009"}, "type": "Feature"}
{"geometry": {"coordinates": [-96.0082179755, 32.7114480141], "type": "Point"}, "id": "a5Jkn8TgZigBC0NGQe3ufPii0lE=", "properties": {"@source_uri": "https://tools.usps.com/UspsToolsRestServices/rest/POLocator/findLocations", "@spider": "usps_collection_boxes", "addr:city": "WILLS POINT", "addr:country": "US", "addr:postcode": "75169", "addr:state": "TX", "addr:street_address": "415 N 4TH ST", "amenity": "post_box", "collection_times": "Mo-Fr 16:00; Sa 10:30", "indoor": "yes", "note": "ON 12/24 AND 12/31, THIS BOX MAY BE COLLECTED AS EARLY AS 12 NOON.", "nsi_id": "unitedstatespostalservice-a77078", "operator": "United States Postal Service", "operator:short": "USPS", "operator:type": "public", "operator:wikidata": "Q668687", "ref": "7516905296"}, "type": "Feature"}
{"geometry": {"coordinates": [-96.0082179755, 32.7114480141], "type": "Point"}, "id": "_NuBaIQ5pxcWnqCDfwVFWjNWFEM=", "properties": {"@source_uri": "https://tools.usps.com/UspsToolsRestServices/rest/POLocator/findLocations", "@spider": "usps_collection_boxes", "addr:city": "WILLS POINT", "addr:country": "US", "addr:postcode": "75169", "addr:state": "TX", "addr:street_address": "415 N 4TH ST", "amenity": "post_box", "collection_times": "Mo-Fr 16:00; Sa 10:30", "indoor": "yes", "note": "ON 12/24 AND 12/31, THIS BOX MAY BE COLLECTED AS EARLY AS 12 NOON.", "nsi_id": "unitedstatespostalservice-a77078", "operator": "United States Postal Service", "operator:short": "USPS", "operator:type": "public", "operator:wikidata": "Q668687", "ref": "7516905297"}, "type": "Feature"}
{"geometry": {"coordinates": [-96.0198636, 32.708327], "type": "Point"}, "id": "i1bDSng8jBkGTeYwvdBDbGzzRZM=", "properties": {"@source_uri": "https://tools.usps.com/UspsToolsRestServices/rest/POLocator/findLocations", "@spider": "usps_collection_boxes", "addr:city": "WILLS POINT", "addr:country": "US", "addr:postcode": "75169", "addr:state": "TX", "addr:street_address": "1105 W SOUTH COMMERCE ST", "amenity": "post_box", "collection_times": "Mo-Sa 12:00", "nsi_id": "unitedstatespostalservice-a77078", "operator": "United States Postal Service", "operator:short": "USPS", "operator:type": "public", "operator:wikidata": "Q668687", "ref": "7516905299"}, "type": "Feature"}
{"geometry": {"coordinates": [-96.0082179755, 32.7114480141], "type": "Point"}, "id": "205FrM8LIBL5HhHMmIisKKoWZlo=", "properties": {"@source_uri": "https://tools.usps.com/UspsToolsRestServices/rest/POLocator/findLocations", "@spider": "usps_collection_boxes", "addr:city": "WILLS POINT", "addr:country": "US", "addr:postcode": "75169", "addr:state": "TX", "addr:street_address": "415 N 4TH ST", "amenity": "post_box", "collection_times": "Mo-Fr 16:30", "indoor": "yes", "note": "ON 12/24 AND 12/31, THIS BOX MAY BE COLLECTED AS EARLY AS 12 NOON.", "nsi_id": "unitedstatespostalservice-a77078", "operator": "United States Postal Service", "operator:short": "USPS", "operator:type": "public", "operator:wikidata": "Q668687", "ref": "7516905300"}, "type": "Feature"}
{"geometry": {"coordinates": [-96.681996, 32.591349], "type": "Point"}, "id": "bHLmAPhV4l9iKjOAyCQhDPuu2xw=", "properties": {"@source_uri": "https://tools.usps.com/UspsToolsRestServices/rest/POLocator/findLocations", "@spider": "usps_collection_boxes", "addr:city": "WILMER", "addr:country": "US", "addr:postcode": "75172", "addr:state": "TX", "addr:street_address": "120 BLACKWELL BLVD", "amenity": "post_box", "collection_times": "Mo-Fr 16:00; Sa 08:00", "note": "ON 12/24 AND 12/31, THIS BOX MAY BE COLLECTED AS EARLY AS 12 NOON.", "nsi_id": "unitedstatespostalservice-a77078", "operator": "United States Postal Service", "operator:short": "USPS", "operator:type": "public", "operator:wikidata": "Q668687", "ref": "7517201010"}, "type": "Feature"}
{"geometry": {"coordinates": [-96.681996, 32.591349], "type": "Point"}, "id": "_4-gL-kxzfgr3I4wAg2Diqsims0=", "properties": {"@source_uri": "https://tools.usps.com/UspsToolsRestServices/rest/POLocator/findLocations", "@spider": "usps_collection_boxes", "addr:city": "WILMER", "addr:country": "US", "addr:postcode": "75172", "addr:state": "TX", "addr:street_address": "120 BLACKWELL BLVD", "amenity": "post_box", "collection_times": "Mo-Fr 16:00", "indoor": "yes", "note": "ON 12/24 AND 12/31, THIS BOX MAY BE COLLECTED AS EARLY AS 12 NOON.", "nsi_id": "unitedstatespostalservice-a77078", "operator": "United States Postal Service", "operator:short": "USPS", "operator:type": "public", "operator:wikidata": "Q668687", "ref": "7517205292"}, "type": "Feature"}
{"geometry": {"coordinates": [-96.681996, 32.591349], "type": "Point"}, "id": "Od9uG7IHv1_FCVjcs914pEms81E=", "properties": {"@source_uri": "https://tools.usps.com/UspsToolsRestServices/rest/POLocator/findLocations", "@spider": "usps_collection_boxes", "addr:city": "WILMER", "addr:country": "US", "addr:postcode": "75172", "addr:state": "TX", "addr:street_address": "120 BLACKWELL BLVD", "amenity": "post_box", "collection_times": "Mo-Fr 16:00", "indoor": "yes", "note": "ON 12/24 AND 12/31, THIS BOX MAY BE COLLECTED AS EARLY AS 12 NOON.", "nsi_id": "unitedstatespostalservice-a77078", "operator": "United States Postal Service", "operator:short": "USPS", "operator:type": "public", "operator:wikidata": "Q668687", "ref": "7517205293"}, "type": "Feature"}
{"geometry": {"coordinates": [-96.681987364, 32.59133761], "type": "Point"}, "id": "GTIom3SGm6mD8aEYdTZYGPQ0Kdc=", "properties": {"@source_uri": "https://tools.usps.com/UspsToolsRestServices/rest/POLocator/findLocations", "@spider": "usps_collection_boxes", "addr:city": "WILMER", "addr:country": "US", "addr:postcode": "75172", "addr:state": "TX", "addr:street_address": "120 BLACKWELL BLVD", "amenity": "post_box", "collection_times": "Mo-Fr 16:30", "indoor": "yes", "note": "ON 12/24 AND 12/31, THIS BOX MAY BE COLLECTED AS EARLY AS 12 NOON.", "nsi_id": "unitedstatespostalservice-a77078", "operator": "United States Postal Service", "operator:short": "USPS", "operator:type": "public", "operator:wikidata": "Q668687", "ref": "7517205294"}, "type": "Feature"}
{"geometry": {"coordinates": [-96.37493, 33.04193], "type": "Point"}, "id": "PmkfnYGhX9qzIa327DEOfTMxEdQ=", "properties": {"@source_uri": "https://tools.usps.com/UspsToolsRestServices/rest/POLocator/findLocations", "@spider": "usps_collection_boxes", "addr:city": "NEVADA", "addr:country": "US", "addr:postcode": "75173", "addr:state": "TX", "addr:street_address": "102 S FM 1138", "amenity": "post_box", "collection_times": "Mo-Fr 15:30; Sa 09:00", "indoor": "yes", "note": "ON 12/24 AND 12/31, THIS BOX MAY BE COLLECTED AS EARLY AS 12 NOON.", "nsi_id": "unitedstatespostalservice-a77078", "operator": "United States Postal Service", "operator:short": "USPS", "operator:type": "public", "operator:wikidata": "Q668687", "ref": "7517300505"}, "type": "Feature"}
{"geometry": {"coordinates": [-96.374906858, 33.0419502025], "type": "Point"}, "id": "HatJWobUV4JuMTjwdWE8A3lO1bU=", "properties": {"@source_uri": "https://tools.usps.com/UspsToolsRestServices/rest/POLocator/findLocations", "@spider": "usps_collection_boxes", "addr:city": "NEVADA", "addr:country": "US", "addr:postcode": "75173", "addr:state": "TX", "addr:street_address": "102 S FM 1138", "amenity": "post_box", "collection_times": "Mo-Fr 16:00; Sa 09:00", "note": "ON 12/24 AND 12/31, THIS BOX MAY BE COLLECTED AS EARLY AS 12 NOON.", "nsi_id": "unitedstatespostalservice-a77078", "operator": "United States Postal Service", "operator:short": "USPS", "operator:type": "public", "operator:wikidata": "Q668687", "ref": "7517300506"}, "type": "Feature"}
{"geometry": {"coordinates": [-96.374908751, 33.041940591], "type": "Point"}, "id": "3vA4j2OdqoTwqK-qRTq8363abR4=", "properties": {"@source_uri": "https://tools.usps.com/UspsToolsRestServices/rest/POLocator/findLocations", "@spider": "usps_collection_boxes", "addr:city": "NEVADA", "addr:country": "US", "addr:postcode": "75173", "addr:state": "TX", "addr:street_address": "102 S FM 1138", "amenity": "post_box", "collection_times": "Mo-Fr 16:00", "indoor": "yes", "note": "ON 12/24 AND 12/31, THIS BOX MAY BE COLLECTED AS EARLY AS 12 NOON.", "nsi_id": "unitedstatespostalservice-a77078", "operator": "United States Postal Service", "operator:short": "USPS", "operator:type": "public", "operator:wikidata": "Q668687", "ref": "7517300509"}, "type": "Feature"}
{"geometry": {"coordinates": [-96.6053342, 32.712628], "type": "Point"}, "id": "1vmI64KPmKa_TO_m-bjnsFzPfMg=", "properties": {"@source_uri": "https://tools.usps.com/UspsToolsRestServices/rest/POLocator/findLocations", "@spider": "usps_collection_boxes", "addr:city": "MESQUITE", "addr:country": "US", "addr:postcode": "75180", "addr:state": "TX", "addr:street_address": "4202 PIONEER RD", "amenity": "post_box", "collection_times": "Mo-Sa 12:00", "nsi_id": "unitedstatespostalservice-a77078", "operator": "United States Postal Service", "operator:short": "USPS", "operator:type": "public", "operator:wikidata": "Q668687", "ref": "7518000001"}, "type": "Feature"}
{"geometry": {"coordinates": [-96.6222079734, 32.7231869952], "type": "Point"}, "id": "iGt8K2S-_wqnvJMDhbVkd6nXHNk=", "properties": {"@source_uri": "https://tools.usps.com/UspsToolsRestServices/rest/POLocator/findLocations", "@spider": "usps_collection_boxes", "addr:city": "MESQUITE", "addr:country": "US", "addr:postcode": "75180", "addr:state": "TX", "addr:street_address": "3400 HICKORY TREE RD", "amenity": "post_box", "collection_times": "Mo-Fr 17:00; Sa 13:00", "note": "ON 12/24 AND 12/31, THIS BOX MAY BE COLLECTED AS EARLY AS 12 NOON.", "nsi_id": "unitedstatespostalservice-a77078", "operator": "United States Postal Service", "operator:short": "USPS", "operator:type": "public", "operator:wikidata": "Q668687", "ref": "7518000005"}, "type": "Feature"}
{"geometry": {"coordinates": [-96.6221881, 32.723116], "type": "Point"}, "id": "conxTaNvGW7s5j8NsGw-bFHmmjY=", "properties": {"@source_uri": "https://tools.usps.com/UspsToolsRestServices/rest/POLocator/findLocations", "@spider": "usps_collection_boxes", "addr:city": "MESQUITE", "addr:country": "US", "addr:postcode": "75180", "addr:state": "TX", "addr:street_address": "3400 HICKORY TREE RD", "amenity": "post_box", "collection_times": "Mo-Fr 17:00; Sa 13:00", "indoor": "yes", "note": "ON 12/24 AND 12/31, THIS BOX MAY BE COLLECTED AS EARLY AS 12 NOON.", "nsi_id": "unitedstatespostalservice-a77078", "operator": "United States Postal Service", "operator:short": "USPS", "operator:type": "public", "operator:wikidata": "Q668687", "ref": "7518000008"}, "type": "Feature"}
{"geometry": {"coordinates": [-96.622618309, 32.723099665], "type": "Point"}, "id": "F7i5_pLZi9BqYsSoMTCrX3WGib4=", "properties": {"@source_uri": "https://tools.usps.com/UspsToolsRestServices/rest/POLocator/findLocations", "@spider": "usps_collection_boxes", "addr:city": "MESQUITE", "addr:country": "US", "addr:postcode": "75180", "addr:state": "TX", "addr:street_address": "3400 HICKORY TREE RD", "amenity": "post_box", "collection_times": "Mo-Fr 17:00", "indoor": "yes", "note": "ON 12/24 AND 12/31, THIS BOX MAY BE COLLECTED AS EARLY AS 12 NOON.", "nsi_id": "unitedstatespostalservice-a77078", "operator": "United States Postal Service", "operator:short": "USPS", "operator:type": "public", "operator:wikidata": "Q668687", "ref": "7518000010"}, "type": "Feature"}
{"geometry": {"coordinates": [-96.5526249, 32.743986], "type": "Point"}, "id": "cW4OEWOCpoJwiBfrI9NFaE_9PWA=", "properties": {"@source_uri": "https://tools.usps.com/UspsToolsRestServices/rest/POLocator/findLocations", "@spider": "usps_collection_boxes", "addr:city": "MESQUITE", "addr:country": "US", "addr:postcode": "75181", "addr:state": "TX", "addr:street_address": "1919 FAITHON P LUCAS SR BLVD", "amenity": "post_box", "collection_times": "Mo-Fr 15:00", "note": "ON 12/24 AND 12/31, THIS BOX MAY BE COLLECTED AS EARLY AS 12 NOON.", "nsi_id": "unitedstatespostalservice-a77078", "operator": "United States Postal Service", "operator:short": "USPS", "operator:type": "public", "operator:wikidata": "Q668687", "ref": "7518100004"}, "type": "Feature"}
{"geometry": {"coordinates": [-96.330492, 32.975281], "type": "Point"}, "id": "rFJR-W6YH8h4yVxdx1bRGjr44XU=", "properties": {"@source_uri": "https://tools.usps.com/UspsToolsRestServices/rest/POLocator/findLocations", "@spider": "usps_collection_boxes", "addr:city": "ROYSE CITY", "addr:country": "US", "addr:postcode": "75189", "addr:state": "TX", "addr:street_address": "217 E MAIN ST", "amenity": "post_box", "collection_times": "Mo-Fr 16:30; Sa 11:00", "indoor": "yes", "note": "ON 12/24 AND 12/31, THIS BOX MAY BE COLLECTED AS EARLY AS 12 NOON.", "nsi_id": "unitedstatespostalservice-a77078", "operator": "United States Postal Service", "operator:short": "USPS", "operator:type": "public", "operator:wikidata": "Q668687", "ref": "7518900714"}, "type": "Feature"}
{"geometry": {"coordinates": [-96.330492, 32.975281], "type": "Point"}, "id": "OVNDg8tmCrVE1dft63DDs2Af5LI=", "properties": {"@source_uri": "https://tools.usps.com/UspsToolsRestServices/rest/POLocator/findLocations", "@spider": "usps_collection_boxes", "addr:city": "ROYSE CITY", "addr:country": "US", "addr:postcode": "75189", "addr:state": "TX", "addr:street_address": "217 E MAIN ST", "amenity": "post_box", "collection_times": "Mo-Fr 16:30; Sa 11:00", "note": "ON 12/24 AND 12/31, THIS BOX MAY BE COLLECTED AS EARLY AS 12 NOON.", "nsi_id": "unitedstatespostalservice-a77078", "operator": "United States Postal Service", "operator:short": "USPS", "operator:type": "public", "operator:wikidata": "Q668687", "ref": "7518900715"}, "type": "Feature"}
{"geometry": {"coordinates": [-96.3685846, 32.902242], "type": "Point"}, "id": "ttWBnekYYVuRy9ckAPMFIK-GJ-g=", "properties": {"@source_uri": "https://tools.usps.com/UspsToolsRestServices/rest/POLocator/findLocations", "@spider": "usps_collection_boxes", "addr:city": "ROYSE CITY", "addr:country": "US", "addr:postcode": "75189", "addr:state": "TX", "addr:street_address": "STATE HWY 276", "amenity": "post_box", "collection_times": "Mo-Fr 10:00", "nsi_id": "unitedstatespostalservice-a77078", "operator": "United States Postal Service", "operator:short": "USPS", "operator:type": "public", "operator:wikidata": "Q668687", "ref": "7518905251"}, "type": "Feature"}
{"geometry": {"coordinates": [-96.330554849, 32.975590057], "type": "Point"}, "id": "eAOssI8FulfSrnywdZWYTr6DqKI=", "properties": {"@source_uri": "https://tools.usps.com/UspsToolsRestServices/rest/POLocator/findLocations", "@spider": "usps_collection_boxes", "addr:city": "ROYSE CITY", "addr:country": "US", "addr:postcode": "75189", "addr:state": "TX", "addr:street_address": "217 E MAIN ST", "amenity": "post_box", "collection_times": "Mo-Fr 16:30; Sa 11:00", "indoor": "yes", "note": "ON 12/24 AND 12/31, THIS BOX MAY BE COLLECTED AS EARLY AS 12 NOON.", "nsi_id": "unitedstatespostalservice-a77078", "operator": "United States Postal Service", "operator:short": "USPS", "operator:type": "public", "operator:wikidata": "Q668687", "ref": "7518905253"}, "type": "Feature"}
