{"geometry": {"coordinates": [-94.080373, 33.439192], "type": "Point"}, "id": "Vl2LZuVHVKV2lbFbXtjSagWNnqo=", "properties": {"@spider": "usps_collection_boxes", "addr:city": "TEXARKANA", "addr:country": "US", "addr:full": "2211 N ROBISON RD", "addr:postcode": "75501", "addr:state": "TX", "amenity": "post_box", "brand": "United States Postal Service", "brand:wikidata": "Q668687", "collection_times": "Mo-Sa 17:00", "name": "USPS COLLECTION BOX - BLUE BOX", "note": "ON 12/24 AND 12/31, THIS BOX MAY BE COLLECTED AS EARLY AS 12 NOON.", "nsi_id": "unitedstatespostalservice-a77078", "operator": "United States Postal Service", "operator:short": "USPS", "operator:type": "public", "operator:wikidata": "Q668687", "ref": "7550106986"}, "type": "Feature"}
{"geometry": {"coordinates": [-94.1102940003, 33.425479002], "type": "Point"}, "id": "-AeamgmQe-z6UTm5zYnMZXzBlW4=", "properties": {"@spider": "usps_collection_boxes", "addr:city": "TEXARKANA", "addr:country": "US", "addr:full": "500 REDWATER RD", "addr:postcode": "75501", "addr:state": "TX", "amenity": "post_box", "brand": "United States Postal Service", "brand:wikidata": "Q668687", "collection_times": "Mo-Sa 12:00", "name": "USPS COLLECTION BOX - BLUE BOX", "nsi_id": "unitedstatespostalservice-a77078", "operator": "United States Postal Service", "operator:short": "USPS", "operator:type": "public", "operator:wikidata": "Q668687", "ref": "7550106999"}, "type": "Feature"}
{"geometry": {"coordinates": [-94.1258131, 33.424027], "type": "Point"}, "id": "vRHIFY6aXDxxYkVBqdtXPGV57K8=", "properties": {"@spider": "usps_collection_boxes", "addr:city": "TEXARKANA", "addr:country": "US", "addr:full": "800 N KINGS HWY", "addr:postcode": "75501", "addr:state": "TX", "amenity": "post_box", "brand": "United States Postal Service", "brand:wikidata": "Q668687", "collection_times": "Mo-Sa 10:00", "name": "USPS COLLECTION BOX - BLUE BOX", "nsi_id": "unitedstatespostalservice-a77078", "operator": "United States Postal Service", "operator:short": "USPS", "operator:type": "public", "operator:wikidata": "Q668687", "ref": "7550107012"}, "type": "Feature"}
{"geometry": {"coordinates": [-94.0988461, 33.419293], "type": "Point"}, "id": "183K1VNVaLCcSJOFRuXvmTmVmG0=", "properties": {"@spider": "usps_collection_boxes", "addr:city": "TEXARKANA", "addr:country": "US", "addr:full": "4520 W 7TH ST", "addr:postcode": "75501", "addr:state": "TX", "amenity": "post_box", "brand": "United States Postal Service", "brand:wikidata": "Q668687", "collection_times": "Mo-Sa 10:00", "name": "USPS COLLECTION BOX - BLUE BOX", "nsi_id": "unitedstatespostalservice-a77078", "operator": "United States Postal Service", "operator:short": "USPS", "operator:type": "public", "operator:wikidata": "Q668687", "ref": "7550107014"}, "type": "Feature"}
{"geometry": {"coordinates": [-94.0498647, 33.427925], "type": "Point"}, "id": "_B6gMGMrk_U-gIloIZYid5L7KDQ=", "properties": {"@spider": "usps_collection_boxes", "addr:city": "TEXARKANA", "addr:country": "US", "addr:full": "1001 TEXAS BLVD", "addr:postcode": "75501", "addr:state": "TX", "amenity": "post_box", "brand": "United States Postal Service", "brand:wikidata": "Q668687", "collection_times": "Mo-Sa 10:00", "name": "USPS COLLECTION BOX - BLUE BOX", "nsi_id": "unitedstatespostalservice-a77078", "operator": "United States Postal Service", "operator:short": "USPS", "operator:type": "public", "operator:wikidata": "Q668687", "ref": "7550107017"}, "type": "Feature"}
{"geometry": {"coordinates": [-94.046676, 33.427607], "type": "Point"}, "id": "oMgKe6cglnvCgYiYISOJ9HZhJC0=", "properties": {"@spider": "usps_collection_boxes", "addr:city": "TEXARKANA", "addr:country": "US", "addr:full": "1000 PINE ST", "addr:postcode": "75501", "addr:state": "TX", "amenity": "post_box", "brand": "United States Postal Service", "brand:wikidata": "Q668687", "collection_times": "Mo-Sa 09:00", "name": "USPS COLLECTION BOX - BLUE BOX", "nsi_id": "unitedstatespostalservice-a77078", "operator": "United States Postal Service", "operator:short": "USPS", "operator:type": "public", "operator:wikidata": "Q668687", "ref": "7550107020"}, "type": "Feature"}
{"geometry": {"coordinates": [-94.0966333, 33.396005], "type": "Point"}, "id": "GgYJOoUgUR_coQu_i2eL3UE94Yw=", "properties": {"@spider": "usps_collection_boxes", "addr:city": "TEXARKANA", "addr:country": "US", "addr:full": "3900 S LAKE DR", "addr:postcode": "75501", "addr:state": "TX", "amenity": "post_box", "brand": "United States Postal Service", "brand:wikidata": "Q668687", "collection_times": "Mo-Fr 08:30", "name": "USPS COLLECTION BOX - BLUE BOX", "nsi_id": "unitedstatespostalservice-a77078", "operator": "United States Postal Service", "operator:short": "USPS", "operator:type": "public", "operator:wikidata": "Q668687", "ref": "7550107251"}, "type": "Feature"}
{"geometry": {"coordinates": [-94.1007795, 33.445983], "type": "Point"}, "id": "HfjLmkKGm4KU1S7zd1qaggGcrnA=", "properties": {"@spider": "usps_collection_boxes", "addr:city": "TEXARKANA", "addr:country": "US", "addr:full": "4000 NEW BOSTON RD", "addr:postcode": "75501", "addr:state": "TX", "amenity": "post_box", "brand": "United States Postal Service", "brand:wikidata": "Q668687", "collection_times": "Mo-Sa 14:00", "name": "USPS COLLECTION BOX - BLUE BOX", "note": "ON 12/24 AND 12/31, THIS BOX MAY BE COLLECTED AS EARLY AS 12 NOON.", "nsi_id": "unitedstatespostalservice-a77078", "operator": "United States Postal Service", "operator:short": "USPS", "operator:type": "public", "operator:wikidata": "Q668687", "ref": "7550107273"}, "type": "Feature"}
{"geometry": {"coordinates": [-94.0431609908, 33.4206570189], "type": "Point"}, "id": "YVFLnN6lko_I8j5elYDG_7z1coo=", "properties": {"@spider": "usps_collection_boxes", "addr:city": "TEXARKANA", "addr:country": "US", "addr:full": "100 N STATE LINE AVE", "addr:postcode": "75501", "addr:state": "TX", "amenity": "post_box", "brand": "United States Postal Service", "brand:wikidata": "Q668687", "collection_times": "Mo-Sa 11:30", "name": "USPS COLLECTION BOX - BLUE BOX", "nsi_id": "unitedstatespostalservice-a77078", "operator": "United States Postal Service", "operator:short": "USPS", "operator:type": "public", "operator:wikidata": "Q668687", "ref": "7550107276"}, "type": "Feature"}
{"geometry": {"coordinates": [-94.080373, 33.439192], "type": "Point"}, "id": "vGJuTw5Bo7IQzuWPWsG71tXkg_k=", "properties": {"@spider": "usps_collection_boxes", "addr:city": "TEXARKANA", "addr:country": "US", "addr:full": "2211 N ROBISON RD", "addr:postcode": "75501", "addr:state": "TX", "amenity": "post_box", "brand": "United States Postal Service", "brand:wikidata": "Q668687", "collection_times": "Mo-Sa 17:00", "name": "USPS COLLECTION BOX - PO LOBBY", "note": "ON 12/24 AND 12/31, THIS BOX MAY BE COLLECTED AS EARLY AS 12 NOON.", "nsi_id": "unitedstatespostalservice-a77078", "operator": "United States Postal Service", "operator:short": "USPS", "operator:type": "public", "operator:wikidata": "Q668687", "ref": "7550107277"}, "type": "Feature"}
{"geometry": {"coordinates": [-94.080373, 33.439192], "type": "Point"}, "id": "jBtgR7MJdypUWbdeczUo6DmAcXA=", "properties": {"@spider": "usps_collection_boxes", "addr:city": "TEXARKANA", "addr:country": "US", "addr:full": "2211 N ROBISON RD", "addr:postcode": "75501", "addr:state": "TX", "amenity": "post_box", "brand": "United States Postal Service", "brand:wikidata": "Q668687", "collection_times": "Mo-Sa 17:00", "name": "USPS COLLECTION BOX - PO LOBBY", "note": "ON 12/24 AND 12/31, THIS BOX MAY BE COLLECTED AS EARLY AS 12 NOON.", "nsi_id": "unitedstatespostalservice-a77078", "operator": "United States Postal Service", "operator:short": "USPS", "operator:type": "public", "operator:wikidata": "Q668687", "ref": "7550107279"}, "type": "Feature"}
{"geometry": {"coordinates": [-94.080373407, 33.439283832], "type": "Point"}, "id": "5a2LZKDYag5QkxSu6QrZ8bq6iTQ=", "properties": {"@spider": "usps_collection_boxes", "addr:city": "TEXARKANA", "addr:country": "US", "addr:full": "2211 N ROBISON RD", "addr:postcode": "75501", "addr:state": "TX", "amenity": "post_box", "brand": "United States Postal Service", "brand:wikidata": "Q668687", "collection_times": "Mo-Fr 17:00", "name": "USPS COLLECTION BOX - PO LOBBY", "note": "ON 12/24 AND 12/31, THIS BOX MAY BE COLLECTED AS EARLY AS 12 NOON.", "nsi_id": "unitedstatespostalservice-a77078", "operator": "United States Postal Service", "operator:short": "USPS", "operator:type": "public", "operator:wikidata": "Q668687", "ref": "7550107282"}, "type": "Feature"}
{"geometry": {"coordinates": [-94.0692172, 33.472423], "type": "Point"}, "id": "NWxC14IyFEPw4H7lCjHLDiZIcGA=", "properties": {"@spider": "usps_collection_boxes", "addr:city": "TEXARKANA", "addr:country": "US", "addr:full": "5600 SUMMERHILL RD", "addr:postcode": "75503", "addr:state": "TX", "amenity": "post_box", "brand": "United States Postal Service", "brand:wikidata": "Q668687", "collection_times": "Mo-Sa 11:00", "name": "USPS COLLECTION BOX - BLUE BOX", "nsi_id": "unitedstatespostalservice-a77078", "operator": "United States Postal Service", "operator:short": "USPS", "operator:type": "public", "operator:wikidata": "Q668687", "ref": "7550307071"}, "type": "Feature"}
{"geometry": {"coordinates": [-94.084122256, 33.454475276], "type": "Point"}, "id": "ZtBClEJRpdic9KNL_NA9DPW03F8=", "properties": {"@spider": "usps_collection_boxes", "addr:city": "TEXARKANA", "addr:country": "US", "addr:full": "2400 RICHMOND RD", "addr:postcode": "75503", "addr:state": "TX", "amenity": "post_box", "brand": "United States Postal Service", "brand:wikidata": "Q668687", "collection_times": "Mo-Sa 12:00", "name": "USPS COLLECTION BOX - BLUE BOX", "nsi_id": "unitedstatespostalservice-a77078", "operator": "United States Postal Service", "operator:short": "USPS", "operator:type": "public", "operator:wikidata": "Q668687", "ref": "7550307076"}, "type": "Feature"}
{"geometry": {"coordinates": [-94.0482082, 33.444225], "type": "Point"}, "id": "dnLzRjXRcx1YFV7FGobgCfZWKUY=", "properties": {"@spider": "usps_collection_boxes", "addr:city": "TEXARKANA", "addr:country": "US", "addr:full": "2821 WOOD ST", "addr:postcode": "75503", "addr:state": "TX", "amenity": "post_box", "brand": "United States Postal Service", "brand:wikidata": "Q668687", "collection_times": "Mo-Sa 13:30", "name": "USPS COLLECTION BOX - BLUE BOX", "note": "ON 12/24 AND 12/31, THIS BOX MAY BE COLLECTED AS EARLY AS 12 NOON.", "nsi_id": "unitedstatespostalservice-a77078", "operator": "United States Postal Service", "operator:short": "USPS", "operator:type": "public", "operator:wikidata": "Q668687", "ref": "7550307085"}, "type": "Feature"}
{"geometry": {"coordinates": [-94.0605531, 33.449094], "type": "Point"}, "id": "7hU_r_ryVKLkJaxRJEWTf0JbAE0=", "properties": {"@spider": "usps_collection_boxes", "addr:city": "TEXARKANA", "addr:country": "US", "addr:full": "1400 COLLEGE DR", "addr:postcode": "75503", "addr:state": "TX", "amenity": "post_box", "brand": "United States Postal Service", "brand:wikidata": "Q668687", "collection_times": "Mo-Sa 13:45", "name": "USPS COLLECTION BOX - BLUE BOX", "note": "ON 12/24 AND 12/31, THIS BOX MAY BE COLLECTED AS EARLY AS 12 NOON.", "nsi_id": "unitedstatespostalservice-a77078", "operator": "United States Postal Service", "operator:short": "USPS", "operator:type": "public", "operator:wikidata": "Q668687", "ref": "7550307086"}, "type": "Feature"}
{"geometry": {"coordinates": [-94.0659891, 33.459484], "type": "Point"}, "id": "iOHgUnsetWZnU16C5cAVeFIS-jo=", "properties": {"@spider": "usps_collection_boxes", "addr:city": "TEXARKANA", "addr:country": "US", "addr:full": "4405 SUMMERHILL RD", "addr:postcode": "75503", "addr:state": "TX", "amenity": "post_box", "brand": "United States Postal Service", "brand:wikidata": "Q668687", "collection_times": "Mo-Fr 10:00", "name": "USPS COLLECTION BOX - BLUE BOX", "nsi_id": "unitedstatespostalservice-a77078", "operator": "United States Postal Service", "operator:short": "USPS", "operator:type": "public", "operator:wikidata": "Q668687", "ref": "7550307087"}, "type": "Feature"}
{"geometry": {"coordinates": [-94.0650343, 33.455837], "type": "Point"}, "id": "GWtrORqhHOt509rouEPXM7YxoU0=", "properties": {"@spider": "usps_collection_boxes", "addr:city": "TEXARKANA", "addr:country": "US", "addr:full": "4000 SUMMERHILL SQ", "addr:postcode": "75503", "addr:state": "TX", "amenity": "post_box", "brand": "United States Postal Service", "brand:wikidata": "Q668687", "collection_times": "Mo-Sa 10:00", "name": "USPS COLLECTION BOX - BLUE BOX", "nsi_id": "unitedstatespostalservice-a77078", "operator": "United States Postal Service", "operator:short": "USPS", "operator:type": "public", "operator:wikidata": "Q668687", "ref": "7550307088"}, "type": "Feature"}
{"geometry": {"coordinates": [-94.0432855, 33.455143], "type": "Point"}, "id": "dF6W9kx5-C1RqPh9AqIOLy68fI4=", "properties": {"@spider": "usps_collection_boxes", "addr:city": "TEXARKANA", "addr:country": "US", "addr:full": "3923 N STATELINE AVE", "addr:postcode": "75503", "addr:state": "TX", "amenity": "post_box", "brand": "United States Postal Service", "brand:wikidata": "Q668687", "collection_times": "Mo-Sa 11:00", "name": "USPS COLLECTION BOX - BLUE BOX", "nsi_id": "unitedstatespostalservice-a77078", "operator": "United States Postal Service", "operator:short": "USPS", "operator:type": "public", "operator:wikidata": "Q668687", "ref": "7550307093"}, "type": "Feature"}
{"geometry": {"coordinates": [-94.0898918, 33.460104], "type": "Point"}, "id": "apdZnpUGBCDxnPYJo48V0-G0UB0=", "properties": {"@spider": "usps_collection_boxes", "addr:city": "TEXARKANA", "addr:country": "US", "addr:full": "2700 RICHMOND RD", "addr:postcode": "75503", "addr:state": "TX", "amenity": "post_box", "brand": "United States Postal Service", "brand:wikidata": "Q668687", "collection_times": "Mo-Sa 10:30", "name": "USPS COLLECTION BOX - BLUE BOX", "nsi_id": "unitedstatespostalservice-a77078", "operator": "United States Postal Service", "operator:short": "USPS", "operator:type": "public", "operator:wikidata": "Q668687", "ref": "7550307100"}, "type": "Feature"}
{"geometry": {"coordinates": [-94.0460399, 33.460948], "type": "Point"}, "id": "8erLtbSjzmZq2d549CNvzi55w8I=", "properties": {"@spider": "usps_collection_boxes", "addr:city": "TEXARKANA", "addr:country": "US", "addr:full": "4805 TEXAS BLVD", "addr:postcode": "75503", "addr:state": "TX", "amenity": "post_box", "brand": "United States Postal Service", "brand:wikidata": "Q668687", "collection_times": "Mo-Sa 10:00", "name": "USPS COLLECTION BOX - BLUE BOX", "nsi_id": "unitedstatespostalservice-a77078", "operator": "United States Postal Service", "operator:short": "USPS", "operator:type": "public", "operator:wikidata": "Q668687", "ref": "7550307273"}, "type": "Feature"}
{"geometry": {"coordinates": [-94.0656387, 33.469831], "type": "Point"}, "id": "8ivkcKWr41c5eImVVcjqt1gKpeg=", "properties": {"@spider": "usps_collection_boxes", "addr:city": "TEXARKANA", "addr:country": "US", "addr:full": "2000 GALLERIA OAKS DR", "addr:postcode": "75503", "addr:state": "TX", "amenity": "post_box", "brand": "United States Postal Service", "brand:wikidata": "Q668687", "collection_times": "Mo-Sa 12:00", "name": "USPS COLLECTION BOX - BLUE BOX", "nsi_id": "unitedstatespostalservice-a77078", "operator": "United States Postal Service", "operator:short": "USPS", "operator:type": "public", "operator:wikidata": "Q668687", "ref": "7550307275"}, "type": "Feature"}
{"geometry": {"coordinates": [-94.0967958, 33.469843], "type": "Point"}, "id": "7QpZeu_yPMmKJEfegT-c3KMcNsA=", "properties": {"@spider": "usps_collection_boxes", "addr:city": "TEXARKANA", "addr:country": "US", "addr:full": "3525 RICHMOND RD", "addr:postcode": "75503", "addr:state": "TX", "amenity": "post_box", "brand": "United States Postal Service", "brand:wikidata": "Q668687", "collection_times": "Mo-Sa 10:30", "name": "USPS COLLECTION BOX - BLUE BOX", "nsi_id": "unitedstatespostalservice-a77078", "operator": "United States Postal Service", "operator:short": "USPS", "operator:type": "public", "operator:wikidata": "Q668687", "ref": "7550307276"}, "type": "Feature"}
{"geometry": {"coordinates": [-94.0748629, 33.46456], "type": "Point"}, "id": "_4_CcFM3HW5DysyNGVH4I05vaGU=", "properties": {"@spider": "usps_collection_boxes", "addr:city": "TEXARKANA", "addr:country": "US", "addr:full": "2600 SAINT MICHAEL DR", "addr:postcode": "75503", "addr:state": "TX", "amenity": "post_box", "brand": "United States Postal Service", "brand:wikidata": "Q668687", "collection_times": "Mo-Sa 10:00", "name": "USPS COLLECTION BOX - BLUE BOX", "nsi_id": "unitedstatespostalservice-a77078", "operator": "United States Postal Service", "operator:short": "USPS", "operator:type": "public", "operator:wikidata": "Q668687", "ref": "7550307277"}, "type": "Feature"}
{"geometry": {"coordinates": [-94.0754998099, 33.4622647885], "type": "Point"}, "id": "xsbpsNxFCVjzwoBI69ReRlzVb1g=", "properties": {"@spider": "usps_collection_boxes", "addr:city": "TEXARKANA", "addr:country": "US", "addr:full": "2604 SAINT MICHAEL DR STE 210", "addr:postcode": "75503", "addr:state": "TX", "amenity": "post_box", "brand": "United States Postal Service", "brand:wikidata": "Q668687", "collection_times": "Mo-Sa 10:00", "name": "USPS COLLECTION BOX - BLUE BOX", "nsi_id": "unitedstatespostalservice-a77078", "operator": "United States Postal Service", "operator:short": "USPS", "operator:type": "public", "operator:wikidata": "Q668687", "ref": "7550307279"}, "type": "Feature"}
{"geometry": {"coordinates": [-94.0772315, 33.462292], "type": "Point"}, "id": "E8NvOiepHuMhS7JgZgjBcxsYZJQ=", "properties": {"@spider": "usps_collection_boxes", "addr:city": "TEXARKANA", "addr:country": "US", "addr:full": "2900 SAINT MICHAEL DR", "addr:postcode": "75503", "addr:state": "TX", "amenity": "post_box", "brand": "United States Postal Service", "brand:wikidata": "Q668687", "collection_times": "Mo-Sa 09:30", "name": "USPS COLLECTION BOX - BLUE BOX", "nsi_id": "unitedstatespostalservice-a77078", "operator": "United States Postal Service", "operator:short": "USPS", "operator:type": "public", "operator:wikidata": "Q668687", "ref": "7550307281"}, "type": "Feature"}
{"geometry": {"coordinates": [-94.917181, 33.581468], "type": "Point"}, "id": "J_HPjA52TkJxDnPn-Q2fOxk3lEc=", "properties": {"@spider": "usps_collection_boxes", "addr:city": "ANNONA", "addr:country": "US", "addr:full": "103 E MAIN ST", "addr:postcode": "75550", "addr:state": "TX", "amenity": "post_box", "brand": "United States Postal Service", "brand:wikidata": "Q668687", "collection_times": "Mo-Sa 16:00", "name": "USPS COLLECTION BOX - BLUE BOX", "note": "ON 12/24 AND 12/31, THIS BOX MAY BE COLLECTED AS EARLY AS 12 NOON.", "nsi_id": "unitedstatespostalservice-a77078", "operator": "United States Postal Service", "operator:short": "USPS", "operator:type": "public", "operator:wikidata": "Q668687", "ref": "7555000000"}, "type": "Feature"}
{"geometry": {"coordinates": [-94.9165279, 33.581385], "type": "Point"}, "id": "iGQoKA3Bu9Z4B-S-YhVMYU7qqCs=", "properties": {"@spider": "usps_collection_boxes", "addr:city": "ANNONA", "addr:country": "US", "addr:full": "103 E MAIN ST", "addr:postcode": "75550", "addr:state": "TX", "amenity": "post_box", "brand": "United States Postal Service", "brand:wikidata": "Q668687", "collection_times": "Mo-Fr 11:30; Sa 08:30", "name": "USPS COLLECTION BOX - PO LOBBY", "nsi_id": "unitedstatespostalservice-a77078", "operator": "United States Postal Service", "operator:short": "USPS", "operator:type": "public", "operator:wikidata": "Q668687", "ref": "7555000001"}, "type": "Feature"}
{"geometry": {"coordinates": [-94.917209853, 33.581510837], "type": "Point"}, "id": "3pOjd_FJ8Jm7KORD_RjWDDKGAzs=", "properties": {"@spider": "usps_collection_boxes", "addr:city": "ANNONA", "addr:country": "US", "addr:full": "103 E MAIN ST", "addr:postcode": "75550", "addr:state": "TX", "amenity": "post_box", "brand": "United States Postal Service", "brand:wikidata": "Q668687", "collection_times": "Mo-Fr 12:00", "name": "USPS COLLECTION BOX - PO LOBBY", "nsi_id": "unitedstatespostalservice-a77078", "operator": "United States Postal Service", "operator:short": "USPS", "operator:type": "public", "operator:wikidata": "Q668687", "ref": "7555000007"}, "type": "Feature"}
{"geometry": {"coordinates": [-94.171925, 33.123515], "type": "Point"}, "id": "wzgEM9d9dwGhYPJnGAPQG77U0hE=", "properties": {"@spider": "usps_collection_boxes", "addr:city": "ATLANTA", "addr:country": "US", "addr:full": "104 N WILLIAM ST", "addr:postcode": "75551", "addr:state": "TX", "amenity": "post_box", "brand": "United States Postal Service", "brand:wikidata": "Q668687", "collection_times": "Mo-Sa 10:00", "name": "USPS COLLECTION BOX - BLUE BOX", "nsi_id": "unitedstatespostalservice-a77078", "operator": "United States Postal Service", "operator:short": "USPS", "operator:type": "public", "operator:wikidata": "Q668687", "ref": "7555106396"}, "type": "Feature"}
{"geometry": {"coordinates": [-94.1842315, 33.115636], "type": "Point"}, "id": "bNSN3iAalv6jhkSVh3viGReaE08=", "properties": {"@spider": "usps_collection_boxes", "addr:city": "ATLANTA", "addr:country": "US", "addr:full": "201 US HIGHWAY 59", "addr:postcode": "75551", "addr:state": "TX", "amenity": "post_box", "brand": "United States Postal Service", "brand:wikidata": "Q668687", "collection_times": "Mo-Fr 13:00; Sa 10:00", "name": "USPS COLLECTION BOX - BLUE BOX", "note": "ON 12/24 AND 12/31, THIS BOX MAY BE COLLECTED AS EARLY AS 12 NOON.", "nsi_id": "unitedstatespostalservice-a77078", "operator": "United States Postal Service", "operator:short": "USPS", "operator:type": "public", "operator:wikidata": "Q668687", "ref": "7555106399"}, "type": "Feature"}
{"geometry": {"coordinates": [-94.164349, 33.116706], "type": "Point"}, "id": "kC1P4sBLNNci8OB85lgzOtI43JE=", "properties": {"@spider": "usps_collection_boxes", "addr:city": "ATLANTA", "addr:country": "US", "addr:full": "101 E MILLER ST", "addr:postcode": "75551", "addr:state": "TX", "amenity": "post_box", "brand": "United States Postal Service", "brand:wikidata": "Q668687", "collection_times": "Mo-Fr 16:00; Sa 10:00", "name": "USPS COLLECTION BOX - BLUE BOX", "note": "ON 12/24 AND 12/31, THIS BOX MAY BE COLLECTED AS EARLY AS 12 NOON.", "nsi_id": "unitedstatespostalservice-a77078", "operator": "United States Postal Service", "operator:short": "USPS", "operator:type": "public", "operator:wikidata": "Q668687", "ref": "7555106400"}, "type": "Feature"}
{"geometry": {"coordinates": [-94.164349, 33.116706], "type": "Point"}, "id": "3JEl8p3JI2GYGiWqZsjOREnm-E4=", "properties": {"@spider": "usps_collection_boxes", "addr:city": "ATLANTA", "addr:country": "US", "addr:full": "101 E MILLER ST", "addr:postcode": "75551", "addr:state": "TX", "amenity": "post_box", "brand": "United States Postal Service", "brand:wikidata": "Q668687", "collection_times": "Mo-Fr 16:00; Sa 10:00", "name": "USPS COLLECTION BOX - BLUE BOX", "note": "ON 12/24 AND 12/31, THIS BOX MAY BE COLLECTED AS EARLY AS 12 NOON.", "nsi_id": "unitedstatespostalservice-a77078", "operator": "United States Postal Service", "operator:short": "USPS", "operator:type": "public", "operator:wikidata": "Q668687", "ref": "7555106401"}, "type": "Feature"}
{"geometry": {"coordinates": [-94.164349, 33.116706], "type": "Point"}, "id": "FysTpIaAJTl6Abo3QQPalE3tFHM=", "properties": {"@spider": "usps_collection_boxes", "addr:city": "ATLANTA", "addr:country": "US", "addr:full": "101 E MILLER ST", "addr:postcode": "75551", "addr:state": "TX", "amenity": "post_box", "brand": "United States Postal Service", "brand:wikidata": "Q668687", "collection_times": "Mo-Fr 16:30; Sa 10:00", "name": "USPS COLLECTION BOX - PO LOBBY", "note": "ON 12/24 AND 12/31, THIS BOX MAY BE COLLECTED AS EARLY AS 12 NOON.", "nsi_id": "unitedstatespostalservice-a77078", "operator": "United States Postal Service", "operator:short": "USPS", "operator:type": "public", "operator:wikidata": "Q668687", "ref": "7555106405"}, "type": "Feature"}
{"geometry": {"coordinates": [-94.164349, 33.116706], "type": "Point"}, "id": "rUYDaInPztLvGKszTkkJBRdjRrw=", "properties": {"@spider": "usps_collection_boxes", "addr:city": "ATLANTA", "addr:country": "US", "addr:full": "101 E MILLER ST", "addr:postcode": "75551", "addr:state": "TX", "amenity": "post_box", "brand": "United States Postal Service", "brand:wikidata": "Q668687", "collection_times": "Mo-Fr 16:30; Sa 10:00", "name": "USPS COLLECTION BOX - PO LOBBY", "note": "ON 12/24 AND 12/31, THIS BOX MAY BE COLLECTED AS EARLY AS 12 NOON.", "nsi_id": "unitedstatespostalservice-a77078", "operator": "United States Postal Service", "operator:short": "USPS", "operator:type": "public", "operator:wikidata": "Q668687", "ref": "7555106406"}, "type": "Feature"}
{"geometry": {"coordinates": [-94.1795641, 33.112144], "type": "Point"}, "id": "RVzaJ9zqnOeMRkFRFH5WMBz0nkY=", "properties": {"@spider": "usps_collection_boxes", "addr:city": "ATLANTA", "addr:country": "US", "addr:full": "809 W MAIN ST", "addr:postcode": "75551", "addr:state": "TX", "amenity": "post_box", "brand": "United States Postal Service", "brand:wikidata": "Q668687", "collection_times": "Mo-Fr 11:00; Sa 10:00", "name": "USPS COLLECTION BOX - BLUE BOX", "nsi_id": "unitedstatespostalservice-a77078", "operator": "United States Postal Service", "operator:short": "USPS", "operator:type": "public", "operator:wikidata": "Q668687", "ref": "7555106410"}, "type": "Feature"}
{"geometry": {"coordinates": [-94.164305485, 33.116711321], "type": "Point"}, "id": "qKTIxZM8COjx9Aj-DO79m3yCgDk=", "properties": {"@spider": "usps_collection_boxes", "addr:city": "ATLANTA", "addr:country": "US", "addr:full": "101 E MILLER ST", "addr:postcode": "75551", "addr:state": "TX", "amenity": "post_box", "brand": "United States Postal Service", "brand:wikidata": "Q668687", "collection_times": "Mo-Fr 16:30", "name": "USPS COLLECTION BOX - PO LOBBY", "note": "ON 12/24 AND 12/31, THIS BOX MAY BE COLLECTED AS EARLY AS 12 NOON.", "nsi_id": "unitedstatespostalservice-a77078", "operator": "United States Postal Service", "operator:short": "USPS", "operator:type": "public", "operator:wikidata": "Q668687", "ref": "7555106412"}, "type": "Feature"}
{"geometry": {"coordinates": [-94.779808, 33.547565], "type": "Point"}, "id": "5Y0KSbO2HZhxh_8bQ9tWxdf6u9k=", "properties": {"@spider": "usps_collection_boxes", "addr:city": "AVERY", "addr:country": "US", "addr:full": "340 FM 911 S", "addr:postcode": "75554", "addr:state": "TX", "amenity": "post_box", "brand": "United States Postal Service", "brand:wikidata": "Q668687", "collection_times": "Mo-Fr 13:30; Sa 08:30", "name": "USPS COLLECTION BOX - BLUE BOX", "note": "ON 12/24 AND 12/31, THIS BOX MAY BE COLLECTED AS EARLY AS 12 NOON.", "nsi_id": "unitedstatespostalservice-a77078", "operator": "United States Postal Service", "operator:short": "USPS", "operator:type": "public", "operator:wikidata": "Q668687", "ref": "7555407334"}, "type": "Feature"}
{"geometry": {"coordinates": [-94.7802107, 33.54764], "type": "Point"}, "id": "CGXIHO1wEN9F1FynUqWF6zGquXo=", "properties": {"@spider": "usps_collection_boxes", "addr:city": "AVERY", "addr:country": "US", "addr:full": "340 FM 911 S", "addr:postcode": "75554", "addr:state": "TX", "amenity": "post_box", "brand": "United States Postal Service", "brand:wikidata": "Q668687", "collection_times": "Mo-Fr 13:30; Sa 08:30", "name": "USPS COLLECTION BOX - PO LOBBY", "note": "ON 12/24 AND 12/31, THIS BOX MAY BE COLLECTED AS EARLY AS 12 NOON.", "nsi_id": "unitedstatespostalservice-a77078", "operator": "United States Postal Service", "operator:short": "USPS", "operator:type": "public", "operator:wikidata": "Q668687", "ref": "7555407336"}, "type": "Feature"}
{"geometry": {"coordinates": [-94.7804922207, 33.5383119843], "type": "Point"}, "id": "Ytf-rIPspCves0Xbx1W7_O0Ip7M=", "properties": {"@spider": "usps_collection_boxes", "addr:city": "AVERY", "addr:country": "US", "addr:full": "340 FM 911 S", "addr:postcode": "75554", "addr:state": "TX", "amenity": "post_box", "brand": "United States Postal Service", "brand:wikidata": "Q668687", "collection_times": "Mo-Fr 13:30", "name": "USPS COLLECTION BOX - PO LOBBY", "note": "ON 12/24 AND 12/31, THIS BOX MAY BE COLLECTED AS EARLY AS 12 NOON.", "nsi_id": "unitedstatespostalservice-a77078", "operator": "United States Postal Service", "operator:short": "USPS", "operator:type": "public", "operator:wikidata": "Q668687", "ref": "7555407338"}, "type": "Feature"}
{"geometry": {"coordinates": [-94.1987683, 33.019908], "type": "Point"}, "id": "t2O0CgSG7yLL6jwoyDE7ycWKY9I=", "properties": {"@spider": "usps_collection_boxes", "addr:city": "BIVINS", "addr:country": "US", "addr:full": "103 MORSE RD", "addr:postcode": "75555", "addr:state": "TX", "amenity": "post_box", "brand": "United States Postal Service", "brand:wikidata": "Q668687", "collection_times": "Mo-Sa 16:00", "name": "USPS COLLECTION BOX - BLUE BOX", "note": "ON 12/24 AND 12/31, THIS BOX MAY BE COLLECTED AS EARLY AS 12 NOON.", "nsi_id": "unitedstatespostalservice-a77078", "operator": "United States Postal Service", "operator:short": "USPS", "operator:type": "public", "operator:wikidata": "Q668687", "ref": "7555500000"}, "type": "Feature"}
{"geometry": {"coordinates": [-94.086122, 32.945784], "type": "Point"}, "id": "lO2LK1yLCbLZNhtG3fsmnu1-cFI=", "properties": {"@spider": "usps_collection_boxes", "addr:city": "BIVINS", "addr:country": "US", "addr:full": "103 MORSE RD", "addr:postcode": "75555", "addr:state": "TX", "amenity": "post_box", "brand": "United States Postal Service", "brand:wikidata": "Q668687", "collection_times": "Mo-Fr 11:00; Sa 09:30", "name": "USPS COLLECTION BOX - PO LOBBY", "nsi_id": "unitedstatespostalservice-a77078", "operator": "United States Postal Service", "operator:short": "USPS", "operator:type": "public", "operator:wikidata": "Q668687", "ref": "7555500001"}, "type": "Feature"}
{"geometry": {"coordinates": [-94.198742547, 33.019874433], "type": "Point"}, "id": "yxRRRMSXdkYKcvJcxRx-zt03NZc=", "properties": {"@spider": "usps_collection_boxes", "addr:city": "BIVINS", "addr:country": "US", "addr:full": "103 MORSE RD", "addr:postcode": "75555", "addr:state": "TX", "amenity": "post_box", "brand": "United States Postal Service", "brand:wikidata": "Q668687", "collection_times": "Mo-Fr 13:45", "name": "USPS COLLECTION BOX - PO LOBBY", "note": "ON 12/24 AND 12/31, THIS BOX MAY BE COLLECTED AS EARLY AS 12 NOON.", "nsi_id": "unitedstatespostalservice-a77078", "operator": "United States Postal Service", "operator:short": "USPS", "operator:type": "public", "operator:wikidata": "Q668687", "ref": "7555500004"}, "type": "Feature"}
{"geometry": {"coordinates": [-94.0601091712, 33.1342193078], "type": "Point"}, "id": "8CZdXCgsFPHmR6Ujdf-iTrpfBUo=", "properties": {"@spider": "usps_collection_boxes", "addr:city": "BLOOMBURG", "addr:country": "US", "addr:full": "411 S ARKANSAS AVE", "addr:postcode": "75556", "addr:state": "TX", "amenity": "post_box", "brand": "United States Postal Service", "brand:wikidata": "Q668687", "collection_times": "Mo-Sa 16:00", "name": "USPS COLLECTION BOX - BLUE BOX", "note": "ON 12/24 AND 12/31, THIS BOX MAY BE COLLECTED AS EARLY AS 12 NOON.", "nsi_id": "unitedstatespostalservice-a77078", "operator": "United States Postal Service", "operator:short": "USPS", "operator:type": "public", "operator:wikidata": "Q668687", "ref": "7555600000"}, "type": "Feature"}
{"geometry": {"coordinates": [-94.060098, 33.134644], "type": "Point"}, "id": "y-bK4w7vzxJfHKnLRy6OHHCc9D4=", "properties": {"@spider": "usps_collection_boxes", "addr:city": "BLOOMBURG", "addr:country": "US", "addr:full": "411 S ARKANSAS AVE", "addr:postcode": "75556", "addr:state": "TX", "amenity": "post_box", "brand": "United States Postal Service", "brand:wikidata": "Q668687", "collection_times": "Mo-Fr 14:00; Sa 08:00", "name": "USPS COLLECTION BOX - PO LOBBY", "note": "ON 12/24 AND 12/31, THIS BOX MAY BE COLLECTED AS EARLY AS 12 NOON.", "nsi_id": "unitedstatespostalservice-a77078", "operator": "United States Postal Service", "operator:short": "USPS", "operator:type": "public", "operator:wikidata": "Q668687", "ref": "7555600001"}, "type": "Feature"}
{"geometry": {"coordinates": [-94.060098, 33.134644], "type": "Point"}, "id": "yqEcrjGwFf5DLMGkol9yYeo8El4=", "properties": {"@spider": "usps_collection_boxes", "addr:city": "BLOOMBURG", "addr:country": "US", "addr:full": "411 S ARKANSAS AVE", "addr:postcode": "75556", "addr:state": "TX", "amenity": "post_box", "brand": "United States Postal Service", "brand:wikidata": "Q668687", "collection_times": "Mo-Fr 14:00; Sa 08:00", "name": "USPS COLLECTION BOX - PO LOBBY", "note": "ON 12/24 AND 12/31, THIS BOX MAY BE COLLECTED AS EARLY AS 12 NOON.", "nsi_id": "unitedstatespostalservice-a77078", "operator": "United States Postal Service", "operator:short": "USPS", "operator:type": "public", "operator:wikidata": "Q668687", "ref": "7555600002"}, "type": "Feature"}
{"geometry": {"coordinates": [-94.060109171, 33.134219308], "type": "Point"}, "id": "iajsdQOrK2gD9UjZO82w-5luwLM=", "properties": {"@spider": "usps_collection_boxes", "addr:city": "BLOOMBURG", "addr:country": "US", "addr:full": "411 S ARKANSAS AVE", "addr:postcode": "75556", "addr:state": "TX", "amenity": "post_box", "brand": "United States Postal Service", "brand:wikidata": "Q668687", "collection_times": "Mo-Fr 14:30", "name": "USPS COLLECTION BOX - PO LOBBY", "note": "ON 12/24 AND 12/31, THIS BOX MAY BE COLLECTED AS EARLY AS 12 NOON.", "nsi_id": "unitedstatespostalservice-a77078", "operator": "United States Postal Service", "operator:short": "USPS", "operator:type": "public", "operator:wikidata": "Q668687", "ref": "7555600004"}, "type": "Feature"}
{"geometry": {"coordinates": [-94.854429, 33.186418], "type": "Point"}, "id": "xGQ6Nr41iwqJoyUFou060Q99D2s=", "properties": {"@spider": "usps_collection_boxes", "addr:city": "COOKVILLE", "addr:country": "US", "addr:full": "6648 US HIGHWAY 67 E", "addr:postcode": "75558", "addr:state": "TX", "amenity": "post_box", "brand": "United States Postal Service", "brand:wikidata": "Q668687", "collection_times": "Mo-Fr 13:30; Sa 09:00", "name": "USPS COLLECTION BOX - BLUE BOX", "note": "ON 12/24 AND 12/31, THIS BOX MAY BE COLLECTED AS EARLY AS 12 NOON.", "nsi_id": "unitedstatespostalservice-a77078", "operator": "United States Postal Service", "operator:short": "USPS", "operator:type": "public", "operator:wikidata": "Q668687", "ref": "7555800000"}, "type": "Feature"}
{"geometry": {"coordinates": [-94.854429, 33.186418], "type": "Point"}, "id": "ZPfDZdiZnowb5XGlIsA0Z863ppw=", "properties": {"@spider": "usps_collection_boxes", "addr:city": "COOKVILLE", "addr:country": "US", "addr:full": "6648 US HIGHWAY 67 E", "addr:postcode": "75558", "addr:state": "TX", "amenity": "post_box", "brand": "United States Postal Service", "brand:wikidata": "Q668687", "collection_times": "Mo-Fr 10:30; Sa 09:00", "name": "USPS COLLECTION BOX - PO LOBBY", "nsi_id": "unitedstatespostalservice-a77078", "operator": "United States Postal Service", "operator:short": "USPS", "operator:type": "public", "operator:wikidata": "Q668687", "ref": "7555800001"}, "type": "Feature"}
{"geometry": {"coordinates": [-94.854091165, 33.18641754], "type": "Point"}, "id": "eyQpu1Etsv34kv46cnjYYCpKPjo=", "properties": {"@spider": "usps_collection_boxes", "addr:city": "COOKVILLE", "addr:country": "US", "addr:full": "6648 US HIGHWAY 67 E", "addr:postcode": "75558", "addr:state": "TX", "amenity": "post_box", "brand": "United States Postal Service", "brand:wikidata": "Q668687", "collection_times": "Mo-Fr 13:30", "name": "USPS COLLECTION BOX - PO LOBBY", "note": "ON 12/24 AND 12/31, THIS BOX MAY BE COLLECTED AS EARLY AS 12 NOON.", "nsi_id": "unitedstatespostalservice-a77078", "operator": "United States Postal Service", "operator:short": "USPS", "operator:type": "public", "operator:wikidata": "Q668687", "ref": "7555800003"}, "type": "Feature"}
{"geometry": {"coordinates": [-94.61908, 33.509842], "type": "Point"}, "id": "8UhzdYbxK3i6r-C-YhSU1mSiWjM=", "properties": {"@spider": "usps_collection_boxes", "addr:city": "DEKALB", "addr:country": "US", "addr:full": "312 W FRONT ST", "addr:postcode": "75559", "addr:state": "TX", "amenity": "post_box", "brand": "United States Postal Service", "brand:wikidata": "Q668687", "collection_times": "Mo-Sa 15:00", "name": "USPS COLLECTION BOX - BLUE BOX", "note": "ON 12/24 AND 12/31, THIS BOX MAY BE COLLECTED AS EARLY AS 12 NOON.", "nsi_id": "unitedstatespostalservice-a77078", "operator": "United States Postal Service", "operator:short": "USPS", "operator:type": "public", "operator:wikidata": "Q668687", "ref": "7555906353"}, "type": "Feature"}
{"geometry": {"coordinates": [-94.61908, 33.509842], "type": "Point"}, "id": "OjQpBm78NTHz4OJBVRhm0CsDMuY=", "properties": {"@spider": "usps_collection_boxes", "addr:city": "DEKALB", "addr:country": "US", "addr:full": "312 W FRONT ST", "addr:postcode": "75559", "addr:state": "TX", "amenity": "post_box", "brand": "United States Postal Service", "brand:wikidata": "Q668687", "collection_times": "Mo-Sa 15:00", "name": "USPS COLLECTION BOX - PO LOBBY", "note": "ON 12/24 AND 12/31, THIS BOX MAY BE COLLECTED AS EARLY AS 12 NOON.", "nsi_id": "unitedstatespostalservice-a77078", "operator": "United States Postal Service", "operator:short": "USPS", "operator:type": "public", "operator:wikidata": "Q668687", "ref": "7555906355"}, "type": "Feature"}
{"geometry": {"coordinates": [-94.61908224, 33.509839954], "type": "Point"}, "id": "PzgC1Yr0AkxE7zxfiqTV5AFxFNQ=", "properties": {"@spider": "usps_collection_boxes", "addr:city": "DEKALB", "addr:country": "US", "addr:full": "312 W FRONT ST", "addr:postcode": "75559", "addr:state": "TX", "amenity": "post_box", "brand": "United States Postal Service", "brand:wikidata": "Q668687", "collection_times": "Mo-Fr 16:00", "name": "USPS COLLECTION BOX - PO LOBBY", "note": "ON 12/24 AND 12/31, THIS BOX MAY BE COLLECTED AS EARLY AS 12 NOON.", "nsi_id": "unitedstatespostalservice-a77078", "operator": "United States Postal Service", "operator:short": "USPS", "operator:type": "public", "operator:wikidata": "Q668687", "ref": "7555906356"}, "type": "Feature"}
{"geometry": {"coordinates": [-94.354146, 33.192072], "type": "Point"}, "id": "Bd2Q6YGv_OXsob-SL0LGW6ijB9c=", "properties": {"@spider": "usps_collection_boxes", "addr:city": "DOUGLASSVILLE", "addr:country": "US", "addr:full": "105 W HIGHWAY 77", "addr:postcode": "75560", "addr:state": "TX", "amenity": "post_box", "brand": "United States Postal Service", "brand:wikidata": "Q668687", "collection_times": "Mo-Fr 10:30; Sa 09:00", "name": "USPS COLLECTION BOX - PO LOBBY", "nsi_id": "unitedstatespostalservice-a77078", "operator": "United States Postal Service", "operator:short": "USPS", "operator:type": "public", "operator:wikidata": "Q668687", "ref": "7556000001"}, "type": "Feature"}
{"geometry": {"coordinates": [-94.354049495, 33.1920322437], "type": "Point"}, "id": "I-469NIK7BX9uEbB500BfY61eVU=", "properties": {"@spider": "usps_collection_boxes", "addr:city": "DOUGLASSVILLE", "addr:country": "US", "addr:full": "105 W HIGHWAY 77", "addr:postcode": "75560", "addr:state": "TX", "amenity": "post_box", "brand": "United States Postal Service", "brand:wikidata": "Q668687", "collection_times": "Mo-Sa 15:30", "name": "USPS COLLECTION BOX - BLUE BOX", "note": "ON 12/24 AND 12/31, THIS BOX MAY BE COLLECTED AS EARLY AS 12 NOON.", "nsi_id": "unitedstatespostalservice-a77078", "operator": "United States Postal Service", "operator:short": "USPS", "operator:type": "public", "operator:wikidata": "Q668687", "ref": "7556000002"}, "type": "Feature"}
{"geometry": {"coordinates": [-94.354048742, 33.192012247], "type": "Point"}, "id": "Kq1KizGibE2C7hT8l2L9MTabK_U=", "properties": {"@spider": "usps_collection_boxes", "addr:city": "DOUGLASSVILLE", "addr:country": "US", "addr:full": "105 W HIGHWAY 77", "addr:postcode": "75560", "addr:state": "TX", "amenity": "post_box", "brand": "United States Postal Service", "brand:wikidata": "Q668687", "collection_times": "Mo-Fr 11:00", "name": "USPS COLLECTION BOX - PO LOBBY", "nsi_id": "unitedstatespostalservice-a77078", "operator": "United States Postal Service", "operator:short": "USPS", "operator:type": "public", "operator:wikidata": "Q668687", "ref": "7556000004"}, "type": "Feature"}
{"geometry": {"coordinates": [-94.288859, 33.466298], "type": "Point"}, "id": "dq9KUcNYE-PT6ZfQ0d-_vaSSI2I=", "properties": {"@spider": "usps_collection_boxes", "addr:city": "HOOKS", "addr:country": "US", "addr:full": "15 E AVENUE A", "addr:postcode": "75561", "addr:state": "TX", "amenity": "post_box", "brand": "United States Postal Service", "brand:wikidata": "Q668687", "collection_times": "Mo-Fr 15:30; Sa 08:00", "name": "USPS COLLECTION BOX - BLUE BOX", "note": "ON 12/24 AND 12/31, THIS BOX MAY BE COLLECTED AS EARLY AS 12 NOON.", "nsi_id": "unitedstatespostalservice-a77078", "operator": "United States Postal Service", "operator:short": "USPS", "operator:type": "public", "operator:wikidata": "Q668687", "ref": "7556100001"}, "type": "Feature"}
{"geometry": {"coordinates": [-94.288859, 33.466298], "type": "Point"}, "id": "Bn94cuo7O5nAlSpPcIYNDQM9AK4=", "properties": {"@spider": "usps_collection_boxes", "addr:city": "HOOKS", "addr:country": "US", "addr:full": "15 E AVENUE A", "addr:postcode": "75561", "addr:state": "TX", "amenity": "post_box", "brand": "United States Postal Service", "brand:wikidata": "Q668687", "collection_times": "Mo-Fr 16:00", "name": "USPS COLLECTION BOX - PO LOBBY", "note": "ON 12/24 AND 12/31, THIS BOX MAY BE COLLECTED AS EARLY AS 12 NOON.", "nsi_id": "unitedstatespostalservice-a77078", "operator": "United States Postal Service", "operator:short": "USPS", "operator:type": "public", "operator:wikidata": "Q668687", "ref": "7556100004"}, "type": "Feature"}
{"geometry": {"coordinates": [-94.288313362, 33.46632445], "type": "Point"}, "id": "Ou0EX_2gaHln6A_i5JmJVdAPup0=", "properties": {"@spider": "usps_collection_boxes", "addr:city": "HOOKS", "addr:country": "US", "addr:full": "15 E AVENUE A", "addr:postcode": "75561", "addr:state": "TX", "amenity": "post_box", "brand": "United States Postal Service", "brand:wikidata": "Q668687", "collection_times": "Mo-Fr 16:00", "name": "USPS COLLECTION BOX - PO LOBBY", "note": "ON 12/24 AND 12/31, THIS BOX MAY BE COLLECTED AS EARLY AS 12 NOON.", "nsi_id": "unitedstatespostalservice-a77078", "operator": "United States Postal Service", "operator:short": "USPS", "operator:type": "public", "operator:wikidata": "Q668687", "ref": "7556100005"}, "type": "Feature"}
{"geometry": {"coordinates": [-94.2491799, 32.944063], "type": "Point"}, "id": "MQDgzqAtJIzUFvlnqkl8-5Wu-qo=", "properties": {"@spider": "usps_collection_boxes", "addr:city": "KILDARE", "addr:country": "US", "addr:full": "1315 COUNTY ROAD 1894", "addr:postcode": "75562", "addr:state": "TX", "amenity": "post_box", "brand": "United States Postal Service", "brand:wikidata": "Q668687", "collection_times": "Mo-Fr 15:00; Sa 14:45", "name": "USPS COLLECTION BOX - BLUE BOX", "note": "ON 12/24 AND 12/31, THIS BOX MAY BE COLLECTED AS EARLY AS 12 NOON.", "nsi_id": "unitedstatespostalservice-a77078", "operator": "United States Postal Service", "operator:short": "USPS", "operator:type": "public", "operator:wikidata": "Q668687", "ref": "7556200000"}, "type": "Feature"}
{"geometry": {"coordinates": [-94.2496271865, 32.9439345591], "type": "Point"}, "id": "_GqK9wcVTRZsCDoILoFu_JuqfPA=", "properties": {"@spider": "usps_collection_boxes", "addr:city": "KILDARE", "addr:country": "US", "addr:full": "1315 COUNTY ROAD 1894", "addr:postcode": "75562", "addr:state": "TX", "amenity": "post_box", "brand": "United States Postal Service", "brand:wikidata": "Q668687", "collection_times": "Mo-Fr 11:30; Sa 09:00", "name": "USPS COLLECTION BOX - PO LOBBY", "nsi_id": "unitedstatespostalservice-a77078", "operator": "United States Postal Service", "operator:short": "USPS", "operator:type": "public", "operator:wikidata": "Q668687", "ref": "7556200001"}, "type": "Feature"}
{"geometry": {"coordinates": [-94.249367416, 32.944306279], "type": "Point"}, "id": "dfyl7grQ_fT_u93hAo8YJa3y-HM=", "properties": {"@spider": "usps_collection_boxes", "addr:city": "KILDARE", "addr:country": "US", "addr:full": "1315 COUNTY ROAD 1894", "addr:postcode": "75562", "addr:state": "TX", "amenity": "post_box", "brand": "United States Postal Service", "brand:wikidata": "Q668687", "collection_times": "Mo-Fr 12:00", "name": "USPS COLLECTION BOX - PO LOBBY", "nsi_id": "unitedstatespostalservice-a77078", "operator": "United States Postal Service", "operator:short": "USPS", "operator:type": "public", "operator:wikidata": "Q668687", "ref": "7556200002"}, "type": "Feature"}
{"geometry": {"coordinates": [-94.3646, 33.010872], "type": "Point"}, "id": "hTHBi7S66pxQuSgwAyFtpTKZul0=", "properties": {"@spider": "usps_collection_boxes", "addr:city": "LINDEN", "addr:country": "US", "addr:full": "200 E RUSH ST", "addr:postcode": "75563", "addr:state": "TX", "amenity": "post_box", "brand": "United States Postal Service", "brand:wikidata": "Q668687", "collection_times": "Mo-Fr 16:00; Sa 09:30", "name": "USPS COLLECTION BOX - BLUE BOX", "note": "ON 12/24 AND 12/31, THIS BOX MAY BE COLLECTED AS EARLY AS 12 NOON.", "nsi_id": "unitedstatespostalservice-a77078", "operator": "United States Postal Service", "operator:short": "USPS", "operator:type": "public", "operator:wikidata": "Q668687", "ref": "7556306526"}, "type": "Feature"}
{"geometry": {"coordinates": [-94.3645046674, 33.0108288493], "type": "Point"}, "id": "_xa8SbWWEg4IQ0aUIAt69zW7iow=", "properties": {"@spider": "usps_collection_boxes", "addr:city": "LINDEN", "addr:country": "US", "addr:full": "200 E RUSH ST", "addr:postcode": "75563", "addr:state": "TX", "amenity": "post_box", "brand": "United States Postal Service", "brand:wikidata": "Q668687", "collection_times": "Mo-Fr 16:00; Sa 09:30", "name": "USPS COLLECTION BOX - BLUE BOX", "note": "ON 12/24 AND 12/31, THIS BOX MAY BE COLLECTED AS EARLY AS 12 NOON.", "nsi_id": "unitedstatespostalservice-a77078", "operator": "United States Postal Service", "operator:short": "USPS", "operator:type": "public", "operator:wikidata": "Q668687", "ref": "7556306887"}, "type": "Feature"}
{"geometry": {"coordinates": [-94.3761699, 33.013145], "type": "Point"}, "id": "Dnd0T4IxqBimvcgjLJ0R4wXQC28=", "properties": {"@spider": "usps_collection_boxes", "addr:city": "LINDEN", "addr:country": "US", "addr:full": "213 TEXAS HIGHWAY 8 N", "addr:postcode": "75563", "addr:state": "TX", "amenity": "post_box", "brand": "United States Postal Service", "brand:wikidata": "Q668687", "collection_times": "Mo-Sa 09:30", "name": "USPS COLLECTION BOX - BLUE BOX", "nsi_id": "unitedstatespostalservice-a77078", "operator": "United States Postal Service", "operator:short": "USPS", "operator:type": "public", "operator:wikidata": "Q668687", "ref": "7556306888"}, "type": "Feature"}
{"geometry": {"coordinates": [-94.3646, 33.010872], "type": "Point"}, "id": "f6d-HXeEGOB7DQN1q3CrSg8T1So=", "properties": {"@spider": "usps_collection_boxes", "addr:city": "LINDEN", "addr:country": "US", "addr:full": "200 E RUSH ST", "addr:postcode": "75563", "addr:state": "TX", "amenity": "post_box", "brand": "United States Postal Service", "brand:wikidata": "Q668687", "collection_times": "Mo-Fr 16:00; Sa 09:30", "name": "USPS COLLECTION BOX - PO LOBBY", "note": "ON 12/24 AND 12/31, THIS BOX MAY BE COLLECTED AS EARLY AS 12 NOON.", "nsi_id": "unitedstatespostalservice-a77078", "operator": "United States Postal Service", "operator:short": "USPS", "operator:type": "public", "operator:wikidata": "Q668687", "ref": "7556306890"}, "type": "Feature"}
{"geometry": {"coordinates": [-94.364502563, 33.010822221], "type": "Point"}, "id": "JUv3hl4BF70rFMUyCNcx_gD67UM=", "properties": {"@spider": "usps_collection_boxes", "addr:city": "LINDEN", "addr:country": "US", "addr:full": "200 E RUSH ST", "addr:postcode": "75563", "addr:state": "TX", "amenity": "post_box", "brand": "United States Postal Service", "brand:wikidata": "Q668687", "collection_times": "Mo-Fr 16:15", "name": "USPS COLLECTION BOX - PO LOBBY", "note": "ON 12/24 AND 12/31, THIS BOX MAY BE COLLECTED AS EARLY AS 12 NOON.", "nsi_id": "unitedstatespostalservice-a77078", "operator": "United States Postal Service", "operator:short": "USPS", "operator:type": "public", "operator:wikidata": "Q668687", "ref": "7556306891"}, "type": "Feature"}
{"geometry": {"coordinates": [-94.2795104, 32.876645], "type": "Point"}, "id": "4Kr3Gy88Clu5ow1-zAJhMtso-rI=", "properties": {"@spider": "usps_collection_boxes", "addr:city": "LODI", "addr:country": "US", "addr:full": "6819 FM 248 S", "addr:postcode": "75564", "addr:state": "TX", "amenity": "post_box", "brand": "United States Postal Service", "brand:wikidata": "Q668687", "collection_times": "Mo-Sa 15:00", "name": "USPS COLLECTION BOX - BLUE BOX", "note": "ON 12/24 AND 12/31, THIS BOX MAY BE COLLECTED AS EARLY AS 12 NOON.", "nsi_id": "unitedstatespostalservice-a77078", "operator": "United States Postal Service", "operator:short": "USPS", "operator:type": "public", "operator:wikidata": "Q668687", "ref": "7556400000"}, "type": "Feature"}
{"geometry": {"coordinates": [-94.278894, 32.876937], "type": "Point"}, "id": "VCpjevGh1pl4Og48wVWRJ7Y2ffQ=", "properties": {"@spider": "usps_collection_boxes", "addr:city": "LODI", "addr:country": "US", "addr:full": "6819 FM 248 S", "addr:postcode": "75564", "addr:state": "TX", "amenity": "post_box", "brand": "United States Postal Service", "brand:wikidata": "Q668687", "collection_times": "Mo-Sa 09:30", "name": "USPS COLLECTION BOX - PO LOBBY", "nsi_id": "unitedstatespostalservice-a77078", "operator": "United States Postal Service", "operator:short": "USPS", "operator:type": "public", "operator:wikidata": "Q668687", "ref": "7556400001"}, "type": "Feature"}
{"geometry": {"coordinates": [-94.278789102, 32.877208078], "type": "Point"}, "id": "ukeSSOgq-1IZQ-Q65NH_niUBk-0=", "properties": {"@spider": "usps_collection_boxes", "addr:city": "LODI", "addr:country": "US", "addr:full": "6819 FM 248 S", "addr:postcode": "75564", "addr:state": "TX", "amenity": "post_box", "brand": "United States Postal Service", "brand:wikidata": "Q668687", "collection_times": "Mo-Fr 12:00", "name": "USPS COLLECTION BOX - PO LOBBY", "nsi_id": "unitedstatespostalservice-a77078", "operator": "United States Postal Service", "operator:short": "USPS", "operator:type": "public", "operator:wikidata": "Q668687", "ref": "7556400003"}, "type": "Feature"}
{"geometry": {"coordinates": [-94.0804804, 32.944745], "type": "Point"}, "id": "N0eP5ueUf0vT8YtYttuANIMNnWY=", "properties": {"@spider": "usps_collection_boxes", "addr:city": "MCLEOD", "addr:country": "US", "addr:full": "19641 FM 125 S", "addr:postcode": "75565", "addr:state": "TX", "amenity": "post_box", "brand": "United States Postal Service", "brand:wikidata": "Q668687", "collection_times": "Mo-Sa 15:30", "name": "USPS COLLECTION BOX - BLUE BOX", "note": "ON 12/24 AND 12/31, THIS BOX MAY BE COLLECTED AS EARLY AS 12 NOON.", "nsi_id": "unitedstatespostalservice-a77078", "operator": "United States Postal Service", "operator:short": "USPS", "operator:type": "public", "operator:wikidata": "Q668687", "ref": "7556500000"}, "type": "Feature"}
{"geometry": {"coordinates": [-94.08018, 32.944584], "type": "Point"}, "id": "fMIHOan64aI5TX0TUrRjHgimJWQ=", "properties": {"@spider": "usps_collection_boxes", "addr:city": "MCLEOD", "addr:country": "US", "addr:full": "19641 FM 125 S", "addr:postcode": "75565", "addr:state": "TX", "amenity": "post_box", "brand": "United States Postal Service", "brand:wikidata": "Q668687", "collection_times": "Mo-Fr 11:30; Sa 09:30", "name": "USPS COLLECTION BOX - PO LOBBY", "nsi_id": "unitedstatespostalservice-a77078", "operator": "United States Postal Service", "operator:short": "USPS", "operator:type": "public", "operator:wikidata": "Q668687", "ref": "7556500002"}, "type": "Feature"}
{"geometry": {"coordinates": [-94.079512554, 32.944733946], "type": "Point"}, "id": "zo0gKQpXuZwgWFIv7UPeenvvny8=", "properties": {"@spider": "usps_collection_boxes", "addr:city": "MCLEOD", "addr:country": "US", "addr:full": "19641 FM 125 S", "addr:postcode": "75565", "addr:state": "TX", "amenity": "post_box", "brand": "United States Postal Service", "brand:wikidata": "Q668687", "collection_times": "Mo-Fr 12:00", "name": "USPS COLLECTION BOX - PO LOBBY", "nsi_id": "unitedstatespostalservice-a77078", "operator": "United States Postal Service", "operator:short": "USPS", "operator:type": "public", "operator:wikidata": "Q668687", "ref": "7556500004"}, "type": "Feature"}
{"geometry": {"coordinates": [-94.542501, 33.173521], "type": "Point"}, "id": "jE08hhm2W-0_3yh76_8226sszFs=", "properties": {"@spider": "usps_collection_boxes", "addr:city": "MARIETTA", "addr:country": "US", "addr:full": "104 S CENTRAL AVE", "addr:postcode": "75566", "addr:state": "TX", "amenity": "post_box", "brand": "United States Postal Service", "brand:wikidata": "Q668687", "collection_times": "Mo-Sa 16:00", "name": "USPS COLLECTION BOX - BLUE BOX", "note": "ON 12/24 AND 12/31, THIS BOX MAY BE COLLECTED AS EARLY AS 12 NOON.", "nsi_id": "unitedstatespostalservice-a77078", "operator": "United States Postal Service", "operator:short": "USPS", "operator:type": "public", "operator:wikidata": "Q668687", "ref": "7556600000"}, "type": "Feature"}
{"geometry": {"coordinates": [-94.542501, 33.173521], "type": "Point"}, "id": "1ZM-SyYdFs4ReHnSdZycvAVxyaE=", "properties": {"@spider": "usps_collection_boxes", "addr:city": "MARIETTA", "addr:country": "US", "addr:full": "104 S CENTRAL AVE", "addr:postcode": "75566", "addr:state": "TX", "amenity": "post_box", "brand": "United States Postal Service", "brand:wikidata": "Q668687", "collection_times": "Mo-Fr 10:30; Sa 08:30", "name": "USPS COLLECTION BOX - PO LOBBY", "nsi_id": "unitedstatespostalservice-a77078", "operator": "United States Postal Service", "operator:short": "USPS", "operator:type": "public", "operator:wikidata": "Q668687", "ref": "7556600001"}, "type": "Feature"}
{"geometry": {"coordinates": [-94.542478463, 33.17354133], "type": "Point"}, "id": "qTiLFxowMtEV_x0c2QTHCgYoPBA=", "properties": {"@spider": "usps_collection_boxes", "addr:city": "MARIETTA", "addr:country": "US", "addr:full": "104 S CENTRAL AVE", "addr:postcode": "75566", "addr:state": "TX", "amenity": "post_box", "brand": "United States Postal Service", "brand:wikidata": "Q668687", "collection_times": "Mo-Fr 11:00", "name": "USPS COLLECTION BOX - PO LOBBY", "nsi_id": "unitedstatespostalservice-a77078", "operator": "United States Postal Service", "operator:short": "USPS", "operator:type": "public", "operator:wikidata": "Q668687", "ref": "7556600003"}, "type": "Feature"}
{"geometry": {"coordinates": [-94.346046, 33.327229], "type": "Point"}, "id": "6wxyHX7zJFk66gsU8GNC-8d2CZo=", "properties": {"@spider": "usps_collection_boxes", "addr:city": "MAUD", "addr:country": "US", "addr:full": "366 HOUSTON ST", "addr:postcode": "75567", "addr:state": "TX", "amenity": "post_box", "brand": "United States Postal Service", "brand:wikidata": "Q668687", "collection_times": "Mo-Fr 16:00; Sa 08:00", "name": "USPS COLLECTION BOX - BLUE BOX", "note": "ON 12/24 AND 12/31, THIS BOX MAY BE COLLECTED AS EARLY AS 12 NOON.", "nsi_id": "unitedstatespostalservice-a77078", "operator": "United States Postal Service", "operator:short": "USPS", "operator:type": "public", "operator:wikidata": "Q668687", "ref": "7556700002"}, "type": "Feature"}
{"geometry": {"coordinates": [-94.346046, 33.327229], "type": "Point"}, "id": "1cqjZxojwcKr5HiafvYhToSBdjk=", "properties": {"@spider": "usps_collection_boxes", "addr:city": "MAUD", "addr:country": "US", "addr:full": "366 HOUSTON ST", "addr:postcode": "75567", "addr:state": "TX", "amenity": "post_box", "brand": "United States Postal Service", "brand:wikidata": "Q668687", "collection_times": "Mo-Fr 16:00; Sa 08:00", "name": "USPS COLLECTION BOX - PO LOBBY", "note": "ON 12/24 AND 12/31, THIS BOX MAY BE COLLECTED AS EARLY AS 12 NOON.", "nsi_id": "unitedstatespostalservice-a77078", "operator": "United States Postal Service", "operator:short": "USPS", "operator:type": "public", "operator:wikidata": "Q668687", "ref": "7556700003"}, "type": "Feature"}
{"geometry": {"coordinates": [-94.345931812, 33.327470296], "type": "Point"}, "id": "I-7Wq7aaS4ycW4TyRlBzCPcSAtk=", "properties": {"@spider": "usps_collection_boxes", "addr:city": "MAUD", "addr:country": "US", "addr:full": "366 HOUSTON ST", "addr:postcode": "75567", "addr:state": "TX", "amenity": "post_box", "brand": "United States Postal Service", "brand:wikidata": "Q668687", "collection_times": "Mo-Fr 16:00", "name": "USPS COLLECTION BOX - PO LOBBY", "note": "ON 12/24 AND 12/31, THIS BOX MAY BE COLLECTED AS EARLY AS 12 NOON.", "nsi_id": "unitedstatespostalservice-a77078", "operator": "United States Postal Service", "operator:short": "USPS", "operator:type": "public", "operator:wikidata": "Q668687", "ref": "7556700004"}, "type": "Feature"}
{"geometry": {"coordinates": [-94.68248, 33.202523], "type": "Point"}, "id": "H1Kj6_kAB-9Y0FwPybbkqUmBMeQ=", "properties": {"@spider": "usps_collection_boxes", "addr:city": "NAPLES", "addr:country": "US", "addr:full": "203 MAIN ST", "addr:postcode": "75568", "addr:state": "TX", "amenity": "post_box", "brand": "United States Postal Service", "brand:wikidata": "Q668687", "collection_times": "Mo-Fr 16:00; Sa 09:00", "name": "USPS COLLECTION BOX - BLUE BOX", "note": "ON 12/24 AND 12/31, THIS BOX MAY BE COLLECTED AS EARLY AS 12 NOON.", "nsi_id": "unitedstatespostalservice-a77078", "operator": "United States Postal Service", "operator:short": "USPS", "operator:type": "public", "operator:wikidata": "Q668687", "ref": "7556800000"}, "type": "Feature"}
{"geometry": {"coordinates": [-94.68248, 33.202523], "type": "Point"}, "id": "97o-6iHZNerO4uAUodE6yFFEd0c=", "properties": {"@spider": "usps_collection_boxes", "addr:city": "NAPLES", "addr:country": "US", "addr:full": "203 MAIN ST", "addr:postcode": "75568", "addr:state": "TX", "amenity": "post_box", "brand": "United States Postal Service", "brand:wikidata": "Q668687", "collection_times": "Mo-Fr 16:00; Sa 09:00", "name": "USPS COLLECTION BOX - PO LOBBY", "note": "ON 12/24 AND 12/31, THIS BOX MAY BE COLLECTED AS EARLY AS 12 NOON.", "nsi_id": "unitedstatespostalservice-a77078", "operator": "United States Postal Service", "operator:short": "USPS", "operator:type": "public", "operator:wikidata": "Q668687", "ref": "7556800003"}, "type": "Feature"}
{"geometry": {"coordinates": [-94.681927371, 33.20280497], "type": "Point"}, "id": "nEPiL5PSLJHayHG9rLLDCp-QHVE=", "properties": {"@spider": "usps_collection_boxes", "addr:city": "NAPLES", "addr:country": "US", "addr:full": "203 MAIN ST", "addr:postcode": "75568", "addr:state": "TX", "amenity": "post_box", "brand": "United States Postal Service", "brand:wikidata": "Q668687", "collection_times": "Mo-Fr 16:00", "name": "USPS COLLECTION BOX - PO LOBBY", "note": "ON 12/24 AND 12/31, THIS BOX MAY BE COLLECTED AS EARLY AS 12 NOON.", "nsi_id": "unitedstatespostalservice-a77078", "operator": "United States Postal Service", "operator:short": "USPS", "operator:type": "public", "operator:wikidata": "Q668687", "ref": "7556800004"}, "type": "Feature"}
{"geometry": {"coordinates": [-94.13074, 33.442483], "type": "Point"}, "id": "DNcUPxszbgAVtEEzR8BMfz2NJrc=", "properties": {"@spider": "usps_collection_boxes", "addr:city": "NASH", "addr:country": "US", "addr:full": "1910 N KINGS HWY", "addr:postcode": "75569", "addr:state": "TX", "amenity": "post_box", "brand": "United States Postal Service", "brand:wikidata": "Q668687", "collection_times": "Mo-Fr 16:00; Sa 11:00", "name": "USPS COLLECTION BOX - BLUE BOX", "note": "ON 12/24 AND 12/31, THIS BOX MAY BE COLLECTED AS EARLY AS 12 NOON.", "nsi_id": "unitedstatespostalservice-a77078", "operator": "United States Postal Service", "operator:short": "USPS", "operator:type": "public", "operator:wikidata": "Q668687", "ref": "7556900000"}, "type": "Feature"}
{"geometry": {"coordinates": [-94.13074, 33.442483], "type": "Point"}, "id": "PjuFVj61ln1yhHpsokO7S8lyaLY=", "properties": {"@spider": "usps_collection_boxes", "addr:city": "NASH", "addr:country": "US", "addr:full": "1910 N KINGS HWY", "addr:postcode": "75569", "addr:state": "TX", "amenity": "post_box", "brand": "United States Postal Service", "brand:wikidata": "Q668687", "collection_times": "Mo-Fr 16:00; Sa 11:00", "name": "USPS COLLECTION BOX - BLUE BOX", "note": "ON 12/24 AND 12/31, THIS BOX MAY BE COLLECTED AS EARLY AS 12 NOON.", "nsi_id": "unitedstatespostalservice-a77078", "operator": "United States Postal Service", "operator:short": "USPS", "operator:type": "public", "operator:wikidata": "Q668687", "ref": "7556900001"}, "type": "Feature"}
{"geometry": {"coordinates": [-94.13074, 33.442483], "type": "Point"}, "id": "sSm3jsEW5gwghao9YrdgejHiUk0=", "properties": {"@spider": "usps_collection_boxes", "addr:city": "NASH", "addr:country": "US", "addr:full": "1910 N KINGS HWY", "addr:postcode": "75569", "addr:state": "TX", "amenity": "post_box", "brand": "United States Postal Service", "brand:wikidata": "Q668687", "collection_times": "Mo-Fr 16:30; Sa 11:00", "name": "USPS COLLECTION BOX - PO LOBBY", "note": "ON 12/24 AND 12/31, THIS BOX MAY BE COLLECTED AS EARLY AS 12 NOON.", "nsi_id": "unitedstatespostalservice-a77078", "operator": "United States Postal Service", "operator:short": "USPS", "operator:type": "public", "operator:wikidata": "Q668687", "ref": "7556900004"}, "type": "Feature"}
{"geometry": {"coordinates": [-94.130600054, 33.451028528], "type": "Point"}, "id": "mplWovrrcD8H1Q0OnFCiD50UgVw=", "properties": {"@spider": "usps_collection_boxes", "addr:city": "NASH", "addr:country": "US", "addr:full": "1910 N KINGS HWY", "addr:postcode": "75569", "addr:state": "TX", "amenity": "post_box", "brand": "United States Postal Service", "brand:wikidata": "Q668687", "collection_times": "Mo-Fr 16:30", "name": "USPS COLLECTION BOX - PO LOBBY", "note": "ON 12/24 AND 12/31, THIS BOX MAY BE COLLECTED AS EARLY AS 12 NOON.", "nsi_id": "unitedstatespostalservice-a77078", "operator": "United States Postal Service", "operator:short": "USPS", "operator:type": "public", "operator:wikidata": "Q668687", "ref": "7556900005"}, "type": "Feature"}
{"geometry": {"coordinates": [-94.417128, 33.45989], "type": "Point"}, "id": "Qqa5Yv3lS83wc_J98x9ewREnypI=", "properties": {"@spider": "usps_collection_boxes", "addr:city": "NEW BOSTON", "addr:country": "US", "addr:full": "115 N WEST ST", "addr:postcode": "75570", "addr:state": "TX", "amenity": "post_box", "brand": "United States Postal Service", "brand:wikidata": "Q668687", "collection_times": "Mo-Fr 15:45; Sa 15:00", "name": "USPS COLLECTION BOX - BLUE BOX", "note": "ON 12/24 AND 12/31, THIS BOX MAY BE COLLECTED AS EARLY AS 12 NOON.", "nsi_id": "unitedstatespostalservice-a77078", "operator": "United States Postal Service", "operator:short": "USPS", "operator:type": "public", "operator:wikidata": "Q668687", "ref": "7557006346"}, "type": "Feature"}
{"geometry": {"coordinates": [-94.409005861, 33.4714402143], "type": "Point"}, "id": "IpEUytabYtC04y3xPcJI1lfrBmg=", "properties": {"@spider": "usps_collection_boxes", "addr:city": "NEW BOSTON", "addr:country": "US", "addr:full": "707 N MCCOY BLVD", "addr:postcode": "75570", "addr:state": "TX", "amenity": "post_box", "brand": "United States Postal Service", "brand:wikidata": "Q668687", "collection_times": "Mo-Sa 10:00", "name": "USPS COLLECTION BOX - BLUE BOX", "nsi_id": "unitedstatespostalservice-a77078", "operator": "United States Postal Service", "operator:short": "USPS", "operator:type": "public", "operator:wikidata": "Q668687", "ref": "7557006348"}, "type": "Feature"}
{"geometry": {"coordinates": [-94.417128, 33.45989], "type": "Point"}, "id": "vrCMhqRYAhJZYwHETzfpAhZhnGQ=", "properties": {"@spider": "usps_collection_boxes", "addr:city": "NEW BOSTON", "addr:country": "US", "addr:full": "115 N WEST ST", "addr:postcode": "75570", "addr:state": "TX", "amenity": "post_box", "brand": "United States Postal Service", "brand:wikidata": "Q668687", "collection_times": "Mo-Fr 16:15; Sa 15:00", "name": "USPS COLLECTION BOX - PO LOBBY", "note": "ON 12/24 AND 12/31, THIS BOX MAY BE COLLECTED AS EARLY AS 12 NOON.", "nsi_id": "unitedstatespostalservice-a77078", "operator": "United States Postal Service", "operator:short": "USPS", "operator:type": "public", "operator:wikidata": "Q668687", "ref": "7557006351"}, "type": "Feature"}
{"geometry": {"coordinates": [-94.417128, 33.45989], "type": "Point"}, "id": "6NxJ-7L4T2MMJgHhAHPsXY8qhu0=", "properties": {"@spider": "usps_collection_boxes", "addr:city": "NEW BOSTON", "addr:country": "US", "addr:full": "115 N WEST ST", "addr:postcode": "75570", "addr:state": "TX", "amenity": "post_box", "brand": "United States Postal Service", "brand:wikidata": "Q668687", "collection_times": "Mo-Fr 15:45; Sa 15:00", "name": "USPS COLLECTION BOX - BLUE BOX", "note": "ON 12/24 AND 12/31, THIS BOX MAY BE COLLECTED AS EARLY AS 12 NOON.", "nsi_id": "unitedstatespostalservice-a77078", "operator": "United States Postal Service", "operator:short": "USPS", "operator:type": "public", "operator:wikidata": "Q668687", "ref": "7557006352"}, "type": "Feature"}
{"geometry": {"coordinates": [-94.4171754126, 33.4606683564], "type": "Point"}, "id": "c-3klDfhsH6RRPDlu-BYwHWR95E=", "properties": {"@spider": "usps_collection_boxes", "addr:city": "NEW BOSTON", "addr:country": "US", "addr:full": "115 N WEST ST", "addr:postcode": "75570", "addr:state": "TX", "amenity": "post_box", "brand": "United States Postal Service", "brand:wikidata": "Q668687", "collection_times": "Mo-Fr 16:15", "name": "USPS COLLECTION BOX - PO LOBBY", "note": "ON 12/24 AND 12/31, THIS BOX MAY BE COLLECTED AS EARLY AS 12 NOON.", "nsi_id": "unitedstatespostalservice-a77078", "operator": "United States Postal Service", "operator:short": "USPS", "operator:type": "public", "operator:wikidata": "Q668687", "ref": "7557006354"}, "type": "Feature"}
{"geometry": {"coordinates": [-94.743594, 33.180948], "type": "Point"}, "id": "HGENKxN3d9kNnaP9Gpl3g5KqU1g=", "properties": {"@spider": "usps_collection_boxes", "addr:city": "OMAHA", "addr:country": "US", "addr:full": "103 E MAIN ST", "addr:postcode": "75571", "addr:state": "TX", "amenity": "post_box", "brand": "United States Postal Service", "brand:wikidata": "Q668687", "collection_times": "Mo-Fr 16:00; Sa 09:00", "name": "USPS COLLECTION BOX - BLUE BOX", "note": "ON 12/24 AND 12/31, THIS BOX MAY BE COLLECTED AS EARLY AS 12 NOON.", "nsi_id": "unitedstatespostalservice-a77078", "operator": "United States Postal Service", "operator:short": "USPS", "operator:type": "public", "operator:wikidata": "Q668687", "ref": "7557100000"}, "type": "Feature"}
{"geometry": {"coordinates": [-94.743594, 33.180948], "type": "Point"}, "id": "pwROwWYTECNno5TkmJhmnsWpHbU=", "properties": {"@spider": "usps_collection_boxes", "addr:city": "OMAHA", "addr:country": "US", "addr:full": "103 E MAIN ST", "addr:postcode": "75571", "addr:state": "TX", "amenity": "post_box", "brand": "United States Postal Service", "brand:wikidata": "Q668687", "collection_times": "Mo-Fr 16:00; Sa 09:00", "name": "USPS COLLECTION BOX - PO LOBBY", "note": "ON 12/24 AND 12/31, THIS BOX MAY BE COLLECTED AS EARLY AS 12 NOON.", "nsi_id": "unitedstatespostalservice-a77078", "operator": "United States Postal Service", "operator:short": "USPS", "operator:type": "public", "operator:wikidata": "Q668687", "ref": "7557100003"}, "type": "Feature"}
{"geometry": {"coordinates": [-94.743686561, 33.180932355], "type": "Point"}, "id": "DKLYY5o_A8dnSYyalA0QTMgAB0g=", "properties": {"@spider": "usps_collection_boxes", "addr:city": "OMAHA", "addr:country": "US", "addr:full": "103 E MAIN ST", "addr:postcode": "75571", "addr:state": "TX", "amenity": "post_box", "brand": "United States Postal Service", "brand:wikidata": "Q668687", "collection_times": "Mo-Fr 16:00", "name": "USPS COLLECTION BOX - PO LOBBY", "note": "ON 12/24 AND 12/31, THIS BOX MAY BE COLLECTED AS EARLY AS 12 NOON.", "nsi_id": "unitedstatespostalservice-a77078", "operator": "United States Postal Service", "operator:short": "USPS", "operator:type": "public", "operator:wikidata": "Q668687", "ref": "7557100004"}, "type": "Feature"}
{"geometry": {"coordinates": [-94.1536179623, 33.148346], "type": "Point"}, "id": "jU8i3k94R5Q7ss5FxUF6OifZJbE=", "properties": {"@spider": "usps_collection_boxes", "addr:city": "QUEEN CITY", "addr:country": "US", "addr:full": "601 LOOP 236", "addr:postcode": "75572", "addr:state": "TX", "amenity": "post_box", "brand": "United States Postal Service", "brand:wikidata": "Q668687", "collection_times": "Mo-Sa 13:00", "name": "USPS COLLECTION BOX - BLUE BOX", "note": "ON 12/24 AND 12/31, THIS BOX MAY BE COLLECTED AS EARLY AS 12 NOON.", "nsi_id": "unitedstatespostalservice-a77078", "operator": "United States Postal Service", "operator:short": "USPS", "operator:type": "public", "operator:wikidata": "Q668687", "ref": "7557200000"}, "type": "Feature"}
{"geometry": {"coordinates": [-94.136759, 33.145108], "type": "Point"}, "id": "n9CEal2kVKcCypeGTOW29rGjKUY=", "properties": {"@spider": "usps_collection_boxes", "addr:city": "QUEEN CITY", "addr:country": "US", "addr:full": "1014 HOUSTON ST", "addr:postcode": "75572", "addr:state": "TX", "amenity": "post_box", "brand": "United States Postal Service", "brand:wikidata": "Q668687", "collection_times": "Mo-Fr 15:30; Sa 09:00", "name": "USPS COLLECTION BOX - BLUE BOX", "note": "ON 12/24 AND 12/31, THIS BOX MAY BE COLLECTED AS EARLY AS 12 NOON.", "nsi_id": "unitedstatespostalservice-a77078", "operator": "United States Postal Service", "operator:short": "USPS", "operator:type": "public", "operator:wikidata": "Q668687", "ref": "7557200001"}, "type": "Feature"}
{"geometry": {"coordinates": [-94.136759, 33.145108], "type": "Point"}, "id": "g4uK9d22RBiAsnqajTJUOCn3Utg=", "properties": {"@spider": "usps_collection_boxes", "addr:city": "QUEEN CITY", "addr:country": "US", "addr:full": "1014 HOUSTON ST", "addr:postcode": "75572", "addr:state": "TX", "amenity": "post_box", "brand": "United States Postal Service", "brand:wikidata": "Q668687", "collection_times": "Mo-Fr 16:00; Sa 09:00", "name": "USPS COLLECTION BOX - PO LOBBY", "note": "ON 12/24 AND 12/31, THIS BOX MAY BE COLLECTED AS EARLY AS 12 NOON.", "nsi_id": "unitedstatespostalservice-a77078", "operator": "United States Postal Service", "operator:short": "USPS", "operator:type": "public", "operator:wikidata": "Q668687", "ref": "7557200003"}, "type": "Feature"}
{"geometry": {"coordinates": [-94.159367, 33.145634], "type": "Point"}, "id": "eI86sPbb_3QWmw7rQkBg007YgRE=", "properties": {"@spider": "usps_collection_boxes", "addr:city": "QUEEN CITY", "addr:country": "US", "addr:full": "401 US HIGHWAY 59 S", "addr:postcode": "75572", "addr:state": "TX", "amenity": "post_box", "brand": "United States Postal Service", "brand:wikidata": "Q668687", "collection_times": "Mo-Sa 12:00", "name": "USPS COLLECTION BOX - BLUE BOX", "nsi_id": "unitedstatespostalservice-a77078", "operator": "United States Postal Service", "operator:short": "USPS", "operator:type": "public", "operator:wikidata": "Q668687", "ref": "7557200004"}, "type": "Feature"}
{"geometry": {"coordinates": [-94.1368066751, 33.1450753629], "type": "Point"}, "id": "49rH6XmGFBDYuS-Wj-Wt9B2PfbU=", "properties": {"@spider": "usps_collection_boxes", "addr:city": "QUEEN CITY", "addr:country": "US", "addr:full": "1014 HOUSTON ST", "addr:postcode": "75572", "addr:state": "TX", "amenity": "post_box", "brand": "United States Postal Service", "brand:wikidata": "Q668687", "collection_times": "Mo-Fr 16:00", "name": "USPS COLLECTION BOX - PO LOBBY", "note": "ON 12/24 AND 12/31, THIS BOX MAY BE COLLECTED AS EARLY AS 12 NOON.", "nsi_id": "unitedstatespostalservice-a77078", "operator": "United States Postal Service", "operator:short": "USPS", "operator:type": "public", "operator:wikidata": "Q668687", "ref": "7557200005"}, "type": "Feature"}
{"geometry": {"coordinates": [-94.25129, 33.363234], "type": "Point"}, "id": "2eBB4aBl5rndoryw-IyhtEDZXg0=", "properties": {"@spider": "usps_collection_boxes", "addr:city": "REDWATER", "addr:country": "US", "addr:full": "115 REDWATER BLVD W", "addr:postcode": "75573", "addr:state": "TX", "amenity": "post_box", "brand": "United States Postal Service", "brand:wikidata": "Q668687", "collection_times": "Mo-Fr 15:00; Sa 09:00", "name": "USPS COLLECTION BOX - BLUE BOX", "note": "ON 12/24 AND 12/31, THIS BOX MAY BE COLLECTED AS EARLY AS 12 NOON.", "nsi_id": "unitedstatespostalservice-a77078", "operator": "United States Postal Service", "operator:short": "USPS", "operator:type": "public", "operator:wikidata": "Q668687", "ref": "7557300000"}, "type": "Feature"}
{"geometry": {"coordinates": [-94.251374, 33.363218], "type": "Point"}, "id": "Xx7DBN0D5T2_2Eqp64nbdqnzV2M=", "properties": {"@spider": "usps_collection_boxes", "addr:city": "REDWATER", "addr:country": "US", "addr:full": "115 REDWATER BLVD W", "addr:postcode": "75573", "addr:state": "TX", "amenity": "post_box", "brand": "United States Postal Service", "brand:wikidata": "Q668687", "collection_times": "Mo-Fr 15:00; Sa 09:00", "name": "USPS COLLECTION BOX - PO LOBBY", "note": "ON 12/24 AND 12/31, THIS BOX MAY BE COLLECTED AS EARLY AS 12 NOON.", "nsi_id": "unitedstatespostalservice-a77078", "operator": "United States Postal Service", "operator:short": "USPS", "operator:type": "public", "operator:wikidata": "Q668687", "ref": "7557300001"}, "type": "Feature"}
{"geometry": {"coordinates": [-94.25214956, 33.362733253], "type": "Point"}, "id": "GPcBxPp71pB3BtgK_MiKRS_wlvI=", "properties": {"@spider": "usps_collection_boxes", "addr:city": "REDWATER", "addr:country": "US", "addr:full": "115 REDWATER BLVD W", "addr:postcode": "75573", "addr:state": "TX", "amenity": "post_box", "brand": "United States Postal Service", "brand:wikidata": "Q668687", "collection_times": "Mo-Fr 15:00; Sa 09:00", "name": "USPS COLLECTION BOX - PO LOBBY", "note": "ON 12/24 AND 12/31, THIS BOX MAY BE COLLECTED AS EARLY AS 12 NOON.", "nsi_id": "unitedstatespostalservice-a77078", "operator": "United States Postal Service", "operator:short": "USPS", "operator:type": "public", "operator:wikidata": "Q668687", "ref": "7557300003"}, "type": "Feature"}
{"geometry": {"coordinates": [-94.5094, 33.350113], "type": "Point"}, "id": "koI60YpQnwRSog4rk2ibSEGCTk0=", "properties": {"@spider": "usps_collection_boxes", "addr:city": "SIMMS", "addr:country": "US", "addr:full": "7539 US HIGHWAY 67 W", "addr:postcode": "75574", "addr:state": "TX", "amenity": "post_box", "brand": "United States Postal Service", "brand:wikidata": "Q668687", "collection_times": "Mo-Sa 16:00", "name": "USPS COLLECTION BOX - BLUE BOX", "note": "ON 12/24 AND 12/31, THIS BOX MAY BE COLLECTED AS EARLY AS 12 NOON.", "nsi_id": "unitedstatespostalservice-a77078", "operator": "United States Postal Service", "operator:short": "USPS", "operator:type": "public", "operator:wikidata": "Q668687", "ref": "7557400000"}, "type": "Feature"}
{"geometry": {"coordinates": [-94.5094, 33.350113], "type": "Point"}, "id": "ANGX0IF9mt6gU4VmYlk28tMZQLg=", "properties": {"@spider": "usps_collection_boxes", "addr:city": "SIMMS", "addr:country": "US", "addr:full": "7539 US HIGHWAY 67 W", "addr:postcode": "75574", "addr:state": "TX", "amenity": "post_box", "brand": "United States Postal Service", "brand:wikidata": "Q668687", "collection_times": "Mo-Fr 13:30; Sa 08:30", "name": "USPS COLLECTION BOX - PO LOBBY", "note": "ON 12/24 AND 12/31, THIS BOX MAY BE COLLECTED AS EARLY AS 12 NOON.", "nsi_id": "unitedstatespostalservice-a77078", "operator": "United States Postal Service", "operator:short": "USPS", "operator:type": "public", "operator:wikidata": "Q668687", "ref": "7557400001"}, "type": "Feature"}
{"geometry": {"coordinates": [-94.5091218877, 33.3501115317], "type": "Point"}, "id": "DEtqkAuL-ElIKUZn1f44UvXYAdQ=", "properties": {"@spider": "usps_collection_boxes", "addr:city": "SIMMS", "addr:country": "US", "addr:full": "7539 US HIGHWAY 67 W", "addr:postcode": "75574", "addr:state": "TX", "amenity": "post_box", "brand": "United States Postal Service", "brand:wikidata": "Q668687", "collection_times": "Mo-Fr 13:45", "name": "USPS COLLECTION BOX - PO LOBBY", "note": "ON 12/24 AND 12/31, THIS BOX MAY BE COLLECTED AS EARLY AS 12 NOON.", "nsi_id": "unitedstatespostalservice-a77078", "operator": "United States Postal Service", "operator:short": "USPS", "operator:type": "public", "operator:wikidata": "Q668687", "ref": "7557400004"}, "type": "Feature"}
