{"geometry": {"coordinates": [-94.7392319, 32.494868], "type": "Point"}, "id": "z5RbZcgvm2LDft77Uf1SUdCJUUc=", "properties": {"@spider": "usps_collection_boxes", "addr:city": "LONGVIEW", "addr:country": "US", "addr:full": "140 E TYLER ST", "addr:postcode": "75601", "addr:state": "TX", "brand": "USPS", "collection_times": "Mo-Sa 09:00", "name": "USPS COLLECTION BOX - BLUE BOX", "ref": "7560100001"}, "type": "Feature"}
{"geometry": {"coordinates": [-94.7382839986, 32.5087361138], "type": "Point"}, "id": "Qyfb50ToQ7bQTJgnEDZeF7UUOiE=", "properties": {"@spider": "usps_collection_boxes", "addr:city": "LONGVIEW", "addr:country": "US", "addr:full": "1121 JUDSON RD", "addr:postcode": "75601", "addr:state": "TX", "brand": "USPS", "collection_times": "Mo-Sa 09:30", "name": "USPS COLLECTION BOX - BLUE BOX", "ref": "7560100012"}, "type": "Feature"}
{"geometry": {"coordinates": [-94.731426511, 32.501543187], "type": "Point"}, "id": "KO-tFi1dyDUOduCdYwI5FzwjEQk=", "properties": {"@spider": "usps_collection_boxes", "addr:city": "LONGVIEW", "addr:country": "US", "addr:full": "701 E MARSHALL AVE", "addr:postcode": "75601", "addr:state": "TX", "brand": "USPS", "collection_times": "Mo-Sa 09:00", "name": "USPS COLLECTION BOX - BLUE BOX", "ref": "7560100014"}, "type": "Feature"}
{"geometry": {"coordinates": [-94.7393510093, 32.5155463597], "type": "Point"}, "id": "C2U0GfORDhQKE8ArOoup-I6Wbmc=", "properties": {"@spider": "usps_collection_boxes", "addr:city": "LONGVIEW", "addr:country": "US", "addr:full": "1315 JUDSON RD", "addr:postcode": "75601", "addr:state": "TX", "brand": "USPS", "collection_times": "Mo-Sa 10:30", "name": "USPS COLLECTION BOX - BLUE BOX", "ref": "7560100018"}, "type": "Feature"}
{"geometry": {"coordinates": [-94.737912067, 32.495781466], "type": "Point"}, "id": "BdzWgLvS3g62vP_0FvtbQa07O84=", "properties": {"@spider": "usps_collection_boxes", "addr:city": "LONGVIEW", "addr:country": "US", "addr:full": "201 E METHVIN ST", "addr:postcode": "75601", "addr:state": "TX", "brand": "USPS", "collection_times": "Mo-Fr 17:00; Sa 13:00", "name": "USPS COLLECTION BOX - BLUE BOX", "note": "ON 12/24 AND 12/31, THIS BOX MAY BE COLLECTED AS EARLY AS 12 NOON.", "ref": "7560100022"}, "type": "Feature"}
{"geometry": {"coordinates": [-94.737871, 32.495767], "type": "Point"}, "id": "wtRDAONr3V1ZzxQAvuW_bF-GcUM=", "properties": {"@spider": "usps_collection_boxes", "addr:city": "LONGVIEW", "addr:country": "US", "addr:full": "201 E METHVIN ST", "addr:postcode": "75601", "addr:state": "TX", "brand": "USPS", "collection_times": "Mo-Fr 17:00; Sa 09:30", "name": "USPS COLLECTION BOX - PO LOBBY", "note": "ON 12/24 AND 12/31, THIS BOX MAY BE COLLECTED AS EARLY AS 12 NOON.", "ref": "7560100026"}, "type": "Feature"}
{"geometry": {"coordinates": [-94.737871, 32.495767], "type": "Point"}, "id": "AAeXZxVOrFoohFXrhnQ07WUDbNw=", "properties": {"@spider": "usps_collection_boxes", "addr:city": "LONGVIEW", "addr:country": "US", "addr:full": "201 E METHVIN ST", "addr:postcode": "75601", "addr:state": "TX", "brand": "USPS", "collection_times": "Mo-Fr 17:00; Sa 09:30", "name": "USPS COLLECTION BOX - PO LOBBY", "note": "ON 12/24 AND 12/31, THIS BOX MAY BE COLLECTED AS EARLY AS 12 NOON.", "ref": "7560100027"}, "type": "Feature"}
{"geometry": {"coordinates": [-94.7381788, 32.494555], "type": "Point"}, "id": "frHpE4RFLfYxNyTyWpYEAl8wMIE=", "properties": {"@spider": "usps_collection_boxes", "addr:city": "LONGVIEW", "addr:country": "US", "addr:full": "211 E TYLER ST", "addr:postcode": "75601", "addr:state": "TX", "brand": "USPS", "collection_times": "Mo-Sa 09:00", "name": "USPS COLLECTION BOX - BLUE BOX", "ref": "7560100031"}, "type": "Feature"}
{"geometry": {"coordinates": [-94.711043813, 32.51325007], "type": "Point"}, "id": "RM8d3TPfMGsxhKsyji-zS9a-Fb8=", "properties": {"@spider": "usps_collection_boxes", "addr:city": "LONGVIEW", "addr:country": "US", "addr:full": "1005 N EASTMAN RD", "addr:postcode": "75601", "addr:state": "TX", "brand": "USPS", "collection_times": "Mo-Sa 10:45", "name": "USPS COLLECTION BOX - BLUE BOX", "ref": "7560100033"}, "type": "Feature"}
{"geometry": {"coordinates": [-94.7426336671, 32.5266530806], "type": "Point"}, "id": "cwIODwBzdcEzSdeNiOvdFYWAJ7E=", "properties": {"@spider": "usps_collection_boxes", "addr:city": "LONGVIEW", "addr:country": "US", "addr:full": "1709 JUDSON RD", "addr:postcode": "75601", "addr:state": "TX", "brand": "USPS", "collection_times": "Mo-Sa 10:30", "name": "USPS COLLECTION BOX - BLUE BOX", "ref": "7560100034"}, "type": "Feature"}
{"geometry": {"coordinates": [-94.7496423, 32.512995], "type": "Point"}, "id": "c4i63ig7d_8E56TFlYaNxfj_6vM=", "properties": {"@spider": "usps_collection_boxes", "addr:city": "LONGVIEW", "addr:country": "US", "addr:full": "1400 MCCANN RD", "addr:postcode": "75601", "addr:state": "TX", "brand": "USPS", "collection_times": "Mo-Sa 11:45", "name": "USPS COLLECTION BOX - BLUE BOX", "ref": "7560100035"}, "type": "Feature"}
{"geometry": {"coordinates": [-94.737912067, 32.495781466], "type": "Point"}, "id": "3LlECSEPrhpRtr-c4RnZKr1cwjk=", "properties": {"@spider": "usps_collection_boxes", "addr:city": "LONGVIEW", "addr:country": "US", "addr:full": "201 E METHVIN ST", "addr:postcode": "75601", "addr:state": "TX", "brand": "USPS", "collection_times": "Mo-Fr 17:00", "name": "USPS COLLECTION BOX - PO LOBBY", "note": "ON 12/24 AND 12/31, THIS BOX MAY BE COLLECTED AS EARLY AS 12 NOON.", "ref": "7560100041"}, "type": "Feature"}
{"geometry": {"coordinates": [-94.7437435, 32.482492], "type": "Point"}, "id": "IYna-MPU6qDyesXe6ZtvPUMYvMI=", "properties": {"@spider": "usps_collection_boxes", "addr:city": "LONGVIEW", "addr:country": "US", "addr:full": "901 S HIGH ST", "addr:postcode": "75602", "addr:state": "TX", "brand": "USPS", "collection_times": "Mo-Sa 14:00", "name": "USPS COLLECTION BOX - BLUE BOX", "note": "ON 12/24 AND 12/31, THIS BOX MAY BE COLLECTED AS EARLY AS 12 NOON.", "ref": "7560207165"}, "type": "Feature"}
{"geometry": {"coordinates": [-94.731269, 32.462367], "type": "Point"}, "id": "OOf-7zMTd5a9YNq_13NamX04jHA=", "properties": {"@spider": "usps_collection_boxes", "addr:city": "LONGVIEW", "addr:country": "US", "addr:full": "2336 S MOBBERLY AVE", "addr:postcode": "75602", "addr:state": "TX", "brand": "USPS", "collection_times": "Mo-Sa 17:00", "name": "USPS COLLECTION BOX - PO LOBBY", "note": "ON 12/24 AND 12/31, THIS BOX MAY BE COLLECTED AS EARLY AS 12 NOON.", "ref": "7560207230"}, "type": "Feature"}
{"geometry": {"coordinates": [-94.731269, 32.462367], "type": "Point"}, "id": "WAuxa7Yvz7W0r0PUFEY5_tACe4M=", "properties": {"@spider": "usps_collection_boxes", "addr:city": "LONGVIEW", "addr:country": "US", "addr:full": "2336 S MOBBERLY AVE", "addr:postcode": "75602", "addr:state": "TX", "brand": "USPS", "collection_times": "Mo-Sa 17:00", "name": "USPS COLLECTION BOX - PO LOBBY", "note": "ON 12/24 AND 12/31, THIS BOX MAY BE COLLECTED AS EARLY AS 12 NOON.", "ref": "7560207231"}, "type": "Feature"}
{"geometry": {"coordinates": [-94.731269, 32.462367], "type": "Point"}, "id": "HUztSv0V0OV5M7WLjiYRvCNNWlM=", "properties": {"@spider": "usps_collection_boxes", "addr:city": "LONGVIEW", "addr:country": "US", "addr:full": "2336 S MOBBERLY AVE", "addr:postcode": "75602", "addr:state": "TX", "brand": "USPS", "collection_times": "Mo-Sa 17:00", "name": "USPS COLLECTION BOX - BLUE BOX", "note": "ON 12/24 AND 12/31, THIS BOX MAY BE COLLECTED AS EARLY AS 12 NOON.", "ref": "7560207236"}, "type": "Feature"}
{"geometry": {"coordinates": [-94.7415946, 32.471153], "type": "Point"}, "id": "eRAv4GFb26UcnfZh13Hb0XSdivQ=", "properties": {"@spider": "usps_collection_boxes", "addr:city": "LONGVIEW", "addr:country": "US", "addr:full": "1800 S HIGH ST", "addr:postcode": "75602", "addr:state": "TX", "brand": "USPS", "collection_times": "Mo-Sa 13:00", "name": "USPS COLLECTION BOX - BLUE BOX", "note": "ON 12/24 AND 12/31, THIS BOX MAY BE COLLECTED AS EARLY AS 12 NOON.", "ref": "7560207238"}, "type": "Feature"}
{"geometry": {"coordinates": [-94.731267589, 32.462363106], "type": "Point"}, "id": "-VUlLEuGCRINq8GIshCEPI4ATBQ=", "properties": {"@spider": "usps_collection_boxes", "addr:city": "LONGVIEW", "addr:country": "US", "addr:full": "2336 S MOBBERLY AVE", "addr:postcode": "75602", "addr:state": "TX", "brand": "USPS", "collection_times": "Mo-Fr 17:00", "name": "USPS COLLECTION BOX - PO LOBBY", "note": "ON 12/24 AND 12/31, THIS BOX MAY BE COLLECTED AS EARLY AS 12 NOON.", "ref": "7560207240"}, "type": "Feature"}
{"geometry": {"coordinates": [-94.7072102183, 32.4150555465], "type": "Point"}, "id": "OZA14wWYlNFsdkwtIZH5vFkvX-I=", "properties": {"@spider": "usps_collection_boxes", "addr:city": "LONGVIEW", "addr:country": "US", "addr:full": "5001 ESTES PKWY", "addr:postcode": "75603", "addr:state": "TX", "brand": "USPS", "collection_times": "Mo-Sa 11:00", "name": "USPS COLLECTION BOX - BLUE BOX", "ref": "7560300001"}, "type": "Feature"}
{"geometry": {"coordinates": [-94.7640976, 32.525561], "type": "Point"}, "id": "h9mZOSKzL2ewlxebHR_DKpWYKhM=", "properties": {"@spider": "usps_collection_boxes", "addr:city": "LONGVIEW", "addr:country": "US", "addr:full": "2020 BILL OWENS PKWY", "addr:postcode": "75604", "addr:state": "TX", "brand": "USPS", "collection_times": "Mo-Fr 10:00", "name": "USPS COLLECTION BOX - BLUE BOX", "ref": "7560400000"}, "type": "Feature"}
{"geometry": {"coordinates": [-94.791136023, 32.506839571], "type": "Point"}, "id": "U1Ky49LOLWHHLvNZWuON1U5J_AA=", "properties": {"@spider": "usps_collection_boxes", "addr:city": "LONGVIEW", "addr:country": "US", "addr:full": "3400 W MARSHALL AVE", "addr:postcode": "75604", "addr:state": "TX", "brand": "USPS", "collection_times": "Mo-Fr 11:00; Sa 10:00", "name": "USPS COLLECTION BOX - BLUE BOX", "ref": "7560400001"}, "type": "Feature"}
{"geometry": {"coordinates": [-94.7585459, 32.496996], "type": "Point"}, "id": "FQV0IOrYKfD-biV6jmGv6kLGsWY=", "properties": {"@spider": "usps_collection_boxes", "addr:city": "LONGVIEW", "addr:country": "US", "addr:full": "804 W COTTON ST", "addr:postcode": "75604", "addr:state": "TX", "brand": "USPS", "collection_times": "Mo-Fr 10:00", "name": "USPS COLLECTION BOX - BLUE BOX", "ref": "7560400005"}, "type": "Feature"}
{"geometry": {"coordinates": [-94.804940453, 32.524815016], "type": "Point"}, "id": "i-x8wZzLbHGpZgpBJ4MPRTmhNkU=", "properties": {"@spider": "usps_collection_boxes", "addr:city": "LONGVIEW", "addr:country": "US", "addr:full": "1800 PINE TREE RD", "addr:postcode": "75604", "addr:state": "TX", "brand": "USPS", "collection_times": "Mo-Sa 10:00", "name": "USPS COLLECTION BOX - BLUE BOX", "ref": "7560400011"}, "type": "Feature"}
{"geometry": {"coordinates": [-94.798753435, 32.546919003], "type": "Point"}, "id": "k-1aeuGJs0c19aKuOkQ3leCQfrg=", "properties": {"@spider": "usps_collection_boxes", "addr:city": "LONGVIEW", "addr:country": "US", "addr:full": "3354 GILMER RD", "addr:postcode": "75604", "addr:state": "TX", "brand": "USPS", "collection_times": "Mo-Fr 11:00; Sa 10:00", "name": "USPS COLLECTION BOX - BLUE BOX", "ref": "7560400016"}, "type": "Feature"}
{"geometry": {"coordinates": [-94.783045326, 32.524128591], "type": "Point"}, "id": "rAWpRKuSHMKgke7ycJcv46n2hTI=", "properties": {"@spider": "usps_collection_boxes", "addr:city": "LONGVIEW", "addr:country": "US", "addr:full": "1800 W LOOP 281", "addr:postcode": "75604", "addr:state": "TX", "brand": "USPS", "collection_times": "Mo-Sa 09:00", "name": "USPS COLLECTION BOX - BLUE BOX", "ref": "7560400017"}, "type": "Feature"}
{"geometry": {"coordinates": [-94.7856206306, 32.5224658605], "type": "Point"}, "id": "yuP8Wrc_UJGZ_a8Qf3cyI_761zg=", "properties": {"@spider": "usps_collection_boxes", "addr:city": "LONGVIEW", "addr:country": "US", "addr:full": "1905 W LOOP 281", "addr:postcode": "75604", "addr:state": "TX", "brand": "USPS", "collection_times": "Mo-Sa 09:00", "name": "USPS COLLECTION BOX - BLUE BOX", "ref": "7560400022"}, "type": "Feature"}
{"geometry": {"coordinates": [-94.7646499588, 32.5380245203], "type": "Point"}, "id": "XhXF0TM5naYEWGlA5P8ZLKkVWRk=", "properties": {"@spider": "usps_collection_boxes", "addr:city": "LONGVIEW", "addr:country": "US", "addr:full": "911 W LOOP 281", "addr:postcode": "75604", "addr:state": "TX", "brand": "USPS", "collection_times": "Mo-Fr 11:00", "name": "USPS COLLECTION BOX - BLUE BOX", "ref": "7560400030"}, "type": "Feature"}
{"geometry": {"coordinates": [-94.7497779, 32.542918], "type": "Point"}, "id": "D5XChufY6xIdGeIHtaPY__2L_48=", "properties": {"@spider": "usps_collection_boxes", "addr:city": "LONGVIEW", "addr:country": "US", "addr:full": "109 W LOOP 281", "addr:postcode": "75605", "addr:state": "TX", "brand": "USPS", "collection_times": "Mo-Sa 11:00", "name": "USPS COLLECTION BOX - BLUE BOX", "ref": "7560500002"}, "type": "Feature"}
{"geometry": {"coordinates": [-94.767888748, 32.538029784], "type": "Point"}, "id": "r3lQ1AnwMTzG1FF8aTyv0TV5kGY=", "properties": {"@spider": "usps_collection_boxes", "addr:city": "LONGVIEW", "addr:country": "US", "addr:full": "2800 BILL OWENS PKWY", "addr:postcode": "75605", "addr:state": "TX", "brand": "USPS", "collection_times": "Mo-Sa 11:30", "name": "USPS COLLECTION BOX - BLUE BOX", "ref": "7560500003"}, "type": "Feature"}
{"geometry": {"coordinates": [-94.7556965722, 32.5411020031], "type": "Point"}, "id": "zSH6VlfV6zVRapwtM8FH3sgzOEc=", "properties": {"@spider": "usps_collection_boxes", "addr:city": "LONGVIEW", "addr:country": "US", "addr:full": "405 W LOOP 281", "addr:postcode": "75605", "addr:state": "TX", "brand": "USPS", "collection_times": "Mo-Sa 11:45", "name": "USPS COLLECTION BOX - BLUE BOX", "ref": "7560500006"}, "type": "Feature"}
{"geometry": {"coordinates": [-94.7654775, 32.56047], "type": "Point"}, "id": "fFf0OMbv6w8H3JrDbyVOtLeLCtY=", "properties": {"@spider": "usps_collection_boxes", "addr:city": "LONGVIEW", "addr:country": "US", "addr:full": "4501 MCCANN RD", "addr:postcode": "75605", "addr:state": "TX", "brand": "USPS", "collection_times": "Mo-Sa 17:00", "name": "USPS COLLECTION BOX - BLUE BOX", "note": "ON 12/24 AND 12/31, THIS BOX MAY BE COLLECTED AS EARLY AS 12 NOON.", "ref": "7560500012"}, "type": "Feature"}
{"geometry": {"coordinates": [-94.764529, 32.560867], "type": "Point"}, "id": "tNjhrh96EbVKUqsh4nUel3fa76c=", "properties": {"@spider": "usps_collection_boxes", "addr:city": "LONGVIEW", "addr:country": "US", "addr:full": "4501 MCCANN RD", "addr:postcode": "75605", "addr:state": "TX", "brand": "USPS", "collection_times": "Mo-Sa 17:00", "name": "USPS COLLECTION BOX - PO LOBBY", "note": "ON 12/24 AND 12/31, THIS BOX MAY BE COLLECTED AS EARLY AS 12 NOON.", "ref": "7560500014"}, "type": "Feature"}
{"geometry": {"coordinates": [-94.764529, 32.560867], "type": "Point"}, "id": "hQn96kwrfL4SqKM24HXIfUjUXxA=", "properties": {"@spider": "usps_collection_boxes", "addr:city": "LONGVIEW", "addr:country": "US", "addr:full": "4501 MCCANN RD", "addr:postcode": "75605", "addr:state": "TX", "brand": "USPS", "collection_times": "Mo-Sa 17:00", "name": "USPS COLLECTION BOX - PO LOBBY", "note": "ON 12/24 AND 12/31, THIS BOX MAY BE COLLECTED AS EARLY AS 12 NOON.", "ref": "7560500015"}, "type": "Feature"}
{"geometry": {"coordinates": [-94.6616489, 32.505036], "type": "Point"}, "id": "LGgJOdXvYkysbdggBhxcu9u5-To=", "properties": {"@spider": "usps_collection_boxes", "addr:city": "LONGVIEW", "addr:country": "US", "addr:full": "101 COMMUNITY BLVD", "addr:postcode": "75605", "addr:state": "TX", "brand": "USPS", "collection_times": "Mo-Sa 13:00", "name": "USPS COLLECTION BOX - BLUE BOX", "note": "ON 12/24 AND 12/31, THIS BOX MAY BE COLLECTED AS EARLY AS 12 NOON.", "ref": "7560500025"}, "type": "Feature"}
{"geometry": {"coordinates": [-94.730824591, 32.544073362], "type": "Point"}, "id": "_6-TvbxAdLgh93_1nsacBMZT-l0=", "properties": {"@spider": "usps_collection_boxes", "addr:city": "LONGVIEW", "addr:country": "US", "addr:full": "3313 4TH ST", "addr:postcode": "75605", "addr:state": "TX", "brand": "USPS", "collection_times": "Mo-Fr 15:00; Sa 10:00", "name": "USPS COLLECTION BOX - BLUE BOX", "note": "ON 12/24 AND 12/31, THIS BOX MAY BE COLLECTED AS EARLY AS 12 NOON.", "ref": "7560500028"}, "type": "Feature"}
{"geometry": {"coordinates": [-94.733038901, 32.532115817], "type": "Point"}, "id": "V8OgFixp6HfSY5tBclFmVh9Sx4I=", "properties": {"@spider": "usps_collection_boxes", "addr:city": "LONGVIEW", "addr:country": "US", "addr:full": "707 HOLLYBROOK DR", "addr:postcode": "75605", "addr:state": "TX", "brand": "USPS", "collection_times": "Mo-Sa 13:30", "name": "USPS COLLECTION BOX - BLUE BOX", "note": "ON 12/24 AND 12/31, THIS BOX MAY BE COLLECTED AS EARLY AS 12 NOON.", "ref": "7560500030"}, "type": "Feature"}
{"geometry": {"coordinates": [-94.764519997, 32.560852455], "type": "Point"}, "id": "uz4jZYumksWw_Ksfuzz0-YIwA4s=", "properties": {"@spider": "usps_collection_boxes", "addr:city": "LONGVIEW", "addr:country": "US", "addr:full": "4501 MCCANN RD", "addr:postcode": "75605", "addr:state": "TX", "brand": "USPS", "collection_times": "Mo-Fr 17:00; Sa 13:00", "name": "USPS COLLECTION BOX - PO LOBBY", "note": "ON 12/24 AND 12/31, THIS BOX MAY BE COLLECTED AS EARLY AS 12 NOON.", "ref": "7560500038"}, "type": "Feature"}
{"geometry": {"coordinates": [-94.568711, 32.808943], "type": "Point"}, "id": "YF8kgj3JgbVb8Taq6AVvHuQdPqE=", "properties": {"@spider": "usps_collection_boxes", "addr:city": "AVINGER", "addr:country": "US", "addr:full": "102 TEXAS HIGHWAY 155", "addr:postcode": "75630", "addr:state": "TX", "brand": "USPS", "collection_times": "Mo-Fr 16:00; Sa 09:00", "name": "USPS COLLECTION BOX - BLUE BOX", "note": "ON 12/24 AND 12/31, THIS BOX MAY BE COLLECTED AS EARLY AS 12 NOON.", "ref": "7563000000"}, "type": "Feature"}
{"geometry": {"coordinates": [-94.5560986, 32.792786], "type": "Point"}, "id": "uckAScQMVUkp7IdoSL3AmZ4enC0=", "properties": {"@spider": "usps_collection_boxes", "addr:city": "AVINGER", "addr:country": "US", "addr:full": "150 SLAMPA DR", "addr:postcode": "75630", "addr:state": "TX", "brand": "USPS", "collection_times": "Mo-Sa 13:00", "name": "USPS COLLECTION BOX - BLUE BOX", "note": "ON 12/24 AND 12/31, THIS BOX MAY BE COLLECTED AS EARLY AS 12 NOON.", "ref": "7563000002"}, "type": "Feature"}
{"geometry": {"coordinates": [-94.568711, 32.808943], "type": "Point"}, "id": "NM2N1ZaLa7Ahj5AcP_PTbgEPdUc=", "properties": {"@spider": "usps_collection_boxes", "addr:city": "AVINGER", "addr:country": "US", "addr:full": "102 TEXAS HIGHWAY 155", "addr:postcode": "75630", "addr:state": "TX", "brand": "USPS", "collection_times": "Mo-Fr 16:00; Sa 09:00", "name": "USPS COLLECTION BOX - PO LOBBY", "note": "ON 12/24 AND 12/31, THIS BOX MAY BE COLLECTED AS EARLY AS 12 NOON.", "ref": "7563000004"}, "type": "Feature"}
{"geometry": {"coordinates": [-94.479539729, 32.941137513], "type": "Point"}, "id": "ed8CdDmTrAUKcQ1uLvAgJdoreJg=", "properties": {"@spider": "usps_collection_boxes", "addr:city": "AVINGER", "addr:country": "US", "addr:full": "102 TEXAS HIGHWAY 155", "addr:postcode": "75630", "addr:state": "TX", "brand": "USPS", "collection_times": "Mo-Fr 16:00", "name": "USPS COLLECTION BOX - PO LOBBY", "note": "ON 12/24 AND 12/31, THIS BOX MAY BE COLLECTED AS EARLY AS 12 NOON.", "ref": "7563000005"}, "type": "Feature"}
{"geometry": {"coordinates": [-94.456332, 32.242272], "type": "Point"}, "id": "1LGo5gNcaHvIxTFINoP5zmXZde8=", "properties": {"@spider": "usps_collection_boxes", "addr:city": "BECKVILLE", "addr:country": "US", "addr:full": "125 S WASHINGTON ST", "addr:postcode": "75631", "addr:state": "TX", "brand": "USPS", "collection_times": "Mo-Fr 16:00; Sa 10:00", "name": "USPS COLLECTION BOX - BLUE BOX", "note": "ON 12/24 AND 12/31, THIS BOX MAY BE COLLECTED AS EARLY AS 12 NOON.", "ref": "7563100000"}, "type": "Feature"}
{"geometry": {"coordinates": [-94.456332, 32.242272], "type": "Point"}, "id": "bJG2zw6mnnCVg1qZLCGEXYUkXMw=", "properties": {"@spider": "usps_collection_boxes", "addr:city": "BECKVILLE", "addr:country": "US", "addr:full": "125 S WASHINGTON ST", "addr:postcode": "75631", "addr:state": "TX", "brand": "USPS", "collection_times": "Mo-Fr 16:00; Sa 10:00", "name": "USPS COLLECTION BOX - PO LOBBY", "note": "ON 12/24 AND 12/31, THIS BOX MAY BE COLLECTED AS EARLY AS 12 NOON.", "ref": "7563100001"}, "type": "Feature"}
{"geometry": {"coordinates": [-94.456332, 32.242272], "type": "Point"}, "id": "LqzPAkivAQCmnRveEpECHm_0koE=", "properties": {"@spider": "usps_collection_boxes", "addr:city": "BECKVILLE", "addr:country": "US", "addr:full": "125 S WASHINGTON ST", "addr:postcode": "75631", "addr:state": "TX", "brand": "USPS", "collection_times": "Mo-Fr 16:00; Sa 10:00", "name": "USPS COLLECTION BOX - PO LOBBY", "note": "ON 12/24 AND 12/31, THIS BOX MAY BE COLLECTED AS EARLY AS 12 NOON.", "ref": "7563100002"}, "type": "Feature"}
{"geometry": {"coordinates": [-94.456331097, 32.242271699], "type": "Point"}, "id": "wad-MeQ-XEhhN5eybDTwy2--otE=", "properties": {"@spider": "usps_collection_boxes", "addr:city": "BECKVILLE", "addr:country": "US", "addr:full": "125 S WASHINGTON ST", "addr:postcode": "75631", "addr:state": "TX", "brand": "USPS", "collection_times": "Mo-Fr 16:00", "name": "USPS COLLECTION BOX - PO LOBBY", "note": "ON 12/24 AND 12/31, THIS BOX MAY BE COLLECTED AS EARLY AS 12 NOON.", "ref": "7563100003"}, "type": "Feature"}
{"geometry": {"coordinates": [-94.338346, 32.155303], "type": "Point"}, "id": "kcYkKjTZRisxdTkryo2r2Sfb6Yo=", "properties": {"@spider": "usps_collection_boxes", "addr:city": "CARTHAGE", "addr:country": "US", "addr:full": "109 W WELLINGTON ST", "addr:postcode": "75633", "addr:state": "TX", "brand": "USPS", "collection_times": "Mo-Fr 16:00; Sa 15:00", "name": "USPS COLLECTION BOX - BLUE BOX", "note": "ON 12/24 AND 12/31, THIS BOX MAY BE COLLECTED AS EARLY AS 12 NOON.", "ref": "7563306490"}, "type": "Feature"}
{"geometry": {"coordinates": [-94.3408074, 32.155561], "type": "Point"}, "id": "PMVlwlSIoOxFdJJw8q1XULNigXY=", "properties": {"@spider": "usps_collection_boxes", "addr:city": "CARTHAGE", "addr:country": "US", "addr:full": "110 S SYCAMORE ST", "addr:postcode": "75633", "addr:state": "TX", "brand": "USPS", "collection_times": "Mo-Fr 15:00", "name": "USPS COLLECTION BOX - BLUE BOX", "note": "ON 12/24 AND 12/31, THIS BOX MAY BE COLLECTED AS EARLY AS 12 NOON.", "ref": "7563306494"}, "type": "Feature"}
{"geometry": {"coordinates": [-94.3493437, 32.157515], "type": "Point"}, "id": "J6i4eBAq4X39TET_-j-t_LSM9gs=", "properties": {"@spider": "usps_collection_boxes", "addr:city": "CARTHAGE", "addr:country": "US", "addr:full": "615 W PANOLA ST", "addr:postcode": "75633", "addr:state": "TX", "brand": "USPS", "collection_times": "Mo-Fr 15:00", "name": "USPS COLLECTION BOX - BLUE BOX", "note": "ON 12/24 AND 12/31, THIS BOX MAY BE COLLECTED AS EARLY AS 12 NOON.", "ref": "7563306495"}, "type": "Feature"}
{"geometry": {"coordinates": [-94.338533, 32.156509], "type": "Point"}, "id": "pcYrt_LYl0cYCbF3OG8Xlfhcnbs=", "properties": {"@spider": "usps_collection_boxes", "addr:city": "CARTHAGE", "addr:country": "US", "addr:full": "432 W PANOLA ST", "addr:postcode": "75633", "addr:state": "TX", "brand": "USPS", "collection_times": "Mo-Fr 15:00", "name": "USPS COLLECTION BOX - BLUE BOX", "note": "ON 12/24 AND 12/31, THIS BOX MAY BE COLLECTED AS EARLY AS 12 NOON.", "ref": "7563306496"}, "type": "Feature"}
{"geometry": {"coordinates": [-94.338346, 32.155303], "type": "Point"}, "id": "DcsKRHoDlFqfGGqTRn-vyFq2sOM=", "properties": {"@spider": "usps_collection_boxes", "addr:city": "CARTHAGE", "addr:country": "US", "addr:full": "109 W WELLINGTON ST", "addr:postcode": "75633", "addr:state": "TX", "brand": "USPS", "collection_times": "Mo-Fr 16:00; Sa 15:00", "name": "USPS COLLECTION BOX - BLUE BOX", "note": "ON 12/24 AND 12/31, THIS BOX MAY BE COLLECTED AS EARLY AS 12 NOON.", "ref": "7563307326"}, "type": "Feature"}
{"geometry": {"coordinates": [-94.338346, 32.155303], "type": "Point"}, "id": "D8if2A2hLg7Uj-q8mDey4HCWftU=", "properties": {"@spider": "usps_collection_boxes", "addr:city": "CARTHAGE", "addr:country": "US", "addr:full": "109 W WELLINGTON ST", "addr:postcode": "75633", "addr:state": "TX", "brand": "USPS", "collection_times": "Mo-Fr 17:00; Sa 15:00", "name": "USPS COLLECTION BOX - PO LOBBY", "note": "ON 12/24 AND 12/31, THIS BOX MAY BE COLLECTED AS EARLY AS 12 NOON.", "ref": "7563307328"}, "type": "Feature"}
{"geometry": {"coordinates": [-94.338346, 32.155303], "type": "Point"}, "id": "cUlelo7HuKeMmpq8N65rS2ewxuo=", "properties": {"@spider": "usps_collection_boxes", "addr:city": "CARTHAGE", "addr:country": "US", "addr:full": "109 W WELLINGTON ST", "addr:postcode": "75633", "addr:state": "TX", "brand": "USPS", "collection_times": "Mo-Fr 17:00; Sa 15:00", "name": "USPS COLLECTION BOX - PO LOBBY", "note": "ON 12/24 AND 12/31, THIS BOX MAY BE COLLECTED AS EARLY AS 12 NOON.", "ref": "7563307333"}, "type": "Feature"}
{"geometry": {"coordinates": [-94.338349732, 32.155301788], "type": "Point"}, "id": "8YC3RaO7pF9LbMFag_AzgZr9onc=", "properties": {"@spider": "usps_collection_boxes", "addr:city": "CARTHAGE", "addr:country": "US", "addr:full": "109 W WELLINGTON ST", "addr:postcode": "75633", "addr:state": "TX", "brand": "USPS", "collection_times": "Mo-Fr 16:00", "name": "USPS COLLECTION BOX - PO LOBBY", "note": "ON 12/24 AND 12/31, THIS BOX MAY BE COLLECTED AS EARLY AS 12 NOON.", "ref": "7563307335"}, "type": "Feature"}
{"geometry": {"coordinates": [-94.8132597049, 33.0385460539], "type": "Point"}, "id": "b2WaJacHD4MRsQICvJg9FzmPwPI=", "properties": {"@spider": "usps_collection_boxes", "addr:city": "CASON", "addr:country": "US", "addr:full": "4334 TEXAS STATE HIGHWAY 11 W", "addr:postcode": "75636", "addr:state": "TX", "brand": "USPS", "collection_times": "Mo-Fr 12:00; Sa 09:00", "name": "USPS COLLECTION BOX - BLUE BOX", "ref": "7563600000"}, "type": "Feature"}
{"geometry": {"coordinates": [-94.8132597049, 33.0385460539], "type": "Point"}, "id": "Kv5T7VXUIRq1QGWnDJNc-3Ewsdc=", "properties": {"@spider": "usps_collection_boxes", "addr:city": "CASON", "addr:country": "US", "addr:full": "4334 TEXAS STATE HIGHWAY 11 W", "addr:postcode": "75636", "addr:state": "TX", "brand": "USPS", "collection_times": "Mo-Fr 12:00; Sa 09:00", "name": "USPS COLLECTION BOX - PO LOBBY", "ref": "7563600002"}, "type": "Feature"}
{"geometry": {"coordinates": [-94.813793268, 33.038397144], "type": "Point"}, "id": "Qz8DrQQb2_iH38z7ZAj7NhhuhsM=", "properties": {"@spider": "usps_collection_boxes", "addr:city": "CASON", "addr:country": "US", "addr:full": "4334 TEXAS STATE HIGHWAY 11 W", "addr:postcode": "75636", "addr:state": "TX", "brand": "USPS", "collection_times": "Mo-Fr 12:00", "name": "USPS COLLECTION BOX - PO LOBBY", "ref": "7563600004"}, "type": "Feature"}
{"geometry": {"coordinates": [-94.4754439148, 32.0984424476], "type": "Point"}, "id": "82zdb739KYg07LxB4Yq44IatgnA=", "properties": {"@spider": "usps_collection_boxes", "addr:city": "CLAYTON", "addr:country": "US", "addr:full": "4535 W HIGHWAY 315", "addr:postcode": "75637", "addr:state": "TX", "brand": "USPS", "collection_times": "Mo-Fr 15:30; Sa 08:30", "name": "USPS COLLECTION BOX - BLUE BOX", "note": "ON 12/24 AND 12/31, THIS BOX MAY BE COLLECTED AS EARLY AS 12 NOON.", "ref": "7563700000"}, "type": "Feature"}
{"geometry": {"coordinates": [-94.4754439148, 32.0984424476], "type": "Point"}, "id": "pNLUz9qG7jaxFAmIa8xlbFEnZmU=", "properties": {"@spider": "usps_collection_boxes", "addr:city": "CLAYTON", "addr:country": "US", "addr:full": "4535 W HIGHWAY 315", "addr:postcode": "75637", "addr:state": "TX", "brand": "USPS", "collection_times": "Mo-Fr 12:30; Sa 08:30", "name": "USPS COLLECTION BOX - PO LOBBY", "note": "ON 12/24 AND 12/31, THIS BOX MAY BE COLLECTED AS EARLY AS 12 NOON.", "ref": "7563700001"}, "type": "Feature"}
{"geometry": {"coordinates": [-94.475633239, 32.098360517], "type": "Point"}, "id": "izQYm_yUDZrBp-mt3relG8L9QfA=", "properties": {"@spider": "usps_collection_boxes", "addr:city": "CLAYTON", "addr:country": "US", "addr:full": "4535 W HIGHWAY 315", "addr:postcode": "75637", "addr:state": "TX", "brand": "USPS", "collection_times": "Mo-Fr 13:00", "name": "USPS COLLECTION BOX - PO LOBBY", "note": "ON 12/24 AND 12/31, THIS BOX MAY BE COLLECTED AS EARLY AS 12 NOON.", "ref": "7563700003"}, "type": "Feature"}
{"geometry": {"coordinates": [-94.723792, 33.032657], "type": "Point"}, "id": "teW9OGq_hS0ZHbX2jBtzFfXKNOc=", "properties": {"@spider": "usps_collection_boxes", "addr:city": "DAINGERFIELD", "addr:country": "US", "addr:full": "214 W SCURRY ST", "addr:postcode": "75638", "addr:state": "TX", "brand": "USPS", "collection_times": "Mo-Fr 15:30; Sa 12:00", "name": "USPS COLLECTION BOX - BLUE BOX", "note": "ON 12/24 AND 12/31, THIS BOX MAY BE COLLECTED AS EARLY AS 12 NOON.", "ref": "7563806498"}, "type": "Feature"}
{"geometry": {"coordinates": [-94.7211976, 33.030524], "type": "Point"}, "id": "6y4FCTyj2Pv0i3_QhLuPJhkDFY4=", "properties": {"@spider": "usps_collection_boxes", "addr:city": "DAINGERFIELD", "addr:country": "US", "addr:full": "203 E W M WATSON BLVD", "addr:postcode": "75638", "addr:state": "TX", "brand": "USPS", "collection_times": "Mo-Fr 14:00", "name": "USPS COLLECTION BOX - BLUE BOX", "note": "ON 12/24 AND 12/31, THIS BOX MAY BE COLLECTED AS EARLY AS 12 NOON.", "ref": "7563806499"}, "type": "Feature"}
{"geometry": {"coordinates": [-94.7268784, 33.035969], "type": "Point"}, "id": "IBz6L9D_HCY3MZPZIvJ-7IuZNLY=", "properties": {"@spider": "usps_collection_boxes", "addr:city": "DAINGERFIELD", "addr:country": "US", "addr:full": "500 BROADNAX ST", "addr:postcode": "75638", "addr:state": "TX", "brand": "USPS", "collection_times": "Mo-Fr 14:00; Sa 13:00", "name": "USPS COLLECTION BOX - BLUE BOX", "note": "ON 12/24 AND 12/31, THIS BOX MAY BE COLLECTED AS EARLY AS 12 NOON.", "ref": "7563806500"}, "type": "Feature"}
{"geometry": {"coordinates": [-94.7220621, 33.031951], "type": "Point"}, "id": "BtRc5whDQjScG3erH92WsjfmaoU=", "properties": {"@spider": "usps_collection_boxes", "addr:city": "DAINGERFIELD", "addr:country": "US", "addr:full": "100 WEBB ST", "addr:postcode": "75638", "addr:state": "TX", "brand": "USPS", "collection_times": "Mo-Fr 12:00", "name": "USPS COLLECTION BOX - BLUE BOX", "ref": "7563806501"}, "type": "Feature"}
{"geometry": {"coordinates": [-94.723792, 33.032657], "type": "Point"}, "id": "0z0EU_jZzDcgoZYbv-5zUEtmRxE=", "properties": {"@spider": "usps_collection_boxes", "addr:city": "DAINGERFIELD", "addr:country": "US", "addr:full": "214 W SCURRY ST", "addr:postcode": "75638", "addr:state": "TX", "brand": "USPS", "collection_times": "Mo-Fr 16:30; Sa 12:00", "name": "USPS COLLECTION BOX - PO LOBBY", "note": "ON 12/24 AND 12/31, THIS BOX MAY BE COLLECTED AS EARLY AS 12 NOON.", "ref": "7563806503"}, "type": "Feature"}
{"geometry": {"coordinates": [-94.723792, 33.032657], "type": "Point"}, "id": "OcPBhOFRoVz3x_ayc7MbGndPmeI=", "properties": {"@spider": "usps_collection_boxes", "addr:city": "DAINGERFIELD", "addr:country": "US", "addr:full": "214 W SCURRY ST", "addr:postcode": "75638", "addr:state": "TX", "brand": "USPS", "collection_times": "Mo-Fr 16:30; Sa 12:00", "name": "USPS COLLECTION BOX - PO LOBBY", "note": "ON 12/24 AND 12/31, THIS BOX MAY BE COLLECTED AS EARLY AS 12 NOON.", "ref": "7563806504"}, "type": "Feature"}
{"geometry": {"coordinates": [-94.723784361, 33.032651468], "type": "Point"}, "id": "DvzdJA5fCD8Rxa5KtsaQTLDBbAY=", "properties": {"@spider": "usps_collection_boxes", "addr:city": "DAINGERFIELD", "addr:country": "US", "addr:full": "214 W SCURRY ST", "addr:postcode": "75638", "addr:state": "TX", "brand": "USPS", "collection_times": "Mo-Fr 16:30", "name": "USPS COLLECTION BOX - PO LOBBY", "note": "ON 12/24 AND 12/31, THIS BOX MAY BE COLLECTED AS EARLY AS 12 NOON.", "ref": "7563806505"}, "type": "Feature"}
{"geometry": {"coordinates": [-94.165445, 32.304073], "type": "Point"}, "id": "vdPmCrGU3jnDpi2HHlFr0U07aF0=", "properties": {"@spider": "usps_collection_boxes", "addr:city": "DE BERRY", "addr:country": "US", "addr:full": "7132 US HIGHWAY 79 N", "addr:postcode": "75639", "addr:state": "TX", "brand": "USPS", "collection_times": "Mo-Fr 16:00; Sa 08:30", "name": "USPS COLLECTION BOX - BLUE BOX", "note": "ON 12/24 AND 12/31, THIS BOX MAY BE COLLECTED AS EARLY AS 12 NOON.", "ref": "7563900000"}, "type": "Feature"}
{"geometry": {"coordinates": [-94.165445, 32.304073], "type": "Point"}, "id": "U1OQqxmhykrsN8-o-kFT3pdbfOc=", "properties": {"@spider": "usps_collection_boxes", "addr:city": "DE BERRY", "addr:country": "US", "addr:full": "7132 US HIGHWAY 79 N", "addr:postcode": "75639", "addr:state": "TX", "brand": "USPS", "collection_times": "Mo-Fr 16:00; Sa 08:30", "name": "USPS COLLECTION BOX - PO LOBBY", "note": "ON 12/24 AND 12/31, THIS BOX MAY BE COLLECTED AS EARLY AS 12 NOON.", "ref": "7563900001"}, "type": "Feature"}
{"geometry": {"coordinates": [-94.165445, 32.304073], "type": "Point"}, "id": "qAULi5dm753-Yp-lcqa1W2I1lBc=", "properties": {"@spider": "usps_collection_boxes", "addr:city": "DE BERRY", "addr:country": "US", "addr:full": "7132 US HIGHWAY 79 N", "addr:postcode": "75639", "addr:state": "TX", "brand": "USPS", "collection_times": "Mo-Fr 16:00; Sa 08:30", "name": "USPS COLLECTION BOX - PO LOBBY", "note": "ON 12/24 AND 12/31, THIS BOX MAY BE COLLECTED AS EARLY AS 12 NOON.", "ref": "7563900002"}, "type": "Feature"}
{"geometry": {"coordinates": [-94.165455822, 32.304019892], "type": "Point"}, "id": "JkfnClVJJx2NMqL2diNc399pIfY=", "properties": {"@spider": "usps_collection_boxes", "addr:city": "DE BERRY", "addr:country": "US", "addr:full": "7132 US HIGHWAY 79 N", "addr:postcode": "75639", "addr:state": "TX", "brand": "USPS", "collection_times": "Mo-Fr 16:00", "name": "USPS COLLECTION BOX - PO LOBBY", "note": "ON 12/24 AND 12/31, THIS BOX MAY BE COLLECTED AS EARLY AS 12 NOON.", "ref": "7563900003"}, "type": "Feature"}
{"geometry": {"coordinates": [-94.7510931206, 32.696864078], "type": "Point"}, "id": "k7tw1cV0eNXedUckJ9MZvHWIdiU=", "properties": {"@spider": "usps_collection_boxes", "addr:city": "DIANA", "addr:country": "US", "addr:full": "2218 US HIGHWAY 259 S", "addr:postcode": "75640", "addr:state": "TX", "brand": "USPS", "collection_times": "Mo-Fr 16:00; Sa 09:00", "name": "USPS COLLECTION BOX - BLUE BOX", "note": "ON 12/24 AND 12/31, THIS BOX MAY BE COLLECTED AS EARLY AS 12 NOON.", "ref": "7564000000"}, "type": "Feature"}
{"geometry": {"coordinates": [-94.751093, 32.696728], "type": "Point"}, "id": "4Nxklpv0lx5loPkROAM8OwFbT-0=", "properties": {"@spider": "usps_collection_boxes", "addr:city": "DIANA", "addr:country": "US", "addr:full": "2218 US HIGHWAY 259 S", "addr:postcode": "75640", "addr:state": "TX", "brand": "USPS", "collection_times": "Mo-Fr 16:00; Sa 08:00", "name": "USPS COLLECTION BOX - PO LOBBY", "note": "ON 12/24 AND 12/31, THIS BOX MAY BE COLLECTED AS EARLY AS 12 NOON.", "ref": "7564000001"}, "type": "Feature"}
{"geometry": {"coordinates": [-94.751093, 32.696728], "type": "Point"}, "id": "mk0OCYg_fKhhkT723D7sp7E9VjY=", "properties": {"@spider": "usps_collection_boxes", "addr:city": "DIANA", "addr:country": "US", "addr:full": "2218 US HIGHWAY 259 S", "addr:postcode": "75640", "addr:state": "TX", "brand": "USPS", "collection_times": "Mo-Fr 16:00; Sa 08:00", "name": "USPS COLLECTION BOX - PO LOBBY", "note": "ON 12/24 AND 12/31, THIS BOX MAY BE COLLECTED AS EARLY AS 12 NOON.", "ref": "7564000002"}, "type": "Feature"}
{"geometry": {"coordinates": [-94.751093121, 32.696864078], "type": "Point"}, "id": "RCZ8e0K2SLIskaq_FK8yhGdteBE=", "properties": {"@spider": "usps_collection_boxes", "addr:city": "DIANA", "addr:country": "US", "addr:full": "2218 US HIGHWAY 259 S", "addr:postcode": "75640", "addr:state": "TX", "brand": "USPS", "collection_times": "Mo-Fr 16:00", "name": "USPS COLLECTION BOX - PO LOBBY", "note": "ON 12/24 AND 12/31, THIS BOX MAY BE COLLECTED AS EARLY AS 12 NOON.", "ref": "7564000003"}, "type": "Feature"}
{"geometry": {"coordinates": [-94.1847782962, 32.3684100702], "type": "Point"}, "id": "BJqkzrsETs-8pVJgPKKFkQxwsxk=", "properties": {"@spider": "usps_collection_boxes", "addr:city": "ELYSIAN FIELDS", "addr:country": "US", "addr:full": "18154 FM 31", "addr:postcode": "75642", "addr:state": "TX", "brand": "USPS", "collection_times": "Mo-Sa 16:00", "name": "USPS COLLECTION BOX - BLUE BOX", "note": "ON 12/24 AND 12/31, THIS BOX MAY BE COLLECTED AS EARLY AS 12 NOON.", "ref": "7564200000"}, "type": "Feature"}
{"geometry": {"coordinates": [-94.1847782962, 32.3684100702], "type": "Point"}, "id": "xqsiqeu5RTlfnXQFyul9iIeErYM=", "properties": {"@spider": "usps_collection_boxes", "addr:city": "ELYSIAN FIELDS", "addr:country": "US", "addr:full": "18154 FM 31", "addr:postcode": "75642", "addr:state": "TX", "brand": "USPS", "collection_times": "Mo-Fr 14:00; Sa 09:00", "name": "USPS COLLECTION BOX - PO LOBBY", "note": "ON 12/24 AND 12/31, THIS BOX MAY BE COLLECTED AS EARLY AS 12 NOON.", "ref": "7564200003"}, "type": "Feature"}
{"geometry": {"coordinates": [-94.183354317, 32.368107147], "type": "Point"}, "id": "KmyIa_g9NR7YWdk25ilwZrJb1Ig=", "properties": {"@spider": "usps_collection_boxes", "addr:city": "ELYSIAN FIELDS", "addr:country": "US", "addr:full": "18154 FM 31", "addr:postcode": "75642", "addr:state": "TX", "brand": "USPS", "collection_times": "Mo-Fr 14:30", "name": "USPS COLLECTION BOX - PO LOBBY", "note": "ON 12/24 AND 12/31, THIS BOX MAY BE COLLECTED AS EARLY AS 12 NOON.", "ref": "7564200005"}, "type": "Feature"}
{"geometry": {"coordinates": [-94.371277, 32.029361], "type": "Point"}, "id": "iRlhU3BY7VHx2zsu60JVpfEnleQ=", "properties": {"@spider": "usps_collection_boxes", "addr:city": "GARY", "addr:country": "US", "addr:full": "2601 FM 999", "addr:postcode": "75643", "addr:state": "TX", "brand": "USPS", "collection_times": "Mo-Sa 15:45", "name": "USPS COLLECTION BOX - BLUE BOX", "note": "ON 12/24 AND 12/31, THIS BOX MAY BE COLLECTED AS EARLY AS 12 NOON.", "ref": "7564300000"}, "type": "Feature"}
{"geometry": {"coordinates": [-94.371277, 32.029361], "type": "Point"}, "id": "bGi8ulrkUmVhPnySdmroVtPyYbQ=", "properties": {"@spider": "usps_collection_boxes", "addr:city": "GARY", "addr:country": "US", "addr:full": "2601 FM 999", "addr:postcode": "75643", "addr:state": "TX", "brand": "USPS", "collection_times": "Mo-Fr 14:00; Sa 08:00", "name": "USPS COLLECTION BOX - PO LOBBY", "note": "ON 12/24 AND 12/31, THIS BOX MAY BE COLLECTED AS EARLY AS 12 NOON.", "ref": "7564300002"}, "type": "Feature"}
{"geometry": {"coordinates": [-94.371270211, 32.02939857], "type": "Point"}, "id": "SRjgteZY-BayE9PCwrdi38BxcMg=", "properties": {"@spider": "usps_collection_boxes", "addr:city": "GARY", "addr:country": "US", "addr:full": "2601 FM 999", "addr:postcode": "75643", "addr:state": "TX", "brand": "USPS", "collection_times": "Mo-Fr 14:30", "name": "USPS COLLECTION BOX - PO LOBBY", "note": "ON 12/24 AND 12/31, THIS BOX MAY BE COLLECTED AS EARLY AS 12 NOON.", "ref": "7564300004"}, "type": "Feature"}
{"geometry": {"coordinates": [-94.9445149, 32.729003], "type": "Point"}, "id": "ZkrvsWv9SP5Y62lQD2WqA1ty8cc=", "properties": {"@spider": "usps_collection_boxes", "addr:city": "GILMER", "addr:country": "US", "addr:full": "100 W TYLER ST", "addr:postcode": "75644", "addr:state": "TX", "brand": "USPS", "collection_times": "Mo-Fr 14:00; Sa 13:00", "name": "USPS COLLECTION BOX - BLUE BOX", "note": "ON 12/24 AND 12/31, THIS BOX MAY BE COLLECTED AS EARLY AS 12 NOON.", "ref": "7564406503"}, "type": "Feature"}
{"geometry": {"coordinates": [-94.9444323, 32.730375], "type": "Point"}, "id": "ZW_uILRIs5PtWNv39y3y13hrSjo=", "properties": {"@spider": "usps_collection_boxes", "addr:city": "GILMER", "addr:country": "US", "addr:full": "215 TITUS ST", "addr:postcode": "75644", "addr:state": "TX", "brand": "USPS", "collection_times": "Mo-Fr 14:00; Sa 13:00", "name": "USPS COLLECTION BOX - BLUE BOX", "note": "ON 12/24 AND 12/31, THIS BOX MAY BE COLLECTED AS EARLY AS 12 NOON.", "ref": "7564406504"}, "type": "Feature"}
{"geometry": {"coordinates": [-94.9398899, 32.732152], "type": "Point"}, "id": "8wEtXdgtZZbOvjAbalmiUluaOt4=", "properties": {"@spider": "usps_collection_boxes", "addr:city": "GILMER", "addr:country": "US", "addr:full": "405 N CYPRESS ST", "addr:postcode": "75644", "addr:state": "TX", "brand": "USPS", "collection_times": "Mo-Fr 16:45; Sa 15:00", "name": "USPS COLLECTION BOX - BLUE BOX", "note": "ON 12/24 AND 12/31, THIS BOX MAY BE COLLECTED AS EARLY AS 12 NOON.", "ref": "7564406514"}, "type": "Feature"}
{"geometry": {"coordinates": [-94.9392657, 32.732034], "type": "Point"}, "id": "oehhENuQUI8nfV-hWc3M9cgRz0g=", "properties": {"@spider": "usps_collection_boxes", "addr:city": "GILMER", "addr:country": "US", "addr:full": "405 N CYPRESS ST", "addr:postcode": "75644", "addr:state": "TX", "brand": "USPS", "collection_times": "Mo-Fr 16:45; Sa 15:00", "name": "USPS COLLECTION BOX - PO LOBBY", "note": "ON 12/24 AND 12/31, THIS BOX MAY BE COLLECTED AS EARLY AS 12 NOON.", "ref": "7564406516"}, "type": "Feature"}
{"geometry": {"coordinates": [-94.939287, 32.732054], "type": "Point"}, "id": "FH6qoh1x5utDuW0Je3xvxhJxPrg=", "properties": {"@spider": "usps_collection_boxes", "addr:city": "GILMER", "addr:country": "US", "addr:full": "405 N CYPRESS ST", "addr:postcode": "75644", "addr:state": "TX", "brand": "USPS", "collection_times": "Mo-Fr 16:45; Sa 15:00", "name": "USPS COLLECTION BOX - PO LOBBY", "note": "ON 12/24 AND 12/31, THIS BOX MAY BE COLLECTED AS EARLY AS 12 NOON.", "ref": "7564406517"}, "type": "Feature"}
{"geometry": {"coordinates": [-94.940290839, 32.732243801], "type": "Point"}, "id": "iDIiOjcb48nC704-fnzaCLDN1qs=", "properties": {"@spider": "usps_collection_boxes", "addr:city": "GILMER", "addr:country": "US", "addr:full": "405 N CYPRESS ST", "addr:postcode": "75644", "addr:state": "TX", "brand": "USPS", "collection_times": "Mo-Fr 16:30", "name": "USPS COLLECTION BOX - PO LOBBY", "note": "ON 12/24 AND 12/31, THIS BOX MAY BE COLLECTED AS EARLY AS 12 NOON.", "ref": "7564406518"}, "type": "Feature"}
{"geometry": {"coordinates": [-94.9437805, 32.540942], "type": "Point"}, "id": "ok8qio0IDnxLA1-hsDCWy7vLYWg=", "properties": {"@spider": "usps_collection_boxes", "addr:city": "GLADEWATER", "addr:country": "US", "addr:full": "402 MELBA AVE", "addr:postcode": "75647", "addr:state": "TX", "brand": "USPS", "collection_times": "Mo-Fr 13:30; Sa 12:30", "name": "USPS COLLECTION BOX - BLUE BOX", "note": "ON 12/24 AND 12/31, THIS BOX MAY BE COLLECTED AS EARLY AS 12 NOON.", "ref": "7564706389"}, "type": "Feature"}
{"geometry": {"coordinates": [-94.9281972, 32.53319], "type": "Point"}, "id": "vAB7NbEPLN3VpjmVUFncuewnnoQ=", "properties": {"@spider": "usps_collection_boxes", "addr:city": "GLADEWATER", "addr:country": "US", "addr:full": "1300 BROADWAY AVE", "addr:postcode": "75647", "addr:state": "TX", "brand": "USPS", "collection_times": "Mo-Sa 11:00", "name": "USPS COLLECTION BOX - BLUE BOX", "ref": "7564706390"}, "type": "Feature"}
{"geometry": {"coordinates": [-94.9506147, 32.531059], "type": "Point"}, "id": "t3XsMMEoxz_dSNmwpJgpB_i1PhE=", "properties": {"@spider": "usps_collection_boxes", "addr:city": "GLADEWATER", "addr:country": "US", "addr:full": "511 S TYLER ST", "addr:postcode": "75647", "addr:state": "TX", "brand": "USPS", "collection_times": "Mo-Fr 13:30", "name": "USPS COLLECTION BOX - BLUE BOX", "note": "ON 12/24 AND 12/31, THIS BOX MAY BE COLLECTED AS EARLY AS 12 NOON.", "ref": "7564706391"}, "type": "Feature"}
{"geometry": {"coordinates": [-94.9380769, 32.53536], "type": "Point"}, "id": "UKGAaA9ytT6J8Wl0NAuB_qwIPsM=", "properties": {"@spider": "usps_collection_boxes", "addr:city": "GLADEWATER", "addr:country": "US", "addr:full": "601 BROADWAY AVE", "addr:postcode": "75647", "addr:state": "TX", "brand": "USPS", "collection_times": "Mo-Fr 12:30", "name": "USPS COLLECTION BOX - BLUE BOX", "note": "ON 12/24 AND 12/31, THIS BOX MAY BE COLLECTED AS EARLY AS 12 NOON.", "ref": "7564706392"}, "type": "Feature"}
{"geometry": {"coordinates": [-94.9451165, 32.535626], "type": "Point"}, "id": "VuYbsbGHmoVy1Bx8KT2Debze9ac=", "properties": {"@spider": "usps_collection_boxes", "addr:city": "GLADEWATER", "addr:country": "US", "addr:full": "101 N DEAN ST", "addr:postcode": "75647", "addr:state": "TX", "brand": "USPS", "collection_times": "Mo-Fr 16:00; Sa 11:30", "name": "USPS COLLECTION BOX - PO LOBBY", "note": "ON 12/24 AND 12/31, THIS BOX MAY BE COLLECTED AS EARLY AS 12 NOON.", "ref": "7564706393"}, "type": "Feature"}
{"geometry": {"coordinates": [-94.9451362, 32.535839], "type": "Point"}, "id": "pOPLFq_04dqfJUmdYJ09Ate42iY=", "properties": {"@spider": "usps_collection_boxes", "addr:city": "GLADEWATER", "addr:country": "US", "addr:full": "101 N DEAN ST", "addr:postcode": "75647", "addr:state": "TX", "brand": "USPS", "collection_times": "Mo-Fr 16:00; Sa 11:30", "name": "USPS COLLECTION BOX - BLUE BOX", "note": "ON 12/24 AND 12/31, THIS BOX MAY BE COLLECTED AS EARLY AS 12 NOON.", "ref": "7564706394"}, "type": "Feature"}
{"geometry": {"coordinates": [-94.9451436, 32.535849], "type": "Point"}, "id": "zt86GzqTkmwblQN_lIP5LcBF-1o=", "properties": {"@spider": "usps_collection_boxes", "addr:city": "GLADEWATER", "addr:country": "US", "addr:full": "101 N DEAN ST", "addr:postcode": "75647", "addr:state": "TX", "brand": "USPS", "collection_times": "Mo-Fr 16:00; Sa 11:30", "name": "USPS COLLECTION BOX - BLUE BOX", "note": "ON 12/24 AND 12/31, THIS BOX MAY BE COLLECTED AS EARLY AS 12 NOON.", "ref": "7564706460"}, "type": "Feature"}
{"geometry": {"coordinates": [-94.9451677, 32.535648], "type": "Point"}, "id": "KK7dYRyNauYjgLIm7Kg-dsTmdEQ=", "properties": {"@spider": "usps_collection_boxes", "addr:city": "GLADEWATER", "addr:country": "US", "addr:full": "101 N DEAN ST", "addr:postcode": "75647", "addr:state": "TX", "brand": "USPS", "collection_times": "Mo-Fr 16:00; Sa 11:30", "name": "USPS COLLECTION BOX - PO LOBBY", "note": "ON 12/24 AND 12/31, THIS BOX MAY BE COLLECTED AS EARLY AS 12 NOON.", "ref": "7564706461"}, "type": "Feature"}
{"geometry": {"coordinates": [-94.944964839, 32.535539643], "type": "Point"}, "id": "TUj903u5DDHa3FyLrLP4oOMGw70=", "properties": {"@spider": "usps_collection_boxes", "addr:city": "GLADEWATER", "addr:country": "US", "addr:full": "101 N DEAN ST", "addr:postcode": "75647", "addr:state": "TX", "brand": "USPS", "collection_times": "Mo-Fr 16:00", "name": "USPS COLLECTION BOX - PO LOBBY", "note": "ON 12/24 AND 12/31, THIS BOX MAY BE COLLECTED AS EARLY AS 12 NOON.", "ref": "7564706463"}, "type": "Feature"}
{"geometry": {"coordinates": [-94.5716, 32.504512], "type": "Point"}, "id": "71iUNZfVK3gAwtNDRDRJMCrvueY=", "properties": {"@spider": "usps_collection_boxes", "addr:city": "HALLSVILLE", "addr:country": "US", "addr:full": "208 E MAIN ST", "addr:postcode": "75650", "addr:state": "TX", "brand": "USPS", "collection_times": "Mo-Fr 16:00; Sa 10:00", "name": "USPS COLLECTION BOX - PO LOBBY", "note": "ON 12/24 AND 12/31, THIS BOX MAY BE COLLECTED AS EARLY AS 12 NOON.", "ref": "7565000000"}, "type": "Feature"}
{"geometry": {"coordinates": [-94.5716, 32.504512], "type": "Point"}, "id": "Obw_eM6WOdEL7KIxZuhtVpqkGLY=", "properties": {"@spider": "usps_collection_boxes", "addr:city": "HALLSVILLE", "addr:country": "US", "addr:full": "208 E MAIN ST", "addr:postcode": "75650", "addr:state": "TX", "brand": "USPS", "collection_times": "Mo-Fr 15:30; Sa 10:00", "name": "USPS COLLECTION BOX - BLUE BOX", "note": "ON 12/24 AND 12/31, THIS BOX MAY BE COLLECTED AS EARLY AS 12 NOON.", "ref": "7565000001"}, "type": "Feature"}
{"geometry": {"coordinates": [-94.5716, 32.504512], "type": "Point"}, "id": "2DdbQFL-qusObDsa3p4hBD56jhc=", "properties": {"@spider": "usps_collection_boxes", "addr:city": "HALLSVILLE", "addr:country": "US", "addr:full": "208 E MAIN ST", "addr:postcode": "75650", "addr:state": "TX", "brand": "USPS", "collection_times": "Mo-Fr 15:30; Sa 10:00", "name": "USPS COLLECTION BOX - BLUE BOX", "note": "ON 12/24 AND 12/31, THIS BOX MAY BE COLLECTED AS EARLY AS 12 NOON.", "ref": "7565000002"}, "type": "Feature"}
{"geometry": {"coordinates": [-94.5885896, 32.508733], "type": "Point"}, "id": "3z5Ex6lFOXhI4GhHjL4TNPo-0Cs=", "properties": {"@spider": "usps_collection_boxes", "addr:city": "HALLSVILLE", "addr:country": "US", "addr:full": "590 W MAIN ST", "addr:postcode": "75650", "addr:state": "TX", "brand": "USPS", "collection_times": "Mo-Sa 13:00", "name": "USPS COLLECTION BOX - BLUE BOX", "note": "ON 12/24 AND 12/31, THIS BOX MAY BE COLLECTED AS EARLY AS 12 NOON.", "ref": "7565000005"}, "type": "Feature"}
{"geometry": {"coordinates": [-94.571577996, 32.504754554], "type": "Point"}, "id": "u9Mh6h3OFfXv28O8N808175GcLc=", "properties": {"@spider": "usps_collection_boxes", "addr:city": "HALLSVILLE", "addr:country": "US", "addr:full": "208 E MAIN ST", "addr:postcode": "75650", "addr:state": "TX", "brand": "USPS", "collection_times": "Mo-Fr 16:00", "name": "USPS COLLECTION BOX - PO LOBBY", "note": "ON 12/24 AND 12/31, THIS BOX MAY BE COLLECTED AS EARLY AS 12 NOON.", "ref": "7565000008"}, "type": "Feature"}
{"geometry": {"coordinates": [-94.572402, 32.675693], "type": "Point"}, "id": "gyC-hPhPbsL6t8jkFuSyJ3rgaJI=", "properties": {"@spider": "usps_collection_boxes", "addr:city": "HARLETON", "addr:country": "US", "addr:full": "17017 STATE HIGHWAY 154", "addr:postcode": "75651", "addr:state": "TX", "brand": "USPS", "collection_times": "Mo-Fr 16:00; Sa 09:00", "name": "USPS COLLECTION BOX - BLUE BOX", "note": "ON 12/24 AND 12/31, THIS BOX MAY BE COLLECTED AS EARLY AS 12 NOON.", "ref": "7565107356"}, "type": "Feature"}
{"geometry": {"coordinates": [-94.572402, 32.675693], "type": "Point"}, "id": "JJHiwJqj86DXn7WChlDXojzdh1k=", "properties": {"@spider": "usps_collection_boxes", "addr:city": "HARLETON", "addr:country": "US", "addr:full": "17017 STATE HIGHWAY 154", "addr:postcode": "75651", "addr:state": "TX", "brand": "USPS", "collection_times": "Mo-Fr 16:00", "name": "USPS COLLECTION BOX - PO LOBBY", "note": "ON 12/24 AND 12/31, THIS BOX MAY BE COLLECTED AS EARLY AS 12 NOON.", "ref": "7565107359"}, "type": "Feature"}
{"geometry": {"coordinates": [-94.572406121, 32.675690561], "type": "Point"}, "id": "iil-AjZvMtbqHuo_PvmfS_lgck0=", "properties": {"@spider": "usps_collection_boxes", "addr:city": "HARLETON", "addr:country": "US", "addr:full": "17017 STATE HIGHWAY 154", "addr:postcode": "75651", "addr:state": "TX", "brand": "USPS", "collection_times": "Mo-Fr 16:00", "name": "USPS COLLECTION BOX - PO LOBBY", "note": "ON 12/24 AND 12/31, THIS BOX MAY BE COLLECTED AS EARLY AS 12 NOON.", "ref": "7565107360"}, "type": "Feature"}
{"geometry": {"coordinates": [-94.8224294, 32.156038], "type": "Point"}, "id": "HqT8PMduOfPUZHL0QX-Xyu581Fc=", "properties": {"@spider": "usps_collection_boxes", "addr:city": "HENDERSON", "addr:country": "US", "addr:full": "1802 ELM ST", "addr:postcode": "75652", "addr:state": "TX", "brand": "USPS", "collection_times": "Mo-Sa 10:30", "name": "USPS COLLECTION BOX - BLUE BOX", "ref": "7565206426"}, "type": "Feature"}
{"geometry": {"coordinates": [-94.7871104, 32.166628], "type": "Point"}, "id": "W66_4qO-RvBOmDDTEYZnrEkAoIg=", "properties": {"@spider": "usps_collection_boxes", "addr:city": "HENDERSON", "addr:country": "US", "addr:full": "1315 US HIGHWAY 79 N", "addr:postcode": "75652", "addr:state": "TX", "brand": "USPS", "collection_times": "Mo-Sa 10:00", "name": "USPS COLLECTION BOX - BLUE BOX", "ref": "7565206428"}, "type": "Feature"}
{"geometry": {"coordinates": [-94.8026337, 32.153201], "type": "Point"}, "id": "gbuyyU571w_BDv5k9W3YodOEc90=", "properties": {"@spider": "usps_collection_boxes", "addr:city": "HENDERSON", "addr:country": "US", "addr:full": "400 W MAIN ST", "addr:postcode": "75652", "addr:state": "TX", "brand": "USPS", "collection_times": "Mo-Fr 14:45", "name": "USPS COLLECTION BOX - BLUE BOX", "note": "ON 12/24 AND 12/31, THIS BOX MAY BE COLLECTED AS EARLY AS 12 NOON.", "ref": "7565206430"}, "type": "Feature"}
{"geometry": {"coordinates": [-94.7994717, 32.153588], "type": "Point"}, "id": "bk7UBx9VEUIBFF4m9oKjtLWFRuM=", "properties": {"@spider": "usps_collection_boxes", "addr:city": "HENDERSON", "addr:country": "US", "addr:full": "102 N MAIN ST", "addr:postcode": "75652", "addr:state": "TX", "brand": "USPS", "collection_times": "Mo-Fr 14:45", "name": "USPS COLLECTION BOX - BLUE BOX", "note": "ON 12/24 AND 12/31, THIS BOX MAY BE COLLECTED AS EARLY AS 12 NOON.", "ref": "7565206432"}, "type": "Feature"}
{"geometry": {"coordinates": [-94.818474614, 32.150668391], "type": "Point"}, "id": "d0O5Ke4MpuoGfYtZ6sesMCdHn1g=", "properties": {"@spider": "usps_collection_boxes", "addr:city": "HENDERSON", "addr:country": "US", "addr:full": "1414 W MAIN ST", "addr:postcode": "75652", "addr:state": "TX", "brand": "USPS", "collection_times": "Mo-Sa 09:00", "name": "USPS COLLECTION BOX - BLUE BOX", "ref": "7565206436"}, "type": "Feature"}
{"geometry": {"coordinates": [-94.7996807, 32.154823], "type": "Point"}, "id": "EWeTIGaouIIx_I01egQs25W4SFk=", "properties": {"@spider": "usps_collection_boxes", "addr:city": "HENDERSON", "addr:country": "US", "addr:full": "201 N MAIN ST", "addr:postcode": "75652", "addr:state": "TX", "brand": "USPS", "collection_times": "Mo-Fr 14:45", "name": "USPS COLLECTION BOX - BLUE BOX", "note": "ON 12/24 AND 12/31, THIS BOX MAY BE COLLECTED AS EARLY AS 12 NOON.", "ref": "7565206447"}, "type": "Feature"}
{"geometry": {"coordinates": [-94.7994493, 32.152943], "type": "Point"}, "id": "1EecAZ5dYctKBZggbCigAcAZfbo=", "properties": {"@spider": "usps_collection_boxes", "addr:city": "HENDERSON", "addr:country": "US", "addr:full": "101 S MAIN ST", "addr:postcode": "75654", "addr:state": "TX", "brand": "USPS", "collection_times": "Mo-Fr 14:45", "name": "USPS COLLECTION BOX - BLUE BOX", "note": "ON 12/24 AND 12/31, THIS BOX MAY BE COLLECTED AS EARLY AS 12 NOON.", "ref": "7565400000"}, "type": "Feature"}
{"geometry": {"coordinates": [-94.7993472, 32.148862], "type": "Point"}, "id": "7rfJDGM_RQIIPlokIJDQENYlyf8=", "properties": {"@spider": "usps_collection_boxes", "addr:city": "HENDERSON", "addr:country": "US", "addr:full": "505 S MAIN ST", "addr:postcode": "75654", "addr:state": "TX", "brand": "USPS", "collection_times": "Mo-Fr 17:00; Sa 14:00", "name": "USPS COLLECTION BOX - BLUE BOX", "note": "ON 12/24 AND 12/31, THIS BOX MAY BE COLLECTED AS EARLY AS 12 NOON.", "ref": "7565400001"}, "type": "Feature"}
{"geometry": {"coordinates": [-94.7993416, 32.148856], "type": "Point"}, "id": "2v_CqySAkE3iwhyXzyNaLm2vSsY=", "properties": {"@spider": "usps_collection_boxes", "addr:city": "HENDERSON", "addr:country": "US", "addr:full": "505 S MAIN ST", "addr:postcode": "75654", "addr:state": "TX", "brand": "USPS", "collection_times": "Mo-Fr 17:00; Sa 14:00", "name": "USPS COLLECTION BOX - BLUE BOX", "note": "ON 12/24 AND 12/31, THIS BOX MAY BE COLLECTED AS EARLY AS 12 NOON.", "ref": "7565400002"}, "type": "Feature"}
{"geometry": {"coordinates": [-94.799117, 32.148699], "type": "Point"}, "id": "_cz5XUEummYiAsVCCJ-v0ZKhJzo=", "properties": {"@spider": "usps_collection_boxes", "addr:city": "HENDERSON", "addr:country": "US", "addr:full": "505 S MAIN ST", "addr:postcode": "75654", "addr:state": "TX", "brand": "USPS", "collection_times": "Mo-Fr 17:00; Sa 14:00", "name": "USPS COLLECTION BOX - PO LOBBY", "note": "ON 12/24 AND 12/31, THIS BOX MAY BE COLLECTED AS EARLY AS 12 NOON.", "ref": "7565400005"}, "type": "Feature"}
{"geometry": {"coordinates": [-94.7992031, 32.148738], "type": "Point"}, "id": "4aw46w6BhxNcC0qj1dtdAPXvqlA=", "properties": {"@spider": "usps_collection_boxes", "addr:city": "HENDERSON", "addr:country": "US", "addr:full": "505 S MAIN ST", "addr:postcode": "75654", "addr:state": "TX", "brand": "USPS", "collection_times": "Mo-Fr 17:00; Sa 14:00", "name": "USPS COLLECTION BOX - PO LOBBY", "note": "ON 12/24 AND 12/31, THIS BOX MAY BE COLLECTED AS EARLY AS 12 NOON.", "ref": "7565400006"}, "type": "Feature"}
{"geometry": {"coordinates": [-94.7992116, 32.148733], "type": "Point"}, "id": "Y6QhkDb7JhHWONkOkau4GroV5M0=", "properties": {"@spider": "usps_collection_boxes", "addr:city": "HENDERSON", "addr:country": "US", "addr:full": "505 S MAIN ST", "addr:postcode": "75654", "addr:state": "TX", "brand": "USPS", "collection_times": "Mo-Fr 17:00; Sa 14:00", "name": "USPS COLLECTION BOX - PO LOBBY", "note": "ON 12/24 AND 12/31, THIS BOX MAY BE COLLECTED AS EARLY AS 12 NOON.", "ref": "7565400008"}, "type": "Feature"}
{"geometry": {"coordinates": [-94.7982544, 32.148715], "type": "Point"}, "id": "GbyRV87vTicVwcjRpwHWcMG34do=", "properties": {"@spider": "usps_collection_boxes", "addr:city": "HENDERSON", "addr:country": "US", "addr:full": "504 S MARSHALL ST", "addr:postcode": "75654", "addr:state": "TX", "brand": "USPS", "collection_times": "Mo-Fr 17:00; Sa 14:00", "name": "USPS COLLECTION BOX - BLUE BOX", "note": "ON 12/24 AND 12/31, THIS BOX MAY BE COLLECTED AS EARLY AS 12 NOON.", "ref": "7565400010"}, "type": "Feature"}
{"geometry": {"coordinates": [-94.8067921, 32.130037], "type": "Point"}, "id": "StxoKLDqHEy0vABXSPO9EXRVy_Y=", "properties": {"@spider": "usps_collection_boxes", "addr:city": "HENDERSON", "addr:country": "US", "addr:full": "2315 US HIGHWAY 79 S", "addr:postcode": "75654", "addr:state": "TX", "brand": "USPS", "collection_times": "Mo-Sa 13:00", "name": "USPS COLLECTION BOX - BLUE BOX", "note": "ON 12/24 AND 12/31, THIS BOX MAY BE COLLECTED AS EARLY AS 12 NOON.", "ref": "7565400013"}, "type": "Feature"}
{"geometry": {"coordinates": [-94.799493672, 32.149264147], "type": "Point"}, "id": "hkmk_0_FZ_Z2RdffWLmPHvplFrU=", "properties": {"@spider": "usps_collection_boxes", "addr:city": "HENDERSON", "addr:country": "US", "addr:full": "505 S MAIN ST", "addr:postcode": "75654", "addr:state": "TX", "brand": "USPS", "collection_times": "Mo-Fr 16:30", "name": "USPS COLLECTION BOX - PO LOBBY", "note": "ON 12/24 AND 12/31, THIS BOX MAY BE COLLECTED AS EARLY AS 12 NOON.", "ref": "7565400015"}, "type": "Feature"}
{"geometry": {"coordinates": [-94.631911, 32.999187], "type": "Point"}, "id": "Mp7ShjLg6DEnOgjEa4B3cjQVloU=", "properties": {"@spider": "usps_collection_boxes", "addr:city": "HUGHES SPRINGS", "addr:country": "US", "addr:full": "104 E 2ND", "addr:postcode": "75656", "addr:state": "TX", "brand": "USPS", "collection_times": "Mo-Fr 15:00; Sa 08:30", "name": "USPS COLLECTION BOX - BLUE BOX", "note": "ON 12/24 AND 12/31, THIS BOX MAY BE COLLECTED AS EARLY AS 12 NOON.", "ref": "7565600000"}, "type": "Feature"}
{"geometry": {"coordinates": [-94.631911, 32.999187], "type": "Point"}, "id": "i4xY3egu13q_CVTqFKy6_F2-Cow=", "properties": {"@spider": "usps_collection_boxes", "addr:city": "HUGHES SPRINGS", "addr:country": "US", "addr:full": "104 E 2ND", "addr:postcode": "75656", "addr:state": "TX", "brand": "USPS", "collection_times": "Mo-Fr 16:30", "name": "USPS COLLECTION BOX - PO LOBBY", "note": "ON 12/24 AND 12/31, THIS BOX MAY BE COLLECTED AS EARLY AS 12 NOON.", "ref": "7565600005"}, "type": "Feature"}
{"geometry": {"coordinates": [-94.631750277, 32.999220533], "type": "Point"}, "id": "JZACH6EXi2VIkFRlEMqhuv1OlLw=", "properties": {"@spider": "usps_collection_boxes", "addr:city": "HUGHES SPRINGS", "addr:country": "US", "addr:full": "104 E 2ND", "addr:postcode": "75656", "addr:state": "TX", "brand": "USPS", "collection_times": "Mo-Fr 16:30", "name": "USPS COLLECTION BOX - PO LOBBY", "note": "ON 12/24 AND 12/31, THIS BOX MAY BE COLLECTED AS EARLY AS 12 NOON.", "ref": "7565600006"}, "type": "Feature"}
{"geometry": {"coordinates": [-94.34587711, 32.756981175], "type": "Point"}, "id": "nfM8kq2RVWzTp1EkLxxl4tsGpCo=", "properties": {"@spider": "usps_collection_boxes", "addr:city": "JEFFERSON", "addr:country": "US", "addr:full": "119 W LAFAYETTE ST", "addr:postcode": "75657", "addr:state": "TX", "brand": "USPS", "collection_times": "Mo-Fr 09:30", "name": "USPS COLLECTION BOX - BLUE BOX", "ref": "7565706447"}, "type": "Feature"}
{"geometry": {"coordinates": [-94.3466293, 32.760584], "type": "Point"}, "id": "N3Q5A-CtBPOpoIq8yPeww0xM_GQ=", "properties": {"@spider": "usps_collection_boxes", "addr:city": "JEFFERSON", "addr:country": "US", "addr:full": "302 E BROADWAY ST", "addr:postcode": "75657", "addr:state": "TX", "brand": "USPS", "collection_times": "Mo-Fr 10:30", "name": "USPS COLLECTION BOX - BLUE BOX", "ref": "7565706448"}, "type": "Feature"}
{"geometry": {"coordinates": [-94.3565085, 32.761505458], "type": "Point"}, "id": "Y7K-z56f2HpAFIVgpFZAcBOBajs=", "properties": {"@spider": "usps_collection_boxes", "addr:city": "JEFFERSON", "addr:country": "US", "addr:full": "201 W BROADWAY ST", "addr:postcode": "75657", "addr:state": "TX", "brand": "USPS", "collection_times": "Mo-Fr 09:30", "name": "USPS COLLECTION BOX - BLUE BOX", "ref": "7565706449"}, "type": "Feature"}
{"geometry": {"coordinates": [-94.346117, 32.756712], "type": "Point"}, "id": "_5T5B6JOAUC9fR_JaZeULRjnlHw=", "properties": {"@spider": "usps_collection_boxes", "addr:city": "JEFFERSON", "addr:country": "US", "addr:full": "214 W LAFAYETTE ST", "addr:postcode": "75657", "addr:state": "TX", "brand": "USPS", "collection_times": "Mo-Fr 15:30; Sa 10:00", "name": "USPS COLLECTION BOX - BLUE BOX", "note": "ON 12/24 AND 12/31, THIS BOX MAY BE COLLECTED AS EARLY AS 12 NOON.", "ref": "7565706450"}, "type": "Feature"}
{"geometry": {"coordinates": [-94.346117, 32.756712], "type": "Point"}, "id": "8J8H4Rjo2dbTOtk--lUD4SsukPw=", "properties": {"@spider": "usps_collection_boxes", "addr:city": "JEFFERSON", "addr:country": "US", "addr:full": "214 W LAFAYETTE ST", "addr:postcode": "75657", "addr:state": "TX", "brand": "USPS", "collection_times": "Mo-Fr 16:30; Sa 10:00", "name": "USPS COLLECTION BOX - PO LOBBY", "note": "ON 12/24 AND 12/31, THIS BOX MAY BE COLLECTED AS EARLY AS 12 NOON.", "ref": "7565706451"}, "type": "Feature"}
{"geometry": {"coordinates": [-94.346117, 32.756712], "type": "Point"}, "id": "xF7AkTrWLV0ldUKcFJN3WUPB2Ng=", "properties": {"@spider": "usps_collection_boxes", "addr:city": "JEFFERSON", "addr:country": "US", "addr:full": "214 W LAFAYETTE ST", "addr:postcode": "75657", "addr:state": "TX", "brand": "USPS", "collection_times": "Mo-Fr 15:30; Sa 10:00", "name": "USPS COLLECTION BOX - BLUE BOX", "note": "ON 12/24 AND 12/31, THIS BOX MAY BE COLLECTED AS EARLY AS 12 NOON.", "ref": "7565706454"}, "type": "Feature"}
{"geometry": {"coordinates": [-94.346096816, 32.756712336], "type": "Point"}, "id": "vM6k1Bajg1aGC71BVhY6FdtU4-s=", "properties": {"@spider": "usps_collection_boxes", "addr:city": "JEFFERSON", "addr:country": "US", "addr:full": "214 W LAFAYETTE ST", "addr:postcode": "75657", "addr:state": "TX", "brand": "USPS", "collection_times": "Mo-Fr 16:00", "name": "USPS COLLECTION BOX - PO LOBBY", "note": "ON 12/24 AND 12/31, THIS BOX MAY BE COLLECTED AS EARLY AS 12 NOON.", "ref": "7565706456"}, "type": "Feature"}
{"geometry": {"coordinates": [-94.904852405, 32.177759961], "type": "Point"}, "id": "3PzBCcMIZTm3oCzE9dgC4zweXAY=", "properties": {"@spider": "usps_collection_boxes", "addr:city": "JOINERVILLE", "addr:country": "US", "addr:full": "7110 HIGHWAY 64 W", "addr:postcode": "75658", "addr:state": "TX", "brand": "USPS", "collection_times": "Mo-Fr 15:00; Sa 09:30", "name": "USPS COLLECTION BOX - BLUE BOX", "note": "ON 12/24 AND 12/31, THIS BOX MAY BE COLLECTED AS EARLY AS 12 NOON.", "ref": "7565800000"}, "type": "Feature"}
{"geometry": {"coordinates": [-94.904884, 32.17772], "type": "Point"}, "id": "oX0FUMhGLimpbNj16uEE3Op0gSI=", "properties": {"@spider": "usps_collection_boxes", "addr:city": "JOINERVILLE", "addr:country": "US", "addr:full": "7110 HIGHWAY 64 W", "addr:postcode": "75658", "addr:state": "TX", "brand": "USPS", "collection_times": "Mo-Fr 11:30; Sa 09:30", "name": "USPS COLLECTION BOX - PO LOBBY", "ref": "7565800002"}, "type": "Feature"}
{"geometry": {"coordinates": [-94.904856334, 32.177750821], "type": "Point"}, "id": "5AazupESmWuvIUz1Io1XGkWRfGE=", "properties": {"@spider": "usps_collection_boxes", "addr:city": "JOINERVILLE", "addr:country": "US", "addr:full": "7110 HIGHWAY 64 W", "addr:postcode": "75658", "addr:state": "TX", "brand": "USPS", "collection_times": "Mo-Fr 12:00", "name": "USPS COLLECTION BOX - PO LOBBY", "ref": "7565800004"}, "type": "Feature"}
{"geometry": {"coordinates": [-94.11192, 32.49958], "type": "Point"}, "id": "fiOaERFMoUgqrDyTCZj1ciQB3EU=", "properties": {"@spider": "usps_collection_boxes", "addr:city": "JONESVILLE", "addr:country": "US", "addr:full": "2335 FM 134", "addr:postcode": "75659", "addr:state": "TX", "brand": "USPS", "collection_times": "Mo-Fr 16:00; Sa 15:45", "name": "USPS COLLECTION BOX - BLUE BOX", "note": "ON 12/24 AND 12/31, THIS BOX MAY BE COLLECTED AS EARLY AS 12 NOON.", "ref": "7565900000"}, "type": "Feature"}
{"geometry": {"coordinates": [-94.11192, 32.49958], "type": "Point"}, "id": "AjPwQ4--PG4gUBrgFhOgRhfKe88=", "properties": {"@spider": "usps_collection_boxes", "addr:city": "JONESVILLE", "addr:country": "US", "addr:full": "2335 FM 134", "addr:postcode": "75659", "addr:state": "TX", "brand": "USPS", "collection_times": "Mo-Fr 12:00; Sa 09:00", "name": "USPS COLLECTION BOX - PO LOBBY", "ref": "7565900002"}, "type": "Feature"}
{"geometry": {"coordinates": [-94.111161857, 32.499471981], "type": "Point"}, "id": "z5KYTz6xHmYoxOWwRPcbgdenZCE=", "properties": {"@spider": "usps_collection_boxes", "addr:city": "JONESVILLE", "addr:country": "US", "addr:full": "2335 FM 134", "addr:postcode": "75659", "addr:state": "TX", "brand": "USPS", "collection_times": "Mo-Fr 12:30; Sa 09:30", "name": "USPS COLLECTION BOX - PO LOBBY", "note": "ON 12/24 AND 12/31, THIS BOX MAY BE COLLECTED AS EARLY AS 12 NOON.", "ref": "7565900004"}, "type": "Feature"}
{"geometry": {"coordinates": [-94.753350884, 32.5824285997], "type": "Point"}, "id": "C1LWol5F61wc48qjI9-6xmgk1l0=", "properties": {"@spider": "usps_collection_boxes", "addr:city": "JUDSON", "addr:country": "US", "addr:full": "6460 TRYON RD", "addr:postcode": "75660", "addr:state": "TX", "brand": "USPS", "collection_times": "Mo-Fr 15:00; Sa 08:00", "name": "USPS COLLECTION BOX - BLUE BOX", "note": "ON 12/24 AND 12/31, THIS BOX MAY BE COLLECTED AS EARLY AS 12 NOON.", "ref": "7566000000"}, "type": "Feature"}
{"geometry": {"coordinates": [-94.753350884, 32.5824285997], "type": "Point"}, "id": "uZC8UWOv02r69_8Vc5p2gxBZuII=", "properties": {"@spider": "usps_collection_boxes", "addr:city": "JUDSON", "addr:country": "US", "addr:full": "6460 TRYON RD", "addr:postcode": "75660", "addr:state": "TX", "brand": "USPS", "collection_times": "Mo-Fr 15:00; Sa 08:00", "name": "USPS COLLECTION BOX - BLUE BOX", "note": "ON 12/24 AND 12/31, THIS BOX MAY BE COLLECTED AS EARLY AS 12 NOON.", "ref": "7566000001"}, "type": "Feature"}
{"geometry": {"coordinates": [-94.753350884, 32.5824285997], "type": "Point"}, "id": "-FPaEg-a0sGZWDf3zx7xjeMVldE=", "properties": {"@spider": "usps_collection_boxes", "addr:city": "JUDSON", "addr:country": "US", "addr:full": "6460 TRYON RD", "addr:postcode": "75660", "addr:state": "TX", "brand": "USPS", "collection_times": "Mo-Fr 15:00; Sa 08:00", "name": "USPS COLLECTION BOX - PO LOBBY", "note": "ON 12/24 AND 12/31, THIS BOX MAY BE COLLECTED AS EARLY AS 12 NOON.", "ref": "7566000003"}, "type": "Feature"}
{"geometry": {"coordinates": [-94.73440056, 32.579242832], "type": "Point"}, "id": "LhvUzswoS1K7aSb3BFmXDxFCIX0=", "properties": {"@spider": "usps_collection_boxes", "addr:city": "JUDSON", "addr:country": "US", "addr:full": "6460 TRYON RD", "addr:postcode": "75660", "addr:state": "TX", "brand": "USPS", "collection_times": "Mo-Fr 15:30", "name": "USPS COLLECTION BOX - PO LOBBY", "note": "ON 12/24 AND 12/31, THIS BOX MAY BE COLLECTED AS EARLY AS 12 NOON.", "ref": "7566000005"}, "type": "Feature"}
{"geometry": {"coordinates": [-94.169706, 32.666798], "type": "Point"}, "id": "bAtSc6VNjEv4dMfOzPaIIUOYxPc=", "properties": {"@spider": "usps_collection_boxes", "addr:city": "KARNACK", "addr:country": "US", "addr:full": "15592 FM 134", "addr:postcode": "75661", "addr:state": "TX", "brand": "USPS", "collection_times": "Mo-Fr 15:00; Sa 09:30", "name": "USPS COLLECTION BOX - PO LOBBY", "note": "ON 12/24 AND 12/31, THIS BOX MAY BE COLLECTED AS EARLY AS 12 NOON.", "ref": "7566100000"}, "type": "Feature"}
{"geometry": {"coordinates": [-94.169706, 32.666798], "type": "Point"}, "id": "gC8q6DF3x88mvr0ELBa9A1Xb4zM=", "properties": {"@spider": "usps_collection_boxes", "addr:city": "KARNACK", "addr:country": "US", "addr:full": "15592 FM 134", "addr:postcode": "75661", "addr:state": "TX", "brand": "USPS", "collection_times": "Mo-Sa 15:30", "name": "USPS COLLECTION BOX - BLUE BOX", "note": "ON 12/24 AND 12/31, THIS BOX MAY BE COLLECTED AS EARLY AS 12 NOON.", "ref": "7566100001"}, "type": "Feature"}
{"geometry": {"coordinates": [-94.169706267, 32.666791012], "type": "Point"}, "id": "Qy9Uvj6fTzveVAYb0_0Q8T1JiDs=", "properties": {"@spider": "usps_collection_boxes", "addr:city": "KARNACK", "addr:country": "US", "addr:full": "15592 FM 134", "addr:postcode": "75661", "addr:state": "TX", "brand": "USPS", "collection_times": "Mo-Fr 15:30", "name": "USPS COLLECTION BOX - PO LOBBY", "note": "ON 12/24 AND 12/31, THIS BOX MAY BE COLLECTED AS EARLY AS 12 NOON.", "ref": "7566100003"}, "type": "Feature"}
{"geometry": {"coordinates": [-94.9447403103, 32.4367248723], "type": "Point"}, "id": "WeyreH-QuGZ6jRnzJC0PbAW8B-U=", "properties": {"@spider": "usps_collection_boxes", "addr:city": "KILGORE", "addr:country": "US", "addr:full": "6144 OLD HIGHWAY 135 N", "addr:postcode": "75662", "addr:state": "TX", "brand": "USPS", "collection_times": "Mo-Sa 10:30", "name": "USPS COLLECTION BOX - BLUE BOX", "ref": "7566206541"}, "type": "Feature"}
{"geometry": {"coordinates": [-94.872624, 32.389386], "type": "Point"}, "id": "hv54x8B3svMvSrI6NyZ6b-v7ObE=", "properties": {"@spider": "usps_collection_boxes", "addr:city": "KILGORE", "addr:country": "US", "addr:full": "500 N KILGORE ST", "addr:postcode": "75662", "addr:state": "TX", "brand": "USPS", "collection_times": "Mo-Fr 17:00; Sa 15:30", "name": "USPS COLLECTION BOX - PO LOBBY", "note": "ON 12/24 AND 12/31, THIS BOX MAY BE COLLECTED AS EARLY AS 12 NOON.", "ref": "7566206546"}, "type": "Feature"}
{"geometry": {"coordinates": [-94.872624, 32.389386], "type": "Point"}, "id": "ezkyD98Jqd4Key8P77osBnO7kmk=", "properties": {"@spider": "usps_collection_boxes", "addr:city": "KILGORE", "addr:country": "US", "addr:full": "500 N KILGORE ST", "addr:postcode": "75662", "addr:state": "TX", "brand": "USPS", "collection_times": "Mo-Fr 17:00; Sa 15:30", "name": "USPS COLLECTION BOX - PO LOBBY", "note": "ON 12/24 AND 12/31, THIS BOX MAY BE COLLECTED AS EARLY AS 12 NOON.", "ref": "7566206547"}, "type": "Feature"}
{"geometry": {"coordinates": [-94.872624, 32.389386], "type": "Point"}, "id": "IefF2NmdTwEZhq58TPDKGzC1cjg=", "properties": {"@spider": "usps_collection_boxes", "addr:city": "KILGORE", "addr:country": "US", "addr:full": "500 N KILGORE ST", "addr:postcode": "75662", "addr:state": "TX", "brand": "USPS", "collection_times": "Mo-Fr 17:00; Sa 15:30", "name": "USPS COLLECTION BOX - BLUE BOX", "note": "ON 12/24 AND 12/31, THIS BOX MAY BE COLLECTED AS EARLY AS 12 NOON.", "ref": "7566206553"}, "type": "Feature"}
{"geometry": {"coordinates": [-94.872624, 32.389386], "type": "Point"}, "id": "BqJ32e8mZ7Akdao1xxvaH3hz0UY=", "properties": {"@spider": "usps_collection_boxes", "addr:city": "KILGORE", "addr:country": "US", "addr:full": "500 N KILGORE ST", "addr:postcode": "75662", "addr:state": "TX", "brand": "USPS", "collection_times": "Mo-Fr 17:00; Sa 15:30", "name": "USPS COLLECTION BOX - PO LOBBY", "note": "ON 12/24 AND 12/31, THIS BOX MAY BE COLLECTED AS EARLY AS 12 NOON.", "ref": "7566206554"}, "type": "Feature"}
{"geometry": {"coordinates": [-94.859211, 32.390871], "type": "Point"}, "id": "pnjzuggbo8uyX7pPdKo7Ytk5hFU=", "properties": {"@spider": "usps_collection_boxes", "addr:city": "KILGORE", "addr:country": "US", "addr:full": "1100 STONE RD", "addr:postcode": "75662", "addr:state": "TX", "brand": "USPS", "collection_times": "Mo-Fr 14:30", "name": "USPS COLLECTION BOX - BLUE BOX", "note": "ON 12/24 AND 12/31, THIS BOX MAY BE COLLECTED AS EARLY AS 12 NOON.", "ref": "7566206557"}, "type": "Feature"}
{"geometry": {"coordinates": [-94.8746818247, 32.3855441235], "type": "Point"}, "id": "EZ7Lae1ITzeGnzDbeKT6F5uCTTo=", "properties": {"@spider": "usps_collection_boxes", "addr:city": "KILGORE", "addr:country": "US", "addr:full": "301 E MAIN ST", "addr:postcode": "75662", "addr:state": "TX", "brand": "USPS", "collection_times": "Mo-Fr 09:00", "name": "USPS COLLECTION BOX - BLUE BOX", "ref": "7566206559"}, "type": "Feature"}
{"geometry": {"coordinates": [-94.872634436, 32.389384592], "type": "Point"}, "id": "-KeJY6CnuE-ubExNSW3Df73-JP0=", "properties": {"@spider": "usps_collection_boxes", "addr:city": "KILGORE", "addr:country": "US", "addr:full": "500 N KILGORE ST", "addr:postcode": "75662", "addr:state": "TX", "brand": "USPS", "collection_times": "Mo-Fr 16:30", "name": "USPS COLLECTION BOX - PO LOBBY", "note": "ON 12/24 AND 12/31, THIS BOX MAY BE COLLECTED AS EARLY AS 12 NOON.", "ref": "7566206562"}, "type": "Feature"}
{"geometry": {"coordinates": [-94.9045224094, 32.3542121655], "type": "Point"}, "id": "JOUjGYJJgF_Jn923pRPmtU7s-Kk=", "properties": {"@spider": "usps_collection_boxes", "addr:city": "LAIRD HILL", "addr:country": "US", "addr:full": "10992 STATE HIGHWAY 42 N", "addr:postcode": "75666", "addr:state": "TX", "brand": "USPS", "collection_times": "Mo-Fr 14:30; Sa 07:45", "name": "USPS COLLECTION BOX - PO LOBBY", "note": "ON 12/24 AND 12/31, THIS BOX MAY BE COLLECTED AS EARLY AS 12 NOON.", "ref": "7566600001"}, "type": "Feature"}
{"geometry": {"coordinates": [-94.9045224094, 32.3542121655], "type": "Point"}, "id": "qC8sYGbSQNCwAsFzpdq2xQnJq5s=", "properties": {"@spider": "usps_collection_boxes", "addr:city": "LAIRD HILL", "addr:country": "US", "addr:full": "10992 STATE HIGHWAY 42 N", "addr:postcode": "75666", "addr:state": "TX", "brand": "USPS", "collection_times": "Mo-Fr 14:30; Sa 07:45", "name": "USPS COLLECTION BOX - PO LOBBY", "note": "ON 12/24 AND 12/31, THIS BOX MAY BE COLLECTED AS EARLY AS 12 NOON.", "ref": "7566600002"}, "type": "Feature"}
{"geometry": {"coordinates": [-94.925611048, 32.3303475692], "type": "Point"}, "id": "YBXE0J9pmy74oZqTS_F5a_uGx6U=", "properties": {"@spider": "usps_collection_boxes", "addr:city": "LAIRD HILL", "addr:country": "US", "addr:full": "10992 STATE HIGHWAY 42 N", "addr:postcode": "75666", "addr:state": "TX", "brand": "USPS", "collection_times": "Mo-Fr 15:00; Sa 07:45", "name": "USPS COLLECTION BOX - BLUE BOX", "note": "ON 12/24 AND 12/31, THIS BOX MAY BE COLLECTED AS EARLY AS 12 NOON.", "ref": "7566600003"}, "type": "Feature"}
{"geometry": {"coordinates": [-94.925611048, 32.330347569], "type": "Point"}, "id": "6hQPJHQE_CbjTuwDXYqx9FZLSUM=", "properties": {"@spider": "usps_collection_boxes", "addr:city": "LAIRD HILL", "addr:country": "US", "addr:full": "10992 STATE HIGHWAY 42 N", "addr:postcode": "75666", "addr:state": "TX", "brand": "USPS", "collection_times": "Mo-Fr 15:00", "name": "USPS COLLECTION BOX - PO LOBBY", "note": "ON 12/24 AND 12/31, THIS BOX MAY BE COLLECTED AS EARLY AS 12 NOON.", "ref": "7566600005"}, "type": "Feature"}
{"geometry": {"coordinates": [-94.81456, 31.972076], "type": "Point"}, "id": "X1dPap9llq5r8Z7rcIcz9Xo0vfY=", "properties": {"@spider": "usps_collection_boxes", "addr:city": "LANEVILLE", "addr:country": "US", "addr:full": "13836 FM 225 S", "addr:postcode": "75667", "addr:state": "TX", "brand": "USPS", "collection_times": "Mo-Sa 15:30", "name": "USPS COLLECTION BOX - BLUE BOX", "note": "ON 12/24 AND 12/31, THIS BOX MAY BE COLLECTED AS EARLY AS 12 NOON.", "ref": "7566700000"}, "type": "Feature"}
{"geometry": {"coordinates": [-94.81456, 31.972076], "type": "Point"}, "id": "BtrIn7XH1_phMVS23yd0H0qzeR4=", "properties": {"@spider": "usps_collection_boxes", "addr:city": "LANEVILLE", "addr:country": "US", "addr:full": "13836 FM 225 S", "addr:postcode": "75667", "addr:state": "TX", "brand": "USPS", "collection_times": "Mo-Fr 11:00; Sa 07:00", "name": "USPS COLLECTION BOX - PO LOBBY", "ref": "7566700001"}, "type": "Feature"}
{"geometry": {"coordinates": [-94.81456, 31.972076], "type": "Point"}, "id": "7JGHrUvcicgKSR2e6jJ4InOW79E=", "properties": {"@spider": "usps_collection_boxes", "addr:city": "LANEVILLE", "addr:country": "US", "addr:full": "13836 FM 225 S", "addr:postcode": "75667", "addr:state": "TX", "brand": "USPS", "collection_times": "Mo-Fr 11:00; Sa 07:00", "name": "USPS COLLECTION BOX - PO LOBBY", "ref": "7566700002"}, "type": "Feature"}
{"geometry": {"coordinates": [-94.814544067, 31.972230042], "type": "Point"}, "id": "qaFaGRmwEF_NRUNCyKAYvS67ZgU=", "properties": {"@spider": "usps_collection_boxes", "addr:city": "LANEVILLE", "addr:country": "US", "addr:full": "13836 FM 225 S", "addr:postcode": "75667", "addr:state": "TX", "brand": "USPS", "collection_times": "Mo-Fr 11:30", "name": "USPS COLLECTION BOX - PO LOBBY", "ref": "7566700004"}, "type": "Feature"}
{"geometry": {"coordinates": [-94.711145, 32.944394], "type": "Point"}, "id": "6ysXbnlVILjy4mpaQf29wvr7TPE=", "properties": {"@spider": "usps_collection_boxes", "addr:city": "LONE STAR", "addr:country": "US", "addr:full": "308 N MAIN ST", "addr:postcode": "75668", "addr:state": "TX", "brand": "USPS", "collection_times": "Mo-Fr 16:00", "name": "USPS COLLECTION BOX - PO LOBBY", "note": "ON 12/24 AND 12/31, THIS BOX MAY BE COLLECTED AS EARLY AS 12 NOON.", "ref": "7566800004"}, "type": "Feature"}
{"geometry": {"coordinates": [-94.7107394, 32.945273], "type": "Point"}, "id": "VLSFAzTAduHuZTUxz0DWWP37dbk=", "properties": {"@spider": "usps_collection_boxes", "addr:city": "LONE STAR", "addr:country": "US", "addr:full": "308 N MAIN ST", "addr:postcode": "75668", "addr:state": "TX", "brand": "USPS", "collection_times": "Mo-Fr 15:00; Sa 09:00", "name": "USPS COLLECTION BOX - BLUE BOX", "note": "ON 12/24 AND 12/31, THIS BOX MAY BE COLLECTED AS EARLY AS 12 NOON.", "ref": "7566800005"}, "type": "Feature"}
{"geometry": {"coordinates": [-94.711008152, 32.945328598], "type": "Point"}, "id": "8dIg0ADhytZNcQT_rpYT_VYsM9k=", "properties": {"@spider": "usps_collection_boxes", "addr:city": "LONE STAR", "addr:country": "US", "addr:full": "308 N MAIN ST", "addr:postcode": "75668", "addr:state": "TX", "brand": "USPS", "collection_times": "Mo-Fr 16:00", "name": "USPS COLLECTION BOX - PO LOBBY", "note": "ON 12/24 AND 12/31, THIS BOX MAY BE COLLECTED AS EARLY AS 12 NOON.", "ref": "7566800006"}, "type": "Feature"}
{"geometry": {"coordinates": [-94.568476, 32.07453], "type": "Point"}, "id": "tcyhZ-Rkb1h7M39ozxPsmk83dcY=", "properties": {"@spider": "usps_collection_boxes", "addr:city": "LONG BRANCH", "addr:country": "US", "addr:full": "671 FM 348", "addr:postcode": "75669", "addr:state": "TX", "brand": "USPS", "collection_times": "Mo-Sa 15:45", "name": "USPS COLLECTION BOX - BLUE BOX", "note": "ON 12/24 AND 12/31, THIS BOX MAY BE COLLECTED AS EARLY AS 12 NOON.", "ref": "7566900000"}, "type": "Feature"}
{"geometry": {"coordinates": [-94.568476, 32.07453], "type": "Point"}, "id": "NISvbz7lHs38ddDNlmbiKVWGstM=", "properties": {"@spider": "usps_collection_boxes", "addr:city": "LONG BRANCH", "addr:country": "US", "addr:full": "671 FM 348", "addr:postcode": "75669", "addr:state": "TX", "brand": "USPS", "collection_times": "Mo-Fr 11:00; Sa 08:30", "name": "USPS COLLECTION BOX - PO LOBBY", "ref": "7566900001"}, "type": "Feature"}
{"geometry": {"coordinates": [-94.568488041, 32.074477003], "type": "Point"}, "id": "MhoRevj66UrvC8xOZO1alFw6mD8=", "properties": {"@spider": "usps_collection_boxes", "addr:city": "LONG BRANCH", "addr:country": "US", "addr:full": "671 FM 348", "addr:postcode": "75669", "addr:state": "TX", "brand": "USPS", "collection_times": "Mo-Fr 11:45", "name": "USPS COLLECTION BOX - PO LOBBY", "ref": "7566900003"}, "type": "Feature"}
{"geometry": {"coordinates": [-94.365941, 32.541513], "type": "Point"}, "id": "jbQDyxDnHoKWxEYmFfdiHNUWZEI=", "properties": {"@spider": "usps_collection_boxes", "addr:city": "MARSHALL", "addr:country": "US", "addr:full": "202 E TRAVIS ST", "addr:postcode": "75670", "addr:state": "TX", "brand": "USPS", "collection_times": "Mo-Fr 17:00; Sa 13:00", "name": "USPS COLLECTION BOX - BLUE BOX", "note": "ON 12/24 AND 12/31, THIS BOX MAY BE COLLECTED AS EARLY AS 12 NOON.", "ref": "7567006917"}, "type": "Feature"}
{"geometry": {"coordinates": [-94.365941, 32.541513], "type": "Point"}, "id": "OGoTKxjc-l7XbF9B_x1DyA4U454=", "properties": {"@spider": "usps_collection_boxes", "addr:city": "MARSHALL", "addr:country": "US", "addr:full": "202 E TRAVIS ST", "addr:postcode": "75670", "addr:state": "TX", "brand": "USPS", "collection_times": "Mo-Fr 17:00; Sa 13:00", "name": "USPS COLLECTION BOX - BLUE BOX", "note": "ON 12/24 AND 12/31, THIS BOX MAY BE COLLECTED AS EARLY AS 12 NOON.", "ref": "7567006919"}, "type": "Feature"}
{"geometry": {"coordinates": [-94.358261886, 32.526938455], "type": "Point"}, "id": "5tpga0NYToa-HLAea0Y6KnJtJpc=", "properties": {"@spider": "usps_collection_boxes", "addr:city": "MARSHALL", "addr:country": "US", "addr:full": "905 E PINECREST DR", "addr:postcode": "75670", "addr:state": "TX", "brand": "USPS", "collection_times": "Mo-Sa 11:00", "name": "USPS COLLECTION BOX - BLUE BOX", "ref": "7567006928"}, "type": "Feature"}
{"geometry": {"coordinates": [-94.3623547, 32.54173], "type": "Point"}, "id": "doGmsU-zThpGRlB8C2F-cv-pI74=", "properties": {"@spider": "usps_collection_boxes", "addr:city": "MARSHALL", "addr:country": "US", "addr:full": "505 E TRAVIS ST", "addr:postcode": "75670", "addr:state": "TX", "brand": "USPS", "collection_times": "Mo-Sa 15:00", "name": "USPS COLLECTION BOX - BLUE BOX", "note": "ON 12/24 AND 12/31, THIS BOX MAY BE COLLECTED AS EARLY AS 12 NOON.", "ref": "7567006929"}, "type": "Feature"}
{"geometry": {"coordinates": [-94.3668944, 32.544621], "type": "Point"}, "id": "fIWDEByiHnXpPWMon_UnfnLiNrQ=", "properties": {"@spider": "usps_collection_boxes", "addr:city": "MARSHALL", "addr:country": "US", "addr:full": "104 E HOUSTON ST", "addr:postcode": "75670", "addr:state": "TX", "brand": "USPS", "collection_times": "Mo-Sa 09:00", "name": "USPS COLLECTION BOX - BLUE BOX", "ref": "7567006933"}, "type": "Feature"}
{"geometry": {"coordinates": [-94.3694061, 32.544935], "type": "Point"}, "id": "RDZz0ZLNoe9lv_WXPS_P-7D6Lvc=", "properties": {"@spider": "usps_collection_boxes", "addr:city": "MARSHALL", "addr:country": "US", "addr:full": "300 W HOUSTON ST", "addr:postcode": "75670", "addr:state": "TX", "brand": "USPS", "collection_times": "Mo-Sa 10:00", "name": "USPS COLLECTION BOX - BLUE BOX", "ref": "7567006935"}, "type": "Feature"}
{"geometry": {"coordinates": [-94.3559908, 32.548642], "type": "Point"}, "id": "GgrlsK0VF30hzx_j9T2yjI_wyjY=", "properties": {"@spider": "usps_collection_boxes", "addr:city": "MARSHALL", "addr:country": "US", "addr:full": "1209 E GRAND AVE", "addr:postcode": "75670", "addr:state": "TX", "brand": "USPS", "collection_times": "Mo-Sa 10:00", "name": "USPS COLLECTION BOX - BLUE BOX", "ref": "7567006937"}, "type": "Feature"}
{"geometry": {"coordinates": [-94.3498454, 32.546927], "type": "Point"}, "id": "LT4KytryYXrX9LpvLfSocD2qVpY=", "properties": {"@spider": "usps_collection_boxes", "addr:city": "MARSHALL", "addr:country": "US", "addr:full": "300 E END BLVD N", "addr:postcode": "75670", "addr:state": "TX", "brand": "USPS", "collection_times": "Mo-Sa 10:45", "name": "USPS COLLECTION BOX - BLUE BOX", "ref": "7567006940"}, "type": "Feature"}
{"geometry": {"coordinates": [-94.3703319, 32.536097], "type": "Point"}, "id": "IrYe-kmgaJk6e2leRim7-xLNIVk=", "properties": {"@spider": "usps_collection_boxes", "addr:city": "MARSHALL", "addr:country": "US", "addr:full": "304 UNIVERSITY AVE", "addr:postcode": "75670", "addr:state": "TX", "brand": "USPS", "collection_times": "Mo-Sa 15:00", "name": "USPS COLLECTION BOX - BLUE BOX", "note": "ON 12/24 AND 12/31, THIS BOX MAY BE COLLECTED AS EARLY AS 12 NOON.", "ref": "7567006946"}, "type": "Feature"}
{"geometry": {"coordinates": [-94.3671596, 32.546681], "type": "Point"}, "id": "Wou3csqsWG8G_sEcjYNyXnW_RhA=", "properties": {"@spider": "usps_collection_boxes", "addr:city": "MARSHALL", "addr:country": "US", "addr:full": "216 N WASHINGTON AVE", "addr:postcode": "75670", "addr:state": "TX", "brand": "USPS", "collection_times": "Mo-Sa 09:15", "name": "USPS COLLECTION BOX - BLUE BOX", "ref": "7567007258"}, "type": "Feature"}
{"geometry": {"coordinates": [-94.365941, 32.541513], "type": "Point"}, "id": "VhA3JlZNXp7kQPK6pQW6sEk7K6o=", "properties": {"@spider": "usps_collection_boxes", "addr:city": "MARSHALL", "addr:country": "US", "addr:full": "202 E TRAVIS ST", "addr:postcode": "75670", "addr:state": "TX", "brand": "USPS", "collection_times": "Mo-Fr 17:00; Sa 13:00", "name": "USPS COLLECTION BOX - PO LOBBY", "note": "ON 12/24 AND 12/31, THIS BOX MAY BE COLLECTED AS EARLY AS 12 NOON.", "ref": "7567007336"}, "type": "Feature"}
{"geometry": {"coordinates": [-94.365941, 32.541513], "type": "Point"}, "id": "dQwdb-18C_WOpr9SC9Uqjl2Sc84=", "properties": {"@spider": "usps_collection_boxes", "addr:city": "MARSHALL", "addr:country": "US", "addr:full": "202 E TRAVIS ST", "addr:postcode": "75670", "addr:state": "TX", "brand": "USPS", "collection_times": "Mo-Fr 17:00; Sa 13:00", "name": "USPS COLLECTION BOX - PO LOBBY", "note": "ON 12/24 AND 12/31, THIS BOX MAY BE COLLECTED AS EARLY AS 12 NOON.", "ref": "7567007337"}, "type": "Feature"}
{"geometry": {"coordinates": [-94.3653946, 32.545995], "type": "Point"}, "id": "lpqeSawr2XcIK5u54YZznzmJG78=", "properties": {"@spider": "usps_collection_boxes", "addr:city": "MARSHALL", "addr:country": "US", "addr:full": "215 E AUSTIN ST", "addr:postcode": "75670", "addr:state": "TX", "brand": "USPS", "collection_times": "Mo-Sa 09:30", "name": "USPS COLLECTION BOX - BLUE BOX", "ref": "7567007339"}, "type": "Feature"}
{"geometry": {"coordinates": [-94.3582233, 32.555357], "type": "Point"}, "id": "rqTzG2flV4jzvxhPVrZ6VNxcXGg=", "properties": {"@spider": "usps_collection_boxes", "addr:city": "MARSHALL", "addr:country": "US", "addr:full": "1001 POPLAR ST", "addr:postcode": "75670", "addr:state": "TX", "brand": "USPS", "collection_times": "Mo-Sa 12:45", "name": "USPS COLLECTION BOX - BLUE BOX", "note": "ON 12/24 AND 12/31, THIS BOX MAY BE COLLECTED AS EARLY AS 12 NOON.", "ref": "7567007340"}, "type": "Feature"}
{"geometry": {"coordinates": [-94.36594292, 32.541511553], "type": "Point"}, "id": "Or-RKL59g1dCrOeSYBqRJZnrxkE=", "properties": {"@spider": "usps_collection_boxes", "addr:city": "MARSHALL", "addr:country": "US", "addr:full": "202 E TRAVIS ST", "addr:postcode": "75670", "addr:state": "TX", "brand": "USPS", "collection_times": "Mo-Fr 17:00", "name": "USPS COLLECTION BOX - PO LOBBY", "note": "ON 12/24 AND 12/31, THIS BOX MAY BE COLLECTED AS EARLY AS 12 NOON.", "ref": "7567007344"}, "type": "Feature"}
{"geometry": {"coordinates": [-94.67858, 31.91843], "type": "Point"}, "id": "uh1Yrrq9w4hmlu97-7jvbXDTN0w=", "properties": {"@spider": "usps_collection_boxes", "addr:city": "MT ENTERPRISE", "addr:country": "US", "addr:full": "211 E RUSK ST", "addr:postcode": "75681", "addr:state": "TX", "brand": "USPS", "collection_times": "Mo-Fr 16:00; Sa 09:30", "name": "USPS COLLECTION BOX - BLUE BOX", "note": "ON 12/24 AND 12/31, THIS BOX MAY BE COLLECTED AS EARLY AS 12 NOON.", "ref": "7568100001"}, "type": "Feature"}
{"geometry": {"coordinates": [-94.67858, 31.91843], "type": "Point"}, "id": "9cIn2Y9sOFVFVaJ6ifS4oGzTuGk=", "properties": {"@spider": "usps_collection_boxes", "addr:city": "MT ENTERPRISE", "addr:country": "US", "addr:full": "211 E RUSK ST", "addr:postcode": "75681", "addr:state": "TX", "brand": "USPS", "collection_times": "Mo-Fr 16:00; Sa 09:30", "name": "USPS COLLECTION BOX - PO LOBBY", "note": "ON 12/24 AND 12/31, THIS BOX MAY BE COLLECTED AS EARLY AS 12 NOON.", "ref": "7568100003"}, "type": "Feature"}
{"geometry": {"coordinates": [-94.678634549, 31.918316541], "type": "Point"}, "id": "wznijo7DC5Fp0k2WtQlPg_KEwe0=", "properties": {"@spider": "usps_collection_boxes", "addr:city": "MT ENTERPRISE", "addr:country": "US", "addr:full": "211 E RUSK ST", "addr:postcode": "75681", "addr:state": "TX", "brand": "USPS", "collection_times": "Mo-Fr 16:00", "name": "USPS COLLECTION BOX - PO LOBBY", "note": "ON 12/24 AND 12/31, THIS BOX MAY BE COLLECTED AS EARLY AS 12 NOON.", "ref": "7568100004"}, "type": "Feature"}
{"geometry": {"coordinates": [-94.942067, 32.238064], "type": "Point"}, "id": "O2krrXU9RbFycJSl3j9vCyuJBjg=", "properties": {"@spider": "usps_collection_boxes", "addr:city": "NEW LONDON", "addr:country": "US", "addr:full": "10750 S MAIN ST", "addr:postcode": "75682", "addr:state": "TX", "brand": "USPS", "collection_times": "Mo-Fr 16:00; Sa 08:30", "name": "USPS COLLECTION BOX - BLUE BOX", "note": "ON 12/24 AND 12/31, THIS BOX MAY BE COLLECTED AS EARLY AS 12 NOON.", "ref": "7568200000"}, "type": "Feature"}
{"geometry": {"coordinates": [-94.925456518, 32.281091552], "type": "Point"}, "id": "88p7QI9QD4GEd0mxfmwWX39gHRs=", "properties": {"@spider": "usps_collection_boxes", "addr:city": "NEW LONDON", "addr:country": "US", "addr:full": "10750 S MAIN ST", "addr:postcode": "75682", "addr:state": "TX", "brand": "USPS", "collection_times": "Mo-Fr 16:00", "name": "USPS COLLECTION BOX - PO LOBBY", "note": "ON 12/24 AND 12/31, THIS BOX MAY BE COLLECTED AS EARLY AS 12 NOON.", "ref": "7568200004"}, "type": "Feature"}
{"geometry": {"coordinates": [-94.737986, 32.894764], "type": "Point"}, "id": "hYLUeqUDFmqyD-SctVED9IRvJP4=", "properties": {"@spider": "usps_collection_boxes", "addr:city": "ORE CITY", "addr:country": "US", "addr:full": "203 US HIGHWAY 259 N", "addr:postcode": "75683", "addr:state": "TX", "brand": "USPS", "collection_times": "Mo-Fr 16:00; Sa 09:30", "name": "USPS COLLECTION BOX - BLUE BOX", "note": "ON 12/24 AND 12/31, THIS BOX MAY BE COLLECTED AS EARLY AS 12 NOON.", "ref": "7568300001"}, "type": "Feature"}
{"geometry": {"coordinates": [-94.737986, 32.894761], "type": "Point"}, "id": "B2RNBHYyfWSuujIYVAcbMwmjymU=", "properties": {"@spider": "usps_collection_boxes", "addr:city": "ORE CITY", "addr:country": "US", "addr:full": "203 US HIGHWAY 259 N", "addr:postcode": "75683", "addr:state": "TX", "brand": "USPS", "collection_times": "Mo-Fr 16:00; Sa 09:30", "name": "USPS COLLECTION BOX - PO LOBBY", "note": "ON 12/24 AND 12/31, THIS BOX MAY BE COLLECTED AS EARLY AS 12 NOON.", "ref": "7568300002"}, "type": "Feature"}
{"geometry": {"coordinates": [-94.737986, 32.894761], "type": "Point"}, "id": "e3QbISKGkhLSHtXaJMuhO-bXLNA=", "properties": {"@spider": "usps_collection_boxes", "addr:city": "ORE CITY", "addr:country": "US", "addr:full": "203 US HIGHWAY 259 N", "addr:postcode": "75683", "addr:state": "TX", "brand": "USPS", "collection_times": "Mo-Fr 16:00; Sa 09:30", "name": "USPS COLLECTION BOX - PO LOBBY", "note": "ON 12/24 AND 12/31, THIS BOX MAY BE COLLECTED AS EARLY AS 12 NOON.", "ref": "7568300003"}, "type": "Feature"}
{"geometry": {"coordinates": [-94.721533864, 32.798827415], "type": "Point"}, "id": "fNbPiAXfgn3GD_7J8tCv7Ps8jdE=", "properties": {"@spider": "usps_collection_boxes", "addr:city": "ORE CITY", "addr:country": "US", "addr:full": "203 US HIGHWAY 259 S", "addr:postcode": "75683", "addr:state": "TX", "brand": "USPS", "collection_times": "Mo-Fr 16:00", "name": "USPS COLLECTION BOX - PO LOBBY", "note": "ON 12/24 AND 12/31, THIS BOX MAY BE COLLECTED AS EARLY AS 12 NOON.", "ref": "7568300004"}, "type": "Feature"}
{"geometry": {"coordinates": [-94.977108, 32.273544], "type": "Point"}, "id": "ll6yqAyjUAtXDKtOWozW9cPGiDQ=", "properties": {"@spider": "usps_collection_boxes", "addr:city": "OVERTON", "addr:country": "US", "addr:full": "115 S RUSK ST", "addr:postcode": "75684", "addr:state": "TX", "brand": "USPS", "collection_times": "Mo-Fr 16:00; Sa 08:00", "name": "USPS COLLECTION BOX - BLUE BOX", "note": "ON 12/24 AND 12/31, THIS BOX MAY BE COLLECTED AS EARLY AS 12 NOON.", "ref": "7568400000"}, "type": "Feature"}
{"geometry": {"coordinates": [-94.977108, 32.273544], "type": "Point"}, "id": "F6wuyON9Q08wvL2GFJI35QnnM0w=", "properties": {"@spider": "usps_collection_boxes", "addr:city": "OVERTON", "addr:country": "US", "addr:full": "115 S RUSK ST", "addr:postcode": "75684", "addr:state": "TX", "brand": "USPS", "collection_times": "Mo-Fr 16:00; Sa 08:00", "name": "USPS COLLECTION BOX - PO LOBBY", "note": "ON 12/24 AND 12/31, THIS BOX MAY BE COLLECTED AS EARLY AS 12 NOON.", "ref": "7568400005"}, "type": "Feature"}
{"geometry": {"coordinates": [-94.977108, 32.273544], "type": "Point"}, "id": "6Teg_VrzzrDvlfKPhWbfvVh0Jf0=", "properties": {"@spider": "usps_collection_boxes", "addr:city": "OVERTON", "addr:country": "US", "addr:full": "115 S RUSK ST", "addr:postcode": "75684", "addr:state": "TX", "brand": "USPS", "collection_times": "Mo-Fr 16:00; Sa 08:00", "name": "USPS COLLECTION BOX - PO LOBBY", "note": "ON 12/24 AND 12/31, THIS BOX MAY BE COLLECTED AS EARLY AS 12 NOON.", "ref": "7568400006"}, "type": "Feature"}
{"geometry": {"coordinates": [-94.9770823525, 32.2736717463], "type": "Point"}, "id": "9HISNMBo8VNvXFUeZRQvzwu3Gbs=", "properties": {"@spider": "usps_collection_boxes", "addr:city": "OVERTON", "addr:country": "US", "addr:full": "115 S RUSK ST", "addr:postcode": "75684", "addr:state": "TX", "brand": "USPS", "collection_times": "Mo-Fr 16:00", "name": "USPS COLLECTION BOX - PO LOBBY", "note": "ON 12/24 AND 12/31, THIS BOX MAY BE COLLECTED AS EARLY AS 12 NOON.", "ref": "7568400007"}, "type": "Feature"}
{"geometry": {"coordinates": [-94.09195, 32.358244], "type": "Point"}, "id": "Vw_arkff8TCJl0a6ej2aPlVk8MU=", "properties": {"@spider": "usps_collection_boxes", "addr:city": "PANOLA", "addr:country": "US", "addr:full": "175 S FM 9", "addr:postcode": "75685", "addr:state": "TX", "brand": "USPS", "collection_times": "Mo-Fr 16:30; Sa 09:00", "name": "USPS COLLECTION BOX - BLUE BOX", "note": "ON 12/24 AND 12/31, THIS BOX MAY BE COLLECTED AS EARLY AS 12 NOON.", "ref": "7568500000"}, "type": "Feature"}
{"geometry": {"coordinates": [-94.09193, 32.358272], "type": "Point"}, "id": "0-P11VJhkbtOyRzgpbhuhV8OrYU=", "properties": {"@spider": "usps_collection_boxes", "addr:city": "PANOLA", "addr:country": "US", "addr:full": "175 S FM 9", "addr:postcode": "75685", "addr:state": "TX", "brand": "USPS", "collection_times": "Mo-Fr 16:30; Sa 09:00", "name": "USPS COLLECTION BOX - PO LOBBY", "note": "ON 12/24 AND 12/31, THIS BOX MAY BE COLLECTED AS EARLY AS 12 NOON.", "ref": "7568500001"}, "type": "Feature"}
{"geometry": {"coordinates": [-94.0920206977, 32.3582951292], "type": "Point"}, "id": "ZqA_v3Ha9G9bccQdh_kxHZJ5bNQ=", "properties": {"@spider": "usps_collection_boxes", "addr:city": "PANOLA", "addr:country": "US", "addr:full": "175 S FM 9", "addr:postcode": "75685", "addr:state": "TX", "brand": "USPS", "collection_times": "Mo-Fr 16:30", "name": "USPS COLLECTION BOX - PO LOBBY", "note": "ON 12/24 AND 12/31, THIS BOX MAY BE COLLECTED AS EARLY AS 12 NOON.", "ref": "7568500003"}, "type": "Feature"}
{"geometry": {"coordinates": [-94.965947, 32.994523], "type": "Point"}, "id": "WIDNXLFxm9Lfka-U8MkG1K-0-A0=", "properties": {"@spider": "usps_collection_boxes", "addr:city": "PITTSBURG", "addr:country": "US", "addr:full": "151 E MARSHALL ST", "addr:postcode": "75686", "addr:state": "TX", "brand": "USPS", "collection_times": "Mo-Fr 16:30; Sa 15:30", "name": "USPS COLLECTION BOX - PO LOBBY", "note": "ON 12/24 AND 12/31, THIS BOX MAY BE COLLECTED AS EARLY AS 12 NOON.", "ref": "7568606403"}, "type": "Feature"}
{"geometry": {"coordinates": [-94.965947, 32.994523], "type": "Point"}, "id": "ijOP9cDiQ9ZGq4Ury9VZ5KYwQeE=", "properties": {"@spider": "usps_collection_boxes", "addr:city": "PITTSBURG", "addr:country": "US", "addr:full": "151 E MARSHALL ST", "addr:postcode": "75686", "addr:state": "TX", "brand": "USPS", "collection_times": "Mo-Fr 16:30; Sa 15:30", "name": "USPS COLLECTION BOX - PO LOBBY", "note": "ON 12/24 AND 12/31, THIS BOX MAY BE COLLECTED AS EARLY AS 12 NOON.", "ref": "7568606404"}, "type": "Feature"}
{"geometry": {"coordinates": [-94.965947, 32.994523], "type": "Point"}, "id": "GYwYf83jEgHPPME1MxMTCpkXALA=", "properties": {"@spider": "usps_collection_boxes", "addr:city": "PITTSBURG", "addr:country": "US", "addr:full": "151 E MARSHALL ST", "addr:postcode": "75686", "addr:state": "TX", "brand": "USPS", "collection_times": "Mo-Sa 15:30", "name": "USPS COLLECTION BOX - BLUE BOX", "note": "ON 12/24 AND 12/31, THIS BOX MAY BE COLLECTED AS EARLY AS 12 NOON.", "ref": "7568606408"}, "type": "Feature"}
{"geometry": {"coordinates": [-94.966008228, 32.99453313], "type": "Point"}, "id": "tQwefpBTMfGIriW635QqmKRhOWY=", "properties": {"@spider": "usps_collection_boxes", "addr:city": "PITTSBURG", "addr:country": "US", "addr:full": "151 E MARSHALL ST", "addr:postcode": "75686", "addr:state": "TX", "brand": "USPS", "collection_times": "Mo-Fr 16:30", "name": "USPS COLLECTION BOX - PO LOBBY", "note": "ON 12/24 AND 12/31, THIS BOX MAY BE COLLECTED AS EARLY AS 12 NOON.", "ref": "7568606410"}, "type": "Feature"}
{"geometry": {"coordinates": [-94.943932117, 32.133852623], "type": "Point"}, "id": "sKeil1tAu-FEGGbPibSsGTOcHvM=", "properties": {"@spider": "usps_collection_boxes", "addr:city": "PRICE", "addr:country": "US", "addr:full": "9031 FM 13", "addr:postcode": "75687", "addr:state": "TX", "brand": "USPS", "collection_times": "Mo-Sa 16:00", "name": "USPS COLLECTION BOX - BLUE BOX", "note": "ON 12/24 AND 12/31, THIS BOX MAY BE COLLECTED AS EARLY AS 12 NOON.", "ref": "7568700000"}, "type": "Feature"}
{"geometry": {"coordinates": [-94.982266, 32.109735], "type": "Point"}, "id": "ftvtkJ5O06iFRJ3wH4msmZtWbeg=", "properties": {"@spider": "usps_collection_boxes", "addr:city": "PRICE", "addr:country": "US", "addr:full": "9031 FM 13", "addr:postcode": "75687", "addr:state": "TX", "brand": "USPS", "collection_times": "Mo-Fr 11:30; Sa 09:00", "name": "USPS COLLECTION BOX - PO LOBBY", "ref": "7568700002"}, "type": "Feature"}
{"geometry": {"coordinates": [-94.943988265, 32.133833727], "type": "Point"}, "id": "rG-atJQYWaLoVi-gc7GnZXEePq4=", "properties": {"@spider": "usps_collection_boxes", "addr:city": "PRICE", "addr:country": "US", "addr:full": "9031 FM 13", "addr:postcode": "75687", "addr:state": "TX", "brand": "USPS", "collection_times": "Mo-Fr 12:00; Sa 09:30", "name": "USPS COLLECTION BOX - PO LOBBY", "ref": "7568700004"}, "type": "Feature"}
{"geometry": {"coordinates": [-94.247874, 32.518765], "type": "Point"}, "id": "Gylue1CpVcmEcbuIX1Pbmdv8elk=", "properties": {"@spider": "usps_collection_boxes", "addr:city": "SCOTTSVILLE", "addr:country": "US", "addr:full": "8657 US HIGHWAY 80 E", "addr:postcode": "75688", "addr:state": "TX", "brand": "USPS", "collection_times": "Mo-Fr 14:30; Sa 09:00", "name": "USPS COLLECTION BOX - PO LOBBY", "note": "ON 12/24 AND 12/31, THIS BOX MAY BE COLLECTED AS EARLY AS 12 NOON.", "ref": "7568800001"}, "type": "Feature"}
{"geometry": {"coordinates": [-94.247886, 32.51874], "type": "Point"}, "id": "xQnmG3Ate-GK3YzKUrrvjnTdgQA=", "properties": {"@spider": "usps_collection_boxes", "addr:city": "SCOTTSVILLE", "addr:country": "US", "addr:full": "8657 US HIGHWAY 80 E", "addr:postcode": "75688", "addr:state": "TX", "brand": "USPS", "collection_times": "Mo-Fr 16:30; Sa 09:00", "name": "USPS COLLECTION BOX - BLUE BOX", "note": "ON 12/24 AND 12/31, THIS BOX MAY BE COLLECTED AS EARLY AS 12 NOON.", "ref": "7568800002"}, "type": "Feature"}
{"geometry": {"coordinates": [-94.249266413, 32.519042075], "type": "Point"}, "id": "6lQLlzmz6gaKl810DWdMpgW1qwk=", "properties": {"@spider": "usps_collection_boxes", "addr:city": "SCOTTSVILLE", "addr:country": "US", "addr:full": "8657 US HIGHWAY 80 E", "addr:postcode": "75688", "addr:state": "TX", "brand": "USPS", "collection_times": "Mo-Fr 14:30", "name": "USPS COLLECTION BOX - PO LOBBY", "note": "ON 12/24 AND 12/31, THIS BOX MAY BE COLLECTED AS EARLY AS 12 NOON.", "ref": "7568800005"}, "type": "Feature"}
{"geometry": {"coordinates": [-94.955547427, 32.190920383], "type": "Point"}, "id": "RBOQ4jO0lyRb0GHR52-2rGTqSWY=", "properties": {"@spider": "usps_collection_boxes", "addr:city": "SELMAN CITY", "addr:country": "US", "addr:full": "10310 HIGHWAY 64 W", "addr:postcode": "75689", "addr:state": "TX", "brand": "USPS", "collection_times": "Mo-Sa 15:30", "name": "USPS COLLECTION BOX - BLUE BOX", "note": "ON 12/24 AND 12/31, THIS BOX MAY BE COLLECTED AS EARLY AS 12 NOON.", "ref": "7568907323"}, "type": "Feature"}
{"geometry": {"coordinates": [-94.955547427, 32.190920383], "type": "Point"}, "id": "z1ikdkXuAWiC3UI8m3l--YYwA9o=", "properties": {"@spider": "usps_collection_boxes", "addr:city": "SELMAN CITY", "addr:country": "US", "addr:full": "10310 HIGHWAY 64 W", "addr:postcode": "75689", "addr:state": "TX", "brand": "USPS", "collection_times": "Mo-Fr 11:30; Sa 08:00", "name": "USPS COLLECTION BOX - PO LOBBY", "ref": "7568907324"}, "type": "Feature"}
{"geometry": {"coordinates": [-94.955547427, 32.190920383], "type": "Point"}, "id": "ADCW9un4g3Z1f3P4TzaJq9PHoAo=", "properties": {"@spider": "usps_collection_boxes", "addr:city": "SELMAN CITY", "addr:country": "US", "addr:full": "10310 HIGHWAY 64 W", "addr:postcode": "75689", "addr:state": "TX", "brand": "USPS", "collection_times": "Mo-Fr 11:30; Sa 08:00", "name": "USPS COLLECTION BOX - PO LOBBY", "ref": "7568907325"}, "type": "Feature"}
{"geometry": {"coordinates": [-94.955547427, 32.190920383], "type": "Point"}, "id": "aDmPebIB9yrgZx3d3LXIHPTwk9A=", "properties": {"@spider": "usps_collection_boxes", "addr:city": "SELMAN CITY", "addr:country": "US", "addr:full": "10310 HIGHWAY 64 W", "addr:postcode": "75689", "addr:state": "TX", "brand": "USPS", "collection_times": "Mo-Fr 12:00", "name": "USPS COLLECTION BOX - PO LOBBY", "ref": "7568907327"}, "type": "Feature"}
{"geometry": {"coordinates": [-94.5177658949, 32.314436203], "type": "Point"}, "id": "nM6xPcSu6qpFkq8uPu2wnAVDBks=", "properties": {"@spider": "usps_collection_boxes", "addr:city": "TATUM", "addr:country": "US", "addr:full": "165 N HOOD ST", "addr:postcode": "75691", "addr:state": "TX", "brand": "USPS", "collection_times": "Mo-Fr 16:00; Sa 09:30", "name": "USPS COLLECTION BOX - BLUE BOX", "note": "ON 12/24 AND 12/31, THIS BOX MAY BE COLLECTED AS EARLY AS 12 NOON.", "ref": "7569100001"}, "type": "Feature"}
{"geometry": {"coordinates": [-94.517685, 32.313909], "type": "Point"}, "id": "djPX3zxVVORRphHXB7lLn3ovsxo=", "properties": {"@spider": "usps_collection_boxes", "addr:city": "TATUM", "addr:country": "US", "addr:full": "265 N HOOD ST", "addr:postcode": "75691", "addr:state": "TX", "brand": "USPS", "collection_times": "Mo-Fr 16:00; Sa 09:30", "name": "USPS COLLECTION BOX - PO LOBBY", "note": "ON 12/24 AND 12/31, THIS BOX MAY BE COLLECTED AS EARLY AS 12 NOON.", "ref": "7569100003"}, "type": "Feature"}
{"geometry": {"coordinates": [-94.5177928062, 32.3144453205], "type": "Point"}, "id": "Ctv_5QOcMxsXsFVzl3JNOTzPXZQ=", "properties": {"@spider": "usps_collection_boxes", "addr:city": "TATUM", "addr:country": "US", "addr:full": "165 N HOOD ST", "addr:postcode": "75691", "addr:state": "TX", "brand": "USPS", "collection_times": "Mo-Fr 16:00", "name": "USPS COLLECTION BOX - PO LOBBY", "note": "ON 12/24 AND 12/31, THIS BOX MAY BE COLLECTED AS EARLY AS 12 NOON.", "ref": "7569100004"}, "type": "Feature"}
{"geometry": {"coordinates": [-94.0630594, 32.479577], "type": "Point"}, "id": "Nm1aFRpeLxiowHu8rHjNrboQLSA=", "properties": {"@spider": "usps_collection_boxes", "addr:city": "WASKOM", "addr:country": "US", "addr:full": "396 W TEXAS AVE", "addr:postcode": "75692", "addr:state": "TX", "brand": "USPS", "collection_times": "Mo-Fr 09:00", "name": "USPS COLLECTION BOX - BLUE BOX", "ref": "7569200000"}, "type": "Feature"}
{"geometry": {"coordinates": [-94.0532326, 32.475004], "type": "Point"}, "id": "fCfaML1wbVVIv63qS2HIlIr0sXU=", "properties": {"@spider": "usps_collection_boxes", "addr:city": "WASKOM", "addr:country": "US", "addr:full": "265 SPUR 156", "addr:postcode": "75692", "addr:state": "TX", "brand": "USPS", "collection_times": "Mo-Fr 16:00; Sa 09:00", "name": "USPS COLLECTION BOX - BLUE BOX", "note": "ON 12/24 AND 12/31, THIS BOX MAY BE COLLECTED AS EARLY AS 12 NOON.", "ref": "7569200001"}, "type": "Feature"}
{"geometry": {"coordinates": [-94.0532391, 32.475014], "type": "Point"}, "id": "esMGHlzi-Pr7Qbl6NtyHyuL6b3s=", "properties": {"@spider": "usps_collection_boxes", "addr:city": "WASKOM", "addr:country": "US", "addr:full": "265 SPUR 156", "addr:postcode": "75692", "addr:state": "TX", "brand": "USPS", "collection_times": "Mo-Fr 16:00; Sa 09:00", "name": "USPS COLLECTION BOX - BLUE BOX", "note": "ON 12/24 AND 12/31, THIS BOX MAY BE COLLECTED AS EARLY AS 12 NOON.", "ref": "7569200002"}, "type": "Feature"}
{"geometry": {"coordinates": [-94.0449005, 32.463226], "type": "Point"}, "id": "mYZ1ttUtP6PKNaue9sMFBqY8zd4=", "properties": {"@spider": "usps_collection_boxes", "addr:city": "WASKOM", "addr:country": "US", "addr:full": "1255 N INTERSTATE 20 WEST", "addr:postcode": "75692", "addr:state": "TX", "brand": "USPS", "collection_times": "Mo-Fr 10:00", "name": "USPS COLLECTION BOX - BLUE BOX", "ref": "7569200003"}, "type": "Feature"}
{"geometry": {"coordinates": [-94.0534723, 32.475127], "type": "Point"}, "id": "li44fNj-icq_JhxzGDxdHvjlqAw=", "properties": {"@spider": "usps_collection_boxes", "addr:city": "WASKOM", "addr:country": "US", "addr:full": "265 SPUR 156", "addr:postcode": "75692", "addr:state": "TX", "brand": "USPS", "collection_times": "Mo-Fr 16:00; Sa 09:00", "name": "USPS COLLECTION BOX - PO LOBBY", "note": "ON 12/24 AND 12/31, THIS BOX MAY BE COLLECTED AS EARLY AS 12 NOON.", "ref": "7569200005"}, "type": "Feature"}
{"geometry": {"coordinates": [-94.053001752, 32.475049909], "type": "Point"}, "id": "j4QV7lOj0sTJR3SY0QXrRMYntuM=", "properties": {"@spider": "usps_collection_boxes", "addr:city": "WASKOM", "addr:country": "US", "addr:full": "265 SPUR 156", "addr:postcode": "75692", "addr:state": "TX", "brand": "USPS", "collection_times": "Mo-Fr 16:00", "name": "USPS COLLECTION BOX - PO LOBBY", "note": "ON 12/24 AND 12/31, THIS BOX MAY BE COLLECTED AS EARLY AS 12 NOON.", "ref": "7569200006"}, "type": "Feature"}
{"geometry": {"coordinates": [-94.8620511897, 32.5187058723], "type": "Point"}, "id": "DQdE3osvi4sPp0Qty-086ILufB8=", "properties": {"@spider": "usps_collection_boxes", "addr:city": "WHITE OAK", "addr:country": "US", "addr:full": "1200 S WHITE OAK RD", "addr:postcode": "75693", "addr:state": "TX", "brand": "USPS", "collection_times": "Mo-Fr 15:00; Sa 14:00", "name": "USPS COLLECTION BOX - BLUE BOX", "note": "ON 12/24 AND 12/31, THIS BOX MAY BE COLLECTED AS EARLY AS 12 NOON.", "ref": "7569306355"}, "type": "Feature"}
{"geometry": {"coordinates": [-94.861772, 32.51958], "type": "Point"}, "id": "LqoAaSj3x1_ABHAUvXeZInISPZ8=", "properties": {"@spider": "usps_collection_boxes", "addr:city": "WHITE OAK", "addr:country": "US", "addr:full": "1200 S WHITE OAK RD", "addr:postcode": "75693", "addr:state": "TX", "brand": "USPS", "collection_times": "Mo-Fr 15:00; Sa 14:00", "name": "USPS COLLECTION BOX - PO LOBBY", "note": "ON 12/24 AND 12/31, THIS BOX MAY BE COLLECTED AS EARLY AS 12 NOON.", "ref": "7569306358"}, "type": "Feature"}
{"geometry": {"coordinates": [-94.86205119, 32.518705872], "type": "Point"}, "id": "CDsSLQrCkMF0qoi5L8fTNjdDB0U=", "properties": {"@spider": "usps_collection_boxes", "addr:city": "WHITE OAK", "addr:country": "US", "addr:full": "1200 S WHITE OAK RD", "addr:postcode": "75693", "addr:state": "TX", "brand": "USPS", "collection_times": "Mo-Fr 16:00", "name": "USPS COLLECTION BOX - PO LOBBY", "note": "ON 12/24 AND 12/31, THIS BOX MAY BE COLLECTED AS EARLY AS 12 NOON.", "ref": "7569306359"}, "type": "Feature"}
{"geometry": {"coordinates": [-94.3428363665, 32.6662961182], "type": "Point"}, "id": "koILqaKaKiU2y9Q9XUOB5Zg6UJs=", "properties": {"@spider": "usps_collection_boxes", "addr:city": "WOODLAWN", "addr:country": "US", "addr:full": "9600 US HIGHWAY 59 N", "addr:postcode": "75694", "addr:state": "TX", "brand": "USPS", "collection_times": "Mo-Fr 16:00; Sa 09:30", "name": "USPS COLLECTION BOX - BLUE BOX", "note": "ON 12/24 AND 12/31, THIS BOX MAY BE COLLECTED AS EARLY AS 12 NOON.", "ref": "7569400000"}, "type": "Feature"}
{"geometry": {"coordinates": [-94.3428363665, 32.6662961182], "type": "Point"}, "id": "emgQ5Jyflx3FItiWHj2ZHRxkKjg=", "properties": {"@spider": "usps_collection_boxes", "addr:city": "WOODLAWN", "addr:country": "US", "addr:full": "9600 US HIGHWAY 59 N", "addr:postcode": "75694", "addr:state": "TX", "brand": "USPS", "collection_times": "Mo-Fr 11:30; Sa 09:30", "name": "USPS COLLECTION BOX - PO LOBBY", "ref": "7569400001"}, "type": "Feature"}
{"geometry": {"coordinates": [-94.343627055, 32.664757076], "type": "Point"}, "id": "-3bwX3xI-F5_IUIEt4WbaafKKEY=", "properties": {"@spider": "usps_collection_boxes", "addr:city": "WOODLAWN", "addr:country": "US", "addr:full": "9620 US HIGHWAY 59 N", "addr:postcode": "75694", "addr:state": "TX", "brand": "USPS", "collection_times": "Mo-Fr 14:00", "name": "USPS COLLECTION BOX - PO LOBBY", "note": "ON 12/24 AND 12/31, THIS BOX MAY BE COLLECTED AS EARLY AS 12 NOON.", "ref": "7569400003"}, "type": "Feature"}
