{"geometry": {"coordinates": [-95.2889449, 32.342765], "type": "Point"}, "id": "Jm5OgoXj0c5xXAvV04kqmSHU7ZE=", "properties": {"@source_uri": "https://tools.usps.com/UspsToolsRestServices/rest/POLocator/findLocations", "@spider": "usps_collection_boxes", "addr:city": "TYLER", "addr:country": "US", "addr:postcode": "75701", "addr:state": "TX", "addr:street_address": "619 S FLEISHEL AVE", "amenity": "post_box", "collection_times": "Mo-Fr 11:00", "nsi_id": "unitedstatespostalservice-a77078", "operator": "United States Postal Service", "operator:short": "USPS", "operator:type": "public", "operator:wikidata": "Q668687", "ref": "7570106858"}, "type": "Feature"}
{"geometry": {"coordinates": [-95.2909459, 32.342341], "type": "Point"}, "id": "DsO0FT6JzdEjMRZSlGN1-FaFHj8=", "properties": {"@source_uri": "https://tools.usps.com/UspsToolsRestServices/rest/POLocator/findLocations", "@spider": "usps_collection_boxes", "addr:city": "TYLER", "addr:country": "US", "addr:postcode": "75701", "addr:state": "TX", "addr:street_address": "1530 SSW 323 LOOP", "amenity": "post_box", "collection_times": "Mo-Fr 11:30", "nsi_id": "unitedstatespostalservice-a77078", "operator": "United States Postal Service", "operator:short": "USPS", "operator:type": "public", "operator:wikidata": "Q668687", "ref": "7570106859"}, "type": "Feature"}
{"geometry": {"coordinates": [-95.2885614, 32.339865], "type": "Point"}, "id": "bLk6pe-8Nlv6-KbodWCrUWfSxU4=", "properties": {"@source_uri": "https://tools.usps.com/UspsToolsRestServices/rest/POLocator/findLocations", "@spider": "usps_collection_boxes", "addr:city": "TYLER", "addr:country": "US", "addr:postcode": "75701", "addr:state": "TX", "addr:street_address": "826 S FLEISHEL AVE", "amenity": "post_box", "collection_times": "Mo-Fr 16:00; Sa 13:00", "note": "ON 12/24 AND 12/31, THIS BOX MAY BE COLLECTED AS EARLY AS 12 NOON.", "nsi_id": "unitedstatespostalservice-a77078", "operator": "United States Postal Service", "operator:short": "USPS", "operator:type": "public", "operator:wikidata": "Q668687", "ref": "7570106860"}, "type": "Feature"}
{"geometry": {"coordinates": [-95.2880407, 32.33705], "type": "Point"}, "id": "04duPN254Zbx169ONMDXHEPvJak=", "properties": {"@source_uri": "https://tools.usps.com/UspsToolsRestServices/rest/POLocator/findLocations", "@spider": "usps_collection_boxes", "addr:city": "TYLER", "addr:country": "US", "addr:postcode": "75701", "addr:state": "TX", "addr:street_address": "1100 E LAKE ST", "amenity": "post_box", "collection_times": "Mo-Fr 16:00", "note": "ON 12/24 AND 12/31, THIS BOX MAY BE COLLECTED AS EARLY AS 12 NOON.", "nsi_id": "unitedstatespostalservice-a77078", "operator": "United States Postal Service", "operator:short": "USPS", "operator:type": "public", "operator:wikidata": "Q668687", "ref": "7570106898"}, "type": "Feature"}
{"geometry": {"coordinates": [-95.2891958, 32.333367], "type": "Point"}, "id": "1yFFWq_Fktq0vh7WqIYYLpeTcRY=", "properties": {"@source_uri": "https://tools.usps.com/UspsToolsRestServices/rest/POLocator/findLocations", "@spider": "usps_collection_boxes", "addr:city": "TYLER", "addr:country": "US", "addr:postcode": "75701", "addr:state": "TX", "addr:street_address": "1020 E 2ND ST", "amenity": "post_box", "collection_times": "Mo-Fr 16:30", "note": "ON 12/24 AND 12/31, THIS BOX MAY BE COLLECTED AS EARLY AS 12 NOON.", "nsi_id": "unitedstatespostalservice-a77078", "operator": "United States Postal Service", "operator:short": "USPS", "operator:type": "public", "operator:wikidata": "Q668687", "ref": "7570106899"}, "type": "Feature"}
{"geometry": {"coordinates": [-95.2911533, 32.301414], "type": "Point"}, "id": "Ceg1VgbsIZcuiYqg_t_TCMoq56E=", "properties": {"@source_uri": "https://tools.usps.com/UspsToolsRestServices/rest/POLocator/findLocations", "@spider": "usps_collection_boxes", "addr:city": "TYLER", "addr:country": "US", "addr:postcode": "75701", "addr:state": "TX", "addr:street_address": "909 E SOUTHEAST LOOP 323", "amenity": "post_box", "collection_times": "Mo-Fr 15:30", "note": "ON 12/24 AND 12/31, THIS BOX MAY BE COLLECTED AS EARLY AS 12 NOON.", "nsi_id": "unitedstatespostalservice-a77078", "operator": "United States Postal Service", "operator:short": "USPS", "operator:type": "public", "operator:wikidata": "Q668687", "ref": "7570106900"}, "type": "Feature"}
{"geometry": {"coordinates": [-95.3008646, 32.309168], "type": "Point"}, "id": "jRUsmshBlyDDzJ8D-TMnEmjxglc=", "properties": {"@source_uri": "https://tools.usps.com/UspsToolsRestServices/rest/POLocator/findLocations", "@spider": "usps_collection_boxes", "addr:city": "TYLER", "addr:country": "US", "addr:postcode": "75701", "addr:state": "TX", "addr:street_address": "3613 S BROADWAY AVE", "amenity": "post_box", "collection_times": "Mo-Fr 12:00", "nsi_id": "unitedstatespostalservice-a77078", "operator": "United States Postal Service", "operator:short": "USPS", "operator:type": "public", "operator:wikidata": "Q668687", "ref": "7570106903"}, "type": "Feature"}
{"geometry": {"coordinates": [-95.2875124, 32.303243], "type": "Point"}, "id": "np_tbsTACTzh207MhRoKiisnbJE=", "properties": {"@source_uri": "https://tools.usps.com/UspsToolsRestServices/rest/POLocator/findLocations", "@spider": "usps_collection_boxes", "addr:city": "TYLER", "addr:country": "US", "addr:postcode": "75701", "addr:state": "TX", "addr:street_address": "1121 E SOUTHEAST LOOP 323", "amenity": "post_box", "collection_times": "Mo-Fr 15:45", "note": "ON 12/24 AND 12/31, THIS BOX MAY BE COLLECTED AS EARLY AS 12 NOON.", "nsi_id": "unitedstatespostalservice-a77078", "operator": "United States Postal Service", "operator:short": "USPS", "operator:type": "public", "operator:wikidata": "Q668687", "ref": "7570106904"}, "type": "Feature"}
{"geometry": {"coordinates": [-95.2983654, 32.303977], "type": "Point"}, "id": "ebObC93Qaz9-yOZWlWuuaIOX-bc=", "properties": {"@source_uri": "https://tools.usps.com/UspsToolsRestServices/rest/POLocator/findLocations", "@spider": "usps_collection_boxes", "addr:city": "TYLER", "addr:country": "US", "addr:postcode": "75701", "addr:state": "TX", "addr:street_address": "322 E SOUTHEAST LOOP 323", "amenity": "post_box", "collection_times": "Mo-Sa 15:00", "note": "ON 12/24 AND 12/31, THIS BOX MAY BE COLLECTED AS EARLY AS 12 NOON.", "nsi_id": "unitedstatespostalservice-a77078", "operator": "United States Postal Service", "operator:short": "USPS", "operator:type": "public", "operator:wikidata": "Q668687", "ref": "7570106905"}, "type": "Feature"}
{"geometry": {"coordinates": [-95.2778205, 32.311206], "type": "Point"}, "id": "EW4CsLNAy-W8nsJ1AnqblGRjiE0=", "properties": {"@source_uri": "https://tools.usps.com/UspsToolsRestServices/rest/POLocator/findLocations", "@spider": "usps_collection_boxes", "addr:city": "TYLER", "addr:country": "US", "addr:postcode": "75701", "addr:state": "TX", "addr:street_address": "1900 E SOUTHEAST LOOP 323", "amenity": "post_box", "collection_times": "Mo-Fr 16:15; Sa 13:00", "note": "ON 12/24 AND 12/31, THIS BOX MAY BE COLLECTED AS EARLY AS 12 NOON.", "nsi_id": "unitedstatespostalservice-a77078", "operator": "United States Postal Service", "operator:short": "USPS", "operator:type": "public", "operator:wikidata": "Q668687", "ref": "7570106906"}, "type": "Feature"}
{"geometry": {"coordinates": [-95.2790976, 32.317527], "type": "Point"}, "id": "Y6gzFaDxNYeBJH0D8X5Dim9U-j0=", "properties": {"@source_uri": "https://tools.usps.com/UspsToolsRestServices/rest/POLocator/findLocations", "@spider": "usps_collection_boxes", "addr:city": "TYLER", "addr:country": "US", "addr:postcode": "75701", "addr:state": "TX", "addr:street_address": "1801 TROUP HWY", "amenity": "post_box", "collection_times": "Mo-Fr 16:15; Sa 13:00", "note": "ON 12/24 AND 12/31, THIS BOX MAY BE COLLECTED AS EARLY AS 12 NOON.", "nsi_id": "unitedstatespostalservice-a77078", "operator": "United States Postal Service", "operator:short": "USPS", "operator:type": "public", "operator:wikidata": "Q668687", "ref": "7570106908"}, "type": "Feature"}
{"geometry": {"coordinates": [-95.2752825, 32.314689], "type": "Point"}, "id": "pupOCks-_UF0FR6rBWyEzZwaYiI=", "properties": {"@source_uri": "https://tools.usps.com/UspsToolsRestServices/rest/POLocator/findLocations", "@spider": "usps_collection_boxes", "addr:city": "TYLER", "addr:country": "US", "addr:postcode": "75701", "addr:state": "TX", "addr:street_address": "3200 TROUP HWY", "amenity": "post_box", "collection_times": "Mo-Fr 16:15; Sa 13:00", "note": "ON 12/24 AND 12/31, THIS BOX MAY BE COLLECTED AS EARLY AS 12 NOON.", "nsi_id": "unitedstatespostalservice-a77078", "operator": "United States Postal Service", "operator:short": "USPS", "operator:type": "public", "operator:wikidata": "Q668687", "ref": "7570106911"}, "type": "Feature"}
{"geometry": {"coordinates": [-95.3387357, 32.310196], "type": "Point"}, "id": "sLGiXFgC9SgaMQvLdd5kCVe0o4U=", "properties": {"@source_uri": "https://tools.usps.com/UspsToolsRestServices/rest/POLocator/findLocations", "@spider": "usps_collection_boxes", "addr:city": "TYLER", "addr:country": "US", "addr:postcode": "75701", "addr:state": "TX", "addr:street_address": "3350 S SOUTHWEST LOOP 323", "amenity": "post_box", "collection_times": "Mo-Fr 10:00", "nsi_id": "unitedstatespostalservice-a77078", "operator": "United States Postal Service", "operator:short": "USPS", "operator:type": "public", "operator:wikidata": "Q668687", "ref": "7570106915"}, "type": "Feature"}
{"geometry": {"coordinates": [-95.308757, 32.305566], "type": "Point"}, "id": "SsYKUhEUGmQxjr4S2wkZA1-B8Tk=", "properties": {"@source_uri": "https://tools.usps.com/UspsToolsRestServices/rest/POLocator/findLocations", "@spider": "usps_collection_boxes", "addr:city": "TYLER", "addr:country": "US", "addr:postcode": "75701", "addr:state": "TX", "addr:street_address": "3910 BROOKSIDE DR", "amenity": "post_box", "collection_times": "Mo-Fr 11:00", "nsi_id": "unitedstatespostalservice-a77078", "operator": "United States Postal Service", "operator:short": "USPS", "operator:type": "public", "operator:wikidata": "Q668687", "ref": "7570106918"}, "type": "Feature"}
{"geometry": {"coordinates": [-95.2999964967, 32.3281758056], "type": "Point"}, "id": "d3bw2sUyHQJsczEm2mWxJ-Sx-qI=", "properties": {"@source_uri": "https://tools.usps.com/UspsToolsRestServices/rest/POLocator/findLocations", "@spider": "usps_collection_boxes", "addr:city": "TYLER", "addr:country": "US", "addr:postcode": "75701", "addr:state": "TX", "addr:street_address": "120 E 8TH ST", "amenity": "post_box", "collection_times": "Mo-Fr 16:00; Sa 13:00", "note": "ON 12/24 AND 12/31, THIS BOX MAY BE COLLECTED AS EARLY AS 12 NOON.", "nsi_id": "unitedstatespostalservice-a77078", "operator": "United States Postal Service", "operator:short": "USPS", "operator:type": "public", "operator:wikidata": "Q668687", "ref": "7570106924"}, "type": "Feature"}
{"geometry": {"coordinates": [-95.2655136, 32.331361], "type": "Point"}, "id": "EC5MDUZyZDWs_GjZTx--BRQM2HY=", "properties": {"@source_uri": "https://tools.usps.com/UspsToolsRestServices/rest/POLocator/findLocations", "@spider": "usps_collection_boxes", "addr:city": "TYLER", "addr:country": "US", "addr:postcode": "75701", "addr:state": "TX", "addr:street_address": "1702 S SOUTHEAST LOOP 323", "amenity": "post_box", "collection_times": "Mo-Fr 16:00; Sa 13:00", "note": "ON 12/24 AND 12/31, THIS BOX MAY BE COLLECTED AS EARLY AS 12 NOON.", "nsi_id": "unitedstatespostalservice-a77078", "operator": "United States Postal Service", "operator:short": "USPS", "operator:type": "public", "operator:wikidata": "Q668687", "ref": "7570106929"}, "type": "Feature"}
{"geometry": {"coordinates": [-95.3123620547, 32.3035032952], "type": "Point"}, "id": "EQILZ68Zj1uhn1nYAsnIWecALuA=", "properties": {"@source_uri": "https://tools.usps.com/UspsToolsRestServices/rest/POLocator/findLocations", "@spider": "usps_collection_boxes", "addr:city": "TYLER", "addr:country": "US", "addr:postcode": "75701", "addr:state": "TX", "addr:street_address": "1000 W SOUTHWEST LOOP 323", "amenity": "post_box", "collection_times": "Mo-Fr 15:30; Sa 13:00", "note": "ON 12/24 AND 12/31, THIS BOX MAY BE COLLECTED AS EARLY AS 12 NOON.", "nsi_id": "unitedstatespostalservice-a77078", "operator": "United States Postal Service", "operator:short": "USPS", "operator:type": "public", "operator:wikidata": "Q668687", "ref": "7570106933"}, "type": "Feature"}
{"geometry": {"coordinates": [-95.2991438, 32.313023], "type": "Point"}, "id": "UZAqZB2IPdi9UPX4Qwj1o-5X_bs=", "properties": {"@source_uri": "https://tools.usps.com/UspsToolsRestServices/rest/POLocator/findLocations", "@spider": "usps_collection_boxes", "addr:city": "TYLER", "addr:country": "US", "addr:postcode": "75701", "addr:state": "TX", "addr:street_address": "3304 S BROADWAY AVE", "amenity": "post_box", "collection_times": "Mo-Fr 11:30", "nsi_id": "unitedstatespostalservice-a77078", "operator": "United States Postal Service", "operator:short": "USPS", "operator:type": "public", "operator:wikidata": "Q668687", "ref": "7570106935"}, "type": "Feature"}
{"geometry": {"coordinates": [-95.2729399946, 32.3124659864], "type": "Point"}, "id": "M4eGMkY3zP9uFfdQNUtuiScJ_vE=", "properties": {"@source_uri": "https://tools.usps.com/UspsToolsRestServices/rest/POLocator/findLocations", "@spider": "usps_collection_boxes", "addr:city": "TYLER", "addr:country": "US", "addr:postcode": "75701", "addr:state": "TX", "addr:street_address": "3320 TROUP HWY", "amenity": "post_box", "collection_times": "Mo-Fr 16:30; Sa 13:00", "note": "ON 12/24 AND 12/31, THIS BOX MAY BE COLLECTED AS EARLY AS 12 NOON.", "nsi_id": "unitedstatespostalservice-a77078", "operator": "United States Postal Service", "operator:short": "USPS", "operator:type": "public", "operator:wikidata": "Q668687", "ref": "7570106942"}, "type": "Feature"}
{"geometry": {"coordinates": [-95.300724, 32.320689], "type": "Point"}, "id": "ySpy8KEV6mhgx6px6lfw2tnI0K8=", "properties": {"@source_uri": "https://tools.usps.com/UspsToolsRestServices/rest/POLocator/findLocations", "@spider": "usps_collection_boxes", "addr:city": "TYLER", "addr:country": "US", "addr:postcode": "75701", "addr:state": "TX", "addr:street_address": "2627 S BROADWAY AVE", "amenity": "post_box", "collection_times": "Mo-Sa 17:00", "note": "ON 12/24 AND 12/31, THIS BOX MAY BE COLLECTED AS EARLY AS 12 NOON.", "nsi_id": "unitedstatespostalservice-a77078", "operator": "United States Postal Service", "operator:short": "USPS", "operator:type": "public", "operator:wikidata": "Q668687", "ref": "7570106950"}, "type": "Feature"}
{"geometry": {"coordinates": [-95.2927663, 32.3021], "type": "Point"}, "id": "e46lVIKOQ5H2Gd6J5ArCLz36OAc=", "properties": {"@source_uri": "https://tools.usps.com/UspsToolsRestServices/rest/POLocator/findLocations", "@spider": "usps_collection_boxes", "addr:city": "TYLER", "addr:country": "US", "addr:postcode": "75701", "addr:state": "TX", "addr:street_address": "821 E SOUTHEAST LOOP 323", "amenity": "post_box", "collection_times": "Mo-Fr 15:30", "note": "ON 12/24 AND 12/31, THIS BOX MAY BE COLLECTED AS EARLY AS 12 NOON.", "nsi_id": "unitedstatespostalservice-a77078", "operator": "United States Postal Service", "operator:short": "USPS", "operator:type": "public", "operator:wikidata": "Q668687", "ref": "7570106957"}, "type": "Feature"}
{"geometry": {"coordinates": [-95.300724, 32.320689], "type": "Point"}, "id": "shpO_MwrVehFje-PooeWoJZmNYA=", "properties": {"@source_uri": "https://tools.usps.com/UspsToolsRestServices/rest/POLocator/findLocations", "@spider": "usps_collection_boxes", "addr:city": "TYLER", "addr:country": "US", "addr:postcode": "75701", "addr:state": "TX", "addr:street_address": "2627 S BROADWAY AVE", "amenity": "post_box", "collection_times": "Mo-Sa 17:00", "indoor": "yes", "note": "ON 12/24 AND 12/31, THIS BOX MAY BE COLLECTED AS EARLY AS 12 NOON.", "nsi_id": "unitedstatespostalservice-a77078", "operator": "United States Postal Service", "operator:short": "USPS", "operator:type": "public", "operator:wikidata": "Q668687", "ref": "7570106960"}, "type": "Feature"}
{"geometry": {"coordinates": [-95.300724, 32.320689], "type": "Point"}, "id": "v2mnJt4npcIV1eWOobtiqt-ynpM=", "properties": {"@source_uri": "https://tools.usps.com/UspsToolsRestServices/rest/POLocator/findLocations", "@spider": "usps_collection_boxes", "addr:city": "TYLER", "addr:country": "US", "addr:postcode": "75701", "addr:state": "TX", "addr:street_address": "2627 S BROADWAY AVE", "amenity": "post_box", "collection_times": "Mo-Sa 17:00", "indoor": "yes", "note": "ON 12/24 AND 12/31, THIS BOX MAY BE COLLECTED AS EARLY AS 12 NOON.", "nsi_id": "unitedstatespostalservice-a77078", "operator": "United States Postal Service", "operator:short": "USPS", "operator:type": "public", "operator:wikidata": "Q668687", "ref": "7570106961"}, "type": "Feature"}
{"geometry": {"coordinates": [-95.274415, 32.311726], "type": "Point"}, "id": "QUnab2r0qzQTpJOJ5V_AQV_YnEc=", "properties": {"@source_uri": "https://tools.usps.com/UspsToolsRestServices/rest/POLocator/findLocations", "@spider": "usps_collection_boxes", "addr:city": "TYLER", "addr:country": "US", "addr:postcode": "75701", "addr:state": "TX", "addr:street_address": "3320 TROUP HWY", "amenity": "post_box", "collection_times": "Mo-Fr 17:00", "indoor": "yes", "note": "ON 12/24 AND 12/31, THIS BOX MAY BE COLLECTED AS EARLY AS 12 NOON.", "nsi_id": "unitedstatespostalservice-a77078", "operator": "United States Postal Service", "operator:short": "USPS", "operator:type": "public", "operator:wikidata": "Q668687", "ref": "7570106963"}, "type": "Feature"}
{"geometry": {"coordinates": [-95.274415, 32.311726], "type": "Point"}, "id": "X7npUAd2RqjZO_0S6zDlQYVvgGU=", "properties": {"@source_uri": "https://tools.usps.com/UspsToolsRestServices/rest/POLocator/findLocations", "@spider": "usps_collection_boxes", "addr:city": "TYLER", "addr:country": "US", "addr:postcode": "75701", "addr:state": "TX", "addr:street_address": "3320 TROUP HWY", "amenity": "post_box", "collection_times": "Mo-Fr 17:00", "indoor": "yes", "note": "ON 12/24 AND 12/31, THIS BOX MAY BE COLLECTED AS EARLY AS 12 NOON.", "nsi_id": "unitedstatespostalservice-a77078", "operator": "United States Postal Service", "operator:short": "USPS", "operator:type": "public", "operator:wikidata": "Q668687", "ref": "7570106964"}, "type": "Feature"}
{"geometry": {"coordinates": [-95.3146786, 32.303084], "type": "Point"}, "id": "-KZjPpNuu7lenrEWWi1wzmIPWlE=", "properties": {"@source_uri": "https://tools.usps.com/UspsToolsRestServices/rest/POLocator/findLocations", "@spider": "usps_collection_boxes", "addr:city": "TYLER", "addr:country": "US", "addr:postcode": "75701", "addr:state": "TX", "addr:street_address": "1222 W SOUTHWEST LOOP 323", "amenity": "post_box", "collection_times": "Mo-Fr 15:15", "note": "ON 12/24 AND 12/31, THIS BOX MAY BE COLLECTED AS EARLY AS 12 NOON.", "nsi_id": "unitedstatespostalservice-a77078", "operator": "United States Postal Service", "operator:short": "USPS", "operator:type": "public", "operator:wikidata": "Q668687", "ref": "7570106967"}, "type": "Feature"}
{"geometry": {"coordinates": [-95.2747889, 32.345544], "type": "Point"}, "id": "TkttMW-vOON9LPkGQATvCPEvALw=", "properties": {"@source_uri": "https://tools.usps.com/UspsToolsRestServices/rest/POLocator/findLocations", "@spider": "usps_collection_boxes", "addr:city": "TYLER", "addr:country": "US", "addr:postcode": "75701", "addr:state": "TX", "addr:street_address": "601 GOLDEN RD", "amenity": "post_box", "collection_times": "Mo-Fr 13:45; Sa 13:00", "note": "ON 12/24 AND 12/31, THIS BOX MAY BE COLLECTED AS EARLY AS 12 NOON.", "nsi_id": "unitedstatespostalservice-a77078", "operator": "United States Postal Service", "operator:short": "USPS", "operator:type": "public", "operator:wikidata": "Q668687", "ref": "7570106977"}, "type": "Feature"}
{"geometry": {"coordinates": [-95.291872394, 32.3383204541], "type": "Point"}, "id": "e12eR4r9_BEmlGlwKjzoGoAJyOw=", "properties": {"@source_uri": "https://tools.usps.com/UspsToolsRestServices/rest/POLocator/findLocations", "@spider": "usps_collection_boxes", "addr:city": "TYLER", "addr:country": "US", "addr:postcode": "75701", "addr:state": "TX", "addr:street_address": "1000 S BECKHAM AVE", "amenity": "post_box", "collection_times": "Mo-Fr 16:15", "note": "ON 12/24 AND 12/31, THIS BOX MAY BE COLLECTED AS EARLY AS 12 NOON.", "nsi_id": "unitedstatespostalservice-a77078", "operator": "United States Postal Service", "operator:short": "USPS", "operator:type": "public", "operator:wikidata": "Q668687", "ref": "7570106979"}, "type": "Feature"}
{"geometry": {"coordinates": [-95.300724, 32.320689], "type": "Point"}, "id": "ezsi_b8sD1f_gzS4fkGXkIbY0hg=", "properties": {"@source_uri": "https://tools.usps.com/UspsToolsRestServices/rest/POLocator/findLocations", "@spider": "usps_collection_boxes", "addr:city": "TYLER", "addr:country": "US", "addr:postcode": "75701", "addr:state": "TX", "addr:street_address": "2627 S BROADWAY AVE", "amenity": "post_box", "collection_times": "Mo-Sa 17:00", "name": "USPS COLLECTION BOX - APC", "note": "ON 12/24 AND 12/31, THIS BOX MAY BE COLLECTED AS EARLY AS 12 NOON.", "nsi_id": "unitedstatespostalservice-a77078", "operator": "United States Postal Service", "operator:short": "USPS", "operator:type": "public", "operator:wikidata": "Q668687", "ref": "7570106980"}, "type": "Feature"}
{"geometry": {"coordinates": [-95.30072552, 32.321070084], "type": "Point"}, "id": "klw4gumbGyrdbm6LYgcH2t3jqhY=", "properties": {"@source_uri": "https://tools.usps.com/UspsToolsRestServices/rest/POLocator/findLocations", "@spider": "usps_collection_boxes", "addr:city": "TYLER", "addr:country": "US", "addr:postcode": "75701", "addr:state": "TX", "addr:street_address": "2627 S BROADWAY AVE", "amenity": "post_box", "collection_times": "Mo-Fr 17:00; Sa 13:00", "indoor": "yes", "note": "ON 12/24 AND 12/31, THIS BOX MAY BE COLLECTED AS EARLY AS 12 NOON.", "nsi_id": "unitedstatespostalservice-a77078", "operator": "United States Postal Service", "operator:short": "USPS", "operator:type": "public", "operator:wikidata": "Q668687", "ref": "7570106985"}, "type": "Feature"}
{"geometry": {"coordinates": [-95.274644753, 32.312104237], "type": "Point"}, "id": "qKsRFSkMvpaHXLXF_8Lfp_5ggtw=", "properties": {"@source_uri": "https://tools.usps.com/UspsToolsRestServices/rest/POLocator/findLocations", "@spider": "usps_collection_boxes", "addr:city": "TYLER", "addr:country": "US", "addr:postcode": "75701", "addr:state": "TX", "addr:street_address": "3320 TROUP HWY STE 290", "amenity": "post_box", "collection_times": "Mo-Fr 17:00", "indoor": "yes", "note": "ON 12/24 AND 12/31, THIS BOX MAY BE COLLECTED AS EARLY AS 12 NOON.", "nsi_id": "unitedstatespostalservice-a77078", "operator": "United States Postal Service", "operator:short": "USPS", "operator:type": "public", "operator:wikidata": "Q668687", "ref": "7570106986"}, "type": "Feature"}
{"geometry": {"coordinates": [-95.3005164, 32.353281], "type": "Point"}, "id": "0sONpTXFFOTjrMtRlT7wipEWXoE=", "properties": {"@source_uri": "https://tools.usps.com/UspsToolsRestServices/rest/POLocator/findLocations", "@spider": "usps_collection_boxes", "addr:city": "TYLER", "addr:country": "US", "addr:postcode": "75702", "addr:state": "TX", "addr:street_address": "315 N BROADWAY AVE", "amenity": "post_box", "collection_times": "Mo-Fr 16:00", "note": "ON 12/24 AND 12/31, THIS BOX MAY BE COLLECTED AS EARLY AS 12 NOON.", "nsi_id": "unitedstatespostalservice-a77078", "operator": "United States Postal Service", "operator:short": "USPS", "operator:type": "public", "operator:wikidata": "Q668687", "ref": "7570206783"}, "type": "Feature"}
{"geometry": {"coordinates": [-95.3008052, 32.347386], "type": "Point"}, "id": "s_9FdqHCas3sqdWKlUI1V9fMGxc=", "properties": {"@source_uri": "https://tools.usps.com/UspsToolsRestServices/rest/POLocator/findLocations", "@spider": "usps_collection_boxes", "addr:city": "TYLER", "addr:country": "US", "addr:postcode": "75702", "addr:state": "TX", "addr:street_address": "315 S BROADWAY AVE", "amenity": "post_box", "collection_times": "Mo-Fr 16:00; Sa 13:00", "note": "ON 12/24 AND 12/31, THIS BOX MAY BE COLLECTED AS EARLY AS 12 NOON.", "nsi_id": "unitedstatespostalservice-a77078", "operator": "United States Postal Service", "operator:short": "USPS", "operator:type": "public", "operator:wikidata": "Q668687", "ref": "7570206800"}, "type": "Feature"}
{"geometry": {"coordinates": [-95.3004786, 32.349882], "type": "Point"}, "id": "Kh4yS0sNYJsu5P0tHvmoMAEo9Ws=", "properties": {"@source_uri": "https://tools.usps.com/UspsToolsRestServices/rest/POLocator/findLocations", "@spider": "usps_collection_boxes", "addr:city": "TYLER", "addr:country": "US", "addr:postcode": "75702", "addr:state": "TX", "addr:street_address": "121 S BROADWAY AVE", "amenity": "post_box", "collection_times": "Mo-Fr 15:30; Sa 13:00", "note": "ON 12/24 AND 12/31, THIS BOX MAY BE COLLECTED AS EARLY AS 12 NOON.", "nsi_id": "unitedstatespostalservice-a77078", "operator": "United States Postal Service", "operator:short": "USPS", "operator:type": "public", "operator:wikidata": "Q668687", "ref": "7570206802"}, "type": "Feature"}
{"geometry": {"coordinates": [-95.2958182, 32.346849], "type": "Point"}, "id": "DMhGEviSA0mhgQ4_Xc2moMLo1hw=", "properties": {"@source_uri": "https://tools.usps.com/UspsToolsRestServices/rest/POLocator/findLocations", "@spider": "usps_collection_boxes", "addr:city": "TYLER", "addr:country": "US", "addr:postcode": "75702", "addr:state": "TX", "addr:street_address": "506 E FRONT ST", "amenity": "post_box", "collection_times": "Mo-Fr 16:00; Sa 13:00", "note": "ON 12/24 AND 12/31, THIS BOX MAY BE COLLECTED AS EARLY AS 12 NOON.", "nsi_id": "unitedstatespostalservice-a77078", "operator": "United States Postal Service", "operator:short": "USPS", "operator:type": "public", "operator:wikidata": "Q668687", "ref": "7570206805"}, "type": "Feature"}
{"geometry": {"coordinates": [-95.3043386, 32.350695], "type": "Point"}, "id": "fuR7Sp_gZC8xkSyqEryJms6grQM=", "properties": {"@source_uri": "https://tools.usps.com/UspsToolsRestServices/rest/POLocator/findLocations", "@spider": "usps_collection_boxes", "addr:city": "TYLER", "addr:country": "US", "addr:postcode": "75702", "addr:state": "TX", "addr:street_address": "410 W ERWIN ST", "amenity": "post_box", "collection_times": "Mo-Fr 15:30; Sa 13:00", "note": "ON 12/24 AND 12/31, THIS BOX MAY BE COLLECTED AS EARLY AS 12 NOON.", "nsi_id": "unitedstatespostalservice-a77078", "operator": "United States Postal Service", "operator:short": "USPS", "operator:type": "public", "operator:wikidata": "Q668687", "ref": "7570206813"}, "type": "Feature"}
{"geometry": {"coordinates": [-95.3109393, 32.359368], "type": "Point"}, "id": "DMmlLP0OapOMHD--MxMmb6k1YM4=", "properties": {"@source_uri": "https://tools.usps.com/UspsToolsRestServices/rest/POLocator/findLocations", "@spider": "usps_collection_boxes", "addr:city": "TYLER", "addr:country": "US", "addr:postcode": "75702", "addr:state": "TX", "addr:street_address": "900 W GENTRY PKWY", "amenity": "post_box", "collection_times": "Mo-Fr 15:30", "note": "ON 12/24 AND 12/31, THIS BOX MAY BE COLLECTED AS EARLY AS 12 NOON.", "nsi_id": "unitedstatespostalservice-a77078", "operator": "United States Postal Service", "operator:short": "USPS", "operator:type": "public", "operator:wikidata": "Q668687", "ref": "7570206814"}, "type": "Feature"}
{"geometry": {"coordinates": [-95.2912799, 32.34466], "type": "Point"}, "id": "bb-LfjQ_UbyH2D7Zci-ZMC7ayk4=", "properties": {"@source_uri": "https://tools.usps.com/UspsToolsRestServices/rest/POLocator/findLocations", "@spider": "usps_collection_boxes", "addr:city": "TYLER", "addr:country": "US", "addr:postcode": "75702", "addr:state": "TX", "addr:street_address": "520 DOUGLAS BLVD", "amenity": "post_box", "collection_times": "Mo-Fr 16:00", "note": "ON 12/24 AND 12/31, THIS BOX MAY BE COLLECTED AS EARLY AS 12 NOON.", "nsi_id": "unitedstatespostalservice-a77078", "operator": "United States Postal Service", "operator:short": "USPS", "operator:type": "public", "operator:wikidata": "Q668687", "ref": "7570207351"}, "type": "Feature"}
{"geometry": {"coordinates": [-95.3257516, 32.368428], "type": "Point"}, "id": "Cy8m6MuM6j4fWiEVu4Xc6fwVwU4=", "properties": {"@source_uri": "https://tools.usps.com/UspsToolsRestServices/rest/POLocator/findLocations", "@spider": "usps_collection_boxes", "addr:city": "TYLER", "addr:country": "US", "addr:postcode": "75702", "addr:state": "TX", "addr:street_address": "2100 W MARTIN LUTHER KING JR BLVD", "amenity": "post_box", "collection_times": "Mo-Sa 18:00", "note": "ON 12/24 AND 12/31, THIS BOX MAY BE COLLECTED AS EARLY AS 12 NOON.", "nsi_id": "unitedstatespostalservice-a77078", "operator": "United States Postal Service", "operator:short": "USPS", "operator:type": "public", "operator:wikidata": "Q668687", "ref": "7570207357"}, "type": "Feature"}
{"geometry": {"coordinates": [-95.3248319, 32.368768], "type": "Point"}, "id": "H7-WrK3KijA_FEIJ_zm2vzYJbM4=", "properties": {"@source_uri": "https://tools.usps.com/UspsToolsRestServices/rest/POLocator/findLocations", "@spider": "usps_collection_boxes", "addr:city": "TYLER", "addr:country": "US", "addr:postcode": "75702", "addr:state": "TX", "addr:street_address": "2100 W MARTIN LUTHER KING JR BLVD", "amenity": "post_box", "collection_times": "Mo-Sa 18:00", "indoor": "yes", "note": "ON 12/24 AND 12/31, THIS BOX MAY BE COLLECTED AS EARLY AS 12 NOON.", "nsi_id": "unitedstatespostalservice-a77078", "operator": "United States Postal Service", "operator:short": "USPS", "operator:type": "public", "operator:wikidata": "Q668687", "ref": "7570207362"}, "type": "Feature"}
{"geometry": {"coordinates": [-95.3249483, 32.36852], "type": "Point"}, "id": "C7uGh9plioG5yC01UFNVr-Nf4So=", "properties": {"@source_uri": "https://tools.usps.com/UspsToolsRestServices/rest/POLocator/findLocations", "@spider": "usps_collection_boxes", "addr:city": "TYLER", "addr:country": "US", "addr:postcode": "75702", "addr:state": "TX", "addr:street_address": "2100 W MARTIN LUTHER KING JR BLVD", "amenity": "post_box", "collection_times": "Mo-Sa 18:00", "indoor": "yes", "note": "ON 12/24 AND 12/31, THIS BOX MAY BE COLLECTED AS EARLY AS 12 NOON.", "nsi_id": "unitedstatespostalservice-a77078", "operator": "United States Postal Service", "operator:short": "USPS", "operator:type": "public", "operator:wikidata": "Q668687", "ref": "7570207363"}, "type": "Feature"}
{"geometry": {"coordinates": [-95.339781, 32.344749], "type": "Point"}, "id": "TJD8CafECipsx3Uef36n9f-JLy8=", "properties": {"@source_uri": "https://tools.usps.com/UspsToolsRestServices/rest/POLocator/findLocations", "@spider": "usps_collection_boxes", "addr:city": "TYLER", "addr:country": "US", "addr:postcode": "75702", "addr:state": "TX", "addr:street_address": "510 S SOUTHWEST LOOP 323", "amenity": "post_box", "collection_times": "Mo-Fr 16:30; Sa 13:00", "note": "ON 12/24 AND 12/31, THIS BOX MAY BE COLLECTED AS EARLY AS 12 NOON.", "nsi_id": "unitedstatespostalservice-a77078", "operator": "United States Postal Service", "operator:short": "USPS", "operator:type": "public", "operator:wikidata": "Q668687", "ref": "7570207369"}, "type": "Feature"}
{"geometry": {"coordinates": [-95.3172415, 32.34719], "type": "Point"}, "id": "46B6z2YIUvS0i0S0Uon2QV3ZATU=", "properties": {"@source_uri": "https://tools.usps.com/UspsToolsRestServices/rest/POLocator/findLocations", "@spider": "usps_collection_boxes", "addr:city": "TYLER", "addr:country": "US", "addr:postcode": "75702", "addr:state": "TX", "addr:street_address": "1517 W FRONT ST", "amenity": "post_box", "collection_times": "Mo-Fr 16:00", "note": "ON 12/24 AND 12/31, THIS BOX MAY BE COLLECTED AS EARLY AS 12 NOON.", "nsi_id": "unitedstatespostalservice-a77078", "operator": "United States Postal Service", "operator:short": "USPS", "operator:type": "public", "operator:wikidata": "Q668687", "ref": "7570207385"}, "type": "Feature"}
{"geometry": {"coordinates": [-95.325100069, 32.368926986], "type": "Point"}, "id": "fXpappxNmVw6shIl86UasmVBASM=", "properties": {"@source_uri": "https://tools.usps.com/UspsToolsRestServices/rest/POLocator/findLocations", "@spider": "usps_collection_boxes", "addr:city": "TYLER", "addr:country": "US", "addr:postcode": "75702", "addr:state": "TX", "addr:street_address": "2100 W MARTIN LUTHER KING JR BLVD", "amenity": "post_box", "collection_times": "Mo-Fr 17:00", "indoor": "yes", "note": "ON 12/24 AND 12/31, THIS BOX MAY BE COLLECTED AS EARLY AS 12 NOON.", "nsi_id": "unitedstatespostalservice-a77078", "operator": "United States Postal Service", "operator:short": "USPS", "operator:type": "public", "operator:wikidata": "Q668687", "ref": "7570207388"}, "type": "Feature"}
{"geometry": {"coordinates": [-95.3066, 32.275328], "type": "Point"}, "id": "x8tsFYzIGsFa-8YPP7xJZ3Owidg=", "properties": {"@source_uri": "https://tools.usps.com/UspsToolsRestServices/rest/POLocator/findLocations", "@spider": "usps_collection_boxes", "addr:city": "TYLER", "addr:country": "US", "addr:postcode": "75703", "addr:state": "TX", "addr:street_address": "6722 S BROADWAY AVE", "amenity": "post_box", "collection_times": "Mo-Sa 17:00", "note": "ON 12/24 AND 12/31, THIS BOX MAY BE COLLECTED AS EARLY AS 12 NOON.", "nsi_id": "unitedstatespostalservice-a77078", "operator": "United States Postal Service", "operator:short": "USPS", "operator:type": "public", "operator:wikidata": "Q668687", "ref": "7570300005"}, "type": "Feature"}
{"geometry": {"coordinates": [-95.3060847, 32.282553], "type": "Point"}, "id": "I07Wq3U4tuZd9p7mj_vRJFCFTc4=", "properties": {"@source_uri": "https://tools.usps.com/UspsToolsRestServices/rest/POLocator/findLocations", "@spider": "usps_collection_boxes", "addr:city": "TYLER", "addr:country": "US", "addr:postcode": "75703", "addr:state": "TX", "addr:street_address": "6101 S BROADWAY AVE", "amenity": "post_box", "collection_times": "Mo-Fr 15:30", "note": "ON 12/24 AND 12/31, THIS BOX MAY BE COLLECTED AS EARLY AS 12 NOON.", "nsi_id": "unitedstatespostalservice-a77078", "operator": "United States Postal Service", "operator:short": "USPS", "operator:type": "public", "operator:wikidata": "Q668687", "ref": "7570300011"}, "type": "Feature"}
{"geometry": {"coordinates": [-95.3022219934, 32.293613461], "type": "Point"}, "id": "8LmpPvMoN3pEd8zmxfi2lmrB2pw=", "properties": {"@source_uri": "https://tools.usps.com/UspsToolsRestServices/rest/POLocator/findLocations", "@spider": "usps_collection_boxes", "addr:city": "TYLER", "addr:country": "US", "addr:postcode": "75703", "addr:state": "TX", "addr:street_address": "5101 S BROADWAY AVE", "amenity": "post_box", "collection_times": "Mo-Fr 16:00; Sa 13:00", "note": "ON 12/24 AND 12/31, THIS BOX MAY BE COLLECTED AS EARLY AS 12 NOON.", "nsi_id": "unitedstatespostalservice-a77078", "operator": "United States Postal Service", "operator:short": "USPS", "operator:type": "public", "operator:wikidata": "Q668687", "ref": "7570300013"}, "type": "Feature"}
{"geometry": {"coordinates": [-95.3076231739, 32.2798548636], "type": "Point"}, "id": "3HRkuxDKchp-5Bx8oX0Dd1UM6BY=", "properties": {"@source_uri": "https://tools.usps.com/UspsToolsRestServices/rest/POLocator/findLocations", "@spider": "usps_collection_boxes", "addr:city": "TYLER", "addr:country": "US", "addr:postcode": "75703", "addr:state": "TX", "addr:street_address": "212 GRANDE BLVD", "amenity": "post_box", "collection_times": "Mo-Fr 11:00", "nsi_id": "unitedstatespostalservice-a77078", "operator": "United States Postal Service", "operator:short": "USPS", "operator:type": "public", "operator:wikidata": "Q668687", "ref": "7570300024"}, "type": "Feature"}
{"geometry": {"coordinates": [-95.306264065, 32.287417114], "type": "Point"}, "id": "x9phoYeJ7J29M8zxyINxlphfKLk=", "properties": {"@source_uri": "https://tools.usps.com/UspsToolsRestServices/rest/POLocator/findLocations", "@spider": "usps_collection_boxes", "addr:city": "TYLER", "addr:country": "US", "addr:postcode": "75703", "addr:state": "TX", "addr:street_address": "5620 OLD BULLARD RD", "amenity": "post_box", "collection_times": "Mo-Fr 13:00", "note": "ON 12/24 AND 12/31, THIS BOX MAY BE COLLECTED AS EARLY AS 12 NOON.", "nsi_id": "unitedstatespostalservice-a77078", "operator": "United States Postal Service", "operator:short": "USPS", "operator:type": "public", "operator:wikidata": "Q668687", "ref": "7570300030"}, "type": "Feature"}
{"geometry": {"coordinates": [-95.2693533, 32.302495], "type": "Point"}, "id": "jR728ZUIjQJH072eWFXxJCWUNdM=", "properties": {"@source_uri": "https://tools.usps.com/UspsToolsRestServices/rest/POLocator/findLocations", "@spider": "usps_collection_boxes", "addr:city": "TYLER", "addr:country": "US", "addr:postcode": "75703", "addr:state": "TX", "addr:street_address": "4601 TROUP HWY", "amenity": "post_box", "collection_times": "Mo-Sa 12:00", "nsi_id": "unitedstatespostalservice-a77078", "operator": "United States Postal Service", "operator:short": "USPS", "operator:type": "public", "operator:wikidata": "Q668687", "ref": "7570300045"}, "type": "Feature"}
{"geometry": {"coordinates": [-95.339287, 32.271517], "type": "Point"}, "id": "nSN1BTpf_yF_KDV62hLzhGRpSYk=", "properties": {"@source_uri": "https://tools.usps.com/UspsToolsRestServices/rest/POLocator/findLocations", "@spider": "usps_collection_boxes", "addr:city": "TYLER", "addr:country": "US", "addr:postcode": "75703", "addr:state": "TX", "addr:street_address": "6991 OLD JACKSONVILLE HWY", "amenity": "post_box", "collection_times": "Mo-Fr 12:00", "nsi_id": "unitedstatespostalservice-a77078", "operator": "United States Postal Service", "operator:short": "USPS", "operator:type": "public", "operator:wikidata": "Q668687", "ref": "7570300049"}, "type": "Feature"}
{"geometry": {"coordinates": [-95.2779899, 32.30687], "type": "Point"}, "id": "bEMYCN2QgbcRXBZaDvR5_KzEaq0=", "properties": {"@source_uri": "https://tools.usps.com/UspsToolsRestServices/rest/POLocator/findLocations", "@spider": "usps_collection_boxes", "addr:city": "TYLER", "addr:country": "US", "addr:postcode": "75703", "addr:state": "TX", "addr:street_address": "3800 PALUXY DR", "amenity": "post_box", "collection_times": "Mo-Fr 16:00", "note": "ON 12/24 AND 12/31, THIS BOX MAY BE COLLECTED AS EARLY AS 12 NOON.", "nsi_id": "unitedstatespostalservice-a77078", "operator": "United States Postal Service", "operator:short": "USPS", "operator:type": "public", "operator:wikidata": "Q668687", "ref": "7570300051"}, "type": "Feature"}
{"geometry": {"coordinates": [-95.3048499, 32.301067], "type": "Point"}, "id": "ozfOzYiuDRZGvrosp6COSIQXZT8=", "properties": {"@source_uri": "https://tools.usps.com/UspsToolsRestServices/rest/POLocator/findLocations", "@spider": "usps_collection_boxes", "addr:city": "TYLER", "addr:country": "US", "addr:postcode": "75703", "addr:state": "TX", "addr:street_address": "4411 OLD BULLARD RD", "amenity": "post_box", "collection_times": "Mo-Fr 14:00; Sa 13:00", "note": "ON 12/24 AND 12/31, THIS BOX MAY BE COLLECTED AS EARLY AS 12 NOON.", "nsi_id": "unitedstatespostalservice-a77078", "operator": "United States Postal Service", "operator:short": "USPS", "operator:type": "public", "operator:wikidata": "Q668687", "ref": "7570300052"}, "type": "Feature"}
{"geometry": {"coordinates": [-95.3575683, 32.372585], "type": "Point"}, "id": "ICB6LDmkbWaYwwyxvFKalAtykls=", "properties": {"@source_uri": "https://tools.usps.com/UspsToolsRestServices/rest/POLocator/findLocations", "@spider": "usps_collection_boxes", "addr:city": "TYLER", "addr:country": "US", "addr:postcode": "75704", "addr:state": "TX", "addr:street_address": "2979 HIGHWAY 110 N", "amenity": "post_box", "collection_times": "Mo-Fr 16:00; Sa 14:30", "note": "ON 12/24 AND 12/31, THIS BOX MAY BE COLLECTED AS EARLY AS 12 NOON.", "nsi_id": "unitedstatespostalservice-a77078", "operator": "United States Postal Service", "operator:short": "USPS", "operator:type": "public", "operator:wikidata": "Q668687", "ref": "7570400002"}, "type": "Feature"}
{"geometry": {"coordinates": [-95.204213789, 32.316193826], "type": "Point"}, "id": "fQ5KTowbieraBzPSrNbsCgi5HCw=", "properties": {"@source_uri": "https://tools.usps.com/UspsToolsRestServices/rest/POLocator/findLocations", "@spider": "usps_collection_boxes", "addr:city": "TYLER", "addr:country": "US", "addr:postcode": "75707", "addr:state": "TX", "addr:street_address": "12300 STATE HIGHWAY 64 E", "amenity": "post_box", "collection_times": "Mo-Fr 12:00", "nsi_id": "unitedstatespostalservice-a77078", "operator": "United States Postal Service", "operator:short": "USPS", "operator:type": "public", "operator:wikidata": "Q668687", "ref": "7570700001"}, "type": "Feature"}
{"geometry": {"coordinates": [-95.2061895, 32.424201], "type": "Point"}, "id": "NOJx4J1leOQigem3jjXedVnisFs=", "properties": {"@source_uri": "https://tools.usps.com/UspsToolsRestServices/rest/POLocator/findLocations", "@spider": "usps_collection_boxes", "addr:city": "TYLER", "addr:country": "US", "addr:postcode": "75708", "addr:state": "TX", "addr:street_address": "12010 US HIGHWAY 271", "amenity": "post_box", "collection_times": "Mo-Fr 12:30", "note": "ON 12/24 AND 12/31, THIS BOX MAY BE COLLECTED AS EARLY AS 12 NOON.", "nsi_id": "unitedstatespostalservice-a77078", "operator": "United States Postal Service", "operator:short": "USPS", "operator:type": "public", "operator:wikidata": "Q668687", "ref": "7570807359"}, "type": "Feature"}
{"geometry": {"coordinates": [-95.060219, 32.225332], "type": "Point"}, "id": "uEY5D8a0m7h6ZHBYHYMxNX7e7Yk=", "properties": {"@source_uri": "https://tools.usps.com/UspsToolsRestServices/rest/POLocator/findLocations", "@spider": "usps_collection_boxes", "addr:city": "ARP", "addr:country": "US", "addr:postcode": "75750", "addr:state": "TX", "addr:street_address": "202 W FRONT ST", "amenity": "post_box", "collection_times": "Mo-Fr 16:15; Sa 08:30", "note": "ON 12/24 AND 12/31, THIS BOX MAY BE COLLECTED AS EARLY AS 12 NOON.", "nsi_id": "unitedstatespostalservice-a77078", "operator": "United States Postal Service", "operator:short": "USPS", "operator:type": "public", "operator:wikidata": "Q668687", "ref": "7575000000"}, "type": "Feature"}
{"geometry": {"coordinates": [-95.060219, 32.225332], "type": "Point"}, "id": "YhgnsQ0GnS1YXINxvi4Dxixcd28=", "properties": {"@source_uri": "https://tools.usps.com/UspsToolsRestServices/rest/POLocator/findLocations", "@spider": "usps_collection_boxes", "addr:city": "ARP", "addr:country": "US", "addr:postcode": "75750", "addr:state": "TX", "addr:street_address": "202 W FRONT ST", "amenity": "post_box", "collection_times": "Mo-Fr 16:15; Sa 08:30", "indoor": "yes", "note": "ON 12/24 AND 12/31, THIS BOX MAY BE COLLECTED AS EARLY AS 12 NOON.", "nsi_id": "unitedstatespostalservice-a77078", "operator": "United States Postal Service", "operator:short": "USPS", "operator:type": "public", "operator:wikidata": "Q668687", "ref": "7575000002"}, "type": "Feature"}
{"geometry": {"coordinates": [-95.060311249, 32.225260284], "type": "Point"}, "id": "rIuCPHsKHDtqsUKp75O7JR_nq_E=", "properties": {"@source_uri": "https://tools.usps.com/UspsToolsRestServices/rest/POLocator/findLocations", "@spider": "usps_collection_boxes", "addr:city": "ARP", "addr:country": "US", "addr:postcode": "75750", "addr:state": "TX", "addr:street_address": "202 W FRONT ST", "amenity": "post_box", "collection_times": "Mo-Fr 16:00", "indoor": "yes", "note": "ON 12/24 AND 12/31, THIS BOX MAY BE COLLECTED AS EARLY AS 12 NOON.", "nsi_id": "unitedstatespostalservice-a77078", "operator": "United States Postal Service", "operator:short": "USPS", "operator:type": "public", "operator:wikidata": "Q668687", "ref": "7575000003"}, "type": "Feature"}
{"geometry": {"coordinates": [-95.8397233, 32.203456], "type": "Point"}, "id": "m5eHhV_WxUI3Q1yUG-9x1em0abQ=", "properties": {"@source_uri": "https://tools.usps.com/UspsToolsRestServices/rest/POLocator/findLocations", "@spider": "usps_collection_boxes", "addr:city": "ATHENS", "addr:country": "US", "addr:postcode": "75751", "addr:state": "TX", "addr:street_address": "900 E CORSICANA ST", "amenity": "post_box", "collection_times": "Mo-Sa 12:00", "nsi_id": "unitedstatespostalservice-a77078", "operator": "United States Postal Service", "operator:short": "USPS", "operator:type": "public", "operator:wikidata": "Q668687", "ref": "7575106334"}, "type": "Feature"}
{"geometry": {"coordinates": [-95.8551786, 32.205336], "type": "Point"}, "id": "BQ3CdgkxUUcRxFvwC_RWPYHkEdY=", "properties": {"@source_uri": "https://tools.usps.com/UspsToolsRestServices/rest/POLocator/findLocations", "@spider": "usps_collection_boxes", "addr:city": "ATHENS", "addr:country": "US", "addr:postcode": "75751", "addr:state": "TX", "addr:street_address": "125 N PRAIRIEVILLE ST", "amenity": "post_box", "collection_times": "Mo-Fr 14:30; Sa 12:30", "note": "ON 12/24 AND 12/31, THIS BOX MAY BE COLLECTED AS EARLY AS 12 NOON.", "nsi_id": "unitedstatespostalservice-a77078", "operator": "United States Postal Service", "operator:short": "USPS", "operator:type": "public", "operator:wikidata": "Q668687", "ref": "7575106338"}, "type": "Feature"}
{"geometry": {"coordinates": [-95.8538939, 32.204249], "type": "Point"}, "id": "VFgtqiGhkJo2VSihEVgsfL7ujHo=", "properties": {"@source_uri": "https://tools.usps.com/UspsToolsRestServices/rest/POLocator/findLocations", "@spider": "usps_collection_boxes", "addr:city": "ATHENS", "addr:country": "US", "addr:postcode": "75751", "addr:state": "TX", "addr:street_address": "130 E CORSICANA ST", "amenity": "post_box", "collection_times": "Mo-Sa 14:30", "note": "ON 12/24 AND 12/31, THIS BOX MAY BE COLLECTED AS EARLY AS 12 NOON.", "nsi_id": "unitedstatespostalservice-a77078", "operator": "United States Postal Service", "operator:short": "USPS", "operator:type": "public", "operator:wikidata": "Q668687", "ref": "7575106339"}, "type": "Feature"}
{"geometry": {"coordinates": [-95.8504820409, 32.2058970026], "type": "Point"}, "id": "WMaFS2ZRJ1VpsmCvgFwWNkkk-_A=", "properties": {"@source_uri": "https://tools.usps.com/UspsToolsRestServices/rest/POLocator/findLocations", "@spider": "usps_collection_boxes", "addr:city": "ATHENS", "addr:country": "US", "addr:postcode": "75751", "addr:state": "TX", "addr:street_address": "409 E TYLER ST", "amenity": "post_box", "collection_times": "Mo-Fr 17:00; Sa 15:30", "note": "ON 12/24 AND 12/31, THIS BOX MAY BE COLLECTED AS EARLY AS 12 NOON.", "nsi_id": "unitedstatespostalservice-a77078", "operator": "United States Postal Service", "operator:short": "USPS", "operator:type": "public", "operator:wikidata": "Q668687", "ref": "7575106342"}, "type": "Feature"}
{"geometry": {"coordinates": [-95.85118, 32.205427], "type": "Point"}, "id": "veH7WfBzKBsMJk58IdSsJDS0Dfg=", "properties": {"@source_uri": "https://tools.usps.com/UspsToolsRestServices/rest/POLocator/findLocations", "@spider": "usps_collection_boxes", "addr:city": "ATHENS", "addr:country": "US", "addr:postcode": "75751", "addr:state": "TX", "addr:street_address": "409 E TYLER ST", "amenity": "post_box", "collection_times": "Mo-Fr 17:00; Sa 15:30", "indoor": "yes", "note": "ON 12/24 AND 12/31, THIS BOX MAY BE COLLECTED AS EARLY AS 12 NOON.", "nsi_id": "unitedstatespostalservice-a77078", "operator": "United States Postal Service", "operator:short": "USPS", "operator:type": "public", "operator:wikidata": "Q668687", "ref": "7575106559"}, "type": "Feature"}
{"geometry": {"coordinates": [-95.85118, 32.205427], "type": "Point"}, "id": "1_hmPUPQ4CZfsjcLuoYu21wY2l4=", "properties": {"@source_uri": "https://tools.usps.com/UspsToolsRestServices/rest/POLocator/findLocations", "@spider": "usps_collection_boxes", "addr:city": "ATHENS", "addr:country": "US", "addr:postcode": "75751", "addr:state": "TX", "addr:street_address": "409 E TYLER ST", "amenity": "post_box", "collection_times": "Mo-Fr 17:00; Sa 15:30", "indoor": "yes", "note": "ON 12/24 AND 12/31, THIS BOX MAY BE COLLECTED AS EARLY AS 12 NOON.", "nsi_id": "unitedstatespostalservice-a77078", "operator": "United States Postal Service", "operator:short": "USPS", "operator:type": "public", "operator:wikidata": "Q668687", "ref": "7575106560"}, "type": "Feature"}
{"geometry": {"coordinates": [-95.846199, 32.207739], "type": "Point"}, "id": "i5ioiLCj5I1Oqph11EuOqAu4DFQ=", "properties": {"@source_uri": "https://tools.usps.com/UspsToolsRestServices/rest/POLocator/findLocations", "@spider": "usps_collection_boxes", "addr:city": "ATHENS", "addr:country": "US", "addr:postcode": "75751", "addr:state": "TX", "addr:street_address": "206A N MURCHISON ST", "amenity": "post_box", "collection_times": "Mo-Sa 10:30", "nsi_id": "unitedstatespostalservice-a77078", "operator": "United States Postal Service", "operator:short": "USPS", "operator:type": "public", "operator:wikidata": "Q668687", "ref": "7575106562"}, "type": "Feature"}
{"geometry": {"coordinates": [-95.8311866, 32.209732], "type": "Point"}, "id": "_Ld00wga_PFMw_egjtP5q3n4OyY=", "properties": {"@source_uri": "https://tools.usps.com/UspsToolsRestServices/rest/POLocator/findLocations", "@spider": "usps_collection_boxes", "addr:city": "ATHENS", "addr:country": "US", "addr:postcode": "75751", "addr:state": "TX", "addr:street_address": "1405 E TYLER ST", "amenity": "post_box", "collection_times": "Mo-Sa 14:30", "note": "ON 12/24 AND 12/31, THIS BOX MAY BE COLLECTED AS EARLY AS 12 NOON.", "nsi_id": "unitedstatespostalservice-a77078", "operator": "United States Postal Service", "operator:short": "USPS", "operator:type": "public", "operator:wikidata": "Q668687", "ref": "7575106563"}, "type": "Feature"}
{"geometry": {"coordinates": [-95.8463718, 32.172041], "type": "Point"}, "id": "lFxQW0xAvGOTOHKkEwkZ0_DPRtA=", "properties": {"@source_uri": "https://tools.usps.com/UspsToolsRestServices/rest/POLocator/findLocations", "@spider": "usps_collection_boxes", "addr:city": "ATHENS", "addr:country": "US", "addr:postcode": "75751", "addr:state": "TX", "addr:street_address": "115 MEDICAL CIR", "amenity": "post_box", "collection_times": "Mo-Sa 09:30", "nsi_id": "unitedstatespostalservice-a77078", "operator": "United States Postal Service", "operator:short": "USPS", "operator:type": "public", "operator:wikidata": "Q668687", "ref": "7575106564"}, "type": "Feature"}
{"geometry": {"coordinates": [-95.850414, 32.205414516], "type": "Point"}, "id": "5RGf0YWXHiwXTeOGLcpNMb5exf4=", "properties": {"@source_uri": "https://tools.usps.com/UspsToolsRestServices/rest/POLocator/findLocations", "@spider": "usps_collection_boxes", "addr:city": "ATHENS", "addr:country": "US", "addr:postcode": "75751", "addr:state": "TX", "addr:street_address": "409 E TYLER ST", "amenity": "post_box", "collection_times": "Mo-Fr 16:30", "indoor": "yes", "note": "ON 12/24 AND 12/31, THIS BOX MAY BE COLLECTED AS EARLY AS 12 NOON.", "nsi_id": "unitedstatespostalservice-a77078", "operator": "United States Postal Service", "operator:short": "USPS", "operator:type": "public", "operator:wikidata": "Q668687", "ref": "7575106567"}, "type": "Feature"}
{"geometry": {"coordinates": [-95.702005, 32.449046], "type": "Point"}, "id": "PEpS4pCG2RhSMeA6msOTt6tHxkY=", "properties": {"@source_uri": "https://tools.usps.com/UspsToolsRestServices/rest/POLocator/findLocations", "@spider": "usps_collection_boxes", "addr:city": "BEN WHEELER", "addr:country": "US", "addr:postcode": "75754", "addr:state": "TX", "addr:street_address": "13838 STATE HIGHWAY 64", "amenity": "post_box", "collection_times": "Mo-Fr 16:00; Sa 09:00", "note": "ON 12/24 AND 12/31, THIS BOX MAY BE COLLECTED AS EARLY AS 12 NOON.", "nsi_id": "unitedstatespostalservice-a77078", "operator": "United States Postal Service", "operator:short": "USPS", "operator:type": "public", "operator:wikidata": "Q668687", "ref": "7575400001"}, "type": "Feature"}
{"geometry": {"coordinates": [-95.6115564, 32.372567], "type": "Point"}, "id": "e0SdoiRR2A4ST80z2yH3oo_kJEQ=", "properties": {"@source_uri": "https://tools.usps.com/UspsToolsRestServices/rest/POLocator/findLocations", "@spider": "usps_collection_boxes", "addr:city": "BEN WHEELER", "addr:country": "US", "addr:postcode": "75754", "addr:state": "TX", "addr:street_address": "8159 FM 279", "amenity": "post_box", "collection_times": "Mo-Fr 10:30", "nsi_id": "unitedstatespostalservice-a77078", "operator": "United States Postal Service", "operator:short": "USPS", "operator:type": "public", "operator:wikidata": "Q668687", "ref": "7575400002"}, "type": "Feature"}
{"geometry": {"coordinates": [-95.702005, 32.449046], "type": "Point"}, "id": "_hvkO9NYBflCbd0ekYJALeowg9Y=", "properties": {"@source_uri": "https://tools.usps.com/UspsToolsRestServices/rest/POLocator/findLocations", "@spider": "usps_collection_boxes", "addr:city": "BEN WHEELER", "addr:country": "US", "addr:postcode": "75754", "addr:state": "TX", "addr:street_address": "13838 STATE HIGHWAY 64", "amenity": "post_box", "collection_times": "Mo-Fr 16:00; Sa 09:00", "indoor": "yes", "note": "ON 12/24 AND 12/31, THIS BOX MAY BE COLLECTED AS EARLY AS 12 NOON.", "nsi_id": "unitedstatespostalservice-a77078", "operator": "United States Postal Service", "operator:short": "USPS", "operator:type": "public", "operator:wikidata": "Q668687", "ref": "7575400004"}, "type": "Feature"}
{"geometry": {"coordinates": [-95.701339588, 32.448701252], "type": "Point"}, "id": "ZQIavKJg_SAMNxPLypYutiH7rSY=", "properties": {"@source_uri": "https://tools.usps.com/UspsToolsRestServices/rest/POLocator/findLocations", "@spider": "usps_collection_boxes", "addr:city": "BEN WHEELER", "addr:country": "US", "addr:postcode": "75754", "addr:state": "TX", "addr:street_address": "13838 STATE HIGHWAY 64", "amenity": "post_box", "collection_times": "Mo-Fr 16:00", "indoor": "yes", "note": "ON 12/24 AND 12/31, THIS BOX MAY BE COLLECTED AS EARLY AS 12 NOON.", "nsi_id": "unitedstatespostalservice-a77078", "operator": "United States Postal Service", "operator:short": "USPS", "operator:type": "public", "operator:wikidata": "Q668687", "ref": "7575400005"}, "type": "Feature"}
{"geometry": {"coordinates": [-95.1065174, 32.583143], "type": "Point"}, "id": "1rXxEcF47njLG9V-GwVbKKsmJSE=", "properties": {"@source_uri": "https://tools.usps.com/UspsToolsRestServices/rest/POLocator/findLocations", "@spider": "usps_collection_boxes", "addr:city": "BIG SANDY", "addr:country": "US", "addr:postcode": "75755", "addr:state": "TX", "addr:street_address": "210 E BROADWAY ST", "amenity": "post_box", "collection_times": "Mo-Fr 16:00; Sa 08:00", "note": "ON 12/24 AND 12/31, THIS BOX MAY BE COLLECTED AS EARLY AS 12 NOON.", "nsi_id": "unitedstatespostalservice-a77078", "operator": "United States Postal Service", "operator:short": "USPS", "operator:type": "public", "operator:wikidata": "Q668687", "ref": "7575506418"}, "type": "Feature"}
{"geometry": {"coordinates": [-95.1068274, 32.583011], "type": "Point"}, "id": "kdAfjtgzbhnsKwRRrfmS7YClP5g=", "properties": {"@source_uri": "https://tools.usps.com/UspsToolsRestServices/rest/POLocator/findLocations", "@spider": "usps_collection_boxes", "addr:city": "BIG SANDY", "addr:country": "US", "addr:postcode": "75755", "addr:state": "TX", "addr:street_address": "210 E BROADWAY ST", "amenity": "post_box", "collection_times": "Mo-Fr 16:00; Sa 08:00", "indoor": "yes", "note": "ON 12/24 AND 12/31, THIS BOX MAY BE COLLECTED AS EARLY AS 12 NOON.", "nsi_id": "unitedstatespostalservice-a77078", "operator": "United States Postal Service", "operator:short": "USPS", "operator:type": "public", "operator:wikidata": "Q668687", "ref": "7575506423"}, "type": "Feature"}
{"geometry": {"coordinates": [-95.106982699, 32.583390518], "type": "Point"}, "id": "MM7Gw4azetjLmVM9hJ3zHYwtob8=", "properties": {"@source_uri": "https://tools.usps.com/UspsToolsRestServices/rest/POLocator/findLocations", "@spider": "usps_collection_boxes", "addr:city": "BIG SANDY", "addr:country": "US", "addr:postcode": "75755", "addr:state": "TX", "addr:street_address": "210 E BROADWAY ST", "amenity": "post_box", "collection_times": "Mo-Fr 16:00", "indoor": "yes", "note": "ON 12/24 AND 12/31, THIS BOX MAY BE COLLECTED AS EARLY AS 12 NOON.", "nsi_id": "unitedstatespostalservice-a77078", "operator": "United States Postal Service", "operator:short": "USPS", "operator:type": "public", "operator:wikidata": "Q668687", "ref": "7575506427"}, "type": "Feature"}
{"geometry": {"coordinates": [-95.617597, 32.302447], "type": "Point"}, "id": "dFjy-DF-Uz7Vs1VKdCUbncJobJs=", "properties": {"@source_uri": "https://tools.usps.com/UspsToolsRestServices/rest/POLocator/findLocations", "@spider": "usps_collection_boxes", "addr:city": "BROWNSBORO", "addr:country": "US", "addr:postcode": "75756", "addr:state": "TX", "addr:street_address": "14201 STATE HIGHWAY 31 E", "amenity": "post_box", "collection_times": "Mo-Fr 16:00; Sa 08:30", "note": "ON 12/24 AND 12/31, THIS BOX MAY BE COLLECTED AS EARLY AS 12 NOON.", "nsi_id": "unitedstatespostalservice-a77078", "operator": "United States Postal Service", "operator:short": "USPS", "operator:type": "public", "operator:wikidata": "Q668687", "ref": "7575600000"}, "type": "Feature"}
{"geometry": {"coordinates": [-95.617597, 32.302447], "type": "Point"}, "id": "AsrpMh-k_FX5fgodcb03nqFp-nc=", "properties": {"@source_uri": "https://tools.usps.com/UspsToolsRestServices/rest/POLocator/findLocations", "@spider": "usps_collection_boxes", "addr:city": "BROWNSBORO", "addr:country": "US", "addr:postcode": "75756", "addr:state": "TX", "addr:street_address": "14201 STATE HIGHWAY 31 E", "amenity": "post_box", "collection_times": "Mo-Fr 16:00", "indoor": "yes", "note": "ON 12/24 AND 12/31, THIS BOX MAY BE COLLECTED AS EARLY AS 12 NOON.", "nsi_id": "unitedstatespostalservice-a77078", "operator": "United States Postal Service", "operator:short": "USPS", "operator:type": "public", "operator:wikidata": "Q668687", "ref": "7575600002"}, "type": "Feature"}
{"geometry": {"coordinates": [-95.617437416, 32.30247321], "type": "Point"}, "id": "bLICrrZu_s7WMVcUbJ__-9GXh44=", "properties": {"@source_uri": "https://tools.usps.com/UspsToolsRestServices/rest/POLocator/findLocations", "@spider": "usps_collection_boxes", "addr:city": "BROWNSBORO", "addr:country": "US", "addr:postcode": "75756", "addr:state": "TX", "addr:street_address": "14201 STATE HIGHWAY 31 E", "amenity": "post_box", "collection_times": "Mo-Fr 16:00", "indoor": "yes", "note": "ON 12/24 AND 12/31, THIS BOX MAY BE COLLECTED AS EARLY AS 12 NOON.", "nsi_id": "unitedstatespostalservice-a77078", "operator": "United States Postal Service", "operator:short": "USPS", "operator:type": "public", "operator:wikidata": "Q668687", "ref": "7575600003"}, "type": "Feature"}
{"geometry": {"coordinates": [-95.3178995, 32.142261], "type": "Point"}, "id": "AQFsUbONify3X-Ot2mygRKjFuMc=", "properties": {"@source_uri": "https://tools.usps.com/UspsToolsRestServices/rest/POLocator/findLocations", "@spider": "usps_collection_boxes", "addr:city": "BULLARD", "addr:country": "US", "addr:postcode": "75757", "addr:state": "TX", "addr:street_address": "409 E MAIN ST", "amenity": "post_box", "collection_times": "Mo-Fr 16:30; Sa 14:00", "note": "ON 12/24 AND 12/31, THIS BOX MAY BE COLLECTED AS EARLY AS 12 NOON.", "nsi_id": "unitedstatespostalservice-a77078", "operator": "United States Postal Service", "operator:short": "USPS", "operator:type": "public", "operator:wikidata": "Q668687", "ref": "7575706529"}, "type": "Feature"}
{"geometry": {"coordinates": [-95.3180009, 32.142458], "type": "Point"}, "id": "5FgmnzBf-syqARcDQtPgOWmMGoM=", "properties": {"@source_uri": "https://tools.usps.com/UspsToolsRestServices/rest/POLocator/findLocations", "@spider": "usps_collection_boxes", "addr:city": "BULLARD", "addr:country": "US", "addr:postcode": "75757", "addr:state": "TX", "addr:street_address": "409 E MAIN ST", "amenity": "post_box", "collection_times": "Mo-Fr 16:30; Sa 14:00", "indoor": "yes", "note": "ON 12/24 AND 12/31, THIS BOX MAY BE COLLECTED AS EARLY AS 12 NOON.", "nsi_id": "unitedstatespostalservice-a77078", "operator": "United States Postal Service", "operator:short": "USPS", "operator:type": "public", "operator:wikidata": "Q668687", "ref": "7575706532"}, "type": "Feature"}
{"geometry": {"coordinates": [-95.3177001108, 32.1422673644], "type": "Point"}, "id": "ViibOMdMsZL6sN3vQi5vHdMGLdY=", "properties": {"@source_uri": "https://tools.usps.com/UspsToolsRestServices/rest/POLocator/findLocations", "@spider": "usps_collection_boxes", "addr:city": "BULLARD", "addr:country": "US", "addr:postcode": "75757", "addr:state": "TX", "addr:street_address": "409 E MAIN ST", "amenity": "post_box", "collection_times": "Mo-Fr 16:00", "indoor": "yes", "note": "ON 12/24 AND 12/31, THIS BOX MAY BE COLLECTED AS EARLY AS 12 NOON.", "nsi_id": "unitedstatespostalservice-a77078", "operator": "United States Postal Service", "operator:short": "USPS", "operator:type": "public", "operator:wikidata": "Q668687", "ref": "7575706533"}, "type": "Feature"}
{"geometry": {"coordinates": [-95.476646, 32.308334], "type": "Point"}, "id": "txBHK9SfDSNViMJwMcKyXPycmD8=", "properties": {"@source_uri": "https://tools.usps.com/UspsToolsRestServices/rest/POLocator/findLocations", "@spider": "usps_collection_boxes", "addr:city": "CHANDLER", "addr:country": "US", "addr:postcode": "75758", "addr:state": "TX", "addr:street_address": "326 STATE HIGHWAY 31 E", "amenity": "post_box", "collection_times": "Mo-Fr 16:30; Sa 09:30", "note": "ON 12/24 AND 12/31, THIS BOX MAY BE COLLECTED AS EARLY AS 12 NOON.", "nsi_id": "unitedstatespostalservice-a77078", "operator": "United States Postal Service", "operator:short": "USPS", "operator:type": "public", "operator:wikidata": "Q668687", "ref": "7575806522"}, "type": "Feature"}
{"geometry": {"coordinates": [-95.476646, 32.308334], "type": "Point"}, "id": "Q4B9zNXZfGsSkTsxnE-QfQvjt7A=", "properties": {"@source_uri": "https://tools.usps.com/UspsToolsRestServices/rest/POLocator/findLocations", "@spider": "usps_collection_boxes", "addr:city": "CHANDLER", "addr:country": "US", "addr:postcode": "75758", "addr:state": "TX", "addr:street_address": "326 STATE HIGHWAY 31 E", "amenity": "post_box", "collection_times": "Mo-Fr 16:30; Sa 09:30", "indoor": "yes", "note": "ON 12/24 AND 12/31, THIS BOX MAY BE COLLECTED AS EARLY AS 12 NOON.", "nsi_id": "unitedstatespostalservice-a77078", "operator": "United States Postal Service", "operator:short": "USPS", "operator:type": "public", "operator:wikidata": "Q668687", "ref": "7575806525"}, "type": "Feature"}
{"geometry": {"coordinates": [-95.476514187, 32.30835098], "type": "Point"}, "id": "D7157JOQUHc9cLbJerC8nD4j6Ck=", "properties": {"@source_uri": "https://tools.usps.com/UspsToolsRestServices/rest/POLocator/findLocations", "@spider": "usps_collection_boxes", "addr:city": "CHANDLER", "addr:country": "US", "addr:postcode": "75758", "addr:state": "TX", "addr:street_address": "326 STATE HIGHWAY 31 E", "amenity": "post_box", "collection_times": "Mo-Fr 16:30", "indoor": "yes", "note": "ON 12/24 AND 12/31, THIS BOX MAY BE COLLECTED AS EARLY AS 12 NOON.", "nsi_id": "unitedstatespostalservice-a77078", "operator": "United States Postal Service", "operator:short": "USPS", "operator:type": "public", "operator:wikidata": "Q668687", "ref": "7575806526"}, "type": "Feature"}
{"geometry": {"coordinates": [-95.4167629757, 32.0307909986], "type": "Point"}, "id": "qdj8G9jc-5Xytwl2ZqiBrjkuIno=", "properties": {"@source_uri": "https://tools.usps.com/UspsToolsRestServices/rest/POLocator/findLocations", "@spider": "usps_collection_boxes", "addr:city": "CUNEY", "addr:country": "US", "addr:postcode": "75759", "addr:state": "TX", "addr:street_address": "9455 US HIGHWAY 175 W", "amenity": "post_box", "collection_times": "Mo-Fr 11:45; Sa 09:30", "nsi_id": "unitedstatespostalservice-a77078", "operator": "United States Postal Service", "operator:short": "USPS", "operator:type": "public", "operator:wikidata": "Q668687", "ref": "7575900000"}, "type": "Feature"}
{"geometry": {"coordinates": [-95.416745, 32.031351], "type": "Point"}, "id": "iZNYzaJUN386tl2idXTcscNJnBU=", "properties": {"@source_uri": "https://tools.usps.com/UspsToolsRestServices/rest/POLocator/findLocations", "@spider": "usps_collection_boxes", "addr:city": "CUNEY", "addr:country": "US", "addr:postcode": "75759", "addr:state": "TX", "addr:street_address": "9455 US HIGHWAY 175 W", "amenity": "post_box", "collection_times": "Mo-Fr 11:30; Sa 09:30", "indoor": "yes", "nsi_id": "unitedstatespostalservice-a77078", "operator": "United States Postal Service", "operator:short": "USPS", "operator:type": "public", "operator:wikidata": "Q668687", "ref": "7575900002"}, "type": "Feature"}
{"geometry": {"coordinates": [-95.416821761, 32.031346364], "type": "Point"}, "id": "Vt8DaN0FG-1_j--Kr3wXwlrHY8c=", "properties": {"@source_uri": "https://tools.usps.com/UspsToolsRestServices/rest/POLocator/findLocations", "@spider": "usps_collection_boxes", "addr:city": "CUNEY", "addr:country": "US", "addr:postcode": "75759", "addr:state": "TX", "addr:street_address": "9455 US HIGHWAY 175 W", "amenity": "post_box", "collection_times": "Mo-Fr 11:45", "indoor": "yes", "nsi_id": "unitedstatespostalservice-a77078", "operator": "United States Postal Service", "operator:short": "USPS", "operator:type": "public", "operator:wikidata": "Q668687", "ref": "7575900003"}, "type": "Feature"}
{"geometry": {"coordinates": [-94.840947, 31.812944], "type": "Point"}, "id": "as1xnkFAucFDXfu8qPqvBMxLOQ4=", "properties": {"@source_uri": "https://tools.usps.com/UspsToolsRestServices/rest/POLocator/findLocations", "@spider": "usps_collection_boxes", "addr:city": "CUSHING", "addr:country": "US", "addr:postcode": "75760", "addr:state": "TX", "addr:street_address": "602 7TH ST", "amenity": "post_box", "collection_times": "Mo-Fr 16:00; Sa 10:00", "note": "ON 12/24 AND 12/31, THIS BOX MAY BE COLLECTED AS EARLY AS 12 NOON.", "nsi_id": "unitedstatespostalservice-a77078", "operator": "United States Postal Service", "operator:short": "USPS", "operator:type": "public", "operator:wikidata": "Q668687", "ref": "7576000000"}, "type": "Feature"}
{"geometry": {"coordinates": [-94.840947, 31.812944], "type": "Point"}, "id": "0HQHvOu-0F7EoJvSBVg7X8sW938=", "properties": {"@source_uri": "https://tools.usps.com/UspsToolsRestServices/rest/POLocator/findLocations", "@spider": "usps_collection_boxes", "addr:city": "CUSHING", "addr:country": "US", "addr:postcode": "75760", "addr:state": "TX", "addr:street_address": "602 7TH ST", "amenity": "post_box", "collection_times": "Mo-Fr 16:00; Sa 10:00", "indoor": "yes", "note": "ON 12/24 AND 12/31, THIS BOX MAY BE COLLECTED AS EARLY AS 12 NOON.", "nsi_id": "unitedstatespostalservice-a77078", "operator": "United States Postal Service", "operator:short": "USPS", "operator:type": "public", "operator:wikidata": "Q668687", "ref": "7576000001"}, "type": "Feature"}
{"geometry": {"coordinates": [-94.840947, 31.812944], "type": "Point"}, "id": "5UgbYO_CqP8Dr7kaBvCU6bh3nCo=", "properties": {"@source_uri": "https://tools.usps.com/UspsToolsRestServices/rest/POLocator/findLocations", "@spider": "usps_collection_boxes", "addr:city": "CUSHING", "addr:country": "US", "addr:postcode": "75760", "addr:state": "TX", "addr:street_address": "602 7TH ST", "amenity": "post_box", "collection_times": "Mo-Fr 16:00; Sa 10:00", "indoor": "yes", "note": "ON 12/24 AND 12/31, THIS BOX MAY BE COLLECTED AS EARLY AS 12 NOON.", "nsi_id": "unitedstatespostalservice-a77078", "operator": "United States Postal Service", "operator:short": "USPS", "operator:type": "public", "operator:wikidata": "Q668687", "ref": "7576000002"}, "type": "Feature"}
{"geometry": {"coordinates": [-94.840958177, 31.813172696], "type": "Point"}, "id": "PAxjVoWoQ0jaQl_xZCvzsRgz0J8=", "properties": {"@source_uri": "https://tools.usps.com/UspsToolsRestServices/rest/POLocator/findLocations", "@spider": "usps_collection_boxes", "addr:city": "CUSHING", "addr:country": "US", "addr:postcode": "75760", "addr:state": "TX", "addr:street_address": "602 7TH ST", "amenity": "post_box", "collection_times": "Mo-Fr 16:00", "indoor": "yes", "note": "ON 12/24 AND 12/31, THIS BOX MAY BE COLLECTED AS EARLY AS 12 NOON.", "nsi_id": "unitedstatespostalservice-a77078", "operator": "United States Postal Service", "operator:short": "USPS", "operator:type": "public", "operator:wikidata": "Q668687", "ref": "7576000003"}, "type": "Feature"}
{"geometry": {"coordinates": [-95.345813, 32.204134], "type": "Point"}, "id": "VaQPtRBMWXXJ_hIFLa3gP1-E-Ws=", "properties": {"@source_uri": "https://tools.usps.com/UspsToolsRestServices/rest/POLocator/findLocations", "@spider": "usps_collection_boxes", "addr:city": "FLINT", "addr:country": "US", "addr:postcode": "75762", "addr:state": "TX", "addr:street_address": "10668 FM 346 W", "amenity": "post_box", "collection_times": "Mo-Fr 16:00; Sa 09:30", "note": "ON 12/24 AND 12/31, THIS BOX MAY BE COLLECTED AS EARLY AS 12 NOON.", "nsi_id": "unitedstatespostalservice-a77078", "operator": "United States Postal Service", "operator:short": "USPS", "operator:type": "public", "operator:wikidata": "Q668687", "ref": "7576200001"}, "type": "Feature"}
{"geometry": {"coordinates": [-95.4364264, 32.18932], "type": "Point"}, "id": "X97pJbYdytvezSWsK90bkHGT_2w=", "properties": {"@source_uri": "https://tools.usps.com/UspsToolsRestServices/rest/POLocator/findLocations", "@spider": "usps_collection_boxes", "addr:city": "FLINT", "addr:country": "US", "addr:postcode": "75762", "addr:state": "TX", "addr:street_address": "20100 STATE HIGHWAY 155 S", "amenity": "post_box", "collection_times": "Mo-Fr 10:00; Sa 09:30", "nsi_id": "unitedstatespostalservice-a77078", "operator": "United States Postal Service", "operator:short": "USPS", "operator:type": "public", "operator:wikidata": "Q668687", "ref": "7576200002"}, "type": "Feature"}
{"geometry": {"coordinates": [-95.3487149, 32.234261], "type": "Point"}, "id": "43X-vfgxiikM1592L-j-OcScXVo=", "properties": {"@source_uri": "https://tools.usps.com/UspsToolsRestServices/rest/POLocator/findLocations", "@spider": "usps_collection_boxes", "addr:city": "FLINT", "addr:country": "US", "addr:postcode": "75762", "addr:state": "TX", "addr:street_address": "16921 FM 2493", "amenity": "post_box", "collection_times": "Mo-Fr 11:00; Sa 09:30", "nsi_id": "unitedstatespostalservice-a77078", "operator": "United States Postal Service", "operator:short": "USPS", "operator:type": "public", "operator:wikidata": "Q668687", "ref": "7576200003"}, "type": "Feature"}
{"geometry": {"coordinates": [-95.345451, 32.204048], "type": "Point"}, "id": "4Z85D18kmsZWObZ6ISogKbBWicU=", "properties": {"@source_uri": "https://tools.usps.com/UspsToolsRestServices/rest/POLocator/findLocations", "@spider": "usps_collection_boxes", "addr:city": "FLINT", "addr:country": "US", "addr:postcode": "75762", "addr:state": "TX", "addr:street_address": "10668 FM 346 W", "amenity": "post_box", "collection_times": "Mo-Fr 16:00; Sa 09:30", "indoor": "yes", "note": "ON 12/24 AND 12/31, THIS BOX MAY BE COLLECTED AS EARLY AS 12 NOON.", "nsi_id": "unitedstatespostalservice-a77078", "operator": "United States Postal Service", "operator:short": "USPS", "operator:type": "public", "operator:wikidata": "Q668687", "ref": "7576200004"}, "type": "Feature"}
{"geometry": {"coordinates": [-95.3458489, 32.204377], "type": "Point"}, "id": "c-lsJmSzdoYQZjkcj054PjNSHzc=", "properties": {"@source_uri": "https://tools.usps.com/UspsToolsRestServices/rest/POLocator/findLocations", "@spider": "usps_collection_boxes", "addr:city": "FLINT", "addr:country": "US", "addr:postcode": "75762", "addr:state": "TX", "addr:street_address": "10668 FM 346 W", "amenity": "post_box", "collection_times": "Mo-Fr 16:00; Sa 09:30", "indoor": "yes", "note": "ON 12/24 AND 12/31, THIS BOX MAY BE COLLECTED AS EARLY AS 12 NOON.", "nsi_id": "unitedstatespostalservice-a77078", "operator": "United States Postal Service", "operator:short": "USPS", "operator:type": "public", "operator:wikidata": "Q668687", "ref": "7576200006"}, "type": "Feature"}
{"geometry": {"coordinates": [-95.345454067, 32.204047469], "type": "Point"}, "id": "PAj45GXlEoUQ7qK9lsD-4CeVz9s=", "properties": {"@source_uri": "https://tools.usps.com/UspsToolsRestServices/rest/POLocator/findLocations", "@spider": "usps_collection_boxes", "addr:city": "FLINT", "addr:country": "US", "addr:postcode": "75762", "addr:state": "TX", "addr:street_address": "10668 FM 346 W", "amenity": "post_box", "collection_times": "Mo-Fr 16:00", "indoor": "yes", "note": "ON 12/24 AND 12/31, THIS BOX MAY BE COLLECTED AS EARLY AS 12 NOON.", "nsi_id": "unitedstatespostalservice-a77078", "operator": "United States Postal Service", "operator:short": "USPS", "operator:type": "public", "operator:wikidata": "Q668687", "ref": "7576200007"}, "type": "Feature"}
{"geometry": {"coordinates": [-95.502031, 32.05066], "type": "Point"}, "id": "vJlOsF0YCNuPdHj1Mh67exlIaws=", "properties": {"@source_uri": "https://tools.usps.com/UspsToolsRestServices/rest/POLocator/findLocations", "@spider": "usps_collection_boxes", "addr:city": "FRANKSTON", "addr:country": "US", "addr:postcode": "75763", "addr:state": "TX", "addr:street_address": "400 E MAIN ST", "amenity": "post_box", "collection_times": "Mo-Fr 15:45; Sa 08:00", "note": "ON 12/24 AND 12/31, THIS BOX MAY BE COLLECTED AS EARLY AS 12 NOON.", "nsi_id": "unitedstatespostalservice-a77078", "operator": "United States Postal Service", "operator:short": "USPS", "operator:type": "public", "operator:wikidata": "Q668687", "ref": "7576306520"}, "type": "Feature"}
{"geometry": {"coordinates": [-95.502031, 32.05066], "type": "Point"}, "id": "_LRkQUOg8poYe4ZnXfG211V_rck=", "properties": {"@source_uri": "https://tools.usps.com/UspsToolsRestServices/rest/POLocator/findLocations", "@spider": "usps_collection_boxes", "addr:city": "FRANKSTON", "addr:country": "US", "addr:postcode": "75763", "addr:state": "TX", "addr:street_address": "400 E MAIN ST", "amenity": "post_box", "collection_times": "Mo-Fr 15:45; Sa 08:00", "indoor": "yes", "note": "ON 12/24 AND 12/31, THIS BOX MAY BE COLLECTED AS EARLY AS 12 NOON.", "nsi_id": "unitedstatespostalservice-a77078", "operator": "United States Postal Service", "operator:short": "USPS", "operator:type": "public", "operator:wikidata": "Q668687", "ref": "7576306521"}, "type": "Feature"}
{"geometry": {"coordinates": [-95.502031, 32.05066], "type": "Point"}, "id": "-PRXV6hG6ZZPbvSb1deMZROUPzw=", "properties": {"@source_uri": "https://tools.usps.com/UspsToolsRestServices/rest/POLocator/findLocations", "@spider": "usps_collection_boxes", "addr:city": "FRANKSTON", "addr:country": "US", "addr:postcode": "75763", "addr:state": "TX", "addr:street_address": "400 E MAIN ST", "amenity": "post_box", "collection_times": "Mo-Fr 15:45; Sa 08:00", "indoor": "yes", "note": "ON 12/24 AND 12/31, THIS BOX MAY BE COLLECTED AS EARLY AS 12 NOON.", "nsi_id": "unitedstatespostalservice-a77078", "operator": "United States Postal Service", "operator:short": "USPS", "operator:type": "public", "operator:wikidata": "Q668687", "ref": "7576306522"}, "type": "Feature"}
{"geometry": {"coordinates": [-95.5020327711, 32.0506113898], "type": "Point"}, "id": "DLmJmL5ky3QmAf8bMmiDc8WC_eg=", "properties": {"@source_uri": "https://tools.usps.com/UspsToolsRestServices/rest/POLocator/findLocations", "@spider": "usps_collection_boxes", "addr:city": "FRANKSTON", "addr:country": "US", "addr:postcode": "75763", "addr:state": "TX", "addr:street_address": "400 E MAIN ST", "amenity": "post_box", "collection_times": "Mo-Fr 15:45", "indoor": "yes", "note": "ON 12/24 AND 12/31, THIS BOX MAY BE COLLECTED AS EARLY AS 12 NOON.", "nsi_id": "unitedstatespostalservice-a77078", "operator": "United States Postal Service", "operator:short": "USPS", "operator:type": "public", "operator:wikidata": "Q668687", "ref": "7576306523"}, "type": "Feature"}
{"geometry": {"coordinates": [-95.1449039928, 31.8941350057], "type": "Point"}, "id": "_PAvx2RhEjXdA2Cuf1TRwvDTBuQ=", "properties": {"@source_uri": "https://tools.usps.com/UspsToolsRestServices/rest/POLocator/findLocations", "@spider": "usps_collection_boxes", "addr:city": "GALLATIN", "addr:country": "US", "addr:postcode": "75764", "addr:state": "TX", "addr:street_address": "139 E FIRST AVE", "amenity": "post_box", "collection_times": "Mo-Fr 12:00; Sa 10:00", "nsi_id": "unitedstatespostalservice-a77078", "operator": "United States Postal Service", "operator:short": "USPS", "operator:type": "public", "operator:wikidata": "Q668687", "ref": "7576400000"}, "type": "Feature"}
{"geometry": {"coordinates": [-95.145316, 31.893798], "type": "Point"}, "id": "yqAQOXaGM6r-wASMskeihVlJBjw=", "properties": {"@source_uri": "https://tools.usps.com/UspsToolsRestServices/rest/POLocator/findLocations", "@spider": "usps_collection_boxes", "addr:city": "GALLATIN", "addr:country": "US", "addr:postcode": "75764", "addr:state": "TX", "addr:street_address": "139 E FIRST AVE", "amenity": "post_box", "collection_times": "Mo-Fr 11:30; Sa 09:00", "indoor": "yes", "nsi_id": "unitedstatespostalservice-a77078", "operator": "United States Postal Service", "operator:short": "USPS", "operator:type": "public", "operator:wikidata": "Q668687", "ref": "7576400001"}, "type": "Feature"}
{"geometry": {"coordinates": [-95.145092361, 31.8938205], "type": "Point"}, "id": "kcoVvH1NlXZSFziIUYIfrX8qMGI=", "properties": {"@source_uri": "https://tools.usps.com/UspsToolsRestServices/rest/POLocator/findLocations", "@spider": "usps_collection_boxes", "addr:city": "GALLATIN", "addr:country": "US", "addr:postcode": "75764", "addr:state": "TX", "addr:street_address": "139 E FIRST AVE", "amenity": "post_box", "collection_times": "Mo-Fr 12:00", "indoor": "yes", "nsi_id": "unitedstatespostalservice-a77078", "operator": "United States Postal Service", "operator:short": "USPS", "operator:type": "public", "operator:wikidata": "Q668687", "ref": "7576400003"}, "type": "Feature"}
{"geometry": {"coordinates": [-95.206788, 32.599012], "type": "Point"}, "id": "DF5pfFpZIXaGPJekjWPWtfUMJgI=", "properties": {"@source_uri": "https://tools.usps.com/UspsToolsRestServices/rest/POLocator/findLocations", "@spider": "usps_collection_boxes", "addr:city": "HAWKINS", "addr:country": "US", "addr:postcode": "75765", "addr:state": "TX", "addr:street_address": "969 N BEAULAH ST", "amenity": "post_box", "collection_times": "Mo-Fr 16:00; Sa 11:30", "note": "ON 12/24 AND 12/31, THIS BOX MAY BE COLLECTED AS EARLY AS 12 NOON.", "nsi_id": "unitedstatespostalservice-a77078", "operator": "United States Postal Service", "operator:short": "USPS", "operator:type": "public", "operator:wikidata": "Q668687", "ref": "7576500001"}, "type": "Feature"}
{"geometry": {"coordinates": [-95.206788, 32.599012], "type": "Point"}, "id": "kFtQex848CWfuPXJuf5rj7qfPdc=", "properties": {"@source_uri": "https://tools.usps.com/UspsToolsRestServices/rest/POLocator/findLocations", "@spider": "usps_collection_boxes", "addr:city": "HAWKINS", "addr:country": "US", "addr:postcode": "75765", "addr:state": "TX", "addr:street_address": "969 N BEAULAH ST", "amenity": "post_box", "collection_times": "Mo-Fr 16:00; Sa 11:30", "indoor": "yes", "note": "ON 12/24 AND 12/31, THIS BOX MAY BE COLLECTED AS EARLY AS 12 NOON.", "nsi_id": "unitedstatespostalservice-a77078", "operator": "United States Postal Service", "operator:short": "USPS", "operator:type": "public", "operator:wikidata": "Q668687", "ref": "7576500003"}, "type": "Feature"}
{"geometry": {"coordinates": [-95.2086364, 32.71724], "type": "Point"}, "id": "7_btRrF-BFADbI90us6ZHIG7giQ=", "properties": {"@source_uri": "https://tools.usps.com/UspsToolsRestServices/rest/POLocator/findLocations", "@spider": "usps_collection_boxes", "addr:city": "HAWKINS", "addr:country": "US", "addr:postcode": "75765", "addr:state": "TX", "addr:street_address": "FM 2869", "amenity": "post_box", "collection_times": "Mo-Fr 13:30", "note": "ON 12/24 AND 12/31, THIS BOX MAY BE COLLECTED AS EARLY AS 12 NOON.", "nsi_id": "unitedstatespostalservice-a77078", "operator": "United States Postal Service", "operator:short": "USPS", "operator:type": "public", "operator:wikidata": "Q668687", "ref": "7576500004"}, "type": "Feature"}
{"geometry": {"coordinates": [-95.1960495, 32.713801], "type": "Point"}, "id": "oN_tJDbNrxDTu17y6o3f8CGXk3k=", "properties": {"@source_uri": "https://tools.usps.com/UspsToolsRestServices/rest/POLocator/findLocations", "@spider": "usps_collection_boxes", "addr:city": "HAWKINS", "addr:country": "US", "addr:postcode": "75765", "addr:state": "TX", "addr:street_address": "FM 2869", "amenity": "post_box", "collection_times": "Mo-Fr 13:00; Sa 11:00", "note": "ON 12/24 AND 12/31, THIS BOX MAY BE COLLECTED AS EARLY AS 12 NOON.", "nsi_id": "unitedstatespostalservice-a77078", "operator": "United States Postal Service", "operator:short": "USPS", "operator:type": "public", "operator:wikidata": "Q668687", "ref": "7576500005"}, "type": "Feature"}
{"geometry": {"coordinates": [-95.206835471, 32.59958246], "type": "Point"}, "id": "Yxg7M_OI5tmznVn0PiJngJnEnGM=", "properties": {"@source_uri": "https://tools.usps.com/UspsToolsRestServices/rest/POLocator/findLocations", "@spider": "usps_collection_boxes", "addr:city": "HAWKINS", "addr:country": "US", "addr:postcode": "75765", "addr:state": "TX", "addr:street_address": "969 N BEAULAH ST", "amenity": "post_box", "collection_times": "Mo-Fr 16:00", "indoor": "yes", "note": "ON 12/24 AND 12/31, THIS BOX MAY BE COLLECTED AS EARLY AS 12 NOON.", "nsi_id": "unitedstatespostalservice-a77078", "operator": "United States Postal Service", "operator:short": "USPS", "operator:type": "public", "operator:wikidata": "Q668687", "ref": "7576500006"}, "type": "Feature"}
{"geometry": {"coordinates": [-95.2771760408, 31.9614289896], "type": "Point"}, "id": "TqBktJ2tT7_iwKX8ZOoya32JIRk=", "properties": {"@source_uri": "https://tools.usps.com/UspsToolsRestServices/rest/POLocator/findLocations", "@spider": "usps_collection_boxes", "addr:city": "JACKSONVILLE", "addr:country": "US", "addr:postcode": "75766", "addr:state": "TX", "addr:street_address": "400 W RUSK ST", "amenity": "post_box", "collection_times": "Mo-Fr 17:00; Sa 15:00", "note": "ON 12/24 AND 12/31, THIS BOX MAY BE COLLECTED AS EARLY AS 12 NOON.", "nsi_id": "unitedstatespostalservice-a77078", "operator": "United States Postal Service", "operator:short": "USPS", "operator:type": "public", "operator:wikidata": "Q668687", "ref": "7576606357"}, "type": "Feature"}
{"geometry": {"coordinates": [-95.257388, 31.943996], "type": "Point"}, "id": "KXaWdvTK5qJTTOiRRb2_L21ddIE=", "properties": {"@source_uri": "https://tools.usps.com/UspsToolsRestServices/rest/POLocator/findLocations", "@spider": "usps_collection_boxes", "addr:city": "JACKSONVILLE", "addr:country": "US", "addr:postcode": "75766", "addr:state": "TX", "addr:street_address": "1800 S JACKSON ST", "amenity": "post_box", "collection_times": "Mo-Fr 09:00", "nsi_id": "unitedstatespostalservice-a77078", "operator": "United States Postal Service", "operator:short": "USPS", "operator:type": "public", "operator:wikidata": "Q668687", "ref": "7576606369"}, "type": "Feature"}
{"geometry": {"coordinates": [-95.2656053, 31.951501], "type": "Point"}, "id": "_U3B1IDhCXtBURfS4sBTM0WjTy4=", "properties": {"@source_uri": "https://tools.usps.com/UspsToolsRestServices/rest/POLocator/findLocations", "@spider": "usps_collection_boxes", "addr:city": "JACKSONVILLE", "addr:country": "US", "addr:postcode": "75766", "addr:state": "TX", "addr:street_address": "1311 S JACKSON ST", "amenity": "post_box", "collection_times": "Mo-Sa 10:00", "nsi_id": "unitedstatespostalservice-a77078", "operator": "United States Postal Service", "operator:short": "USPS", "operator:type": "public", "operator:wikidata": "Q668687", "ref": "7576606375"}, "type": "Feature"}
{"geometry": {"coordinates": [-95.276437, 31.961158], "type": "Point"}, "id": "DX5omE_SohFKUoI8N-bigpPZAUY=", "properties": {"@source_uri": "https://tools.usps.com/UspsToolsRestServices/rest/POLocator/findLocations", "@spider": "usps_collection_boxes", "addr:city": "JACKSONVILLE", "addr:country": "US", "addr:postcode": "75766", "addr:state": "TX", "addr:street_address": "400 W RUSK ST", "amenity": "post_box", "collection_times": "Mo-Fr 17:00; Sa 15:00", "indoor": "yes", "note": "ON 12/24 AND 12/31, THIS BOX MAY BE COLLECTED AS EARLY AS 12 NOON.", "nsi_id": "unitedstatespostalservice-a77078", "operator": "United States Postal Service", "operator:short": "USPS", "operator:type": "public", "operator:wikidata": "Q668687", "ref": "7576606376"}, "type": "Feature"}
{"geometry": {"coordinates": [-95.276437, 31.961158], "type": "Point"}, "id": "qls5QUZ1jlsXGCdrhN5JzzZMBSI=", "properties": {"@source_uri": "https://tools.usps.com/UspsToolsRestServices/rest/POLocator/findLocations", "@spider": "usps_collection_boxes", "addr:city": "JACKSONVILLE", "addr:country": "US", "addr:postcode": "75766", "addr:state": "TX", "addr:street_address": "400 W RUSK ST", "amenity": "post_box", "collection_times": "Mo-Fr 17:00; Sa 15:00", "indoor": "yes", "note": "ON 12/24 AND 12/31, THIS BOX MAY BE COLLECTED AS EARLY AS 12 NOON.", "nsi_id": "unitedstatespostalservice-a77078", "operator": "United States Postal Service", "operator:short": "USPS", "operator:type": "public", "operator:wikidata": "Q668687", "ref": "7576606377"}, "type": "Feature"}
{"geometry": {"coordinates": [-95.276437, 31.961158], "type": "Point"}, "id": "XPEU6pXLqS29-LMxiInBxFx3DFY=", "properties": {"@source_uri": "https://tools.usps.com/UspsToolsRestServices/rest/POLocator/findLocations", "@spider": "usps_collection_boxes", "addr:city": "JACKSONVILLE", "addr:country": "US", "addr:postcode": "75766", "addr:state": "TX", "addr:street_address": "400 W RUSK ST", "amenity": "post_box", "collection_times": "Mo-Fr 17:00; Sa 15:00", "indoor": "yes", "note": "ON 12/24 AND 12/31, THIS BOX MAY BE COLLECTED AS EARLY AS 12 NOON.", "nsi_id": "unitedstatespostalservice-a77078", "operator": "United States Postal Service", "operator:short": "USPS", "operator:type": "public", "operator:wikidata": "Q668687", "ref": "7576606378"}, "type": "Feature"}
{"geometry": {"coordinates": [-95.276416417, 31.961196607], "type": "Point"}, "id": "dAHGJzni3xgPmeqI3ijI0GxR_Yg=", "properties": {"@source_uri": "https://tools.usps.com/UspsToolsRestServices/rest/POLocator/findLocations", "@spider": "usps_collection_boxes", "addr:city": "JACKSONVILLE", "addr:country": "US", "addr:postcode": "75766", "addr:state": "TX", "addr:street_address": "400 W RUSK ST", "amenity": "post_box", "collection_times": "Mo-Fr 16:30", "indoor": "yes", "note": "ON 12/24 AND 12/31, THIS BOX MAY BE COLLECTED AS EARLY AS 12 NOON.", "nsi_id": "unitedstatespostalservice-a77078", "operator": "United States Postal Service", "operator:short": "USPS", "operator:type": "public", "operator:wikidata": "Q668687", "ref": "7576606380"}, "type": "Feature"}
{"geometry": {"coordinates": [-95.6755799, 32.1166], "type": "Point"}, "id": "ccwjHoiIbEAgae5VDDw9l359WI0=", "properties": {"@source_uri": "https://tools.usps.com/UspsToolsRestServices/rest/POLocator/findLocations", "@spider": "usps_collection_boxes", "addr:city": "LARUE", "addr:country": "US", "addr:postcode": "75770", "addr:state": "TX", "addr:street_address": "11085 LOOP 60", "amenity": "post_box", "collection_times": "Mo-Fr 13:15; Sa 09:00", "note": "ON 12/24 AND 12/31, THIS BOX MAY BE COLLECTED AS EARLY AS 12 NOON.", "nsi_id": "unitedstatespostalservice-a77078", "operator": "United States Postal Service", "operator:short": "USPS", "operator:type": "public", "operator:wikidata": "Q668687", "ref": "7577000000"}, "type": "Feature"}
{"geometry": {"coordinates": [-95.675467, 32.116576], "type": "Point"}, "id": "-Ir5NCg4C5k54Dda2eWNyJUysVw=", "properties": {"@source_uri": "https://tools.usps.com/UspsToolsRestServices/rest/POLocator/findLocations", "@spider": "usps_collection_boxes", "addr:city": "LARUE", "addr:country": "US", "addr:postcode": "75770", "addr:state": "TX", "addr:street_address": "11085 LOOP 60", "amenity": "post_box", "collection_times": "Mo-Fr 13:30; Sa 07:30", "indoor": "yes", "note": "ON 12/24 AND 12/31, THIS BOX MAY BE COLLECTED AS EARLY AS 12 NOON.", "nsi_id": "unitedstatespostalservice-a77078", "operator": "United States Postal Service", "operator:short": "USPS", "operator:type": "public", "operator:wikidata": "Q668687", "ref": "7577000002"}, "type": "Feature"}
{"geometry": {"coordinates": [-95.6754696, 32.11657095], "type": "Point"}, "id": "UjWfz5gsO1WZdlOD-NGLe6UKID0=", "properties": {"@source_uri": "https://tools.usps.com/UspsToolsRestServices/rest/POLocator/findLocations", "@spider": "usps_collection_boxes", "addr:city": "LARUE", "addr:country": "US", "addr:postcode": "75770", "addr:state": "TX", "addr:street_address": "11085 LOOP 60", "amenity": "post_box", "collection_times": "Mo-Fr 13:30", "indoor": "yes", "note": "ON 12/24 AND 12/31, THIS BOX MAY BE COLLECTED AS EARLY AS 12 NOON.", "nsi_id": "unitedstatespostalservice-a77078", "operator": "United States Postal Service", "operator:short": "USPS", "operator:type": "public", "operator:wikidata": "Q668687", "ref": "7577000004"}, "type": "Feature"}
{"geometry": {"coordinates": [-95.455771946, 32.47090113], "type": "Point"}, "id": "LQlZaBOiAt-vFiJnS9lsZ5z-bug=", "properties": {"@source_uri": "https://tools.usps.com/UspsToolsRestServices/rest/POLocator/findLocations", "@spider": "usps_collection_boxes", "addr:city": "LINDALE", "addr:country": "US", "addr:postcode": "75771", "addr:state": "TX", "addr:street_address": "100B HIDE A WAY LANE CENTRAL", "amenity": "post_box", "collection_times": "Mo-Sa 14:00", "note": "ON 12/24 AND 12/31, THIS BOX MAY BE COLLECTED AS EARLY AS 12 NOON.", "nsi_id": "unitedstatespostalservice-a77078", "operator": "United States Postal Service", "operator:short": "USPS", "operator:type": "public", "operator:wikidata": "Q668687", "ref": "7577106375"}, "type": "Feature"}
{"geometry": {"coordinates": [-95.4088742997, 32.5112237824], "type": "Point"}, "id": "eOWXQzYm5mmK8ui4rtejxZMF0iY=", "properties": {"@source_uri": "https://tools.usps.com/UspsToolsRestServices/rest/POLocator/findLocations", "@spider": "usps_collection_boxes", "addr:city": "LINDALE", "addr:country": "US", "addr:postcode": "75771", "addr:state": "TX", "addr:street_address": "507 S MAIN ST", "amenity": "post_box", "collection_times": "Mo-Fr 17:00; Sa 08:00", "note": "ON 12/24 AND 12/31, THIS BOX MAY BE COLLECTED AS EARLY AS 12 NOON.", "nsi_id": "unitedstatespostalservice-a77078", "operator": "United States Postal Service", "operator:short": "USPS", "operator:type": "public", "operator:wikidata": "Q668687", "ref": "7577106376"}, "type": "Feature"}
{"geometry": {"coordinates": [-95.408845, 32.511094], "type": "Point"}, "id": "ihK5F-7HulNsf7ljCNN0GCE4SMM=", "properties": {"@source_uri": "https://tools.usps.com/UspsToolsRestServices/rest/POLocator/findLocations", "@spider": "usps_collection_boxes", "addr:city": "LINDALE", "addr:country": "US", "addr:postcode": "75771", "addr:state": "TX", "addr:street_address": "507 S MAIN ST", "amenity": "post_box", "collection_times": "Mo-Fr 16:00; Sa 08:00", "indoor": "yes", "note": "ON 12/24 AND 12/31, THIS BOX MAY BE COLLECTED AS EARLY AS 12 NOON.", "nsi_id": "unitedstatespostalservice-a77078", "operator": "United States Postal Service", "operator:short": "USPS", "operator:type": "public", "operator:wikidata": "Q668687", "ref": "7577106379"}, "type": "Feature"}
{"geometry": {"coordinates": [-95.408845, 32.511094], "type": "Point"}, "id": "uvtMlOUUDadH72bZ4TmN1EWeEF8=", "properties": {"@source_uri": "https://tools.usps.com/UspsToolsRestServices/rest/POLocator/findLocations", "@spider": "usps_collection_boxes", "addr:city": "LINDALE", "addr:country": "US", "addr:postcode": "75771", "addr:state": "TX", "addr:street_address": "507 S MAIN ST", "amenity": "post_box", "collection_times": "Mo-Fr 16:00; Sa 08:00", "indoor": "yes", "note": "ON 12/24 AND 12/31, THIS BOX MAY BE COLLECTED AS EARLY AS 12 NOON.", "nsi_id": "unitedstatespostalservice-a77078", "operator": "United States Postal Service", "operator:short": "USPS", "operator:type": "public", "operator:wikidata": "Q668687", "ref": "7577106380"}, "type": "Feature"}
{"geometry": {"coordinates": [-95.4088743, 32.511223782], "type": "Point"}, "id": "p22RwxgDCjoX5NGPnNbxLS-KByY=", "properties": {"@source_uri": "https://tools.usps.com/UspsToolsRestServices/rest/POLocator/findLocations", "@spider": "usps_collection_boxes", "addr:city": "LINDALE", "addr:country": "US", "addr:postcode": "75771", "addr:state": "TX", "addr:street_address": "507 S MAIN ST", "amenity": "post_box", "collection_times": "Mo-Fr 16:00", "indoor": "yes", "note": "ON 12/24 AND 12/31, THIS BOX MAY BE COLLECTED AS EARLY AS 12 NOON.", "nsi_id": "unitedstatespostalservice-a77078", "operator": "United States Postal Service", "operator:short": "USPS", "operator:type": "public", "operator:wikidata": "Q668687", "ref": "7577106382"}, "type": "Feature"}
{"geometry": {"coordinates": [-95.302175, 31.803092], "type": "Point"}, "id": "rME-rakaeRnVuw2CEs49docDQWs=", "properties": {"@source_uri": "https://tools.usps.com/UspsToolsRestServices/rest/POLocator/findLocations", "@spider": "usps_collection_boxes", "addr:city": "MAYDELLE", "addr:country": "US", "addr:postcode": "75772", "addr:state": "TX", "addr:street_address": "156 COUNTY ROAD 1801", "amenity": "post_box", "collection_times": "Mo-Fr 15:45; Sa 09:30", "note": "ON 12/24 AND 12/31, THIS BOX MAY BE COLLECTED AS EARLY AS 12 NOON.", "nsi_id": "unitedstatespostalservice-a77078", "operator": "United States Postal Service", "operator:short": "USPS", "operator:type": "public", "operator:wikidata": "Q668687", "ref": "7577200000"}, "type": "Feature"}
{"geometry": {"coordinates": [-95.302207, 31.803105], "type": "Point"}, "id": "OlV1y1G-EiyQPEis_Mv1yoGePrU=", "properties": {"@source_uri": "https://tools.usps.com/UspsToolsRestServices/rest/POLocator/findLocations", "@spider": "usps_collection_boxes", "addr:city": "MAYDELLE", "addr:country": "US", "addr:postcode": "75772", "addr:state": "TX", "addr:street_address": "156 COUNTY ROAD 1801", "amenity": "post_box", "collection_times": "Mo-Fr 15:45; Sa 09:30", "indoor": "yes", "note": "ON 12/24 AND 12/31, THIS BOX MAY BE COLLECTED AS EARLY AS 12 NOON.", "nsi_id": "unitedstatespostalservice-a77078", "operator": "United States Postal Service", "operator:short": "USPS", "operator:type": "public", "operator:wikidata": "Q668687", "ref": "7577200002"}, "type": "Feature"}
{"geometry": {"coordinates": [-95.30218016, 31.802895], "type": "Point"}, "id": "XN_9mVuzMOmYVdRGJRj7d0kOSt8=", "properties": {"@source_uri": "https://tools.usps.com/UspsToolsRestServices/rest/POLocator/findLocations", "@spider": "usps_collection_boxes", "addr:city": "MAYDELLE", "addr:country": "US", "addr:postcode": "75772", "addr:state": "TX", "addr:street_address": "156 COUNTY ROAD 1801", "amenity": "post_box", "collection_times": "Mo-Fr 16:00", "indoor": "yes", "note": "ON 12/24 AND 12/31, THIS BOX MAY BE COLLECTED AS EARLY AS 12 NOON.", "nsi_id": "unitedstatespostalservice-a77078", "operator": "United States Postal Service", "operator:short": "USPS", "operator:type": "public", "operator:wikidata": "Q668687", "ref": "7577200004"}, "type": "Feature"}
{"geometry": {"coordinates": [-95.482247, 32.661839], "type": "Point"}, "id": "-GJ7Xqj90pd4JrDYYFLm8T2uoMs=", "properties": {"@source_uri": "https://tools.usps.com/UspsToolsRestServices/rest/POLocator/findLocations", "@spider": "usps_collection_boxes", "addr:city": "MINEOLA", "addr:country": "US", "addr:postcode": "75773", "addr:state": "TX", "addr:street_address": "630 E BROAD ST", "amenity": "post_box", "collection_times": "Mo-Fr 16:00; Sa 14:30", "note": "ON 12/24 AND 12/31, THIS BOX MAY BE COLLECTED AS EARLY AS 12 NOON.", "nsi_id": "unitedstatespostalservice-a77078", "operator": "United States Postal Service", "operator:short": "USPS", "operator:type": "public", "operator:wikidata": "Q668687", "ref": "7577306454"}, "type": "Feature"}
{"geometry": {"coordinates": [-95.484183, 32.689914], "type": "Point"}, "id": "cMQljZtKwcWamlflJTKauEVs_yc=", "properties": {"@source_uri": "https://tools.usps.com/UspsToolsRestServices/rest/POLocator/findLocations", "@spider": "usps_collection_boxes", "addr:city": "MINEOLA", "addr:country": "US", "addr:postcode": "75773", "addr:state": "TX", "addr:street_address": "135 NE LOOP 564", "amenity": "post_box", "collection_times": "Mo-Fr 14:45; Sa 14:00", "note": "ON 12/24 AND 12/31, THIS BOX MAY BE COLLECTED AS EARLY AS 12 NOON.", "nsi_id": "unitedstatespostalservice-a77078", "operator": "United States Postal Service", "operator:short": "USPS", "operator:type": "public", "operator:wikidata": "Q668687", "ref": "7577306873"}, "type": "Feature"}
{"geometry": {"coordinates": [-95.482247, 32.661839], "type": "Point"}, "id": "djUEjSuE9IlcxAd7mNbyQaxO2Lw=", "properties": {"@source_uri": "https://tools.usps.com/UspsToolsRestServices/rest/POLocator/findLocations", "@spider": "usps_collection_boxes", "addr:city": "MINEOLA", "addr:country": "US", "addr:postcode": "75773", "addr:state": "TX", "addr:street_address": "630 E BROAD ST", "amenity": "post_box", "collection_times": "Mo-Fr 16:00; Sa 14:30", "indoor": "yes", "note": "ON 12/24 AND 12/31, THIS BOX MAY BE COLLECTED AS EARLY AS 12 NOON.", "nsi_id": "unitedstatespostalservice-a77078", "operator": "United States Postal Service", "operator:short": "USPS", "operator:type": "public", "operator:wikidata": "Q668687", "ref": "7577306875"}, "type": "Feature"}
{"geometry": {"coordinates": [-95.482247, 32.661839], "type": "Point"}, "id": "bmMdovFB1Dub6y91IZ-gQywrT08=", "properties": {"@source_uri": "https://tools.usps.com/UspsToolsRestServices/rest/POLocator/findLocations", "@spider": "usps_collection_boxes", "addr:city": "MINEOLA", "addr:country": "US", "addr:postcode": "75773", "addr:state": "TX", "addr:street_address": "630 E BROAD ST", "amenity": "post_box", "collection_times": "Mo-Fr 16:00; Sa 14:30", "indoor": "yes", "note": "ON 12/24 AND 12/31, THIS BOX MAY BE COLLECTED AS EARLY AS 12 NOON.", "nsi_id": "unitedstatespostalservice-a77078", "operator": "United States Postal Service", "operator:short": "USPS", "operator:type": "public", "operator:wikidata": "Q668687", "ref": "7577306876"}, "type": "Feature"}
{"geometry": {"coordinates": [-95.4846403967, 32.6765040036], "type": "Point"}, "id": "BRGG8ER_UiWoZn44EUiB2N4xKCM=", "properties": {"@source_uri": "https://tools.usps.com/UspsToolsRestServices/rest/POLocator/findLocations", "@spider": "usps_collection_boxes", "addr:city": "MINEOLA", "addr:country": "US", "addr:postcode": "75773", "addr:state": "TX", "addr:street_address": "1224 N PACIFIC ST", "amenity": "post_box", "collection_times": "Mo-Sa 12:30", "note": "ON 12/24 AND 12/31, THIS BOX MAY BE COLLECTED AS EARLY AS 12 NOON.", "nsi_id": "unitedstatespostalservice-a77078", "operator": "United States Postal Service", "operator:short": "USPS", "operator:type": "public", "operator:wikidata": "Q668687", "ref": "7577306877"}, "type": "Feature"}
{"geometry": {"coordinates": [-95.481281482, 32.661550239], "type": "Point"}, "id": "-rNusWgs2BEFRrTFicuOiEhUL1Y=", "properties": {"@source_uri": "https://tools.usps.com/UspsToolsRestServices/rest/POLocator/findLocations", "@spider": "usps_collection_boxes", "addr:city": "MINEOLA", "addr:country": "US", "addr:postcode": "75773", "addr:state": "TX", "addr:street_address": "630 E BROAD ST", "amenity": "post_box", "collection_times": "Mo-Fr 16:30", "indoor": "yes", "note": "ON 12/24 AND 12/31, THIS BOX MAY BE COLLECTED AS EARLY AS 12 NOON.", "nsi_id": "unitedstatespostalservice-a77078", "operator": "United States Postal Service", "operator:short": "USPS", "operator:type": "public", "operator:wikidata": "Q668687", "ref": "7577306879"}, "type": "Feature"}
{"geometry": {"coordinates": [-95.746409, 32.279724], "type": "Point"}, "id": "siTPbgyVAX8Xtyz6cme82DYzfZI=", "properties": {"@source_uri": "https://tools.usps.com/UspsToolsRestServices/rest/POLocator/findLocations", "@spider": "usps_collection_boxes", "addr:city": "MURCHISON", "addr:country": "US", "addr:postcode": "75778", "addr:state": "TX", "addr:street_address": "6684 STATE HIGHWAY 31", "amenity": "post_box", "collection_times": "Mo-Fr 15:45; Sa 08:15", "note": "ON 12/24 AND 12/31, THIS BOX MAY BE COLLECTED AS EARLY AS 12 NOON.", "nsi_id": "unitedstatespostalservice-a77078", "operator": "United States Postal Service", "operator:short": "USPS", "operator:type": "public", "operator:wikidata": "Q668687", "ref": "7577800000"}, "type": "Feature"}
{"geometry": {"coordinates": [-95.746409, 32.279724], "type": "Point"}, "id": "X7Nvs20zsxwlxUlOKBczxf-APS8=", "properties": {"@source_uri": "https://tools.usps.com/UspsToolsRestServices/rest/POLocator/findLocations", "@spider": "usps_collection_boxes", "addr:city": "MURCHISON", "addr:country": "US", "addr:postcode": "75778", "addr:state": "TX", "addr:street_address": "6684 STATE HIGHWAY 31", "amenity": "post_box", "collection_times": "Mo-Fr 16:00; Sa 08:15", "indoor": "yes", "note": "ON 12/24 AND 12/31, THIS BOX MAY BE COLLECTED AS EARLY AS 12 NOON.", "nsi_id": "unitedstatespostalservice-a77078", "operator": "United States Postal Service", "operator:short": "USPS", "operator:type": "public", "operator:wikidata": "Q668687", "ref": "7577800003"}, "type": "Feature"}
{"geometry": {"coordinates": [-95.747054763, 32.279484545], "type": "Point"}, "id": "morAuXfSaK4WSncSao9AiEdAssU=", "properties": {"@source_uri": "https://tools.usps.com/UspsToolsRestServices/rest/POLocator/findLocations", "@spider": "usps_collection_boxes", "addr:city": "MURCHISON", "addr:country": "US", "addr:postcode": "75778", "addr:state": "TX", "addr:street_address": "6684 STATE HIGHWAY 31", "amenity": "post_box", "collection_times": "Mo-Fr 16:00", "indoor": "yes", "note": "ON 12/24 AND 12/31, THIS BOX MAY BE COLLECTED AS EARLY AS 12 NOON.", "nsi_id": "unitedstatespostalservice-a77078", "operator": "United States Postal Service", "operator:short": "USPS", "operator:type": "public", "operator:wikidata": "Q668687", "ref": "7577800004"}, "type": "Feature"}
{"geometry": {"coordinates": [-95.5300148758, 31.8411366005], "type": "Point"}, "id": "zwZvQWT5GXP0m_H3n-q71e43-44=", "properties": {"@source_uri": "https://tools.usps.com/UspsToolsRestServices/rest/POLocator/findLocations", "@spider": "usps_collection_boxes", "addr:city": "NECHES", "addr:country": "US", "addr:postcode": "75779", "addr:state": "TX", "addr:street_address": "100 FM 2574", "amenity": "post_box", "collection_times": "Mo-Fr 14:15; Sa 09:00", "note": "ON 12/24 AND 12/31, THIS BOX MAY BE COLLECTED AS EARLY AS 12 NOON.", "nsi_id": "unitedstatespostalservice-a77078", "operator": "United States Postal Service", "operator:short": "USPS", "operator:type": "public", "operator:wikidata": "Q668687", "ref": "7577900000"}, "type": "Feature"}
{"geometry": {"coordinates": [-95.4961131352, 31.8658983027], "type": "Point"}, "id": "4bdSUCL13B74Uvv94XYFzumcs2o=", "properties": {"@source_uri": "https://tools.usps.com/UspsToolsRestServices/rest/POLocator/findLocations", "@spider": "usps_collection_boxes", "addr:city": "NECHES", "addr:country": "US", "addr:postcode": "75779", "addr:state": "TX", "addr:street_address": "100 FM 2574", "amenity": "post_box", "collection_times": "Mo-Fr 11:30; Sa 09:00", "indoor": "yes", "nsi_id": "unitedstatespostalservice-a77078", "operator": "United States Postal Service", "operator:short": "USPS", "operator:type": "public", "operator:wikidata": "Q668687", "ref": "7577900002"}, "type": "Feature"}
{"geometry": {"coordinates": [-95.530025601, 31.841127], "type": "Point"}, "id": "4wvWRYlLfoKAIxlAfp6nAcO4_1c=", "properties": {"@source_uri": "https://tools.usps.com/UspsToolsRestServices/rest/POLocator/findLocations", "@spider": "usps_collection_boxes", "addr:city": "NECHES", "addr:country": "US", "addr:postcode": "75779", "addr:state": "TX", "addr:street_address": "100 FM 2574", "amenity": "post_box", "collection_times": "Mo-Fr 14:30", "indoor": "yes", "note": "ON 12/24 AND 12/31, THIS BOX MAY BE COLLECTED AS EARLY AS 12 NOON.", "nsi_id": "unitedstatespostalservice-a77078", "operator": "United States Postal Service", "operator:short": "USPS", "operator:type": "public", "operator:wikidata": "Q668687", "ref": "7577900004"}, "type": "Feature"}
{"geometry": {"coordinates": [-95.0955742225, 31.9842342015], "type": "Point"}, "id": "tztD8kVaG_hlmh-eFuBTtmtMw00=", "properties": {"@source_uri": "https://tools.usps.com/UspsToolsRestServices/rest/POLocator/findLocations", "@spider": "usps_collection_boxes", "addr:city": "NEW SUMMERFIELD", "addr:country": "US", "addr:postcode": "75780", "addr:state": "TX", "addr:street_address": "13460 STATE HIGHWAY 110 N", "amenity": "post_box", "collection_times": "Mo-Fr 16:00; Sa 10:00", "note": "ON 12/24 AND 12/31, THIS BOX MAY BE COLLECTED AS EARLY AS 12 NOON.", "nsi_id": "unitedstatespostalservice-a77078", "operator": "United States Postal Service", "operator:short": "USPS", "operator:type": "public", "operator:wikidata": "Q668687", "ref": "7578000000"}, "type": "Feature"}
{"geometry": {"coordinates": [-95.095661, 31.984271], "type": "Point"}, "id": "MOmuqa_ssiXUMOckI_xCAXyP2c4=", "properties": {"@source_uri": "https://tools.usps.com/UspsToolsRestServices/rest/POLocator/findLocations", "@spider": "usps_collection_boxes", "addr:city": "NEW SUMMERFIELD", "addr:country": "US", "addr:postcode": "75780", "addr:state": "TX", "addr:street_address": "13460 STATE HIGHWAY 110 N", "amenity": "post_box", "collection_times": "Mo-Fr 15:45; Sa 09:30", "indoor": "yes", "note": "ON 12/24 AND 12/31, THIS BOX MAY BE COLLECTED AS EARLY AS 12 NOON.", "nsi_id": "unitedstatespostalservice-a77078", "operator": "United States Postal Service", "operator:short": "USPS", "operator:type": "public", "operator:wikidata": "Q668687", "ref": "7578000002"}, "type": "Feature"}
{"geometry": {"coordinates": [-95.0955844347, 31.9842302459], "type": "Point"}, "id": "_OiAeGMdvdLuI0JDegzRA_ee9zg=", "properties": {"@source_uri": "https://tools.usps.com/UspsToolsRestServices/rest/POLocator/findLocations", "@spider": "usps_collection_boxes", "addr:city": "NEW SUMMERFIELD", "addr:country": "US", "addr:postcode": "75780", "addr:state": "TX", "addr:street_address": "13460 STATE HIGHWAY 110 N", "amenity": "post_box", "collection_times": "Mo-Fr 16:00", "indoor": "yes", "note": "ON 12/24 AND 12/31, THIS BOX MAY BE COLLECTED AS EARLY AS 12 NOON.", "nsi_id": "unitedstatespostalservice-a77078", "operator": "United States Postal Service", "operator:short": "USPS", "operator:type": "public", "operator:wikidata": "Q668687", "ref": "7578000004"}, "type": "Feature"}
{"geometry": {"coordinates": [-95.59862, 32.074789], "type": "Point"}, "id": "anD5DI-VxGJJWpImjOgPGXFsBq4=", "properties": {"@source_uri": "https://tools.usps.com/UspsToolsRestServices/rest/POLocator/findLocations", "@spider": "usps_collection_boxes", "addr:city": "POYNOR", "addr:country": "US", "addr:postcode": "75782", "addr:state": "TX", "addr:street_address": "15662 US HIGHWAY 175 E", "amenity": "post_box", "collection_times": "Mo-Fr 16:00; Sa 09:30", "note": "ON 12/24 AND 12/31, THIS BOX MAY BE COLLECTED AS EARLY AS 12 NOON.", "nsi_id": "unitedstatespostalservice-a77078", "operator": "United States Postal Service", "operator:short": "USPS", "operator:type": "public", "operator:wikidata": "Q668687", "ref": "7578200000"}, "type": "Feature"}
{"geometry": {"coordinates": [-95.598644, 32.074835], "type": "Point"}, "id": "ElzNozeq4htevTK2KWgT7e0o7bg=", "properties": {"@source_uri": "https://tools.usps.com/UspsToolsRestServices/rest/POLocator/findLocations", "@spider": "usps_collection_boxes", "addr:city": "POYNOR", "addr:country": "US", "addr:postcode": "75782", "addr:state": "TX", "addr:street_address": "15662 US HIGHWAY 175 E", "amenity": "post_box", "collection_times": "Mo-Fr 15:30; Sa 09:00", "indoor": "yes", "note": "ON 12/24 AND 12/31, THIS BOX MAY BE COLLECTED AS EARLY AS 12 NOON.", "nsi_id": "unitedstatespostalservice-a77078", "operator": "United States Postal Service", "operator:short": "USPS", "operator:type": "public", "operator:wikidata": "Q668687", "ref": "7578200001"}, "type": "Feature"}
{"geometry": {"coordinates": [-95.598644, 32.074835], "type": "Point"}, "id": "klJuZti6SgDnAgUVwkFHwCWtoIk=", "properties": {"@source_uri": "https://tools.usps.com/UspsToolsRestServices/rest/POLocator/findLocations", "@spider": "usps_collection_boxes", "addr:city": "POYNOR", "addr:country": "US", "addr:postcode": "75782", "addr:state": "TX", "addr:street_address": "15662 US HIGHWAY 175 E", "amenity": "post_box", "collection_times": "Mo-Fr 15:30; Sa 09:00", "indoor": "yes", "note": "ON 12/24 AND 12/31, THIS BOX MAY BE COLLECTED AS EARLY AS 12 NOON.", "nsi_id": "unitedstatespostalservice-a77078", "operator": "United States Postal Service", "operator:short": "USPS", "operator:type": "public", "operator:wikidata": "Q668687", "ref": "7578200002"}, "type": "Feature"}
{"geometry": {"coordinates": [-95.599869757, 32.075459659], "type": "Point"}, "id": "lLXs18R-zeoeCsRmDOATNu-TiQU=", "properties": {"@source_uri": "https://tools.usps.com/UspsToolsRestServices/rest/POLocator/findLocations", "@spider": "usps_collection_boxes", "addr:city": "POYNOR", "addr:country": "US", "addr:postcode": "75782", "addr:state": "TX", "addr:street_address": "15662 US HIGHWAY 175 E", "amenity": "post_box", "collection_times": "Mo-Fr 16:00; Sa 09:00", "indoor": "yes", "note": "ON 12/24 AND 12/31, THIS BOX MAY BE COLLECTED AS EARLY AS 12 NOON.", "nsi_id": "unitedstatespostalservice-a77078", "operator": "United States Postal Service", "operator:short": "USPS", "operator:type": "public", "operator:wikidata": "Q668687", "ref": "7578200004"}, "type": "Feature"}
{"geometry": {"coordinates": [-95.449714, 32.796394], "type": "Point"}, "id": "MvBGn8MyIhRFrOMMX6dbd9CMFzA=", "properties": {"@source_uri": "https://tools.usps.com/UspsToolsRestServices/rest/POLocator/findLocations", "@spider": "usps_collection_boxes", "addr:city": "QUITMAN", "addr:country": "US", "addr:postcode": "75783", "addr:state": "TX", "addr:street_address": "202 N SISSY SPACEK DR", "amenity": "post_box", "collection_times": "Mo-Fr 16:30; Sa 10:30", "note": "ON 12/24 AND 12/31, THIS BOX MAY BE COLLECTED AS EARLY AS 12 NOON.", "nsi_id": "unitedstatespostalservice-a77078", "operator": "United States Postal Service", "operator:short": "USPS", "operator:type": "public", "operator:wikidata": "Q668687", "ref": "7578306878"}, "type": "Feature"}
{"geometry": {"coordinates": [-95.449714, 32.796394], "type": "Point"}, "id": "2b5ZEVo_jHl9YE3QSy188lOQ7rw=", "properties": {"@source_uri": "https://tools.usps.com/UspsToolsRestServices/rest/POLocator/findLocations", "@spider": "usps_collection_boxes", "addr:city": "QUITMAN", "addr:country": "US", "addr:postcode": "75783", "addr:state": "TX", "addr:street_address": "202 N SISSY SPACEK DR", "amenity": "post_box", "collection_times": "Mo-Fr 16:30; Sa 09:00", "indoor": "yes", "note": "ON 12/24 AND 12/31, THIS BOX MAY BE COLLECTED AS EARLY AS 12 NOON.", "nsi_id": "unitedstatespostalservice-a77078", "operator": "United States Postal Service", "operator:short": "USPS", "operator:type": "public", "operator:wikidata": "Q668687", "ref": "7578306891"}, "type": "Feature"}
{"geometry": {"coordinates": [-95.449764915, 32.796321552], "type": "Point"}, "id": "czz1n6YmzZSoc5UVHUZ6tgZOyZM=", "properties": {"@source_uri": "https://tools.usps.com/UspsToolsRestServices/rest/POLocator/findLocations", "@spider": "usps_collection_boxes", "addr:city": "QUITMAN", "addr:country": "US", "addr:postcode": "75783", "addr:state": "TX", "addr:street_address": "202 N SISSY SPACEK DR", "amenity": "post_box", "collection_times": "Mo-Fr 16:00", "indoor": "yes", "note": "ON 12/24 AND 12/31, THIS BOX MAY BE COLLECTED AS EARLY AS 12 NOON.", "nsi_id": "unitedstatespostalservice-a77078", "operator": "United States Postal Service", "operator:short": "USPS", "operator:type": "public", "operator:wikidata": "Q668687", "ref": "7578306893"}, "type": "Feature"}
{"geometry": {"coordinates": [-94.986639, 31.865091], "type": "Point"}, "id": "NFqpSKn4kc2hT_jNupi455DgHF4=", "properties": {"@source_uri": "https://tools.usps.com/UspsToolsRestServices/rest/POLocator/findLocations", "@spider": "usps_collection_boxes", "addr:city": "REKLAW", "addr:country": "US", "addr:postcode": "75784", "addr:state": "TX", "addr:street_address": "320 N MAIN ST", "amenity": "post_box", "collection_times": "Mo-Fr 12:00; Sa 08:30", "nsi_id": "unitedstatespostalservice-a77078", "operator": "United States Postal Service", "operator:short": "USPS", "operator:type": "public", "operator:wikidata": "Q668687", "ref": "7578400000"}, "type": "Feature"}
{"geometry": {"coordinates": [-94.986639, 31.865091], "type": "Point"}, "id": "1DtUIhENdm5B87C5OvF8OJpjJ_4=", "properties": {"@source_uri": "https://tools.usps.com/UspsToolsRestServices/rest/POLocator/findLocations", "@spider": "usps_collection_boxes", "addr:city": "REKLAW", "addr:country": "US", "addr:postcode": "75784", "addr:state": "TX", "addr:street_address": "320 N MAIN ST", "amenity": "post_box", "collection_times": "Mo-Fr 11:30; Sa 08:30", "indoor": "yes", "nsi_id": "unitedstatespostalservice-a77078", "operator": "United States Postal Service", "operator:short": "USPS", "operator:type": "public", "operator:wikidata": "Q668687", "ref": "7578400001"}, "type": "Feature"}
{"geometry": {"coordinates": [-94.986639, 31.865091], "type": "Point"}, "id": "BeqaZ-VAO6pYPdMBYXEDkXgDFJ4=", "properties": {"@source_uri": "https://tools.usps.com/UspsToolsRestServices/rest/POLocator/findLocations", "@spider": "usps_collection_boxes", "addr:city": "REKLAW", "addr:country": "US", "addr:postcode": "75784", "addr:state": "TX", "addr:street_address": "320 N MAIN ST", "amenity": "post_box", "collection_times": "Mo-Fr 11:30; Sa 08:30", "indoor": "yes", "nsi_id": "unitedstatespostalservice-a77078", "operator": "United States Postal Service", "operator:short": "USPS", "operator:type": "public", "operator:wikidata": "Q668687", "ref": "7578400002"}, "type": "Feature"}
{"geometry": {"coordinates": [-94.986605927, 31.865087896], "type": "Point"}, "id": "aranOiM3ng8M03iwLW0OJX2pHgc=", "properties": {"@source_uri": "https://tools.usps.com/UspsToolsRestServices/rest/POLocator/findLocations", "@spider": "usps_collection_boxes", "addr:city": "REKLAW", "addr:country": "US", "addr:postcode": "75784", "addr:state": "TX", "addr:street_address": "320 N MAIN ST", "amenity": "post_box", "collection_times": "Mo-Fr 12:00", "indoor": "yes", "nsi_id": "unitedstatespostalservice-a77078", "operator": "United States Postal Service", "operator:short": "USPS", "operator:type": "public", "operator:wikidata": "Q668687", "ref": "7578400004"}, "type": "Feature"}
{"geometry": {"coordinates": [-95.150677, 31.794996], "type": "Point"}, "id": "r-fXlBE-P2X4uC3xFUKDVNvEFfg=", "properties": {"@source_uri": "https://tools.usps.com/UspsToolsRestServices/rest/POLocator/findLocations", "@spider": "usps_collection_boxes", "addr:city": "RUSK", "addr:country": "US", "addr:postcode": "75785", "addr:state": "TX", "addr:street_address": "112 W 5TH ST", "amenity": "post_box", "collection_times": "Mo-Fr 16:30; Sa 15:00", "note": "ON 12/24 AND 12/31, THIS BOX MAY BE COLLECTED AS EARLY AS 12 NOON.", "nsi_id": "unitedstatespostalservice-a77078", "operator": "United States Postal Service", "operator:short": "USPS", "operator:type": "public", "operator:wikidata": "Q668687", "ref": "7578506333"}, "type": "Feature"}
{"geometry": {"coordinates": [-95.1508188, 31.799754], "type": "Point"}, "id": "Y4Dt_CGh0MJv-Sj8uW5bNbbL2SU=", "properties": {"@source_uri": "https://tools.usps.com/UspsToolsRestServices/rest/POLocator/findLocations", "@spider": "usps_collection_boxes", "addr:city": "RUSK", "addr:country": "US", "addr:postcode": "75785", "addr:state": "TX", "addr:street_address": "425 N MAIN ST", "amenity": "post_box", "collection_times": "Mo-Fr 11:30", "nsi_id": "unitedstatespostalservice-a77078", "operator": "United States Postal Service", "operator:short": "USPS", "operator:type": "public", "operator:wikidata": "Q668687", "ref": "7578506337"}, "type": "Feature"}
{"geometry": {"coordinates": [-95.150677, 31.794996], "type": "Point"}, "id": "xaasyET5mNOl0kzN0AzFWv6NpdY=", "properties": {"@source_uri": "https://tools.usps.com/UspsToolsRestServices/rest/POLocator/findLocations", "@spider": "usps_collection_boxes", "addr:city": "RUSK", "addr:country": "US", "addr:postcode": "75785", "addr:state": "TX", "addr:street_address": "112 W 5TH ST", "amenity": "post_box", "collection_times": "Mo-Fr 16:30; Sa 15:00", "indoor": "yes", "note": "ON 12/24 AND 12/31, THIS BOX MAY BE COLLECTED AS EARLY AS 12 NOON.", "nsi_id": "unitedstatespostalservice-a77078", "operator": "United States Postal Service", "operator:short": "USPS", "operator:type": "public", "operator:wikidata": "Q668687", "ref": "7578506338"}, "type": "Feature"}
{"geometry": {"coordinates": [-95.1506825166, 31.7950872736], "type": "Point"}, "id": "4aeR0L8WPSyOE_9OYmJE0DGWsJY=", "properties": {"@source_uri": "https://tools.usps.com/UspsToolsRestServices/rest/POLocator/findLocations", "@spider": "usps_collection_boxes", "addr:city": "RUSK", "addr:country": "US", "addr:postcode": "75785", "addr:state": "TX", "addr:street_address": "112 W 5TH ST", "amenity": "post_box", "collection_times": "Mo-Fr 16:30", "indoor": "yes", "note": "ON 12/24 AND 12/31, THIS BOX MAY BE COLLECTED AS EARLY AS 12 NOON.", "nsi_id": "unitedstatespostalservice-a77078", "operator": "United States Postal Service", "operator:short": "USPS", "operator:type": "public", "operator:wikidata": "Q668687", "ref": "7578506340"}, "type": "Feature"}
{"geometry": {"coordinates": [-94.9196608737, 31.8227362743], "type": "Point"}, "id": "FXHCASGSP0Pd_I291dJw5MkNYHs=", "properties": {"@source_uri": "https://tools.usps.com/UspsToolsRestServices/rest/POLocator/findLocations", "@spider": "usps_collection_boxes", "addr:city": "SACUL", "addr:country": "US", "addr:postcode": "75788", "addr:state": "TX", "addr:street_address": "100 US HIGHWAY 204", "amenity": "post_box", "collection_times": "Mo-Fr 16:00; Sa 10:00", "note": "ON 12/24 AND 12/31, THIS BOX MAY BE COLLECTED AS EARLY AS 12 NOON.", "nsi_id": "unitedstatespostalservice-a77078", "operator": "United States Postal Service", "operator:short": "USPS", "operator:type": "public", "operator:wikidata": "Q668687", "ref": "7578800000"}, "type": "Feature"}
{"geometry": {"coordinates": [-94.9196608737, 31.8227362743], "type": "Point"}, "id": "vLpG2PtR7BNQqt2-nqHDg3kPjCk=", "properties": {"@source_uri": "https://tools.usps.com/UspsToolsRestServices/rest/POLocator/findLocations", "@spider": "usps_collection_boxes", "addr:city": "SACUL", "addr:country": "US", "addr:postcode": "75788", "addr:state": "TX", "addr:street_address": "100 US HIGHWAY 204", "amenity": "post_box", "collection_times": "Mo-Fr 16:00; Sa 10:00", "indoor": "yes", "note": "ON 12/24 AND 12/31, THIS BOX MAY BE COLLECTED AS EARLY AS 12 NOON.", "nsi_id": "unitedstatespostalservice-a77078", "operator": "United States Postal Service", "operator:short": "USPS", "operator:type": "public", "operator:wikidata": "Q668687", "ref": "7578800001"}, "type": "Feature"}
{"geometry": {"coordinates": [-94.9196608737, 31.8227362743], "type": "Point"}, "id": "S7Bbe4ugcvsuu7wgTQxyoSJDhfE=", "properties": {"@source_uri": "https://tools.usps.com/UspsToolsRestServices/rest/POLocator/findLocations", "@spider": "usps_collection_boxes", "addr:city": "SACUL", "addr:country": "US", "addr:postcode": "75788", "addr:state": "TX", "addr:street_address": "100 US HIGHWAY 204", "amenity": "post_box", "collection_times": "Mo-Fr 16:00; Sa 10:00", "indoor": "yes", "note": "ON 12/24 AND 12/31, THIS BOX MAY BE COLLECTED AS EARLY AS 12 NOON.", "nsi_id": "unitedstatespostalservice-a77078", "operator": "United States Postal Service", "operator:short": "USPS", "operator:type": "public", "operator:wikidata": "Q668687", "ref": "7578800002"}, "type": "Feature"}
{"geometry": {"coordinates": [-94.915477047, 31.82271077], "type": "Point"}, "id": "e7uMkIWJBN50o7-q8Mo2ugE2cJ8=", "properties": {"@source_uri": "https://tools.usps.com/UspsToolsRestServices/rest/POLocator/findLocations", "@spider": "usps_collection_boxes", "addr:city": "SACUL", "addr:country": "US", "addr:postcode": "75788", "addr:state": "TX", "addr:street_address": "100 US HIGHWAY 204", "amenity": "post_box", "collection_times": "Mo-Fr 16:00", "indoor": "yes", "note": "ON 12/24 AND 12/31, THIS BOX MAY BE COLLECTED AS EARLY AS 12 NOON.", "nsi_id": "unitedstatespostalservice-a77078", "operator": "United States Postal Service", "operator:short": "USPS", "operator:type": "public", "operator:wikidata": "Q668687", "ref": "7578800004"}, "type": "Feature"}
{"geometry": {"coordinates": [-95.120062, 32.144472], "type": "Point"}, "id": "nOrzDt4Gf7ITWHozfYZwKARr_Gg=", "properties": {"@source_uri": "https://tools.usps.com/UspsToolsRestServices/rest/POLocator/findLocations", "@spider": "usps_collection_boxes", "addr:city": "TROUP", "addr:country": "US", "addr:postcode": "75789", "addr:state": "TX", "addr:street_address": "104 E DUVAL ST", "amenity": "post_box", "collection_times": "Mo-Fr 15:30; Sa 08:00", "note": "ON 12/24 AND 12/31, THIS BOX MAY BE COLLECTED AS EARLY AS 12 NOON.", "nsi_id": "unitedstatespostalservice-a77078", "operator": "United States Postal Service", "operator:short": "USPS", "operator:type": "public", "operator:wikidata": "Q668687", "ref": "7578900000"}, "type": "Feature"}
{"geometry": {"coordinates": [-95.120062, 32.144472], "type": "Point"}, "id": "n2g6qm8W7leS9N26dmzJGldv_XE=", "properties": {"@source_uri": "https://tools.usps.com/UspsToolsRestServices/rest/POLocator/findLocations", "@spider": "usps_collection_boxes", "addr:city": "TROUP", "addr:country": "US", "addr:postcode": "75789", "addr:state": "TX", "addr:street_address": "104 E DUVAL ST", "amenity": "post_box", "collection_times": "Mo-Fr 15:30; Sa 08:00", "indoor": "yes", "note": "ON 12/24 AND 12/31, THIS BOX MAY BE COLLECTED AS EARLY AS 12 NOON.", "nsi_id": "unitedstatespostalservice-a77078", "operator": "United States Postal Service", "operator:short": "USPS", "operator:type": "public", "operator:wikidata": "Q668687", "ref": "7578900003"}, "type": "Feature"}
{"geometry": {"coordinates": [-95.120072581, 32.144472547], "type": "Point"}, "id": "kzUKTJIYTg5NdThV6gKwABWUbuY=", "properties": {"@source_uri": "https://tools.usps.com/UspsToolsRestServices/rest/POLocator/findLocations", "@spider": "usps_collection_boxes", "addr:city": "TROUP", "addr:country": "US", "addr:postcode": "75789", "addr:state": "TX", "addr:street_address": "104 E DUVAL ST", "amenity": "post_box", "collection_times": "Mo-Fr 16:15", "indoor": "yes", "note": "ON 12/24 AND 12/31, THIS BOX MAY BE COLLECTED AS EARLY AS 12 NOON.", "nsi_id": "unitedstatespostalservice-a77078", "operator": "United States Postal Service", "operator:short": "USPS", "operator:type": "public", "operator:wikidata": "Q668687", "ref": "7578900004"}, "type": "Feature"}
{"geometry": {"coordinates": [-95.647197, 32.524323], "type": "Point"}, "id": "HiD_Ly5biRmFd2_qDFjRHvjJbp8=", "properties": {"@source_uri": "https://tools.usps.com/UspsToolsRestServices/rest/POLocator/findLocations", "@spider": "usps_collection_boxes", "addr:city": "VAN", "addr:country": "US", "addr:postcode": "75790", "addr:state": "TX", "addr:street_address": "770 W MAIN ST", "amenity": "post_box", "collection_times": "Mo-Fr 16:00; Sa 09:30", "note": "ON 12/24 AND 12/31, THIS BOX MAY BE COLLECTED AS EARLY AS 12 NOON.", "nsi_id": "unitedstatespostalservice-a77078", "operator": "United States Postal Service", "operator:short": "USPS", "operator:type": "public", "operator:wikidata": "Q668687", "ref": "7579000000"}, "type": "Feature"}
{"geometry": {"coordinates": [-95.647197, 32.524323], "type": "Point"}, "id": "LhBnMEqMgP8sYEpVz5WvB5ivAIM=", "properties": {"@source_uri": "https://tools.usps.com/UspsToolsRestServices/rest/POLocator/findLocations", "@spider": "usps_collection_boxes", "addr:city": "VAN", "addr:country": "US", "addr:postcode": "75790", "addr:state": "TX", "addr:street_address": "770 W MAIN ST", "amenity": "post_box", "collection_times": "Mo-Fr 16:00; Sa 09:30", "indoor": "yes", "note": "ON 12/24 AND 12/31, THIS BOX MAY BE COLLECTED AS EARLY AS 12 NOON.", "nsi_id": "unitedstatespostalservice-a77078", "operator": "United States Postal Service", "operator:short": "USPS", "operator:type": "public", "operator:wikidata": "Q668687", "ref": "7579000001"}, "type": "Feature"}
{"geometry": {"coordinates": [-95.647197, 32.524323], "type": "Point"}, "id": "0Gs3wyDtLtGYO1EGjaCs_uPXVJQ=", "properties": {"@source_uri": "https://tools.usps.com/UspsToolsRestServices/rest/POLocator/findLocations", "@spider": "usps_collection_boxes", "addr:city": "VAN", "addr:country": "US", "addr:postcode": "75790", "addr:state": "TX", "addr:street_address": "770 W MAIN ST", "amenity": "post_box", "collection_times": "Mo-Fr 16:00; Sa 09:30", "indoor": "yes", "note": "ON 12/24 AND 12/31, THIS BOX MAY BE COLLECTED AS EARLY AS 12 NOON.", "nsi_id": "unitedstatespostalservice-a77078", "operator": "United States Postal Service", "operator:short": "USPS", "operator:type": "public", "operator:wikidata": "Q668687", "ref": "7579000002"}, "type": "Feature"}
{"geometry": {"coordinates": [-95.6431038, 32.508349], "type": "Point"}, "id": "tnPtNMGVCmCap6tvxKXXbqVIt5E=", "properties": {"@source_uri": "https://tools.usps.com/UspsToolsRestServices/rest/POLocator/findLocations", "@spider": "usps_collection_boxes", "addr:city": "VAN", "addr:country": "US", "addr:postcode": "75790", "addr:state": "TX", "addr:street_address": "1221 S OAK ST", "amenity": "post_box", "collection_times": "Mo-Sa 08:30", "nsi_id": "unitedstatespostalservice-a77078", "operator": "United States Postal Service", "operator:short": "USPS", "operator:type": "public", "operator:wikidata": "Q668687", "ref": "7579000004"}, "type": "Feature"}
{"geometry": {"coordinates": [-95.647201429, 32.524353283], "type": "Point"}, "id": "aAENJgpzOLuEqYu7d3cw73IOngs=", "properties": {"@source_uri": "https://tools.usps.com/UspsToolsRestServices/rest/POLocator/findLocations", "@spider": "usps_collection_boxes", "addr:city": "VAN", "addr:country": "US", "addr:postcode": "75790", "addr:state": "TX", "addr:street_address": "770 W MAIN ST", "amenity": "post_box", "collection_times": "Mo-Fr 16:00", "indoor": "yes", "note": "ON 12/24 AND 12/31, THIS BOX MAY BE COLLECTED AS EARLY AS 12 NOON.", "nsi_id": "unitedstatespostalservice-a77078", "operator": "United States Postal Service", "operator:short": "USPS", "operator:type": "public", "operator:wikidata": "Q668687", "ref": "7579000005"}, "type": "Feature"}
{"geometry": {"coordinates": [-95.2266376, 32.229039], "type": "Point"}, "id": "CLJBWFXWMinLpIs0lRiR7j32mQY=", "properties": {"@source_uri": "https://tools.usps.com/UspsToolsRestServices/rest/POLocator/findLocations", "@spider": "usps_collection_boxes", "addr:city": "WHITEHOUSE", "addr:country": "US", "addr:postcode": "75791", "addr:state": "TX", "addr:street_address": "101 HORTON ST", "amenity": "post_box", "collection_times": "Mo-Fr 11:00", "nsi_id": "unitedstatespostalservice-a77078", "operator": "United States Postal Service", "operator:short": "USPS", "operator:type": "public", "operator:wikidata": "Q668687", "ref": "7579106378"}, "type": "Feature"}
{"geometry": {"coordinates": [-95.2328087, 32.245111], "type": "Point"}, "id": "r0S96v10uS2LKeKisPIj8iZKOtQ=", "properties": {"@source_uri": "https://tools.usps.com/UspsToolsRestServices/rest/POLocator/findLocations", "@spider": "usps_collection_boxes", "addr:city": "WHITEHOUSE", "addr:country": "US", "addr:postcode": "75791", "addr:state": "TX", "addr:street_address": "1114 HIGHWAY 110 N", "amenity": "post_box", "collection_times": "Mo-Fr 16:30; Sa 10:00", "note": "ON 12/24 AND 12/31, THIS BOX MAY BE COLLECTED AS EARLY AS 12 NOON.", "nsi_id": "unitedstatespostalservice-a77078", "operator": "United States Postal Service", "operator:short": "USPS", "operator:type": "public", "operator:wikidata": "Q668687", "ref": "7579106381"}, "type": "Feature"}
{"geometry": {"coordinates": [-95.2325399, 32.24525], "type": "Point"}, "id": "dspCud7l13DMz_M5VEFqfHBmKBQ=", "properties": {"@source_uri": "https://tools.usps.com/UspsToolsRestServices/rest/POLocator/findLocations", "@spider": "usps_collection_boxes", "addr:city": "WHITEHOUSE", "addr:country": "US", "addr:postcode": "75791", "addr:state": "TX", "addr:street_address": "1114 HIGHWAY 110 N", "amenity": "post_box", "collection_times": "Mo-Fr 16:30; Sa 10:00", "indoor": "yes", "note": "ON 12/24 AND 12/31, THIS BOX MAY BE COLLECTED AS EARLY AS 12 NOON.", "nsi_id": "unitedstatespostalservice-a77078", "operator": "United States Postal Service", "operator:short": "USPS", "operator:type": "public", "operator:wikidata": "Q668687", "ref": "7579106386"}, "type": "Feature"}
{"geometry": {"coordinates": [-95.232958527, 32.244926142], "type": "Point"}, "id": "Z6KNRDg2516W998qF7G_Pw2JIgg=", "properties": {"@source_uri": "https://tools.usps.com/UspsToolsRestServices/rest/POLocator/findLocations", "@spider": "usps_collection_boxes", "addr:city": "WHITEHOUSE", "addr:country": "US", "addr:postcode": "75791", "addr:state": "TX", "addr:street_address": "1114 STATE HIGHWAY 110 N", "amenity": "post_box", "collection_times": "Mo-Fr 16:30", "indoor": "yes", "note": "ON 12/24 AND 12/31, THIS BOX MAY BE COLLECTED AS EARLY AS 12 NOON.", "nsi_id": "unitedstatespostalservice-a77078", "operator": "United States Postal Service", "operator:short": "USPS", "operator:type": "public", "operator:wikidata": "Q668687", "ref": "7579106388"}, "type": "Feature"}
{"geometry": {"coordinates": [-95.176394, 32.496673], "type": "Point"}, "id": "4lscV71sCS5SSJlpBEyVO-ff_vE=", "properties": {"@source_uri": "https://tools.usps.com/UspsToolsRestServices/rest/POLocator/findLocations", "@spider": "usps_collection_boxes", "addr:city": "WINONA", "addr:country": "US", "addr:postcode": "75792", "addr:state": "TX", "addr:street_address": "908 DALLAS ST", "amenity": "post_box", "collection_times": "Mo-Fr 16:00; Sa 06:30", "indoor": "yes", "note": "ON 12/24 AND 12/31, THIS BOX MAY BE COLLECTED AS EARLY AS 12 NOON.", "nsi_id": "unitedstatespostalservice-a77078", "operator": "United States Postal Service", "operator:short": "USPS", "operator:type": "public", "operator:wikidata": "Q668687", "ref": "7579200000"}, "type": "Feature"}
{"geometry": {"coordinates": [-95.1679336, 32.488428], "type": "Point"}, "id": "Q1c2P8EPuim7MhGf5gRb3X-L_zE=", "properties": {"@source_uri": "https://tools.usps.com/UspsToolsRestServices/rest/POLocator/findLocations", "@spider": "usps_collection_boxes", "addr:city": "WINONA", "addr:country": "US", "addr:postcode": "75792", "addr:state": "TX", "addr:street_address": "303 S MAIN ST", "amenity": "post_box", "collection_times": "Mo-Sa 11:30", "nsi_id": "unitedstatespostalservice-a77078", "operator": "United States Postal Service", "operator:short": "USPS", "operator:type": "public", "operator:wikidata": "Q668687", "ref": "7579200002"}, "type": "Feature"}
{"geometry": {"coordinates": [-95.176394, 32.496673], "type": "Point"}, "id": "89pXRmj-clMkicwxV0u2rzCludI=", "properties": {"@source_uri": "https://tools.usps.com/UspsToolsRestServices/rest/POLocator/findLocations", "@spider": "usps_collection_boxes", "addr:city": "WINONA", "addr:country": "US", "addr:postcode": "75792", "addr:state": "TX", "addr:street_address": "908 DALLAS ST", "amenity": "post_box", "collection_times": "Mo-Fr 16:00; Sa 14:00", "note": "ON 12/24 AND 12/31, THIS BOX MAY BE COLLECTED AS EARLY AS 12 NOON.", "nsi_id": "unitedstatespostalservice-a77078", "operator": "United States Postal Service", "operator:short": "USPS", "operator:type": "public", "operator:wikidata": "Q668687", "ref": "7579200003"}, "type": "Feature"}
{"geometry": {"coordinates": [-95.176393163, 32.496673346], "type": "Point"}, "id": "zqqLKD8u9s6mQdgz9iDclIIuRJE=", "properties": {"@source_uri": "https://tools.usps.com/UspsToolsRestServices/rest/POLocator/findLocations", "@spider": "usps_collection_boxes", "addr:city": "WINONA", "addr:country": "US", "addr:postcode": "75792", "addr:state": "TX", "addr:street_address": "908 DALLAS ST", "amenity": "post_box", "collection_times": "Mo-Fr 16:00", "indoor": "yes", "note": "ON 12/24 AND 12/31, THIS BOX MAY BE COLLECTED AS EARLY AS 12 NOON.", "nsi_id": "unitedstatespostalservice-a77078", "operator": "United States Postal Service", "operator:short": "USPS", "operator:type": "public", "operator:wikidata": "Q668687", "ref": "7579200005"}, "type": "Feature"}
