{"geometry": {"coordinates": [-96.052423, 31.455988], "type": "Point"}, "id": "aFUNOvylh_k45D-dIBYUVBJxgfc=", "properties": {"@spider": "usps_collection_boxes", "addr:city": "BUFFALO", "addr:country": "US", "addr:full": "208 CENTER ST", "addr:postcode": "75831", "addr:state": "TX", "amenity": "post_box", "brand": "United States Postal Service", "brand:wikidata": "Q668687", "collection_times": "Mo-Fr 15:30; Sa 09:00", "name": "USPS COLLECTION BOX - BLUE BOX", "note": "ON 12/24 AND 12/31, THIS BOX MAY BE COLLECTED AS EARLY AS 12 NOON.", "nsi_id": "unitedstatespostalservice-a77078", "operator": "United States Postal Service", "operator:short": "USPS", "operator:type": "public", "operator:wikidata": "Q668687", "ref": "7583100000"}, "type": "Feature"}
{"geometry": {"coordinates": [-96.052423, 31.455988], "type": "Point"}, "id": "lcLGlBJqrx8FWRleJqXGIb-fXbg=", "properties": {"@spider": "usps_collection_boxes", "addr:city": "BUFFALO", "addr:country": "US", "addr:full": "208 CENTER ST", "addr:postcode": "75831", "addr:state": "TX", "amenity": "post_box", "brand": "United States Postal Service", "brand:wikidata": "Q668687", "collection_times": "Mo-Fr 15:30; Sa 09:00", "name": "USPS COLLECTION BOX - PO LOBBY", "note": "ON 12/24 AND 12/31, THIS BOX MAY BE COLLECTED AS EARLY AS 12 NOON.", "nsi_id": "unitedstatespostalservice-a77078", "operator": "United States Postal Service", "operator:short": "USPS", "operator:type": "public", "operator:wikidata": "Q668687", "ref": "7583100003"}, "type": "Feature"}
{"geometry": {"coordinates": [-96.058032655, 31.462924665], "type": "Point"}, "id": "AGydj_6F1WdWc0J-dv3wKSUQEL0=", "properties": {"@spider": "usps_collection_boxes", "addr:city": "BUFFALO", "addr:country": "US", "addr:full": "208 CENTER ST", "addr:postcode": "75831", "addr:state": "TX", "amenity": "post_box", "brand": "United States Postal Service", "brand:wikidata": "Q668687", "collection_times": "Mo-Fr 15:30", "name": "USPS COLLECTION BOX - PO LOBBY", "note": "ON 12/24 AND 12/31, THIS BOX MAY BE COLLECTED AS EARLY AS 12 NOON.", "nsi_id": "unitedstatespostalservice-a77078", "operator": "United States Postal Service", "operator:short": "USPS", "operator:type": "public", "operator:wikidata": "Q668687", "ref": "7583100004"}, "type": "Feature"}
{"geometry": {"coordinates": [-95.977182, 31.257999], "type": "Point"}, "id": "6xJ35BOOk1knz3IrBU3gmVshXzQ=", "properties": {"@spider": "usps_collection_boxes", "addr:city": "CENTERVILLE", "addr:country": "US", "addr:full": "322 E SAINT MARYS", "addr:postcode": "75833", "addr:state": "TX", "amenity": "post_box", "brand": "United States Postal Service", "brand:wikidata": "Q668687", "collection_times": "Mo-Fr 16:00; Sa 10:00", "name": "USPS COLLECTION BOX - PO LOBBY", "note": "ON 12/24 AND 12/31, THIS BOX MAY BE COLLECTED AS EARLY AS 12 NOON.", "nsi_id": "unitedstatespostalservice-a77078", "operator": "United States Postal Service", "operator:short": "USPS", "operator:type": "public", "operator:wikidata": "Q668687", "ref": "7583300001"}, "type": "Feature"}
{"geometry": {"coordinates": [-95.977182, 31.257999], "type": "Point"}, "id": "VqV5rgr-1C4sEjXZLZAd_xyc8TY=", "properties": {"@spider": "usps_collection_boxes", "addr:city": "CENTERVILLE", "addr:country": "US", "addr:full": "322 E SAINT MARYS", "addr:postcode": "75833", "addr:state": "TX", "amenity": "post_box", "brand": "United States Postal Service", "brand:wikidata": "Q668687", "collection_times": "Mo-Fr 16:00; Sa 10:00", "name": "USPS COLLECTION BOX - BLUE BOX", "note": "ON 12/24 AND 12/31, THIS BOX MAY BE COLLECTED AS EARLY AS 12 NOON.", "nsi_id": "unitedstatespostalservice-a77078", "operator": "United States Postal Service", "operator:short": "USPS", "operator:type": "public", "operator:wikidata": "Q668687", "ref": "7583300002"}, "type": "Feature"}
{"geometry": {"coordinates": [-95.9772067771, 31.2580311438], "type": "Point"}, "id": "PuGHM4AMLMEqI1CArVMNpi4CsH8=", "properties": {"@spider": "usps_collection_boxes", "addr:city": "CENTERVILLE", "addr:country": "US", "addr:full": "322 E SAINT MARYS ST", "addr:postcode": "75833", "addr:state": "TX", "amenity": "post_box", "brand": "United States Postal Service", "brand:wikidata": "Q668687", "collection_times": "Mo-Fr 15:45", "name": "USPS COLLECTION BOX - PO LOBBY", "note": "ON 12/24 AND 12/31, THIS BOX MAY BE COLLECTED AS EARLY AS 12 NOON.", "nsi_id": "unitedstatespostalservice-a77078", "operator": "United States Postal Service", "operator:short": "USPS", "operator:type": "public", "operator:wikidata": "Q668687", "ref": "7583300006"}, "type": "Feature"}
{"geometry": {"coordinates": [-95.4362049, 31.319942], "type": "Point"}, "id": "WzQoCMp8NLqc-NSTUITwkNerlGY=", "properties": {"@spider": "usps_collection_boxes", "addr:city": "CROCKETT", "addr:country": "US", "addr:full": "1225 E LOOP 304", "addr:postcode": "75835", "addr:state": "TX", "amenity": "post_box", "brand": "United States Postal Service", "brand:wikidata": "Q668687", "collection_times": "Mo-Sa 12:00", "name": "USPS COLLECTION BOX - BLUE BOX", "nsi_id": "unitedstatespostalservice-a77078", "operator": "United States Postal Service", "operator:short": "USPS", "operator:type": "public", "operator:wikidata": "Q668687", "ref": "7583506420"}, "type": "Feature"}
{"geometry": {"coordinates": [-95.455841, 31.317737], "type": "Point"}, "id": "7yAhzHkQ02soBCQyZ56MMgxWll4=", "properties": {"@spider": "usps_collection_boxes", "addr:city": "CROCKETT", "addr:country": "US", "addr:full": "600 E GOLIAD AVE", "addr:postcode": "75835", "addr:state": "TX", "amenity": "post_box", "brand": "United States Postal Service", "brand:wikidata": "Q668687", "collection_times": "Mo-Fr 16:30; Sa 12:00", "name": "USPS COLLECTION BOX - PO LOBBY", "note": "ON 12/24 AND 12/31, THIS BOX MAY BE COLLECTED AS EARLY AS 12 NOON.", "nsi_id": "unitedstatespostalservice-a77078", "operator": "United States Postal Service", "operator:short": "USPS", "operator:type": "public", "operator:wikidata": "Q668687", "ref": "7583506426"}, "type": "Feature"}
{"geometry": {"coordinates": [-95.455831249, 31.317734482], "type": "Point"}, "id": "lmQMO-88_dZppqfuwHyflHkxk_U=", "properties": {"@spider": "usps_collection_boxes", "addr:city": "CROCKETT", "addr:country": "US", "addr:full": "600 E GOLIAD AVE", "addr:postcode": "75835", "addr:state": "TX", "amenity": "post_box", "brand": "United States Postal Service", "brand:wikidata": "Q668687", "collection_times": "Mo-Fr 16:30", "name": "USPS COLLECTION BOX - PO LOBBY", "note": "ON 12/24 AND 12/31, THIS BOX MAY BE COLLECTED AS EARLY AS 12 NOON.", "nsi_id": "unitedstatespostalservice-a77078", "operator": "United States Postal Service", "operator:short": "USPS", "operator:type": "public", "operator:wikidata": "Q668687", "ref": "7583506429"}, "type": "Feature"}
{"geometry": {"coordinates": [-96.222335, 31.477392], "type": "Point"}, "id": "6QtL8CnvEpfprNJ3Z8Pv-kB1Tos=", "properties": {"@spider": "usps_collection_boxes", "addr:city": "DONIE", "addr:country": "US", "addr:full": "236 MAIN ST", "addr:postcode": "75838", "addr:state": "TX", "amenity": "post_box", "brand": "United States Postal Service", "brand:wikidata": "Q668687", "collection_times": "Mo-Fr 13:45; Sa 11:45", "name": "USPS COLLECTION BOX - BLUE BOX", "note": "ON 12/24 AND 12/31, THIS BOX MAY BE COLLECTED AS EARLY AS 12 NOON.", "nsi_id": "unitedstatespostalservice-a77078", "operator": "United States Postal Service", "operator:short": "USPS", "operator:type": "public", "operator:wikidata": "Q668687", "ref": "7583800000"}, "type": "Feature"}
{"geometry": {"coordinates": [-96.222335, 31.477392], "type": "Point"}, "id": "AhZXOOYoDozrfCTfMSKx_IhTQuo=", "properties": {"@spider": "usps_collection_boxes", "addr:city": "DONIE", "addr:country": "US", "addr:full": "236 MAIN ST", "addr:postcode": "75838", "addr:state": "TX", "amenity": "post_box", "brand": "United States Postal Service", "brand:wikidata": "Q668687", "collection_times": "Mo-Fr 13:30; Sa 09:00", "name": "USPS COLLECTION BOX - PO LOBBY", "note": "ON 12/24 AND 12/31, THIS BOX MAY BE COLLECTED AS EARLY AS 12 NOON.", "nsi_id": "unitedstatespostalservice-a77078", "operator": "United States Postal Service", "operator:short": "USPS", "operator:type": "public", "operator:wikidata": "Q668687", "ref": "7583800002"}, "type": "Feature"}
{"geometry": {"coordinates": [-96.2223841, 31.477373039], "type": "Point"}, "id": "lg9QjSPIl4Z1ACSJUyaWGA2lfck=", "properties": {"@spider": "usps_collection_boxes", "addr:city": "DONIE", "addr:country": "US", "addr:full": "236 MAIN ST", "addr:postcode": "75838", "addr:state": "TX", "amenity": "post_box", "brand": "United States Postal Service", "brand:wikidata": "Q668687", "collection_times": "Mo-Fr 13:30", "name": "USPS COLLECTION BOX - PO LOBBY", "note": "ON 12/24 AND 12/31, THIS BOX MAY BE COLLECTED AS EARLY AS 12 NOON.", "nsi_id": "unitedstatespostalservice-a77078", "operator": "United States Postal Service", "operator:short": "USPS", "operator:type": "public", "operator:wikidata": "Q668687", "ref": "7583800004"}, "type": "Feature"}
{"geometry": {"coordinates": [-96.157921, 31.725218], "type": "Point"}, "id": "teMFTgP7NnvUGIPvCEAxpGXllM4=", "properties": {"@spider": "usps_collection_boxes", "addr:city": "FAIRFIELD", "addr:country": "US", "addr:full": "320 E COMMERCE ST", "addr:postcode": "75840", "addr:state": "TX", "amenity": "post_box", "brand": "United States Postal Service", "brand:wikidata": "Q668687", "collection_times": "Mo-Fr 15:00; Sa 08:30", "name": "USPS COLLECTION BOX - BLUE BOX", "note": "ON 12/24 AND 12/31, THIS BOX MAY BE COLLECTED AS EARLY AS 12 NOON.", "nsi_id": "unitedstatespostalservice-a77078", "operator": "United States Postal Service", "operator:short": "USPS", "operator:type": "public", "operator:wikidata": "Q668687", "ref": "7584006875"}, "type": "Feature"}
{"geometry": {"coordinates": [-96.157921, 31.725218], "type": "Point"}, "id": "Jo47_GurZ0Be6L8i4aNZ79uRT0Y=", "properties": {"@spider": "usps_collection_boxes", "addr:city": "FAIRFIELD", "addr:country": "US", "addr:full": "320 E COMMERCE ST", "addr:postcode": "75840", "addr:state": "TX", "amenity": "post_box", "brand": "United States Postal Service", "brand:wikidata": "Q668687", "collection_times": "Mo-Fr 16:15; Sa 08:30", "name": "USPS COLLECTION BOX - PO LOBBY", "note": "ON 12/24 AND 12/31, THIS BOX MAY BE COLLECTED AS EARLY AS 12 NOON.", "nsi_id": "unitedstatespostalservice-a77078", "operator": "United States Postal Service", "operator:short": "USPS", "operator:type": "public", "operator:wikidata": "Q668687", "ref": "7584006890"}, "type": "Feature"}
{"geometry": {"coordinates": [-96.157921, 31.725218], "type": "Point"}, "id": "yR0bMH09b-mJlRHeI4u-qsoGcYs=", "properties": {"@spider": "usps_collection_boxes", "addr:city": "FAIRFIELD", "addr:country": "US", "addr:full": "320 E COMMERCE ST", "addr:postcode": "75840", "addr:state": "TX", "amenity": "post_box", "brand": "United States Postal Service", "brand:wikidata": "Q668687", "collection_times": "Mo-Fr 15:00; Sa 08:30", "name": "USPS COLLECTION BOX - BLUE BOX", "note": "ON 12/24 AND 12/31, THIS BOX MAY BE COLLECTED AS EARLY AS 12 NOON.", "nsi_id": "unitedstatespostalservice-a77078", "operator": "United States Postal Service", "operator:short": "USPS", "operator:type": "public", "operator:wikidata": "Q668687", "ref": "7584006891"}, "type": "Feature"}
{"geometry": {"coordinates": [-96.157921, 31.725218], "type": "Point"}, "id": "HxMO2N2rtCr9q7VReM4NGw7zdxE=", "properties": {"@spider": "usps_collection_boxes", "addr:city": "FAIRFIELD", "addr:country": "US", "addr:full": "320 E COMMERCE ST", "addr:postcode": "75840", "addr:state": "TX", "amenity": "post_box", "brand": "United States Postal Service", "brand:wikidata": "Q668687", "collection_times": "Mo-Fr 16:15; Sa 08:30", "name": "USPS COLLECTION BOX - PO LOBBY", "note": "ON 12/24 AND 12/31, THIS BOX MAY BE COLLECTED AS EARLY AS 12 NOON.", "nsi_id": "unitedstatespostalservice-a77078", "operator": "United States Postal Service", "operator:short": "USPS", "operator:type": "public", "operator:wikidata": "Q668687", "ref": "7584006892"}, "type": "Feature"}
{"geometry": {"coordinates": [-96.1579215, 31.7252154533], "type": "Point"}, "id": "akXe3mKGBc2nQRDTfBFUjdE52Vk=", "properties": {"@spider": "usps_collection_boxes", "addr:city": "FAIRFIELD", "addr:country": "US", "addr:full": "320 E COMMERCE ST", "addr:postcode": "75840", "addr:state": "TX", "amenity": "post_box", "brand": "United States Postal Service", "brand:wikidata": "Q668687", "collection_times": "Mo-Fr 16:00", "name": "USPS COLLECTION BOX - PO LOBBY", "note": "ON 12/24 AND 12/31, THIS BOX MAY BE COLLECTED AS EARLY AS 12 NOON.", "nsi_id": "unitedstatespostalservice-a77078", "operator": "United States Postal Service", "operator:short": "USPS", "operator:type": "public", "operator:wikidata": "Q668687", "ref": "7584006893"}, "type": "Feature"}
{"geometry": {"coordinates": [-95.125606, 31.055841], "type": "Point"}, "id": "0ouDw5RURaB0rS9oD5b6p8lyS7o=", "properties": {"@spider": "usps_collection_boxes", "addr:city": "GROVETON", "addr:country": "US", "addr:full": "147 E 2ND ST", "addr:postcode": "75845", "addr:state": "TX", "amenity": "post_box", "brand": "United States Postal Service", "brand:wikidata": "Q668687", "collection_times": "Mo-Fr 16:00; Sa 09:00", "name": "USPS COLLECTION BOX - PO LOBBY", "note": "ON 12/24 AND 12/31, THIS BOX MAY BE COLLECTED AS EARLY AS 12 NOON.", "nsi_id": "unitedstatespostalservice-a77078", "operator": "United States Postal Service", "operator:short": "USPS", "operator:type": "public", "operator:wikidata": "Q668687", "ref": "7584500003"}, "type": "Feature"}
{"geometry": {"coordinates": [-95.125606, 31.055841], "type": "Point"}, "id": "R0z2fJpmWSXHcSSgDya0okia1fg=", "properties": {"@spider": "usps_collection_boxes", "addr:city": "GROVETON", "addr:country": "US", "addr:full": "147 E 2ND ST", "addr:postcode": "75845", "addr:state": "TX", "amenity": "post_box", "brand": "United States Postal Service", "brand:wikidata": "Q668687", "collection_times": "Mo-Fr 15:30; Sa 09:00", "name": "USPS COLLECTION BOX - BLUE BOX", "note": "ON 12/24 AND 12/31, THIS BOX MAY BE COLLECTED AS EARLY AS 12 NOON.", "nsi_id": "unitedstatespostalservice-a77078", "operator": "United States Postal Service", "operator:short": "USPS", "operator:type": "public", "operator:wikidata": "Q668687", "ref": "7584500004"}, "type": "Feature"}
{"geometry": {"coordinates": [-95.125551036, 31.055907325], "type": "Point"}, "id": "exDzy7-NCoHPfi3DZSF3gk7lf7U=", "properties": {"@spider": "usps_collection_boxes", "addr:city": "GROVETON", "addr:country": "US", "addr:full": "147 E 2ND ST", "addr:postcode": "75845", "addr:state": "TX", "amenity": "post_box", "brand": "United States Postal Service", "brand:wikidata": "Q668687", "collection_times": "Mo-Fr 16:00", "name": "USPS COLLECTION BOX - PO LOBBY", "note": "ON 12/24 AND 12/31, THIS BOX MAY BE COLLECTED AS EARLY AS 12 NOON.", "nsi_id": "unitedstatespostalservice-a77078", "operator": "United States Postal Service", "operator:short": "USPS", "operator:type": "public", "operator:wikidata": "Q668687", "ref": "7584500005"}, "type": "Feature"}
{"geometry": {"coordinates": [-96.141165, 31.366937], "type": "Point"}, "id": "Ha05i-eJMcb-HfoFYKRoq-TA4Zc=", "properties": {"@spider": "usps_collection_boxes", "addr:city": "JEWETT", "addr:country": "US", "addr:full": "1001 N MAIN ST", "addr:postcode": "75846", "addr:state": "TX", "amenity": "post_box", "brand": "United States Postal Service", "brand:wikidata": "Q668687", "collection_times": "Mo-Fr 15:00; Sa 08:30", "name": "USPS COLLECTION BOX - BLUE BOX", "note": "ON 12/24 AND 12/31, THIS BOX MAY BE COLLECTED AS EARLY AS 12 NOON.", "nsi_id": "unitedstatespostalservice-a77078", "operator": "United States Postal Service", "operator:short": "USPS", "operator:type": "public", "operator:wikidata": "Q668687", "ref": "7584600000"}, "type": "Feature"}
{"geometry": {"coordinates": [-96.141165, 31.366937], "type": "Point"}, "id": "PHt3-wFlK21p-rSaEwU_KPDhr0E=", "properties": {"@spider": "usps_collection_boxes", "addr:city": "JEWETT", "addr:country": "US", "addr:full": "1001 N MAIN ST", "addr:postcode": "75846", "addr:state": "TX", "amenity": "post_box", "brand": "United States Postal Service", "brand:wikidata": "Q668687", "collection_times": "Mo-Fr 15:00; Sa 08:30", "name": "USPS COLLECTION BOX - PO LOBBY", "note": "ON 12/24 AND 12/31, THIS BOX MAY BE COLLECTED AS EARLY AS 12 NOON.", "nsi_id": "unitedstatespostalservice-a77078", "operator": "United States Postal Service", "operator:short": "USPS", "operator:type": "public", "operator:wikidata": "Q668687", "ref": "7584600002"}, "type": "Feature"}
{"geometry": {"coordinates": [-96.141148326, 31.366901248], "type": "Point"}, "id": "_QQoSySMrOqrHTvZpePaTZwreoE=", "properties": {"@spider": "usps_collection_boxes", "addr:city": "JEWETT", "addr:country": "US", "addr:full": "1001 N MAIN ST", "addr:postcode": "75846", "addr:state": "TX", "amenity": "post_box", "brand": "United States Postal Service", "brand:wikidata": "Q668687", "collection_times": "Mo-Fr 15:00", "name": "USPS COLLECTION BOX - PO LOBBY", "note": "ON 12/24 AND 12/31, THIS BOX MAY BE COLLECTED AS EARLY AS 12 NOON.", "nsi_id": "unitedstatespostalservice-a77078", "operator": "United States Postal Service", "operator:short": "USPS", "operator:type": "public", "operator:wikidata": "Q668687", "ref": "7584600003"}, "type": "Feature"}
{"geometry": {"coordinates": [-96.3304333, 31.766585], "type": "Point"}, "id": "C3OldkGopmVGrr-mlaKrN-ozRpU=", "properties": {"@spider": "usps_collection_boxes", "addr:city": "KIRVIN", "addr:country": "US", "addr:full": "230 MAIN ST", "addr:postcode": "75848", "addr:state": "TX", "amenity": "post_box", "brand": "United States Postal Service", "brand:wikidata": "Q668687", "collection_times": "Mo-Sa 12:00", "name": "USPS COLLECTION BOX - BLUE BOX", "nsi_id": "unitedstatespostalservice-a77078", "operator": "United States Postal Service", "operator:short": "USPS", "operator:type": "public", "operator:wikidata": "Q668687", "ref": "7584800000"}, "type": "Feature"}
{"geometry": {"coordinates": [-95.475952, 31.389701], "type": "Point"}, "id": "4WqV9oy3Z0BaPrmh_k9tWfYYX6o=", "properties": {"@spider": "usps_collection_boxes", "addr:city": "LATEXO", "addr:country": "US", "addr:full": "3529 US HIGHWAY 287 N", "addr:postcode": "75849", "addr:state": "TX", "amenity": "post_box", "brand": "United States Postal Service", "brand:wikidata": "Q668687", "collection_times": "Mo-Fr 14:00; Sa 08:30", "name": "USPS COLLECTION BOX - BLUE BOX", "note": "ON 12/24 AND 12/31, THIS BOX MAY BE COLLECTED AS EARLY AS 12 NOON.", "nsi_id": "unitedstatespostalservice-a77078", "operator": "United States Postal Service", "operator:short": "USPS", "operator:type": "public", "operator:wikidata": "Q668687", "ref": "7584900000"}, "type": "Feature"}
{"geometry": {"coordinates": [-95.475922, 31.389763], "type": "Point"}, "id": "2cU181j6OESMyW5WSDtob5RcwaQ=", "properties": {"@spider": "usps_collection_boxes", "addr:city": "LATEXO", "addr:country": "US", "addr:full": "3529 US HIGHWAY 287 N", "addr:postcode": "75849", "addr:state": "TX", "amenity": "post_box", "brand": "United States Postal Service", "brand:wikidata": "Q668687", "collection_times": "Mo-Fr 11:30", "name": "USPS COLLECTION BOX - PO LOBBY", "nsi_id": "unitedstatespostalservice-a77078", "operator": "United States Postal Service", "operator:short": "USPS", "operator:type": "public", "operator:wikidata": "Q668687", "ref": "7584900002"}, "type": "Feature"}
{"geometry": {"coordinates": [-95.475945669, 31.389093555], "type": "Point"}, "id": "pIbBavpkl6vCSalpXgAV0QTiRn4=", "properties": {"@spider": "usps_collection_boxes", "addr:city": "LATEXO", "addr:country": "US", "addr:full": "3529 US HIGHWAY 287 N", "addr:postcode": "75849", "addr:state": "TX", "amenity": "post_box", "brand": "United States Postal Service", "brand:wikidata": "Q668687", "collection_times": "Mo-Fr 11:00", "name": "USPS COLLECTION BOX - PO LOBBY", "nsi_id": "unitedstatespostalservice-a77078", "operator": "United States Postal Service", "operator:short": "USPS", "operator:type": "public", "operator:wikidata": "Q668687", "ref": "7584900004"}, "type": "Feature"}
{"geometry": {"coordinates": [-95.969106, 31.155425], "type": "Point"}, "id": "2zYCJAJ6f6epQeg4c3b-Cq7VNEY=", "properties": {"@spider": "usps_collection_boxes", "addr:city": "LEONA", "addr:country": "US", "addr:full": "143 N LEONA BLVD", "addr:postcode": "75850", "addr:state": "TX", "amenity": "post_box", "brand": "United States Postal Service", "brand:wikidata": "Q668687", "collection_times": "Mo-Fr 15:30; Sa 15:00", "name": "USPS COLLECTION BOX - BLUE BOX", "note": "ON 12/24 AND 12/31, THIS BOX MAY BE COLLECTED AS EARLY AS 12 NOON.", "nsi_id": "unitedstatespostalservice-a77078", "operator": "United States Postal Service", "operator:short": "USPS", "operator:type": "public", "operator:wikidata": "Q668687", "ref": "7585000000"}, "type": "Feature"}
{"geometry": {"coordinates": [-95.969106, 31.155425], "type": "Point"}, "id": "UCTyhIwb3yHsVD1YIo49kx9HN-I=", "properties": {"@spider": "usps_collection_boxes", "addr:city": "LEONA", "addr:country": "US", "addr:full": "143 N LEONA BLVD", "addr:postcode": "75850", "addr:state": "TX", "amenity": "post_box", "brand": "United States Postal Service", "brand:wikidata": "Q668687", "collection_times": "Mo-Fr 12:00; Sa 08:00", "name": "USPS COLLECTION BOX - PO LOBBY", "nsi_id": "unitedstatespostalservice-a77078", "operator": "United States Postal Service", "operator:short": "USPS", "operator:type": "public", "operator:wikidata": "Q668687", "ref": "7585000001"}, "type": "Feature"}
{"geometry": {"coordinates": [-95.969115708, 31.155366701], "type": "Point"}, "id": "QJrY30D6Ce9_cCNTZ_Qel4Q1ngk=", "properties": {"@spider": "usps_collection_boxes", "addr:city": "LEONA", "addr:country": "US", "addr:full": "143 N LEONA BLVD", "addr:postcode": "75850", "addr:state": "TX", "amenity": "post_box", "brand": "United States Postal Service", "brand:wikidata": "Q668687", "collection_times": "Mo-Fr 12:00", "name": "USPS COLLECTION BOX - PO LOBBY", "nsi_id": "unitedstatespostalservice-a77078", "operator": "United States Postal Service", "operator:short": "USPS", "operator:type": "public", "operator:wikidata": "Q668687", "ref": "7585000003"}, "type": "Feature"}
{"geometry": {"coordinates": [-95.4449339655, 31.1251940025], "type": "Point"}, "id": "8g7d9dYt1VP83sj_8hCzqdkXOL4=", "properties": {"@spider": "usps_collection_boxes", "addr:city": "LOVELADY", "addr:country": "US", "addr:full": "290 S COMMERCE ST", "addr:postcode": "75851", "addr:state": "TX", "amenity": "post_box", "brand": "United States Postal Service", "brand:wikidata": "Q668687", "collection_times": "Mo-Fr 15:30; Sa 08:30", "name": "USPS COLLECTION BOX - BLUE BOX", "note": "ON 12/24 AND 12/31, THIS BOX MAY BE COLLECTED AS EARLY AS 12 NOON.", "nsi_id": "unitedstatespostalservice-a77078", "operator": "United States Postal Service", "operator:short": "USPS", "operator:type": "public", "operator:wikidata": "Q668687", "ref": "7585100000"}, "type": "Feature"}
{"geometry": {"coordinates": [-95.44529, 31.125057], "type": "Point"}, "id": "mUhy0l3q3Z6-jd_D2nSLrKAHrB4=", "properties": {"@spider": "usps_collection_boxes", "addr:city": "LOVELADY", "addr:country": "US", "addr:full": "290 S COMMERCE ST", "addr:postcode": "75851", "addr:state": "TX", "amenity": "post_box", "brand": "United States Postal Service", "brand:wikidata": "Q668687", "collection_times": "Mo-Fr 16:00; Sa 08:30", "name": "USPS COLLECTION BOX - PO LOBBY", "note": "ON 12/24 AND 12/31, THIS BOX MAY BE COLLECTED AS EARLY AS 12 NOON.", "nsi_id": "unitedstatespostalservice-a77078", "operator": "United States Postal Service", "operator:short": "USPS", "operator:type": "public", "operator:wikidata": "Q668687", "ref": "7585100002"}, "type": "Feature"}
{"geometry": {"coordinates": [-95.445263364, 31.125030794], "type": "Point"}, "id": "BF-yNM1PZxS3rAc96Sfsj-zRnQM=", "properties": {"@spider": "usps_collection_boxes", "addr:city": "LOVELADY", "addr:country": "US", "addr:full": "290 S COMMERCE ST", "addr:postcode": "75851", "addr:state": "TX", "amenity": "post_box", "brand": "United States Postal Service", "brand:wikidata": "Q668687", "collection_times": "Mo-Fr 16:00", "name": "USPS COLLECTION BOX - PO LOBBY", "note": "ON 12/24 AND 12/31, THIS BOX MAY BE COLLECTED AS EARLY AS 12 NOON.", "nsi_id": "unitedstatespostalservice-a77078", "operator": "United States Postal Service", "operator:short": "USPS", "operator:type": "public", "operator:wikidata": "Q668687", "ref": "7585100003"}, "type": "Feature"}
{"geometry": {"coordinates": [-95.758746, 31.019902], "type": "Point"}, "id": "1ETE9DIoAKWW3CzT6PlPjItcGE4=", "properties": {"@spider": "usps_collection_boxes", "addr:city": "MIDWAY", "addr:country": "US", "addr:full": "11528 STATE HIGHWAY 21 E", "addr:postcode": "75852", "addr:state": "TX", "amenity": "post_box", "brand": "United States Postal Service", "brand:wikidata": "Q668687", "collection_times": "Mo-Fr 15:30; Sa 07:30", "name": "USPS COLLECTION BOX - BLUE BOX", "note": "ON 12/24 AND 12/31, THIS BOX MAY BE COLLECTED AS EARLY AS 12 NOON.", "nsi_id": "unitedstatespostalservice-a77078", "operator": "United States Postal Service", "operator:short": "USPS", "operator:type": "public", "operator:wikidata": "Q668687", "ref": "7585200000"}, "type": "Feature"}
{"geometry": {"coordinates": [-95.758746, 31.019902], "type": "Point"}, "id": "3aTcM0vUCqCpO_drlJGjeNa6mrg=", "properties": {"@spider": "usps_collection_boxes", "addr:city": "MIDWAY", "addr:country": "US", "addr:full": "11528 STATE HIGHWAY 21 E", "addr:postcode": "75852", "addr:state": "TX", "amenity": "post_box", "brand": "United States Postal Service", "brand:wikidata": "Q668687", "collection_times": "Mo-Fr 15:30; Sa 07:30", "name": "USPS COLLECTION BOX - PO LOBBY", "note": "ON 12/24 AND 12/31, THIS BOX MAY BE COLLECTED AS EARLY AS 12 NOON.", "nsi_id": "unitedstatespostalservice-a77078", "operator": "United States Postal Service", "operator:short": "USPS", "operator:type": "public", "operator:wikidata": "Q668687", "ref": "7585200001"}, "type": "Feature"}
{"geometry": {"coordinates": [-95.758746, 31.019902], "type": "Point"}, "id": "7MQF-g7DQbxWOKe1og2c3S5kfHY=", "properties": {"@spider": "usps_collection_boxes", "addr:city": "MIDWAY", "addr:country": "US", "addr:full": "11528 STATE HIGHWAY 21 E", "addr:postcode": "75852", "addr:state": "TX", "amenity": "post_box", "brand": "United States Postal Service", "brand:wikidata": "Q668687", "collection_times": "Mo-Fr 15:30; Sa 07:30", "name": "USPS COLLECTION BOX - PO LOBBY", "note": "ON 12/24 AND 12/31, THIS BOX MAY BE COLLECTED AS EARLY AS 12 NOON.", "nsi_id": "unitedstatespostalservice-a77078", "operator": "United States Postal Service", "operator:short": "USPS", "operator:type": "public", "operator:wikidata": "Q668687", "ref": "7585200002"}, "type": "Feature"}
{"geometry": {"coordinates": [-95.758352565, 31.02011117], "type": "Point"}, "id": "X45Q5KnrI-1EU5RKkgf1RdKNXEA=", "properties": {"@spider": "usps_collection_boxes", "addr:city": "MIDWAY", "addr:country": "US", "addr:full": "11528 STATE HIGHWAY 21 E", "addr:postcode": "75852", "addr:state": "TX", "amenity": "post_box", "brand": "United States Postal Service", "brand:wikidata": "Q668687", "collection_times": "Mo-Fr 15:30", "name": "USPS COLLECTION BOX - PO LOBBY", "note": "ON 12/24 AND 12/31, THIS BOX MAY BE COLLECTED AS EARLY AS 12 NOON.", "nsi_id": "unitedstatespostalservice-a77078", "operator": "United States Postal Service", "operator:short": "USPS", "operator:type": "public", "operator:wikidata": "Q668687", "ref": "7585200003"}, "type": "Feature"}
{"geometry": {"coordinates": [-95.849592, 31.584651], "type": "Point"}, "id": "MYFUmaNHWJoTlBk0LDd1IrZUjH0=", "properties": {"@spider": "usps_collection_boxes", "addr:city": "OAKWOOD", "addr:country": "US", "addr:full": "315 W BROAD ST", "addr:postcode": "75855", "addr:state": "TX", "amenity": "post_box", "brand": "United States Postal Service", "brand:wikidata": "Q668687", "collection_times": "Mo-Fr 14:00; Sa 08:00", "name": "USPS COLLECTION BOX - BLUE BOX", "note": "ON 12/24 AND 12/31, THIS BOX MAY BE COLLECTED AS EARLY AS 12 NOON.", "nsi_id": "unitedstatespostalservice-a77078", "operator": "United States Postal Service", "operator:short": "USPS", "operator:type": "public", "operator:wikidata": "Q668687", "ref": "7585500001"}, "type": "Feature"}
{"geometry": {"coordinates": [-95.849592, 31.584651], "type": "Point"}, "id": "EMpMoCEtPKgpZDVbtE3hV6AvFRY=", "properties": {"@spider": "usps_collection_boxes", "addr:city": "OAKWOOD", "addr:country": "US", "addr:full": "315 W BROAD ST", "addr:postcode": "75855", "addr:state": "TX", "amenity": "post_box", "brand": "United States Postal Service", "brand:wikidata": "Q668687", "collection_times": "Mo-Fr 14:00; Sa 08:00", "name": "USPS COLLECTION BOX - PO LOBBY", "note": "ON 12/24 AND 12/31, THIS BOX MAY BE COLLECTED AS EARLY AS 12 NOON.", "nsi_id": "unitedstatespostalservice-a77078", "operator": "United States Postal Service", "operator:short": "USPS", "operator:type": "public", "operator:wikidata": "Q668687", "ref": "7585500003"}, "type": "Feature"}
{"geometry": {"coordinates": [-95.850000537, 31.584400478], "type": "Point"}, "id": "c33SXw1kPTkMduE736f4_pa89X4=", "properties": {"@spider": "usps_collection_boxes", "addr:city": "OAKWOOD", "addr:country": "US", "addr:full": "315 W BROAD ST", "addr:postcode": "75855", "addr:state": "TX", "amenity": "post_box", "brand": "United States Postal Service", "brand:wikidata": "Q668687", "collection_times": "Mo-Fr 14:00", "name": "USPS COLLECTION BOX - PO LOBBY", "note": "ON 12/24 AND 12/31, THIS BOX MAY BE COLLECTED AS EARLY AS 12 NOON.", "nsi_id": "unitedstatespostalservice-a77078", "operator": "United States Postal Service", "operator:short": "USPS", "operator:type": "public", "operator:wikidata": "Q668687", "ref": "7585500004"}, "type": "Feature"}
{"geometry": {"coordinates": [-95.235909, 31.187206], "type": "Point"}, "id": "02PVMjnyEQ4fngl_F36kTLfLtPo=", "properties": {"@spider": "usps_collection_boxes", "addr:city": "PENNINGTON", "addr:country": "US", "addr:full": "6552 FM 2781", "addr:postcode": "75856", "addr:state": "TX", "amenity": "post_box", "brand": "United States Postal Service", "brand:wikidata": "Q668687", "collection_times": "Mo-Sa 15:00", "name": "USPS COLLECTION BOX - BLUE BOX", "note": "ON 12/24 AND 12/31, THIS BOX MAY BE COLLECTED AS EARLY AS 12 NOON.", "nsi_id": "unitedstatespostalservice-a77078", "operator": "United States Postal Service", "operator:short": "USPS", "operator:type": "public", "operator:wikidata": "Q668687", "ref": "7585600000"}, "type": "Feature"}
{"geometry": {"coordinates": [-95.235909, 31.187206], "type": "Point"}, "id": "Oa2WAwx8Hu65GZq6RjSJ0GlP6P0=", "properties": {"@spider": "usps_collection_boxes", "addr:city": "PENNINGTON", "addr:country": "US", "addr:full": "6552 FM 2781", "addr:postcode": "75856", "addr:state": "TX", "amenity": "post_box", "brand": "United States Postal Service", "brand:wikidata": "Q668687", "collection_times": "Mo-Fr 10:30; Sa 08:00", "name": "USPS COLLECTION BOX - PO LOBBY", "nsi_id": "unitedstatespostalservice-a77078", "operator": "United States Postal Service", "operator:short": "USPS", "operator:type": "public", "operator:wikidata": "Q668687", "ref": "7585600002"}, "type": "Feature"}
{"geometry": {"coordinates": [-95.235908868, 31.186863251], "type": "Point"}, "id": "HRUMqqWkfQEW5m8Al3nrv612ies=", "properties": {"@spider": "usps_collection_boxes", "addr:city": "PENNINGTON", "addr:country": "US", "addr:full": "6552 FM 2781", "addr:postcode": "75856", "addr:state": "TX", "amenity": "post_box", "brand": "United States Postal Service", "brand:wikidata": "Q668687", "collection_times": "Mo-Fr 11:00", "name": "USPS COLLECTION BOX - PO LOBBY", "nsi_id": "unitedstatespostalservice-a77078", "operator": "United States Postal Service", "operator:short": "USPS", "operator:type": "public", "operator:wikidata": "Q668687", "ref": "7585600004"}, "type": "Feature"}
{"geometry": {"coordinates": [-96.324189, 31.877568], "type": "Point"}, "id": "OZ0y__7CkWCQATbeXxVwUP4aUfs=", "properties": {"@spider": "usps_collection_boxes", "addr:city": "STREETMAN", "addr:country": "US", "addr:full": "223 E MAIN ST", "addr:postcode": "75859", "addr:state": "TX", "amenity": "post_box", "brand": "United States Postal Service", "brand:wikidata": "Q668687", "collection_times": "Mo-Sa 15:30", "name": "USPS COLLECTION BOX - BLUE BOX", "note": "ON 12/24 AND 12/31, THIS BOX MAY BE COLLECTED AS EARLY AS 12 NOON.", "nsi_id": "unitedstatespostalservice-a77078", "operator": "United States Postal Service", "operator:short": "USPS", "operator:type": "public", "operator:wikidata": "Q668687", "ref": "7585900000"}, "type": "Feature"}
{"geometry": {"coordinates": [-96.324189, 31.877568], "type": "Point"}, "id": "GgFFeVBjLD22HUInii4hfPjAbi0=", "properties": {"@spider": "usps_collection_boxes", "addr:city": "STREETMAN", "addr:country": "US", "addr:full": "223 E MAIN ST", "addr:postcode": "75859", "addr:state": "TX", "amenity": "post_box", "brand": "United States Postal Service", "brand:wikidata": "Q668687", "collection_times": "Mo-Fr 15:30; Sa 09:00", "name": "USPS COLLECTION BOX - PO LOBBY", "note": "ON 12/24 AND 12/31, THIS BOX MAY BE COLLECTED AS EARLY AS 12 NOON.", "nsi_id": "unitedstatespostalservice-a77078", "operator": "United States Postal Service", "operator:short": "USPS", "operator:type": "public", "operator:wikidata": "Q668687", "ref": "7585900002"}, "type": "Feature"}
{"geometry": {"coordinates": [-96.32421022, 31.877555772], "type": "Point"}, "id": "N0kwBj3w4_JmPZ-hQcFHYoH0Vus=", "properties": {"@spider": "usps_collection_boxes", "addr:city": "STREETMAN", "addr:country": "US", "addr:full": "223 E MAIN ST", "addr:postcode": "75859", "addr:state": "TX", "amenity": "post_box", "brand": "United States Postal Service", "brand:wikidata": "Q668687", "collection_times": "Mo-Fr 15:30", "name": "USPS COLLECTION BOX - PO LOBBY", "note": "ON 12/24 AND 12/31, THIS BOX MAY BE COLLECTED AS EARLY AS 12 NOON.", "nsi_id": "unitedstatespostalservice-a77078", "operator": "United States Postal Service", "operator:short": "USPS", "operator:type": "public", "operator:wikidata": "Q668687", "ref": "7585900005"}, "type": "Feature"}
{"geometry": {"coordinates": [-96.2725557, 31.62868], "type": "Point"}, "id": "fyu-SRRM8j1aF64Hhd9RzlIwBTk=", "properties": {"@spider": "usps_collection_boxes", "addr:city": "TEAGUE", "addr:country": "US", "addr:full": "230 E LOOP 255", "addr:postcode": "75860", "addr:state": "TX", "amenity": "post_box", "brand": "United States Postal Service", "brand:wikidata": "Q668687", "collection_times": "Mo-Sa 12:00", "name": "USPS COLLECTION BOX - BLUE BOX", "nsi_id": "unitedstatespostalservice-a77078", "operator": "United States Postal Service", "operator:short": "USPS", "operator:type": "public", "operator:wikidata": "Q668687", "ref": "7586000001"}, "type": "Feature"}
{"geometry": {"coordinates": [-96.284544, 31.627188], "type": "Point"}, "id": "ohf0ZdNfw-9Q7g0nNcRMHRRzsu4=", "properties": {"@spider": "usps_collection_boxes", "addr:city": "TEAGUE", "addr:country": "US", "addr:full": "320 MAIN ST", "addr:postcode": "75860", "addr:state": "TX", "amenity": "post_box", "brand": "United States Postal Service", "brand:wikidata": "Q668687", "collection_times": "Mo-Fr 15:30; Sa 10:00", "name": "USPS COLLECTION BOX - BLUE BOX", "note": "ON 12/24 AND 12/31, THIS BOX MAY BE COLLECTED AS EARLY AS 12 NOON.", "nsi_id": "unitedstatespostalservice-a77078", "operator": "United States Postal Service", "operator:short": "USPS", "operator:type": "public", "operator:wikidata": "Q668687", "ref": "7586000002"}, "type": "Feature"}
{"geometry": {"coordinates": [-96.284544, 31.627188], "type": "Point"}, "id": "dfQ2sj4FIMrdjInZUSJZza6_fgM=", "properties": {"@spider": "usps_collection_boxes", "addr:city": "TEAGUE", "addr:country": "US", "addr:full": "320 MAIN ST", "addr:postcode": "75860", "addr:state": "TX", "amenity": "post_box", "brand": "United States Postal Service", "brand:wikidata": "Q668687", "collection_times": "Mo-Fr 15:30; Sa 10:00", "name": "USPS COLLECTION BOX - BLUE BOX", "note": "ON 12/24 AND 12/31, THIS BOX MAY BE COLLECTED AS EARLY AS 12 NOON.", "nsi_id": "unitedstatespostalservice-a77078", "operator": "United States Postal Service", "operator:short": "USPS", "operator:type": "public", "operator:wikidata": "Q668687", "ref": "7586000003"}, "type": "Feature"}
{"geometry": {"coordinates": [-96.284544, 31.627188], "type": "Point"}, "id": "0Vl91YprkI-JHhsT91Sm6l4vwjc=", "properties": {"@spider": "usps_collection_boxes", "addr:city": "TEAGUE", "addr:country": "US", "addr:full": "320 MAIN ST", "addr:postcode": "75860", "addr:state": "TX", "amenity": "post_box", "brand": "United States Postal Service", "brand:wikidata": "Q668687", "collection_times": "Mo-Fr 15:30; Sa 10:00", "name": "USPS COLLECTION BOX - PO LOBBY", "note": "ON 12/24 AND 12/31, THIS BOX MAY BE COLLECTED AS EARLY AS 12 NOON.", "nsi_id": "unitedstatespostalservice-a77078", "operator": "United States Postal Service", "operator:short": "USPS", "operator:type": "public", "operator:wikidata": "Q668687", "ref": "7586000005"}, "type": "Feature"}
{"geometry": {"coordinates": [-96.284303696, 31.627176477], "type": "Point"}, "id": "9vnMxaNFZxFRViNkdyzTScrQPSo=", "properties": {"@spider": "usps_collection_boxes", "addr:city": "TEAGUE", "addr:country": "US", "addr:full": "320 MAIN ST", "addr:postcode": "75860", "addr:state": "TX", "amenity": "post_box", "brand": "United States Postal Service", "brand:wikidata": "Q668687", "collection_times": "Mo-Fr 15:30", "name": "USPS COLLECTION BOX - PO LOBBY", "note": "ON 12/24 AND 12/31, THIS BOX MAY BE COLLECTED AS EARLY AS 12 NOON.", "nsi_id": "unitedstatespostalservice-a77078", "operator": "United States Postal Service", "operator:short": "USPS", "operator:type": "public", "operator:wikidata": "Q668687", "ref": "7586000007"}, "type": "Feature"}
{"geometry": {"coordinates": [-95.2946596, 30.915469], "type": "Point"}, "id": "R1L1ahoyx4YHpf7kUij_n1_G2yg=", "properties": {"@spider": "usps_collection_boxes", "addr:city": "TRINITY", "addr:country": "US", "addr:full": "740 GRAND ROCK PT", "addr:postcode": "75862", "addr:state": "TX", "amenity": "post_box", "brand": "United States Postal Service", "brand:wikidata": "Q668687", "collection_times": "Mo-Fr 11:00; Sa 09:00", "name": "USPS COLLECTION BOX - BLUE BOX", "nsi_id": "unitedstatespostalservice-a77078", "operator": "United States Postal Service", "operator:short": "USPS", "operator:type": "public", "operator:wikidata": "Q668687", "ref": "7586206477"}, "type": "Feature"}
{"geometry": {"coordinates": [-95.375429, 30.94511], "type": "Point"}, "id": "GR6UJ23XvM6j1-XBkzQos0IZ-d0=", "properties": {"@spider": "usps_collection_boxes", "addr:city": "TRINITY", "addr:country": "US", "addr:full": "116 W MAIN ST", "addr:postcode": "75862", "addr:state": "TX", "amenity": "post_box", "brand": "United States Postal Service", "brand:wikidata": "Q668687", "collection_times": "Mo-Fr 16:00; Sa 09:00", "name": "USPS COLLECTION BOX - BLUE BOX", "note": "ON 12/24 AND 12/31, THIS BOX MAY BE COLLECTED AS EARLY AS 12 NOON.", "nsi_id": "unitedstatespostalservice-a77078", "operator": "United States Postal Service", "operator:short": "USPS", "operator:type": "public", "operator:wikidata": "Q668687", "ref": "7586206480"}, "type": "Feature"}
{"geometry": {"coordinates": [-95.375429, 30.94511], "type": "Point"}, "id": "OFZ4mazpFAAzidVIfxQ4FmrsBkQ=", "properties": {"@spider": "usps_collection_boxes", "addr:city": "TRINITY", "addr:country": "US", "addr:full": "116 W MAIN ST", "addr:postcode": "75862", "addr:state": "TX", "amenity": "post_box", "brand": "United States Postal Service", "brand:wikidata": "Q668687", "collection_times": "Mo-Fr 16:00; Sa 09:00", "name": "USPS COLLECTION BOX - BLUE BOX", "note": "ON 12/24 AND 12/31, THIS BOX MAY BE COLLECTED AS EARLY AS 12 NOON.", "nsi_id": "unitedstatespostalservice-a77078", "operator": "United States Postal Service", "operator:short": "USPS", "operator:type": "public", "operator:wikidata": "Q668687", "ref": "7586206481"}, "type": "Feature"}
{"geometry": {"coordinates": [-95.3522847, 30.898668], "type": "Point"}, "id": "qVu_DUMr2eGftNRErCK8NkPrYhw=", "properties": {"@spider": "usps_collection_boxes", "addr:city": "TRINITY", "addr:country": "US", "addr:full": "159 WILDFLOWER DR", "addr:postcode": "75862", "addr:state": "TX", "amenity": "post_box", "brand": "United States Postal Service", "brand:wikidata": "Q668687", "collection_times": "Mo-Fr 11:00; Sa 09:00", "name": "USPS COLLECTION BOX - BLUE BOX", "nsi_id": "unitedstatespostalservice-a77078", "operator": "United States Postal Service", "operator:short": "USPS", "operator:type": "public", "operator:wikidata": "Q668687", "ref": "7586206482"}, "type": "Feature"}
{"geometry": {"coordinates": [-95.3340552, 30.934464], "type": "Point"}, "id": "5BfWtvO3xRHmiwavyMVCWdoe0YE=", "properties": {"@spider": "usps_collection_boxes", "addr:city": "TRINITY", "addr:country": "US", "addr:full": "100 WESTWOOD DR E", "addr:postcode": "75862", "addr:state": "TX", "amenity": "post_box", "brand": "United States Postal Service", "brand:wikidata": "Q668687", "collection_times": "Mo-Fr 10:00; Sa 09:00", "name": "USPS COLLECTION BOX - BLUE BOX", "nsi_id": "unitedstatespostalservice-a77078", "operator": "United States Postal Service", "operator:short": "USPS", "operator:type": "public", "operator:wikidata": "Q668687", "ref": "7586206484"}, "type": "Feature"}
{"geometry": {"coordinates": [-95.3253153, 30.940053], "type": "Point"}, "id": "_xA4d5xFuxhZdKHeWqYYUm4PxMw=", "properties": {"@spider": "usps_collection_boxes", "addr:city": "TRINITY", "addr:country": "US", "addr:full": "9 CORAL GABLES", "addr:postcode": "75862", "addr:state": "TX", "amenity": "post_box", "brand": "United States Postal Service", "brand:wikidata": "Q668687", "collection_times": "Mo-Fr 11:00; Sa 10:00", "name": "USPS COLLECTION BOX - BLUE BOX", "nsi_id": "unitedstatespostalservice-a77078", "operator": "United States Postal Service", "operator:short": "USPS", "operator:type": "public", "operator:wikidata": "Q668687", "ref": "7586206485"}, "type": "Feature"}
{"geometry": {"coordinates": [-95.375429, 30.94511], "type": "Point"}, "id": "MgyOVdTEgIERyDv_3u3ryvMKB3s=", "properties": {"@spider": "usps_collection_boxes", "addr:city": "TRINITY", "addr:country": "US", "addr:full": "116 W MAIN ST", "addr:postcode": "75862", "addr:state": "TX", "amenity": "post_box", "brand": "United States Postal Service", "brand:wikidata": "Q668687", "collection_times": "Mo-Fr 16:00; Sa 09:00", "name": "USPS COLLECTION BOX - PO LOBBY", "note": "ON 12/24 AND 12/31, THIS BOX MAY BE COLLECTED AS EARLY AS 12 NOON.", "nsi_id": "unitedstatespostalservice-a77078", "operator": "United States Postal Service", "operator:short": "USPS", "operator:type": "public", "operator:wikidata": "Q668687", "ref": "7586206488"}, "type": "Feature"}
{"geometry": {"coordinates": [-95.3405176, 30.937488], "type": "Point"}, "id": "3rYqBKb8Zqc606IlbJMaDJp92jM=", "properties": {"@spider": "usps_collection_boxes", "addr:city": "TRINITY", "addr:country": "US", "addr:full": "RR 4", "addr:postcode": "75862", "addr:state": "TX", "amenity": "post_box", "brand": "United States Postal Service", "brand:wikidata": "Q668687", "collection_times": "Mo-Fr 11:00", "name": "USPS COLLECTION BOX - BLUE BOX", "nsi_id": "unitedstatespostalservice-a77078", "operator": "United States Postal Service", "operator:short": "USPS", "operator:type": "public", "operator:wikidata": "Q668687", "ref": "7586206489"}, "type": "Feature"}
{"geometry": {"coordinates": [-95.375430754, 30.945103522], "type": "Point"}, "id": "MX58GwkmFkGXfOUgsZniGolALTM=", "properties": {"@spider": "usps_collection_boxes", "addr:city": "TRINITY", "addr:country": "US", "addr:full": "116 W MAIN ST", "addr:postcode": "75862", "addr:state": "TX", "amenity": "post_box", "brand": "United States Postal Service", "brand:wikidata": "Q668687", "collection_times": "Mo-Fr 16:30", "name": "USPS COLLECTION BOX - PO LOBBY", "note": "ON 12/24 AND 12/31, THIS BOX MAY BE COLLECTED AS EARLY AS 12 NOON.", "nsi_id": "unitedstatespostalservice-a77078", "operator": "United States Postal Service", "operator:short": "USPS", "operator:type": "public", "operator:wikidata": "Q668687", "ref": "7586206490"}, "type": "Feature"}
{"geometry": {"coordinates": [-95.0386573016, 31.0241655879], "type": "Point"}, "id": "6gaDtKT_8xBFzx7mZa58Gku9ek8=", "properties": {"@spider": "usps_collection_boxes", "addr:city": "WOODLAKE", "addr:country": "US", "addr:full": "5923 E US HIGHWAY 287", "addr:postcode": "75865", "addr:state": "TX", "amenity": "post_box", "brand": "United States Postal Service", "brand:wikidata": "Q668687", "collection_times": "Mo-Fr 13:00; Sa 09:00", "name": "USPS COLLECTION BOX - BLUE BOX", "note": "ON 12/24 AND 12/31, THIS BOX MAY BE COLLECTED AS EARLY AS 12 NOON.", "nsi_id": "unitedstatespostalservice-a77078", "operator": "United States Postal Service", "operator:short": "USPS", "operator:type": "public", "operator:wikidata": "Q668687", "ref": "7586500000"}, "type": "Feature"}
{"geometry": {"coordinates": [-95.0386573016, 31.0241655879], "type": "Point"}, "id": "mGqpdwJe-Ye8RyBELEEPI2lhTrc=", "properties": {"@spider": "usps_collection_boxes", "addr:city": "WOODLAKE", "addr:country": "US", "addr:full": "5923 E US HIGHWAY 287", "addr:postcode": "75865", "addr:state": "TX", "amenity": "post_box", "brand": "United States Postal Service", "brand:wikidata": "Q668687", "collection_times": "Mo-Fr 13:00", "name": "USPS COLLECTION BOX - PO LOBBY", "note": "ON 12/24 AND 12/31, THIS BOX MAY BE COLLECTED AS EARLY AS 12 NOON.", "nsi_id": "unitedstatespostalservice-a77078", "operator": "United States Postal Service", "operator:short": "USPS", "operator:type": "public", "operator:wikidata": "Q668687", "ref": "7586500001"}, "type": "Feature"}
{"geometry": {"coordinates": [-95.036030634, 31.023088301], "type": "Point"}, "id": "k20W38Sn58dwWq-tMFVbY-ZUz1U=", "properties": {"@spider": "usps_collection_boxes", "addr:city": "WOODLAKE", "addr:country": "US", "addr:full": "5923 E US HIGHWAY 287", "addr:postcode": "75865", "addr:state": "TX", "amenity": "post_box", "brand": "United States Postal Service", "brand:wikidata": "Q668687", "collection_times": "Mo-Fr 13:00", "name": "USPS COLLECTION BOX - PO LOBBY", "note": "ON 12/24 AND 12/31, THIS BOX MAY BE COLLECTED AS EARLY AS 12 NOON.", "nsi_id": "unitedstatespostalservice-a77078", "operator": "United States Postal Service", "operator:short": "USPS", "operator:type": "public", "operator:wikidata": "Q668687", "ref": "7586500003"}, "type": "Feature"}
