{"dataset_attributes": {"@spider": "usps_collection_boxes", "spider:collection_time": "2023-09-22T08:24:47.468985"}, "geometry": {"coordinates": [-94.7290613, 31.287622], "type": "Point"}, "id": "fXr7zAkYTxq_JFPXt3LULDW47ds=", "properties": {"@spider": "usps_collection_boxes", "addr:city": "LUFKIN", "addr:country": "US", "addr:full": "111 CHAMPIONS DR", "addr:postcode": "75901", "addr:state": "TX", "amenity": "post_box", "brand": "United States Postal Service", "brand:wikidata": "Q668687", "collection_times": "Mo-Sa 13:00", "name": "USPS COLLECTION BOX - BLUE BOX", "note": "ON 12/24 AND 12/31, THIS BOX MAY BE COLLECTED AS EARLY AS 12 NOON.", "nsi_id": "unitedstatespostalservice-a77078", "operator": "United States Postal Service", "operator:short": "USPS", "operator:type": "public", "operator:wikidata": "Q668687", "ref": "7590106637"}, "type": "Feature"}
{"dataset_attributes": {"@spider": "usps_collection_boxes", "spider:collection_time": "2023-09-22T08:24:47.468985"}, "geometry": {"coordinates": [-94.733703, 31.287291], "type": "Point"}, "id": "9nA-CfC2nPfs3M7L-1eBJ_CZJcY=", "properties": {"@spider": "usps_collection_boxes", "addr:city": "LUFKIN", "addr:country": "US", "addr:full": "HWY 59 S", "addr:postcode": "75901", "addr:state": "TX", "amenity": "post_box", "brand": "United States Postal Service", "brand:wikidata": "Q668687", "collection_times": "Mo-Fr 13:00", "name": "USPS COLLECTION BOX - BLUE BOX", "note": "ON 12/24 AND 12/31, THIS BOX MAY BE COLLECTED AS EARLY AS 12 NOON.", "nsi_id": "unitedstatespostalservice-a77078", "operator": "United States Postal Service", "operator:short": "USPS", "operator:type": "public", "operator:wikidata": "Q668687", "ref": "7590106653"}, "type": "Feature"}
{"dataset_attributes": {"@spider": "usps_collection_boxes", "spider:collection_time": "2023-09-22T08:24:47.468985"}, "geometry": {"coordinates": [-94.7272199, 31.33743], "type": "Point"}, "id": "o-tRrEcwpZZ3e1ttBgX8Cr3awLY=", "properties": {"@spider": "usps_collection_boxes", "addr:city": "LUFKIN", "addr:country": "US", "addr:full": "222 E SHEPHERD AVE", "addr:postcode": "75901", "addr:state": "TX", "amenity": "post_box", "brand": "United States Postal Service", "brand:wikidata": "Q668687", "collection_times": "Mo-Sa 11:00", "name": "USPS COLLECTION BOX - BLUE BOX", "nsi_id": "unitedstatespostalservice-a77078", "operator": "United States Postal Service", "operator:short": "USPS", "operator:type": "public", "operator:wikidata": "Q668687", "ref": "7590106660"}, "type": "Feature"}
{"dataset_attributes": {"@spider": "usps_collection_boxes", "spider:collection_time": "2023-09-22T08:24:47.468985"}, "geometry": {"coordinates": [-94.7148177, 31.326434], "type": "Point"}, "id": "ZnuLqZCqvH7J6YMmAxtHx_8cSxQ=", "properties": {"@spider": "usps_collection_boxes", "addr:city": "LUFKIN", "addr:country": "US", "addr:full": "1203 S CHESTNUT ST", "addr:postcode": "75901", "addr:state": "TX", "amenity": "post_box", "brand": "United States Postal Service", "brand:wikidata": "Q668687", "collection_times": "Mo-Sa 13:00", "name": "USPS COLLECTION BOX - BLUE BOX", "note": "ON 12/24 AND 12/31, THIS BOX MAY BE COLLECTED AS EARLY AS 12 NOON.", "nsi_id": "unitedstatespostalservice-a77078", "operator": "United States Postal Service", "operator:short": "USPS", "operator:type": "public", "operator:wikidata": "Q668687", "ref": "7590106667"}, "type": "Feature"}
{"dataset_attributes": {"@spider": "usps_collection_boxes", "spider:collection_time": "2023-09-22T08:24:47.468985"}, "geometry": {"coordinates": [-94.7278384, 31.341677], "type": "Point"}, "id": "afFycwfJ7nR1x5J3eA2UEGDpSDE=", "properties": {"@spider": "usps_collection_boxes", "addr:city": "LUFKIN", "addr:country": "US", "addr:full": "321 N 1ST ST", "addr:postcode": "75901", "addr:state": "TX", "amenity": "post_box", "brand": "United States Postal Service", "brand:wikidata": "Q668687", "collection_times": "Mo-Fr 13:45", "name": "USPS COLLECTION BOX - BLUE BOX", "note": "ON 12/24 AND 12/31, THIS BOX MAY BE COLLECTED AS EARLY AS 12 NOON.", "nsi_id": "unitedstatespostalservice-a77078", "operator": "United States Postal Service", "operator:short": "USPS", "operator:type": "public", "operator:wikidata": "Q668687", "ref": "7590106674"}, "type": "Feature"}
{"dataset_attributes": {"@spider": "usps_collection_boxes", "spider:collection_time": "2023-09-22T08:24:47.468985"}, "geometry": {"coordinates": [-94.7299877, 31.333335], "type": "Point"}, "id": "ZER7R1FNtovlgurLQ-cEgV41ojU=", "properties": {"@spider": "usps_collection_boxes", "addr:city": "LUFKIN", "addr:country": "US", "addr:full": "600 S 1ST ST", "addr:postcode": "75901", "addr:state": "TX", "amenity": "post_box", "brand": "United States Postal Service", "brand:wikidata": "Q668687", "collection_times": "Mo-Sa 14:00", "name": "USPS COLLECTION BOX - BLUE BOX", "note": "ON 12/24 AND 12/31, THIS BOX MAY BE COLLECTED AS EARLY AS 12 NOON.", "nsi_id": "unitedstatespostalservice-a77078", "operator": "United States Postal Service", "operator:short": "USPS", "operator:type": "public", "operator:wikidata": "Q668687", "ref": "7590106675"}, "type": "Feature"}
{"dataset_attributes": {"@spider": "usps_collection_boxes", "spider:collection_time": "2023-09-22T08:24:47.468985"}, "geometry": {"coordinates": [-94.7287318, 31.339145], "type": "Point"}, "id": "Tb-S3AtCIItpnkVwxzn9SoBhHkE=", "properties": {"@spider": "usps_collection_boxes", "addr:city": "LUFKIN", "addr:country": "US", "addr:full": "101 E LUFKIN AVE", "addr:postcode": "75901", "addr:state": "TX", "amenity": "post_box", "brand": "United States Postal Service", "brand:wikidata": "Q668687", "collection_times": "Mo-Sa 11:00", "name": "USPS COLLECTION BOX - BLUE BOX", "nsi_id": "unitedstatespostalservice-a77078", "operator": "United States Postal Service", "operator:short": "USPS", "operator:type": "public", "operator:wikidata": "Q668687", "ref": "7590106681"}, "type": "Feature"}
{"dataset_attributes": {"@spider": "usps_collection_boxes", "spider:collection_time": "2023-09-22T08:24:47.468985"}, "geometry": {"coordinates": [-94.7268636, 31.338608], "type": "Point"}, "id": "yD9l2wag6doAeW-AlTtOetgdG5U=", "properties": {"@spider": "usps_collection_boxes", "addr:city": "LUFKIN", "addr:country": "US", "addr:full": "215 E LUFKIN AVE", "addr:postcode": "75901", "addr:state": "TX", "amenity": "post_box", "brand": "United States Postal Service", "brand:wikidata": "Q668687", "collection_times": "Mo-Fr 11:00", "name": "USPS COLLECTION BOX - BLUE BOX", "nsi_id": "unitedstatespostalservice-a77078", "operator": "United States Postal Service", "operator:short": "USPS", "operator:type": "public", "operator:wikidata": "Q668687", "ref": "7590106682"}, "type": "Feature"}
{"dataset_attributes": {"@spider": "usps_collection_boxes", "spider:collection_time": "2023-09-22T08:24:47.468985"}, "geometry": {"coordinates": [-94.7273538, 31.339558], "type": "Point"}, "id": "mgmbBNgdNgE3uE0jOmc_0w3EgPg=", "properties": {"@spider": "usps_collection_boxes", "addr:city": "LUFKIN", "addr:country": "US", "addr:full": "113 N 2ND ST", "addr:postcode": "75901", "addr:state": "TX", "amenity": "post_box", "brand": "United States Postal Service", "brand:wikidata": "Q668687", "collection_times": "Mo-Sa 10:30", "name": "USPS COLLECTION BOX - BLUE BOX", "nsi_id": "unitedstatespostalservice-a77078", "operator": "United States Postal Service", "operator:short": "USPS", "operator:type": "public", "operator:wikidata": "Q668687", "ref": "7590107262"}, "type": "Feature"}
{"dataset_attributes": {"@spider": "usps_collection_boxes", "spider:collection_time": "2023-09-22T08:24:47.468985"}, "geometry": {"coordinates": [-94.7466212, 31.353943], "type": "Point"}, "id": "8RcN2_wdOALaYvKps-mQZMAlJs4=", "properties": {"@spider": "usps_collection_boxes", "addr:city": "LUFKIN", "addr:country": "US", "addr:full": "1908 N RAGUET ST", "addr:postcode": "75904", "addr:state": "TX", "amenity": "post_box", "brand": "United States Postal Service", "brand:wikidata": "Q668687", "collection_times": "Mo-Fr 17:00; Sa 14:30", "name": "USPS COLLECTION BOX - BLUE BOX", "note": "ON 12/24 AND 12/31, THIS BOX MAY BE COLLECTED AS EARLY AS 12 NOON.", "nsi_id": "unitedstatespostalservice-a77078", "operator": "United States Postal Service", "operator:short": "USPS", "operator:type": "public", "operator:wikidata": "Q668687", "ref": "7590400010"}, "type": "Feature"}
{"dataset_attributes": {"@spider": "usps_collection_boxes", "spider:collection_time": "2023-09-22T08:24:47.468985"}, "geometry": {"coordinates": [-94.7468904, 31.353809], "type": "Point"}, "id": "H5x_y8FrSqRm85_VDH8tscEuPB0=", "properties": {"@spider": "usps_collection_boxes", "addr:city": "LUFKIN", "addr:country": "US", "addr:full": "1908 N RAGUET ST", "addr:postcode": "75904", "addr:state": "TX", "amenity": "post_box", "brand": "United States Postal Service", "brand:wikidata": "Q668687", "collection_times": "Mo-Fr 16:00", "name": "USPS COLLECTION BOX - PO LOBBY", "note": "ON 12/24 AND 12/31, THIS BOX MAY BE COLLECTED AS EARLY AS 12 NOON.", "nsi_id": "unitedstatespostalservice-a77078", "operator": "United States Postal Service", "operator:short": "USPS", "operator:type": "public", "operator:wikidata": "Q668687", "ref": "7590400012"}, "type": "Feature"}
{"dataset_attributes": {"@spider": "usps_collection_boxes", "spider:collection_time": "2023-09-22T08:24:47.468985"}, "geometry": {"coordinates": [-94.7468829, 31.353847], "type": "Point"}, "id": "nG04HTrUKkyaAodeGxya_FWW8Mk=", "properties": {"@spider": "usps_collection_boxes", "addr:city": "LUFKIN", "addr:country": "US", "addr:full": "1908 N RAGUET ST", "addr:postcode": "75904", "addr:state": "TX", "amenity": "post_box", "brand": "United States Postal Service", "brand:wikidata": "Q668687", "collection_times": "Mo-Fr 16:00", "name": "USPS COLLECTION BOX - PO LOBBY", "note": "ON 12/24 AND 12/31, THIS BOX MAY BE COLLECTED AS EARLY AS 12 NOON.", "nsi_id": "unitedstatespostalservice-a77078", "operator": "United States Postal Service", "operator:short": "USPS", "operator:type": "public", "operator:wikidata": "Q668687", "ref": "7590400013"}, "type": "Feature"}
{"dataset_attributes": {"@spider": "usps_collection_boxes", "spider:collection_time": "2023-09-22T08:24:47.468985"}, "geometry": {"coordinates": [-94.7402832, 31.329186], "type": "Point"}, "id": "ZIoG9UIvVaiSl3smHwP9fiC-Bd0=", "properties": {"@spider": "usps_collection_boxes", "addr:city": "LUFKIN", "addr:country": "US", "addr:full": "701 SOUTHWOOD DR", "addr:postcode": "75904", "addr:state": "TX", "amenity": "post_box", "brand": "United States Postal Service", "brand:wikidata": "Q668687", "collection_times": "Mo-Sa 11:00", "name": "USPS COLLECTION BOX - BLUE BOX", "nsi_id": "unitedstatespostalservice-a77078", "operator": "United States Postal Service", "operator:short": "USPS", "operator:type": "public", "operator:wikidata": "Q668687", "ref": "7590400027"}, "type": "Feature"}
{"dataset_attributes": {"@spider": "usps_collection_boxes", "spider:collection_time": "2023-09-22T08:24:47.468985"}, "geometry": {"coordinates": [-94.748519014, 31.3119130075], "type": "Point"}, "id": "RNnmpGrDudyV_RUkvFFBWTIKej8=", "properties": {"@spider": "usps_collection_boxes", "addr:city": "LUFKIN", "addr:country": "US", "addr:full": "800 S JOHN REDDITT DR", "addr:postcode": "75904", "addr:state": "TX", "amenity": "post_box", "brand": "United States Postal Service", "brand:wikidata": "Q668687", "collection_times": "Mo-Sa 17:45", "name": "USPS COLLECTION BOX - BLUE BOX", "note": "ON 12/24 AND 12/31, THIS BOX MAY BE COLLECTED AS EARLY AS 12 NOON.", "nsi_id": "unitedstatespostalservice-a77078", "operator": "United States Postal Service", "operator:short": "USPS", "operator:type": "public", "operator:wikidata": "Q668687", "ref": "7590400040"}, "type": "Feature"}
{"dataset_attributes": {"@spider": "usps_collection_boxes", "spider:collection_time": "2023-09-22T08:24:47.468985"}, "geometry": {"coordinates": [-94.748519014, 31.3119130075], "type": "Point"}, "id": "WNWAUFiP1w1tCLeIQz8p5h0BN7k=", "properties": {"@spider": "usps_collection_boxes", "addr:city": "LUFKIN", "addr:country": "US", "addr:full": "800 S JOHN REDDITT DR", "addr:postcode": "75904", "addr:state": "TX", "amenity": "post_box", "brand": "United States Postal Service", "brand:wikidata": "Q668687", "collection_times": "Mo-Sa 17:45", "name": "USPS COLLECTION BOX - BLUE BOX", "note": "ON 12/24 AND 12/31, THIS BOX MAY BE COLLECTED AS EARLY AS 12 NOON.", "nsi_id": "unitedstatespostalservice-a77078", "operator": "United States Postal Service", "operator:short": "USPS", "operator:type": "public", "operator:wikidata": "Q668687", "ref": "7590400041"}, "type": "Feature"}
{"dataset_attributes": {"@spider": "usps_collection_boxes", "spider:collection_time": "2023-09-22T08:24:47.468985"}, "geometry": {"coordinates": [-94.755847, 31.325675], "type": "Point"}, "id": "juNHfVUiuxu8iWef4Eq-v2-wa7E=", "properties": {"@spider": "usps_collection_boxes", "addr:city": "LUFKIN", "addr:country": "US", "addr:full": "800 S JOHN REDDITT DR", "addr:postcode": "75904", "addr:state": "TX", "amenity": "post_box", "brand": "United States Postal Service", "brand:wikidata": "Q668687", "collection_times": "Mo-Sa 17:45", "name": "USPS COLLECTION BOX - PO LOBBY", "note": "ON 12/24 AND 12/31, THIS BOX MAY BE COLLECTED AS EARLY AS 12 NOON.", "nsi_id": "unitedstatespostalservice-a77078", "operator": "United States Postal Service", "operator:short": "USPS", "operator:type": "public", "operator:wikidata": "Q668687", "ref": "7590400042"}, "type": "Feature"}
{"dataset_attributes": {"@spider": "usps_collection_boxes", "spider:collection_time": "2023-09-22T08:24:47.468985"}, "geometry": {"coordinates": [-94.755847, 31.325675], "type": "Point"}, "id": "hTNu0G2Ch77SKjDlCRLmfCB6YeA=", "properties": {"@spider": "usps_collection_boxes", "addr:city": "LUFKIN", "addr:country": "US", "addr:full": "800 S JOHN REDDITT DR", "addr:postcode": "75904", "addr:state": "TX", "amenity": "post_box", "brand": "United States Postal Service", "brand:wikidata": "Q668687", "collection_times": "Mo-Sa 17:45", "name": "USPS COLLECTION BOX - PO LOBBY", "note": "ON 12/24 AND 12/31, THIS BOX MAY BE COLLECTED AS EARLY AS 12 NOON.", "nsi_id": "unitedstatespostalservice-a77078", "operator": "United States Postal Service", "operator:short": "USPS", "operator:type": "public", "operator:wikidata": "Q668687", "ref": "7590400043"}, "type": "Feature"}
{"dataset_attributes": {"@spider": "usps_collection_boxes", "spider:collection_time": "2023-09-22T08:24:47.468985"}, "geometry": {"coordinates": [-94.7558541047, 31.3256750502], "type": "Point"}, "id": "lEQ2jX9qQNFsoXt3W-D0rf_2zgo=", "properties": {"@spider": "usps_collection_boxes", "addr:city": "LUFKIN", "addr:country": "US", "addr:full": "800 S JOHN REDDITT DR", "addr:postcode": "75904", "addr:state": "TX", "amenity": "post_box", "brand": "United States Postal Service", "brand:wikidata": "Q668687", "collection_times": "Mo-Fr 17:00; Sa 13:00", "name": "USPS COLLECTION BOX - PO LOBBY", "note": "ON 12/24 AND 12/31, THIS BOX MAY BE COLLECTED AS EARLY AS 12 NOON.", "nsi_id": "unitedstatespostalservice-a77078", "operator": "United States Postal Service", "operator:short": "USPS", "operator:type": "public", "operator:wikidata": "Q668687", "ref": "7590400047"}, "type": "Feature"}
{"dataset_attributes": {"@spider": "usps_collection_boxes", "spider:collection_time": "2023-09-22T08:24:47.468985"}, "geometry": {"coordinates": [-95.073316, 31.649463], "type": "Point"}, "id": "3J4XDSrEj96Bgagle5AV48UFliA=", "properties": {"@spider": "usps_collection_boxes", "addr:city": "ALTO", "addr:country": "US", "addr:full": "201 COOPER ST", "addr:postcode": "75925", "addr:state": "TX", "amenity": "post_box", "brand": "United States Postal Service", "brand:wikidata": "Q668687", "collection_times": "Mo-Fr 15:30; Sa 09:00", "name": "USPS COLLECTION BOX - PO LOBBY", "note": "ON 12/24 AND 12/31, THIS BOX MAY BE COLLECTED AS EARLY AS 12 NOON.", "nsi_id": "unitedstatespostalservice-a77078", "operator": "United States Postal Service", "operator:short": "USPS", "operator:type": "public", "operator:wikidata": "Q668687", "ref": "7592500001"}, "type": "Feature"}
{"dataset_attributes": {"@spider": "usps_collection_boxes", "spider:collection_time": "2023-09-22T08:24:47.468985"}, "geometry": {"coordinates": [-95.073316, 31.649463], "type": "Point"}, "id": "PK5o6oaWWC37i4WubyvQZtVf8oY=", "properties": {"@spider": "usps_collection_boxes", "addr:city": "ALTO", "addr:country": "US", "addr:full": "201 COOPER ST", "addr:postcode": "75925", "addr:state": "TX", "amenity": "post_box", "brand": "United States Postal Service", "brand:wikidata": "Q668687", "collection_times": "Mo-Fr 15:30; Sa 09:00", "name": "USPS COLLECTION BOX - BLUE BOX", "note": "ON 12/24 AND 12/31, THIS BOX MAY BE COLLECTED AS EARLY AS 12 NOON.", "nsi_id": "unitedstatespostalservice-a77078", "operator": "United States Postal Service", "operator:short": "USPS", "operator:type": "public", "operator:wikidata": "Q668687", "ref": "7592500003"}, "type": "Feature"}
{"dataset_attributes": {"@spider": "usps_collection_boxes", "spider:collection_time": "2023-09-22T08:24:47.468985"}, "geometry": {"coordinates": [-95.0732769233, 31.6494239062], "type": "Point"}, "id": "QfFzWeUHNV1lYuePQnoEIHtahV0=", "properties": {"@spider": "usps_collection_boxes", "addr:city": "ALTO", "addr:country": "US", "addr:full": "201 COOPER ST", "addr:postcode": "75925", "addr:state": "TX", "amenity": "post_box", "brand": "United States Postal Service", "brand:wikidata": "Q668687", "collection_times": "Mo-Fr 15:30", "name": "USPS COLLECTION BOX - PO LOBBY", "note": "ON 12/24 AND 12/31, THIS BOX MAY BE COLLECTED AS EARLY AS 12 NOON.", "nsi_id": "unitedstatespostalservice-a77078", "operator": "United States Postal Service", "operator:short": "USPS", "operator:type": "public", "operator:wikidata": "Q668687", "ref": "7592500005"}, "type": "Feature"}
{"dataset_attributes": {"@spider": "usps_collection_boxes", "spider:collection_time": "2023-09-22T08:24:47.468985"}, "geometry": {"coordinates": [-94.968656, 31.223365], "type": "Point"}, "id": "yORnKHFsioogFTYvW6HKIlMN-4Y=", "properties": {"@spider": "usps_collection_boxes", "addr:city": "APPLE SPRINGS", "addr:country": "US", "addr:full": "15799 N STATE HIGHWAY 94", "addr:postcode": "75926", "addr:state": "TX", "amenity": "post_box", "brand": "United States Postal Service", "brand:wikidata": "Q668687", "collection_times": "Mo-Fr 15:00; Sa 09:00", "name": "USPS COLLECTION BOX - BLUE BOX", "note": "ON 12/24 AND 12/31, THIS BOX MAY BE COLLECTED AS EARLY AS 12 NOON.", "nsi_id": "unitedstatespostalservice-a77078", "operator": "United States Postal Service", "operator:short": "USPS", "operator:type": "public", "operator:wikidata": "Q668687", "ref": "7592600000"}, "type": "Feature"}
{"dataset_attributes": {"@spider": "usps_collection_boxes", "spider:collection_time": "2023-09-22T08:24:47.468985"}, "geometry": {"coordinates": [-94.968656, 31.223365], "type": "Point"}, "id": "zqU8J5nEmNBKct_SVS22VDxkz68=", "properties": {"@spider": "usps_collection_boxes", "addr:city": "APPLE SPRINGS", "addr:country": "US", "addr:full": "15799 N STATE HIGHWAY 94", "addr:postcode": "75926", "addr:state": "TX", "amenity": "post_box", "brand": "United States Postal Service", "brand:wikidata": "Q668687", "collection_times": "Mo-Fr 14:30; Sa 09:00", "name": "USPS COLLECTION BOX - PO LOBBY", "note": "ON 12/24 AND 12/31, THIS BOX MAY BE COLLECTED AS EARLY AS 12 NOON.", "nsi_id": "unitedstatespostalservice-a77078", "operator": "United States Postal Service", "operator:short": "USPS", "operator:type": "public", "operator:wikidata": "Q668687", "ref": "7592600001"}, "type": "Feature"}
{"dataset_attributes": {"@spider": "usps_collection_boxes", "spider:collection_time": "2023-09-22T08:24:47.468985"}, "geometry": {"coordinates": [-94.968608715, 31.223361121], "type": "Point"}, "id": "zFAf4qk4HlYG_yA1YNfdwlarxAM=", "properties": {"@spider": "usps_collection_boxes", "addr:city": "APPLE SPRINGS", "addr:country": "US", "addr:full": "15799 N STATE HIGHWAY 94", "addr:postcode": "75926", "addr:state": "TX", "amenity": "post_box", "brand": "United States Postal Service", "brand:wikidata": "Q668687", "collection_times": "Mo-Fr 14:30", "name": "USPS COLLECTION BOX - PO LOBBY", "note": "ON 12/24 AND 12/31, THIS BOX MAY BE COLLECTED AS EARLY AS 12 NOON.", "nsi_id": "unitedstatespostalservice-a77078", "operator": "United States Postal Service", "operator:short": "USPS", "operator:type": "public", "operator:wikidata": "Q668687", "ref": "7592600003"}, "type": "Feature"}
{"dataset_attributes": {"@spider": "usps_collection_boxes", "spider:collection_time": "2023-09-22T08:24:47.468985"}, "geometry": {"coordinates": [-93.646039, 30.740109], "type": "Point"}, "id": "SX-iqaQ7LjHgHFg8k2-PV4VKU24=", "properties": {"@spider": "usps_collection_boxes", "addr:city": "BON WIER", "addr:country": "US", "addr:full": "10735 US HIGHWAY 190 E", "addr:postcode": "75928", "addr:state": "TX", "amenity": "post_box", "brand": "United States Postal Service", "brand:wikidata": "Q668687", "collection_times": "Mo-Sa 15:30", "name": "USPS COLLECTION BOX - BLUE BOX", "note": "ON 12/24 AND 12/31, THIS BOX MAY BE COLLECTED AS EARLY AS 12 NOON.", "nsi_id": "unitedstatespostalservice-a77078", "operator": "United States Postal Service", "operator:short": "USPS", "operator:type": "public", "operator:wikidata": "Q668687", "ref": "7592800000"}, "type": "Feature"}
{"dataset_attributes": {"@spider": "usps_collection_boxes", "spider:collection_time": "2023-09-22T08:24:47.468985"}, "geometry": {"coordinates": [-93.646039, 30.740109], "type": "Point"}, "id": "T9RuJFGqEJactnSubA5NRbkI7i0=", "properties": {"@spider": "usps_collection_boxes", "addr:city": "BON WIER", "addr:country": "US", "addr:full": "10735 US HIGHWAY 190 E", "addr:postcode": "75928", "addr:state": "TX", "amenity": "post_box", "brand": "United States Postal Service", "brand:wikidata": "Q668687", "collection_times": "Mo-Fr 11:30; Sa 08:15", "name": "USPS COLLECTION BOX - PO LOBBY", "nsi_id": "unitedstatespostalservice-a77078", "operator": "United States Postal Service", "operator:short": "USPS", "operator:type": "public", "operator:wikidata": "Q668687", "ref": "7592800001"}, "type": "Feature"}
{"dataset_attributes": {"@spider": "usps_collection_boxes", "spider:collection_time": "2023-09-22T08:24:47.468985"}, "geometry": {"coordinates": [-93.645316205, 30.739941009], "type": "Point"}, "id": "J-LXxQVQq0dvcw1N2Wsu-hH4jpg=", "properties": {"@spider": "usps_collection_boxes", "addr:city": "BON WIER", "addr:country": "US", "addr:full": "10735 US HIGHWAY 190 E", "addr:postcode": "75928", "addr:state": "TX", "amenity": "post_box", "brand": "United States Postal Service", "brand:wikidata": "Q668687", "collection_times": "Mo-Fr 14:30", "name": "USPS COLLECTION BOX - PO LOBBY", "note": "ON 12/24 AND 12/31, THIS BOX MAY BE COLLECTED AS EARLY AS 12 NOON.", "nsi_id": "unitedstatespostalservice-a77078", "operator": "United States Postal Service", "operator:short": "USPS", "operator:type": "public", "operator:wikidata": "Q668687", "ref": "7592800004"}, "type": "Feature"}
{"dataset_attributes": {"@spider": "usps_collection_boxes", "spider:collection_time": "2023-09-22T08:24:47.468985"}, "geometry": {"coordinates": [-94.269836, 31.306177], "type": "Point"}, "id": "b6FQU-Fs8CFtcKkxXG0RetWGoro=", "properties": {"@spider": "usps_collection_boxes", "addr:city": "BROADDUS", "addr:country": "US", "addr:full": "506 STATE HIGHWAY 147", "addr:postcode": "75929", "addr:state": "TX", "amenity": "post_box", "brand": "United States Postal Service", "brand:wikidata": "Q668687", "collection_times": "Mo-Fr 15:00; Sa 08:00", "name": "USPS COLLECTION BOX - BLUE BOX", "note": "ON 12/24 AND 12/31, THIS BOX MAY BE COLLECTED AS EARLY AS 12 NOON.", "nsi_id": "unitedstatespostalservice-a77078", "operator": "United States Postal Service", "operator:short": "USPS", "operator:type": "public", "operator:wikidata": "Q668687", "ref": "7592900000"}, "type": "Feature"}
{"dataset_attributes": {"@spider": "usps_collection_boxes", "spider:collection_time": "2023-09-22T08:24:47.468985"}, "geometry": {"coordinates": [-94.269836, 31.306177], "type": "Point"}, "id": "FQwTJ1ZiJ2Jj4rz5IYjm1R2-Qy0=", "properties": {"@spider": "usps_collection_boxes", "addr:city": "BROADDUS", "addr:country": "US", "addr:full": "506 STATE HIGHWAY 147", "addr:postcode": "75929", "addr:state": "TX", "amenity": "post_box", "brand": "United States Postal Service", "brand:wikidata": "Q668687", "collection_times": "Mo-Fr 15:00; Sa 08:00", "name": "USPS COLLECTION BOX - PO LOBBY", "note": "ON 12/24 AND 12/31, THIS BOX MAY BE COLLECTED AS EARLY AS 12 NOON.", "nsi_id": "unitedstatespostalservice-a77078", "operator": "United States Postal Service", "operator:short": "USPS", "operator:type": "public", "operator:wikidata": "Q668687", "ref": "7592900002"}, "type": "Feature"}
{"dataset_attributes": {"@spider": "usps_collection_boxes", "spider:collection_time": "2023-09-22T08:24:47.468985"}, "geometry": {"coordinates": [-94.26986224, 31.306132768], "type": "Point"}, "id": "hMAclxQ6y2fpgovZm5pCao-Q3u0=", "properties": {"@spider": "usps_collection_boxes", "addr:city": "BROADDUS", "addr:country": "US", "addr:full": "506 STATE HIGHWAY 147", "addr:postcode": "75929", "addr:state": "TX", "amenity": "post_box", "brand": "United States Postal Service", "brand:wikidata": "Q668687", "collection_times": "Mo-Fr 15:00", "name": "USPS COLLECTION BOX - PO LOBBY", "note": "ON 12/24 AND 12/31, THIS BOX MAY BE COLLECTED AS EARLY AS 12 NOON.", "nsi_id": "unitedstatespostalservice-a77078", "operator": "United States Postal Service", "operator:short": "USPS", "operator:type": "public", "operator:wikidata": "Q668687", "ref": "7592900003"}, "type": "Feature"}
{"dataset_attributes": {"@spider": "usps_collection_boxes", "spider:collection_time": "2023-09-22T08:24:47.468985"}, "geometry": {"coordinates": [-94.005926, 31.323422], "type": "Point"}, "id": "YzkRUyZBwOJ8pvEBVVaNYXkH9aI=", "properties": {"@spider": "usps_collection_boxes", "addr:city": "BRONSON", "addr:country": "US", "addr:full": "10850 US HIGHWAY 96 N", "addr:postcode": "75930", "addr:state": "TX", "amenity": "post_box", "brand": "United States Postal Service", "brand:wikidata": "Q668687", "collection_times": "Mo-Fr 12:00; Sa 07:30", "name": "USPS COLLECTION BOX - BLUE BOX", "nsi_id": "unitedstatespostalservice-a77078", "operator": "United States Postal Service", "operator:short": "USPS", "operator:type": "public", "operator:wikidata": "Q668687", "ref": "7593000000"}, "type": "Feature"}
{"dataset_attributes": {"@spider": "usps_collection_boxes", "spider:collection_time": "2023-09-22T08:24:47.468985"}, "geometry": {"coordinates": [-94.013703096, 31.34294473], "type": "Point"}, "id": "pj5PMdHAmXpJilpx6xOOpe_ICWo=", "properties": {"@spider": "usps_collection_boxes", "addr:city": "BRONSON", "addr:country": "US", "addr:full": "10850 US HIGHWAY 96 N", "addr:postcode": "75930", "addr:state": "TX", "amenity": "post_box", "brand": "United States Postal Service", "brand:wikidata": "Q668687", "collection_times": "Mo-Fr 12:00", "name": "USPS COLLECTION BOX - PO LOBBY", "nsi_id": "unitedstatespostalservice-a77078", "operator": "United States Postal Service", "operator:short": "USPS", "operator:type": "public", "operator:wikidata": "Q668687", "ref": "7593000003"}, "type": "Feature"}
{"dataset_attributes": {"@spider": "usps_collection_boxes", "spider:collection_time": "2023-09-22T08:24:47.468985"}, "geometry": {"coordinates": [-93.984893, 31.144176], "type": "Point"}, "id": "Z3H_zJgGAtTd6QHWb3e_qfIDXmk=", "properties": {"@spider": "usps_collection_boxes", "addr:city": "BROOKELAND", "addr:country": "US", "addr:full": "15674 US HIGHWAY 96 N", "addr:postcode": "75931", "addr:state": "TX", "amenity": "post_box", "brand": "United States Postal Service", "brand:wikidata": "Q668687", "collection_times": "Mo-Fr 15:00; Sa 09:30", "name": "USPS COLLECTION BOX - BLUE BOX", "note": "ON 12/24 AND 12/31, THIS BOX MAY BE COLLECTED AS EARLY AS 12 NOON.", "nsi_id": "unitedstatespostalservice-a77078", "operator": "United States Postal Service", "operator:short": "USPS", "operator:type": "public", "operator:wikidata": "Q668687", "ref": "7593100000"}, "type": "Feature"}
{"dataset_attributes": {"@spider": "usps_collection_boxes", "spider:collection_time": "2023-09-22T08:24:47.468985"}, "geometry": {"coordinates": [-93.984893, 31.144176], "type": "Point"}, "id": "_OQst-mCepsjWWkKz1soM_EnXqU=", "properties": {"@spider": "usps_collection_boxes", "addr:city": "BROOKELAND", "addr:country": "US", "addr:full": "15674 US HIGHWAY 96 N", "addr:postcode": "75931", "addr:state": "TX", "amenity": "post_box", "brand": "United States Postal Service", "brand:wikidata": "Q668687", "collection_times": "Mo-Fr 15:00; Sa 09:30", "name": "USPS COLLECTION BOX - PO LOBBY", "note": "ON 12/24 AND 12/31, THIS BOX MAY BE COLLECTED AS EARLY AS 12 NOON.", "nsi_id": "unitedstatespostalservice-a77078", "operator": "United States Postal Service", "operator:short": "USPS", "operator:type": "public", "operator:wikidata": "Q668687", "ref": "7593100002"}, "type": "Feature"}
{"dataset_attributes": {"@spider": "usps_collection_boxes", "spider:collection_time": "2023-09-22T08:24:47.468985"}, "geometry": {"coordinates": [-93.98486563, 31.144211132], "type": "Point"}, "id": "BUTsX7Irv-9Jnj2NJFXK3Nj_p5E=", "properties": {"@spider": "usps_collection_boxes", "addr:city": "BROOKELAND", "addr:country": "US", "addr:full": "15674 US HIGHWAY 96 N", "addr:postcode": "75931", "addr:state": "TX", "amenity": "post_box", "brand": "United States Postal Service", "brand:wikidata": "Q668687", "collection_times": "Mo-Fr 15:30", "name": "USPS COLLECTION BOX - PO LOBBY", "note": "ON 12/24 AND 12/31, THIS BOX MAY BE COLLECTED AS EARLY AS 12 NOON.", "nsi_id": "unitedstatespostalservice-a77078", "operator": "United States Postal Service", "operator:short": "USPS", "operator:type": "public", "operator:wikidata": "Q668687", "ref": "7593100003"}, "type": "Feature"}
{"dataset_attributes": {"@spider": "usps_collection_boxes", "spider:collection_time": "2023-09-22T08:24:47.468985"}, "geometry": {"coordinates": [-93.695058, 30.993771], "type": "Point"}, "id": "JC4-bZkp35tQ7Hzl6BBPGEH9TIY=", "properties": {"@spider": "usps_collection_boxes", "addr:city": "BURKEVILLE", "addr:country": "US", "addr:full": "147 STATE HIGHWAY 63 E", "addr:postcode": "75932", "addr:state": "TX", "amenity": "post_box", "brand": "United States Postal Service", "brand:wikidata": "Q668687", "collection_times": "Mo-Sa 15:00", "name": "USPS COLLECTION BOX - BLUE BOX", "note": "ON 12/24 AND 12/31, THIS BOX MAY BE COLLECTED AS EARLY AS 12 NOON.", "nsi_id": "unitedstatespostalservice-a77078", "operator": "United States Postal Service", "operator:short": "USPS", "operator:type": "public", "operator:wikidata": "Q668687", "ref": "7593200000"}, "type": "Feature"}
{"dataset_attributes": {"@spider": "usps_collection_boxes", "spider:collection_time": "2023-09-22T08:24:47.468985"}, "geometry": {"coordinates": [-93.669443, 30.998771], "type": "Point"}, "id": "wgqKm2IBpgkyfMg1WKUR-9v3Nms=", "properties": {"@spider": "usps_collection_boxes", "addr:city": "BURKEVILLE", "addr:country": "US", "addr:full": "147 STATE HIGHWAY 63 E", "addr:postcode": "75932", "addr:state": "TX", "amenity": "post_box", "brand": "United States Postal Service", "brand:wikidata": "Q668687", "collection_times": "Mo-Fr 14:30; Sa 09:00", "name": "USPS COLLECTION BOX - PO LOBBY", "note": "ON 12/24 AND 12/31, THIS BOX MAY BE COLLECTED AS EARLY AS 12 NOON.", "nsi_id": "unitedstatespostalservice-a77078", "operator": "United States Postal Service", "operator:short": "USPS", "operator:type": "public", "operator:wikidata": "Q668687", "ref": "7593200002"}, "type": "Feature"}
{"dataset_attributes": {"@spider": "usps_collection_boxes", "spider:collection_time": "2023-09-22T08:24:47.468985"}, "geometry": {"coordinates": [-93.669184932, 30.998918534], "type": "Point"}, "id": "Fn-d0pYfkRtn3lqQS0RnDCEBOaE=", "properties": {"@spider": "usps_collection_boxes", "addr:city": "BURKEVILLE", "addr:country": "US", "addr:full": "147 STATE HIGHWAY 63 E", "addr:postcode": "75932", "addr:state": "TX", "amenity": "post_box", "brand": "United States Postal Service", "brand:wikidata": "Q668687", "collection_times": "Mo-Fr 14:30", "name": "USPS COLLECTION BOX - PO LOBBY", "note": "ON 12/24 AND 12/31, THIS BOX MAY BE COLLECTED AS EARLY AS 12 NOON.", "nsi_id": "unitedstatespostalservice-a77078", "operator": "United States Postal Service", "operator:short": "USPS", "operator:type": "public", "operator:wikidata": "Q668687", "ref": "7593200004"}, "type": "Feature"}
{"dataset_attributes": {"@spider": "usps_collection_boxes", "spider:collection_time": "2023-09-22T08:24:47.468985"}, "geometry": {"coordinates": [-93.8780026907, 30.6205674141], "type": "Point"}, "id": "JJSz_gZDESN3DwaZBQCrz5a60ec=", "properties": {"@spider": "usps_collection_boxes", "addr:city": "CALL", "addr:country": "US", "addr:full": "676 FM 1013 S", "addr:postcode": "75933", "addr:state": "TX", "amenity": "post_box", "brand": "United States Postal Service", "brand:wikidata": "Q668687", "collection_times": "Mo-Fr 16:00; Sa 09:00", "name": "USPS COLLECTION BOX - BLUE BOX", "note": "ON 12/24 AND 12/31, THIS BOX MAY BE COLLECTED AS EARLY AS 12 NOON.", "nsi_id": "unitedstatespostalservice-a77078", "operator": "United States Postal Service", "operator:short": "USPS", "operator:type": "public", "operator:wikidata": "Q668687", "ref": "7593300000"}, "type": "Feature"}
{"dataset_attributes": {"@spider": "usps_collection_boxes", "spider:collection_time": "2023-09-22T08:24:47.468985"}, "geometry": {"coordinates": [-93.878058, 30.620784], "type": "Point"}, "id": "PJRcopUl3WHcgDWQY9Zk3zKROog=", "properties": {"@spider": "usps_collection_boxes", "addr:city": "CALL", "addr:country": "US", "addr:full": "676 FM 1013 S", "addr:postcode": "75933", "addr:state": "TX", "amenity": "post_box", "brand": "United States Postal Service", "brand:wikidata": "Q668687", "collection_times": "Mo-Fr 14:00; Sa 09:00", "name": "USPS COLLECTION BOX - PO LOBBY", "note": "ON 12/24 AND 12/31, THIS BOX MAY BE COLLECTED AS EARLY AS 12 NOON.", "nsi_id": "unitedstatespostalservice-a77078", "operator": "United States Postal Service", "operator:short": "USPS", "operator:type": "public", "operator:wikidata": "Q668687", "ref": "7593300002"}, "type": "Feature"}
{"dataset_attributes": {"@spider": "usps_collection_boxes", "spider:collection_time": "2023-09-22T08:24:47.468985"}, "geometry": {"coordinates": [-93.878021829, 30.620462615], "type": "Point"}, "id": "uYsl35SQg72byB2BFf1YkmLYtgQ=", "properties": {"@spider": "usps_collection_boxes", "addr:city": "CALL", "addr:country": "US", "addr:full": "676 FM 1013 S", "addr:postcode": "75933", "addr:state": "TX", "amenity": "post_box", "brand": "United States Postal Service", "brand:wikidata": "Q668687", "collection_times": "Mo-Fr 14:00", "name": "USPS COLLECTION BOX - PO LOBBY", "note": "ON 12/24 AND 12/31, THIS BOX MAY BE COLLECTED AS EARLY AS 12 NOON.", "nsi_id": "unitedstatespostalservice-a77078", "operator": "United States Postal Service", "operator:short": "USPS", "operator:type": "public", "operator:wikidata": "Q668687", "ref": "7593300004"}, "type": "Feature"}
{"dataset_attributes": {"@spider": "usps_collection_boxes", "spider:collection_time": "2023-09-22T08:24:47.468985"}, "geometry": {"coordinates": [-94.735846, 30.916096], "type": "Point"}, "id": "WjMaXZ2a2tqaMuYuhSxyf4FH4qE=", "properties": {"@spider": "usps_collection_boxes", "addr:city": "CAMDEN", "addr:country": "US", "addr:full": "242 POST OFFICE RD", "addr:postcode": "75934", "addr:state": "TX", "amenity": "post_box", "brand": "United States Postal Service", "brand:wikidata": "Q668687", "collection_times": "Mo-Sa 16:00", "name": "USPS COLLECTION BOX - BLUE BOX", "note": "ON 12/24 AND 12/31, THIS BOX MAY BE COLLECTED AS EARLY AS 12 NOON.", "nsi_id": "unitedstatespostalservice-a77078", "operator": "United States Postal Service", "operator:short": "USPS", "operator:type": "public", "operator:wikidata": "Q668687", "ref": "7593400000"}, "type": "Feature"}
{"dataset_attributes": {"@spider": "usps_collection_boxes", "spider:collection_time": "2023-09-22T08:24:47.468985"}, "geometry": {"coordinates": [-94.73585, 30.916123], "type": "Point"}, "id": "wCjwF_ouht5F0fZ2B2goozgOKcg=", "properties": {"@spider": "usps_collection_boxes", "addr:city": "CAMDEN", "addr:country": "US", "addr:full": "242 POST OFFICE RD", "addr:postcode": "75934", "addr:state": "TX", "amenity": "post_box", "brand": "United States Postal Service", "brand:wikidata": "Q668687", "collection_times": "Mo-Fr 15:30; Sa 09:30", "name": "USPS COLLECTION BOX - PO LOBBY", "note": "ON 12/24 AND 12/31, THIS BOX MAY BE COLLECTED AS EARLY AS 12 NOON.", "nsi_id": "unitedstatespostalservice-a77078", "operator": "United States Postal Service", "operator:short": "USPS", "operator:type": "public", "operator:wikidata": "Q668687", "ref": "7593400001"}, "type": "Feature"}
{"dataset_attributes": {"@spider": "usps_collection_boxes", "spider:collection_time": "2023-09-22T08:24:47.468985"}, "geometry": {"coordinates": [-94.735553233, 30.916041602], "type": "Point"}, "id": "3PvoskUA2sHgHpMpoqOLNq4yE_A=", "properties": {"@spider": "usps_collection_boxes", "addr:city": "CAMDEN", "addr:country": "US", "addr:full": "242 POST OFFICE RD", "addr:postcode": "75934", "addr:state": "TX", "amenity": "post_box", "brand": "United States Postal Service", "brand:wikidata": "Q668687", "collection_times": "Mo-Fr 16:00; Sa 09:30", "name": "USPS COLLECTION BOX - PO LOBBY", "note": "ON 12/24 AND 12/31, THIS BOX MAY BE COLLECTED AS EARLY AS 12 NOON.", "nsi_id": "unitedstatespostalservice-a77078", "operator": "United States Postal Service", "operator:short": "USPS", "operator:type": "public", "operator:wikidata": "Q668687", "ref": "7593400003"}, "type": "Feature"}
{"dataset_attributes": {"@spider": "usps_collection_boxes", "spider:collection_time": "2023-09-22T08:24:47.468985"}, "geometry": {"coordinates": [-94.172975727, 31.7934122998], "type": "Point"}, "id": "0HEkDeH03py2kM7fOCpZRdqb6hk=", "properties": {"@spider": "usps_collection_boxes", "addr:city": "CENTER", "addr:country": "US", "addr:full": "700 SHELBYVILLE ST", "addr:postcode": "75935", "addr:state": "TX", "amenity": "post_box", "brand": "United States Postal Service", "brand:wikidata": "Q668687", "collection_times": "Mo-Fr 10:30", "name": "USPS COLLECTION BOX - BLUE BOX", "nsi_id": "unitedstatespostalservice-a77078", "operator": "United States Postal Service", "operator:short": "USPS", "operator:type": "public", "operator:wikidata": "Q668687", "ref": "7593506467"}, "type": "Feature"}
{"dataset_attributes": {"@spider": "usps_collection_boxes", "spider:collection_time": "2023-09-22T08:24:47.468985"}, "geometry": {"coordinates": [-94.1857722, 31.790589], "type": "Point"}, "id": "haDkT827kblLbYbYX2s88fTtsZo=", "properties": {"@spider": "usps_collection_boxes", "addr:city": "CENTER", "addr:country": "US", "addr:full": "105 HURST ST", "addr:postcode": "75935", "addr:state": "TX", "amenity": "post_box", "brand": "United States Postal Service", "brand:wikidata": "Q668687", "collection_times": "Mo-Sa 14:30", "name": "USPS COLLECTION BOX - BLUE BOX", "note": "ON 12/24 AND 12/31, THIS BOX MAY BE COLLECTED AS EARLY AS 12 NOON.", "nsi_id": "unitedstatespostalservice-a77078", "operator": "United States Postal Service", "operator:short": "USPS", "operator:type": "public", "operator:wikidata": "Q668687", "ref": "7593506468"}, "type": "Feature"}
{"dataset_attributes": {"@spider": "usps_collection_boxes", "spider:collection_time": "2023-09-22T08:24:47.468985"}, "geometry": {"coordinates": [-94.180556, 31.796334], "type": "Point"}, "id": "zNwGIIWBy6wRvBjSimpgtPBDDUU=", "properties": {"@spider": "usps_collection_boxes", "addr:city": "CENTER", "addr:country": "US", "addr:full": "101 WEAVER ST", "addr:postcode": "75935", "addr:state": "TX", "amenity": "post_box", "brand": "United States Postal Service", "brand:wikidata": "Q668687", "collection_times": "Mo-Fr 16:00; Sa 10:00", "name": "USPS COLLECTION BOX - BLUE BOX", "note": "ON 12/24 AND 12/31, THIS BOX MAY BE COLLECTED AS EARLY AS 12 NOON.", "nsi_id": "unitedstatespostalservice-a77078", "operator": "United States Postal Service", "operator:short": "USPS", "operator:type": "public", "operator:wikidata": "Q668687", "ref": "7593506469"}, "type": "Feature"}
{"dataset_attributes": {"@spider": "usps_collection_boxes", "spider:collection_time": "2023-09-22T08:24:47.468985"}, "geometry": {"coordinates": [-94.1925199, 31.810273], "type": "Point"}, "id": "8EkwPsarfpL1q4gYR9l2KSJtwUQ=", "properties": {"@spider": "usps_collection_boxes", "addr:city": "CENTER", "addr:country": "US", "addr:full": "1233 TENAHA ST", "addr:postcode": "75935", "addr:state": "TX", "amenity": "post_box", "brand": "United States Postal Service", "brand:wikidata": "Q668687", "collection_times": "Mo-Fr 14:00", "name": "USPS COLLECTION BOX - BLUE BOX", "note": "ON 12/24 AND 12/31, THIS BOX MAY BE COLLECTED AS EARLY AS 12 NOON.", "nsi_id": "unitedstatespostalservice-a77078", "operator": "United States Postal Service", "operator:short": "USPS", "operator:type": "public", "operator:wikidata": "Q668687", "ref": "7593506475"}, "type": "Feature"}
{"dataset_attributes": {"@spider": "usps_collection_boxes", "spider:collection_time": "2023-09-22T08:24:47.468985"}, "geometry": {"coordinates": [-94.180556, 31.796334], "type": "Point"}, "id": "goJGih1QkRhBeiIOEPziCmKCyyU=", "properties": {"@spider": "usps_collection_boxes", "addr:city": "CENTER", "addr:country": "US", "addr:full": "101 WEAVER ST", "addr:postcode": "75935", "addr:state": "TX", "amenity": "post_box", "brand": "United States Postal Service", "brand:wikidata": "Q668687", "collection_times": "Mo-Fr 16:00; Sa 10:00", "name": "USPS COLLECTION BOX - BLUE BOX", "note": "ON 12/24 AND 12/31, THIS BOX MAY BE COLLECTED AS EARLY AS 12 NOON.", "nsi_id": "unitedstatespostalservice-a77078", "operator": "United States Postal Service", "operator:short": "USPS", "operator:type": "public", "operator:wikidata": "Q668687", "ref": "7593506562"}, "type": "Feature"}
{"dataset_attributes": {"@spider": "usps_collection_boxes", "spider:collection_time": "2023-09-22T08:24:47.468985"}, "geometry": {"coordinates": [-94.180556, 31.796334], "type": "Point"}, "id": "PS09TBDHjMSGwEnUkS7_IWffZfA=", "properties": {"@spider": "usps_collection_boxes", "addr:city": "CENTER", "addr:country": "US", "addr:full": "101 WEAVER ST", "addr:postcode": "75935", "addr:state": "TX", "amenity": "post_box", "brand": "United States Postal Service", "brand:wikidata": "Q668687", "collection_times": "Mo-Fr 16:00; Sa 10:00", "name": "USPS COLLECTION BOX - PO LOBBY", "note": "ON 12/24 AND 12/31, THIS BOX MAY BE COLLECTED AS EARLY AS 12 NOON.", "nsi_id": "unitedstatespostalservice-a77078", "operator": "United States Postal Service", "operator:short": "USPS", "operator:type": "public", "operator:wikidata": "Q668687", "ref": "7593506565"}, "type": "Feature"}
{"dataset_attributes": {"@spider": "usps_collection_boxes", "spider:collection_time": "2023-09-22T08:24:47.468985"}, "geometry": {"coordinates": [-94.180556, 31.796334], "type": "Point"}, "id": "qU6K2-y4QnvHct4caBy_0RbBgzo=", "properties": {"@spider": "usps_collection_boxes", "addr:city": "CENTER", "addr:country": "US", "addr:full": "101 WEAVER ST", "addr:postcode": "75935", "addr:state": "TX", "amenity": "post_box", "brand": "United States Postal Service", "brand:wikidata": "Q668687", "collection_times": "Mo-Fr 16:00; Sa 10:00", "name": "USPS COLLECTION BOX - PO LOBBY", "note": "ON 12/24 AND 12/31, THIS BOX MAY BE COLLECTED AS EARLY AS 12 NOON.", "nsi_id": "unitedstatespostalservice-a77078", "operator": "United States Postal Service", "operator:short": "USPS", "operator:type": "public", "operator:wikidata": "Q668687", "ref": "7593506566"}, "type": "Feature"}
{"dataset_attributes": {"@spider": "usps_collection_boxes", "spider:collection_time": "2023-09-22T08:24:47.468985"}, "geometry": {"coordinates": [-94.1806010826, 31.7963169587], "type": "Point"}, "id": "RX7QOP-4aOJg3rjFG224ezoSeuY=", "properties": {"@spider": "usps_collection_boxes", "addr:city": "CENTER", "addr:country": "US", "addr:full": "101 WEAVER ST", "addr:postcode": "75935", "addr:state": "TX", "amenity": "post_box", "brand": "United States Postal Service", "brand:wikidata": "Q668687", "collection_times": "Mo-Fr 16:00", "name": "USPS COLLECTION BOX - PO LOBBY", "note": "ON 12/24 AND 12/31, THIS BOX MAY BE COLLECTED AS EARLY AS 12 NOON.", "nsi_id": "unitedstatespostalservice-a77078", "operator": "United States Postal Service", "operator:short": "USPS", "operator:type": "public", "operator:wikidata": "Q668687", "ref": "7593506568"}, "type": "Feature"}
{"dataset_attributes": {"@spider": "usps_collection_boxes", "spider:collection_time": "2023-09-22T08:24:47.468985"}, "geometry": {"coordinates": [-94.599453, 30.926798], "type": "Point"}, "id": "9ZgVyxq7mK2q_BrlM8W38WIfIdI=", "properties": {"@spider": "usps_collection_boxes", "addr:city": "CHESTER", "addr:country": "US", "addr:full": "13884 MAIN ST", "addr:postcode": "75936", "addr:state": "TX", "amenity": "post_box", "brand": "United States Postal Service", "brand:wikidata": "Q668687", "collection_times": "Mo-Sa 15:30", "name": "USPS COLLECTION BOX - BLUE BOX", "note": "ON 12/24 AND 12/31, THIS BOX MAY BE COLLECTED AS EARLY AS 12 NOON.", "nsi_id": "unitedstatespostalservice-a77078", "operator": "United States Postal Service", "operator:short": "USPS", "operator:type": "public", "operator:wikidata": "Q668687", "ref": "7593600000"}, "type": "Feature"}
{"dataset_attributes": {"@spider": "usps_collection_boxes", "spider:collection_time": "2023-09-22T08:24:47.468985"}, "geometry": {"coordinates": [-94.599453, 30.926798], "type": "Point"}, "id": "6ip-jBGZE4E6To8X2jqvExoiZcM=", "properties": {"@spider": "usps_collection_boxes", "addr:city": "CHESTER", "addr:country": "US", "addr:full": "13884 MAIN ST", "addr:postcode": "75936", "addr:state": "TX", "amenity": "post_box", "brand": "United States Postal Service", "brand:wikidata": "Q668687", "collection_times": "Mo-Fr 14:00", "name": "USPS COLLECTION BOX - PO LOBBY", "note": "ON 12/24 AND 12/31, THIS BOX MAY BE COLLECTED AS EARLY AS 12 NOON.", "nsi_id": "unitedstatespostalservice-a77078", "operator": "United States Postal Service", "operator:short": "USPS", "operator:type": "public", "operator:wikidata": "Q668687", "ref": "7593600001"}, "type": "Feature"}
{"dataset_attributes": {"@spider": "usps_collection_boxes", "spider:collection_time": "2023-09-22T08:24:47.468985"}, "geometry": {"coordinates": [-94.600017948, 30.926885176], "type": "Point"}, "id": "zYRi7KiwKTDQNXszLvJx1SkR6yc=", "properties": {"@spider": "usps_collection_boxes", "addr:city": "CHESTER", "addr:country": "US", "addr:full": "13884 MAIN ST", "addr:postcode": "75936", "addr:state": "TX", "amenity": "post_box", "brand": "United States Postal Service", "brand:wikidata": "Q668687", "collection_times": "Mo-Fr 14:30", "name": "USPS COLLECTION BOX - PO LOBBY", "note": "ON 12/24 AND 12/31, THIS BOX MAY BE COLLECTED AS EARLY AS 12 NOON.", "nsi_id": "unitedstatespostalservice-a77078", "operator": "United States Postal Service", "operator:short": "USPS", "operator:type": "public", "operator:wikidata": "Q668687", "ref": "7593600003"}, "type": "Feature"}
{"dataset_attributes": {"@spider": "usps_collection_boxes", "spider:collection_time": "2023-09-22T08:24:47.468985"}, "geometry": {"coordinates": [-94.35217, 31.499268], "type": "Point"}, "id": "W8IqPGa0QbqywHED4rM_1ddlyaI=", "properties": {"@spider": "usps_collection_boxes", "addr:city": "CHIRENO", "addr:country": "US", "addr:full": "691 MAIN ST", "addr:postcode": "75937", "addr:state": "TX", "amenity": "post_box", "brand": "United States Postal Service", "brand:wikidata": "Q668687", "collection_times": "Mo-Sa 15:30", "name": "USPS COLLECTION BOX - BLUE BOX", "note": "ON 12/24 AND 12/31, THIS BOX MAY BE COLLECTED AS EARLY AS 12 NOON.", "nsi_id": "unitedstatespostalservice-a77078", "operator": "United States Postal Service", "operator:short": "USPS", "operator:type": "public", "operator:wikidata": "Q668687", "ref": "7593700000"}, "type": "Feature"}
{"dataset_attributes": {"@spider": "usps_collection_boxes", "spider:collection_time": "2023-09-22T08:24:47.468985"}, "geometry": {"coordinates": [-94.35217, 31.499268], "type": "Point"}, "id": "djWtxwPKeZF6JLnAlY-KLYDj9Vw=", "properties": {"@spider": "usps_collection_boxes", "addr:city": "CHIRENO", "addr:country": "US", "addr:full": "691 MAIN ST", "addr:postcode": "75937", "addr:state": "TX", "amenity": "post_box", "brand": "United States Postal Service", "brand:wikidata": "Q668687", "collection_times": "Mo-Fr 14:30; Sa 08:30", "name": "USPS COLLECTION BOX - PO LOBBY", "note": "ON 12/24 AND 12/31, THIS BOX MAY BE COLLECTED AS EARLY AS 12 NOON.", "nsi_id": "unitedstatespostalservice-a77078", "operator": "United States Postal Service", "operator:short": "USPS", "operator:type": "public", "operator:wikidata": "Q668687", "ref": "7593700001"}, "type": "Feature"}
{"dataset_attributes": {"@spider": "usps_collection_boxes", "spider:collection_time": "2023-09-22T08:24:47.468985"}, "geometry": {"coordinates": [-94.35217, 31.499268], "type": "Point"}, "id": "geyWjXg7cn89KdCNIrQoIuFg4us=", "properties": {"@spider": "usps_collection_boxes", "addr:city": "CHIRENO", "addr:country": "US", "addr:full": "691 MAIN ST", "addr:postcode": "75937", "addr:state": "TX", "amenity": "post_box", "brand": "United States Postal Service", "brand:wikidata": "Q668687", "collection_times": "Mo-Fr 14:30; Sa 08:30", "name": "USPS COLLECTION BOX - PO LOBBY", "note": "ON 12/24 AND 12/31, THIS BOX MAY BE COLLECTED AS EARLY AS 12 NOON.", "nsi_id": "unitedstatespostalservice-a77078", "operator": "United States Postal Service", "operator:short": "USPS", "operator:type": "public", "operator:wikidata": "Q668687", "ref": "7593700002"}, "type": "Feature"}
{"dataset_attributes": {"@spider": "usps_collection_boxes", "spider:collection_time": "2023-09-22T08:24:47.468985"}, "geometry": {"coordinates": [-94.35217, 31.499268], "type": "Point"}, "id": "o2byMEORi8VjLhZMblJ_Q-w3Awc=", "properties": {"@spider": "usps_collection_boxes", "addr:city": "CHIRENO", "addr:country": "US", "addr:full": "691 MAIN ST", "addr:postcode": "75937", "addr:state": "TX", "amenity": "post_box", "brand": "United States Postal Service", "brand:wikidata": "Q668687", "collection_times": "Mo-Sa 15:30", "name": "USPS COLLECTION BOX - BLUE BOX", "note": "ON 12/24 AND 12/31, THIS BOX MAY BE COLLECTED AS EARLY AS 12 NOON.", "nsi_id": "unitedstatespostalservice-a77078", "operator": "United States Postal Service", "operator:short": "USPS", "operator:type": "public", "operator:wikidata": "Q668687", "ref": "7593700003"}, "type": "Feature"}
{"dataset_attributes": {"@spider": "usps_collection_boxes", "spider:collection_time": "2023-09-22T08:24:47.468985"}, "geometry": {"coordinates": [-94.352241888, 31.499563201], "type": "Point"}, "id": "l7sVf4iUZSZCoJTyb7vK8DXP4I8=", "properties": {"@spider": "usps_collection_boxes", "addr:city": "CHIRENO", "addr:country": "US", "addr:full": "691 MAIN ST", "addr:postcode": "75937", "addr:state": "TX", "amenity": "post_box", "brand": "United States Postal Service", "brand:wikidata": "Q668687", "collection_times": "Mo-Fr 15:00", "name": "USPS COLLECTION BOX - PO LOBBY", "note": "ON 12/24 AND 12/31, THIS BOX MAY BE COLLECTED AS EARLY AS 12 NOON.", "nsi_id": "unitedstatespostalservice-a77078", "operator": "United States Postal Service", "operator:short": "USPS", "operator:type": "public", "operator:wikidata": "Q668687", "ref": "7593700005"}, "type": "Feature"}
{"dataset_attributes": {"@spider": "usps_collection_boxes", "spider:collection_time": "2023-09-22T08:24:47.468985"}, "geometry": {"coordinates": [-94.422423, 30.910523], "type": "Point"}, "id": "bt4zJGom2hsi9HmaigG7dKmunEQ=", "properties": {"@spider": "usps_collection_boxes", "addr:city": "COLMESNEIL", "addr:country": "US", "addr:full": "605 N WHEELER RD", "addr:postcode": "75938", "addr:state": "TX", "amenity": "post_box", "brand": "United States Postal Service", "brand:wikidata": "Q668687", "collection_times": "Mo-Fr 16:00; Sa 08:00", "name": "USPS COLLECTION BOX - PO LOBBY", "note": "ON 12/24 AND 12/31, THIS BOX MAY BE COLLECTED AS EARLY AS 12 NOON.", "nsi_id": "unitedstatespostalservice-a77078", "operator": "United States Postal Service", "operator:short": "USPS", "operator:type": "public", "operator:wikidata": "Q668687", "ref": "7593800002"}, "type": "Feature"}
{"dataset_attributes": {"@spider": "usps_collection_boxes", "spider:collection_time": "2023-09-22T08:24:47.468985"}, "geometry": {"coordinates": [-94.422423, 30.910523], "type": "Point"}, "id": "hzKI8k-zyp5Z9llz1Js5QAKxrFg=", "properties": {"@spider": "usps_collection_boxes", "addr:city": "COLMESNEIL", "addr:country": "US", "addr:full": "605 N WHEELER RD", "addr:postcode": "75938", "addr:state": "TX", "amenity": "post_box", "brand": "United States Postal Service", "brand:wikidata": "Q668687", "collection_times": "Mo-Fr 16:00; Sa 08:00", "name": "USPS COLLECTION BOX - BLUE BOX", "note": "ON 12/24 AND 12/31, THIS BOX MAY BE COLLECTED AS EARLY AS 12 NOON.", "nsi_id": "unitedstatespostalservice-a77078", "operator": "United States Postal Service", "operator:short": "USPS", "operator:type": "public", "operator:wikidata": "Q668687", "ref": "7593800003"}, "type": "Feature"}
{"dataset_attributes": {"@spider": "usps_collection_boxes", "spider:collection_time": "2023-09-22T08:24:47.468985"}, "geometry": {"coordinates": [-94.422221551, 30.911469935], "type": "Point"}, "id": "25esGrS1toesCufHYT_4Qromzls=", "properties": {"@spider": "usps_collection_boxes", "addr:city": "COLMESNEIL", "addr:country": "US", "addr:full": "605 N WHEELER RD", "addr:postcode": "75938", "addr:state": "TX", "amenity": "post_box", "brand": "United States Postal Service", "brand:wikidata": "Q668687", "collection_times": "Mo-Fr 16:00", "name": "USPS COLLECTION BOX - PO LOBBY", "note": "ON 12/24 AND 12/31, THIS BOX MAY BE COLLECTED AS EARLY AS 12 NOON.", "nsi_id": "unitedstatespostalservice-a77078", "operator": "United States Postal Service", "operator:short": "USPS", "operator:type": "public", "operator:wikidata": "Q668687", "ref": "7593800004"}, "type": "Feature"}
{"dataset_attributes": {"@spider": "usps_collection_boxes", "spider:collection_time": "2023-09-22T08:24:47.468985"}, "geometry": {"coordinates": [-94.8249899665, 31.0019079833], "type": "Point"}, "id": "TEC5eY4dYOhmqPoF_f1DYuj1_5I=", "properties": {"@spider": "usps_collection_boxes", "addr:city": "CORRIGAN", "addr:country": "US", "addr:full": "502 N HOME ST", "addr:postcode": "75939", "addr:state": "TX", "amenity": "post_box", "brand": "United States Postal Service", "brand:wikidata": "Q668687", "collection_times": "Mo-Fr 16:00; Sa 11:00", "name": "USPS COLLECTION BOX - BLUE BOX", "note": "ON 12/24 AND 12/31, THIS BOX MAY BE COLLECTED AS EARLY AS 12 NOON.", "nsi_id": "unitedstatespostalservice-a77078", "operator": "United States Postal Service", "operator:short": "USPS", "operator:type": "public", "operator:wikidata": "Q668687", "ref": "7593900001"}, "type": "Feature"}
{"dataset_attributes": {"@spider": "usps_collection_boxes", "spider:collection_time": "2023-09-22T08:24:47.468985"}, "geometry": {"coordinates": [-94.825534, 31.001607], "type": "Point"}, "id": "qBr3kenUZmdVCmMLVJNeZsf8oRY=", "properties": {"@spider": "usps_collection_boxes", "addr:city": "CORRIGAN", "addr:country": "US", "addr:full": "502 N HOME ST", "addr:postcode": "75939", "addr:state": "TX", "amenity": "post_box", "brand": "United States Postal Service", "brand:wikidata": "Q668687", "collection_times": "Mo-Fr 16:00; Sa 11:00", "name": "USPS COLLECTION BOX - PO LOBBY", "note": "ON 12/24 AND 12/31, THIS BOX MAY BE COLLECTED AS EARLY AS 12 NOON.", "nsi_id": "unitedstatespostalservice-a77078", "operator": "United States Postal Service", "operator:short": "USPS", "operator:type": "public", "operator:wikidata": "Q668687", "ref": "7593900002"}, "type": "Feature"}
{"dataset_attributes": {"@spider": "usps_collection_boxes", "spider:collection_time": "2023-09-22T08:24:47.468985"}, "geometry": {"coordinates": [-94.825534, 31.001607], "type": "Point"}, "id": "8Gzl_8iNCZ2DaAhs7cxizpDxJ1E=", "properties": {"@spider": "usps_collection_boxes", "addr:city": "CORRIGAN", "addr:country": "US", "addr:full": "502 N HOME ST", "addr:postcode": "75939", "addr:state": "TX", "amenity": "post_box", "brand": "United States Postal Service", "brand:wikidata": "Q668687", "collection_times": "Mo-Fr 16:00; Sa 11:00", "name": "USPS COLLECTION BOX - PO LOBBY", "note": "ON 12/24 AND 12/31, THIS BOX MAY BE COLLECTED AS EARLY AS 12 NOON.", "nsi_id": "unitedstatespostalservice-a77078", "operator": "United States Postal Service", "operator:short": "USPS", "operator:type": "public", "operator:wikidata": "Q668687", "ref": "7593900003"}, "type": "Feature"}
{"dataset_attributes": {"@spider": "usps_collection_boxes", "spider:collection_time": "2023-09-22T08:24:47.468985"}, "geometry": {"coordinates": [-94.825429755, 31.001937769], "type": "Point"}, "id": "uvXZo8AOJ-uRPvFCFtgH3imerM8=", "properties": {"@spider": "usps_collection_boxes", "addr:city": "CORRIGAN", "addr:country": "US", "addr:full": "502 N HOME ST", "addr:postcode": "75939", "addr:state": "TX", "amenity": "post_box", "brand": "United States Postal Service", "brand:wikidata": "Q668687", "collection_times": "Mo-Fr 16:00", "name": "USPS COLLECTION BOX - PO LOBBY", "note": "ON 12/24 AND 12/31, THIS BOX MAY BE COLLECTED AS EARLY AS 12 NOON.", "nsi_id": "unitedstatespostalservice-a77078", "operator": "United States Postal Service", "operator:short": "USPS", "operator:type": "public", "operator:wikidata": "Q668687", "ref": "7593900004"}, "type": "Feature"}
{"dataset_attributes": {"@spider": "usps_collection_boxes", "spider:collection_time": "2023-09-22T08:24:47.468985"}, "geometry": {"coordinates": [-94.783844, 31.186874], "type": "Point"}, "id": "qyFD_NCZ678JaANeVsIhYEbFBBM=", "properties": {"@spider": "usps_collection_boxes", "addr:city": "DIBOLL", "addr:country": "US", "addr:full": "302 N HENDRIX AVE", "addr:postcode": "75941", "addr:state": "TX", "amenity": "post_box", "brand": "United States Postal Service", "brand:wikidata": "Q668687", "collection_times": "Mo-Fr 15:00; Sa 08:00", "name": "USPS COLLECTION BOX - PO LOBBY", "note": "ON 12/24 AND 12/31, THIS BOX MAY BE COLLECTED AS EARLY AS 12 NOON.", "nsi_id": "unitedstatespostalservice-a77078", "operator": "United States Postal Service", "operator:short": "USPS", "operator:type": "public", "operator:wikidata": "Q668687", "ref": "7594106462"}, "type": "Feature"}
{"dataset_attributes": {"@spider": "usps_collection_boxes", "spider:collection_time": "2023-09-22T08:24:47.468985"}, "geometry": {"coordinates": [-94.7834080154, 31.1877900135], "type": "Point"}, "id": "uvlIKliMd5eN7Ya5NtBq97DjNHw=", "properties": {"@spider": "usps_collection_boxes", "addr:city": "DIBOLL", "addr:country": "US", "addr:full": "302 N HENDRIX AVE", "addr:postcode": "75941", "addr:state": "TX", "amenity": "post_box", "brand": "United States Postal Service", "brand:wikidata": "Q668687", "collection_times": "Mo-Fr 15:00; Sa 08:00", "name": "USPS COLLECTION BOX - BLUE BOX", "note": "ON 12/24 AND 12/31, THIS BOX MAY BE COLLECTED AS EARLY AS 12 NOON.", "nsi_id": "unitedstatespostalservice-a77078", "operator": "United States Postal Service", "operator:short": "USPS", "operator:type": "public", "operator:wikidata": "Q668687", "ref": "7594106467"}, "type": "Feature"}
{"dataset_attributes": {"@spider": "usps_collection_boxes", "spider:collection_time": "2023-09-22T08:24:47.468985"}, "geometry": {"coordinates": [-94.783800869, 31.1878352], "type": "Point"}, "id": "uuUH9sb6LzTMc37CAHos13XyEJA=", "properties": {"@spider": "usps_collection_boxes", "addr:city": "DIBOLL", "addr:country": "US", "addr:full": "302 N HENDRIX AVE", "addr:postcode": "75941", "addr:state": "TX", "amenity": "post_box", "brand": "United States Postal Service", "brand:wikidata": "Q668687", "collection_times": "Mo-Fr 15:30", "name": "USPS COLLECTION BOX - PO LOBBY", "note": "ON 12/24 AND 12/31, THIS BOX MAY BE COLLECTED AS EARLY AS 12 NOON.", "nsi_id": "unitedstatespostalservice-a77078", "operator": "United States Postal Service", "operator:short": "USPS", "operator:type": "public", "operator:wikidata": "Q668687", "ref": "7594106470"}, "type": "Feature"}
{"dataset_attributes": {"@spider": "usps_collection_boxes", "spider:collection_time": "2023-09-22T08:24:47.468985"}, "geometry": {"coordinates": [-94.428639, 30.814133], "type": "Point"}, "id": "RzmPMc65ddbFrTaHeoLGL37hoMk=", "properties": {"@spider": "usps_collection_boxes", "addr:city": "DOUCETTE", "addr:country": "US", "addr:full": "100 US HIGHWAY 69", "addr:postcode": "75942", "addr:state": "TX", "amenity": "post_box", "brand": "United States Postal Service", "brand:wikidata": "Q668687", "collection_times": "Mo-Fr 13:00; Sa 08:30", "name": "USPS COLLECTION BOX - BLUE BOX", "note": "ON 12/24 AND 12/31, THIS BOX MAY BE COLLECTED AS EARLY AS 12 NOON.", "nsi_id": "unitedstatespostalservice-a77078", "operator": "United States Postal Service", "operator:short": "USPS", "operator:type": "public", "operator:wikidata": "Q668687", "ref": "7594200000"}, "type": "Feature"}
{"dataset_attributes": {"@spider": "usps_collection_boxes", "spider:collection_time": "2023-09-22T08:24:47.468985"}, "geometry": {"coordinates": [-94.428639, 30.814133], "type": "Point"}, "id": "s1e9JO0_duBUKLyakowldtMSHmw=", "properties": {"@spider": "usps_collection_boxes", "addr:city": "DOUCETTE", "addr:country": "US", "addr:full": "100 US HIGHWAY 69", "addr:postcode": "75942", "addr:state": "TX", "amenity": "post_box", "brand": "United States Postal Service", "brand:wikidata": "Q668687", "collection_times": "Mo-Fr 13:00; Sa 08:30", "name": "USPS COLLECTION BOX - PO LOBBY", "note": "ON 12/24 AND 12/31, THIS BOX MAY BE COLLECTED AS EARLY AS 12 NOON.", "nsi_id": "unitedstatespostalservice-a77078", "operator": "United States Postal Service", "operator:short": "USPS", "operator:type": "public", "operator:wikidata": "Q668687", "ref": "7594200001"}, "type": "Feature"}
{"dataset_attributes": {"@spider": "usps_collection_boxes", "spider:collection_time": "2023-09-22T08:24:47.468985"}, "geometry": {"coordinates": [-94.428639, 30.814133], "type": "Point"}, "id": "2oPRboHpVoAc9fbbt3xPBjlYJwY=", "properties": {"@spider": "usps_collection_boxes", "addr:city": "DOUCETTE", "addr:country": "US", "addr:full": "100 US HIGHWAY 69", "addr:postcode": "75942", "addr:state": "TX", "amenity": "post_box", "brand": "United States Postal Service", "brand:wikidata": "Q668687", "collection_times": "Mo-Fr 13:00; Sa 08:30", "name": "USPS COLLECTION BOX - PO LOBBY", "note": "ON 12/24 AND 12/31, THIS BOX MAY BE COLLECTED AS EARLY AS 12 NOON.", "nsi_id": "unitedstatespostalservice-a77078", "operator": "United States Postal Service", "operator:short": "USPS", "operator:type": "public", "operator:wikidata": "Q668687", "ref": "7594200002"}, "type": "Feature"}
{"dataset_attributes": {"@spider": "usps_collection_boxes", "spider:collection_time": "2023-09-22T08:24:47.468985"}, "geometry": {"coordinates": [-94.428899925, 30.820704414], "type": "Point"}, "id": "13OmzutRd0DbIRQ825FcmQdEkFI=", "properties": {"@spider": "usps_collection_boxes", "addr:city": "DOUCETTE", "addr:country": "US", "addr:full": "100 US HIGHWAY 69", "addr:postcode": "75942", "addr:state": "TX", "amenity": "post_box", "brand": "United States Postal Service", "brand:wikidata": "Q668687", "collection_times": "Mo-Fr 13:00; Sa 08:30", "name": "USPS COLLECTION BOX - PO LOBBY", "note": "ON 12/24 AND 12/31, THIS BOX MAY BE COLLECTED AS EARLY AS 12 NOON.", "nsi_id": "unitedstatespostalservice-a77078", "operator": "United States Postal Service", "operator:short": "USPS", "operator:type": "public", "operator:wikidata": "Q668687", "ref": "7594200004"}, "type": "Feature"}
{"dataset_attributes": {"@spider": "usps_collection_boxes", "spider:collection_time": "2023-09-22T08:24:47.468985"}, "geometry": {"coordinates": [-94.885812, 31.6676], "type": "Point"}, "id": "cs-_Fdrk32SUta-ISr0XbcdEJw4=", "properties": {"@spider": "usps_collection_boxes", "addr:city": "DOUGLASS", "addr:country": "US", "addr:full": "15614 W STATE HIGHWAY 21", "addr:postcode": "75943", "addr:state": "TX", "amenity": "post_box", "brand": "United States Postal Service", "brand:wikidata": "Q668687", "collection_times": "Mo-Sa 15:45", "name": "USPS COLLECTION BOX - BLUE BOX", "note": "ON 12/24 AND 12/31, THIS BOX MAY BE COLLECTED AS EARLY AS 12 NOON.", "nsi_id": "unitedstatespostalservice-a77078", "operator": "United States Postal Service", "operator:short": "USPS", "operator:type": "public", "operator:wikidata": "Q668687", "ref": "7594300000"}, "type": "Feature"}
{"dataset_attributes": {"@spider": "usps_collection_boxes", "spider:collection_time": "2023-09-22T08:24:47.468985"}, "geometry": {"coordinates": [-94.885812, 31.6676], "type": "Point"}, "id": "rJV0OEd8PXeeRl_B5x9B5TivdFA=", "properties": {"@spider": "usps_collection_boxes", "addr:city": "DOUGLASS", "addr:country": "US", "addr:full": "15614 W STATE HIGHWAY 21", "addr:postcode": "75943", "addr:state": "TX", "amenity": "post_box", "brand": "United States Postal Service", "brand:wikidata": "Q668687", "collection_times": "Mo-Fr 14:30; Sa 09:00", "name": "USPS COLLECTION BOX - PO LOBBY", "note": "ON 12/24 AND 12/31, THIS BOX MAY BE COLLECTED AS EARLY AS 12 NOON.", "nsi_id": "unitedstatespostalservice-a77078", "operator": "United States Postal Service", "operator:short": "USPS", "operator:type": "public", "operator:wikidata": "Q668687", "ref": "7594300001"}, "type": "Feature"}
{"dataset_attributes": {"@spider": "usps_collection_boxes", "spider:collection_time": "2023-09-22T08:24:47.468985"}, "geometry": {"coordinates": [-94.886165536, 31.667678757], "type": "Point"}, "id": "S4mdA8cx4RJpaD_B8v_ey3cnLDk=", "properties": {"@spider": "usps_collection_boxes", "addr:city": "DOUGLASS", "addr:country": "US", "addr:full": "15614 W STATE HIGHWAY 21", "addr:postcode": "75943", "addr:state": "TX", "amenity": "post_box", "brand": "United States Postal Service", "brand:wikidata": "Q668687", "collection_times": "Mo-Fr 14:30", "name": "USPS COLLECTION BOX - PO LOBBY", "note": "ON 12/24 AND 12/31, THIS BOX MAY BE COLLECTED AS EARLY AS 12 NOON.", "nsi_id": "unitedstatespostalservice-a77078", "operator": "United States Postal Service", "operator:short": "USPS", "operator:type": "public", "operator:wikidata": "Q668687", "ref": "7594300003"}, "type": "Feature"}
{"dataset_attributes": {"@spider": "usps_collection_boxes", "spider:collection_time": "2023-09-22T08:24:47.468985"}, "geometry": {"coordinates": [-94.43038, 31.375184], "type": "Point"}, "id": "OpKhSkSgv3BZoBX2t9rC2N3C9Ks=", "properties": {"@spider": "usps_collection_boxes", "addr:city": "ETOILE", "addr:country": "US", "addr:full": "2506 STATE HIGHWAY 103 STE A", "addr:postcode": "75944", "addr:state": "TX", "amenity": "post_box", "brand": "United States Postal Service", "brand:wikidata": "Q668687", "collection_times": "Mo-Sa 14:30", "name": "USPS COLLECTION BOX - BLUE BOX", "note": "ON 12/24 AND 12/31, THIS BOX MAY BE COLLECTED AS EARLY AS 12 NOON.", "nsi_id": "unitedstatespostalservice-a77078", "operator": "United States Postal Service", "operator:short": "USPS", "operator:type": "public", "operator:wikidata": "Q668687", "ref": "7594400000"}, "type": "Feature"}
{"dataset_attributes": {"@spider": "usps_collection_boxes", "spider:collection_time": "2023-09-22T08:24:47.468985"}, "geometry": {"coordinates": [-94.43038, 31.375184], "type": "Point"}, "id": "1gZSE3ltPULeV7TVie5-ivsJbfs=", "properties": {"@spider": "usps_collection_boxes", "addr:city": "ETOILE", "addr:country": "US", "addr:full": "2506 STATE HIGHWAY 103 STE A", "addr:postcode": "75944", "addr:state": "TX", "amenity": "post_box", "brand": "United States Postal Service", "brand:wikidata": "Q668687", "collection_times": "Mo-Fr 14:00; Sa 07:30", "name": "USPS COLLECTION BOX - PO LOBBY", "note": "ON 12/24 AND 12/31, THIS BOX MAY BE COLLECTED AS EARLY AS 12 NOON.", "nsi_id": "unitedstatespostalservice-a77078", "operator": "United States Postal Service", "operator:short": "USPS", "operator:type": "public", "operator:wikidata": "Q668687", "ref": "7594400001"}, "type": "Feature"}
{"dataset_attributes": {"@spider": "usps_collection_boxes", "spider:collection_time": "2023-09-22T08:24:47.468985"}, "geometry": {"coordinates": [-94.430519167, 31.375164597], "type": "Point"}, "id": "Io-hM_lLA1sjjfbsC_lVFUNA0Nw=", "properties": {"@spider": "usps_collection_boxes", "addr:city": "ETOILE", "addr:country": "US", "addr:full": "2506 STATE HIGHWAY 103 STE A", "addr:postcode": "75944", "addr:state": "TX", "amenity": "post_box", "brand": "United States Postal Service", "brand:wikidata": "Q668687", "collection_times": "Mo-Fr 14:00", "name": "USPS COLLECTION BOX - PO LOBBY", "note": "ON 12/24 AND 12/31, THIS BOX MAY BE COLLECTED AS EARLY AS 12 NOON.", "nsi_id": "unitedstatespostalservice-a77078", "operator": "United States Postal Service", "operator:short": "USPS", "operator:type": "public", "operator:wikidata": "Q668687", "ref": "7594400003"}, "type": "Feature"}
{"dataset_attributes": {"@spider": "usps_collection_boxes", "spider:collection_time": "2023-09-22T08:24:47.468985"}, "geometry": {"coordinates": [-94.491142, 31.825686], "type": "Point"}, "id": "TEZuEAlEmumpPiJoTcBrqqXrdzY=", "properties": {"@spider": "usps_collection_boxes", "addr:city": "GARRISON", "addr:country": "US", "addr:full": "222 N B AVE", "addr:postcode": "75946", "addr:state": "TX", "amenity": "post_box", "brand": "United States Postal Service", "brand:wikidata": "Q668687", "collection_times": "Mo-Fr 16:00; Sa 09:00", "name": "USPS COLLECTION BOX - BLUE BOX", "note": "ON 12/24 AND 12/31, THIS BOX MAY BE COLLECTED AS EARLY AS 12 NOON.", "nsi_id": "unitedstatespostalservice-a77078", "operator": "United States Postal Service", "operator:short": "USPS", "operator:type": "public", "operator:wikidata": "Q668687", "ref": "7594600000"}, "type": "Feature"}
{"dataset_attributes": {"@spider": "usps_collection_boxes", "spider:collection_time": "2023-09-22T08:24:47.468985"}, "geometry": {"coordinates": [-94.491142, 31.825686], "type": "Point"}, "id": "ZbH-jGXKn6LxRh2PVLkpjY9gC4A=", "properties": {"@spider": "usps_collection_boxes", "addr:city": "GARRISON", "addr:country": "US", "addr:full": "222 N B AVE", "addr:postcode": "75946", "addr:state": "TX", "amenity": "post_box", "brand": "United States Postal Service", "brand:wikidata": "Q668687", "collection_times": "Mo-Fr 16:00; Sa 09:00", "name": "USPS COLLECTION BOX - PO LOBBY", "note": "ON 12/24 AND 12/31, THIS BOX MAY BE COLLECTED AS EARLY AS 12 NOON.", "nsi_id": "unitedstatespostalservice-a77078", "operator": "United States Postal Service", "operator:short": "USPS", "operator:type": "public", "operator:wikidata": "Q668687", "ref": "7594600002"}, "type": "Feature"}
{"dataset_attributes": {"@spider": "usps_collection_boxes", "spider:collection_time": "2023-09-22T08:24:47.468985"}, "geometry": {"coordinates": [-94.491142, 31.825686], "type": "Point"}, "id": "JgZ9IZnu5hE68KQ7g60-JCj7BjA=", "properties": {"@spider": "usps_collection_boxes", "addr:city": "GARRISON", "addr:country": "US", "addr:full": "222 N B AVE", "addr:postcode": "75946", "addr:state": "TX", "amenity": "post_box", "brand": "United States Postal Service", "brand:wikidata": "Q668687", "collection_times": "Mo-Fr 16:00; Sa 09:00", "name": "USPS COLLECTION BOX - PO LOBBY", "note": "ON 12/24 AND 12/31, THIS BOX MAY BE COLLECTED AS EARLY AS 12 NOON.", "nsi_id": "unitedstatespostalservice-a77078", "operator": "United States Postal Service", "operator:short": "USPS", "operator:type": "public", "operator:wikidata": "Q668687", "ref": "7594600003"}, "type": "Feature"}
{"dataset_attributes": {"@spider": "usps_collection_boxes", "spider:collection_time": "2023-09-22T08:24:47.468985"}, "geometry": {"coordinates": [-94.491145391, 31.825675782], "type": "Point"}, "id": "CkXhck5H5_ACMlWdKHenSX9Wayg=", "properties": {"@spider": "usps_collection_boxes", "addr:city": "GARRISON", "addr:country": "US", "addr:full": "222 N B AVE", "addr:postcode": "75946", "addr:state": "TX", "amenity": "post_box", "brand": "United States Postal Service", "brand:wikidata": "Q668687", "collection_times": "Mo-Fr 16:00", "name": "USPS COLLECTION BOX - PO LOBBY", "note": "ON 12/24 AND 12/31, THIS BOX MAY BE COLLECTED AS EARLY AS 12 NOON.", "nsi_id": "unitedstatespostalservice-a77078", "operator": "United States Postal Service", "operator:short": "USPS", "operator:type": "public", "operator:wikidata": "Q668687", "ref": "7594600004"}, "type": "Feature"}
{"dataset_attributes": {"@spider": "usps_collection_boxes", "spider:collection_time": "2023-09-22T08:24:47.468985"}, "geometry": {"coordinates": [-93.849766, 31.343658], "type": "Point"}, "id": "s52eRtweX6ZKd8WHWEnpHGUyGp8=", "properties": {"@spider": "usps_collection_boxes", "addr:city": "HEMPHILL", "addr:country": "US", "addr:full": "255 N TEXAS ST", "addr:postcode": "75948", "addr:state": "TX", "amenity": "post_box", "brand": "United States Postal Service", "brand:wikidata": "Q668687", "collection_times": "Mo-Fr 15:15; Sa 10:00", "name": "USPS COLLECTION BOX - BLUE BOX", "note": "ON 12/24 AND 12/31, THIS BOX MAY BE COLLECTED AS EARLY AS 12 NOON.", "nsi_id": "unitedstatespostalservice-a77078", "operator": "United States Postal Service", "operator:short": "USPS", "operator:type": "public", "operator:wikidata": "Q668687", "ref": "7594806524"}, "type": "Feature"}
{"dataset_attributes": {"@spider": "usps_collection_boxes", "spider:collection_time": "2023-09-22T08:24:47.468985"}, "geometry": {"coordinates": [-93.849766, 31.343658], "type": "Point"}, "id": "JAfgL468xaHYm_ilU6LaG_sBcA8=", "properties": {"@spider": "usps_collection_boxes", "addr:city": "HEMPHILL", "addr:country": "US", "addr:full": "255 N TEXAS ST", "addr:postcode": "75948", "addr:state": "TX", "amenity": "post_box", "brand": "United States Postal Service", "brand:wikidata": "Q668687", "collection_times": "Mo-Fr 15:15", "name": "USPS COLLECTION BOX - PO LOBBY", "note": "ON 12/24 AND 12/31, THIS BOX MAY BE COLLECTED AS EARLY AS 12 NOON.", "nsi_id": "unitedstatespostalservice-a77078", "operator": "United States Postal Service", "operator:short": "USPS", "operator:type": "public", "operator:wikidata": "Q668687", "ref": "7594806526"}, "type": "Feature"}
{"dataset_attributes": {"@spider": "usps_collection_boxes", "spider:collection_time": "2023-09-22T08:24:47.468985"}, "geometry": {"coordinates": [-93.849802217, 31.343634], "type": "Point"}, "id": "WHquLN7m59XJ6bTi4mGEWc523Kg=", "properties": {"@spider": "usps_collection_boxes", "addr:city": "HEMPHILL", "addr:country": "US", "addr:full": "255 N TEXAS ST", "addr:postcode": "75948", "addr:state": "TX", "amenity": "post_box", "brand": "United States Postal Service", "brand:wikidata": "Q668687", "collection_times": "Mo-Fr 15:30", "name": "USPS COLLECTION BOX - PO LOBBY", "note": "ON 12/24 AND 12/31, THIS BOX MAY BE COLLECTED AS EARLY AS 12 NOON.", "nsi_id": "unitedstatespostalservice-a77078", "operator": "United States Postal Service", "operator:short": "USPS", "operator:type": "public", "operator:wikidata": "Q668687", "ref": "7594806527"}, "type": "Feature"}
{"dataset_attributes": {"@spider": "usps_collection_boxes", "spider:collection_time": "2023-09-22T08:24:47.468985"}, "geometry": {"coordinates": [-94.574978, 31.276465], "type": "Point"}, "id": "-8jskgKL-ecXc5-ARU90jdfmEZg=", "properties": {"@spider": "usps_collection_boxes", "addr:city": "HUNTINGTON", "addr:country": "US", "addr:full": "260 S US HIGHWAY 69", "addr:postcode": "75949", "addr:state": "TX", "amenity": "post_box", "brand": "United States Postal Service", "brand:wikidata": "Q668687", "collection_times": "Mo-Fr 15:30; Sa 09:00", "name": "USPS COLLECTION BOX - BLUE BOX", "note": "ON 12/24 AND 12/31, THIS BOX MAY BE COLLECTED AS EARLY AS 12 NOON.", "nsi_id": "unitedstatespostalservice-a77078", "operator": "United States Postal Service", "operator:short": "USPS", "operator:type": "public", "operator:wikidata": "Q668687", "ref": "7594900000"}, "type": "Feature"}
{"dataset_attributes": {"@spider": "usps_collection_boxes", "spider:collection_time": "2023-09-22T08:24:47.468985"}, "geometry": {"coordinates": [-94.574978, 31.276465], "type": "Point"}, "id": "c9DHu7c38XrN8RvDUjmpyroAnnk=", "properties": {"@spider": "usps_collection_boxes", "addr:city": "HUNTINGTON", "addr:country": "US", "addr:full": "260 S US HIGHWAY 69", "addr:postcode": "75949", "addr:state": "TX", "amenity": "post_box", "brand": "United States Postal Service", "brand:wikidata": "Q668687", "collection_times": "Mo-Fr 15:30; Sa 09:00", "name": "USPS COLLECTION BOX - BLUE BOX", "note": "ON 12/24 AND 12/31, THIS BOX MAY BE COLLECTED AS EARLY AS 12 NOON.", "nsi_id": "unitedstatespostalservice-a77078", "operator": "United States Postal Service", "operator:short": "USPS", "operator:type": "public", "operator:wikidata": "Q668687", "ref": "7594900002"}, "type": "Feature"}
{"dataset_attributes": {"@spider": "usps_collection_boxes", "spider:collection_time": "2023-09-22T08:24:47.468985"}, "geometry": {"coordinates": [-94.574978, 31.276465], "type": "Point"}, "id": "OT7Q6To7sbnLAMJL8thkCO9_xmA=", "properties": {"@spider": "usps_collection_boxes", "addr:city": "HUNTINGTON", "addr:country": "US", "addr:full": "260 S US HIGHWAY 69", "addr:postcode": "75949", "addr:state": "TX", "amenity": "post_box", "brand": "United States Postal Service", "brand:wikidata": "Q668687", "collection_times": "Mo-Fr 16:00; Sa 09:00", "name": "USPS COLLECTION BOX - PO LOBBY", "note": "ON 12/24 AND 12/31, THIS BOX MAY BE COLLECTED AS EARLY AS 12 NOON.", "nsi_id": "unitedstatespostalservice-a77078", "operator": "United States Postal Service", "operator:short": "USPS", "operator:type": "public", "operator:wikidata": "Q668687", "ref": "7594900003"}, "type": "Feature"}
{"dataset_attributes": {"@spider": "usps_collection_boxes", "spider:collection_time": "2023-09-22T08:24:47.468985"}, "geometry": {"coordinates": [-94.574978, 31.276465], "type": "Point"}, "id": "NMLOqL-pJTowuOoKPovjRLf4Hr4=", "properties": {"@spider": "usps_collection_boxes", "addr:city": "HUNTINGTON", "addr:country": "US", "addr:full": "260 S US HIGHWAY 69", "addr:postcode": "75949", "addr:state": "TX", "amenity": "post_box", "brand": "United States Postal Service", "brand:wikidata": "Q668687", "collection_times": "Mo-Fr 16:00; Sa 09:00", "name": "USPS COLLECTION BOX - PO LOBBY", "note": "ON 12/24 AND 12/31, THIS BOX MAY BE COLLECTED AS EARLY AS 12 NOON.", "nsi_id": "unitedstatespostalservice-a77078", "operator": "United States Postal Service", "operator:short": "USPS", "operator:type": "public", "operator:wikidata": "Q668687", "ref": "7594900004"}, "type": "Feature"}
{"dataset_attributes": {"@spider": "usps_collection_boxes", "spider:collection_time": "2023-09-22T08:24:47.468985"}, "geometry": {"coordinates": [-94.578710417, 31.278646916], "type": "Point"}, "id": "VgB-4lw6ar77cwMxTQISXNTAOwE=", "properties": {"@spider": "usps_collection_boxes", "addr:city": "HUNTINGTON", "addr:country": "US", "addr:full": "260 S US HIGHWAY 69", "addr:postcode": "75949", "addr:state": "TX", "amenity": "post_box", "brand": "United States Postal Service", "brand:wikidata": "Q668687", "collection_times": "Mo-Fr 16:00", "name": "USPS COLLECTION BOX - PO LOBBY", "note": "ON 12/24 AND 12/31, THIS BOX MAY BE COLLECTED AS EARLY AS 12 NOON.", "nsi_id": "unitedstatespostalservice-a77078", "operator": "United States Postal Service", "operator:short": "USPS", "operator:type": "public", "operator:wikidata": "Q668687", "ref": "7594900006"}, "type": "Feature"}
{"dataset_attributes": {"@spider": "usps_collection_boxes", "spider:collection_time": "2023-09-22T08:24:47.468985"}, "geometry": {"coordinates": [-93.9959557, 30.909672], "type": "Point"}, "id": "XU75G5_NXfR3OnNlo5IHSdL32jA=", "properties": {"@spider": "usps_collection_boxes", "addr:city": "JASPER", "addr:country": "US", "addr:full": "1000 S WHEELER ST", "addr:postcode": "75951", "addr:state": "TX", "amenity": "post_box", "brand": "United States Postal Service", "brand:wikidata": "Q668687", "collection_times": "Mo-Fr 14:30", "name": "USPS COLLECTION BOX - BLUE BOX", "note": "ON 12/24 AND 12/31, THIS BOX MAY BE COLLECTED AS EARLY AS 12 NOON.", "nsi_id": "unitedstatespostalservice-a77078", "operator": "United States Postal Service", "operator:short": "USPS", "operator:type": "public", "operator:wikidata": "Q668687", "ref": "7595106699"}, "type": "Feature"}
{"dataset_attributes": {"@spider": "usps_collection_boxes", "spider:collection_time": "2023-09-22T08:24:47.468985"}, "geometry": {"coordinates": [-94.001932, 30.922048], "type": "Point"}, "id": "CJp0d6jfqUM5KjN1k1SLIUR2s78=", "properties": {"@spider": "usps_collection_boxes", "addr:city": "JASPER", "addr:country": "US", "addr:full": "215 N BOWIE ST", "addr:postcode": "75951", "addr:state": "TX", "amenity": "post_box", "brand": "United States Postal Service", "brand:wikidata": "Q668687", "collection_times": "Mo-Sa 15:30", "name": "USPS COLLECTION BOX - BLUE BOX", "note": "ON 12/24 AND 12/31, THIS BOX MAY BE COLLECTED AS EARLY AS 12 NOON.", "nsi_id": "unitedstatespostalservice-a77078", "operator": "United States Postal Service", "operator:short": "USPS", "operator:type": "public", "operator:wikidata": "Q668687", "ref": "7595106701"}, "type": "Feature"}
{"dataset_attributes": {"@spider": "usps_collection_boxes", "spider:collection_time": "2023-09-22T08:24:47.468985"}, "geometry": {"coordinates": [-94.001932, 30.922048], "type": "Point"}, "id": "lUjTNMILHcdAzgoN9tOeDWCe8kE=", "properties": {"@spider": "usps_collection_boxes", "addr:city": "JASPER", "addr:country": "US", "addr:full": "215 N BOWIE ST", "addr:postcode": "75951", "addr:state": "TX", "amenity": "post_box", "brand": "United States Postal Service", "brand:wikidata": "Q668687", "collection_times": "Mo-Sa 15:30", "name": "USPS COLLECTION BOX - BLUE BOX", "note": "ON 12/24 AND 12/31, THIS BOX MAY BE COLLECTED AS EARLY AS 12 NOON.", "nsi_id": "unitedstatespostalservice-a77078", "operator": "United States Postal Service", "operator:short": "USPS", "operator:type": "public", "operator:wikidata": "Q668687", "ref": "7595106702"}, "type": "Feature"}
{"dataset_attributes": {"@spider": "usps_collection_boxes", "spider:collection_time": "2023-09-22T08:24:47.468985"}, "geometry": {"coordinates": [-94.001932, 30.922048], "type": "Point"}, "id": "ASU8KzLIfoVQROe5bjySS3WMmV8=", "properties": {"@spider": "usps_collection_boxes", "addr:city": "JASPER", "addr:country": "US", "addr:full": "215 N BOWIE ST", "addr:postcode": "75951", "addr:state": "TX", "amenity": "post_box", "brand": "United States Postal Service", "brand:wikidata": "Q668687", "collection_times": "Mo-Fr 16:00; Sa 15:30", "name": "USPS COLLECTION BOX - PO LOBBY", "note": "ON 12/24 AND 12/31, THIS BOX MAY BE COLLECTED AS EARLY AS 12 NOON.", "nsi_id": "unitedstatespostalservice-a77078", "operator": "United States Postal Service", "operator:short": "USPS", "operator:type": "public", "operator:wikidata": "Q668687", "ref": "7595106768"}, "type": "Feature"}
{"dataset_attributes": {"@spider": "usps_collection_boxes", "spider:collection_time": "2023-09-22T08:24:47.468985"}, "geometry": {"coordinates": [-94.001932, 30.922048], "type": "Point"}, "id": "QJHoZ5sdnX_oUswh74EgvzE7cVM=", "properties": {"@spider": "usps_collection_boxes", "addr:city": "JASPER", "addr:country": "US", "addr:full": "215 N BOWIE ST", "addr:postcode": "75951", "addr:state": "TX", "amenity": "post_box", "brand": "United States Postal Service", "brand:wikidata": "Q668687", "collection_times": "Mo-Fr 16:00; Sa 15:30", "name": "USPS COLLECTION BOX - PO LOBBY", "note": "ON 12/24 AND 12/31, THIS BOX MAY BE COLLECTED AS EARLY AS 12 NOON.", "nsi_id": "unitedstatespostalservice-a77078", "operator": "United States Postal Service", "operator:short": "USPS", "operator:type": "public", "operator:wikidata": "Q668687", "ref": "7595106769"}, "type": "Feature"}
{"dataset_attributes": {"@spider": "usps_collection_boxes", "spider:collection_time": "2023-09-22T08:24:47.468985"}, "geometry": {"coordinates": [-93.9878137, 30.915306], "type": "Point"}, "id": "Bong2DGaF_rKfs_I46w1rkEkvaA=", "properties": {"@spider": "usps_collection_boxes", "addr:city": "JASPER", "addr:country": "US", "addr:full": "850 E GIBSON ST", "addr:postcode": "75951", "addr:state": "TX", "amenity": "post_box", "brand": "United States Postal Service", "brand:wikidata": "Q668687", "collection_times": "Mo-Fr 12:30", "name": "USPS COLLECTION BOX - BLUE BOX", "note": "ON 12/24 AND 12/31, THIS BOX MAY BE COLLECTED AS EARLY AS 12 NOON.", "nsi_id": "unitedstatespostalservice-a77078", "operator": "United States Postal Service", "operator:short": "USPS", "operator:type": "public", "operator:wikidata": "Q668687", "ref": "7595106772"}, "type": "Feature"}
{"dataset_attributes": {"@spider": "usps_collection_boxes", "spider:collection_time": "2023-09-22T08:24:47.468985"}, "geometry": {"coordinates": [-94.001938965, 30.922095403], "type": "Point"}, "id": "JEFeQRK6SH_-8QxfMHiR4UfMEPQ=", "properties": {"@spider": "usps_collection_boxes", "addr:city": "JASPER", "addr:country": "US", "addr:full": "215 N BOWIE ST", "addr:postcode": "75951", "addr:state": "TX", "amenity": "post_box", "brand": "United States Postal Service", "brand:wikidata": "Q668687", "collection_times": "Mo-Fr 16:00", "name": "USPS COLLECTION BOX - PO LOBBY", "note": "ON 12/24 AND 12/31, THIS BOX MAY BE COLLECTED AS EARLY AS 12 NOON.", "nsi_id": "unitedstatespostalservice-a77078", "operator": "United States Postal Service", "operator:short": "USPS", "operator:type": "public", "operator:wikidata": "Q668687", "ref": "7595106773"}, "type": "Feature"}
{"dataset_attributes": {"@spider": "usps_collection_boxes", "spider:collection_time": "2023-09-22T08:24:47.468985"}, "geometry": {"coordinates": [-94.050716, 31.965403], "type": "Point"}, "id": "IHkDv6PS6Rl0X-AdqESDVDP1ID0=", "properties": {"@spider": "usps_collection_boxes", "addr:city": "JOAQUIN", "addr:country": "US", "addr:full": "209 E. 84TH ST", "addr:postcode": "75954", "addr:state": "TX", "amenity": "post_box", "brand": "United States Postal Service", "brand:wikidata": "Q668687", "collection_times": "Mo-Fr 15:30; Sa 10:00", "name": "USPS COLLECTION BOX - BLUE BOX", "note": "ON 12/24 AND 12/31, THIS BOX MAY BE COLLECTED AS EARLY AS 12 NOON.", "nsi_id": "unitedstatespostalservice-a77078", "operator": "United States Postal Service", "operator:short": "USPS", "operator:type": "public", "operator:wikidata": "Q668687", "ref": "7595400000"}, "type": "Feature"}
{"dataset_attributes": {"@spider": "usps_collection_boxes", "spider:collection_time": "2023-09-22T08:24:47.468985"}, "geometry": {"coordinates": [-94.050716, 31.965403], "type": "Point"}, "id": "NYhpuWLTy9_vVeV4Orn1N_cp5o4=", "properties": {"@spider": "usps_collection_boxes", "addr:city": "JOAQUIN", "addr:country": "US", "addr:full": "209 E. 84TH ST", "addr:postcode": "75954", "addr:state": "TX", "amenity": "post_box", "brand": "United States Postal Service", "brand:wikidata": "Q668687", "collection_times": "Mo-Fr 15:30; Sa 10:00", "name": "USPS COLLECTION BOX - PO LOBBY", "note": "ON 12/24 AND 12/31, THIS BOX MAY BE COLLECTED AS EARLY AS 12 NOON.", "nsi_id": "unitedstatespostalservice-a77078", "operator": "United States Postal Service", "operator:short": "USPS", "operator:type": "public", "operator:wikidata": "Q668687", "ref": "7595400002"}, "type": "Feature"}
{"dataset_attributes": {"@spider": "usps_collection_boxes", "spider:collection_time": "2023-09-22T08:24:47.468985"}, "geometry": {"coordinates": [-94.0430489, 31.9638299], "type": "Point"}, "id": "pz-gQTvPhzsHxFx4ZftbS7bC_qc=", "properties": {"@spider": "usps_collection_boxes", "addr:city": "JOAQUIN", "addr:country": "US", "addr:full": "209 84TH ST", "addr:postcode": "75954", "addr:state": "TX", "amenity": "post_box", "brand": "United States Postal Service", "brand:wikidata": "Q668687", "collection_times": "Mo-Fr 15:15", "name": "USPS COLLECTION BOX - PO LOBBY", "note": "ON 12/24 AND 12/31, THIS BOX MAY BE COLLECTED AS EARLY AS 12 NOON.", "nsi_id": "unitedstatespostalservice-a77078", "operator": "United States Postal Service", "operator:short": "USPS", "operator:type": "public", "operator:wikidata": "Q668687", "ref": "7595400003"}, "type": "Feature"}
{"dataset_attributes": {"@spider": "usps_collection_boxes", "spider:collection_time": "2023-09-22T08:24:47.468985"}, "geometry": {"coordinates": [-93.8915539877, 30.6597579832], "type": "Point"}, "id": "69SDjtY8Cu_yhGQcO7uBEc5mqpM=", "properties": {"@spider": "usps_collection_boxes", "addr:city": "KIRBYVILLE", "addr:country": "US", "addr:full": "301 E LAVIELLE ST", "addr:postcode": "75956", "addr:state": "TX", "amenity": "post_box", "brand": "United States Postal Service", "brand:wikidata": "Q668687", "collection_times": "Mo-Fr 15:00; Sa 09:00", "name": "USPS COLLECTION BOX - BLUE BOX", "note": "ON 12/24 AND 12/31, THIS BOX MAY BE COLLECTED AS EARLY AS 12 NOON.", "nsi_id": "unitedstatespostalservice-a77078", "operator": "United States Postal Service", "operator:short": "USPS", "operator:type": "public", "operator:wikidata": "Q668687", "ref": "7595606384"}, "type": "Feature"}
{"dataset_attributes": {"@spider": "usps_collection_boxes", "spider:collection_time": "2023-09-22T08:24:47.468985"}, "geometry": {"coordinates": [-93.8968273, 30.651037], "type": "Point"}, "id": "71Jj6Q9i5Ei7MDoACAaushKEvok=", "properties": {"@spider": "usps_collection_boxes", "addr:city": "KIRBYVILLE", "addr:country": "US", "addr:full": "1005 S MARGARET AVE", "addr:postcode": "75956", "addr:state": "TX", "amenity": "post_box", "brand": "United States Postal Service", "brand:wikidata": "Q668687", "collection_times": "Mo-Fr 09:00", "name": "USPS COLLECTION BOX - BLUE BOX", "nsi_id": "unitedstatespostalservice-a77078", "operator": "United States Postal Service", "operator:short": "USPS", "operator:type": "public", "operator:wikidata": "Q668687", "ref": "7595606387"}, "type": "Feature"}
{"dataset_attributes": {"@spider": "usps_collection_boxes", "spider:collection_time": "2023-09-22T08:24:47.468985"}, "geometry": {"coordinates": [-93.891506, 30.6596], "type": "Point"}, "id": "mYp0i9VHOsgB6G14CA0pWHoUhnk=", "properties": {"@spider": "usps_collection_boxes", "addr:city": "KIRBYVILLE", "addr:country": "US", "addr:full": "301 E LAVIELLE ST", "addr:postcode": "75956", "addr:state": "TX", "amenity": "post_box", "brand": "United States Postal Service", "brand:wikidata": "Q668687", "collection_times": "Mo-Fr 15:00; Sa 09:00", "name": "USPS COLLECTION BOX - PO LOBBY", "note": "ON 12/24 AND 12/31, THIS BOX MAY BE COLLECTED AS EARLY AS 12 NOON.", "nsi_id": "unitedstatespostalservice-a77078", "operator": "United States Postal Service", "operator:short": "USPS", "operator:type": "public", "operator:wikidata": "Q668687", "ref": "7595606461"}, "type": "Feature"}
{"dataset_attributes": {"@spider": "usps_collection_boxes", "spider:collection_time": "2023-09-22T08:24:47.468985"}, "geometry": {"coordinates": [-93.891360997, 30.659633497], "type": "Point"}, "id": "HqjrZKvJn9du26oIwc_VKF8g60k=", "properties": {"@spider": "usps_collection_boxes", "addr:city": "KIRBYVILLE", "addr:country": "US", "addr:full": "301 E LAVIELLE ST", "addr:postcode": "75956", "addr:state": "TX", "amenity": "post_box", "brand": "United States Postal Service", "brand:wikidata": "Q668687", "collection_times": "Mo-Fr 15:30", "name": "USPS COLLECTION BOX - PO LOBBY", "note": "ON 12/24 AND 12/31, THIS BOX MAY BE COLLECTED AS EARLY AS 12 NOON.", "nsi_id": "unitedstatespostalservice-a77078", "operator": "United States Postal Service", "operator:short": "USPS", "operator:type": "public", "operator:wikidata": "Q668687", "ref": "7595606463"}, "type": "Feature"}
{"dataset_attributes": {"@spider": "usps_collection_boxes", "spider:collection_time": "2023-09-22T08:24:47.468985"}, "geometry": {"coordinates": [-94.414395, 31.642495], "type": "Point"}, "id": "WEsVjy_DSOBFUw8LvEaVk3y8DPI=", "properties": {"@spider": "usps_collection_boxes", "addr:city": "MARTINSVILLE", "addr:country": "US", "addr:full": "10990 FM 95", "addr:postcode": "75958", "addr:state": "TX", "amenity": "post_box", "brand": "United States Postal Service", "brand:wikidata": "Q668687", "collection_times": "Mo-Sa 15:15", "name": "USPS COLLECTION BOX - BLUE BOX", "note": "ON 12/24 AND 12/31, THIS BOX MAY BE COLLECTED AS EARLY AS 12 NOON.", "nsi_id": "unitedstatespostalservice-a77078", "operator": "United States Postal Service", "operator:short": "USPS", "operator:type": "public", "operator:wikidata": "Q668687", "ref": "7595800000"}, "type": "Feature"}
{"dataset_attributes": {"@spider": "usps_collection_boxes", "spider:collection_time": "2023-09-22T08:24:47.468985"}, "geometry": {"coordinates": [-94.414429, 31.642487], "type": "Point"}, "id": "C_g5Y96adYi-48ZFwiTOtlL57r8=", "properties": {"@spider": "usps_collection_boxes", "addr:city": "MARTINSVILLE", "addr:country": "US", "addr:full": "10990 FM 95", "addr:postcode": "75958", "addr:state": "TX", "amenity": "post_box", "brand": "United States Postal Service", "brand:wikidata": "Q668687", "collection_times": "Mo-Fr 12:30; Sa 08:45", "name": "USPS COLLECTION BOX - PO LOBBY", "note": "ON 12/24 AND 12/31, THIS BOX MAY BE COLLECTED AS EARLY AS 12 NOON.", "nsi_id": "unitedstatespostalservice-a77078", "operator": "United States Postal Service", "operator:short": "USPS", "operator:type": "public", "operator:wikidata": "Q668687", "ref": "7595800001"}, "type": "Feature"}
{"dataset_attributes": {"@spider": "usps_collection_boxes", "spider:collection_time": "2023-09-22T08:24:47.468985"}, "geometry": {"coordinates": [-94.414429, 31.642487], "type": "Point"}, "id": "3Y9TT-CpklhTJaBUloEGBCqLJp4=", "properties": {"@spider": "usps_collection_boxes", "addr:city": "MARTINSVILLE", "addr:country": "US", "addr:full": "10990 FM 95", "addr:postcode": "75958", "addr:state": "TX", "amenity": "post_box", "brand": "United States Postal Service", "brand:wikidata": "Q668687", "collection_times": "Mo-Fr 12:30; Sa 08:45", "name": "USPS COLLECTION BOX - PO LOBBY", "note": "ON 12/24 AND 12/31, THIS BOX MAY BE COLLECTED AS EARLY AS 12 NOON.", "nsi_id": "unitedstatespostalservice-a77078", "operator": "United States Postal Service", "operator:short": "USPS", "operator:type": "public", "operator:wikidata": "Q668687", "ref": "7595800002"}, "type": "Feature"}
{"dataset_attributes": {"@spider": "usps_collection_boxes", "spider:collection_time": "2023-09-22T08:24:47.468985"}, "geometry": {"coordinates": [-94.414401049, 31.6424588629], "type": "Point"}, "id": "DupZBjL8N2_7jqBjJBtIChJwC6E=", "properties": {"@spider": "usps_collection_boxes", "addr:city": "MARTINSVILLE", "addr:country": "US", "addr:full": "10990 FM 95", "addr:postcode": "75958", "addr:state": "TX", "amenity": "post_box", "brand": "United States Postal Service", "brand:wikidata": "Q668687", "collection_times": "Mo-Fr 13:00", "name": "USPS COLLECTION BOX - PO LOBBY", "note": "ON 12/24 AND 12/31, THIS BOX MAY BE COLLECTED AS EARLY AS 12 NOON.", "nsi_id": "unitedstatespostalservice-a77078", "operator": "United States Postal Service", "operator:short": "USPS", "operator:type": "public", "operator:wikidata": "Q668687", "ref": "7595800004"}, "type": "Feature"}
{"dataset_attributes": {"@spider": "usps_collection_boxes", "spider:collection_time": "2023-09-22T08:24:47.468985"}, "geometry": {"coordinates": [-93.847012, 31.433257], "type": "Point"}, "id": "IwI1dLU5R8MwzkT2q55LZMRPPz8=", "properties": {"@spider": "usps_collection_boxes", "addr:city": "MILAM", "addr:country": "US", "addr:full": "150 STATE HIGHWAY 21", "addr:postcode": "75959", "addr:state": "TX", "amenity": "post_box", "brand": "United States Postal Service", "brand:wikidata": "Q668687", "collection_times": "Mo-Fr 15:00; Sa 10:00", "name": "USPS COLLECTION BOX - BLUE BOX", "note": "ON 12/24 AND 12/31, THIS BOX MAY BE COLLECTED AS EARLY AS 12 NOON.", "nsi_id": "unitedstatespostalservice-a77078", "operator": "United States Postal Service", "operator:short": "USPS", "operator:type": "public", "operator:wikidata": "Q668687", "ref": "7595900000"}, "type": "Feature"}
{"dataset_attributes": {"@spider": "usps_collection_boxes", "spider:collection_time": "2023-09-22T08:24:47.468985"}, "geometry": {"coordinates": [-93.916697, 31.475535], "type": "Point"}, "id": "u9wssxHXee4MgpNIKNmd7H8exVs=", "properties": {"@spider": "usps_collection_boxes", "addr:city": "MILAM", "addr:country": "US", "addr:full": "150 STATE HIGHWAY 21", "addr:postcode": "75959", "addr:state": "TX", "amenity": "post_box", "brand": "United States Postal Service", "brand:wikidata": "Q668687", "collection_times": "Mo-Fr 14:30; Sa 10:00", "name": "USPS COLLECTION BOX - PO LOBBY", "note": "ON 12/24 AND 12/31, THIS BOX MAY BE COLLECTED AS EARLY AS 12 NOON.", "nsi_id": "unitedstatespostalservice-a77078", "operator": "United States Postal Service", "operator:short": "USPS", "operator:type": "public", "operator:wikidata": "Q668687", "ref": "7595900001"}, "type": "Feature"}
{"dataset_attributes": {"@spider": "usps_collection_boxes", "spider:collection_time": "2023-09-22T08:24:47.468985"}, "geometry": {"coordinates": [-93.847570894, 31.4326168], "type": "Point"}, "id": "nUgBza6tnZdnDdyIj4QOdqu2oYM=", "properties": {"@spider": "usps_collection_boxes", "addr:city": "MILAM", "addr:country": "US", "addr:full": "150 STATE HIGHWAY 21", "addr:postcode": "75959", "addr:state": "TX", "amenity": "post_box", "brand": "United States Postal Service", "brand:wikidata": "Q668687", "collection_times": "Mo-Fr 14:30", "name": "USPS COLLECTION BOX - PO LOBBY", "note": "ON 12/24 AND 12/31, THIS BOX MAY BE COLLECTED AS EARLY AS 12 NOON.", "nsi_id": "unitedstatespostalservice-a77078", "operator": "United States Postal Service", "operator:short": "USPS", "operator:type": "public", "operator:wikidata": "Q668687", "ref": "7595900003"}, "type": "Feature"}
{"dataset_attributes": {"@spider": "usps_collection_boxes", "spider:collection_time": "2023-09-22T08:24:47.468985"}, "geometry": {"coordinates": [-94.8266889783, 30.9137350139], "type": "Point"}, "id": "n2EkD7ppgaBnv2Lyhtl0PIS03Oc=", "properties": {"@spider": "usps_collection_boxes", "addr:city": "MOSCOW", "addr:country": "US", "addr:full": "16281 US HIGHWAY 59 N", "addr:postcode": "75960", "addr:state": "TX", "amenity": "post_box", "brand": "United States Postal Service", "brand:wikidata": "Q668687", "collection_times": "Mo-Fr 16:30; Sa 16:00", "name": "USPS COLLECTION BOX - BLUE BOX", "note": "ON 12/24 AND 12/31, THIS BOX MAY BE COLLECTED AS EARLY AS 12 NOON.", "nsi_id": "unitedstatespostalservice-a77078", "operator": "United States Postal Service", "operator:short": "USPS", "operator:type": "public", "operator:wikidata": "Q668687", "ref": "7596000000"}, "type": "Feature"}
{"dataset_attributes": {"@spider": "usps_collection_boxes", "spider:collection_time": "2023-09-22T08:24:47.468985"}, "geometry": {"coordinates": [-94.826136, 30.913841], "type": "Point"}, "id": "376qdYhyeSiSQbAOsvoXx8o5Rbg=", "properties": {"@spider": "usps_collection_boxes", "addr:city": "MOSCOW", "addr:country": "US", "addr:full": "16281 US HIGHWAY 59 N", "addr:postcode": "75960", "addr:state": "TX", "amenity": "post_box", "brand": "United States Postal Service", "brand:wikidata": "Q668687", "collection_times": "Mo-Fr 11:30; Sa 08:30", "name": "USPS COLLECTION BOX - PO LOBBY", "nsi_id": "unitedstatespostalservice-a77078", "operator": "United States Postal Service", "operator:short": "USPS", "operator:type": "public", "operator:wikidata": "Q668687", "ref": "7596000002"}, "type": "Feature"}
{"dataset_attributes": {"@spider": "usps_collection_boxes", "spider:collection_time": "2023-09-22T08:24:47.468985"}, "geometry": {"coordinates": [-94.826142019, 30.913758618], "type": "Point"}, "id": "TFeqDLZXDSLzEmCiWkWWOFi99c8=", "properties": {"@spider": "usps_collection_boxes", "addr:city": "MOSCOW", "addr:country": "US", "addr:full": "16281 US HIGHWAY 59 N", "addr:postcode": "75960", "addr:state": "TX", "amenity": "post_box", "brand": "United States Postal Service", "brand:wikidata": "Q668687", "collection_times": "Mo-Fr 12:00", "name": "USPS COLLECTION BOX - PO LOBBY", "nsi_id": "unitedstatespostalservice-a77078", "operator": "United States Postal Service", "operator:short": "USPS", "operator:type": "public", "operator:wikidata": "Q668687", "ref": "7596000004"}, "type": "Feature"}
{"dataset_attributes": {"@spider": "usps_collection_boxes", "spider:collection_time": "2023-09-22T08:24:47.468985"}, "geometry": {"coordinates": [-94.6389191, 31.631885], "type": "Point"}, "id": "tB6aqki_IkaUmTEDOZfJaKDEQ2M=", "properties": {"@spider": "usps_collection_boxes", "addr:city": "NACOGDOCHES", "addr:country": "US", "addr:full": "917 E AUSTIN ST", "addr:postcode": "75961", "addr:state": "TX", "amenity": "post_box", "brand": "United States Postal Service", "brand:wikidata": "Q668687", "collection_times": "Mo-Sa 15:00", "name": "USPS COLLECTION BOX - BLUE BOX", "note": "ON 12/24 AND 12/31, THIS BOX MAY BE COLLECTED AS EARLY AS 12 NOON.", "nsi_id": "unitedstatespostalservice-a77078", "operator": "United States Postal Service", "operator:short": "USPS", "operator:type": "public", "operator:wikidata": "Q668687", "ref": "7596106950"}, "type": "Feature"}
{"dataset_attributes": {"@spider": "usps_collection_boxes", "spider:collection_time": "2023-09-22T08:24:47.468985"}, "geometry": {"coordinates": [-94.6495719, 31.613232], "type": "Point"}, "id": "tYdqr9BG8GURZJjjT8S_WeaNwk4=", "properties": {"@spider": "usps_collection_boxes", "addr:city": "NACOGDOCHES", "addr:country": "US", "addr:full": "1205 N MOUND ST", "addr:postcode": "75961", "addr:state": "TX", "amenity": "post_box", "brand": "United States Postal Service", "brand:wikidata": "Q668687", "collection_times": "Mo-Sa 11:00", "name": "USPS COLLECTION BOX - BLUE BOX", "nsi_id": "unitedstatespostalservice-a77078", "operator": "United States Postal Service", "operator:short": "USPS", "operator:type": "public", "operator:wikidata": "Q668687", "ref": "7596106957"}, "type": "Feature"}
{"dataset_attributes": {"@spider": "usps_collection_boxes", "spider:collection_time": "2023-09-22T08:24:47.468985"}, "geometry": {"coordinates": [-94.6634514, 31.595512], "type": "Point"}, "id": "22L42XksJhwt86jCBFkMvBimifA=", "properties": {"@spider": "usps_collection_boxes", "addr:city": "NACOGDOCHES", "addr:country": "US", "addr:full": "1216 SOUTH ST", "addr:postcode": "75961", "addr:state": "TX", "amenity": "post_box", "brand": "United States Postal Service", "brand:wikidata": "Q668687", "collection_times": "Mo-Sa 11:00", "name": "USPS COLLECTION BOX - BLUE BOX", "nsi_id": "unitedstatespostalservice-a77078", "operator": "United States Postal Service", "operator:short": "USPS", "operator:type": "public", "operator:wikidata": "Q668687", "ref": "7596106965"}, "type": "Feature"}
{"dataset_attributes": {"@spider": "usps_collection_boxes", "spider:collection_time": "2023-09-22T08:24:47.468985"}, "geometry": {"coordinates": [-94.6468934, 31.590775], "type": "Point"}, "id": "Bi18z40iVBzfSADn959sMUAVTeE=", "properties": {"@spider": "usps_collection_boxes", "addr:city": "NACOGDOCHES", "addr:country": "US", "addr:full": "1115 S UNIVERSITY DR", "addr:postcode": "75961", "addr:state": "TX", "amenity": "post_box", "brand": "United States Postal Service", "brand:wikidata": "Q668687", "collection_times": "Mo-Sa 10:30", "name": "USPS COLLECTION BOX - BLUE BOX", "nsi_id": "unitedstatespostalservice-a77078", "operator": "United States Postal Service", "operator:short": "USPS", "operator:type": "public", "operator:wikidata": "Q668687", "ref": "7596106969"}, "type": "Feature"}
{"dataset_attributes": {"@spider": "usps_collection_boxes", "spider:collection_time": "2023-09-22T08:24:47.468985"}, "geometry": {"coordinates": [-94.6377209, 31.613107], "type": "Point"}, "id": "POuvCqDIZs_fiQsn9F5i0NbGx48=", "properties": {"@spider": "usps_collection_boxes", "addr:city": "NACOGDOCHES", "addr:country": "US", "addr:full": "1122 N UNIVERSITY DR", "addr:postcode": "75961", "addr:state": "TX", "amenity": "post_box", "brand": "United States Postal Service", "brand:wikidata": "Q668687", "collection_times": "Mo-Sa 15:00", "name": "USPS COLLECTION BOX - BLUE BOX", "note": "ON 12/24 AND 12/31, THIS BOX MAY BE COLLECTED AS EARLY AS 12 NOON.", "nsi_id": "unitedstatespostalservice-a77078", "operator": "United States Postal Service", "operator:short": "USPS", "operator:type": "public", "operator:wikidata": "Q668687", "ref": "7596106973"}, "type": "Feature"}
{"dataset_attributes": {"@spider": "usps_collection_boxes", "spider:collection_time": "2023-09-22T08:24:47.468985"}, "geometry": {"coordinates": [-94.6408346, 31.631727], "type": "Point"}, "id": "41TjFzusdzJxPUESMwwjCHpnBEU=", "properties": {"@spider": "usps_collection_boxes", "addr:city": "NACOGDOCHES", "addr:country": "US", "addr:full": "3007 N UNIVERSITY DR", "addr:postcode": "75961", "addr:state": "TX", "amenity": "post_box", "brand": "United States Postal Service", "brand:wikidata": "Q668687", "collection_times": "Mo-Fr 17:00; Sa 16:30", "name": "USPS COLLECTION BOX - BLUE BOX", "note": "ON 12/24 AND 12/31, THIS BOX MAY BE COLLECTED AS EARLY AS 12 NOON.", "nsi_id": "unitedstatespostalservice-a77078", "operator": "United States Postal Service", "operator:short": "USPS", "operator:type": "public", "operator:wikidata": "Q668687", "ref": "7596106975"}, "type": "Feature"}
{"dataset_attributes": {"@spider": "usps_collection_boxes", "spider:collection_time": "2023-09-22T08:24:47.468985"}, "geometry": {"coordinates": [-94.6408322, 31.631726], "type": "Point"}, "id": "3V0VXpVpSzk3y9w71RhQjhetrRI=", "properties": {"@spider": "usps_collection_boxes", "addr:city": "NACOGDOCHES", "addr:country": "US", "addr:full": "3007 N UNIVERSITY DR", "addr:postcode": "75961", "addr:state": "TX", "amenity": "post_box", "brand": "United States Postal Service", "brand:wikidata": "Q668687", "collection_times": "Mo-Fr 17:00; Sa 16:30", "name": "USPS COLLECTION BOX - BLUE BOX", "note": "ON 12/24 AND 12/31, THIS BOX MAY BE COLLECTED AS EARLY AS 12 NOON.", "nsi_id": "unitedstatespostalservice-a77078", "operator": "United States Postal Service", "operator:short": "USPS", "operator:type": "public", "operator:wikidata": "Q668687", "ref": "7596106977"}, "type": "Feature"}
{"dataset_attributes": {"@spider": "usps_collection_boxes", "spider:collection_time": "2023-09-22T08:24:47.468985"}, "geometry": {"coordinates": [-94.6531469, 31.611714], "type": "Point"}, "id": "aYIVfI4X_M9jhM8CH5ts4uUQVOs=", "properties": {"@spider": "usps_collection_boxes", "addr:city": "NACOGDOCHES", "addr:country": "US", "addr:full": "1006 NORTH ST", "addr:postcode": "75961", "addr:state": "TX", "amenity": "post_box", "brand": "United States Postal Service", "brand:wikidata": "Q668687", "collection_times": "Mo-Sa 14:30", "name": "USPS COLLECTION BOX - BLUE BOX", "note": "ON 12/24 AND 12/31, THIS BOX MAY BE COLLECTED AS EARLY AS 12 NOON.", "nsi_id": "unitedstatespostalservice-a77078", "operator": "United States Postal Service", "operator:short": "USPS", "operator:type": "public", "operator:wikidata": "Q668687", "ref": "7596106980"}, "type": "Feature"}
{"dataset_attributes": {"@spider": "usps_collection_boxes", "spider:collection_time": "2023-09-22T08:24:47.468985"}, "geometry": {"coordinates": [-94.6511419, 31.605286], "type": "Point"}, "id": "ctCEfueHK3q9j2kPHIhRyooXzKY=", "properties": {"@spider": "usps_collection_boxes", "addr:city": "NACOGDOCHES", "addr:country": "US", "addr:full": "310 N MOUND ST", "addr:postcode": "75961", "addr:state": "TX", "amenity": "post_box", "brand": "United States Postal Service", "brand:wikidata": "Q668687", "collection_times": "Mo-Sa 10:30", "name": "USPS COLLECTION BOX - BLUE BOX", "nsi_id": "unitedstatespostalservice-a77078", "operator": "United States Postal Service", "operator:short": "USPS", "operator:type": "public", "operator:wikidata": "Q668687", "ref": "7596106982"}, "type": "Feature"}
{"dataset_attributes": {"@spider": "usps_collection_boxes", "spider:collection_time": "2023-09-22T08:24:47.468985"}, "geometry": {"coordinates": [-94.6530714, 31.64966], "type": "Point"}, "id": "Z69Ldb4Hd0egd1YVifY3NOFThKw=", "properties": {"@spider": "usps_collection_boxes", "addr:city": "NACOGDOCHES", "addr:country": "US", "addr:full": "4810 NORTH ST", "addr:postcode": "75961", "addr:state": "TX", "amenity": "post_box", "brand": "United States Postal Service", "brand:wikidata": "Q668687", "collection_times": "Mo-Sa 13:30", "name": "USPS COLLECTION BOX - BLUE BOX", "note": "ON 12/24 AND 12/31, THIS BOX MAY BE COLLECTED AS EARLY AS 12 NOON.", "nsi_id": "unitedstatespostalservice-a77078", "operator": "United States Postal Service", "operator:short": "USPS", "operator:type": "public", "operator:wikidata": "Q668687", "ref": "7596106985"}, "type": "Feature"}
{"dataset_attributes": {"@spider": "usps_collection_boxes", "spider:collection_time": "2023-09-22T08:24:47.468985"}, "geometry": {"coordinates": [-94.668109, 31.60687], "type": "Point"}, "id": "BRnaIPScNlCGs1no55wz_Yjmtuo=", "properties": {"@spider": "usps_collection_boxes", "addr:city": "NACOGDOCHES", "addr:country": "US", "addr:full": "1218 DOUGLASS RD", "addr:postcode": "75961", "addr:state": "TX", "amenity": "post_box", "brand": "United States Postal Service", "brand:wikidata": "Q668687", "collection_times": "Mo-Sa 14:00", "name": "USPS COLLECTION BOX - BLUE BOX", "note": "ON 12/24 AND 12/31, THIS BOX MAY BE COLLECTED AS EARLY AS 12 NOON.", "nsi_id": "unitedstatespostalservice-a77078", "operator": "United States Postal Service", "operator:short": "USPS", "operator:type": "public", "operator:wikidata": "Q668687", "ref": "7596106987"}, "type": "Feature"}
{"dataset_attributes": {"@spider": "usps_collection_boxes", "spider:collection_time": "2023-09-22T08:24:47.468985"}, "geometry": {"coordinates": [-94.640333, 31.630938], "type": "Point"}, "id": "OqodSVEjBuRZ5G4pdSxVokkV6fo=", "properties": {"@spider": "usps_collection_boxes", "addr:city": "NACOGDOCHES", "addr:country": "US", "addr:full": "3007 N UNIVERSITY DR", "addr:postcode": "75961", "addr:state": "TX", "amenity": "post_box", "brand": "United States Postal Service", "brand:wikidata": "Q668687", "collection_times": "Mo-Fr 17:00; Sa 16:30", "name": "USPS COLLECTION BOX - PO LOBBY", "note": "ON 12/24 AND 12/31, THIS BOX MAY BE COLLECTED AS EARLY AS 12 NOON.", "nsi_id": "unitedstatespostalservice-a77078", "operator": "United States Postal Service", "operator:short": "USPS", "operator:type": "public", "operator:wikidata": "Q668687", "ref": "7596106988"}, "type": "Feature"}
{"dataset_attributes": {"@spider": "usps_collection_boxes", "spider:collection_time": "2023-09-22T08:24:47.468985"}, "geometry": {"coordinates": [-94.640333, 31.630938], "type": "Point"}, "id": "drLzZ1Z20OaY1HKyb21BUFxfk7Y=", "properties": {"@spider": "usps_collection_boxes", "addr:city": "NACOGDOCHES", "addr:country": "US", "addr:full": "3007 N UNIVERSITY DR", "addr:postcode": "75961", "addr:state": "TX", "amenity": "post_box", "brand": "United States Postal Service", "brand:wikidata": "Q668687", "collection_times": "Mo-Fr 17:00; Sa 16:30", "name": "USPS COLLECTION BOX - PO LOBBY", "note": "ON 12/24 AND 12/31, THIS BOX MAY BE COLLECTED AS EARLY AS 12 NOON.", "nsi_id": "unitedstatespostalservice-a77078", "operator": "United States Postal Service", "operator:short": "USPS", "operator:type": "public", "operator:wikidata": "Q668687", "ref": "7596106989"}, "type": "Feature"}
{"dataset_attributes": {"@spider": "usps_collection_boxes", "spider:collection_time": "2023-09-22T08:24:47.468985"}, "geometry": {"coordinates": [-94.6527699, 31.621593], "type": "Point"}, "id": "DNcHyQcz-tErra5UMAQL8Qy1pJg=", "properties": {"@spider": "usps_collection_boxes", "addr:city": "NACOGDOCHES", "addr:country": "US", "addr:full": "2013 NORTH ST", "addr:postcode": "75961", "addr:state": "TX", "amenity": "post_box", "brand": "United States Postal Service", "brand:wikidata": "Q668687", "collection_times": "Mo-Sa 11:30", "name": "USPS COLLECTION BOX - BLUE BOX", "nsi_id": "unitedstatespostalservice-a77078", "operator": "United States Postal Service", "operator:short": "USPS", "operator:type": "public", "operator:wikidata": "Q668687", "ref": "7596106992"}, "type": "Feature"}
{"dataset_attributes": {"@spider": "usps_collection_boxes", "spider:collection_time": "2023-09-22T08:24:47.468985"}, "geometry": {"coordinates": [-94.6565871, 31.603298], "type": "Point"}, "id": "fSWxM3V3Qm0GWl3PqOUafA2wlM8=", "properties": {"@spider": "usps_collection_boxes", "addr:city": "NACOGDOCHES", "addr:country": "US", "addr:full": "101 W MAIN ST", "addr:postcode": "75961", "addr:state": "TX", "amenity": "post_box", "brand": "United States Postal Service", "brand:wikidata": "Q668687", "collection_times": "Mo-Sa 14:30", "name": "USPS COLLECTION BOX - BLUE BOX", "note": "ON 12/24 AND 12/31, THIS BOX MAY BE COLLECTED AS EARLY AS 12 NOON.", "nsi_id": "unitedstatespostalservice-a77078", "operator": "United States Postal Service", "operator:short": "USPS", "operator:type": "public", "operator:wikidata": "Q668687", "ref": "7596106999"}, "type": "Feature"}
{"dataset_attributes": {"@spider": "usps_collection_boxes", "spider:collection_time": "2023-09-22T08:24:47.468985"}, "geometry": {"coordinates": [-94.640333, 31.630938], "type": "Point"}, "id": "TRQoUaQP9B5nS6U3tNzK20qgAzA=", "properties": {"@spider": "usps_collection_boxes", "addr:city": "NACOGDOCHES", "addr:country": "US", "addr:full": "3007 N UNIVERSITY DR", "addr:postcode": "75961", "addr:state": "TX", "amenity": "post_box", "brand": "United States Postal Service", "brand:wikidata": "Q668687", "collection_times": "Mo-Fr 17:00; Sa 16:30", "name": "USPS COLLECTION BOX - APC", "note": "ON 12/24 AND 12/31, THIS BOX MAY BE COLLECTED AS EARLY AS 12 NOON.", "nsi_id": "unitedstatespostalservice-a77078", "operator": "United States Postal Service", "operator:short": "USPS", "operator:type": "public", "operator:wikidata": "Q668687", "ref": "7596107001"}, "type": "Feature"}
{"dataset_attributes": {"@spider": "usps_collection_boxes", "spider:collection_time": "2023-09-22T08:24:47.468985"}, "geometry": {"coordinates": [-94.64040365, 31.630222372], "type": "Point"}, "id": "ddNeWGtihVexmxr4ue9Yfx1xRlk=", "properties": {"@spider": "usps_collection_boxes", "addr:city": "NACODOCHES", "addr:country": "US", "addr:full": "3007 N UNIVERSITY DR", "addr:postcode": "75965", "addr:state": "TX", "amenity": "post_box", "brand": "United States Postal Service", "brand:wikidata": "Q668687", "collection_times": "Mo-Fr 17:00", "name": "USPS COLLECTION BOX - PO LOBBY", "note": "ON 12/24 AND 12/31, THIS BOX MAY BE COLLECTED AS EARLY AS 12 NOON.", "nsi_id": "unitedstatespostalservice-a77078", "operator": "United States Postal Service", "operator:short": "USPS", "operator:type": "public", "operator:wikidata": "Q668687", "ref": "7596500001"}, "type": "Feature"}
{"dataset_attributes": {"@spider": "usps_collection_boxes", "spider:collection_time": "2023-09-22T08:24:47.468985"}, "geometry": {"coordinates": [-93.758926, 30.845037], "type": "Point"}, "id": "Iisx6Fd0L4VKv4ghV-PrOt_tNrc=", "properties": {"@spider": "usps_collection_boxes", "addr:city": "NEWTON", "addr:country": "US", "addr:full": "419 RUSK ST", "addr:postcode": "75966", "addr:state": "TX", "amenity": "post_box", "brand": "United States Postal Service", "brand:wikidata": "Q668687", "collection_times": "Mo-Fr 15:30; Sa 09:00", "name": "USPS COLLECTION BOX - BLUE BOX", "note": "ON 12/24 AND 12/31, THIS BOX MAY BE COLLECTED AS EARLY AS 12 NOON.", "nsi_id": "unitedstatespostalservice-a77078", "operator": "United States Postal Service", "operator:short": "USPS", "operator:type": "public", "operator:wikidata": "Q668687", "ref": "7596606417"}, "type": "Feature"}
{"dataset_attributes": {"@spider": "usps_collection_boxes", "spider:collection_time": "2023-09-22T08:24:47.468985"}, "geometry": {"coordinates": [-93.758926, 30.845037], "type": "Point"}, "id": "TRGVjYn-17ay3FVdBUw4TsJHTuE=", "properties": {"@spider": "usps_collection_boxes", "addr:city": "NEWTON", "addr:country": "US", "addr:full": "419 RUSK ST", "addr:postcode": "75966", "addr:state": "TX", "amenity": "post_box", "brand": "United States Postal Service", "brand:wikidata": "Q668687", "collection_times": "Mo-Fr 15:30; Sa 09:00", "name": "USPS COLLECTION BOX - PO LOBBY", "note": "ON 12/24 AND 12/31, THIS BOX MAY BE COLLECTED AS EARLY AS 12 NOON.", "nsi_id": "unitedstatespostalservice-a77078", "operator": "United States Postal Service", "operator:short": "USPS", "operator:type": "public", "operator:wikidata": "Q668687", "ref": "7596606418"}, "type": "Feature"}
{"dataset_attributes": {"@spider": "usps_collection_boxes", "spider:collection_time": "2023-09-22T08:24:47.468985"}, "geometry": {"coordinates": [-93.7684946, 30.84673], "type": "Point"}, "id": "-Fwn0cUNoKGN0DdweSqgavqUdrM=", "properties": {"@spider": "usps_collection_boxes", "addr:city": "NEWTON", "addr:country": "US", "addr:full": "701 W COURT ST", "addr:postcode": "75966", "addr:state": "TX", "amenity": "post_box", "brand": "United States Postal Service", "brand:wikidata": "Q668687", "collection_times": "Mo-Fr 14:00; Sa 13:00", "name": "USPS COLLECTION BOX - BLUE BOX", "note": "ON 12/24 AND 12/31, THIS BOX MAY BE COLLECTED AS EARLY AS 12 NOON.", "nsi_id": "unitedstatespostalservice-a77078", "operator": "United States Postal Service", "operator:short": "USPS", "operator:type": "public", "operator:wikidata": "Q668687", "ref": "7596606420"}, "type": "Feature"}
{"dataset_attributes": {"@spider": "usps_collection_boxes", "spider:collection_time": "2023-09-22T08:24:47.468985"}, "geometry": {"coordinates": [-93.759353083, 30.8464395758], "type": "Point"}, "id": "3DcVZ3jdmaYD_ZX2FFqn1kVjfD4=", "properties": {"@spider": "usps_collection_boxes", "addr:city": "NEWTON", "addr:country": "US", "addr:full": "419 RUSK ST", "addr:postcode": "75966", "addr:state": "TX", "amenity": "post_box", "brand": "United States Postal Service", "brand:wikidata": "Q668687", "collection_times": "Mo-Fr 15:30", "name": "USPS COLLECTION BOX - PO LOBBY", "note": "ON 12/24 AND 12/31, THIS BOX MAY BE COLLECTED AS EARLY AS 12 NOON.", "nsi_id": "unitedstatespostalservice-a77078", "operator": "United States Postal Service", "operator:short": "USPS", "operator:type": "public", "operator:wikidata": "Q668687", "ref": "7596606421"}, "type": "Feature"}
{"dataset_attributes": {"@spider": "usps_collection_boxes", "spider:collection_time": "2023-09-22T08:24:47.468985"}, "geometry": {"coordinates": [-93.974069969, 31.250689994], "type": "Point"}, "id": "ghb3gwij13U7rn-BUjvV79SYkXg=", "properties": {"@spider": "usps_collection_boxes", "addr:city": "PINELAND", "addr:country": "US", "addr:full": "100 TIMBERLAND HWY", "addr:postcode": "75968", "addr:state": "TX", "amenity": "post_box", "brand": "United States Postal Service", "brand:wikidata": "Q668687", "collection_times": "Mo-Fr 15:30; Sa 10:00", "name": "USPS COLLECTION BOX - BLUE BOX", "note": "ON 12/24 AND 12/31, THIS BOX MAY BE COLLECTED AS EARLY AS 12 NOON.", "nsi_id": "unitedstatespostalservice-a77078", "operator": "United States Postal Service", "operator:short": "USPS", "operator:type": "public", "operator:wikidata": "Q668687", "ref": "7596800001"}, "type": "Feature"}
{"dataset_attributes": {"@spider": "usps_collection_boxes", "spider:collection_time": "2023-09-22T08:24:47.468985"}, "geometry": {"coordinates": [-93.974069969, 31.250689994], "type": "Point"}, "id": "fu_qn9j2cq2nyL97SqGxmrGYsgo=", "properties": {"@spider": "usps_collection_boxes", "addr:city": "PINELAND", "addr:country": "US", "addr:full": "100 TIMBERLAND HWY", "addr:postcode": "75968", "addr:state": "TX", "amenity": "post_box", "brand": "United States Postal Service", "brand:wikidata": "Q668687", "collection_times": "Mo-Fr 15:30; Sa 10:00", "name": "USPS COLLECTION BOX - PO LOBBY", "note": "ON 12/24 AND 12/31, THIS BOX MAY BE COLLECTED AS EARLY AS 12 NOON.", "nsi_id": "unitedstatespostalservice-a77078", "operator": "United States Postal Service", "operator:short": "USPS", "operator:type": "public", "operator:wikidata": "Q668687", "ref": "7596800002"}, "type": "Feature"}
{"dataset_attributes": {"@spider": "usps_collection_boxes", "spider:collection_time": "2023-09-22T08:24:47.468985"}, "geometry": {"coordinates": [-93.974054401, 31.250794653], "type": "Point"}, "id": "Ph7Yzk7U85sxfYRfq-T9nST3pXI=", "properties": {"@spider": "usps_collection_boxes", "addr:city": "PINELAND", "addr:country": "US", "addr:full": "100 TIMBERLAND HWY", "addr:postcode": "75968", "addr:state": "TX", "amenity": "post_box", "brand": "United States Postal Service", "brand:wikidata": "Q668687", "collection_times": "Mo-Fr 15:30", "name": "USPS COLLECTION BOX - PO LOBBY", "note": "ON 12/24 AND 12/31, THIS BOX MAY BE COLLECTED AS EARLY AS 12 NOON.", "nsi_id": "unitedstatespostalservice-a77078", "operator": "United States Postal Service", "operator:short": "USPS", "operator:type": "public", "operator:wikidata": "Q668687", "ref": "7596800004"}, "type": "Feature"}
{"dataset_attributes": {"@spider": "usps_collection_boxes", "spider:collection_time": "2023-09-22T08:24:47.468985"}, "geometry": {"coordinates": [-94.871515, 31.44686], "type": "Point"}, "id": "SI_hOjZtapfV4hHwaLHa07Fwq7Y=", "properties": {"@spider": "usps_collection_boxes", "addr:city": "POLLOK", "addr:country": "US", "addr:full": "533 W STATE HIGHWAY 7", "addr:postcode": "75969", "addr:state": "TX", "amenity": "post_box", "brand": "United States Postal Service", "brand:wikidata": "Q668687", "collection_times": "Mo-Fr 15:00; Sa 09:00", "name": "USPS COLLECTION BOX - BLUE BOX", "note": "ON 12/24 AND 12/31, THIS BOX MAY BE COLLECTED AS EARLY AS 12 NOON.", "nsi_id": "unitedstatespostalservice-a77078", "operator": "United States Postal Service", "operator:short": "USPS", "operator:type": "public", "operator:wikidata": "Q668687", "ref": "7596900000"}, "type": "Feature"}
{"dataset_attributes": {"@spider": "usps_collection_boxes", "spider:collection_time": "2023-09-22T08:24:47.468985"}, "geometry": {"coordinates": [-94.871515, 31.44686], "type": "Point"}, "id": "kUTeeFXZqG7c7DhZXnvl5BlWXGI=", "properties": {"@spider": "usps_collection_boxes", "addr:city": "POLLOK", "addr:country": "US", "addr:full": "533 W STATE HIGHWAY 7", "addr:postcode": "75969", "addr:state": "TX", "amenity": "post_box", "brand": "United States Postal Service", "brand:wikidata": "Q668687", "collection_times": "Mo-Fr 15:00; Sa 09:00", "name": "USPS COLLECTION BOX - PO LOBBY", "note": "ON 12/24 AND 12/31, THIS BOX MAY BE COLLECTED AS EARLY AS 12 NOON.", "nsi_id": "unitedstatespostalservice-a77078", "operator": "United States Postal Service", "operator:short": "USPS", "operator:type": "public", "operator:wikidata": "Q668687", "ref": "7596900001"}, "type": "Feature"}
{"dataset_attributes": {"@spider": "usps_collection_boxes", "spider:collection_time": "2023-09-22T08:24:47.468985"}, "geometry": {"coordinates": [-94.8053409951, 31.4210510941], "type": "Point"}, "id": "yeSYLl7JwE3QfN3XM1LsNU69OyA=", "properties": {"@spider": "usps_collection_boxes", "addr:city": "POLLOK", "addr:country": "US", "addr:full": "6925 N US HIGHWAY 69", "addr:postcode": "75969", "addr:state": "TX", "amenity": "post_box", "brand": "United States Postal Service", "brand:wikidata": "Q668687", "collection_times": "Mo-Sa 11:00", "name": "USPS COLLECTION BOX - BLUE BOX", "nsi_id": "unitedstatespostalservice-a77078", "operator": "United States Postal Service", "operator:short": "USPS", "operator:type": "public", "operator:wikidata": "Q668687", "ref": "7596900002"}, "type": "Feature"}
{"dataset_attributes": {"@spider": "usps_collection_boxes", "spider:collection_time": "2023-09-22T08:24:47.468985"}, "geometry": {"coordinates": [-94.871650146, 31.446711651], "type": "Point"}, "id": "hyaf5WoLSesnrFkB3abc1gM3Jbo=", "properties": {"@spider": "usps_collection_boxes", "addr:city": "POLLOK", "addr:country": "US", "addr:full": "533 W STATE HIGHWAY 7", "addr:postcode": "75969", "addr:state": "TX", "amenity": "post_box", "brand": "United States Postal Service", "brand:wikidata": "Q668687", "collection_times": "Mo-Fr 15:00", "name": "USPS COLLECTION BOX - PO LOBBY", "note": "ON 12/24 AND 12/31, THIS BOX MAY BE COLLECTED AS EARLY AS 12 NOON.", "nsi_id": "unitedstatespostalservice-a77078", "operator": "United States Postal Service", "operator:short": "USPS", "operator:type": "public", "operator:wikidata": "Q668687", "ref": "7596900003"}, "type": "Feature"}
{"dataset_attributes": {"@spider": "usps_collection_boxes", "spider:collection_time": "2023-09-22T08:24:47.468985"}, "geometry": {"coordinates": [-94.111, 31.529615], "type": "Point"}, "id": "JCDRxTJYzZPpNdYtOEqdDOBVnWk=", "properties": {"@spider": "usps_collection_boxes", "addr:city": "SAN AUGUSTINE", "addr:country": "US", "addr:full": "117 W MAIN ST", "addr:postcode": "75972", "addr:state": "TX", "amenity": "post_box", "brand": "United States Postal Service", "brand:wikidata": "Q668687", "collection_times": "Mo-Fr 15:45; Sa 10:00", "name": "USPS COLLECTION BOX - PO LOBBY", "note": "ON 12/24 AND 12/31, THIS BOX MAY BE COLLECTED AS EARLY AS 12 NOON.", "nsi_id": "unitedstatespostalservice-a77078", "operator": "United States Postal Service", "operator:short": "USPS", "operator:type": "public", "operator:wikidata": "Q668687", "ref": "7597206486"}, "type": "Feature"}
{"dataset_attributes": {"@spider": "usps_collection_boxes", "spider:collection_time": "2023-09-22T08:24:47.468985"}, "geometry": {"coordinates": [-94.111, 31.529615], "type": "Point"}, "id": "x-NY_i_VSssdv8WzZFEwzKjWAHg=", "properties": {"@spider": "usps_collection_boxes", "addr:city": "SAN AUGUSTINE", "addr:country": "US", "addr:full": "117 W MAIN ST", "addr:postcode": "75972", "addr:state": "TX", "amenity": "post_box", "brand": "United States Postal Service", "brand:wikidata": "Q668687", "collection_times": "Mo-Fr 15:45; Sa 10:00", "name": "USPS COLLECTION BOX - BLUE BOX", "note": "ON 12/24 AND 12/31, THIS BOX MAY BE COLLECTED AS EARLY AS 12 NOON.", "nsi_id": "unitedstatespostalservice-a77078", "operator": "United States Postal Service", "operator:short": "USPS", "operator:type": "public", "operator:wikidata": "Q668687", "ref": "7597206488"}, "type": "Feature"}
{"dataset_attributes": {"@spider": "usps_collection_boxes", "spider:collection_time": "2023-09-22T08:24:47.468985"}, "geometry": {"coordinates": [-94.111, 31.529615], "type": "Point"}, "id": "WDOeiuvisFxRGJB4g9YzYYApomo=", "properties": {"@spider": "usps_collection_boxes", "addr:city": "SAN AUGUSTINE", "addr:country": "US", "addr:full": "117 W MAIN ST", "addr:postcode": "75972", "addr:state": "TX", "amenity": "post_box", "brand": "United States Postal Service", "brand:wikidata": "Q668687", "collection_times": "Mo-Fr 15:45; Sa 10:00", "name": "USPS COLLECTION BOX - BLUE BOX", "note": "ON 12/24 AND 12/31, THIS BOX MAY BE COLLECTED AS EARLY AS 12 NOON.", "nsi_id": "unitedstatespostalservice-a77078", "operator": "United States Postal Service", "operator:short": "USPS", "operator:type": "public", "operator:wikidata": "Q668687", "ref": "7597206489"}, "type": "Feature"}
{"dataset_attributes": {"@spider": "usps_collection_boxes", "spider:collection_time": "2023-09-22T08:24:47.468985"}, "geometry": {"coordinates": [-94.111053072, 31.529643912], "type": "Point"}, "id": "-X1a2yUnx9C8TmCMLf_-mdu1e_Y=", "properties": {"@spider": "usps_collection_boxes", "addr:city": "SAN AUGUSTINE", "addr:country": "US", "addr:full": "117 W MAIN ST", "addr:postcode": "75972", "addr:state": "TX", "amenity": "post_box", "brand": "United States Postal Service", "brand:wikidata": "Q668687", "collection_times": "Mo-Fr 16:00", "name": "USPS COLLECTION BOX - PO LOBBY", "note": "ON 12/24 AND 12/31, THIS BOX MAY BE COLLECTED AS EARLY AS 12 NOON.", "nsi_id": "unitedstatespostalservice-a77078", "operator": "United States Postal Service", "operator:short": "USPS", "operator:type": "public", "operator:wikidata": "Q668687", "ref": "7597206490"}, "type": "Feature"}
{"dataset_attributes": {"@spider": "usps_collection_boxes", "spider:collection_time": "2023-09-22T08:24:47.468985"}, "geometry": {"coordinates": [-94.078628, 31.760348], "type": "Point"}, "id": "121n5zC6Ar7iYroUw1AHWHDeFAs=", "properties": {"@spider": "usps_collection_boxes", "addr:city": "SHELBYVILLE", "addr:country": "US", "addr:full": "5182 STATE HIGHWAY 87 S", "addr:postcode": "75973", "addr:state": "TX", "amenity": "post_box", "brand": "United States Postal Service", "brand:wikidata": "Q668687", "collection_times": "Mo-Fr 15:30; Sa 09:00", "name": "USPS COLLECTION BOX - BLUE BOX", "note": "ON 12/24 AND 12/31, THIS BOX MAY BE COLLECTED AS EARLY AS 12 NOON.", "nsi_id": "unitedstatespostalservice-a77078", "operator": "United States Postal Service", "operator:short": "USPS", "operator:type": "public", "operator:wikidata": "Q668687", "ref": "7597300001"}, "type": "Feature"}
{"dataset_attributes": {"@spider": "usps_collection_boxes", "spider:collection_time": "2023-09-22T08:24:47.468985"}, "geometry": {"coordinates": [-94.078439, 31.759312], "type": "Point"}, "id": "JpjXS7I_6Ed8JBowQNRcSIEWNm4=", "properties": {"@spider": "usps_collection_boxes", "addr:city": "SHELBYVILLE", "addr:country": "US", "addr:full": "5182 STATE HIGHWAY 87 S", "addr:postcode": "75973", "addr:state": "TX", "amenity": "post_box", "brand": "United States Postal Service", "brand:wikidata": "Q668687", "collection_times": "Mo-Fr 15:30; Sa 09:00", "name": "USPS COLLECTION BOX - PO LOBBY", "note": "ON 12/24 AND 12/31, THIS BOX MAY BE COLLECTED AS EARLY AS 12 NOON.", "nsi_id": "unitedstatespostalservice-a77078", "operator": "United States Postal Service", "operator:short": "USPS", "operator:type": "public", "operator:wikidata": "Q668687", "ref": "7597300002"}, "type": "Feature"}
{"dataset_attributes": {"@spider": "usps_collection_boxes", "spider:collection_time": "2023-09-22T08:24:47.468985"}, "geometry": {"coordinates": [-94.078439, 31.759312], "type": "Point"}, "id": "nQloM2e5xTz-JtdM8o_qr9PIyak=", "properties": {"@spider": "usps_collection_boxes", "addr:city": "SHELBYVILLE", "addr:country": "US", "addr:full": "5182 STATE HIGHWAY 87 S", "addr:postcode": "75973", "addr:state": "TX", "amenity": "post_box", "brand": "United States Postal Service", "brand:wikidata": "Q668687", "collection_times": "Mo-Fr 15:30; Sa 09:00", "name": "USPS COLLECTION BOX - PO LOBBY", "note": "ON 12/24 AND 12/31, THIS BOX MAY BE COLLECTED AS EARLY AS 12 NOON.", "nsi_id": "unitedstatespostalservice-a77078", "operator": "United States Postal Service", "operator:short": "USPS", "operator:type": "public", "operator:wikidata": "Q668687", "ref": "7597300003"}, "type": "Feature"}
{"dataset_attributes": {"@spider": "usps_collection_boxes", "spider:collection_time": "2023-09-22T08:24:47.468985"}, "geometry": {"coordinates": [-94.078453578, 31.759338939], "type": "Point"}, "id": "-b6ICH2VmR_SMPzCavPTu2aEF04=", "properties": {"@spider": "usps_collection_boxes", "addr:city": "SHELBYVILLE", "addr:country": "US", "addr:full": "5182 STATE HIGHWAY 87 S", "addr:postcode": "75973", "addr:state": "TX", "amenity": "post_box", "brand": "United States Postal Service", "brand:wikidata": "Q668687", "collection_times": "Mo-Fr 15:30", "name": "USPS COLLECTION BOX - PO LOBBY", "note": "ON 12/24 AND 12/31, THIS BOX MAY BE COLLECTED AS EARLY AS 12 NOON.", "nsi_id": "unitedstatespostalservice-a77078", "operator": "United States Postal Service", "operator:short": "USPS", "operator:type": "public", "operator:wikidata": "Q668687", "ref": "7597300004"}, "type": "Feature"}
{"dataset_attributes": {"@spider": "usps_collection_boxes", "spider:collection_time": "2023-09-22T08:24:47.468985"}, "geometry": {"coordinates": [-94.2463077, 31.943272], "type": "Point"}, "id": "6mHMSxPQWxopIDFBj0yHbFTV0cQ=", "properties": {"@spider": "usps_collection_boxes", "addr:city": "TENAHA", "addr:country": "US", "addr:full": "152 S GEORGE BOWERS DR", "addr:postcode": "75974", "addr:state": "TX", "amenity": "post_box", "brand": "United States Postal Service", "brand:wikidata": "Q668687", "collection_times": "Mo-Fr 15:00; Sa 09:00", "name": "USPS COLLECTION BOX - BLUE BOX", "note": "ON 12/24 AND 12/31, THIS BOX MAY BE COLLECTED AS EARLY AS 12 NOON.", "nsi_id": "unitedstatespostalservice-a77078", "operator": "United States Postal Service", "operator:short": "USPS", "operator:type": "public", "operator:wikidata": "Q668687", "ref": "7597400000"}, "type": "Feature"}
{"dataset_attributes": {"@spider": "usps_collection_boxes", "spider:collection_time": "2023-09-22T08:24:47.468985"}, "geometry": {"coordinates": [-94.2461455, 31.94313], "type": "Point"}, "id": "rrC-anyDrnU4n6NXaT88CujFuuY=", "properties": {"@spider": "usps_collection_boxes", "addr:city": "TENAHA", "addr:country": "US", "addr:full": "152 S GEORGE BOWERS DR", "addr:postcode": "75974", "addr:state": "TX", "amenity": "post_box", "brand": "United States Postal Service", "brand:wikidata": "Q668687", "collection_times": "Mo-Fr 15:30; Sa 09:00", "name": "USPS COLLECTION BOX - PO LOBBY", "note": "ON 12/24 AND 12/31, THIS BOX MAY BE COLLECTED AS EARLY AS 12 NOON.", "nsi_id": "unitedstatespostalservice-a77078", "operator": "United States Postal Service", "operator:short": "USPS", "operator:type": "public", "operator:wikidata": "Q668687", "ref": "7597400003"}, "type": "Feature"}
{"dataset_attributes": {"@spider": "usps_collection_boxes", "spider:collection_time": "2023-09-22T08:24:47.468985"}, "geometry": {"coordinates": [-94.24600728, 31.942958091], "type": "Point"}, "id": "bb022JureSSW6TsU2eip7bTtXrc=", "properties": {"@spider": "usps_collection_boxes", "addr:city": "TENAHA", "addr:country": "US", "addr:full": "152 S GEORGE BOWERS DR", "addr:postcode": "75974", "addr:state": "TX", "amenity": "post_box", "brand": "United States Postal Service", "brand:wikidata": "Q668687", "collection_times": "Mo-Fr 15:30", "name": "USPS COLLECTION BOX - PO LOBBY", "note": "ON 12/24 AND 12/31, THIS BOX MAY BE COLLECTED AS EARLY AS 12 NOON.", "nsi_id": "unitedstatespostalservice-a77078", "operator": "United States Postal Service", "operator:short": "USPS", "operator:type": "public", "operator:wikidata": "Q668687", "ref": "7597400004"}, "type": "Feature"}
{"dataset_attributes": {"@spider": "usps_collection_boxes", "spider:collection_time": "2023-09-22T08:24:47.468985"}, "geometry": {"coordinates": [-94.3968547, 31.903609], "type": "Point"}, "id": "4741IMrIs1hUB8pBxD1Nkpb7YzU=", "properties": {"@spider": "usps_collection_boxes", "addr:city": "TIMPSON", "addr:country": "US", "addr:full": "437 BEAR DR", "addr:postcode": "75975", "addr:state": "TX", "amenity": "post_box", "brand": "United States Postal Service", "brand:wikidata": "Q668687", "collection_times": "Mo-Fr 16:00; Sa 08:30", "name": "USPS COLLECTION BOX - BLUE BOX", "note": "ON 12/24 AND 12/31, THIS BOX MAY BE COLLECTED AS EARLY AS 12 NOON.", "nsi_id": "unitedstatespostalservice-a77078", "operator": "United States Postal Service", "operator:short": "USPS", "operator:type": "public", "operator:wikidata": "Q668687", "ref": "7597500000"}, "type": "Feature"}
{"dataset_attributes": {"@spider": "usps_collection_boxes", "spider:collection_time": "2023-09-22T08:24:47.468985"}, "geometry": {"coordinates": [-94.3970892, 31.903613], "type": "Point"}, "id": "_lgNFjLYuBuET3lhPWOp48P1wrI=", "properties": {"@spider": "usps_collection_boxes", "addr:city": "TIMPSON", "addr:country": "US", "addr:full": "437 BEAR DR", "addr:postcode": "75975", "addr:state": "TX", "amenity": "post_box", "brand": "United States Postal Service", "brand:wikidata": "Q668687", "collection_times": "Mo-Fr 16:00; Sa 08:30", "name": "USPS COLLECTION BOX - PO LOBBY", "note": "ON 12/24 AND 12/31, THIS BOX MAY BE COLLECTED AS EARLY AS 12 NOON.", "nsi_id": "unitedstatespostalservice-a77078", "operator": "United States Postal Service", "operator:short": "USPS", "operator:type": "public", "operator:wikidata": "Q668687", "ref": "7597500001"}, "type": "Feature"}
{"dataset_attributes": {"@spider": "usps_collection_boxes", "spider:collection_time": "2023-09-22T08:24:47.468985"}, "geometry": {"coordinates": [-94.3968177449, 31.9035904679], "type": "Point"}, "id": "FrxQTU_sWA08a6Ow2YDJBC11vtM=", "properties": {"@spider": "usps_collection_boxes", "addr:city": "TIMPSON", "addr:country": "US", "addr:full": "437 BEAR DR", "addr:postcode": "75975", "addr:state": "TX", "amenity": "post_box", "brand": "United States Postal Service", "brand:wikidata": "Q668687", "collection_times": "Mo-Fr 16:00", "name": "USPS COLLECTION BOX - PO LOBBY", "note": "ON 12/24 AND 12/31, THIS BOX MAY BE COLLECTED AS EARLY AS 12 NOON.", "nsi_id": "unitedstatespostalservice-a77078", "operator": "United States Postal Service", "operator:short": "USPS", "operator:type": "public", "operator:wikidata": "Q668687", "ref": "7597500002"}, "type": "Feature"}
{"dataset_attributes": {"@spider": "usps_collection_boxes", "spider:collection_time": "2023-09-22T08:24:47.468985"}, "geometry": {"coordinates": [-94.935374, 31.486277], "type": "Point"}, "id": "Wyu2ONJM9jQZm3Naj2lWigdVVdo=", "properties": {"@spider": "usps_collection_boxes", "addr:city": "WELLS", "addr:country": "US", "addr:full": "314 RUSK AVE", "addr:postcode": "75976", "addr:state": "TX", "amenity": "post_box", "brand": "United States Postal Service", "brand:wikidata": "Q668687", "collection_times": "Mo-Fr 15:00; Sa 08:00", "name": "USPS COLLECTION BOX - BLUE BOX", "note": "ON 12/24 AND 12/31, THIS BOX MAY BE COLLECTED AS EARLY AS 12 NOON.", "nsi_id": "unitedstatespostalservice-a77078", "operator": "United States Postal Service", "operator:short": "USPS", "operator:type": "public", "operator:wikidata": "Q668687", "ref": "7597600000"}, "type": "Feature"}
{"dataset_attributes": {"@spider": "usps_collection_boxes", "spider:collection_time": "2023-09-22T08:24:47.468985"}, "geometry": {"coordinates": [-94.935272, 31.486262], "type": "Point"}, "id": "GRYX3PENaGen031iwSgZWVIB5yc=", "properties": {"@spider": "usps_collection_boxes", "addr:city": "WELLS", "addr:country": "US", "addr:full": "314 RUSK AVE", "addr:postcode": "75976", "addr:state": "TX", "amenity": "post_box", "brand": "United States Postal Service", "brand:wikidata": "Q668687", "collection_times": "Mo-Fr 15:00; Sa 08:00", "name": "USPS COLLECTION BOX - PO LOBBY", "note": "ON 12/24 AND 12/31, THIS BOX MAY BE COLLECTED AS EARLY AS 12 NOON.", "nsi_id": "unitedstatespostalservice-a77078", "operator": "United States Postal Service", "operator:short": "USPS", "operator:type": "public", "operator:wikidata": "Q668687", "ref": "7597600001"}, "type": "Feature"}
{"dataset_attributes": {"@spider": "usps_collection_boxes", "spider:collection_time": "2023-09-22T08:24:47.468985"}, "geometry": {"coordinates": [-94.945320592, 31.492926264], "type": "Point"}, "id": "5QXEmJJW3d-sCKKkwFL9eXyxmKI=", "properties": {"@spider": "usps_collection_boxes", "addr:city": "WELLS", "addr:country": "US", "addr:full": "314 RUSK AVE", "addr:postcode": "75976", "addr:state": "TX", "amenity": "post_box", "brand": "United States Postal Service", "brand:wikidata": "Q668687", "collection_times": "Mo-Fr 15:00", "name": "USPS COLLECTION BOX - PO LOBBY", "note": "ON 12/24 AND 12/31, THIS BOX MAY BE COLLECTED AS EARLY AS 12 NOON.", "nsi_id": "unitedstatespostalservice-a77078", "operator": "United States Postal Service", "operator:short": "USPS", "operator:type": "public", "operator:wikidata": "Q668687", "ref": "7597600003"}, "type": "Feature"}
{"dataset_attributes": {"@spider": "usps_collection_boxes", "spider:collection_time": "2023-09-22T08:24:47.468985"}, "geometry": {"coordinates": [-93.706382, 31.008464], "type": "Point"}, "id": "3By0ZW1w4y-lPzgbd9iSbJQKn6k=", "properties": {"@spider": "usps_collection_boxes", "addr:city": "WIERGATE", "addr:country": "US", "addr:full": "983 FM 1415", "addr:postcode": "75977", "addr:state": "TX", "amenity": "post_box", "brand": "United States Postal Service", "brand:wikidata": "Q668687", "collection_times": "Mo-Sa 15:00", "name": "USPS COLLECTION BOX - BLUE BOX", "note": "ON 12/24 AND 12/31, THIS BOX MAY BE COLLECTED AS EARLY AS 12 NOON.", "nsi_id": "unitedstatespostalservice-a77078", "operator": "United States Postal Service", "operator:short": "USPS", "operator:type": "public", "operator:wikidata": "Q668687", "ref": "7597700000"}, "type": "Feature"}
{"dataset_attributes": {"@spider": "usps_collection_boxes", "spider:collection_time": "2023-09-22T08:24:47.468985"}, "geometry": {"coordinates": [-93.706382, 31.008464], "type": "Point"}, "id": "MaJdzQLrukSmCEG29KkTacQ43Eg=", "properties": {"@spider": "usps_collection_boxes", "addr:city": "WIERGATE", "addr:country": "US", "addr:full": "983 FM 1415", "addr:postcode": "75977", "addr:state": "TX", "amenity": "post_box", "brand": "United States Postal Service", "brand:wikidata": "Q668687", "collection_times": "Mo-Fr 11:30; Sa 08:30", "name": "USPS COLLECTION BOX - PO LOBBY", "nsi_id": "unitedstatespostalservice-a77078", "operator": "United States Postal Service", "operator:short": "USPS", "operator:type": "public", "operator:wikidata": "Q668687", "ref": "7597700001"}, "type": "Feature"}
{"dataset_attributes": {"@spider": "usps_collection_boxes", "spider:collection_time": "2023-09-22T08:24:47.468985"}, "geometry": {"coordinates": [-93.706609133, 31.007517643], "type": "Point"}, "id": "BQo0IoTPZTmebTwIt7L4eh0tn5E=", "properties": {"@spider": "usps_collection_boxes", "addr:city": "WIERGATE", "addr:country": "US", "addr:full": "983 FM 1415", "addr:postcode": "75977", "addr:state": "TX", "amenity": "post_box", "brand": "United States Postal Service", "brand:wikidata": "Q668687", "collection_times": "Mo-Fr 12:00", "name": "USPS COLLECTION BOX - PO LOBBY", "nsi_id": "unitedstatespostalservice-a77078", "operator": "United States Postal Service", "operator:short": "USPS", "operator:type": "public", "operator:wikidata": "Q668687", "ref": "7597700003"}, "type": "Feature"}
{"dataset_attributes": {"@spider": "usps_collection_boxes", "spider:collection_time": "2023-09-22T08:24:47.468985"}, "geometry": {"coordinates": [-94.530776, 31.505839], "type": "Point"}, "id": "ekBW-NC17CzWcoEJJD9b-u8aWk0=", "properties": {"@spider": "usps_collection_boxes", "addr:city": "WODEN", "addr:country": "US", "addr:full": "5148 FM 226", "addr:postcode": "75978", "addr:state": "TX", "amenity": "post_box", "brand": "United States Postal Service", "brand:wikidata": "Q668687", "collection_times": "Mo-Sa 14:30", "name": "USPS COLLECTION BOX - BLUE BOX", "note": "ON 12/24 AND 12/31, THIS BOX MAY BE COLLECTED AS EARLY AS 12 NOON.", "nsi_id": "unitedstatespostalservice-a77078", "operator": "United States Postal Service", "operator:short": "USPS", "operator:type": "public", "operator:wikidata": "Q668687", "ref": "7597800000"}, "type": "Feature"}
{"dataset_attributes": {"@spider": "usps_collection_boxes", "spider:collection_time": "2023-09-22T08:24:47.468985"}, "geometry": {"coordinates": [-94.530724, 31.505812], "type": "Point"}, "id": "YG-9-2lbG3hhfG5q3SmB35VxpNM=", "properties": {"@spider": "usps_collection_boxes", "addr:city": "WODEN", "addr:country": "US", "addr:full": "5148 FM 226", "addr:postcode": "75978", "addr:state": "TX", "amenity": "post_box", "brand": "United States Postal Service", "brand:wikidata": "Q668687", "collection_times": "Mo-Fr 12:30; Sa 09:00", "name": "USPS COLLECTION BOX - PO LOBBY", "note": "ON 12/24 AND 12/31, THIS BOX MAY BE COLLECTED AS EARLY AS 12 NOON.", "nsi_id": "unitedstatespostalservice-a77078", "operator": "United States Postal Service", "operator:short": "USPS", "operator:type": "public", "operator:wikidata": "Q668687", "ref": "7597800001"}, "type": "Feature"}
{"dataset_attributes": {"@spider": "usps_collection_boxes", "spider:collection_time": "2023-09-22T08:24:47.468985"}, "geometry": {"coordinates": [-94.530920415, 31.506063245], "type": "Point"}, "id": "Zn18GB0OXefXSJCirXnGOqvtZr4=", "properties": {"@spider": "usps_collection_boxes", "addr:city": "WODEN", "addr:country": "US", "addr:full": "5148 FM 226", "addr:postcode": "75978", "addr:state": "TX", "amenity": "post_box", "brand": "United States Postal Service", "brand:wikidata": "Q668687", "collection_times": "Mo-Fr 13:00", "name": "USPS COLLECTION BOX - PO LOBBY", "note": "ON 12/24 AND 12/31, THIS BOX MAY BE COLLECTED AS EARLY AS 12 NOON.", "nsi_id": "unitedstatespostalservice-a77078", "operator": "United States Postal Service", "operator:short": "USPS", "operator:type": "public", "operator:wikidata": "Q668687", "ref": "7597800003"}, "type": "Feature"}
{"dataset_attributes": {"@spider": "usps_collection_boxes", "spider:collection_time": "2023-09-22T08:24:47.468985"}, "geometry": {"coordinates": [-94.4190533, 30.763792], "type": "Point"}, "id": "P1AZSaiyyp_XES0AAXpXrpvHyiY=", "properties": {"@spider": "usps_collection_boxes", "addr:city": "WOODVILLE", "addr:country": "US", "addr:full": "115 COBB MILL RD", "addr:postcode": "75979", "addr:state": "TX", "amenity": "post_box", "brand": "United States Postal Service", "brand:wikidata": "Q668687", "collection_times": "Mo-Sa 09:00", "name": "USPS COLLECTION BOX - BLUE BOX", "nsi_id": "unitedstatespostalservice-a77078", "operator": "United States Postal Service", "operator:short": "USPS", "operator:type": "public", "operator:wikidata": "Q668687", "ref": "7597906411"}, "type": "Feature"}
{"dataset_attributes": {"@spider": "usps_collection_boxes", "spider:collection_time": "2023-09-22T08:24:47.468985"}, "geometry": {"coordinates": [-94.4161308, 30.774508], "type": "Point"}, "id": "8NfTW4enXhpDrCbYKEM48sWr2Hc=", "properties": {"@spider": "usps_collection_boxes", "addr:city": "WOODVILLE", "addr:country": "US", "addr:full": "130 S CHARLTON ST", "addr:postcode": "75979", "addr:state": "TX", "amenity": "post_box", "brand": "United States Postal Service", "brand:wikidata": "Q668687", "collection_times": "Mo-Sa 08:00", "name": "USPS COLLECTION BOX - BLUE BOX", "nsi_id": "unitedstatespostalservice-a77078", "operator": "United States Postal Service", "operator:short": "USPS", "operator:type": "public", "operator:wikidata": "Q668687", "ref": "7597906413"}, "type": "Feature"}
{"dataset_attributes": {"@spider": "usps_collection_boxes", "spider:collection_time": "2023-09-22T08:24:47.468985"}, "geometry": {"coordinates": [-94.417911, 30.774342], "type": "Point"}, "id": "5z5YJLo2UoQuQMQfS2NRL9934sA=", "properties": {"@spider": "usps_collection_boxes", "addr:city": "WOODVILLE", "addr:country": "US", "addr:full": "307 W WHEAT ST", "addr:postcode": "75979", "addr:state": "TX", "amenity": "post_box", "brand": "United States Postal Service", "brand:wikidata": "Q668687", "collection_times": "Mo-Fr 15:00; Sa 09:00", "name": "USPS COLLECTION BOX - BLUE BOX", "note": "ON 12/24 AND 12/31, THIS BOX MAY BE COLLECTED AS EARLY AS 12 NOON.", "nsi_id": "unitedstatespostalservice-a77078", "operator": "United States Postal Service", "operator:short": "USPS", "operator:type": "public", "operator:wikidata": "Q668687", "ref": "7597906414"}, "type": "Feature"}
{"dataset_attributes": {"@spider": "usps_collection_boxes", "spider:collection_time": "2023-09-22T08:24:47.468985"}, "geometry": {"coordinates": [-94.417911, 30.774342], "type": "Point"}, "id": "_bikzqn0SK8aOyxfzKwcHzzMAD4=", "properties": {"@spider": "usps_collection_boxes", "addr:city": "WOODVILLE", "addr:country": "US", "addr:full": "307 W WHEAT ST", "addr:postcode": "75979", "addr:state": "TX", "amenity": "post_box", "brand": "United States Postal Service", "brand:wikidata": "Q668687", "collection_times": "Mo-Fr 15:00; Sa 09:00", "name": "USPS COLLECTION BOX - BLUE BOX", "note": "ON 12/24 AND 12/31, THIS BOX MAY BE COLLECTED AS EARLY AS 12 NOON.", "nsi_id": "unitedstatespostalservice-a77078", "operator": "United States Postal Service", "operator:short": "USPS", "operator:type": "public", "operator:wikidata": "Q668687", "ref": "7597906416"}, "type": "Feature"}
{"dataset_attributes": {"@spider": "usps_collection_boxes", "spider:collection_time": "2023-09-22T08:24:47.468985"}, "geometry": {"coordinates": [-94.417911, 30.774342], "type": "Point"}, "id": "C24b_Ui8QmEEr5KHGhiOtD_CMT8=", "properties": {"@spider": "usps_collection_boxes", "addr:city": "WOODVILLE", "addr:country": "US", "addr:full": "307 W WHEAT ST", "addr:postcode": "75979", "addr:state": "TX", "amenity": "post_box", "brand": "United States Postal Service", "brand:wikidata": "Q668687", "collection_times": "Mo-Fr 15:00; Sa 09:00", "name": "USPS COLLECTION BOX - PO LOBBY", "note": "ON 12/24 AND 12/31, THIS BOX MAY BE COLLECTED AS EARLY AS 12 NOON.", "nsi_id": "unitedstatespostalservice-a77078", "operator": "United States Postal Service", "operator:short": "USPS", "operator:type": "public", "operator:wikidata": "Q668687", "ref": "7597906417"}, "type": "Feature"}
{"dataset_attributes": {"@spider": "usps_collection_boxes", "spider:collection_time": "2023-09-22T08:24:47.468985"}, "geometry": {"coordinates": [-94.417911, 30.774342], "type": "Point"}, "id": "RJFCL8S7q741tlnYbWNhWC6dysM=", "properties": {"@spider": "usps_collection_boxes", "addr:city": "WOODVILLE", "addr:country": "US", "addr:full": "307 W WHEAT ST", "addr:postcode": "75979", "addr:state": "TX", "amenity": "post_box", "brand": "United States Postal Service", "brand:wikidata": "Q668687", "collection_times": "Mo-Fr 15:00; Sa 09:00", "name": "USPS COLLECTION BOX - PO LOBBY", "note": "ON 12/24 AND 12/31, THIS BOX MAY BE COLLECTED AS EARLY AS 12 NOON.", "nsi_id": "unitedstatespostalservice-a77078", "operator": "United States Postal Service", "operator:short": "USPS", "operator:type": "public", "operator:wikidata": "Q668687", "ref": "7597906419"}, "type": "Feature"}
{"dataset_attributes": {"@spider": "usps_collection_boxes", "spider:collection_time": "2023-09-22T08:24:47.468985"}, "geometry": {"coordinates": [-94.417213332, 30.774352547], "type": "Point"}, "id": "_kr-a873hAgO98f5ybe0GN6aVb0=", "properties": {"@spider": "usps_collection_boxes", "addr:city": "WOODVILLE", "addr:country": "US", "addr:full": "307 W WHEAT ST", "addr:postcode": "75979", "addr:state": "TX", "amenity": "post_box", "brand": "United States Postal Service", "brand:wikidata": "Q668687", "collection_times": "Mo-Sa 15:45", "name": "USPS COLLECTION BOX - PO LOBBY", "note": "ON 12/24 AND 12/31, THIS BOX MAY BE COLLECTED AS EARLY AS 12 NOON.", "nsi_id": "unitedstatespostalservice-a77078", "operator": "United States Postal Service", "operator:short": "USPS", "operator:type": "public", "operator:wikidata": "Q668687", "ref": "7597906420"}, "type": "Feature"}
{"dataset_attributes": {"@spider": "usps_collection_boxes", "spider:collection_time": "2023-09-22T08:24:47.468985"}, "geometry": {"coordinates": [-94.423929, 31.158622], "type": "Point"}, "id": "9WCur-2MUxyhMK_5rt8Z8ZFn3bQ=", "properties": {"@spider": "usps_collection_boxes", "addr:city": "ZAVALLA", "addr:country": "US", "addr:full": "247 E MAIN ST", "addr:postcode": "75980", "addr:state": "TX", "amenity": "post_box", "brand": "United States Postal Service", "brand:wikidata": "Q668687", "collection_times": "Mo-Fr 16:00; Sa 09:30", "name": "USPS COLLECTION BOX - BLUE BOX", "note": "ON 12/24 AND 12/31, THIS BOX MAY BE COLLECTED AS EARLY AS 12 NOON.", "nsi_id": "unitedstatespostalservice-a77078", "operator": "United States Postal Service", "operator:short": "USPS", "operator:type": "public", "operator:wikidata": "Q668687", "ref": "7598000000"}, "type": "Feature"}
{"dataset_attributes": {"@spider": "usps_collection_boxes", "spider:collection_time": "2023-09-22T08:24:47.468985"}, "geometry": {"coordinates": [-94.423929, 31.158622], "type": "Point"}, "id": "smdUOuFDQKx2uwQIP0Au-i3M9PI=", "properties": {"@spider": "usps_collection_boxes", "addr:city": "ZAVALLA", "addr:country": "US", "addr:full": "247 E MAIN ST", "addr:postcode": "75980", "addr:state": "TX", "amenity": "post_box", "brand": "United States Postal Service", "brand:wikidata": "Q668687", "collection_times": "Mo-Fr 16:00; Sa 09:30", "name": "USPS COLLECTION BOX - PO LOBBY", "note": "ON 12/24 AND 12/31, THIS BOX MAY BE COLLECTED AS EARLY AS 12 NOON.", "nsi_id": "unitedstatespostalservice-a77078", "operator": "United States Postal Service", "operator:short": "USPS", "operator:type": "public", "operator:wikidata": "Q668687", "ref": "7598000001"}, "type": "Feature"}
{"dataset_attributes": {"@spider": "usps_collection_boxes", "spider:collection_time": "2023-09-22T08:24:47.468985"}, "geometry": {"coordinates": [-94.423929, 31.158622], "type": "Point"}, "id": "OWYzcypae8OySuJplyuSbPysGeY=", "properties": {"@spider": "usps_collection_boxes", "addr:city": "ZAVALLA", "addr:country": "US", "addr:full": "247 E MAIN ST", "addr:postcode": "75980", "addr:state": "TX", "amenity": "post_box", "brand": "United States Postal Service", "brand:wikidata": "Q668687", "collection_times": "Mo-Fr 16:00; Sa 09:30", "name": "USPS COLLECTION BOX - PO LOBBY", "note": "ON 12/24 AND 12/31, THIS BOX MAY BE COLLECTED AS EARLY AS 12 NOON.", "nsi_id": "unitedstatespostalservice-a77078", "operator": "United States Postal Service", "operator:short": "USPS", "operator:type": "public", "operator:wikidata": "Q668687", "ref": "7598000002"}, "type": "Feature"}
{"dataset_attributes": {"@spider": "usps_collection_boxes", "spider:collection_time": "2023-09-22T08:24:47.468985"}, "geometry": {"coordinates": [-94.424031283, 31.158609464], "type": "Point"}, "id": "N2ekunkwSGVOmE5Ezc6-ILDeCrc=", "properties": {"@spider": "usps_collection_boxes", "addr:city": "ZAVALLA", "addr:country": "US", "addr:full": "247 E MAIN ST", "addr:postcode": "75980", "addr:state": "TX", "amenity": "post_box", "brand": "United States Postal Service", "brand:wikidata": "Q668687", "collection_times": "Mo-Fr 16:00", "name": "USPS COLLECTION BOX - PO LOBBY", "note": "ON 12/24 AND 12/31, THIS BOX MAY BE COLLECTED AS EARLY AS 12 NOON.", "nsi_id": "unitedstatespostalservice-a77078", "operator": "United States Postal Service", "operator:short": "USPS", "operator:type": "public", "operator:wikidata": "Q668687", "ref": "7598000003"}, "type": "Feature"}
