{"geometry": {"coordinates": [-97.3429370748, 32.7423730442], "type": "Point"}, "id": "X1kA_oEn1_-nT-HOi1nQVOyX_ms=", "properties": {"@source_uri": "https://tools.usps.com/UspsToolsRestServices/rest/POLocator/findLocations", "@spider": "usps_collection_boxes", "addr:city": "FORT WORTH", "addr:country": "US", "addr:postcode": "76102", "addr:state": "TX", "addr:street_address": "1501 W DAGGETT AVE", "amenity": "post_box", "collection_times": "Mo-Fr 11:00", "nsi_id": "unitedstatespostalservice-a77078", "operator": "United States Postal Service", "operator:short": "USPS", "operator:type": "public", "operator:wikidata": "Q668687", "ref": "7610200023"}, "type": "Feature"}
{"geometry": {"coordinates": [-97.3267749, 32.752406], "type": "Point"}, "id": "iXJhFpIsEksshm1Zsq_mrfvg2r4=", "properties": {"@source_uri": "https://tools.usps.com/UspsToolsRestServices/rest/POLocator/findLocations", "@spider": "usps_collection_boxes", "addr:city": "FORT WORTH", "addr:country": "US", "addr:postcode": "76102", "addr:state": "TX", "addr:street_address": "1000 JONES ST", "amenity": "post_box", "collection_times": "Mo-Fr 11:00", "nsi_id": "unitedstatespostalservice-a77078", "operator": "United States Postal Service", "operator:short": "USPS", "operator:type": "public", "operator:wikidata": "Q668687", "ref": "7610200039"}, "type": "Feature"}
{"geometry": {"coordinates": [-97.3361321575, 32.7556236692], "type": "Point"}, "id": "VEB6RoxhfqNOGpzOVsVEqUKvrTo=", "properties": {"@source_uri": "https://tools.usps.com/UspsToolsRestServices/rest/POLocator/findLocations", "@spider": "usps_collection_boxes", "addr:city": "FORT WORTH", "addr:country": "US", "addr:postcode": "76102", "addr:state": "TX", "addr:street_address": "100 N LAMAR ST", "amenity": "post_box", "collection_times": "Mo-Fr 15:00", "note": "ON 12/24 AND 12/31, THIS BOX MAY BE COLLECTED AS EARLY AS 12 NOON.", "nsi_id": "unitedstatespostalservice-a77078", "operator": "United States Postal Service", "operator:short": "USPS", "operator:type": "public", "operator:wikidata": "Q668687", "ref": "7610200049"}, "type": "Feature"}
{"geometry": {"coordinates": [-97.3249994, 32.748399], "type": "Point"}, "id": "IDLYXP2BwAQ67KmWr-urIZ93ZHU=", "properties": {"@source_uri": "https://tools.usps.com/UspsToolsRestServices/rest/POLocator/findLocations", "@spider": "usps_collection_boxes", "addr:city": "FORT WORTH", "addr:country": "US", "addr:postcode": "76102", "addr:state": "TX", "addr:street_address": "1520 CALHOUN ST", "amenity": "post_box", "collection_times": "Mo-Fr 11:00", "nsi_id": "unitedstatespostalservice-a77078", "operator": "United States Postal Service", "operator:short": "USPS", "operator:type": "public", "operator:wikidata": "Q668687", "ref": "7610200055"}, "type": "Feature"}
{"geometry": {"coordinates": [-97.3248139663, 32.7606890131], "type": "Point"}, "id": "8KSPJyxjwP-AYy6j-51t61TatT4=", "properties": {"@source_uri": "https://tools.usps.com/UspsToolsRestServices/rest/POLocator/findLocations", "@spider": "usps_collection_boxes", "addr:city": "FORT WORTH", "addr:country": "US", "addr:postcode": "76102", "addr:state": "TX", "addr:street_address": "1110 E WEATHERFORD ST", "amenity": "post_box", "collection_times": "Mo-Fr 12:30; Sa 12:45", "note": "ON 12/24 AND 12/31, THIS BOX MAY BE COLLECTED AS EARLY AS 12 NOON.", "nsi_id": "unitedstatespostalservice-a77078", "operator": "United States Postal Service", "operator:short": "USPS", "operator:type": "public", "operator:wikidata": "Q668687", "ref": "7610200059"}, "type": "Feature"}
{"geometry": {"coordinates": [-97.3300059686, 32.7582839936], "type": "Point"}, "id": "8z2yAKFj6-ekgjyhIhiOj1eLDmg=", "properties": {"@source_uri": "https://tools.usps.com/UspsToolsRestServices/rest/POLocator/findLocations", "@spider": "usps_collection_boxes", "addr:city": "FORT WORTH", "addr:country": "US", "addr:postcode": "76102", "addr:state": "TX", "addr:street_address": "410 E WEATHERFORD ST", "amenity": "post_box", "collection_times": "Mo-Fr 12:00; Sa 12:15", "note": "ON 12/24 AND 12/31, THIS BOX MAY BE COLLECTED AS EARLY AS 12 NOON.", "nsi_id": "unitedstatespostalservice-a77078", "operator": "United States Postal Service", "operator:short": "USPS", "operator:type": "public", "operator:wikidata": "Q668687", "ref": "7610200060"}, "type": "Feature"}
{"geometry": {"coordinates": [-97.3288666, 32.755525], "type": "Point"}, "id": "cIDJzeEPDDdEh3mOnRZG3Luivvo=", "properties": {"@source_uri": "https://tools.usps.com/UspsToolsRestServices/rest/POLocator/findLocations", "@spider": "usps_collection_boxes", "addr:city": "FORT WORTH", "addr:country": "US", "addr:postcode": "76102", "addr:state": "TX", "addr:street_address": "500 JONES ST", "amenity": "post_box", "collection_times": "Mo-Fr 15:00", "note": "ON 12/24 AND 12/31, THIS BOX MAY BE COLLECTED AS EARLY AS 12 NOON.", "nsi_id": "unitedstatespostalservice-a77078", "operator": "United States Postal Service", "operator:short": "USPS", "operator:type": "public", "operator:wikidata": "Q668687", "ref": "7610200064"}, "type": "Feature"}
{"geometry": {"coordinates": [-97.3422029788, 32.7455970192], "type": "Point"}, "id": "ZESuQ-Aa8cuzuj9MKTw_MAt9SV8=", "properties": {"@source_uri": "https://tools.usps.com/UspsToolsRestServices/rest/POLocator/findLocations", "@spider": "usps_collection_boxes", "addr:city": "FORT WORTH", "addr:country": "US", "addr:postcode": "76102", "addr:state": "TX", "addr:street_address": "1300 SUMMIT AVE", "amenity": "post_box", "collection_times": "Mo-Fr 11:15", "nsi_id": "unitedstatespostalservice-a77078", "operator": "United States Postal Service", "operator:short": "USPS", "operator:type": "public", "operator:wikidata": "Q668687", "ref": "7610200071"}, "type": "Feature"}
{"geometry": {"coordinates": [-97.3309030636, 32.7555408746], "type": "Point"}, "id": "cc0MUoHa0M5Gha2XSZgNzgnMw-I=", "properties": {"@source_uri": "https://tools.usps.com/UspsToolsRestServices/rest/POLocator/findLocations", "@spider": "usps_collection_boxes", "addr:city": "FORT WORTH", "addr:country": "US", "addr:postcode": "76102", "addr:state": "TX", "addr:street_address": "101 E 3RD ST", "amenity": "post_box", "collection_times": "Mo-Fr 15:00", "note": "ON 12/24 AND 12/31, THIS BOX MAY BE COLLECTED AS EARLY AS 12 NOON.", "nsi_id": "unitedstatespostalservice-a77078", "operator": "United States Postal Service", "operator:short": "USPS", "operator:type": "public", "operator:wikidata": "Q668687", "ref": "7610200112"}, "type": "Feature"}
{"geometry": {"coordinates": [-97.3547480057, 32.7396169923], "type": "Point"}, "id": "XSn8x9aVypykzdYD1P9yUeZFpLo=", "properties": {"@source_uri": "https://tools.usps.com/UspsToolsRestServices/rest/POLocator/findLocations", "@spider": "usps_collection_boxes", "addr:city": "FORT WORTH", "addr:country": "US", "addr:postcode": "76102", "addr:state": "TX", "addr:street_address": "2501 PARKVIEW DR", "amenity": "post_box", "collection_times": "Mo-Fr 15:45", "note": "ON 12/24 AND 12/31, THIS BOX MAY BE COLLECTED AS EARLY AS 12 NOON.", "nsi_id": "unitedstatespostalservice-a77078", "operator": "United States Postal Service", "operator:short": "USPS", "operator:type": "public", "operator:wikidata": "Q668687", "ref": "7610200131"}, "type": "Feature"}
{"geometry": {"coordinates": [-97.332215, 32.7545988], "type": "Point"}, "id": "HpDvDpUmkJka4v6JjfiZ-WGqQCw=", "properties": {"@source_uri": "https://tools.usps.com/UspsToolsRestServices/rest/POLocator/findLocations", "@spider": "usps_collection_boxes", "addr:city": "FORT WORTH", "addr:country": "US", "addr:postcode": "76102", "addr:state": "TX", "addr:street_address": "1315 W EL PASO ST", "amenity": "post_box", "collection_times": "Mo-Fr 15:00", "note": "ON 12/24 AND 12/31, THIS BOX MAY BE COLLECTED AS EARLY AS 12 NOON.", "nsi_id": "unitedstatespostalservice-a77078", "operator": "United States Postal Service", "operator:short": "USPS", "operator:type": "public", "operator:wikidata": "Q668687", "ref": "7610200149"}, "type": "Feature"}
{"geometry": {"coordinates": [-97.3413899, 32.744997], "type": "Point"}, "id": "JkmP9eVetVCA0m49Y49c8FHusIE=", "properties": {"@source_uri": "https://tools.usps.com/UspsToolsRestServices/rest/POLocator/findLocations", "@spider": "usps_collection_boxes", "addr:city": "FORT WORTH", "addr:country": "US", "addr:postcode": "76102", "addr:state": "TX", "addr:street_address": "1400 W EL PASO ST", "amenity": "post_box", "collection_times": "Mo-Fr 15:00", "note": "ON 12/24 AND 12/31, THIS BOX MAY BE COLLECTED AS EARLY AS 12 NOON.", "nsi_id": "unitedstatespostalservice-a77078", "operator": "United States Postal Service", "operator:short": "USPS", "operator:type": "public", "operator:wikidata": "Q668687", "ref": "7610200151"}, "type": "Feature"}
{"geometry": {"coordinates": [-97.3294599714, 32.7462039947], "type": "Point"}, "id": "sn_Y0QbN42qD_FKcoKur21va3oI=", "properties": {"@source_uri": "https://tools.usps.com/UspsToolsRestServices/rest/POLocator/findLocations", "@spider": "usps_collection_boxes", "addr:city": "FORT WORTH", "addr:country": "US", "addr:postcode": "76102", "addr:state": "TX", "addr:street_address": "251 W LANCASTER AVE", "amenity": "post_box", "collection_times": "Mo-Fr 18:00; Sa 15:00", "indoor": "yes", "note": "ON 12/24 AND 12/31, THIS BOX MAY BE COLLECTED AS EARLY AS 12 NOON.", "nsi_id": "unitedstatespostalservice-a77078", "operator": "United States Postal Service", "operator:short": "USPS", "operator:type": "public", "operator:wikidata": "Q668687", "ref": "7610200159"}, "type": "Feature"}
{"geometry": {"coordinates": [-97.3294599714, 32.7462039947], "type": "Point"}, "id": "NB6GU4_MS04yuFpezh_wj_Egw8g=", "properties": {"@source_uri": "https://tools.usps.com/UspsToolsRestServices/rest/POLocator/findLocations", "@spider": "usps_collection_boxes", "addr:city": "FORT WORTH", "addr:country": "US", "addr:postcode": "76102", "addr:state": "TX", "addr:street_address": "251 W LANCASTER AVE", "amenity": "post_box", "collection_times": "Mo-Fr 18:00; Sa 15:00", "indoor": "yes", "note": "ON 12/24 AND 12/31, THIS BOX MAY BE COLLECTED AS EARLY AS 12 NOON.", "nsi_id": "unitedstatespostalservice-a77078", "operator": "United States Postal Service", "operator:short": "USPS", "operator:type": "public", "operator:wikidata": "Q668687", "ref": "7610200160"}, "type": "Feature"}
{"geometry": {"coordinates": [-97.3294599714, 32.7462039947], "type": "Point"}, "id": "t9V5YQcS2k7MrjYQ0FVOU9XwKak=", "properties": {"@source_uri": "https://tools.usps.com/UspsToolsRestServices/rest/POLocator/findLocations", "@spider": "usps_collection_boxes", "addr:city": "FORT WORTH", "addr:country": "US", "addr:postcode": "76102", "addr:state": "TX", "addr:street_address": "251 W LANCASTER AVE", "amenity": "post_box", "collection_times": "Mo-Fr 18:00; Sa 15:00", "indoor": "yes", "note": "ON 12/24 AND 12/31, THIS BOX MAY BE COLLECTED AS EARLY AS 12 NOON.", "nsi_id": "unitedstatespostalservice-a77078", "operator": "United States Postal Service", "operator:short": "USPS", "operator:type": "public", "operator:wikidata": "Q668687", "ref": "7610200161"}, "type": "Feature"}
{"geometry": {"coordinates": [-97.3294599714, 32.7462039947], "type": "Point"}, "id": "uo7QL5T8M-I8_CL57jz-8cpNfIg=", "properties": {"@source_uri": "https://tools.usps.com/UspsToolsRestServices/rest/POLocator/findLocations", "@spider": "usps_collection_boxes", "addr:city": "FORT WORTH", "addr:country": "US", "addr:postcode": "76102", "addr:state": "TX", "addr:street_address": "251 W LANCASTER AVE", "amenity": "post_box", "collection_times": "Mo-Fr 18:00; Sa 15:00", "indoor": "yes", "note": "ON 12/24 AND 12/31, THIS BOX MAY BE COLLECTED AS EARLY AS 12 NOON.", "nsi_id": "unitedstatespostalservice-a77078", "operator": "United States Postal Service", "operator:short": "USPS", "operator:type": "public", "operator:wikidata": "Q668687", "ref": "7610200162"}, "type": "Feature"}
{"geometry": {"coordinates": [-97.3294599714, 32.7462039947], "type": "Point"}, "id": "-80Cpn6_xTRw2BJ1h9Iezi0s98E=", "properties": {"@source_uri": "https://tools.usps.com/UspsToolsRestServices/rest/POLocator/findLocations", "@spider": "usps_collection_boxes", "addr:city": "FORT WORTH", "addr:country": "US", "addr:postcode": "76102", "addr:state": "TX", "addr:street_address": "251 W LANCASTER AVE", "amenity": "post_box", "collection_times": "Mo-Fr 18:00; Sa 15:00", "indoor": "yes", "note": "ON 12/24 AND 12/31, THIS BOX MAY BE COLLECTED AS EARLY AS 12 NOON.", "nsi_id": "unitedstatespostalservice-a77078", "operator": "United States Postal Service", "operator:short": "USPS", "operator:type": "public", "operator:wikidata": "Q668687", "ref": "7610200163"}, "type": "Feature"}
{"geometry": {"coordinates": [-97.3314090154, 32.7505749896], "type": "Point"}, "id": "pbykRoQmH3DFXFY25AC7IUzrhhY=", "properties": {"@source_uri": "https://tools.usps.com/UspsToolsRestServices/rest/POLocator/findLocations", "@spider": "usps_collection_boxes", "addr:city": "FORT WORTH", "addr:country": "US", "addr:postcode": "76102", "addr:state": "TX", "addr:street_address": "819 TAYLOR ST", "amenity": "post_box", "collection_times": "Mo-Fr 17:30", "indoor": "yes", "note": "ON 12/24 AND 12/31, THIS BOX MAY BE COLLECTED AS EARLY AS 12 NOON.", "nsi_id": "unitedstatespostalservice-a77078", "operator": "United States Postal Service", "operator:short": "USPS", "operator:type": "public", "operator:wikidata": "Q668687", "ref": "7610200165"}, "type": "Feature"}
{"geometry": {"coordinates": [-97.3314090154, 32.7505749896], "type": "Point"}, "id": "uLxnQRUCOS-i8RUZKZmf72nZoLQ=", "properties": {"@source_uri": "https://tools.usps.com/UspsToolsRestServices/rest/POLocator/findLocations", "@spider": "usps_collection_boxes", "addr:city": "FORT WORTH", "addr:country": "US", "addr:postcode": "76102", "addr:state": "TX", "addr:street_address": "819 TAYLOR ST", "amenity": "post_box", "collection_times": "Mo-Fr 17:30", "indoor": "yes", "note": "ON 12/24 AND 12/31, THIS BOX MAY BE COLLECTED AS EARLY AS 12 NOON.", "nsi_id": "unitedstatespostalservice-a77078", "operator": "United States Postal Service", "operator:short": "USPS", "operator:type": "public", "operator:wikidata": "Q668687", "ref": "7610200166"}, "type": "Feature"}
{"geometry": {"coordinates": [-97.3244930233, 32.7616380121], "type": "Point"}, "id": "Uy46hWnCOyqjIW5bwys4oBSF8iI=", "properties": {"@source_uri": "https://tools.usps.com/UspsToolsRestServices/rest/POLocator/findLocations", "@spider": "usps_collection_boxes", "addr:city": "FORT WORTH", "addr:country": "US", "addr:postcode": "76102", "addr:state": "TX", "addr:street_address": "100 N NICHOLS ST", "amenity": "post_box", "collection_times": "Mo-Sa 12:30", "note": "ON 12/24 AND 12/31, THIS BOX MAY BE COLLECTED AS EARLY AS 12 NOON.", "nsi_id": "unitedstatespostalservice-a77078", "operator": "United States Postal Service", "operator:short": "USPS", "operator:type": "public", "operator:wikidata": "Q668687", "ref": "7610200175"}, "type": "Feature"}
{"geometry": {"coordinates": [-97.3314090154, 32.7505749896], "type": "Point"}, "id": "8BpT4t83SND5UhIiaq4uTrNfRRo=", "properties": {"@source_uri": "https://tools.usps.com/UspsToolsRestServices/rest/POLocator/findLocations", "@spider": "usps_collection_boxes", "addr:city": "FORT WORTH", "addr:country": "US", "addr:postcode": "76102", "addr:state": "TX", "addr:street_address": "819 TAYLOR ST", "amenity": "post_box", "collection_times": "Mo-Fr 16:30", "indoor": "yes", "note": "ON 12/24 AND 12/31, THIS BOX MAY BE COLLECTED AS EARLY AS 12 NOON.", "nsi_id": "unitedstatespostalservice-a77078", "operator": "United States Postal Service", "operator:short": "USPS", "operator:type": "public", "operator:wikidata": "Q668687", "ref": "7610200177"}, "type": "Feature"}
{"geometry": {"coordinates": [-97.3294599714, 32.7462039947], "type": "Point"}, "id": "MKgyBgwuIa7d250PxNWOTagC9kc=", "properties": {"@source_uri": "https://tools.usps.com/UspsToolsRestServices/rest/POLocator/findLocations", "@spider": "usps_collection_boxes", "addr:city": "FORT WORTH", "addr:country": "US", "addr:postcode": "76102", "addr:state": "TX", "addr:street_address": "251 W LANCASTER AVE", "amenity": "post_box", "collection_times": "Mo-Fr 18:00; Sa 16:00", "indoor": "yes", "note": "ON 12/24 AND 12/31, THIS BOX MAY BE COLLECTED AS EARLY AS 12 NOON.", "nsi_id": "unitedstatespostalservice-a77078", "operator": "United States Postal Service", "operator:short": "USPS", "operator:type": "public", "operator:wikidata": "Q668687", "ref": "7610200178"}, "type": "Feature"}
{"geometry": {"coordinates": [-97.332525, 32.753015], "type": "Point"}, "id": "_K3V8UbiU4mY5kVMuLo07U8Cou8=", "properties": {"@source_uri": "https://tools.usps.com/UspsToolsRestServices/rest/POLocator/findLocations", "@spider": "usps_collection_boxes", "addr:city": "FORT WORTH", "addr:country": "US", "addr:postcode": "76102", "addr:state": "TX", "addr:street_address": "270 TEXAS ST", "amenity": "post_box", "collection_times": "Mo-Sa 09:45", "nsi_id": "unitedstatespostalservice-a77078", "operator": "United States Postal Service", "operator:short": "USPS", "operator:type": "public", "operator:wikidata": "Q668687", "ref": "7610200184"}, "type": "Feature"}
{"geometry": {"coordinates": [-97.332525, 32.753015], "type": "Point"}, "id": "c516nbRWg3eje8E3mDBq1Zxg-b0=", "properties": {"@source_uri": "https://tools.usps.com/UspsToolsRestServices/rest/POLocator/findLocations", "@spider": "usps_collection_boxes", "addr:city": "FORT WORTH", "addr:country": "US", "addr:postcode": "76102", "addr:state": "TX", "addr:street_address": "300 E BELKNAP ST", "amenity": "post_box", "collection_times": "Mo-Fr 12:00", "nsi_id": "unitedstatespostalservice-a77078", "operator": "United States Postal Service", "operator:short": "USPS", "operator:type": "public", "operator:wikidata": "Q668687", "ref": "7610200185"}, "type": "Feature"}
{"geometry": {"coordinates": [-97.2701821, 32.740685], "type": "Point"}, "id": "y5R5kqLZy75RTzfQ33vIBDiP6KY=", "properties": {"@source_uri": "https://tools.usps.com/UspsToolsRestServices/rest/POLocator/findLocations", "@spider": "usps_collection_boxes", "addr:city": "FORT WORTH", "addr:country": "US", "addr:postcode": "76103", "addr:state": "TX", "addr:street_address": "3750 E LANCASTER AVE", "amenity": "post_box", "collection_times": "Mo-Sa 10:00", "nsi_id": "unitedstatespostalservice-a77078", "operator": "United States Postal Service", "operator:short": "USPS", "operator:type": "public", "operator:wikidata": "Q668687", "ref": "7610300004"}, "type": "Feature"}
{"geometry": {"coordinates": [-97.260475, 32.74096], "type": "Point"}, "id": "Kmp-_bgJY6O4NDC-kBgoJFn4liw=", "properties": {"@source_uri": "https://tools.usps.com/UspsToolsRestServices/rest/POLocator/findLocations", "@spider": "usps_collection_boxes", "addr:city": "FORT WORTH", "addr:country": "US", "addr:postcode": "76103", "addr:state": "TX", "addr:street_address": "1227 OAKLAND BLVD", "amenity": "post_box", "collection_times": "Mo-Sa 11:15", "nsi_id": "unitedstatespostalservice-a77078", "operator": "United States Postal Service", "operator:short": "USPS", "operator:type": "public", "operator:wikidata": "Q668687", "ref": "7610300021"}, "type": "Feature"}
{"geometry": {"coordinates": [-97.328632007, 32.7339199803], "type": "Point"}, "id": "wfSD5_396mexmTU40g2ejLPSYps=", "properties": {"@source_uri": "https://tools.usps.com/UspsToolsRestServices/rest/POLocator/findLocations", "@spider": "usps_collection_boxes", "addr:city": "FORT WORTH", "addr:country": "US", "addr:postcode": "76104", "addr:state": "TX", "addr:street_address": "1000 SAINT LOUIS AVE", "amenity": "post_box", "collection_times": "Mo-Sa 09:15", "nsi_id": "unitedstatespostalservice-a77078", "operator": "United States Postal Service", "operator:short": "USPS", "operator:type": "public", "operator:wikidata": "Q668687", "ref": "7610400009"}, "type": "Feature"}
{"geometry": {"coordinates": [-97.3417709755, 32.7334430081], "type": "Point"}, "id": "oxVxZcopixZbull_edGLrdEI38E=", "properties": {"@source_uri": "https://tools.usps.com/UspsToolsRestServices/rest/POLocator/findLocations", "@spider": "usps_collection_boxes", "addr:city": "FORT WORTH", "addr:country": "US", "addr:postcode": "76104", "addr:state": "TX", "addr:street_address": "1432 W ROSEDALE ST", "amenity": "post_box", "collection_times": "Mo-Fr 09:10; Sa 09:00", "nsi_id": "unitedstatespostalservice-a77078", "operator": "United States Postal Service", "operator:short": "USPS", "operator:type": "public", "operator:wikidata": "Q668687", "ref": "7610400013"}, "type": "Feature"}
{"geometry": {"coordinates": [-97.338277985, 32.7304310131], "type": "Point"}, "id": "azdSQBWoplWF5KQAbdswhYe1wYQ=", "properties": {"@source_uri": "https://tools.usps.com/UspsToolsRestServices/rest/POLocator/findLocations", "@spider": "usps_collection_boxes", "addr:city": "FORT WORTH", "addr:country": "US", "addr:postcode": "76104", "addr:state": "TX", "addr:street_address": "1227 W MAGNOLIA AVE", "amenity": "post_box", "collection_times": "Mo-Fr 10:00; Sa 10:15", "nsi_id": "unitedstatespostalservice-a77078", "operator": "United States Postal Service", "operator:short": "USPS", "operator:type": "public", "operator:wikidata": "Q668687", "ref": "7610400016"}, "type": "Feature"}
{"geometry": {"coordinates": [-97.3451969946, 32.7334989993], "type": "Point"}, "id": "rOFYOLGooB90ELErjnk19q8a-3o=", "properties": {"@source_uri": "https://tools.usps.com/UspsToolsRestServices/rest/POLocator/findLocations", "@spider": "usps_collection_boxes", "addr:city": "FORT WORTH", "addr:country": "US", "addr:postcode": "76104", "addr:state": "TX", "addr:street_address": "1650 W ROSEDALE ST", "amenity": "post_box", "collection_times": "Mo-Fr 14:00; Sa 14:15", "note": "ON 12/24 AND 12/31, THIS BOX MAY BE COLLECTED AS EARLY AS 12 NOON.", "nsi_id": "unitedstatespostalservice-a77078", "operator": "United States Postal Service", "operator:short": "USPS", "operator:type": "public", "operator:wikidata": "Q668687", "ref": "7610400017"}, "type": "Feature"}
{"geometry": {"coordinates": [-97.340340448, 32.737081566], "type": "Point"}, "id": "tIo9nobcqleb9GT5N-wuxO80MCI=", "properties": {"@source_uri": "https://tools.usps.com/UspsToolsRestServices/rest/POLocator/findLocations", "@spider": "usps_collection_boxes", "addr:city": "FORT WORTH", "addr:country": "US", "addr:postcode": "76104", "addr:state": "TX", "addr:street_address": "700 6TH AVE", "amenity": "post_box", "collection_times": "Mo-Fr 11:15", "nsi_id": "unitedstatespostalservice-a77078", "operator": "United States Postal Service", "operator:short": "USPS", "operator:type": "public", "operator:wikidata": "Q668687", "ref": "7610400023"}, "type": "Feature"}
{"geometry": {"coordinates": [-97.3344519815, 32.7381369997], "type": "Point"}, "id": "Ug9kgM38lneoLkTP8cWpLo_u3gY=", "properties": {"@source_uri": "https://tools.usps.com/UspsToolsRestServices/rest/POLocator/findLocations", "@spider": "usps_collection_boxes", "addr:city": "FORT WORTH", "addr:country": "US", "addr:postcode": "76104", "addr:state": "TX", "addr:street_address": "901 PENNSYLVANIA AVE", "amenity": "post_box", "collection_times": "Mo-Fr 11:15", "nsi_id": "unitedstatespostalservice-a77078", "operator": "United States Postal Service", "operator:short": "USPS", "operator:type": "public", "operator:wikidata": "Q668687", "ref": "7610400029"}, "type": "Feature"}
{"geometry": {"coordinates": [-97.3448659933, 32.7286560194], "type": "Point"}, "id": "tyduW33-2yy4yeRJPKvgdCuevEY=", "properties": {"@source_uri": "https://tools.usps.com/UspsToolsRestServices/rest/POLocator/findLocations", "@spider": "usps_collection_boxes", "addr:city": "FORT WORTH", "addr:country": "US", "addr:postcode": "76104", "addr:state": "TX", "addr:street_address": "1450 8TH AVE", "amenity": "post_box", "collection_times": "Mo-Fr 11:00; Sa 11:15", "nsi_id": "unitedstatespostalservice-a77078", "operator": "United States Postal Service", "operator:short": "USPS", "operator:type": "public", "operator:wikidata": "Q668687", "ref": "7610400042"}, "type": "Feature"}
{"geometry": {"coordinates": [-97.3306557588, 32.7332273053], "type": "Point"}, "id": "Kg-mpgV74iaKIXK1rdZj7X0OGk8=", "properties": {"@source_uri": "https://tools.usps.com/UspsToolsRestServices/rest/POLocator/findLocations", "@spider": "usps_collection_boxes", "addr:city": "FORT WORTH", "addr:country": "US", "addr:postcode": "76104", "addr:state": "TX", "addr:street_address": "600 W ROSEDALE ST", "amenity": "post_box", "collection_times": "Mo-Sa 10:15", "nsi_id": "unitedstatespostalservice-a77078", "operator": "United States Postal Service", "operator:short": "USPS", "operator:type": "public", "operator:wikidata": "Q668687", "ref": "7610400043"}, "type": "Feature"}
{"geometry": {"coordinates": [-97.3189939919, 32.7070330143], "type": "Point"}, "id": "LPKx2nBpSTHmHSE-es92WARk6wk=", "properties": {"@source_uri": "https://tools.usps.com/UspsToolsRestServices/rest/POLocator/findLocations", "@spider": "usps_collection_boxes", "addr:city": "FORT WORTH", "addr:country": "US", "addr:postcode": "76104", "addr:state": "TX", "addr:street_address": "3037 SOUTH FWY", "amenity": "post_box", "collection_times": "Mo-Fr 12:45; Sa 13:00", "note": "ON 12/24 AND 12/31, THIS BOX MAY BE COLLECTED AS EARLY AS 12 NOON.", "nsi_id": "unitedstatespostalservice-a77078", "operator": "United States Postal Service", "operator:short": "USPS", "operator:type": "public", "operator:wikidata": "Q668687", "ref": "7610400044"}, "type": "Feature"}
{"geometry": {"coordinates": [-97.3390069592, 32.7377549944], "type": "Point"}, "id": "M7y2sqQA42G1o79uZJIzBcC428w=", "properties": {"@source_uri": "https://tools.usps.com/UspsToolsRestServices/rest/POLocator/findLocations", "@spider": "usps_collection_boxes", "addr:city": "FORT WORTH", "addr:country": "US", "addr:postcode": "76104", "addr:state": "TX", "addr:street_address": "1325 PENNSYLVANIA AVE", "amenity": "post_box", "collection_times": "Mo-Fr 11:30", "nsi_id": "unitedstatespostalservice-a77078", "operator": "United States Postal Service", "operator:short": "USPS", "operator:type": "public", "operator:wikidata": "Q668687", "ref": "7610400045"}, "type": "Feature"}
{"geometry": {"coordinates": [-97.3452050413, 32.7359540168], "type": "Point"}, "id": "SDtIid1YKqNfx0N-YrbH87_O3xI=", "properties": {"@source_uri": "https://tools.usps.com/UspsToolsRestServices/rest/POLocator/findLocations", "@spider": "usps_collection_boxes", "addr:city": "FORT WORTH", "addr:country": "US", "addr:postcode": "76104", "addr:state": "TX", "addr:street_address": "1612 W HUMBOLT ST", "amenity": "post_box", "collection_times": "Mo-Fr 15:00", "note": "ON 12/24 AND 12/31, THIS BOX MAY BE COLLECTED AS EARLY AS 12 NOON.", "nsi_id": "unitedstatespostalservice-a77078", "operator": "United States Postal Service", "operator:short": "USPS", "operator:type": "public", "operator:wikidata": "Q668687", "ref": "7610400054"}, "type": "Feature"}
{"geometry": {"coordinates": [-97.2545479691, 32.7307620145], "type": "Point"}, "id": "kvlTCu1qKjYDD7pvQ9im1HEKMpw=", "properties": {"@source_uri": "https://tools.usps.com/UspsToolsRestServices/rest/POLocator/findLocations", "@spider": "usps_collection_boxes", "addr:city": "FORT WORTH", "addr:country": "US", "addr:postcode": "76105", "addr:state": "TX", "addr:street_address": "4650 E ROSEDALE ST", "amenity": "post_box", "collection_times": "Mo-Fr 17:00; Sa 15:30", "indoor": "yes", "note": "ON 12/24 AND 12/31, THIS BOX MAY BE COLLECTED AS EARLY AS 12 NOON.", "nsi_id": "unitedstatespostalservice-a77078", "operator": "United States Postal Service", "operator:short": "USPS", "operator:type": "public", "operator:wikidata": "Q668687", "ref": "7610500013"}, "type": "Feature"}
{"geometry": {"coordinates": [-97.2545479691, 32.7307620145], "type": "Point"}, "id": "qrpOmBlk82ZgSawsBlDaMQVxpmM=", "properties": {"@source_uri": "https://tools.usps.com/UspsToolsRestServices/rest/POLocator/findLocations", "@spider": "usps_collection_boxes", "addr:city": "FORT WORTH", "addr:country": "US", "addr:postcode": "76105", "addr:state": "TX", "addr:street_address": "4650 E ROSEDALE ST", "amenity": "post_box", "collection_times": "Mo-Fr 17:00; Sa 15:30", "indoor": "yes", "note": "ON 12/24 AND 12/31, THIS BOX MAY BE COLLECTED AS EARLY AS 12 NOON.", "nsi_id": "unitedstatespostalservice-a77078", "operator": "United States Postal Service", "operator:short": "USPS", "operator:type": "public", "operator:wikidata": "Q668687", "ref": "7610500014"}, "type": "Feature"}
{"geometry": {"coordinates": [-97.2801430324, 32.7324160155], "type": "Point"}, "id": "VhdnI_djpHNGyaWe-xT0gjdu3T8=", "properties": {"@source_uri": "https://tools.usps.com/UspsToolsRestServices/rest/POLocator/findLocations", "@spider": "usps_collection_boxes", "addr:city": "FORT WORTH", "addr:country": "US", "addr:postcode": "76105", "addr:state": "TX", "addr:street_address": "1201 WESLEYAN ST", "amenity": "post_box", "collection_times": "Mo-Fr 15:00", "note": "ON 12/24 AND 12/31, THIS BOX MAY BE COLLECTED AS EARLY AS 12 NOON.", "nsi_id": "unitedstatespostalservice-a77078", "operator": "United States Postal Service", "operator:short": "USPS", "operator:type": "public", "operator:wikidata": "Q668687", "ref": "7610500015"}, "type": "Feature"}
{"geometry": {"coordinates": [-97.2545479691, 32.7307620145], "type": "Point"}, "id": "DJQYmZrNTOMy7GBzM1dWZ5Alnhk=", "properties": {"@source_uri": "https://tools.usps.com/UspsToolsRestServices/rest/POLocator/findLocations", "@spider": "usps_collection_boxes", "addr:city": "FORT WORTH", "addr:country": "US", "addr:postcode": "76105", "addr:state": "TX", "addr:street_address": "4650 E ROSEDALE ST", "amenity": "post_box", "collection_times": "Mo-Fr 17:00; Sa 12:00", "indoor": "yes", "note": "ON 12/24 AND 12/31, THIS BOX MAY BE COLLECTED AS EARLY AS 12 NOON.", "nsi_id": "unitedstatespostalservice-a77078", "operator": "United States Postal Service", "operator:short": "USPS", "operator:type": "public", "operator:wikidata": "Q668687", "ref": "7610500018"}, "type": "Feature"}
{"geometry": {"coordinates": [-97.3395589224, 32.8174633244], "type": "Point"}, "id": "3f_lEkqhxEjUlI2jsb6a7tvwSlA=", "properties": {"@source_uri": "https://tools.usps.com/UspsToolsRestServices/rest/POLocator/findLocations", "@spider": "usps_collection_boxes", "addr:city": "FORT WORTH", "addr:country": "US", "addr:postcode": "76106", "addr:state": "TX", "addr:street_address": "4099 DECATUR AVE", "amenity": "post_box", "collection_times": "Mo-Sa 08:10", "nsi_id": "unitedstatespostalservice-a77078", "operator": "United States Postal Service", "operator:short": "USPS", "operator:type": "public", "operator:wikidata": "Q668687", "ref": "7610600026"}, "type": "Feature"}
{"geometry": {"coordinates": [-97.3499719972, 32.8042729817], "type": "Point"}, "id": "hE2cyxK9_OpJy5lGgmAVPUaf4u4=", "properties": {"@source_uri": "https://tools.usps.com/UspsToolsRestServices/rest/POLocator/findLocations", "@spider": "usps_collection_boxes", "addr:city": "FORT WORTH", "addr:country": "US", "addr:postcode": "76106", "addr:state": "TX", "addr:street_address": "3220 N MAIN ST", "amenity": "post_box", "collection_times": "Mo-Fr 14:00; Sa 15:00", "note": "ON 12/24 AND 12/31, THIS BOX MAY BE COLLECTED AS EARLY AS 12 NOON.", "nsi_id": "unitedstatespostalservice-a77078", "operator": "United States Postal Service", "operator:short": "USPS", "operator:type": "public", "operator:wikidata": "Q668687", "ref": "7610600027"}, "type": "Feature"}
{"geometry": {"coordinates": [-97.3630569863, 32.7264799935], "type": "Point"}, "id": "i_J2GrDvwYSCKX_c8Cb08zedI38=", "properties": {"@source_uri": "https://tools.usps.com/UspsToolsRestServices/rest/POLocator/findLocations", "@spider": "usps_collection_boxes", "addr:city": "FT WORTH", "addr:country": "US", "addr:postcode": "76107", "addr:state": "TX", "addr:street_address": "3200 COLLINSWORTH ST", "amenity": "post_box", "collection_times": "Mo-Sa 13:30", "note": "ON 12/24 AND 12/31, THIS BOX MAY BE COLLECTED AS EARLY AS 12 NOON.", "nsi_id": "unitedstatespostalservice-a77078", "operator": "United States Postal Service", "operator:short": "USPS", "operator:type": "public", "operator:wikidata": "Q668687", "ref": "7610700021"}, "type": "Feature"}
{"geometry": {"coordinates": [-97.392408, 32.738637], "type": "Point"}, "id": "Ohr1mRfT5ncsZzHrFIdeBAOgrns=", "properties": {"@source_uri": "https://tools.usps.com/UspsToolsRestServices/rest/POLocator/findLocations", "@spider": "usps_collection_boxes", "addr:city": "FT WORTH", "addr:country": "US", "addr:postcode": "76107", "addr:state": "TX", "addr:street_address": "4840 BYERS AVE", "amenity": "post_box", "collection_times": "Mo-Fr 15:00; Sa 14:10", "note": "ON 12/24 AND 12/31, THIS BOX MAY BE COLLECTED AS EARLY AS 12 NOON.", "nsi_id": "unitedstatespostalservice-a77078", "operator": "United States Postal Service", "operator:short": "USPS", "operator:type": "public", "operator:wikidata": "Q668687", "ref": "7610700038"}, "type": "Feature"}
{"geometry": {"coordinates": [-97.3852946703, 32.7411887069], "type": "Point"}, "id": "xBdSWY75JAGF5R-H2Wj2qSE6rLs=", "properties": {"@source_uri": "https://tools.usps.com/UspsToolsRestServices/rest/POLocator/findLocations", "@spider": "usps_collection_boxes", "addr:city": "FT WORTH", "addr:country": "US", "addr:postcode": "76107", "addr:state": "TX", "addr:street_address": "4451 CAMP BOWIE BLVD", "amenity": "post_box", "collection_times": "Mo-Sa 13:00", "note": "ON 12/24 AND 12/31, THIS BOX MAY BE COLLECTED AS EARLY AS 12 NOON.", "nsi_id": "unitedstatespostalservice-a77078", "operator": "United States Postal Service", "operator:short": "USPS", "operator:type": "public", "operator:wikidata": "Q668687", "ref": "7610700072"}, "type": "Feature"}
{"geometry": {"coordinates": [-97.4078635512, 32.7357500065], "type": "Point"}, "id": "sdF3ABHb69BmomGzgXJuI3NiyoA=", "properties": {"@source_uri": "https://tools.usps.com/UspsToolsRestServices/rest/POLocator/findLocations", "@spider": "usps_collection_boxes", "addr:city": "FT WORTH", "addr:country": "US", "addr:postcode": "76107", "addr:state": "TX", "addr:street_address": "HORNE ST", "amenity": "post_box", "collection_times": "Mo-Sa 12:00", "nsi_id": "unitedstatespostalservice-a77078", "operator": "United States Postal Service", "operator:short": "USPS", "operator:type": "public", "operator:wikidata": "Q668687", "ref": "7610700119"}, "type": "Feature"}
{"geometry": {"coordinates": [-97.3616429592, 32.7517629986], "type": "Point"}, "id": "O8E4dsO2ZpeBQ7OLbzHWbPndBFg=", "properties": {"@source_uri": "https://tools.usps.com/UspsToolsRestServices/rest/POLocator/findLocations", "@spider": "usps_collection_boxes", "addr:city": "FT WORTH", "addr:country": "US", "addr:postcode": "76107", "addr:state": "TX", "addr:street_address": "3101 W 6TH ST", "amenity": "post_box", "collection_times": "Mo-Fr 17:00; Sa 12:00", "indoor": "yes", "note": "ON 12/24 AND 12/31, THIS BOX MAY BE COLLECTED AS EARLY AS 12 NOON.", "nsi_id": "unitedstatespostalservice-a77078", "operator": "United States Postal Service", "operator:short": "USPS", "operator:type": "public", "operator:wikidata": "Q668687", "ref": "7610700126"}, "type": "Feature"}
{"geometry": {"coordinates": [-97.3984830162, 32.7341700125], "type": "Point"}, "id": "6bDNlOcssN2DkRcBhoeh98keEUg=", "properties": {"@source_uri": "https://tools.usps.com/UspsToolsRestServices/rest/POLocator/findLocations", "@spider": "usps_collection_boxes", "addr:city": "FT WORTH", "addr:country": "US", "addr:postcode": "76107", "addr:state": "TX", "addr:street_address": "2615 MERRICK ST", "amenity": "post_box", "collection_times": "Mo-Fr 15:00; Sa 14:00", "note": "ON 12/24 AND 12/31, THIS BOX MAY BE COLLECTED AS EARLY AS 12 NOON.", "nsi_id": "unitedstatespostalservice-a77078", "operator": "United States Postal Service", "operator:short": "USPS", "operator:type": "public", "operator:wikidata": "Q668687", "ref": "7610700128"}, "type": "Feature"}
{"geometry": {"coordinates": [-97.4693733, 32.763318], "type": "Point"}, "id": "kWatUrebdhY97SJorz3zdO_OuNM=", "properties": {"@source_uri": "https://tools.usps.com/UspsToolsRestServices/rest/POLocator/findLocations", "@spider": "usps_collection_boxes", "addr:city": "FORT WORTH", "addr:country": "US", "addr:postcode": "76108", "addr:state": "TX", "addr:street_address": "301 N LAS VEGAS TRL", "amenity": "post_box", "collection_times": "Mo-Fr 17:00; Sa 14:15", "indoor": "yes", "note": "ON 12/24 AND 12/31, THIS BOX MAY BE COLLECTED AS EARLY AS 12 NOON.", "nsi_id": "unitedstatespostalservice-a77078", "operator": "United States Postal Service", "operator:short": "USPS", "operator:type": "public", "operator:wikidata": "Q668687", "ref": "7610800018"}, "type": "Feature"}
{"geometry": {"coordinates": [-97.4694366, 32.763376], "type": "Point"}, "id": "K1VNhtX3WsiubIvldD2bNhllvE0=", "properties": {"@source_uri": "https://tools.usps.com/UspsToolsRestServices/rest/POLocator/findLocations", "@spider": "usps_collection_boxes", "addr:city": "FORT WORTH", "addr:country": "US", "addr:postcode": "76108", "addr:state": "TX", "addr:street_address": "301 N LAS VEGAS TRL", "amenity": "post_box", "collection_times": "Mo-Fr 17:00; Sa 14:15", "indoor": "yes", "note": "ON 12/24 AND 12/31, THIS BOX MAY BE COLLECTED AS EARLY AS 12 NOON.", "nsi_id": "unitedstatespostalservice-a77078", "operator": "United States Postal Service", "operator:short": "USPS", "operator:type": "public", "operator:wikidata": "Q668687", "ref": "7610800019"}, "type": "Feature"}
{"geometry": {"coordinates": [-97.5095060177, 32.8225829978], "type": "Point"}, "id": "2qqJV0fzO3mrZK69bvcUa-2Xmc4=", "properties": {"@source_uri": "https://tools.usps.com/UspsToolsRestServices/rest/POLocator/findLocations", "@spider": "usps_collection_boxes", "addr:city": "FORT WORTH", "addr:country": "US", "addr:postcode": "76108", "addr:state": "TX", "addr:street_address": "7001 CONFEDERATE PARK RD STE 102", "amenity": "post_box", "collection_times": "Mo-Sa 11:00", "nsi_id": "unitedstatespostalservice-a77078", "operator": "United States Postal Service", "operator:short": "USPS", "operator:type": "public", "operator:wikidata": "Q668687", "ref": "7610800022"}, "type": "Feature"}
{"geometry": {"coordinates": [-97.468854221, 32.763384251], "type": "Point"}, "id": "5tqWpoqa35y0lW-zO5YYCzfhmzQ=", "properties": {"@source_uri": "https://tools.usps.com/UspsToolsRestServices/rest/POLocator/findLocations", "@spider": "usps_collection_boxes", "addr:city": "FORT WORTH", "addr:country": "US", "addr:postcode": "76108", "addr:state": "TX", "addr:street_address": "301 N LAS VEGAS TRL", "amenity": "post_box", "collection_times": "Mo-Fr 17:00; Sa 12:00", "indoor": "yes", "note": "ON 12/24 AND 12/31, THIS BOX MAY BE COLLECTED AS EARLY AS 12 NOON.", "nsi_id": "unitedstatespostalservice-a77078", "operator": "United States Postal Service", "operator:short": "USPS", "operator:type": "public", "operator:wikidata": "Q668687", "ref": "7610800024"}, "type": "Feature"}
{"geometry": {"coordinates": [-97.4696850206, 32.7633120039], "type": "Point"}, "id": "s_WH_s9RJtDd5QriYejKMnBYOg0=", "properties": {"@source_uri": "https://tools.usps.com/UspsToolsRestServices/rest/POLocator/findLocations", "@spider": "usps_collection_boxes", "addr:city": "FORT WORTH", "addr:country": "US", "addr:postcode": "76108", "addr:state": "TX", "addr:street_address": "301 N LAS VEGAS TRL", "amenity": "post_box", "collection_times": "Mo-Fr 17:00; Sa 14:15", "note": "ON 12/24 AND 12/31, THIS BOX MAY BE COLLECTED AS EARLY AS 12 NOON.", "nsi_id": "unitedstatespostalservice-a77078", "operator": "United States Postal Service", "operator:short": "USPS", "operator:type": "public", "operator:wikidata": "Q668687", "ref": "7610800027"}, "type": "Feature"}
{"geometry": {"coordinates": [-97.387685, 32.698267], "type": "Point"}, "id": "YwX3TnJHRPJ4VTgTcF-NJU3_ifk=", "properties": {"@source_uri": "https://tools.usps.com/UspsToolsRestServices/rest/POLocator/findLocations", "@spider": "usps_collection_boxes", "addr:city": "FORT WORTH", "addr:country": "US", "addr:postcode": "76109", "addr:state": "TX", "addr:street_address": "3500 S HILLS AVE", "amenity": "post_box", "collection_times": "Mo-Sa 10:00", "nsi_id": "unitedstatespostalservice-a77078", "operator": "United States Postal Service", "operator:short": "USPS", "operator:type": "public", "operator:wikidata": "Q668687", "ref": "7610900002"}, "type": "Feature"}
{"geometry": {"coordinates": [-97.4119938015, 32.6908685673], "type": "Point"}, "id": "pMddHboxnOFSCnJyaw5DKkZqaV0=", "properties": {"@source_uri": "https://tools.usps.com/UspsToolsRestServices/rest/POLocator/findLocations", "@spider": "usps_collection_boxes", "addr:city": "FORT WORTH", "addr:country": "US", "addr:postcode": "76109", "addr:state": "TX", "addr:street_address": "4260 BRYANT IRVIN RD", "amenity": "post_box", "collection_times": "Mo-Sa 09:00", "nsi_id": "unitedstatespostalservice-a77078", "operator": "United States Postal Service", "operator:short": "USPS", "operator:type": "public", "operator:wikidata": "Q668687", "ref": "7610900005"}, "type": "Feature"}
{"geometry": {"coordinates": [-97.3882720142, 32.7107379831], "type": "Point"}, "id": "jim8EhWPnsmPAondWscWTE_EM14=", "properties": {"@source_uri": "https://tools.usps.com/UspsToolsRestServices/rest/POLocator/findLocations", "@spider": "usps_collection_boxes", "addr:city": "FORT WORTH", "addr:country": "US", "addr:postcode": "76109", "addr:state": "TX", "addr:street_address": "4450 OAK PARK LN", "amenity": "post_box", "collection_times": "Mo-Fr 18:00; Sa 13:30", "name": "USPS COLLECTION BOX - APC", "note": "ON 12/24 AND 12/31, THIS BOX MAY BE COLLECTED AS EARLY AS 12 NOON.", "nsi_id": "unitedstatespostalservice-a77078", "operator": "United States Postal Service", "operator:short": "USPS", "operator:type": "public", "operator:wikidata": "Q668687", "ref": "7610900024"}, "type": "Feature"}
{"geometry": {"coordinates": [-97.3882720142, 32.7107379831], "type": "Point"}, "id": "VNsQkDN2n8Qz4Lm843d9DfJmYcE=", "properties": {"@source_uri": "https://tools.usps.com/UspsToolsRestServices/rest/POLocator/findLocations", "@spider": "usps_collection_boxes", "addr:city": "FORT WORTH", "addr:country": "US", "addr:postcode": "76109", "addr:state": "TX", "addr:street_address": "4450 OAK PARK LN", "amenity": "post_box", "collection_times": "Mo-Fr 18:00; Sa 13:00", "indoor": "yes", "note": "ON 12/24 AND 12/31, THIS BOX MAY BE COLLECTED AS EARLY AS 12 NOON.", "nsi_id": "unitedstatespostalservice-a77078", "operator": "United States Postal Service", "operator:short": "USPS", "operator:type": "public", "operator:wikidata": "Q668687", "ref": "7610900050"}, "type": "Feature"}
{"geometry": {"coordinates": [-97.36046, 32.7096], "type": "Point"}, "id": "IY8-sFnmtmdK3Y4k6DkuL-ROnIE=", "properties": {"@source_uri": "https://tools.usps.com/UspsToolsRestServices/rest/POLocator/findLocations", "@spider": "usps_collection_boxes", "addr:city": "FORT WORTH", "addr:country": "US", "addr:postcode": "76109", "addr:state": "TX", "addr:street_address": "2851 BENBROOK BLVD", "amenity": "post_box", "collection_times": "Mo-Sa 15:00", "note": "ON 12/24 AND 12/31, THIS BOX MAY BE COLLECTED AS EARLY AS 12 NOON.", "nsi_id": "unitedstatespostalservice-a77078", "operator": "United States Postal Service", "operator:short": "USPS", "operator:type": "public", "operator:wikidata": "Q668687", "ref": "7610900053"}, "type": "Feature"}
{"geometry": {"coordinates": [-97.36046, 32.7096], "type": "Point"}, "id": "kO8qkFmUxM-eb033C9ILgT9dVrI=", "properties": {"@source_uri": "https://tools.usps.com/UspsToolsRestServices/rest/POLocator/findLocations", "@spider": "usps_collection_boxes", "addr:city": "FORT WORTH", "addr:country": "US", "addr:postcode": "76109", "addr:state": "TX", "addr:street_address": "4450 OAK PARK LN", "amenity": "post_box", "collection_times": "Mo-Sa 18:00", "indoor": "yes", "note": "ON 12/24 AND 12/31, THIS BOX MAY BE COLLECTED AS EARLY AS 12 NOON.", "nsi_id": "unitedstatespostalservice-a77078", "operator": "United States Postal Service", "operator:short": "USPS", "operator:type": "public", "operator:wikidata": "Q668687", "ref": "7610900054"}, "type": "Feature"}
{"geometry": {"coordinates": [-97.36046, 32.7096], "type": "Point"}, "id": "6jTuy_IJWbv1Fr2fk6JxZCbFVso=", "properties": {"@source_uri": "https://tools.usps.com/UspsToolsRestServices/rest/POLocator/findLocations", "@spider": "usps_collection_boxes", "addr:city": "FORT WORTH", "addr:country": "US", "addr:postcode": "76109", "addr:state": "TX", "addr:street_address": "4450 OAK PARK LN", "amenity": "post_box", "collection_times": "Mo-Sa 18:00", "indoor": "yes", "note": "ON 12/24 AND 12/31, THIS BOX MAY BE COLLECTED AS EARLY AS 12 NOON.", "nsi_id": "unitedstatespostalservice-a77078", "operator": "United States Postal Service", "operator:short": "USPS", "operator:type": "public", "operator:wikidata": "Q668687", "ref": "7610900055"}, "type": "Feature"}
{"geometry": {"coordinates": [-97.36046, 32.7096], "type": "Point"}, "id": "vJGALeS7gAjxFEti_EPy58yMe0c=", "properties": {"@source_uri": "https://tools.usps.com/UspsToolsRestServices/rest/POLocator/findLocations", "@spider": "usps_collection_boxes", "addr:city": "FORT WORTH", "addr:country": "US", "addr:postcode": "76109", "addr:state": "TX", "addr:street_address": "4450 OAK PARK LN", "amenity": "post_box", "collection_times": "Mo-Fr 18:00; Sa 12:45", "note": "ON 12/24 AND 12/31, THIS BOX MAY BE COLLECTED AS EARLY AS 12 NOON.", "nsi_id": "unitedstatespostalservice-a77078", "operator": "United States Postal Service", "operator:short": "USPS", "operator:type": "public", "operator:wikidata": "Q668687", "ref": "7610900056"}, "type": "Feature"}
{"geometry": {"coordinates": [-97.34652, 32.70412], "type": "Point"}, "id": "0Kx4OrxEFl12n5vbX-pDNcMEIao=", "properties": {"@source_uri": "https://tools.usps.com/UspsToolsRestServices/rest/POLocator/findLocations", "@spider": "usps_collection_boxes", "addr:city": "FORT WORTH", "addr:country": "US", "addr:postcode": "76110", "addr:state": "TX", "addr:street_address": "2301 PARK HILL DR", "amenity": "post_box", "collection_times": "Mo-Sa 10:30", "nsi_id": "unitedstatespostalservice-a77078", "operator": "United States Postal Service", "operator:short": "USPS", "operator:type": "public", "operator:wikidata": "Q668687", "ref": "7611000006"}, "type": "Feature"}
{"geometry": {"coordinates": [-97.3309679596, 32.7207039822], "type": "Point"}, "id": "A_Bi29HJMVY3AcbRNSZ9yVmSVGE=", "properties": {"@source_uri": "https://tools.usps.com/UspsToolsRestServices/rest/POLocator/findLocations", "@spider": "usps_collection_boxes", "addr:city": "FORT WORTH", "addr:country": "US", "addr:postcode": "76110", "addr:state": "TX", "addr:street_address": "2101 HEMPHILL ST", "amenity": "post_box", "collection_times": "Mo-Sa 10:00", "nsi_id": "unitedstatespostalservice-a77078", "operator": "United States Postal Service", "operator:short": "USPS", "operator:type": "public", "operator:wikidata": "Q668687", "ref": "7611000017"}, "type": "Feature"}
{"geometry": {"coordinates": [-97.343801, 32.714323], "type": "Point"}, "id": "QBjPvjjGTQum9fNKkIXdwnQHmH4=", "properties": {"@source_uri": "https://tools.usps.com/UspsToolsRestServices/rest/POLocator/findLocations", "@spider": "usps_collection_boxes", "addr:city": "FORT WORTH", "addr:country": "US", "addr:postcode": "76110", "addr:state": "TX", "addr:street_address": "2600 8TH AVE", "amenity": "post_box", "collection_times": "Mo-Fr 17:00; Sa 15:30", "indoor": "yes", "note": "ON 12/24 AND 12/31, THIS BOX MAY BE COLLECTED AS EARLY AS 12 NOON.", "nsi_id": "unitedstatespostalservice-a77078", "operator": "United States Postal Service", "operator:short": "USPS", "operator:type": "public", "operator:wikidata": "Q668687", "ref": "7611000019"}, "type": "Feature"}
{"geometry": {"coordinates": [-97.343801, 32.714323], "type": "Point"}, "id": "WVn2PNefQYVi8vAZMO9WG3OJWcY=", "properties": {"@source_uri": "https://tools.usps.com/UspsToolsRestServices/rest/POLocator/findLocations", "@spider": "usps_collection_boxes", "addr:city": "FORT WORTH", "addr:country": "US", "addr:postcode": "76110", "addr:state": "TX", "addr:street_address": "2600 8TH AVE", "amenity": "post_box", "collection_times": "Mo-Fr 17:00; Sa 15:30", "indoor": "yes", "note": "ON 12/24 AND 12/31, THIS BOX MAY BE COLLECTED AS EARLY AS 12 NOON.", "nsi_id": "unitedstatespostalservice-a77078", "operator": "United States Postal Service", "operator:short": "USPS", "operator:type": "public", "operator:wikidata": "Q668687", "ref": "7611000020"}, "type": "Feature"}
{"geometry": {"coordinates": [-97.343801, 32.714323], "type": "Point"}, "id": "aA3VvvXvgDxdsUiVkryXYFCmfmc=", "properties": {"@source_uri": "https://tools.usps.com/UspsToolsRestServices/rest/POLocator/findLocations", "@spider": "usps_collection_boxes", "addr:city": "FORT WORTH", "addr:country": "US", "addr:postcode": "76110", "addr:state": "TX", "addr:street_address": "2600 8TH AVE", "amenity": "post_box", "collection_times": "Mo-Fr 17:00; Sa 15:30", "indoor": "yes", "note": "ON 12/24 AND 12/31, THIS BOX MAY BE COLLECTED AS EARLY AS 12 NOON.", "nsi_id": "unitedstatespostalservice-a77078", "operator": "United States Postal Service", "operator:short": "USPS", "operator:type": "public", "operator:wikidata": "Q668687", "ref": "7611000021"}, "type": "Feature"}
{"geometry": {"coordinates": [-97.343801, 32.714323], "type": "Point"}, "id": "PHNU_W4krM4wSvJvjFWNlA4Vydg=", "properties": {"@source_uri": "https://tools.usps.com/UspsToolsRestServices/rest/POLocator/findLocations", "@spider": "usps_collection_boxes", "addr:city": "FORT WORTH", "addr:country": "US", "addr:postcode": "76110", "addr:state": "TX", "addr:street_address": "2600 8TH AVE", "amenity": "post_box", "collection_times": "Mo-Fr 17:00; Sa 12:00", "name": "USPS COLLECTION BOX - APC", "note": "ON 12/24 AND 12/31, THIS BOX MAY BE COLLECTED AS EARLY AS 12 NOON.", "nsi_id": "unitedstatespostalservice-a77078", "operator": "United States Postal Service", "operator:short": "USPS", "operator:type": "public", "operator:wikidata": "Q668687", "ref": "7611000023"}, "type": "Feature"}
{"geometry": {"coordinates": [-97.3438461917, 32.7136224446], "type": "Point"}, "id": "Z70T80eawT_hoqg52o4xz4uYY-Y=", "properties": {"@source_uri": "https://tools.usps.com/UspsToolsRestServices/rest/POLocator/findLocations", "@spider": "usps_collection_boxes", "addr:city": "FORT WORTH", "addr:country": "US", "addr:postcode": "76110", "addr:state": "TX", "addr:street_address": "2600 8TH AVE", "amenity": "post_box", "collection_times": "Mo-Fr 17:00; Sa 12:00", "indoor": "yes", "note": "ON 12/24 AND 12/31, THIS BOX MAY BE COLLECTED AS EARLY AS 12 NOON.", "nsi_id": "unitedstatespostalservice-a77078", "operator": "United States Postal Service", "operator:short": "USPS", "operator:type": "public", "operator:wikidata": "Q668687", "ref": "7611000031"}, "type": "Feature"}
{"geometry": {"coordinates": [-97.3446680127, 32.7136700147], "type": "Point"}, "id": "5oTysUYocPZtkc6V66EtdZZwOQA=", "properties": {"@source_uri": "https://tools.usps.com/UspsToolsRestServices/rest/POLocator/findLocations", "@spider": "usps_collection_boxes", "addr:city": "FORT WORTH", "addr:country": "US", "addr:postcode": "76110", "addr:state": "TX", "addr:street_address": "2600 8TH AVE", "amenity": "post_box", "collection_times": "Mo-Fr 17:15; Sa 15:15", "note": "ON 12/24 AND 12/31, THIS BOX MAY BE COLLECTED AS EARLY AS 12 NOON.", "nsi_id": "unitedstatespostalservice-a77078", "operator": "United States Postal Service", "operator:short": "USPS", "operator:type": "public", "operator:wikidata": "Q668687", "ref": "7611000032"}, "type": "Feature"}
{"geometry": {"coordinates": [-97.2903876, 32.800461], "type": "Point"}, "id": "yaFyRgtdRw_bhb_-eZx9RKF91pM=", "properties": {"@source_uri": "https://tools.usps.com/UspsToolsRestServices/rest/POLocator/findLocations", "@spider": "usps_collection_boxes", "addr:city": "FORT WORTH", "addr:country": "US", "addr:postcode": "76111", "addr:state": "TX", "addr:street_address": "2830 N BEACH ST STE E", "amenity": "post_box", "collection_times": "Mo-Sa 08:05", "nsi_id": "unitedstatespostalservice-a77078", "operator": "United States Postal Service", "operator:short": "USPS", "operator:type": "public", "operator:wikidata": "Q668687", "ref": "7611100001"}, "type": "Feature"}
{"geometry": {"coordinates": [-97.2871553, 32.770575], "type": "Point"}, "id": "kYJI1KNyk6ggW9RLAVv-ULAUJCk=", "properties": {"@source_uri": "https://tools.usps.com/UspsToolsRestServices/rest/POLocator/findLocations", "@spider": "usps_collection_boxes", "addr:city": "FORT WORTH", "addr:country": "US", "addr:postcode": "76111", "addr:state": "TX", "addr:street_address": "550 N BEACH ST", "amenity": "post_box", "collection_times": "Mo-Sa 10:35", "nsi_id": "unitedstatespostalservice-a77078", "operator": "United States Postal Service", "operator:short": "USPS", "operator:type": "public", "operator:wikidata": "Q668687", "ref": "7611100026"}, "type": "Feature"}
{"geometry": {"coordinates": [-97.30418, 32.77024], "type": "Point"}, "id": "e5s5kDa3jeRskmnvNEX645-HZeo=", "properties": {"@source_uri": "https://tools.usps.com/UspsToolsRestServices/rest/POLocator/findLocations", "@spider": "usps_collection_boxes", "addr:city": "FORT WORTH", "addr:country": "US", "addr:postcode": "76111", "addr:state": "TX", "addr:street_address": "400 N RETTA ST", "amenity": "post_box", "collection_times": "Mo-Fr 17:00; Sa 14:00", "indoor": "yes", "note": "ON 12/24 AND 12/31, THIS BOX MAY BE COLLECTED AS EARLY AS 12 NOON.", "nsi_id": "unitedstatespostalservice-a77078", "operator": "United States Postal Service", "operator:short": "USPS", "operator:type": "public", "operator:wikidata": "Q668687", "ref": "7611100029"}, "type": "Feature"}
{"geometry": {"coordinates": [-97.304149821, 32.770592832], "type": "Point"}, "id": "TG8QXtSZfn1_0kW0ekFK6d95gxI=", "properties": {"@source_uri": "https://tools.usps.com/UspsToolsRestServices/rest/POLocator/findLocations", "@spider": "usps_collection_boxes", "addr:city": "FORT WORTH", "addr:country": "US", "addr:postcode": "76111", "addr:state": "TX", "addr:street_address": "400 N RETTA ST", "amenity": "post_box", "collection_times": "Mo-Fr 17:00; Sa 12:00", "indoor": "yes", "note": "ON 12/24 AND 12/31, THIS BOX MAY BE COLLECTED AS EARLY AS 12 NOON.", "nsi_id": "unitedstatespostalservice-a77078", "operator": "United States Postal Service", "operator:short": "USPS", "operator:type": "public", "operator:wikidata": "Q668687", "ref": "7611100034"}, "type": "Feature"}
{"geometry": {"coordinates": [-97.3038140299, 32.7705980152], "type": "Point"}, "id": "75w63twQ1oHogSiJm7QspktUEs8=", "properties": {"@source_uri": "https://tools.usps.com/UspsToolsRestServices/rest/POLocator/findLocations", "@spider": "usps_collection_boxes", "addr:city": "FORT WORTH", "addr:country": "US", "addr:postcode": "76111", "addr:state": "TX", "addr:street_address": "400 N RETTA ST", "amenity": "post_box", "collection_times": "Mo-Fr 17:15; Sa 15:45", "note": "ON 12/24 AND 12/31, THIS BOX MAY BE COLLECTED AS EARLY AS 12 NOON.", "nsi_id": "unitedstatespostalservice-a77078", "operator": "United States Postal Service", "operator:short": "USPS", "operator:type": "public", "operator:wikidata": "Q668687", "ref": "7611100036"}, "type": "Feature"}
{"geometry": {"coordinates": [-97.2323680838, 32.7390957654], "type": "Point"}, "id": "oxwXKkeFogRPB2TIIE9pC_YC1JQ=", "properties": {"@source_uri": "https://tools.usps.com/UspsToolsRestServices/rest/POLocator/findLocations", "@spider": "usps_collection_boxes", "addr:city": "FORT WORTH", "addr:country": "US", "addr:postcode": "76112", "addr:state": "TX", "addr:street_address": "2816 STARK ST", "amenity": "post_box", "collection_times": "Mo-Fr 13:45; Sa 13:15", "note": "ON 12/24 AND 12/31, THIS BOX MAY BE COLLECTED AS EARLY AS 12 NOON.", "nsi_id": "unitedstatespostalservice-a77078", "operator": "United States Postal Service", "operator:short": "USPS", "operator:type": "public", "operator:wikidata": "Q668687", "ref": "7611200006"}, "type": "Feature"}
{"geometry": {"coordinates": [-97.2143989882, 32.7464059986], "type": "Point"}, "id": "rTnUlrwL-q2hfVjQH8u_lyLddSA=", "properties": {"@source_uri": "https://tools.usps.com/UspsToolsRestServices/rest/POLocator/findLocations", "@spider": "usps_collection_boxes", "addr:city": "FORT WORTH", "addr:country": "US", "addr:postcode": "76112", "addr:state": "TX", "addr:street_address": "6705 MEADOWBROOK DR", "amenity": "post_box", "collection_times": "Mo-Sa 10:30", "nsi_id": "unitedstatespostalservice-a77078", "operator": "United States Postal Service", "operator:short": "USPS", "operator:type": "public", "operator:wikidata": "Q668687", "ref": "7611200033"}, "type": "Feature"}
{"geometry": {"coordinates": [-97.2166809613, 32.732431983], "type": "Point"}, "id": "7X0BrfJ2Nj3Ys8rRpkAV4jRmmi8=", "properties": {"@source_uri": "https://tools.usps.com/UspsToolsRestServices/rest/POLocator/findLocations", "@spider": "usps_collection_boxes", "addr:city": "FORT WORTH", "addr:country": "US", "addr:postcode": "76112", "addr:state": "TX", "addr:street_address": "6701 E LANCASTER AVE", "amenity": "post_box", "collection_times": "Mo-Sa 08:40", "nsi_id": "unitedstatespostalservice-a77078", "operator": "United States Postal Service", "operator:short": "USPS", "operator:type": "public", "operator:wikidata": "Q668687", "ref": "7611200042"}, "type": "Feature"}
{"geometry": {"coordinates": [-97.2126719808, 32.7571570048], "type": "Point"}, "id": "CfKQBfwRJkUPMrhK2fXLc_zhHtw=", "properties": {"@source_uri": "https://tools.usps.com/UspsToolsRestServices/rest/POLocator/findLocations", "@spider": "usps_collection_boxes", "addr:city": "FORT WORTH", "addr:country": "US", "addr:postcode": "76112", "addr:state": "TX", "addr:street_address": "1475 HANDLEY DR", "amenity": "post_box", "collection_times": "Mo-Fr 17:00", "indoor": "yes", "note": "ON 12/24 AND 12/31, THIS BOX MAY BE COLLECTED AS EARLY AS 12 NOON.", "nsi_id": "unitedstatespostalservice-a77078", "operator": "United States Postal Service", "operator:short": "USPS", "operator:type": "public", "operator:wikidata": "Q668687", "ref": "7611200044"}, "type": "Feature"}
{"geometry": {"coordinates": [-97.3842529754, 32.7880350141], "type": "Point"}, "id": "D2667UilG9vwPlw8KIDwL1WnxCQ=", "properties": {"@source_uri": "https://tools.usps.com/UspsToolsRestServices/rest/POLocator/findLocations", "@spider": "usps_collection_boxes", "addr:city": "RIVER OAKS", "addr:country": "US", "addr:postcode": "76114", "addr:state": "TX", "addr:street_address": "2454 JACKSBORO HWY", "amenity": "post_box", "collection_times": "Mo-Sa 09:35", "nsi_id": "unitedstatespostalservice-a77078", "operator": "United States Postal Service", "operator:short": "USPS", "operator:type": "public", "operator:wikidata": "Q668687", "ref": "7611400015"}, "type": "Feature"}
{"geometry": {"coordinates": [-97.3995679, 32.775637], "type": "Point"}, "id": "DObzQ440ZAQza-5UukbTUC66fLU=", "properties": {"@source_uri": "https://tools.usps.com/UspsToolsRestServices/rest/POLocator/findLocations", "@spider": "usps_collection_boxes", "addr:city": "RIVER OAKS", "addr:country": "US", "addr:postcode": "76114", "addr:state": "TX", "addr:street_address": "1008 ROBERTS CUT OFF RD", "amenity": "post_box", "collection_times": "Mo-Fr 17:00; Sa 16:00", "indoor": "yes", "note": "ON 12/24 AND 12/31, THIS BOX MAY BE COLLECTED AS EARLY AS 12 NOON.", "nsi_id": "unitedstatespostalservice-a77078", "operator": "United States Postal Service", "operator:short": "USPS", "operator:type": "public", "operator:wikidata": "Q668687", "ref": "7611400019"}, "type": "Feature"}
{"geometry": {"coordinates": [-97.4001550383, 32.7598100029], "type": "Point"}, "id": "iInH8phid7L72lN5qKxKmmA_w20=", "properties": {"@source_uri": "https://tools.usps.com/UspsToolsRestServices/rest/POLocator/findLocations", "@spider": "usps_collection_boxes", "addr:city": "RIVER OAKS", "addr:country": "US", "addr:postcode": "76114", "addr:state": "TX", "addr:street_address": "5301 WHITE SETTLEMENT RD", "amenity": "post_box", "collection_times": "Mo-Sa 09:15", "nsi_id": "unitedstatespostalservice-a77078", "operator": "United States Postal Service", "operator:short": "USPS", "operator:type": "public", "operator:wikidata": "Q668687", "ref": "7611400020"}, "type": "Feature"}
{"geometry": {"coordinates": [-97.39984083, 32.775677612], "type": "Point"}, "id": "N3BQePsKSlvkSrEGbYLLo3ZDops=", "properties": {"@source_uri": "https://tools.usps.com/UspsToolsRestServices/rest/POLocator/findLocations", "@spider": "usps_collection_boxes", "addr:city": "RIVER OAKS", "addr:country": "US", "addr:postcode": "76114", "addr:state": "TX", "addr:street_address": "1008 ROBERTS CUT OFF RD", "amenity": "post_box", "collection_times": "Mo-Fr 17:00; Sa 13:00", "indoor": "yes", "note": "ON 12/24 AND 12/31, THIS BOX MAY BE COLLECTED AS EARLY AS 12 NOON.", "nsi_id": "unitedstatespostalservice-a77078", "operator": "United States Postal Service", "operator:short": "USPS", "operator:type": "public", "operator:wikidata": "Q668687", "ref": "7611400027"}, "type": "Feature"}
{"geometry": {"coordinates": [-97.397410166, 32.776107259], "type": "Point"}, "id": "5SYYEq0gDKtOsJ3NHzGiPTEXlRk=", "properties": {"@source_uri": "https://tools.usps.com/UspsToolsRestServices/rest/POLocator/findLocations", "@spider": "usps_collection_boxes", "addr:city": "RIVER OAKS", "addr:country": "US", "addr:postcode": "76114", "addr:state": "TX", "addr:street_address": "5500 BUCHANAN ST", "amenity": "post_box", "collection_times": "Mo-Sa 13:00", "note": "ON 12/24 AND 12/31, THIS BOX MAY BE COLLECTED AS EARLY AS 12 NOON.", "nsi_id": "unitedstatespostalservice-a77078", "operator": "United States Postal Service", "operator:short": "USPS", "operator:type": "public", "operator:wikidata": "Q668687", "ref": "7611400030"}, "type": "Feature"}
{"geometry": {"coordinates": [-97.3251589655, 32.6864769834], "type": "Point"}, "id": "_ch9AcJn19PHIhVti6ZnVacuARg=", "properties": {"@source_uri": "https://tools.usps.com/UspsToolsRestServices/rest/POLocator/findLocations", "@spider": "usps_collection_boxes", "addr:city": "FT WORTH", "addr:country": "US", "addr:postcode": "76115", "addr:state": "TX", "addr:street_address": "4200 SOUTH FWY", "amenity": "post_box", "collection_times": "Mo-Fr 16:00", "note": "ON 12/24 AND 12/31, THIS BOX MAY BE COLLECTED AS EARLY AS 12 NOON.", "nsi_id": "unitedstatespostalservice-a77078", "operator": "United States Postal Service", "operator:short": "USPS", "operator:type": "public", "operator:wikidata": "Q668687", "ref": "7611500017"}, "type": "Feature"}
{"geometry": {"coordinates": [-97.3173544, 32.6816354], "type": "Point"}, "id": "0kPio671LL4FEbiftZbhS1AVEtQ=", "properties": {"@source_uri": "https://tools.usps.com/UspsToolsRestServices/rest/POLocator/findLocations", "@spider": "usps_collection_boxes", "addr:city": "FT WORTH", "addr:country": "US", "addr:postcode": "76115", "addr:state": "TX", "addr:street_address": "700 CALIFORNIA PKWY N", "amenity": "post_box", "collection_times": "Mo-Sa 08:10", "nsi_id": "unitedstatespostalservice-a77078", "operator": "United States Postal Service", "operator:short": "USPS", "operator:type": "public", "operator:wikidata": "Q668687", "ref": "7611500020"}, "type": "Feature"}
{"geometry": {"coordinates": [-97.4147419806, 32.7297869896], "type": "Point"}, "id": "1CVqmhTIX1jSeB6QMXJfqtX-VtE=", "properties": {"@source_uri": "https://tools.usps.com/UspsToolsRestServices/rest/POLocator/findLocations", "@spider": "usps_collection_boxes", "addr:city": "FORT WORTH", "addr:country": "US", "addr:postcode": "76116", "addr:state": "TX", "addr:street_address": "6040 CAMP BOWIE BLVD", "amenity": "post_box", "collection_times": "Mo-Sa 10:00", "nsi_id": "unitedstatespostalservice-a77078", "operator": "United States Postal Service", "operator:short": "USPS", "operator:type": "public", "operator:wikidata": "Q668687", "ref": "7611600006"}, "type": "Feature"}
{"geometry": {"coordinates": [-97.4507699988, 32.7044259909], "type": "Point"}, "id": "5j1R4oSsVrQlEG9Q1XuGf8l5sRo=", "properties": {"@source_uri": "https://tools.usps.com/UspsToolsRestServices/rest/POLocator/findLocations", "@spider": "usps_collection_boxes", "addr:city": "FORT WORTH", "addr:country": "US", "addr:postcode": "76116", "addr:state": "TX", "addr:street_address": "4840 BENBROOK BLVD", "amenity": "post_box", "collection_times": "Mo-Sa 08:10", "nsi_id": "unitedstatespostalservice-a77078", "operator": "United States Postal Service", "operator:short": "USPS", "operator:type": "public", "operator:wikidata": "Q668687", "ref": "7611600008"}, "type": "Feature"}
{"geometry": {"coordinates": [-97.4673159595, 32.7233669966], "type": "Point"}, "id": "mxlb1h796vxefEiSiINBlUzV97E=", "properties": {"@source_uri": "https://tools.usps.com/UspsToolsRestServices/rest/POLocator/findLocations", "@spider": "usps_collection_boxes", "addr:city": "FORT WORTH", "addr:country": "US", "addr:postcode": "76116", "addr:state": "TX", "addr:street_address": "8629 CAMP BOWIE WEST BLVD", "amenity": "post_box", "collection_times": "Mo-Sa 10:30", "nsi_id": "unitedstatespostalservice-a77078", "operator": "United States Postal Service", "operator:short": "USPS", "operator:type": "public", "operator:wikidata": "Q668687", "ref": "7611600019"}, "type": "Feature"}
{"geometry": {"coordinates": [-97.4539709638, 32.7222120123], "type": "Point"}, "id": "LzsFNpnTv3vj_2NddlSXO5qcEOg=", "properties": {"@source_uri": "https://tools.usps.com/UspsToolsRestServices/rest/POLocator/findLocations", "@spider": "usps_collection_boxes", "addr:city": "FORT WORTH", "addr:country": "US", "addr:postcode": "76116", "addr:state": "TX", "addr:street_address": "7921 CAMP BOWIE WEST BLVD", "amenity": "post_box", "collection_times": "Mo-Sa 12:55", "note": "ON 12/24 AND 12/31, THIS BOX MAY BE COLLECTED AS EARLY AS 12 NOON.", "nsi_id": "unitedstatespostalservice-a77078", "operator": "United States Postal Service", "operator:short": "USPS", "operator:type": "public", "operator:wikidata": "Q668687", "ref": "7611600026"}, "type": "Feature"}
{"geometry": {"coordinates": [-97.4152479961, 32.7278019873], "type": "Point"}, "id": "AMxPykCe9JQlT0c0rOdSPeWXFLQ=", "properties": {"@source_uri": "https://tools.usps.com/UspsToolsRestServices/rest/POLocator/findLocations", "@spider": "usps_collection_boxes", "addr:city": "FORT WORTH", "addr:country": "US", "addr:postcode": "76116", "addr:state": "TX", "addr:street_address": "6115 CAMP BOWIE BLVD", "amenity": "post_box", "collection_times": "Mo-Fr 09:45", "nsi_id": "unitedstatespostalservice-a77078", "operator": "United States Postal Service", "operator:short": "USPS", "operator:type": "public", "operator:wikidata": "Q668687", "ref": "7611600043"}, "type": "Feature"}
{"geometry": {"coordinates": [-97.450778, 32.729742], "type": "Point"}, "id": "w-lRxhObpehi0OkGLhv6gx8QwXs=", "properties": {"@source_uri": "https://tools.usps.com/UspsToolsRestServices/rest/POLocator/findLocations", "@spider": "usps_collection_boxes", "addr:city": "FORT WORTH", "addr:country": "US", "addr:postcode": "76116", "addr:state": "TX", "addr:street_address": "3020 CHERRY LN", "amenity": "post_box", "collection_times": "Mo-Fr 17:00; Sa 14:00", "indoor": "yes", "note": "ON 12/24 AND 12/31, THIS BOX MAY BE COLLECTED AS EARLY AS 12 NOON.", "nsi_id": "unitedstatespostalservice-a77078", "operator": "United States Postal Service", "operator:short": "USPS", "operator:type": "public", "operator:wikidata": "Q668687", "ref": "7611600049"}, "type": "Feature"}
{"geometry": {"coordinates": [-97.450778, 32.729742], "type": "Point"}, "id": "xdt-cj_senoRXTmRRF3e3vSKens=", "properties": {"@source_uri": "https://tools.usps.com/UspsToolsRestServices/rest/POLocator/findLocations", "@spider": "usps_collection_boxes", "addr:city": "FORT WORTH", "addr:country": "US", "addr:postcode": "76116", "addr:state": "TX", "addr:street_address": "3020 CHERRY LN", "amenity": "post_box", "collection_times": "Mo-Fr 17:00; Sa 14:00", "indoor": "yes", "note": "ON 12/24 AND 12/31, THIS BOX MAY BE COLLECTED AS EARLY AS 12 NOON.", "nsi_id": "unitedstatespostalservice-a77078", "operator": "United States Postal Service", "operator:short": "USPS", "operator:type": "public", "operator:wikidata": "Q668687", "ref": "7611600050"}, "type": "Feature"}
{"geometry": {"coordinates": [-97.4339460104, 32.7202149819], "type": "Point"}, "id": "6GlZ2V_oUCat3YDVndeYIvSrK9s=", "properties": {"@source_uri": "https://tools.usps.com/UspsToolsRestServices/rest/POLocator/findLocations", "@spider": "usps_collection_boxes", "addr:city": "FORT WORTH", "addr:country": "US", "addr:postcode": "76116", "addr:state": "TX", "addr:street_address": "6777 CAMP BOWIE BLVD", "amenity": "post_box", "collection_times": "Mo-Sa 09:30", "nsi_id": "unitedstatespostalservice-a77078", "operator": "United States Postal Service", "operator:short": "USPS", "operator:type": "public", "operator:wikidata": "Q668687", "ref": "7611600058"}, "type": "Feature"}
{"geometry": {"coordinates": [-97.4207610252, 32.7248539881], "type": "Point"}, "id": "uSwuomHamebwSjLsCFLQpyytXKU=", "properties": {"@source_uri": "https://tools.usps.com/UspsToolsRestServices/rest/POLocator/findLocations", "@spider": "usps_collection_boxes", "addr:city": "FORT WORTH", "addr:country": "US", "addr:postcode": "76116", "addr:state": "TX", "addr:street_address": "6377 CAMP BOWIE BLVD", "amenity": "post_box", "collection_times": "Mo-Sa 09:45", "nsi_id": "unitedstatespostalservice-a77078", "operator": "United States Postal Service", "operator:short": "USPS", "operator:type": "public", "operator:wikidata": "Q668687", "ref": "7611600068"}, "type": "Feature"}
{"geometry": {"coordinates": [-97.450778, 32.729742], "type": "Point"}, "id": "iUxcmqv1jhs4mujLgcaK1NfDI-o=", "properties": {"@source_uri": "https://tools.usps.com/UspsToolsRestServices/rest/POLocator/findLocations", "@spider": "usps_collection_boxes", "addr:city": "FORT WORTH", "addr:country": "US", "addr:postcode": "76116", "addr:state": "TX", "addr:street_address": "3020 CHERRY LN", "amenity": "post_box", "collection_times": "Mo-Fr 17:00; Sa 13:00", "name": "USPS COLLECTION BOX - APC", "note": "ON 12/24 AND 12/31, THIS BOX MAY BE COLLECTED AS EARLY AS 12 NOON.", "nsi_id": "unitedstatespostalservice-a77078", "operator": "United States Postal Service", "operator:short": "USPS", "operator:type": "public", "operator:wikidata": "Q668687", "ref": "7611600080"}, "type": "Feature"}
{"geometry": {"coordinates": [-97.4236520275, 32.7242419835], "type": "Point"}, "id": "lAiCOEsufnyt579RP0Q3GAVyYRA=", "properties": {"@source_uri": "https://tools.usps.com/UspsToolsRestServices/rest/POLocator/findLocations", "@spider": "usps_collection_boxes", "addr:city": "FORT WORTH", "addr:country": "US", "addr:postcode": "76116", "addr:state": "TX", "addr:street_address": "6421 CAMP BOWIE BLVD", "amenity": "post_box", "collection_times": "Mo-Sa 09:30", "nsi_id": "unitedstatespostalservice-a77078", "operator": "United States Postal Service", "operator:short": "USPS", "operator:type": "public", "operator:wikidata": "Q668687", "ref": "7611600099"}, "type": "Feature"}
{"geometry": {"coordinates": [-97.4516299821, 32.7298719821], "type": "Point"}, "id": "crUjrmOiXsqiaim_OnySZzBbY8c=", "properties": {"@source_uri": "https://tools.usps.com/UspsToolsRestServices/rest/POLocator/findLocations", "@spider": "usps_collection_boxes", "addr:city": "FORT WORTH", "addr:country": "US", "addr:postcode": "76116", "addr:state": "TX", "addr:street_address": "3020 CHERRY LN", "amenity": "post_box", "collection_times": "Mo-Fr 17:00; Sa 13:00", "indoor": "yes", "note": "ON 12/24 AND 12/31, THIS BOX MAY BE COLLECTED AS EARLY AS 12 NOON.", "nsi_id": "unitedstatespostalservice-a77078", "operator": "United States Postal Service", "operator:short": "USPS", "operator:type": "public", "operator:wikidata": "Q668687", "ref": "7611600107"}, "type": "Feature"}
{"geometry": {"coordinates": [-97.2658087193, 32.8241173105], "type": "Point"}, "id": "4-9bz_tS0JfJHjh5IWNmqUXNfEQ=", "properties": {"@source_uri": "https://tools.usps.com/UspsToolsRestServices/rest/POLocator/findLocations", "@spider": "usps_collection_boxes", "addr:city": "FORT WORTH", "addr:country": "US", "addr:postcode": "76117", "addr:state": "TX", "addr:street_address": "5429 STANLEY KELLER RD", "amenity": "post_box", "collection_times": "Mo-Sa 10:00", "nsi_id": "unitedstatespostalservice-a77078", "operator": "United States Postal Service", "operator:short": "USPS", "operator:type": "public", "operator:wikidata": "Q668687", "ref": "7611700011"}, "type": "Feature"}
{"geometry": {"coordinates": [-97.262577, 32.808458], "type": "Point"}, "id": "QuoI-krhzAqDeyKKYdRHcb0q3sk=", "properties": {"@source_uri": "https://tools.usps.com/UspsToolsRestServices/rest/POLocator/findLocations", "@spider": "usps_collection_boxes", "addr:city": "FORT WORTH", "addr:country": "US", "addr:postcode": "76117", "addr:state": "TX", "addr:street_address": "5709 BROADWAY AVE", "amenity": "post_box", "collection_times": "Mo-Fr 17:00", "indoor": "yes", "note": "ON 12/24 AND 12/31, THIS BOX MAY BE COLLECTED AS EARLY AS 12 NOON.", "nsi_id": "unitedstatespostalservice-a77078", "operator": "United States Postal Service", "operator:short": "USPS", "operator:type": "public", "operator:wikidata": "Q668687", "ref": "7611700023"}, "type": "Feature"}
{"geometry": {"coordinates": [-97.262567, 32.808431], "type": "Point"}, "id": "Qh9HoB6DYoRwuBtM5AxrysO2Ds4=", "properties": {"@source_uri": "https://tools.usps.com/UspsToolsRestServices/rest/POLocator/findLocations", "@spider": "usps_collection_boxes", "addr:city": "FORT WORTH", "addr:country": "US", "addr:postcode": "76117", "addr:state": "TX", "addr:street_address": "5709 BROADWAY AVE", "amenity": "post_box", "collection_times": "Mo-Fr 17:00", "indoor": "yes", "note": "ON 12/24 AND 12/31, THIS BOX MAY BE COLLECTED AS EARLY AS 12 NOON.", "nsi_id": "unitedstatespostalservice-a77078", "operator": "United States Postal Service", "operator:short": "USPS", "operator:type": "public", "operator:wikidata": "Q668687", "ref": "7611700034"}, "type": "Feature"}
{"geometry": {"coordinates": [-97.261983, 32.808455513], "type": "Point"}, "id": "oLm27WvcEALfpuz_YIaEmA5YyH0=", "properties": {"@source_uri": "https://tools.usps.com/UspsToolsRestServices/rest/POLocator/findLocations", "@spider": "usps_collection_boxes", "addr:city": "FORT WORTH", "addr:country": "US", "addr:postcode": "76117", "addr:state": "TX", "addr:street_address": "5709 BROADWAY AVE", "amenity": "post_box", "collection_times": "Mo-Fr 17:00", "indoor": "yes", "note": "ON 12/24 AND 12/31, THIS BOX MAY BE COLLECTED AS EARLY AS 12 NOON.", "nsi_id": "unitedstatespostalservice-a77078", "operator": "United States Postal Service", "operator:short": "USPS", "operator:type": "public", "operator:wikidata": "Q668687", "ref": "7611700043"}, "type": "Feature"}
{"geometry": {"coordinates": [-97.2117600298, 32.8202970013], "type": "Point"}, "id": "76nWE0t5GLX1uqt8zpDH6tTEOq0=", "properties": {"@source_uri": "https://tools.usps.com/UspsToolsRestServices/rest/POLocator/findLocations", "@spider": "usps_collection_boxes", "addr:city": "RICHLAND HILLS", "addr:country": "US", "addr:postcode": "76118", "addr:state": "TX", "addr:street_address": "3830 BOOTH CALLOWAY RD", "amenity": "post_box", "collection_times": "Mo-Sa 09:05", "nsi_id": "unitedstatespostalservice-a77078", "operator": "United States Postal Service", "operator:short": "USPS", "operator:type": "public", "operator:wikidata": "Q668687", "ref": "7611800002"}, "type": "Feature"}
{"geometry": {"coordinates": [-97.2287609602, 32.809646997], "type": "Point"}, "id": "2XzEKWjap5EsHbWP4zQREUNPh_Q=", "properties": {"@source_uri": "https://tools.usps.com/UspsToolsRestServices/rest/POLocator/findLocations", "@spider": "usps_collection_boxes", "addr:city": "RICHLAND HILLS", "addr:country": "US", "addr:postcode": "76118", "addr:state": "TX", "addr:street_address": "7085 BAKER BLVD", "amenity": "post_box", "collection_times": "Mo-Sa 08:35", "nsi_id": "unitedstatespostalservice-a77078", "operator": "United States Postal Service", "operator:short": "USPS", "operator:type": "public", "operator:wikidata": "Q668687", "ref": "7611800003"}, "type": "Feature"}
{"geometry": {"coordinates": [-97.2378089732, 32.8079069978], "type": "Point"}, "id": "sAAFOe_Nkxt6ELYSLbSUDp_PceM=", "properties": {"@source_uri": "https://tools.usps.com/UspsToolsRestServices/rest/POLocator/findLocations", "@spider": "usps_collection_boxes", "addr:city": "RICHLAND HILLS", "addr:country": "US", "addr:postcode": "76118", "addr:state": "TX", "addr:street_address": "3201 DIANA DR STE A", "amenity": "post_box", "collection_times": "Mo-Sa 10:30", "nsi_id": "unitedstatespostalservice-a77078", "operator": "United States Postal Service", "operator:short": "USPS", "operator:type": "public", "operator:wikidata": "Q668687", "ref": "7611800004"}, "type": "Feature"}
{"geometry": {"coordinates": [-97.2181859033, 32.8042487518], "type": "Point"}, "id": "AKiVWbQCkIfCWc8zjQ2UFsr-iGc=", "properties": {"@source_uri": "https://tools.usps.com/UspsToolsRestServices/rest/POLocator/findLocations", "@spider": "usps_collection_boxes", "addr:city": "RICHLAND HILLS", "addr:country": "US", "addr:postcode": "76118", "addr:state": "TX", "addr:street_address": "7430 DOGWOOD PARK DR", "amenity": "post_box", "collection_times": "Mo-Sa 12:00", "nsi_id": "unitedstatespostalservice-a77078", "operator": "United States Postal Service", "operator:short": "USPS", "operator:type": "public", "operator:wikidata": "Q668687", "ref": "7611800009"}, "type": "Feature"}
{"geometry": {"coordinates": [-97.2378089732, 32.8079069978], "type": "Point"}, "id": "_aOQgUQdyuekBr5-AB0ABvN-Xyw=", "properties": {"@source_uri": "https://tools.usps.com/UspsToolsRestServices/rest/POLocator/findLocations", "@spider": "usps_collection_boxes", "addr:city": "RICHLAND HILLS", "addr:country": "US", "addr:postcode": "76118", "addr:state": "TX", "addr:street_address": "3201 DIANA DR STE A", "amenity": "post_box", "collection_times": "Mo-Fr 16:15", "indoor": "yes", "note": "ON 12/24 AND 12/31, THIS BOX MAY BE COLLECTED AS EARLY AS 12 NOON.", "nsi_id": "unitedstatespostalservice-a77078", "operator": "United States Postal Service", "operator:short": "USPS", "operator:type": "public", "operator:wikidata": "Q668687", "ref": "7611800012"}, "type": "Feature"}
{"geometry": {"coordinates": [-97.2378089732, 32.8079069978], "type": "Point"}, "id": "tJZe0xgJWATUD2VNpKr2NGDdq3A=", "properties": {"@source_uri": "https://tools.usps.com/UspsToolsRestServices/rest/POLocator/findLocations", "@spider": "usps_collection_boxes", "addr:city": "RICHLAND HILLS", "addr:country": "US", "addr:postcode": "76118", "addr:state": "TX", "addr:street_address": "3201 DIANA DR STE A", "amenity": "post_box", "collection_times": "Mo-Fr 16:15", "indoor": "yes", "note": "ON 12/24 AND 12/31, THIS BOX MAY BE COLLECTED AS EARLY AS 12 NOON.", "nsi_id": "unitedstatespostalservice-a77078", "operator": "United States Postal Service", "operator:short": "USPS", "operator:type": "public", "operator:wikidata": "Q668687", "ref": "7611800013"}, "type": "Feature"}
{"geometry": {"coordinates": [-97.2165989863, 32.7937520169], "type": "Point"}, "id": "h8IDyyhwoghjhC1rZG06nscUJpA=", "properties": {"@source_uri": "https://tools.usps.com/UspsToolsRestServices/rest/POLocator/findLocations", "@spider": "usps_collection_boxes", "addr:city": "RICHLAND HILLS", "addr:country": "US", "addr:postcode": "76118", "addr:state": "TX", "addr:street_address": "2414 GRAVEL DR", "amenity": "post_box", "collection_times": "Mo-Fr 16:00", "indoor": "yes", "note": "ON 12/24 AND 12/31, THIS BOX MAY BE COLLECTED AS EARLY AS 12 NOON.", "nsi_id": "unitedstatespostalservice-a77078", "operator": "United States Postal Service", "operator:short": "USPS", "operator:type": "public", "operator:wikidata": "Q668687", "ref": "7611800020"}, "type": "Feature"}
{"geometry": {"coordinates": [-97.2165989863, 32.7937520169], "type": "Point"}, "id": "yu0-kTK61CNPJ4Q0dje7EdCeHwc=", "properties": {"@source_uri": "https://tools.usps.com/UspsToolsRestServices/rest/POLocator/findLocations", "@spider": "usps_collection_boxes", "addr:city": "RICHLAND HILLS", "addr:country": "US", "addr:postcode": "76118", "addr:state": "TX", "addr:street_address": "2414 GRAVEL DR", "amenity": "post_box", "collection_times": "Mo-Fr 16:00", "indoor": "yes", "note": "ON 12/24 AND 12/31, THIS BOX MAY BE COLLECTED AS EARLY AS 12 NOON.", "nsi_id": "unitedstatespostalservice-a77078", "operator": "United States Postal Service", "operator:short": "USPS", "operator:type": "public", "operator:wikidata": "Q668687", "ref": "7611800021"}, "type": "Feature"}
{"geometry": {"coordinates": [-97.2165989863, 32.7937520169], "type": "Point"}, "id": "9Ca0CND4EMwywJi6xV4dCab5iqA=", "properties": {"@source_uri": "https://tools.usps.com/UspsToolsRestServices/rest/POLocator/findLocations", "@spider": "usps_collection_boxes", "addr:city": "RICHLAND HILLS", "addr:country": "US", "addr:postcode": "76118", "addr:state": "TX", "addr:street_address": "2414 GRAVEL DR", "amenity": "post_box", "collection_times": "Mo-Fr 16:00", "indoor": "yes", "note": "ON 12/24 AND 12/31, THIS BOX MAY BE COLLECTED AS EARLY AS 12 NOON.", "nsi_id": "unitedstatespostalservice-a77078", "operator": "United States Postal Service", "operator:short": "USPS", "operator:type": "public", "operator:wikidata": "Q668687", "ref": "7611800027"}, "type": "Feature"}
{"geometry": {"coordinates": [-97.2378089732, 32.8079069978], "type": "Point"}, "id": "eFpZj7w-1oxZRCCEl5nmtbBEm5g=", "properties": {"@source_uri": "https://tools.usps.com/UspsToolsRestServices/rest/POLocator/findLocations", "@spider": "usps_collection_boxes", "addr:city": "RICHLAND HILLS", "addr:country": "US", "addr:postcode": "76118", "addr:state": "TX", "addr:street_address": "3201 DIANA DR STE A", "amenity": "post_box", "collection_times": "Mo-Fr 16:30", "indoor": "yes", "note": "ON 12/24 AND 12/31, THIS BOX MAY BE COLLECTED AS EARLY AS 12 NOON.", "nsi_id": "unitedstatespostalservice-a77078", "operator": "United States Postal Service", "operator:short": "USPS", "operator:type": "public", "operator:wikidata": "Q668687", "ref": "7611800028"}, "type": "Feature"}
{"geometry": {"coordinates": [-97.2799904, 32.685737], "type": "Point"}, "id": "3DNz_r-Y1rkf61eoEu-D8RNXOgI=", "properties": {"@source_uri": "https://tools.usps.com/UspsToolsRestServices/rest/POLocator/findLocations", "@spider": "usps_collection_boxes", "addr:city": "FORT WORTH", "addr:country": "US", "addr:postcode": "76119", "addr:state": "TX", "addr:street_address": "5125 WICHITA ST", "amenity": "post_box", "collection_times": "Mo-Fr 17:00; Sa 15:15", "indoor": "yes", "note": "ON 12/24 AND 12/31, THIS BOX MAY BE COLLECTED AS EARLY AS 12 NOON.", "nsi_id": "unitedstatespostalservice-a77078", "operator": "United States Postal Service", "operator:short": "USPS", "operator:type": "public", "operator:wikidata": "Q668687", "ref": "7611900022"}, "type": "Feature"}
{"geometry": {"coordinates": [-97.2799314, 32.68575], "type": "Point"}, "id": "Tdup2RsOj1XIvLdapSiF_A1p8ew=", "properties": {"@source_uri": "https://tools.usps.com/UspsToolsRestServices/rest/POLocator/findLocations", "@spider": "usps_collection_boxes", "addr:city": "FORT WORTH", "addr:country": "US", "addr:postcode": "76119", "addr:state": "TX", "addr:street_address": "5125 WICHITA ST", "amenity": "post_box", "collection_times": "Mo-Fr 17:00; Sa 15:15", "indoor": "yes", "note": "ON 12/24 AND 12/31, THIS BOX MAY BE COLLECTED AS EARLY AS 12 NOON.", "nsi_id": "unitedstatespostalservice-a77078", "operator": "United States Postal Service", "operator:short": "USPS", "operator:type": "public", "operator:wikidata": "Q668687", "ref": "7611900024"}, "type": "Feature"}
{"geometry": {"coordinates": [-97.280338374, 32.685785581], "type": "Point"}, "id": "efCL-QD34cKpjBPXR7D0M1QrjNo=", "properties": {"@source_uri": "https://tools.usps.com/UspsToolsRestServices/rest/POLocator/findLocations", "@spider": "usps_collection_boxes", "addr:city": "FORT WORTH", "addr:country": "US", "addr:postcode": "76119", "addr:state": "TX", "addr:street_address": "5125 WICHITA ST", "amenity": "post_box", "collection_times": "Mo-Fr 17:00", "indoor": "yes", "note": "ON 12/24 AND 12/31, THIS BOX MAY BE COLLECTED AS EARLY AS 12 NOON.", "nsi_id": "unitedstatespostalservice-a77078", "operator": "United States Postal Service", "operator:short": "USPS", "operator:type": "public", "operator:wikidata": "Q668687", "ref": "7611900031"}, "type": "Feature"}
{"geometry": {"coordinates": [-97.28036, 32.686985], "type": "Point"}, "id": "xmJtRs_-4TbMVRkZQT39IVp7tl0=", "properties": {"@source_uri": "https://tools.usps.com/UspsToolsRestServices/rest/POLocator/findLocations", "@spider": "usps_collection_boxes", "addr:city": "FORT WORTH", "addr:country": "US", "addr:postcode": "76119", "addr:state": "TX", "addr:street_address": "5125 WICHITA ST", "amenity": "post_box", "collection_times": "Mo-Fr 16:45; Sa 12:45", "note": "ON 12/24 AND 12/31, THIS BOX MAY BE COLLECTED AS EARLY AS 12 NOON.", "nsi_id": "unitedstatespostalservice-a77078", "operator": "United States Postal Service", "operator:short": "USPS", "operator:type": "public", "operator:wikidata": "Q668687", "ref": "7611900033"}, "type": "Feature"}
{"geometry": {"coordinates": [-97.16944, 32.755285], "type": "Point"}, "id": "j5O72scwQ0cEzGOX7oOiJsCFBjs=", "properties": {"@source_uri": "https://tools.usps.com/UspsToolsRestServices/rest/POLocator/findLocations", "@spider": "usps_collection_boxes", "addr:city": "FT WORTH", "addr:country": "US", "addr:postcode": "76120", "addr:state": "TX", "addr:street_address": "6801 MANHATTAN BLVD", "amenity": "post_box", "collection_times": "Mo-Sa 11:45", "nsi_id": "unitedstatespostalservice-a77078", "operator": "United States Postal Service", "operator:short": "USPS", "operator:type": "public", "operator:wikidata": "Q668687", "ref": "7612000017"}, "type": "Feature"}
{"geometry": {"coordinates": [-97.21341, 32.75737], "type": "Point"}, "id": "6HAZEfNOBnJgfdsL5KQZEpIoV_w=", "properties": {"@source_uri": "https://tools.usps.com/UspsToolsRestServices/rest/POLocator/findLocations", "@spider": "usps_collection_boxes", "addr:city": "FT WORTH", "addr:country": "US", "addr:postcode": "76124", "addr:state": "TX", "addr:street_address": "1475 HANDLEY DR", "amenity": "post_box", "collection_times": "Mo-Fr 16:45", "note": "ON 12/24 AND 12/31, THIS BOX MAY BE COLLECTED AS EARLY AS 12 NOON.", "nsi_id": "unitedstatespostalservice-a77078", "operator": "United States Postal Service", "operator:short": "USPS", "operator:type": "public", "operator:wikidata": "Q668687", "ref": "7612400005"}, "type": "Feature"}
{"geometry": {"coordinates": [-97.2126719808, 32.7571570048], "type": "Point"}, "id": "vq9bvRQ3qgtevs3erTpoFrjlAE4=", "properties": {"@source_uri": "https://tools.usps.com/UspsToolsRestServices/rest/POLocator/findLocations", "@spider": "usps_collection_boxes", "addr:city": "FT WORTH", "addr:country": "US", "addr:postcode": "76124", "addr:state": "TX", "addr:street_address": "1475 HANDLEY DR", "amenity": "post_box", "collection_times": "Mo-Fr 17:00; Sa 11:30", "indoor": "yes", "note": "ON 12/24 AND 12/31, THIS BOX MAY BE COLLECTED AS EARLY AS 12 NOON.", "nsi_id": "unitedstatespostalservice-a77078", "operator": "United States Postal Service", "operator:short": "USPS", "operator:type": "public", "operator:wikidata": "Q668687", "ref": "7612400007"}, "type": "Feature"}
{"geometry": {"coordinates": [-97.2126719808, 32.7571570048], "type": "Point"}, "id": "GTLgTwgsiITnOZyira-NwRuZt1I=", "properties": {"@source_uri": "https://tools.usps.com/UspsToolsRestServices/rest/POLocator/findLocations", "@spider": "usps_collection_boxes", "addr:city": "FT WORTH", "addr:country": "US", "addr:postcode": "76124", "addr:state": "TX", "addr:street_address": "1475 HANDLEY DR", "amenity": "post_box", "collection_times": "Mo-Fr 17:00; Sa 11:30", "indoor": "yes", "note": "ON 12/24 AND 12/31, THIS BOX MAY BE COLLECTED AS EARLY AS 12 NOON.", "nsi_id": "unitedstatespostalservice-a77078", "operator": "United States Postal Service", "operator:short": "USPS", "operator:type": "public", "operator:wikidata": "Q668687", "ref": "7612400008"}, "type": "Feature"}
{"geometry": {"coordinates": [-97.4717592382, 32.6706758357], "type": "Point"}, "id": "e8vEF0lUIX46HxMD9eTBYHdZ-gI=", "properties": {"@source_uri": "https://tools.usps.com/UspsToolsRestServices/rest/POLocator/findLocations", "@spider": "usps_collection_boxes", "addr:city": "BENBROOK", "addr:country": "US", "addr:postcode": "76126", "addr:state": "TX", "addr:street_address": "9415 BENBROOK BLVD", "amenity": "post_box", "collection_times": "Mo-Fr 17:00; Sa 15:00", "note": "ON 12/24 AND 12/31, THIS BOX MAY BE COLLECTED AS EARLY AS 12 NOON.", "nsi_id": "unitedstatespostalservice-a77078", "operator": "United States Postal Service", "operator:short": "USPS", "operator:type": "public", "operator:wikidata": "Q668687", "ref": "7612600001"}, "type": "Feature"}
{"geometry": {"coordinates": [-97.579627, 32.595344], "type": "Point"}, "id": "npq4jn0mLY17cNpq_GSwbj4NZUg=", "properties": {"@source_uri": "https://tools.usps.com/UspsToolsRestServices/rest/POLocator/findLocations", "@spider": "usps_collection_boxes", "addr:city": "BENBROOK", "addr:country": "US", "addr:postcode": "76126", "addr:state": "TX", "addr:street_address": "9415 BENBROOK BLVD", "amenity": "post_box", "collection_times": "Mo-Fr 17:00; Sa 15:00", "indoor": "yes", "note": "ON 12/24 AND 12/31, THIS BOX MAY BE COLLECTED AS EARLY AS 12 NOON.", "nsi_id": "unitedstatespostalservice-a77078", "operator": "United States Postal Service", "operator:short": "USPS", "operator:type": "public", "operator:wikidata": "Q668687", "ref": "7612600002"}, "type": "Feature"}
{"geometry": {"coordinates": [-97.471811, 32.670706], "type": "Point"}, "id": "j1nTJ8LCRi5TlRL_65HgEh24atE=", "properties": {"@source_uri": "https://tools.usps.com/UspsToolsRestServices/rest/POLocator/findLocations", "@spider": "usps_collection_boxes", "addr:city": "BENBROOK", "addr:country": "US", "addr:postcode": "76126", "addr:state": "TX", "addr:street_address": "9415 BENBROOK BLVD", "amenity": "post_box", "collection_times": "Mo-Fr 17:00; Sa 15:00", "indoor": "yes", "note": "ON 12/24 AND 12/31, THIS BOX MAY BE COLLECTED AS EARLY AS 12 NOON.", "nsi_id": "unitedstatespostalservice-a77078", "operator": "United States Postal Service", "operator:short": "USPS", "operator:type": "public", "operator:wikidata": "Q668687", "ref": "7612600003"}, "type": "Feature"}
{"geometry": {"coordinates": [-97.452521892, 32.6775786921], "type": "Point"}, "id": "MjmUb2ozYQ8yj8lbFups5-6lsM0=", "properties": {"@source_uri": "https://tools.usps.com/UspsToolsRestServices/rest/POLocator/findLocations", "@spider": "usps_collection_boxes", "addr:city": "BENBROOK", "addr:country": "US", "addr:postcode": "76126", "addr:state": "TX", "addr:street_address": "949 WINSCOTT RD", "amenity": "post_box", "collection_times": "Mo-Fr 14:40; Sa 14:00", "note": "ON 12/24 AND 12/31, THIS BOX MAY BE COLLECTED AS EARLY AS 12 NOON.", "nsi_id": "unitedstatespostalservice-a77078", "operator": "United States Postal Service", "operator:short": "USPS", "operator:type": "public", "operator:wikidata": "Q668687", "ref": "7612600004"}, "type": "Feature"}
{"geometry": {"coordinates": [-97.471768078, 32.670668232], "type": "Point"}, "id": "oN3ksXMS04wW4rUh1kixLLuG3Kk=", "properties": {"@source_uri": "https://tools.usps.com/UspsToolsRestServices/rest/POLocator/findLocations", "@spider": "usps_collection_boxes", "addr:city": "BENBROOK", "addr:country": "US", "addr:postcode": "76126", "addr:state": "TX", "addr:street_address": "9415 HIGHWAY 377 S", "amenity": "post_box", "collection_times": "Mo-Fr 17:00; Sa 12:00", "indoor": "yes", "note": "ON 12/24 AND 12/31, THIS BOX MAY BE COLLECTED AS EARLY AS 12 NOON.", "nsi_id": "unitedstatespostalservice-a77078", "operator": "United States Postal Service", "operator:short": "USPS", "operator:type": "public", "operator:wikidata": "Q668687", "ref": "7612600006"}, "type": "Feature"}
{"geometry": {"coordinates": [-97.42399, 32.77716], "type": "Point"}, "id": "IZyeajY9xG-hn_MqId7OM1n4-tQ=", "properties": {"@source_uri": "https://tools.usps.com/UspsToolsRestServices/rest/POLocator/findLocations", "@spider": "usps_collection_boxes", "addr:city": "FORT WORTH", "addr:country": "US", "addr:postcode": "76127", "addr:state": "TX", "addr:street_address": "1501 ARNOLD AVE", "amenity": "post_box", "collection_times": "Mo-Fr 14:45; Sa 09:45", "note": "ON 12/24 AND 12/31, THIS BOX MAY BE COLLECTED AS EARLY AS 12 NOON.", "nsi_id": "unitedstatespostalservice-a77078", "operator": "United States Postal Service", "operator:short": "USPS", "operator:type": "public", "operator:wikidata": "Q668687", "ref": "7612700001"}, "type": "Feature"}
{"geometry": {"coordinates": [-97.4240981087, 32.7714173097], "type": "Point"}, "id": "icEi-chucpP7wxNVvqnrzejvdWQ=", "properties": {"@source_uri": "https://tools.usps.com/UspsToolsRestServices/rest/POLocator/findLocations", "@spider": "usps_collection_boxes", "addr:city": "FORT WORTH", "addr:country": "US", "addr:postcode": "76127", "addr:state": "TX", "addr:street_address": "1501 ARNOLD AVE", "amenity": "post_box", "collection_times": "Mo-Fr 14:45", "indoor": "yes", "note": "ON 12/24 AND 12/31, THIS BOX MAY BE COLLECTED AS EARLY AS 12 NOON.", "nsi_id": "unitedstatespostalservice-a77078", "operator": "United States Postal Service", "operator:short": "USPS", "operator:type": "public", "operator:wikidata": "Q668687", "ref": "7612700004"}, "type": "Feature"}
{"geometry": {"coordinates": [-97.4237454899, 32.781784938], "type": "Point"}, "id": "18GcMfPLo8V4_x7kHjyazZ8t0mk=", "properties": {"@source_uri": "https://tools.usps.com/UspsToolsRestServices/rest/POLocator/findLocations", "@spider": "usps_collection_boxes", "addr:city": "FORT WORTH", "addr:country": "US", "addr:postcode": "76127", "addr:state": "TX", "addr:street_address": "1880 VANDENBERG AVE", "amenity": "post_box", "collection_times": "Mo-Sa 09:45", "nsi_id": "unitedstatespostalservice-a77078", "operator": "United States Postal Service", "operator:short": "USPS", "operator:type": "public", "operator:wikidata": "Q668687", "ref": "7612700006"}, "type": "Feature"}
{"geometry": {"coordinates": [-97.4240981087, 32.7714173097], "type": "Point"}, "id": "_qdOUqR9dO23hjGoZJJohRl5y3k=", "properties": {"@source_uri": "https://tools.usps.com/UspsToolsRestServices/rest/POLocator/findLocations", "@spider": "usps_collection_boxes", "addr:city": "FORT WORTH", "addr:country": "US", "addr:postcode": "76127", "addr:state": "TX", "addr:street_address": "1501 ARNOLD AVE", "amenity": "post_box", "collection_times": "Mo-Fr 15:00", "indoor": "yes", "note": "ON 12/24 AND 12/31, THIS BOX MAY BE COLLECTED AS EARLY AS 12 NOON.", "nsi_id": "unitedstatespostalservice-a77078", "operator": "United States Postal Service", "operator:short": "USPS", "operator:type": "public", "operator:wikidata": "Q668687", "ref": "7612700007"}, "type": "Feature"}
{"geometry": {"coordinates": [-97.3658449749, 32.7117889899], "type": "Point"}, "id": "GVsGq_gXmWdJgtduiiWyRoefeEA=", "properties": {"@source_uri": "https://tools.usps.com/UspsToolsRestServices/rest/POLocator/findLocations", "@spider": "usps_collection_boxes", "addr:city": "FT WORTH", "addr:country": "US", "addr:postcode": "76129", "addr:state": "TX", "addr:street_address": "2800 STADIUM DR", "amenity": "post_box", "collection_times": "Mo-Sa 09:00", "nsi_id": "unitedstatespostalservice-a77078", "operator": "United States Postal Service", "operator:short": "USPS", "operator:type": "public", "operator:wikidata": "Q668687", "ref": "7612900001"}, "type": "Feature"}
{"geometry": {"coordinates": [-97.3428519896, 32.8598330137], "type": "Point"}, "id": "NokvhFcYAWz99nfd3Nx7zJGEREw=", "properties": {"@source_uri": "https://tools.usps.com/UspsToolsRestServices/rest/POLocator/findLocations", "@spider": "usps_collection_boxes", "addr:city": "BLUE MOUND", "addr:country": "US", "addr:postcode": "76131", "addr:state": "TX", "addr:street_address": "1601 BELL AVE", "amenity": "post_box", "collection_times": "Mo-Sa 08:10", "nsi_id": "unitedstatespostalservice-a77078", "operator": "United States Postal Service", "operator:short": "USPS", "operator:type": "public", "operator:wikidata": "Q668687", "ref": "7613100003"}, "type": "Feature"}
{"geometry": {"coordinates": [-97.419127979, 32.6659039793], "type": "Point"}, "id": "1jbAvLz2vdMwxQecu4rqNBak4rQ=", "properties": {"@source_uri": "https://tools.usps.com/UspsToolsRestServices/rest/POLocator/findLocations", "@spider": "usps_collection_boxes", "addr:city": "FORT WORTH", "addr:country": "US", "addr:postcode": "76132", "addr:state": "TX", "addr:street_address": "5701 BRYANT IRVIN RD", "amenity": "post_box", "collection_times": "Mo-Sa 11:30", "nsi_id": "unitedstatespostalservice-a77078", "operator": "United States Postal Service", "operator:short": "USPS", "operator:type": "public", "operator:wikidata": "Q668687", "ref": "7613200008"}, "type": "Feature"}
{"geometry": {"coordinates": [-97.428171, 32.646745], "type": "Point"}, "id": "ciw7gKiftXCebMYtEMqeTUwRSw0=", "properties": {"@source_uri": "https://tools.usps.com/UspsToolsRestServices/rest/POLocator/findLocations", "@spider": "usps_collection_boxes", "addr:city": "FORT WORTH", "addr:country": "US", "addr:postcode": "76132", "addr:state": "TX", "addr:street_address": "7101 BRYANT IRVIN RD", "amenity": "post_box", "collection_times": "Mo-Fr 17:00; Sa 16:00", "indoor": "yes", "note": "ON 12/24 AND 12/31, THIS BOX MAY BE COLLECTED AS EARLY AS 12 NOON.", "nsi_id": "unitedstatespostalservice-a77078", "operator": "United States Postal Service", "operator:short": "USPS", "operator:type": "public", "operator:wikidata": "Q668687", "ref": "7613200023"}, "type": "Feature"}
{"geometry": {"coordinates": [-97.428171, 32.646745], "type": "Point"}, "id": "zSXeKottnckEa4hrDO6rUTQoPl4=", "properties": {"@source_uri": "https://tools.usps.com/UspsToolsRestServices/rest/POLocator/findLocations", "@spider": "usps_collection_boxes", "addr:city": "FORT WORTH", "addr:country": "US", "addr:postcode": "76132", "addr:state": "TX", "addr:street_address": "7101 BRYANT IRVIN RD", "amenity": "post_box", "collection_times": "Mo-Fr 17:00; Sa 16:00", "name": "USPS COLLECTION BOX - APC", "note": "ON 12/24 AND 12/31, THIS BOX MAY BE COLLECTED AS EARLY AS 12 NOON.", "nsi_id": "unitedstatespostalservice-a77078", "operator": "United States Postal Service", "operator:short": "USPS", "operator:type": "public", "operator:wikidata": "Q668687", "ref": "7613200026"}, "type": "Feature"}
{"geometry": {"coordinates": [-97.4214050069, 32.6925500076], "type": "Point"}, "id": "I1VuG9tnNg8B7Dw1cHTyabUH1ZI=", "properties": {"@source_uri": "https://tools.usps.com/UspsToolsRestServices/rest/POLocator/findLocations", "@spider": "usps_collection_boxes", "addr:city": "FORT WORTH", "addr:country": "US", "addr:postcode": "76132", "addr:state": "TX", "addr:street_address": "6495 SOUTHWEST BLVD", "amenity": "post_box", "collection_times": "Mo-Sa 12:00", "nsi_id": "unitedstatespostalservice-a77078", "operator": "United States Postal Service", "operator:short": "USPS", "operator:type": "public", "operator:wikidata": "Q668687", "ref": "7613200031"}, "type": "Feature"}
{"geometry": {"coordinates": [-97.428160494, 32.647009163], "type": "Point"}, "id": "DCq1fXGw2Q9AMD1cseGGgrqeb_8=", "properties": {"@source_uri": "https://tools.usps.com/UspsToolsRestServices/rest/POLocator/findLocations", "@spider": "usps_collection_boxes", "addr:city": "FORT WORTH", "addr:country": "US", "addr:postcode": "76132", "addr:state": "TX", "addr:street_address": "7101 BRYANT IRVIN RD", "amenity": "post_box", "collection_times": "Mo-Fr 18:00", "indoor": "yes", "note": "ON 12/24 AND 12/31, THIS BOX MAY BE COLLECTED AS EARLY AS 12 NOON.", "nsi_id": "unitedstatespostalservice-a77078", "operator": "United States Postal Service", "operator:short": "USPS", "operator:type": "public", "operator:wikidata": "Q668687", "ref": "7613200038"}, "type": "Feature"}
{"geometry": {"coordinates": [-97.3564623, 32.684674], "type": "Point"}, "id": "6Eyx73GXfEcZLR564EAD2u4hReY=", "properties": {"@source_uri": "https://tools.usps.com/UspsToolsRestServices/rest/POLocator/findLocations", "@spider": "usps_collection_boxes", "addr:city": "FORT WORTH", "addr:country": "US", "addr:postcode": "76133", "addr:state": "TX", "addr:street_address": "2708 W SEMINARY DR", "amenity": "post_box", "collection_times": "Mo-Sa 08:10", "nsi_id": "unitedstatespostalservice-a77078", "operator": "United States Postal Service", "operator:short": "USPS", "operator:type": "public", "operator:wikidata": "Q668687", "ref": "7613300003"}, "type": "Feature"}
{"geometry": {"coordinates": [-97.3899219, 32.634411], "type": "Point"}, "id": "DJ-WLOqRnM8IULC1ID6W1KeJUTw=", "properties": {"@source_uri": "https://tools.usps.com/UspsToolsRestServices/rest/POLocator/findLocations", "@spider": "usps_collection_boxes", "addr:city": "FORT WORTH", "addr:country": "US", "addr:postcode": "76133", "addr:state": "TX", "addr:street_address": "4500 SYCAMORE SCHOOL RD", "amenity": "post_box", "collection_times": "Mo-Sa 11:00", "nsi_id": "unitedstatespostalservice-a77078", "operator": "United States Postal Service", "operator:short": "USPS", "operator:type": "public", "operator:wikidata": "Q668687", "ref": "7613300013"}, "type": "Feature"}
{"geometry": {"coordinates": [-97.376749, 32.652519], "type": "Point"}, "id": "ixmgvgEN90zgf0LYamj9QAHoDtg=", "properties": {"@source_uri": "https://tools.usps.com/UspsToolsRestServices/rest/POLocator/findLocations", "@spider": "usps_collection_boxes", "addr:city": "FORT WORTH", "addr:country": "US", "addr:postcode": "76133", "addr:state": "TX", "addr:street_address": "5300 TRAIL LAKE DR", "amenity": "post_box", "collection_times": "Mo-Sa 09:30", "nsi_id": "unitedstatespostalservice-a77078", "operator": "United States Postal Service", "operator:short": "USPS", "operator:type": "public", "operator:wikidata": "Q668687", "ref": "7613300023"}, "type": "Feature"}
{"geometry": {"coordinates": [-97.3731616, 32.649801], "type": "Point"}, "id": "z-NhMsYYB8TMvZdnu3d5kWRwvl4=", "properties": {"@source_uri": "https://tools.usps.com/UspsToolsRestServices/rest/POLocator/findLocations", "@spider": "usps_collection_boxes", "addr:city": "FORT WORTH", "addr:country": "US", "addr:postcode": "76133", "addr:state": "TX", "addr:street_address": "3701 ALTAMESA BLVD", "amenity": "post_box", "collection_times": "Mo-Fr 17:00; Sa 15:30", "indoor": "yes", "note": "ON 12/24 AND 12/31, THIS BOX MAY BE COLLECTED AS EARLY AS 12 NOON.", "nsi_id": "unitedstatespostalservice-a77078", "operator": "United States Postal Service", "operator:short": "USPS", "operator:type": "public", "operator:wikidata": "Q668687", "ref": "7613300029"}, "type": "Feature"}
{"geometry": {"coordinates": [-97.3732740234, 32.6497730066], "type": "Point"}, "id": "rlmJiZFJnOgpVQfjxC-GhqdeVXo=", "properties": {"@source_uri": "https://tools.usps.com/UspsToolsRestServices/rest/POLocator/findLocations", "@spider": "usps_collection_boxes", "addr:city": "FORT WORTH", "addr:country": "US", "addr:postcode": "76133", "addr:state": "TX", "addr:street_address": "3701 ALTAMESA BLVD", "amenity": "post_box", "collection_times": "Mo-Fr 17:00; Sa 15:30", "note": "ON 12/24 AND 12/31, THIS BOX MAY BE COLLECTED AS EARLY AS 12 NOON.", "nsi_id": "unitedstatespostalservice-a77078", "operator": "United States Postal Service", "operator:short": "USPS", "operator:type": "public", "operator:wikidata": "Q668687", "ref": "7613300030"}, "type": "Feature"}
{"geometry": {"coordinates": [-97.3731559, 32.649774], "type": "Point"}, "id": "AA2iH79RtvzMGEHUxiPb6cVJzn8=", "properties": {"@source_uri": "https://tools.usps.com/UspsToolsRestServices/rest/POLocator/findLocations", "@spider": "usps_collection_boxes", "addr:city": "FORT WORTH", "addr:country": "US", "addr:postcode": "76133", "addr:state": "TX", "addr:street_address": "3701 ALTAMESA BLVD", "amenity": "post_box", "collection_times": "Mo-Fr 17:00; Sa 15:30", "indoor": "yes", "note": "ON 12/24 AND 12/31, THIS BOX MAY BE COLLECTED AS EARLY AS 12 NOON.", "nsi_id": "unitedstatespostalservice-a77078", "operator": "United States Postal Service", "operator:short": "USPS", "operator:type": "public", "operator:wikidata": "Q668687", "ref": "7613300032"}, "type": "Feature"}
{"geometry": {"coordinates": [-97.373424, 32.650162], "type": "Point"}, "id": "F59eQ9TyxgzkVKxZgbcEyi58ODs=", "properties": {"@source_uri": "https://tools.usps.com/UspsToolsRestServices/rest/POLocator/findLocations", "@spider": "usps_collection_boxes", "addr:city": "FORT WORTH", "addr:country": "US", "addr:postcode": "76133", "addr:state": "TX", "addr:street_address": "3701 ALTAMESA BLVD", "amenity": "post_box", "collection_times": "Mo-Fr 17:00; Sa 15:30", "name": "USPS COLLECTION BOX - APC", "note": "ON 12/24 AND 12/31, THIS BOX MAY BE COLLECTED AS EARLY AS 12 NOON.", "nsi_id": "unitedstatespostalservice-a77078", "operator": "United States Postal Service", "operator:short": "USPS", "operator:type": "public", "operator:wikidata": "Q668687", "ref": "7613300033"}, "type": "Feature"}
{"geometry": {"coordinates": [-97.3665172, 32.671149], "type": "Point"}, "id": "JhDe_Guy8EmjCFZKLDODrSRQu34=", "properties": {"@source_uri": "https://tools.usps.com/UspsToolsRestServices/rest/POLocator/findLocations", "@spider": "usps_collection_boxes", "addr:city": "FORT WORTH", "addr:country": "US", "addr:postcode": "76133", "addr:state": "TX", "addr:street_address": "5112 WESTCREEK DR", "amenity": "post_box", "collection_times": "Mo-Sa 09:45", "nsi_id": "unitedstatespostalservice-a77078", "operator": "United States Postal Service", "operator:short": "USPS", "operator:type": "public", "operator:wikidata": "Q668687", "ref": "7613300038"}, "type": "Feature"}
{"geometry": {"coordinates": [-97.373655277, 32.650167597], "type": "Point"}, "id": "CqgZUqHKhv2S_hr8jpSBeC4NrRw=", "properties": {"@source_uri": "https://tools.usps.com/UspsToolsRestServices/rest/POLocator/findLocations", "@spider": "usps_collection_boxes", "addr:city": "FORT WORTH", "addr:country": "US", "addr:postcode": "76133", "addr:state": "TX", "addr:street_address": "3701 ALTAMESA BLVD", "amenity": "post_box", "collection_times": "Mo-Fr 18:00; Sa 12:30", "indoor": "yes", "note": "ON 12/24 AND 12/31, THIS BOX MAY BE COLLECTED AS EARLY AS 12 NOON.", "nsi_id": "unitedstatespostalservice-a77078", "operator": "United States Postal Service", "operator:short": "USPS", "operator:type": "public", "operator:wikidata": "Q668687", "ref": "7613300041"}, "type": "Feature"}
{"geometry": {"coordinates": [-97.3439869831, 32.6608869911], "type": "Point"}, "id": "TMv_xDwJNHpHRIU1SE2_G26NCbI=", "properties": {"@source_uri": "https://tools.usps.com/UspsToolsRestServices/rest/POLocator/findLocations", "@spider": "usps_collection_boxes", "addr:city": "FT WORTH", "addr:country": "US", "addr:postcode": "76134", "addr:state": "TX", "addr:street_address": "1605 EDGECLIFF RD", "amenity": "post_box", "collection_times": "Mo-Sa 12:30", "note": "ON 12/24 AND 12/31, THIS BOX MAY BE COLLECTED AS EARLY AS 12 NOON.", "nsi_id": "unitedstatespostalservice-a77078", "operator": "United States Postal Service", "operator:short": "USPS", "operator:type": "public", "operator:wikidata": "Q668687", "ref": "7613400003"}, "type": "Feature"}
{"geometry": {"coordinates": [-97.3230150004, 32.6435627234], "type": "Point"}, "id": "mgQITlc0oXm48zcgk0sJdi4AzSo=", "properties": {"@source_uri": "https://tools.usps.com/UspsToolsRestServices/rest/POLocator/findLocations", "@spider": "usps_collection_boxes", "addr:city": "FT WORTH", "addr:country": "US", "addr:postcode": "76134", "addr:state": "TX", "addr:street_address": "141 SHEFFIELD DR", "amenity": "post_box", "collection_times": "Mo-Sa 10:00", "nsi_id": "unitedstatespostalservice-a77078", "operator": "United States Postal Service", "operator:short": "USPS", "operator:type": "public", "operator:wikidata": "Q668687", "ref": "7613400004"}, "type": "Feature"}
{"geometry": {"coordinates": [-97.33849801, 32.6360349835], "type": "Point"}, "id": "Gh8bgrQtHCK4N1rZVEj3LK1auv8=", "properties": {"@source_uri": "https://tools.usps.com/UspsToolsRestServices/rest/POLocator/findLocations", "@spider": "usps_collection_boxes", "addr:city": "FT WORTH", "addr:country": "US", "addr:postcode": "76134", "addr:state": "TX", "addr:street_address": "1312 SYCAMORE SCHOOL RD", "amenity": "post_box", "collection_times": "Mo-Sa 13:00", "note": "ON 12/24 AND 12/31, THIS BOX MAY BE COLLECTED AS EARLY AS 12 NOON.", "nsi_id": "unitedstatespostalservice-a77078", "operator": "United States Postal Service", "operator:short": "USPS", "operator:type": "public", "operator:wikidata": "Q668687", "ref": "7613400005"}, "type": "Feature"}
{"geometry": {"coordinates": [-97.347261665, 32.6239082333], "type": "Point"}, "id": "z-SfskDhvqeSZLM1MnKFWbIEy3s=", "properties": {"@source_uri": "https://tools.usps.com/UspsToolsRestServices/rest/POLocator/findLocations", "@spider": "usps_collection_boxes", "addr:city": "FT WORTH", "addr:country": "US", "addr:postcode": "76134", "addr:state": "TX", "addr:street_address": "1900 LINCOLNSHIRE WAY", "amenity": "post_box", "collection_times": "Mo-Sa 13:30", "note": "ON 12/24 AND 12/31, THIS BOX MAY BE COLLECTED AS EARLY AS 12 NOON.", "nsi_id": "unitedstatespostalservice-a77078", "operator": "United States Postal Service", "operator:short": "USPS", "operator:type": "public", "operator:wikidata": "Q668687", "ref": "7613400007"}, "type": "Feature"}
{"geometry": {"coordinates": [-97.3355210094, 32.6478030079], "type": "Point"}, "id": "UD4RPBjT4ape-ZY5ryuXKghvEFw=", "properties": {"@source_uri": "https://tools.usps.com/UspsToolsRestServices/rest/POLocator/findLocations", "@spider": "usps_collection_boxes", "addr:city": "FT WORTH", "addr:country": "US", "addr:postcode": "76134", "addr:state": "TX", "addr:street_address": "1001 ALTAMESA BLVD", "amenity": "post_box", "collection_times": "Mo-Fr 17:00; Sa 15:45", "indoor": "yes", "note": "ON 12/24 AND 12/31, THIS BOX MAY BE COLLECTED AS EARLY AS 12 NOON.", "nsi_id": "unitedstatespostalservice-a77078", "operator": "United States Postal Service", "operator:short": "USPS", "operator:type": "public", "operator:wikidata": "Q668687", "ref": "7613400011"}, "type": "Feature"}
{"geometry": {"coordinates": [-97.3354819, 32.647977], "type": "Point"}, "id": "E03CGkXrJVr1AQwaTMD4uJMQ7Mk=", "properties": {"@source_uri": "https://tools.usps.com/UspsToolsRestServices/rest/POLocator/findLocations", "@spider": "usps_collection_boxes", "addr:city": "FT WORTH", "addr:country": "US", "addr:postcode": "76134", "addr:state": "TX", "addr:street_address": "1001 ALTAMESA BLVD", "amenity": "post_box", "collection_times": "Mo-Fr 17:00; Sa 15:45", "indoor": "yes", "note": "ON 12/24 AND 12/31, THIS BOX MAY BE COLLECTED AS EARLY AS 12 NOON.", "nsi_id": "unitedstatespostalservice-a77078", "operator": "United States Postal Service", "operator:short": "USPS", "operator:type": "public", "operator:wikidata": "Q668687", "ref": "7613400012"}, "type": "Feature"}
{"geometry": {"coordinates": [-97.3355210094, 32.6478030079], "type": "Point"}, "id": "_XblN1Hto0AM1TxMjqxfJNGwFC8=", "properties": {"@source_uri": "https://tools.usps.com/UspsToolsRestServices/rest/POLocator/findLocations", "@spider": "usps_collection_boxes", "addr:city": "FT WORTH", "addr:country": "US", "addr:postcode": "76134", "addr:state": "TX", "addr:street_address": "1001 ALTAMESA BLVD", "amenity": "post_box", "collection_times": "Mo-Fr 17:00", "indoor": "yes", "note": "ON 12/24 AND 12/31, THIS BOX MAY BE COLLECTED AS EARLY AS 12 NOON.", "nsi_id": "unitedstatespostalservice-a77078", "operator": "United States Postal Service", "operator:short": "USPS", "operator:type": "public", "operator:wikidata": "Q668687", "ref": "7613400013"}, "type": "Feature"}
{"geometry": {"coordinates": [-97.4375123, 32.8158862], "type": "Point"}, "id": "79xBkvL_uO6BYvyCqcWICyvo4Gw=", "properties": {"@source_uri": "https://tools.usps.com/UspsToolsRestServices/rest/POLocator/findLocations", "@spider": "usps_collection_boxes", "addr:city": "FORT WORTH", "addr:country": "US", "addr:postcode": "76135", "addr:state": "TX", "addr:street_address": "3806 ADAM GRUBB", "amenity": "post_box", "collection_times": "Mo-Sa 09:10", "nsi_id": "unitedstatespostalservice-a77078", "operator": "United States Postal Service", "operator:short": "USPS", "operator:type": "public", "operator:wikidata": "Q668687", "ref": "7613500006"}, "type": "Feature"}
{"geometry": {"coordinates": [-97.4193799, 32.822047], "type": "Point"}, "id": "ZsyTjUVrH3IBBpSNW5koXIVj_lI=", "properties": {"@source_uri": "https://tools.usps.com/UspsToolsRestServices/rest/POLocator/findLocations", "@spider": "usps_collection_boxes", "addr:city": "FORT WORTH", "addr:country": "US", "addr:postcode": "76135", "addr:state": "TX", "addr:street_address": "6012 SHADYDELL DR", "amenity": "post_box", "collection_times": "Mo-Sa 09:30", "nsi_id": "unitedstatespostalservice-a77078", "operator": "United States Postal Service", "operator:short": "USPS", "operator:type": "public", "operator:wikidata": "Q668687", "ref": "7613500007"}, "type": "Feature"}
{"geometry": {"coordinates": [-97.432098758, 32.814845665], "type": "Point"}, "id": "_UlqiL4GCRkpZVju7tcNipiAlb4=", "properties": {"@source_uri": "https://tools.usps.com/UspsToolsRestServices/rest/POLocator/findLocations", "@spider": "usps_collection_boxes", "addr:city": "FORT WORTH", "addr:country": "US", "addr:postcode": "76135", "addr:state": "TX", "addr:street_address": "3930 TELEPHONE RD", "amenity": "post_box", "collection_times": "Mo-Fr 17:00; Sa 14:40", "indoor": "yes", "note": "ON 12/24 AND 12/31, THIS BOX MAY BE COLLECTED AS EARLY AS 12 NOON.", "nsi_id": "unitedstatespostalservice-a77078", "operator": "United States Postal Service", "operator:short": "USPS", "operator:type": "public", "operator:wikidata": "Q668687", "ref": "7613500008"}, "type": "Feature"}
{"geometry": {"coordinates": [-97.432098758, 32.814845665], "type": "Point"}, "id": "XEH4hMvegfw9KNFLgmD_g-f8XgA=", "properties": {"@source_uri": "https://tools.usps.com/UspsToolsRestServices/rest/POLocator/findLocations", "@spider": "usps_collection_boxes", "addr:city": "FORT WORTH", "addr:country": "US", "addr:postcode": "76135", "addr:state": "TX", "addr:street_address": "3930 TELEPHONE RD", "amenity": "post_box", "collection_times": "Mo-Fr 17:00; Sa 14:40", "indoor": "yes", "note": "ON 12/24 AND 12/31, THIS BOX MAY BE COLLECTED AS EARLY AS 12 NOON.", "nsi_id": "unitedstatespostalservice-a77078", "operator": "United States Postal Service", "operator:short": "USPS", "operator:type": "public", "operator:wikidata": "Q668687", "ref": "7613500009"}, "type": "Feature"}
{"geometry": {"coordinates": [-97.432098758, 32.814845665], "type": "Point"}, "id": "kqdzI-F37wtOEilBmxAxQe7C9zk=", "properties": {"@source_uri": "https://tools.usps.com/UspsToolsRestServices/rest/POLocator/findLocations", "@spider": "usps_collection_boxes", "addr:city": "FORT WORTH", "addr:country": "US", "addr:postcode": "76135", "addr:state": "TX", "addr:street_address": "3930 TELEPHONE RD", "amenity": "post_box", "collection_times": "Mo-Fr 17:00", "indoor": "yes", "note": "ON 12/24 AND 12/31, THIS BOX MAY BE COLLECTED AS EARLY AS 12 NOON.", "nsi_id": "unitedstatespostalservice-a77078", "operator": "United States Postal Service", "operator:short": "USPS", "operator:type": "public", "operator:wikidata": "Q668687", "ref": "7613500020"}, "type": "Feature"}
{"geometry": {"coordinates": [-97.304266988, 32.8616839893], "type": "Point"}, "id": "waXCMa4tbJ9fkNFF4UlW_jKq7sY=", "properties": {"@source_uri": "https://tools.usps.com/UspsToolsRestServices/rest/POLocator/findLocations", "@spider": "usps_collection_boxes", "addr:city": "FORT WORTH", "addr:country": "US", "addr:postcode": "76137", "addr:state": "TX", "addr:street_address": "3605 WESTERN CENTER BLVD", "amenity": "post_box", "collection_times": "Mo-Sa 13:55", "note": "ON 12/24 AND 12/31, THIS BOX MAY BE COLLECTED AS EARLY AS 12 NOON.", "nsi_id": "unitedstatespostalservice-a77078", "operator": "United States Postal Service", "operator:short": "USPS", "operator:type": "public", "operator:wikidata": "Q668687", "ref": "7613700021"}, "type": "Feature"}
{"geometry": {"coordinates": [-97.320225964, 32.6272010024], "type": "Point"}, "id": "-mzleJ-sn4PaEClcIiuvDiSqMyE=", "properties": {"@source_uri": "https://tools.usps.com/UspsToolsRestServices/rest/POLocator/findLocations", "@spider": "usps_collection_boxes", "addr:city": "FOREST HILL", "addr:country": "US", "addr:postcode": "76140", "addr:state": "TX", "addr:street_address": "1000 EVERMAN PKWY", "amenity": "post_box", "collection_times": "Mo-Sa 12:00", "nsi_id": "unitedstatespostalservice-a77078", "operator": "United States Postal Service", "operator:short": "USPS", "operator:type": "public", "operator:wikidata": "Q668687", "ref": "7614000002"}, "type": "Feature"}
{"geometry": {"coordinates": [-97.2871879121, 32.6321498501], "type": "Point"}, "id": "Nd30zasRkskmAJohNq6rqC9ivAk=", "properties": {"@source_uri": "https://tools.usps.com/UspsToolsRestServices/rest/POLocator/findLocations", "@spider": "usps_collection_boxes", "addr:city": "FOREST HILL", "addr:country": "US", "addr:postcode": "76140", "addr:state": "TX", "addr:street_address": "213 N RACE ST", "amenity": "post_box", "collection_times": "Mo-Sa 12:00", "nsi_id": "unitedstatespostalservice-a77078", "operator": "United States Postal Service", "operator:short": "USPS", "operator:type": "public", "operator:wikidata": "Q668687", "ref": "7614000003"}, "type": "Feature"}
{"geometry": {"coordinates": [-97.2679440106, 32.6595649974], "type": "Point"}, "id": "KhXhB5Tcjo9zYioNyeTZsQrkMVg=", "properties": {"@source_uri": "https://tools.usps.com/UspsToolsRestServices/rest/POLocator/findLocations", "@spider": "usps_collection_boxes", "addr:city": "FOREST HILL", "addr:country": "US", "addr:postcode": "76140", "addr:state": "TX", "addr:street_address": "6605 FOREST HILL DR", "amenity": "post_box", "collection_times": "Mo-Sa 13:15", "note": "ON 12/24 AND 12/31, THIS BOX MAY BE COLLECTED AS EARLY AS 12 NOON.", "nsi_id": "unitedstatespostalservice-a77078", "operator": "United States Postal Service", "operator:short": "USPS", "operator:type": "public", "operator:wikidata": "Q668687", "ref": "7614000005"}, "type": "Feature"}
{"geometry": {"coordinates": [-97.269988, 32.62505], "type": "Point"}, "id": "tgHxmgpUMgrcDnbocTvYdN9089E=", "properties": {"@source_uri": "https://tools.usps.com/UspsToolsRestServices/rest/POLocator/findLocations", "@spider": "usps_collection_boxes", "addr:city": "FOREST HILL", "addr:country": "US", "addr:postcode": "76140", "addr:state": "TX", "addr:street_address": "500 S FOREST HILL DR", "amenity": "post_box", "collection_times": "Mo-Fr 17:00; Sa 12:00", "indoor": "yes", "note": "ON 12/24 AND 12/31, THIS BOX MAY BE COLLECTED AS EARLY AS 12 NOON.", "nsi_id": "unitedstatespostalservice-a77078", "operator": "United States Postal Service", "operator:short": "USPS", "operator:type": "public", "operator:wikidata": "Q668687", "ref": "7614000016"}, "type": "Feature"}
{"geometry": {"coordinates": [-97.269988, 32.62505], "type": "Point"}, "id": "34ooGn4NQMZVeCl56JzJwKBublw=", "properties": {"@source_uri": "https://tools.usps.com/UspsToolsRestServices/rest/POLocator/findLocations", "@spider": "usps_collection_boxes", "addr:city": "FOREST HILL", "addr:country": "US", "addr:postcode": "76140", "addr:state": "TX", "addr:street_address": "500 S FOREST HILL DR", "amenity": "post_box", "collection_times": "Mo-Fr 17:00; Sa 12:00", "indoor": "yes", "note": "ON 12/24 AND 12/31, THIS BOX MAY BE COLLECTED AS EARLY AS 12 NOON.", "nsi_id": "unitedstatespostalservice-a77078", "operator": "United States Postal Service", "operator:short": "USPS", "operator:type": "public", "operator:wikidata": "Q668687", "ref": "7614000017"}, "type": "Feature"}
{"geometry": {"coordinates": [-97.2850430092, 32.6610809903], "type": "Point"}, "id": "tdlM-MJ5ebLs9Gvo3MJ_LhptIKI=", "properties": {"@source_uri": "https://tools.usps.com/UspsToolsRestServices/rest/POLocator/findLocations", "@spider": "usps_collection_boxes", "addr:city": "FOREST HILL", "addr:country": "US", "addr:postcode": "76140", "addr:state": "TX", "addr:street_address": "2920 SE LOOP 820", "amenity": "post_box", "collection_times": "Mo-Sa 09:15", "nsi_id": "unitedstatespostalservice-a77078", "operator": "United States Postal Service", "operator:short": "USPS", "operator:type": "public", "operator:wikidata": "Q668687", "ref": "7614000020"}, "type": "Feature"}
{"geometry": {"coordinates": [-97.270049961, 32.624978065], "type": "Point"}, "id": "29TtFLiW9XG0QwKrzyY1kLXtsT0=", "properties": {"@source_uri": "https://tools.usps.com/UspsToolsRestServices/rest/POLocator/findLocations", "@spider": "usps_collection_boxes", "addr:city": "FOREST HILL", "addr:country": "US", "addr:postcode": "76140", "addr:state": "TX", "addr:street_address": "500 S FOREST HILL DR", "amenity": "post_box", "collection_times": "Mo-Fr 16:30", "indoor": "yes", "note": "ON 12/24 AND 12/31, THIS BOX MAY BE COLLECTED AS EARLY AS 12 NOON.", "nsi_id": "unitedstatespostalservice-a77078", "operator": "United States Postal Service", "operator:short": "USPS", "operator:type": "public", "operator:wikidata": "Q668687", "ref": "7614000025"}, "type": "Feature"}
{"geometry": {"coordinates": [-97.3616429592, 32.7517629986], "type": "Point"}, "id": "6-mN98miKqIZ1OZviskPuHbhkp8=", "properties": {"@source_uri": "https://tools.usps.com/UspsToolsRestServices/rest/POLocator/findLocations", "@spider": "usps_collection_boxes", "addr:city": "FT WORTH", "addr:country": "US", "addr:postcode": "76147", "addr:state": "TX", "addr:street_address": "3101 W 6TH ST", "amenity": "post_box", "collection_times": "Mo-Fr 16:30; Sa 12:00", "indoor": "yes", "note": "ON 12/24 AND 12/31, THIS BOX MAY BE COLLECTED AS EARLY AS 12 NOON.", "nsi_id": "unitedstatespostalservice-a77078", "operator": "United States Postal Service", "operator:short": "USPS", "operator:type": "public", "operator:wikidata": "Q668687", "ref": "7614700005"}, "type": "Feature"}
{"geometry": {"coordinates": [-97.3616429592, 32.7517629986], "type": "Point"}, "id": "PEm_C9TAWO35MXIGXVOEb9g6iD0=", "properties": {"@source_uri": "https://tools.usps.com/UspsToolsRestServices/rest/POLocator/findLocations", "@spider": "usps_collection_boxes", "addr:city": "FT WORTH", "addr:country": "US", "addr:postcode": "76147", "addr:state": "TX", "addr:street_address": "3101 W 6TH ST", "amenity": "post_box", "collection_times": "Mo-Fr 16:30; Sa 12:00", "indoor": "yes", "note": "ON 12/24 AND 12/31, THIS BOX MAY BE COLLECTED AS EARLY AS 12 NOON.", "nsi_id": "unitedstatespostalservice-a77078", "operator": "United States Postal Service", "operator:short": "USPS", "operator:type": "public", "operator:wikidata": "Q668687", "ref": "7614700006"}, "type": "Feature"}
{"geometry": {"coordinates": [-97.361384, 32.752133], "type": "Point"}, "id": "Usjy5-9cC5WXOg-ykx6NhsUWnF8=", "properties": {"@source_uri": "https://tools.usps.com/UspsToolsRestServices/rest/POLocator/findLocations", "@spider": "usps_collection_boxes", "addr:city": "FT WORTH", "addr:country": "US", "addr:postcode": "76147", "addr:state": "TX", "addr:street_address": "3101 W 6TH ST", "amenity": "post_box", "collection_times": "Mo-Sa 16:30", "note": "ON 12/24 AND 12/31, THIS BOX MAY BE COLLECTED AS EARLY AS 12 NOON.", "nsi_id": "unitedstatespostalservice-a77078", "operator": "United States Postal Service", "operator:short": "USPS", "operator:type": "public", "operator:wikidata": "Q668687", "ref": "7614700008"}, "type": "Feature"}
{"geometry": {"coordinates": [-97.2421089733, 32.8609229964], "type": "Point"}, "id": "KFXjxCKn4D62UVrJlCdRZZpYi2M=", "properties": {"@source_uri": "https://tools.usps.com/UspsToolsRestServices/rest/POLocator/findLocations", "@spider": "usps_collection_boxes", "addr:city": "WATAUGA", "addr:country": "US", "addr:postcode": "76148", "addr:state": "TX", "addr:street_address": "6531 WATAUGA RD STE 110", "amenity": "post_box", "collection_times": "Mo-Fr 15:30; Sa 15:15", "note": "ON 12/24 AND 12/31, THIS BOX MAY BE COLLECTED AS EARLY AS 12 NOON.", "nsi_id": "unitedstatespostalservice-a77078", "operator": "United States Postal Service", "operator:short": "USPS", "operator:type": "public", "operator:wikidata": "Q668687", "ref": "7614800005"}, "type": "Feature"}
{"geometry": {"coordinates": [-97.2394680033, 32.8615310196], "type": "Point"}, "id": "RHmm7BV9O33I9oh0xD9jU0aGjSY=", "properties": {"@source_uri": "https://tools.usps.com/UspsToolsRestServices/rest/POLocator/findLocations", "@spider": "usps_collection_boxes", "addr:city": "WATAUGA", "addr:country": "US", "addr:postcode": "76148", "addr:state": "TX", "addr:street_address": "6651 WATAUGA RD", "amenity": "post_box", "collection_times": "Mo-Fr 17:00", "indoor": "yes", "note": "ON 12/24 AND 12/31, THIS BOX MAY BE COLLECTED AS EARLY AS 12 NOON.", "nsi_id": "unitedstatespostalservice-a77078", "operator": "United States Postal Service", "operator:short": "USPS", "operator:type": "public", "operator:wikidata": "Q668687", "ref": "7614800012"}, "type": "Feature"}
{"geometry": {"coordinates": [-97.2394680033, 32.8615310196], "type": "Point"}, "id": "szAD_JsVuB3fEFM7v6DmH_feDl0=", "properties": {"@source_uri": "https://tools.usps.com/UspsToolsRestServices/rest/POLocator/findLocations", "@spider": "usps_collection_boxes", "addr:city": "WATAUGA", "addr:country": "US", "addr:postcode": "76148", "addr:state": "TX", "addr:street_address": "6651 WATAUGA RD", "amenity": "post_box", "collection_times": "Mo-Fr 17:00", "indoor": "yes", "note": "ON 12/24 AND 12/31, THIS BOX MAY BE COLLECTED AS EARLY AS 12 NOON.", "nsi_id": "unitedstatespostalservice-a77078", "operator": "United States Postal Service", "operator:short": "USPS", "operator:type": "public", "operator:wikidata": "Q668687", "ref": "7614800013"}, "type": "Feature"}
{"geometry": {"coordinates": [-97.2556019934, 32.8746339878], "type": "Point"}, "id": "0zFuGS7lJs0-E5bt7uzSPwgefdQ=", "properties": {"@source_uri": "https://tools.usps.com/UspsToolsRestServices/rest/POLocator/findLocations", "@spider": "usps_collection_boxes", "addr:city": "WATAUGA", "addr:country": "US", "addr:postcode": "76148", "addr:state": "TX", "addr:street_address": "7109 WHITLEY LN", "amenity": "post_box", "collection_times": "Mo-Sa 10:15", "nsi_id": "unitedstatespostalservice-a77078", "operator": "United States Postal Service", "operator:short": "USPS", "operator:type": "public", "operator:wikidata": "Q668687", "ref": "7614800019"}, "type": "Feature"}
{"geometry": {"coordinates": [-97.2394680033, 32.8615310196], "type": "Point"}, "id": "0hZKA_M2CHEQwChqJTPO1tZoQR8=", "properties": {"@source_uri": "https://tools.usps.com/UspsToolsRestServices/rest/POLocator/findLocations", "@spider": "usps_collection_boxes", "addr:city": "WATAUGA", "addr:country": "US", "addr:postcode": "76148", "addr:state": "TX", "addr:street_address": "6651 WATAUGA RD STE 103", "amenity": "post_box", "collection_times": "Mo-Fr 17:00", "indoor": "yes", "note": "ON 12/24 AND 12/31, THIS BOX MAY BE COLLECTED AS EARLY AS 12 NOON.", "nsi_id": "unitedstatespostalservice-a77078", "operator": "United States Postal Service", "operator:short": "USPS", "operator:type": "public", "operator:wikidata": "Q668687", "ref": "7614800022"}, "type": "Feature"}
{"geometry": {"coordinates": [-97.048929, 32.82848], "type": "Point"}, "id": "rYGynximXuoNdLUPtY1kJY-sGN0=", "properties": {"@source_uri": "https://tools.usps.com/UspsToolsRestServices/rest/POLocator/findLocations", "@spider": "usps_collection_boxes", "addr:city": "FT WORTH", "addr:country": "US", "addr:postcode": "76155", "addr:state": "TX", "addr:street_address": "4400 AMON CARTER BLVD", "amenity": "post_box", "collection_times": "Mo-Fr 17:00; Sa 10:30", "indoor": "yes", "note": "ON 12/24 AND 12/31, THIS BOX MAY BE COLLECTED AS EARLY AS 12 NOON.", "nsi_id": "unitedstatespostalservice-a77078", "operator": "United States Postal Service", "operator:short": "USPS", "operator:type": "public", "operator:wikidata": "Q668687", "ref": "7615500005"}, "type": "Feature"}
{"geometry": {"coordinates": [-97.048929, 32.82848], "type": "Point"}, "id": "_KNYJcVj4QTAM228rostOKQ39wc=", "properties": {"@source_uri": "https://tools.usps.com/UspsToolsRestServices/rest/POLocator/findLocations", "@spider": "usps_collection_boxes", "addr:city": "FT WORTH", "addr:country": "US", "addr:postcode": "76155", "addr:state": "TX", "addr:street_address": "4400 AMON CARTER BLVD", "amenity": "post_box", "collection_times": "Mo-Fr 17:00; Sa 10:30", "indoor": "yes", "note": "ON 12/24 AND 12/31, THIS BOX MAY BE COLLECTED AS EARLY AS 12 NOON.", "nsi_id": "unitedstatespostalservice-a77078", "operator": "United States Postal Service", "operator:short": "USPS", "operator:type": "public", "operator:wikidata": "Q668687", "ref": "7615500006"}, "type": "Feature"}
{"geometry": {"coordinates": [-97.048928776, 32.82822], "type": "Point"}, "id": "nsHC6a64y3VMkumXObSNkFxrEwU=", "properties": {"@source_uri": "https://tools.usps.com/UspsToolsRestServices/rest/POLocator/findLocations", "@spider": "usps_collection_boxes", "addr:city": "FT WORTH", "addr:country": "US", "addr:postcode": "76155", "addr:state": "TX", "addr:street_address": "4400 AMON CARTER BLVD STE 103", "amenity": "post_box", "collection_times": "Mo-Fr 16:30", "indoor": "yes", "note": "ON 12/24 AND 12/31, THIS BOX MAY BE COLLECTED AS EARLY AS 12 NOON.", "nsi_id": "unitedstatespostalservice-a77078", "operator": "United States Postal Service", "operator:short": "USPS", "operator:type": "public", "operator:wikidata": "Q668687", "ref": "7615500007"}, "type": "Feature"}
{"geometry": {"coordinates": [-97.3195740196, 32.8269309843], "type": "Point"}, "id": "hgJuwBrtT_iLZ9rMtuap2AJhVlM=", "properties": {"@source_uri": "https://tools.usps.com/UspsToolsRestServices/rest/POLocator/findLocations", "@spider": "usps_collection_boxes", "addr:city": "FORT WORTH", "addr:country": "US", "addr:postcode": "76161", "addr:state": "TX", "addr:street_address": "4600 MARK IV PKWY", "amenity": "post_box", "collection_times": "Mo-Fr 18:30; Sa 18:00", "note": "ON 12/24 AND 12/31, THIS BOX MAY BE COLLECTED AS EARLY AS 12 NOON.", "nsi_id": "unitedstatespostalservice-a77078", "operator": "United States Postal Service", "operator:short": "USPS", "operator:type": "public", "operator:wikidata": "Q668687", "ref": "7616100002"}, "type": "Feature"}
{"geometry": {"coordinates": [-97.321101, 32.825972], "type": "Point"}, "id": "1Tvdj9vUA9FsIe6DhkUn63jebdA=", "properties": {"@source_uri": "https://tools.usps.com/UspsToolsRestServices/rest/POLocator/findLocations", "@spider": "usps_collection_boxes", "addr:city": "FORT WORTH", "addr:country": "US", "addr:postcode": "76161", "addr:state": "TX", "addr:street_address": "4600 MARK IV PKWY", "amenity": "post_box", "collection_times": "Mo-Fr 19:00; Sa 18:00", "name": "USPS COLLECTION BOX - APC", "note": "ON 12/24 AND 12/31, THIS BOX MAY BE COLLECTED AS EARLY AS 12 NOON.", "nsi_id": "unitedstatespostalservice-a77078", "operator": "United States Postal Service", "operator:short": "USPS", "operator:type": "public", "operator:wikidata": "Q668687", "ref": "7616100008"}, "type": "Feature"}
{"geometry": {"coordinates": [-97.321101, 32.825972], "type": "Point"}, "id": "ofI0i4-eXxMG2X_U_-d8AjQhThk=", "properties": {"@source_uri": "https://tools.usps.com/UspsToolsRestServices/rest/POLocator/findLocations", "@spider": "usps_collection_boxes", "addr:city": "FORT WORTH", "addr:country": "US", "addr:postcode": "76161", "addr:state": "TX", "addr:street_address": "4600 MARK IV PKWY", "amenity": "post_box", "collection_times": "Mo-Fr 19:00; Sa 18:00", "indoor": "yes", "note": "ON 12/24 AND 12/31, THIS BOX MAY BE COLLECTED AS EARLY AS 12 NOON.", "nsi_id": "unitedstatespostalservice-a77078", "operator": "United States Postal Service", "operator:short": "USPS", "operator:type": "public", "operator:wikidata": "Q668687", "ref": "7616100009"}, "type": "Feature"}
{"geometry": {"coordinates": [-97.321101, 32.825972], "type": "Point"}, "id": "7jWykpvUmUfUGLD4tq2IDrfYBLY=", "properties": {"@source_uri": "https://tools.usps.com/UspsToolsRestServices/rest/POLocator/findLocations", "@spider": "usps_collection_boxes", "addr:city": "FORT WORTH", "addr:country": "US", "addr:postcode": "76161", "addr:state": "TX", "addr:street_address": "4600 MARK IV PKWY", "amenity": "post_box", "collection_times": "Mo-Fr 19:00; Sa 18:00", "indoor": "yes", "note": "ON 12/24 AND 12/31, THIS BOX MAY BE COLLECTED AS EARLY AS 12 NOON.", "nsi_id": "unitedstatespostalservice-a77078", "operator": "United States Postal Service", "operator:short": "USPS", "operator:type": "public", "operator:wikidata": "Q668687", "ref": "7616100010"}, "type": "Feature"}
{"geometry": {"coordinates": [-97.321101, 32.825972], "type": "Point"}, "id": "g0koLcr0zdOiU8GiXzY8x2pOqo0=", "properties": {"@source_uri": "https://tools.usps.com/UspsToolsRestServices/rest/POLocator/findLocations", "@spider": "usps_collection_boxes", "addr:city": "FORT WORTH", "addr:country": "US", "addr:postcode": "76161", "addr:state": "TX", "addr:street_address": "4600 MARK IV PKWY", "amenity": "post_box", "collection_times": "Mo-Fr 19:00; Sa 18:00", "indoor": "yes", "note": "ON 12/24 AND 12/31, THIS BOX MAY BE COLLECTED AS EARLY AS 12 NOON.", "nsi_id": "unitedstatespostalservice-a77078", "operator": "United States Postal Service", "operator:short": "USPS", "operator:type": "public", "operator:wikidata": "Q668687", "ref": "7616100011"}, "type": "Feature"}
{"geometry": {"coordinates": [-97.3195740196, 32.8269309843], "type": "Point"}, "id": "wINZ6i_6WLeAkhCscNx22IMuRaw=", "properties": {"@source_uri": "https://tools.usps.com/UspsToolsRestServices/rest/POLocator/findLocations", "@spider": "usps_collection_boxes", "addr:city": "FORT WORTH", "addr:country": "US", "addr:postcode": "76161", "addr:state": "TX", "addr:street_address": "4600 MARK IV PKWY", "amenity": "post_box", "collection_times": "Mo-Fr 18:00; Sa 16:00", "indoor": "yes", "note": "ON 12/24 AND 12/31, THIS BOX MAY BE COLLECTED AS EARLY AS 12 NOON.", "nsi_id": "unitedstatespostalservice-a77078", "operator": "United States Postal Service", "operator:short": "USPS", "operator:type": "public", "operator:wikidata": "Q668687", "ref": "7616100038"}, "type": "Feature"}
{"geometry": {"coordinates": [-97.350393, 32.783166], "type": "Point"}, "id": "9xSVNpa84jp7v2JlOmn4tulgoGk=", "properties": {"@source_uri": "https://tools.usps.com/UspsToolsRestServices/rest/POLocator/findLocations", "@spider": "usps_collection_boxes", "addr:city": "FORT WORTH", "addr:country": "US", "addr:postcode": "76164", "addr:state": "TX", "addr:street_address": "2120 ELLIS AVE", "amenity": "post_box", "collection_times": "Mo-Fr 16:30", "indoor": "yes", "note": "ON 12/24 AND 12/31, THIS BOX MAY BE COLLECTED AS EARLY AS 12 NOON.", "nsi_id": "unitedstatespostalservice-a77078", "operator": "United States Postal Service", "operator:short": "USPS", "operator:type": "public", "operator:wikidata": "Q668687", "ref": "7616400005"}, "type": "Feature"}
{"geometry": {"coordinates": [-97.350425, 32.783114], "type": "Point"}, "id": "ZLHr7Sqo-U1ZBg3BNNduAQdKATE=", "properties": {"@source_uri": "https://tools.usps.com/UspsToolsRestServices/rest/POLocator/findLocations", "@spider": "usps_collection_boxes", "addr:city": "FORT WORTH", "addr:country": "US", "addr:postcode": "76164", "addr:state": "TX", "addr:street_address": "2120 ELLIS AVE", "amenity": "post_box", "collection_times": "Mo-Fr 16:30", "indoor": "yes", "note": "ON 12/24 AND 12/31, THIS BOX MAY BE COLLECTED AS EARLY AS 12 NOON.", "nsi_id": "unitedstatespostalservice-a77078", "operator": "United States Postal Service", "operator:short": "USPS", "operator:type": "public", "operator:wikidata": "Q668687", "ref": "7616400006"}, "type": "Feature"}
{"geometry": {"coordinates": [-97.350390306, 32.784011665], "type": "Point"}, "id": "gvnQNlPz-b6scmkPBdLUzrnJuOg=", "properties": {"@source_uri": "https://tools.usps.com/UspsToolsRestServices/rest/POLocator/findLocations", "@spider": "usps_collection_boxes", "addr:city": "FORT WORTH", "addr:country": "US", "addr:postcode": "76164", "addr:state": "TX", "addr:street_address": "2120 ELLIS AVE", "amenity": "post_box", "collection_times": "Mo-Fr 17:00; Sa 12:00", "indoor": "yes", "note": "ON 12/24 AND 12/31, THIS BOX MAY BE COLLECTED AS EARLY AS 12 NOON.", "nsi_id": "unitedstatespostalservice-a77078", "operator": "United States Postal Service", "operator:short": "USPS", "operator:type": "public", "operator:wikidata": "Q668687", "ref": "7616400015"}, "type": "Feature"}
{"geometry": {"coordinates": [-97.3500439978, 32.7838430148], "type": "Point"}, "id": "uCnlxyTBGy6p1Hfe1-tA9SeEsFs=", "properties": {"@source_uri": "https://tools.usps.com/UspsToolsRestServices/rest/POLocator/findLocations", "@spider": "usps_collection_boxes", "addr:city": "FORT WORTH", "addr:country": "US", "addr:postcode": "76164", "addr:state": "TX", "addr:street_address": "2120 ELLIS AVE", "amenity": "post_box", "collection_times": "Mo-Fr 16:30; Sa 13:00", "note": "ON 12/24 AND 12/31, THIS BOX MAY BE COLLECTED AS EARLY AS 12 NOON.", "nsi_id": "unitedstatespostalservice-a77078", "operator": "United States Postal Service", "operator:short": "USPS", "operator:type": "public", "operator:wikidata": "Q668687", "ref": "7616400016"}, "type": "Feature"}
{"geometry": {"coordinates": [-97.35224, 32.788065], "type": "Point"}, "id": "wpbZjEnQds4bPAbaM-41Uh4Vjb4=", "properties": {"@source_uri": "https://tools.usps.com/UspsToolsRestServices/rest/POLocator/findLocations", "@spider": "usps_collection_boxes", "addr:city": "FORT WORTH", "addr:country": "US", "addr:postcode": "76164", "addr:state": "TX", "addr:street_address": "131 E EXCHANGE AVE", "amenity": "post_box", "collection_times": "Mo-Sa 16:30", "note": "ON 12/24 AND 12/31, THIS BOX MAY BE COLLECTED AS EARLY AS 12 NOON.", "nsi_id": "unitedstatespostalservice-a77078", "operator": "United States Postal Service", "operator:short": "USPS", "operator:type": "public", "operator:wikidata": "Q668687", "ref": "7616400017"}, "type": "Feature"}
{"geometry": {"coordinates": [-97.3115865, 32.97101], "type": "Point"}, "id": "JfsJtlnlk4IG_BjXTa0DDIGXt6E=", "properties": {"@source_uri": "https://tools.usps.com/UspsToolsRestServices/rest/POLocator/findLocations", "@spider": "usps_collection_boxes", "addr:city": "FORT WORTH", "addr:country": "US", "addr:postcode": "76177", "addr:state": "TX", "addr:street_address": "2400 WESTPORT PKWY", "amenity": "post_box", "collection_times": "Mo-Fr 17:30", "indoor": "yes", "note": "ON 12/24 AND 12/31, THIS BOX MAY BE COLLECTED AS EARLY AS 12 NOON.", "nsi_id": "unitedstatespostalservice-a77078", "operator": "United States Postal Service", "operator:short": "USPS", "operator:type": "public", "operator:wikidata": "Q668687", "ref": "7617700001"}, "type": "Feature"}
{"geometry": {"coordinates": [-97.312330095, 32.972117546], "type": "Point"}, "id": "9RWJr_tVdEyfNJnMUafx9gylbz4=", "properties": {"@source_uri": "https://tools.usps.com/UspsToolsRestServices/rest/POLocator/findLocations", "@spider": "usps_collection_boxes", "addr:city": "FORT WORTH", "addr:country": "US", "addr:postcode": "76177", "addr:state": "TX", "addr:street_address": "2400 WESTPORT PKWY STE 200", "amenity": "post_box", "collection_times": "Mo-Fr 17:30", "indoor": "yes", "note": "ON 12/24 AND 12/31, THIS BOX MAY BE COLLECTED AS EARLY AS 12 NOON.", "nsi_id": "unitedstatespostalservice-a77078", "operator": "United States Postal Service", "operator:short": "USPS", "operator:type": "public", "operator:wikidata": "Q668687", "ref": "7617700009"}, "type": "Feature"}
{"geometry": {"coordinates": [-97.3647229734, 32.8597390106], "type": "Point"}, "id": "j9m9QOFxj1RGiZRCJB9i0VVcNUw=", "properties": {"@source_uri": "https://tools.usps.com/UspsToolsRestServices/rest/POLocator/findLocations", "@spider": "usps_collection_boxes", "addr:city": "SAGINAW", "addr:country": "US", "addr:postcode": "76179", "addr:state": "TX", "addr:street_address": "101 BELMONT ST", "amenity": "post_box", "collection_times": "Mo-Fr 16:00; Sa 15:15", "note": "ON 12/24 AND 12/31, THIS BOX MAY BE COLLECTED AS EARLY AS 12 NOON.", "nsi_id": "unitedstatespostalservice-a77078", "operator": "United States Postal Service", "operator:short": "USPS", "operator:type": "public", "operator:wikidata": "Q668687", "ref": "7617900001"}, "type": "Feature"}
{"geometry": {"coordinates": [-97.3758, 32.8649], "type": "Point"}, "id": "Zhxcy7WrvF8xqbHjnQYFJDeZlvw=", "properties": {"@source_uri": "https://tools.usps.com/UspsToolsRestServices/rest/POLocator/findLocations", "@spider": "usps_collection_boxes", "addr:city": "SAGINAW", "addr:country": "US", "addr:postcode": "76179", "addr:state": "TX", "addr:street_address": "8101 BOAT CLUB RD", "amenity": "post_box", "collection_times": "Mo-Sa 10:00", "nsi_id": "unitedstatespostalservice-a77078", "operator": "United States Postal Service", "operator:short": "USPS", "operator:type": "public", "operator:wikidata": "Q668687", "ref": "7617900003"}, "type": "Feature"}
{"geometry": {"coordinates": [-97.3647229734, 32.8597390106], "type": "Point"}, "id": "pk0gajbmLkQhheUX7pMAmBD2OHk=", "properties": {"@source_uri": "https://tools.usps.com/UspsToolsRestServices/rest/POLocator/findLocations", "@spider": "usps_collection_boxes", "addr:city": "SAGINAW", "addr:country": "US", "addr:postcode": "76179", "addr:state": "TX", "addr:street_address": "101 BELMONT ST", "amenity": "post_box", "collection_times": "Mo-Fr 16:00", "indoor": "yes", "note": "ON 12/24 AND 12/31, THIS BOX MAY BE COLLECTED AS EARLY AS 12 NOON.", "nsi_id": "unitedstatespostalservice-a77078", "operator": "United States Postal Service", "operator:short": "USPS", "operator:type": "public", "operator:wikidata": "Q668687", "ref": "7617900007"}, "type": "Feature"}
{"geometry": {"coordinates": [-97.3614830325, 32.8550940113], "type": "Point"}, "id": "KzZOg801EK78ayNUVqmrUH-NAvE=", "properties": {"@source_uri": "https://tools.usps.com/UspsToolsRestServices/rest/POLocator/findLocations", "@spider": "usps_collection_boxes", "addr:city": "SAGINAW", "addr:country": "US", "addr:postcode": "76179", "addr:state": "TX", "addr:street_address": "500 S SAGINAW BLVD", "amenity": "post_box", "collection_times": "Mo-Fr 16:25", "note": "ON 12/24 AND 12/31, THIS BOX MAY BE COLLECTED AS EARLY AS 12 NOON.", "nsi_id": "unitedstatespostalservice-a77078", "operator": "United States Postal Service", "operator:short": "USPS", "operator:type": "public", "operator:wikidata": "Q668687", "ref": "7617900009"}, "type": "Feature"}
{"geometry": {"coordinates": [-97.3828090249, 32.8800610187], "type": "Point"}, "id": "CoUKF5WaWM8rY0Y8Hq91YOjlecM=", "properties": {"@source_uri": "https://tools.usps.com/UspsToolsRestServices/rest/POLocator/findLocations", "@spider": "usps_collection_boxes", "addr:city": "SAGINAW", "addr:country": "US", "addr:postcode": "76179", "addr:state": "TX", "addr:street_address": "1209 N SAGINAW BLVD", "amenity": "post_box", "collection_times": "Mo-Sa 10:00", "nsi_id": "unitedstatespostalservice-a77078", "operator": "United States Postal Service", "operator:short": "USPS", "operator:type": "public", "operator:wikidata": "Q668687", "ref": "7617900010"}, "type": "Feature"}
{"geometry": {"coordinates": [-97.4207485958, 32.9666564801], "type": "Point"}, "id": "2KEXQ-tayA-VlTeXnVMy1etFV1k=", "properties": {"@source_uri": "https://tools.usps.com/UspsToolsRestServices/rest/POLocator/findLocations", "@spider": "usps_collection_boxes", "addr:city": "SAGINAW", "addr:country": "US", "addr:postcode": "76179", "addr:state": "TX", "addr:street_address": "13075 N SAGINAW BLVD", "amenity": "post_box", "collection_times": "Mo-Sa 12:00", "nsi_id": "unitedstatespostalservice-a77078", "operator": "United States Postal Service", "operator:short": "USPS", "operator:type": "public", "operator:wikidata": "Q668687", "ref": "7617900013"}, "type": "Feature"}
{"geometry": {"coordinates": [-97.3647229734, 32.8597390106], "type": "Point"}, "id": "eVlgHvg1sTjtZrb9Ly5OhdTrEsY=", "properties": {"@source_uri": "https://tools.usps.com/UspsToolsRestServices/rest/POLocator/findLocations", "@spider": "usps_collection_boxes", "addr:city": "SAGINAW", "addr:country": "US", "addr:postcode": "76179", "addr:state": "TX", "addr:street_address": "101 BELMONT ST", "amenity": "post_box", "collection_times": "Mo-Fr 17:00", "indoor": "yes", "note": "ON 12/24 AND 12/31, THIS BOX MAY BE COLLECTED AS EARLY AS 12 NOON.", "nsi_id": "unitedstatespostalservice-a77078", "operator": "United States Postal Service", "operator:short": "USPS", "operator:type": "public", "operator:wikidata": "Q668687", "ref": "7617900016"}, "type": "Feature"}
{"geometry": {"coordinates": [-97.2333659778, 32.8409640085], "type": "Point"}, "id": "ny4I-oe0jcXJcbkOLmLb8a2jg6k=", "properties": {"@source_uri": "https://tools.usps.com/UspsToolsRestServices/rest/POLocator/findLocations", "@spider": "usps_collection_boxes", "addr:city": "FORT WORTH", "addr:country": "US", "addr:postcode": "76180", "addr:state": "TX", "addr:street_address": "6851 NE LOOP 820", "amenity": "post_box", "collection_times": "Mo-Sa 08:35", "nsi_id": "unitedstatespostalservice-a77078", "operator": "United States Postal Service", "operator:short": "USPS", "operator:type": "public", "operator:wikidata": "Q668687", "ref": "7618000007"}, "type": "Feature"}
{"geometry": {"coordinates": [-97.2264245574, 32.8249609139], "type": "Point"}, "id": "JjraJ8cnwpri4ne_yRGHMQ4a0jI=", "properties": {"@source_uri": "https://tools.usps.com/UspsToolsRestServices/rest/POLocator/findLocations", "@spider": "usps_collection_boxes", "addr:city": "FORT WORTH", "addr:country": "US", "addr:postcode": "76180", "addr:state": "TX", "addr:street_address": "7201 GRAPEVINE HWY", "amenity": "post_box", "collection_times": "Mo-Sa 10:15", "nsi_id": "unitedstatespostalservice-a77078", "operator": "United States Postal Service", "operator:short": "USPS", "operator:type": "public", "operator:wikidata": "Q668687", "ref": "7618000020"}, "type": "Feature"}
{"geometry": {"coordinates": [-97.2373250021, 32.8475090176], "type": "Point"}, "id": "leI-t-bC3srz6pINuY2xw2r5zRw=", "properties": {"@source_uri": "https://tools.usps.com/UspsToolsRestServices/rest/POLocator/findLocations", "@spider": "usps_collection_boxes", "addr:city": "FORT WORTH", "addr:country": "US", "addr:postcode": "76180", "addr:state": "TX", "addr:street_address": "6700 BUENOS AIRES DR", "amenity": "post_box", "collection_times": "Mo-Sa 09:20", "nsi_id": "unitedstatespostalservice-a77078", "operator": "United States Postal Service", "operator:short": "USPS", "operator:type": "public", "operator:wikidata": "Q668687", "ref": "7618000027"}, "type": "Feature"}
{"geometry": {"coordinates": [-97.2056952, 32.8551977], "type": "Point"}, "id": "bSK21NSIbblhGzBMo5mZa1owhog=", "properties": {"@source_uri": "https://tools.usps.com/UspsToolsRestServices/rest/POLocator/findLocations", "@spider": "usps_collection_boxes", "addr:city": "FORT WORTH", "addr:country": "US", "addr:postcode": "76180", "addr:state": "TX", "addr:street_address": "9151 BOULEVARD 26", "amenity": "post_box", "collection_times": "Mo-Fr 10:00", "nsi_id": "unitedstatespostalservice-a77078", "operator": "United States Postal Service", "operator:short": "USPS", "operator:type": "public", "operator:wikidata": "Q668687", "ref": "7618000040"}, "type": "Feature"}
{"geometry": {"coordinates": [-97.2133580396, 32.8559539946], "type": "Point"}, "id": "TAybDkTYzJKqDN94bFEETxHeWtA=", "properties": {"@source_uri": "https://tools.usps.com/UspsToolsRestServices/rest/POLocator/findLocations", "@spider": "usps_collection_boxes", "addr:city": "FORT WORTH", "addr:country": "US", "addr:postcode": "76180", "addr:state": "TX", "addr:street_address": "6051 DAVIS BLVD", "amenity": "post_box", "collection_times": "Mo-Fr 17:00; Sa 16:00", "note": "ON 12/24 AND 12/31, THIS BOX MAY BE COLLECTED AS EARLY AS 12 NOON.", "nsi_id": "unitedstatespostalservice-a77078", "operator": "United States Postal Service", "operator:short": "USPS", "operator:type": "public", "operator:wikidata": "Q668687", "ref": "7618000051"}, "type": "Feature"}
{"geometry": {"coordinates": [-97.2133580396, 32.8559539946], "type": "Point"}, "id": "NOyBhKlia0oFAqsBmtrLDSzr6NQ=", "properties": {"@source_uri": "https://tools.usps.com/UspsToolsRestServices/rest/POLocator/findLocations", "@spider": "usps_collection_boxes", "addr:city": "FORT WORTH", "addr:country": "US", "addr:postcode": "76180", "addr:state": "TX", "addr:street_address": "6051 DAVIS BLVD", "amenity": "post_box", "collection_times": "Mo-Fr 17:00; Sa 16:00", "indoor": "yes", "note": "ON 12/24 AND 12/31, THIS BOX MAY BE COLLECTED AS EARLY AS 12 NOON.", "nsi_id": "unitedstatespostalservice-a77078", "operator": "United States Postal Service", "operator:short": "USPS", "operator:type": "public", "operator:wikidata": "Q668687", "ref": "7618000054"}, "type": "Feature"}
{"geometry": {"coordinates": [-97.2133580396, 32.8559539946], "type": "Point"}, "id": "-B4sGLQ12x3_uKCICBtsPHGqQc4=", "properties": {"@source_uri": "https://tools.usps.com/UspsToolsRestServices/rest/POLocator/findLocations", "@spider": "usps_collection_boxes", "addr:city": "FORT WORTH", "addr:country": "US", "addr:postcode": "76180", "addr:state": "TX", "addr:street_address": "6051 DAVIS BLVD", "amenity": "post_box", "collection_times": "Mo-Fr 17:00; Sa 16:00", "indoor": "yes", "note": "ON 12/24 AND 12/31, THIS BOX MAY BE COLLECTED AS EARLY AS 12 NOON.", "nsi_id": "unitedstatespostalservice-a77078", "operator": "United States Postal Service", "operator:short": "USPS", "operator:type": "public", "operator:wikidata": "Q668687", "ref": "7618000055"}, "type": "Feature"}
{"geometry": {"coordinates": [-97.1969377704, 32.8397764047], "type": "Point"}, "id": "NrXmfAWgZVpmWWa293Ml2uYJDwY=", "properties": {"@source_uri": "https://tools.usps.com/UspsToolsRestServices/rest/POLocator/findLocations", "@spider": "usps_collection_boxes", "addr:city": "FORT WORTH", "addr:country": "US", "addr:postcode": "76180", "addr:state": "TX", "addr:street_address": "8500 THOUSAND OAKS DR", "amenity": "post_box", "collection_times": "Mo-Sa 10:00", "nsi_id": "unitedstatespostalservice-a77078", "operator": "United States Postal Service", "operator:short": "USPS", "operator:type": "public", "operator:wikidata": "Q668687", "ref": "7618000063"}, "type": "Feature"}
{"geometry": {"coordinates": [-97.2133580396, 32.8559539946], "type": "Point"}, "id": "kdvJAMq3i4ReDBrf84OIapKgCyE=", "properties": {"@source_uri": "https://tools.usps.com/UspsToolsRestServices/rest/POLocator/findLocations", "@spider": "usps_collection_boxes", "addr:city": "FORT WORTH", "addr:country": "US", "addr:postcode": "76180", "addr:state": "TX", "addr:street_address": "6051 DAVIS BLVD", "amenity": "post_box", "collection_times": "Mo-Fr 17:00; Sa 14:00", "name": "USPS COLLECTION BOX - APC", "note": "ON 12/24 AND 12/31, THIS BOX MAY BE COLLECTED AS EARLY AS 12 NOON.", "nsi_id": "unitedstatespostalservice-a77078", "operator": "United States Postal Service", "operator:short": "USPS", "operator:type": "public", "operator:wikidata": "Q668687", "ref": "7618000065"}, "type": "Feature"}
{"geometry": {"coordinates": [-97.2377630403, 32.8517529847], "type": "Point"}, "id": "HQfsfV9zEv7pSpTpsy40o7qKK70=", "properties": {"@source_uri": "https://tools.usps.com/UspsToolsRestServices/rest/POLocator/findLocations", "@spider": "usps_collection_boxes", "addr:city": "FORT WORTH", "addr:country": "US", "addr:postcode": "76180", "addr:state": "TX", "addr:street_address": "5750 RUFE SNOW DR", "amenity": "post_box", "collection_times": "Mo-Sa 12:00", "nsi_id": "unitedstatespostalservice-a77078", "operator": "United States Postal Service", "operator:short": "USPS", "operator:type": "public", "operator:wikidata": "Q668687", "ref": "7618000066"}, "type": "Feature"}
{"geometry": {"coordinates": [-97.213475973, 32.829233996], "type": "Point"}, "id": "QAFL8F95soQXmX72pOYFRaHSRt0=", "properties": {"@source_uri": "https://tools.usps.com/UspsToolsRestServices/rest/POLocator/findLocations", "@spider": "usps_collection_boxes", "addr:city": "FORT WORTH", "addr:country": "US", "addr:postcode": "76180", "addr:state": "TX", "addr:street_address": "4401 BOOTH CALLOWAY RD", "amenity": "post_box", "collection_times": "Mo-Sa 09:00", "nsi_id": "unitedstatespostalservice-a77078", "operator": "United States Postal Service", "operator:short": "USPS", "operator:type": "public", "operator:wikidata": "Q668687", "ref": "7618000070"}, "type": "Feature"}
{"geometry": {"coordinates": [-97.2476499981, 32.823801014], "type": "Point"}, "id": "GljKvGQdM-sIdudetsr3_QufxFg=", "properties": {"@source_uri": "https://tools.usps.com/UspsToolsRestServices/rest/POLocator/findLocations", "@spider": "usps_collection_boxes", "addr:city": "FORT WORTH", "addr:country": "US", "addr:postcode": "76180", "addr:state": "TX", "addr:street_address": "6350 GLENVIEW DR STE 101", "amenity": "post_box", "collection_times": "Mo-Sa 12:15", "note": "ON 12/24 AND 12/31, THIS BOX MAY BE COLLECTED AS EARLY AS 12 NOON.", "nsi_id": "unitedstatespostalservice-a77078", "operator": "United States Postal Service", "operator:short": "USPS", "operator:type": "public", "operator:wikidata": "Q668687", "ref": "7618000082"}, "type": "Feature"}
{"geometry": {"coordinates": [-97.2133580396, 32.8559539946], "type": "Point"}, "id": "23k0TwVp6lCAeeF486bJa_nXZzc=", "properties": {"@source_uri": "https://tools.usps.com/UspsToolsRestServices/rest/POLocator/findLocations", "@spider": "usps_collection_boxes", "addr:city": "FORT WORTH", "addr:country": "US", "addr:postcode": "76180", "addr:state": "TX", "addr:street_address": "6051 DAVIS BLVD", "amenity": "post_box", "collection_times": "Mo-Fr 17:00; Sa 13:00", "indoor": "yes", "note": "ON 12/24 AND 12/31, THIS BOX MAY BE COLLECTED AS EARLY AS 12 NOON.", "nsi_id": "unitedstatespostalservice-a77078", "operator": "United States Postal Service", "operator:short": "USPS", "operator:type": "public", "operator:wikidata": "Q668687", "ref": "7618000087"}, "type": "Feature"}
{"geometry": {"coordinates": [-97.2056952, 32.8551977], "type": "Point"}, "id": "iYzbop_Q1bMbG0fuj3T4Qnus8ak=", "properties": {"@source_uri": "https://tools.usps.com/UspsToolsRestServices/rest/POLocator/findLocations", "@spider": "usps_collection_boxes", "addr:city": "FORT WORTH", "addr:country": "US", "addr:postcode": "76180", "addr:state": "TX", "addr:street_address": "3901 VANCE RD", "amenity": "post_box", "collection_times": "Mo-Sa 13:45", "note": "ON 12/24 AND 12/31, THIS BOX MAY BE COLLECTED AS EARLY AS 12 NOON.", "nsi_id": "unitedstatespostalservice-a77078", "operator": "United States Postal Service", "operator:short": "USPS", "operator:type": "public", "operator:wikidata": "Q668687", "ref": "7618000094"}, "type": "Feature"}
