{"geometry": {"coordinates": [-97.150800444, 33.206711556], "type": "Point"}, "id": "B2I1tttoEzMNMvOGIMPCoYJITHI=", "properties": {"@source_uri": "https://tools.usps.com/UspsToolsRestServices/rest/POLocator/findLocations", "@spider": "usps_collection_boxes", "addr:city": "DENTON", "addr:country": "US", "addr:postcode": "76201", "addr:state": "TX", "addr:street_address": "900 AVENUE C", "amenity": "post_box", "collection_times": "Mo-Fr 13:45; Sa 15:00", "note": "ON 12/24 AND 12/31, THIS BOX MAY BE COLLECTED AS EARLY AS 12 NOON.", "nsi_id": "unitedstatespostalservice-a77078", "operator": "United States Postal Service", "operator:short": "USPS", "operator:type": "public", "operator:wikidata": "Q668687", "ref": "7620100049"}, "type": "Feature"}
{"geometry": {"coordinates": [-97.1318260101, 33.2171390034], "type": "Point"}, "id": "H5_XYFffNT8Zx0nUYZ2sKvOekXs=", "properties": {"@source_uri": "https://tools.usps.com/UspsToolsRestServices/rest/POLocator/findLocations", "@spider": "usps_collection_boxes", "addr:city": "DENTON", "addr:country": "US", "addr:postcode": "76201", "addr:state": "TX", "addr:street_address": "101 E MCKINNEY ST", "amenity": "post_box", "collection_times": "Mo-Fr 17:30; Sa 15:45", "note": "ON 12/24 AND 12/31, THIS BOX MAY BE COLLECTED AS EARLY AS 12 NOON.", "nsi_id": "unitedstatespostalservice-a77078", "operator": "United States Postal Service", "operator:short": "USPS", "operator:type": "public", "operator:wikidata": "Q668687", "ref": "7620100122"}, "type": "Feature"}
{"geometry": {"coordinates": [-97.1318435554, 33.2166265199], "type": "Point"}, "id": "N9jpqEGyJ_l0SRkmHHZNbLki1JU=", "properties": {"@source_uri": "https://tools.usps.com/UspsToolsRestServices/rest/POLocator/findLocations", "@spider": "usps_collection_boxes", "addr:city": "DENTON", "addr:country": "US", "addr:postcode": "76201", "addr:state": "TX", "addr:street_address": "101 E MCKINNEY ST", "amenity": "post_box", "collection_times": "Mo-Fr 17:30; Sa 15:45", "indoor": "yes", "note": "ON 12/24 AND 12/31, THIS BOX MAY BE COLLECTED AS EARLY AS 12 NOON.", "nsi_id": "unitedstatespostalservice-a77078", "operator": "United States Postal Service", "operator:short": "USPS", "operator:type": "public", "operator:wikidata": "Q668687", "ref": "7620100126"}, "type": "Feature"}
{"geometry": {"coordinates": [-97.1318435554, 33.2166265199], "type": "Point"}, "id": "hCVc47JOUK8PLhxeNH8N6N9HlGQ=", "properties": {"@source_uri": "https://tools.usps.com/UspsToolsRestServices/rest/POLocator/findLocations", "@spider": "usps_collection_boxes", "addr:city": "DENTON", "addr:country": "US", "addr:postcode": "76201", "addr:state": "TX", "addr:street_address": "101 E MCKINNEY ST", "amenity": "post_box", "collection_times": "Mo-Fr 17:30; Sa 15:45", "indoor": "yes", "note": "ON 12/24 AND 12/31, THIS BOX MAY BE COLLECTED AS EARLY AS 12 NOON.", "nsi_id": "unitedstatespostalservice-a77078", "operator": "United States Postal Service", "operator:short": "USPS", "operator:type": "public", "operator:wikidata": "Q668687", "ref": "7620100127"}, "type": "Feature"}
{"geometry": {"coordinates": [-97.1318435554, 33.2166265199], "type": "Point"}, "id": "i1r_asJTa0z8EaW2C7r5lSnTQFU=", "properties": {"@source_uri": "https://tools.usps.com/UspsToolsRestServices/rest/POLocator/findLocations", "@spider": "usps_collection_boxes", "addr:city": "DENTON", "addr:country": "US", "addr:postcode": "76201", "addr:state": "TX", "addr:street_address": "101 E MCKINNEY ST", "amenity": "post_box", "collection_times": "Mo-Fr 17:30; Sa 15:45", "indoor": "yes", "note": "ON 12/24 AND 12/31, THIS BOX MAY BE COLLECTED AS EARLY AS 12 NOON.", "nsi_id": "unitedstatespostalservice-a77078", "operator": "United States Postal Service", "operator:short": "USPS", "operator:type": "public", "operator:wikidata": "Q668687", "ref": "7620100128"}, "type": "Feature"}
{"geometry": {"coordinates": [-97.1318435554, 33.2166265199], "type": "Point"}, "id": "q7zDRwyUbCB82-UKrnqJNgJA35E=", "properties": {"@source_uri": "https://tools.usps.com/UspsToolsRestServices/rest/POLocator/findLocations", "@spider": "usps_collection_boxes", "addr:city": "DENTON", "addr:country": "US", "addr:postcode": "76201", "addr:state": "TX", "addr:street_address": "101 E MCKINNEY ST", "amenity": "post_box", "collection_times": "Mo-Fr 17:30; Sa 15:45", "indoor": "yes", "note": "ON 12/24 AND 12/31, THIS BOX MAY BE COLLECTED AS EARLY AS 12 NOON.", "nsi_id": "unitedstatespostalservice-a77078", "operator": "United States Postal Service", "operator:short": "USPS", "operator:type": "public", "operator:wikidata": "Q668687", "ref": "7620100129"}, "type": "Feature"}
{"geometry": {"coordinates": [-97.1335903359, 33.2174968639], "type": "Point"}, "id": "26m8PYUACH6amkyG4VPow3glxsg=", "properties": {"@source_uri": "https://tools.usps.com/UspsToolsRestServices/rest/POLocator/findLocations", "@spider": "usps_collection_boxes", "addr:city": "DENTON", "addr:country": "US", "addr:postcode": "76201", "addr:state": "TX", "addr:street_address": "400 N ELM ST", "amenity": "post_box", "collection_times": "Mo-Fr 16:00; Sa 15:15", "note": "ON 12/24 AND 12/31, THIS BOX MAY BE COLLECTED AS EARLY AS 12 NOON.", "nsi_id": "unitedstatespostalservice-a77078", "operator": "United States Postal Service", "operator:short": "USPS", "operator:type": "public", "operator:wikidata": "Q668687", "ref": "7620100132"}, "type": "Feature"}
{"geometry": {"coordinates": [-97.1318435554, 33.2166265199], "type": "Point"}, "id": "nuUj_9fXLHaJDDynKoRXxrB9Iik=", "properties": {"@source_uri": "https://tools.usps.com/UspsToolsRestServices/rest/POLocator/findLocations", "@spider": "usps_collection_boxes", "addr:city": "DENTON", "addr:country": "US", "addr:postcode": "76201", "addr:state": "TX", "addr:street_address": "101 E MCKINNEY ST", "amenity": "post_box", "collection_times": "Mo-Fr 17:30; Sa 15:45", "name": "USPS COLLECTION BOX - APC", "note": "ON 12/24 AND 12/31, THIS BOX MAY BE COLLECTED AS EARLY AS 12 NOON.", "nsi_id": "unitedstatespostalservice-a77078", "operator": "United States Postal Service", "operator:short": "USPS", "operator:type": "public", "operator:wikidata": "Q668687", "ref": "7620100133"}, "type": "Feature"}
{"geometry": {"coordinates": [-97.1155429, 33.215453], "type": "Point"}, "id": "TT9S7DKHKnPduSp-m02Xhmhc20c=", "properties": {"@source_uri": "https://tools.usps.com/UspsToolsRestServices/rest/POLocator/findLocations", "@spider": "usps_collection_boxes", "addr:city": "DENTON", "addr:country": "US", "addr:postcode": "76201", "addr:state": "TX", "addr:street_address": "1450 E MCKINNEY ST", "amenity": "post_box", "collection_times": "Mo-Fr 17:30; Sa 14:15", "note": "ON 12/24 AND 12/31, THIS BOX MAY BE COLLECTED AS EARLY AS 12 NOON.", "nsi_id": "unitedstatespostalservice-a77078", "operator": "United States Postal Service", "operator:short": "USPS", "operator:type": "public", "operator:wikidata": "Q668687", "ref": "7620100135"}, "type": "Feature"}
{"geometry": {"coordinates": [-97.131843555, 33.21662652], "type": "Point"}, "id": "I6CsK1hgwDxSBi7yajR1idq9WcE=", "properties": {"@source_uri": "https://tools.usps.com/UspsToolsRestServices/rest/POLocator/findLocations", "@spider": "usps_collection_boxes", "addr:city": "DENTON", "addr:country": "US", "addr:postcode": "76201", "addr:state": "TX", "addr:street_address": "101 E MCKINNEY ST", "amenity": "post_box", "collection_times": "Mo-Fr 18:00; Sa 15:00", "indoor": "yes", "note": "ON 12/24 AND 12/31, THIS BOX MAY BE COLLECTED AS EARLY AS 12 NOON.", "nsi_id": "unitedstatespostalservice-a77078", "operator": "United States Postal Service", "operator:short": "USPS", "operator:type": "public", "operator:wikidata": "Q668687", "ref": "7620100144"}, "type": "Feature"}
{"geometry": {"coordinates": [-97.1240921, 33.189996], "type": "Point"}, "id": "KdTm5DDCdJTS7XYphLv1BUg6lpk=", "properties": {"@source_uri": "https://tools.usps.com/UspsToolsRestServices/rest/POLocator/findLocations", "@spider": "usps_collection_boxes", "addr:city": "DENTON", "addr:country": "US", "addr:postcode": "76205", "addr:state": "TX", "addr:street_address": "701 LONDONDERRY LN", "amenity": "post_box", "collection_times": "Mo-Sa 13:00", "note": "ON 12/24 AND 12/31, THIS BOX MAY BE COLLECTED AS EARLY AS 12 NOON.", "nsi_id": "unitedstatespostalservice-a77078", "operator": "United States Postal Service", "operator:short": "USPS", "operator:type": "public", "operator:wikidata": "Q668687", "ref": "7620500008"}, "type": "Feature"}
{"geometry": {"coordinates": [-97.106411, 33.194597], "type": "Point"}, "id": "2UkcjFN6IEr4-D98rhJOEg1F4R4=", "properties": {"@source_uri": "https://tools.usps.com/UspsToolsRestServices/rest/POLocator/findLocations", "@spider": "usps_collection_boxes", "addr:city": "DENTON", "addr:country": "US", "addr:postcode": "76205", "addr:state": "TX", "addr:street_address": "2101 COLORADO BLVD", "amenity": "post_box", "collection_times": "Mo-Fr 17:30; Sa 14:15", "indoor": "yes", "note": "ON 12/24 AND 12/31, THIS BOX MAY BE COLLECTED AS EARLY AS 12 NOON.", "nsi_id": "unitedstatespostalservice-a77078", "operator": "United States Postal Service", "operator:short": "USPS", "operator:type": "public", "operator:wikidata": "Q668687", "ref": "7620500018"}, "type": "Feature"}
{"geometry": {"coordinates": [-97.0941285, 33.192981], "type": "Point"}, "id": "OJ7ukJQ5amipHXdJj1cxjrDCSsk=", "properties": {"@source_uri": "https://tools.usps.com/UspsToolsRestServices/rest/POLocator/findLocations", "@spider": "usps_collection_boxes", "addr:city": "DENTON", "addr:country": "US", "addr:postcode": "76205", "addr:state": "TX", "addr:street_address": "1515 S LOOP 288", "amenity": "post_box", "collection_times": "Mo-Fr 13:15; Sa 14:30", "note": "ON 12/24 AND 12/31, THIS BOX MAY BE COLLECTED AS EARLY AS 12 NOON.", "nsi_id": "unitedstatespostalservice-a77078", "operator": "United States Postal Service", "operator:short": "USPS", "operator:type": "public", "operator:wikidata": "Q668687", "ref": "7620500021"}, "type": "Feature"}
{"geometry": {"coordinates": [-97.1064519, 33.194565], "type": "Point"}, "id": "kK84IYJfAUv622sgWsJqAY1JVD0=", "properties": {"@source_uri": "https://tools.usps.com/UspsToolsRestServices/rest/POLocator/findLocations", "@spider": "usps_collection_boxes", "addr:city": "DENTON", "addr:country": "US", "addr:postcode": "76205", "addr:state": "TX", "addr:street_address": "2101 COLORADO BLVD", "amenity": "post_box", "collection_times": "Mo-Fr 17:30; Sa 14:15", "indoor": "yes", "note": "ON 12/24 AND 12/31, THIS BOX MAY BE COLLECTED AS EARLY AS 12 NOON.", "nsi_id": "unitedstatespostalservice-a77078", "operator": "United States Postal Service", "operator:short": "USPS", "operator:type": "public", "operator:wikidata": "Q668687", "ref": "7620500023"}, "type": "Feature"}
{"geometry": {"coordinates": [-97.1064330345, 33.1946019936], "type": "Point"}, "id": "ItxDpvHXLnTgzvPNDN0R5kXBlRs=", "properties": {"@source_uri": "https://tools.usps.com/UspsToolsRestServices/rest/POLocator/findLocations", "@spider": "usps_collection_boxes", "addr:city": "DENTON", "addr:country": "US", "addr:postcode": "76205", "addr:state": "TX", "addr:street_address": "2101 COLORADO BLVD", "amenity": "post_box", "collection_times": "Mo-Fr 17:30; Sa 14:15", "note": "ON 12/24 AND 12/31, THIS BOX MAY BE COLLECTED AS EARLY AS 12 NOON.", "nsi_id": "unitedstatespostalservice-a77078", "operator": "United States Postal Service", "operator:short": "USPS", "operator:type": "public", "operator:wikidata": "Q668687", "ref": "7620500026"}, "type": "Feature"}
{"geometry": {"coordinates": [-97.106800571, 33.194434839], "type": "Point"}, "id": "QM2Gs4ix6yKwJ4OOrEAs7IhGBpU=", "properties": {"@source_uri": "https://tools.usps.com/UspsToolsRestServices/rest/POLocator/findLocations", "@spider": "usps_collection_boxes", "addr:city": "DENTON", "addr:country": "US", "addr:postcode": "76205", "addr:state": "TX", "addr:street_address": "2101 COLORADO BLVD", "amenity": "post_box", "collection_times": "Mo-Fr 17:00", "indoor": "yes", "note": "ON 12/24 AND 12/31, THIS BOX MAY BE COLLECTED AS EARLY AS 12 NOON.", "nsi_id": "unitedstatespostalservice-a77078", "operator": "United States Postal Service", "operator:short": "USPS", "operator:type": "public", "operator:wikidata": "Q668687", "ref": "7620500030"}, "type": "Feature"}
{"geometry": {"coordinates": [-97.0875253, 33.204707], "type": "Point"}, "id": "1noWrYuwm2kb_uNavNRjUsjvA3w=", "properties": {"@source_uri": "https://tools.usps.com/UspsToolsRestServices/rest/POLocator/findLocations", "@spider": "usps_collection_boxes", "addr:city": "DENTON", "addr:country": "US", "addr:postcode": "76208", "addr:state": "TX", "addr:street_address": "3900 MORSE ST", "amenity": "post_box", "collection_times": "Mo-Fr 15:00; Sa 14:45", "note": "ON 12/24 AND 12/31, THIS BOX MAY BE COLLECTED AS EARLY AS 12 NOON.", "nsi_id": "unitedstatespostalservice-a77078", "operator": "United States Postal Service", "operator:short": "USPS", "operator:type": "public", "operator:wikidata": "Q668687", "ref": "7620800001"}, "type": "Feature"}
{"geometry": {"coordinates": [-97.0913462, 33.176794], "type": "Point"}, "id": "NmkZvtOf2Ys-a78gYxmrZeS6-Bw=", "properties": {"@source_uri": "https://tools.usps.com/UspsToolsRestServices/rest/POLocator/findLocations", "@spider": "usps_collection_boxes", "addr:city": "CORINTH", "addr:country": "US", "addr:postcode": "76210", "addr:state": "TX", "addr:street_address": "3535 S INTERSTATE 35 E", "amenity": "post_box", "collection_times": "Mo-Fr 13:15; Sa 14:00", "note": "ON 12/24 AND 12/31, THIS BOX MAY BE COLLECTED AS EARLY AS 12 NOON.", "nsi_id": "unitedstatespostalservice-a77078", "operator": "United States Postal Service", "operator:short": "USPS", "operator:type": "public", "operator:wikidata": "Q668687", "ref": "7621000000"}, "type": "Feature"}
{"geometry": {"coordinates": [-97.0747129, 33.160504], "type": "Point"}, "id": "7dUbJ4PD0y6436Dez2Ci9_aFZWQ=", "properties": {"@source_uri": "https://tools.usps.com/UspsToolsRestServices/rest/POLocator/findLocations", "@spider": "usps_collection_boxes", "addr:city": "CORINTH", "addr:country": "US", "addr:postcode": "76210", "addr:state": "TX", "addr:street_address": "1200 POST OAK DR", "amenity": "post_box", "collection_times": "Mo-Fr 14:45; Sa 13:30", "note": "ON 12/24 AND 12/31, THIS BOX MAY BE COLLECTED AS EARLY AS 12 NOON.", "nsi_id": "unitedstatespostalservice-a77078", "operator": "United States Postal Service", "operator:short": "USPS", "operator:type": "public", "operator:wikidata": "Q668687", "ref": "7621000001"}, "type": "Feature"}
{"geometry": {"coordinates": [-97.696093, 33.358938], "type": "Point"}, "id": "pIUsbf5uTkeuk1p4EjpADgnbkM8=", "properties": {"@source_uri": "https://tools.usps.com/UspsToolsRestServices/rest/POLocator/findLocations", "@spider": "usps_collection_boxes", "addr:city": "ALVORD", "addr:country": "US", "addr:postcode": "76225", "addr:state": "TX", "addr:street_address": "105 N ONEIL ST", "amenity": "post_box", "collection_times": "Mo-Fr 16:00; Sa 07:30", "note": "ON 12/24 AND 12/31, THIS BOX MAY BE COLLECTED AS EARLY AS 12 NOON.", "nsi_id": "unitedstatespostalservice-a77078", "operator": "United States Postal Service", "operator:short": "USPS", "operator:type": "public", "operator:wikidata": "Q668687", "ref": "7622500001"}, "type": "Feature"}
{"geometry": {"coordinates": [-97.696113, 33.358852], "type": "Point"}, "id": "atNAJLRLm6yVYeZv3dxn2m2kJfc=", "properties": {"@source_uri": "https://tools.usps.com/UspsToolsRestServices/rest/POLocator/findLocations", "@spider": "usps_collection_boxes", "addr:city": "ALVORD", "addr:country": "US", "addr:postcode": "76225", "addr:state": "TX", "addr:street_address": "105 N ONEIL ST", "amenity": "post_box", "collection_times": "Mo-Fr 16:00; Sa 07:30", "indoor": "yes", "note": "ON 12/24 AND 12/31, THIS BOX MAY BE COLLECTED AS EARLY AS 12 NOON.", "nsi_id": "unitedstatespostalservice-a77078", "operator": "United States Postal Service", "operator:short": "USPS", "operator:type": "public", "operator:wikidata": "Q668687", "ref": "7622500002"}, "type": "Feature"}
{"geometry": {"coordinates": [-97.695728372, 33.359480034], "type": "Point"}, "id": "ZPGH-Qs9cG7Qf_1pSpWfveLvuUk=", "properties": {"@source_uri": "https://tools.usps.com/UspsToolsRestServices/rest/POLocator/findLocations", "@spider": "usps_collection_boxes", "addr:city": "ALVORD", "addr:country": "US", "addr:postcode": "76225", "addr:state": "TX", "addr:street_address": "105 N ONEIL ST", "amenity": "post_box", "collection_times": "Mo-Fr 16:00", "indoor": "yes", "note": "ON 12/24 AND 12/31, THIS BOX MAY BE COLLECTED AS EARLY AS 12 NOON.", "nsi_id": "unitedstatespostalservice-a77078", "operator": "United States Postal Service", "operator:short": "USPS", "operator:type": "public", "operator:wikidata": "Q668687", "ref": "7622500004"}, "type": "Feature"}
{"geometry": {"coordinates": [-97.185833382, 33.120424163], "type": "Point"}, "id": "iMToPZcpDqUAZOfOgxADL7_Y3D8=", "properties": {"@source_uri": "https://tools.usps.com/UspsToolsRestServices/rest/POLocator/findLocations", "@spider": "usps_collection_boxes", "addr:city": "BARTONVILLE", "addr:country": "US", "addr:postcode": "76226", "addr:state": "TX", "addr:street_address": "440 HIGHWAY 377 N", "amenity": "post_box", "collection_times": "Mo-Fr 16:30; Sa 08:00", "note": "ON 12/24 AND 12/31, THIS BOX MAY BE COLLECTED AS EARLY AS 12 NOON.", "nsi_id": "unitedstatespostalservice-a77078", "operator": "United States Postal Service", "operator:short": "USPS", "operator:type": "public", "operator:wikidata": "Q668687", "ref": "7622600002"}, "type": "Feature"}
{"geometry": {"coordinates": [-97.185907, 33.120316], "type": "Point"}, "id": "4GmqSg7M-F-EE2Y164euQ5ivl9I=", "properties": {"@source_uri": "https://tools.usps.com/UspsToolsRestServices/rest/POLocator/findLocations", "@spider": "usps_collection_boxes", "addr:city": "BARTONVILLE", "addr:country": "US", "addr:postcode": "76226", "addr:state": "TX", "addr:street_address": "440 HIGHWAY 377 N", "amenity": "post_box", "collection_times": "Mo-Fr 16:30; Sa 08:00", "indoor": "yes", "note": "ON 12/24 AND 12/31, THIS BOX MAY BE COLLECTED AS EARLY AS 12 NOON.", "nsi_id": "unitedstatespostalservice-a77078", "operator": "United States Postal Service", "operator:short": "USPS", "operator:type": "public", "operator:wikidata": "Q668687", "ref": "7622600003"}, "type": "Feature"}
{"geometry": {"coordinates": [-97.185907, 33.120316], "type": "Point"}, "id": "6_KXKyBD18cE70rYRCV1-n_oMKg=", "properties": {"@source_uri": "https://tools.usps.com/UspsToolsRestServices/rest/POLocator/findLocations", "@spider": "usps_collection_boxes", "addr:city": "BARTONVILLE", "addr:country": "US", "addr:postcode": "76226", "addr:state": "TX", "addr:street_address": "440 HIGHWAY 377 N", "amenity": "post_box", "collection_times": "Mo-Fr 16:30; Sa 08:00", "indoor": "yes", "note": "ON 12/24 AND 12/31, THIS BOX MAY BE COLLECTED AS EARLY AS 12 NOON.", "nsi_id": "unitedstatespostalservice-a77078", "operator": "United States Postal Service", "operator:short": "USPS", "operator:type": "public", "operator:wikidata": "Q668687", "ref": "7622600004"}, "type": "Feature"}
{"geometry": {"coordinates": [-97.1319740345, 33.0742980042], "type": "Point"}, "id": "ayOrVsksvcGQTC9Op1BeqXkmhi0=", "properties": {"@source_uri": "https://tools.usps.com/UspsToolsRestServices/rest/POLocator/findLocations", "@spider": "usps_collection_boxes", "addr:city": "BARTONVILLE", "addr:country": "US", "addr:postcode": "76226", "addr:state": "TX", "addr:street_address": "1941 E JETER RD", "amenity": "post_box", "collection_times": "Mo-Fr 12:00; Sa 11:00", "nsi_id": "unitedstatespostalservice-a77078", "operator": "United States Postal Service", "operator:short": "USPS", "operator:type": "public", "operator:wikidata": "Q668687", "ref": "7622600005"}, "type": "Feature"}
{"geometry": {"coordinates": [-97.185833382, 33.120424163], "type": "Point"}, "id": "zQmBwKoKuz5r60TsPDAU7Ya7K2Y=", "properties": {"@source_uri": "https://tools.usps.com/UspsToolsRestServices/rest/POLocator/findLocations", "@spider": "usps_collection_boxes", "addr:city": "BARTONVILLE", "addr:country": "US", "addr:postcode": "76226", "addr:state": "TX", "addr:street_address": "440 HIGHWAY 377 N", "amenity": "post_box", "collection_times": "Mo-Fr 16:30", "indoor": "yes", "note": "ON 12/24 AND 12/31, THIS BOX MAY BE COLLECTED AS EARLY AS 12 NOON.", "nsi_id": "unitedstatespostalservice-a77078", "operator": "United States Postal Service", "operator:short": "USPS", "operator:type": "public", "operator:wikidata": "Q668687", "ref": "7622600009"}, "type": "Feature"}
{"geometry": {"coordinates": [-96.986328, 33.289314], "type": "Point"}, "id": "eONPuMblGQAoWnOH2hk40JAvrVM=", "properties": {"@source_uri": "https://tools.usps.com/UspsToolsRestServices/rest/POLocator/findLocations", "@spider": "usps_collection_boxes", "addr:city": "AUBREY", "addr:country": "US", "addr:postcode": "76227", "addr:state": "TX", "addr:street_address": "120 STANLEY DR", "amenity": "post_box", "collection_times": "Mo-Fr 16:00; Sa 10:30", "indoor": "yes", "note": "ON 12/24 AND 12/31, THIS BOX MAY BE COLLECTED AS EARLY AS 12 NOON.", "nsi_id": "unitedstatespostalservice-a77078", "operator": "United States Postal Service", "operator:short": "USPS", "operator:type": "public", "operator:wikidata": "Q668687", "ref": "7622700002"}, "type": "Feature"}
{"geometry": {"coordinates": [-96.986265, 33.289286], "type": "Point"}, "id": "lIWG-beVCJGpB-1xH6kqnGq0_60=", "properties": {"@source_uri": "https://tools.usps.com/UspsToolsRestServices/rest/POLocator/findLocations", "@spider": "usps_collection_boxes", "addr:city": "AUBREY", "addr:country": "US", "addr:postcode": "76227", "addr:state": "TX", "addr:street_address": "120 STANLEY DR", "amenity": "post_box", "collection_times": "Mo-Fr 16:00; Sa 10:30", "note": "ON 12/24 AND 12/31, THIS BOX MAY BE COLLECTED AS EARLY AS 12 NOON.", "nsi_id": "unitedstatespostalservice-a77078", "operator": "United States Postal Service", "operator:short": "USPS", "operator:type": "public", "operator:wikidata": "Q668687", "ref": "7622700004"}, "type": "Feature"}
{"geometry": {"coordinates": [-96.9651299887, 33.2365229927], "type": "Point"}, "id": "_P68NE_MI7kRAEoVtJDaymI94Ig=", "properties": {"@source_uri": "https://tools.usps.com/UspsToolsRestServices/rest/POLocator/findLocations", "@spider": "usps_collection_boxes", "addr:city": "AUBREY", "addr:country": "US", "addr:postcode": "76227", "addr:state": "TX", "addr:street_address": "1755 FM 2931", "amenity": "post_box", "collection_times": "Mo-Fr 12:00; Sa 11:00", "nsi_id": "unitedstatespostalservice-a77078", "operator": "United States Postal Service", "operator:short": "USPS", "operator:type": "public", "operator:wikidata": "Q668687", "ref": "7622700005"}, "type": "Feature"}
{"geometry": {"coordinates": [-96.986265, 33.289286], "type": "Point"}, "id": "PM8AmlyvaScDOjzq4lpUr9LOXbc=", "properties": {"@source_uri": "https://tools.usps.com/UspsToolsRestServices/rest/POLocator/findLocations", "@spider": "usps_collection_boxes", "addr:city": "AUBREY", "addr:country": "US", "addr:postcode": "76227", "addr:state": "TX", "addr:street_address": "120 STANLEY DR", "amenity": "post_box", "collection_times": "Mo-Fr 16:00; Sa 10:30", "note": "ON 12/24 AND 12/31, THIS BOX MAY BE COLLECTED AS EARLY AS 12 NOON.", "nsi_id": "unitedstatespostalservice-a77078", "operator": "United States Postal Service", "operator:short": "USPS", "operator:type": "public", "operator:wikidata": "Q668687", "ref": "7622700006"}, "type": "Feature"}
{"geometry": {"coordinates": [-96.9863101, 33.289344893], "type": "Point"}, "id": "J_NQhm_C4v1FZSFDpjrJ6-NFprY=", "properties": {"@source_uri": "https://tools.usps.com/UspsToolsRestServices/rest/POLocator/findLocations", "@spider": "usps_collection_boxes", "addr:city": "AUBREY", "addr:country": "US", "addr:postcode": "76227", "addr:state": "TX", "addr:street_address": "120 STANLEY DR", "amenity": "post_box", "collection_times": "Mo-Fr 16:00", "indoor": "yes", "note": "ON 12/24 AND 12/31, THIS BOX MAY BE COLLECTED AS EARLY AS 12 NOON.", "nsi_id": "unitedstatespostalservice-a77078", "operator": "United States Postal Service", "operator:short": "USPS", "operator:type": "public", "operator:wikidata": "Q668687", "ref": "7622700009"}, "type": "Feature"}
{"geometry": {"coordinates": [-98.0146408, 33.635294], "type": "Point"}, "id": "8FMCFToorJWbfRD9fRJbBPT8RsE=", "properties": {"@source_uri": "https://tools.usps.com/UspsToolsRestServices/rest/POLocator/findLocations", "@spider": "usps_collection_boxes", "addr:city": "BELLEVUE", "addr:country": "US", "addr:postcode": "76228", "addr:state": "TX", "addr:street_address": "621 4TH ST", "amenity": "post_box", "collection_times": "Mo-Fr 15:45; Sa 10:45", "note": "ON 12/24 AND 12/31, THIS BOX MAY BE COLLECTED AS EARLY AS 12 NOON.", "nsi_id": "unitedstatespostalservice-a77078", "operator": "United States Postal Service", "operator:short": "USPS", "operator:type": "public", "operator:wikidata": "Q668687", "ref": "7622800001"}, "type": "Feature"}
{"geometry": {"coordinates": [-98.014769, 33.63533], "type": "Point"}, "id": "EWZyDvM7RthOZz4UQnnRjpFf_EU=", "properties": {"@source_uri": "https://tools.usps.com/UspsToolsRestServices/rest/POLocator/findLocations", "@spider": "usps_collection_boxes", "addr:city": "BELLEVUE", "addr:country": "US", "addr:postcode": "76228", "addr:state": "TX", "addr:street_address": "501 FRANKLIN ST", "amenity": "post_box", "collection_times": "Mo-Sa 10:45", "indoor": "yes", "nsi_id": "unitedstatespostalservice-a77078", "operator": "United States Postal Service", "operator:short": "USPS", "operator:type": "public", "operator:wikidata": "Q668687", "ref": "7622800002"}, "type": "Feature"}
{"geometry": {"coordinates": [-98.01478784, 33.63531166], "type": "Point"}, "id": "ztsS6Y3hAGXdUNUlFb0fVaDUeDA=", "properties": {"@source_uri": "https://tools.usps.com/UspsToolsRestServices/rest/POLocator/findLocations", "@spider": "usps_collection_boxes", "addr:city": "BELLEVUE", "addr:country": "US", "addr:postcode": "76228", "addr:state": "TX", "addr:street_address": "501 FRANKLIN ST", "amenity": "post_box", "collection_times": "Mo-Sa 13:00", "indoor": "yes", "note": "ON 12/24 AND 12/31, THIS BOX MAY BE COLLECTED AS EARLY AS 12 NOON.", "nsi_id": "unitedstatespostalservice-a77078", "operator": "United States Postal Service", "operator:short": "USPS", "operator:type": "public", "operator:wikidata": "Q668687", "ref": "7622800003"}, "type": "Feature"}
{"geometry": {"coordinates": [-97.8488099, 33.558417], "type": "Point"}, "id": "wxcgSHzuxVN1ht4sRvIDgiWUY_U=", "properties": {"@source_uri": "https://tools.usps.com/UspsToolsRestServices/rest/POLocator/findLocations", "@spider": "usps_collection_boxes", "addr:city": "BOWIE", "addr:country": "US", "addr:postcode": "76230", "addr:state": "TX", "addr:street_address": "113 N MASON ST", "amenity": "post_box", "collection_times": "Mo-Fr 16:30; Sa 15:00", "note": "ON 12/24 AND 12/31, THIS BOX MAY BE COLLECTED AS EARLY AS 12 NOON.", "nsi_id": "unitedstatespostalservice-a77078", "operator": "United States Postal Service", "operator:short": "USPS", "operator:type": "public", "operator:wikidata": "Q668687", "ref": "7623000008"}, "type": "Feature"}
{"geometry": {"coordinates": [-97.8486212, 33.558499], "type": "Point"}, "id": "vRP6PYKFFuGCPMmQ8Nvi9IsipPc=", "properties": {"@source_uri": "https://tools.usps.com/UspsToolsRestServices/rest/POLocator/findLocations", "@spider": "usps_collection_boxes", "addr:city": "BOWIE", "addr:country": "US", "addr:postcode": "76230", "addr:state": "TX", "addr:street_address": "113 N MASON ST", "amenity": "post_box", "collection_times": "Mo-Fr 16:30; Sa 15:00", "indoor": "yes", "note": "ON 12/24 AND 12/31, THIS BOX MAY BE COLLECTED AS EARLY AS 12 NOON.", "nsi_id": "unitedstatespostalservice-a77078", "operator": "United States Postal Service", "operator:short": "USPS", "operator:type": "public", "operator:wikidata": "Q668687", "ref": "7623000010"}, "type": "Feature"}
{"geometry": {"coordinates": [-97.8486204, 33.558521], "type": "Point"}, "id": "cSveeS8OoOp1lTuOFPxX2o3FxsM=", "properties": {"@source_uri": "https://tools.usps.com/UspsToolsRestServices/rest/POLocator/findLocations", "@spider": "usps_collection_boxes", "addr:city": "BOWIE", "addr:country": "US", "addr:postcode": "76230", "addr:state": "TX", "addr:street_address": "113 N MASON ST", "amenity": "post_box", "collection_times": "Mo-Fr 16:30; Sa 15:00", "indoor": "yes", "note": "ON 12/24 AND 12/31, THIS BOX MAY BE COLLECTED AS EARLY AS 12 NOON.", "nsi_id": "unitedstatespostalservice-a77078", "operator": "United States Postal Service", "operator:short": "USPS", "operator:type": "public", "operator:wikidata": "Q668687", "ref": "7623000011"}, "type": "Feature"}
{"geometry": {"coordinates": [-97.841802681, 33.565895669], "type": "Point"}, "id": "MYtdH7p_HduSGeEjXkeTfs1CUo0=", "properties": {"@source_uri": "https://tools.usps.com/UspsToolsRestServices/rest/POLocator/findLocations", "@spider": "usps_collection_boxes", "addr:city": "BOWIE", "addr:country": "US", "addr:postcode": "76230", "addr:state": "TX", "addr:street_address": "113 N MASON ST", "amenity": "post_box", "collection_times": "Mo-Fr 16:30", "indoor": "yes", "note": "ON 12/24 AND 12/31, THIS BOX MAY BE COLLECTED AS EARLY AS 12 NOON.", "nsi_id": "unitedstatespostalservice-a77078", "operator": "United States Postal Service", "operator:short": "USPS", "operator:type": "public", "operator:wikidata": "Q668687", "ref": "7623000014"}, "type": "Feature"}
{"geometry": {"coordinates": [-96.911188, 33.561191], "type": "Point"}, "id": "EkUAKi67gqmg5513EnEKJ5T0R2w=", "properties": {"@source_uri": "https://tools.usps.com/UspsToolsRestServices/rest/POLocator/findLocations", "@spider": "usps_collection_boxes", "addr:city": "COLLINSVILLE", "addr:country": "US", "addr:postcode": "76233", "addr:state": "TX", "addr:street_address": "200 N MAIN ST", "amenity": "post_box", "collection_times": "Mo-Fr 16:00; Sa 09:00", "indoor": "yes", "note": "ON 12/24 AND 12/31, THIS BOX MAY BE COLLECTED AS EARLY AS 12 NOON.", "nsi_id": "unitedstatespostalservice-a77078", "operator": "United States Postal Service", "operator:short": "USPS", "operator:type": "public", "operator:wikidata": "Q668687", "ref": "7623300001"}, "type": "Feature"}
{"geometry": {"coordinates": [-96.909385, 33.55969], "type": "Point"}, "id": "QUReu-uVprmaRyzTOXYbNkJfuJQ=", "properties": {"@source_uri": "https://tools.usps.com/UspsToolsRestServices/rest/POLocator/findLocations", "@spider": "usps_collection_boxes", "addr:city": "COLLINSVILLE", "addr:country": "US", "addr:postcode": "76233", "addr:state": "TX", "addr:street_address": "200 N MAIN ST", "amenity": "post_box", "collection_times": "Mo-Fr 16:00; Sa 09:00", "note": "ON 12/24 AND 12/31, THIS BOX MAY BE COLLECTED AS EARLY AS 12 NOON.", "nsi_id": "unitedstatespostalservice-a77078", "operator": "United States Postal Service", "operator:short": "USPS", "operator:type": "public", "operator:wikidata": "Q668687", "ref": "7623300002"}, "type": "Feature"}
{"geometry": {"coordinates": [-96.911203818, 33.561414649], "type": "Point"}, "id": "9EQWLEpn_D6tav_vvJaXkxaA1dQ=", "properties": {"@source_uri": "https://tools.usps.com/UspsToolsRestServices/rest/POLocator/findLocations", "@spider": "usps_collection_boxes", "addr:city": "COLLINSVILLE", "addr:country": "US", "addr:postcode": "76233", "addr:state": "TX", "addr:street_address": "200 N MAIN ST", "amenity": "post_box", "collection_times": "Mo-Fr 16:00", "indoor": "yes", "note": "ON 12/24 AND 12/31, THIS BOX MAY BE COLLECTED AS EARLY AS 12 NOON.", "nsi_id": "unitedstatespostalservice-a77078", "operator": "United States Postal Service", "operator:short": "USPS", "operator:type": "public", "operator:wikidata": "Q668687", "ref": "7623300003"}, "type": "Feature"}
{"geometry": {"coordinates": [-97.5848951, 33.234521], "type": "Point"}, "id": "i6sdIAYdrCE2sq5R_Wg08qnzmTk=", "properties": {"@source_uri": "https://tools.usps.com/UspsToolsRestServices/rest/POLocator/findLocations", "@spider": "usps_collection_boxes", "addr:city": "DECATUR", "addr:country": "US", "addr:postcode": "76234", "addr:state": "TX", "addr:street_address": "206 E WALNUT ST", "amenity": "post_box", "collection_times": "Mo-Fr 16:30; Sa 11:30", "indoor": "yes", "note": "ON 12/24 AND 12/31, THIS BOX MAY BE COLLECTED AS EARLY AS 12 NOON.", "nsi_id": "unitedstatespostalservice-a77078", "operator": "United States Postal Service", "operator:short": "USPS", "operator:type": "public", "operator:wikidata": "Q668687", "ref": "7623400002"}, "type": "Feature"}
{"geometry": {"coordinates": [-97.5849166, 33.234471], "type": "Point"}, "id": "weSOVhGz6gzedArNnVVcl6nLbys=", "properties": {"@source_uri": "https://tools.usps.com/UspsToolsRestServices/rest/POLocator/findLocations", "@spider": "usps_collection_boxes", "addr:city": "DECATUR", "addr:country": "US", "addr:postcode": "76234", "addr:state": "TX", "addr:street_address": "206 E WALNUT ST", "amenity": "post_box", "collection_times": "Mo-Fr 16:30; Sa 11:30", "indoor": "yes", "note": "ON 12/24 AND 12/31, THIS BOX MAY BE COLLECTED AS EARLY AS 12 NOON.", "nsi_id": "unitedstatespostalservice-a77078", "operator": "United States Postal Service", "operator:short": "USPS", "operator:type": "public", "operator:wikidata": "Q668687", "ref": "7623400006"}, "type": "Feature"}
{"geometry": {"coordinates": [-97.4738550174, 33.3801790063], "type": "Point"}, "id": "i33jOcWmDW3bdi04QDGkA209S0U=", "properties": {"@source_uri": "https://tools.usps.com/UspsToolsRestServices/rest/POLocator/findLocations", "@spider": "usps_collection_boxes", "addr:city": "DECATUR", "addr:country": "US", "addr:postcode": "76234", "addr:state": "TX", "addr:street_address": "137 COUNTY ROAD 2640", "amenity": "post_box", "collection_times": "Mo-Sa 09:45", "nsi_id": "unitedstatespostalservice-a77078", "operator": "United States Postal Service", "operator:short": "USPS", "operator:type": "public", "operator:wikidata": "Q668687", "ref": "7623400008"}, "type": "Feature"}
{"geometry": {"coordinates": [-97.585372485, 33.234671511], "type": "Point"}, "id": "SUkYzyqDOpu91VUOTdnaepFDl28=", "properties": {"@source_uri": "https://tools.usps.com/UspsToolsRestServices/rest/POLocator/findLocations", "@spider": "usps_collection_boxes", "addr:city": "DECATUR", "addr:country": "US", "addr:postcode": "76234", "addr:state": "TX", "addr:street_address": "206 E WALNUT ST", "amenity": "post_box", "collection_times": "Mo-Fr 16:30", "indoor": "yes", "note": "ON 12/24 AND 12/31, THIS BOX MAY BE COLLECTED AS EARLY AS 12 NOON.", "nsi_id": "unitedstatespostalservice-a77078", "operator": "United States Postal Service", "operator:short": "USPS", "operator:type": "public", "operator:wikidata": "Q668687", "ref": "7623400010"}, "type": "Feature"}
{"geometry": {"coordinates": [-97.5647356, 33.2326632], "type": "Point"}, "id": "qp4tlowKlmvX4Y50QvXz3HGpr7I=", "properties": {"@source_uri": "https://tools.usps.com/UspsToolsRestServices/rest/POLocator/findLocations", "@spider": "usps_collection_boxes", "addr:city": "DECATUR", "addr:country": "US", "addr:postcode": "76234", "addr:state": "TX", "addr:street_address": "206 E WALNUT ST", "amenity": "post_box", "collection_times": "Mo-Fr 16:30; Sa 11:30", "note": "ON 12/24 AND 12/31, THIS BOX MAY BE COLLECTED AS EARLY AS 12 NOON.", "nsi_id": "unitedstatespostalservice-a77078", "operator": "United States Postal Service", "operator:short": "USPS", "operator:type": "public", "operator:wikidata": "Q668687", "ref": "7623400011"}, "type": "Feature"}
{"geometry": {"coordinates": [-97.294995, 33.496189], "type": "Point"}, "id": "PHetn6rnE0d4AUuEzShNusPQE6E=", "properties": {"@source_uri": "https://tools.usps.com/UspsToolsRestServices/rest/POLocator/findLocations", "@spider": "usps_collection_boxes", "addr:city": "ERA", "addr:country": "US", "addr:postcode": "76238", "addr:state": "TX", "addr:street_address": "7210 W FM 922", "amenity": "post_box", "collection_times": "Mo-Sa 11:30", "nsi_id": "unitedstatespostalservice-a77078", "operator": "United States Postal Service", "operator:short": "USPS", "operator:type": "public", "operator:wikidata": "Q668687", "ref": "7623800001"}, "type": "Feature"}
{"geometry": {"coordinates": [-97.295026, 33.496217], "type": "Point"}, "id": "E7vCND7Rz3T3oZT77ClZ4v4uySc=", "properties": {"@source_uri": "https://tools.usps.com/UspsToolsRestServices/rest/POLocator/findLocations", "@spider": "usps_collection_boxes", "addr:city": "ERA", "addr:country": "US", "addr:postcode": "76238", "addr:state": "TX", "addr:street_address": "7210 W FM 922", "amenity": "post_box", "collection_times": "Mo-Sa 11:30", "indoor": "yes", "nsi_id": "unitedstatespostalservice-a77078", "operator": "United States Postal Service", "operator:short": "USPS", "operator:type": "public", "operator:wikidata": "Q668687", "ref": "7623800003"}, "type": "Feature"}
{"geometry": {"coordinates": [-97.295201528, 33.496192481], "type": "Point"}, "id": "jSnDIybCsV8fejEgFPvrl_cWzvs=", "properties": {"@source_uri": "https://tools.usps.com/UspsToolsRestServices/rest/POLocator/findLocations", "@spider": "usps_collection_boxes", "addr:city": "ERA", "addr:country": "US", "addr:postcode": "76238", "addr:state": "TX", "addr:street_address": "7210 W FM 922", "amenity": "post_box", "collection_times": "Mo-Sa 11:30", "indoor": "yes", "nsi_id": "unitedstatespostalservice-a77078", "operator": "United States Postal Service", "operator:short": "USPS", "operator:type": "public", "operator:wikidata": "Q668687", "ref": "7623800004"}, "type": "Feature"}
{"geometry": {"coordinates": [-97.556974, 33.528808], "type": "Point"}, "id": "SXKHCSmcBHH6F7m-G7JcS5_OVPE=", "properties": {"@source_uri": "https://tools.usps.com/UspsToolsRestServices/rest/POLocator/findLocations", "@spider": "usps_collection_boxes", "addr:city": "FORESTBURG", "addr:country": "US", "addr:postcode": "76239", "addr:state": "TX", "addr:street_address": "16928 FM 455", "amenity": "post_box", "collection_times": "Mo-Fr 15:00; Sa 12:00", "note": "ON 12/24 AND 12/31, THIS BOX MAY BE COLLECTED AS EARLY AS 12 NOON.", "nsi_id": "unitedstatespostalservice-a77078", "operator": "United States Postal Service", "operator:short": "USPS", "operator:type": "public", "operator:wikidata": "Q668687", "ref": "7623900001"}, "type": "Feature"}
{"geometry": {"coordinates": [-97.556948, 33.528737], "type": "Point"}, "id": "PtcrYT3EtGHJ4xPLcJNvLtea2zA=", "properties": {"@source_uri": "https://tools.usps.com/UspsToolsRestServices/rest/POLocator/findLocations", "@spider": "usps_collection_boxes", "addr:city": "FORESTBURG", "addr:country": "US", "addr:postcode": "76239", "addr:state": "TX", "addr:street_address": "16928 FM 455", "amenity": "post_box", "collection_times": "Mo-Fr 15:00; Sa 12:00", "indoor": "yes", "note": "ON 12/24 AND 12/31, THIS BOX MAY BE COLLECTED AS EARLY AS 12 NOON.", "nsi_id": "unitedstatespostalservice-a77078", "operator": "United States Postal Service", "operator:short": "USPS", "operator:type": "public", "operator:wikidata": "Q668687", "ref": "7623900002"}, "type": "Feature"}
{"geometry": {"coordinates": [-97.556962246, 33.530238606], "type": "Point"}, "id": "b1ewSzkIO89mSypWJfiSf09spKY=", "properties": {"@source_uri": "https://tools.usps.com/UspsToolsRestServices/rest/POLocator/findLocations", "@spider": "usps_collection_boxes", "addr:city": "FORESTBURG", "addr:country": "US", "addr:postcode": "76239", "addr:state": "TX", "addr:street_address": "16928 FM 455", "amenity": "post_box", "collection_times": "Mo-Fr 15:00; Sa 12:00", "indoor": "yes", "note": "ON 12/24 AND 12/31, THIS BOX MAY BE COLLECTED AS EARLY AS 12 NOON.", "nsi_id": "unitedstatespostalservice-a77078", "operator": "United States Postal Service", "operator:short": "USPS", "operator:type": "public", "operator:wikidata": "Q668687", "ref": "7623900003"}, "type": "Feature"}
{"geometry": {"coordinates": [-97.146129, 33.624202], "type": "Point"}, "id": "9VElqsD3aR20lw-ygCADddEZ2yE=", "properties": {"@source_uri": "https://tools.usps.com/UspsToolsRestServices/rest/POLocator/findLocations", "@spider": "usps_collection_boxes", "addr:city": "GAINESVILLE", "addr:country": "US", "addr:postcode": "76240", "addr:state": "TX", "addr:street_address": "100 S COMMERCE ST", "amenity": "post_box", "collection_times": "Mo-Fr 15:00", "note": "ON 12/24 AND 12/31, THIS BOX MAY BE COLLECTED AS EARLY AS 12 NOON.", "nsi_id": "unitedstatespostalservice-a77078", "operator": "United States Postal Service", "operator:short": "USPS", "operator:type": "public", "operator:wikidata": "Q668687", "ref": "7624000002"}, "type": "Feature"}
{"geometry": {"coordinates": [-97.1351404, 33.640732], "type": "Point"}, "id": "_-SV1o_Yt-YUnFUrzJaKDokI79M=", "properties": {"@source_uri": "https://tools.usps.com/UspsToolsRestServices/rest/POLocator/findLocations", "@spider": "usps_collection_boxes", "addr:city": "GAINESVILLE", "addr:country": "US", "addr:postcode": "76240", "addr:state": "TX", "addr:street_address": "1012 E HIGHWAY 82", "amenity": "post_box", "collection_times": "Mo-Sa 11:30", "nsi_id": "unitedstatespostalservice-a77078", "operator": "United States Postal Service", "operator:short": "USPS", "operator:type": "public", "operator:wikidata": "Q668687", "ref": "7624000008"}, "type": "Feature"}
{"geometry": {"coordinates": [-97.020487011, 33.5570429887], "type": "Point"}, "id": "Ny2DLDdWZVM255F3HIcZdURzkyY=", "properties": {"@source_uri": "https://tools.usps.com/UspsToolsRestServices/rest/POLocator/findLocations", "@spider": "usps_collection_boxes", "addr:city": "GAINESVILLE", "addr:country": "US", "addr:postcode": "76240", "addr:state": "TX", "addr:street_address": "100 KIOWA DR W", "amenity": "post_box", "collection_times": "Mo-Sa 11:00", "nsi_id": "unitedstatespostalservice-a77078", "operator": "United States Postal Service", "operator:short": "USPS", "operator:type": "public", "operator:wikidata": "Q668687", "ref": "7624000014"}, "type": "Feature"}
{"geometry": {"coordinates": [-97.1460920001, 33.6242320206], "type": "Point"}, "id": "GXXKK73-bWHfNvMV9W5SsJuxDsM=", "properties": {"@source_uri": "https://tools.usps.com/UspsToolsRestServices/rest/POLocator/findLocations", "@spider": "usps_collection_boxes", "addr:city": "GAINESVILLE", "addr:country": "US", "addr:postcode": "76240", "addr:state": "TX", "addr:street_address": "100 S COMMERCE ST", "amenity": "post_box", "collection_times": "Mo-Fr 15:00", "note": "ON 12/24 AND 12/31, THIS BOX MAY BE COLLECTED AS EARLY AS 12 NOON.", "nsi_id": "unitedstatespostalservice-a77078", "operator": "United States Postal Service", "operator:short": "USPS", "operator:type": "public", "operator:wikidata": "Q668687", "ref": "7624000017"}, "type": "Feature"}
{"geometry": {"coordinates": [-97.143395, 33.624274], "type": "Point"}, "id": "6r0ItOz86QlE7oUn4pMyO2xiDLg=", "properties": {"@source_uri": "https://tools.usps.com/UspsToolsRestServices/rest/POLocator/findLocations", "@spider": "usps_collection_boxes", "addr:city": "GAINESVILLE", "addr:country": "US", "addr:postcode": "76240", "addr:state": "TX", "addr:street_address": "321 E CALIFORNIA ST", "amenity": "post_box", "collection_times": "Mo-Fr 16:30; Sa 15:00", "note": "ON 12/24 AND 12/31, THIS BOX MAY BE COLLECTED AS EARLY AS 12 NOON.", "nsi_id": "unitedstatespostalservice-a77078", "operator": "United States Postal Service", "operator:short": "USPS", "operator:type": "public", "operator:wikidata": "Q668687", "ref": "7624000018"}, "type": "Feature"}
{"geometry": {"coordinates": [-97.143395, 33.624274], "type": "Point"}, "id": "-KgiCOq4CToGozCjjv_DnyGSefE=", "properties": {"@source_uri": "https://tools.usps.com/UspsToolsRestServices/rest/POLocator/findLocations", "@spider": "usps_collection_boxes", "addr:city": "GAINESVILLE", "addr:country": "US", "addr:postcode": "76240", "addr:state": "TX", "addr:street_address": "321 E CALIFORNIA ST", "amenity": "post_box", "collection_times": "Mo-Fr 16:30; Sa 15:00", "note": "ON 12/24 AND 12/31, THIS BOX MAY BE COLLECTED AS EARLY AS 12 NOON.", "nsi_id": "unitedstatespostalservice-a77078", "operator": "United States Postal Service", "operator:short": "USPS", "operator:type": "public", "operator:wikidata": "Q668687", "ref": "7624000019"}, "type": "Feature"}
{"geometry": {"coordinates": [-97.143395, 33.624274], "type": "Point"}, "id": "VjbnycHB_TCV2F6__S-p_EdWPrs=", "properties": {"@source_uri": "https://tools.usps.com/UspsToolsRestServices/rest/POLocator/findLocations", "@spider": "usps_collection_boxes", "addr:city": "GAINESVILLE", "addr:country": "US", "addr:postcode": "76240", "addr:state": "TX", "addr:street_address": "321 E CALIFORNIA ST", "amenity": "post_box", "collection_times": "Mo-Fr 16:30; Sa 15:00", "indoor": "yes", "note": "ON 12/24 AND 12/31, THIS BOX MAY BE COLLECTED AS EARLY AS 12 NOON.", "nsi_id": "unitedstatespostalservice-a77078", "operator": "United States Postal Service", "operator:short": "USPS", "operator:type": "public", "operator:wikidata": "Q668687", "ref": "7624000021"}, "type": "Feature"}
{"geometry": {"coordinates": [-97.1379316, 33.624881], "type": "Point"}, "id": "yap8xZKIXa5zrLoD8suDG079SQo=", "properties": {"@source_uri": "https://tools.usps.com/UspsToolsRestServices/rest/POLocator/findLocations", "@spider": "usps_collection_boxes", "addr:city": "GAINESVILLE", "addr:country": "US", "addr:postcode": "76240", "addr:state": "TX", "addr:street_address": "801 E CALIFORNIA ST", "amenity": "post_box", "collection_times": "Mo-Sa 14:30", "note": "ON 12/24 AND 12/31, THIS BOX MAY BE COLLECTED AS EARLY AS 12 NOON.", "nsi_id": "unitedstatespostalservice-a77078", "operator": "United States Postal Service", "operator:short": "USPS", "operator:type": "public", "operator:wikidata": "Q668687", "ref": "7624000023"}, "type": "Feature"}
{"geometry": {"coordinates": [-97.0408410379, 33.6496550141], "type": "Point"}, "id": "h8VHL3wcMNxFGomooSd1fvJON70=", "properties": {"@source_uri": "https://tools.usps.com/UspsToolsRestServices/rest/POLocator/findLocations", "@spider": "usps_collection_boxes", "addr:city": "GAINESVILLE", "addr:country": "US", "addr:postcode": "76240", "addr:state": "TX", "addr:street_address": "7520 E US HIGHWAY 82", "amenity": "post_box", "collection_times": "Mo-Sa 09:30", "nsi_id": "unitedstatespostalservice-a77078", "operator": "United States Postal Service", "operator:short": "USPS", "operator:type": "public", "operator:wikidata": "Q668687", "ref": "7624000024"}, "type": "Feature"}
{"geometry": {"coordinates": [-97.142652, 33.624289464], "type": "Point"}, "id": "M16S0wkTLtuIOsfgVvFqOnKbMZw=", "properties": {"@source_uri": "https://tools.usps.com/UspsToolsRestServices/rest/POLocator/findLocations", "@spider": "usps_collection_boxes", "addr:city": "GAINESVILLE", "addr:country": "US", "addr:postcode": "76240", "addr:state": "TX", "addr:street_address": "321 E CALIFORNIA ST", "amenity": "post_box", "collection_times": "Mo-Fr 16:30", "indoor": "yes", "note": "ON 12/24 AND 12/31, THIS BOX MAY BE COLLECTED AS EARLY AS 12 NOON.", "nsi_id": "unitedstatespostalservice-a77078", "operator": "United States Postal Service", "operator:short": "USPS", "operator:type": "public", "operator:wikidata": "Q668687", "ref": "7624000026"}, "type": "Feature"}
{"geometry": {"coordinates": [-97.2945100336, 32.9144469802], "type": "Point"}, "id": "X8TkmL6lhlev9BYTbkDV4hC4dto=", "properties": {"@source_uri": "https://tools.usps.com/UspsToolsRestServices/rest/POLocator/findLocations", "@spider": "usps_collection_boxes", "addr:city": "KELLER", "addr:country": "US", "addr:postcode": "76244", "addr:state": "TX", "addr:street_address": "4312 HERITAGE TRACE PKWY STE 700", "amenity": "post_box", "collection_times": "Mo-Fr 12:00; Sa 11:00", "nsi_id": "unitedstatespostalservice-a77078", "operator": "United States Postal Service", "operator:short": "USPS", "operator:type": "public", "operator:wikidata": "Q668687", "ref": "7624400006"}, "type": "Feature"}
{"geometry": {"coordinates": [-97.276445, 32.902785], "type": "Point"}, "id": "8B4XK5WKgp_Txw-HTtroEaQG8HU=", "properties": {"@source_uri": "https://tools.usps.com/UspsToolsRestServices/rest/POLocator/findLocations", "@spider": "usps_collection_boxes", "addr:city": "KELLER", "addr:country": "US", "addr:postcode": "76244", "addr:state": "TX", "addr:street_address": "12477 TIMBERLAND BLVD", "amenity": "post_box", "collection_times": "Mo-Sa 10:45", "nsi_id": "unitedstatespostalservice-a77078", "operator": "United States Postal Service", "operator:short": "USPS", "operator:type": "public", "operator:wikidata": "Q668687", "ref": "7624400008"}, "type": "Feature"}
{"geometry": {"coordinates": [-96.853478, 33.795916], "type": "Point"}, "id": "yPNxNIZ63gQ0p8gR34IPvDkD3tw=", "properties": {"@source_uri": "https://tools.usps.com/UspsToolsRestServices/rest/POLocator/findLocations", "@spider": "usps_collection_boxes", "addr:city": "GORDONVILLE", "addr:country": "US", "addr:postcode": "76245", "addr:state": "TX", "addr:street_address": "17371 FM 901", "amenity": "post_box", "collection_times": "Mo-Fr 15:30; Sa 10:00", "note": "ON 12/24 AND 12/31, THIS BOX MAY BE COLLECTED AS EARLY AS 12 NOON.", "nsi_id": "unitedstatespostalservice-a77078", "operator": "United States Postal Service", "operator:short": "USPS", "operator:type": "public", "operator:wikidata": "Q668687", "ref": "7624500001"}, "type": "Feature"}
{"geometry": {"coordinates": [-96.853367, 33.795933], "type": "Point"}, "id": "CZs1-A1KHzjpBarNyB3AyKj3JAQ=", "properties": {"@source_uri": "https://tools.usps.com/UspsToolsRestServices/rest/POLocator/findLocations", "@spider": "usps_collection_boxes", "addr:city": "GORDONVILLE", "addr:country": "US", "addr:postcode": "76245", "addr:state": "TX", "addr:street_address": "17371 FM 901", "amenity": "post_box", "collection_times": "Mo-Fr 15:30; Sa 10:00", "indoor": "yes", "note": "ON 12/24 AND 12/31, THIS BOX MAY BE COLLECTED AS EARLY AS 12 NOON.", "nsi_id": "unitedstatespostalservice-a77078", "operator": "United States Postal Service", "operator:short": "USPS", "operator:type": "public", "operator:wikidata": "Q668687", "ref": "7624500003"}, "type": "Feature"}
{"geometry": {"coordinates": [-96.8314350289, 33.8516789972], "type": "Point"}, "id": "e0quhZGdhbyzA4zg8EIYGBypi5o=", "properties": {"@source_uri": "https://tools.usps.com/UspsToolsRestServices/rest/POLocator/findLocations", "@spider": "usps_collection_boxes", "addr:city": "GORDONVILLE", "addr:country": "US", "addr:postcode": "76245", "addr:state": "TX", "addr:street_address": "32210 US HIGHWAY 377", "amenity": "post_box", "collection_times": "Mo-Sa 09:45", "nsi_id": "unitedstatespostalservice-a77078", "operator": "United States Postal Service", "operator:short": "USPS", "operator:type": "public", "operator:wikidata": "Q668687", "ref": "7624500004"}, "type": "Feature"}
{"geometry": {"coordinates": [-96.853645624, 33.795921594], "type": "Point"}, "id": "WpJN7lhGED7rLgsLlB9emLNGEeQ=", "properties": {"@source_uri": "https://tools.usps.com/UspsToolsRestServices/rest/POLocator/findLocations", "@spider": "usps_collection_boxes", "addr:city": "GORDONVILLE", "addr:country": "US", "addr:postcode": "76245", "addr:state": "TX", "addr:street_address": "17371 FM 901", "amenity": "post_box", "collection_times": "Mo-Fr 16:00", "indoor": "yes", "note": "ON 12/24 AND 12/31, THIS BOX MAY BE COLLECTED AS EARLY AS 12 NOON.", "nsi_id": "unitedstatespostalservice-a77078", "operator": "United States Postal Service", "operator:short": "USPS", "operator:type": "public", "operator:wikidata": "Q668687", "ref": "7624500005"}, "type": "Feature"}
{"geometry": {"coordinates": [-97.295848, 33.088498], "type": "Point"}, "id": "_gaVJ2Tle2enOsY2j082iWw20fA=", "properties": {"@source_uri": "https://tools.usps.com/UspsToolsRestServices/rest/POLocator/findLocations", "@spider": "usps_collection_boxes", "addr:city": "JUSTIN", "addr:country": "US", "addr:postcode": "76247", "addr:state": "TX", "addr:street_address": "120 W 5TH ST", "amenity": "post_box", "collection_times": "Mo-Fr 16:15; Sa 10:00", "indoor": "yes", "note": "ON 12/24 AND 12/31, THIS BOX MAY BE COLLECTED AS EARLY AS 12 NOON.", "nsi_id": "unitedstatespostalservice-a77078", "operator": "United States Postal Service", "operator:short": "USPS", "operator:type": "public", "operator:wikidata": "Q668687", "ref": "7624700001"}, "type": "Feature"}
{"geometry": {"coordinates": [-97.295788, 33.088466], "type": "Point"}, "id": "To6dKiTXXZ5gNjNwl4l07Dkzs-w=", "properties": {"@source_uri": "https://tools.usps.com/UspsToolsRestServices/rest/POLocator/findLocations", "@spider": "usps_collection_boxes", "addr:city": "JUSTIN", "addr:country": "US", "addr:postcode": "76247", "addr:state": "TX", "addr:street_address": "120 W 5TH ST", "amenity": "post_box", "collection_times": "Mo-Fr 16:15; Sa 10:00", "indoor": "yes", "note": "ON 12/24 AND 12/31, THIS BOX MAY BE COLLECTED AS EARLY AS 12 NOON.", "nsi_id": "unitedstatespostalservice-a77078", "operator": "United States Postal Service", "operator:short": "USPS", "operator:type": "public", "operator:wikidata": "Q668687", "ref": "7624700002"}, "type": "Feature"}
{"geometry": {"coordinates": [-97.295788, 33.088466], "type": "Point"}, "id": "f1y4QZbOuLzQs_YglWKuo2wNqlQ=", "properties": {"@source_uri": "https://tools.usps.com/UspsToolsRestServices/rest/POLocator/findLocations", "@spider": "usps_collection_boxes", "addr:city": "JUSTIN", "addr:country": "US", "addr:postcode": "76247", "addr:state": "TX", "addr:street_address": "120 W 5TH ST", "amenity": "post_box", "collection_times": "Mo-Fr 16:15; Sa 10:00", "note": "ON 12/24 AND 12/31, THIS BOX MAY BE COLLECTED AS EARLY AS 12 NOON.", "nsi_id": "unitedstatespostalservice-a77078", "operator": "United States Postal Service", "operator:short": "USPS", "operator:type": "public", "operator:wikidata": "Q668687", "ref": "7624700003"}, "type": "Feature"}
{"geometry": {"coordinates": [-97.296539967, 33.088555402], "type": "Point"}, "id": "SHuOhzcQwox1vw5tjEmzXfhukP0=", "properties": {"@source_uri": "https://tools.usps.com/UspsToolsRestServices/rest/POLocator/findLocations", "@spider": "usps_collection_boxes", "addr:city": "JUSTIN", "addr:country": "US", "addr:postcode": "76247", "addr:state": "TX", "addr:street_address": "120 W 5TH ST", "amenity": "post_box", "collection_times": "Mo-Fr 16:30", "indoor": "yes", "note": "ON 12/24 AND 12/31, THIS BOX MAY BE COLLECTED AS EARLY AS 12 NOON.", "nsi_id": "unitedstatespostalservice-a77078", "operator": "United States Postal Service", "operator:short": "USPS", "operator:type": "public", "operator:wikidata": "Q668687", "ref": "7624700004"}, "type": "Feature"}
{"geometry": {"coordinates": [-97.2335839, 32.935345], "type": "Point"}, "id": "la_gvLDldCJZR__LdMzJlSQZk5w=", "properties": {"@source_uri": "https://tools.usps.com/UspsToolsRestServices/rest/POLocator/findLocations", "@spider": "usps_collection_boxes", "addr:city": "KELLER", "addr:country": "US", "addr:postcode": "76248", "addr:state": "TX", "addr:street_address": "891 KELLER PKWY", "amenity": "post_box", "collection_times": "Mo-Sa 11:00", "nsi_id": "unitedstatespostalservice-a77078", "operator": "United States Postal Service", "operator:short": "USPS", "operator:type": "public", "operator:wikidata": "Q668687", "ref": "7624800002"}, "type": "Feature"}
{"geometry": {"coordinates": [-97.243468, 32.931705], "type": "Point"}, "id": "SBOsNUdFsmHxJs6k0vOqefAcuW4=", "properties": {"@source_uri": "https://tools.usps.com/UspsToolsRestServices/rest/POLocator/findLocations", "@spider": "usps_collection_boxes", "addr:city": "KELLER", "addr:country": "US", "addr:postcode": "76248", "addr:state": "TX", "addr:street_address": "520 E VINE ST", "amenity": "post_box", "collection_times": "Mo-Fr 18:00; Sa 14:45", "indoor": "yes", "note": "ON 12/24 AND 12/31, THIS BOX MAY BE COLLECTED AS EARLY AS 12 NOON.", "nsi_id": "unitedstatespostalservice-a77078", "operator": "United States Postal Service", "operator:short": "USPS", "operator:type": "public", "operator:wikidata": "Q668687", "ref": "7624800004"}, "type": "Feature"}
{"geometry": {"coordinates": [-97.2389927, 32.893524], "type": "Point"}, "id": "GIzW6TiKo1qGjaYS_YYixV3WJ_U=", "properties": {"@source_uri": "https://tools.usps.com/UspsToolsRestServices/rest/POLocator/findLocations", "@spider": "usps_collection_boxes", "addr:city": "KELLER", "addr:country": "US", "addr:postcode": "76248", "addr:state": "TX", "addr:street_address": "2130 RUFE SNOW DR", "amenity": "post_box", "collection_times": "Mo-Sa 11:00", "nsi_id": "unitedstatespostalservice-a77078", "operator": "United States Postal Service", "operator:short": "USPS", "operator:type": "public", "operator:wikidata": "Q668687", "ref": "7624800007"}, "type": "Feature"}
{"geometry": {"coordinates": [-97.2529694, 32.926569], "type": "Point"}, "id": "XPn78kaxLRn-j8cxYG538X7G5Wc=", "properties": {"@source_uri": "https://tools.usps.com/UspsToolsRestServices/rest/POLocator/findLocations", "@spider": "usps_collection_boxes", "addr:city": "KELLER", "addr:country": "US", "addr:postcode": "76248", "addr:state": "TX", "addr:street_address": "125 BEAR CREEK PKWY", "amenity": "post_box", "collection_times": "Mo-Fr 11:30; Sa 11:00", "nsi_id": "unitedstatespostalservice-a77078", "operator": "United States Postal Service", "operator:short": "USPS", "operator:type": "public", "operator:wikidata": "Q668687", "ref": "7624800008"}, "type": "Feature"}
{"geometry": {"coordinates": [-97.243468, 32.931731], "type": "Point"}, "id": "ECtBxeeNbd0vebfHaHYzcoK47QU=", "properties": {"@source_uri": "https://tools.usps.com/UspsToolsRestServices/rest/POLocator/findLocations", "@spider": "usps_collection_boxes", "addr:city": "KELLER", "addr:country": "US", "addr:postcode": "76248", "addr:state": "TX", "addr:street_address": "520 E VINE ST", "amenity": "post_box", "collection_times": "Mo-Fr 18:00; Sa 14:45", "name": "USPS COLLECTION BOX - APC", "note": "ON 12/24 AND 12/31, THIS BOX MAY BE COLLECTED AS EARLY AS 12 NOON.", "nsi_id": "unitedstatespostalservice-a77078", "operator": "United States Postal Service", "operator:short": "USPS", "operator:type": "public", "operator:wikidata": "Q668687", "ref": "7624800009"}, "type": "Feature"}
{"geometry": {"coordinates": [-97.2279306, 32.929614], "type": "Point"}, "id": "zEcDjq8UzkYulVIGPjD5Uq3KZe4=", "properties": {"@source_uri": "https://tools.usps.com/UspsToolsRestServices/rest/POLocator/findLocations", "@spider": "usps_collection_boxes", "addr:city": "KELLER", "addr:country": "US", "addr:postcode": "76248", "addr:state": "TX", "addr:street_address": "1100 BEAR CREEK PKWY", "amenity": "post_box", "collection_times": "Mo-Fr 11:00; Sa 10:30", "nsi_id": "unitedstatespostalservice-a77078", "operator": "United States Postal Service", "operator:short": "USPS", "operator:type": "public", "operator:wikidata": "Q668687", "ref": "7624800010"}, "type": "Feature"}
{"geometry": {"coordinates": [-97.2168242, 32.932921], "type": "Point"}, "id": "QCM3TkwqnkEBpoIIqUJJS7gyPWs=", "properties": {"@source_uri": "https://tools.usps.com/UspsToolsRestServices/rest/POLocator/findLocations", "@spider": "usps_collection_boxes", "addr:city": "KELLER", "addr:country": "US", "addr:postcode": "76248", "addr:state": "TX", "addr:street_address": "1540 KELLER PKWY STE 100", "amenity": "post_box", "collection_times": "Mo-Sa 11:00", "nsi_id": "unitedstatespostalservice-a77078", "operator": "United States Postal Service", "operator:short": "USPS", "operator:type": "public", "operator:wikidata": "Q668687", "ref": "7624800013"}, "type": "Feature"}
{"geometry": {"coordinates": [-97.24347225, 32.931660879], "type": "Point"}, "id": "3vwrhLEadqlE5o2dwkYt4QLBpYg=", "properties": {"@source_uri": "https://tools.usps.com/UspsToolsRestServices/rest/POLocator/findLocations", "@spider": "usps_collection_boxes", "addr:city": "KELLER", "addr:country": "US", "addr:postcode": "76248", "addr:state": "TX", "addr:street_address": "520 E VINE ST", "amenity": "post_box", "collection_times": "Mo-Fr 18:30; Sa 12:00", "indoor": "yes", "note": "ON 12/24 AND 12/31, THIS BOX MAY BE COLLECTED AS EARLY AS 12 NOON.", "nsi_id": "unitedstatespostalservice-a77078", "operator": "United States Postal Service", "operator:short": "USPS", "operator:type": "public", "operator:wikidata": "Q668687", "ref": "7624800017"}, "type": "Feature"}
{"geometry": {"coordinates": [-97.23574, 32.903215], "type": "Point"}, "id": "PWpbZV0RUZsxgXwhGKdetayjSF4=", "properties": {"@source_uri": "https://tools.usps.com/UspsToolsRestServices/rest/POLocator/findLocations", "@spider": "usps_collection_boxes", "addr:city": "KELLER", "addr:country": "US", "addr:postcode": "76248", "addr:state": "TX", "addr:street_address": "301 N MAIN ST", "amenity": "post_box", "collection_times": "Mo-Sa 13:00", "note": "ON 12/24 AND 12/31, THIS BOX MAY BE COLLECTED AS EARLY AS 12 NOON.", "nsi_id": "unitedstatespostalservice-a77078", "operator": "United States Postal Service", "operator:short": "USPS", "operator:type": "public", "operator:wikidata": "Q668687", "ref": "7624800019"}, "type": "Feature"}
{"geometry": {"coordinates": [-97.239519072, 33.2622754841], "type": "Point"}, "id": "9KGQ26avtlDFdiOb3nt9qlDqC80=", "properties": {"@source_uri": "https://tools.usps.com/UspsToolsRestServices/rest/POLocator/findLocations", "@spider": "usps_collection_boxes", "addr:city": "KRUM", "addr:country": "US", "addr:postcode": "76249", "addr:state": "TX", "addr:street_address": "121 N 2ND ST", "amenity": "post_box", "collection_times": "Mo-Fr 16:00; Sa 11:30", "note": "ON 12/24 AND 12/31, THIS BOX MAY BE COLLECTED AS EARLY AS 12 NOON.", "nsi_id": "unitedstatespostalservice-a77078", "operator": "United States Postal Service", "operator:short": "USPS", "operator:type": "public", "operator:wikidata": "Q668687", "ref": "7624900001"}, "type": "Feature"}
{"geometry": {"coordinates": [-97.2394874, 33.262752], "type": "Point"}, "id": "59WysCZ5sDbKaG0pL2SrSKl9qlc=", "properties": {"@source_uri": "https://tools.usps.com/UspsToolsRestServices/rest/POLocator/findLocations", "@spider": "usps_collection_boxes", "addr:city": "KRUM", "addr:country": "US", "addr:postcode": "76249", "addr:state": "TX", "addr:street_address": "121 N 2ND ST", "amenity": "post_box", "collection_times": "Mo-Fr 16:00; Sa 11:30", "indoor": "yes", "note": "ON 12/24 AND 12/31, THIS BOX MAY BE COLLECTED AS EARLY AS 12 NOON.", "nsi_id": "unitedstatespostalservice-a77078", "operator": "United States Postal Service", "operator:short": "USPS", "operator:type": "public", "operator:wikidata": "Q668687", "ref": "7624900003"}, "type": "Feature"}
{"geometry": {"coordinates": [-97.239519072, 33.262275484], "type": "Point"}, "id": "ixlfMUbZxJ5ac-4S0FYXG5esmAE=", "properties": {"@source_uri": "https://tools.usps.com/UspsToolsRestServices/rest/POLocator/findLocations", "@spider": "usps_collection_boxes", "addr:city": "KRUM", "addr:country": "US", "addr:postcode": "76249", "addr:state": "TX", "addr:street_address": "121 N 2ND ST", "amenity": "post_box", "collection_times": "Mo-Fr 16:00; Sa 11:30", "indoor": "yes", "note": "ON 12/24 AND 12/31, THIS BOX MAY BE COLLECTED AS EARLY AS 12 NOON.", "nsi_id": "unitedstatespostalservice-a77078", "operator": "United States Postal Service", "operator:short": "USPS", "operator:type": "public", "operator:wikidata": "Q668687", "ref": "7624900004"}, "type": "Feature"}
{"geometry": {"coordinates": [-97.225434, 33.637328], "type": "Point"}, "id": "70kDI63huk-t1PZhPC94q9rNeuc=", "properties": {"@source_uri": "https://tools.usps.com/UspsToolsRestServices/rest/POLocator/findLocations", "@spider": "usps_collection_boxes", "addr:city": "LINDSAY", "addr:country": "US", "addr:postcode": "76250", "addr:state": "TX", "addr:street_address": "625 N ASH ST", "amenity": "post_box", "collection_times": "Mo-Fr 15:15; Sa 09:15", "indoor": "yes", "note": "ON 12/24 AND 12/31, THIS BOX MAY BE COLLECTED AS EARLY AS 12 NOON.", "nsi_id": "unitedstatespostalservice-a77078", "operator": "United States Postal Service", "operator:short": "USPS", "operator:type": "public", "operator:wikidata": "Q668687", "ref": "7625000001"}, "type": "Feature"}
{"geometry": {"coordinates": [-97.225401, 33.637365], "type": "Point"}, "id": "XSKN00b3fGIlGMPYiX_1AsCdjJY=", "properties": {"@source_uri": "https://tools.usps.com/UspsToolsRestServices/rest/POLocator/findLocations", "@spider": "usps_collection_boxes", "addr:city": "LINDSAY", "addr:country": "US", "addr:postcode": "76250", "addr:state": "TX", "addr:street_address": "625 N ASH ST", "amenity": "post_box", "collection_times": "Mo-Fr 15:15; Sa 09:15", "note": "ON 12/24 AND 12/31, THIS BOX MAY BE COLLECTED AS EARLY AS 12 NOON.", "nsi_id": "unitedstatespostalservice-a77078", "operator": "United States Postal Service", "operator:short": "USPS", "operator:type": "public", "operator:wikidata": "Q668687", "ref": "7625000002"}, "type": "Feature"}
{"geometry": {"coordinates": [-97.225435978, 33.637446587], "type": "Point"}, "id": "NJzxa8GYRvWlKJvMC6A7sl1Vgps=", "properties": {"@source_uri": "https://tools.usps.com/UspsToolsRestServices/rest/POLocator/findLocations", "@spider": "usps_collection_boxes", "addr:city": "LINDSAY", "addr:country": "US", "addr:postcode": "76250", "addr:state": "TX", "addr:street_address": "625 N ASH ST", "amenity": "post_box", "collection_times": "Mo-Fr 15:15; Sa 09:15", "indoor": "yes", "note": "ON 12/24 AND 12/31, THIS BOX MAY BE COLLECTED AS EARLY AS 12 NOON.", "nsi_id": "unitedstatespostalservice-a77078", "operator": "United States Postal Service", "operator:short": "USPS", "operator:type": "public", "operator:wikidata": "Q668687", "ref": "7625000005"}, "type": "Feature"}
{"geometry": {"coordinates": [-97.722481, 33.664124], "type": "Point"}, "id": "a3Wf7NPW_luwUtRdtHu91nLtBxU=", "properties": {"@source_uri": "https://tools.usps.com/UspsToolsRestServices/rest/POLocator/findLocations", "@spider": "usps_collection_boxes", "addr:city": "MONTAGUE", "addr:country": "US", "addr:postcode": "76251", "addr:state": "TX", "addr:street_address": "104 FRANKLIN ST", "amenity": "post_box", "collection_times": "Mo-Fr 15:00; Sa 09:30", "note": "ON 12/24 AND 12/31, THIS BOX MAY BE COLLECTED AS EARLY AS 12 NOON.", "nsi_id": "unitedstatespostalservice-a77078", "operator": "United States Postal Service", "operator:short": "USPS", "operator:type": "public", "operator:wikidata": "Q668687", "ref": "7625100001"}, "type": "Feature"}
{"geometry": {"coordinates": [-97.720679013, 33.664208692], "type": "Point"}, "id": "sANlIG6bZW24e504zaLPuHC2GDQ=", "properties": {"@source_uri": "https://tools.usps.com/UspsToolsRestServices/rest/POLocator/findLocations", "@spider": "usps_collection_boxes", "addr:city": "MONTAGUE", "addr:country": "US", "addr:postcode": "76251", "addr:state": "TX", "addr:street_address": "104 FRANKLIN ST", "amenity": "post_box", "collection_times": "Mo-Fr 16:00; Sa 10:30", "indoor": "yes", "note": "ON 12/24 AND 12/31, THIS BOX MAY BE COLLECTED AS EARLY AS 12 NOON.", "nsi_id": "unitedstatespostalservice-a77078", "operator": "United States Postal Service", "operator:short": "USPS", "operator:type": "public", "operator:wikidata": "Q668687", "ref": "7625100002"}, "type": "Feature"}
{"geometry": {"coordinates": [-97.378092, 33.650401], "type": "Point"}, "id": "lPsqjWOuF7QQC2hIT_BOUsM3k9w=", "properties": {"@source_uri": "https://tools.usps.com/UspsToolsRestServices/rest/POLocator/findLocations", "@spider": "usps_collection_boxes", "addr:city": "MUENSTER", "addr:country": "US", "addr:postcode": "76252", "addr:state": "TX", "addr:street_address": "235 W 2ND ST", "amenity": "post_box", "collection_times": "Mo-Fr 16:30; Sa 09:00", "indoor": "yes", "note": "ON 12/24 AND 12/31, THIS BOX MAY BE COLLECTED AS EARLY AS 12 NOON.", "nsi_id": "unitedstatespostalservice-a77078", "operator": "United States Postal Service", "operator:short": "USPS", "operator:type": "public", "operator:wikidata": "Q668687", "ref": "7625200001"}, "type": "Feature"}
{"geometry": {"coordinates": [-97.378021, 33.650429], "type": "Point"}, "id": "Ts6gDXNz3RlBxQ1NtGLAaXYzeM8=", "properties": {"@source_uri": "https://tools.usps.com/UspsToolsRestServices/rest/POLocator/findLocations", "@spider": "usps_collection_boxes", "addr:city": "MUENSTER", "addr:country": "US", "addr:postcode": "76252", "addr:state": "TX", "addr:street_address": "235 W 2ND ST", "amenity": "post_box", "collection_times": "Mo-Fr 16:30; Sa 09:00", "note": "ON 12/24 AND 12/31, THIS BOX MAY BE COLLECTED AS EARLY AS 12 NOON.", "nsi_id": "unitedstatespostalservice-a77078", "operator": "United States Postal Service", "operator:short": "USPS", "operator:type": "public", "operator:wikidata": "Q668687", "ref": "7625200002"}, "type": "Feature"}
{"geometry": {"coordinates": [-97.378073537, 33.650351866], "type": "Point"}, "id": "A0EuVlMh26BqJ1IYgfCieBGVZ4s=", "properties": {"@source_uri": "https://tools.usps.com/UspsToolsRestServices/rest/POLocator/findLocations", "@spider": "usps_collection_boxes", "addr:city": "MUENSTER", "addr:country": "US", "addr:postcode": "76252", "addr:state": "TX", "addr:street_address": "235 W 2ND ST", "amenity": "post_box", "collection_times": "Mo-Fr 16:30", "indoor": "yes", "note": "ON 12/24 AND 12/31, THIS BOX MAY BE COLLECTED AS EARLY AS 12 NOON.", "nsi_id": "unitedstatespostalservice-a77078", "operator": "United States Postal Service", "operator:short": "USPS", "operator:type": "public", "operator:wikidata": "Q668687", "ref": "7625200005"}, "type": "Feature"}
{"geometry": {"coordinates": [-97.728101, 33.790624], "type": "Point"}, "id": "u02LkW5UlalopqzGqhkaG5bczTI=", "properties": {"@source_uri": "https://tools.usps.com/UspsToolsRestServices/rest/POLocator/findLocations", "@spider": "usps_collection_boxes", "addr:city": "NOCONA", "addr:country": "US", "addr:postcode": "76255", "addr:state": "TX", "addr:street_address": "400 CLAY ST", "amenity": "post_box", "collection_times": "Mo-Fr 16:15; Sa 11:00", "note": "ON 12/24 AND 12/31, THIS BOX MAY BE COLLECTED AS EARLY AS 12 NOON.", "nsi_id": "unitedstatespostalservice-a77078", "operator": "United States Postal Service", "operator:short": "USPS", "operator:type": "public", "operator:wikidata": "Q668687", "ref": "7625500010"}, "type": "Feature"}
{"geometry": {"coordinates": [-97.72809, 33.79053], "type": "Point"}, "id": "eXASDpVVyMP5qC-HTA7AtyMNXDQ=", "properties": {"@source_uri": "https://tools.usps.com/UspsToolsRestServices/rest/POLocator/findLocations", "@spider": "usps_collection_boxes", "addr:city": "NOCONA", "addr:country": "US", "addr:postcode": "76255", "addr:state": "TX", "addr:street_address": "400 CLAY ST", "amenity": "post_box", "collection_times": "Mo-Fr 16:15; Sa 11:00", "note": "ON 12/24 AND 12/31, THIS BOX MAY BE COLLECTED AS EARLY AS 12 NOON.", "nsi_id": "unitedstatespostalservice-a77078", "operator": "United States Postal Service", "operator:short": "USPS", "operator:type": "public", "operator:wikidata": "Q668687", "ref": "7625500011"}, "type": "Feature"}
{"geometry": {"coordinates": [-97.72809, 33.79053], "type": "Point"}, "id": "sBIx83x1migtlcBLcE24PDaOeGE=", "properties": {"@source_uri": "https://tools.usps.com/UspsToolsRestServices/rest/POLocator/findLocations", "@spider": "usps_collection_boxes", "addr:city": "NOCONA", "addr:country": "US", "addr:postcode": "76255", "addr:state": "TX", "addr:street_address": "400 CLAY ST", "amenity": "post_box", "collection_times": "Mo-Fr 16:15; Sa 11:00", "indoor": "yes", "note": "ON 12/24 AND 12/31, THIS BOX MAY BE COLLECTED AS EARLY AS 12 NOON.", "nsi_id": "unitedstatespostalservice-a77078", "operator": "United States Postal Service", "operator:short": "USPS", "operator:type": "public", "operator:wikidata": "Q668687", "ref": "7625500012"}, "type": "Feature"}
{"geometry": {"coordinates": [-97.72809, 33.79053], "type": "Point"}, "id": "zDJHaaNWo03QPu5DmgeYyxqERlM=", "properties": {"@source_uri": "https://tools.usps.com/UspsToolsRestServices/rest/POLocator/findLocations", "@spider": "usps_collection_boxes", "addr:city": "NOCONA", "addr:country": "US", "addr:postcode": "76255", "addr:state": "TX", "addr:street_address": "400 CLAY ST", "amenity": "post_box", "collection_times": "Mo-Fr 16:15; Sa 11:00", "indoor": "yes", "note": "ON 12/24 AND 12/31, THIS BOX MAY BE COLLECTED AS EARLY AS 12 NOON.", "nsi_id": "unitedstatespostalservice-a77078", "operator": "United States Postal Service", "operator:short": "USPS", "operator:type": "public", "operator:wikidata": "Q668687", "ref": "7625500013"}, "type": "Feature"}
{"geometry": {"coordinates": [-97.728214041, 33.790854111], "type": "Point"}, "id": "8XXjgMHCPM459CvGCaobGK6sjio=", "properties": {"@source_uri": "https://tools.usps.com/UspsToolsRestServices/rest/POLocator/findLocations", "@spider": "usps_collection_boxes", "addr:city": "NOCONA", "addr:country": "US", "addr:postcode": "76255", "addr:state": "TX", "addr:street_address": "400 CLAY ST", "amenity": "post_box", "collection_times": "Mo-Fr 16:15; Sa 11:00", "indoor": "yes", "note": "ON 12/24 AND 12/31, THIS BOX MAY BE COLLECTED AS EARLY AS 12 NOON.", "nsi_id": "unitedstatespostalservice-a77078", "operator": "United States Postal Service", "operator:short": "USPS", "operator:type": "public", "operator:wikidata": "Q668687", "ref": "7625500016"}, "type": "Feature"}
{"geometry": {"coordinates": [-96.961405, 33.39983], "type": "Point"}, "id": "XDSweQj7ptEHU_zmo9LVPMFh2EI=", "properties": {"@source_uri": "https://tools.usps.com/UspsToolsRestServices/rest/POLocator/findLocations", "@spider": "usps_collection_boxes", "addr:city": "PILOT POINT", "addr:country": "US", "addr:postcode": "76258", "addr:state": "TX", "addr:street_address": "401 N WASHINGTON ST", "amenity": "post_box", "collection_times": "Mo-Fr 16:15; Sa 09:30", "indoor": "yes", "note": "ON 12/24 AND 12/31, THIS BOX MAY BE COLLECTED AS EARLY AS 12 NOON.", "nsi_id": "unitedstatespostalservice-a77078", "operator": "United States Postal Service", "operator:short": "USPS", "operator:type": "public", "operator:wikidata": "Q668687", "ref": "7625800001"}, "type": "Feature"}
{"geometry": {"coordinates": [-96.961438, 33.39974], "type": "Point"}, "id": "ZZEk0u3-O_4tr1BdxpO_-UE1Mis=", "properties": {"@source_uri": "https://tools.usps.com/UspsToolsRestServices/rest/POLocator/findLocations", "@spider": "usps_collection_boxes", "addr:city": "PILOT POINT", "addr:country": "US", "addr:postcode": "76258", "addr:state": "TX", "addr:street_address": "401 N WASHINGTON ST", "amenity": "post_box", "collection_times": "Mo-Fr 16:15; Sa 09:30", "note": "ON 12/24 AND 12/31, THIS BOX MAY BE COLLECTED AS EARLY AS 12 NOON.", "nsi_id": "unitedstatespostalservice-a77078", "operator": "United States Postal Service", "operator:short": "USPS", "operator:type": "public", "operator:wikidata": "Q668687", "ref": "7625800002"}, "type": "Feature"}
{"geometry": {"coordinates": [-96.961438, 33.39974], "type": "Point"}, "id": "TFajy1_SyD5keqyRlTVPpZKlGZA=", "properties": {"@source_uri": "https://tools.usps.com/UspsToolsRestServices/rest/POLocator/findLocations", "@spider": "usps_collection_boxes", "addr:city": "PILOT POINT", "addr:country": "US", "addr:postcode": "76258", "addr:state": "TX", "addr:street_address": "401 N WASHINGTON ST", "amenity": "post_box", "collection_times": "Mo-Fr 16:15; Sa 09:30", "indoor": "yes", "note": "ON 12/24 AND 12/31, THIS BOX MAY BE COLLECTED AS EARLY AS 12 NOON.", "nsi_id": "unitedstatespostalservice-a77078", "operator": "United States Postal Service", "operator:short": "USPS", "operator:type": "public", "operator:wikidata": "Q668687", "ref": "7625800003"}, "type": "Feature"}
{"geometry": {"coordinates": [-96.9609800246, 33.4000369922], "type": "Point"}, "id": "IgLgvIAayGV2eWgR5k0G0Dci-ug=", "properties": {"@source_uri": "https://tools.usps.com/UspsToolsRestServices/rest/POLocator/findLocations", "@spider": "usps_collection_boxes", "addr:city": "PILOT POINT", "addr:country": "US", "addr:postcode": "76258", "addr:state": "TX", "addr:street_address": "401 N WASHINGTON ST", "amenity": "post_box", "collection_times": "Mo-Fr 16:15; Sa 09:30", "note": "ON 12/24 AND 12/31, THIS BOX MAY BE COLLECTED AS EARLY AS 12 NOON.", "nsi_id": "unitedstatespostalservice-a77078", "operator": "United States Postal Service", "operator:short": "USPS", "operator:type": "public", "operator:wikidata": "Q668687", "ref": "7625800004"}, "type": "Feature"}
{"geometry": {"coordinates": [-96.961400102, 33.39999], "type": "Point"}, "id": "QJIkLGGRnr41_T5-phMNAOon09E=", "properties": {"@source_uri": "https://tools.usps.com/UspsToolsRestServices/rest/POLocator/findLocations", "@spider": "usps_collection_boxes", "addr:city": "PILOT POINT", "addr:country": "US", "addr:postcode": "76258", "addr:state": "TX", "addr:street_address": "401 N WASHINGTON ST", "amenity": "post_box", "collection_times": "Mo-Fr 16:15", "indoor": "yes", "note": "ON 12/24 AND 12/31, THIS BOX MAY BE COLLECTED AS EARLY AS 12 NOON.", "nsi_id": "unitedstatespostalservice-a77078", "operator": "United States Postal Service", "operator:short": "USPS", "operator:type": "public", "operator:wikidata": "Q668687", "ref": "7625800005"}, "type": "Feature"}
{"geometry": {"coordinates": [-97.2890116, 33.18322], "type": "Point"}, "id": "SOAFpCOZC0qiS_XdUAyip-yeQ-k=", "properties": {"@source_uri": "https://tools.usps.com/UspsToolsRestServices/rest/POLocator/findLocations", "@spider": "usps_collection_boxes", "addr:city": "PONDER", "addr:country": "US", "addr:postcode": "76259", "addr:state": "TX", "addr:street_address": "201 W BAILEY ST", "amenity": "post_box", "collection_times": "Mo-Fr 16:15; Sa 09:30", "note": "ON 12/24 AND 12/31, THIS BOX MAY BE COLLECTED AS EARLY AS 12 NOON.", "nsi_id": "unitedstatespostalservice-a77078", "operator": "United States Postal Service", "operator:short": "USPS", "operator:type": "public", "operator:wikidata": "Q668687", "ref": "7625900001"}, "type": "Feature"}
{"geometry": {"coordinates": [-97.2892457, 33.183014], "type": "Point"}, "id": "3sMAomaQwFST9yW1V8i6a7fDPjE=", "properties": {"@source_uri": "https://tools.usps.com/UspsToolsRestServices/rest/POLocator/findLocations", "@spider": "usps_collection_boxes", "addr:city": "PONDER", "addr:country": "US", "addr:postcode": "76259", "addr:state": "TX", "addr:street_address": "201 W BAILEY ST", "amenity": "post_box", "collection_times": "Mo-Fr 16:15; Sa 09:30", "indoor": "yes", "note": "ON 12/24 AND 12/31, THIS BOX MAY BE COLLECTED AS EARLY AS 12 NOON.", "nsi_id": "unitedstatespostalservice-a77078", "operator": "United States Postal Service", "operator:short": "USPS", "operator:type": "public", "operator:wikidata": "Q668687", "ref": "7625900002"}, "type": "Feature"}
{"geometry": {"coordinates": [-97.289172953, 33.183319528], "type": "Point"}, "id": "FqbGsvw4I0sF8YjLQWsl93Dj9KY=", "properties": {"@source_uri": "https://tools.usps.com/UspsToolsRestServices/rest/POLocator/findLocations", "@spider": "usps_collection_boxes", "addr:city": "PONDER", "addr:country": "US", "addr:postcode": "76259", "addr:state": "TX", "addr:street_address": "201 W BAILEY ST", "amenity": "post_box", "collection_times": "Mo-Fr 16:00", "indoor": "yes", "note": "ON 12/24 AND 12/31, THIS BOX MAY BE COLLECTED AS EARLY AS 12 NOON.", "nsi_id": "unitedstatespostalservice-a77078", "operator": "United States Postal Service", "operator:short": "USPS", "operator:type": "public", "operator:wikidata": "Q668687", "ref": "7625900004"}, "type": "Feature"}
{"geometry": {"coordinates": [-97.1864521403, 32.9973103315], "type": "Point"}, "id": "2xjUo2cynPQg5pn7PYXz2aRzz1Q=", "properties": {"@source_uri": "https://tools.usps.com/UspsToolsRestServices/rest/POLocator/findLocations", "@spider": "usps_collection_boxes", "addr:city": "ROANOKE", "addr:country": "US", "addr:postcode": "76262", "addr:state": "TX", "addr:street_address": "312 TROPHY CLUB DR", "amenity": "post_box", "collection_times": "Mo-Sa 10:40", "nsi_id": "unitedstatespostalservice-a77078", "operator": "United States Postal Service", "operator:short": "USPS", "operator:type": "public", "operator:wikidata": "Q668687", "ref": "7626200005"}, "type": "Feature"}
{"geometry": {"coordinates": [-97.221538, 33.002613], "type": "Point"}, "id": "cpnKuulm7szx57VcoKDemedoijU=", "properties": {"@source_uri": "https://tools.usps.com/UspsToolsRestServices/rest/POLocator/findLocations", "@spider": "usps_collection_boxes", "addr:city": "ROANOKE", "addr:country": "US", "addr:postcode": "76262", "addr:state": "TX", "addr:street_address": "516 E BYRON NELSON BLVD", "amenity": "post_box", "collection_times": "Mo-Fr 17:00; Sa 12:00", "note": "ON 12/24 AND 12/31, THIS BOX MAY BE COLLECTED AS EARLY AS 12 NOON.", "nsi_id": "unitedstatespostalservice-a77078", "operator": "United States Postal Service", "operator:short": "USPS", "operator:type": "public", "operator:wikidata": "Q668687", "ref": "7626200012"}, "type": "Feature"}
{"geometry": {"coordinates": [-97.221538, 33.002613], "type": "Point"}, "id": "vQMzhbp2a--CufbtYlswspekRO4=", "properties": {"@source_uri": "https://tools.usps.com/UspsToolsRestServices/rest/POLocator/findLocations", "@spider": "usps_collection_boxes", "addr:city": "ROANOKE", "addr:country": "US", "addr:postcode": "76262", "addr:state": "TX", "addr:street_address": "516 E BYRON NELSON BLVD", "amenity": "post_box", "collection_times": "Mo-Fr 17:00; Sa 12:00", "note": "ON 12/24 AND 12/31, THIS BOX MAY BE COLLECTED AS EARLY AS 12 NOON.", "nsi_id": "unitedstatespostalservice-a77078", "operator": "United States Postal Service", "operator:short": "USPS", "operator:type": "public", "operator:wikidata": "Q668687", "ref": "7626200013"}, "type": "Feature"}
{"geometry": {"coordinates": [-97.221538, 33.002613], "type": "Point"}, "id": "0d0zz461y8etrw8tBtkHedb6VaM=", "properties": {"@source_uri": "https://tools.usps.com/UspsToolsRestServices/rest/POLocator/findLocations", "@spider": "usps_collection_boxes", "addr:city": "ROANOKE", "addr:country": "US", "addr:postcode": "76262", "addr:state": "TX", "addr:street_address": "516 E BYRON NELSON BLVD", "amenity": "post_box", "collection_times": "Mo-Fr 17:00; Sa 12:00", "indoor": "yes", "note": "ON 12/24 AND 12/31, THIS BOX MAY BE COLLECTED AS EARLY AS 12 NOON.", "nsi_id": "unitedstatespostalservice-a77078", "operator": "United States Postal Service", "operator:short": "USPS", "operator:type": "public", "operator:wikidata": "Q668687", "ref": "7626200018"}, "type": "Feature"}
{"geometry": {"coordinates": [-97.221538, 33.002613], "type": "Point"}, "id": "b5gmS0V5E6Obo9vSspnzu-eww7o=", "properties": {"@source_uri": "https://tools.usps.com/UspsToolsRestServices/rest/POLocator/findLocations", "@spider": "usps_collection_boxes", "addr:city": "ROANOKE", "addr:country": "US", "addr:postcode": "76262", "addr:state": "TX", "addr:street_address": "516 E BYRON NELSON BLVD", "amenity": "post_box", "collection_times": "Mo-Fr 17:00; Sa 12:00", "indoor": "yes", "note": "ON 12/24 AND 12/31, THIS BOX MAY BE COLLECTED AS EARLY AS 12 NOON.", "nsi_id": "unitedstatespostalservice-a77078", "operator": "United States Postal Service", "operator:short": "USPS", "operator:type": "public", "operator:wikidata": "Q668687", "ref": "7626200019"}, "type": "Feature"}
{"geometry": {"coordinates": [-97.221538, 33.002613], "type": "Point"}, "id": "caq0zCCnoihShqX5kivBdP1am9Y=", "properties": {"@source_uri": "https://tools.usps.com/UspsToolsRestServices/rest/POLocator/findLocations", "@spider": "usps_collection_boxes", "addr:city": "ROANOKE", "addr:country": "US", "addr:postcode": "76262", "addr:state": "TX", "addr:street_address": "516 E BYRON NELSON BLVD", "amenity": "post_box", "collection_times": "Mo-Fr 17:00; Sa 12:00", "indoor": "yes", "note": "ON 12/24 AND 12/31, THIS BOX MAY BE COLLECTED AS EARLY AS 12 NOON.", "nsi_id": "unitedstatespostalservice-a77078", "operator": "United States Postal Service", "operator:short": "USPS", "operator:type": "public", "operator:wikidata": "Q668687", "ref": "7626200022"}, "type": "Feature"}
{"geometry": {"coordinates": [-97.221506034, 33.002518839], "type": "Point"}, "id": "__xR07mR3Lw_RHo3kx9ulEpIpKU=", "properties": {"@source_uri": "https://tools.usps.com/UspsToolsRestServices/rest/POLocator/findLocations", "@spider": "usps_collection_boxes", "addr:city": "ROANOKE", "addr:country": "US", "addr:postcode": "76262", "addr:state": "TX", "addr:street_address": "516 E BYRON NELSON BLVD", "amenity": "post_box", "collection_times": "Mo-Fr 17:00; Sa 12:00", "indoor": "yes", "note": "ON 12/24 AND 12/31, THIS BOX MAY BE COLLECTED AS EARLY AS 12 NOON.", "nsi_id": "unitedstatespostalservice-a77078", "operator": "United States Postal Service", "operator:short": "USPS", "operator:type": "public", "operator:wikidata": "Q668687", "ref": "7626200025"}, "type": "Feature"}
{"geometry": {"coordinates": [-96.848118, 33.683292], "type": "Point"}, "id": "oB6dg8UdNXPQLSVATAwpZMnWG_Q=", "properties": {"@source_uri": "https://tools.usps.com/UspsToolsRestServices/rest/POLocator/findLocations", "@spider": "usps_collection_boxes", "addr:city": "SADLER", "addr:country": "US", "addr:postcode": "76264", "addr:state": "TX", "addr:street_address": "102 S MAIN ST", "amenity": "post_box", "collection_times": "Mo-Fr 14:45; Sa 10:00", "note": "ON 12/24 AND 12/31, THIS BOX MAY BE COLLECTED AS EARLY AS 12 NOON.", "nsi_id": "unitedstatespostalservice-a77078", "operator": "United States Postal Service", "operator:short": "USPS", "operator:type": "public", "operator:wikidata": "Q668687", "ref": "7626400001"}, "type": "Feature"}
{"geometry": {"coordinates": [-96.848118, 33.683292], "type": "Point"}, "id": "TZNqTDuZUyUJBsKE5C805zXt7SQ=", "properties": {"@source_uri": "https://tools.usps.com/UspsToolsRestServices/rest/POLocator/findLocations", "@spider": "usps_collection_boxes", "addr:city": "SADLER", "addr:country": "US", "addr:postcode": "76264", "addr:state": "TX", "addr:street_address": "102 S MAIN ST", "amenity": "post_box", "collection_times": "Mo-Fr 14:45; Sa 10:00", "indoor": "yes", "note": "ON 12/24 AND 12/31, THIS BOX MAY BE COLLECTED AS EARLY AS 12 NOON.", "nsi_id": "unitedstatespostalservice-a77078", "operator": "United States Postal Service", "operator:short": "USPS", "operator:type": "public", "operator:wikidata": "Q668687", "ref": "7626400003"}, "type": "Feature"}
{"geometry": {"coordinates": [-96.84819025, 33.683189688], "type": "Point"}, "id": "jR17x5Be-A7PHnLKIKzhM_xVigg=", "properties": {"@source_uri": "https://tools.usps.com/UspsToolsRestServices/rest/POLocator/findLocations", "@spider": "usps_collection_boxes", "addr:city": "SADLER", "addr:country": "US", "addr:postcode": "76264", "addr:state": "TX", "addr:street_address": "102 S MAIN ST", "amenity": "post_box", "collection_times": "Mo-Fr 15:00; Sa 10:00", "indoor": "yes", "note": "ON 12/24 AND 12/31, THIS BOX MAY BE COLLECTED AS EARLY AS 12 NOON.", "nsi_id": "unitedstatespostalservice-a77078", "operator": "United States Postal Service", "operator:short": "USPS", "operator:type": "public", "operator:wikidata": "Q668687", "ref": "7626400004"}, "type": "Feature"}
{"geometry": {"coordinates": [-97.522456, 33.694445], "type": "Point"}, "id": "eeFRn2yizEb48Cx9G2Q26yTynOw=", "properties": {"@source_uri": "https://tools.usps.com/UspsToolsRestServices/rest/POLocator/findLocations", "@spider": "usps_collection_boxes", "addr:city": "SAINT JO", "addr:country": "US", "addr:postcode": "76265", "addr:state": "TX", "addr:street_address": "210 S BROAD ST", "amenity": "post_box", "collection_times": "Mo-Fr 16:15; Sa 09:30", "note": "ON 12/24 AND 12/31, THIS BOX MAY BE COLLECTED AS EARLY AS 12 NOON.", "nsi_id": "unitedstatespostalservice-a77078", "operator": "United States Postal Service", "operator:short": "USPS", "operator:type": "public", "operator:wikidata": "Q668687", "ref": "7626500001"}, "type": "Feature"}
{"geometry": {"coordinates": [-97.522456, 33.694445], "type": "Point"}, "id": "IrQWm-XD-EcXTta8e1HpX8WS0vQ=", "properties": {"@source_uri": "https://tools.usps.com/UspsToolsRestServices/rest/POLocator/findLocations", "@spider": "usps_collection_boxes", "addr:city": "SAINT JO", "addr:country": "US", "addr:postcode": "76265", "addr:state": "TX", "addr:street_address": "210 S BROAD ST", "amenity": "post_box", "collection_times": "Mo-Fr 16:15; Sa 09:30", "indoor": "yes", "note": "ON 12/24 AND 12/31, THIS BOX MAY BE COLLECTED AS EARLY AS 12 NOON.", "nsi_id": "unitedstatespostalservice-a77078", "operator": "United States Postal Service", "operator:short": "USPS", "operator:type": "public", "operator:wikidata": "Q668687", "ref": "7626500003"}, "type": "Feature"}
{"geometry": {"coordinates": [-97.522496928, 33.69443475], "type": "Point"}, "id": "yEhOGLbheE96NVqR1wcA7MlVmgo=", "properties": {"@source_uri": "https://tools.usps.com/UspsToolsRestServices/rest/POLocator/findLocations", "@spider": "usps_collection_boxes", "addr:city": "SAINT JO", "addr:country": "US", "addr:postcode": "76265", "addr:state": "TX", "addr:street_address": "210 S BROAD ST", "amenity": "post_box", "collection_times": "Mo-Fr 16:30", "indoor": "yes", "note": "ON 12/24 AND 12/31, THIS BOX MAY BE COLLECTED AS EARLY AS 12 NOON.", "nsi_id": "unitedstatespostalservice-a77078", "operator": "United States Postal Service", "operator:short": "USPS", "operator:type": "public", "operator:wikidata": "Q668687", "ref": "7626500004"}, "type": "Feature"}
{"geometry": {"coordinates": [-97.175015, 33.368415], "type": "Point"}, "id": "-YYSGseepGcKLY-0IoBMM57v_8Q=", "properties": {"@source_uri": "https://tools.usps.com/UspsToolsRestServices/rest/POLocator/findLocations", "@spider": "usps_collection_boxes", "addr:city": "SANGER", "addr:country": "US", "addr:postcode": "76266", "addr:state": "TX", "addr:street_address": "1008 N 5TH ST", "amenity": "post_box", "collection_times": "Mo-Fr 16:00; Sa 09:45", "indoor": "yes", "note": "ON 12/24 AND 12/31, THIS BOX MAY BE COLLECTED AS EARLY AS 12 NOON.", "nsi_id": "unitedstatespostalservice-a77078", "operator": "United States Postal Service", "operator:short": "USPS", "operator:type": "public", "operator:wikidata": "Q668687", "ref": "7626600002"}, "type": "Feature"}
{"geometry": {"coordinates": [-97.174958, 33.368334], "type": "Point"}, "id": "g-72xAHIBh5-XHoSChZ-d6IedFg=", "properties": {"@source_uri": "https://tools.usps.com/UspsToolsRestServices/rest/POLocator/findLocations", "@spider": "usps_collection_boxes", "addr:city": "SANGER", "addr:country": "US", "addr:postcode": "76266", "addr:state": "TX", "addr:street_address": "1008 N 5TH ST", "amenity": "post_box", "collection_times": "Mo-Fr 16:00; Sa 09:45", "note": "ON 12/24 AND 12/31, THIS BOX MAY BE COLLECTED AS EARLY AS 12 NOON.", "nsi_id": "unitedstatespostalservice-a77078", "operator": "United States Postal Service", "operator:short": "USPS", "operator:type": "public", "operator:wikidata": "Q668687", "ref": "7626600003"}, "type": "Feature"}
{"geometry": {"coordinates": [-97.174958, 33.368334], "type": "Point"}, "id": "WbcbFAcBzeY8pkZFNnkCgF_XrIg=", "properties": {"@source_uri": "https://tools.usps.com/UspsToolsRestServices/rest/POLocator/findLocations", "@spider": "usps_collection_boxes", "addr:city": "SANGER", "addr:country": "US", "addr:postcode": "76266", "addr:state": "TX", "addr:street_address": "1008 N 5TH ST", "amenity": "post_box", "collection_times": "Mo-Fr 16:00; Sa 09:45", "indoor": "yes", "note": "ON 12/24 AND 12/31, THIS BOX MAY BE COLLECTED AS EARLY AS 12 NOON.", "nsi_id": "unitedstatespostalservice-a77078", "operator": "United States Postal Service", "operator:short": "USPS", "operator:type": "public", "operator:wikidata": "Q668687", "ref": "7626600004"}, "type": "Feature"}
{"geometry": {"coordinates": [-97.175184598, 33.36853308], "type": "Point"}, "id": "sUY1DNFtYC2OhcXKXIq9IuqjMa8=", "properties": {"@source_uri": "https://tools.usps.com/UspsToolsRestServices/rest/POLocator/findLocations", "@spider": "usps_collection_boxes", "addr:city": "SANGER", "addr:country": "US", "addr:postcode": "76266", "addr:state": "TX", "addr:street_address": "1008 N 5TH ST", "amenity": "post_box", "collection_times": "Mo-Fr 16:30", "indoor": "yes", "note": "ON 12/24 AND 12/31, THIS BOX MAY BE COLLECTED AS EARLY AS 12 NOON.", "nsi_id": "unitedstatespostalservice-a77078", "operator": "United States Postal Service", "operator:short": "USPS", "operator:type": "public", "operator:wikidata": "Q668687", "ref": "7626600005"}, "type": "Feature"}
{"geometry": {"coordinates": [-97.3914559639, 33.3595510169], "type": "Point"}, "id": "_SrSuguHYB0-LFNexh89t595mzQ=", "properties": {"@source_uri": "https://tools.usps.com/UspsToolsRestServices/rest/POLocator/findLocations", "@spider": "usps_collection_boxes", "addr:city": "SLIDELL", "addr:country": "US", "addr:postcode": "76267", "addr:state": "TX", "addr:street_address": "112 COUNTY ROAD 2820", "amenity": "post_box", "collection_times": "Mo-Fr 15:30; Sa 10:00", "note": "ON 12/24 AND 12/31, THIS BOX MAY BE COLLECTED AS EARLY AS 12 NOON.", "nsi_id": "unitedstatespostalservice-a77078", "operator": "United States Postal Service", "operator:short": "USPS", "operator:type": "public", "operator:wikidata": "Q668687", "ref": "7626700001"}, "type": "Feature"}
{"geometry": {"coordinates": [-97.391248, 33.359513], "type": "Point"}, "id": "XliNo1KZUu99pXTT0jazPfAxx5o=", "properties": {"@source_uri": "https://tools.usps.com/UspsToolsRestServices/rest/POLocator/findLocations", "@spider": "usps_collection_boxes", "addr:city": "SLIDELL", "addr:country": "US", "addr:postcode": "76267", "addr:state": "TX", "addr:street_address": "112 COUNTY ROAD 2820", "amenity": "post_box", "collection_times": "Mo-Fr 15:30; Sa 10:00", "indoor": "yes", "note": "ON 12/24 AND 12/31, THIS BOX MAY BE COLLECTED AS EARLY AS 12 NOON.", "nsi_id": "unitedstatespostalservice-a77078", "operator": "United States Postal Service", "operator:short": "USPS", "operator:type": "public", "operator:wikidata": "Q668687", "ref": "7626700002"}, "type": "Feature"}
{"geometry": {"coordinates": [-97.38925583, 33.356370385], "type": "Point"}, "id": "-leMxTlrePyUA2l3h8PXfLG0Lr4=", "properties": {"@source_uri": "https://tools.usps.com/UspsToolsRestServices/rest/POLocator/findLocations", "@spider": "usps_collection_boxes", "addr:city": "SLIDELL", "addr:country": "US", "addr:postcode": "76267", "addr:state": "TX", "addr:street_address": "112 COUNTY ROAD 2820", "amenity": "post_box", "collection_times": "Mo-Fr 15:30; Sa 10:00", "indoor": "yes", "note": "ON 12/24 AND 12/31, THIS BOX MAY BE COLLECTED AS EARLY AS 12 NOON.", "nsi_id": "unitedstatespostalservice-a77078", "operator": "United States Postal Service", "operator:short": "USPS", "operator:type": "public", "operator:wikidata": "Q668687", "ref": "7626700003"}, "type": "Feature"}
{"geometry": {"coordinates": [-96.765883, 33.624769], "type": "Point"}, "id": "F-FG0yG7oKpOJIN27ZL273BQUgM=", "properties": {"@source_uri": "https://tools.usps.com/UspsToolsRestServices/rest/POLocator/findLocations", "@spider": "usps_collection_boxes", "addr:city": "SOUTHMAYD", "addr:country": "US", "addr:postcode": "76268", "addr:state": "TX", "addr:street_address": "102 CHRISTI LN", "amenity": "post_box", "collection_times": "Mo-Fr 16:15; Sa 10:00", "indoor": "yes", "note": "ON 12/24 AND 12/31, THIS BOX MAY BE COLLECTED AS EARLY AS 12 NOON.", "nsi_id": "unitedstatespostalservice-a77078", "operator": "United States Postal Service", "operator:short": "USPS", "operator:type": "public", "operator:wikidata": "Q668687", "ref": "7626800002"}, "type": "Feature"}
{"geometry": {"coordinates": [-96.765913046, 33.62480845], "type": "Point"}, "id": "WMHND7yqxUZpR4A-CDjpzC65RrE=", "properties": {"@source_uri": "https://tools.usps.com/UspsToolsRestServices/rest/POLocator/findLocations", "@spider": "usps_collection_boxes", "addr:city": "SOUTHMAYD", "addr:country": "US", "addr:postcode": "76268", "addr:state": "TX", "addr:street_address": "102 CHRISTI LN", "amenity": "post_box", "collection_times": "Mo-Fr 16:15; Sa 10:00", "indoor": "yes", "note": "ON 12/24 AND 12/31, THIS BOX MAY BE COLLECTED AS EARLY AS 12 NOON.", "nsi_id": "unitedstatespostalservice-a77078", "operator": "United States Postal Service", "operator:short": "USPS", "operator:type": "public", "operator:wikidata": "Q668687", "ref": "7626800003"}, "type": "Feature"}
{"geometry": {"coordinates": [-97.7719563, 33.4297985], "type": "Point"}, "id": "cpYHJhwRK4OP8KmKW31T9bH7Phs=", "properties": {"@source_uri": "https://tools.usps.com/UspsToolsRestServices/rest/POLocator/findLocations", "@spider": "usps_collection_boxes", "addr:city": "SUNSET", "addr:country": "US", "addr:postcode": "76270", "addr:state": "TX", "addr:street_address": "107 HIGHWAY 101 W", "amenity": "post_box", "collection_times": "Mo-Fr 15:30; Sa 08:00", "note": "ON 12/24 AND 12/31, THIS BOX MAY BE COLLECTED AS EARLY AS 12 NOON.", "nsi_id": "unitedstatespostalservice-a77078", "operator": "United States Postal Service", "operator:short": "USPS", "operator:type": "public", "operator:wikidata": "Q668687", "ref": "7627000001"}, "type": "Feature"}
{"geometry": {"coordinates": [-97.7669460316, 33.4518939832], "type": "Point"}, "id": "irqJ9_rhmDbeuctIYTFQ4NfhsOI=", "properties": {"@source_uri": "https://tools.usps.com/UspsToolsRestServices/rest/POLocator/findLocations", "@spider": "usps_collection_boxes", "addr:city": "SUNSET", "addr:country": "US", "addr:postcode": "76270", "addr:state": "TX", "addr:street_address": "107 HIGHWAY 101 W", "amenity": "post_box", "collection_times": "Mo-Fr 15:30; Sa 08:00", "indoor": "yes", "note": "ON 12/24 AND 12/31, THIS BOX MAY BE COLLECTED AS EARLY AS 12 NOON.", "nsi_id": "unitedstatespostalservice-a77078", "operator": "United States Postal Service", "operator:short": "USPS", "operator:type": "public", "operator:wikidata": "Q668687", "ref": "7627000002"}, "type": "Feature"}
{"geometry": {"coordinates": [-97.7669460316, 33.4518939832], "type": "Point"}, "id": "y1o5iy-U465-puo_8OYBhctYvzE=", "properties": {"@source_uri": "https://tools.usps.com/UspsToolsRestServices/rest/POLocator/findLocations", "@spider": "usps_collection_boxes", "addr:city": "SUNSET", "addr:country": "US", "addr:postcode": "76270", "addr:state": "TX", "addr:street_address": "107 HIGHWAY 101 W", "amenity": "post_box", "collection_times": "Mo-Fr 15:30", "indoor": "yes", "note": "ON 12/24 AND 12/31, THIS BOX MAY BE COLLECTED AS EARLY AS 12 NOON.", "nsi_id": "unitedstatespostalservice-a77078", "operator": "United States Postal Service", "operator:short": "USPS", "operator:type": "public", "operator:wikidata": "Q668687", "ref": "7627000003"}, "type": "Feature"}
{"geometry": {"coordinates": [-96.919037, 33.468498], "type": "Point"}, "id": "LVUgMkT4s8qZtFoZBK79Bmt4N1Q=", "properties": {"@source_uri": "https://tools.usps.com/UspsToolsRestServices/rest/POLocator/findLocations", "@spider": "usps_collection_boxes", "addr:city": "TIOGA", "addr:country": "US", "addr:postcode": "76271", "addr:state": "TX", "addr:street_address": "301 N RAY ROBERTS PKWY", "amenity": "post_box", "collection_times": "Mo-Fr 16:00; Sa 09:00", "note": "ON 12/24 AND 12/31, THIS BOX MAY BE COLLECTED AS EARLY AS 12 NOON.", "nsi_id": "unitedstatespostalservice-a77078", "operator": "United States Postal Service", "operator:short": "USPS", "operator:type": "public", "operator:wikidata": "Q668687", "ref": "7627100001"}, "type": "Feature"}
{"geometry": {"coordinates": [-96.91908, 33.468412], "type": "Point"}, "id": "-BLdlFv7CQPHgD32IKaQS3wobp0=", "properties": {"@source_uri": "https://tools.usps.com/UspsToolsRestServices/rest/POLocator/findLocations", "@spider": "usps_collection_boxes", "addr:city": "TIOGA", "addr:country": "US", "addr:postcode": "76271", "addr:state": "TX", "addr:street_address": "301 N RAY ROBERTS PKWY", "amenity": "post_box", "collection_times": "Mo-Fr 16:00; Sa 09:00", "indoor": "yes", "note": "ON 12/24 AND 12/31, THIS BOX MAY BE COLLECTED AS EARLY AS 12 NOON.", "nsi_id": "unitedstatespostalservice-a77078", "operator": "United States Postal Service", "operator:short": "USPS", "operator:type": "public", "operator:wikidata": "Q668687", "ref": "7627100003"}, "type": "Feature"}
{"geometry": {"coordinates": [-96.919000897, 33.468830235], "type": "Point"}, "id": "FvRGuj_IoY7iLC-9istEtxOHPP4=", "properties": {"@source_uri": "https://tools.usps.com/UspsToolsRestServices/rest/POLocator/findLocations", "@spider": "usps_collection_boxes", "addr:city": "TIOGA", "addr:country": "US", "addr:postcode": "76271", "addr:state": "TX", "addr:street_address": "301 N RAY ROBERTS PKWY", "amenity": "post_box", "collection_times": "Mo-Fr 16:00", "indoor": "yes", "note": "ON 12/24 AND 12/31, THIS BOX MAY BE COLLECTED AS EARLY AS 12 NOON.", "nsi_id": "unitedstatespostalservice-a77078", "operator": "United States Postal Service", "operator:short": "USPS", "operator:type": "public", "operator:wikidata": "Q668687", "ref": "7627100004"}, "type": "Feature"}
{"geometry": {"coordinates": [-97.162925, 33.491087], "type": "Point"}, "id": "MjEsKSBW9vCqNEDv7BivkyEPGU0=", "properties": {"@source_uri": "https://tools.usps.com/UspsToolsRestServices/rest/POLocator/findLocations", "@spider": "usps_collection_boxes", "addr:city": "VALLEY VIEW", "addr:country": "US", "addr:postcode": "76272", "addr:state": "TX", "addr:street_address": "409 N FRONTAGE RD", "amenity": "post_box", "collection_times": "Mo-Fr 16:00; Sa 10:00", "note": "ON 12/24 AND 12/31, THIS BOX MAY BE COLLECTED AS EARLY AS 12 NOON.", "nsi_id": "unitedstatespostalservice-a77078", "operator": "United States Postal Service", "operator:short": "USPS", "operator:type": "public", "operator:wikidata": "Q668687", "ref": "7627200001"}, "type": "Feature"}
{"geometry": {"coordinates": [-97.162897, 33.491125], "type": "Point"}, "id": "XuiBe7GR0ZKxy53eAp4qzfmzrHw=", "properties": {"@source_uri": "https://tools.usps.com/UspsToolsRestServices/rest/POLocator/findLocations", "@spider": "usps_collection_boxes", "addr:city": "VALLEY VIEW", "addr:country": "US", "addr:postcode": "76272", "addr:state": "TX", "addr:street_address": "409 N FRONTAGE RD", "amenity": "post_box", "collection_times": "Mo-Fr 16:00; Sa 10:00", "indoor": "yes", "note": "ON 12/24 AND 12/31, THIS BOX MAY BE COLLECTED AS EARLY AS 12 NOON.", "nsi_id": "unitedstatespostalservice-a77078", "operator": "United States Postal Service", "operator:short": "USPS", "operator:type": "public", "operator:wikidata": "Q668687", "ref": "7627200002"}, "type": "Feature"}
{"geometry": {"coordinates": [-97.162897, 33.491125], "type": "Point"}, "id": "7JB6Lu5kUkcYI1mbfR9Plc7J_lk=", "properties": {"@source_uri": "https://tools.usps.com/UspsToolsRestServices/rest/POLocator/findLocations", "@spider": "usps_collection_boxes", "addr:city": "VALLEY VIEW", "addr:country": "US", "addr:postcode": "76272", "addr:state": "TX", "addr:street_address": "409 N FRONTAGE RD", "amenity": "post_box", "collection_times": "Mo-Fr 16:00; Sa 10:00", "indoor": "yes", "note": "ON 12/24 AND 12/31, THIS BOX MAY BE COLLECTED AS EARLY AS 12 NOON.", "nsi_id": "unitedstatespostalservice-a77078", "operator": "United States Postal Service", "operator:short": "USPS", "operator:type": "public", "operator:wikidata": "Q668687", "ref": "7627200005"}, "type": "Feature"}
{"geometry": {"coordinates": [-97.162949026, 33.49108424], "type": "Point"}, "id": "lbZUyLXexv11Y3no8e0AC9Gu8jU=", "properties": {"@source_uri": "https://tools.usps.com/UspsToolsRestServices/rest/POLocator/findLocations", "@spider": "usps_collection_boxes", "addr:city": "VALLEY VIEW", "addr:country": "US", "addr:postcode": "76272", "addr:state": "TX", "addr:street_address": "409 N FRONTAGE RD", "amenity": "post_box", "collection_times": "Mo-Fr 16:00", "indoor": "yes", "note": "ON 12/24 AND 12/31, THIS BOX MAY BE COLLECTED AS EARLY AS 12 NOON.", "nsi_id": "unitedstatespostalservice-a77078", "operator": "United States Postal Service", "operator:short": "USPS", "operator:type": "public", "operator:wikidata": "Q668687", "ref": "7627200006"}, "type": "Feature"}
{"geometry": {"coordinates": [-96.8960847, 33.673444], "type": "Point"}, "id": "pKbGhROVL6J_JBUKxLuQlis0a_8=", "properties": {"@source_uri": "https://tools.usps.com/UspsToolsRestServices/rest/POLocator/findLocations", "@spider": "usps_collection_boxes", "addr:city": "WHITESBORO", "addr:country": "US", "addr:postcode": "76273", "addr:state": "TX", "addr:street_address": "2535 HIGHWAY 82 E", "amenity": "post_box", "collection_times": "Mo-Fr 11:30; Sa 10:45", "nsi_id": "unitedstatespostalservice-a77078", "operator": "United States Postal Service", "operator:short": "USPS", "operator:type": "public", "operator:wikidata": "Q668687", "ref": "7627300006"}, "type": "Feature"}
{"geometry": {"coordinates": [-96.906968, 33.655817], "type": "Point"}, "id": "11HhMipOJcpnGY6RpDEBW8EjaOo=", "properties": {"@source_uri": "https://tools.usps.com/UspsToolsRestServices/rest/POLocator/findLocations", "@spider": "usps_collection_boxes", "addr:city": "WHITESBORO", "addr:country": "US", "addr:postcode": "76273", "addr:state": "TX", "addr:street_address": "110 W MAIN ST", "amenity": "post_box", "collection_times": "Mo-Fr 16:30; Sa 12:00", "note": "ON 12/24 AND 12/31, THIS BOX MAY BE COLLECTED AS EARLY AS 12 NOON.", "nsi_id": "unitedstatespostalservice-a77078", "operator": "United States Postal Service", "operator:short": "USPS", "operator:type": "public", "operator:wikidata": "Q668687", "ref": "7627300007"}, "type": "Feature"}
{"geometry": {"coordinates": [-96.906968, 33.655817], "type": "Point"}, "id": "yN2I8qqR57ZPCF43JcOMFpwU5K0=", "properties": {"@source_uri": "https://tools.usps.com/UspsToolsRestServices/rest/POLocator/findLocations", "@spider": "usps_collection_boxes", "addr:city": "WHITESBORO", "addr:country": "US", "addr:postcode": "76273", "addr:state": "TX", "addr:street_address": "110 W MAIN ST", "amenity": "post_box", "collection_times": "Mo-Fr 16:30; Sa 12:00", "note": "ON 12/24 AND 12/31, THIS BOX MAY BE COLLECTED AS EARLY AS 12 NOON.", "nsi_id": "unitedstatespostalservice-a77078", "operator": "United States Postal Service", "operator:short": "USPS", "operator:type": "public", "operator:wikidata": "Q668687", "ref": "7627300008"}, "type": "Feature"}
{"geometry": {"coordinates": [-96.906968, 33.655817], "type": "Point"}, "id": "NLkMmlGZr8g8E-6y7lX2SwJ4Hts=", "properties": {"@source_uri": "https://tools.usps.com/UspsToolsRestServices/rest/POLocator/findLocations", "@spider": "usps_collection_boxes", "addr:city": "WHITESBORO", "addr:country": "US", "addr:postcode": "76273", "addr:state": "TX", "addr:street_address": "110 W MAIN ST", "amenity": "post_box", "collection_times": "Mo-Fr 16:30; Sa 12:00", "indoor": "yes", "note": "ON 12/24 AND 12/31, THIS BOX MAY BE COLLECTED AS EARLY AS 12 NOON.", "nsi_id": "unitedstatespostalservice-a77078", "operator": "United States Postal Service", "operator:short": "USPS", "operator:type": "public", "operator:wikidata": "Q668687", "ref": "7627300009"}, "type": "Feature"}
{"geometry": {"coordinates": [-96.906968, 33.655817], "type": "Point"}, "id": "2HhqjPxHDKO1D9m-BxoW3bejxF8=", "properties": {"@source_uri": "https://tools.usps.com/UspsToolsRestServices/rest/POLocator/findLocations", "@spider": "usps_collection_boxes", "addr:city": "WHITESBORO", "addr:country": "US", "addr:postcode": "76273", "addr:state": "TX", "addr:street_address": "110 W MAIN ST", "amenity": "post_box", "collection_times": "Mo-Fr 16:30; Sa 12:00", "indoor": "yes", "note": "ON 12/24 AND 12/31, THIS BOX MAY BE COLLECTED AS EARLY AS 12 NOON.", "nsi_id": "unitedstatespostalservice-a77078", "operator": "United States Postal Service", "operator:short": "USPS", "operator:type": "public", "operator:wikidata": "Q668687", "ref": "7627300010"}, "type": "Feature"}
{"geometry": {"coordinates": [-96.907373827, 33.655797531], "type": "Point"}, "id": "xtNT7ViDM4gVu1KA3tWNUmLa8V4=", "properties": {"@source_uri": "https://tools.usps.com/UspsToolsRestServices/rest/POLocator/findLocations", "@spider": "usps_collection_boxes", "addr:city": "WHITESBORO", "addr:country": "US", "addr:postcode": "76273", "addr:state": "TX", "addr:street_address": "110 W MAIN ST", "amenity": "post_box", "collection_times": "Mo-Fr 16:00; Sa 12:00", "indoor": "yes", "note": "ON 12/24 AND 12/31, THIS BOX MAY BE COLLECTED AS EARLY AS 12 NOON.", "nsi_id": "unitedstatespostalservice-a77078", "operator": "United States Postal Service", "operator:short": "USPS", "operator:type": "public", "operator:wikidata": "Q668687", "ref": "7627300011"}, "type": "Feature"}
