{"geometry": {"coordinates": [-98.5274505, 33.908625], "type": "Point"}, "id": "_widsJUgrO_jofz8tsm3w-qwO2k=", "properties": {"@source_uri": "https://tools.usps.com/UspsToolsRestServices/rest/POLocator/findLocations", "@spider": "usps_collection_boxes", "addr:city": "WICHITA FALLS", "addr:country": "US", "addr:postcode": "76301", "addr:state": "TX", "addr:street_address": "3107 5TH ST", "amenity": "post_box", "collection_times": "Mo-Fr 17:30; Sa 13:00", "indoor": "yes", "note": "ON 12/24 AND 12/31, THIS BOX MAY BE COLLECTED AS EARLY AS 12 NOON.", "nsi_id": "unitedstatespostalservice-a77078", "operator": "United States Postal Service", "operator:short": "USPS", "operator:type": "public", "operator:wikidata": "Q668687", "ref": "7630100026"}, "type": "Feature"}
{"geometry": {"coordinates": [-98.5274505, 33.908625], "type": "Point"}, "id": "BBQBAAwOfOVm_eW8j9CKXWpOKBM=", "properties": {"@source_uri": "https://tools.usps.com/UspsToolsRestServices/rest/POLocator/findLocations", "@spider": "usps_collection_boxes", "addr:city": "WICHITA FALLS", "addr:country": "US", "addr:postcode": "76301", "addr:state": "TX", "addr:street_address": "3107 5TH ST", "amenity": "post_box", "collection_times": "Mo-Fr 17:30; Sa 13:00", "indoor": "yes", "note": "ON 12/24 AND 12/31, THIS BOX MAY BE COLLECTED AS EARLY AS 12 NOON.", "nsi_id": "unitedstatespostalservice-a77078", "operator": "United States Postal Service", "operator:short": "USPS", "operator:type": "public", "operator:wikidata": "Q668687", "ref": "7630100027"}, "type": "Feature"}
{"geometry": {"coordinates": [-98.495172, 33.912495], "type": "Point"}, "id": "bFxXXsGkHMNWDI57fzrIoGmfWBc=", "properties": {"@source_uri": "https://tools.usps.com/UspsToolsRestServices/rest/POLocator/findLocations", "@spider": "usps_collection_boxes", "addr:city": "WICHITA FALLS", "addr:country": "US", "addr:postcode": "76301", "addr:state": "TX", "addr:street_address": "900 7TH ST", "amenity": "post_box", "collection_times": "Mo-Sa 09:30", "nsi_id": "unitedstatespostalservice-a77078", "operator": "United States Postal Service", "operator:short": "USPS", "operator:type": "public", "operator:wikidata": "Q668687", "ref": "7630100039"}, "type": "Feature"}
{"geometry": {"coordinates": [-98.4951585, 33.900705], "type": "Point"}, "id": "3YjWkzsjrzZklf5k2FlkHn8tuog=", "properties": {"@source_uri": "https://tools.usps.com/UspsToolsRestServices/rest/POLocator/findLocations", "@spider": "usps_collection_boxes", "addr:city": "WICHITA FALLS", "addr:country": "US", "addr:postcode": "76301", "addr:state": "TX", "addr:street_address": "1401 HOLLIDAY ST", "amenity": "post_box", "collection_times": "Mo-Sa 11:00", "nsi_id": "unitedstatespostalservice-a77078", "operator": "United States Postal Service", "operator:short": "USPS", "operator:type": "public", "operator:wikidata": "Q668687", "ref": "7630100049"}, "type": "Feature"}
{"geometry": {"coordinates": [-98.4915135, 33.908616], "type": "Point"}, "id": "mbn30R1ulW4ret-QsqKrUmuFSic=", "properties": {"@source_uri": "https://tools.usps.com/UspsToolsRestServices/rest/POLocator/findLocations", "@spider": "usps_collection_boxes", "addr:city": "WICHITA FALLS", "addr:country": "US", "addr:postcode": "76301", "addr:state": "TX", "addr:street_address": "1000 LAMAR ST", "amenity": "post_box", "collection_times": "Mo-Fr 16:45; Sa 13:45", "indoor": "yes", "note": "ON 12/24 AND 12/31, THIS BOX MAY BE COLLECTED AS EARLY AS 12 NOON.", "nsi_id": "unitedstatespostalservice-a77078", "operator": "United States Postal Service", "operator:short": "USPS", "operator:type": "public", "operator:wikidata": "Q668687", "ref": "7630100061"}, "type": "Feature"}
{"geometry": {"coordinates": [-98.4903188, 33.9077547], "type": "Point"}, "id": "N4oaWz1zxJAfHZjlx-FJ6HibxxE=", "properties": {"@source_uri": "https://tools.usps.com/UspsToolsRestServices/rest/POLocator/findLocations", "@spider": "usps_collection_boxes", "addr:city": "WICHITA FALLS", "addr:country": "US", "addr:postcode": "76301", "addr:state": "TX", "addr:street_address": "1000 LAMAR ST", "amenity": "post_box", "collection_times": "Mo-Sa 12:30", "note": "ON 12/24 AND 12/31, THIS BOX MAY BE COLLECTED AS EARLY AS 12 NOON.", "nsi_id": "unitedstatespostalservice-a77078", "operator": "United States Postal Service", "operator:short": "USPS", "operator:type": "public", "operator:wikidata": "Q668687", "ref": "7630100064"}, "type": "Feature"}
{"geometry": {"coordinates": [-98.507502, 33.904449], "type": "Point"}, "id": "3JFkKiWkDXHhESW3ntbgpGTABCM=", "properties": {"@source_uri": "https://tools.usps.com/UspsToolsRestServices/rest/POLocator/findLocations", "@spider": "usps_collection_boxes", "addr:city": "WICHITA FALLS", "addr:country": "US", "addr:postcode": "76301", "addr:state": "TX", "addr:street_address": "1818 9TH ST", "amenity": "post_box", "collection_times": "Mo-Sa 09:30", "nsi_id": "unitedstatespostalservice-a77078", "operator": "United States Postal Service", "operator:short": "USPS", "operator:type": "public", "operator:wikidata": "Q668687", "ref": "7630100068"}, "type": "Feature"}
{"geometry": {"coordinates": [-98.5274505, 33.908625], "type": "Point"}, "id": "_XkOSMKhDmQoXajVtEbECPMehXE=", "properties": {"@source_uri": "https://tools.usps.com/UspsToolsRestServices/rest/POLocator/findLocations", "@spider": "usps_collection_boxes", "addr:city": "WICHITA FALLS", "addr:country": "US", "addr:postcode": "76301", "addr:state": "TX", "addr:street_address": "3107 5TH ST", "amenity": "post_box", "collection_times": "Mo-Fr 17:30; Sa 13:00", "indoor": "yes", "note": "ON 12/24 AND 12/31, THIS BOX MAY BE COLLECTED AS EARLY AS 12 NOON.", "nsi_id": "unitedstatespostalservice-a77078", "operator": "United States Postal Service", "operator:short": "USPS", "operator:type": "public", "operator:wikidata": "Q668687", "ref": "7630100078"}, "type": "Feature"}
{"geometry": {"coordinates": [-98.489592, 33.911577], "type": "Point"}, "id": "eNBl9aZuxCyH-vlS6q_qyE0QpBo=", "properties": {"@source_uri": "https://tools.usps.com/UspsToolsRestServices/rest/POLocator/findLocations", "@spider": "usps_collection_boxes", "addr:city": "WICHITA FALLS", "addr:country": "US", "addr:postcode": "76301", "addr:state": "TX", "addr:street_address": "901 INDIANA AVE", "amenity": "post_box", "collection_times": "Mo-Sa 13:00", "note": "ON 12/24 AND 12/31, THIS BOX MAY BE COLLECTED AS EARLY AS 12 NOON.", "nsi_id": "unitedstatespostalservice-a77078", "operator": "United States Postal Service", "operator:short": "USPS", "operator:type": "public", "operator:wikidata": "Q668687", "ref": "7630100080"}, "type": "Feature"}
{"geometry": {"coordinates": [-98.49101097, 33.91249112], "type": "Point"}, "id": "f902D4m_7o6CObxdvoj4M4DpLDc=", "properties": {"@source_uri": "https://tools.usps.com/UspsToolsRestServices/rest/POLocator/findLocations", "@spider": "usps_collection_boxes", "addr:city": "WICHITA FALLS", "addr:country": "US", "addr:postcode": "76301", "addr:state": "TX", "addr:street_address": "705 8TH ST", "amenity": "post_box", "collection_times": "Mo-Fr 14:00", "note": "ON 12/24 AND 12/31, THIS BOX MAY BE COLLECTED AS EARLY AS 12 NOON.", "nsi_id": "unitedstatespostalservice-a77078", "operator": "United States Postal Service", "operator:short": "USPS", "operator:type": "public", "operator:wikidata": "Q668687", "ref": "7630100082"}, "type": "Feature"}
{"geometry": {"coordinates": [-98.492677162, 33.9127101], "type": "Point"}, "id": "x6mPtTIWIcBlH8mTbe_eVg4tC5M=", "properties": {"@source_uri": "https://tools.usps.com/UspsToolsRestServices/rest/POLocator/findLocations", "@spider": "usps_collection_boxes", "addr:city": "WICHITA FALLS", "addr:country": "US", "addr:postcode": "76301", "addr:state": "TX", "addr:street_address": "719 SCOTT AVE", "amenity": "post_box", "collection_times": "Mo-Sa 14:30", "note": "ON 12/24 AND 12/31, THIS BOX MAY BE COLLECTED AS EARLY AS 12 NOON.", "nsi_id": "unitedstatespostalservice-a77078", "operator": "United States Postal Service", "operator:short": "USPS", "operator:type": "public", "operator:wikidata": "Q668687", "ref": "7630100083"}, "type": "Feature"}
{"geometry": {"coordinates": [-98.5274505, 33.908625], "type": "Point"}, "id": "XhbSuQoFRBsvGk7NGnDS-_XxDEo=", "properties": {"@source_uri": "https://tools.usps.com/UspsToolsRestServices/rest/POLocator/findLocations", "@spider": "usps_collection_boxes", "addr:city": "WICHITA FALLS", "addr:country": "US", "addr:postcode": "76301", "addr:state": "TX", "addr:street_address": "3107 5TH ST", "amenity": "post_box", "collection_times": "Mo-Fr 17:00; Sa 13:00", "indoor": "yes", "note": "ON 12/24 AND 12/31, THIS BOX MAY BE COLLECTED AS EARLY AS 12 NOON.", "nsi_id": "unitedstatespostalservice-a77078", "operator": "United States Postal Service", "operator:short": "USPS", "operator:type": "public", "operator:wikidata": "Q668687", "ref": "7630100090"}, "type": "Feature"}
{"geometry": {"coordinates": [-98.4915135, 33.908616], "type": "Point"}, "id": "4K4GlS8JqTnA3chQ0Av5o0rgqWg=", "properties": {"@source_uri": "https://tools.usps.com/UspsToolsRestServices/rest/POLocator/findLocations", "@spider": "usps_collection_boxes", "addr:city": "WICHITA FALLS", "addr:country": "US", "addr:postcode": "76301", "addr:state": "TX", "addr:street_address": "1000 LAMAR ST", "amenity": "post_box", "collection_times": "Mo-Fr 17:00", "indoor": "yes", "note": "ON 12/24 AND 12/31, THIS BOX MAY BE COLLECTED AS EARLY AS 12 NOON.", "nsi_id": "unitedstatespostalservice-a77078", "operator": "United States Postal Service", "operator:short": "USPS", "operator:type": "public", "operator:wikidata": "Q668687", "ref": "7630100091"}, "type": "Feature"}
{"geometry": {"coordinates": [-98.482735, 33.90457], "type": "Point"}, "id": "rH8Ai0rdKNMFC9qyAQ3gNFQJgeQ=", "properties": {"@source_uri": "https://tools.usps.com/UspsToolsRestServices/rest/POLocator/findLocations", "@spider": "usps_collection_boxes", "addr:city": "WICHITA FALLS", "addr:country": "US", "addr:postcode": "76301", "addr:state": "TX", "addr:street_address": "600 SCOTT AVE", "amenity": "post_box", "collection_times": "Mo-Sa 15:00", "note": "ON 12/24 AND 12/31, THIS BOX MAY BE COLLECTED AS EARLY AS 12 NOON.", "nsi_id": "unitedstatespostalservice-a77078", "operator": "United States Postal Service", "operator:short": "USPS", "operator:type": "public", "operator:wikidata": "Q668687", "ref": "7630100094"}, "type": "Feature"}
{"geometry": {"coordinates": [-98.482735, 33.90457], "type": "Point"}, "id": "9XpYEMrmJKf4-66kICOeZQU8WAo=", "properties": {"@source_uri": "https://tools.usps.com/UspsToolsRestServices/rest/POLocator/findLocations", "@spider": "usps_collection_boxes", "addr:city": "WICHITA FALLS", "addr:country": "US", "addr:postcode": "76301", "addr:state": "TX", "addr:street_address": "611 BLUFF ST", "amenity": "post_box", "collection_times": "Mo-Sa 11:30", "nsi_id": "unitedstatespostalservice-a77078", "operator": "United States Postal Service", "operator:short": "USPS", "operator:type": "public", "operator:wikidata": "Q668687", "ref": "7630100095"}, "type": "Feature"}
{"geometry": {"coordinates": [-98.482539961, 33.876206661], "type": "Point"}, "id": "leb0YbyVKa7_ZZVbwdTx4yRaKn8=", "properties": {"@source_uri": "https://tools.usps.com/UspsToolsRestServices/rest/POLocator/findLocations", "@spider": "usps_collection_boxes", "addr:city": "WICHITA FALLS", "addr:country": "US", "addr:postcode": "76302", "addr:state": "TX", "addr:street_address": "900 MIDWESTERN PKWY", "amenity": "post_box", "collection_times": "Mo-Sa 14:30", "note": "ON 12/24 AND 12/31, THIS BOX MAY BE COLLECTED AS EARLY AS 12 NOON.", "nsi_id": "unitedstatespostalservice-a77078", "operator": "United States Postal Service", "operator:short": "USPS", "operator:type": "public", "operator:wikidata": "Q668687", "ref": "7630200003"}, "type": "Feature"}
{"geometry": {"coordinates": [-98.4879649, 33.8656883], "type": "Point"}, "id": "tLYPAplt1J3vdgXtOpXNKG7dc8Y=", "properties": {"@source_uri": "https://tools.usps.com/UspsToolsRestServices/rest/POLocator/findLocations", "@spider": "usps_collection_boxes", "addr:city": "WICHITA FALLS", "addr:country": "US", "addr:postcode": "76302", "addr:state": "TX", "addr:street_address": "4309 OLD JACKSBORO HWY", "amenity": "post_box", "collection_times": "Mo-Sa 14:30", "note": "ON 12/24 AND 12/31, THIS BOX MAY BE COLLECTED AS EARLY AS 12 NOON.", "nsi_id": "unitedstatespostalservice-a77078", "operator": "United States Postal Service", "operator:short": "USPS", "operator:type": "public", "operator:wikidata": "Q668687", "ref": "7630200015"}, "type": "Feature"}
{"geometry": {"coordinates": [-98.496327342, 33.877275011], "type": "Point"}, "id": "osZjd60j2dCITnVoSXBc_EcN9-E=", "properties": {"@source_uri": "https://tools.usps.com/UspsToolsRestServices/rest/POLocator/findLocations", "@spider": "usps_collection_boxes", "addr:city": "WICHITA FALLS", "addr:country": "US", "addr:postcode": "76302", "addr:state": "TX", "addr:street_address": "1600 MIDWESTERN PKWY", "amenity": "post_box", "collection_times": "Mo-Sa 14:45", "note": "ON 12/24 AND 12/31, THIS BOX MAY BE COLLECTED AS EARLY AS 12 NOON.", "nsi_id": "unitedstatespostalservice-a77078", "operator": "United States Postal Service", "operator:short": "USPS", "operator:type": "public", "operator:wikidata": "Q668687", "ref": "7630200025"}, "type": "Feature"}
{"geometry": {"coordinates": [-98.494509296, 33.866417017], "type": "Point"}, "id": "p0QPfAxiFdm0XW7D7jp5-jVbZv4=", "properties": {"@source_uri": "https://tools.usps.com/UspsToolsRestServices/rest/POLocator/findLocations", "@spider": "usps_collection_boxes", "addr:city": "WICHITA FALLS", "addr:country": "US", "addr:postcode": "76302", "addr:state": "TX", "addr:street_address": "4502 OLD JACKSBORO HWY", "amenity": "post_box", "collection_times": "Mo-Sa 14:30", "note": "ON 12/24 AND 12/31, THIS BOX MAY BE COLLECTED AS EARLY AS 12 NOON.", "nsi_id": "unitedstatespostalservice-a77078", "operator": "United States Postal Service", "operator:short": "USPS", "operator:type": "public", "operator:wikidata": "Q668687", "ref": "7630200026"}, "type": "Feature"}
{"geometry": {"coordinates": [-98.3500329967, 33.8697601215], "type": "Point"}, "id": "C3G6yt9NXOubllFoBeZiMfdBy5o=", "properties": {"@source_uri": "https://tools.usps.com/UspsToolsRestServices/rest/POLocator/findLocations", "@spider": "usps_collection_boxes", "addr:city": "WICHITA FALLS", "addr:country": "US", "addr:postcode": "76305", "addr:state": "TX", "addr:street_address": "3392 HWY 287 N ACCESS RD S", "amenity": "post_box", "collection_times": "Mo-Sa 12:00", "nsi_id": "unitedstatespostalservice-a77078", "operator": "United States Postal Service", "operator:short": "USPS", "operator:type": "public", "operator:wikidata": "Q668687", "ref": "7630500000"}, "type": "Feature"}
{"geometry": {"coordinates": [-98.5238813566, 33.9287450917], "type": "Point"}, "id": "DjhJImLMKaPn9JRzfn5NnbnC01s=", "properties": {"@source_uri": "https://tools.usps.com/UspsToolsRestServices/rest/POLocator/findLocations", "@spider": "usps_collection_boxes", "addr:city": "WICHITA FALLS", "addr:country": "US", "addr:postcode": "76306", "addr:state": "TX", "addr:street_address": "2712 OLD IOWA PARK RD", "amenity": "post_box", "collection_times": "Mo-Sa 14:00", "note": "ON 12/24 AND 12/31, THIS BOX MAY BE COLLECTED AS EARLY AS 12 NOON.", "nsi_id": "unitedstatespostalservice-a77078", "operator": "United States Postal Service", "operator:short": "USPS", "operator:type": "public", "operator:wikidata": "Q668687", "ref": "7630600003"}, "type": "Feature"}
{"geometry": {"coordinates": [-98.5491945, 33.872697], "type": "Point"}, "id": "Hw4rrxQltAvsaxBlhJsTp9CofrQ=", "properties": {"@source_uri": "https://tools.usps.com/UspsToolsRestServices/rest/POLocator/findLocations", "@spider": "usps_collection_boxes", "addr:city": "WICHITA FALLS", "addr:country": "US", "addr:postcode": "76308", "addr:state": "TX", "addr:street_address": "4106 CALL FIELD RD", "amenity": "post_box", "collection_times": "Mo-Sa 14:00", "note": "ON 12/24 AND 12/31, THIS BOX MAY BE COLLECTED AS EARLY AS 12 NOON.", "nsi_id": "unitedstatespostalservice-a77078", "operator": "United States Postal Service", "operator:short": "USPS", "operator:type": "public", "operator:wikidata": "Q668687", "ref": "7630800001"}, "type": "Feature"}
{"geometry": {"coordinates": [-98.5235085, 33.885639], "type": "Point"}, "id": "PqyO0o5Xe7dLvBLxOukKQuBeNhs=", "properties": {"@source_uri": "https://tools.usps.com/UspsToolsRestServices/rest/POLocator/findLocations", "@spider": "usps_collection_boxes", "addr:city": "WICHITA FALLS", "addr:country": "US", "addr:postcode": "76308", "addr:state": "TX", "addr:street_address": "2301 KELL BLVD", "amenity": "post_box", "collection_times": "Mo-Sa 11:00", "nsi_id": "unitedstatespostalservice-a77078", "operator": "United States Postal Service", "operator:short": "USPS", "operator:type": "public", "operator:wikidata": "Q668687", "ref": "7630800011"}, "type": "Feature"}
{"geometry": {"coordinates": [-98.527788, 33.884586], "type": "Point"}, "id": "t3X1rBwko6gxjoV5HIE4iynFukU=", "properties": {"@source_uri": "https://tools.usps.com/UspsToolsRestServices/rest/POLocator/findLocations", "@spider": "usps_collection_boxes", "addr:city": "WICHITA FALLS", "addr:country": "US", "addr:postcode": "76308", "addr:state": "TX", "addr:street_address": "2525 KELL BLVD", "amenity": "post_box", "collection_times": "Mo-Sa 10:00", "nsi_id": "unitedstatespostalservice-a77078", "operator": "United States Postal Service", "operator:short": "USPS", "operator:type": "public", "operator:wikidata": "Q668687", "ref": "7630800013"}, "type": "Feature"}
{"geometry": {"coordinates": [-98.534376, 33.866379], "type": "Point"}, "id": "KDg_ZdwOgBzb3xWGhlARnx4OF18=", "properties": {"@source_uri": "https://tools.usps.com/UspsToolsRestServices/rest/POLocator/findLocations", "@spider": "usps_collection_boxes", "addr:city": "WICHITA FALLS", "addr:country": "US", "addr:postcode": "76308", "addr:state": "TX", "addr:street_address": "4245 KEMP BLVD", "amenity": "post_box", "collection_times": "Mo-Sa 14:45", "note": "ON 12/24 AND 12/31, THIS BOX MAY BE COLLECTED AS EARLY AS 12 NOON.", "nsi_id": "unitedstatespostalservice-a77078", "operator": "United States Postal Service", "operator:short": "USPS", "operator:type": "public", "operator:wikidata": "Q668687", "ref": "7630800016"}, "type": "Feature"}
{"geometry": {"coordinates": [-98.5168736949, 33.8702542809], "type": "Point"}, "id": "KfU08bgRHiv03jQ7Gl8pxSfr6Wk=", "properties": {"@source_uri": "https://tools.usps.com/UspsToolsRestServices/rest/POLocator/findLocations", "@spider": "usps_collection_boxes", "addr:city": "WICHITA FALLS", "addr:country": "US", "addr:postcode": "76308", "addr:state": "TX", "addr:street_address": "2303 MIDWESTERN PKWY", "amenity": "post_box", "collection_times": "Mo-Sa 14:45", "note": "ON 12/24 AND 12/31, THIS BOX MAY BE COLLECTED AS EARLY AS 12 NOON.", "nsi_id": "unitedstatespostalservice-a77078", "operator": "United States Postal Service", "operator:short": "USPS", "operator:type": "public", "operator:wikidata": "Q668687", "ref": "7630800027"}, "type": "Feature"}
{"geometry": {"coordinates": [-98.527221, 33.868647], "type": "Point"}, "id": "b4UzHdUPrGcidyN7P7TbydBihSI=", "properties": {"@source_uri": "https://tools.usps.com/UspsToolsRestServices/rest/POLocator/findLocations", "@spider": "usps_collection_boxes", "addr:city": "WICHITA FALLS", "addr:country": "US", "addr:postcode": "76308", "addr:state": "TX", "addr:street_address": "2617 PLAZA PKWY", "amenity": "post_box", "collection_times": "Mo-Fr 14:50; Sa 14:45", "note": "ON 12/24 AND 12/31, THIS BOX MAY BE COLLECTED AS EARLY AS 12 NOON.", "nsi_id": "unitedstatespostalservice-a77078", "operator": "United States Postal Service", "operator:short": "USPS", "operator:type": "public", "operator:wikidata": "Q668687", "ref": "7630800030"}, "type": "Feature"}
{"geometry": {"coordinates": [-98.5345245, 33.859197], "type": "Point"}, "id": "PQm9u2naF2cvJm5nUpqd1ond5So=", "properties": {"@source_uri": "https://tools.usps.com/UspsToolsRestServices/rest/POLocator/findLocations", "@spider": "usps_collection_boxes", "addr:city": "WICHITA FALLS", "addr:country": "US", "addr:postcode": "76308", "addr:state": "TX", "addr:street_address": "2720 SOUTHWEST PKWY", "amenity": "post_box", "collection_times": "Mo-Sa 14:45", "note": "ON 12/24 AND 12/31, THIS BOX MAY BE COLLECTED AS EARLY AS 12 NOON.", "nsi_id": "unitedstatespostalservice-a77078", "operator": "United States Postal Service", "operator:short": "USPS", "operator:type": "public", "operator:wikidata": "Q668687", "ref": "7630800035"}, "type": "Feature"}
{"geometry": {"coordinates": [-98.521146, 33.873876], "type": "Point"}, "id": "1brMOP-xQtcpECf_TAv8JqLVmeg=", "properties": {"@source_uri": "https://tools.usps.com/UspsToolsRestServices/rest/POLocator/findLocations", "@spider": "usps_collection_boxes", "addr:city": "WICHITA FALLS", "addr:country": "US", "addr:postcode": "76308", "addr:state": "TX", "addr:street_address": "3400 TAFT BLVD", "amenity": "post_box", "collection_times": "Mo-Sa 14:45", "note": "ON 12/24 AND 12/31, THIS BOX MAY BE COLLECTED AS EARLY AS 12 NOON.", "nsi_id": "unitedstatespostalservice-a77078", "operator": "United States Postal Service", "operator:short": "USPS", "operator:type": "public", "operator:wikidata": "Q668687", "ref": "7630800045"}, "type": "Feature"}
{"geometry": {"coordinates": [-98.544762, 33.856974], "type": "Point"}, "id": "RsjxWognKb2CFOs0oLO3de_0eeE=", "properties": {"@source_uri": "https://tools.usps.com/UspsToolsRestServices/rest/POLocator/findLocations", "@spider": "usps_collection_boxes", "addr:city": "WICHITA FALLS", "addr:country": "US", "addr:postcode": "76308", "addr:state": "TX", "addr:street_address": "4001 SOUTHWEST PKWY", "amenity": "post_box", "collection_times": "Mo-Fr 17:15; Sa 15:00", "indoor": "yes", "note": "ON 12/24 AND 12/31, THIS BOX MAY BE COLLECTED AS EARLY AS 12 NOON.", "nsi_id": "unitedstatespostalservice-a77078", "operator": "United States Postal Service", "operator:short": "USPS", "operator:type": "public", "operator:wikidata": "Q668687", "ref": "7630800054"}, "type": "Feature"}
{"geometry": {"coordinates": [-98.544762, 33.856974], "type": "Point"}, "id": "Y8fo7N67s_8NSD8fF6yZs5EtrrQ=", "properties": {"@source_uri": "https://tools.usps.com/UspsToolsRestServices/rest/POLocator/findLocations", "@spider": "usps_collection_boxes", "addr:city": "WICHITA FALLS", "addr:country": "US", "addr:postcode": "76308", "addr:state": "TX", "addr:street_address": "4001 SOUTHWEST PKWY", "amenity": "post_box", "collection_times": "Mo-Fr 17:15; Sa 15:00", "indoor": "yes", "note": "ON 12/24 AND 12/31, THIS BOX MAY BE COLLECTED AS EARLY AS 12 NOON.", "nsi_id": "unitedstatespostalservice-a77078", "operator": "United States Postal Service", "operator:short": "USPS", "operator:type": "public", "operator:wikidata": "Q668687", "ref": "7630800055"}, "type": "Feature"}
{"geometry": {"coordinates": [-98.544762, 33.856974], "type": "Point"}, "id": "sjTEZjezjZvXUsNY6UnHU7PO5Mk=", "properties": {"@source_uri": "https://tools.usps.com/UspsToolsRestServices/rest/POLocator/findLocations", "@spider": "usps_collection_boxes", "addr:city": "WICHITA FALLS", "addr:country": "US", "addr:postcode": "76308", "addr:state": "TX", "addr:street_address": "4001 SOUTHWEST PKWY", "amenity": "post_box", "collection_times": "Mo-Fr 17:15; Sa 15:00", "indoor": "yes", "note": "ON 12/24 AND 12/31, THIS BOX MAY BE COLLECTED AS EARLY AS 12 NOON.", "nsi_id": "unitedstatespostalservice-a77078", "operator": "United States Postal Service", "operator:short": "USPS", "operator:type": "public", "operator:wikidata": "Q668687", "ref": "7630800059"}, "type": "Feature"}
{"geometry": {"coordinates": [-98.5233915, 33.856281], "type": "Point"}, "id": "N6VsJzYZ_Y260I7IdT2tJj6PRvs=", "properties": {"@source_uri": "https://tools.usps.com/UspsToolsRestServices/rest/POLocator/findLocations", "@spider": "usps_collection_boxes", "addr:city": "WICHITA FALLS", "addr:country": "US", "addr:postcode": "76308", "addr:state": "TX", "addr:street_address": "2215 SOUTHWEST PKWY", "amenity": "post_box", "collection_times": "Mo-Sa 10:30", "nsi_id": "unitedstatespostalservice-a77078", "operator": "United States Postal Service", "operator:short": "USPS", "operator:type": "public", "operator:wikidata": "Q668687", "ref": "7630800067"}, "type": "Feature"}
{"geometry": {"coordinates": [-98.544762, 33.856974], "type": "Point"}, "id": "WdRAOzetaOw3VSOZ0pkiAJR-VPI=", "properties": {"@source_uri": "https://tools.usps.com/UspsToolsRestServices/rest/POLocator/findLocations", "@spider": "usps_collection_boxes", "addr:city": "WICHITA FALLS", "addr:country": "US", "addr:postcode": "76308", "addr:state": "TX", "addr:street_address": "4001 SOUTHWEST PKWY", "amenity": "post_box", "collection_times": "Mo-Fr 17:15; Sa 15:00", "name": "USPS COLLECTION BOX - APC", "note": "ON 12/24 AND 12/31, THIS BOX MAY BE COLLECTED AS EARLY AS 12 NOON.", "nsi_id": "unitedstatespostalservice-a77078", "operator": "United States Postal Service", "operator:short": "USPS", "operator:type": "public", "operator:wikidata": "Q668687", "ref": "7630800069"}, "type": "Feature"}
{"geometry": {"coordinates": [-98.544762, 33.856974], "type": "Point"}, "id": "Cpyhc3UiJEyS6syf_YQIms_0zjo=", "properties": {"@source_uri": "https://tools.usps.com/UspsToolsRestServices/rest/POLocator/findLocations", "@spider": "usps_collection_boxes", "addr:city": "WICHITA FALLS", "addr:country": "US", "addr:postcode": "76308", "addr:state": "TX", "addr:street_address": "4001 SOUTHWEST PKWY", "amenity": "post_box", "collection_times": "Mo-Fr 17:30; Sa 14:00", "indoor": "yes", "note": "ON 12/24 AND 12/31, THIS BOX MAY BE COLLECTED AS EARLY AS 12 NOON.", "nsi_id": "unitedstatespostalservice-a77078", "operator": "United States Postal Service", "operator:short": "USPS", "operator:type": "public", "operator:wikidata": "Q668687", "ref": "7630800075"}, "type": "Feature"}
{"geometry": {"coordinates": [-98.526929, 33.8768215], "type": "Point"}, "id": "21l0N_oPO57mHonhX1kp7_XyGX4=", "properties": {"@source_uri": "https://tools.usps.com/UspsToolsRestServices/rest/POLocator/findLocations", "@spider": "usps_collection_boxes", "addr:city": "WICHITA FALLS", "addr:country": "US", "addr:postcode": "76308", "addr:state": "TX", "addr:street_address": "2701 KELL BLVD", "amenity": "post_box", "collection_times": "Mo-Sa 14:00", "note": "ON 12/24 AND 12/31, THIS BOX MAY BE COLLECTED AS EARLY AS 12 NOON.", "nsi_id": "unitedstatespostalservice-a77078", "operator": "United States Postal Service", "operator:short": "USPS", "operator:type": "public", "operator:wikidata": "Q668687", "ref": "7630800081"}, "type": "Feature"}
{"geometry": {"coordinates": [-98.548308, 33.879762], "type": "Point"}, "id": "tBpMnrReEi_3CErdkbNsZyzKhqc=", "properties": {"@source_uri": "https://tools.usps.com/UspsToolsRestServices/rest/POLocator/findLocations", "@spider": "usps_collection_boxes", "addr:city": "WICHITA FALLS", "addr:country": "US", "addr:postcode": "76309", "addr:state": "TX", "addr:street_address": "4202 KELL BLVD", "amenity": "post_box", "collection_times": "Mo-Sa 10:00", "nsi_id": "unitedstatespostalservice-a77078", "operator": "United States Postal Service", "operator:short": "USPS", "operator:type": "public", "operator:wikidata": "Q668687", "ref": "7630900011"}, "type": "Feature"}
{"geometry": {"coordinates": [-98.5599945, 33.873615], "type": "Point"}, "id": "tXiP_PSHwD8Nt0D4h3VU-RNx79U=", "properties": {"@source_uri": "https://tools.usps.com/UspsToolsRestServices/rest/POLocator/findLocations", "@spider": "usps_collection_boxes", "addr:city": "WICHITA FALLS", "addr:country": "US", "addr:postcode": "76310", "addr:state": "TX", "addr:street_address": "3801 FAIRWAY BLVD", "amenity": "post_box", "collection_times": "Mo-Sa 11:15", "nsi_id": "unitedstatespostalservice-a77078", "operator": "United States Postal Service", "operator:short": "USPS", "operator:type": "public", "operator:wikidata": "Q668687", "ref": "7631000003"}, "type": "Feature"}
{"geometry": {"coordinates": [-98.5621578, 33.857969863], "type": "Point"}, "id": "3xVwYOLp52ecQkP-6t2XZoLm64c=", "properties": {"@source_uri": "https://tools.usps.com/UspsToolsRestServices/rest/POLocator/findLocations", "@spider": "usps_collection_boxes", "addr:city": "WICHITA FALLS", "addr:country": "US", "addr:postcode": "76310", "addr:state": "TX", "addr:street_address": "4609 SOUTHWEST PKWY", "amenity": "post_box", "collection_times": "Mo-Sa 09:00", "nsi_id": "unitedstatespostalservice-a77078", "operator": "United States Postal Service", "operator:short": "USPS", "operator:type": "public", "operator:wikidata": "Q668687", "ref": "7631000005"}, "type": "Feature"}
{"geometry": {"coordinates": [-98.5777826284, 33.8712193107], "type": "Point"}, "id": "SY39JxZhqRqE1_WdIg6dnIM1Fl4=", "properties": {"@source_uri": "https://tools.usps.com/UspsToolsRestServices/rest/POLocator/findLocations", "@spider": "usps_collection_boxes", "addr:city": "WICHITA FALLS", "addr:country": "US", "addr:postcode": "76310", "addr:state": "TX", "addr:street_address": "4301 BARNETT RD", "amenity": "post_box", "collection_times": "Mo-Sa 09:00", "nsi_id": "unitedstatespostalservice-a77078", "operator": "United States Postal Service", "operator:short": "USPS", "operator:type": "public", "operator:wikidata": "Q668687", "ref": "7631000006"}, "type": "Feature"}
{"geometry": {"coordinates": [-98.411804156, 33.79770119], "type": "Point"}, "id": "JcfXeG0DAjgp6xUZq6mP7Qex2RI=", "properties": {"@source_uri": "https://tools.usps.com/UspsToolsRestServices/rest/POLocator/findLocations", "@spider": "usps_collection_boxes", "addr:city": "WICHITA FALLS", "addr:country": "US", "addr:postcode": "76310", "addr:state": "TX", "addr:street_address": "6138 FM 1954", "amenity": "post_box", "collection_times": "Mo-Sa 11:00", "nsi_id": "unitedstatespostalservice-a77078", "operator": "United States Postal Service", "operator:short": "USPS", "operator:type": "public", "operator:wikidata": "Q668687", "ref": "7631000007"}, "type": "Feature"}
{"geometry": {"coordinates": [-98.539845954, 33.820403634], "type": "Point"}, "id": "l3axO0BWirDAj3-eg9P5_Qzzn9A=", "properties": {"@source_uri": "https://tools.usps.com/UspsToolsRestServices/rest/POLocator/findLocations", "@spider": "usps_collection_boxes", "addr:city": "WICHITA FALLS", "addr:country": "US", "addr:postcode": "76310", "addr:state": "TX", "addr:street_address": "4250 STATE HIGHWAY 79 S", "amenity": "post_box", "collection_times": "Mo-Sa 14:00", "note": "ON 12/24 AND 12/31, THIS BOX MAY BE COLLECTED AS EARLY AS 12 NOON.", "nsi_id": "unitedstatespostalservice-a77078", "operator": "United States Postal Service", "operator:short": "USPS", "operator:type": "public", "operator:wikidata": "Q668687", "ref": "7631000008"}, "type": "Feature"}
{"geometry": {"coordinates": [-98.50704, 33.96387], "type": "Point"}, "id": "TxgYusRrjyooTifnAIubDMI2xLg=", "properties": {"@source_uri": "https://tools.usps.com/UspsToolsRestServices/rest/POLocator/findLocations", "@spider": "usps_collection_boxes", "addr:city": "WICHITA FALLS", "addr:country": "US", "addr:postcode": "76311", "addr:state": "TX", "addr:street_address": "220 COMMUNITY CENTER DR", "amenity": "post_box", "collection_times": "Mo-Sa 11:00", "nsi_id": "unitedstatespostalservice-a77078", "operator": "United States Postal Service", "operator:short": "USPS", "operator:type": "public", "operator:wikidata": "Q668687", "ref": "7631100000"}, "type": "Feature"}
{"geometry": {"coordinates": [-98.506894157, 33.966313614], "type": "Point"}, "id": "LBqiT4YCeunkMCmyb8XWWVk_s6g=", "properties": {"@source_uri": "https://tools.usps.com/UspsToolsRestServices/rest/POLocator/findLocations", "@spider": "usps_collection_boxes", "addr:city": "WICHITA FALLS", "addr:country": "US", "addr:postcode": "76311", "addr:state": "TX", "addr:street_address": "776 H AVE", "amenity": "post_box", "collection_times": "Mo-Sa 08:30", "nsi_id": "unitedstatespostalservice-a77078", "operator": "United States Postal Service", "operator:short": "USPS", "operator:type": "public", "operator:wikidata": "Q668687", "ref": "7631100004"}, "type": "Feature"}
{"geometry": {"coordinates": [-98.508486296, 33.966771734], "type": "Point"}, "id": "-U_xOMCCLgYLiKIPy1JRjSjZxOU=", "properties": {"@source_uri": "https://tools.usps.com/UspsToolsRestServices/rest/POLocator/findLocations", "@spider": "usps_collection_boxes", "addr:city": "WICHITA FALLS", "addr:country": "US", "addr:postcode": "76311", "addr:state": "TX", "addr:street_address": "419 G AVE", "amenity": "post_box", "collection_times": "Mo-Fr 11:35; Sa 11:30", "nsi_id": "unitedstatespostalservice-a77078", "operator": "United States Postal Service", "operator:short": "USPS", "operator:type": "public", "operator:wikidata": "Q668687", "ref": "7631100009"}, "type": "Feature"}
{"geometry": {"coordinates": [-98.505203255, 33.966213464], "type": "Point"}, "id": "1WkP35wzaW1yujdyOTDaq7mwXFY=", "properties": {"@source_uri": "https://tools.usps.com/UspsToolsRestServices/rest/POLocator/findLocations", "@spider": "usps_collection_boxes", "addr:city": "WICHITA FALLS", "addr:country": "US", "addr:postcode": "76311", "addr:state": "TX", "addr:street_address": "527 I AVE", "amenity": "post_box", "collection_times": "Mo-Fr 16:00; Sa 14:00", "indoor": "yes", "note": "ON 12/24 AND 12/31, THIS BOX MAY BE COLLECTED AS EARLY AS 12 NOON.", "nsi_id": "unitedstatespostalservice-a77078", "operator": "United States Postal Service", "operator:short": "USPS", "operator:type": "public", "operator:wikidata": "Q668687", "ref": "7631100011"}, "type": "Feature"}
{"geometry": {"coordinates": [-98.51174768, 33.972221084], "type": "Point"}, "id": "XOP73IrvrzC55qaDAsBB4lce3QY=", "properties": {"@source_uri": "https://tools.usps.com/UspsToolsRestServices/rest/POLocator/findLocations", "@spider": "usps_collection_boxes", "addr:city": "WICHITA FALLS", "addr:country": "US", "addr:postcode": "76311", "addr:state": "TX", "addr:street_address": "527 L AVE I", "amenity": "post_box", "collection_times": "Mo-Sa 12:00", "indoor": "yes", "nsi_id": "unitedstatespostalservice-a77078", "operator": "United States Postal Service", "operator:short": "USPS", "operator:type": "public", "operator:wikidata": "Q668687", "ref": "7631100012"}, "type": "Feature"}
{"geometry": {"coordinates": [-98.51174768, 33.972221084], "type": "Point"}, "id": "eK9tyjsXQQ6VXzEMXTcRzf1qGac=", "properties": {"@source_uri": "https://tools.usps.com/UspsToolsRestServices/rest/POLocator/findLocations", "@spider": "usps_collection_boxes", "addr:city": "WICHITA FALLS", "addr:country": "US", "addr:postcode": "76311", "addr:state": "TX", "addr:street_address": "527 L AVE I", "amenity": "post_box", "collection_times": "Mo-Sa 12:00", "nsi_id": "unitedstatespostalservice-a77078", "operator": "United States Postal Service", "operator:short": "USPS", "operator:type": "public", "operator:wikidata": "Q668687", "ref": "7631100013"}, "type": "Feature"}
{"geometry": {"coordinates": [-98.624306, 33.601706], "type": "Point"}, "id": "-kuAj43BslS1I7fF4KiqwKhfXZk=", "properties": {"@source_uri": "https://tools.usps.com/UspsToolsRestServices/rest/POLocator/findLocations", "@spider": "usps_collection_boxes", "addr:city": "ARCHER CITY", "addr:country": "US", "addr:postcode": "76351", "addr:state": "TX", "addr:street_address": "500 N CENTER", "amenity": "post_box", "collection_times": "Mo-Fr 16:15; Sa 09:30", "note": "ON 12/24 AND 12/31, THIS BOX MAY BE COLLECTED AS EARLY AS 12 NOON.", "nsi_id": "unitedstatespostalservice-a77078", "operator": "United States Postal Service", "operator:short": "USPS", "operator:type": "public", "operator:wikidata": "Q668687", "ref": "7635100001"}, "type": "Feature"}
{"geometry": {"coordinates": [-98.624358, 33.601623], "type": "Point"}, "id": "Bm_yHSD5AeWn30o5j2fekOhUgn8=", "properties": {"@source_uri": "https://tools.usps.com/UspsToolsRestServices/rest/POLocator/findLocations", "@spider": "usps_collection_boxes", "addr:city": "ARCHER CITY", "addr:country": "US", "addr:postcode": "76351", "addr:state": "TX", "addr:street_address": "500 N CENTER", "amenity": "post_box", "collection_times": "Mo-Fr 16:15", "indoor": "yes", "note": "ON 12/24 AND 12/31, THIS BOX MAY BE COLLECTED AS EARLY AS 12 NOON.", "nsi_id": "unitedstatespostalservice-a77078", "operator": "United States Postal Service", "operator:short": "USPS", "operator:type": "public", "operator:wikidata": "Q668687", "ref": "7635100002"}, "type": "Feature"}
{"geometry": {"coordinates": [-98.624284246, 33.601741604], "type": "Point"}, "id": "tCd8PdfHGfAc-IdV08srwidfB-4=", "properties": {"@source_uri": "https://tools.usps.com/UspsToolsRestServices/rest/POLocator/findLocations", "@spider": "usps_collection_boxes", "addr:city": "ARCHER CITY", "addr:country": "US", "addr:postcode": "76351", "addr:state": "TX", "addr:street_address": "500 N CENTER", "amenity": "post_box", "collection_times": "Mo-Fr 16:00", "indoor": "yes", "note": "ON 12/24 AND 12/31, THIS BOX MAY BE COLLECTED AS EARLY AS 12 NOON.", "nsi_id": "unitedstatespostalservice-a77078", "operator": "United States Postal Service", "operator:short": "USPS", "operator:type": "public", "operator:wikidata": "Q668687", "ref": "7635100005"}, "type": "Feature"}
{"geometry": {"coordinates": [-98.23029, 33.6742], "type": "Point"}, "id": "uBzFzhrFaVfvvUKTswhxZ5bib2s=", "properties": {"@source_uri": "https://tools.usps.com/UspsToolsRestServices/rest/POLocator/findLocations", "@spider": "usps_collection_boxes", "addr:city": "BLUEGROVE", "addr:country": "US", "addr:postcode": "76352", "addr:state": "TX", "addr:street_address": "1720 FM 172", "amenity": "post_box", "collection_times": "Mo-Sa 11:45", "nsi_id": "unitedstatespostalservice-a77078", "operator": "United States Postal Service", "operator:short": "USPS", "operator:type": "public", "operator:wikidata": "Q668687", "ref": "7635200000"}, "type": "Feature"}
{"geometry": {"coordinates": [-98.23029, 33.6742], "type": "Point"}, "id": "kV4QL1kzyylBVS7clgQkdVj1PLM=", "properties": {"@source_uri": "https://tools.usps.com/UspsToolsRestServices/rest/POLocator/findLocations", "@spider": "usps_collection_boxes", "addr:city": "BLUEGROVE", "addr:country": "US", "addr:postcode": "76352", "addr:state": "TX", "addr:street_address": "1720 FM 172", "amenity": "post_box", "collection_times": "Mo-Sa 11:45", "indoor": "yes", "nsi_id": "unitedstatespostalservice-a77078", "operator": "United States Postal Service", "operator:short": "USPS", "operator:type": "public", "operator:wikidata": "Q668687", "ref": "7635200001"}, "type": "Feature"}
{"geometry": {"coordinates": [-98.22774218, 33.6742707], "type": "Point"}, "id": "LCSVq7n-FbGrMk54VbmQARwNK-k=", "properties": {"@source_uri": "https://tools.usps.com/UspsToolsRestServices/rest/POLocator/findLocations", "@spider": "usps_collection_boxes", "addr:city": "BLUEGROVE", "addr:country": "US", "addr:postcode": "76352", "addr:state": "TX", "addr:street_address": "1720 FM 172", "amenity": "post_box", "collection_times": "Mo-Fr 12:00; Sa 13:30", "indoor": "yes", "note": "ON 12/24 AND 12/31, THIS BOX MAY BE COLLECTED AS EARLY AS 12 NOON.", "nsi_id": "unitedstatespostalservice-a77078", "operator": "United States Postal Service", "operator:short": "USPS", "operator:type": "public", "operator:wikidata": "Q668687", "ref": "7635200002"}, "type": "Feature"}
{"geometry": {"coordinates": [-98.5726369, 34.087538], "type": "Point"}, "id": "ABSzJuqrbTVaTz9PiOegx-en1-I=", "properties": {"@source_uri": "https://tools.usps.com/UspsToolsRestServices/rest/POLocator/findLocations", "@spider": "usps_collection_boxes", "addr:city": "BURKBURNETT", "addr:country": "US", "addr:postcode": "76354", "addr:state": "TX", "addr:street_address": "501 COUNTY RD", "amenity": "post_box", "collection_times": "Mo-Fr 16:30; Sa 16:00", "note": "ON 12/24 AND 12/31, THIS BOX MAY BE COLLECTED AS EARLY AS 12 NOON.", "nsi_id": "unitedstatespostalservice-a77078", "operator": "United States Postal Service", "operator:short": "USPS", "operator:type": "public", "operator:wikidata": "Q668687", "ref": "7635400001"}, "type": "Feature"}
{"geometry": {"coordinates": [-98.5726421, 34.087302], "type": "Point"}, "id": "t4RjfmJgGEp1ypJb5KbQ0UbcL04=", "properties": {"@source_uri": "https://tools.usps.com/UspsToolsRestServices/rest/POLocator/findLocations", "@spider": "usps_collection_boxes", "addr:city": "BURKBURNETT", "addr:country": "US", "addr:postcode": "76354", "addr:state": "TX", "addr:street_address": "501 COUNTY RD", "amenity": "post_box", "collection_times": "Mo-Fr 16:30; Sa 16:00", "indoor": "yes", "note": "ON 12/24 AND 12/31, THIS BOX MAY BE COLLECTED AS EARLY AS 12 NOON.", "nsi_id": "unitedstatespostalservice-a77078", "operator": "United States Postal Service", "operator:short": "USPS", "operator:type": "public", "operator:wikidata": "Q668687", "ref": "7635400008"}, "type": "Feature"}
{"geometry": {"coordinates": [-98.5725816, 34.08729], "type": "Point"}, "id": "b-Tig7GEYlraKN3ZCQfkZbDVnZU=", "properties": {"@source_uri": "https://tools.usps.com/UspsToolsRestServices/rest/POLocator/findLocations", "@spider": "usps_collection_boxes", "addr:city": "BURKBURNETT", "addr:country": "US", "addr:postcode": "76354", "addr:state": "TX", "addr:street_address": "501 COUNTY RD", "amenity": "post_box", "collection_times": "Mo-Fr 16:30; Sa 16:00", "indoor": "yes", "note": "ON 12/24 AND 12/31, THIS BOX MAY BE COLLECTED AS EARLY AS 12 NOON.", "nsi_id": "unitedstatespostalservice-a77078", "operator": "United States Postal Service", "operator:short": "USPS", "operator:type": "public", "operator:wikidata": "Q668687", "ref": "7635400010"}, "type": "Feature"}
{"geometry": {"coordinates": [-98.571887758, 34.086356119], "type": "Point"}, "id": "WrO-fzqEAqxQ4HUFuOGsjnSPcO0=", "properties": {"@source_uri": "https://tools.usps.com/UspsToolsRestServices/rest/POLocator/findLocations", "@spider": "usps_collection_boxes", "addr:city": "BURKBURNETT", "addr:country": "US", "addr:postcode": "76354", "addr:state": "TX", "addr:street_address": "501 COUNTY RD", "amenity": "post_box", "collection_times": "Mo-Fr 16:30", "indoor": "yes", "note": "ON 12/24 AND 12/31, THIS BOX MAY BE COLLECTED AS EARLY AS 12 NOON.", "nsi_id": "unitedstatespostalservice-a77078", "operator": "United States Postal Service", "operator:short": "USPS", "operator:type": "public", "operator:wikidata": "Q668687", "ref": "7635400011"}, "type": "Feature"}
{"geometry": {"coordinates": [-98.190758, 34.067602], "type": "Point"}, "id": "RErOcuRYCZZIYn-xSiss_IrmeQU=", "properties": {"@source_uri": "https://tools.usps.com/UspsToolsRestServices/rest/POLocator/findLocations", "@spider": "usps_collection_boxes", "addr:city": "BYERS", "addr:country": "US", "addr:postcode": "76357", "addr:state": "TX", "addr:street_address": "206 CENTRAL AVE", "amenity": "post_box", "collection_times": "Mo-Fr 15:30; Sa 09:30", "note": "ON 12/24 AND 12/31, THIS BOX MAY BE COLLECTED AS EARLY AS 12 NOON.", "nsi_id": "unitedstatespostalservice-a77078", "operator": "United States Postal Service", "operator:short": "USPS", "operator:type": "public", "operator:wikidata": "Q668687", "ref": "7635700000"}, "type": "Feature"}
{"geometry": {"coordinates": [-98.190668, 34.067564], "type": "Point"}, "id": "4h7VxMQtbxy6_06oZ1CaEyfdHBY=", "properties": {"@source_uri": "https://tools.usps.com/UspsToolsRestServices/rest/POLocator/findLocations", "@spider": "usps_collection_boxes", "addr:city": "BYERS", "addr:country": "US", "addr:postcode": "76357", "addr:state": "TX", "addr:street_address": "206 CENTRAL AVE", "amenity": "post_box", "collection_times": "Mo-Fr 15:30; Sa 09:30", "indoor": "yes", "note": "ON 12/24 AND 12/31, THIS BOX MAY BE COLLECTED AS EARLY AS 12 NOON.", "nsi_id": "unitedstatespostalservice-a77078", "operator": "United States Postal Service", "operator:short": "USPS", "operator:type": "public", "operator:wikidata": "Q668687", "ref": "7635700002"}, "type": "Feature"}
{"geometry": {"coordinates": [-98.191537596, 34.067694373], "type": "Point"}, "id": "-WSHSqXLF1vfyWaTGrHKULe5jSg=", "properties": {"@source_uri": "https://tools.usps.com/UspsToolsRestServices/rest/POLocator/findLocations", "@spider": "usps_collection_boxes", "addr:city": "BYERS", "addr:country": "US", "addr:postcode": "76357", "addr:state": "TX", "addr:street_address": "206 CENTRAL AVE", "amenity": "post_box", "collection_times": "Mo-Fr 15:30; Sa 13:00", "indoor": "yes", "note": "ON 12/24 AND 12/31, THIS BOX MAY BE COLLECTED AS EARLY AS 12 NOON.", "nsi_id": "unitedstatespostalservice-a77078", "operator": "United States Postal Service", "operator:short": "USPS", "operator:type": "public", "operator:wikidata": "Q668687", "ref": "7635700003"}, "type": "Feature"}
{"geometry": {"coordinates": [-98.91964, 34.030243], "type": "Point"}, "id": "AGEyX5ri4QgyqRsDXc7uRSGtfJc=", "properties": {"@source_uri": "https://tools.usps.com/UspsToolsRestServices/rest/POLocator/findLocations", "@spider": "usps_collection_boxes", "addr:city": "ELECTRA", "addr:country": "US", "addr:postcode": "76360", "addr:state": "TX", "addr:street_address": "200 W CLEVELAND AVE", "amenity": "post_box", "collection_times": "Mo-Fr 16:30; Sa 10:00", "note": "ON 12/24 AND 12/31, THIS BOX MAY BE COLLECTED AS EARLY AS 12 NOON.", "nsi_id": "unitedstatespostalservice-a77078", "operator": "United States Postal Service", "operator:short": "USPS", "operator:type": "public", "operator:wikidata": "Q668687", "ref": "7636000001"}, "type": "Feature"}
{"geometry": {"coordinates": [-98.919529, 34.030223], "type": "Point"}, "id": "QaHxE-7jt_iavpK8QwU2VCofWOM=", "properties": {"@source_uri": "https://tools.usps.com/UspsToolsRestServices/rest/POLocator/findLocations", "@spider": "usps_collection_boxes", "addr:city": "ELECTRA", "addr:country": "US", "addr:postcode": "76360", "addr:state": "TX", "addr:street_address": "200 W CLEVELAND AVE", "amenity": "post_box", "collection_times": "Mo-Fr 16:30; Sa 10:00", "indoor": "yes", "note": "ON 12/24 AND 12/31, THIS BOX MAY BE COLLECTED AS EARLY AS 12 NOON.", "nsi_id": "unitedstatespostalservice-a77078", "operator": "United States Postal Service", "operator:short": "USPS", "operator:type": "public", "operator:wikidata": "Q668687", "ref": "7636000004"}, "type": "Feature"}
{"geometry": {"coordinates": [-98.919685366, 34.0302503], "type": "Point"}, "id": "Xim4MsXjxZYFxsa1iUEpMqHW19E=", "properties": {"@source_uri": "https://tools.usps.com/UspsToolsRestServices/rest/POLocator/findLocations", "@spider": "usps_collection_boxes", "addr:city": "ELECTRA", "addr:country": "US", "addr:postcode": "76360", "addr:state": "TX", "addr:street_address": "200 W CLEVELAND AVE", "amenity": "post_box", "collection_times": "Mo-Fr 16:30; Sa 10:00", "indoor": "yes", "note": "ON 12/24 AND 12/31, THIS BOX MAY BE COLLECTED AS EARLY AS 12 NOON.", "nsi_id": "unitedstatespostalservice-a77078", "operator": "United States Postal Service", "operator:short": "USPS", "operator:type": "public", "operator:wikidata": "Q668687", "ref": "7636000005"}, "type": "Feature"}
{"geometry": {"coordinates": [-99.52443, 33.467206], "type": "Point"}, "id": "rhC7g-fEPNmMpbvM_J9zpoKmDKM=", "properties": {"@source_uri": "https://tools.usps.com/UspsToolsRestServices/rest/POLocator/findLocations", "@spider": "usps_collection_boxes", "addr:city": "GOREE", "addr:country": "US", "addr:postcode": "76363", "addr:state": "TX", "addr:street_address": "105 N 5TH ST", "amenity": "post_box", "collection_times": "Mo-Fr 12:45; Sa 09:30", "note": "ON 12/24 AND 12/31, THIS BOX MAY BE COLLECTED AS EARLY AS 12 NOON.", "nsi_id": "unitedstatespostalservice-a77078", "operator": "United States Postal Service", "operator:short": "USPS", "operator:type": "public", "operator:wikidata": "Q668687", "ref": "7636300000"}, "type": "Feature"}
{"geometry": {"coordinates": [-99.52443, 33.467206], "type": "Point"}, "id": "yjTvTcowr4NxQfoaCwEDtL5mgJ4=", "properties": {"@source_uri": "https://tools.usps.com/UspsToolsRestServices/rest/POLocator/findLocations", "@spider": "usps_collection_boxes", "addr:city": "GOREE", "addr:country": "US", "addr:postcode": "76363", "addr:state": "TX", "addr:street_address": "105 N 5TH ST", "amenity": "post_box", "collection_times": "Mo-Fr 12:45; Sa 09:30", "indoor": "yes", "note": "ON 12/24 AND 12/31, THIS BOX MAY BE COLLECTED AS EARLY AS 12 NOON.", "nsi_id": "unitedstatespostalservice-a77078", "operator": "United States Postal Service", "operator:short": "USPS", "operator:type": "public", "operator:wikidata": "Q668687", "ref": "7636300001"}, "type": "Feature"}
{"geometry": {"coordinates": [-99.524484941, 33.467921078], "type": "Point"}, "id": "8QvUVw4JLUxpUUqSiQlNy7fEsic=", "properties": {"@source_uri": "https://tools.usps.com/UspsToolsRestServices/rest/POLocator/findLocations", "@spider": "usps_collection_boxes", "addr:city": "GOREE", "addr:country": "US", "addr:postcode": "76363", "addr:state": "TX", "addr:street_address": "105 N 5TH ST", "amenity": "post_box", "collection_times": "Mo-Fr 12:45; Sa 09:30", "indoor": "yes", "note": "ON 12/24 AND 12/31, THIS BOX MAY BE COLLECTED AS EARLY AS 12 NOON.", "nsi_id": "unitedstatespostalservice-a77078", "operator": "United States Postal Service", "operator:short": "USPS", "operator:type": "public", "operator:wikidata": "Q668687", "ref": "7636300002"}, "type": "Feature"}
{"geometry": {"coordinates": [-98.196372, 33.816472], "type": "Point"}, "id": "m-pvKtj3c8kmzEPovjt_I-qUBOM=", "properties": {"@source_uri": "https://tools.usps.com/UspsToolsRestServices/rest/POLocator/findLocations", "@spider": "usps_collection_boxes", "addr:city": "HENRIETTA", "addr:country": "US", "addr:postcode": "76365", "addr:state": "TX", "addr:street_address": "202 W IKARD ST", "amenity": "post_box", "collection_times": "Mo-Fr 16:30; Sa 10:00", "note": "ON 12/24 AND 12/31, THIS BOX MAY BE COLLECTED AS EARLY AS 12 NOON.", "nsi_id": "unitedstatespostalservice-a77078", "operator": "United States Postal Service", "operator:short": "USPS", "operator:type": "public", "operator:wikidata": "Q668687", "ref": "7636500004"}, "type": "Feature"}
{"geometry": {"coordinates": [-98.196372, 33.816472], "type": "Point"}, "id": "y4VLbL_MMmUvIXr86HD6Yejo4SI=", "properties": {"@source_uri": "https://tools.usps.com/UspsToolsRestServices/rest/POLocator/findLocations", "@spider": "usps_collection_boxes", "addr:city": "HENRIETTA", "addr:country": "US", "addr:postcode": "76365", "addr:state": "TX", "addr:street_address": "202 W IKARD ST", "amenity": "post_box", "collection_times": "Mo-Fr 16:30; Sa 10:00", "indoor": "yes", "note": "ON 12/24 AND 12/31, THIS BOX MAY BE COLLECTED AS EARLY AS 12 NOON.", "nsi_id": "unitedstatespostalservice-a77078", "operator": "United States Postal Service", "operator:short": "USPS", "operator:type": "public", "operator:wikidata": "Q668687", "ref": "7636500005"}, "type": "Feature"}
{"geometry": {"coordinates": [-98.196372, 33.816472], "type": "Point"}, "id": "mmeVuH_3oOBuhva8i49PmpJ9PKI=", "properties": {"@source_uri": "https://tools.usps.com/UspsToolsRestServices/rest/POLocator/findLocations", "@spider": "usps_collection_boxes", "addr:city": "HENRIETTA", "addr:country": "US", "addr:postcode": "76365", "addr:state": "TX", "addr:street_address": "202 W IKARD ST", "amenity": "post_box", "collection_times": "Mo-Fr 16:30; Sa 10:00", "indoor": "yes", "note": "ON 12/24 AND 12/31, THIS BOX MAY BE COLLECTED AS EARLY AS 12 NOON.", "nsi_id": "unitedstatespostalservice-a77078", "operator": "United States Postal Service", "operator:short": "USPS", "operator:type": "public", "operator:wikidata": "Q668687", "ref": "7636500006"}, "type": "Feature"}
{"geometry": {"coordinates": [-98.196372, 33.816472], "type": "Point"}, "id": "MTrJiSKPbBcA7A7vzupOP-8XdbY=", "properties": {"@source_uri": "https://tools.usps.com/UspsToolsRestServices/rest/POLocator/findLocations", "@spider": "usps_collection_boxes", "addr:city": "HENRIETTA", "addr:country": "US", "addr:postcode": "76365", "addr:state": "TX", "addr:street_address": "202 W IKARD ST", "amenity": "post_box", "collection_times": "Mo-Fr 16:30; Sa 10:00", "indoor": "yes", "note": "ON 12/24 AND 12/31, THIS BOX MAY BE COLLECTED AS EARLY AS 12 NOON.", "nsi_id": "unitedstatespostalservice-a77078", "operator": "United States Postal Service", "operator:short": "USPS", "operator:type": "public", "operator:wikidata": "Q668687", "ref": "7636500007"}, "type": "Feature"}
{"geometry": {"coordinates": [-98.196592972, 33.816492512], "type": "Point"}, "id": "Sk3fTcc9E6zIZuup1GT59jVYhOA=", "properties": {"@source_uri": "https://tools.usps.com/UspsToolsRestServices/rest/POLocator/findLocations", "@spider": "usps_collection_boxes", "addr:city": "HENRIETTA", "addr:country": "US", "addr:postcode": "76365", "addr:state": "TX", "addr:street_address": "202 W IKARD ST", "amenity": "post_box", "collection_times": "Mo-Fr 16:30", "indoor": "yes", "note": "ON 12/24 AND 12/31, THIS BOX MAY BE COLLECTED AS EARLY AS 12 NOON.", "nsi_id": "unitedstatespostalservice-a77078", "operator": "United States Postal Service", "operator:short": "USPS", "operator:type": "public", "operator:wikidata": "Q668687", "ref": "7636500008"}, "type": "Feature"}
{"geometry": {"coordinates": [-98.693878, 33.813863], "type": "Point"}, "id": "jb9gMAKyHLJHDkBdGSzztN6sJtE=", "properties": {"@source_uri": "https://tools.usps.com/UspsToolsRestServices/rest/POLocator/findLocations", "@spider": "usps_collection_boxes", "addr:city": "HOLLIDAY", "addr:country": "US", "addr:postcode": "76366", "addr:state": "TX", "addr:street_address": "100 E CHESTNUT ST", "amenity": "post_box", "collection_times": "Mo-Fr 16:00; Sa 08:30", "note": "ON 12/24 AND 12/31, THIS BOX MAY BE COLLECTED AS EARLY AS 12 NOON.", "nsi_id": "unitedstatespostalservice-a77078", "operator": "United States Postal Service", "operator:short": "USPS", "operator:type": "public", "operator:wikidata": "Q668687", "ref": "7636600000"}, "type": "Feature"}
{"geometry": {"coordinates": [-98.69399, 33.81385], "type": "Point"}, "id": "51maHFCcmw6xM9qtEkRX2r7iZD0=", "properties": {"@source_uri": "https://tools.usps.com/UspsToolsRestServices/rest/POLocator/findLocations", "@spider": "usps_collection_boxes", "addr:city": "HOLLIDAY", "addr:country": "US", "addr:postcode": "76366", "addr:state": "TX", "addr:street_address": "100 E CHESTNUT ST", "amenity": "post_box", "collection_times": "Mo-Fr 16:00; Sa 08:30", "indoor": "yes", "note": "ON 12/24 AND 12/31, THIS BOX MAY BE COLLECTED AS EARLY AS 12 NOON.", "nsi_id": "unitedstatespostalservice-a77078", "operator": "United States Postal Service", "operator:short": "USPS", "operator:type": "public", "operator:wikidata": "Q668687", "ref": "7636600001"}, "type": "Feature"}
{"geometry": {"coordinates": [-98.693916295, 33.813871497], "type": "Point"}, "id": "2tIdAMmLtxB49wjkH5UB7FFKRcU=", "properties": {"@source_uri": "https://tools.usps.com/UspsToolsRestServices/rest/POLocator/findLocations", "@spider": "usps_collection_boxes", "addr:city": "HOLLIDAY", "addr:country": "US", "addr:postcode": "76366", "addr:state": "TX", "addr:street_address": "100 E CHESTNUT ST", "amenity": "post_box", "collection_times": "Mo-Fr 16:00", "indoor": "yes", "note": "ON 12/24 AND 12/31, THIS BOX MAY BE COLLECTED AS EARLY AS 12 NOON.", "nsi_id": "unitedstatespostalservice-a77078", "operator": "United States Postal Service", "operator:short": "USPS", "operator:type": "public", "operator:wikidata": "Q668687", "ref": "7636600004"}, "type": "Feature"}
{"geometry": {"coordinates": [-98.666758, 33.951507], "type": "Point"}, "id": "NaaDn6RHqlX6VzEeAtmmmDY3PQk=", "properties": {"@source_uri": "https://tools.usps.com/UspsToolsRestServices/rest/POLocator/findLocations", "@spider": "usps_collection_boxes", "addr:city": "IOWA PARK", "addr:country": "US", "addr:postcode": "76367", "addr:state": "TX", "addr:street_address": "211 E CASH ST", "amenity": "post_box", "collection_times": "Mo-Fr 16:00; Sa 10:00", "note": "ON 12/24 AND 12/31, THIS BOX MAY BE COLLECTED AS EARLY AS 12 NOON.", "nsi_id": "unitedstatespostalservice-a77078", "operator": "United States Postal Service", "operator:short": "USPS", "operator:type": "public", "operator:wikidata": "Q668687", "ref": "7636700002"}, "type": "Feature"}
{"geometry": {"coordinates": [-98.666746, 33.951534], "type": "Point"}, "id": "QeCUqdPP-zmrm8lG25uH0MiFYv0=", "properties": {"@source_uri": "https://tools.usps.com/UspsToolsRestServices/rest/POLocator/findLocations", "@spider": "usps_collection_boxes", "addr:city": "IOWA PARK", "addr:country": "US", "addr:postcode": "76367", "addr:state": "TX", "addr:street_address": "211 E CASH ST", "amenity": "post_box", "collection_times": "Mo-Fr 16:00; Sa 10:00", "indoor": "yes", "note": "ON 12/24 AND 12/31, THIS BOX MAY BE COLLECTED AS EARLY AS 12 NOON.", "nsi_id": "unitedstatespostalservice-a77078", "operator": "United States Postal Service", "operator:short": "USPS", "operator:type": "public", "operator:wikidata": "Q668687", "ref": "7636700004"}, "type": "Feature"}
{"geometry": {"coordinates": [-98.666172, 33.951501485], "type": "Point"}, "id": "AmsSbIk8iI7HiUdp-SVUCUZp-1g=", "properties": {"@source_uri": "https://tools.usps.com/UspsToolsRestServices/rest/POLocator/findLocations", "@spider": "usps_collection_boxes", "addr:city": "IOWA PARK", "addr:country": "US", "addr:postcode": "76367", "addr:state": "TX", "addr:street_address": "211 E CASH ST", "amenity": "post_box", "collection_times": "Mo-Fr 16:30", "indoor": "yes", "note": "ON 12/24 AND 12/31, THIS BOX MAY BE COLLECTED AS EARLY AS 12 NOON.", "nsi_id": "unitedstatespostalservice-a77078", "operator": "United States Postal Service", "operator:short": "USPS", "operator:type": "public", "operator:wikidata": "Q668687", "ref": "7636700006"}, "type": "Feature"}
{"geometry": {"coordinates": [-98.8080138, 33.857909], "type": "Point"}, "id": "N3hciY1RucWTSHyi6rBoZJd1dNE=", "properties": {"@source_uri": "https://tools.usps.com/UspsToolsRestServices/rest/POLocator/findLocations", "@spider": "usps_collection_boxes", "addr:city": "KAMAY", "addr:country": "US", "addr:postcode": "76369", "addr:state": "TX", "addr:street_address": "8162 STATE HIGHWAY 258", "amenity": "post_box", "collection_times": "Mo-Fr 15:15; Sa 08:30", "note": "ON 12/24 AND 12/31, THIS BOX MAY BE COLLECTED AS EARLY AS 12 NOON.", "nsi_id": "unitedstatespostalservice-a77078", "operator": "United States Postal Service", "operator:short": "USPS", "operator:type": "public", "operator:wikidata": "Q668687", "ref": "7636900000"}, "type": "Feature"}
{"geometry": {"coordinates": [-98.8084162298, 33.8505602082], "type": "Point"}, "id": "bA0krYpHjAJUth9LjOn4HRhLrCM=", "properties": {"@source_uri": "https://tools.usps.com/UspsToolsRestServices/rest/POLocator/findLocations", "@spider": "usps_collection_boxes", "addr:city": "KAMAY", "addr:country": "US", "addr:postcode": "76369", "addr:state": "TX", "addr:street_address": "8162 STATE HIGHWAY 258", "amenity": "post_box", "collection_times": "Mo-Fr 12:00", "indoor": "yes", "nsi_id": "unitedstatespostalservice-a77078", "operator": "United States Postal Service", "operator:short": "USPS", "operator:type": "public", "operator:wikidata": "Q668687", "ref": "7636900001"}, "type": "Feature"}
{"geometry": {"coordinates": [-98.8084162298, 33.8505602082], "type": "Point"}, "id": "MAlJdDurUCdrtzsiFUz-ey2MDzg=", "properties": {"@source_uri": "https://tools.usps.com/UspsToolsRestServices/rest/POLocator/findLocations", "@spider": "usps_collection_boxes", "addr:city": "KAMAY", "addr:country": "US", "addr:postcode": "76369", "addr:state": "TX", "addr:street_address": "8162 STATE HIGHWAY 258", "amenity": "post_box", "collection_times": "Mo-Fr 12:00", "indoor": "yes", "nsi_id": "unitedstatespostalservice-a77078", "operator": "United States Postal Service", "operator:short": "USPS", "operator:type": "public", "operator:wikidata": "Q668687", "ref": "7636900002"}, "type": "Feature"}
{"geometry": {"coordinates": [-98.807930026, 33.857694471], "type": "Point"}, "id": "AmIBoeVDWRnwRtssIGZQ1iwb9Mw=", "properties": {"@source_uri": "https://tools.usps.com/UspsToolsRestServices/rest/POLocator/findLocations", "@spider": "usps_collection_boxes", "addr:city": "KAMAY", "addr:country": "US", "addr:postcode": "76369", "addr:state": "TX", "addr:street_address": "8162 STATE HIGHWAY 258", "amenity": "post_box", "collection_times": "Mo-Fr 13:00", "indoor": "yes", "note": "ON 12/24 AND 12/31, THIS BOX MAY BE COLLECTED AS EARLY AS 12 NOON.", "nsi_id": "unitedstatespostalservice-a77078", "operator": "United States Postal Service", "operator:short": "USPS", "operator:type": "public", "operator:wikidata": "Q668687", "ref": "7636900003"}, "type": "Feature"}
{"geometry": {"coordinates": [-98.9232, 33.455454], "type": "Point"}, "id": "xo2An-2vVFQAypvph-Wxi6oPLn0=", "properties": {"@source_uri": "https://tools.usps.com/UspsToolsRestServices/rest/POLocator/findLocations", "@spider": "usps_collection_boxes", "addr:city": "MEGARGEL", "addr:country": "US", "addr:postcode": "76370", "addr:state": "TX", "addr:street_address": "421 FM 210", "amenity": "post_box", "collection_times": "Mo-Fr 15:45; Sa 09:45", "note": "ON 12/24 AND 12/31, THIS BOX MAY BE COLLECTED AS EARLY AS 12 NOON.", "nsi_id": "unitedstatespostalservice-a77078", "operator": "United States Postal Service", "operator:short": "USPS", "operator:type": "public", "operator:wikidata": "Q668687", "ref": "7637000000"}, "type": "Feature"}
{"geometry": {"coordinates": [-98.9232, 33.455454], "type": "Point"}, "id": "fG7r5Arrc0TVTj_EonQ75yFPSGs=", "properties": {"@source_uri": "https://tools.usps.com/UspsToolsRestServices/rest/POLocator/findLocations", "@spider": "usps_collection_boxes", "addr:city": "MEGARGEL", "addr:country": "US", "addr:postcode": "76370", "addr:state": "TX", "addr:street_address": "421 FM 210", "amenity": "post_box", "collection_times": "Mo-Fr 15:45; Sa 09:45", "indoor": "yes", "note": "ON 12/24 AND 12/31, THIS BOX MAY BE COLLECTED AS EARLY AS 12 NOON.", "nsi_id": "unitedstatespostalservice-a77078", "operator": "United States Postal Service", "operator:short": "USPS", "operator:type": "public", "operator:wikidata": "Q668687", "ref": "7637000001"}, "type": "Feature"}
{"geometry": {"coordinates": [-98.924921442, 33.450417565], "type": "Point"}, "id": "gpAOgEUs-MhsSa_9ZHXIss-_Bes=", "properties": {"@source_uri": "https://tools.usps.com/UspsToolsRestServices/rest/POLocator/findLocations", "@spider": "usps_collection_boxes", "addr:city": "MEGARGEL", "addr:country": "US", "addr:postcode": "76370", "addr:state": "TX", "addr:street_address": "421 FM 210", "amenity": "post_box", "collection_times": "Mo-Fr 15:45; Sa 09:45", "indoor": "yes", "note": "ON 12/24 AND 12/31, THIS BOX MAY BE COLLECTED AS EARLY AS 12 NOON.", "nsi_id": "unitedstatespostalservice-a77078", "operator": "United States Postal Service", "operator:short": "USPS", "operator:type": "public", "operator:wikidata": "Q668687", "ref": "7637000003"}, "type": "Feature"}
{"geometry": {"coordinates": [-99.625063, 33.449822], "type": "Point"}, "id": "SZgmQrJLy424DUAsSDM1Ft2CCkY=", "properties": {"@source_uri": "https://tools.usps.com/UspsToolsRestServices/rest/POLocator/findLocations", "@spider": "usps_collection_boxes", "addr:city": "MUNDAY", "addr:country": "US", "addr:postcode": "76371", "addr:state": "TX", "addr:street_address": "241 W B ST", "amenity": "post_box", "collection_times": "Mo-Fr 15:30; Sa 09:30", "note": "ON 12/24 AND 12/31, THIS BOX MAY BE COLLECTED AS EARLY AS 12 NOON.", "nsi_id": "unitedstatespostalservice-a77078", "operator": "United States Postal Service", "operator:short": "USPS", "operator:type": "public", "operator:wikidata": "Q668687", "ref": "7637100000"}, "type": "Feature"}
{"geometry": {"coordinates": [-99.625041, 33.449796], "type": "Point"}, "id": "nIJ34oblmBmIjiCG_PikmRC3ggQ=", "properties": {"@source_uri": "https://tools.usps.com/UspsToolsRestServices/rest/POLocator/findLocations", "@spider": "usps_collection_boxes", "addr:city": "MUNDAY", "addr:country": "US", "addr:postcode": "76371", "addr:state": "TX", "addr:street_address": "241 W B ST", "amenity": "post_box", "collection_times": "Mo-Fr 15:30; Sa 09:30", "indoor": "yes", "note": "ON 12/24 AND 12/31, THIS BOX MAY BE COLLECTED AS EARLY AS 12 NOON.", "nsi_id": "unitedstatespostalservice-a77078", "operator": "United States Postal Service", "operator:short": "USPS", "operator:type": "public", "operator:wikidata": "Q668687", "ref": "7637100001"}, "type": "Feature"}
{"geometry": {"coordinates": [-99.625341892, 33.449799435], "type": "Point"}, "id": "OwzPV1PyTTzm42WCvfKZMGHpe4Q=", "properties": {"@source_uri": "https://tools.usps.com/UspsToolsRestServices/rest/POLocator/findLocations", "@spider": "usps_collection_boxes", "addr:city": "MUNDAY", "addr:country": "US", "addr:postcode": "76371", "addr:state": "TX", "addr:street_address": "241 W B ST", "amenity": "post_box", "collection_times": "Mo-Fr 16:00", "indoor": "yes", "note": "ON 12/24 AND 12/31, THIS BOX MAY BE COLLECTED AS EARLY AS 12 NOON.", "nsi_id": "unitedstatespostalservice-a77078", "operator": "United States Postal Service", "operator:short": "USPS", "operator:type": "public", "operator:wikidata": "Q668687", "ref": "7637100002"}, "type": "Feature"}
{"geometry": {"coordinates": [-98.741185, 33.193947], "type": "Point"}, "id": "Sb-g4tBgum5hEFvxmzBkUZjo7vA=", "properties": {"@source_uri": "https://tools.usps.com/UspsToolsRestServices/rest/POLocator/findLocations", "@spider": "usps_collection_boxes", "addr:city": "NEWCASTLE", "addr:country": "US", "addr:postcode": "76372", "addr:state": "TX", "addr:street_address": "800 BROADWAY", "amenity": "post_box", "collection_times": "Mo-Fr 14:45; Sa 10:00", "note": "ON 12/24 AND 12/31, THIS BOX MAY BE COLLECTED AS EARLY AS 12 NOON.", "nsi_id": "unitedstatespostalservice-a77078", "operator": "United States Postal Service", "operator:short": "USPS", "operator:type": "public", "operator:wikidata": "Q668687", "ref": "7637200000"}, "type": "Feature"}
{"geometry": {"coordinates": [-98.9952769676, 33.265948759], "type": "Point"}, "id": "P2y0zr-gM2YPS_9_rMbTn8NYS_I=", "properties": {"@source_uri": "https://tools.usps.com/UspsToolsRestServices/rest/POLocator/findLocations", "@spider": "usps_collection_boxes", "addr:city": "NEWCASTLE", "addr:country": "US", "addr:postcode": "76372", "addr:state": "TX", "addr:street_address": "6400 HWY 79", "amenity": "post_box", "collection_times": "Mo-Sa 12:00", "nsi_id": "unitedstatespostalservice-a77078", "operator": "United States Postal Service", "operator:short": "USPS", "operator:type": "public", "operator:wikidata": "Q668687", "ref": "7637200001"}, "type": "Feature"}
{"geometry": {"coordinates": [-98.741077, 33.19392], "type": "Point"}, "id": "nbIAuO-EkSEjHTk6NbJfKYYUcJc=", "properties": {"@source_uri": "https://tools.usps.com/UspsToolsRestServices/rest/POLocator/findLocations", "@spider": "usps_collection_boxes", "addr:city": "NEWCASTLE", "addr:country": "US", "addr:postcode": "76372", "addr:state": "TX", "addr:street_address": "800 BROADWAY", "amenity": "post_box", "collection_times": "Mo-Fr 14:45; Sa 10:00", "indoor": "yes", "note": "ON 12/24 AND 12/31, THIS BOX MAY BE COLLECTED AS EARLY AS 12 NOON.", "nsi_id": "unitedstatespostalservice-a77078", "operator": "United States Postal Service", "operator:short": "USPS", "operator:type": "public", "operator:wikidata": "Q668687", "ref": "7637200002"}, "type": "Feature"}
{"geometry": {"coordinates": [-98.741151823, 33.193985323], "type": "Point"}, "id": "fr7F2AkJvsMsG4SRod6BYkpG9N0=", "properties": {"@source_uri": "https://tools.usps.com/UspsToolsRestServices/rest/POLocator/findLocations", "@spider": "usps_collection_boxes", "addr:city": "NEWCASTLE", "addr:country": "US", "addr:postcode": "76372", "addr:state": "TX", "addr:street_address": "800 BROADWAY", "amenity": "post_box", "collection_times": "Mo-Fr 15:00; Sa 10:00", "indoor": "yes", "note": "ON 12/24 AND 12/31, THIS BOX MAY BE COLLECTED AS EARLY AS 12 NOON.", "nsi_id": "unitedstatespostalservice-a77078", "operator": "United States Postal Service", "operator:short": "USPS", "operator:type": "public", "operator:wikidata": "Q668687", "ref": "7637200004"}, "type": "Feature"}
{"geometry": {"coordinates": [-99.141784, 34.12995], "type": "Point"}, "id": "PYUrEJJsp54vjkYG7qdAOESW2wY=", "properties": {"@source_uri": "https://tools.usps.com/UspsToolsRestServices/rest/POLocator/findLocations", "@spider": "usps_collection_boxes", "addr:city": "OKLAUNION", "addr:country": "US", "addr:postcode": "76373", "addr:state": "TX", "addr:street_address": "9172 1ST ST", "amenity": "post_box", "collection_times": "Mo-Fr 12:30; Sa 10:15", "note": "ON 12/24 AND 12/31, THIS BOX MAY BE COLLECTED AS EARLY AS 12 NOON.", "nsi_id": "unitedstatespostalservice-a77078", "operator": "United States Postal Service", "operator:short": "USPS", "operator:type": "public", "operator:wikidata": "Q668687", "ref": "7637300000"}, "type": "Feature"}
{"geometry": {"coordinates": [-99.141751, 34.129908], "type": "Point"}, "id": "cTowWhVaoxYe2N3aDOOp_072-Jc=", "properties": {"@source_uri": "https://tools.usps.com/UspsToolsRestServices/rest/POLocator/findLocations", "@spider": "usps_collection_boxes", "addr:city": "OKLAUNION", "addr:country": "US", "addr:postcode": "76373", "addr:state": "TX", "addr:street_address": "9172 1ST ST", "amenity": "post_box", "collection_times": "Mo-Fr 12:30; Sa 10:15", "indoor": "yes", "note": "ON 12/24 AND 12/31, THIS BOX MAY BE COLLECTED AS EARLY AS 12 NOON.", "nsi_id": "unitedstatespostalservice-a77078", "operator": "United States Postal Service", "operator:short": "USPS", "operator:type": "public", "operator:wikidata": "Q668687", "ref": "7637300001"}, "type": "Feature"}
{"geometry": {"coordinates": [-99.141751, 34.129908], "type": "Point"}, "id": "4aKEIanHKVgL3z_HN_djzkw6ReQ=", "properties": {"@source_uri": "https://tools.usps.com/UspsToolsRestServices/rest/POLocator/findLocations", "@spider": "usps_collection_boxes", "addr:city": "OKLAUNION", "addr:country": "US", "addr:postcode": "76373", "addr:state": "TX", "addr:street_address": "9172 1ST ST", "amenity": "post_box", "collection_times": "Mo-Fr 12:30; Sa 10:15", "indoor": "yes", "note": "ON 12/24 AND 12/31, THIS BOX MAY BE COLLECTED AS EARLY AS 12 NOON.", "nsi_id": "unitedstatespostalservice-a77078", "operator": "United States Postal Service", "operator:short": "USPS", "operator:type": "public", "operator:wikidata": "Q668687", "ref": "7637300002"}, "type": "Feature"}
{"geometry": {"coordinates": [-99.141783171, 34.129961665], "type": "Point"}, "id": "mWtrTRsbCcRYPkBintdlCttatUc=", "properties": {"@source_uri": "https://tools.usps.com/UspsToolsRestServices/rest/POLocator/findLocations", "@spider": "usps_collection_boxes", "addr:city": "OKLAUNION", "addr:country": "US", "addr:postcode": "76373", "addr:state": "TX", "addr:street_address": "9172 1ST ST", "amenity": "post_box", "collection_times": "Mo-Sa 12:30", "indoor": "yes", "note": "ON 12/24 AND 12/31, THIS BOX MAY BE COLLECTED AS EARLY AS 12 NOON.", "nsi_id": "unitedstatespostalservice-a77078", "operator": "United States Postal Service", "operator:short": "USPS", "operator:type": "public", "operator:wikidata": "Q668687", "ref": "7637300003"}, "type": "Feature"}
{"geometry": {"coordinates": [-98.7514159, 33.371791], "type": "Point"}, "id": "CvqlvplgoTreP1LYb_O5Ve9UdG4=", "properties": {"@source_uri": "https://tools.usps.com/UspsToolsRestServices/rest/POLocator/findLocations", "@spider": "usps_collection_boxes", "addr:city": "OLNEY", "addr:country": "US", "addr:postcode": "76374", "addr:state": "TX", "addr:street_address": "301 E ELM ST", "amenity": "post_box", "collection_times": "Mo-Fr 16:15; Sa 13:30", "note": "ON 12/24 AND 12/31, THIS BOX MAY BE COLLECTED AS EARLY AS 12 NOON.", "nsi_id": "unitedstatespostalservice-a77078", "operator": "United States Postal Service", "operator:short": "USPS", "operator:type": "public", "operator:wikidata": "Q668687", "ref": "7637400001"}, "type": "Feature"}
{"geometry": {"coordinates": [-98.7511385, 33.371942], "type": "Point"}, "id": "1qYJ0UAGRBTPde9_SpdNT-WTkb0=", "properties": {"@source_uri": "https://tools.usps.com/UspsToolsRestServices/rest/POLocator/findLocations", "@spider": "usps_collection_boxes", "addr:city": "OLNEY", "addr:country": "US", "addr:postcode": "76374", "addr:state": "TX", "addr:street_address": "301 E ELM ST", "amenity": "post_box", "collection_times": "Mo-Fr 16:15; Sa 13:30", "indoor": "yes", "note": "ON 12/24 AND 12/31, THIS BOX MAY BE COLLECTED AS EARLY AS 12 NOON.", "nsi_id": "unitedstatespostalservice-a77078", "operator": "United States Postal Service", "operator:short": "USPS", "operator:type": "public", "operator:wikidata": "Q668687", "ref": "7637400004"}, "type": "Feature"}
{"geometry": {"coordinates": [-98.751462878, 33.371689272], "type": "Point"}, "id": "CVX7KYxSBLNinPlEGs275ssHOwo=", "properties": {"@source_uri": "https://tools.usps.com/UspsToolsRestServices/rest/POLocator/findLocations", "@spider": "usps_collection_boxes", "addr:city": "OLNEY", "addr:country": "US", "addr:postcode": "76374", "addr:state": "TX", "addr:street_address": "301 E ELM ST", "amenity": "post_box", "collection_times": "Mo-Fr 16:00", "indoor": "yes", "note": "ON 12/24 AND 12/31, THIS BOX MAY BE COLLECTED AS EARLY AS 12 NOON.", "nsi_id": "unitedstatespostalservice-a77078", "operator": "United States Postal Service", "operator:short": "USPS", "operator:type": "public", "operator:wikidata": "Q668687", "ref": "7637400006"}, "type": "Feature"}
{"geometry": {"coordinates": [-98.232966, 34.013003], "type": "Point"}, "id": "RK-kgrjLnw2g4VJdMy2RaquUDnc=", "properties": {"@source_uri": "https://tools.usps.com/UspsToolsRestServices/rest/POLocator/findLocations", "@spider": "usps_collection_boxes", "addr:city": "PETROLIA", "addr:country": "US", "addr:postcode": "76377", "addr:state": "TX", "addr:street_address": "108 W BENTON ST", "amenity": "post_box", "collection_times": "Mo-Fr 15:30; Sa 09:00", "note": "ON 12/24 AND 12/31, THIS BOX MAY BE COLLECTED AS EARLY AS 12 NOON.", "nsi_id": "unitedstatespostalservice-a77078", "operator": "United States Postal Service", "operator:short": "USPS", "operator:type": "public", "operator:wikidata": "Q668687", "ref": "7637700000"}, "type": "Feature"}
{"geometry": {"coordinates": [-98.232881, 34.01304], "type": "Point"}, "id": "QsTgLLYocComGzMWVE-uvnwi_-w=", "properties": {"@source_uri": "https://tools.usps.com/UspsToolsRestServices/rest/POLocator/findLocations", "@spider": "usps_collection_boxes", "addr:city": "PETROLIA", "addr:country": "US", "addr:postcode": "76377", "addr:state": "TX", "addr:street_address": "108 W BENTON ST", "amenity": "post_box", "collection_times": "Mo-Fr 15:30; Sa 09:00", "indoor": "yes", "note": "ON 12/24 AND 12/31, THIS BOX MAY BE COLLECTED AS EARLY AS 12 NOON.", "nsi_id": "unitedstatespostalservice-a77078", "operator": "United States Postal Service", "operator:short": "USPS", "operator:type": "public", "operator:wikidata": "Q668687", "ref": "7637700001"}, "type": "Feature"}
{"geometry": {"coordinates": [-98.233263137, 34.012724143], "type": "Point"}, "id": "Z662BUpaMf-s_A0OhH7D_oafxdQ=", "properties": {"@source_uri": "https://tools.usps.com/UspsToolsRestServices/rest/POLocator/findLocations", "@spider": "usps_collection_boxes", "addr:city": "PETROLIA", "addr:country": "US", "addr:postcode": "76377", "addr:state": "TX", "addr:street_address": "108 W BENTON ST", "amenity": "post_box", "collection_times": "Mo-Fr 15:30; Sa 09:30", "indoor": "yes", "note": "ON 12/24 AND 12/31, THIS BOX MAY BE COLLECTED AS EARLY AS 12 NOON.", "nsi_id": "unitedstatespostalservice-a77078", "operator": "United States Postal Service", "operator:short": "USPS", "operator:type": "public", "operator:wikidata": "Q668687", "ref": "7637700003"}, "type": "Feature"}
{"geometry": {"coordinates": [-98.466648, 33.66219], "type": "Point"}, "id": "MTAqYrYT6i9bWjXNV9Lt9dZYRdI=", "properties": {"@source_uri": "https://tools.usps.com/UspsToolsRestServices/rest/POLocator/findLocations", "@spider": "usps_collection_boxes", "addr:city": "SCOTLAND", "addr:country": "US", "addr:postcode": "76379", "addr:state": "TX", "addr:street_address": "562 7TH ST", "amenity": "post_box", "collection_times": "Mo-Fr 16:00; Sa 11:30", "note": "ON 12/24 AND 12/31, THIS BOX MAY BE COLLECTED AS EARLY AS 12 NOON.", "nsi_id": "unitedstatespostalservice-a77078", "operator": "United States Postal Service", "operator:short": "USPS", "operator:type": "public", "operator:wikidata": "Q668687", "ref": "7637900000"}, "type": "Feature"}
{"geometry": {"coordinates": [-98.466648, 33.66219], "type": "Point"}, "id": "Hf9upHRJSLv95t0KNEa57cE1yMQ=", "properties": {"@source_uri": "https://tools.usps.com/UspsToolsRestServices/rest/POLocator/findLocations", "@spider": "usps_collection_boxes", "addr:city": "SCOTLAND", "addr:country": "US", "addr:postcode": "76379", "addr:state": "TX", "addr:street_address": "562 7TH ST", "amenity": "post_box", "collection_times": "Mo-Fr 16:00; Sa 11:30", "indoor": "yes", "note": "ON 12/24 AND 12/31, THIS BOX MAY BE COLLECTED AS EARLY AS 12 NOON.", "nsi_id": "unitedstatespostalservice-a77078", "operator": "United States Postal Service", "operator:short": "USPS", "operator:type": "public", "operator:wikidata": "Q668687", "ref": "7637900001"}, "type": "Feature"}
{"geometry": {"coordinates": [-98.470313558, 33.662376713], "type": "Point"}, "id": "obk06m7_xrqXfDvBNNiXdravDJg=", "properties": {"@source_uri": "https://tools.usps.com/UspsToolsRestServices/rest/POLocator/findLocations", "@spider": "usps_collection_boxes", "addr:city": "SCOTLAND", "addr:country": "US", "addr:postcode": "76379", "addr:state": "TX", "addr:street_address": "562 7TH ST", "amenity": "post_box", "collection_times": "Mo-Fr 16:00; Sa 12:00", "indoor": "yes", "note": "ON 12/24 AND 12/31, THIS BOX MAY BE COLLECTED AS EARLY AS 12 NOON.", "nsi_id": "unitedstatespostalservice-a77078", "operator": "United States Postal Service", "operator:short": "USPS", "operator:type": "public", "operator:wikidata": "Q668687", "ref": "7637900003"}, "type": "Feature"}
{"geometry": {"coordinates": [-99.2614811, 33.589546], "type": "Point"}, "id": "3vawbOPlIED4pvO3-88YEpf7uE0=", "properties": {"@source_uri": "https://tools.usps.com/UspsToolsRestServices/rest/POLocator/findLocations", "@spider": "usps_collection_boxes", "addr:city": "SEYMOUR", "addr:country": "US", "addr:postcode": "76380", "addr:state": "TX", "addr:street_address": "210 N WASHINGTON ST", "amenity": "post_box", "collection_times": "Mo-Fr 16:30; Sa 13:00", "note": "ON 12/24 AND 12/31, THIS BOX MAY BE COLLECTED AS EARLY AS 12 NOON.", "nsi_id": "unitedstatespostalservice-a77078", "operator": "United States Postal Service", "operator:short": "USPS", "operator:type": "public", "operator:wikidata": "Q668687", "ref": "7638000000"}, "type": "Feature"}
{"geometry": {"coordinates": [-99.2613376, 33.589614], "type": "Point"}, "id": "dnXXK6eAZI-aTX75_EaybJr4XiU=", "properties": {"@source_uri": "https://tools.usps.com/UspsToolsRestServices/rest/POLocator/findLocations", "@spider": "usps_collection_boxes", "addr:city": "SEYMOUR", "addr:country": "US", "addr:postcode": "76380", "addr:state": "TX", "addr:street_address": "210 N WASHINGTON ST", "amenity": "post_box", "collection_times": "Mo-Fr 16:30; Sa 13:00", "indoor": "yes", "note": "ON 12/24 AND 12/31, THIS BOX MAY BE COLLECTED AS EARLY AS 12 NOON.", "nsi_id": "unitedstatespostalservice-a77078", "operator": "United States Postal Service", "operator:short": "USPS", "operator:type": "public", "operator:wikidata": "Q668687", "ref": "7638000002"}, "type": "Feature"}
{"geometry": {"coordinates": [-99.261548205, 33.589186414], "type": "Point"}, "id": "0wy4HqOXaycbPaoIyZCI8GhDvvA=", "properties": {"@source_uri": "https://tools.usps.com/UspsToolsRestServices/rest/POLocator/findLocations", "@spider": "usps_collection_boxes", "addr:city": "SEYMOUR", "addr:country": "US", "addr:postcode": "76380", "addr:state": "TX", "addr:street_address": "210 N WASHINGTON ST", "amenity": "post_box", "collection_times": "Mo-Fr 16:30", "indoor": "yes", "note": "ON 12/24 AND 12/31, THIS BOX MAY BE COLLECTED AS EARLY AS 12 NOON.", "nsi_id": "unitedstatespostalservice-a77078", "operator": "United States Postal Service", "operator:short": "USPS", "operator:type": "public", "operator:wikidata": "Q668687", "ref": "7638000011"}, "type": "Feature"}
{"geometry": {"coordinates": [-99.28335, 34.1545], "type": "Point"}, "id": "ToxWMshuoOweETLZI1-cIlJlHlc=", "properties": {"@source_uri": "https://tools.usps.com/UspsToolsRestServices/rest/POLocator/findLocations", "@spider": "usps_collection_boxes", "addr:city": "VERNON", "addr:country": "US", "addr:postcode": "76384", "addr:state": "TX", "addr:street_address": "1600 CUMBERLAND ST", "amenity": "post_box", "collection_times": "Mo-Fr 16:15; Sa 15:30", "note": "ON 12/24 AND 12/31, THIS BOX MAY BE COLLECTED AS EARLY AS 12 NOON.", "nsi_id": "unitedstatespostalservice-a77078", "operator": "United States Postal Service", "operator:short": "USPS", "operator:type": "public", "operator:wikidata": "Q668687", "ref": "7638400002"}, "type": "Feature"}
{"geometry": {"coordinates": [-99.283389, 34.152788], "type": "Point"}, "id": "8KbhA-Fq2XKuJWyqgPQ3tCLPadA=", "properties": {"@source_uri": "https://tools.usps.com/UspsToolsRestServices/rest/POLocator/findLocations", "@spider": "usps_collection_boxes", "addr:city": "VERNON", "addr:country": "US", "addr:postcode": "76384", "addr:state": "TX", "addr:street_address": "1700 WILBARGER ST", "amenity": "post_box", "collection_times": "Mo-Fr 14:30", "note": "ON 12/24 AND 12/31, THIS BOX MAY BE COLLECTED AS EARLY AS 12 NOON.", "nsi_id": "unitedstatespostalservice-a77078", "operator": "United States Postal Service", "operator:short": "USPS", "operator:type": "public", "operator:wikidata": "Q668687", "ref": "7638400005"}, "type": "Feature"}
{"geometry": {"coordinates": [-99.283428, 34.154563], "type": "Point"}, "id": "BzZO_twYU1HOFKI1mn_R4fOYMMA=", "properties": {"@source_uri": "https://tools.usps.com/UspsToolsRestServices/rest/POLocator/findLocations", "@spider": "usps_collection_boxes", "addr:city": "VERNON", "addr:country": "US", "addr:postcode": "76384", "addr:state": "TX", "addr:street_address": "1701 TEXAS ST", "amenity": "post_box", "collection_times": "Mo-Fr 16:15; Sa 15:30", "indoor": "yes", "note": "ON 12/24 AND 12/31, THIS BOX MAY BE COLLECTED AS EARLY AS 12 NOON.", "nsi_id": "unitedstatespostalservice-a77078", "operator": "United States Postal Service", "operator:short": "USPS", "operator:type": "public", "operator:wikidata": "Q668687", "ref": "7638400018"}, "type": "Feature"}
{"geometry": {"coordinates": [-99.283411587, 34.154543913], "type": "Point"}, "id": "7NkF_2g1UtdRFO7sHyYqHP8FSok=", "properties": {"@source_uri": "https://tools.usps.com/UspsToolsRestServices/rest/POLocator/findLocations", "@spider": "usps_collection_boxes", "addr:city": "VERNON", "addr:country": "US", "addr:postcode": "76384", "addr:state": "TX", "addr:street_address": "1701 TEXAS ST", "amenity": "post_box", "collection_times": "Mo-Fr 16:00", "indoor": "yes", "note": "ON 12/24 AND 12/31, THIS BOX MAY BE COLLECTED AS EARLY AS 12 NOON.", "nsi_id": "unitedstatespostalservice-a77078", "operator": "United States Postal Service", "operator:short": "USPS", "operator:type": "public", "operator:wikidata": "Q668687", "ref": "7638400023"}, "type": "Feature"}
{"geometry": {"coordinates": [-99.3117769711, 34.1542929849], "type": "Point"}, "id": "Gz6IlS2y2IMuGaZjkYZUKzzwl1Q=", "properties": {"@source_uri": "https://tools.usps.com/UspsToolsRestServices/rest/POLocator/findLocations", "@spider": "usps_collection_boxes", "addr:city": "VERNON", "addr:country": "US", "addr:postcode": "76384", "addr:state": "TX", "addr:street_address": "1630 HILLCREST DR", "amenity": "post_box", "collection_times": "Mo-Sa 13:00", "note": "ON 12/24 AND 12/31, THIS BOX MAY BE COLLECTED AS EARLY AS 12 NOON.", "nsi_id": "unitedstatespostalservice-a77078", "operator": "United States Postal Service", "operator:short": "USPS", "operator:type": "public", "operator:wikidata": "Q668687", "ref": "7638400024"}, "type": "Feature"}
{"geometry": {"coordinates": [-99.672664, 33.322645], "type": "Point"}, "id": "yUDA6YmCUY012QtgqXM3_HDyRk0=", "properties": {"@source_uri": "https://tools.usps.com/UspsToolsRestServices/rest/POLocator/findLocations", "@spider": "usps_collection_boxes", "addr:city": "WEINERT", "addr:country": "US", "addr:postcode": "76388", "addr:state": "TX", "addr:street_address": "105 S BREUSTEDT ST", "amenity": "post_box", "collection_times": "Mo-Fr 15:00; Sa 10:15", "note": "ON 12/24 AND 12/31, THIS BOX MAY BE COLLECTED AS EARLY AS 12 NOON.", "nsi_id": "unitedstatespostalservice-a77078", "operator": "United States Postal Service", "operator:short": "USPS", "operator:type": "public", "operator:wikidata": "Q668687", "ref": "7638800000"}, "type": "Feature"}
{"geometry": {"coordinates": [-99.672631, 33.322727], "type": "Point"}, "id": "soeyXXiQ5YOhnztPJbXnu8D5Ols=", "properties": {"@source_uri": "https://tools.usps.com/UspsToolsRestServices/rest/POLocator/findLocations", "@spider": "usps_collection_boxes", "addr:city": "WEINERT", "addr:country": "US", "addr:postcode": "76388", "addr:state": "TX", "addr:street_address": "105 S BREUSTEDT ST", "amenity": "post_box", "collection_times": "Mo-Fr 15:00; Sa 10:15", "indoor": "yes", "note": "ON 12/24 AND 12/31, THIS BOX MAY BE COLLECTED AS EARLY AS 12 NOON.", "nsi_id": "unitedstatespostalservice-a77078", "operator": "United States Postal Service", "operator:short": "USPS", "operator:type": "public", "operator:wikidata": "Q668687", "ref": "7638800001"}, "type": "Feature"}
{"geometry": {"coordinates": [-99.672695365, 33.321789283], "type": "Point"}, "id": "gKiz6ME1asjlVxnoD74WiLDgyYI=", "properties": {"@source_uri": "https://tools.usps.com/UspsToolsRestServices/rest/POLocator/findLocations", "@spider": "usps_collection_boxes", "addr:city": "WEINERT", "addr:country": "US", "addr:postcode": "76388", "addr:state": "TX", "addr:street_address": "105 S BREUSTEDT ST", "amenity": "post_box", "collection_times": "Mo-Fr 15:00; Sa 10:15", "indoor": "yes", "note": "ON 12/24 AND 12/31, THIS BOX MAY BE COLLECTED AS EARLY AS 12 NOON.", "nsi_id": "unitedstatespostalservice-a77078", "operator": "United States Postal Service", "operator:short": "USPS", "operator:type": "public", "operator:wikidata": "Q668687", "ref": "7638800002"}, "type": "Feature"}
{"geometry": {"coordinates": [-98.43795, 33.573939], "type": "Point"}, "id": "teC0Z5cpqtFM2lwgxnbO5GmwG-0=", "properties": {"@source_uri": "https://tools.usps.com/UspsToolsRestServices/rest/POLocator/findLocations", "@spider": "usps_collection_boxes", "addr:city": "WINDTHORST", "addr:country": "US", "addr:postcode": "76389", "addr:state": "TX", "addr:street_address": "18504 US HIGHWAY 281", "amenity": "post_box", "collection_times": "Mo-Fr 15:45; Sa 11:00", "note": "ON 12/24 AND 12/31, THIS BOX MAY BE COLLECTED AS EARLY AS 12 NOON.", "nsi_id": "unitedstatespostalservice-a77078", "operator": "United States Postal Service", "operator:short": "USPS", "operator:type": "public", "operator:wikidata": "Q668687", "ref": "7638900000"}, "type": "Feature"}
{"geometry": {"coordinates": [-98.437893, 33.573992], "type": "Point"}, "id": "xlMouqQ2W2XhVH53nhwSzjEnT2c=", "properties": {"@source_uri": "https://tools.usps.com/UspsToolsRestServices/rest/POLocator/findLocations", "@spider": "usps_collection_boxes", "addr:city": "WINDTHORST", "addr:country": "US", "addr:postcode": "76389", "addr:state": "TX", "addr:street_address": "18504 US HIGHWAY 281", "amenity": "post_box", "collection_times": "Mo-Fr 15:45; Sa 11:00", "indoor": "yes", "note": "ON 12/24 AND 12/31, THIS BOX MAY BE COLLECTED AS EARLY AS 12 NOON.", "nsi_id": "unitedstatespostalservice-a77078", "operator": "United States Postal Service", "operator:short": "USPS", "operator:type": "public", "operator:wikidata": "Q668687", "ref": "7638900002"}, "type": "Feature"}
{"geometry": {"coordinates": [-98.437893, 33.573992], "type": "Point"}, "id": "OXm3MkGbZ8a1JcEzfNtPJvSbakg=", "properties": {"@source_uri": "https://tools.usps.com/UspsToolsRestServices/rest/POLocator/findLocations", "@spider": "usps_collection_boxes", "addr:city": "WINDTHORST", "addr:country": "US", "addr:postcode": "76389", "addr:state": "TX", "addr:street_address": "18504 US HIGHWAY 281", "amenity": "post_box", "collection_times": "Mo-Fr 15:45; Sa 11:00", "indoor": "yes", "note": "ON 12/24 AND 12/31, THIS BOX MAY BE COLLECTED AS EARLY AS 12 NOON.", "nsi_id": "unitedstatespostalservice-a77078", "operator": "United States Postal Service", "operator:short": "USPS", "operator:type": "public", "operator:wikidata": "Q668687", "ref": "7638900003"}, "type": "Feature"}
{"geometry": {"coordinates": [-98.436758599, 33.576867711], "type": "Point"}, "id": "zjjNKHtpSH9Ovu0Fin2Ih-c1xMg=", "properties": {"@source_uri": "https://tools.usps.com/UspsToolsRestServices/rest/POLocator/findLocations", "@spider": "usps_collection_boxes", "addr:city": "WINDTHORST", "addr:country": "US", "addr:postcode": "76389", "addr:state": "TX", "addr:street_address": "18504 US HIGHWAY 281", "amenity": "post_box", "collection_times": "Mo-Fr 15:45; Sa 11:00", "indoor": "yes", "note": "ON 12/24 AND 12/31, THIS BOX MAY BE COLLECTED AS EARLY AS 12 NOON.", "nsi_id": "unitedstatespostalservice-a77078", "operator": "United States Postal Service", "operator:short": "USPS", "operator:type": "public", "operator:wikidata": "Q668687", "ref": "7638900004"}, "type": "Feature"}
