{"geometry": {"coordinates": [-97.3417808, 31.098407], "type": "Point"}, "id": "KHPklQP8kXv7ts1-FYG_nWdRVqA=", "properties": {"@spider": "usps_collection_boxes", "addr:city": "TEMPLE", "addr:country": "US", "addr:full": "100 W ADAMS AVE", "addr:postcode": "76501", "addr:state": "TX", "brand": "USPS", "collection_times": "Mo-Fr 13:30; Sa 14:00", "name": "USPS COLLECTION BOX - BLUE BOX", "note": "ON 12/24 AND 12/31, THIS BOX MAY BE COLLECTED AS EARLY AS 12 NOON.", "ref": "7650100030"}, "type": "Feature"}
{"geometry": {"coordinates": [-97.3298755, 31.090182], "type": "Point"}, "id": "eO9ChIYkmeWrHwYCvykIAecS9rA=", "properties": {"@spider": "usps_collection_boxes", "addr:city": "TEMPLE", "addr:country": "US", "addr:full": "302 S 22ND ST", "addr:postcode": "76501", "addr:state": "TX", "brand": "USPS", "collection_times": "Mo-Sa 14:00", "name": "USPS COLLECTION BOX - BLUE BOX", "note": "ON 12/24 AND 12/31, THIS BOX MAY BE COLLECTED AS EARLY AS 12 NOON.", "ref": "7650100045"}, "type": "Feature"}
{"geometry": {"coordinates": [-97.339511, 31.101099], "type": "Point"}, "id": "JOGwFbQbcrXLzwnPRXBbUipgRMI=", "properties": {"@spider": "usps_collection_boxes", "addr:city": "TEMPLE", "addr:country": "US", "addr:full": "401 N MAIN ST", "addr:postcode": "76501", "addr:state": "TX", "brand": "USPS", "collection_times": "Mo-Sa 17:00", "name": "USPS COLLECTION BOX - BLUE BOX", "note": "ON 12/24 AND 12/31, THIS BOX MAY BE COLLECTED AS EARLY AS 12 NOON.", "ref": "7650100084"}, "type": "Feature"}
{"geometry": {"coordinates": [-97.339511, 31.101099], "type": "Point"}, "id": "6NDAt3XzUorKmetQtLFuJRfvOro=", "properties": {"@spider": "usps_collection_boxes", "addr:city": "TEMPLE", "addr:country": "US", "addr:full": "401 N MAIN ST", "addr:postcode": "76501", "addr:state": "TX", "brand": "USPS", "collection_times": "Mo-Sa 17:00", "name": "USPS COLLECTION BOX - PO LOBBY", "note": "ON 12/24 AND 12/31, THIS BOX MAY BE COLLECTED AS EARLY AS 12 NOON.", "ref": "7650100117"}, "type": "Feature"}
{"geometry": {"coordinates": [-97.3446611, 31.127203], "type": "Point"}, "id": "XVDzl9WAFBYkbloMbf8wSpRlieI=", "properties": {"@spider": "usps_collection_boxes", "addr:city": "TEMPLE", "addr:country": "US", "addr:full": "1307 INDUSTRIAL BLVD", "addr:postcode": "76501", "addr:state": "TX", "brand": "USPS", "collection_times": "Mo-Fr 16:20; Sa 15:45", "name": "USPS COLLECTION BOX - BLUE BOX", "note": "ON 12/24 AND 12/31, THIS BOX MAY BE COLLECTED AS EARLY AS 12 NOON.", "ref": "7650100131"}, "type": "Feature"}
{"geometry": {"coordinates": [-97.341639, 31.097014], "type": "Point"}, "id": "AoShFIDbfVO4Mvk3RQrNL-bjvQ0=", "properties": {"@spider": "usps_collection_boxes", "addr:city": "TEMPLE", "addr:country": "US", "addr:full": "2 N MAIN ST", "addr:postcode": "76501", "addr:state": "TX", "brand": "USPS", "collection_times": "Mo-Fr 13:00; Sa 14:00", "name": "USPS COLLECTION BOX - BLUE BOX", "note": "ON 12/24 AND 12/31, THIS BOX MAY BE COLLECTED AS EARLY AS 12 NOON.", "ref": "7650100132"}, "type": "Feature"}
{"geometry": {"coordinates": [-97.339511644, 31.101095914], "type": "Point"}, "id": "_e-axxN4Z5YuSUoFpaoZU_vBIT8=", "properties": {"@spider": "usps_collection_boxes", "addr:city": "TEMPLE", "addr:country": "US", "addr:full": "401 N MAIN ST", "addr:postcode": "76501", "addr:state": "TX", "brand": "USPS", "collection_times": "Mo-Fr 16:30", "name": "USPS COLLECTION BOX - PO LOBBY", "note": "ON 12/24 AND 12/31, THIS BOX MAY BE COLLECTED AS EARLY AS 12 NOON.", "ref": "7650100138"}, "type": "Feature"}
{"geometry": {"coordinates": [-97.3844883, 31.076856], "type": "Point"}, "id": "cLY0xTFtEcY7XHRoZpu3_x5CKjg=", "properties": {"@spider": "usps_collection_boxes", "addr:city": "TEMPLE", "addr:country": "US", "addr:full": "3001 THORNTON LN", "addr:postcode": "76502", "addr:state": "TX", "brand": "USPS", "collection_times": "Mo-Fr 14:30; Sa 15:00", "name": "USPS COLLECTION BOX - BLUE BOX", "note": "ON 12/24 AND 12/31, THIS BOX MAY BE COLLECTED AS EARLY AS 12 NOON.", "ref": "7650200000"}, "type": "Feature"}
{"geometry": {"coordinates": [-97.3718949, 31.067573], "type": "Point"}, "id": "tIdhwIDClDdBlOYZMCq9pS39D38=", "properties": {"@spider": "usps_collection_boxes", "addr:city": "TEMPLE", "addr:country": "US", "addr:full": "3314 S 31ST ST", "addr:postcode": "76502", "addr:state": "TX", "brand": "USPS", "collection_times": "Mo-Fr 14:30; Sa 15:15", "name": "USPS COLLECTION BOX - BLUE BOX", "note": "ON 12/24 AND 12/31, THIS BOX MAY BE COLLECTED AS EARLY AS 12 NOON.", "ref": "7650200003"}, "type": "Feature"}
{"geometry": {"coordinates": [-97.371281, 31.06511], "type": "Point"}, "id": "2BazBk1RrHIOcEDAOCEKZEcHZUs=", "properties": {"@spider": "usps_collection_boxes", "addr:city": "TEMPLE", "addr:country": "US", "addr:full": "3620 S 31ST ST", "addr:postcode": "76502", "addr:state": "TX", "brand": "USPS", "collection_times": "Mo-Fr 14:30; Sa 15:15", "name": "USPS COLLECTION BOX - BLUE BOX", "note": "ON 12/24 AND 12/31, THIS BOX MAY BE COLLECTED AS EARLY AS 12 NOON.", "ref": "7650200007"}, "type": "Feature"}
{"geometry": {"coordinates": [-97.3703199, 31.073272], "type": "Point"}, "id": "xha-0_03wk56woa6dmbtpyfd49A=", "properties": {"@spider": "usps_collection_boxes", "addr:city": "TEMPLE", "addr:country": "US", "addr:full": "3002 S 31ST ST", "addr:postcode": "76502", "addr:state": "TX", "brand": "USPS", "collection_times": "Mo-Fr 14:30; Sa 15:00", "name": "USPS COLLECTION BOX - BLUE BOX", "note": "ON 12/24 AND 12/31, THIS BOX MAY BE COLLECTED AS EARLY AS 12 NOON.", "ref": "7650200009"}, "type": "Feature"}
{"geometry": {"coordinates": [-97.3703211, 31.073273], "type": "Point"}, "id": "PTdu7MQAzl_zvoWtBNGLKZvhrO8=", "properties": {"@spider": "usps_collection_boxes", "addr:city": "TEMPLE", "addr:country": "US", "addr:full": "3002 S 31ST ST", "addr:postcode": "76502", "addr:state": "TX", "brand": "USPS", "collection_times": "Mo-Fr 14:30; Sa 15:00", "name": "USPS COLLECTION BOX - BLUE BOX", "note": "ON 12/24 AND 12/31, THIS BOX MAY BE COLLECTED AS EARLY AS 12 NOON.", "ref": "7650200010"}, "type": "Feature"}
{"geometry": {"coordinates": [-97.3874657, 31.087428], "type": "Point"}, "id": "Whc9HBNcHrqUE6Ns1zoqJh8G-AU=", "properties": {"@spider": "usps_collection_boxes", "addr:city": "TEMPLE", "addr:country": "US", "addr:full": "2005 BIRDCREEK DR", "addr:postcode": "76502", "addr:state": "TX", "brand": "USPS", "collection_times": "Mo-Fr 17:00; Sa 16:15", "name": "USPS COLLECTION BOX - BLUE BOX", "note": "ON 12/24 AND 12/31, THIS BOX MAY BE COLLECTED AS EARLY AS 12 NOON.", "ref": "7650200016"}, "type": "Feature"}
{"geometry": {"coordinates": [-97.3874499, 31.087427], "type": "Point"}, "id": "xji9XeIjZntfGzM48EwFTun-29g=", "properties": {"@spider": "usps_collection_boxes", "addr:city": "TEMPLE", "addr:country": "US", "addr:full": "2005 BIRDCREEK DR", "addr:postcode": "76502", "addr:state": "TX", "brand": "USPS", "collection_times": "Mo-Fr 17:00; Sa 16:15", "name": "USPS COLLECTION BOX - BLUE BOX", "note": "ON 12/24 AND 12/31, THIS BOX MAY BE COLLECTED AS EARLY AS 12 NOON.", "ref": "7650200017"}, "type": "Feature"}
{"geometry": {"coordinates": [-97.3974651, 31.085494], "type": "Point"}, "id": "TS6ADUX8_M7ZBKTSmvtDaSZjuk0=", "properties": {"@spider": "usps_collection_boxes", "addr:city": "TEMPLE", "addr:country": "US", "addr:full": "4501 S GENERAL BRUCE DR", "addr:postcode": "76502", "addr:state": "TX", "brand": "USPS", "collection_times": "Mo-Fr 16:30; Sa 16:00", "name": "USPS COLLECTION BOX - BLUE BOX", "note": "ON 12/24 AND 12/31, THIS BOX MAY BE COLLECTED AS EARLY AS 12 NOON.", "ref": "7650200022"}, "type": "Feature"}
{"geometry": {"coordinates": [-97.4107956, 31.080663], "type": "Point"}, "id": "ErYxHPCYJVby3VSijGqWnjPX0hs=", "properties": {"@spider": "usps_collection_boxes", "addr:city": "TEMPLE", "addr:country": "US", "addr:full": "4501 S GENERAL BRUCE DR", "addr:postcode": "76502", "addr:state": "TX", "brand": "USPS", "collection_times": "Mo-Fr 16:30; Sa 16:00", "name": "USPS COLLECTION BOX - BLUE BOX", "note": "ON 12/24 AND 12/31, THIS BOX MAY BE COLLECTED AS EARLY AS 12 NOON.", "ref": "7650200023"}, "type": "Feature"}
{"geometry": {"coordinates": [-97.3753281, 31.073056], "type": "Point"}, "id": "JQetC9mWltPWXIVFfXAv3Y5iVo8=", "properties": {"@spider": "usps_collection_boxes", "addr:city": "TEMPLE", "addr:country": "US", "addr:full": "1901 SW H K DODGEN LOOP", "addr:postcode": "76502", "addr:state": "TX", "brand": "USPS", "collection_times": "Mo-Fr 14:30; Sa 15:00", "name": "USPS COLLECTION BOX - BLUE BOX", "note": "ON 12/24 AND 12/31, THIS BOX MAY BE COLLECTED AS EARLY AS 12 NOON.", "ref": "7650200027"}, "type": "Feature"}
{"geometry": {"coordinates": [-97.3745123, 31.074259], "type": "Point"}, "id": "PLqA0yKRV4zUGLdmuTcka5kUNao=", "properties": {"@spider": "usps_collection_boxes", "addr:city": "TEMPLE", "addr:country": "US", "addr:full": "1717 SW HK DODGEN LOOP", "addr:postcode": "76502", "addr:state": "TX", "brand": "USPS", "collection_times": "Mo-Fr 14:30; Sa 15:00", "name": "USPS COLLECTION BOX - BLUE BOX", "note": "ON 12/24 AND 12/31, THIS BOX MAY BE COLLECTED AS EARLY AS 12 NOON.", "ref": "7650200044"}, "type": "Feature"}
{"geometry": {"coordinates": [-97.4356972, 31.18055], "type": "Point"}, "id": "NoNOYUxYZLsWCFT31HegnGIbeL4=", "properties": {"@spider": "usps_collection_boxes", "addr:city": "TEMPLE", "addr:country": "US", "addr:full": "10775 W STATE HIGHWAY 36", "addr:postcode": "76502", "addr:state": "TX", "brand": "USPS", "collection_times": "Mo-Sa 12:30", "name": "USPS COLLECTION BOX - BLUE BOX", "note": "ON 12/24 AND 12/31, THIS BOX MAY BE COLLECTED AS EARLY AS 12 NOON.", "ref": "7650200046"}, "type": "Feature"}
{"geometry": {"coordinates": [-97.3417981, 31.095441], "type": "Point"}, "id": "jU6IUzRETZxOHzI_hdY46YMbk8U=", "properties": {"@spider": "usps_collection_boxes", "addr:city": "TEMPLE", "addr:country": "US", "addr:full": "101 S MAIN ST", "addr:postcode": "76502", "addr:state": "TX", "brand": "USPS", "collection_times": "Mo-Fr 17:00", "name": "USPS COLLECTION BOX - BLUE BOX", "note": "ON 12/24 AND 12/31, THIS BOX MAY BE COLLECTED AS EARLY AS 12 NOON.", "ref": "7650200049"}, "type": "Feature"}
{"geometry": {"coordinates": [-97.353317, 31.07279], "type": "Point"}, "id": "CLpr9c80b1admJmeiYqil-TGNjM=", "properties": {"@spider": "usps_collection_boxes", "addr:city": "TEMPLE", "addr:country": "US", "addr:full": "2512 S 5TH ST", "addr:postcode": "76504", "addr:state": "TX", "brand": "USPS", "collection_times": "Mo-Fr 15:00; Sa 15:30", "name": "USPS COLLECTION BOX - BLUE BOX", "note": "ON 12/24 AND 12/31, THIS BOX MAY BE COLLECTED AS EARLY AS 12 NOON.", "ref": "7650400009"}, "type": "Feature"}
{"geometry": {"coordinates": [-97.3634949, 31.086046], "type": "Point"}, "id": "v03tpcsdcZgCv0KM0VA3vvIpJ3M=", "properties": {"@spider": "usps_collection_boxes", "addr:city": "TEMPLE", "addr:country": "US", "addr:full": "1516 S 31ST ST", "addr:postcode": "76504", "addr:state": "TX", "brand": "USPS", "collection_times": "Mo-Fr 14:00; Sa 14:30", "name": "USPS COLLECTION BOX - BLUE BOX", "note": "ON 12/24 AND 12/31, THIS BOX MAY BE COLLECTED AS EARLY AS 12 NOON.", "ref": "7650400012"}, "type": "Feature"}
{"geometry": {"coordinates": [-97.3588713, 31.098405], "type": "Point"}, "id": "Sa5Nut_UTrdvBv17By2OevZp6_s=", "properties": {"@spider": "usps_collection_boxes", "addr:city": "TEMPLE", "addr:country": "US", "addr:full": "212 S 31ST ST", "addr:postcode": "76504", "addr:state": "TX", "brand": "USPS", "collection_times": "Mo-Fr 14:00; Sa 14:30", "name": "USPS COLLECTION BOX - BLUE BOX", "note": "ON 12/24 AND 12/31, THIS BOX MAY BE COLLECTED AS EARLY AS 12 NOON.", "ref": "7650400014"}, "type": "Feature"}
{"geometry": {"coordinates": [-97.3719507, 31.07776], "type": "Point"}, "id": "MpL2tKcE0qybiEZv4DV2xZBWlBQ=", "properties": {"@spider": "usps_collection_boxes", "addr:city": "TEMPLE", "addr:country": "US", "addr:full": "2600 S 39TH ST", "addr:postcode": "76504", "addr:state": "TX", "brand": "USPS", "collection_times": "Mo-Fr 14:00; Sa 14:45", "name": "USPS COLLECTION BOX - BLUE BOX", "note": "ON 12/24 AND 12/31, THIS BOX MAY BE COLLECTED AS EARLY AS 12 NOON.", "ref": "7650400017"}, "type": "Feature"}
{"geometry": {"coordinates": [-97.3802694, 31.083587], "type": "Point"}, "id": "CsrjlMOZajlrVNfk36UPGTDbUWs=", "properties": {"@spider": "usps_collection_boxes", "addr:city": "TEMPLE", "addr:country": "US", "addr:full": "2302 S 57TH ST", "addr:postcode": "76504", "addr:state": "TX", "brand": "USPS", "collection_times": "Mo-Fr 14:00; Sa 14:45", "name": "USPS COLLECTION BOX - BLUE BOX", "note": "ON 12/24 AND 12/31, THIS BOX MAY BE COLLECTED AS EARLY AS 12 NOON.", "ref": "7650400018"}, "type": "Feature"}
{"geometry": {"coordinates": [-97.3829231, 31.109228], "type": "Point"}, "id": "sOix8bah1VWoE9Ybmgk62AcSIqE=", "properties": {"@spider": "usps_collection_boxes", "addr:city": "TEMPLE", "addr:country": "US", "addr:full": "3900 W ADAMS AVE", "addr:postcode": "76504", "addr:state": "TX", "brand": "USPS", "collection_times": "Mo-Fr 13:45; Sa 14:15", "name": "USPS COLLECTION BOX - BLUE BOX", "note": "ON 12/24 AND 12/31, THIS BOX MAY BE COLLECTED AS EARLY AS 12 NOON.", "ref": "7650400030"}, "type": "Feature"}
{"geometry": {"coordinates": [-97.3874068, 31.109468], "type": "Point"}, "id": "I7J9wvln3aplqvEoEEmJa82wm-U=", "properties": {"@spider": "usps_collection_boxes", "addr:city": "TEMPLE", "addr:country": "US", "addr:full": "4315 W ADAMS AVE", "addr:postcode": "76504", "addr:state": "TX", "brand": "USPS", "collection_times": "Mo-Fr 13:45; Sa 14:15", "name": "USPS COLLECTION BOX - BLUE BOX", "note": "ON 12/24 AND 12/31, THIS BOX MAY BE COLLECTED AS EARLY AS 12 NOON.", "ref": "7650400031"}, "type": "Feature"}
{"geometry": {"coordinates": [-97.3681623, 31.108209], "type": "Point"}, "id": "35Vt-Kp3L0xorghEOriLymXbloU=", "properties": {"@spider": "usps_collection_boxes", "addr:city": "TEMPLE", "addr:country": "US", "addr:full": "2700 AIRPORT RD", "addr:postcode": "76504", "addr:state": "TX", "brand": "USPS", "collection_times": "Mo-Fr 13:30; Sa 14:15", "name": "USPS COLLECTION BOX - BLUE BOX", "note": "ON 12/24 AND 12/31, THIS BOX MAY BE COLLECTED AS EARLY AS 12 NOON.", "ref": "7650400035"}, "type": "Feature"}
{"geometry": {"coordinates": [-97.3759779, 31.076266], "type": "Point"}, "id": "6q4-WU7qDAY1pbZn1Whk7j2od78=", "properties": {"@spider": "usps_collection_boxes", "addr:city": "TEMPLE", "addr:country": "US", "addr:full": "2010 SW H K DODGEN LOOP", "addr:postcode": "76504", "addr:state": "TX", "brand": "USPS", "collection_times": "Mo-Fr 14:00; Sa 14:45", "name": "USPS COLLECTION BOX - BLUE BOX", "note": "ON 12/24 AND 12/31, THIS BOX MAY BE COLLECTED AS EARLY AS 12 NOON.", "ref": "7650400045"}, "type": "Feature"}
{"geometry": {"coordinates": [-97.4267597515, 30.7958128324], "type": "Point"}, "id": "yO8SSZaoD8BvtAULH0EDFaLAxKA=", "properties": {"@spider": "usps_collection_boxes", "addr:city": "BARTLETT", "addr:country": "US", "addr:full": "131 N EVIE ST", "addr:postcode": "76511", "addr:state": "TX", "brand": "USPS", "collection_times": "Mo-Fr 15:15; Sa 10:15", "name": "USPS COLLECTION BOX - BLUE BOX", "note": "ON 12/24 AND 12/31, THIS BOX MAY BE COLLECTED AS EARLY AS 12 NOON.", "ref": "7651100000"}, "type": "Feature"}
{"geometry": {"coordinates": [-97.426764251, 30.795803832], "type": "Point"}, "id": "k-rd3YcbrLQBUS5R_lHSizMM36s=", "properties": {"@spider": "usps_collection_boxes", "addr:city": "BARTLETT", "addr:country": "US", "addr:full": "131 N EVIE ST", "addr:postcode": "76511", "addr:state": "TX", "brand": "USPS", "collection_times": "Mo-Fr 15:00; Sa 10:00", "name": "USPS COLLECTION BOX - PO LOBBY", "note": "ON 12/24 AND 12/31, THIS BOX MAY BE COLLECTED AS EARLY AS 12 NOON.", "ref": "7651100003"}, "type": "Feature"}
{"geometry": {"coordinates": [-97.426764251, 30.795803832], "type": "Point"}, "id": "T2TekzqeeoF-2bRu45Jc4o9HUsA=", "properties": {"@spider": "usps_collection_boxes", "addr:city": "BARTLETT", "addr:country": "US", "addr:full": "131 N EVIE ST", "addr:postcode": "76511", "addr:state": "TX", "brand": "USPS", "collection_times": "Mo-Fr 15:00; Sa 10:00", "name": "USPS COLLECTION BOX - PO LOBBY", "note": "ON 12/24 AND 12/31, THIS BOX MAY BE COLLECTED AS EARLY AS 12 NOON.", "ref": "7651100006"}, "type": "Feature"}
{"geometry": {"coordinates": [-97.460502, 31.05628], "type": "Point"}, "id": "iKdIN2AXqVQBiXp4Jhs0LxJ3Pnk=", "properties": {"@spider": "usps_collection_boxes", "addr:city": "BELTON", "addr:country": "US", "addr:full": "111 N WALL ST", "addr:postcode": "76513", "addr:state": "TX", "brand": "USPS", "collection_times": "Mo-Sa 17:00", "name": "USPS COLLECTION BOX - BLUE BOX", "note": "ON 12/24 AND 12/31, THIS BOX MAY BE COLLECTED AS EARLY AS 12 NOON.", "ref": "7651300000"}, "type": "Feature"}
{"geometry": {"coordinates": [-97.4589833, 31.080804], "type": "Point"}, "id": "Nx4j-6OGeAzLI58zWG2BXC6kqYA=", "properties": {"@spider": "usps_collection_boxes", "addr:city": "BELTON", "addr:country": "US", "addr:full": "2405 N MAIN ST", "addr:postcode": "76513", "addr:state": "TX", "brand": "USPS", "collection_times": "Mo-Sa 15:00", "name": "USPS COLLECTION BOX - BLUE BOX", "note": "ON 12/24 AND 12/31, THIS BOX MAY BE COLLECTED AS EARLY AS 12 NOON.", "ref": "7651300011"}, "type": "Feature"}
{"geometry": {"coordinates": [-97.460502, 31.05628], "type": "Point"}, "id": "0ER9MytmtqJQ_7nZahpYo6SBlhk=", "properties": {"@spider": "usps_collection_boxes", "addr:city": "BELTON", "addr:country": "US", "addr:full": "111 N WALL ST", "addr:postcode": "76513", "addr:state": "TX", "brand": "USPS", "collection_times": "Mo-Fr 17:00; Sa 12:00", "name": "USPS COLLECTION BOX - PO LOBBY", "note": "ON 12/24 AND 12/31, THIS BOX MAY BE COLLECTED AS EARLY AS 12 NOON.", "ref": "7651300013"}, "type": "Feature"}
{"geometry": {"coordinates": [-97.460502, 31.05628], "type": "Point"}, "id": "4hAqo2IaRPgbiygwCpF55B0l_7o=", "properties": {"@spider": "usps_collection_boxes", "addr:city": "BELTON", "addr:country": "US", "addr:full": "111 N WALL ST", "addr:postcode": "76513", "addr:state": "TX", "brand": "USPS", "collection_times": "Mo-Fr 17:00; Sa 12:00", "name": "USPS COLLECTION BOX - PO LOBBY", "note": "ON 12/24 AND 12/31, THIS BOX MAY BE COLLECTED AS EARLY AS 12 NOON.", "ref": "7651300014"}, "type": "Feature"}
{"geometry": {"coordinates": [-97.460483071, 31.056324979], "type": "Point"}, "id": "CC_WnG7V7z3Qutc7xM9CmKPHl64=", "properties": {"@spider": "usps_collection_boxes", "addr:city": "BELTON", "addr:country": "US", "addr:full": "111 N WALL ST", "addr:postcode": "76513", "addr:state": "TX", "brand": "USPS", "collection_times": "Mo-Fr 16:30; Sa 12:00", "name": "USPS COLLECTION BOX - PO LOBBY", "note": "ON 12/24 AND 12/31, THIS BOX MAY BE COLLECTED AS EARLY AS 12 NOON.", "ref": "7651300022"}, "type": "Feature"}
{"geometry": {"coordinates": [-97.122895, 30.871704], "type": "Point"}, "id": "IUWkkCQaWvOR3aZMBfbg4QM424M=", "properties": {"@spider": "usps_collection_boxes", "addr:city": "BUCKHOLTS", "addr:country": "US", "addr:full": "300 E HIGHWAY 190", "addr:postcode": "76518", "addr:state": "TX", "brand": "USPS", "collection_times": "Mo-Fr 12:00; Sa 09:00", "name": "USPS COLLECTION BOX - BLUE BOX", "ref": "7651800000"}, "type": "Feature"}
{"geometry": {"coordinates": [-97.1227543, 30.871963], "type": "Point"}, "id": "meYEUauGCfYJlFtwHJeCBRGtMmQ=", "properties": {"@spider": "usps_collection_boxes", "addr:city": "BUCKHOLTS", "addr:country": "US", "addr:full": "300 E HIGHWAY 190", "addr:postcode": "76518", "addr:state": "TX", "brand": "USPS", "collection_times": "Mo-Fr 12:00; Sa 09:00", "name": "USPS COLLECTION BOX - PO LOBBY", "ref": "7651800002"}, "type": "Feature"}
{"geometry": {"coordinates": [-97.123043753, 30.871795452], "type": "Point"}, "id": "qJOt5uDb4REQD9jP6C2bY1vvBlc=", "properties": {"@spider": "usps_collection_boxes", "addr:city": "BUCKHOLTS", "addr:country": "US", "addr:full": "300 E HIGHWAY 190", "addr:postcode": "76518", "addr:state": "TX", "brand": "USPS", "collection_times": "Mo-Fr 12:00; Sa 09:00", "name": "USPS COLLECTION BOX - PO LOBBY", "ref": "7651800003"}, "type": "Feature"}
{"geometry": {"coordinates": [-96.977214, 30.851717], "type": "Point"}, "id": "RJY3xzwMD4vyP5NP7fzaX1Q9zGA=", "properties": {"@spider": "usps_collection_boxes", "addr:city": "CAMERON", "addr:country": "US", "addr:full": "202 W 2ND ST", "addr:postcode": "76520", "addr:state": "TX", "brand": "USPS", "collection_times": "Mo-Fr 16:30; Sa 10:00", "name": "USPS COLLECTION BOX - BLUE BOX", "note": "ON 12/24 AND 12/31, THIS BOX MAY BE COLLECTED AS EARLY AS 12 NOON.", "ref": "7652000001"}, "type": "Feature"}
{"geometry": {"coordinates": [-96.977214, 30.851717], "type": "Point"}, "id": "jwM-joNHjPZsrsGjaZGzTeXYWYE=", "properties": {"@spider": "usps_collection_boxes", "addr:city": "CAMERON", "addr:country": "US", "addr:full": "202 W 2ND ST", "addr:postcode": "76520", "addr:state": "TX", "brand": "USPS", "collection_times": "Mo-Fr 16:30; Sa 10:00", "name": "USPS COLLECTION BOX - PO LOBBY", "note": "ON 12/24 AND 12/31, THIS BOX MAY BE COLLECTED AS EARLY AS 12 NOON.", "ref": "7652000006"}, "type": "Feature"}
{"geometry": {"coordinates": [-96.977214, 30.851717], "type": "Point"}, "id": "1iPd1LnsjO-x8YzTXQmV2PDRXLI=", "properties": {"@spider": "usps_collection_boxes", "addr:city": "CAMERON", "addr:country": "US", "addr:full": "202 W 2ND ST", "addr:postcode": "76520", "addr:state": "TX", "brand": "USPS", "collection_times": "Mo-Fr 16:30; Sa 10:00", "name": "USPS COLLECTION BOX - PO LOBBY", "note": "ON 12/24 AND 12/31, THIS BOX MAY BE COLLECTED AS EARLY AS 12 NOON.", "ref": "7652000007"}, "type": "Feature"}
{"geometry": {"coordinates": [-96.977213178, 30.851736808], "type": "Point"}, "id": "WVrkTMkb4zzwPHctFbFtmqvGY1E=", "properties": {"@spider": "usps_collection_boxes", "addr:city": "CAMERON", "addr:country": "US", "addr:full": "202 W 2ND ST", "addr:postcode": "76520", "addr:state": "TX", "brand": "USPS", "collection_times": "Mo-Fr 16:30; Sa 10:00", "name": "USPS COLLECTION BOX - PO LOBBY", "note": "ON 12/24 AND 12/31, THIS BOX MAY BE COLLECTED AS EARLY AS 12 NOON.", "ref": "7652000010"}, "type": "Feature"}
{"geometry": {"coordinates": [-97.894069, 31.121274], "type": "Point"}, "id": "hq4LDiLYTL0oaGQsjDsIpVCyJ0c=", "properties": {"@spider": "usps_collection_boxes", "addr:city": "COPPERAS COVE", "addr:country": "US", "addr:full": "802 E AVENUE D", "addr:postcode": "76522", "addr:state": "TX", "brand": "USPS", "collection_times": "Mo-Fr 17:00; Sa 16:00", "name": "USPS COLLECTION BOX - BLUE BOX", "note": "ON 12/24 AND 12/31, THIS BOX MAY BE COLLECTED AS EARLY AS 12 NOON.", "ref": "7652200000"}, "type": "Feature"}
{"geometry": {"coordinates": [-97.8697305, 31.118002], "type": "Point"}, "id": "7hJmLtmBDdhN_121CoteB3Y_sgo=", "properties": {"@spider": "usps_collection_boxes", "addr:city": "COPPERAS COVE", "addr:country": "US", "addr:full": "2720 E BUSINESS 190", "addr:postcode": "76522", "addr:state": "TX", "brand": "USPS", "collection_times": "Mo-Sa 12:30", "name": "USPS COLLECTION BOX - BLUE BOX", "note": "ON 12/24 AND 12/31, THIS BOX MAY BE COLLECTED AS EARLY AS 12 NOON.", "ref": "7652200003"}, "type": "Feature"}
{"geometry": {"coordinates": [-97.9226541, 31.138221], "type": "Point"}, "id": "KKm4jOV-tmGNANw7vIZbJz5nAoo=", "properties": {"@spider": "usps_collection_boxes", "addr:city": "COPPERAS COVE", "addr:country": "US", "addr:full": "2012 W AVENUE B", "addr:postcode": "76522", "addr:state": "TX", "brand": "USPS", "collection_times": "Mo-Sa 10:00", "name": "USPS COLLECTION BOX - BLUE BOX", "ref": "7652200006"}, "type": "Feature"}
{"geometry": {"coordinates": [-97.8974294, 31.11953], "type": "Point"}, "id": "Ao-gMkb_I2fyYoL9cRRa0lcA5PU=", "properties": {"@spider": "usps_collection_boxes", "addr:city": "COPPERAS COVE", "addr:country": "US", "addr:full": "90 COVE TERRACE SHOPPING CTR", "addr:postcode": "76522", "addr:state": "TX", "brand": "USPS", "collection_times": "Mo-Sa 11:30", "name": "USPS COLLECTION BOX - BLUE BOX", "ref": "7652200014"}, "type": "Feature"}
{"geometry": {"coordinates": [-97.880971552, 31.120331481], "type": "Point"}, "id": "kDaKZk1soYrXIKU_EkfBm381cUA=", "properties": {"@spider": "usps_collection_boxes", "addr:city": "COPPERAS COVE", "addr:country": "US", "addr:full": "2124 E BUSINESS 190", "addr:postcode": "76522", "addr:state": "TX", "brand": "USPS", "collection_times": "Mo-Sa 09:00", "name": "USPS COLLECTION BOX - BLUE BOX", "ref": "7652200016"}, "type": "Feature"}
{"geometry": {"coordinates": [-97.894069, 31.121274], "type": "Point"}, "id": "nofmIS8kTM_B1UheFtGC5pJtFP0=", "properties": {"@spider": "usps_collection_boxes", "addr:city": "COPPERAS COVE", "addr:country": "US", "addr:full": "802 E AVENUE D", "addr:postcode": "76522", "addr:state": "TX", "brand": "USPS", "collection_times": "Mo-Fr 17:00; Sa 16:00", "name": "USPS COLLECTION BOX - BLUE BOX", "note": "ON 12/24 AND 12/31, THIS BOX MAY BE COLLECTED AS EARLY AS 12 NOON.", "ref": "7652200017"}, "type": "Feature"}
{"geometry": {"coordinates": [-97.8959047, 31.11847], "type": "Point"}, "id": "85nX0CENCh4GGEQvzCNsf5sjt40=", "properties": {"@spider": "usps_collection_boxes", "addr:city": "COPPERAS COVE", "addr:country": "US", "addr:full": "804 E BUSINESS 190", "addr:postcode": "76522", "addr:state": "TX", "brand": "USPS", "collection_times": "Mo-Sa 15:30", "name": "USPS COLLECTION BOX - BLUE BOX", "note": "ON 12/24 AND 12/31, THIS BOX MAY BE COLLECTED AS EARLY AS 12 NOON.", "ref": "7652200018"}, "type": "Feature"}
{"geometry": {"coordinates": [-97.9040537, 31.123619], "type": "Point"}, "id": "ccd0pHXADdlPlQcif_JuB13vqm0=", "properties": {"@spider": "usps_collection_boxes", "addr:city": "COPPERAS COVE", "addr:country": "US", "addr:full": "210 S 1ST ST", "addr:postcode": "76522", "addr:state": "TX", "brand": "USPS", "collection_times": "Mo-Sa 10:15", "name": "USPS COLLECTION BOX - BLUE BOX", "ref": "7652200021"}, "type": "Feature"}
{"geometry": {"coordinates": [-97.9083618, 31.112058], "type": "Point"}, "id": "ekvb0NSnly_DKGdNjBgSOod-_yo=", "properties": {"@spider": "usps_collection_boxes", "addr:city": "COPPERAS COVE", "addr:country": "US", "addr:full": "185 W BUSINESS 190 STE 1", "addr:postcode": "76522", "addr:state": "TX", "brand": "USPS", "collection_times": "Mo-Sa 13:00", "name": "USPS COLLECTION BOX - BLUE BOX", "note": "ON 12/24 AND 12/31, THIS BOX MAY BE COLLECTED AS EARLY AS 12 NOON.", "ref": "7652200022"}, "type": "Feature"}
{"geometry": {"coordinates": [-97.894069, 31.121274], "type": "Point"}, "id": "ldchTljwXZmBijud7mXetah18aU=", "properties": {"@spider": "usps_collection_boxes", "addr:city": "COPPERAS COVE", "addr:country": "US", "addr:full": "802 E AVENUE D", "addr:postcode": "76522", "addr:state": "TX", "brand": "USPS", "collection_times": "Mo-Fr 17:00; Sa 16:00", "name": "USPS COLLECTION BOX - PO LOBBY", "note": "ON 12/24 AND 12/31, THIS BOX MAY BE COLLECTED AS EARLY AS 12 NOON.", "ref": "7652200023"}, "type": "Feature"}
{"geometry": {"coordinates": [-97.894069, 31.121274], "type": "Point"}, "id": "Npqpg_V4cDb2NzximelYabWjmEs=", "properties": {"@spider": "usps_collection_boxes", "addr:city": "COPPERAS COVE", "addr:country": "US", "addr:full": "802 E AVENUE D", "addr:postcode": "76522", "addr:state": "TX", "brand": "USPS", "collection_times": "Mo-Fr 17:00; Sa 16:00", "name": "USPS COLLECTION BOX - PO LOBBY", "note": "ON 12/24 AND 12/31, THIS BOX MAY BE COLLECTED AS EARLY AS 12 NOON.", "ref": "7652200024"}, "type": "Feature"}
{"geometry": {"coordinates": [-97.894058887, 31.121266352], "type": "Point"}, "id": "9i9xZpO4xOVdgDt5U8z-6W-gOvY=", "properties": {"@spider": "usps_collection_boxes", "addr:city": "COPPERAS COVE", "addr:country": "US", "addr:full": "802 E AVENUE D", "addr:postcode": "76522", "addr:state": "TX", "brand": "USPS", "collection_times": "Mo-Fr 16:30; Sa 12:00", "name": "USPS COLLECTION BOX - PO LOBBY", "note": "ON 12/24 AND 12/31, THIS BOX MAY BE COLLECTED AS EARLY AS 12 NOON.", "ref": "7652200028"}, "type": "Feature"}
{"geometry": {"coordinates": [-97.274306, 30.784102], "type": "Point"}, "id": "P1dpwtqFoXKCF9Swpq9F0WGJgks=", "properties": {"@spider": "usps_collection_boxes", "addr:city": "DAVILLA", "addr:country": "US", "addr:full": "20905 N FM 487", "addr:postcode": "76523", "addr:state": "TX", "brand": "USPS", "collection_times": "Mo-Fr 12:00; Sa 10:00", "name": "USPS COLLECTION BOX - BLUE BOX", "ref": "7652300000"}, "type": "Feature"}
{"geometry": {"coordinates": [-97.274243, 30.784034], "type": "Point"}, "id": "V3_EuWmeRtguQZuVpsM2Od3wzJk=", "properties": {"@spider": "usps_collection_boxes", "addr:city": "DAVILLA", "addr:country": "US", "addr:full": "20905 N FM 487", "addr:postcode": "76523", "addr:state": "TX", "brand": "USPS", "collection_times": "Mo-Fr 12:00; Sa 10:00", "name": "USPS COLLECTION BOX - PO LOBBY", "ref": "7652300001"}, "type": "Feature"}
{"geometry": {"coordinates": [-97.274320485, 30.784059933], "type": "Point"}, "id": "B17yM6V1mxP-yVr62QO9B6M1wuE=", "properties": {"@spider": "usps_collection_boxes", "addr:city": "DAVILLA", "addr:country": "US", "addr:full": "20905 N FM 487", "addr:postcode": "76523", "addr:state": "TX", "brand": "USPS", "collection_times": "Mo-Fr 12:00; Sa 10:30", "name": "USPS COLLECTION BOX - PO LOBBY", "ref": "7652300002"}, "type": "Feature"}
{"geometry": {"coordinates": [-97.254582, 31.295883], "type": "Point"}, "id": "Cgc_E6W0Df0Ol49mHEwIPMspPXY=", "properties": {"@spider": "usps_collection_boxes", "addr:city": "EDDY", "addr:country": "US", "addr:full": "100 FRANKLIN RD", "addr:postcode": "76524", "addr:state": "TX", "brand": "USPS", "collection_times": "Mo-Fr 16:15; Sa 09:45", "name": "USPS COLLECTION BOX - BLUE BOX", "note": "ON 12/24 AND 12/31, THIS BOX MAY BE COLLECTED AS EARLY AS 12 NOON.", "ref": "7652400000"}, "type": "Feature"}
{"geometry": {"coordinates": [-97.254582, 31.295883], "type": "Point"}, "id": "Vs5n-qik8X5y4WjYfZ8tK_oeHfQ=", "properties": {"@spider": "usps_collection_boxes", "addr:city": "EDDY", "addr:country": "US", "addr:full": "100 FRANKLIN RD", "addr:postcode": "76524", "addr:state": "TX", "brand": "USPS", "collection_times": "Mo-Fr 16:00; Sa 09:30", "name": "USPS COLLECTION BOX - PO LOBBY", "note": "ON 12/24 AND 12/31, THIS BOX MAY BE COLLECTED AS EARLY AS 12 NOON.", "ref": "7652400001"}, "type": "Feature"}
{"geometry": {"coordinates": [-97.254593044, 31.295918478], "type": "Point"}, "id": "y0TreSV6XOZl0WSK6lUF9Ypc_3g=", "properties": {"@spider": "usps_collection_boxes", "addr:city": "EDDY", "addr:country": "US", "addr:full": "100 FRANKLIN RD", "addr:postcode": "76524", "addr:state": "TX", "brand": "USPS", "collection_times": "Mo-Fr 16:00; Sa 09:30", "name": "USPS COLLECTION BOX - PO LOBBY", "note": "ON 12/24 AND 12/31, THIS BOX MAY BE COLLECTED AS EARLY AS 12 NOON.", "ref": "7652400004"}, "type": "Feature"}
{"geometry": {"coordinates": [-98.15217, 31.47677], "type": "Point"}, "id": "eyI4W7XEcPoC1vEOhuA0Yb6s040=", "properties": {"@spider": "usps_collection_boxes", "addr:city": "EVANT", "addr:country": "US", "addr:full": "153 N US HIGHWAY 281", "addr:postcode": "76525", "addr:state": "TX", "brand": "USPS", "collection_times": "Mo-Fr 11:55; Sa 09:45", "name": "USPS COLLECTION BOX - BLUE BOX", "ref": "7652500000"}, "type": "Feature"}
{"geometry": {"coordinates": [-98.15217, 31.47677], "type": "Point"}, "id": "hqb-v99IvK0Z4hVoJTPmNzd3d6E=", "properties": {"@spider": "usps_collection_boxes", "addr:city": "EVANT", "addr:country": "US", "addr:full": "153 N US HIGHWAY 281", "addr:postcode": "76525", "addr:state": "TX", "brand": "USPS", "collection_times": "Mo-Fr 11:45; Sa 09:30", "name": "USPS COLLECTION BOX - PO LOBBY", "ref": "7652500001"}, "type": "Feature"}
{"geometry": {"coordinates": [-98.15216999, 31.476762062], "type": "Point"}, "id": "ac9GHJ7xU9T9yt_Ew1exg7Yw4JM=", "properties": {"@spider": "usps_collection_boxes", "addr:city": "EVANT", "addr:country": "US", "addr:full": "153 N US HIGHWAY 281", "addr:postcode": "76525", "addr:state": "TX", "brand": "USPS", "collection_times": "Mo-Fr 12:00; Sa 10:00", "name": "USPS COLLECTION BOX - PO LOBBY", "ref": "7652500004"}, "type": "Feature"}
{"geometry": {"coordinates": [-97.5489428853, 31.3165901384], "type": "Point"}, "id": "NsV4dgd9ohJ8Mdc-9ByDVRqEpcs=", "properties": {"@spider": "usps_collection_boxes", "addr:city": "FLAT", "addr:country": "US", "addr:full": "10065 S STATE HIGHWAY 36", "addr:postcode": "76526", "addr:state": "TX", "brand": "USPS", "collection_times": "Mo-Fr 14:05; Sa 11:15", "name": "USPS COLLECTION BOX - BLUE BOX", "note": "ON 12/24 AND 12/31, THIS BOX MAY BE COLLECTED AS EARLY AS 12 NOON.", "ref": "7652600000"}, "type": "Feature"}
{"geometry": {"coordinates": [-97.5489428853, 31.3165901384], "type": "Point"}, "id": "ET2gJcnUAsNfir-nr3AxV2n2NLE=", "properties": {"@spider": "usps_collection_boxes", "addr:city": "FLAT", "addr:country": "US", "addr:full": "10065 S STATE HIGHWAY 36", "addr:postcode": "76526", "addr:state": "TX", "brand": "USPS", "collection_times": "Mo-Fr 14:00; Sa 11:30", "name": "USPS COLLECTION BOX - PO LOBBY", "note": "ON 12/24 AND 12/31, THIS BOX MAY BE COLLECTED AS EARLY AS 12 NOON.", "ref": "7652600001"}, "type": "Feature"}
{"geometry": {"coordinates": [-97.629215158, 31.307978016], "type": "Point"}, "id": "jOHYzNa4SVBQzAxWvucaFiHUmcQ=", "properties": {"@spider": "usps_collection_boxes", "addr:city": "FLAT", "addr:country": "US", "addr:full": "10065 S STATE HIGHWAY 36", "addr:postcode": "76526", "addr:state": "TX", "brand": "USPS", "collection_times": "Mo-Fr 14:00; Sa 11:30", "name": "USPS COLLECTION BOX - PO LOBBY", "note": "ON 12/24 AND 12/31, THIS BOX MAY BE COLLECTED AS EARLY AS 12 NOON.", "ref": "7652600004"}, "type": "Feature"}
{"geometry": {"coordinates": [-97.795152, 30.844093], "type": "Point"}, "id": "n1it4Y22jhfJr0yqgoDXAE-xrRI=", "properties": {"@spider": "usps_collection_boxes", "addr:city": "FLORENCE", "addr:country": "US", "addr:full": "308 N PATTERSON AVE", "addr:postcode": "76527", "addr:state": "TX", "brand": "USPS", "collection_times": "Mo-Fr 16:00; Sa 11:00", "name": "USPS COLLECTION BOX - BLUE BOX", "note": "ON 12/24 AND 12/31, THIS BOX MAY BE COLLECTED AS EARLY AS 12 NOON.", "ref": "7652700000"}, "type": "Feature"}
{"geometry": {"coordinates": [-97.795152, 30.844093], "type": "Point"}, "id": "n2jAdVx6JB0wKeIBHkn-soYAF1Y=", "properties": {"@spider": "usps_collection_boxes", "addr:city": "FLORENCE", "addr:country": "US", "addr:full": "308 N PATTERSON AVE", "addr:postcode": "76527", "addr:state": "TX", "brand": "USPS", "collection_times": "Mo-Fr 16:00; Sa 11:00", "name": "USPS COLLECTION BOX - PO LOBBY", "note": "ON 12/24 AND 12/31, THIS BOX MAY BE COLLECTED AS EARLY AS 12 NOON.", "ref": "7652700002"}, "type": "Feature"}
{"geometry": {"coordinates": [-97.795151373, 30.8440923], "type": "Point"}, "id": "ywT_rxUCtUFjBqGXzaINjgwfSns=", "properties": {"@spider": "usps_collection_boxes", "addr:city": "FLORENCE", "addr:country": "US", "addr:full": "308 N PATTERSON AVE", "addr:postcode": "76527", "addr:state": "TX", "brand": "USPS", "collection_times": "Mo-Fr 16:00; Sa 11:00", "name": "USPS COLLECTION BOX - PO LOBBY", "note": "ON 12/24 AND 12/31, THIS BOX MAY BE COLLECTED AS EARLY AS 12 NOON.", "ref": "7652700004"}, "type": "Feature"}
{"geometry": {"coordinates": [-97.7482621676, 31.4340185395], "type": "Point"}, "id": "W1_n0WWgb_0MjbkQl3twrAHp9es=", "properties": {"@spider": "usps_collection_boxes", "addr:city": "GATESVILLE", "addr:country": "US", "addr:full": "802 E LEON ST", "addr:postcode": "76528", "addr:state": "TX", "brand": "USPS", "collection_times": "Mo-Sa 16:45", "name": "USPS COLLECTION BOX - BLUE BOX", "note": "ON 12/24 AND 12/31, THIS BOX MAY BE COLLECTED AS EARLY AS 12 NOON.", "ref": "7652800001"}, "type": "Feature"}
{"geometry": {"coordinates": [-97.748287, 31.433759], "type": "Point"}, "id": "hy7AoZUgYMn9u3GDTZitCRWYcl8=", "properties": {"@spider": "usps_collection_boxes", "addr:city": "GATESVILLE", "addr:country": "US", "addr:full": "802 E LEON ST", "addr:postcode": "76528", "addr:state": "TX", "brand": "USPS", "collection_times": "Mo-Fr 16:30; Sa 14:00", "name": "USPS COLLECTION BOX - PO LOBBY", "note": "ON 12/24 AND 12/31, THIS BOX MAY BE COLLECTED AS EARLY AS 12 NOON.", "ref": "7652800010"}, "type": "Feature"}
{"geometry": {"coordinates": [-97.748261277, 31.434022543], "type": "Point"}, "id": "3epwVs7Mw02hgYwNibvHR9_6zkI=", "properties": {"@spider": "usps_collection_boxes", "addr:city": "GATESVILLE", "addr:country": "US", "addr:full": "802 E LEON ST", "addr:postcode": "76528", "addr:state": "TX", "brand": "USPS", "collection_times": "Mo-Fr 16:30; Sa 13:00", "name": "USPS COLLECTION BOX - PO LOBBY", "note": "ON 12/24 AND 12/31, THIS BOX MAY BE COLLECTED AS EARLY AS 12 NOON.", "ref": "7652800014"}, "type": "Feature"}
{"geometry": {"coordinates": [-97.444733, 30.717832], "type": "Point"}, "id": "w20YbExv-7tblzs3JVp9zOABFnQ=", "properties": {"@spider": "usps_collection_boxes", "addr:city": "GRANGER", "addr:country": "US", "addr:full": "117 W DAVILLA ST", "addr:postcode": "76530", "addr:state": "TX", "brand": "USPS", "collection_times": "Mo-Fr 16:15; Sa 11:15", "name": "USPS COLLECTION BOX - BLUE BOX", "note": "ON 12/24 AND 12/31, THIS BOX MAY BE COLLECTED AS EARLY AS 12 NOON.", "ref": "7653000001"}, "type": "Feature"}
{"geometry": {"coordinates": [-97.444733, 30.717832], "type": "Point"}, "id": "KCkVQwrSKEUEC-a9kRL3lZfubTk=", "properties": {"@spider": "usps_collection_boxes", "addr:city": "GRANGER", "addr:country": "US", "addr:full": "117 W DAVILLA ST", "addr:postcode": "76530", "addr:state": "TX", "brand": "USPS", "collection_times": "Mo-Fr 16:00; Sa 11:00", "name": "USPS COLLECTION BOX - PO LOBBY", "note": "ON 12/24 AND 12/31, THIS BOX MAY BE COLLECTED AS EARLY AS 12 NOON.", "ref": "7653000003"}, "type": "Feature"}
{"geometry": {"coordinates": [-97.444722588, 30.717841591], "type": "Point"}, "id": "sgJ3hHs-gur2LuGezx_PTJltfZc=", "properties": {"@spider": "usps_collection_boxes", "addr:city": "GRANGER", "addr:country": "US", "addr:full": "117 W DAVILLA ST", "addr:postcode": "76530", "addr:state": "TX", "brand": "USPS", "collection_times": "Mo-Fr 16:00; Sa 10:00", "name": "USPS COLLECTION BOX - PO LOBBY", "note": "ON 12/24 AND 12/31, THIS BOX MAY BE COLLECTED AS EARLY AS 12 NOON.", "ref": "7653000005"}, "type": "Feature"}
{"geometry": {"coordinates": [-98.124262, 31.702783], "type": "Point"}, "id": "IpkCo0DBOdF97F1d0VEKBctK-Cw=", "properties": {"@spider": "usps_collection_boxes", "addr:city": "HAMILTON", "addr:country": "US", "addr:full": "111 E LESLIE ST", "addr:postcode": "76531", "addr:state": "TX", "brand": "USPS", "collection_times": "Mo-Fr 15:45; Sa 10:15", "name": "USPS COLLECTION BOX - BLUE BOX", "note": "ON 12/24 AND 12/31, THIS BOX MAY BE COLLECTED AS EARLY AS 12 NOON.", "ref": "7653100004"}, "type": "Feature"}
{"geometry": {"coordinates": [-98.124139, 31.703509], "type": "Point"}, "id": "uyoDJT99KpZpN78gipm-LdYqm_A=", "properties": {"@spider": "usps_collection_boxes", "addr:city": "HAMILTON", "addr:country": "US", "addr:full": "120 S RICE ST", "addr:postcode": "76531", "addr:state": "TX", "brand": "USPS", "collection_times": "Mo-Fr 16:00; Sa 10:30", "name": "USPS COLLECTION BOX - PO LOBBY", "note": "ON 12/24 AND 12/31, THIS BOX MAY BE COLLECTED AS EARLY AS 12 NOON.", "ref": "7653100005"}, "type": "Feature"}
{"geometry": {"coordinates": [-98.124112893, 31.703503839], "type": "Point"}, "id": "bfLwAV2eedg13JGNKgEbDCwfXaA=", "properties": {"@spider": "usps_collection_boxes", "addr:city": "HAMILTON", "addr:country": "US", "addr:full": "120 S RICE ST", "addr:postcode": "76531", "addr:state": "TX", "brand": "USPS", "collection_times": "Mo-Fr 16:00; Sa 10:30", "name": "USPS COLLECTION BOX - PO LOBBY", "note": "ON 12/24 AND 12/31, THIS BOX MAY BE COLLECTED AS EARLY AS 12 NOON.", "ref": "7653100010"}, "type": "Feature"}
{"geometry": {"coordinates": [-97.303406162, 31.01911992], "type": "Point"}, "id": "2pcI2VBZETAX2kdIvQtsYzQDXxQ=", "properties": {"@spider": "usps_collection_boxes", "addr:city": "HEIDENHEIMER", "addr:country": "US", "addr:full": "5720 E US HIGHWAY 190", "addr:postcode": "76533", "addr:state": "TX", "brand": "USPS", "collection_times": "Mo-Fr 11:55; Sa 10:45", "name": "USPS COLLECTION BOX - BLUE BOX", "ref": "7653300000"}, "type": "Feature"}
{"geometry": {"coordinates": [-97.3024295817, 31.0177663722], "type": "Point"}, "id": "EbbNuwVj43bUUCK0l78JSxLSm-w=", "properties": {"@spider": "usps_collection_boxes", "addr:city": "HEIDENHEIMER", "addr:country": "US", "addr:full": "5720 E US HIGHWAY 190", "addr:postcode": "76533", "addr:state": "TX", "brand": "USPS", "collection_times": "Mo-Fr 12:00; Sa 11:00", "name": "USPS COLLECTION BOX - PO LOBBY", "ref": "7653300001"}, "type": "Feature"}
{"geometry": {"coordinates": [-97.3034061625, 31.0191289195], "type": "Point"}, "id": "NeFZ0yx9bUx_LqTv0la03nWsYE0=", "properties": {"@spider": "usps_collection_boxes", "addr:city": "HEIDENHEIMER", "addr:country": "US", "addr:full": "5720 E US HIGHWAY 190", "addr:postcode": "76533", "addr:state": "TX", "brand": "USPS", "collection_times": "Mo-Fr 12:00; Sa 11:00", "name": "USPS COLLECTION BOX - PO LOBBY", "ref": "7653300003"}, "type": "Feature"}
{"geometry": {"coordinates": [-97.40554, 30.879415], "type": "Point"}, "id": "9pIUv2LN2xHiqGWHFn_6epUthxQ=", "properties": {"@spider": "usps_collection_boxes", "addr:city": "HOLLAND", "addr:country": "US", "addr:full": "205 W TRAVIS ST", "addr:postcode": "76534", "addr:state": "TX", "brand": "USPS", "collection_times": "Mo-Fr 15:15; Sa 08:45", "name": "USPS COLLECTION BOX - BLUE BOX", "note": "ON 12/24 AND 12/31, THIS BOX MAY BE COLLECTED AS EARLY AS 12 NOON.", "ref": "7653400000"}, "type": "Feature"}
{"geometry": {"coordinates": [-97.40554, 30.879415], "type": "Point"}, "id": "CzfzktnfLz1c_hmJD0A_9PM1VaE=", "properties": {"@spider": "usps_collection_boxes", "addr:city": "HOLLAND", "addr:country": "US", "addr:full": "205 W TRAVIS ST", "addr:postcode": "76534", "addr:state": "TX", "brand": "USPS", "collection_times": "Mo-Fr 15:00; Sa 09:00", "name": "USPS COLLECTION BOX - BLUE BOX", "note": "ON 12/24 AND 12/31, THIS BOX MAY BE COLLECTED AS EARLY AS 12 NOON.", "ref": "7653400001"}, "type": "Feature"}
{"geometry": {"coordinates": [-97.40533041, 30.879327753], "type": "Point"}, "id": "MEikHi8Rf-g2Q34LioWUJVhgWE8=", "properties": {"@spider": "usps_collection_boxes", "addr:city": "HOLLAND", "addr:country": "US", "addr:full": "205 W TRAVIS ST", "addr:postcode": "76534", "addr:state": "TX", "brand": "USPS", "collection_times": "Mo-Fr 15:00; Sa 09:00", "name": "USPS COLLECTION BOX - PO LOBBY", "note": "ON 12/24 AND 12/31, THIS BOX MAY BE COLLECTED AS EARLY AS 12 NOON.", "ref": "7653400005"}, "type": "Feature"}
{"geometry": {"coordinates": [-97.60915, 30.82025], "type": "Point"}, "id": "K4E8ie5BPRBtubHJrsxtIS8d1LQ=", "properties": {"@spider": "usps_collection_boxes", "addr:city": "JARRELL", "addr:country": "US", "addr:full": "12355 N INTERSTATE 35", "addr:postcode": "76537", "addr:state": "TX", "brand": "USPS", "collection_times": "Mo-Fr 16:00; Sa 10:00", "name": "USPS COLLECTION BOX - PO LOBBY", "note": "ON 12/24 AND 12/31, THIS BOX MAY BE COLLECTED AS EARLY AS 12 NOON.", "ref": "7653700002"}, "type": "Feature"}
{"geometry": {"coordinates": [-97.60915, 30.82025], "type": "Point"}, "id": "Yj_6Fnpz_DSr0pxCNni617-iDok=", "properties": {"@spider": "usps_collection_boxes", "addr:city": "JARRELL", "addr:country": "US", "addr:full": "12355 N INTERSTATE 35", "addr:postcode": "76537", "addr:state": "TX", "brand": "USPS", "collection_times": "Mo-Fr 16:00; Sa 10:00", "name": "USPS COLLECTION BOX - PO LOBBY", "note": "ON 12/24 AND 12/31, THIS BOX MAY BE COLLECTED AS EARLY AS 12 NOON.", "ref": "7653700005"}, "type": "Feature"}
{"geometry": {"coordinates": [-97.60915, 30.82025], "type": "Point"}, "id": "JhXEvUMeNcMD2qn8McJ2nJEthms=", "properties": {"@spider": "usps_collection_boxes", "addr:city": "JARRELL", "addr:country": "US", "addr:full": "12355 N INTERSTATE 35", "addr:postcode": "76537", "addr:state": "TX", "brand": "USPS", "collection_times": "Mo-Fr 16:15; Sa 10:00", "name": "USPS COLLECTION BOX - BLUE BOX", "note": "ON 12/24 AND 12/31, THIS BOX MAY BE COLLECTED AS EARLY AS 12 NOON.", "ref": "7653700007"}, "type": "Feature"}
{"geometry": {"coordinates": [-97.608848483, 30.820095198], "type": "Point"}, "id": "jgNJMmhP8oBSwbz_08ro5RDcUHg=", "properties": {"@spider": "usps_collection_boxes", "addr:city": "JARRELL", "addr:country": "US", "addr:full": "12355 N INTERSTATE 35", "addr:postcode": "76537", "addr:state": "TX", "brand": "USPS", "collection_times": "Mo-Fr 16:00; Sa 10:00", "name": "USPS COLLECTION BOX - PO LOBBY", "note": "ON 12/24 AND 12/31, THIS BOX MAY BE COLLECTED AS EARLY AS 12 NOON.", "ref": "7653700008"}, "type": "Feature"}
{"geometry": {"coordinates": [-97.873761, 31.614083], "type": "Point"}, "id": "0ymQcB4LWt2H2MabXPT7ar105Oc=", "properties": {"@spider": "usps_collection_boxes", "addr:city": "JONESBORO", "addr:country": "US", "addr:full": "11345 N STATE HIGHWAY 36", "addr:postcode": "76538", "addr:state": "TX", "brand": "USPS", "collection_times": "Mo-Fr 12:55; Sa 09:55", "name": "USPS COLLECTION BOX - BLUE BOX", "note": "ON 12/24 AND 12/31, THIS BOX MAY BE COLLECTED AS EARLY AS 12 NOON.", "ref": "7653800000"}, "type": "Feature"}
{"geometry": {"coordinates": [-97.873761, 31.614083], "type": "Point"}, "id": "ZtXHGSzZTAnNC5naa2sfMORN0H0=", "properties": {"@spider": "usps_collection_boxes", "addr:city": "JONESBORO", "addr:country": "US", "addr:full": "11345 N STATE HIGHWAY 36", "addr:postcode": "76538", "addr:state": "TX", "brand": "USPS", "collection_times": "Mo-Fr 13:00; Sa 09:30", "name": "USPS COLLECTION BOX - PO LOBBY", "note": "ON 12/24 AND 12/31, THIS BOX MAY BE COLLECTED AS EARLY AS 12 NOON.", "ref": "7653800002"}, "type": "Feature"}
{"geometry": {"coordinates": [-97.873750943, 31.61408068], "type": "Point"}, "id": "CM60e2vfneLfIlVr675GOlsAkoc=", "properties": {"@spider": "usps_collection_boxes", "addr:city": "JONESBORO", "addr:country": "US", "addr:full": "11345 N STATE HIGHWAY 36", "addr:postcode": "76538", "addr:state": "TX", "brand": "USPS", "collection_times": "Mo-Fr 13:00; Sa 10:00", "name": "USPS COLLECTION BOX - PO LOBBY", "note": "ON 12/24 AND 12/31, THIS BOX MAY BE COLLECTED AS EARLY AS 12 NOON.", "ref": "7653800004"}, "type": "Feature"}
{"geometry": {"coordinates": [-98.003039, 31.076841], "type": "Point"}, "id": "Qxuur2vGOULLmMcimeI2xkNmH0U=", "properties": {"@spider": "usps_collection_boxes", "addr:city": "KEMPNER", "addr:country": "US", "addr:full": "379 PECAN ST", "addr:postcode": "76539", "addr:state": "TX", "brand": "USPS", "collection_times": "Mo-Fr 15:45; Sa 12:00", "name": "USPS COLLECTION BOX - BLUE BOX", "note": "ON 12/24 AND 12/31, THIS BOX MAY BE COLLECTED AS EARLY AS 12 NOON.", "ref": "7653900000"}, "type": "Feature"}
{"geometry": {"coordinates": [-98.003039, 31.076841], "type": "Point"}, "id": "jeIv3kOmaqiHXhpqWhTiKdDVlMk=", "properties": {"@spider": "usps_collection_boxes", "addr:city": "KEMPNER", "addr:country": "US", "addr:full": "379 PECAN ST", "addr:postcode": "76539", "addr:state": "TX", "brand": "USPS", "collection_times": "Mo-Fr 16:00; Sa 12:00", "name": "USPS COLLECTION BOX - PO LOBBY", "note": "ON 12/24 AND 12/31, THIS BOX MAY BE COLLECTED AS EARLY AS 12 NOON.", "ref": "7653900001"}, "type": "Feature"}
{"geometry": {"coordinates": [-98.0030204246, 31.0768009309], "type": "Point"}, "id": "JK8_FKb-Ik0rHS86CdeS8ZIOOT0=", "properties": {"@spider": "usps_collection_boxes", "addr:city": "KEMPNER", "addr:country": "US", "addr:full": "379 PECAN ST", "addr:postcode": "76539", "addr:state": "TX", "brand": "USPS", "collection_times": "Mo-Fr 16:00; Sa 11:45", "name": "USPS COLLECTION BOX - PO LOBBY", "note": "ON 12/24 AND 12/31, THIS BOX MAY BE COLLECTED AS EARLY AS 12 NOON.", "ref": "7653900004"}, "type": "Feature"}
{"geometry": {"coordinates": [-97.725522, 31.119598], "type": "Point"}, "id": "ZSlYjTTIVpYwu9jxN53kkYhxfUY=", "properties": {"@spider": "usps_collection_boxes", "addr:city": "KILLEEN", "addr:country": "US", "addr:full": "300 N 10TH ST", "addr:postcode": "76541", "addr:state": "TX", "brand": "USPS", "collection_times": "Mo-Fr 17:30; Sa 13:00", "name": "USPS COLLECTION BOX - BLUE BOX", "note": "ON 12/24 AND 12/31, THIS BOX MAY BE COLLECTED AS EARLY AS 12 NOON.", "ref": "7654100000"}, "type": "Feature"}
{"geometry": {"coordinates": [-97.7291238, 31.119742], "type": "Point"}, "id": "21roVvhDZEEsJuybQ5Uq624zE6g=", "properties": {"@spider": "usps_collection_boxes", "addr:city": "KILLEEN", "addr:country": "US", "addr:full": "300 N 4TH ST", "addr:postcode": "76541", "addr:state": "TX", "brand": "USPS", "collection_times": "Mo-Sa 13:15", "name": "USPS COLLECTION BOX - BLUE BOX", "note": "ON 12/24 AND 12/31, THIS BOX MAY BE COLLECTED AS EARLY AS 12 NOON.", "ref": "7654100002"}, "type": "Feature"}
{"geometry": {"coordinates": [-97.7269654, 31.123311], "type": "Point"}, "id": "QVxA4_FnIv0Rt4axVK9s2SwB0R4=", "properties": {"@spider": "usps_collection_boxes", "addr:city": "KILLEEN", "addr:country": "US", "addr:full": "605 N GRAY ST", "addr:postcode": "76541", "addr:state": "TX", "brand": "USPS", "collection_times": "Mo-Sa 13:00", "name": "USPS COLLECTION BOX - BLUE BOX", "note": "ON 12/24 AND 12/31, THIS BOX MAY BE COLLECTED AS EARLY AS 12 NOON.", "ref": "7654100003"}, "type": "Feature"}
{"geometry": {"coordinates": [-97.7341052, 31.114998], "type": "Point"}, "id": "lsun3gd8FiJucTgVBudB2Y7Sc8M=", "properties": {"@spider": "usps_collection_boxes", "addr:city": "KILLEEN", "addr:country": "US", "addr:full": "309 PRIEST DR", "addr:postcode": "76541", "addr:state": "TX", "brand": "USPS", "collection_times": "Mo-Sa 13:30", "name": "USPS COLLECTION BOX - BLUE BOX", "note": "ON 12/24 AND 12/31, THIS BOX MAY BE COLLECTED AS EARLY AS 12 NOON.", "ref": "7654100008"}, "type": "Feature"}
{"geometry": {"coordinates": [-97.7391981, 31.102343], "type": "Point"}, "id": "xh5OJ3MF6z_NmCl2BT9kStdX3YM=", "properties": {"@spider": "usps_collection_boxes", "addr:city": "KILLEEN", "addr:country": "US", "addr:full": "1805 FLORENCE RD", "addr:postcode": "76541", "addr:state": "TX", "brand": "USPS", "collection_times": "Mo-Sa 13:30", "name": "USPS COLLECTION BOX - BLUE BOX", "note": "ON 12/24 AND 12/31, THIS BOX MAY BE COLLECTED AS EARLY AS 12 NOON.", "ref": "7654100011"}, "type": "Feature"}
{"geometry": {"coordinates": [-97.7221615, 31.093445], "type": "Point"}, "id": "6tW_lUGcSKWFmIF3qgQ6D_F3Lco=", "properties": {"@spider": "usps_collection_boxes", "addr:city": "KILLEEN", "addr:country": "US", "addr:full": "1711 E CENTRAL TEXAS EXPY", "addr:postcode": "76541", "addr:state": "TX", "brand": "USPS", "collection_times": "Mo-Sa 12:15", "name": "USPS COLLECTION BOX - BLUE BOX", "note": "ON 12/24 AND 12/31, THIS BOX MAY BE COLLECTED AS EARLY AS 12 NOON.", "ref": "7654100013"}, "type": "Feature"}
{"geometry": {"coordinates": [-97.7309114333, 31.0985642731], "type": "Point"}, "id": "V_c5bhh797As2XpSFxrgaKr7OTM=", "properties": {"@spider": "usps_collection_boxes", "addr:city": "KILLEEN", "addr:country": "US", "addr:full": "2000 TRIMMIER RD", "addr:postcode": "76541", "addr:state": "TX", "brand": "USPS", "collection_times": "Mo-Sa 12:00", "name": "USPS COLLECTION BOX - BLUE BOX", "ref": "7654100014"}, "type": "Feature"}
{"geometry": {"coordinates": [-97.7451618, 31.1122], "type": "Point"}, "id": "oRvxacilc9xulK_DnCZNJU_piow=", "properties": {"@spider": "usps_collection_boxes", "addr:city": "KILLEEN", "addr:country": "US", "addr:full": "902 S FORT HOOD ST", "addr:postcode": "76541", "addr:state": "TX", "brand": "USPS", "collection_times": "Mo-Sa 13:30", "name": "USPS COLLECTION BOX - BLUE BOX", "note": "ON 12/24 AND 12/31, THIS BOX MAY BE COLLECTED AS EARLY AS 12 NOON.", "ref": "7654100020"}, "type": "Feature"}
{"geometry": {"coordinates": [-97.725522, 31.119598], "type": "Point"}, "id": "IRFH0cv6fWXWW5YdVbVGXE-py6M=", "properties": {"@spider": "usps_collection_boxes", "addr:city": "KILLEEN", "addr:country": "US", "addr:full": "300 N 10TH ST", "addr:postcode": "76541", "addr:state": "TX", "brand": "USPS", "collection_times": "Mo-Fr 17:30; Sa 13:00", "name": "USPS COLLECTION BOX - BLUE BOX", "note": "ON 12/24 AND 12/31, THIS BOX MAY BE COLLECTED AS EARLY AS 12 NOON.", "ref": "7654100022"}, "type": "Feature"}
{"geometry": {"coordinates": [-97.725522, 31.119598], "type": "Point"}, "id": "5JKa1sRkMOCnut9DONn1EiRxmUQ=", "properties": {"@spider": "usps_collection_boxes", "addr:city": "KILLEEN", "addr:country": "US", "addr:full": "300 N 10TH ST", "addr:postcode": "76541", "addr:state": "TX", "brand": "USPS", "collection_times": "Mo-Fr 17:30; Sa 13:00", "name": "USPS COLLECTION BOX - PO LOBBY", "note": "ON 12/24 AND 12/31, THIS BOX MAY BE COLLECTED AS EARLY AS 12 NOON.", "ref": "7654100028"}, "type": "Feature"}
{"geometry": {"coordinates": [-97.725522, 31.119598], "type": "Point"}, "id": "S2UwlKunjDt3sLusOHdygyqUIB8=", "properties": {"@spider": "usps_collection_boxes", "addr:city": "KILLEEN", "addr:country": "US", "addr:full": "300 N 10TH ST", "addr:postcode": "76541", "addr:state": "TX", "brand": "USPS", "collection_times": "Mo-Fr 17:30; Sa 13:00", "name": "USPS COLLECTION BOX - PO LOBBY", "note": "ON 12/24 AND 12/31, THIS BOX MAY BE COLLECTED AS EARLY AS 12 NOON.", "ref": "7654100030"}, "type": "Feature"}
{"geometry": {"coordinates": [-97.725522, 31.119598], "type": "Point"}, "id": "zHCLClIIFoET-MgbWA7MmPPPUZU=", "properties": {"@spider": "usps_collection_boxes", "addr:city": "KILLEEN", "addr:country": "US", "addr:full": "300 N 10TH ST", "addr:postcode": "76541", "addr:state": "TX", "brand": "USPS", "collection_times": "Mo-Fr 17:30; Sa 13:00", "name": "USPS COLLECTION BOX - PO LOBBY", "note": "ON 12/24 AND 12/31, THIS BOX MAY BE COLLECTED AS EARLY AS 12 NOON.", "ref": "7654100031"}, "type": "Feature"}
{"geometry": {"coordinates": [-97.725525067, 31.119592087], "type": "Point"}, "id": "Xhn-LuDGj9W9tSs6CouFoI8ehPw=", "properties": {"@spider": "usps_collection_boxes", "addr:city": "KILLEEN", "addr:country": "US", "addr:full": "300 N 10TH ST", "addr:postcode": "76541", "addr:state": "TX", "brand": "USPS", "collection_times": "Mo-Fr 17:00; Sa 13:00", "name": "USPS COLLECTION BOX - PO LOBBY", "note": "ON 12/24 AND 12/31, THIS BOX MAY BE COLLECTED AS EARLY AS 12 NOON.", "ref": "7654100033"}, "type": "Feature"}
{"geometry": {"coordinates": [-97.7507946, 31.109841], "type": "Point"}, "id": "f3b9o9NFtVOT2nTUMjGC4lXSOKY=", "properties": {"@spider": "usps_collection_boxes", "addr:city": "KILLEEN", "addr:country": "US", "addr:full": "1400 W CENTRAL TEXAS EXPY", "addr:postcode": "76542", "addr:state": "TX", "brand": "USPS", "collection_times": "Mo-Fr 13:45", "name": "USPS COLLECTION BOX - BLUE BOX", "note": "ON 12/24 AND 12/31, THIS BOX MAY BE COLLECTED AS EARLY AS 12 NOON.", "ref": "7654200000"}, "type": "Feature"}
{"geometry": {"coordinates": [-97.7627966, 31.113], "type": "Point"}, "id": "FTq0PQFcEq22db5M972WWyrzEE0=", "properties": {"@spider": "usps_collection_boxes", "addr:city": "KILLEEN", "addr:country": "US", "addr:full": "1001 WILLOW SPRINGS RD", "addr:postcode": "76542", "addr:state": "TX", "brand": "USPS", "collection_times": "Mo-Fr 13:45", "name": "USPS COLLECTION BOX - BLUE BOX", "note": "ON 12/24 AND 12/31, THIS BOX MAY BE COLLECTED AS EARLY AS 12 NOON.", "ref": "7654200001"}, "type": "Feature"}
{"geometry": {"coordinates": [-97.721213, 31.084458], "type": "Point"}, "id": "Wy3kplNh1QFud_JBlWwr_UPni7o=", "properties": {"@spider": "usps_collection_boxes", "addr:city": "KILLEEN", "addr:country": "US", "addr:full": "3100 S W S YOUNG DR", "addr:postcode": "76542", "addr:state": "TX", "brand": "USPS", "collection_times": "Mo-Fr 17:00; Sa 13:00", "name": "USPS COLLECTION BOX - BLUE BOX", "note": "ON 12/24 AND 12/31, THIS BOX MAY BE COLLECTED AS EARLY AS 12 NOON.", "ref": "7654200002"}, "type": "Feature"}
{"geometry": {"coordinates": [-97.721213, 31.084458], "type": "Point"}, "id": "-zD84ENWTt5F2JqxoiD4NLKxkj4=", "properties": {"@spider": "usps_collection_boxes", "addr:city": "KILLEEN", "addr:country": "US", "addr:full": "3100 S W S YOUNG DR", "addr:postcode": "76542", "addr:state": "TX", "brand": "USPS", "collection_times": "Mo-Fr 17:00; Sa 13:00", "name": "USPS COLLECTION BOX - PO LOBBY", "note": "ON 12/24 AND 12/31, THIS BOX MAY BE COLLECTED AS EARLY AS 12 NOON.", "ref": "7654200004"}, "type": "Feature"}
{"geometry": {"coordinates": [-97.721213, 31.084458], "type": "Point"}, "id": "45CTTA2KiRjUaTyteNrqCXxnQ5Q=", "properties": {"@spider": "usps_collection_boxes", "addr:city": "KILLEEN", "addr:country": "US", "addr:full": "3100 S W S YOUNG DR", "addr:postcode": "76542", "addr:state": "TX", "brand": "USPS", "collection_times": "Mo-Fr 17:00; Sa 13:00", "name": "USPS COLLECTION BOX - PO LOBBY", "note": "ON 12/24 AND 12/31, THIS BOX MAY BE COLLECTED AS EARLY AS 12 NOON.", "ref": "7654200005"}, "type": "Feature"}
{"geometry": {"coordinates": [-97.721213, 31.084458], "type": "Point"}, "id": "kioCdJubQlROqUnKfXIBo3_qNZ8=", "properties": {"@spider": "usps_collection_boxes", "addr:city": "KILLEEN", "addr:country": "US", "addr:full": "3100 S W S YOUNG DR", "addr:postcode": "76542", "addr:state": "TX", "brand": "USPS", "collection_times": "Mo-Fr 17:00; Sa 13:00", "name": "USPS COLLECTION BOX - PO LOBBY", "note": "ON 12/24 AND 12/31, THIS BOX MAY BE COLLECTED AS EARLY AS 12 NOON.", "ref": "7654200007"}, "type": "Feature"}
{"geometry": {"coordinates": [-97.721213, 31.084458], "type": "Point"}, "id": "7uWlR3DSmAH0bclslwclVKGHm8Y=", "properties": {"@spider": "usps_collection_boxes", "addr:city": "KILLEEN", "addr:country": "US", "addr:full": "3100 S W S YOUNG DR", "addr:postcode": "76542", "addr:state": "TX", "brand": "USPS", "collection_times": "Mo-Fr 17:00; Sa 13:00", "name": "USPS COLLECTION BOX - PO LOBBY", "note": "ON 12/24 AND 12/31, THIS BOX MAY BE COLLECTED AS EARLY AS 12 NOON.", "ref": "7654200008"}, "type": "Feature"}
{"geometry": {"coordinates": [-97.8113739, 31.119127], "type": "Point"}, "id": "33WPXCdQDnBmCShpg62tOe7OXWg=", "properties": {"@spider": "usps_collection_boxes", "addr:city": "KILLEEN", "addr:country": "US", "addr:full": "6200 W CENTRAL TEXAS EXPY", "addr:postcode": "76542", "addr:state": "TX", "brand": "USPS", "collection_times": "Mo-Fr 14:15", "name": "USPS COLLECTION BOX - BLUE BOX", "note": "ON 12/24 AND 12/31, THIS BOX MAY BE COLLECTED AS EARLY AS 12 NOON.", "ref": "7654200009"}, "type": "Feature"}
{"geometry": {"coordinates": [-97.7989824, 31.115709], "type": "Point"}, "id": "VPieA2JDhNdeSyvb2_dzw7ri-RE=", "properties": {"@spider": "usps_collection_boxes", "addr:city": "KILLEEN", "addr:country": "US", "addr:full": "1901 S CLEAR CREEK RD", "addr:postcode": "76542", "addr:state": "TX", "brand": "USPS", "collection_times": "Mo-Fr 14:15", "name": "USPS COLLECTION BOX - BLUE BOX", "note": "ON 12/24 AND 12/31, THIS BOX MAY BE COLLECTED AS EARLY AS 12 NOON.", "ref": "7654200011"}, "type": "Feature"}
{"geometry": {"coordinates": [-97.8017446, 31.113034], "type": "Point"}, "id": "Ti_YHTHRyQYgVX1TTE4N8b3JT9E=", "properties": {"@spider": "usps_collection_boxes", "addr:city": "KILLEEN", "addr:country": "US", "addr:full": "2201 S CLEAR CREEK RD", "addr:postcode": "76542", "addr:state": "TX", "brand": "USPS", "collection_times": "Mo-Fr 14:00", "name": "USPS COLLECTION BOX - BLUE BOX", "note": "ON 12/24 AND 12/31, THIS BOX MAY BE COLLECTED AS EARLY AS 12 NOON.", "ref": "7654200012"}, "type": "Feature"}
{"geometry": {"coordinates": [-97.721213, 31.084458], "type": "Point"}, "id": "1-bU57blTJQyCdRzMXILSLN3cfM=", "properties": {"@spider": "usps_collection_boxes", "addr:city": "KILLEEN", "addr:country": "US", "addr:full": "3100 S W S YOUNG DR", "addr:postcode": "76542", "addr:state": "TX", "brand": "USPS", "collection_times": "Mo-Fr 17:00; Sa 13:00", "name": "USPS COLLECTION BOX - APC", "note": "ON 12/24 AND 12/31, THIS BOX MAY BE COLLECTED AS EARLY AS 12 NOON.", "ref": "7654200013"}, "type": "Feature"}
{"geometry": {"coordinates": [-97.72121326, 31.084453626], "type": "Point"}, "id": "zLSsaSkbq9rxDlYoxdSqdyHURgY=", "properties": {"@spider": "usps_collection_boxes", "addr:city": "KILLEEN", "addr:country": "US", "addr:full": "3100 S W S YOUNG DR", "addr:postcode": "76542", "addr:state": "TX", "brand": "USPS", "collection_times": "Mo-Fr 17:00; Sa 13:00", "name": "USPS COLLECTION BOX - PO LOBBY", "note": "ON 12/24 AND 12/31, THIS BOX MAY BE COLLECTED AS EARLY AS 12 NOON.", "ref": "7654200016"}, "type": "Feature"}
{"geometry": {"coordinates": [-97.7041499, 31.103513], "type": "Point"}, "id": "QHrJzqkGOgG1o-ClZ_WexC48DP4=", "properties": {"@spider": "usps_collection_boxes", "addr:city": "KILLEEN", "addr:country": "US", "addr:full": "3300 E VETERANS MEMORIAL BLVD", "addr:postcode": "76543", "addr:state": "TX", "brand": "USPS", "collection_times": "Mo-Sa 12:45", "name": "USPS COLLECTION BOX - BLUE BOX", "note": "ON 12/24 AND 12/31, THIS BOX MAY BE COLLECTED AS EARLY AS 12 NOON.", "ref": "7654300005"}, "type": "Feature"}
{"geometry": {"coordinates": [-97.7099766, 31.116205], "type": "Point"}, "id": "N7liCtvQnjck0qV5DNvQqXruvNo=", "properties": {"@spider": "usps_collection_boxes", "addr:city": "KILLEEN", "addr:country": "US", "addr:full": "200 N W S YOUNG DR", "addr:postcode": "76543", "addr:state": "TX", "brand": "USPS", "collection_times": "Mo-Sa 13:00", "name": "USPS COLLECTION BOX - BLUE BOX", "note": "ON 12/24 AND 12/31, THIS BOX MAY BE COLLECTED AS EARLY AS 12 NOON.", "ref": "7654300008"}, "type": "Feature"}
{"geometry": {"coordinates": [-97.6957269, 31.118465], "type": "Point"}, "id": "2kcAW7OZ5GSW8EMq5CFTEImZtUU=", "properties": {"@spider": "usps_collection_boxes", "addr:city": "KILLEEN", "addr:country": "US", "addr:full": "3307 E RANCIER AVE", "addr:postcode": "76543", "addr:state": "TX", "brand": "USPS", "collection_times": "Mo-Sa 13:00", "name": "USPS COLLECTION BOX - BLUE BOX", "note": "ON 12/24 AND 12/31, THIS BOX MAY BE COLLECTED AS EARLY AS 12 NOON.", "ref": "7654300010"}, "type": "Feature"}
{"geometry": {"coordinates": [-97.7171845, 31.094288], "type": "Point"}, "id": "uC5Zv4GqcM8sIFfNi8Obl2dioM0=", "properties": {"@spider": "usps_collection_boxes", "addr:city": "KILLEEN", "addr:country": "US", "addr:full": "2100 S W S YOUNG DR STE WS", "addr:postcode": "76543", "addr:state": "TX", "brand": "USPS", "collection_times": "Mo-Sa 12:30", "name": "USPS COLLECTION BOX - BLUE BOX", "note": "ON 12/24 AND 12/31, THIS BOX MAY BE COLLECTED AS EARLY AS 12 NOON.", "ref": "7654300011"}, "type": "Feature"}
{"geometry": {"coordinates": [-97.7824389, 31.137438], "type": "Point"}, "id": "Tgn_m-FC2_YEBhv2tMnslJqLzVU=", "properties": {"@spider": "usps_collection_boxes", "addr:city": "FT HOOD", "addr:country": "US", "addr:full": "39020 67TH ST", "addr:postcode": "76544", "addr:state": "TX", "brand": "USPS", "collection_times": "Mo-Fr 16:30", "name": "USPS COLLECTION BOX - BLUE BOX", "note": "ON 12/24 AND 12/31, THIS BOX MAY BE COLLECTED AS EARLY AS 12 NOON.", "ref": "7654400006"}, "type": "Feature"}
{"geometry": {"coordinates": [-97.7682372, 31.137016], "type": "Point"}, "id": "cAHLkYyN7g4dajA199tKjnAZvyk=", "properties": {"@spider": "usps_collection_boxes", "addr:city": "FT HOOD", "addr:country": "US", "addr:full": "1001 761ST TANK BATTALION AVE", "addr:postcode": "76544", "addr:state": "TX", "brand": "USPS", "collection_times": "Mo-Fr 16:40", "name": "USPS COLLECTION BOX - BLUE BOX", "note": "ON 12/24 AND 12/31, THIS BOX MAY BE COLLECTED AS EARLY AS 12 NOON.", "ref": "7654400009"}, "type": "Feature"}
{"geometry": {"coordinates": [-97.803227637, 31.146511683], "type": "Point"}, "id": "Xa0TgR279b8nAi4SUqBgG1tZKhg=", "properties": {"@spider": "usps_collection_boxes", "addr:city": "FT HOOD", "addr:country": "US", "addr:full": "BLDG 4250 CLEAR CREEK RD", "addr:postcode": "76544", "addr:state": "TX", "brand": "USPS", "collection_times": "Mo-Fr 16:15", "name": "USPS COLLECTION BOX - BLUE BOX", "note": "ON 12/24 AND 12/31, THIS BOX MAY BE COLLECTED AS EARLY AS 12 NOON.", "ref": "7654400010"}, "type": "Feature"}
{"geometry": {"coordinates": [-97.725523, 31.119599], "type": "Point"}, "id": "lb2Pw1lD9rsQPAOZO6fIf_-oUfU=", "properties": {"@spider": "usps_collection_boxes", "addr:city": "FT HOOD", "addr:country": "US", "addr:full": "332 761ST TANK BATTALION AVE", "addr:postcode": "76544", "addr:state": "TX", "brand": "USPS", "collection_times": "Mo-Fr 17:00; Sa 15:00", "name": "USPS COLLECTION BOX - BLUE BOX", "note": "ON 12/24 AND 12/31, THIS BOX MAY BE COLLECTED AS EARLY AS 12 NOON.", "ref": "7654400011"}, "type": "Feature"}
{"geometry": {"coordinates": [-97.712497394, 31.129576776], "type": "Point"}, "id": "HACzvU1zNY5DEFBIgEKMoA-_mOE=", "properties": {"@spider": "usps_collection_boxes", "addr:city": "FT HOOD", "addr:country": "US", "addr:full": "85006 WARRIOR WAY DR", "addr:postcode": "76544", "addr:state": "TX", "brand": "USPS", "collection_times": "Mo-Fr 16:55", "name": "USPS COLLECTION BOX - BLUE BOX", "note": "ON 12/24 AND 12/31, THIS BOX MAY BE COLLECTED AS EARLY AS 12 NOON.", "ref": "7654400020"}, "type": "Feature"}
{"geometry": {"coordinates": [-97.8372846242, 31.1210560972], "type": "Point"}, "id": "ClWUj5B1pzL2ksuOWusYeNQ5qmc=", "properties": {"@spider": "usps_collection_boxes", "addr:city": "FT HOOD", "addr:country": "US", "addr:full": "91079 CLARKE RD", "addr:postcode": "76544", "addr:state": "TX", "brand": "USPS", "collection_times": "Mo-Fr 14:45", "name": "USPS COLLECTION BOX - BLUE BOX", "note": "ON 12/24 AND 12/31, THIS BOX MAY BE COLLECTED AS EARLY AS 12 NOON.", "ref": "7654400021"}, "type": "Feature"}
{"geometry": {"coordinates": [-97.7668523, 31.141288], "type": "Point"}, "id": "jaVvSAxxNfDHFEELor3VZZgbi20=", "properties": {"@spider": "usps_collection_boxes", "addr:city": "FT HOOD", "addr:country": "US", "addr:full": "18010 BATTALION AVE", "addr:postcode": "76544", "addr:state": "TX", "brand": "USPS", "collection_times": "Mo-Fr 16:50", "name": "USPS COLLECTION BOX - BLUE BOX", "note": "ON 12/24 AND 12/31, THIS BOX MAY BE COLLECTED AS EARLY AS 12 NOON.", "ref": "7654400025"}, "type": "Feature"}
{"geometry": {"coordinates": [-97.725523, 31.119599], "type": "Point"}, "id": "qPpfSsjj7jddmbLSCGMBwqAUt7g=", "properties": {"@spider": "usps_collection_boxes", "addr:city": "FT HOOD", "addr:country": "US", "addr:full": "332 761ST TANK BATTALION AVE", "addr:postcode": "76544", "addr:state": "TX", "brand": "USPS", "collection_times": "Mo-Fr 17:00; Sa 15:00", "name": "USPS COLLECTION BOX - PO LOBBY", "note": "ON 12/24 AND 12/31, THIS BOX MAY BE COLLECTED AS EARLY AS 12 NOON.", "ref": "7654400026"}, "type": "Feature"}
{"geometry": {"coordinates": [-97.725523, 31.119599], "type": "Point"}, "id": "v5sgXY_N8A46Jsce646wp3ScD-8=", "properties": {"@spider": "usps_collection_boxes", "addr:city": "FT HOOD", "addr:country": "US", "addr:full": "332 761ST TANK BATTALION AVE", "addr:postcode": "76544", "addr:state": "TX", "brand": "USPS", "collection_times": "Mo-Fr 17:00; Sa 15:00", "name": "USPS COLLECTION BOX - PO LOBBY", "note": "ON 12/24 AND 12/31, THIS BOX MAY BE COLLECTED AS EARLY AS 12 NOON.", "ref": "7654400027"}, "type": "Feature"}
{"geometry": {"coordinates": [-97.725523, 31.119599], "type": "Point"}, "id": "xQywlcvRWeCsqO1Ud3j_ASs0xmY=", "properties": {"@spider": "usps_collection_boxes", "addr:city": "FT HOOD", "addr:country": "US", "addr:full": "332 761ST TANK BATTALION AVE", "addr:postcode": "76544", "addr:state": "TX", "brand": "USPS", "collection_times": "Mo-Fr 17:00; Sa 15:00", "name": "USPS COLLECTION BOX - PO LOBBY", "note": "ON 12/24 AND 12/31, THIS BOX MAY BE COLLECTED AS EARLY AS 12 NOON.", "ref": "7654400028"}, "type": "Feature"}
{"geometry": {"coordinates": [-97.745362847, 31.135452881], "type": "Point"}, "id": "jQuZYyEu05veO7Zl1J3dDJOKdBc=", "properties": {"@spider": "usps_collection_boxes", "addr:city": "FT HOOD", "addr:country": "US", "addr:full": "332 761ST TANK BATTALION AVE", "addr:postcode": "76544", "addr:state": "TX", "brand": "USPS", "collection_times": "Mo-Fr 17:00; Sa 13:00", "name": "USPS COLLECTION BOX - PO LOBBY", "note": "ON 12/24 AND 12/31, THIS BOX MAY BE COLLECTED AS EARLY AS 12 NOON.", "ref": "7654400031"}, "type": "Feature"}
{"geometry": {"coordinates": [-97.665858, 31.065849], "type": "Point"}, "id": "C-wLrzuO_NUqyWEOeR754a8OjMU=", "properties": {"@spider": "usps_collection_boxes", "addr:city": "HARKER HEIGHTS", "addr:country": "US", "addr:full": "415 E FM 2410 RD", "addr:postcode": "76548", "addr:state": "TX", "brand": "USPS", "collection_times": "Mo-Fr 17:00; Sa 13:00", "name": "USPS COLLECTION BOX - BLUE BOX", "note": "ON 12/24 AND 12/31, THIS BOX MAY BE COLLECTED AS EARLY AS 12 NOON.", "ref": "7654800002"}, "type": "Feature"}
{"geometry": {"coordinates": [-97.6694594, 31.069151], "type": "Point"}, "id": "5EtZA_QJ5wRKwwPImebcCpk-rqg=", "properties": {"@spider": "usps_collection_boxes", "addr:city": "HARKER HEIGHTS", "addr:country": "US", "addr:full": "100 W CENTRAL TEXAS EXPY", "addr:postcode": "76548", "addr:state": "TX", "brand": "USPS", "collection_times": "Mo-Sa 12:30", "name": "USPS COLLECTION BOX - BLUE BOX", "note": "ON 12/24 AND 12/31, THIS BOX MAY BE COLLECTED AS EARLY AS 12 NOON.", "ref": "7654800003"}, "type": "Feature"}
{"geometry": {"coordinates": [-97.665858, 31.065849], "type": "Point"}, "id": "qsuE4cZabw9WEJTvSHLOOUUi8zc=", "properties": {"@spider": "usps_collection_boxes", "addr:city": "HARKER HEIGHTS", "addr:country": "US", "addr:full": "415 E FM 2410 RD", "addr:postcode": "76548", "addr:state": "TX", "brand": "USPS", "collection_times": "Mo-Fr 17:00; Sa 13:00", "name": "USPS COLLECTION BOX - PO LOBBY", "note": "ON 12/24 AND 12/31, THIS BOX MAY BE COLLECTED AS EARLY AS 12 NOON.", "ref": "7654800004"}, "type": "Feature"}
{"geometry": {"coordinates": [-97.665858, 31.065849], "type": "Point"}, "id": "ByfCH0WOBMSKVuxzJoMOsc8zThM=", "properties": {"@spider": "usps_collection_boxes", "addr:city": "HARKER HEIGHTS", "addr:country": "US", "addr:full": "415 E FM 2410 RD", "addr:postcode": "76548", "addr:state": "TX", "brand": "USPS", "collection_times": "Mo-Fr 17:00; Sa 13:00", "name": "USPS COLLECTION BOX - PO LOBBY", "note": "ON 12/24 AND 12/31, THIS BOX MAY BE COLLECTED AS EARLY AS 12 NOON.", "ref": "7654800005"}, "type": "Feature"}
{"geometry": {"coordinates": [-97.665856658, 31.065845394], "type": "Point"}, "id": "SqxJpHoyHv1xubHSzt9IkIdJdKc=", "properties": {"@spider": "usps_collection_boxes", "addr:city": "HARKER HEIGHTS", "addr:country": "US", "addr:full": "415 E FM 2410 RD", "addr:postcode": "76548", "addr:state": "TX", "brand": "USPS", "collection_times": "Mo-Fr 17:00; Sa 13:00", "name": "USPS COLLECTION BOX - PO LOBBY", "note": "ON 12/24 AND 12/31, THIS BOX MAY BE COLLECTED AS EARLY AS 12 NOON.", "ref": "7654800011"}, "type": "Feature"}
{"geometry": {"coordinates": [-97.775624, 31.082917], "type": "Point"}, "id": "58nAZDYybnF1ckK_HB_HHATUJTc=", "properties": {"@spider": "usps_collection_boxes", "addr:city": "KILLEEN", "addr:country": "US", "addr:full": "2403 W STAN SCHLUETER LOOP", "addr:postcode": "76549", "addr:state": "TX", "brand": "USPS", "collection_times": "Mo-Fr 17:00; Sa 13:00", "name": "USPS COLLECTION BOX - BLUE BOX", "note": "ON 12/24 AND 12/31, THIS BOX MAY BE COLLECTED AS EARLY AS 12 NOON.", "ref": "7654900000"}, "type": "Feature"}
{"geometry": {"coordinates": [-97.775624, 31.082917], "type": "Point"}, "id": "gnEjng4RyetaIt2crdZL1Kj0R-s=", "properties": {"@spider": "usps_collection_boxes", "addr:city": "KILLEEN", "addr:country": "US", "addr:full": "2403 W STAN SCHLUETER LOOP", "addr:postcode": "76549", "addr:state": "TX", "brand": "USPS", "collection_times": "Mo-Fr 17:00; Sa 13:00", "name": "USPS COLLECTION BOX - PO LOBBY", "note": "ON 12/24 AND 12/31, THIS BOX MAY BE COLLECTED AS EARLY AS 12 NOON.", "ref": "7654900002"}, "type": "Feature"}
{"geometry": {"coordinates": [-97.775624, 31.082917], "type": "Point"}, "id": "kHnHZRejN5acr9BSiJ6hy6sJ31o=", "properties": {"@spider": "usps_collection_boxes", "addr:city": "KILLEEN", "addr:country": "US", "addr:full": "2403 W STAN SCHLUETER LOOP", "addr:postcode": "76549", "addr:state": "TX", "brand": "USPS", "collection_times": "Mo-Fr 17:00; Sa 13:00", "name": "USPS COLLECTION BOX - PO LOBBY", "note": "ON 12/24 AND 12/31, THIS BOX MAY BE COLLECTED AS EARLY AS 12 NOON.", "ref": "7654900003"}, "type": "Feature"}
{"geometry": {"coordinates": [-97.775624, 31.082917], "type": "Point"}, "id": "xRhbSYowHTfJ4G_OFnmwdcTb_4Y=", "properties": {"@spider": "usps_collection_boxes", "addr:city": "KILLEEN", "addr:country": "US", "addr:full": "2403 W STAN SCHLUETER LOOP", "addr:postcode": "76549", "addr:state": "TX", "brand": "USPS", "collection_times": "Mo-Fr 17:00; Sa 13:00", "name": "USPS COLLECTION BOX - PO LOBBY", "note": "ON 12/24 AND 12/31, THIS BOX MAY BE COLLECTED AS EARLY AS 12 NOON.", "ref": "7654900004"}, "type": "Feature"}
{"geometry": {"coordinates": [-97.775624, 31.082917], "type": "Point"}, "id": "LVJIu-LrRS3qbF5kP5mpvLq7BUM=", "properties": {"@spider": "usps_collection_boxes", "addr:city": "KILLEEN", "addr:country": "US", "addr:full": "2403 W STAN SCHLUETER LOOP", "addr:postcode": "76549", "addr:state": "TX", "brand": "USPS", "collection_times": "Mo-Fr 17:00; Sa 13:00", "name": "USPS COLLECTION BOX - PO LOBBY", "note": "ON 12/24 AND 12/31, THIS BOX MAY BE COLLECTED AS EARLY AS 12 NOON.", "ref": "7654900005"}, "type": "Feature"}
{"geometry": {"coordinates": [-97.775624, 31.082917], "type": "Point"}, "id": "sWI0tDNoO7lr8V01ubWz2_fZrgQ=", "properties": {"@spider": "usps_collection_boxes", "addr:city": "KILLEEN", "addr:country": "US", "addr:full": "2403 W STAN SCHLUETER LOOP", "addr:postcode": "76549", "addr:state": "TX", "brand": "USPS", "collection_times": "Mo-Fr 17:00; Sa 13:00", "name": "USPS COLLECTION BOX - APC", "note": "ON 12/24 AND 12/31, THIS BOX MAY BE COLLECTED AS EARLY AS 12 NOON.", "ref": "7654900006"}, "type": "Feature"}
{"geometry": {"coordinates": [-97.775622981, 31.082914703], "type": "Point"}, "id": "AOqi9lo2GnuzP16pfAcJGKzWsUs=", "properties": {"@spider": "usps_collection_boxes", "addr:city": "KILLEEN", "addr:country": "US", "addr:full": "2403 W STAN SCHLUETER LOOP", "addr:postcode": "76549", "addr:state": "TX", "brand": "USPS", "collection_times": "Mo-Fr 16:30; Sa 13:00", "name": "USPS COLLECTION BOX - PO LOBBY", "note": "ON 12/24 AND 12/31, THIS BOX MAY BE COLLECTED AS EARLY AS 12 NOON.", "ref": "7654900010"}, "type": "Feature"}
{"geometry": {"coordinates": [-98.1831199, 31.065717], "type": "Point"}, "id": "QzZGfp06HExlm35XTqBW17lsA_8=", "properties": {"@spider": "usps_collection_boxes", "addr:city": "LAMPASAS", "addr:country": "US", "addr:full": "210 S KEY AVE", "addr:postcode": "76550", "addr:state": "TX", "brand": "USPS", "collection_times": "Mo-Sa 15:30", "name": "USPS COLLECTION BOX - BLUE BOX", "note": "ON 12/24 AND 12/31, THIS BOX MAY BE COLLECTED AS EARLY AS 12 NOON.", "ref": "7655000001"}, "type": "Feature"}
{"geometry": {"coordinates": [-98.1770888, 31.065236], "type": "Point"}, "id": "JYZsIXqkZgsW5ALNmvxsXQ5LqNE=", "properties": {"@spider": "usps_collection_boxes", "addr:city": "LAMPASAS", "addr:country": "US", "addr:full": "516 E 4TH ST", "addr:postcode": "76550", "addr:state": "TX", "brand": "USPS", "collection_times": "Mo-Sa 15:30", "name": "USPS COLLECTION BOX - BLUE BOX", "note": "ON 12/24 AND 12/31, THIS BOX MAY BE COLLECTED AS EARLY AS 12 NOON.", "ref": "7655000005"}, "type": "Feature"}
{"geometry": {"coordinates": [-98.1799664, 31.061523], "type": "Point"}, "id": "jw9PmS7zBe0vih10hyo8PpZ48V0=", "properties": {"@spider": "usps_collection_boxes", "addr:city": "LAMPASAS", "addr:country": "US", "addr:full": "705 S KEY AVE", "addr:postcode": "76550", "addr:state": "TX", "brand": "USPS", "collection_times": "Mo-Sa 15:30", "name": "USPS COLLECTION BOX - BLUE BOX", "note": "ON 12/24 AND 12/31, THIS BOX MAY BE COLLECTED AS EARLY AS 12 NOON.", "ref": "7655000022"}, "type": "Feature"}
{"geometry": {"coordinates": [-98.163359, 31.064533], "type": "Point"}, "id": "V7ChyK-GrN78EQdEDxSpMcRytL0=", "properties": {"@spider": "usps_collection_boxes", "addr:city": "LAMPASAS", "addr:country": "US", "addr:full": "1700 E 4TH ST", "addr:postcode": "76550", "addr:state": "TX", "brand": "USPS", "collection_times": "Mo-Fr 16:30; Sa 11:45", "name": "USPS COLLECTION BOX - BLUE BOX", "note": "ON 12/24 AND 12/31, THIS BOX MAY BE COLLECTED AS EARLY AS 12 NOON.", "ref": "7655000023"}, "type": "Feature"}
{"geometry": {"coordinates": [-98.163359, 31.064533], "type": "Point"}, "id": "idI_DXWLqA4wqgSt5DdQIx7hkHg=", "properties": {"@spider": "usps_collection_boxes", "addr:city": "LAMPASAS", "addr:country": "US", "addr:full": "1700 E 4TH ST", "addr:postcode": "76550", "addr:state": "TX", "brand": "USPS", "collection_times": "Mo-Fr 16:30; Sa 12:00", "name": "USPS COLLECTION BOX - PO LOBBY", "note": "ON 12/24 AND 12/31, THIS BOX MAY BE COLLECTED AS EARLY AS 12 NOON.", "ref": "7655000025"}, "type": "Feature"}
{"geometry": {"coordinates": [-98.163359, 31.064533], "type": "Point"}, "id": "-C--wAnUtKUkUHmVW41h-cEt3s8=", "properties": {"@spider": "usps_collection_boxes", "addr:city": "LAMPASAS", "addr:country": "US", "addr:full": "1700 E 4TH ST", "addr:postcode": "76550", "addr:state": "TX", "brand": "USPS", "collection_times": "Mo-Fr 16:30; Sa 12:00", "name": "USPS COLLECTION BOX - PO LOBBY", "note": "ON 12/24 AND 12/31, THIS BOX MAY BE COLLECTED AS EARLY AS 12 NOON.", "ref": "7655000026"}, "type": "Feature"}
{"geometry": {"coordinates": [-98.1633487215, 31.0645415206], "type": "Point"}, "id": "ryiX6bT6BM-E6LnUOvoCYt330Aw=", "properties": {"@spider": "usps_collection_boxes", "addr:city": "LAMPASAS", "addr:country": "US", "addr:full": "1700 E 4TH ST", "addr:postcode": "76550", "addr:state": "TX", "brand": "USPS", "collection_times": "Mo-Fr 16:30; Sa 12:00", "name": "USPS COLLECTION BOX - PO LOBBY", "note": "ON 12/24 AND 12/31, THIS BOX MAY BE COLLECTED AS EARLY AS 12 NOON.", "ref": "7655000027"}, "type": "Feature"}
{"geometry": {"coordinates": [-97.366069, 30.989244], "type": "Point"}, "id": "ARtugyXUobhubzJ5DE8RLJ-lX6Y=", "properties": {"@spider": "usps_collection_boxes", "addr:city": "LTL RVR ACAD", "addr:country": "US", "addr:full": "106 N EVANS ST", "addr:postcode": "76554", "addr:state": "TX", "brand": "USPS", "collection_times": "Mo-Fr 15:30; Sa 09:30", "name": "USPS COLLECTION BOX - BLUE BOX", "note": "ON 12/24 AND 12/31, THIS BOX MAY BE COLLECTED AS EARLY AS 12 NOON.", "ref": "7655400000"}, "type": "Feature"}
{"geometry": {"coordinates": [-97.366069, 30.989244], "type": "Point"}, "id": "iTUuuv0FqZJHP3O2fqsIcC-LjcE=", "properties": {"@spider": "usps_collection_boxes", "addr:city": "LTL RVR ACAD", "addr:country": "US", "addr:full": "106 N EVANS ST", "addr:postcode": "76554", "addr:state": "TX", "brand": "USPS", "collection_times": "Mo-Fr 15:00; Sa 09:30", "name": "USPS COLLECTION BOX - PO LOBBY", "note": "ON 12/24 AND 12/31, THIS BOX MAY BE COLLECTED AS EARLY AS 12 NOON.", "ref": "7655400002"}, "type": "Feature"}
{"geometry": {"coordinates": [-97.365999597, 30.989153629], "type": "Point"}, "id": "Gq8SmxIMsKXQd5L2pnSxbTmYTIU=", "properties": {"@spider": "usps_collection_boxes", "addr:city": "LTL RVR ACAD", "addr:country": "US", "addr:full": "106 N EVANS ST", "addr:postcode": "76554", "addr:state": "TX", "brand": "USPS", "collection_times": "Mo-Fr 15:30; Sa 09:30", "name": "USPS COLLECTION BOX - PO LOBBY", "note": "ON 12/24 AND 12/31, THIS BOX MAY BE COLLECTED AS EARLY AS 12 NOON.", "ref": "7655400005"}, "type": "Feature"}
{"geometry": {"coordinates": [-96.866437, 30.707587], "type": "Point"}, "id": "S2TgqCw-FEt0nY49URHqPKgEM0A=", "properties": {"@spider": "usps_collection_boxes", "addr:city": "MILANO", "addr:country": "US", "addr:full": "320 W AVENUE E", "addr:postcode": "76556", "addr:state": "TX", "brand": "USPS", "collection_times": "Mo-Fr 11:55; Sa 09:45", "name": "USPS COLLECTION BOX - BLUE BOX", "ref": "7655600000"}, "type": "Feature"}
{"geometry": {"coordinates": [-96.866437, 30.707587], "type": "Point"}, "id": "6n83rSLS5ch-GHZb4ThGwgYsuDw=", "properties": {"@spider": "usps_collection_boxes", "addr:city": "MILANO", "addr:country": "US", "addr:full": "320 W AVENUE E", "addr:postcode": "76556", "addr:state": "TX", "brand": "USPS", "collection_times": "Mo-Fr 12:00; Sa 10:00", "name": "USPS COLLECTION BOX - PO LOBBY", "ref": "7655600001"}, "type": "Feature"}
{"geometry": {"coordinates": [-96.866466793, 30.707605249], "type": "Point"}, "id": "zJTYaBWpVsoJnCNXZPhqZm1e-hY=", "properties": {"@spider": "usps_collection_boxes", "addr:city": "MILANO", "addr:country": "US", "addr:full": "320 W AVENUE E", "addr:postcode": "76556", "addr:state": "TX", "brand": "USPS", "collection_times": "Mo-Fr 12:00; Sa 10:00", "name": "USPS COLLECTION BOX - PO LOBBY", "ref": "7655600003"}, "type": "Feature"}
{"geometry": {"coordinates": [-97.361821, 31.309353], "type": "Point"}, "id": "YsbWLdEa3UwdjUqdyDsYl4w6pGM=", "properties": {"@spider": "usps_collection_boxes", "addr:city": "MOODY", "addr:country": "US", "addr:full": "501 AVENUE E", "addr:postcode": "76557", "addr:state": "TX", "brand": "USPS", "collection_times": "Mo-Fr 16:30; Sa 09:00", "name": "USPS COLLECTION BOX - BLUE BOX", "note": "ON 12/24 AND 12/31, THIS BOX MAY BE COLLECTED AS EARLY AS 12 NOON.", "ref": "7655700000"}, "type": "Feature"}
{"geometry": {"coordinates": [-97.361821, 31.309353], "type": "Point"}, "id": "LqB3ZGz_NSyBu5ZznxFI-vgvUA0=", "properties": {"@spider": "usps_collection_boxes", "addr:city": "MOODY", "addr:country": "US", "addr:full": "501 AVENUE E", "addr:postcode": "76557", "addr:state": "TX", "brand": "USPS", "collection_times": "Mo-Fr 16:30; Sa 09:00", "name": "USPS COLLECTION BOX - PO LOBBY", "note": "ON 12/24 AND 12/31, THIS BOX MAY BE COLLECTED AS EARLY AS 12 NOON.", "ref": "7655700001"}, "type": "Feature"}
{"geometry": {"coordinates": [-97.361821, 31.309353], "type": "Point"}, "id": "j29Oj31kuQL2i9Zh3JyoWKY01g0=", "properties": {"@spider": "usps_collection_boxes", "addr:city": "MOODY", "addr:country": "US", "addr:full": "501 AVENUE E", "addr:postcode": "76557", "addr:state": "TX", "brand": "USPS", "collection_times": "Mo-Fr 16:30; Sa 09:00", "name": "USPS COLLECTION BOX - PO LOBBY", "note": "ON 12/24 AND 12/31, THIS BOX MAY BE COLLECTED AS EARLY AS 12 NOON.", "ref": "7655700003"}, "type": "Feature"}
{"geometry": {"coordinates": [-97.361819165, 31.309345059], "type": "Point"}, "id": "njaGlkemY0mFw1eRJbZCad33oGE=", "properties": {"@spider": "usps_collection_boxes", "addr:city": "MOODY", "addr:country": "US", "addr:full": "501 AVENUE E", "addr:postcode": "76557", "addr:state": "TX", "brand": "USPS", "collection_times": "Mo-Fr 16:30", "name": "USPS COLLECTION BOX - PO LOBBY", "note": "ON 12/24 AND 12/31, THIS BOX MAY BE COLLECTED AS EARLY AS 12 NOON.", "ref": "7655700004"}, "type": "Feature"}
{"geometry": {"coordinates": [-97.637591, 31.351512], "type": "Point"}, "id": "iiFwTdD6N9DhYhbZRI4hb4iHiLY=", "properties": {"@spider": "usps_collection_boxes", "addr:city": "MOUND", "addr:country": "US", "addr:full": "5116 FM 1829", "addr:postcode": "76558", "addr:state": "TX", "brand": "USPS", "collection_times": "Mo-Fr 09:50; Sa 11:15", "name": "USPS COLLECTION BOX - BLUE BOX", "ref": "7655800000"}, "type": "Feature"}
{"geometry": {"coordinates": [-97.637811604, 31.351035771], "type": "Point"}, "id": "CIqzKRD5WjmytmStOHXgri91WNU=", "properties": {"@spider": "usps_collection_boxes", "addr:city": "MOUND", "addr:country": "US", "addr:full": "5116 FM 1829", "addr:postcode": "76558", "addr:state": "TX", "brand": "USPS", "collection_times": "Mo-Fr 10:00; Sa 11:30", "name": "USPS COLLECTION BOX - PO LOBBY", "ref": "7655800002"}, "type": "Feature"}
{"geometry": {"coordinates": [-97.605759, 31.078213], "type": "Point"}, "id": "jpltdGxsp8kdI3GUgDUQK4EOR-U=", "properties": {"@spider": "usps_collection_boxes", "addr:city": "NOLANVILLE", "addr:country": "US", "addr:full": "201 N MAIN ST", "addr:postcode": "76559", "addr:state": "TX", "brand": "USPS", "collection_times": "Mo-Fr 16:45; Sa 11:00", "name": "USPS COLLECTION BOX - BLUE BOX", "note": "ON 12/24 AND 12/31, THIS BOX MAY BE COLLECTED AS EARLY AS 12 NOON.", "ref": "7655900000"}, "type": "Feature"}
{"geometry": {"coordinates": [-97.605759, 31.078213], "type": "Point"}, "id": "Ll_7CWgBn4K2NhUdhq8lkesIjLM=", "properties": {"@spider": "usps_collection_boxes", "addr:city": "NOLANVILLE", "addr:country": "US", "addr:full": "201 N MAIN ST", "addr:postcode": "76559", "addr:state": "TX", "brand": "USPS", "collection_times": "Mo-Fr 16:15; Sa 10:30", "name": "USPS COLLECTION BOX - PO LOBBY", "note": "ON 12/24 AND 12/31, THIS BOX MAY BE COLLECTED AS EARLY AS 12 NOON.", "ref": "7655900002"}, "type": "Feature"}
{"geometry": {"coordinates": [-97.6056106778, 31.0781723253], "type": "Point"}, "id": "6vLdJ8XyoQgNvjL4pKKBgCSyx04=", "properties": {"@spider": "usps_collection_boxes", "addr:city": "NOLANVILLE", "addr:country": "US", "addr:full": "201 N MAIN ST", "addr:postcode": "76559", "addr:state": "TX", "brand": "USPS", "collection_times": "Mo-Fr 16:15; Sa 10:30", "name": "USPS COLLECTION BOX - PO LOBBY", "note": "ON 12/24 AND 12/31, THIS BOX MAY BE COLLECTED AS EARLY AS 12 NOON.", "ref": "7655900004"}, "type": "Feature"}
{"geometry": {"coordinates": [-97.506906, 31.418783], "type": "Point"}, "id": "q4vmIXGwifr_oJ5R0gnPgPyQZJs=", "properties": {"@spider": "usps_collection_boxes", "addr:city": "OGLESBY", "addr:country": "US", "addr:full": "108 MAIN ST", "addr:postcode": "76561", "addr:state": "TX", "brand": "USPS", "collection_times": "Mo-Fr 11:55; Sa 09:05", "name": "USPS COLLECTION BOX - BLUE BOX", "ref": "7656100000"}, "type": "Feature"}
{"geometry": {"coordinates": [-97.506906, 31.418783], "type": "Point"}, "id": "hfDqyW2cQUuGuagmDIMh1_HVuZw=", "properties": {"@spider": "usps_collection_boxes", "addr:city": "OGLESBY", "addr:country": "US", "addr:full": "108 MAIN ST", "addr:postcode": "76561", "addr:state": "TX", "brand": "USPS", "collection_times": "Mo-Fr 12:00; Sa 09:00", "name": "USPS COLLECTION BOX - PO LOBBY", "ref": "7656100001"}, "type": "Feature"}
{"geometry": {"coordinates": [-97.506788814, 31.418789195], "type": "Point"}, "id": "Hc3niC_jLz418xsJdJng-CHnROs=", "properties": {"@spider": "usps_collection_boxes", "addr:city": "OGLESBY", "addr:country": "US", "addr:full": "108 MAIN ST", "addr:postcode": "76561", "addr:state": "TX", "brand": "USPS", "collection_times": "Mo-Fr 12:00; Sa 09:00", "name": "USPS COLLECTION BOX - PO LOBBY", "ref": "7656100004"}, "type": "Feature"}
{"geometry": {"coordinates": [-97.3485525255, 31.195871719], "type": "Point"}, "id": "5G8v-lqnlkiH_wn5rcL0ALPw05M=", "properties": {"@spider": "usps_collection_boxes", "addr:city": "PENDLETON", "addr:country": "US", "addr:full": "9765 PENDLETON TROY RD", "addr:postcode": "76564", "addr:state": "TX", "brand": "USPS", "collection_times": "Mo-Fr 09:00; Sa 10:00", "name": "USPS COLLECTION BOX - BLUE BOX", "ref": "7656400000"}, "type": "Feature"}
{"geometry": {"coordinates": [-97.3485525255, 31.195871719], "type": "Point"}, "id": "H31Xfpbkwzq45xSYvOO2VNSCLno=", "properties": {"@spider": "usps_collection_boxes", "addr:city": "PENDLETON", "addr:country": "US", "addr:full": "9765 PENDLETON TROY RD", "addr:postcode": "76564", "addr:state": "TX", "brand": "USPS", "collection_times": "Mo-Fr 09:00; Sa 10:15", "name": "USPS COLLECTION BOX - PO LOBBY", "ref": "7656400001"}, "type": "Feature"}
{"geometry": {"coordinates": [-97.3485525255, 31.195871719], "type": "Point"}, "id": "wHzmQ1zrXq-9OU8Dye48H9rABV8=", "properties": {"@spider": "usps_collection_boxes", "addr:city": "PENDLETON", "addr:country": "US", "addr:full": "9765 PENDLETON TROY RD", "addr:postcode": "76564", "addr:state": "TX", "brand": "USPS", "collection_times": "Mo-Fr 09:00; Sa 10:15", "name": "USPS COLLECTION BOX - PO LOBBY", "ref": "7656400002"}, "type": "Feature"}
{"geometry": {"coordinates": [-97.345235152, 31.198500825], "type": "Point"}, "id": "EZ-oMjQgwTQhS4csKhSgU2lmyX4=", "properties": {"@spider": "usps_collection_boxes", "addr:city": "PENDLETON", "addr:country": "US", "addr:full": "9765 PENDLETON TROY RD", "addr:postcode": "76564", "addr:state": "TX", "brand": "USPS", "collection_times": "Mo-Fr 09:00; Sa 10:15", "name": "USPS COLLECTION BOX - PO LOBBY", "ref": "7656400004"}, "type": "Feature"}
{"geometry": {"coordinates": [-97.982349, 31.470101], "type": "Point"}, "id": "nJlUr9oG1LNrlrnJYK0WFs4qWMc=", "properties": {"@spider": "usps_collection_boxes", "addr:city": "PURMELA", "addr:country": "US", "addr:full": "12250 W US HIGHWAY 84", "addr:postcode": "76566", "addr:state": "TX", "brand": "USPS", "collection_times": "Mo-Fr 09:50; Sa 11:00", "name": "USPS COLLECTION BOX - BLUE BOX", "ref": "7656600000"}, "type": "Feature"}
{"geometry": {"coordinates": [-97.982348, 31.470102], "type": "Point"}, "id": "-q8NktO4-ZSiv4lJe6W6lsw3nAo=", "properties": {"@spider": "usps_collection_boxes", "addr:city": "PURMELA", "addr:country": "US", "addr:full": "12250 W US HIGHWAY 84", "addr:postcode": "76566", "addr:state": "TX", "brand": "USPS", "collection_times": "Mo-Fr 10:00; Sa 11:15", "name": "USPS COLLECTION BOX - PO LOBBY", "ref": "7656600002"}, "type": "Feature"}
{"geometry": {"coordinates": [-97.982348, 31.470102], "type": "Point"}, "id": "DdAt-rIKfK3Le231H7_4XDX5YuA=", "properties": {"@spider": "usps_collection_boxes", "addr:city": "PURMELA", "addr:country": "US", "addr:full": "12250 W US HIGHWAY 84", "addr:postcode": "76566", "addr:state": "TX", "brand": "USPS", "collection_times": "Mo-Fr 10:00; Sa 11:15", "name": "USPS COLLECTION BOX - PO LOBBY", "ref": "7656600003"}, "type": "Feature"}
{"geometry": {"coordinates": [-97.971749669, 31.47022304], "type": "Point"}, "id": "SddgSrr3aYqBdCquVar4K_OUfoE=", "properties": {"@spider": "usps_collection_boxes", "addr:city": "PURMELA", "addr:country": "US", "addr:full": "12250 W US HIGHWAY 84", "addr:postcode": "76566", "addr:state": "TX", "brand": "USPS", "collection_times": "Mo-Fr 10:00; Sa 11:15", "name": "USPS COLLECTION BOX - PO LOBBY", "ref": "7656600005"}, "type": "Feature"}
{"geometry": {"coordinates": [-97.0196724, 30.647421], "type": "Point"}, "id": "Q4OIEXJMuIIYHX6_fkCnOT458pA=", "properties": {"@spider": "usps_collection_boxes", "addr:city": "ROCKDALE", "addr:country": "US", "addr:full": "1502 W CAMERON AVE", "addr:postcode": "76567", "addr:state": "TX", "brand": "USPS", "collection_times": "Mo-Sa 13:30", "name": "USPS COLLECTION BOX - BLUE BOX", "note": "ON 12/24 AND 12/31, THIS BOX MAY BE COLLECTED AS EARLY AS 12 NOON.", "ref": "7656700001"}, "type": "Feature"}
{"geometry": {"coordinates": [-97.000726, 30.656745], "type": "Point"}, "id": "FELhJ4eVv1qpjRpY5PwNwqbQUTA=", "properties": {"@spider": "usps_collection_boxes", "addr:city": "ROCKDALE", "addr:country": "US", "addr:full": "234 ACKERMAN ST", "addr:postcode": "76567", "addr:state": "TX", "brand": "USPS", "collection_times": "Mo-Fr 16:15; Sa 15:45", "name": "USPS COLLECTION BOX - BLUE BOX", "note": "ON 12/24 AND 12/31, THIS BOX MAY BE COLLECTED AS EARLY AS 12 NOON.", "ref": "7656700004"}, "type": "Feature"}
{"geometry": {"coordinates": [-97.0005976, 30.656837], "type": "Point"}, "id": "9mjrFzgJy_CAc9pIebLM8x51Vpc=", "properties": {"@spider": "usps_collection_boxes", "addr:city": "ROCKDALE", "addr:country": "US", "addr:full": "234 ACKERMAN ST", "addr:postcode": "76567", "addr:state": "TX", "brand": "USPS", "collection_times": "Mo-Fr 16:30; Sa 15:45", "name": "USPS COLLECTION BOX - PO LOBBY", "note": "ON 12/24 AND 12/31, THIS BOX MAY BE COLLECTED AS EARLY AS 12 NOON.", "ref": "7656700007"}, "type": "Feature"}
{"geometry": {"coordinates": [-97.0320886, 30.64271], "type": "Point"}, "id": "F0axvHNiHziPrOiQCRc0nlePoL0=", "properties": {"@spider": "usps_collection_boxes", "addr:city": "ROCKDALE", "addr:country": "US", "addr:full": "709 W US HIGHWAY 79", "addr:postcode": "76567", "addr:state": "TX", "brand": "USPS", "collection_times": "Mo-Sa 10:45", "name": "USPS COLLECTION BOX - BLUE BOX", "ref": "7656700009"}, "type": "Feature"}
{"geometry": {"coordinates": [-97.000564417, 30.656491878], "type": "Point"}, "id": "Lj357_AUa5_iJdvC2Nipa416EzI=", "properties": {"@spider": "usps_collection_boxes", "addr:city": "ROCKDALE", "addr:country": "US", "addr:full": "234 ACKERMAN ST", "addr:postcode": "76567", "addr:state": "TX", "brand": "USPS", "collection_times": "Mo-Fr 16:30; Sa 11:00", "name": "USPS COLLECTION BOX - PO LOBBY", "note": "ON 12/24 AND 12/31, THIS BOX MAY BE COLLECTED AS EARLY AS 12 NOON.", "ref": "7656700011"}, "type": "Feature"}
{"geometry": {"coordinates": [-97.228994, 30.933168], "type": "Point"}, "id": "F7O4z1oVuRfScGkqR-T0hZowgF8=", "properties": {"@spider": "usps_collection_boxes", "addr:city": "ROGERS", "addr:country": "US", "addr:full": "202 W MESQUITE AVE", "addr:postcode": "76569", "addr:state": "TX", "brand": "USPS", "collection_times": "Mo-Fr 16:10; Sa 11:00", "name": "USPS COLLECTION BOX - BLUE BOX", "note": "ON 12/24 AND 12/31, THIS BOX MAY BE COLLECTED AS EARLY AS 12 NOON.", "ref": "7656900000"}, "type": "Feature"}
{"geometry": {"coordinates": [-97.2288852, 30.93351], "type": "Point"}, "id": "gC2AXSXevGIH72eejDnaRIoc5Lg=", "properties": {"@spider": "usps_collection_boxes", "addr:city": "ROGERS", "addr:country": "US", "addr:full": "202 W MESQUITE AVE", "addr:postcode": "76569", "addr:state": "TX", "brand": "USPS", "collection_times": "Mo-Fr 16:00; Sa 11:00", "name": "USPS COLLECTION BOX - PO LOBBY", "note": "ON 12/24 AND 12/31, THIS BOX MAY BE COLLECTED AS EARLY AS 12 NOON.", "ref": "7656900001"}, "type": "Feature"}
{"geometry": {"coordinates": [-97.228954043, 30.93317118], "type": "Point"}, "id": "IJBQS4EQp44gawr5XuUrl52KAPs=", "properties": {"@spider": "usps_collection_boxes", "addr:city": "ROGERS", "addr:country": "US", "addr:full": "202 W MESQUITE AVE", "addr:postcode": "76569", "addr:state": "TX", "brand": "USPS", "collection_times": "Mo-Fr 16:00; Sa 11:00", "name": "USPS COLLECTION BOX - PO LOBBY", "note": "ON 12/24 AND 12/31, THIS BOX MAY BE COLLECTED AS EARLY AS 12 NOON.", "ref": "7656900003"}, "type": "Feature"}
{"geometry": {"coordinates": [-96.979337, 31.073957], "type": "Point"}, "id": "ET4AY9VhRARUxLJmYGxVFUeqyzo=", "properties": {"@spider": "usps_collection_boxes", "addr:city": "ROSEBUD", "addr:country": "US", "addr:full": "206 N 5TH ST", "addr:postcode": "76570", "addr:state": "TX", "brand": "USPS", "collection_times": "Mo-Fr 16:15; Sa 10:15", "name": "USPS COLLECTION BOX - BLUE BOX", "note": "ON 12/24 AND 12/31, THIS BOX MAY BE COLLECTED AS EARLY AS 12 NOON.", "ref": "7657000000"}, "type": "Feature"}
{"geometry": {"coordinates": [-96.979337, 31.073957], "type": "Point"}, "id": "uqoQ_rIrVtAK3xWiXZg4mmXPJzo=", "properties": {"@spider": "usps_collection_boxes", "addr:city": "ROSEBUD", "addr:country": "US", "addr:full": "206 N 5TH ST", "addr:postcode": "76570", "addr:state": "TX", "brand": "USPS", "collection_times": "Mo-Fr 15:30; Sa 09:30", "name": "USPS COLLECTION BOX - PO LOBBY", "note": "ON 12/24 AND 12/31, THIS BOX MAY BE COLLECTED AS EARLY AS 12 NOON.", "ref": "7657000001"}, "type": "Feature"}
{"geometry": {"coordinates": [-96.979359061, 31.074087289], "type": "Point"}, "id": "uiJIDQRczKvS3c16E6dXU4AYAJ8=", "properties": {"@spider": "usps_collection_boxes", "addr:city": "ROSEBUD", "addr:country": "US", "addr:full": "206 N 5TH ST", "addr:postcode": "76570", "addr:state": "TX", "brand": "USPS", "collection_times": "Mo-Fr 16:00; Sa 10:00", "name": "USPS COLLECTION BOX - PO LOBBY", "note": "ON 12/24 AND 12/31, THIS BOX MAY BE COLLECTED AS EARLY AS 12 NOON.", "ref": "7657000004"}, "type": "Feature"}
{"geometry": {"coordinates": [-97.5346398156, 30.9541971263], "type": "Point"}, "id": "hDT_zXBZPZ56QNixiALnmEsZYoo=", "properties": {"@spider": "usps_collection_boxes", "addr:city": "SALADO", "addr:country": "US", "addr:full": "820 N MAIN ST", "addr:postcode": "76571", "addr:state": "TX", "brand": "USPS", "collection_times": "Mo-Fr 16:15; Sa 11:00", "name": "USPS COLLECTION BOX - BLUE BOX", "note": "ON 12/24 AND 12/31, THIS BOX MAY BE COLLECTED AS EARLY AS 12 NOON.", "ref": "7657100000"}, "type": "Feature"}
{"geometry": {"coordinates": [-97.5346398156, 30.9541971263], "type": "Point"}, "id": "PTfzTxCVYRaJbUjQOFRAE1SRfkw=", "properties": {"@spider": "usps_collection_boxes", "addr:city": "SALADO", "addr:country": "US", "addr:full": "820 N MAIN ST", "addr:postcode": "76571", "addr:state": "TX", "brand": "USPS", "collection_times": "Mo-Fr 16:15; Sa 11:00", "name": "USPS COLLECTION BOX - BLUE BOX", "note": "ON 12/24 AND 12/31, THIS BOX MAY BE COLLECTED AS EARLY AS 12 NOON.", "ref": "7657100001"}, "type": "Feature"}
{"geometry": {"coordinates": [-97.534581, 30.954281], "type": "Point"}, "id": "HXeaIkZXkpdJF8mSq2bOptFmhsw=", "properties": {"@spider": "usps_collection_boxes", "addr:city": "SALADO", "addr:country": "US", "addr:full": "820 N MAIN ST", "addr:postcode": "76571", "addr:state": "TX", "brand": "USPS", "collection_times": "Mo-Fr 16:00; Sa 11:00", "name": "USPS COLLECTION BOX - PO LOBBY", "note": "ON 12/24 AND 12/31, THIS BOX MAY BE COLLECTED AS EARLY AS 12 NOON.", "ref": "7657100002"}, "type": "Feature"}
{"geometry": {"coordinates": [-97.534639816, 30.954197126], "type": "Point"}, "id": "jBCKdsB92TEIA8jLy7UZDdhYjMM=", "properties": {"@spider": "usps_collection_boxes", "addr:city": "SALADO", "addr:country": "US", "addr:full": "820 N MAIN ST", "addr:postcode": "76571", "addr:state": "TX", "brand": "USPS", "collection_times": "Mo-Fr 16:00; Sa 11:00", "name": "USPS COLLECTION BOX - PO LOBBY", "note": "ON 12/24 AND 12/31, THIS BOX MAY BE COLLECTED AS EARLY AS 12 NOON.", "ref": "7657100003"}, "type": "Feature"}
{"geometry": {"coordinates": [-97.534639816, 30.954197126], "type": "Point"}, "id": "PlB3wJN0fbpZq2cm0qBXRnDodyE=", "properties": {"@spider": "usps_collection_boxes", "addr:city": "SALADO", "addr:country": "US", "addr:full": "820 N MAIN ST", "addr:postcode": "76571", "addr:state": "TX", "brand": "USPS", "collection_times": "Mo-Fr 16:00; Sa 11:00", "name": "USPS COLLECTION BOX - PO LOBBY", "note": "ON 12/24 AND 12/31, THIS BOX MAY BE COLLECTED AS EARLY AS 12 NOON.", "ref": "7657100005"}, "type": "Feature"}
{"geometry": {"coordinates": [-97.5148025956, 30.8142337541], "type": "Point"}, "id": "rN6Z0I_Z7E7WmVIlAqaHGw6Cu3A=", "properties": {"@spider": "usps_collection_boxes", "addr:city": "SCHWERTNER", "addr:country": "US", "addr:full": "14775 FM 1105", "addr:postcode": "76573", "addr:state": "TX", "brand": "USPS", "collection_times": "Mo-Fr 11:55; Sa 08:45", "name": "USPS COLLECTION BOX - BLUE BOX", "ref": "7657300000"}, "type": "Feature"}
{"geometry": {"coordinates": [-97.5148025956, 30.8142337541], "type": "Point"}, "id": "F7zY9MZ2tWXMZjCyW_KT3fd4U4E=", "properties": {"@spider": "usps_collection_boxes", "addr:city": "SCHWERTNER", "addr:country": "US", "addr:full": "14775 FM 1105", "addr:postcode": "76573", "addr:state": "TX", "brand": "USPS", "collection_times": "Mo-Fr 12:00; Sa 08:45", "name": "USPS COLLECTION BOX - PO LOBBY", "ref": "7657300002"}, "type": "Feature"}
{"geometry": {"coordinates": [-97.514417628, 30.814806834], "type": "Point"}, "id": "wPuaFOq9omAbqRn5rEWA05aU8OM=", "properties": {"@spider": "usps_collection_boxes", "addr:city": "SCHWERTNER", "addr:country": "US", "addr:full": "14775 FM 1105", "addr:postcode": "76573", "addr:state": "TX", "brand": "USPS", "collection_times": "Mo-Fr 12:00; Sa 08:45", "name": "USPS COLLECTION BOX - PO LOBBY", "ref": "7657300004"}, "type": "Feature"}
{"geometry": {"coordinates": [-97.411152, 30.570549], "type": "Point"}, "id": "sGwv11CeotJ3PcnjTiF7nTKMMAg=", "properties": {"@spider": "usps_collection_boxes", "addr:city": "TAYLOR", "addr:country": "US", "addr:full": "202 W 4TH ST", "addr:postcode": "76574", "addr:state": "TX", "brand": "USPS", "collection_times": "Mo-Fr 16:30; Sa 15:00", "name": "USPS COLLECTION BOX - BLUE BOX", "note": "ON 12/24 AND 12/31, THIS BOX MAY BE COLLECTED AS EARLY AS 12 NOON.", "ref": "7657400002"}, "type": "Feature"}
{"geometry": {"coordinates": [-97.4126843, 30.594682], "type": "Point"}, "id": "20Y7glDwy5794Yp4JQGJ_9XYpkM=", "properties": {"@spider": "usps_collection_boxes", "addr:city": "TAYLOR", "addr:country": "US", "addr:full": "3100 N MAIN ST", "addr:postcode": "76574", "addr:state": "TX", "brand": "USPS", "collection_times": "Mo-Sa 11:00", "name": "USPS COLLECTION BOX - BLUE BOX", "ref": "7657400005"}, "type": "Feature"}
{"geometry": {"coordinates": [-97.4150909, 30.591167], "type": "Point"}, "id": "WDH_y1mnrgAkudgxSB0lm0IADXQ=", "properties": {"@spider": "usps_collection_boxes", "addr:city": "TAYLOR", "addr:country": "US", "addr:full": "305 MALLARD LN", "addr:postcode": "76574", "addr:state": "TX", "brand": "USPS", "collection_times": "Mo-Sa 12:00", "name": "USPS COLLECTION BOX - BLUE BOX", "ref": "7657400011"}, "type": "Feature"}
{"geometry": {"coordinates": [-97.411152, 30.570549], "type": "Point"}, "id": "21yLi_OSAFIJhw5PBYx87al_DR4=", "properties": {"@spider": "usps_collection_boxes", "addr:city": "TAYLOR", "addr:country": "US", "addr:full": "202 W 4TH ST", "addr:postcode": "76574", "addr:state": "TX", "brand": "USPS", "collection_times": "Mo-Fr 16:30; Sa 15:00", "name": "USPS COLLECTION BOX - PO LOBBY", "note": "ON 12/24 AND 12/31, THIS BOX MAY BE COLLECTED AS EARLY AS 12 NOON.", "ref": "7657400012"}, "type": "Feature"}
{"geometry": {"coordinates": [-97.411152, 30.570549], "type": "Point"}, "id": "jdA6RmpHzY2NkOlVyMtGWXoepC4=", "properties": {"@spider": "usps_collection_boxes", "addr:city": "TAYLOR", "addr:country": "US", "addr:full": "202 W 4TH ST", "addr:postcode": "76574", "addr:state": "TX", "brand": "USPS", "collection_times": "Mo-Fr 16:30; Sa 15:00", "name": "USPS COLLECTION BOX - PO LOBBY", "note": "ON 12/24 AND 12/31, THIS BOX MAY BE COLLECTED AS EARLY AS 12 NOON.", "ref": "7657400013"}, "type": "Feature"}
{"geometry": {"coordinates": [-97.411152, 30.570549], "type": "Point"}, "id": "ML-8SQHn9Eiiye6tsRqZb9QwDho=", "properties": {"@spider": "usps_collection_boxes", "addr:city": "TAYLOR", "addr:country": "US", "addr:full": "202 W 4TH ST", "addr:postcode": "76574", "addr:state": "TX", "brand": "USPS", "collection_times": "Mo-Fr 16:30; Sa 15:00", "name": "USPS COLLECTION BOX - PO LOBBY", "note": "ON 12/24 AND 12/31, THIS BOX MAY BE COLLECTED AS EARLY AS 12 NOON.", "ref": "7657400014"}, "type": "Feature"}
{"geometry": {"coordinates": [-97.411193308, 30.57054349], "type": "Point"}, "id": "-uz8UJLW25xgbesWVnG_7VeX9Wo=", "properties": {"@spider": "usps_collection_boxes", "addr:city": "TAYLOR", "addr:country": "US", "addr:full": "202 W 4TH ST", "addr:postcode": "76574", "addr:state": "TX", "brand": "USPS", "collection_times": "Mo-Fr 16:00; Sa 11:15", "name": "USPS COLLECTION BOX - PO LOBBY", "note": "ON 12/24 AND 12/31, THIS BOX MAY BE COLLECTED AS EARLY AS 12 NOON.", "ref": "7657400018"}, "type": "Feature"}
{"geometry": {"coordinates": [-97.207287062, 30.614265575], "type": "Point"}, "id": "BTZz2awol-H9kIzy1r28WeAwoDA=", "properties": {"@spider": "usps_collection_boxes", "addr:city": "THORNDALE", "addr:country": "US", "addr:full": "201 W QUINN", "addr:postcode": "76577", "addr:state": "TX", "brand": "USPS", "collection_times": "Mo-Fr 16:15; Sa 10:15", "name": "USPS COLLECTION BOX - BLUE BOX", "note": "ON 12/24 AND 12/31, THIS BOX MAY BE COLLECTED AS EARLY AS 12 NOON.", "ref": "7657700000"}, "type": "Feature"}
{"geometry": {"coordinates": [-97.206935, 30.613513], "type": "Point"}, "id": "XPh-YaAJ8fufJD_Tc9ypB05Wtvo=", "properties": {"@spider": "usps_collection_boxes", "addr:city": "THORNDALE", "addr:country": "US", "addr:full": "107 N 1ST ST", "addr:postcode": "76577", "addr:state": "TX", "brand": "USPS", "collection_times": "Mo-Fr 16:00", "name": "USPS COLLECTION BOX - PO LOBBY", "note": "ON 12/24 AND 12/31, THIS BOX MAY BE COLLECTED AS EARLY AS 12 NOON.", "ref": "7657700002"}, "type": "Feature"}
{"geometry": {"coordinates": [-97.207224263, 30.614156079], "type": "Point"}, "id": "TjQpgLiOnmZ5geFoyYAbJb3wyLA=", "properties": {"@spider": "usps_collection_boxes", "addr:city": "THORNDALE", "addr:country": "US", "addr:full": "107 N 1ST ST", "addr:postcode": "76577", "addr:state": "TX", "brand": "USPS", "collection_times": "Mo-Fr 16:00; Sa 10:00", "name": "USPS COLLECTION BOX - PO LOBBY", "note": "ON 12/24 AND 12/31, THIS BOX MAY BE COLLECTED AS EARLY AS 12 NOON.", "ref": "7657700004"}, "type": "Feature"}
{"geometry": {"coordinates": [-97.297887, 30.588418], "type": "Point"}, "id": "ggMajXjRJXcggb5R_d0Sta2y338=", "properties": {"@spider": "usps_collection_boxes", "addr:city": "THRALL", "addr:country": "US", "addr:full": "101 E SHELDON AVE", "addr:postcode": "76578", "addr:state": "TX", "brand": "USPS", "collection_times": "Mo-Fr 15:00; Sa 09:45", "name": "USPS COLLECTION BOX - BLUE BOX", "note": "ON 12/24 AND 12/31, THIS BOX MAY BE COLLECTED AS EARLY AS 12 NOON.", "ref": "7657800000"}, "type": "Feature"}
{"geometry": {"coordinates": [-97.297887, 30.588418], "type": "Point"}, "id": "z6-9ZOZL3wSY886mCmIuDRDhS3E=", "properties": {"@spider": "usps_collection_boxes", "addr:city": "THRALL", "addr:country": "US", "addr:full": "101 E SHELDON AVE", "addr:postcode": "76578", "addr:state": "TX", "brand": "USPS", "collection_times": "Mo-Fr 15:00; Sa 09:30", "name": "USPS COLLECTION BOX - PO LOBBY", "note": "ON 12/24 AND 12/31, THIS BOX MAY BE COLLECTED AS EARLY AS 12 NOON.", "ref": "7657800001"}, "type": "Feature"}
{"geometry": {"coordinates": [-97.297888489, 30.588415165], "type": "Point"}, "id": "h8Re-5GI8BQ2iCyDst55tjects4=", "properties": {"@spider": "usps_collection_boxes", "addr:city": "THRALL", "addr:country": "US", "addr:full": "101 E SHELDON AVE", "addr:postcode": "76578", "addr:state": "TX", "brand": "USPS", "collection_times": "Mo-Fr 15:00; Sa 09:30", "name": "USPS COLLECTION BOX - PO LOBBY", "note": "ON 12/24 AND 12/31, THIS BOX MAY BE COLLECTED AS EARLY AS 12 NOON.", "ref": "7657800004"}, "type": "Feature"}
{"geometry": {"coordinates": [-97.30179, 31.20609], "type": "Point"}, "id": "nrZxho-JeGcbUKgy4a-IrWHej7I=", "properties": {"@spider": "usps_collection_boxes", "addr:city": "TROY", "addr:country": "US", "addr:full": "10 FRONT ST", "addr:postcode": "76579", "addr:state": "TX", "brand": "USPS", "collection_times": "Mo-Fr 16:00; Sa 10:45", "name": "USPS COLLECTION BOX - BLUE BOX", "note": "ON 12/24 AND 12/31, THIS BOX MAY BE COLLECTED AS EARLY AS 12 NOON.", "ref": "7657900000"}, "type": "Feature"}
{"geometry": {"coordinates": [-97.30179, 31.20609], "type": "Point"}, "id": "oobXIQ2EoBc0hva2FjPmk7BNhD0=", "properties": {"@spider": "usps_collection_boxes", "addr:city": "TROY", "addr:country": "US", "addr:full": "10 FRONT ST", "addr:postcode": "76579", "addr:state": "TX", "brand": "USPS", "collection_times": "Mo-Fr 15:45; Sa 11:00", "name": "USPS COLLECTION BOX - PO LOBBY", "note": "ON 12/24 AND 12/31, THIS BOX MAY BE COLLECTED AS EARLY AS 12 NOON.", "ref": "7657900001"}, "type": "Feature"}
{"geometry": {"coordinates": [-97.301840676, 31.20598954], "type": "Point"}, "id": "RiioITUNf9ObotZOVXEDaa8mN-U=", "properties": {"@spider": "usps_collection_boxes", "addr:city": "TROY", "addr:country": "US", "addr:full": "10 FRONT ST", "addr:postcode": "76579", "addr:state": "TX", "brand": "USPS", "collection_times": "Mo-Fr 16:30; Sa 10:00", "name": "USPS COLLECTION BOX - PO LOBBY", "note": "ON 12/24 AND 12/31, THIS BOX MAY BE COLLECTED AS EARLY AS 12 NOON.", "ref": "7657900005"}, "type": "Feature"}
