{"geometry": {"coordinates": [-97.071629906, 31.885137539], "type": "Point"}, "id": "IlDBk1iV4XTuFtF-bP6Fc8rr6-0=", "properties": {"@spider": "usps_collection_boxes", "addr:city": "ABBOTT", "addr:country": "US", "addr:full": "220 E WALNUT ST", "addr:postcode": "76621", "addr:state": "TX", "brand": "USPS", "collection_times": "Mo-Fr 10:45; Sa 08:45", "name": "USPS COLLECTION BOX - BLUE BOX", "ref": "7662100000"}, "type": "Feature"}
{"geometry": {"coordinates": [-97.071629906, 31.885137539], "type": "Point"}, "id": "xV7kqMy648lcn14t85d-ejtWnmw=", "properties": {"@spider": "usps_collection_boxes", "addr:city": "ABBOTT", "addr:country": "US", "addr:full": "220 E WALNUT ST", "addr:postcode": "76621", "addr:state": "TX", "brand": "USPS", "collection_times": "Mo-Fr 10:45; Sa 08:45", "name": "USPS COLLECTION BOX - PO LOBBY", "ref": "7662100002"}, "type": "Feature"}
{"geometry": {"coordinates": [-97.071629906, 31.885137539], "type": "Point"}, "id": "x5TPMefNTV_dyKjdGkhv5h-wBJw=", "properties": {"@spider": "usps_collection_boxes", "addr:city": "ABBOTT", "addr:country": "US", "addr:full": "220 E WALNUT ST", "addr:postcode": "76621", "addr:state": "TX", "brand": "USPS", "collection_times": "Mo-Fr 11:00; Sa 09:00", "name": "USPS COLLECTION BOX - PO LOBBY", "ref": "7662100006"}, "type": "Feature"}
{"geometry": {"coordinates": [-97.217821043, 31.851578207], "type": "Point"}, "id": "HAQIYScA23sLnxrhY9EY3OKnqsU=", "properties": {"@spider": "usps_collection_boxes", "addr:city": "AQUILLA", "addr:country": "US", "addr:full": "200 E TREADWELL", "addr:postcode": "76622", "addr:state": "TX", "brand": "USPS", "collection_times": "Mo-Fr 11:45; Sa 08:45", "name": "USPS COLLECTION BOX - BLUE BOX", "ref": "7662200001"}, "type": "Feature"}
{"geometry": {"coordinates": [-97.217821043, 31.851578207], "type": "Point"}, "id": "PKiZRLemWgjMbnuYb3BtSx7uUmU=", "properties": {"@spider": "usps_collection_boxes", "addr:city": "AQUILLA", "addr:country": "US", "addr:full": "200 E TREADWELL", "addr:postcode": "76622", "addr:state": "TX", "brand": "USPS", "collection_times": "Mo-Fr 12:00; Sa 08:30", "name": "USPS COLLECTION BOX - PO LOBBY", "ref": "7662200002"}, "type": "Feature"}
{"geometry": {"coordinates": [-97.217821043, 31.851578207], "type": "Point"}, "id": "ACPk6AppekrwX1-1wvcQrIj67Ys=", "properties": {"@spider": "usps_collection_boxes", "addr:city": "AQUILLA", "addr:country": "US", "addr:full": "200 E TREADWELL", "addr:postcode": "76622", "addr:state": "TX", "brand": "USPS", "collection_times": "Mo-Fr 12:00; Sa 09:00", "name": "USPS COLLECTION BOX - PO LOBBY", "ref": "7662200005"}, "type": "Feature"}
{"geometry": {"coordinates": [-96.786030256, 32.207519901], "type": "Point"}, "id": "473Z26eKPHdl8YN8UiZqAbi25mc=", "properties": {"@spider": "usps_collection_boxes", "addr:city": "AVALON", "addr:country": "US", "addr:full": "108 E MAIN ST", "addr:postcode": "76623", "addr:state": "TX", "brand": "USPS", "collection_times": "Mo-Fr 11:45; Sa 09:30", "name": "USPS COLLECTION BOX - BLUE BOX", "ref": "7662300000"}, "type": "Feature"}
{"geometry": {"coordinates": [-96.786030256, 32.207519901], "type": "Point"}, "id": "yJNsbeGnfL2oZKLI2NR_OQXfefc=", "properties": {"@spider": "usps_collection_boxes", "addr:city": "AVALON", "addr:country": "US", "addr:full": "108 E MAIN ST", "addr:postcode": "76623", "addr:state": "TX", "brand": "USPS", "collection_times": "Mo-Fr 12:00; Sa 09:30", "name": "USPS COLLECTION BOX - PO LOBBY", "ref": "7662300001"}, "type": "Feature"}
{"geometry": {"coordinates": [-96.786030256, 32.207519901], "type": "Point"}, "id": "Emmo5qpJ1aflpuU4ljwV9PPwq8Y=", "properties": {"@spider": "usps_collection_boxes", "addr:city": "AVALON", "addr:country": "US", "addr:full": "108 E MAIN ST", "addr:postcode": "76623", "addr:state": "TX", "brand": "USPS", "collection_times": "Mo-Fr 12:00; Sa 09:45", "name": "USPS COLLECTION BOX - PO LOBBY", "ref": "7662300004"}, "type": "Feature"}
{"geometry": {"coordinates": [-96.97161096, 31.657301021], "type": "Point"}, "id": "3lBynQTqCY7zOHHi4J6PdMNjfuU=", "properties": {"@spider": "usps_collection_boxes", "addr:city": "AXTELL", "addr:country": "US", "addr:full": "4521 E OLD AXTELL RD", "addr:postcode": "76624", "addr:state": "TX", "brand": "USPS", "collection_times": "Mo-Fr 14:00; Sa 09:45", "name": "USPS COLLECTION BOX - BLUE BOX", "note": "ON 12/24 AND 12/31, THIS BOX MAY BE COLLECTED AS EARLY AS 12 NOON.", "ref": "7662400000"}, "type": "Feature"}
{"geometry": {"coordinates": [-96.97161096, 31.657301021], "type": "Point"}, "id": "XYAT03U55GJuFUeCOxscyjcrW9M=", "properties": {"@spider": "usps_collection_boxes", "addr:city": "AXTELL", "addr:country": "US", "addr:full": "4521 E OLD AXTELL RD", "addr:postcode": "76624", "addr:state": "TX", "brand": "USPS", "collection_times": "Mo-Fr 14:00; Sa 10:00", "name": "USPS COLLECTION BOX - PO LOBBY", "note": "ON 12/24 AND 12/31, THIS BOX MAY BE COLLECTED AS EARLY AS 12 NOON.", "ref": "7662400002"}, "type": "Feature"}
{"geometry": {"coordinates": [-96.97161096, 31.657301021], "type": "Point"}, "id": "xpQPjNMbJcfoZxsrPTazxBx2e20=", "properties": {"@spider": "usps_collection_boxes", "addr:city": "AXTELL", "addr:country": "US", "addr:full": "4521 E OLD AXTELL RD", "addr:postcode": "76624", "addr:state": "TX", "brand": "USPS", "collection_times": "Mo-Fr 14:00; Sa 10:00", "name": "USPS COLLECTION BOX - PO LOBBY", "note": "ON 12/24 AND 12/31, THIS BOX MAY BE COLLECTED AS EARLY AS 12 NOON.", "ref": "7662400003"}, "type": "Feature"}
{"geometry": {"coordinates": [-96.716649978, 32.092859997], "type": "Point"}, "id": "Wu4BDkj9EtnEHimT9L5pANzvYZ0=", "properties": {"@spider": "usps_collection_boxes", "addr:city": "BLOOMING GROVE", "addr:country": "US", "addr:full": "100 S FORDYCE ST", "addr:postcode": "76626", "addr:state": "TX", "brand": "USPS", "collection_times": "Mo-Fr 15:00; Sa 10:15", "name": "USPS COLLECTION BOX - BLUE BOX", "note": "ON 12/24 AND 12/31, THIS BOX MAY BE COLLECTED AS EARLY AS 12 NOON.", "ref": "7662600000"}, "type": "Feature"}
{"geometry": {"coordinates": [-96.716649978, 32.092859997], "type": "Point"}, "id": "XKW7z2sRo5RW-X10KpqewJKUSVw=", "properties": {"@spider": "usps_collection_boxes", "addr:city": "BLOOMING GROVE", "addr:country": "US", "addr:full": "100 S FORDYCE ST", "addr:postcode": "76626", "addr:state": "TX", "brand": "USPS", "collection_times": "Mo-Fr 15:15; Sa 10:45", "name": "USPS COLLECTION BOX - PO LOBBY", "note": "ON 12/24 AND 12/31, THIS BOX MAY BE COLLECTED AS EARLY AS 12 NOON.", "ref": "7662600001"}, "type": "Feature"}
{"geometry": {"coordinates": [-96.716649978, 32.092859997], "type": "Point"}, "id": "noS3v2LueNrkvmsSP20Ut8bBTnw=", "properties": {"@spider": "usps_collection_boxes", "addr:city": "BLOOMING GROVE", "addr:country": "US", "addr:full": "100 S FORDYCE ST", "addr:postcode": "76626", "addr:state": "TX", "brand": "USPS", "collection_times": "Mo-Fr 15:15; Sa 10:30", "name": "USPS COLLECTION BOX - PO LOBBY", "note": "ON 12/24 AND 12/31, THIS BOX MAY BE COLLECTED AS EARLY AS 12 NOON.", "ref": "7662600005"}, "type": "Feature"}
{"geometry": {"coordinates": [-97.397692543, 32.142969165], "type": "Point"}, "id": "HpqbjbJJplYnefs7hezgNBFdAKM=", "properties": {"@spider": "usps_collection_boxes", "addr:city": "BLUM", "addr:country": "US", "addr:full": "108 W 4TH ST", "addr:postcode": "76627", "addr:state": "TX", "brand": "USPS", "collection_times": "Mo-Fr 12:45; Sa 09:45", "name": "USPS COLLECTION BOX - BLUE BOX", "note": "ON 12/24 AND 12/31, THIS BOX MAY BE COLLECTED AS EARLY AS 12 NOON.", "ref": "7662700000"}, "type": "Feature"}
{"geometry": {"coordinates": [-97.397692543, 32.142969165], "type": "Point"}, "id": "66C_Xe0ImnMgPBDNi9MM80NagRw=", "properties": {"@spider": "usps_collection_boxes", "addr:city": "BLUM", "addr:country": "US", "addr:full": "108 W 4TH ST", "addr:postcode": "76627", "addr:state": "TX", "brand": "USPS", "collection_times": "Mo-Fr 12:00; Sa 09:30", "name": "USPS COLLECTION BOX - PO LOBBY", "ref": "7662700002"}, "type": "Feature"}
{"geometry": {"coordinates": [-97.397692543, 32.142969165], "type": "Point"}, "id": "q8PTWN9SetrcYPGcPMyL0jMIDLE=", "properties": {"@spider": "usps_collection_boxes", "addr:city": "BLUM", "addr:country": "US", "addr:full": "108 W 4TH ST", "addr:postcode": "76627", "addr:state": "TX", "brand": "USPS", "collection_times": "Mo-Fr 13:00; Sa 10:00", "name": "USPS COLLECTION BOX - PO LOBBY", "note": "ON 12/24 AND 12/31, THIS BOX MAY BE COLLECTED AS EARLY AS 12 NOON.", "ref": "7662700004"}, "type": "Feature"}
{"geometry": {"coordinates": [-96.67671355, 31.163791013], "type": "Point"}, "id": "J6cVpEE70keOFtfx3_97Tk5KFZs=", "properties": {"@spider": "usps_collection_boxes", "addr:city": "BREMOND", "addr:country": "US", "addr:full": "400 S MAIN ST", "addr:postcode": "76629", "addr:state": "TX", "brand": "USPS", "collection_times": "Mo-Fr 15:45; Sa 09:45", "name": "USPS COLLECTION BOX - BLUE BOX", "note": "ON 12/24 AND 12/31, THIS BOX MAY BE COLLECTED AS EARLY AS 12 NOON.", "ref": "7662900001"}, "type": "Feature"}
{"geometry": {"coordinates": [-96.67671355, 31.163791013], "type": "Point"}, "id": "mdLJSQAowXCy1M8gj8tdw9hv7m0=", "properties": {"@spider": "usps_collection_boxes", "addr:city": "BREMOND", "addr:country": "US", "addr:full": "400 S MAIN ST", "addr:postcode": "76629", "addr:state": "TX", "brand": "USPS", "collection_times": "Mo-Fr 16:00; Sa 10:00", "name": "USPS COLLECTION BOX - PO LOBBY", "note": "ON 12/24 AND 12/31, THIS BOX MAY BE COLLECTED AS EARLY AS 12 NOON.", "ref": "7662900003"}, "type": "Feature"}
{"geometry": {"coordinates": [-96.67671355, 31.163791013], "type": "Point"}, "id": "SEMfFhbTlg2v2voLHd1DY_SNfPI=", "properties": {"@spider": "usps_collection_boxes", "addr:city": "BREMOND", "addr:country": "US", "addr:full": "400 S MAIN ST", "addr:postcode": "76629", "addr:state": "TX", "brand": "USPS", "collection_times": "Mo-Fr 16:00; Sa 10:00", "name": "USPS COLLECTION BOX - PO LOBBY", "note": "ON 12/24 AND 12/31, THIS BOX MAY BE COLLECTED AS EARLY AS 12 NOON.", "ref": "7662900005"}, "type": "Feature"}
{"geometry": {"coordinates": [-97.004940005, 31.972249985], "type": "Point"}, "id": "Gbi84_G65uZ71BlEZgoZBfkZNIs=", "properties": {"@spider": "usps_collection_boxes", "addr:city": "BYNUM", "addr:country": "US", "addr:full": "200 WHITE AVE", "addr:postcode": "76631", "addr:state": "TX", "brand": "USPS", "collection_times": "Mo-Sa 09:45", "name": "USPS COLLECTION BOX - BLUE BOX", "ref": "7663100000"}, "type": "Feature"}
{"geometry": {"coordinates": [-97.004940005, 31.972249985], "type": "Point"}, "id": "f_4o6R__nT_3y1gaQkDSCKoCZlQ=", "properties": {"@spider": "usps_collection_boxes", "addr:city": "BYNUM", "addr:country": "US", "addr:full": "200 WHITE AVE", "addr:postcode": "76631", "addr:state": "TX", "brand": "USPS", "collection_times": "Mo-Sa 09:45", "name": "USPS COLLECTION BOX - PO LOBBY", "ref": "7663100001"}, "type": "Feature"}
{"geometry": {"coordinates": [-97.004940005, 31.972249985], "type": "Point"}, "id": "pE5EzGNdO2rxoP9oO31NzqsvOqY=", "properties": {"@spider": "usps_collection_boxes", "addr:city": "BYNUM", "addr:country": "US", "addr:full": "200 WHITE AVE", "addr:postcode": "76631", "addr:state": "TX", "brand": "USPS", "collection_times": "Mo-Sa 10:00", "name": "USPS COLLECTION BOX - PO LOBBY", "ref": "7663100003"}, "type": "Feature"}
{"geometry": {"coordinates": [-97.065388028, 31.280295002], "type": "Point"}, "id": "toVR6QZsFtz5qpR5Y4evVLV5Sfc=", "properties": {"@spider": "usps_collection_boxes", "addr:city": "CHILTON", "addr:country": "US", "addr:full": "2581 STATE HIGHWAY 7", "addr:postcode": "76632", "addr:state": "TX", "brand": "USPS", "collection_times": "Mo-Fr 11:45; Sa 09:15", "name": "USPS COLLECTION BOX - BLUE BOX", "ref": "7663200000"}, "type": "Feature"}
{"geometry": {"coordinates": [-97.065388028, 31.280295002], "type": "Point"}, "id": "uhm8jhsfTRlYUMiSvdDAbvi5H7o=", "properties": {"@spider": "usps_collection_boxes", "addr:city": "CHILTON", "addr:country": "US", "addr:full": "2581 STATE HIGHWAY 7", "addr:postcode": "76632", "addr:state": "TX", "brand": "USPS", "collection_times": "Mo-Fr 12:00; Sa 09:30", "name": "USPS COLLECTION BOX - PO LOBBY", "ref": "7663200002"}, "type": "Feature"}
{"geometry": {"coordinates": [-97.065388028, 31.280295002], "type": "Point"}, "id": "EeCON7wyhw7psQf_zBgDQZTqzV8=", "properties": {"@spider": "usps_collection_boxes", "addr:city": "CHILTON", "addr:country": "US", "addr:full": "2581 STATE HIGHWAY 7", "addr:postcode": "76632", "addr:state": "TX", "brand": "USPS", "collection_times": "Mo-Fr 12:00; Sa 09:30", "name": "USPS COLLECTION BOX - PO LOBBY", "ref": "7663200004"}, "type": "Feature"}
{"geometry": {"coordinates": [-97.307463008, 31.646019985], "type": "Point"}, "id": "uMBp4u9XqQLNWygv7rbFk_nWy3w=", "properties": {"@spider": "usps_collection_boxes", "addr:city": "CHINA SPRING", "addr:country": "US", "addr:full": "14038 CHINA SPRING RD", "addr:postcode": "76633", "addr:state": "TX", "brand": "USPS", "collection_times": "Mo-Fr 16:00; Sa 10:00", "name": "USPS COLLECTION BOX - BLUE BOX", "note": "ON 12/24 AND 12/31, THIS BOX MAY BE COLLECTED AS EARLY AS 12 NOON.", "ref": "7663300000"}, "type": "Feature"}
{"geometry": {"coordinates": [-97.307463008, 31.646019985], "type": "Point"}, "id": "ErXPk1T_jI-eyTLl3_RhgVdc6UI=", "properties": {"@spider": "usps_collection_boxes", "addr:city": "CHINA SPRING", "addr:country": "US", "addr:full": "14038 CHINA SPRING RD", "addr:postcode": "76633", "addr:state": "TX", "brand": "USPS", "collection_times": "Mo-Fr 15:30; Sa 10:00", "name": "USPS COLLECTION BOX - PO LOBBY", "note": "ON 12/24 AND 12/31, THIS BOX MAY BE COLLECTED AS EARLY AS 12 NOON.", "ref": "7663300001"}, "type": "Feature"}
{"geometry": {"coordinates": [-97.307463008, 31.646019985], "type": "Point"}, "id": "sZxgk7eFTByJ_koZ5msdNqARFiM=", "properties": {"@spider": "usps_collection_boxes", "addr:city": "CHINA SPRING", "addr:country": "US", "addr:full": "14038 CHINA SPRING RD", "addr:postcode": "76633", "addr:state": "TX", "brand": "USPS", "collection_times": "Mo-Fr 15:30; Sa 10:00", "name": "USPS COLLECTION BOX - PO LOBBY", "note": "ON 12/24 AND 12/31, THIS BOX MAY BE COLLECTED AS EARLY AS 12 NOON.", "ref": "7663300002"}, "type": "Feature"}
{"geometry": {"coordinates": [-97.307463008, 31.646019985], "type": "Point"}, "id": "ytgKeftviVMC70A84RaYJ2FDSRs=", "properties": {"@spider": "usps_collection_boxes", "addr:city": "CHINA SPRING", "addr:country": "US", "addr:full": "14038 CHINA SPRING RD", "addr:postcode": "76633", "addr:state": "TX", "brand": "USPS", "collection_times": "Mo-Fr 16:00; Sa 10:30", "name": "USPS COLLECTION BOX - PO LOBBY", "note": "ON 12/24 AND 12/31, THIS BOX MAY BE COLLECTED AS EARLY AS 12 NOON.", "ref": "7663300004"}, "type": "Feature"}
{"geometry": {"coordinates": [-97.57542801, 31.78323702], "type": "Point"}, "id": "DiHj8d84K2pi6JzDshR1-wcG2_Y=", "properties": {"@spider": "usps_collection_boxes", "addr:city": "CLIFTON", "addr:country": "US", "addr:full": "407 W 5TH ST", "addr:postcode": "76634", "addr:state": "TX", "brand": "USPS", "collection_times": "Mo-Fr 16:45; Sa 11:45", "name": "USPS COLLECTION BOX - BLUE BOX", "note": "ON 12/24 AND 12/31, THIS BOX MAY BE COLLECTED AS EARLY AS 12 NOON.", "ref": "7663400000"}, "type": "Feature"}
{"geometry": {"coordinates": [-97.57542801, 31.78323702], "type": "Point"}, "id": "F2K73IvU8w6YMCORgGWW-yhC9h8=", "properties": {"@spider": "usps_collection_boxes", "addr:city": "CLIFTON", "addr:country": "US", "addr:full": "407 W 5TH ST", "addr:postcode": "76634", "addr:state": "TX", "brand": "USPS", "collection_times": "Mo-Fr 16:45; Sa 11:45", "name": "USPS COLLECTION BOX - PO LOBBY", "note": "ON 12/24 AND 12/31, THIS BOX MAY BE COLLECTED AS EARLY AS 12 NOON.", "ref": "7663400004"}, "type": "Feature"}
{"geometry": {"coordinates": [-97.57542801, 31.78323702], "type": "Point"}, "id": "BTR7fqUGLeGP2reF3fmNwDUga0A=", "properties": {"@spider": "usps_collection_boxes", "addr:city": "CLIFTON", "addr:country": "US", "addr:full": "407 W 5TH ST", "addr:postcode": "76634", "addr:state": "TX", "brand": "USPS", "collection_times": "Mo-Fr 16:45; Sa 11:45", "name": "USPS COLLECTION BOX - PO LOBBY", "note": "ON 12/24 AND 12/31, THIS BOX MAY BE COLLECTED AS EARLY AS 12 NOON.", "ref": "7663400005"}, "type": "Feature"}
{"geometry": {"coordinates": [-97.380477012, 31.859730981], "type": "Point"}, "id": "mdFE_UYsdY7Kb4F4Wdgw7OEaxC8=", "properties": {"@spider": "usps_collection_boxes", "addr:city": "CLIFTON", "addr:country": "US", "addr:full": "141 COUNTY ROAD 1812", "addr:postcode": "76634", "addr:state": "TX", "brand": "USPS", "collection_times": "Mo-Fr 10:30", "name": "USPS COLLECTION BOX - BLUE BOX", "ref": "7663400008"}, "type": "Feature"}
{"geometry": {"coordinates": [-97.57542801, 31.78323702], "type": "Point"}, "id": "253cRpIieRd-Zl8r_lLyHWi-KMY=", "properties": {"@spider": "usps_collection_boxes", "addr:city": "CLIFTON", "addr:country": "US", "addr:full": "407 W 5TH ST", "addr:postcode": "76634", "addr:state": "TX", "brand": "USPS", "collection_times": "Mo-Fr 16:30; Sa 11:30", "name": "USPS COLLECTION BOX - PO LOBBY", "note": "ON 12/24 AND 12/31, THIS BOX MAY BE COLLECTED AS EARLY AS 12 NOON.", "ref": "7663400011"}, "type": "Feature"}
{"geometry": {"coordinates": [-96.650184, 31.753812014], "type": "Point"}, "id": "PbNCNb_RqO8F6KuMU4mBg__WxDw=", "properties": {"@spider": "usps_collection_boxes", "addr:city": "COOLIDGE", "addr:country": "US", "addr:full": "310 BELL ST", "addr:postcode": "76635", "addr:state": "TX", "brand": "USPS", "collection_times": "Mo-Fr 11:45; Sa 08:45", "name": "USPS COLLECTION BOX - BLUE BOX", "ref": "7663500000"}, "type": "Feature"}
{"geometry": {"coordinates": [-96.650184, 31.753812014], "type": "Point"}, "id": "2Ya4R9B90ESztrB3vbsup7Bmhz0=", "properties": {"@spider": "usps_collection_boxes", "addr:city": "COOLIDGE", "addr:country": "US", "addr:full": "310 BELL ST", "addr:postcode": "76635", "addr:state": "TX", "brand": "USPS", "collection_times": "Mo-Fr 12:00; Sa 09:00", "name": "USPS COLLECTION BOX - PO LOBBY", "ref": "7663500002"}, "type": "Feature"}
{"geometry": {"coordinates": [-96.650184, 31.753812014], "type": "Point"}, "id": "KyWaF1pfxpiO_uhiq2Dcvihmn30=", "properties": {"@spider": "usps_collection_boxes", "addr:city": "COOLIDGE", "addr:country": "US", "addr:full": "310 BELL ST", "addr:postcode": "76635", "addr:state": "TX", "brand": "USPS", "collection_times": "Mo-Fr 12:00; Sa 09:00", "name": "USPS COLLECTION BOX - PO LOBBY", "ref": "7663500005"}, "type": "Feature"}
{"geometry": {"coordinates": [-97.25585751, 32.178666315], "type": "Point"}, "id": "G_HWSCW_WPkapR8qSmftRea7qLY=", "properties": {"@spider": "usps_collection_boxes", "addr:city": "COVINGTON", "addr:country": "US", "addr:full": "306 GATHINGS AVE", "addr:postcode": "76636", "addr:state": "TX", "brand": "USPS", "collection_times": "Mo-Fr 15:15; Sa 10:15", "name": "USPS COLLECTION BOX - BLUE BOX", "note": "ON 12/24 AND 12/31, THIS BOX MAY BE COLLECTED AS EARLY AS 12 NOON.", "ref": "7663600000"}, "type": "Feature"}
{"geometry": {"coordinates": [-97.25585751, 32.178666315], "type": "Point"}, "id": "NZXLiX23pGM3qvsSHkTYEIzKwyQ=", "properties": {"@spider": "usps_collection_boxes", "addr:city": "COVINGTON", "addr:country": "US", "addr:full": "306 GATHINGS AVE", "addr:postcode": "76636", "addr:state": "TX", "brand": "USPS", "collection_times": "Mo-Fr 15:30; Sa 10:30", "name": "USPS COLLECTION BOX - PO LOBBY", "note": "ON 12/24 AND 12/31, THIS BOX MAY BE COLLECTED AS EARLY AS 12 NOON.", "ref": "7663600001"}, "type": "Feature"}
{"geometry": {"coordinates": [-97.25585751, 32.178666315], "type": "Point"}, "id": "yCv-gZbR6sxpPUW81B5qvFvEmxA=", "properties": {"@spider": "usps_collection_boxes", "addr:city": "COVINGTON", "addr:country": "US", "addr:full": "306 GATHINGS AVE", "addr:postcode": "76636", "addr:state": "TX", "brand": "USPS", "collection_times": "Mo-Fr 15:30; Sa 10:30", "name": "USPS COLLECTION BOX - PO LOBBY", "note": "ON 12/24 AND 12/31, THIS BOX MAY BE COLLECTED AS EARLY AS 12 NOON.", "ref": "7663600002"}, "type": "Feature"}
{"geometry": {"coordinates": [-97.25585751, 32.178666315], "type": "Point"}, "id": "OXc0VhAj0pbTN5LPAaMCmZ9SsAY=", "properties": {"@spider": "usps_collection_boxes", "addr:city": "COVINGTON", "addr:country": "US", "addr:full": "306 GATHINGS AVE", "addr:postcode": "76636", "addr:state": "TX", "brand": "USPS", "collection_times": "Mo-Fr 15:30; Sa 10:30", "name": "USPS COLLECTION BOX - PO LOBBY", "note": "ON 12/24 AND 12/31, THIS BOX MAY BE COLLECTED AS EARLY AS 12 NOON.", "ref": "7663600004"}, "type": "Feature"}
{"geometry": {"coordinates": [-97.826812015, 31.774127987], "type": "Point"}, "id": "C1LplH349rAzpG3wMNdBcBtLPfg=", "properties": {"@spider": "usps_collection_boxes", "addr:city": "CRANFILLS GAP", "addr:country": "US", "addr:full": "608 BRONSTAD ST", "addr:postcode": "76637", "addr:state": "TX", "brand": "USPS", "collection_times": "Mo-Fr 12:00; Sa 10:30", "name": "USPS COLLECTION BOX - BLUE BOX", "ref": "7663700000"}, "type": "Feature"}
{"geometry": {"coordinates": [-97.826812015, 31.774127987], "type": "Point"}, "id": "aJw0OIwZFxgo-sGkPgoK9J10AuM=", "properties": {"@spider": "usps_collection_boxes", "addr:city": "CRANFILLS GAP", "addr:country": "US", "addr:full": "608 BRONSTAD ST", "addr:postcode": "76637", "addr:state": "TX", "brand": "USPS", "collection_times": "Mo-Fr 12:30; Sa 10:30", "name": "USPS COLLECTION BOX - PO LOBBY", "note": "ON 12/24 AND 12/31, THIS BOX MAY BE COLLECTED AS EARLY AS 12 NOON.", "ref": "7663700004"}, "type": "Feature"}
{"geometry": {"coordinates": [-97.826812015, 31.774127987], "type": "Point"}, "id": "05I5AHzveqD2mTxkEg8T892ASOg=", "properties": {"@spider": "usps_collection_boxes", "addr:city": "CRANFILLS GAP", "addr:country": "US", "addr:full": "608 BRONSTAD ST", "addr:postcode": "76637", "addr:state": "TX", "brand": "USPS", "collection_times": "Mo-Fr 12:30; Sa 10:30", "name": "USPS COLLECTION BOX - PO LOBBY", "note": "ON 12/24 AND 12/31, THIS BOX MAY BE COLLECTED AS EARLY AS 12 NOON.", "ref": "7663700005"}, "type": "Feature"}
{"geometry": {"coordinates": [-97.444034972, 31.536306991], "type": "Point"}, "id": "-dppdlIcqwnqtvUOzmDRivVQwNU=", "properties": {"@spider": "usps_collection_boxes", "addr:city": "CRAWFORD", "addr:country": "US", "addr:full": "6835 N LONE STAR PKWY", "addr:postcode": "76638", "addr:state": "TX", "brand": "USPS", "collection_times": "Mo-Fr 15:00; Sa 09:50", "name": "USPS COLLECTION BOX - BLUE BOX", "note": "ON 12/24 AND 12/31, THIS BOX MAY BE COLLECTED AS EARLY AS 12 NOON.", "ref": "7663800000"}, "type": "Feature"}
{"geometry": {"coordinates": [-97.444034972, 31.536306991], "type": "Point"}, "id": "csovLQK-P0Ar5jXNxSGllJ4sby8=", "properties": {"@spider": "usps_collection_boxes", "addr:city": "CRAWFORD", "addr:country": "US", "addr:full": "6835 N LONE STAR PKWY", "addr:postcode": "76638", "addr:state": "TX", "brand": "USPS", "collection_times": "Mo-Fr 15:00; Sa 10:00", "name": "USPS COLLECTION BOX - PO LOBBY", "note": "ON 12/24 AND 12/31, THIS BOX MAY BE COLLECTED AS EARLY AS 12 NOON.", "ref": "7663800002"}, "type": "Feature"}
{"geometry": {"coordinates": [-97.444034972, 31.536306991], "type": "Point"}, "id": "-QOavKrbSQmLcFhVB5veOnQuZHw=", "properties": {"@spider": "usps_collection_boxes", "addr:city": "CRAWFORD", "addr:country": "US", "addr:full": "6835 N LONE STAR PKWY", "addr:postcode": "76638", "addr:state": "TX", "brand": "USPS", "collection_times": "Mo-Fr 15:00; Sa 10:00", "name": "USPS COLLECTION BOX - PO LOBBY", "note": "ON 12/24 AND 12/31, THIS BOX MAY BE COLLECTED AS EARLY AS 12 NOON.", "ref": "7663800004"}, "type": "Feature"}
{"geometry": {"coordinates": [-96.715250032, 31.894510012], "type": "Point"}, "id": "FZPBI_quldU_KeA_p_LBWP9eaKo=", "properties": {"@spider": "usps_collection_boxes", "addr:city": "DAWSON", "addr:country": "US", "addr:full": "108 N MAIN ST", "addr:postcode": "76639", "addr:state": "TX", "brand": "USPS", "collection_times": "Mo-Fr 11:45; Sa 10:15", "name": "USPS COLLECTION BOX - BLUE BOX", "ref": "7663900000"}, "type": "Feature"}
{"geometry": {"coordinates": [-96.715250032, 31.894510012], "type": "Point"}, "id": "Gy7P-Kyldyi5VebnXrCLgxxeEL8=", "properties": {"@spider": "usps_collection_boxes", "addr:city": "DAWSON", "addr:country": "US", "addr:full": "108 N MAIN ST", "addr:postcode": "76639", "addr:state": "TX", "brand": "USPS", "collection_times": "Mo-Fr 12:00; Sa 10:00", "name": "USPS COLLECTION BOX - PO LOBBY", "ref": "7663900003"}, "type": "Feature"}
{"geometry": {"coordinates": [-96.715250032, 31.894510012], "type": "Point"}, "id": "HMaE8p1rcWxsoFrC2Kr5vBvyUvk=", "properties": {"@spider": "usps_collection_boxes", "addr:city": "DAWSON", "addr:country": "US", "addr:full": "108 N MAIN ST", "addr:postcode": "76639", "addr:state": "TX", "brand": "USPS", "collection_times": "Mo-Fr 12:00; Sa 10:30", "name": "USPS COLLECTION BOX - PO LOBBY", "ref": "7663900005"}, "type": "Feature"}
{"geometry": {"coordinates": [-97.102171004, 31.670751], "type": "Point"}, "id": "rRhvMgKb8kbDEW0jrgCXXFJKGKY=", "properties": {"@spider": "usps_collection_boxes", "addr:city": "ELM MOTT", "addr:country": "US", "addr:full": "252 W ELM MOTT DR", "addr:postcode": "76640", "addr:state": "TX", "brand": "USPS", "collection_times": "Mo-Fr 16:15; Sa 09:50", "name": "USPS COLLECTION BOX - BLUE BOX", "note": "ON 12/24 AND 12/31, THIS BOX MAY BE COLLECTED AS EARLY AS 12 NOON.", "ref": "7664000000"}, "type": "Feature"}
{"geometry": {"coordinates": [-97.102171004, 31.670751], "type": "Point"}, "id": "lHk2oFhI5TwcVwQqzVLb3x0T_yE=", "properties": {"@spider": "usps_collection_boxes", "addr:city": "ELM MOTT", "addr:country": "US", "addr:full": "252 W ELM MOTT DR", "addr:postcode": "76640", "addr:state": "TX", "brand": "USPS", "collection_times": "Mo-Fr 16:00; Sa 09:15", "name": "USPS COLLECTION BOX - PO LOBBY", "note": "ON 12/24 AND 12/31, THIS BOX MAY BE COLLECTED AS EARLY AS 12 NOON.", "ref": "7664000001"}, "type": "Feature"}
{"geometry": {"coordinates": [-97.102171004, 31.670751], "type": "Point"}, "id": "6tCSgEie-4r2z_KLBPOtNGn-Gwo=", "properties": {"@spider": "usps_collection_boxes", "addr:city": "ELM MOTT", "addr:country": "US", "addr:full": "252 W ELM MOTT DR", "addr:postcode": "76640", "addr:state": "TX", "brand": "USPS", "collection_times": "Mo-Fr 16:00; Sa 09:30", "name": "USPS COLLECTION BOX - PO LOBBY", "note": "ON 12/24 AND 12/31, THIS BOX MAY BE COLLECTED AS EARLY AS 12 NOON.", "ref": "7664000004"}, "type": "Feature"}
{"geometry": {"coordinates": [-96.807809964, 32.081320003], "type": "Point"}, "id": "x-XNz5oDTAmJoR0pD0PhWr4Xd1c=", "properties": {"@spider": "usps_collection_boxes", "addr:city": "FROST", "addr:country": "US", "addr:full": "301 N GARITTY ST", "addr:postcode": "76641", "addr:state": "TX", "brand": "USPS", "collection_times": "Mo-Fr 14:45; Sa 09:30", "name": "USPS COLLECTION BOX - BLUE BOX", "note": "ON 12/24 AND 12/31, THIS BOX MAY BE COLLECTED AS EARLY AS 12 NOON.", "ref": "7664100001"}, "type": "Feature"}
{"geometry": {"coordinates": [-96.807809964, 32.081320003], "type": "Point"}, "id": "kZGoFL0p_J4Tj2XTRIh5PAtVhGk=", "properties": {"@spider": "usps_collection_boxes", "addr:city": "FROST", "addr:country": "US", "addr:full": "301 N GARITTY ST", "addr:postcode": "76641", "addr:state": "TX", "brand": "USPS", "collection_times": "Mo-Fr 15:00; Sa 09:45", "name": "USPS COLLECTION BOX - PO LOBBY", "note": "ON 12/24 AND 12/31, THIS BOX MAY BE COLLECTED AS EARLY AS 12 NOON.", "ref": "7664100002"}, "type": "Feature"}
{"geometry": {"coordinates": [-96.807809964, 32.081320003], "type": "Point"}, "id": "wyZq5TZLebfYKpFHP8HRWMKXARk=", "properties": {"@spider": "usps_collection_boxes", "addr:city": "FROST", "addr:country": "US", "addr:full": "301 N GARITTY ST", "addr:postcode": "76641", "addr:state": "TX", "brand": "USPS", "collection_times": "Mo-Fr 15:00; Sa 09:45", "name": "USPS COLLECTION BOX - PO LOBBY", "note": "ON 12/24 AND 12/31, THIS BOX MAY BE COLLECTED AS EARLY AS 12 NOON.", "ref": "7664100004"}, "type": "Feature"}
{"geometry": {"coordinates": [-96.533654246, 31.523109182], "type": "Point"}, "id": "Sk5qrpNuBMZAFw3EupTjw3DBGaQ=", "properties": {"@spider": "usps_collection_boxes", "addr:city": "GROESBECK", "addr:country": "US", "addr:full": "112 S DR J B RIGGS DR", "addr:postcode": "76642", "addr:state": "TX", "brand": "USPS", "collection_times": "Mo-Fr 16:45; Sa 13:30", "name": "USPS COLLECTION BOX - BLUE BOX", "note": "ON 12/24 AND 12/31, THIS BOX MAY BE COLLECTED AS EARLY AS 12 NOON.", "ref": "7664200003"}, "type": "Feature"}
{"geometry": {"coordinates": [-96.533654246, 31.523109182], "type": "Point"}, "id": "XxtOU0m9F_kl-lSJVVYaKx9UnXk=", "properties": {"@spider": "usps_collection_boxes", "addr:city": "GROESBECK", "addr:country": "US", "addr:full": "112 S DR J B RIGGS DR", "addr:postcode": "76642", "addr:state": "TX", "brand": "USPS", "collection_times": "Mo-Fr 16:00; Sa 12:00", "name": "USPS COLLECTION BOX - PO LOBBY", "note": "ON 12/24 AND 12/31, THIS BOX MAY BE COLLECTED AS EARLY AS 12 NOON.", "ref": "7664200005"}, "type": "Feature"}
{"geometry": {"coordinates": [-96.533654246, 31.523109182], "type": "Point"}, "id": "v8Iqof3fr0BiKy6WeURTwQ0b6T8=", "properties": {"@spider": "usps_collection_boxes", "addr:city": "GROESBECK", "addr:country": "US", "addr:full": "112 S DR J B RIGGS DR", "addr:postcode": "76642", "addr:state": "TX", "brand": "USPS", "collection_times": "Mo-Fr 16:30; Sa 12:00", "name": "USPS COLLECTION BOX - PO LOBBY", "note": "ON 12/24 AND 12/31, THIS BOX MAY BE COLLECTED AS EARLY AS 12 NOON.", "ref": "7664200008"}, "type": "Feature"}
{"geometry": {"coordinates": [-97.204126966, 31.448556008], "type": "Point"}, "id": "GmQmIK5xHV4YwWeGlquD9_QqMk8=", "properties": {"@spider": "usps_collection_boxes", "addr:city": "HEWITT", "addr:country": "US", "addr:full": "901 S HEWITT DR", "addr:postcode": "76643", "addr:state": "TX", "brand": "USPS", "collection_times": "Mo-Fr 16:30; Sa 12:00", "name": "USPS COLLECTION BOX - BLUE BOX", "note": "ON 12/24 AND 12/31, THIS BOX MAY BE COLLECTED AS EARLY AS 12 NOON.", "ref": "7664300001"}, "type": "Feature"}
{"geometry": {"coordinates": [-97.204126966, 31.448556008], "type": "Point"}, "id": "JiKneh2yDp8ejWOieY5coTcl8-U=", "properties": {"@spider": "usps_collection_boxes", "addr:city": "HEWITT", "addr:country": "US", "addr:full": "901 S HEWITT DR", "addr:postcode": "76643", "addr:state": "TX", "brand": "USPS", "collection_times": "Mo-Fr 16:30; Sa 12:00", "name": "USPS COLLECTION BOX - PO LOBBY", "note": "ON 12/24 AND 12/31, THIS BOX MAY BE COLLECTED AS EARLY AS 12 NOON.", "ref": "7664300006"}, "type": "Feature"}
{"geometry": {"coordinates": [-97.204126966, 31.448556008], "type": "Point"}, "id": "62RPxV4T-T6uh-poFd_nVtbTbZ8=", "properties": {"@spider": "usps_collection_boxes", "addr:city": "HEWITT", "addr:country": "US", "addr:full": "901 S HEWITT DR", "addr:postcode": "76643", "addr:state": "TX", "brand": "USPS", "collection_times": "Mo-Fr 16:30; Sa 12:00", "name": "USPS COLLECTION BOX - PO LOBBY", "note": "ON 12/24 AND 12/31, THIS BOX MAY BE COLLECTED AS EARLY AS 12 NOON.", "ref": "7664300008"}, "type": "Feature"}
{"geometry": {"coordinates": [-97.096487199, 32.01776275], "type": "Point"}, "id": "3HERq-Eut5XKz_9bpyKiI9crOss=", "properties": {"@spider": "usps_collection_boxes", "addr:city": "HILLSBORO", "addr:country": "US", "addr:full": "301 I 35 HWY NW", "addr:postcode": "76645", "addr:state": "TX", "brand": "USPS", "collection_times": "Mo-Sa 12:00", "name": "USPS COLLECTION BOX - BLUE BOX", "ref": "7664500001"}, "type": "Feature"}
{"geometry": {"coordinates": [-97.131830033, 32.012190005], "type": "Point"}, "id": "sWWdyKmvMui3hnppokmkSKJq7KA=", "properties": {"@spider": "usps_collection_boxes", "addr:city": "HILLSBORO", "addr:country": "US", "addr:full": "100 W FRANKLIN ST", "addr:postcode": "76645", "addr:state": "TX", "brand": "USPS", "collection_times": "Mo-Fr 16:30; Sa 11:00", "name": "USPS COLLECTION BOX - BLUE BOX", "note": "ON 12/24 AND 12/31, THIS BOX MAY BE COLLECTED AS EARLY AS 12 NOON.", "ref": "7664500004"}, "type": "Feature"}
{"geometry": {"coordinates": [-97.093519958, 32.008899982], "type": "Point"}, "id": "VNW2y7Gan9Qp_9Dt10OoRYeHfxE=", "properties": {"@spider": "usps_collection_boxes", "addr:city": "HILLSBORO", "addr:country": "US", "addr:full": "1501 CORSICANA HWY", "addr:postcode": "76645", "addr:state": "TX", "brand": "USPS", "collection_times": "Mo-Sa 11:30", "name": "USPS COLLECTION BOX - BLUE BOX", "ref": "7664500006"}, "type": "Feature"}
{"geometry": {"coordinates": [-97.118540023, 32.006200003], "type": "Point"}, "id": "t-7g1b5c-0d4_OnYKzRl-fy5sgA=", "properties": {"@spider": "usps_collection_boxes", "addr:city": "HILLSBORO", "addr:country": "US", "addr:full": "520 CORSICANA HWY", "addr:postcode": "76645", "addr:state": "TX", "brand": "USPS", "collection_times": "Mo-Sa 15:00", "name": "USPS COLLECTION BOX - BLUE BOX", "note": "ON 12/24 AND 12/31, THIS BOX MAY BE COLLECTED AS EARLY AS 12 NOON.", "ref": "7664500013"}, "type": "Feature"}
{"geometry": {"coordinates": [-97.08863004, 32.017659993], "type": "Point"}, "id": "Q_hbwWPspeXVp5Ua2z3vpqLKKLI=", "properties": {"@spider": "usps_collection_boxes", "addr:city": "HILLSBORO", "addr:country": "US", "addr:full": "1815 OLD BRANDON RD", "addr:postcode": "76645", "addr:state": "TX", "brand": "USPS", "collection_times": "Mo-Sa 12:15", "name": "USPS COLLECTION BOX - BLUE BOX", "note": "ON 12/24 AND 12/31, THIS BOX MAY BE COLLECTED AS EARLY AS 12 NOON.", "ref": "7664500015"}, "type": "Feature"}
{"geometry": {"coordinates": [-97.131830033, 32.012190005], "type": "Point"}, "id": "JltVuO5rLoQliUg6JuD1wvscCQU=", "properties": {"@spider": "usps_collection_boxes", "addr:city": "HILLSBORO", "addr:country": "US", "addr:full": "100 W FRANKLIN ST", "addr:postcode": "76645", "addr:state": "TX", "brand": "USPS", "collection_times": "Mo-Fr 16:30; Sa 11:00", "name": "USPS COLLECTION BOX - PO LOBBY", "note": "ON 12/24 AND 12/31, THIS BOX MAY BE COLLECTED AS EARLY AS 12 NOON.", "ref": "7664500018"}, "type": "Feature"}
{"geometry": {"coordinates": [-97.131830033, 32.012190005], "type": "Point"}, "id": "Qb82JlUbtwio6A-SdRdS2TL2aag=", "properties": {"@spider": "usps_collection_boxes", "addr:city": "HILLSBORO", "addr:country": "US", "addr:full": "100 W FRANKLIN ST", "addr:postcode": "76645", "addr:state": "TX", "brand": "USPS", "collection_times": "Mo-Fr 16:30; Sa 11:00", "name": "USPS COLLECTION BOX - PO LOBBY", "note": "ON 12/24 AND 12/31, THIS BOX MAY BE COLLECTED AS EARLY AS 12 NOON.", "ref": "7664500026"}, "type": "Feature"}
{"geometry": {"coordinates": [-96.796690029, 31.848189981], "type": "Point"}, "id": "ka1KRZFXZBcOMJi4FnVtVAeKHuw=", "properties": {"@spider": "usps_collection_boxes", "addr:city": "HUBBARD", "addr:country": "US", "addr:full": "306 N MAGNOLIA AVE", "addr:postcode": "76648", "addr:state": "TX", "brand": "USPS", "collection_times": "Mo-Fr 15:45; Sa 11:45", "name": "USPS COLLECTION BOX - BLUE BOX", "note": "ON 12/24 AND 12/31, THIS BOX MAY BE COLLECTED AS EARLY AS 12 NOON.", "ref": "7664800000"}, "type": "Feature"}
{"geometry": {"coordinates": [-96.796690029, 31.848189981], "type": "Point"}, "id": "M6JwLcTWjCVypWUGR0pbvZXnKro=", "properties": {"@spider": "usps_collection_boxes", "addr:city": "HUBBARD", "addr:country": "US", "addr:full": "306 N MAGNOLIA AVE", "addr:postcode": "76648", "addr:state": "TX", "brand": "USPS", "collection_times": "Mo-Fr 16:00; Sa 12:00", "name": "USPS COLLECTION BOX - PO LOBBY", "note": "ON 12/24 AND 12/31, THIS BOX MAY BE COLLECTED AS EARLY AS 12 NOON.", "ref": "7664800002"}, "type": "Feature"}
{"geometry": {"coordinates": [-96.796690029, 31.848189981], "type": "Point"}, "id": "SVHfD0A3QQs13W6egavo68kWDJg=", "properties": {"@spider": "usps_collection_boxes", "addr:city": "HUBBARD", "addr:country": "US", "addr:full": "306 N MAGNOLIA AVE", "addr:postcode": "76648", "addr:state": "TX", "brand": "USPS", "collection_times": "Mo-Fr 16:00; Sa 12:00", "name": "USPS COLLECTION BOX - PO LOBBY", "note": "ON 12/24 AND 12/31, THIS BOX MAY BE COLLECTED AS EARLY AS 12 NOON.", "ref": "7664800004"}, "type": "Feature"}
{"geometry": {"coordinates": [-97.871653661, 31.984727706], "type": "Point"}, "id": "0ilydJwdk8lFtY7AyxqAwG18yXc=", "properties": {"@spider": "usps_collection_boxes", "addr:city": "IREDELL", "addr:country": "US", "addr:full": "306 S EASTLAND", "addr:postcode": "76649", "addr:state": "TX", "brand": "USPS", "collection_times": "Mo-Fr 12:00; Sa 11:00", "name": "USPS COLLECTION BOX - PO LOBBY", "ref": "7664900000"}, "type": "Feature"}
{"geometry": {"coordinates": [-97.871653661, 31.984727706], "type": "Point"}, "id": "yWf96uEu-q5EhelhlmJA8PzwJMM=", "properties": {"@spider": "usps_collection_boxes", "addr:city": "IREDELL", "addr:country": "US", "addr:full": "306 S EASTLAND", "addr:postcode": "76649", "addr:state": "TX", "brand": "USPS", "collection_times": "Mo-Fr 12:00; Sa 11:00", "name": "USPS COLLECTION BOX - BLUE BOX", "ref": "7664900002"}, "type": "Feature"}
{"geometry": {"coordinates": [-97.871653661, 31.984727706], "type": "Point"}, "id": "npcFh0PPUGR6uS_3p1n5CUo1uiM=", "properties": {"@spider": "usps_collection_boxes", "addr:city": "IREDELL", "addr:country": "US", "addr:full": "306 S EASTLAND", "addr:postcode": "76649", "addr:state": "TX", "brand": "USPS", "collection_times": "Mo-Fr 12:00; Sa 11:00", "name": "USPS COLLECTION BOX - PO LOBBY", "ref": "7664900004"}, "type": "Feature"}
{"geometry": {"coordinates": [-96.87295, 31.99118], "type": "Point"}, "id": "-Qhc86oapl8ptYDrm_7ISN_YKpw=", "properties": {"@spider": "usps_collection_boxes", "addr:city": "IRENE", "addr:country": "US", "addr:full": "116 1ST ST", "addr:postcode": "76650", "addr:state": "TX", "brand": "USPS", "collection_times": "Mo-Fr 09:45; Sa 10:30", "name": "USPS COLLECTION BOX - PO LOBBY", "ref": "7665000001"}, "type": "Feature"}
{"geometry": {"coordinates": [-96.87295, 31.99118], "type": "Point"}, "id": "v-FgJ1U7M2xKPYFtMBgSn7juLIc=", "properties": {"@spider": "usps_collection_boxes", "addr:city": "IRENE", "addr:country": "US", "addr:full": "116 1ST ST", "addr:postcode": "76650", "addr:state": "TX", "brand": "USPS", "collection_times": "Mo-Fr 09:45; Sa 10:45", "name": "USPS COLLECTION BOX - BLUE BOX", "ref": "7665000003"}, "type": "Feature"}
{"geometry": {"coordinates": [-96.87295, 31.99118], "type": "Point"}, "id": "3VpKZxd6mjXiBbn-VzScUxtEHCk=", "properties": {"@spider": "usps_collection_boxes", "addr:city": "IRENE", "addr:country": "US", "addr:full": "116 1ST ST", "addr:postcode": "76650", "addr:state": "TX", "brand": "USPS", "collection_times": "Mo-Fr 10:00; Sa 11:00", "name": "USPS COLLECTION BOX - PO LOBBY", "ref": "7665000004"}, "type": "Feature"}
{"geometry": {"coordinates": [-96.885193035, 32.183585005], "type": "Point"}, "id": "pTUg3G07Kz_5ZUj7t_8Rc2caFTQ=", "properties": {"@spider": "usps_collection_boxes", "addr:city": "ITALY", "addr:country": "US", "addr:full": "105 POPLAR ST", "addr:postcode": "76651", "addr:state": "TX", "brand": "USPS", "collection_times": "Mo-Fr 16:15; Sa 09:45", "name": "USPS COLLECTION BOX - BLUE BOX", "note": "ON 12/24 AND 12/31, THIS BOX MAY BE COLLECTED AS EARLY AS 12 NOON.", "ref": "7665100001"}, "type": "Feature"}
{"geometry": {"coordinates": [-96.885193035, 32.183585005], "type": "Point"}, "id": "V98kh_KgNWAgMNNA-pq3PXp2ziE=", "properties": {"@spider": "usps_collection_boxes", "addr:city": "ITALY", "addr:country": "US", "addr:full": "105 POPLAR ST", "addr:postcode": "76651", "addr:state": "TX", "brand": "USPS", "collection_times": "Mo-Fr 16:15; Sa 10:00", "name": "USPS COLLECTION BOX - PO LOBBY", "note": "ON 12/24 AND 12/31, THIS BOX MAY BE COLLECTED AS EARLY AS 12 NOON.", "ref": "7665100003"}, "type": "Feature"}
{"geometry": {"coordinates": [-96.885193035, 32.183585005], "type": "Point"}, "id": "T3L1aAEv_K9vRBU95SFY8nQsiUs=", "properties": {"@spider": "usps_collection_boxes", "addr:city": "ITALY", "addr:country": "US", "addr:full": "105 POPLAR ST", "addr:postcode": "76651", "addr:state": "TX", "brand": "USPS", "collection_times": "Mo-Fr 16:00; Sa 10:00", "name": "USPS COLLECTION BOX - PO LOBBY", "note": "ON 12/24 AND 12/31, THIS BOX MAY BE COLLECTED AS EARLY AS 12 NOON.", "ref": "7665100006"}, "type": "Feature"}
{"geometry": {"coordinates": [-97.503560987, 32.070141656], "type": "Point"}, "id": "3BMilqdddJO2SFQu_yZ9AOn_BHE=", "properties": {"@spider": "usps_collection_boxes", "addr:city": "KOPPERL", "addr:country": "US", "addr:full": "106 FM 1859", "addr:postcode": "76652", "addr:state": "TX", "brand": "USPS", "collection_times": "Mo-Fr 11:45; Sa 09:30", "name": "USPS COLLECTION BOX - BLUE BOX", "ref": "7665200000"}, "type": "Feature"}
{"geometry": {"coordinates": [-97.503560987, 32.070141656], "type": "Point"}, "id": "C0q1zg0F0kOXbyzNPnhLuPz3KWc=", "properties": {"@spider": "usps_collection_boxes", "addr:city": "KOPPERL", "addr:country": "US", "addr:full": "106 FM 1859", "addr:postcode": "76652", "addr:state": "TX", "brand": "USPS", "collection_times": "Mo-Fr 12:00; Sa 09:45", "name": "USPS COLLECTION BOX - PO LOBBY", "ref": "7665200001"}, "type": "Feature"}
{"geometry": {"coordinates": [-97.503560987, 32.070141656], "type": "Point"}, "id": "TxPTJVAZdfgQcNU___Osh6NnFNE=", "properties": {"@spider": "usps_collection_boxes", "addr:city": "KOPPERL", "addr:country": "US", "addr:full": "106 FM 1859", "addr:postcode": "76652", "addr:state": "TX", "brand": "USPS", "collection_times": "Mo-Fr 12:00; Sa 09:45", "name": "USPS COLLECTION BOX - PO LOBBY", "ref": "7665200004"}, "type": "Feature"}
{"geometry": {"coordinates": [-96.629079039, 31.307686014], "type": "Point"}, "id": "aqE5Mxn9fh4JV6xBzCkHaeYLgtg=", "properties": {"@spider": "usps_collection_boxes", "addr:city": "KOSSE", "addr:country": "US", "addr:full": "107 W ADAMS ST", "addr:postcode": "76653", "addr:state": "TX", "brand": "USPS", "collection_times": "Mo-Fr 12:15; Sa 09:15", "name": "USPS COLLECTION BOX - BLUE BOX", "note": "ON 12/24 AND 12/31, THIS BOX MAY BE COLLECTED AS EARLY AS 12 NOON.", "ref": "7665300001"}, "type": "Feature"}
{"geometry": {"coordinates": [-96.629079039, 31.307686014], "type": "Point"}, "id": "kxTGkaTP399pJ7CX21cGDCVIkr0=", "properties": {"@spider": "usps_collection_boxes", "addr:city": "KOSSE", "addr:country": "US", "addr:full": "107 W ADAMS ST", "addr:postcode": "76653", "addr:state": "TX", "brand": "USPS", "collection_times": "Mo-Fr 12:15; Sa 09:30", "name": "USPS COLLECTION BOX - PO LOBBY", "note": "ON 12/24 AND 12/31, THIS BOX MAY BE COLLECTED AS EARLY AS 12 NOON.", "ref": "7665300002"}, "type": "Feature"}
{"geometry": {"coordinates": [-96.629079039, 31.307686014], "type": "Point"}, "id": "VRXUMrzMXvwP_RgIwy-_nTBNSBk=", "properties": {"@spider": "usps_collection_boxes", "addr:city": "KOSSE", "addr:country": "US", "addr:full": "107 W ADAMS ST", "addr:postcode": "76653", "addr:state": "TX", "brand": "USPS", "collection_times": "Mo-Fr 12:30; Sa 10:00", "name": "USPS COLLECTION BOX - PO LOBBY", "note": "ON 12/24 AND 12/31, THIS BOX MAY BE COLLECTED AS EARLY AS 12 NOON.", "ref": "7665300005"}, "type": "Feature"}
{"geometry": {"coordinates": [-97.01775099, 31.730556005], "type": "Point"}, "id": "eAjtYc0kbAVT_5KkZfq54wcRROM=", "properties": {"@spider": "usps_collection_boxes", "addr:city": "LEROY", "addr:country": "US", "addr:full": "115 W COMMERCE", "addr:postcode": "76654", "addr:state": "TX", "brand": "USPS", "collection_times": "Mo-Fr 11:55; Sa 09:15", "name": "USPS COLLECTION BOX - BLUE BOX", "ref": "7665400000"}, "type": "Feature"}
{"geometry": {"coordinates": [-97.01775099, 31.730556005], "type": "Point"}, "id": "bRMqQg9gLkxlL113MrKmiRixQ-E=", "properties": {"@spider": "usps_collection_boxes", "addr:city": "LEROY", "addr:country": "US", "addr:full": "115 W COMMERCE", "addr:postcode": "76654", "addr:state": "TX", "brand": "USPS", "collection_times": "Mo-Fr 11:55; Sa 09:15", "name": "USPS COLLECTION BOX - PO LOBBY", "ref": "7665400001"}, "type": "Feature"}
{"geometry": {"coordinates": [-97.01775099, 31.730556005], "type": "Point"}, "id": "Zg4KU92ux-5Pl2m6XpQdpilFL-E=", "properties": {"@spider": "usps_collection_boxes", "addr:city": "LEROY", "addr:country": "US", "addr:full": "115 W COMMERCE", "addr:postcode": "76654", "addr:state": "TX", "brand": "USPS", "collection_times": "Mo-Fr 12:00; Sa 09:30", "name": "USPS COLLECTION BOX - PO LOBBY", "ref": "7665400002"}, "type": "Feature"}
{"geometry": {"coordinates": [-97.2232040098, 31.3973699889], "type": "Point"}, "id": "o24MiCUMevZb06teZdyQwiYRVX4=", "properties": {"@spider": "usps_collection_boxes", "addr:city": "LORENA", "addr:country": "US", "addr:full": "1190 OLD LORENA RD", "addr:postcode": "76655", "addr:state": "TX", "brand": "USPS", "collection_times": "Mo-Fr 16:30; Sa 10:00", "name": "USPS COLLECTION BOX - PO LOBBY", "note": "ON 12/24 AND 12/31, THIS BOX MAY BE COLLECTED AS EARLY AS 12 NOON.", "ref": "7665500001"}, "type": "Feature"}
{"geometry": {"coordinates": [-97.2232040098, 31.3973699889], "type": "Point"}, "id": "9EwSBl3C44utaTzRpTXs4aVu4nk=", "properties": {"@spider": "usps_collection_boxes", "addr:city": "LORENA", "addr:country": "US", "addr:full": "1190 OLD LORENA RD", "addr:postcode": "76655", "addr:state": "TX", "brand": "USPS", "collection_times": "Mo-Fr 16:30; Sa 10:00", "name": "USPS COLLECTION BOX - PO LOBBY", "note": "ON 12/24 AND 12/31, THIS BOX MAY BE COLLECTED AS EARLY AS 12 NOON.", "ref": "7665500003"}, "type": "Feature"}
{"geometry": {"coordinates": [-97.211384018, 31.391426004], "type": "Point"}, "id": "XkIggZfIimsptNpv3Nw2CzDYMo8=", "properties": {"@spider": "usps_collection_boxes", "addr:city": "LORENA", "addr:country": "US", "addr:full": "406 N FRONTAGE RD", "addr:postcode": "76655", "addr:state": "TX", "brand": "USPS", "collection_times": "Mo-Fr 13:30", "name": "USPS COLLECTION BOX - BLUE BOX", "note": "ON 12/24 AND 12/31, THIS BOX MAY BE COLLECTED AS EARLY AS 12 NOON.", "ref": "7665500005"}, "type": "Feature"}
{"geometry": {"coordinates": [-97.2232040098, 31.3973699889], "type": "Point"}, "id": "9JGLz35Kg7OEVi6-2uwjELVqp0o=", "properties": {"@spider": "usps_collection_boxes", "addr:city": "LORENA", "addr:country": "US", "addr:full": "1190 OLD LORENA RD", "addr:postcode": "76655", "addr:state": "TX", "brand": "USPS", "collection_times": "Mo-Fr 16:45; Sa 10:00", "name": "USPS COLLECTION BOX - BLUE BOX", "note": "ON 12/24 AND 12/31, THIS BOX MAY BE COLLECTED AS EARLY AS 12 NOON.", "ref": "7665500006"}, "type": "Feature"}
{"geometry": {"coordinates": [-97.2232040098, 31.3973699889], "type": "Point"}, "id": "KVE0o4bpfdTjI-GilmTlYcljv4Y=", "properties": {"@spider": "usps_collection_boxes", "addr:city": "LORENA", "addr:country": "US", "addr:full": "1190 OLD LORENA RD", "addr:postcode": "76655", "addr:state": "TX", "brand": "USPS", "collection_times": "Mo-Fr 16:30; Sa 10:00", "name": "USPS COLLECTION BOX - PO LOBBY", "note": "ON 12/24 AND 12/31, THIS BOX MAY BE COLLECTED AS EARLY AS 12 NOON.", "ref": "7665500007"}, "type": "Feature"}
{"geometry": {"coordinates": [-97.034698025, 31.205799999], "type": "Point"}, "id": "7LEBhlDPquvsF8xyOkCFJ0QSWSs=", "properties": {"@spider": "usps_collection_boxes", "addr:city": "LOTT", "addr:country": "US", "addr:full": "217 E GASSAWAY", "addr:postcode": "76656", "addr:state": "TX", "brand": "USPS", "collection_times": "Mo-Fr 15:15; Sa 09:45", "name": "USPS COLLECTION BOX - BLUE BOX", "note": "ON 12/24 AND 12/31, THIS BOX MAY BE COLLECTED AS EARLY AS 12 NOON.", "ref": "7665600000"}, "type": "Feature"}
{"geometry": {"coordinates": [-97.034698025, 31.205799999], "type": "Point"}, "id": "g6LtwGUEmGDI0DJeRVNPeEseoMU=", "properties": {"@spider": "usps_collection_boxes", "addr:city": "LOTT", "addr:country": "US", "addr:full": "217 E GASSAWAY", "addr:postcode": "76656", "addr:state": "TX", "brand": "USPS", "collection_times": "Mo-Fr 15:30; Sa 10:00", "name": "USPS COLLECTION BOX - PO LOBBY", "note": "ON 12/24 AND 12/31, THIS BOX MAY BE COLLECTED AS EARLY AS 12 NOON.", "ref": "7665600001"}, "type": "Feature"}
{"geometry": {"coordinates": [-97.034698025, 31.205799999], "type": "Point"}, "id": "yfPLW-xVlzieErY0kXMGLD9iZoE=", "properties": {"@spider": "usps_collection_boxes", "addr:city": "LOTT", "addr:country": "US", "addr:full": "217 E GASSAWAY", "addr:postcode": "76656", "addr:state": "TX", "brand": "USPS", "collection_times": "Mo-Fr 15:30; Sa 10:00", "name": "USPS COLLECTION BOX - PO LOBBY", "note": "ON 12/24 AND 12/31, THIS BOX MAY BE COLLECTED AS EARLY AS 12 NOON.", "ref": "7665600004"}, "type": "Feature"}
{"geometry": {"coordinates": [-97.405607969, 31.437821012], "type": "Point"}, "id": "u8o8_ovtNqs7fQ7BBeu6wX9rrUk=", "properties": {"@spider": "usps_collection_boxes", "addr:city": "MCGREGOR", "addr:country": "US", "addr:full": "423 S MAIN ST", "addr:postcode": "76657", "addr:state": "TX", "brand": "USPS", "collection_times": "Mo-Fr 16:30; Sa 09:00", "name": "USPS COLLECTION BOX - BLUE BOX", "note": "ON 12/24 AND 12/31, THIS BOX MAY BE COLLECTED AS EARLY AS 12 NOON.", "ref": "7665700000"}, "type": "Feature"}
{"geometry": {"coordinates": [-97.405607969, 31.437821012], "type": "Point"}, "id": "0kvpbNZPA6R4KDm2RHge8JoRbpY=", "properties": {"@spider": "usps_collection_boxes", "addr:city": "MCGREGOR", "addr:country": "US", "addr:full": "423 S MAIN ST", "addr:postcode": "76657", "addr:state": "TX", "brand": "USPS", "collection_times": "Mo-Fr 16:30; Sa 09:00", "name": "USPS COLLECTION BOX - BLUE BOX", "note": "ON 12/24 AND 12/31, THIS BOX MAY BE COLLECTED AS EARLY AS 12 NOON.", "ref": "7665700004"}, "type": "Feature"}
{"geometry": {"coordinates": [-97.405133973, 31.438434986], "type": "Point"}, "id": "LqJ6sTwyjl3IojVr_imTtW8sgNU=", "properties": {"@spider": "usps_collection_boxes", "addr:city": "MCGREGOR", "addr:country": "US", "addr:full": "408 S MAIN ST", "addr:postcode": "76657", "addr:state": "TX", "brand": "USPS", "collection_times": "Mo-Fr 16:30; Sa 09:00", "name": "USPS COLLECTION BOX - PO LOBBY", "note": "ON 12/24 AND 12/31, THIS BOX MAY BE COLLECTED AS EARLY AS 12 NOON.", "ref": "7665700006"}, "type": "Feature"}
{"geometry": {"coordinates": [-97.405133973, 31.438434986], "type": "Point"}, "id": "4ZSq1AnEWsF2N0Yl-sUCaKnXg6Q=", "properties": {"@spider": "usps_collection_boxes", "addr:city": "MCGREGOR", "addr:country": "US", "addr:full": "408 S MAIN ST", "addr:postcode": "76657", "addr:state": "TX", "brand": "USPS", "collection_times": "Mo-Fr 16:30", "name": "USPS COLLECTION BOX - PO LOBBY", "note": "ON 12/24 AND 12/31, THIS BOX MAY BE COLLECTED AS EARLY AS 12 NOON.", "ref": "7665700009"}, "type": "Feature"}
{"geometry": {"coordinates": [-96.895189964, 31.91788999], "type": "Point"}, "id": "pAI_zPvXLbulSS3dXMdUV1T-nTA=", "properties": {"@spider": "usps_collection_boxes", "addr:city": "MALONE", "addr:country": "US", "addr:full": "213 N PECAN", "addr:postcode": "76660", "addr:state": "TX", "brand": "USPS", "collection_times": "Mo-Fr 11:45; Sa 09:15", "name": "USPS COLLECTION BOX - PO LOBBY", "ref": "7666000001"}, "type": "Feature"}
{"geometry": {"coordinates": [-96.895189964, 31.91788999], "type": "Point"}, "id": "Zr-9BhQFnL6W0DANBvIJic3_wgg=", "properties": {"@spider": "usps_collection_boxes", "addr:city": "MALONE", "addr:country": "US", "addr:full": "213 N PECAN", "addr:postcode": "76660", "addr:state": "TX", "brand": "USPS", "collection_times": "Mo-Fr 12:00; Sa 09:30", "name": "USPS COLLECTION BOX - PO LOBBY", "ref": "7666000004"}, "type": "Feature"}
{"geometry": {"coordinates": [-96.8964321, 31.307516812], "type": "Point"}, "id": "RzQbyh4v24axImThiRu0LejuBLo=", "properties": {"@spider": "usps_collection_boxes", "addr:city": "MARLIN", "addr:country": "US", "addr:full": "200 WINTER ST", "addr:postcode": "76661", "addr:state": "TX", "brand": "USPS", "collection_times": "Mo-Fr 16:45; Sa 12:30", "name": "USPS COLLECTION BOX - BLUE BOX", "note": "ON 12/24 AND 12/31, THIS BOX MAY BE COLLECTED AS EARLY AS 12 NOON.", "ref": "7666100005"}, "type": "Feature"}
{"geometry": {"coordinates": [-96.896350019, 31.307511], "type": "Point"}, "id": "hAP91rXjsl3cYM53G05O0chueK8=", "properties": {"@spider": "usps_collection_boxes", "addr:city": "MARLIN", "addr:country": "US", "addr:full": "207 COLEMAN ST", "addr:postcode": "76661", "addr:state": "TX", "brand": "USPS", "collection_times": "Mo-Fr 16:30; Sa 11:30", "name": "USPS COLLECTION BOX - PO LOBBY", "note": "ON 12/24 AND 12/31, THIS BOX MAY BE COLLECTED AS EARLY AS 12 NOON.", "ref": "7666100016"}, "type": "Feature"}
{"geometry": {"coordinates": [-96.896350019, 31.307511], "type": "Point"}, "id": "vim7owpH8q78LMtcrzjspyz5iVk=", "properties": {"@spider": "usps_collection_boxes", "addr:city": "MARLIN", "addr:country": "US", "addr:full": "207 COLEMAN ST", "addr:postcode": "76661", "addr:state": "TX", "brand": "USPS", "collection_times": "Mo-Fr 16:30; Sa 12:00", "name": "USPS COLLECTION BOX - PO LOBBY", "note": "ON 12/24 AND 12/31, THIS BOX MAY BE COLLECTED AS EARLY AS 12 NOON.", "ref": "7666100023"}, "type": "Feature"}
{"geometry": {"coordinates": [-96.835202024, 31.541844998], "type": "Point"}, "id": "KjdTPd-if9lRKDeBmvuqvrOKaO8=", "properties": {"@spider": "usps_collection_boxes", "addr:city": "MART", "addr:country": "US", "addr:full": "301 E TEXAS AVE", "addr:postcode": "76664", "addr:state": "TX", "brand": "USPS", "collection_times": "Mo-Fr 16:45; Sa 10:30", "name": "USPS COLLECTION BOX - BLUE BOX", "note": "ON 12/24 AND 12/31, THIS BOX MAY BE COLLECTED AS EARLY AS 12 NOON.", "ref": "7666400000"}, "type": "Feature"}
{"geometry": {"coordinates": [-96.835202024, 31.541844998], "type": "Point"}, "id": "1xtB_T-9TGQ-S1FpKwbWPaPAAj4=", "properties": {"@spider": "usps_collection_boxes", "addr:city": "MART", "addr:country": "US", "addr:full": "301 E TEXAS AVE", "addr:postcode": "76664", "addr:state": "TX", "brand": "USPS", "collection_times": "Mo-Fr 16:30; Sa 11:00", "name": "USPS COLLECTION BOX - PO LOBBY", "note": "ON 12/24 AND 12/31, THIS BOX MAY BE COLLECTED AS EARLY AS 12 NOON.", "ref": "7666400004"}, "type": "Feature"}
{"geometry": {"coordinates": [-96.835202024, 31.541844998], "type": "Point"}, "id": "PINEc7RjzgF3JrLFLKCTc1cPaMs=", "properties": {"@spider": "usps_collection_boxes", "addr:city": "MART", "addr:country": "US", "addr:full": "301 E TEXAS AVE", "addr:postcode": "76664", "addr:state": "TX", "brand": "USPS", "collection_times": "Mo-Fr 16:30; Sa 11:00", "name": "USPS COLLECTION BOX - PO LOBBY", "note": "ON 12/24 AND 12/31, THIS BOX MAY BE COLLECTED AS EARLY AS 12 NOON.", "ref": "7666400007"}, "type": "Feature"}
{"geometry": {"coordinates": [-97.66012131, 31.921706877], "type": "Point"}, "id": "tfkfm4feDAkvwVAfyfUYRdWE7Ew=", "properties": {"@spider": "usps_collection_boxes", "addr:city": "MERIDIAN", "addr:country": "US", "addr:full": "500 W MORGAN", "addr:postcode": "76665", "addr:state": "TX", "brand": "USPS", "collection_times": "Mo-Fr 16:00; Sa 10:00", "name": "USPS COLLECTION BOX - BLUE BOX", "note": "ON 12/24 AND 12/31, THIS BOX MAY BE COLLECTED AS EARLY AS 12 NOON.", "ref": "7666500000"}, "type": "Feature"}
{"geometry": {"coordinates": [-97.651370075, 31.924767151], "type": "Point"}, "id": "LuGDAOzIXg_bQ_W4voPwv6Ltkvs=", "properties": {"@spider": "usps_collection_boxes", "addr:city": "MERIDIAN", "addr:country": "US", "addr:full": "512 E LIVE OAK", "addr:postcode": "76665", "addr:state": "TX", "brand": "USPS", "collection_times": "Mo-Fr 16:00; Sa 10:00", "name": "USPS COLLECTION BOX - PO LOBBY", "note": "ON 12/24 AND 12/31, THIS BOX MAY BE COLLECTED AS EARLY AS 12 NOON.", "ref": "7666500001"}, "type": "Feature"}
{"geometry": {"coordinates": [-97.65671797, 31.922963011], "type": "Point"}, "id": "Y1qj06TFwr76EBdP8EADyVHTmWc=", "properties": {"@spider": "usps_collection_boxes", "addr:city": "MERIDIAN", "addr:country": "US", "addr:full": "111 S MAIN", "addr:postcode": "76665", "addr:state": "TX", "brand": "USPS", "collection_times": "Mo-Fr 16:00; Sa 10:00", "name": "USPS COLLECTION BOX - BLUE BOX", "note": "ON 12/24 AND 12/31, THIS BOX MAY BE COLLECTED AS EARLY AS 12 NOON.", "ref": "7666500002"}, "type": "Feature"}
{"geometry": {"coordinates": [-97.651370075, 31.924767151], "type": "Point"}, "id": "NsQbtObOKbswJmYsGU_fF3NZTXk=", "properties": {"@spider": "usps_collection_boxes", "addr:city": "MERIDIAN", "addr:country": "US", "addr:full": "512 E LIVE OAK", "addr:postcode": "76665", "addr:state": "TX", "brand": "USPS", "collection_times": "Mo-Fr 16:00; Sa 10:00", "name": "USPS COLLECTION BOX - BLUE BOX", "note": "ON 12/24 AND 12/31, THIS BOX MAY BE COLLECTED AS EARLY AS 12 NOON.", "ref": "7666500003"}, "type": "Feature"}
{"geometry": {"coordinates": [-97.651370075, 31.924767151], "type": "Point"}, "id": "yHNU7vvYwcNL1woS08E0wNIGXTo=", "properties": {"@spider": "usps_collection_boxes", "addr:city": "MERIDIAN", "addr:country": "US", "addr:full": "512 E LIVE OAK", "addr:postcode": "76665", "addr:state": "TX", "brand": "USPS", "collection_times": "Mo-Fr 16:00; Sa 10:00", "name": "USPS COLLECTION BOX - PO LOBBY", "note": "ON 12/24 AND 12/31, THIS BOX MAY BE COLLECTED AS EARLY AS 12 NOON.", "ref": "7666500007"}, "type": "Feature"}
{"geometry": {"coordinates": [-96.896659982, 32.058420015], "type": "Point"}, "id": "BVBfvieAM0MN__GOz8jJpb8xIc8=", "properties": {"@spider": "usps_collection_boxes", "addr:city": "MERTENS", "addr:country": "US", "addr:full": "101 E HIGHWAY 22", "addr:postcode": "76666", "addr:state": "TX", "brand": "USPS", "collection_times": "Mo-Fr 09:45; Sa 08:30", "name": "USPS COLLECTION BOX - PO LOBBY", "ref": "7666600001"}, "type": "Feature"}
{"geometry": {"coordinates": [-96.896659982, 32.058420015], "type": "Point"}, "id": "4EbyNE7TuT9H8mbnanK2Mlui0XU=", "properties": {"@spider": "usps_collection_boxes", "addr:city": "MERTENS", "addr:country": "US", "addr:full": "101 E HIGHWAY 22", "addr:postcode": "76666", "addr:state": "TX", "brand": "USPS", "collection_times": "Mo-Fr 09:45; Sa 08:30", "name": "USPS COLLECTION BOX - BLUE BOX", "ref": "7666600002"}, "type": "Feature"}
{"geometry": {"coordinates": [-96.896659982, 32.058420015], "type": "Point"}, "id": "xsJjcUqHFZfhFSxTvtrYI7WZJ7E=", "properties": {"@spider": "usps_collection_boxes", "addr:city": "MERTENS", "addr:country": "US", "addr:full": "101 E HIGHWAY 22", "addr:postcode": "76666", "addr:state": "TX", "brand": "USPS", "collection_times": "Mo-Fr 10:00; Sa 08:30", "name": "USPS COLLECTION BOX - PO LOBBY", "ref": "7666600005"}, "type": "Feature"}
{"geometry": {"coordinates": [-96.482578961, 31.680302011], "type": "Point"}, "id": "SxlLSczC9_jBFTWLP9_ZEmZt31k=", "properties": {"@spider": "usps_collection_boxes", "addr:city": "MEXIA", "addr:country": "US", "addr:full": "100 N MCKINNEY ST", "addr:postcode": "76667", "addr:state": "TX", "brand": "USPS", "collection_times": "Mo-Fr 16:45; Sa 13:30", "name": "USPS COLLECTION BOX - BLUE BOX", "note": "ON 12/24 AND 12/31, THIS BOX MAY BE COLLECTED AS EARLY AS 12 NOON.", "ref": "7666700001"}, "type": "Feature"}
{"geometry": {"coordinates": [-96.470847985, 31.684897012], "type": "Point"}, "id": "8ahwEvO_GYduMdfAHOrOfCruImQ=", "properties": {"@spider": "usps_collection_boxes", "addr:city": "MEXIA", "addr:country": "US", "addr:full": "1007 E MILAM ST", "addr:postcode": "76667", "addr:state": "TX", "brand": "USPS", "collection_times": "Mo-Sa 14:30", "name": "USPS COLLECTION BOX - BLUE BOX", "note": "ON 12/24 AND 12/31, THIS BOX MAY BE COLLECTED AS EARLY AS 12 NOON.", "ref": "7666700010"}, "type": "Feature"}
{"geometry": {"coordinates": [-96.482578961, 31.680302011], "type": "Point"}, "id": "6RyqzywaJVLNA143a9Vj6b2fTIE=", "properties": {"@spider": "usps_collection_boxes", "addr:city": "MEXIA", "addr:country": "US", "addr:full": "100 N MCKINNEY ST", "addr:postcode": "76667", "addr:state": "TX", "brand": "USPS", "collection_times": "Mo-Fr 16:30; Sa 13:30", "name": "USPS COLLECTION BOX - PO LOBBY", "note": "ON 12/24 AND 12/31, THIS BOX MAY BE COLLECTED AS EARLY AS 12 NOON.", "ref": "7666700012"}, "type": "Feature"}
{"geometry": {"coordinates": [-96.482578961, 31.680302011], "type": "Point"}, "id": "jfGZDajVPg0YfC4pTaQ2MHbJygs=", "properties": {"@spider": "usps_collection_boxes", "addr:city": "MEXIA", "addr:country": "US", "addr:full": "100 N MCKINNEY ST", "addr:postcode": "76667", "addr:state": "TX", "brand": "USPS", "collection_times": "Mo-Fr 16:30; Sa 12:00", "name": "USPS COLLECTION BOX - PO LOBBY", "note": "ON 12/24 AND 12/31, THIS BOX MAY BE COLLECTED AS EARLY AS 12 NOON.", "ref": "7666700015"}, "type": "Feature"}
{"geometry": {"coordinates": [-96.945030017, 32.125759009], "type": "Point"}, "id": "4eqh8pYVBBp23iJSriJhzmXNDDY=", "properties": {"@spider": "usps_collection_boxes", "addr:city": "MILFORD", "addr:country": "US", "addr:full": "200 N MAIN", "addr:postcode": "76670", "addr:state": "TX", "brand": "USPS", "collection_times": "Mo-Fr 11:45; Sa 09:15", "name": "USPS COLLECTION BOX - BLUE BOX", "ref": "7667000000"}, "type": "Feature"}
{"geometry": {"coordinates": [-96.945030017, 32.125759009], "type": "Point"}, "id": "RGu1c3VfD9cnCdGjWsys9mBeTlM=", "properties": {"@spider": "usps_collection_boxes", "addr:city": "MILFORD", "addr:country": "US", "addr:full": "200 N MAIN", "addr:postcode": "76670", "addr:state": "TX", "brand": "USPS", "collection_times": "Mo-Fr 12:00; Sa 09:30", "name": "USPS COLLECTION BOX - PO LOBBY", "ref": "7667000001"}, "type": "Feature"}
{"geometry": {"coordinates": [-96.945030017, 32.125759009], "type": "Point"}, "id": "kjwokw3mOniCC878hHA0BmT59X0=", "properties": {"@spider": "usps_collection_boxes", "addr:city": "MILFORD", "addr:country": "US", "addr:full": "200 N MAIN", "addr:postcode": "76670", "addr:state": "TX", "brand": "USPS", "collection_times": "Mo-Fr 12:00; Sa 09:30", "name": "USPS COLLECTION BOX - PO LOBBY", "ref": "7667000004"}, "type": "Feature"}
{"geometry": {"coordinates": [-97.608473896, 32.017086034], "type": "Point"}, "id": "3ecqHiR1gEdqOj1JwSEz983xf8s=", "properties": {"@spider": "usps_collection_boxes", "addr:city": "MORGAN", "addr:country": "US", "addr:full": "1002 HARRIS", "addr:postcode": "76671", "addr:state": "TX", "brand": "USPS", "collection_times": "Mo-Fr 11:45; Sa 09:45", "name": "USPS COLLECTION BOX - BLUE BOX", "ref": "7667100000"}, "type": "Feature"}
{"geometry": {"coordinates": [-97.608473896, 32.017086034], "type": "Point"}, "id": "C2ZTbJwFa7FwP1stT23AH-kGUnk=", "properties": {"@spider": "usps_collection_boxes", "addr:city": "MORGAN", "addr:country": "US", "addr:full": "1002 HARRIS", "addr:postcode": "76671", "addr:state": "TX", "brand": "USPS", "collection_times": "Mo-Fr 12:00; Sa 10:00", "name": "USPS COLLECTION BOX - PO LOBBY", "ref": "7667100001"}, "type": "Feature"}
{"geometry": {"coordinates": [-97.498170282, 32.019186223], "type": "Point"}, "id": "jFK-JyeFZwGTaHV9i2c04QExdFE=", "properties": {"@spider": "usps_collection_boxes", "addr:city": "MORGAN", "addr:country": "US", "addr:full": "13452 FM 56", "addr:postcode": "76671", "addr:state": "TX", "brand": "USPS", "collection_times": "Mo-Sa 14:00", "name": "USPS COLLECTION BOX - BLUE BOX", "note": "ON 12/24 AND 12/31, THIS BOX MAY BE COLLECTED AS EARLY AS 12 NOON.", "ref": "7667100003"}, "type": "Feature"}
{"geometry": {"coordinates": [-97.608473896, 32.017086034], "type": "Point"}, "id": "PIWd8WIVw2476rtGUu0kN30sWSA=", "properties": {"@spider": "usps_collection_boxes", "addr:city": "MORGAN", "addr:country": "US", "addr:full": "1002 HARRIS", "addr:postcode": "76671", "addr:state": "TX", "brand": "USPS", "collection_times": "Mo-Fr 12:00; Sa 10:00", "name": "USPS COLLECTION BOX - PO LOBBY", "ref": "7667100005"}, "type": "Feature"}
{"geometry": {"coordinates": [-96.926373989, 31.721181895], "type": "Point"}, "id": "YS1Legc0iDbb35r_25_FbAvQszc=", "properties": {"@spider": "usps_collection_boxes", "addr:city": "MOUNT CALM", "addr:country": "US", "addr:full": "221 STATE HIGHWAY 31", "addr:postcode": "76673", "addr:state": "TX", "brand": "USPS", "collection_times": "Mo-Fr 11:55; Sa 10:30", "name": "USPS COLLECTION BOX - BLUE BOX", "ref": "7667300000"}, "type": "Feature"}
{"geometry": {"coordinates": [-96.926373989, 31.721181895], "type": "Point"}, "id": "lkq4uoddRpvRxp25BSWFTLJ6uZo=", "properties": {"@spider": "usps_collection_boxes", "addr:city": "MOUNT CALM", "addr:country": "US", "addr:full": "221 STATE HIGHWAY 31", "addr:postcode": "76673", "addr:state": "TX", "brand": "USPS", "collection_times": "Mo-Fr 12:00; Sa 10:45", "name": "USPS COLLECTION BOX - PO LOBBY", "ref": "7667300004"}, "type": "Feature"}
{"geometry": {"coordinates": [-96.926373989, 31.721181895], "type": "Point"}, "id": "VH5hgIDGmuQCqjoMm6BSCR5nuAQ=", "properties": {"@spider": "usps_collection_boxes", "addr:city": "MOUNT CALM", "addr:country": "US", "addr:full": "221 STATE HIGHWAY 31 BUSINESS", "addr:postcode": "76673", "addr:state": "TX", "brand": "USPS", "collection_times": "Mo-Fr 12:00; Sa 10:45", "name": "USPS COLLECTION BOX - PO LOBBY", "ref": "7667300006"}, "type": "Feature"}
{"geometry": {"coordinates": [-96.927331998, 31.859622335], "type": "Point"}, "id": "Hh0nKUDXJlH0EZ63Qe-Kh3pmI0I=", "properties": {"@spider": "usps_collection_boxes", "addr:city": "PENELOPE", "addr:country": "US", "addr:full": "122 E COMMERCE", "addr:postcode": "76676", "addr:state": "TX", "brand": "USPS", "collection_times": "Mo-Fr 10:45; Sa 08:45", "name": "USPS COLLECTION BOX - BLUE BOX", "ref": "7667600000"}, "type": "Feature"}
{"geometry": {"coordinates": [-96.927331998, 31.859622335], "type": "Point"}, "id": "alpU1EaVG0Thljh1yggSXOkJzvw=", "properties": {"@spider": "usps_collection_boxes", "addr:city": "PENELOPE", "addr:country": "US", "addr:full": "122 E COMMERCE", "addr:postcode": "76676", "addr:state": "TX", "brand": "USPS", "collection_times": "Mo-Fr 10:45; Sa 08:45", "name": "USPS COLLECTION BOX - PO LOBBY", "ref": "7667600001"}, "type": "Feature"}
{"geometry": {"coordinates": [-96.927331998, 31.859622335], "type": "Point"}, "id": "p4VloALeaVHh9jgs9ZbAe3mLlng=", "properties": {"@spider": "usps_collection_boxes", "addr:city": "PENELOPE", "addr:country": "US", "addr:full": "122 E COMMERCE", "addr:postcode": "76676", "addr:state": "TX", "brand": "USPS", "collection_times": "Mo-Fr 11:00; Sa 09:00", "name": "USPS COLLECTION BOX - PO LOBBY", "ref": "7667600004"}, "type": "Feature"}
{"geometry": {"coordinates": [-96.783467013, 31.658266626], "type": "Point"}, "id": "kSPS7v07eKegJAZaXKWBuuA0a4c=", "properties": {"@spider": "usps_collection_boxes", "addr:city": "PRAIRIE HILL", "addr:country": "US", "addr:full": "4874 FM 73 W", "addr:postcode": "76678", "addr:state": "TX", "brand": "USPS", "collection_times": "Mo-Fr 09:45; Sa 09:15", "name": "USPS COLLECTION BOX - BLUE BOX", "ref": "7667800000"}, "type": "Feature"}
{"geometry": {"coordinates": [-96.783467013, 31.658266626], "type": "Point"}, "id": "WALANPHik2v-3i-UZv56ARlMgaI=", "properties": {"@spider": "usps_collection_boxes", "addr:city": "PRAIRIE HILL", "addr:country": "US", "addr:full": "4874 FM 73 W", "addr:postcode": "76678", "addr:state": "TX", "brand": "USPS", "collection_times": "Mo-Fr 10:00; Sa 09:30", "name": "USPS COLLECTION BOX - PO LOBBY", "ref": "7667800004"}, "type": "Feature"}
{"geometry": {"coordinates": [-96.783467013, 31.658266626], "type": "Point"}, "id": "jFd8kV_vj49HxgZQ0V92zOdsAIs=", "properties": {"@spider": "usps_collection_boxes", "addr:city": "PRAIRIE HILL", "addr:country": "US", "addr:full": "4874 FM 73 W", "addr:postcode": "76678", "addr:state": "TX", "brand": "USPS", "collection_times": "Mo-Fr 10:00; Sa 09:30", "name": "USPS COLLECTION BOX - PO LOBBY", "ref": "7667800006"}, "type": "Feature"}
{"geometry": {"coordinates": [-96.615327737, 31.948554294], "type": "Point"}, "id": "OcebvhnfUcJ0WGLwFwPNiRywGqI=", "properties": {"@spider": "usps_collection_boxes", "addr:city": "PURDON", "addr:country": "US", "addr:full": "700 N BROWN ST", "addr:postcode": "76679", "addr:state": "TX", "brand": "USPS", "collection_times": "Mo-Fr 11:30; Sa 09:15", "name": "USPS COLLECTION BOX - PO LOBBY", "ref": "7667900000"}, "type": "Feature"}
{"geometry": {"coordinates": [-96.615327737, 31.948554294], "type": "Point"}, "id": "HmZ2qiZdfioojfQwLSwmpKlU3Ww=", "properties": {"@spider": "usps_collection_boxes", "addr:city": "PURDON", "addr:country": "US", "addr:full": "700 N BROWN ST", "addr:postcode": "76679", "addr:state": "TX", "brand": "USPS", "collection_times": "Mo-Fr 11:30; Sa 09:15", "name": "USPS COLLECTION BOX - BLUE BOX", "ref": "7667900001"}, "type": "Feature"}
{"geometry": {"coordinates": [-96.614827727, 31.947854273], "type": "Point"}, "id": "6RxEwO-geyUKIbcMT83QnhGQgX0=", "properties": {"@spider": "usps_collection_boxes", "addr:city": "PURDON", "addr:country": "US", "addr:full": "700 S BROWN ST", "addr:postcode": "76679", "addr:state": "TX", "brand": "USPS", "collection_times": "Mo-Fr 12:00; Sa 09:30", "name": "USPS COLLECTION BOX - PO LOBBY", "ref": "7667900003"}, "type": "Feature"}
{"geometry": {"coordinates": [-96.783571009, 31.217643], "type": "Point"}, "id": "swR29RwrTb04CwiXwjCSG63dos4=", "properties": {"@spider": "usps_collection_boxes", "addr:city": "REAGAN", "addr:country": "US", "addr:full": "3700 FM 413", "addr:postcode": "76680", "addr:state": "TX", "brand": "USPS", "collection_times": "Mo-Sa 09:45", "name": "USPS COLLECTION BOX - BLUE BOX", "ref": "7668000000"}, "type": "Feature"}
{"geometry": {"coordinates": [-96.783571009, 31.217643], "type": "Point"}, "id": "ZPN9vY31ytlybVz-GWrjyolRxPM=", "properties": {"@spider": "usps_collection_boxes", "addr:city": "REAGAN", "addr:country": "US", "addr:full": "3700 FM 413", "addr:postcode": "76680", "addr:state": "TX", "brand": "USPS", "collection_times": "Mo-Fr 10:00; Sa 09:45", "name": "USPS COLLECTION BOX - PO LOBBY", "ref": "7668000001"}, "type": "Feature"}
{"geometry": {"coordinates": [-96.783571009, 31.217643], "type": "Point"}, "id": "TR0tQEPRFNi_HWNtO-_BBpLAjU8=", "properties": {"@spider": "usps_collection_boxes", "addr:city": "REAGAN", "addr:country": "US", "addr:full": "3700 FM 413", "addr:postcode": "76680", "addr:state": "TX", "brand": "USPS", "collection_times": "Mo-Sa 10:00", "name": "USPS COLLECTION BOX - PO LOBBY", "ref": "7668000003"}, "type": "Feature"}
{"geometry": {"coordinates": [-96.427250019, 31.926300014], "type": "Point"}, "id": "kr5l5C7W1h1ojAEH6Rg5puRMBkQ=", "properties": {"@spider": "usps_collection_boxes", "addr:city": "RICHLAND", "addr:country": "US", "addr:full": "107 E MAIN ST", "addr:postcode": "76681", "addr:state": "TX", "brand": "USPS", "collection_times": "Mo-Fr 10:45; Sa 11:00", "name": "USPS COLLECTION BOX - BLUE BOX", "ref": "7668100000"}, "type": "Feature"}
{"geometry": {"coordinates": [-96.427250019, 31.926300014], "type": "Point"}, "id": "Sa6mJjqZaJnRJiGi3iYVyQrDSJ4=", "properties": {"@spider": "usps_collection_boxes", "addr:city": "RICHLAND", "addr:country": "US", "addr:full": "107 E MAIN ST", "addr:postcode": "76681", "addr:state": "TX", "brand": "USPS", "collection_times": "Mo-Fr 12:00; Sa 11:00", "name": "USPS COLLECTION BOX - PO LOBBY", "ref": "7668100001"}, "type": "Feature"}
{"geometry": {"coordinates": [-96.427250019, 31.926300014], "type": "Point"}, "id": "Keu97Qo97J8sOuyHfY2vPDwyZtg=", "properties": {"@spider": "usps_collection_boxes", "addr:city": "RICHLAND", "addr:country": "US", "addr:full": "107 E MAIN ST", "addr:postcode": "76681", "addr:state": "TX", "brand": "USPS", "collection_times": "Mo-Fr 12:00; Sa 11:00", "name": "USPS COLLECTION BOX - PO LOBBY", "ref": "7668100003"}, "type": "Feature"}
{"geometry": {"coordinates": [-96.923398002, 31.473897016], "type": "Point"}, "id": "3Eb7-J74hFRcxTEfmYKthawl3a8=", "properties": {"@spider": "usps_collection_boxes", "addr:city": "RIESEL", "addr:country": "US", "addr:full": "202 E ALEXANDER ST", "addr:postcode": "76682", "addr:state": "TX", "brand": "USPS", "collection_times": "Mo-Fr 16:15; Sa 09:30", "name": "USPS COLLECTION BOX - BLUE BOX", "note": "ON 12/24 AND 12/31, THIS BOX MAY BE COLLECTED AS EARLY AS 12 NOON.", "ref": "7668200000"}, "type": "Feature"}
{"geometry": {"coordinates": [-96.923398002, 31.473897016], "type": "Point"}, "id": "XpictW67PrH5SHodrbs9Q-JEAmQ=", "properties": {"@spider": "usps_collection_boxes", "addr:city": "RIESEL", "addr:country": "US", "addr:full": "202 E ALEXANDER ST", "addr:postcode": "76682", "addr:state": "TX", "brand": "USPS", "collection_times": "Mo-Fr 16:00; Sa 09:30", "name": "USPS COLLECTION BOX - PO LOBBY", "note": "ON 12/24 AND 12/31, THIS BOX MAY BE COLLECTED AS EARLY AS 12 NOON.", "ref": "7668200001"}, "type": "Feature"}
{"geometry": {"coordinates": [-96.923398002, 31.473897016], "type": "Point"}, "id": "8Y21eADD73xvIaApdSgCI2MMvVs=", "properties": {"@spider": "usps_collection_boxes", "addr:city": "RIESEL", "addr:country": "US", "addr:full": "202 E ALEXANDER ST", "addr:postcode": "76682", "addr:state": "TX", "brand": "USPS", "collection_times": "Mo-Fr 16:00; Sa 09:30", "name": "USPS COLLECTION BOX - PO LOBBY", "note": "ON 12/24 AND 12/31, THIS BOX MAY BE COLLECTED AS EARLY AS 12 NOON.", "ref": "7668200004"}, "type": "Feature"}
{"geometry": {"coordinates": [-97.118454025, 31.718823016], "type": "Point"}, "id": "PwyyY6ppF9JTgpf68wIBLNCoBXM=", "properties": {"@spider": "usps_collection_boxes", "addr:city": "ROSS", "addr:country": "US", "addr:full": "1441 ROSS RD", "addr:postcode": "76684", "addr:state": "TX", "brand": "USPS", "collection_times": "Mo-Fr 11:55; Sa 09:30", "name": "USPS COLLECTION BOX - BLUE BOX", "ref": "7668400000"}, "type": "Feature"}
{"geometry": {"coordinates": [-97.118454025, 31.718823016], "type": "Point"}, "id": "99H_uCi5g5FBNrDoLy7h5lLEwac=", "properties": {"@spider": "usps_collection_boxes", "addr:city": "ROSS", "addr:country": "US", "addr:full": "1441 ROSS RD", "addr:postcode": "76684", "addr:state": "TX", "brand": "USPS", "collection_times": "Mo-Fr 12:00; Sa 09:30", "name": "USPS COLLECTION BOX - PO LOBBY", "ref": "7668400001"}, "type": "Feature"}
{"geometry": {"coordinates": [-97.118454025, 31.718823016], "type": "Point"}, "id": "HmnVVpVwL2MdSN--zQS256EoJfo=", "properties": {"@spider": "usps_collection_boxes", "addr:city": "ROSS", "addr:country": "US", "addr:full": "1441 ROSS RD", "addr:postcode": "76684", "addr:state": "TX", "brand": "USPS", "collection_times": "Mo-Fr 12:00; Sa 09:45", "name": "USPS COLLECTION BOX - PO LOBBY", "ref": "7668400002"}, "type": "Feature"}
{"geometry": {"coordinates": [-96.546227242, 31.742291614], "type": "Point"}, "id": "jp8gtcnbacsoeX0TQ7yCFJV_fOE=", "properties": {"@spider": "usps_collection_boxes", "addr:city": "TEHUACANA", "addr:country": "US", "addr:full": "208 S RAILROAD ST", "addr:postcode": "76686", "addr:state": "TX", "brand": "USPS", "collection_times": "Mo-Fr 10:45; Sa 09:15", "name": "USPS COLLECTION BOX - BLUE BOX", "ref": "7668600000"}, "type": "Feature"}
{"geometry": {"coordinates": [-96.546227242, 31.742291614], "type": "Point"}, "id": "SkwLq5rDFaHNLJ60jQw6TjR95e8=", "properties": {"@spider": "usps_collection_boxes", "addr:city": "TEHUACANA", "addr:country": "US", "addr:full": "208 S RAILROAD ST", "addr:postcode": "76686", "addr:state": "TX", "brand": "USPS", "collection_times": "Mo-Fr 11:00; Sa 08:45", "name": "USPS COLLECTION BOX - PO LOBBY", "ref": "7668600002"}, "type": "Feature"}
{"geometry": {"coordinates": [-96.546227242, 31.742291614], "type": "Point"}, "id": "kO2YZdPgQco8Or25IGud10-iIgg=", "properties": {"@spider": "usps_collection_boxes", "addr:city": "TEHUACANA", "addr:country": "US", "addr:full": "208 S RAILROAD ST", "addr:postcode": "76686", "addr:state": "TX", "brand": "USPS", "collection_times": "Mo-Fr 11:00; Sa 09:30", "name": "USPS COLLECTION BOX - PO LOBBY", "ref": "7668600006"}, "type": "Feature"}
{"geometry": {"coordinates": [-96.572454002, 31.411697008], "type": "Point"}, "id": "Yf7xkEJq-37Ms6BrH7-YnoqIRVE=", "properties": {"@spider": "usps_collection_boxes", "addr:city": "THORNTON", "addr:country": "US", "addr:full": "1008 MARSHALL ST", "addr:postcode": "76687", "addr:state": "TX", "brand": "USPS", "collection_times": "Mo-Fr 11:45; Sa 09:45", "name": "USPS COLLECTION BOX - BLUE BOX", "ref": "7668700000"}, "type": "Feature"}
{"geometry": {"coordinates": [-96.572454002, 31.411697008], "type": "Point"}, "id": "i0L9bCyjmShlMMOs42H5UJkdAI8=", "properties": {"@spider": "usps_collection_boxes", "addr:city": "THORNTON", "addr:country": "US", "addr:full": "1008 MARSHALL ST", "addr:postcode": "76687", "addr:state": "TX", "brand": "USPS", "collection_times": "Mo-Fr 12:00; Sa 10:00", "name": "USPS COLLECTION BOX - PO LOBBY", "ref": "7668700001"}, "type": "Feature"}
{"geometry": {"coordinates": [-96.572454002, 31.411697008], "type": "Point"}, "id": "vyPLUGtvu4V5AUFxYr3NHccpzos=", "properties": {"@spider": "usps_collection_boxes", "addr:city": "THORNTON", "addr:country": "US", "addr:full": "1008 MARSHALL ST", "addr:postcode": "76687", "addr:state": "TX", "brand": "USPS", "collection_times": "Mo-Fr 12:00; Sa 10:00", "name": "USPS COLLECTION BOX - PO LOBBY", "ref": "7668700003"}, "type": "Feature"}
{"geometry": {"coordinates": [-97.47152911, 31.658008311], "type": "Point"}, "id": "T61dQYUXEJ_I0VSZVFudRS7QWmM=", "properties": {"@spider": "usps_collection_boxes", "addr:city": "VALLEY MILLS", "addr:country": "US", "addr:full": "501 AVENUE D", "addr:postcode": "76689", "addr:state": "TX", "brand": "USPS", "collection_times": "Mo-Fr 15:45; Sa 11:15", "name": "USPS COLLECTION BOX - BLUE BOX", "note": "ON 12/24 AND 12/31, THIS BOX MAY BE COLLECTED AS EARLY AS 12 NOON.", "ref": "7668900001"}, "type": "Feature"}
{"geometry": {"coordinates": [-97.47152911, 31.658008311], "type": "Point"}, "id": "8zfxbrRBZaSL7CGneCqAodbInzA=", "properties": {"@spider": "usps_collection_boxes", "addr:city": "VALLEY MILLS", "addr:country": "US", "addr:full": "501 AVENUE D", "addr:postcode": "76689", "addr:state": "TX", "brand": "USPS", "collection_times": "Mo-Fr 15:30; Sa 11:00", "name": "USPS COLLECTION BOX - PO LOBBY", "note": "ON 12/24 AND 12/31, THIS BOX MAY BE COLLECTED AS EARLY AS 12 NOON.", "ref": "7668900002"}, "type": "Feature"}
{"geometry": {"coordinates": [-97.47152911, 31.658008311], "type": "Point"}, "id": "QEwfXnfc_MIrznJC7ggBlDOO_OY=", "properties": {"@spider": "usps_collection_boxes", "addr:city": "VALLEY MILLS", "addr:country": "US", "addr:full": "501 AVENUE D", "addr:postcode": "76689", "addr:state": "TX", "brand": "USPS", "collection_times": "Mo-Fr 16:00; Sa 11:30", "name": "USPS COLLECTION BOX - PO LOBBY", "note": "ON 12/24 AND 12/31, THIS BOX MAY BE COLLECTED AS EARLY AS 12 NOON.", "ref": "7668900005"}, "type": "Feature"}
{"geometry": {"coordinates": [-97.749891038, 32.056774982], "type": "Point"}, "id": "TXpf2a4HbN3cJEXrUObmeH7kgR8=", "properties": {"@spider": "usps_collection_boxes", "addr:city": "WALNUT SPRINGS", "addr:country": "US", "addr:full": "4105 3RD ST", "addr:postcode": "76690", "addr:state": "TX", "brand": "USPS", "collection_times": "Mo-Fr 12:00; Sa 10:00", "name": "USPS COLLECTION BOX - BLUE BOX", "ref": "7669000000"}, "type": "Feature"}
{"geometry": {"coordinates": [-97.749891038, 32.056774982], "type": "Point"}, "id": "TGn7okV7ZtV4GtXVdGL3my2dnes=", "properties": {"@spider": "usps_collection_boxes", "addr:city": "WALNUT SPRINGS", "addr:country": "US", "addr:full": "4105 3RD ST", "addr:postcode": "76690", "addr:state": "TX", "brand": "USPS", "collection_times": "Mo-Fr 12:00; Sa 10:00", "name": "USPS COLLECTION BOX - PO LOBBY", "ref": "7669000001"}, "type": "Feature"}
{"geometry": {"coordinates": [-97.749891038, 32.056774982], "type": "Point"}, "id": "sBJAXG5GPVC6h3Fjwy6wX_-mLzo=", "properties": {"@spider": "usps_collection_boxes", "addr:city": "WALNUT SPRINGS", "addr:country": "US", "addr:full": "4105 3RD ST", "addr:postcode": "76690", "addr:state": "TX", "brand": "USPS", "collection_times": "Mo-Fr 12:00; Sa 10:00", "name": "USPS COLLECTION BOX - PO LOBBY", "ref": "7669000004"}, "type": "Feature"}
{"geometry": {"coordinates": [-97.093939975, 31.803679979], "type": "Point"}, "id": "OelXPCIAF3IuT7hQXwUDh0Z-rMM=", "properties": {"@spider": "usps_collection_boxes", "addr:city": "WEST", "addr:country": "US", "addr:full": "301 W COLUMBUS ST", "addr:postcode": "76691", "addr:state": "TX", "brand": "USPS", "collection_times": "Mo-Fr 16:00; Sa 10:00", "name": "USPS COLLECTION BOX - PO LOBBY", "note": "ON 12/24 AND 12/31, THIS BOX MAY BE COLLECTED AS EARLY AS 12 NOON.", "ref": "7669100008"}, "type": "Feature"}
{"geometry": {"coordinates": [-97.093939975, 31.803679979], "type": "Point"}, "id": "kIx-xbrTl-oraLbyCIb7Gb79AKo=", "properties": {"@spider": "usps_collection_boxes", "addr:city": "WEST", "addr:country": "US", "addr:full": "301 W COLUMBUS ST", "addr:postcode": "76691", "addr:state": "TX", "brand": "USPS", "collection_times": "Mo-Fr 16:45; Sa 10:00", "name": "USPS COLLECTION BOX - BLUE BOX", "note": "ON 12/24 AND 12/31, THIS BOX MAY BE COLLECTED AS EARLY AS 12 NOON.", "ref": "7669100011"}, "type": "Feature"}
{"geometry": {"coordinates": [-97.093939975, 31.803679979], "type": "Point"}, "id": "JuX--aqT7HEewnHW4Z15fBLIhTM=", "properties": {"@spider": "usps_collection_boxes", "addr:city": "WEST", "addr:country": "US", "addr:full": "301 W COLUMBUS ST", "addr:postcode": "76691", "addr:state": "TX", "brand": "USPS", "collection_times": "Mo-Fr 16:30; Sa 10:00", "name": "USPS COLLECTION BOX - PO LOBBY", "note": "ON 12/24 AND 12/31, THIS BOX MAY BE COLLECTED AS EARLY AS 12 NOON.", "ref": "7669100014"}, "type": "Feature"}
{"geometry": {"coordinates": [-97.315680039, 31.951970012], "type": "Point"}, "id": "ee9kzcJdPkFfah7Y2USozn5b7io=", "properties": {"@spider": "usps_collection_boxes", "addr:city": "WHITNEY", "addr:country": "US", "addr:full": "516 E JEFFERSON AVE", "addr:postcode": "76692", "addr:state": "TX", "brand": "USPS", "collection_times": "Mo-Fr 16:30; Sa 12:15", "name": "USPS COLLECTION BOX - BLUE BOX", "note": "ON 12/24 AND 12/31, THIS BOX MAY BE COLLECTED AS EARLY AS 12 NOON.", "ref": "7669200005"}, "type": "Feature"}
{"geometry": {"coordinates": [-97.315680039, 31.951970012], "type": "Point"}, "id": "JO-KDr95dd9eJ16zie3cM1I31BA=", "properties": {"@spider": "usps_collection_boxes", "addr:city": "WHITNEY", "addr:country": "US", "addr:full": "516 E JEFFERSON AVE", "addr:postcode": "76692", "addr:state": "TX", "brand": "USPS", "collection_times": "Mo-Fr 16:00; Sa 11:30", "name": "USPS COLLECTION BOX - PO LOBBY", "note": "ON 12/24 AND 12/31, THIS BOX MAY BE COLLECTED AS EARLY AS 12 NOON.", "ref": "7669200009"}, "type": "Feature"}
{"geometry": {"coordinates": [-97.315680039, 31.951970012], "type": "Point"}, "id": "EYkjFuDqOYyluwiFtlMqY7i6O9M=", "properties": {"@spider": "usps_collection_boxes", "addr:city": "WHITNEY", "addr:country": "US", "addr:full": "516 E JEFFERSON AVE", "addr:postcode": "76692", "addr:state": "TX", "brand": "USPS", "collection_times": "Mo-Fr 16:30; Sa 12:00", "name": "USPS COLLECTION BOX - PO LOBBY", "note": "ON 12/24 AND 12/31, THIS BOX MAY BE COLLECTED AS EARLY AS 12 NOON.", "ref": "7669200013"}, "type": "Feature"}
{"geometry": {"coordinates": [-96.331821475, 31.766400966], "type": "Point"}, "id": "qHagdY3DV3vKv7jfSNwk-IDr6m8=", "properties": {"@spider": "usps_collection_boxes", "addr:city": "WORTHAM", "addr:country": "US", "addr:full": "203 W MAIN ST", "addr:postcode": "76693", "addr:state": "TX", "brand": "USPS", "collection_times": "Mo-Fr 16:00; Sa 09:30", "name": "USPS COLLECTION BOX - BLUE BOX", "note": "ON 12/24 AND 12/31, THIS BOX MAY BE COLLECTED AS EARLY AS 12 NOON.", "ref": "7669300000"}, "type": "Feature"}
{"geometry": {"coordinates": [-96.331821475, 31.766400966], "type": "Point"}, "id": "jlyPVblrjiVSmIF53V-3FtxWQqw=", "properties": {"@spider": "usps_collection_boxes", "addr:city": "WORTHAM", "addr:country": "US", "addr:full": "203 W MAIN ST", "addr:postcode": "76693", "addr:state": "TX", "brand": "USPS", "collection_times": "Mo-Fr 15:45; Sa 09:45", "name": "USPS COLLECTION BOX - PO LOBBY", "note": "ON 12/24 AND 12/31, THIS BOX MAY BE COLLECTED AS EARLY AS 12 NOON.", "ref": "7669300001"}, "type": "Feature"}
{"geometry": {"coordinates": [-96.331821475, 31.766400966], "type": "Point"}, "id": "TGp8RI2s0z2FEvVcYVZIPs1kdAA=", "properties": {"@spider": "usps_collection_boxes", "addr:city": "WORTHAM", "addr:country": "US", "addr:full": "203 W MAIN ST", "addr:postcode": "76693", "addr:state": "TX", "brand": "USPS", "collection_times": "Mo-Fr 15:45; Sa 09:45", "name": "USPS COLLECTION BOX - PO LOBBY", "note": "ON 12/24 AND 12/31, THIS BOX MAY BE COLLECTED AS EARLY AS 12 NOON.", "ref": "7669300003"}, "type": "Feature"}
