{"geometry": {"coordinates": [-97.1332474, 31.558211], "type": "Point"}, "id": "vMxm13QVVXqo0BXq9a9LzqnaijM=", "properties": {"@spider": "usps_collection_boxes", "addr:city": "WACO", "addr:country": "US", "addr:full": "215 N 5TH ST", "addr:postcode": "76701", "addr:state": "TX", "brand": "USPS", "collection_times": "Mo-Fr 16:15; Sa 15:15", "name": "USPS COLLECTION BOX - BLUE BOX", "note": "ON 12/24 AND 12/31, THIS BOX MAY BE COLLECTED AS EARLY AS 12 NOON.", "ref": "7670100000"}, "type": "Feature"}
{"geometry": {"coordinates": [-97.1330055, 31.556247], "type": "Point"}, "id": "Mr_4qLMozNehreqYrI6upkbSAWc=", "properties": {"@spider": "usps_collection_boxes", "addr:city": "WACO", "addr:country": "US", "addr:full": "100 N 6TH ST", "addr:postcode": "76701", "addr:state": "TX", "brand": "USPS", "collection_times": "Mo-Fr 16:30; Sa 15:15", "name": "USPS COLLECTION BOX - BLUE BOX", "note": "ON 12/24 AND 12/31, THIS BOX MAY BE COLLECTED AS EARLY AS 12 NOON.", "ref": "7670100002"}, "type": "Feature"}
{"geometry": {"coordinates": [-97.1338463, 31.557457], "type": "Point"}, "id": "O3Fga0N0qebj_G_mroCAc5ogWOM=", "properties": {"@spider": "usps_collection_boxes", "addr:city": "WACO", "addr:country": "US", "addr:full": "424 CLAY AVE", "addr:postcode": "76701", "addr:state": "TX", "brand": "USPS", "collection_times": "Mo-Fr 17:00; Sa 15:30", "name": "USPS COLLECTION BOX - BLUE BOX", "note": "ON 12/24 AND 12/31, THIS BOX MAY BE COLLECTED AS EARLY AS 12 NOON.", "ref": "7670100003"}, "type": "Feature"}
{"geometry": {"coordinates": [-97.1317099, 31.556959], "type": "Point"}, "id": "RRqO4cfwdeOGVD9Nm2sA2y1FYiA=", "properties": {"@spider": "usps_collection_boxes", "addr:city": "WACO", "addr:country": "US", "addr:full": "425 AUSTIN AVE", "addr:postcode": "76701", "addr:state": "TX", "brand": "USPS", "collection_times": "Mo-Fr 16:20; Sa 15:15", "name": "USPS COLLECTION BOX - BLUE BOX", "note": "ON 12/24 AND 12/31, THIS BOX MAY BE COLLECTED AS EARLY AS 12 NOON.", "ref": "7670100007"}, "type": "Feature"}
{"geometry": {"coordinates": [-97.1341237, 31.553236], "type": "Point"}, "id": "Sgis3dj5olN8CebCHYL1kojCnqo=", "properties": {"@spider": "usps_collection_boxes", "addr:city": "WACO", "addr:country": "US", "addr:full": "805 FRANKLIN AVE", "addr:postcode": "76701", "addr:state": "TX", "brand": "USPS", "collection_times": "Mo-Fr 16:45; Sa 15:30", "name": "USPS COLLECTION BOX - BLUE BOX", "note": "ON 12/24 AND 12/31, THIS BOX MAY BE COLLECTED AS EARLY AS 12 NOON.", "ref": "7670100017"}, "type": "Feature"}
{"geometry": {"coordinates": [-97.1341372, 31.553236], "type": "Point"}, "id": "hL03NefqicskuidhIk6bRbjFKZQ=", "properties": {"@spider": "usps_collection_boxes", "addr:city": "WACO", "addr:country": "US", "addr:full": "805 FRANKLIN AVE", "addr:postcode": "76701", "addr:state": "TX", "brand": "USPS", "collection_times": "Mo-Fr 16:45; Sa 15:30", "name": "USPS COLLECTION BOX - BLUE BOX", "note": "ON 12/24 AND 12/31, THIS BOX MAY BE COLLECTED AS EARLY AS 12 NOON.", "ref": "7670100018"}, "type": "Feature"}
{"geometry": {"coordinates": [-97.1324817, 31.555592], "type": "Point"}, "id": "VctgRM-Qotz4sK6LVZ4-bdi2rk8=", "properties": {"@spider": "usps_collection_boxes", "addr:city": "WACO", "addr:country": "US", "addr:full": "600 AUSTIN AVE", "addr:postcode": "76701", "addr:state": "TX", "brand": "USPS", "collection_times": "Mo-Fr 16:30; Sa 15:15", "name": "USPS COLLECTION BOX - BLUE BOX", "note": "ON 12/24 AND 12/31, THIS BOX MAY BE COLLECTED AS EARLY AS 12 NOON.", "ref": "7670100022"}, "type": "Feature"}
{"geometry": {"coordinates": [-97.1389929, 31.551964], "type": "Point"}, "id": "B-H7cVYKvQ2bW1h5z8XGb4QAA7g=", "properties": {"@spider": "usps_collection_boxes", "addr:city": "WACO", "addr:country": "US", "addr:full": "1124 WASHINGTON AVE", "addr:postcode": "76701", "addr:state": "TX", "brand": "USPS", "collection_times": "Mo-Fr 16:40; Sa 15:15", "name": "USPS COLLECTION BOX - BLUE BOX", "note": "ON 12/24 AND 12/31, THIS BOX MAY BE COLLECTED AS EARLY AS 12 NOON.", "ref": "7670100026"}, "type": "Feature"}
{"geometry": {"coordinates": [-97.1260611, 31.552715], "type": "Point"}, "id": "x4-DRFMs-zGj-1tf2TDbma1PstQ=", "properties": {"@spider": "usps_collection_boxes", "addr:city": "WACO", "addr:country": "US", "addr:full": "424 CLAY AVE", "addr:postcode": "76701", "addr:state": "TX", "brand": "USPS", "collection_times": "Mo-Fr 17:00; Sa 15:30", "name": "USPS COLLECTION BOX - PO LOBBY", "note": "ON 12/24 AND 12/31, THIS BOX MAY BE COLLECTED AS EARLY AS 12 NOON.", "ref": "7670100029"}, "type": "Feature"}
{"geometry": {"coordinates": [-97.1338299, 31.557426], "type": "Point"}, "id": "lPG9S-Sh5UoaBpmFXBRA7BZ-jmY=", "properties": {"@spider": "usps_collection_boxes", "addr:city": "WACO", "addr:country": "US", "addr:full": "424 CLAY AVE", "addr:postcode": "76701", "addr:state": "TX", "brand": "USPS", "collection_times": "Mo-Fr 17:00; Sa 15:30", "name": "USPS COLLECTION BOX - BLUE BOX", "note": "ON 12/24 AND 12/31, THIS BOX MAY BE COLLECTED AS EARLY AS 12 NOON.", "ref": "7670100034"}, "type": "Feature"}
{"geometry": {"coordinates": [-97.1332434, 31.558214], "type": "Point"}, "id": "d7dCz8j5MKUKDT24pPC1KC1RWXM=", "properties": {"@spider": "usps_collection_boxes", "addr:city": "WACO", "addr:country": "US", "addr:full": "215 N 5TH ST", "addr:postcode": "76701", "addr:state": "TX", "brand": "USPS", "collection_times": "Mo-Fr 16:15; Sa 15:15", "name": "USPS COLLECTION BOX - BLUE BOX", "note": "ON 12/24 AND 12/31, THIS BOX MAY BE COLLECTED AS EARLY AS 12 NOON.", "ref": "7670100035"}, "type": "Feature"}
{"geometry": {"coordinates": [-97.126335, 31.553256], "type": "Point"}, "id": "agra38wX6XHHZXyZa9z9WZFUjF0=", "properties": {"@spider": "usps_collection_boxes", "addr:city": "WACO", "addr:country": "US", "addr:full": "424 CLAY AVE", "addr:postcode": "76701", "addr:state": "TX", "brand": "USPS", "collection_times": "Mo-Fr 17:00; Sa 15:30", "name": "USPS COLLECTION BOX - PO LOBBY", "note": "ON 12/24 AND 12/31, THIS BOX MAY BE COLLECTED AS EARLY AS 12 NOON.", "ref": "7670100044"}, "type": "Feature"}
{"geometry": {"coordinates": [-97.126335, 31.553256], "type": "Point"}, "id": "OthaU4O-avVx1p7tCpVmwyle5sM=", "properties": {"@spider": "usps_collection_boxes", "addr:city": "WACO", "addr:country": "US", "addr:full": "424 CLAY AVE", "addr:postcode": "76701", "addr:state": "TX", "brand": "USPS", "collection_times": "Mo-Fr 17:00; Sa 15:30", "name": "USPS COLLECTION BOX - PO LOBBY", "note": "ON 12/24 AND 12/31, THIS BOX MAY BE COLLECTED AS EARLY AS 12 NOON.", "ref": "7670100045"}, "type": "Feature"}
{"geometry": {"coordinates": [-97.126127, 31.552146], "type": "Point"}, "id": "XMOGFVhbPiB7NnPqEbUPzR1j9H0=", "properties": {"@spider": "usps_collection_boxes", "addr:city": "WACO", "addr:country": "US", "addr:full": "424 CLAY AVE", "addr:postcode": "76701", "addr:state": "TX", "brand": "USPS", "collection_times": "Mo-Fr 17:00; Sa 15:30", "name": "USPS COLLECTION BOX - BLUE BOX", "note": "ON 12/24 AND 12/31, THIS BOX MAY BE COLLECTED AS EARLY AS 12 NOON.", "ref": "7670100050"}, "type": "Feature"}
{"geometry": {"coordinates": [-97.1346123, 31.55438], "type": "Point"}, "id": "9d2EXJFYPk8xXgBm1pivG370qro=", "properties": {"@spider": "usps_collection_boxes", "addr:city": "WACO", "addr:country": "US", "addr:full": "801 AUSTIN AVE", "addr:postcode": "76701", "addr:state": "TX", "brand": "USPS", "collection_times": "Mo-Fr 16:30; Sa 15:15", "name": "USPS COLLECTION BOX - BLUE BOX", "note": "ON 12/24 AND 12/31, THIS BOX MAY BE COLLECTED AS EARLY AS 12 NOON.", "ref": "7670100052"}, "type": "Feature"}
{"geometry": {"coordinates": [-97.126924058, 31.552736042], "type": "Point"}, "id": "ogWUebUD-QTtby0RVYHLOiGz1Ts=", "properties": {"@spider": "usps_collection_boxes", "addr:city": "WACO", "addr:country": "US", "addr:full": "424 CLAY AVE", "addr:postcode": "76701", "addr:state": "TX", "brand": "USPS", "collection_times": "Mo-Fr 17:00; Sa 13:00", "name": "USPS COLLECTION BOX - PO LOBBY", "note": "ON 12/24 AND 12/31, THIS BOX MAY BE COLLECTED AS EARLY AS 12 NOON.", "ref": "7670100053"}, "type": "Feature"}
{"geometry": {"coordinates": [-97.199899, 31.516346], "type": "Point"}, "id": "Q3LAwv38qBtwluWDh2tVYd0919Q=", "properties": {"@spider": "usps_collection_boxes", "addr:city": "WACO", "addr:country": "US", "addr:full": "430 W STATE HIGHWAY 6", "addr:postcode": "76702", "addr:state": "TX", "brand": "USPS", "collection_times": "Mo-Fr 18:00; Sa 17:30", "name": "USPS COLLECTION BOX - BLUE BOX", "note": "ON 12/24 AND 12/31, THIS BOX MAY BE COLLECTED AS EARLY AS 12 NOON.", "ref": "7670200002"}, "type": "Feature"}
{"geometry": {"coordinates": [-97.199899, 31.516346], "type": "Point"}, "id": "Aca_0w6atFrxnSb2qOB6mo4L3RM=", "properties": {"@spider": "usps_collection_boxes", "addr:city": "WACO", "addr:country": "US", "addr:full": "430 W STATE HIGHWAY 6", "addr:postcode": "76702", "addr:state": "TX", "brand": "USPS", "collection_times": "Mo-Fr 18:00; Sa 17:30", "name": "USPS COLLECTION BOX - PO LOBBY", "note": "ON 12/24 AND 12/31, THIS BOX MAY BE COLLECTED AS EARLY AS 12 NOON.", "ref": "7670200004"}, "type": "Feature"}
{"geometry": {"coordinates": [-97.199899, 31.516346], "type": "Point"}, "id": "NZNfuvjo_8rFEM4V9mzTbtpCvgM=", "properties": {"@spider": "usps_collection_boxes", "addr:city": "WACO", "addr:country": "US", "addr:full": "430 W STATE HIGHWAY 6", "addr:postcode": "76702", "addr:state": "TX", "brand": "USPS", "collection_times": "Mo-Fr 18:00; Sa 17:30", "name": "USPS COLLECTION BOX - PO LOBBY", "note": "ON 12/24 AND 12/31, THIS BOX MAY BE COLLECTED AS EARLY AS 12 NOON.", "ref": "7670200005"}, "type": "Feature"}
{"geometry": {"coordinates": [-97.199899, 31.516346], "type": "Point"}, "id": "S3cwtbVY2x1wIKHPpwENeDf-RX4=", "properties": {"@spider": "usps_collection_boxes", "addr:city": "WACO", "addr:country": "US", "addr:full": "430 W STATE HIGHWAY 6", "addr:postcode": "76702", "addr:state": "TX", "brand": "USPS", "collection_times": "Mo-Fr 18:00; Sa 17:30", "name": "USPS COLLECTION BOX - APC", "note": "ON 12/24 AND 12/31, THIS BOX MAY BE COLLECTED AS EARLY AS 12 NOON.", "ref": "7670200006"}, "type": "Feature"}
{"geometry": {"coordinates": [-97.200560647, 31.516526262], "type": "Point"}, "id": "lSs-oDfRG3QQ4vhkCs6u7KUmGIE=", "properties": {"@spider": "usps_collection_boxes", "addr:city": "WACO", "addr:country": "US", "addr:full": "430 W STATE HIGHWAY 6", "addr:postcode": "76702", "addr:state": "TX", "brand": "USPS", "collection_times": "Mo-Fr 17:30; Sa 13:00", "name": "USPS COLLECTION BOX - PO LOBBY", "note": "ON 12/24 AND 12/31, THIS BOX MAY BE COLLECTED AS EARLY AS 12 NOON.", "ref": "7670200007"}, "type": "Feature"}
{"geometry": {"coordinates": [-97.1249931631, 31.5883539015], "type": "Point"}, "id": "K8HXGsmKfarHQvMt8ERCIse6ivo=", "properties": {"@spider": "usps_collection_boxes", "addr:city": "WACO", "addr:country": "US", "addr:full": "1612 GHOLSON RD", "addr:postcode": "76704", "addr:state": "TX", "brand": "USPS", "collection_times": "Mo-Sa 15:00", "name": "USPS COLLECTION BOX - BLUE BOX", "note": "ON 12/24 AND 12/31, THIS BOX MAY BE COLLECTED AS EARLY AS 12 NOON.", "ref": "7670400000"}, "type": "Feature"}
{"geometry": {"coordinates": [-97.1233889, 31.566316], "type": "Point"}, "id": "6b3ufGGMlY5cUDSfgrocTGo1Wxo=", "properties": {"@spider": "usps_collection_boxes", "addr:city": "WACO", "addr:country": "US", "addr:full": "609 ELM ST", "addr:postcode": "76704", "addr:state": "TX", "brand": "USPS", "collection_times": "Mo-Sa 14:30", "name": "USPS COLLECTION BOX - BLUE BOX", "note": "ON 12/24 AND 12/31, THIS BOX MAY BE COLLECTED AS EARLY AS 12 NOON.", "ref": "7670400002"}, "type": "Feature"}
{"geometry": {"coordinates": [-97.102824, 31.602373], "type": "Point"}, "id": "8jVduMnZP9FJiWBDFWDxFsSmz5I=", "properties": {"@spider": "usps_collection_boxes", "addr:city": "WACO", "addr:country": "US", "addr:full": "901 BANK DR", "addr:postcode": "76705", "addr:state": "TX", "brand": "USPS", "collection_times": "Mo-Fr 17:00; Sa 15:00", "name": "USPS COLLECTION BOX - PO LOBBY", "note": "ON 12/24 AND 12/31, THIS BOX MAY BE COLLECTED AS EARLY AS 12 NOON.", "ref": "7670500004"}, "type": "Feature"}
{"geometry": {"coordinates": [-97.1005954, 31.589525], "type": "Point"}, "id": "YPmj7ZwlGo2vfxJ1wPbhBY8yUeY=", "properties": {"@spider": "usps_collection_boxes", "addr:city": "WACO", "addr:country": "US", "addr:full": "3015 BELLMEAD DR", "addr:postcode": "76705", "addr:state": "TX", "brand": "USPS", "collection_times": "Mo-Sa 13:30", "name": "USPS COLLECTION BOX - BLUE BOX", "note": "ON 12/24 AND 12/31, THIS BOX MAY BE COLLECTED AS EARLY AS 12 NOON.", "ref": "7670500007"}, "type": "Feature"}
{"geometry": {"coordinates": [-97.1029224, 31.623909], "type": "Point"}, "id": "1wfa9HkrN_PCaWNJphMiNwuIPJ0=", "properties": {"@spider": "usps_collection_boxes", "addr:city": "WACO", "addr:country": "US", "addr:full": "501 E CRAVEN AVE", "addr:postcode": "76705", "addr:state": "TX", "brand": "USPS", "collection_times": "Mo-Sa 13:30", "name": "USPS COLLECTION BOX - BLUE BOX", "note": "ON 12/24 AND 12/31, THIS BOX MAY BE COLLECTED AS EARLY AS 12 NOON.", "ref": "7670500008"}, "type": "Feature"}
{"geometry": {"coordinates": [-97.1036054, 31.60214], "type": "Point"}, "id": "gOgPVVTHd82VeCWvDrUHD1FaS8I=", "properties": {"@spider": "usps_collection_boxes", "addr:city": "WACO", "addr:country": "US", "addr:full": "901 BANK DR", "addr:postcode": "76705", "addr:state": "TX", "brand": "USPS", "collection_times": "Mo-Fr 17:00; Sa 15:00", "name": "USPS COLLECTION BOX - BLUE BOX", "note": "ON 12/24 AND 12/31, THIS BOX MAY BE COLLECTED AS EARLY AS 12 NOON.", "ref": "7670500011"}, "type": "Feature"}
{"geometry": {"coordinates": [-97.102824, 31.602373], "type": "Point"}, "id": "qb2zytnheY6LCkIEtaEHFVXL1bw=", "properties": {"@spider": "usps_collection_boxes", "addr:city": "WACO", "addr:country": "US", "addr:full": "901 BANK DR", "addr:postcode": "76705", "addr:state": "TX", "brand": "USPS", "collection_times": "Mo-Fr 17:00; Sa 15:00", "name": "USPS COLLECTION BOX - PO LOBBY", "note": "ON 12/24 AND 12/31, THIS BOX MAY BE COLLECTED AS EARLY AS 12 NOON.", "ref": "7670500013"}, "type": "Feature"}
{"geometry": {"coordinates": [-97.1314953, 31.623867], "type": "Point"}, "id": "pl03ddxe0NUM7z9qzDbYcQ9aWhk=", "properties": {"@spider": "usps_collection_boxes", "addr:city": "WACO", "addr:country": "US", "addr:full": "216 BLUFFVIEW", "addr:postcode": "76705", "addr:state": "TX", "brand": "USPS", "collection_times": "Mo-Fr 13:00; Sa 12:00", "name": "USPS COLLECTION BOX - BLUE BOX", "note": "ON 12/24 AND 12/31, THIS BOX MAY BE COLLECTED AS EARLY AS 12 NOON.", "ref": "7670500018"}, "type": "Feature"}
{"geometry": {"coordinates": [-97.0856256, 31.638683], "type": "Point"}, "id": "E6ORtgk6zy2IM5EEAiXvee4APT4=", "properties": {"@spider": "usps_collection_boxes", "addr:city": "WACO", "addr:country": "US", "addr:full": "3801 CAMPUS DR", "addr:postcode": "76705", "addr:state": "TX", "brand": "USPS", "collection_times": "Mo-Sa 13:30", "name": "USPS COLLECTION BOX - BLUE BOX", "note": "ON 12/24 AND 12/31, THIS BOX MAY BE COLLECTED AS EARLY AS 12 NOON.", "ref": "7670500019"}, "type": "Feature"}
{"geometry": {"coordinates": [-97.10277621, 31.602364728], "type": "Point"}, "id": "GCruZbyezuHyaJGwqjOTPxC5rEo=", "properties": {"@spider": "usps_collection_boxes", "addr:city": "WACO", "addr:country": "US", "addr:full": "901 BANK DR", "addr:postcode": "76705", "addr:state": "TX", "brand": "USPS", "collection_times": "Mo-Fr 17:00; Sa 13:30", "name": "USPS COLLECTION BOX - PO LOBBY", "note": "ON 12/24 AND 12/31, THIS BOX MAY BE COLLECTED AS EARLY AS 12 NOON.", "ref": "7670500020"}, "type": "Feature"}
{"geometry": {"coordinates": [-97.119063, 31.541679], "type": "Point"}, "id": "fa4UpkDG_kfJ2mtlhAD0x9W8abQ=", "properties": {"@spider": "usps_collection_boxes", "addr:city": "WACO", "addr:country": "US", "addr:full": "1720 S 8TH ST", "addr:postcode": "76706", "addr:state": "TX", "brand": "USPS", "collection_times": "Mo-Fr 15:30; Sa 14:00", "name": "USPS COLLECTION BOX - BLUE BOX", "note": "ON 12/24 AND 12/31, THIS BOX MAY BE COLLECTED AS EARLY AS 12 NOON.", "ref": "7670600002"}, "type": "Feature"}
{"geometry": {"coordinates": [-97.1215296, 31.547052], "type": "Point"}, "id": "cKWAWRK7oMM5o3ddYl4a8kvIGsw=", "properties": {"@spider": "usps_collection_boxes", "addr:city": "WACO", "addr:country": "US", "addr:full": "500 STUDENT UNION ST", "addr:postcode": "76706", "addr:state": "TX", "brand": "USPS", "collection_times": "Mo-Fr 15:45; Sa 14:00", "name": "USPS COLLECTION BOX - BLUE BOX", "note": "ON 12/24 AND 12/31, THIS BOX MAY BE COLLECTED AS EARLY AS 12 NOON.", "ref": "7670600003"}, "type": "Feature"}
{"geometry": {"coordinates": [-97.1199757, 31.475678], "type": "Point"}, "id": "-aP2dX7wknpGCO_hD2xp3XudmS0=", "properties": {"@spider": "usps_collection_boxes", "addr:city": "WACO", "addr:country": "US", "addr:full": "107 DEANNA ST", "addr:postcode": "76706", "addr:state": "TX", "brand": "USPS", "collection_times": "Mo-Sa 14:15", "name": "USPS COLLECTION BOX - BLUE BOX", "note": "ON 12/24 AND 12/31, THIS BOX MAY BE COLLECTED AS EARLY AS 12 NOON.", "ref": "7670600010"}, "type": "Feature"}
{"geometry": {"coordinates": [-97.121532, 31.555774], "type": "Point"}, "id": "qXAaf-oV7dWML6Fi9Gug-CaaHks=", "properties": {"@spider": "usps_collection_boxes", "addr:city": "WACO", "addr:country": "US", "addr:full": "700 S UNIVERSITY PARKS DR", "addr:postcode": "76706", "addr:state": "TX", "brand": "USPS", "collection_times": "Mo-Fr 15:30; Sa 14:00", "name": "USPS COLLECTION BOX - BLUE BOX", "note": "ON 12/24 AND 12/31, THIS BOX MAY BE COLLECTED AS EARLY AS 12 NOON.", "ref": "7670600020"}, "type": "Feature"}
{"geometry": {"coordinates": [-97.1143742, 31.467678], "type": "Point"}, "id": "gjHiibszgZ6-7ho6dR3VdSojhHk=", "properties": {"@spider": "usps_collection_boxes", "addr:city": "WACO", "addr:country": "US", "addr:full": "410 S ROBINSON DR", "addr:postcode": "76706", "addr:state": "TX", "brand": "USPS", "collection_times": "Mo-Fr 14:00; Sa 14:15", "name": "USPS COLLECTION BOX - BLUE BOX", "note": "ON 12/24 AND 12/31, THIS BOX MAY BE COLLECTED AS EARLY AS 12 NOON.", "ref": "7670600034"}, "type": "Feature"}
{"geometry": {"coordinates": [-97.1410194, 31.562231], "type": "Point"}, "id": "Ye5_9zBmWtwT3QSpGcnkepIe_B0=", "properties": {"@spider": "usps_collection_boxes", "addr:city": "WACO", "addr:country": "US", "addr:full": "1100 N 6TH ST", "addr:postcode": "76707", "addr:state": "TX", "brand": "USPS", "collection_times": "Mo-Sa 13:30", "name": "USPS COLLECTION BOX - BLUE BOX", "note": "ON 12/24 AND 12/31, THIS BOX MAY BE COLLECTED AS EARLY AS 12 NOON.", "ref": "7670700001"}, "type": "Feature"}
{"geometry": {"coordinates": [-97.1542542, 31.558917], "type": "Point"}, "id": "HuH87CLp8RFlSEHEMcs-U5FI_4g=", "properties": {"@spider": "usps_collection_boxes", "addr:city": "WACO", "addr:country": "US", "addr:full": "1700 PROVIDENCE DR", "addr:postcode": "76707", "addr:state": "TX", "brand": "USPS", "collection_times": "Mo-Sa 13:15", "name": "USPS COLLECTION BOX - BLUE BOX", "note": "ON 12/24 AND 12/31, THIS BOX MAY BE COLLECTED AS EARLY AS 12 NOON.", "ref": "7670700004"}, "type": "Feature"}
{"geometry": {"coordinates": [-97.1574126671, 31.5394136433], "type": "Point"}, "id": "a4f7Fs0Vh10g1bLRkbMsKVHcGTk=", "properties": {"@spider": "usps_collection_boxes", "addr:city": "WACO", "addr:country": "US", "addr:full": "225 W WACO DR", "addr:postcode": "76707", "addr:state": "TX", "brand": "USPS", "collection_times": "Mo-Fr 13:45", "name": "USPS COLLECTION BOX - BLUE BOX", "note": "ON 12/24 AND 12/31, THIS BOX MAY BE COLLECTED AS EARLY AS 12 NOON.", "ref": "7670700006"}, "type": "Feature"}
{"geometry": {"coordinates": [-97.1613959, 31.550536], "type": "Point"}, "id": "7oVOzIObfgrtQHknqfDVUg9AXVw=", "properties": {"@spider": "usps_collection_boxes", "addr:city": "WACO", "addr:country": "US", "addr:full": "1320 N 25TH ST", "addr:postcode": "76707", "addr:state": "TX", "brand": "USPS", "collection_times": "Mo-Sa 13:45", "name": "USPS COLLECTION BOX - BLUE BOX", "note": "ON 12/24 AND 12/31, THIS BOX MAY BE COLLECTED AS EARLY AS 12 NOON.", "ref": "7670700008"}, "type": "Feature"}
{"geometry": {"coordinates": [-97.165561, 31.557042], "type": "Point"}, "id": "GZh0jG5wgD3wksKPfYcVbFGTSEw=", "properties": {"@spider": "usps_collection_boxes", "addr:city": "WACO", "addr:country": "US", "addr:full": "1901 N 25TH ST", "addr:postcode": "76707", "addr:state": "TX", "brand": "USPS", "collection_times": "Mo-Sa 14:00", "name": "USPS COLLECTION BOX - BLUE BOX", "note": "ON 12/24 AND 12/31, THIS BOX MAY BE COLLECTED AS EARLY AS 12 NOON.", "ref": "7670700010"}, "type": "Feature"}
{"geometry": {"coordinates": [-97.1762457, 31.58409], "type": "Point"}, "id": "DJUhGizYOosgmuiQetNjgOQr1eY=", "properties": {"@spider": "usps_collection_boxes", "addr:city": "WACO", "addr:country": "US", "addr:full": "4200 N 19TH ST", "addr:postcode": "76708", "addr:state": "TX", "brand": "USPS", "collection_times": "Mo-Sa 13:15", "name": "USPS COLLECTION BOX - BLUE BOX", "note": "ON 12/24 AND 12/31, THIS BOX MAY BE COLLECTED AS EARLY AS 12 NOON.", "ref": "7670800000"}, "type": "Feature"}
{"geometry": {"coordinates": [-97.1770776, 31.556054], "type": "Point"}, "id": "Yw0gACaTzm32ABPQoZ-8MXQCIu8=", "properties": {"@spider": "usps_collection_boxes", "addr:city": "WACO", "addr:country": "US", "addr:full": "2136 N 33RD ST", "addr:postcode": "76708", "addr:state": "TX", "brand": "USPS", "collection_times": "Mo-Sa 14:00", "name": "USPS COLLECTION BOX - BLUE BOX", "note": "ON 12/24 AND 12/31, THIS BOX MAY BE COLLECTED AS EARLY AS 12 NOON.", "ref": "7670800014"}, "type": "Feature"}
{"geometry": {"coordinates": [-97.1741436, 31.559228], "type": "Point"}, "id": "XMQ9TGBlE6sz63bspBLvL1juwi0=", "properties": {"@spider": "usps_collection_boxes", "addr:city": "WACO", "addr:country": "US", "addr:full": "2214 N 30TH ST", "addr:postcode": "76708", "addr:state": "TX", "brand": "USPS", "collection_times": "Mo-Sa 14:00", "name": "USPS COLLECTION BOX - BLUE BOX", "note": "ON 12/24 AND 12/31, THIS BOX MAY BE COLLECTED AS EARLY AS 12 NOON.", "ref": "7670800016"}, "type": "Feature"}
{"geometry": {"coordinates": [-97.177675, 31.586562], "type": "Point"}, "id": "Ylv1CApcvf36dDOnkOcyaIj5B1M=", "properties": {"@spider": "usps_collection_boxes", "addr:city": "WACO", "addr:country": "US", "addr:full": "4428 N 19TH ST", "addr:postcode": "76708", "addr:state": "TX", "brand": "USPS", "collection_times": "Mo-Fr 17:00; Sa 15:30", "name": "USPS COLLECTION BOX - PO LOBBY", "note": "ON 12/24 AND 12/31, THIS BOX MAY BE COLLECTED AS EARLY AS 12 NOON.", "ref": "7670800025"}, "type": "Feature"}
{"geometry": {"coordinates": [-97.177675, 31.586562], "type": "Point"}, "id": "svlo-m_R6aJLlhiN64hFoPAsxvQ=", "properties": {"@spider": "usps_collection_boxes", "addr:city": "WACO", "addr:country": "US", "addr:full": "4428 N 19TH ST", "addr:postcode": "76708", "addr:state": "TX", "brand": "USPS", "collection_times": "Mo-Fr 17:00; Sa 15:30", "name": "USPS COLLECTION BOX - PO LOBBY", "note": "ON 12/24 AND 12/31, THIS BOX MAY BE COLLECTED AS EARLY AS 12 NOON.", "ref": "7670800026"}, "type": "Feature"}
{"geometry": {"coordinates": [-97.177675, 31.586562], "type": "Point"}, "id": "o5c6dTJHLvkNPImaWxxjJLqiAyU=", "properties": {"@spider": "usps_collection_boxes", "addr:city": "WACO", "addr:country": "US", "addr:full": "4428 N 19TH ST", "addr:postcode": "76708", "addr:state": "TX", "brand": "USPS", "collection_times": "Mo-Fr 17:00; Sa 15:30", "name": "USPS COLLECTION BOX - PO LOBBY", "note": "ON 12/24 AND 12/31, THIS BOX MAY BE COLLECTED AS EARLY AS 12 NOON.", "ref": "7670800027"}, "type": "Feature"}
{"geometry": {"coordinates": [-97.1776935415, 31.5865185332], "type": "Point"}, "id": "NP5tTHmP-yeza3qg9MjuzLuyCzQ=", "properties": {"@spider": "usps_collection_boxes", "addr:city": "WACO", "addr:country": "US", "addr:full": "4428 N 19TH ST", "addr:postcode": "76708", "addr:state": "TX", "brand": "USPS", "collection_times": "Mo-Fr 17:00; Sa 15:30", "name": "USPS COLLECTION BOX - BLUE BOX", "note": "ON 12/24 AND 12/31, THIS BOX MAY BE COLLECTED AS EARLY AS 12 NOON.", "ref": "7670800028"}, "type": "Feature"}
{"geometry": {"coordinates": [-97.1632762, 31.568522], "type": "Point"}, "id": "u517IsXZ_2YHsXaZGnn_PYo7XWM=", "properties": {"@spider": "usps_collection_boxes", "addr:city": "WACO", "addr:country": "US", "addr:full": "1800 MITCHELL AVE", "addr:postcode": "76708", "addr:state": "TX", "brand": "USPS", "collection_times": "Mo-Sa 13:15", "name": "USPS COLLECTION BOX - BLUE BOX", "note": "ON 12/24 AND 12/31, THIS BOX MAY BE COLLECTED AS EARLY AS 12 NOON.", "ref": "7670800029"}, "type": "Feature"}
{"geometry": {"coordinates": [-97.177693541, 31.586518533], "type": "Point"}, "id": "SsOlOK7mURAmmFRd-D3eVd8NNFM=", "properties": {"@spider": "usps_collection_boxes", "addr:city": "WACO", "addr:country": "US", "addr:full": "4428 N 19TH ST", "addr:postcode": "76708", "addr:state": "TX", "brand": "USPS", "collection_times": "Mo-Fr 17:00; Sa 13:00", "name": "USPS COLLECTION BOX - PO LOBBY", "note": "ON 12/24 AND 12/31, THIS BOX MAY BE COLLECTED AS EARLY AS 12 NOON.", "ref": "7670800030"}, "type": "Feature"}
{"geometry": {"coordinates": [-97.191801, 31.532905], "type": "Point"}, "id": "oLPa6KBORDSyUqYzfa2RHloTTKQ=", "properties": {"@spider": "usps_collection_boxes", "addr:city": "WACO", "addr:country": "US", "addr:full": "5400 BOSQUE BLVD", "addr:postcode": "76710", "addr:state": "TX", "brand": "USPS", "collection_times": "Mo-Sa 14:45", "name": "USPS COLLECTION BOX - BLUE BOX", "note": "ON 12/24 AND 12/31, THIS BOX MAY BE COLLECTED AS EARLY AS 12 NOON.", "ref": "7671000006"}, "type": "Feature"}
{"geometry": {"coordinates": [-97.1966731, 31.530819], "type": "Point"}, "id": "4qV5ba5Q99KiH3JKGqMds7wadEo=", "properties": {"@spider": "usps_collection_boxes", "addr:city": "WACO", "addr:country": "US", "addr:full": "5900 BOSQUE BLVD", "addr:postcode": "76710", "addr:state": "TX", "brand": "USPS", "collection_times": "Mo-Fr 15:00; Sa 14:45", "name": "USPS COLLECTION BOX - BLUE BOX", "note": "ON 12/24 AND 12/31, THIS BOX MAY BE COLLECTED AS EARLY AS 12 NOON.", "ref": "7671000008"}, "type": "Feature"}
{"geometry": {"coordinates": [-97.1776235, 31.53985], "type": "Point"}, "id": "iAJtkuBZ59r15oI_07BqBabIvzU=", "properties": {"@spider": "usps_collection_boxes", "addr:city": "WACO", "addr:country": "US", "addr:full": "3920 BOSQUE BLVD", "addr:postcode": "76710", "addr:state": "TX", "brand": "USPS", "collection_times": "Mo-Fr 15:15; Sa 15:00", "name": "USPS COLLECTION BOX - BLUE BOX", "note": "ON 12/24 AND 12/31, THIS BOX MAY BE COLLECTED AS EARLY AS 12 NOON.", "ref": "7671000012"}, "type": "Feature"}
{"geometry": {"coordinates": [-97.1931956, 31.563024], "type": "Point"}, "id": "lv0QVmwDsvXThnkVMajwyI4Y0Yk=", "properties": {"@spider": "usps_collection_boxes", "addr:city": "WACO", "addr:country": "US", "addr:full": "4372 LAKE SHORE DR", "addr:postcode": "76710", "addr:state": "TX", "brand": "USPS", "collection_times": "Mo-Sa 14:30", "name": "USPS COLLECTION BOX - BLUE BOX", "note": "ON 12/24 AND 12/31, THIS BOX MAY BE COLLECTED AS EARLY AS 12 NOON.", "ref": "7671000015"}, "type": "Feature"}
{"geometry": {"coordinates": [-97.1900936, 31.5167], "type": "Point"}, "id": "cK6DsB5dw8OZrbmnSVyjhZhg9Ek=", "properties": {"@spider": "usps_collection_boxes", "addr:city": "WACO", "addr:country": "US", "addr:full": "6001 W WACO DR", "addr:postcode": "76710", "addr:state": "TX", "brand": "USPS", "collection_times": "Mo-Fr 15:45; Sa 15:15", "name": "USPS COLLECTION BOX - BLUE BOX", "note": "ON 12/24 AND 12/31, THIS BOX MAY BE COLLECTED AS EARLY AS 12 NOON.", "ref": "7671000022"}, "type": "Feature"}
{"geometry": {"coordinates": [-97.1725143, 31.529547], "type": "Point"}, "id": "KKfTJj0EHcIjfMhSJvJqwU-R8aE=", "properties": {"@spider": "usps_collection_boxes", "addr:city": "WACO", "addr:country": "US", "addr:full": "539 N VALLEY MILLS DR", "addr:postcode": "76710", "addr:state": "TX", "brand": "USPS", "collection_times": "Mo-Fr 15:15; Sa 15:00", "name": "USPS COLLECTION BOX - BLUE BOX", "note": "ON 12/24 AND 12/31, THIS BOX MAY BE COLLECTED AS EARLY AS 12 NOON.", "ref": "7671000024"}, "type": "Feature"}
{"geometry": {"coordinates": [-97.1713419, 31.528163], "type": "Point"}, "id": "bx5g53zH-vqJS7MF7OTCkL1XGkc=", "properties": {"@spider": "usps_collection_boxes", "addr:city": "WACO", "addr:country": "US", "addr:full": "500 N VALLEY MILLS DR", "addr:postcode": "76710", "addr:state": "TX", "brand": "USPS", "collection_times": "Mo-Fr 15:15; Sa 15:00", "name": "USPS COLLECTION BOX - BLUE BOX", "note": "ON 12/24 AND 12/31, THIS BOX MAY BE COLLECTED AS EARLY AS 12 NOON.", "ref": "7671000027"}, "type": "Feature"}
{"geometry": {"coordinates": [-97.1900199, 31.536738], "type": "Point"}, "id": "fAHpq1DbOcNbXp2SOZ8IGGzyX2s=", "properties": {"@spider": "usps_collection_boxes", "addr:city": "WACO", "addr:country": "US", "addr:full": "5000 LAKEWOOD DR", "addr:postcode": "76710", "addr:state": "TX", "brand": "USPS", "collection_times": "Mo-Sa 14:30", "name": "USPS COLLECTION BOX - BLUE BOX", "note": "ON 12/24 AND 12/31, THIS BOX MAY BE COLLECTED AS EARLY AS 12 NOON.", "ref": "7671000031"}, "type": "Feature"}
{"geometry": {"coordinates": [-97.1996074, 31.520244], "type": "Point"}, "id": "UYCa1DAXydhbrLG_3b0_8fXl3Us=", "properties": {"@spider": "usps_collection_boxes", "addr:city": "WACO", "addr:country": "US", "addr:full": "6801 SANGER AVE", "addr:postcode": "76710", "addr:state": "TX", "brand": "USPS", "collection_times": "Mo-Fr 15:45; Sa 15:30", "name": "USPS COLLECTION BOX - BLUE BOX", "note": "ON 12/24 AND 12/31, THIS BOX MAY BE COLLECTED AS EARLY AS 12 NOON.", "ref": "7671000042"}, "type": "Feature"}
{"geometry": {"coordinates": [-97.1915047738, 31.5286052667], "type": "Point"}, "id": "KLGuNqwp66D7sHgBsbdM4zYAviY=", "properties": {"@spider": "usps_collection_boxes", "addr:city": "WACO", "addr:country": "US", "addr:full": "800 WOODED ACRES DR", "addr:postcode": "76710", "addr:state": "TX", "brand": "USPS", "collection_times": "Mo-Fr 17:00; Sa 16:45", "name": "USPS COLLECTION BOX - BLUE BOX", "note": "ON 12/24 AND 12/31, THIS BOX MAY BE COLLECTED AS EARLY AS 12 NOON.", "ref": "7671000048"}, "type": "Feature"}
{"geometry": {"coordinates": [-97.191505, 31.528606], "type": "Point"}, "id": "7NXb0ZwLeb4jyqPCTRvDgVIUh1I=", "properties": {"@spider": "usps_collection_boxes", "addr:city": "WACO", "addr:country": "US", "addr:full": "800 WOODED ACRES DR", "addr:postcode": "76710", "addr:state": "TX", "brand": "USPS", "collection_times": "Mo-Fr 17:00; Sa 11:00", "name": "USPS COLLECTION BOX - PO LOBBY", "note": "ON 12/24 AND 12/31, THIS BOX MAY BE COLLECTED AS EARLY AS 12 NOON.", "ref": "7671000062"}, "type": "Feature"}
{"geometry": {"coordinates": [-97.1920608161, 31.5283651138], "type": "Point"}, "id": "pD85YKMx_z-9EIoNZsr1-p5DB90=", "properties": {"@spider": "usps_collection_boxes", "addr:city": "WACO", "addr:country": "US", "addr:full": "800 WOODED ACRES DR", "addr:postcode": "76710", "addr:state": "TX", "brand": "USPS", "collection_times": "Mo-Fr 17:00; Sa 11:00", "name": "USPS COLLECTION BOX - PO LOBBY", "note": "ON 12/24 AND 12/31, THIS BOX MAY BE COLLECTED AS EARLY AS 12 NOON.", "ref": "7671000066"}, "type": "Feature"}
{"geometry": {"coordinates": [-97.191796, 31.532893], "type": "Point"}, "id": "6s7PVV7fuFlBbf0-CLz5Q717SRI=", "properties": {"@spider": "usps_collection_boxes", "addr:city": "WACO", "addr:country": "US", "addr:full": "5400 BOSQUE BLVD", "addr:postcode": "76710", "addr:state": "TX", "brand": "USPS", "collection_times": "Mo-Sa 14:45", "name": "USPS COLLECTION BOX - BLUE BOX", "note": "ON 12/24 AND 12/31, THIS BOX MAY BE COLLECTED AS EARLY AS 12 NOON.", "ref": "7671000067"}, "type": "Feature"}
{"geometry": {"coordinates": [-97.1947922, 31.562953], "type": "Point"}, "id": "mvzU-O5hEvGS1I4WEFRtaJR2rDg=", "properties": {"@spider": "usps_collection_boxes", "addr:city": "WACO", "addr:country": "US", "addr:full": "4315 LAKE SHORE DR", "addr:postcode": "76710", "addr:state": "TX", "brand": "USPS", "collection_times": "Mo-Sa 14:30", "name": "USPS COLLECTION BOX - BLUE BOX", "note": "ON 12/24 AND 12/31, THIS BOX MAY BE COLLECTED AS EARLY AS 12 NOON.", "ref": "7671000073"}, "type": "Feature"}
{"geometry": {"coordinates": [-97.191504774, 31.528605267], "type": "Point"}, "id": "94HlUeDTZ3LF-yp81mxoptIS32Q=", "properties": {"@spider": "usps_collection_boxes", "addr:city": "WACO", "addr:country": "US", "addr:full": "800 WOODED ACRES DR", "addr:postcode": "76710", "addr:state": "TX", "brand": "USPS", "collection_times": "Mo-Fr 17:00", "name": "USPS COLLECTION BOX - PO LOBBY", "note": "ON 12/24 AND 12/31, THIS BOX MAY BE COLLECTED AS EARLY AS 12 NOON.", "ref": "7671000081"}, "type": "Feature"}
{"geometry": {"coordinates": [-97.137071, 31.52424], "type": "Point"}, "id": "iRlySfwlSLV8lJNf-xptQZS9DS0=", "properties": {"@spider": "usps_collection_boxes", "addr:city": "WACO", "addr:country": "US", "addr:full": "1821 S VALLEY MILLS DR", "addr:postcode": "76711", "addr:state": "TX", "brand": "USPS", "collection_times": "Mo-Fr 13:00; Sa 14:30", "name": "USPS COLLECTION BOX - BLUE BOX", "note": "ON 12/24 AND 12/31, THIS BOX MAY BE COLLECTED AS EARLY AS 12 NOON.", "ref": "7671100004"}, "type": "Feature"}
{"geometry": {"coordinates": [-97.1636489, 31.509882], "type": "Point"}, "id": "sRQ02GA9QTei7yJuavKqIW-F7XE=", "properties": {"@spider": "usps_collection_boxes", "addr:city": "WACO", "addr:country": "US", "addr:full": "4800 MEMORIAL DR", "addr:postcode": "76711", "addr:state": "TX", "brand": "USPS", "collection_times": "Mo-Fr 14:15; Sa 14:30", "name": "USPS COLLECTION BOX - BLUE BOX", "note": "ON 12/24 AND 12/31, THIS BOX MAY BE COLLECTED AS EARLY AS 12 NOON.", "ref": "7671100006"}, "type": "Feature"}
{"geometry": {"coordinates": [-97.2296929, 31.508331], "type": "Point"}, "id": "liqTJf5aWAjKvCfeQyZ3god8OWc=", "properties": {"@spider": "usps_collection_boxes", "addr:city": "WACO", "addr:country": "US", "addr:full": "924 ESTATES DR", "addr:postcode": "76712", "addr:state": "TX", "brand": "USPS", "collection_times": "Mo-Fr 16:00; Sa 15:30", "name": "USPS COLLECTION BOX - BLUE BOX", "note": "ON 12/24 AND 12/31, THIS BOX MAY BE COLLECTED AS EARLY AS 12 NOON.", "ref": "7671200022"}, "type": "Feature"}
{"geometry": {"coordinates": [-97.2118546, 31.50021], "type": "Point"}, "id": "Hj39U-wBEwNu32cscR4sU8RBlnI=", "properties": {"@spider": "usps_collection_boxes", "addr:city": "WACO", "addr:country": "US", "addr:full": "8320 W HIGHWAY 84", "addr:postcode": "76712", "addr:state": "TX", "brand": "USPS", "collection_times": "Mo-Fr 16:30; Sa 16:00", "name": "USPS COLLECTION BOX - BLUE BOX", "note": "ON 12/24 AND 12/31, THIS BOX MAY BE COLLECTED AS EARLY AS 12 NOON.", "ref": "7671200024"}, "type": "Feature"}
{"geometry": {"coordinates": [-97.1569169, 31.488834], "type": "Point"}, "id": "rPunmahfseL_TC1FPbkwwp-SBOU=", "properties": {"@spider": "usps_collection_boxes", "addr:city": "WACO", "addr:country": "US", "addr:full": "100 HILLCREST MEDICAL BLVD", "addr:postcode": "76712", "addr:state": "TX", "brand": "USPS", "collection_times": "Mo-Fr 16:30; Sa 16:00", "name": "USPS COLLECTION BOX - BLUE BOX", "note": "ON 12/24 AND 12/31, THIS BOX MAY BE COLLECTED AS EARLY AS 12 NOON.", "ref": "7671200026"}, "type": "Feature"}
{"geometry": {"coordinates": [-97.2182459223, 31.4977833038], "type": "Point"}, "id": "clmTa12W_fN0YMpuLXMTvmJAbJ0=", "properties": {"@spider": "usps_collection_boxes", "addr:city": "WACO", "addr:country": "US", "addr:full": "8810 WOODWAY DR STE 302", "addr:postcode": "76712", "addr:state": "TX", "brand": "USPS", "collection_times": "Mo-Fr 16:15; Sa 16:00", "name": "USPS COLLECTION BOX - BLUE BOX", "note": "ON 12/24 AND 12/31, THIS BOX MAY BE COLLECTED AS EARLY AS 12 NOON.", "ref": "7671200042"}, "type": "Feature"}
{"geometry": {"coordinates": [-97.2217323, 31.495677], "type": "Point"}, "id": "Josa5883sUf7kOquKIfd5qkKQ3M=", "properties": {"@spider": "usps_collection_boxes", "addr:city": "WACO", "addr:country": "US", "addr:full": "9100 WOODWAY DR", "addr:postcode": "76712", "addr:state": "TX", "brand": "USPS", "collection_times": "Mo-Fr 16:15; Sa 15:45", "name": "USPS COLLECTION BOX - BLUE BOX", "note": "ON 12/24 AND 12/31, THIS BOX MAY BE COLLECTED AS EARLY AS 12 NOON.", "ref": "7671200044"}, "type": "Feature"}
