{"geometry": {"coordinates": [-98.9830457767, 31.7188090764], "type": "Point"}, "id": "4gmyLVbmkjXsbYwEFzSJyPVZdk8=", "properties": {"@spider": "usps_collection_boxes", "addr:city": "BROWNWOOD", "addr:country": "US", "addr:full": "600 BROWN ST", "addr:postcode": "76801", "addr:state": "TX", "brand": "USPS", "brand:wikidata": "Q668687", "collection_times": "Mo-Sa 17:00", "name": "USPS COLLECTION BOX - BLUE BOX", "note": "ON 12/24 AND 12/31, THIS BOX MAY BE COLLECTED AS EARLY AS 12 NOON.", "ref": "7680100001"}, "type": "Feature"}
{"geometry": {"coordinates": [-98.9803270153, 31.723058015], "type": "Point"}, "id": "IRbV8iwU_bbwtr9xKY-Qaa69Zfg=", "properties": {"@spider": "usps_collection_boxes", "addr:city": "BROWNWOOD", "addr:country": "US", "addr:full": "200 S BROADWAY ST", "addr:postcode": "76801", "addr:state": "TX", "brand": "USPS", "brand:wikidata": "Q668687", "collection_times": "Mo-Sa 08:30", "name": "USPS COLLECTION BOX - BLUE BOX", "ref": "7680100011"}, "type": "Feature"}
{"geometry": {"coordinates": [-98.9803270153, 31.723058015], "type": "Point"}, "id": "BFYIE6O-_cJ9mneeKEQzSTYc3tU=", "properties": {"@spider": "usps_collection_boxes", "addr:city": "BROWNWOOD", "addr:country": "US", "addr:full": "200 S BROADWAY ST", "addr:postcode": "76801", "addr:state": "TX", "brand": "USPS", "brand:wikidata": "Q668687", "collection_times": "Mo-Sa 08:30", "name": "USPS COLLECTION BOX - BLUE BOX", "ref": "7680100017"}, "type": "Feature"}
{"geometry": {"coordinates": [-98.9957339591, 31.7022669975], "type": "Point"}, "id": "i9aLJtp2V_s4mAv9RpPArTMELJs=", "properties": {"@spider": "usps_collection_boxes", "addr:city": "BROWNWOOD", "addr:country": "US", "addr:full": "2608 HIGHWAY 377 S", "addr:postcode": "76801", "addr:state": "TX", "brand": "USPS", "brand:wikidata": "Q668687", "collection_times": "Mo-Fr 14:00; Sa 09:15", "name": "USPS COLLECTION BOX - BLUE BOX", "note": "ON 12/24 AND 12/31, THIS BOX MAY BE COLLECTED AS EARLY AS 12 NOON.", "ref": "7680100020"}, "type": "Feature"}
{"geometry": {"coordinates": [-98.9991059988, 31.6876749842], "type": "Point"}, "id": "bH_TphS6cNgMX__U72oMBMooT5Q=", "properties": {"@spider": "usps_collection_boxes", "addr:city": "BROWNWOOD", "addr:country": "US", "addr:full": "3706 HIGHWAY 377 S", "addr:postcode": "76801", "addr:state": "TX", "brand": "USPS", "brand:wikidata": "Q668687", "collection_times": "Mo-Sa 10:30", "name": "USPS COLLECTION BOX - BLUE BOX", "ref": "7680100023"}, "type": "Feature"}
{"geometry": {"coordinates": [-98.9953410155, 31.6811290112], "type": "Point"}, "id": "NLnesrtWz7AxMqP5yqdXRUAupP4=", "properties": {"@spider": "usps_collection_boxes", "addr:city": "BROWNWOOD", "addr:country": "US", "addr:full": "101 S PARK DR", "addr:postcode": "76801", "addr:state": "TX", "brand": "USPS", "brand:wikidata": "Q668687", "collection_times": "Mo-Sa 08:30", "name": "USPS COLLECTION BOX - BLUE BOX", "ref": "7680100026"}, "type": "Feature"}
{"geometry": {"coordinates": [-98.9836040041, 31.7189249823], "type": "Point"}, "id": "zuv9LHJdsvvATsUWZ-yyZs4-L-A=", "properties": {"@spider": "usps_collection_boxes", "addr:city": "BROWNWOOD", "addr:country": "US", "addr:full": "600 CENTER AVE", "addr:postcode": "76801", "addr:state": "TX", "brand": "USPS", "brand:wikidata": "Q668687", "collection_times": "Mo-Sa 17:00", "name": "USPS COLLECTION BOX - PO LOBBY", "note": "ON 12/24 AND 12/31, THIS BOX MAY BE COLLECTED AS EARLY AS 12 NOON.", "ref": "7680100035"}, "type": "Feature"}
{"geometry": {"coordinates": [-98.9836040041, 31.7189249823], "type": "Point"}, "id": "SrKvFFroAgEbhcWe12HJAPCvEWA=", "properties": {"@spider": "usps_collection_boxes", "addr:city": "BROWNWOOD", "addr:country": "US", "addr:full": "600 CENTER AVE", "addr:postcode": "76801", "addr:state": "TX", "brand": "USPS", "brand:wikidata": "Q668687", "collection_times": "Mo-Sa 17:00", "name": "USPS COLLECTION BOX - PO LOBBY", "note": "ON 12/24 AND 12/31, THIS BOX MAY BE COLLECTED AS EARLY AS 12 NOON.", "ref": "7680100036"}, "type": "Feature"}
{"geometry": {"coordinates": [-98.9836040041, 31.7189249823], "type": "Point"}, "id": "167aALYNjxPJzc5T4nj9VqrjzFI=", "properties": {"@spider": "usps_collection_boxes", "addr:city": "BROWNWOOD", "addr:country": "US", "addr:full": "600 CENTER AVE", "addr:postcode": "76801", "addr:state": "TX", "brand": "USPS", "brand:wikidata": "Q668687", "collection_times": "Mo-Fr 17:00; Sa 10:00", "name": "USPS COLLECTION BOX - PO LOBBY", "note": "ON 12/24 AND 12/31, THIS BOX MAY BE COLLECTED AS EARLY AS 12 NOON.", "ref": "7680100039"}, "type": "Feature"}
{"geometry": {"coordinates": [-98.942878013, 31.7444819919], "type": "Point"}, "id": "qFM_irpvse40nSkws8sJLnXxJkk=", "properties": {"@spider": "usps_collection_boxes", "addr:city": "BROWNWOOD", "addr:country": "US", "addr:full": "101 CRESCENT DR", "addr:postcode": "76802", "addr:state": "TX", "brand": "USPS", "brand:wikidata": "Q668687", "collection_times": "Mo-Sa 16:15", "name": "USPS COLLECTION BOX - BLUE BOX", "note": "ON 12/24 AND 12/31, THIS BOX MAY BE COLLECTED AS EARLY AS 12 NOON.", "ref": "7680200004"}, "type": "Feature"}
{"geometry": {"coordinates": [-98.9620129759, 31.7351619861], "type": "Point"}, "id": "Iz1HdKo2wQwG-plAvPKWokJvCzw=", "properties": {"@spider": "usps_collection_boxes", "addr:city": "BROWNWOOD", "addr:country": "US", "addr:full": "303 EARLY BLVD", "addr:postcode": "76802", "addr:state": "TX", "brand": "USPS", "brand:wikidata": "Q668687", "collection_times": "Mo-Sa 14:00", "name": "USPS COLLECTION BOX - BLUE BOX", "note": "ON 12/24 AND 12/31, THIS BOX MAY BE COLLECTED AS EARLY AS 12 NOON.", "ref": "7680200005"}, "type": "Feature"}
{"geometry": {"coordinates": [-98.9611470415, 31.7381520205], "type": "Point"}, "id": "ri8XsAYFiLK9F0oTSkV9AWswAic=", "properties": {"@spider": "usps_collection_boxes", "addr:city": "BROWNWOOD", "addr:country": "US", "addr:full": "300 EARLY BLVD", "addr:postcode": "76802", "addr:state": "TX", "brand": "USPS", "brand:wikidata": "Q668687", "collection_times": "Mo-Sa 10:30", "name": "USPS COLLECTION BOX - BLUE BOX", "ref": "7680200007"}, "type": "Feature"}
{"geometry": {"coordinates": [-98.942878013, 31.7444819919], "type": "Point"}, "id": "Qjd0lXYZIkhJ5Vk6J1Jpsr78P4g=", "properties": {"@spider": "usps_collection_boxes", "addr:city": "BROWNWOOD", "addr:country": "US", "addr:full": "101 CRESCENT DR", "addr:postcode": "76802", "addr:state": "TX", "brand": "USPS", "brand:wikidata": "Q668687", "collection_times": "Mo-Fr 16:15", "name": "USPS COLLECTION BOX - PO LOBBY", "note": "ON 12/24 AND 12/31, THIS BOX MAY BE COLLECTED AS EARLY AS 12 NOON.", "ref": "7680200008"}, "type": "Feature"}
{"geometry": {"coordinates": [-98.942878013, 31.7444819919], "type": "Point"}, "id": "6BdYAy6WQ2naOUf2d2Xc8F8F4qs=", "properties": {"@spider": "usps_collection_boxes", "addr:city": "BROWNWOOD", "addr:country": "US", "addr:full": "101 CRESCENT DR", "addr:postcode": "76802", "addr:state": "TX", "brand": "USPS", "brand:wikidata": "Q668687", "collection_times": "Mo-Sa 16:15", "name": "USPS COLLECTION BOX - BLUE BOX", "note": "ON 12/24 AND 12/31, THIS BOX MAY BE COLLECTED AS EARLY AS 12 NOON.", "ref": "7680200009"}, "type": "Feature"}
{"geometry": {"coordinates": [-98.942878013, 31.7444819919], "type": "Point"}, "id": "Ck6kkRtNJf8c0CaL7AWtT7FYOZA=", "properties": {"@spider": "usps_collection_boxes", "addr:city": "BROWNWOOD", "addr:country": "US", "addr:full": "101 CRESCENT DR", "addr:postcode": "76802", "addr:state": "TX", "brand": "USPS", "brand:wikidata": "Q668687", "collection_times": "Mo-Fr 16:30", "name": "USPS COLLECTION BOX - PO LOBBY", "note": "ON 12/24 AND 12/31, THIS BOX MAY BE COLLECTED AS EARLY AS 12 NOON.", "ref": "7680200010"}, "type": "Feature"}
{"geometry": {"coordinates": [-98.96365, 30.738044], "type": "Point"}, "id": "1mqrd52SDiVUTkuylH5qsqB_TV4=", "properties": {"@spider": "usps_collection_boxes", "addr:city": "ART", "addr:country": "US", "addr:full": "7866 E STATE HIGHWAY 29", "addr:postcode": "76820", "addr:state": "TX", "brand": "USPS", "brand:wikidata": "Q668687", "collection_times": "Mo-Sa 09:15", "name": "USPS COLLECTION BOX - BLUE BOX", "ref": "7682000000"}, "type": "Feature"}
{"geometry": {"coordinates": [-99.11219, 30.73855], "type": "Point"}, "id": "kwDZX_YiItQj70uqOWw8rgcZ5G8=", "properties": {"@spider": "usps_collection_boxes", "addr:city": "ART", "addr:country": "US", "addr:full": "7866 E STATE HIGHWAY 29", "addr:postcode": "76820", "addr:state": "TX", "brand": "USPS", "brand:wikidata": "Q668687", "collection_times": "Mo-Sa 09:15", "name": "USPS COLLECTION BOX - PO LOBBY", "ref": "7682000001"}, "type": "Feature"}
{"geometry": {"coordinates": [-99.1125135, 30.738543496], "type": "Point"}, "id": "R7cWxx873zJhLAgidktxOqQx2UQ=", "properties": {"@spider": "usps_collection_boxes", "addr:city": "ART", "addr:country": "US", "addr:full": "7866 E STATE HIGHWAY 29", "addr:postcode": "76820", "addr:state": "TX", "brand": "USPS", "brand:wikidata": "Q668687", "collection_times": "Mo-Sa 09:45", "name": "USPS COLLECTION BOX - PO LOBBY", "ref": "7682000002"}, "type": "Feature"}
{"geometry": {"coordinates": [-99.948106, 31.737369], "type": "Point"}, "id": "GNQmSrzGOJOtKOUyRDcppYrSHeY=", "properties": {"@spider": "usps_collection_boxes", "addr:city": "BALLINGER", "addr:country": "US", "addr:full": "116 S 8TH ST", "addr:postcode": "76821", "addr:state": "TX", "brand": "USPS", "brand:wikidata": "Q668687", "collection_times": "Mo-Fr 17:00; Sa 09:00", "name": "USPS COLLECTION BOX - PO LOBBY", "note": "ON 12/24 AND 12/31, THIS BOX MAY BE COLLECTED AS EARLY AS 12 NOON.", "ref": "7682100000"}, "type": "Feature"}
{"geometry": {"coordinates": [-99.948126, 31.737433], "type": "Point"}, "id": "dyKXYmXLTTuWHRR1ihkabXde1wQ=", "properties": {"@spider": "usps_collection_boxes", "addr:city": "BALLINGER", "addr:country": "US", "addr:full": "116 S 8TH ST", "addr:postcode": "76821", "addr:state": "TX", "brand": "USPS", "brand:wikidata": "Q668687", "collection_times": "Mo-Fr 17:00; Sa 09:00", "name": "USPS COLLECTION BOX - BLUE BOX", "note": "ON 12/24 AND 12/31, THIS BOX MAY BE COLLECTED AS EARLY AS 12 NOON.", "ref": "7682100001"}, "type": "Feature"}
{"geometry": {"coordinates": [-99.948126, 31.737433], "type": "Point"}, "id": "xqKjuwRetYF6N4IQ9AxFsu3_4jE=", "properties": {"@spider": "usps_collection_boxes", "addr:city": "BALLINGER", "addr:country": "US", "addr:full": "116 S 8TH ST", "addr:postcode": "76821", "addr:state": "TX", "brand": "USPS", "brand:wikidata": "Q668687", "collection_times": "Mo-Fr 17:00; Sa 09:00", "name": "USPS COLLECTION BOX - BLUE BOX", "note": "ON 12/24 AND 12/31, THIS BOX MAY BE COLLECTED AS EARLY AS 12 NOON.", "ref": "7682100002"}, "type": "Feature"}
{"geometry": {"coordinates": [-99.948126, 31.737433], "type": "Point"}, "id": "IvRI9xC_vWpXi3knHMRUB79RokU=", "properties": {"@spider": "usps_collection_boxes", "addr:city": "BALLINGER", "addr:country": "US", "addr:full": "116 S 8TH ST", "addr:postcode": "76821", "addr:state": "TX", "brand": "USPS", "brand:wikidata": "Q668687", "collection_times": "Mo-Fr 17:00; Sa 09:00", "name": "USPS COLLECTION BOX - BLUE BOX", "note": "ON 12/24 AND 12/31, THIS BOX MAY BE COLLECTED AS EARLY AS 12 NOON.", "ref": "7682100003"}, "type": "Feature"}
{"geometry": {"coordinates": [-99.947665009, 31.736895508], "type": "Point"}, "id": "52jKknXCpXSrpzBfnQBotnbjs7I=", "properties": {"@spider": "usps_collection_boxes", "addr:city": "BALLINGER", "addr:country": "US", "addr:full": "116 S 8TH ST", "addr:postcode": "76821", "addr:state": "TX", "brand": "USPS", "brand:wikidata": "Q668687", "collection_times": "Mo-Fr 17:00", "name": "USPS COLLECTION BOX - PO LOBBY", "note": "ON 12/24 AND 12/31, THIS BOX MAY BE COLLECTED AS EARLY AS 12 NOON.", "ref": "7682100005"}, "type": "Feature"}
{"geometry": {"coordinates": [-99.130173, 31.716001], "type": "Point"}, "id": "WhA-t2gcbfFuoh78bhYonhwadF4=", "properties": {"@spider": "usps_collection_boxes", "addr:city": "BANGS", "addr:country": "US", "addr:full": "300 E SANTA FE ST", "addr:postcode": "76823", "addr:state": "TX", "brand": "USPS", "brand:wikidata": "Q668687", "collection_times": "Mo-Fr 16:30; Sa 08:45", "name": "USPS COLLECTION BOX - BLUE BOX", "note": "ON 12/24 AND 12/31, THIS BOX MAY BE COLLECTED AS EARLY AS 12 NOON.", "ref": "7682300000"}, "type": "Feature"}
{"geometry": {"coordinates": [-99.130278, 31.715971], "type": "Point"}, "id": "fczjJBdkS7lZBdcoaWs8s_1yYsQ=", "properties": {"@spider": "usps_collection_boxes", "addr:city": "BANGS", "addr:country": "US", "addr:full": "300 E SANTA FE ST", "addr:postcode": "76823", "addr:state": "TX", "brand": "USPS", "brand:wikidata": "Q668687", "collection_times": "Mo-Fr 16:30; Sa 08:45", "name": "USPS COLLECTION BOX - PO LOBBY", "note": "ON 12/24 AND 12/31, THIS BOX MAY BE COLLECTED AS EARLY AS 12 NOON.", "ref": "7682300002"}, "type": "Feature"}
{"geometry": {"coordinates": [-99.129833696, 31.716004493], "type": "Point"}, "id": "eEbaaugoXb35xKIX7uw5iSK38d0=", "properties": {"@spider": "usps_collection_boxes", "addr:city": "BANGS", "addr:country": "US", "addr:full": "300 E SANTA FE ST", "addr:postcode": "76823", "addr:state": "TX", "brand": "USPS", "brand:wikidata": "Q668687", "collection_times": "Mo-Fr 16:30", "name": "USPS COLLECTION BOX - PO LOBBY", "note": "ON 12/24 AND 12/31, THIS BOX MAY BE COLLECTED AS EARLY AS 12 NOON.", "ref": "7682300003"}, "type": "Feature"}
{"geometry": {"coordinates": [-98.523449, 31.109207], "type": "Point"}, "id": "biJkX7UsUfBmN7BR2JwyGQq_JM8=", "properties": {"@spider": "usps_collection_boxes", "addr:city": "BEND", "addr:country": "US", "addr:full": "22902 W FM 580", "addr:postcode": "76824", "addr:state": "TX", "brand": "USPS", "brand:wikidata": "Q668687", "collection_times": "Mo-Sa 10:15", "name": "USPS COLLECTION BOX - PO LOBBY", "ref": "7682400000"}, "type": "Feature"}
{"geometry": {"coordinates": [-98.523415444, 31.108246596], "type": "Point"}, "id": "_NJGhUeZvaZWmrveE83XhWSr_HY=", "properties": {"@spider": "usps_collection_boxes", "addr:city": "BEND", "addr:country": "US", "addr:full": "22902 W FM 580", "addr:postcode": "76824", "addr:state": "TX", "brand": "USPS", "brand:wikidata": "Q668687", "collection_times": "Mo-Sa 10:15", "name": "USPS COLLECTION BOX - PO LOBBY", "ref": "7682400001"}, "type": "Feature"}
{"geometry": {"coordinates": [-99.3411715, 31.118965], "type": "Point"}, "id": "DM1Sez3Hf-WyFhSUcCvEgH6mK-c=", "properties": {"@spider": "usps_collection_boxes", "addr:city": "BRADY", "addr:country": "US", "addr:full": "1809 S CHINA ST", "addr:postcode": "76825", "addr:state": "TX", "brand": "USPS", "brand:wikidata": "Q668687", "collection_times": "Mo-Sa 12:30", "name": "USPS COLLECTION BOX - BLUE BOX", "note": "ON 12/24 AND 12/31, THIS BOX MAY BE COLLECTED AS EARLY AS 12 NOON.", "ref": "7682500000"}, "type": "Feature"}
{"geometry": {"coordinates": [-99.3348474, 31.13547], "type": "Point"}, "id": "Rroo7Z5hCrEv8cUHKUve6QSx_0c=", "properties": {"@spider": "usps_collection_boxes", "addr:city": "BRADY", "addr:country": "US", "addr:full": "100 W MAIN ST", "addr:postcode": "76825", "addr:state": "TX", "brand": "USPS", "brand:wikidata": "Q668687", "collection_times": "Mo-Sa 15:15", "name": "USPS COLLECTION BOX - BLUE BOX", "note": "ON 12/24 AND 12/31, THIS BOX MAY BE COLLECTED AS EARLY AS 12 NOON.", "ref": "7682500001"}, "type": "Feature"}
{"geometry": {"coordinates": [-99.333232, 31.133832], "type": "Point"}, "id": "6nvndTjSUGcs6r0e1Mtv8SG9PzQ=", "properties": {"@spider": "usps_collection_boxes", "addr:city": "BRADY", "addr:country": "US", "addr:full": "210 S ELM ST", "addr:postcode": "76825", "addr:state": "TX", "brand": "USPS", "brand:wikidata": "Q668687", "collection_times": "Mo-Fr 16:30; Sa 15:30", "name": "USPS COLLECTION BOX - BLUE BOX", "note": "ON 12/24 AND 12/31, THIS BOX MAY BE COLLECTED AS EARLY AS 12 NOON.", "ref": "7682500002"}, "type": "Feature"}
{"geometry": {"coordinates": [-99.334032, 31.133685], "type": "Point"}, "id": "J17WFUUJZSX04v06QYQux64rU3U=", "properties": {"@spider": "usps_collection_boxes", "addr:city": "BRADY", "addr:country": "US", "addr:full": "229 S BLACKBURN ST", "addr:postcode": "76825", "addr:state": "TX", "brand": "USPS", "brand:wikidata": "Q668687", "collection_times": "Mo-Fr 16:30; Sa 15:30", "name": "USPS COLLECTION BOX - PO LOBBY", "note": "ON 12/24 AND 12/31, THIS BOX MAY BE COLLECTED AS EARLY AS 12 NOON.", "ref": "7682500003"}, "type": "Feature"}
{"geometry": {"coordinates": [-99.333232, 31.133833], "type": "Point"}, "id": "hlI6AB5w3mcDQMAQK_1Xn8Yo98c=", "properties": {"@spider": "usps_collection_boxes", "addr:city": "BRADY", "addr:country": "US", "addr:full": "210 S ELM ST", "addr:postcode": "76825", "addr:state": "TX", "brand": "USPS", "brand:wikidata": "Q668687", "collection_times": "Mo-Fr 16:30; Sa 15:30", "name": "USPS COLLECTION BOX - BLUE BOX", "note": "ON 12/24 AND 12/31, THIS BOX MAY BE COLLECTED AS EARLY AS 12 NOON.", "ref": "7682500007"}, "type": "Feature"}
{"geometry": {"coordinates": [-99.334051363, 31.133231413], "type": "Point"}, "id": "i_HGB0-Ky9-3rzkxmS18HcqhWz4=", "properties": {"@spider": "usps_collection_boxes", "addr:city": "BRADY", "addr:country": "US", "addr:full": "229 S BLACKBURN ST", "addr:postcode": "76825", "addr:state": "TX", "brand": "USPS", "brand:wikidata": "Q668687", "collection_times": "Mo-Fr 16:30", "name": "USPS COLLECTION BOX - PO LOBBY", "note": "ON 12/24 AND 12/31, THIS BOX MAY BE COLLECTED AS EARLY AS 12 NOON.", "ref": "7682500009"}, "type": "Feature"}
{"geometry": {"coordinates": [-99.119359, 31.548558], "type": "Point"}, "id": "1etziGOJFs2_xM92tONTCniPryg=", "properties": {"@spider": "usps_collection_boxes", "addr:city": "BROOKESMITH", "addr:country": "US", "addr:full": "13375 FM 586 S", "addr:postcode": "76827", "addr:state": "TX", "brand": "USPS", "brand:wikidata": "Q668687", "collection_times": "Mo-Sa 14:00", "name": "USPS COLLECTION BOX - BLUE BOX", "note": "ON 12/24 AND 12/31, THIS BOX MAY BE COLLECTED AS EARLY AS 12 NOON.", "ref": "7682700000"}, "type": "Feature"}
{"geometry": {"coordinates": [-99.1193, 31.548484], "type": "Point"}, "id": "0jlKZ1r3DOsYAnoGaEcDKJ5oDUk=", "properties": {"@spider": "usps_collection_boxes", "addr:city": "BROOKESMITH", "addr:country": "US", "addr:full": "13375 FM 586 S", "addr:postcode": "76827", "addr:state": "TX", "brand": "USPS", "brand:wikidata": "Q668687", "collection_times": "Mo-Sa 14:00", "name": "USPS COLLECTION BOX - PO LOBBY", "note": "ON 12/24 AND 12/31, THIS BOX MAY BE COLLECTED AS EARLY AS 12 NOON.", "ref": "7682700001"}, "type": "Feature"}
{"geometry": {"coordinates": [-99.119320383, 31.549009149], "type": "Point"}, "id": "OYLbNwH68DHYse7itqSQRjZReTc=", "properties": {"@spider": "usps_collection_boxes", "addr:city": "BROOKESMITH", "addr:country": "US", "addr:full": "13375 FM 586 S", "addr:postcode": "76827", "addr:state": "TX", "brand": "USPS", "brand:wikidata": "Q668687", "collection_times": "Mo-Fr 14:30", "name": "USPS COLLECTION BOX - PO LOBBY", "note": "ON 12/24 AND 12/31, THIS BOX MAY BE COLLECTED AS EARLY AS 12 NOON.", "ref": "7682700002"}, "type": "Feature"}
{"geometry": {"coordinates": [-99.22651, 31.995665], "type": "Point"}, "id": "jp9OwftsTjGVYXGTjgYEgVrcTWI=", "properties": {"@spider": "usps_collection_boxes", "addr:city": "BURKETT", "addr:country": "US", "addr:full": "357 BAYOU ST", "addr:postcode": "76828", "addr:state": "TX", "brand": "USPS", "brand:wikidata": "Q668687", "collection_times": "Mo-Sa 12:00", "name": "USPS COLLECTION BOX - PO LOBBY", "ref": "7682800000"}, "type": "Feature"}
{"geometry": {"coordinates": [-99.226263251, 31.995617947], "type": "Point"}, "id": "yZEZEynz-Ix-_bTGmMWuevE6ufU=", "properties": {"@spider": "usps_collection_boxes", "addr:city": "BURKETT", "addr:country": "US", "addr:full": "357 BAYOU ST", "addr:postcode": "76828", "addr:state": "TX", "brand": "USPS", "brand:wikidata": "Q668687", "collection_times": "Mo-Fr 12:00; Sa 13:00", "name": "USPS COLLECTION BOX - PO LOBBY", "note": "ON 12/24 AND 12/31, THIS BOX MAY BE COLLECTED AS EARLY AS 12 NOON.", "ref": "7682800001"}, "type": "Feature"}
{"geometry": {"coordinates": [-98.958293, 30.702203], "type": "Point"}, "id": "hsIian-n0-i0lrrLlw3zFJ4ff8A=", "properties": {"@spider": "usps_collection_boxes", "addr:city": "CASTELL", "addr:country": "US", "addr:full": "19479 RANCH ROAD 152", "addr:postcode": "76831", "addr:state": "TX", "brand": "USPS", "brand:wikidata": "Q668687", "collection_times": "Mo-Sa 10:00", "name": "USPS COLLECTION BOX - BLUE BOX", "ref": "7683100000"}, "type": "Feature"}
{"geometry": {"coordinates": [-98.956787633, 30.701042432], "type": "Point"}, "id": "jagrAL1uG9qvITeOhKN8071BIRg=", "properties": {"@spider": "usps_collection_boxes", "addr:city": "CASTELL", "addr:country": "US", "addr:full": "19479 RANCH ROAD 152", "addr:postcode": "76831", "addr:state": "TX", "brand": "USPS", "brand:wikidata": "Q668687", "collection_times": "Mo-Sa 10:00", "name": "USPS COLLECTION BOX - PO LOBBY", "ref": "7683100001"}, "type": "Feature"}
{"geometry": {"coordinates": [-98.708443, 30.975477], "type": "Point"}, "id": "vV2vD08nyAQFg2o_ywblfKGQ44E=", "properties": {"@spider": "usps_collection_boxes", "addr:city": "CHEROKEE", "addr:country": "US", "addr:full": "206 N HIGHWAY 16", "addr:postcode": "76832", "addr:state": "TX", "brand": "USPS", "brand:wikidata": "Q668687", "collection_times": "Mo-Fr 14:00; Sa 10:30", "name": "USPS COLLECTION BOX - BLUE BOX", "note": "ON 12/24 AND 12/31, THIS BOX MAY BE COLLECTED AS EARLY AS 12 NOON.", "ref": "7683200000"}, "type": "Feature"}
{"geometry": {"coordinates": [-98.708422, 30.975532], "type": "Point"}, "id": "Zr8KMcMRXVrkLg78Bm7X2MqtP10=", "properties": {"@spider": "usps_collection_boxes", "addr:city": "CHEROKEE", "addr:country": "US", "addr:full": "206 N HIGHWAY 16", "addr:postcode": "76832", "addr:state": "TX", "brand": "USPS", "brand:wikidata": "Q668687", "collection_times": "Mo-Fr 14:00; Sa 10:30", "name": "USPS COLLECTION BOX - PO LOBBY", "note": "ON 12/24 AND 12/31, THIS BOX MAY BE COLLECTED AS EARLY AS 12 NOON.", "ref": "7683200001"}, "type": "Feature"}
{"geometry": {"coordinates": [-98.708357777, 30.980333317], "type": "Point"}, "id": "-Lwb5JiaS840w2RB2d8lbZN2Fcg=", "properties": {"@spider": "usps_collection_boxes", "addr:city": "CHEROKEE", "addr:country": "US", "addr:full": "206 N HIGHWAY 16", "addr:postcode": "76832", "addr:state": "TX", "brand": "USPS", "brand:wikidata": "Q668687", "collection_times": "Mo-Fr 14:00", "name": "USPS COLLECTION BOX - PO LOBBY", "note": "ON 12/24 AND 12/31, THIS BOX MAY BE COLLECTED AS EARLY AS 12 NOON.", "ref": "7683200002"}, "type": "Feature"}
{"geometry": {"coordinates": [-99.424275, 31.830064], "type": "Point"}, "id": "C_CsHIGZChDE_7K8Onp36VxkLw4=", "properties": {"@spider": "usps_collection_boxes", "addr:city": "COLEMAN", "addr:country": "US", "addr:full": "201 W PECAN ST", "addr:postcode": "76834", "addr:state": "TX", "brand": "USPS", "brand:wikidata": "Q668687", "collection_times": "Mo-Fr 16:30; Sa 15:00", "name": "USPS COLLECTION BOX - BLUE BOX", "note": "ON 12/24 AND 12/31, THIS BOX MAY BE COLLECTED AS EARLY AS 12 NOON.", "ref": "7683400001"}, "type": "Feature"}
{"geometry": {"coordinates": [-99.42417, 31.830092], "type": "Point"}, "id": "BsHiyZo5tvGzdBCIUmbDEjJHVwA=", "properties": {"@spider": "usps_collection_boxes", "addr:city": "COLEMAN", "addr:country": "US", "addr:full": "201 W PECAN ST", "addr:postcode": "76834", "addr:state": "TX", "brand": "USPS", "brand:wikidata": "Q668687", "collection_times": "Mo-Fr 16:30; Sa 15:00", "name": "USPS COLLECTION BOX - BLUE BOX", "note": "ON 12/24 AND 12/31, THIS BOX MAY BE COLLECTED AS EARLY AS 12 NOON.", "ref": "7683400002"}, "type": "Feature"}
{"geometry": {"coordinates": [-99.42417, 31.830092], "type": "Point"}, "id": "Ou7ltvs1b4fTbg5SSFHcTf8cKBs=", "properties": {"@spider": "usps_collection_boxes", "addr:city": "COLEMAN", "addr:country": "US", "addr:full": "201 W PECAN ST", "addr:postcode": "76834", "addr:state": "TX", "brand": "USPS", "brand:wikidata": "Q668687", "collection_times": "Mo-Fr 16:30; Sa 15:00", "name": "USPS COLLECTION BOX - PO LOBBY", "note": "ON 12/24 AND 12/31, THIS BOX MAY BE COLLECTED AS EARLY AS 12 NOON.", "ref": "7683400004"}, "type": "Feature"}
{"geometry": {"coordinates": [-99.424274, 31.830064], "type": "Point"}, "id": "0fY1wiV6EMYBIf04fPW027M42-E=", "properties": {"@spider": "usps_collection_boxes", "addr:city": "COLEMAN", "addr:country": "US", "addr:full": "201 W PECAN ST", "addr:postcode": "76834", "addr:state": "TX", "brand": "USPS", "brand:wikidata": "Q668687", "collection_times": "Mo-Fr 16:30; Sa 15:00", "name": "USPS COLLECTION BOX - BLUE BOX", "note": "ON 12/24 AND 12/31, THIS BOX MAY BE COLLECTED AS EARLY AS 12 NOON.", "ref": "7683400005"}, "type": "Feature"}
{"geometry": {"coordinates": [-99.424241223, 31.830016132], "type": "Point"}, "id": "BcrL49ljBqil1U7IfIWGIJn3_qw=", "properties": {"@spider": "usps_collection_boxes", "addr:city": "COLEMAN", "addr:country": "US", "addr:full": "201 W PECAN ST", "addr:postcode": "76834", "addr:state": "TX", "brand": "USPS", "brand:wikidata": "Q668687", "collection_times": "Mo-Fr 16:30", "name": "USPS COLLECTION BOX - PO LOBBY", "note": "ON 12/24 AND 12/31, THIS BOX MAY BE COLLECTED AS EARLY AS 12 NOON.", "ref": "7683400006"}, "type": "Feature"}
{"geometry": {"coordinates": [-99.5516274491, 31.413733472], "type": "Point"}, "id": "JzF87jLghZQiIssRcUb1RUQXyDg=", "properties": {"@spider": "usps_collection_boxes", "addr:city": "DOOLE", "addr:country": "US", "addr:full": "6662 FM RD 503 N", "addr:postcode": "76836", "addr:state": "TX", "brand": "USPS", "brand:wikidata": "Q668687", "collection_times": "Mo-Sa 09:30", "name": "USPS COLLECTION BOX - PO LOBBY", "ref": "7683600000"}, "type": "Feature"}
{"geometry": {"coordinates": [-99.5992113312, 31.3995414971], "type": "Point"}, "id": "8nR7ndPnF_fsSUnrbnZHdfj0YSg=", "properties": {"@spider": "usps_collection_boxes", "addr:city": "DOOLE", "addr:country": "US", "addr:full": "6662 FM 503", "addr:postcode": "76836", "addr:state": "TX", "brand": "USPS", "brand:wikidata": "Q668687", "collection_times": "Mo-Sa 09:30", "name": "USPS COLLECTION BOX - PO LOBBY", "ref": "7683600001"}, "type": "Feature"}
{"geometry": {"coordinates": [-99.8429319727, 31.2167960085], "type": "Point"}, "id": "atQryTXmsStb5ODqxmbGHOCFXWc=", "properties": {"@spider": "usps_collection_boxes", "addr:city": "EDEN", "addr:country": "US", "addr:full": "100 W BROADWAY ST", "addr:postcode": "76837", "addr:state": "TX", "brand": "USPS", "brand:wikidata": "Q668687", "collection_times": "Mo-Fr 16:30; Sa 09:00", "name": "USPS COLLECTION BOX - BLUE BOX", "note": "ON 12/24 AND 12/31, THIS BOX MAY BE COLLECTED AS EARLY AS 12 NOON.", "ref": "7683700001"}, "type": "Feature"}
{"geometry": {"coordinates": [-99.842931973, 31.216796009], "type": "Point"}, "id": "x7CgTcrl1rWdtNU6qvbaFkYlNw0=", "properties": {"@spider": "usps_collection_boxes", "addr:city": "EDEN", "addr:country": "US", "addr:full": "100 W BROADWAY ST", "addr:postcode": "76837", "addr:state": "TX", "brand": "USPS", "brand:wikidata": "Q668687", "collection_times": "Mo-Fr 16:30; Sa 09:00", "name": "USPS COLLECTION BOX - PO LOBBY", "note": "ON 12/24 AND 12/31, THIS BOX MAY BE COLLECTED AS EARLY AS 12 NOON.", "ref": "7683700002"}, "type": "Feature"}
{"geometry": {"coordinates": [-99.842931973, 31.216796009], "type": "Point"}, "id": "QuyobpIjG1-JVb_9p3_hmz30Z14=", "properties": {"@spider": "usps_collection_boxes", "addr:city": "EDEN", "addr:country": "US", "addr:full": "100 W BROADWAY ST", "addr:postcode": "76837", "addr:state": "TX", "brand": "USPS", "brand:wikidata": "Q668687", "collection_times": "Mo-Fr 16:30; Sa 09:00", "name": "USPS COLLECTION BOX - PO LOBBY", "note": "ON 12/24 AND 12/31, THIS BOX MAY BE COLLECTED AS EARLY AS 12 NOON.", "ref": "7683700003"}, "type": "Feature"}
{"geometry": {"coordinates": [-99.842931973, 31.216796009], "type": "Point"}, "id": "VTtVgjo6buDHryiD1qTCKMZx0-A=", "properties": {"@spider": "usps_collection_boxes", "addr:city": "EDEN", "addr:country": "US", "addr:full": "100 W BROADWAY ST", "addr:postcode": "76837", "addr:state": "TX", "brand": "USPS", "brand:wikidata": "Q668687", "collection_times": "Mo-Fr 16:30", "name": "USPS COLLECTION BOX - PO LOBBY", "note": "ON 12/24 AND 12/31, THIS BOX MAY BE COLLECTED AS EARLY AS 12 NOON.", "ref": "7683700004"}, "type": "Feature"}
{"geometry": {"coordinates": [-100.116398, 30.822064], "type": "Point"}, "id": "KPJ9GmZ9FFMQDj5xLHuvMRoW8Nk=", "properties": {"@spider": "usps_collection_boxes", "addr:city": "FORT MCKAVETT", "addr:country": "US", "addr:full": "6576 FM 864", "addr:postcode": "76841", "addr:state": "TX", "brand": "USPS", "brand:wikidata": "Q668687", "collection_times": "Mo-Sa 11:00", "name": "USPS COLLECTION BOX - BLUE BOX", "ref": "7684100000"}, "type": "Feature"}
{"geometry": {"coordinates": [-100.116398, 30.822064], "type": "Point"}, "id": "I-oETxkvostjvDY5H0plL_z8pdE=", "properties": {"@spider": "usps_collection_boxes", "addr:city": "FORT MCKAVETT", "addr:country": "US", "addr:full": "6576 FM 864", "addr:postcode": "76841", "addr:state": "TX", "brand": "USPS", "brand:wikidata": "Q668687", "collection_times": "Mo-Sa 11:00", "name": "USPS COLLECTION BOX - PO LOBBY", "ref": "7684100001"}, "type": "Feature"}
{"geometry": {"coordinates": [-100.1053162656, 30.8283439653], "type": "Point"}, "id": "wUTs_g9ZaMBfunRjfJPLbwgUBlw=", "properties": {"@spider": "usps_collection_boxes", "addr:city": "FORT MCKAVETT", "addr:country": "US", "addr:full": "6576 FM 864", "addr:postcode": "76841", "addr:state": "TX", "brand": "USPS", "brand:wikidata": "Q668687", "collection_times": "Mo-Sa 11:00", "name": "USPS COLLECTION BOX - PO LOBBY", "ref": "7684100002"}, "type": "Feature"}
{"geometry": {"coordinates": [-98.5697633, 31.454531], "type": "Point"}, "id": "v6TiV_hQgDt5Q7Qw0nzGyivFz5U=", "properties": {"@spider": "usps_collection_boxes", "addr:city": "GOLDTHWAITE", "addr:country": "US", "addr:full": "1401 W FRONT ST", "addr:postcode": "76844", "addr:state": "TX", "brand": "USPS", "brand:wikidata": "Q668687", "collection_times": "Mo-Fr 16:00; Sa 10:00", "name": "USPS COLLECTION BOX - BLUE BOX", "note": "ON 12/24 AND 12/31, THIS BOX MAY BE COLLECTED AS EARLY AS 12 NOON.", "ref": "7684400000"}, "type": "Feature"}
{"geometry": {"coordinates": [-98.5700453, 31.45452], "type": "Point"}, "id": "YCrdjBw9hEt-pXOpaMiug-VBltA=", "properties": {"@spider": "usps_collection_boxes", "addr:city": "GOLDTHWAITE", "addr:country": "US", "addr:full": "1401 W FRONT ST", "addr:postcode": "76844", "addr:state": "TX", "brand": "USPS", "brand:wikidata": "Q668687", "collection_times": "Mo-Fr 16:00; Sa 10:00", "name": "USPS COLLECTION BOX - PO LOBBY", "note": "ON 12/24 AND 12/31, THIS BOX MAY BE COLLECTED AS EARLY AS 12 NOON.", "ref": "7684400001"}, "type": "Feature"}
{"geometry": {"coordinates": [-98.5700433, 31.454518], "type": "Point"}, "id": "I0-GF2ZmEd4NHr-NAtKXjQY5B20=", "properties": {"@spider": "usps_collection_boxes", "addr:city": "GOLDTHWAITE", "addr:country": "US", "addr:full": "1401 W FRONT ST", "addr:postcode": "76844", "addr:state": "TX", "brand": "USPS", "brand:wikidata": "Q668687", "collection_times": "Mo-Fr 16:00; Sa 10:00", "name": "USPS COLLECTION BOX - PO LOBBY", "note": "ON 12/24 AND 12/31, THIS BOX MAY BE COLLECTED AS EARLY AS 12 NOON.", "ref": "7684400002"}, "type": "Feature"}
{"geometry": {"coordinates": [-98.569469426, 31.453824583], "type": "Point"}, "id": "6DKEpfPcLwiH4MdLEyf3DdU12VQ=", "properties": {"@spider": "usps_collection_boxes", "addr:city": "GOLDTHWAITE", "addr:country": "US", "addr:full": "1401 W FRONT ST", "addr:postcode": "76844", "addr:state": "TX", "brand": "USPS", "brand:wikidata": "Q668687", "collection_times": "Mo-Fr 16:00", "name": "USPS COLLECTION BOX - PO LOBBY", "note": "ON 12/24 AND 12/31, THIS BOX MAY BE COLLECTED AS EARLY AS 12 NOON.", "ref": "7684400005"}, "type": "Feature"}
{"geometry": {"coordinates": [-99.477358, 31.553932], "type": "Point"}, "id": "L70HVgv0Rb4L1ElZR2SBvG3eIdY=", "properties": {"@spider": "usps_collection_boxes", "addr:city": "GOULDBUSK", "addr:country": "US", "addr:full": "135 MAIN ST", "addr:postcode": "76845", "addr:state": "TX", "brand": "USPS", "brand:wikidata": "Q668687", "collection_times": "Mo-Fr 10:45; Sa 09:45", "name": "USPS COLLECTION BOX - PO LOBBY", "ref": "7684500000"}, "type": "Feature"}
{"geometry": {"coordinates": [-99.478927804, 31.550034332], "type": "Point"}, "id": "Lx3iOa16-8bBcUQxeDtNNYblW9g=", "properties": {"@spider": "usps_collection_boxes", "addr:city": "GOULDBUSK", "addr:country": "US", "addr:full": "500 MAIN ST", "addr:postcode": "76845", "addr:state": "TX", "brand": "USPS", "brand:wikidata": "Q668687", "collection_times": "Mo-Fr 11:00; Sa 10:30", "name": "USPS COLLECTION BOX - PO LOBBY", "ref": "7684500001"}, "type": "Feature"}
{"geometry": {"coordinates": [-99.484547, 30.869014], "type": "Point"}, "id": "RaqJNeN9mO0PpshzEcfZnHnttAc=", "properties": {"@spider": "usps_collection_boxes", "addr:city": "HEXT", "addr:country": "US", "addr:full": "15193 STATE HIGHWAY 29", "addr:postcode": "76848", "addr:state": "TX", "brand": "USPS", "brand:wikidata": "Q668687", "collection_times": "Mo-Sa 10:30", "name": "USPS COLLECTION BOX - PO LOBBY", "ref": "7684800000"}, "type": "Feature"}
{"geometry": {"coordinates": [-99.5401378313, 30.8690999623], "type": "Point"}, "id": "RaL1SMI8n-X7hWb4ykAplHsL07M=", "properties": {"@spider": "usps_collection_boxes", "addr:city": "HEXT", "addr:country": "US", "addr:full": "15193 STATE HIGHWAY 29", "addr:postcode": "76848", "addr:state": "TX", "brand": "USPS", "brand:wikidata": "Q668687", "collection_times": "Mo-Sa 10:30", "name": "USPS COLLECTION BOX - PO LOBBY", "ref": "7684800001"}, "type": "Feature"}
{"geometry": {"coordinates": [-99.766586, 30.488379], "type": "Point"}, "id": "6jUSaguSbjwLYOw2MMhHIO36x_k=", "properties": {"@spider": "usps_collection_boxes", "addr:city": "JUNCTION", "addr:country": "US", "addr:full": "612 COLLEGE ST", "addr:postcode": "76849", "addr:state": "TX", "brand": "USPS", "brand:wikidata": "Q668687", "collection_times": "Mo-Fr 15:30; Sa 11:00", "name": "USPS COLLECTION BOX - BLUE BOX", "note": "ON 12/24 AND 12/31, THIS BOX MAY BE COLLECTED AS EARLY AS 12 NOON.", "ref": "7684900000"}, "type": "Feature"}
{"geometry": {"coordinates": [-99.767232419, 30.488343526], "type": "Point"}, "id": "e3pBx4HYR67qGL2TPGK1kK_F0x8=", "properties": {"@spider": "usps_collection_boxes", "addr:city": "JUNCTION", "addr:country": "US", "addr:full": "612 COLLEGE ST", "addr:postcode": "76849", "addr:state": "TX", "brand": "USPS", "brand:wikidata": "Q668687", "collection_times": "Mo-Fr 15:30; Sa 11:00", "name": "USPS COLLECTION BOX - PO LOBBY", "note": "ON 12/24 AND 12/31, THIS BOX MAY BE COLLECTED AS EARLY AS 12 NOON.", "ref": "7684900001"}, "type": "Feature"}
{"geometry": {"coordinates": [-99.767232419, 30.488343526], "type": "Point"}, "id": "pZ-CqH7QRCCawnG9CH3l_3ajJYQ=", "properties": {"@spider": "usps_collection_boxes", "addr:city": "JUNCTION", "addr:country": "US", "addr:full": "612 COLLEGE ST", "addr:postcode": "76849", "addr:state": "TX", "brand": "USPS", "brand:wikidata": "Q668687", "collection_times": "Mo-Fr 15:30", "name": "USPS COLLECTION BOX - PO LOBBY", "note": "ON 12/24 AND 12/31, THIS BOX MAY BE COLLECTED AS EARLY AS 12 NOON.", "ref": "7684900002"}, "type": "Feature"}
{"geometry": {"coordinates": [-99.599699, 31.3033], "type": "Point"}, "id": "kifiLSjKQcYwcvYvKPYinDzsf00=", "properties": {"@spider": "usps_collection_boxes", "addr:city": "LOHN", "addr:country": "US", "addr:full": "1156 FM 504", "addr:postcode": "76852", "addr:state": "TX", "brand": "USPS", "brand:wikidata": "Q668687", "collection_times": "Mo-Fr 12:00; Sa 10:30", "name": "USPS COLLECTION BOX - BLUE BOX", "ref": "7685200000"}, "type": "Feature"}
{"geometry": {"coordinates": [-99.599699, 31.3033], "type": "Point"}, "id": "nt99aCl7xg-9zyFOJEeuYz1FOqE=", "properties": {"@spider": "usps_collection_boxes", "addr:city": "LOHN", "addr:country": "US", "addr:full": "1156 FM 504", "addr:postcode": "76852", "addr:state": "TX", "brand": "USPS", "brand:wikidata": "Q668687", "collection_times": "Mo-Fr 12:00; Sa 10:30", "name": "USPS COLLECTION BOX - PO LOBBY", "ref": "7685200001"}, "type": "Feature"}
{"geometry": {"coordinates": [-99.410292103, 31.322430283], "type": "Point"}, "id": "Drf7brmw50xeV8ivt3uZbTWjUNw=", "properties": {"@spider": "usps_collection_boxes", "addr:city": "LOHN", "addr:country": "US", "addr:full": "1156 FM 504", "addr:postcode": "76852", "addr:state": "TX", "brand": "USPS", "brand:wikidata": "Q668687", "collection_times": "Mo-Sa 12:00", "name": "USPS COLLECTION BOX - PO LOBBY", "ref": "7685200002"}, "type": "Feature"}
{"geometry": {"coordinates": [-98.3942334, 31.218364], "type": "Point"}, "id": "L_ZVFYTnVNRWeT8hVdKc-Rf029U=", "properties": {"@spider": "usps_collection_boxes", "addr:city": "LOMETA", "addr:country": "US", "addr:full": "116 E ELM ST", "addr:postcode": "76853", "addr:state": "TX", "brand": "USPS", "brand:wikidata": "Q668687", "collection_times": "Mo-Fr 15:30; Sa 10:00", "name": "USPS COLLECTION BOX - BLUE BOX", "note": "ON 12/24 AND 12/31, THIS BOX MAY BE COLLECTED AS EARLY AS 12 NOON.", "ref": "7685300000"}, "type": "Feature"}
{"geometry": {"coordinates": [-98.3939408, 31.218422], "type": "Point"}, "id": "5M-Chl11lV3l-PYr3GThZ4fk23I=", "properties": {"@spider": "usps_collection_boxes", "addr:city": "LOMETA", "addr:country": "US", "addr:full": "116 E ELM ST", "addr:postcode": "76853", "addr:state": "TX", "brand": "USPS", "brand:wikidata": "Q668687", "collection_times": "Mo-Fr 15:30; Sa 10:00", "name": "USPS COLLECTION BOX - PO LOBBY", "note": "ON 12/24 AND 12/31, THIS BOX MAY BE COLLECTED AS EARLY AS 12 NOON.", "ref": "7685300001"}, "type": "Feature"}
{"geometry": {"coordinates": [-98.39319037, 31.218864722], "type": "Point"}, "id": "sttHg034KpXC6r8ARCN-2fzUCZE=", "properties": {"@spider": "usps_collection_boxes", "addr:city": "LOMETA", "addr:country": "US", "addr:full": "116 E ELM ST", "addr:postcode": "76853", "addr:state": "TX", "brand": "USPS", "brand:wikidata": "Q668687", "collection_times": "Mo-Fr 15:30", "name": "USPS COLLECTION BOX - PO LOBBY", "note": "ON 12/24 AND 12/31, THIS BOX MAY BE COLLECTED AS EARLY AS 12 NOON.", "ref": "7685300003"}, "type": "Feature"}
{"geometry": {"coordinates": [-99.576799, 30.674917], "type": "Point"}, "id": "aQjHDrK-6e9sH2FK-qri_szW6zs=", "properties": {"@spider": "usps_collection_boxes", "addr:city": "LONDON", "addr:country": "US", "addr:full": "17295 N US HIGHWAY 377", "addr:postcode": "76854", "addr:state": "TX", "brand": "USPS", "brand:wikidata": "Q668687", "collection_times": "Mo-Fr 12:30; Sa 10:00", "name": "USPS COLLECTION BOX - BLUE BOX", "note": "ON 12/24 AND 12/31, THIS BOX MAY BE COLLECTED AS EARLY AS 12 NOON.", "ref": "7685400000"}, "type": "Feature"}
{"geometry": {"coordinates": [-99.576801521, 30.675176665], "type": "Point"}, "id": "El-XoNa5r6vT1xxXcWmUxR6MFic=", "properties": {"@spider": "usps_collection_boxes", "addr:city": "LONDON", "addr:country": "US", "addr:full": "17295 N US HIGHWAY 377", "addr:postcode": "76854", "addr:state": "TX", "brand": "USPS", "brand:wikidata": "Q668687", "collection_times": "Mo-Fr 12:30; Sa 10:00", "name": "USPS COLLECTION BOX - PO LOBBY", "note": "ON 12/24 AND 12/31, THIS BOX MAY BE COLLECTED AS EARLY AS 12 NOON.", "ref": "7685400002"}, "type": "Feature"}
{"geometry": {"coordinates": [-99.2330085, 30.74775], "type": "Point"}, "id": "N_ZnKj8oaNTle0TYdMUdfqPKtlE=", "properties": {"@spider": "usps_collection_boxes", "addr:city": "MASON", "addr:country": "US", "addr:full": "206 MOODY ST", "addr:postcode": "76856", "addr:state": "TX", "brand": "USPS", "brand:wikidata": "Q668687", "collection_times": "Mo-Fr 12:00", "name": "USPS COLLECTION BOX - BLUE BOX", "ref": "7685600000"}, "type": "Feature"}
{"geometry": {"coordinates": [-99.227245, 30.742845], "type": "Point"}, "id": "uKqKx3NB0J1mPEOMadljc601Jkc=", "properties": {"@spider": "usps_collection_boxes", "addr:city": "MASON", "addr:country": "US", "addr:full": "704 WREN ST", "addr:postcode": "76856", "addr:state": "TX", "brand": "USPS", "brand:wikidata": "Q668687", "collection_times": "Mo-Fr 15:45; Sa 12:00", "name": "USPS COLLECTION BOX - PO LOBBY", "note": "ON 12/24 AND 12/31, THIS BOX MAY BE COLLECTED AS EARLY AS 12 NOON.", "ref": "7685600001"}, "type": "Feature"}
{"geometry": {"coordinates": [-99.227214, 30.742846], "type": "Point"}, "id": "f4ZsCQqHP0eGpLzr9B4pRgaK67A=", "properties": {"@spider": "usps_collection_boxes", "addr:city": "MASON", "addr:country": "US", "addr:full": "704 WREN ST", "addr:postcode": "76856", "addr:state": "TX", "brand": "USPS", "brand:wikidata": "Q668687", "collection_times": "Mo-Fr 15:45; Sa 12:00", "name": "USPS COLLECTION BOX - BLUE BOX", "note": "ON 12/24 AND 12/31, THIS BOX MAY BE COLLECTED AS EARLY AS 12 NOON.", "ref": "7685600004"}, "type": "Feature"}
{"geometry": {"coordinates": [-99.227293462, 30.743702633], "type": "Point"}, "id": "N65amgFFKSSxq1b9zfD72SiGT8g=", "properties": {"@spider": "usps_collection_boxes", "addr:city": "MASON", "addr:country": "US", "addr:full": "704 WREN ST", "addr:postcode": "76856", "addr:state": "TX", "brand": "USPS", "brand:wikidata": "Q668687", "collection_times": "Mo-Fr 15:15", "name": "USPS COLLECTION BOX - PO LOBBY", "note": "ON 12/24 AND 12/31, THIS BOX MAY BE COLLECTED AS EARLY AS 12 NOON.", "ref": "7685600005"}, "type": "Feature"}
{"geometry": {"coordinates": [-98.920429, 31.976781], "type": "Point"}, "id": "nIQJ4xni1vjFfK0lfnd6IXkJPoM=", "properties": {"@spider": "usps_collection_boxes", "addr:city": "MAY", "addr:country": "US", "addr:full": "18807 N HIGHWAY 183", "addr:postcode": "76857", "addr:state": "TX", "brand": "USPS", "brand:wikidata": "Q668687", "collection_times": "Mo-Fr 15:30; Sa 09:00", "name": "USPS COLLECTION BOX - BLUE BOX", "note": "ON 12/24 AND 12/31, THIS BOX MAY BE COLLECTED AS EARLY AS 12 NOON.", "ref": "7685700000"}, "type": "Feature"}
{"geometry": {"coordinates": [-99.0149355, 31.912952], "type": "Point"}, "id": "aqXZacnfQQ2UyDw7MHMtWTzixHM=", "properties": {"@spider": "usps_collection_boxes", "addr:city": "MAY", "addr:country": "US", "addr:full": "4 HARBOR DR", "addr:postcode": "76857", "addr:state": "TX", "brand": "USPS", "brand:wikidata": "Q668687", "collection_times": "Mo-Sa 10:00", "name": "USPS COLLECTION BOX - BLUE BOX", "ref": "7685700001"}, "type": "Feature"}
{"geometry": {"coordinates": [-98.920397, 31.976864], "type": "Point"}, "id": "sFcXmmdXh1LID2RPoj2BSt-pZNY=", "properties": {"@spider": "usps_collection_boxes", "addr:city": "MAY", "addr:country": "US", "addr:full": "18807 N HIGHWAY 183", "addr:postcode": "76857", "addr:state": "TX", "brand": "USPS", "brand:wikidata": "Q668687", "collection_times": "Mo-Fr 15:30; Sa 09:00", "name": "USPS COLLECTION BOX - PO LOBBY", "note": "ON 12/24 AND 12/31, THIS BOX MAY BE COLLECTED AS EARLY AS 12 NOON.", "ref": "7685700002"}, "type": "Feature"}
{"geometry": {"coordinates": [-98.9204349208, 31.9766089561], "type": "Point"}, "id": "79byqq3BNsj-ABJX4VMCN-rwSPw=", "properties": {"@spider": "usps_collection_boxes", "addr:city": "MAY", "addr:country": "US", "addr:full": "18807 N HIGHWAY 183", "addr:postcode": "76857", "addr:state": "TX", "brand": "USPS", "brand:wikidata": "Q668687", "collection_times": "Mo-Fr 15:30", "name": "USPS COLLECTION BOX - PO LOBBY", "note": "ON 12/24 AND 12/31, THIS BOX MAY BE COLLECTED AS EARLY AS 12 NOON.", "ref": "7685700004"}, "type": "Feature"}
{"geometry": {"coordinates": [-99.578629, 31.19894], "type": "Point"}, "id": "fQHaKYkxGFj9NGiEeE_uP-kvGjk=", "properties": {"@spider": "usps_collection_boxes", "addr:city": "MELVIN", "addr:country": "US", "addr:full": "105 E MESQUITE ST", "addr:postcode": "76858", "addr:state": "TX", "brand": "USPS", "brand:wikidata": "Q668687", "collection_times": "Mo-Fr 14:45; Sa 09:00", "name": "USPS COLLECTION BOX - PO LOBBY", "note": "ON 12/24 AND 12/31, THIS BOX MAY BE COLLECTED AS EARLY AS 12 NOON.", "ref": "7685800000"}, "type": "Feature"}
{"geometry": {"coordinates": [-99.578629, 31.19894], "type": "Point"}, "id": "ENvfmrbT3y1y9qGpEQB-ybiRW6M=", "properties": {"@spider": "usps_collection_boxes", "addr:city": "MELVIN", "addr:country": "US", "addr:full": "105 E MESQUITE ST", "addr:postcode": "76858", "addr:state": "TX", "brand": "USPS", "brand:wikidata": "Q668687", "collection_times": "Mo-Fr 14:45; Sa 09:00", "name": "USPS COLLECTION BOX - BLUE BOX", "note": "ON 12/24 AND 12/31, THIS BOX MAY BE COLLECTED AS EARLY AS 12 NOON.", "ref": "7685800001"}, "type": "Feature"}
{"geometry": {"coordinates": [-99.578629, 31.19894], "type": "Point"}, "id": "NlIX0pAagKQ-QyA89mLIXx97jE8=", "properties": {"@spider": "usps_collection_boxes", "addr:city": "MELVIN", "addr:country": "US", "addr:full": "105 E MESQUITE ST", "addr:postcode": "76858", "addr:state": "TX", "brand": "USPS", "brand:wikidata": "Q668687", "collection_times": "Mo-Fr 14:45; Sa 09:00", "name": "USPS COLLECTION BOX - PO LOBBY", "note": "ON 12/24 AND 12/31, THIS BOX MAY BE COLLECTED AS EARLY AS 12 NOON.", "ref": "7685800002"}, "type": "Feature"}
{"geometry": {"coordinates": [-99.577782, 31.198962457], "type": "Point"}, "id": "GdBrE9DMjrmCQgK6bXpqu_Bl3AY=", "properties": {"@spider": "usps_collection_boxes", "addr:city": "MELVIN", "addr:country": "US", "addr:full": "105 E MESQUITE ST", "addr:postcode": "76858", "addr:state": "TX", "brand": "USPS", "brand:wikidata": "Q668687", "collection_times": "Mo-Fr 14:45; Sa 09:30", "name": "USPS COLLECTION BOX - PO LOBBY", "note": "ON 12/24 AND 12/31, THIS BOX MAY BE COLLECTED AS EARLY AS 12 NOON.", "ref": "7685800003"}, "type": "Feature"}
{"geometry": {"coordinates": [-99.783594, 30.932234], "type": "Point"}, "id": "CNUb6Oje-uNUPfq05mFPdPAtAFg=", "properties": {"@spider": "usps_collection_boxes", "addr:city": "MENARD", "addr:country": "US", "addr:full": "911 FRISCO ST", "addr:postcode": "76859", "addr:state": "TX", "brand": "USPS", "brand:wikidata": "Q668687", "collection_times": "Mo-Fr 16:00; Sa 10:30", "name": "USPS COLLECTION BOX - BLUE BOX", "note": "ON 12/24 AND 12/31, THIS BOX MAY BE COLLECTED AS EARLY AS 12 NOON.", "ref": "7685900000"}, "type": "Feature"}
{"geometry": {"coordinates": [-99.78357, 30.932161], "type": "Point"}, "id": "CxSMiErwdbh-ij0YjKYOI4yTEQw=", "properties": {"@spider": "usps_collection_boxes", "addr:city": "MENARD", "addr:country": "US", "addr:full": "911 FRISCO ST", "addr:postcode": "76859", "addr:state": "TX", "brand": "USPS", "brand:wikidata": "Q668687", "collection_times": "Mo-Fr 16:00; Sa 10:30", "name": "USPS COLLECTION BOX - PO LOBBY", "note": "ON 12/24 AND 12/31, THIS BOX MAY BE COLLECTED AS EARLY AS 12 NOON.", "ref": "7685900001"}, "type": "Feature"}
{"geometry": {"coordinates": [-99.78357, 30.932161], "type": "Point"}, "id": "j874HuXwRsg-PVWugo2KRkhBLcQ=", "properties": {"@spider": "usps_collection_boxes", "addr:city": "MENARD", "addr:country": "US", "addr:full": "911 FRISCO ST", "addr:postcode": "76859", "addr:state": "TX", "brand": "USPS", "brand:wikidata": "Q668687", "collection_times": "Mo-Fr 16:00; Sa 10:30", "name": "USPS COLLECTION BOX - PO LOBBY", "note": "ON 12/24 AND 12/31, THIS BOX MAY BE COLLECTED AS EARLY AS 12 NOON.", "ref": "7685900003"}, "type": "Feature"}
{"geometry": {"coordinates": [-99.7835240054, 30.9328500802], "type": "Point"}, "id": "IV6MpnFHl7pUkMr_jHhuIV-CDkY=", "properties": {"@spider": "usps_collection_boxes", "addr:city": "MENARD", "addr:country": "US", "addr:full": "911 FRISCO ST", "addr:postcode": "76859", "addr:state": "TX", "brand": "USPS", "brand:wikidata": "Q668687", "collection_times": "Mo-Fr 16:00; Sa 10:30", "name": "USPS COLLECTION BOX - BLUE BOX", "note": "ON 12/24 AND 12/31, THIS BOX MAY BE COLLECTED AS EARLY AS 12 NOON.", "ref": "7685900004"}, "type": "Feature"}
{"geometry": {"coordinates": [-99.783524005, 30.93285008], "type": "Point"}, "id": "vwNlyDNJV8KDUmad2-wugd2Kylk=", "properties": {"@spider": "usps_collection_boxes", "addr:city": "MENARD", "addr:country": "US", "addr:full": "911 FRISCO ST", "addr:postcode": "76859", "addr:state": "TX", "brand": "USPS", "brand:wikidata": "Q668687", "collection_times": "Mo-Fr 16:00", "name": "USPS COLLECTION BOX - PO LOBBY", "note": "ON 12/24 AND 12/31, THIS BOX MAY BE COLLECTED AS EARLY AS 12 NOON.", "ref": "7685900005"}, "type": "Feature"}
{"geometry": {"coordinates": [-100.183312, 31.599393], "type": "Point"}, "id": "nlMJY7xUcBZshvj8IjaWUN9Bje8=", "properties": {"@spider": "usps_collection_boxes", "addr:city": "MILES", "addr:country": "US", "addr:full": "300 ROBINSON ST", "addr:postcode": "76861", "addr:state": "TX", "brand": "USPS", "brand:wikidata": "Q668687", "collection_times": "Mo-Fr 15:30; Sa 09:00", "name": "USPS COLLECTION BOX - BLUE BOX", "note": "ON 12/24 AND 12/31, THIS BOX MAY BE COLLECTED AS EARLY AS 12 NOON.", "ref": "7686100000"}, "type": "Feature"}
{"geometry": {"coordinates": [-100.183298, 31.5993], "type": "Point"}, "id": "X3WdTBymMMA9SQ9p8PMGuC1pC4Q=", "properties": {"@spider": "usps_collection_boxes", "addr:city": "MILES", "addr:country": "US", "addr:full": "300 ROBINSON ST", "addr:postcode": "76861", "addr:state": "TX", "brand": "USPS", "brand:wikidata": "Q668687", "collection_times": "Mo-Fr 15:30; Sa 09:00", "name": "USPS COLLECTION BOX - PO LOBBY", "note": "ON 12/24 AND 12/31, THIS BOX MAY BE COLLECTED AS EARLY AS 12 NOON.", "ref": "7686100001"}, "type": "Feature"}
{"geometry": {"coordinates": [-100.183375108, 31.599501516], "type": "Point"}, "id": "sG91W49OnjSXwvQ-rVXf1sy0s3Q=", "properties": {"@spider": "usps_collection_boxes", "addr:city": "MILES", "addr:country": "US", "addr:full": "300 ROBINSON ST", "addr:postcode": "76861", "addr:state": "TX", "brand": "USPS", "brand:wikidata": "Q668687", "collection_times": "Mo-Fr 15:30", "name": "USPS COLLECTION BOX - PO LOBBY", "note": "ON 12/24 AND 12/31, THIS BOX MAY BE COLLECTED AS EARLY AS 12 NOON.", "ref": "7686100002"}, "type": "Feature"}
{"geometry": {"coordinates": [-99.752172, 31.40898], "type": "Point"}, "id": "Qh17CU9pfD30izg75Kpzcw6t9jA=", "properties": {"@spider": "usps_collection_boxes", "addr:city": "MILLERSVIEW", "addr:country": "US", "addr:full": "8090 FM 765 E", "addr:postcode": "76862", "addr:state": "TX", "brand": "USPS", "brand:wikidata": "Q668687", "collection_times": "Mo-Fr 11:00; Sa 10:45", "name": "USPS COLLECTION BOX - BLUE BOX", "ref": "7686200000"}, "type": "Feature"}
{"geometry": {"coordinates": [-99.752189, 31.408953], "type": "Point"}, "id": "Xjo90uvd5MADoIr78Q0KsLRMigU=", "properties": {"@spider": "usps_collection_boxes", "addr:city": "MILLERSVIEW", "addr:country": "US", "addr:full": "8090 FM 765 E", "addr:postcode": "76862", "addr:state": "TX", "brand": "USPS", "brand:wikidata": "Q668687", "collection_times": "Mo-Fr 11:00; Sa 10:45", "name": "USPS COLLECTION BOX - PO LOBBY", "ref": "7686200001"}, "type": "Feature"}
{"geometry": {"coordinates": [-99.7537725, 31.408971504], "type": "Point"}, "id": "uevF2gJnvAH8AyV6fa0ldhHas7E=", "properties": {"@spider": "usps_collection_boxes", "addr:city": "MILLERSVIEW", "addr:country": "US", "addr:full": "8090 FM 765 E", "addr:postcode": "76862", "addr:state": "TX", "brand": "USPS", "brand:wikidata": "Q668687", "collection_times": "Mo-Fr 11:30; Sa 10:45", "name": "USPS COLLECTION BOX - PO LOBBY", "ref": "7686200002"}, "type": "Feature"}
{"geometry": {"coordinates": [-98.6649483, 31.556623], "type": "Point"}, "id": "IPkSqmyBKW6_9t9qmsNnk0dDG30=", "properties": {"@spider": "usps_collection_boxes", "addr:city": "MULLIN", "addr:country": "US", "addr:full": "108 E SHERMAN ST", "addr:postcode": "76864", "addr:state": "TX", "brand": "USPS", "brand:wikidata": "Q668687", "collection_times": "Mo-Fr 11:30; Sa 09:15", "name": "USPS COLLECTION BOX - PO LOBBY", "ref": "7686400001"}, "type": "Feature"}
{"geometry": {"coordinates": [-98.665688, 31.556809], "type": "Point"}, "id": "rdmluSr1FENYkBZ2nOVKR2dJHpQ=", "properties": {"@spider": "usps_collection_boxes", "addr:city": "MULLIN", "addr:country": "US", "addr:full": "108 E SHERMAN ST", "addr:postcode": "76864", "addr:state": "TX", "brand": "USPS", "brand:wikidata": "Q668687", "collection_times": "Mo-Fr 11:30; Sa 09:15", "name": "USPS COLLECTION BOX - BLUE BOX", "ref": "7686400002"}, "type": "Feature"}
{"geometry": {"coordinates": [-98.662552208, 31.554932396], "type": "Point"}, "id": "jK5qS9q0p8skk-Y3ZPTVeEg4DxE=", "properties": {"@spider": "usps_collection_boxes", "addr:city": "MULLIN", "addr:country": "US", "addr:full": "108 E SHERMAN ST", "addr:postcode": "76864", "addr:state": "TX", "brand": "USPS", "brand:wikidata": "Q668687", "collection_times": "Mo-Fr 11:30; Sa 09:30", "name": "USPS COLLECTION BOX - PO LOBBY", "ref": "7686400003"}, "type": "Feature"}
{"geometry": {"coordinates": [-99.920107, 31.506404], "type": "Point"}, "id": "-IghJo_a7xHju2mMyIq3iHyYQ9g=", "properties": {"@spider": "usps_collection_boxes", "addr:city": "PAINT ROCK", "addr:country": "US", "addr:full": "331 S ROBERTS AVE", "addr:postcode": "76866", "addr:state": "TX", "brand": "USPS", "brand:wikidata": "Q668687", "collection_times": "Mo-Fr 11:30; Sa 10:00", "name": "USPS COLLECTION BOX - PO LOBBY", "ref": "7686600001"}, "type": "Feature"}
{"geometry": {"coordinates": [-99.9204099, 31.506399], "type": "Point"}, "id": "IOequFdASKYZTZY60BpXOT4Q6Ug=", "properties": {"@spider": "usps_collection_boxes", "addr:city": "PAINT ROCK", "addr:country": "US", "addr:full": "331 S ROBERTS AVE", "addr:postcode": "76866", "addr:state": "TX", "brand": "USPS", "brand:wikidata": "Q668687", "collection_times": "Mo-Fr 11:30; Sa 10:00", "name": "USPS COLLECTION BOX - BLUE BOX", "ref": "7686600003"}, "type": "Feature"}
{"geometry": {"coordinates": [-99.920114709, 31.506425948], "type": "Point"}, "id": "6vMQjJ8tq5owe56Ii8JDoS5n--Q=", "properties": {"@spider": "usps_collection_boxes", "addr:city": "PAINT ROCK", "addr:country": "US", "addr:full": "331 S ROBERTS AVE", "addr:postcode": "76866", "addr:state": "TX", "brand": "USPS", "brand:wikidata": "Q668687", "collection_times": "Mo-Fr 12:00; Sa 10:30", "name": "USPS COLLECTION BOX - PO LOBBY", "ref": "7686600004"}, "type": "Feature"}
{"geometry": {"coordinates": [-98.983347, 30.909392], "type": "Point"}, "id": "H4oGIpvj7B624Fuhj0MAGaZow4w=", "properties": {"@spider": "usps_collection_boxes", "addr:city": "PONTOTOC", "addr:country": "US", "addr:full": "17658 COLLEGE ST", "addr:postcode": "76869", "addr:state": "TX", "brand": "USPS", "brand:wikidata": "Q668687", "collection_times": "Mo-Fr 13:30; Sa 10:00", "name": "USPS COLLECTION BOX - BLUE BOX", "note": "ON 12/24 AND 12/31, THIS BOX MAY BE COLLECTED AS EARLY AS 12 NOON.", "ref": "7686900000"}, "type": "Feature"}
{"geometry": {"coordinates": [-98.983347, 30.909392], "type": "Point"}, "id": "rfU01f5cnJi4khF32wXFxKjEKHE=", "properties": {"@spider": "usps_collection_boxes", "addr:city": "PONTOTOC", "addr:country": "US", "addr:full": "17658 COLLEGE ST", "addr:postcode": "76869", "addr:state": "TX", "brand": "USPS", "brand:wikidata": "Q668687", "collection_times": "Mo-Fr 13:30; Sa 10:00", "name": "USPS COLLECTION BOX - PO LOBBY", "note": "ON 12/24 AND 12/31, THIS BOX MAY BE COLLECTED AS EARLY AS 12 NOON.", "ref": "7686900001"}, "type": "Feature"}
{"geometry": {"coordinates": [-98.9779905, 30.910611478], "type": "Point"}, "id": "hiDErw0fWx02IirAJYmp4bJBAek=", "properties": {"@spider": "usps_collection_boxes", "addr:city": "PONTOTOC", "addr:country": "US", "addr:full": "17658 COLLEGE ST", "addr:postcode": "76869", "addr:state": "TX", "brand": "USPS", "brand:wikidata": "Q668687", "collection_times": "Mo-Fr 13:40; Sa 10:30", "name": "USPS COLLECTION BOX - PO LOBBY", "note": "ON 12/24 AND 12/31, THIS BOX MAY BE COLLECTED AS EARLY AS 12 NOON.", "ref": "7686900002"}, "type": "Feature"}
{"geometry": {"coordinates": [-98.550248, 31.579501], "type": "Point"}, "id": "ACrkragDwLUZ3MJXHVZHoniTb1o=", "properties": {"@spider": "usps_collection_boxes", "addr:city": "PRIDDY", "addr:country": "US", "addr:full": "13420 HIGHWAY 16 N", "addr:postcode": "76870", "addr:state": "TX", "brand": "USPS", "brand:wikidata": "Q668687", "collection_times": "Mo-Sa 10:15", "name": "USPS COLLECTION BOX - BLUE BOX", "ref": "7687000000"}, "type": "Feature"}
{"geometry": {"coordinates": [-98.550248, 31.579501], "type": "Point"}, "id": "XK8ZR2kyZ1Efr8EOoPR6jiMcyw4=", "properties": {"@spider": "usps_collection_boxes", "addr:city": "PRIDDY", "addr:country": "US", "addr:full": "13420 HIGHWAY 16 N", "addr:postcode": "76870", "addr:state": "TX", "brand": "USPS", "brand:wikidata": "Q668687", "collection_times": "Mo-Sa 10:15", "name": "USPS COLLECTION BOX - PO LOBBY", "ref": "7687000001"}, "type": "Feature"}
{"geometry": {"coordinates": [-98.529239292, 31.619457976], "type": "Point"}, "id": "iWHPHfL0VD22Bdp6N7JMAm_QC-c=", "properties": {"@spider": "usps_collection_boxes", "addr:city": "PRIDDY", "addr:country": "US", "addr:full": "13420 HIGHWAY 16 N", "addr:postcode": "76870", "addr:state": "TX", "brand": "USPS", "brand:wikidata": "Q668687", "collection_times": "Mo-Sa 10:30", "name": "USPS COLLECTION BOX - PO LOBBY", "ref": "7687000002"}, "type": "Feature"}
{"geometry": {"coordinates": [-98.9451609, 31.273943], "type": "Point"}, "id": "yQ8d23dGgjPID1nRwD49wJRlX7w=", "properties": {"@spider": "usps_collection_boxes", "addr:city": "RICHLAND SPRINGS", "addr:country": "US", "addr:full": "105 W MAIN ST", "addr:postcode": "76871", "addr:state": "TX", "brand": "USPS", "brand:wikidata": "Q668687", "collection_times": "Mo-Fr 11:30; Sa 09:30", "name": "USPS COLLECTION BOX - BLUE BOX", "ref": "7687100000"}, "type": "Feature"}
{"geometry": {"coordinates": [-98.94506, 31.274013], "type": "Point"}, "id": "La8oPIMYzC75OWJZ_Ud-OdryubU=", "properties": {"@spider": "usps_collection_boxes", "addr:city": "RICHLAND SPRINGS", "addr:country": "US", "addr:full": "105 W MAIN ST", "addr:postcode": "76871", "addr:state": "TX", "brand": "USPS", "brand:wikidata": "Q668687", "collection_times": "Mo-Fr 11:15; Sa 09:30", "name": "USPS COLLECTION BOX - PO LOBBY", "ref": "7687100001"}, "type": "Feature"}
{"geometry": {"coordinates": [-98.94506, 31.274013], "type": "Point"}, "id": "7zUG7nt6NCDfPc1YWCdSAfeSE-Y=", "properties": {"@spider": "usps_collection_boxes", "addr:city": "RICHLAND SPRINGS", "addr:country": "US", "addr:full": "105 W MAIN ST", "addr:postcode": "76871", "addr:state": "TX", "brand": "USPS", "brand:wikidata": "Q668687", "collection_times": "Mo-Fr 11:15; Sa 09:30", "name": "USPS COLLECTION BOX - PO LOBBY", "ref": "7687100002"}, "type": "Feature"}
{"geometry": {"coordinates": [-98.945102242, 31.273937767], "type": "Point"}, "id": "nmRbXDv-TKTvk_0Zrka1EfC2fBo=", "properties": {"@spider": "usps_collection_boxes", "addr:city": "RICHLAND SPRINGS", "addr:country": "US", "addr:full": "105 W MAIN ST", "addr:postcode": "76871", "addr:state": "TX", "brand": "USPS", "brand:wikidata": "Q668687", "collection_times": "Mo-Fr 11:30", "name": "USPS COLLECTION BOX - PO LOBBY", "ref": "7687100003"}, "type": "Feature"}
{"geometry": {"coordinates": [-99.215609, 31.219913], "type": "Point"}, "id": "a5rZinPO1R51GNmlisC8JwNAg54=", "properties": {"@spider": "usps_collection_boxes", "addr:city": "ROCHELLE", "addr:country": "US", "addr:full": "5702 CREW AVE", "addr:postcode": "76872", "addr:state": "TX", "brand": "USPS", "brand:wikidata": "Q668687", "collection_times": "Mo-Fr 16:00; Sa 09:30", "name": "USPS COLLECTION BOX - BLUE BOX", "note": "ON 12/24 AND 12/31, THIS BOX MAY BE COLLECTED AS EARLY AS 12 NOON.", "ref": "7687200000"}, "type": "Feature"}
{"geometry": {"coordinates": [-99.215609, 31.219913], "type": "Point"}, "id": "TVtU883P_F6hwqtYDjp8fbhYJ_E=", "properties": {"@spider": "usps_collection_boxes", "addr:city": "ROCHELLE", "addr:country": "US", "addr:full": "5702 CREW AVE", "addr:postcode": "76872", "addr:state": "TX", "brand": "USPS", "brand:wikidata": "Q668687", "collection_times": "Mo-Fr 16:00; Sa 09:30", "name": "USPS COLLECTION BOX - PO LOBBY", "note": "ON 12/24 AND 12/31, THIS BOX MAY BE COLLECTED AS EARLY AS 12 NOON.", "ref": "7687200001"}, "type": "Feature"}
{"geometry": {"coordinates": [-99.215609, 31.219913], "type": "Point"}, "id": "bXz8hLWF6xRhBqNNtpHrwBeWNQk=", "properties": {"@spider": "usps_collection_boxes", "addr:city": "ROCHELLE", "addr:country": "US", "addr:full": "5702 CREW AVE", "addr:postcode": "76872", "addr:state": "TX", "brand": "USPS", "brand:wikidata": "Q668687", "collection_times": "Mo-Fr 16:00; Sa 09:30", "name": "USPS COLLECTION BOX - PO LOBBY", "note": "ON 12/24 AND 12/31, THIS BOX MAY BE COLLECTED AS EARLY AS 12 NOON.", "ref": "7687200002"}, "type": "Feature"}
{"geometry": {"coordinates": [-99.211069206, 31.22474881], "type": "Point"}, "id": "XKhKdAT0SZMtbrTk5to465BSU4M=", "properties": {"@spider": "usps_collection_boxes", "addr:city": "ROCHELLE", "addr:country": "US", "addr:full": "5702 CREW AVE", "addr:postcode": "76872", "addr:state": "TX", "brand": "USPS", "brand:wikidata": "Q668687", "collection_times": "Mo-Fr 16:00; Sa 09:30", "name": "USPS COLLECTION BOX - PO LOBBY", "note": "ON 12/24 AND 12/31, THIS BOX MAY BE COLLECTED AS EARLY AS 12 NOON.", "ref": "7687200003"}, "type": "Feature"}
{"geometry": {"coordinates": [-99.37267, 31.499092], "type": "Point"}, "id": "MmYCcEySFVuIkA9OlUiLGbNIfus=", "properties": {"@spider": "usps_collection_boxes", "addr:city": "ROCKWOOD", "addr:country": "US", "addr:full": "135 POLK AVE", "addr:postcode": "76873", "addr:state": "TX", "brand": "USPS", "brand:wikidata": "Q668687", "collection_times": "Mo-Fr 11:30; Sa 11:00", "name": "USPS COLLECTION BOX - PO LOBBY", "ref": "7687300000"}, "type": "Feature"}
{"geometry": {"coordinates": [-99.372068132, 31.499041939], "type": "Point"}, "id": "_NdB4LbCsWL57QdwSs4KbjP-E7g=", "properties": {"@spider": "usps_collection_boxes", "addr:city": "ROCKWOOD", "addr:country": "US", "addr:full": "135 POLK AVE", "addr:postcode": "76873", "addr:state": "TX", "brand": "USPS", "brand:wikidata": "Q668687", "collection_times": "Mo-Fr 11:30; Sa 11:00", "name": "USPS COLLECTION BOX - PO LOBBY", "ref": "7687300001"}, "type": "Feature"}
{"geometry": {"coordinates": [-100.05866, 30.489884], "type": "Point"}, "id": "f2lthna1o8POQFZgDfty853VMWo=", "properties": {"@spider": "usps_collection_boxes", "addr:city": "ROOSEVELT", "addr:country": "US", "addr:full": "3861 STATE LOOP 291", "addr:postcode": "76874", "addr:state": "TX", "brand": "USPS", "brand:wikidata": "Q668687", "collection_times": "Mo-Sa 12:00", "name": "USPS COLLECTION BOX - BLUE BOX", "ref": "7687400000"}, "type": "Feature"}
{"geometry": {"coordinates": [-100.05866, 30.489884], "type": "Point"}, "id": "p2JcsbHPGEP6fy80QcpGMZ_qogo=", "properties": {"@spider": "usps_collection_boxes", "addr:city": "ROOSEVELT", "addr:country": "US", "addr:full": "3861 STATE LOOP 291", "addr:postcode": "76874", "addr:state": "TX", "brand": "USPS", "brand:wikidata": "Q668687", "collection_times": "Mo-Sa 12:00", "name": "USPS COLLECTION BOX - PO LOBBY", "ref": "7687400001"}, "type": "Feature"}
{"geometry": {"coordinates": [-100.056794329, 30.490793487], "type": "Point"}, "id": "INBIrN8a4s7_G5vg7mk0g11syOQ=", "properties": {"@spider": "usps_collection_boxes", "addr:city": "ROOSEVELT", "addr:country": "US", "addr:full": "3861 STATE LOOP 291", "addr:postcode": "76874", "addr:state": "TX", "brand": "USPS", "brand:wikidata": "Q668687", "collection_times": "Mo-Sa 12:00", "name": "USPS COLLECTION BOX - PO LOBBY", "ref": "7687400002"}, "type": "Feature"}
{"geometry": {"coordinates": [-100.047529, 31.647351], "type": "Point"}, "id": "NxEh3ZvuCYFIXA7KlROppUCkn6c=", "properties": {"@spider": "usps_collection_boxes", "addr:city": "ROWENA", "addr:country": "US", "addr:full": "501 MARY ST", "addr:postcode": "76875", "addr:state": "TX", "brand": "USPS", "brand:wikidata": "Q668687", "collection_times": "Mo-Fr 11:00; Sa 08:00", "name": "USPS COLLECTION BOX - BLUE BOX", "ref": "7687500000"}, "type": "Feature"}
{"geometry": {"coordinates": [-100.047558, 31.647441], "type": "Point"}, "id": "ZDIWbnSZoyxvGFtrn2T9dS5ksPw=", "properties": {"@spider": "usps_collection_boxes", "addr:city": "ROWENA", "addr:country": "US", "addr:full": "501 MARY ST", "addr:postcode": "76875", "addr:state": "TX", "brand": "USPS", "brand:wikidata": "Q668687", "collection_times": "Mo-Fr 11:00; Sa 08:00", "name": "USPS COLLECTION BOX - PO LOBBY", "ref": "7687500002"}, "type": "Feature"}
{"geometry": {"coordinates": [-100.04752974, 31.647266413], "type": "Point"}, "id": "7ajskNf2f781TfKDuiBkzAdFQj4=", "properties": {"@spider": "usps_collection_boxes", "addr:city": "ROWENA", "addr:country": "US", "addr:full": "501 MARY ST", "addr:postcode": "76875", "addr:state": "TX", "brand": "USPS", "brand:wikidata": "Q668687", "collection_times": "Mo-Fr 11:00", "name": "USPS COLLECTION BOX - PO LOBBY", "ref": "7687500003"}, "type": "Feature"}
{"geometry": {"coordinates": [-98.7180586, 31.19134], "type": "Point"}, "id": "tkXXktoozZEwiTMYQ-Tzzqn_of8=", "properties": {"@spider": "usps_collection_boxes", "addr:city": "SAN SABA", "addr:country": "US", "addr:full": "603 S HIGH ST", "addr:postcode": "76877", "addr:state": "TX", "brand": "USPS", "brand:wikidata": "Q668687", "collection_times": "Mo-Fr 16:00; Sa 15:15", "name": "USPS COLLECTION BOX - PO LOBBY", "note": "ON 12/24 AND 12/31, THIS BOX MAY BE COLLECTED AS EARLY AS 12 NOON.", "ref": "7687700000"}, "type": "Feature"}
{"geometry": {"coordinates": [-98.7180504, 31.191327], "type": "Point"}, "id": "1juFz1vBdWn0dMa_BU6T-Gwo-Qg=", "properties": {"@spider": "usps_collection_boxes", "addr:city": "SAN SABA", "addr:country": "US", "addr:full": "603 S HIGH ST", "addr:postcode": "76877", "addr:state": "TX", "brand": "USPS", "brand:wikidata": "Q668687", "collection_times": "Mo-Fr 16:00; Sa 15:15", "name": "USPS COLLECTION BOX - PO LOBBY", "note": "ON 12/24 AND 12/31, THIS BOX MAY BE COLLECTED AS EARLY AS 12 NOON.", "ref": "7687700001"}, "type": "Feature"}
{"geometry": {"coordinates": [-98.7174762, 31.195703], "type": "Point"}, "id": "p9I8L6nLkYViZRFVwZB5oDFBBHM=", "properties": {"@spider": "usps_collection_boxes", "addr:city": "SAN SABA", "addr:country": "US", "addr:full": "102 S CHEROKEE ST", "addr:postcode": "76877", "addr:state": "TX", "brand": "USPS", "brand:wikidata": "Q668687", "collection_times": "Mo-Sa 10:00", "name": "USPS COLLECTION BOX - BLUE BOX", "ref": "7687700002"}, "type": "Feature"}
{"geometry": {"coordinates": [-98.7175561, 31.191103], "type": "Point"}, "id": "7l6DqdtPZw9hhlYJIXfCl0HN6FU=", "properties": {"@spider": "usps_collection_boxes", "addr:city": "SAN SABA", "addr:country": "US", "addr:full": "608 S CHEROKEE ST", "addr:postcode": "76877", "addr:state": "TX", "brand": "USPS", "brand:wikidata": "Q668687", "collection_times": "Mo-Fr 16:00; Sa 15:15", "name": "USPS COLLECTION BOX - BLUE BOX", "note": "ON 12/24 AND 12/31, THIS BOX MAY BE COLLECTED AS EARLY AS 12 NOON.", "ref": "7687700004"}, "type": "Feature"}
{"geometry": {"coordinates": [-98.7175564, 31.191101], "type": "Point"}, "id": "nA4JLPoqIFBtBmyqSVEb8Z48CFE=", "properties": {"@spider": "usps_collection_boxes", "addr:city": "SAN SABA", "addr:country": "US", "addr:full": "608 S CHEROKEE ST", "addr:postcode": "76877", "addr:state": "TX", "brand": "USPS", "brand:wikidata": "Q668687", "collection_times": "Mo-Fr 16:00; Sa 15:15", "name": "USPS COLLECTION BOX - BLUE BOX", "note": "ON 12/24 AND 12/31, THIS BOX MAY BE COLLECTED AS EARLY AS 12 NOON.", "ref": "7687700005"}, "type": "Feature"}
{"geometry": {"coordinates": [-98.718305538, 31.191627475], "type": "Point"}, "id": "u4ueM5ZfXtTZmdRThUMmZDQZGb4=", "properties": {"@spider": "usps_collection_boxes", "addr:city": "SAN SABA", "addr:country": "US", "addr:full": "603 S HIGH ST", "addr:postcode": "76877", "addr:state": "TX", "brand": "USPS", "brand:wikidata": "Q668687", "collection_times": "Mo-Fr 16:00", "name": "USPS COLLECTION BOX - PO LOBBY", "note": "ON 12/24 AND 12/31, THIS BOX MAY BE COLLECTED AS EARLY AS 12 NOON.", "ref": "7687700006"}, "type": "Feature"}
{"geometry": {"coordinates": [-99.322053, 31.742426], "type": "Point"}, "id": "whqtvp45U8hiGlpgtk-qN0R_myI=", "properties": {"@spider": "usps_collection_boxes", "addr:city": "SANTA ANNA", "addr:country": "US", "addr:full": "207 N 1ST ST", "addr:postcode": "76878", "addr:state": "TX", "brand": "USPS", "brand:wikidata": "Q668687", "collection_times": "Mo-Fr 15:45; Sa 08:45", "name": "USPS COLLECTION BOX - BLUE BOX", "note": "ON 12/24 AND 12/31, THIS BOX MAY BE COLLECTED AS EARLY AS 12 NOON.", "ref": "7687800000"}, "type": "Feature"}
{"geometry": {"coordinates": [-99.322088, 31.742348], "type": "Point"}, "id": "GKjvnVJRsRCbzpH4TVGLKoMXTiA=", "properties": {"@spider": "usps_collection_boxes", "addr:city": "SANTA ANNA", "addr:country": "US", "addr:full": "207 N 1ST ST", "addr:postcode": "76878", "addr:state": "TX", "brand": "USPS", "brand:wikidata": "Q668687", "collection_times": "Mo-Fr 15:45; Sa 08:45", "name": "USPS COLLECTION BOX - PO LOBBY", "note": "ON 12/24 AND 12/31, THIS BOX MAY BE COLLECTED AS EARLY AS 12 NOON.", "ref": "7687800002"}, "type": "Feature"}
{"geometry": {"coordinates": [-99.3221451615, 31.7423957349], "type": "Point"}, "id": "2-yI6PRFcuHHqegG-DkKbOkSoTY=", "properties": {"@spider": "usps_collection_boxes", "addr:city": "SANTA ANNA", "addr:country": "US", "addr:full": "207 N 1ST ST", "addr:postcode": "76878", "addr:state": "TX", "brand": "USPS", "brand:wikidata": "Q668687", "collection_times": "Mo-Fr 15:30", "name": "USPS COLLECTION BOX - PO LOBBY", "note": "ON 12/24 AND 12/31, THIS BOX MAY BE COLLECTED AS EARLY AS 12 NOON.", "ref": "7687800003"}, "type": "Feature"}
{"geometry": {"coordinates": [-98.320995, 31.496016], "type": "Point"}, "id": "RbYQFqsXxC_ZmvnfzThFOHtM5Hs=", "properties": {"@spider": "usps_collection_boxes", "addr:city": "STAR", "addr:country": "US", "addr:full": "39 FM 1047 S", "addr:postcode": "76880", "addr:state": "TX", "brand": "USPS", "brand:wikidata": "Q668687", "collection_times": "Mo-Sa 10:30", "name": "USPS COLLECTION BOX - PO LOBBY", "ref": "7688000000"}, "type": "Feature"}
{"geometry": {"coordinates": [-98.320975, 31.496045], "type": "Point"}, "id": "yIHN3_81ictnsdDCX8gqgeKKxe4=", "properties": {"@spider": "usps_collection_boxes", "addr:city": "STAR", "addr:country": "US", "addr:full": "39 FM 1047 S", "addr:postcode": "76880", "addr:state": "TX", "brand": "USPS", "brand:wikidata": "Q668687", "collection_times": "Mo-Sa 10:30", "name": "USPS COLLECTION BOX - BLUE BOX", "ref": "7688000001"}, "type": "Feature"}
{"geometry": {"coordinates": [-98.3182014766, 31.4725912062], "type": "Point"}, "id": "rOvat8XmcomYFjTcUp81nX2YsFc=", "properties": {"@spider": "usps_collection_boxes", "addr:city": "STAR", "addr:country": "US", "addr:full": "39 FM 1047 S", "addr:postcode": "76880", "addr:state": "TX", "brand": "USPS", "brand:wikidata": "Q668687", "collection_times": "Mo-Sa 10:45", "name": "USPS COLLECTION BOX - PO LOBBY", "ref": "7688000002"}, "type": "Feature"}
{"geometry": {"coordinates": [-99.706446, 31.776439], "type": "Point"}, "id": "ebtUZA8o5QDut7RKytLHST4wzFo=", "properties": {"@spider": "usps_collection_boxes", "addr:city": "TALPA", "addr:country": "US", "addr:full": "110 2ND ST", "addr:postcode": "76882", "addr:state": "TX", "brand": "USPS", "brand:wikidata": "Q668687", "collection_times": "Mo-Fr 12:00; Sa 08:30", "name": "USPS COLLECTION BOX - PO LOBBY", "ref": "7688200002"}, "type": "Feature"}
{"geometry": {"coordinates": [-99.706431557, 31.776464523], "type": "Point"}, "id": "k2-3j2pG8LZITe8xtb_rzE7s7II=", "properties": {"@spider": "usps_collection_boxes", "addr:city": "TALPA", "addr:country": "US", "addr:full": "110 2ND ST", "addr:postcode": "76882", "addr:state": "TX", "brand": "USPS", "brand:wikidata": "Q668687", "collection_times": "Mo-Fr 12:00; Sa 09:00", "name": "USPS COLLECTION BOX - PO LOBBY", "ref": "7688200003"}, "type": "Feature"}
{"geometry": {"coordinates": [-99.547303, 31.752966], "type": "Point"}, "id": "1oNILFtbsfRrYE3S1vz0QTtF1vo=", "properties": {"@spider": "usps_collection_boxes", "addr:city": "VALERA", "addr:country": "US", "addr:full": "10490 US HIGHWAY 67", "addr:postcode": "76884", "addr:state": "TX", "brand": "USPS", "brand:wikidata": "Q668687", "collection_times": "Mo-Fr 11:00; Sa 08:45", "name": "USPS COLLECTION BOX - BLUE BOX", "ref": "7688400001"}, "type": "Feature"}
{"geometry": {"coordinates": [-99.547254001, 31.752951662], "type": "Point"}, "id": "p8Gg5XYptl2GBvF9rV_xS9lxMkE=", "properties": {"@spider": "usps_collection_boxes", "addr:city": "VALERA", "addr:country": "US", "addr:full": "10490 US HIGHWAY 67", "addr:postcode": "76884", "addr:state": "TX", "brand": "USPS", "brand:wikidata": "Q668687", "collection_times": "Mo-Fr 11:00; Sa 09:00", "name": "USPS COLLECTION BOX - PO LOBBY", "ref": "7688400002"}, "type": "Feature"}
{"geometry": {"coordinates": [-98.818858, 30.857506], "type": "Point"}, "id": "bPvW58V-Wkd6MRxavQ2c46PnBiE=", "properties": {"@spider": "usps_collection_boxes", "addr:city": "VALLEY SPRING", "addr:country": "US", "addr:full": "11936 W STATE HIGHWAY 71", "addr:postcode": "76885", "addr:state": "TX", "brand": "USPS", "brand:wikidata": "Q668687", "collection_times": "Mo-Sa 12:45", "name": "USPS COLLECTION BOX - BLUE BOX", "note": "ON 12/24 AND 12/31, THIS BOX MAY BE COLLECTED AS EARLY AS 12 NOON.", "ref": "7688500000"}, "type": "Feature"}
{"geometry": {"coordinates": [-98.818818, 30.857517], "type": "Point"}, "id": "inRh9ncGLw3Z_pYzPkEvsCRvcJ8=", "properties": {"@spider": "usps_collection_boxes", "addr:city": "VALLEY SPRING", "addr:country": "US", "addr:full": "11936 W STATE HIGHWAY 71", "addr:postcode": "76885", "addr:state": "TX", "brand": "USPS", "brand:wikidata": "Q668687", "collection_times": "Mo-Sa 12:45", "name": "USPS COLLECTION BOX - PO LOBBY", "note": "ON 12/24 AND 12/31, THIS BOX MAY BE COLLECTED AS EARLY AS 12 NOON.", "ref": "7688500001"}, "type": "Feature"}
{"geometry": {"coordinates": [-98.818563139, 30.857336932], "type": "Point"}, "id": "CvVbqNmHk25yFZizY1yB2dLsV8g=", "properties": {"@spider": "usps_collection_boxes", "addr:city": "VALLEY SPRING", "addr:country": "US", "addr:full": "11936 W STATE HIGHWAY 71", "addr:postcode": "76885", "addr:state": "TX", "brand": "USPS", "brand:wikidata": "Q668687", "collection_times": "Mo-Sa 12:45", "name": "USPS COLLECTION BOX - PO LOBBY", "note": "ON 12/24 AND 12/31, THIS BOX MAY BE COLLECTED AS EARLY AS 12 NOON.", "ref": "7688500002"}, "type": "Feature"}
{"geometry": {"coordinates": [-100.2599484508, 31.4765136994], "type": "Point"}, "id": "hLtG8QzM66Fp6pkradceJIXFYlI=", "properties": {"@spider": "usps_collection_boxes", "addr:city": "VERIBEST", "addr:country": "US", "addr:full": "10777 FM 380", "addr:postcode": "76886", "addr:state": "TX", "brand": "USPS", "brand:wikidata": "Q668687", "collection_times": "Mo-Fr 13:00; Sa 11:30", "name": "USPS COLLECTION BOX - PO LOBBY", "note": "ON 12/24 AND 12/31, THIS BOX MAY BE COLLECTED AS EARLY AS 12 NOON.", "ref": "7688600000"}, "type": "Feature"}
{"geometry": {"coordinates": [-100.2599484508, 31.4765136994], "type": "Point"}, "id": "3zv2o12PhzYG1wAmYKbju44hxw8=", "properties": {"@spider": "usps_collection_boxes", "addr:city": "VERIBEST", "addr:country": "US", "addr:full": "10777 FM 380", "addr:postcode": "76886", "addr:state": "TX", "brand": "USPS", "brand:wikidata": "Q668687", "collection_times": "Mo-Fr 13:00; Sa 11:30", "name": "USPS COLLECTION BOX - BLUE BOX", "note": "ON 12/24 AND 12/31, THIS BOX MAY BE COLLECTED AS EARLY AS 12 NOON.", "ref": "7688600001"}, "type": "Feature"}
{"geometry": {"coordinates": [-100.261011693, 31.476538546], "type": "Point"}, "id": "elPqukbI6Y51g47D982IZLHm9hE=", "properties": {"@spider": "usps_collection_boxes", "addr:city": "VERIBEST", "addr:country": "US", "addr:full": "10777 FM 380", "addr:postcode": "76886", "addr:state": "TX", "brand": "USPS", "brand:wikidata": "Q668687", "collection_times": "Mo-Fr 13:00", "name": "USPS COLLECTION BOX - PO LOBBY", "note": "ON 12/24 AND 12/31, THIS BOX MAY BE COLLECTED AS EARLY AS 12 NOON.", "ref": "7688600002"}, "type": "Feature"}
{"geometry": {"coordinates": [-99.163159, 31.002004], "type": "Point"}, "id": "KPhFBS5O3b4pk7GufRMzmMX5cP0=", "properties": {"@spider": "usps_collection_boxes", "addr:city": "VOCA", "addr:country": "US", "addr:full": "255 N FM 1851", "addr:postcode": "76887", "addr:state": "TX", "brand": "USPS", "brand:wikidata": "Q668687", "collection_times": "Mo-Fr 14:00; Sa 11:00", "name": "USPS COLLECTION BOX - BLUE BOX", "note": "ON 12/24 AND 12/31, THIS BOX MAY BE COLLECTED AS EARLY AS 12 NOON.", "ref": "7688700000"}, "type": "Feature"}
{"geometry": {"coordinates": [-99.163159, 31.002004], "type": "Point"}, "id": "nQ2Dv0jf7vppvwTWKqtlm-S5OOE=", "properties": {"@spider": "usps_collection_boxes", "addr:city": "VOCA", "addr:country": "US", "addr:full": "255 N FM 1851", "addr:postcode": "76887", "addr:state": "TX", "brand": "USPS", "brand:wikidata": "Q668687", "collection_times": "Mo-Fr 14:00; Sa 11:00", "name": "USPS COLLECTION BOX - PO LOBBY", "note": "ON 12/24 AND 12/31, THIS BOX MAY BE COLLECTED AS EARLY AS 12 NOON.", "ref": "7688700001"}, "type": "Feature"}
{"geometry": {"coordinates": [-99.186475801, 31.010559466], "type": "Point"}, "id": "Y_fWZWQhK-Hekoni7hW8s8Jx5N8=", "properties": {"@spider": "usps_collection_boxes", "addr:city": "VOCA", "addr:country": "US", "addr:full": "255 N FM 1851", "addr:postcode": "76887", "addr:state": "TX", "brand": "USPS", "brand:wikidata": "Q668687", "collection_times": "Mo-Fr 14:00; Sa 11:00", "name": "USPS COLLECTION BOX - PO LOBBY", "note": "ON 12/24 AND 12/31, THIS BOX MAY BE COLLECTED AS EARLY AS 12 NOON.", "ref": "7688700002"}, "type": "Feature"}
{"geometry": {"coordinates": [-98.794458, 31.675449], "type": "Point"}, "id": "8bj3qr3s39e_2qY7vQ7Ag7qYLyo=", "properties": {"@spider": "usps_collection_boxes", "addr:city": "ZEPHYR", "addr:country": "US", "addr:full": "11680 HIGHWAY 84 E", "addr:postcode": "76890", "addr:state": "TX", "brand": "USPS", "brand:wikidata": "Q668687", "collection_times": "Mo-Fr 16:00; Sa 08:30", "name": "USPS COLLECTION BOX - BLUE BOX", "note": "ON 12/24 AND 12/31, THIS BOX MAY BE COLLECTED AS EARLY AS 12 NOON.", "ref": "7689000000"}, "type": "Feature"}
{"geometry": {"coordinates": [-98.794369, 31.675394], "type": "Point"}, "id": "gggwYfsny6gk7Xi_6YBKjD6SCF8=", "properties": {"@spider": "usps_collection_boxes", "addr:city": "ZEPHYR", "addr:country": "US", "addr:full": "11680 HIGHWAY 84 E", "addr:postcode": "76890", "addr:state": "TX", "brand": "USPS", "brand:wikidata": "Q668687", "collection_times": "Mo-Fr 16:00; Sa 08:30", "name": "USPS COLLECTION BOX - PO LOBBY", "note": "ON 12/24 AND 12/31, THIS BOX MAY BE COLLECTED AS EARLY AS 12 NOON.", "ref": "7689000001"}, "type": "Feature"}
{"geometry": {"coordinates": [-98.794556296, 31.675549087], "type": "Point"}, "id": "cjS2N_1hTCY8cerBIcdFHrtBZ1Q=", "properties": {"@spider": "usps_collection_boxes", "addr:city": "ZEPHYR", "addr:country": "US", "addr:full": "11680 HIGHWAY 84 E", "addr:postcode": "76890", "addr:state": "TX", "brand": "USPS", "brand:wikidata": "Q668687", "collection_times": "Mo-Fr 16:00", "name": "USPS COLLECTION BOX - PO LOBBY", "note": "ON 12/24 AND 12/31, THIS BOX MAY BE COLLECTED AS EARLY AS 12 NOON.", "ref": "7689000002"}, "type": "Feature"}
