{"geometry": {"coordinates": [-100.465216, 31.452085], "type": "Point"}, "id": "9CVjusNw9gLxna5oN76ef8ysxEI=", "properties": {"@source_uri": "https://tools.usps.com/UspsToolsRestServices/rest/POLocator/findLocations", "@spider": "usps_collection_boxes", "addr:city": "SAN ANGELO", "addr:country": "US", "addr:postcode": "76901", "addr:state": "TX", "addr:street_address": "2126 W HARRIS AVE", "amenity": "post_box", "collection_times": "Mo-Sa 16:15", "note": "ON 12/24 AND 12/31, THIS BOX MAY BE COLLECTED AS EARLY AS 12 NOON.", "nsi_id": "unitedstatespostalservice-a77078", "operator": "United States Postal Service", "operator:short": "USPS", "operator:type": "public", "operator:wikidata": "Q668687", "ref": "7690100002"}, "type": "Feature"}
{"geometry": {"coordinates": [-100.473127, 31.467626], "type": "Point"}, "id": "voyBYt3ohK3qSJO3IYoeAutQkMc=", "properties": {"@source_uri": "https://tools.usps.com/UspsToolsRestServices/rest/POLocator/findLocations", "@spider": "usps_collection_boxes", "addr:city": "SAN ANGELO", "addr:country": "US", "addr:postcode": "76901", "addr:state": "TX", "addr:street_address": "1616 HOWARD ST", "amenity": "post_box", "collection_times": "Mo-Fr 15:00; Sa 14:30", "note": "ON 12/24 AND 12/31, THIS BOX MAY BE COLLECTED AS EARLY AS 12 NOON.", "nsi_id": "unitedstatespostalservice-a77078", "operator": "United States Postal Service", "operator:short": "USPS", "operator:type": "public", "operator:wikidata": "Q668687", "ref": "7690100006"}, "type": "Feature"}
{"geometry": {"coordinates": [-100.463981, 31.45343], "type": "Point"}, "id": "X4vZSEtVqcH4A6WpnUV2ZioHkRM=", "properties": {"@source_uri": "https://tools.usps.com/UspsToolsRestServices/rest/POLocator/findLocations", "@spider": "usps_collection_boxes", "addr:city": "SAN ANGELO", "addr:country": "US", "addr:postcode": "76901", "addr:state": "TX", "addr:street_address": "20 HOWARD ST", "amenity": "post_box", "collection_times": "Mo-Fr 16:15; Sa 14:30", "note": "ON 12/24 AND 12/31, THIS BOX MAY BE COLLECTED AS EARLY AS 12 NOON.", "nsi_id": "unitedstatespostalservice-a77078", "operator": "United States Postal Service", "operator:short": "USPS", "operator:type": "public", "operator:wikidata": "Q668687", "ref": "7690100008"}, "type": "Feature"}
{"geometry": {"coordinates": [-100.479733, 31.446267], "type": "Point"}, "id": "YewJiL4nFsZPI0bfKSTOcBxhVF8=", "properties": {"@source_uri": "https://tools.usps.com/UspsToolsRestServices/rest/POLocator/findLocations", "@spider": "usps_collection_boxes", "addr:city": "SAN ANGELO", "addr:country": "US", "addr:postcode": "76901", "addr:state": "TX", "addr:street_address": "3270 SHERWOOD WAY", "amenity": "post_box", "collection_times": "Mo-Fr 16:15; Sa 16:00", "note": "ON 12/24 AND 12/31, THIS BOX MAY BE COLLECTED AS EARLY AS 12 NOON.", "nsi_id": "unitedstatespostalservice-a77078", "operator": "United States Postal Service", "operator:short": "USPS", "operator:type": "public", "operator:wikidata": "Q668687", "ref": "7690100009"}, "type": "Feature"}
{"geometry": {"coordinates": [-100.4543889595, 31.4565409866], "type": "Point"}, "id": "YG8-stwRjKXBDOZSCBAzIL6Y6rU=", "properties": {"@source_uri": "https://tools.usps.com/UspsToolsRestServices/rest/POLocator/findLocations", "@spider": "usps_collection_boxes", "addr:city": "SAN ANGELO", "addr:country": "US", "addr:postcode": "76901", "addr:state": "TX", "addr:street_address": "1300 W BEAUREGARD AVE", "amenity": "post_box", "collection_times": "Mo-Fr 16:15", "note": "ON 12/24 AND 12/31, THIS BOX MAY BE COLLECTED AS EARLY AS 12 NOON.", "nsi_id": "unitedstatespostalservice-a77078", "operator": "United States Postal Service", "operator:short": "USPS", "operator:type": "public", "operator:wikidata": "Q668687", "ref": "7690100011"}, "type": "Feature"}
{"geometry": {"coordinates": [-100.487919, 31.440732], "type": "Point"}, "id": "2Vs4pHwROaHFMu5Po4EK53PWx90=", "properties": {"@source_uri": "https://tools.usps.com/UspsToolsRestServices/rest/POLocator/findLocations", "@spider": "usps_collection_boxes", "addr:city": "SAN ANGELO", "addr:country": "US", "addr:postcode": "76901", "addr:state": "TX", "addr:street_address": "3901 SHERWOOD WAY", "amenity": "post_box", "collection_times": "Mo-Sa 15:45", "note": "ON 12/24 AND 12/31, THIS BOX MAY BE COLLECTED AS EARLY AS 12 NOON.", "nsi_id": "unitedstatespostalservice-a77078", "operator": "United States Postal Service", "operator:short": "USPS", "operator:type": "public", "operator:wikidata": "Q668687", "ref": "7690100012"}, "type": "Feature"}
{"geometry": {"coordinates": [-100.444750821, 31.462111762], "type": "Point"}, "id": "JQjsLj1C9Rnd76cwYgCoKlsvZOs=", "properties": {"@source_uri": "https://tools.usps.com/UspsToolsRestServices/rest/POLocator/findLocations", "@spider": "usps_collection_boxes", "addr:city": "SAN ANGELO", "addr:country": "US", "addr:postcode": "76901", "addr:state": "TX", "addr:street_address": "1 N ABE ST", "amenity": "post_box", "collection_times": "Mo-Fr 17:00; Sa 16:30", "indoor": "yes", "note": "ON 12/24 AND 12/31, THIS BOX MAY BE COLLECTED AS EARLY AS 12 NOON.", "nsi_id": "unitedstatespostalservice-a77078", "operator": "United States Postal Service", "operator:short": "USPS", "operator:type": "public", "operator:wikidata": "Q668687", "ref": "7690100015"}, "type": "Feature"}
{"geometry": {"coordinates": [-100.4496661031, 31.4262846937], "type": "Point"}, "id": "qsOyKjseEFwhNHNQ5QHVE_Lhg2c=", "properties": {"@source_uri": "https://tools.usps.com/UspsToolsRestServices/rest/POLocator/findLocations", "@spider": "usps_collection_boxes", "addr:city": "SAN ANGELO", "addr:country": "US", "addr:postcode": "76901", "addr:state": "TX", "addr:street_address": "4258 S JACKSON", "amenity": "post_box", "collection_times": "Mo-Fr 15:00", "note": "ON 12/24 AND 12/31, THIS BOX MAY BE COLLECTED AS EARLY AS 12 NOON.", "nsi_id": "unitedstatespostalservice-a77078", "operator": "United States Postal Service", "operator:short": "USPS", "operator:type": "public", "operator:wikidata": "Q668687", "ref": "7690100017"}, "type": "Feature"}
{"geometry": {"coordinates": [-100.4422006025, 31.4607867545], "type": "Point"}, "id": "Key9COdMzCK34kf7YzVxvFHpfl0=", "properties": {"@source_uri": "https://tools.usps.com/UspsToolsRestServices/rest/POLocator/findLocations", "@spider": "usps_collection_boxes", "addr:city": "SAN ANGELO", "addr:country": "US", "addr:postcode": "76903", "addr:state": "TX", "addr:street_address": "101 S KOENIGHEIM ST", "amenity": "post_box", "collection_times": "Mo-Fr 16:30", "note": "ON 12/24 AND 12/31, THIS BOX MAY BE COLLECTED AS EARLY AS 12 NOON.", "nsi_id": "unitedstatespostalservice-a77078", "operator": "United States Postal Service", "operator:short": "USPS", "operator:type": "public", "operator:wikidata": "Q668687", "ref": "7690300000"}, "type": "Feature"}
{"geometry": {"coordinates": [-100.438514, 31.458543], "type": "Point"}, "id": "wI4IkjJ_5nhL2WUaBO0Dh0Kd4Ro=", "properties": {"@source_uri": "https://tools.usps.com/UspsToolsRestServices/rest/POLocator/findLocations", "@spider": "usps_collection_boxes", "addr:city": "SAN ANGELO", "addr:country": "US", "addr:postcode": "76903", "addr:state": "TX", "addr:street_address": "133 W CONCHO AVE", "amenity": "post_box", "collection_times": "Mo-Fr 09:00", "nsi_id": "unitedstatespostalservice-a77078", "operator": "United States Postal Service", "operator:short": "USPS", "operator:type": "public", "operator:wikidata": "Q668687", "ref": "7690300004"}, "type": "Feature"}
{"geometry": {"coordinates": [-100.439151, 31.46475], "type": "Point"}, "id": "TyCbFhl3u_e3pMovVcnnIc0DKGA=", "properties": {"@source_uri": "https://tools.usps.com/UspsToolsRestServices/rest/POLocator/findLocations", "@spider": "usps_collection_boxes", "addr:city": "SAN ANGELO", "addr:country": "US", "addr:postcode": "76903", "addr:state": "TX", "addr:street_address": "52 W COLLEGE AVE", "amenity": "post_box", "collection_times": "Mo-Fr 16:15", "note": "ON 12/24 AND 12/31, THIS BOX MAY BE COLLECTED AS EARLY AS 12 NOON.", "nsi_id": "unitedstatespostalservice-a77078", "operator": "United States Postal Service", "operator:short": "USPS", "operator:type": "public", "operator:wikidata": "Q668687", "ref": "7690300006"}, "type": "Feature"}
{"geometry": {"coordinates": [-100.4414008, 31.4761504], "type": "Point"}, "id": "eqlUH1CjsIUnweseUS_gI2g9MEw=", "properties": {"@source_uri": "https://tools.usps.com/UspsToolsRestServices/rest/POLocator/findLocations", "@spider": "usps_collection_boxes", "addr:city": "SAN ANGELO", "addr:country": "US", "addr:postcode": "76903", "addr:state": "TX", "addr:street_address": "113 W BEAUREGARD AVE", "amenity": "post_box", "collection_times": "Mo-Fr 16:15", "note": "ON 12/24 AND 12/31, THIS BOX MAY BE COLLECTED AS EARLY AS 12 NOON.", "nsi_id": "unitedstatespostalservice-a77078", "operator": "United States Postal Service", "operator:short": "USPS", "operator:type": "public", "operator:wikidata": "Q668687", "ref": "7690300009"}, "type": "Feature"}
{"geometry": {"coordinates": [-100.434519, 31.461721], "type": "Point"}, "id": "_yrYflLICnxQGK3xtHYOWaROh34=", "properties": {"@source_uri": "https://tools.usps.com/UspsToolsRestServices/rest/POLocator/findLocations", "@spider": "usps_collection_boxes", "addr:city": "SAN ANGELO", "addr:country": "US", "addr:postcode": "76903", "addr:state": "TX", "addr:street_address": "33 E TWOHIG AVE", "amenity": "post_box", "collection_times": "Mo-Fr 16:00", "note": "ON 12/24 AND 12/31, THIS BOX MAY BE COLLECTED AS EARLY AS 12 NOON.", "nsi_id": "unitedstatespostalservice-a77078", "operator": "United States Postal Service", "operator:short": "USPS", "operator:type": "public", "operator:wikidata": "Q668687", "ref": "7690300011"}, "type": "Feature"}
{"geometry": {"coordinates": [-100.432106, 31.477547], "type": "Point"}, "id": "mLBU0wdFhThxokbc5zWSu4_v0ak=", "properties": {"@source_uri": "https://tools.usps.com/UspsToolsRestServices/rest/POLocator/findLocations", "@spider": "usps_collection_boxes", "addr:city": "SAN ANGELO", "addr:country": "US", "addr:postcode": "76903", "addr:state": "TX", "addr:street_address": "902 N MAIN ST", "amenity": "post_box", "collection_times": "Mo-Fr 15:45", "note": "ON 12/24 AND 12/31, THIS BOX MAY BE COLLECTED AS EARLY AS 12 NOON.", "nsi_id": "unitedstatespostalservice-a77078", "operator": "United States Postal Service", "operator:short": "USPS", "operator:type": "public", "operator:wikidata": "Q668687", "ref": "7690300014"}, "type": "Feature"}
{"geometry": {"coordinates": [-100.437283, 31.482225], "type": "Point"}, "id": "R3dP82N30LJ3KzY6hklGvMFX5o8=", "properties": {"@source_uri": "https://tools.usps.com/UspsToolsRestServices/rest/POLocator/findLocations", "@spider": "usps_collection_boxes", "addr:city": "SAN ANGELO", "addr:country": "US", "addr:postcode": "76903", "addr:state": "TX", "addr:street_address": "726 E 19TH ST", "amenity": "post_box", "collection_times": "Mo-Fr 15:30; Sa 14:45", "note": "ON 12/24 AND 12/31, THIS BOX MAY BE COLLECTED AS EARLY AS 12 NOON.", "nsi_id": "unitedstatespostalservice-a77078", "operator": "United States Postal Service", "operator:short": "USPS", "operator:type": "public", "operator:wikidata": "Q668687", "ref": "7690300015"}, "type": "Feature"}
{"geometry": {"coordinates": [-100.4351170363, 31.445767014], "type": "Point"}, "id": "YU5ufyxKjWcETYkkwAccBLBSraw=", "properties": {"@source_uri": "https://tools.usps.com/UspsToolsRestServices/rest/POLocator/findLocations", "@spider": "usps_collection_boxes", "addr:city": "SAN ANGELO", "addr:country": "US", "addr:postcode": "76903", "addr:state": "TX", "addr:street_address": "1505 S CHADBOURNE ST", "amenity": "post_box", "collection_times": "Mo-Sa 15:00", "note": "ON 12/24 AND 12/31, THIS BOX MAY BE COLLECTED AS EARLY AS 12 NOON.", "nsi_id": "unitedstatespostalservice-a77078", "operator": "United States Postal Service", "operator:short": "USPS", "operator:type": "public", "operator:wikidata": "Q668687", "ref": "7690300024"}, "type": "Feature"}
{"geometry": {"coordinates": [-100.4422182969, 31.4466238445], "type": "Point"}, "id": "6pca5DGChrCvhIBZVITbrl0Ec9k=", "properties": {"@source_uri": "https://tools.usps.com/UspsToolsRestServices/rest/POLocator/findLocations", "@spider": "usps_collection_boxes", "addr:city": "SAN ANGELO", "addr:country": "US", "addr:postcode": "76903", "addr:state": "TX", "addr:street_address": "1415 S BRYANT BLVD", "amenity": "post_box", "collection_times": "Mo-Fr 15:45", "note": "ON 12/24 AND 12/31, THIS BOX MAY BE COLLECTED AS EARLY AS 12 NOON.", "nsi_id": "unitedstatespostalservice-a77078", "operator": "United States Postal Service", "operator:short": "USPS", "operator:type": "public", "operator:wikidata": "Q668687", "ref": "7690300026"}, "type": "Feature"}
{"geometry": {"coordinates": [-100.444945, 31.461856], "type": "Point"}, "id": "-O6kuTwMtvUPTjC_BirV4HBL1Xw=", "properties": {"@source_uri": "https://tools.usps.com/UspsToolsRestServices/rest/POLocator/findLocations", "@spider": "usps_collection_boxes", "addr:city": "SAN ANGELO", "addr:country": "US", "addr:postcode": "76903", "addr:state": "TX", "addr:street_address": "1 N ABE ST", "amenity": "post_box", "collection_times": "Mo-Fr 17:00; Sa 16:30", "note": "ON 12/24 AND 12/31, THIS BOX MAY BE COLLECTED AS EARLY AS 12 NOON.", "nsi_id": "unitedstatespostalservice-a77078", "operator": "United States Postal Service", "operator:short": "USPS", "operator:type": "public", "operator:wikidata": "Q668687", "ref": "7690300054"}, "type": "Feature"}
{"geometry": {"coordinates": [-100.444826, 31.461846], "type": "Point"}, "id": "EnyOhCkizt9ieZnxEVdaa8fy6_E=", "properties": {"@source_uri": "https://tools.usps.com/UspsToolsRestServices/rest/POLocator/findLocations", "@spider": "usps_collection_boxes", "addr:city": "SAN ANGELO", "addr:country": "US", "addr:postcode": "76903", "addr:state": "TX", "addr:street_address": "1 N ABE ST", "amenity": "post_box", "collection_times": "Mo-Fr 17:00; Sa 16:30", "indoor": "yes", "note": "ON 12/24 AND 12/31, THIS BOX MAY BE COLLECTED AS EARLY AS 12 NOON.", "nsi_id": "unitedstatespostalservice-a77078", "operator": "United States Postal Service", "operator:short": "USPS", "operator:type": "public", "operator:wikidata": "Q668687", "ref": "7690300056"}, "type": "Feature"}
{"geometry": {"coordinates": [-100.44484, 31.461841], "type": "Point"}, "id": "rLgHu99nglM-eCEI3gEZ6OcXN6I=", "properties": {"@source_uri": "https://tools.usps.com/UspsToolsRestServices/rest/POLocator/findLocations", "@spider": "usps_collection_boxes", "addr:city": "SAN ANGELO", "addr:country": "US", "addr:postcode": "76903", "addr:state": "TX", "addr:street_address": "1 N ABE ST", "amenity": "post_box", "collection_times": "Mo-Fr 17:00; Sa 16:30", "indoor": "yes", "note": "ON 12/24 AND 12/31, THIS BOX MAY BE COLLECTED AS EARLY AS 12 NOON.", "nsi_id": "unitedstatespostalservice-a77078", "operator": "United States Postal Service", "operator:short": "USPS", "operator:type": "public", "operator:wikidata": "Q668687", "ref": "7690300057"}, "type": "Feature"}
{"geometry": {"coordinates": [-100.444796, 31.461847], "type": "Point"}, "id": "LsNj3BOCIy9itpXFu-BpqbeQ9Bk=", "properties": {"@source_uri": "https://tools.usps.com/UspsToolsRestServices/rest/POLocator/findLocations", "@spider": "usps_collection_boxes", "addr:city": "SAN ANGELO", "addr:country": "US", "addr:postcode": "76903", "addr:state": "TX", "addr:street_address": "1 N ABE ST", "amenity": "post_box", "collection_times": "Mo-Fr 17:00; Sa 16:30", "indoor": "yes", "note": "ON 12/24 AND 12/31, THIS BOX MAY BE COLLECTED AS EARLY AS 12 NOON.", "nsi_id": "unitedstatespostalservice-a77078", "operator": "United States Postal Service", "operator:short": "USPS", "operator:type": "public", "operator:wikidata": "Q668687", "ref": "7690300059"}, "type": "Feature"}
{"geometry": {"coordinates": [-100.434597, 31.464902], "type": "Point"}, "id": "APOQ2yFfW3K2-WFshFcCj5g4YSA=", "properties": {"@source_uri": "https://tools.usps.com/UspsToolsRestServices/rest/POLocator/findLocations", "@spider": "usps_collection_boxes", "addr:city": "SAN ANGELO", "addr:country": "US", "addr:postcode": "76903", "addr:state": "TX", "addr:street_address": "120 E HARRIS AVE", "amenity": "post_box", "collection_times": "Mo-Sa 15:00", "note": "ON 12/24 AND 12/31, THIS BOX MAY BE COLLECTED AS EARLY AS 12 NOON.", "nsi_id": "unitedstatespostalservice-a77078", "operator": "United States Postal Service", "operator:short": "USPS", "operator:type": "public", "operator:wikidata": "Q668687", "ref": "7690300061"}, "type": "Feature"}
{"geometry": {"coordinates": [-100.444856, 31.461866], "type": "Point"}, "id": "dm4d5ydX_uH-I-gDb7WfyahUL0w=", "properties": {"@source_uri": "https://tools.usps.com/UspsToolsRestServices/rest/POLocator/findLocations", "@spider": "usps_collection_boxes", "addr:city": "SAN ANGELO", "addr:country": "US", "addr:postcode": "76903", "addr:state": "TX", "addr:street_address": "1 N ABE ST", "amenity": "post_box", "collection_times": "Mo-Fr 17:00; Sa 16:30", "name": "USPS COLLECTION BOX - APC", "note": "ON 12/24 AND 12/31, THIS BOX MAY BE COLLECTED AS EARLY AS 12 NOON.", "nsi_id": "unitedstatespostalservice-a77078", "operator": "United States Postal Service", "operator:short": "USPS", "operator:type": "public", "operator:wikidata": "Q668687", "ref": "7690300063"}, "type": "Feature"}
{"geometry": {"coordinates": [-100.460532, 31.485286], "type": "Point"}, "id": "DevN4O8XuJA4MjZrPolu87yUi4s=", "properties": {"@source_uri": "https://tools.usps.com/UspsToolsRestServices/rest/POLocator/findLocations", "@spider": "usps_collection_boxes", "addr:city": "SAN ANGELO", "addr:country": "US", "addr:postcode": "76903", "addr:state": "TX", "addr:street_address": "623 W 29TH ST", "amenity": "post_box", "collection_times": "Mo-Fr 15:30; Sa 14:30", "note": "ON 12/24 AND 12/31, THIS BOX MAY BE COLLECTED AS EARLY AS 12 NOON.", "nsi_id": "unitedstatespostalservice-a77078", "operator": "United States Postal Service", "operator:short": "USPS", "operator:type": "public", "operator:wikidata": "Q668687", "ref": "7690300064"}, "type": "Feature"}
{"geometry": {"coordinates": [-100.5007807, 31.4167963], "type": "Point"}, "id": "3salj7znUKBjepeeVPmjPK3WaOc=", "properties": {"@source_uri": "https://tools.usps.com/UspsToolsRestServices/rest/POLocator/findLocations", "@spider": "usps_collection_boxes", "addr:city": "SAN ANGELO", "addr:country": "US", "addr:postcode": "76904", "addr:state": "TX", "addr:street_address": "2311 SOUTHLAND", "amenity": "post_box", "collection_times": "Mo-Fr 15:45", "note": "ON 12/24 AND 12/31, THIS BOX MAY BE COLLECTED AS EARLY AS 12 NOON.", "nsi_id": "unitedstatespostalservice-a77078", "operator": "United States Postal Service", "operator:short": "USPS", "operator:type": "public", "operator:wikidata": "Q668687", "ref": "7690400007"}, "type": "Feature"}
{"geometry": {"coordinates": [-100.4584000355, 31.4276199841], "type": "Point"}, "id": "UqIYm_3Ij14L1fDSK1MVNSwbxaU=", "properties": {"@source_uri": "https://tools.usps.com/UspsToolsRestServices/rest/POLocator/findLocations", "@spider": "usps_collection_boxes", "addr:city": "SAN ANGELO", "addr:country": "US", "addr:postcode": "76904", "addr:state": "TX", "addr:street_address": "1821 KNICKERBOCKER RD", "amenity": "post_box", "collection_times": "Mo-Fr 16:00; Sa 15:30", "note": "ON 12/24 AND 12/31, THIS BOX MAY BE COLLECTED AS EARLY AS 12 NOON.", "nsi_id": "unitedstatespostalservice-a77078", "operator": "United States Postal Service", "operator:short": "USPS", "operator:type": "public", "operator:wikidata": "Q668687", "ref": "7690400022"}, "type": "Feature"}
{"geometry": {"coordinates": [-100.479874, 31.436744], "type": "Point"}, "id": "aGWzayeYekvE9oyY_oMFuL8fl-k=", "properties": {"@source_uri": "https://tools.usps.com/UspsToolsRestServices/rest/POLocator/findLocations", "@spider": "usps_collection_boxes", "addr:city": "SAN ANGELO", "addr:country": "US", "addr:postcode": "76904", "addr:state": "TX", "addr:street_address": "2425 COLLEGE HILLS BLVD", "amenity": "post_box", "collection_times": "Mo-Fr 16:15; Sa 16:00", "note": "ON 12/24 AND 12/31, THIS BOX MAY BE COLLECTED AS EARLY AS 12 NOON.", "nsi_id": "unitedstatespostalservice-a77078", "operator": "United States Postal Service", "operator:short": "USPS", "operator:type": "public", "operator:wikidata": "Q668687", "ref": "7690400028"}, "type": "Feature"}
{"geometry": {"coordinates": [-100.471024, 31.420785], "type": "Point"}, "id": "BFREPq40go-nJwTw4PK9iDhYQ5w=", "properties": {"@source_uri": "https://tools.usps.com/UspsToolsRestServices/rest/POLocator/findLocations", "@spider": "usps_collection_boxes", "addr:city": "SAN ANGELO", "addr:country": "US", "addr:postcode": "76904", "addr:state": "TX", "addr:street_address": "2300 SUNSET DR", "amenity": "post_box", "collection_times": "Mo-Fr 16:00; Sa 15:30", "note": "ON 12/24 AND 12/31, THIS BOX MAY BE COLLECTED AS EARLY AS 12 NOON.", "nsi_id": "unitedstatespostalservice-a77078", "operator": "United States Postal Service", "operator:short": "USPS", "operator:type": "public", "operator:wikidata": "Q668687", "ref": "7690400030"}, "type": "Feature"}
{"geometry": {"coordinates": [-100.464375, 31.431596], "type": "Point"}, "id": "oZh058KlPLPkiqmLalYUjq6rCLc=", "properties": {"@source_uri": "https://tools.usps.com/UspsToolsRestServices/rest/POLocator/findLocations", "@spider": "usps_collection_boxes", "addr:city": "SAN ANGELO", "addr:country": "US", "addr:postcode": "76904", "addr:state": "TX", "addr:street_address": "2701 JOHNSON AVE", "amenity": "post_box", "collection_times": "Mo-Sa 11:30", "nsi_id": "unitedstatespostalservice-a77078", "operator": "United States Postal Service", "operator:short": "USPS", "operator:type": "public", "operator:wikidata": "Q668687", "ref": "7690400033"}, "type": "Feature"}
{"geometry": {"coordinates": [-100.460516, 31.4147], "type": "Point"}, "id": "n1DW6604IU70a9Aot4UdSFRdQwA=", "properties": {"@source_uri": "https://tools.usps.com/UspsToolsRestServices/rest/POLocator/findLocations", "@spider": "usps_collection_boxes", "addr:city": "SAN ANGELO", "addr:country": "US", "addr:postcode": "76904", "addr:state": "TX", "addr:street_address": "1701 SUNSET DR", "amenity": "post_box", "collection_times": "Mo-Fr 15:45; Sa 15:30", "note": "ON 12/24 AND 12/31, THIS BOX MAY BE COLLECTED AS EARLY AS 12 NOON.", "nsi_id": "unitedstatespostalservice-a77078", "operator": "United States Postal Service", "operator:short": "USPS", "operator:type": "public", "operator:wikidata": "Q668687", "ref": "7690400034"}, "type": "Feature"}
{"geometry": {"coordinates": [-100.488907, 31.421321], "type": "Point"}, "id": "rB0lICCxqK0nSV_zqvR_Ii6RgPY=", "properties": {"@source_uri": "https://tools.usps.com/UspsToolsRestServices/rest/POLocator/findLocations", "@spider": "usps_collection_boxes", "addr:city": "SAN ANGELO", "addr:country": "US", "addr:postcode": "76904", "addr:state": "TX", "addr:street_address": "3201 LOOP 306", "amenity": "post_box", "collection_times": "Mo-Fr 16:15; Sa 15:30", "indoor": "yes", "note": "ON 12/24 AND 12/31, THIS BOX MAY BE COLLECTED AS EARLY AS 12 NOON.", "nsi_id": "unitedstatespostalservice-a77078", "operator": "United States Postal Service", "operator:short": "USPS", "operator:type": "public", "operator:wikidata": "Q668687", "ref": "7690400035"}, "type": "Feature"}
{"geometry": {"coordinates": [-100.488797, 31.421313], "type": "Point"}, "id": "0TvzL4GZG3OUolwT8QBKtIqwW4c=", "properties": {"@source_uri": "https://tools.usps.com/UspsToolsRestServices/rest/POLocator/findLocations", "@spider": "usps_collection_boxes", "addr:city": "SAN ANGELO", "addr:country": "US", "addr:postcode": "76904", "addr:state": "TX", "addr:street_address": "3201 LOOP 306", "amenity": "post_box", "collection_times": "Mo-Fr 16:15; Sa 15:30", "indoor": "yes", "note": "ON 12/24 AND 12/31, THIS BOX MAY BE COLLECTED AS EARLY AS 12 NOON.", "nsi_id": "unitedstatespostalservice-a77078", "operator": "United States Postal Service", "operator:short": "USPS", "operator:type": "public", "operator:wikidata": "Q668687", "ref": "7690400036"}, "type": "Feature"}
{"geometry": {"coordinates": [-100.5007807, 31.4167963], "type": "Point"}, "id": "3ysVmS0g4LYdH7BR3cwd9AjwDnE=", "properties": {"@source_uri": "https://tools.usps.com/UspsToolsRestServices/rest/POLocator/findLocations", "@spider": "usps_collection_boxes", "addr:city": "SAN ANGELO", "addr:country": "US", "addr:postcode": "76904", "addr:state": "TX", "addr:street_address": "3201 LOOP 306", "amenity": "post_box", "collection_times": "Mo-Fr 16:15; Sa 15:45", "note": "ON 12/24 AND 12/31, THIS BOX MAY BE COLLECTED AS EARLY AS 12 NOON.", "nsi_id": "unitedstatespostalservice-a77078", "operator": "United States Postal Service", "operator:short": "USPS", "operator:type": "public", "operator:wikidata": "Q668687", "ref": "7690400038"}, "type": "Feature"}
{"geometry": {"coordinates": [-100.488797, 31.421313], "type": "Point"}, "id": "NwJdgP77uchD3RTURrB1j09csIM=", "properties": {"@source_uri": "https://tools.usps.com/UspsToolsRestServices/rest/POLocator/findLocations", "@spider": "usps_collection_boxes", "addr:city": "SAN ANGELO", "addr:country": "US", "addr:postcode": "76904", "addr:state": "TX", "addr:street_address": "3201 LOOP 306", "amenity": "post_box", "collection_times": "Mo-Fr 16:15; Sa 15:30", "name": "USPS COLLECTION BOX - APC", "note": "ON 12/24 AND 12/31, THIS BOX MAY BE COLLECTED AS EARLY AS 12 NOON.", "nsi_id": "unitedstatespostalservice-a77078", "operator": "United States Postal Service", "operator:short": "USPS", "operator:type": "public", "operator:wikidata": "Q668687", "ref": "7690400040"}, "type": "Feature"}
{"geometry": {"coordinates": [-100.488811447, 31.421283574], "type": "Point"}, "id": "yP31YHgXbIxfhJf27c3H7wsTN_Q=", "properties": {"@source_uri": "https://tools.usps.com/UspsToolsRestServices/rest/POLocator/findLocations", "@spider": "usps_collection_boxes", "addr:city": "SAN ANGELO", "addr:country": "US", "addr:postcode": "76904", "addr:state": "TX", "addr:street_address": "3201 LOOP 306", "amenity": "post_box", "collection_times": "Mo-Fr 16:30", "indoor": "yes", "note": "ON 12/24 AND 12/31, THIS BOX MAY BE COLLECTED AS EARLY AS 12 NOON.", "nsi_id": "unitedstatespostalservice-a77078", "operator": "United States Postal Service", "operator:short": "USPS", "operator:type": "public", "operator:wikidata": "Q668687", "ref": "7690400048"}, "type": "Feature"}
{"geometry": {"coordinates": [-100.402724, 31.471529], "type": "Point"}, "id": "HVHDysMwaBma459N55H_kRwrsJ8=", "properties": {"@source_uri": "https://tools.usps.com/UspsToolsRestServices/rest/POLocator/findLocations", "@spider": "usps_collection_boxes", "addr:city": "SAN ANGELO", "addr:country": "US", "addr:postcode": "76905", "addr:state": "TX", "addr:street_address": "2018 PULLIAM ST", "amenity": "post_box", "collection_times": "Mo-Fr 10:00", "nsi_id": "unitedstatespostalservice-a77078", "operator": "United States Postal Service", "operator:short": "USPS", "operator:type": "public", "operator:wikidata": "Q668687", "ref": "7690500001"}, "type": "Feature"}
{"geometry": {"coordinates": [-100.413168, 31.476362], "type": "Point"}, "id": "u93JDECEZ65Kj1oDzNR8I36NSTI=", "properties": {"@source_uri": "https://tools.usps.com/UspsToolsRestServices/rest/POLocator/findLocations", "@spider": "usps_collection_boxes", "addr:city": "SAN ANGELO", "addr:country": "US", "addr:postcode": "76905", "addr:state": "TX", "addr:street_address": "1606 LA FOLLETTE ST", "amenity": "post_box", "collection_times": "Mo-Fr 15:00; Sa 14:45", "note": "ON 12/24 AND 12/31, THIS BOX MAY BE COLLECTED AS EARLY AS 12 NOON.", "nsi_id": "unitedstatespostalservice-a77078", "operator": "United States Postal Service", "operator:short": "USPS", "operator:type": "public", "operator:wikidata": "Q668687", "ref": "7690500005"}, "type": "Feature"}
{"geometry": {"coordinates": [-100.4125500255, 31.4326227176], "type": "Point"}, "id": "EwYBtu-URvxolOy1GD_PIovLZ_c=", "properties": {"@source_uri": "https://tools.usps.com/UspsToolsRestServices/rest/POLocator/findLocations", "@spider": "usps_collection_boxes", "addr:city": "SAN ANGELO", "addr:country": "US", "addr:postcode": "76908", "addr:state": "TX", "addr:street_address": "161 NUCHOLS ST", "amenity": "post_box", "collection_times": "Mo-Fr 16:15; Sa 15:15", "note": "ON 12/24 AND 12/31, THIS BOX MAY BE COLLECTED AS EARLY AS 12 NOON.", "nsi_id": "unitedstatespostalservice-a77078", "operator": "United States Postal Service", "operator:short": "USPS", "operator:type": "public", "operator:wikidata": "Q668687", "ref": "7690800001"}, "type": "Feature"}
{"geometry": {"coordinates": [-100.4093485251, 31.4277786982], "type": "Point"}, "id": "hTYLythzzyyzpLJatM_5_e0IpI4=", "properties": {"@source_uri": "https://tools.usps.com/UspsToolsRestServices/rest/POLocator/findLocations", "@spider": "usps_collection_boxes", "addr:city": "SAN ANGELO", "addr:country": "US", "addr:postcode": "76908", "addr:state": "TX", "addr:street_address": "110 VALIANT ST", "amenity": "post_box", "collection_times": "Mo-Fr 16:15; Sa 15:15", "note": "ON 12/24 AND 12/31, THIS BOX MAY BE COLLECTED AS EARLY AS 12 NOON.", "nsi_id": "unitedstatespostalservice-a77078", "operator": "United States Postal Service", "operator:short": "USPS", "operator:type": "public", "operator:wikidata": "Q668687", "ref": "7690800002"}, "type": "Feature"}
{"geometry": {"coordinates": [-100.4099609108, 31.4334724766], "type": "Point"}, "id": "sqlOV8ICeCBkfHBJigt8hfbtlhM=", "properties": {"@source_uri": "https://tools.usps.com/UspsToolsRestServices/rest/POLocator/findLocations", "@spider": "usps_collection_boxes", "addr:city": "SAN ANGELO", "addr:country": "US", "addr:postcode": "76908", "addr:state": "TX", "addr:street_address": "313 KEARNEY BLVD", "amenity": "post_box", "collection_times": "Mo-Fr 16:15; Sa 15:15", "note": "ON 12/24 AND 12/31, THIS BOX MAY BE COLLECTED AS EARLY AS 12 NOON.", "nsi_id": "unitedstatespostalservice-a77078", "operator": "United States Postal Service", "operator:short": "USPS", "operator:type": "public", "operator:wikidata": "Q668687", "ref": "7690800004"}, "type": "Feature"}
{"geometry": {"coordinates": [-101.1714760313, 31.1281689914], "type": "Point"}, "id": "Pd8-UoQumc6qfPrQ9Ze2qgMnZr8=", "properties": {"@source_uri": "https://tools.usps.com/UspsToolsRestServices/rest/POLocator/findLocations", "@spider": "usps_collection_boxes", "addr:city": "BARNHART", "addr:country": "US", "addr:postcode": "76930", "addr:state": "TX", "addr:street_address": "133 MAIN ST", "amenity": "post_box", "collection_times": "Mo-Fr 15:30; Sa 08:15", "note": "ON 12/24 AND 12/31, THIS BOX MAY BE COLLECTED AS EARLY AS 12 NOON.", "nsi_id": "unitedstatespostalservice-a77078", "operator": "United States Postal Service", "operator:short": "USPS", "operator:type": "public", "operator:wikidata": "Q668687", "ref": "7693000000"}, "type": "Feature"}
{"geometry": {"coordinates": [-101.1714760313, 31.1281689914], "type": "Point"}, "id": "QND6bhUXKWK21YzEMXJSNPMCLkk=", "properties": {"@source_uri": "https://tools.usps.com/UspsToolsRestServices/rest/POLocator/findLocations", "@spider": "usps_collection_boxes", "addr:city": "BARNHART", "addr:country": "US", "addr:postcode": "76930", "addr:state": "TX", "addr:street_address": "133 MAIN ST", "amenity": "post_box", "collection_times": "Mo-Fr 15:30; Sa 08:15", "indoor": "yes", "note": "ON 12/24 AND 12/31, THIS BOX MAY BE COLLECTED AS EARLY AS 12 NOON.", "nsi_id": "unitedstatespostalservice-a77078", "operator": "United States Postal Service", "operator:short": "USPS", "operator:type": "public", "operator:wikidata": "Q668687", "ref": "7693000001"}, "type": "Feature"}
{"geometry": {"coordinates": [-101.1714760313, 31.1281689914], "type": "Point"}, "id": "YgVmkM2ET3wREdvoBO899NSv5zM=", "properties": {"@source_uri": "https://tools.usps.com/UspsToolsRestServices/rest/POLocator/findLocations", "@spider": "usps_collection_boxes", "addr:city": "BARNHART", "addr:country": "US", "addr:postcode": "76930", "addr:state": "TX", "addr:street_address": "133 MAIN ST", "amenity": "post_box", "collection_times": "Mo-Fr 15:30", "indoor": "yes", "note": "ON 12/24 AND 12/31, THIS BOX MAY BE COLLECTED AS EARLY AS 12 NOON.", "nsi_id": "unitedstatespostalservice-a77078", "operator": "United States Postal Service", "operator:short": "USPS", "operator:type": "public", "operator:wikidata": "Q668687", "ref": "7693000002"}, "type": "Feature"}
{"geometry": {"coordinates": [-101.463255, 31.191112], "type": "Point"}, "id": "Hrj0PITokaHDtaXChgHg2Xlr_ao=", "properties": {"@source_uri": "https://tools.usps.com/UspsToolsRestServices/rest/POLocator/findLocations", "@spider": "usps_collection_boxes", "addr:city": "BIG LAKE", "addr:country": "US", "addr:postcode": "76932", "addr:state": "TX", "addr:street_address": "210 E 2ND ST", "amenity": "post_box", "collection_times": "Mo-Fr 15:00; Sa 10:00", "note": "ON 12/24 AND 12/31, THIS BOX MAY BE COLLECTED AS EARLY AS 12 NOON.", "nsi_id": "unitedstatespostalservice-a77078", "operator": "United States Postal Service", "operator:short": "USPS", "operator:type": "public", "operator:wikidata": "Q668687", "ref": "7693200000"}, "type": "Feature"}
{"geometry": {"coordinates": [-101.461147, 31.192599], "type": "Point"}, "id": "z36Uk_PE5BPL2G1A5Xlm7b5WYOE=", "properties": {"@source_uri": "https://tools.usps.com/UspsToolsRestServices/rest/POLocator/findLocations", "@spider": "usps_collection_boxes", "addr:city": "BIG LAKE", "addr:country": "US", "addr:postcode": "76932", "addr:state": "TX", "addr:street_address": "300 COURT HOUSE SQ", "amenity": "post_box", "collection_times": "Mo-Fr 15:00; Sa 10:00", "note": "ON 12/24 AND 12/31, THIS BOX MAY BE COLLECTED AS EARLY AS 12 NOON.", "nsi_id": "unitedstatespostalservice-a77078", "operator": "United States Postal Service", "operator:short": "USPS", "operator:type": "public", "operator:wikidata": "Q668687", "ref": "7693200001"}, "type": "Feature"}
{"geometry": {"coordinates": [-101.463517, 31.191135], "type": "Point"}, "id": "tBMYvp5Se2OimuE77veodfx--jE=", "properties": {"@source_uri": "https://tools.usps.com/UspsToolsRestServices/rest/POLocator/findLocations", "@spider": "usps_collection_boxes", "addr:city": "BIG LAKE", "addr:country": "US", "addr:postcode": "76932", "addr:state": "TX", "addr:street_address": "210 E 2ND ST", "amenity": "post_box", "collection_times": "Mo-Fr 15:00; Sa 10:00", "indoor": "yes", "note": "ON 12/24 AND 12/31, THIS BOX MAY BE COLLECTED AS EARLY AS 12 NOON.", "nsi_id": "unitedstatespostalservice-a77078", "operator": "United States Postal Service", "operator:short": "USPS", "operator:type": "public", "operator:wikidata": "Q668687", "ref": "7693200004"}, "type": "Feature"}
{"geometry": {"coordinates": [-101.463514, 31.191162], "type": "Point"}, "id": "sAdzb7YZxIOb8YJCEk3mkyaX_gk=", "properties": {"@source_uri": "https://tools.usps.com/UspsToolsRestServices/rest/POLocator/findLocations", "@spider": "usps_collection_boxes", "addr:city": "BIG LAKE", "addr:country": "US", "addr:postcode": "76932", "addr:state": "TX", "addr:street_address": "210 E 2ND ST", "amenity": "post_box", "collection_times": "Mo-Fr 15:00; Sa 10:00", "indoor": "yes", "note": "ON 12/24 AND 12/31, THIS BOX MAY BE COLLECTED AS EARLY AS 12 NOON.", "nsi_id": "unitedstatespostalservice-a77078", "operator": "United States Postal Service", "operator:short": "USPS", "operator:type": "public", "operator:wikidata": "Q668687", "ref": "7693200005"}, "type": "Feature"}
{"geometry": {"coordinates": [-101.464114448, 31.191591511], "type": "Point"}, "id": "tPRw3_cyLPyVME5KpDcpSiEN7K8=", "properties": {"@source_uri": "https://tools.usps.com/UspsToolsRestServices/rest/POLocator/findLocations", "@spider": "usps_collection_boxes", "addr:city": "BIG LAKE", "addr:country": "US", "addr:postcode": "76932", "addr:state": "TX", "addr:street_address": "210 E 2ND ST", "amenity": "post_box", "collection_times": "Mo-Fr 15:15", "indoor": "yes", "note": "ON 12/24 AND 12/31, THIS BOX MAY BE COLLECTED AS EARLY AS 12 NOON.", "nsi_id": "unitedstatespostalservice-a77078", "operator": "United States Postal Service", "operator:short": "USPS", "operator:type": "public", "operator:wikidata": "Q668687", "ref": "7693200006"}, "type": "Feature"}
{"geometry": {"coordinates": [-100.299095, 31.887293], "type": "Point"}, "id": "2Z7GyF2fP4ecF9GKBtUEZZ1AAWE=", "properties": {"@source_uri": "https://tools.usps.com/UspsToolsRestServices/rest/POLocator/findLocations", "@spider": "usps_collection_boxes", "addr:city": "BRONTE", "addr:country": "US", "addr:postcode": "76933", "addr:state": "TX", "addr:street_address": "124 S WASHINGTON", "amenity": "post_box", "collection_times": "Mo-Fr 16:00; Sa 10:00", "note": "ON 12/24 AND 12/31, THIS BOX MAY BE COLLECTED AS EARLY AS 12 NOON.", "nsi_id": "unitedstatespostalservice-a77078", "operator": "United States Postal Service", "operator:short": "USPS", "operator:type": "public", "operator:wikidata": "Q668687", "ref": "7693300000"}, "type": "Feature"}
{"geometry": {"coordinates": [-100.299095, 31.887293], "type": "Point"}, "id": "kUxzfASMiN_p01qOwjJLP4NqCsM=", "properties": {"@source_uri": "https://tools.usps.com/UspsToolsRestServices/rest/POLocator/findLocations", "@spider": "usps_collection_boxes", "addr:city": "BRONTE", "addr:country": "US", "addr:postcode": "76933", "addr:state": "TX", "addr:street_address": "124 S WASHINGTON", "amenity": "post_box", "collection_times": "Mo-Fr 16:15; Sa 10:00", "indoor": "yes", "note": "ON 12/24 AND 12/31, THIS BOX MAY BE COLLECTED AS EARLY AS 12 NOON.", "nsi_id": "unitedstatespostalservice-a77078", "operator": "United States Postal Service", "operator:short": "USPS", "operator:type": "public", "operator:wikidata": "Q668687", "ref": "7693300001"}, "type": "Feature"}
{"geometry": {"coordinates": [-100.299095, 31.887293], "type": "Point"}, "id": "slBRjtR2OakUqjPjzclk8e86XfU=", "properties": {"@source_uri": "https://tools.usps.com/UspsToolsRestServices/rest/POLocator/findLocations", "@spider": "usps_collection_boxes", "addr:city": "BRONTE", "addr:country": "US", "addr:postcode": "76933", "addr:state": "TX", "addr:street_address": "124 S WASHINGTON", "amenity": "post_box", "collection_times": "Mo-Fr 16:25", "indoor": "yes", "note": "ON 12/24 AND 12/31, THIS BOX MAY BE COLLECTED AS EARLY AS 12 NOON.", "nsi_id": "unitedstatespostalservice-a77078", "operator": "United States Postal Service", "operator:short": "USPS", "operator:type": "public", "operator:wikidata": "Q668687", "ref": "7693300004"}, "type": "Feature"}
{"geometry": {"coordinates": [-100.645919, 31.611006], "type": "Point"}, "id": "fwDJfYTepM17qy6rMoFoob4nV3g=", "properties": {"@source_uri": "https://tools.usps.com/UspsToolsRestServices/rest/POLocator/findLocations", "@spider": "usps_collection_boxes", "addr:city": "CARLSBAD", "addr:country": "US", "addr:postcode": "76934", "addr:state": "TX", "addr:street_address": "11794 FORT WORTH ST", "amenity": "post_box", "collection_times": "Mo-Fr 15:30; Sa 09:00", "note": "ON 12/24 AND 12/31, THIS BOX MAY BE COLLECTED AS EARLY AS 12 NOON.", "nsi_id": "unitedstatespostalservice-a77078", "operator": "United States Postal Service", "operator:short": "USPS", "operator:type": "public", "operator:wikidata": "Q668687", "ref": "7693400000"}, "type": "Feature"}
{"geometry": {"coordinates": [-100.645949, 31.611089], "type": "Point"}, "id": "jHXbr3YVcRNNCvBtRr__4wygY1E=", "properties": {"@source_uri": "https://tools.usps.com/UspsToolsRestServices/rest/POLocator/findLocations", "@spider": "usps_collection_boxes", "addr:city": "CARLSBAD", "addr:country": "US", "addr:postcode": "76934", "addr:state": "TX", "addr:street_address": "11794 FORT WORTH ST", "amenity": "post_box", "collection_times": "Mo-Fr 15:30; Sa 09:00", "indoor": "yes", "note": "ON 12/24 AND 12/31, THIS BOX MAY BE COLLECTED AS EARLY AS 12 NOON.", "nsi_id": "unitedstatespostalservice-a77078", "operator": "United States Postal Service", "operator:short": "USPS", "operator:type": "public", "operator:wikidata": "Q668687", "ref": "7693400002"}, "type": "Feature"}
{"geometry": {"coordinates": [-100.645900161, 31.611025198], "type": "Point"}, "id": "aLbK3p1JCrVE9-PpAt7jRgUEnfg=", "properties": {"@source_uri": "https://tools.usps.com/UspsToolsRestServices/rest/POLocator/findLocations", "@spider": "usps_collection_boxes", "addr:city": "CARLSBAD", "addr:country": "US", "addr:postcode": "76934", "addr:state": "TX", "addr:street_address": "11794 FORT WORTH ST", "amenity": "post_box", "collection_times": "Mo-Fr 15:30", "indoor": "yes", "note": "ON 12/24 AND 12/31, THIS BOX MAY BE COLLECTED AS EARLY AS 12 NOON.", "nsi_id": "unitedstatespostalservice-a77078", "operator": "United States Postal Service", "operator:short": "USPS", "operator:type": "public", "operator:wikidata": "Q668687", "ref": "7693400003"}, "type": "Feature"}
{"geometry": {"coordinates": [-100.498684, 31.191397], "type": "Point"}, "id": "G7riq2HOlxl_4NUzx-9HWgx6AUQ=", "properties": {"@source_uri": "https://tools.usps.com/UspsToolsRestServices/rest/POLocator/findLocations", "@spider": "usps_collection_boxes", "addr:city": "CHRISTOVAL", "addr:country": "US", "addr:postcode": "76935", "addr:state": "TX", "addr:street_address": "19919 MAIN ST", "amenity": "post_box", "collection_times": "Mo-Fr 15:45; Sa 10:00", "indoor": "yes", "note": "ON 12/24 AND 12/31, THIS BOX MAY BE COLLECTED AS EARLY AS 12 NOON.", "nsi_id": "unitedstatespostalservice-a77078", "operator": "United States Postal Service", "operator:short": "USPS", "operator:type": "public", "operator:wikidata": "Q668687", "ref": "7693500000"}, "type": "Feature"}
{"geometry": {"coordinates": [-100.498652, 31.19145], "type": "Point"}, "id": "EF_Brvb02wm3kdZ_K-oRrmLdRac=", "properties": {"@source_uri": "https://tools.usps.com/UspsToolsRestServices/rest/POLocator/findLocations", "@spider": "usps_collection_boxes", "addr:city": "CHRISTOVAL", "addr:country": "US", "addr:postcode": "76935", "addr:state": "TX", "addr:street_address": "19919 MAIN ST", "amenity": "post_box", "collection_times": "Mo-Fr 15:45; Sa 10:00", "note": "ON 12/24 AND 12/31, THIS BOX MAY BE COLLECTED AS EARLY AS 12 NOON.", "nsi_id": "unitedstatespostalservice-a77078", "operator": "United States Postal Service", "operator:short": "USPS", "operator:type": "public", "operator:wikidata": "Q668687", "ref": "7693500001"}, "type": "Feature"}
{"geometry": {"coordinates": [-100.498652, 31.19145], "type": "Point"}, "id": "NhJvhTz2J6rt6_-TNaQI7Q81pnE=", "properties": {"@source_uri": "https://tools.usps.com/UspsToolsRestServices/rest/POLocator/findLocations", "@spider": "usps_collection_boxes", "addr:city": "CHRISTOVAL", "addr:country": "US", "addr:postcode": "76935", "addr:state": "TX", "addr:street_address": "19919 MAIN ST", "amenity": "post_box", "collection_times": "Mo-Fr 15:45; Sa 10:00", "indoor": "yes", "note": "ON 12/24 AND 12/31, THIS BOX MAY BE COLLECTED AS EARLY AS 12 NOON.", "nsi_id": "unitedstatespostalservice-a77078", "operator": "United States Postal Service", "operator:short": "USPS", "operator:type": "public", "operator:wikidata": "Q668687", "ref": "7693500002"}, "type": "Feature"}
{"geometry": {"coordinates": [-100.498714276, 31.191432521], "type": "Point"}, "id": "xo2FAxH1EF5NIiq_cujbdmEQmxg=", "properties": {"@source_uri": "https://tools.usps.com/UspsToolsRestServices/rest/POLocator/findLocations", "@spider": "usps_collection_boxes", "addr:city": "CHRISTOVAL", "addr:country": "US", "addr:postcode": "76935", "addr:state": "TX", "addr:street_address": "19919 MAIN ST", "amenity": "post_box", "collection_times": "Mo-Fr 15:45", "indoor": "yes", "note": "ON 12/24 AND 12/31, THIS BOX MAY BE COLLECTED AS EARLY AS 12 NOON.", "nsi_id": "unitedstatespostalservice-a77078", "operator": "United States Postal Service", "operator:short": "USPS", "operator:type": "public", "operator:wikidata": "Q668687", "ref": "7693500003"}, "type": "Feature"}
{"geometry": {"coordinates": [-100.59982, 30.858741], "type": "Point"}, "id": "TLVBNS7ednWFnOfzCVGRJOtmRi4=", "properties": {"@source_uri": "https://tools.usps.com/UspsToolsRestServices/rest/POLocator/findLocations", "@spider": "usps_collection_boxes", "addr:city": "ELDORADO", "addr:country": "US", "addr:postcode": "76936", "addr:state": "TX", "addr:street_address": "100 COTTONWOOD", "amenity": "post_box", "collection_times": "Mo-Fr 16:00; Sa 12:00", "note": "ON 12/24 AND 12/31, THIS BOX MAY BE COLLECTED AS EARLY AS 12 NOON.", "nsi_id": "unitedstatespostalservice-a77078", "operator": "United States Postal Service", "operator:short": "USPS", "operator:type": "public", "operator:wikidata": "Q668687", "ref": "7693600000"}, "type": "Feature"}
{"geometry": {"coordinates": [-100.599769, 30.858824], "type": "Point"}, "id": "VxfipESxE5XnpZIWoOvc1TAdqOo=", "properties": {"@source_uri": "https://tools.usps.com/UspsToolsRestServices/rest/POLocator/findLocations", "@spider": "usps_collection_boxes", "addr:city": "ELDORADO", "addr:country": "US", "addr:postcode": "76936", "addr:state": "TX", "addr:street_address": "100 COTTONWOOD", "amenity": "post_box", "collection_times": "Mo-Fr 16:00; Sa 12:00", "indoor": "yes", "note": "ON 12/24 AND 12/31, THIS BOX MAY BE COLLECTED AS EARLY AS 12 NOON.", "nsi_id": "unitedstatespostalservice-a77078", "operator": "United States Postal Service", "operator:short": "USPS", "operator:type": "public", "operator:wikidata": "Q668687", "ref": "7693600001"}, "type": "Feature"}
{"geometry": {"coordinates": [-100.599913856, 30.858655915], "type": "Point"}, "id": "hMGZ8ul3dAoADON2zeLAUl8luUo=", "properties": {"@source_uri": "https://tools.usps.com/UspsToolsRestServices/rest/POLocator/findLocations", "@spider": "usps_collection_boxes", "addr:city": "ELDORADO", "addr:country": "US", "addr:postcode": "76936", "addr:state": "TX", "addr:street_address": "100 COTTONWOOD", "amenity": "post_box", "collection_times": "Mo-Fr 16:00", "indoor": "yes", "note": "ON 12/24 AND 12/31, THIS BOX MAY BE COLLECTED AS EARLY AS 12 NOON.", "nsi_id": "unitedstatespostalservice-a77078", "operator": "United States Postal Service", "operator:short": "USPS", "operator:type": "public", "operator:wikidata": "Q668687", "ref": "7693600002"}, "type": "Feature"}
{"geometry": {"coordinates": [-100.0885659922, 31.3984979835], "type": "Point"}, "id": "GQA2oqwafdFlQXBobojfpSJCMb4=", "properties": {"@source_uri": "https://tools.usps.com/UspsToolsRestServices/rest/POLocator/findLocations", "@spider": "usps_collection_boxes", "addr:city": "EOLA", "addr:country": "US", "addr:postcode": "76937", "addr:state": "TX", "addr:street_address": "12436 COUNTY ROAD 5502", "amenity": "post_box", "collection_times": "Mo-Sa 11:00", "indoor": "yes", "nsi_id": "unitedstatespostalservice-a77078", "operator": "United States Postal Service", "operator:short": "USPS", "operator:type": "public", "operator:wikidata": "Q668687", "ref": "7693700001"}, "type": "Feature"}
{"geometry": {"coordinates": [-100.0885659922, 31.3984979835], "type": "Point"}, "id": "vknW6WadSOA8RR04hYZ4nc5YO50=", "properties": {"@source_uri": "https://tools.usps.com/UspsToolsRestServices/rest/POLocator/findLocations", "@spider": "usps_collection_boxes", "addr:city": "EOLA", "addr:country": "US", "addr:postcode": "76937", "addr:state": "TX", "addr:street_address": "12436 COUNTY ROAD 5502", "amenity": "post_box", "collection_times": "Mo-Fr 12:00; Sa 11:30", "indoor": "yes", "nsi_id": "unitedstatespostalservice-a77078", "operator": "United States Postal Service", "operator:short": "USPS", "operator:type": "public", "operator:wikidata": "Q668687", "ref": "7693700003"}, "type": "Feature"}
{"geometry": {"coordinates": [-100.6241570323, 31.2707859842], "type": "Point"}, "id": "P9U8TChvwPMQynPv_vrI9hy_i9o=", "properties": {"@source_uri": "https://tools.usps.com/UspsToolsRestServices/rest/POLocator/findLocations", "@spider": "usps_collection_boxes", "addr:city": "KNICKERBOCKER", "addr:country": "US", "addr:postcode": "76939", "addr:state": "TX", "addr:street_address": "14553 FM 2335", "amenity": "post_box", "collection_times": "Mo-Fr 11:30; Sa 10:30", "nsi_id": "unitedstatespostalservice-a77078", "operator": "United States Postal Service", "operator:short": "USPS", "operator:type": "public", "operator:wikidata": "Q668687", "ref": "7693900000"}, "type": "Feature"}
{"geometry": {"coordinates": [-100.6241570323, 31.2707859842], "type": "Point"}, "id": "A_7pZQ1_tZ1s7NeyNF07uf7VIh4=", "properties": {"@source_uri": "https://tools.usps.com/UspsToolsRestServices/rest/POLocator/findLocations", "@spider": "usps_collection_boxes", "addr:city": "KNICKERBOCKER", "addr:country": "US", "addr:postcode": "76939", "addr:state": "TX", "addr:street_address": "14553 FM 2335", "amenity": "post_box", "collection_times": "Mo-Fr 11:30; Sa 10:30", "indoor": "yes", "nsi_id": "unitedstatespostalservice-a77078", "operator": "United States Postal Service", "operator:short": "USPS", "operator:type": "public", "operator:wikidata": "Q668687", "ref": "7693900001"}, "type": "Feature"}
{"geometry": {"coordinates": [-100.6241570323, 31.2707859842], "type": "Point"}, "id": "6KmPar-wJIOMS_XPEUjJR7cJfFw=", "properties": {"@source_uri": "https://tools.usps.com/UspsToolsRestServices/rest/POLocator/findLocations", "@spider": "usps_collection_boxes", "addr:city": "KNICKERBOCKER", "addr:country": "US", "addr:postcode": "76939", "addr:state": "TX", "addr:street_address": "14553 FM 2335", "amenity": "post_box", "collection_times": "Mo-Fr 11:30; Sa 10:30", "indoor": "yes", "nsi_id": "unitedstatespostalservice-a77078", "operator": "United States Postal Service", "operator:short": "USPS", "operator:type": "public", "operator:wikidata": "Q668687", "ref": "7693900002"}, "type": "Feature"}
{"geometry": {"coordinates": [-100.1385, 31.45399], "type": "Point"}, "id": "ZPE7Fi2ePpno-9d4Rm7k3tXBdRA=", "properties": {"@source_uri": "https://tools.usps.com/UspsToolsRestServices/rest/POLocator/findLocations", "@spider": "usps_collection_boxes", "addr:city": "MERETA", "addr:country": "US", "addr:postcode": "76940", "addr:state": "TX", "addr:street_address": "997 BROADWAY ST", "amenity": "post_box", "collection_times": "Mo-Sa 09:45", "indoor": "yes", "nsi_id": "unitedstatespostalservice-a77078", "operator": "United States Postal Service", "operator:short": "USPS", "operator:type": "public", "operator:wikidata": "Q668687", "ref": "7694000000"}, "type": "Feature"}
{"geometry": {"coordinates": [-100.140350055, 31.454040454], "type": "Point"}, "id": "lMfI7L3NXwMSfVv09tFf7zuZOXo=", "properties": {"@source_uri": "https://tools.usps.com/UspsToolsRestServices/rest/POLocator/findLocations", "@spider": "usps_collection_boxes", "addr:city": "MERETA", "addr:country": "US", "addr:postcode": "76940", "addr:state": "TX", "addr:street_address": "997 BROADWAY ST", "amenity": "post_box", "collection_times": "Mo-Sa 09:45", "indoor": "yes", "nsi_id": "unitedstatespostalservice-a77078", "operator": "United States Postal Service", "operator:short": "USPS", "operator:type": "public", "operator:wikidata": "Q668687", "ref": "7694000001"}, "type": "Feature"}
{"geometry": {"coordinates": [-100.8215, 31.265543], "type": "Point"}, "id": "CY_0fzFC78RLknm9W-cT-f17R34=", "properties": {"@source_uri": "https://tools.usps.com/UspsToolsRestServices/rest/POLocator/findLocations", "@spider": "usps_collection_boxes", "addr:city": "MERTZON", "addr:country": "US", "addr:postcode": "76941", "addr:state": "TX", "addr:street_address": "303 W OAK AVE", "amenity": "post_box", "collection_times": "Mo-Fr 15:30; Sa 09:30", "note": "ON 12/24 AND 12/31, THIS BOX MAY BE COLLECTED AS EARLY AS 12 NOON.", "nsi_id": "unitedstatespostalservice-a77078", "operator": "United States Postal Service", "operator:short": "USPS", "operator:type": "public", "operator:wikidata": "Q668687", "ref": "7694100001"}, "type": "Feature"}
{"geometry": {"coordinates": [-100.821398, 31.26557], "type": "Point"}, "id": "bos2O_3X1I9CcsS9NIatl38GQcE=", "properties": {"@source_uri": "https://tools.usps.com/UspsToolsRestServices/rest/POLocator/findLocations", "@spider": "usps_collection_boxes", "addr:city": "MERTZON", "addr:country": "US", "addr:postcode": "76941", "addr:state": "TX", "addr:street_address": "303 W OAK AVE", "amenity": "post_box", "collection_times": "Mo-Fr 15:30; Sa 09:30", "indoor": "yes", "note": "ON 12/24 AND 12/31, THIS BOX MAY BE COLLECTED AS EARLY AS 12 NOON.", "nsi_id": "unitedstatespostalservice-a77078", "operator": "United States Postal Service", "operator:short": "USPS", "operator:type": "public", "operator:wikidata": "Q668687", "ref": "7694100003"}, "type": "Feature"}
{"geometry": {"coordinates": [-100.821762168, 31.265537503], "type": "Point"}, "id": "tW6CJciY-RwX9Kul7WV2ctHsIdw=", "properties": {"@source_uri": "https://tools.usps.com/UspsToolsRestServices/rest/POLocator/findLocations", "@spider": "usps_collection_boxes", "addr:city": "MERTZON", "addr:country": "US", "addr:postcode": "76941", "addr:state": "TX", "addr:street_address": "303 W OAK AVE", "amenity": "post_box", "collection_times": "Mo-Fr 15:30", "indoor": "yes", "note": "ON 12/24 AND 12/31, THIS BOX MAY BE COLLECTED AS EARLY AS 12 NOON.", "nsi_id": "unitedstatespostalservice-a77078", "operator": "United States Postal Service", "operator:short": "USPS", "operator:type": "public", "operator:wikidata": "Q668687", "ref": "7694100004"}, "type": "Feature"}
{"geometry": {"coordinates": [-101.1151722, 30.3780067], "type": "Point"}, "id": "N2SOMl1aIq31MxHg1XOjUHVn_JA=", "properties": {"@source_uri": "https://tools.usps.com/UspsToolsRestServices/rest/POLocator/findLocations", "@spider": "usps_collection_boxes", "addr:city": "OZONA", "addr:country": "US", "addr:postcode": "76943", "addr:state": "TX", "addr:street_address": "1106 AVENUE F", "amenity": "post_box", "collection_times": "Mo-Fr 14:30; Sa 11:00", "note": "ON 12/24 AND 12/31, THIS BOX MAY BE COLLECTED AS EARLY AS 12 NOON.", "nsi_id": "unitedstatespostalservice-a77078", "operator": "United States Postal Service", "operator:short": "USPS", "operator:type": "public", "operator:wikidata": "Q668687", "ref": "7694300004"}, "type": "Feature"}
{"geometry": {"coordinates": [-101.20237, 30.706212], "type": "Point"}, "id": "1JqyHEaSFMXHvE3GDdWfKasputw=", "properties": {"@source_uri": "https://tools.usps.com/UspsToolsRestServices/rest/POLocator/findLocations", "@spider": "usps_collection_boxes", "addr:city": "OZONA", "addr:country": "US", "addr:postcode": "76943", "addr:state": "TX", "addr:street_address": "1106 AVENUE F", "amenity": "post_box", "collection_times": "Mo-Fr 14:45; Sa 11:00", "indoor": "yes", "note": "ON 12/24 AND 12/31, THIS BOX MAY BE COLLECTED AS EARLY AS 12 NOON.", "nsi_id": "unitedstatespostalservice-a77078", "operator": "United States Postal Service", "operator:short": "USPS", "operator:type": "public", "operator:wikidata": "Q668687", "ref": "7694300005"}, "type": "Feature"}
{"geometry": {"coordinates": [-101.20237, 30.706212], "type": "Point"}, "id": "G6tdIaXvxHrPL7HPgZfHWAvDbn4=", "properties": {"@source_uri": "https://tools.usps.com/UspsToolsRestServices/rest/POLocator/findLocations", "@spider": "usps_collection_boxes", "addr:city": "OZONA", "addr:country": "US", "addr:postcode": "76943", "addr:state": "TX", "addr:street_address": "1106 AVENUE F", "amenity": "post_box", "collection_times": "Mo-Fr 14:45; Sa 11:00", "indoor": "yes", "note": "ON 12/24 AND 12/31, THIS BOX MAY BE COLLECTED AS EARLY AS 12 NOON.", "nsi_id": "unitedstatespostalservice-a77078", "operator": "United States Postal Service", "operator:short": "USPS", "operator:type": "public", "operator:wikidata": "Q668687", "ref": "7694300006"}, "type": "Feature"}
{"geometry": {"coordinates": [-101.202432468, 30.709404], "type": "Point"}, "id": "7S5ihn_D9YmdUYWaPvP7NX1ljSY=", "properties": {"@source_uri": "https://tools.usps.com/UspsToolsRestServices/rest/POLocator/findLocations", "@spider": "usps_collection_boxes", "addr:city": "OZONA", "addr:country": "US", "addr:postcode": "76943", "addr:state": "TX", "addr:street_address": "1106 AVENUE F", "amenity": "post_box", "collection_times": "Mo-Fr 14:45", "indoor": "yes", "note": "ON 12/24 AND 12/31, THIS BOX MAY BE COLLECTED AS EARLY AS 12 NOON.", "nsi_id": "unitedstatespostalservice-a77078", "operator": "United States Postal Service", "operator:short": "USPS", "operator:type": "public", "operator:wikidata": "Q668687", "ref": "7694300008"}, "type": "Feature"}
{"geometry": {"coordinates": [-100.488421, 31.885682], "type": "Point"}, "id": "7aKtvYxJHP848rwYgMi8MNURIWo=", "properties": {"@source_uri": "https://tools.usps.com/UspsToolsRestServices/rest/POLocator/findLocations", "@spider": "usps_collection_boxes", "addr:city": "ROBERT LEE", "addr:country": "US", "addr:postcode": "76945", "addr:state": "TX", "addr:street_address": "722 HOUSTON ST", "amenity": "post_box", "collection_times": "Mo-Fr 16:00; Sa 12:00", "note": "ON 12/24 AND 12/31, THIS BOX MAY BE COLLECTED AS EARLY AS 12 NOON.", "nsi_id": "unitedstatespostalservice-a77078", "operator": "United States Postal Service", "operator:short": "USPS", "operator:type": "public", "operator:wikidata": "Q668687", "ref": "7694500000"}, "type": "Feature"}
{"geometry": {"coordinates": [-100.488421, 31.885682], "type": "Point"}, "id": "e4356Dem8bYUyu4gjzTsovvaUa4=", "properties": {"@source_uri": "https://tools.usps.com/UspsToolsRestServices/rest/POLocator/findLocations", "@spider": "usps_collection_boxes", "addr:city": "ROBERT LEE", "addr:country": "US", "addr:postcode": "76945", "addr:state": "TX", "addr:street_address": "722 HOUSTON ST", "amenity": "post_box", "collection_times": "Mo-Fr 16:00; Sa 12:00", "indoor": "yes", "note": "ON 12/24 AND 12/31, THIS BOX MAY BE COLLECTED AS EARLY AS 12 NOON.", "nsi_id": "unitedstatespostalservice-a77078", "operator": "United States Postal Service", "operator:short": "USPS", "operator:type": "public", "operator:wikidata": "Q668687", "ref": "7694500003"}, "type": "Feature"}
{"geometry": {"coordinates": [-100.483466178, 31.892658266], "type": "Point"}, "id": "Mhu2F0Y6TQRvHNGq8wcH_pntdMI=", "properties": {"@source_uri": "https://tools.usps.com/UspsToolsRestServices/rest/POLocator/findLocations", "@spider": "usps_collection_boxes", "addr:city": "ROBERT LEE", "addr:country": "US", "addr:postcode": "76945", "addr:state": "TX", "addr:street_address": "722 HOUSTON ST", "amenity": "post_box", "collection_times": "Mo-Fr 16:00", "indoor": "yes", "note": "ON 12/24 AND 12/31, THIS BOX MAY BE COLLECTED AS EARLY AS 12 NOON.", "nsi_id": "unitedstatespostalservice-a77078", "operator": "United States Postal Service", "operator:short": "USPS", "operator:type": "public", "operator:wikidata": "Q668687", "ref": "7694500005"}, "type": "Feature"}
{"geometry": {"coordinates": [-100.646672, 30.57076], "type": "Point"}, "id": "-RH7C6ml_vQYihAEttgY2IOhx3U=", "properties": {"@source_uri": "https://tools.usps.com/UspsToolsRestServices/rest/POLocator/findLocations", "@spider": "usps_collection_boxes", "addr:city": "SONORA", "addr:country": "US", "addr:postcode": "76950", "addr:state": "TX", "addr:street_address": "102 W MAIN ST", "amenity": "post_box", "collection_times": "Mo-Fr 15:00; Sa 12:15", "note": "ON 12/24 AND 12/31, THIS BOX MAY BE COLLECTED AS EARLY AS 12 NOON.", "nsi_id": "unitedstatespostalservice-a77078", "operator": "United States Postal Service", "operator:short": "USPS", "operator:type": "public", "operator:wikidata": "Q668687", "ref": "7695000002"}, "type": "Feature"}
{"geometry": {"coordinates": [-100.646672, 30.57076], "type": "Point"}, "id": "UehbSkpwOd_F57-IRyMPYpqn9i4=", "properties": {"@source_uri": "https://tools.usps.com/UspsToolsRestServices/rest/POLocator/findLocations", "@spider": "usps_collection_boxes", "addr:city": "SONORA", "addr:country": "US", "addr:postcode": "76950", "addr:state": "TX", "addr:street_address": "102 W MAIN ST", "amenity": "post_box", "collection_times": "Mo-Fr 15:15; Sa 12:15", "indoor": "yes", "note": "ON 12/24 AND 12/31, THIS BOX MAY BE COLLECTED AS EARLY AS 12 NOON.", "nsi_id": "unitedstatespostalservice-a77078", "operator": "United States Postal Service", "operator:short": "USPS", "operator:type": "public", "operator:wikidata": "Q668687", "ref": "7695000004"}, "type": "Feature"}
{"geometry": {"coordinates": [-100.646672, 30.57076], "type": "Point"}, "id": "5Ww42nA9CnqTpzlW7rtQRYyq2oU=", "properties": {"@source_uri": "https://tools.usps.com/UspsToolsRestServices/rest/POLocator/findLocations", "@spider": "usps_collection_boxes", "addr:city": "SONORA", "addr:country": "US", "addr:postcode": "76950", "addr:state": "TX", "addr:street_address": "102 W MAIN ST", "amenity": "post_box", "collection_times": "Mo-Fr 15:15; Sa 12:15", "indoor": "yes", "note": "ON 12/24 AND 12/31, THIS BOX MAY BE COLLECTED AS EARLY AS 12 NOON.", "nsi_id": "unitedstatespostalservice-a77078", "operator": "United States Postal Service", "operator:short": "USPS", "operator:type": "public", "operator:wikidata": "Q668687", "ref": "7695000005"}, "type": "Feature"}
{"geometry": {"coordinates": [-100.64699673, 30.570624197], "type": "Point"}, "id": "YI2mCRHIlMOBIntYJ4T6U4--MU4=", "properties": {"@source_uri": "https://tools.usps.com/UspsToolsRestServices/rest/POLocator/findLocations", "@spider": "usps_collection_boxes", "addr:city": "SONORA", "addr:country": "US", "addr:postcode": "76950", "addr:state": "TX", "addr:street_address": "102 W MAIN ST", "amenity": "post_box", "collection_times": "Mo-Fr 15:15", "indoor": "yes", "note": "ON 12/24 AND 12/31, THIS BOX MAY BE COLLECTED AS EARLY AS 12 NOON.", "nsi_id": "unitedstatespostalservice-a77078", "operator": "United States Postal Service", "operator:short": "USPS", "operator:type": "public", "operator:wikidata": "Q668687", "ref": "7695000006"}, "type": "Feature"}
{"geometry": {"coordinates": [-100.988579, 31.836648], "type": "Point"}, "id": "50ozEbtXAyD0m0LdtOjP9E3-4dY=", "properties": {"@source_uri": "https://tools.usps.com/UspsToolsRestServices/rest/POLocator/findLocations", "@spider": "usps_collection_boxes", "addr:city": "STERLING CITY", "addr:country": "US", "addr:postcode": "76951", "addr:state": "TX", "addr:street_address": "410 ELM ST", "amenity": "post_box", "collection_times": "Mo-Fr 15:30; Sa 10:30", "note": "ON 12/24 AND 12/31, THIS BOX MAY BE COLLECTED AS EARLY AS 12 NOON.", "nsi_id": "unitedstatespostalservice-a77078", "operator": "United States Postal Service", "operator:short": "USPS", "operator:type": "public", "operator:wikidata": "Q668687", "ref": "7695100000"}, "type": "Feature"}
{"geometry": {"coordinates": [-100.988614, 31.836577], "type": "Point"}, "id": "MaCIXMrZqgeDMuqXsz6a8OAToOM=", "properties": {"@source_uri": "https://tools.usps.com/UspsToolsRestServices/rest/POLocator/findLocations", "@spider": "usps_collection_boxes", "addr:city": "STERLING CITY", "addr:country": "US", "addr:postcode": "76951", "addr:state": "TX", "addr:street_address": "410 ELM ST", "amenity": "post_box", "collection_times": "Mo-Fr 15:30; Sa 10:30", "indoor": "yes", "note": "ON 12/24 AND 12/31, THIS BOX MAY BE COLLECTED AS EARLY AS 12 NOON.", "nsi_id": "unitedstatespostalservice-a77078", "operator": "United States Postal Service", "operator:short": "USPS", "operator:type": "public", "operator:wikidata": "Q668687", "ref": "7695100001"}, "type": "Feature"}
{"geometry": {"coordinates": [-100.988614, 31.836577], "type": "Point"}, "id": "AAtVMjNGgY34Y5fH275ogEm_HO0=", "properties": {"@source_uri": "https://tools.usps.com/UspsToolsRestServices/rest/POLocator/findLocations", "@spider": "usps_collection_boxes", "addr:city": "STERLING CITY", "addr:country": "US", "addr:postcode": "76951", "addr:state": "TX", "addr:street_address": "410 ELM ST", "amenity": "post_box", "collection_times": "Mo-Fr 15:30; Sa 10:30", "indoor": "yes", "note": "ON 12/24 AND 12/31, THIS BOX MAY BE COLLECTED AS EARLY AS 12 NOON.", "nsi_id": "unitedstatespostalservice-a77078", "operator": "United States Postal Service", "operator:short": "USPS", "operator:type": "public", "operator:wikidata": "Q668687", "ref": "7695100002"}, "type": "Feature"}
{"geometry": {"coordinates": [-100.988560141, 31.837184801], "type": "Point"}, "id": "MPilaC545JwEjT37NBe5aAT6RXM=", "properties": {"@source_uri": "https://tools.usps.com/UspsToolsRestServices/rest/POLocator/findLocations", "@spider": "usps_collection_boxes", "addr:city": "STERLING CITY", "addr:country": "US", "addr:postcode": "76951", "addr:state": "TX", "addr:street_address": "410 ELM ST", "amenity": "post_box", "collection_times": "Mo-Fr 15:30", "indoor": "yes", "note": "ON 12/24 AND 12/31, THIS BOX MAY BE COLLECTED AS EARLY AS 12 NOON.", "nsi_id": "unitedstatespostalservice-a77078", "operator": "United States Postal Service", "operator:short": "USPS", "operator:type": "public", "operator:wikidata": "Q668687", "ref": "7695100003"}, "type": "Feature"}
{"geometry": {"coordinates": [-100.285528, 31.74178], "type": "Point"}, "id": "NUEHDtMiBd69IXMlM7BKT_Xad3c=", "properties": {"@source_uri": "https://tools.usps.com/UspsToolsRestServices/rest/POLocator/findLocations", "@spider": "usps_collection_boxes", "addr:city": "TENNYSON", "addr:country": "US", "addr:postcode": "76953", "addr:state": "TX", "addr:street_address": "11301 HIGHWAY 277", "amenity": "post_box", "collection_times": "Mo-Fr 12:00; Sa 08:00", "indoor": "yes", "nsi_id": "unitedstatespostalservice-a77078", "operator": "United States Postal Service", "operator:short": "USPS", "operator:type": "public", "operator:wikidata": "Q668687", "ref": "7695300001"}, "type": "Feature"}
{"geometry": {"coordinates": [-100.285488812, 31.741702701], "type": "Point"}, "id": "YSeYoOC_qEsve4jSIAHcJ-Mtf-c=", "properties": {"@source_uri": "https://tools.usps.com/UspsToolsRestServices/rest/POLocator/findLocations", "@spider": "usps_collection_boxes", "addr:city": "TENNYSON", "addr:country": "US", "addr:postcode": "76953", "addr:state": "TX", "addr:street_address": "11301 HIGHWAY 277", "amenity": "post_box", "collection_times": "Mo-Fr 12:00; Sa 08:00", "indoor": "yes", "nsi_id": "unitedstatespostalservice-a77078", "operator": "United States Postal Service", "operator:short": "USPS", "operator:type": "public", "operator:wikidata": "Q668687", "ref": "7695300002"}, "type": "Feature"}
{"geometry": {"coordinates": [-100.177538, 31.340352], "type": "Point"}, "id": "gh84sVAGbdtVNfyiUj2pmbQXBvk=", "properties": {"@source_uri": "https://tools.usps.com/UspsToolsRestServices/rest/POLocator/findLocations", "@spider": "usps_collection_boxes", "addr:city": "VANCOURT", "addr:country": "US", "addr:postcode": "76955", "addr:state": "TX", "addr:street_address": "9538 YORK RD", "amenity": "post_box", "collection_times": "Mo-Sa 10:15", "indoor": "yes", "nsi_id": "unitedstatespostalservice-a77078", "operator": "United States Postal Service", "operator:short": "USPS", "operator:type": "public", "operator:wikidata": "Q668687", "ref": "7695500001"}, "type": "Feature"}
{"geometry": {"coordinates": [-100.177516004, 31.34034753], "type": "Point"}, "id": "vh1PMGRzfp9SRiMOBWaiQL-Zbpo=", "properties": {"@source_uri": "https://tools.usps.com/UspsToolsRestServices/rest/POLocator/findLocations", "@spider": "usps_collection_boxes", "addr:city": "VANCOURT", "addr:country": "US", "addr:postcode": "76955", "addr:state": "TX", "addr:street_address": "9538 YORK RD", "amenity": "post_box", "collection_times": "Mo-Sa 12:00", "indoor": "yes", "nsi_id": "unitedstatespostalservice-a77078", "operator": "United States Postal Service", "operator:short": "USPS", "operator:type": "public", "operator:wikidata": "Q668687", "ref": "7695500002"}, "type": "Feature"}
{"geometry": {"coordinates": [-100.313845, 31.374285], "type": "Point"}, "id": "DzQuON8lNqW57DwJlcij4ityzLo=", "properties": {"@source_uri": "https://tools.usps.com/UspsToolsRestServices/rest/POLocator/findLocations", "@spider": "usps_collection_boxes", "addr:city": "WALL", "addr:country": "US", "addr:postcode": "76957", "addr:state": "TX", "addr:street_address": "7901 LOOP 570 S", "amenity": "post_box", "collection_times": "Mo-Fr 15:00; Sa 10:30", "indoor": "yes", "note": "ON 12/24 AND 12/31, THIS BOX MAY BE COLLECTED AS EARLY AS 12 NOON.", "nsi_id": "unitedstatespostalservice-a77078", "operator": "United States Postal Service", "operator:short": "USPS", "operator:type": "public", "operator:wikidata": "Q668687", "ref": "7695700000"}, "type": "Feature"}
{"geometry": {"coordinates": [-100.31395, 31.374314], "type": "Point"}, "id": "N6ZBjTmuoH90CTYDLOVOA-hDwlA=", "properties": {"@source_uri": "https://tools.usps.com/UspsToolsRestServices/rest/POLocator/findLocations", "@spider": "usps_collection_boxes", "addr:city": "WALL", "addr:country": "US", "addr:postcode": "76957", "addr:state": "TX", "addr:street_address": "7901 LOOP 570 S", "amenity": "post_box", "collection_times": "Mo-Fr 15:00; Sa 10:30", "note": "ON 12/24 AND 12/31, THIS BOX MAY BE COLLECTED AS EARLY AS 12 NOON.", "nsi_id": "unitedstatespostalservice-a77078", "operator": "United States Postal Service", "operator:short": "USPS", "operator:type": "public", "operator:wikidata": "Q668687", "ref": "7695700001"}, "type": "Feature"}
{"geometry": {"coordinates": [-100.310211503, 31.374199521], "type": "Point"}, "id": "IAtYp_vpbk7vMAvnvoBwDJKLpMk=", "properties": {"@source_uri": "https://tools.usps.com/UspsToolsRestServices/rest/POLocator/findLocations", "@spider": "usps_collection_boxes", "addr:city": "WALL", "addr:country": "US", "addr:postcode": "76957", "addr:state": "TX", "addr:street_address": "7901 LOOP 570 S", "amenity": "post_box", "collection_times": "Mo-Fr 15:00; Sa 11:00", "indoor": "yes", "note": "ON 12/24 AND 12/31, THIS BOX MAY BE COLLECTED AS EARLY AS 12 NOON.", "nsi_id": "unitedstatespostalservice-a77078", "operator": "United States Postal Service", "operator:short": "USPS", "operator:type": "public", "operator:wikidata": "Q668687", "ref": "7695700002"}, "type": "Feature"}
{"geometry": {"coordinates": [-100.721789, 31.670417], "type": "Point"}, "id": "mix8ts_45mEvG_r0KfyuRwcRqYk=", "properties": {"@source_uri": "https://tools.usps.com/UspsToolsRestServices/rest/POLocator/findLocations", "@spider": "usps_collection_boxes", "addr:city": "WATER VALLEY", "addr:country": "US", "addr:postcode": "76958", "addr:state": "TX", "addr:street_address": "15949 SPRING AVE", "amenity": "post_box", "collection_times": "Mo-Fr 13:00; Sa 08:45", "indoor": "yes", "note": "ON 12/24 AND 12/31, THIS BOX MAY BE COLLECTED AS EARLY AS 12 NOON.", "nsi_id": "unitedstatespostalservice-a77078", "operator": "United States Postal Service", "operator:short": "USPS", "operator:type": "public", "operator:wikidata": "Q668687", "ref": "7695800002"}, "type": "Feature"}
{"geometry": {"coordinates": [-100.721819568, 31.670467593], "type": "Point"}, "id": "fjE9x52PKV8D62J4xvRXFGpgkMc=", "properties": {"@source_uri": "https://tools.usps.com/UspsToolsRestServices/rest/POLocator/findLocations", "@spider": "usps_collection_boxes", "addr:city": "WATER VALLEY", "addr:country": "US", "addr:postcode": "76958", "addr:state": "TX", "addr:street_address": "15949 SPRING AVE", "amenity": "post_box", "collection_times": "Mo-Fr 13:00; Sa 09:00", "indoor": "yes", "note": "ON 12/24 AND 12/31, THIS BOX MAY BE COLLECTED AS EARLY AS 12 NOON.", "nsi_id": "unitedstatespostalservice-a77078", "operator": "United States Postal Service", "operator:short": "USPS", "operator:type": "public", "operator:wikidata": "Q668687", "ref": "7695800003"}, "type": "Feature"}
