{"geometry": {"coordinates": [-95.53681, 29.966739], "type": "Point"}, "id": "sW9P9usjSxCbQnitqy7RO08Gvp4=", "properties": {"@spider": "usps_collection_boxes", "addr:city": "HOUSTON", "addr:country": "US", "addr:full": "7231 FM 1960 RD W", "addr:postcode": "77205", "addr:state": "TX", "brand": "USPS", "collection_times": "Mo-Sa 17:00", "name": "USPS COLLECTION BOX - PO LOBBY", "note": "ON 12/24 AND 12/31, THIS BOX MAY BE COLLECTED AS EARLY AS 12 NOON.", "ref": "7720500009"}, "type": "Feature"}
{"geometry": {"coordinates": [-95.536813, 29.966739], "type": "Point"}, "id": "GvBnT47roFoKUCeYTIXlgM68yYE=", "properties": {"@spider": "usps_collection_boxes", "addr:city": "HOUSTON", "addr:country": "US", "addr:full": "7231 FM 1960 RD W", "addr:postcode": "77205", "addr:state": "TX", "brand": "USPS", "collection_times": "Mo-Sa 17:00", "name": "USPS COLLECTION BOX - PO LOBBY", "note": "ON 12/24 AND 12/31, THIS BOX MAY BE COLLECTED AS EARLY AS 12 NOON.", "ref": "7720500010"}, "type": "Feature"}
{"geometry": {"coordinates": [-95.536813, 29.966739], "type": "Point"}, "id": "BqwwU7VaV5_v-ESJBQ_MmAYH1Rg=", "properties": {"@spider": "usps_collection_boxes", "addr:city": "HOUSTON", "addr:country": "US", "addr:full": "7231 FM 1960 RD W", "addr:postcode": "77205", "addr:state": "TX", "brand": "USPS", "collection_times": "Mo-Sa 17:00", "name": "USPS COLLECTION BOX - PO LOBBY", "note": "ON 12/24 AND 12/31, THIS BOX MAY BE COLLECTED AS EARLY AS 12 NOON.", "ref": "7720500011"}, "type": "Feature"}
{"geometry": {"coordinates": [-95.5368343146, 29.9666855275], "type": "Point"}, "id": "cHO78qQ4ZwiTaa1iuWl216lswiU=", "properties": {"@spider": "usps_collection_boxes", "addr:city": "HOUSTON", "addr:country": "US", "addr:full": "7231 FM 1960 RD W", "addr:postcode": "77205", "addr:state": "TX", "brand": "USPS", "collection_times": "Mo-Sa 17:00", "name": "USPS COLLECTION BOX - BLUE BOX", "note": "ON 12/24 AND 12/31, THIS BOX MAY BE COLLECTED AS EARLY AS 12 NOON.", "ref": "7720500012"}, "type": "Feature"}
{"geometry": {"coordinates": [-95.53679285, 29.966693365], "type": "Point"}, "id": "7BjgN8l6nFBsgPP9DGKMpFGl9Kw=", "properties": {"@spider": "usps_collection_boxes", "addr:city": "HOUSTON", "addr:country": "US", "addr:full": "7231 FM 1960 RD W STE A", "addr:postcode": "77205", "addr:state": "TX", "brand": "USPS", "collection_times": "Mo-Fr 18:00; Sa 16:00", "name": "USPS COLLECTION BOX - PO LOBBY", "note": "ON 12/24 AND 12/31, THIS BOX MAY BE COLLECTED AS EARLY AS 12 NOON.", "ref": "7720500015"}, "type": "Feature"}
