{"geometry": {"coordinates": [-95.461695, 30.31584], "type": "Point"}, "id": "Tbcc694FktzArLmPOXv5e23lVUA=", "properties": {"@source_uri": "https://tools.usps.com/UspsToolsRestServices/rest/POLocator/findLocations", "@spider": "usps_collection_boxes", "addr:city": "CONROE", "addr:country": "US", "addr:postcode": "77301", "addr:state": "TX", "addr:street_address": "701 E DAVIS ST", "amenity": "post_box", "collection_times": "Mo-Fr 14:15", "note": "ON 12/24 AND 12/31, THIS BOX MAY BE COLLECTED AS EARLY AS 12 NOON.", "nsi_id": "unitedstatespostalservice-a77078", "operator": "United States Postal Service", "operator:short": "USPS", "operator:type": "public", "operator:wikidata": "Q668687", "ref": "7730100011"}, "type": "Feature"}
{"geometry": {"coordinates": [-95.461695, 30.31584], "type": "Point"}, "id": "q2RXHziiIcYe3U_9BnkdShjpzUA=", "properties": {"@source_uri": "https://tools.usps.com/UspsToolsRestServices/rest/POLocator/findLocations", "@spider": "usps_collection_boxes", "addr:city": "CONROE", "addr:country": "US", "addr:postcode": "77301", "addr:state": "TX", "addr:street_address": "221 W DAVIS ST", "amenity": "post_box", "collection_times": "Mo-Fr 14:00", "note": "ON 12/24 AND 12/31, THIS BOX MAY BE COLLECTED AS EARLY AS 12 NOON.", "nsi_id": "unitedstatespostalservice-a77078", "operator": "United States Postal Service", "operator:short": "USPS", "operator:type": "public", "operator:wikidata": "Q668687", "ref": "7730100026"}, "type": "Feature"}
{"geometry": {"coordinates": [-95.461695, 30.31584], "type": "Point"}, "id": "5Vl4-2TjQVexFWQZ_V4P1VvBBNw=", "properties": {"@source_uri": "https://tools.usps.com/UspsToolsRestServices/rest/POLocator/findLocations", "@spider": "usps_collection_boxes", "addr:city": "CONROE", "addr:country": "US", "addr:postcode": "77301", "addr:state": "TX", "addr:street_address": "1 CRIMINAL JUSTICE DR", "amenity": "post_box", "collection_times": "Mo-Fr 13:45", "note": "ON 12/24 AND 12/31, THIS BOX MAY BE COLLECTED AS EARLY AS 12 NOON.", "nsi_id": "unitedstatespostalservice-a77078", "operator": "United States Postal Service", "operator:short": "USPS", "operator:type": "public", "operator:wikidata": "Q668687", "ref": "7730100031"}, "type": "Feature"}
{"geometry": {"coordinates": [-95.461695, 30.31584], "type": "Point"}, "id": "Ib0Vmy7I_3NWgz398HBBTJ-u9xk=", "properties": {"@source_uri": "https://tools.usps.com/UspsToolsRestServices/rest/POLocator/findLocations", "@spider": "usps_collection_boxes", "addr:city": "CONROE", "addr:country": "US", "addr:postcode": "77301", "addr:state": "TX", "addr:street_address": "1110 N LOOP 336 W", "amenity": "post_box", "collection_times": "Mo-Fr 14:30", "note": "ON 12/24 AND 12/31, THIS BOX MAY BE COLLECTED AS EARLY AS 12 NOON.", "nsi_id": "unitedstatespostalservice-a77078", "operator": "United States Postal Service", "operator:short": "USPS", "operator:type": "public", "operator:wikidata": "Q668687", "ref": "7730100034"}, "type": "Feature"}
{"geometry": {"coordinates": [-95.468826, 30.308305], "type": "Point"}, "id": "4_WB_j1qCsTk2rfJEdANxHC0yFI=", "properties": {"@source_uri": "https://tools.usps.com/UspsToolsRestServices/rest/POLocator/findLocations", "@spider": "usps_collection_boxes", "addr:city": "CONROE", "addr:country": "US", "addr:postcode": "77301", "addr:state": "TX", "addr:street_address": "104 I 45 N", "amenity": "post_box", "collection_times": "Mo-Fr 14:00", "note": "ON 12/24 AND 12/31, THIS BOX MAY BE COLLECTED AS EARLY AS 12 NOON.", "nsi_id": "unitedstatespostalservice-a77078", "operator": "United States Postal Service", "operator:short": "USPS", "operator:type": "public", "operator:wikidata": "Q668687", "ref": "7730100038"}, "type": "Feature"}
{"geometry": {"coordinates": [-95.4652119686, 30.3177759984], "type": "Point"}, "id": "JkuP38oLLNKh_-ris3Ni3DDVihQ=", "properties": {"@source_uri": "https://tools.usps.com/UspsToolsRestServices/rest/POLocator/findLocations", "@spider": "usps_collection_boxes", "addr:city": "CONROE", "addr:country": "US", "addr:postcode": "77301", "addr:state": "TX", "addr:street_address": "809 W DALLAS ST", "amenity": "post_box", "collection_times": "Mo-Sa 17:00", "note": "ON 12/24 AND 12/31, THIS BOX MAY BE COLLECTED AS EARLY AS 12 NOON.", "nsi_id": "unitedstatespostalservice-a77078", "operator": "United States Postal Service", "operator:short": "USPS", "operator:type": "public", "operator:wikidata": "Q668687", "ref": "7730100048"}, "type": "Feature"}
{"geometry": {"coordinates": [-95.466154, 30.317882], "type": "Point"}, "id": "MoMHDNYTu9sP7p5dZll8VwR8oOk=", "properties": {"@source_uri": "https://tools.usps.com/UspsToolsRestServices/rest/POLocator/findLocations", "@spider": "usps_collection_boxes", "addr:city": "CONROE", "addr:country": "US", "addr:postcode": "77301", "addr:state": "TX", "addr:street_address": "809 W DALLAS ST", "amenity": "post_box", "collection_times": "Mo-Sa 17:00", "indoor": "yes", "note": "ON 12/24 AND 12/31, THIS BOX MAY BE COLLECTED AS EARLY AS 12 NOON.", "nsi_id": "unitedstatespostalservice-a77078", "operator": "United States Postal Service", "operator:short": "USPS", "operator:type": "public", "operator:wikidata": "Q668687", "ref": "7730100050"}, "type": "Feature"}
{"geometry": {"coordinates": [-95.466154, 30.317882], "type": "Point"}, "id": "4lvrGvuEF_OBwn7HFhXJWkTmoUg=", "properties": {"@source_uri": "https://tools.usps.com/UspsToolsRestServices/rest/POLocator/findLocations", "@spider": "usps_collection_boxes", "addr:city": "CONROE", "addr:country": "US", "addr:postcode": "77301", "addr:state": "TX", "addr:street_address": "809 W DALLAS ST", "amenity": "post_box", "collection_times": "Mo-Sa 17:00", "indoor": "yes", "note": "ON 12/24 AND 12/31, THIS BOX MAY BE COLLECTED AS EARLY AS 12 NOON.", "nsi_id": "unitedstatespostalservice-a77078", "operator": "United States Postal Service", "operator:short": "USPS", "operator:type": "public", "operator:wikidata": "Q668687", "ref": "7730100051"}, "type": "Feature"}
{"geometry": {"coordinates": [-95.466154, 30.317882], "type": "Point"}, "id": "nddDpHr2qvUJ-6DYs84fgvNsAOc=", "properties": {"@source_uri": "https://tools.usps.com/UspsToolsRestServices/rest/POLocator/findLocations", "@spider": "usps_collection_boxes", "addr:city": "CONROE", "addr:country": "US", "addr:postcode": "77301", "addr:state": "TX", "addr:street_address": "809 W DALLAS ST", "amenity": "post_box", "collection_times": "Mo-Sa 17:00", "name": "USPS COLLECTION BOX - APC", "note": "ON 12/24 AND 12/31, THIS BOX MAY BE COLLECTED AS EARLY AS 12 NOON.", "nsi_id": "unitedstatespostalservice-a77078", "operator": "United States Postal Service", "operator:short": "USPS", "operator:type": "public", "operator:wikidata": "Q668687", "ref": "7730100052"}, "type": "Feature"}
{"geometry": {"coordinates": [-95.465885807, 30.318050329], "type": "Point"}, "id": "lL0hbVcxctADeUi5JLE3TvL0APQ=", "properties": {"@source_uri": "https://tools.usps.com/UspsToolsRestServices/rest/POLocator/findLocations", "@spider": "usps_collection_boxes", "addr:city": "CONROE", "addr:country": "US", "addr:postcode": "77301", "addr:state": "TX", "addr:street_address": "809 W DALLAS ST", "amenity": "post_box", "collection_times": "Mo-Fr 17:30; Sa 12:00", "indoor": "yes", "note": "ON 12/24 AND 12/31, THIS BOX MAY BE COLLECTED AS EARLY AS 12 NOON.", "nsi_id": "unitedstatespostalservice-a77078", "operator": "United States Postal Service", "operator:short": "USPS", "operator:type": "public", "operator:wikidata": "Q668687", "ref": "7730100057"}, "type": "Feature"}
{"geometry": {"coordinates": [-95.444682, 30.255593], "type": "Point"}, "id": "GrKQJ3m8fdk62shVK7obNrY73kM=", "properties": {"@source_uri": "https://tools.usps.com/UspsToolsRestServices/rest/POLocator/findLocations", "@spider": "usps_collection_boxes", "addr:city": "CONROE", "addr:country": "US", "addr:postcode": "77302", "addr:state": "TX", "addr:street_address": "451 RIVER PLANTATION DR", "amenity": "post_box", "collection_times": "Mo-Fr 13:30", "note": "ON 12/24 AND 12/31, THIS BOX MAY BE COLLECTED AS EARLY AS 12 NOON.", "nsi_id": "unitedstatespostalservice-a77078", "operator": "United States Postal Service", "operator:short": "USPS", "operator:type": "public", "operator:wikidata": "Q668687", "ref": "7730200000"}, "type": "Feature"}
{"geometry": {"coordinates": [-95.4792493317, 30.3654610308], "type": "Point"}, "id": "UQSDGklZr7Ps6JvXhz1ZosKG-z8=", "properties": {"@source_uri": "https://tools.usps.com/UspsToolsRestServices/rest/POLocator/findLocations", "@spider": "usps_collection_boxes", "addr:city": "CONROE", "addr:country": "US", "addr:postcode": "77303", "addr:state": "TX", "addr:street_address": "1111 LEAGUE LINE RD", "amenity": "post_box", "collection_times": "Mo-Fr 14:30", "note": "ON 12/24 AND 12/31, THIS BOX MAY BE COLLECTED AS EARLY AS 12 NOON.", "nsi_id": "unitedstatespostalservice-a77078", "operator": "United States Postal Service", "operator:short": "USPS", "operator:type": "public", "operator:wikidata": "Q668687", "ref": "7730300004"}, "type": "Feature"}
{"geometry": {"coordinates": [-95.482495, 30.319685], "type": "Point"}, "id": "erdlhxEtqQcvekrzuhuvhgTF0sQ=", "properties": {"@source_uri": "https://tools.usps.com/UspsToolsRestServices/rest/POLocator/findLocations", "@spider": "usps_collection_boxes", "addr:city": "CONROE", "addr:country": "US", "addr:postcode": "77304", "addr:state": "TX", "addr:street_address": "2040 N LOOP 336 W", "amenity": "post_box", "collection_times": "Mo-Fr 14:45", "note": "ON 12/24 AND 12/31, THIS BOX MAY BE COLLECTED AS EARLY AS 12 NOON.", "nsi_id": "unitedstatespostalservice-a77078", "operator": "United States Postal Service", "operator:short": "USPS", "operator:type": "public", "operator:wikidata": "Q668687", "ref": "7730400003"}, "type": "Feature"}
{"geometry": {"coordinates": [-95.47955, 30.309107], "type": "Point"}, "id": "r8ouEDUpoL9Yv7xvi9MEvulomOg=", "properties": {"@source_uri": "https://tools.usps.com/UspsToolsRestServices/rest/POLocator/findLocations", "@spider": "usps_collection_boxes", "addr:city": "CONROE", "addr:country": "US", "addr:postcode": "77304", "addr:state": "TX", "addr:street_address": "100 COMMERCIAL CIR", "amenity": "post_box", "collection_times": "Mo-Fr 16:00", "note": "ON 12/24 AND 12/31, THIS BOX MAY BE COLLECTED AS EARLY AS 12 NOON.", "nsi_id": "unitedstatespostalservice-a77078", "operator": "United States Postal Service", "operator:short": "USPS", "operator:type": "public", "operator:wikidata": "Q668687", "ref": "7730400004"}, "type": "Feature"}
{"geometry": {"coordinates": [-95.4836459, 30.319638], "type": "Point"}, "id": "xXUbCldn3H90bL3-4LrMILesH6w=", "properties": {"@source_uri": "https://tools.usps.com/UspsToolsRestServices/rest/POLocator/findLocations", "@spider": "usps_collection_boxes", "addr:city": "CONROE", "addr:country": "US", "addr:postcode": "77304", "addr:state": "TX", "addr:street_address": "3101 W DAVIS ST", "amenity": "post_box", "collection_times": "Mo-Fr 15:00", "note": "ON 12/24 AND 12/31, THIS BOX MAY BE COLLECTED AS EARLY AS 12 NOON.", "nsi_id": "unitedstatespostalservice-a77078", "operator": "United States Postal Service", "operator:short": "USPS", "operator:type": "public", "operator:wikidata": "Q668687", "ref": "7730400009"}, "type": "Feature"}
{"geometry": {"coordinates": [-95.495238, 30.378693], "type": "Point"}, "id": "ldszPhMzYd1F0ElMaNjZKBNH2X0=", "properties": {"@source_uri": "https://tools.usps.com/UspsToolsRestServices/rest/POLocator/findLocations", "@spider": "usps_collection_boxes", "addr:city": "CONROE", "addr:country": "US", "addr:postcode": "77304", "addr:state": "TX", "addr:street_address": "99 HIWON DR", "amenity": "post_box", "collection_times": "Mo-Fr 12:15", "note": "ON 12/24 AND 12/31, THIS BOX MAY BE COLLECTED AS EARLY AS 12 NOON.", "nsi_id": "unitedstatespostalservice-a77078", "operator": "United States Postal Service", "operator:short": "USPS", "operator:type": "public", "operator:wikidata": "Q668687", "ref": "7730400014"}, "type": "Feature"}
{"geometry": {"coordinates": [-95.458569, 30.279847], "type": "Point"}, "id": "UwWBo09dRIWyKvLQVpoObcC0Nv0=", "properties": {"@source_uri": "https://tools.usps.com/UspsToolsRestServices/rest/POLocator/findLocations", "@spider": "usps_collection_boxes", "addr:city": "CONROE", "addr:country": "US", "addr:postcode": "77304", "addr:state": "TX", "addr:street_address": "220 S LOOP 336 W", "amenity": "post_box", "collection_times": "Mo-Fr 15:45", "note": "ON 12/24 AND 12/31, THIS BOX MAY BE COLLECTED AS EARLY AS 12 NOON.", "nsi_id": "unitedstatespostalservice-a77078", "operator": "United States Postal Service", "operator:short": "USPS", "operator:type": "public", "operator:wikidata": "Q668687", "ref": "7730400020"}, "type": "Feature"}
{"geometry": {"coordinates": [-95.4655218, 30.289731], "type": "Point"}, "id": "BtrKUh8Y0AYeV6UkuRCZwVRVEJQ=", "properties": {"@source_uri": "https://tools.usps.com/UspsToolsRestServices/rest/POLocator/findLocations", "@spider": "usps_collection_boxes", "addr:city": "CONROE", "addr:country": "US", "addr:postcode": "77304", "addr:state": "TX", "addr:street_address": "333 N RIVERSHIRE DR", "amenity": "post_box", "collection_times": "Mo-Fr 13:00", "note": "ON 12/24 AND 12/31, THIS BOX MAY BE COLLECTED AS EARLY AS 12 NOON.", "nsi_id": "unitedstatespostalservice-a77078", "operator": "United States Postal Service", "operator:short": "USPS", "operator:type": "public", "operator:wikidata": "Q668687", "ref": "7730400025"}, "type": "Feature"}
{"geometry": {"coordinates": [-95.550296, 30.342573], "type": "Point"}, "id": "yb6XvUmbZv4y4A9ooyowU7LC2YI=", "properties": {"@source_uri": "https://tools.usps.com/UspsToolsRestServices/rest/POLocator/findLocations", "@spider": "usps_collection_boxes", "addr:city": "CONROE", "addr:country": "US", "addr:postcode": "77304", "addr:state": "TX", "addr:street_address": "12603 HIGHWAY 105 W", "amenity": "post_box", "collection_times": "Mo-Fr 12:30", "note": "ON 12/24 AND 12/31, THIS BOX MAY BE COLLECTED AS EARLY AS 12 NOON.", "nsi_id": "unitedstatespostalservice-a77078", "operator": "United States Postal Service", "operator:short": "USPS", "operator:type": "public", "operator:wikidata": "Q668687", "ref": "7730400032"}, "type": "Feature"}
{"geometry": {"coordinates": [-95.466431, 30.284127], "type": "Point"}, "id": "kvtJQMsou9HJiwhqPo23jik1NMI=", "properties": {"@source_uri": "https://tools.usps.com/UspsToolsRestServices/rest/POLocator/findLocations", "@spider": "usps_collection_boxes", "addr:city": "CONROE", "addr:country": "US", "addr:postcode": "77304", "addr:state": "TX", "addr:street_address": "504 MEDICAL CENTER BLVD", "amenity": "post_box", "collection_times": "Mo-Fr 15:30", "note": "ON 12/24 AND 12/31, THIS BOX MAY BE COLLECTED AS EARLY AS 12 NOON.", "nsi_id": "unitedstatespostalservice-a77078", "operator": "United States Postal Service", "operator:short": "USPS", "operator:type": "public", "operator:wikidata": "Q668687", "ref": "7730400034"}, "type": "Feature"}
{"geometry": {"coordinates": [-95.482495, 30.319685], "type": "Point"}, "id": "7snEW3r7n9EVpbCTvwCzMBHxlvk=", "properties": {"@source_uri": "https://tools.usps.com/UspsToolsRestServices/rest/POLocator/findLocations", "@spider": "usps_collection_boxes", "addr:city": "CONROE", "addr:country": "US", "addr:postcode": "77304", "addr:state": "TX", "addr:street_address": "2245 N LOOP 336 W", "amenity": "post_box", "collection_times": "Mo-Fr 14:45", "note": "ON 12/24 AND 12/31, THIS BOX MAY BE COLLECTED AS EARLY AS 12 NOON.", "nsi_id": "unitedstatespostalservice-a77078", "operator": "United States Postal Service", "operator:short": "USPS", "operator:type": "public", "operator:wikidata": "Q668687", "ref": "7730400035"}, "type": "Feature"}
{"geometry": {"coordinates": [-95.3571279977, 30.3334050208], "type": "Point"}, "id": "AbHw1nAyvuKj9vKrfYSIEyXe4Wg=", "properties": {"@source_uri": "https://tools.usps.com/UspsToolsRestServices/rest/POLocator/findLocations", "@spider": "usps_collection_boxes", "addr:city": "CONROE", "addr:country": "US", "addr:postcode": "77306", "addr:state": "TX", "addr:street_address": "13985 HIGHWAY 105 E", "amenity": "post_box", "collection_times": "Mo-Fr 14:00", "note": "ON 12/24 AND 12/31, THIS BOX MAY BE COLLECTED AS EARLY AS 12 NOON.", "nsi_id": "unitedstatespostalservice-a77078", "operator": "United States Postal Service", "operator:short": "USPS", "operator:type": "public", "operator:wikidata": "Q668687", "ref": "7730600001"}, "type": "Feature"}
{"geometry": {"coordinates": [-95.32094, 29.930335], "type": "Point"}, "id": "WWGIHR6R3a64nlkHrHrsVb75lpQ=", "properties": {"@source_uri": "https://tools.usps.com/UspsToolsRestServices/rest/POLocator/findLocations", "@spider": "usps_collection_boxes", "addr:city": "NORTH HOUSTON", "addr:country": "US", "addr:postcode": "77315", "addr:state": "TX", "addr:street_address": "4600 ALDINE BENDER RD", "amenity": "post_box", "collection_times": "Mo-Fr 18:00; Sa 17:00", "note": "ON 12/24 AND 12/31, THIS BOX MAY BE COLLECTED AS EARLY AS 12 NOON.", "nsi_id": "unitedstatespostalservice-a77078", "operator": "United States Postal Service", "operator:short": "USPS", "operator:type": "public", "operator:wikidata": "Q668687", "ref": "7731500006"}, "type": "Feature"}
{"geometry": {"coordinates": [-95.553600703, 30.725054532], "type": "Point"}, "id": "4exXfi5CTehWgfG01VIJJpcxopM=", "properties": {"@source_uri": "https://tools.usps.com/UspsToolsRestServices/rest/POLocator/findLocations", "@spider": "usps_collection_boxes", "addr:city": "HUNTSVILLE", "addr:country": "US", "addr:postcode": "77320", "addr:state": "TX", "addr:street_address": "1315 10TH ST", "amenity": "post_box", "collection_times": "Mo-Fr 17:00; Sa 12:00", "indoor": "yes", "note": "ON 12/24 AND 12/31, THIS BOX MAY BE COLLECTED AS EARLY AS 12 NOON.", "nsi_id": "unitedstatespostalservice-a77078", "operator": "United States Postal Service", "operator:short": "USPS", "operator:type": "public", "operator:wikidata": "Q668687", "ref": "7732000002"}, "type": "Feature"}
{"geometry": {"coordinates": [-95.553600703, 30.725054532], "type": "Point"}, "id": "8-anG-MbFDSol7vqF1Qy8bLQyWQ=", "properties": {"@source_uri": "https://tools.usps.com/UspsToolsRestServices/rest/POLocator/findLocations", "@spider": "usps_collection_boxes", "addr:city": "HUNTSVILLE", "addr:country": "US", "addr:postcode": "77320", "addr:state": "TX", "addr:street_address": "1315 10TH ST", "amenity": "post_box", "collection_times": "Mo-Fr 17:00; Sa 13:00", "indoor": "yes", "note": "ON 12/24 AND 12/31, THIS BOX MAY BE COLLECTED AS EARLY AS 12 NOON.", "nsi_id": "unitedstatespostalservice-a77078", "operator": "United States Postal Service", "operator:short": "USPS", "operator:type": "public", "operator:wikidata": "Q668687", "ref": "7732000004"}, "type": "Feature"}
{"geometry": {"coordinates": [-94.8181972201, 30.5238020109], "type": "Point"}, "id": "Qc0zjT9BHZtF2KbTsqbN6e2uxA4=", "properties": {"@source_uri": "https://tools.usps.com/UspsToolsRestServices/rest/POLocator/findLocations", "@spider": "usps_collection_boxes", "addr:city": "ACE", "addr:country": "US", "addr:postcode": "77326", "addr:state": "TX", "addr:street_address": "2038 HIGHWAY 2610", "amenity": "post_box", "collection_times": "Mo-Fr 12:45; Sa 11:00", "indoor": "yes", "note": "ON 12/24 AND 12/31, THIS BOX MAY BE COLLECTED AS EARLY AS 12 NOON.", "nsi_id": "unitedstatespostalservice-a77078", "operator": "United States Postal Service", "operator:short": "USPS", "operator:type": "public", "operator:wikidata": "Q668687", "ref": "7732600001"}, "type": "Feature"}
{"geometry": {"coordinates": [-94.8243899743, 30.5338247846], "type": "Point"}, "id": "QgfPvTBJlD-nAkwgG-KQZ0_OT64=", "properties": {"@source_uri": "https://tools.usps.com/UspsToolsRestServices/rest/POLocator/findLocations", "@spider": "usps_collection_boxes", "addr:city": "ACE", "addr:country": "US", "addr:postcode": "77326", "addr:state": "TX", "addr:street_address": "2038 HIGHWAY 2610", "amenity": "post_box", "collection_times": "Mo-Fr 12:45; Sa 11:00", "note": "ON 12/24 AND 12/31, THIS BOX MAY BE COLLECTED AS EARLY AS 12 NOON.", "nsi_id": "unitedstatespostalservice-a77078", "operator": "United States Postal Service", "operator:short": "USPS", "operator:type": "public", "operator:wikidata": "Q668687", "ref": "7732600003"}, "type": "Feature"}
{"geometry": {"coordinates": [-94.8246388328, 30.5332599895], "type": "Point"}, "id": "YIatcMn2XZdtv_-TzPGVwhAm6do=", "properties": {"@source_uri": "https://tools.usps.com/UspsToolsRestServices/rest/POLocator/findLocations", "@spider": "usps_collection_boxes", "addr:city": "ACE", "addr:country": "US", "addr:postcode": "77326", "addr:state": "TX", "addr:street_address": "2038 HIGHWAY 2610", "amenity": "post_box", "collection_times": "Mo-Fr 13:00; Sa 11:15", "indoor": "yes", "note": "ON 12/24 AND 12/31, THIS BOX MAY BE COLLECTED AS EARLY AS 12 NOON.", "nsi_id": "unitedstatespostalservice-a77078", "operator": "United States Postal Service", "operator:short": "USPS", "operator:type": "public", "operator:wikidata": "Q668687", "ref": "7732600004"}, "type": "Feature"}
{"geometry": {"coordinates": [-95.085355, 30.339905], "type": "Point"}, "id": "tQUs4HdkLVOVPRAbqwcYHorzsww=", "properties": {"@source_uri": "https://tools.usps.com/UspsToolsRestServices/rest/POLocator/findLocations", "@spider": "usps_collection_boxes", "addr:city": "CLEVELAND", "addr:country": "US", "addr:postcode": "77327", "addr:state": "TX", "addr:street_address": "1213 E HOUSTON ST", "amenity": "post_box", "collection_times": "Mo-Fr 17:00; Sa 14:00", "note": "ON 12/24 AND 12/31, THIS BOX MAY BE COLLECTED AS EARLY AS 12 NOON.", "nsi_id": "unitedstatespostalservice-a77078", "operator": "United States Postal Service", "operator:short": "USPS", "operator:type": "public", "operator:wikidata": "Q668687", "ref": "7732700001"}, "type": "Feature"}
{"geometry": {"coordinates": [-95.085355, 30.339905], "type": "Point"}, "id": "zSkcEi7Abq4qKRF065yvfl7rwVI=", "properties": {"@source_uri": "https://tools.usps.com/UspsToolsRestServices/rest/POLocator/findLocations", "@spider": "usps_collection_boxes", "addr:city": "CLEVELAND", "addr:country": "US", "addr:postcode": "77327", "addr:state": "TX", "addr:street_address": "610 E HOUSTON ST", "amenity": "post_box", "collection_times": "Mo-Fr 15:00", "note": "ON 12/24 AND 12/31, THIS BOX MAY BE COLLECTED AS EARLY AS 12 NOON.", "nsi_id": "unitedstatespostalservice-a77078", "operator": "United States Postal Service", "operator:short": "USPS", "operator:type": "public", "operator:wikidata": "Q668687", "ref": "7732700004"}, "type": "Feature"}
{"geometry": {"coordinates": [-95.085355, 30.339905], "type": "Point"}, "id": "nbreCumyB-bAPa3rrOPX4KIRfxQ=", "properties": {"@source_uri": "https://tools.usps.com/UspsToolsRestServices/rest/POLocator/findLocations", "@spider": "usps_collection_boxes", "addr:city": "CLEVELAND", "addr:country": "US", "addr:postcode": "77327", "addr:state": "TX", "addr:street_address": "300 E CROCKETT ST", "amenity": "post_box", "collection_times": "Mo-Fr 15:00", "note": "ON 12/24 AND 12/31, THIS BOX MAY BE COLLECTED AS EARLY AS 12 NOON.", "nsi_id": "unitedstatespostalservice-a77078", "operator": "United States Postal Service", "operator:short": "USPS", "operator:type": "public", "operator:wikidata": "Q668687", "ref": "7732700006"}, "type": "Feature"}
{"geometry": {"coordinates": [-95.085355, 30.339905], "type": "Point"}, "id": "3pAZL2W-9NHgn8aeCi2jTj4KqqA=", "properties": {"@source_uri": "https://tools.usps.com/UspsToolsRestServices/rest/POLocator/findLocations", "@spider": "usps_collection_boxes", "addr:city": "CLEVELAND", "addr:country": "US", "addr:postcode": "77327", "addr:state": "TX", "addr:street_address": "100 W CROCKETT ST", "amenity": "post_box", "collection_times": "Mo-Fr 12:30", "note": "ON 12/24 AND 12/31, THIS BOX MAY BE COLLECTED AS EARLY AS 12 NOON.", "nsi_id": "unitedstatespostalservice-a77078", "operator": "United States Postal Service", "operator:short": "USPS", "operator:type": "public", "operator:wikidata": "Q668687", "ref": "7732700007"}, "type": "Feature"}
{"geometry": {"coordinates": [-95.085355, 30.339905], "type": "Point"}, "id": "CIOfmxfS4YaWkTc83r2qLpHK39Y=", "properties": {"@source_uri": "https://tools.usps.com/UspsToolsRestServices/rest/POLocator/findLocations", "@spider": "usps_collection_boxes", "addr:city": "CLEVELAND", "addr:country": "US", "addr:postcode": "77327", "addr:state": "TX", "addr:street_address": "146 TRULY PLZ", "amenity": "post_box", "collection_times": "Mo-Fr 15:00", "note": "ON 12/24 AND 12/31, THIS BOX MAY BE COLLECTED AS EARLY AS 12 NOON.", "nsi_id": "unitedstatespostalservice-a77078", "operator": "United States Postal Service", "operator:short": "USPS", "operator:type": "public", "operator:wikidata": "Q668687", "ref": "7732700008"}, "type": "Feature"}
{"geometry": {"coordinates": [-95.0730284, 30.341598], "type": "Point"}, "id": "Ye7cEIHc9Ug9yQvdExLelD6C6io=", "properties": {"@source_uri": "https://tools.usps.com/UspsToolsRestServices/rest/POLocator/findLocations", "@spider": "usps_collection_boxes", "addr:city": "CLEVELAND", "addr:country": "US", "addr:postcode": "77327", "addr:state": "TX", "addr:street_address": "1213 E HOUSTON ST", "amenity": "post_box", "collection_times": "Mo-Fr 17:00; Sa 14:00", "indoor": "yes", "note": "ON 12/24 AND 12/31, THIS BOX MAY BE COLLECTED AS EARLY AS 12 NOON.", "nsi_id": "unitedstatespostalservice-a77078", "operator": "United States Postal Service", "operator:short": "USPS", "operator:type": "public", "operator:wikidata": "Q668687", "ref": "7732700009"}, "type": "Feature"}
{"geometry": {"coordinates": [-95.0730092, 30.341588], "type": "Point"}, "id": "uYwhqe5F7caG7b1VL076CrMJM3g=", "properties": {"@source_uri": "https://tools.usps.com/UspsToolsRestServices/rest/POLocator/findLocations", "@spider": "usps_collection_boxes", "addr:city": "CLEVELAND", "addr:country": "US", "addr:postcode": "77327", "addr:state": "TX", "addr:street_address": "1213 E HOUSTON ST", "amenity": "post_box", "collection_times": "Mo-Fr 17:00; Sa 14:00", "indoor": "yes", "note": "ON 12/24 AND 12/31, THIS BOX MAY BE COLLECTED AS EARLY AS 12 NOON.", "nsi_id": "unitedstatespostalservice-a77078", "operator": "United States Postal Service", "operator:short": "USPS", "operator:type": "public", "operator:wikidata": "Q668687", "ref": "7732700010"}, "type": "Feature"}
{"geometry": {"coordinates": [-95.073309398, 30.341145258], "type": "Point"}, "id": "mSwRVX1JAF66AesGnUFLV_QTudQ=", "properties": {"@source_uri": "https://tools.usps.com/UspsToolsRestServices/rest/POLocator/findLocations", "@spider": "usps_collection_boxes", "addr:city": "CLEVELAND", "addr:country": "US", "addr:postcode": "77327", "addr:state": "TX", "addr:street_address": "1213 E HOUSTON ST", "amenity": "post_box", "collection_times": "Mo-Fr 17:00; Sa 12:00", "indoor": "yes", "note": "ON 12/24 AND 12/31, THIS BOX MAY BE COLLECTED AS EARLY AS 12 NOON.", "nsi_id": "unitedstatespostalservice-a77078", "operator": "United States Postal Service", "operator:short": "USPS", "operator:type": "public", "operator:wikidata": "Q668687", "ref": "7732700013"}, "type": "Feature"}
{"geometry": {"coordinates": [-95.268918, 30.552342], "type": "Point"}, "id": "pNcrbU4fhlXVOxGkpADNcXeee_Q=", "properties": {"@source_uri": "https://tools.usps.com/UspsToolsRestServices/rest/POLocator/findLocations", "@spider": "usps_collection_boxes", "addr:city": "COLDSPRING", "addr:country": "US", "addr:postcode": "77331", "addr:state": "TX", "addr:street_address": "14231 STATE HIGHWAY 150 W", "amenity": "post_box", "collection_times": "Mo-Fr 17:00; Sa 12:00", "note": "ON 12/24 AND 12/31, THIS BOX MAY BE COLLECTED AS EARLY AS 12 NOON.", "nsi_id": "unitedstatespostalservice-a77078", "operator": "United States Postal Service", "operator:short": "USPS", "operator:type": "public", "operator:wikidata": "Q668687", "ref": "7733100001"}, "type": "Feature"}
{"geometry": {"coordinates": [-95.13632, 30.586538], "type": "Point"}, "id": "ZtB5BEscEQyAhCRibpHHckFgY58=", "properties": {"@source_uri": "https://tools.usps.com/UspsToolsRestServices/rest/POLocator/findLocations", "@spider": "usps_collection_boxes", "addr:city": "COLDSPRING", "addr:country": "US", "addr:postcode": "77331", "addr:state": "TX", "addr:street_address": "14231 STATE HIGHWAY 150 W", "amenity": "post_box", "collection_times": "Mo-Fr 17:00; Sa 12:00", "indoor": "yes", "note": "ON 12/24 AND 12/31, THIS BOX MAY BE COLLECTED AS EARLY AS 12 NOON.", "nsi_id": "unitedstatespostalservice-a77078", "operator": "United States Postal Service", "operator:short": "USPS", "operator:type": "public", "operator:wikidata": "Q668687", "ref": "7733100002"}, "type": "Feature"}
{"geometry": {"coordinates": [-95.137452984, 30.581015636], "type": "Point"}, "id": "aWwUL1PCY3Z8ctBNOOxLbuJoUrs=", "properties": {"@source_uri": "https://tools.usps.com/UspsToolsRestServices/rest/POLocator/findLocations", "@spider": "usps_collection_boxes", "addr:city": "COLDSPRING", "addr:country": "US", "addr:postcode": "77331", "addr:state": "TX", "addr:street_address": "14231 STATE HIGHWAY 150 W", "amenity": "post_box", "collection_times": "Mo-Fr 17:00; Sa 12:00", "indoor": "yes", "note": "ON 12/24 AND 12/31, THIS BOX MAY BE COLLECTED AS EARLY AS 12 NOON.", "nsi_id": "unitedstatespostalservice-a77078", "operator": "United States Postal Service", "operator:short": "USPS", "operator:type": "public", "operator:wikidata": "Q668687", "ref": "7733100004"}, "type": "Feature"}
{"geometry": {"coordinates": [-94.6357113058, 30.6283661406], "type": "Point"}, "id": "04vGfxChTj0bOw9-vEuLNgdBiA4=", "properties": {"@source_uri": "https://tools.usps.com/UspsToolsRestServices/rest/POLocator/findLocations", "@spider": "usps_collection_boxes", "addr:city": "DALLARDSVILLE", "addr:country": "US", "addr:postcode": "77332", "addr:state": "TX", "addr:street_address": "9030 FM 1276", "amenity": "post_box", "collection_times": "Mo-Sa 11:00", "nsi_id": "unitedstatespostalservice-a77078", "operator": "United States Postal Service", "operator:short": "USPS", "operator:type": "public", "operator:wikidata": "Q668687", "ref": "7733200001"}, "type": "Feature"}
{"geometry": {"coordinates": [-94.6357113058, 30.6283661406], "type": "Point"}, "id": "1CiifVKTRguhyRKdjTollCCJ1NQ=", "properties": {"@source_uri": "https://tools.usps.com/UspsToolsRestServices/rest/POLocator/findLocations", "@spider": "usps_collection_boxes", "addr:city": "DALLARDSVILLE", "addr:country": "US", "addr:postcode": "77332", "addr:state": "TX", "addr:street_address": "9030 FM 1276", "amenity": "post_box", "collection_times": "Mo-Sa 11:00", "indoor": "yes", "nsi_id": "unitedstatespostalservice-a77078", "operator": "United States Postal Service", "operator:short": "USPS", "operator:type": "public", "operator:wikidata": "Q668687", "ref": "7733200002"}, "type": "Feature"}
{"geometry": {"coordinates": [-94.635523918, 30.628429629], "type": "Point"}, "id": "eprxV_sLMFZ2L1-FEdjzxqWfUNY=", "properties": {"@source_uri": "https://tools.usps.com/UspsToolsRestServices/rest/POLocator/findLocations", "@spider": "usps_collection_boxes", "addr:city": "DALLARDSVILLE", "addr:country": "US", "addr:postcode": "77332", "addr:state": "TX", "addr:street_address": "9030 FM 1276", "amenity": "post_box", "collection_times": "Mo-Fr 13:30; Sa 12:00", "indoor": "yes", "note": "ON 12/24 AND 12/31, THIS BOX MAY BE COLLECTED AS EARLY AS 12 NOON.", "nsi_id": "unitedstatespostalservice-a77078", "operator": "United States Postal Service", "operator:short": "USPS", "operator:type": "public", "operator:wikidata": "Q668687", "ref": "7733200003"}, "type": "Feature"}
{"geometry": {"coordinates": [-95.777237905, 30.364950874], "type": "Point"}, "id": "6xHt9Wd-0ALcBt_Gon_gcTs3UPQ=", "properties": {"@source_uri": "https://tools.usps.com/UspsToolsRestServices/rest/POLocator/findLocations", "@spider": "usps_collection_boxes", "addr:city": "DOBBIN", "addr:country": "US", "addr:postcode": "77333", "addr:state": "TX", "addr:street_address": "26087 W HIGHWAY 105", "amenity": "post_box", "collection_times": "Mo-Fr 14:45; Sa 11:30", "note": "ON 12/24 AND 12/31, THIS BOX MAY BE COLLECTED AS EARLY AS 12 NOON.", "nsi_id": "unitedstatespostalservice-a77078", "operator": "United States Postal Service", "operator:short": "USPS", "operator:type": "public", "operator:wikidata": "Q668687", "ref": "7733300000"}, "type": "Feature"}
{"geometry": {"coordinates": [-95.7752210162, 30.3660480074], "type": "Point"}, "id": "rEHnTY17Wz3oYZUPlUJLDzMB34c=", "properties": {"@source_uri": "https://tools.usps.com/UspsToolsRestServices/rest/POLocator/findLocations", "@spider": "usps_collection_boxes", "addr:city": "DOBBIN", "addr:country": "US", "addr:postcode": "77333", "addr:state": "TX", "addr:street_address": "26087 W HIGHWAY 105", "amenity": "post_box", "collection_times": "Mo-Fr 14:45; Sa 11:30", "indoor": "yes", "note": "ON 12/24 AND 12/31, THIS BOX MAY BE COLLECTED AS EARLY AS 12 NOON.", "nsi_id": "unitedstatespostalservice-a77078", "operator": "United States Postal Service", "operator:short": "USPS", "operator:type": "public", "operator:wikidata": "Q668687", "ref": "7733300001"}, "type": "Feature"}
{"geometry": {"coordinates": [-95.7752210162, 30.3660480074], "type": "Point"}, "id": "5MOIqps8fuUKF-IBjqoe32FP8rg=", "properties": {"@source_uri": "https://tools.usps.com/UspsToolsRestServices/rest/POLocator/findLocations", "@spider": "usps_collection_boxes", "addr:city": "DOBBIN", "addr:country": "US", "addr:postcode": "77333", "addr:state": "TX", "addr:street_address": "26087 W HIGHWAY 105", "amenity": "post_box", "collection_times": "Mo-Fr 15:00; Sa 11:30", "indoor": "yes", "note": "ON 12/24 AND 12/31, THIS BOX MAY BE COLLECTED AS EARLY AS 12 NOON.", "nsi_id": "unitedstatespostalservice-a77078", "operator": "United States Postal Service", "operator:short": "USPS", "operator:type": "public", "operator:wikidata": "Q668687", "ref": "7733300002"}, "type": "Feature"}
{"geometry": {"coordinates": [-95.40027, 30.74206], "type": "Point"}, "id": "KywoYtaWgPk00apTP0f8GRQRs5o=", "properties": {"@source_uri": "https://tools.usps.com/UspsToolsRestServices/rest/POLocator/findLocations", "@spider": "usps_collection_boxes", "addr:city": "DODGE", "addr:country": "US", "addr:postcode": "77334", "addr:state": "TX", "addr:street_address": "174 FM 405", "amenity": "post_box", "collection_times": "Mo-Fr 12:45; Sa 10:00", "note": "ON 12/24 AND 12/31, THIS BOX MAY BE COLLECTED AS EARLY AS 12 NOON.", "nsi_id": "unitedstatespostalservice-a77078", "operator": "United States Postal Service", "operator:short": "USPS", "operator:type": "public", "operator:wikidata": "Q668687", "ref": "7733400001"}, "type": "Feature"}
{"geometry": {"coordinates": [-95.3979269454, 30.7435221867], "type": "Point"}, "id": "sAhuWwtuGecCMKICkyEy1uo35_E=", "properties": {"@source_uri": "https://tools.usps.com/UspsToolsRestServices/rest/POLocator/findLocations", "@spider": "usps_collection_boxes", "addr:city": "DODGE", "addr:country": "US", "addr:postcode": "77334", "addr:state": "TX", "addr:street_address": "174 FM 405", "amenity": "post_box", "collection_times": "Mo-Fr 12:45; Sa 10:00", "indoor": "yes", "note": "ON 12/24 AND 12/31, THIS BOX MAY BE COLLECTED AS EARLY AS 12 NOON.", "nsi_id": "unitedstatespostalservice-a77078", "operator": "United States Postal Service", "operator:short": "USPS", "operator:type": "public", "operator:wikidata": "Q668687", "ref": "7733400002"}, "type": "Feature"}
{"geometry": {"coordinates": [-95.4000876, 30.74279064], "type": "Point"}, "id": "g_XxxLhjjqfuFMYpFFTPJsEQcY8=", "properties": {"@source_uri": "https://tools.usps.com/UspsToolsRestServices/rest/POLocator/findLocations", "@spider": "usps_collection_boxes", "addr:city": "DODGE", "addr:country": "US", "addr:postcode": "77334", "addr:state": "TX", "addr:street_address": "174 FM 405", "amenity": "post_box", "collection_times": "Mo-Fr 13:00; Sa 10:00", "indoor": "yes", "note": "ON 12/24 AND 12/31, THIS BOX MAY BE COLLECTED AS EARLY AS 12 NOON.", "nsi_id": "unitedstatespostalservice-a77078", "operator": "United States Postal Service", "operator:short": "USPS", "operator:type": "public", "operator:wikidata": "Q668687", "ref": "7733400003"}, "type": "Feature"}
{"geometry": {"coordinates": [-94.943375967, 30.6075460187], "type": "Point"}, "id": "30gbtJ_TDwblUIQfi4qeiW0CR0k=", "properties": {"@source_uri": "https://tools.usps.com/UspsToolsRestServices/rest/POLocator/findLocations", "@spider": "usps_collection_boxes", "addr:city": "GOODRICH", "addr:country": "US", "addr:postcode": "77335", "addr:state": "TX", "addr:street_address": "7440 US HIGHWAY 59 S", "amenity": "post_box", "collection_times": "Mo-Fr 16:15; Sa 10:00", "indoor": "yes", "note": "ON 12/24 AND 12/31, THIS BOX MAY BE COLLECTED AS EARLY AS 12 NOON.", "nsi_id": "unitedstatespostalservice-a77078", "operator": "United States Postal Service", "operator:short": "USPS", "operator:type": "public", "operator:wikidata": "Q668687", "ref": "7733500003"}, "type": "Feature"}
{"geometry": {"coordinates": [-94.943375967, 30.6075460187], "type": "Point"}, "id": "hFhATWLvwm0otF2NJ6tE_tVPqFI=", "properties": {"@source_uri": "https://tools.usps.com/UspsToolsRestServices/rest/POLocator/findLocations", "@spider": "usps_collection_boxes", "addr:city": "GOODRICH", "addr:country": "US", "addr:postcode": "77335", "addr:state": "TX", "addr:street_address": "7440 US HIGHWAY 59 S", "amenity": "post_box", "collection_times": "Mo-Fr 16:15", "indoor": "yes", "note": "ON 12/24 AND 12/31, THIS BOX MAY BE COLLECTED AS EARLY AS 12 NOON.", "nsi_id": "unitedstatespostalservice-a77078", "operator": "United States Postal Service", "operator:short": "USPS", "operator:type": "public", "operator:wikidata": "Q668687", "ref": "7733500005"}, "type": "Feature"}
{"geometry": {"coordinates": [-95.08976, 30.034499], "type": "Point"}, "id": "JBXRzo-8LNdhVrwiCr_QiHA04nk=", "properties": {"@source_uri": "https://tools.usps.com/UspsToolsRestServices/rest/POLocator/findLocations", "@spider": "usps_collection_boxes", "addr:city": "HUFFMAN", "addr:country": "US", "addr:postcode": "77336", "addr:state": "TX", "addr:street_address": "24936 FM 2100 RD", "amenity": "post_box", "collection_times": "Mo-Fr 16:30; Sa 12:00", "indoor": "yes", "note": "ON 12/24 AND 12/31, THIS BOX MAY BE COLLECTED AS EARLY AS 12 NOON.", "nsi_id": "unitedstatespostalservice-a77078", "operator": "United States Postal Service", "operator:short": "USPS", "operator:type": "public", "operator:wikidata": "Q668687", "ref": "7733600004"}, "type": "Feature"}
{"geometry": {"coordinates": [-95.089636852, 30.034091193], "type": "Point"}, "id": "AN2mQ7PHwFJD5WDQ3iDTgyuV_Iw=", "properties": {"@source_uri": "https://tools.usps.com/UspsToolsRestServices/rest/POLocator/findLocations", "@spider": "usps_collection_boxes", "addr:city": "HUFFMAN", "addr:country": "US", "addr:postcode": "77336", "addr:state": "TX", "addr:street_address": "24936 FM 2100 RD", "amenity": "post_box", "collection_times": "Mo-Fr 17:00", "indoor": "yes", "note": "ON 12/24 AND 12/31, THIS BOX MAY BE COLLECTED AS EARLY AS 12 NOON.", "nsi_id": "unitedstatespostalservice-a77078", "operator": "United States Postal Service", "operator:short": "USPS", "operator:type": "public", "operator:wikidata": "Q668687", "ref": "7733600006"}, "type": "Feature"}
{"geometry": {"coordinates": [-95.2627076, 30.0018996], "type": "Point"}, "id": "hrdgBa9ikQrrS6hBUtPsBNK9dpM=", "properties": {"@source_uri": "https://tools.usps.com/UspsToolsRestServices/rest/POLocator/findLocations", "@spider": "usps_collection_boxes", "addr:city": "HUMBLE", "addr:country": "US", "addr:postcode": "77338", "addr:state": "TX", "addr:street_address": "20202 HIGHWAY 59 N", "amenity": "post_box", "collection_times": "Mo-Fr 15:30", "note": "ON 12/24 AND 12/31, THIS BOX MAY BE COLLECTED AS EARLY AS 12 NOON.", "nsi_id": "unitedstatespostalservice-a77078", "operator": "United States Postal Service", "operator:short": "USPS", "operator:type": "public", "operator:wikidata": "Q668687", "ref": "7733800003"}, "type": "Feature"}
{"geometry": {"coordinates": [-95.2627076, 30.0018996], "type": "Point"}, "id": "EGbklfErSCPIu7uG3tvkEDKv9Os=", "properties": {"@source_uri": "https://tools.usps.com/UspsToolsRestServices/rest/POLocator/findLocations", "@spider": "usps_collection_boxes", "addr:city": "HUMBLE", "addr:country": "US", "addr:postcode": "77338", "addr:state": "TX", "addr:street_address": "18930 MEMORIAL DR", "amenity": "post_box", "collection_times": "Mo-Fr 16:00", "note": "ON 12/24 AND 12/31, THIS BOX MAY BE COLLECTED AS EARLY AS 12 NOON.", "nsi_id": "unitedstatespostalservice-a77078", "operator": "United States Postal Service", "operator:short": "USPS", "operator:type": "public", "operator:wikidata": "Q668687", "ref": "7733800012"}, "type": "Feature"}
{"geometry": {"coordinates": [-95.2627076, 30.0018996], "type": "Point"}, "id": "w9FRgdKlxPfYV4ITPK-TEUtSQeA=", "properties": {"@source_uri": "https://tools.usps.com/UspsToolsRestServices/rest/POLocator/findLocations", "@spider": "usps_collection_boxes", "addr:city": "HUMBLE", "addr:country": "US", "addr:postcode": "77338", "addr:state": "TX", "addr:street_address": "9805 FM 1960 BYPASS RD W", "amenity": "post_box", "collection_times": "Mo-Fr 15:45", "note": "ON 12/24 AND 12/31, THIS BOX MAY BE COLLECTED AS EARLY AS 12 NOON.", "nsi_id": "unitedstatespostalservice-a77078", "operator": "United States Postal Service", "operator:short": "USPS", "operator:type": "public", "operator:wikidata": "Q668687", "ref": "7733800034"}, "type": "Feature"}
{"geometry": {"coordinates": [-95.2550270293, 29.9985370086], "type": "Point"}, "id": "nIII2yu8gE7kydYWQlvGBqP0cV4=", "properties": {"@source_uri": "https://tools.usps.com/UspsToolsRestServices/rest/POLocator/findLocations", "@spider": "usps_collection_boxes", "addr:city": "HUMBLE", "addr:country": "US", "addr:postcode": "77338", "addr:state": "TX", "addr:street_address": "1202 1ST ST E", "amenity": "post_box", "collection_times": "Mo-Fr 17:00; Sa 15:00", "note": "ON 12/24 AND 12/31, THIS BOX MAY BE COLLECTED AS EARLY AS 12 NOON.", "nsi_id": "unitedstatespostalservice-a77078", "operator": "United States Postal Service", "operator:short": "USPS", "operator:type": "public", "operator:wikidata": "Q668687", "ref": "7733800037"}, "type": "Feature"}
{"geometry": {"coordinates": [-95.2627076, 30.0018996], "type": "Point"}, "id": "UqOt0mV___nmyw3X4BXbOue5mCY=", "properties": {"@source_uri": "https://tools.usps.com/UspsToolsRestServices/rest/POLocator/findLocations", "@spider": "usps_collection_boxes", "addr:city": "HUMBLE", "addr:country": "US", "addr:postcode": "77338", "addr:state": "TX", "addr:street_address": "20131 HIGHWAY 59 N", "amenity": "post_box", "collection_times": "Mo-Fr 15:45", "note": "ON 12/24 AND 12/31, THIS BOX MAY BE COLLECTED AS EARLY AS 12 NOON.", "nsi_id": "unitedstatespostalservice-a77078", "operator": "United States Postal Service", "operator:short": "USPS", "operator:type": "public", "operator:wikidata": "Q668687", "ref": "7733800045"}, "type": "Feature"}
{"geometry": {"coordinates": [-95.259918519, 29.992709539], "type": "Point"}, "id": "BXJGc5tpuhi_8k0kJJeeNnh8iJI=", "properties": {"@source_uri": "https://tools.usps.com/UspsToolsRestServices/rest/POLocator/findLocations", "@spider": "usps_collection_boxes", "addr:city": "HUMBLE", "addr:country": "US", "addr:postcode": "77338", "addr:state": "TX", "addr:street_address": "98 ISAACKS RD", "amenity": "post_box", "collection_times": "Mo-Fr 15:00; Sa 09:00", "note": "ON 12/24 AND 12/31, THIS BOX MAY BE COLLECTED AS EARLY AS 12 NOON.", "nsi_id": "unitedstatespostalservice-a77078", "operator": "United States Postal Service", "operator:short": "USPS", "operator:type": "public", "operator:wikidata": "Q668687", "ref": "7733800048"}, "type": "Feature"}
{"geometry": {"coordinates": [-95.254469703, 29.99917148], "type": "Point"}, "id": "1GI0e0KwIa9QzID6q3RDirDozCA=", "properties": {"@source_uri": "https://tools.usps.com/UspsToolsRestServices/rest/POLocator/findLocations", "@spider": "usps_collection_boxes", "addr:city": "HUMBLE", "addr:country": "US", "addr:postcode": "77338", "addr:state": "TX", "addr:street_address": "1202 1ST ST E", "amenity": "post_box", "collection_times": "Mo-Fr 17:00; Sa 15:00", "indoor": "yes", "note": "ON 12/24 AND 12/31, THIS BOX MAY BE COLLECTED AS EARLY AS 12 NOON.", "nsi_id": "unitedstatespostalservice-a77078", "operator": "United States Postal Service", "operator:short": "USPS", "operator:type": "public", "operator:wikidata": "Q668687", "ref": "7733800049"}, "type": "Feature"}
{"geometry": {"coordinates": [-95.2627076, 30.0018996], "type": "Point"}, "id": "F4Iee5thmpAnPxmQjmOALXlMt4g=", "properties": {"@source_uri": "https://tools.usps.com/UspsToolsRestServices/rest/POLocator/findLocations", "@spider": "usps_collection_boxes", "addr:city": "HUMBLE", "addr:country": "US", "addr:postcode": "77338", "addr:state": "TX", "addr:street_address": "7900 WILL CLAYTON PKWY", "amenity": "post_box", "collection_times": "Mo-Fr 16:00", "note": "ON 12/24 AND 12/31, THIS BOX MAY BE COLLECTED AS EARLY AS 12 NOON.", "nsi_id": "unitedstatespostalservice-a77078", "operator": "United States Postal Service", "operator:short": "USPS", "operator:type": "public", "operator:wikidata": "Q668687", "ref": "7733800056"}, "type": "Feature"}
{"geometry": {"coordinates": [-95.254469703, 29.99917148], "type": "Point"}, "id": "Enobm4TJFA-mGYef8FIYJYpzOgQ=", "properties": {"@source_uri": "https://tools.usps.com/UspsToolsRestServices/rest/POLocator/findLocations", "@spider": "usps_collection_boxes", "addr:city": "HUMBLE", "addr:country": "US", "addr:postcode": "77338", "addr:state": "TX", "addr:street_address": "1202 1ST ST E", "amenity": "post_box", "collection_times": "Mo-Fr 17:00; Sa 15:00", "name": "USPS COLLECTION BOX - APC", "note": "ON 12/24 AND 12/31, THIS BOX MAY BE COLLECTED AS EARLY AS 12 NOON.", "nsi_id": "unitedstatespostalservice-a77078", "operator": "United States Postal Service", "operator:short": "USPS", "operator:type": "public", "operator:wikidata": "Q668687", "ref": "7733800057"}, "type": "Feature"}
{"geometry": {"coordinates": [-95.267865402, 29.999984771], "type": "Point"}, "id": "tqEQtXbi0PhjuRyygVMY_815xUk=", "properties": {"@source_uri": "https://tools.usps.com/UspsToolsRestServices/rest/POLocator/findLocations", "@spider": "usps_collection_boxes", "addr:city": "HUMBLE", "addr:country": "US", "addr:postcode": "77338", "addr:state": "TX", "addr:street_address": "114 W HIGGINS ST", "amenity": "post_box", "collection_times": "Mo-Fr 16:15", "note": "ON 12/24 AND 12/31, THIS BOX MAY BE COLLECTED AS EARLY AS 12 NOON.", "nsi_id": "unitedstatespostalservice-a77078", "operator": "United States Postal Service", "operator:short": "USPS", "operator:type": "public", "operator:wikidata": "Q668687", "ref": "7733800058"}, "type": "Feature"}
{"geometry": {"coordinates": [-95.254469703, 29.99917148], "type": "Point"}, "id": "dVx1-EjibvShmKrJD4fiznTbLUE=", "properties": {"@source_uri": "https://tools.usps.com/UspsToolsRestServices/rest/POLocator/findLocations", "@spider": "usps_collection_boxes", "addr:city": "HUMBLE", "addr:country": "US", "addr:postcode": "77338", "addr:state": "TX", "addr:street_address": "1202 1ST ST E", "amenity": "post_box", "collection_times": "Mo-Fr 17:00; Sa 15:00", "indoor": "yes", "note": "ON 12/24 AND 12/31, THIS BOX MAY BE COLLECTED AS EARLY AS 12 NOON.", "nsi_id": "unitedstatespostalservice-a77078", "operator": "United States Postal Service", "operator:short": "USPS", "operator:type": "public", "operator:wikidata": "Q668687", "ref": "7733800059"}, "type": "Feature"}
{"geometry": {"coordinates": [-95.2627076, 30.0018996], "type": "Point"}, "id": "EJ16zOKAL_HfKiHgUvuV-Ka9GFk=", "properties": {"@source_uri": "https://tools.usps.com/UspsToolsRestServices/rest/POLocator/findLocations", "@spider": "usps_collection_boxes", "addr:city": "HUMBLE", "addr:country": "US", "addr:postcode": "77338", "addr:state": "TX", "addr:street_address": "8811 FM 1960 BYPASS RD W", "amenity": "post_box", "collection_times": "Mo-Fr 15:45", "note": "ON 12/24 AND 12/31, THIS BOX MAY BE COLLECTED AS EARLY AS 12 NOON.", "nsi_id": "unitedstatespostalservice-a77078", "operator": "United States Postal Service", "operator:short": "USPS", "operator:type": "public", "operator:wikidata": "Q668687", "ref": "7733800060"}, "type": "Feature"}
{"geometry": {"coordinates": [-95.254469703, 29.99917148], "type": "Point"}, "id": "ukDRazJtJrwQ7JDSyKgM9pZabeM=", "properties": {"@source_uri": "https://tools.usps.com/UspsToolsRestServices/rest/POLocator/findLocations", "@spider": "usps_collection_boxes", "addr:city": "HUMBLE", "addr:country": "US", "addr:postcode": "77338", "addr:state": "TX", "addr:street_address": "1202 1ST ST E", "amenity": "post_box", "collection_times": "Mo-Fr 17:00; Sa 12:00", "indoor": "yes", "note": "ON 12/24 AND 12/31, THIS BOX MAY BE COLLECTED AS EARLY AS 12 NOON.", "nsi_id": "unitedstatespostalservice-a77078", "operator": "United States Postal Service", "operator:short": "USPS", "operator:type": "public", "operator:wikidata": "Q668687", "ref": "7733800075"}, "type": "Feature"}
{"geometry": {"coordinates": [-95.3159412927, 30.0060997167], "type": "Point"}, "id": "UffIQxJsAN6N7WzC_sT0ZiREWgk=", "properties": {"@source_uri": "https://tools.usps.com/UspsToolsRestServices/rest/POLocator/findLocations", "@spider": "usps_collection_boxes", "addr:city": "HUMBLE", "addr:country": "US", "addr:postcode": "77338", "addr:state": "TX", "addr:street_address": "7231 FM 1960 RD W", "amenity": "post_box", "collection_times": "Mo-Sa 17:00", "indoor": "yes", "note": "ON 12/24 AND 12/31, THIS BOX MAY BE COLLECTED AS EARLY AS 12 NOON.", "nsi_id": "unitedstatespostalservice-a77078", "operator": "United States Postal Service", "operator:short": "USPS", "operator:type": "public", "operator:wikidata": "Q668687", "ref": "7733800081"}, "type": "Feature"}
{"geometry": {"coordinates": [-95.3159412927, 30.0060997167], "type": "Point"}, "id": "Yac5GfpYEx0tEjh_NBOShUPJDOc=", "properties": {"@source_uri": "https://tools.usps.com/UspsToolsRestServices/rest/POLocator/findLocations", "@spider": "usps_collection_boxes", "addr:city": "HUMBLE", "addr:country": "US", "addr:postcode": "77338", "addr:state": "TX", "addr:street_address": "7231 FM 1960 RD W", "amenity": "post_box", "collection_times": "Mo-Sa 17:00", "indoor": "yes", "note": "ON 12/24 AND 12/31, THIS BOX MAY BE COLLECTED AS EARLY AS 12 NOON.", "nsi_id": "unitedstatespostalservice-a77078", "operator": "United States Postal Service", "operator:short": "USPS", "operator:type": "public", "operator:wikidata": "Q668687", "ref": "7733800082"}, "type": "Feature"}
{"geometry": {"coordinates": [-95.3159412927, 30.0060997167], "type": "Point"}, "id": "8tN4CNDXO6cYX2HjHAa7EY4EquM=", "properties": {"@source_uri": "https://tools.usps.com/UspsToolsRestServices/rest/POLocator/findLocations", "@spider": "usps_collection_boxes", "addr:city": "HUMBLE", "addr:country": "US", "addr:postcode": "77338", "addr:state": "TX", "addr:street_address": "7231 FM 1960 RD W", "amenity": "post_box", "collection_times": "Mo-Sa 17:00", "indoor": "yes", "note": "ON 12/24 AND 12/31, THIS BOX MAY BE COLLECTED AS EARLY AS 12 NOON.", "nsi_id": "unitedstatespostalservice-a77078", "operator": "United States Postal Service", "operator:short": "USPS", "operator:type": "public", "operator:wikidata": "Q668687", "ref": "7733800083"}, "type": "Feature"}
{"geometry": {"coordinates": [-95.2627076, 30.0018996], "type": "Point"}, "id": "kzjqYJ_nmvyA9dZa8zQs_5P1BNE=", "properties": {"@source_uri": "https://tools.usps.com/UspsToolsRestServices/rest/POLocator/findLocations", "@spider": "usps_collection_boxes", "addr:city": "HUMBLE", "addr:country": "US", "addr:postcode": "77338", "addr:state": "TX", "addr:street_address": "7231 FM 1960 RD W", "amenity": "post_box", "collection_times": "Mo-Sa 17:00", "note": "ON 12/24 AND 12/31, THIS BOX MAY BE COLLECTED AS EARLY AS 12 NOON.", "nsi_id": "unitedstatespostalservice-a77078", "operator": "United States Postal Service", "operator:short": "USPS", "operator:type": "public", "operator:wikidata": "Q668687", "ref": "7733800084"}, "type": "Feature"}
{"geometry": {"coordinates": [-95.3159412927, 30.0060997167], "type": "Point"}, "id": "w9IBICZEJuefr5PaPaf2pv5ruuk=", "properties": {"@source_uri": "https://tools.usps.com/UspsToolsRestServices/rest/POLocator/findLocations", "@spider": "usps_collection_boxes", "addr:city": "HUMBLE", "addr:country": "US", "addr:postcode": "77338", "addr:state": "TX", "addr:street_address": "7231 FM 1960 RD W STE A", "amenity": "post_box", "collection_times": "Mo-Fr 18:00; Sa 16:00", "indoor": "yes", "note": "ON 12/24 AND 12/31, THIS BOX MAY BE COLLECTED AS EARLY AS 12 NOON.", "nsi_id": "unitedstatespostalservice-a77078", "operator": "United States Postal Service", "operator:short": "USPS", "operator:type": "public", "operator:wikidata": "Q668687", "ref": "7733800085"}, "type": "Feature"}
{"geometry": {"coordinates": [-95.241739599, 30.053304509], "type": "Point"}, "id": "dWF5uLPhOMbuhFxL0QYdPS8eZEA=", "properties": {"@source_uri": "https://tools.usps.com/UspsToolsRestServices/rest/POLocator/findLocations", "@spider": "usps_collection_boxes", "addr:city": "HUMBLE", "addr:country": "US", "addr:postcode": "77339", "addr:state": "TX", "addr:street_address": "900 ROCKMEAD DR", "amenity": "post_box", "collection_times": "Mo-Fr 15:15", "note": "ON 12/24 AND 12/31, THIS BOX MAY BE COLLECTED AS EARLY AS 12 NOON.", "nsi_id": "unitedstatespostalservice-a77078", "operator": "United States Postal Service", "operator:short": "USPS", "operator:type": "public", "operator:wikidata": "Q668687", "ref": "7733900003"}, "type": "Feature"}
{"geometry": {"coordinates": [-95.213351033, 30.06813501], "type": "Point"}, "id": "D8hQHDHyoRkkX4VSlbvskNQP_eE=", "properties": {"@source_uri": "https://tools.usps.com/UspsToolsRestServices/rest/POLocator/findLocations", "@spider": "usps_collection_boxes", "addr:city": "HUMBLE", "addr:country": "US", "addr:postcode": "77339", "addr:state": "TX", "addr:street_address": "2218 NORTHPARK DR", "amenity": "post_box", "collection_times": "Mo-Fr 15:30", "note": "ON 12/24 AND 12/31, THIS BOX MAY BE COLLECTED AS EARLY AS 12 NOON.", "nsi_id": "unitedstatespostalservice-a77078", "operator": "United States Postal Service", "operator:short": "USPS", "operator:type": "public", "operator:wikidata": "Q668687", "ref": "7733900011"}, "type": "Feature"}
{"geometry": {"coordinates": [-95.24843087, 30.063185581], "type": "Point"}, "id": "7IOkV6QdFe6QSRr2imAiU9VTzcQ=", "properties": {"@source_uri": "https://tools.usps.com/UspsToolsRestServices/rest/POLocator/findLocations", "@spider": "usps_collection_boxes", "addr:city": "HUMBLE", "addr:country": "US", "addr:postcode": "77339", "addr:state": "TX", "addr:street_address": "23842 HIGHWAY 59 N", "amenity": "post_box", "collection_times": "Mo-Fr 16:00", "note": "ON 12/24 AND 12/31, THIS BOX MAY BE COLLECTED AS EARLY AS 12 NOON.", "nsi_id": "unitedstatespostalservice-a77078", "operator": "United States Postal Service", "operator:short": "USPS", "operator:type": "public", "operator:wikidata": "Q668687", "ref": "7733900012"}, "type": "Feature"}
{"geometry": {"coordinates": [-95.185796111, 30.049706969], "type": "Point"}, "id": "9qNDRy89SZp1L18YQ30dYdCPGRM=", "properties": {"@source_uri": "https://tools.usps.com/UspsToolsRestServices/rest/POLocator/findLocations", "@spider": "usps_collection_boxes", "addr:city": "HUMBLE", "addr:country": "US", "addr:postcode": "77339", "addr:state": "TX", "addr:street_address": "4375 KINGWOOD DR", "amenity": "post_box", "collection_times": "Mo-Fr 14:15", "note": "ON 12/24 AND 12/31, THIS BOX MAY BE COLLECTED AS EARLY AS 12 NOON.", "nsi_id": "unitedstatespostalservice-a77078", "operator": "United States Postal Service", "operator:short": "USPS", "operator:type": "public", "operator:wikidata": "Q668687", "ref": "7733900027"}, "type": "Feature"}
{"geometry": {"coordinates": [-95.1877640165, 30.0563619985], "type": "Point"}, "id": "2Wl7-KNZ5xjhl_O0jTycUdL7L48=", "properties": {"@source_uri": "https://tools.usps.com/UspsToolsRestServices/rest/POLocator/findLocations", "@spider": "usps_collection_boxes", "addr:city": "HUMBLE", "addr:country": "US", "addr:postcode": "77339", "addr:state": "TX", "addr:street_address": "4025 FEATHER LAKES WAY", "amenity": "post_box", "collection_times": "Mo-Sa 17:00", "note": "ON 12/24 AND 12/31, THIS BOX MAY BE COLLECTED AS EARLY AS 12 NOON.", "nsi_id": "unitedstatespostalservice-a77078", "operator": "United States Postal Service", "operator:short": "USPS", "operator:type": "public", "operator:wikidata": "Q668687", "ref": "7733900033"}, "type": "Feature"}
{"geometry": {"coordinates": [-95.187606322, 30.055685541], "type": "Point"}, "id": "nVyLV0pAzpYj3OCngNoXQzIMP6o=", "properties": {"@source_uri": "https://tools.usps.com/UspsToolsRestServices/rest/POLocator/findLocations", "@spider": "usps_collection_boxes", "addr:city": "HUMBLE", "addr:country": "US", "addr:postcode": "77339", "addr:state": "TX", "addr:street_address": "4025 FEATHER LAKES WAY", "amenity": "post_box", "collection_times": "Mo-Sa 17:00", "indoor": "yes", "note": "ON 12/24 AND 12/31, THIS BOX MAY BE COLLECTED AS EARLY AS 12 NOON.", "nsi_id": "unitedstatespostalservice-a77078", "operator": "United States Postal Service", "operator:short": "USPS", "operator:type": "public", "operator:wikidata": "Q668687", "ref": "7733900035"}, "type": "Feature"}
{"geometry": {"coordinates": [-95.187606322, 30.055685541], "type": "Point"}, "id": "Zcvtafaf3cJtwPnYrN1f74ObYlI=", "properties": {"@source_uri": "https://tools.usps.com/UspsToolsRestServices/rest/POLocator/findLocations", "@spider": "usps_collection_boxes", "addr:city": "HUMBLE", "addr:country": "US", "addr:postcode": "77339", "addr:state": "TX", "addr:street_address": "4025 FEATHER LAKES WAY", "amenity": "post_box", "collection_times": "Mo-Sa 17:00", "name": "USPS COLLECTION BOX - APC", "note": "ON 12/24 AND 12/31, THIS BOX MAY BE COLLECTED AS EARLY AS 12 NOON.", "nsi_id": "unitedstatespostalservice-a77078", "operator": "United States Postal Service", "operator:short": "USPS", "operator:type": "public", "operator:wikidata": "Q668687", "ref": "7733900036"}, "type": "Feature"}
{"geometry": {"coordinates": [-95.187606322, 30.055685541], "type": "Point"}, "id": "iPkMF8UwHT7Ht8bBCfHH0zgnBmg=", "properties": {"@source_uri": "https://tools.usps.com/UspsToolsRestServices/rest/POLocator/findLocations", "@spider": "usps_collection_boxes", "addr:city": "HUMBLE", "addr:country": "US", "addr:postcode": "77339", "addr:state": "TX", "addr:street_address": "4025 FEATHER LAKES WAY", "amenity": "post_box", "collection_times": "Mo-Fr 18:00; Sa 14:00", "indoor": "yes", "note": "ON 12/24 AND 12/31, THIS BOX MAY BE COLLECTED AS EARLY AS 12 NOON.", "nsi_id": "unitedstatespostalservice-a77078", "operator": "United States Postal Service", "operator:short": "USPS", "operator:type": "public", "operator:wikidata": "Q668687", "ref": "7733900043"}, "type": "Feature"}
{"geometry": {"coordinates": [-95.5756674868, 30.7166615132], "type": "Point"}, "id": "u2PtG1iGYM1-OQJQoghoIHXQxrc=", "properties": {"@source_uri": "https://tools.usps.com/UspsToolsRestServices/rest/POLocator/findLocations", "@spider": "usps_collection_boxes", "addr:city": "HUNTSVILLE", "addr:country": "US", "addr:postcode": "77340", "addr:state": "TX", "addr:street_address": "1 FINANCIAL PLZ", "amenity": "post_box", "collection_times": "Mo-Fr 15:45", "note": "ON 12/24 AND 12/31, THIS BOX MAY BE COLLECTED AS EARLY AS 12 NOON.", "nsi_id": "unitedstatespostalservice-a77078", "operator": "United States Postal Service", "operator:short": "USPS", "operator:type": "public", "operator:wikidata": "Q668687", "ref": "7734000006"}, "type": "Feature"}
{"geometry": {"coordinates": [-95.5511547, 30.7234], "type": "Point"}, "id": "lkL2MbVEcGZqVv_HvekN0r9SkiQ=", "properties": {"@source_uri": "https://tools.usps.com/UspsToolsRestServices/rest/POLocator/findLocations", "@spider": "usps_collection_boxes", "addr:city": "HUNTSVILLE", "addr:country": "US", "addr:postcode": "77340", "addr:state": "TX", "addr:street_address": "1100 UNIVERSITY AVE", "amenity": "post_box", "collection_times": "Mo-Fr 16:30", "note": "ON 12/24 AND 12/31, THIS BOX MAY BE COLLECTED AS EARLY AS 12 NOON.", "nsi_id": "unitedstatespostalservice-a77078", "operator": "United States Postal Service", "operator:short": "USPS", "operator:type": "public", "operator:wikidata": "Q668687", "ref": "7734000014"}, "type": "Feature"}
{"geometry": {"coordinates": [-95.5529461, 30.724161], "type": "Point"}, "id": "H1muVlIVn2NzHaYcIrC2_Cz8KyY=", "properties": {"@source_uri": "https://tools.usps.com/UspsToolsRestServices/rest/POLocator/findLocations", "@spider": "usps_collection_boxes", "addr:city": "HUNTSVILLE", "addr:country": "US", "addr:postcode": "77340", "addr:state": "TX", "addr:street_address": "1300 11TH ST", "amenity": "post_box", "collection_times": "Mo-Fr 16:30", "note": "ON 12/24 AND 12/31, THIS BOX MAY BE COLLECTED AS EARLY AS 12 NOON.", "nsi_id": "unitedstatespostalservice-a77078", "operator": "United States Postal Service", "operator:short": "USPS", "operator:type": "public", "operator:wikidata": "Q668687", "ref": "7734000016"}, "type": "Feature"}
{"geometry": {"coordinates": [-95.5782000234, 30.719180019], "type": "Point"}, "id": "AMSCpNme4dSawLOgTClgGwaPjsQ=", "properties": {"@source_uri": "https://tools.usps.com/UspsToolsRestServices/rest/POLocator/findLocations", "@spider": "usps_collection_boxes", "addr:city": "HUNTSVILLE", "addr:country": "US", "addr:postcode": "77340", "addr:state": "TX", "addr:street_address": "3190 HIGHWAY 30 W", "amenity": "post_box", "collection_times": "Mo-Sa 13:00", "note": "ON 12/24 AND 12/31, THIS BOX MAY BE COLLECTED AS EARLY AS 12 NOON.", "nsi_id": "unitedstatespostalservice-a77078", "operator": "United States Postal Service", "operator:short": "USPS", "operator:type": "public", "operator:wikidata": "Q668687", "ref": "7734000018"}, "type": "Feature"}
{"geometry": {"coordinates": [-95.5779313, 30.718935], "type": "Point"}, "id": "1tkFofruDiEpRTKLQvSL-23mJpQ=", "properties": {"@source_uri": "https://tools.usps.com/UspsToolsRestServices/rest/POLocator/findLocations", "@spider": "usps_collection_boxes", "addr:city": "HUNTSVILLE", "addr:country": "US", "addr:postcode": "77340", "addr:state": "TX", "addr:street_address": "3190 HIGHWAY 30 W", "amenity": "post_box", "collection_times": "Mo-Fr 17:00; Sa 15:00", "indoor": "yes", "note": "ON 12/24 AND 12/31, THIS BOX MAY BE COLLECTED AS EARLY AS 12 NOON.", "nsi_id": "unitedstatespostalservice-a77078", "operator": "United States Postal Service", "operator:short": "USPS", "operator:type": "public", "operator:wikidata": "Q668687", "ref": "7734000039"}, "type": "Feature"}
{"geometry": {"coordinates": [-95.578112241, 30.718325393], "type": "Point"}, "id": "RNBDbAPl4V6jZ1off_zU8mnkEt0=", "properties": {"@source_uri": "https://tools.usps.com/UspsToolsRestServices/rest/POLocator/findLocations", "@spider": "usps_collection_boxes", "addr:city": "HUNTSVILLE", "addr:country": "US", "addr:postcode": "77340", "addr:state": "TX", "addr:street_address": "3190 HIGHWAY 30 W", "amenity": "post_box", "collection_times": "Mo-Fr 16:30", "indoor": "yes", "note": "ON 12/24 AND 12/31, THIS BOX MAY BE COLLECTED AS EARLY AS 12 NOON.", "nsi_id": "unitedstatespostalservice-a77078", "operator": "United States Postal Service", "operator:short": "USPS", "operator:type": "public", "operator:wikidata": "Q668687", "ref": "7734000044"}, "type": "Feature"}
{"geometry": {"coordinates": [-95.1599173, 29.998939], "type": "Point"}, "id": "sie3bK3bYAVm2Q-Tz1FTNMjFtpI=", "properties": {"@source_uri": "https://tools.usps.com/UspsToolsRestServices/rest/POLocator/findLocations", "@spider": "usps_collection_boxes", "addr:city": "HUMBLE", "addr:country": "US", "addr:postcode": "77346", "addr:state": "TX", "addr:street_address": "7702 FM 1960 RD E", "amenity": "post_box", "collection_times": "Mo-Fr 14:30", "note": "ON 12/24 AND 12/31, THIS BOX MAY BE COLLECTED AS EARLY AS 12 NOON.", "nsi_id": "unitedstatespostalservice-a77078", "operator": "United States Postal Service", "operator:short": "USPS", "operator:type": "public", "operator:wikidata": "Q668687", "ref": "7734600001"}, "type": "Feature"}
{"geometry": {"coordinates": [-95.1885037, 29.997681], "type": "Point"}, "id": "o3gOG64khEBtIg55rnxh7p5JcM4=", "properties": {"@source_uri": "https://tools.usps.com/UspsToolsRestServices/rest/POLocator/findLocations", "@spider": "usps_collection_boxes", "addr:city": "HUMBLE", "addr:country": "US", "addr:postcode": "77346", "addr:state": "TX", "addr:street_address": "5616 FM 1960 RD E", "amenity": "post_box", "collection_times": "Mo-Fr 12:00", "nsi_id": "unitedstatespostalservice-a77078", "operator": "United States Postal Service", "operator:short": "USPS", "operator:type": "public", "operator:wikidata": "Q668687", "ref": "7734600002"}, "type": "Feature"}
{"geometry": {"coordinates": [-95.1746553, 29.997266], "type": "Point"}, "id": "b74ZP8c8u6EmwJCXYfcTqnBC9DM=", "properties": {"@source_uri": "https://tools.usps.com/UspsToolsRestServices/rest/POLocator/findLocations", "@spider": "usps_collection_boxes", "addr:city": "HUMBLE", "addr:country": "US", "addr:postcode": "77346", "addr:state": "TX", "addr:street_address": "6940 FM 1960 RD E", "amenity": "post_box", "collection_times": "Mo-Fr 14:00", "note": "ON 12/24 AND 12/31, THIS BOX MAY BE COLLECTED AS EARLY AS 12 NOON.", "nsi_id": "unitedstatespostalservice-a77078", "operator": "United States Postal Service", "operator:short": "USPS", "operator:type": "public", "operator:wikidata": "Q668687", "ref": "7734600003"}, "type": "Feature"}
{"geometry": {"coordinates": [-94.8692756272, 30.8216704558], "type": "Point"}, "id": "eX2SNOeMjWRVh_fcKrCYbtdeC-s=", "properties": {"@source_uri": "https://tools.usps.com/UspsToolsRestServices/rest/POLocator/findLocations", "@spider": "usps_collection_boxes", "addr:city": "LEGGETT", "addr:country": "US", "addr:postcode": "77350", "addr:state": "TX", "addr:street_address": "9381 US HIGHWAY 59 N", "amenity": "post_box", "collection_times": "Mo-Fr 14:15; Sa 10:30", "note": "ON 12/24 AND 12/31, THIS BOX MAY BE COLLECTED AS EARLY AS 12 NOON.", "nsi_id": "unitedstatespostalservice-a77078", "operator": "United States Postal Service", "operator:short": "USPS", "operator:type": "public", "operator:wikidata": "Q668687", "ref": "7735000001"}, "type": "Feature"}
{"geometry": {"coordinates": [-94.869231, 30.821627], "type": "Point"}, "id": "WFsbjJSj3nKeOCPjk8kT_EEQKsE=", "properties": {"@source_uri": "https://tools.usps.com/UspsToolsRestServices/rest/POLocator/findLocations", "@spider": "usps_collection_boxes", "addr:city": "LEGGETT", "addr:country": "US", "addr:postcode": "77350", "addr:state": "TX", "addr:street_address": "9381 US HIGHWAY 59 N", "amenity": "post_box", "collection_times": "Mo-Fr 14:15; Sa 10:30", "indoor": "yes", "note": "ON 12/24 AND 12/31, THIS BOX MAY BE COLLECTED AS EARLY AS 12 NOON.", "nsi_id": "unitedstatespostalservice-a77078", "operator": "United States Postal Service", "operator:short": "USPS", "operator:type": "public", "operator:wikidata": "Q668687", "ref": "7735000002"}, "type": "Feature"}
{"geometry": {"coordinates": [-94.869280476, 30.821615518], "type": "Point"}, "id": "Dq0O-ymPvRxu89WIZH5u29LeLKk=", "properties": {"@source_uri": "https://tools.usps.com/UspsToolsRestServices/rest/POLocator/findLocations", "@spider": "usps_collection_boxes", "addr:city": "LEGGETT", "addr:country": "US", "addr:postcode": "77350", "addr:state": "TX", "addr:street_address": "9381 US HIGHWAY 59 N", "amenity": "post_box", "collection_times": "Mo-Fr 14:30; Sa 11:00", "indoor": "yes", "note": "ON 12/24 AND 12/31, THIS BOX MAY BE COLLECTED AS EARLY AS 12 NOON.", "nsi_id": "unitedstatespostalservice-a77078", "operator": "United States Postal Service", "operator:short": "USPS", "operator:type": "public", "operator:wikidata": "Q668687", "ref": "7735000003"}, "type": "Feature"}
{"geometry": {"coordinates": [-94.947558, 30.710787], "type": "Point"}, "id": "m6piNMZacMhsgCpUm_2T9jprOaQ=", "properties": {"@source_uri": "https://tools.usps.com/UspsToolsRestServices/rest/POLocator/findLocations", "@spider": "usps_collection_boxes", "addr:city": "LIVINGSTON", "addr:country": "US", "addr:postcode": "77351", "addr:state": "TX", "addr:street_address": "1325 W CHURCH ST", "amenity": "post_box", "collection_times": "Mo-Fr 17:00; Sa 15:45", "note": "ON 12/24 AND 12/31, THIS BOX MAY BE COLLECTED AS EARLY AS 12 NOON.", "nsi_id": "unitedstatespostalservice-a77078", "operator": "United States Postal Service", "operator:short": "USPS", "operator:type": "public", "operator:wikidata": "Q668687", "ref": "7735100001"}, "type": "Feature"}
{"geometry": {"coordinates": [-94.947558, 30.710787], "type": "Point"}, "id": "5dgYe-EqCpsjBsbLXi4zehpFT1Y=", "properties": {"@source_uri": "https://tools.usps.com/UspsToolsRestServices/rest/POLocator/findLocations", "@spider": "usps_collection_boxes", "addr:city": "LIVINGSTON", "addr:country": "US", "addr:postcode": "77351", "addr:state": "TX", "addr:street_address": "1325 W CHURCH ST", "amenity": "post_box", "collection_times": "Mo-Fr 17:00; Sa 15:45", "indoor": "yes", "note": "ON 12/24 AND 12/31, THIS BOX MAY BE COLLECTED AS EARLY AS 12 NOON.", "nsi_id": "unitedstatespostalservice-a77078", "operator": "United States Postal Service", "operator:short": "USPS", "operator:type": "public", "operator:wikidata": "Q668687", "ref": "7735100009"}, "type": "Feature"}
{"geometry": {"coordinates": [-94.9467344093, 30.7107543418], "type": "Point"}, "id": "C0Z5R1iV08gLb9QAirpCsQl_iRg=", "properties": {"@source_uri": "https://tools.usps.com/UspsToolsRestServices/rest/POLocator/findLocations", "@spider": "usps_collection_boxes", "addr:city": "LIVINGSTON", "addr:country": "US", "addr:postcode": "77351", "addr:state": "TX", "addr:street_address": "1253 W CHURCH ST", "amenity": "post_box", "collection_times": "Mo-Fr 14:15", "note": "ON 12/24 AND 12/31, THIS BOX MAY BE COLLECTED AS EARLY AS 12 NOON.", "nsi_id": "unitedstatespostalservice-a77078", "operator": "United States Postal Service", "operator:short": "USPS", "operator:type": "public", "operator:wikidata": "Q668687", "ref": "7735100011"}, "type": "Feature"}
{"geometry": {"coordinates": [-94.9481415, 30.710780532], "type": "Point"}, "id": "iTA2ufko6yS_SDNP4qBKeYjh-CE=", "properties": {"@source_uri": "https://tools.usps.com/UspsToolsRestServices/rest/POLocator/findLocations", "@spider": "usps_collection_boxes", "addr:city": "LIVINGSTON", "addr:country": "US", "addr:postcode": "77351", "addr:state": "TX", "addr:street_address": "1325 W CHURCH ST", "amenity": "post_box", "collection_times": "Mo-Fr 17:00; Sa 12:00", "indoor": "yes", "note": "ON 12/24 AND 12/31, THIS BOX MAY BE COLLECTED AS EARLY AS 12 NOON.", "nsi_id": "unitedstatespostalservice-a77078", "operator": "United States Postal Service", "operator:short": "USPS", "operator:type": "public", "operator:wikidata": "Q668687", "ref": "7735100013"}, "type": "Feature"}
{"geometry": {"coordinates": [-95.7542690242, 30.2083670163], "type": "Point"}, "id": "whYiXs4TZjM-mD5wXt86wb4ZhrY=", "properties": {"@source_uri": "https://tools.usps.com/UspsToolsRestServices/rest/POLocator/findLocations", "@spider": "usps_collection_boxes", "addr:city": "MAGNOLIA", "addr:country": "US", "addr:postcode": "77355", "addr:state": "TX", "addr:street_address": "815 GOODSON RD", "amenity": "post_box", "collection_times": "Mo-Sa 16:30", "note": "ON 12/24 AND 12/31, THIS BOX MAY BE COLLECTED AS EARLY AS 12 NOON.", "nsi_id": "unitedstatespostalservice-a77078", "operator": "United States Postal Service", "operator:short": "USPS", "operator:type": "public", "operator:wikidata": "Q668687", "ref": "7735500006"}, "type": "Feature"}
{"geometry": {"coordinates": [-95.754062, 30.208874], "type": "Point"}, "id": "6sWav_e5RAFXz6gdImAFa2OIYkE=", "properties": {"@source_uri": "https://tools.usps.com/UspsToolsRestServices/rest/POLocator/findLocations", "@spider": "usps_collection_boxes", "addr:city": "MAGNOLIA", "addr:country": "US", "addr:postcode": "77355", "addr:state": "TX", "addr:street_address": "815 GOODSON RD", "amenity": "post_box", "collection_times": "Mo-Sa 16:30", "indoor": "yes", "note": "ON 12/24 AND 12/31, THIS BOX MAY BE COLLECTED AS EARLY AS 12 NOON.", "nsi_id": "unitedstatespostalservice-a77078", "operator": "United States Postal Service", "operator:short": "USPS", "operator:type": "public", "operator:wikidata": "Q668687", "ref": "7735500007"}, "type": "Feature"}
{"geometry": {"coordinates": [-95.754182223, 30.208871539], "type": "Point"}, "id": "42krsUZCYQHyJ4npNx8F4O5bkdc=", "properties": {"@source_uri": "https://tools.usps.com/UspsToolsRestServices/rest/POLocator/findLocations", "@spider": "usps_collection_boxes", "addr:city": "MAGNOLIA", "addr:country": "US", "addr:postcode": "77355", "addr:state": "TX", "addr:street_address": "815 GOODSON RD", "amenity": "post_box", "collection_times": "Mo-Fr 16:30; Sa 12:00", "indoor": "yes", "note": "ON 12/24 AND 12/31, THIS BOX MAY BE COLLECTED AS EARLY AS 12 NOON.", "nsi_id": "unitedstatespostalservice-a77078", "operator": "United States Postal Service", "operator:short": "USPS", "operator:type": "public", "operator:wikidata": "Q668687", "ref": "7735500010"}, "type": "Feature"}
{"geometry": {"coordinates": [-95.60723, 30.3939427], "type": "Point"}, "id": "9gqbCrRp21H39NVJzNrwS8ToRBo=", "properties": {"@source_uri": "https://tools.usps.com/UspsToolsRestServices/rest/POLocator/findLocations", "@spider": "usps_collection_boxes", "addr:city": "MONTGOMERY", "addr:country": "US", "addr:postcode": "77356", "addr:state": "TX", "addr:street_address": "100 APRIL PARK DR", "amenity": "post_box", "collection_times": "Mo-Sa 13:30", "note": "ON 12/24 AND 12/31, THIS BOX MAY BE COLLECTED AS EARLY AS 12 NOON.", "nsi_id": "unitedstatespostalservice-a77078", "operator": "United States Postal Service", "operator:short": "USPS", "operator:type": "public", "operator:wikidata": "Q668687", "ref": "7735600002"}, "type": "Feature"}
{"geometry": {"coordinates": [-95.60723, 30.3939427], "type": "Point"}, "id": "q7HrgBYwt18MWGO4ieAyULGLDVo=", "properties": {"@source_uri": "https://tools.usps.com/UspsToolsRestServices/rest/POLocator/findLocations", "@spider": "usps_collection_boxes", "addr:city": "MONTGOMERY", "addr:country": "US", "addr:postcode": "77356", "addr:state": "TX", "addr:street_address": "12800 WALDEN RD", "amenity": "post_box", "collection_times": "Mo-Fr 13:30", "note": "ON 12/24 AND 12/31, THIS BOX MAY BE COLLECTED AS EARLY AS 12 NOON.", "nsi_id": "unitedstatespostalservice-a77078", "operator": "United States Postal Service", "operator:short": "USPS", "operator:type": "public", "operator:wikidata": "Q668687", "ref": "7735600003"}, "type": "Feature"}
{"geometry": {"coordinates": [-95.60723, 30.3939427], "type": "Point"}, "id": "dZQA0ogE5dSdwtS9b23eSk9PQ_0=", "properties": {"@source_uri": "https://tools.usps.com/UspsToolsRestServices/rest/POLocator/findLocations", "@spider": "usps_collection_boxes", "addr:city": "MONTGOMERY", "addr:country": "US", "addr:postcode": "77356", "addr:state": "TX", "addr:street_address": "15001 WALDEN RD", "amenity": "post_box", "collection_times": "Mo-Fr 13:30", "note": "ON 12/24 AND 12/31, THIS BOX MAY BE COLLECTED AS EARLY AS 12 NOON.", "nsi_id": "unitedstatespostalservice-a77078", "operator": "United States Postal Service", "operator:short": "USPS", "operator:type": "public", "operator:wikidata": "Q668687", "ref": "7735600006"}, "type": "Feature"}
{"geometry": {"coordinates": [-95.70169, 30.388252], "type": "Point"}, "id": "TwS_MZrwtlvaHVXom-60gWjS2x4=", "properties": {"@source_uri": "https://tools.usps.com/UspsToolsRestServices/rest/POLocator/findLocations", "@spider": "usps_collection_boxes", "addr:city": "MONTGOMERY", "addr:country": "US", "addr:postcode": "77356", "addr:state": "TX", "addr:street_address": "21359 EVA ST", "amenity": "post_box", "collection_times": "Mo-Fr 15:00; Sa 12:30", "note": "ON 12/24 AND 12/31, THIS BOX MAY BE COLLECTED AS EARLY AS 12 NOON.", "nsi_id": "unitedstatespostalservice-a77078", "operator": "United States Postal Service", "operator:short": "USPS", "operator:type": "public", "operator:wikidata": "Q668687", "ref": "7735600008"}, "type": "Feature"}
{"geometry": {"coordinates": [-95.6296344, 30.422696], "type": "Point"}, "id": "jfoi-8Vm5yqVMoqSp25ZnsNSQkU=", "properties": {"@source_uri": "https://tools.usps.com/UspsToolsRestServices/rest/POLocator/findLocations", "@spider": "usps_collection_boxes", "addr:city": "MONTGOMERY", "addr:country": "US", "addr:postcode": "77356", "addr:state": "TX", "addr:street_address": "800 BENTWATER DR", "amenity": "post_box", "collection_times": "Mo-Sa 13:30", "note": "ON 12/24 AND 12/31, THIS BOX MAY BE COLLECTED AS EARLY AS 12 NOON.", "nsi_id": "unitedstatespostalservice-a77078", "operator": "United States Postal Service", "operator:short": "USPS", "operator:type": "public", "operator:wikidata": "Q668687", "ref": "7735600010"}, "type": "Feature"}
{"geometry": {"coordinates": [-95.6910138, 30.39275], "type": "Point"}, "id": "urHDVAUVqtB2Rk-3qNrQGaZdxh8=", "properties": {"@source_uri": "https://tools.usps.com/UspsToolsRestServices/rest/POLocator/findLocations", "@spider": "usps_collection_boxes", "addr:city": "MONTGOMERY", "addr:country": "US", "addr:postcode": "77356", "addr:state": "TX", "addr:street_address": "202 BESSIE PRICE OWENS DR", "amenity": "post_box", "collection_times": "Mo-Sa 12:00", "nsi_id": "unitedstatespostalservice-a77078", "operator": "United States Postal Service", "operator:short": "USPS", "operator:type": "public", "operator:wikidata": "Q668687", "ref": "7735600011"}, "type": "Feature"}
{"geometry": {"coordinates": [-95.69331, 30.389233], "type": "Point"}, "id": "ZSrg6CoQoKewJLSau_PpgnU6HVs=", "properties": {"@source_uri": "https://tools.usps.com/UspsToolsRestServices/rest/POLocator/findLocations", "@spider": "usps_collection_boxes", "addr:city": "MONTGOMERY", "addr:country": "US", "addr:postcode": "77356", "addr:state": "TX", "addr:street_address": "20821 EVA ST STE H", "amenity": "post_box", "collection_times": "Mo-Fr 16:15; Sa 11:45", "indoor": "yes", "note": "ON 12/24 AND 12/31, THIS BOX MAY BE COLLECTED AS EARLY AS 12 NOON.", "nsi_id": "unitedstatespostalservice-a77078", "operator": "United States Postal Service", "operator:short": "USPS", "operator:type": "public", "operator:wikidata": "Q668687", "ref": "7735600012"}, "type": "Feature"}
{"geometry": {"coordinates": [-95.60723, 30.3939427], "type": "Point"}, "id": "eIJeyVPvy3RGLtT6mfnK5raucmg=", "properties": {"@source_uri": "https://tools.usps.com/UspsToolsRestServices/rest/POLocator/findLocations", "@spider": "usps_collection_boxes", "addr:city": "MONTGOMERY", "addr:country": "US", "addr:postcode": "77356", "addr:state": "TX", "addr:street_address": "20821 EVA ST STE H", "amenity": "post_box", "collection_times": "Mo-Fr 16:15; Sa 11:45", "note": "ON 12/24 AND 12/31, THIS BOX MAY BE COLLECTED AS EARLY AS 12 NOON.", "nsi_id": "unitedstatespostalservice-a77078", "operator": "United States Postal Service", "operator:short": "USPS", "operator:type": "public", "operator:wikidata": "Q668687", "ref": "7735600014"}, "type": "Feature"}
{"geometry": {"coordinates": [-95.650439959, 30.384350983], "type": "Point"}, "id": "EjQM6CF29o_N_vrTL3gkSC_x_uo=", "properties": {"@source_uri": "https://tools.usps.com/UspsToolsRestServices/rest/POLocator/findLocations", "@spider": "usps_collection_boxes", "addr:city": "MONTGOMERY", "addr:country": "US", "addr:postcode": "77356", "addr:state": "TX", "addr:street_address": "18700 HIGHWAY 105 W", "amenity": "post_box", "collection_times": "Mo-Sa 12:00", "nsi_id": "unitedstatespostalservice-a77078", "operator": "United States Postal Service", "operator:short": "USPS", "operator:type": "public", "operator:wikidata": "Q668687", "ref": "7735600015"}, "type": "Feature"}
{"geometry": {"coordinates": [-95.69331, 30.389233], "type": "Point"}, "id": "ZPDJIK_gRGUcsobHb-m0R2fhEYU=", "properties": {"@source_uri": "https://tools.usps.com/UspsToolsRestServices/rest/POLocator/findLocations", "@spider": "usps_collection_boxes", "addr:city": "MONTGOMERY", "addr:country": "US", "addr:postcode": "77356", "addr:state": "TX", "addr:street_address": "20821 EVA ST STE H", "amenity": "post_box", "collection_times": "Mo-Fr 16:15; Sa 11:45", "indoor": "yes", "note": "ON 12/24 AND 12/31, THIS BOX MAY BE COLLECTED AS EARLY AS 12 NOON.", "nsi_id": "unitedstatespostalservice-a77078", "operator": "United States Postal Service", "operator:short": "USPS", "operator:type": "public", "operator:wikidata": "Q668687", "ref": "7735600016"}, "type": "Feature"}
{"geometry": {"coordinates": [-95.693581533, 30.38922854], "type": "Point"}, "id": "X9PROHvTaRp6oa-sXqAHfcu0BOg=", "properties": {"@source_uri": "https://tools.usps.com/UspsToolsRestServices/rest/POLocator/findLocations", "@spider": "usps_collection_boxes", "addr:city": "MONTGOMERY", "addr:country": "US", "addr:postcode": "77356", "addr:state": "TX", "addr:street_address": "20821 EVA ST STE H", "amenity": "post_box", "collection_times": "Mo-Fr 16:30; Sa 12:00", "indoor": "yes", "note": "ON 12/24 AND 12/31, THIS BOX MAY BE COLLECTED AS EARLY AS 12 NOON.", "nsi_id": "unitedstatespostalservice-a77078", "operator": "United States Postal Service", "operator:short": "USPS", "operator:type": "public", "operator:wikidata": "Q668687", "ref": "7735600018"}, "type": "Feature"}
{"geometry": {"coordinates": [-95.2267947, 30.139768], "type": "Point"}, "id": "aF8kMU2E8belUbs1AngeIADvGgE=", "properties": {"@source_uri": "https://tools.usps.com/UspsToolsRestServices/rest/POLocator/findLocations", "@spider": "usps_collection_boxes", "addr:city": "NEW CANEY", "addr:country": "US", "addr:postcode": "77357", "addr:state": "TX", "addr:street_address": "21130 US HIGHWAY 59", "amenity": "post_box", "collection_times": "Mo-Fr 11:30", "nsi_id": "unitedstatespostalservice-a77078", "operator": "United States Postal Service", "operator:short": "USPS", "operator:type": "public", "operator:wikidata": "Q668687", "ref": "7735700003"}, "type": "Feature"}
{"geometry": {"coordinates": [-95.221747134, 30.14507786], "type": "Point"}, "id": "5uAyGET2g3DW7J374tc1Ez2-Hro=", "properties": {"@source_uri": "https://tools.usps.com/UspsToolsRestServices/rest/POLocator/findLocations", "@spider": "usps_collection_boxes", "addr:city": "NEW CANEY", "addr:country": "US", "addr:postcode": "77357", "addr:state": "TX", "addr:street_address": "20811 US HIGHWAY 59", "amenity": "post_box", "collection_times": "Mo-Fr 16:00; Sa 10:30", "indoor": "yes", "note": "ON 12/24 AND 12/31, THIS BOX MAY BE COLLECTED AS EARLY AS 12 NOON.", "nsi_id": "unitedstatespostalservice-a77078", "operator": "United States Postal Service", "operator:short": "USPS", "operator:type": "public", "operator:wikidata": "Q668687", "ref": "7735700005"}, "type": "Feature"}
{"geometry": {"coordinates": [-95.221747134, 30.14507786], "type": "Point"}, "id": "h-XpUnp0Jb06lZ07yFxxUdHsNXA=", "properties": {"@source_uri": "https://tools.usps.com/UspsToolsRestServices/rest/POLocator/findLocations", "@spider": "usps_collection_boxes", "addr:city": "NEW CANEY", "addr:country": "US", "addr:postcode": "77357", "addr:state": "TX", "addr:street_address": "20811 US HIGHWAY 59", "amenity": "post_box", "collection_times": "Mo-Fr 16:00; Sa 10:30", "indoor": "yes", "note": "ON 12/24 AND 12/31, THIS BOX MAY BE COLLECTED AS EARLY AS 12 NOON.", "nsi_id": "unitedstatespostalservice-a77078", "operator": "United States Postal Service", "operator:short": "USPS", "operator:type": "public", "operator:wikidata": "Q668687", "ref": "7735700007"}, "type": "Feature"}
{"geometry": {"coordinates": [-95.221747134, 30.14507786], "type": "Point"}, "id": "ad4BCay_YbKvkiG-LNmHfeeF1Mc=", "properties": {"@source_uri": "https://tools.usps.com/UspsToolsRestServices/rest/POLocator/findLocations", "@spider": "usps_collection_boxes", "addr:city": "NEW CANEY", "addr:country": "US", "addr:postcode": "77357", "addr:state": "TX", "addr:street_address": "20811 US HIGHWAY 59", "amenity": "post_box", "collection_times": "Mo-Fr 16:30", "indoor": "yes", "note": "ON 12/24 AND 12/31, THIS BOX MAY BE COLLECTED AS EARLY AS 12 NOON.", "nsi_id": "unitedstatespostalservice-a77078", "operator": "United States Postal Service", "operator:short": "USPS", "operator:type": "public", "operator:wikidata": "Q668687", "ref": "7735700009"}, "type": "Feature"}
{"geometry": {"coordinates": [-95.47906, 30.5409323], "type": "Point"}, "id": "IQCoWoAO2meUIFM8ywHBgM-38Qc=", "properties": {"@source_uri": "https://tools.usps.com/UspsToolsRestServices/rest/POLocator/findLocations", "@spider": "usps_collection_boxes", "addr:city": "NEW WAVERLY", "addr:country": "US", "addr:postcode": "77358", "addr:state": "TX", "addr:street_address": "9301 STATE HIGHWAY 75 S", "amenity": "post_box", "collection_times": "Mo-Fr 16:30; Sa 10:30", "note": "ON 12/24 AND 12/31, THIS BOX MAY BE COLLECTED AS EARLY AS 12 NOON.", "nsi_id": "unitedstatespostalservice-a77078", "operator": "United States Postal Service", "operator:short": "USPS", "operator:type": "public", "operator:wikidata": "Q668687", "ref": "7735800001"}, "type": "Feature"}
{"geometry": {"coordinates": [-95.481965, 30.542947], "type": "Point"}, "id": "r4lw4Sq39893_ER8_gkJ_OXDOkU=", "properties": {"@source_uri": "https://tools.usps.com/UspsToolsRestServices/rest/POLocator/findLocations", "@spider": "usps_collection_boxes", "addr:city": "NEW WAVERLY", "addr:country": "US", "addr:postcode": "77358", "addr:state": "TX", "addr:street_address": "9301 STATE HIGHWAY 75 S", "amenity": "post_box", "collection_times": "Mo-Fr 16:30; Sa 10:30", "indoor": "yes", "note": "ON 12/24 AND 12/31, THIS BOX MAY BE COLLECTED AS EARLY AS 12 NOON.", "nsi_id": "unitedstatespostalservice-a77078", "operator": "United States Postal Service", "operator:short": "USPS", "operator:type": "public", "operator:wikidata": "Q668687", "ref": "7735800003"}, "type": "Feature"}
{"geometry": {"coordinates": [-95.481965, 30.542947], "type": "Point"}, "id": "cmMgE60CUKdq3ipldfQap_bTFno=", "properties": {"@source_uri": "https://tools.usps.com/UspsToolsRestServices/rest/POLocator/findLocations", "@spider": "usps_collection_boxes", "addr:city": "NEW WAVERLY", "addr:country": "US", "addr:postcode": "77358", "addr:state": "TX", "addr:street_address": "9301 STATE HIGHWAY 75 S", "amenity": "post_box", "collection_times": "Mo-Fr 16:30; Sa 10:30", "indoor": "yes", "note": "ON 12/24 AND 12/31, THIS BOX MAY BE COLLECTED AS EARLY AS 12 NOON.", "nsi_id": "unitedstatespostalservice-a77078", "operator": "United States Postal Service", "operator:short": "USPS", "operator:type": "public", "operator:wikidata": "Q668687", "ref": "7735800004"}, "type": "Feature"}
{"geometry": {"coordinates": [-95.481938333, 30.542948407], "type": "Point"}, "id": "Om9MGSLMZudGOezduwZVLXmAZfc=", "properties": {"@source_uri": "https://tools.usps.com/UspsToolsRestServices/rest/POLocator/findLocations", "@spider": "usps_collection_boxes", "addr:city": "NEW WAVERLY", "addr:country": "US", "addr:postcode": "77358", "addr:state": "TX", "addr:street_address": "9301 STATE HIGHWAY 75 S", "amenity": "post_box", "collection_times": "Mo-Fr 16:30", "indoor": "yes", "note": "ON 12/24 AND 12/31, THIS BOX MAY BE COLLECTED AS EARLY AS 12 NOON.", "nsi_id": "unitedstatespostalservice-a77078", "operator": "United States Postal Service", "operator:short": "USPS", "operator:type": "public", "operator:wikidata": "Q668687", "ref": "7735800005"}, "type": "Feature"}
{"geometry": {"coordinates": [-95.338538, 30.737822], "type": "Point"}, "id": "BgytsEZRtO1qXpyrQsIQK_fAksA=", "properties": {"@source_uri": "https://tools.usps.com/UspsToolsRestServices/rest/POLocator/findLocations", "@spider": "usps_collection_boxes", "addr:city": "OAKHURST", "addr:country": "US", "addr:postcode": "77359", "addr:state": "TX", "addr:street_address": "1100 HIGHWAY 190 W", "amenity": "post_box", "collection_times": "Mo-Fr 12:45; Sa 10:30", "note": "ON 12/24 AND 12/31, THIS BOX MAY BE COLLECTED AS EARLY AS 12 NOON.", "nsi_id": "unitedstatespostalservice-a77078", "operator": "United States Postal Service", "operator:short": "USPS", "operator:type": "public", "operator:wikidata": "Q668687", "ref": "7735900001"}, "type": "Feature"}
{"geometry": {"coordinates": [-95.338538, 30.737822], "type": "Point"}, "id": "B5TRf3iABBB8ti1j8Yp7OMTmNLY=", "properties": {"@source_uri": "https://tools.usps.com/UspsToolsRestServices/rest/POLocator/findLocations", "@spider": "usps_collection_boxes", "addr:city": "OAKHURST", "addr:country": "US", "addr:postcode": "77359", "addr:state": "TX", "addr:street_address": "1100 HIGHWAY 190 W", "amenity": "post_box", "collection_times": "Mo-Fr 12:45; Sa 10:30", "indoor": "yes", "note": "ON 12/24 AND 12/31, THIS BOX MAY BE COLLECTED AS EARLY AS 12 NOON.", "nsi_id": "unitedstatespostalservice-a77078", "operator": "United States Postal Service", "operator:short": "USPS", "operator:type": "public", "operator:wikidata": "Q668687", "ref": "7735900002"}, "type": "Feature"}
{"geometry": {"coordinates": [-95.321952467, 30.740303207], "type": "Point"}, "id": "4nXWCvQ5LPL9ey8ToY6G6AnOQ_s=", "properties": {"@source_uri": "https://tools.usps.com/UspsToolsRestServices/rest/POLocator/findLocations", "@spider": "usps_collection_boxes", "addr:city": "OAKHURST", "addr:country": "US", "addr:postcode": "77359", "addr:state": "TX", "addr:street_address": "1100 HIGHWAY 190 W", "amenity": "post_box", "collection_times": "Mo-Fr 13:00; Sa 10:30", "indoor": "yes", "note": "ON 12/24 AND 12/31, THIS BOX MAY BE COLLECTED AS EARLY AS 12 NOON.", "nsi_id": "unitedstatespostalservice-a77078", "operator": "United States Postal Service", "operator:short": "USPS", "operator:type": "public", "operator:wikidata": "Q668687", "ref": "7735900003"}, "type": "Feature"}
{"geometry": {"coordinates": [-95.118092454, 30.81252357], "type": "Point"}, "id": "cLP0gAlWYRF7Nf4Eo_Gs2DVd6wY=", "properties": {"@source_uri": "https://tools.usps.com/UspsToolsRestServices/rest/POLocator/findLocations", "@spider": "usps_collection_boxes", "addr:city": "ONALASKA", "addr:country": "US", "addr:postcode": "77360", "addr:state": "TX", "addr:street_address": "203 N FM 356", "amenity": "post_box", "collection_times": "Mo-Fr 16:30; Sa 12:00", "indoor": "yes", "note": "ON 12/24 AND 12/31, THIS BOX MAY BE COLLECTED AS EARLY AS 12 NOON.", "nsi_id": "unitedstatespostalservice-a77078", "operator": "United States Postal Service", "operator:short": "USPS", "operator:type": "public", "operator:wikidata": "Q668687", "ref": "7736000002"}, "type": "Feature"}
{"geometry": {"coordinates": [-95.118092454, 30.81252357], "type": "Point"}, "id": "XWQuraBC7jQSyofcGNctIFVwi8Y=", "properties": {"@source_uri": "https://tools.usps.com/UspsToolsRestServices/rest/POLocator/findLocations", "@spider": "usps_collection_boxes", "addr:city": "ONALASKA", "addr:country": "US", "addr:postcode": "77360", "addr:state": "TX", "addr:street_address": "203 N FM 356", "amenity": "post_box", "collection_times": "Mo-Fr 16:30; Sa 12:00", "indoor": "yes", "note": "ON 12/24 AND 12/31, THIS BOX MAY BE COLLECTED AS EARLY AS 12 NOON.", "nsi_id": "unitedstatespostalservice-a77078", "operator": "United States Postal Service", "operator:short": "USPS", "operator:type": "public", "operator:wikidata": "Q668687", "ref": "7736000003"}, "type": "Feature"}
{"geometry": {"coordinates": [-95.1186620142, 30.8124859821], "type": "Point"}, "id": "pOY4IjJyCGMlTrAtGqS23dd2Sv0=", "properties": {"@source_uri": "https://tools.usps.com/UspsToolsRestServices/rest/POLocator/findLocations", "@spider": "usps_collection_boxes", "addr:city": "ONALASKA", "addr:country": "US", "addr:postcode": "77360", "addr:state": "TX", "addr:street_address": "203 N FM 356", "amenity": "post_box", "collection_times": "Mo-Fr 16:30; Sa 12:00", "note": "ON 12/24 AND 12/31, THIS BOX MAY BE COLLECTED AS EARLY AS 12 NOON.", "nsi_id": "unitedstatespostalservice-a77078", "operator": "United States Postal Service", "operator:short": "USPS", "operator:type": "public", "operator:wikidata": "Q668687", "ref": "7736000004"}, "type": "Feature"}
{"geometry": {"coordinates": [-95.118092454, 30.81252357], "type": "Point"}, "id": "LmmBSnHrBvCDTtIJFQkYDCvBJMU=", "properties": {"@source_uri": "https://tools.usps.com/UspsToolsRestServices/rest/POLocator/findLocations", "@spider": "usps_collection_boxes", "addr:city": "ONALASKA", "addr:country": "US", "addr:postcode": "77360", "addr:state": "TX", "addr:street_address": "203 N FM 356", "amenity": "post_box", "collection_times": "Mo-Fr 16:30; Sa 12:00", "indoor": "yes", "note": "ON 12/24 AND 12/31, THIS BOX MAY BE COLLECTED AS EARLY AS 12 NOON.", "nsi_id": "unitedstatespostalservice-a77078", "operator": "United States Postal Service", "operator:short": "USPS", "operator:type": "public", "operator:wikidata": "Q668687", "ref": "7736000005"}, "type": "Feature"}
{"geometry": {"coordinates": [-95.6736689786, 30.1634740039], "type": "Point"}, "id": "s6DOamH2ithMccYe_Rk5Atl9EKw=", "properties": {"@source_uri": "https://tools.usps.com/UspsToolsRestServices/rest/POLocator/findLocations", "@spider": "usps_collection_boxes", "addr:city": "PINEHURST", "addr:country": "US", "addr:postcode": "77362", "addr:state": "TX", "addr:street_address": "34635 WRIGHT RD", "amenity": "post_box", "collection_times": "Mo-Fr 16:30; Sa 11:00", "note": "ON 12/24 AND 12/31, THIS BOX MAY BE COLLECTED AS EARLY AS 12 NOON.", "nsi_id": "unitedstatespostalservice-a77078", "operator": "United States Postal Service", "operator:short": "USPS", "operator:type": "public", "operator:wikidata": "Q668687", "ref": "7736200000"}, "type": "Feature"}
{"geometry": {"coordinates": [-95.672935, 30.162991], "type": "Point"}, "id": "GgcyQXz265eJ47bLRJewMYlZwCU=", "properties": {"@source_uri": "https://tools.usps.com/UspsToolsRestServices/rest/POLocator/findLocations", "@spider": "usps_collection_boxes", "addr:city": "PINEHURST", "addr:country": "US", "addr:postcode": "77362", "addr:state": "TX", "addr:street_address": "34635 WRIGHT RD", "amenity": "post_box", "collection_times": "Mo-Fr 16:30", "indoor": "yes", "note": "ON 12/24 AND 12/31, THIS BOX MAY BE COLLECTED AS EARLY AS 12 NOON.", "nsi_id": "unitedstatespostalservice-a77078", "operator": "United States Postal Service", "operator:short": "USPS", "operator:type": "public", "operator:wikidata": "Q668687", "ref": "7736200001"}, "type": "Feature"}
{"geometry": {"coordinates": [-95.672935, 30.162991], "type": "Point"}, "id": "SqpmeMvpL0nTeHpJ10_JyGvkAwM=", "properties": {"@source_uri": "https://tools.usps.com/UspsToolsRestServices/rest/POLocator/findLocations", "@spider": "usps_collection_boxes", "addr:city": "PINEHURST", "addr:country": "US", "addr:postcode": "77362", "addr:state": "TX", "addr:street_address": "34635 WRIGHT RD", "amenity": "post_box", "collection_times": "Mo-Fr 16:30", "indoor": "yes", "note": "ON 12/24 AND 12/31, THIS BOX MAY BE COLLECTED AS EARLY AS 12 NOON.", "nsi_id": "unitedstatespostalservice-a77078", "operator": "United States Postal Service", "operator:short": "USPS", "operator:type": "public", "operator:wikidata": "Q668687", "ref": "7736200002"}, "type": "Feature"}
{"geometry": {"coordinates": [-95.673370195, 30.163682578], "type": "Point"}, "id": "kpwV3jRwDgoU5g3jamj_k_qB1ZQ=", "properties": {"@source_uri": "https://tools.usps.com/UspsToolsRestServices/rest/POLocator/findLocations", "@spider": "usps_collection_boxes", "addr:city": "PINEHURST", "addr:country": "US", "addr:postcode": "77362", "addr:state": "TX", "addr:street_address": "34635 WRIGHT RD", "amenity": "post_box", "collection_times": "Mo-Fr 16:30", "indoor": "yes", "note": "ON 12/24 AND 12/31, THIS BOX MAY BE COLLECTED AS EARLY AS 12 NOON.", "nsi_id": "unitedstatespostalservice-a77078", "operator": "United States Postal Service", "operator:short": "USPS", "operator:type": "public", "operator:wikidata": "Q668687", "ref": "7736200003"}, "type": "Feature"}
{"geometry": {"coordinates": [-95.864756, 30.336911], "type": "Point"}, "id": "XVCn0R7OhQdtXgI0ca-rLiR6Cf4=", "properties": {"@source_uri": "https://tools.usps.com/UspsToolsRestServices/rest/POLocator/findLocations", "@spider": "usps_collection_boxes", "addr:city": "PLANTERSVILLE", "addr:country": "US", "addr:postcode": "77363", "addr:state": "TX", "addr:street_address": "8625 POST OFFICE RD", "amenity": "post_box", "collection_times": "Mo-Fr 15:30; Sa 12:00", "note": "ON 12/24 AND 12/31, THIS BOX MAY BE COLLECTED AS EARLY AS 12 NOON.", "nsi_id": "unitedstatespostalservice-a77078", "operator": "United States Postal Service", "operator:short": "USPS", "operator:type": "public", "operator:wikidata": "Q668687", "ref": "7736300001"}, "type": "Feature"}
{"geometry": {"coordinates": [-95.86481, 30.336839], "type": "Point"}, "id": "lk4Z3rXEEziT1tcI0ulKaH2hUJI=", "properties": {"@source_uri": "https://tools.usps.com/UspsToolsRestServices/rest/POLocator/findLocations", "@spider": "usps_collection_boxes", "addr:city": "PLANTERSVILLE", "addr:country": "US", "addr:postcode": "77363", "addr:state": "TX", "addr:street_address": "8625 POST OFFICE RD", "amenity": "post_box", "collection_times": "Mo-Fr 15:30; Sa 12:00", "indoor": "yes", "note": "ON 12/24 AND 12/31, THIS BOX MAY BE COLLECTED AS EARLY AS 12 NOON.", "nsi_id": "unitedstatespostalservice-a77078", "operator": "United States Postal Service", "operator:short": "USPS", "operator:type": "public", "operator:wikidata": "Q668687", "ref": "7736300002"}, "type": "Feature"}
{"geometry": {"coordinates": [-95.864606003, 30.337005791], "type": "Point"}, "id": "_QftS11oCuYvKrpfPzAvTsHSLPI=", "properties": {"@source_uri": "https://tools.usps.com/UspsToolsRestServices/rest/POLocator/findLocations", "@spider": "usps_collection_boxes", "addr:city": "PLANTERSVILLE", "addr:country": "US", "addr:postcode": "77363", "addr:state": "TX", "addr:street_address": "8625 POST OFFICE RD", "amenity": "post_box", "collection_times": "Mo-Fr 16:15; Sa 12:00", "indoor": "yes", "note": "ON 12/24 AND 12/31, THIS BOX MAY BE COLLECTED AS EARLY AS 12 NOON.", "nsi_id": "unitedstatespostalservice-a77078", "operator": "United States Postal Service", "operator:short": "USPS", "operator:type": "public", "operator:wikidata": "Q668687", "ref": "7736300003"}, "type": "Feature"}
{"geometry": {"coordinates": [-95.218836, 30.747551], "type": "Point"}, "id": "7TDh2iCzPhWfG3rzmRjo2159EzU=", "properties": {"@source_uri": "https://tools.usps.com/UspsToolsRestServices/rest/POLocator/findLocations", "@spider": "usps_collection_boxes", "addr:city": "POINTBLANK", "addr:country": "US", "addr:postcode": "77364", "addr:state": "TX", "addr:street_address": "30 S COUNTS RD", "amenity": "post_box", "collection_times": "Mo-Fr 16:30; Sa 12:00", "note": "ON 12/24 AND 12/31, THIS BOX MAY BE COLLECTED AS EARLY AS 12 NOON.", "nsi_id": "unitedstatespostalservice-a77078", "operator": "United States Postal Service", "operator:short": "USPS", "operator:type": "public", "operator:wikidata": "Q668687", "ref": "7736400001"}, "type": "Feature"}
{"geometry": {"coordinates": [-95.218836, 30.747551], "type": "Point"}, "id": "qPS_8azqqU69ML3V5SFLyJQUK4A=", "properties": {"@source_uri": "https://tools.usps.com/UspsToolsRestServices/rest/POLocator/findLocations", "@spider": "usps_collection_boxes", "addr:city": "POINTBLANK", "addr:country": "US", "addr:postcode": "77364", "addr:state": "TX", "addr:street_address": "30 S COUNTS RD", "amenity": "post_box", "collection_times": "Mo-Fr 16:30; Sa 12:00", "indoor": "yes", "note": "ON 12/24 AND 12/31, THIS BOX MAY BE COLLECTED AS EARLY AS 12 NOON.", "nsi_id": "unitedstatespostalservice-a77078", "operator": "United States Postal Service", "operator:short": "USPS", "operator:type": "public", "operator:wikidata": "Q668687", "ref": "7736400002"}, "type": "Feature"}
{"geometry": {"coordinates": [-95.218831586, 30.747522531], "type": "Point"}, "id": "ChEtIWwULNooKpXwtNDGCROLdA0=", "properties": {"@source_uri": "https://tools.usps.com/UspsToolsRestServices/rest/POLocator/findLocations", "@spider": "usps_collection_boxes", "addr:city": "POINTBLANK", "addr:country": "US", "addr:postcode": "77364", "addr:state": "TX", "addr:street_address": "30 S COUNTS RD", "amenity": "post_box", "collection_times": "Mo-Fr 16:30; Sa 12:00", "indoor": "yes", "note": "ON 12/24 AND 12/31, THIS BOX MAY BE COLLECTED AS EARLY AS 12 NOON.", "nsi_id": "unitedstatespostalservice-a77078", "operator": "United States Postal Service", "operator:short": "USPS", "operator:type": "public", "operator:wikidata": "Q668687", "ref": "7736400003"}, "type": "Feature"}
{"geometry": {"coordinates": [-95.23721, 30.100755], "type": "Point"}, "id": "Ruc3EWOSOD4TwaztKk3C0uPEg-w=", "properties": {"@source_uri": "https://tools.usps.com/UspsToolsRestServices/rest/POLocator/findLocations", "@spider": "usps_collection_boxes", "addr:city": "PORTER", "addr:country": "US", "addr:postcode": "77365", "addr:state": "TX", "addr:street_address": "23550 PARTNERS WAY", "amenity": "post_box", "collection_times": "Mo-Fr 17:00; Sa 12:00", "note": "ON 12/24 AND 12/31, THIS BOX MAY BE COLLECTED AS EARLY AS 12 NOON.", "nsi_id": "unitedstatespostalservice-a77078", "operator": "United States Postal Service", "operator:short": "USPS", "operator:type": "public", "operator:wikidata": "Q668687", "ref": "7736500012"}, "type": "Feature"}
{"geometry": {"coordinates": [-95.246278376, 30.106398239], "type": "Point"}, "id": "1BImqwxwQ3qR48AcX83q0DVKW4g=", "properties": {"@source_uri": "https://tools.usps.com/UspsToolsRestServices/rest/POLocator/findLocations", "@spider": "usps_collection_boxes", "addr:city": "PORTER", "addr:country": "US", "addr:postcode": "77365", "addr:state": "TX", "addr:street_address": "23550 PARTNERS WAY", "amenity": "post_box", "collection_times": "Mo-Fr 17:00; Sa 12:00", "indoor": "yes", "note": "ON 12/24 AND 12/31, THIS BOX MAY BE COLLECTED AS EARLY AS 12 NOON.", "nsi_id": "unitedstatespostalservice-a77078", "operator": "United States Postal Service", "operator:short": "USPS", "operator:type": "public", "operator:wikidata": "Q668687", "ref": "7736500015"}, "type": "Feature"}
{"geometry": {"coordinates": [-95.246278376, 30.106398239], "type": "Point"}, "id": "e5gW2ZD1rnyyigmLTJ2aT5mBsIY=", "properties": {"@source_uri": "https://tools.usps.com/UspsToolsRestServices/rest/POLocator/findLocations", "@spider": "usps_collection_boxes", "addr:city": "PORTER", "addr:country": "US", "addr:postcode": "77365", "addr:state": "TX", "addr:street_address": "23550 PARTNERS WAY", "amenity": "post_box", "collection_times": "Mo-Fr 17:00; Sa 12:00", "indoor": "yes", "note": "ON 12/24 AND 12/31, THIS BOX MAY BE COLLECTED AS EARLY AS 12 NOON.", "nsi_id": "unitedstatespostalservice-a77078", "operator": "United States Postal Service", "operator:short": "USPS", "operator:type": "public", "operator:wikidata": "Q668687", "ref": "7736500016"}, "type": "Feature"}
{"geometry": {"coordinates": [-95.246278376, 30.106398239], "type": "Point"}, "id": "A8CiLNIpO8fKDi5fXG-qntNs6ps=", "properties": {"@source_uri": "https://tools.usps.com/UspsToolsRestServices/rest/POLocator/findLocations", "@spider": "usps_collection_boxes", "addr:city": "PORTER", "addr:country": "US", "addr:postcode": "77365", "addr:state": "TX", "addr:street_address": "23550 PARTNERS WAY", "amenity": "post_box", "collection_times": "Mo-Fr 17:00; Sa 12:00", "indoor": "yes", "note": "ON 12/24 AND 12/31, THIS BOX MAY BE COLLECTED AS EARLY AS 12 NOON.", "nsi_id": "unitedstatespostalservice-a77078", "operator": "United States Postal Service", "operator:short": "USPS", "operator:type": "public", "operator:wikidata": "Q668687", "ref": "7736500018"}, "type": "Feature"}
{"geometry": {"coordinates": [-95.40279, 30.853838], "type": "Point"}, "id": "Ify6ucr25_Em5vdV2sEPq_8PliU=", "properties": {"@source_uri": "https://tools.usps.com/UspsToolsRestServices/rest/POLocator/findLocations", "@spider": "usps_collection_boxes", "addr:city": "RIVERSIDE", "addr:country": "US", "addr:postcode": "77367", "addr:state": "TX", "addr:street_address": "3782B HIGHWAY 19", "amenity": "post_box", "collection_times": "Mo-Fr 16:30; Sa 11:30", "note": "ON 12/24 AND 12/31, THIS BOX MAY BE COLLECTED AS EARLY AS 12 NOON.", "nsi_id": "unitedstatespostalservice-a77078", "operator": "United States Postal Service", "operator:short": "USPS", "operator:type": "public", "operator:wikidata": "Q668687", "ref": "7736700001"}, "type": "Feature"}
{"geometry": {"coordinates": [-95.40284, 30.853822], "type": "Point"}, "id": "ruiPNKylfuB_i10pM2E8W6E_H0Y=", "properties": {"@source_uri": "https://tools.usps.com/UspsToolsRestServices/rest/POLocator/findLocations", "@spider": "usps_collection_boxes", "addr:city": "RIVERSIDE", "addr:country": "US", "addr:postcode": "77367", "addr:state": "TX", "addr:street_address": "3782B HIGHWAY 19", "amenity": "post_box", "collection_times": "Mo-Fr 16:30; Sa 11:30", "indoor": "yes", "note": "ON 12/24 AND 12/31, THIS BOX MAY BE COLLECTED AS EARLY AS 12 NOON.", "nsi_id": "unitedstatespostalservice-a77078", "operator": "United States Postal Service", "operator:short": "USPS", "operator:type": "public", "operator:wikidata": "Q668687", "ref": "7736700002"}, "type": "Feature"}
{"geometry": {"coordinates": [-95.402093327, 30.854711558], "type": "Point"}, "id": "rvRj4a-A79h9SYNhrt3j3aoRHpc=", "properties": {"@source_uri": "https://tools.usps.com/UspsToolsRestServices/rest/POLocator/findLocations", "@spider": "usps_collection_boxes", "addr:city": "RIVERSIDE", "addr:country": "US", "addr:postcode": "77367", "addr:state": "TX", "addr:street_address": "3782B HIGHWAY 19", "amenity": "post_box", "collection_times": "Mo-Fr 16:15; Sa 11:30", "indoor": "yes", "note": "ON 12/24 AND 12/31, THIS BOX MAY BE COLLECTED AS EARLY AS 12 NOON.", "nsi_id": "unitedstatespostalservice-a77078", "operator": "United States Postal Service", "operator:short": "USPS", "operator:type": "public", "operator:wikidata": "Q668687", "ref": "7736700003"}, "type": "Feature"}
{"geometry": {"coordinates": [-94.843296965, 30.451359018], "type": "Point"}, "id": "k7-qY0hDwEIGoy6OW51gk-5YxOw=", "properties": {"@source_uri": "https://tools.usps.com/UspsToolsRestServices/rest/POLocator/findLocations", "@spider": "usps_collection_boxes", "addr:city": "ROMAYOR", "addr:country": "US", "addr:postcode": "77368", "addr:state": "TX", "addr:street_address": "336 COUNTY ROAD 2150", "amenity": "post_box", "collection_times": "Mo-Fr 13:45; Sa 10:45", "note": "ON 12/24 AND 12/31, THIS BOX MAY BE COLLECTED AS EARLY AS 12 NOON.", "nsi_id": "unitedstatespostalservice-a77078", "operator": "United States Postal Service", "operator:short": "USPS", "operator:type": "public", "operator:wikidata": "Q668687", "ref": "7736800001"}, "type": "Feature"}
{"geometry": {"coordinates": [-94.842847, 30.451072], "type": "Point"}, "id": "oTekGgQk_Q-UeX3M1AV_dGfd4GQ=", "properties": {"@source_uri": "https://tools.usps.com/UspsToolsRestServices/rest/POLocator/findLocations", "@spider": "usps_collection_boxes", "addr:city": "ROMAYOR", "addr:country": "US", "addr:postcode": "77368", "addr:state": "TX", "addr:street_address": "336 COUNTY ROAD 2150", "amenity": "post_box", "collection_times": "Mo-Fr 13:45; Sa 11:00", "indoor": "yes", "note": "ON 12/24 AND 12/31, THIS BOX MAY BE COLLECTED AS EARLY AS 12 NOON.", "nsi_id": "unitedstatespostalservice-a77078", "operator": "United States Postal Service", "operator:short": "USPS", "operator:type": "public", "operator:wikidata": "Q668687", "ref": "7736800002"}, "type": "Feature"}
{"geometry": {"coordinates": [-94.843790939, 30.451222435], "type": "Point"}, "id": "ykXNcDeNGn31wXWkMMCT7eH-Wzo=", "properties": {"@source_uri": "https://tools.usps.com/UspsToolsRestServices/rest/POLocator/findLocations", "@spider": "usps_collection_boxes", "addr:city": "ROMAYOR", "addr:country": "US", "addr:postcode": "77368", "addr:state": "TX", "addr:street_address": "336 COUNTY ROAD 2150", "amenity": "post_box", "collection_times": "Mo-Fr 14:00; Sa 11:00", "indoor": "yes", "note": "ON 12/24 AND 12/31, THIS BOX MAY BE COLLECTED AS EARLY AS 12 NOON.", "nsi_id": "unitedstatespostalservice-a77078", "operator": "United States Postal Service", "operator:short": "USPS", "operator:type": "public", "operator:wikidata": "Q668687", "ref": "7736800003"}, "type": "Feature"}
{"geometry": {"coordinates": [-94.7669293264, 30.4406136636], "type": "Point"}, "id": "V-jOvKCYTOGsDYbeR5Fq8MUJw5g=", "properties": {"@source_uri": "https://tools.usps.com/UspsToolsRestServices/rest/POLocator/findLocations", "@spider": "usps_collection_boxes", "addr:city": "RYE", "addr:country": "US", "addr:postcode": "77369", "addr:state": "TX", "addr:street_address": "31422 HIGHWAY 146 N", "amenity": "post_box", "collection_times": "Mo-Fr 16:00; Sa 10:00", "indoor": "yes", "note": "ON 12/24 AND 12/31, THIS BOX MAY BE COLLECTED AS EARLY AS 12 NOON.", "nsi_id": "unitedstatespostalservice-a77078", "operator": "United States Postal Service", "operator:short": "USPS", "operator:type": "public", "operator:wikidata": "Q668687", "ref": "7736900002"}, "type": "Feature"}
{"geometry": {"coordinates": [-94.7687927686, 30.4516503779], "type": "Point"}, "id": "bO8GyRmjfzlfBqIrnF4lqen5DHI=", "properties": {"@source_uri": "https://tools.usps.com/UspsToolsRestServices/rest/POLocator/findLocations", "@spider": "usps_collection_boxes", "addr:city": "RYE", "addr:country": "US", "addr:postcode": "77369", "addr:state": "TX", "addr:street_address": "31422 HIGHWAY 146 N", "amenity": "post_box", "collection_times": "Mo-Fr 16:00", "indoor": "yes", "note": "ON 12/24 AND 12/31, THIS BOX MAY BE COLLECTED AS EARLY AS 12 NOON.", "nsi_id": "unitedstatespostalservice-a77078", "operator": "United States Postal Service", "operator:short": "USPS", "operator:type": "public", "operator:wikidata": "Q668687", "ref": "7736900003"}, "type": "Feature"}
{"geometry": {"coordinates": [-94.9972732672, 30.4967781858], "type": "Point"}, "id": "QiKiKr9-Og5dDHVbFqRwPvbhlcw=", "properties": {"@source_uri": "https://tools.usps.com/UspsToolsRestServices/rest/POLocator/findLocations", "@spider": "usps_collection_boxes", "addr:city": "SHEPHERD", "addr:country": "US", "addr:postcode": "77371", "addr:state": "TX", "addr:street_address": "1350 S BYRD AVE", "amenity": "post_box", "collection_times": "Mo-Fr 16:30; Sa 13:00", "note": "ON 12/24 AND 12/31, THIS BOX MAY BE COLLECTED AS EARLY AS 12 NOON.", "nsi_id": "unitedstatespostalservice-a77078", "operator": "United States Postal Service", "operator:short": "USPS", "operator:type": "public", "operator:wikidata": "Q668687", "ref": "7737100001"}, "type": "Feature"}
{"geometry": {"coordinates": [-94.997259, 30.496737], "type": "Point"}, "id": "B7Usxf6aXLHdEeFcGdxfAwRWP5k=", "properties": {"@source_uri": "https://tools.usps.com/UspsToolsRestServices/rest/POLocator/findLocations", "@spider": "usps_collection_boxes", "addr:city": "SHEPHERD", "addr:country": "US", "addr:postcode": "77371", "addr:state": "TX", "addr:street_address": "1350 S BYRD AVE", "amenity": "post_box", "collection_times": "Mo-Fr 16:30; Sa 13:00", "indoor": "yes", "note": "ON 12/24 AND 12/31, THIS BOX MAY BE COLLECTED AS EARLY AS 12 NOON.", "nsi_id": "unitedstatespostalservice-a77078", "operator": "United States Postal Service", "operator:short": "USPS", "operator:type": "public", "operator:wikidata": "Q668687", "ref": "7737100002"}, "type": "Feature"}
{"geometry": {"coordinates": [-94.99728644, 30.496692415], "type": "Point"}, "id": "p9Tt5U3z-841CY08QFFzyAPN2y8=", "properties": {"@source_uri": "https://tools.usps.com/UspsToolsRestServices/rest/POLocator/findLocations", "@spider": "usps_collection_boxes", "addr:city": "SHEPHERD", "addr:country": "US", "addr:postcode": "77371", "addr:state": "TX", "addr:street_address": "1350 S BYRD AVE", "amenity": "post_box", "collection_times": "Mo-Fr 16:30; Sa 13:00", "indoor": "yes", "note": "ON 12/24 AND 12/31, THIS BOX MAY BE COLLECTED AS EARLY AS 12 NOON.", "nsi_id": "unitedstatespostalservice-a77078", "operator": "United States Postal Service", "operator:short": "USPS", "operator:type": "public", "operator:wikidata": "Q668687", "ref": "7737100003"}, "type": "Feature"}
{"geometry": {"coordinates": [-95.15836, 30.233132], "type": "Point"}, "id": "KeIsMACpEVHdv4vjCM33cm_MP_A=", "properties": {"@source_uri": "https://tools.usps.com/UspsToolsRestServices/rest/POLocator/findLocations", "@spider": "usps_collection_boxes", "addr:city": "SPLENDORA", "addr:country": "US", "addr:postcode": "77372", "addr:state": "TX", "addr:street_address": "26130 FM 2090 RD E", "amenity": "post_box", "collection_times": "Mo-Fr 16:00; Sa 12:30", "indoor": "yes", "note": "ON 12/24 AND 12/31, THIS BOX MAY BE COLLECTED AS EARLY AS 12 NOON.", "nsi_id": "unitedstatespostalservice-a77078", "operator": "United States Postal Service", "operator:short": "USPS", "operator:type": "public", "operator:wikidata": "Q668687", "ref": "7737200006"}, "type": "Feature"}
{"geometry": {"coordinates": [-95.158832549, 30.23309255], "type": "Point"}, "id": "mhHKd7IIrswu6RhNsUrHqd7LFm8=", "properties": {"@source_uri": "https://tools.usps.com/UspsToolsRestServices/rest/POLocator/findLocations", "@spider": "usps_collection_boxes", "addr:city": "SPLENDORA", "addr:country": "US", "addr:postcode": "77372", "addr:state": "TX", "addr:street_address": "26130 FM 2090 RD E", "amenity": "post_box", "collection_times": "Mo-Fr 16:30; Sa 14:00", "indoor": "yes", "note": "ON 12/24 AND 12/31, THIS BOX MAY BE COLLECTED AS EARLY AS 12 NOON.", "nsi_id": "unitedstatespostalservice-a77078", "operator": "United States Postal Service", "operator:short": "USPS", "operator:type": "public", "operator:wikidata": "Q668687", "ref": "7737200007"}, "type": "Feature"}
{"geometry": {"coordinates": [-95.3829359614, 30.043795011], "type": "Point"}, "id": "rGxtY3jImtq4zuhD6XwXi05K7aE=", "properties": {"@source_uri": "https://tools.usps.com/UspsToolsRestServices/rest/POLocator/findLocations", "@spider": "usps_collection_boxes", "addr:city": "SPRING", "addr:country": "US", "addr:postcode": "77373", "addr:state": "TX", "addr:street_address": "22630 ALDINE WESTFIELD RD", "amenity": "post_box", "collection_times": "Mo-Fr 15:45", "note": "ON 12/24 AND 12/31, THIS BOX MAY BE COLLECTED AS EARLY AS 12 NOON.", "nsi_id": "unitedstatespostalservice-a77078", "operator": "United States Postal Service", "operator:short": "USPS", "operator:type": "public", "operator:wikidata": "Q668687", "ref": "7737300003"}, "type": "Feature"}
{"geometry": {"coordinates": [-95.3479459, 30.045521], "type": "Point"}, "id": "-Xch_oyYD4NNMDznFq-RLYkJBlU=", "properties": {"@source_uri": "https://tools.usps.com/UspsToolsRestServices/rest/POLocator/findLocations", "@spider": "usps_collection_boxes", "addr:city": "SPRING", "addr:country": "US", "addr:postcode": "77373", "addr:state": "TX", "addr:street_address": "5671 TREASCHWIG RD", "amenity": "post_box", "collection_times": "Mo-Fr 15:30", "note": "ON 12/24 AND 12/31, THIS BOX MAY BE COLLECTED AS EARLY AS 12 NOON.", "nsi_id": "unitedstatespostalservice-a77078", "operator": "United States Postal Service", "operator:short": "USPS", "operator:type": "public", "operator:wikidata": "Q668687", "ref": "7737300004"}, "type": "Feature"}
{"geometry": {"coordinates": [-95.4325709936, 30.0771810115], "type": "Point"}, "id": "eNzC1RJFXnj091wBMK4iABKN2NU=", "properties": {"@source_uri": "https://tools.usps.com/UspsToolsRestServices/rest/POLocator/findLocations", "@spider": "usps_collection_boxes", "addr:city": "SPRING", "addr:country": "US", "addr:postcode": "77373", "addr:state": "TX", "addr:street_address": "1411 WUNSCHE LOOP", "amenity": "post_box", "collection_times": "Mo-Sa 17:00", "note": "ON 12/24 AND 12/31, THIS BOX MAY BE COLLECTED AS EARLY AS 12 NOON.", "nsi_id": "unitedstatespostalservice-a77078", "operator": "United States Postal Service", "operator:short": "USPS", "operator:type": "public", "operator:wikidata": "Q668687", "ref": "7737300010"}, "type": "Feature"}
{"geometry": {"coordinates": [-95.4325440039, 30.0771820173], "type": "Point"}, "id": "3BwX4uFmgzMrig8ZyCDUuo_OS0c=", "properties": {"@source_uri": "https://tools.usps.com/UspsToolsRestServices/rest/POLocator/findLocations", "@spider": "usps_collection_boxes", "addr:city": "SPRING", "addr:country": "US", "addr:postcode": "77373", "addr:state": "TX", "addr:street_address": "1411 WUNSCHE LOOP", "amenity": "post_box", "collection_times": "Mo-Sa 17:00", "indoor": "yes", "note": "ON 12/24 AND 12/31, THIS BOX MAY BE COLLECTED AS EARLY AS 12 NOON.", "nsi_id": "unitedstatespostalservice-a77078", "operator": "United States Postal Service", "operator:short": "USPS", "operator:type": "public", "operator:wikidata": "Q668687", "ref": "7737300013"}, "type": "Feature"}
{"geometry": {"coordinates": [-95.4325440039, 30.0771820173], "type": "Point"}, "id": "xkMuMJs-oVIRAvkF0_-pA_2c5wQ=", "properties": {"@source_uri": "https://tools.usps.com/UspsToolsRestServices/rest/POLocator/findLocations", "@spider": "usps_collection_boxes", "addr:city": "SPRING", "addr:country": "US", "addr:postcode": "77373", "addr:state": "TX", "addr:street_address": "1411 WUNSCHE LOOP", "amenity": "post_box", "collection_times": "Mo-Sa 17:00", "indoor": "yes", "note": "ON 12/24 AND 12/31, THIS BOX MAY BE COLLECTED AS EARLY AS 12 NOON.", "nsi_id": "unitedstatespostalservice-a77078", "operator": "United States Postal Service", "operator:short": "USPS", "operator:type": "public", "operator:wikidata": "Q668687", "ref": "7737300015"}, "type": "Feature"}
{"geometry": {"coordinates": [-95.4325440039, 30.0771820173], "type": "Point"}, "id": "oFWIfM2VXF73GDpjpe43HhMF4jk=", "properties": {"@source_uri": "https://tools.usps.com/UspsToolsRestServices/rest/POLocator/findLocations", "@spider": "usps_collection_boxes", "addr:city": "SPRING", "addr:country": "US", "addr:postcode": "77373", "addr:state": "TX", "addr:street_address": "1411 WUNSCHE LOOP", "amenity": "post_box", "collection_times": "Mo-Sa 17:00", "name": "USPS COLLECTION BOX - APC", "note": "ON 12/24 AND 12/31, THIS BOX MAY BE COLLECTED AS EARLY AS 12 NOON.", "nsi_id": "unitedstatespostalservice-a77078", "operator": "United States Postal Service", "operator:short": "USPS", "operator:type": "public", "operator:wikidata": "Q668687", "ref": "7737300016"}, "type": "Feature"}
{"geometry": {"coordinates": [-95.4325440039, 30.0771820173], "type": "Point"}, "id": "2NHvDgDlLcaPV-v-xXeJf1Iq4Yc=", "properties": {"@source_uri": "https://tools.usps.com/UspsToolsRestServices/rest/POLocator/findLocations", "@spider": "usps_collection_boxes", "addr:city": "SPRING", "addr:country": "US", "addr:postcode": "77373", "addr:state": "TX", "addr:street_address": "1411 WUNSCHE LOOP", "amenity": "post_box", "collection_times": "Mo-Fr 16:30", "indoor": "yes", "note": "ON 12/24 AND 12/31, THIS BOX MAY BE COLLECTED AS EARLY AS 12 NOON.", "nsi_id": "unitedstatespostalservice-a77078", "operator": "United States Postal Service", "operator:short": "USPS", "operator:type": "public", "operator:wikidata": "Q668687", "ref": "7737300026"}, "type": "Feature"}
{"geometry": {"coordinates": [-94.629429, 30.406332], "type": "Point"}, "id": "C1Ih_gcr9pjUqeadWQNenCpp0kM=", "properties": {"@source_uri": "https://tools.usps.com/UspsToolsRestServices/rest/POLocator/findLocations", "@spider": "usps_collection_boxes", "addr:city": "THICKET", "addr:country": "US", "addr:postcode": "77374", "addr:state": "TX", "addr:street_address": "23394 FM 1293", "amenity": "post_box", "collection_times": "Mo-Fr 11:45; Sa 10:30", "indoor": "yes", "nsi_id": "unitedstatespostalservice-a77078", "operator": "United States Postal Service", "operator:short": "USPS", "operator:type": "public", "operator:wikidata": "Q668687", "ref": "7737400002"}, "type": "Feature"}
{"geometry": {"coordinates": [-94.629434384, 30.406396617], "type": "Point"}, "id": "JM3sYzO9XTMjRVXBpWi2u3FgcaM=", "properties": {"@source_uri": "https://tools.usps.com/UspsToolsRestServices/rest/POLocator/findLocations", "@spider": "usps_collection_boxes", "addr:city": "THICKET", "addr:country": "US", "addr:postcode": "77374", "addr:state": "TX", "addr:street_address": "23394 FM 1293", "amenity": "post_box", "collection_times": "Mo-Fr 12:00; Sa 10:30", "indoor": "yes", "nsi_id": "unitedstatespostalservice-a77078", "operator": "United States Postal Service", "operator:short": "USPS", "operator:type": "public", "operator:wikidata": "Q668687", "ref": "7737400003"}, "type": "Feature"}
{"geometry": {"coordinates": [-95.6105553, 30.026779], "type": "Point"}, "id": "_20MmcTfndLITlxW1VFZWg_9pGc=", "properties": {"@source_uri": "https://tools.usps.com/UspsToolsRestServices/rest/POLocator/findLocations", "@spider": "usps_collection_boxes", "addr:city": "TOMBALL", "addr:country": "US", "addr:postcode": "77375", "addr:state": "TX", "addr:street_address": "18000 BEAVERDELL DR", "amenity": "post_box", "collection_times": "Mo-Fr 13:30", "note": "ON 12/24 AND 12/31, THIS BOX MAY BE COLLECTED AS EARLY AS 12 NOON.", "nsi_id": "unitedstatespostalservice-a77078", "operator": "United States Postal Service", "operator:short": "USPS", "operator:type": "public", "operator:wikidata": "Q668687", "ref": "7737500001"}, "type": "Feature"}
{"geometry": {"coordinates": [-95.6235824, 30.090105], "type": "Point"}, "id": "-yjjGL4SxV56mrztYNRcomjJdkA=", "properties": {"@source_uri": "https://tools.usps.com/UspsToolsRestServices/rest/POLocator/findLocations", "@spider": "usps_collection_boxes", "addr:city": "TOMBALL", "addr:country": "US", "addr:postcode": "77375", "addr:state": "TX", "addr:street_address": "425 HOLDERRIETH BLVD", "amenity": "post_box", "collection_times": "Mo-Fr 14:15", "note": "ON 12/24 AND 12/31, THIS BOX MAY BE COLLECTED AS EARLY AS 12 NOON.", "nsi_id": "unitedstatespostalservice-a77078", "operator": "United States Postal Service", "operator:short": "USPS", "operator:type": "public", "operator:wikidata": "Q668687", "ref": "7737500003"}, "type": "Feature"}
{"geometry": {"coordinates": [-95.5418189594, 30.0997510041], "type": "Point"}, "id": "lXzNhcpFA1tRWAtds3TKJQ94FLY=", "properties": {"@source_uri": "https://tools.usps.com/UspsToolsRestServices/rest/POLocator/findLocations", "@spider": "usps_collection_boxes", "addr:city": "TOMBALL", "addr:country": "US", "addr:postcode": "77375", "addr:state": "TX", "addr:street_address": "23211 KUYKENDAHL RD", "amenity": "post_box", "collection_times": "Mo-Fr 14:00", "note": "ON 12/24 AND 12/31, THIS BOX MAY BE COLLECTED AS EARLY AS 12 NOON.", "nsi_id": "unitedstatespostalservice-a77078", "operator": "United States Postal Service", "operator:short": "USPS", "operator:type": "public", "operator:wikidata": "Q668687", "ref": "7737500004"}, "type": "Feature"}
{"geometry": {"coordinates": [-95.6091859, 30.044494], "type": "Point"}, "id": "wFow_hPItNZiFFXQC0pITw4nZWw=", "properties": {"@source_uri": "https://tools.usps.com/UspsToolsRestServices/rest/POLocator/findLocations", "@spider": "usps_collection_boxes", "addr:city": "TOMBALL", "addr:country": "US", "addr:postcode": "77375", "addr:state": "TX", "addr:street_address": "24914 TOMBALL PKWY", "amenity": "post_box", "collection_times": "Mo-Fr 13:30", "note": "ON 12/24 AND 12/31, THIS BOX MAY BE COLLECTED AS EARLY AS 12 NOON.", "nsi_id": "unitedstatespostalservice-a77078", "operator": "United States Postal Service", "operator:short": "USPS", "operator:type": "public", "operator:wikidata": "Q668687", "ref": "7737500007"}, "type": "Feature"}
{"geometry": {"coordinates": [-95.6283305438, 30.0771626339], "type": "Point"}, "id": "coFor8mHA4M_UeOofuhR209ERNo=", "properties": {"@source_uri": "https://tools.usps.com/UspsToolsRestServices/rest/POLocator/findLocations", "@spider": "usps_collection_boxes", "addr:city": "TOMBALL", "addr:country": "US", "addr:postcode": "77375", "addr:state": "TX", "addr:street_address": "27708 TOMBALL PKWY", "amenity": "post_box", "collection_times": "Mo-Fr 14:15", "note": "ON 12/24 AND 12/31, THIS BOX MAY BE COLLECTED AS EARLY AS 12 NOON.", "nsi_id": "unitedstatespostalservice-a77078", "operator": "United States Postal Service", "operator:short": "USPS", "operator:type": "public", "operator:wikidata": "Q668687", "ref": "7737500008"}, "type": "Feature"}
{"geometry": {"coordinates": [-95.6326864338, 30.0894167426], "type": "Point"}, "id": "kREA-yDa-Lg2v0PJLR7T4q9Y-8I=", "properties": {"@source_uri": "https://tools.usps.com/UspsToolsRestServices/rest/POLocator/findLocations", "@spider": "usps_collection_boxes", "addr:city": "TOMBALL", "addr:country": "US", "addr:postcode": "77375", "addr:state": "TX", "addr:street_address": "28597 TOMBALL PKWY", "amenity": "post_box", "collection_times": "Mo-Fr 14:00", "note": "ON 12/24 AND 12/31, THIS BOX MAY BE COLLECTED AS EARLY AS 12 NOON.", "nsi_id": "unitedstatespostalservice-a77078", "operator": "United States Postal Service", "operator:short": "USPS", "operator:type": "public", "operator:wikidata": "Q668687", "ref": "7737500009"}, "type": "Feature"}
{"geometry": {"coordinates": [-95.6429598254, 30.1132890574], "type": "Point"}, "id": "7Mpd8bkHvhtP5jrcJt44m6Uy70o=", "properties": {"@source_uri": "https://tools.usps.com/UspsToolsRestServices/rest/POLocator/findLocations", "@spider": "usps_collection_boxes", "addr:city": "TOMBALL", "addr:country": "US", "addr:postcode": "77375", "addr:state": "TX", "addr:street_address": "30555 TOMBALL PKWY", "amenity": "post_box", "collection_times": "Mo-Fr 13:30", "note": "ON 12/24 AND 12/31, THIS BOX MAY BE COLLECTED AS EARLY AS 12 NOON.", "nsi_id": "unitedstatespostalservice-a77078", "operator": "United States Postal Service", "operator:short": "USPS", "operator:type": "public", "operator:wikidata": "Q668687", "ref": "7737500010"}, "type": "Feature"}
{"geometry": {"coordinates": [-95.6099831527, 30.0022175335], "type": "Point"}, "id": "JUxsJLxg4yMeRjVB3SDcCd3bwsg=", "properties": {"@source_uri": "https://tools.usps.com/UspsToolsRestServices/rest/POLocator/findLocations", "@spider": "usps_collection_boxes", "addr:city": "TOMBALL", "addr:country": "US", "addr:postcode": "77375", "addr:state": "TX", "addr:street_address": "12300 NEW HAMPTON DR", "amenity": "post_box", "collection_times": "Mo-Sa 13:00", "note": "ON 12/24 AND 12/31, THIS BOX MAY BE COLLECTED AS EARLY AS 12 NOON.", "nsi_id": "unitedstatespostalservice-a77078", "operator": "United States Postal Service", "operator:short": "USPS", "operator:type": "public", "operator:wikidata": "Q668687", "ref": "7737500015"}, "type": "Feature"}
{"geometry": {"coordinates": [-95.6075110359, 30.0124440109], "type": "Point"}, "id": "rDDD-F1XxzddH_sxaoi4F60OeqY=", "properties": {"@source_uri": "https://tools.usps.com/UspsToolsRestServices/rest/POLocator/findLocations", "@spider": "usps_collection_boxes", "addr:city": "TOMBALL", "addr:country": "US", "addr:postcode": "77375", "addr:state": "TX", "addr:street_address": "11931 SPRING CYPRESS RD", "amenity": "post_box", "collection_times": "Mo-Fr 13:30", "note": "ON 12/24 AND 12/31, THIS BOX MAY BE COLLECTED AS EARLY AS 12 NOON.", "nsi_id": "unitedstatespostalservice-a77078", "operator": "United States Postal Service", "operator:short": "USPS", "operator:type": "public", "operator:wikidata": "Q668687", "ref": "7737500016"}, "type": "Feature"}
{"geometry": {"coordinates": [-95.596225375, 30.0686753234], "type": "Point"}, "id": "nz6xWNtmU1GYCLHtcddFAgf7lDs=", "properties": {"@source_uri": "https://tools.usps.com/UspsToolsRestServices/rest/POLocator/findLocations", "@spider": "usps_collection_boxes", "addr:city": "TOMBALL", "addr:country": "US", "addr:postcode": "77375", "addr:state": "TX", "addr:street_address": "11726 HOLDERRIETH RD", "amenity": "post_box", "collection_times": "Mo-Fr 14:00", "note": "ON 12/24 AND 12/31, THIS BOX MAY BE COLLECTED AS EARLY AS 12 NOON.", "nsi_id": "unitedstatespostalservice-a77078", "operator": "United States Postal Service", "operator:short": "USPS", "operator:type": "public", "operator:wikidata": "Q668687", "ref": "7737500017"}, "type": "Feature"}
{"geometry": {"coordinates": [-95.6329014087, 30.0867948113], "type": "Point"}, "id": "4SVucgHLW7oyE_cuDodhUtMdH_k=", "properties": {"@source_uri": "https://tools.usps.com/UspsToolsRestServices/rest/POLocator/findLocations", "@spider": "usps_collection_boxes", "addr:city": "TOMBALL", "addr:country": "US", "addr:postcode": "77375", "addr:state": "TX", "addr:street_address": "14011 PARK DR", "amenity": "post_box", "collection_times": "Mo-Fr 14:15", "note": "ON 12/24 AND 12/31, THIS BOX MAY BE COLLECTED AS EARLY AS 12 NOON.", "nsi_id": "unitedstatespostalservice-a77078", "operator": "United States Postal Service", "operator:short": "USPS", "operator:type": "public", "operator:wikidata": "Q668687", "ref": "7737500019"}, "type": "Feature"}
{"geometry": {"coordinates": [-95.627733, 30.075783], "type": "Point"}, "id": "KaISGtFAtvBatOROA0xMzzAh0cQ=", "properties": {"@source_uri": "https://tools.usps.com/UspsToolsRestServices/rest/POLocator/findLocations", "@spider": "usps_collection_boxes", "addr:city": "TOMBALL", "addr:country": "US", "addr:postcode": "77375", "addr:state": "TX", "addr:street_address": "27650 TOMBALL PKWY", "amenity": "post_box", "collection_times": "Mo-Fr 14:00", "note": "ON 12/24 AND 12/31, THIS BOX MAY BE COLLECTED AS EARLY AS 12 NOON.", "nsi_id": "unitedstatespostalservice-a77078", "operator": "United States Postal Service", "operator:short": "USPS", "operator:type": "public", "operator:wikidata": "Q668687", "ref": "7737500020"}, "type": "Feature"}
{"geometry": {"coordinates": [-95.6389099, 30.106068], "type": "Point"}, "id": "9CbR5UKMtWEijHx47UVojuxrEqg=", "properties": {"@source_uri": "https://tools.usps.com/UspsToolsRestServices/rest/POLocator/findLocations", "@spider": "usps_collection_boxes", "addr:city": "TOMBALL", "addr:country": "US", "addr:postcode": "77375", "addr:state": "TX", "addr:street_address": "29926 TOMBALL PKWY", "amenity": "post_box", "collection_times": "Mo-Fr 13:30", "note": "ON 12/24 AND 12/31, THIS BOX MAY BE COLLECTED AS EARLY AS 12 NOON.", "nsi_id": "unitedstatespostalservice-a77078", "operator": "United States Postal Service", "operator:short": "USPS", "operator:type": "public", "operator:wikidata": "Q668687", "ref": "7737500021"}, "type": "Feature"}
{"geometry": {"coordinates": [-95.62151, 30.09481], "type": "Point"}, "id": "7mQpz2rhIWdTFoAbe6nszWv84IU=", "properties": {"@source_uri": "https://tools.usps.com/UspsToolsRestServices/rest/POLocator/findLocations", "@spider": "usps_collection_boxes", "addr:city": "TOMBALL", "addr:country": "US", "addr:postcode": "77375", "addr:state": "TX", "addr:street_address": "122 N HOLDERRIETH BLVD", "amenity": "post_box", "collection_times": "Mo-Fr 17:00; Sa 14:00", "note": "ON 12/24 AND 12/31, THIS BOX MAY BE COLLECTED AS EARLY AS 12 NOON.", "nsi_id": "unitedstatespostalservice-a77078", "operator": "United States Postal Service", "operator:short": "USPS", "operator:type": "public", "operator:wikidata": "Q668687", "ref": "7737500023"}, "type": "Feature"}
{"geometry": {"coordinates": [-95.624892, 30.094662], "type": "Point"}, "id": "cHIPgtie490FHycYLdRe2Dm1umI=", "properties": {"@source_uri": "https://tools.usps.com/UspsToolsRestServices/rest/POLocator/findLocations", "@spider": "usps_collection_boxes", "addr:city": "TOMBALL", "addr:country": "US", "addr:postcode": "77375", "addr:state": "TX", "addr:street_address": "122 N HOLDERRIETH BLVD", "amenity": "post_box", "collection_times": "Mo-Fr 17:00; Sa 14:00", "name": "USPS COLLECTION BOX - APC", "note": "ON 12/24 AND 12/31, THIS BOX MAY BE COLLECTED AS EARLY AS 12 NOON.", "nsi_id": "unitedstatespostalservice-a77078", "operator": "United States Postal Service", "operator:short": "USPS", "operator:type": "public", "operator:wikidata": "Q668687", "ref": "7737500034"}, "type": "Feature"}
{"geometry": {"coordinates": [-95.6249303, 30.094797731], "type": "Point"}, "id": "QwOl_mffpaGb1HVdDyCuNYF5DjY=", "properties": {"@source_uri": "https://tools.usps.com/UspsToolsRestServices/rest/POLocator/findLocations", "@spider": "usps_collection_boxes", "addr:city": "TOMBALL", "addr:country": "US", "addr:postcode": "77375", "addr:state": "TX", "addr:street_address": "122 N HOLDERRIETH BLVD", "amenity": "post_box", "collection_times": "Mo-Fr 16:30; Sa 12:00", "indoor": "yes", "note": "ON 12/24 AND 12/31, THIS BOX MAY BE COLLECTED AS EARLY AS 12 NOON.", "nsi_id": "unitedstatespostalservice-a77078", "operator": "United States Postal Service", "operator:short": "USPS", "operator:type": "public", "operator:wikidata": "Q668687", "ref": "7737500040"}, "type": "Feature"}
{"geometry": {"coordinates": [-94.6747979963, 30.4351819867], "type": "Point"}, "id": "9BTiS9wn8ZXX7AOs5sAYwe276JM=", "properties": {"@source_uri": "https://tools.usps.com/UspsToolsRestServices/rest/POLocator/findLocations", "@spider": "usps_collection_boxes", "addr:city": "VOTAW", "addr:country": "US", "addr:postcode": "77376", "addr:state": "TX", "addr:street_address": "21598 OLD HWY", "amenity": "post_box", "collection_times": "Mo-Fr 11:45; Sa 10:30", "indoor": "yes", "nsi_id": "unitedstatespostalservice-a77078", "operator": "United States Postal Service", "operator:short": "USPS", "operator:type": "public", "operator:wikidata": "Q668687", "ref": "7737600002"}, "type": "Feature"}
{"geometry": {"coordinates": [-94.6747979963, 30.4351819867], "type": "Point"}, "id": "IOqvhD0SVlHfONEZXOcgeADgNEs=", "properties": {"@source_uri": "https://tools.usps.com/UspsToolsRestServices/rest/POLocator/findLocations", "@spider": "usps_collection_boxes", "addr:city": "VOTAW", "addr:country": "US", "addr:postcode": "77376", "addr:state": "TX", "addr:street_address": "21598 OLD HWY", "amenity": "post_box", "collection_times": "Mo-Fr 12:00; Sa 10:30", "indoor": "yes", "nsi_id": "unitedstatespostalservice-a77078", "operator": "United States Postal Service", "operator:short": "USPS", "operator:type": "public", "operator:wikidata": "Q668687", "ref": "7737600003"}, "type": "Feature"}
{"geometry": {"coordinates": [-95.478725, 30.42452], "type": "Point"}, "id": "6_BS_rCtphRX_wyMgv6g6d3Yso4=", "properties": {"@source_uri": "https://tools.usps.com/UspsToolsRestServices/rest/POLocator/findLocations", "@spider": "usps_collection_boxes", "addr:city": "WILLIS", "addr:country": "US", "addr:postcode": "77378", "addr:state": "TX", "addr:street_address": "609 N CAMPBELL ST", "amenity": "post_box", "collection_times": "Mo-Fr 17:00; Sa 15:00", "note": "ON 12/24 AND 12/31, THIS BOX MAY BE COLLECTED AS EARLY AS 12 NOON.", "nsi_id": "unitedstatespostalservice-a77078", "operator": "United States Postal Service", "operator:short": "USPS", "operator:type": "public", "operator:wikidata": "Q668687", "ref": "7737800001"}, "type": "Feature"}
{"geometry": {"coordinates": [-95.4790124, 30.420022], "type": "Point"}, "id": "J5yiE4PuwRv2tp_HnuW1NKZWxWQ=", "properties": {"@source_uri": "https://tools.usps.com/UspsToolsRestServices/rest/POLocator/findLocations", "@spider": "usps_collection_boxes", "addr:city": "WILLIS", "addr:country": "US", "addr:postcode": "77378", "addr:state": "TX", "addr:street_address": "504 S DANVILLE ST", "amenity": "post_box", "collection_times": "Mo-Sa 10:30", "nsi_id": "unitedstatespostalservice-a77078", "operator": "United States Postal Service", "operator:short": "USPS", "operator:type": "public", "operator:wikidata": "Q668687", "ref": "7737800004"}, "type": "Feature"}
{"geometry": {"coordinates": [-95.484568, 30.428179], "type": "Point"}, "id": "uvCzpxohyGzo_iIatLbEMJEq4gk=", "properties": {"@source_uri": "https://tools.usps.com/UspsToolsRestServices/rest/POLocator/findLocations", "@spider": "usps_collection_boxes", "addr:city": "WILLIS", "addr:country": "US", "addr:postcode": "77378", "addr:state": "TX", "addr:street_address": "609 N CAMPBELL ST", "amenity": "post_box", "collection_times": "Mo-Fr 17:00; Sa 15:00", "indoor": "yes", "note": "ON 12/24 AND 12/31, THIS BOX MAY BE COLLECTED AS EARLY AS 12 NOON.", "nsi_id": "unitedstatespostalservice-a77078", "operator": "United States Postal Service", "operator:short": "USPS", "operator:type": "public", "operator:wikidata": "Q668687", "ref": "7737800008"}, "type": "Feature"}
{"geometry": {"coordinates": [-95.4471137, 30.4495355], "type": "Point"}, "id": "3ZYalLK1VFJaSYMIkqfrfdv5Kaw=", "properties": {"@source_uri": "https://tools.usps.com/UspsToolsRestServices/rest/POLocator/findLocations", "@spider": "usps_collection_boxes", "addr:city": "WILLIS", "addr:country": "US", "addr:postcode": "77378", "addr:state": "TX", "addr:street_address": "9610 FM 1097 RD W", "amenity": "post_box", "collection_times": "Mo-Sa 10:00", "nsi_id": "unitedstatespostalservice-a77078", "operator": "United States Postal Service", "operator:short": "USPS", "operator:type": "public", "operator:wikidata": "Q668687", "ref": "7737800010"}, "type": "Feature"}
{"geometry": {"coordinates": [-95.484568, 30.428179], "type": "Point"}, "id": "cvRpWroc1ME3R9dyXtJfe__Az-I=", "properties": {"@source_uri": "https://tools.usps.com/UspsToolsRestServices/rest/POLocator/findLocations", "@spider": "usps_collection_boxes", "addr:city": "WILLIS", "addr:country": "US", "addr:postcode": "77378", "addr:state": "TX", "addr:street_address": "609 N CAMPBELL ST", "amenity": "post_box", "collection_times": "Mo-Fr 17:00; Sa 15:00", "indoor": "yes", "note": "ON 12/24 AND 12/31, THIS BOX MAY BE COLLECTED AS EARLY AS 12 NOON.", "nsi_id": "unitedstatespostalservice-a77078", "operator": "United States Postal Service", "operator:short": "USPS", "operator:type": "public", "operator:wikidata": "Q668687", "ref": "7737800011"}, "type": "Feature"}
{"geometry": {"coordinates": [-95.48513087, 30.429850422], "type": "Point"}, "id": "Uot8fodBQ79wgrXNUBFnWo_p5gk=", "properties": {"@source_uri": "https://tools.usps.com/UspsToolsRestServices/rest/POLocator/findLocations", "@spider": "usps_collection_boxes", "addr:city": "WILLIS", "addr:country": "US", "addr:postcode": "77378", "addr:state": "TX", "addr:street_address": "609 N CAMPBELL ST", "amenity": "post_box", "collection_times": "Mo-Fr 16:30; Sa 12:00", "indoor": "yes", "note": "ON 12/24 AND 12/31, THIS BOX MAY BE COLLECTED AS EARLY AS 12 NOON.", "nsi_id": "unitedstatespostalservice-a77078", "operator": "United States Postal Service", "operator:short": "USPS", "operator:type": "public", "operator:wikidata": "Q668687", "ref": "7737800014"}, "type": "Feature"}
{"geometry": {"coordinates": [-95.529982, 30.017582], "type": "Point"}, "id": "x2ZD7bUWcI9dTJzB5NiRkG1I-P4=", "properties": {"@source_uri": "https://tools.usps.com/UspsToolsRestServices/rest/POLocator/findLocations", "@spider": "usps_collection_boxes", "addr:city": "SPRING", "addr:country": "US", "addr:postcode": "77379", "addr:state": "TX", "addr:street_address": "7717 LOUETTA RD", "amenity": "post_box", "collection_times": "Mo-Sa 17:00", "indoor": "yes", "note": "ON 12/24 AND 12/31, THIS BOX MAY BE COLLECTED AS EARLY AS 12 NOON.", "nsi_id": "unitedstatespostalservice-a77078", "operator": "United States Postal Service", "operator:short": "USPS", "operator:type": "public", "operator:wikidata": "Q668687", "ref": "7737900012"}, "type": "Feature"}
{"geometry": {"coordinates": [-95.515335, 30.0184], "type": "Point"}, "id": "jz_66S3DraDUE_sT5DSA3ynLiSU=", "properties": {"@source_uri": "https://tools.usps.com/UspsToolsRestServices/rest/POLocator/findLocations", "@spider": "usps_collection_boxes", "addr:city": "SPRING", "addr:country": "US", "addr:postcode": "77379", "addr:state": "TX", "addr:street_address": "20803 STUEBNER AIRLINE RD", "amenity": "post_box", "collection_times": "Mo-Fr 14:30", "note": "ON 12/24 AND 12/31, THIS BOX MAY BE COLLECTED AS EARLY AS 12 NOON.", "nsi_id": "unitedstatespostalservice-a77078", "operator": "United States Postal Service", "operator:short": "USPS", "operator:type": "public", "operator:wikidata": "Q668687", "ref": "7737900013"}, "type": "Feature"}
{"geometry": {"coordinates": [-95.529982, 30.017582], "type": "Point"}, "id": "TIykiFBaGrY1LkB8XvzbGTb27ag=", "properties": {"@source_uri": "https://tools.usps.com/UspsToolsRestServices/rest/POLocator/findLocations", "@spider": "usps_collection_boxes", "addr:city": "SPRING", "addr:country": "US", "addr:postcode": "77379", "addr:state": "TX", "addr:street_address": "7717 LOUETTA RD", "amenity": "post_box", "collection_times": "Mo-Sa 17:00", "name": "USPS COLLECTION BOX - APC", "note": "ON 12/24 AND 12/31, THIS BOX MAY BE COLLECTED AS EARLY AS 12 NOON.", "nsi_id": "unitedstatespostalservice-a77078", "operator": "United States Postal Service", "operator:short": "USPS", "operator:type": "public", "operator:wikidata": "Q668687", "ref": "7737900014"}, "type": "Feature"}
{"geometry": {"coordinates": [-95.529982, 30.017582], "type": "Point"}, "id": "FknEkxPiVvDGxD3QKgtN4Ad3JLc=", "properties": {"@source_uri": "https://tools.usps.com/UspsToolsRestServices/rest/POLocator/findLocations", "@spider": "usps_collection_boxes", "addr:city": "SPRING", "addr:country": "US", "addr:postcode": "77379", "addr:state": "TX", "addr:street_address": "7717 LOUETTA RD", "amenity": "post_box", "collection_times": "Mo-Sa 17:00", "name": "USPS COLLECTION BOX - APC", "note": "ON 12/24 AND 12/31, THIS BOX MAY BE COLLECTED AS EARLY AS 12 NOON.", "nsi_id": "unitedstatespostalservice-a77078", "operator": "United States Postal Service", "operator:short": "USPS", "operator:type": "public", "operator:wikidata": "Q668687", "ref": "7737900016"}, "type": "Feature"}
{"geometry": {"coordinates": [-95.530708656, 30.017136322], "type": "Point"}, "id": "zNiICtdSqapCnhAKntp1qNTS1dA=", "properties": {"@source_uri": "https://tools.usps.com/UspsToolsRestServices/rest/POLocator/findLocations", "@spider": "usps_collection_boxes", "addr:city": "SPRING", "addr:country": "US", "addr:postcode": "77379", "addr:state": "TX", "addr:street_address": "7717 LOUETTA RD", "amenity": "post_box", "collection_times": "Mo-Fr 18:00; Sa 12:00", "indoor": "yes", "note": "ON 12/24 AND 12/31, THIS BOX MAY BE COLLECTED AS EARLY AS 12 NOON.", "nsi_id": "unitedstatespostalservice-a77078", "operator": "United States Postal Service", "operator:short": "USPS", "operator:type": "public", "operator:wikidata": "Q668687", "ref": "7737900023"}, "type": "Feature"}
{"geometry": {"coordinates": [-95.466285, 30.136045], "type": "Point"}, "id": "dPNUOUMIIT0Pgn96CUPePvzZn9g=", "properties": {"@source_uri": "https://tools.usps.com/UspsToolsRestServices/rest/POLocator/findLocations", "@spider": "usps_collection_boxes", "addr:city": "SPRING", "addr:country": "US", "addr:postcode": "77380", "addr:state": "TX", "addr:street_address": "536 SAWDUST RD", "amenity": "post_box", "collection_times": "Mo-Fr 11:00", "nsi_id": "unitedstatespostalservice-a77078", "operator": "United States Postal Service", "operator:short": "USPS", "operator:type": "public", "operator:wikidata": "Q668687", "ref": "7738000004"}, "type": "Feature"}
{"geometry": {"coordinates": [-95.466285, 30.136045], "type": "Point"}, "id": "cAbBoS6LYhZVqFxciCo8aB8u3FI=", "properties": {"@source_uri": "https://tools.usps.com/UspsToolsRestServices/rest/POLocator/findLocations", "@spider": "usps_collection_boxes", "addr:city": "SPRING", "addr:country": "US", "addr:postcode": "77380", "addr:state": "TX", "addr:street_address": "9450 PINECROFT DR", "amenity": "post_box", "collection_times": "Mo-Sa 17:00", "note": "ON 12/24 AND 12/31, THIS BOX MAY BE COLLECTED AS EARLY AS 12 NOON.", "nsi_id": "unitedstatespostalservice-a77078", "operator": "United States Postal Service", "operator:short": "USPS", "operator:type": "public", "operator:wikidata": "Q668687", "ref": "7738000005"}, "type": "Feature"}
{"geometry": {"coordinates": [-95.4552138, 30.157887], "type": "Point"}, "id": "5rOna_A16PaPssLZR5ngjSLn6sg=", "properties": {"@source_uri": "https://tools.usps.com/UspsToolsRestServices/rest/POLocator/findLocations", "@spider": "usps_collection_boxes", "addr:city": "SPRING", "addr:country": "US", "addr:postcode": "77380", "addr:state": "TX", "addr:street_address": "1400 WOODLOCH FOREST DR", "amenity": "post_box", "collection_times": "Mo-Fr 16:00", "note": "ON 12/24 AND 12/31, THIS BOX MAY BE COLLECTED AS EARLY AS 12 NOON.", "nsi_id": "unitedstatespostalservice-a77078", "operator": "United States Postal Service", "operator:short": "USPS", "operator:type": "public", "operator:wikidata": "Q668687", "ref": "7738000009"}, "type": "Feature"}
{"geometry": {"coordinates": [-95.4612736, 30.154764], "type": "Point"}, "id": "MwzNv5FxIyfM_WcbwD-eJMF0oRo=", "properties": {"@source_uri": "https://tools.usps.com/UspsToolsRestServices/rest/POLocator/findLocations", "@spider": "usps_collection_boxes", "addr:city": "SPRING", "addr:country": "US", "addr:postcode": "77380", "addr:state": "TX", "addr:street_address": "1610 WOODSTEAD CT", "amenity": "post_box", "collection_times": "Mo-Fr 15:45", "note": "ON 12/24 AND 12/31, THIS BOX MAY BE COLLECTED AS EARLY AS 12 NOON.", "nsi_id": "unitedstatespostalservice-a77078", "operator": "United States Postal Service", "operator:short": "USPS", "operator:type": "public", "operator:wikidata": "Q668687", "ref": "7738000012"}, "type": "Feature"}
{"geometry": {"coordinates": [-95.4453355, 30.124612], "type": "Point"}, "id": "emNc5oGP_88xnGT-uhduNJNeUU4=", "properties": {"@source_uri": "https://tools.usps.com/UspsToolsRestServices/rest/POLocator/findLocations", "@spider": "usps_collection_boxes", "addr:city": "SPRING", "addr:country": "US", "addr:postcode": "77380", "addr:state": "TX", "addr:street_address": "295 SAWDUST RD", "amenity": "post_box", "collection_times": "Mo-Fr 15:00", "note": "ON 12/24 AND 12/31, THIS BOX MAY BE COLLECTED AS EARLY AS 12 NOON.", "nsi_id": "unitedstatespostalservice-a77078", "operator": "United States Postal Service", "operator:short": "USPS", "operator:type": "public", "operator:wikidata": "Q668687", "ref": "7738000024"}, "type": "Feature"}
{"geometry": {"coordinates": [-95.457522, 30.12745], "type": "Point"}, "id": "fAtjdSOxaqM-VdGC2tpysaGMYjk=", "properties": {"@source_uri": "https://tools.usps.com/UspsToolsRestServices/rest/POLocator/findLocations", "@spider": "usps_collection_boxes", "addr:city": "SPRING", "addr:country": "US", "addr:postcode": "77380", "addr:state": "TX", "addr:street_address": "5 GROGANS PARK DR", "amenity": "post_box", "collection_times": "Mo-Fr 15:00", "note": "ON 12/24 AND 12/31, THIS BOX MAY BE COLLECTED AS EARLY AS 12 NOON.", "nsi_id": "unitedstatespostalservice-a77078", "operator": "United States Postal Service", "operator:short": "USPS", "operator:type": "public", "operator:wikidata": "Q668687", "ref": "7738000037"}, "type": "Feature"}
{"geometry": {"coordinates": [-95.466285, 30.136045], "type": "Point"}, "id": "TmRq6DO768hKvpZu0bjWRM5zw6Q=", "properties": {"@source_uri": "https://tools.usps.com/UspsToolsRestServices/rest/POLocator/findLocations", "@spider": "usps_collection_boxes", "addr:city": "SPRING", "addr:country": "US", "addr:postcode": "77380", "addr:state": "TX", "addr:street_address": "25329 INTERSTATE 45", "amenity": "post_box", "collection_times": "Mo-Fr 11:00", "nsi_id": "unitedstatespostalservice-a77078", "operator": "United States Postal Service", "operator:short": "USPS", "operator:type": "public", "operator:wikidata": "Q668687", "ref": "7738000040"}, "type": "Feature"}
{"geometry": {"coordinates": [-95.457093, 30.171637], "type": "Point"}, "id": "27PoayaqTpqBEO2E0brScRbdOmA=", "properties": {"@source_uri": "https://tools.usps.com/UspsToolsRestServices/rest/POLocator/findLocations", "@spider": "usps_collection_boxes", "addr:city": "SPRING", "addr:country": "US", "addr:postcode": "77380", "addr:state": "TX", "addr:street_address": "9450 PINECROFT DR", "amenity": "post_box", "collection_times": "Mo-Sa 17:00", "indoor": "yes", "note": "ON 12/24 AND 12/31, THIS BOX MAY BE COLLECTED AS EARLY AS 12 NOON.", "nsi_id": "unitedstatespostalservice-a77078", "operator": "United States Postal Service", "operator:short": "USPS", "operator:type": "public", "operator:wikidata": "Q668687", "ref": "7738000041"}, "type": "Feature"}
{"geometry": {"coordinates": [-95.457093, 30.171637], "type": "Point"}, "id": "zQRdIWA9Qu3kntopo1D1Rt1hIOY=", "properties": {"@source_uri": "https://tools.usps.com/UspsToolsRestServices/rest/POLocator/findLocations", "@spider": "usps_collection_boxes", "addr:city": "SPRING", "addr:country": "US", "addr:postcode": "77380", "addr:state": "TX", "addr:street_address": "9450 PINECROFT DR", "amenity": "post_box", "collection_times": "Mo-Sa 17:00", "name": "USPS COLLECTION BOX - APC", "note": "ON 12/24 AND 12/31, THIS BOX MAY BE COLLECTED AS EARLY AS 12 NOON.", "nsi_id": "unitedstatespostalservice-a77078", "operator": "United States Postal Service", "operator:short": "USPS", "operator:type": "public", "operator:wikidata": "Q668687", "ref": "7738000042"}, "type": "Feature"}
{"geometry": {"coordinates": [-95.45710684, 30.17158567], "type": "Point"}, "id": "Y6l2hnnG2b6cZzE0DOSUVbkrUlY=", "properties": {"@source_uri": "https://tools.usps.com/UspsToolsRestServices/rest/POLocator/findLocations", "@spider": "usps_collection_boxes", "addr:city": "SPRING", "addr:country": "US", "addr:postcode": "77380", "addr:state": "TX", "addr:street_address": "9450 PINECROFT DR", "amenity": "post_box", "collection_times": "Mo-Fr 16:30", "indoor": "yes", "note": "ON 12/24 AND 12/31, THIS BOX MAY BE COLLECTED AS EARLY AS 12 NOON.", "nsi_id": "unitedstatespostalservice-a77078", "operator": "United States Postal Service", "operator:short": "USPS", "operator:type": "public", "operator:wikidata": "Q668687", "ref": "7738000065"}, "type": "Feature"}
{"geometry": {"coordinates": [-95.4892354, 30.184125], "type": "Point"}, "id": "W122Urn66CWUcTCicc2C-LoeYR4=", "properties": {"@source_uri": "https://tools.usps.com/UspsToolsRestServices/rest/POLocator/findLocations", "@spider": "usps_collection_boxes", "addr:city": "SPRING", "addr:country": "US", "addr:postcode": "77381", "addr:state": "TX", "addr:street_address": "4747 RESEARCH FOREST DR", "amenity": "post_box", "collection_times": "Mo-Fr 16:15", "note": "ON 12/24 AND 12/31, THIS BOX MAY BE COLLECTED AS EARLY AS 12 NOON.", "nsi_id": "unitedstatespostalservice-a77078", "operator": "United States Postal Service", "operator:short": "USPS", "operator:type": "public", "operator:wikidata": "Q668687", "ref": "7738100009"}, "type": "Feature"}
{"geometry": {"coordinates": [-95.508764, 30.166284], "type": "Point"}, "id": "SQymqYT5r_M_4-U8iIQVOcMSTIY=", "properties": {"@source_uri": "https://tools.usps.com/UspsToolsRestServices/rest/POLocator/findLocations", "@spider": "usps_collection_boxes", "addr:city": "SPRING", "addr:country": "US", "addr:postcode": "77381", "addr:state": "TX", "addr:street_address": "10800 GOSLING RD", "amenity": "post_box", "collection_times": "Mo-Fr 17:00; Sa 16:45", "name": "USPS COLLECTION BOX - APC", "note": "ON 12/24 AND 12/31, THIS BOX MAY BE COLLECTED AS EARLY AS 12 NOON.", "nsi_id": "unitedstatespostalservice-a77078", "operator": "United States Postal Service", "operator:short": "USPS", "operator:type": "public", "operator:wikidata": "Q668687", "ref": "7738100011"}, "type": "Feature"}
{"geometry": {"coordinates": [-95.5077760273, 30.1660080208], "type": "Point"}, "id": "9YD9bCUgrTsVbMWV7aBx3EsPGP8=", "properties": {"@source_uri": "https://tools.usps.com/UspsToolsRestServices/rest/POLocator/findLocations", "@spider": "usps_collection_boxes", "addr:city": "SPRING", "addr:country": "US", "addr:postcode": "77381", "addr:state": "TX", "addr:street_address": "10800 GOSLING RD", "amenity": "post_box", "collection_times": "Mo-Fr 17:00; Sa 16:45", "note": "ON 12/24 AND 12/31, THIS BOX MAY BE COLLECTED AS EARLY AS 12 NOON.", "nsi_id": "unitedstatespostalservice-a77078", "operator": "United States Postal Service", "operator:short": "USPS", "operator:type": "public", "operator:wikidata": "Q668687", "ref": "7738100012"}, "type": "Feature"}
{"geometry": {"coordinates": [-95.528272, 30.208732], "type": "Point"}, "id": "9MQipXzcEmAYekz3AieoQ-4M4g0=", "properties": {"@source_uri": "https://tools.usps.com/UspsToolsRestServices/rest/POLocator/findLocations", "@spider": "usps_collection_boxes", "addr:city": "SPRING", "addr:country": "US", "addr:postcode": "77381", "addr:state": "TX", "addr:street_address": "8000 RESEARCH FOREST DR", "amenity": "post_box", "collection_times": "Mo-Fr 16:00", "note": "ON 12/24 AND 12/31, THIS BOX MAY BE COLLECTED AS EARLY AS 12 NOON.", "nsi_id": "unitedstatespostalservice-a77078", "operator": "United States Postal Service", "operator:short": "USPS", "operator:type": "public", "operator:wikidata": "Q668687", "ref": "7738100015"}, "type": "Feature"}
{"geometry": {"coordinates": [-95.4820253, 30.18048], "type": "Point"}, "id": "I2cL2GKlT4q0SPkg7CDPcABm5Yo=", "properties": {"@source_uri": "https://tools.usps.com/UspsToolsRestServices/rest/POLocator/findLocations", "@spider": "usps_collection_boxes", "addr:city": "SPRING", "addr:country": "US", "addr:postcode": "77381", "addr:state": "TX", "addr:street_address": "3400 RESEARCH FOREST DR", "amenity": "post_box", "collection_times": "Mo-Fr 16:30", "note": "ON 12/24 AND 12/31, THIS BOX MAY BE COLLECTED AS EARLY AS 12 NOON.", "nsi_id": "unitedstatespostalservice-a77078", "operator": "United States Postal Service", "operator:short": "USPS", "operator:type": "public", "operator:wikidata": "Q668687", "ref": "7738100016"}, "type": "Feature"}
{"geometry": {"coordinates": [-95.5086972922, 30.1664040902], "type": "Point"}, "id": "ZH2PblAlFQghCdjpkIzyr8VrSEc=", "properties": {"@source_uri": "https://tools.usps.com/UspsToolsRestServices/rest/POLocator/findLocations", "@spider": "usps_collection_boxes", "addr:city": "SPRING", "addr:country": "US", "addr:postcode": "77381", "addr:state": "TX", "addr:street_address": "10800 GOSLING RD", "amenity": "post_box", "collection_times": "Mo-Fr 17:00; Sa 16:45", "indoor": "yes", "note": "ON 12/24 AND 12/31, THIS BOX MAY BE COLLECTED AS EARLY AS 12 NOON.", "nsi_id": "unitedstatespostalservice-a77078", "operator": "United States Postal Service", "operator:short": "USPS", "operator:type": "public", "operator:wikidata": "Q668687", "ref": "7738100018"}, "type": "Feature"}
{"geometry": {"coordinates": [-95.508697292, 30.16640409], "type": "Point"}, "id": "ohGFVrQ_weCKljfEzLHVQSWMzKE=", "properties": {"@source_uri": "https://tools.usps.com/UspsToolsRestServices/rest/POLocator/findLocations", "@spider": "usps_collection_boxes", "addr:city": "SPRING", "addr:country": "US", "addr:postcode": "77381", "addr:state": "TX", "addr:street_address": "10800 GOSLING RD", "amenity": "post_box", "collection_times": "Mo-Fr 18:30; Sa 12:00", "indoor": "yes", "note": "ON 12/24 AND 12/31, THIS BOX MAY BE COLLECTED AS EARLY AS 12 NOON.", "nsi_id": "unitedstatespostalservice-a77078", "operator": "United States Postal Service", "operator:short": "USPS", "operator:type": "public", "operator:wikidata": "Q668687", "ref": "7738100022"}, "type": "Feature"}
{"geometry": {"coordinates": [-95.537081, 30.181058], "type": "Point"}, "id": "1-XwToEOk51U7bLCzIuWUAP0W-k=", "properties": {"@source_uri": "https://tools.usps.com/UspsToolsRestServices/rest/POLocator/findLocations", "@spider": "usps_collection_boxes", "addr:city": "SPRING", "addr:country": "US", "addr:postcode": "77382", "addr:state": "TX", "addr:street_address": "6700 WOODLANDS PKWY", "amenity": "post_box", "collection_times": "Mo-Fr 15:30", "note": "ON 12/24 AND 12/31, THIS BOX MAY BE COLLECTED AS EARLY AS 12 NOON.", "nsi_id": "unitedstatespostalservice-a77078", "operator": "United States Postal Service", "operator:short": "USPS", "operator:type": "public", "operator:wikidata": "Q668687", "ref": "7738200000"}, "type": "Feature"}
{"geometry": {"coordinates": [-95.505484725, 30.230533275], "type": "Point"}, "id": "18TVxzh3Pa8aGu2paXZoCCvBmb8=", "properties": {"@source_uri": "https://tools.usps.com/UspsToolsRestServices/rest/POLocator/findLocations", "@spider": "usps_collection_boxes", "addr:city": "CONROE", "addr:country": "US", "addr:postcode": "77384", "addr:state": "TX", "addr:street_address": "2750 FM 1488 RD", "amenity": "post_box", "collection_times": "Mo-Fr 13:00", "note": "ON 12/24 AND 12/31, THIS BOX MAY BE COLLECTED AS EARLY AS 12 NOON.", "nsi_id": "unitedstatespostalservice-a77078", "operator": "United States Postal Service", "operator:short": "USPS", "operator:type": "public", "operator:wikidata": "Q668687", "ref": "7738400000"}, "type": "Feature"}
{"geometry": {"coordinates": [-95.450626032, 30.176461008], "type": "Point"}, "id": "W6ByWmdWbiqPurXCaOLwNkUmdJg=", "properties": {"@source_uri": "https://tools.usps.com/UspsToolsRestServices/rest/POLocator/findLocations", "@spider": "usps_collection_boxes", "addr:city": "SHENANDOAH", "addr:country": "US", "addr:postcode": "77385", "addr:state": "TX", "addr:street_address": "19221 I 45 S", "amenity": "post_box", "collection_times": "Mo-Fr 15:15", "note": "ON 12/24 AND 12/31, THIS BOX MAY BE COLLECTED AS EARLY AS 12 NOON.", "nsi_id": "unitedstatespostalservice-a77078", "operator": "United States Postal Service", "operator:short": "USPS", "operator:type": "public", "operator:wikidata": "Q668687", "ref": "7738500000"}, "type": "Feature"}
{"geometry": {"coordinates": [-95.437951, 30.157143], "type": "Point"}, "id": "u0kVFcA_bjerovwrnZOAWv4jCNc=", "properties": {"@source_uri": "https://tools.usps.com/UspsToolsRestServices/rest/POLocator/findLocations", "@spider": "usps_collection_boxes", "addr:city": "SHENANDOAH", "addr:country": "US", "addr:postcode": "77385", "addr:state": "TX", "addr:street_address": "27424 ROBINSON RD", "amenity": "post_box", "collection_times": "Mo-Fr 15:00", "note": "ON 12/24 AND 12/31, THIS BOX MAY BE COLLECTED AS EARLY AS 12 NOON.", "nsi_id": "unitedstatespostalservice-a77078", "operator": "United States Postal Service", "operator:short": "USPS", "operator:type": "public", "operator:wikidata": "Q668687", "ref": "7738500002"}, "type": "Feature"}
{"geometry": {"coordinates": [-95.450023, 30.164638], "type": "Point"}, "id": "zEzPp3T9EP1gT0u-ngBo_oo7UpA=", "properties": {"@source_uri": "https://tools.usps.com/UspsToolsRestServices/rest/POLocator/findLocations", "@spider": "usps_collection_boxes", "addr:city": "SHENANDOAH", "addr:country": "US", "addr:postcode": "77385", "addr:state": "TX", "addr:street_address": "27820 I-45 N", "amenity": "post_box", "collection_times": "Mo-Fr 15:15", "note": "ON 12/24 AND 12/31, THIS BOX MAY BE COLLECTED AS EARLY AS 12 NOON.", "nsi_id": "unitedstatespostalservice-a77078", "operator": "United States Postal Service", "operator:short": "USPS", "operator:type": "public", "operator:wikidata": "Q668687", "ref": "7738500003"}, "type": "Feature"}
{"geometry": {"coordinates": [-95.437575, 30.12713], "type": "Point"}, "id": "LhewIOcVIzEbLdgmWiYM9W4Yv2M=", "properties": {"@source_uri": "https://tools.usps.com/UspsToolsRestServices/rest/POLocator/findLocations", "@spider": "usps_collection_boxes", "addr:city": "SPRING", "addr:country": "US", "addr:postcode": "77386", "addr:state": "TX", "addr:street_address": "107 RAYFORD RD", "amenity": "post_box", "collection_times": "Mo-Fr 15:15", "note": "ON 12/24 AND 12/31, THIS BOX MAY BE COLLECTED AS EARLY AS 12 NOON.", "nsi_id": "unitedstatespostalservice-a77078", "operator": "United States Postal Service", "operator:short": "USPS", "operator:type": "public", "operator:wikidata": "Q668687", "ref": "7738600001"}, "type": "Feature"}
{"geometry": {"coordinates": [-95.4473986, 30.153644], "type": "Point"}, "id": "Owljkt51z-Nb7oK-YLHg7t8WP7g=", "properties": {"@source_uri": "https://tools.usps.com/UspsToolsRestServices/rest/POLocator/findLocations", "@spider": "usps_collection_boxes", "addr:city": "SPRING", "addr:country": "US", "addr:postcode": "77386", "addr:state": "TX", "addr:street_address": "26834 INTERSTATE 45", "amenity": "post_box", "collection_times": "Mo-Fr 15:30", "note": "ON 12/24 AND 12/31, THIS BOX MAY BE COLLECTED AS EARLY AS 12 NOON.", "nsi_id": "unitedstatespostalservice-a77078", "operator": "United States Postal Service", "operator:short": "USPS", "operator:type": "public", "operator:wikidata": "Q668687", "ref": "7738600002"}, "type": "Feature"}
{"geometry": {"coordinates": [-95.4390375, 30.12383], "type": "Point"}, "id": "gbVI1vSfvIT1ZG_4K9UvEa9kfe4=", "properties": {"@source_uri": "https://tools.usps.com/UspsToolsRestServices/rest/POLocator/findLocations", "@spider": "usps_collection_boxes", "addr:city": "SPRING", "addr:country": "US", "addr:postcode": "77386", "addr:state": "TX", "addr:street_address": "25000 PITKIN RD", "amenity": "post_box", "collection_times": "Mo-Fr 15:15", "note": "ON 12/24 AND 12/31, THIS BOX MAY BE COLLECTED AS EARLY AS 12 NOON.", "nsi_id": "unitedstatespostalservice-a77078", "operator": "United States Postal Service", "operator:short": "USPS", "operator:type": "public", "operator:wikidata": "Q668687", "ref": "7738600006"}, "type": "Feature"}
{"geometry": {"coordinates": [-95.437575, 30.12713], "type": "Point"}, "id": "VNurDfUsmLO9v2g0j0WZbSfLTEg=", "properties": {"@source_uri": "https://tools.usps.com/UspsToolsRestServices/rest/POLocator/findLocations", "@spider": "usps_collection_boxes", "addr:city": "SPRING", "addr:country": "US", "addr:postcode": "77386", "addr:state": "TX", "addr:street_address": "24900 PITKIN RD", "amenity": "post_box", "collection_times": "Mo-Fr 12:00", "nsi_id": "unitedstatespostalservice-a77078", "operator": "United States Postal Service", "operator:short": "USPS", "operator:type": "public", "operator:wikidata": "Q668687", "ref": "7738600013"}, "type": "Feature"}
{"geometry": {"coordinates": [-95.437945, 30.046165], "type": "Point"}, "id": "2BY6HH6B7nNdqr-4E-qZjqyeJb8=", "properties": {"@source_uri": "https://tools.usps.com/UspsToolsRestServices/rest/POLocator/findLocations", "@spider": "usps_collection_boxes", "addr:city": "SPRING", "addr:country": "US", "addr:postcode": "77388", "addr:state": "TX", "addr:street_address": "400 RANDAL WAY", "amenity": "post_box", "collection_times": "Mo-Fr 16:45", "note": "ON 12/24 AND 12/31, THIS BOX MAY BE COLLECTED AS EARLY AS 12 NOON.", "nsi_id": "unitedstatespostalservice-a77078", "operator": "United States Postal Service", "operator:short": "USPS", "operator:type": "public", "operator:wikidata": "Q668687", "ref": "7738800013"}, "type": "Feature"}
{"geometry": {"coordinates": [-95.437945, 30.046165], "type": "Point"}, "id": "72ET4izpZR8x8qIeh1DWII1e4QY=", "properties": {"@source_uri": "https://tools.usps.com/UspsToolsRestServices/rest/POLocator/findLocations", "@spider": "usps_collection_boxes", "addr:city": "SPRING", "addr:country": "US", "addr:postcode": "77388", "addr:state": "TX", "addr:street_address": "18450 KUYKENDAHL RD", "amenity": "post_box", "collection_times": "Mo-Fr 16:15", "note": "ON 12/24 AND 12/31, THIS BOX MAY BE COLLECTED AS EARLY AS 12 NOON.", "nsi_id": "unitedstatespostalservice-a77078", "operator": "United States Postal Service", "operator:short": "USPS", "operator:type": "public", "operator:wikidata": "Q668687", "ref": "7738800016"}, "type": "Feature"}
