{"geometry": {"coordinates": [-95.469, 29.70588], "type": "Point"}, "id": "fuTFWCPooAmobNuo26u-rGXOBc0=", "properties": {"@source_uri": "https://tools.usps.com/UspsToolsRestServices/rest/POLocator/findLocations", "@spider": "usps_collection_boxes", "addr:city": "BELLAIRE", "addr:country": "US", "addr:postcode": "77401", "addr:state": "TX", "addr:street_address": "4747 BELLAIRE BLVD", "amenity": "post_box", "collection_times": "Mo-Fr 14:45", "note": "ON 12/24 AND 12/31, THIS BOX MAY BE COLLECTED AS EARLY AS 12 NOON.", "nsi_id": "unitedstatespostalservice-a77078", "operator": "United States Postal Service", "operator:short": "USPS", "operator:type": "public", "operator:wikidata": "Q668687", "ref": "7740100002"}, "type": "Feature"}
{"geometry": {"coordinates": [-95.469, 29.70588], "type": "Point"}, "id": "4YMMlI2scHPHrxzk0l_X5YXzrzI=", "properties": {"@source_uri": "https://tools.usps.com/UspsToolsRestServices/rest/POLocator/findLocations", "@spider": "usps_collection_boxes", "addr:city": "BELLAIRE", "addr:country": "US", "addr:postcode": "77401", "addr:state": "TX", "addr:street_address": "5350 BELLAIRE BLVD", "amenity": "post_box", "collection_times": "Mo-Fr 17:00; Sa 16:45", "note": "ON 12/24 AND 12/31, THIS BOX MAY BE COLLECTED AS EARLY AS 12 NOON.", "nsi_id": "unitedstatespostalservice-a77078", "operator": "United States Postal Service", "operator:short": "USPS", "operator:type": "public", "operator:wikidata": "Q668687", "ref": "7740100005"}, "type": "Feature"}
{"geometry": {"coordinates": [-95.469, 29.70588], "type": "Point"}, "id": "06H_6c-xtEzFjiO3bT2p04pyrpI=", "properties": {"@source_uri": "https://tools.usps.com/UspsToolsRestServices/rest/POLocator/findLocations", "@spider": "usps_collection_boxes", "addr:city": "BELLAIRE", "addr:country": "US", "addr:postcode": "77401", "addr:state": "TX", "addr:street_address": "4500 BISSONNET ST", "amenity": "post_box", "collection_times": "Mo-Fr 15:30", "note": "ON 12/24 AND 12/31, THIS BOX MAY BE COLLECTED AS EARLY AS 12 NOON.", "nsi_id": "unitedstatespostalservice-a77078", "operator": "United States Postal Service", "operator:short": "USPS", "operator:type": "public", "operator:wikidata": "Q668687", "ref": "7740100006"}, "type": "Feature"}
{"geometry": {"coordinates": [-95.469, 29.70588], "type": "Point"}, "id": "XRP5PEJeax83KDpppwrBoTKd9TU=", "properties": {"@source_uri": "https://tools.usps.com/UspsToolsRestServices/rest/POLocator/findLocations", "@spider": "usps_collection_boxes", "addr:city": "BELLAIRE", "addr:country": "US", "addr:postcode": "77401", "addr:state": "TX", "addr:street_address": "7008 S RICE AVE", "amenity": "post_box", "collection_times": "Mo-Fr 16:15", "note": "ON 12/24 AND 12/31, THIS BOX MAY BE COLLECTED AS EARLY AS 12 NOON.", "nsi_id": "unitedstatespostalservice-a77078", "operator": "United States Postal Service", "operator:short": "USPS", "operator:type": "public", "operator:wikidata": "Q668687", "ref": "7740100020"}, "type": "Feature"}
{"geometry": {"coordinates": [-95.469, 29.70588], "type": "Point"}, "id": "zniw3LSPrT3B1FYLFlvx704fXyU=", "properties": {"@source_uri": "https://tools.usps.com/UspsToolsRestServices/rest/POLocator/findLocations", "@spider": "usps_collection_boxes", "addr:city": "BELLAIRE", "addr:country": "US", "addr:postcode": "77401", "addr:state": "TX", "addr:street_address": "6330 WEST LOOP S", "amenity": "post_box", "collection_times": "Mo-Fr 16:15", "note": "ON 12/24 AND 12/31, THIS BOX MAY BE COLLECTED AS EARLY AS 12 NOON.", "nsi_id": "unitedstatespostalservice-a77078", "operator": "United States Postal Service", "operator:short": "USPS", "operator:type": "public", "operator:wikidata": "Q668687", "ref": "7740100026"}, "type": "Feature"}
{"geometry": {"coordinates": [-95.469, 29.70588], "type": "Point"}, "id": "ikQ045-0gRQjiY8vhLTjlkBDp7Q=", "properties": {"@source_uri": "https://tools.usps.com/UspsToolsRestServices/rest/POLocator/findLocations", "@spider": "usps_collection_boxes", "addr:city": "BELLAIRE", "addr:country": "US", "addr:postcode": "77401", "addr:state": "TX", "addr:street_address": "6800 WEST LOOP S", "amenity": "post_box", "collection_times": "Mo-Fr 15:00", "note": "ON 12/24 AND 12/31, THIS BOX MAY BE COLLECTED AS EARLY AS 12 NOON.", "nsi_id": "unitedstatespostalservice-a77078", "operator": "United States Postal Service", "operator:short": "USPS", "operator:type": "public", "operator:wikidata": "Q668687", "ref": "7740100029"}, "type": "Feature"}
{"geometry": {"coordinates": [-95.469, 29.70588], "type": "Point"}, "id": "SSOPOi7vGcsN9GgXazr9i8K43m4=", "properties": {"@source_uri": "https://tools.usps.com/UspsToolsRestServices/rest/POLocator/findLocations", "@spider": "usps_collection_boxes", "addr:city": "BELLAIRE", "addr:country": "US", "addr:postcode": "77401", "addr:state": "TX", "addr:street_address": "6750 WEST LOOP S", "amenity": "post_box", "collection_times": "Mo-Fr 16:30", "note": "ON 12/24 AND 12/31, THIS BOX MAY BE COLLECTED AS EARLY AS 12 NOON.", "nsi_id": "unitedstatespostalservice-a77078", "operator": "United States Postal Service", "operator:short": "USPS", "operator:type": "public", "operator:wikidata": "Q668687", "ref": "7740100039"}, "type": "Feature"}
{"geometry": {"coordinates": [-95.473732, 29.705763], "type": "Point"}, "id": "MhzuEkTNK7QH3ysEjS9PEnB9HuU=", "properties": {"@source_uri": "https://tools.usps.com/UspsToolsRestServices/rest/POLocator/findLocations", "@spider": "usps_collection_boxes", "addr:city": "BELLAIRE", "addr:country": "US", "addr:postcode": "77401", "addr:state": "TX", "addr:street_address": "5350 BELLAIRE BLVD", "amenity": "post_box", "collection_times": "Mo-Fr 17:00; Sa 16:45", "indoor": "yes", "note": "ON 12/24 AND 12/31, THIS BOX MAY BE COLLECTED AS EARLY AS 12 NOON.", "nsi_id": "unitedstatespostalservice-a77078", "operator": "United States Postal Service", "operator:short": "USPS", "operator:type": "public", "operator:wikidata": "Q668687", "ref": "7740100055"}, "type": "Feature"}
{"geometry": {"coordinates": [-95.469, 29.70588], "type": "Point"}, "id": "AN5bFAQYy3hkRdVq2wxsQ1wBkHk=", "properties": {"@source_uri": "https://tools.usps.com/UspsToolsRestServices/rest/POLocator/findLocations", "@spider": "usps_collection_boxes", "addr:city": "BELLAIRE", "addr:country": "US", "addr:postcode": "77401", "addr:state": "TX", "addr:street_address": "6500 WEST LOOP S", "amenity": "post_box", "collection_times": "Mo-Fr 14:30", "note": "ON 12/24 AND 12/31, THIS BOX MAY BE COLLECTED AS EARLY AS 12 NOON.", "nsi_id": "unitedstatespostalservice-a77078", "operator": "United States Postal Service", "operator:short": "USPS", "operator:type": "public", "operator:wikidata": "Q668687", "ref": "7740100057"}, "type": "Feature"}
{"geometry": {"coordinates": [-95.469, 29.70588], "type": "Point"}, "id": "TcewZMRuofRJtWeEG-ABgh3UiK0=", "properties": {"@source_uri": "https://tools.usps.com/UspsToolsRestServices/rest/POLocator/findLocations", "@spider": "usps_collection_boxes", "addr:city": "BELLAIRE", "addr:country": "US", "addr:postcode": "77401", "addr:state": "TX", "addr:street_address": "4601 EVERGREEN ST", "amenity": "post_box", "collection_times": "Mo-Fr 15:15; Sa 10:00", "note": "ON 12/24 AND 12/31, THIS BOX MAY BE COLLECTED AS EARLY AS 12 NOON.", "nsi_id": "unitedstatespostalservice-a77078", "operator": "United States Postal Service", "operator:short": "USPS", "operator:type": "public", "operator:wikidata": "Q668687", "ref": "7740100059"}, "type": "Feature"}
{"geometry": {"coordinates": [-95.473732, 29.705763], "type": "Point"}, "id": "b3TfSVU7OIjNa0WWc07y6t2uurs=", "properties": {"@source_uri": "https://tools.usps.com/UspsToolsRestServices/rest/POLocator/findLocations", "@spider": "usps_collection_boxes", "addr:city": "BELLAIRE", "addr:country": "US", "addr:postcode": "77401", "addr:state": "TX", "addr:street_address": "5350 BELLAIRE BLVD", "amenity": "post_box", "collection_times": "Mo-Fr 17:00; Sa 16:45", "name": "USPS COLLECTION BOX - APC", "note": "ON 12/24 AND 12/31, THIS BOX MAY BE COLLECTED AS EARLY AS 12 NOON.", "nsi_id": "unitedstatespostalservice-a77078", "operator": "United States Postal Service", "operator:short": "USPS", "operator:type": "public", "operator:wikidata": "Q668687", "ref": "7740100060"}, "type": "Feature"}
{"geometry": {"coordinates": [-95.47373312, 29.705794583], "type": "Point"}, "id": "sXEfmEPkmYhhId_5W3GMPWcsWRQ=", "properties": {"@source_uri": "https://tools.usps.com/UspsToolsRestServices/rest/POLocator/findLocations", "@spider": "usps_collection_boxes", "addr:city": "BELLAIRE", "addr:country": "US", "addr:postcode": "77401", "addr:state": "TX", "addr:street_address": "5350 BELLAIRE BLVD", "amenity": "post_box", "collection_times": "Mo-Fr 17:00; Sa 12:00", "indoor": "yes", "note": "ON 12/24 AND 12/31, THIS BOX MAY BE COLLECTED AS EARLY AS 12 NOON.", "nsi_id": "unitedstatespostalservice-a77078", "operator": "United States Postal Service", "operator:short": "USPS", "operator:type": "public", "operator:wikidata": "Q668687", "ref": "7740100063"}, "type": "Feature"}
{"geometry": {"coordinates": [-95.4543239602, 29.71415102], "type": "Point"}, "id": "ENkW3u_F6Yj0F9ErIqqxIi0q1qM=", "properties": {"@source_uri": "https://tools.usps.com/UspsToolsRestServices/rest/POLocator/findLocations", "@spider": "usps_collection_boxes", "addr:city": "BELLAIRE", "addr:country": "US", "addr:postcode": "77401", "addr:state": "TX", "addr:street_address": "4545 BISSONNET ST", "amenity": "post_box", "collection_times": "Mo-Fr 15:30", "note": "ON 12/24 AND 12/31, THIS BOX MAY BE COLLECTED AS EARLY AS 12 NOON.", "nsi_id": "unitedstatespostalservice-a77078", "operator": "United States Postal Service", "operator:short": "USPS", "operator:type": "public", "operator:wikidata": "Q668687", "ref": "7740100065"}, "type": "Feature"}
{"geometry": {"coordinates": [-95.5889347, 29.7037779], "type": "Point"}, "id": "UDVlNS7wOGa0rlzhpehKo7oeb3c=", "properties": {"@source_uri": "https://tools.usps.com/UspsToolsRestServices/rest/POLocator/findLocations", "@spider": "usps_collection_boxes", "addr:city": "ALIEF", "addr:country": "US", "addr:postcode": "77411", "addr:state": "TX", "addr:street_address": "11936 BELLAIRE BLVD", "amenity": "post_box", "collection_times": "Mo-Fr 17:00; Sa 11:30", "indoor": "yes", "note": "ON 12/24 AND 12/31, THIS BOX MAY BE COLLECTED AS EARLY AS 12 NOON.", "nsi_id": "unitedstatespostalservice-a77078", "operator": "United States Postal Service", "operator:short": "USPS", "operator:type": "public", "operator:wikidata": "Q668687", "ref": "7741100002"}, "type": "Feature"}
{"geometry": {"coordinates": [-95.5889347, 29.7037779], "type": "Point"}, "id": "oedxR4bVqMcTSiML7PLSvOzSp8c=", "properties": {"@source_uri": "https://tools.usps.com/UspsToolsRestServices/rest/POLocator/findLocations", "@spider": "usps_collection_boxes", "addr:city": "ALIEF", "addr:country": "US", "addr:postcode": "77411", "addr:state": "TX", "addr:street_address": "11936 BELLAIRE BLVD", "amenity": "post_box", "collection_times": "Mo-Fr 16:30; Sa 11:00", "indoor": "yes", "note": "ON 12/24 AND 12/31, THIS BOX MAY BE COLLECTED AS EARLY AS 12 NOON.", "nsi_id": "unitedstatespostalservice-a77078", "operator": "United States Postal Service", "operator:short": "USPS", "operator:type": "public", "operator:wikidata": "Q668687", "ref": "7741100004"}, "type": "Feature"}
{"geometry": {"coordinates": [-96.452491, 29.570931], "type": "Point"}, "id": "pLBYdBq0Lxczgmf1cunAzrSAOPM=", "properties": {"@source_uri": "https://tools.usps.com/UspsToolsRestServices/rest/POLocator/findLocations", "@spider": "usps_collection_boxes", "addr:city": "ALTAIR", "addr:country": "US", "addr:postcode": "77412", "addr:state": "TX", "addr:street_address": "4159 US HIGHWAY 90A", "amenity": "post_box", "collection_times": "Mo-Fr 12:45; Sa 11:15", "note": "ON 12/24 AND 12/31, THIS BOX MAY BE COLLECTED AS EARLY AS 12 NOON.", "nsi_id": "unitedstatespostalservice-a77078", "operator": "United States Postal Service", "operator:short": "USPS", "operator:type": "public", "operator:wikidata": "Q668687", "ref": "7741200001"}, "type": "Feature"}
{"geometry": {"coordinates": [-96.452555, 29.570885], "type": "Point"}, "id": "0GVF7sP-EtFTHcwY9gwZ6njQmVY=", "properties": {"@source_uri": "https://tools.usps.com/UspsToolsRestServices/rest/POLocator/findLocations", "@spider": "usps_collection_boxes", "addr:city": "ALTAIR", "addr:country": "US", "addr:postcode": "77412", "addr:state": "TX", "addr:street_address": "4159 US HIGHWAY 90A", "amenity": "post_box", "collection_times": "Mo-Fr 12:45; Sa 11:15", "indoor": "yes", "note": "ON 12/24 AND 12/31, THIS BOX MAY BE COLLECTED AS EARLY AS 12 NOON.", "nsi_id": "unitedstatespostalservice-a77078", "operator": "United States Postal Service", "operator:short": "USPS", "operator:type": "public", "operator:wikidata": "Q668687", "ref": "7741200002"}, "type": "Feature"}
{"geometry": {"coordinates": [-96.464666875, 29.5689473162], "type": "Point"}, "id": "EQtdWU5-r2a7lRB4kYr5u49NbRM=", "properties": {"@source_uri": "https://tools.usps.com/UspsToolsRestServices/rest/POLocator/findLocations", "@spider": "usps_collection_boxes", "addr:city": "ALTAIR", "addr:country": "US", "addr:postcode": "77412", "addr:state": "TX", "addr:street_address": "4159 US HIGHWAY 90A", "amenity": "post_box", "collection_times": "Mo-Fr 13:00; Sa 11:15", "indoor": "yes", "note": "ON 12/24 AND 12/31, THIS BOX MAY BE COLLECTED AS EARLY AS 12 NOON.", "nsi_id": "unitedstatespostalservice-a77078", "operator": "United States Postal Service", "operator:short": "USPS", "operator:type": "public", "operator:wikidata": "Q668687", "ref": "7741200003"}, "type": "Feature"}
{"geometry": {"coordinates": [-98.555433004, 29.372027004], "type": "Point"}, "id": "Do1ughvQTRTd2YKMGG00q-eC9h0=", "properties": {"@source_uri": "https://tools.usps.com/UspsToolsRestServices/rest/POLocator/findLocations", "@spider": "usps_collection_boxes", "addr:city": "BARKER", "addr:country": "US", "addr:postcode": "77413", "addr:state": "TX", "addr:street_address": "211 BAKER RD", "amenity": "post_box", "collection_times": "Mo-Fr 16:00; Sa 11:30", "indoor": "yes", "note": "ON 12/24 AND 12/31, THIS BOX MAY BE COLLECTED AS EARLY AS 12 NOON.", "nsi_id": "unitedstatespostalservice-a77078", "operator": "United States Postal Service", "operator:short": "USPS", "operator:type": "public", "operator:wikidata": "Q668687", "ref": "7741300001"}, "type": "Feature"}
{"geometry": {"coordinates": [-95.7015320173, 29.7827809955], "type": "Point"}, "id": "YIoF4G2STZAUNqYIwShHJDFB3Sw=", "properties": {"@source_uri": "https://tools.usps.com/UspsToolsRestServices/rest/POLocator/findLocations", "@spider": "usps_collection_boxes", "addr:city": "BARKER", "addr:country": "US", "addr:postcode": "77413", "addr:state": "TX", "addr:street_address": "211 BAKER RD", "amenity": "post_box", "collection_times": "Mo-Fr 16:00; Sa 11:30", "note": "ON 12/24 AND 12/31, THIS BOX MAY BE COLLECTED AS EARLY AS 12 NOON.", "nsi_id": "unitedstatespostalservice-a77078", "operator": "United States Postal Service", "operator:short": "USPS", "operator:type": "public", "operator:wikidata": "Q668687", "ref": "7741300002"}, "type": "Feature"}
{"geometry": {"coordinates": [-98.555433004, 29.372027004], "type": "Point"}, "id": "XDeaeEf5kNhLCy1cEOB5kiFQVok=", "properties": {"@source_uri": "https://tools.usps.com/UspsToolsRestServices/rest/POLocator/findLocations", "@spider": "usps_collection_boxes", "addr:city": "BARKER", "addr:country": "US", "addr:postcode": "77413", "addr:state": "TX", "addr:street_address": "211 BAKER RD", "amenity": "post_box", "collection_times": "Mo-Fr 16:00; Sa 11:00", "indoor": "yes", "note": "ON 12/24 AND 12/31, THIS BOX MAY BE COLLECTED AS EARLY AS 12 NOON.", "nsi_id": "unitedstatespostalservice-a77078", "operator": "United States Postal Service", "operator:short": "USPS", "operator:type": "public", "operator:wikidata": "Q668687", "ref": "7741300005"}, "type": "Feature"}
{"geometry": {"coordinates": [-95.969223, 28.964265], "type": "Point"}, "id": "O_ug0iXNfJwg2XiE7oXTWghSgQ0=", "properties": {"@source_uri": "https://tools.usps.com/UspsToolsRestServices/rest/POLocator/findLocations", "@spider": "usps_collection_boxes", "addr:city": "BAY CITY", "addr:country": "US", "addr:postcode": "77414", "addr:state": "TX", "addr:street_address": "1309 BAYWOOD DR", "amenity": "post_box", "collection_times": "Mo-Fr 16:45; Sa 15:30", "indoor": "yes", "note": "ON 12/24 AND 12/31, THIS BOX MAY BE COLLECTED AS EARLY AS 12 NOON.", "nsi_id": "unitedstatespostalservice-a77078", "operator": "United States Postal Service", "operator:short": "USPS", "operator:type": "public", "operator:wikidata": "Q668687", "ref": "7741400001"}, "type": "Feature"}
{"geometry": {"coordinates": [-95.9701056, 28.98435], "type": "Point"}, "id": "DfzGFen-1hq_RNxX4Dur0PUBhmc=", "properties": {"@source_uri": "https://tools.usps.com/UspsToolsRestServices/rest/POLocator/findLocations", "@spider": "usps_collection_boxes", "addr:city": "BAY CITY", "addr:country": "US", "addr:postcode": "77414", "addr:state": "TX", "addr:street_address": "2917 7TH ST", "amenity": "post_box", "collection_times": "Mo-Fr 14:00", "note": "ON 12/24 AND 12/31, THIS BOX MAY BE COLLECTED AS EARLY AS 12 NOON.", "nsi_id": "unitedstatespostalservice-a77078", "operator": "United States Postal Service", "operator:short": "USPS", "operator:type": "public", "operator:wikidata": "Q668687", "ref": "7741400009"}, "type": "Feature"}
{"geometry": {"coordinates": [-95.969223, 28.964265], "type": "Point"}, "id": "-HMug8IZ13MWretAoUblrAKiBzc=", "properties": {"@source_uri": "https://tools.usps.com/UspsToolsRestServices/rest/POLocator/findLocations", "@spider": "usps_collection_boxes", "addr:city": "BAY CITY", "addr:country": "US", "addr:postcode": "77414", "addr:state": "TX", "addr:street_address": "1309 BAYWOOD DR", "amenity": "post_box", "collection_times": "Mo-Fr 16:45; Sa 15:30", "indoor": "yes", "note": "ON 12/24 AND 12/31, THIS BOX MAY BE COLLECTED AS EARLY AS 12 NOON.", "nsi_id": "unitedstatespostalservice-a77078", "operator": "United States Postal Service", "operator:short": "USPS", "operator:type": "public", "operator:wikidata": "Q668687", "ref": "7741400026"}, "type": "Feature"}
{"geometry": {"coordinates": [-95.969223, 28.964265], "type": "Point"}, "id": "AWqFs_gy1H1Nq5ryfz2lJKp_oJM=", "properties": {"@source_uri": "https://tools.usps.com/UspsToolsRestServices/rest/POLocator/findLocations", "@spider": "usps_collection_boxes", "addr:city": "BAY CITY", "addr:country": "US", "addr:postcode": "77414", "addr:state": "TX", "addr:street_address": "1309 BAYWOOD DR", "amenity": "post_box", "collection_times": "Mo-Fr 16:45; Sa 15:30", "indoor": "yes", "note": "ON 12/24 AND 12/31, THIS BOX MAY BE COLLECTED AS EARLY AS 12 NOON.", "nsi_id": "unitedstatespostalservice-a77078", "operator": "United States Postal Service", "operator:short": "USPS", "operator:type": "public", "operator:wikidata": "Q668687", "ref": "7741400029"}, "type": "Feature"}
{"geometry": {"coordinates": [-95.9706649, 28.982582], "type": "Point"}, "id": "iaVGZiGwRpxcwPVoZ3yqBW19H_4=", "properties": {"@source_uri": "https://tools.usps.com/UspsToolsRestServices/rest/POLocator/findLocations", "@spider": "usps_collection_boxes", "addr:city": "BAY CITY", "addr:country": "US", "addr:postcode": "77414", "addr:state": "TX", "addr:street_address": "2100 AVENUE F", "amenity": "post_box", "collection_times": "Mo-Fr 14:00", "note": "ON 12/24 AND 12/31, THIS BOX MAY BE COLLECTED AS EARLY AS 12 NOON.", "nsi_id": "unitedstatespostalservice-a77078", "operator": "United States Postal Service", "operator:short": "USPS", "operator:type": "public", "operator:wikidata": "Q668687", "ref": "7741400030"}, "type": "Feature"}
{"geometry": {"coordinates": [-95.969223, 28.964265], "type": "Point"}, "id": "ukukWD5OL6vaNnbL8-pmn10RI-A=", "properties": {"@source_uri": "https://tools.usps.com/UspsToolsRestServices/rest/POLocator/findLocations", "@spider": "usps_collection_boxes", "addr:city": "BAY CITY", "addr:country": "US", "addr:postcode": "77414", "addr:state": "TX", "addr:street_address": "1309 BAYWOOD DR", "amenity": "post_box", "collection_times": "Mo-Fr 16:45; Sa 15:30", "indoor": "yes", "note": "ON 12/24 AND 12/31, THIS BOX MAY BE COLLECTED AS EARLY AS 12 NOON.", "nsi_id": "unitedstatespostalservice-a77078", "operator": "United States Postal Service", "operator:short": "USPS", "operator:type": "public", "operator:wikidata": "Q668687", "ref": "7741400031"}, "type": "Feature"}
{"geometry": {"coordinates": [-95.973839535, 28.964189362], "type": "Point"}, "id": "qmaJIKhxkUA2vevS_Q4jPBhaW2o=", "properties": {"@source_uri": "https://tools.usps.com/UspsToolsRestServices/rest/POLocator/findLocations", "@spider": "usps_collection_boxes", "addr:city": "BAY CITY", "addr:country": "US", "addr:postcode": "77414", "addr:state": "TX", "addr:street_address": "1309 BAYWOOD DR", "amenity": "post_box", "collection_times": "Mo-Fr 17:00; Sa 12:00", "indoor": "yes", "note": "ON 12/24 AND 12/31, THIS BOX MAY BE COLLECTED AS EARLY AS 12 NOON.", "nsi_id": "unitedstatespostalservice-a77078", "operator": "United States Postal Service", "operator:short": "USPS", "operator:type": "public", "operator:wikidata": "Q668687", "ref": "7741400033"}, "type": "Feature"}
{"geometry": {"coordinates": [-95.732729, 28.936842], "type": "Point"}, "id": "61RgHMmWMARI30xmHmhQLzKoVro=", "properties": {"@source_uri": "https://tools.usps.com/UspsToolsRestServices/rest/POLocator/findLocations", "@spider": "usps_collection_boxes", "addr:city": "CEDAR LANE", "addr:country": "US", "addr:postcode": "77415", "addr:state": "TX", "addr:street_address": "13412 FM 457", "amenity": "post_box", "collection_times": "Mo-Fr 14:15; Sa 11:30", "indoor": "yes", "note": "ON 12/24 AND 12/31, THIS BOX MAY BE COLLECTED AS EARLY AS 12 NOON.", "nsi_id": "unitedstatespostalservice-a77078", "operator": "United States Postal Service", "operator:short": "USPS", "operator:type": "public", "operator:wikidata": "Q668687", "ref": "7741500001"}, "type": "Feature"}
{"geometry": {"coordinates": [-95.728442306, 28.934840496], "type": "Point"}, "id": "rLr1k_EKwwQqESTjPAPIN6qkeT0=", "properties": {"@source_uri": "https://tools.usps.com/UspsToolsRestServices/rest/POLocator/findLocations", "@spider": "usps_collection_boxes", "addr:city": "CEDAR LANE", "addr:country": "US", "addr:postcode": "77415", "addr:state": "TX", "addr:street_address": "13412 FM 457", "amenity": "post_box", "collection_times": "Mo-Fr 14:30; Sa 11:30", "indoor": "yes", "note": "ON 12/24 AND 12/31, THIS BOX MAY BE COLLECTED AS EARLY AS 12 NOON.", "nsi_id": "unitedstatespostalservice-a77078", "operator": "United States Postal Service", "operator:short": "USPS", "operator:type": "public", "operator:wikidata": "Q668687", "ref": "7741500002"}, "type": "Feature"}
{"geometry": {"coordinates": [-95.9150259643, 29.4988819954], "type": "Point"}, "id": "RTgifSaPTxad6CZhWkYYfUEIUXY=", "properties": {"@source_uri": "https://tools.usps.com/UspsToolsRestServices/rest/POLocator/findLocations", "@spider": "usps_collection_boxes", "addr:city": "BEASLEY", "addr:country": "US", "addr:postcode": "77417", "addr:state": "TX", "addr:street_address": "7031 LOOP 540", "amenity": "post_box", "collection_times": "Mo-Fr 11:45; Sa 10:45", "nsi_id": "unitedstatespostalservice-a77078", "operator": "United States Postal Service", "operator:short": "USPS", "operator:type": "public", "operator:wikidata": "Q668687", "ref": "7741700076"}, "type": "Feature"}
{"geometry": {"coordinates": [-95.914714, 29.499402], "type": "Point"}, "id": "BUV_dAhhRRDp5p78t1ZXGYOXLNE=", "properties": {"@source_uri": "https://tools.usps.com/UspsToolsRestServices/rest/POLocator/findLocations", "@spider": "usps_collection_boxes", "addr:city": "BEASLEY", "addr:country": "US", "addr:postcode": "77417", "addr:state": "TX", "addr:street_address": "7031 LOOP 540", "amenity": "post_box", "collection_times": "Mo-Fr 11:45; Sa 10:45", "indoor": "yes", "nsi_id": "unitedstatespostalservice-a77078", "operator": "United States Postal Service", "operator:short": "USPS", "operator:type": "public", "operator:wikidata": "Q668687", "ref": "7741700078"}, "type": "Feature"}
{"geometry": {"coordinates": [-95.9152176635, 29.4990797063], "type": "Point"}, "id": "5fQEddDmnLYsLrWdHnT4mJuRqYU=", "properties": {"@source_uri": "https://tools.usps.com/UspsToolsRestServices/rest/POLocator/findLocations", "@spider": "usps_collection_boxes", "addr:city": "BEASLEY", "addr:country": "US", "addr:postcode": "77417", "addr:state": "TX", "addr:street_address": "7031 LOOP 540", "amenity": "post_box", "collection_times": "Mo-Fr 12:00; Sa 11:00", "indoor": "yes", "nsi_id": "unitedstatespostalservice-a77078", "operator": "United States Postal Service", "operator:short": "USPS", "operator:type": "public", "operator:wikidata": "Q668687", "ref": "7741700080"}, "type": "Feature"}
{"geometry": {"coordinates": [-96.255272, 29.950814], "type": "Point"}, "id": "psp09f06zNnfu6T337U-x42ImKI=", "properties": {"@source_uri": "https://tools.usps.com/UspsToolsRestServices/rest/POLocator/findLocations", "@spider": "usps_collection_boxes", "addr:city": "BELLVILLE", "addr:country": "US", "addr:postcode": "77418", "addr:state": "TX", "addr:street_address": "229 E PALM ST", "amenity": "post_box", "collection_times": "Mo-Sa 15:15", "note": "ON 12/24 AND 12/31, THIS BOX MAY BE COLLECTED AS EARLY AS 12 NOON.", "nsi_id": "unitedstatespostalservice-a77078", "operator": "United States Postal Service", "operator:short": "USPS", "operator:type": "public", "operator:wikidata": "Q668687", "ref": "7741800002"}, "type": "Feature"}
{"geometry": {"coordinates": [-96.255272, 29.950814], "type": "Point"}, "id": "u3x5FUWFNcJ_3uH51VwkIX2Kq9k=", "properties": {"@source_uri": "https://tools.usps.com/UspsToolsRestServices/rest/POLocator/findLocations", "@spider": "usps_collection_boxes", "addr:city": "BELLVILLE", "addr:country": "US", "addr:postcode": "77418", "addr:state": "TX", "addr:street_address": "229 E PALM ST", "amenity": "post_box", "collection_times": "Mo-Sa 15:15", "indoor": "yes", "note": "ON 12/24 AND 12/31, THIS BOX MAY BE COLLECTED AS EARLY AS 12 NOON.", "nsi_id": "unitedstatespostalservice-a77078", "operator": "United States Postal Service", "operator:short": "USPS", "operator:type": "public", "operator:wikidata": "Q668687", "ref": "7741800003"}, "type": "Feature"}
{"geometry": {"coordinates": [-96.255251522, 29.950832946], "type": "Point"}, "id": "lOzDCKAaUEFysAVmGmuov9ECtk4=", "properties": {"@source_uri": "https://tools.usps.com/UspsToolsRestServices/rest/POLocator/findLocations", "@spider": "usps_collection_boxes", "addr:city": "BELLVILLE", "addr:country": "US", "addr:postcode": "77418", "addr:state": "TX", "addr:street_address": "229 E PALM ST", "amenity": "post_box", "collection_times": "Mo-Fr 16:30; Sa 11:30", "indoor": "yes", "note": "ON 12/24 AND 12/31, THIS BOX MAY BE COLLECTED AS EARLY AS 12 NOON.", "nsi_id": "unitedstatespostalservice-a77078", "operator": "United States Postal Service", "operator:short": "USPS", "operator:type": "public", "operator:wikidata": "Q668687", "ref": "7741800005"}, "type": "Feature"}
{"geometry": {"coordinates": [-96.221543, 28.871812], "type": "Point"}, "id": "GusrELULNDKeEkiJfMveZpArqeE=", "properties": {"@source_uri": "https://tools.usps.com/UspsToolsRestServices/rest/POLocator/findLocations", "@spider": "usps_collection_boxes", "addr:city": "BLESSING", "addr:country": "US", "addr:postcode": "77419", "addr:state": "TX", "addr:street_address": "800 FM 616 W", "amenity": "post_box", "collection_times": "Mo-Fr 16:30; Sa 12:00", "indoor": "yes", "note": "ON 12/24 AND 12/31, THIS BOX MAY BE COLLECTED AS EARLY AS 12 NOON.", "nsi_id": "unitedstatespostalservice-a77078", "operator": "United States Postal Service", "operator:short": "USPS", "operator:type": "public", "operator:wikidata": "Q668687", "ref": "7741900002"}, "type": "Feature"}
{"geometry": {"coordinates": [-96.22144, 28.871784], "type": "Point"}, "id": "VcqMAgOWkvn__aEQcpROP1N2E5I=", "properties": {"@source_uri": "https://tools.usps.com/UspsToolsRestServices/rest/POLocator/findLocations", "@spider": "usps_collection_boxes", "addr:city": "BLESSING", "addr:country": "US", "addr:postcode": "77419", "addr:state": "TX", "addr:street_address": "800 FM 616 W", "amenity": "post_box", "collection_times": "Mo-Fr 16:30; Sa 12:00", "note": "ON 12/24 AND 12/31, THIS BOX MAY BE COLLECTED AS EARLY AS 12 NOON.", "nsi_id": "unitedstatespostalservice-a77078", "operator": "United States Postal Service", "operator:short": "USPS", "operator:type": "public", "operator:wikidata": "Q668687", "ref": "7741900003"}, "type": "Feature"}
{"geometry": {"coordinates": [-96.2217524826, 28.8718433963], "type": "Point"}, "id": "Fn1lPrJQ8gUzXDVAYDG_mwfrvtg=", "properties": {"@source_uri": "https://tools.usps.com/UspsToolsRestServices/rest/POLocator/findLocations", "@spider": "usps_collection_boxes", "addr:city": "BLESSING", "addr:country": "US", "addr:postcode": "77419", "addr:state": "TX", "addr:street_address": "800 FM 616 W", "amenity": "post_box", "collection_times": "Mo-Fr 16:30; Sa 12:00", "indoor": "yes", "note": "ON 12/24 AND 12/31, THIS BOX MAY BE COLLECTED AS EARLY AS 12 NOON.", "nsi_id": "unitedstatespostalservice-a77078", "operator": "United States Postal Service", "operator:short": "USPS", "operator:type": "public", "operator:wikidata": "Q668687", "ref": "7741900005"}, "type": "Feature"}
{"geometry": {"coordinates": [-95.942475, 29.26144], "type": "Point"}, "id": "ra5aWjw1XU69X5_2Db6v4LBNrCc=", "properties": {"@source_uri": "https://tools.usps.com/UspsToolsRestServices/rest/POLocator/findLocations", "@spider": "usps_collection_boxes", "addr:city": "BOLING", "addr:country": "US", "addr:postcode": "77420", "addr:state": "TX", "addr:street_address": "7031 FM 442 RD", "amenity": "post_box", "collection_times": "Mo-Fr 16:15; Sa 11:00", "note": "ON 12/24 AND 12/31, THIS BOX MAY BE COLLECTED AS EARLY AS 12 NOON.", "nsi_id": "unitedstatespostalservice-a77078", "operator": "United States Postal Service", "operator:short": "USPS", "operator:type": "public", "operator:wikidata": "Q668687", "ref": "7742000000"}, "type": "Feature"}
{"geometry": {"coordinates": [-95.9450691, 29.264062], "type": "Point"}, "id": "eWzU8Kl6avRCF9FwA7etqnK-6kQ=", "properties": {"@source_uri": "https://tools.usps.com/UspsToolsRestServices/rest/POLocator/findLocations", "@spider": "usps_collection_boxes", "addr:city": "BOLING", "addr:country": "US", "addr:postcode": "77420", "addr:state": "TX", "addr:street_address": "7031 FM 442 RD", "amenity": "post_box", "collection_times": "Mo-Fr 16:15; Sa 11:00", "indoor": "yes", "note": "ON 12/24 AND 12/31, THIS BOX MAY BE COLLECTED AS EARLY AS 12 NOON.", "nsi_id": "unitedstatespostalservice-a77078", "operator": "United States Postal Service", "operator:short": "USPS", "operator:type": "public", "operator:wikidata": "Q668687", "ref": "7742000001"}, "type": "Feature"}
{"geometry": {"coordinates": [-95.9446105917, 29.2640180124], "type": "Point"}, "id": "8D4i2H4Mgv338P4XWsI6t6Lwg8s=", "properties": {"@source_uri": "https://tools.usps.com/UspsToolsRestServices/rest/POLocator/findLocations", "@spider": "usps_collection_boxes", "addr:city": "BOLING", "addr:country": "US", "addr:postcode": "77420", "addr:state": "TX", "addr:street_address": "7031 FM 442 RD", "amenity": "post_box", "collection_times": "Mo-Fr 16:15; Sa 11:00", "indoor": "yes", "note": "ON 12/24 AND 12/31, THIS BOX MAY BE COLLECTED AS EARLY AS 12 NOON.", "nsi_id": "unitedstatespostalservice-a77078", "operator": "United States Postal Service", "operator:short": "USPS", "operator:type": "public", "operator:wikidata": "Q668687", "ref": "7742000003"}, "type": "Feature"}
{"geometry": {"coordinates": [-95.569921, 29.051581], "type": "Point"}, "id": "wbrYsEq45RWirhAu5UFQsxotD_E=", "properties": {"@source_uri": "https://tools.usps.com/UspsToolsRestServices/rest/POLocator/findLocations", "@spider": "usps_collection_boxes", "addr:city": "BRAZORIA", "addr:country": "US", "addr:postcode": "77422", "addr:state": "TX", "addr:street_address": "111 GAINES ST", "amenity": "post_box", "collection_times": "Mo-Fr 16:15; Sa 12:30", "note": "ON 12/24 AND 12/31, THIS BOX MAY BE COLLECTED AS EARLY AS 12 NOON.", "nsi_id": "unitedstatespostalservice-a77078", "operator": "United States Postal Service", "operator:short": "USPS", "operator:type": "public", "operator:wikidata": "Q668687", "ref": "7742200000"}, "type": "Feature"}
{"geometry": {"coordinates": [-95.569921, 29.051581], "type": "Point"}, "id": "a0QBCMn3Xd_M8_f2SJdp-lA_wl0=", "properties": {"@source_uri": "https://tools.usps.com/UspsToolsRestServices/rest/POLocator/findLocations", "@spider": "usps_collection_boxes", "addr:city": "BRAZORIA", "addr:country": "US", "addr:postcode": "77422", "addr:state": "TX", "addr:street_address": "111 GAINES ST", "amenity": "post_box", "collection_times": "Mo-Fr 16:15; Sa 12:30", "indoor": "yes", "note": "ON 12/24 AND 12/31, THIS BOX MAY BE COLLECTED AS EARLY AS 12 NOON.", "nsi_id": "unitedstatespostalservice-a77078", "operator": "United States Postal Service", "operator:short": "USPS", "operator:type": "public", "operator:wikidata": "Q668687", "ref": "7742200003"}, "type": "Feature"}
{"geometry": {"coordinates": [-95.569921, 29.051581], "type": "Point"}, "id": "P-aRxugtXdBF3ogykKlKTw60dOg=", "properties": {"@source_uri": "https://tools.usps.com/UspsToolsRestServices/rest/POLocator/findLocations", "@spider": "usps_collection_boxes", "addr:city": "BRAZORIA", "addr:country": "US", "addr:postcode": "77422", "addr:state": "TX", "addr:street_address": "111 GAINES ST", "amenity": "post_box", "collection_times": "Mo-Fr 16:15; Sa 12:30", "indoor": "yes", "note": "ON 12/24 AND 12/31, THIS BOX MAY BE COLLECTED AS EARLY AS 12 NOON.", "nsi_id": "unitedstatespostalservice-a77078", "operator": "United States Postal Service", "operator:short": "USPS", "operator:type": "public", "operator:wikidata": "Q668687", "ref": "7742200004"}, "type": "Feature"}
{"geometry": {"coordinates": [-95.569602341, 29.051867313], "type": "Point"}, "id": "ZDA_80PL_CO-7LGqEISguSL4QCw=", "properties": {"@source_uri": "https://tools.usps.com/UspsToolsRestServices/rest/POLocator/findLocations", "@spider": "usps_collection_boxes", "addr:city": "BRAZORIA", "addr:country": "US", "addr:postcode": "77422", "addr:state": "TX", "addr:street_address": "111 GAINES ST", "amenity": "post_box", "collection_times": "Mo-Fr 16:30; Sa 12:00", "indoor": "yes", "note": "ON 12/24 AND 12/31, THIS BOX MAY BE COLLECTED AS EARLY AS 12 NOON.", "nsi_id": "unitedstatespostalservice-a77078", "operator": "United States Postal Service", "operator:short": "USPS", "operator:type": "public", "operator:wikidata": "Q668687", "ref": "7742200007"}, "type": "Feature"}
{"geometry": {"coordinates": [-95.953905, 29.785237], "type": "Point"}, "id": "OJY-ikWaA8LUQhBAud6l49RSdS0=", "properties": {"@source_uri": "https://tools.usps.com/UspsToolsRestServices/rest/POLocator/findLocations", "@spider": "usps_collection_boxes", "addr:city": "BROOKSHIRE", "addr:country": "US", "addr:postcode": "77423", "addr:state": "TX", "addr:street_address": "4115 5TH ST", "amenity": "post_box", "collection_times": "Mo-Fr 16:30; Sa 12:30", "indoor": "yes", "note": "ON 12/24 AND 12/31, THIS BOX MAY BE COLLECTED AS EARLY AS 12 NOON.", "nsi_id": "unitedstatespostalservice-a77078", "operator": "United States Postal Service", "operator:short": "USPS", "operator:type": "public", "operator:wikidata": "Q668687", "ref": "7742300006"}, "type": "Feature"}
{"geometry": {"coordinates": [-95.953905, 29.785237], "type": "Point"}, "id": "cfajnlwIlpOffKkOXbTduA5LyRo=", "properties": {"@source_uri": "https://tools.usps.com/UspsToolsRestServices/rest/POLocator/findLocations", "@spider": "usps_collection_boxes", "addr:city": "BROOKSHIRE", "addr:country": "US", "addr:postcode": "77423", "addr:state": "TX", "addr:street_address": "4115 5TH ST", "amenity": "post_box", "collection_times": "Mo-Fr 16:30; Sa 12:30", "indoor": "yes", "note": "ON 12/24 AND 12/31, THIS BOX MAY BE COLLECTED AS EARLY AS 12 NOON.", "nsi_id": "unitedstatespostalservice-a77078", "operator": "United States Postal Service", "operator:short": "USPS", "operator:type": "public", "operator:wikidata": "Q668687", "ref": "7742300007"}, "type": "Feature"}
{"geometry": {"coordinates": [-95.953881839, 29.785192751], "type": "Point"}, "id": "dD1DmH4tqvOaQSHERPEKuYVDR4o=", "properties": {"@source_uri": "https://tools.usps.com/UspsToolsRestServices/rest/POLocator/findLocations", "@spider": "usps_collection_boxes", "addr:city": "BROOKSHIRE", "addr:country": "US", "addr:postcode": "77423", "addr:state": "TX", "addr:street_address": "4115 5TH ST", "amenity": "post_box", "collection_times": "Mo-Fr 16:30", "indoor": "yes", "note": "ON 12/24 AND 12/31, THIS BOX MAY BE COLLECTED AS EARLY AS 12 NOON.", "nsi_id": "unitedstatespostalservice-a77078", "operator": "United States Postal Service", "operator:short": "USPS", "operator:type": "public", "operator:wikidata": "Q668687", "ref": "7742300009"}, "type": "Feature"}
{"geometry": {"coordinates": [-96.257199, 30.141577], "type": "Point"}, "id": "33myofpzeAYB2Xqe7Ap8AFS_ElM=", "properties": {"@source_uri": "https://tools.usps.com/UspsToolsRestServices/rest/POLocator/findLocations", "@spider": "usps_collection_boxes", "addr:city": "CHAPPELL HILL", "addr:country": "US", "addr:postcode": "77426", "addr:state": "TX", "addr:street_address": "5110 MAIN ST", "amenity": "post_box", "collection_times": "Mo-Fr 16:00; Sa 12:00", "note": "ON 12/24 AND 12/31, THIS BOX MAY BE COLLECTED AS EARLY AS 12 NOON.", "nsi_id": "unitedstatespostalservice-a77078", "operator": "United States Postal Service", "operator:short": "USPS", "operator:type": "public", "operator:wikidata": "Q668687", "ref": "7742600000"}, "type": "Feature"}
{"geometry": {"coordinates": [-96.257199, 30.141577], "type": "Point"}, "id": "h5lre0Wzk-_o0e9AlKyzS1LJAyQ=", "properties": {"@source_uri": "https://tools.usps.com/UspsToolsRestServices/rest/POLocator/findLocations", "@spider": "usps_collection_boxes", "addr:city": "CHAPPELL HILL", "addr:country": "US", "addr:postcode": "77426", "addr:state": "TX", "addr:street_address": "5110 MAIN ST", "amenity": "post_box", "collection_times": "Mo-Fr 16:00; Sa 12:00", "indoor": "yes", "note": "ON 12/24 AND 12/31, THIS BOX MAY BE COLLECTED AS EARLY AS 12 NOON.", "nsi_id": "unitedstatespostalservice-a77078", "operator": "United States Postal Service", "operator:short": "USPS", "operator:type": "public", "operator:wikidata": "Q668687", "ref": "7742600003"}, "type": "Feature"}
{"geometry": {"coordinates": [-96.257205246, 30.141162], "type": "Point"}, "id": "sU5BWWSIbPpufqDi2jSJb8Wfh2c=", "properties": {"@source_uri": "https://tools.usps.com/UspsToolsRestServices/rest/POLocator/findLocations", "@spider": "usps_collection_boxes", "addr:city": "CHAPPELL HILL", "addr:country": "US", "addr:postcode": "77426", "addr:state": "TX", "addr:street_address": "5110 MAIN ST", "amenity": "post_box", "collection_times": "Mo-Fr 16:00; Sa 11:30", "indoor": "yes", "note": "ON 12/24 AND 12/31, THIS BOX MAY BE COLLECTED AS EARLY AS 12 NOON.", "nsi_id": "unitedstatespostalservice-a77078", "operator": "United States Postal Service", "operator:short": "USPS", "operator:type": "public", "operator:wikidata": "Q668687", "ref": "7742600004"}, "type": "Feature"}
{"geometry": {"coordinates": [-96.17812502, 28.724886998], "type": "Point"}, "id": "jL_W5YqODZGOq29aFSH0wOjwrMk=", "properties": {"@source_uri": "https://tools.usps.com/UspsToolsRestServices/rest/POLocator/findLocations", "@spider": "usps_collection_boxes", "addr:city": "COLLEGEPORT", "addr:country": "US", "addr:postcode": "77428", "addr:state": "TX", "addr:street_address": "15235 FM 1095", "amenity": "post_box", "collection_times": "Mo-Fr 10:45; Sa 09:15", "nsi_id": "unitedstatespostalservice-a77078", "operator": "United States Postal Service", "operator:short": "USPS", "operator:type": "public", "operator:wikidata": "Q668687", "ref": "7742800000"}, "type": "Feature"}
{"geometry": {"coordinates": [-96.184148, 28.724902], "type": "Point"}, "id": "M3q6PIzUvD5aUk6f4Abx4djEbHw=", "properties": {"@source_uri": "https://tools.usps.com/UspsToolsRestServices/rest/POLocator/findLocations", "@spider": "usps_collection_boxes", "addr:city": "COLLEGEPORT", "addr:country": "US", "addr:postcode": "77428", "addr:state": "TX", "addr:street_address": "15235 FM 1095", "amenity": "post_box", "collection_times": "Mo-Fr 10:45; Sa 09:15", "indoor": "yes", "nsi_id": "unitedstatespostalservice-a77078", "operator": "United States Postal Service", "operator:short": "USPS", "operator:type": "public", "operator:wikidata": "Q668687", "ref": "7742800001"}, "type": "Feature"}
{"geometry": {"coordinates": [-96.178178566, 28.725048808], "type": "Point"}, "id": "VIitehOttbt_WRSzUYHDZaIsRPk=", "properties": {"@source_uri": "https://tools.usps.com/UspsToolsRestServices/rest/POLocator/findLocations", "@spider": "usps_collection_boxes", "addr:city": "COLLEGEPORT", "addr:country": "US", "addr:postcode": "77428", "addr:state": "TX", "addr:street_address": "15235 FM 1095", "amenity": "post_box", "collection_times": "Mo-Fr 11:00; Sa 09:30", "indoor": "yes", "nsi_id": "unitedstatespostalservice-a77078", "operator": "United States Postal Service", "operator:short": "USPS", "operator:type": "public", "operator:wikidata": "Q668687", "ref": "7742800003"}, "type": "Feature"}
{"geometry": {"coordinates": [-95.680301, 29.975173], "type": "Point"}, "id": "Tq-BmI8c9tmMTPlJabzWzMn91rQ=", "properties": {"@source_uri": "https://tools.usps.com/UspsToolsRestServices/rest/POLocator/findLocations", "@spider": "usps_collection_boxes", "addr:city": "CYPRESS", "addr:country": "US", "addr:postcode": "77429", "addr:state": "TX", "addr:street_address": "16635 SPRING CYPRESS RD", "amenity": "post_box", "collection_times": "Mo-Sa 17:00", "indoor": "yes", "note": "ON 12/24 AND 12/31, THIS BOX MAY BE COLLECTED AS EARLY AS 12 NOON.", "nsi_id": "unitedstatespostalservice-a77078", "operator": "United States Postal Service", "operator:short": "USPS", "operator:type": "public", "operator:wikidata": "Q668687", "ref": "7742900000"}, "type": "Feature"}
{"geometry": {"coordinates": [-95.6522737, 29.9814645], "type": "Point"}, "id": "KJ6Px3kXy1Ah1bLz4Tza_JBeNOk=", "properties": {"@source_uri": "https://tools.usps.com/UspsToolsRestServices/rest/POLocator/findLocations", "@spider": "usps_collection_boxes", "addr:city": "CYPRESS", "addr:country": "US", "addr:postcode": "77429", "addr:state": "TX", "addr:street_address": "18427 AUBURN WOODS DR", "amenity": "post_box", "collection_times": "Mo-Fr 13:45", "note": "ON 12/24 AND 12/31, THIS BOX MAY BE COLLECTED AS EARLY AS 12 NOON.", "nsi_id": "unitedstatespostalservice-a77078", "operator": "United States Postal Service", "operator:short": "USPS", "operator:type": "public", "operator:wikidata": "Q668687", "ref": "7742900005"}, "type": "Feature"}
{"geometry": {"coordinates": [-95.5946147, 29.952578], "type": "Point"}, "id": "UkFTyYuwTbLqVJUJPKPLLRQaxHw=", "properties": {"@source_uri": "https://tools.usps.com/UspsToolsRestServices/rest/POLocator/findLocations", "@spider": "usps_collection_boxes", "addr:city": "CYPRESS", "addr:country": "US", "addr:postcode": "77429", "addr:state": "TX", "addr:street_address": "11600 CYPRESS NORTH HOUSTON RD", "amenity": "post_box", "collection_times": "Mo-Fr 13:00", "note": "ON 12/24 AND 12/31, THIS BOX MAY BE COLLECTED AS EARLY AS 12 NOON.", "nsi_id": "unitedstatespostalservice-a77078", "operator": "United States Postal Service", "operator:short": "USPS", "operator:type": "public", "operator:wikidata": "Q668687", "ref": "7742900006"}, "type": "Feature"}
{"geometry": {"coordinates": [-95.6060166, 29.997144], "type": "Point"}, "id": "8TDlt0HLELTPOSRP0VFzmIn-zNQ=", "properties": {"@source_uri": "https://tools.usps.com/UspsToolsRestServices/rest/POLocator/findLocations", "@spider": "usps_collection_boxes", "addr:city": "CYPRESS", "addr:country": "US", "addr:postcode": "77429", "addr:state": "TX", "addr:street_address": "12123 HEATHERWICK DR", "amenity": "post_box", "collection_times": "Mo-Fr 13:15", "note": "ON 12/24 AND 12/31, THIS BOX MAY BE COLLECTED AS EARLY AS 12 NOON.", "nsi_id": "unitedstatespostalservice-a77078", "operator": "United States Postal Service", "operator:short": "USPS", "operator:type": "public", "operator:wikidata": "Q668687", "ref": "7742900015"}, "type": "Feature"}
{"geometry": {"coordinates": [-95.6293489, 29.94656], "type": "Point"}, "id": "qgUQy0beIETw6aTp_cQmMjomyWs=", "properties": {"@source_uri": "https://tools.usps.com/UspsToolsRestServices/rest/POLocator/findLocations", "@spider": "usps_collection_boxes", "addr:city": "CYPRESS", "addr:country": "US", "addr:postcode": "77429", "addr:state": "TX", "addr:street_address": "13811 CYPRESS NORTH HOUSTON RD", "amenity": "post_box", "collection_times": "Mo-Sa 14:15", "note": "ON 12/24 AND 12/31, THIS BOX MAY BE COLLECTED AS EARLY AS 12 NOON.", "nsi_id": "unitedstatespostalservice-a77078", "operator": "United States Postal Service", "operator:short": "USPS", "operator:type": "public", "operator:wikidata": "Q668687", "ref": "7742900023"}, "type": "Feature"}
{"geometry": {"coordinates": [-95.680301, 29.975173], "type": "Point"}, "id": "ZgzEHtS_599yNoeEdm5u1ayo3Ew=", "properties": {"@source_uri": "https://tools.usps.com/UspsToolsRestServices/rest/POLocator/findLocations", "@spider": "usps_collection_boxes", "addr:city": "CYPRESS", "addr:country": "US", "addr:postcode": "77429", "addr:state": "TX", "addr:street_address": "16635 SPRING CYPRESS RD", "amenity": "post_box", "collection_times": "Mo-Sa 17:00", "name": "USPS COLLECTION BOX - APC", "note": "ON 12/24 AND 12/31, THIS BOX MAY BE COLLECTED AS EARLY AS 12 NOON.", "nsi_id": "unitedstatespostalservice-a77078", "operator": "United States Postal Service", "operator:short": "USPS", "operator:type": "public", "operator:wikidata": "Q668687", "ref": "7742900028"}, "type": "Feature"}
{"geometry": {"coordinates": [-95.6802841147, 29.9751650818], "type": "Point"}, "id": "vHHYAnTc3286laCzYNK1MFBCD90=", "properties": {"@source_uri": "https://tools.usps.com/UspsToolsRestServices/rest/POLocator/findLocations", "@spider": "usps_collection_boxes", "addr:city": "CYPRESS", "addr:country": "US", "addr:postcode": "77429", "addr:state": "TX", "addr:street_address": "16635 SPRING CYPRESS RD", "amenity": "post_box", "collection_times": "Mo-Fr 17:30; Sa 13:00", "indoor": "yes", "note": "ON 12/24 AND 12/31, THIS BOX MAY BE COLLECTED AS EARLY AS 12 NOON.", "nsi_id": "unitedstatespostalservice-a77078", "operator": "United States Postal Service", "operator:short": "USPS", "operator:type": "public", "operator:wikidata": "Q668687", "ref": "7742900039"}, "type": "Feature"}
{"geometry": {"coordinates": [-95.731125, 29.29355], "type": "Point"}, "id": "_ENTTIA941pUy6BnKiKKsJj28tE=", "properties": {"@source_uri": "https://tools.usps.com/UspsToolsRestServices/rest/POLocator/findLocations", "@spider": "usps_collection_boxes", "addr:city": "DAMON", "addr:country": "US", "addr:postcode": "77430", "addr:state": "TX", "addr:street_address": "502 MULCAHY ST", "amenity": "post_box", "collection_times": "Mo-Fr 16:00; Sa 10:15", "note": "ON 12/24 AND 12/31, THIS BOX MAY BE COLLECTED AS EARLY AS 12 NOON.", "nsi_id": "unitedstatespostalservice-a77078", "operator": "United States Postal Service", "operator:short": "USPS", "operator:type": "public", "operator:wikidata": "Q668687", "ref": "7743000000"}, "type": "Feature"}
{"geometry": {"coordinates": [-95.7349210284, 29.2913454749], "type": "Point"}, "id": "2AoAqBuZgdzEmr3s57x4-XVEwVI=", "properties": {"@source_uri": "https://tools.usps.com/UspsToolsRestServices/rest/POLocator/findLocations", "@spider": "usps_collection_boxes", "addr:city": "DAMON", "addr:country": "US", "addr:postcode": "77430", "addr:state": "TX", "addr:street_address": "502 MULCAHY ST", "amenity": "post_box", "collection_times": "Mo-Fr 16:00; Sa 10:30", "indoor": "yes", "note": "ON 12/24 AND 12/31, THIS BOX MAY BE COLLECTED AS EARLY AS 12 NOON.", "nsi_id": "unitedstatespostalservice-a77078", "operator": "United States Postal Service", "operator:short": "USPS", "operator:type": "public", "operator:wikidata": "Q668687", "ref": "7743000001"}, "type": "Feature"}
{"geometry": {"coordinates": [-95.734921028, 29.291345475], "type": "Point"}, "id": "APBYAU6nzcdPq9x4r6CItbYSq60=", "properties": {"@source_uri": "https://tools.usps.com/UspsToolsRestServices/rest/POLocator/findLocations", "@spider": "usps_collection_boxes", "addr:city": "DAMON", "addr:country": "US", "addr:postcode": "77430", "addr:state": "TX", "addr:street_address": "502 MULCAHY ST", "amenity": "post_box", "collection_times": "Mo-Fr 16:00; Sa 10:30", "indoor": "yes", "note": "ON 12/24 AND 12/31, THIS BOX MAY BE COLLECTED AS EARLY AS 12 NOON.", "nsi_id": "unitedstatespostalservice-a77078", "operator": "United States Postal Service", "operator:short": "USPS", "operator:type": "public", "operator:wikidata": "Q668687", "ref": "7743000002"}, "type": "Feature"}
{"geometry": {"coordinates": [-96.20823, 29.0573], "type": "Point"}, "id": "JFuyr2wPGPE7QnZ2XSEYwo8s6_4=", "properties": {"@source_uri": "https://tools.usps.com/UspsToolsRestServices/rest/POLocator/findLocations", "@spider": "usps_collection_boxes", "addr:city": "DANEVANG", "addr:country": "US", "addr:postcode": "77432", "addr:state": "TX", "addr:street_address": "11294 S STATE HIGHWAY 71", "amenity": "post_box", "collection_times": "Mo-Fr 11:45; Sa 11:00", "nsi_id": "unitedstatespostalservice-a77078", "operator": "United States Postal Service", "operator:short": "USPS", "operator:type": "public", "operator:wikidata": "Q668687", "ref": "7743200000"}, "type": "Feature"}
{"geometry": {"coordinates": [-96.2082955121, 29.0573527093], "type": "Point"}, "id": "wSPIPv5twKggftH-FCEZWeHNlvs=", "properties": {"@source_uri": "https://tools.usps.com/UspsToolsRestServices/rest/POLocator/findLocations", "@spider": "usps_collection_boxes", "addr:city": "DANEVANG", "addr:country": "US", "addr:postcode": "77432", "addr:state": "TX", "addr:street_address": "11294 S STATE HIGHWAY 71", "amenity": "post_box", "collection_times": "Mo-Fr 11:45; Sa 11:00", "indoor": "yes", "nsi_id": "unitedstatespostalservice-a77078", "operator": "United States Postal Service", "operator:short": "USPS", "operator:type": "public", "operator:wikidata": "Q668687", "ref": "7743200002"}, "type": "Feature"}
{"geometry": {"coordinates": [-96.20823, 29.0573], "type": "Point"}, "id": "1pLMZusRNRBiKt-1nktvl7HxsKo=", "properties": {"@source_uri": "https://tools.usps.com/UspsToolsRestServices/rest/POLocator/findLocations", "@spider": "usps_collection_boxes", "addr:city": "DANEVANG", "addr:country": "US", "addr:postcode": "77432", "addr:state": "TX", "addr:street_address": "11294 S STATE HIGHWAY 71", "amenity": "post_box", "collection_times": "Mo-Fr 12:00", "indoor": "yes", "nsi_id": "unitedstatespostalservice-a77078", "operator": "United States Postal Service", "operator:short": "USPS", "operator:type": "public", "operator:wikidata": "Q668687", "ref": "7743200004"}, "type": "Feature"}
{"geometry": {"coordinates": [-96.334339, 29.58878], "type": "Point"}, "id": "qgjmbFYYce7j8sg252yvkxH-Npo=", "properties": {"@source_uri": "https://tools.usps.com/UspsToolsRestServices/rest/POLocator/findLocations", "@spider": "usps_collection_boxes", "addr:city": "EAGLE LAKE", "addr:country": "US", "addr:postcode": "77434", "addr:state": "TX", "addr:street_address": "100 E MAIN ST", "amenity": "post_box", "collection_times": "Mo-Fr 16:15; Sa 15:15", "note": "ON 12/24 AND 12/31, THIS BOX MAY BE COLLECTED AS EARLY AS 12 NOON.", "nsi_id": "unitedstatespostalservice-a77078", "operator": "United States Postal Service", "operator:short": "USPS", "operator:type": "public", "operator:wikidata": "Q668687", "ref": "7743400000"}, "type": "Feature"}
{"geometry": {"coordinates": [-96.334339, 29.58878], "type": "Point"}, "id": "nTDzSc6fipl_cMg9fZ7mEL7BF-w=", "properties": {"@source_uri": "https://tools.usps.com/UspsToolsRestServices/rest/POLocator/findLocations", "@spider": "usps_collection_boxes", "addr:city": "EAGLE LAKE", "addr:country": "US", "addr:postcode": "77434", "addr:state": "TX", "addr:street_address": "100 E MAIN ST", "amenity": "post_box", "collection_times": "Mo-Fr 16:15; Sa 15:15", "indoor": "yes", "note": "ON 12/24 AND 12/31, THIS BOX MAY BE COLLECTED AS EARLY AS 12 NOON.", "nsi_id": "unitedstatespostalservice-a77078", "operator": "United States Postal Service", "operator:short": "USPS", "operator:type": "public", "operator:wikidata": "Q668687", "ref": "7743400002"}, "type": "Feature"}
{"geometry": {"coordinates": [-96.3341311714, 29.5886150974], "type": "Point"}, "id": "-uSgA1EPpBw_YiVKpZW-o2hgVWA=", "properties": {"@source_uri": "https://tools.usps.com/UspsToolsRestServices/rest/POLocator/findLocations", "@spider": "usps_collection_boxes", "addr:city": "EAGLE LAKE", "addr:country": "US", "addr:postcode": "77434", "addr:state": "TX", "addr:street_address": "100 E MAIN ST STE 1", "amenity": "post_box", "collection_times": "Mo-Fr 16:00", "indoor": "yes", "note": "ON 12/24 AND 12/31, THIS BOX MAY BE COLLECTED AS EARLY AS 12 NOON.", "nsi_id": "unitedstatespostalservice-a77078", "operator": "United States Postal Service", "operator:short": "USPS", "operator:type": "public", "operator:wikidata": "Q668687", "ref": "7743400005"}, "type": "Feature"}
{"geometry": {"coordinates": [-96.066997, 29.529499], "type": "Point"}, "id": "Ny6BgBkOZlxnL2rNqk6UzL4sBA0=", "properties": {"@source_uri": "https://tools.usps.com/UspsToolsRestServices/rest/POLocator/findLocations", "@spider": "usps_collection_boxes", "addr:city": "EAST BERNARD", "addr:country": "US", "addr:postcode": "77435", "addr:state": "TX", "addr:street_address": "703 CHURCH ST", "amenity": "post_box", "collection_times": "Mo-Fr 16:00; Sa 11:00", "indoor": "yes", "note": "ON 12/24 AND 12/31, THIS BOX MAY BE COLLECTED AS EARLY AS 12 NOON.", "nsi_id": "unitedstatespostalservice-a77078", "operator": "United States Postal Service", "operator:short": "USPS", "operator:type": "public", "operator:wikidata": "Q668687", "ref": "7743500003"}, "type": "Feature"}
{"geometry": {"coordinates": [-96.067068824, 29.529468283], "type": "Point"}, "id": "Zr5loqEGoaUU2-KQZzxq6BRAxPU=", "properties": {"@source_uri": "https://tools.usps.com/UspsToolsRestServices/rest/POLocator/findLocations", "@spider": "usps_collection_boxes", "addr:city": "EAST BERNARD", "addr:country": "US", "addr:postcode": "77435", "addr:state": "TX", "addr:street_address": "703 CHURCH ST", "amenity": "post_box", "collection_times": "Mo-Fr 16:30; Sa 11:00", "indoor": "yes", "note": "ON 12/24 AND 12/31, THIS BOX MAY BE COLLECTED AS EARLY AS 12 NOON.", "nsi_id": "unitedstatespostalservice-a77078", "operator": "United States Postal Service", "operator:short": "USPS", "operator:type": "public", "operator:wikidata": "Q668687", "ref": "7743500006"}, "type": "Feature"}
{"geometry": {"coordinates": [-96.065135, 29.52817], "type": "Point"}, "id": "CLHcQlHGXYMQmKB_z3x3Af7tytI=", "properties": {"@source_uri": "https://tools.usps.com/UspsToolsRestServices/rest/POLocator/findLocations", "@spider": "usps_collection_boxes", "addr:city": "EAST BERNARD", "addr:country": "US", "addr:postcode": "77435", "addr:state": "TX", "addr:street_address": "703 CHURCH ST", "amenity": "post_box", "collection_times": "Mo-Fr 16:30; Sa 11:00", "note": "ON 12/24 AND 12/31, THIS BOX MAY BE COLLECTED AS EARLY AS 12 NOON.", "nsi_id": "unitedstatespostalservice-a77078", "operator": "United States Postal Service", "operator:short": "USPS", "operator:type": "public", "operator:wikidata": "Q668687", "ref": "7743500007"}, "type": "Feature"}
{"geometry": {"coordinates": [-96.23875, 29.405742], "type": "Point"}, "id": "KCLhY6vcvqThu7SKcrgn_c0y6J0=", "properties": {"@source_uri": "https://tools.usps.com/UspsToolsRestServices/rest/POLocator/findLocations", "@spider": "usps_collection_boxes", "addr:city": "EGYPT", "addr:country": "US", "addr:postcode": "77436", "addr:state": "TX", "addr:street_address": "10718 FM 1161 W", "amenity": "post_box", "collection_times": "Mo-Fr 12:15; Sa 09:30", "note": "ON 12/24 AND 12/31, THIS BOX MAY BE COLLECTED AS EARLY AS 12 NOON.", "nsi_id": "unitedstatespostalservice-a77078", "operator": "United States Postal Service", "operator:short": "USPS", "operator:type": "public", "operator:wikidata": "Q668687", "ref": "7743600000"}, "type": "Feature"}
{"geometry": {"coordinates": [-96.238805, 29.405731], "type": "Point"}, "id": "VQQfaH_vpjuj3fBp878GXEdznHM=", "properties": {"@source_uri": "https://tools.usps.com/UspsToolsRestServices/rest/POLocator/findLocations", "@spider": "usps_collection_boxes", "addr:city": "EGYPT", "addr:country": "US", "addr:postcode": "77436", "addr:state": "TX", "addr:street_address": "10718 FM 1161 W", "amenity": "post_box", "collection_times": "Mo-Fr 12:15; Sa 09:30", "indoor": "yes", "note": "ON 12/24 AND 12/31, THIS BOX MAY BE COLLECTED AS EARLY AS 12 NOON.", "nsi_id": "unitedstatespostalservice-a77078", "operator": "United States Postal Service", "operator:short": "USPS", "operator:type": "public", "operator:wikidata": "Q668687", "ref": "7743600001"}, "type": "Feature"}
{"geometry": {"coordinates": [-96.237702657, 29.405375303], "type": "Point"}, "id": "P1Yja370sLZXV0-Bwe0li81N6EY=", "properties": {"@source_uri": "https://tools.usps.com/UspsToolsRestServices/rest/POLocator/findLocations", "@spider": "usps_collection_boxes", "addr:city": "EGYPT", "addr:country": "US", "addr:postcode": "77436", "addr:state": "TX", "addr:street_address": "10718 FM 1161 W", "amenity": "post_box", "collection_times": "Mo-Fr 12:30; Sa 09:30", "indoor": "yes", "note": "ON 12/24 AND 12/31, THIS BOX MAY BE COLLECTED AS EARLY AS 12 NOON.", "nsi_id": "unitedstatespostalservice-a77078", "operator": "United States Postal Service", "operator:short": "USPS", "operator:type": "public", "operator:wikidata": "Q668687", "ref": "7743600002"}, "type": "Feature"}
{"geometry": {"coordinates": [-96.2672493, 29.198507], "type": "Point"}, "id": "shwbo9sTjH8BiDDXEmZRS9tiSxU=", "properties": {"@source_uri": "https://tools.usps.com/UspsToolsRestServices/rest/POLocator/findLocations", "@spider": "usps_collection_boxes", "addr:city": "EL CAMPO", "addr:country": "US", "addr:postcode": "77437", "addr:state": "TX", "addr:street_address": "315 E JACKSON ST", "amenity": "post_box", "collection_times": "Mo-Fr 15:00", "note": "ON 12/24 AND 12/31, THIS BOX MAY BE COLLECTED AS EARLY AS 12 NOON.", "nsi_id": "unitedstatespostalservice-a77078", "operator": "United States Postal Service", "operator:short": "USPS", "operator:type": "public", "operator:wikidata": "Q668687", "ref": "7743700003"}, "type": "Feature"}
{"geometry": {"coordinates": [-96.2681626, 29.196646], "type": "Point"}, "id": "4psSonwuWYjlCs2MRv_8M9Dr3y0=", "properties": {"@source_uri": "https://tools.usps.com/UspsToolsRestServices/rest/POLocator/findLocations", "@spider": "usps_collection_boxes", "addr:city": "EL CAMPO", "addr:country": "US", "addr:postcode": "77437", "addr:state": "TX", "addr:street_address": "102 N WASHINGTON ST", "amenity": "post_box", "collection_times": "Mo-Fr 15:00", "note": "ON 12/24 AND 12/31, THIS BOX MAY BE COLLECTED AS EARLY AS 12 NOON.", "nsi_id": "unitedstatespostalservice-a77078", "operator": "United States Postal Service", "operator:short": "USPS", "operator:type": "public", "operator:wikidata": "Q668687", "ref": "7743700006"}, "type": "Feature"}
{"geometry": {"coordinates": [-96.2933827, 29.201758], "type": "Point"}, "id": "BWxgwdaZM5FqdcPz10XkmZoq20c=", "properties": {"@source_uri": "https://tools.usps.com/UspsToolsRestServices/rest/POLocator/findLocations", "@spider": "usps_collection_boxes", "addr:city": "EL CAMPO", "addr:country": "US", "addr:postcode": "77437", "addr:state": "TX", "addr:street_address": "1901 SUE ST", "amenity": "post_box", "collection_times": "Mo-Fr 15:00", "note": "ON 12/24 AND 12/31, THIS BOX MAY BE COLLECTED AS EARLY AS 12 NOON.", "nsi_id": "unitedstatespostalservice-a77078", "operator": "United States Postal Service", "operator:short": "USPS", "operator:type": "public", "operator:wikidata": "Q668687", "ref": "7743700008"}, "type": "Feature"}
{"geometry": {"coordinates": [-96.268603, 29.195125], "type": "Point"}, "id": "DjZcaUe5akQH-YRyScwCgno3b_I=", "properties": {"@source_uri": "https://tools.usps.com/UspsToolsRestServices/rest/POLocator/findLocations", "@spider": "usps_collection_boxes", "addr:city": "EL CAMPO", "addr:country": "US", "addr:postcode": "77437", "addr:state": "TX", "addr:street_address": "110 S MECHANIC ST", "amenity": "post_box", "collection_times": "Mo-Fr 17:00; Sa 15:30", "note": "ON 12/24 AND 12/31, THIS BOX MAY BE COLLECTED AS EARLY AS 12 NOON.", "nsi_id": "unitedstatespostalservice-a77078", "operator": "United States Postal Service", "operator:short": "USPS", "operator:type": "public", "operator:wikidata": "Q668687", "ref": "7743700013"}, "type": "Feature"}
{"geometry": {"coordinates": [-96.268603, 29.195125], "type": "Point"}, "id": "BunsAVV6z_8JQw_XGZ8pxcmOABo=", "properties": {"@source_uri": "https://tools.usps.com/UspsToolsRestServices/rest/POLocator/findLocations", "@spider": "usps_collection_boxes", "addr:city": "EL CAMPO", "addr:country": "US", "addr:postcode": "77437", "addr:state": "TX", "addr:street_address": "110 S MECHANIC ST", "amenity": "post_box", "collection_times": "Mo-Fr 17:00; Sa 15:30", "indoor": "yes", "note": "ON 12/24 AND 12/31, THIS BOX MAY BE COLLECTED AS EARLY AS 12 NOON.", "nsi_id": "unitedstatespostalservice-a77078", "operator": "United States Postal Service", "operator:short": "USPS", "operator:type": "public", "operator:wikidata": "Q668687", "ref": "7743700019"}, "type": "Feature"}
{"geometry": {"coordinates": [-96.2684744766, 29.1949155695], "type": "Point"}, "id": "YT71qnq1vRq1CW5VYhM7CdsZqS0=", "properties": {"@source_uri": "https://tools.usps.com/UspsToolsRestServices/rest/POLocator/findLocations", "@spider": "usps_collection_boxes", "addr:city": "EL CAMPO", "addr:country": "US", "addr:postcode": "77437", "addr:state": "TX", "addr:street_address": "110 S MECHANIC ST", "amenity": "post_box", "collection_times": "Mo-Fr 16:30; Sa 12:00", "indoor": "yes", "note": "ON 12/24 AND 12/31, THIS BOX MAY BE COLLECTED AS EARLY AS 12 NOON.", "nsi_id": "unitedstatespostalservice-a77078", "operator": "United States Postal Service", "operator:short": "USPS", "operator:type": "public", "operator:wikidata": "Q668687", "ref": "7743700021"}, "type": "Feature"}
{"geometry": {"coordinates": [-96.1383160093, 28.9030850022], "type": "Point"}, "id": "rkE5M3oo0hWQp9IT3N8apN1NqQY=", "properties": {"@source_uri": "https://tools.usps.com/UspsToolsRestServices/rest/POLocator/findLocations", "@spider": "usps_collection_boxes", "addr:city": "ELMATON", "addr:country": "US", "addr:postcode": "77440", "addr:state": "TX", "addr:street_address": "10430 HIGHWAY 35", "amenity": "post_box", "collection_times": "Mo-Fr 10:15; Sa 09:45", "nsi_id": "unitedstatespostalservice-a77078", "operator": "United States Postal Service", "operator:short": "USPS", "operator:type": "public", "operator:wikidata": "Q668687", "ref": "7744000000"}, "type": "Feature"}
{"geometry": {"coordinates": [-96.13702, 28.903566], "type": "Point"}, "id": "T2F_Imxwz6BN5vXqYoRm3LpJxRQ=", "properties": {"@source_uri": "https://tools.usps.com/UspsToolsRestServices/rest/POLocator/findLocations", "@spider": "usps_collection_boxes", "addr:city": "ELMATON", "addr:country": "US", "addr:postcode": "77440", "addr:state": "TX", "addr:street_address": "10430 HIGHWAY 35", "amenity": "post_box", "collection_times": "Mo-Fr 10:15; Sa 09:45", "indoor": "yes", "nsi_id": "unitedstatespostalservice-a77078", "operator": "United States Postal Service", "operator:short": "USPS", "operator:type": "public", "operator:wikidata": "Q668687", "ref": "7744000001"}, "type": "Feature"}
{"geometry": {"coordinates": [-96.13725965, 28.903407817], "type": "Point"}, "id": "Zw2lj6ycq0fuTdtdYC6sLWnKaVw=", "properties": {"@source_uri": "https://tools.usps.com/UspsToolsRestServices/rest/POLocator/findLocations", "@spider": "usps_collection_boxes", "addr:city": "ELMATON", "addr:country": "US", "addr:postcode": "77440", "addr:state": "TX", "addr:street_address": "10430 HIGHWAY 35", "amenity": "post_box", "collection_times": "Mo-Fr 10:30; Sa 10:00", "indoor": "yes", "nsi_id": "unitedstatespostalservice-a77078", "operator": "United States Postal Service", "operator:short": "USPS", "operator:type": "public", "operator:wikidata": "Q668687", "ref": "7744000002"}, "type": "Feature"}
{"geometry": {"coordinates": [-95.900843, 29.695399], "type": "Point"}, "id": "AKV0wpNxPhCVRM2mGe1l8IeNwO0=", "properties": {"@source_uri": "https://tools.usps.com/UspsToolsRestServices/rest/POLocator/findLocations", "@spider": "usps_collection_boxes", "addr:city": "FULSHEAR", "addr:country": "US", "addr:postcode": "77441", "addr:state": "TX", "addr:street_address": "8055 FM 359 RD S", "amenity": "post_box", "collection_times": "Mo-Fr 16:00; Sa 11:00", "indoor": "yes", "note": "ON 12/24 AND 12/31, THIS BOX MAY BE COLLECTED AS EARLY AS 12 NOON.", "nsi_id": "unitedstatespostalservice-a77078", "operator": "United States Postal Service", "operator:short": "USPS", "operator:type": "public", "operator:wikidata": "Q668687", "ref": "7744100000"}, "type": "Feature"}
{"geometry": {"coordinates": [-95.9008327138, 29.6954469983], "type": "Point"}, "id": "0z_nH3jw6isdi8_Vfx_XwSNaUAM=", "properties": {"@source_uri": "https://tools.usps.com/UspsToolsRestServices/rest/POLocator/findLocations", "@spider": "usps_collection_boxes", "addr:city": "FULSHEAR", "addr:country": "US", "addr:postcode": "77441", "addr:state": "TX", "addr:street_address": "8055 FM 359 RD S", "amenity": "post_box", "collection_times": "Mo-Fr 16:00; Sa 11:00", "note": "ON 12/24 AND 12/31, THIS BOX MAY BE COLLECTED AS EARLY AS 12 NOON.", "nsi_id": "unitedstatespostalservice-a77078", "operator": "United States Postal Service", "operator:short": "USPS", "operator:type": "public", "operator:wikidata": "Q668687", "ref": "7744100002"}, "type": "Feature"}
{"geometry": {"coordinates": [-95.900843, 29.695399], "type": "Point"}, "id": "URmD1sOXKPWfsJUlLQCMD4rqwTY=", "properties": {"@source_uri": "https://tools.usps.com/UspsToolsRestServices/rest/POLocator/findLocations", "@spider": "usps_collection_boxes", "addr:city": "FULSHEAR", "addr:country": "US", "addr:postcode": "77441", "addr:state": "TX", "addr:street_address": "8055 FM 359 RD S", "amenity": "post_box", "collection_times": "Mo-Fr 16:00; Sa 11:00", "indoor": "yes", "note": "ON 12/24 AND 12/31, THIS BOX MAY BE COLLECTED AS EARLY AS 12 NOON.", "nsi_id": "unitedstatespostalservice-a77078", "operator": "United States Postal Service", "operator:short": "USPS", "operator:type": "public", "operator:wikidata": "Q668687", "ref": "7744100004"}, "type": "Feature"}
{"geometry": {"coordinates": [-95.900823369, 29.69534679], "type": "Point"}, "id": "P0lk0GfKQbOReXyw0mk1n21ty0Q=", "properties": {"@source_uri": "https://tools.usps.com/UspsToolsRestServices/rest/POLocator/findLocations", "@spider": "usps_collection_boxes", "addr:city": "FULSHEAR", "addr:country": "US", "addr:postcode": "77441", "addr:state": "TX", "addr:street_address": "8055 FM 359 RD S", "amenity": "post_box", "collection_times": "Mo-Fr 16:00; Sa 11:00", "indoor": "yes", "note": "ON 12/24 AND 12/31, THIS BOX MAY BE COLLECTED AS EARLY AS 12 NOON.", "nsi_id": "unitedstatespostalservice-a77078", "operator": "United States Postal Service", "operator:short": "USPS", "operator:type": "public", "operator:wikidata": "Q668687", "ref": "7744100006"}, "type": "Feature"}
{"geometry": {"coordinates": [-96.395409, 29.448896], "type": "Point"}, "id": "k-O4BTv11SIzfygvyzdonGkDt_w=", "properties": {"@source_uri": "https://tools.usps.com/UspsToolsRestServices/rest/POLocator/findLocations", "@spider": "usps_collection_boxes", "addr:city": "GARWOOD", "addr:country": "US", "addr:postcode": "77442", "addr:state": "TX", "addr:street_address": "506 ARTHUR ST", "amenity": "post_box", "collection_times": "Mo-Fr 15:15; Sa 11:00", "indoor": "yes", "note": "ON 12/24 AND 12/31, THIS BOX MAY BE COLLECTED AS EARLY AS 12 NOON.", "nsi_id": "unitedstatespostalservice-a77078", "operator": "United States Postal Service", "operator:short": "USPS", "operator:type": "public", "operator:wikidata": "Q668687", "ref": "7744200001"}, "type": "Feature"}
{"geometry": {"coordinates": [-96.395455142, 29.448890568], "type": "Point"}, "id": "ozQdTa_ccPUDzAg6w_pbpJoGPPA=", "properties": {"@source_uri": "https://tools.usps.com/UspsToolsRestServices/rest/POLocator/findLocations", "@spider": "usps_collection_boxes", "addr:city": "GARWOOD", "addr:country": "US", "addr:postcode": "77442", "addr:state": "TX", "addr:street_address": "506 ARTHUR ST", "amenity": "post_box", "collection_times": "Mo-Fr 15:30; Sa 11:00", "indoor": "yes", "note": "ON 12/24 AND 12/31, THIS BOX MAY BE COLLECTED AS EARLY AS 12 NOON.", "nsi_id": "unitedstatespostalservice-a77078", "operator": "United States Postal Service", "operator:short": "USPS", "operator:type": "public", "operator:wikidata": "Q668687", "ref": "7744200002"}, "type": "Feature"}
{"geometry": {"coordinates": [-96.1933473242, 29.3472199968], "type": "Point"}, "id": "xG-GwdshtsamY00yOtk0cC8RpbE=", "properties": {"@source_uri": "https://tools.usps.com/UspsToolsRestServices/rest/POLocator/findLocations", "@spider": "usps_collection_boxes", "addr:city": "GLEN FLORA", "addr:country": "US", "addr:postcode": "77443", "addr:state": "TX", "addr:street_address": "126 BRIDGE ST", "amenity": "post_box", "collection_times": "Mo-Fr 12:45; Sa 10:00", "note": "ON 12/24 AND 12/31, THIS BOX MAY BE COLLECTED AS EARLY AS 12 NOON.", "nsi_id": "unitedstatespostalservice-a77078", "operator": "United States Postal Service", "operator:short": "USPS", "operator:type": "public", "operator:wikidata": "Q668687", "ref": "7744300003"}, "type": "Feature"}
{"geometry": {"coordinates": [-96.1933473242, 29.3472199968], "type": "Point"}, "id": "z1JwvV2o0eqXhQEL3jntuxzEOR0=", "properties": {"@source_uri": "https://tools.usps.com/UspsToolsRestServices/rest/POLocator/findLocations", "@spider": "usps_collection_boxes", "addr:city": "GLEN FLORA", "addr:country": "US", "addr:postcode": "77443", "addr:state": "TX", "addr:street_address": "126 BRIDGE ST", "amenity": "post_box", "collection_times": "Mo-Fr 12:45; Sa 10:00", "indoor": "yes", "note": "ON 12/24 AND 12/31, THIS BOX MAY BE COLLECTED AS EARLY AS 12 NOON.", "nsi_id": "unitedstatespostalservice-a77078", "operator": "United States Postal Service", "operator:short": "USPS", "operator:type": "public", "operator:wikidata": "Q668687", "ref": "7744300004"}, "type": "Feature"}
{"geometry": {"coordinates": [-96.1933473242, 29.3472199968], "type": "Point"}, "id": "dbpiK2IdNoUIpID12vlFMH1ItsU=", "properties": {"@source_uri": "https://tools.usps.com/UspsToolsRestServices/rest/POLocator/findLocations", "@spider": "usps_collection_boxes", "addr:city": "GLEN FLORA", "addr:country": "US", "addr:postcode": "77443", "addr:state": "TX", "addr:street_address": "126 BRIDGE ST", "amenity": "post_box", "collection_times": "Mo-Fr 13:00", "indoor": "yes", "note": "ON 12/24 AND 12/31, THIS BOX MAY BE COLLECTED AS EARLY AS 12 NOON.", "nsi_id": "unitedstatespostalservice-a77078", "operator": "United States Postal Service", "operator:short": "USPS", "operator:type": "public", "operator:wikidata": "Q668687", "ref": "7744300005"}, "type": "Feature"}
{"geometry": {"coordinates": [-95.7758599, 29.348103], "type": "Point"}, "id": "9Mj6U2_ykUNpnZR86bNLVxTIUJU=", "properties": {"@source_uri": "https://tools.usps.com/UspsToolsRestServices/rest/POLocator/findLocations", "@spider": "usps_collection_boxes", "addr:city": "GUY", "addr:country": "US", "addr:postcode": "77444", "addr:state": "TX", "addr:street_address": "18623 HIGHWAY 36", "amenity": "post_box", "collection_times": "Mo-Fr 11:45; Sa 10:15", "nsi_id": "unitedstatespostalservice-a77078", "operator": "United States Postal Service", "operator:short": "USPS", "operator:type": "public", "operator:wikidata": "Q668687", "ref": "7744400000"}, "type": "Feature"}
{"geometry": {"coordinates": [-95.7755838, 29.348171], "type": "Point"}, "id": "1lA7YIJ5-cN8714qqrTgQmxyhtg=", "properties": {"@source_uri": "https://tools.usps.com/UspsToolsRestServices/rest/POLocator/findLocations", "@spider": "usps_collection_boxes", "addr:city": "GUY", "addr:country": "US", "addr:postcode": "77444", "addr:state": "TX", "addr:street_address": "18623 HIGHWAY 36", "amenity": "post_box", "collection_times": "Mo-Fr 11:45; Sa 10:15", "indoor": "yes", "nsi_id": "unitedstatespostalservice-a77078", "operator": "United States Postal Service", "operator:short": "USPS", "operator:type": "public", "operator:wikidata": "Q668687", "ref": "7744400001"}, "type": "Feature"}
{"geometry": {"coordinates": [-95.775763292, 29.34779645], "type": "Point"}, "id": "oLExgJMPgktGuxxF-urp7KOCTNk=", "properties": {"@source_uri": "https://tools.usps.com/UspsToolsRestServices/rest/POLocator/findLocations", "@spider": "usps_collection_boxes", "addr:city": "GUY", "addr:country": "US", "addr:postcode": "77444", "addr:state": "TX", "addr:street_address": "18623 HIGHWAY 36", "amenity": "post_box", "collection_times": "Mo-Fr 12:00; Sa 10:30", "indoor": "yes", "nsi_id": "unitedstatespostalservice-a77078", "operator": "United States Postal Service", "operator:short": "USPS", "operator:type": "public", "operator:wikidata": "Q668687", "ref": "7744400003"}, "type": "Feature"}
{"geometry": {"coordinates": [-96.081080733, 30.0965032218], "type": "Point"}, "id": "VJcoOCKXNIliD1DEYnjGDbvrwEE=", "properties": {"@source_uri": "https://tools.usps.com/UspsToolsRestServices/rest/POLocator/findLocations", "@spider": "usps_collection_boxes", "addr:city": "HEMPSTEAD", "addr:country": "US", "addr:postcode": "77445", "addr:state": "TX", "addr:street_address": "901 12TH ST", "amenity": "post_box", "collection_times": "Mo-Fr 16:45; Sa 12:15", "note": "ON 12/24 AND 12/31, THIS BOX MAY BE COLLECTED AS EARLY AS 12 NOON.", "nsi_id": "unitedstatespostalservice-a77078", "operator": "United States Postal Service", "operator:short": "USPS", "operator:type": "public", "operator:wikidata": "Q668687", "ref": "7744500000"}, "type": "Feature"}
{"geometry": {"coordinates": [-96.0808864, 30.096553], "type": "Point"}, "id": "nEDEhZ6fdFzvneyQ-rCzzixfnOo=", "properties": {"@source_uri": "https://tools.usps.com/UspsToolsRestServices/rest/POLocator/findLocations", "@spider": "usps_collection_boxes", "addr:city": "HEMPSTEAD", "addr:country": "US", "addr:postcode": "77445", "addr:state": "TX", "addr:street_address": "901 12TH ST", "amenity": "post_box", "collection_times": "Mo-Fr 16:45; Sa 12:15", "indoor": "yes", "note": "ON 12/24 AND 12/31, THIS BOX MAY BE COLLECTED AS EARLY AS 12 NOON.", "nsi_id": "unitedstatespostalservice-a77078", "operator": "United States Postal Service", "operator:short": "USPS", "operator:type": "public", "operator:wikidata": "Q668687", "ref": "7744500003"}, "type": "Feature"}
{"geometry": {"coordinates": [-96.081085149, 30.096493769], "type": "Point"}, "id": "a_WNp03A1wjDn6ntOIa7ZagxrAk=", "properties": {"@source_uri": "https://tools.usps.com/UspsToolsRestServices/rest/POLocator/findLocations", "@spider": "usps_collection_boxes", "addr:city": "HEMPSTEAD", "addr:country": "US", "addr:postcode": "77445", "addr:state": "TX", "addr:street_address": "901 12TH ST", "amenity": "post_box", "collection_times": "Mo-Fr 16:30; Sa 12:00", "indoor": "yes", "note": "ON 12/24 AND 12/31, THIS BOX MAY BE COLLECTED AS EARLY AS 12 NOON.", "nsi_id": "unitedstatespostalservice-a77078", "operator": "United States Postal Service", "operator:short": "USPS", "operator:type": "public", "operator:wikidata": "Q668687", "ref": "7744500006"}, "type": "Feature"}
{"geometry": {"coordinates": [-95.989505, 30.08792], "type": "Point"}, "id": "XhCe46sOMcGK8T_txmOLiSedIuI=", "properties": {"@source_uri": "https://tools.usps.com/UspsToolsRestServices/rest/POLocator/findLocations", "@spider": "usps_collection_boxes", "addr:city": "PRAIRIE VIEW", "addr:country": "US", "addr:postcode": "77446", "addr:state": "TX", "addr:street_address": "21212 FM 1098 LOOP", "amenity": "post_box", "collection_times": "Mo-Fr 16:15; Sa 11:45", "indoor": "yes", "note": "ON 12/24 AND 12/31, THIS BOX MAY BE COLLECTED AS EARLY AS 12 NOON.", "nsi_id": "unitedstatespostalservice-a77078", "operator": "United States Postal Service", "operator:short": "USPS", "operator:type": "public", "operator:wikidata": "Q668687", "ref": "7744600004"}, "type": "Feature"}
{"geometry": {"coordinates": [-95.989505, 30.08792], "type": "Point"}, "id": "RFAqYUonGGjqMSOQlNNgtbjJjaY=", "properties": {"@source_uri": "https://tools.usps.com/UspsToolsRestServices/rest/POLocator/findLocations", "@spider": "usps_collection_boxes", "addr:city": "PRAIRIE VIEW", "addr:country": "US", "addr:postcode": "77446", "addr:state": "TX", "addr:street_address": "21212 FM 1098 LOOP", "amenity": "post_box", "collection_times": "Mo-Fr 16:15; Sa 11:45", "indoor": "yes", "note": "ON 12/24 AND 12/31, THIS BOX MAY BE COLLECTED AS EARLY AS 12 NOON.", "nsi_id": "unitedstatespostalservice-a77078", "operator": "United States Postal Service", "operator:short": "USPS", "operator:type": "public", "operator:wikidata": "Q668687", "ref": "7744600005"}, "type": "Feature"}
{"geometry": {"coordinates": [-95.989505, 30.08792], "type": "Point"}, "id": "G2pZOnwdHoMiAyp6dPOwO67PSqo=", "properties": {"@source_uri": "https://tools.usps.com/UspsToolsRestServices/rest/POLocator/findLocations", "@spider": "usps_collection_boxes", "addr:city": "PRAIRIE VIEW", "addr:country": "US", "addr:postcode": "77446", "addr:state": "TX", "addr:street_address": "21212 FM 1098 LOOP", "amenity": "post_box", "collection_times": "Mo-Fr 16:15; Sa 11:45", "indoor": "yes", "note": "ON 12/24 AND 12/31, THIS BOX MAY BE COLLECTED AS EARLY AS 12 NOON.", "nsi_id": "unitedstatespostalservice-a77078", "operator": "United States Postal Service", "operator:short": "USPS", "operator:type": "public", "operator:wikidata": "Q668687", "ref": "7744600006"}, "type": "Feature"}
{"geometry": {"coordinates": [-95.992443, 30.087935494], "type": "Point"}, "id": "LWwLnFjoqTZz2ZiFUL9OB1fDUmc=", "properties": {"@source_uri": "https://tools.usps.com/UspsToolsRestServices/rest/POLocator/findLocations", "@spider": "usps_collection_boxes", "addr:city": "PRAIRIE VIEW", "addr:country": "US", "addr:postcode": "77446", "addr:state": "TX", "addr:street_address": "21212 FM 1098 LOOP", "amenity": "post_box", "collection_times": "Mo-Fr 16:45; Sa 12:00", "indoor": "yes", "note": "ON 12/24 AND 12/31, THIS BOX MAY BE COLLECTED AS EARLY AS 12 NOON.", "nsi_id": "unitedstatespostalservice-a77078", "operator": "United States Postal Service", "operator:short": "USPS", "operator:type": "public", "operator:wikidata": "Q668687", "ref": "7744600008"}, "type": "Feature"}
{"geometry": {"coordinates": [-95.99265, 30.08791], "type": "Point"}, "id": "UADL75pc26eQNpIexc1Mvqvd7jg=", "properties": {"@source_uri": "https://tools.usps.com/UspsToolsRestServices/rest/POLocator/findLocations", "@spider": "usps_collection_boxes", "addr:city": "PRAIRIE VIEW", "addr:country": "US", "addr:postcode": "77446", "addr:state": "TX", "addr:street_address": "21212 FM 1098 LOOP", "amenity": "post_box", "collection_times": "Mo-Fr 16:45; Sa 12:00", "note": "ON 12/24 AND 12/31, THIS BOX MAY BE COLLECTED AS EARLY AS 12 NOON.", "nsi_id": "unitedstatespostalservice-a77078", "operator": "United States Postal Service", "operator:short": "USPS", "operator:type": "public", "operator:wikidata": "Q668687", "ref": "7744600009"}, "type": "Feature"}
{"geometry": {"coordinates": [-95.8458549789, 30.0257069897], "type": "Point"}, "id": "h6ymOzpy-C0xo54sL4E6m1F7Ll8=", "properties": {"@source_uri": "https://tools.usps.com/UspsToolsRestServices/rest/POLocator/findLocations", "@spider": "usps_collection_boxes", "addr:city": "HOCKLEY", "addr:country": "US", "addr:postcode": "77447", "addr:state": "TX", "addr:street_address": "17210 WARREN RANCH RD", "amenity": "post_box", "collection_times": "Mo-Fr 15:30; Sa 11:00", "note": "ON 12/24 AND 12/31, THIS BOX MAY BE COLLECTED AS EARLY AS 12 NOON.", "nsi_id": "unitedstatespostalservice-a77078", "operator": "United States Postal Service", "operator:short": "USPS", "operator:type": "public", "operator:wikidata": "Q668687", "ref": "7744700000"}, "type": "Feature"}
{"geometry": {"coordinates": [-95.845741, 30.025759], "type": "Point"}, "id": "mOfrBXpPalzxxuHf8-Vvjs-Klus=", "properties": {"@source_uri": "https://tools.usps.com/UspsToolsRestServices/rest/POLocator/findLocations", "@spider": "usps_collection_boxes", "addr:city": "HOCKLEY", "addr:country": "US", "addr:postcode": "77447", "addr:state": "TX", "addr:street_address": "17210 WARREN RANCH RD", "amenity": "post_box", "collection_times": "Mo-Fr 15:30; Sa 11:00", "indoor": "yes", "note": "ON 12/24 AND 12/31, THIS BOX MAY BE COLLECTED AS EARLY AS 12 NOON.", "nsi_id": "unitedstatespostalservice-a77078", "operator": "United States Postal Service", "operator:short": "USPS", "operator:type": "public", "operator:wikidata": "Q668687", "ref": "7744700007"}, "type": "Feature"}
{"geometry": {"coordinates": [-95.845741, 30.025759], "type": "Point"}, "id": "ifDiYs7iTKi_HWGtf3bJuDVr6r4=", "properties": {"@source_uri": "https://tools.usps.com/UspsToolsRestServices/rest/POLocator/findLocations", "@spider": "usps_collection_boxes", "addr:city": "HOCKLEY", "addr:country": "US", "addr:postcode": "77447", "addr:state": "TX", "addr:street_address": "17210 WARREN RANCH RD", "amenity": "post_box", "collection_times": "Mo-Fr 15:30; Sa 11:00", "indoor": "yes", "note": "ON 12/24 AND 12/31, THIS BOX MAY BE COLLECTED AS EARLY AS 12 NOON.", "nsi_id": "unitedstatespostalservice-a77078", "operator": "United States Postal Service", "operator:short": "USPS", "operator:type": "public", "operator:wikidata": "Q668687", "ref": "7744700008"}, "type": "Feature"}
{"geometry": {"coordinates": [-95.8462638458, 30.0259035484], "type": "Point"}, "id": "2XJ0sGNBEO8Gu5QJ29ifz7njfKI=", "properties": {"@source_uri": "https://tools.usps.com/UspsToolsRestServices/rest/POLocator/findLocations", "@spider": "usps_collection_boxes", "addr:city": "HOCKLEY", "addr:country": "US", "addr:postcode": "77447", "addr:state": "TX", "addr:street_address": "17210 WARREN RANCH RD", "amenity": "post_box", "collection_times": "Mo-Fr 16:30; Sa 11:00", "indoor": "yes", "note": "ON 12/24 AND 12/31, THIS BOX MAY BE COLLECTED AS EARLY AS 12 NOON.", "nsi_id": "unitedstatespostalservice-a77078", "operator": "United States Postal Service", "operator:short": "USPS", "operator:type": "public", "operator:wikidata": "Q668687", "ref": "7744700009"}, "type": "Feature"}
{"geometry": {"coordinates": [-96.077095, 29.398101], "type": "Point"}, "id": "uYx4V1e4EQGHq5eWnpnJIqTN1DI=", "properties": {"@source_uri": "https://tools.usps.com/UspsToolsRestServices/rest/POLocator/findLocations", "@spider": "usps_collection_boxes", "addr:city": "HUNGERFORD", "addr:country": "US", "addr:postcode": "77448", "addr:state": "TX", "addr:street_address": "210 E LIVE OAK ST", "amenity": "post_box", "collection_times": "Mo-Fr 14:45; Sa 10:30", "note": "ON 12/24 AND 12/31, THIS BOX MAY BE COLLECTED AS EARLY AS 12 NOON.", "nsi_id": "unitedstatespostalservice-a77078", "operator": "United States Postal Service", "operator:short": "USPS", "operator:type": "public", "operator:wikidata": "Q668687", "ref": "7744800001"}, "type": "Feature"}
{"geometry": {"coordinates": [-96.077095, 29.398101], "type": "Point"}, "id": "ZxSoyUj2Q9wkkY7n9ZbhhtutDnM=", "properties": {"@source_uri": "https://tools.usps.com/UspsToolsRestServices/rest/POLocator/findLocations", "@spider": "usps_collection_boxes", "addr:city": "HUNGERFORD", "addr:country": "US", "addr:postcode": "77448", "addr:state": "TX", "addr:street_address": "210 E LIVE OAK ST", "amenity": "post_box", "collection_times": "Mo-Fr 14:45; Sa 10:30", "indoor": "yes", "note": "ON 12/24 AND 12/31, THIS BOX MAY BE COLLECTED AS EARLY AS 12 NOON.", "nsi_id": "unitedstatespostalservice-a77078", "operator": "United States Postal Service", "operator:short": "USPS", "operator:type": "public", "operator:wikidata": "Q668687", "ref": "7744800002"}, "type": "Feature"}
{"geometry": {"coordinates": [-96.077070324, 29.398017368], "type": "Point"}, "id": "C3ipOcPdJfSBO4s61XZQJWASY-Y=", "properties": {"@source_uri": "https://tools.usps.com/UspsToolsRestServices/rest/POLocator/findLocations", "@spider": "usps_collection_boxes", "addr:city": "HUNGERFORD", "addr:country": "US", "addr:postcode": "77448", "addr:state": "TX", "addr:street_address": "210 E LIVE OAK ST", "amenity": "post_box", "collection_times": "Mo-Fr 15:00; Sa 10:00", "indoor": "yes", "note": "ON 12/24 AND 12/31, THIS BOX MAY BE COLLECTED AS EARLY AS 12 NOON.", "nsi_id": "unitedstatespostalservice-a77078", "operator": "United States Postal Service", "operator:short": "USPS", "operator:type": "public", "operator:wikidata": "Q668687", "ref": "7744800003"}, "type": "Feature"}
{"geometry": {"coordinates": [-95.7192219, 29.792455], "type": "Point"}, "id": "oX6LvM9J91zfGC8wBq-0gM-fvYI=", "properties": {"@source_uri": "https://tools.usps.com/UspsToolsRestServices/rest/POLocator/findLocations", "@spider": "usps_collection_boxes", "addr:city": "KATY", "addr:country": "US", "addr:postcode": "77449", "addr:state": "TX", "addr:street_address": "1793 N FRY RD", "amenity": "post_box", "collection_times": "Mo-Fr 15:00; Sa 15:45", "note": "ON 12/24 AND 12/31, THIS BOX MAY BE COLLECTED AS EARLY AS 12 NOON.", "nsi_id": "unitedstatespostalservice-a77078", "operator": "United States Postal Service", "operator:short": "USPS", "operator:type": "public", "operator:wikidata": "Q668687", "ref": "7744900000"}, "type": "Feature"}
{"geometry": {"coordinates": [-95.7521059671, 29.7995927409], "type": "Point"}, "id": "Ms5s0rAkL5-eHhnwiA2J65jx9ns=", "properties": {"@source_uri": "https://tools.usps.com/UspsToolsRestServices/rest/POLocator/findLocations", "@spider": "usps_collection_boxes", "addr:city": "KATY", "addr:country": "US", "addr:postcode": "77449", "addr:state": "TX", "addr:street_address": "1805 N MASON RD", "amenity": "post_box", "collection_times": "Mo-Fr 14:15", "note": "ON 12/24 AND 12/31, THIS BOX MAY BE COLLECTED AS EARLY AS 12 NOON.", "nsi_id": "unitedstatespostalservice-a77078", "operator": "United States Postal Service", "operator:short": "USPS", "operator:type": "public", "operator:wikidata": "Q668687", "ref": "7744900002"}, "type": "Feature"}
{"geometry": {"coordinates": [-95.727769276, 29.789723892], "type": "Point"}, "id": "ZDrpgePIutBwJkkNw2ovGc19vsg=", "properties": {"@source_uri": "https://tools.usps.com/UspsToolsRestServices/rest/POLocator/findLocations", "@spider": "usps_collection_boxes", "addr:city": "KATY", "addr:country": "US", "addr:postcode": "77449", "addr:state": "TX", "addr:street_address": "20180 PARK ROW DR", "amenity": "post_box", "collection_times": "Mo-Fr 17:00; Sa 12:00", "indoor": "yes", "note": "ON 12/24 AND 12/31, THIS BOX MAY BE COLLECTED AS EARLY AS 12 NOON.", "nsi_id": "unitedstatespostalservice-a77078", "operator": "United States Postal Service", "operator:short": "USPS", "operator:type": "public", "operator:wikidata": "Q668687", "ref": "7744900008"}, "type": "Feature"}
{"geometry": {"coordinates": [-95.7223199, 29.783428], "type": "Point"}, "id": "mM4TZ-klZSBxSK35_uqyCu7lM2o=", "properties": {"@source_uri": "https://tools.usps.com/UspsToolsRestServices/rest/POLocator/findLocations", "@spider": "usps_collection_boxes", "addr:city": "KATY", "addr:country": "US", "addr:postcode": "77450", "addr:state": "TX", "addr:street_address": "20214 BRAIDWOOD DR", "amenity": "post_box", "collection_times": "Mo-Fr 15:00", "note": "ON 12/24 AND 12/31, THIS BOX MAY BE COLLECTED AS EARLY AS 12 NOON.", "nsi_id": "unitedstatespostalservice-a77078", "operator": "United States Postal Service", "operator:short": "USPS", "operator:type": "public", "operator:wikidata": "Q668687", "ref": "7745000000"}, "type": "Feature"}
{"geometry": {"coordinates": [-95.7523592477, 29.7831576183], "type": "Point"}, "id": "Yeeg4VLHLtVFZ9LuObaUPkuIyIs=", "properties": {"@source_uri": "https://tools.usps.com/UspsToolsRestServices/rest/POLocator/findLocations", "@spider": "usps_collection_boxes", "addr:city": "KATY", "addr:country": "US", "addr:postcode": "77450", "addr:state": "TX", "addr:street_address": "21937 KATY FWY", "amenity": "post_box", "collection_times": "Mo-Fr 14:15; Sa 15:45", "note": "ON 12/24 AND 12/31, THIS BOX MAY BE COLLECTED AS EARLY AS 12 NOON.", "nsi_id": "unitedstatespostalservice-a77078", "operator": "United States Postal Service", "operator:short": "USPS", "operator:type": "public", "operator:wikidata": "Q668687", "ref": "7745000001"}, "type": "Feature"}
{"geometry": {"coordinates": [-95.7521239, 29.771302], "type": "Point"}, "id": "fSaOBBEOgcu2zA2rEvRIzPHw6k0=", "properties": {"@source_uri": "https://tools.usps.com/UspsToolsRestServices/rest/POLocator/findLocations", "@spider": "usps_collection_boxes", "addr:city": "KATY", "addr:country": "US", "addr:postcode": "77450", "addr:state": "TX", "addr:street_address": "830 S MASON RD", "amenity": "post_box", "collection_times": "Mo-Fr 14:15; Sa 15:15", "note": "ON 12/24 AND 12/31, THIS BOX MAY BE COLLECTED AS EARLY AS 12 NOON.", "nsi_id": "unitedstatespostalservice-a77078", "operator": "United States Postal Service", "operator:short": "USPS", "operator:type": "public", "operator:wikidata": "Q668687", "ref": "7745000002"}, "type": "Feature"}
{"geometry": {"coordinates": [-95.7523566, 29.770722], "type": "Point"}, "id": "YhxF2aG2qvIHdqaeY_MLNtRZEr4=", "properties": {"@source_uri": "https://tools.usps.com/UspsToolsRestServices/rest/POLocator/findLocations", "@spider": "usps_collection_boxes", "addr:city": "KATY", "addr:country": "US", "addr:postcode": "77450", "addr:state": "TX", "addr:street_address": "870 S MASON RD", "amenity": "post_box", "collection_times": "Mo-Fr 14:30; Sa 15:15", "note": "ON 12/24 AND 12/31, THIS BOX MAY BE COLLECTED AS EARLY AS 12 NOON.", "nsi_id": "unitedstatespostalservice-a77078", "operator": "United States Postal Service", "operator:short": "USPS", "operator:type": "public", "operator:wikidata": "Q668687", "ref": "7745000003"}, "type": "Feature"}
{"geometry": {"coordinates": [-95.751647, 29.776204], "type": "Point"}, "id": "1oNJxU2p62xeMRZdhviWSwB3DV4=", "properties": {"@source_uri": "https://tools.usps.com/UspsToolsRestServices/rest/POLocator/findLocations", "@spider": "usps_collection_boxes", "addr:city": "KATY", "addr:country": "US", "addr:postcode": "77450", "addr:state": "TX", "addr:street_address": "569 S MASON RD", "amenity": "post_box", "collection_times": "Mo-Fr 14:45; Sa 15:30", "note": "ON 12/24 AND 12/31, THIS BOX MAY BE COLLECTED AS EARLY AS 12 NOON.", "nsi_id": "unitedstatespostalservice-a77078", "operator": "United States Postal Service", "operator:short": "USPS", "operator:type": "public", "operator:wikidata": "Q668687", "ref": "7745000004"}, "type": "Feature"}
{"geometry": {"coordinates": [-95.7294773, 29.775682], "type": "Point"}, "id": "tFsr8eqVGXocjVnGNHgShYBJVGo=", "properties": {"@source_uri": "https://tools.usps.com/UspsToolsRestServices/rest/POLocator/findLocations", "@spider": "usps_collection_boxes", "addr:city": "KATY", "addr:country": "US", "addr:postcode": "77450", "addr:state": "TX", "addr:street_address": "20701 KINGSLAND BLVD", "amenity": "post_box", "collection_times": "Mo-Fr 14:45; Sa 15:30", "note": "ON 12/24 AND 12/31, THIS BOX MAY BE COLLECTED AS EARLY AS 12 NOON.", "nsi_id": "unitedstatespostalservice-a77078", "operator": "United States Postal Service", "operator:short": "USPS", "operator:type": "public", "operator:wikidata": "Q668687", "ref": "7745000008"}, "type": "Feature"}
{"geometry": {"coordinates": [-95.7200646, 29.78307], "type": "Point"}, "id": "Ytx2kyjJZg8Ez5IgUiQa6098hYs=", "properties": {"@source_uri": "https://tools.usps.com/UspsToolsRestServices/rest/POLocator/findLocations", "@spider": "usps_collection_boxes", "addr:city": "KATY", "addr:country": "US", "addr:postcode": "77450", "addr:state": "TX", "addr:street_address": "20045 KATY FWY", "amenity": "post_box", "collection_times": "Mo-Fr 15:00; Sa 15:45", "note": "ON 12/24 AND 12/31, THIS BOX MAY BE COLLECTED AS EARLY AS 12 NOON.", "nsi_id": "unitedstatespostalservice-a77078", "operator": "United States Postal Service", "operator:short": "USPS", "operator:type": "public", "operator:wikidata": "Q668687", "ref": "7745000013"}, "type": "Feature"}
{"geometry": {"coordinates": [-95.7501947, 29.758972], "type": "Point"}, "id": "2tzE3IZExBcN0GPNa2P9qGQet2Y=", "properties": {"@source_uri": "https://tools.usps.com/UspsToolsRestServices/rest/POLocator/findLocations", "@spider": "usps_collection_boxes", "addr:city": "KATY", "addr:country": "US", "addr:postcode": "77450", "addr:state": "TX", "addr:street_address": "1565 S MASON RD", "amenity": "post_box", "collection_times": "Mo-Fr 14:30; Sa 15:15", "note": "ON 12/24 AND 12/31, THIS BOX MAY BE COLLECTED AS EARLY AS 12 NOON.", "nsi_id": "unitedstatespostalservice-a77078", "operator": "United States Postal Service", "operator:short": "USPS", "operator:type": "public", "operator:wikidata": "Q668687", "ref": "7745000014"}, "type": "Feature"}
{"geometry": {"coordinates": [-95.75167, 29.775345], "type": "Point"}, "id": "xh4Kkl6Dzo_Vpy8hvedwn12dTQY=", "properties": {"@source_uri": "https://tools.usps.com/UspsToolsRestServices/rest/POLocator/findLocations", "@spider": "usps_collection_boxes", "addr:city": "KATY", "addr:country": "US", "addr:postcode": "77450", "addr:state": "TX", "addr:street_address": "20180 PARK ROW DR", "amenity": "post_box", "collection_times": "Mo-Fr 17:00; Sa 16:30", "note": "ON 12/24 AND 12/31, THIS BOX MAY BE COLLECTED AS EARLY AS 12 NOON.", "nsi_id": "unitedstatespostalservice-a77078", "operator": "United States Postal Service", "operator:short": "USPS", "operator:type": "public", "operator:wikidata": "Q668687", "ref": "7745000015"}, "type": "Feature"}
{"geometry": {"coordinates": [-95.728364, 29.789689], "type": "Point"}, "id": "bdS-Q-JbQVR6uWudqv_BzFojyUM=", "properties": {"@source_uri": "https://tools.usps.com/UspsToolsRestServices/rest/POLocator/findLocations", "@spider": "usps_collection_boxes", "addr:city": "KATY", "addr:country": "US", "addr:postcode": "77450", "addr:state": "TX", "addr:street_address": "20180 PARK ROW DR", "amenity": "post_box", "collection_times": "Mo-Fr 17:00; Sa 16:30", "indoor": "yes", "note": "ON 12/24 AND 12/31, THIS BOX MAY BE COLLECTED AS EARLY AS 12 NOON.", "nsi_id": "unitedstatespostalservice-a77078", "operator": "United States Postal Service", "operator:short": "USPS", "operator:type": "public", "operator:wikidata": "Q668687", "ref": "7745000018"}, "type": "Feature"}
{"geometry": {"coordinates": [-95.728364, 29.789689], "type": "Point"}, "id": "nhOMmTI1bc4bS-j4FqRjWeuHaGQ=", "properties": {"@source_uri": "https://tools.usps.com/UspsToolsRestServices/rest/POLocator/findLocations", "@spider": "usps_collection_boxes", "addr:city": "KATY", "addr:country": "US", "addr:postcode": "77450", "addr:state": "TX", "addr:street_address": "20180 PARK ROW DR", "amenity": "post_box", "collection_times": "Mo-Fr 17:00; Sa 16:30", "name": "USPS COLLECTION BOX - APC", "note": "ON 12/24 AND 12/31, THIS BOX MAY BE COLLECTED AS EARLY AS 12 NOON.", "nsi_id": "unitedstatespostalservice-a77078", "operator": "United States Postal Service", "operator:short": "USPS", "operator:type": "public", "operator:wikidata": "Q668687", "ref": "7745000022"}, "type": "Feature"}
{"geometry": {"coordinates": [-96.001438, 29.447871], "type": "Point"}, "id": "gVlCFswuWiL51J-HmXgZj4HgLOY=", "properties": {"@source_uri": "https://tools.usps.com/UspsToolsRestServices/rest/POLocator/findLocations", "@spider": "usps_collection_boxes", "addr:city": "KENDLETON", "addr:country": "US", "addr:postcode": "77451", "addr:state": "TX", "addr:street_address": "13635 WILLIE MELTON BLVD", "amenity": "post_box", "collection_times": "Mo-Fr 11:45; Sa 10:00", "indoor": "yes", "nsi_id": "unitedstatespostalservice-a77078", "operator": "United States Postal Service", "operator:short": "USPS", "operator:type": "public", "operator:wikidata": "Q668687", "ref": "7745100001"}, "type": "Feature"}
{"geometry": {"coordinates": [-96.0014539257, 29.4477865307], "type": "Point"}, "id": "40sBPAScblJnS1T4clTp7HDvdHY=", "properties": {"@source_uri": "https://tools.usps.com/UspsToolsRestServices/rest/POLocator/findLocations", "@spider": "usps_collection_boxes", "addr:city": "KENDLETON", "addr:country": "US", "addr:postcode": "77451", "addr:state": "TX", "addr:street_address": "13635 WILLIE MELTON BLVD", "amenity": "post_box", "collection_times": "Mo-Fr 12:00; Sa 10:00", "indoor": "yes", "nsi_id": "unitedstatespostalservice-a77078", "operator": "United States Postal Service", "operator:short": "USPS", "operator:type": "public", "operator:wikidata": "Q668687", "ref": "7745100003"}, "type": "Feature"}
{"geometry": {"coordinates": [-96.327323564, 30.048207108], "type": "Point"}, "id": "SCpjskdd4ORmpiofvQGRxs7G7cg=", "properties": {"@source_uri": "https://tools.usps.com/UspsToolsRestServices/rest/POLocator/findLocations", "@spider": "usps_collection_boxes", "addr:city": "KENNEY", "addr:country": "US", "addr:postcode": "77452", "addr:state": "TX", "addr:street_address": "707 S LOOP 497", "amenity": "post_box", "collection_times": "Mo-Fr 11:45; Sa 11:00", "nsi_id": "unitedstatespostalservice-a77078", "operator": "United States Postal Service", "operator:short": "USPS", "operator:type": "public", "operator:wikidata": "Q668687", "ref": "7745200000"}, "type": "Feature"}
{"geometry": {"coordinates": [-96.3216886824, 30.0483022436], "type": "Point"}, "id": "pFqClepi0cpo1yWerpMdSLwlfYQ=", "properties": {"@source_uri": "https://tools.usps.com/UspsToolsRestServices/rest/POLocator/findLocations", "@spider": "usps_collection_boxes", "addr:city": "KENNEY", "addr:country": "US", "addr:postcode": "77452", "addr:state": "TX", "addr:street_address": "707 S LOOP 497", "amenity": "post_box", "collection_times": "Mo-Fr 11:45; Sa 11:00", "indoor": "yes", "nsi_id": "unitedstatespostalservice-a77078", "operator": "United States Postal Service", "operator:short": "USPS", "operator:type": "public", "operator:wikidata": "Q668687", "ref": "7745200001"}, "type": "Feature"}
{"geometry": {"coordinates": [-96.327337421, 30.04822951], "type": "Point"}, "id": "V0GzJbvQHgIy38PGX5UsjDQjW7s=", "properties": {"@source_uri": "https://tools.usps.com/UspsToolsRestServices/rest/POLocator/findLocations", "@spider": "usps_collection_boxes", "addr:city": "KENNEY", "addr:country": "US", "addr:postcode": "77452", "addr:state": "TX", "addr:street_address": "707 S LOOP 497", "amenity": "post_box", "collection_times": "Mo-Fr 12:00; Sa 11:00", "indoor": "yes", "nsi_id": "unitedstatespostalservice-a77078", "operator": "United States Postal Service", "operator:short": "USPS", "operator:type": "public", "operator:wikidata": "Q668687", "ref": "7745200003"}, "type": "Feature"}
{"geometry": {"coordinates": [-96.025981766, 29.215982556], "type": "Point"}, "id": "hlFdX5ZnDOwslhr4ZtF2hh9JE1U=", "properties": {"@source_uri": "https://tools.usps.com/UspsToolsRestServices/rest/POLocator/findLocations", "@spider": "usps_collection_boxes", "addr:city": "LANE CITY", "addr:country": "US", "addr:postcode": "77453", "addr:state": "TX", "addr:street_address": "110 LENERT ST", "amenity": "post_box", "collection_times": "Mo-Fr 13:15; Sa 09:30", "note": "ON 12/24 AND 12/31, THIS BOX MAY BE COLLECTED AS EARLY AS 12 NOON.", "nsi_id": "unitedstatespostalservice-a77078", "operator": "United States Postal Service", "operator:short": "USPS", "operator:type": "public", "operator:wikidata": "Q668687", "ref": "7745300000"}, "type": "Feature"}
{"geometry": {"coordinates": [-96.025981766, 29.215982556], "type": "Point"}, "id": "e06JROsrOuE9BB6K3hxloHfYGgM=", "properties": {"@source_uri": "https://tools.usps.com/UspsToolsRestServices/rest/POLocator/findLocations", "@spider": "usps_collection_boxes", "addr:city": "LANE CITY", "addr:country": "US", "addr:postcode": "77453", "addr:state": "TX", "addr:street_address": "110 LENERT ST", "amenity": "post_box", "collection_times": "Mo-Fr 13:15; Sa 09:30", "indoor": "yes", "note": "ON 12/24 AND 12/31, THIS BOX MAY BE COLLECTED AS EARLY AS 12 NOON.", "nsi_id": "unitedstatespostalservice-a77078", "operator": "United States Postal Service", "operator:short": "USPS", "operator:type": "public", "operator:wikidata": "Q668687", "ref": "7745300001"}, "type": "Feature"}
{"geometry": {"coordinates": [-96.025981766, 29.215982556], "type": "Point"}, "id": "FCkdWLNKJ5hLzOzuLptvtg9rLgs=", "properties": {"@source_uri": "https://tools.usps.com/UspsToolsRestServices/rest/POLocator/findLocations", "@spider": "usps_collection_boxes", "addr:city": "LANE CITY", "addr:country": "US", "addr:postcode": "77453", "addr:state": "TX", "addr:street_address": "110 LENERT ST", "amenity": "post_box", "collection_times": "Mo-Fr 13:30; Sa 09:15", "indoor": "yes", "note": "ON 12/24 AND 12/31, THIS BOX MAY BE COLLECTED AS EARLY AS 12 NOON.", "nsi_id": "unitedstatespostalservice-a77078", "operator": "United States Postal Service", "operator:short": "USPS", "operator:type": "public", "operator:wikidata": "Q668687", "ref": "7745300003"}, "type": "Feature"}
{"geometry": {"coordinates": [-96.225593, 29.555738], "type": "Point"}, "id": "dhQNr9zY5b3ukt9jxuu0UNdBqLQ=", "properties": {"@source_uri": "https://tools.usps.com/UspsToolsRestServices/rest/POLocator/findLocations", "@spider": "usps_collection_boxes", "addr:city": "LISSIE", "addr:country": "US", "addr:postcode": "77454", "addr:state": "TX", "addr:street_address": "213 RAYMOND AVE", "amenity": "post_box", "collection_times": "Mo-Fr 15:15; Sa 14:45", "note": "ON 12/24 AND 12/31, THIS BOX MAY BE COLLECTED AS EARLY AS 12 NOON.", "nsi_id": "unitedstatespostalservice-a77078", "operator": "United States Postal Service", "operator:short": "USPS", "operator:type": "public", "operator:wikidata": "Q668687", "ref": "7745400000"}, "type": "Feature"}
{"geometry": {"coordinates": [-96.225602, 29.55581], "type": "Point"}, "id": "8uHIPp8X_F4eozgFQcBl7J8SN5g=", "properties": {"@source_uri": "https://tools.usps.com/UspsToolsRestServices/rest/POLocator/findLocations", "@spider": "usps_collection_boxes", "addr:city": "LISSIE", "addr:country": "US", "addr:postcode": "77454", "addr:state": "TX", "addr:street_address": "213 RAYMOND AVE", "amenity": "post_box", "collection_times": "Mo-Fr 15:15; Sa 14:45", "indoor": "yes", "note": "ON 12/24 AND 12/31, THIS BOX MAY BE COLLECTED AS EARLY AS 12 NOON.", "nsi_id": "unitedstatespostalservice-a77078", "operator": "United States Postal Service", "operator:short": "USPS", "operator:type": "public", "operator:wikidata": "Q668687", "ref": "7745400001"}, "type": "Feature"}
{"geometry": {"coordinates": [-96.225693572, 29.555332966], "type": "Point"}, "id": "dkoz2Uk62KTFaG0o2AQJLjLMVmc=", "properties": {"@source_uri": "https://tools.usps.com/UspsToolsRestServices/rest/POLocator/findLocations", "@spider": "usps_collection_boxes", "addr:city": "LISSIE", "addr:country": "US", "addr:postcode": "77454", "addr:state": "TX", "addr:street_address": "213 RAYMOND AVE", "amenity": "post_box", "collection_times": "Mo-Fr 15:30; Sa 15:00", "indoor": "yes", "note": "ON 12/24 AND 12/31, THIS BOX MAY BE COLLECTED AS EARLY AS 12 NOON.", "nsi_id": "unitedstatespostalservice-a77078", "operator": "United States Postal Service", "operator:short": "USPS", "operator:type": "public", "operator:wikidata": "Q668687", "ref": "7745400003"}, "type": "Feature"}
{"geometry": {"coordinates": [-96.4107482, 29.107133], "type": "Point"}, "id": "tBdHSqeWfv-STxlxxtFLKoHOUM8=", "properties": {"@source_uri": "https://tools.usps.com/UspsToolsRestServices/rest/POLocator/findLocations", "@spider": "usps_collection_boxes", "addr:city": "LOUISE", "addr:country": "US", "addr:postcode": "77455", "addr:state": "TX", "addr:street_address": "1000 N ST", "amenity": "post_box", "collection_times": "Mo-Fr 16:30; Sa 11:15", "note": "ON 12/24 AND 12/31, THIS BOX MAY BE COLLECTED AS EARLY AS 12 NOON.", "nsi_id": "unitedstatespostalservice-a77078", "operator": "United States Postal Service", "operator:short": "USPS", "operator:type": "public", "operator:wikidata": "Q668687", "ref": "7745500000"}, "type": "Feature"}
{"geometry": {"coordinates": [-96.4426851, 29.1848792], "type": "Point"}, "id": "3zz96HjJBRlafgMU4NK1Ou78nYw=", "properties": {"@source_uri": "https://tools.usps.com/UspsToolsRestServices/rest/POLocator/findLocations", "@spider": "usps_collection_boxes", "addr:city": "LOUISE", "addr:country": "US", "addr:postcode": "77455", "addr:state": "TX", "addr:street_address": "1000 N ST", "amenity": "post_box", "collection_times": "Mo-Fr 16:30; Sa 11:15", "note": "ON 12/24 AND 12/31, THIS BOX MAY BE COLLECTED AS EARLY AS 12 NOON.", "nsi_id": "unitedstatespostalservice-a77078", "operator": "United States Postal Service", "operator:short": "USPS", "operator:type": "public", "operator:wikidata": "Q668687", "ref": "7745500001"}, "type": "Feature"}
{"geometry": {"coordinates": [-96.404062, 29.1313871], "type": "Point"}, "id": "9gYdBW8hXa4i04mLywYo67jMgbg=", "properties": {"@source_uri": "https://tools.usps.com/UspsToolsRestServices/rest/POLocator/findLocations", "@spider": "usps_collection_boxes", "addr:city": "LOUISE", "addr:country": "US", "addr:postcode": "77455", "addr:state": "TX", "addr:street_address": "1000 N ST", "amenity": "post_box", "collection_times": "Mo-Fr 16:30; Sa 11:00", "indoor": "yes", "note": "ON 12/24 AND 12/31, THIS BOX MAY BE COLLECTED AS EARLY AS 12 NOON.", "nsi_id": "unitedstatespostalservice-a77078", "operator": "United States Postal Service", "operator:short": "USPS", "operator:type": "public", "operator:wikidata": "Q668687", "ref": "7745500003"}, "type": "Feature"}
{"geometry": {"coordinates": [-96.067415, 28.963215], "type": "Point"}, "id": "qXKzWbG02HkrtXc6dBaB-fHlif8=", "properties": {"@source_uri": "https://tools.usps.com/UspsToolsRestServices/rest/POLocator/findLocations", "@spider": "usps_collection_boxes", "addr:city": "MARKHAM", "addr:country": "US", "addr:postcode": "77456", "addr:state": "TX", "addr:street_address": "610 BROADWAY ST", "amenity": "post_box", "collection_times": "Mo-Fr 14:45; Sa 11:45", "indoor": "yes", "note": "ON 12/24 AND 12/31, THIS BOX MAY BE COLLECTED AS EARLY AS 12 NOON.", "nsi_id": "unitedstatespostalservice-a77078", "operator": "United States Postal Service", "operator:short": "USPS", "operator:type": "public", "operator:wikidata": "Q668687", "ref": "7745600000"}, "type": "Feature"}
{"geometry": {"coordinates": [-96.0675407, 28.9633395], "type": "Point"}, "id": "-eCzMK7tcvVYRTM58ehuMo6XbUo=", "properties": {"@source_uri": "https://tools.usps.com/UspsToolsRestServices/rest/POLocator/findLocations", "@spider": "usps_collection_boxes", "addr:city": "MARKHAM", "addr:country": "US", "addr:postcode": "77456", "addr:state": "TX", "addr:street_address": "610 BROADWAY ST", "amenity": "post_box", "collection_times": "Mo-Fr 14:45; Sa 11:45", "note": "ON 12/24 AND 12/31, THIS BOX MAY BE COLLECTED AS EARLY AS 12 NOON.", "nsi_id": "unitedstatespostalservice-a77078", "operator": "United States Postal Service", "operator:short": "USPS", "operator:type": "public", "operator:wikidata": "Q668687", "ref": "7745600001"}, "type": "Feature"}
{"geometry": {"coordinates": [-96.067439064, 28.963234256], "type": "Point"}, "id": "EhOBAtEUm4T88v5r_dZdOplFEo0=", "properties": {"@source_uri": "https://tools.usps.com/UspsToolsRestServices/rest/POLocator/findLocations", "@spider": "usps_collection_boxes", "addr:city": "MARKHAM", "addr:country": "US", "addr:postcode": "77456", "addr:state": "TX", "addr:street_address": "610 BROADWAY ST", "amenity": "post_box", "collection_times": "Mo-Fr 15:00; Sa 12:00", "indoor": "yes", "note": "ON 12/24 AND 12/31, THIS BOX MAY BE COLLECTED AS EARLY AS 12 NOON.", "nsi_id": "unitedstatespostalservice-a77078", "operator": "United States Postal Service", "operator:short": "USPS", "operator:type": "public", "operator:wikidata": "Q668687", "ref": "7745600002"}, "type": "Feature"}
{"geometry": {"coordinates": [-96.213967, 28.937955], "type": "Point"}, "id": "-KAA6r2JCbtu91Qqg9oNsxaD9vA=", "properties": {"@source_uri": "https://tools.usps.com/UspsToolsRestServices/rest/POLocator/findLocations", "@spider": "usps_collection_boxes", "addr:city": "MIDFIELD", "addr:country": "US", "addr:postcode": "77458", "addr:state": "TX", "addr:street_address": "275 JUNETTA AVE", "amenity": "post_box", "collection_times": "Mo-Fr 14:45; Sa 11:45", "note": "ON 12/24 AND 12/31, THIS BOX MAY BE COLLECTED AS EARLY AS 12 NOON.", "nsi_id": "unitedstatespostalservice-a77078", "operator": "United States Postal Service", "operator:short": "USPS", "operator:type": "public", "operator:wikidata": "Q668687", "ref": "7745800000"}, "type": "Feature"}
{"geometry": {"coordinates": [-96.213937, 28.937879], "type": "Point"}, "id": "ETRmL5x4nQ_ijgKbPMoInUhinLw=", "properties": {"@source_uri": "https://tools.usps.com/UspsToolsRestServices/rest/POLocator/findLocations", "@spider": "usps_collection_boxes", "addr:city": "MIDFIELD", "addr:country": "US", "addr:postcode": "77458", "addr:state": "TX", "addr:street_address": "275 JUNETTA AVE", "amenity": "post_box", "collection_times": "Mo-Fr 14:45; Sa 11:45", "indoor": "yes", "note": "ON 12/24 AND 12/31, THIS BOX MAY BE COLLECTED AS EARLY AS 12 NOON.", "nsi_id": "unitedstatespostalservice-a77078", "operator": "United States Postal Service", "operator:short": "USPS", "operator:type": "public", "operator:wikidata": "Q668687", "ref": "7745800001"}, "type": "Feature"}
{"geometry": {"coordinates": [-96.213986516, 28.938486847], "type": "Point"}, "id": "2GZ1x4NEPEPzpO0fcPnufDZhucw=", "properties": {"@source_uri": "https://tools.usps.com/UspsToolsRestServices/rest/POLocator/findLocations", "@spider": "usps_collection_boxes", "addr:city": "MIDFIELD", "addr:country": "US", "addr:postcode": "77458", "addr:state": "TX", "addr:street_address": "275 JUNETTA AVE", "amenity": "post_box", "collection_times": "Mo-Fr 15:00; Sa 12:00", "indoor": "yes", "note": "ON 12/24 AND 12/31, THIS BOX MAY BE COLLECTED AS EARLY AS 12 NOON.", "nsi_id": "unitedstatespostalservice-a77078", "operator": "United States Postal Service", "operator:short": "USPS", "operator:type": "public", "operator:wikidata": "Q668687", "ref": "7745800004"}, "type": "Feature"}
{"geometry": {"coordinates": [-95.5632364, 29.568112], "type": "Point"}, "id": "j-RV6FYAXQYrStzZqARz-dd6aTA=", "properties": {"@source_uri": "https://tools.usps.com/UspsToolsRestServices/rest/POLocator/findLocations", "@spider": "usps_collection_boxes", "addr:city": "MISSOURI CITY", "addr:country": "US", "addr:postcode": "77459", "addr:state": "TX", "addr:street_address": "3660 HAMPTON DR", "amenity": "post_box", "collection_times": "Mo-Fr 14:30", "note": "ON 12/24 AND 12/31, THIS BOX MAY BE COLLECTED AS EARLY AS 12 NOON.", "nsi_id": "unitedstatespostalservice-a77078", "operator": "United States Postal Service", "operator:short": "USPS", "operator:type": "public", "operator:wikidata": "Q668687", "ref": "7745900000"}, "type": "Feature"}
{"geometry": {"coordinates": [-95.5649953, 29.570246], "type": "Point"}, "id": "tbLE-xKFnSkHQQuCfsAxxGAGRhw=", "properties": {"@source_uri": "https://tools.usps.com/UspsToolsRestServices/rest/POLocator/findLocations", "@spider": "usps_collection_boxes", "addr:city": "MISSOURI CITY", "addr:country": "US", "addr:postcode": "77459", "addr:state": "TX", "addr:street_address": "3434 FM 1092 RD", "amenity": "post_box", "collection_times": "Mo-Fr 13:45", "note": "ON 12/24 AND 12/31, THIS BOX MAY BE COLLECTED AS EARLY AS 12 NOON.", "nsi_id": "unitedstatespostalservice-a77078", "operator": "United States Postal Service", "operator:short": "USPS", "operator:type": "public", "operator:wikidata": "Q668687", "ref": "7745900001"}, "type": "Feature"}
{"geometry": {"coordinates": [-95.526819, 29.598322], "type": "Point"}, "id": "bLglXLfymuf6O2m6jOL3GgkMS2w=", "properties": {"@source_uri": "https://tools.usps.com/UspsToolsRestServices/rest/POLocator/findLocations", "@spider": "usps_collection_boxes", "addr:city": "MISSOURI CITY", "addr:country": "US", "addr:postcode": "77459", "addr:state": "TX", "addr:street_address": "1902 TEXAS PKWY", "amenity": "post_box", "collection_times": "Mo-Fr 17:00; Sa 15:45", "indoor": "yes", "note": "ON 12/24 AND 12/31, THIS BOX MAY BE COLLECTED AS EARLY AS 12 NOON.", "nsi_id": "unitedstatespostalservice-a77078", "operator": "United States Postal Service", "operator:short": "USPS", "operator:type": "public", "operator:wikidata": "Q668687", "ref": "7745900018"}, "type": "Feature"}
{"geometry": {"coordinates": [-95.526819, 29.598323], "type": "Point"}, "id": "M2aFjxOQtAXIc_1OGqgkfoV2KvM=", "properties": {"@source_uri": "https://tools.usps.com/UspsToolsRestServices/rest/POLocator/findLocations", "@spider": "usps_collection_boxes", "addr:city": "MISSOURI CITY", "addr:country": "US", "addr:postcode": "77459", "addr:state": "TX", "addr:street_address": "1902 TEXAS PKWY", "amenity": "post_box", "collection_times": "Mo-Fr 17:00; Sa 15:45", "note": "ON 12/24 AND 12/31, THIS BOX MAY BE COLLECTED AS EARLY AS 12 NOON.", "nsi_id": "unitedstatespostalservice-a77078", "operator": "United States Postal Service", "operator:short": "USPS", "operator:type": "public", "operator:wikidata": "Q668687", "ref": "7745900019"}, "type": "Feature"}
{"geometry": {"coordinates": [-95.550115, 29.58205], "type": "Point"}, "id": "RHoVfb89I9w0WoEr8xi28YLCCDQ=", "properties": {"@source_uri": "https://tools.usps.com/UspsToolsRestServices/rest/POLocator/findLocations", "@spider": "usps_collection_boxes", "addr:city": "MISSOURI CITY", "addr:country": "US", "addr:postcode": "77459", "addr:state": "TX", "addr:street_address": "5819 HIGHWAY 6", "amenity": "post_box", "collection_times": "Mo-Fr 14:45", "note": "ON 12/24 AND 12/31, THIS BOX MAY BE COLLECTED AS EARLY AS 12 NOON.", "nsi_id": "unitedstatespostalservice-a77078", "operator": "United States Postal Service", "operator:short": "USPS", "operator:type": "public", "operator:wikidata": "Q668687", "ref": "7745900021"}, "type": "Feature"}
{"geometry": {"coordinates": [-95.561802, 29.563669], "type": "Point"}, "id": "4McdmepbQf8wXiY8lHkKhDZLYrs=", "properties": {"@source_uri": "https://tools.usps.com/UspsToolsRestServices/rest/POLocator/findLocations", "@spider": "usps_collection_boxes", "addr:city": "MISSOURI CITY", "addr:country": "US", "addr:postcode": "77459", "addr:state": "TX", "addr:street_address": "3701 GLENN LAKES LN", "amenity": "post_box", "collection_times": "Mo-Fr 17:00; Sa 15:30", "indoor": "yes", "note": "ON 12/24 AND 12/31, THIS BOX MAY BE COLLECTED AS EARLY AS 12 NOON.", "nsi_id": "unitedstatespostalservice-a77078", "operator": "United States Postal Service", "operator:short": "USPS", "operator:type": "public", "operator:wikidata": "Q668687", "ref": "7745900026"}, "type": "Feature"}
{"geometry": {"coordinates": [-95.561802, 29.563669], "type": "Point"}, "id": "hfNlbC0YETsXfTxoH0TvWFRRmFI=", "properties": {"@source_uri": "https://tools.usps.com/UspsToolsRestServices/rest/POLocator/findLocations", "@spider": "usps_collection_boxes", "addr:city": "MISSOURI CITY", "addr:country": "US", "addr:postcode": "77459", "addr:state": "TX", "addr:street_address": "3701 GLENN LAKES LN", "amenity": "post_box", "collection_times": "Mo-Fr 17:00; Sa 15:30", "indoor": "yes", "note": "ON 12/24 AND 12/31, THIS BOX MAY BE COLLECTED AS EARLY AS 12 NOON.", "nsi_id": "unitedstatespostalservice-a77078", "operator": "United States Postal Service", "operator:short": "USPS", "operator:type": "public", "operator:wikidata": "Q668687", "ref": "7745900027"}, "type": "Feature"}
{"geometry": {"coordinates": [-95.5638880076, 29.5615309801], "type": "Point"}, "id": "a2xDt76UYmVSLz_vMpcjIyxHdug=", "properties": {"@source_uri": "https://tools.usps.com/UspsToolsRestServices/rest/POLocator/findLocations", "@spider": "usps_collection_boxes", "addr:city": "MISSOURI CITY", "addr:country": "US", "addr:postcode": "77459", "addr:state": "TX", "addr:street_address": "3701 GLENN LAKES LN", "amenity": "post_box", "collection_times": "Mo-Fr 17:00; Sa 15:30", "note": "ON 12/24 AND 12/31, THIS BOX MAY BE COLLECTED AS EARLY AS 12 NOON.", "nsi_id": "unitedstatespostalservice-a77078", "operator": "United States Postal Service", "operator:short": "USPS", "operator:type": "public", "operator:wikidata": "Q668687", "ref": "7745900028"}, "type": "Feature"}
{"geometry": {"coordinates": [-96.382568, 29.389484], "type": "Point"}, "id": "sZH0nbViRDEfupHwvuiq2K-zCqw=", "properties": {"@source_uri": "https://tools.usps.com/UspsToolsRestServices/rest/POLocator/findLocations", "@spider": "usps_collection_boxes", "addr:city": "NADA", "addr:country": "US", "addr:postcode": "77460", "addr:state": "TX", "addr:street_address": "8423 HIGHWAY 71 S", "amenity": "post_box", "collection_times": "Mo-Fr 12:45; Sa 10:30", "indoor": "yes", "note": "ON 12/24 AND 12/31, THIS BOX MAY BE COLLECTED AS EARLY AS 12 NOON.", "nsi_id": "unitedstatespostalservice-a77078", "operator": "United States Postal Service", "operator:short": "USPS", "operator:type": "public", "operator:wikidata": "Q668687", "ref": "7746000001"}, "type": "Feature"}
{"geometry": {"coordinates": [-96.383071974, 29.391385948], "type": "Point"}, "id": "2qSDFlzLlYe1nMXBOQ8ftGNI19o=", "properties": {"@source_uri": "https://tools.usps.com/UspsToolsRestServices/rest/POLocator/findLocations", "@spider": "usps_collection_boxes", "addr:city": "NADA", "addr:country": "US", "addr:postcode": "77460", "addr:state": "TX", "addr:street_address": "8423 HIGHWAY 71 S", "amenity": "post_box", "collection_times": "Mo-Fr 13:00; Sa 10:30", "indoor": "yes", "note": "ON 12/24 AND 12/31, THIS BOX MAY BE COLLECTED AS EARLY AS 12 NOON.", "nsi_id": "unitedstatespostalservice-a77078", "operator": "United States Postal Service", "operator:short": "USPS", "operator:type": "public", "operator:wikidata": "Q668687", "ref": "7746000003"}, "type": "Feature"}
{"geometry": {"coordinates": [-95.835901, 29.401152], "type": "Point"}, "id": "8VQlMN454c-vo27R1rlcSP5ycLo=", "properties": {"@source_uri": "https://tools.usps.com/UspsToolsRestServices/rest/POLocator/findLocations", "@spider": "usps_collection_boxes", "addr:city": "NEEDVILLE", "addr:country": "US", "addr:postcode": "77461", "addr:state": "TX", "addr:street_address": "3000 SCHOOL ST", "amenity": "post_box", "collection_times": "Mo-Fr 16:00; Sa 11:45", "note": "ON 12/24 AND 12/31, THIS BOX MAY BE COLLECTED AS EARLY AS 12 NOON.", "nsi_id": "unitedstatespostalservice-a77078", "operator": "United States Postal Service", "operator:short": "USPS", "operator:type": "public", "operator:wikidata": "Q668687", "ref": "7746100002"}, "type": "Feature"}
{"geometry": {"coordinates": [-95.6419509162, 29.3522766684], "type": "Point"}, "id": "V8vEdPXMgzSPOO5frIOfvZ23ifI=", "properties": {"@source_uri": "https://tools.usps.com/UspsToolsRestServices/rest/POLocator/findLocations", "@spider": "usps_collection_boxes", "addr:city": "NEEDVILLE", "addr:country": "US", "addr:postcode": "77461", "addr:state": "TX", "addr:street_address": "22934 FM 762 RD", "amenity": "post_box", "collection_times": "Mo-Sa 13:00", "note": "ON 12/24 AND 12/31, THIS BOX MAY BE COLLECTED AS EARLY AS 12 NOON.", "nsi_id": "unitedstatespostalservice-a77078", "operator": "United States Postal Service", "operator:short": "USPS", "operator:type": "public", "operator:wikidata": "Q668687", "ref": "7746100006"}, "type": "Feature"}
{"geometry": {"coordinates": [-95.83754, 29.39896], "type": "Point"}, "id": "pq7N1Ldljg3yv1zPAXjX-7bITtM=", "properties": {"@source_uri": "https://tools.usps.com/UspsToolsRestServices/rest/POLocator/findLocations", "@spider": "usps_collection_boxes", "addr:city": "NEEDVILLE", "addr:country": "US", "addr:postcode": "77461", "addr:state": "TX", "addr:street_address": "3000 SCHOOL ST", "amenity": "post_box", "collection_times": "Mo-Fr 16:00; Sa 11:45", "indoor": "yes", "note": "ON 12/24 AND 12/31, THIS BOX MAY BE COLLECTED AS EARLY AS 12 NOON.", "nsi_id": "unitedstatespostalservice-a77078", "operator": "United States Postal Service", "operator:short": "USPS", "operator:type": "public", "operator:wikidata": "Q668687", "ref": "7746100008"}, "type": "Feature"}
{"geometry": {"coordinates": [-95.83754, 29.39896], "type": "Point"}, "id": "CFrhGqmnvmX7CA8P23dVUGk0ioI=", "properties": {"@source_uri": "https://tools.usps.com/UspsToolsRestServices/rest/POLocator/findLocations", "@spider": "usps_collection_boxes", "addr:city": "NEEDVILLE", "addr:country": "US", "addr:postcode": "77461", "addr:state": "TX", "addr:street_address": "3000 SCHOOL ST", "amenity": "post_box", "collection_times": "Mo-Fr 16:00; Sa 11:45", "indoor": "yes", "note": "ON 12/24 AND 12/31, THIS BOX MAY BE COLLECTED AS EARLY AS 12 NOON.", "nsi_id": "unitedstatespostalservice-a77078", "operator": "United States Postal Service", "operator:short": "USPS", "operator:type": "public", "operator:wikidata": "Q668687", "ref": "7746100009"}, "type": "Feature"}
{"geometry": {"coordinates": [-95.83754, 29.39896], "type": "Point"}, "id": "wRccOIkRvD_BVdr1nKvSgC-OskE=", "properties": {"@source_uri": "https://tools.usps.com/UspsToolsRestServices/rest/POLocator/findLocations", "@spider": "usps_collection_boxes", "addr:city": "NEEDVILLE", "addr:country": "US", "addr:postcode": "77461", "addr:state": "TX", "addr:street_address": "3000 SCHOOL ST", "amenity": "post_box", "collection_times": "Mo-Fr 16:00; Sa 11:45", "indoor": "yes", "note": "ON 12/24 AND 12/31, THIS BOX MAY BE COLLECTED AS EARLY AS 12 NOON.", "nsi_id": "unitedstatespostalservice-a77078", "operator": "United States Postal Service", "operator:short": "USPS", "operator:type": "public", "operator:wikidata": "Q668687", "ref": "7746100010"}, "type": "Feature"}
{"geometry": {"coordinates": [-95.9709726497, 29.6002805151], "type": "Point"}, "id": "TPehYUPmFqeynlJwXEZgiQRNk64=", "properties": {"@source_uri": "https://tools.usps.com/UspsToolsRestServices/rest/POLocator/findLocations", "@spider": "usps_collection_boxes", "addr:city": "ORCHARD", "addr:country": "US", "addr:postcode": "77464", "addr:state": "TX", "addr:street_address": "218 MISSOURI ST", "amenity": "post_box", "collection_times": "Mo-Fr 11:45; Sa 11:30", "nsi_id": "unitedstatespostalservice-a77078", "operator": "United States Postal Service", "operator:short": "USPS", "operator:type": "public", "operator:wikidata": "Q668687", "ref": "7746400000"}, "type": "Feature"}
{"geometry": {"coordinates": [-95.97091, 29.600518], "type": "Point"}, "id": "A9sEM5FGH9YVfpcQXT96XpFFoOk=", "properties": {"@source_uri": "https://tools.usps.com/UspsToolsRestServices/rest/POLocator/findLocations", "@spider": "usps_collection_boxes", "addr:city": "ORCHARD", "addr:country": "US", "addr:postcode": "77464", "addr:state": "TX", "addr:street_address": "218 MISSOURI", "amenity": "post_box", "collection_times": "Mo-Fr 11:45; Sa 11:30", "indoor": "yes", "nsi_id": "unitedstatespostalservice-a77078", "operator": "United States Postal Service", "operator:short": "USPS", "operator:type": "public", "operator:wikidata": "Q668687", "ref": "7746400001"}, "type": "Feature"}
{"geometry": {"coordinates": [-95.97091, 29.600518], "type": "Point"}, "id": "UwEggDIJl9xzWs37pZ5TL9t2pDw=", "properties": {"@source_uri": "https://tools.usps.com/UspsToolsRestServices/rest/POLocator/findLocations", "@spider": "usps_collection_boxes", "addr:city": "ORCHARD", "addr:country": "US", "addr:postcode": "77464", "addr:state": "TX", "addr:street_address": "218 MISSOURI", "amenity": "post_box", "collection_times": "Mo-Fr 11:45; Sa 11:30", "indoor": "yes", "nsi_id": "unitedstatespostalservice-a77078", "operator": "United States Postal Service", "operator:short": "USPS", "operator:type": "public", "operator:wikidata": "Q668687", "ref": "7746400002"}, "type": "Feature"}
{"geometry": {"coordinates": [-95.97096511, 29.60027278], "type": "Point"}, "id": "Yuz54jV89HQLdZPXPLIdyxUBM7M=", "properties": {"@source_uri": "https://tools.usps.com/UspsToolsRestServices/rest/POLocator/findLocations", "@spider": "usps_collection_boxes", "addr:city": "ORCHARD", "addr:country": "US", "addr:postcode": "77464", "addr:state": "TX", "addr:street_address": "218 MISSOURI", "amenity": "post_box", "collection_times": "Mo-Fr 12:00; Sa 11:30", "indoor": "yes", "nsi_id": "unitedstatespostalservice-a77078", "operator": "United States Postal Service", "operator:short": "USPS", "operator:type": "public", "operator:wikidata": "Q668687", "ref": "7746400004"}, "type": "Feature"}
{"geometry": {"coordinates": [-96.218969, 28.713881], "type": "Point"}, "id": "HPTz-3ZssYYDNpIuSlc_N1pKigQ=", "properties": {"@source_uri": "https://tools.usps.com/UspsToolsRestServices/rest/POLocator/findLocations", "@spider": "usps_collection_boxes", "addr:city": "PALACIOS", "addr:country": "US", "addr:postcode": "77465", "addr:state": "TX", "addr:street_address": "700 HENDERSON ST", "amenity": "post_box", "collection_times": "Mo-Fr 16:15; Sa 16:00", "indoor": "yes", "note": "ON 12/24 AND 12/31, THIS BOX MAY BE COLLECTED AS EARLY AS 12 NOON.", "nsi_id": "unitedstatespostalservice-a77078", "operator": "United States Postal Service", "operator:short": "USPS", "operator:type": "public", "operator:wikidata": "Q668687", "ref": "7746500004"}, "type": "Feature"}
{"geometry": {"coordinates": [-96.218934829, 28.713917329], "type": "Point"}, "id": "UCc6NNgW_hJdnRuHE5kidZLC4vM=", "properties": {"@source_uri": "https://tools.usps.com/UspsToolsRestServices/rest/POLocator/findLocations", "@spider": "usps_collection_boxes", "addr:city": "PALACIOS", "addr:country": "US", "addr:postcode": "77465", "addr:state": "TX", "addr:street_address": "700 HENDERSON ST", "amenity": "post_box", "collection_times": "Mo-Fr 16:15; Sa 16:00", "note": "ON 12/24 AND 12/31, THIS BOX MAY BE COLLECTED AS EARLY AS 12 NOON.", "nsi_id": "unitedstatespostalservice-a77078", "operator": "United States Postal Service", "operator:short": "USPS", "operator:type": "public", "operator:wikidata": "Q668687", "ref": "7746500005"}, "type": "Feature"}
{"geometry": {"coordinates": [-96.218939206, 28.713908206], "type": "Point"}, "id": "snhh6qKyiwWm1UF1-mKGlofB1sM=", "properties": {"@source_uri": "https://tools.usps.com/UspsToolsRestServices/rest/POLocator/findLocations", "@spider": "usps_collection_boxes", "addr:city": "PALACIOS", "addr:country": "US", "addr:postcode": "77465", "addr:state": "TX", "addr:street_address": "700 HENDERSON ST", "amenity": "post_box", "collection_times": "Mo-Fr 16:00; Sa 12:00", "indoor": "yes", "note": "ON 12/24 AND 12/31, THIS BOX MAY BE COLLECTED AS EARLY AS 12 NOON.", "nsi_id": "unitedstatespostalservice-a77078", "operator": "United States Postal Service", "operator:short": "USPS", "operator:type": "public", "operator:wikidata": "Q668687", "ref": "7746500007"}, "type": "Feature"}
{"geometry": {"coordinates": [-95.993013, 29.82435], "type": "Point"}, "id": "iVm3pbcixuzKFkjZFZDPoCdyXyM=", "properties": {"@source_uri": "https://tools.usps.com/UspsToolsRestServices/rest/POLocator/findLocations", "@spider": "usps_collection_boxes", "addr:city": "PATTISON", "addr:country": "US", "addr:postcode": "77466", "addr:state": "TX", "addr:street_address": "3637 2ND ST", "amenity": "post_box", "collection_times": "Mo-Fr 16:30; Sa 11:00", "note": "ON 12/24 AND 12/31, THIS BOX MAY BE COLLECTED AS EARLY AS 12 NOON.", "nsi_id": "unitedstatespostalservice-a77078", "operator": "United States Postal Service", "operator:short": "USPS", "operator:type": "public", "operator:wikidata": "Q668687", "ref": "7746600000"}, "type": "Feature"}
{"geometry": {"coordinates": [-95.992973, 29.824362], "type": "Point"}, "id": "3ThuRxTR_-1_4GWMBE4zVrCo4uA=", "properties": {"@source_uri": "https://tools.usps.com/UspsToolsRestServices/rest/POLocator/findLocations", "@spider": "usps_collection_boxes", "addr:city": "PATTISON", "addr:country": "US", "addr:postcode": "77466", "addr:state": "TX", "addr:street_address": "3637 2ND ST", "amenity": "post_box", "collection_times": "Mo-Fr 16:30; Sa 11:00", "indoor": "yes", "note": "ON 12/24 AND 12/31, THIS BOX MAY BE COLLECTED AS EARLY AS 12 NOON.", "nsi_id": "unitedstatespostalservice-a77078", "operator": "United States Postal Service", "operator:short": "USPS", "operator:type": "public", "operator:wikidata": "Q668687", "ref": "7746600001"}, "type": "Feature"}
{"geometry": {"coordinates": [-95.990380814, 29.821633883], "type": "Point"}, "id": "UxDmcIIIMgCw2cOgF2n4LQCIguo=", "properties": {"@source_uri": "https://tools.usps.com/UspsToolsRestServices/rest/POLocator/findLocations", "@spider": "usps_collection_boxes", "addr:city": "PATTISON", "addr:country": "US", "addr:postcode": "77466", "addr:state": "TX", "addr:street_address": "3637 2ND ST", "amenity": "post_box", "collection_times": "Mo-Fr 16:30; Sa 11:00", "indoor": "yes", "note": "ON 12/24 AND 12/31, THIS BOX MAY BE COLLECTED AS EARLY AS 12 NOON.", "nsi_id": "unitedstatespostalservice-a77078", "operator": "United States Postal Service", "operator:short": "USPS", "operator:type": "public", "operator:wikidata": "Q668687", "ref": "7746600003"}, "type": "Feature"}
{"geometry": {"coordinates": [-96.2012231628, 29.2400091253], "type": "Point"}, "id": "OvYF8-FVJl0_Cm0yXvoQ_G0E28M=", "properties": {"@source_uri": "https://tools.usps.com/UspsToolsRestServices/rest/POLocator/findLocations", "@spider": "usps_collection_boxes", "addr:city": "PIERCE", "addr:country": "US", "addr:postcode": "77467", "addr:state": "TX", "addr:street_address": "18566 LOOP 526 HWY", "amenity": "post_box", "collection_times": "Mo-Fr 09:45; Sa 09:00", "nsi_id": "unitedstatespostalservice-a77078", "operator": "United States Postal Service", "operator:short": "USPS", "operator:type": "public", "operator:wikidata": "Q668687", "ref": "7746700000"}, "type": "Feature"}
{"geometry": {"coordinates": [-96.2012231628, 29.2400091253], "type": "Point"}, "id": "tYNM4fBkjAH3ZNymUng1JWZNuzA=", "properties": {"@source_uri": "https://tools.usps.com/UspsToolsRestServices/rest/POLocator/findLocations", "@spider": "usps_collection_boxes", "addr:city": "PIERCE", "addr:country": "US", "addr:postcode": "77467", "addr:state": "TX", "addr:street_address": "18566 LOOP 526 HWY", "amenity": "post_box", "collection_times": "Mo-Fr 09:45; Sa 09:00", "indoor": "yes", "nsi_id": "unitedstatespostalservice-a77078", "operator": "United States Postal Service", "operator:short": "USPS", "operator:type": "public", "operator:wikidata": "Q668687", "ref": "7746700001"}, "type": "Feature"}
{"geometry": {"coordinates": [-96.200812177, 29.2383024873], "type": "Point"}, "id": "WyCXNd-dS11j9GfkQVkFv7DiyXg=", "properties": {"@source_uri": "https://tools.usps.com/UspsToolsRestServices/rest/POLocator/findLocations", "@spider": "usps_collection_boxes", "addr:city": "PIERCE", "addr:country": "US", "addr:postcode": "77467", "addr:state": "TX", "addr:street_address": "18566 LOOP 526 HWY", "amenity": "post_box", "collection_times": "Mo-Fr 10:00", "indoor": "yes", "nsi_id": "unitedstatespostalservice-a77078", "operator": "United States Postal Service", "operator:short": "USPS", "operator:type": "public", "operator:wikidata": "Q668687", "ref": "7746700003"}, "type": "Feature"}
{"geometry": {"coordinates": [-95.9089410379, 29.1826159829], "type": "Point"}, "id": "0ZTF8X6ipcumkaCnWl-WRqczFy4=", "properties": {"@source_uri": "https://tools.usps.com/UspsToolsRestServices/rest/POLocator/findLocations", "@spider": "usps_collection_boxes", "addr:city": "PLEDGER", "addr:country": "US", "addr:postcode": "77468", "addr:state": "TX", "addr:street_address": "9463 FM 1728 RD", "amenity": "post_box", "collection_times": "Mo-Fr 13:45; Sa 11:45", "note": "ON 12/24 AND 12/31, THIS BOX MAY BE COLLECTED AS EARLY AS 12 NOON.", "nsi_id": "unitedstatespostalservice-a77078", "operator": "United States Postal Service", "operator:short": "USPS", "operator:type": "public", "operator:wikidata": "Q668687", "ref": "7746800000"}, "type": "Feature"}
{"geometry": {"coordinates": [-95.9089410379, 29.1826159829], "type": "Point"}, "id": "E9HK_wS2zpdrGlXUZeuxLJo8dec=", "properties": {"@source_uri": "https://tools.usps.com/UspsToolsRestServices/rest/POLocator/findLocations", "@spider": "usps_collection_boxes", "addr:city": "PLEDGER", "addr:country": "US", "addr:postcode": "77468", "addr:state": "TX", "addr:street_address": "9463 FM 1728 RD", "amenity": "post_box", "collection_times": "Mo-Fr 13:45; Sa 11:45", "indoor": "yes", "note": "ON 12/24 AND 12/31, THIS BOX MAY BE COLLECTED AS EARLY AS 12 NOON.", "nsi_id": "unitedstatespostalservice-a77078", "operator": "United States Postal Service", "operator:short": "USPS", "operator:type": "public", "operator:wikidata": "Q668687", "ref": "7746800001"}, "type": "Feature"}
{"geometry": {"coordinates": [-95.9089410379, 29.1826159829], "type": "Point"}, "id": "NK3SRXAYLjU_anTgKayMA6pj6ig=", "properties": {"@source_uri": "https://tools.usps.com/UspsToolsRestServices/rest/POLocator/findLocations", "@spider": "usps_collection_boxes", "addr:city": "PLEDGER", "addr:country": "US", "addr:postcode": "77468", "addr:state": "TX", "addr:street_address": "9463 FM 1728 RD", "amenity": "post_box", "collection_times": "Mo-Fr 14:00; Sa 12:00", "indoor": "yes", "note": "ON 12/24 AND 12/31, THIS BOX MAY BE COLLECTED AS EARLY AS 12 NOON.", "nsi_id": "unitedstatespostalservice-a77078", "operator": "United States Postal Service", "operator:short": "USPS", "operator:type": "public", "operator:wikidata": "Q668687", "ref": "7746800002"}, "type": "Feature"}
{"geometry": {"coordinates": [-95.7642825126, 29.5818103463], "type": "Point"}, "id": "thWK6quAlKRX_ZxJRTTKtciAc08=", "properties": {"@source_uri": "https://tools.usps.com/UspsToolsRestServices/rest/POLocator/findLocations", "@spider": "usps_collection_boxes", "addr:city": "RICHMOND", "addr:country": "US", "addr:postcode": "77469", "addr:state": "TX", "addr:street_address": "701 MORTON ST", "amenity": "post_box", "collection_times": "Mo-Fr 14:00", "note": "ON 12/24 AND 12/31, THIS BOX MAY BE COLLECTED AS EARLY AS 12 NOON.", "nsi_id": "unitedstatespostalservice-a77078", "operator": "United States Postal Service", "operator:short": "USPS", "operator:type": "public", "operator:wikidata": "Q668687", "ref": "7746900001"}, "type": "Feature"}
{"geometry": {"coordinates": [-95.7424007, 29.62316], "type": "Point"}, "id": "FznSuGapeNI3BX6BstPX3lg6b5Y=", "properties": {"@source_uri": "https://tools.usps.com/UspsToolsRestServices/rest/POLocator/findLocations", "@spider": "usps_collection_boxes", "addr:city": "RICHMOND", "addr:country": "US", "addr:postcode": "77469", "addr:state": "TX", "addr:street_address": "3001 PLANTATION DR", "amenity": "post_box", "collection_times": "Mo-Fr 14:15", "note": "ON 12/24 AND 12/31, THIS BOX MAY BE COLLECTED AS EARLY AS 12 NOON.", "nsi_id": "unitedstatespostalservice-a77078", "operator": "United States Postal Service", "operator:short": "USPS", "operator:type": "public", "operator:wikidata": "Q668687", "ref": "7746900005"}, "type": "Feature"}
{"geometry": {"coordinates": [-95.7696749, 29.576988], "type": "Point"}, "id": "bQG7ynla5Af1zwXf3fmoqbYc_C8=", "properties": {"@source_uri": "https://tools.usps.com/UspsToolsRestServices/rest/POLocator/findLocations", "@spider": "usps_collection_boxes", "addr:city": "RICHMOND", "addr:country": "US", "addr:postcode": "77469", "addr:state": "TX", "addr:street_address": "1601 JACKSON ST", "amenity": "post_box", "collection_times": "Mo-Fr 13:45", "note": "ON 12/24 AND 12/31, THIS BOX MAY BE COLLECTED AS EARLY AS 12 NOON.", "nsi_id": "unitedstatespostalservice-a77078", "operator": "United States Postal Service", "operator:short": "USPS", "operator:type": "public", "operator:wikidata": "Q668687", "ref": "7746900007"}, "type": "Feature"}
{"geometry": {"coordinates": [-95.7651373, 29.5807031], "type": "Point"}, "id": "gSqix3iqJysQgEjiEiNLvaDN4yg=", "properties": {"@source_uri": "https://tools.usps.com/UspsToolsRestServices/rest/POLocator/findLocations", "@spider": "usps_collection_boxes", "addr:city": "RICHMOND", "addr:country": "US", "addr:postcode": "77469", "addr:state": "TX", "addr:street_address": "5560 FM 1640 RD", "amenity": "post_box", "collection_times": "Mo-Sa 17:00", "note": "ON 12/24 AND 12/31, THIS BOX MAY BE COLLECTED AS EARLY AS 12 NOON.", "nsi_id": "unitedstatespostalservice-a77078", "operator": "United States Postal Service", "operator:short": "USPS", "operator:type": "public", "operator:wikidata": "Q668687", "ref": "7746900019"}, "type": "Feature"}
{"geometry": {"coordinates": [-95.759662, 29.561405], "type": "Point"}, "id": "M5i42PfF8R_MEYS09mj8fuR5IQk=", "properties": {"@source_uri": "https://tools.usps.com/UspsToolsRestServices/rest/POLocator/findLocations", "@spider": "usps_collection_boxes", "addr:city": "RICHMOND", "addr:country": "US", "addr:postcode": "77469", "addr:state": "TX", "addr:street_address": "5560 FM 1640 RD", "amenity": "post_box", "collection_times": "Mo-Sa 17:00", "indoor": "yes", "note": "ON 12/24 AND 12/31, THIS BOX MAY BE COLLECTED AS EARLY AS 12 NOON.", "nsi_id": "unitedstatespostalservice-a77078", "operator": "United States Postal Service", "operator:short": "USPS", "operator:type": "public", "operator:wikidata": "Q668687", "ref": "7746900023"}, "type": "Feature"}
{"geometry": {"coordinates": [-95.759662, 29.561405], "type": "Point"}, "id": "G0F_cm4a9QHY93ZULoklLD2kVvQ=", "properties": {"@source_uri": "https://tools.usps.com/UspsToolsRestServices/rest/POLocator/findLocations", "@spider": "usps_collection_boxes", "addr:city": "RICHMOND", "addr:country": "US", "addr:postcode": "77469", "addr:state": "TX", "addr:street_address": "5560 FM 1640 RD", "amenity": "post_box", "collection_times": "Mo-Sa 17:00", "indoor": "yes", "note": "ON 12/24 AND 12/31, THIS BOX MAY BE COLLECTED AS EARLY AS 12 NOON.", "nsi_id": "unitedstatespostalservice-a77078", "operator": "United States Postal Service", "operator:short": "USPS", "operator:type": "public", "operator:wikidata": "Q668687", "ref": "7746900024"}, "type": "Feature"}
{"geometry": {"coordinates": [-95.759662, 29.561405], "type": "Point"}, "id": "gWpW5k5qaAkt8-ApjOQ-e49QohU=", "properties": {"@source_uri": "https://tools.usps.com/UspsToolsRestServices/rest/POLocator/findLocations", "@spider": "usps_collection_boxes", "addr:city": "RICHMOND", "addr:country": "US", "addr:postcode": "77469", "addr:state": "TX", "addr:street_address": "5560 FM 1640 RD", "amenity": "post_box", "collection_times": "Mo-Sa 17:00", "name": "USPS COLLECTION BOX - APC", "note": "ON 12/24 AND 12/31, THIS BOX MAY BE COLLECTED AS EARLY AS 12 NOON.", "nsi_id": "unitedstatespostalservice-a77078", "operator": "United States Postal Service", "operator:short": "USPS", "operator:type": "public", "operator:wikidata": "Q668687", "ref": "7746900026"}, "type": "Feature"}
{"geometry": {"coordinates": [-95.760671514, 29.560318023], "type": "Point"}, "id": "yFu9L1Oq1hhlM2dZs7uZznFGxmE=", "properties": {"@source_uri": "https://tools.usps.com/UspsToolsRestServices/rest/POLocator/findLocations", "@spider": "usps_collection_boxes", "addr:city": "RICHMOND", "addr:country": "US", "addr:postcode": "77469", "addr:state": "TX", "addr:street_address": "5560 FM 1640 RD", "amenity": "post_box", "collection_times": "Mo-Fr 17:00; Sa 12:00", "indoor": "yes", "note": "ON 12/24 AND 12/31, THIS BOX MAY BE COLLECTED AS EARLY AS 12 NOON.", "nsi_id": "unitedstatespostalservice-a77078", "operator": "United States Postal Service", "operator:short": "USPS", "operator:type": "public", "operator:wikidata": "Q668687", "ref": "7746900031"}, "type": "Feature"}
{"geometry": {"coordinates": [-96.574345, 29.534081], "type": "Point"}, "id": "wEj7HWGHyvbrQShOEw-3qW0sMXY=", "properties": {"@source_uri": "https://tools.usps.com/UspsToolsRestServices/rest/POLocator/findLocations", "@spider": "usps_collection_boxes", "addr:city": "ROCK ISLAND", "addr:country": "US", "addr:postcode": "77470", "addr:state": "TX", "addr:street_address": "2215 TUTTLE ST", "amenity": "post_box", "collection_times": "Mo-Fr 12:15; Sa 11:30", "note": "ON 12/24 AND 12/31, THIS BOX MAY BE COLLECTED AS EARLY AS 12 NOON.", "nsi_id": "unitedstatespostalservice-a77078", "operator": "United States Postal Service", "operator:short": "USPS", "operator:type": "public", "operator:wikidata": "Q668687", "ref": "7747000000"}, "type": "Feature"}
{"geometry": {"coordinates": [-96.574378, 29.534145], "type": "Point"}, "id": "h2CJ2rZBKdOJeTm_DcX_fSOH7oQ=", "properties": {"@source_uri": "https://tools.usps.com/UspsToolsRestServices/rest/POLocator/findLocations", "@spider": "usps_collection_boxes", "addr:city": "ROCK ISLAND", "addr:country": "US", "addr:postcode": "77470", "addr:state": "TX", "addr:street_address": "2215 TUTTLE ST", "amenity": "post_box", "collection_times": "Mo-Fr 12:15; Sa 11:30", "indoor": "yes", "note": "ON 12/24 AND 12/31, THIS BOX MAY BE COLLECTED AS EARLY AS 12 NOON.", "nsi_id": "unitedstatespostalservice-a77078", "operator": "United States Postal Service", "operator:short": "USPS", "operator:type": "public", "operator:wikidata": "Q668687", "ref": "7747000001"}, "type": "Feature"}
{"geometry": {"coordinates": [-96.57434025, 29.534102798], "type": "Point"}, "id": "khkFmIUd4K9_c6e3uACF5Di9FrA=", "properties": {"@source_uri": "https://tools.usps.com/UspsToolsRestServices/rest/POLocator/findLocations", "@spider": "usps_collection_boxes", "addr:city": "ROCK ISLAND", "addr:country": "US", "addr:postcode": "77470", "addr:state": "TX", "addr:street_address": "2215 TUTTLE ST", "amenity": "post_box", "collection_times": "Mo-Fr 12:30; Sa 11:30", "indoor": "yes", "note": "ON 12/24 AND 12/31, THIS BOX MAY BE COLLECTED AS EARLY AS 12 NOON.", "nsi_id": "unitedstatespostalservice-a77078", "operator": "United States Postal Service", "operator:short": "USPS", "operator:type": "public", "operator:wikidata": "Q668687", "ref": "7747000002"}, "type": "Feature"}
{"geometry": {"coordinates": [-95.8053119647, 29.5596689822], "type": "Point"}, "id": "ry35KS7Rfw-1kW5pQB93N0mf4S0=", "properties": {"@source_uri": "https://tools.usps.com/UspsToolsRestServices/rest/POLocator/findLocations", "@spider": "usps_collection_boxes", "addr:city": "ROSENBERG", "addr:country": "US", "addr:postcode": "77471", "addr:state": "TX", "addr:street_address": "2103 AVENUE G", "amenity": "post_box", "collection_times": "Mo-Fr 17:00; Sa 15:30", "note": "ON 12/24 AND 12/31, THIS BOX MAY BE COLLECTED AS EARLY AS 12 NOON.", "nsi_id": "unitedstatespostalservice-a77078", "operator": "United States Postal Service", "operator:short": "USPS", "operator:type": "public", "operator:wikidata": "Q668687", "ref": "7747100000"}, "type": "Feature"}
{"geometry": {"coordinates": [-95.7844564, 29.552157], "type": "Point"}, "id": "_JB47eLmUf5xM_EzRxrgNijTKMU=", "properties": {"@source_uri": "https://tools.usps.com/UspsToolsRestServices/rest/POLocator/findLocations", "@spider": "usps_collection_boxes", "addr:city": "ROSENBERG", "addr:country": "US", "addr:postcode": "77471", "addr:state": "TX", "addr:street_address": "4005 AVENUE N", "amenity": "post_box", "collection_times": "Mo-Fr 12:00", "nsi_id": "unitedstatespostalservice-a77078", "operator": "United States Postal Service", "operator:short": "USPS", "operator:type": "public", "operator:wikidata": "Q668687", "ref": "7747100008"}, "type": "Feature"}
{"geometry": {"coordinates": [-95.7729510291, 29.5724730098], "type": "Point"}, "id": "1kz7YIyfxgYOX9y4GOM8-Fi-IB8=", "properties": {"@source_uri": "https://tools.usps.com/UspsToolsRestServices/rest/POLocator/findLocations", "@spider": "usps_collection_boxes", "addr:city": "ROSENBERG", "addr:country": "US", "addr:postcode": "77471", "addr:state": "TX", "addr:street_address": "117 LANE DR", "amenity": "post_box", "collection_times": "Mo-Fr 14:00", "note": "ON 12/24 AND 12/31, THIS BOX MAY BE COLLECTED AS EARLY AS 12 NOON.", "nsi_id": "unitedstatespostalservice-a77078", "operator": "United States Postal Service", "operator:short": "USPS", "operator:type": "public", "operator:wikidata": "Q668687", "ref": "7747100013"}, "type": "Feature"}
{"geometry": {"coordinates": [-95.80533, 29.559737], "type": "Point"}, "id": "2FHQveRWGAOD-c1-SGFD0ANVr7Q=", "properties": {"@source_uri": "https://tools.usps.com/UspsToolsRestServices/rest/POLocator/findLocations", "@spider": "usps_collection_boxes", "addr:city": "ROSENBERG", "addr:country": "US", "addr:postcode": "77471", "addr:state": "TX", "addr:street_address": "2103 AVENUE G", "amenity": "post_box", "collection_times": "Mo-Fr 17:00; Sa 15:30", "indoor": "yes", "note": "ON 12/24 AND 12/31, THIS BOX MAY BE COLLECTED AS EARLY AS 12 NOON.", "nsi_id": "unitedstatespostalservice-a77078", "operator": "United States Postal Service", "operator:short": "USPS", "operator:type": "public", "operator:wikidata": "Q668687", "ref": "7747100021"}, "type": "Feature"}
{"geometry": {"coordinates": [-95.805373028, 29.559392453], "type": "Point"}, "id": "8VJxYUi5ZowBFFYD0FP7bVfL6Ys=", "properties": {"@source_uri": "https://tools.usps.com/UspsToolsRestServices/rest/POLocator/findLocations", "@spider": "usps_collection_boxes", "addr:city": "ROSENBERG", "addr:country": "US", "addr:postcode": "77471", "addr:state": "TX", "addr:street_address": "2103 AVENUE G", "amenity": "post_box", "collection_times": "Mo-Fr 16:30; Sa 12:00", "indoor": "yes", "note": "ON 12/24 AND 12/31, THIS BOX MAY BE COLLECTED AS EARLY AS 12 NOON.", "nsi_id": "unitedstatespostalservice-a77078", "operator": "United States Postal Service", "operator:short": "USPS", "operator:type": "public", "operator:wikidata": "Q668687", "ref": "7747100030"}, "type": "Feature"}
{"geometry": {"coordinates": [-96.099965222, 29.797307822], "type": "Point"}, "id": "AYXKhkqWHx4kDW5m8qztGZ_ey_E=", "properties": {"@source_uri": "https://tools.usps.com/UspsToolsRestServices/rest/POLocator/findLocations", "@spider": "usps_collection_boxes", "addr:city": "SAN FELIPE", "addr:country": "US", "addr:postcode": "77473", "addr:state": "TX", "addr:street_address": "15079 FM 1458", "amenity": "post_box", "collection_times": "Mo-Fr 13:15; Sa 09:45", "note": "ON 12/24 AND 12/31, THIS BOX MAY BE COLLECTED AS EARLY AS 12 NOON.", "nsi_id": "unitedstatespostalservice-a77078", "operator": "United States Postal Service", "operator:short": "USPS", "operator:type": "public", "operator:wikidata": "Q668687", "ref": "7747300000"}, "type": "Feature"}
{"geometry": {"coordinates": [-96.09988, 29.797653], "type": "Point"}, "id": "7s9umqRyZ3RLBVNtQQMo7jUKLrE=", "properties": {"@source_uri": "https://tools.usps.com/UspsToolsRestServices/rest/POLocator/findLocations", "@spider": "usps_collection_boxes", "addr:city": "SAN FELIPE", "addr:country": "US", "addr:postcode": "77473", "addr:state": "TX", "addr:street_address": "15079 FM 1458", "amenity": "post_box", "collection_times": "Mo-Fr 13:15; Sa 09:45", "indoor": "yes", "note": "ON 12/24 AND 12/31, THIS BOX MAY BE COLLECTED AS EARLY AS 12 NOON.", "nsi_id": "unitedstatespostalservice-a77078", "operator": "United States Postal Service", "operator:short": "USPS", "operator:type": "public", "operator:wikidata": "Q668687", "ref": "7747300001"}, "type": "Feature"}
{"geometry": {"coordinates": [-96.0999652218, 29.7973078215], "type": "Point"}, "id": "F4F9U1UyyWs50n7iQT_NRG4bWSw=", "properties": {"@source_uri": "https://tools.usps.com/UspsToolsRestServices/rest/POLocator/findLocations", "@spider": "usps_collection_boxes", "addr:city": "SAN FELIPE", "addr:country": "US", "addr:postcode": "77473", "addr:state": "TX", "addr:street_address": "15079 FM 1458", "amenity": "post_box", "collection_times": "Mo-Fr 13:30", "indoor": "yes", "note": "ON 12/24 AND 12/31, THIS BOX MAY BE COLLECTED AS EARLY AS 12 NOON.", "nsi_id": "unitedstatespostalservice-a77078", "operator": "United States Postal Service", "operator:short": "USPS", "operator:type": "public", "operator:wikidata": "Q668687", "ref": "7747300004"}, "type": "Feature"}
{"geometry": {"coordinates": [-96.152769, 29.769468], "type": "Point"}, "id": "q7CM9nONJvW4_VsnuvVfkp-f1SE=", "properties": {"@source_uri": "https://tools.usps.com/UspsToolsRestServices/rest/POLocator/findLocations", "@spider": "usps_collection_boxes", "addr:city": "SEALY", "addr:country": "US", "addr:postcode": "77474", "addr:state": "TX", "addr:street_address": "222 MOODY ST", "amenity": "post_box", "collection_times": "Mo-Fr 16:30; Sa 11:45", "indoor": "yes", "note": "ON 12/24 AND 12/31, THIS BOX MAY BE COLLECTED AS EARLY AS 12 NOON.", "nsi_id": "unitedstatespostalservice-a77078", "operator": "United States Postal Service", "operator:short": "USPS", "operator:type": "public", "operator:wikidata": "Q668687", "ref": "7747400015"}, "type": "Feature"}
{"geometry": {"coordinates": [-96.1589578, 29.780893], "type": "Point"}, "id": "PhRO5YeMbLSVWxoGwUj6uWZzYs0=", "properties": {"@source_uri": "https://tools.usps.com/UspsToolsRestServices/rest/POLocator/findLocations", "@spider": "usps_collection_boxes", "addr:city": "SEALY", "addr:country": "US", "addr:postcode": "77474", "addr:state": "TX", "addr:street_address": "405 MAIN ST", "amenity": "post_box", "collection_times": "Mo-Sa 14:30", "note": "ON 12/24 AND 12/31, THIS BOX MAY BE COLLECTED AS EARLY AS 12 NOON.", "nsi_id": "unitedstatespostalservice-a77078", "operator": "United States Postal Service", "operator:short": "USPS", "operator:type": "public", "operator:wikidata": "Q668687", "ref": "7747400020"}, "type": "Feature"}
{"geometry": {"coordinates": [-96.152769, 29.769468], "type": "Point"}, "id": "tewXLGgsrCEbnL1pVGe5bTsYXQM=", "properties": {"@source_uri": "https://tools.usps.com/UspsToolsRestServices/rest/POLocator/findLocations", "@spider": "usps_collection_boxes", "addr:city": "SEALY", "addr:country": "US", "addr:postcode": "77474", "addr:state": "TX", "addr:street_address": "222 MOODY ST", "amenity": "post_box", "collection_times": "Mo-Fr 16:30; Sa 15:30", "note": "ON 12/24 AND 12/31, THIS BOX MAY BE COLLECTED AS EARLY AS 12 NOON.", "nsi_id": "unitedstatespostalservice-a77078", "operator": "United States Postal Service", "operator:short": "USPS", "operator:type": "public", "operator:wikidata": "Q668687", "ref": "7747400021"}, "type": "Feature"}
{"geometry": {"coordinates": [-96.152929972, 29.7694608232], "type": "Point"}, "id": "_drQoXRv_ivQEm9y0WbWnWoD4_M=", "properties": {"@source_uri": "https://tools.usps.com/UspsToolsRestServices/rest/POLocator/findLocations", "@spider": "usps_collection_boxes", "addr:city": "SEALY", "addr:country": "US", "addr:postcode": "77474", "addr:state": "TX", "addr:street_address": "222 MOODY ST", "amenity": "post_box", "collection_times": "Mo-Fr 16:30; Sa 12:00", "indoor": "yes", "note": "ON 12/24 AND 12/31, THIS BOX MAY BE COLLECTED AS EARLY AS 12 NOON.", "nsi_id": "unitedstatespostalservice-a77078", "operator": "United States Postal Service", "operator:short": "USPS", "operator:type": "public", "operator:wikidata": "Q668687", "ref": "7747400023"}, "type": "Feature"}
{"geometry": {"coordinates": [-96.680729, 29.491913], "type": "Point"}, "id": "ngEQSFRYjOjYahzRKf9eG6LpVug=", "properties": {"@source_uri": "https://tools.usps.com/UspsToolsRestServices/rest/POLocator/findLocations", "@spider": "usps_collection_boxes", "addr:city": "SHERIDAN", "addr:country": "US", "addr:postcode": "77475", "addr:state": "TX", "addr:street_address": "1402 U S HIGHWAY 90A", "amenity": "post_box", "collection_times": "Mo-Fr 14:45; Sa 11:30", "note": "ON 12/24 AND 12/31, THIS BOX MAY BE COLLECTED AS EARLY AS 12 NOON.", "nsi_id": "unitedstatespostalservice-a77078", "operator": "United States Postal Service", "operator:short": "USPS", "operator:type": "public", "operator:wikidata": "Q668687", "ref": "7747500000"}, "type": "Feature"}
{"geometry": {"coordinates": [-96.680729, 29.491913], "type": "Point"}, "id": "DJYSp0Rm9FhzRg1VvNKK46T4opE=", "properties": {"@source_uri": "https://tools.usps.com/UspsToolsRestServices/rest/POLocator/findLocations", "@spider": "usps_collection_boxes", "addr:city": "SHERIDAN", "addr:country": "US", "addr:postcode": "77475", "addr:state": "TX", "addr:street_address": "1402 U S HIGHWAY 90A", "amenity": "post_box", "collection_times": "Mo-Fr 14:45; Sa 11:30", "indoor": "yes", "note": "ON 12/24 AND 12/31, THIS BOX MAY BE COLLECTED AS EARLY AS 12 NOON.", "nsi_id": "unitedstatespostalservice-a77078", "operator": "United States Postal Service", "operator:short": "USPS", "operator:type": "public", "operator:wikidata": "Q668687", "ref": "7747500001"}, "type": "Feature"}
{"geometry": {"coordinates": [-96.674418893, 29.494362459], "type": "Point"}, "id": "6nNSA6xN5UokHATVp5rdm1iJWIk=", "properties": {"@source_uri": "https://tools.usps.com/UspsToolsRestServices/rest/POLocator/findLocations", "@spider": "usps_collection_boxes", "addr:city": "SHERIDAN", "addr:country": "US", "addr:postcode": "77475", "addr:state": "TX", "addr:street_address": "1402 U S HIGHWAY 90A", "amenity": "post_box", "collection_times": "Mo-Fr 15:00; Sa 11:30", "indoor": "yes", "note": "ON 12/24 AND 12/31, THIS BOX MAY BE COLLECTED AS EARLY AS 12 NOON.", "nsi_id": "unitedstatespostalservice-a77078", "operator": "United States Postal Service", "operator:short": "USPS", "operator:type": "public", "operator:wikidata": "Q668687", "ref": "7747500002"}, "type": "Feature"}
{"geometry": {"coordinates": [-95.979311, 29.679801], "type": "Point"}, "id": "_3AypEBLQtWLZBNf9x8SZdgg0vs=", "properties": {"@source_uri": "https://tools.usps.com/UspsToolsRestServices/rest/POLocator/findLocations", "@spider": "usps_collection_boxes", "addr:city": "SIMONTON", "addr:country": "US", "addr:postcode": "77476", "addr:state": "TX", "addr:street_address": "35608 FM 1093", "amenity": "post_box", "collection_times": "Mo-Fr 16:15; Sa 11:00", "indoor": "yes", "note": "ON 12/24 AND 12/31, THIS BOX MAY BE COLLECTED AS EARLY AS 12 NOON.", "nsi_id": "unitedstatespostalservice-a77078", "operator": "United States Postal Service", "operator:short": "USPS", "operator:type": "public", "operator:wikidata": "Q668687", "ref": "7747600000"}, "type": "Feature"}
{"geometry": {"coordinates": [-95.9790610224, 29.6801080041], "type": "Point"}, "id": "8YKojWzzZVe-DBXGSkzpOPYTuSc=", "properties": {"@source_uri": "https://tools.usps.com/UspsToolsRestServices/rest/POLocator/findLocations", "@spider": "usps_collection_boxes", "addr:city": "SIMONTON", "addr:country": "US", "addr:postcode": "77476", "addr:state": "TX", "addr:street_address": "35608 FM 1093", "amenity": "post_box", "collection_times": "Mo-Fr 16:15; Sa 11:00", "note": "ON 12/24 AND 12/31, THIS BOX MAY BE COLLECTED AS EARLY AS 12 NOON.", "nsi_id": "unitedstatespostalservice-a77078", "operator": "United States Postal Service", "operator:short": "USPS", "operator:type": "public", "operator:wikidata": "Q668687", "ref": "7747600001"}, "type": "Feature"}
{"geometry": {"coordinates": [-95.978974594, 29.679836362], "type": "Point"}, "id": "hbg65PdpCNqZqtJ7fb-Z3jd8r0k=", "properties": {"@source_uri": "https://tools.usps.com/UspsToolsRestServices/rest/POLocator/findLocations", "@spider": "usps_collection_boxes", "addr:city": "SIMONTON", "addr:country": "US", "addr:postcode": "77476", "addr:state": "TX", "addr:street_address": "35608 FM 1093", "amenity": "post_box", "collection_times": "Mo-Fr 16:30; Sa 11:00", "indoor": "yes", "note": "ON 12/24 AND 12/31, THIS BOX MAY BE COLLECTED AS EARLY AS 12 NOON.", "nsi_id": "unitedstatespostalservice-a77078", "operator": "United States Postal Service", "operator:short": "USPS", "operator:type": "public", "operator:wikidata": "Q668687", "ref": "7747600003"}, "type": "Feature"}
{"geometry": {"coordinates": [-95.5940399764, 29.6320929842], "type": "Point"}, "id": "HAIzs1jSet9dfSLlOTY2XtG61r4=", "properties": {"@source_uri": "https://tools.usps.com/UspsToolsRestServices/rest/POLocator/findLocations", "@spider": "usps_collection_boxes", "addr:city": "MEADOWS PLACE", "addr:country": "US", "addr:postcode": "77477", "addr:state": "TX", "addr:street_address": "10707 CORPORATE DR", "amenity": "post_box", "collection_times": "Mo-Fr 15:45", "note": "ON 12/24 AND 12/31, THIS BOX MAY BE COLLECTED AS EARLY AS 12 NOON.", "nsi_id": "unitedstatespostalservice-a77078", "operator": "United States Postal Service", "operator:short": "USPS", "operator:type": "public", "operator:wikidata": "Q668687", "ref": "7747700004"}, "type": "Feature"}
{"geometry": {"coordinates": [-95.573492445, 29.63581249], "type": "Point"}, "id": "RyY2IsmHPJTYftv9rkGowvSUgvY=", "properties": {"@source_uri": "https://tools.usps.com/UspsToolsRestServices/rest/POLocator/findLocations", "@spider": "usps_collection_boxes", "addr:city": "MEADOWS PLACE", "addr:country": "US", "addr:postcode": "77477", "addr:state": "TX", "addr:street_address": "4110 BLUEBONNET DR", "amenity": "post_box", "collection_times": "Mo-Fr 17:00; Sa 15:45", "indoor": "yes", "note": "ON 12/24 AND 12/31, THIS BOX MAY BE COLLECTED AS EARLY AS 12 NOON.", "nsi_id": "unitedstatespostalservice-a77078", "operator": "United States Postal Service", "operator:short": "USPS", "operator:type": "public", "operator:wikidata": "Q668687", "ref": "7747700027"}, "type": "Feature"}
{"geometry": {"coordinates": [-95.584539573, 29.649939397], "type": "Point"}, "id": "AleFuBBTpyxWrVkeEx9tqeVRIVM=", "properties": {"@source_uri": "https://tools.usps.com/UspsToolsRestServices/rest/POLocator/findLocations", "@spider": "usps_collection_boxes", "addr:city": "MEADOWS PLACE", "addr:country": "US", "addr:postcode": "77477", "addr:state": "TX", "addr:street_address": "4110 BLUEBONNET DR", "amenity": "post_box", "collection_times": "Mo-Fr 17:00; Sa 15:45", "indoor": "yes", "note": "ON 12/24 AND 12/31, THIS BOX MAY BE COLLECTED AS EARLY AS 12 NOON.", "nsi_id": "unitedstatespostalservice-a77078", "operator": "United States Postal Service", "operator:short": "USPS", "operator:type": "public", "operator:wikidata": "Q668687", "ref": "7747700028"}, "type": "Feature"}
{"geometry": {"coordinates": [-95.584539573, 29.649939397], "type": "Point"}, "id": "j4XlobrrjJlq6grI5UF6PiRhhCw=", "properties": {"@source_uri": "https://tools.usps.com/UspsToolsRestServices/rest/POLocator/findLocations", "@spider": "usps_collection_boxes", "addr:city": "MEADOWS PLACE", "addr:country": "US", "addr:postcode": "77477", "addr:state": "TX", "addr:street_address": "4110 BLUEBONNET DR", "amenity": "post_box", "collection_times": "Mo-Fr 17:00; Sa 15:45", "name": "USPS COLLECTION BOX - APC", "note": "ON 12/24 AND 12/31, THIS BOX MAY BE COLLECTED AS EARLY AS 12 NOON.", "nsi_id": "unitedstatespostalservice-a77078", "operator": "United States Postal Service", "operator:short": "USPS", "operator:type": "public", "operator:wikidata": "Q668687", "ref": "7747700034"}, "type": "Feature"}
{"geometry": {"coordinates": [-95.573492445, 29.63581249], "type": "Point"}, "id": "67wYts4V_cyW-7Umu4CLWUp-G1Y=", "properties": {"@source_uri": "https://tools.usps.com/UspsToolsRestServices/rest/POLocator/findLocations", "@spider": "usps_collection_boxes", "addr:city": "MEADOWS PLACE", "addr:country": "US", "addr:postcode": "77477", "addr:state": "TX", "addr:street_address": "4110 BLUEBONNET DR", "amenity": "post_box", "collection_times": "Mo-Fr 17:00", "indoor": "yes", "note": "ON 12/24 AND 12/31, THIS BOX MAY BE COLLECTED AS EARLY AS 12 NOON.", "nsi_id": "unitedstatespostalservice-a77078", "operator": "United States Postal Service", "operator:short": "USPS", "operator:type": "public", "operator:wikidata": "Q668687", "ref": "7747700038"}, "type": "Feature"}
{"geometry": {"coordinates": [-95.5786900295, 29.648449011], "type": "Point"}, "id": "-Hg64CietXmuWXqGgOQ7XbILGds=", "properties": {"@source_uri": "https://tools.usps.com/UspsToolsRestServices/rest/POLocator/findLocations", "@spider": "usps_collection_boxes", "addr:city": "MEADOWS PLACE", "addr:country": "US", "addr:postcode": "77477", "addr:state": "TX", "addr:street_address": "1 TROYAN DR", "amenity": "post_box", "collection_times": "Mo-Sa 15:30", "note": "ON 12/24 AND 12/31, THIS BOX MAY BE COLLECTED AS EARLY AS 12 NOON.", "nsi_id": "unitedstatespostalservice-a77078", "operator": "United States Postal Service", "operator:short": "USPS", "operator:type": "public", "operator:wikidata": "Q668687", "ref": "7747700041"}, "type": "Feature"}
{"geometry": {"coordinates": [-95.5845395727, 29.6499393971], "type": "Point"}, "id": "s5sBYxZ4Dhtc4XUsHQ8mN0WQrks=", "properties": {"@source_uri": "https://tools.usps.com/UspsToolsRestServices/rest/POLocator/findLocations", "@spider": "usps_collection_boxes", "addr:city": "MEADOWS PLACE", "addr:country": "US", "addr:postcode": "77477", "addr:state": "TX", "addr:street_address": "11675 W AIRPORT BLVD", "amenity": "post_box", "collection_times": "Mo-Sa 12:00", "nsi_id": "unitedstatespostalservice-a77078", "operator": "United States Postal Service", "operator:short": "USPS", "operator:type": "public", "operator:wikidata": "Q668687", "ref": "7747700042"}, "type": "Feature"}
{"geometry": {"coordinates": [-95.60284, 29.624625], "type": "Point"}, "id": "h8wh2u8t8fmffRry-nxGb3ZkptY=", "properties": {"@source_uri": "https://tools.usps.com/UspsToolsRestServices/rest/POLocator/findLocations", "@spider": "usps_collection_boxes", "addr:city": "SUGARLAND", "addr:country": "US", "addr:postcode": "77478", "addr:state": "TX", "addr:street_address": "3346 HIGHWAY 6", "amenity": "post_box", "collection_times": "Mo-Fr 14:00; Sa 14:15", "note": "ON 12/24 AND 12/31, THIS BOX MAY BE COLLECTED AS EARLY AS 12 NOON.", "nsi_id": "unitedstatespostalservice-a77078", "operator": "United States Postal Service", "operator:short": "USPS", "operator:type": "public", "operator:wikidata": "Q668687", "ref": "7747800004"}, "type": "Feature"}
{"geometry": {"coordinates": [-95.5972766, 29.590335], "type": "Point"}, "id": "ZHP_5_NOW6DBNRX6pKV-01PMUCs=", "properties": {"@source_uri": "https://tools.usps.com/UspsToolsRestServices/rest/POLocator/findLocations", "@spider": "usps_collection_boxes", "addr:city": "SUGARLAND", "addr:country": "US", "addr:postcode": "77478", "addr:state": "TX", "addr:street_address": "3685 HIGHWAY 6", "amenity": "post_box", "collection_times": "Mo-Fr 13:00; Sa 14:30", "note": "ON 12/24 AND 12/31, THIS BOX MAY BE COLLECTED AS EARLY AS 12 NOON.", "nsi_id": "unitedstatespostalservice-a77078", "operator": "United States Postal Service", "operator:short": "USPS", "operator:type": "public", "operator:wikidata": "Q668687", "ref": "7747800007"}, "type": "Feature"}
{"geometry": {"coordinates": [-95.651817, 29.649944], "type": "Point"}, "id": "yfLRlam8vAqSrKNWZJjlC_3CPSg=", "properties": {"@source_uri": "https://tools.usps.com/UspsToolsRestServices/rest/POLocator/findLocations", "@spider": "usps_collection_boxes", "addr:city": "SUGARLAND", "addr:country": "US", "addr:postcode": "77478", "addr:state": "TX", "addr:street_address": "15800 W AIRPORT BLVD", "amenity": "post_box", "collection_times": "Mo-Fr 13:45; Sa 14:00", "note": "ON 12/24 AND 12/31, THIS BOX MAY BE COLLECTED AS EARLY AS 12 NOON.", "nsi_id": "unitedstatespostalservice-a77078", "operator": "United States Postal Service", "operator:short": "USPS", "operator:type": "public", "operator:wikidata": "Q668687", "ref": "7747800009"}, "type": "Feature"}
{"geometry": {"coordinates": [-95.6250557, 29.606758], "type": "Point"}, "id": "CkZRDJ0EklMUKEENG38769XA64Q=", "properties": {"@source_uri": "https://tools.usps.com/UspsToolsRestServices/rest/POLocator/findLocations", "@spider": "usps_collection_boxes", "addr:city": "SUGARLAND", "addr:country": "US", "addr:postcode": "77478", "addr:state": "TX", "addr:street_address": "1 PRUDENTIAL CIR", "amenity": "post_box", "collection_times": "Mo-Fr 15:30", "note": "ON 12/24 AND 12/31, THIS BOX MAY BE COLLECTED AS EARLY AS 12 NOON.", "nsi_id": "unitedstatespostalservice-a77078", "operator": "United States Postal Service", "operator:short": "USPS", "operator:type": "public", "operator:wikidata": "Q668687", "ref": "7747800030"}, "type": "Feature"}
{"geometry": {"coordinates": [-95.60284, 29.624625], "type": "Point"}, "id": "mT2K0-RcJYzPCjvVHqfYeuj1n2I=", "properties": {"@source_uri": "https://tools.usps.com/UspsToolsRestServices/rest/POLocator/findLocations", "@spider": "usps_collection_boxes", "addr:city": "SUGARLAND", "addr:country": "US", "addr:postcode": "77478", "addr:state": "TX", "addr:street_address": "101 SOUTHWESTERN BLVD", "amenity": "post_box", "collection_times": "Mo-Fr 15:30; Sa 15:15", "note": "ON 12/24 AND 12/31, THIS BOX MAY BE COLLECTED AS EARLY AS 12 NOON.", "nsi_id": "unitedstatespostalservice-a77078", "operator": "United States Postal Service", "operator:short": "USPS", "operator:type": "public", "operator:wikidata": "Q668687", "ref": "7747800041"}, "type": "Feature"}
{"geometry": {"coordinates": [-95.6189709, 29.635085], "type": "Point"}, "id": "ZFq1S92aQpSCkEudd2cvR8_IT4Y=", "properties": {"@source_uri": "https://tools.usps.com/UspsToolsRestServices/rest/POLocator/findLocations", "@spider": "usps_collection_boxes", "addr:city": "SUGARLAND", "addr:country": "US", "addr:postcode": "77478", "addr:state": "TX", "addr:street_address": "1003 ELDRIDGE RD", "amenity": "post_box", "collection_times": "Mo-Fr 14:00; Sa 14:15", "note": "ON 12/24 AND 12/31, THIS BOX MAY BE COLLECTED AS EARLY AS 12 NOON.", "nsi_id": "unitedstatespostalservice-a77078", "operator": "United States Postal Service", "operator:short": "USPS", "operator:type": "public", "operator:wikidata": "Q668687", "ref": "7747800046"}, "type": "Feature"}
{"geometry": {"coordinates": [-95.636679, 29.617011], "type": "Point"}, "id": "hSAVtHdlWZpWgDKBD9lHLpJlrH4=", "properties": {"@source_uri": "https://tools.usps.com/UspsToolsRestServices/rest/POLocator/findLocations", "@spider": "usps_collection_boxes", "addr:city": "SUGARLAND", "addr:country": "US", "addr:postcode": "77478", "addr:state": "TX", "addr:street_address": "225 MATLAGE WAY", "amenity": "post_box", "collection_times": "Mo-Sa 17:00", "indoor": "yes", "note": "ON 12/24 AND 12/31, THIS BOX MAY BE COLLECTED AS EARLY AS 12 NOON.", "nsi_id": "unitedstatespostalservice-a77078", "operator": "United States Postal Service", "operator:short": "USPS", "operator:type": "public", "operator:wikidata": "Q668687", "ref": "7747800050"}, "type": "Feature"}
{"geometry": {"coordinates": [-95.6194695, 29.647729], "type": "Point"}, "id": "iRP62u5y1lfMSIiX3psaLF9FdeI=", "properties": {"@source_uri": "https://tools.usps.com/UspsToolsRestServices/rest/POLocator/findLocations", "@spider": "usps_collection_boxes", "addr:city": "SUGARLAND", "addr:country": "US", "addr:postcode": "77478", "addr:state": "TX", "addr:street_address": "13416 GREENWAY DR", "amenity": "post_box", "collection_times": "Mo-Fr 14:00; Sa 14:15", "note": "ON 12/24 AND 12/31, THIS BOX MAY BE COLLECTED AS EARLY AS 12 NOON.", "nsi_id": "unitedstatespostalservice-a77078", "operator": "United States Postal Service", "operator:short": "USPS", "operator:type": "public", "operator:wikidata": "Q668687", "ref": "7747800051"}, "type": "Feature"}
{"geometry": {"coordinates": [-95.636679, 29.617011], "type": "Point"}, "id": "JCk_6Quf14Wys8yhDD9RK5qNIGk=", "properties": {"@source_uri": "https://tools.usps.com/UspsToolsRestServices/rest/POLocator/findLocations", "@spider": "usps_collection_boxes", "addr:city": "SUGARLAND", "addr:country": "US", "addr:postcode": "77478", "addr:state": "TX", "addr:street_address": "225 MATLAGE WAY", "amenity": "post_box", "collection_times": "Mo-Sa 17:00", "name": "USPS COLLECTION BOX - APC", "note": "ON 12/24 AND 12/31, THIS BOX MAY BE COLLECTED AS EARLY AS 12 NOON.", "nsi_id": "unitedstatespostalservice-a77078", "operator": "United States Postal Service", "operator:short": "USPS", "operator:type": "public", "operator:wikidata": "Q668687", "ref": "7747800061"}, "type": "Feature"}
{"geometry": {"coordinates": [-95.6366784207, 29.6170109475], "type": "Point"}, "id": "Qx639UzHsBySKQjyKXEC_j4PKQI=", "properties": {"@source_uri": "https://tools.usps.com/UspsToolsRestServices/rest/POLocator/findLocations", "@spider": "usps_collection_boxes", "addr:city": "SUGARLAND", "addr:country": "US", "addr:postcode": "77478", "addr:state": "TX", "addr:street_address": "225 MATLAGE WAY", "amenity": "post_box", "collection_times": "Mo-Fr 17:00; Sa 14:00", "indoor": "yes", "note": "ON 12/24 AND 12/31, THIS BOX MAY BE COLLECTED AS EARLY AS 12 NOON.", "nsi_id": "unitedstatespostalservice-a77078", "operator": "United States Postal Service", "operator:short": "USPS", "operator:type": "public", "operator:wikidata": "Q668687", "ref": "7747800069"}, "type": "Feature"}
{"geometry": {"coordinates": [-95.61658, 29.587164], "type": "Point"}, "id": "3V7ZVmRYIWwAQzHLh0bzLVZp57o=", "properties": {"@source_uri": "https://tools.usps.com/UspsToolsRestServices/rest/POLocator/findLocations", "@spider": "usps_collection_boxes", "addr:city": "SUGARLAND", "addr:country": "US", "addr:postcode": "77479", "addr:state": "TX", "addr:street_address": "3130 GRANTS LAKE BLVD", "amenity": "post_box", "collection_times": "Mo-Fr 17:00; Sa 16:00", "indoor": "yes", "note": "ON 12/24 AND 12/31, THIS BOX MAY BE COLLECTED AS EARLY AS 12 NOON.", "nsi_id": "unitedstatespostalservice-a77078", "operator": "United States Postal Service", "operator:short": "USPS", "operator:type": "public", "operator:wikidata": "Q668687", "ref": "7747900012"}, "type": "Feature"}
{"geometry": {"coordinates": [-95.61658, 29.587164], "type": "Point"}, "id": "FBIn4h4EN2js-c_1SpFI3HiwYMg=", "properties": {"@source_uri": "https://tools.usps.com/UspsToolsRestServices/rest/POLocator/findLocations", "@spider": "usps_collection_boxes", "addr:city": "SUGARLAND", "addr:country": "US", "addr:postcode": "77479", "addr:state": "TX", "addr:street_address": "3130 GRANTS LAKE BLVD", "amenity": "post_box", "collection_times": "Mo-Fr 17:00; Sa 16:00", "name": "USPS COLLECTION BOX - APC", "note": "ON 12/24 AND 12/31, THIS BOX MAY BE COLLECTED AS EARLY AS 12 NOON.", "nsi_id": "unitedstatespostalservice-a77078", "operator": "United States Postal Service", "operator:short": "USPS", "operator:type": "public", "operator:wikidata": "Q668687", "ref": "7747900013"}, "type": "Feature"}
{"geometry": {"coordinates": [-95.616606752, 29.587181416], "type": "Point"}, "id": "PrkVSUMX3UsxBzwApzoMGbtFtOA=", "properties": {"@source_uri": "https://tools.usps.com/UspsToolsRestServices/rest/POLocator/findLocations", "@spider": "usps_collection_boxes", "addr:city": "SUGARLAND", "addr:country": "US", "addr:postcode": "77479", "addr:state": "TX", "addr:street_address": "3130 GRANTS LAKE BLVD", "amenity": "post_box", "collection_times": "Mo-Fr 18:00; Sa 14:00", "indoor": "yes", "note": "ON 12/24 AND 12/31, THIS BOX MAY BE COLLECTED AS EARLY AS 12 NOON.", "nsi_id": "unitedstatespostalservice-a77078", "operator": "United States Postal Service", "operator:short": "USPS", "operator:type": "public", "operator:wikidata": "Q668687", "ref": "7747900036"}, "type": "Feature"}
{"geometry": {"coordinates": [-95.6687496, 29.551082], "type": "Point"}, "id": "OBvnrJuFeiipULN_qNNOTjlhTkU=", "properties": {"@source_uri": "https://tools.usps.com/UspsToolsRestServices/rest/POLocator/findLocations", "@spider": "usps_collection_boxes", "addr:city": "SUGARLAND", "addr:country": "US", "addr:postcode": "77479", "addr:state": "TX", "addr:street_address": "5826 NEW TERRITORY BLVD", "amenity": "post_box", "collection_times": "Mo-Fr 12:00", "nsi_id": "unitedstatespostalservice-a77078", "operator": "United States Postal Service", "operator:short": "USPS", "operator:type": "public", "operator:wikidata": "Q668687", "ref": "7747900043"}, "type": "Feature"}
{"geometry": {"coordinates": [-95.697408, 29.040244], "type": "Point"}, "id": "lAImWIh5fso-cHlOjsCukUtMPNs=", "properties": {"@source_uri": "https://tools.usps.com/UspsToolsRestServices/rest/POLocator/findLocations", "@spider": "usps_collection_boxes", "addr:city": "SWEENY", "addr:country": "US", "addr:postcode": "77480", "addr:state": "TX", "addr:street_address": "301 E 2ND ST", "amenity": "post_box", "collection_times": "Mo-Fr 16:15; Sa 09:30", "note": "ON 12/24 AND 12/31, THIS BOX MAY BE COLLECTED AS EARLY AS 12 NOON.", "nsi_id": "unitedstatespostalservice-a77078", "operator": "United States Postal Service", "operator:short": "USPS", "operator:type": "public", "operator:wikidata": "Q668687", "ref": "7748000001"}, "type": "Feature"}
{"geometry": {"coordinates": [-95.697408, 29.040244], "type": "Point"}, "id": "EXgaRNatMeB0xLJjeEe7KxLrXv0=", "properties": {"@source_uri": "https://tools.usps.com/UspsToolsRestServices/rest/POLocator/findLocations", "@spider": "usps_collection_boxes", "addr:city": "SWEENY", "addr:country": "US", "addr:postcode": "77480", "addr:state": "TX", "addr:street_address": "301 E 2ND ST", "amenity": "post_box", "collection_times": "Mo-Fr 16:15; Sa 09:30", "indoor": "yes", "note": "ON 12/24 AND 12/31, THIS BOX MAY BE COLLECTED AS EARLY AS 12 NOON.", "nsi_id": "unitedstatespostalservice-a77078", "operator": "United States Postal Service", "operator:short": "USPS", "operator:type": "public", "operator:wikidata": "Q668687", "ref": "7748000002"}, "type": "Feature"}
{"geometry": {"coordinates": [-95.697468445, 29.040231369], "type": "Point"}, "id": "QwmdSvZ8hPScg6Y9YQ3MHz6oDM0=", "properties": {"@source_uri": "https://tools.usps.com/UspsToolsRestServices/rest/POLocator/findLocations", "@spider": "usps_collection_boxes", "addr:city": "SWEENY", "addr:country": "US", "addr:postcode": "77480", "addr:state": "TX", "addr:street_address": "301 E 2ND ST", "amenity": "post_box", "collection_times": "Mo-Fr 16:15", "indoor": "yes", "note": "ON 12/24 AND 12/31, THIS BOX MAY BE COLLECTED AS EARLY AS 12 NOON.", "nsi_id": "unitedstatespostalservice-a77078", "operator": "United States Postal Service", "operator:short": "USPS", "operator:type": "public", "operator:wikidata": "Q668687", "ref": "7748000005"}, "type": "Feature"}
{"geometry": {"coordinates": [-95.58517, 29.49543], "type": "Point"}, "id": "2ZwL9vf1zaT7KEssustfBTZEhGk=", "properties": {"@source_uri": "https://tools.usps.com/UspsToolsRestServices/rest/POLocator/findLocations", "@spider": "usps_collection_boxes", "addr:city": "THOMPSONS", "addr:country": "US", "addr:postcode": "77481", "addr:state": "TX", "addr:street_address": "222 OILFIELD RD", "amenity": "post_box", "collection_times": "Mo-Fr 11:45; Sa 11:30", "nsi_id": "unitedstatespostalservice-a77078", "operator": "United States Postal Service", "operator:short": "USPS", "operator:type": "public", "operator:wikidata": "Q668687", "ref": "7748100000"}, "type": "Feature"}
{"geometry": {"coordinates": [-95.58517, 29.49543], "type": "Point"}, "id": "cZRw9t0l87UsquaHeV0aFtW4-V4=", "properties": {"@source_uri": "https://tools.usps.com/UspsToolsRestServices/rest/POLocator/findLocations", "@spider": "usps_collection_boxes", "addr:city": "THOMPSONS", "addr:country": "US", "addr:postcode": "77481", "addr:state": "TX", "addr:street_address": "222 OILFIELD RD", "amenity": "post_box", "collection_times": "Mo-Fr 11:45; Sa 11:30", "indoor": "yes", "nsi_id": "unitedstatespostalservice-a77078", "operator": "United States Postal Service", "operator:short": "USPS", "operator:type": "public", "operator:wikidata": "Q668687", "ref": "7748100001"}, "type": "Feature"}
{"geometry": {"coordinates": [-95.58517, 29.49543], "type": "Point"}, "id": "mxcubndkEDu0onv2ENT5GKK11wQ=", "properties": {"@source_uri": "https://tools.usps.com/UspsToolsRestServices/rest/POLocator/findLocations", "@spider": "usps_collection_boxes", "addr:city": "THOMPSONS", "addr:country": "US", "addr:postcode": "77481", "addr:state": "TX", "addr:street_address": "222 OILFIELD RD", "amenity": "post_box", "collection_times": "Mo-Fr 12:00; Sa 11:30", "indoor": "yes", "nsi_id": "unitedstatespostalservice-a77078", "operator": "United States Postal Service", "operator:short": "USPS", "operator:type": "public", "operator:wikidata": "Q668687", "ref": "7748100004"}, "type": "Feature"}
{"geometry": {"coordinates": [-95.890018, 29.017644], "type": "Point"}, "id": "LVKMZyKEyNfz4T9x5MjaYNDUmRk=", "properties": {"@source_uri": "https://tools.usps.com/UspsToolsRestServices/rest/POLocator/findLocations", "@spider": "usps_collection_boxes", "addr:city": "VAN VLECK", "addr:country": "US", "addr:postcode": "77482", "addr:state": "TX", "addr:street_address": "8901 STATE HIGHWAY 35 N", "amenity": "post_box", "collection_times": "Mo-Fr 16:30; Sa 10:45", "note": "ON 12/24 AND 12/31, THIS BOX MAY BE COLLECTED AS EARLY AS 12 NOON.", "nsi_id": "unitedstatespostalservice-a77078", "operator": "United States Postal Service", "operator:short": "USPS", "operator:type": "public", "operator:wikidata": "Q668687", "ref": "7748200000"}, "type": "Feature"}
{"geometry": {"coordinates": [-95.889997, 29.017624], "type": "Point"}, "id": "SVXX7jK7k94RF_zEWxV6GeF5yBs=", "properties": {"@source_uri": "https://tools.usps.com/UspsToolsRestServices/rest/POLocator/findLocations", "@spider": "usps_collection_boxes", "addr:city": "VAN VLECK", "addr:country": "US", "addr:postcode": "77482", "addr:state": "TX", "addr:street_address": "8901 STATE HIGHWAY 35 N", "amenity": "post_box", "collection_times": "Mo-Fr 16:30; Sa 10:45", "indoor": "yes", "note": "ON 12/24 AND 12/31, THIS BOX MAY BE COLLECTED AS EARLY AS 12 NOON.", "nsi_id": "unitedstatespostalservice-a77078", "operator": "United States Postal Service", "operator:short": "USPS", "operator:type": "public", "operator:wikidata": "Q668687", "ref": "7748200001"}, "type": "Feature"}
{"geometry": {"coordinates": [-95.889997, 29.017624], "type": "Point"}, "id": "Sd1oNdJmzZ56TWm8j7RE8aQ0r8o=", "properties": {"@source_uri": "https://tools.usps.com/UspsToolsRestServices/rest/POLocator/findLocations", "@spider": "usps_collection_boxes", "addr:city": "VAN VLECK", "addr:country": "US", "addr:postcode": "77482", "addr:state": "TX", "addr:street_address": "8901 STATE HIGHWAY 35 N", "amenity": "post_box", "collection_times": "Mo-Fr 16:30; Sa 10:45", "indoor": "yes", "note": "ON 12/24 AND 12/31, THIS BOX MAY BE COLLECTED AS EARLY AS 12 NOON.", "nsi_id": "unitedstatespostalservice-a77078", "operator": "United States Postal Service", "operator:short": "USPS", "operator:type": "public", "operator:wikidata": "Q668687", "ref": "7748200002"}, "type": "Feature"}
{"geometry": {"coordinates": [-95.889332981, 29.018279497], "type": "Point"}, "id": "c50U803PAR6X6ky8Kuf3RKiX-08=", "properties": {"@source_uri": "https://tools.usps.com/UspsToolsRestServices/rest/POLocator/findLocations", "@spider": "usps_collection_boxes", "addr:city": "VAN VLECK", "addr:country": "US", "addr:postcode": "77482", "addr:state": "TX", "addr:street_address": "8901 STATE HIGHWAY 35 N", "amenity": "post_box", "collection_times": "Mo-Fr 16:30", "indoor": "yes", "note": "ON 12/24 AND 12/31, THIS BOX MAY BE COLLECTED AS EARLY AS 12 NOON.", "nsi_id": "unitedstatespostalservice-a77078", "operator": "United States Postal Service", "operator:short": "USPS", "operator:type": "public", "operator:wikidata": "Q668687", "ref": "7748200003"}, "type": "Feature"}
{"geometry": {"coordinates": [-95.9365895178, 28.8355737946], "type": "Point"}, "id": "1qcw31fEi1EcUBWbfGBqeTCGiww=", "properties": {"@source_uri": "https://tools.usps.com/UspsToolsRestServices/rest/POLocator/findLocations", "@spider": "usps_collection_boxes", "addr:city": "WADSWORTH", "addr:country": "US", "addr:postcode": "77483", "addr:state": "TX", "addr:street_address": "13622 HIGHWAY 60 S", "amenity": "post_box", "collection_times": "Mo-Fr 12:45; Sa 11:00", "note": "ON 12/24 AND 12/31, THIS BOX MAY BE COLLECTED AS EARLY AS 12 NOON.", "nsi_id": "unitedstatespostalservice-a77078", "operator": "United States Postal Service", "operator:short": "USPS", "operator:type": "public", "operator:wikidata": "Q668687", "ref": "7748300000"}, "type": "Feature"}
{"geometry": {"coordinates": [-95.936449, 28.835241], "type": "Point"}, "id": "PkWD8rzE07uEA6hK9ldVsiA3Ao8=", "properties": {"@source_uri": "https://tools.usps.com/UspsToolsRestServices/rest/POLocator/findLocations", "@spider": "usps_collection_boxes", "addr:city": "WADSWORTH", "addr:country": "US", "addr:postcode": "77483", "addr:state": "TX", "addr:street_address": "13622 HIGHWAY 60 S", "amenity": "post_box", "collection_times": "Mo-Fr 12:45; Sa 11:00", "indoor": "yes", "note": "ON 12/24 AND 12/31, THIS BOX MAY BE COLLECTED AS EARLY AS 12 NOON.", "nsi_id": "unitedstatespostalservice-a77078", "operator": "United States Postal Service", "operator:short": "USPS", "operator:type": "public", "operator:wikidata": "Q668687", "ref": "7748300001"}, "type": "Feature"}
{"geometry": {"coordinates": [-95.9350284774, 28.8318675129], "type": "Point"}, "id": "xJr_ZyLiu734i-2J5-KIvk8yX0Q=", "properties": {"@source_uri": "https://tools.usps.com/UspsToolsRestServices/rest/POLocator/findLocations", "@spider": "usps_collection_boxes", "addr:city": "WADSWORTH", "addr:country": "US", "addr:postcode": "77483", "addr:state": "TX", "addr:street_address": "13622 HIGHWAY 60 S", "amenity": "post_box", "collection_times": "Mo-Fr 13:00; Sa 11:00", "indoor": "yes", "note": "ON 12/24 AND 12/31, THIS BOX MAY BE COLLECTED AS EARLY AS 12 NOON.", "nsi_id": "unitedstatespostalservice-a77078", "operator": "United States Postal Service", "operator:short": "USPS", "operator:type": "public", "operator:wikidata": "Q668687", "ref": "7748300002"}, "type": "Feature"}
{"geometry": {"coordinates": [-95.917141, 30.054186], "type": "Point"}, "id": "6CgADnplPZ8yVxvN9gBDvsuzgvw=", "properties": {"@source_uri": "https://tools.usps.com/UspsToolsRestServices/rest/POLocator/findLocations", "@spider": "usps_collection_boxes", "addr:city": "WALLER", "addr:country": "US", "addr:postcode": "77484", "addr:state": "TX", "addr:street_address": "40090 HIGHWAY 290 BUSINESS", "amenity": "post_box", "collection_times": "Mo-Fr 16:00; Sa 11:30", "note": "ON 12/24 AND 12/31, THIS BOX MAY BE COLLECTED AS EARLY AS 12 NOON.", "nsi_id": "unitedstatespostalservice-a77078", "operator": "United States Postal Service", "operator:short": "USPS", "operator:type": "public", "operator:wikidata": "Q668687", "ref": "7748400000"}, "type": "Feature"}
{"geometry": {"coordinates": [-95.917141, 30.054186], "type": "Point"}, "id": "Gd9imDFf6ZcRAm3rU-eI2Z87qy8=", "properties": {"@source_uri": "https://tools.usps.com/UspsToolsRestServices/rest/POLocator/findLocations", "@spider": "usps_collection_boxes", "addr:city": "WALLER", "addr:country": "US", "addr:postcode": "77484", "addr:state": "TX", "addr:street_address": "40090 HIGHWAY 290 BUSINESS", "amenity": "post_box", "collection_times": "Mo-Fr 16:00; Sa 11:30", "indoor": "yes", "note": "ON 12/24 AND 12/31, THIS BOX MAY BE COLLECTED AS EARLY AS 12 NOON.", "nsi_id": "unitedstatespostalservice-a77078", "operator": "United States Postal Service", "operator:short": "USPS", "operator:type": "public", "operator:wikidata": "Q668687", "ref": "7748400002"}, "type": "Feature"}
{"geometry": {"coordinates": [-95.917142297, 30.054179005], "type": "Point"}, "id": "cHPdLKISprFxZ4sVIGo2DBhu_Ok=", "properties": {"@source_uri": "https://tools.usps.com/UspsToolsRestServices/rest/POLocator/findLocations", "@spider": "usps_collection_boxes", "addr:city": "WALLER", "addr:country": "US", "addr:postcode": "77484", "addr:state": "TX", "addr:street_address": "40090 HIGHWAY 290 BUSINESS", "amenity": "post_box", "collection_times": "Mo-Fr 16:30; Sa 12:00", "indoor": "yes", "note": "ON 12/24 AND 12/31, THIS BOX MAY BE COLLECTED AS EARLY AS 12 NOON.", "nsi_id": "unitedstatespostalservice-a77078", "operator": "United States Postal Service", "operator:short": "USPS", "operator:type": "public", "operator:wikidata": "Q668687", "ref": "7748400006"}, "type": "Feature"}
{"geometry": {"coordinates": [-96.0627613, 29.631263], "type": "Point"}, "id": "kxilmape6yWFcQsFYdoWbNXm6T8=", "properties": {"@source_uri": "https://tools.usps.com/UspsToolsRestServices/rest/POLocator/findLocations", "@spider": "usps_collection_boxes", "addr:city": "WALLIS", "addr:country": "US", "addr:postcode": "77485", "addr:state": "TX", "addr:street_address": "6418 RAILROAD ST", "amenity": "post_box", "collection_times": "Mo-Fr 15:45; Sa 11:45", "note": "ON 12/24 AND 12/31, THIS BOX MAY BE COLLECTED AS EARLY AS 12 NOON.", "nsi_id": "unitedstatespostalservice-a77078", "operator": "United States Postal Service", "operator:short": "USPS", "operator:type": "public", "operator:wikidata": "Q668687", "ref": "7748500000"}, "type": "Feature"}
{"geometry": {"coordinates": [-96.0628195, 29.631337], "type": "Point"}, "id": "xSfYP0iv253Hrx49Jv9w5N3k5Qg=", "properties": {"@source_uri": "https://tools.usps.com/UspsToolsRestServices/rest/POLocator/findLocations", "@spider": "usps_collection_boxes", "addr:city": "WALLIS", "addr:country": "US", "addr:postcode": "77485", "addr:state": "TX", "addr:street_address": "6418 RAILROAD ST", "amenity": "post_box", "collection_times": "Mo-Fr 15:45; Sa 11:45", "indoor": "yes", "note": "ON 12/24 AND 12/31, THIS BOX MAY BE COLLECTED AS EARLY AS 12 NOON.", "nsi_id": "unitedstatespostalservice-a77078", "operator": "United States Postal Service", "operator:short": "USPS", "operator:type": "public", "operator:wikidata": "Q668687", "ref": "7748500002"}, "type": "Feature"}
{"geometry": {"coordinates": [-96.0627700799, 29.6311610938], "type": "Point"}, "id": "0ZKWiH4dbVeHT1YWAPCiH-gEEy8=", "properties": {"@source_uri": "https://tools.usps.com/UspsToolsRestServices/rest/POLocator/findLocations", "@spider": "usps_collection_boxes", "addr:city": "WALLIS", "addr:country": "US", "addr:postcode": "77485", "addr:state": "TX", "addr:street_address": "6418 RAILROAD ST", "amenity": "post_box", "collection_times": "Mo-Fr 16:00; Sa 12:00", "indoor": "yes", "note": "ON 12/24 AND 12/31, THIS BOX MAY BE COLLECTED AS EARLY AS 12 NOON.", "nsi_id": "unitedstatespostalservice-a77078", "operator": "United States Postal Service", "operator:short": "USPS", "operator:type": "public", "operator:wikidata": "Q668687", "ref": "7748500005"}, "type": "Feature"}
{"geometry": {"coordinates": [-95.6175311356, 29.1698935109], "type": "Point"}, "id": "U1oujNoSqKCVRShtTshonxF_ydo=", "properties": {"@source_uri": "https://tools.usps.com/UspsToolsRestServices/rest/POLocator/findLocations", "@spider": "usps_collection_boxes", "addr:city": "WEST COLUMBIA", "addr:country": "US", "addr:postcode": "77486", "addr:state": "TX", "addr:street_address": "100 FREEMAN BLVD", "amenity": "post_box", "collection_times": "Mo-Sa 13:00", "note": "ON 12/24 AND 12/31, THIS BOX MAY BE COLLECTED AS EARLY AS 12 NOON.", "nsi_id": "unitedstatespostalservice-a77078", "operator": "United States Postal Service", "operator:short": "USPS", "operator:type": "public", "operator:wikidata": "Q668687", "ref": "7748600002"}, "type": "Feature"}
{"geometry": {"coordinates": [-95.652114, 29.145637], "type": "Point"}, "id": "rKzIsHBMbEB9gUnHB8G-mBmfS4s=", "properties": {"@source_uri": "https://tools.usps.com/UspsToolsRestServices/rest/POLocator/findLocations", "@spider": "usps_collection_boxes", "addr:city": "WEST COLUMBIA", "addr:country": "US", "addr:postcode": "77486", "addr:state": "TX", "addr:street_address": "350 W BRAZOS AVE", "amenity": "post_box", "collection_times": "Mo-Fr 16:00; Sa 12:00", "indoor": "yes", "note": "ON 12/24 AND 12/31, THIS BOX MAY BE COLLECTED AS EARLY AS 12 NOON.", "nsi_id": "unitedstatespostalservice-a77078", "operator": "United States Postal Service", "operator:short": "USPS", "operator:type": "public", "operator:wikidata": "Q668687", "ref": "7748600006"}, "type": "Feature"}
{"geometry": {"coordinates": [-95.652114, 29.145637], "type": "Point"}, "id": "AI0QqtdfxxKOIwGycL9coLETo7k=", "properties": {"@source_uri": "https://tools.usps.com/UspsToolsRestServices/rest/POLocator/findLocations", "@spider": "usps_collection_boxes", "addr:city": "WEST COLUMBIA", "addr:country": "US", "addr:postcode": "77486", "addr:state": "TX", "addr:street_address": "350 W BRAZOS AVE", "amenity": "post_box", "collection_times": "Mo-Fr 16:00; Sa 12:00", "indoor": "yes", "note": "ON 12/24 AND 12/31, THIS BOX MAY BE COLLECTED AS EARLY AS 12 NOON.", "nsi_id": "unitedstatespostalservice-a77078", "operator": "United States Postal Service", "operator:short": "USPS", "operator:type": "public", "operator:wikidata": "Q668687", "ref": "7748600007"}, "type": "Feature"}
{"geometry": {"coordinates": [-95.652115539, 29.145631794], "type": "Point"}, "id": "kRygjVpiPSekTEZvufM4fAzpj_8=", "properties": {"@source_uri": "https://tools.usps.com/UspsToolsRestServices/rest/POLocator/findLocations", "@spider": "usps_collection_boxes", "addr:city": "WEST COLUMBIA", "addr:country": "US", "addr:postcode": "77486", "addr:state": "TX", "addr:street_address": "350 W BRAZOS AVE", "amenity": "post_box", "collection_times": "Mo-Fr 16:30; Sa 12:00", "indoor": "yes", "note": "ON 12/24 AND 12/31, THIS BOX MAY BE COLLECTED AS EARLY AS 12 NOON.", "nsi_id": "unitedstatespostalservice-a77078", "operator": "United States Postal Service", "operator:short": "USPS", "operator:type": "public", "operator:wikidata": "Q668687", "ref": "7748600009"}, "type": "Feature"}
{"geometry": {"coordinates": [-96.0991747005, 29.3104669763], "type": "Point"}, "id": "G9i-HtP4jApp8G0CsxwDxeUJi9w=", "properties": {"@source_uri": "https://tools.usps.com/UspsToolsRestServices/rest/POLocator/findLocations", "@spider": "usps_collection_boxes", "addr:city": "WHARTON", "addr:country": "US", "addr:postcode": "77488", "addr:state": "TX", "addr:street_address": "100 S RUSK ST", "amenity": "post_box", "collection_times": "Mo-Fr 17:00; Sa 15:00", "note": "ON 12/24 AND 12/31, THIS BOX MAY BE COLLECTED AS EARLY AS 12 NOON.", "nsi_id": "unitedstatespostalservice-a77078", "operator": "United States Postal Service", "operator:short": "USPS", "operator:type": "public", "operator:wikidata": "Q668687", "ref": "7748800014"}, "type": "Feature"}
{"geometry": {"coordinates": [-96.099204, 29.310556], "type": "Point"}, "id": "ehmUwVbb7Eng0ycKdntvGDcWHJ0=", "properties": {"@source_uri": "https://tools.usps.com/UspsToolsRestServices/rest/POLocator/findLocations", "@spider": "usps_collection_boxes", "addr:city": "WHARTON", "addr:country": "US", "addr:postcode": "77488", "addr:state": "TX", "addr:street_address": "141 E MILAM ST", "amenity": "post_box", "collection_times": "Mo-Fr 17:00; Sa 15:00", "indoor": "yes", "note": "ON 12/24 AND 12/31, THIS BOX MAY BE COLLECTED AS EARLY AS 12 NOON.", "nsi_id": "unitedstatespostalservice-a77078", "operator": "United States Postal Service", "operator:short": "USPS", "operator:type": "public", "operator:wikidata": "Q668687", "ref": "7748800022"}, "type": "Feature"}
{"geometry": {"coordinates": [-96.099204, 29.310556], "type": "Point"}, "id": "3uZsRoPc7FYCGRhwSmdmyG26aAk=", "properties": {"@source_uri": "https://tools.usps.com/UspsToolsRestServices/rest/POLocator/findLocations", "@spider": "usps_collection_boxes", "addr:city": "WHARTON", "addr:country": "US", "addr:postcode": "77488", "addr:state": "TX", "addr:street_address": "141 E MILAM ST", "amenity": "post_box", "collection_times": "Mo-Fr 17:00; Sa 15:00", "indoor": "yes", "note": "ON 12/24 AND 12/31, THIS BOX MAY BE COLLECTED AS EARLY AS 12 NOON.", "nsi_id": "unitedstatespostalservice-a77078", "operator": "United States Postal Service", "operator:short": "USPS", "operator:type": "public", "operator:wikidata": "Q668687", "ref": "7748800024"}, "type": "Feature"}
{"geometry": {"coordinates": [-96.0992136783, 29.3105557172], "type": "Point"}, "id": "8DyLdnTTlNo9fBa9o0bD2f1Q0so=", "properties": {"@source_uri": "https://tools.usps.com/UspsToolsRestServices/rest/POLocator/findLocations", "@spider": "usps_collection_boxes", "addr:city": "WHARTON", "addr:country": "US", "addr:postcode": "77488", "addr:state": "TX", "addr:street_address": "141 E MILAM ST", "amenity": "post_box", "collection_times": "Mo-Fr 16:30; Sa 12:00", "indoor": "yes", "note": "ON 12/24 AND 12/31, THIS BOX MAY BE COLLECTED AS EARLY AS 12 NOON.", "nsi_id": "unitedstatespostalservice-a77078", "operator": "United States Postal Service", "operator:short": "USPS", "operator:type": "public", "operator:wikidata": "Q668687", "ref": "7748800029"}, "type": "Feature"}
{"geometry": {"coordinates": [-95.52681356, 29.598271994], "type": "Point"}, "id": "KaQe2t2f-9_qL5qLNetlaXpfxDE=", "properties": {"@source_uri": "https://tools.usps.com/UspsToolsRestServices/rest/POLocator/findLocations", "@spider": "usps_collection_boxes", "addr:city": "MISSOURI CITY", "addr:country": "US", "addr:postcode": "77489", "addr:state": "TX", "addr:street_address": "1902 TEXAS PKWY", "amenity": "post_box", "collection_times": "Mo-Fr 17:00; Sa 13:00", "indoor": "yes", "note": "ON 12/24 AND 12/31, THIS BOX MAY BE COLLECTED AS EARLY AS 12 NOON.", "nsi_id": "unitedstatespostalservice-a77078", "operator": "United States Postal Service", "operator:short": "USPS", "operator:type": "public", "operator:wikidata": "Q668687", "ref": "7748900004"}, "type": "Feature"}
{"geometry": {"coordinates": [-95.8099658, 29.80151], "type": "Point"}, "id": "XdPGsSMGjpLr60JnzbpIPJPGx8g=", "properties": {"@source_uri": "https://tools.usps.com/UspsToolsRestServices/rest/POLocator/findLocations", "@spider": "usps_collection_boxes", "addr:city": "KATY", "addr:country": "US", "addr:postcode": "77493", "addr:state": "TX", "addr:street_address": "5249 FRANZ RD", "amenity": "post_box", "collection_times": "Mo-Fr 14:45; Sa 15:00", "note": "ON 12/24 AND 12/31, THIS BOX MAY BE COLLECTED AS EARLY AS 12 NOON.", "nsi_id": "unitedstatespostalservice-a77078", "operator": "United States Postal Service", "operator:short": "USPS", "operator:type": "public", "operator:wikidata": "Q668687", "ref": "7749300004"}, "type": "Feature"}
{"geometry": {"coordinates": [-95.822500332, 29.78902554], "type": "Point"}, "id": "AKAI5tBa0wqocMGtuKZKF9-WCNI=", "properties": {"@source_uri": "https://tools.usps.com/UspsToolsRestServices/rest/POLocator/findLocations", "@spider": "usps_collection_boxes", "addr:city": "KATY", "addr:country": "US", "addr:postcode": "77493", "addr:state": "TX", "addr:street_address": "5701 4TH ST", "amenity": "post_box", "collection_times": "Mo-Fr 16:30", "indoor": "yes", "note": "ON 12/24 AND 12/31, THIS BOX MAY BE COLLECTED AS EARLY AS 12 NOON.", "nsi_id": "unitedstatespostalservice-a77078", "operator": "United States Postal Service", "operator:short": "USPS", "operator:type": "public", "operator:wikidata": "Q668687", "ref": "7749300016"}, "type": "Feature"}
{"geometry": {"coordinates": [-95.798741, 29.750329], "type": "Point"}, "id": "ugDcAqKmHfMAc-_VECfNPBTPxjU=", "properties": {"@source_uri": "https://tools.usps.com/UspsToolsRestServices/rest/POLocator/findLocations", "@spider": "usps_collection_boxes", "addr:city": "KATY", "addr:country": "US", "addr:postcode": "77494", "addr:state": "TX", "addr:street_address": "25647 WESTHEIMER PKWY", "amenity": "post_box", "collection_times": "Mo-Sa 15:15", "note": "ON 12/24 AND 12/31, THIS BOX MAY BE COLLECTED AS EARLY AS 12 NOON.", "nsi_id": "unitedstatespostalservice-a77078", "operator": "United States Postal Service", "operator:short": "USPS", "operator:type": "public", "operator:wikidata": "Q668687", "ref": "7749400002"}, "type": "Feature"}
{"geometry": {"coordinates": [-95.7779147, 29.757759], "type": "Point"}, "id": "9jTZkcgGPD_4BEdrsw21kNdXaVI=", "properties": {"@source_uri": "https://tools.usps.com/UspsToolsRestServices/rest/POLocator/findLocations", "@spider": "usps_collection_boxes", "addr:city": "KATY", "addr:country": "US", "addr:postcode": "77494", "addr:state": "TX", "addr:street_address": "1550 GRAND PKWY # 99", "amenity": "post_box", "collection_times": "Mo-Fr 15:00; Sa 15:30", "note": "ON 12/24 AND 12/31, THIS BOX MAY BE COLLECTED AS EARLY AS 12 NOON.", "nsi_id": "unitedstatespostalservice-a77078", "operator": "United States Postal Service", "operator:short": "USPS", "operator:type": "public", "operator:wikidata": "Q668687", "ref": "7749400003"}, "type": "Feature"}
{"geometry": {"coordinates": [-95.8170182, 29.771215], "type": "Point"}, "id": "A92Uox3Vv0j7qdWhCmaDm6rAwHE=", "properties": {"@source_uri": "https://tools.usps.com/UspsToolsRestServices/rest/POLocator/findLocations", "@spider": "usps_collection_boxes", "addr:city": "KATY", "addr:country": "US", "addr:postcode": "77494", "addr:state": "TX", "addr:street_address": "1331 PIN OAK RD", "amenity": "post_box", "collection_times": "Mo-Fr 17:00; Sa 16:15", "indoor": "yes", "note": "ON 12/24 AND 12/31, THIS BOX MAY BE COLLECTED AS EARLY AS 12 NOON.", "nsi_id": "unitedstatespostalservice-a77078", "operator": "United States Postal Service", "operator:short": "USPS", "operator:type": "public", "operator:wikidata": "Q668687", "ref": "7749400006"}, "type": "Feature"}
{"geometry": {"coordinates": [-95.7763008, 29.742625], "type": "Point"}, "id": "V-7k9eXi-1xXDEK4y-cnagXnKNI=", "properties": {"@source_uri": "https://tools.usps.com/UspsToolsRestServices/rest/POLocator/findLocations", "@spider": "usps_collection_boxes", "addr:city": "KATY", "addr:country": "US", "addr:postcode": "77494", "addr:state": "TX", "addr:street_address": "23501 CINCO RANCH BLVD", "amenity": "post_box", "collection_times": "Mo-Fr 15:15; Sa 15:30", "note": "ON 12/24 AND 12/31, THIS BOX MAY BE COLLECTED AS EARLY AS 12 NOON.", "nsi_id": "unitedstatespostalservice-a77078", "operator": "United States Postal Service", "operator:short": "USPS", "operator:type": "public", "operator:wikidata": "Q668687", "ref": "7749400009"}, "type": "Feature"}
{"geometry": {"coordinates": [-95.7867132179, 29.7849707194], "type": "Point"}, "id": "lpXOqsG20aSklaAazjvx_dDJVyY=", "properties": {"@source_uri": "https://tools.usps.com/UspsToolsRestServices/rest/POLocator/findLocations", "@spider": "usps_collection_boxes", "addr:city": "KATY", "addr:country": "US", "addr:postcode": "77494", "addr:state": "TX", "addr:street_address": "24275 KATY FWY", "amenity": "post_box", "collection_times": "Mo-Fr 15:00", "note": "ON 12/24 AND 12/31, THIS BOX MAY BE COLLECTED AS EARLY AS 12 NOON.", "nsi_id": "unitedstatespostalservice-a77078", "operator": "United States Postal Service", "operator:short": "USPS", "operator:type": "public", "operator:wikidata": "Q668687", "ref": "7749400020"}, "type": "Feature"}
