{"geometry": {"coordinates": [-95.2005941, 29.692658], "type": "Point"}, "id": "Ge6gdLVUW4eXXB0wn1R6xNnEYmA=", "properties": {"@spider": "usps_collection_boxes", "addr:city": "PASADENA", "addr:country": "US", "addr:full": "1199 PASADENA BLVD", "addr:postcode": "77501", "addr:state": "TX", "amenity": "post_box", "brand": "United States Postal Service", "brand:wikidata": "Q668687", "collection_times": "Mo-Fr 17:00; Sa 16:45", "name": "USPS COLLECTION BOX - PO LOBBY", "note": "ON 12/24 AND 12/31, THIS BOX MAY BE COLLECTED AS EARLY AS 12 NOON.", "nsi_id": "unitedstatespostalservice-a77078", "operator": "United States Postal Service", "operator:short": "USPS", "operator:type": "public", "operator:wikidata": "Q668687", "ref": "7750100006"}, "type": "Feature"}
{"geometry": {"coordinates": [-95.2008593273, 29.6922543628], "type": "Point"}, "id": "ojhprlOMiQK1kw2YXt4GvUsakHw=", "properties": {"@spider": "usps_collection_boxes", "addr:city": "PASADENA", "addr:country": "US", "addr:full": "1199 PASADENA BLVD", "addr:postcode": "77501", "addr:state": "TX", "amenity": "post_box", "brand": "United States Postal Service", "brand:wikidata": "Q668687", "collection_times": "Mo-Fr 17:00; Sa 14:00", "name": "USPS COLLECTION BOX - PO LOBBY", "note": "ON 12/24 AND 12/31, THIS BOX MAY BE COLLECTED AS EARLY AS 12 NOON.", "nsi_id": "unitedstatespostalservice-a77078", "operator": "United States Postal Service", "operator:short": "USPS", "operator:type": "public", "operator:wikidata": "Q668687", "ref": "7750100013"}, "type": "Feature"}
{"geometry": {"coordinates": [-95.2205805, 29.688633], "type": "Point"}, "id": "WwweiLh862wMAXgb6y-v5dd_eFs=", "properties": {"@spider": "usps_collection_boxes", "addr:city": "PASADENA", "addr:country": "US", "addr:full": "1520 RICHEY ST", "addr:postcode": "77502", "addr:state": "TX", "amenity": "post_box", "brand": "United States Postal Service", "brand:wikidata": "Q668687", "collection_times": "Mo-Fr 17:00; Sa 16:30", "name": "USPS COLLECTION BOX - BLUE BOX", "note": "ON 12/24 AND 12/31, THIS BOX MAY BE COLLECTED AS EARLY AS 12 NOON.", "nsi_id": "unitedstatespostalservice-a77078", "operator": "United States Postal Service", "operator:short": "USPS", "operator:type": "public", "operator:wikidata": "Q668687", "ref": "7750200026"}, "type": "Feature"}
{"geometry": {"coordinates": [-95.220567, 29.68864], "type": "Point"}, "id": "Ql2lXbb96Dolt2RW3NQxjOhPhFA=", "properties": {"@spider": "usps_collection_boxes", "addr:city": "PASADENA", "addr:country": "US", "addr:full": "1520 RICHEY ST", "addr:postcode": "77502", "addr:state": "TX", "amenity": "post_box", "brand": "United States Postal Service", "brand:wikidata": "Q668687", "collection_times": "Mo-Fr 17:00; Sa 16:30", "name": "USPS COLLECTION BOX - PO LOBBY", "note": "ON 12/24 AND 12/31, THIS BOX MAY BE COLLECTED AS EARLY AS 12 NOON.", "nsi_id": "unitedstatespostalservice-a77078", "operator": "United States Postal Service", "operator:short": "USPS", "operator:type": "public", "operator:wikidata": "Q668687", "ref": "7750200036"}, "type": "Feature"}
{"geometry": {"coordinates": [-95.22020772, 29.688440258], "type": "Point"}, "id": "MMRWwM4bjJFMlSnODznx8sP8uiQ=", "properties": {"@spider": "usps_collection_boxes", "addr:city": "PASADENA", "addr:country": "US", "addr:full": "1520 RICHEY ST", "addr:postcode": "77502", "addr:state": "TX", "amenity": "post_box", "brand": "United States Postal Service", "brand:wikidata": "Q668687", "collection_times": "Mo-Fr 17:00", "name": "USPS COLLECTION BOX - PO LOBBY", "note": "ON 12/24 AND 12/31, THIS BOX MAY BE COLLECTED AS EARLY AS 12 NOON.", "nsi_id": "unitedstatespostalservice-a77078", "operator": "United States Postal Service", "operator:short": "USPS", "operator:type": "public", "operator:wikidata": "Q668687", "ref": "7750200039"}, "type": "Feature"}
{"geometry": {"coordinates": [-95.1669145, 29.681255], "type": "Point"}, "id": "j-LiVTxI3QGRFDMWXs9OFBzKvw4=", "properties": {"@spider": "usps_collection_boxes", "addr:city": "PASADENA", "addr:country": "US", "addr:full": "3216 PASADENA BLVD", "addr:postcode": "77503", "addr:state": "TX", "amenity": "post_box", "brand": "United States Postal Service", "brand:wikidata": "Q668687", "collection_times": "Mo-Fr 13:00", "name": "USPS COLLECTION BOX - BLUE BOX", "note": "ON 12/24 AND 12/31, THIS BOX MAY BE COLLECTED AS EARLY AS 12 NOON.", "nsi_id": "unitedstatespostalservice-a77078", "operator": "United States Postal Service", "operator:short": "USPS", "operator:type": "public", "operator:wikidata": "Q668687", "ref": "7750300002"}, "type": "Feature"}
{"geometry": {"coordinates": [-95.1867886, 29.662155], "type": "Point"}, "id": "c4spXGG4KDLG8-HW66yyR0Ld0GI=", "properties": {"@spider": "usps_collection_boxes", "addr:city": "PASADENA", "addr:country": "US", "addr:full": "3222 BURKE RD", "addr:postcode": "77504", "addr:state": "TX", "amenity": "post_box", "brand": "United States Postal Service", "brand:wikidata": "Q668687", "collection_times": "Mo-Fr 13:15", "name": "USPS COLLECTION BOX - BLUE BOX", "note": "ON 12/24 AND 12/31, THIS BOX MAY BE COLLECTED AS EARLY AS 12 NOON.", "nsi_id": "unitedstatespostalservice-a77078", "operator": "United States Postal Service", "operator:short": "USPS", "operator:type": "public", "operator:wikidata": "Q668687", "ref": "7750400003"}, "type": "Feature"}
{"geometry": {"coordinates": [-95.1835101392, 29.6507755462], "type": "Point"}, "id": "pPxFfGjwikA65SxXEqwi8j6F3Uo=", "properties": {"@spider": "usps_collection_boxes", "addr:city": "PASADENA", "addr:country": "US", "addr:full": "4010 FAIRMONT PKWY", "addr:postcode": "77504", "addr:state": "TX", "amenity": "post_box", "brand": "United States Postal Service", "brand:wikidata": "Q668687", "collection_times": "Mo-Fr 14:00", "name": "USPS COLLECTION BOX - BLUE BOX", "note": "ON 12/24 AND 12/31, THIS BOX MAY BE COLLECTED AS EARLY AS 12 NOON.", "nsi_id": "unitedstatespostalservice-a77078", "operator": "United States Postal Service", "operator:short": "USPS", "operator:type": "public", "operator:wikidata": "Q668687", "ref": "7750400009"}, "type": "Feature"}
{"geometry": {"coordinates": [-95.1837746, 29.660617], "type": "Point"}, "id": "cuY9pWcNTvz7WIP89kJO8TgmOTo=", "properties": {"@spider": "usps_collection_boxes", "addr:city": "PASADENA", "addr:country": "US", "addr:full": "4000 SPENCER HWY", "addr:postcode": "77504", "addr:state": "TX", "amenity": "post_box", "brand": "United States Postal Service", "brand:wikidata": "Q668687", "collection_times": "Mo-Fr 13:30", "name": "USPS COLLECTION BOX - BLUE BOX", "note": "ON 12/24 AND 12/31, THIS BOX MAY BE COLLECTED AS EARLY AS 12 NOON.", "nsi_id": "unitedstatespostalservice-a77078", "operator": "United States Postal Service", "operator:short": "USPS", "operator:type": "public", "operator:wikidata": "Q668687", "ref": "7750400015"}, "type": "Feature"}
{"geometry": {"coordinates": [-95.1815018, 29.660136], "type": "Point"}, "id": "wz3nmHD9aVLM2IPU7IU6LMFJZzk=", "properties": {"@spider": "usps_collection_boxes", "addr:city": "PASADENA", "addr:country": "US", "addr:full": "4102 WOODLAWN AVE", "addr:postcode": "77504", "addr:state": "TX", "amenity": "post_box", "brand": "United States Postal Service", "brand:wikidata": "Q668687", "collection_times": "Mo-Fr 13:30", "name": "USPS COLLECTION BOX - BLUE BOX", "note": "ON 12/24 AND 12/31, THIS BOX MAY BE COLLECTED AS EARLY AS 12 NOON.", "nsi_id": "unitedstatespostalservice-a77078", "operator": "United States Postal Service", "operator:short": "USPS", "operator:type": "public", "operator:wikidata": "Q668687", "ref": "7750400016"}, "type": "Feature"}
{"geometry": {"coordinates": [-95.1869319, 29.665446], "type": "Point"}, "id": "H1dc_tSgCbGaG8O4smugopr17Y0=", "properties": {"@spider": "usps_collection_boxes", "addr:city": "PASADENA", "addr:country": "US", "addr:full": "3707 SPENCER HWY", "addr:postcode": "77504", "addr:state": "TX", "amenity": "post_box", "brand": "United States Postal Service", "brand:wikidata": "Q668687", "collection_times": "Mo-Fr 13:00", "name": "USPS COLLECTION BOX - BLUE BOX", "note": "ON 12/24 AND 12/31, THIS BOX MAY BE COLLECTED AS EARLY AS 12 NOON.", "nsi_id": "unitedstatespostalservice-a77078", "operator": "United States Postal Service", "operator:short": "USPS", "operator:type": "public", "operator:wikidata": "Q668687", "ref": "7750400018"}, "type": "Feature"}
{"geometry": {"coordinates": [-95.1810599695, 29.650716801], "type": "Point"}, "id": "UMdW5PY-Gl3pv-_y-UXvJOYLCks=", "properties": {"@spider": "usps_collection_boxes", "addr:city": "PASADENA", "addr:country": "US", "addr:full": "4120 FAIRMONT PKWY", "addr:postcode": "77504", "addr:state": "TX", "amenity": "post_box", "brand": "United States Postal Service", "brand:wikidata": "Q668687", "collection_times": "Mo-Fr 14:00", "name": "USPS COLLECTION BOX - BLUE BOX", "note": "ON 12/24 AND 12/31, THIS BOX MAY BE COLLECTED AS EARLY AS 12 NOON.", "nsi_id": "unitedstatespostalservice-a77078", "operator": "United States Postal Service", "operator:short": "USPS", "operator:type": "public", "operator:wikidata": "Q668687", "ref": "7750400019"}, "type": "Feature"}
{"geometry": {"coordinates": [-95.1844681, 29.659334], "type": "Point"}, "id": "tJr2Nd43uQN2Cp7ccmyzA2VBAJ4=", "properties": {"@spider": "usps_collection_boxes", "addr:city": "PASADENA", "addr:country": "US", "addr:full": "3801 VISTA RD", "addr:postcode": "77504", "addr:state": "TX", "amenity": "post_box", "brand": "United States Postal Service", "brand:wikidata": "Q668687", "collection_times": "Mo-Fr 13:45", "name": "USPS COLLECTION BOX - BLUE BOX", "note": "ON 12/24 AND 12/31, THIS BOX MAY BE COLLECTED AS EARLY AS 12 NOON.", "nsi_id": "unitedstatespostalservice-a77078", "operator": "United States Postal Service", "operator:short": "USPS", "operator:type": "public", "operator:wikidata": "Q668687", "ref": "7750400021"}, "type": "Feature"}
{"geometry": {"coordinates": [-95.1898466, 29.663766], "type": "Point"}, "id": "QifJDgxFPQiKMAOLuUVyRoD_Dlo=", "properties": {"@spider": "usps_collection_boxes", "addr:city": "PASADENA", "addr:country": "US", "addr:full": "3550 SPENCER HWY", "addr:postcode": "77504", "addr:state": "TX", "amenity": "post_box", "brand": "United States Postal Service", "brand:wikidata": "Q668687", "collection_times": "Mo-Fr 13:15", "name": "USPS COLLECTION BOX - BLUE BOX", "note": "ON 12/24 AND 12/31, THIS BOX MAY BE COLLECTED AS EARLY AS 12 NOON.", "nsi_id": "unitedstatespostalservice-a77078", "operator": "United States Postal Service", "operator:short": "USPS", "operator:type": "public", "operator:wikidata": "Q668687", "ref": "7750400025"}, "type": "Feature"}
{"geometry": {"coordinates": [-95.172922, 29.649514], "type": "Point"}, "id": "nRSJyHAH7g3SxM86KwntC8AKlm8=", "properties": {"@spider": "usps_collection_boxes", "addr:city": "PASADENA", "addr:country": "US", "addr:full": "4620 FAIRMONT PKWY", "addr:postcode": "77504", "addr:state": "TX", "amenity": "post_box", "brand": "United States Postal Service", "brand:wikidata": "Q668687", "collection_times": "Mo-Fr 14:15", "name": "USPS COLLECTION BOX - BLUE BOX", "note": "ON 12/24 AND 12/31, THIS BOX MAY BE COLLECTED AS EARLY AS 12 NOON.", "nsi_id": "unitedstatespostalservice-a77078", "operator": "United States Postal Service", "operator:short": "USPS", "operator:type": "public", "operator:wikidata": "Q668687", "ref": "7750400026"}, "type": "Feature"}
{"geometry": {"coordinates": [-95.147413, 29.665747], "type": "Point"}, "id": "gYAOdgJHHJ-pgZo_Rmm5jjeiM5c=", "properties": {"@spider": "usps_collection_boxes", "addr:city": "PASADENA", "addr:country": "US", "addr:full": "6100 SPENCER HWY", "addr:postcode": "77505", "addr:state": "TX", "amenity": "post_box", "brand": "United States Postal Service", "brand:wikidata": "Q668687", "collection_times": "Mo-Fr 17:00; Sa 13:45", "name": "USPS COLLECTION BOX - PO LOBBY", "note": "ON 12/24 AND 12/31, THIS BOX MAY BE COLLECTED AS EARLY AS 12 NOON.", "nsi_id": "unitedstatespostalservice-a77078", "operator": "United States Postal Service", "operator:short": "USPS", "operator:type": "public", "operator:wikidata": "Q668687", "ref": "7750500019"}, "type": "Feature"}
{"geometry": {"coordinates": [-95.1348169, 29.665279], "type": "Point"}, "id": "_xFGk61GTLID7hHfjjiHf7c5qdU=", "properties": {"@spider": "usps_collection_boxes", "addr:city": "PASADENA", "addr:country": "US", "addr:full": "6767 SPENCER HWY", "addr:postcode": "77505", "addr:state": "TX", "amenity": "post_box", "brand": "United States Postal Service", "brand:wikidata": "Q668687", "collection_times": "Mo-Fr 14:45", "name": "USPS COLLECTION BOX - BLUE BOX", "note": "ON 12/24 AND 12/31, THIS BOX MAY BE COLLECTED AS EARLY AS 12 NOON.", "nsi_id": "unitedstatespostalservice-a77078", "operator": "United States Postal Service", "operator:short": "USPS", "operator:type": "public", "operator:wikidata": "Q668687", "ref": "7750500023"}, "type": "Feature"}
{"geometry": {"coordinates": [-95.147413, 29.665747], "type": "Point"}, "id": "Vw7AhJdCg8eCehVdFHGl2S82b88=", "properties": {"@spider": "usps_collection_boxes", "addr:city": "PASADENA", "addr:country": "US", "addr:full": "6100 SPENCER HWY", "addr:postcode": "77505", "addr:state": "TX", "amenity": "post_box", "brand": "United States Postal Service", "brand:wikidata": "Q668687", "collection_times": "Mo-Fr 17:00; Sa 13:45", "name": "USPS COLLECTION BOX - APC", "note": "ON 12/24 AND 12/31, THIS BOX MAY BE COLLECTED AS EARLY AS 12 NOON.", "nsi_id": "unitedstatespostalservice-a77078", "operator": "United States Postal Service", "operator:short": "USPS", "operator:type": "public", "operator:wikidata": "Q668687", "ref": "7750500024"}, "type": "Feature"}
{"geometry": {"coordinates": [-95.147456653, 29.665698732], "type": "Point"}, "id": "EGzLmWCl-eQI4I5LlP6bpZVi-e0=", "properties": {"@spider": "usps_collection_boxes", "addr:city": "PASADENA", "addr:country": "US", "addr:full": "6100 SPENCER HWY", "addr:postcode": "77505", "addr:state": "TX", "amenity": "post_box", "brand": "United States Postal Service", "brand:wikidata": "Q668687", "collection_times": "Mo-Fr 17:00; Sa 14:00", "name": "USPS COLLECTION BOX - PO LOBBY", "note": "ON 12/24 AND 12/31, THIS BOX MAY BE COLLECTED AS EARLY AS 12 NOON.", "nsi_id": "unitedstatespostalservice-a77078", "operator": "United States Postal Service", "operator:short": "USPS", "operator:type": "public", "operator:wikidata": "Q668687", "ref": "7750500031"}, "type": "Feature"}
{"geometry": {"coordinates": [-95.1974549, 29.694855], "type": "Point"}, "id": "v6WjncDPlLiu23kb-7ENRudd_qc=", "properties": {"@spider": "usps_collection_boxes", "addr:city": "PASADENA", "addr:country": "US", "addr:full": "1149 ELLSWORTH DR", "addr:postcode": "77506", "addr:state": "TX", "amenity": "post_box", "brand": "United States Postal Service", "brand:wikidata": "Q668687", "collection_times": "Mo-Fr 15:45", "name": "USPS COLLECTION BOX - BLUE BOX", "note": "ON 12/24 AND 12/31, THIS BOX MAY BE COLLECTED AS EARLY AS 12 NOON.", "nsi_id": "unitedstatespostalservice-a77078", "operator": "United States Postal Service", "operator:short": "USPS", "operator:type": "public", "operator:wikidata": "Q668687", "ref": "7750600004"}, "type": "Feature"}
{"geometry": {"coordinates": [-95.2199808907, 29.7123277213], "type": "Point"}, "id": "Q8ZfR5YhL5nrRUY0MI-MY6oIXUo=", "properties": {"@spider": "usps_collection_boxes", "addr:city": "PASADENA", "addr:country": "US", "addr:full": "101 RICHEY ST", "addr:postcode": "77506", "addr:state": "TX", "amenity": "post_box", "brand": "United States Postal Service", "brand:wikidata": "Q668687", "collection_times": "Mo-Fr 16:45; Sa 16:15", "name": "USPS COLLECTION BOX - BLUE BOX", "note": "ON 12/24 AND 12/31, THIS BOX MAY BE COLLECTED AS EARLY AS 12 NOON.", "nsi_id": "unitedstatespostalservice-a77078", "operator": "United States Postal Service", "operator:short": "USPS", "operator:type": "public", "operator:wikidata": "Q668687", "ref": "7750600023"}, "type": "Feature"}
{"geometry": {"coordinates": [-95.1738105, 29.696301], "type": "Point"}, "id": "hoNrUXRgeBWJzEf8NvXau5kXO-M=", "properties": {"@spider": "usps_collection_boxes", "addr:city": "PASADENA", "addr:country": "US", "addr:full": "2619 RED BLUFF RD", "addr:postcode": "77506", "addr:state": "TX", "amenity": "post_box", "brand": "United States Postal Service", "brand:wikidata": "Q668687", "collection_times": "Mo-Fr 16:15", "name": "USPS COLLECTION BOX - BLUE BOX", "note": "ON 12/24 AND 12/31, THIS BOX MAY BE COLLECTED AS EARLY AS 12 NOON.", "nsi_id": "unitedstatespostalservice-a77078", "operator": "United States Postal Service", "operator:short": "USPS", "operator:type": "public", "operator:wikidata": "Q668687", "ref": "7750600026"}, "type": "Feature"}
{"geometry": {"coordinates": [-95.124702, 29.782029], "type": "Point"}, "id": "9CpyvgwvhRiI5MUD1MBe8iTl7FI=", "properties": {"@spider": "usps_collection_boxes", "addr:city": "CHANNELVIEW", "addr:country": "US", "addr:full": "531 SHELDON RD", "addr:postcode": "77530", "addr:state": "TX", "amenity": "post_box", "brand": "United States Postal Service", "brand:wikidata": "Q668687", "collection_times": "Mo-Fr 17:00; Sa 15:00", "name": "USPS COLLECTION BOX - PO LOBBY", "note": "ON 12/24 AND 12/31, THIS BOX MAY BE COLLECTED AS EARLY AS 12 NOON.", "nsi_id": "unitedstatespostalservice-a77078", "operator": "United States Postal Service", "operator:short": "USPS", "operator:type": "public", "operator:wikidata": "Q668687", "ref": "7753000022"}, "type": "Feature"}
{"geometry": {"coordinates": [-95.124702, 29.782029], "type": "Point"}, "id": "Ox-dbgShXbTPVH1fdrFCAyFZo-I=", "properties": {"@spider": "usps_collection_boxes", "addr:city": "CHANNELVIEW", "addr:country": "US", "addr:full": "531 SHELDON RD", "addr:postcode": "77530", "addr:state": "TX", "amenity": "post_box", "brand": "United States Postal Service", "brand:wikidata": "Q668687", "collection_times": "Mo-Fr 17:00; Sa 15:00", "name": "USPS COLLECTION BOX - PO LOBBY", "note": "ON 12/24 AND 12/31, THIS BOX MAY BE COLLECTED AS EARLY AS 12 NOON.", "nsi_id": "unitedstatespostalservice-a77078", "operator": "United States Postal Service", "operator:short": "USPS", "operator:type": "public", "operator:wikidata": "Q668687", "ref": "7753000025"}, "type": "Feature"}
{"geometry": {"coordinates": [-95.124693185, 29.782025665], "type": "Point"}, "id": "mxcK4PRnv6BdqDeP4EG-6NCedWQ=", "properties": {"@spider": "usps_collection_boxes", "addr:city": "CHANNELVIEW", "addr:country": "US", "addr:full": "531 SHELDON RD", "addr:postcode": "77530", "addr:state": "TX", "amenity": "post_box", "brand": "United States Postal Service", "brand:wikidata": "Q668687", "collection_times": "Mo-Fr 17:00", "name": "USPS COLLECTION BOX - PO LOBBY", "note": "ON 12/24 AND 12/31, THIS BOX MAY BE COLLECTED AS EARLY AS 12 NOON.", "nsi_id": "unitedstatespostalservice-a77078", "operator": "United States Postal Service", "operator:short": "USPS", "operator:type": "public", "operator:wikidata": "Q668687", "ref": "7753000028"}, "type": "Feature"}
{"geometry": {"coordinates": [-95.0623819768, 29.8897199984], "type": "Point"}, "id": "GP80lBH_4oVbpHXEBKsWpzb_ZdI=", "properties": {"@spider": "usps_collection_boxes", "addr:city": "CROSBY", "addr:country": "US", "addr:full": "105 KENNINGS RD", "addr:postcode": "77532", "addr:state": "TX", "amenity": "post_box", "brand": "United States Postal Service", "brand:wikidata": "Q668687", "collection_times": "Mo-Sa 10:30", "name": "USPS COLLECTION BOX - BLUE BOX", "nsi_id": "unitedstatespostalservice-a77078", "operator": "United States Postal Service", "operator:short": "USPS", "operator:type": "public", "operator:wikidata": "Q668687", "ref": "7753200004"}, "type": "Feature"}
{"geometry": {"coordinates": [-95.067706, 29.920289], "type": "Point"}, "id": "qZlM-M-3glU2gLkkbxBvqHrQFTI=", "properties": {"@spider": "usps_collection_boxes", "addr:city": "CROSBY", "addr:country": "US", "addr:full": "133 HARE RD", "addr:postcode": "77532", "addr:state": "TX", "amenity": "post_box", "brand": "United States Postal Service", "brand:wikidata": "Q668687", "collection_times": "Mo-Fr 16:30; Sa 12:30", "name": "USPS COLLECTION BOX - PO LOBBY", "note": "ON 12/24 AND 12/31, THIS BOX MAY BE COLLECTED AS EARLY AS 12 NOON.", "nsi_id": "unitedstatespostalservice-a77078", "operator": "United States Postal Service", "operator:short": "USPS", "operator:type": "public", "operator:wikidata": "Q668687", "ref": "7753200010"}, "type": "Feature"}
{"geometry": {"coordinates": [-95.067732496, 29.920346632], "type": "Point"}, "id": "akJO4oT9Eul5l79zmuJHl1BOFdE=", "properties": {"@spider": "usps_collection_boxes", "addr:city": "CROSBY", "addr:country": "US", "addr:full": "133 HARE RD", "addr:postcode": "77532", "addr:state": "TX", "amenity": "post_box", "brand": "United States Postal Service", "brand:wikidata": "Q668687", "collection_times": "Mo-Fr 16:00; Sa 12:00", "name": "USPS COLLECTION BOX - PO LOBBY", "note": "ON 12/24 AND 12/31, THIS BOX MAY BE COLLECTED AS EARLY AS 12 NOON.", "nsi_id": "unitedstatespostalservice-a77078", "operator": "United States Postal Service", "operator:short": "USPS", "operator:type": "public", "operator:wikidata": "Q668687", "ref": "7753200014"}, "type": "Feature"}
{"geometry": {"coordinates": [-95.1221254626, 29.689500932], "type": "Point"}, "id": "W_zan-qaysCBui-kYLB2vV6Z4Hs=", "properties": {"@spider": "usps_collection_boxes", "addr:city": "DEER PARK", "addr:country": "US", "addr:full": "200 E SAN AUGUSTINE ST", "addr:postcode": "77536", "addr:state": "TX", "amenity": "post_box", "brand": "United States Postal Service", "brand:wikidata": "Q668687", "collection_times": "Mo-Fr 16:30; Sa 15:00", "name": "USPS COLLECTION BOX - BLUE BOX", "note": "ON 12/24 AND 12/31, THIS BOX MAY BE COLLECTED AS EARLY AS 12 NOON.", "nsi_id": "unitedstatespostalservice-a77078", "operator": "United States Postal Service", "operator:short": "USPS", "operator:type": "public", "operator:wikidata": "Q668687", "ref": "7753600000"}, "type": "Feature"}
{"geometry": {"coordinates": [-95.122112139, 29.689531536], "type": "Point"}, "id": "b7wyal2m_snkZBZ3Dp7M6O_caDo=", "properties": {"@spider": "usps_collection_boxes", "addr:city": "DEER PARK", "addr:country": "US", "addr:full": "200 E SAN AUGUSTINE ST", "addr:postcode": "77536", "addr:state": "TX", "amenity": "post_box", "brand": "United States Postal Service", "brand:wikidata": "Q668687", "collection_times": "Mo-Fr 16:30; Sa 15:00", "name": "USPS COLLECTION BOX - PO LOBBY", "note": "ON 12/24 AND 12/31, THIS BOX MAY BE COLLECTED AS EARLY AS 12 NOON.", "nsi_id": "unitedstatespostalservice-a77078", "operator": "United States Postal Service", "operator:short": "USPS", "operator:type": "public", "operator:wikidata": "Q668687", "ref": "7753600013"}, "type": "Feature"}
{"geometry": {"coordinates": [-95.122112139, 29.689531536], "type": "Point"}, "id": "x2-3D3bf_4eabqKFtdsGGkGeX-k=", "properties": {"@spider": "usps_collection_boxes", "addr:city": "DEER PARK", "addr:country": "US", "addr:full": "200 E SAN AUGUSTINE ST", "addr:postcode": "77536", "addr:state": "TX", "amenity": "post_box", "brand": "United States Postal Service", "brand:wikidata": "Q668687", "collection_times": "Mo-Fr 16:30; Sa 15:00", "name": "USPS COLLECTION BOX - PO LOBBY", "note": "ON 12/24 AND 12/31, THIS BOX MAY BE COLLECTED AS EARLY AS 12 NOON.", "nsi_id": "unitedstatespostalservice-a77078", "operator": "United States Postal Service", "operator:short": "USPS", "operator:type": "public", "operator:wikidata": "Q668687", "ref": "7753600014"}, "type": "Feature"}
{"geometry": {"coordinates": [-95.122112139, 29.689531536], "type": "Point"}, "id": "Xpd7yhDUFqMPfr8XQIxc0QUcXfI=", "properties": {"@spider": "usps_collection_boxes", "addr:city": "DEER PARK", "addr:country": "US", "addr:full": "200 E SAN AUGUSTINE ST", "addr:postcode": "77536", "addr:state": "TX", "amenity": "post_box", "brand": "United States Postal Service", "brand:wikidata": "Q668687", "collection_times": "Mo-Fr 16:30; Sa 15:00", "name": "USPS COLLECTION BOX - PO LOBBY", "note": "ON 12/24 AND 12/31, THIS BOX MAY BE COLLECTED AS EARLY AS 12 NOON.", "nsi_id": "unitedstatespostalservice-a77078", "operator": "United States Postal Service", "operator:short": "USPS", "operator:type": "public", "operator:wikidata": "Q668687", "ref": "7753600015"}, "type": "Feature"}
{"geometry": {"coordinates": [-95.122112139, 29.689531536], "type": "Point"}, "id": "ZzZtKEgqdv8scCrwAhzRJWiZdxM=", "properties": {"@spider": "usps_collection_boxes", "addr:city": "DEER PARK", "addr:country": "US", "addr:full": "200 E SAN AUGUSTINE ST", "addr:postcode": "77536", "addr:state": "TX", "amenity": "post_box", "brand": "United States Postal Service", "brand:wikidata": "Q668687", "collection_times": "Mo-Fr 16:30; Sa 12:00", "name": "USPS COLLECTION BOX - PO LOBBY", "note": "ON 12/24 AND 12/31, THIS BOX MAY BE COLLECTED AS EARLY AS 12 NOON.", "nsi_id": "unitedstatespostalservice-a77078", "operator": "United States Postal Service", "operator:short": "USPS", "operator:type": "public", "operator:wikidata": "Q668687", "ref": "7753600017"}, "type": "Feature"}
{"geometry": {"coordinates": [-95.479564, 29.518738], "type": "Point"}, "id": "eilS5nV1zQZkyEvoRXAtZQjAYQ0=", "properties": {"@spider": "usps_collection_boxes", "addr:city": "FRESNO", "addr:country": "US", "addr:full": "4725 TEAL BEND BLVD", "addr:postcode": "77545", "addr:state": "TX", "amenity": "post_box", "brand": "United States Postal Service", "brand:wikidata": "Q668687", "collection_times": "Mo-Fr 16:30", "name": "USPS COLLECTION BOX - BLUE BOX", "note": "ON 12/24 AND 12/31, THIS BOX MAY BE COLLECTED AS EARLY AS 12 NOON.", "nsi_id": "unitedstatespostalservice-a77078", "operator": "United States Postal Service", "operator:short": "USPS", "operator:type": "public", "operator:wikidata": "Q668687", "ref": "7754500001"}, "type": "Feature"}
{"geometry": {"coordinates": [-95.479564, 29.518791], "type": "Point"}, "id": "TOC_HGHBLitVdfao-Lz2mQ0_cwk=", "properties": {"@spider": "usps_collection_boxes", "addr:city": "FRESNO", "addr:country": "US", "addr:full": "4725 TEAL BEND BLVD", "addr:postcode": "77545", "addr:state": "TX", "amenity": "post_box", "brand": "United States Postal Service", "brand:wikidata": "Q668687", "collection_times": "Mo-Fr 16:30; Sa 12:00", "name": "USPS COLLECTION BOX - PO LOBBY", "note": "ON 12/24 AND 12/31, THIS BOX MAY BE COLLECTED AS EARLY AS 12 NOON.", "nsi_id": "unitedstatespostalservice-a77078", "operator": "United States Postal Service", "operator:short": "USPS", "operator:type": "public", "operator:wikidata": "Q668687", "ref": "7754500002"}, "type": "Feature"}
{"geometry": {"coordinates": [-95.479564, 29.518791], "type": "Point"}, "id": "JTjSkrWe3jHKMP0Gjr5UAeC64q8=", "properties": {"@spider": "usps_collection_boxes", "addr:city": "FRESNO", "addr:country": "US", "addr:full": "4725 TEAL BEND BLVD", "addr:postcode": "77545", "addr:state": "TX", "amenity": "post_box", "brand": "United States Postal Service", "brand:wikidata": "Q668687", "collection_times": "Mo-Fr 16:30; Sa 12:00", "name": "USPS COLLECTION BOX - PO LOBBY", "note": "ON 12/24 AND 12/31, THIS BOX MAY BE COLLECTED AS EARLY AS 12 NOON.", "nsi_id": "unitedstatespostalservice-a77078", "operator": "United States Postal Service", "operator:short": "USPS", "operator:type": "public", "operator:wikidata": "Q668687", "ref": "7754500003"}, "type": "Feature"}
{"geometry": {"coordinates": [-95.4795534098, 29.5187458046], "type": "Point"}, "id": "8NE-5esmQ32a6k8Ckdk0wLn4fXU=", "properties": {"@spider": "usps_collection_boxes", "addr:city": "FRESNO", "addr:country": "US", "addr:full": "4725 TEAL BEND BLVD", "addr:postcode": "77545", "addr:state": "TX", "amenity": "post_box", "brand": "United States Postal Service", "brand:wikidata": "Q668687", "collection_times": "Mo-Fr 16:30; Sa 12:00", "name": "USPS COLLECTION BOX - PO LOBBY", "note": "ON 12/24 AND 12/31, THIS BOX MAY BE COLLECTED AS EARLY AS 12 NOON.", "nsi_id": "unitedstatespostalservice-a77078", "operator": "United States Postal Service", "operator:short": "USPS", "operator:type": "public", "operator:wikidata": "Q668687", "ref": "7754500004"}, "type": "Feature"}
{"geometry": {"coordinates": [-95.2393814162, 29.7324924605], "type": "Point"}, "id": "tW-qG06oxNhsNQj9lvwuMkS2pVU=", "properties": {"@spider": "usps_collection_boxes", "addr:city": "GALENA PARK", "addr:country": "US", "addr:full": "1805 CLINTON DR", "addr:postcode": "77547", "addr:state": "TX", "amenity": "post_box", "brand": "United States Postal Service", "brand:wikidata": "Q668687", "collection_times": "Mo-Fr 17:00; Sa 15:00", "name": "USPS COLLECTION BOX - BLUE BOX", "note": "ON 12/24 AND 12/31, THIS BOX MAY BE COLLECTED AS EARLY AS 12 NOON.", "nsi_id": "unitedstatespostalservice-a77078", "operator": "United States Postal Service", "operator:short": "USPS", "operator:type": "public", "operator:wikidata": "Q668687", "ref": "7754700007"}, "type": "Feature"}
{"geometry": {"coordinates": [-95.239381416, 29.73249246], "type": "Point"}, "id": "wlkcQ3ssKf3coDJ8TICIiu2155Q=", "properties": {"@spider": "usps_collection_boxes", "addr:city": "GALENA PARK", "addr:country": "US", "addr:full": "1805 CLINTON DR", "addr:postcode": "77547", "addr:state": "TX", "amenity": "post_box", "brand": "United States Postal Service", "brand:wikidata": "Q668687", "collection_times": "Mo-Fr 17:00; Sa 15:00", "name": "USPS COLLECTION BOX - PO LOBBY", "note": "ON 12/24 AND 12/31, THIS BOX MAY BE COLLECTED AS EARLY AS 12 NOON.", "nsi_id": "unitedstatespostalservice-a77078", "operator": "United States Postal Service", "operator:short": "USPS", "operator:type": "public", "operator:wikidata": "Q668687", "ref": "7754700010"}, "type": "Feature"}
{"geometry": {"coordinates": [-95.239381416, 29.73249246], "type": "Point"}, "id": "BzbK5sgM3ZSQus-h0srWERsreGQ=", "properties": {"@spider": "usps_collection_boxes", "addr:city": "GALENA PARK", "addr:country": "US", "addr:full": "1805 CLINTON DR", "addr:postcode": "77547", "addr:state": "TX", "amenity": "post_box", "brand": "United States Postal Service", "brand:wikidata": "Q668687", "collection_times": "Mo-Fr 17:00; Sa 15:00", "name": "USPS COLLECTION BOX - PO LOBBY", "note": "ON 12/24 AND 12/31, THIS BOX MAY BE COLLECTED AS EARLY AS 12 NOON.", "nsi_id": "unitedstatespostalservice-a77078", "operator": "United States Postal Service", "operator:short": "USPS", "operator:type": "public", "operator:wikidata": "Q668687", "ref": "7754700011"}, "type": "Feature"}
{"geometry": {"coordinates": [-95.239381416, 29.73249246], "type": "Point"}, "id": "5MDTPz91xcDPHYHZ_tc17KP1MCE=", "properties": {"@spider": "usps_collection_boxes", "addr:city": "GALENA PARK", "addr:country": "US", "addr:full": "1805 CLINTON DR", "addr:postcode": "77547", "addr:state": "TX", "amenity": "post_box", "brand": "United States Postal Service", "brand:wikidata": "Q668687", "collection_times": "Mo-Fr 16:30", "name": "USPS COLLECTION BOX - PO LOBBY", "note": "ON 12/24 AND 12/31, THIS BOX MAY BE COLLECTED AS EARLY AS 12 NOON.", "nsi_id": "unitedstatespostalservice-a77078", "operator": "United States Postal Service", "operator:short": "USPS", "operator:type": "public", "operator:wikidata": "Q668687", "ref": "7754700013"}, "type": "Feature"}
{"geometry": {"coordinates": [-95.3100321, 29.587434], "type": "Point"}, "id": "OnQYOB36WThHYt28yagdRMztW8k=", "properties": {"@spider": "usps_collection_boxes", "addr:city": "PEARLAND", "addr:country": "US", "addr:full": "6243 BROOKSIDE RD", "addr:postcode": "77581", "addr:state": "TX", "amenity": "post_box", "brand": "United States Postal Service", "brand:wikidata": "Q668687", "collection_times": "Mo-Sa 09:30", "name": "USPS COLLECTION BOX - BLUE BOX", "nsi_id": "unitedstatespostalservice-a77078", "operator": "United States Postal Service", "operator:short": "USPS", "operator:type": "public", "operator:wikidata": "Q668687", "ref": "7758100002"}, "type": "Feature"}
{"geometry": {"coordinates": [-95.3829453, 29.579613], "type": "Point"}, "id": "Xkm5todtnlsT1rGUqXqr6moIrPA=", "properties": {"@spider": "usps_collection_boxes", "addr:city": "PEARLAND", "addr:country": "US", "addr:full": "2620 MCHARD RD", "addr:postcode": "77584", "addr:state": "TX", "amenity": "post_box", "brand": "United States Postal Service", "brand:wikidata": "Q668687", "collection_times": "Mo-Fr 14:00; Sa 13:30", "name": "USPS COLLECTION BOX - BLUE BOX", "note": "ON 12/24 AND 12/31, THIS BOX MAY BE COLLECTED AS EARLY AS 12 NOON.", "nsi_id": "unitedstatespostalservice-a77078", "operator": "United States Postal Service", "operator:short": "USPS", "operator:type": "public", "operator:wikidata": "Q668687", "ref": "7758400002"}, "type": "Feature"}
{"geometry": {"coordinates": [-95.3669563, 29.554962], "type": "Point"}, "id": "Iw6UTGAEUcSR7-TdtDnSuV9oweE=", "properties": {"@spider": "usps_collection_boxes", "addr:city": "PEARLAND", "addr:country": "US", "addr:full": "2425 COUNTY ROAD 90", "addr:postcode": "77584", "addr:state": "TX", "amenity": "post_box", "brand": "United States Postal Service", "brand:wikidata": "Q668687", "collection_times": "Mo-Fr 13:15", "name": "USPS COLLECTION BOX - BLUE BOX", "note": "ON 12/24 AND 12/31, THIS BOX MAY BE COLLECTED AS EARLY AS 12 NOON.", "nsi_id": "unitedstatespostalservice-a77078", "operator": "United States Postal Service", "operator:short": "USPS", "operator:type": "public", "operator:wikidata": "Q668687", "ref": "7758400004"}, "type": "Feature"}
{"geometry": {"coordinates": [-95.3515279644, 29.5607259821], "type": "Point"}, "id": "UYhDMSxFQh9eh_JVhYHS9WK9k0c=", "properties": {"@spider": "usps_collection_boxes", "addr:city": "PEARLAND", "addr:country": "US", "addr:full": "2700 CULLEN BLVD", "addr:postcode": "77584", "addr:state": "TX", "amenity": "post_box", "brand": "United States Postal Service", "brand:wikidata": "Q668687", "collection_times": "Mo-Sa 17:00", "name": "USPS COLLECTION BOX - BLUE BOX", "note": "ON 12/24 AND 12/31, THIS BOX MAY BE COLLECTED AS EARLY AS 12 NOON.", "nsi_id": "unitedstatespostalservice-a77078", "operator": "United States Postal Service", "operator:short": "USPS", "operator:type": "public", "operator:wikidata": "Q668687", "ref": "7758400007"}, "type": "Feature"}
{"geometry": {"coordinates": [-95.3514435, 29.560749], "type": "Point"}, "id": "viP3wexzsmlRXFfFtY8lEGrfUZ0=", "properties": {"@spider": "usps_collection_boxes", "addr:city": "PEARLAND", "addr:country": "US", "addr:full": "2700 CULLEN BLVD", "addr:postcode": "77584", "addr:state": "TX", "amenity": "post_box", "brand": "United States Postal Service", "brand:wikidata": "Q668687", "collection_times": "Mo-Sa 17:00", "name": "USPS COLLECTION BOX - PO LOBBY", "note": "ON 12/24 AND 12/31, THIS BOX MAY BE COLLECTED AS EARLY AS 12 NOON.", "nsi_id": "unitedstatespostalservice-a77078", "operator": "United States Postal Service", "operator:short": "USPS", "operator:type": "public", "operator:wikidata": "Q668687", "ref": "7758400009"}, "type": "Feature"}
{"geometry": {"coordinates": [-95.350579977, 29.560379523], "type": "Point"}, "id": "nerdJ2JXjSnegs-bBW8d8-DDPXA=", "properties": {"@spider": "usps_collection_boxes", "addr:city": "PEARLAND", "addr:country": "US", "addr:full": "2700 CULLEN BLVD", "addr:postcode": "77584", "addr:state": "TX", "amenity": "post_box", "brand": "United States Postal Service", "brand:wikidata": "Q668687", "collection_times": "Mo-Fr 17:00", "name": "USPS COLLECTION BOX - PO LOBBY", "note": "ON 12/24 AND 12/31, THIS BOX MAY BE COLLECTED AS EARLY AS 12 NOON.", "nsi_id": "unitedstatespostalservice-a77078", "operator": "United States Postal Service", "operator:short": "USPS", "operator:type": "public", "operator:wikidata": "Q668687", "ref": "7758400020"}, "type": "Feature"}
{"geometry": {"coordinates": [-95.2178724, 29.668495], "type": "Point"}, "id": "gTE4lT_I8KDiHJ1Td-ixwm5QBs4=", "properties": {"@spider": "usps_collection_boxes", "addr:city": "SOUTH HOUSTON", "addr:country": "US", "addr:full": "315 N ALLEN GENOA RD", "addr:postcode": "77587", "addr:state": "TX", "amenity": "post_box", "brand": "United States Postal Service", "brand:wikidata": "Q668687", "collection_times": "Mo-Fr 16:00; Sa 14:00", "name": "USPS COLLECTION BOX - PO LOBBY", "note": "ON 12/24 AND 12/31, THIS BOX MAY BE COLLECTED AS EARLY AS 12 NOON.", "nsi_id": "unitedstatespostalservice-a77078", "operator": "United States Postal Service", "operator:short": "USPS", "operator:type": "public", "operator:wikidata": "Q668687", "ref": "7758700012"}, "type": "Feature"}
{"geometry": {"coordinates": [-95.2182568007, 29.668275763], "type": "Point"}, "id": "X6VKclb4PYQioA_9dULlvS4KhJY=", "properties": {"@spider": "usps_collection_boxes", "addr:city": "SOUTH HOUSTON", "addr:country": "US", "addr:full": "315 N ALLEN GENOA RD", "addr:postcode": "77587", "addr:state": "TX", "amenity": "post_box", "brand": "United States Postal Service", "brand:wikidata": "Q668687", "collection_times": "Mo-Fr 16:00", "name": "USPS COLLECTION BOX - PO LOBBY", "note": "ON 12/24 AND 12/31, THIS BOX MAY BE COLLECTED AS EARLY AS 12 NOON.", "nsi_id": "unitedstatespostalservice-a77078", "operator": "United States Postal Service", "operator:short": "USPS", "operator:type": "public", "operator:wikidata": "Q668687", "ref": "7758700013"}, "type": "Feature"}
