{"geometry": {"coordinates": [-93.842562, 30.02445], "type": "Point"}, "id": "EjIk8JAXFp70OZYxkVYcE2Vhy9s=", "properties": {"@source_uri": "https://tools.usps.com/UspsToolsRestServices/rest/POLocator/findLocations", "@spider": "usps_collection_boxes", "addr:city": "BRIDGE CITY", "addr:country": "US", "addr:postcode": "77611", "addr:state": "TX", "addr:street_address": "900 TEXAS AVE", "amenity": "post_box", "brand": "United States Postal Service", "brand:wikidata": "Q668687", "collection_times": "Mo-Fr 16:30; Sa 11:00", "indoor": "yes", "note": "ON 12/24 AND 12/31, THIS BOX MAY BE COLLECTED AS EARLY AS 12 NOON.", "nsi_id": "unitedstatespostalservice-a77078", "operator": "United States Postal Service", "operator:short": "USPS", "operator:type": "public", "operator:wikidata": "Q668687", "ref": "7761100001"}, "type": "Feature"}
{"geometry": {"coordinates": [-93.8420969871, 30.0238710176], "type": "Point"}, "id": "BnPi5eOssyd9h4vmnBB4CUjaEzs=", "properties": {"@source_uri": "https://tools.usps.com/UspsToolsRestServices/rest/POLocator/findLocations", "@spider": "usps_collection_boxes", "addr:city": "BRIDGE CITY", "addr:country": "US", "addr:postcode": "77611", "addr:state": "TX", "addr:street_address": "900 TEXAS AVE", "amenity": "post_box", "brand": "United States Postal Service", "brand:wikidata": "Q668687", "collection_times": "Mo-Fr 16:30; Sa 15:00", "note": "ON 12/24 AND 12/31, THIS BOX MAY BE COLLECTED AS EARLY AS 12 NOON.", "nsi_id": "unitedstatespostalservice-a77078", "operator": "United States Postal Service", "operator:short": "USPS", "operator:type": "public", "operator:wikidata": "Q668687", "ref": "7761100005"}, "type": "Feature"}
{"geometry": {"coordinates": [-93.842562, 30.02445], "type": "Point"}, "id": "AcXx5sMyYhHvB2YCloqe1AiexaU=", "properties": {"@source_uri": "https://tools.usps.com/UspsToolsRestServices/rest/POLocator/findLocations", "@spider": "usps_collection_boxes", "addr:city": "BRIDGE CITY", "addr:country": "US", "addr:postcode": "77611", "addr:state": "TX", "addr:street_address": "900 TEXAS AVE", "amenity": "post_box", "brand": "United States Postal Service", "brand:wikidata": "Q668687", "collection_times": "Mo-Fr 16:30; Sa 11:00", "indoor": "yes", "note": "ON 12/24 AND 12/31, THIS BOX MAY BE COLLECTED AS EARLY AS 12 NOON.", "nsi_id": "unitedstatespostalservice-a77078", "operator": "United States Postal Service", "operator:short": "USPS", "operator:type": "public", "operator:wikidata": "Q668687", "ref": "7761100008"}, "type": "Feature"}
{"geometry": {"coordinates": [-93.842561904, 30.024442712], "type": "Point"}, "id": "kY9KvUjDyQp3JKPbxgTQZCq6mH8=", "properties": {"@source_uri": "https://tools.usps.com/UspsToolsRestServices/rest/POLocator/findLocations", "@spider": "usps_collection_boxes", "addr:city": "BRIDGE CITY", "addr:country": "US", "addr:postcode": "77611", "addr:state": "TX", "addr:street_address": "900 TEXAS AVE", "amenity": "post_box", "brand": "United States Postal Service", "brand:wikidata": "Q668687", "collection_times": "Mo-Fr 16:15", "indoor": "yes", "note": "ON 12/24 AND 12/31, THIS BOX MAY BE COLLECTED AS EARLY AS 12 NOON.", "nsi_id": "unitedstatespostalservice-a77078", "operator": "United States Postal Service", "operator:short": "USPS", "operator:type": "public", "operator:wikidata": "Q668687", "ref": "7761100011"}, "type": "Feature"}
{"geometry": {"coordinates": [-93.966839, 30.439395], "type": "Point"}, "id": "yQCggoaGVMO1UCaLW4_YmZ1OiBw=", "properties": {"@source_uri": "https://tools.usps.com/UspsToolsRestServices/rest/POLocator/findLocations", "@spider": "usps_collection_boxes", "addr:city": "BUNA", "addr:country": "US", "addr:postcode": "77612", "addr:state": "TX", "addr:street_address": "332 TX STATE HIGHWAY 62", "amenity": "post_box", "brand": "United States Postal Service", "brand:wikidata": "Q668687", "collection_times": "Mo-Fr 16:00; Sa 12:00", "note": "ON 12/24 AND 12/31, THIS BOX MAY BE COLLECTED AS EARLY AS 12 NOON.", "nsi_id": "unitedstatespostalservice-a77078", "operator": "United States Postal Service", "operator:short": "USPS", "operator:type": "public", "operator:wikidata": "Q668687", "ref": "7761200001"}, "type": "Feature"}
{"geometry": {"coordinates": [-93.9672074, 30.439182], "type": "Point"}, "id": "aNIqICn6SZGOTpvVTgfFKlN-FWU=", "properties": {"@source_uri": "https://tools.usps.com/UspsToolsRestServices/rest/POLocator/findLocations", "@spider": "usps_collection_boxes", "addr:city": "BUNA", "addr:country": "US", "addr:postcode": "77612", "addr:state": "TX", "addr:street_address": "332 TX STATE HIGHWAY 62", "amenity": "post_box", "brand": "United States Postal Service", "brand:wikidata": "Q668687", "collection_times": "Mo-Fr 16:00; Sa 12:00", "indoor": "yes", "note": "ON 12/24 AND 12/31, THIS BOX MAY BE COLLECTED AS EARLY AS 12 NOON.", "nsi_id": "unitedstatespostalservice-a77078", "operator": "United States Postal Service", "operator:short": "USPS", "operator:type": "public", "operator:wikidata": "Q668687", "ref": "7761200003"}, "type": "Feature"}
{"geometry": {"coordinates": [-93.9672119, 30.439168], "type": "Point"}, "id": "mvJRtWWhoyXzppT2QdbXk1eWsk8=", "properties": {"@source_uri": "https://tools.usps.com/UspsToolsRestServices/rest/POLocator/findLocations", "@spider": "usps_collection_boxes", "addr:city": "BUNA", "addr:country": "US", "addr:postcode": "77612", "addr:state": "TX", "addr:street_address": "332 TX STATE HIGHWAY 62", "amenity": "post_box", "brand": "United States Postal Service", "brand:wikidata": "Q668687", "collection_times": "Mo-Fr 16:00; Sa 12:00", "indoor": "yes", "note": "ON 12/24 AND 12/31, THIS BOX MAY BE COLLECTED AS EARLY AS 12 NOON.", "nsi_id": "unitedstatespostalservice-a77078", "operator": "United States Postal Service", "operator:short": "USPS", "operator:type": "public", "operator:wikidata": "Q668687", "ref": "7761200004"}, "type": "Feature"}
{"geometry": {"coordinates": [-93.966786066, 30.439509539], "type": "Point"}, "id": "TZI1UuMs18SAZwkUULDeAQUli4c=", "properties": {"@source_uri": "https://tools.usps.com/UspsToolsRestServices/rest/POLocator/findLocations", "@spider": "usps_collection_boxes", "addr:city": "BUNA", "addr:country": "US", "addr:postcode": "77612", "addr:state": "TX", "addr:street_address": "332 TX STATE HIGHWAY 62", "amenity": "post_box", "brand": "United States Postal Service", "brand:wikidata": "Q668687", "collection_times": "Mo-Fr 16:00; Sa 12:00", "indoor": "yes", "note": "ON 12/24 AND 12/31, THIS BOX MAY BE COLLECTED AS EARLY AS 12 NOON.", "nsi_id": "unitedstatespostalservice-a77078", "operator": "United States Postal Service", "operator:short": "USPS", "operator:type": "public", "operator:wikidata": "Q668687", "ref": "7761200005"}, "type": "Feature"}
{"geometry": {"coordinates": [-94.3381032, 30.0402629], "type": "Point"}, "id": "f1-wVI2kytLBrWnNv50lF4hrtAc=", "properties": {"@source_uri": "https://tools.usps.com/UspsToolsRestServices/rest/POLocator/findLocations", "@spider": "usps_collection_boxes", "addr:city": "CHINA", "addr:country": "US", "addr:postcode": "77613", "addr:state": "TX", "addr:street_address": "305 N BROADWAY ST", "amenity": "post_box", "brand": "United States Postal Service", "brand:wikidata": "Q668687", "collection_times": "Mo-Fr 16:15; Sa 10:00", "note": "ON 12/24 AND 12/31, THIS BOX MAY BE COLLECTED AS EARLY AS 12 NOON.", "nsi_id": "unitedstatespostalservice-a77078", "operator": "United States Postal Service", "operator:short": "USPS", "operator:type": "public", "operator:wikidata": "Q668687", "ref": "7761300001"}, "type": "Feature"}
{"geometry": {"coordinates": [-94.336046, 30.049712], "type": "Point"}, "id": "GCl2yiwb_gXBOzqBV4P0jhBUk44=", "properties": {"@source_uri": "https://tools.usps.com/UspsToolsRestServices/rest/POLocator/findLocations", "@spider": "usps_collection_boxes", "addr:city": "CHINA", "addr:country": "US", "addr:postcode": "77613", "addr:state": "TX", "addr:street_address": "305 N BROADWAY ST", "amenity": "post_box", "brand": "United States Postal Service", "brand:wikidata": "Q668687", "collection_times": "Mo-Fr 16:15; Sa 10:00", "indoor": "yes", "note": "ON 12/24 AND 12/31, THIS BOX MAY BE COLLECTED AS EARLY AS 12 NOON.", "nsi_id": "unitedstatespostalservice-a77078", "operator": "United States Postal Service", "operator:short": "USPS", "operator:type": "public", "operator:wikidata": "Q668687", "ref": "7761300002"}, "type": "Feature"}
{"geometry": {"coordinates": [-94.336046, 30.049712], "type": "Point"}, "id": "rat1BMeE1weQPQxMJ98k93cr5Ak=", "properties": {"@source_uri": "https://tools.usps.com/UspsToolsRestServices/rest/POLocator/findLocations", "@spider": "usps_collection_boxes", "addr:city": "CHINA", "addr:country": "US", "addr:postcode": "77613", "addr:state": "TX", "addr:street_address": "305 N BROADWAY ST", "amenity": "post_box", "brand": "United States Postal Service", "brand:wikidata": "Q668687", "collection_times": "Mo-Fr 16:15; Sa 10:00", "indoor": "yes", "note": "ON 12/24 AND 12/31, THIS BOX MAY BE COLLECTED AS EARLY AS 12 NOON.", "nsi_id": "unitedstatespostalservice-a77078", "operator": "United States Postal Service", "operator:short": "USPS", "operator:type": "public", "operator:wikidata": "Q668687", "ref": "7761300003"}, "type": "Feature"}
{"geometry": {"coordinates": [-94.336111292, 30.049829309], "type": "Point"}, "id": "xd_jeyhqPSiZZOcBPS4Rb7sq2T8=", "properties": {"@source_uri": "https://tools.usps.com/UspsToolsRestServices/rest/POLocator/findLocations", "@spider": "usps_collection_boxes", "addr:city": "CHINA", "addr:country": "US", "addr:postcode": "77613", "addr:state": "TX", "addr:street_address": "305 N BROADWAY ST", "amenity": "post_box", "brand": "United States Postal Service", "brand:wikidata": "Q668687", "collection_times": "Mo-Fr 16:30", "indoor": "yes", "note": "ON 12/24 AND 12/31, THIS BOX MAY BE COLLECTED AS EARLY AS 12 NOON.", "nsi_id": "unitedstatespostalservice-a77078", "operator": "United States Postal Service", "operator:short": "USPS", "operator:type": "public", "operator:wikidata": "Q668687", "ref": "7761300004"}, "type": "Feature"}
{"geometry": {"coordinates": [-93.749607, 30.301524], "type": "Point"}, "id": "3DfOGDQvNV6Ezc93RKFXOtQbifQ=", "properties": {"@source_uri": "https://tools.usps.com/UspsToolsRestServices/rest/POLocator/findLocations", "@spider": "usps_collection_boxes", "addr:city": "DEWEYVILLE", "addr:country": "US", "addr:postcode": "77614", "addr:state": "TX", "addr:street_address": "680 TX STATE HIGHWAY 272", "amenity": "post_box", "brand": "United States Postal Service", "brand:wikidata": "Q668687", "collection_times": "Mo-Fr 15:30; Sa 09:30", "note": "ON 12/24 AND 12/31, THIS BOX MAY BE COLLECTED AS EARLY AS 12 NOON.", "nsi_id": "unitedstatespostalservice-a77078", "operator": "United States Postal Service", "operator:short": "USPS", "operator:type": "public", "operator:wikidata": "Q668687", "ref": "7761400001"}, "type": "Feature"}
{"geometry": {"coordinates": [-93.749607, 30.301524], "type": "Point"}, "id": "km5ofla-xdpuLOreservMwpgUhk=", "properties": {"@source_uri": "https://tools.usps.com/UspsToolsRestServices/rest/POLocator/findLocations", "@spider": "usps_collection_boxes", "addr:city": "DEWEYVILLE", "addr:country": "US", "addr:postcode": "77614", "addr:state": "TX", "addr:street_address": "680 TX STATE HIGHWAY 272", "amenity": "post_box", "brand": "United States Postal Service", "brand:wikidata": "Q668687", "collection_times": "Mo-Fr 15:30; Sa 09:30", "indoor": "yes", "note": "ON 12/24 AND 12/31, THIS BOX MAY BE COLLECTED AS EARLY AS 12 NOON.", "nsi_id": "unitedstatespostalservice-a77078", "operator": "United States Postal Service", "operator:short": "USPS", "operator:type": "public", "operator:wikidata": "Q668687", "ref": "7761400002"}, "type": "Feature"}
{"geometry": {"coordinates": [-93.749607, 30.301524], "type": "Point"}, "id": "yAs3TnqPAO88FCc15HzALtqT0lk=", "properties": {"@source_uri": "https://tools.usps.com/UspsToolsRestServices/rest/POLocator/findLocations", "@spider": "usps_collection_boxes", "addr:city": "DEWEYVILLE", "addr:country": "US", "addr:postcode": "77614", "addr:state": "TX", "addr:street_address": "680 TX STATE HIGHWAY 272", "amenity": "post_box", "brand": "United States Postal Service", "brand:wikidata": "Q668687", "collection_times": "Mo-Fr 15:30; Sa 09:30", "indoor": "yes", "note": "ON 12/24 AND 12/31, THIS BOX MAY BE COLLECTED AS EARLY AS 12 NOON.", "nsi_id": "unitedstatespostalservice-a77078", "operator": "United States Postal Service", "operator:short": "USPS", "operator:type": "public", "operator:wikidata": "Q668687", "ref": "7761400003"}, "type": "Feature"}
{"geometry": {"coordinates": [-93.7445559194, 30.2963199973], "type": "Point"}, "id": "Uqd8_9yzMNOiitvSxfTe-iOP_0c=", "properties": {"@source_uri": "https://tools.usps.com/UspsToolsRestServices/rest/POLocator/findLocations", "@spider": "usps_collection_boxes", "addr:city": "DEWEYVILLE", "addr:country": "US", "addr:postcode": "77614", "addr:state": "TX", "addr:street_address": "680 TX STATE HIGHWAY 272", "amenity": "post_box", "brand": "United States Postal Service", "brand:wikidata": "Q668687", "collection_times": "Mo-Fr 16:15", "indoor": "yes", "note": "ON 12/24 AND 12/31, THIS BOX MAY BE COLLECTED AS EARLY AS 12 NOON.", "nsi_id": "unitedstatespostalservice-a77078", "operator": "United States Postal Service", "operator:short": "USPS", "operator:type": "public", "operator:wikidata": "Q668687", "ref": "7761400004"}, "type": "Feature"}
{"geometry": {"coordinates": [-94.072471, 30.356052], "type": "Point"}, "id": "qKvQ9fsF4frgDgoR77du9G3gWE4=", "properties": {"@source_uri": "https://tools.usps.com/UspsToolsRestServices/rest/POLocator/findLocations", "@spider": "usps_collection_boxes", "addr:city": "EVADALE", "addr:country": "US", "addr:postcode": "77615", "addr:state": "TX", "addr:street_address": "225 FM 105", "amenity": "post_box", "brand": "United States Postal Service", "brand:wikidata": "Q668687", "collection_times": "Mo-Fr 16:30; Sa 09:00", "note": "ON 12/24 AND 12/31, THIS BOX MAY BE COLLECTED AS EARLY AS 12 NOON.", "nsi_id": "unitedstatespostalservice-a77078", "operator": "United States Postal Service", "operator:short": "USPS", "operator:type": "public", "operator:wikidata": "Q668687", "ref": "7761500001"}, "type": "Feature"}
{"geometry": {"coordinates": [-94.072471, 30.356052], "type": "Point"}, "id": "JaBMOZzSEN95P03csRT0MRD8btE=", "properties": {"@source_uri": "https://tools.usps.com/UspsToolsRestServices/rest/POLocator/findLocations", "@spider": "usps_collection_boxes", "addr:city": "EVADALE", "addr:country": "US", "addr:postcode": "77615", "addr:state": "TX", "addr:street_address": "225 FM 105", "amenity": "post_box", "brand": "United States Postal Service", "brand:wikidata": "Q668687", "collection_times": "Mo-Fr 16:30; Sa 09:00", "indoor": "yes", "note": "ON 12/24 AND 12/31, THIS BOX MAY BE COLLECTED AS EARLY AS 12 NOON.", "nsi_id": "unitedstatespostalservice-a77078", "operator": "United States Postal Service", "operator:short": "USPS", "operator:type": "public", "operator:wikidata": "Q668687", "ref": "7761500002"}, "type": "Feature"}
{"geometry": {"coordinates": [-94.072625181, 30.355717852], "type": "Point"}, "id": "15pncIQ3OpyvYwplYXJfFfmixbk=", "properties": {"@source_uri": "https://tools.usps.com/UspsToolsRestServices/rest/POLocator/findLocations", "@spider": "usps_collection_boxes", "addr:city": "EVADALE", "addr:country": "US", "addr:postcode": "77615", "addr:state": "TX", "addr:street_address": "225 FM 105", "amenity": "post_box", "brand": "United States Postal Service", "brand:wikidata": "Q668687", "collection_times": "Mo-Fr 16:30", "indoor": "yes", "note": "ON 12/24 AND 12/31, THIS BOX MAY BE COLLECTED AS EARLY AS 12 NOON.", "nsi_id": "unitedstatespostalservice-a77078", "operator": "United States Postal Service", "operator:short": "USPS", "operator:type": "public", "operator:wikidata": "Q668687", "ref": "7761500003"}, "type": "Feature"}
{"geometry": {"coordinates": [-94.1772565, 30.69265], "type": "Point"}, "id": "2X1tdGYxbgeKOqR2Ix_DvSm_cJY=", "properties": {"@source_uri": "https://tools.usps.com/UspsToolsRestServices/rest/POLocator/findLocations", "@spider": "usps_collection_boxes", "addr:city": "FRED", "addr:country": "US", "addr:postcode": "77616", "addr:state": "TX", "addr:street_address": "20239 FM 92 S", "amenity": "post_box", "brand": "United States Postal Service", "brand:wikidata": "Q668687", "collection_times": "Mo-Fr 14:15; Sa 12:00", "note": "ON 12/24 AND 12/31, THIS BOX MAY BE COLLECTED AS EARLY AS 12 NOON.", "nsi_id": "unitedstatespostalservice-a77078", "operator": "United States Postal Service", "operator:short": "USPS", "operator:type": "public", "operator:wikidata": "Q668687", "ref": "7761600001"}, "type": "Feature"}
{"geometry": {"coordinates": [-94.1756605, 30.579266], "type": "Point"}, "id": "uG0oyPvaOk51ofXZTdEJJPgfawY=", "properties": {"@source_uri": "https://tools.usps.com/UspsToolsRestServices/rest/POLocator/findLocations", "@spider": "usps_collection_boxes", "addr:city": "FRED", "addr:country": "US", "addr:postcode": "77616", "addr:state": "TX", "addr:street_address": "20239 FM 92 S", "amenity": "post_box", "brand": "United States Postal Service", "brand:wikidata": "Q668687", "collection_times": "Mo-Fr 14:15; Sa 12:00", "indoor": "yes", "note": "ON 12/24 AND 12/31, THIS BOX MAY BE COLLECTED AS EARLY AS 12 NOON.", "nsi_id": "unitedstatespostalservice-a77078", "operator": "United States Postal Service", "operator:short": "USPS", "operator:type": "public", "operator:wikidata": "Q668687", "ref": "7761600002"}, "type": "Feature"}
{"geometry": {"coordinates": [-94.1756686, 30.579245], "type": "Point"}, "id": "dbl3TnWe-ko6bSzNS3jBLVGyJQg=", "properties": {"@source_uri": "https://tools.usps.com/UspsToolsRestServices/rest/POLocator/findLocations", "@spider": "usps_collection_boxes", "addr:city": "FRED", "addr:country": "US", "addr:postcode": "77616", "addr:state": "TX", "addr:street_address": "20239 FM 92 S", "amenity": "post_box", "brand": "United States Postal Service", "brand:wikidata": "Q668687", "collection_times": "Mo-Fr 14:15; Sa 12:00", "indoor": "yes", "note": "ON 12/24 AND 12/31, THIS BOX MAY BE COLLECTED AS EARLY AS 12 NOON.", "nsi_id": "unitedstatespostalservice-a77078", "operator": "United States Postal Service", "operator:short": "USPS", "operator:type": "public", "operator:wikidata": "Q668687", "ref": "7761600003"}, "type": "Feature"}
{"geometry": {"coordinates": [-94.176056853, 30.579602764], "type": "Point"}, "id": "lSYW7BqGOBTPSnVDZdwUXVmu0tM=", "properties": {"@source_uri": "https://tools.usps.com/UspsToolsRestServices/rest/POLocator/findLocations", "@spider": "usps_collection_boxes", "addr:city": "FRED", "addr:country": "US", "addr:postcode": "77616", "addr:state": "TX", "addr:street_address": "20239 FM 92 S", "amenity": "post_box", "brand": "United States Postal Service", "brand:wikidata": "Q668687", "collection_times": "Mo-Fr 14:30; Sa 12:00", "indoor": "yes", "note": "ON 12/24 AND 12/31, THIS BOX MAY BE COLLECTED AS EARLY AS 12 NOON.", "nsi_id": "unitedstatespostalservice-a77078", "operator": "United States Postal Service", "operator:short": "USPS", "operator:type": "public", "operator:wikidata": "Q668687", "ref": "7761600004"}, "type": "Feature"}
{"geometry": {"coordinates": [-93.9180190088, 29.9467769963], "type": "Point"}, "id": "ZLlwqxdxnSdlC5JlptI2m910RYs=", "properties": {"@source_uri": "https://tools.usps.com/UspsToolsRestServices/rest/POLocator/findLocations", "@spider": "usps_collection_boxes", "addr:city": "GROVES", "addr:country": "US", "addr:postcode": "77619", "addr:state": "TX", "addr:street_address": "6230 39TH ST", "amenity": "post_box", "brand": "United States Postal Service", "brand:wikidata": "Q668687", "collection_times": "Mo-Fr 16:00; Sa 15:30", "note": "ON 12/24 AND 12/31, THIS BOX MAY BE COLLECTED AS EARLY AS 12 NOON.", "nsi_id": "unitedstatespostalservice-a77078", "operator": "United States Postal Service", "operator:short": "USPS", "operator:type": "public", "operator:wikidata": "Q668687", "ref": "7761900002"}, "type": "Feature"}
{"geometry": {"coordinates": [-93.9183153812, 29.9470550941], "type": "Point"}, "id": "rptMNldfsR_pI5OmdLbygvjwmvU=", "properties": {"@source_uri": "https://tools.usps.com/UspsToolsRestServices/rest/POLocator/findLocations", "@spider": "usps_collection_boxes", "addr:city": "GROVES", "addr:country": "US", "addr:postcode": "77619", "addr:state": "TX", "addr:street_address": "6230 39TH ST", "amenity": "post_box", "brand": "United States Postal Service", "brand:wikidata": "Q668687", "collection_times": "Mo-Fr 16:00; Sa 15:30", "indoor": "yes", "note": "ON 12/24 AND 12/31, THIS BOX MAY BE COLLECTED AS EARLY AS 12 NOON.", "nsi_id": "unitedstatespostalservice-a77078", "operator": "United States Postal Service", "operator:short": "USPS", "operator:type": "public", "operator:wikidata": "Q668687", "ref": "7761900006"}, "type": "Feature"}
{"geometry": {"coordinates": [-93.9183153812, 29.9470550941], "type": "Point"}, "id": "fatjPum6qIJLUmXDUT2iOJPC55A=", "properties": {"@source_uri": "https://tools.usps.com/UspsToolsRestServices/rest/POLocator/findLocations", "@spider": "usps_collection_boxes", "addr:city": "GROVES", "addr:country": "US", "addr:postcode": "77619", "addr:state": "TX", "addr:street_address": "6230 39TH ST", "amenity": "post_box", "brand": "United States Postal Service", "brand:wikidata": "Q668687", "collection_times": "Mo-Fr 16:00; Sa 15:30", "indoor": "yes", "note": "ON 12/24 AND 12/31, THIS BOX MAY BE COLLECTED AS EARLY AS 12 NOON.", "nsi_id": "unitedstatespostalservice-a77078", "operator": "United States Postal Service", "operator:short": "USPS", "operator:type": "public", "operator:wikidata": "Q668687", "ref": "7761900007"}, "type": "Feature"}
{"geometry": {"coordinates": [-93.918315381, 29.947055094], "type": "Point"}, "id": "JSiOzLJ8njAHT0xMKLs0F3VC90s=", "properties": {"@source_uri": "https://tools.usps.com/UspsToolsRestServices/rest/POLocator/findLocations", "@spider": "usps_collection_boxes", "addr:city": "GROVES", "addr:country": "US", "addr:postcode": "77619", "addr:state": "TX", "addr:street_address": "6230 39TH ST", "amenity": "post_box", "brand": "United States Postal Service", "brand:wikidata": "Q668687", "collection_times": "Mo-Fr 16:30; Sa 12:00", "indoor": "yes", "note": "ON 12/24 AND 12/31, THIS BOX MAY BE COLLECTED AS EARLY AS 12 NOON.", "nsi_id": "unitedstatespostalservice-a77078", "operator": "United States Postal Service", "operator:short": "USPS", "operator:type": "public", "operator:wikidata": "Q668687", "ref": "7761900008"}, "type": "Feature"}
{"geometry": {"coordinates": [-94.312775, 29.863565], "type": "Point"}, "id": "edLIin0iu4lKTJkibXg0YoK482s=", "properties": {"@source_uri": "https://tools.usps.com/UspsToolsRestServices/rest/POLocator/findLocations", "@spider": "usps_collection_boxes", "addr:city": "HAMSHIRE", "addr:country": "US", "addr:postcode": "77622", "addr:state": "TX", "addr:street_address": "25142 HIGHWAY 124", "amenity": "post_box", "brand": "United States Postal Service", "brand:wikidata": "Q668687", "collection_times": "Mo-Fr 16:15; Sa 09:30", "note": "ON 12/24 AND 12/31, THIS BOX MAY BE COLLECTED AS EARLY AS 12 NOON.", "nsi_id": "unitedstatespostalservice-a77078", "operator": "United States Postal Service", "operator:short": "USPS", "operator:type": "public", "operator:wikidata": "Q668687", "ref": "7762200001"}, "type": "Feature"}
{"geometry": {"coordinates": [-94.3130932176, 29.8580992949], "type": "Point"}, "id": "rkaMuZTnpBV0mUSI_mnysqYlpic=", "properties": {"@source_uri": "https://tools.usps.com/UspsToolsRestServices/rest/POLocator/findLocations", "@spider": "usps_collection_boxes", "addr:city": "HAMSHIRE", "addr:country": "US", "addr:postcode": "77622", "addr:state": "TX", "addr:street_address": "25142 HIGHWAY 124", "amenity": "post_box", "brand": "United States Postal Service", "brand:wikidata": "Q668687", "collection_times": "Mo-Fr 16:15; Sa 09:30", "indoor": "yes", "note": "ON 12/24 AND 12/31, THIS BOX MAY BE COLLECTED AS EARLY AS 12 NOON.", "nsi_id": "unitedstatespostalservice-a77078", "operator": "United States Postal Service", "operator:short": "USPS", "operator:type": "public", "operator:wikidata": "Q668687", "ref": "7762200002"}, "type": "Feature"}
{"geometry": {"coordinates": [-94.3130932176, 29.8580992949], "type": "Point"}, "id": "2qZFxh5AWYDlaMYre-SysJQHRDE=", "properties": {"@source_uri": "https://tools.usps.com/UspsToolsRestServices/rest/POLocator/findLocations", "@spider": "usps_collection_boxes", "addr:city": "HAMSHIRE", "addr:country": "US", "addr:postcode": "77622", "addr:state": "TX", "addr:street_address": "25142 HIGHWAY 124", "amenity": "post_box", "brand": "United States Postal Service", "brand:wikidata": "Q668687", "collection_times": "Mo-Fr 16:30", "indoor": "yes", "note": "ON 12/24 AND 12/31, THIS BOX MAY BE COLLECTED AS EARLY AS 12 NOON.", "nsi_id": "unitedstatespostalservice-a77078", "operator": "United States Postal Service", "operator:short": "USPS", "operator:type": "public", "operator:wikidata": "Q668687", "ref": "7762200003"}, "type": "Feature"}
{"geometry": {"coordinates": [-94.393495967, 29.560772271], "type": "Point"}, "id": "gTebeyuNDIO1EA8111OscItQlLU=", "properties": {"@source_uri": "https://tools.usps.com/UspsToolsRestServices/rest/POLocator/findLocations", "@spider": "usps_collection_boxes", "addr:city": "HIGH ISLAND", "addr:country": "US", "addr:postcode": "77623", "addr:state": "TX", "addr:street_address": "2008 S 5TH ST", "amenity": "post_box", "brand": "United States Postal Service", "brand:wikidata": "Q668687", "collection_times": "Mo-Fr 12:15; Sa 09:00", "indoor": "yes", "note": "ON 12/24 AND 12/31, THIS BOX MAY BE COLLECTED AS EARLY AS 12 NOON.", "nsi_id": "unitedstatespostalservice-a77078", "operator": "United States Postal Service", "operator:short": "USPS", "operator:type": "public", "operator:wikidata": "Q668687", "ref": "7762300002"}, "type": "Feature"}
{"geometry": {"coordinates": [-94.393495967, 29.560772271], "type": "Point"}, "id": "sZQCDKDRv3EuwkCJPH10irvAUPo=", "properties": {"@source_uri": "https://tools.usps.com/UspsToolsRestServices/rest/POLocator/findLocations", "@spider": "usps_collection_boxes", "addr:city": "HIGH ISLAND", "addr:country": "US", "addr:postcode": "77623", "addr:state": "TX", "addr:street_address": "2008 S 5TH ST", "amenity": "post_box", "brand": "United States Postal Service", "brand:wikidata": "Q668687", "collection_times": "Mo-Fr 12:30", "indoor": "yes", "note": "ON 12/24 AND 12/31, THIS BOX MAY BE COLLECTED AS EARLY AS 12 NOON.", "nsi_id": "unitedstatespostalservice-a77078", "operator": "United States Postal Service", "operator:short": "USPS", "operator:type": "public", "operator:wikidata": "Q668687", "ref": "7762300003"}, "type": "Feature"}
{"geometry": {"coordinates": [-94.383047, 30.668514], "type": "Point"}, "id": "4GvRgsSHSYzTQy1-xNAXCYy19os=", "properties": {"@source_uri": "https://tools.usps.com/UspsToolsRestServices/rest/POLocator/findLocations", "@spider": "usps_collection_boxes", "addr:city": "HILLISTER", "addr:country": "US", "addr:postcode": "77624", "addr:state": "TX", "addr:street_address": "283 FM 1013 RD", "amenity": "post_box", "brand": "United States Postal Service", "brand:wikidata": "Q668687", "collection_times": "Mo-Fr 14:45; Sa 10:30", "note": "ON 12/24 AND 12/31, THIS BOX MAY BE COLLECTED AS EARLY AS 12 NOON.", "nsi_id": "unitedstatespostalservice-a77078", "operator": "United States Postal Service", "operator:short": "USPS", "operator:type": "public", "operator:wikidata": "Q668687", "ref": "7762400001"}, "type": "Feature"}
{"geometry": {"coordinates": [-94.383047, 30.668486], "type": "Point"}, "id": "bhCuQ-Xod1Q23EvpHb-fw4o4RsI=", "properties": {"@source_uri": "https://tools.usps.com/UspsToolsRestServices/rest/POLocator/findLocations", "@spider": "usps_collection_boxes", "addr:city": "HILLISTER", "addr:country": "US", "addr:postcode": "77624", "addr:state": "TX", "addr:street_address": "283 FM 1013 RD", "amenity": "post_box", "brand": "United States Postal Service", "brand:wikidata": "Q668687", "collection_times": "Mo-Fr 14:45; Sa 10:30", "indoor": "yes", "note": "ON 12/24 AND 12/31, THIS BOX MAY BE COLLECTED AS EARLY AS 12 NOON.", "nsi_id": "unitedstatespostalservice-a77078", "operator": "United States Postal Service", "operator:short": "USPS", "operator:type": "public", "operator:wikidata": "Q668687", "ref": "7762400002"}, "type": "Feature"}
{"geometry": {"coordinates": [-94.3834555377, 30.6685929903], "type": "Point"}, "id": "XRHCi1PqMckJqmTuUK9z7SNaJh8=", "properties": {"@source_uri": "https://tools.usps.com/UspsToolsRestServices/rest/POLocator/findLocations", "@spider": "usps_collection_boxes", "addr:city": "HILLISTER", "addr:country": "US", "addr:postcode": "77624", "addr:state": "TX", "addr:street_address": "283 FM 1013 RD", "amenity": "post_box", "brand": "United States Postal Service", "brand:wikidata": "Q668687", "collection_times": "Mo-Fr 15:00; Sa 10:30", "indoor": "yes", "note": "ON 12/24 AND 12/31, THIS BOX MAY BE COLLECTED AS EARLY AS 12 NOON.", "nsi_id": "unitedstatespostalservice-a77078", "operator": "United States Postal Service", "operator:short": "USPS", "operator:type": "public", "operator:wikidata": "Q668687", "ref": "7762400003"}, "type": "Feature"}
{"geometry": {"coordinates": [-94.30897, 30.367151], "type": "Point"}, "id": "a7H51nPbwUlSa7ugV6SLvu6k4_g=", "properties": {"@source_uri": "https://tools.usps.com/UspsToolsRestServices/rest/POLocator/findLocations", "@spider": "usps_collection_boxes", "addr:city": "KOUNTZE", "addr:country": "US", "addr:postcode": "77625", "addr:state": "TX", "addr:street_address": "1245 S PINE ST", "amenity": "post_box", "brand": "United States Postal Service", "brand:wikidata": "Q668687", "collection_times": "Mo-Fr 16:00; Sa 12:00", "note": "ON 12/24 AND 12/31, THIS BOX MAY BE COLLECTED AS EARLY AS 12 NOON.", "nsi_id": "unitedstatespostalservice-a77078", "operator": "United States Postal Service", "operator:short": "USPS", "operator:type": "public", "operator:wikidata": "Q668687", "ref": "7762500001"}, "type": "Feature"}
{"geometry": {"coordinates": [-94.31513704, 30.368938058], "type": "Point"}, "id": "5lhFlEsJBIg9t-Hvz-9lO1f6Dh0=", "properties": {"@source_uri": "https://tools.usps.com/UspsToolsRestServices/rest/POLocator/findLocations", "@spider": "usps_collection_boxes", "addr:city": "KOUNTZE", "addr:country": "US", "addr:postcode": "77625", "addr:state": "TX", "addr:street_address": "300 W MONROE ST", "amenity": "post_box", "brand": "United States Postal Service", "brand:wikidata": "Q668687", "collection_times": "Mo-Fr 13:30", "note": "ON 12/24 AND 12/31, THIS BOX MAY BE COLLECTED AS EARLY AS 12 NOON.", "nsi_id": "unitedstatespostalservice-a77078", "operator": "United States Postal Service", "operator:short": "USPS", "operator:type": "public", "operator:wikidata": "Q668687", "ref": "7762500002"}, "type": "Feature"}
{"geometry": {"coordinates": [-94.30897, 30.367151], "type": "Point"}, "id": "TDJLr6BOpptmC3sjEXGAF_ZuyUI=", "properties": {"@source_uri": "https://tools.usps.com/UspsToolsRestServices/rest/POLocator/findLocations", "@spider": "usps_collection_boxes", "addr:city": "KOUNTZE", "addr:country": "US", "addr:postcode": "77625", "addr:state": "TX", "addr:street_address": "1245 S PINE ST", "amenity": "post_box", "brand": "United States Postal Service", "brand:wikidata": "Q668687", "collection_times": "Mo-Fr 16:00; Sa 12:00", "indoor": "yes", "note": "ON 12/24 AND 12/31, THIS BOX MAY BE COLLECTED AS EARLY AS 12 NOON.", "nsi_id": "unitedstatespostalservice-a77078", "operator": "United States Postal Service", "operator:short": "USPS", "operator:type": "public", "operator:wikidata": "Q668687", "ref": "7762500006"}, "type": "Feature"}
{"geometry": {"coordinates": [-94.30897, 30.367151], "type": "Point"}, "id": "drBZOumQ0euHp2-uvMtAFEsiuXA=", "properties": {"@source_uri": "https://tools.usps.com/UspsToolsRestServices/rest/POLocator/findLocations", "@spider": "usps_collection_boxes", "addr:city": "KOUNTZE", "addr:country": "US", "addr:postcode": "77625", "addr:state": "TX", "addr:street_address": "1245 S PINE ST", "amenity": "post_box", "brand": "United States Postal Service", "brand:wikidata": "Q668687", "collection_times": "Mo-Fr 16:00; Sa 12:00", "indoor": "yes", "note": "ON 12/24 AND 12/31, THIS BOX MAY BE COLLECTED AS EARLY AS 12 NOON.", "nsi_id": "unitedstatespostalservice-a77078", "operator": "United States Postal Service", "operator:short": "USPS", "operator:type": "public", "operator:wikidata": "Q668687", "ref": "7762500007"}, "type": "Feature"}
{"geometry": {"coordinates": [-94.3090203032, 30.3672085951], "type": "Point"}, "id": "rASK8qi3YR1q4s8P3AbFlWvrWpc=", "properties": {"@source_uri": "https://tools.usps.com/UspsToolsRestServices/rest/POLocator/findLocations", "@spider": "usps_collection_boxes", "addr:city": "KOUNTZE", "addr:country": "US", "addr:postcode": "77625", "addr:state": "TX", "addr:street_address": "1245 S PINE ST", "amenity": "post_box", "brand": "United States Postal Service", "brand:wikidata": "Q668687", "collection_times": "Mo-Fr 16:30; Sa 12:00", "indoor": "yes", "note": "ON 12/24 AND 12/31, THIS BOX MAY BE COLLECTED AS EARLY AS 12 NOON.", "nsi_id": "unitedstatespostalservice-a77078", "operator": "United States Postal Service", "operator:short": "USPS", "operator:type": "public", "operator:wikidata": "Q668687", "ref": "7762500008"}, "type": "Feature"}
{"geometry": {"coordinates": [-93.8718458296, 30.2091523186], "type": "Point"}, "id": "QRgFEKWx_OnOqNsm_7cRP8c46rI=", "properties": {"@source_uri": "https://tools.usps.com/UspsToolsRestServices/rest/POLocator/findLocations", "@spider": "usps_collection_boxes", "addr:city": "MAURICEVILLE", "addr:country": "US", "addr:postcode": "77626", "addr:state": "TX", "addr:street_address": "11424 HIGHWAY 12", "amenity": "post_box", "brand": "United States Postal Service", "brand:wikidata": "Q668687", "collection_times": "Mo-Fr 16:00; Sa 10:00", "note": "ON 12/24 AND 12/31, THIS BOX MAY BE COLLECTED AS EARLY AS 12 NOON.", "nsi_id": "unitedstatespostalservice-a77078", "operator": "United States Postal Service", "operator:short": "USPS", "operator:type": "public", "operator:wikidata": "Q668687", "ref": "7762600003"}, "type": "Feature"}
{"geometry": {"coordinates": [-93.871575, 30.209022], "type": "Point"}, "id": "ypJ0i-xsmsaYfBhCEWAe_VtvDpA=", "properties": {"@source_uri": "https://tools.usps.com/UspsToolsRestServices/rest/POLocator/findLocations", "@spider": "usps_collection_boxes", "addr:city": "MAURICEVILLE", "addr:country": "US", "addr:postcode": "77626", "addr:state": "TX", "addr:street_address": "11424 HIGHWAY 12", "amenity": "post_box", "brand": "United States Postal Service", "brand:wikidata": "Q668687", "collection_times": "Mo-Fr 16:00; Sa 10:00", "indoor": "yes", "note": "ON 12/24 AND 12/31, THIS BOX MAY BE COLLECTED AS EARLY AS 12 NOON.", "nsi_id": "unitedstatespostalservice-a77078", "operator": "United States Postal Service", "operator:short": "USPS", "operator:type": "public", "operator:wikidata": "Q668687", "ref": "7762600004"}, "type": "Feature"}
{"geometry": {"coordinates": [-93.871575, 30.209022], "type": "Point"}, "id": "uiNSBXcmF_RdeqBQkbcFseAh03w=", "properties": {"@source_uri": "https://tools.usps.com/UspsToolsRestServices/rest/POLocator/findLocations", "@spider": "usps_collection_boxes", "addr:city": "MAURICEVILLE", "addr:country": "US", "addr:postcode": "77626", "addr:state": "TX", "addr:street_address": "11424 HIGHWAY 12", "amenity": "post_box", "brand": "United States Postal Service", "brand:wikidata": "Q668687", "collection_times": "Mo-Fr 16:30", "indoor": "yes", "note": "ON 12/24 AND 12/31, THIS BOX MAY BE COLLECTED AS EARLY AS 12 NOON.", "nsi_id": "unitedstatespostalservice-a77078", "operator": "United States Postal Service", "operator:short": "USPS", "operator:type": "public", "operator:wikidata": "Q668687", "ref": "7762600005"}, "type": "Feature"}
{"geometry": {"coordinates": [-93.9848930174, 29.9575029826], "type": "Point"}, "id": "_3LXk2KfqRAZJcYF8mjFEk8hdMU=", "properties": {"@source_uri": "https://tools.usps.com/UspsToolsRestServices/rest/POLocator/findLocations", "@spider": "usps_collection_boxes", "addr:city": "NEDERLAND", "addr:country": "US", "addr:postcode": "77627", "addr:state": "TX", "addr:street_address": "2300 HIGHWAY 365", "amenity": "post_box", "brand": "United States Postal Service", "brand:wikidata": "Q668687", "collection_times": "Mo-Fr 16:00", "note": "ON 12/24 AND 12/31, THIS BOX MAY BE COLLECTED AS EARLY AS 12 NOON.", "nsi_id": "unitedstatespostalservice-a77078", "operator": "United States Postal Service", "operator:short": "USPS", "operator:type": "public", "operator:wikidata": "Q668687", "ref": "7762700005"}, "type": "Feature"}
{"geometry": {"coordinates": [-93.986365927, 29.977915859], "type": "Point"}, "id": "HsYst-HDmpzKYiQAtcZ3vT8NkMU=", "properties": {"@source_uri": "https://tools.usps.com/UspsToolsRestServices/rest/POLocator/findLocations", "@spider": "usps_collection_boxes", "addr:city": "NEDERLAND", "addr:country": "US", "addr:postcode": "77627", "addr:state": "TX", "addr:street_address": "900 NEDERLAND AVE", "amenity": "post_box", "brand": "United States Postal Service", "brand:wikidata": "Q668687", "collection_times": "Mo-Fr 16:00", "note": "ON 12/24 AND 12/31, THIS BOX MAY BE COLLECTED AS EARLY AS 12 NOON.", "nsi_id": "unitedstatespostalservice-a77078", "operator": "United States Postal Service", "operator:short": "USPS", "operator:type": "public", "operator:wikidata": "Q668687", "ref": "7762700007"}, "type": "Feature"}
{"geometry": {"coordinates": [-93.998471614, 29.963086173], "type": "Point"}, "id": "XK4r5YI1QIw2caRGFGYlLsnCvVI=", "properties": {"@source_uri": "https://tools.usps.com/UspsToolsRestServices/rest/POLocator/findLocations", "@spider": "usps_collection_boxes", "addr:city": "NEDERLAND", "addr:country": "US", "addr:postcode": "77627", "addr:state": "TX", "addr:street_address": "212 S 27TH ST", "amenity": "post_box", "brand": "United States Postal Service", "brand:wikidata": "Q668687", "collection_times": "Mo-Fr 16:00", "note": "ON 12/24 AND 12/31, THIS BOX MAY BE COLLECTED AS EARLY AS 12 NOON.", "nsi_id": "unitedstatespostalservice-a77078", "operator": "United States Postal Service", "operator:short": "USPS", "operator:type": "public", "operator:wikidata": "Q668687", "ref": "7762700008"}, "type": "Feature"}
{"geometry": {"coordinates": [-93.992295341, 29.974039933], "type": "Point"}, "id": "Pj5q1lX2ARqUgDCEObY8n9rt-p4=", "properties": {"@source_uri": "https://tools.usps.com/UspsToolsRestServices/rest/POLocator/findLocations", "@spider": "usps_collection_boxes", "addr:city": "NEDERLAND", "addr:country": "US", "addr:postcode": "77627", "addr:state": "TX", "addr:street_address": "223 N 14TH ST", "amenity": "post_box", "brand": "United States Postal Service", "brand:wikidata": "Q668687", "collection_times": "Mo-Fr 16:45; Sa 14:45", "indoor": "yes", "note": "ON 12/24 AND 12/31, THIS BOX MAY BE COLLECTED AS EARLY AS 12 NOON.", "nsi_id": "unitedstatespostalservice-a77078", "operator": "United States Postal Service", "operator:short": "USPS", "operator:type": "public", "operator:wikidata": "Q668687", "ref": "7762700011"}, "type": "Feature"}
{"geometry": {"coordinates": [-93.992295341, 29.974039933], "type": "Point"}, "id": "Mh04xqGLbRS4GvjK9E8w9sEEEDk=", "properties": {"@source_uri": "https://tools.usps.com/UspsToolsRestServices/rest/POLocator/findLocations", "@spider": "usps_collection_boxes", "addr:city": "NEDERLAND", "addr:country": "US", "addr:postcode": "77627", "addr:state": "TX", "addr:street_address": "223 N 14TH ST", "amenity": "post_box", "brand": "United States Postal Service", "brand:wikidata": "Q668687", "collection_times": "Mo-Fr 16:45; Sa 14:45", "indoor": "yes", "note": "ON 12/24 AND 12/31, THIS BOX MAY BE COLLECTED AS EARLY AS 12 NOON.", "nsi_id": "unitedstatespostalservice-a77078", "operator": "United States Postal Service", "operator:short": "USPS", "operator:type": "public", "operator:wikidata": "Q668687", "ref": "7762700012"}, "type": "Feature"}
{"geometry": {"coordinates": [-93.9922953414, 29.9740399325], "type": "Point"}, "id": "RwJV15N933jBDlAv0lAITid9bMc=", "properties": {"@source_uri": "https://tools.usps.com/UspsToolsRestServices/rest/POLocator/findLocations", "@spider": "usps_collection_boxes", "addr:city": "NEDERLAND", "addr:country": "US", "addr:postcode": "77627", "addr:state": "TX", "addr:street_address": "223 N 14TH ST", "amenity": "post_box", "brand": "United States Postal Service", "brand:wikidata": "Q668687", "collection_times": "Mo-Fr 17:00; Sa 12:00", "indoor": "yes", "note": "ON 12/24 AND 12/31, THIS BOX MAY BE COLLECTED AS EARLY AS 12 NOON.", "nsi_id": "unitedstatespostalservice-a77078", "operator": "United States Postal Service", "operator:short": "USPS", "operator:type": "public", "operator:wikidata": "Q668687", "ref": "7762700014"}, "type": "Feature"}
{"geometry": {"coordinates": [-94.4235805221, 30.0355807943], "type": "Point"}, "id": "y2tsNNCSY-zPKcECnilW6GTmzR4=", "properties": {"@source_uri": "https://tools.usps.com/UspsToolsRestServices/rest/POLocator/findLocations", "@spider": "usps_collection_boxes", "addr:city": "NOME", "addr:country": "US", "addr:postcode": "77629", "addr:state": "TX", "addr:street_address": "2285 HIGHWAY 90", "amenity": "post_box", "brand": "United States Postal Service", "brand:wikidata": "Q668687", "collection_times": "Mo-Fr 15:45; Sa 09:30", "indoor": "yes", "note": "ON 12/24 AND 12/31, THIS BOX MAY BE COLLECTED AS EARLY AS 12 NOON.", "nsi_id": "unitedstatespostalservice-a77078", "operator": "United States Postal Service", "operator:short": "USPS", "operator:type": "public", "operator:wikidata": "Q668687", "ref": "7762900004"}, "type": "Feature"}
{"geometry": {"coordinates": [-94.4235805221, 30.0355807943], "type": "Point"}, "id": "2Ch02Q5NOjKA4n_oDmif5aGEN2Q=", "properties": {"@source_uri": "https://tools.usps.com/UspsToolsRestServices/rest/POLocator/findLocations", "@spider": "usps_collection_boxes", "addr:city": "NOME", "addr:country": "US", "addr:postcode": "77629", "addr:state": "TX", "addr:street_address": "2285 HIGHWAY 90", "amenity": "post_box", "brand": "United States Postal Service", "brand:wikidata": "Q668687", "collection_times": "Mo-Fr 16:00", "indoor": "yes", "note": "ON 12/24 AND 12/31, THIS BOX MAY BE COLLECTED AS EARLY AS 12 NOON.", "nsi_id": "unitedstatespostalservice-a77078", "operator": "United States Postal Service", "operator:short": "USPS", "operator:type": "public", "operator:wikidata": "Q668687", "ref": "7762900005"}, "type": "Feature"}
{"geometry": {"coordinates": [-93.7366885945, 30.0900459913], "type": "Point"}, "id": "rhCBe1ejb7WdMlDFfmSbBwMDN34=", "properties": {"@source_uri": "https://tools.usps.com/UspsToolsRestServices/rest/POLocator/findLocations", "@spider": "usps_collection_boxes", "addr:city": "ORANGE", "addr:country": "US", "addr:postcode": "77630", "addr:state": "TX", "addr:street_address": "801 W DIVISION AVE", "amenity": "post_box", "brand": "United States Postal Service", "brand:wikidata": "Q668687", "collection_times": "Mo-Fr 16:45", "note": "ON 12/24 AND 12/31, THIS BOX MAY BE COLLECTED AS EARLY AS 12 NOON.", "nsi_id": "unitedstatespostalservice-a77078", "operator": "United States Postal Service", "operator:short": "USPS", "operator:type": "public", "operator:wikidata": "Q668687", "ref": "7763000003"}, "type": "Feature"}
{"geometry": {"coordinates": [-93.755316672, 30.094193142], "type": "Point"}, "id": "iSoiepohOv8iI-bqgzv2PqC9h_Y=", "properties": {"@source_uri": "https://tools.usps.com/UspsToolsRestServices/rest/POLocator/findLocations", "@spider": "usps_collection_boxes", "addr:city": "ORANGE", "addr:country": "US", "addr:postcode": "77630", "addr:state": "TX", "addr:street_address": "2200 MACARTHUR DR", "amenity": "post_box", "brand": "United States Postal Service", "brand:wikidata": "Q668687", "collection_times": "Mo-Fr 16:00", "note": "ON 12/24 AND 12/31, THIS BOX MAY BE COLLECTED AS EARLY AS 12 NOON.", "nsi_id": "unitedstatespostalservice-a77078", "operator": "United States Postal Service", "operator:short": "USPS", "operator:type": "public", "operator:wikidata": "Q668687", "ref": "7763000007"}, "type": "Feature"}
{"geometry": {"coordinates": [-93.7666764, 30.099295], "type": "Point"}, "id": "PbGzX-U73tcekDCEVOSbMvPRXvw=", "properties": {"@source_uri": "https://tools.usps.com/UspsToolsRestServices/rest/POLocator/findLocations", "@spider": "usps_collection_boxes", "addr:city": "ORANGE", "addr:country": "US", "addr:postcode": "77630", "addr:state": "TX", "addr:street_address": "608 STRICKLAND DR", "amenity": "post_box", "brand": "United States Postal Service", "brand:wikidata": "Q668687", "collection_times": "Mo-Fr 16:30", "note": "ON 12/24 AND 12/31, THIS BOX MAY BE COLLECTED AS EARLY AS 12 NOON.", "nsi_id": "unitedstatespostalservice-a77078", "operator": "United States Postal Service", "operator:short": "USPS", "operator:type": "public", "operator:wikidata": "Q668687", "ref": "7763000010"}, "type": "Feature"}
{"geometry": {"coordinates": [-93.770100002, 30.102046815], "type": "Point"}, "id": "xVomJdpy-15-kqRxVNHOHabs5NI=", "properties": {"@source_uri": "https://tools.usps.com/UspsToolsRestServices/rest/POLocator/findLocations", "@spider": "usps_collection_boxes", "addr:city": "ORANGE", "addr:country": "US", "addr:postcode": "77630", "addr:state": "TX", "addr:street_address": "1502 STRICKLAND DR", "amenity": "post_box", "brand": "United States Postal Service", "brand:wikidata": "Q668687", "collection_times": "Mo-Fr 16:00", "note": "ON 12/24 AND 12/31, THIS BOX MAY BE COLLECTED AS EARLY AS 12 NOON.", "nsi_id": "unitedstatespostalservice-a77078", "operator": "United States Postal Service", "operator:short": "USPS", "operator:type": "public", "operator:wikidata": "Q668687", "ref": "7763000011"}, "type": "Feature"}
{"geometry": {"coordinates": [-93.7573448, 30.088467], "type": "Point"}, "id": "7qiShCj_WXdugSN59EUWn3fZ0R0=", "properties": {"@source_uri": "https://tools.usps.com/UspsToolsRestServices/rest/POLocator/findLocations", "@spider": "usps_collection_boxes", "addr:city": "ORANGE", "addr:country": "US", "addr:postcode": "77630", "addr:state": "TX", "addr:street_address": "407 PINE AVE", "amenity": "post_box", "brand": "United States Postal Service", "brand:wikidata": "Q668687", "collection_times": "Mo-Fr 17:00; Sa 16:30", "note": "ON 12/24 AND 12/31, THIS BOX MAY BE COLLECTED AS EARLY AS 12 NOON.", "nsi_id": "unitedstatespostalservice-a77078", "operator": "United States Postal Service", "operator:short": "USPS", "operator:type": "public", "operator:wikidata": "Q668687", "ref": "7763000016"}, "type": "Feature"}
{"geometry": {"coordinates": [-93.7480092, 30.123943], "type": "Point"}, "id": "fAaitryqux_L--i4cNS8AyF_dKA=", "properties": {"@source_uri": "https://tools.usps.com/UspsToolsRestServices/rest/POLocator/findLocations", "@spider": "usps_collection_boxes", "addr:city": "ORANGE", "addr:country": "US", "addr:postcode": "77630", "addr:state": "TX", "addr:street_address": "3751 N 16TH ST", "amenity": "post_box", "brand": "United States Postal Service", "brand:wikidata": "Q668687", "collection_times": "Mo-Fr 15:45", "note": "ON 12/24 AND 12/31, THIS BOX MAY BE COLLECTED AS EARLY AS 12 NOON.", "nsi_id": "unitedstatespostalservice-a77078", "operator": "United States Postal Service", "operator:short": "USPS", "operator:type": "public", "operator:wikidata": "Q668687", "ref": "7763000023"}, "type": "Feature"}
{"geometry": {"coordinates": [-93.7486271, 30.123135], "type": "Point"}, "id": "ZFPKw8NycT81SJt1solPAH0jBi8=", "properties": {"@source_uri": "https://tools.usps.com/UspsToolsRestServices/rest/POLocator/findLocations", "@spider": "usps_collection_boxes", "addr:city": "ORANGE", "addr:country": "US", "addr:postcode": "77630", "addr:state": "TX", "addr:street_address": "3727 N 16TH ST", "amenity": "post_box", "brand": "United States Postal Service", "brand:wikidata": "Q668687", "collection_times": "Mo-Fr 15:45", "note": "ON 12/24 AND 12/31, THIS BOX MAY BE COLLECTED AS EARLY AS 12 NOON.", "nsi_id": "unitedstatespostalservice-a77078", "operator": "United States Postal Service", "operator:short": "USPS", "operator:type": "public", "operator:wikidata": "Q668687", "ref": "7763000024"}, "type": "Feature"}
{"geometry": {"coordinates": [-93.7179668061, 30.1205719733], "type": "Point"}, "id": "ITLLX-eIjpHACieoXugM286cBXQ=", "properties": {"@source_uri": "https://tools.usps.com/UspsToolsRestServices/rest/POLocator/findLocations", "@spider": "usps_collection_boxes", "addr:city": "ORANGE", "addr:country": "US", "addr:postcode": "77630", "addr:state": "TX", "addr:street_address": "7110 INTERSTATE 10 W", "amenity": "post_box", "brand": "United States Postal Service", "brand:wikidata": "Q668687", "collection_times": "Mo-Fr 11:00", "nsi_id": "unitedstatespostalservice-a77078", "operator": "United States Postal Service", "operator:short": "USPS", "operator:type": "public", "operator:wikidata": "Q668687", "ref": "7763000025"}, "type": "Feature"}
{"geometry": {"coordinates": [-93.7656658, 30.091093], "type": "Point"}, "id": "8BbmaGHeE46ylv0XjYl7e2cTRLQ=", "properties": {"@source_uri": "https://tools.usps.com/UspsToolsRestServices/rest/POLocator/findLocations", "@spider": "usps_collection_boxes", "addr:city": "ORANGE", "addr:country": "US", "addr:postcode": "77630", "addr:state": "TX", "addr:street_address": "3115 EDGAR BROWN DR", "amenity": "post_box", "brand": "United States Postal Service", "brand:wikidata": "Q668687", "collection_times": "Mo-Fr 16:00", "note": "ON 12/24 AND 12/31, THIS BOX MAY BE COLLECTED AS EARLY AS 12 NOON.", "nsi_id": "unitedstatespostalservice-a77078", "operator": "United States Postal Service", "operator:short": "USPS", "operator:type": "public", "operator:wikidata": "Q668687", "ref": "7763000034"}, "type": "Feature"}
{"geometry": {"coordinates": [-93.7802761102, 30.1127415586], "type": "Point"}, "id": "eRG8W7DWljJNSOIT36IMW1ktdfc=", "properties": {"@source_uri": "https://tools.usps.com/UspsToolsRestServices/rest/POLocator/findLocations", "@spider": "usps_collection_boxes", "addr:city": "ORANGE", "addr:country": "US", "addr:postcode": "77630", "addr:state": "TX", "addr:street_address": "2486 MARTIN LUTHER KING JR DR", "amenity": "post_box", "brand": "United States Postal Service", "brand:wikidata": "Q668687", "collection_times": "Mo-Fr 16:00", "note": "ON 12/24 AND 12/31, THIS BOX MAY BE COLLECTED AS EARLY AS 12 NOON.", "nsi_id": "unitedstatespostalservice-a77078", "operator": "United States Postal Service", "operator:short": "USPS", "operator:type": "public", "operator:wikidata": "Q668687", "ref": "7763000039"}, "type": "Feature"}
{"geometry": {"coordinates": [-93.7352898393, 30.090325591], "type": "Point"}, "id": "UCnoer9xMerqhoGS9PT3ZUqBr_Y=", "properties": {"@source_uri": "https://tools.usps.com/UspsToolsRestServices/rest/POLocator/findLocations", "@spider": "usps_collection_boxes", "addr:city": "ORANGE", "addr:country": "US", "addr:postcode": "77630", "addr:state": "TX", "addr:street_address": "123 6TH ST", "amenity": "post_box", "brand": "United States Postal Service", "brand:wikidata": "Q668687", "collection_times": "Mo-Fr 16:45", "note": "ON 12/24 AND 12/31, THIS BOX MAY BE COLLECTED AS EARLY AS 12 NOON.", "nsi_id": "unitedstatespostalservice-a77078", "operator": "United States Postal Service", "operator:short": "USPS", "operator:type": "public", "operator:wikidata": "Q668687", "ref": "7763000041"}, "type": "Feature"}
{"geometry": {"coordinates": [-93.7609900039, 30.0851959968], "type": "Point"}, "id": "hek1UDXv1HGTvPct-dRG81oE96c=", "properties": {"@source_uri": "https://tools.usps.com/UspsToolsRestServices/rest/POLocator/findLocations", "@spider": "usps_collection_boxes", "addr:city": "ORANGE", "addr:country": "US", "addr:postcode": "77630", "addr:state": "TX", "addr:street_address": "2700 WESTERN AVE", "amenity": "post_box", "brand": "United States Postal Service", "brand:wikidata": "Q668687", "collection_times": "Mo-Fr 16:00", "note": "ON 12/24 AND 12/31, THIS BOX MAY BE COLLECTED AS EARLY AS 12 NOON.", "nsi_id": "unitedstatespostalservice-a77078", "operator": "United States Postal Service", "operator:short": "USPS", "operator:type": "public", "operator:wikidata": "Q668687", "ref": "7763000044"}, "type": "Feature"}
{"geometry": {"coordinates": [-93.7676853381, 30.0994994219], "type": "Point"}, "id": "cW5yMYPtw6hq282H5vI4Hv1NsJI=", "properties": {"@source_uri": "https://tools.usps.com/UspsToolsRestServices/rest/POLocator/findLocations", "@spider": "usps_collection_boxes", "addr:city": "ORANGE", "addr:country": "US", "addr:postcode": "77630", "addr:state": "TX", "addr:street_address": "610 STRICKLAND DR", "amenity": "post_box", "brand": "United States Postal Service", "brand:wikidata": "Q668687", "collection_times": "Mo-Fr 16:30", "note": "ON 12/24 AND 12/31, THIS BOX MAY BE COLLECTED AS EARLY AS 12 NOON.", "nsi_id": "unitedstatespostalservice-a77078", "operator": "United States Postal Service", "operator:short": "USPS", "operator:type": "public", "operator:wikidata": "Q668687", "ref": "7763000045"}, "type": "Feature"}
{"geometry": {"coordinates": [-93.7327589997, 30.0944189821], "type": "Point"}, "id": "WCo35v34xHVn_MjAuOWpNezOlVQ=", "properties": {"@source_uri": "https://tools.usps.com/UspsToolsRestServices/rest/POLocator/findLocations", "@spider": "usps_collection_boxes", "addr:city": "ORANGE", "addr:country": "US", "addr:postcode": "77630", "addr:state": "TX", "addr:street_address": "500 4TH ST", "amenity": "post_box", "brand": "United States Postal Service", "brand:wikidata": "Q668687", "collection_times": "Mo-Fr 16:30; Sa 12:00", "indoor": "yes", "note": "ON 12/24 AND 12/31, THIS BOX MAY BE COLLECTED AS EARLY AS 12 NOON.", "nsi_id": "unitedstatespostalservice-a77078", "operator": "United States Postal Service", "operator:short": "USPS", "operator:type": "public", "operator:wikidata": "Q668687", "ref": "7763000051"}, "type": "Feature"}
{"geometry": {"coordinates": [-93.8555264916, 30.0735030209], "type": "Point"}, "id": "BqloCW3gAG5OOfVIB6Zh9SZE1Uw=", "properties": {"@source_uri": "https://tools.usps.com/UspsToolsRestServices/rest/POLocator/findLocations", "@spider": "usps_collection_boxes", "addr:city": "ORANGEFIELD", "addr:country": "US", "addr:postcode": "77639", "addr:state": "TX", "addr:street_address": "5481 FM 408", "amenity": "post_box", "brand": "United States Postal Service", "brand:wikidata": "Q668687", "collection_times": "Mo-Fr 15:45; Sa 10:00", "indoor": "yes", "note": "ON 12/24 AND 12/31, THIS BOX MAY BE COLLECTED AS EARLY AS 12 NOON.", "nsi_id": "unitedstatespostalservice-a77078", "operator": "United States Postal Service", "operator:short": "USPS", "operator:type": "public", "operator:wikidata": "Q668687", "ref": "7763900002"}, "type": "Feature"}
{"geometry": {"coordinates": [-93.8555264916, 30.0735030209], "type": "Point"}, "id": "TYhU5tG4vLVPf5v-W0oZ4lNRCX8=", "properties": {"@source_uri": "https://tools.usps.com/UspsToolsRestServices/rest/POLocator/findLocations", "@spider": "usps_collection_boxes", "addr:city": "ORANGEFIELD", "addr:country": "US", "addr:postcode": "77639", "addr:state": "TX", "addr:street_address": "5481 FM 408", "amenity": "post_box", "brand": "United States Postal Service", "brand:wikidata": "Q668687", "collection_times": "Mo-Fr 15:45; Sa 10:00", "indoor": "yes", "note": "ON 12/24 AND 12/31, THIS BOX MAY BE COLLECTED AS EARLY AS 12 NOON.", "nsi_id": "unitedstatespostalservice-a77078", "operator": "United States Postal Service", "operator:short": "USPS", "operator:type": "public", "operator:wikidata": "Q668687", "ref": "7763900003"}, "type": "Feature"}
{"geometry": {"coordinates": [-93.855523402, 30.073481542], "type": "Point"}, "id": "EsTlW3FUTIyxkzG2DcqdjCq0u2Q=", "properties": {"@source_uri": "https://tools.usps.com/UspsToolsRestServices/rest/POLocator/findLocations", "@spider": "usps_collection_boxes", "addr:city": "ORANGEFIELD", "addr:country": "US", "addr:postcode": "77639", "addr:state": "TX", "addr:street_address": "5481 FM 408", "amenity": "post_box", "brand": "United States Postal Service", "brand:wikidata": "Q668687", "collection_times": "Mo-Fr 16:15", "indoor": "yes", "note": "ON 12/24 AND 12/31, THIS BOX MAY BE COLLECTED AS EARLY AS 12 NOON.", "nsi_id": "unitedstatespostalservice-a77078", "operator": "United States Postal Service", "operator:short": "USPS", "operator:type": "public", "operator:wikidata": "Q668687", "ref": "7763900004"}, "type": "Feature"}
{"geometry": {"coordinates": [-93.9337632103, 29.8689107622], "type": "Point"}, "id": "ImzZlp4cFsMY-bR6kzphGGYHLso=", "properties": {"@source_uri": "https://tools.usps.com/UspsToolsRestServices/rest/POLocator/findLocations", "@spider": "usps_collection_boxes", "addr:city": "PORT ARTHUR", "addr:country": "US", "addr:postcode": "77640", "addr:state": "TX", "addr:street_address": "345 LAKESHORE DR", "amenity": "post_box", "brand": "United States Postal Service", "brand:wikidata": "Q668687", "collection_times": "Mo-Fr 17:00; Sa 16:00", "note": "ON 12/24 AND 12/31, THIS BOX MAY BE COLLECTED AS EARLY AS 12 NOON.", "nsi_id": "unitedstatespostalservice-a77078", "operator": "United States Postal Service", "operator:short": "USPS", "operator:type": "public", "operator:wikidata": "Q668687", "ref": "7764000000"}, "type": "Feature"}
{"geometry": {"coordinates": [-93.933469466, 29.869622909], "type": "Point"}, "id": "hK-tdRlbq-OfYHntgs2MBCKNVCo=", "properties": {"@source_uri": "https://tools.usps.com/UspsToolsRestServices/rest/POLocator/findLocations", "@spider": "usps_collection_boxes", "addr:city": "PORT ARTHUR", "addr:country": "US", "addr:postcode": "77640", "addr:state": "TX", "addr:street_address": "525 LAKESHORE DR", "amenity": "post_box", "brand": "United States Postal Service", "brand:wikidata": "Q668687", "collection_times": "Mo-Fr 16:45", "note": "ON 12/24 AND 12/31, THIS BOX MAY BE COLLECTED AS EARLY AS 12 NOON.", "nsi_id": "unitedstatespostalservice-a77078", "operator": "United States Postal Service", "operator:short": "USPS", "operator:type": "public", "operator:wikidata": "Q668687", "ref": "7764000001"}, "type": "Feature"}
{"geometry": {"coordinates": [-93.941546886, 29.870961419], "type": "Point"}, "id": "qa7Ti1SX6XTTk-h4AFbXJwlM7Nk=", "properties": {"@source_uri": "https://tools.usps.com/UspsToolsRestServices/rest/POLocator/findLocations", "@spider": "usps_collection_boxes", "addr:city": "PORT ARTHUR", "addr:country": "US", "addr:postcode": "77640", "addr:state": "TX", "addr:street_address": "800 HOUSTON AVE", "amenity": "post_box", "brand": "United States Postal Service", "brand:wikidata": "Q668687", "collection_times": "Mo-Fr 16:45", "note": "ON 12/24 AND 12/31, THIS BOX MAY BE COLLECTED AS EARLY AS 12 NOON.", "nsi_id": "unitedstatespostalservice-a77078", "operator": "United States Postal Service", "operator:short": "USPS", "operator:type": "public", "operator:wikidata": "Q668687", "ref": "7764000003"}, "type": "Feature"}
{"geometry": {"coordinates": [-93.934248998, 29.885475782], "type": "Point"}, "id": "ydeb3I5oMeuk1V07X8E4G2h6I8I=", "properties": {"@source_uri": "https://tools.usps.com/UspsToolsRestServices/rest/POLocator/findLocations", "@spider": "usps_collection_boxes", "addr:city": "PORT ARTHUR", "addr:country": "US", "addr:postcode": "77640", "addr:state": "TX", "addr:street_address": "200 GILHAM CIR", "amenity": "post_box", "brand": "United States Postal Service", "brand:wikidata": "Q668687", "collection_times": "Mo-Fr 16:15", "note": "ON 12/24 AND 12/31, THIS BOX MAY BE COLLECTED AS EARLY AS 12 NOON.", "nsi_id": "unitedstatespostalservice-a77078", "operator": "United States Postal Service", "operator:short": "USPS", "operator:type": "public", "operator:wikidata": "Q668687", "ref": "7764000010"}, "type": "Feature"}
{"geometry": {"coordinates": [-93.92915709, 29.899227546], "type": "Point"}, "id": "DRPeKFK2J_hGOwMxx0t513Tc5oE=", "properties": {"@source_uri": "https://tools.usps.com/UspsToolsRestServices/rest/POLocator/findLocations", "@spider": "usps_collection_boxes", "addr:city": "PORT ARTHUR", "addr:country": "US", "addr:postcode": "77640", "addr:state": "TX", "addr:street_address": "1748 WOODWORTH BLVD", "amenity": "post_box", "brand": "United States Postal Service", "brand:wikidata": "Q668687", "collection_times": "Mo-Fr 16:15", "note": "ON 12/24 AND 12/31, THIS BOX MAY BE COLLECTED AS EARLY AS 12 NOON.", "nsi_id": "unitedstatespostalservice-a77078", "operator": "United States Postal Service", "operator:short": "USPS", "operator:type": "public", "operator:wikidata": "Q668687", "ref": "7764000011"}, "type": "Feature"}
{"geometry": {"coordinates": [-93.9455685, 29.912571], "type": "Point"}, "id": "qX_xHgGzlpRh8f8nFD2aX7NBslc=", "properties": {"@source_uri": "https://tools.usps.com/UspsToolsRestServices/rest/POLocator/findLocations", "@spider": "usps_collection_boxes", "addr:city": "PORT ARTHUR", "addr:country": "US", "addr:postcode": "77640", "addr:state": "TX", "addr:street_address": "3700 MEMORIAL BLVD", "amenity": "post_box", "brand": "United States Postal Service", "brand:wikidata": "Q668687", "collection_times": "Mo-Fr 16:30", "note": "ON 12/24 AND 12/31, THIS BOX MAY BE COLLECTED AS EARLY AS 12 NOON.", "nsi_id": "unitedstatespostalservice-a77078", "operator": "United States Postal Service", "operator:short": "USPS", "operator:type": "public", "operator:wikidata": "Q668687", "ref": "7764000013"}, "type": "Feature"}
{"geometry": {"coordinates": [-94.0041269348, 29.8932433754], "type": "Point"}, "id": "sRG1_Y7-BkXBKAULoFN9-d_HGVs=", "properties": {"@source_uri": "https://tools.usps.com/UspsToolsRestServices/rest/POLocator/findLocations", "@spider": "usps_collection_boxes", "addr:city": "PORT ARTHUR", "addr:country": "US", "addr:postcode": "77640", "addr:state": "TX", "addr:street_address": "5883 W PORT ARTHUR RD", "amenity": "post_box", "brand": "United States Postal Service", "brand:wikidata": "Q668687", "collection_times": "Mo-Fr 16:30", "note": "ON 12/24 AND 12/31, THIS BOX MAY BE COLLECTED AS EARLY AS 12 NOON.", "nsi_id": "unitedstatespostalservice-a77078", "operator": "United States Postal Service", "operator:short": "USPS", "operator:type": "public", "operator:wikidata": "Q668687", "ref": "7764000023"}, "type": "Feature"}
{"geometry": {"coordinates": [-93.940641, 29.885616], "type": "Point"}, "id": "dhqs3pEchDELxX19qNPtsnG6wf4=", "properties": {"@source_uri": "https://tools.usps.com/UspsToolsRestServices/rest/POLocator/findLocations", "@spider": "usps_collection_boxes", "addr:city": "PORT ARTHUR", "addr:country": "US", "addr:postcode": "77640", "addr:state": "TX", "addr:street_address": "1200 GULFWAY DR", "amenity": "post_box", "brand": "United States Postal Service", "brand:wikidata": "Q668687", "collection_times": "Mo-Fr 16:15", "note": "ON 12/24 AND 12/31, THIS BOX MAY BE COLLECTED AS EARLY AS 12 NOON.", "nsi_id": "unitedstatespostalservice-a77078", "operator": "United States Postal Service", "operator:short": "USPS", "operator:type": "public", "operator:wikidata": "Q668687", "ref": "7764000025"}, "type": "Feature"}
{"geometry": {"coordinates": [-93.93376321, 29.868910762], "type": "Point"}, "id": "X09iqI0vthmh99htYS79XYmKBTw=", "properties": {"@source_uri": "https://tools.usps.com/UspsToolsRestServices/rest/POLocator/findLocations", "@spider": "usps_collection_boxes", "addr:city": "PORT ARTHUR", "addr:country": "US", "addr:postcode": "77640", "addr:state": "TX", "addr:street_address": "345 LAKESHORE DR", "amenity": "post_box", "brand": "United States Postal Service", "brand:wikidata": "Q668687", "collection_times": "Mo-Fr 17:00; Sa 16:00", "indoor": "yes", "note": "ON 12/24 AND 12/31, THIS BOX MAY BE COLLECTED AS EARLY AS 12 NOON.", "nsi_id": "unitedstatespostalservice-a77078", "operator": "United States Postal Service", "operator:short": "USPS", "operator:type": "public", "operator:wikidata": "Q668687", "ref": "7764000026"}, "type": "Feature"}
{"geometry": {"coordinates": [-93.93376321, 29.868910762], "type": "Point"}, "id": "sSpiEi_-M1dzoXJ_QnUI0UKluG8=", "properties": {"@source_uri": "https://tools.usps.com/UspsToolsRestServices/rest/POLocator/findLocations", "@spider": "usps_collection_boxes", "addr:city": "PORT ARTHUR", "addr:country": "US", "addr:postcode": "77640", "addr:state": "TX", "addr:street_address": "345 LAKESHORE DR", "amenity": "post_box", "brand": "United States Postal Service", "brand:wikidata": "Q668687", "collection_times": "Mo-Fr 17:00; Sa 13:00", "indoor": "yes", "note": "ON 12/24 AND 12/31, THIS BOX MAY BE COLLECTED AS EARLY AS 12 NOON.", "nsi_id": "unitedstatespostalservice-a77078", "operator": "United States Postal Service", "operator:short": "USPS", "operator:type": "public", "operator:wikidata": "Q668687", "ref": "7764000034"}, "type": "Feature"}
{"geometry": {"coordinates": [-93.991188666, 29.949033312], "type": "Point"}, "id": "bz4kGumie9K--A-sMqAFJtA83XQ=", "properties": {"@source_uri": "https://tools.usps.com/UspsToolsRestServices/rest/POLocator/findLocations", "@spider": "usps_collection_boxes", "addr:city": "PORT ARTHUR", "addr:country": "US", "addr:postcode": "77642", "addr:state": "TX", "addr:street_address": "3100 HIGHWAY 365", "amenity": "post_box", "brand": "United States Postal Service", "brand:wikidata": "Q668687", "collection_times": "Mo-Fr 16:00", "note": "ON 12/24 AND 12/31, THIS BOX MAY BE COLLECTED AS EARLY AS 12 NOON.", "nsi_id": "unitedstatespostalservice-a77078", "operator": "United States Postal Service", "operator:short": "USPS", "operator:type": "public", "operator:wikidata": "Q668687", "ref": "7764200004"}, "type": "Feature"}
{"geometry": {"coordinates": [-93.9871575, 29.952009], "type": "Point"}, "id": "FBdWAPVQhT89sjOs3imYVLz0iAE=", "properties": {"@source_uri": "https://tools.usps.com/UspsToolsRestServices/rest/POLocator/findLocations", "@spider": "usps_collection_boxes", "addr:city": "PORT ARTHUR", "addr:country": "US", "addr:postcode": "77642", "addr:state": "TX", "addr:street_address": "3500 HIGHWAY 365", "amenity": "post_box", "brand": "United States Postal Service", "brand:wikidata": "Q668687", "collection_times": "Mo-Fr 16:00", "note": "ON 12/24 AND 12/31, THIS BOX MAY BE COLLECTED AS EARLY AS 12 NOON.", "nsi_id": "unitedstatespostalservice-a77078", "operator": "United States Postal Service", "operator:short": "USPS", "operator:type": "public", "operator:wikidata": "Q668687", "ref": "7764200005"}, "type": "Feature"}
{"geometry": {"coordinates": [-93.93732, 29.937663], "type": "Point"}, "id": "nCYwH_nVr1lpVZGDhnac0ghnwSU=", "properties": {"@source_uri": "https://tools.usps.com/UspsToolsRestServices/rest/POLocator/findLocations", "@spider": "usps_collection_boxes", "addr:city": "PORT ARTHUR", "addr:country": "US", "addr:postcode": "77642", "addr:state": "TX", "addr:street_address": "4749 N TWIN CITY HWY", "amenity": "post_box", "brand": "United States Postal Service", "brand:wikidata": "Q668687", "collection_times": "Mo-Fr 16:15", "note": "ON 12/24 AND 12/31, THIS BOX MAY BE COLLECTED AS EARLY AS 12 NOON.", "nsi_id": "unitedstatespostalservice-a77078", "operator": "United States Postal Service", "operator:short": "USPS", "operator:type": "public", "operator:wikidata": "Q668687", "ref": "7764200007"}, "type": "Feature"}
{"geometry": {"coordinates": [-93.927504214, 29.931557716], "type": "Point"}, "id": "MCV9oOvjPh-ez22NL5lfa2GWdqk=", "properties": {"@source_uri": "https://tools.usps.com/UspsToolsRestServices/rest/POLocator/findLocations", "@spider": "usps_collection_boxes", "addr:city": "PORT ARTHUR", "addr:country": "US", "addr:postcode": "77642", "addr:state": "TX", "addr:street_address": "3639 N TWIN CITY HWY", "amenity": "post_box", "brand": "United States Postal Service", "brand:wikidata": "Q668687", "collection_times": "Mo-Fr 16:15", "note": "ON 12/24 AND 12/31, THIS BOX MAY BE COLLECTED AS EARLY AS 12 NOON.", "nsi_id": "unitedstatespostalservice-a77078", "operator": "United States Postal Service", "operator:short": "USPS", "operator:type": "public", "operator:wikidata": "Q668687", "ref": "7764200008"}, "type": "Feature"}
{"geometry": {"coordinates": [-93.899466, 29.912139], "type": "Point"}, "id": "2vhOwSt9YclPcu5uvuukeFbIQy0=", "properties": {"@source_uri": "https://tools.usps.com/UspsToolsRestServices/rest/POLocator/findLocations", "@spider": "usps_collection_boxes", "addr:city": "PORT ARTHUR", "addr:country": "US", "addr:postcode": "77642", "addr:state": "TX", "addr:street_address": "548 STADIUM RD", "amenity": "post_box", "brand": "United States Postal Service", "brand:wikidata": "Q668687", "collection_times": "Mo-Fr 16:15", "note": "ON 12/24 AND 12/31, THIS BOX MAY BE COLLECTED AS EARLY AS 12 NOON.", "nsi_id": "unitedstatespostalservice-a77078", "operator": "United States Postal Service", "operator:short": "USPS", "operator:type": "public", "operator:wikidata": "Q668687", "ref": "7764200013"}, "type": "Feature"}
{"geometry": {"coordinates": [-93.910572, 29.918925], "type": "Point"}, "id": "dVdk722dzr1N-pJoj-EuKX6he9A=", "properties": {"@source_uri": "https://tools.usps.com/UspsToolsRestServices/rest/POLocator/findLocations", "@spider": "usps_collection_boxes", "addr:city": "PORT ARTHUR", "addr:country": "US", "addr:postcode": "77642", "addr:state": "TX", "addr:street_address": "4945 GULFWAY DR", "amenity": "post_box", "brand": "United States Postal Service", "brand:wikidata": "Q668687", "collection_times": "Mo-Fr 16:15", "note": "ON 12/24 AND 12/31, THIS BOX MAY BE COLLECTED AS EARLY AS 12 NOON.", "nsi_id": "unitedstatespostalservice-a77078", "operator": "United States Postal Service", "operator:short": "USPS", "operator:type": "public", "operator:wikidata": "Q668687", "ref": "7764200014"}, "type": "Feature"}
{"geometry": {"coordinates": [-93.920229454, 29.908121128], "type": "Point"}, "id": "1vBodgMk6irEQiXnyz7vQ9wdULE=", "properties": {"@source_uri": "https://tools.usps.com/UspsToolsRestServices/rest/POLocator/findLocations", "@spider": "usps_collection_boxes", "addr:city": "PORT ARTHUR", "addr:country": "US", "addr:postcode": "77642", "addr:state": "TX", "addr:street_address": "3725 GULFWAY DR", "amenity": "post_box", "brand": "United States Postal Service", "brand:wikidata": "Q668687", "collection_times": "Mo-Fr 16:30", "note": "ON 12/24 AND 12/31, THIS BOX MAY BE COLLECTED AS EARLY AS 12 NOON.", "nsi_id": "unitedstatespostalservice-a77078", "operator": "United States Postal Service", "operator:short": "USPS", "operator:type": "public", "operator:wikidata": "Q668687", "ref": "7764200015"}, "type": "Feature"}
{"geometry": {"coordinates": [-93.922695408, 29.909591145], "type": "Point"}, "id": "7EUHEy7FYuOu2wQVwXGpiW3SLe8=", "properties": {"@source_uri": "https://tools.usps.com/UspsToolsRestServices/rest/POLocator/findLocations", "@spider": "usps_collection_boxes", "addr:city": "PORT ARTHUR", "addr:country": "US", "addr:postcode": "77642", "addr:state": "TX", "addr:street_address": "1926 9TH AVE", "amenity": "post_box", "brand": "United States Postal Service", "brand:wikidata": "Q668687", "collection_times": "Mo-Fr 16:15", "note": "ON 12/24 AND 12/31, THIS BOX MAY BE COLLECTED AS EARLY AS 12 NOON.", "nsi_id": "unitedstatespostalservice-a77078", "operator": "United States Postal Service", "operator:short": "USPS", "operator:type": "public", "operator:wikidata": "Q668687", "ref": "7764200016"}, "type": "Feature"}
{"geometry": {"coordinates": [-93.9591694419, 29.9353530228], "type": "Point"}, "id": "M-AzgqEz-pPemcvhcOgDmgtqPSc=", "properties": {"@source_uri": "https://tools.usps.com/UspsToolsRestServices/rest/POLocator/findLocations", "@spider": "usps_collection_boxes", "addr:city": "PORT ARTHUR", "addr:country": "US", "addr:postcode": "77642", "addr:state": "TX", "addr:street_address": "5860 9TH AVE", "amenity": "post_box", "brand": "United States Postal Service", "brand:wikidata": "Q668687", "collection_times": "Mo-Fr 15:45", "note": "ON 12/24 AND 12/31, THIS BOX MAY BE COLLECTED AS EARLY AS 12 NOON.", "nsi_id": "unitedstatespostalservice-a77078", "operator": "United States Postal Service", "operator:short": "USPS", "operator:type": "public", "operator:wikidata": "Q668687", "ref": "7764200050"}, "type": "Feature"}
{"geometry": {"coordinates": [-93.9063915, 29.924586], "type": "Point"}, "id": "jnSX-_5nRvp0GHk4oGrmL2hZYME=", "properties": {"@source_uri": "https://tools.usps.com/UspsToolsRestServices/rest/POLocator/findLocations", "@spider": "usps_collection_boxes", "addr:city": "PORT ARTHUR", "addr:country": "US", "addr:postcode": "77642", "addr:state": "TX", "addr:street_address": "5266 GULFWAY DR", "amenity": "post_box", "brand": "United States Postal Service", "brand:wikidata": "Q668687", "collection_times": "Mo-Fr 16:15", "note": "ON 12/24 AND 12/31, THIS BOX MAY BE COLLECTED AS EARLY AS 12 NOON.", "nsi_id": "unitedstatespostalservice-a77078", "operator": "United States Postal Service", "operator:short": "USPS", "operator:type": "public", "operator:wikidata": "Q668687", "ref": "7764200059"}, "type": "Feature"}
{"geometry": {"coordinates": [-93.9852218832, 29.9556456091], "type": "Point"}, "id": "QS1CMiWvfgxctDvkbwJxGUaat_Q=", "properties": {"@source_uri": "https://tools.usps.com/UspsToolsRestServices/rest/POLocator/findLocations", "@spider": "usps_collection_boxes", "addr:city": "PORT ARTHUR", "addr:country": "US", "addr:postcode": "77642", "addr:state": "TX", "addr:street_address": "3800 HIGHWAY 365", "amenity": "post_box", "brand": "United States Postal Service", "brand:wikidata": "Q668687", "collection_times": "Mo-Fr 16:00", "note": "ON 12/24 AND 12/31, THIS BOX MAY BE COLLECTED AS EARLY AS 12 NOON.", "nsi_id": "unitedstatespostalservice-a77078", "operator": "United States Postal Service", "operator:short": "USPS", "operator:type": "public", "operator:wikidata": "Q668687", "ref": "7764200063"}, "type": "Feature"}
{"geometry": {"coordinates": [-93.9180827198, 29.9063044636], "type": "Point"}, "id": "nBNKrYUZ0s64J3HTD0H1BeXYa7w=", "properties": {"@source_uri": "https://tools.usps.com/UspsToolsRestServices/rest/POLocator/findLocations", "@spider": "usps_collection_boxes", "addr:city": "PORT ARTHUR", "addr:country": "US", "addr:postcode": "77642", "addr:state": "TX", "addr:street_address": "1400 9TH AVE", "amenity": "post_box", "brand": "United States Postal Service", "brand:wikidata": "Q668687", "collection_times": "Mo-Fr 16:45", "note": "ON 12/24 AND 12/31, THIS BOX MAY BE COLLECTED AS EARLY AS 12 NOON.", "nsi_id": "unitedstatespostalservice-a77078", "operator": "United States Postal Service", "operator:short": "USPS", "operator:type": "public", "operator:wikidata": "Q668687", "ref": "7764200064"}, "type": "Feature"}
{"geometry": {"coordinates": [-94.7524750208, 29.3884890198], "type": "Point"}, "id": "AaSgfGenjcpEx54zSxfmXHMGDp4=", "properties": {"@source_uri": "https://tools.usps.com/UspsToolsRestServices/rest/POLocator/findLocations", "@spider": "usps_collection_boxes", "addr:city": "PORT BOLIVAR", "addr:country": "US", "addr:postcode": "77650", "addr:state": "TX", "addr:street_address": "2500 BROADWAY AVE", "amenity": "post_box", "brand": "United States Postal Service", "brand:wikidata": "Q668687", "collection_times": "Mo-Fr 15:45; Sa 09:45", "indoor": "yes", "note": "ON 12/24 AND 12/31, THIS BOX MAY BE COLLECTED AS EARLY AS 12 NOON.", "nsi_id": "unitedstatespostalservice-a77078", "operator": "United States Postal Service", "operator:short": "USPS", "operator:type": "public", "operator:wikidata": "Q668687", "ref": "7765000007"}, "type": "Feature"}
{"geometry": {"coordinates": [-94.7524750208, 29.3884890198], "type": "Point"}, "id": "qWcW4A2RO7yQZIDpozAPvaKm96E=", "properties": {"@source_uri": "https://tools.usps.com/UspsToolsRestServices/rest/POLocator/findLocations", "@spider": "usps_collection_boxes", "addr:city": "PORT BOLIVAR", "addr:country": "US", "addr:postcode": "77650", "addr:state": "TX", "addr:street_address": "2500 BROADWAY AVE", "amenity": "post_box", "brand": "United States Postal Service", "brand:wikidata": "Q668687", "collection_times": "Mo-Fr 15:45; Sa 09:45", "note": "ON 12/24 AND 12/31, THIS BOX MAY BE COLLECTED AS EARLY AS 12 NOON.", "nsi_id": "unitedstatespostalservice-a77078", "operator": "United States Postal Service", "operator:short": "USPS", "operator:type": "public", "operator:wikidata": "Q668687", "ref": "7765000008"}, "type": "Feature"}
{"geometry": {"coordinates": [-94.624904669, 29.462735277], "type": "Point"}, "id": "ODES9fiZxv7vNVkEmGH2Plx268o=", "properties": {"@source_uri": "https://tools.usps.com/UspsToolsRestServices/rest/POLocator/findLocations", "@spider": "usps_collection_boxes", "addr:city": "PORT BOLIVAR", "addr:country": "US", "addr:postcode": "77650", "addr:state": "TX", "addr:street_address": "2200 HIGHWAY 87", "amenity": "post_box", "brand": "United States Postal Service", "brand:wikidata": "Q668687", "collection_times": "Mo-Fr 16:15; Sa 09:45", "note": "ON 12/24 AND 12/31, THIS BOX MAY BE COLLECTED AS EARLY AS 12 NOON.", "nsi_id": "unitedstatespostalservice-a77078", "operator": "United States Postal Service", "operator:short": "USPS", "operator:type": "public", "operator:wikidata": "Q668687", "ref": "7765000009"}, "type": "Feature"}
{"geometry": {"coordinates": [-94.624904669, 29.462735277], "type": "Point"}, "id": "AY-coB9GDWsP4bUNsoFL_SVJktU=", "properties": {"@source_uri": "https://tools.usps.com/UspsToolsRestServices/rest/POLocator/findLocations", "@spider": "usps_collection_boxes", "addr:city": "PORT BOLIVAR", "addr:country": "US", "addr:postcode": "77650", "addr:state": "TX", "addr:street_address": "2200 HIGHWAY 87", "amenity": "post_box", "brand": "United States Postal Service", "brand:wikidata": "Q668687", "collection_times": "Mo-Fr 16:15; Sa 09:45", "indoor": "yes", "note": "ON 12/24 AND 12/31, THIS BOX MAY BE COLLECTED AS EARLY AS 12 NOON.", "nsi_id": "unitedstatespostalservice-a77078", "operator": "United States Postal Service", "operator:short": "USPS", "operator:type": "public", "operator:wikidata": "Q668687", "ref": "7765000010"}, "type": "Feature"}
{"geometry": {"coordinates": [-94.624904669, 29.462735277], "type": "Point"}, "id": "s2hyhC3eoAH7ejUYwkkWCl87ptg=", "properties": {"@source_uri": "https://tools.usps.com/UspsToolsRestServices/rest/POLocator/findLocations", "@spider": "usps_collection_boxes", "addr:city": "PORT BOLIVAR", "addr:country": "US", "addr:postcode": "77650", "addr:state": "TX", "addr:street_address": "2200 HIGHWAY 87", "amenity": "post_box", "brand": "United States Postal Service", "brand:wikidata": "Q668687", "collection_times": "Mo-Fr 16:30", "indoor": "yes", "note": "ON 12/24 AND 12/31, THIS BOX MAY BE COLLECTED AS EARLY AS 12 NOON.", "nsi_id": "unitedstatespostalservice-a77078", "operator": "United States Postal Service", "operator:short": "USPS", "operator:type": "public", "operator:wikidata": "Q668687", "ref": "7765000011"}, "type": "Feature"}
{"geometry": {"coordinates": [-94.75276, 29.38875], "type": "Point"}, "id": "NQC0Xg4X2jT4k4ojUTzN6azKBqE=", "properties": {"@source_uri": "https://tools.usps.com/UspsToolsRestServices/rest/POLocator/findLocations", "@spider": "usps_collection_boxes", "addr:city": "PORT BOLIVAR", "addr:country": "US", "addr:postcode": "77650", "addr:state": "TX", "addr:street_address": "2500 BROADWAY AVE", "amenity": "post_box", "brand": "United States Postal Service", "brand:wikidata": "Q668687", "collection_times": "Mo-Fr 16:30", "indoor": "yes", "note": "ON 12/24 AND 12/31, THIS BOX MAY BE COLLECTED AS EARLY AS 12 NOON.", "nsi_id": "unitedstatespostalservice-a77078", "operator": "United States Postal Service", "operator:short": "USPS", "operator:type": "public", "operator:wikidata": "Q668687", "ref": "7765000012"}, "type": "Feature"}
{"geometry": {"coordinates": [-93.96179, 29.98746], "type": "Point"}, "id": "s5zj3mvhSYEvoCa1LIeoVOP9gcQ=", "properties": {"@source_uri": "https://tools.usps.com/UspsToolsRestServices/rest/POLocator/findLocations", "@spider": "usps_collection_boxes", "addr:city": "PORT NECHES", "addr:country": "US", "addr:postcode": "77651", "addr:state": "TX", "addr:street_address": "1324 PORT NECHES AVE", "amenity": "post_box", "brand": "United States Postal Service", "brand:wikidata": "Q668687", "collection_times": "Mo-Fr 17:00; Sa 15:30", "note": "ON 12/24 AND 12/31, THIS BOX MAY BE COLLECTED AS EARLY AS 12 NOON.", "nsi_id": "unitedstatespostalservice-a77078", "operator": "United States Postal Service", "operator:short": "USPS", "operator:type": "public", "operator:wikidata": "Q668687", "ref": "7765100004"}, "type": "Feature"}
{"geometry": {"coordinates": [-93.961035, 29.991654], "type": "Point"}, "id": "fsthA0HbAX1HiL2j9UWvyGxlwj4=", "properties": {"@source_uri": "https://tools.usps.com/UspsToolsRestServices/rest/POLocator/findLocations", "@spider": "usps_collection_boxes", "addr:city": "PORT NECHES", "addr:country": "US", "addr:postcode": "77651", "addr:state": "TX", "addr:street_address": "1324 PORT NECHES AVE", "amenity": "post_box", "brand": "United States Postal Service", "brand:wikidata": "Q668687", "collection_times": "Mo-Fr 17:00; Sa 15:30", "indoor": "yes", "note": "ON 12/24 AND 12/31, THIS BOX MAY BE COLLECTED AS EARLY AS 12 NOON.", "nsi_id": "unitedstatespostalservice-a77078", "operator": "United States Postal Service", "operator:short": "USPS", "operator:type": "public", "operator:wikidata": "Q668687", "ref": "7765100014"}, "type": "Feature"}
{"geometry": {"coordinates": [-93.961035, 29.991654], "type": "Point"}, "id": "oV-ffpg2yQdwCup3--pkyYHJYhw=", "properties": {"@source_uri": "https://tools.usps.com/UspsToolsRestServices/rest/POLocator/findLocations", "@spider": "usps_collection_boxes", "addr:city": "PORT NECHES", "addr:country": "US", "addr:postcode": "77651", "addr:state": "TX", "addr:street_address": "1324 PORT NECHES AVE", "amenity": "post_box", "brand": "United States Postal Service", "brand:wikidata": "Q668687", "collection_times": "Mo-Fr 17:00; Sa 15:30", "indoor": "yes", "note": "ON 12/24 AND 12/31, THIS BOX MAY BE COLLECTED AS EARLY AS 12 NOON.", "nsi_id": "unitedstatespostalservice-a77078", "operator": "United States Postal Service", "operator:short": "USPS", "operator:type": "public", "operator:wikidata": "Q668687", "ref": "7765100015"}, "type": "Feature"}
{"geometry": {"coordinates": [-93.961035, 29.991654], "type": "Point"}, "id": "Fx5faovj4e1Mh8WgkMCxiTQ6ZCA=", "properties": {"@source_uri": "https://tools.usps.com/UspsToolsRestServices/rest/POLocator/findLocations", "@spider": "usps_collection_boxes", "addr:city": "PORT NECHES", "addr:country": "US", "addr:postcode": "77651", "addr:state": "TX", "addr:street_address": "1324 PORT NECHES AVE", "amenity": "post_box", "brand": "United States Postal Service", "brand:wikidata": "Q668687", "collection_times": "Mo-Fr 17:00; Sa 13:00", "indoor": "yes", "note": "ON 12/24 AND 12/31, THIS BOX MAY BE COLLECTED AS EARLY AS 12 NOON.", "nsi_id": "unitedstatespostalservice-a77078", "operator": "United States Postal Service", "operator:short": "USPS", "operator:type": "public", "operator:wikidata": "Q668687", "ref": "7765100016"}, "type": "Feature"}
{"geometry": {"coordinates": [-93.896325723, 29.732921008], "type": "Point"}, "id": "qgHa2IoBEsklsiijbDjtfTnlQwc=", "properties": {"@source_uri": "https://tools.usps.com/UspsToolsRestServices/rest/POLocator/findLocations", "@spider": "usps_collection_boxes", "addr:city": "SABINE PASS", "addr:country": "US", "addr:postcode": "77655", "addr:state": "TX", "addr:street_address": "5424 TREMONT ST", "amenity": "post_box", "brand": "United States Postal Service", "brand:wikidata": "Q668687", "collection_times": "Mo-Fr 12:45; Sa 09:00", "note": "ON 12/24 AND 12/31, THIS BOX MAY BE COLLECTED AS EARLY AS 12 NOON.", "nsi_id": "unitedstatespostalservice-a77078", "operator": "United States Postal Service", "operator:short": "USPS", "operator:type": "public", "operator:wikidata": "Q668687", "ref": "7765500005"}, "type": "Feature"}
{"geometry": {"coordinates": [-93.896325723, 29.732921008], "type": "Point"}, "id": "TuuKJC1q-e0HmALFIB-6CwHk6Po=", "properties": {"@source_uri": "https://tools.usps.com/UspsToolsRestServices/rest/POLocator/findLocations", "@spider": "usps_collection_boxes", "addr:city": "SABINE PASS", "addr:country": "US", "addr:postcode": "77655", "addr:state": "TX", "addr:street_address": "5424 TREMONT ST", "amenity": "post_box", "brand": "United States Postal Service", "brand:wikidata": "Q668687", "collection_times": "Mo-Fr 12:45; Sa 09:00", "indoor": "yes", "note": "ON 12/24 AND 12/31, THIS BOX MAY BE COLLECTED AS EARLY AS 12 NOON.", "nsi_id": "unitedstatespostalservice-a77078", "operator": "United States Postal Service", "operator:short": "USPS", "operator:type": "public", "operator:wikidata": "Q668687", "ref": "7765500006"}, "type": "Feature"}
{"geometry": {"coordinates": [-93.896325723, 29.732921008], "type": "Point"}, "id": "lk9Mgm3MhIal8u6DdnpLWA0O8L0=", "properties": {"@source_uri": "https://tools.usps.com/UspsToolsRestServices/rest/POLocator/findLocations", "@spider": "usps_collection_boxes", "addr:city": "SABINE PASS", "addr:country": "US", "addr:postcode": "77655", "addr:state": "TX", "addr:street_address": "5424 TREMONT ST", "amenity": "post_box", "brand": "United States Postal Service", "brand:wikidata": "Q668687", "collection_times": "Mo-Fr 13:00", "indoor": "yes", "note": "ON 12/24 AND 12/31, THIS BOX MAY BE COLLECTED AS EARLY AS 12 NOON.", "nsi_id": "unitedstatespostalservice-a77078", "operator": "United States Postal Service", "operator:short": "USPS", "operator:type": "public", "operator:wikidata": "Q668687", "ref": "7765500007"}, "type": "Feature"}
{"geometry": {"coordinates": [-94.182145, 30.342676], "type": "Point"}, "id": "dGxP8FFMTvcXsZb_CuqsAWAgNac=", "properties": {"@source_uri": "https://tools.usps.com/UspsToolsRestServices/rest/POLocator/findLocations", "@spider": "usps_collection_boxes", "addr:city": "SILSBEE", "addr:country": "US", "addr:postcode": "77656", "addr:state": "TX", "addr:street_address": "111 W AVENUE P", "amenity": "post_box", "brand": "United States Postal Service", "brand:wikidata": "Q668687", "collection_times": "Mo-Fr 16:30; Sa 15:30", "note": "ON 12/24 AND 12/31, THIS BOX MAY BE COLLECTED AS EARLY AS 12 NOON.", "nsi_id": "unitedstatespostalservice-a77078", "operator": "United States Postal Service", "operator:short": "USPS", "operator:type": "public", "operator:wikidata": "Q668687", "ref": "7765600002"}, "type": "Feature"}
{"geometry": {"coordinates": [-94.182145, 30.342676], "type": "Point"}, "id": "WAmTyUWPkdfoLiRKQojGJMgAtbU=", "properties": {"@source_uri": "https://tools.usps.com/UspsToolsRestServices/rest/POLocator/findLocations", "@spider": "usps_collection_boxes", "addr:city": "SILSBEE", "addr:country": "US", "addr:postcode": "77656", "addr:state": "TX", "addr:street_address": "111 W AVENUE P", "amenity": "post_box", "brand": "United States Postal Service", "brand:wikidata": "Q668687", "collection_times": "Mo-Fr 16:30; Sa 15:30", "indoor": "yes", "note": "ON 12/24 AND 12/31, THIS BOX MAY BE COLLECTED AS EARLY AS 12 NOON.", "nsi_id": "unitedstatespostalservice-a77078", "operator": "United States Postal Service", "operator:short": "USPS", "operator:type": "public", "operator:wikidata": "Q668687", "ref": "7765600006"}, "type": "Feature"}
{"geometry": {"coordinates": [-94.182110447, 30.342690083], "type": "Point"}, "id": "4wld0B-ZITbrKe8sCerMgynk1i8=", "properties": {"@source_uri": "https://tools.usps.com/UspsToolsRestServices/rest/POLocator/findLocations", "@spider": "usps_collection_boxes", "addr:city": "SILSBEE", "addr:country": "US", "addr:postcode": "77656", "addr:state": "TX", "addr:street_address": "111 W AVENUE P", "amenity": "post_box", "brand": "United States Postal Service", "brand:wikidata": "Q668687", "collection_times": "Mo-Fr 16:30; Sa 12:00", "indoor": "yes", "note": "ON 12/24 AND 12/31, THIS BOX MAY BE COLLECTED AS EARLY AS 12 NOON.", "nsi_id": "unitedstatespostalservice-a77078", "operator": "United States Postal Service", "operator:short": "USPS", "operator:type": "public", "operator:wikidata": "Q668687", "ref": "7765600009"}, "type": "Feature"}
{"geometry": {"coordinates": [-94.1968549, 30.244642], "type": "Point"}, "id": "XDFdro_zIRKm9IYyWZZr1sIouoo=", "properties": {"@source_uri": "https://tools.usps.com/UspsToolsRestServices/rest/POLocator/findLocations", "@spider": "usps_collection_boxes", "addr:city": "LUMBERTON", "addr:country": "US", "addr:postcode": "77657", "addr:state": "TX", "addr:street_address": "650 S MAIN ST", "amenity": "post_box", "brand": "United States Postal Service", "brand:wikidata": "Q668687", "collection_times": "Mo-Fr 16:00; Sa 14:30", "note": "ON 12/24 AND 12/31, THIS BOX MAY BE COLLECTED AS EARLY AS 12 NOON.", "nsi_id": "unitedstatespostalservice-a77078", "operator": "United States Postal Service", "operator:short": "USPS", "operator:type": "public", "operator:wikidata": "Q668687", "ref": "7765700000"}, "type": "Feature"}
{"geometry": {"coordinates": [-94.1970156, 30.244588], "type": "Point"}, "id": "0wyQfoimoJmN_TuevY6r9rLAsY0=", "properties": {"@source_uri": "https://tools.usps.com/UspsToolsRestServices/rest/POLocator/findLocations", "@spider": "usps_collection_boxes", "addr:city": "LUMBERTON", "addr:country": "US", "addr:postcode": "77657", "addr:state": "TX", "addr:street_address": "650 S MAIN ST", "amenity": "post_box", "brand": "United States Postal Service", "brand:wikidata": "Q668687", "collection_times": "Mo-Fr 16:00; Sa 14:30", "indoor": "yes", "note": "ON 12/24 AND 12/31, THIS BOX MAY BE COLLECTED AS EARLY AS 12 NOON.", "nsi_id": "unitedstatespostalservice-a77078", "operator": "United States Postal Service", "operator:short": "USPS", "operator:type": "public", "operator:wikidata": "Q668687", "ref": "7765700002"}, "type": "Feature"}
{"geometry": {"coordinates": [-94.196415285, 30.244728992], "type": "Point"}, "id": "0DGvRbfTVigI_oW9YrFit8z0CO0=", "properties": {"@source_uri": "https://tools.usps.com/UspsToolsRestServices/rest/POLocator/findLocations", "@spider": "usps_collection_boxes", "addr:city": "LUMBERTON", "addr:country": "US", "addr:postcode": "77657", "addr:state": "TX", "addr:street_address": "650 S MAIN ST", "amenity": "post_box", "brand": "United States Postal Service", "brand:wikidata": "Q668687", "collection_times": "Mo-Fr 16:30", "indoor": "yes", "note": "ON 12/24 AND 12/31, THIS BOX MAY BE COLLECTED AS EARLY AS 12 NOON.", "nsi_id": "unitedstatespostalservice-a77078", "operator": "United States Postal Service", "operator:short": "USPS", "operator:type": "public", "operator:wikidata": "Q668687", "ref": "7765700004"}, "type": "Feature"}
{"geometry": {"coordinates": [-94.40909, 30.137315], "type": "Point"}, "id": "LY1LyLED0zIA8WLO6YhG9-8XX1k=", "properties": {"@source_uri": "https://tools.usps.com/UspsToolsRestServices/rest/POLocator/findLocations", "@spider": "usps_collection_boxes", "addr:city": "SOUR LAKE", "addr:country": "US", "addr:postcode": "77659", "addr:state": "TX", "addr:street_address": "665 6TH ST", "amenity": "post_box", "brand": "United States Postal Service", "brand:wikidata": "Q668687", "collection_times": "Mo-Fr 16:30; Sa 12:00", "note": "ON 12/24 AND 12/31, THIS BOX MAY BE COLLECTED AS EARLY AS 12 NOON.", "nsi_id": "unitedstatespostalservice-a77078", "operator": "United States Postal Service", "operator:short": "USPS", "operator:type": "public", "operator:wikidata": "Q668687", "ref": "7765900001"}, "type": "Feature"}
{"geometry": {"coordinates": [-94.412753, 30.139816], "type": "Point"}, "id": "9z3YoFtffqgxGTk-HyCLV72r4vs=", "properties": {"@source_uri": "https://tools.usps.com/UspsToolsRestServices/rest/POLocator/findLocations", "@spider": "usps_collection_boxes", "addr:city": "SOUR LAKE", "addr:country": "US", "addr:postcode": "77659", "addr:state": "TX", "addr:street_address": "665 6TH ST", "amenity": "post_box", "brand": "United States Postal Service", "brand:wikidata": "Q668687", "collection_times": "Mo-Fr 16:30; Sa 12:00", "indoor": "yes", "note": "ON 12/24 AND 12/31, THIS BOX MAY BE COLLECTED AS EARLY AS 12 NOON.", "nsi_id": "unitedstatespostalservice-a77078", "operator": "United States Postal Service", "operator:short": "USPS", "operator:type": "public", "operator:wikidata": "Q668687", "ref": "7765900004"}, "type": "Feature"}
{"geometry": {"coordinates": [-94.41273999, 30.139740089], "type": "Point"}, "id": "5NSTiVr9mnIbD6A8aFVA9nRMRWA=", "properties": {"@source_uri": "https://tools.usps.com/UspsToolsRestServices/rest/POLocator/findLocations", "@spider": "usps_collection_boxes", "addr:city": "SOUR LAKE", "addr:country": "US", "addr:postcode": "77659", "addr:state": "TX", "addr:street_address": "665 6TH ST", "amenity": "post_box", "brand": "United States Postal Service", "brand:wikidata": "Q668687", "collection_times": "Mo-Fr 16:30", "indoor": "yes", "note": "ON 12/24 AND 12/31, THIS BOX MAY BE COLLECTED AS EARLY AS 12 NOON.", "nsi_id": "unitedstatespostalservice-a77078", "operator": "United States Postal Service", "operator:short": "USPS", "operator:type": "public", "operator:wikidata": "Q668687", "ref": "7765900005"}, "type": "Feature"}
{"geometry": {"coordinates": [-94.1775679, 30.692762], "type": "Point"}, "id": "4ALh7NPvR1FidKy7Q2Oq-jeHntM=", "properties": {"@source_uri": "https://tools.usps.com/UspsToolsRestServices/rest/POLocator/findLocations", "@spider": "usps_collection_boxes", "addr:city": "SPURGER", "addr:country": "US", "addr:postcode": "77660", "addr:state": "TX", "addr:street_address": "12385 FM 92 RD S", "amenity": "post_box", "brand": "United States Postal Service", "brand:wikidata": "Q668687", "collection_times": "Mo-Fr 16:00; Sa 12:00", "note": "ON 12/24 AND 12/31, THIS BOX MAY BE COLLECTED AS EARLY AS 12 NOON.", "nsi_id": "unitedstatespostalservice-a77078", "operator": "United States Postal Service", "operator:short": "USPS", "operator:type": "public", "operator:wikidata": "Q668687", "ref": "7766000001"}, "type": "Feature"}
{"geometry": {"coordinates": [-94.1773549, 30.692918], "type": "Point"}, "id": "HWcd_OQ4p8YUIlUNBy-C4fL2Tyk=", "properties": {"@source_uri": "https://tools.usps.com/UspsToolsRestServices/rest/POLocator/findLocations", "@spider": "usps_collection_boxes", "addr:city": "SPURGER", "addr:country": "US", "addr:postcode": "77660", "addr:state": "TX", "addr:street_address": "12385 FM 92 RD S", "amenity": "post_box", "brand": "United States Postal Service", "brand:wikidata": "Q668687", "collection_times": "Mo-Fr 16:00; Sa 12:00", "indoor": "yes", "note": "ON 12/24 AND 12/31, THIS BOX MAY BE COLLECTED AS EARLY AS 12 NOON.", "nsi_id": "unitedstatespostalservice-a77078", "operator": "United States Postal Service", "operator:short": "USPS", "operator:type": "public", "operator:wikidata": "Q668687", "ref": "7766000002"}, "type": "Feature"}
{"geometry": {"coordinates": [-94.177628425, 30.692648158], "type": "Point"}, "id": "JVjHw6vmOsdiWZ0lcebecrrCyjA=", "properties": {"@source_uri": "https://tools.usps.com/UspsToolsRestServices/rest/POLocator/findLocations", "@spider": "usps_collection_boxes", "addr:city": "SPURGER", "addr:country": "US", "addr:postcode": "77660", "addr:state": "TX", "addr:street_address": "12385 FM 92 RD S", "amenity": "post_box", "brand": "United States Postal Service", "brand:wikidata": "Q668687", "collection_times": "Mo-Fr 16:00; Sa 12:00", "indoor": "yes", "note": "ON 12/24 AND 12/31, THIS BOX MAY BE COLLECTED AS EARLY AS 12 NOON.", "nsi_id": "unitedstatespostalservice-a77078", "operator": "United States Postal Service", "operator:short": "USPS", "operator:type": "public", "operator:wikidata": "Q668687", "ref": "7766000004"}, "type": "Feature"}
{"geometry": {"coordinates": [-94.3830619218, 29.7860576793], "type": "Point"}, "id": "bfafYRbRZDfs2nD6nz-d8HPEJaU=", "properties": {"@source_uri": "https://tools.usps.com/UspsToolsRestServices/rest/POLocator/findLocations", "@spider": "usps_collection_boxes", "addr:city": "STOWELL", "addr:country": "US", "addr:postcode": "77661", "addr:state": "TX", "addr:street_address": "3608 STATE HIGHWAY 124", "amenity": "post_box", "brand": "United States Postal Service", "brand:wikidata": "Q668687", "collection_times": "Mo-Fr 14:15; Sa 09:30", "note": "ON 12/24 AND 12/31, THIS BOX MAY BE COLLECTED AS EARLY AS 12 NOON.", "nsi_id": "unitedstatespostalservice-a77078", "operator": "United States Postal Service", "operator:short": "USPS", "operator:type": "public", "operator:wikidata": "Q668687", "ref": "7766100004"}, "type": "Feature"}
{"geometry": {"coordinates": [-94.38305116, 29.7860528719], "type": "Point"}, "id": "JyatPdvk5G6LuARh3jFm3nkgHPI=", "properties": {"@source_uri": "https://tools.usps.com/UspsToolsRestServices/rest/POLocator/findLocations", "@spider": "usps_collection_boxes", "addr:city": "STOWELL", "addr:country": "US", "addr:postcode": "77661", "addr:state": "TX", "addr:street_address": "3608 STATE HIGHWAY 124", "amenity": "post_box", "brand": "United States Postal Service", "brand:wikidata": "Q668687", "collection_times": "Mo-Fr 14:15; Sa 09:30", "indoor": "yes", "note": "ON 12/24 AND 12/31, THIS BOX MAY BE COLLECTED AS EARLY AS 12 NOON.", "nsi_id": "unitedstatespostalservice-a77078", "operator": "United States Postal Service", "operator:short": "USPS", "operator:type": "public", "operator:wikidata": "Q668687", "ref": "7766100005"}, "type": "Feature"}
{"geometry": {"coordinates": [-94.38305116, 29.7860528719], "type": "Point"}, "id": "95K5E6iovSE3F-dlX8Oje9H2meg=", "properties": {"@source_uri": "https://tools.usps.com/UspsToolsRestServices/rest/POLocator/findLocations", "@spider": "usps_collection_boxes", "addr:city": "STOWELL", "addr:country": "US", "addr:postcode": "77661", "addr:state": "TX", "addr:street_address": "3608 STATE HIGHWAY 124", "amenity": "post_box", "brand": "United States Postal Service", "brand:wikidata": "Q668687", "collection_times": "Mo-Fr 14:30", "indoor": "yes", "note": "ON 12/24 AND 12/31, THIS BOX MAY BE COLLECTED AS EARLY AS 12 NOON.", "nsi_id": "unitedstatespostalservice-a77078", "operator": "United States Postal Service", "operator:short": "USPS", "operator:type": "public", "operator:wikidata": "Q668687", "ref": "7766100006"}, "type": "Feature"}
{"geometry": {"coordinates": [-94.015323014, 30.1259460021], "type": "Point"}, "id": "ygguv9sxQsX-myy1UZO0WDfvmo0=", "properties": {"@source_uri": "https://tools.usps.com/UspsToolsRestServices/rest/POLocator/findLocations", "@spider": "usps_collection_boxes", "addr:city": "VIDOR", "addr:country": "US", "addr:postcode": "77662", "addr:state": "TX", "addr:street_address": "285 S ARCHIE ST", "amenity": "post_box", "brand": "United States Postal Service", "brand:wikidata": "Q668687", "collection_times": "Mo-Fr 17:00; Sa 14:00", "note": "ON 12/24 AND 12/31, THIS BOX MAY BE COLLECTED AS EARLY AS 12 NOON.", "nsi_id": "unitedstatespostalservice-a77078", "operator": "United States Postal Service", "operator:short": "USPS", "operator:type": "public", "operator:wikidata": "Q668687", "ref": "7766200002"}, "type": "Feature"}
{"geometry": {"coordinates": [-94.014999, 30.126118], "type": "Point"}, "id": "YHrnZVUnRuix2iIX5b4LvTIzejk=", "properties": {"@source_uri": "https://tools.usps.com/UspsToolsRestServices/rest/POLocator/findLocations", "@spider": "usps_collection_boxes", "addr:city": "VIDOR", "addr:country": "US", "addr:postcode": "77662", "addr:state": "TX", "addr:street_address": "285 S ARCHIE ST", "amenity": "post_box", "brand": "United States Postal Service", "brand:wikidata": "Q668687", "collection_times": "Mo-Fr 17:00; Sa 14:00", "indoor": "yes", "note": "ON 12/24 AND 12/31, THIS BOX MAY BE COLLECTED AS EARLY AS 12 NOON.", "nsi_id": "unitedstatespostalservice-a77078", "operator": "United States Postal Service", "operator:short": "USPS", "operator:type": "public", "operator:wikidata": "Q668687", "ref": "7766200008"}, "type": "Feature"}
{"geometry": {"coordinates": [-94.014999, 30.126118], "type": "Point"}, "id": "4y9QJ3RxJpkM_feqkCQ18WQh88Q=", "properties": {"@source_uri": "https://tools.usps.com/UspsToolsRestServices/rest/POLocator/findLocations", "@spider": "usps_collection_boxes", "addr:city": "VIDOR", "addr:country": "US", "addr:postcode": "77662", "addr:state": "TX", "addr:street_address": "285 S ARCHIE ST", "amenity": "post_box", "brand": "United States Postal Service", "brand:wikidata": "Q668687", "collection_times": "Mo-Fr 17:00; Sa 14:00", "indoor": "yes", "note": "ON 12/24 AND 12/31, THIS BOX MAY BE COLLECTED AS EARLY AS 12 NOON.", "nsi_id": "unitedstatespostalservice-a77078", "operator": "United States Postal Service", "operator:short": "USPS", "operator:type": "public", "operator:wikidata": "Q668687", "ref": "7766200009"}, "type": "Feature"}
{"geometry": {"coordinates": [-94.015001486, 30.126114011], "type": "Point"}, "id": "1-CjKUkY5KrIRw81-84EgA3fhvM=", "properties": {"@source_uri": "https://tools.usps.com/UspsToolsRestServices/rest/POLocator/findLocations", "@spider": "usps_collection_boxes", "addr:city": "VIDOR", "addr:country": "US", "addr:postcode": "77662", "addr:state": "TX", "addr:street_address": "285 S ARCHIE ST", "amenity": "post_box", "brand": "United States Postal Service", "brand:wikidata": "Q668687", "collection_times": "Mo-Fr 17:00", "indoor": "yes", "note": "ON 12/24 AND 12/31, THIS BOX MAY BE COLLECTED AS EARLY AS 12 NOON.", "nsi_id": "unitedstatespostalservice-a77078", "operator": "United States Postal Service", "operator:short": "USPS", "operator:type": "public", "operator:wikidata": "Q668687", "ref": "7766200011"}, "type": "Feature"}
{"geometry": {"coordinates": [-94.3995143222, 30.5064912023], "type": "Point"}, "id": "gyDNQcKsprZS-Li4VoJ0f17pahc=", "properties": {"@source_uri": "https://tools.usps.com/UspsToolsRestServices/rest/POLocator/findLocations", "@spider": "usps_collection_boxes", "addr:city": "VILLAGE MILLS", "addr:country": "US", "addr:postcode": "77663", "addr:state": "TX", "addr:street_address": "4956 FM 3063", "amenity": "post_box", "brand": "United States Postal Service", "brand:wikidata": "Q668687", "collection_times": "Mo-Fr 16:30; Sa 12:00", "note": "ON 12/24 AND 12/31, THIS BOX MAY BE COLLECTED AS EARLY AS 12 NOON.", "nsi_id": "unitedstatespostalservice-a77078", "operator": "United States Postal Service", "operator:short": "USPS", "operator:type": "public", "operator:wikidata": "Q668687", "ref": "7766300001"}, "type": "Feature"}
{"geometry": {"coordinates": [-94.41833, 30.51243], "type": "Point"}, "id": "FENBYQgDGmg8QYnPp4T4fglGn54=", "properties": {"@source_uri": "https://tools.usps.com/UspsToolsRestServices/rest/POLocator/findLocations", "@spider": "usps_collection_boxes", "addr:city": "VILLAGE MILLS", "addr:country": "US", "addr:postcode": "77663", "addr:state": "TX", "addr:street_address": "4956 FM 3063", "amenity": "post_box", "brand": "United States Postal Service", "brand:wikidata": "Q668687", "collection_times": "Mo-Fr 16:30; Sa 12:00", "indoor": "yes", "note": "ON 12/24 AND 12/31, THIS BOX MAY BE COLLECTED AS EARLY AS 12 NOON.", "nsi_id": "unitedstatespostalservice-a77078", "operator": "United States Postal Service", "operator:short": "USPS", "operator:type": "public", "operator:wikidata": "Q668687", "ref": "7766300002"}, "type": "Feature"}
{"geometry": {"coordinates": [-94.418336913, 30.512433907], "type": "Point"}, "id": "V7mENpcItUvIsm8B7ZV8WtAQ32A=", "properties": {"@source_uri": "https://tools.usps.com/UspsToolsRestServices/rest/POLocator/findLocations", "@spider": "usps_collection_boxes", "addr:city": "VILLAGE MILLS", "addr:country": "US", "addr:postcode": "77663", "addr:state": "TX", "addr:street_address": "4956 FM 3063", "amenity": "post_box", "brand": "United States Postal Service", "brand:wikidata": "Q668687", "collection_times": "Mo-Fr 16:30; Sa 12:00", "indoor": "yes", "note": "ON 12/24 AND 12/31, THIS BOX MAY BE COLLECTED AS EARLY AS 12 NOON.", "nsi_id": "unitedstatespostalservice-a77078", "operator": "United States Postal Service", "operator:short": "USPS", "operator:type": "public", "operator:wikidata": "Q668687", "ref": "7766300004"}, "type": "Feature"}
{"geometry": {"coordinates": [-94.405817, 30.61102], "type": "Point"}, "id": "8h8UVlGP5hMa8LdTd0sMMYhd-_Y=", "properties": {"@source_uri": "https://tools.usps.com/UspsToolsRestServices/rest/POLocator/findLocations", "@spider": "usps_collection_boxes", "addr:city": "WARREN", "addr:country": "US", "addr:postcode": "77664", "addr:state": "TX", "addr:street_address": "120 COUNTY ROAD 1520", "amenity": "post_box", "brand": "United States Postal Service", "brand:wikidata": "Q668687", "collection_times": "Mo-Fr 16:00; Sa 10:00", "note": "ON 12/24 AND 12/31, THIS BOX MAY BE COLLECTED AS EARLY AS 12 NOON.", "nsi_id": "unitedstatespostalservice-a77078", "operator": "United States Postal Service", "operator:short": "USPS", "operator:type": "public", "operator:wikidata": "Q668687", "ref": "7766400001"}, "type": "Feature"}
{"geometry": {"coordinates": [-94.405751, 30.611002], "type": "Point"}, "id": "r6Hbw09gH0Rf62HWb7Whc9eH7L0=", "properties": {"@source_uri": "https://tools.usps.com/UspsToolsRestServices/rest/POLocator/findLocations", "@spider": "usps_collection_boxes", "addr:city": "WARREN", "addr:country": "US", "addr:postcode": "77664", "addr:state": "TX", "addr:street_address": "120 COUNTY ROAD 1520", "amenity": "post_box", "brand": "United States Postal Service", "brand:wikidata": "Q668687", "collection_times": "Mo-Fr 16:00; Sa 10:00", "indoor": "yes", "note": "ON 12/24 AND 12/31, THIS BOX MAY BE COLLECTED AS EARLY AS 12 NOON.", "nsi_id": "unitedstatespostalservice-a77078", "operator": "United States Postal Service", "operator:short": "USPS", "operator:type": "public", "operator:wikidata": "Q668687", "ref": "7766400003"}, "type": "Feature"}
{"geometry": {"coordinates": [-94.405830263, 30.611019035], "type": "Point"}, "id": "erPpVsOqHEDN_qjWiqvFX_VMBXo=", "properties": {"@source_uri": "https://tools.usps.com/UspsToolsRestServices/rest/POLocator/findLocations", "@spider": "usps_collection_boxes", "addr:city": "WARREN", "addr:country": "US", "addr:postcode": "77664", "addr:state": "TX", "addr:street_address": "120 COUNTY ROAD 1520", "amenity": "post_box", "brand": "United States Postal Service", "brand:wikidata": "Q668687", "collection_times": "Mo-Fr 16:00", "indoor": "yes", "note": "ON 12/24 AND 12/31, THIS BOX MAY BE COLLECTED AS EARLY AS 12 NOON.", "nsi_id": "unitedstatespostalservice-a77078", "operator": "United States Postal Service", "operator:short": "USPS", "operator:type": "public", "operator:wikidata": "Q668687", "ref": "7766400004"}, "type": "Feature"}
{"geometry": {"coordinates": [-94.344273, 29.831929], "type": "Point"}, "id": "i45_r79Na7UDEmoJM-l0MPz3xVY=", "properties": {"@source_uri": "https://tools.usps.com/UspsToolsRestServices/rest/POLocator/findLocations", "@spider": "usps_collection_boxes", "addr:city": "WINNIE", "addr:country": "US", "addr:postcode": "77665", "addr:state": "TX", "addr:street_address": "324 HIGHWAY 124", "amenity": "post_box", "brand": "United States Postal Service", "brand:wikidata": "Q668687", "collection_times": "Mo-Fr 16:30; Sa 11:30", "indoor": "yes", "note": "ON 12/24 AND 12/31, THIS BOX MAY BE COLLECTED AS EARLY AS 12 NOON.", "nsi_id": "unitedstatespostalservice-a77078", "operator": "United States Postal Service", "operator:short": "USPS", "operator:type": "public", "operator:wikidata": "Q668687", "ref": "7766500003"}, "type": "Feature"}
{"geometry": {"coordinates": [-94.344273, 29.831929], "type": "Point"}, "id": "lgGcvLnux848aprIvz6pFqWgCAU=", "properties": {"@source_uri": "https://tools.usps.com/UspsToolsRestServices/rest/POLocator/findLocations", "@spider": "usps_collection_boxes", "addr:city": "WINNIE", "addr:country": "US", "addr:postcode": "77665", "addr:state": "TX", "addr:street_address": "324 HIGHWAY 124", "amenity": "post_box", "brand": "United States Postal Service", "brand:wikidata": "Q668687", "collection_times": "Mo-Fr 16:30; Sa 11:30", "indoor": "yes", "note": "ON 12/24 AND 12/31, THIS BOX MAY BE COLLECTED AS EARLY AS 12 NOON.", "nsi_id": "unitedstatespostalservice-a77078", "operator": "United States Postal Service", "operator:short": "USPS", "operator:type": "public", "operator:wikidata": "Q668687", "ref": "7766500004"}, "type": "Feature"}
{"geometry": {"coordinates": [-94.344348068, 29.831936332], "type": "Point"}, "id": "HCQ82GvGSprHFhrfOigWeDKUlo8=", "properties": {"@source_uri": "https://tools.usps.com/UspsToolsRestServices/rest/POLocator/findLocations", "@spider": "usps_collection_boxes", "addr:city": "WINNIE", "addr:country": "US", "addr:postcode": "77665", "addr:state": "TX", "addr:street_address": "324 HIGHWAY 124", "amenity": "post_box", "brand": "United States Postal Service", "brand:wikidata": "Q668687", "collection_times": "Mo-Fr 16:30", "indoor": "yes", "note": "ON 12/24 AND 12/31, THIS BOX MAY BE COLLECTED AS EARLY AS 12 NOON.", "nsi_id": "unitedstatespostalservice-a77078", "operator": "United States Postal Service", "operator:short": "USPS", "operator:type": "public", "operator:wikidata": "Q668687", "ref": "7766500005"}, "type": "Feature"}
