{"geometry": {"coordinates": [-94.101872, 30.077741], "type": "Point"}, "id": "RjNFkhnIuYR6AbWPV3ALMv5wvno=", "properties": {"@source_uri": "https://tools.usps.com/UspsToolsRestServices/rest/POLocator/findLocations", "@spider": "usps_collection_boxes", "addr:city": "BEAUMONT", "addr:country": "US", "addr:postcode": "77701", "addr:state": "TX", "addr:street_address": "703 ARCHIE ST", "amenity": "post_box", "collection_times": "Mo-Fr 15:15", "note": "ON 12/24 AND 12/31, THIS BOX MAY BE COLLECTED AS EARLY AS 12 NOON.", "nsi_id": "unitedstatespostalservice-a77078", "operator": "United States Postal Service", "operator:short": "USPS", "operator:type": "public", "operator:wikidata": "Q668687", "ref": "7770100001"}, "type": "Feature"}
{"geometry": {"coordinates": [-94.0943940329, 30.0818299922], "type": "Point"}, "id": "qDvhFTXXsOaaFVLrryhaS3P5Gz8=", "properties": {"@source_uri": "https://tools.usps.com/UspsToolsRestServices/rest/POLocator/findLocations", "@spider": "usps_collection_boxes", "addr:city": "BEAUMONT", "addr:country": "US", "addr:postcode": "77701", "addr:state": "TX", "addr:street_address": "801 MAIN ST", "amenity": "post_box", "collection_times": "Mo-Fr 15:45", "note": "ON 12/24 AND 12/31, THIS BOX MAY BE COLLECTED AS EARLY AS 12 NOON.", "nsi_id": "unitedstatespostalservice-a77078", "operator": "United States Postal Service", "operator:short": "USPS", "operator:type": "public", "operator:wikidata": "Q668687", "ref": "7770100021"}, "type": "Feature"}
{"geometry": {"coordinates": [-94.1006600084, 30.0818260108], "type": "Point"}, "id": "1DPllJM-lPxR5L_G4cHJn8HOt-A=", "properties": {"@source_uri": "https://tools.usps.com/UspsToolsRestServices/rest/POLocator/findLocations", "@spider": "usps_collection_boxes", "addr:city": "BEAUMONT", "addr:country": "US", "addr:postcode": "77701", "addr:state": "TX", "addr:street_address": "490 PARK ST", "amenity": "post_box", "collection_times": "Mo-Fr 16:30", "note": "ON 12/24 AND 12/31, THIS BOX MAY BE COLLECTED AS EARLY AS 12 NOON.", "nsi_id": "unitedstatespostalservice-a77078", "operator": "United States Postal Service", "operator:short": "USPS", "operator:type": "public", "operator:wikidata": "Q668687", "ref": "7770100027"}, "type": "Feature"}
{"geometry": {"coordinates": [-94.10903, 30.08901], "type": "Point"}, "id": "BHyjRHRpvj4bzjKGFA8t-MWGhEk=", "properties": {"@source_uri": "https://tools.usps.com/UspsToolsRestServices/rest/POLocator/findLocations", "@spider": "usps_collection_boxes", "addr:city": "BEAUMONT", "addr:country": "US", "addr:postcode": "77701", "addr:state": "TX", "addr:street_address": "1001 PEARL ST", "amenity": "post_box", "collection_times": "Mo-Fr 15:30", "note": "ON 12/24 AND 12/31, THIS BOX MAY BE COLLECTED AS EARLY AS 12 NOON.", "nsi_id": "unitedstatespostalservice-a77078", "operator": "United States Postal Service", "operator:short": "USPS", "operator:type": "public", "operator:wikidata": "Q668687", "ref": "7770100030"}, "type": "Feature"}
{"geometry": {"coordinates": [-94.10903, 30.08901], "type": "Point"}, "id": "yu1r3ewHQxa73XmAu7Asy640dq4=", "properties": {"@source_uri": "https://tools.usps.com/UspsToolsRestServices/rest/POLocator/findLocations", "@spider": "usps_collection_boxes", "addr:city": "BEAUMONT", "addr:country": "US", "addr:postcode": "77701", "addr:state": "TX", "addr:street_address": "3775 STAGG DR", "amenity": "post_box", "collection_times": "Mo-Fr 15:00", "note": "ON 12/24 AND 12/31, THIS BOX MAY BE COLLECTED AS EARLY AS 12 NOON.", "nsi_id": "unitedstatespostalservice-a77078", "operator": "United States Postal Service", "operator:short": "USPS", "operator:type": "public", "operator:wikidata": "Q668687", "ref": "7770100035"}, "type": "Feature"}
{"geometry": {"coordinates": [-94.104219, 30.084941], "type": "Point"}, "id": "ZWuDK_Q_XpkA89seLQURYApuuJ4=", "properties": {"@source_uri": "https://tools.usps.com/UspsToolsRestServices/rest/POLocator/findLocations", "@spider": "usps_collection_boxes", "addr:city": "BEAUMONT", "addr:country": "US", "addr:postcode": "77701", "addr:state": "TX", "addr:street_address": "350 MAGNOLIA ST", "amenity": "post_box", "collection_times": "Mo-Fr 16:15", "note": "ON 12/24 AND 12/31, THIS BOX MAY BE COLLECTED AS EARLY AS 12 NOON.", "nsi_id": "unitedstatespostalservice-a77078", "operator": "United States Postal Service", "operator:short": "USPS", "operator:type": "public", "operator:wikidata": "Q668687", "ref": "7770100042"}, "type": "Feature"}
{"geometry": {"coordinates": [-94.101741713, 30.084126401], "type": "Point"}, "id": "dFvmVYGZh_ESa7o-V6d1mkUXkhs=", "properties": {"@source_uri": "https://tools.usps.com/UspsToolsRestServices/rest/POLocator/findLocations", "@spider": "usps_collection_boxes", "addr:city": "BEAUMONT", "addr:country": "US", "addr:postcode": "77701", "addr:state": "TX", "addr:street_address": "300 WILLOW ST", "amenity": "post_box", "collection_times": "Mo-Fr 16:00", "indoor": "yes", "note": "ON 12/24 AND 12/31, THIS BOX MAY BE COLLECTED AS EARLY AS 12 NOON.", "nsi_id": "unitedstatespostalservice-a77078", "operator": "United States Postal Service", "operator:short": "USPS", "operator:type": "public", "operator:wikidata": "Q668687", "ref": "7770100044"}, "type": "Feature"}
{"geometry": {"coordinates": [-94.101741713, 30.084126401], "type": "Point"}, "id": "cvB1eUh4QR9RkVrYPzakYEbv6Ac=", "properties": {"@source_uri": "https://tools.usps.com/UspsToolsRestServices/rest/POLocator/findLocations", "@spider": "usps_collection_boxes", "addr:city": "BEAUMONT", "addr:country": "US", "addr:postcode": "77701", "addr:state": "TX", "addr:street_address": "300 WILLOW ST", "amenity": "post_box", "collection_times": "Mo-Fr 16:00", "indoor": "yes", "note": "ON 12/24 AND 12/31, THIS BOX MAY BE COLLECTED AS EARLY AS 12 NOON.", "nsi_id": "unitedstatespostalservice-a77078", "operator": "United States Postal Service", "operator:short": "USPS", "operator:type": "public", "operator:wikidata": "Q668687", "ref": "7770100045"}, "type": "Feature"}
{"geometry": {"coordinates": [-94.097301, 30.08531], "type": "Point"}, "id": "X1tIOrX08unQQIB8l-5sWDFNBZ4=", "properties": {"@source_uri": "https://tools.usps.com/UspsToolsRestServices/rest/POLocator/findLocations", "@spider": "usps_collection_boxes", "addr:city": "BEAUMONT", "addr:country": "US", "addr:postcode": "77701", "addr:state": "TX", "addr:street_address": "350 PINE ST", "amenity": "post_box", "collection_times": "Mo-Fr 16:00", "note": "ON 12/24 AND 12/31, THIS BOX MAY BE COLLECTED AS EARLY AS 12 NOON.", "nsi_id": "unitedstatespostalservice-a77078", "operator": "United States Postal Service", "operator:short": "USPS", "operator:type": "public", "operator:wikidata": "Q668687", "ref": "7770100065"}, "type": "Feature"}
{"geometry": {"coordinates": [-94.101741713, 30.084126401], "type": "Point"}, "id": "LRVU8CR5gBuHCRrTLRAYzCjU5NQ=", "properties": {"@source_uri": "https://tools.usps.com/UspsToolsRestServices/rest/POLocator/findLocations", "@spider": "usps_collection_boxes", "addr:city": "BEAUMONT", "addr:country": "US", "addr:postcode": "77701", "addr:state": "TX", "addr:street_address": "300 WILLOW ST STE 1", "amenity": "post_box", "collection_times": "Mo-Fr 16:00", "indoor": "yes", "note": "ON 12/24 AND 12/31, THIS BOX MAY BE COLLECTED AS EARLY AS 12 NOON.", "nsi_id": "unitedstatespostalservice-a77078", "operator": "United States Postal Service", "operator:short": "USPS", "operator:type": "public", "operator:wikidata": "Q668687", "ref": "7770100069"}, "type": "Feature"}
{"geometry": {"coordinates": [-94.10903, 30.08901], "type": "Point"}, "id": "IFPLS9IvS2mNOOCLWj_ZlaI00z8=", "properties": {"@source_uri": "https://tools.usps.com/UspsToolsRestServices/rest/POLocator/findLocations", "@spider": "usps_collection_boxes", "addr:city": "BEAUMONT", "addr:country": "US", "addr:postcode": "77701", "addr:state": "TX", "addr:street_address": "142 GATEWAY ST", "amenity": "post_box", "collection_times": "Mo-Sa 12:00", "nsi_id": "unitedstatespostalservice-a77078", "operator": "United States Postal Service", "operator:short": "USPS", "operator:type": "public", "operator:wikidata": "Q668687", "ref": "7770100071"}, "type": "Feature"}
{"geometry": {"coordinates": [-94.127315, 30.084558], "type": "Point"}, "id": "PSia4KCeqVgDLh9aH6F2U8w3Pio=", "properties": {"@source_uri": "https://tools.usps.com/UspsToolsRestServices/rest/POLocator/findLocations", "@spider": "usps_collection_boxes", "addr:city": "BEAUMONT", "addr:country": "US", "addr:postcode": "77702", "addr:state": "TX", "addr:street_address": "395 N 10TH ST", "amenity": "post_box", "collection_times": "Mo-Fr 14:45", "note": "ON 12/24 AND 12/31, THIS BOX MAY BE COLLECTED AS EARLY AS 12 NOON.", "nsi_id": "unitedstatespostalservice-a77078", "operator": "United States Postal Service", "operator:short": "USPS", "operator:type": "public", "operator:wikidata": "Q668687", "ref": "7770200001"}, "type": "Feature"}
{"geometry": {"coordinates": [-94.131181, 30.085628], "type": "Point"}, "id": "5BPP542tzjfxIjrDDpIHikHyx0E=", "properties": {"@source_uri": "https://tools.usps.com/UspsToolsRestServices/rest/POLocator/findLocations", "@spider": "usps_collection_boxes", "addr:city": "BEAUMONT", "addr:country": "US", "addr:postcode": "77702", "addr:state": "TX", "addr:street_address": "2830 CALDER ST", "amenity": "post_box", "collection_times": "Mo-Fr 14:30", "note": "ON 12/24 AND 12/31, THIS BOX MAY BE COLLECTED AS EARLY AS 12 NOON.", "nsi_id": "unitedstatespostalservice-a77078", "operator": "United States Postal Service", "operator:short": "USPS", "operator:type": "public", "operator:wikidata": "Q668687", "ref": "7770200003"}, "type": "Feature"}
{"geometry": {"coordinates": [-94.129712, 30.079026], "type": "Point"}, "id": "ekLw1YBm1USBcKlBpMkgQ5KZujs=", "properties": {"@source_uri": "https://tools.usps.com/UspsToolsRestServices/rest/POLocator/findLocations", "@spider": "usps_collection_boxes", "addr:city": "BEAUMONT", "addr:country": "US", "addr:postcode": "77702", "addr:state": "TX", "addr:street_address": "41 N 11TH ST", "amenity": "post_box", "collection_times": "Mo-Fr 15:00", "note": "ON 12/24 AND 12/31, THIS BOX MAY BE COLLECTED AS EARLY AS 12 NOON.", "nsi_id": "unitedstatespostalservice-a77078", "operator": "United States Postal Service", "operator:short": "USPS", "operator:type": "public", "operator:wikidata": "Q668687", "ref": "7770200005"}, "type": "Feature"}
{"geometry": {"coordinates": [-94.132311, 30.089493], "type": "Point"}, "id": "VpeHYYtcnjUlaEAUD-EM3aQRRQE=", "properties": {"@source_uri": "https://tools.usps.com/UspsToolsRestServices/rest/POLocator/findLocations", "@spider": "usps_collection_boxes", "addr:city": "BEAUMONT", "addr:country": "US", "addr:postcode": "77702", "addr:state": "TX", "addr:street_address": "2955 HARRISON ST", "amenity": "post_box", "collection_times": "Mo-Fr 14:30", "note": "ON 12/24 AND 12/31, THIS BOX MAY BE COLLECTED AS EARLY AS 12 NOON.", "nsi_id": "unitedstatespostalservice-a77078", "operator": "United States Postal Service", "operator:short": "USPS", "operator:type": "public", "operator:wikidata": "Q668687", "ref": "7770200006"}, "type": "Feature"}
{"geometry": {"coordinates": [-94.1396357, 30.105988], "type": "Point"}, "id": "cC90LOw3c5s8yvSR46haj1waaY0=", "properties": {"@source_uri": "https://tools.usps.com/UspsToolsRestServices/rest/POLocator/findLocations", "@spider": "usps_collection_boxes", "addr:city": "BEAUMONT", "addr:country": "US", "addr:postcode": "77703", "addr:state": "TX", "addr:street_address": "3560 DELAWARE ST", "amenity": "post_box", "collection_times": "Mo-Fr 14:45", "note": "ON 12/24 AND 12/31, THIS BOX MAY BE COLLECTED AS EARLY AS 12 NOON.", "nsi_id": "unitedstatespostalservice-a77078", "operator": "United States Postal Service", "operator:short": "USPS", "operator:type": "public", "operator:wikidata": "Q668687", "ref": "7770300003"}, "type": "Feature"}
{"geometry": {"coordinates": [-94.1330221, 30.106325], "type": "Point"}, "id": "Dec3HCq5iLZTJJQDrFnS1aWoD1Q=", "properties": {"@source_uri": "https://tools.usps.com/UspsToolsRestServices/rest/POLocator/findLocations", "@spider": "usps_collection_boxes", "addr:city": "BEAUMONT", "addr:country": "US", "addr:postcode": "77703", "addr:state": "TX", "addr:street_address": "3240 DELAWARE ST", "amenity": "post_box", "collection_times": "Mo-Fr 14:45", "note": "ON 12/24 AND 12/31, THIS BOX MAY BE COLLECTED AS EARLY AS 12 NOON.", "nsi_id": "unitedstatespostalservice-a77078", "operator": "United States Postal Service", "operator:short": "USPS", "operator:type": "public", "operator:wikidata": "Q668687", "ref": "7770300010"}, "type": "Feature"}
{"geometry": {"coordinates": [-94.089365, 30.051045], "type": "Point"}, "id": "FEN16ThIz4FWi60C3KkALHiK_90=", "properties": {"@source_uri": "https://tools.usps.com/UspsToolsRestServices/rest/POLocator/findLocations", "@spider": "usps_collection_boxes", "addr:city": "BEAUMONT", "addr:country": "US", "addr:postcode": "77705", "addr:state": "TX", "addr:street_address": "3501 AVENUE A", "amenity": "post_box", "collection_times": "Mo-Sa 16:00", "note": "ON 12/24 AND 12/31, THIS BOX MAY BE COLLECTED AS EARLY AS 12 NOON.", "nsi_id": "unitedstatespostalservice-a77078", "operator": "United States Postal Service", "operator:short": "USPS", "operator:type": "public", "operator:wikidata": "Q668687", "ref": "7770500001"}, "type": "Feature"}
{"geometry": {"coordinates": [-94.097327, 30.052461], "type": "Point"}, "id": "quswRV1aN6hxEnrHKmY2qShS1hc=", "properties": {"@source_uri": "https://tools.usps.com/UspsToolsRestServices/rest/POLocator/findLocations", "@spider": "usps_collection_boxes", "addr:city": "BEAUMONT", "addr:country": "US", "addr:postcode": "77705", "addr:state": "TX", "addr:street_address": "3501 AVENUE A", "amenity": "post_box", "collection_times": "Mo-Sa 16:00", "indoor": "yes", "note": "ON 12/24 AND 12/31, THIS BOX MAY BE COLLECTED AS EARLY AS 12 NOON.", "nsi_id": "unitedstatespostalservice-a77078", "operator": "United States Postal Service", "operator:short": "USPS", "operator:type": "public", "operator:wikidata": "Q668687", "ref": "7770500019"}, "type": "Feature"}
{"geometry": {"coordinates": [-94.097327, 30.052461], "type": "Point"}, "id": "vtfuQ6bTd8PZojv0gnSVRsu1RQM=", "properties": {"@source_uri": "https://tools.usps.com/UspsToolsRestServices/rest/POLocator/findLocations", "@spider": "usps_collection_boxes", "addr:city": "BEAUMONT", "addr:country": "US", "addr:postcode": "77705", "addr:state": "TX", "addr:street_address": "3501 AVENUE A", "amenity": "post_box", "collection_times": "Mo-Sa 16:00", "indoor": "yes", "note": "ON 12/24 AND 12/31, THIS BOX MAY BE COLLECTED AS EARLY AS 12 NOON.", "nsi_id": "unitedstatespostalservice-a77078", "operator": "United States Postal Service", "operator:short": "USPS", "operator:type": "public", "operator:wikidata": "Q668687", "ref": "7770500020"}, "type": "Feature"}
{"geometry": {"coordinates": [-94.097327, 30.052461], "type": "Point"}, "id": "gvsKzvV9smmd8UJlWHt9RqVq1v4=", "properties": {"@source_uri": "https://tools.usps.com/UspsToolsRestServices/rest/POLocator/findLocations", "@spider": "usps_collection_boxes", "addr:city": "BEAUMONT", "addr:country": "US", "addr:postcode": "77705", "addr:state": "TX", "addr:street_address": "3501 AVENUE A", "amenity": "post_box", "collection_times": "Mo-Sa 16:00", "indoor": "yes", "note": "ON 12/24 AND 12/31, THIS BOX MAY BE COLLECTED AS EARLY AS 12 NOON.", "nsi_id": "unitedstatespostalservice-a77078", "operator": "United States Postal Service", "operator:short": "USPS", "operator:type": "public", "operator:wikidata": "Q668687", "ref": "7770500022"}, "type": "Feature"}
{"geometry": {"coordinates": [-94.0207035, 29.963623], "type": "Point"}, "id": "h8GaCZsKHC4npukUaYuTuzbl4_0=", "properties": {"@source_uri": "https://tools.usps.com/UspsToolsRestServices/rest/POLocator/findLocations", "@spider": "usps_collection_boxes", "addr:city": "BEAUMONT", "addr:country": "US", "addr:postcode": "77705", "addr:state": "TX", "addr:street_address": "7933 VITERBO RD", "amenity": "post_box", "collection_times": "Mo-Fr 12:30", "note": "ON 12/24 AND 12/31, THIS BOX MAY BE COLLECTED AS EARLY AS 12 NOON.", "nsi_id": "unitedstatespostalservice-a77078", "operator": "United States Postal Service", "operator:short": "USPS", "operator:type": "public", "operator:wikidata": "Q668687", "ref": "7770500023"}, "type": "Feature"}
{"geometry": {"coordinates": [-94.097305028, 30.052490528], "type": "Point"}, "id": "TCcQ2I1psl0MPd4vgvcJb9ECmU4=", "properties": {"@source_uri": "https://tools.usps.com/UspsToolsRestServices/rest/POLocator/findLocations", "@spider": "usps_collection_boxes", "addr:city": "BEAUMONT", "addr:country": "US", "addr:postcode": "77705", "addr:state": "TX", "addr:street_address": "3501 AVENUE A", "amenity": "post_box", "collection_times": "Mo-Fr 16:30", "indoor": "yes", "note": "ON 12/24 AND 12/31, THIS BOX MAY BE COLLECTED AS EARLY AS 12 NOON.", "nsi_id": "unitedstatespostalservice-a77078", "operator": "United States Postal Service", "operator:short": "USPS", "operator:type": "public", "operator:wikidata": "Q668687", "ref": "7770500027"}, "type": "Feature"}
{"geometry": {"coordinates": [-94.076192599, 30.0423518208], "type": "Point"}, "id": "xpE8KWPGZG-t25Pi9H1d4SrelQ0=", "properties": {"@source_uri": "https://tools.usps.com/UspsToolsRestServices/rest/POLocator/findLocations", "@spider": "usps_collection_boxes", "addr:city": "BEAUMONT", "addr:country": "US", "addr:postcode": "77705", "addr:state": "TX", "addr:street_address": "211 REDBIRD LN", "amenity": "post_box", "collection_times": "Mo-Fr 15:30", "note": "ON 12/24 AND 12/31, THIS BOX MAY BE COLLECTED AS EARLY AS 12 NOON.", "nsi_id": "unitedstatespostalservice-a77078", "operator": "United States Postal Service", "operator:short": "USPS", "operator:type": "public", "operator:wikidata": "Q668687", "ref": "7770500028"}, "type": "Feature"}
{"geometry": {"coordinates": [-94.1677459954, 30.1158629917], "type": "Point"}, "id": "CHG9czxZijms-not_AwLASg-qY4=", "properties": {"@source_uri": "https://tools.usps.com/UspsToolsRestServices/rest/POLocator/findLocations", "@spider": "usps_collection_boxes", "addr:city": "BEAUMONT", "addr:country": "US", "addr:postcode": "77706", "addr:state": "TX", "addr:street_address": "3910 N DOWLEN RD", "amenity": "post_box", "collection_times": "Mo-Fr 17:00; Sa 15:00", "note": "ON 12/24 AND 12/31, THIS BOX MAY BE COLLECTED AS EARLY AS 12 NOON.", "nsi_id": "unitedstatespostalservice-a77078", "operator": "United States Postal Service", "operator:short": "USPS", "operator:type": "public", "operator:wikidata": "Q668687", "ref": "7770600006"}, "type": "Feature"}
{"geometry": {"coordinates": [-94.1697579, 30.077995], "type": "Point"}, "id": "fPXOq5bbncaqlPUAEjayDGAVuLs=", "properties": {"@source_uri": "https://tools.usps.com/UspsToolsRestServices/rest/POLocator/findLocations", "@spider": "usps_collection_boxes", "addr:city": "BEAUMONT", "addr:country": "US", "addr:postcode": "77706", "addr:state": "TX", "addr:street_address": "6400 PHELAN BLVD", "amenity": "post_box", "collection_times": "Mo-Fr 16:30", "note": "ON 12/24 AND 12/31, THIS BOX MAY BE COLLECTED AS EARLY AS 12 NOON.", "nsi_id": "unitedstatespostalservice-a77078", "operator": "United States Postal Service", "operator:short": "USPS", "operator:type": "public", "operator:wikidata": "Q668687", "ref": "7770600010"}, "type": "Feature"}
{"geometry": {"coordinates": [-94.17143, 30.080795], "type": "Point"}, "id": "HayB2T35Pxk-QGzjBNOkVyf8uTI=", "properties": {"@source_uri": "https://tools.usps.com/UspsToolsRestServices/rest/POLocator/findLocations", "@spider": "usps_collection_boxes", "addr:city": "BEAUMONT", "addr:country": "US", "addr:postcode": "77706", "addr:state": "TX", "addr:street_address": "8350 PHELAN BLVD", "amenity": "post_box", "collection_times": "Mo-Fr 15:30", "note": "ON 12/24 AND 12/31, THIS BOX MAY BE COLLECTED AS EARLY AS 12 NOON.", "nsi_id": "unitedstatespostalservice-a77078", "operator": "United States Postal Service", "operator:short": "USPS", "operator:type": "public", "operator:wikidata": "Q668687", "ref": "7770600011"}, "type": "Feature"}
{"geometry": {"coordinates": [-94.158478963, 30.12601201], "type": "Point"}, "id": "dRjF4djyonlJVdxjQxNbt-E6gUc=", "properties": {"@source_uri": "https://tools.usps.com/UspsToolsRestServices/rest/POLocator/findLocations", "@spider": "usps_collection_boxes", "addr:city": "BEAUMONT", "addr:country": "US", "addr:postcode": "77706", "addr:state": "TX", "addr:street_address": "6155 EASTEX FWY", "amenity": "post_box", "collection_times": "Mo-Fr 14:30", "note": "ON 12/24 AND 12/31, THIS BOX MAY BE COLLECTED AS EARLY AS 12 NOON.", "nsi_id": "unitedstatespostalservice-a77078", "operator": "United States Postal Service", "operator:short": "USPS", "operator:type": "public", "operator:wikidata": "Q668687", "ref": "7770600021"}, "type": "Feature"}
{"geometry": {"coordinates": [-94.1672326, 30.122276], "type": "Point"}, "id": "pgLLH2xQKAQxQY-19ntUY0aWanw=", "properties": {"@source_uri": "https://tools.usps.com/UspsToolsRestServices/rest/POLocator/findLocations", "@spider": "usps_collection_boxes", "addr:city": "BEAUMONT", "addr:country": "US", "addr:postcode": "77706", "addr:state": "TX", "addr:street_address": "4145 DOWLEN RD", "amenity": "post_box", "collection_times": "Mo-Fr 15:45", "note": "ON 12/24 AND 12/31, THIS BOX MAY BE COLLECTED AS EARLY AS 12 NOON.", "nsi_id": "unitedstatespostalservice-a77078", "operator": "United States Postal Service", "operator:short": "USPS", "operator:type": "public", "operator:wikidata": "Q668687", "ref": "7770600023"}, "type": "Feature"}
{"geometry": {"coordinates": [-94.1679131, 30.115783], "type": "Point"}, "id": "4bceSZb3DgGWh4BZPfuAs7HAhWA=", "properties": {"@source_uri": "https://tools.usps.com/UspsToolsRestServices/rest/POLocator/findLocations", "@spider": "usps_collection_boxes", "addr:city": "BEAUMONT", "addr:country": "US", "addr:postcode": "77706", "addr:state": "TX", "addr:street_address": "3910 N DOWLEN RD", "amenity": "post_box", "collection_times": "Mo-Fr 17:00; Sa 15:00", "indoor": "yes", "note": "ON 12/24 AND 12/31, THIS BOX MAY BE COLLECTED AS EARLY AS 12 NOON.", "nsi_id": "unitedstatespostalservice-a77078", "operator": "United States Postal Service", "operator:short": "USPS", "operator:type": "public", "operator:wikidata": "Q668687", "ref": "7770600026"}, "type": "Feature"}
{"geometry": {"coordinates": [-94.1685801936, 30.1158082986], "type": "Point"}, "id": "2YAFlprm821o_P-lg8fV9eBHYqg=", "properties": {"@source_uri": "https://tools.usps.com/UspsToolsRestServices/rest/POLocator/findLocations", "@spider": "usps_collection_boxes", "addr:city": "BEAUMONT", "addr:country": "US", "addr:postcode": "77706", "addr:state": "TX", "addr:street_address": "3910 N DOWLEN RD", "amenity": "post_box", "collection_times": "Mo-Fr 18:00; Sa 12:00", "indoor": "yes", "note": "ON 12/24 AND 12/31, THIS BOX MAY BE COLLECTED AS EARLY AS 12 NOON.", "nsi_id": "unitedstatespostalservice-a77078", "operator": "United States Postal Service", "operator:short": "USPS", "operator:type": "public", "operator:wikidata": "Q668687", "ref": "7770600042"}, "type": "Feature"}
{"geometry": {"coordinates": [-94.1367654, 30.079406], "type": "Point"}, "id": "pOrvX_4roxYJZwxJho9bvP-RZlU=", "properties": {"@source_uri": "https://tools.usps.com/UspsToolsRestServices/rest/POLocator/findLocations", "@spider": "usps_collection_boxes", "addr:city": "BEAUMONT", "addr:country": "US", "addr:postcode": "77707", "addr:state": "TX", "addr:street_address": "85 INTERSTATE 10 N", "amenity": "post_box", "collection_times": "Mo-Fr 16:45", "note": "ON 12/24 AND 12/31, THIS BOX MAY BE COLLECTED AS EARLY AS 12 NOON.", "nsi_id": "unitedstatespostalservice-a77078", "operator": "United States Postal Service", "operator:short": "USPS", "operator:type": "public", "operator:wikidata": "Q668687", "ref": "7770700003"}, "type": "Feature"}
{"geometry": {"coordinates": [-94.15541, 30.073675], "type": "Point"}, "id": "7suD0beN7K9corAyeyaGRZdQAyg=", "properties": {"@source_uri": "https://tools.usps.com/UspsToolsRestServices/rest/POLocator/findLocations", "@spider": "usps_collection_boxes", "addr:city": "BEAUMONT", "addr:country": "US", "addr:postcode": "77707", "addr:state": "TX", "addr:street_address": "5815 WALDEN RD", "amenity": "post_box", "collection_times": "Mo-Sa 17:00", "note": "ON 12/24 AND 12/31, THIS BOX MAY BE COLLECTED AS EARLY AS 12 NOON.", "nsi_id": "unitedstatespostalservice-a77078", "operator": "United States Postal Service", "operator:short": "USPS", "operator:type": "public", "operator:wikidata": "Q668687", "ref": "7770700006"}, "type": "Feature"}
{"geometry": {"coordinates": [-94.144402278, 30.084229546], "type": "Point"}, "id": "3dGkk74OnwJebO9UHMkOZtrJ8mc=", "properties": {"@source_uri": "https://tools.usps.com/UspsToolsRestServices/rest/POLocator/findLocations", "@spider": "usps_collection_boxes", "addr:city": "BEAUMONT", "addr:country": "US", "addr:postcode": "77707", "addr:state": "TX", "addr:street_address": "3955 PHELAN BLVD", "amenity": "post_box", "collection_times": "Mo-Fr 15:15", "note": "ON 12/24 AND 12/31, THIS BOX MAY BE COLLECTED AS EARLY AS 12 NOON.", "nsi_id": "unitedstatespostalservice-a77078", "operator": "United States Postal Service", "operator:short": "USPS", "operator:type": "public", "operator:wikidata": "Q668687", "ref": "7770700013"}, "type": "Feature"}
{"geometry": {"coordinates": [-94.1617718906, 30.0386364905], "type": "Point"}, "id": "7EKdlBsz-wrVkLQw9z40BvsqTa8=", "properties": {"@source_uri": "https://tools.usps.com/UspsToolsRestServices/rest/POLocator/findLocations", "@spider": "usps_collection_boxes", "addr:city": "BEAUMONT", "addr:country": "US", "addr:postcode": "77707", "addr:state": "TX", "addr:street_address": "5815 WALDEN RD", "amenity": "post_box", "collection_times": "Mo-Sa 17:00", "indoor": "yes", "note": "ON 12/24 AND 12/31, THIS BOX MAY BE COLLECTED AS EARLY AS 12 NOON.", "nsi_id": "unitedstatespostalservice-a77078", "operator": "United States Postal Service", "operator:short": "USPS", "operator:type": "public", "operator:wikidata": "Q668687", "ref": "7770700018"}, "type": "Feature"}
{"geometry": {"coordinates": [-94.1617718906, 30.0386364905], "type": "Point"}, "id": "9BWrs0vP1CgVa3GDgE-COSM0DbI=", "properties": {"@source_uri": "https://tools.usps.com/UspsToolsRestServices/rest/POLocator/findLocations", "@spider": "usps_collection_boxes", "addr:city": "BEAUMONT", "addr:country": "US", "addr:postcode": "77707", "addr:state": "TX", "addr:street_address": "5815 WALDEN RD", "amenity": "post_box", "collection_times": "Mo-Sa 17:00", "indoor": "yes", "note": "ON 12/24 AND 12/31, THIS BOX MAY BE COLLECTED AS EARLY AS 12 NOON.", "nsi_id": "unitedstatespostalservice-a77078", "operator": "United States Postal Service", "operator:short": "USPS", "operator:type": "public", "operator:wikidata": "Q668687", "ref": "7770700019"}, "type": "Feature"}
{"geometry": {"coordinates": [-94.155891, 30.067909], "type": "Point"}, "id": "YsyW8O2DBLAdyQng1Aj8r9sIJEY=", "properties": {"@source_uri": "https://tools.usps.com/UspsToolsRestServices/rest/POLocator/findLocations", "@spider": "usps_collection_boxes", "addr:city": "BEAUMONT", "addr:country": "US", "addr:postcode": "77707", "addr:state": "TX", "addr:street_address": "5610 COLLEGE ST", "amenity": "post_box", "collection_times": "Mo-Fr 16:45", "note": "ON 12/24 AND 12/31, THIS BOX MAY BE COLLECTED AS EARLY AS 12 NOON.", "nsi_id": "unitedstatespostalservice-a77078", "operator": "United States Postal Service", "operator:short": "USPS", "operator:type": "public", "operator:wikidata": "Q668687", "ref": "7770700021"}, "type": "Feature"}
{"geometry": {"coordinates": [-94.1731219805, 30.073184981], "type": "Point"}, "id": "n7PPpPSyFxurPCduCM9FEnG6Ta4=", "properties": {"@source_uri": "https://tools.usps.com/UspsToolsRestServices/rest/POLocator/findLocations", "@spider": "usps_collection_boxes", "addr:city": "BEAUMONT", "addr:country": "US", "addr:postcode": "77707", "addr:state": "TX", "addr:street_address": "148 S DOWLEN RD", "amenity": "post_box", "collection_times": "Mo-Fr 16:30", "note": "ON 12/24 AND 12/31, THIS BOX MAY BE COLLECTED AS EARLY AS 12 NOON.", "nsi_id": "unitedstatespostalservice-a77078", "operator": "United States Postal Service", "operator:short": "USPS", "operator:type": "public", "operator:wikidata": "Q668687", "ref": "7770700026"}, "type": "Feature"}
{"geometry": {"coordinates": [-94.1617718906, 30.0386364905], "type": "Point"}, "id": "S-gaclMFsvc4REV4G_npqVcL0HE=", "properties": {"@source_uri": "https://tools.usps.com/UspsToolsRestServices/rest/POLocator/findLocations", "@spider": "usps_collection_boxes", "addr:city": "BEAUMONT", "addr:country": "US", "addr:postcode": "77707", "addr:state": "TX", "addr:street_address": "5815 WALDEN RD", "amenity": "post_box", "collection_times": "Mo-Fr 17:00; Sa 13:00", "indoor": "yes", "note": "ON 12/24 AND 12/31, THIS BOX MAY BE COLLECTED AS EARLY AS 12 NOON.", "nsi_id": "unitedstatespostalservice-a77078", "operator": "United States Postal Service", "operator:short": "USPS", "operator:type": "public", "operator:wikidata": "Q668687", "ref": "7770700034"}, "type": "Feature"}
{"geometry": {"coordinates": [-94.1704526, 30.133848], "type": "Point"}, "id": "fNRY6TR5m5tslaUOCtzkKGRYrCs=", "properties": {"@source_uri": "https://tools.usps.com/UspsToolsRestServices/rest/POLocator/findLocations", "@spider": "usps_collection_boxes", "addr:city": "BEAUMONT", "addr:country": "US", "addr:postcode": "77708", "addr:state": "TX", "addr:street_address": "5960 HIGHWAY 105", "amenity": "post_box", "collection_times": "Mo-Fr 14:15", "note": "ON 12/24 AND 12/31, THIS BOX MAY BE COLLECTED AS EARLY AS 12 NOON.", "nsi_id": "unitedstatespostalservice-a77078", "operator": "United States Postal Service", "operator:short": "USPS", "operator:type": "public", "operator:wikidata": "Q668687", "ref": "7770800003"}, "type": "Feature"}
