{"geometry": {"coordinates": [-96.343380536, 30.671758616], "type": "Point"}, "id": "hajDl-vEEkW-wEo-9mMJvatvfDU=", "properties": {"@source_uri": "https://tools.usps.com/UspsToolsRestServices/rest/POLocator/findLocations", "@spider": "usps_collection_boxes", "addr:city": "BRYAN", "addr:country": "US", "addr:postcode": "77801", "addr:state": "TX", "addr:street_address": "2121 E WM J BRYAN PKWY", "amenity": "post_box", "brand": "United States Postal Service", "brand:wikidata": "Q668687", "collection_times": "Mo-Fr 16:30", "indoor": "yes", "note": "ON 12/24 AND 12/31, THIS BOX MAY BE COLLECTED AS EARLY AS 12 NOON.", "nsi_id": "unitedstatespostalservice-a77078", "operator": "United States Postal Service", "operator:short": "USPS", "operator:type": "public", "operator:wikidata": "Q668687", "ref": "7780100020"}, "type": "Feature"}
{"geometry": {"coordinates": [-96.3312029635, 30.6441279969], "type": "Point"}, "id": "7cUJ14FORZ-qK_1fVH2lUHsEQyU=", "properties": {"@source_uri": "https://tools.usps.com/UspsToolsRestServices/rest/POLocator/findLocations", "@spider": "usps_collection_boxes", "addr:city": "BRYAN", "addr:country": "US", "addr:postcode": "77802", "addr:state": "TX", "addr:street_address": "4343 CARTER CREEK PKWY", "amenity": "post_box", "brand": "United States Postal Service", "brand:wikidata": "Q668687", "collection_times": "Mo-Fr 16:15", "note": "ON 12/24 AND 12/31, THIS BOX MAY BE COLLECTED AS EARLY AS 12 NOON.", "nsi_id": "unitedstatespostalservice-a77078", "operator": "United States Postal Service", "operator:short": "USPS", "operator:type": "public", "operator:wikidata": "Q668687", "ref": "7780200007"}, "type": "Feature"}
{"geometry": {"coordinates": [-96.3499549, 30.645382], "type": "Point"}, "id": "hV0phbIiN4iohvSV7G_rzDl9KkQ=", "properties": {"@source_uri": "https://tools.usps.com/UspsToolsRestServices/rest/POLocator/findLocations", "@spider": "usps_collection_boxes", "addr:city": "BRYAN", "addr:country": "US", "addr:postcode": "77802", "addr:state": "TX", "addr:street_address": "701 E VILLA MARIA RD", "amenity": "post_box", "brand": "United States Postal Service", "brand:wikidata": "Q668687", "collection_times": "Mo-Fr 16:15", "note": "ON 12/24 AND 12/31, THIS BOX MAY BE COLLECTED AS EARLY AS 12 NOON.", "nsi_id": "unitedstatespostalservice-a77078", "operator": "United States Postal Service", "operator:short": "USPS", "operator:type": "public", "operator:wikidata": "Q668687", "ref": "7780200012"}, "type": "Feature"}
{"geometry": {"coordinates": [-96.3553460298, 30.6444960044], "type": "Point"}, "id": "4FOqyLC_ouI5p7d7-X3zPF95ugY=", "properties": {"@source_uri": "https://tools.usps.com/UspsToolsRestServices/rest/POLocator/findLocations", "@spider": "usps_collection_boxes", "addr:city": "BRYAN", "addr:country": "US", "addr:postcode": "77802", "addr:state": "TX", "addr:street_address": "2800 S TEXAS AVE", "amenity": "post_box", "brand": "United States Postal Service", "brand:wikidata": "Q668687", "collection_times": "Mo-Fr 16:15", "note": "ON 12/24 AND 12/31, THIS BOX MAY BE COLLECTED AS EARLY AS 12 NOON.", "nsi_id": "unitedstatespostalservice-a77078", "operator": "United States Postal Service", "operator:short": "USPS", "operator:type": "public", "operator:wikidata": "Q668687", "ref": "7780200020"}, "type": "Feature"}
{"geometry": {"coordinates": [-96.343951, 30.671711], "type": "Point"}, "id": "xrPbxzVTihxQrTbbYOuFuhyI6nQ=", "properties": {"@source_uri": "https://tools.usps.com/UspsToolsRestServices/rest/POLocator/findLocations", "@spider": "usps_collection_boxes", "addr:city": "BRYAN", "addr:country": "US", "addr:postcode": "77802", "addr:state": "TX", "addr:street_address": "2121 E WM J BRYAN PKWY", "amenity": "post_box", "brand": "United States Postal Service", "brand:wikidata": "Q668687", "collection_times": "Mo-Fr 17:00; Sa 15:00", "note": "ON 12/24 AND 12/31, THIS BOX MAY BE COLLECTED AS EARLY AS 12 NOON.", "nsi_id": "unitedstatespostalservice-a77078", "operator": "United States Postal Service", "operator:short": "USPS", "operator:type": "public", "operator:wikidata": "Q668687", "ref": "7780200025"}, "type": "Feature"}
{"geometry": {"coordinates": [-96.3380299, 30.652357], "type": "Point"}, "id": "WwTRZYTtdjel2ZllvowYf6OimOQ=", "properties": {"@source_uri": "https://tools.usps.com/UspsToolsRestServices/rest/POLocator/findLocations", "@spider": "usps_collection_boxes", "addr:city": "BRYAN", "addr:country": "US", "addr:postcode": "77802", "addr:state": "TX", "addr:street_address": "1716 BRIARCREST DR", "amenity": "post_box", "brand": "United States Postal Service", "brand:wikidata": "Q668687", "collection_times": "Mo-Fr 16:00", "note": "ON 12/24 AND 12/31, THIS BOX MAY BE COLLECTED AS EARLY AS 12 NOON.", "nsi_id": "unitedstatespostalservice-a77078", "operator": "United States Postal Service", "operator:short": "USPS", "operator:type": "public", "operator:wikidata": "Q668687", "ref": "7780200036"}, "type": "Feature"}
{"geometry": {"coordinates": [-96.343951, 30.671711], "type": "Point"}, "id": "4l9tsN538zJLkzmfJtL9Q08qJVw=", "properties": {"@source_uri": "https://tools.usps.com/UspsToolsRestServices/rest/POLocator/findLocations", "@spider": "usps_collection_boxes", "addr:city": "BRYAN", "addr:country": "US", "addr:postcode": "77802", "addr:state": "TX", "addr:street_address": "2121 E WM J BRYAN PKWY", "amenity": "post_box", "brand": "United States Postal Service", "brand:wikidata": "Q668687", "collection_times": "Mo-Fr 17:00; Sa 15:00", "indoor": "yes", "note": "ON 12/24 AND 12/31, THIS BOX MAY BE COLLECTED AS EARLY AS 12 NOON.", "nsi_id": "unitedstatespostalservice-a77078", "operator": "United States Postal Service", "operator:short": "USPS", "operator:type": "public", "operator:wikidata": "Q668687", "ref": "7780200057"}, "type": "Feature"}
{"geometry": {"coordinates": [-96.343951, 30.671711], "type": "Point"}, "id": "5QJlmCiud_kiokQ0Y-V0orRiIq4=", "properties": {"@source_uri": "https://tools.usps.com/UspsToolsRestServices/rest/POLocator/findLocations", "@spider": "usps_collection_boxes", "addr:city": "BRYAN", "addr:country": "US", "addr:postcode": "77802", "addr:state": "TX", "addr:street_address": "2121 E WM J BRYAN PKWY", "amenity": "post_box", "brand": "United States Postal Service", "brand:wikidata": "Q668687", "collection_times": "Mo-Fr 17:00; Sa 15:00", "name": "USPS COLLECTION BOX - APC", "note": "ON 12/24 AND 12/31, THIS BOX MAY BE COLLECTED AS EARLY AS 12 NOON.", "nsi_id": "unitedstatespostalservice-a77078", "operator": "United States Postal Service", "operator:short": "USPS", "operator:type": "public", "operator:wikidata": "Q668687", "ref": "7780200058"}, "type": "Feature"}
{"geometry": {"coordinates": [-96.2975699, 30.651235], "type": "Point"}, "id": "AFzmrrM3Tk7KTle5hJvR05i4p2I=", "properties": {"@source_uri": "https://tools.usps.com/UspsToolsRestServices/rest/POLocator/findLocations", "@spider": "usps_collection_boxes", "addr:city": "BRYAN", "addr:country": "US", "addr:postcode": "77802", "addr:state": "TX", "addr:street_address": "3201 UNIVERSITY DR E", "amenity": "post_box", "brand": "United States Postal Service", "brand:wikidata": "Q668687", "collection_times": "Mo-Fr 15:30", "note": "ON 12/24 AND 12/31, THIS BOX MAY BE COLLECTED AS EARLY AS 12 NOON.", "nsi_id": "unitedstatespostalservice-a77078", "operator": "United States Postal Service", "operator:short": "USPS", "operator:type": "public", "operator:wikidata": "Q668687", "ref": "7780200062"}, "type": "Feature"}
{"geometry": {"coordinates": [-96.3414260355, 30.6703439917], "type": "Point"}, "id": "y7lPz-2XZym92moN42ZyOfaun2c=", "properties": {"@source_uri": "https://tools.usps.com/UspsToolsRestServices/rest/POLocator/findLocations", "@spider": "usps_collection_boxes", "addr:city": "BRYAN", "addr:country": "US", "addr:postcode": "77802", "addr:state": "TX", "addr:street_address": "2120 W BRIARGATE DR", "amenity": "post_box", "brand": "United States Postal Service", "brand:wikidata": "Q668687", "collection_times": "Mo-Fr 16:00", "note": "ON 12/24 AND 12/31, THIS BOX MAY BE COLLECTED AS EARLY AS 12 NOON.", "nsi_id": "unitedstatespostalservice-a77078", "operator": "United States Postal Service", "operator:short": "USPS", "operator:type": "public", "operator:wikidata": "Q668687", "ref": "7780200066"}, "type": "Feature"}
{"geometry": {"coordinates": [-96.3701399, 30.685562], "type": "Point"}, "id": "dCOMwYCjmmh2xfPDLtBf25qSY58=", "properties": {"@source_uri": "https://tools.usps.com/UspsToolsRestServices/rest/POLocator/findLocations", "@spider": "usps_collection_boxes", "addr:city": "BRYAN", "addr:country": "US", "addr:postcode": "77803", "addr:state": "TX", "addr:street_address": "1300 N TEXAS AVE", "amenity": "post_box", "brand": "United States Postal Service", "brand:wikidata": "Q668687", "collection_times": "Mo-Fr 16:30", "note": "ON 12/24 AND 12/31, THIS BOX MAY BE COLLECTED AS EARLY AS 12 NOON.", "nsi_id": "unitedstatespostalservice-a77078", "operator": "United States Postal Service", "operator:short": "USPS", "operator:type": "public", "operator:wikidata": "Q668687", "ref": "7780300003"}, "type": "Feature"}
{"geometry": {"coordinates": [-96.37076, 30.674425], "type": "Point"}, "id": "mBv5ld_Eiog3kISkzvRQPLRnzTg=", "properties": {"@source_uri": "https://tools.usps.com/UspsToolsRestServices/rest/POLocator/findLocations", "@spider": "usps_collection_boxes", "addr:city": "BRYAN", "addr:country": "US", "addr:postcode": "77803", "addr:state": "TX", "addr:street_address": "210 W WM J BRYAN PKWY", "amenity": "post_box", "brand": "United States Postal Service", "brand:wikidata": "Q668687", "collection_times": "Mo-Fr 16:45; Sa 14:15", "note": "ON 12/24 AND 12/31, THIS BOX MAY BE COLLECTED AS EARLY AS 12 NOON.", "nsi_id": "unitedstatespostalservice-a77078", "operator": "United States Postal Service", "operator:short": "USPS", "operator:type": "public", "operator:wikidata": "Q668687", "ref": "7780300004"}, "type": "Feature"}
{"geometry": {"coordinates": [-96.3745949, 30.675452], "type": "Point"}, "id": "tnHTV0PoHx99RnFdzQP7yirn5Fs=", "properties": {"@source_uri": "https://tools.usps.com/UspsToolsRestServices/rest/POLocator/findLocations", "@spider": "usps_collection_boxes", "addr:city": "BRYAN", "addr:country": "US", "addr:postcode": "77803", "addr:state": "TX", "addr:street_address": "210 W WM J BRYAN PKWY", "amenity": "post_box", "brand": "United States Postal Service", "brand:wikidata": "Q668687", "collection_times": "Mo-Fr 16:45", "indoor": "yes", "note": "ON 12/24 AND 12/31, THIS BOX MAY BE COLLECTED AS EARLY AS 12 NOON.", "nsi_id": "unitedstatespostalservice-a77078", "operator": "United States Postal Service", "operator:short": "USPS", "operator:type": "public", "operator:wikidata": "Q668687", "ref": "7780300027"}, "type": "Feature"}
{"geometry": {"coordinates": [-96.3858584, 30.717005], "type": "Point"}, "id": "g0PskPgtnqx-PbQDC6fJOQr_v4E=", "properties": {"@source_uri": "https://tools.usps.com/UspsToolsRestServices/rest/POLocator/findLocations", "@spider": "usps_collection_boxes", "addr:city": "BRYAN", "addr:country": "US", "addr:postcode": "77803", "addr:state": "TX", "addr:street_address": "3329 WOODVILLE RD", "amenity": "post_box", "brand": "United States Postal Service", "brand:wikidata": "Q668687", "collection_times": "Mo-Fr 16:30; Sa 14:30", "note": "ON 12/24 AND 12/31, THIS BOX MAY BE COLLECTED AS EARLY AS 12 NOON.", "nsi_id": "unitedstatespostalservice-a77078", "operator": "United States Postal Service", "operator:short": "USPS", "operator:type": "public", "operator:wikidata": "Q668687", "ref": "7780300028"}, "type": "Feature"}
{"geometry": {"coordinates": [-96.374680581, 30.674842352], "type": "Point"}, "id": "1kHLPoL5CcwaROhxp3Oohvj1USI=", "properties": {"@source_uri": "https://tools.usps.com/UspsToolsRestServices/rest/POLocator/findLocations", "@spider": "usps_collection_boxes", "addr:city": "BRYAN", "addr:country": "US", "addr:postcode": "77803", "addr:state": "TX", "addr:street_address": "210 W WM J BRYAN PKWY", "amenity": "post_box", "brand": "United States Postal Service", "brand:wikidata": "Q668687", "collection_times": "Mo-Fr 16:30", "indoor": "yes", "note": "ON 12/24 AND 12/31, THIS BOX MAY BE COLLECTED AS EARLY AS 12 NOON.", "nsi_id": "unitedstatespostalservice-a77078", "operator": "United States Postal Service", "operator:short": "USPS", "operator:type": "public", "operator:wikidata": "Q668687", "ref": "7780300029"}, "type": "Feature"}
{"geometry": {"coordinates": [-95.9880585, 30.4897994], "type": "Point"}, "id": "je8vezU81lhtY7O6Wz3hQvootVA=", "properties": {"@source_uri": "https://tools.usps.com/UspsToolsRestServices/rest/POLocator/findLocations", "@spider": "usps_collection_boxes", "addr:city": "ANDERSON", "addr:country": "US", "addr:postcode": "77830", "addr:state": "TX", "addr:street_address": "1035 HIGHWAY 90 N", "amenity": "post_box", "brand": "United States Postal Service", "brand:wikidata": "Q668687", "collection_times": "Mo-Fr 16:00; Sa 10:00", "note": "ON 12/24 AND 12/31, THIS BOX MAY BE COLLECTED AS EARLY AS 12 NOON.", "nsi_id": "unitedstatespostalservice-a77078", "operator": "United States Postal Service", "operator:short": "USPS", "operator:type": "public", "operator:wikidata": "Q668687", "ref": "7783000001"}, "type": "Feature"}
{"geometry": {"coordinates": [-95.9880585, 30.4897994], "type": "Point"}, "id": "vTnIKXUyi4xc6LX14Fy2uKIre5Y=", "properties": {"@source_uri": "https://tools.usps.com/UspsToolsRestServices/rest/POLocator/findLocations", "@spider": "usps_collection_boxes", "addr:city": "ANDERSON", "addr:country": "US", "addr:postcode": "77830", "addr:state": "TX", "addr:street_address": "1035 HIGHWAY 90 N", "amenity": "post_box", "brand": "United States Postal Service", "brand:wikidata": "Q668687", "collection_times": "Mo-Fr 16:00; Sa 10:00", "indoor": "yes", "note": "ON 12/24 AND 12/31, THIS BOX MAY BE COLLECTED AS EARLY AS 12 NOON.", "nsi_id": "unitedstatespostalservice-a77078", "operator": "United States Postal Service", "operator:short": "USPS", "operator:type": "public", "operator:wikidata": "Q668687", "ref": "7783000007"}, "type": "Feature"}
{"geometry": {"coordinates": [-95.948318, 30.775597], "type": "Point"}, "id": "tT4PxrsbqRiIqC_WEKBUwcCy3Z8=", "properties": {"@source_uri": "https://tools.usps.com/UspsToolsRestServices/rest/POLocator/findLocations", "@spider": "usps_collection_boxes", "addr:city": "BEDIAS", "addr:country": "US", "addr:postcode": "77831", "addr:state": "TX", "addr:street_address": "3681 MAIN ST", "amenity": "post_box", "brand": "United States Postal Service", "brand:wikidata": "Q668687", "collection_times": "Mo-Fr 15:30; Sa 10:00", "indoor": "yes", "note": "ON 12/24 AND 12/31, THIS BOX MAY BE COLLECTED AS EARLY AS 12 NOON.", "nsi_id": "unitedstatespostalservice-a77078", "operator": "United States Postal Service", "operator:short": "USPS", "operator:type": "public", "operator:wikidata": "Q668687", "ref": "7783100001"}, "type": "Feature"}
{"geometry": {"coordinates": [-95.9482291011, 30.7756235171], "type": "Point"}, "id": "NttXIIGN-Y45MNVbIXBpmEtftuI=", "properties": {"@source_uri": "https://tools.usps.com/UspsToolsRestServices/rest/POLocator/findLocations", "@spider": "usps_collection_boxes", "addr:city": "BEDIAS", "addr:country": "US", "addr:postcode": "77831", "addr:state": "TX", "addr:street_address": "3681 MAIN ST", "amenity": "post_box", "brand": "United States Postal Service", "brand:wikidata": "Q668687", "collection_times": "Mo-Fr 15:30; Sa 10:00", "note": "ON 12/24 AND 12/31, THIS BOX MAY BE COLLECTED AS EARLY AS 12 NOON.", "nsi_id": "unitedstatespostalservice-a77078", "operator": "United States Postal Service", "operator:short": "USPS", "operator:type": "public", "operator:wikidata": "Q668687", "ref": "7783100002"}, "type": "Feature"}
{"geometry": {"coordinates": [-95.9483120647, 30.7756278771], "type": "Point"}, "id": "fLRHc_JCJOP7WKQLUOjRX4chWrc=", "properties": {"@source_uri": "https://tools.usps.com/UspsToolsRestServices/rest/POLocator/findLocations", "@spider": "usps_collection_boxes", "addr:city": "BEDIAS", "addr:country": "US", "addr:postcode": "77831", "addr:state": "TX", "addr:street_address": "3681 MAIN ST", "amenity": "post_box", "brand": "United States Postal Service", "brand:wikidata": "Q668687", "collection_times": "Mo-Fr 15:30; Sa 10:00", "indoor": "yes", "note": "ON 12/24 AND 12/31, THIS BOX MAY BE COLLECTED AS EARLY AS 12 NOON.", "nsi_id": "unitedstatespostalservice-a77078", "operator": "United States Postal Service", "operator:short": "USPS", "operator:type": "public", "operator:wikidata": "Q668687", "ref": "7783100003"}, "type": "Feature"}
{"geometry": {"coordinates": [-96.3994099, 30.169324], "type": "Point"}, "id": "Z42q5mX43-kcLoqURhQJ4rX9AWI=", "properties": {"@source_uri": "https://tools.usps.com/UspsToolsRestServices/rest/POLocator/findLocations", "@spider": "usps_collection_boxes", "addr:city": "BRENHAM", "addr:country": "US", "addr:postcode": "77833", "addr:state": "TX", "addr:street_address": "305 N AUSTIN PKWY", "amenity": "post_box", "brand": "United States Postal Service", "brand:wikidata": "Q668687", "collection_times": "Mo-Fr 16:30", "note": "ON 12/24 AND 12/31, THIS BOX MAY BE COLLECTED AS EARLY AS 12 NOON.", "nsi_id": "unitedstatespostalservice-a77078", "operator": "United States Postal Service", "operator:short": "USPS", "operator:type": "public", "operator:wikidata": "Q668687", "ref": "7783300002"}, "type": "Feature"}
{"geometry": {"coordinates": [-96.3891468, 30.146091], "type": "Point"}, "id": "c0WoDtDL9FfZM5KTrR4xHOWsQWA=", "properties": {"@source_uri": "https://tools.usps.com/UspsToolsRestServices/rest/POLocator/findLocations", "@spider": "usps_collection_boxes", "addr:city": "BRENHAM", "addr:country": "US", "addr:postcode": "77833", "addr:state": "TX", "addr:street_address": "2450 BECKER DR", "amenity": "post_box", "brand": "United States Postal Service", "brand:wikidata": "Q668687", "collection_times": "Mo-Fr 16:00", "note": "ON 12/24 AND 12/31, THIS BOX MAY BE COLLECTED AS EARLY AS 12 NOON.", "nsi_id": "unitedstatespostalservice-a77078", "operator": "United States Postal Service", "operator:short": "USPS", "operator:type": "public", "operator:wikidata": "Q668687", "ref": "7783300003"}, "type": "Feature"}
{"geometry": {"coordinates": [-96.3967152, 30.1438], "type": "Point"}, "id": "HeuRaLUysWgYKMWsFluNkH7fd0k=", "properties": {"@source_uri": "https://tools.usps.com/UspsToolsRestServices/rest/POLocator/findLocations", "@spider": "usps_collection_boxes", "addr:city": "BRENHAM", "addr:country": "US", "addr:postcode": "77833", "addr:state": "TX", "addr:street_address": "2500 S DAY ST", "amenity": "post_box", "brand": "United States Postal Service", "brand:wikidata": "Q668687", "collection_times": "Mo-Fr 16:00", "note": "ON 12/24 AND 12/31, THIS BOX MAY BE COLLECTED AS EARLY AS 12 NOON.", "nsi_id": "unitedstatespostalservice-a77078", "operator": "United States Postal Service", "operator:short": "USPS", "operator:type": "public", "operator:wikidata": "Q668687", "ref": "7783300006"}, "type": "Feature"}
{"geometry": {"coordinates": [-96.3875379, 30.149686], "type": "Point"}, "id": "BQugfhzzlcKyTMFQEvOslH99fbE=", "properties": {"@source_uri": "https://tools.usps.com/UspsToolsRestServices/rest/POLocator/findLocations", "@spider": "usps_collection_boxes", "addr:city": "BRENHAM", "addr:country": "US", "addr:postcode": "77833", "addr:state": "TX", "addr:street_address": "2228 S MARKET ST", "amenity": "post_box", "brand": "United States Postal Service", "brand:wikidata": "Q668687", "collection_times": "Mo-Fr 16:15", "note": "ON 12/24 AND 12/31, THIS BOX MAY BE COLLECTED AS EARLY AS 12 NOON.", "nsi_id": "unitedstatespostalservice-a77078", "operator": "United States Postal Service", "operator:short": "USPS", "operator:type": "public", "operator:wikidata": "Q668687", "ref": "7783300010"}, "type": "Feature"}
{"geometry": {"coordinates": [-96.3970246, 30.140743], "type": "Point"}, "id": "pvY6cxxjcknIyq1BYWcLzZS0u4o=", "properties": {"@source_uri": "https://tools.usps.com/UspsToolsRestServices/rest/POLocator/findLocations", "@spider": "usps_collection_boxes", "addr:city": "BRENHAM", "addr:country": "US", "addr:postcode": "77833", "addr:state": "TX", "addr:street_address": "2622 HIGHWAY 36 S", "amenity": "post_box", "brand": "United States Postal Service", "brand:wikidata": "Q668687", "collection_times": "Mo-Fr 16:00", "note": "ON 12/24 AND 12/31, THIS BOX MAY BE COLLECTED AS EARLY AS 12 NOON.", "nsi_id": "unitedstatespostalservice-a77078", "operator": "United States Postal Service", "operator:short": "USPS", "operator:type": "public", "operator:wikidata": "Q668687", "ref": "7783300022"}, "type": "Feature"}
{"geometry": {"coordinates": [-96.3971253, 30.169612], "type": "Point"}, "id": "1M1Spa2fCuk9Xa6XGU_Iibi9aqo=", "properties": {"@source_uri": "https://tools.usps.com/UspsToolsRestServices/rest/POLocator/findLocations", "@spider": "usps_collection_boxes", "addr:city": "BRENHAM", "addr:country": "US", "addr:postcode": "77833", "addr:state": "TX", "addr:street_address": "309 N MARKET ST", "amenity": "post_box", "brand": "United States Postal Service", "brand:wikidata": "Q668687", "collection_times": "Mo-Fr 17:00; Sa 15:00", "indoor": "yes", "note": "ON 12/24 AND 12/31, THIS BOX MAY BE COLLECTED AS EARLY AS 12 NOON.", "nsi_id": "unitedstatespostalservice-a77078", "operator": "United States Postal Service", "operator:short": "USPS", "operator:type": "public", "operator:wikidata": "Q668687", "ref": "7783300028"}, "type": "Feature"}
{"geometry": {"coordinates": [-96.3971473, 30.169613], "type": "Point"}, "id": "6gINfsJJ0A-0_oNXlF7Bni8zgUc=", "properties": {"@source_uri": "https://tools.usps.com/UspsToolsRestServices/rest/POLocator/findLocations", "@spider": "usps_collection_boxes", "addr:city": "BRENHAM", "addr:country": "US", "addr:postcode": "77833", "addr:state": "TX", "addr:street_address": "309 N MARKET ST", "amenity": "post_box", "brand": "United States Postal Service", "brand:wikidata": "Q668687", "collection_times": "Mo-Fr 17:00; Sa 15:00", "indoor": "yes", "note": "ON 12/24 AND 12/31, THIS BOX MAY BE COLLECTED AS EARLY AS 12 NOON.", "nsi_id": "unitedstatespostalservice-a77078", "operator": "United States Postal Service", "operator:short": "USPS", "operator:type": "public", "operator:wikidata": "Q668687", "ref": "7783300029"}, "type": "Feature"}
{"geometry": {"coordinates": [-96.39691372, 30.169630447], "type": "Point"}, "id": "9ZGGsXB_QoFKpmzGtrH-QUOPea0=", "properties": {"@source_uri": "https://tools.usps.com/UspsToolsRestServices/rest/POLocator/findLocations", "@spider": "usps_collection_boxes", "addr:city": "BRENHAM", "addr:country": "US", "addr:postcode": "77833", "addr:state": "TX", "addr:street_address": "309 N MARKET ST", "amenity": "post_box", "brand": "United States Postal Service", "brand:wikidata": "Q668687", "collection_times": "Mo-Fr 16:30; Sa 11:00", "indoor": "yes", "note": "ON 12/24 AND 12/31, THIS BOX MAY BE COLLECTED AS EARLY AS 12 NOON.", "nsi_id": "unitedstatespostalservice-a77078", "operator": "United States Postal Service", "operator:short": "USPS", "operator:type": "public", "operator:wikidata": "Q668687", "ref": "7783300031"}, "type": "Feature"}
{"geometry": {"coordinates": [-96.596663, 30.181512], "type": "Point"}, "id": "6-d6zTBhYN0NsWf_yEJjud-vJ3o=", "properties": {"@source_uri": "https://tools.usps.com/UspsToolsRestServices/rest/POLocator/findLocations", "@spider": "usps_collection_boxes", "addr:city": "BURTON", "addr:country": "US", "addr:postcode": "77835", "addr:state": "TX", "addr:street_address": "500 N RAILROAD ST", "amenity": "post_box", "brand": "United States Postal Service", "brand:wikidata": "Q668687", "collection_times": "Mo-Fr 16:00; Sa 11:30", "indoor": "yes", "note": "ON 12/24 AND 12/31, THIS BOX MAY BE COLLECTED AS EARLY AS 12 NOON.", "nsi_id": "unitedstatespostalservice-a77078", "operator": "United States Postal Service", "operator:short": "USPS", "operator:type": "public", "operator:wikidata": "Q668687", "ref": "7783500002"}, "type": "Feature"}
{"geometry": {"coordinates": [-96.596663, 30.181512], "type": "Point"}, "id": "ry-aikw7uOeQi57Y-52h_o8F_1g=", "properties": {"@source_uri": "https://tools.usps.com/UspsToolsRestServices/rest/POLocator/findLocations", "@spider": "usps_collection_boxes", "addr:city": "BURTON", "addr:country": "US", "addr:postcode": "77835", "addr:state": "TX", "addr:street_address": "500 N RAILROAD ST", "amenity": "post_box", "brand": "United States Postal Service", "brand:wikidata": "Q668687", "collection_times": "Mo-Fr 16:00; Sa 11:30", "indoor": "yes", "note": "ON 12/24 AND 12/31, THIS BOX MAY BE COLLECTED AS EARLY AS 12 NOON.", "nsi_id": "unitedstatespostalservice-a77078", "operator": "United States Postal Service", "operator:short": "USPS", "operator:type": "public", "operator:wikidata": "Q668687", "ref": "7783500003"}, "type": "Feature"}
{"geometry": {"coordinates": [-96.596663, 30.181512], "type": "Point"}, "id": "vPn2mkbkCT5TBGaBG7XRhyvwEuU=", "properties": {"@source_uri": "https://tools.usps.com/UspsToolsRestServices/rest/POLocator/findLocations", "@spider": "usps_collection_boxes", "addr:city": "BURTON", "addr:country": "US", "addr:postcode": "77835", "addr:state": "TX", "addr:street_address": "500 N RAILROAD ST", "amenity": "post_box", "brand": "United States Postal Service", "brand:wikidata": "Q668687", "collection_times": "Mo-Fr 16:00; Sa 11:30", "note": "ON 12/24 AND 12/31, THIS BOX MAY BE COLLECTED AS EARLY AS 12 NOON.", "nsi_id": "unitedstatespostalservice-a77078", "operator": "United States Postal Service", "operator:short": "USPS", "operator:type": "public", "operator:wikidata": "Q668687", "ref": "7783500004"}, "type": "Feature"}
{"geometry": {"coordinates": [-96.596414975, 30.181294413], "type": "Point"}, "id": "4u1_XP0X29_qdA9bVfcOjBiE6p8=", "properties": {"@source_uri": "https://tools.usps.com/UspsToolsRestServices/rest/POLocator/findLocations", "@spider": "usps_collection_boxes", "addr:city": "BURTON", "addr:country": "US", "addr:postcode": "77835", "addr:state": "TX", "addr:street_address": "500 N RAILROAD ST", "amenity": "post_box", "brand": "United States Postal Service", "brand:wikidata": "Q668687", "collection_times": "Mo-Fr 16:00; Sa 11:00", "indoor": "yes", "note": "ON 12/24 AND 12/31, THIS BOX MAY BE COLLECTED AS EARLY AS 12 NOON.", "nsi_id": "unitedstatespostalservice-a77078", "operator": "United States Postal Service", "operator:short": "USPS", "operator:type": "public", "operator:wikidata": "Q668687", "ref": "7783500006"}, "type": "Feature"}
{"geometry": {"coordinates": [-96.6944719, 30.533389], "type": "Point"}, "id": "Tn4xoaLKKLNBz9OE2l8atYVVxpA=", "properties": {"@source_uri": "https://tools.usps.com/UspsToolsRestServices/rest/POLocator/findLocations", "@spider": "usps_collection_boxes", "addr:city": "CALDWELL", "addr:country": "US", "addr:postcode": "77836", "addr:state": "TX", "addr:street_address": "201 N MAIN ST", "amenity": "post_box", "brand": "United States Postal Service", "brand:wikidata": "Q668687", "collection_times": "Mo-Fr 16:45; Sa 09:00", "note": "ON 12/24 AND 12/31, THIS BOX MAY BE COLLECTED AS EARLY AS 12 NOON.", "nsi_id": "unitedstatespostalservice-a77078", "operator": "United States Postal Service", "operator:short": "USPS", "operator:type": "public", "operator:wikidata": "Q668687", "ref": "7783600004"}, "type": "Feature"}
{"geometry": {"coordinates": [-96.694503, 30.533622], "type": "Point"}, "id": "iDklmFcRCYxXMkfaJc3KMjgW5Cw=", "properties": {"@source_uri": "https://tools.usps.com/UspsToolsRestServices/rest/POLocator/findLocations", "@spider": "usps_collection_boxes", "addr:city": "CALDWELL", "addr:country": "US", "addr:postcode": "77836", "addr:state": "TX", "addr:street_address": "201 N MAIN ST", "amenity": "post_box", "brand": "United States Postal Service", "brand:wikidata": "Q668687", "collection_times": "Mo-Fr 16:45; Sa 09:00", "indoor": "yes", "note": "ON 12/24 AND 12/31, THIS BOX MAY BE COLLECTED AS EARLY AS 12 NOON.", "nsi_id": "unitedstatespostalservice-a77078", "operator": "United States Postal Service", "operator:short": "USPS", "operator:type": "public", "operator:wikidata": "Q668687", "ref": "7783600007"}, "type": "Feature"}
{"geometry": {"coordinates": [-96.6945549, 30.533482], "type": "Point"}, "id": "y4J5EafQsT5Iv1CNEjTKQGGkqTU=", "properties": {"@source_uri": "https://tools.usps.com/UspsToolsRestServices/rest/POLocator/findLocations", "@spider": "usps_collection_boxes", "addr:city": "CALDWELL", "addr:country": "US", "addr:postcode": "77836", "addr:state": "TX", "addr:street_address": "201 N MAIN ST", "amenity": "post_box", "brand": "United States Postal Service", "brand:wikidata": "Q668687", "collection_times": "Mo-Fr 16:45; Sa 09:00", "indoor": "yes", "note": "ON 12/24 AND 12/31, THIS BOX MAY BE COLLECTED AS EARLY AS 12 NOON.", "nsi_id": "unitedstatespostalservice-a77078", "operator": "United States Postal Service", "operator:short": "USPS", "operator:type": "public", "operator:wikidata": "Q668687", "ref": "7783600008"}, "type": "Feature"}
{"geometry": {"coordinates": [-96.69444008, 30.533724641], "type": "Point"}, "id": "MyJVVazY8xtRFypdGobdoSfEvPA=", "properties": {"@source_uri": "https://tools.usps.com/UspsToolsRestServices/rest/POLocator/findLocations", "@spider": "usps_collection_boxes", "addr:city": "CALDWELL", "addr:country": "US", "addr:postcode": "77836", "addr:state": "TX", "addr:street_address": "201 N MAIN ST", "amenity": "post_box", "brand": "United States Postal Service", "brand:wikidata": "Q668687", "collection_times": "Mo-Fr 16:30", "indoor": "yes", "note": "ON 12/24 AND 12/31, THIS BOX MAY BE COLLECTED AS EARLY AS 12 NOON.", "nsi_id": "unitedstatespostalservice-a77078", "operator": "United States Postal Service", "operator:short": "USPS", "operator:type": "public", "operator:wikidata": "Q668687", "ref": "7783600009"}, "type": "Feature"}
{"geometry": {"coordinates": [-96.675274, 30.978163], "type": "Point"}, "id": "3l7RmE0ftIbEHuh6LuRfLSiBbQ8=", "properties": {"@source_uri": "https://tools.usps.com/UspsToolsRestServices/rest/POLocator/findLocations", "@spider": "usps_collection_boxes", "addr:city": "CALVERT", "addr:country": "US", "addr:postcode": "77837", "addr:state": "TX", "addr:street_address": "602 S CEDAR RD", "amenity": "post_box", "brand": "United States Postal Service", "brand:wikidata": "Q668687", "collection_times": "Mo-Fr 16:15; Sa 10:00", "note": "ON 12/24 AND 12/31, THIS BOX MAY BE COLLECTED AS EARLY AS 12 NOON.", "nsi_id": "unitedstatespostalservice-a77078", "operator": "United States Postal Service", "operator:short": "USPS", "operator:type": "public", "operator:wikidata": "Q668687", "ref": "7783700002"}, "type": "Feature"}
{"geometry": {"coordinates": [-96.675358, 30.978217], "type": "Point"}, "id": "_90qv4GtNShMemgWZOeILVCzEws=", "properties": {"@source_uri": "https://tools.usps.com/UspsToolsRestServices/rest/POLocator/findLocations", "@spider": "usps_collection_boxes", "addr:city": "CALVERT", "addr:country": "US", "addr:postcode": "77837", "addr:state": "TX", "addr:street_address": "602 S CEDAR RD", "amenity": "post_box", "brand": "United States Postal Service", "brand:wikidata": "Q668687", "collection_times": "Mo-Fr 16:15; Sa 10:00", "indoor": "yes", "note": "ON 12/24 AND 12/31, THIS BOX MAY BE COLLECTED AS EARLY AS 12 NOON.", "nsi_id": "unitedstatespostalservice-a77078", "operator": "United States Postal Service", "operator:short": "USPS", "operator:type": "public", "operator:wikidata": "Q668687", "ref": "7783700003"}, "type": "Feature"}
{"geometry": {"coordinates": [-96.675271006, 30.978204941], "type": "Point"}, "id": "a9Vj9d_vjdpCXfamy_PG1Fv9CcE=", "properties": {"@source_uri": "https://tools.usps.com/UspsToolsRestServices/rest/POLocator/findLocations", "@spider": "usps_collection_boxes", "addr:city": "CALVERT", "addr:country": "US", "addr:postcode": "77837", "addr:state": "TX", "addr:street_address": "602 S CEDAR RD", "amenity": "post_box", "brand": "United States Postal Service", "brand:wikidata": "Q668687", "collection_times": "Mo-Fr 16:15; Sa 10:00", "indoor": "yes", "note": "ON 12/24 AND 12/31, THIS BOX MAY BE COLLECTED AS EARLY AS 12 NOON.", "nsi_id": "unitedstatespostalservice-a77078", "operator": "United States Postal Service", "operator:short": "USPS", "operator:type": "public", "operator:wikidata": "Q668687", "ref": "7783700004"}, "type": "Feature"}
{"geometry": {"coordinates": [-96.7718700968, 30.5990070392], "type": "Point"}, "id": "o2UaA0MctcLxWWiLwamcnqWvAA8=", "properties": {"@source_uri": "https://tools.usps.com/UspsToolsRestServices/rest/POLocator/findLocations", "@spider": "usps_collection_boxes", "addr:city": "CHRIESMAN", "addr:country": "US", "addr:postcode": "77838", "addr:state": "TX", "addr:street_address": "136 PRAIRIE ST", "amenity": "post_box", "brand": "United States Postal Service", "brand:wikidata": "Q668687", "collection_times": "Mo-Fr 12:45; Sa 13:00", "indoor": "yes", "note": "ON 12/24 AND 12/31, THIS BOX MAY BE COLLECTED AS EARLY AS 12 NOON.", "nsi_id": "unitedstatespostalservice-a77078", "operator": "United States Postal Service", "operator:short": "USPS", "operator:type": "public", "operator:wikidata": "Q668687", "ref": "7783800001"}, "type": "Feature"}
{"geometry": {"coordinates": [-96.772314414, 30.598844719], "type": "Point"}, "id": "R9JttNOVDXFBPju0AVOO8yrUmsI=", "properties": {"@source_uri": "https://tools.usps.com/UspsToolsRestServices/rest/POLocator/findLocations", "@spider": "usps_collection_boxes", "addr:city": "CHRIESMAN", "addr:country": "US", "addr:postcode": "77838", "addr:state": "TX", "addr:street_address": "136 PRAIRIE ST", "amenity": "post_box", "brand": "United States Postal Service", "brand:wikidata": "Q668687", "collection_times": "Mo-Fr 13:00; Sa 14:00", "indoor": "yes", "note": "ON 12/24 AND 12/31, THIS BOX MAY BE COLLECTED AS EARLY AS 12 NOON.", "nsi_id": "unitedstatespostalservice-a77078", "operator": "United States Postal Service", "operator:short": "USPS", "operator:type": "public", "operator:wikidata": "Q668687", "ref": "7783800002"}, "type": "Feature"}
{"geometry": {"coordinates": [-96.3577085, 30.622081], "type": "Point"}, "id": "flQM-lrG5zu-AlKQ7004R2DX8gE=", "properties": {"@source_uri": "https://tools.usps.com/UspsToolsRestServices/rest/POLocator/findLocations", "@spider": "usps_collection_boxes", "addr:city": "COLLEGE STATION", "addr:country": "US", "addr:postcode": "77840", "addr:state": "TX", "addr:street_address": "750 AGRONOMY RD", "amenity": "post_box", "brand": "United States Postal Service", "brand:wikidata": "Q668687", "collection_times": "Mo-Fr 16:00", "note": "ON 12/24 AND 12/31, THIS BOX MAY BE COLLECTED AS EARLY AS 12 NOON.", "nsi_id": "unitedstatespostalservice-a77078", "operator": "United States Postal Service", "operator:short": "USPS", "operator:type": "public", "operator:wikidata": "Q668687", "ref": "7784000001"}, "type": "Feature"}
{"geometry": {"coordinates": [-96.2797549, 30.582523], "type": "Point"}, "id": "w7sftOcOaI-oUk8JdzroLeAzrbw=", "properties": {"@source_uri": "https://tools.usps.com/UspsToolsRestServices/rest/POLocator/findLocations", "@spider": "usps_collection_boxes", "addr:city": "COLLEGE STATION", "addr:country": "US", "addr:postcode": "77840", "addr:state": "TX", "addr:street_address": "700 SCOTT AND WHITE DR", "amenity": "post_box", "brand": "United States Postal Service", "brand:wikidata": "Q668687", "collection_times": "Mo-Fr 15:30", "note": "ON 12/24 AND 12/31, THIS BOX MAY BE COLLECTED AS EARLY AS 12 NOON.", "nsi_id": "unitedstatespostalservice-a77078", "operator": "United States Postal Service", "operator:short": "USPS", "operator:type": "public", "operator:wikidata": "Q668687", "ref": "7784000003"}, "type": "Feature"}
{"geometry": {"coordinates": [-96.3088164, 30.6087], "type": "Point"}, "id": "CAJ79vbc7_cY5EOxgyTNkVPcvqU=", "properties": {"@source_uri": "https://tools.usps.com/UspsToolsRestServices/rest/POLocator/findLocations", "@spider": "usps_collection_boxes", "addr:city": "COLLEGE STATION", "addr:country": "US", "addr:postcode": "77840", "addr:state": "TX", "addr:street_address": "2405 TEXAS AVE S", "amenity": "post_box", "brand": "United States Postal Service", "brand:wikidata": "Q668687", "collection_times": "Mo-Fr 15:00", "note": "ON 12/24 AND 12/31, THIS BOX MAY BE COLLECTED AS EARLY AS 12 NOON.", "nsi_id": "unitedstatespostalservice-a77078", "operator": "United States Postal Service", "operator:short": "USPS", "operator:type": "public", "operator:wikidata": "Q668687", "ref": "7784000010"}, "type": "Feature"}
{"geometry": {"coordinates": [-96.3114729693, 30.6072280093], "type": "Point"}, "id": "B6YgVs1lY0CFNaoz0hOfi0ZEznM=", "properties": {"@source_uri": "https://tools.usps.com/UspsToolsRestServices/rest/POLocator/findLocations", "@spider": "usps_collection_boxes", "addr:city": "COLLEGE STATION", "addr:country": "US", "addr:postcode": "77840", "addr:state": "TX", "addr:street_address": "2412 TEXAS AVE S", "amenity": "post_box", "brand": "United States Postal Service", "brand:wikidata": "Q668687", "collection_times": "Mo-Fr 15:00", "note": "ON 12/24 AND 12/31, THIS BOX MAY BE COLLECTED AS EARLY AS 12 NOON.", "nsi_id": "unitedstatespostalservice-a77078", "operator": "United States Postal Service", "operator:short": "USPS", "operator:type": "public", "operator:wikidata": "Q668687", "ref": "7784000042"}, "type": "Feature"}
{"geometry": {"coordinates": [-96.3351142, 30.628891], "type": "Point"}, "id": "_JnDa7cusmamzQjxlsfHUllVoR4=", "properties": {"@source_uri": "https://tools.usps.com/UspsToolsRestServices/rest/POLocator/findLocations", "@spider": "usps_collection_boxes", "addr:city": "COLLEGE STATION", "addr:country": "US", "addr:postcode": "77840", "addr:state": "TX", "addr:street_address": "111 UNIVERSITY DR E", "amenity": "post_box", "brand": "United States Postal Service", "brand:wikidata": "Q668687", "collection_times": "Mo-Fr 15:45", "note": "ON 12/24 AND 12/31, THIS BOX MAY BE COLLECTED AS EARLY AS 12 NOON.", "nsi_id": "unitedstatespostalservice-a77078", "operator": "United States Postal Service", "operator:short": "USPS", "operator:type": "public", "operator:wikidata": "Q668687", "ref": "7784000046"}, "type": "Feature"}
{"geometry": {"coordinates": [-96.3288466, 30.62424], "type": "Point"}, "id": "RgG8DZ9IpjR4RNc4zrMeWNSkFUc=", "properties": {"@source_uri": "https://tools.usps.com/UspsToolsRestServices/rest/POLocator/findLocations", "@spider": "usps_collection_boxes", "addr:city": "COLLEGE STATION", "addr:country": "US", "addr:postcode": "77840", "addr:state": "TX", "addr:street_address": "100 WALTON DR", "amenity": "post_box", "brand": "United States Postal Service", "brand:wikidata": "Q668687", "collection_times": "Mo-Fr 15:15", "note": "ON 12/24 AND 12/31, THIS BOX MAY BE COLLECTED AS EARLY AS 12 NOON.", "nsi_id": "unitedstatespostalservice-a77078", "operator": "United States Postal Service", "operator:short": "USPS", "operator:type": "public", "operator:wikidata": "Q668687", "ref": "7784000050"}, "type": "Feature"}
{"geometry": {"coordinates": [-96.3044090366, 30.5963439823], "type": "Point"}, "id": "Ye1BetWqTvfQumBIq8J5BGgBn8Q=", "properties": {"@source_uri": "https://tools.usps.com/UspsToolsRestServices/rest/POLocator/findLocations", "@spider": "usps_collection_boxes", "addr:city": "COLLEGE STATION", "addr:country": "US", "addr:postcode": "77840", "addr:state": "TX", "addr:street_address": "2130 HARVEY MITCHELL PKWY S", "amenity": "post_box", "brand": "United States Postal Service", "brand:wikidata": "Q668687", "collection_times": "Mo-Fr 16:30; Sa 16:00", "note": "ON 12/24 AND 12/31, THIS BOX MAY BE COLLECTED AS EARLY AS 12 NOON.", "nsi_id": "unitedstatespostalservice-a77078", "operator": "United States Postal Service", "operator:short": "USPS", "operator:type": "public", "operator:wikidata": "Q668687", "ref": "7784000053"}, "type": "Feature"}
{"geometry": {"coordinates": [-96.3163879, 30.611454], "type": "Point"}, "id": "oWQfGYD3usH7u7uQKn7YLw4uhog=", "properties": {"@source_uri": "https://tools.usps.com/UspsToolsRestServices/rest/POLocator/findLocations", "@spider": "usps_collection_boxes", "addr:city": "COLLEGE STATION", "addr:country": "US", "addr:postcode": "77840", "addr:state": "TX", "addr:street_address": "2006 TEXAS AVE S", "amenity": "post_box", "brand": "United States Postal Service", "brand:wikidata": "Q668687", "collection_times": "Mo-Fr 15:00", "note": "ON 12/24 AND 12/31, THIS BOX MAY BE COLLECTED AS EARLY AS 12 NOON.", "nsi_id": "unitedstatespostalservice-a77078", "operator": "United States Postal Service", "operator:short": "USPS", "operator:type": "public", "operator:wikidata": "Q668687", "ref": "7784000072"}, "type": "Feature"}
{"geometry": {"coordinates": [-96.3310005735, 30.6343713655], "type": "Point"}, "id": "2HwD3dN2fuQmiXAEeQT-MvgpBRY=", "properties": {"@source_uri": "https://tools.usps.com/UspsToolsRestServices/rest/POLocator/findLocations", "@spider": "usps_collection_boxes", "addr:city": "COLLEGE STATION", "addr:country": "US", "addr:postcode": "77840", "addr:state": "TX", "addr:street_address": "301 ARGUELLO DR", "amenity": "post_box", "brand": "United States Postal Service", "brand:wikidata": "Q668687", "collection_times": "Mo-Fr 15:30", "note": "ON 12/24 AND 12/31, THIS BOX MAY BE COLLECTED AS EARLY AS 12 NOON.", "nsi_id": "unitedstatespostalservice-a77078", "operator": "United States Postal Service", "operator:short": "USPS", "operator:type": "public", "operator:wikidata": "Q668687", "ref": "7784000092"}, "type": "Feature"}
{"geometry": {"coordinates": [-96.2984128, 30.617512], "type": "Point"}, "id": "hbNTcAT-LJq5BYyXq8IBxlJDA08=", "properties": {"@source_uri": "https://tools.usps.com/UspsToolsRestServices/rest/POLocator/findLocations", "@spider": "usps_collection_boxes", "addr:city": "COLLEGE STATION", "addr:country": "US", "addr:postcode": "77840", "addr:state": "TX", "addr:street_address": "7607 EASTMARK DR", "amenity": "post_box", "brand": "United States Postal Service", "brand:wikidata": "Q668687", "collection_times": "Mo-Fr 14:45", "note": "ON 12/24 AND 12/31, THIS BOX MAY BE COLLECTED AS EARLY AS 12 NOON.", "nsi_id": "unitedstatespostalservice-a77078", "operator": "United States Postal Service", "operator:short": "USPS", "operator:type": "public", "operator:wikidata": "Q668687", "ref": "7784000098"}, "type": "Feature"}
{"geometry": {"coordinates": [-96.3312346, 30.630883], "type": "Point"}, "id": "0926X1tAsAdIiZCJrhJHoqj6Cdk=", "properties": {"@source_uri": "https://tools.usps.com/UspsToolsRestServices/rest/POLocator/findLocations", "@spider": "usps_collection_boxes", "addr:city": "COLLEGE STATION", "addr:country": "US", "addr:postcode": "77840", "addr:state": "TX", "addr:street_address": "404 UNIVERSITY DR E", "amenity": "post_box", "brand": "United States Postal Service", "brand:wikidata": "Q668687", "collection_times": "Mo-Fr 15:15", "note": "ON 12/24 AND 12/31, THIS BOX MAY BE COLLECTED AS EARLY AS 12 NOON.", "nsi_id": "unitedstatespostalservice-a77078", "operator": "United States Postal Service", "operator:short": "USPS", "operator:type": "public", "operator:wikidata": "Q668687", "ref": "7784000099"}, "type": "Feature"}
{"geometry": {"coordinates": [-96.3164355, 30.637375], "type": "Point"}, "id": "kO2joCI8MSVX6I5hW8kkqdrk6hg=", "properties": {"@source_uri": "https://tools.usps.com/UspsToolsRestServices/rest/POLocator/findLocations", "@spider": "usps_collection_boxes", "addr:city": "COLLEGE STATION", "addr:country": "US", "addr:postcode": "77840", "addr:state": "TX", "addr:street_address": "1500 UNIVERSITY DR E", "amenity": "post_box", "brand": "United States Postal Service", "brand:wikidata": "Q668687", "collection_times": "Mo-Fr 15:15", "note": "ON 12/24 AND 12/31, THIS BOX MAY BE COLLECTED AS EARLY AS 12 NOON.", "nsi_id": "unitedstatespostalservice-a77078", "operator": "United States Postal Service", "operator:short": "USPS", "operator:type": "public", "operator:wikidata": "Q668687", "ref": "7784000100"}, "type": "Feature"}
{"geometry": {"coordinates": [-96.3225768, 30.636162], "type": "Point"}, "id": "CM-dZ192qyVZH4fSDZCUmSG0k-k=", "properties": {"@source_uri": "https://tools.usps.com/UspsToolsRestServices/rest/POLocator/findLocations", "@spider": "usps_collection_boxes", "addr:city": "COLLEGE STATION", "addr:country": "US", "addr:postcode": "77840", "addr:state": "TX", "addr:street_address": "1021 UNIVERSITY DR E", "amenity": "post_box", "brand": "United States Postal Service", "brand:wikidata": "Q668687", "collection_times": "Mo-Fr 15:30", "note": "ON 12/24 AND 12/31, THIS BOX MAY BE COLLECTED AS EARLY AS 12 NOON.", "nsi_id": "unitedstatespostalservice-a77078", "operator": "United States Postal Service", "operator:short": "USPS", "operator:type": "public", "operator:wikidata": "Q668687", "ref": "7784000101"}, "type": "Feature"}
{"geometry": {"coordinates": [-96.3044090366, 30.5963439823], "type": "Point"}, "id": "rnpSmIqxF3pmwKb-96Cr1JVxU7U=", "properties": {"@source_uri": "https://tools.usps.com/UspsToolsRestServices/rest/POLocator/findLocations", "@spider": "usps_collection_boxes", "addr:city": "COLLEGE STATION", "addr:country": "US", "addr:postcode": "77840", "addr:state": "TX", "addr:street_address": "2130 HARVEY MITCHELL PKWY S", "amenity": "post_box", "brand": "United States Postal Service", "brand:wikidata": "Q668687", "collection_times": "Mo-Fr 16:30; Sa 16:00", "note": "ON 12/24 AND 12/31, THIS BOX MAY BE COLLECTED AS EARLY AS 12 NOON.", "nsi_id": "unitedstatespostalservice-a77078", "operator": "United States Postal Service", "operator:short": "USPS", "operator:type": "public", "operator:wikidata": "Q668687", "ref": "7784000116"}, "type": "Feature"}
{"geometry": {"coordinates": [-96.3292207, 30.635572], "type": "Point"}, "id": "xblhkuN2mUck6pCdU1dpKTQWUME=", "properties": {"@source_uri": "https://tools.usps.com/UspsToolsRestServices/rest/POLocator/findLocations", "@spider": "usps_collection_boxes", "addr:city": "COLLEGE STATION", "addr:country": "US", "addr:postcode": "77840", "addr:state": "TX", "addr:street_address": "410 TARROW ST", "amenity": "post_box", "brand": "United States Postal Service", "brand:wikidata": "Q668687", "collection_times": "Mo-Fr 15:30", "note": "ON 12/24 AND 12/31, THIS BOX MAY BE COLLECTED AS EARLY AS 12 NOON.", "nsi_id": "unitedstatespostalservice-a77078", "operator": "United States Postal Service", "operator:short": "USPS", "operator:type": "public", "operator:wikidata": "Q668687", "ref": "7784000120"}, "type": "Feature"}
{"geometry": {"coordinates": [-96.3044352, 30.596307], "type": "Point"}, "id": "Y17Dbq61ubKZqMZTBCfI502Q7vY=", "properties": {"@source_uri": "https://tools.usps.com/UspsToolsRestServices/rest/POLocator/findLocations", "@spider": "usps_collection_boxes", "addr:city": "COLLEGE STATION", "addr:country": "US", "addr:postcode": "77840", "addr:state": "TX", "addr:street_address": "2130 HARVEY MITCHELL PKWY S", "amenity": "post_box", "brand": "United States Postal Service", "brand:wikidata": "Q668687", "collection_times": "Mo-Fr 16:30; Sa 16:00", "name": "USPS COLLECTION BOX - APC", "note": "ON 12/24 AND 12/31, THIS BOX MAY BE COLLECTED AS EARLY AS 12 NOON.", "nsi_id": "unitedstatespostalservice-a77078", "operator": "United States Postal Service", "operator:short": "USPS", "operator:type": "public", "operator:wikidata": "Q668687", "ref": "7784000122"}, "type": "Feature"}
{"geometry": {"coordinates": [-96.3044626, 30.596311], "type": "Point"}, "id": "KGtLqkGVfJ4UIWMylgL_yggQAW8=", "properties": {"@source_uri": "https://tools.usps.com/UspsToolsRestServices/rest/POLocator/findLocations", "@spider": "usps_collection_boxes", "addr:city": "COLLEGE STATION", "addr:country": "US", "addr:postcode": "77840", "addr:state": "TX", "addr:street_address": "2130 HARVEY MITCHELL PKWY S", "amenity": "post_box", "brand": "United States Postal Service", "brand:wikidata": "Q668687", "collection_times": "Mo-Fr 16:30; Sa 16:00", "indoor": "yes", "note": "ON 12/24 AND 12/31, THIS BOX MAY BE COLLECTED AS EARLY AS 12 NOON.", "nsi_id": "unitedstatespostalservice-a77078", "operator": "United States Postal Service", "operator:short": "USPS", "operator:type": "public", "operator:wikidata": "Q668687", "ref": "7784000123"}, "type": "Feature"}
{"geometry": {"coordinates": [-96.3050696305, 30.5965463368], "type": "Point"}, "id": "qiXzjuZp_S_0bNZCtYELMa6V8fc=", "properties": {"@source_uri": "https://tools.usps.com/UspsToolsRestServices/rest/POLocator/findLocations", "@spider": "usps_collection_boxes", "addr:city": "COLLEGE STATION", "addr:country": "US", "addr:postcode": "77840", "addr:state": "TX", "addr:street_address": "2130 HARVEY MITCHELL PKWY S", "amenity": "post_box", "brand": "United States Postal Service", "brand:wikidata": "Q668687", "collection_times": "Mo-Fr 17:00; Sa 12:00", "indoor": "yes", "note": "ON 12/24 AND 12/31, THIS BOX MAY BE COLLECTED AS EARLY AS 12 NOON.", "nsi_id": "unitedstatespostalservice-a77078", "operator": "United States Postal Service", "operator:short": "USPS", "operator:type": "public", "operator:wikidata": "Q668687", "ref": "7784000137"}, "type": "Feature"}
{"geometry": {"coordinates": [-96.345461721, 30.61773754], "type": "Point"}, "id": "e7VGgBFE0QHjCB1o3Cz5n1rd-Jc=", "properties": {"@source_uri": "https://tools.usps.com/UspsToolsRestServices/rest/POLocator/findLocations", "@spider": "usps_collection_boxes", "addr:city": "COLLEGE STATION", "addr:country": "US", "addr:postcode": "77841", "addr:state": "TX", "addr:street_address": "104 N HOUSTON ST", "amenity": "post_box", "brand": "United States Postal Service", "brand:wikidata": "Q668687", "collection_times": "Mo-Fr 16:00", "indoor": "yes", "note": "ON 12/24 AND 12/31, THIS BOX MAY BE COLLECTED AS EARLY AS 12 NOON.", "nsi_id": "unitedstatespostalservice-a77078", "operator": "United States Postal Service", "operator:short": "USPS", "operator:type": "public", "operator:wikidata": "Q668687", "ref": "7784100002"}, "type": "Feature"}
{"geometry": {"coordinates": [-96.344964, 30.618315], "type": "Point"}, "id": "jFNYCAyr_ULVcZtg7cTL-KvXYFI=", "properties": {"@source_uri": "https://tools.usps.com/UspsToolsRestServices/rest/POLocator/findLocations", "@spider": "usps_collection_boxes", "addr:city": "COLLEGE STATION", "addr:country": "US", "addr:postcode": "77841", "addr:state": "TX", "addr:street_address": "104 N HOUSTON ST", "amenity": "post_box", "brand": "United States Postal Service", "brand:wikidata": "Q668687", "collection_times": "Mo-Fr 15:45", "indoor": "yes", "note": "ON 12/24 AND 12/31, THIS BOX MAY BE COLLECTED AS EARLY AS 12 NOON.", "nsi_id": "unitedstatespostalservice-a77078", "operator": "United States Postal Service", "operator:short": "USPS", "operator:type": "public", "operator:wikidata": "Q668687", "ref": "7784100004"}, "type": "Feature"}
{"geometry": {"coordinates": [-96.2876765, 30.603295], "type": "Point"}, "id": "o3MafpBsn6JobSZcxVNloCN_PpY=", "properties": {"@source_uri": "https://tools.usps.com/UspsToolsRestServices/rest/POLocator/findLocations", "@spider": "usps_collection_boxes", "addr:city": "COLLEGE STATION", "addr:country": "US", "addr:postcode": "77845", "addr:state": "TX", "addr:street_address": "1509 EMERALD PKWY", "amenity": "post_box", "brand": "United States Postal Service", "brand:wikidata": "Q668687", "collection_times": "Mo-Fr 14:45", "note": "ON 12/24 AND 12/31, THIS BOX MAY BE COLLECTED AS EARLY AS 12 NOON.", "nsi_id": "unitedstatespostalservice-a77078", "operator": "United States Postal Service", "operator:short": "USPS", "operator:type": "public", "operator:wikidata": "Q668687", "ref": "7784500007"}, "type": "Feature"}
{"geometry": {"coordinates": [-96.757201, 30.431109], "type": "Point"}, "id": "7pEqeb5_0AbQDQbdd0OKjskMrOU=", "properties": {"@source_uri": "https://tools.usps.com/UspsToolsRestServices/rest/POLocator/findLocations", "@spider": "usps_collection_boxes", "addr:city": "DEANVILLE", "addr:country": "US", "addr:postcode": "77852", "addr:state": "TX", "addr:street_address": "6625 FM 111", "amenity": "post_box", "brand": "United States Postal Service", "brand:wikidata": "Q668687", "collection_times": "Mo-Fr 14:15; Sa 09:45", "note": "ON 12/24 AND 12/31, THIS BOX MAY BE COLLECTED AS EARLY AS 12 NOON.", "nsi_id": "unitedstatespostalservice-a77078", "operator": "United States Postal Service", "operator:short": "USPS", "operator:type": "public", "operator:wikidata": "Q668687", "ref": "7785200001"}, "type": "Feature"}
{"geometry": {"coordinates": [-96.757154, 30.431177], "type": "Point"}, "id": "bjzNz6RpJMeStt_TMmNwpp3c-_U=", "properties": {"@source_uri": "https://tools.usps.com/UspsToolsRestServices/rest/POLocator/findLocations", "@spider": "usps_collection_boxes", "addr:city": "DEANVILLE", "addr:country": "US", "addr:postcode": "77852", "addr:state": "TX", "addr:street_address": "6625 FM 111", "amenity": "post_box", "brand": "United States Postal Service", "brand:wikidata": "Q668687", "collection_times": "Mo-Fr 14:15; Sa 09:45", "indoor": "yes", "note": "ON 12/24 AND 12/31, THIS BOX MAY BE COLLECTED AS EARLY AS 12 NOON.", "nsi_id": "unitedstatespostalservice-a77078", "operator": "United States Postal Service", "operator:short": "USPS", "operator:type": "public", "operator:wikidata": "Q668687", "ref": "7785200002"}, "type": "Feature"}
{"geometry": {"coordinates": [-96.756932159, 30.431315649], "type": "Point"}, "id": "yNmV-sW7D3IVRFyEKRJ32LVYzUM=", "properties": {"@source_uri": "https://tools.usps.com/UspsToolsRestServices/rest/POLocator/findLocations", "@spider": "usps_collection_boxes", "addr:city": "DEANVILLE", "addr:country": "US", "addr:postcode": "77852", "addr:state": "TX", "addr:street_address": "6625 FM 111", "amenity": "post_box", "brand": "United States Postal Service", "brand:wikidata": "Q668687", "collection_times": "Mo-Fr 14:30; Sa 10:00", "indoor": "yes", "note": "ON 12/24 AND 12/31, THIS BOX MAY BE COLLECTED AS EARLY AS 12 NOON.", "nsi_id": "unitedstatespostalservice-a77078", "operator": "United States Postal Service", "operator:short": "USPS", "operator:type": "public", "operator:wikidata": "Q668687", "ref": "7785200003"}, "type": "Feature"}
{"geometry": {"coordinates": [-96.8245263172, 30.3561258379], "type": "Point"}, "id": "DfwpwlewIUIIid5teiBXUBgxfoE=", "properties": {"@source_uri": "https://tools.usps.com/UspsToolsRestServices/rest/POLocator/findLocations", "@spider": "usps_collection_boxes", "addr:city": "DIMEBOX", "addr:country": "US", "addr:postcode": "77853", "addr:state": "TX", "addr:street_address": "1017 STEPHEN F AUSTIN BLVD", "amenity": "post_box", "brand": "United States Postal Service", "brand:wikidata": "Q668687", "collection_times": "Mo-Fr 14:45; Sa 10:30", "note": "ON 12/24 AND 12/31, THIS BOX MAY BE COLLECTED AS EARLY AS 12 NOON.", "nsi_id": "unitedstatespostalservice-a77078", "operator": "United States Postal Service", "operator:short": "USPS", "operator:type": "public", "operator:wikidata": "Q668687", "ref": "7785300001"}, "type": "Feature"}
{"geometry": {"coordinates": [-96.824527, 30.356127], "type": "Point"}, "id": "X9YZvWvuROjWS0KlqCDWgY8tuoE=", "properties": {"@source_uri": "https://tools.usps.com/UspsToolsRestServices/rest/POLocator/findLocations", "@spider": "usps_collection_boxes", "addr:city": "DIMEBOX", "addr:country": "US", "addr:postcode": "77853", "addr:state": "TX", "addr:street_address": "1017 STEPHEN F AUSTIN BLVD", "amenity": "post_box", "brand": "United States Postal Service", "brand:wikidata": "Q668687", "collection_times": "Mo-Fr 14:45; Sa 10:30", "indoor": "yes", "note": "ON 12/24 AND 12/31, THIS BOX MAY BE COLLECTED AS EARLY AS 12 NOON.", "nsi_id": "unitedstatespostalservice-a77078", "operator": "United States Postal Service", "operator:short": "USPS", "operator:type": "public", "operator:wikidata": "Q668687", "ref": "7785300002"}, "type": "Feature"}
{"geometry": {"coordinates": [-96.8245263172, 30.3561258379], "type": "Point"}, "id": "j4djklQD-NXT-jJvayhmfAYys40=", "properties": {"@source_uri": "https://tools.usps.com/UspsToolsRestServices/rest/POLocator/findLocations", "@spider": "usps_collection_boxes", "addr:city": "DIMEBOX", "addr:country": "US", "addr:postcode": "77853", "addr:state": "TX", "addr:street_address": "1017 STEPHEN F AUSTIN BLVD", "amenity": "post_box", "brand": "United States Postal Service", "brand:wikidata": "Q668687", "collection_times": "Mo-Fr 15:00", "indoor": "yes", "note": "ON 12/24 AND 12/31, THIS BOX MAY BE COLLECTED AS EARLY AS 12 NOON.", "nsi_id": "unitedstatespostalservice-a77078", "operator": "United States Postal Service", "operator:short": "USPS", "operator:type": "public", "operator:wikidata": "Q668687", "ref": "7785300003"}, "type": "Feature"}
{"geometry": {"coordinates": [-96.1246696, 31.147061], "type": "Point"}, "id": "Yv7yEqe1VANnQ7SCFTTEHBkUnhU=", "properties": {"@source_uri": "https://tools.usps.com/UspsToolsRestServices/rest/POLocator/findLocations", "@spider": "usps_collection_boxes", "addr:city": "FLYNN", "addr:country": "US", "addr:postcode": "77855", "addr:state": "TX", "addr:street_address": "7782 FM 39 S", "amenity": "post_box", "brand": "United States Postal Service", "brand:wikidata": "Q668687", "collection_times": "Mo-Fr 11:45; Sa 10:30", "nsi_id": "unitedstatespostalservice-a77078", "operator": "United States Postal Service", "operator:short": "USPS", "operator:type": "public", "operator:wikidata": "Q668687", "ref": "7785500001"}, "type": "Feature"}
{"geometry": {"coordinates": [-96.122741, 31.141685], "type": "Point"}, "id": "IUrcRMWk_TIN16zpx4DK8mv4MrU=", "properties": {"@source_uri": "https://tools.usps.com/UspsToolsRestServices/rest/POLocator/findLocations", "@spider": "usps_collection_boxes", "addr:city": "FLYNN", "addr:country": "US", "addr:postcode": "77855", "addr:state": "TX", "addr:street_address": "7782 FM 39 S", "amenity": "post_box", "brand": "United States Postal Service", "brand:wikidata": "Q668687", "collection_times": "Mo-Fr 11:45; Sa 10:30", "indoor": "yes", "nsi_id": "unitedstatespostalservice-a77078", "operator": "United States Postal Service", "operator:short": "USPS", "operator:type": "public", "operator:wikidata": "Q668687", "ref": "7785500002"}, "type": "Feature"}
{"geometry": {"coordinates": [-96.120931137, 31.134067285], "type": "Point"}, "id": "1pHsCdi4iEvRqfD0HLc-e9iirBM=", "properties": {"@source_uri": "https://tools.usps.com/UspsToolsRestServices/rest/POLocator/findLocations", "@spider": "usps_collection_boxes", "addr:city": "FLYNN", "addr:country": "US", "addr:postcode": "77855", "addr:state": "TX", "addr:street_address": "7782 FM 39 S", "amenity": "post_box", "brand": "United States Postal Service", "brand:wikidata": "Q668687", "collection_times": "Mo-Fr 12:00; Sa 10:00", "indoor": "yes", "nsi_id": "unitedstatespostalservice-a77078", "operator": "United States Postal Service", "operator:short": "USPS", "operator:type": "public", "operator:wikidata": "Q668687", "ref": "7785500003"}, "type": "Feature"}
{"geometry": {"coordinates": [-96.484948, 31.027252], "type": "Point"}, "id": "9uCyJHJu7m722ezS343qHxdrUhE=", "properties": {"@source_uri": "https://tools.usps.com/UspsToolsRestServices/rest/POLocator/findLocations", "@spider": "usps_collection_boxes", "addr:city": "FRANKLIN", "addr:country": "US", "addr:postcode": "77856", "addr:state": "TX", "addr:street_address": "216 E DECHERD ST", "amenity": "post_box", "brand": "United States Postal Service", "brand:wikidata": "Q668687", "collection_times": "Mo-Fr 16:00; Sa 09:00", "note": "ON 12/24 AND 12/31, THIS BOX MAY BE COLLECTED AS EARLY AS 12 NOON.", "nsi_id": "unitedstatespostalservice-a77078", "operator": "United States Postal Service", "operator:short": "USPS", "operator:type": "public", "operator:wikidata": "Q668687", "ref": "7785600001"}, "type": "Feature"}
{"geometry": {"coordinates": [-96.485033, 31.027198], "type": "Point"}, "id": "NYEpBgoSVbi7JnOQjhnDG2UCtnI=", "properties": {"@source_uri": "https://tools.usps.com/UspsToolsRestServices/rest/POLocator/findLocations", "@spider": "usps_collection_boxes", "addr:city": "FRANKLIN", "addr:country": "US", "addr:postcode": "77856", "addr:state": "TX", "addr:street_address": "216 E DECHERD ST", "amenity": "post_box", "brand": "United States Postal Service", "brand:wikidata": "Q668687", "collection_times": "Mo-Fr 16:00; Sa 09:00", "indoor": "yes", "note": "ON 12/24 AND 12/31, THIS BOX MAY BE COLLECTED AS EARLY AS 12 NOON.", "nsi_id": "unitedstatespostalservice-a77078", "operator": "United States Postal Service", "operator:short": "USPS", "operator:type": "public", "operator:wikidata": "Q668687", "ref": "7785600002"}, "type": "Feature"}
{"geometry": {"coordinates": [-96.485033, 31.027198], "type": "Point"}, "id": "N9vMVzIByWD423Ik0YiiZjkWTio=", "properties": {"@source_uri": "https://tools.usps.com/UspsToolsRestServices/rest/POLocator/findLocations", "@spider": "usps_collection_boxes", "addr:city": "FRANKLIN", "addr:country": "US", "addr:postcode": "77856", "addr:state": "TX", "addr:street_address": "216 E DECHERD ST", "amenity": "post_box", "brand": "United States Postal Service", "brand:wikidata": "Q668687", "collection_times": "Mo-Fr 16:00; Sa 09:00", "indoor": "yes", "note": "ON 12/24 AND 12/31, THIS BOX MAY BE COLLECTED AS EARLY AS 12 NOON.", "nsi_id": "unitedstatespostalservice-a77078", "operator": "United States Postal Service", "operator:short": "USPS", "operator:type": "public", "operator:wikidata": "Q668687", "ref": "7785600003"}, "type": "Feature"}
{"geometry": {"coordinates": [-96.485855876, 31.026973493], "type": "Point"}, "id": "oFTbKWdNpalL_GXb3O69HcX1s1M=", "properties": {"@source_uri": "https://tools.usps.com/UspsToolsRestServices/rest/POLocator/findLocations", "@spider": "usps_collection_boxes", "addr:city": "FRANKLIN", "addr:country": "US", "addr:postcode": "77856", "addr:state": "TX", "addr:street_address": "216 E DECHERD ST", "amenity": "post_box", "brand": "United States Postal Service", "brand:wikidata": "Q668687", "collection_times": "Mo-Fr 16:30", "indoor": "yes", "note": "ON 12/24 AND 12/31, THIS BOX MAY BE COLLECTED AS EARLY AS 12 NOON.", "nsi_id": "unitedstatespostalservice-a77078", "operator": "United States Postal Service", "operator:short": "USPS", "operator:type": "public", "operator:wikidata": "Q668687", "ref": "7785600005"}, "type": "Feature"}
{"geometry": {"coordinates": [-96.720975, 30.785533], "type": "Point"}, "id": "a6tcUkLMpqD_0XiHaPTlYHNnppQ=", "properties": {"@source_uri": "https://tools.usps.com/UspsToolsRestServices/rest/POLocator/findLocations", "@spider": "usps_collection_boxes", "addr:city": "GAUSE", "addr:country": "US", "addr:postcode": "77857", "addr:state": "TX", "addr:street_address": "103 MAIN ST", "amenity": "post_box", "brand": "United States Postal Service", "brand:wikidata": "Q668687", "collection_times": "Mo-Fr 12:00; Sa 10:00", "nsi_id": "unitedstatespostalservice-a77078", "operator": "United States Postal Service", "operator:short": "USPS", "operator:type": "public", "operator:wikidata": "Q668687", "ref": "7785700000"}, "type": "Feature"}
{"geometry": {"coordinates": [-96.720975, 30.785533], "type": "Point"}, "id": "s8yfOh4dfZyUAB7aVb-LDE5rhuQ=", "properties": {"@source_uri": "https://tools.usps.com/UspsToolsRestServices/rest/POLocator/findLocations", "@spider": "usps_collection_boxes", "addr:city": "GAUSE", "addr:country": "US", "addr:postcode": "77857", "addr:state": "TX", "addr:street_address": "103 MAIN ST", "amenity": "post_box", "brand": "United States Postal Service", "brand:wikidata": "Q668687", "collection_times": "Mo-Fr 12:00; Sa 10:00", "indoor": "yes", "nsi_id": "unitedstatespostalservice-a77078", "operator": "United States Postal Service", "operator:short": "USPS", "operator:type": "public", "operator:wikidata": "Q668687", "ref": "7785700001"}, "type": "Feature"}
{"geometry": {"coordinates": [-96.721007854, 30.785427934], "type": "Point"}, "id": "C2vbRH3eCajTG3I6RjmZSmYERTk=", "properties": {"@source_uri": "https://tools.usps.com/UspsToolsRestServices/rest/POLocator/findLocations", "@spider": "usps_collection_boxes", "addr:city": "GAUSE", "addr:country": "US", "addr:postcode": "77857", "addr:state": "TX", "addr:street_address": "100 MAIN ST", "amenity": "post_box", "brand": "United States Postal Service", "brand:wikidata": "Q668687", "collection_times": "Mo-Fr 12:00", "indoor": "yes", "nsi_id": "unitedstatespostalservice-a77078", "operator": "United States Postal Service", "operator:short": "USPS", "operator:type": "public", "operator:wikidata": "Q668687", "ref": "7785700002"}, "type": "Feature"}
{"geometry": {"coordinates": [-96.598303, 30.877013], "type": "Point"}, "id": "7vKqydCMqDlqqjiXBhA9tITIW2Q=", "properties": {"@source_uri": "https://tools.usps.com/UspsToolsRestServices/rest/POLocator/findLocations", "@spider": "usps_collection_boxes", "addr:city": "HEARNE", "addr:country": "US", "addr:postcode": "77859", "addr:state": "TX", "addr:street_address": "600 W 1ST ST", "amenity": "post_box", "brand": "United States Postal Service", "brand:wikidata": "Q668687", "collection_times": "Mo-Fr 16:00; Sa 14:00", "note": "ON 12/24 AND 12/31, THIS BOX MAY BE COLLECTED AS EARLY AS 12 NOON.", "nsi_id": "unitedstatespostalservice-a77078", "operator": "United States Postal Service", "operator:short": "USPS", "operator:type": "public", "operator:wikidata": "Q668687", "ref": "7785900003"}, "type": "Feature"}
{"geometry": {"coordinates": [-96.598303, 30.877013], "type": "Point"}, "id": "6TC4QkwB6KV_PDZbxJS-PIEiV4g=", "properties": {"@source_uri": "https://tools.usps.com/UspsToolsRestServices/rest/POLocator/findLocations", "@spider": "usps_collection_boxes", "addr:city": "HEARNE", "addr:country": "US", "addr:postcode": "77859", "addr:state": "TX", "addr:street_address": "600 W 1ST ST", "amenity": "post_box", "brand": "United States Postal Service", "brand:wikidata": "Q668687", "collection_times": "Mo-Fr 16:00; Sa 14:00", "indoor": "yes", "note": "ON 12/24 AND 12/31, THIS BOX MAY BE COLLECTED AS EARLY AS 12 NOON.", "nsi_id": "unitedstatespostalservice-a77078", "operator": "United States Postal Service", "operator:short": "USPS", "operator:type": "public", "operator:wikidata": "Q668687", "ref": "7785900013"}, "type": "Feature"}
{"geometry": {"coordinates": [-96.598303, 30.877013], "type": "Point"}, "id": "t58fbQ2kO9dz-QBqeGnnvMnv_gk=", "properties": {"@source_uri": "https://tools.usps.com/UspsToolsRestServices/rest/POLocator/findLocations", "@spider": "usps_collection_boxes", "addr:city": "HEARNE", "addr:country": "US", "addr:postcode": "77859", "addr:state": "TX", "addr:street_address": "600 W 1ST ST", "amenity": "post_box", "brand": "United States Postal Service", "brand:wikidata": "Q668687", "collection_times": "Mo-Fr 16:00; Sa 14:00", "indoor": "yes", "note": "ON 12/24 AND 12/31, THIS BOX MAY BE COLLECTED AS EARLY AS 12 NOON.", "nsi_id": "unitedstatespostalservice-a77078", "operator": "United States Postal Service", "operator:short": "USPS", "operator:type": "public", "operator:wikidata": "Q668687", "ref": "7785900014"}, "type": "Feature"}
{"geometry": {"coordinates": [-96.598320567, 30.8770683], "type": "Point"}, "id": "S1oX-qdaOuZ6aUI7YJQLkYuUBdU=", "properties": {"@source_uri": "https://tools.usps.com/UspsToolsRestServices/rest/POLocator/findLocations", "@spider": "usps_collection_boxes", "addr:city": "HEARNE", "addr:country": "US", "addr:postcode": "77859", "addr:state": "TX", "addr:street_address": "600 W 1ST ST", "amenity": "post_box", "brand": "United States Postal Service", "brand:wikidata": "Q668687", "collection_times": "Mo-Fr 16:30", "indoor": "yes", "note": "ON 12/24 AND 12/31, THIS BOX MAY BE COLLECTED AS EARLY AS 12 NOON.", "nsi_id": "unitedstatespostalservice-a77078", "operator": "United States Postal Service", "operator:short": "USPS", "operator:type": "public", "operator:wikidata": "Q668687", "ref": "7785900015"}, "type": "Feature"}
{"geometry": {"coordinates": [-96.2637908841, 30.7868905894], "type": "Point"}, "id": "2NGdcW1GhWn1Sxiyw8uPXpdjs5Q=", "properties": {"@source_uri": "https://tools.usps.com/UspsToolsRestServices/rest/POLocator/findLocations", "@spider": "usps_collection_boxes", "addr:city": "KURTEN", "addr:country": "US", "addr:postcode": "77862", "addr:state": "TX", "addr:street_address": "12857 E SH HWY 21", "amenity": "post_box", "brand": "United States Postal Service", "brand:wikidata": "Q668687", "collection_times": "Mo-Fr 12:45; Sa 09:45", "note": "ON 12/24 AND 12/31, THIS BOX MAY BE COLLECTED AS EARLY AS 12 NOON.", "nsi_id": "unitedstatespostalservice-a77078", "operator": "United States Postal Service", "operator:short": "USPS", "operator:type": "public", "operator:wikidata": "Q668687", "ref": "7786200001"}, "type": "Feature"}
{"geometry": {"coordinates": [-96.263670519, 30.78747879], "type": "Point"}, "id": "cMRLi420piwYsdyQfOgxYfVME9Y=", "properties": {"@source_uri": "https://tools.usps.com/UspsToolsRestServices/rest/POLocator/findLocations", "@spider": "usps_collection_boxes", "addr:city": "KURTEN", "addr:country": "US", "addr:postcode": "77862", "addr:state": "TX", "addr:street_address": "12857 E SH HWY 21", "amenity": "post_box", "brand": "United States Postal Service", "brand:wikidata": "Q668687", "collection_times": "Mo-Fr 13:00; Sa 09:45", "indoor": "yes", "note": "ON 12/24 AND 12/31, THIS BOX MAY BE COLLECTED AS EARLY AS 12 NOON.", "nsi_id": "unitedstatespostalservice-a77078", "operator": "United States Postal Service", "operator:short": "USPS", "operator:type": "public", "operator:wikidata": "Q668687", "ref": "7786200003"}, "type": "Feature"}
{"geometry": {"coordinates": [-96.5632991591, 30.3863216919], "type": "Point"}, "id": "guAK0gSGj5FpPqXbrMR3ysfYkMo=", "properties": {"@source_uri": "https://tools.usps.com/UspsToolsRestServices/rest/POLocator/findLocations", "@spider": "usps_collection_boxes", "addr:city": "LYONS", "addr:country": "US", "addr:postcode": "77863", "addr:state": "TX", "addr:street_address": "14030 HWY 36 S", "amenity": "post_box", "brand": "United States Postal Service", "brand:wikidata": "Q668687", "collection_times": "Mo-Fr 15:15; Sa 10:00", "note": "ON 12/24 AND 12/31, THIS BOX MAY BE COLLECTED AS EARLY AS 12 NOON.", "nsi_id": "unitedstatespostalservice-a77078", "operator": "United States Postal Service", "operator:short": "USPS", "operator:type": "public", "operator:wikidata": "Q668687", "ref": "7786300001"}, "type": "Feature"}
{"geometry": {"coordinates": [-96.5632991591, 30.3863216919], "type": "Point"}, "id": "N38bxX0Uzd-HW2g2f3zJ2TcY2RQ=", "properties": {"@source_uri": "https://tools.usps.com/UspsToolsRestServices/rest/POLocator/findLocations", "@spider": "usps_collection_boxes", "addr:city": "LYONS", "addr:country": "US", "addr:postcode": "77863", "addr:state": "TX", "addr:street_address": "14030 HWY 36 S", "amenity": "post_box", "brand": "United States Postal Service", "brand:wikidata": "Q668687", "collection_times": "Mo-Fr 15:15; Sa 10:00", "indoor": "yes", "note": "ON 12/24 AND 12/31, THIS BOX MAY BE COLLECTED AS EARLY AS 12 NOON.", "nsi_id": "unitedstatespostalservice-a77078", "operator": "United States Postal Service", "operator:short": "USPS", "operator:type": "public", "operator:wikidata": "Q668687", "ref": "7786300002"}, "type": "Feature"}
{"geometry": {"coordinates": [-96.562543833, 30.385107379], "type": "Point"}, "id": "uEQRcTgzK8c4c-0jOmCuXGjWT-I=", "properties": {"@source_uri": "https://tools.usps.com/UspsToolsRestServices/rest/POLocator/findLocations", "@spider": "usps_collection_boxes", "addr:city": "LYONS", "addr:country": "US", "addr:postcode": "77863", "addr:state": "TX", "addr:street_address": "14030 HWY 36 S", "amenity": "post_box", "brand": "United States Postal Service", "brand:wikidata": "Q668687", "collection_times": "Mo-Fr 15:30; Sa 10:00", "indoor": "yes", "note": "ON 12/24 AND 12/31, THIS BOX MAY BE COLLECTED AS EARLY AS 12 NOON.", "nsi_id": "unitedstatespostalservice-a77078", "operator": "United States Postal Service", "operator:short": "USPS", "operator:type": "public", "operator:wikidata": "Q668687", "ref": "7786300004"}, "type": "Feature"}
{"geometry": {"coordinates": [-95.9141634803, 30.9517207744], "type": "Point"}, "id": "8TFfcjqLBaLeU15uonuRHfxkqEc=", "properties": {"@source_uri": "https://tools.usps.com/UspsToolsRestServices/rest/POLocator/findLocations", "@spider": "usps_collection_boxes", "addr:city": "MADISONVILLE", "addr:country": "US", "addr:postcode": "77864", "addr:state": "TX", "addr:street_address": "310 N COMMERCE ST", "amenity": "post_box", "brand": "United States Postal Service", "brand:wikidata": "Q668687", "collection_times": "Mo-Fr 16:00; Sa 11:00", "note": "ON 12/24 AND 12/31, THIS BOX MAY BE COLLECTED AS EARLY AS 12 NOON.", "nsi_id": "unitedstatespostalservice-a77078", "operator": "United States Postal Service", "operator:short": "USPS", "operator:type": "public", "operator:wikidata": "Q668687", "ref": "7786400001"}, "type": "Feature"}
{"geometry": {"coordinates": [-95.914153, 30.951734], "type": "Point"}, "id": "Sn6ECYCv9AQKD9XfLmF8c9xwE6Y=", "properties": {"@source_uri": "https://tools.usps.com/UspsToolsRestServices/rest/POLocator/findLocations", "@spider": "usps_collection_boxes", "addr:city": "MADISONVILLE", "addr:country": "US", "addr:postcode": "77864", "addr:state": "TX", "addr:street_address": "310 N COMMERCE ST", "amenity": "post_box", "brand": "United States Postal Service", "brand:wikidata": "Q668687", "collection_times": "Mo-Fr 16:00; Sa 11:00", "indoor": "yes", "note": "ON 12/24 AND 12/31, THIS BOX MAY BE COLLECTED AS EARLY AS 12 NOON.", "nsi_id": "unitedstatespostalservice-a77078", "operator": "United States Postal Service", "operator:short": "USPS", "operator:type": "public", "operator:wikidata": "Q668687", "ref": "7786400008"}, "type": "Feature"}
{"geometry": {"coordinates": [-95.914153, 30.951734], "type": "Point"}, "id": "gnHwjZcutwsA8s84iVWZNJAu7vc=", "properties": {"@source_uri": "https://tools.usps.com/UspsToolsRestServices/rest/POLocator/findLocations", "@spider": "usps_collection_boxes", "addr:city": "MADISONVILLE", "addr:country": "US", "addr:postcode": "77864", "addr:state": "TX", "addr:street_address": "310 N COMMERCE ST", "amenity": "post_box", "brand": "United States Postal Service", "brand:wikidata": "Q668687", "collection_times": "Mo-Fr 16:00; Sa 11:00", "indoor": "yes", "note": "ON 12/24 AND 12/31, THIS BOX MAY BE COLLECTED AS EARLY AS 12 NOON.", "nsi_id": "unitedstatespostalservice-a77078", "operator": "United States Postal Service", "operator:short": "USPS", "operator:type": "public", "operator:wikidata": "Q668687", "ref": "7786400009"}, "type": "Feature"}
{"geometry": {"coordinates": [-95.91416348, 30.951720774], "type": "Point"}, "id": "1DQhU2OfB1X2b3IdnPZkPt3Vd54=", "properties": {"@source_uri": "https://tools.usps.com/UspsToolsRestServices/rest/POLocator/findLocations", "@spider": "usps_collection_boxes", "addr:city": "MADISONVILLE", "addr:country": "US", "addr:postcode": "77864", "addr:state": "TX", "addr:street_address": "310 N COMMERCE ST", "amenity": "post_box", "brand": "United States Postal Service", "brand:wikidata": "Q668687", "collection_times": "Mo-Fr 16:00", "indoor": "yes", "note": "ON 12/24 AND 12/31, THIS BOX MAY BE COLLECTED AS EARLY AS 12 NOON.", "nsi_id": "unitedstatespostalservice-a77078", "operator": "United States Postal Service", "operator:short": "USPS", "operator:type": "public", "operator:wikidata": "Q668687", "ref": "7786400011"}, "type": "Feature"}
{"geometry": {"coordinates": [-96.25733, 31.24273], "type": "Point"}, "id": "lTeJAjMk2BvZ_plVtcODbkdU2pI=", "properties": {"@source_uri": "https://tools.usps.com/UspsToolsRestServices/rest/POLocator/findLocations", "@spider": "usps_collection_boxes", "addr:city": "MARQUEZ", "addr:country": "US", "addr:postcode": "77865", "addr:state": "TX", "addr:street_address": "208 VW GOODWIN BLVD N", "amenity": "post_box", "brand": "United States Postal Service", "brand:wikidata": "Q668687", "collection_times": "Mo-Fr 14:15; Sa 11:30", "note": "ON 12/24 AND 12/31, THIS BOX MAY BE COLLECTED AS EARLY AS 12 NOON.", "nsi_id": "unitedstatespostalservice-a77078", "operator": "United States Postal Service", "operator:short": "USPS", "operator:type": "public", "operator:wikidata": "Q668687", "ref": "7786500001"}, "type": "Feature"}
{"geometry": {"coordinates": [-96.257987, 31.241064], "type": "Point"}, "id": "Qxc_SMSFTtjV98qs1wSHAKyFMXs=", "properties": {"@source_uri": "https://tools.usps.com/UspsToolsRestServices/rest/POLocator/findLocations", "@spider": "usps_collection_boxes", "addr:city": "MARQUEZ", "addr:country": "US", "addr:postcode": "77865", "addr:state": "TX", "addr:street_address": "208 VW GOODWIN BLVD N", "amenity": "post_box", "brand": "United States Postal Service", "brand:wikidata": "Q668687", "collection_times": "Mo-Fr 14:15; Sa 11:30", "indoor": "yes", "note": "ON 12/24 AND 12/31, THIS BOX MAY BE COLLECTED AS EARLY AS 12 NOON.", "nsi_id": "unitedstatespostalservice-a77078", "operator": "United States Postal Service", "operator:short": "USPS", "operator:type": "public", "operator:wikidata": "Q668687", "ref": "7786500002"}, "type": "Feature"}
{"geometry": {"coordinates": [-96.257987, 31.241064], "type": "Point"}, "id": "3uFjXKcZ1Sy8NfcJx4ENAzCq30c=", "properties": {"@source_uri": "https://tools.usps.com/UspsToolsRestServices/rest/POLocator/findLocations", "@spider": "usps_collection_boxes", "addr:city": "MARQUEZ", "addr:country": "US", "addr:postcode": "77865", "addr:state": "TX", "addr:street_address": "208 VW GOODWIN BLVD N", "amenity": "post_box", "brand": "United States Postal Service", "brand:wikidata": "Q668687", "collection_times": "Mo-Fr 14:15; Sa 11:30", "indoor": "yes", "note": "ON 12/24 AND 12/31, THIS BOX MAY BE COLLECTED AS EARLY AS 12 NOON.", "nsi_id": "unitedstatespostalservice-a77078", "operator": "United States Postal Service", "operator:short": "USPS", "operator:type": "public", "operator:wikidata": "Q668687", "ref": "7786500003"}, "type": "Feature"}
{"geometry": {"coordinates": [-96.257853491, 31.241308426], "type": "Point"}, "id": "ky97eM_SZp2xjK5AiooJayI8rQA=", "properties": {"@source_uri": "https://tools.usps.com/UspsToolsRestServices/rest/POLocator/findLocations", "@spider": "usps_collection_boxes", "addr:city": "MARQUEZ", "addr:country": "US", "addr:postcode": "77865", "addr:state": "TX", "addr:street_address": "208 VW GOODWIN BLVD N", "amenity": "post_box", "brand": "United States Postal Service", "brand:wikidata": "Q668687", "collection_times": "Mo-Fr 14:30; Sa 11:30", "indoor": "yes", "note": "ON 12/24 AND 12/31, THIS BOX MAY BE COLLECTED AS EARLY AS 12 NOON.", "nsi_id": "unitedstatespostalservice-a77078", "operator": "United States Postal Service", "operator:short": "USPS", "operator:type": "public", "operator:wikidata": "Q668687", "ref": "7786500004"}, "type": "Feature"}
{"geometry": {"coordinates": [-96.204384, 30.467854], "type": "Point"}, "id": "r61UsiD7gR5yHSb9ePp1rE1hrnA=", "properties": {"@source_uri": "https://tools.usps.com/UspsToolsRestServices/rest/POLocator/findLocations", "@spider": "usps_collection_boxes", "addr:city": "MILLICAN", "addr:country": "US", "addr:postcode": "77866", "addr:state": "TX", "addr:street_address": "22200 FM 159", "amenity": "post_box", "brand": "United States Postal Service", "brand:wikidata": "Q668687", "collection_times": "Mo-Sa 10:45", "nsi_id": "unitedstatespostalservice-a77078", "operator": "United States Postal Service", "operator:short": "USPS", "operator:type": "public", "operator:wikidata": "Q668687", "ref": "7786600001"}, "type": "Feature"}
{"geometry": {"coordinates": [-96.204377, 30.467782], "type": "Point"}, "id": "cxm5Lkv60IUbJsk5tsDC-Mg0SH4=", "properties": {"@source_uri": "https://tools.usps.com/UspsToolsRestServices/rest/POLocator/findLocations", "@spider": "usps_collection_boxes", "addr:city": "MILLICAN", "addr:country": "US", "addr:postcode": "77866", "addr:state": "TX", "addr:street_address": "22200 FM 159", "amenity": "post_box", "brand": "United States Postal Service", "brand:wikidata": "Q668687", "collection_times": "Mo-Sa 10:45", "indoor": "yes", "nsi_id": "unitedstatespostalservice-a77078", "operator": "United States Postal Service", "operator:short": "USPS", "operator:type": "public", "operator:wikidata": "Q668687", "ref": "7786600002"}, "type": "Feature"}
{"geometry": {"coordinates": [-96.204270765, 30.468160959], "type": "Point"}, "id": "4YuilQG0kBFsXe0hWFslWdFfhhw=", "properties": {"@source_uri": "https://tools.usps.com/UspsToolsRestServices/rest/POLocator/findLocations", "@spider": "usps_collection_boxes", "addr:city": "MILLICAN", "addr:country": "US", "addr:postcode": "77866", "addr:state": "TX", "addr:street_address": "22200 FM 159", "amenity": "post_box", "brand": "United States Postal Service", "brand:wikidata": "Q668687", "collection_times": "Mo-Sa 11:00", "indoor": "yes", "nsi_id": "unitedstatespostalservice-a77078", "operator": "United States Postal Service", "operator:short": "USPS", "operator:type": "public", "operator:wikidata": "Q668687", "ref": "7786600003"}, "type": "Feature"}
{"geometry": {"coordinates": [-96.0884764, 30.387716], "type": "Point"}, "id": "_IVliB-LTlugo0j89LZhakB2J3Y=", "properties": {"@source_uri": "https://tools.usps.com/UspsToolsRestServices/rest/POLocator/findLocations", "@spider": "usps_collection_boxes", "addr:city": "NAVASOTA", "addr:country": "US", "addr:postcode": "77868", "addr:state": "TX", "addr:street_address": "115 FARQUHAR ST", "amenity": "post_box", "brand": "United States Postal Service", "brand:wikidata": "Q668687", "collection_times": "Mo-Fr 16:30; Sa 15:00", "note": "ON 12/24 AND 12/31, THIS BOX MAY BE COLLECTED AS EARLY AS 12 NOON.", "nsi_id": "unitedstatespostalservice-a77078", "operator": "United States Postal Service", "operator:short": "USPS", "operator:type": "public", "operator:wikidata": "Q668687", "ref": "7786800011"}, "type": "Feature"}
{"geometry": {"coordinates": [-96.0885195, 30.387463], "type": "Point"}, "id": "AElJmqNAumnKs5cEbgZiqtRPZXo=", "properties": {"@source_uri": "https://tools.usps.com/UspsToolsRestServices/rest/POLocator/findLocations", "@spider": "usps_collection_boxes", "addr:city": "NAVASOTA", "addr:country": "US", "addr:postcode": "77868", "addr:state": "TX", "addr:street_address": "115 FARQUHAR ST", "amenity": "post_box", "brand": "United States Postal Service", "brand:wikidata": "Q668687", "collection_times": "Mo-Fr 16:30; Sa 15:00", "indoor": "yes", "note": "ON 12/24 AND 12/31, THIS BOX MAY BE COLLECTED AS EARLY AS 12 NOON.", "nsi_id": "unitedstatespostalservice-a77078", "operator": "United States Postal Service", "operator:short": "USPS", "operator:type": "public", "operator:wikidata": "Q668687", "ref": "7786800014"}, "type": "Feature"}
{"geometry": {"coordinates": [-96.0884119, 30.38752], "type": "Point"}, "id": "tXaiEYCfVNNqBEvseISukQRBzlw=", "properties": {"@source_uri": "https://tools.usps.com/UspsToolsRestServices/rest/POLocator/findLocations", "@spider": "usps_collection_boxes", "addr:city": "NAVASOTA", "addr:country": "US", "addr:postcode": "77868", "addr:state": "TX", "addr:street_address": "115 FARQUHAR ST", "amenity": "post_box", "brand": "United States Postal Service", "brand:wikidata": "Q668687", "collection_times": "Mo-Fr 16:30; Sa 15:00", "indoor": "yes", "note": "ON 12/24 AND 12/31, THIS BOX MAY BE COLLECTED AS EARLY AS 12 NOON.", "nsi_id": "unitedstatespostalservice-a77078", "operator": "United States Postal Service", "operator:short": "USPS", "operator:type": "public", "operator:wikidata": "Q668687", "ref": "7786800015"}, "type": "Feature"}
{"geometry": {"coordinates": [-96.088525692, 30.387487766], "type": "Point"}, "id": "Hm-cfuLvkiKh8srEpGrvgQh-WmU=", "properties": {"@source_uri": "https://tools.usps.com/UspsToolsRestServices/rest/POLocator/findLocations", "@spider": "usps_collection_boxes", "addr:city": "NAVASOTA", "addr:country": "US", "addr:postcode": "77868", "addr:state": "TX", "addr:street_address": "115 FARQUHAR ST", "amenity": "post_box", "brand": "United States Postal Service", "brand:wikidata": "Q668687", "collection_times": "Mo-Fr 16:30; Sa 11:00", "indoor": "yes", "note": "ON 12/24 AND 12/31, THIS BOX MAY BE COLLECTED AS EARLY AS 12 NOON.", "nsi_id": "unitedstatespostalservice-a77078", "operator": "United States Postal Service", "operator:short": "USPS", "operator:type": "public", "operator:wikidata": "Q668687", "ref": "7786800016"}, "type": "Feature"}
{"geometry": {"coordinates": [-96.430058, 31.051205], "type": "Point"}, "id": "I7dpRLQsqSiNDwFFzY-YVXR8Mls=", "properties": {"@source_uri": "https://tools.usps.com/UspsToolsRestServices/rest/POLocator/findLocations", "@spider": "usps_collection_boxes", "addr:city": "NEW BADEN", "addr:country": "US", "addr:postcode": "77870", "addr:state": "TX", "addr:street_address": "199 FM 1940", "amenity": "post_box", "brand": "United States Postal Service", "brand:wikidata": "Q668687", "collection_times": "Mo-Fr 12:30; Sa 10:00", "note": "ON 12/24 AND 12/31, THIS BOX MAY BE COLLECTED AS EARLY AS 12 NOON.", "nsi_id": "unitedstatespostalservice-a77078", "operator": "United States Postal Service", "operator:short": "USPS", "operator:type": "public", "operator:wikidata": "Q668687", "ref": "7787000001"}, "type": "Feature"}
{"geometry": {"coordinates": [-96.430058, 31.051205], "type": "Point"}, "id": "G-U5AFrqP-5k5HAcJrC2UeSRldc=", "properties": {"@source_uri": "https://tools.usps.com/UspsToolsRestServices/rest/POLocator/findLocations", "@spider": "usps_collection_boxes", "addr:city": "NEW BADEN", "addr:country": "US", "addr:postcode": "77870", "addr:state": "TX", "addr:street_address": "199 FM 1940", "amenity": "post_box", "brand": "United States Postal Service", "brand:wikidata": "Q668687", "collection_times": "Mo-Fr 12:45; Sa 10:00", "indoor": "yes", "note": "ON 12/24 AND 12/31, THIS BOX MAY BE COLLECTED AS EARLY AS 12 NOON.", "nsi_id": "unitedstatespostalservice-a77078", "operator": "United States Postal Service", "operator:short": "USPS", "operator:type": "public", "operator:wikidata": "Q668687", "ref": "7787000002"}, "type": "Feature"}
{"geometry": {"coordinates": [-96.430034134, 31.051214356], "type": "Point"}, "id": "cUwKlFGeV-VULHhEMYFjHmg9060=", "properties": {"@source_uri": "https://tools.usps.com/UspsToolsRestServices/rest/POLocator/findLocations", "@spider": "usps_collection_boxes", "addr:city": "NEW BADEN", "addr:country": "US", "addr:postcode": "77870", "addr:state": "TX", "addr:street_address": "199 FM 1940", "amenity": "post_box", "brand": "United States Postal Service", "brand:wikidata": "Q668687", "collection_times": "Mo-Fr 13:00; Sa 10:00", "indoor": "yes", "note": "ON 12/24 AND 12/31, THIS BOX MAY BE COLLECTED AS EARLY AS 12 NOON.", "nsi_id": "unitedstatespostalservice-a77078", "operator": "United States Postal Service", "operator:short": "USPS", "operator:type": "public", "operator:wikidata": "Q668687", "ref": "7787000003"}, "type": "Feature"}
{"geometry": {"coordinates": [-96.115989, 31.028604], "type": "Point"}, "id": "pNVBvdHwIWdVHUVvoPcpmeXRBHc=", "properties": {"@source_uri": "https://tools.usps.com/UspsToolsRestServices/rest/POLocator/findLocations", "@spider": "usps_collection_boxes", "addr:city": "NORMANGEE", "addr:country": "US", "addr:postcode": "77871", "addr:state": "TX", "addr:street_address": "201 HOLLIS ST", "amenity": "post_box", "brand": "United States Postal Service", "brand:wikidata": "Q668687", "collection_times": "Mo-Fr 16:15; Sa 11:45", "note": "ON 12/24 AND 12/31, THIS BOX MAY BE COLLECTED AS EARLY AS 12 NOON.", "nsi_id": "unitedstatespostalservice-a77078", "operator": "United States Postal Service", "operator:short": "USPS", "operator:type": "public", "operator:wikidata": "Q668687", "ref": "7787100002"}, "type": "Feature"}
{"geometry": {"coordinates": [-96.115989, 31.028604], "type": "Point"}, "id": "uAZDk0BWdkvG2fZX0XyLT80WZhU=", "properties": {"@source_uri": "https://tools.usps.com/UspsToolsRestServices/rest/POLocator/findLocations", "@spider": "usps_collection_boxes", "addr:city": "NORMANGEE", "addr:country": "US", "addr:postcode": "77871", "addr:state": "TX", "addr:street_address": "201 HOLLIS ST", "amenity": "post_box", "brand": "United States Postal Service", "brand:wikidata": "Q668687", "collection_times": "Mo-Fr 16:15; Sa 11:45", "indoor": "yes", "note": "ON 12/24 AND 12/31, THIS BOX MAY BE COLLECTED AS EARLY AS 12 NOON.", "nsi_id": "unitedstatespostalservice-a77078", "operator": "United States Postal Service", "operator:short": "USPS", "operator:type": "public", "operator:wikidata": "Q668687", "ref": "7787100003"}, "type": "Feature"}
{"geometry": {"coordinates": [-96.115989, 31.028604], "type": "Point"}, "id": "6Lb-8ntx3oA9pgnzoJy3MvrAzNI=", "properties": {"@source_uri": "https://tools.usps.com/UspsToolsRestServices/rest/POLocator/findLocations", "@spider": "usps_collection_boxes", "addr:city": "NORMANGEE", "addr:country": "US", "addr:postcode": "77871", "addr:state": "TX", "addr:street_address": "201 HOLLIS ST", "amenity": "post_box", "brand": "United States Postal Service", "brand:wikidata": "Q668687", "collection_times": "Mo-Fr 16:15; Sa 11:45", "indoor": "yes", "note": "ON 12/24 AND 12/31, THIS BOX MAY BE COLLECTED AS EARLY AS 12 NOON.", "nsi_id": "unitedstatespostalservice-a77078", "operator": "United States Postal Service", "operator:short": "USPS", "operator:type": "public", "operator:wikidata": "Q668687", "ref": "7787100004"}, "type": "Feature"}
{"geometry": {"coordinates": [-96.211371, 31.070999], "type": "Point"}, "id": "Hq11UUymrzgjSVml3DztFRprNtk=", "properties": {"@source_uri": "https://tools.usps.com/UspsToolsRestServices/rest/POLocator/findLocations", "@spider": "usps_collection_boxes", "addr:city": "NORMANGEE", "addr:country": "US", "addr:postcode": "77871", "addr:state": "TX", "addr:street_address": "1 HOLSTER HWY", "amenity": "post_box", "brand": "United States Postal Service", "brand:wikidata": "Q668687", "collection_times": "Mo-Fr 13:30; Sa 11:45", "note": "ON 12/24 AND 12/31, THIS BOX MAY BE COLLECTED AS EARLY AS 12 NOON.", "nsi_id": "unitedstatespostalservice-a77078", "operator": "United States Postal Service", "operator:short": "USPS", "operator:type": "public", "operator:wikidata": "Q668687", "ref": "7787100005"}, "type": "Feature"}
{"geometry": {"coordinates": [-96.116032591, 31.028552423], "type": "Point"}, "id": "Vnvj2NAsnwC0Gju9ALplLERo4Zw=", "properties": {"@source_uri": "https://tools.usps.com/UspsToolsRestServices/rest/POLocator/findLocations", "@spider": "usps_collection_boxes", "addr:city": "NORMANGEE", "addr:country": "US", "addr:postcode": "77871", "addr:state": "TX", "addr:street_address": "201 HOLLIS ST", "amenity": "post_box", "brand": "United States Postal Service", "brand:wikidata": "Q668687", "collection_times": "Mo-Fr 16:15; Sa 12:00", "indoor": "yes", "note": "ON 12/24 AND 12/31, THIS BOX MAY BE COLLECTED AS EARLY AS 12 NOON.", "nsi_id": "unitedstatespostalservice-a77078", "operator": "United States Postal Service", "operator:short": "USPS", "operator:type": "public", "operator:wikidata": "Q668687", "ref": "7787100007"}, "type": "Feature"}
{"geometry": {"coordinates": [-96.104693, 30.916724], "type": "Point"}, "id": "fnAVikR9A-KtirrtGAh9o6yeBJc=", "properties": {"@source_uri": "https://tools.usps.com/UspsToolsRestServices/rest/POLocator/findLocations", "@spider": "usps_collection_boxes", "addr:city": "NORTH ZULCH", "addr:country": "US", "addr:postcode": "77872", "addr:state": "TX", "addr:street_address": "11337 5TH ST", "amenity": "post_box", "brand": "United States Postal Service", "brand:wikidata": "Q668687", "collection_times": "Mo-Fr 14:30; Sa 10:00", "note": "ON 12/24 AND 12/31, THIS BOX MAY BE COLLECTED AS EARLY AS 12 NOON.", "nsi_id": "unitedstatespostalservice-a77078", "operator": "United States Postal Service", "operator:short": "USPS", "operator:type": "public", "operator:wikidata": "Q668687", "ref": "7787200001"}, "type": "Feature"}
{"geometry": {"coordinates": [-96.104665, 30.916752], "type": "Point"}, "id": "-Uo56EDwiGZugtxO-YTa1oxQpCE=", "properties": {"@source_uri": "https://tools.usps.com/UspsToolsRestServices/rest/POLocator/findLocations", "@spider": "usps_collection_boxes", "addr:city": "NORTH ZULCH", "addr:country": "US", "addr:postcode": "77872", "addr:state": "TX", "addr:street_address": "11337 5TH ST", "amenity": "post_box", "brand": "United States Postal Service", "brand:wikidata": "Q668687", "collection_times": "Mo-Fr 14:30; Sa 10:00", "indoor": "yes", "note": "ON 12/24 AND 12/31, THIS BOX MAY BE COLLECTED AS EARLY AS 12 NOON.", "nsi_id": "unitedstatespostalservice-a77078", "operator": "United States Postal Service", "operator:short": "USPS", "operator:type": "public", "operator:wikidata": "Q668687", "ref": "7787200002"}, "type": "Feature"}
{"geometry": {"coordinates": [-96.104726897, 30.916643386], "type": "Point"}, "id": "HS5AcPkEkc4Y4gmpMZxiQPXzOgA=", "properties": {"@source_uri": "https://tools.usps.com/UspsToolsRestServices/rest/POLocator/findLocations", "@spider": "usps_collection_boxes", "addr:city": "NORTH ZULCH", "addr:country": "US", "addr:postcode": "77872", "addr:state": "TX", "addr:street_address": "11337 5TH ST", "amenity": "post_box", "brand": "United States Postal Service", "brand:wikidata": "Q668687", "collection_times": "Mo-Fr 14:30; Sa 10:00", "indoor": "yes", "note": "ON 12/24 AND 12/31, THIS BOX MAY BE COLLECTED AS EARLY AS 12 NOON.", "nsi_id": "unitedstatespostalservice-a77078", "operator": "United States Postal Service", "operator:short": "USPS", "operator:type": "public", "operator:wikidata": "Q668687", "ref": "7787200003"}, "type": "Feature"}
{"geometry": {"coordinates": [-95.8426116603, 30.5375695795], "type": "Point"}, "id": "jvDTph1Qt8fHS4_eB8qkC9-uUCs=", "properties": {"@source_uri": "https://tools.usps.com/UspsToolsRestServices/rest/POLocator/findLocations", "@spider": "usps_collection_boxes", "addr:city": "RICHARDS", "addr:country": "US", "addr:postcode": "77873", "addr:state": "TX", "addr:street_address": "11002 FM 149", "amenity": "post_box", "brand": "United States Postal Service", "brand:wikidata": "Q668687", "collection_times": "Mo-Fr 14:15; Sa 09:30", "note": "ON 12/24 AND 12/31, THIS BOX MAY BE COLLECTED AS EARLY AS 12 NOON.", "nsi_id": "unitedstatespostalservice-a77078", "operator": "United States Postal Service", "operator:short": "USPS", "operator:type": "public", "operator:wikidata": "Q668687", "ref": "7787300001"}, "type": "Feature"}
{"geometry": {"coordinates": [-95.842616, 30.537573], "type": "Point"}, "id": "LoSJrA5dWXtsUZS4UTYppAA1Slo=", "properties": {"@source_uri": "https://tools.usps.com/UspsToolsRestServices/rest/POLocator/findLocations", "@spider": "usps_collection_boxes", "addr:city": "RICHARDS", "addr:country": "US", "addr:postcode": "77873", "addr:state": "TX", "addr:street_address": "11002 FM 149", "amenity": "post_box", "brand": "United States Postal Service", "brand:wikidata": "Q668687", "collection_times": "Mo-Fr 14:15; Sa 09:30", "indoor": "yes", "note": "ON 12/24 AND 12/31, THIS BOX MAY BE COLLECTED AS EARLY AS 12 NOON.", "nsi_id": "unitedstatespostalservice-a77078", "operator": "United States Postal Service", "operator:short": "USPS", "operator:type": "public", "operator:wikidata": "Q668687", "ref": "7787300002"}, "type": "Feature"}
{"geometry": {"coordinates": [-95.842616, 30.537573], "type": "Point"}, "id": "4smxNXSMJ3W9iUxe6veAtyBuxIk=", "properties": {"@source_uri": "https://tools.usps.com/UspsToolsRestServices/rest/POLocator/findLocations", "@spider": "usps_collection_boxes", "addr:city": "RICHARDS", "addr:country": "US", "addr:postcode": "77873", "addr:state": "TX", "addr:street_address": "11002 FM 149", "amenity": "post_box", "brand": "United States Postal Service", "brand:wikidata": "Q668687", "collection_times": "Mo-Fr 14:15; Sa 09:30", "indoor": "yes", "note": "ON 12/24 AND 12/31, THIS BOX MAY BE COLLECTED AS EARLY AS 12 NOON.", "nsi_id": "unitedstatespostalservice-a77078", "operator": "United States Postal Service", "operator:short": "USPS", "operator:type": "public", "operator:wikidata": "Q668687", "ref": "7787300003"}, "type": "Feature"}
{"geometry": {"coordinates": [-95.84261166, 30.537569579], "type": "Point"}, "id": "boaz3y1f9TWj1ZaPVwdx2cvy9Qc=", "properties": {"@source_uri": "https://tools.usps.com/UspsToolsRestServices/rest/POLocator/findLocations", "@spider": "usps_collection_boxes", "addr:city": "RICHARDS", "addr:country": "US", "addr:postcode": "77873", "addr:state": "TX", "addr:street_address": "11002 FM 149", "amenity": "post_box", "brand": "United States Postal Service", "brand:wikidata": "Q668687", "collection_times": "Mo-Fr 14:30; Sa 10:15", "indoor": "yes", "note": "ON 12/24 AND 12/31, THIS BOX MAY BE COLLECTED AS EARLY AS 12 NOON.", "nsi_id": "unitedstatespostalservice-a77078", "operator": "United States Postal Service", "operator:short": "USPS", "operator:type": "public", "operator:wikidata": "Q668687", "ref": "7787300004"}, "type": "Feature"}
{"geometry": {"coordinates": [-95.8896643349, 30.6126008679], "type": "Point"}, "id": "3uVghtZqnLysGWkyk49poiFpvxc=", "properties": {"@source_uri": "https://tools.usps.com/UspsToolsRestServices/rest/POLocator/findLocations", "@spider": "usps_collection_boxes", "addr:city": "SHIRO", "addr:country": "US", "addr:postcode": "77876", "addr:state": "TX", "addr:street_address": "19431 HIGHWAY 30", "amenity": "post_box", "brand": "United States Postal Service", "brand:wikidata": "Q668687", "collection_times": "Mo-Fr 13:45; Sa 10:00", "note": "ON 12/24 AND 12/31, THIS BOX MAY BE COLLECTED AS EARLY AS 12 NOON.", "nsi_id": "unitedstatespostalservice-a77078", "operator": "United States Postal Service", "operator:short": "USPS", "operator:type": "public", "operator:wikidata": "Q668687", "ref": "7787600001"}, "type": "Feature"}
{"geometry": {"coordinates": [-95.8879984043, 30.6130006288], "type": "Point"}, "id": "ChWmjZO-h-XMipDfh81Yup7fB3s=", "properties": {"@source_uri": "https://tools.usps.com/UspsToolsRestServices/rest/POLocator/findLocations", "@spider": "usps_collection_boxes", "addr:city": "SHIRO", "addr:country": "US", "addr:postcode": "77876", "addr:state": "TX", "addr:street_address": "19431 HIGHWAY 30", "amenity": "post_box", "brand": "United States Postal Service", "brand:wikidata": "Q668687", "collection_times": "Mo-Fr 13:45; Sa 10:00", "indoor": "yes", "note": "ON 12/24 AND 12/31, THIS BOX MAY BE COLLECTED AS EARLY AS 12 NOON.", "nsi_id": "unitedstatespostalservice-a77078", "operator": "United States Postal Service", "operator:short": "USPS", "operator:type": "public", "operator:wikidata": "Q668687", "ref": "7787600002"}, "type": "Feature"}
{"geometry": {"coordinates": [-95.889664335, 30.612600868], "type": "Point"}, "id": "uBw7tPPDwKSMr-7tHqpe7UJtza0=", "properties": {"@source_uri": "https://tools.usps.com/UspsToolsRestServices/rest/POLocator/findLocations", "@spider": "usps_collection_boxes", "addr:city": "SHIRO", "addr:country": "US", "addr:postcode": "77876", "addr:state": "TX", "addr:street_address": "19431 HIGHWAY 30", "amenity": "post_box", "brand": "United States Postal Service", "brand:wikidata": "Q668687", "collection_times": "Mo-Fr 14:00; Sa 10:00", "indoor": "yes", "note": "ON 12/24 AND 12/31, THIS BOX MAY BE COLLECTED AS EARLY AS 12 NOON.", "nsi_id": "unitedstatespostalservice-a77078", "operator": "United States Postal Service", "operator:short": "USPS", "operator:type": "public", "operator:wikidata": "Q668687", "ref": "7787600003"}, "type": "Feature"}
{"geometry": {"coordinates": [-96.4683964779, 30.4924716799], "type": "Point"}, "id": "uS13f2r_M7NiKbxaD9J1VXxkI8M=", "properties": {"@source_uri": "https://tools.usps.com/UspsToolsRestServices/rest/POLocator/findLocations", "@spider": "usps_collection_boxes", "addr:city": "SNOOK", "addr:country": "US", "addr:postcode": "77878", "addr:state": "TX", "addr:street_address": "9999 FM 2155", "amenity": "post_box", "brand": "United States Postal Service", "brand:wikidata": "Q668687", "collection_times": "Mo-Fr 16:30; Sa 09:15", "note": "ON 12/24 AND 12/31, THIS BOX MAY BE COLLECTED AS EARLY AS 12 NOON.", "nsi_id": "unitedstatespostalservice-a77078", "operator": "United States Postal Service", "operator:short": "USPS", "operator:type": "public", "operator:wikidata": "Q668687", "ref": "7787800001"}, "type": "Feature"}
{"geometry": {"coordinates": [-96.468777, 30.492725], "type": "Point"}, "id": "-MA7WJgTVpY7l7cddkChe9XR1hg=", "properties": {"@source_uri": "https://tools.usps.com/UspsToolsRestServices/rest/POLocator/findLocations", "@spider": "usps_collection_boxes", "addr:city": "SNOOK", "addr:country": "US", "addr:postcode": "77878", "addr:state": "TX", "addr:street_address": "9999 FM 2155", "amenity": "post_box", "brand": "United States Postal Service", "brand:wikidata": "Q668687", "collection_times": "Mo-Fr 16:30; Sa 09:15", "indoor": "yes", "note": "ON 12/24 AND 12/31, THIS BOX MAY BE COLLECTED AS EARLY AS 12 NOON.", "nsi_id": "unitedstatespostalservice-a77078", "operator": "United States Postal Service", "operator:short": "USPS", "operator:type": "public", "operator:wikidata": "Q668687", "ref": "7787800002"}, "type": "Feature"}
{"geometry": {"coordinates": [-96.468465282, 30.492520395], "type": "Point"}, "id": "yky6pdyQbSnN7D0Xn-8DKjt0HNg=", "properties": {"@source_uri": "https://tools.usps.com/UspsToolsRestServices/rest/POLocator/findLocations", "@spider": "usps_collection_boxes", "addr:city": "SNOOK", "addr:country": "US", "addr:postcode": "77878", "addr:state": "TX", "addr:street_address": "9999 FM 2155", "amenity": "post_box", "brand": "United States Postal Service", "brand:wikidata": "Q668687", "collection_times": "Mo-Fr 16:30", "indoor": "yes", "note": "ON 12/24 AND 12/31, THIS BOX MAY BE COLLECTED AS EARLY AS 12 NOON.", "nsi_id": "unitedstatespostalservice-a77078", "operator": "United States Postal Service", "operator:short": "USPS", "operator:type": "public", "operator:wikidata": "Q668687", "ref": "7787800003"}, "type": "Feature"}
{"geometry": {"coordinates": [-96.54014, 30.33674], "type": "Point"}, "id": "vrucvL7ZzNZYh1xljf37oVpGcvA=", "properties": {"@source_uri": "https://tools.usps.com/UspsToolsRestServices/rest/POLocator/findLocations", "@spider": "usps_collection_boxes", "addr:city": "SOMERVILLE", "addr:country": "US", "addr:postcode": "77879", "addr:state": "TX", "addr:street_address": "199 8TH ST", "amenity": "post_box", "brand": "United States Postal Service", "brand:wikidata": "Q668687", "collection_times": "Mo-Fr 16:30; Sa 10:30", "note": "ON 12/24 AND 12/31, THIS BOX MAY BE COLLECTED AS EARLY AS 12 NOON.", "nsi_id": "unitedstatespostalservice-a77078", "operator": "United States Postal Service", "operator:short": "USPS", "operator:type": "public", "operator:wikidata": "Q668687", "ref": "7787900001"}, "type": "Feature"}
{"geometry": {"coordinates": [-96.54014, 30.33674], "type": "Point"}, "id": "mSlGpySlaj1BLznkEIx62jFwqT0=", "properties": {"@source_uri": "https://tools.usps.com/UspsToolsRestServices/rest/POLocator/findLocations", "@spider": "usps_collection_boxes", "addr:city": "SOMERVILLE", "addr:country": "US", "addr:postcode": "77879", "addr:state": "TX", "addr:street_address": "199 8TH ST", "amenity": "post_box", "brand": "United States Postal Service", "brand:wikidata": "Q668687", "collection_times": "Mo-Fr 16:30; Sa 10:30", "indoor": "yes", "note": "ON 12/24 AND 12/31, THIS BOX MAY BE COLLECTED AS EARLY AS 12 NOON.", "nsi_id": "unitedstatespostalservice-a77078", "operator": "United States Postal Service", "operator:short": "USPS", "operator:type": "public", "operator:wikidata": "Q668687", "ref": "7787900003"}, "type": "Feature"}
{"geometry": {"coordinates": [-96.529695803, 30.345574035], "type": "Point"}, "id": "cWGgHMBLC6uYlfvN0JNsz5freAs=", "properties": {"@source_uri": "https://tools.usps.com/UspsToolsRestServices/rest/POLocator/findLocations", "@spider": "usps_collection_boxes", "addr:city": "SOMERVILLE", "addr:country": "US", "addr:postcode": "77879", "addr:state": "TX", "addr:street_address": "199 8TH ST", "amenity": "post_box", "brand": "United States Postal Service", "brand:wikidata": "Q668687", "collection_times": "Mo-Fr 16:30; Sa 11:00", "indoor": "yes", "note": "ON 12/24 AND 12/31, THIS BOX MAY BE COLLECTED AS EARLY AS 12 NOON.", "nsi_id": "unitedstatespostalservice-a77078", "operator": "United States Postal Service", "operator:short": "USPS", "operator:type": "public", "operator:wikidata": "Q668687", "ref": "7787900005"}, "type": "Feature"}
{"geometry": {"coordinates": [-96.1578447, 30.325354], "type": "Point"}, "id": "wypE_AKYJ_yJCUZyoaMaGiNTrYs=", "properties": {"@source_uri": "https://tools.usps.com/UspsToolsRestServices/rest/POLocator/findLocations", "@spider": "usps_collection_boxes", "addr:city": "WASHINGTON", "addr:country": "US", "addr:postcode": "77880", "addr:state": "TX", "addr:street_address": "23295 FM 1155 E", "amenity": "post_box", "brand": "United States Postal Service", "brand:wikidata": "Q668687", "collection_times": "Mo-Fr 13:30; Sa 09:00", "note": "ON 12/24 AND 12/31, THIS BOX MAY BE COLLECTED AS EARLY AS 12 NOON.", "nsi_id": "unitedstatespostalservice-a77078", "operator": "United States Postal Service", "operator:short": "USPS", "operator:type": "public", "operator:wikidata": "Q668687", "ref": "7788000001"}, "type": "Feature"}
{"geometry": {"coordinates": [-96.1578249, 30.325439], "type": "Point"}, "id": "DQ4GfWzfvJhOgZKv9aKlDGvL3c0=", "properties": {"@source_uri": "https://tools.usps.com/UspsToolsRestServices/rest/POLocator/findLocations", "@spider": "usps_collection_boxes", "addr:city": "WASHINGTON", "addr:country": "US", "addr:postcode": "77880", "addr:state": "TX", "addr:street_address": "23295 FM 1155 E", "amenity": "post_box", "brand": "United States Postal Service", "brand:wikidata": "Q668687", "collection_times": "Mo-Fr 13:30; Sa 09:00", "indoor": "yes", "note": "ON 12/24 AND 12/31, THIS BOX MAY BE COLLECTED AS EARLY AS 12 NOON.", "nsi_id": "unitedstatespostalservice-a77078", "operator": "United States Postal Service", "operator:short": "USPS", "operator:type": "public", "operator:wikidata": "Q668687", "ref": "7788000002"}, "type": "Feature"}
{"geometry": {"coordinates": [-96.15787114, 30.325493673], "type": "Point"}, "id": "67-hIhap-bFkP7R7rZ1WQ47z1hs=", "properties": {"@source_uri": "https://tools.usps.com/UspsToolsRestServices/rest/POLocator/findLocations", "@spider": "usps_collection_boxes", "addr:city": "WASHINGTON", "addr:country": "US", "addr:postcode": "77880", "addr:state": "TX", "addr:street_address": "23295 FM 1155 E", "amenity": "post_box", "brand": "United States Postal Service", "brand:wikidata": "Q668687", "collection_times": "Mo-Fr 13:45; Sa 09:30", "indoor": "yes", "note": "ON 12/24 AND 12/31, THIS BOX MAY BE COLLECTED AS EARLY AS 12 NOON.", "nsi_id": "unitedstatespostalservice-a77078", "operator": "United States Postal Service", "operator:short": "USPS", "operator:type": "public", "operator:wikidata": "Q668687", "ref": "7788000004"}, "type": "Feature"}
{"geometry": {"coordinates": [-96.301591, 30.533339], "type": "Point"}, "id": "5uvKoHY9VO6mni4PpmuvafUbPnQ=", "properties": {"@source_uri": "https://tools.usps.com/UspsToolsRestServices/rest/POLocator/findLocations", "@spider": "usps_collection_boxes", "addr:city": "WELLBORN", "addr:country": "US", "addr:postcode": "77881", "addr:state": "TX", "addr:street_address": "14881 FM 2154", "amenity": "post_box", "brand": "United States Postal Service", "brand:wikidata": "Q668687", "collection_times": "Mo-Fr 14:30; Sa 08:30", "indoor": "yes", "note": "ON 12/24 AND 12/31, THIS BOX MAY BE COLLECTED AS EARLY AS 12 NOON.", "nsi_id": "unitedstatespostalservice-a77078", "operator": "United States Postal Service", "operator:short": "USPS", "operator:type": "public", "operator:wikidata": "Q668687", "ref": "7788100002"}, "type": "Feature"}
{"geometry": {"coordinates": [-96.3017290821, 30.535497], "type": "Point"}, "id": "cz1yVPqnYTdFqA1sRGUxC1L7dtI=", "properties": {"@source_uri": "https://tools.usps.com/UspsToolsRestServices/rest/POLocator/findLocations", "@spider": "usps_collection_boxes", "addr:city": "WELLBORN", "addr:country": "US", "addr:postcode": "77881", "addr:state": "TX", "addr:street_address": "14881 FM 2154", "amenity": "post_box", "brand": "United States Postal Service", "brand:wikidata": "Q668687", "collection_times": "Mo-Fr 15:00; Sa 09:00", "indoor": "yes", "note": "ON 12/24 AND 12/31, THIS BOX MAY BE COLLECTED AS EARLY AS 12 NOON.", "nsi_id": "unitedstatespostalservice-a77078", "operator": "United States Postal Service", "operator:short": "USPS", "operator:type": "public", "operator:wikidata": "Q668687", "ref": "7788100004"}, "type": "Feature"}
{"geometry": {"coordinates": [-96.30169, 30.5355], "type": "Point"}, "id": "pzIfH5N-t-YEfS7Na3uke2T7CGA=", "properties": {"@source_uri": "https://tools.usps.com/UspsToolsRestServices/rest/POLocator/findLocations", "@spider": "usps_collection_boxes", "addr:city": "WELLBORN", "addr:country": "US", "addr:postcode": "77881", "addr:state": "TX", "addr:street_address": "14881 FM 2154", "amenity": "post_box", "brand": "United States Postal Service", "brand:wikidata": "Q668687", "collection_times": "Mo-Fr 14:30; Sa 08:30", "note": "ON 12/24 AND 12/31, THIS BOX MAY BE COLLECTED AS EARLY AS 12 NOON.", "nsi_id": "unitedstatespostalservice-a77078", "operator": "United States Postal Service", "operator:short": "USPS", "operator:type": "public", "operator:wikidata": "Q668687", "ref": "7788100005"}, "type": "Feature"}
{"geometry": {"coordinates": [-96.391698499, 30.899137768], "type": "Point"}, "id": "bSz_IjH-wI26ecpt3o8PI_9sk4k=", "properties": {"@source_uri": "https://tools.usps.com/UspsToolsRestServices/rest/POLocator/findLocations", "@spider": "usps_collection_boxes", "addr:city": "WHEELOCK", "addr:country": "US", "addr:postcode": "77882", "addr:state": "TX", "addr:street_address": "11546 S FM 46", "amenity": "post_box", "brand": "United States Postal Service", "brand:wikidata": "Q668687", "collection_times": "Mo-Fr 12:45; Sa 09:30", "note": "ON 12/24 AND 12/31, THIS BOX MAY BE COLLECTED AS EARLY AS 12 NOON.", "nsi_id": "unitedstatespostalservice-a77078", "operator": "United States Postal Service", "operator:short": "USPS", "operator:type": "public", "operator:wikidata": "Q668687", "ref": "7788200001"}, "type": "Feature"}
{"geometry": {"coordinates": [-96.391698499, 30.899137768], "type": "Point"}, "id": "zu52VI6GPg0a9VwH8o1F6qKWLSs=", "properties": {"@source_uri": "https://tools.usps.com/UspsToolsRestServices/rest/POLocator/findLocations", "@spider": "usps_collection_boxes", "addr:city": "WHEELOCK", "addr:country": "US", "addr:postcode": "77882", "addr:state": "TX", "addr:street_address": "11546 S FM 46", "amenity": "post_box", "brand": "United States Postal Service", "brand:wikidata": "Q668687", "collection_times": "Mo-Fr 12:45; Sa 09:30", "indoor": "yes", "note": "ON 12/24 AND 12/31, THIS BOX MAY BE COLLECTED AS EARLY AS 12 NOON.", "nsi_id": "unitedstatespostalservice-a77078", "operator": "United States Postal Service", "operator:short": "USPS", "operator:type": "public", "operator:wikidata": "Q668687", "ref": "7788200002"}, "type": "Feature"}
{"geometry": {"coordinates": [-96.391698499, 30.899137768], "type": "Point"}, "id": "Z5-m4dUWN4kJAZuOEeLUmBgS62M=", "properties": {"@source_uri": "https://tools.usps.com/UspsToolsRestServices/rest/POLocator/findLocations", "@spider": "usps_collection_boxes", "addr:city": "WHEELOCK", "addr:country": "US", "addr:postcode": "77882", "addr:state": "TX", "addr:street_address": "11546 S FM 46", "amenity": "post_box", "brand": "United States Postal Service", "brand:wikidata": "Q668687", "collection_times": "Mo-Fr 13:00; Sa 10:00", "indoor": "yes", "note": "ON 12/24 AND 12/31, THIS BOX MAY BE COLLECTED AS EARLY AS 12 NOON.", "nsi_id": "unitedstatespostalservice-a77078", "operator": "United States Postal Service", "operator:short": "USPS", "operator:type": "public", "operator:wikidata": "Q668687", "ref": "7788200004"}, "type": "Feature"}
